##########################################################
# Query made at 04/19/2024 23:46:43 UTC
# Time interval: from 12/01/2015 12:00  to 12/31/2015 12:59  UTC
##########################################################

##########################################################
# KATL, Atlanta, Hartsfield - Jackson Atlanta International Airport (United States)
# WMO index: 72219. WIGOS ID: 0-20000-0-72219
# Latitude 33-38-59N. Longitude 084-25-00W. Altitude 312 m.
##########################################################

201512311252 METAR KATL 311252Z 32013KT 4SM -DZ BR BKN006 BKN014 OVC026 12/10 A3015 RMK AO2 RAE29DZB30 SLP210 CIG 004V008 P0001 T01220100=
201512311159 SPECI KATL 311159Z 34008KT 3SM -RA BR BKN005 BKN012 OVC022 13/11 A3013 RMK AO2 VIS 2V4 CIG 003V007 P0001 T01280111=
201512311152 METAR KATL 311152Z 33008KT 2 1/2SM -RA BR SCT005 BKN012 OVC020 13/12 A3013 RMK AO2 SLP203 VIS 2V3 P0010 60021 70158 T01280117 10156 20128 53002=
201512311148 SPECI KATL 311148Z 34008KT 2SM RA BR SCT005 BKN012 OVC020 13/12 A3013 RMK AO2 VIS 1V3 P0010=
201512311135 SPECI KATL 311135Z 34007KT 2SM +RA BR BKN005 BKN010 OVC018 13/12 A3013 RMK AO2 CIG 003V007 P0004 T01280117=
201512311052 METAR KATL 311052Z 34009KT 4SM -RA BR BKN005 BKN010 OVC018 13/12 A3012 RMK AO2 SLP198 CIG 003V007 P0003 T01330117=
201512311038 SPECI KATL 311038Z 34009KT 3SM -RA BR BKN005 BKN012 OVC022 13/12 A3012 RMK AO2 VIS 2V4 CIG 003V007 P0003 T01330117=
201512311020 SPECI KATL 311020Z 33008KT 3SM -RA BR SCT004 BKN010 OVC018 13/12 A3012 RMK AO2 VIS 2V4 P0001 T01330117=
201512310952 METAR KATL 310952Z 32009KT 4SM -RA BR BKN004 BKN010 OVC016 13/12 A3012 RMK AO2 SLP200 CIG 003V006 P0004 T01330122=
201512310929 SPECI KATL 310929Z 32008KT 9SM -RA BKN005 BKN010 OVC018 14/12 A3013 RMK AO2 CIG 003V007 P0004 T01390122=
201512310916 SPECI KATL 310916Z 33008KT 3SM -RA BR BKN003 OVC010 14/13 A3012 RMK AO2 VIS 2V4 CIG 002V005 P0004 T01390128=
201512310902 SPECI KATL 310902Z 34010KT 1 3/4SM -RA BR OVC003 14/13 A3013 RMK AO2 VIS 1 1/4V3 CIG 002V005 P0001 T01440133=
201512310852 METAR KATL 310852Z 33007KT 3SM -RA BR OVC004 14/13 A3013 RMK AO2 SLP200 CIG 003V005 P0003 60004 T01440133 53002=
201512310835 SPECI KATL 310835Z 33006KT 3SM -RA BR OVC002 14/13 A3012 RMK AO2 P0003 T01440133=
201512310830 SPECI KATL 310830Z 33007KT 2 1/2SM -RA BR OVC002 14/13 A3012 RMK AO2 P0003 T01440133=
201512310820 SPECI KATL 310820Z 33007KT 1 1/2SM -RA BR OVC002 14/13 A3012 RMK AO2 P0001 T01440133=
201512310752 METAR KATL 310752Z 32009KT 2SM -RA BR BKN003 BKN010 OVC022 14/13 A3012 RMK AO2 RAB19DZB39E45 SLP198 CIG 002V005 P0001 T01440133=
201512310747 SPECI KATL 310747Z 32010KT 2 1/2SM -RA BR SCT003 BKN015 OVC022 15/13 A3012 RMK AO2 RAB19DZB39E45 P0001=
201512310745 SPECI KATL 310745Z 32010KT 2 1/2SM -RA BR FEW003 BKN015 OVC022 15/14 A3012 RMK AO2 RAB19DZB39E45 P0001 T01500139=
201512310652 METAR KATL 310652Z 25003KT 7SM SCT003 OVC028 15/14 A3012 RMK AO2 SLP196 T01500139=
201512310552 METAR KATL 310552Z 18004KT 6SM BR SCT002 BKN040 OVC090 15/14 A3012 RMK AO2 SLP197 VIS LWR E-S-SW SCT002 V BKN 60006 T01500139 10150 20144 58013=
201512310543 SPECI KATL 310543Z 19003KT 5SM BR SCT002 BKN040 OVC090 15/14 A3012 RMK AO2 VIS LWR E-S-SW T01500139=
201512310452 METAR KATL 310452Z 18004KT 7SM FEW002 SCT050 BKN090 OVC150 14/13 A3013 RMK AO2 RAE0358 SLP202 VIS LWR SE-SW P0000 T01440133 401890144=
201512310352 METAR KATL 310352Z 15004KT 8SM -RA FEW003 SCT040 BKN110 OVC150 15/14 A3015 RMK AO2 RAB27 SLP206 P0000 T01500139=
201512310252 METAR KATL 310252Z 25003KT 7SM FEW003 BKN035 OVC060 15/14 A3016 RMK AO2 RAE03B20E32 SLP209 P0000 60006 T01500139 58004=
201512310152 METAR KATL 310152Z 00000KT 6SM -RA BR FEW003 BKN038 OVC090 15/14 A3018 RMK AO2 SLP217 P0006 T01500139=
201512310136 SPECI KATL 310136Z 00000KT 4SM -RA BR SCT004 BKN040 OVC090 15/14 A3019 RMK AO2 P0005 T01500139=
201512310127 SPECI KATL 310127Z 22005KT 2SM RA BR BKN004 BKN040 OVC090 15/13 A3020 RMK AO2 SFC VIS 4 CIG 003V006 P0003 T01500133=
201512310126 SPECI KATL 310126Z 22005KT 4SM RA BR BKN004 BKN040 OVC090 15/13 A3020 RMK AO2 CIG 003V006 P0003 T01500133=
201512310052 METAR KATL 310052Z 21004KT 7SM -RA FEW003 BKN040 OVC090 15/13 A3018 RMK AO2 RAB49 SLP215 VIS LWR SW-NW P0000 T01500133=
201512302352 METAR KATL 302352Z 00000KT 8SM FEW003 BKN040 BKN090 OVC150 15/13 A3017 RMK AO2 RAE00 SLP214 P0000 60012 T01500133 10156 20144 53001=
201512302252 METAR KATL 302252Z 34005KT 9SM -RA FEW004 BKN050 BKN100 OVC150 14/13 A3015 RMK AO2 RAB10E19B49 SLP208 P0000 T01440133=
201512302152 METAR KATL 302152Z 31007KT 9SM FEW005 SCT060 BKN100 OVC150 14/13 A3016 RMK AO2 RAE17 SLP210 P0001 T01440133=
201512302103 SPECI KATL 302103Z 33005KT 9SM -RA FEW005 BKN060 OVC100 14/13 A3015 RMK AO2 P0001 T01440133=
201512302052 METAR KATL 302052Z 29009KT 4SM -RA BR BKN005 BKN065 OVC100 14/13 A3017 RMK AO2 SLP213 P0002 60011 T01440133 55001=
201512302003 SPECI KATL 302003Z 32006KT 6SM -RA BR FEW005 SCT030 OVC110 14/13 A3014 RMK AO2 P0001 T01440133=
201512301952 METAR KATL 301952Z 34005KT 6SM -RA BR FEW015 SCT030 OVC110 14/13 A3014 RMK AO2 SLP203 P0002 T01440133=
201512301852 METAR KATL 301852Z 00000KT 9SM -RA FEW007 BKN020 OVC040 14/13 A3019 RMK AO2 TSB18E34 SLP220 TS MOV NE P0007 T01440128=
201512301834 SPECI KATL 301834Z 26004KT 5SM -RA BR FEW007 BKN020 OVC040 14/13 A3020 RMK AO2 TSB18E34 TS MOV NE P0006 T01440128=
201512301828 SPECI KATL 301828Z 28005KT 4SM TSRA BR FEW008 BKN020CB OVC040 14/13 A3019 RMK AO2 TSB18 VIS LWR E SHRA OCNL LTGIC E TS VC E MOV NE P0005 T01440128=
201512301818 SPECI KATL 301818Z 27005KT 4SM TSRA BR SCT008 BKN014CB OVC043 14/13 A3018 RMK AO2 TSB18 VIS LWR SE SHRA OCNL LTGIC SE TS SE MOV NE P0002 T01440128=
201512301755 SPECI KATL 301755Z 32011KT 5SM -RA BR BKN005 BKN010 OVC030 15/13 A3017 RMK AO2 P0000 T01500133=
201512301752 METAR KATL 301752Z 31012KT 1 1/2SM -RA BR BKN005 BKN010 OVC030 16/13 A3017 RMK AO2 SFC VIS 6 TSE06 SLP214 TS MOV NE P0006 60119 T01560133 10189 20156 53006=
201512301726 SPECI KATL 301726Z 31013KT 1 1/2SM -RA BR FEW005 BKN008 OVC020 16/15 A3017 RMK AO2 SFC VIS 4 TSE06 TS MOV NE P0004 T01610150=
201512301719 SPECI KATL 301719Z 31012KT 1SM R09R/P6000FT -RA BR BKN005 BKN020 OVC075 17/15 A3016 RMK AO2 SFC VIS 4 TSE06 TS MOV NE P0004 T01670150=
201512301717 SPECI KATL 301717Z 31012KT 1SM R09R/P6000FT -RA BR SCT005 BKN020 OVC050 17/16 A3016 RMK AO2 SFC VIS 5 TSE06 TS MOV NE P0004 T01670156=
201512301707 SPECI KATL 301707Z 31009KT 3SM RA BR FEW005 BKN030 OVC080 17/15 A3017 RMK AO2 SFC VIS 4 TSE06 TS MOV NE P0001 T01670150 $=
201512301656 SPECI KATL 301656Z 33003KT 3SM R09R/3000VP6000FT -TSRA BR FEW005 SCT010CB OVC030 17/16 A3016 RMK AO2 SFC VIS 4 VIS LWR NE-SE SHRA OCNL LTGICCG NE-SE TS NE-SE MOV NE P0000 T01720156 $=
201512301652 METAR KATL 301652Z 00000KT 1 1/2SM R09R/3000VP6000FT +TSRA BR FEW005 BKN010CB OVC050 17/16 A3014 RMK AO2 SFC VIS 2 TSB34 PRESFR SLP204 OCNL LTGIC OHD TS OHD MOV NE P0022 T01670156 $=
201512301646 SPECI KATL 301646Z VRB05KT 1 1/2SM R09R/3500VP6000FT TSRA BR FEW005 BKN010CB OVC050 17/16 A3017 RMK AO2 TWR VIS 3 TSB34 OCNL LTGIC OHD TS OHD MOV NE P0007=
201512301635 SPECI KATL 301635Z 35007KT 4SM -TSRA BR BKN005 BKN010CB OVC050 17/16 A3017 RMK AO2 TSB34 VIS LWR SW-W SHRA OCNL LTGIC SW-W TS VC SW-W MOV NE P0003 T01720156=
201512301626 SPECI KATL 301626Z 32007KT 4SM -RA BR BKN005 BKN010CB OVC030 17/16 A3019 RMK AO2 VIS LWR SW-NW SHRA CB SW-NW MOV NE P0001 T01720156=
201512301601 SPECI KATL 301601Z 29004KT 6SM -RA BR BKN005 BKN020 OVC030 17/16 A3017 RMK AO2 P0000 T01720161=
201512301552 METAR KATL 301552Z 32008KT 1 1/2SM R09R/5000VP6000FT -RA BR BKN005 BKN010 OVC030 17/16 A3017 RMK AO2 SFC VIS 4 RAB38 SLP215 P0002 T01720161=
201512301540 SPECI KATL 301540Z 32006KT 2 1/2SM -RA BR BKN005 BKN010 OVC030 18/16 A3018 RMK AO2 SFC VIS 4 RAB38 P0000 T01780161=
201512301502 SPECI KATL 301502Z 00000KT 5SM BR BKN005 BKN012 OVC030 18/17 A3016 RMK AO2 T01780167=
201512301452 METAR KATL 301452Z 12004KT 10SM FEW006 SCT030 SCT050 OVC200 18/16 A3015 RMK AO2 RAE34 TSE24 SLP207 TS MOV NE P0017 60089 T01780161 50007=
201512301434 SPECI KATL 301434Z 01005KT 10SM FEW010 BKN030 OVC060 17/16 A3015 RMK AO2 RAE34 TSE24 TS MOV NE P0017 T01720161=
201512301424 SPECI KATL 301424Z 01004KT 1 1/2SM -RA BR FEW007 BKN030 OVC055 17/16 A3015 RMK AO2 SFC VIS 4 TSE24 TS MOV NE P0016 T01720161=
201512301418 SPECI KATL 301418Z 34005KT 1 1/2SM +TSRA BR FEW015 BKN030CB OVC060 17/16 A3016 RMK AO2 SFC VIS 2 OCNL LTGICCA E-SE-S TS VC E-SE-S MOV NE P0014 T01720161=
201512301408 SPECI KATL 301408Z 36007KT 1 1/2SM R09R/6000VP6000FT -TSRA BR FEW006 BKN030CB OVC060 17/16 A3015 RMK AO2 SFC VIS 4 OCNL LTGICCA E-SE-S TS VC E-SE-S MOV NE P0013 T01720161=
201512301404 SPECI KATL 301404Z 35007KT 1SM R09R/5500VP6000FT +TSRA BR FEW006 BKN014 OVC027CB 17/16 A3015 RMK AO2 TWR VIS 1 1/2 VIS 3/4V2 1/2 OCNL LTGICCA E-SE-S TS VC E-SE-S MOV NE P0011 T01720161=
201512301352 METAR KATL 301352Z 33009KT 1 1/2SM TSRA BR SCT004 BKN014 OVC036CB 17/16 A3016 RMK AO2 SFC VIS 3 SLP209 OCNL LTGICCA NE-OHD-SW TS NE-OHD-SW MOV NE P0034 T01720161=
201512301346 SPECI KATL 301346Z 34010KT 1 1/2SM +TSRA BR BKN004 BKN014 OVC038CB 17/16 A3014 RMK AO2 SFC VIS 2 1/2 OCNL LTGICCA NE-OHD-SW TS NE-OHD-SW MOV NE CIG 003V005 TWRINC P0031=
201512301326 SPECI KATL 301326Z 34010KT 1/2SM R09R/P6000FT -TSRA BR BKN004 BKN045CB OVC085 19/18 A3014 RMK AO2 SFC VIS 4 OCNL LTGICCA NE-OHD-SW TS NE-OHD-SW MOV NE CIG 003V005 TWRINC P0013 T01890178=
201512301318 SPECI KATL 301318Z 32005KT 3SM -TSRA BR FEW004 BKN045CB OVC080 19/18 A3014 RMK AO2 OCNL LTGICCA OHD-ALQDS TS OHD-ALQDS MOV NE P0013 T01890178=
201512301252 METAR KATL 301252Z 23004KT 3SM TSRA BR FEW012 BKN038CB OVC075 19/18 A3013 RMK AO2 SLP199 OCNL LTGICCA OHD-ALQDS TS OHD-ALQDS MOV NE P0038 T01890178=
201512301228 SPECI KATL 301228Z 20004KT 2SM TSRA BR SCT012 BKN036CB OVC070 18/17 A3012 RMK AO2 OCNL LTGICCA OHD-ALQDS TS OHD-ALQDS MOV NE P0026 T01830172=
201512301156 SPECI KATL 301156Z 23004KT 1 1/4SM TSRA BR SCT004 BKN018 OVC040CB 18/17 A3012 RMK AO2 FRQ LTGICCA OHD-ALQDS TS OHD-ALQDS MOV NE P0003 T01780167=
201512301152 METAR KATL 301152Z 00000KT 1 1/4SM +TSRA BR BKN004 BKN016 OVC036CB 18/17 A3011 RMK AO2 TSB40 SLP193 FRQ LTGICCGCA OHD-ALQDS TS OHD-ALQDS MOV NE CIG 003V005 P0006 60008 70008 T01780167 10178 20161 55010=
201512301142 SPECI KATL 301142Z 15005KT 1/2SM R09R/P6000FT -TSRA BR OVC003CB 18/17 A3012 RMK AO2 SFC VIS 4 TSB40 FRQ LTGICCGCA SE-SW TS SE-SW MOV NE CIG 002V004 TWRINC P0001 T01780167=
201512301052 METAR KATL 301052Z 07006KT 1/2SM R09R/2200V3500FT -RA FG VV002 17/16 A3010 RMK AO2 DZE52RAB52 PRESFR SLP187 P0001 T01720161=
201512300952 METAR KATL 300952Z 08003KT 1/2SM R09R/5500VP6000FT -DZ BR OVC003 17/16 A3012 RMK AO2 SFC VIS 1 RAB13E28DZB33 SLP195 CIG 002V004 TWRINC P0001 T01720161 $=
201512300935 SPECI KATL 300935Z 13003KT 1/2SM R09R/P6000FT -DZ BR OVC003 17/16 A3013 RMK AO2 SFC VIS 1 1/2 RAB13E28DZB33 CIG 002V004 TWRINC P0001 T01720161 $=
201512300852 METAR KATL 300852Z 00000KT 1 1/2SM OVC003 17/16 A3014 RMK AO2 SFC VIS 8 SLP201 CIG 002V005 TWRINC 60000 T01720156 56004 $=
201512300752 METAR KATL 300752Z 14004KT 1 1/2SM BKN003 BKN036 BKN095 OVC200 17/14 A3015 RMK AO2 SFC VIS 10 DZE10 SLP203 CIG 002V005 TWRINC P0000 T01670144 $=
201512300652 METAR KATL 300652Z 11004KT 1 1/2SM -DZ BR BKN004 OVC018 16/14 A3015 RMK AO2 SFC VIS 6 RAB19E31DZB42 SLP204 CIG 003V006 TWRINC PCPN VRY LGT P0000 T01610139 $=
201512300648 SPECI KATL 300648Z 12004KT 1 1/2SM -DZ BKN005 OVC020 16/13 A3015 RMK AO2 SFC VIS 7 RAB19E31DZB42 CIG 004V007 TWRINC P0000 $=
201512300642 SPECI KATL 300642Z 13003KT 1 1/2SM -DZ SCT005 OVC020 16/13 A3016 RMK AO2 SFC VIS 7 RAB19E31DZB42 P0000 T01610128 $=
201512300600 SPECI KATL 300600Z 00000KT 10SM BKN023 OVC032 16/13 A3016 RMK AO2 T01610128 $=
201512300552 METAR KATL 300552Z 12003KT 10SM SCT025 BKN032 OVC120 16/13 A3016 RMK AO2 SLP208 T01610128 10178 20156 53001 $=
201512300452 METAR KATL 300452Z 08004KT 10SM FEW070 BKN200 BKN250 16/12 A3014 RMK AO2 SLP201 T01560122 402170139 $=
201512300352 METAR KATL 300352Z 00000KT 10SM FEW015 SCT070 BKN250 16/12 A3015 RMK AO2 SLP207 T01560122 $=
201512300252 METAR KATL 300252Z 00000KT 10SM FEW100 SCT200 BKN250 16/12 A3015 RMK AO2 SLP207 T01610122 53013 $=
201512300152 METAR KATL 300152Z 00000KT 10SM SCT200 BKN250 16/12 A3013 RMK AO2 SLP199 T01610122 $=
201512300052 METAR KATL 300052Z 29003KT 10SM FEW150 SCT200 BKN250 17/12 A3012 RMK AO2 SLP196 T01720117 $=
201512292352 METAR KATL 292352Z 25004KT 10SM FEW150 SCT200 SCT250 18/11 A3011 RMK AO2 SLP194 T01780111 10217 20178 53012 $=
201512292252 METAR KATL 292252Z 23003KT 10SM FEW150 SCT200 SCT250 19/11 A3009 RMK AO2 SLP186 T01890106=
201512292152 METAR KATL 292152Z 21007KT 10SM FEW150 FEW250 21/11 A3008 RMK AO2 SLP182 T02110106=
201512292052 METAR KATL 292052Z 25006KT 10SM FEW150 FEW250 22/12 A3008 RMK AO2 SLP179 T02170117 55001=
201512291952 METAR KATL 291952Z 25005KT 10SM FEW250 21/12 A3007 RMK AO2 SLP177 T02110122=
201512291852 METAR KATL 291852Z 21009KT 10SM FEW250 21/12 A3007 RMK AO2 SLP177 T02060117=
201512291752 METAR KATL 291752Z 18007KT 10SM FEW025 FEW250 19/12 A3008 RMK AO2 SLP180 T01890122 10194 20139 58007=
201512291652 METAR KATL 291652Z 25009KT 10SM FEW025 BKN150 19/12 A3010 RMK AO2 SLP186 T01890122=
201512291552 METAR KATL 291552Z 24007KT 10SM FEW015 SCT150 SCT250 17/13 A3010 RMK AO2 SLP188 T01670128=
201512291452 METAR KATL 291452Z 24007KT 10SM BKN010 BKN150 BKN250 16/13 A3008 RMK AO2 SLP183 T01560128 51021=
201512291352 METAR KATL 291352Z 21004KT 10SM FEW012 SCT150 BKN250 15/13 A3007 RMK AO2 SLP177 T01500128=
201512291252 METAR KATL 291252Z 22006KT 10SM FEW009 BKN120 BKN250 14/12 A3004 RMK AO2 SLP169 T01440122=
201512291152 METAR KATL 291152Z 24006KT 10SM FEW019 SCT100 15/13 A3002 RMK AO2 SLP161 70152 T01500128 10200 20150 53021=
201512291117 SPECI KATL 291117Z 25005KT 10SM FEW019 15/13 A3000 RMK AO2 T01500133=
201512291104 SPECI KATL 291104Z 00000KT 10SM BKN019 15/13 A3000 RMK AO2 T01500133=
201512291052 METAR KATL 291052Z 00000KT 10SM SCT019 SCT250 15/13 A3000 RMK AO2 SLP153 T01500133=
201512290952 METAR KATL 290952Z 23005KT 10SM FEW100 16/13 A2996 RMK AO2 SLP141 T01610133=
201512290852 METAR KATL 290852Z 23006KT 10SM FEW100 17/14 A2996 RMK AO2 SLP138 T01720139 53017=
201512290752 METAR KATL 290752Z 24012G17KT 10SM FEW014 SCT024 SCT080 19/15 A2993 RMK AO2 SLP130 T01890150=
201512290745 SPECI KATL 290745Z 24009KT 10SM FEW014 BKN024 19/16 A2993 RMK AO2 T01890156=
201512290702 SPECI KATL 290702Z 21005KT 10SM FEW009 BKN012 OVC027 19/18 A2991 RMK AO2 T01940178=
201512290652 METAR KATL 290652Z 23008KT 10SM FEW011 BKN023 OVC080 20/18 A2991 RMK AO2 SLP121 T02000178=
201512290630 SPECI KATL 290630Z 20006KT 10SM SCT012 BKN021 OVC130 20/18 A2991 RMK AO2 T02000178=
201512290618 SPECI KATL 290618Z 21007KT 10SM FEW010 SCT017 OVC130 20/18 A2990 RMK AO2 T02000178=
201512290552 METAR KATL 290552Z 21009KT 10SM FEW008 BKN018 OVC120 20/18 A2991 RMK AO2 RAB0455E05 SLP120 P0000 60114 T02000183 10206 20200 52007=
201512290452 METAR KATL 290452Z 19009KT 10SM FEW008 BKN014 OVC110 20/18 A2990 RMK AO2 SLP117 T02000183 402280189=
201512290352 METAR KATL 290352Z 18009KT 10SM FEW008 BKN013 OVC110 20/18 A2989 RMK AO2 SLP117 T02000183=
201512290347 SPECI KATL 290347Z 17010KT 10SM SCT008 BKN015 OVC110 20/18 A2989 RMK AO2=
201512290252 METAR KATL 290252Z 18010G15KT 10SM SCT007 BKN050 OVC080 20/18 A2989 RMK AO2 RAE50 SLP114 P0013 60114 T02000183 51008=
201512290241 SPECI KATL 290241Z 17008KT 6SM -RA BR SCT007 BKN030 OVC080 20/18 A2988 RMK AO2 P0013 T02000183=
201512290201 SPECI KATL 290201Z 19008KT 6SM -RA BR SCT006 BKN012 OVC080 20/19 A2989 RMK AO2 SCT006 V BKN P0003 T02000189=
201512290152 METAR KATL 290152Z 17008KT 4SM RA BR BKN007 BKN025 OVC070 20/19 A2988 RMK AO2 SLP113 CIG 005V010 P0020 T02000189=
201512290141 SPECI KATL 290141Z 18006KT 8SM -RA BKN008 BKN030 OVC070 20/19 A2989 RMK AO2 P0016 T02000189=
201512290125 SPECI KATL 290125Z 19009KT 5SM -RA BR FEW008 SCT030CB OVC070 20/18 A2988 RMK AO2 CB VC NE-SE MOV NE P0016 T02000183=
201512290058 SPECI KATL 290058Z 22010KT 3SM RA BR FEW008 BKN028CB OVC050 20/18 A2989 RMK AO2 CB NE-SE-S MOV NE P0002 T02000183=
201512290052 METAR KATL 290052Z 21010KT 2 1/2SM +RA BR FEW008 BKN025CB OVC050 20/18 A2989 RMK AO2 SLP114 CB NE-SE-S MOV NE P0081 T02000183=
201512290027 SPECI KATL 290027Z 22011G16KT 1 1/2SM R09R/6000VP6000FT +RA BR FEW008 BKN025CB OVC040 20/18 A2989 RMK AO2 PRESRR CB NE-OHD-SW MOV NE P0039 T02000183=
201512290003 SPECI KATL 290003Z 16013KT 2SM +RA BR BKN030CB BKN040 OVC060 20/18 A2986 RMK AO2 VIS LWR S-W-NW CB S-OHD-NW MOV NE P0010 T02000183=
201512282352 METAR KATL 282352Z COR 16009G15KT 3SM RA BR BKN030CB BKN040 OVC060 21/18 A2986 RMK AO2 SLP105 CB VC SW-NW MOV NE P0013 60038 T02060183 10228 20200 53005=
201512282252 METAR KATL 282252Z 15011KT 4SM RA BR BKN035 BKN050 OVC100 21/18 A2984 RMK AO2 SLP097 CB DSNT SW-NW P0010 T02060183=
201512282152 METAR KATL 282152Z 15011KT 10SM -RA BKN030CB BKN040 OVC050 21/18 A2985 RMK AO2 SLP100 VIS LWR SW-NW SHRA CB SW-NW MOV NE P0012 T02060183=
201512282139 SPECI KATL 282139Z 15009KT 10SM -RA SCT030CB BKN040 OVC060 21/18 A2984 RMK AO2 VIS LWR SW-NW SHRA CB SW-NW MOV NE P0012 T02060183=
201512282119 SPECI KATL 282119Z 15010KT 3SM RA BKN030CB BKN040 OVC060 21/18 A2984 RMK AO2 CB OHD-SW-NW MOV NE P0006 T02060178=
201512282052 METAR KATL 282052Z 15010KT 6SM -RA FEW023 BKN030CB OVC040 21/18 A2984 RMK AO2 RAB1959 SLP100 CB OHD-SW-NW MOV NE P0003 60003 T02110178 56025=
201512282012 SPECI KATL 282012Z 15011G24KT 10SM -RA BKN028 BKN035 OVC040 22/17 A2985 RMK AO2 RAB1959 P0000 T02170172=
201512281952 METAR KATL 281952Z 15013G20KT 10SM BKN030 BKN040 OVC150 22/17 A2985 RMK AO2 SLP101 SHRA VC SW-NW T02220167=
201512281852 METAR KATL 281852Z 15016G25KT 10SM FEW027 BKN035 BKN042 OVC150 22/17 A2988 RMK AO2 PK WND 15027/1800 SLP111 T02220167=
201512281752 METAR KATL 281752Z 16016G26KT 10SM BKN025 BKN035 OVC040 22/17 A2992 RMK AO2 PK WND 16027/1657 SLP125 60000 T02220167 10222 20200 58019=
201512281652 METAR KATL 281652Z 16021G27KT 10SM FEW015 BKN025 OVC030 22/17 A2996 RMK AO2 PK WND 15027/1652 RAE1554 SLP137 P0000 T02170167=
201512281612 SPECI KATL 281612Z 15013G20KT 10SM FEW015 BKN025 OVC040 21/18 A2997 RMK AO2 RAE1554 P0000 T02110178=
201512281552 METAR KATL 281552Z 16011KT 10SM -RA BKN015 BKN020 OVC040 21/18 A2998 RMK AO2 RAB22 SLP145 P0000 T02110183=
201512281549 SPECI KATL 281549Z 17010KT 10SM -RA BKN015 BKN020 OVC040 21/18 A2998 RMK AO2 RAB22 P0000=
201512281523 SPECI KATL 281523Z 15010KT 10SM -RA FEW010 BKN014 OVC020 21/18 A2999 RMK AO2 RAB22 P0000 T02110183=
201512281452 METAR KATL 281452Z 15011G20KT 10SM FEW010 BKN015 OVC020 21/18 A2998 RMK AO2 SLP147 T02110183 52008=
201512281410 SPECI KATL 281410Z 15011KT 7SM FEW008 BKN012 OVC015 21/19 A2998 RMK AO2 T02110189=
201512281352 METAR KATL 281352Z 16009KT 7SM OVC008 21/19 A2997 RMK AO2 SLP143 T02060189=
201512281252 METAR KATL 281252Z 16011KT 2 1/2SM BR OVC005 20/18 A2997 RMK AO2 SFC VIS 6 SLP141 T02000183=
201512281212 SPECI KATL 281212Z 15010KT 2 1/2SM OVC005 20/18 A2996 RMK AO2 SFC VIS 8 T02000183=
201512281152 METAR KATL 281152Z 14010KT 1 1/2SM BR OVC004 20/18 A2996 RMK AO2 SFC VIS 6 SLP138 TWRINC 60002 70003 T02000183 10200 20189 56009=
201512281135 SPECI KATL 281135Z 14009G16KT 1 1/2SM OVC004 19/18 A2996 RMK AO2 SFC VIS 8 TWRINC T01940183=
201512281120 SPECI KATL 281120Z 14007KT 8SM OVC004 19/18 A2996 RMK AO2 T01940183=
201512281052 METAR KATL 281052Z 13009KT 10SM BKN005 BKN010 OVC080 19/18 A2996 RMK AO2 SLP139 T01940178=
201512281041 SPECI KATL 281041Z 13007KT 10SM BKN005 OVC080 19/18 A2996 RMK AO2 T01940178=
201512280952 METAR KATL 280952Z 12007KT 10SM FEW005 BKN060 BKN085 19/18 A2996 RMK AO2 SLP139 T01940178=
201512280932 SPECI KATL 280932Z 12006KT 10SM SCT005 BKN034 BKN085 19/18 A2997 RMK AO2 T01940178=
201512280852 METAR KATL 280852Z 11007KT 10SM BKN005 BKN033 OVC060 19/18 A2999 RMK AO2 SLP147 60002 T01940178 58008=
201512280752 METAR KATL 280752Z 12005KT 10SM SCT005 OVC050 19/18 A3000 RMK AO2 RAE12B28E45 SLP151 P0001 T01940183=
201512280725 SPECI KATL 280725Z 16003KT 7SM BKN006 OVC026 19/18 A3001 RMK AO2 RAE12 P0000 T01940183=
201512280702 SPECI KATL 280702Z 14008KT 4SM -RA BR FEW006 SCT010 OVC024 19/18 A3001 RMK AO2 P0000 T01940183=
201512280652 METAR KATL 280652Z 14006KT 3SM -RA BR BKN005 OVC034 19/18 A3001 RMK AO2 RAB40 SLP155 P0001 T01940183=
201512280650 SPECI KATL 280650Z 15008KT 3SM -RA BR BKN005 OVC034 19/18 A3001 RMK AO2 RAB40 P0001=
201512280552 METAR KATL 280552Z 13007KT 10SM FEW005 SCT034 OVC044 19/18 A3001 RMK AO2 SLP156 BINOVC T01940183 10211 20194 58009=
201512280452 METAR KATL 280452Z 13006KT 10SM FEW005 OVC038 20/18 A3003 RMK AO2 SLP162 BINOVC T02000183 402390183=
201512280352 METAR KATL 280352Z 12008KT 7SM SCT004 SCT046 BKN200 BKN250 20/18 A3004 RMK AO2 SLP165 T02000183=
201512280349 SPECI KATL 280349Z 12007KT 7SM SCT004 SCT044 BKN200 BKN250 20/18 A3004 RMK AO2=
201512280334 SPECI KATL 280334Z 12007KT 7SM BKN004 BKN044 BKN200 BKN250 20/19 A3004 RMK AO2 CIG 003V006 T02000189=
201512280252 METAR KATL 280252Z 12006KT 7SM BKN005 BKN042 BKN200 BKN250 20/19 A3004 RMK AO2 SLP167 CIG 004V007 T02000189 50000=
201512280249 SPECI KATL 280249Z 12006KT 8SM SCT005 BKN040 BKN200 BKN250 20/18 A3004 RMK AO2=
201512280152 METAR KATL 280152Z 11005KT 10SM FEW034 BKN200 BKN250 21/18 A3005 RMK AO2 SLP170 T02060183=
201512280052 METAR KATL 280052Z 12004KT 10SM SCT024 BKN034 BKN180 OVC250 21/18 A3005 RMK AO2 SLP169 T02110183=
201512272352 METAR KATL 272352Z 13003KT 10SM FEW022 BKN180 OVC250 21/18 A3004 RMK AO2 SLP166 T02110178 10239 20211 53003=
201512272252 METAR KATL 272252Z 15003KT 10SM FEW024 FEW050 BKN180 BKN250 21/18 A3004 RMK AO2 SLP165 T02110178=
201512272152 METAR KATL 272152Z 17004KT 10SM FEW020 SCT045 BKN180 BKN250 23/18 A3002 RMK AO2 SLP160 T02280178=
201512272052 METAR KATL 272052Z 21007KT 10SM FEW020 SCT038 BKN045 BKN250 23/18 A3003 RMK AO2 SLP162 T02330178 56016=
201512271952 METAR KATL 271952Z 18012KT 10SM FEW020 BKN030TCU BKN038 23/18 A3004 RMK AO2 SLP166 TCU NE AND NW-N T02330183=
201512271931 SPECI KATL 271931Z 19008KT 10SM FEW020 BKN030TCU BKN038 23/18 A3005 RMK AO2 TCU ALQDS T02330183=
201512271852 METAR KATL 271852Z 17007KT 10SM BKN020 BKN025 BKN035 23/19 A3006 RMK AO2 SLP172 TCU DSNT N T02330189=
201512271752 METAR KATL 271752Z 19009KT 10SM FEW014 BKN022 BKN030 23/19 A3008 RMK AO2 SLP178 60001 T02280189 10228 20189 58022=
201512271742 SPECI KATL 271742Z 20011KT 10SM FEW014 BKN021 OVC030 22/19 A3008 RMK AO2 T02220189=
201512271720 SPECI KATL 271720Z 18007KT 10SM BKN012 OVC021 22/19 A3009 RMK AO2 T02220189=
201512271713 SPECI KATL 271713Z 19008KT 10SM SCT010 BKN017 OVC023 22/19 A3010 RMK AO2 T02220189=
201512271652 METAR KATL 271652Z 17008KT 10SM BKN009 OVC017 22/19 A3012 RMK AO2 SLP192 BINOVC T02170189=
201512271552 METAR KATL 271552Z 17007KT 8SM BKN008 OVC012 21/19 A3014 RMK AO2 SLP200 T02060189=
201512271516 SPECI KATL 271516Z 17007KT 3SM BR BKN005 OVC010 21/19 A3014 RMK AO2 SFC VIS 6 T02060189=
201512271452 METAR KATL 271452Z 17008KT 1SM R09R/P6000FT BR OVC005 20/19 A3015 RMK AO2 SFC VIS 4 DZE03 SLP202 CIG 004V006 TWRINC P0001 60001 T02000189 55002=
201512271433 SPECI KATL 271433Z 18007KT 1SM R09R/P6000FT BR BKN003 OVC005 20/19 A3014 RMK AO2 SFC VIS 3 DZE03 TWRINC P0001 T02000189=
201512271352 METAR KATL 271352Z 16007KT 1/4SM R09R/P6000FT -DZ BR OVC003 19/18 A3014 RMK AO2 SFC VIS 1 DZB17 SLP199 CIG 002V004 TWRINC P0000 T01940183=
201512271252 METAR KATL 271252Z 15008KT 1/4SM R09R/P6000FT BR OVC003 19/18 A3013 RMK AO2 SFC VIS 1 1/2 DZE52 SLP197 CIG 002V005 P0000 T01890183=
201512271152 METAR KATL 271152Z 13005KT 1/4SM R09R/P6000FT -DZ BR OVC002 19/18 A3015 RMK AO2 SFC VIS 1 DZB12 SLP204 P0000 60000 T01890183 10194 20183 53002=
201512271052 METAR KATL 271052Z 12007KT 1/4SM R09R/4500V6000FT BR OVC002 19/18 A3015 RMK AO2 SFC VIS 1 SLP203 T01940183=
201512271050 SPECI KATL 271050Z 13006KT 1SM R09R/5000V6000FT BR OVC002 19/18 A3015 RMK AO2 TWR VIS 1 1/2=
201512270952 METAR KATL 270952Z 14005KT 1 1/2SM BR OVC003 19/18 A3014 RMK AO2 SFC VIS 3 SLP200 CIG 002V 004 T01940183=
201512270852 METAR KATL 270852Z 14006KT 1 1/2SM BR OVC003 19/18 A3014 RMK AO2 SFC VIS 3 SLP201 CIG 002V004 TWRINC T01890178 58007=
201512270752 METAR KATL 270752Z 13005KT 1 1/2SM BR BKN003 OVC080 18/17 A3016 RMK AO2 SFC VIS 3 SLP205 CIG 002V004 T01830172=
201512270733 SPECI KATL 270733Z 13005KT 4SM BR BKN004 BKN080 18/17 A3016 RMK AO2 T01830172=
201512270652 METAR KATL 270652Z 13004KT 6SM BR FEW005 BKN070 BKN100 19/18 A3016 RMK AO2 SLP206 T01890178=
201512270552 METAR KATL 270552Z 13004KT 8SM FEW005 FEW030 FEW075 19/18 A3016 RMK AO2 SLP208 T01890178 10211 20189 58009=
201512270452 METAR KATL 270452Z COR 12006KT 6SM BR FEW004 SCT028 SCT070 19/18 A3018 RMK AO2 SLP213 T01940178 402500156=
201512270352 METAR KATL 270352Z 12005KT 10SM FEW006 FEW038 19/18 A3019 RMK AO2 SLP218 T01940178=
201512270252 METAR KATL 270252Z 13006KT 10SM CLR 20/18 A3019 RMK AO2 SLP219 T02000183 58003=
201512270152 METAR KATL 270152Z 14005KT 10SM CLR 20/18 A3020 RMK AO2 SLP220 T02000183=
201512270052 METAR KATL 270052Z 14006KT 10SM FEW060 FEW250 21/18 A3020 RMK AO2 SLP223 T02060183=
201512262352 METAR KATL 262352Z 13004KT 10SM FEW060 FEW250 21/18 A3020 RMK AO2 SLP222 T02110183 10250 20211 51004=
201512262252 METAR KATL 262252Z 15006KT 10SM FEW032 FEW055 SCT250 22/18 A3020 RMK AO2 SLP221 T02220183=
201512262152 METAR KATL 262152Z 16008KT 10SM FEW050 SCT120 24/18 A3020 RMK AO2 SLP219 MDT CU N-E T02390183 $=
201512262052 METAR KATL 262052Z 16009KT 10SM FEW025TCU SCT050 24/18 A3019 RMK AO2 SLP216 TCU N MDT CU NE-SE T02440183 56013 $=
201512261952 METAR KATL 261952Z 17008KT 10SM FEW025 FEW030 BKN050 24/18 A3019 RMK AO2 SLP218 MDT CU ALQDS T02440183 $=
201512261852 METAR KATL 261852Z 16008KT 10SM SCT025 BKN031 BKN045 24/19 A3021 RMK AO2 SLP222 T02440189 $=
201512261819 SPECI KATL 261819Z 19011KT 10SM SCT023 SCT030 OVC044 24/18 A3022 RMK AO2 T02390183 $=
201512261752 METAR KATL 261752Z 19007KT 10SM BKN022 BKN028 OVC042 24/19 A3023 RMK AO2 SLP230 T02390189 10239 20156 58017 $=
201512261733 SPECI KATL 261733Z 17006KT 10SM BKN021 BKN027 OVC035 23/19 A3024 RMK AO2 T02330189 $=
201512261716 SPECI KATL 261716Z 16007KT 10SM FEW019 SCT023 BKN034 23/19 A3025 RMK AO2 T02330189 $=
201512261652 METAR KATL 261652Z 15007KT 10SM BKN017 BKN028 BKN250 23/18 A3026 RMK AO2 SLP242 T02280183 $=
201512261631 SPECI KATL 261631Z 16010KT 10SM BKN017 BKN250 23/18 A3027 RMK AO2 T02280183 $=
201512261552 METAR KATL 261552Z VRB04KT 10SM FEW016 SCT120 BKN250 22/17 A3028 RMK AO2 SLP248 T02170172 $=
201512261452 METAR KATL 261452Z 10004KT 10SM FEW120 FEW200 BKN250 19/16 A3028 RMK AO2 SLP249 T01940161 53010 $=
201512261352 METAR KATL 261352Z VRB05KT 10SM FEW120 FEW200 BKN250 18/16 A3026 RMK AO2 SLP243 T01830156 $=
201512261252 METAR KATL 261252Z 03004KT 10SM FEW120 SCT200 BKN250 17/14 A3026 RMK AO2 SLP242 T01720144 $=
201512261152 METAR KATL 261152Z 35005KT 10SM FEW120 SCT200 BKN250 16/14 A3025 RMK AO2 SLP240 60000 70033 T01560144 10178 20156 53009 $=
201512261052 METAR KATL 261052Z COR 00000KT 10SM FEW090 SCT120 BKN250 17/14 A3023 RMK AO2 SLP229 T01670144 $=
201512260952 METAR KATL 260952Z 15005KT 10SM FEW090 FEW130 BKN250 17/15 A3020 RMK AO2 SLP220 T01720150 $=
201512260852 METAR KATL 260852Z 13007KT 10SM SCT090 BKN130 BKN250 17/16 A3022 RMK AO2 SLP228 60000 T01720156 58026 $=
201512260752 METAR KATL 260752Z 11007KT 10SM FEW007 FEW060 BKN100 OVC130 17/16 A3025 RMK AO2 SLP238 BINOVC T01720156 $=
201512260652 METAR KATL 260652Z 10007KT 10SM FEW007 FEW060 BKN095 OVC130 18/16 A3028 RMK AO2 RAE06B10E26 SLP247 P0000 T01780161 $=
201512260608 SPECI KATL 260608Z 08007KT 10SM FEW007 SCT085 OVC110 18/16 A3029 RMK AO2 RAE06 P0000 T01780161 $=
201512260552 METAR KATL 260552Z 11007KT 10SM -RA FEW010 BKN080 OVC120 17/16 A3030 RMK AO2 SLP255 P0003 60033 T01720161 10194 20172 50006 $=
201512260452 METAR KATL 260452Z 00000KT 5SM -RA BR OVC030 17/16 A3033 RMK AO2 SLP266 P0023 T01720161 402390172 $=
201512260430 SPECI KATL 260430Z 00000KT 2SM +RA BR OVC030 18/17 A3033 RMK AO2 P0019 T01780167 $=
201512260352 METAR KATL 260352Z 00000KT 10SM -RA FEW016 OVC042 18/16 A3029 RMK AO2 SLP252 P0007 T01830161 $=
201512260252 METAR KATL 260252Z 11006KT 10SM -RA OVC039 18/16 A3028 RMK AO2 RAB05 SLP249 P0000 60000 T01830161 51013 $=
201512260152 METAR KATL 260152Z 09008KT 10SM FEW015 OVC035 18/16 A3028 RMK AO2 RAE09 SLP247 P0000 T01830161 $=
201512260052 METAR KATL 260052Z 06012KT 10SM -RA OVC030 19/16 A3026 RMK AO2 WSHFT 2339 SLP241 P0000 T01890161 $=
201512252352 METAR KATL 252352Z 01022G27KT 9SM -RA SCT013 BKN019 OVC040 19/17 A3024 RMK AO2 PK WND 01027/2351 WSHFT 2326 RAB42 SLP236 P0000 60000 T01890167 10239 20189 53024=
201512252342 SPECI KATL 252342Z 35014G24KT 10SM -RA SCT013 BKN019 OVC041 19/17 A3024 RMK AO2 WSHFT 2326 RAB42 PRESRR P0000 T01940167=
201512252252 METAR KATL 252252Z 00000KT 10SM FEW029 BKN043 BKN085 23/19 A3020 RMK AO2 SLP219 T02280189=
201512252236 SPECI KATL 252236Z 19004KT 10SM FEW029 BKN040 BKN085 23/19 A3020 RMK AO2 T02280189=
201512252152 METAR KATL 252152Z 22006KT 10SM FEW022 BKN029 BKN038 24/19 A3019 RMK AO2 SLP215 T02390189=
201512252052 METAR KATL 252052Z 21007KT 10SM BKN022 OVC038 23/19 A3017 RMK AO2 SLP209 BINOVC T02330189 55012=
201512252034 SPECI KATL 252034Z 19008KT 10SM BKN022 BKN040 23/19 A3016 RMK AO2 BKN022 BKN V SCT T02330189=
201512251952 METAR KATL 251952Z 19010KT 10SM SCT018 SCT023 BKN038 24/19 A3016 RMK AO2 SLP208 T02390189=
201512251926 SPECI KATL 251926Z 20010KT 10SM SCT018 SCT024 OVC040 23/19 A3017 RMK AO2 T02330189=
201512251852 METAR KATL 251852Z 21007KT 10SM FEW015 BKN020 OVC040 23/19 A3019 RMK AO2 SLP218 T02280189=
201512251752 METAR KATL 251752Z 19012KT 10SM BKN015 OVC020 22/19 A3020 RMK AO2 SLP222 BINOVC T02220189 10222 20189 58015=
201512251734 SPECI KATL 251734Z 20007KT 10SM BKN015 OVC028 22/19 A3022 RMK AO2 T02220189=
201512251652 METAR KATL 251652Z 19014G21KT 10SM OVC010 22/19 A3023 RMK AO2 SLP230 T02170189=
201512251631 SPECI KATL 251631Z 21012G19KT 10SM OVC010 22/19 A3022 RMK AO2 THN SPTS INOVC T02170189=
201512251552 METAR KATL 251552Z 19013G20KT 3SM BR BKN007 OVC011 21/19 A3023 RMK AO2 SFC VIS 6 SLP230 T02110189=
201512251530 SPECI KATL 251530Z 19013KT 3SM OVC005 21/19 A3024 RMK AO2 SFC VIS 7 T02110189=
201512251518 SPECI KATL 251518Z 18014G20KT 3SM BR OVC004 21/19 A3024 RMK AO2 SFC VIS 4 T02060189=
201512251452 METAR KATL 251452Z 19012G17KT 6SM BR OVC005 21/19 A3025 RMK AO2 SLP237 T02060189 53016=
201512251352 METAR KATL 251352Z 18013G21KT 7SM OVC007 20/18 A3022 RMK AO2 SLP228 CIG 006V008 T02000183=
201512251327 SPECI KATL 251327Z 17010G18KT 8SM OVC008 20/18 A3022 RMK AO2 CIG 007V010 T02000183=
201512251303 SPECI KATL 251303Z 18011KT 10SM OVC014 20/18 A3020 RMK AO2 CIG 012V016 T02000178=
201512251252 METAR KATL 251252Z 18008KT 10SM OVC017 20/18 A3020 RMK AO2 SLP219 BINOVC T02000178=
201512251224 SPECI KATL 251224Z 18009KT 10SM BKN016 BKN110 BKN180 BKN250 19/17 A3020 RMK AO2 T01940172=
201512251152 METAR KATL 251152Z 18008G16KT 10SM FEW120 BKN180 BKN250 19/16 A3020 RMK AO2 PK WND 14030/1122 WSHFT 1129 RAE38 TSE36 SLP221 TS MOVD NE P0003 60037 70418 T01890161 10189 20183 51007=
201512251146 SPECI KATL 251146Z 21011KT 10SM SCT120 BKN180 BKN250 19/16 A3020 RMK AO2 PK WND 14030/1122 WSHFT 1129 RAE38 TSE36 PRESRR TS MOVD NE P0003=
201512251138 SPECI KATL 251138Z 18014G22KT 10SM FEW085 SCT110 BKN200 BKN250 19/16 A3016 RMK AO2 PK WND 14030/1122 RAE38 TSE36 TS MOVD NE OCNL LTGICCA DSNT NE-SE CB DSNT NE-SE P0003 T01890161=
201512251052 METAR KATL 251052Z 17019G28KT 8SM -TSRA FEW055CB SCT090 OVC120 19/17 A3019 RMK AO2 PK WND 18028/1043 SLP216 OCNL LTGICCA NE-OHD-SW TS NE-OHD-SW MOV NE P0012 T01890167=
201512250952 METAR KATL 250952Z 16017G27KT 6SM TSRA BR FEW008 SCT060CB OVC110 19/17 A3018 RMK AO2 PK WND 16027/0950 SLP213 OCNL LTGICCA OHD-ALQDS TS OHD-ALQDS MOV NE P0008 T01890172=
201512250926 SPECI KATL 250926Z 17012G21KT 6SM TSRA BR SCT007 SCT055CB OVC095 19/17 A3019 RMK AO2 OCNL LTGICCA OHD-ALQDS TS OHD-ALQDS MOV NE P0004 T01890172=
201512250852 METAR KATL 250852Z 17015G20KT 7SM -TSRA BKN006 BKN055CB OVC100 18/17 A3020 RMK AO2 SLP219 OCNL LTGICCA OHD-ALQDS TS OHD-ALQDS MOV NE CIG 005V008 P0009 60014 T01830172 58001=
201512250820 SPECI KATL 250820Z 19010KT 8SM -TSRA SCT008 SCT055CB OVC110 18/17 A3020 RMK AO2 OCNL LTGICCA OHD-ALQDS TS OHD-ALQDS MOV NE P0003 T01830172=
201512250755 SPECI KATL 250755Z 17012G20KT 6SM -TSRA BR BKN008 BKN050CB OVC100 18/17 A3018 RMK AO2 OCNL LTGICCA OHD-ALQDS TS OHD-ALQDS MOV NE P0000 T01830172=
201512250752 METAR KATL 250752Z 17013G20KT 6SM TSRA BR SCT008 BKN050CB OVC100 18/17 A3018 RMK AO2 TSB47 SLP213 OCNL LTGICCA OHD-ALQDS TS OHD-ALQDS MOV NE P0004 T01830172=
201512250747 SPECI KATL 250747Z 16011KT 9SM TSRA FEW008 SCT050CB OVC100 18/17 A3018 RMK AO2 TSB47 OCNL LTGICCA OHD-SE-SW TS OHD-SE-SW MOV NE P0003=
201512250652 METAR KATL 250652Z 19011KT 10SM -RA FEW008 SCT075 OVC110 18/17 A3022 RMK AO2 SLP226 P0001 T01830167=
201512250552 METAR KATL 250552Z 19007KT 9SM -RA FEW007 SCT070 BKN110 OVC150 18/17 A3020 RMK AO2 SLP220 P0003 60025 T01830172 10206 20183 50005=
201512250452 METAR KATL 250452Z 17006KT 8SM -RA FEW007 SCT060 BKN110 OVC150 18/17 A3020 RMK AO2 SLP221 P0001 T01830167 402220183=
201512250352 METAR KATL 250352Z 14008KT 9SM -RA FEW007 SCT060 BKN110 OVC150 18/17 A3021 RMK AO2 SLP223 P0002 T01830167=
201512250252 METAR KATL 250252Z 14011G17KT 10SM -RA FEW007 SCT070 BKN120 OVC150 19/17 A3018 RMK AO2 RAE14B52 SLP214 P0002 60019 T01890172 51018=
201512250202 SPECI KATL 250202Z 19009G16KT 6SM -RA BR FEW008 SCT012 BKN050 OVC130 19/18 A3018 RMK AO2 P0002 T01940178=
201512250152 METAR KATL 250152Z 19010G17KT 4SM RA BR SCT008 BKN012 OVC110 19/18 A3018 RMK AO2 SLP214 P0013 T01940178=
201512250128 SPECI KATL 250128Z 17011KT 6SM RA BR BKN008 BKN070 OVC110 20/18 A3016 RMK AO2 P0006 T02000183=
201512250052 METAR KATL 250052Z 16010KT 5SM RA BR SCT006 BKN070 OVC120 21/19 A3017 RMK AO2 RAE09B23 SLP211 CB DSNT SE-S P0004 T02060189=
201512250020 SPECI KATL 250020Z 19008KT 10SM FEW006 SCT030 BKN110 OVC150 21/19 A3016 RMK AO2 RAE09 P0001 T02060189=
201512242352 METAR KATL 242352Z 19006KT 7SM -RA SCT006 BKN025 OVC120 21/19 A3013 RMK AO2 RAB11 SLP194 P0002 60010 T02060194 10206 20200 53018=
201512242321 SPECI KATL 242321Z 19007KT 9SM -RA FEW007 SCT015 BKN060 OVC130 21/19 A3012 RMK AO2 RAB11 P0000 T02060194=
201512242252 METAR KATL 242252Z 20007KT 10SM BKN007 OVC100 21/19 A3009 RMK AO2 RAB2159E15B31E41 SLP183 CIG 005V010 CB DSNT NW-NE P0000 T02060189=
201512242203 SPECI KATL 242203Z 15006KT 7SM -RA BKN007 OVC100 21/19 A3007 RMK AO2 RAB2159 CIG 005V010 P0000 T02060189=
201512242152 METAR KATL 242152Z 22004KT 10SM FEW005 BKN012 OVC110 20/19 A3009 RMK AO2 RAB2053E49 SLP183 P0002 T02000189=
201512242145 SPECI KATL 242145Z 19006KT 10SM -RA FEW005 BKN012 OVC110 20/19 A3007 RMK AO2 RAB2053 P0002 T02000189=
201512242122 SPECI KATL 242122Z 18005KT 10SM -RA SCT007 BKN032 OVC050 20/19 A3006 RMK AO2 RAB2053 P0001 T02000189=
201512242052 METAR KATL 242052Z 18007KT 10SM SCT005 BKN011 BKN055 OVC150 21/19 A3007 RMK AO2 SLP176 60006 T02060189 55003=
201512242041 SPECI KATL 242041Z 19006KT 10SM SCT005 BKN011 BKN055 OVC150 21/19 A3008 RMK AO2 T02060189=
201512242005 SPECI KATL 242005Z 12004KT 8SM FEW003 FEW005 SCT025 OVC150 21/19 A3004 RMK AO2 T02060194 $=
201512241952 METAR KATL 241952Z 12005KT 6SM BR FEW003 BKN005 OVC025 21/19 A3004 RMK AO2 RAE23 SLP164 P0000 T02060189 $=
201512241931 SPECI KATL 241931Z 13003KT 6SM BR FEW003 BKN008 OVC040 21/19 A3005 RMK AO2 RAE23 P0000 T02060189 $=
201512241852 METAR KATL 241852Z 18005KT 7SM -RA FEW005 BKN015 OVC040 20/19 A3007 RMK AO2 TSE1756 SLP175 P0006 T02000189 $=
201512241821 SPECI KATL 241821Z 17006KT 2SM -RA BR FEW005 BKN020 OVC040 20/19 A3007 RMK AO2 SFC VIS 3 TSE1756 P0006 T02000189 $=
201512241756 SPECI KATL 241756Z 17005KT 7SM -RA FEW005 BKN025 OVC040 20/19 A3008 RMK AO2 TSE56 OCNL LTG DSNT N-NE-E TS MOV NE CB DSNT N-NE-E P0000 T02000189 $=
201512241752 METAR KATL 241752Z 16006KT 6SM -TSRA BR FEW005 BKN025CB OVC040 20/19 A3008 RMK AO2 TSE46B47 SLP181 OCNL LTGICCG N-NE-E TS VC N-NE-E MOV NE P0088 60346 T02000189 10222 20194 51003 $=
201512241730 SPECI KATL 241730Z 20006KT 2 1/2SM -TSRA BR SCT005 BKN015CB OVC030 20/19 A3008 RMK AO2 SFC VIS 4 OCNL LTGICCG NE-E & SW-W TS VC NE-E & SW-W MOV NE P0084 T02000194 $=
201512241709 SPECI KATL 241709Z 18005KT 1SM R09R/5000VP6000FT +TSRA BR FEW005 SCT015 OVC020CB 21/19 A3007 RMK AO2 SFC VIS 3 FRQ LTGICCG NE-SE TS NE-SE MOV NE P0070 T02060194 $=
201512241702 SPECI KATL 241702Z 20004KT 1SM R09R/1800VP6000FT +TSRA BR FEW005 BKN015CB OVC050 21/19 A3008 RMK AO2 FRQ LTGICCG OHD-NE-SE TS OHD-NE-SE MOV NE P0064 T02060194 $=
201512241654 SPECI KATL 241654Z 18007KT 1/2SM R09R/1800V5000FT +TSRA FG BKN019CB BKN034 OVC046 20/19 A3009 RMK AO2 TWR VIS 1 FRQ LTGICCG OHD-E-SE-SW TS OHD-E-SE-SW MOV NE P0013 T02000194 $=
201512241652 METAR KATL 241652Z 17005KT 1SM R09R/2000VP6000FT +TSRA BR FEW005 BKN027CB OVC050 20/19 A3008 RMK AO2 RAE1556B14 TSB35 SLP180 FRQ LTGICCG OHD-E-SE-SW TS OHD-E-SE-SW MOV NE P0034 T02000194 $=
201512241647 SPECI KATL 241647Z 15009KT 3/4SM R09R/3500VP6000FT +TSRA BR FEW005 BKN020CB OVC040 20/19 A3008 RMK AO2 TWR VIS 1 RAE1556B14 TSB35 FRQ LTGICCG OHD-E-SE-SW TS OHD-E-SE-SW MOV NE P0015 $=
201512241644 SPECI KATL 241644Z 16008KT 1 1/2SM R09R/5500VP6000FT +TSRA BR FEW005 SCT020CB OVC040 20/19 A3009 RMK AO2 TWR VIS 4 RAE1556B14 TSB35 VIS LWR E-SW SHRA FRQ LTGICCG E-SW TS E-SW MOV NE P0002 T02000189 $=
201512241635 SPECI KATL 241635Z 14004KT 9SM -TSRA FEW005 SCT020CB OVC050 21/19 A3006 RMK AO2 RAE1556B14 TSB35 VIS LWR SE-SW SHRA OCNL LTGICCG SE-SW TS VC SE-SW MOV NE P0001 T02060194 $=
201512241552 METAR KATL 241552Z 00000KT 6SM -RA BR FEW004 BKN013 OVC030 20/19 A3007 RMK AO2 TSE51 SLP178 VIS LWR NE SHRA OCNL LTG DSNT NE TS MOV NE CB DSNT NE P0122 T02000189 $=
201512241544 SPECI KATL 241544Z 21004KT 3SM R09R/3500VP6000FT -TSRA BR SCT006 BKN013CB OVC020 20/19 A3007 RMK AO2 SFC VIS 4 OCNL LTGICCG NE TS NE MOV NE P0122 T02000194 $=
201512241526 SPECI KATL 241526Z 32010KT 1/2SM R09R/2600VP6000FT +TSRA FG BKN006 BKN010CB OVC030 21/19 A3005 RMK AO2 OCNL LTGICCG ALQDS TS ALQDS MOV NE P0053 T02060194 $=
201512241525 SPECI KATL 241525Z 32009KT 1SM R09R/3500VP6000FT +TSRA BR BKN006 BKN010CB OVC030 21/19 A3005 RMK AO2 TWR VIS 2 OCNL LTGICCG ALQDS TS ALQDS MOV NE P0045 T02060194 $=
201512241520 SPECI KATL 241520Z 25008KT 2SM TSRA BR BKN008 BKN017CB OVC030 21/19 A3004 RMK AO2 SFC VIS 4 OCNL LTGICCG ALQDS TS ALQDS MOV NE P0032 T02110194 $=
201512241512 SPECI KATL 241512Z 15007KT 1 1/4SM +TSRA BR BKN008 BKN020CB OVC030 21/19 A3004 RMK AO2 SFC VIS 2 OCNL LTGICCG ALQDS TS ALQDS MOV NE P0028 T02110194 $=
201512241452 METAR KATL 241452Z 16009G19KT 1/2SM R09R/3500VP6000FT +TSRA FG SCT012 BKN025CB OVC045 21/19 A3003 RMK AO2 TSE15B26 SLP164 OCNL LTGICCG ALQDS TS ALQDS MOV NE P0042 60102 T02060194 50018=
201512241439 SPECI KATL 241439Z 16014G20KT 1/2SM R09R/2600VP6000FT +TSRA BR FEW010 BKN015CB OVC030 21/19 A3003 RMK AO2 SFC VIS 1 TSE15B26 OCNL LTGICCG OHD-SW-NW-N TS OHD-SW-NW-N MOV NE P0029 T02060194=
201512241433 SPECI KATL 241433Z 18014G20KT 2 1/2SM R09R/5500VP6000FT +TSRA BR BKN013 BKN018CB OVC040 21/19 A3004 RMK AO2 TSE15B26 PRESRR OCNL LTGICCG SE-SW & SW-NW TS VC SE-SW & SW-NW MOV NE P0013 T02060189=
201512241426 SPECI KATL 241426Z 16009KT 2 1/2SM +TSRA BR BKN013 BKN020CB OVC044 21/19 A3002 RMK AO2 TWR VIS 4 TSE15B26 OCNL LTGICCG SW-NW TS VC SW-NW MOV NE P0004 T02060189=
201512241425 SPECI KATL 241425Z 16008KT 2 1/2SM +RA BR BKN013 BKN020CB OVC044 21/19 A3003 RMK AO2 TWR VIS 4 TSE15 P0004 T02060189=
201512241415 SPECI KATL 241415Z 15006KT 10SM -RA FEW007 BKN015 OVC032 21/19 A3001 RMK AO2 TSE15 PRESFR CB DSNT SE-S-SW-W-NW P0001 T02060189=
201512241352 METAR KATL 241352Z VRB03KT 3SM -TSRA BR FEW007 BKN015 OVC032CB 19/18 A3003 RMK AO2 PK WND 27033/1300 SFC VIS 6 SLP165 VIS E-S 2 OCNL LTGICCA SE-SW TS SE-SW MOV NE P0060 T01940178=
201512241346 SPECI KATL 241346Z VRB06KT 3SM TSRA BR FEW008 BKN016 OVC030CB 19/18 A3003 RMK AO2 PK WND 27033/1300 SFC VIS 6 VIS E-S 2 OCNL LTGICCA SE-SW TS SE-SW MOV NE P0058=
201512241337 SPECI KATL 241337Z 00000KT 3SM -TSRA BR FEW008 SCT016 OVC032CB 19/18 A3002 RMK AO2 PK WND 27033/1300 SFC VIS 6 OCNL LTGICCA S-SW TS S-SW MOV NE P0056 T01940178=
201512241325 SPECI KATL 241325Z 24006KT 3SM TSRA BR FEW008 BKN016 OVC030CB 19/18 A3002 RMK AO2 PK WND 27033/1300 OCNL LTGICCA NE-OHD-SW TS NE-OHD-SW MOV NE P0052 T01940178=
201512241323 SPECI KATL 241323Z 25007KT 2SM R09R/4000VP6000FT +TSRA BR FEW008 BKN016 OVC030CB 19/18 A3003 RMK AO2 PK WND 27033/1300 OCNL LTGICCA NE-OHD-SW TS NE-OHD-SW MOV NE P0051 T01940178=
201512241310 SPECI KATL 241310Z 22010G24KT 1 1/2SM R09R/2400VP6000FT +TSRA BR BKN015 OVC030CB 19/18 A3002 RMK AO2 PK WND 27033/1300 FRQ LTGICCGCA NE-OHD-SW TS NE-OHD-SW MOV NE P0030 T01940178=
201512241302 SPECI KATL 241302Z 27021G33KT 1/2SM R09R/2400VP6000FT +TSRA FG BKN015 OVC030CB 21/18 A3004 RMK AO2 PK WND 27033/1300 PRESRR FRQ LTGICCGCA NE-OHD-SW TS NE-OHD-SW MOV NE P0001 T02060183=
201512241300 SPECI KATL 241300Z 29024G33KT 1SM R09R/P6000FT +TSRA BR BKN015 OVC030CB 21/19 A3004 RMK AO2 PK WND 27033/1300 PRESRR VIS E-S 3 FRQ LTGICCGCA NE-OHD-SW TS NE-OHD-SW MOV NE P0000 T02110189=
201512241252 METAR KATL 241252Z 22008G17KT 10SM -TSRA BKN016 OVC035CB 22/19 A3000 RMK AO2 RAE1158B50 TSB25 SLP152 CONS LTGICCGCA SW-NW TS SW-NW MOV NE BINOVC P0000 T02220194=
201512241226 SPECI KATL 241226Z 19010KT 10SM TS BKN018 BKN045CB BKN080 OVC200 22/19 A2998 RMK AO2 RAE1158 TSB25 FRQ LTGICCGCA W-NW TS VC W-NW MOV NE P0000 T02170189=
201512241200 SPECI KATL 241200Z 20010KT 10SM BKN018 BKN050 OVC075 22/19 A2998 RMK AO2 RAE1158 FRQ LTGICCA DSNT SW-NW CB DSNT SW-NW P0000 T02170189=
201512241152 METAR KATL 241152Z 21008KT 10SM -RA SCT018 BKN055 BKN080 OVC200 22/19 A2998 RMK AO2 RAB49 PRESRR SLP145 FRQ LTGICCA DSNT W-NW CB DSNT W-NW P0000 60010 70127 T02170189 10217 20200 53024=
201512241052 METAR KATL 241052Z 20013KT 10SM FEW010 SCT016 BKN080 OVC200 22/19 A2992 RMK AO2 SLP125 CONS LTGICCA DSNT W-NW CB DSNT W-NW T02170194=
201512240952 METAR KATL 240952Z 20012KT 10SM SCT010 BKN014 BKN075 OVC200 21/19 A2990 RMK AO2 SLP121 T02110194=
201512240909 SPECI KATL 240909Z 21011G18KT 10SM SCT011 BKN014 BKN075 OVC200 21/19 A2992 RMK AO2 T02110189=
201512240852 METAR KATL 240852Z 21010G21KT 10SM FEW013 SCT018 BKN075 OVC200 21/19 A2990 RMK AO2 SLP121 60010 T02110189 58003=
201512240826 SPECI KATL 240826Z 20015G21KT 10SM SCT010 BKN018 BKN075 OVC200 21/19 A2991 RMK AO2 T02060189=
201512240752 METAR KATL 240752Z 19013G24KT 10SM FEW006 BKN011 OVC015 21/19 A2990 RMK AO2 SLP119 CIG 009V013 BINOVC T02110189=
201512240744 SPECI KATL 240744Z 19016G22KT 10SM FEW006 BKN011 OVC015 21/19 A2991 RMK AO2 CIG 009V013 T02060189=
201512240701 SPECI KATL 240701Z 19011KT 10SM BKN008 BKN012 OVC040 20/18 A2991 RMK AO2 CIG 007V010 T02000183=
201512240652 METAR KATL 240652Z 19014G19KT 10SM BKN013 BKN036 OVC050 20/18 A2992 RMK AO2 PK WND 20026/0606 RAE49 TSB00E18 SLP125 TS MOVD NE BINOVC P0010 T02000183=
201512240645 SPECI KATL 240645Z 20011G17KT 10SM -RA BKN013 BKN030 OVC045 20/18 A2991 RMK AO2 PK WND 20026/0606 TSB00E18 TS MOVD NE P0010 T02000183=
201512240637 SPECI KATL 240637Z 19013G19KT 7SM -RA FEW008 SCT022 OVC040 20/18 A2991 RMK AO2 PK WND 20026/0606 TSB00E18 TS MOVD NE P0010 T02000183=
201512240633 SPECI KATL 240633Z 19014G20KT 6SM -RA BR SCT008 BKN020 OVC050 20/18 A2992 RMK AO2 PK WND 20026/0606 TSB00E18 TS MOVD NE P0009 T02000183=
201512240619 SPECI KATL 240619Z 20013G22KT 6SM -RA BR BKN007 BKN016 OVC030 20/18 A2991 RMK AO2 PK WND 20026/0606 TSB00E18 TS MOVD NE CIG 005V009 P0008 T02000183=
201512240601 SPECI KATL 240601Z 20013KT 3SM TSRA BR BKN007 OVC012CB 20/18 A2993 RMK AO2 TSB00 PRESRR OCNL LTGIC SE-S TS SE-S MOV NE CIG 005V009 P0003 T02000183=
201512240552 METAR KATL 240552Z 18011G18KT 3SM RA BR BKN007 OVC015 20/18 A2991 RMK AO2 SLP123 CIG 005V009 P0006 60049 T02000183 10200 20167 50003=
201512240505 SPECI KATL 240505Z 19009KT 8SM -RA BKN007 OVC040 19/18 A2991 RMK AO2 CIG 005V010 P0001 T01940178=
201512240452 METAR KATL 240452Z 18011KT 4SM RA BR SCT007CB BKN010 OVC040 19/18 A2991 RMK AO2 SLP124 CB NE MOV NE P0024 T01890178 401890161=
201512240450 SPECI KATL 240450Z 18011KT 4SM RA BR BKN007CB BKN012 OVC040 19/18 A2991 RMK AO2 CB NE MOV NE P0024=
201512240444 SPECI KATL 240444Z 17011KT 2SM +RA BR BKN007CB BKN012 OVC040 18/17 A2992 RMK AO2 CB OHD-SW MOV NE P0017 T01830172=
201512240431 SPECI KATL 240431Z 17008KT 4SM RA BR SCT007CB BKN012 OVC040 18/17 A2991 RMK AO2 CB N-NE & DSNT SW MOV NE P0016 T01830172=
201512240426 SPECI KATL 240426Z 16006KT 1 1/2SM R09R/4500VP6000FT +RA BR BKN007CB BKN012 OVC040 18/17 A2991 RMK AO2 CB OHD-SW MOV NE P0009 T01830172=
201512240352 METAR KATL 240352Z 17012G17KT 7SM -RA SCT007CB BKN014 OVC040 18/17 A2991 RMK AO2 SLP124 CB VC SE-S & DSNT NE MOV NE P0010 T01830167=
201512240348 SPECI KATL 240348Z 19009KT 5SM -RA BR SCT007CB BKN014 OVC040 18/17 A2990 RMK AO2 CB VC NE MOV NE P0010=
201512240340 SPECI KATL 240340Z 18009KT 2 1/2SM +RA BR BKN007CB OVC030 18/17 A2991 RMK AO2 CB NE-SE MOV NE CIG 004V010 P0007 T01780167=
201512240252 METAR KATL 240252Z 16013KT 9SM -RA BKN007CB OVC030 17/16 A2990 RMK AO2 SLP121 CB VC SE & W-NW MOV NE CIG 004V010 P0000 60009 T01720161 51011=
201512240152 METAR KATL 240152Z 15012KT 7SM -RA BKN006 BKN015 OVC030 17/16 A2989 RMK AO2 RAB0056E45B50 SLP119 CIG 004V009 P0003 T01720156=
201512240052 METAR KATL 240052Z 14010G17KT 2SM BKN006 OVC040 17/16 A2989 RMK AO2 SFC VIS 9 RAE45 SLP117 OCNL LTG DSNT NW-NE CIG 003V008 P0006 T01720156=
201512240007 SPECI KATL 240007Z 15010KT 2SM -RA BKN005 BKN020 OVC050 17/16 A2988 RMK AO2 SFC VIS 7 OCNL LTG DSNT NW-N CIG 003V008 P0001 T01670156=
201512232352 METAR KATL 232352Z 14007KT 3SM -RA BKN006 BKN020 OVC050 17/16 A2987 RMK AO2 SFC VIS 7 RAE13B29 TSE2257 SLP111 OCNL LTG DSNT NW-N CIG 004V008 P0001 60029 T01670156 10172 20167 55003=
201512232258 SPECI KATL 232258Z 14008KT 3SM -RA BR BKN006 BKN020 OVC070 17/16 A2985 RMK AO2 SFC VIS 6 TSE57 TS MOV NE P0000 T01670156=
201512232252 METAR KATL 232252Z 13008KT 3SM -TSRA BR BKN006CB BKN020 OVC070 17/16 A2985 RMK AO2 SFC VIS 5 TSB18 SLP105 OCNL LTGIC VC NE TS VC NE MOV NE P0009 T01670156=
201512232218 SPECI KATL 232218Z 14008KT 3SM TSRA BR BKN006CB BKN015 OVC040 17/16 A2986 RMK AO2 SFC VIS 4 TSB18 OCNL LTGIC W-NW TS W-NW MOV NE P0006 T01670156=
201512232152 METAR KATL 232152Z 13008KT 3SM -RA BR BKN006 BKN020 OVC080 17/16 A2985 RMK AO2 SFC VIS 6 TSE17 SLP104 P0007 T01670156=
201512232118 SPECI KATL 232118Z 12006KT 3SM -RA BR BKN006 BKN020 OVC050 17/16 A2985 RMK AO2 SFC VIS 6 TSE17 P0005 T01670156=
201512232058 SPECI KATL 232058Z 34003KT 3SM -TSRA BR BKN006CB BKN027 OVC050 17/16 A2989 RMK AO2 SFC VIS 4 PRESRR OCNL LTGIC N-NE TS VC N-NE MOV NE P0001 T01670156=
201512232052 METAR KATL 232052Z 18005KT 3SM -TSRA BR BKN006CB BKN025 OVC050 17/16 A2988 RMK AO2 SFC VIS 5 RAB1958 TSB51 SLP114 OCNL LTGIC NE & SW-NW TS VC NE & SW-NW MOV NE P0008 60012 T01670156 55010=
201512231952 METAR KATL 231952Z 17007KT 10SM BKN006 BKN010 OVC080 17/16 A2986 RMK AO2 RAE23 SLP108 P0001 T01720156=
201512231908 SPECI KATL 231908Z 16009KT 10SM -RA BKN006 BKN060 OVC090 17/16 A2987 RMK AO2 P0001 T01720156=
201512231852 METAR KATL 231852Z 19005KT 10SM -RA FEW006 BKN050 OVC090 17/16 A2987 RMK AO2 SLP110 P0003 T01720156=
201512231818 SPECI KATL 231818Z 17010KT 8SM -RA SCT006 BKN050 OVC090 17/16 A2989 RMK AO2 PRESFR P0002 T01720156=
201512231759 SPECI KATL 231759Z 20009KT 6SM -RA BR BKN006 BKN049 OVC090 17/16 A2991 RMK AO2 P0000 T01720156=
201512231752 METAR KATL 231752Z 20011KT 6SM -RA BR SCT006 BKN050 OVC090 17/16 A2991 RMK AO2 PRESRR SLP125 P0005 60039 T01720156 10172 20167 50008=
201512231707 SPECI KATL 231707Z 16006KT 8SM -RA FEW010 SCT050 OVC100 17/16 A2990 RMK AO2 PRESFR P0003 T01720156 $=
201512231652 METAR KATL 231652Z 19010KT 4SM RA BR SCT007 BKN050 OVC095 17/16 A2994 RMK AO2 SLP135 P0011 T01720156 $=
201512231650 SPECI KATL 231650Z 19009KT 5SM RA BR SCT007 BKN050 OVC110 17/16 A2994 RMK AO2 P0010 $=
201512231552 METAR KATL 231552Z 18009KT 2SM -RA BR BKN005 BKN050 OVC090 17/16 A2992 RMK AO2 SFC VIS 6 SLP128 P0006 T01720161 $=
201512231452 METAR KATL 231452Z 13007KT 2SM -RA BR BKN005 BKN050 OVC100 17/16 A2989 RMK AO2 SFC VIS 6 SLP117 P0015 60017 T01670156 50003 $=
201512231435 SPECI KATL 231435Z 11006KT 1 1/2SM -RA BR BKN007CB BKN050 OVC100 17/16 A2990 RMK AO2 SFC VIS 6 CB NE MOV NE P0014 T01670156 $=
201512231410 SPECI KATL 231410Z 16008KT 4SM +RA BR OVC005CB 17/16 A2992 RMK AO2 CB OHD MOV NE P0006 T01670156 $=
201512231352 METAR KATL 231352Z 16009KT 6SM -RA BR OVC005CB 17/16 A2992 RMK AO2 RAE06B26 SLP130 CIG 004V008 CB VC SE-SW MOV NE P0002 T01670156 $=
201512231306 SPECI KATL 231306Z 17009KT 6SM BR OVC006 17/16 A2989 RMK AO2 RAE06 CIG 004V008 P0000 T01670156 $=
201512231252 METAR KATL 231252Z 18005KT 1 1/2SM -RA BR BKN004 OVC010 17/16 A2989 RMK AO2 SFC VIS 6 RAE1158B20 PRESRR SLP117 CIG 003V007 TWRINC P0000 T01670156 $=
201512231205 SPECI KATL 231205Z 15010KT 1 1/2SM BR OVC004 17/15 A2987 RMK AO2 SFC VIS 6 RAE1158 CIG 003V006 TWRINC P0000 T01670150 $=
201512231152 METAR KATL 231152Z 16011KT 3SM -RA BR BKN005 OVC009 17/15 A2988 RMK AO2 SFC VIS 6 SLP113 CIG 004V008 P0002 60013 70017 T01670150 10167 20161 58013 $=
201512231052 METAR KATL 231052Z 17009KT 3SM -RA BR BKN006 OVC100 16/15 A2990 RMK AO2 SFC VIS 5 RAB16 SLP122 CIG 004V008 P0000 T01610150=
201512230952 METAR KATL 230952Z 17007KT 3SM BR OVC005 17/15 A2991 RMK AO2 SFC VIS 5 RAE52 SLP124 CIG 004V007 P0003 T01670150=
201512230852 METAR KATL 230852Z 16008KT 3SM -RA BR OVC005 16/15 A2991 RMK AO2 SFC VIS 5 SLP126 CIG 003V007 P0003 60008 T01610150 56009=
201512230752 METAR KATL 230752Z 15009KT 3SM -RA BR BKN005 OVC038 16/15 A2992 RMK AO2 SFC VIS 4 SLP128 CIG 003V007 P0004 T01610150=
201512230652 METAR KATL 230652Z 15007KT 3SM -RA BR SCT003 BKN006 OVC012 17/15 A2993 RMK AO2 SFC VIS 5 SLP132 P0001 T01670150=
201512230649 SPECI KATL 230649Z 16007KT 3SM -RA BR SCT003 BKN006 OVC013 16/15 A2993 RMK AO2 SFC VIS 5 P0001=
201512230552 METAR KATL 230552Z 13005KT 1/4SM -RA BR BKN003 OVC012 16/15 A2994 RMK AO2 SFC VIS 2 SLP136 CIG 001V005 P0002 60002 T01610150 10161 20156 58011=
201512230452 METAR KATL 230452Z 13007KT 1/4SM R09R/2600VP6000FT -RA BR OVC003 16/15 A2996 RMK AO2 SFC VIS 1 1/4 RAB23 SLP143 P0000 T01610150 401780117=
201512230426 SPECI KATL 230426Z 13005KT 1/4SM R09R/2200V2600FT -RA FG VV002 16/15 A2998 RMK AO2 SFC VIS 1/2 RAB23 P0000 T01610150=
201512230352 METAR KATL 230352Z 13006KT 1/4SM R09R/1600V2000FT FG VV002 16/15 A2998 RMK AO2 SLP150 T01560150=
201512230252 METAR KATL 230252Z 10005KT 1/2SM R09R/1800V2400FT FG VV002 16/15 A2998 RMK AO2 SLP147 60000 T01610150 50000=
201512230152 METAR KATL 230152Z 13005KT 1/2SM R09R/3000V5000FT BR VV002 16/15 A2999 RMK AO2 SFC VIS 3/4 DZE50 SLP154 P0000 T01610150=
201512230052 METAR KATL 230052Z VRB06KT 1/2SM R09R/P6000FT -DZ BR OVC003 16/15 A2998 RMK AO2 SFC VIS 2 SLP149 CIG 002V004 PCPN VRY LGT P0000 T01610150=
201512222352 METAR KATL 222352Z 10005KT 1/2SM R09R/P6000FT -DZ BR OVC003 16/15 A2998 RMK AO2 SFC VIS 1 1/2 SLP148 CIG 002V005 P0000 60002 T01610150 10178 20161 53011=
201512222252 METAR KATL 222252Z 12006KT 1/2SM R09R/P6000FT -DZ BR OVC003 17/16 A2995 RMK AO2 SFC VIS 1 1/2 SLP140 CIG 002V005 P0001 T01670156=
201512222152 METAR KATL 222152Z VRB04KT 1/2SM R09R/P6000FT -DZ BR BKN004 OVC008 17/16 A2996 RMK AO2 SFC VIS 1 SLP140 TWRINC P0001 T01670161=
201512222108 SPECI KATL 222108Z 09005KT 1/2SM R09R/6000VP6000FT -DZ BR BKN004 BKN008 OVC012 17/16 A2994 RMK AO2 SFC VIS 3/4 P0000 T01720161=
201512222052 METAR KATL 222052Z 11006KT 1 1/4SM R09R/5500VP6000FT -DZ BR BKN005 BKN010 OVC020 17/16 A2994 RMK AO2 SFC VIS 2 DZB36 SLP137 P0000 60000 T01720161 56011=
201512222036 SPECI KATL 222036Z 11004KT 1 3/4SM -DZ BR BKN005 BKN008 OVC020 17/16 A2995 RMK AO2 SFC VIS 2 DZB36 P0000 T01720156=
201512221959 SPECI KATL 221959Z 12004KT 6SM BR SCT008 BKN014 OVC018 18/15 A2995 RMK AO2 T01780150=
201512221952 METAR KATL 221952Z 13003KT 6SM BR FEW006 BKN015 OVC018 18/15 A2995 RMK AO2 SLP139 T01780150=
201512221938 SPECI KATL 221938Z 12004KT 6SM BR FEW006 BKN015 OVC020 17/15 A2996 RMK AO2 T01720150=
201512221852 METAR KATL 221852Z VRB03KT 3SM BR BKN005 BKN008 OVC020 17/15 A2996 RMK AO2 SFC VIS 6 SLP143 T01720150=
201512221752 METAR KATL 221752Z 10003KT 3SM BR BKN005 BKN020 OVC030 17/15 A2997 RMK AO2 SFC VIS 6 SLP148 T01670150 10167 20150 58016=
201512221735 SPECI KATL 221735Z 12004KT 3SM BR BKN005 OVC020 17/15 A2999 RMK AO2 SFC VIS 6 T01670150=
201512221702 SPECI KATL 221702Z 14005KT 1 1/4SM BR BKN004 OVC008 16/15 A3002 RMK AO2 SFC VIS 5 T01610150=
201512221652 METAR KATL 221652Z 12004KT 3/4SM R09R/P6000FT BR BCFG BKN004 BKN006 OVC010 16/15 A3002 RMK AO2 SFC VIS 4 SLP164 T01610150=
201512221552 METAR KATL 221552Z 08004KT 3/4SM R09R/P6000FT BR BCFG BKN004 OVC006 16/14 A3003 RMK AO2 SFC VIS 3 SLP166 TWRINC T01610144=
201512221457 SPECI KATL 221457Z 00000KT 3/4SM R09R/P6000FT BR OVC004 16/15 A3002 RMK AO2 SFC VIS 4 TWRINC T01610150=
201512221452 METAR KATL 221452Z 00000KT 2SM BR OVC005 16/15 A3002 RMK AO2 SFC VIS 4 SLP165 T01610150 53006=
201512221445 SPECI KATL 221445Z 12003KT 2SM BR OVC004 16/15 A3002 RMK AO2 SFC VIS 5 T01610150=
201512221352 METAR KATL 221352Z 15003KT 6SM BR OVC005 16/14 A3001 RMK AO2 SLP162 CIG 004V007 T01560144=
201512221324 SPECI KATL 221324Z 00000KT 5SM BR OVC006 16/14 A3001 RMK AO2 CIG 004V007 T01560144=
201512221301 SPECI KATL 221301Z 00000KT 2SM BR OVC006 16/14 A3000 RMK AO2 SFC VIS 4 VIS N-E 1 1/2 T01560144=
201512221252 METAR KATL 221252Z 13004KT 6SM BR OVC007 16/14 A3000 RMK AO2 SLP158 VIS N-E 1 1/2 T01560144=
201512221152 METAR KATL 221152Z 18004KT 7SM OVC005 15/14 A3001 RMK AO2 SLP160 CIG 004V006 60032 70077 T01500139 10150 20117 53012=
201512221052 METAR KATL 221052Z 13005KT 6SM BR BKN006 BKN012 OVC150 15/13 A2997 RMK AO2 RAE02 SLP147 CIG 004V008 P0000 T01500133=
201512221043 SPECI KATL 221043Z 33005KT 6SM BR BKN006 OVC012 15/13 A2999 RMK AO2 RAE02 CIG 004V008 P0000 T01500133=
201512220952 METAR KATL 220952Z 27006KT 1SM R09R/P6000FT -RA BR BKN004 BKN055 OVC100 15/14 A2996 RMK AO2 SFC VIS 2 1/2 RAE03B41 PRESRR SLP144 CIG 002V006 PCPN VRY LGT TWRINC P0000 T01500139 $=
201512220852 METAR KATL 220852Z 15008KT 1SM R09R/P6000FT -RA BR BKN003 OVC008 12/12 A2997 RMK AO2 SFC VIS 2 1/2 PRESFR SLP148 CIG 002V004 TWRINC P0017 60032 T01220117 58027=
201512220752 METAR KATL 220752Z 09004KT 1SM R09R/P6000FT RA BR BKN003 OVC045 12/11 A3003 RMK AO2 SFC VIS 3 SLP169 CIG 002V004 TWRINC P0006 T01170106=
201512220652 METAR KATL 220652Z 10005KT 1SM R09R/P6000FT RA BR BKN003 OVC041 12/11 A3004 RMK AO2 SFC VIS 2 SLP171 CIG 002V004 P0009 T01170106=
201512220552 METAR KATL 220552Z 08003KT 1SM R09R/P6000FT -RA BR OVC003 12/11 A3006 RMK AO2 SFC VIS 5 SLP177 CIG 002V005 P0004 60042 T01170106 10122 20111 58022=
201512220452 METAR KATL 220452Z 10006KT 1SM R09R/P6000FT -RA BR OVC003 12/11 A3009 RMK AO2 SFC VIS 4 SLP189 CIG 002V005 P0003 T01170106 401390067=
201512220352 METAR KATL 220352Z 10005KT 1SM R09R/P6000FT -RA BR OVC004 12/11 A3011 RMK AO2 SFC VIS 5 SLP195 CIG 003V006 P0004 T01170106=
201512220324 SPECI KATL 220324Z 12004KT 1SM R09R/P6000FT -RA BR BKN004 OVC030 12/11 A3011 RMK AO2 SFC VIS 6 CIG 003V006 P0004 T01170106=
201512220320 SPECI KATL 220320Z 12006KT 5SM -RA BR BKN004 OVC030 12/11 A3012 RMK AO2 CIG 003V006 P0004 T01170106=
201512220252 METAR KATL 220252Z 11004KT 4SM -RA BR BKN006 BKN020 OVC060 11/10 A3012 RMK AO2 SLP201 CIG 004V009 P0011 60031 T01110100 58014=
201512220216 SPECI KATL 220216Z 10009KT 3SM RA BR BKN008 OVC060 11/10 A3013 RMK AO2 P0004 T01110100=
201512220152 METAR KATL 220152Z 08008KT 3SM RA BR BKN010 OVC060 11/09 A3014 RMK AO2 SLP209 P0016 T01110094=
201512220052 METAR KATL 220052Z 09007KT 5SM RA BR BKN013 BKN060 OVC120 12/09 A3016 RMK AO2 SLP213 P0004 T01170094=
201512220032 SPECI KATL 220032Z 08004KT 9SM -RA BKN014 BKN080 OVC150 12/09 A3016 RMK AO2 P0000 T01220094=
201512220003 SPECI KATL 220003Z 11005KT 8SM -RA FEW014 SCT030 BKN090 OVC150 12/09 A3015 RMK AO2 P0000 T01220094=
201512212352 METAR KATL 212352Z 10007KT 7SM -RA SCT014 BKN028 BKN090 OVC150 12/09 A3016 RMK AO2 RAB22 SLP215 P0003 60003 T01220094 10139 20122 56008=
201512212252 METAR KATL 212252Z 12007KT 10SM FEW055 BKN150 OVC200 13/09 A3017 RMK AO2 SLP217 VIRGA SE-SW T01330089=
201512212152 METAR KATL 212152Z 12007KT 10SM FEW100 BKN150 OVC180 14/09 A3017 RMK AO2 SLP218 VIRGA SE-S-SW-W-NW T01390089=
201512212052 METAR KATL 212052Z 12007KT 10SM FEW050 SCT100 OVC170 14/08 A3019 RMK AO2 SLP224 VIRGA N-NE-E & SW-NW T01390083 56023=
201512211952 METAR KATL 211952Z 12003KT 10SM FEW040 BKN050 BKN150 OVC230 14/08 A3021 RMK AO2 SLP232 T01390083=
201512211852 METAR KATL 211852Z 12007KT 10SM FEW050 SCT150 OVC180 13/08 A3023 RMK AO2 SLP238 VIRGA DSNT N-NE T01330078=
201512211752 METAR KATL 211752Z 13006KT 10SM FEW020 SCT050 OVC160 12/07 A3026 RMK AO2 SLP248 VIRGA NE & SW-NW T01220067 10122 20083 58026=
201512211652 METAR KATL 211652Z 10008KT 10SM FEW020 SCT050 OVC150 12/06 A3031 RMK AO2 SLP267 T01170061=
201512211552 METAR KATL 211552Z 09008KT 10SM FEW020 SCT050 OVC160 11/06 A3033 RMK AO2 SLP274 T01060056=
201512211452 METAR KATL 211452Z 08007KT 10SM FEW010 SCT030 OVC050 09/04 A3034 RMK AO2 SLP275 T00940044 53003=
201512211352 METAR KATL 211352Z 10007KT 10SM FEW009 BKN033 OVC048 09/04 A3033 RMK AO2 SLP275 T00890039=
201512211335 SPECI KATL 211335Z VRB05KT 10SM SCT009 BKN033 OVC048 09/04 A3033 RMK AO2 T00890039=
201512211252 METAR KATL 211252Z 09007KT 10SM BKN008 OVC035 09/03 A3032 RMK AO2 SLP271 T00890033=
201512211249 SPECI KATL 211249Z 10007KT 10SM BKN008 OVC035 08/03 A3032 RMK AO2=
201512211243 SPECI KATL 211243Z 10006KT 10SM SCT008 BKN035 OVC045 08/03 A3032 RMK AO2 T00830028=
201512211152 METAR KATL 211152Z 10007KT 10SM FEW025 BKN034 BKN044 OVC180 08/02 A3033 RMK AO2 SLP273 T00830022 10083 20067 58003=
201512211123 SPECI KATL 211123Z 09008KT 10SM SCT018 SCT032 OVC180 08/02 A3032 RMK AO2 T00780017=
201512211052 METAR KATL 211052Z 08008KT 10SM OVC019 08/01 A3034 RMK AO2 SLP279 VIRGA OHD-ALQDS T00830011=
201512210952 METAR KATL 210952Z 09008KT 10SM BKN024 BKN039 OVC180 08/00 A3033 RMK AO2 SLP273 T00780000=
201512210915 SPECI KATL 210915Z 08007KT 10SM BKN035 BKN180 OVC250 07/00 A3033 RMK AO2 T00720000=
201512210852 METAR KATL 210852Z 08007KT 10SM FEW034 BKN180 OVC250 07/M01 A3034 RMK AO2 SLP275 T00671006 58011=
201512210752 METAR KATL 210752Z 09008KT 10SM FEW150 OVC200 07/M01 A3035 RMK AO2 SLP281 T00721011=
201512210652 METAR KATL 210652Z 09008KT 10SM FEW150 OVC200 07/M01 A3037 RMK AO2 SLP288 T00721011=
201512210552 METAR KATL 210552Z 08008KT 10SM SCT150 OVC200 07/M02 A3037 RMK AO2 SLP286 T00721017 10100 20072 58009=
201512210452 METAR KATL 210452Z 09006KT 10SM FEW150 BKN200 OVC250 08/M02 A3039 RMK AO2 SLP294 T00781017 401280011=
201512210352 METAR KATL 210352Z 11006KT 10SM FEW150 BKN200 OVC250 08/M02 A3039 RMK AO2 SLP293 T00831022=
201512210252 METAR KATL 210252Z 11006KT 10SM FEW150 OVC200 09/M02 A3040 RMK AO2 SLP297 T00891022 57005=
201512210152 METAR KATL 210152Z 12008KT 10SM BKN200 BKN250 09/M02 A3039 RMK AO2 SLP298 T00891017=
201512210052 METAR KATL 210052Z 11007KT 10SM BKN180 OVC250 09/M02 A3041 RMK AO2 SLP304 T00941017=
201512202352 METAR KATL 202352Z 10006KT 10SM BKN180 OVC250 09/M01 A3041 RMK AO2 SLP303 T00941011 10128 20089 50002=
201512202252 METAR KATL 202252Z 09007KT 10SM BKN180 OVC250 09/M02 A3041 RMK AO2 SLP304 T00941017=
201512202152 METAR KATL 202152Z 13008KT 10SM BKN180 OVC250 12/M03 A3040 RMK AO2 SLP300 T01171033=
201512202052 METAR KATL 202052Z 13010KT 10SM FEW180 OVC250 12/M03 A3041 RMK AO2 SLP302 T01221033 56021=
201512201952 METAR KATL 201952Z 10006KT 10SM SCT180 OVC250 12/M03 A3042 RMK AO2 SLP305 T01221033=
201512201852 METAR KATL 201852Z 14005KT 10SM SCT180 OVC250 12/M04 A3045 RMK AO2 SLP315 BINOVC T01171044=
201512201752 METAR KATL 201752Z VRB04KT 10SM FEW180 BKN250 11/M05 A3047 RMK AO2 SLP323 T01111050 10117 20022 58010=
201512201652 METAR KATL 201652Z VRB05KT 10SM SCT200 BKN250 10/M06 A3051 RMK AO2 SLP337 T01001061=
201512201552 METAR KATL 201552Z 10005KT 10SM FEW250 09/M05 A3053 RMK AO2 SLP343 T00891050=
201512201452 METAR KATL 201452Z 08010KT 10SM FEW250 07/M04 A3050 RMK AO2 SLP334 T00671039 51014=
201512201352 METAR KATL 201352Z 08009KT 10SM FEW250 04/M03 A3048 RMK AO2 SLP329 T00441033=
201512201252 METAR KATL 201252Z 02006KT 10SM FEW250 03/M04 A3050 RMK AO2 SLP335 T00331039=
201512201152 METAR KATL 201152Z 03005KT 10SM FEW250 03/M04 A3046 RMK AO2 SLP320 T00331039 10033 20011 53005=
201512201052 METAR KATL 201052Z 32004KT 10SM FEW250 03/M04 A3044 RMK AO2 SLP315 T00281039=
201512200952 METAR KATL 200952Z 34004KT 10SM FEW250 02/M04 A3043 RMK AO2 SLP310 T00221039=
201512200852 METAR KATL 200852Z 30005KT 10SM CLR 01/M04 A3044 RMK AO2 SLP315 T00111039 56005=
201512200752 METAR KATL 200752Z 32005KT 10SM CLR 02/M04 A3044 RMK AO2 SLP314 T00221039=
201512200652 METAR KATL 200652Z 31004KT 10SM CLR 03/M04 A3045 RMK AO2 SLP315 T00281039=
201512200552 METAR KATL 200552Z 31006KT 10SM CLR 03/M04 A3046 RMK AO2 SLP320 T00281039 10072 20028 58009=
201512200452 METAR KATL 200452Z 29005KT 10SM CLR 04/M04 A3047 RMK AO2 SLP324 T00441044 401171017=
201512200352 METAR KATL 200352Z 30004KT 10SM CLR 04/M04 A3048 RMK AO2 SLP329 T00441044=
201512200252 METAR KATL 200252Z 30007KT 10SM CLR 05/M04 A3049 RMK AO2 SLP332 T00501044 50002=
201512200152 METAR KATL 200152Z 30004KT 10SM CLR 06/M05 A3049 RMK AO2 SLP332 T00561050=
201512200052 METAR KATL 200052Z 31005KT 10SM CLR 07/M06 A3048 RMK AO2 SLP331 T00671056=
201512192352 METAR KATL 192352Z 31006KT 10SM CLR 07/M06 A3048 RMK AO2 SLP331 T00721056 10117 20072 52008=
201512192252 METAR KATL 192252Z 33006KT 10SM CLR 08/M07 A3048 RMK AO2 SLP328 T00831067=
201512192152 METAR KATL 192152Z 31007KT 10SM CLR 10/M07 A3047 RMK AO2 SLP323 T01001067=
201512192052 METAR KATL 192052Z 33011KT 10SM CLR 11/M07 A3046 RMK AO2 SLP321 T01111067 55009=
201512191952 METAR KATL 191952Z 33010KT 10SM CLR 11/M07 A3046 RMK AO2 SLP320 T01111072=
201512191852 METAR KATL 191852Z 30009KT 10SM CLR 10/M07 A3047 RMK AO2 SLP325 T01001067=
201512191752 METAR KATL 191752Z 33014KT 10SM CLR 09/M07 A3049 RMK AO2 SLP331 T00891072 10094 21017 58008=
201512191652 METAR KATL 191652Z 32010KT 10SM CLR 08/M05 A3051 RMK AO2 SLP337 T00781050=
201512191552 METAR KATL 191552Z 33007KT 10SM CLR 06/M04 A3052 RMK AO2 SLP344 T00561044=
201512191452 METAR KATL 191452Z 30008KT 10SM CLR 03/M04 A3051 RMK AO2 SLP342 T00281039 53024=
201512191352 METAR KATL 191352Z 28007KT 10SM CLR 01/M04 A3049 RMK AO2 SLP334 T00061044=
201512191338 SPECI KATL 191338Z 27005KT 10SM FEW002 00/M04 A3048 RMK AO2 FU FEW002 NW T00001044=
201512191252 METAR KATL 191252Z 27004KT 10SM CLR M02/M05 A3046 RMK AO2 SLP325 T10171050=
201512191152 METAR KATL 191152Z 26004KT 10SM CLR M02/M06 A3044 RMK AO2 SLP317 T10171056 10000 21017 53021=
201512191052 METAR KATL 191052Z 29005KT 10SM CLR M02/M06 A3041 RMK AO2 SLP308 T10171056=
201512190952 METAR KATL 190952Z 27004KT 10SM CLR M01/M06 A3039 RMK AO2 SLP300 T10111056=
201512190852 METAR KATL 190852Z 26005KT 10SM CLR M01/M06 A3038 RMK AO2 SLP294 T10111056 53015=
201512190752 METAR KATL 190752Z 28006KT 10SM CLR M01/M06 A3035 RMK AO2 SLP285 T10111056=
201512190652 METAR KATL 190652Z 29005KT 10SM CLR M01/M06 A3034 RMK AO2 SLP280 T10061056=
201512190552 METAR KATL 190552Z 27005KT 10SM CLR M01/M05 A3033 RMK AO2 SLP278 T10061050 10033 21006 53012=
201512190452 METAR KATL 190452Z 32006KT 10SM CLR 01/M05 A3032 RMK AO2 SLP272 T00061050 400890006=
201512190352 METAR KATL 190352Z 33009KT 10SM CLR 01/M05 A3030 RMK AO2 SLP268 T00111050=
201512190252 METAR KATL 190252Z 33010KT 10SM CLR 02/M05 A3030 RMK AO2 SLP266 T00171050 51018=
201512190152 METAR KATL 190152Z 33012KT 10SM CLR 02/M04 A3028 RMK AO2 SLP262 T00221044=
201512190052 METAR KATL 190052Z 32015KT 10SM CLR 03/M04 A3026 RMK AO2 SLP256 T00281044=
201512182352 METAR KATL 182352Z 32012G19KT 10SM CLR 03/M04 A3024 RMK AO2 SLP248 T00331039 10089 20033 53033=
201512182252 METAR KATL 182252Z 32014G22KT 10SM FEW250 04/M04 A3021 RMK AO2 SLP235 T00441039=
201512182152 METAR KATL 182152Z 30018G22KT 10SM FEW042 FEW250 06/M04 A3017 RMK AO2 SLP221 T00611039=
201512182052 METAR KATL 182052Z 30017KT 10SM FEW042 FEW150 SCT250 07/M03 A3014 RMK AO2 PK WND 31028/2009 SLP211 T00721033 53008=
201512181952 METAR KATL 181952Z 31014G24KT 10SM FEW042 FEW180 08/M02 A3012 RMK AO2 PK WND 32033/1917 SLP202 T00831022=
201512181852 METAR KATL 181852Z 31020G27KT 10SM FEW040 FEW250 08/M02 A3011 RMK AO2 PK WND 29032/1810 SLP198 T00831022=
201512181752 METAR KATL 181752Z 31014KT 10SM FEW040 FEW250 08/M01 A3012 RMK AO2 PK WND 32026/1729 SLP201 T00831011 10089 20033 50006=
201512181652 METAR KATL 181652Z 31012G20KT 10SM FEW030 FEW250 08/M01 A3012 RMK AO2 SLP201 T00781011=
201512181552 METAR KATL 181552Z 31012KT 10SM FEW025 FEW250 07/M01 A3012 RMK AO2 SLP202 T00671006=
201512181452 METAR KATL 181452Z 32014KT 10SM FEW020 FEW200 SCT250 05/00 A3010 RMK AO2 SLP195 T00500000 53037=
201512181352 METAR KATL 181352Z 31015KT 10SM FEW021 SCT200 SCT250 04/M01 A3006 RMK AO2 SLP181 T00391006=
201512181252 METAR KATL 181252Z 31011KT 10SM FEW150 SCT200 SCT250 04/00 A3001 RMK AO2 SLP166 T00390000=
201512181152 METAR KATL 181152Z 31011KT 10SM SCT200 SCT250 04/00 A2998 RMK AO2 SLP154 70008 T00440000 10089 20039 53020=
201512181052 METAR KATL 181052Z 31011KT 10SM SCT200 BKN250 05/02 A2996 RMK AO2 SLP146 T00500017=
201512180952 METAR KATL 180952Z 31010KT 10SM SCT200 BKN250 06/03 A2994 RMK AO2 SLP137 T00560028=
201512180852 METAR KATL 180852Z 31009KT 10SM SCT250 07/04 A2992 RMK AO2 SLP132 T00670039 53010=
201512180752 METAR KATL 180752Z 31008KT 10SM FEW016 SCT250 07/05 A2991 RMK AO2 SLP127 T00720050=
201512180725 SPECI KATL 180725Z 31010KT 10SM SCT014 SCT250 08/05 A2990 RMK AO2 T00780050=
201512180652 METAR KATL 180652Z 31009KT 10SM BKN014 BKN250 08/06 A2990 RMK AO2 SLP123 T00830056=
201512180552 METAR KATL 180552Z 28006KT 10SM BKN010 BKN200 08/07 A2989 RMK AO2 SLP121 T00830067 10139 20083 53004=
201512180537 SPECI KATL 180537Z 29007KT 10SM BKN010 BKN200 08/07 A2989 RMK AO2 T00830067=
201512180452 METAR KATL 180452Z 30009KT 10SM FEW008 SCT180 09/07 A2989 RMK AO2 SLP119 T00890072 401890089=
201512180352 METAR KATL 180352Z 29007KT 10SM FEW009 SCT180 10/08 A2988 RMK AO2 SLP116 T01000078=
201512180252 METAR KATL 180252Z 31009KT 10SM FEW015 BKN180 BKN250 11/08 A2988 RMK AO2 SLP116 T01060083 51013=
201512180152 METAR KATL 180152Z 31008KT 10SM FEW150 BKN180 BKN250 12/09 A2987 RMK AO2 SLP112 VIRGA NE-OHD-SW T01220089=
201512180052 METAR KATL 180052Z 28007KT 10SM SCT150 BKN180 BKN250 13/09 A2987 RMK AO2 SLP113 VIRGA NE-OHD-SW T01330094=
201512172352 METAR KATL 172352Z 31010KT 10SM SCT150 BKN180 BKN250 14/10 A2984 RMK AO2 SLP103 VIRGA NE-SE & SW-NW T01390100 10189 20139 51013=
201512172252 METAR KATL 172252Z 32010KT 10SM SCT150 BKN180 BKN250 16/11 A2984 RMK AO2 SLP100 VIRGA SE-SW T01560111=
201512172152 METAR KATL 172152Z 31007KT 10SM FEW030 BKN190 BKN250 17/12 A2982 RMK AO2 SLP095 T01720117=
201512172052 METAR KATL 172052Z 31011KT 10SM SCT020 BKN030 BKN150 BKN250 18/13 A2980 RMK AO2 SLP089 T01780128 55001=
201512172009 SPECI KATL 172009Z 27006KT 10SM FEW015 SCT025 BKN035 BKN250 18/14 A2980 RMK AO2 T01830144=
201512171952 METAR KATL 171952Z 30007KT 10SM BKN016 BKN024 BKN250 18/15 A2980 RMK AO2 SLP087 T01780150=
201512171928 SPECI KATL 171928Z 27006KT 10SM FEW012 BKN018 BKN030 18/15 A2980 RMK AO2 T01780150=
201512171852 METAR KATL 171852Z 26007KT 10SM BKN012 BKN020 OVC030 18/16 A2980 RMK AO2 SLP087 T01780156=
201512171810 SPECI KATL 171810Z 27008KT 10SM FEW008 BKN012 OVC030 18/16 A2981 RMK AO2 T01780156=
201512171752 METAR KATL 171752Z 28006KT 9SM FEW005 BKN008 OVC030 18/16 A2981 RMK AO2 DZE44 SLP090 P0000 60008 T01780156 10178 20144 56004=
201512171652 METAR KATL 171652Z 27008G17KT 2 1/2SM -DZ BR OVC005 17/16 A2982 RMK AO2 SFC VIS 4 RAE1558DZB48 SLP094 P0000 T01720156=
201512171615 SPECI KATL 171615Z 26006KT 1 1/2SM BR OVC005 17/16 A2982 RMK AO2 SFC VIS 4 RAE1558 P0000 T01670156=
201512171552 METAR KATL 171552Z 22006KT 1/2SM R09R/P6000FT -RA BR OVC004 17/16 A2982 RMK AO2 SFC VIS 4 RAB41 SLP096 TWRINC P0000 T01670156=
201512171548 SPECI KATL 171548Z 21004KT 1/2SM R09R/P6000FT -RA BR OVC004 17/15 A2982 RMK AO2 SFC VIS 3 RAB41 TWRINC P0000=
201512171520 SPECI KATL 171520Z 20004KT 1 1/2SM BR OVC005 16/15 A2982 RMK AO2 SFC VIS 4 T01610150=
201512171452 METAR KATL 171452Z 00000KT 1/2SM R09R/P6000FT BR OVC004 16/14 A2981 RMK AO2 SFC VIS 2 RAE20 SLP092 TWRINC P0001 60008 T01560144 53008=
201512171352 METAR KATL 171352Z 12005KT 1/2SM R09R/P6000FT -RA BR OVC004 15/13 A2979 RMK AO2 SFC VIS 3 RAE00B16 SLP085 CIG 003V006 TWRINC P0003 T01500133=
201512171252 METAR KATL 171252Z 11005KT 1/2SM R09R/P6000FT -RA OVC004 14/13 A2978 RMK AO2 SFC VIS 8 SLP083 CIG 003V005 TWRINC P0004 T01440133=
201512171152 METAR KATL 171152Z 12006KT 1/2SM R09R/P6000FT -RA BR BKN004 BKN010 OVC030 14/13 A2979 RMK AO2 SFC VIS 4 SLP084 CIG 003V006 TWRINC P0011 60145 70208 T01440133 10144 20139 56010=
201512171058 SPECI KATL 171058Z 09004KT 1/2SM R09R/P6000FT -RA BR BKN004 BKN015 OVC080 14/13 A2980 RMK AO2 SFC VIS 5 CIG 003V005 TWRINC P0000 T01440133=
201512171052 METAR KATL 171052Z 09006KT 1 1/2SM -RA BR BKN004 BKN018 OVC080 14/13 A2979 RMK AO2 SFC VIS 5 SLP086 CIG 003V006 TWRINC P0004 T01440128=
201512171001 SPECI KATL 171001Z 12004KT 1 1/2SM -RA BR BKN004 BKN016 OVC030 14/13 A2982 RMK AO2 SFC VIS 6 CIG 003V006 TWRINC P0000 T01390133=
201512170952 METAR KATL 170952Z 10007KT 1 1/2SM RA BR BKN005 BKN016 OVC048 14/13 A2981 RMK AO2 SFC VIS 3 SLP089 CIG 003V007 P0057 T01390128=
201512170933 SPECI KATL 170933Z 08009KT 1 1/2SM +RA BR SCT004 BKN021CB OVC048 14/13 A2981 RMK AO2 SFC VIS 2 CB OHD-NE MOV NE P0052 T01390128=
201512170852 METAR KATL 170852Z 08008KT 1 1/2SM -RA BR BKN004 OVC010 14/13 A2982 RMK AO2 SFC VIS 5 SLP093 CIG 003V006 TWRINC P0002 60073 T01390128 58018=
201512170839 SPECI KATL 170839Z 07006KT 1 1/2SM -RA BR BKN004 OVC010 14/13 A2983 RMK AO2 SFC VIS 6 CIG 003V006 TWRINC P0002 T01390128=
201512170814 SPECI KATL 170814Z 08003KT 6SM -RA BR BKN007 OVC013 14/13 A2984 RMK AO2 CIG 005V009 P0001 T01390128=
201512170752 METAR KATL 170752Z 09005KT 6SM -RA BR SCT004 BKN010 OVC024 14/13 A2984 RMK AO2 SLP101 CIG 008V012 P0038 T01390128=
201512170737 SPECI KATL 170737Z 08007KT 4SM -RA BR SCT004 BKN015 OVC026 14/13 A2985 RMK AO2 P0037 T01390128=
201512170714 SPECI KATL 170714Z COR 08003KT 2 1/2SM +RA BR BKN004 BKN008 OVC012 14/13 A2986 RMK AO2 CIG 003V006 P0026 T01390128=
201512170526 SPECI KATL 170526Z 12007KT 1 1/2SM +RA BR BKN005CB OVC040 13/12 A2987 RMK AO2 CIG 003V007 CB SE-OHD-NW MOV NE P0027 T01330122=
201512170519 SPECI KATL 170519Z 13005KT 4SM -RA BR BKN005 OVC040 13/12 A2988 RMK AO2 CIG 003V007 P0020 T01330122=
201512170509 SPECI KATL 170509Z 13007KT 2SM +RA BR BKN005 OVC040 13/12 A2989 RMK AO2 CIG 003V007 P0006 T01330122=
201512170452 METAR KATL 170452Z 12006KT 6SM -RA BR BKN006 OVC060 13/12 A2989 RMK AO2 SLP119 CIG 004V008 P0010 T01330122 402220078=
201512170442 SPECI KATL 170442Z 11007KT 5SM -RA BR BKN006 BKN010 OVC060 13/12 A2989 RMK AO2 P0009 T01330122=
201512170411 SPECI KATL 170411Z 11006KT 6SM -RA BR SCT007 BKN014 OVC060 14/12 A2991 RMK AO2 P0002 T01390122=
201512170352 METAR KATL 170352Z 11008KT 7SM -RA FEW008 SCT030 BKN060 OVC130 14/12 A2991 RMK AO2 SLP126 P0006 T01390117=
201512170315 SPECI KATL 170315Z 13006KT 7SM -RA FEW018 BKN030 OVC100 14/12 A2993 RMK AO2 P0001 T01390117=
201512170252 METAR KATL 170252Z 15006KT 7SM -RA BKN018 BKN035 OVC090 14/12 A2994 RMK AO2 RAB25 SLP136 P0001 60001 T01390117 55000=
201512170215 SPECI KATL 170215Z 14006KT 10SM BKN015 BKN030 OVC090 14/11 A2993 RMK AO2 T01440106=
201512170152 METAR KATL 170152Z 13010KT 10SM SCT028 BKN035 BKN090 OVC150 15/11 A2992 RMK AO2 RAE04 SLP131 P0000 T01500106=
201512170052 METAR KATL 170052Z 13009KT 10SM -RA FEW038 SCT050 BKN100 OVC150 16/09 A2994 RMK AO2 RAB25 SLP137 P0000 T01610094=
201512162352 METAR KATL 162352Z 14005KT 10SM FEW040 BKN110 OVC150 16/10 A2994 RMK AO2 SLP138 60000 T01610100 10222 20161 53007=
201512162252 METAR KATL 162252Z 18008KT 10SM FEW040 BKN100 OVC150 17/09 A2994 RMK AO2 RAB2155E29 SLP136 P0000 T01670094=
201512162152 METAR KATL 162152Z 14006KT 10SM FEW043 BKN110 OVC150 21/08 A2992 RMK AO2 SLP130 VIRGA VC SE-SW BINOVC DSNT E T02060083=
201512162052 METAR KATL 162052Z COR 16005KT 10SM BKN045 BKN120 BKN150 21/08 A2992 RMK AO2 SLP129 T02110078 55008=
201512161952 METAR KATL 161952Z 15006KT 10SM BKN045 BKN110 22/08 A2991 RMK AO2 SLP126 T02170083=
201512161852 METAR KATL 161852Z 14005KT 10SM FEW110 FEW150 22/09 A2992 RMK AO2 SLP129 T02170089=
201512161752 METAR KATL 161752Z 11005KT 10SM FEW150 FEW250 21/08 A2994 RMK AO2 SLP136 T02060083 10206 20078 58021=
201512161652 METAR KATL 161652Z 13009KT 10SM FEW250 19/09 A2998 RMK AO2 SLP150 T01940094=
201512161552 METAR KATL 161552Z 13005KT 10SM FEW250 17/09 A3001 RMK AO2 SLP160 T01720094=
201512161452 METAR KATL 161452Z 13003KT 10SM CLR 15/09 A3001 RMK AO2 SLP160 T01500094 51017=
201512161352 METAR KATL 161352Z 09003KT 10SM CLR 13/09 A3000 RMK AO2 SLP157 T01280089=
201512161252 METAR KATL 161252Z 00000KT 10SM CLR 08/06 A2998 RMK AO2 SLP153 T00830061=
201512161152 METAR KATL 161152Z 00000KT 10SM CLR 09/07 A2996 RMK AO2 SLP143 T00890067 10122 20078 53006=
201512161052 METAR KATL 161052Z 00000KT 10SM CLR 09/07 A2994 RMK AO2 SLP136 T00940067=
201512160952 METAR KATL 160952Z 00000KT 10SM CLR 09/07 A2994 RMK AO2 SLP135 T00940067=
201512160852 METAR KATL 160852Z 00000KT 10SM CLR 10/07 A2994 RMK AO2 SLP134 T01000072 56004=
201512160752 METAR KATL 160752Z 30003KT 10SM CLR 09/07 A2994 RMK AO2 SLP136 T00890072=
201512160652 METAR KATL 160652Z 32004KT 10SM CLR 12/08 A2994 RMK AO2 SLP135 T01170083=
201512160552 METAR KATL 160552Z 00000KT 10SM CLR 12/08 A2995 RMK AO2 SLP138 T01170083 10178 20100 51003=
201512160452 METAR KATL 160452Z 00000KT 10SM CLR 11/07 A2994 RMK AO2 SLP138 T01060072 402220089=
201512160352 METAR KATL 160352Z 00000KT 10SM CLR 13/08 A2994 RMK AO2 SLP138 T01280078=
201512160252 METAR KATL 160252Z 26003KT 10SM CLR 12/08 A2994 RMK AO2 SLP136 T01220078 53010=
201512160152 METAR KATL 160152Z 00000KT 10SM CLR 13/08 A2992 RMK AO2 SLP131 T01280083=
201512160052 METAR KATL 160052Z 31003KT 10SM CLR 15/08 A2991 RMK AO2 SLP128 T01500083=
201512152352 METAR KATL 152352Z 34004KT 10SM CLR 17/08 A2991 RMK AO2 SLP125 T01720078 10222 20172 51002=
201512152252 METAR KATL 152252Z 29003KT 10SM CLR 19/08 A2990 RMK AO2 SLP123 T01890078=
201512152152 METAR KATL 152152Z 29005KT 10SM CLR 20/08 A2990 RMK AO2 SLP124 T02000083=
201512152052 METAR KATL 152052Z 29005KT 10SM CLR 22/08 A2990 RMK AO2 SLP121 T02170083 55005=
201512151952 METAR KATL 151952Z 34005KT 10SM CLR 22/09 A2989 RMK AO2 SLP118 T02220089=
201512151852 METAR KATL 151852Z 31003KT 10SM CLR 21/08 A2990 RMK AO2 SLP121 T02110083=
201512151752 METAR KATL 151752Z 32005KT 10SM CLR 20/08 A2991 RMK AO2 SLP126 T02000083 10200 20089 58010=
201512151652 METAR KATL 151652Z 33009KT 10SM CLR 18/08 A2994 RMK AO2 SLP134 T01830083=
201512151552 METAR KATL 151552Z 35010KT 10SM CLR 16/08 A2994 RMK AO2 SLP137 T01610078=
201512151452 METAR KATL 151452Z 35009KT 10SM CLR 14/08 A2995 RMK AO2 SLP139 T01390078 51016=
201512151352 METAR KATL 151352Z 35010KT 10SM CLR 12/08 A2993 RMK AO2 SLP135 T01170078=
201512151252 METAR KATL 151252Z 33008KT 10SM CLR 09/07 A2991 RMK AO2 SLP130 T00890067=
201512151152 METAR KATL 151152Z 32007KT 10SM CLR 09/07 A2990 RMK AO2 SLP124 70026 T00890067 10122 20089 53002=
201512151052 METAR KATL 151052Z 31007KT 10SM CLR 09/07 A2989 RMK AO2 SLP121 T00940067=
201512150952 METAR KATL 150952Z 30008KT 10SM CLR 10/07 A2988 RMK AO2 SLP118 T01000072=
201512150852 METAR KATL 150852Z 27007KT 10SM CLR 11/07 A2989 RMK AO2 SLP119 T01060072 53006=
201512150752 METAR KATL 150752Z 27006KT 10SM CLR 10/07 A2988 RMK AO2 SLP116 T01000067=
201512150652 METAR KATL 150652Z 26003KT 10SM CLR 11/07 A2987 RMK AO2 SLP112 T01060072=
201512150552 METAR KATL 150552Z 26005KT 10SM CLR 12/08 A2987 RMK AO2 SLP113 T01220078 10139 20122 51014=
201512150452 METAR KATL 150452Z 26004KT 10SM CLR 12/08 A2987 RMK AO2 SLP112 T01220078 402000122=
201512150352 METAR KATL 150352Z 25005KT 10SM CLR 13/08 A2985 RMK AO2 SLP106 T01280083=
201512150252 METAR KATL 150252Z 24005KT 10SM CLR 13/08 A2983 RMK AO2 SLP098 T01280083 51014=
201512150152 METAR KATL 150152Z 23007KT 10SM CLR 13/09 A2982 RMK AO2 SLP094 T01330089=
201512150052 METAR KATL 150052Z 23007KT 10SM CLR 13/09 A2980 RMK AO2 SLP088 T01330094=
201512142352 METAR KATL 142352Z 21005KT 10SM CLR 14/10 A2979 RMK AO2 SLP083 60003 T01390100 10189 20139 53014=
201512142252 METAR KATL 142252Z 22006KT 10SM FEW200 16/09 A2977 RMK AO2 SLP078 T01560094=
201512142152 METAR KATL 142152Z 23008KT 10SM FEW120 18/10 A2976 RMK AO2 SLP071 T01780100=
201512142052 METAR KATL 142052Z 24013G18KT 10SM FEW030 FEW120 18/09 A2975 RMK AO2 SLP067 60003 T01830094 56010=
201512141952 METAR KATL 141952Z 23011KT 10SM FEW020 FEW120 18/13 A2975 RMK AO2 SLP067 T01830128=
201512141904 SPECI KATL 141904Z 22007KT 10SM FEW010 SCT015 BKN110 17/15 A2976 RMK AO2 T01720150=
201512141852 METAR KATL 141852Z 23009KT 10SM FEW010 BKN017 BKN110 17/15 A2976 RMK AO2 RAE46 SLP073 P0003 T01720150=
201512141849 SPECI KATL 141849Z 23010KT 10SM FEW010 BKN017 BKN110 17/15 A2976 RMK AO2 RAE46 P0003=
201512141815 SPECI KATL 141815Z 22008G17KT 9SM -RA BKN010 BKN020 OVC080 17/16 A2977 RMK AO2 P0002 T01720156=
201512141803 SPECI KATL 141803Z 20012G17KT 4SM RA BR BKN010 BKN023 OVC080 17/16 A2977 RMK AO2 P0002 T01720156=
201512141752 METAR KATL 141752Z 21010KT 9SM -RA BKN012 BKN020 OVC070 17/16 A2978 RMK AO2 SLP079 P0001 60023 T01720156 10200 20161 58015=
201512141748 SPECI KATL 141748Z 21011KT 8SM -RA BKN012 BKN020 OVC070 17/15 A2978 RMK AO2 P0001=
201512141652 METAR KATL 141652Z 21007KT 10SM -RA FEW010 BKN050 OVC070 17/15 A2980 RMK AO2 SLP086 P0004 T01670150=
201512141627 SPECI KATL 141627Z 22011G16KT 10SM -RA FEW013 BKN040 OVC065 17/14 A2982 RMK AO2 P0003 T01670144=
201512141554 SPECI KATL 141554Z 25010KT 2SM -RA BR FEW010 BKN013 OVC020 16/14 A2984 RMK AO2 P0000 T01610144=
201512141552 METAR KATL 141552Z 26010G18KT 2SM -RA BR FEW010 BKN020 OVC040 16/14 A2984 RMK AO2 WSHFT 1439 SFC VIS 3 SLP101 P0010 T01610144=
201512141522 SPECI KATL 141522Z 27011KT 2SM R09R/6000VP6000FT RA BR FEW007 BKN020 OVC030 16/15 A2984 RMK AO2 WSHFT 1439 P0005 T01610150=
201512141520 SPECI KATL 141520Z 27010KT 1 3/4SM R09R/6000VP6000FT RA BR FEW007 BKN020 OVC030 16/15 A2984 RMK AO2 WSHFT 1439 TWR VIS 2 1/2 P0004 T01610150=
201512141518 SPECI KATL 141518Z 27009KT 2SM R09R/6000VP6000FT RA BR FEW007 BKN020 OVC030 16/14 A2984 RMK AO2 WSHFT 1439 TWR VIS 2 1/2 P0003 T01610144=
201512141500 SPECI KATL 141500Z 27012G25KT 2 1/2SM -RA BR SCT013CB BKN028 OVC039 16/14 A2983 RMK AO2 WSHFT 1439 SFC VIS 4 CB NE-SE MOV E VIS LWR NE-SE SHRA P0001 T01610144=
201512141456 SPECI KATL 141456Z 27016G26KT 1 1/2SM R09R/5000VP6000FT RA BR BKN013CB BKN018 OVC024 17/14 A2983 RMK AO2 WSHFT 1439 SFC VIS 3 CB NE-SE MOV E VIS LWR NE-SE SHRA P0001 T01670144=
201512141454 SPECI KATL 141454Z 27018G26KT 3/4SM R09R/5000VP6000FT RA BR BKN013 BKN018 OVC024 17/14 A2983 RMK AO2 WSHFT 1439 TWR VIS 1 1/2 P0001 T01670144=
201512141452 METAR KATL 141452Z 27017G26KT 1 1/2SM R09R/5000VP6000FT RA BR FEW010 BKN013CB OVC020 17/14 A2982 RMK AO2 PK WND 27026/1447 WSHFT 1433 SFC VIS 2 RAB47 SLP094 CB OHD MOV E P0008 60008 T01670144 53004=
201512141447 SPECI KATL 141447Z 27020G26KT 1/2SM R09R/5500VP6000FT +RA BR FEW010 BKN013CB OVC020 18/16 A2982 RMK AO2 PK WND 27026/1447 WSHFT 1433 SFC VIS 1 RAB47 PRESRR CB OHD MOV E P0000=
201512141430 SPECI KATL 141430Z 18012G19KT 10SM FEW009 BKN013CB OVC018 20/17 A2980 RMK AO2 CB SW-NW MOV E SHRA VC SW-NW T02000172=
201512141352 METAR KATL 141352Z 17010KT 10SM BKN009 OVC015 20/18 A2980 RMK AO2 SLP084 CIG 008V012 T02000178=
201512141252 METAR KATL 141252Z 17013KT 8SM OVC008 19/18 A2981 RMK AO2 RAE1157 SLP089 P0000 T01940178=
201512141249 SPECI KATL 141249Z 18013KT 8SM OVC008 19/18 A2981 RMK AO2 RAE1157 P0000=
201512141152 METAR KATL 141152Z 18010G17KT 8SM -RA BKN012 BKN018 OVC026 19/17 A2982 RMK AO2 RAB04 SLP092 P0000 60000 T01940172 10194 20183 56017=
201512141052 METAR KATL 141052Z 19014G20KT 8SM FEW009 OVC012 19/17 A2983 RMK AO2 SLP094 T01940172=
201512141048 SPECI KATL 141048Z 18013G20KT 8SM SCT009 OVC012 19/17 A2983 RMK AO2=
201512140952 METAR KATL 140952Z 17011G19KT 7SM BKN009 OVC012 19/17 A2984 RMK AO2 RAB10E36 SLP097 P0000 T01940172=
201512140852 METAR KATL 140852Z 16014G18KT 8SM OVC007 19/17 A2987 RMK AO2 RAB07E32 SLP109 P0000 60000 T01890167 58018=
201512140752 METAR KATL 140752Z 16009KT 10SM OVC008 18/16 A2990 RMK AO2 SLP118 T01830161=
201512140652 METAR KATL 140652Z 15010G18KT 10SM OVC009 18/16 A2992 RMK AO2 SLP124 CIG 008V012 T01830156=
201512140638 SPECI KATL 140638Z 16010KT 10SM OVC009 18/16 A2992 RMK AO2 T01830156=
201512140552 METAR KATL 140552Z 14011G19KT 10SM OVC012 18/15 A2993 RMK AO2 SLP127 T01830150 10189 20178 58021=
201512140532 SPECI KATL 140532Z 14009G18KT 10SM BKN014 BKN050 BKN200 BKN250 18/15 A2994 RMK AO2 T01780150=
201512140452 METAR KATL 140452Z 14011KT 10SM FEW050 BKN200 BKN250 18/15 A2995 RMK AO2 SLP137 T01780150 402220117=
201512140352 METAR KATL 140352Z 13009KT 10SM BKN048 BKN200 BKN250 18/14 A2998 RMK AO2 SLP148 T01780144=
201512140252 METAR KATL 140252Z 13009KT 10SM FEW048 BKN200 BKN250 18/15 A2999 RMK AO2 SLP151 T01780150 58006=
201512140152 METAR KATL 140152Z 12009KT 10SM FEW045 BKN200 BKN250 18/16 A3001 RMK AO2 SLP160 T01830156=
201512140052 METAR KATL 140052Z 13009KT 10SM FEW040 BKN200 BKN250 19/16 A3001 RMK AO2 SLP161 T01890156=
201512132352 METAR KATL 132352Z 13008KT 10SM FEW028 BKN200 BKN250 19/16 A3001 RMK AO2 SLP158 T01890156 10222 20189 56013=
201512132252 METAR KATL 132252Z 12009KT 10SM FEW030 BKN200 BKN250 20/15 A3002 RMK AO2 SLP162 T02000150=
201512132152 METAR KATL 132152Z 12012KT 10SM FEW030 SCT050 BKN250 21/15 A3003 RMK AO2 SLP163 T02110150=
201512132052 METAR KATL 132052Z 14007KT 10SM SCT034 BKN050 OVC250 22/14 A3005 RMK AO2 SLP170 T02170144 56022=
201512131952 METAR KATL 131952Z 14008KT 10SM SCT028 BKN048 BKN250 22/14 A3006 RMK AO2 SLP175 T02170144=
201512131906 SPECI KATL 131906Z 15008G17KT 10SM SCT028 BKN045 22/15 A3007 RMK AO2 T02170150=
201512131852 METAR KATL 131852Z 16012G16KT 10SM BKN028 BKN048 21/15 A3008 RMK AO2 SLP182 T02110150=
201512131752 METAR KATL 131752Z 13009KT 10SM BKN022 BKN046 BKN250 21/15 A3011 RMK AO2 SLP194 T02060150 10211 20117 58024=
201512131652 METAR KATL 131652Z 13008KT 10SM SCT015 BKN044 BKN250 19/14 A3015 RMK AO2 SLP206 T01940139=
201512131552 METAR KATL 131552Z 13008KT 10SM FEW043 BKN250 17/13 A3018 RMK AO2 SLP215 T01720128=
201512131452 METAR KATL 131452Z 13005KT 9SM FEW060 BKN250 17/13 A3019 RMK AO2 SLP219 T01670133 53001=
201512131352 METAR KATL 131352Z 09006KT 7SM FEW150 SCT200 BKN250 13/12 A3019 RMK AO2 SLP221 T01330117=
201512131252 METAR KATL 131252Z 09006KT 8SM FEW150 SCT200 BKN250 12/11 A3018 RMK AO2 SLP219 T01170106=
201512131152 METAR KATL 131152Z 00000KT 10SM FEW180 BKN250 13/11 A3019 RMK AO2 SLP220 T01280111 10156 20128 53003=
201512131052 METAR KATL 131052Z 13003KT 10SM OVC250 13/11 A3017 RMK AO2 SLP215 T01280106=
201512130952 METAR KATL 130952Z 11003KT 10SM BKN250 13/11 A3017 RMK AO2 SLP214 T01330111=
201512130852 METAR KATL 130852Z 13004KT 10SM BKN250 13/12 A3018 RMK AO2 SLP215 T01330117 58011=
201512130752 METAR KATL 130752Z 12005KT 10SM FEW180 BKN250 14/12 A3019 RMK AO2 SLP217 T01440117=
201512130652 METAR KATL 130652Z 13005KT 10SM FEW180 BKN250 14/12 A3020 RMK AO2 SLP222 T01440122=
201512130552 METAR KATL 130552Z 11005KT 10SM BKN180 BKN250 15/12 A3021 RMK AO2 SLP225 T01500122 10183 20139 58002=
201512130452 METAR KATL 130452Z 09005KT 10SM SCT180 BKN250 14/12 A3023 RMK AO2 SLP231 T01440122 402280117=
201512130352 METAR KATL 130352Z 10004KT 10SM BKN180 BKN250 16/13 A3022 RMK AO2 SLP231 T01610128=
201512130252 METAR KATL 130252Z 13003KT 10SM BKN180 BKN250 16/12 A3022 RMK AO2 SLP230 T01610122 55000=
201512130152 METAR KATL 130152Z 11004KT 10SM SCT200 BKN250 17/12 A3021 RMK AO2 SLP229 T01670122=
201512130052 METAR KATL 130052Z 11004KT 10SM SCT200 BKN250 18/13 A3022 RMK AO2 SLP231 T01780128=
201512122352 METAR KATL 122352Z 11003KT 10SM BKN200 BKN250 18/13 A3022 RMK AO2 SLP230 T01830128 10228 20183 53009=
201512122252 METAR KATL 122252Z 15003KT 10SM FEW040 BKN200 BKN250 20/12 A3021 RMK AO2 SLP227 T02000122=
201512122152 METAR KATL 122152Z 14005KT 10SM FEW038 BKN250 21/12 A3019 RMK AO2 SLP220 T02110122=
201512122052 METAR KATL 122052Z 16007KT 9SM FEW040 BKN200 22/12 A3019 RMK AO2 SLP218 T02220122 56014=
201512121952 METAR KATL 121952Z 16005KT 10SM FEW040 BKN250 22/12 A3020 RMK AO2 SLP221 T02220122=
201512121852 METAR KATL 121852Z 19007KT 10SM FEW036 BKN200 22/13 A3021 RMK AO2 SLP225 T02220128=
201512121752 METAR KATL 121752Z 19007KT 10SM FEW030 BKN250 22/13 A3023 RMK AO2 SLP232 T02170133 10217 20122 58007=
201512121652 METAR KATL 121652Z 18006KT 10SM FEW025 BKN250 21/14 A3025 RMK AO2 SLP240 T02060144=
201512121625 SPECI KATL 121625Z 23004KT 8SM FEW008 BKN250 19/14 A3026 RMK AO2 T01940144=
201512121552 METAR KATL 121552Z 00000KT 3SM R09R/2400VP6000FT BR FEW003 BKN250 17/16 A3027 RMK AO2 SFC VIS 6 SLP246 VSBY S 2 T01670156=
201512121549 SPECI KATL 121549Z 00000KT 3SM R09R/1400VP6000FT BR FEW003 BKN250 17/16 A3026 RMK AO2 SFC VIS 6 VSBY S 2=
201512121543 SPECI KATL 121543Z 00000KT 1SM R09R/1200V2400FT BR SCT002 BKN250 16/15 A3026 RMK AO2 SFC VIS 2 VSBY S 1/2 T01610150=
201512121452 METAR KATL 121452Z 12004KT 1/4SM R09R/1000V1400FT FG VV002 14/14 A3025 RMK AO2 SFC VIS 1/2 SLP242 T01440139 51011=
201512121352 METAR KATL 121352Z 12003KT 1/4SM R09R/0800V1200FT FG VV002 13/12 A3025 RMK AO2 SLP242 T01330122=
201512121335 SPECI KATL 121335Z 13003KT 1/4SM R09R/1000V1800FT BR BCFG BKN002 BKN004 BKN250 13/12 A3025 RMK AO2 SFC VIS 2 VIS SE-SW 1/2 TWRINC T01280122=
201512121329 SPECI KATL 121329Z 00000KT 1/4SM R09R/1200VP6000FT BR BCFG SCT002 BKN004 BKN250 13/12 A3024 RMK AO2 SFC VIS 3 VIS SE-SW 1/2 FU FEW002 SW T01330122=
201512121325 SPECI KATL 121325Z 12003KT 1SM R09R/1400VP6000FT BR BCFG SCT002 BKN004 BKN250 13/12 A3024 RMK AO2 SFC VIS 3 VIS SE-SW 1/2 FU FEW002 T01330122=
201512121255 SPECI KATL 121255Z 00000KT 5SM R09R/1200V2600FT BR BCFG FEW002 FEW250 13/12 A3023 RMK AO2 VIS SE-SW 3/4 T01280117=
201512121252 METAR KATL 121252Z 00000KT 5SM R09R/1200V2200FT BR BCFG FEW002 FEW250 13/12 A3023 RMK AO2 SLP235 VIS SE-SW 3/4 T01280117=
201512121152 METAR KATL 121152Z 00000KT 8SM R09R/1800VP6000FT BCFG FEW002 FEW250 12/11 A3022 RMK AO2 SLP231 VIS LWR SE-SW T01220111 10150 20117 53010=
201512121052 METAR KATL 121052Z 00000KT 8SM R09R/2000V2800FT BCFG FEW002 FEW250 13/12 A3020 RMK AO2 SLP223 VIS LWR E-S-SW T01280117=
201512121016 SPECI KATL 121016Z 21003KT 7SM BCFG FEW002 FEW250 13/12 A3019 RMK AO2 VIS E-S-SW 1 T01280117=
201512120952 METAR KATL 120952Z 00000KT 7SM MIFG FEW003 FEW250 13/12 A3019 RMK AO2 SLP219 T01280117=
201512120852 METAR KATL 120852Z 00000KT 8SM FEW006 SCT250 14/13 A3019 RMK AO2 SLP217 T01390128 53006=
201512120752 METAR KATL 120752Z 21003KT 10SM FEW040 SCT250 15/13 A3017 RMK AO2 SLP212 T01500133=
201512120652 METAR KATL 120652Z 20003KT 10SM FEW040 BKN250 14/13 A3018 RMK AO2 SLP215 T01440133=
201512120552 METAR KATL 120552Z 20005KT 10SM FEW040 BKN250 15/13 A3017 RMK AO2 SLP212 T01500133 10178 20150 51011=
201512120452 METAR KATL 120452Z 18006KT 9SM FEW040 BKN250 16/14 A3016 RMK AO2 SLP209 T01560139 402280128=
201512120352 METAR KATL 120352Z 19003KT 9SM BKN250 16/14 A3015 RMK AO2 SLP206 T01560139=
201512120252 METAR KATL 120252Z 16003KT 10SM BKN250 16/14 A3013 RMK AO2 SLP200 T01610144 51016=
201512120152 METAR KATL 120152Z 14003KT 10SM BKN250 16/14 A3012 RMK AO2 SLP197 T01610144=
201512120052 METAR KATL 120052Z 16003KT 10SM BKN250 17/15 A3011 RMK AO2 SLP191 T01720150=
201512112352 METAR KATL 112352Z 18004KT 10SM BKN250 17/15 A3009 RMK AO2 SLP184 T01720150 10228 20172 50011=
201512112252 METAR KATL 112252Z 18007KT 10SM FEW035 BKN250 19/15 A3009 RMK AO2 SLP185 T01890150=
201512112152 METAR KATL 112152Z 18007KT 10SM FEW035 BKN250 21/16 A3007 RMK AO2 SLP178 T02060156=
201512112052 METAR KATL 112052Z 20010KT 9SM SCT029 BKN250 22/14 A3005 RMK AO2 SLP172 T02220144 55004=
201512111952 METAR KATL 111952Z 24008G17KT 10SM FEW021 SCT028 BKN055 BKN250 23/15 A3005 RMK AO2 SLP172 T02280150=
201512111852 METAR KATL 111852Z 22007KT 190V260 10SM FEW021 BKN031 BKN055 BKN250 21/16 A3007 RMK AO2 SLP178 SHRA S T02110156=
201512111848 SPECI KATL 111848Z 24006KT 10SM FEW021 BKN031 BKN055 BKN250 21/16 A3007 RMK AO2=
201512111832 SPECI KATL 111832Z 23009KT 10SM SCT018 BKN026 BKN250 21/16 A3008 RMK AO2 T02060156=
201512111752 METAR KATL 111752Z VRB05KT 10SM BKN012 BKN020 BKN040 19/16 A3008 RMK AO2 RAE1654 SLP182 P0000 60000 T01940161 10200 20172 58006=
201512111748 SPECI KATL 111748Z VRB03KT 10SM BKN012 BKN020 BKN040 19/16 A3008 RMK AO2 RAE1654 P0000=
201512111700 SPECI KATL 111700Z 19006KT 10SM SCT012 BKN016 BKN030 19/17 A3010 RMK AO2 RAE1654 P0000 T01940167=
201512111652 METAR KATL 111652Z 19005KT 9SM -RA BKN012 BKN017 BKN020 19/16 A3009 RMK AO2 RAB44 SLP188 P0000 T01890161=
201512111552 METAR KATL 111552Z 21008KT 10SM FEW009 SCT015 BKN030 19/17 A3010 RMK AO2 SLP188 T01940167=
201512111504 SPECI KATL 111504Z 21006KT 8SM SCT006 BKN012 OVC020 18/16 A3008 RMK AO2 T01780161=
201512111452 METAR KATL 111452Z 20005KT 8SM BKN008 BKN012 OVC018 18/16 A3008 RMK AO2 SLP182 60000 T01780161 51018=
201512111439 SPECI KATL 111439Z 20006KT 5SM BR BKN006 OVC013 18/16 A3007 RMK AO2 T01780161=
201512111352 METAR KATL 111352Z 20004KT 7SM SCT010 BKN015 BKN022 BKN250 18/16 A3007 RMK AO2 DZE49RAB49E51 SLP178 P0000 T01780161=
201512111252 METAR KATL 111252Z 22005KT 4SM -DZ BR OVC007 17/16 A3005 RMK AO2 DZB07 SLP171 CIG 006V009 P0000 T01720161=
201512111152 METAR KATL 111152Z 23005KT 1 1/2SM BKN007 OVC012 17/16 A3002 RMK AO2 SFC VIS 7 DZE47 SLP163 CIG 005V009 P0000 60000 T01720156 10172 20128 53009=
201512111121 SPECI KATL 111121Z 24010KT 1 1/2SM -DZ BR OVC005 17/16 A3002 RMK AO2 SFC VIS 5 CIG 004V006 P0000 T01720156=
201512111052 METAR KATL 111052Z 24008KT 1 1/2SM -DZ BR OVC004 17/16 A3001 RMK AO2 SFC VIS 6 SLP159 CIG 003V005 TWRINC P0000 T01670156=
201512111027 SPECI KATL 111027Z 24006KT 1 1/2SM -DZ BR OVC004 17/16 A3001 RMK AO2 SFC VIS 3 CIG 003V005 TWRINC P0000 T01670156=
201512110952 METAR KATL 110952Z 24007KT 1/2SM R09R/P6000FT -DZ BR OVC004 17/16 A3001 RMK AO2 SFC VIS 2 1/2 SLP157 CIG 003V005 TWRINC P0000 T01670156=
201512110852 METAR KATL 110852Z 23006KT 1/2SM R09R/5500VP6000FT -DZ BR VV002 15/14 A3000 RMK AO2 SFC VIS 3/4 DZB50 SLP153 PCPN VRY LGT P0000 60000 T01500144 53003=
201512110752 METAR KATL 110752Z 23005KT 1/2SM R09R/P6000FT BR OVC003 14/13 A2999 RMK AO2 SFC VIS 3 SLP153 CIG 002V004 TWRINC T01440133=
201512110745 SPECI KATL 110745Z 22006KT 1/2SM R09R/P6000FT BR OVC004 14/13 A2999 RMK AO2 SFC VIS 4 CIG 003V005 TWRINC T01440128=
201512110743 SPECI KATL 110743Z 22006KT 4SM BR OVC004 14/13 A2999 RMK AO2 CIG 003V005 T01440128=
201512110714 SPECI KATL 110714Z 21005KT 7SM BKN007 BKN028 BKN250 13/12 A2999 RMK AO2 CIG 006V008 T01330117=
201512110708 SPECI KATL 110708Z 23004KT 9SM FEW008 13/12 A2999 RMK AO2 T01330117=
201512110652 METAR KATL 110652Z 22004KT 9SM FEW028 SCT250 13/12 A2998 RMK AO2 SLP149 T01330117=
201512110552 METAR KATL 110552Z 22004KT 9SM FEW028 SCT250 14/12 A2999 RMK AO2 SLP152 T01390117 10161 20133 56002=
201512110519 SPECI KATL 110519Z 21006KT 10SM FEW028 SCT040 SCT250 14/12 A2999 RMK AO2 T01440122=
201512110452 METAR KATL 110452Z 21006KT 10SM BKN028 OVC040 14/12 A2999 RMK AO2 SLP155 BINOVC T01440122 401940106=
201512110352 METAR KATL 110352Z 19005KT 10SM FEW040 SCT200 BKN250 13/11 A2999 RMK AO2 SLP153 T01330111=
201512110252 METAR KATL 110252Z 20004KT 10SM SCT040 BKN200 BKN250 14/12 A2999 RMK AO2 SLP155 T01440117 51009=
201512110152 METAR KATL 110152Z 19005KT 10SM FEW040 SCT200 BKN250 14/11 A2999 RMK AO2 SLP154 T01440111=
201512110052 METAR KATL 110052Z 00000KT 10SM BKN040 BKN250 16/12 A2999 RMK AO2 SLP152 T01560117=
201512102352 METAR KATL 102352Z 00000KT 10SM BKN250 16/12 A2997 RMK AO2 SLP146 T01560117 10194 20156 58001=
201512102252 METAR KATL 102252Z 00000KT 10SM FEW200 BKN250 17/12 A2997 RMK AO2 SLP147 T01670117=
201512102152 METAR KATL 102152Z 22003KT 10SM FEW040 FEW050 BKN250 18/12 A2998 RMK AO2 SLP147 T01830117=
201512102052 METAR KATL 102052Z 26006KT 10SM FEW030 FEW050 BKN250 19/12 A2997 RMK AO2 SLP145 T01890117 56016=
201512101952 METAR KATL 101952Z 22006KT 10SM FEW025 SCT045 SCT250 18/12 A2998 RMK AO2 SLP148 T01830122=
201512101921 SPECI KATL 101921Z 24006KT 10SM FEW018 SCT024 SCT044 18/13 A2999 RMK AO2 T01830128=
201512101852 METAR KATL 101852Z 27008KT 10SM BKN018 BKN024 BKN250 18/13 A3001 RMK AO2 SLP158 T01830128=
201512101838 SPECI KATL 101838Z 24008KT 10SM FEW012 SCT018 SCT250 18/13 A3001 RMK AO2 T01830128=
201512101752 METAR KATL 101752Z 21008KT 10SM BKN010 BKN015 16/12 A3002 RMK AO2 SLP163 T01610122 10161 20106 58014=
201512101739 SPECI KATL 101739Z 21008KT 10SM BKN010 16/12 A3003 RMK AO2 T01610122=
201512101652 METAR KATL 101652Z 21008KT 10SM BKN008 BKN010 BKN014 16/12 A3005 RMK AO2 SLP173 T01560122=
201512101552 METAR KATL 101552Z 24006KT 6SM BR OVC006 14/12 A3006 RMK AO2 SLP179 T01440122=
201512101546 SPECI KATL 101546Z 24007KT 6SM HZ OVC006 14/12 A3006 RMK AO2=
201512101508 SPECI KATL 101508Z 24006KT 1 1/2SM BR OVC004 13/12 A3007 RMK AO2 SFC VIS 3 CIG 003V005 TWRINC T01330117=
201512101502 SPECI KATL 101502Z 24006KT 2 1/2SM BR OVC004 13/12 A3007 RMK AO2 SFC VIS 3 CIG 003V005 T01330117=
201512101452 METAR KATL 101452Z 23006KT 2 1/2SM BR OVC005 13/11 A3006 RMK AO2 SFC VIS 4 SLP179 CIG 004V006 T01330111 51016=
201512101411 SPECI KATL 101411Z 25005KT 8SM BKN008 BKN040 BKN250 13/11 A3006 RMK AO2 T01330106=
201512101352 METAR KATL 101352Z 22006KT 8SM FEW006 FEW040 SCT250 12/11 A3005 RMK AO2 SLP173 T01220106=
201512101252 METAR KATL 101252Z 21005KT 10SM FEW035 FEW050 SCT250 11/09 A3003 RMK AO2 SLP170 T01060094=
201512101152 METAR KATL 101152Z 22004KT 10SM FEW050 SCT250 11/09 A3001 RMK AO2 SLP162 T01110089 10133 20111 53010=
201512101052 METAR KATL 101052Z 21004KT 10SM FEW055 SCT250 12/09 A3000 RMK AO2 SLP156 T01170089=
201512100952 METAR KATL 100952Z 21005KT 10SM BKN055 BKN250 13/09 A2999 RMK AO2 SLP153 T01330094=
201512100852 METAR KATL 100852Z 22005KT 10SM BKN060 BKN250 13/09 A2998 RMK AO2 SLP150 T01330094 58008=
201512100752 METAR KATL 100752Z 21005KT 10SM BKN060 BKN250 13/09 A3000 RMK AO2 SLP156 T01330089=
201512100652 METAR KATL 100652Z 22005KT 10SM BKN060 BKN250 13/09 A3001 RMK AO2 SLP159 T01280089=
201512100552 METAR KATL 100552Z 21005KT 10SM BKN060 BKN250 13/08 A3001 RMK AO2 SLP159 T01280083 10156 20128 58001=
201512100452 METAR KATL 100452Z 21005KT 10SM BKN055 BKN250 13/08 A3002 RMK AO2 SLP163 T01330083 401890056=
201512100352 METAR KATL 100352Z 00000KT 10SM SCT060 SCT250 13/08 A3001 RMK AO2 SLP162 T01280083=
201512100252 METAR KATL 100252Z 20004KT 10SM FEW060 SCT250 13/08 A3001 RMK AO2 SLP162 T01330083 56001=
201512100152 METAR KATL 100152Z 20003KT 10SM BKN060 14/08 A3001 RMK AO2 SLP163 T01440083=
201512100052 METAR KATL 100052Z 18006KT 10SM BKN060 15/09 A3001 RMK AO2 SLP163 T01500089=
201512092352 METAR KATL 092352Z 15003KT 10SM BKN050 16/08 A3001 RMK AO2 SLP164 T01560083 10189 20156 53011=
201512092252 METAR KATL 092252Z 00000KT 10SM BKN045 16/08 A3000 RMK AO2 SLP160 T01560078=
201512092152 METAR KATL 092152Z 25005KT 10SM BKN045 17/08 A2999 RMK AO2 SLP156 T01720083=
201512092052 METAR KATL 092052Z 24009KT 10SM FEW040 FEW200 SCT250 18/08 A2998 RMK AO2 SLP152 T01830078 56016=
201512091952 METAR KATL 091952Z 24007KT 10SM SCT037 SCT200 BKN250 18/09 A2999 RMK AO2 SLP156 T01780089=
201512091852 METAR KATL 091852Z 26008KT 10SM SCT035 SCT250 18/09 A3001 RMK AO2 SLP161 T01830089=
201512091752 METAR KATL 091752Z 23008KT 10SM SCT033 18/08 A3003 RMK AO2 SLP169 T01780083 10178 20061 58022=
201512091652 METAR KATL 091652Z 23009G15KT 10SM FEW035 FEW250 16/08 A3006 RMK AO2 SLP178 T01610083=
201512091552 METAR KATL 091552Z 22008KT 10SM FEW033 FEW250 14/08 A3009 RMK AO2 SLP190 T01440078=
201512091452 METAR KATL 091452Z 20003KT 10SM FEW030 FEW200 SCT250 11/06 A3010 RMK AO2 SLP193 T01110056 50004=
201512091352 METAR KATL 091352Z 20004KT 10SM FEW140 SCT200 SCT250 08/04 A3010 RMK AO2 SLP194 T00780039=
201512091252 METAR KATL 091252Z 18003KT 10SM FEW150 SCT200 SCT250 07/02 A3010 RMK AO2 SLP194 T00670022=
201512091152 METAR KATL 091152Z 21003KT 10SM FEW200 06/02 A3008 RMK AO2 SLP189 T00610017 10083 20056 53001=
201512091052 METAR KATL 091052Z 00000KT 10SM FEW200 06/02 A3007 RMK AO2 SLP186 T00610017=
201512090952 METAR KATL 090952Z 18003KT 10SM FEW200 06/02 A3007 RMK AO2 SLP184 T00610017=
201512090852 METAR KATL 090852Z 00000KT 10SM FEW200 07/02 A3008 RMK AO2 SLP186 T00720022 55002=
201512090752 METAR KATL 090752Z 00000KT 10SM FEW250 06/02 A3007 RMK AO2 SLP184 T00610017=
201512090652 METAR KATL 090652Z 00000KT 10SM CLR 07/02 A3008 RMK AO2 SLP187 T00720022=
201512090552 METAR KATL 090552Z 00000KT 10SM CLR 08/02 A3009 RMK AO2 SLP188 T00780022 10128 20078 58005=
201512090452 METAR KATL 090452Z 18005KT 10SM CLR 08/03 A3009 RMK AO2 SLP190 T00780028 401830044=
201512090352 METAR KATL 090352Z 00000KT 10SM CLR 09/02 A3010 RMK AO2 SLP194 T00940022=
201512090252 METAR KATL 090252Z 00000KT 10SM CLR 09/03 A3010 RMK AO2 SLP195 T00940028 53004=
201512090152 METAR KATL 090152Z 00000KT 10SM CLR 11/02 A3009 RMK AO2 SLP192 T01060022 $=
201512090052 METAR KATL 090052Z 18003KT 10SM CLR 11/02 A3009 RMK AO2 SLP193 T01110022 $=
201512082352 METAR KATL 082352Z 18004KT 10SM CLR 13/03 A3009 RMK AO2 SLP192 T01280028 10183 20122 52004 $=
201512082252 METAR KATL 082252Z 19004KT 10SM CLR 14/03 A3008 RMK AO2 SLP188 T01390028 $=
201512082152 METAR KATL 082152Z 19005KT 10SM FEW250 16/02 A3008 RMK AO2 SLP187 T01610022 $=
201512082052 METAR KATL 082052Z 17006KT 10SM FEW250 17/01 A3008 RMK AO2 SLP186 T01670006 56020 $=
201512081952 METAR KATL 081952Z 00000KT 10SM FEW250 17/02 A3009 RMK AO2 SLP188 T01720017 $=
201512081852 METAR KATL 081852Z 06004KT 10SM FEW250 16/04 A3011 RMK AO2 SLP198 T01610039=
201512081752 METAR KATL 081752Z 00000KT 10SM FEW250 16/03 A3014 RMK AO2 SLP205 T01610033 10167 20044 58015=
201512081652 METAR KATL 081652Z 00000KT 10SM FEW250 16/04 A3016 RMK AO2 SLP213 T01560044=
201512081552 METAR KATL 081552Z 09004KT 10SM FEW250 14/05 A3018 RMK AO2 SLP219 T01390050=
201512081452 METAR KATL 081452Z 30003KT 10SM FEW250 11/06 A3018 RMK AO2 SLP222 T01060056 51011=
201512081352 METAR KATL 081352Z 33006KT 10SM FEW250 08/04 A3018 RMK AO2 SLP220 T00780044=
201512081252 METAR KATL 081252Z 33005KT 10SM CLR 05/03 A3016 RMK AO2 SLP217 T00500028=
201512081152 METAR KATL 081152Z 33004KT 10SM CLR 04/02 A3015 RMK AO2 SLP212 T00440017 10078 20044 53004=
201512081052 METAR KATL 081052Z 36004KT 10SM CLR 06/03 A3013 RMK AO2 SLP205 T00610028=
201512080952 METAR KATL 080952Z 34006KT 10SM CLR 06/03 A3013 RMK AO2 SLP205 T00610028=
201512080852 METAR KATL 080852Z 34005KT 10SM CLR 07/03 A3014 RMK AO2 SLP205 T00670033 50002=
201512080752 METAR KATL 080752Z 30003KT 10SM CLR 07/03 A3014 RMK AO2 SLP207 T00670028=
201512080652 METAR KATL 080652Z 32006KT 10SM CLR 07/03 A3013 RMK AO2 SLP203 T00720033=
201512080552 METAR KATL 080552Z 29007KT 10SM CLR 08/03 A3013 RMK AO2 SLP202 T00780033 10139 20078 58001=
201512080452 METAR KATL 080452Z 30006KT 10SM CLR 08/03 A3013 RMK AO2 SLP204 T00830033 401890078=
201512080352 METAR KATL 080352Z 29005KT 10SM CLR 10/04 A3014 RMK AO2 SLP206 T01000044=
201512080252 METAR KATL 080252Z 31004KT 10SM CLR 11/04 A3013 RMK AO2 SLP204 T01060039 58002=
201512080152 METAR KATL 080152Z 31007KT 10SM CLR 11/04 A3014 RMK AO2 SLP208 T01060044=
201512080052 METAR KATL 080052Z 30004KT 10SM CLR 13/04 A3014 RMK AO2 SLP207 T01280044=
201512072352 METAR KATL 072352Z 30003KT 10SM CLR 13/04 A3014 RMK AO2 SLP207 T01280044 10189 20128 53005=
201512072252 METAR KATL 072252Z 32008KT 10SM CLR 15/04 A3013 RMK AO2 SLP203 T01500044=
201512072152 METAR KATL 072152Z 32011KT 10SM CLR 17/04 A3013 RMK AO2 SLP201 T01670039=
201512072052 METAR KATL 072052Z 32012KT 10SM CLR 18/06 A3012 RMK AO2 SLP199 T01830061 56021=
201512071952 METAR KATL 071952Z 29010KT 10SM FEW050 19/06 A3013 RMK AO2 SLP202 T01890061=
201512071852 METAR KATL 071852Z 29008KT 10SM FEW050 18/06 A3015 RMK AO2 SLP209 T01830061=
201512071752 METAR KATL 071752Z 31010KT 10SM FEW040 18/08 A3019 RMK AO2 SLP221 T01830078 10183 20078 58019=
201512071652 METAR KATL 071652Z 30007KT 10SM FEW040 FEW070 17/08 A3022 RMK AO2 SLP233 ACSL DSNT S-SW-W T01720078=
201512071552 METAR KATL 071552Z 32010KT 10SM CLR 16/08 A3025 RMK AO2 SLP241 T01560078=
201512071452 METAR KATL 071452Z 31005KT 10SM CLR 14/07 A3024 RMK AO2 SLP242 T01390067 53003=
201512071352 METAR KATL 071352Z 00000KT 10SM FEW050 12/07 A3024 RMK AO2 SLP240 T01220067=
201512071252 METAR KATL 071252Z 00000KT 10SM FEW046 08/04 A3024 RMK AO2 SLP241 T00780044=
201512071152 METAR KATL 071152Z 00000KT 10SM FEW046 08/05 A3024 RMK AO2 SLP240 T00830050 10100 20083 55002=
201512071052 METAR KATL 071052Z 31004KT 10SM BKN043 BKN060 09/06 A3023 RMK AO2 SLP238 T00940056=
201512070952 METAR KATL 070952Z 32006KT 10SM SCT047 BKN060 09/05 A3024 RMK AO2 SLP239 T00890050=
201512070852 METAR KATL 070852Z 00000KT 10SM BKN047 09/05 A3024 RMK AO2 SLP240 T00890050 58014=
201512070752 METAR KATL 070752Z 00000KT 10SM SCT055 09/05 A3026 RMK AO2 SLP246 T00890050=
201512070652 METAR KATL 070652Z 00000KT 10SM SCT065 SCT250 09/05 A3028 RMK AO2 SLP252 T00940050=
201512070552 METAR KATL 070552Z 00000KT 10SM FEW060 SCT250 09/04 A3029 RMK AO2 SLP256 T00890044 10150 20089 56011=
201512070452 METAR KATL 070452Z 00000KT 10SM FEW065 SCT250 11/05 A3030 RMK AO2 SLP261 T01060050 401830056=
201512070352 METAR KATL 070352Z 12004KT 10SM FEW065 SCT250 12/05 A3031 RMK AO2 SLP264 T01170050=
201512070252 METAR KATL 070252Z 14004KT 10SM BKN060 BKN250 12/05 A3032 RMK AO2 SLP269 T01170050 58004=
201512070152 METAR KATL 070152Z 11004KT 10SM BKN065 BKN250 13/05 A3033 RMK AO2 SLP272 T01280050=
201512070052 METAR KATL 070052Z 10005KT 10SM BKN065 BKN250 14/05 A3033 RMK AO2 SLP272 T01440050=
201512062352 METAR KATL 062352Z 00000KT 10SM BKN060 BKN250 15/05 A3033 RMK AO2 SLP273 T01500050 10183 20150 55004=
201512062252 METAR KATL 062252Z 10005KT 10SM BKN060 BKN250 16/05 A3033 RMK AO2 SLP273 T01560050=
201512062152 METAR KATL 062152Z 16004KT 10SM BKN060 BKN250 17/05 A3033 RMK AO2 SLP273 T01670050=
201512062052 METAR KATL 062052Z 00000KT 10SM BKN060 BKN250 17/05 A3035 RMK AO2 SLP277 T01720050 56025=
201512061952 METAR KATL 061952Z 12004KT 10SM FEW060 BKN200 18/06 A3036 RMK AO2 SLP280 T01830056=
201512061852 METAR KATL 061852Z 11008KT 10SM FEW060 BKN250 17/06 A3038 RMK AO2 SLP288 T01720056=
201512061752 METAR KATL 061752Z 11006KT 10SM SCT060 BKN250 16/05 A3042 RMK AO2 SLP304 T01610050 10161 20061 58030=
201512061652 METAR KATL 061652Z 11007KT 10SM BKN065 BKN250 14/03 A3047 RMK AO2 SLP318 T01390028=
201512061552 METAR KATL 061552Z 08010KT 10SM OVC065 12/01 A3050 RMK AO2 SLP332 T01170011=
201512061452 METAR KATL 061452Z 07011KT 10SM BKN065 BKN250 11/01 A3051 RMK AO2 SLP336 T01060006 53004=
201512061352 METAR KATL 061352Z 07011KT 10SM FEW060 BKN250 08/00 A3051 RMK AO2 SLP334 T00830000=
201512061252 METAR KATL 061252Z 07009KT 10SM FEW060 BKN250 07/M01 A3050 RMK AO2 SLP333 T00671006=
201512061152 METAR KATL 061152Z 06007KT 10SM FEW060 BKN250 06/M01 A3050 RMK AO2 SLP332 T00611006 10072 20056 55004=
201512061052 METAR KATL 061052Z 07008KT 10SM SCT250 06/M01 A3050 RMK AO2 SLP331 T00561006=
201512060952 METAR KATL 060952Z 07008KT 10SM FEW060 SCT250 06/M01 A3050 RMK AO2 SLP329 T00611011=
201512060852 METAR KATL 060852Z 07009KT 10SM FEW060 SCT250 07/M01 A3051 RMK AO2 SLP334 T00671011 56008=
201512060752 METAR KATL 060752Z 08009KT 10SM FEW043 BKN060 BKN250 07/M01 A3052 RMK AO2 SLP336 T00671011=
201512060652 METAR KATL 060652Z 08008KT 10SM FEW043 BKN055 BKN250 07/M01 A3053 RMK AO2 SLP339 T00721011=
201512060552 METAR KATL 060552Z 08009KT 10SM SCT055 SCT250 07/M01 A3054 RMK AO2 SLP343 T00671011 10111 20061 58006=
201512060452 METAR KATL 060452Z 09008KT 10SM FEW060 FEW250 07/M02 A3054 RMK AO2 SLP346 T00671017 401500028=
201512060352 METAR KATL 060352Z 09009KT 10SM FEW055 07/M02 A3055 RMK AO2 SLP350 T00671017=
201512060252 METAR KATL 060252Z 08009KT 10SM FEW050 08/M02 A3056 RMK AO2 SLP351 T00781022 53008=
201512060152 METAR KATL 060152Z 08009KT 10SM FEW050 09/M02 A3054 RMK AO2 SLP348 T00891022=
201512060052 METAR KATL 060052Z 08008KT 10SM CLR 09/M02 A3054 RMK AO2 SLP348 T00941022=
201512052352 METAR KATL 052352Z 07007KT 10SM FEW050 11/M03 A3053 RMK AO2 SLP344 T01111028 10150 20100 53007=
201512052252 METAR KATL 052252Z 08009KT 10SM FEW050 11/M02 A3052 RMK AO2 SLP340 T01111022=
201512052152 METAR KATL 052152Z 09009KT 10SM CLR 13/M02 A3051 RMK AO2 SLP335 T01331022=
201512052052 METAR KATL 052052Z 09009KT 10SM CLR 14/M03 A3051 RMK AO2 SLP334 T01441028 56015=
201512051952 METAR KATL 051952Z 08008KT 10SM CLR 14/M03 A3051 RMK AO2 SLP334 T01441028=
201512051852 METAR KATL 051852Z 06011KT 10SM CLR 14/M02 A3053 RMK AO2 SLP340 T01391022=
201512051752 METAR KATL 051752Z 08008KT 10SM CLR 13/M02 A3056 RMK AO2 SLP351 T01281017 10133 20033 58016=
201512051652 METAR KATL 051652Z 07012KT 10SM CLR 12/M02 A3059 RMK AO2 SLP361 T01171017=
201512051552 METAR KATL 051552Z 09018KT 10SM CLR 10/M01 A3060 RMK AO2 SLP368 T01001011=
201512051452 METAR KATL 051452Z 09011KT 10SM CLR 09/M01 A3060 RMK AO2 SLP367 T00891006 51013=
201512051352 METAR KATL 051352Z 08012KT 10SM CLR 06/M02 A3059 RMK AO2 SLP364 T00611017=
201512051252 METAR KATL 051252Z 08010KT 10SM CLR 04/M02 A3059 RMK AO2 SLP362 T00391022=
201512051152 METAR KATL 051152Z 06010KT 10SM CLR 04/M03 A3057 RMK AO2 SLP355 T00391028 10050 20028 53014=
201512051052 METAR KATL 051052Z 07009KT 10SM CLR 03/M03 A3054 RMK AO2 SLP347 T00331028=
201512050952 METAR KATL 050952Z 06011KT 10SM CLR 04/M03 A3052 RMK AO2 SLP340 T00391028=
201512050852 METAR KATL 050852Z 06008KT 10SM CLR 04/M03 A3052 RMK AO2 SLP340 T00391028 51005=
201512050752 METAR KATL 050752Z 06009KT 10SM CLR 04/M03 A3052 RMK AO2 SLP339 T00441028=
201512050652 METAR KATL 050652Z 05007KT 10SM CLR 04/M03 A3051 RMK AO2 SLP337 T00441028=
201512050552 METAR KATL 050552Z 08008KT 10SM CLR 05/M03 A3051 RMK AO2 SLP334 T00501028 10106 20044 50003=
201512050452 METAR KATL 050452Z 07007KT 10SM CLR 05/M03 A3051 RMK AO2 SLP337 T00501028 401390033=
201512050352 METAR KATL 050352Z 08007KT 10SM CLR 06/M03 A3050 RMK AO2 SLP333 T00561028=
201512050252 METAR KATL 050252Z 05008KT 10SM CLR 08/M03 A3050 RMK AO2 SLP331 T00831033 51012=
201512050152 METAR KATL 050152Z 05008KT 10SM CLR 09/M03 A3048 RMK AO2 SLP327 T00891033=
201512050052 METAR KATL 050052Z 04011KT 10SM CLR 11/M03 A3048 RMK AO2 SLP326 T01061033=
201512042352 METAR KATL 042352Z 06007KT 10SM CLR 10/M03 A3046 RMK AO2 SLP320 T01001033 10139 20100 53005=
201512042252 METAR KATL 042252Z 07007KT 10SM CLR 11/M03 A3046 RMK AO2 SLP318 T01061033=
201512042152 METAR KATL 042152Z 06010KT 10SM CLR 12/M04 A3045 RMK AO2 SLP315 T01221039=
201512042052 METAR KATL 042052Z 05010KT 10SM CLR 13/M03 A3045 RMK AO2 SLP314 T01331033 55006=
201512041952 METAR KATL 041952Z 07008KT 10SM CLR 13/M03 A3044 RMK AO2 SLP311 T01331028=
201512041852 METAR KATL 041852Z 04008KT 10SM CLR 12/M03 A3045 RMK AO2 SLP316 T01221033=
201512041752 METAR KATL 041752Z 05009KT 10SM CLR 12/M03 A3047 RMK AO2 SLP320 T01221028 10122 20033 58009=
201512041652 METAR KATL 041652Z 07012KT 10SM CLR 11/M03 A3049 RMK AO2 SLP327 T01061033=
201512041552 METAR KATL 041552Z 07015KT 10SM CLR 09/M03 A3050 RMK AO2 SLP332 T00891033=
201512041452 METAR KATL 041452Z 07014G19KT 10SM CLR 08/M02 A3049 RMK AO2 SLP331 T00781022 53022=
201512041352 METAR KATL 041352Z 08013KT 10SM CLR 06/M02 A3047 RMK AO2 SLP324 T00561022=
201512041252 METAR KATL 041252Z 07010KT 10SM FEW200 04/M02 A3045 RMK AO2 SLP315 T00391022=
201512041152 METAR KATL 041152Z 06009KT 10SM FEW200 04/M02 A3043 RMK AO2 SLP309 T00391017 10056 20033 53015=
201512041052 METAR KATL 041052Z 06009KT 10SM CLR 04/M01 A3041 RMK AO2 SLP302 T00391011=
201512040952 METAR KATL 040952Z 05009KT 10SM CLR 04/M01 A3039 RMK AO2 SLP295 T00391011=
201512040852 METAR KATL 040852Z 06008KT 10SM FEW250 04/M01 A3038 RMK AO2 SLP293 T00441006 53015=
201512040752 METAR KATL 040752Z 06008KT 10SM FEW250 04/M01 A3037 RMK AO2 SLP289 T00441006=
201512040652 METAR KATL 040652Z 04007KT 10SM FEW250 05/M01 A3035 RMK AO2 SLP282 T00501006=
201512040552 METAR KATL 040552Z 04008KT 10SM FEW250 05/M01 A3033 RMK AO2 SLP278 T00501006 10072 20050 50004=
201512040452 METAR KATL 040452Z 04006KT 10SM SCT250 06/M01 A3034 RMK AO2 SLP279 T00561011 400890044=
201512040352 METAR KATL 040352Z 04006KT 10SM BKN250 06/M01 A3034 RMK AO2 SLP278 T00611011=
201512040252 METAR KATL 040252Z 36006KT 10SM BKN250 06/M01 A3032 RMK AO2 SLP273 T00611011 53019=
201512040152 METAR KATL 040152Z 34006KT 10SM BKN250 06/M01 A3031 RMK AO2 SLP269 T00611006=
201512040052 METAR KATL 040052Z 34007KT 10SM BKN250 07/00 A3028 RMK AO2 SLP258 T00720000=
201512032352 METAR KATL 032352Z 33007KT 10SM BKN250 07/00 A3027 RMK AO2 SLP254 T00720000 10089 20067 51017=
201512032252 METAR KATL 032252Z VRB04KT 10SM BKN250 07/00 A3025 RMK AO2 SLP248 T00720000=
201512032152 METAR KATL 032152Z 34009KT 10SM BKN250 08/00 A3024 RMK AO2 SLP243 T00830000=
201512032052 METAR KATL 032052Z 34011KT 10SM BKN250 09/M01 A3021 RMK AO2 SLP235 T00891006 51003=
201512031952 METAR KATL 031952Z 34010KT 10SM BKN240 08/M01 A3021 RMK AO2 SLP235 T00831006=
201512031852 METAR KATL 031852Z 32009KT 10SM BKN240 08/M01 A3020 RMK AO2 SLP232 T00781006=
201512031752 METAR KATL 031752Z 34010KT 10SM BKN230 08/M02 A3020 RMK AO2 SLP232 T00781017 10083 20044 50000=
201512031652 METAR KATL 031652Z 35011KT 10SM BKN230 08/M01 A3022 RMK AO2 SLP236 T00781011=
201512031552 METAR KATL 031552Z 36010KT 10SM BKN230 07/M01 A3022 RMK AO2 SLP235 T00721006=
201512031452 METAR KATL 031452Z 34006KT 10SM BKN250 06/M01 A3020 RMK AO2 SLP232 T00561011 53025=
201512031352 METAR KATL 031352Z 33009KT 10SM BKN200 BKN250 05/M01 A3018 RMK AO2 SLP222 T00501006=
201512031252 METAR KATL 031252Z 32007KT 10SM BKN200 BKN250 04/M01 A3015 RMK AO2 SLP212 T00441006=
201512031152 METAR KATL 031152Z 34010KT 10SM BKN200 BKN250 05/M01 A3013 RMK AO2 SLP205 70005 T00501006 10078 20050 53021=
201512031052 METAR KATL 031052Z 34011KT 10SM BKN200 BKN250 06/M01 A3010 RMK AO2 SLP196 T00561006=
201512030952 METAR KATL 030952Z 34013KT 10SM FEW150 BKN200 OVC250 06/00 A3007 RMK AO2 SLP186 T00610000=
201512030852 METAR KATL 030852Z 34015KT 10SM SCT200 BKN250 07/02 A3006 RMK AO2 SLP182 T00670017 53008=
201512030752 METAR KATL 030752Z 33011KT 10SM SCT200 BKN250 07/02 A3005 RMK AO2 SLP178 T00720022=
201512030652 METAR KATL 030652Z 31008KT 10SM FEW150 SCT200 BKN250 07/03 A3004 RMK AO2 SLP172 T00720028=
201512030552 METAR KATL 030552Z 29008KT 10SM FEW150 SCT200 BKN250 07/03 A3004 RMK AO2 SLP173 T00720028 10106 20072 51008=
201512030452 METAR KATL 030452Z 29007KT 10SM BKN200 BKN250 08/03 A3004 RMK AO2 SLP173 T00830028 401720083=
201512030352 METAR KATL 030352Z 30008KT 10SM BKN200 BKN250 09/03 A3004 RMK AO2 SLP172 T00890028=
201512030252 METAR KATL 030252Z 29009KT 10SM BKN200 BKN250 09/03 A3001 RMK AO2 SLP164 T00940028 51017=
201512030152 METAR KATL 030152Z 28007KT 10SM BKN200 BKN250 09/04 A3000 RMK AO2 SLP159 T00940044=
201512030052 METAR KATL 030052Z 28004KT 10SM BKN200 BKN250 10/07 A2998 RMK AO2 SLP150 T01000067=
201512022352 METAR KATL 022352Z 28005KT 10SM FEW140 BKN200 11/06 A2996 RMK AO2 SLP144 T01060061 10139 20106 51017=
201512022252 METAR KATL 022252Z 28005KT 10SM SCT130 BKN200 11/07 A2994 RMK AO2 SLP137 VIRGA DSNT SE T01110067=
201512022152 METAR KATL 022152Z 27008KT 10SM FEW020 SCT120 BKN180 12/07 A2994 RMK AO2 SLP139 VIRGA DSNT E-SE-S T01170067=
201512022052 METAR KATL 022052Z 27007KT 10SM FEW020 SCT120 BKN150 OVC230 13/07 A2991 RMK AO2 SLP126 VIRGA OHD & ALQDS T01280067 55004=
201512021952 METAR KATL 021952Z 28006KT 10SM FEW025 SCT120 BKN150 BKN220 13/08 A2990 RMK AO2 SLP124 VIRGA E & OHD-W-NW-N T01330078=
201512021852 METAR KATL 021852Z 30013KT 10SM FEW020 SCT140 BKN220 13/08 A2986 RMK AO2 SLP109 T01330083=
201512021752 METAR KATL 021752Z 31012KT 10SM FEW020 SCT120 BKN150 BKN220 14/09 A2993 RMK AO2 SLP131 60005 T01390094 10167 20128 58005=
201512021652 METAR KATL 021652Z 29011KT 10SM FEW015 BKN110 BKN150 OVC240 13/09 A2996 RMK AO2 SLP141 T01330094=
201512021608 SPECI KATL 021608Z 29008KT 10SM FEW020 SCT110 BKN150 OVC240 13/09 A2997 RMK AO2 T01280094=
201512021552 METAR KATL 021552Z 29010KT 10SM FEW010 BKN020 OVC100 13/09 A2996 RMK AO2 RAE47 SLP144 P0000 T01280094=
201512021518 SPECI KATL 021518Z 30011KT 10SM -RA FEW008 BKN012 OVC095 13/11 A2995 RMK AO2 P0000 T01330106=
201512021452 METAR KATL 021452Z 30009KT 9SM -RA BKN008 BKN010 OVC080 14/12 A2994 RMK AO2 SLP137 P0000 60005 T01390122 51020=
201512021428 SPECI KATL 021428Z 33011KT 10SM -RA BKN008 OVC080 14/12 A2993 RMK AO2 P0000 T01390122=
201512021352 METAR KATL 021352Z 26003KT 8SM -RA FEW005 OVC070 14/12 A2992 RMK AO2 SLP128 P0005 T01440122=
201512021321 SPECI KATL 021321Z 30010KT 7SM -RA SCT006 BKN047 OVC065 15/13 A2994 RMK AO2 P0004 T01500133=
201512021252 METAR KATL 021252Z 29010KT 2SM -RA BR BKN005 BKN012 OVC018 16/14 A2994 RMK AO2 SFC VIS 3 RAB39 SLP134 CIG 004V008 P0000 T01610144=
201512021239 SPECI KATL 021239Z 27008KT 2SM -RA BR FEW008 BKN012 OVC018 16/14 A2992 RMK AO2 SFC VIS 2 1/2 RAB39 P0000 T01610144=
201512021214 SPECI KATL 021214Z 27009KT 10SM BKN024 OVC075 16/14 A2991 RMK AO2 T01610144=
201512021152 METAR KATL 021152Z 24004KT 10SM FEW006 FEW020 OVC075 16/14 A2988 RMK AO2 SLP115 60010 70010 T01610144 10172 20161 50003=
201512021112 SPECI KATL 021112Z 20006KT 10SM FEW006 SCT019 OVC080 16/14 A2988 RMK AO2 T01610144=
201512021106 SPECI KATL 021106Z 20006KT 10SM FEW006 BKN025 OVC075 16/14 A2989 RMK AO2 T01610144=
201512021052 METAR KATL 021052Z 24006KT 10SM FEW008 OVC075 16/14 A2989 RMK AO2 RAE21 SLP116 P0000 T01610144=
201512020952 METAR KATL 020952Z 22004KT 10SM -RA FEW008 OVC060 16/14 A2988 RMK AO2 RAE0856B04 SLP113 P0006 T01610144 $=
201512020922 SPECI KATL 020922Z 24010KT 3SM -RA BR SCT008 SCT012 OVC050 17/16 A2990 RMK AO2 RAE0856B04 P0006 T01720156=
201512020916 SPECI KATL 020916Z 29010KT 2SM RA BR BKN008 BKN014 OVC050 17/16 A2990 RMK AO2 RAE0856B04 PRESRR P0004 T01720156=
201512020911 SPECI KATL 020911Z 23009KT 2SM +RA BR BKN011 BKN041 OVC050 17/16 A2989 RMK AO2 RAE0856B04 P0002 T01720156=
201512020903 SPECI KATL 020903Z 23007KT 10SM BKN013 BKN050 OVC090 17/16 A2989 RMK AO2 RAE0856 SHRA SW-W P0000 T01720156=
201512020852 METAR KATL 020852Z 20006KT 10SM -RA FEW019 BKN045 BKN090 OVC150 17/15 A2987 RMK AO2 RAB47 SLP110 P0000 60004 T01720150 56022=
201512020752 METAR KATL 020752Z 18007KT 10SM FEW028 SCT050 OVC090 17/15 A2989 RMK AO2 RAB0657E07 SLP115 P0000 T01720150=
201512020652 METAR KATL 020652Z 19011KT 10SM FEW028 BKN080 OVC100 17/15 A2990 RMK AO2 RAB09E51 SLP119 P0004 T01670150=
201512020619 SPECI KATL 020619Z 18005KT 5SM -RA BR SCT023 BKN041 OVC050 17/14 A2993 RMK AO2 RAB09 P0003 T01670144=
201512020614 SPECI KATL 020614Z 20003KT 2SM RA BR FEW005 BKN023 OVC050 17/14 A2994 RMK AO2 RAB09 P0003 T01670144=
201512020552 METAR KATL 020552Z 21003KT 9SM FEW006 BKN028 OVC055 17/14 A2994 RMK AO2 SLP133 T01670139 10167 20156 55006=
201512020452 METAR KATL 020452Z 14004KT 8SM FEW006 BKN032 OVC055 16/14 A2994 RMK AO2 SLP134 T01610139 402110156=
201512020352 METAR KATL 020352Z 14005KT 8SM FEW006 BKN038 OVC060 16/13 A2995 RMK AO2 SLP137 T01560133=
201512020252 METAR KATL 020252Z 11007KT 7SM FEW006 BKN045 BKN070 OVC150 16/13 A2996 RMK AO2 SLP141 T01560133 58008=
201512020152 METAR KATL 020152Z 08008KT 7SM FEW006 BKN050 OVC100 16/13 A2999 RMK AO2 SLP153 T01560128=
201512020052 METAR KATL 020052Z 09007KT 7SM FEW006 BKN055 OVC150 16/13 A2999 RMK AO2 SLP153 T01610133=
201512012352 METAR KATL 012352Z 09007KT 7SM FEW030 BKN070 OVC150 16/13 A2998 RMK AO2 SLP150 60000 T01610133 10211 20161 50004=
201512012252 METAR KATL 012252Z 08009KT 8SM FEW030 BKN060 OVC150 17/14 A2998 RMK AO2 RAB05E27 SLP150 P0000 T01670139=
201512012152 METAR KATL 012152Z 05009KT 8SM SCT033 SCT040 BKN050 OVC150 18/14 A2998 RMK AO2 SLP147 T01780144=
201512012052 METAR KATL 012052Z 07009KT 10SM FEW030 SCT040 OVC050 19/16 A2997 RMK AO2 SLP144 T01890156 56019=
201512011954 SPECI KATL 011954Z 07006KT 10SM BKN030 BKN040 OVC060 19/15 A2998 RMK AO2 VIS LWR VC N SHRA T01940150=
201512011952 METAR KATL 011952Z 07006KT 10SM BKN028 BKN040 OVC060 19/15 A2998 RMK AO2 SLP147 SHRA VC NW-N T01940150=
201512011933 SPECI KATL 011933Z 05005KT 10SM BKN028 BKN035 OVC050 20/15 A2998 RMK AO2 SHRA VC NW T02000150=
201512011852 METAR KATL 011852Z 18005KT 10SM FEW025 SCT030 OVC050 21/15 A2999 RMK AO2 SLP151 SHRA DSNT NW T02110150=
201512011752 METAR KATL 011752Z 19003KT 10SM FEW020 BKN030 OVC060 21/15 A3003 RMK AO2 SLP163 T02060150 10206 20156 58021=
201512011652 METAR KATL 011652Z 18003KT 10SM FEW013 BKN060 OVC080 19/15 A3006 RMK AO2 SLP175 T01890150=
201512011552 METAR KATL 011552Z COR 13005KT 10SM FEW010 BKN060 OVC080 17/14 A3008 RMK AO2 SLP184 T01670139=
201512011452 METAR KATL 011452Z 12004KT 10SM BKN035 BKN095 OVC150 16/13 A3009 RMK AO2 SLP186 VIRGA DSNT SE SHRA DSNT NW T01610133 53008=
201512011413 SPECI KATL 011413Z 11007KT 10SM FEW025 BKN060 OVC095 16/13 A3009 RMK AO2 T01560133=
201512011352 METAR KATL 011352Z 12004KT 9SM BKN025 BKN110 OVC200 16/13 A3009 RMK AO2 SLP185 T01560128=
201512011331 SPECI KATL 011331Z 11004KT 10SM BKN024 BKN110 OVC200 16/13 A3008 RMK AO2 T01560133=
201512011252 METAR KATL 011252Z 11004KT 10SM FEW025 FEW060 BKN110 BKN200 OVC250 16/13 A3007 RMK AO2 SLP178 T01560128=
