##########################################################
# Query made at 04/19/2024 23:45:28 UTC
# Time interval: from 09/01/2015 12:00  to 09/30/2015 12:59  UTC
##########################################################

##########################################################
# KATL, Atlanta, Hartsfield - Jackson Atlanta International Airport (United States)
# WMO index: 72219. WIGOS ID: 0-20000-0-72219
# Latitude 33-38-59N. Longitude 084-25-00W. Altitude 312 m.
##########################################################

201509301252 METAR KATL 301252Z VRB06KT 8SM SCT005 SCT070 SCT150 22/19 A2984 RMK AO2 SLP097 T02170189=
201509301227 SPECI KATL 301227Z 31006KT 7SM BKN005 BKN070 BKN150 21/19 A2984 RMK AO2 BKN005 V SCT=
201509301215 SPECI KATL 301215Z 31005KT 7SM SCT005 BKN075 BKN150 21/19 A2984 RMK AO2=
201509301152 METAR KATL 301152Z 31003KT 3SM BR BKN005 OVC075 21/19 A2984 RMK AO2 SFC VIS 6 SLP095 CIG 003V007 BINOVC 70059 T02110194 10217 20211 53007=
201509301146 SPECI KATL 301146Z 30005KT 3SM BR BKN003 OVC075 21/19 A2984 RMK AO2 SFC VIS 6 BINOVC=
201509301052 METAR KATL 301052Z 34003KT 1SM BR OVC003 21/20 A2982 RMK AO2 SFC VIS 5 SLP089 CIG 002V004 TWRINC T02110200=
201509301028 SPECI KATL 301028Z 33004KT 1SM BR OVC003 21/20 A2982 RMK AO2 SFC VIS 5 TWRINC=
201509301026 SPECI KATL 301026Z 33004KT 1 1/2SM BR OVC003 21/20 A2982 RMK AO2 SFC VIS 5 TWRINC=
201509300952 METAR KATL 300952Z 32006KT 1/4SM BR OVC003 21/20 A2982 RMK AO2 SFC VIS 5 SLP089 TWRINC T02110200=
201509300852 METAR KATL 300852Z 33005KT 1/4SM BR OVC002 21/20 A2981 RMK AO2 SFC VIS 3 SLP087 T02110200 58006=
201509300752 METAR KATL 300752Z 33007KT 1/4SM R09R/3500VP6000FT FG VV002 21/20 A2982 RMK AO2 SFC VIS 1/2 SLP090 T02110200=
201509300712 SPECI KATL 300712Z 29004KT 1/4SM R09R/P6000FT BR VV002 21/20 A2983 RMK AO2 SFC VIS 3/4=
201509300652 METAR KATL 300652Z 27003KT 2SM BR SCT002 SCT007 BKN070 BKN150 21/20 A2983 RMK AO2 SFC VIS 4 SLP091 VIS SW-NW-N 3/4 T02110200=
201509300649 SPECI KATL 300649Z 00000KT 1SM BR SCT002 SCT007 BKN070 BKN150 21/20 A2983 RMK AO2 SFC VIS 4 VIS SW-NW-N 3/4=
201509300634 SPECI KATL 300634Z 00000KT 1SM R09R/P6000FT BR BKN002 BKN007 OVC070 21/21 A2983 RMK AO2=
201509300612 SPECI KATL 300612Z 00000KT 1/4SM R09R/1600V3500FT FG VV002 22/21 A2983 RMK AO2=
201509300552 METAR KATL 300552Z 00000KT 1/4SM R09R/1200V1400FT FG VV002 22/21 A2983 RMK AO2 SLP093 T02170211 10239 20211 58006=
201509300518 SPECI KATL 300518Z 00000KT 1/4SM R09R/2000V2200FT FG VV002 22/21 A2984 RMK AO2 SFC VIS 1/2=
201509300505 SPECI KATL 300505Z 29003KT 1/4SM R09R/2000V2400FT FG VV002 22/21 A2984 RMK AO2=
201509300459 SPECI KATL 300459Z 30004KT 1/4SM R09R/1800V2200FT FG VV001 22/21 A2984 RMK AO2=
201509300457 SPECI KATL 300457Z 30004KT 1/4SM R09R/P6000FT FG VV001 22/21 A2984 RMK AO2=
201509300452 METAR KATL 300452Z COR 31006KT 3SM BKN001 BKN070 BKN110 BKN250 22/21 A2984 RMK AO2 SLP098 T02170206 402500211=
201509300352 METAR KATL 300352Z 00000KT 8SM FEW001 SCT070 SCT120 SCT250 22/21 A2984 RMK AO2 SLP097 VIS SW-W 1 T02170206=
201509300252 METAR KATL 300252Z 00000KT 10SM FEW006 SCT070 SCT110 BKN250 22/21 A2985 RMK AO2 SLP100 T02170206 50005=
201509300152 METAR KATL 300152Z 00000KT 10SM FEW008 SCT070 BKN110 BKN250 24/21 A2986 RMK AO2 SLP102 T02390211=
201509300052 METAR KATL 300052Z 14003KT 10SM FEW008 SCT075 SCT110 BKN250 23/21 A2984 RMK AO2 SLP097 OCNL LTGIC DSNT SW CB DSNT SW T02280211=
201509292352 METAR KATL 292352Z 00000KT 10SM FEW008 BKN070 BKN100 BKN200 23/21 A2984 RMK AO2 SLP095 ACC OHD-ALQDS 60008 T02330211 10250 20228 55002=
201509292252 METAR KATL 292252Z 00000KT 10SM SCT012 BKN070 BKN100 OVC200 24/22 A2984 RMK AO2 SLP094 CB DSNT NW SHRA DSNT NW T02390217=
201509292223 SPECI KATL 292223Z 17003KT 10SM BKN012 BKN070 BKN100 OVC200 24/22 A2983 RMK AO2 CIG 009V015=
201509292207 SPECI KATL 292207Z VRB03KT 10SM SCT015 BKN070 BKN100 BKN200 24/21 A2983 RMK AO2 TCU DSNT NW=
201509292152 METAR KATL 292152Z 15004KT 10SM BKN015 BKN040 BKN100 BKN200 24/21 A2982 RMK AO2 SLP090 CIG 013V017 TCU DSNT NW T02440211=
201509292146 SPECI KATL 292146Z 15003KT 10SM BKN016 BKN040 BKN110 BKN200 24/21 A2983 RMK AO2 CIG 014V018 TCU DSNT NW=
201509292052 METAR KATL 292052Z 00000KT 10SM SCT009 BKN014 OVC035 24/21 A2984 RMK AO2 SLP096 60008 T02390211 56015=
201509292019 SPECI KATL 292019Z 10003KT 10SM SCT007 BKN012 OVC040 24/21 A2985 RMK AO2=
201509291952 METAR KATL 291952Z 04005KT 9SM BKN007 BKN030 OVC050 23/21 A2985 RMK AO2 DZE19 SLP099 P0000 T02330211=
201509291919 SPECI KATL 291919Z VRB05KT 9SM SCT007 BKN030 OVC050 23/21 A2986 RMK AO2 DZE19 P0000=
201509291855 SPECI KATL 291855Z 10006KT 6SM -DZ BR SCT007 BKN030 OVC050 23/21 A2986 RMK AO2 P0000=
201509291852 METAR KATL 291852Z 10006KT 3SM -DZ BR SCT007 BKN030 OVC050 23/21 A2987 RMK AO2 SFC VIS 6 RAE52DZB52 SLP105 P0008 T02280211=
201509291825 SPECI KATL 291825Z 05005KT 3SM -RA BR SCT007 BKN025 OVC050 23/21 A2988 RMK AO2 P0007=
201509291752 METAR KATL 291752Z 06004KT 3SM R09R/6000VP6000FT RA BR BKN005 BKN030 OVC050 23/21 A2989 RMK AO2 SLP112 P0021 60051 T02280211 10228 20217 56009=
201509291749 SPECI KATL 291749Z 05004KT 3SM R09R/6000VP6000FT RA BR BKN005 BKN030 OVC050 23/21 A2989 RMK AO2 P0021=
201509291711 SPECI KATL 291711Z 07004KT 3SM RA BR FEW008 BKN040 OVC060 23/21 A2990 RMK AO2 P0008=
201509291652 METAR KATL 291652Z 03004KT 3SM RA BR BKN008 BKN016 OVC050 23/21 A2990 RMK AO2 TWR VIS 4 SLP118 P0009 T02280206=
201509291618 SPECI KATL 291618Z 02004KT 4SM R09R/6000VP6000FT -RA BR FEW008 BKN014 OVC050 23/21 A2991 RMK AO2 P0003=
201509291555 SPECI KATL 291555Z 04005KT 4SM -RA BR FEW008 BKN016 OVC030 23/21 A2992 RMK AO2 P0000=
201509291552 METAR KATL 291552Z 04005KT 5SM -RA BR FEW010 BKN016 OVC030 23/21 A2992 RMK AO2 RAB06 SLP122 P0001 T02280206=
201509291530 SPECI KATL 291530Z 08005KT 5SM -RA BR FEW010 BKN020 OVC040 23/21 A2992 RMK AO2 RAB06 P0001=
201509291500 SPECI KATL 291500Z 04004KT 7SM FEW008 BKN018 OVC050 22/20 A2992 RMK AO2=
201509291452 METAR KATL 291452Z 03005KT 8SM BKN008 BKN015 OVC050 22/20 A2992 RMK AO2 RAE45 SLP123 P0004 60020 T02220200 52007=
201509291411 SPECI KATL 291411Z 08006KT 4SM RA BR SCT008 BKN025 OVC050 22/20 A2991 RMK AO2 P0001=
201509291355 SPECI KATL 291355Z 09003KT 8SM -RA FEW008 BKN028 OVC040 22/20 A2991 RMK AO2 P0000=
201509291352 METAR KATL 291352Z VRB05KT 7SM -RA FEW005 SCT030 OVC050 22/20 A2991 RMK AO2 SLP121 P0008 T02220200=
201509291252 METAR KATL 291252Z VRB05KT 2SM -RA BR BKN007 BKN050 OVC070 22/20 A2990 RMK AO2 SFC VIS 2 1/2 RAB07 SLP118 CIGNO P0008 T02220200=
201509291232 SPECI KATL 291232Z 09007KT 1/2SM -RA BR SCT003 BKN050 OVC070 22/21 A2990 RMK AO2 SFC VIS 2 1/2 RAB07 P0005=
201509291152 METAR KATL 291152Z 09005KT 1/2SM BR OVC003 22/21 A2990 RMK AO2 SFC VIS 6 SLP116 TWRINC 60012 70017 T02220211 10222 20222 53006=
201509291134 SPECI KATL 291134Z 10004KT 1/2SM BR OVC004 22/21 A2990 RMK AO2 SFC VIS 5 CIG 003V005 TWRINC=
201509291115 SPECI KATL 291115Z 10005KT 1SM BR OVC004 22/21 A2989 RMK AO2 SFC VIS 6 CIG 003V005 TWRINC=
201509291052 METAR KATL 291052Z 09007KT 2SM BR BKN004 OVC008 22/21 A2989 RMK AO2 SFC VIS 6 RAE50 SLP113 P0004 T02220211=
201509290952 METAR KATL 290952Z 07007KT 2SM -RA BR BKN004 OVC030 22/21 A2988 RMK AO2 SFC VIS 5 SLP108 CIG 003V005 P0006 T02220206=
201509290852 METAR KATL 290852Z 08005KT 2SM -RA BR OVC004 22/21 A2988 RMK AO2 SFC VIS 4 SLP110 CIG 003V005 P0001 60002 T02220206 58019=
201509290752 METAR KATL 290752Z 09006KT 2SM -RA BR OVC004 22/21 A2990 RMK AO2 SFC VIS 4 RAB0656 SLP117 CIG 003V005 P0001 T02220206=
201509290749 SPECI KATL 290749Z 09007KT 2SM -RA BR OVC004 22/21 A2990 RMK AO2 SFC VIS 4 RAB0656 CIG 003V005 P0000=
201509290652 METAR KATL 290652Z 09006KT 7SM OVC004 22/21 A2992 RMK AO2 RAB0553E19 SLP122 P0000 T02220211=
201509290552 METAR KATL 290552Z 09007KT 7SM OVC004 22/21 A2994 RMK AO2 RAE40 SLP129 P0001 60002 T02220211 10233 20222 58009=
201509290544 SPECI KATL 290544Z 10006KT 7SM OVC004 22/21 A2994 RMK AO2 RAE40 P0001=
201509290452 METAR KATL 290452Z 09007KT 10SM -RA OVC006 22/21 A2995 RMK AO2 SLP134 P0001 T02220211 402390194=
201509290352 METAR KATL 290352Z 10007KT 10SM -RA OVC007 22/21 A2996 RMK AO2 DZB0253E26RAB26 SLP137 CIG 005V010 P0000 T02220211=
201509290252 METAR KATL 290252Z 10006KT 9SM OVC006 23/21 A2997 RMK AO2 DZB0155E14 SLP139 CIG 004V007 P0000 60000 T02280211 53007=
201509290152 METAR KATL 290152Z 08010KT 10SM BKN008 OVC030 23/21 A2995 RMK AO2 DZE49 SLP136 CIG 006V010 P0000 T02280211=
201509290052 METAR KATL 290052Z 06009KT 9SM -DZ SCT007 BKN012 OVC110 23/21 A2995 RMK AO2 DZB47 SLP134 P0000 T02280211=
201509282352 METAR KATL 282352Z 10006KT 10SM FEW008 BKN016 BKN025 OVC200 23/21 A2995 RMK AO2 SLP133 60003 T02280211 10239 20228 51005=
201509282252 METAR KATL 282252Z 09008KT 10SM FEW008 SCT014 BKN025 OVC150 23/21 A2995 RMK AO2 SLP133 T02330211=
201509282152 METAR KATL 282152Z 09009KT 10SM SCT007 BKN012 OVC100 24/21 A2993 RMK AO2 RAE2054 SLP129 P0000 T02390211=
201509282106 SPECI KATL 282106Z 10008G15KT 9SM SCT007 BKN010 OVC100 24/22 A2993 RMK AO2 RAE2054 P0000=
201509282052 METAR KATL 282052Z 09011KT 8SM -RA SCT007 BKN040 OVC100 23/22 A2993 RMK AO2 SLP127 P0002 60003 T02330217 58027=
201509282001 SPECI KATL 282001Z 10010KT 6SM -RA BR SCT010 BKN040 OVC100 23/21 A2996 RMK AO2 P0000=
201509281952 METAR KATL 281952Z 09009KT 6SM -RA BR FEW008 BKN020 OVC065 23/21 A2997 RMK AO2 SLP141 P0001 T02330211=
201509281928 SPECI KATL 281928Z 10007KT 3SM BR FEW006 BKN016 OVC025 23/21 A2999 RMK AO2 SFC VIS 6 RAE24 P0000=
201509281921 SPECI KATL 281921Z 10006KT 3SM -RA BR SCT006 BKN014 OVC025 23/21 A2999 RMK AO2 SFC VIS 6 P0000=
201509281852 METAR KATL 281852Z 10003KT 3SM -RA BR BKN008 BKN012 OVC018 23/21 A3000 RMK AO2 SFC VIS 6 DZE15RAB15 SLP151 VIS LWR E-SE-S SHRA P0000 T02280211=
201509281815 SPECI KATL 281815Z 09006KT 3SM -RA BR BKN008 BKN016 OVC020 23/21 A3000 RMK AO2 DZE15RAB15 P0000=
201509281810 SPECI KATL 281810Z 07006KT 3SM -DZ BR SCT006 BKN011 OVC016 23/21 A3001 RMK AO2 SFC VIS 4 P0000=
201509281752 METAR KATL 281752Z 07007KT 3SM -DZ BKN007 BKN013 OVC015 23/21 A3001 RMK AO2 SFC VIS 4 RAE26DZB44 SLP155 P0000 60000 T02330206 10233 20194 58008=
201509281652 METAR KATL 281652Z 06007KT 3SM -RA BR OVC005 22/21 A3003 RMK AO2 SFC VIS 4 DZE48RAB48 SLP162 P0000 T02220206=
201509281629 SPECI KATL 281629Z 08007KT 3SM -DZ BR OVC005 22/21 A3003 RMK AO2 SFC VIS 5 P0000=
201509281618 SPECI KATL 281618Z 08007KT 2SM -DZ BR OVC005 22/21 A3003 RMK AO2 TWR VIS 3 P0000=
201509281609 SPECI KATL 281609Z 08007KT 3SM -DZ BR OVC005 22/20 A3003 RMK AO2 P0000=
201509281558 SPECI KATL 281558Z 08006KT 1 3/4SM R09R/6000VP6000FT -DZ BR OVC005 22/20 A3003 RMK AO2 TWR VIS 3 P0000=
201509281552 METAR KATL 281552Z 07007KT 3SM -DZ BR OVC005 22/20 A3004 RMK AO2 SFC VIS 4 DZB41 SLP165 P0000 T02170200=
201509281452 METAR KATL 281452Z 08010KT 3SM BR OVC005 21/19 A3003 RMK AO2 SFC VIS 5 SLP164 60000 T02110194 53002=
201509281352 METAR KATL 281352Z 08009KT 2SM BR OVC005 21/19 A3003 RMK AO2 SFC VIS 5 DZE50 SLP164 P0000 T02060189=
201509281316 SPECI KATL 281316Z VRB06KT 1 1/2SM -DZ BR OVC005 21/19 A3004 RMK AO2 SFC VIS 4 P0000=
201509281252 METAR KATL 281252Z 08008KT 1 1/2SM -DZ BR OVC004 20/19 A3003 RMK AO2 SFC VIS 2 1/2 DZE1159B27 SLP163 CIG 003V005 TWRINC P0000 T02000189=
201509281247 SPECI KATL 281247Z 08009KT 1 1/2SM -DZ BR OVC004 20/19 A3003 RMK AO2 SFC VIS 2 DZE1159B27 CIG 003V005 P0000=
201509281234 SPECI KATL 281234Z 08009KT 1SM -DZ BR OVC003 20/18 A3003 RMK AO2 SFC VIS 1 1/2 DZE1159B27 TWRINC P0000=
201509281220 SPECI KATL 281220Z 08008KT 1SM BR OVC004 19/18 A3003 RMK AO2 SFC VIS 4 DZE1159 CIG 003V005 TWRINC P0000=
201509281152 METAR KATL 281152Z 07006KT 1SM -DZ BR OVC005 19/18 A3003 RMK AO2 SFC VIS 5 SLP162 CIG 004V007 TWRINC P0000 60000 T01940183 10194 20194 53005=
201509281052 METAR KATL 281052Z 09005KT 1SM -DZ BR OVC003 19/18 A3003 RMK AO2 SFC VIS 1 1/2 SLP162 CIG 002V004 P0000 T01940183=
201509280952 METAR KATL 280952Z 09008KT 1SM -DZ BR OVC003 19/18 A3001 RMK AO2 SFC VIS 2 1/2 SLP155 TWRINC P0000 T01940183=
201509280852 METAR KATL 280852Z 07009KT 1SM -DZ BR OVC003 19/18 A3001 RMK AO2 SFC VIS 4 SLP157 TWRINC P0000 60000 T01940183 56010=
201509280752 METAR KATL 280752Z 07007KT 1SM -DZ BR OVC003 19/18 A3002 RMK AO2 SFC VIS 4 SLP160 TWRINC P0000 T01940183=
201509280749 SPECI KATL 280749Z 07007KT 1SM -DZ BR OVC003 19/18 A3002 RMK AO2 SFC VIS 4 TWRINC P0000=
201509280652 METAR KATL 280652Z 09007KT 5SM -DZ BR OVC004 19/18 A3003 RMK AO2 DZB40 SLP164 P0000 T01940178=
201509280644 SPECI KATL 280644Z 08008KT 4SM -DZ BR OVC004 19/18 A3003 RMK AO2 DZB40 P0000=
201509280552 METAR KATL 280552Z 09009KT 8SM OVC005 19/18 A3004 RMK AO2 DZE08 SLP168 CIG 004V006 P0000 60000 T01940178 10206 20194 58012=
201509280452 METAR KATL 280452Z 08008KT 8SM -DZ OVC005 19/18 A3006 RMK AO2 DZE30B48 SLP174 CIG 004V006 PCPN VRY LGT P0000 T01940178 402170183=
201509280352 METAR KATL 280352Z 08011KT 6SM -DZ BR OVC006 19/18 A3007 RMK AO2 SLP178 CIG 004V008 PCPN VRY LGT P0000 T01940178=
201509280305 SPECI KATL 280305Z 07011KT 4SM -DZ BR OVC006 19/18 A3008 RMK AO2 CIG 005V008 P0000=
201509280252 METAR KATL 280252Z 07010KT 7SM -DZ OVC007 19/18 A3008 RMK AO2 RAE0159B21E31DZB31 SLP180 CIG 005V009 P0000 60000 T01940178 50008=
201509280221 SPECI KATL 280221Z 08010KT 8SM -RA BKN008 OVC013 20/18 A3008 RMK AO2 RAE0159B21 CIG 006V010 P0000=
201509280152 METAR KATL 280152Z 09011KT 10SM -RA SCT008 OVC014 20/18 A3008 RMK AO2 RAB49 SLP181 PCPN VRY LGT P0000 T02000178=
201509280129 SPECI KATL 280129Z 09010KT 10SM OVC009 20/18 A3008 RMK AO2 CIG 007V011=
201509280052 METAR KATL 280052Z 08011KT 10SM OVC011 21/18 A3007 RMK AO2 SLP177 CIG 009V013 T02060178=
201509272352 METAR KATL 272352Z 08010KT 10SM OVC011 21/18 A3005 RMK AO2 SLP171 CIG 009V013 T02060178 10217 20206 53002=
201509272252 METAR KATL 272252Z 07010KT 10SM OVC012 21/18 A3005 RMK AO2 SLP169 CIG 010V014 T02110178=
201509272152 METAR KATL 272152Z 08010KT 10SM OVC014 22/18 A3003 RMK AO2 SLP164 CIG 012V016 T02170178=
201509272052 METAR KATL 272052Z 09008KT 10SM OVC016 22/18 A3005 RMK AO2 SLP168 T02170178 56029=
201509272035 SPECI KATL 272035Z 08010KT 10SM OVC016 22/18 A3006 RMK AO2=
201509271952 METAR KATL 271952Z 09009KT 10SM OVC011 22/18 A3007 RMK AO2 SLP176 T02170178=
201509271852 METAR KATL 271852Z 07012KT 10SM OVC013 21/17 A3011 RMK AO2 SLP189 T02060172=
201509271803 SPECI KATL 271803Z 05009KT 10SM BKN011 OVC018 21/17 A3013 RMK AO2=
201509271752 METAR KATL 271752Z 06009KT 10SM OVC016 21/18 A3014 RMK AO2 SLP199 60000 T02110178 10217 20183 58003=
201509271744 SPECI KATL 271744Z 10010KT 10SM OVC016 22/18 A3014 RMK AO2=
201509271652 METAR KATL 271652Z 07010KT 10SM BKN010 OVC017 21/17 A3015 RMK AO2 SLP203 T02060172=
201509271552 METAR KATL 271552Z 09011G19KT 10SM OVC012 21/17 A3014 RMK AO2 DZE00 SLP202 P0000 T02060172=
201509271452 METAR KATL 271452Z 06011KT 6SM -DZ BKN010 OVC015 20/17 A3014 RMK AO2 DZE01B36RAB01E08 SLP202 P0000 60000 T02000172 51010=
201509271437 SPECI KATL 271437Z 08011KT 6SM -DZ BR SCT008 OVC013 20/18 A3014 RMK AO2 DZE01B36RAB01E08 P0000=
201509271411 SPECI KATL 271411Z 08014KT 6SM BR BKN006 OVC014 19/17 A3014 RMK AO2 DZE01RAB01E08 P0000=
201509271352 METAR KATL 271352Z 08011KT 2SM -DZ BR BKN008 OVC014 19/18 A3013 RMK AO2 SFC VIS 4 RAB34E42 SLP198 P0000 T01940178=
201509271252 METAR KATL 271252Z 08011KT 2SM -DZ BR BKN006 OVC011 19/17 A3012 RMK AO2 SFC VIS 4 SLP195 CIG 004V008 P0000 T01890172=
201509271159 SPECI KATL 271159Z 08010KT 2SM -DZ BR BKN005 OVC010 18/17 A3011 RMK AO2 SFC VIS 4 CIG 004V008 P0000=
201509271152 METAR KATL 271152Z 08010KT 4SM -DZ BR BKN006 OVC010 18/17 A3011 RMK AO2 SLP191 CIG 005V009 RAB07E32 P0001 60001 70056 T01830172 10194 20183 53013=
201509271052 METAR KATL 271052Z 09010KT 6SM -DZ BR OVC007 19/17 A3010 RMK AO2 SLP186 CIG 006V009 P0000 T01890172=
201509270952 METAR KATL 270952Z 08010KT 6SM -DZ BR OVC005 19/18 A3008 RMK AO2 SLP181 CIG 004V008 P0000 T01890178=
201509270852 METAR KATL 270852Z 08011KT 4SM -DZ BR OVC005 19/18 A3007 RMK AO2 SLP177 CIG 004V008 P0000 60000 T01940178 58010=
201509270752 METAR KATL 270752Z 08011KT 4SM -DZ BR OVC005 19/18 A3009 RMK AO2 SLP182 CIG 004V007 P0000 T01940183=
201509270700 SPECI KATL 270700Z 09008KT 3SM -DZ BR OVC005 19/18 A3010 RMK AO2 CIG 004V007 P0000=
201509270652 METAR KATL 270652Z 09008KT 2 1/2SM -DZ BR OVC005 19/18 A3010 RMK AO2 SLP187 CIG 004V007 P0000 T01940183=
201509270641 SPECI KATL 270641Z 10008KT 2 1/2SM -DZ BR OVC007 19/18 A3011 RMK AO2 P0000=
201509270552 METAR KATL 270552Z 10010KT 3SM -DZ BR BKN005 OVC011 19/18 A3010 RMK AO2 RAB24E27 SLP188 CIG 004V007 P0000 60000 T01940183 10206 20194 50000=
201509270538 SPECI KATL 270538Z 09013KT 4SM -DZ BR OVC005 19/18 A3010 RMK AO2 RAB24E27 CIG 004V007 P0000=
201509270525 SPECI KATL 270525Z 08010KT 2SM -RA BR OVC005 19/18 A3011 RMK AO2 DZE24RAB24 CIG 004V007 P0000=
201509270452 METAR KATL 270452Z 09009G20KT 3SM -DZ BR OVC005 19/18 A3010 RMK AO2 SLP188 CIG 004V007 P0000 T01940183 402170189=
201509270352 METAR KATL 270352Z 08012KT 4SM -DZ BR OVC005 19/18 A3011 RMK AO2 RAE14DZB14 SLP190 CIG 004V006 P0000 T01940183=
201509270252 METAR KATL 270252Z 08011KT 3SM -RA BR OVC005 20/18 A3010 RMK AO2 DZE48RAB48 SLP188 CIG 004V006 P0000 60000 T02000183 51015=
201509270152 METAR KATL 270152Z 08012KT 8SM -DZ BKN007 OVC013 20/18 A3010 RMK AO2 RAE12DZB46 SLP185 CIG 005V009 P0000 T02000183=
201509270052 METAR KATL 270052Z 07009KT 8SM -RA BKN008 OVC016 20/19 A3008 RMK AO2 RAB22 SLP179 CIG 006V010 PCPN VRY LGT P0000 T02000189=
201509262352 METAR KATL 262352Z 08013KT 10SM BKN008 OVC014 21/18 A3006 RMK AO2 SLP172 CIG 006V010 60015 T02060183 10217 20206 53006=
201509262252 METAR KATL 262252Z 08012KT 8SM OVC008 21/19 A3005 RMK AO2 RAE35 SLP169 CIG 006V010 P0001 T02060189=
201509262152 METAR KATL 262152Z 09007KT 2 1/2SM -RA BR BKN006 OVC012 21/19 A3004 RMK AO2 SFC VIS 5 RAB00 SLP167 CIG 004V008 P0006 T02060189=
201509262105 SPECI KATL 262105Z 07011KT 2 1/2SM -RA BR BKN009 OVC015 21/19 A3004 RMK AO2 SFC VIS 3 RAB00 P0000=
201509262102 SPECI KATL 262102Z 07008KT 4SM -RA BR SCT007 OVC012 21/19 A3004 RMK AO2 RAB00 P0000=
201509262052 METAR KATL 262052Z 07008KT 10SM SCT009 OVC017 21/19 A3004 RMK AO2 RAE16 SLP166 P0001 60008 T02110189 55005=
201509262048 SPECI KATL 262048Z 08010KT 10SM SCT009 OVC017 21/19 A3004 RMK AO2 RAE16 P0001=
201509262030 SPECI KATL 262030Z 08005KT 8SM BKN007 BKN012 OVC021 21/19 A3004 RMK AO2 RAE16 P0001=
201509262010 SPECI KATL 262010Z 10006KT 3SM -RA BR SCT007 BKN014 OVC018 21/19 A3004 RMK AO2 SFC VIS 6 P0001=
201509261952 METAR KATL 261952Z 09006KT 2SM -RA BR FEW007 SCT012 OVC016 21/19 A3004 RMK AO2 TWR VIS 3 DZB30E39 SLP166 P0002 T02060189=
201509261937 SPECI KATL 261937Z 09011KT 2SM -DZ BR FEW007 SCT011 OVC017 21/19 A3004 RMK AO2 TWR VIS 3 RAE29DZB30 P0002=
201509261928 SPECI KATL 261928Z 09013KT 3SM -RA BR FEW007 BKN011 OVC017 21/19 A3004 RMK AO2 SFC VIS 5 P0002=
201509261852 METAR KATL 261852Z 09009KT 3SM -RA BR BKN007 OVC016 21/19 A3005 RMK AO2 SLP168 P0005 T02110194=
201509261759 SPECI KATL 261759Z 09008KT 1 3/4SM R09R/5500VP6000FT -RA BR SCT004 BKN007 OVC016 21/19 A3005 RMK AO2 TWR VIS 2 P0000=
201509261752 METAR KATL 261752Z 09009KT 1 1/2SM R09R/5500VP6000FT -RA BR SCT007 OVC014 21/19 A3005 RMK AO2 TWR VIS 2 SLP171 P0008 60040 T02060189 10206 20189 58003=
201509261741 SPECI KATL 261741Z 09009KT 1 1/2SM R09R/4500VP6000FT -RA BR SCT006 OVC012 21/19 A3006 RMK AO2 TWR VIS 2 P0007=
201509261652 METAR KATL 261652Z 09008KT 1 1/2SM R09R/4500VP6000FT -RA BR BKN006 OVC014 21/19 A3006 RMK AO2 TWR VIS 2 SLP175 P0005 T02060189=
201509261640 SPECI KATL 261640Z 09008KT 2SM -RA BR BKN006 BKN014 OVC021 21/19 A3006 RMK AO2 P0003=
201509261607 SPECI KATL 261607Z 07009KT 2SM -RA BR SCT006 BKN018 OVC036 20/18 A3006 RMK AO2 P0001=
201509261552 METAR KATL 261552Z 07010KT 1 1/2SM R09R/5000VP6000FT -RA BR SCT006 OVC016 20/18 A3006 RMK AO2 TWR VIS 2 SLP174 P0006 T02000183=
201509261549 SPECI KATL 261549Z 07009KT 1 1/2SM R09R/5000VP6000FT RA BR SCT006 OVC014 20/18 A3007 RMK AO2 TWR VIS 2 P0005=
201509261526 SPECI KATL 261526Z 07012KT 2SM -RA BR SCT006 OVC016 19/18 A3007 RMK AO2 P0004=
201509261452 METAR KATL 261452Z 07009KT 2SM -RA BR BKN006 OVC015 19/18 A3006 RMK AO2 SFC VIS 5 SLP175 P0003 60021 T01940178 51014=
201509261430 SPECI KATL 261430Z 07008KT 2SM -RA BR SCT006 OVC015 19/18 A3006 RMK AO2 SFC VIS 3 P0002=
201509261352 METAR KATL 261352Z 07010KT 2SM -RA BR BKN008 BKN012 OVC017 19/18 A3005 RMK AO2 SLP171 P0007 T01940178=
201509261350 SPECI KATL 261350Z 07009KT 2SM -RA BR BKN008 BKN012 OVC017 19/18 A3005 RMK AO2 P0007=
201509261320 SPECI KATL 261320Z 08009KT 2SM -RA BR FEW008 OVC015 19/18 A3005 RMK AO2 P0005=
201509261252 METAR KATL 261252Z 08010KT 2SM -RA BR SCT007 OVC013 19/18 A3004 RMK AO2 SFC VIS 3 SLP165 P0011 T01940178=
201509261249 SPECI KATL 261249Z 06010KT 2SM -RA BR SCT005 OVC013 19/18 A3003 RMK AO2 SFC VIS 3 P0011=
201509261152 METAR KATL 261152Z 07006KT 1 1/2SM +RA BR BKN005 BKN010 OVC023 19/18 A3002 RMK AO2 SFC VIS 2 1/2 SLP160 CIG 004V007 P0010 60018 70032 T01940178 10200 20194 53010=
201509261122 SPECI KATL 261122Z 07007KT 1 1/2SM -RA BR BKN005 OVC010 19/18 A3001 RMK AO2 SFC VIS 4 CIG 004V007 P0004=
201509261116 SPECI KATL 261116Z 07006KT 3SM -RA BR BKN005 OVC010 19/18 A3001 RMK AO2 P0003=
201509261052 METAR KATL 261052Z 03007KT 2 1/2SM RA BR BKN005 BKN010 OVC018 19/18 A3000 RMK AO2 TWR VIS 3 RAE0953B44 SLP154 P0002 T01940183=
201509260952 METAR KATL 260952Z 05003KT 3SM -RA BR BKN005 OVC012 19/18 A2999 RMK AO2 SFC VIS 5 SLP150 P0004 T01940183=
201509260903 SPECI KATL 260903Z 03005KT 3SM -RA BR BKN005 OVC014 19/18 A2999 RMK AO2 SFC VIS 5 P0002=
201509260857 SPECI KATL 260857Z 03006KT 2SM RA BR SCT005 SCT011 OVC014 19/18 A2999 RMK AO2 TWR VIS 3 P0001=
201509260852 METAR KATL 260852Z 04006KT 3SM -RA BR BKN005 BKN014 OVC036 19/18 A2999 RMK AO2 RAB0755 SLP149 CIG 004V007 P0002 60002 T01940183 56008=
201509260848 SPECI KATL 260848Z 03005KT 3SM -RA BR BKN005 OVC014 19/18 A2999 RMK AO2 RAB0755 P0002=
201509260835 SPECI KATL 260835Z 04005KT 2SM -RA BR SCT005 BKN008 OVC014 19/18 A2999 RMK AO2 TWR VIS 3 RAB0755 P0001=
201509260754 SPECI KATL 260754Z 03005KT 6SM BR BKN005 BKN009 OVC020 19/18 A2999 RMK AO2=
201509260752 METAR KATL 260752Z 03004KT 3/4SM BR BKN005 BKN009 OVC017 19/18 A2999 RMK AO2 SFC VIS 6 RAB33E44 SLP150 P0000 T01940183=
201509260658 SPECI KATL 260658Z 05005KT 3/4SM BR BKN005 BKN014 OVC045 19/18 A3000 RMK AO2 SFC VIS 6 CIG 004V007=
201509260652 METAR KATL 260652Z 07005KT 3/4SM BR BKN004 BKN014 OVC025 19/18 A3000 RMK AO2 SFC VIS 6 DZE32 SLP153 P0000 T01940183=
201509260552 METAR KATL 260552Z 08005KT 3/4SM -DZ BR OVC003 19/18 A3001 RMK AO2 SFC VIS 5 SLP157 PCPN VRY LGT P0000 60000 T01940183 10194 20189 58002=
201509260452 METAR KATL 260452Z 08007KT 3/4SM -DZ BR OVC003 19/18 A3002 RMK AO2 SFC VIS 1 1/2 SLP159 P0000 T01890178 402720167=
201509260352 METAR KATL 260352Z 07006KT 3/4SM -DZ BR BKN004 OVC020 19/18 A3002 RMK AO2 SFC VIS 2 1/2 SLP160 CIG 002V006 P0000 T01890178=
201509260329 SPECI KATL 260329Z 06005KT 2 1/2SM -DZ BR BKN007 OVC030 19/18 A3002 RMK AO2 CIG 005V010 P0000=
201509260303 SPECI KATL 260303Z 07006KT 5SM -DZ BR BKN007 OVC030 19/18 A3002 RMK AO2 CIG 005V010 P0000=
201509260252 METAR KATL 260252Z 07007KT 2 1/2SM -DZ BR BKN007 OVC030 19/17 A3002 RMK AO2 SLP161 CIG 005V010 P0000 60000 T01890172 51008=
201509260152 METAR KATL 260152Z 05007KT 5SM -DZ BR SCT006 BKN014 OVC030 19/17 A3002 RMK AO2 SLP160 SCT006 V BKN P0000 T01890172=
201509260143 SPECI KATL 260143Z 05007KT 5SM -DZ BR SCT006 BKN014 OVC030 19/17 A3002 RMK AO2 CIG 004V010 P0000=
201509260110 SPECI KATL 260110Z 05009KT 2 1/2SM -DZ BR BKN007 OVC020 19/17 A3001 RMK AO2 SFC VIS 4 CIG 004V010 P0000=
201509260052 METAR KATL 260052Z 06007KT 7SM -DZ BKN007 OVC030 19/17 A3001 RMK AO2 RAE48DZB48 SLP156 CIG 005V010 P0000 T01890172=
201509260048 SPECI KATL 260048Z 07006KT 5SM -DZ BR BKN006 BKN012 OVC030 19/17 A3001 RMK AO2 RAE48DZB48 P0000=
201509252352 METAR KATL 252352Z 05008KT 4SM -RA BR SCT008 BKN015 OVC040 19/17 A3000 RMK AO2 SLP152 P0000 60001 T01940172 10194 20189 53004=
201509252258 SPECI KATL 252258Z 05008KT 8SM -RA SCT008 BKN015 OVC030 19/17 A3000 RMK AO2 P0000=
201509252252 METAR KATL 252252Z 08006KT 3SM -RA SCT008 BKN015 OVC030 19/17 A2999 RMK AO2 SFC VIS 7 SLP152 SCT008 V BKN P0000 T01890172=
201509252152 METAR KATL 252152Z 06009KT 3SM -RA BR SCT008 BKN015 OVC030 19/17 A2999 RMK AO2 SFC VIS 6 RAE04B36 SLP149 VIS LWR NW-N P0000 T01940172=
201509252052 METAR KATL 252052Z 04009KT 3SM -RA BR FEW007 BKN012 OVC025 19/17 A2999 RMK AO2 SFC VIS 4 DZE02RAB35 SLP149 P0000 60001 T01940167 56008=
201509252003 SPECI KATL 252003Z 05007KT 3SM BR BKN009 BKN015 OVC020 19/17 A2999 RMK AO2 SFC VIS 6 DZE02 P0000=
201509251952 METAR KATL 251952Z 05010KT 2 1/2SM -DZ BR BKN007 BKN015 OVC020 19/17 A2999 RMK AO2 SFC VIS 4 RAE17DZB19 SLP151 P0000 T01890167=
201509251938 SPECI KATL 251938Z 06007KT 2 1/2SM -DZ BR FEW007 BKN015 OVC020 19/17 A2999 RMK AO2 SFC VIS 4 RAE17DZB19 P0000=
201509251854 SPECI KATL 251854Z 03009KT 2SM -RA BR BKN007 BKN010 OVC020 19/17 A3000 RMK AO2 TWR VIS 2 1/2 P0000=
201509251852 METAR KATL 251852Z 03010KT 2SM R09R/6000VP6000FT -RA BR BKN010 BKN014 OVC020 19/17 A3000 RMK AO2 TWR VIS 2 1/2 DZE00RAB22 SLP154 P0001 T01890172=
201509251835 SPECI KATL 251835Z 05007KT 2 1/2SM -RA BR BKN010 BKN014 OVC020 19/17 A3000 RMK AO2 SFC VIS 3 DZE00RAB22 P0000=
201509251831 SPECI KATL 251831Z 04009KT 4SM -RA BR BKN010 BKN014 OVC020 19/17 A3001 RMK AO2 DZE00RAB22 P0000=
201509251801 SPECI KATL 251801Z 04009KT 9SM FEW007 BKN012 OVC016 19/16 A3001 RMK AO2 DZE00 P0000=
201509251759 SPECI KATL 251759Z 03009KT 7SM -DZ FEW007 BKN012 OVC016 19/16 A3001 RMK AO2 P0000=
201509251752 METAR KATL 251752Z 02009KT 7SM -DZ FEW007 BKN009 OVC016 19/16 A3001 RMK AO2 SLP159 P0000 60013 T01890161 10194 20167 58010=
201509251706 SPECI KATL 251706Z 03008KT 3SM -DZ BR BKN007 BKN013 OVC020 18/17 A3002 RMK AO2 SFC VIS 5 P0000=
201509251652 METAR KATL 251652Z 04008KT 1 1/2SM -DZ BR BKN007 BKN014 OVC020 18/16 A3003 RMK AO2 SFC VIS 3 RAE40DZB47 SLP164 P0001 T01830161=
201509251552 METAR KATL 251552Z 02008KT 1 1/2SM -RA BR FEW005 BKN007 OVC014 18/16 A3004 RMK AO2 SFC VIS 2 DZE49RAB49 SLP169 P0001 T01780161=
201509251515 SPECI KATL 251515Z 02007KT 1 1/2SM -DZ BR FEW005 BKN007 OVC010 18/16 A3004 RMK AO2 P0001=
201509251452 METAR KATL 251452Z 35007KT 1SM -DZ BR FEW005 BKN007 OVC010 18/16 A3004 RMK AO2 SFC VIS 2 RAE52DZB52 SLP170 P0002 60011 T01780156 51005=
201509251426 SPECI KATL 251426Z 01006KT 1SM -RA BR FEW005 BKN007 OVC012 18/16 A3004 RMK AO2 SFC VIS 2 P0001=
201509251352 METAR KATL 251352Z 04007KT 2 1/2SM -RA BR FEW005 BKN007 OVC010 17/15 A3004 RMK AO2 SLP169 P0002 T01720150=
201509251252 METAR KATL 251252Z 04009KT 2 1/2SM R09R/5500VP6000FT -RA BR BKN007 OVC012 17/16 A3004 RMK AO2 DZE06RAB06 SLP167 CIG 005V009 P0007 T01720156=
201509251207 SPECI KATL 251207Z 04007KT 2 1/2SM -RA BR OVC007 17/15 A3003 RMK AO2 DZE06RAB06 CIG 005V009 P0000=
201509251152 METAR KATL 251152Z 05010KT 6SM -DZ BR OVC007 17/15 A3003 RMK AO2 SLP163 VIS LWR E-S CIG 005V009 P0000 60012 70086 T01720150 10172 20167 53008=
201509251052 METAR KATL 251052Z 03007KT 6SM -DZ BR BKN007 OVC011 17/15 A3001 RMK AO2 SLP158 RAE0956DZB0956 CIG 006V009 P0000 T01670150=
201509250952 METAR KATL 250952Z COR 04009KT 4SM -RA BR BKN007 OVC012 17/16 A3000 RMK AO2 SLP155 CIG 005V009 P0001 T01670156=
201509250852 METAR KATL 250852Z 02009KT 5SM -RA BR BKN007 OVC012 17/15 A3000 RMK AO2 SLP153 CIG 005V009 P0001 60011 T01670150 56018=
201509250752 METAR KATL 250752Z 02006KT 3SM -RA BR BKN008 BKN014 OVC028 17/15 A3002 RMK AO2 SLP160 CIG 006V010 P0009 T01670150=
201509250738 SPECI KATL 250738Z 02008KT 3SM -RA BR SCT005 BKN014 OVC021 17/15 A3002 RMK AO2 P0008=
201509250708 SPECI KATL 250708Z 02008KT 3SM RA BR SCT007 SCT014 OVC018 17/15 A3003 RMK AO2 P0003=
201509250652 METAR KATL 250652Z 03007KT 8SM -RA SCT008 OVC014 17/15 A3003 RMK AO2 RAE31B49 SLP164 P0001 T01670150=
201509250630 SPECI KATL 250630Z 03010KT 8SM -RA SCT008 BKN012 OVC017 17/15 A3004 RMK AO2 P0001=
201509250552 METAR KATL 250552Z 02011G16KT 4SM -RA BR FEW008 BKN015 OVC034 17/14 A3006 RMK AO2 SLP171 P0003 60072 T01670144 10183 20150 58016=
201509250452 METAR KATL 250452Z 03010KT 7SM -RA SCT007 BKN012 OVC050 16/14 A3008 RMK AO2 SLP178 P0007 T01610144 402330150=
201509250352 METAR KATL 250352Z 06008KT 4SM RA BR SCT006 BKN025 OVC050 16/14 A3010 RMK AO2 SLP188 P0018 T01560139=
201509250341 SPECI KATL 250341Z 06009KT 5SM -RA BR SCT005 BKN030 OVC050 16/14 A3010 RMK AO2 P0018=
201509250311 SPECI KATL 250311Z 07006KT 2 1/2SM +RA BR SCT005 BKN010 OVC040 15/14 A3011 RMK AO2 P0007=
201509250252 METAR KATL 250252Z 08008KT 3SM RA BR SCT005 BKN020 OVC050 15/14 A3010 RMK AO2 SLP190 SCT005 V BKN P0027 60044 T01500139 50003=
201509250233 SPECI KATL 250233Z 09008KT 3SM +RA BR SCT005 BKN025 OVC050 16/14 A3011 RMK AO2 SCT005 V BKN P0017=
201509250201 SPECI KATL 250201Z 07011KT 4SM RA BR FEW005 SCT020 OVC050 16/14 A3010 RMK AO2 P0006=
201509250152 METAR KATL 250152Z 08011G18KT 2 1/2SM +RA BR SCT005 BKN020 OVC050 16/14 A3011 RMK AO2 SLP191 P0013 T01560139=
201509250144 SPECI KATL 250144Z 08010KT 2 1/2SM +RA BR SCT006 BKN012 OVC050 16/14 A3011 RMK AO2 P0007=
201509250125 SPECI KATL 250125Z 09009KT 5SM RA BR SCT006 BKN012 OVC100 16/14 A3011 RMK AO2 P0001=
201509250052 METAR KATL 250052Z 08010KT 9SM -RA FEW008 SCT050 BKN100 OVC130 17/14 A3009 RMK AO2 SLP186 P0004 T01670139=
201509242352 METAR KATL 242352Z 08012KT 9SM -RA FEW030 BKN100 OVC120 18/13 A3010 RMK AO2 SLP186 P0002 60002 T01830128 10228 20183 55002=
201509242252 METAR KATL 242252Z 08004KT 10SM -RA FEW030 BKN080 OVC120 21/12 A3008 RMK AO2 RAE24B48 SLP181 P0000 T02060122=
201509242152 METAR KATL 242152Z 08007KT 030V100 10SM -RA FEW035 SCT090 OVC110 20/13 A3009 RMK AO2 SLP182 P0000 T02000128=
201509242052 METAR KATL 242052Z 06009KT 10SM -RA SCT038 BKN085 OVC110 22/12 A3010 RMK AO2 RAB48 SLP186 P0000 60000 T02170117 56012=
201509241952 METAR KATL 241952Z 05009KT 10SM BKN038 OVC150 22/11 A3011 RMK AO2 SLP188 ACC W-NW T02220111=
201509241852 METAR KATL 241852Z 04010KT 10SM SCT038 BKN085 BKN150 22/11 A3011 RMK AO2 SLP191 ACC SW-NW T02220111=
201509241752 METAR KATL 241752Z 05011KT 10SM BKN085 BKN150 BKN250 22/11 A3014 RMK AO2 SLP198 T02220111 10233 20194 58007=
201509241652 METAR KATL 241652Z 06012KT 10SM FEW085 SCT150 BKN250 23/11 A3015 RMK AO2 SLP202 T02280111=
201509241552 METAR KATL 241552Z 07011KT 10SM FEW085 BKN150 BKN200 22/11 A3016 RMK AO2 SLP206 VIRGA DSNT SE-S T02170111=
201509241452 METAR KATL 241452Z 06016G20KT 10SM BKN085 BKN150 BKN200 21/12 A3016 RMK AO2 SLP205 T02060117 51011=
201509241352 METAR KATL 241352Z 07014KT 10SM BKN075 BKN150 BKN200 20/13 A3015 RMK AO2 SLP202 T02000133=
201509241252 METAR KATL 241252Z 06011KT 10SM FEW070 SCT110 BKN150 BKN200 19/13 A3014 RMK AO2 SLP200 VIRGA DSNT NW ACC DSNT NE & S T01940133=
201509241152 METAR KATL 241152Z 07012KT 10SM FEW110 BKN150 BKN200 BKN250 19/13 A3013 RMK AO2 SLP193 VIRGA DSNT N & W & NW ACC NW-N T01940133 10211 20194 53007=
201509241052 METAR KATL 241052Z 07014KT 10SM FEW120 BKN150 BKN200 OVC250 19/13 A3011 RMK AO2 SLP189 T01940133=
201509240952 METAR KATL 240952Z 06011KT 10SM FEW130 SCT160 OVC200 20/13 A3011 RMK AO2 SLP186 T02000133=
201509240852 METAR KATL 240852Z 07011KT 10SM FEW140 BKN180 OVC250 20/14 A3010 RMK AO2 SLP185 T02000139 56004=
201509240752 METAR KATL 240752Z 05010KT 10SM FEW110 SCT150 BKN200 OVC250 21/14 A3010 RMK AO2 SLP185 T02060144=
201509240652 METAR KATL 240652Z 05006KT 10SM FEW150 BKN200 OVC250 21/15 A3011 RMK AO2 SLP187 T02060150=
201509240552 METAR KATL 240552Z 05009KT 10SM FEW150 BKN200 BKN250 21/15 A3012 RMK AO2 SLP189 T02110150 10250 20211 58001=
201509240452 METAR KATL 240452Z 06008KT 10SM BKN250 21/16 A3012 RMK AO2 SLP190 T02110156 402720178=
201509240352 METAR KATL 240352Z 08009KT 10SM BKN250 22/16 A3012 RMK AO2 SLP192 T02170161=
201509240252 METAR KATL 240252Z 08007KT 10SM FEW040 BKN250 22/16 A3012 RMK AO2 SLP191 T02170161 51011=
201509240152 METAR KATL 240152Z 06008KT 10SM FEW150 BKN250 24/16 A3011 RMK AO2 SLP188 T02440156=
201509240052 METAR KATL 240052Z 06008KT 10SM FEW150 BKN250 24/16 A3010 RMK AO2 SLP184 T02440156=
201509232352 METAR KATL 232352Z 08008KT 10SM FEW150 SCT250 25/15 A3008 RMK AO2 SLP180 T02500150 10272 20250 56003=
201509232252 METAR KATL 232252Z 07011KT 10SM FEW040 SCT200 BKN250 26/15 A3009 RMK AO2 SLP180 T02610150=
201509232152 METAR KATL 232152Z 07007KT 040V100 10SM FEW040 SCT200 27/16 A3009 RMK AO2 SLP180 T02670161=
201509232052 METAR KATL 232052Z 06008G15KT 10SM FEW040 SCT150 26/16 A3009 RMK AO2 SLP182 T02610161 56018=
201509231952 METAR KATL 231952Z 08009G16KT 10SM FEW037 SCT150 SCT250 27/17 A3010 RMK AO2 SLP185 T02670167=
201509231852 METAR KATL 231852Z COR 06012KT 10SM FEW035 SCT150 SCT250 26/17 A3011 RMK AO2 SLP189 T02610167=
201509231752 METAR KATL 231752Z 06010KT 10SM FEW030 BKN036 BKN220 25/17 A3015 RMK AO2 SLP201 T02500172 10261 20183 58011=
201509231652 METAR KATL 231652Z 07012KT 10SM FEW025 SCT030 SCT220 26/17 A3016 RMK AO2 SLP205 T02560172=
201509231625 SPECI KATL 231625Z 06012KT 10SM SCT025 SCT220 24/17 A3017 RMK AO2=
201509231552 METAR KATL 231552Z 06011KT 10SM BKN020 BKN220 24/17 A3018 RMK AO2 SLP211 T02390172=
201509231452 METAR KATL 231452Z 06012KT 10SM FEW020 BKN100 BKN220 23/17 A3018 RMK AO2 SLP212 T02280167 51006=
201509231352 METAR KATL 231352Z 07011KT 10SM FEW100 20/16 A3018 RMK AO2 SLP212 T02000156=
201509231252 METAR KATL 231252Z 05011KT 10SM FEW095 SCT110 SCT250 19/15 A3016 RMK AO2 SLP207 ACC DSNT SW T01940150=
201509231152 METAR KATL 231152Z 06010KT 10SM SCT110 SCT250 18/15 A3016 RMK AO2 SLP207 ACC DSNT S T01830150 10206 20178 53014=
201509231052 METAR KATL 231052Z 06009KT 10SM SCT110 18/15 A3014 RMK AO2 SLP200 T01780150=
201509230952 METAR KATL 230952Z 06011KT 10SM FEW110 18/16 A3013 RMK AO2 SLP194 T01830156=
201509230852 METAR KATL 230852Z 07012KT 10SM FEW110 19/16 A3012 RMK AO2 SLP192 T01890161 56005=
201509230752 METAR KATL 230752Z 08010KT 10SM FEW008 SCT110 19/17 A3012 RMK AO2 SLP193 T01890167=
201509230652 METAR KATL 230652Z 09007KT 10SM FEW110 19/17 A3013 RMK AO2 SLP194 T01940172=
201509230552 METAR KATL 230552Z 03007KT 10SM FEW100 21/18 A3013 RMK AO2 SLP196 T02060178 10228 20200 51004=
201509230452 METAR KATL 230452Z 05007KT 10SM FEW100 21/17 A3013 RMK AO2 SLP197 T02060172 402440194=
201509230352 METAR KATL 230352Z 05007KT 10SM FEW100 21/18 A3013 RMK AO2 SLP196 T02060178=
201509230252 METAR KATL 230252Z 05008KT 10SM FEW100 21/18 A3012 RMK AO2 SLP193 T02110178 51008=
201509230152 METAR KATL 230152Z 07009KT 10SM SCT100 22/18 A3012 RMK AO2 SLP192 T02170178=
201509230052 METAR KATL 230052Z 07008KT 10SM FEW095 SCT120 SCT200 22/18 A3011 RMK AO2 SLP189 T02220178=
201509222352 METAR KATL 222352Z 07009KT 10SM SCT120 SCT200 23/18 A3010 RMK AO2 SLP185 T02280178 10244 20228 53002=
201509222252 METAR KATL 222252Z 10008KT 10SM FEW025 BKN120 BKN200 23/18 A3009 RMK AO2 SLP182 T02330178=
201509222152 METAR KATL 222152Z 09009KT 10SM FEW025 BKN110 BKN250 24/18 A3009 RMK AO2 SLP181 T02390178=
201509222052 METAR KATL 222052Z 09007KT 10SM FEW025 SCT110 BKN140 BKN250 24/18 A3009 RMK AO2 SLP182 T02390178 56007=
201509221952 METAR KATL 221952Z 10008KT 10SM FEW025 SCT050 BKN100 OVC250 23/18 A3009 RMK AO2 SLP182 BINOVC DSNT NW-N T02330178=
201509221852 METAR KATL 221852Z 07005KT 10SM FEW025 SCT045 BKN120 BKN250 24/17 A3010 RMK AO2 SLP184 T02390172=
201509221752 METAR KATL 221752Z 09006KT 10SM FEW020 BKN100 BKN250 24/17 A3011 RMK AO2 SLP189 60000 T02390172 10239 20194 56008=
201509221652 METAR KATL 221652Z 08008KT 10SM SCT016 BKN110 BKN250 23/18 A3012 RMK AO2 SLP193 T02280178=
201509221604 SPECI KATL 221604Z 07009KT 10SM FEW012 BKN016 OVC110 22/18 A3012 RMK AO2=
201509221552 METAR KATL 221552Z 05010KT 10SM FEW012 BKN014 OVC018 22/18 A3013 RMK AO2 RAB1458E08 SLP195 P0000 T02170178=
201509221452 METAR KATL 221452Z 08008KT 10SM BKN010 OVC014 21/18 A3014 RMK AO2 RAE13 SLP199 P0000 60000 T02060178 51011=
201509221402 SPECI KATL 221402Z 08006KT 9SM -RA FEW009 BKN012 OVC015 21/18 A3014 RMK AO2 P0000=
201509221352 METAR KATL 221352Z 07007KT 8SM -RA BKN009 BKN012 OVC015 20/18 A3013 RMK AO2 RAE1255B39 SLP197 P0000 T02000178=
201509221252 METAR KATL 221252Z 09008KT 4SM -RA BR OVC007TCU 20/18 A3013 RMK AO2 RAB32 SLP195 TCU OHD-S P0000 T02000178=
201509221240 SPECI KATL 221240Z 09007G16KT 4SM -RA BR OVC007TCU 20/18 A3013 RMK AO2 RAB32 VIS S-SW 2 1/2 TCU OHD-S P0000=
201509221152 METAR KATL 221152Z 08012KT 8SM OVC009 20/18 A3011 RMK AO2 SLP187 CB DSNT SE-S 60001 70001 T02000178 10217 20200 53021=
201509221052 METAR KATL 221052Z 08009KT 8SM OVC009 21/18 A3007 RMK AO2 SLP175 T02060178=
201509220952 METAR KATL 220952Z 05009KT 8SM BKN009 OVC100 21/18 A3004 RMK AO2 SLP165 T02060178=
201509220852 METAR KATL 220852Z 06009KT 10SM BKN009 OVC100 21/18 A3004 RMK AO2 SLP164 60001 T02060178 58000=
201509220848 SPECI KATL 220848Z 05008KT 10SM FEW009 OVC100 21/18 A3004 RMK AO2=
201509220752 METAR KATL 220752Z 05009KT 10SM OVC095 21/18 A3004 RMK AO2 RAE27 SLP165 P0001 T02060178=
201509220652 METAR KATL 220652Z 01006KT 10SM -RA OVC110 21/17 A3004 RMK AO2 RAB37 SLP164 P0000 T02060167=
201509220552 METAR KATL 220552Z 01006KT 10SM BKN100 OVC150 21/16 A3004 RMK AO2 SLP165 VIRGA W 60000 T02110156 10228 20206 50005=
201509220452 METAR KATL 220452Z 31004KT 10SM BKN110 OVC150 21/16 A3004 RMK AO2 RAB0357E06 SLP166 VIRGA OHD-ALQDS P0000 T02060156 402500194=
201509220352 METAR KATL 220352Z 30005KT 10SM BKN110 OVC150 21/16 A3004 RMK AO2 SLP164 VIRGA OHD-ALQDS T02110156=
201509220252 METAR KATL 220252Z 02008KT 10SM BKN110 OVC150 22/15 A3003 RMK AO2 SLP159 VIRGA OHD-ALQDS T02220150 51009=
201509220152 METAR KATL 220152Z 35008KT 10SM FEW080 BKN110 OVC150 22/15 A3001 RMK AO2 SLP156 VIRGA OHD-ALQDS T02220150=
201509220052 SPECI KATL 220052Z 01007KT 10SM FEW080 BKN110 OVC150 23/14 A3001 RMK AO2 SLP156 VIRGA OHD-ALQDS T02280144=
201509220052 METAR KATL 220052Z 01007KT 10SM FEW080 BKN110 OVC150 23/14 A3001 RMK AO2 SLP156 VIRGA OHD-ALQDS T02280144=
201509212352 METAR KATL 212352Z 36011KT 10SM FEW060 BKN110 OVC200 23/15 A3000 RMK AO2 SLP151 VIRGA OHD-ALQDS T02280150 10250 20228 50000=
201509212252 METAR KATL 212252Z 32006KT 10SM BKN100 BKN150 OVC200 23/16 A3001 RMK AO2 SLP157 VIRGA E-S-SW T02280156=
201509212152 METAR KATL 212152Z 29006KT 10SM SCT100 BKN150 OVC250 23/16 A3001 RMK AO2 SLP153 T02330161=
201509212052 METAR KATL 212052Z 31006KT 10SM FEW040 BKN140 BKN250 24/15 A3000 RMK AO2 SLP150 VIRGA DSNT NE-E T02440150 55007=
201509211952 METAR KATL 211952Z 36005KT 10SM FEW040 SCT120 BKN170 BKN250 25/15 A3000 RMK AO2 SLP148 T02500150=
201509211852 METAR KATL 211852Z 35007KT 10SM FEW120 SCT150 SCT180 BKN250 24/16 A3001 RMK AO2 SLP153 VIRGA DSNT N-NE-E-SE & DSNT W-NW T02440161=
201509211752 METAR KATL 211752Z 31007KT 10SM FEW120 BKN180 BKN250 23/16 A3002 RMK AO2 SLP157 VIRGA DSNT E-SE-S & W-NW T02330161 10244 20194 58006=
201509211652 METAR KATL 211652Z 32009KT 10SM FEW030 SCT150 BKN180 BKN250 23/16 A3003 RMK AO2 SLP159 VIRGA DSNT NW-N-NE T02330161=
201509211552 METAR KATL 211552Z 32010KT 10SM FEW150 BKN180 BKN250 24/17 A3004 RMK AO2 SLP163 VIRGA DSNT NW-N T02390172=
201509211452 METAR KATL 211452Z 32010KT 10SM FEW120 BKN170 BKN250 22/17 A3004 RMK AO2 SLP163 ACC DSNT SE T02220167 51015=
201509211352 METAR KATL 211352Z 31006KT 10SM FEW012 SCT120 BKN180 OVC250 21/17 A3003 RMK AO2 SLP159 T02060167=
201509211252 METAR KATL 211252Z 31009KT 10SM FEW090 BKN150 BKN200 OVC250 20/17 A3002 RMK AO2 SLP157 T02000167=
201509211152 METAR KATL 211152Z 31008KT 10SM FEW120 BKN150 BKN180 OVC250 19/17 A2999 RMK AO2 SLP148 T01940167 10228 20194 53016=
201509211052 METAR KATL 211052Z 31009KT 10SM FEW120 SCT150 BKN180 BKN250 20/17 A2997 RMK AO2 SLP140 T02000172=
201509210952 METAR KATL 210952Z 30006KT 10SM FEW120 BKN150 OVC250 21/17 A2995 RMK AO2 SLP131 T02060172=
201509210852 METAR KATL 210852Z 31006KT 10SM FEW120 OVC150 21/17 A2995 RMK AO2 SLP129 T02110172 56005 $=
201509210752 METAR KATL 210752Z 31004KT 10SM FEW120 OVC180 22/17 A2995 RMK AO2 SLP129 T02170172 $=
201509210652 METAR KATL 210652Z 31006KT 10SM FEW120 BKN150 OVC200 22/18 A2995 RMK AO2 SLP132 T02220178 $=
201509210552 METAR KATL 210552Z 32006KT 10SM SCT120 BKN200 OVC250 23/17 A2996 RMK AO2 SLP134 T02280172 10261 20228 58002 $=
201509210452 METAR KATL 210452Z 33006KT 10SM BKN180 OVC250 24/18 A2996 RMK AO2 SLP135 T02390178 403170183 $=
201509210352 METAR KATL 210352Z 32007KT 10SM FEW120 BKN180 OVC250 24/19 A2997 RMK AO2 SLP139 T02440189 $=
201509210252 METAR KATL 210252Z 30005KT 10SM FEW120 BKN180 BKN250 25/19 A2997 RMK AO2 SLP136 T02500194 51009 $=
201509210152 METAR KATL 210152Z 30006KT 10SM FEW070 BKN180 BKN250 26/20 A2996 RMK AO2 SLP136 T02560200 $=
201509210052 METAR KATL 210052Z 24003KT 10SM FEW050 SCT070 BKN200 OVC250 25/20 A2996 RMK AO2 SLP134 T02500200 $=
201509202352 METAR KATL 202352Z 22003KT 10SM FEW045 SCT065 BKN200 OVC250 26/20 A2994 RMK AO2 SLP129 T02610200 10317 20261 50001 $=
201509202252 METAR KATL 202252Z 21005KT 10SM FEW040TCU SCT060 SCT100 OVC200 27/21 A2994 RMK AO2 SLP130 CB DSNT S TCU W SHRA DSNT S T02670211 $=
201509202152 METAR KATL 202152Z 23003KT 10SM FEW040CB SCT050TCU SCT100 BKN200 29/19 A2994 RMK AO2 SLP128 CB S MOV SE TCU E & SW-W SHRA S T02890189 $=
201509202052 METAR KATL 202052Z 00000KT 10SM FEW049 BKN250 32/18 A2994 RMK AO2 SLP127 T03170183 56017 $=
201509201952 METAR KATL 201952Z 26007KT 10SM SCT050 BKN250 31/18 A2995 RMK AO2 SLP130 T03060183 $=
201509201852 METAR KATL 201852Z 31006KT 10SM FEW046 SCT070 BKN250 30/18 A2997 RMK AO2 SLP137 T03000183 $=
201509201752 METAR KATL 201752Z VRB04KT 10SM FEW045 SCT070 BKN250 31/19 A2999 RMK AO2 SLP144 T03060189 10306 20200 58014 $=
201509201652 METAR KATL 201652Z 33005KT 10SM BKN070 BKN250 29/18 A3001 RMK AO2 SLP152 T02940178 $=
201509201552 METAR KATL 201552Z VRB04KT 10SM BKN250 29/17 A3002 RMK AO2 SLP157 T02890172 $=
201509201452 METAR KATL 201452Z 33006KT 10SM SCT250 27/17 A3003 RMK AO2 SLP159 T02720172 51014 $=
201509201352 METAR KATL 201352Z 33006KT 10SM FEW250 24/17 A3002 RMK AO2 SLP154 T02440172 $=
201509201252 METAR KATL 201252Z 30003KT 10SM FEW250 22/17 A3001 RMK AO2 SLP151 T02220167 $=
201509201152 METAR KATL 201152Z 31005KT 10SM FEW250 20/16 A2999 RMK AO2 SLP146 T02000161 10211 20183 53014 $=
201509201052 METAR KATL 201052Z 00000KT 10SM FEW250 20/16 A2997 RMK AO2 SLP141 T02000161 $=
201509200952 METAR KATL 200952Z COR 31004KT 10SM FEW250 20/17 A2996 RMK AO2 SLP135 T02000167 $=
201509200852 METAR KATL 200852Z 00000KT 10SM SCT250 19/17 A2995 RMK AO2 SLP130 T01940167 54000 $=
201509200752 METAR KATL 200752Z 32006KT 10SM SCT250 21/17 A2995 RMK AO2 SLP131 T02060172 $=
201509200652 METAR KATL 200652Z 31004KT 10SM SCT250 21/17 A2994 RMK AO2 SLP130 T02060167 $=
201509200552 METAR KATL 200552Z 31003KT 10SM FEW250 21/16 A2995 RMK AO2 SLP131 T02060161 10278 20206 58006 $=
201509200452 METAR KATL 200452Z 31004KT 10SM FEW250 22/16 A2996 RMK AO2 SLP135 T02170161 403060167 $=
201509200352 METAR KATL 200352Z 00000KT 10SM FEW200 SCT250 22/16 A2996 RMK AO2 SLP136 T02220156 $=
201509200252 METAR KATL 200252Z 00000KT 10SM FEW200 SCT250 23/16 A2997 RMK AO2 SLP138 T02280156 51012 $=
201509200152 METAR KATL 200152Z 03006KT 10SM SCT200 SCT250 27/14 A2996 RMK AO2 SLP135 T02720144 $=
201509200052 METAR KATL 200052Z 02005KT 10SM FEW200 SCT250 27/14 A2994 RMK AO2 SLP129 T02720139 $=
201509192352 METAR KATL 192352Z 36007KT 10SM FEW055 SCT200 SCT250 28/14 A2993 RMK AO2 SLP126 T02780144 10306 20272 56002 $=
201509192252 METAR KATL 192252Z 32007KT 10SM FEW055 SCT200 SCT250 28/15 A2993 RMK AO2 SLP128 T02830150 $=
201509192152 METAR KATL 192152Z 34005KT 10SM FEW060 SCT200 SCT250 30/15 A2993 RMK AO2 SLP126 T03000150 $=
201509192052 METAR KATL 192052Z VRB03KT 10SM FEW060 SCT200 SCT250 31/16 A2994 RMK AO2 SLP127 T03060156 56013 $=
201509191952 METAR KATL 191952Z VRB03KT 10SM FEW055 SCT100 SCT250 29/16 A2994 RMK AO2 SLP129 T02940161 $=
201509191852 METAR KATL 191852Z 29005KT 10SM SCT050 BKN250 30/16 A2996 RMK AO2 SLP134 T03000161 $=
201509191752 METAR KATL 191752Z 31008KT 10SM SCT050 BKN250 28/16 A2997 RMK AO2 SLP140 T02830161 10294 20200 58011 $=
201509191652 METAR KATL 191652Z VRB04KT 10SM BKN046 BKN250 27/16 A2999 RMK AO2 SLP146 T02720161 $=
201509191552 METAR KATL 191552Z 00000KT 10SM FEW040 27/17 A3000 RMK AO2 SLP149 T02720172 $=
201509191452 METAR KATL 191452Z 00000KT 10SM FEW250 26/18 A3001 RMK AO2 SLP152 T02560178 51007 $=
201509191352 METAR KATL 191352Z 10004KT 10SM FEW250 23/17 A3001 RMK AO2 SLP152 T02330167 $=
201509191252 METAR KATL 191252Z 07005KT 10SM FEW250 22/16 A3000 RMK AO2 SLP149 T02170156 $=
201509191152 METAR KATL 191152Z 05004KT 10SM FEW250 20/15 A2999 RMK AO2 SLP145 T02000150 10222 20167 51016 $=
201509191052 METAR KATL 191052Z 00000KT 10SM CLR 17/14 A2997 RMK AO2 SLP141 T01720144 $=
201509190952 METAR KATL 190952Z 32005KT 10SM CLR 19/14 A2996 RMK AO2 SLP135 T01890144 $=
201509190852 METAR KATL 190852Z 06005KT 10SM CLR 21/14 A2994 RMK AO2 SLP128 T02060144 58003 $=
201509190752 METAR KATL 190752Z 01003KT 10SM CLR 22/14 A2995 RMK AO2 SLP130 T02170144 $=
201509190652 METAR KATL 190652Z 05003KT 10SM CLR 22/14 A2995 RMK AO2 SLP130 T02170144 $=
201509190552 METAR KATL 190552Z 07004KT 10SM CLR 22/15 A2995 RMK AO2 SLP131 T02170150 10256 20211 58012 $=
201509190452 METAR KATL 190452Z 07006KT 10SM CLR 22/15 A2997 RMK AO2 SLP138 T02220150 402830183 $=
201509190352 METAR KATL 190352Z 06004KT 10SM CLR 23/15 A2998 RMK AO2 SLP142 T02330150 $=
201509190252 METAR KATL 190252Z 08005KT 10SM CLR 23/15 A2998 RMK AO2 SLP143 T02280150 51010 $=
201509190152 METAR KATL 190152Z 09005KT 10SM CLR 23/15 A2998 RMK AO2 SLP144 T02280150 $=
201509190052 METAR KATL 190052Z 10005KT 10SM CLR 24/15 A2997 RMK AO2 SLP139 T02440150 $=
201509182352 METAR KATL 182352Z 11005KT 10SM CLR 25/15 A2995 RMK AO2 SLP134 T02500150 10283 20250 53000 $=
201509182252 METAR KATL 182252Z 06007KT 10SM FEW050 27/14 A2995 RMK AO2 SLP133 T02670139=
201509182152 METAR KATL 182152Z 09008KT 10SM FEW050 28/14 A2995 RMK AO2 SLP132 T02780144=
201509182052 METAR KATL 182052Z 07008KT 10SM FEW048 28/15 A2995 RMK AO2 SLP133 T02830150 56019=
201509181952 METAR KATL 181952Z 06006G14KT 10SM FEW048 28/15 A2996 RMK AO2 SLP136 T02780150=
201509181852 METAR KATL 181852Z 06010G16KT 10SM FEW046 28/15 A2998 RMK AO2 SLP143 T02780150=
201509181752 METAR KATL 181752Z 04010G14KT 10SM FEW044 27/15 A3001 RMK AO2 SLP153 T02720150 10278 20189 58014=
201509181652 METAR KATL 181652Z 04009KT 10SM FEW040 26/16 A3003 RMK AO2 SLP161 T02610156=
201509181552 METAR KATL 181552Z 05014G18KT 10SM FEW035 26/15 A3004 RMK AO2 SLP164 T02610150=
201509181452 METAR KATL 181452Z 05012KT 10SM FEW030 24/17 A3005 RMK AO2 SLP168 T02440167 51007=
201509181452 SPECI KATL 181452Z 05012KT 10SM FEW030 24/17 A3005 RMK AO2 SLP168 T02440167 51007=
201509181352 METAR KATL 181352Z 06010KT 10SM FEW250 23/17 A3004 RMK AO2 SLP166 T02280172=
201509181252 METAR KATL 181252Z 04009KT 10SM FEW250 21/16 A3005 RMK AO2 SLP167 T02060161=
201509181152 METAR KATL 181152Z 04007KT 10SM FEW250 19/14 A3003 RMK AO2 SLP161 T01890144 10217 20183 53008=
201509181052 METAR KATL 181052Z 05007KT 10SM CLR 18/14 A3002 RMK AO2 SLP157 T01830144=
201509180952 METAR KATL 180952Z 05007KT 10SM CLR 19/14 A3001 RMK AO2 SLP153 T01890144=
201509180852 METAR KATL 180852Z 36007KT 10SM CLR 19/14 A3001 RMK AO2 SLP152 T01940144 56009=
201509180752 METAR KATL 180752Z 04006KT 10SM CLR 20/14 A3001 RMK AO2 SLP154 T02000144=
201509180652 METAR KATL 180652Z 06006KT 10SM CLR 19/14 A3002 RMK AO2 SLP157 T01940144=
201509180552 METAR KATL 180552Z 03004KT 10SM CLR 22/14 A3003 RMK AO2 SLP161 T02170144 10250 20206 58010=
201509180452 METAR KATL 180452Z 07005KT 10SM CLR 21/14 A3005 RMK AO2 SLP167 T02060144 402830167=
201509180352 METAR KATL 180352Z 09004KT 10SM CLR 21/14 A3007 RMK AO2 SLP173 T02110144=
201509180252 METAR KATL 180252Z 09005KT 10SM CLR 21/14 A3007 RMK AO2 SLP173 T02110144 53004=
201509180152 METAR KATL 180152Z 10005KT 10SM CLR 22/15 A3006 RMK AO2 SLP173 T02170150=
201509180052 METAR KATL 180052Z 09006KT 10SM FEW060 24/15 A3006 RMK AO2 SLP170 T02390150=
201509172352 METAR KATL 172352Z 08009KT 10SM FEW060 25/14 A3006 RMK AO2 SLP170 T02500144 10283 20250 56003=
201509172252 METAR KATL 172252Z 09009KT 10SM FEW060 26/14 A3006 RMK AO2 SLP170 T02610144=
201509172152 METAR KATL 172152Z 08009KT 10SM FEW060 28/14 A3006 RMK AO2 SLP170 T02780144=
201509172052 METAR KATL 172052Z 08006KT 10SM FEW060 28/14 A3007 RMK AO2 SLP173 T02780144 56025=
201509171952 METAR KATL 171952Z 10007KT 070V140 10SM FEW060 28/14 A3008 RMK AO2 SLP178 T02780139=
201509171852 METAR KATL 171852Z 36003KT 10SM FEW060 27/14 A3011 RMK AO2 SLP187 T02720144=
201509171752 METAR KATL 171752Z 09007KT 10SM SCT060 27/14 A3014 RMK AO2 SLP198 T02720144 10272 20183 58020=
201509171652 SPECI KATL 171652Z 09005KT 10SM FEW060 26/15 A3017 RMK AO2 SLP207 T02560150=
201509171652 METAR KATL 171652Z 09005KT 10SM FEW060 26/15 A3017 RMK AO2 SLP207 T02560150=
201509171552 METAR KATL 171552Z 03008KT 10SM FEW060 24/14 A3018 RMK AO2 SLP213 T02440144=
201509171452 METAR KATL 171452Z COR 07007KT 10SM BKN060 23/14 A3020 RMK AO2 SLP220 T02330139 52004=
201509171352 METAR KATL 171352Z COR 08008KT 10SM FEW055 22/13 A3020 RMK AO2 SLP220 T02170133=
201509171252 METAR KATL 171252Z 07009KT 10SM FEW038 SCT250 20/13 A3019 RMK AO2 SLP218 T02000128=
201509171152 METAR KATL 171152Z 06008KT 10SM FEW036 SCT250 18/13 A3019 RMK AO2 SLP218 T01830128 10189 20167 53007=
201509171052 METAR KATL 171052Z 07007KT 10SM FEW036 SCT200 18/12 A3018 RMK AO2 SLP213 T01780122=
201509170952 METAR KATL 170952Z 09007KT 10SM FEW034 SCT250 17/13 A3017 RMK AO2 SLP210 T01720128=
201509170852 METAR KATL 170852Z 08007KT 10SM FEW034 SCT250 18/13 A3017 RMK AO2 SLP210 T01780128 56013=
201509170752 METAR KATL 170752Z 09007KT 10SM SCT036 SCT075 SCT250 18/13 A3018 RMK AO2 SLP214 T01780133=
201509170652 METAR KATL 170652Z 08006KT 10SM FEW033 SCT075 SCT250 19/13 A3020 RMK AO2 SLP217 T01890128=
201509170552 METAR KATL 170552Z 09005KT 10SM BKN033 BKN075 BKN250 19/13 A3021 RMK AO2 SLP222 T01890128 10228 20183 58009=
201509170452 METAR KATL 170452Z 10003KT 10SM FEW075 19/12 A3022 RMK AO2 SLP225 T01940122 402610167=
201509170352 METAR KATL 170352Z 09007KT 10SM BKN070 21/12 A3023 RMK AO2 SLP230 T02060122=
201509170252 METAR KATL 170252Z 09008KT 10SM FEW050 OVC070 21/13 A3024 RMK AO2 SLP232 T02110128 50001=
201509170152 METAR KATL 170152Z 09009KT 10SM FEW050 OVC070 22/13 A3024 RMK AO2 SLP233 T02170133=
201509170052 METAR KATL 170052Z 09007KT 10SM SCT050 BKN070 BKN250 22/13 A3024 RMK AO2 SLP233 T02220128=
201509162352 METAR KATL 162352Z 09006KT 10SM FEW050 BKN065 BKN250 23/12 A3024 RMK AO2 SLP233 T02280122 10261 20228 56003=
201509162252 METAR KATL 162252Z 09009KT 10SM BKN050 BKN250 24/13 A3024 RMK AO2 SLP233 T02390133=
201509162152 METAR KATL 162152Z 12006KT 10SM BKN055 OVC250 24/13 A3024 RMK AO2 SLP234 T02390133=
201509162052 METAR KATL 162052Z 10008KT 10SM FEW050 BKN060 BKN250 24/13 A3025 RMK AO2 SLP236 T02440128 56021=
201509161952 METAR KATL 161952Z 12007KT 10SM BKN060 BKN070 BKN250 25/12 A3025 RMK AO2 SLP238 T02500117=
201509161852 METAR KATL 161852Z 06012G16KT 10SM FEW065 BKN075 BKN250 26/13 A3028 RMK AO2 SLP247 T02560128=
201509161752 METAR KATL 161752Z 08012G18KT 10SM BKN060 BKN070 BKN250 25/13 A3031 RMK AO2 SLP257 T02500133 10256 20172 58011=
201509161652 SPECI KATL 161652Z 09009KT 10SM FEW050 BKN070 BKN250 24/13 A3033 RMK AO2 SLP262 T02440128=
201509161652 METAR KATL 161652Z 09009KT 10SM FEW050 BKN070 BKN250 24/13 A3033 RMK AO2 SLP262 T02440128=
201509161552 METAR KATL 161552Z 08008KT 10SM BKN070 BKN100 BKN250 23/14 A3034 RMK AO2 SLP267 T02330144=
201509161452 METAR KATL 161452Z 10009KT 10SM FEW060 SCT100 BKN250 23/15 A3034 RMK AO2 SLP268 T02280150 53009=
201509161352 METAR KATL 161352Z 09006KT 10SM FEW050 SCT100 BKN250 20/14 A3033 RMK AO2 SLP264 T02000139=
201509161252 METAR KATL 161252Z 08009KT 10SM FEW055 SCT090 BKN200 BKN250 19/13 A3033 RMK AO2 SLP264 T01890133=
201509161152 METAR KATL 161152Z 08007KT 10SM FEW060 SCT085 BKN200 BKN250 17/12 A3031 RMK AO2 SLP259 T01720122 10183 20167 51010=
201509161052 METAR KATL 161052Z 08006KT 10SM FEW080 BKN200 BKN250 17/12 A3031 RMK AO2 SLP257 T01670117=
201509160952 METAR KATL 160952Z 07005KT 10SM FEW080 BKN200 BKN250 17/12 A3029 RMK AO2 SLP250 T01720117=
201509160852 METAR KATL 160852Z 09005KT 10SM FEW100 BKN200 OVC250 17/12 A3028 RMK AO2 SLP248 T01670117 55004=
201509160752 METAR KATL 160752Z 07008KT 10SM FEW120 BKN200 OVC250 18/12 A3028 RMK AO2 SLP246 T01780117=
201509160652 METAR KATL 160652Z 09006KT 10SM BKN200 BKN250 17/12 A3029 RMK AO2 SLP249 T01720117=
201509160552 METAR KATL 160552Z 08005KT 10SM BKN200 BKN250 18/12 A3029 RMK AO2 SLP251 T01830117 10228 20183 58006=
201509160452 METAR KATL 160452Z 09004KT 10SM BKN200 BKN250 19/12 A3031 RMK AO2 SLP257 T01890117 402670150=
201509160352 METAR KATL 160352Z 09005KT 10SM BKN200 BKN250 19/12 A3031 RMK AO2 SLP258 T01940117=
201509160252 METAR KATL 160252Z 10004KT 10SM BKN200 BKN250 21/11 A3031 RMK AO2 SLP258 T02060111 53007=
201509160152 METAR KATL 160152Z 09007KT 10SM BKN200 BKN250 20/11 A3031 RMK AO2 SLP257 T02000111=
201509160052 METAR KATL 160052Z 09008KT 10SM BKN200 BKN250 21/12 A3030 RMK AO2 SLP253 T02110117=
201509152352 METAR KATL 152352Z 11006KT 10SM BKN200 BKN250 23/12 A3029 RMK AO2 SLP252 T02280117 10267 20222 53002=
201509152252 METAR KATL 152252Z 10008KT 10SM BKN200 BKN250 24/11 A3029 RMK AO2 SLP251 T02390106=
201509152152 METAR KATL 152152Z 10009KT 10SM BKN200 BKN250 24/11 A3028 RMK AO2 SLP250 T02440111=
201509152052 METAR KATL 152052Z 10005KT 10SM FEW055 BKN200 BKN250 25/12 A3029 RMK AO2 SLP250 T02500122 56014=
201509151952 METAR KATL 151952Z 10007G14KT 10SM FEW060 SCT200 BKN250 26/12 A3029 RMK AO2 SLP252 T02610117=
201509151852 METAR KATL 151852Z 08008KT 10SM FEW055 SCT200 BKN250 26/12 A3031 RMK AO2 SLP257 T02610117=
201509151752 METAR KATL 151752Z 11009G14KT 10SM FEW050 SCT200 BKN250 26/12 A3033 RMK AO2 SLP264 T02560117 10256 20156 58007=
201509151652 METAR KATL 151652Z 09009G17KT 10SM FEW050 SCT200 BKN250 24/13 A3035 RMK AO2 SLP269 T02440128=
201509151552 METAR KATL 151552Z 09010KT 10SM FEW045 SCT200 BKN250 24/13 A3036 RMK AO2 SLP274 T02390133=
201509151452 METAR KATL 151452Z 10008KT 10SM SCT250 22/14 A3035 RMK AO2 SLP272 T02220144 51013=
201509151352 METAR KATL 151352Z COR 09005KT 10SM BKN250 19/14 A3035 RMK AO2 SLP271 T01940139=
201509151252 METAR KATL 151252Z 08007KT 10SM FEW200 SCT250 17/12 A3033 RMK AO2 SLP265 T01720117=
201509151152 METAR KATL 151152Z 09005KT 10SM FEW250 16/11 A3031 RMK AO2 SLP259 T01560106 10167 20150 53014=
201509151052 METAR KATL 151052Z 07006KT 10SM FEW250 15/11 A3029 RMK AO2 SLP252 T01500106=
201509150952 METAR KATL 150952Z 08006KT 10SM FEW250 15/11 A3028 RMK AO2 SLP247 T01500106=
201509150852 METAR KATL 150852Z 08006KT 10SM FEW250 16/11 A3027 RMK AO2 SLP244 T01560106 56002=
201509150752 METAR KATL 150752Z 10005KT 10SM FEW250 16/11 A3027 RMK AO2 SLP245 T01560111=
201509150652 METAR KATL 150652Z 08006KT 10SM FEW250 16/11 A3027 RMK AO2 SLP244 T01610111=
201509150552 METAR KATL 150552Z 08005KT 10SM FEW250 16/12 A3028 RMK AO2 SLP247 T01610117 10228 20161 51004=
201509150452 METAR KATL 150452Z 08004KT 10SM FEW250 17/12 A3028 RMK AO2 SLP247 T01720117 402500122=
201509150352 METAR KATL 150352Z 09005KT 10SM FEW250 17/12 A3027 RMK AO2 SLP246 T01720117=
201509150252 METAR KATL 150252Z 14003KT 10SM FEW250 18/12 A3026 RMK AO2 SLP243 T01830117 51016=
201509150152 METAR KATL 150152Z 12003KT 10SM FEW250 20/11 A3025 RMK AO2 SLP239 T02000111=
201509150052 METAR KATL 150052Z 12003KT 10SM SCT250 21/11 A3023 RMK AO2 SLP233 T02110111=
201509142352 METAR KATL 142352Z 13005KT 10SM SCT250 23/10 A3022 RMK AO2 SLP228 T02280100 10250 20228 53002=
201509142252 METAR KATL 142252Z 09007KT 10SM SCT250 23/09 A3021 RMK AO2 SLP224 T02330089=
201509142152 METAR KATL 142152Z VRB03KT 10SM FEW250 25/09 A3021 RMK AO2 SLP225 T02500094=
201509142052 METAR KATL 142052Z VRB05KT 10SM FEW250 24/10 A3021 RMK AO2 SLP224 T02440100 57015=
201509141952 METAR KATL 141952Z VRB05KT 10SM CLR 24/11 A3022 RMK AO2 SLP228 T02440106=
201509141852 METAR KATL 141852Z VRB05KT 10SM FEW010 SCT250 23/09 A3025 RMK AO2 SLP237 FU FEW010 T02330094=
201509141752 METAR KATL 141752Z 09005KT 10SM FEW250 23/11 A3026 RMK AO2 SLP240 T02330106 10233 20133 58004=
201509141652 METAR KATL 141652Z 16008KT 10SM FEW250 22/10 A3027 RMK AO2 SLP245 T02220100=
201509141552 METAR KATL 141552Z 11007KT 10SM FEW250 21/10 A3027 RMK AO2 SLP246 T02110100=
201509141452 METAR KATL 141452Z 13009KT 10SM FEW250 20/10 A3027 RMK AO2 SLP246 T02000100 53019=
201509141352 METAR KATL 141352Z 09010KT 10SM FEW250 18/09 A3025 RMK AO2 SLP237 T01830094=
201509141252 METAR KATL 141252Z 09009KT 10SM FEW250 15/08 A3023 RMK AO2 SLP234 T01500083=
201509141152 METAR KATL 141152Z 10005KT 10SM FEW250 13/08 A3021 RMK AO2 SLP228 T01330083 10156 20122 53023=
201509141052 METAR KATL 141052Z 10003KT 10SM CLR 13/08 A3019 RMK AO2 SLP220 T01330078=
201509140952 METAR KATL 140952Z 06003KT 10SM CLR 14/08 A3016 RMK AO2 SLP209 T01390078=
201509140852 METAR KATL 140852Z 03004KT 10SM CLR 14/08 A3014 RMK AO2 SLP202 T01440078 53002=
201509140752 METAR KATL 140752Z 02004KT 10SM CLR 15/08 A3014 RMK AO2 SLP203 T01500078=
201509140652 METAR KATL 140652Z 00000KT 10SM CLR 14/08 A3014 RMK AO2 SLP201 T01390078=
201509140552 METAR KATL 140552Z 02004KT 10SM CLR 16/08 A3014 RMK AO2 SLP201 T01560078 10200 20156 51008=
201509140452 METAR KATL 140452Z 01007KT 10SM CLR 17/08 A3014 RMK AO2 SLP200 T01670078 402390117=
201509140352 METAR KATL 140352Z 01006KT 10SM CLR 17/08 A3013 RMK AO2 SLP198 T01720083=
201509140252 METAR KATL 140252Z 35004KT 10SM CLR 18/08 A3011 RMK AO2 SLP192 T01780078 53019=
201509140152 METAR KATL 140152Z 35008KT 10SM FEW250 18/08 A3009 RMK AO2 SLP185 T01830078=
201509140052 METAR KATL 140052Z 34007KT 10SM FEW250 18/08 A3007 RMK AO2 SLP179 T01830078=
201509132352 METAR KATL 132352Z 34006KT 10SM FEW250 20/08 A3006 RMK AO2 SLP175 T02000078 10239 20200 53007=
201509132252 METAR KATL 132252Z 32009KT 10SM FEW250 22/07 A3004 RMK AO2 SLP169 T02170072=
201509132152 METAR KATL 132152Z 33008G19KT 10SM FEW250 23/08 A3003 RMK AO2 SLP165 T02280078=
201509132052 METAR KATL 132052Z 36007G14KT 10SM FEW250 24/08 A3004 RMK AO2 SLP165 T02390083 58004=
201509131952 METAR KATL 131952Z 32011G17KT 280V360 10SM FEW055 23/08 A3004 RMK AO2 SLP167 T02280078=
201509131852 SPECI KATL 131852Z 32011G18KT 10SM FEW055 23/08 A3004 RMK AO2 SLP169 T02280078=
201509131852 METAR KATL 131852Z 32011G18KT 10SM FEW055 23/08 A3004 RMK AO2 SLP169 T02280078=
201509131752 METAR KATL 131752Z 35011G17KT 10SM FEW050 22/08 A3005 RMK AO2 SLP169 T02220078 10228 20122 50001=
201509131652 METAR KATL 131652Z 34013G16KT 10SM FEW050 21/07 A3005 RMK AO2 SLP170 T02110067=
201509131552 METAR KATL 131552Z 33013G17KT 280V350 10SM FEW040 21/08 A3006 RMK AO2 SLP173 T02060078=
201509131452 METAR KATL 131452Z 34013G19KT 10SM FEW250 18/08 A3004 RMK AO2 SLP168 T01830083 51015=
201509131352 METAR KATL 131352Z 34006KT 10SM FEW250 17/09 A3003 RMK AO2 SLP165 T01670094=
201509131252 METAR KATL 131252Z 33010KT 10SM FEW250 14/09 A3002 RMK AO2 SLP161 T01390094=
201509131152 METAR KATL 131152Z 31008KT 10SM FEW250 12/09 A3000 RMK AO2 SLP155 T01220094 10150 20117 53019=
201509131052 METAR KATL 131052Z 31006KT 10SM FEW250 12/09 A2997 RMK AO2 SLP146 T01170094=
201509130952 METAR KATL 130952Z 29006KT 10SM FEW250 13/10 A2996 RMK AO2 SLP138 T01280100=
201509130852 METAR KATL 130852Z 31006KT 10SM FEW250 13/10 A2994 RMK AO2 SLP134 T01330100 53001=
201509130752 METAR KATL 130752Z 31007KT 10SM FEW250 14/11 A2994 RMK AO2 SLP131 T01390106=
201509130652 METAR KATL 130652Z 31007KT 10SM CLR 14/11 A2994 RMK AO2 SLP133 T01440111=
201509130552 METAR KATL 130552Z 29006KT 10SM CLR 15/11 A2994 RMK AO2 SLP132 T01500111 10211 20150 51006=
201509130452 METAR KATL 130452Z 29005KT 10SM FEW250 15/11 A2994 RMK AO2 SLP132 T01500111 402560150=
201509130352 METAR KATL 130352Z 31006KT 10SM FEW200 17/11 A2993 RMK AO2 SLP129 T01670111=
201509130252 METAR KATL 130252Z 31008KT 10SM FEW200 SCT250 18/11 A2992 RMK AO2 SLP125 T01780106 52022=
201509130152 METAR KATL 130152Z 31005KT 10SM FEW060 SCT200 SCT250 18/10 A2990 RMK AO2 SLP118 T01830100=
201509130052 METAR KATL 130052Z 31008KT 10SM FEW055 SCT200 SCT250 19/10 A2988 RMK AO2 SLP110 T01940100=
201509122352 METAR KATL 122352Z 32011KT 10SM FEW050 SCT200 SCT250 21/12 A2985 RMK AO2 SLP103 T02110117 10256 20211 53009=
201509122252 METAR KATL 122252Z 31014G19KT 10SM FEW055 SCT070 SCT200 BKN250 23/12 A2983 RMK AO2 SLP095 T02330122=
201509122152 METAR KATL 122152Z 31009KT 10SM FEW055 SCT075 SCT200 BKN250 25/12 A2983 RMK AO2 SLP092 T02500122=
201509122052 METAR KATL 122052Z 32007KT 10SM SCT045 BKN070 BKN250 24/14 A2982 RMK AO2 SLP091 T02440139 58015=
201509121952 METAR KATL 121952Z 27005KT 10SM SCT040 BKN250 25/15 A2984 RMK AO2 SLP097 T02500150=
201509121852 METAR KATL 121852Z 32012G16KT 10SM BKN035 BKN060 BKN250 24/16 A2985 RMK AO2 SLP101 T02390156=
201509121752 METAR KATL 121752Z VRB05KT 10SM SCT026 BKN250 23/17 A2987 RMK AO2 SLP107 T02330167 10233 20194 58011=
201509121714 SPECI KATL 121714Z 30007KT 10SM SCT024 BKN250 22/17 A2988 RMK AO2=
201509121652 METAR KATL 121652Z 27005KT 10SM BKN021 BKN250 22/17 A2989 RMK AO2 SLP112 T02220167=
201509121626 SPECI KATL 121626Z 29007KT 10SM BKN021 BKN250 22/17 A2990 RMK AO2 BKN021 V SCT=
201509121552 METAR KATL 121552Z 32007KT 10SM SCT019 SCT090 OVC250 21/17 A2991 RMK AO2 SLP119 T02110167=
201509121520 SPECI KATL 121520Z 33006KT 10SM SCT026 OVC150 21/17 A2991 RMK AO2=
201509121452 METAR KATL 121452Z 33008KT 10SM FEW013 BKN022 OVC100 21/17 A2990 RMK AO2 SLP118 T02060167 51008=
201509121352 METAR KATL 121352Z 30004KT 10SM FEW009 SCT028 SCT060 OVC250 21/17 A2989 RMK AO2 SLP113 T02060172 $=
201509121305 SPECI KATL 121305Z 31012G21KT 240V010 9SM SCT009 SCT027 OVC250 20/17 A2990 RMK AO2=
201509121252 METAR KATL 121252Z 31008KT 9SM BKN009 BKN100 OVC220 20/17 A2990 RMK AO2 SLP117 BKN009 V SCT T02000172=
201509121233 SPECI KATL 121233Z 31007KT 9SM BKN009 BKN100 OVC220 19/17 A2990 RMK AO2=
201509121152 METAR KATL 121152Z 31006KT 10SM FEW008 BKN100 OVC220 19/17 A2988 RMK AO2 SLP110 T01940172 10217 20194 51006=
201509121052 METAR KATL 121052Z 28005KT 10SM FEW009 BKN090 BKN150 OVC200 19/17 A2987 RMK AO2 SLP107 T01940172=
201509121017 SPECI KATL 121017Z 29007KT 10SM FEW009 SCT100 BKN150 OVC200 19/17 A2987 RMK AO2=
201509120952 METAR KATL 120952Z 29006KT 10SM SCT100 OVC200 19/17 A2987 RMK AO2 SLP105 T01940172=
201509120852 METAR KATL 120852Z 26005KT 10SM SCT100 OVC180 19/17 A2986 RMK AO2 SLP102 T01940172 56008=
201509120752 METAR KATL 120752Z 26006KT 10SM SCT100 BKN180 OVC250 20/17 A2986 RMK AO2 SLP102 T02000167=
201509120652 METAR KATL 120652Z 27005KT 10SM FEW100 SCT180 OVC250 21/17 A2987 RMK AO2 SLP106 T02060172=
201509120552 METAR KATL 120552Z 26005KT 10SM BKN100 BKN180 OVC250 22/18 A2989 RMK AO2 SLP110 T02170178 10256 20217 58004=
201509120452 METAR KATL 120452Z 25004KT 10SM BKN180 OVC250 22/19 A2989 RMK AO2 SLP112 T02220189 403000200=
201509120352 METAR KATL 120352Z 25007KT 10SM BKN200 OVC250 23/20 A2989 RMK AO2 SLP112 T02330200=
201509120252 METAR KATL 120252Z 23009G14KT 10SM FEW050 BKN200 OVC250 24/19 A2990 RMK AO2 SLP115 T02390194 53007=
201509120152 METAR KATL 120152Z 24006KT 10SM SCT200 OVC250 24/19 A2989 RMK AO2 SLP111 T02440194=
201509120052 METAR KATL 120052Z 23005KT 10SM FEW200 BKN250 24/20 A2986 RMK AO2 SLP104 T02440200=
201509112352 METAR KATL 112352Z 22006KT 10SM FEW045 BKN250 26/20 A2988 RMK AO2 SLP108 T02560200 10300 20256 53003=
201509112252 METAR KATL 112252Z 22006KT 10SM FEW045 BKN250 27/19 A2987 RMK AO2 SLP107 T02720189=
201509112152 METAR KATL 112152Z 25007KT 220V280 10SM FEW045 SCT250 29/18 A2987 RMK AO2 SLP103 TCU DSNT E T02890183=
201509112052 METAR KATL 112052Z 25009KT 10SM SCT045 SCT075 BKN250 29/18 A2987 RMK AO2 SLP104 T02890183 56019=
201509111952 METAR KATL 111952Z 33005KT 10SM SCT045 SCT250 30/18 A2988 RMK AO2 SLP108 T03000183=
201509111852 METAR KATL 111852Z 29008KT 10SM SCT039 BKN250 29/18 A2990 RMK AO2 SLP114 T02940183=
201509111752 METAR KATL 111752Z 28007KT 10SM SCT034TCU BKN250 28/19 A2993 RMK AO2 SLP124 TCU SW T02830189 10283 20206 58011=
201509111652 METAR KATL 111652Z 30010G15KT 10SM SCT030TCU SCT250 28/19 A2994 RMK AO2 SLP130 TCU NE & SE & SW T02780194=
201509111552 METAR KATL 111552Z 31007KT 10SM SCT018 SCT250 26/20 A2996 RMK AO2 SLP135 T02610200=
201509111452 METAR KATL 111452Z 30006KT 10SM FEW012 SCT200 BKN250 25/21 A2996 RMK AO2 SLP136 T02500211 51009=
201509111435 SPECI KATL 111435Z 30005KT 9SM FEW008 SCT010 BKN250 24/21 A2996 RMK AO2=
201509111352 METAR KATL 111352Z 29004KT 5SM BR FEW004 BKN008 BKN250 23/21 A2995 RMK AO2 SLP134 T02280206=
201509111350 SPECI KATL 111350Z 27004KT 5SM BR FEW004 BKN008 BKN250 23/21 A2995 RMK AO2=
201509111315 SPECI KATL 111315Z 28004KT 2SM BR BKN004 21/20 A2995 RMK AO2 SFC VIS 4=
201509111252 METAR KATL 111252Z 28004KT 2SM BR BKN003 BKN200 BKN250 21/19 A2995 RMK AO2 SFC VIS 4 SLP136 CIG 002V004 TWRINC T02110194=
201509111216 SPECI KATL 111216Z 00000KT 1 1/2SM BR OVC003 21/19 A2994 RMK AO2 SFC VIS 3 CIG 002V004 TWRINC BINOVC=
201509111152 METAR KATL 111152Z 26005KT 4SM BR BKN003 BKN007 BKN200 BKN250 21/19 A2993 RMK AO2 SLP129 CIG 002V004 70041 T02060194 10217 20200 53010=
201509111141 SPECI KATL 111141Z 27005KT 4SM BR BKN003 BKN007 BKN200 BKN250 21/19 A2993 RMK AO2 CIG 002V004=
201509111052 METAR KATL 111052Z 25005KT 5SM BR FEW003 SCT006 SCT200 BKN250 21/19 A2992 RMK AO2 SLP122 T02060194=
201509110952 METAR KATL 110952Z 25003KT 5SM BR FEW003 SCT007 SCT150 BKN250 21/19 A2991 RMK AO2 SLP118 T02060194=
201509110941 SPECI KATL 110941Z 25003KT 5SM BR SCT004 SCT150 BKN250 21/19 A2991 RMK AO2=
201509110929 SPECI KATL 110929Z 24004KT 2SM BR SCT004 SCT150 BKN250 21/19 A2990 RMK AO2 SFC VIS 5=
201509110852 METAR KATL 110852Z 27005KT 2SM BR BKN005 BKN150 BKN250 21/20 A2990 RMK AO2 SFC VIS 5 SLP117 CIG 003V007 T02110200 53003=
201509110752 METAR KATL 110752Z 26004KT 2SM BR BKN003 BKN150 BKN250 21/20 A2989 RMK AO2 SFC VIS 5 SLP114 CIG 002V004 T02110200=
201509110652 METAR KATL 110652Z 28008KT 2SM BR OVC003 21/20 A2989 RMK AO2 SFC VIS 4 SLP113 CIG 002V004 BINOVC T02110200=
201509110552 METAR KATL 110552Z 28005KT 2SM BR BKN003 BKN150 BKN250 21/20 A2989 RMK AO2 SFC VIS 6 SLP112 CIG 002V004 TWRINC 60011 T02110200 10228 20206 56012=
201509110541 SPECI KATL 110541Z 26007KT 6SM BR BKN003 BKN150 BKN250 22/20 A2990 RMK AO2 CIG 002V004=
201509110452 METAR KATL 110452Z 27006KT 10SM FEW004 BKN250 22/20 A2991 RMK AO2 SLP118 T02170200 402940206=
201509110352 METAR KATL 110352Z 26005KT 10SM FEW100 BKN250 21/19 A2991 RMK AO2 SLP118 T02110194=
201509110252 METAR KATL 110252Z 24006KT 10SM FEW100 BKN250 21/19 A2993 RMK AO2 SLP126 60011 T02110194 53004=
201509110152 METAR KATL 110152Z 22006KT 10SM FEW020 SCT100 BKN250 21/19 A2993 RMK AO2 TSE29 SLP126 OCNL LTG DSNT S-SW T02110194=
201509110129 SPECI KATL 110129Z 22007KT 10SM FEW007 SCT030 BKN100 BKN200 21/19 A2992 RMK AO2 TSE29 OCNL LTGIC DSNT SE-SW TS MOV SE=
201509110052 METAR KATL 110052Z 19006KT 10SM TS FEW020CB SCT050 BKN080 BKN200 21/18 A2991 RMK AO2 RAE42 SLP121 FRQ LTGICCG SE-SW TS VC SE-SW MOV SE P0011 T02060183=
201509102352 METAR KATL 102352Z 11005KT 9SM -TSRA FEW010 SCT020CB BKN040 BKN150 22/20 A2992 RMK AO2 PK WND 36026/2319 WSHFT 2317 RAB18 SLP122 FRQ LTGICCG NE-SE-SW TS NE-SE-SW MOV SE P0030 60030 T02220200 10294 20217 53017=
201509102334 SPECI KATL 102334Z 08012KT 6SM TSRA BR FEW010 SCT025CB BKN040 OVC150 22/20 A2990 RMK AO2 PK WND 36026/2319 WSHFT 2317 RAB18 FRQ LTGICCG NE-SE-S TS NE-SE-S MOV SE P0028=
201509102327 SPECI KATL 102327Z 05013G26KT 3SM +TSRA BR FEW010 SCT025CB BKN040 BKN150 22/20 A2991 RMK AO2 PK WND 36026/2319 RAB18 VIS LWR NE-SE-S FRQ LTGICCG NE-SE-S TS NE-SE-S MOV SE P0024=
201509102320 SPECI KATL 102320Z 36021G26KT 1/4SM R09R/4000VP6000FT +TSRA FEW010 BKN025CB BKN040 BKN150 23/21 A2992 RMK AO2 PK WND 36026/2319 SFC VIS 1 RAB18 PRESRR FRQ LTGICCG NE-OHD-W TS NE-OHD-W MOV SE P0000=
201509102252 METAR KATL 102252Z 18012KT 10SM TS FEW025CB SCT100 BKN150 BKN200 24/21 A2988 RMK AO2 TSB47 SLP109 FRQ LTGICCG N-NE & NW TS VC N-NE & NW MOV SE T02440211=
201509102247 SPECI KATL 102247Z 18012KT 10SM TS FEW025CB SCT120 BKN200 25/21 A2987 RMK AO2 TSB47 OCNL LTGICCG N-NE & DSNT NW TS VC N-NE & DSNT NW MOV SE=
201509102152 METAR KATL 102152Z 18005KT 10SM FEW025 SCT120 BKN150 BKN200 26/21 A2987 RMK AO2 SLP106 CB DSNT NW T02610206=
201509102052 METAR KATL 102052Z 27005KT 10SM FEW025 SCT100 BKN230 25/19 A2986 RMK AO2 TSE23 SLP103 OCNL LTGICCG DSNT NE-SE TS DSNT NE-SE CB DSNT N & DSNT NE-SE & DSNT NW SHRA DSNT NE-SE T02500194 55018=
201509102024 SPECI KATL 102024Z 30009KT 10SM SCT030 SCT050 BKN250 26/19 A2987 RMK AO2 TSE23 OCNL LTGICCG DSNT NE-SE TS MOV E CB DSNT NE-SE SHRA DSNT NE-SE=
201509101959 SPECI KATL 101959Z 31008KT 10SM TS FEW030CB SCT090 BKN250 26/18 A2986 RMK AO2 OCNL LTGICCG NE-E-SE-S TS VC NE-E-SE-S SHRA VC NE-E-SE-S=
201509101952 METAR KATL 101952Z 31009KT 10SM TS SCT030CB BKN090 BKN250 26/19 A2986 RMK AO2 TSB25 SLP102 FRQ LTGICCG NE TS VC NE MOV E CB SE-SW MOV E SHRA VC NE & SE T02610189=
201509101947 SPECI KATL 101947Z 32011G24KT 10SM TS SCT030CB BKN080 BKN250 26/19 A2987 RMK AO2 TSB25 FRQ LTGICCG NE TS VC NE MOV E CB SE-SW MOV E SHRA VC NE=
201509101939 SPECI KATL 101939Z 32016G25KT 10SM TS BKN030CB BKN080 BKN250 28/20 A2987 RMK AO2 TSB25 OCNL LTGICCG N TS VC N MOV E TCU SE-SW SHRA VC N=
201509101926 SPECI KATL 101926Z 27008KT 10SM TS FEW030CB SCT040TCU BKN250 29/21 A2987 RMK AO2 TSB25 OCNL LTGICCG N TS VC N MOV E TCU SE-SW SHRA VC N=
201509101852 METAR KATL 101852Z 29009KT 10SM SCT028TCU SCT060 BKN250 29/22 A2988 RMK AO2 SLP107 CB DSNT NE & NW TCU S & W SHRA DSNT NE & NW T02890217=
201509101752 METAR KATL 101752Z 24005KT 10SM SCT025TCU SCT060 BKN250 28/22 A2992 RMK AO2 SLP120 TCU NW-N SHRA VC NW-N T02830217 10283 20217 58017=
201509101652 METAR KATL 101652Z VRB04KT 10SM FEW020 SCT060 BKN250 27/22 A2995 RMK AO2 SLP133 T02670217=
201509101552 METAR KATL 101552Z 24007KT 9SM FEW012 SCT150 BKN250 26/21 A2997 RMK AO2 SLP138 T02560211=
201509101452 METAR KATL 101452Z 26007KT 8SM FEW006 BKN010 BKN150 24/21 A2997 RMK AO2 SLP139 T02440211 53003=
201509101423 SPECI KATL 101423Z 28009KT 7SM BKN006 BKN009 24/22 A2996 RMK AO2=
201509101352 METAR KATL 101352Z 26009KT 3SM BR BKN005 BKN008 23/21 A2996 RMK AO2 SFC VIS 6 SLP136 T02330211=
201509101252 METAR KATL 101252Z 25004KT 3SM BR OVC005 22/21 A2996 RMK AO2 SFC VIS 5 SLP136 CIG 004V006 T02220206=
201509101152 METAR KATL 101152Z 23004KT 3SM BR BKN004 BKN018 OVC085 22/20 A2996 RMK AO2 SFC VIS 4 SLP135 CIG 003V006 ACC NW-NE 60000 70011 T02170200 10217 20211 53004=
201509101139 SPECI KATL 101139Z 22005KT 3SM BR BKN003 BKN018 BKN085 BKN200 21/20 A2995 RMK AO2 SFC VIS 5 CIG 002V004 ACC N-NE=
201509101052 METAR KATL 101052Z 21003KT 7SM FEW003 SCT018 BKN140 BKN200 21/20 A2995 RMK AO2 SLP130 T02110200=
201509101050 SPECI KATL 101050Z 22005KT 6SM BR FEW003 SCT018 BKN140 BKN200 21/20 A2995 RMK AO2=
201509101037 SPECI KATL 101037Z 21004KT 1 1/2SM BR SCT003 BKN020 BKN060 BKN200 21/20 A2995 RMK AO2 SFC VIS 5=
201509100952 METAR KATL 100952Z 28004KT 1 1/2SM BR OVC003CB 21/20 A2995 RMK AO2 SFC VIS 3 SLP133 CIG 002V004 CB NW MOV NE SHRA NW TWRINC T02110200=
201509100852 METAR KATL 100852Z 00000KT 1 1/2SM BR OVC003 21/20 A2994 RMK AO2 SFC VIS 4 SLP130 CIG 002V004 TWRINC 60000 T02110200 58003=
201509100832 SPECI KATL 100832Z 24005KT 2SM BR BKN003 BKN060 BKN120 BKN200 21/20 A2994 RMK AO2 SFC VIS 5 CIG 002V005=
201509100752 METAR KATL 100752Z 20005KT 6SM BR BKN004 BKN120 BKN200 BKN250 21/20 A2995 RMK AO2 SLP131 CIG 003V006 T02110200=
201509100702 SPECI KATL 100702Z 16007KT 6SM BR BKN004 BKN055 BKN120 OVC200 21/20 A2995 RMK AO2 CIG 003V006=
201509100652 METAR KATL 100652Z 15006KT 8SM FEW004 SCT055 BKN120 OVC180 21/20 A2995 RMK AO2 RAB09E42 SLP133 P0000 T02110200=
201509100552 METAR KATL 100552Z 25003KT 9SM FEW005 SCT110 BKN150 OVC200 21/20 A2995 RMK AO2 RAE45 SLP133 P0001 60010 T02110200 10267 20211 58004=
201509100452 METAR KATL 100452Z 23003KT 10SM -RA FEW080 BKN120 OVC150 22/20 A2995 RMK AO2 RAB0354 SLP132 P0003 T02170200 403060211=
201509100352 METAR KATL 100352Z 21005KT 10SM FEW070 BKN120 OVC150 22/20 A2997 RMK AO2 RAE48 SLP140 SHRA ALQDS P0000 T02170200=
201509100252 METAR KATL 100252Z 28007KT 9SM -RA FEW030 SCT080 BKN120 OVC150 22/20 A2997 RMK AO2 TSB04E52RAB11 SLP138 OCNL LTGIC DSNT NE & SE-S TS MOV NE P0006 60006 T02220200 53012=
201509100204 SPECI KATL 100204Z 25006KT 10SM TS FEW030CB SCT060 BKN150 BKN200 25/20 A2996 RMK AO2 TSB04 FRQ LTGICCG SW-NW & DSNT NE-E TS VC SW-NW & DSNT NE-E MOV NE=
201509100152 METAR KATL 100152Z 26005KT 10SM FEW030 SCT060 BKN200 26/20 A2995 RMK AO2 SLP132 FRQ LTGICCG DSNT SE-S & SW-NW T02560200=
201509100052 METAR KATL 100052Z 00000KT 10SM FEW100 SCT200 26/21 A2994 RMK AO2 SLP128 OCNL LTG DSNT SW T02610211=
201509092352 METAR KATL 092352Z 23003KT 10SM FEW035 SCT200 27/21 A2993 RMK AO2 SLP125 CB DSNT N & SW T02670206 10306 20267 53008=
201509092252 METAR KATL 092252Z 22005KT 10SM FEW035 SCT200 28/20 A2991 RMK AO2 SLP117 CB DSNT NE & NW T02830200=
201509092152 METAR KATL 092152Z 23006KT 10SM FEW035 BKN200 29/21 A2991 RMK AO2 SLP118 CB DSNT NE TCU DSNT E T02940206=
201509092052 METAR KATL 092052Z 23010KT 10SM FEW040 SCT100 BKN250 29/22 A2991 RMK AO2 SLP116 CB DSNT N-NE & DSNT S TCU DSNT NE-E & SE-S SHRA DSNT N-NE T02940217 56023=
201509091952 METAR KATL 091952Z 22008KT 10SM FEW030CB BKN050 BKN250 29/22 A2992 RMK AO2 SLP122 CB W MOV E TCU DSNT ALQDS SHRA VC W T02940222=
201509091852 METAR KATL 091852Z 24006KT 10SM FEW035 SCT250 29/21 A2995 RMK AO2 SLP132 CB DSNT NE & DSNT SW-NW TCU DSNT NE-SE & SW-NW T02940211=
201509091752 METAR KATL 091752Z 24009KT 10SM FEW025TCU SCT030 SCT250 28/22 A2998 RMK AO2 RAB35E45 SLP139 CB DSNT SW-W TCU E TCU DSNT ALQDS SHRA VC E P0000 60001 T02830222 10294 20233 58013=
201509091652 METAR KATL 091652Z 24006KT 10SM FEW020CB SCT030TCU SCT250 27/23 A2999 RMK AO2 RAE04 SLP147 CB SW MOV E TCU ALQDS SHRA VC N & SE & SW P0000 T02720228=
201509091552 METAR KATL 091552Z 25007KT 8SM -RA SCT015TCU BKN030 BKN050 25/22 A3001 RMK AO2 RAB47 SLP154 TCU ALQDS SHRA VC N & S-SW-W P0000 T02500217=
201509091452 METAR KATL 091452Z 28004KT 10SM SCT007 BKN016 BKN030 24/22 A3001 RMK AO2 RAB17E36 SLP155 SHRA VC E P0001 60001 T02440222 51009=
201509091445 SPECI KATL 091445Z 28003KT 9SM SCT007 BKN016 OVC034 24/23 A3001 RMK AO2 RAB17E36 P0001=
201509091424 SPECI KATL 091424Z 28004KT 9SM R09R/5500VP6000FT RA FEW009 BKN017 OVC023 24/22 A3001 RMK AO2 RAB17 P0000=
201509091359 SPECI KATL 091359Z 28006KT 10SM BKN009 BKN014 OVC020 24/22 A3001 RMK AO2=
201509091352 METAR KATL 091352Z 27006KT 10SM SCT006 BKN012 OVC030 24/22 A3001 RMK AO2 SLP152 T02390217=
201509091252 METAR KATL 091252Z 27005KT 8SM BKN006 BKN017 OVC030 23/22 A3000 RMK AO2 RAB28E39 SLP150 CIG 005V008 BINOVC P0000 T02330217=
201509091152 METAR KATL 091152Z 28003KT 3SM BKN006 BKN012 BKN030 23/22 A2999 RMK AO2 SFC VIS 8 RAE1055 SLP144 CIG 004V008 P0000 60012 70014 T02330217 10233 20228 53009 $=
201509091108 SPECI KATL 091108Z 27003KT 3SM BKN007 BKN016 OVC032 23/22 A2997 RMK AO2 SFC VIS 10 RAE1055 CIG 005V009 BINOVC P0000=
201509091052 METAR KATL 091052Z 28004KT 3SM -RA BR SCT003 BKN022 OVC050 23/22 A2997 RMK AO2 SFC VIS 6 SLP138 BINOVC P0009 T02330217=
201509091047 SPECI KATL 091047Z 31004KT 1 1/2SM -RA BR SCT004 BKN016 OVC030 23/22 A2997 RMK AO2 SFC VIS 4 P0009=
201509090952 METAR KATL 090952Z 00000KT 1 1/2SM RA BR BKN005 OVC018 23/22 A2996 RMK AO2 RAB0853 SLP133 CIG 004V007 P0003 T02330217=
201509090926 SPECI KATL 090926Z 07005KT 1 1/2SM -RA BR BKN005 BKN010 OVC016 23/22 A2996 RMK AO2 SFC VIS 2 RAB0853 CIG 004V007 P0001=
201509090852 METAR KATL 090852Z 07003KT 9SM BKN007 OVC013 23/22 A2995 RMK AO2 RAB32E45 SLP132 CIG 005V009 P0000 60000 T02330217 56012=
201509090752 METAR KATL 090752Z 09006KT 10SM BKN007 OVC017 23/22 A2996 RMK AO2 RAB37E51 SLP135 CIG 005V009 P0000 T02330217=
201509090652 METAR KATL 090652Z 09006KT 10SM BKN006 OVC012 23/22 A2997 RMK AO2 SLP139 CIG 005V008 T02330217=
201509090552 METAR KATL 090552Z 11005KT 10SM BKN007 OVC015 23/22 A2999 RMK AO2 SLP145 CIG 005V009 60001 T02330217 10272 20228 56003=
201509090525 SPECI KATL 090525Z 12005KT 10SM BKN008 BKN015 OVC038 23/21 A2999 RMK AO2=
201509090452 METAR KATL 090452Z 09007KT 10SM FEW007 BKN020 BKN040 OVC150 23/21 A2999 RMK AO2 RAE0355 SLP145 P0000 T02280211 402890217=
201509090352 METAR KATL 090352Z 09005KT 10SM -RA FEW015 SCT090 BKN150 OVC200 23/21 A2999 RMK AO2 SLP145 P0001 T02330211=
201509090252 METAR KATL 090252Z 12003KT 10SM -RA SCT030 BKN050 BKN070 OVC150 23/21 A3000 RMK AO2 RAB48 SLP149 P0000 60000 T02330206 50013=
201509090152 METAR KATL 090152Z 12008KT 10SM FEW025 SCT045 BKN070 BKN200 24/20 A3000 RMK AO2 RAB35E52 SLP151 CB DSNT NE & SW P0000 T02390200=
201509090052 METAR KATL 090052Z 08010KT 10SM FEW030 SCT055 BKN200 26/21 A2998 RMK AO2 SLP143 OCNL LTG DSNT SE-SW T02560206=
201509082352 METAR KATL 082352Z 07007KT 10SM FEW030 SCT100 SCT200 27/21 A2996 RMK AO2 SLP135 CB DSNT NE-E & SE-S 60000 T02720211 10289 20250 58002=
201509082252 METAR KATL 082252Z 08007KT 10SM FEW030CB SCT090 SCT200 27/21 A2996 RMK AO2 SLP137 CB VC NW & DSNT SW MOV NW TCU VC SW-W VCSH NW T02670206=
201509082152 METAR KATL 082152Z 16004KT 10SM SCT030TCU BKN090 BKN250 28/21 A2996 RMK AO2 SLP135 TCU NE-OHD-S SHRA NE T02830206=
201509082052 METAR KATL 082052Z VRB04KT 10SM FEW030 SCT080 SCT250 28/21 A2997 RMK AO2 SLP137 CB DSNT NW-N TCU DSNT SW SHRA DSNT NW-N 60000 T02830206 58023=
201509081952 METAR KATL 081952Z 15006KT 10SM FEW020 SCT080 BKN250 26/21 A2999 RMK AO2 RAE14 SLP146 TCU DSNT E-SE-S SHRA DSNT W-NW-N P0000 T02610206=
201509081919 SPECI KATL 081919Z 12007KT 10SM FEW030TCU SCT060 BKN090 BKN250 26/22 A3000 RMK AO2 RAE14 TCU DSNT E-SE & SW-NW SHRA VC SW-NW P0000=
201509081856 SPECI KATL 081856Z 11011G17KT 6SM R09R/3000VP6000FT -RA BKN027TCU BKN040 OVC060 26/21 A3002 RMK AO2 TCU OHD-NE-SE-SW P0000=
201509081852 METAR KATL 081852Z 13012G17KT 5SM +RA BKN030TCU BKN060 BKN100 27/21 A3002 RMK AO2 RAB48 SLP156 TCU OHD-NE-SE-SW SHRA NE & SE & SW P0000 T02720206=
201509081752 METAR KATL 081752Z 04008KT 10SM FEW030TCU SCT060 SCT100 28/21 A3004 RMK AO2 SLP161 TCU E SHRA DSNT NE 60001 T02780206 10289 20222 58016=
201509081652 METAR KATL 081652Z 12004KT 10SM FEW020 SCT040 BKN060 27/21 A3006 RMK AO2 SLP169 TCU DSNT NE-E-SE T02670206=
201509081559 SPECI KATL 081559Z 12007KT 10SM FEW015 BKN020 BKN035 26/21 A3008 RMK AO2=
201509081552 METAR KATL 081552Z 12006KT 10SM SCT015 SCT020 BKN030 27/21 A3008 RMK AO2 SLP176 T02670211=
201509081508 SPECI KATL 081508Z 11006KT 10SM SCT010 BKN015 BKN020 25/21 A3009 RMK AO2=
201509081452 METAR KATL 081452Z 10009KT 10SM SCT009 BKN014 BKN020 24/21 A3008 RMK AO2 SLP178 60001 T02390211 53001=
201509081352 METAR KATL 081352Z 10007KT 9SM FEW007 BKN009 OVC020 23/21 A3008 RMK AO2 SLP175 T02330211=
201509081252 METAR KATL 081252Z 08007KT 8SM SCT006 OVC009 23/21 A3007 RMK AO2 RAE06 SLP174 BINOVC P0001 T02280206 $=
201509081152 METAR KATL 081152Z 08005KT 7SM RA BKN006 BKN025 OVC036 22/21 A3008 RMK AO2 RAB24 SLP177 P0013 60013 70035 T02220206 10228 20217 53008=
201509081145 SPECI KATL 081145Z 12003KT 4SM R09R/3500VP6000FT +RA BR BKN006 OVC012 22/21 A3008 RMK AO2 RAB24 VIS SW-NW 2 P0009=
201509081139 SPECI KATL 081139Z 12006KT 1 3/4SM R09R/5000VP6000FT RA BR BKN008 BKN016 OVC038 22/21 A3008 RMK AO2 RAB24 P0001=
201509081052 METAR KATL 081052Z 08006KT 10SM BKN008 22/20 A3007 RMK AO2 SLP172 T02220200=
201509080952 METAR KATL 080952Z 08007KT 10SM BKN008 OVC031 22/20 A3006 RMK AO2 SLP168 T02220200=
201509080910 SPECI KATL 080910Z 08007KT 10SM BKN008 BKN017 BKN035 22/20 A3005 RMK AO2 $=
201509080852 METAR KATL 080852Z 07006KT 10SM FEW011 SCT022 BKN035 22/20 A3005 RMK AO2 SLP167 T02170200 55002 $=
201509080752 METAR KATL 080752Z 08007KT 10SM FEW022 SCT250 22/20 A3005 RMK AO2 SLP166 T02220200 $=
201509080652 METAR KATL 080652Z 09005KT 10SM FEW022 SCT250 22/20 A3005 RMK AO2 SLP165 T02220200 $=
201509080552 METAR KATL 080552Z 10003KT 10SM FEW037 SCT250 23/21 A3006 RMK AO2 SLP169 T02280206 10256 20228 58005 $=
201509080452 METAR KATL 080452Z 10005KT 10SM FEW050 BKN250 23/21 A3007 RMK AO2 SLP172 T02280206 402940211 $=
201509080352 METAR KATL 080352Z 10003KT 10SM FEW020 BKN250 23/21 A3007 RMK AO2 SLP173 T02330211 $=
201509080252 METAR KATL 080252Z 08005KT 10SM FEW035 SCT050 BKN250 24/20 A3007 RMK AO2 SLP175 T02390200 51011 $=
201509080152 METAR KATL 080152Z 06005KT 10SM SCT035 BKN050 BKN090 BKN250 24/20 A3007 RMK AO2 SLP173 T02440200 $=
201509080052 METAR KATL 080052Z 18005KT 10SM FEW025 SCT050 BKN090 BKN250 23/21 A3006 RMK AO2 SLP170 CB VC SW MOV W VCSH SW T02330206 $=
201509072352 METAR KATL 072352Z 06008KT 10SM FEW030 SCT200 BKN250 26/20 A3004 RMK AO2 SLP164 CB DSNT SE TCU DSNT NE 60022 T02560200 10294 20233 53002 $=
201509072252 METAR KATL 072252Z 05005KT 10SM FEW030CB SCT060 BKN090 BKN250 24/20 A3003 RMK AO2 RAB29E46 SLP162 CB SW MOV W TCU VC S SHRA SW P0016 T02390200 $=
201509072152 METAR KATL 072152Z 05010KT 10SM FEW040TCU SCT060 BKN090 BKN250 27/19 A3003 RMK AO2 SLP159 TCU VC NE-E & S-SW VCSH E & S-SW T02720189 $=
201509072052 METAR KATL 072052Z 04009KT 10SM SCT040CB SCT055 BKN080 29/20 A3003 RMK AO2 RAE00 SLP160 CB NE-E AND NW-N MOV W P0000 60006 T02890200 56024 $=
201509071952 METAR KATL 071952Z 00000KT 10SM -RA SCT040CB BKN055 BKN070 24/21 A3005 RMK AO2 RAB21 SLP167 CB NE-E AND SW-NW MOV W P0006 T02440206 $=
201509071852 METAR KATL 071852Z 07012KT 10SM SCT040CB SCT060 BKN090 28/19 A3008 RMK AO2 RAB01E17 SLP175 CB S AND NW MOV SW P0000 T02780189=
201509071752 METAR KATL 071752Z 06010KT 10SM FEW035 SCT040TCU SCT060 28/19 A3011 RMK AO2 SLP185 TCU OHD AND ALQDS T02780194 10289 20211 58010=
201509071652 METAR KATL 071652Z 10008G17KT 10SM SCT028 SCT032 BKN065 28/19 A3013 RMK AO2 SLP190 T02780189=
201509071552 METAR KATL 071552Z 06009KT 10SM SCT025 SCT035 BKN060 27/19 A3014 RMK AO2 SLP196 T02670194=
201509071452 METAR KATL 071452Z COR 04009KT 10SM SCT016 SCT025 BKN250 25/19 A3014 RMK AO2 SLP196 SCT025 V BKN T02500194 51007=
201509071358 SPECI KATL 071358Z 07011KT 10SM BKN015 24/19 A3014 RMK AO2 BKN015 V SCT=
201509071352 METAR KATL 071352Z 07010KT 10SM SCT013 24/20 A3013 RMK AO2 SLP195 SCT013 V BKN T02390200=
201509071303 SPECI KATL 071303Z 05009KT 10SM SCT011 23/19 A3013 RMK AO2=
201509071252 METAR KATL 071252Z 06009KT 10SM BKN011 23/19 A3013 RMK AO2 SLP194 BKN011 V SCT T02280194=
201509071246 SPECI KATL 071246Z 06008KT 10SM BKN011 22/19 A3013 RMK AO2 BKN011 V SCT=
201509071152 METAR KATL 071152Z 07009KT 10SM FEW012 SCT250 21/19 A3012 RMK AO2 SLP189 T02110189 10222 20211 51011=
201509071119 SPECI KATL 071119Z 06010KT 9SM SCT012 SCT250 21/18 A3011 RMK AO2=
201509071110 SPECI KATL 071110Z 07008KT 9SM BKN012 BKN250 21/18 A3011 RMK AO2 BKN012 V SCT=
201509071052 METAR KATL 071052Z 05007KT 10SM SCT014 SCT250 21/18 A3011 RMK AO2 SLP186 T02110183=
201509071050 SPECI KATL 071050Z 05006KT 10SM SCT014 SCT250 21/18 A3011 RMK AO2=
201509071021 SPECI KATL 071021Z 06008KT 10SM BKN014 21/18 A3011 RMK AO2=
201509070952 METAR KATL 070952Z 06008KT 10SM FEW010 SCT250 21/18 A3010 RMK AO2 SLP182 T02110183=
201509070852 METAR KATL 070852Z 06007KT 10SM CLR 22/18 A3008 RMK AO2 SLP176 T02170183 55002=
201509070752 METAR KATL 070752Z 06006KT 10SM CLR 22/18 A3008 RMK AO2 SLP176 T02170178=
201509070652 METAR KATL 070652Z 08005KT 10SM FEW250 21/18 A3008 RMK AO2 SLP175 T02110178=
201509070552 METAR KATL 070552Z 09006KT 10SM FEW250 22/17 A3009 RMK AO2 SLP178 T02220172 10272 20222 56008=
201509070452 METAR KATL 070452Z 00000KT 10SM FEW250 24/17 A3009 RMK AO2 SLP180 T02440172 402940217=
201509070352 METAR KATL 070352Z 08005KT 10SM FEW250 23/17 A3010 RMK AO2 SLP184 T02330172=
201509070252 METAR KATL 070252Z 09004KT 10SM FEW250 24/17 A3011 RMK AO2 SLP188 T02390172 51010=
201509070152 METAR KATL 070152Z 09004KT 10SM FEW250 24/18 A3011 RMK AO2 SLP187 T02390178=
201509070052 METAR KATL 070052Z 09006KT 10SM FEW200 SCT250 25/18 A3009 RMK AO2 SLP181 T02500178=
201509062352 METAR KATL 062352Z 09006KT 10SM FEW150 SCT200 SCT250 27/17 A3008 RMK AO2 SLP177 T02720172 10294 20267 55000=
201509062252 METAR KATL 062252Z 08008KT 10SM FEW040 SCT200 SCT250 27/18 A3008 RMK AO2 SLP176 TCU DSNT E & W T02720178=
201509062152 METAR KATL 062152Z 10009KT 10SM FEW040 SCT100 SCT200 28/18 A3008 RMK AO2 SLP175 TCU DSNT NW T02830183=
201509062052 METAR KATL 062052Z 10011KT 10SM FEW045TCU SCT055 SCT220 29/19 A3008 RMK AO2 SLP175 TCU SW-NW CB DSNT NW MDT CU SE-S T02940194 58020=
201509061952 METAR KATL 061952Z 09010KT 10SM SCT040 SCT065 29/18 A3010 RMK AO2 SLP183 CB DSNT N MDT CU ALQDS T02890183=
201509061852 METAR KATL 061852Z 09009KT 10SM SCT040TCU SCT060 29/19 A3012 RMK AO2 SLP190 TCU S MDT CU ALQDS T02940194=
201509061752 METAR KATL 061752Z 03011G15KT 10SM SCT040 29/19 A3014 RMK AO2 SLP196 T02890194 10289 20217 58013=
201509061652 METAR KATL 061652Z 09011G17KT 10SM SCT030 SCT055 28/19 A3016 RMK AO2 SLP204 T02780189=
201509061552 METAR KATL 061552Z 06010KT 10SM SCT022 SCT027 BKN033 26/19 A3018 RMK AO2 SLP209 T02560194=
201509061538 SPECI KATL 061538Z 07008KT 10SM SCT020 BKN030 26/20 A3018 RMK AO2=
201509061459 SPECI KATL 061459Z 07009KT 10SM FEW010 BKN015 OVC023 24/20 A3018 RMK AO2 BINOVC=
201509061452 METAR KATL 061452Z 08008KT 10SM FEW010 BKN014 OVC019 24/20 A3018 RMK AO2 SLP211 BINOVC T02390200 51012=
201509061352 METAR KATL 061352Z 07012KT 9SM BKN010 OVC040 23/19 A3017 RMK AO2 SLP208 BINOVC T02280194=
201509061305 SPECI KATL 061305Z 08010KT 8SM BKN010 BKN040 23/19 A3017 RMK AO2=
201509061252 METAR KATL 061252Z 07011KT 8SM SCT010 SCT040 23/19 A3016 RMK AO2 SLP204 T02280194=
201509061152 METAR KATL 061152Z 07010KT 7SM FEW040 22/19 A3014 RMK AO2 SLP198 T02170189 10233 20217 53010=
201509061052 METAR KATL 061052Z 08008KT 9SM FEW040 SCT250 22/19 A3013 RMK AO2 SLP193 T02170189=
201509060952 METAR KATL 060952Z 05008KT 9SM SCT040 SCT250 22/19 A3012 RMK AO2 SLP188 T02220194=
201509060852 METAR KATL 060852Z 07005KT 10SM FEW048 SCT250 22/19 A3011 RMK AO2 SLP186 T02220189 53000=
201509060752 METAR KATL 060752Z 06007KT 10SM SCT250 23/19 A3011 RMK AO2 SLP186 T02280189=
201509060652 METAR KATL 060652Z 08007KT 10SM SCT250 23/19 A3011 RMK AO2 SLP185 T02280189=
201509060552 METAR KATL 060552Z 06007KT 10SM FEW250 23/19 A3011 RMK AO2 SLP186 T02330189 10278 20228 58012=
201509060452 METAR KATL 060452Z 08007KT 10SM SCT250 23/18 A3013 RMK AO2 SLP192 T02280183 403060217=
201509060352 METAR KATL 060352Z 11004KT 10SM BKN250 24/18 A3013 RMK AO2 SLP194 T02390183=
201509060252 METAR KATL 060252Z 10006KT 10SM BKN250 23/19 A3015 RMK AO2 SLP199 T02330189 53018=
201509060152 METAR KATL 060152Z 11007KT 10SM SCT250 24/18 A3013 RMK AO2 SLP192 T02440183=
201509060052 METAR KATL 060052Z 11009G22KT 10SM SCT036 BKN250 26/20 A3010 RMK AO2 SLP184 T02610200=
201509052352 METAR KATL 052352Z 10009KT 10SM FEW043 SCT110 BKN250 28/19 A3009 RMK AO2 SLP180 TCU DSNT E T02780194 10306 20278 53013=
201509052252 METAR KATL 052252Z 08011KT 10SM FEW043 SCT070 BKN250 29/19 A3007 RMK AO2 SLP173 TCU DSNT E T02890194=
201509052152 METAR KATL 052152Z 09008KT 10SM FEW041 SCT070 SCT250 30/20 A3006 RMK AO2 SLP168 T03000200=
201509052052 METAR KATL 052052Z 07003KT 10SM FEW040 SCT070 SCT250 30/20 A3005 RMK AO2 SLP166 TCU DSNT SE T03000200 58024=
201509051952 METAR KATL 051952Z VRB06KT 10SM SCT040 BKN070 BKN250 30/20 A3008 RMK AO2 SLP175 MDT CU S T03000200=
201509051852 METAR KATL 051852Z 08005G14KT 10SM SCT038 SCT070 BKN250 29/19 A3011 RMK AO2 SLP185 T02890189=
201509051752 METAR KATL 051752Z 07007KT 10SM FEW035 SCT080 SCT250 29/20 A3013 RMK AO2 SLP191 T02940200 10294 20217 58012=
201509051652 METAR KATL 051652Z 10008KT 10SM FEW034 SCT250 28/21 A3014 RMK AO2 SLP196 T02830206=
201509051552 METAR KATL 051552Z 10008KT 10SM FEW032 SCT250 27/20 A3016 RMK AO2 SLP201 T02720200=
201509051452 SPECI KATL 051452Z 10012KT 10SM FEW030 SCT250 26/19 A3016 RMK AO2 SLP203 T02610189 51015=
201509051452 METAR KATL 051452Z 10012KT 10SM FEW030 SCT250 26/19 A3016 RMK AO2 SLP203 T02610189 51015=
201509051352 METAR KATL 051352Z 08012G19KT 10SM FEW250 24/19 A3015 RMK AO2 SLP198 T02440189=
201509051252 METAR KATL 051252Z 07010G16KT 10SM FEW250 23/18 A3013 RMK AO2 SLP194 T02330183=
201509051152 METAR KATL 051152Z 07008KT 10SM FEW250 22/18 A3012 RMK AO2 SLP188 T02170183 10250 20217 53019=
201509051052 METAR KATL 051052Z 07010KT 10SM FEW250 22/19 A3010 RMK AO2 SLP180 T02170189=
201509050952 METAR KATL 050952Z 08009KT 10SM FEW055 SCT200 22/19 A3007 RMK AO2 SLP173 T02220194=
201509050852 METAR KATL 050852Z 08008KT 10SM CLR 23/21 A3006 RMK AO2 SLP167 T02280206 52005=
201509050752 METAR KATL 050752Z 09004KT 10SM FEW055 SCT250 23/21 A3005 RMK AO2 SLP164 T02330206=
201509050652 METAR KATL 050652Z COR 10008KT 10SM FEW055 SCT250 24/20 A3005 RMK AO2 SLP165 T02390200=
201509050552 METAR KATL 050552Z 05007KT 10SM FEW250 25/19 A3004 RMK AO2 SLP162 T02500194 10289 20244 53002=
201509050452 METAR KATL 050452Z 06006KT 10SM FEW250 26/18 A3004 RMK AO2 SLP162 T02610183 403330211=
201509050352 METAR KATL 050352Z 00000KT 10SM FEW250 26/20 A3003 RMK AO2 SLP158 T02560200=
201509050252 METAR KATL 050252Z 36003KT 10SM SCT250 27/20 A3004 RMK AO2 SLP159 T02670200 51014=
201509050152 METAR KATL 050152Z 07003KT 10SM FEW150 BKN250 28/19 A3002 RMK AO2 SLP156 T02830189=
201509050052 METAR KATL 050052Z 07006KT 10SM FEW150 BKN250 27/18 A3002 RMK AO2 SLP155 T02720183=
201509042352 METAR KATL 042352Z 00000KT 10SM FEW045 SCT150 SCT250 28/19 A3000 RMK AO2 SLP147 CB DSNT NE 60000 T02780189 10333 20267 52007=
201509042252 METAR KATL 042252Z 34005KT 10SM FEW045 SCT120 BKN200 BKN250 31/18 A2999 RMK AO2 RAE03 SLP144 CB DSNT NE & SE P0000 T03110183=
201509042152 METAR KATL 042152Z 30007KT 10SM -RA FEW045CB SCT070 BKN110 BKN200 27/21 A2998 RMK AO2 TSB06E52RAB25 SLP142 TS DSIPTD CB VC S-SW & DSNT NW MOV S P0000 T02670206=
201509042106 SPECI KATL 042106Z 01008KT 10SM TS SCT050CB BKN100 BKN250 33/19 A2998 RMK AO2 TSB06 OCNL LTGICCG NW-N TS VC NW-N MOV S SHRA VC NW-N=
201509042052 METAR KATL 042052Z VRB03KT 10SM SCT050CB BKN110 BKN250 33/21 A2997 RMK AO2 SLP137 CB NW-N-NE MOV S TCU DSNT E & S SHRA VC NW-N-NE T03330206 58017=
201509041952 METAR KATL 041952Z 27006KT 10SM SCT047TCU BKN060 33/21 A3000 RMK AO2 SLP146 TCU N & S T03280211=
201509041852 METAR KATL 041852Z 00000KT 10SM SCT047TCU SCT060 BKN250 32/21 A3002 RMK AO2 SLP154 TCU SW SHRA SW T03170206=
201509041752 METAR KATL 041752Z COR 00000KT 10SM SCT047 SCT250 32/21 A3002 RMK SLP156 T03220211 10322 20217 58005=
201509041652 METAR KATL 041652Z 32006KT 10SM FEW043 SCT250 31/21 A3003 RMK AO2 SLP158 T03110211=
201509041552 METAR KATL 041552Z 00000KT 10SM FEW250 30/21 A3004 RMK AO2 SLP162 T03000211=
201509041452 METAR KATL 041452Z 00000KT 10SM FEW250 28/21 A3004 RMK AO2 SLP161 T02830206 51007=
201509041352 METAR KATL 041352Z 00000KT 10SM FEW150 SCT250 26/21 A3003 RMK AO2 SLP160 T02610206=
201509041252 METAR KATL 041252Z 32004KT 10SM FEW150 SCT250 23/19 A3003 RMK AO2 SLP161 T02330194=
201509041152 METAR KATL 041152Z 00000KT 10SM FEW150 SCT250 22/19 A3002 RMK AO2 SLP156 70041 T02170189 10222 20211 53012=
201509041052 METAR KATL 041052Z 31004KT 10SM SCT150 SCT200 21/19 A3000 RMK AO2 SLP149 T02110189=
201509040952 METAR KATL 040952Z 32005KT 10SM BKN150 BKN200 22/19 A2998 RMK AO2 SLP145 T02170194=
201509040852 METAR KATL 040852Z 30004KT 10SM BKN150 BKN200 22/19 A2998 RMK AO2 SLP144 T02170194 53002=
201509040752 METAR KATL 040752Z 32004KT 10SM FEW140 BKN200 22/19 A2998 RMK AO2 SLP142 T02170189=
201509040652 METAR KATL 040652Z 00000KT 10SM FEW150 22/19 A2997 RMK AO2 SLP138 T02170194=
201509040552 METAR KATL 040552Z 31003KT 10SM FEW150 22/19 A2997 RMK AO2 SLP139 T02170194 10239 20217 58002=
201509040452 METAR KATL 040452Z 32003KT 10SM FEW150 22/19 A2998 RMK AO2 SLP142 T02220194 403170222=
201509040352 METAR KATL 040352Z 35004KT 10SM SCT150 23/19 A2998 RMK AO2 SLP141 T02280194=
201509040252 METAR KATL 040252Z 33004KT 10SM BKN150 24/19 A2998 RMK AO2 SLP142 T02390189 53007=
201509040152 METAR KATL 040152Z 31004KT 10SM BKN150 23/19 A2997 RMK AO2 SLP139 T02330194 $=
201509040052 METAR KATL 040052Z 00000KT 10SM FEW120 BKN150 BKN250 23/20 A2996 RMK AO2 SLP136 T02330200 $=
201509032352 METAR KATL 032352Z 31004KT 10SM SCT120 BKN150 BKN250 24/21 A2996 RMK AO2 SLP136 60041 T02390206 10317 20222 55006 $=
201509032252 METAR KATL 032252Z 31006KT 10SM FEW008 SCT120 BKN150 BKN250 23/21 A2996 RMK AO2 RAE18 SLP135 CB DSNT SW P0001 T02330206 $=
201509032152 METAR KATL 032152Z 34004KT 8SM -RA FEW050 BKN110 OVC150 24/21 A2996 RMK AO2 TSE2058 SLP136 CB DSNT SE P0005 T02390206 $=
201509032058 SPECI KATL 032058Z 28006KT 8SM -RA FEW050 SCT100 BKN120 OVC150 23/20 A2997 RMK AO2 TSE58 TS MOV SW CBMAM DSNT S CB DSNT S-SW P0000 $=
201509032052 METAR KATL 032052Z 26006KT 9SM -TSRA FEW015CB BKN100 BKN150 OVC250 23/20 A2998 RMK AO2 PK WND 09028/2005 WSHFT 1943 SLP142 VIS LWR SW SHRA OCNL LTGICCG SW TS VC SW MOV SW P0035 60035 T02280200 58008 $=
201509032023 SPECI KATL 032023Z 05010KT 8SM R09R/6000VP6000FT -TSRA BKN030CB BKN050 OVC080 23/17 A2999 RMK AO2 PK WND 09028/2005 WSHFT 1943 VIS LWR SW-W SHRA FRQ LTGICCG SW-W TS SW-W MOV SW P0025 $=
201509032015 SPECI KATL 032015Z 05010KT 6SM R09R/5000VP6000FT TSRA SCT020CB BKN040 OVC090 24/17 A2999 RMK AO2 PK WND 09028/2005 WSHFT 1943 OCNL LTGICCG E-OHD-W MOV SW TS E-OHD-W MOV SW P0011 $=
201509032006 SPECI KATL 032006Z 05010KT 2SM +TSRA BKN020CB BKN060 OVC150 22/19 A3000 RMK AO2 PK WND 09028/2005 WSHFT 1943 FRQ LTGICCG OHD-NE-E-SE & W TS OHD-NE-E-SE & W MOV SW P0000 PNO $=
201509032005 SPECI KATL 032005Z 05010KT 4SM +TSRA BKN020CB BKN060 OVC150 22/19 A3000 RMK AO2 PK WND 09028/2005 WSHFT 1943 FRQ LTGICCG OHD-NE-E-SE & W TS OHD-NE-E-SE & W MOV SW P0000 PNO $=
201509031958 SPECI KATL 031958Z 05010KT 6SM TSRA BKN020CB BKN060 OVC150 23/19 A2999 RMK AO2 PK WND 09027/1953 WSHFT 1943 VIS LWR NE-E-SE SHRA FRQ LTGICCG OHD-NE-E-SE TS OHD-NE-E-SE MOV SW P0000 $=
201509031955 SPECI KATL 031955Z 05010KT 5SM +TSRA BKN030CB BKN055 OVC170 25/19 A3000 RMK AO2 PK WND 09027/1953 VIS LWR NE-E-SE SHRA FRQ LTGICCG OHD-NE-E-SE TS OHD-NE-E-SE MOV SW P0000 $=
201509031952 METAR KATL 031952Z 05010KT 9SM -TSRA SCT030CB BKN055 OVC170 27/19 A3000 RMK AO2 TSB03RAB50 PRESRR SLP149 VIS LWR NE-E-SE SHRA FRQ LTGICCG NE-E-SE TS NE-E-SE MOV SW P0000 T02670194 $=
201509031947 SPECI KATL 031947Z 05010KT 10SM TS SCT030CB BKN055 OVC170 28/20 A2999 RMK AO2 TSB03 FRQ LTGICCG NE-E & W TS NE-E & W MOV E SHRA NE-E & W $=
201509031919 SPECI KATL 031919Z 32006KT 10SM TS FEW030CB SCT040TCU BKN170 BKN250 31/21 A2997 RMK AO2 TSB03 OCNL LTGICCG NE & NW TS VC NE & NW MOV E TCU OHD-E-SE & W SHRA VC NE & NW=
201509031904 SPECI KATL 031904Z 27005KT 10SM TS SCT033CB BKN170 BKN250 31/21 A2997 RMK AO2 TSB03 OCNL LTGICCG N-NE TS VC N-NE MOV E SHRA VC N-NE=
201509031852 METAR KATL 031852Z 29005KT 10SM FEW033CB SCT170 BKN250 32/23 A2998 RMK AO2 SLP140 CB N MOV NE CB DSNT NW-N-NE SHRA VC N T03170228=
201509031752 METAR KATL 031752Z 00000KT 10SM FEW030 BKN170 BKN250 30/22 A3000 RMK AO2 SLP147 CB DSNT N T03000222 10300 20239 58009=
201509031652 METAR KATL 031652Z 27005KT 10SM FEW025 BKN170 BKN250 28/22 A3001 RMK AO2 SLP151 T02830217=
201509031552 METAR KATL 031552Z 32005KT 10SM FEW150 BKN180 BKN250 28/22 A3002 RMK AO2 SLP154 T02830217=
201509031452 METAR KATL 031452Z 34005KT 10SM FEW110 BKN180 BKN250 27/21 A3003 RMK AO2 SLP157 VIRGA DSNT N & SE-S & NW T02720211 51004=
201509031352 METAR KATL 031352Z 35009KT 9SM FEW070 SCT110 BKN180 BKN250 26/21 A3003 RMK AO2 SLP157 VIRGA E-SE & DSNT W-NW T02560211=
201509031252 METAR KATL 031252Z 29005KT 9SM FEW075 SCT110 BKN180 OVC250 24/21 A3003 RMK AO2 SLP160 VIRGA ALQDS ACC N-NE & NW T02440211=
201509031152 METAR KATL 031152Z 30006KT 10SM FEW100 SCT140 BKN180 OVC250 24/21 A3002 RMK AO2 SLP153 VIRGA E-S-SW ACC N-E & NW T02390211 10261 20239 53007=
201509031052 METAR KATL 031052Z 31005KT 10SM FEW140 BKN180 BKN250 24/21 A3000 RMK AO2 SLP148 T02390211=
201509030952 METAR KATL 030952Z 31004KT 10SM FEW140 OVC180 24/21 A3000 RMK AO2 SLP145 T02440211=
201509030852 METAR KATL 030852Z 31005KT 10SM FEW150 OVC200 24/21 A2999 RMK AO2 SLP144 T02440211 56006=
201509030752 METAR KATL 030752Z 32003KT 10SM FEW150 OVC200 24/22 A2999 RMK AO2 SLP145 T02440217=
201509030652 METAR KATL 030652Z 31003KT 10SM BKN200 OVC250 24/22 A3000 RMK AO2 SLP146 T02390217=
201509030552 METAR KATL 030552Z 00000KT 10SM FEW150 OVC200 26/21 A3001 RMK AO2 SLP151 T02560211 10289 20256 58008=
201509030452 METAR KATL 030452Z 00000KT 10SM FEW150 BKN200 OVC250 27/21 A3002 RMK AO2 SLP154 T02670206 403220228=
201509030352 METAR KATL 030352Z 32003KT 10SM FEW200 BKN250 26/21 A3003 RMK AO2 SLP158 T02610206=
201509030252 METAR KATL 030252Z 32003KT 10SM BKN250 27/21 A3004 RMK AO2 SLP159 T02720206 51008=
201509030152 METAR KATL 030152Z 00000KT 10SM FEW200 BKN250 28/20 A3004 RMK AO2 SLP159 T02780200=
201509030052 METAR KATL 030052Z COR 27003KT 10SM FEW200 BKN250 28/21 A3002 RMK AO2 SLP154 T02780206=
201509022352 METAR KATL 022352Z 30005KT 10SM FEW045TCU SCT200 BKN250 29/19 A3001 RMK AO2 SLP152 TCU OHD-S T02890194 10322 20289 56007=
201509022252 METAR KATL 022252Z 00000KT 10SM FEW045TCU SCT090 BKN250 31/19 A3001 RMK AO2 SLP152 TCU OHD-S T03060189=
201509022152 METAR KATL 022152Z 00000KT 10SM SCT050TCU BKN090 BKN250 31/19 A3002 RMK AO2 SLP155 TCU OHD-NW T03060194=
201509022052 METAR KATL 022052Z 00000KT 10SM SCT050TCU BKN070 BKN250 31/19 A3004 RMK AO2 SLP160 TCU OHD-SW-NW T03060189 58018=
201509021952 METAR KATL 021952Z 34004KT 10SM SCT050 BKN090 BKN250 31/19 A3005 RMK AO2 SLP166 TCU DSNT NE-SE-SW T03110194=
201509021852 METAR KATL 021852Z VRB05KT 10SM SCT046TCU BKN080 BKN250 32/20 A3007 RMK AO2 SLP171 TCU ALQDS T03170200=
201509021752 METAR KATL 021752Z 19004KT 10SM SCT046TCU BKN060 BKN250 30/19 A3009 RMK AO2 SLP178 TCU NE & SE & SW T03000194 10311 20228 58016=
201509021652 METAR KATL 021652Z VRB05KT 10SM SCT043TCU SCT100 BKN250 31/20 A3011 RMK AO2 SLP185 TCU NE-E & SE-S & NW T03110200=
201509021552 METAR KATL 021552Z VRB04KT 10SM SCT030TCU BKN250 30/22 A3013 RMK AO2 SLP190 TCU NE-E-SE-S & DSNT NW T03000217=
201509021452 METAR KATL 021452Z 27005KT 10SM FEW030TCU SCT180 BKN250 29/21 A3014 RMK AO2 SLP195 TCU E & DSNT N-NE T02890206 56001=
201509021352 METAR KATL 021352Z 29003KT 10SM FEW020 SCT180 BKN250 28/21 A3014 RMK AO2 SLP194 T02780206=
201509021252 METAR KATL 021252Z 00000KT 10SM FEW012 SCT150 SCT250 25/21 A3014 RMK AO2 SLP195 T02500206=
201509021152 METAR KATL 021152Z 00000KT 10SM FEW050 SCT150 BKN250 23/20 A3014 RMK AO2 SLP196 T02330200 10239 20228 53010=
201509021052 METAR KATL 021052Z 00000KT 10SM FEW012 SCT050 SCT120 SCT250 23/19 A3012 RMK AO2 SLP188 T02280194=
201509020952 METAR KATL 020952Z 00000KT 10SM FEW050 SCT250 23/20 A3011 RMK AO2 SLP186 T02330200=
201509020852 METAR KATL 020852Z COR 00000KT 10SM FEW049 SCT250 23/20 A3011 RMK AO2 SLP185 T02280200 55004=
201509020752 METAR KATL 020752Z 00000KT 10SM SCT250 23/20 A3011 RMK AO2 SLP184 T02330200=
201509020652 METAR KATL 020652Z 00000KT 10SM SCT250 24/21 A3011 RMK AO2 SLP185 T02390206=
201509020552 METAR KATL 020552Z 00000KT 10SM SCT250 24/20 A3012 RMK AO2 SLP189 T02390200 10283 20239 51004=
201509020452 METAR KATL 020452Z 00000KT 10SM BKN250 24/20 A3012 RMK AO2 SLP189 T02440200 403060206=
201509020352 METAR KATL 020352Z 00000KT 10SM BKN250 25/21 A3012 RMK AO2 SLP189 T02500206=
201509020252 METAR KATL 020252Z 00000KT 10SM BKN250 25/20 A3011 RMK AO2 SLP185 T02500200 51008=
201509020152 METAR KATL 020152Z 13004KT 10SM BKN250 27/19 A3011 RMK AO2 SLP184 T02720194=
201509020052 METAR KATL 020052Z 00000KT 10SM FEW050 BKN250 27/20 A3010 RMK AO2 SLP182 T02720200=
201509012352 METAR KATL 012352Z 15004KT 10SM FEW045 BKN250 28/19 A3009 RMK AO2 SLP178 T02830194 10306 20283 56004=
201509012252 METAR KATL 012252Z 16003KT 10SM FEW045 BKN250 30/18 A3009 RMK AO2 SLP179 T03000183=
201509012152 METAR KATL 012152Z 00000KT 10SM FEW045 SCT070 BKN250 30/18 A3009 RMK AO2 SLP180 TCU DSNT SW T03000183=
201509012052 METAR KATL 012052Z 11005KT 10SM SCT047TCU BKN070 BKN250 30/19 A3010 RMK AO2 SLP182 TCU SE-S-SW-W T03000189 56010=
201509011952 METAR KATL 011952Z 05004KT 10SM BKN047TCU BKN250 30/18 A3011 RMK AO2 SLP185 TCU SE-S-SW-W-NW T03000178=
201509011852 METAR KATL 011852Z 00000KT 10SM FEW045 SCT070 BKN250 31/19 A3011 RMK AO2 SLP186 MDT CU NE-E-SE-S-SW T03060194=
201509011752 METAR KATL 011752Z 00000KT 10SM BKN045 BKN250 29/18 A3013 RMK AO2 SLP192 MDT CU ALQDS T02890183 10300 20222 56011=
201509011652 SPECI KATL 011652Z 26005KT 10SM SCT040TCU BKN250 29/19 A3013 RMK AO2 SLP193 TCU N-NE-E-SE T02940189=
201509011652 METAR KATL 011652Z 26005KT 10SM SCT040TCU BKN250 29/19 A3013 RMK AO2 SLP193 TCU N-NE-E-SE T02940189=
201509011552 METAR KATL 011552Z 00000KT 10SM FEW035 SCT250 28/19 A3015 RMK AO2 SLP199 TCU DSNT N-NE & S-SW-W T02780189=
201509011452 METAR KATL 011452Z 13004KT 10SM FEW030 SCT250 27/21 A3016 RMK AO2 SLP203 TCU DSNT W T02720206 50003=
201509011426 SPECI KATL 011426Z 00000KT 10SM FEW023TCU SCT250 26/21 A3017 RMK AO2 TCU W & DSNT N=
201509011352 METAR KATL 011352Z 10003KT 10SM FEW020 SCT080 SCT250 26/21 A3017 RMK AO2 SLP206 T02560206=
201509011257 SPECI KATL 011257Z 14003KT 10SM FEW002 SCT030 24/20 A3016 RMK AO2 FU FEW002=
201509011252 METAR KATL 011252Z 00000KT 10SM FEW030 24/21 A3016 RMK AO2 SLP204 T02390206=
