##########################################################
# Query made at 04/19/2024 23:47:10 UTC
# Time interval: from 01/01/2016 12:00  to 01/31/2016 12:59  UTC
##########################################################

##########################################################
# KATL, Atlanta, Hartsfield - Jackson Atlanta International Airport (United States)
# WMO index: 72219. WIGOS ID: 0-20000-0-72219
# Latitude 33-38-59N. Longitude 084-25-00W. Altitude 312 m.
##########################################################

201601311252 METAR KATL 311252Z 12003KT 10SM OVC025 08/05 A3012 RMK AO2 SLP199 T00830050=
201601311152 METAR KATL 311152Z 09005KT 10SM BKN025 BKN250 08/05 A3009 RMK AO2 SLP191 T00780050 10106 20072 53009=
201601311052 METAR KATL 311052Z 09003KT 10SM OVC025 08/06 A3008 RMK AO2 SLP187 T00830056=
201601310952 METAR KATL 310952Z 14004KT 10SM BKN025 BKN250 08/04 A3007 RMK AO2 SLP181 T00780044=
201601310950 SPECI KATL 310950Z 14004KT 10SM BKN025 BKN250 08/04 A3007 RMK AO2=
201601310852 METAR KATL 310852Z 12003KT 10SM CLR 08/04 A3006 RMK AO2 SLP179 T00780039 55004=
201601310752 METAR KATL 310752Z 18003KT 10SM CLR 09/05 A3006 RMK AO2 SLP178 T00940050=
201601310652 METAR KATL 310652Z 21006KT 10SM CLR 10/04 A3007 RMK AO2 SLP181 T01000044=
201601310552 METAR KATL 310552Z 21008KT 10SM CLR 10/04 A3008 RMK AO2 SLP184 T01000039 10150 20100 58003=
201601310452 METAR KATL 310452Z 18006KT 10SM CLR 10/03 A3009 RMK AO2 SLP188 T01000033 401940011=
201601310352 METAR KATL 310352Z 20006KT 10SM CLR 11/02 A3009 RMK AO2 SLP189 T01110022=
201601310252 METAR KATL 310252Z 17007KT 10SM CLR 12/03 A3009 RMK AO2 SLP189 T01170028 51010=
201601310152 METAR KATL 310152Z 16006KT 10SM CLR 13/02 A3009 RMK AO2 SLP190 T01280017=
201601310052 METAR KATL 310052Z 16006KT 10SM CLR 14/02 A3007 RMK AO2 SLP187 T01390017=
201601302352 METAR KATL 302352Z 18006KT 10SM FEW250 14/02 A3006 RMK AO2 SLP181 T01440022 10194 20144 53006=
201601302252 METAR KATL 302252Z 18008KT 10SM FEW150 FEW250 17/02 A3004 RMK AO2 SLP175 T01720022=
201601302152 METAR KATL 302152Z 19009KT 10SM FEW250 18/02 A3004 RMK AO2 SLP173 T01830017=
201601302052 METAR KATL 302052Z 20010KT 10SM FEW250 19/01 A3004 RMK AO2 SLP173 T01940011 56019=
201601301952 METAR KATL 301952Z 21008G16KT 10SM FEW250 19/03 A3005 RMK AO2 SLP177 T01890033=
201601301852 METAR KATL 301852Z 21011G19KT 10SM FEW250 17/02 A3007 RMK AO2 SLP183 T01720022=
201601301752 METAR KATL 301752Z 17007KT 10SM FEW250 16/02 A3010 RMK AO2 SLP193 T01610022 10161 20022 58022=
201601301652 METAR KATL 301652Z 17007KT 10SM FEW250 14/01 A3013 RMK AO2 SLP204 T01390006=
201601301552 METAR KATL 301552Z 15006KT 10SM FEW250 12/M01 A3015 RMK AO2 SLP212 T01171006=
201601301452 METAR KATL 301452Z 12003KT 10SM FEW250 09/M01 A3017 RMK AO2 SLP218 T00891006 51026=
201601301352 METAR KATL 301352Z 00000KT 10SM FEW250 06/M01 A3016 RMK AO2 SLP217 T00611011=
201601301252 METAR KATL 301252Z 15003KT 10SM FEW250 02/M02 A3011 RMK AO2 SLP202 T00221022=
201601301152 METAR KATL 301152Z 20003KT 10SM CLR 02/M02 A3009 RMK AO2 SLP193 T00171022 10061 20011 51015=
201601301052 METAR KATL 301052Z 00000KT 10SM CLR 02/M02 A3007 RMK AO2 SLP185 T00221022=
201601300952 METAR KATL 300952Z 00000KT 10SM CLR 03/M03 A3006 RMK AO2 SLP183 T00281028=
201601300852 METAR KATL 300852Z 00000KT 10SM CLR 03/M03 A3004 RMK AO2 SLP176 T00281028 58002=
201601300752 METAR KATL 300752Z 00000KT 10SM CLR 04/M03 A3005 RMK AO2 SLP177 T00441033=
201601300652 METAR KATL 300652Z 32004KT 10SM CLR 05/M03 A3006 RMK AO2 SLP182 T00501028=
201601300552 METAR KATL 300552Z 33003KT 10SM CLR 06/M03 A3005 RMK AO2 SLP178 T00611033 10100 20050 50001=
201601300452 METAR KATL 300452Z 00000KT 10SM CLR 06/M03 A3005 RMK AO2 SLP180 T00611033 401390033=
201601300352 METAR KATL 300352Z 00000KT 10SM CLR 07/M03 A3005 RMK AO2 SLP179 T00671033=
201601300252 METAR KATL 300252Z 30005KT 10SM CLR 07/M04 A3004 RMK AO2 SLP177 T00721039 51013=
201601300152 METAR KATL 300152Z 28004KT 10SM CLR 07/M04 A3004 RMK AO2 SLP177 T00721039=
201601300052 METAR KATL 300052Z 30006KT 10SM CLR 08/M04 A3003 RMK AO2 SLP172 T00831039=
201601292352 METAR KATL 292352Z 32007KT 10SM CLR 10/M04 A3001 RMK AO2 SLP164 T01001044 10139 20100 51016=
201601292252 METAR KATL 292252Z 29008KT 10SM CLR 12/M04 A2999 RMK AO2 SLP160 T01171039=
201601292152 METAR KATL 292152Z 27012KT 10SM CLR 13/M02 A2998 RMK AO2 SLP154 T01331022=
201601292052 METAR KATL 292052Z 30012KT 10SM CLR 14/M03 A2996 RMK AO2 SLP146 T01391033 55001=
201601291952 METAR KATL 291952Z 30009KT 10SM CLR 14/M02 A2995 RMK AO2 SLP143 T01391017=
201601291852 METAR KATL 291852Z 32013KT 10SM CLR 13/M02 A2995 RMK AO2 SLP143 T01281022=
201601291752 METAR KATL 291752Z 33013KT 10SM CLR 12/M01 A2996 RMK AO2 SLP148 T01171011 10117 20033 58002=
201601291652 METAR KATL 291652Z 31015G21KT 10SM FEW250 11/00 A2998 RMK AO2 PK WND 30026/1632 SLP153 T01060000=
201601291552 METAR KATL 291552Z 31017G23KT 10SM FEW250 09/00 A2998 RMK AO2 SLP155 T00940000=
201601291452 METAR KATL 291452Z 29011KT 10SM CLR 08/01 A2997 RMK AO2 SLP151 T00780006 53024=
201601291352 METAR KATL 291352Z 29009KT 10SM CLR 06/00 A2994 RMK AO2 SLP143 T00560000=
201601291252 METAR KATL 291252Z 27007KT 10SM CLR 03/M01 A2992 RMK AO2 SLP134 T00331011=
201601291152 METAR KATL 291152Z 27008KT 10SM CLR 04/M02 A2989 RMK AO2 SLP127 T00391017 10056 20033 53015=
201601291052 METAR KATL 291052Z 27007KT 10SM CLR 04/M02 A2987 RMK AO2 SLP119 T00391017=
201601290952 METAR KATL 290952Z 28008KT 10SM CLR 04/M02 A2985 RMK AO2 SLP112 T00391017=
201601290852 METAR KATL 290852Z 26009KT 10SM CLR 04/M02 A2985 RMK AO2 SLP110 T00441022 57005=
201601290752 METAR KATL 290752Z 27009KT 10SM CLR 05/M02 A2985 RMK AO2 SLP112 T00501022=
201601290652 METAR KATL 290652Z 26007KT 10SM CLR 04/M02 A2985 RMK AO2 SLP113 T00441022=
201601290552 METAR KATL 290552Z 27009KT 10SM CLR 06/M03 A2986 RMK AO2 SLP115 T00561028 10089 20056 58002=
201601290452 METAR KATL 290452Z 27008KT 10SM CLR 06/M03 A2987 RMK AO2 SLP117 T00611028 401170044=
201601290352 METAR KATL 290352Z 27006KT 10SM FEW200 06/M03 A2987 RMK AO2 SLP120 T00561033=
201601290252 METAR KATL 290252Z 29006KT 10SM SCT200 06/M03 A2987 RMK AO2 SLP118 T00611033 53003=
201601290152 METAR KATL 290152Z 28007KT 10SM FEW180 SCT250 07/M04 A2986 RMK AO2 SLP116 T00671039=
201601290052 METAR KATL 290052Z 30005KT 10SM FEW200 BKN250 07/M04 A2986 RMK AO2 SLP114 T00721044=
201601282352 METAR KATL 282352Z 28004KT 10SM FEW150 BKN200 BKN250 09/M05 A2986 RMK AO2 SLP114 T00891050 10117 20078 53001=
201601282252 METAR KATL 282252Z 31006KT 10SM FEW150 BKN200 BKN250 09/M04 A2985 RMK AO2 SLP112 T00941044=
201601282152 METAR KATL 282152Z 28005KT 10SM FEW150 BKN180 BKN220 11/00 A2985 RMK AO2 SLP109 VIRGA DSNT SE-S-SW T01060000=
201601282052 METAR KATL 282052Z 29007KT 10SM FEW150 BKN180 BKN250 11/01 A2986 RMK AO2 SLP112 VIRGA DSNT SE-S-SW T01110006 56028=
201601281952 METAR KATL 281952Z 32007KT 10SM FEW150 BKN180 BKN250 11/01 A2987 RMK AO2 SLP117 T01110006=
201601281852 METAR KATL 281852Z 30007KT 10SM FEW150 BKN220 BKN250 11/03 A2989 RMK AO2 SLP123 T01110033=
201601281752 METAR KATL 281752Z 30003KT 10SM BKN150 BKN180 BKN250 10/03 A2994 RMK AO2 SLP142 T01000028 10100 20044 58014=
201601281652 METAR KATL 281652Z 31006KT 10SM BKN150 BKN180 BKN250 09/02 A2998 RMK AO2 SLP156 T00890022=
201601281552 METAR KATL 281552Z 31004KT 10SM FEW120 SCT150 BKN180 BKN250 08/02 A2998 RMK AO2 SLP155 T00780022=
201601281452 METAR KATL 281452Z 32006KT 10SM FEW070 BKN120 OVC150 05/01 A2998 RMK AO2 SLP159 VIRGA DSNT S T00500011 55000=
201601281416 SPECI KATL 281416Z 33004KT 10SM FEW010 BKN070 OVC200 05/01 A2997 RMK AO2 T00500011=
201601281352 METAR KATL 281352Z 33004KT 10SM BKN011 BKN075 OVC200 05/01 A2997 RMK AO2 SLP154 T00500011=
201601281252 METAR KATL 281252Z 32007KT 10SM OVC011 05/02 A2999 RMK AO2 SLP160 T00500017=
201601281152 METAR KATL 281152Z 31006KT 10SM OVC010 05/02 A2998 RMK AO2 SLP158 60000 T00500022 10067 20050 55003=
201601281052 METAR KATL 281052Z 33006KT 10SM OVC008 06/02 A2998 RMK AO2 SLP156 T00560022=
201601280952 METAR KATL 280952Z 33004KT 10SM OVC008 06/02 A2997 RMK AO2 RAB34E44 SLP154 P0000 T00560022=
201601280921 SPECI KATL 280921Z 32006KT 10SM OVC008 06/02 A2999 RMK AO2 T00560022=
201601280852 METAR KATL 280852Z 00000KT 10SM BKN010 OVC018 06/02 A2999 RMK AO2 SLP161 T00560022 58016=
201601280836 SPECI KATL 280836Z 36003KT 10SM SCT010 OVC018 06/02 A3000 RMK AO2 T00610022=
201601280813 SPECI KATL 280813Z 34005KT 10SM BKN010 OVC016 06/02 A3001 RMK AO2 T00560017=
201601280752 METAR KATL 280752Z 01005KT 10SM OVC017 06/02 A3002 RMK AO2 SLP169 T00610017=
201601280652 METAR KATL 280652Z 34005KT 10SM OVC021 05/01 A3004 RMK AO2 SLP175 T00500011=
201601280552 METAR KATL 280552Z 34005KT 10SM OVC022 05/01 A3004 RMK AO2 SLP178 T00500011 10061 20039 58013=
201601280452 METAR KATL 280452Z 33007KT 10SM BKN022 OVC100 04/01 A3007 RMK AO2 SLP187 T00440006 401060039=
201601280352 METAR KATL 280352Z 34006KT 10SM BKN022 BKN100 BKN250 04/01 A3007 RMK AO2 SLP188 T00440006=
201601280346 SPECI KATL 280346Z 35006KT 10SM BKN022 BKN100 BKN250 04/01 A3007 RMK AO2=
201601280252 METAR KATL 280252Z 32005KT 10SM FEW020 SCT100 BKN250 04/01 A3008 RMK AO2 SLP192 T00390006 55000=
201601280152 METAR KATL 280152Z 32006KT 10SM FEW020 SCT080 BKN100 BKN250 05/01 A3008 RMK AO2 SLP190 T00500006=
201601280052 METAR KATL 280052Z 34008KT 10SM BKN080 OVC100 06/01 A3008 RMK AO2 SLP192 T00560011=
201601272352 METAR KATL 272352Z 32008KT 10SM BKN080 OVC100 06/02 A3008 RMK AO2 SLP191 T00610017 10078 20061 53007=
201601272252 METAR KATL 272252Z 34008KT 10SM BKN095 BKN200 07/02 A3006 RMK AO2 SLP181 T00670017=
201601272152 METAR KATL 272152Z 33010KT 10SM BKN080 BKN200 07/02 A3006 RMK AO2 SLP181 T00720022=
201601272052 METAR KATL 272052Z 32006KT 10SM BKN075 OVC180 07/02 A3006 RMK AO2 SLP183 T00720022 56013=
201601271952 METAR KATL 271952Z 34009KT 10SM BKN060 BKN075 07/02 A3007 RMK AO2 SLP184 T00670017=
201601271852 METAR KATL 271852Z 32009KT 10SM BKN060 OVC080 07/02 A3008 RMK AO2 SLP188 T00670022=
201601271752 METAR KATL 271752Z 32007KT 9SM FEW010 BKN050 OVC080 06/02 A3010 RMK AO2 SLP196 60000 T00610022 10067 20056 58009=
201601271652 METAR KATL 271652Z 35010KT 7SM SCT008 BKN040 OVC070 07/03 A3012 RMK AO2 SLP203 T00670033=
201601271552 METAR KATL 271552Z 33010KT 3SM BR BKN007 BKN030 BKN070 06/03 A3012 RMK AO2 SFC VIS 6 SLP204 T00560033=
201601271452 METAR KATL 271452Z 34009KT 3SM BR BKN006 OVC075 06/04 A3013 RMK AO2 SFC VIS 5 SLP206 60000 T00610039 53005=
201601271352 METAR KATL 271352Z 34012KT 3SM BR OVC005 06/04 A3011 RMK AO2 SFC VIS 6 DZB20E48 SLP199 CIG 004V007 P0000 T00610044=
201601271252 METAR KATL 271252Z 34010KT 3SM BR OVC005 07/05 A3012 RMK AO2 SFC VIS 6 SLP201 CIG 004V007 T00670050=
201601271216 SPECI KATL 271216Z 32007KT 3SM BKN005 BKN039 07/06 A3011 RMK AO2 SFC VIS 8 CIG 004V007 T00720061=
201601271152 METAR KATL 271152Z 33008KT 3/4SM R09R/P6000FT BR BKN004 OVC014 08/07 A3012 RMK AO2 SFC VIS 6 DZE43 SLP200 CIG 003V006 TWRINC P0000 60007 70022 T00780067 10106 20078 53012=
201601271052 METAR KATL 271052Z 33011KT 3/4SM R09R/P6000FT -DZ BR BKN003 OVC009 10/09 A3010 RMK AO2 SFC VIS 2 RAB05E25DZB49 SLP192 CIG 002V004 TWRINC P0000 T01000089=
201601271030 SPECI KATL 271030Z 32006KT 3/4SM R09R/P6000FT BR BKN003 OVC007 10/09 A3009 RMK AO2 SFC VIS 1 3/4 RAB05E25 P0000 T01000089=
201601270952 METAR KATL 270952Z 33004KT 1 1/2SM BR BKN003 OVC021 10/09 A3008 RMK AO2 SFC VIS 2 1/2 RAB0856E42 SLP186 CIG 002V005 TWRINC P0001 T01000089=
201601270919 SPECI KATL 270919Z 34003KT 1 1/2SM -RA BR BKN003 OVC023 10/09 A3008 RMK AO2 SFC VIS 3 RAB0856 CIG 002V005 TWRINC P0000 T01000089=
201601270905 SPECI KATL 270905Z 35005KT 4SM -RA BR BKN004 BKN023 OVC080 10/09 A3008 RMK AO2 RAB0856 CIG 002V005 P0000 T01000089=
201601270851 METAR KATL 270851Z 35006KT 4SM BR BKN005 BKN028 OVC080 10/09 A3008 RMK AO2 RAE49 SLP184 CIG 004V007 P0002 60006 T01000089 58006=
201601270850 SPECI KATL 270850Z 35005KT 4SM BR BKN005 BKN028 OVC080 10/09 A3008 RMK AO2 RAE49 P0002=
201601270752 METAR KATL 270752Z 00000KT 7SM -RA OVC080 10/08 A3009 RMK AO2 SLP188 P0002 T01000083=
201601270652 METAR KATL 270652Z 00000KT 8SM -RA OVC075 10/09 A3010 RMK AO2 SLP192 P0002 T01000089=
201601270552 METAR KATL 270552Z 14003KT 7SM -RA FEW003 BKN065 OVC080 10/09 A3010 RMK AO2 SLP193 P0005 60013 T01000089 10117 20100 58010=
201601270452 METAR KATL 270452Z 00000KT 6SM -RA BR BKN055 OVC080 11/09 A3013 RMK AO2 SLP203 P0002 T01060089 401610039=
201601270352 METAR KATL 270352Z 14004KT 8SM -RA FEW005 BKN045 OVC060 11/09 A3013 RMK AO2 RAE05B51 SLP203 P0000 T01060094=
201601270252 METAR KATL 270252Z 13003KT 7SM -RA FEW005 BKN045 OVC060 11/09 A3013 RMK AO2 SLP205 P0000 60006 T01060094 50001=
201601270152 METAR KATL 270152Z 06006KT 4SM -RA BR FEW008 BKN042 OVC060 11/09 A3015 RMK AO2 SLP212 P0003 T01060089=
201601270052 METAR KATL 270052Z 36005KT 4SM -RA BR BKN038 OVC050 11/09 A3015 RMK AO2 RAB14 SLP213 P0003 T01110089=
201601262352 METAR KATL 262352Z 36008KT 10SM BKN030 OVC060 12/09 A3013 RMK AO2 RAE35 SLP205 P0000 60002 T01170089 10161 20111 51011=
201601262252 METAR KATL 262252Z 34011KT 6SM -RA BKN040 BKN055 OVC080 12/09 A3013 RMK AO2 RAB16 SLP205 P0002 T01170089=
201601262152 METAR KATL 262152Z 31006KT 10SM SCT040 BKN065 OVC085 16/07 A3010 RMK AO2 SLP193 T01560072=
201601262052 METAR KATL 262052Z 17006KT 10SM FEW040 BKN090 OVC200 16/07 A3009 RMK AO2 SLP191 T01610067 56021=
201601261952 METAR KATL 261952Z 21005KT 10SM FEW040 SCT090 OVC200 16/06 A3011 RMK AO2 SLP197 T01560061=
201601261852 METAR KATL 261852Z 20005KT 10SM FEW050 BKN085 OVC200 14/06 A3013 RMK AO2 SLP204 T01440056=
201601261752 METAR KATL 261752Z 18005KT 10SM FEW050 BKN180 OVC220 13/05 A3016 RMK AO2 SLP213 T01330050 10139 20044 58016=
201601261652 METAR KATL 261652Z 19006KT 10SM FEW050 BKN180 OVC220 12/04 A3018 RMK AO2 SLP221 T01170039=
201601261552 METAR KATL 261552Z 12003KT 10SM FEW060 BKN180 OVC240 10/03 A3019 RMK AO2 SLP227 T01000028=
201601261452 METAR KATL 261452Z 00000KT 10SM SCT060 OVC240 09/03 A3020 RMK AO2 SLP231 T00890028 53005=
201601261352 METAR KATL 261352Z 15003KT 10SM FEW060 OVC220 07/02 A3020 RMK AO2 SLP230 T00720017=
201601261252 METAR KATL 261252Z 11003KT 10SM FEW060 SCT200 OVC250 04/01 A3019 RMK AO2 SLP227 T00440006=
201601261152 METAR KATL 261152Z 15004KT 10SM FEW060 BKN250 05/01 A3019 RMK AO2 SLP226 T00500006 10067 20039 51004=
201601261052 METAR KATL 261052Z 14004KT 10SM FEW070 BKN250 05/00 A3018 RMK AO2 SLP223 T00500000=
201601260952 METAR KATL 260952Z 00000KT 10SM FEW060 BKN250 06/M01 A3019 RMK AO2 SLP225 T00561006=
201601260852 METAR KATL 260852Z 14003KT 10SM FEW060 BKN250 06/M01 A3018 RMK AO2 SLP221 T00611006 58010=
201601260752 METAR KATL 260752Z 15005KT 10SM FEW060 BKN250 06/M01 A3019 RMK AO2 SLP225 T00611006=
201601260652 METAR KATL 260652Z 15006KT 10SM FEW060 SCT250 06/M01 A3020 RMK AO2 SLP230 T00611011=
201601260552 METAR KATL 260552Z 16004KT 10SM FEW060 BKN250 07/M02 A3021 RMK AO2 SLP231 T00721017 10111 20067 58005=
201601260452 METAR KATL 260452Z 16004KT 10SM FEW060 08/M02 A3023 RMK AO2 SLP239 T00781022 401441006=
201601260352 METAR KATL 260352Z 16005KT 10SM FEW060 07/M02 A3022 RMK AO2 SLP237 T00721022=
201601260252 METAR KATL 260252Z 14004KT 10SM FEW060 08/M03 A3022 RMK AO2 SLP239 T00781028 53007=
201601260152 METAR KATL 260152Z 12004KT 10SM FEW250 09/M04 A3021 RMK AO2 SLP235 T00891039=
201601260052 METAR KATL 260052Z 15006KT 10SM FEW250 10/M04 A3021 RMK AO2 SLP234 T01001044=
201601252352 METAR KATL 252352Z 15007KT 10SM SCT250 11/M04 A3020 RMK AO2 SLP232 T01111044 10144 20106 53003=
201601252252 METAR KATL 252252Z 18004KT 10SM BKN250 12/M04 A3020 RMK AO2 SLP230 T01221039=
201601252152 METAR KATL 252152Z 19008KT 10SM BKN250 14/M04 A3020 RMK AO2 SLP229 T01391044=
201601252052 METAR KATL 252052Z 19007KT 10SM BKN250 14/M04 A3019 RMK AO2 SLP228 T01391039 56019=
201601251952 METAR KATL 251952Z 19009KT 10SM BKN250 13/M04 A3022 RMK AO2 SLP237 T01331039=
201601251852 METAR KATL 251852Z 16007KT 10SM BKN250 13/M03 A3022 RMK AO2 SLP238 T01281028=
201601251752 METAR KATL 251752Z 22007KT 10SM BKN250 12/M04 A3025 RMK AO2 SLP247 T01171044 10117 20006 58008=
201601251652 METAR KATL 251652Z 23007KT 10SM BKN250 10/M03 A3028 RMK AO2 SLP258 T01001033=
201601251552 METAR KATL 251552Z 21006KT 10SM FEW200 BKN250 08/M02 A3028 RMK AO2 SLP260 T00781022=
201601251452 METAR KATL 251452Z 22004KT 10SM FEW200 BKN250 06/M02 A3028 RMK AO2 SLP258 T00561022 51023=
201601251352 METAR KATL 251352Z 00000KT 10SM FEW200 BKN250 03/M02 A3027 RMK AO2 SLP256 T00281022=
201601251252 METAR KATL 251252Z 00000KT 10SM BKN250 01/M04 A3025 RMK AO2 SLP249 T00111044=
201601251152 METAR KATL 251152Z 15003KT 10SM BKN250 01/M04 A3020 RMK AO2 SLP235 T00061044 10033 21006 53010=
201601251052 METAR KATL 251052Z 12003KT 10SM BKN250 01/M04 A3018 RMK AO2 SLP225 T00061044=
201601250952 METAR KATL 250952Z 14004KT 10SM BKN250 01/M04 A3016 RMK AO2 SLP218 T00061044=
201601250852 METAR KATL 250852Z 00000KT 10SM FEW200 BKN250 02/M05 A3017 RMK AO2 SLP222 T00171050 51005=
201601250752 METAR KATL 250752Z 00000KT 10SM FEW200 BKN250 02/M04 A3017 RMK AO2 SLP221 T00221044=
201601250652 METAR KATL 250652Z 18003KT 10SM SCT200 BKN250 02/M04 A3016 RMK AO2 SLP219 T00221039=
201601250552 METAR KATL 250552Z 00000KT 10SM BKN200 BKN250 03/M05 A3016 RMK AO2 SLP218 T00331050 10072 20022 53001=
201601250452 METAR KATL 250452Z 16003KT 10SM BKN200 BKN250 02/M04 A3015 RMK AO2 SLP219 T00221039 401171050=
201601250352 METAR KATL 250352Z 13003KT 10SM BKN200 BKN250 03/M04 A3014 RMK AO2 SLP214 T00331044=
201601250252 METAR KATL 250252Z 27003KT 10SM SCT200 BKN250 04/M04 A3015 RMK AO2 SLP220 T00391044 51005=
201601250152 METAR KATL 250152Z 00000KT 10SM SCT250 04/M05 A3015 RMK AO2 SLP220 T00441050=
201601250052 METAR KATL 250052Z 22003KT 10SM FEW250 06/M06 A3015 RMK AO2 SLP217 T00611056=
201601242352 METAR KATL 242352Z 20003KT 10SM FEW250 07/M06 A3014 RMK AO2 SLP215 T00721061 10117 20061 53007=
201601242252 METAR KATL 242252Z 26004KT 10SM FEW250 09/M08 A3013 RMK AO2 SLP211 T00941078=
201601242152 METAR KATL 242152Z 31004KT 10SM FEW250 12/M08 A3012 RMK AO2 SLP207 T01171078=
201601242052 METAR KATL 242052Z 27004KT 10SM FEW250 12/M08 A3012 RMK AO2 SLP206 T01171078 56012=
201601241952 METAR KATL 241952Z 27003KT 10SM FEW250 11/M07 A3012 RMK AO2 SLP208 T01061067=
201601241852 METAR KATL 241852Z 31003KT 10SM FEW250 08/M06 A3013 RMK AO2 SLP211 T00831061=
201601241752 METAR KATL 241752Z 31003KT 10SM FEW250 07/M06 A3015 RMK AO2 SLP220 T00671056 10067 21050 58009=
201601241652 METAR KATL 241652Z VRB03KT 10SM FEW250 03/M07 A3018 RMK AO2 SLP230 T00331067=
201601241552 METAR KATL 241552Z 31003KT 10SM FEW250 01/M06 A3019 RMK AO2 SLP235 T00111061=
201601241452 METAR KATL 241452Z 30005KT 10SM FEW250 M02/M07 A3018 RMK AO2 SLP232 T10171067 51023=
201601241352 METAR KATL 241352Z 33007KT 10SM FEW250 M03/M08 A3015 RMK AO2 SLP222 T10331078=
201601241252 METAR KATL 241252Z 32005KT 10SM FEW250 M04/M08 A3015 RMK AO2 SLP221 T10441083=
201601241152 METAR KATL 241152Z 32008KT 10SM CLR M04/M08 A3011 RMK AO2 SLP209 T10441083 11033 21044 53017=
201601241052 METAR KATL 241052Z 32009KT 10SM CLR M04/M08 A3009 RMK AO2 SLP203 T10441083=
201601240952 METAR KATL 240952Z 32013KT 10SM CLR M04/M08 A3007 RMK AO2 SLP194 T10441083=
201601240852 METAR KATL 240852Z 31008KT 10SM CLR M04/M08 A3006 RMK AO2 SLP191 T10441083 55004=
201601240752 METAR KATL 240752Z 32007KT 10SM CLR M04/M08 A3005 RMK AO2 SLP186 T10441083=
201601240652 METAR KATL 240652Z 32009KT 10SM CLR M04/M08 A3007 RMK AO2 SLP193 T10391083=
201601240552 METAR KATL 240552Z 33010KT 10SM CLR M03/M08 A3007 RMK AO2 SLP195 T10331083 11011 21033 51006=
201601240452 METAR KATL 240452Z 32014KT 10SM CLR M03/M08 A3007 RMK AO2 SLP193 T10281078 400111028=
201601240352 METAR KATL 240352Z 32013G23KT 10SM FEW022 M03/M07 A3007 RMK AO2 SLP192 T10281072=
201601240312 SPECI KATL 240312Z 33017G22KT 10SM SCT022 M02/M07 A3006 RMK AO2 T10221072=
201601240252 METAR KATL 240252Z 33011G23KT 10SM BKN022 M02/M07 A3005 RMK AO2 PK WND 32033/0212 SLP189 T10221072 51015=
201601240152 METAR KATL 240152Z 33015G22KT 10SM BKN021 M02/M07 A3005 RMK AO2 PK WND 33027/0053 SLP187 T10171067=
201601240052 METAR KATL 240052Z 33023G31KT 10SM BKN022 M02/M07 A3002 RMK AO2 PK WND 32031/0049 SLP178 T10171067=
201601232352 METAR KATL 232352Z 32016G26KT 10SM OVC023 M01/M07 A3001 RMK AO2 PK WND 32032/2257 SLP174 BINOVC T10111067 10011 21011 51027=
201601232252 METAR KATL 232252Z 32023G32KT 10SM OVC025 M01/M07 A2998 RMK AO2 PK WND 33032/2243 SLP164 BINOVC T10111067=
201601232152 METAR KATL 232152Z 32020G28KT 10SM OVC027 M01/M07 A2996 RMK AO2 PK WND 32033/2109 SLP155 T10061067=
201601232137 SPECI KATL 232137Z 32016G30KT 10SM BKN028 M01/M07 A2995 RMK AO2 PK WND 32033/2109 T10061067=
201601232052 METAR KATL 232052Z 33022G34KT 10SM SCT032 SCT220 01/M07 A2993 RMK AO2 PK WND 33034/2048 SLP144 T00061067 53006=
201601231952 METAR KATL 231952Z 33022G28KT 10SM SCT032 SCT220 01/M07 A2989 RMK AO2 PK WND 32033/1907 SLP130 T00111067=
201601231852 METAR KATL 231852Z 33021G29KT 10SM BKN030 00/M07 A2989 RMK AO2 PK WND 34033/1817 SLP131 T00001067=
201601231829 SPECI KATL 231829Z 32018G27KT 10SM BKN030 M01/M07 A2990 RMK AO2 PK WND 34033/1817 T10111072=
201601231752 METAR KATL 231752Z 33014G21KT 10SM OVC028 M01/M07 A2991 RMK AO2 PK WND 32034/1741 SLP138 BINOVC 60000 T10111067 11011 21028 50005=
201601231652 METAR KATL 231652Z 33023G34KT 10SM OVC026 M02/M07 A2992 RMK AO2 PK WND 31034/1601 SLP141 T10221072=
201601231552 METAR KATL 231552Z 32017G28KT 9SM SCT022 BKN028 OVC034 M02/M06 A2991 RMK AO2 PK WND 33032/1536 SNE36 SLP139 BINOVC P0000 T10221061=
201601231523 SPECI KATL 231523Z 31019G28KT 4SM -SN FEW017 BKN027 OVC035 M02/M06 A2990 RMK AO2 PK WND 31029/1512 P0000 T10221056=
201601231452 METAR KATL 231452Z 31019G27KT 2SM R09R/5500VP6000FT -SN FEW016 BKN021 OVC032 M03/M06 A2989 RMK AO2 PK WND 32032/1432 SLP132 P0000 60000 T10281056 51036=
201601231429 SPECI KATL 231429Z 31020G30KT 2SM -SN FEW016 BKN022 OVC029 M03/M06 A2988 RMK AO2 PK WND 32030/1422 P0000 T10281061=
201601231352 METAR KATL 231352Z 32019G31KT 5SM -SN BKN022 OVC028 M03/M07 A2986 RMK AO2 PK WND 33040/1254 SNB23 SLP121 P0000 T10281067=
201601231252 METAR KATL 231252Z 32023G33KT 10SM OVC022 M02/M07 A2982 RMK AO2 PK WND 31039/1158 SLP109 T10221067=
201601231152 METAR KATL 231152Z 33023G33KT 10SM OVC024 M02/M07 A2978 RMK AO2 PK WND 32038/1102 SLP094 60000 70054 T10221072 11006 21022 53021=
201601231052 METAR KATL 231052Z 32017G29KT 10SM OVC023 M02/M07 A2976 RMK AO2 PK WND 31037/1037 SLP088 T10221067=
201601230952 METAR KATL 230952Z 32018G30KT 10SM OVC020 M02/M06 A2973 RMK AO2 PK WND 32034/0932 SLP075 T10221061=
201601230852 METAR KATL 230852Z 34016G30KT 3SM FEW014 OVC022 M02/M06 A2972 RMK AO2 PK WND 32030/0844 SFC VIS 10 SNE51 SLP072 P0000 60000 T10171056 51013=
201601230752 METAR KATL 230752Z 32018G27KT 3SM -SN SCT014 OVC019 M02/M05 A2971 RMK AO2 PK WND 32032/0653 SFC VIS 7 SLP069 P0000 T10171050=
201601230720 SPECI KATL 230720Z 32018G24KT 3SM -SN SCT014 OVC019 M02/M04 A2971 RMK AO2 PK WND 32032/0653 P0000 T10171044=
201601230652 METAR KATL 230652Z 33024G32KT 3SM -SN FEW009 OVC013 M01/M04 A2970 RMK AO2 PK WND 33032/0645 SFC VIS 4 SLP066 P0000 T10111044=
201601230552 METAR KATL 230552Z 33021G29KT 3SM -SN BR SCT008 BKN012 OVC025 M01/M03 A2968 RMK AO2 PK WND 32029/0549 SFC VIS 5 SLP057 931003 P0000 60005 T10061028 10017 21006 53003=
201601230526 SPECI KATL 230526Z 31011KT 3SM -SN BR SCT008 BKN012 OVC020 00/M02 A2967 RMK AO2 SFC VIS 4 P0000 T00001022=
201601230506 SPECI KATL 230506Z 31010KT 1 3/4SM -SN BR BKN008 BKN012 OVC020 M01/M02 A2967 RMK AO2 TWR VIS 3 P0000 T10061022=
201601230452 METAR KATL 230452Z 30012KT 3SM -SN BR SCT008 BKN012 OVC020 00/M02 A2967 RMK AO2 SLP055 VIS LWR S-W-NW P0000 T00001022 400720000=
201601230352 METAR KATL 230352Z 30015G18KT 3SM -SN BR FEW007 BKN012 OVC025 00/M02 A2967 RMK AO2 SLP054 VIS LWR NW-NE P0000 T00001022=
201601230252 METAR KATL 230252Z 30013KT 3SM -SN BR FEW006 BKN017 OVC030 01/M01 A2967 RMK AO2 SLP053 VIS LWR NW-NE-SE P0002 60005 T00061011 51009=
201601230218 SPECI KATL 230218Z 31011KT 3SM -SN BR SCT006 BKN020 OVC035 01/M01 A2967 RMK AO2 P0002 T00061006=
201601230152 METAR KATL 230152Z 30004KT 2 1/2SM -SN BR BKN005 OVC015 01/M01 A2967 RMK AO2 RAE48 SLP052 CIG 003V007 P0002 T00061006=
201601230052 METAR KATL 230052Z 00000KT 2 1/2SM -SNRA BR BKN007 OVC020 01/00 A2966 RMK AO2 SLP049 CIG 004V010 P0001 T00110000=
201601222352 METAR KATL 222352Z 05006KT 3SM -SNRA BR BKN008 OVC020 02/M01 A2964 RMK AO2 RAE04B37SNB37 SLP043 CIG 005V012 P0000 60023 931000 T00171006 10050 20017 53017=
201601222252 METAR KATL 222252Z 05008KT 3SM -RA BR BKN008 OVC030 02/01 A2962 RMK AO2 SFC VIS 6 RAB2155SNE2155 SLP036 CIG 005V012 P0001 T00220006=
201601222156 SPECI KATL 222156Z 07009KT 3SM -RA BR OVC006 02/01 A2960 RMK AO2 SFC VIS 6 RAB55SNE55 VIS LWR VC NE-E-SE SHSN P0000 I1000 T00220006=
201601222152 METAR KATL 222152Z 06010KT 3SM -SN BR OVC006 02/01 A2961 RMK AO2 RAE43SNB43PLB43E51 SLP030 P0002 T00220006=
201601222143 SPECI KATL 222143Z 07008KT 3SM -PLSN BR OVC006 02/01 A2961 RMK AO2 SFC VIS 4 RAE43SNB43PLB43 P0002 T00220006=
201601222052 METAR KATL 222052Z 05010KT 3SM -RA BR OVC007 03/01 A2959 RMK AO2 SFC VIS 4 SLP025 P0000 60020 T00280011 55005=
201601221952 METAR KATL 221952Z 09007KT 6SM -RA BR BKN008 BKN010 OVC012 03/02 A2958 RMK AO2 SLP022 P0005 T00330022=
201601221903 SPECI KATL 221903Z 07015KT 5SM -RA BR BKN006 OVC010 04/02 A2956 RMK AO2 P0001 T00390022=
201601221852 METAR KATL 221852Z 07015KT 3SM RA BR BKN005 OVC010 04/03 A2957 RMK AO2 SFC VIS 4 SLP017 P0015 T00390028=
201601221756 SPECI KATL 221756Z 08015KT 1 1/2SM RA BR OVC006 04/03 A2961 RMK AO2 SFC VIS 3 P0000 T00440028=
201601221752 METAR KATL 221752Z 08015G21KT 3SM -RA BR OVC006 04/03 A2961 RMK AO2 PK WND 08028/1722 SFC VIS 4 SLP030 P0002 60026 T00440028 10072 20044 58034=
201601221652 METAR KATL 221652Z 08017KT 3SM -RA BR OVC006 05/03 A2965 RMK AO2 SFC VIS 5 SLP044 P0005 T00500033=
201601221629 SPECI KATL 221629Z 09015KT 3SM -RA BR OVC005 05/03 A2967 RMK AO2 SFC VIS 4 P0005 T00500033=
201601221552 METAR KATL 221552Z 09007G16KT 3SM RA BR OVC005 05/04 A2969 RMK AO2 SLP056 P0007 T00500039=
201601221510 SPECI KATL 221510Z 08015KT 2 1/2SM -RA BR OVC005 06/04 A2969 RMK AO2 TWR VIS 3 P0000 T00560039=
201601221452 METAR KATL 221452Z 09015KT 3SM -RA BR OVC005 06/04 A2971 RMK AO2 SFC VIS 4 SLP064 P0011 60012 T00560044 55009=
201601221418 SPECI KATL 221418Z 10012KT 2 1/2SM -RA BR OVC005 06/05 A2970 RMK AO2 SFC VIS 4 P0006 T00610050=
201601221412 SPECI KATL 221412Z 09014G21KT 1 1/2SM -RA BR OVC005 06/05 A2971 RMK AO2 SFC VIS 3 P0002 T00610050=
201601221410 SPECI KATL 221410Z 09014G21KT 1 1/2SM -RA BR OVC005 06/05 A2971 RMK AO2 SFC VIS 4 P0000 T00610050=
201601221352 METAR KATL 221352Z 10013G26KT 3SM -RA BR OVC005 07/05 A2970 RMK AO2 PK WND 11026/1347 SFC VIS 6 RAB10 SLP060 P0001 T00670050=
201601221252 METAR KATL 221252Z 10017G25KT 10SM OVC006 07/06 A2971 RMK AO2 PK WND 11028/1153 SLP063 T00720056=
201601221152 METAR KATL 221152Z 10016G28KT 10SM BKN005 OVC038 07/05 A2974 RMK AO2 PK WND 11037/1125 RAE42 SLP072 P0013 60127 70210 T00670050 10072 20067 58033=
201601221137 SPECI KATL 221137Z 10020G30KT 10SM -RA BKN005 OVC038 07/06 A2973 RMK AO2 PK WND 11037/1125 P0013 T00670056=
201601221052 METAR KATL 221052Z 10014KT 3SM +RA BR BKN010 OVC021 07/05 A2983 RMK AO2 SLP103 P0042 T00670050=
201601221042 SPECI KATL 221042Z 10013KT 3SM +RA BR BKN010 OVC021 07/05 A2984 RMK AO2 P0036 T00670050=
201601220952 METAR KATL 220952Z 12011G21KT 2 1/2SM +RA BR OVC005 07/05 A2985 RMK AO2 PK WND 11029/0919 PRESRR SLP112 P0035 T00670050=
201601220921 SPECI KATL 220921Z 12018G29KT 2SM +RA BR OVC005 07/05 A2984 RMK AO2 PK WND 11029/0919 P0014 T00670050=
201601220852 METAR KATL 220852Z 11020G28KT 5SM -RA BR OVC005 07/05 A2984 RMK AO2 PK WND 11028/0851 SLP107 P0008 60037 T00670050 58045=
201601220752 METAR KATL 220752Z 10017G24KT 7SM -RA BKN007 OVC011 07/05 A2988 RMK AO2 SLP120 P0015 T00670050=
201601220652 METAR KATL 220652Z 11016G22KT 5SM RA BR OVC007 07/05 A2994 RMK AO2 SLP140 P0014 T00720050=
201601220552 METAR KATL 220552Z 12011KT 2SM RA BR OVC006 07/06 A2998 RMK AO2 SFC VIS 3 SLP154 CIG 004V010 P0016 60073 T00720056 10072 20072 58017=
201601220452 METAR KATL 220452Z 11014G19KT 2SM RA BR OVC005 07/06 A2999 RMK AO2 SFC VIS 4 SLP159 CIG 004V007 P0020 T00720056 401000028=
201601220352 METAR KATL 220352Z 12010G17KT 2SM RA BR OVC005 07/06 A3004 RMK AO2 SFC VIS 4 SLP177 CIG 003V006 P0009 T00720056=
201601220252 METAR KATL 220252Z 10011KT 2SM RA BR OVC005 07/06 A3003 RMK AO2 SFC VIS 4 SLP171 CIG 003V007 P0007 60028 T00720056 58022=
201601220152 METAR KATL 220152Z 10012KT 2SM -RA BR BKN005 OVC015 07/06 A3007 RMK AO2 SFC VIS 5 SLP188 CIG 004V007 P0005 T00720056=
201601220052 METAR KATL 220052Z 10009KT 2SM RA BR OVC005 07/06 A3008 RMK AO2 SFC VIS 3 SLP191 CIG 004V007 P0016 T00720056=
201601212352 METAR KATL 212352Z 11010KT 2SM RA BR OVC005 07/06 A3009 RMK AO2 RAB36 SLP195 CIG 004V006 P0002 60010 T00720056 10100 20072 53003=
201601212252 METAR KATL 212252Z 10009KT 2 1/2SM BR BKN006 OVC015 07/06 A3009 RMK AO2 SFC VIS 4 RAE30 SLP192 CIG 004V009 P0004 T00720056=
201601212227 SPECI KATL 212227Z 10008KT 2 1/2SM -RA BR BKN006 OVC015 08/06 A3008 RMK AO2 SFC VIS 3 CIG 004V009 P0004 T00780061=
201601212212 SPECI KATL 212212Z 10008KT 1 1/4SM -RA BR BKN006 OVC015 08/06 A3008 RMK AO2 SFC VIS 2 CIG 004V009 P0003 T00780061=
201601212152 METAR KATL 212152Z 09009KT 2SM RA BR BKN008 OVC015 08/06 A3008 RMK AO2 SFC VIS 3 RAB22 SLP190 P0004 T00780061=
201601212150 SPECI KATL 212150Z 10008KT 2SM R09R/6000VP6000FT RA BR BKN008 OVC015 08/06 A3008 RMK AO2 SFC VIS 3 RAB22 P0004=
201601212145 SPECI KATL 212145Z 10009KT 2SM R09R/6000VP6000FT RA BR BKN010 OVC015 08/06 A3008 RMK AO2 SFC VIS 3 RAB22 P0002 T00780056=
201601212132 SPECI KATL 212132Z 11009KT 2SM -RA OVC010 08/06 A3008 RMK AO2 SFC VIS 3 RAB22 VIS LWR SE-SW SHRA P0001 T00830056=
201601212127 SPECI KATL 212127Z 12008KT 4SM -RA OVC011 08/06 A3008 RMK AO2 RAB22 VIS LWR SE-SW SHRA P0000 T00830056=
201601212052 METAR KATL 212052Z 11008KT 8SM OVC010 09/06 A3009 RMK AO2 SLP192 T00890056 56027=
201601211952 METAR KATL 211952Z 13007KT 9SM OVC012 09/05 A3011 RMK AO2 SLP199 T00940050=
201601211918 SPECI KATL 211918Z 11008KT 9SM OVC010 09/04 A3011 RMK AO2 T00890044=
201601211852 METAR KATL 211852Z 13007KT 8SM OVC009 09/04 A3013 RMK AO2 SLP208 T00890044=
201601211752 METAR KATL 211752Z VRB06KT 6SM HZ OVC009 08/04 A3017 RMK AO2 SLP220 60000 T00780044 10078 20044 58017=
201601211652 METAR KATL 211652Z 09003KT 6SM HZ OVC009 07/04 A3020 RMK AO2 RAB38E49 SLP233 P0000 T00720039=
201601211647 SPECI KATL 211647Z 10004KT 6SM -RA OVC009 07/04 A3021 RMK AO2 RAB38 P0000=
201601211630 SPECI KATL 211630Z 10004KT 6SM HZ OVC010 07/04 A3021 RMK AO2 T00720039=
201601211552 METAR KATL 211552Z 00000KT 7SM BKN008 OVC011 07/04 A3022 RMK AO2 SLP239 T00670039=
201601211452 METAR KATL 211452Z 12004KT 5SM HZ OVC010 07/03 A3019 RMK AO2 SLP230 T00670033 51012=
201601211352 METAR KATL 211352Z 10003KT 5SM HZ OVC008 06/03 A3017 RMK AO2 SLP224 T00560028=
201601211327 SPECI KATL 211327Z 11003KT 5SM BR OVC009 05/03 A3017 RMK AO2 T00500028=
201601211252 METAR KATL 211252Z 09003KT 6SM HZ OVC011 05/02 A3017 RMK AO2 SLP224 T00500022=
201601211152 METAR KATL 211152Z 08004KT 7SM OVC010 05/02 A3016 RMK AO2 SLP218 70006 T00500017 10050 20028 56003=
201601211052 METAR KATL 211052Z 05003KT 7SM OVC011 04/02 A3016 RMK AO2 SLP218 T00440017=
201601210952 METAR KATL 210952Z 09004KT 7SM OVC013 04/02 A3015 RMK AO2 SLP217 T00440017=
201601210852 METAR KATL 210852Z 36004KT 8SM OVC014 04/01 A3016 RMK AO2 SLP220 T00390011 58003=
201601210752 METAR KATL 210752Z 05003KT 8SM OVC015 04/01 A3018 RMK AO2 SLP224 T00390011=
201601210652 METAR KATL 210652Z 09003KT 6SM BR OVC016 03/01 A3017 RMK AO2 SLP222 T00330011=
201601210641 SPECI KATL 210641Z 06005KT 7SM OVC016 03/01 A3016 RMK AO2 T00330011=
201601210552 METAR KATL 210552Z 06003KT 7SM SCT028 BKN055 03/01 A3018 RMK AO2 SLP224 T00280006 10039 20028 58003=
201601210530 SPECI KATL 210530Z 03003KT 8SM SCT028 BKN055 03/01 A3018 RMK AO2 T00280006=
201601210452 METAR KATL 210452Z 06004KT 7SM BKN025 OVC060 03/01 A3019 RMK AO2 SLP229 T00330011 400721011=
201601210352 METAR KATL 210352Z 13003KT 7SM BKN025 OVC060 03/01 A3019 RMK AO2 SLP230 T00330011=
201601210340 SPECI KATL 210340Z 09004KT 8SM BKN024 OVC060 03/01 A3019 RMK AO2 T00330011=
201601210252 METAR KATL 210252Z 07004KT 8SM FEW020 BKN030 OVC060 03/01 A3019 RMK AO2 SLP229 T00330006 51004=
201601210152 METAR KATL 210152Z 06004KT 7SM FEW028 SCT035 BKN060 03/01 A3018 RMK AO2 SLP229 T00330011=
201601210052 METAR KATL 210052Z 04006KT 9SM BKN030 OVC036 03/01 A3018 RMK AO2 SLP229 T00330006=
201601202352 METAR KATL 202352Z 07006KT 9SM BKN027 OVC035 03/01 A3017 RMK AO2 SLP227 60006 T00330011 10072 20033 50003=
201601202252 METAR KATL 202252Z 06005KT 8SM BKN026 OVC050 04/02 A3018 RMK AO2 RAB27E37 SLP227 P0000 T00390017=
201601202152 METAR KATL 202152Z 08006KT 9SM BKN028 OVC050 04/02 A3017 RMK AO2 RAE38 SLP224 P0001 T00440017=
201601202138 SPECI KATL 202138Z 08003KT 10SM BKN030 BKN050 OVC080 05/02 A3016 RMK AO2 RAE38 P0001 T00500022=
201601202123 SPECI KATL 202123Z 08003KT 3SM -RA BKN029 BKN050 OVC080 05/02 A3016 RMK AO2 SFC VIS 4 P0001 T00500017=
201601202121 SPECI KATL 202121Z 08003KT 6SM -RA BKN029 OVC050 05/02 A3017 RMK AO2 P0001 T00500017=
201601202052 METAR KATL 202052Z 00000KT 8SM -RA OVC032 05/01 A3017 RMK AO2 RAB1957 SLP223 P0003 60005 T00500006 56013=
201601201952 METAR KATL 201952Z 19004KT 9SM BKN035 OVC050 06/01 A3017 RMK AO2 RAE47 SLP223 P0001 T00560006=
201601201852 METAR KATL 201852Z 00000KT 10SM -RA BKN043 BKN065 OVC080 06/M03 A3018 RMK AO2 RAB07 SLP227 P0001 T00611033=
201601201752 METAR KATL 201752Z 17008KT 10SM FEW040 SCT080 SCT110 BKN250 07/M07 A3021 RMK AO2 SLP235 SHRA DSNT SW-NW 60000 T00721067 10072 21006 58028=
201601201652 METAR KATL 201652Z 14004KT 10SM FEW040 SCT070 BKN090 BKN200 04/M07 A3026 RMK AO2 RAE02B40E49 SLP254 VIRGA NE & SE P0000 T00391072=
201601201552 METAR KATL 201552Z 15006KT 10SM -RA FEW040 BKN050 BKN090 02/M09 A3028 RMK AO2 RAE26B51 SLP264 VIRGA E-SE-S P0000 T00171089=
201601201518 SPECI KATL 201518Z 16007KT 8SM -RA BKN050 BKN080 OVC110 01/M09 A3028 RMK AO2 P0000 T00111094=
201601201452 METAR KATL 201452Z 12006KT 10SM -RA BKN050 BKN080 BKN110 01/M10 A3029 RMK AO2 RAB45 SLP267 VIRGA OHD-SW-NW-N P0000 60000 T00061100 56004=
201601201352 METAR KATL 201352Z 12007KT 10SM FEW002 BKN046 BKN110 00/M11 A3029 RMK AO2 SLP268 FU FEW002 NE T00001111=
201601201252 METAR KATL 201252Z 10007KT 10SM BKN110 M01/M11 A3029 RMK AO2 SLP266 VIRGA OHD-ALQDS T10061111=
201601201152 METAR KATL 201152Z 13004KT 10SM SCT120 BKN150 OVC200 M01/M11 A3030 RMK AO2 SLP271 T10061111 10000 21011 55005=
201601201052 METAR KATL 201052Z 14004KT 10SM FEW100 BKN150 BKN250 M01/M10 A3030 RMK AO2 SLP270 T10061100=
201601200952 METAR KATL 200952Z 15003KT 10SM BKN180 BKN250 M01/M10 A3030 RMK AO2 SLP271 T10111100=
201601200852 METAR KATL 200852Z 00000KT 10SM BKN180 BKN250 M01/M11 A3032 RMK AO2 SLP276 T10061111 55006=
201601200752 METAR KATL 200752Z 09005KT 10SM BKN180 BKN250 M01/M12 A3031 RMK AO2 SLP272 T10061117=
201601200652 METAR KATL 200652Z 09004KT 10SM FEW150 SCT180 BKN250 00/M12 A3032 RMK AO2 SLP275 T00001117=
201601200552 METAR KATL 200552Z 02004KT 10SM FEW150 BKN250 00/M14 A3034 RMK AO2 SLP283 T00001139 10011 21006 58014=
201601200452 METAR KATL 200452Z 36007KT 10SM SCT150 BKN200 00/M12 A3037 RMK AO2 SLP294 T00001122 400391067=
201601200352 METAR KATL 200352Z 34006KT 10SM BKN150 BKN200 M01/M12 A3038 RMK AO2 SLP299 T10061122=
201601200252 METAR KATL 200252Z 33006KT 10SM SCT170 BKN200 M01/M12 A3038 RMK AO2 SLP299 T10061122 50002=
201601200152 METAR KATL 200152Z 32006KT 10SM SCT180 M01/M12 A3038 RMK AO2 SLP302 T10061122=
201601200052 METAR KATL 200052Z 30005KT 10SM FEW200 00/M12 A3038 RMK AO2 SLP301 T00001122=
201601192352 METAR KATL 192352Z 31006KT 10SM SCT200 01/M13 A3037 RMK AO2 SLP298 T00061128 10039 20006 51004=
201601192252 METAR KATL 192252Z 28008KT 10SM FEW150 FEW250 02/M13 A3036 RMK AO2 SLP294 T00171133=
201601192152 METAR KATL 192152Z 30007KT 10SM FEW150 FEW250 03/M13 A3037 RMK AO2 SLP295 T00331133=
201601192052 METAR KATL 192052Z 33011KT 10SM FEW110 FEW250 04/M13 A3036 RMK AO2 SLP291 T00391133 55018=
201601191952 METAR KATL 191952Z 31008KT 10SM FEW110 03/M13 A3036 RMK AO2 SLP291 T00331128=
201601191852 METAR KATL 191852Z 31009KT 10SM FEW050 02/M13 A3038 RMK AO2 SLP298 T00221128=
201601191752 METAR KATL 191752Z 34011KT 10SM CLR 01/M14 A3041 RMK AO2 SLP311 T00061139 10006 21067 58003=
201601191652 METAR KATL 191652Z 31012KT 10SM CLR M01/M13 A3044 RMK AO2 SLP320 T10061133=
201601191552 METAR KATL 191552Z 33009KT 10SM CLR M02/M14 A3043 RMK AO2 SLP319 T10221144=
201601191452 METAR KATL 191452Z 33011KT 10SM CLR M04/M14 A3042 RMK AO2 SLP315 T10391144 51023=
201601191352 METAR KATL 191352Z 33014KT 10SM CLR M06/M15 A3040 RMK AO2 SLP307 T10561150=
201601191252 METAR KATL 191252Z 34012KT 10SM CLR M07/M14 A3038 RMK AO2 SLP303 T10671144=
201601191152 METAR KATL 191152Z 33008KT 10SM CLR M07/M13 A3035 RMK AO2 SLP291 T10671133 11044 21067 53008=
201601191052 METAR KATL 191052Z 33008KT 10SM CLR M06/M14 A3033 RMK AO2 SLP284 T10611139=
201601190952 METAR KATL 190952Z 32008KT 10SM CLR M06/M13 A3034 RMK AO2 SLP285 T10561133=
201601190852 METAR KATL 190852Z 32005KT 10SM CLR M06/M13 A3033 RMK AO2 SLP281 T10561128 58001=
201601190752 METAR KATL 190752Z 30007KT 10SM CLR M05/M13 A3033 RMK AO2 SLP282 T10501128=
201601190652 METAR KATL 190652Z 30007KT 10SM CLR M05/M13 A3033 RMK AO2 SLP282 T10501128=
201601190552 METAR KATL 190552Z 29005KT 10SM CLR M04/M13 A3033 RMK AO2 SLP281 T10441133 11006 21044 50006=
201601190452 METAR KATL 190452Z 31006KT 10SM CLR M04/M14 A3034 RMK AO2 SLP284 T10391139 400331039=
201601190352 METAR KATL 190352Z 31010KT 10SM CLR M03/M13 A3033 RMK AO2 SLP282 T10281133=
201601190252 METAR KATL 190252Z 32010KT 10SM CLR M03/M13 A3031 RMK AO2 SLP275 T10281128 51011=
201601190152 METAR KATL 190152Z 31009KT 10SM CLR M02/M13 A3030 RMK AO2 SLP273 T10171128=
201601190052 METAR KATL 190052Z 31010KT 10SM CLR M01/M13 A3030 RMK AO2 SLP270 T10111128=
201601182352 METAR KATL 182352Z 30009KT 10SM CLR M01/M13 A3028 RMK AO2 SLP263 T10061133 10033 21006 53020=
201601182252 METAR KATL 182252Z 31010KT 10SM CLR 01/M13 A3024 RMK AO2 SLP251 T00061128=
201601182152 METAR KATL 182152Z 30014KT 10SM CLR 02/M13 A3023 RMK AO2 SLP246 T00171128=
201601182052 METAR KATL 182052Z 30014KT 10SM FEW110 02/M14 A3021 RMK AO2 SLP240 T00221139 55004=
201601181952 METAR KATL 181952Z 28013KT 10SM FEW110 03/M13 A3021 RMK AO2 SLP240 T00281133=
201601181852 METAR KATL 181852Z 32013G21KT 10SM FEW070 FEW110 03/M13 A3021 RMK AO2 SLP239 T00281133=
201601181752 METAR KATL 181752Z 32013G20KT 10SM FEW065 02/M13 A3023 RMK AO2 SLP245 T00221133 10022 21017 50004=
201601181652 METAR KATL 181652Z 31011KT 10SM FEW110 01/M12 A3024 RMK AO2 SLP250 T00111117=
201601181552 METAR KATL 181552Z 31010KT 10SM FEW110 01/M10 A3024 RMK AO2 SLP249 T00061100=
201601181452 METAR KATL 181452Z 32016KT 10SM FEW100 00/M11 A3021 RMK AO2 SLP240 T00001106 53023=
201601181352 METAR KATL 181352Z 32014KT 10SM FEW022 FEW120 M01/M07 A3019 RMK AO2 SLP234 T10111067=
201601181252 METAR KATL 181252Z 32008KT 10SM FEW045 FEW100 M02/M07 A3016 RMK AO2 SLP223 T10171067=
201601181152 METAR KATL 181152Z 32016KT 10SM FEW045 FEW100 M01/M06 A3014 RMK AO2 SLP216 T10111061 10006 21011 53011=
201601181052 METAR KATL 181052Z 30010KT 10SM FEW045 FEW100 M01/M06 A3013 RMK AO2 SLP211 T10061056=
201601180952 METAR KATL 180952Z 29010KT 10SM CLR M01/M06 A3011 RMK AO2 SLP202 T10061056=
201601180852 METAR KATL 180852Z 29008KT 10SM CLR M01/M06 A3011 RMK AO2 SLP203 T10061056 52006=
201601180752 METAR KATL 180752Z 29007KT 10SM CLR 00/M06 A3011 RMK AO2 SLP201 T00001056=
201601180652 METAR KATL 180652Z 30008KT 10SM CLR 01/M05 A3010 RMK AO2 SLP197 T00061050=
201601180552 METAR KATL 180552Z 29005KT 10SM CLR 00/M05 A3009 RMK AO2 SLP197 T00001050 10050 20000 50004=
201601180452 METAR KATL 180452Z COR 29005KT 10SM CLR 01/M05 A3010 RMK AO2 SLP199 T00111050 400890006=
201601180352 METAR KATL 180352Z 31008KT 10SM CLR 02/M05 A3008 RMK AO2 SLP194 T00171050=
201601180252 METAR KATL 180252Z 31008KT 10SM CLR 03/M06 A3008 RMK AO2 SLP193 T00281056 51019=
201601180152 METAR KATL 180152Z 31011KT 10SM CLR 04/M06 A3008 RMK AO2 SLP194 T00391061=
201601180052 METAR KATL 180052Z 31010KT 10SM CLR 05/M05 A3004 RMK AO2 SLP180 T00501050=
201601172352 METAR KATL 172352Z 30007KT 10SM CLR 05/M04 A3002 RMK AO2 SLP173 T00501044 10089 20050 53027=
201601172252 METAR KATL 172252Z 33010KT 10SM CLR 07/M04 A2999 RMK AO2 SLP161 T00671044=
201601172152 METAR KATL 172152Z 31011KT 10SM FEW045 08/M04 A2997 RMK AO2 SLP155 T00781039=
201601172052 METAR KATL 172052Z 34016KT 10SM FEW040 08/M03 A2994 RMK AO2 SLP144 T00781033 53004=
201601171952 METAR KATL 171952Z 33012G22KT 10SM FEW036 08/M02 A2991 RMK AO2 SLP133 T00831017=
201601171852 METAR KATL 171852Z 31013G18KT 10SM FEW034 08/M02 A2991 RMK AO2 SLP133 T00781017=
201601171752 METAR KATL 171752Z 32016KT 10SM FEW030 07/M01 A2993 RMK AO2 SLP139 T00671011 10067 20017 50004=
201601171652 METAR KATL 171652Z 31011KT 10SM FEW024 06/M01 A2995 RMK AO2 SLP147 T00561006=
201601171552 METAR KATL 171552Z 32013KT 10SM FEW020 05/00 A2995 RMK AO2 SLP147 T00500000=
201601171452 METAR KATL 171452Z 31013KT 10SM SCT015 SCT250 03/M01 A2992 RMK AO2 SLP136 T00331006 51029=
201601171352 METAR KATL 171352Z 30009KT 7SM FEW009 BKN100 02/M01 A2990 RMK AO2 SLP128 T00171006=
201601171252 METAR KATL 171252Z 31013KT 7SM FEW007 BKN090 02/M01 A2986 RMK AO2 PRESRR SLP115 T00171006=
201601171225 SPECI KATL 171225Z 33013KT 6SM BR FEW006 OVC080 02/00 A2984 RMK AO2 T00170000=
201601171206 SPECI KATL 171206Z 32014KT 6SM BR BKN006 OVC070 02/01 A2984 RMK AO2 T00220006=
201601171152 METAR KATL 171152Z 32014KT 5SM BR FEW007 SCT039 OVC070 02/01 A2983 RMK AO2 RAE23SNB02E15 SLP105 P0001 60013 70013 T00220006 10050 20022 50007=
201601171052 METAR KATL 171052Z 32013KT 5SM -RA BR FEW007 SCT027 OVC039 03/01 A2984 RMK AO2 SLP107 P0002 T00280006=
201601171043 SPECI KATL 171043Z 33009KT 5SM -RA BR FEW027 OVC036 03/01 A2982 RMK AO2 P0002 T00280006=
201601171020 SPECI KATL 171020Z 32011KT 4SM -RA BR OVC027 03/01 A2984 RMK AO2 P0002 T00280011=
201601170952 METAR KATL 170952Z 32014KT 5SM -RA BR BKN034 OVC043 03/01 A2981 RMK AO2 SLP097 P0005 T00280011=
201601170852 METAR KATL 170852Z VRB06KT 4SM RA BR OVC034 03/01 A2981 RMK AO2 RAB13 SLP096 P0005 60005 T00330011 55000=
201601170752 METAR KATL 170752Z 33009KT 10SM BKN070 OVC090 04/00 A2977 RMK AO2 SLP084 VIRGA OHD-ALQDS T00390000=
201601170652 METAR KATL 170652Z 33007KT 10SM OVC110 04/01 A2979 RMK AO2 SLP089 VIRGA NW-NE T00440006=
201601170552 METAR KATL 170552Z 34008KT 10SM FEW100 OVC140 05/01 A2981 RMK AO2 SLP096 VIRGA OHD-ALQDS T00500011 10100 20050 58000=
201601170452 METAR KATL 170452Z COR 34012KT 10SM FEW110 OVC140 07/02 A2982 RMK AO2 SLP098 VIRGA W-N-NE T00670017 401500061=
201601170352 METAR KATL 170352Z 33009KT 10SM BKN150 OVC200 07/02 A2985 RMK AO2 SLP108 T00720017=
201601170252 METAR KATL 170252Z 36009KT 10SM SCT150 OVC200 08/03 A2981 RMK AO2 SLP097 T00780028 58011=
201601170152 METAR KATL 170152Z 36008KT 10SM SCT200 OVC250 09/02 A2984 RMK AO2 SLP105 T00890022=
201601170052 METAR KATL 170052Z 32007KT 10SM BKN200 OVC250 09/02 A2985 RMK AO2 SLP110 T00890017=
201601162352 METAR KATL 162352Z 33008KT 10SM BKN200 OVC250 10/00 A2985 RMK AO2 SLP108 T01000000 10150 20100 51007=
201601162252 METAR KATL 162252Z 33010KT 10SM FEW050 SCT200 BKN250 12/00 A2984 RMK AO2 SLP103 T01170000=
201601162152 METAR KATL 162152Z 32007KT 10SM FEW250 14/01 A2984 RMK AO2 SLP104 T01390006=
201601162052 METAR KATL 162052Z 29010KT 10SM FEW250 14/01 A2982 RMK AO2 SLP099 T01440006 55001=
201601161952 METAR KATL 161952Z 32011KT 10SM BKN250 14/01 A2982 RMK AO2 SLP095 T01440006=
201601161852 METAR KATL 161852Z 32011KT 10SM FEW200 14/02 A2982 RMK AO2 SLP098 T01440022=
201601161752 METAR KATL 161752Z 28007KT 10SM FEW030 14/04 A2983 RMK AO2 SLP101 T01390039 10139 20089 58005=
201601161652 METAR KATL 161652Z 28006KT 10SM FEW032 13/06 A2985 RMK AO2 SLP109 T01330056=
201601161552 METAR KATL 161552Z 29007KT 10SM FEW017 12/07 A2986 RMK AO2 SLP110 T01170072=
201601161452 METAR KATL 161452Z 29006KT 8SM SCT008 10/08 A2984 RMK AO2 SLP106 T01000078 53020=
201601161435 SPECI KATL 161435Z 30006KT 7SM FEW005 SCT011 10/08 A2984 RMK AO2 T01000078=
201601161420 SPECI KATL 161420Z 30008KT 6SM BR SCT005 BKN011 10/08 A2983 RMK AO2 T01000078=
201601161352 METAR KATL 161352Z 29007KT 2SM BR BKN005 10/08 A2982 RMK AO2 SFC VIS 5 SLP098 CIG 003V007 T01000083=
201601161339 SPECI KATL 161339Z 29007KT 2SM BR BKN004 09/08 A2982 RMK AO2 SFC VIS 4 VIS W-N 2 CIG 003V007 T00940083=
201601161252 METAR KATL 161252Z 25006KT 3SM BR FEW003 SCT030 09/07 A2979 RMK AO2 SFC VIS 4 SLP090 VIS W-N-NE 2 1/2 T00890072=
201601161228 SPECI KATL 161228Z 29006KT 3SM BR SCT006 SCT030 09/07 A2978 RMK AO2 SFC VIS 5 T00890072=
201601161152 METAR KATL 161152Z 25006KT 3SM BR BKN006 BKN030 10/08 A2978 RMK AO2 SFC VIS 5 SLP085 BKN006 V SCT 60000 70095 T01000083 10106 20094 51016=
201601161052 METAR KATL 161052Z 25008KT 3SM BR BKN006 11/09 A2978 RMK AO2 SFC VIS 6 SLP083 T01060089=
201601160952 METAR KATL 160952Z 25006KT 3SM BKN006 10/09 A2975 RMK AO2 SFC VIS 7 SLP076 T01000089=
201601160852 METAR KATL 160852Z 26005KT 3SM BR BKN005 11/09 A2973 RMK AO2 SFC VIS 6 SLP068 CIG 004V007 60000 T01060089 53004=
201601160831 SPECI KATL 160831Z 27008KT 3SM BR OVC005 11/09 A2973 RMK AO2 SFC VIS 6 T01060089=
201601160826 SPECI KATL 160826Z 25007KT 3SM BR BKN004 OVC008 11/09 A2973 RMK AO2 SFC VIS 5 T01060089=
201601160752 METAR KATL 160752Z 23006KT 3/4SM R09R/P6000FT BR BKN003 10/09 A2972 RMK AO2 SFC VIS 5 RAB39E48 SLP065 TWRINC P0000 T01000089=
201601160750 SPECI KATL 160750Z 23006KT 3/4SM R09R/P6000FT BR BKN003 10/09 A2972 RMK AO2 SFC VIS 5 RAB39E48 P0000=
201601160716 SPECI KATL 160716Z 23003KT 7SM BKN006 BKN010 10/09 A2972 RMK AO2 T01000089=
201601160652 METAR KATL 160652Z 27005KT 8SM FEW005 BKN011 10/09 A2972 RMK AO2 SLP065 CIG 009V015 T01000089=
201601160552 METAR KATL 160552Z 26005KT 8SM FEW005 BKN013 09/08 A2972 RMK AO2 SLP066 60000 T00940078 10106 20094 51002=
201601160452 METAR KATL 160452Z 26007KT 8SM SCT005 SCT050 10/08 A2972 RMK AO2 SLP067 T01000083 401060044=
201601160442 SPECI KATL 160442Z 26007KT 8SM SCT005 SCT050 10/09 A2972 RMK AO2 T01000089=
201601160352 METAR KATL 160352Z 27008KT 7SM BKN006 BKN015 OVC055 11/09 A2972 RMK AO2 DZE21 SLP067 CIG 004V008 P0000 T01060089=
201601160323 SPECI KATL 160323Z 26009KT 3SM BR BKN005 OVC025 11/09 A2972 RMK AO2 SFC VIS 5 DZE21 CIG 003V008 P0000 T01060094=
201601160252 METAR KATL 160252Z 27007KT 2SM -DZ BR BKN004 OVC015 11/09 A2972 RMK AO2 SFC VIS 3 DZB03 SLP064 CIG 003V006 P0000 60000 T01060094 51019=
201601160152 METAR KATL 160152Z 27007KT 2SM BR OVC004 10/09 A2970 RMK AO2 SFC VIS 4 DZE51 SLP060 CIG 002V005 P0000 T01000089=
201601160052 METAR KATL 160052Z 25005KT 2 1/2SM -DZ BR OVC004 10/08 A2968 RMK AO2 SFC VIS 3 DZB2357 SLP054 CIG 002V005 P0000 T01000083=
201601160031 SPECI KATL 160031Z 26005KT 2 1/2SM -DZ BR OVC004 10/08 A2967 RMK AO2 SFC VIS 3 DZB2357 CIG 003V005 P0000 T01000083=
201601152352 METAR KATL 152352Z 25006KT 8SM BKN007 OVC015 10/08 A2966 RMK AO2 SLP046 60001 T01000078 10100 20067 51018=
201601152324 SPECI KATL 152324Z 24005KT 10SM BKN008 OVC015 10/08 A2965 RMK AO2 T01000078=
201601152252 METAR KATL 152252Z 24006KT 10SM SCT007 BKN015 OVC035 10/08 A2964 RMK AO2 SLP040 SCT007 V BKN T01000078=
201601152152 METAR KATL 152152Z 25009KT 10SM OVC007 10/08 A2962 RMK AO2 SLP033 T01000078=
201601152052 METAR KATL 152052Z 26010KT 10SM OVC007 10/08 A2960 RMK AO2 SLP026 60001 T01000078 53012=
201601151952 METAR KATL 151952Z 27006KT 10SM BKN006 OVC019 09/07 A2957 RMK AO2 SLP015 T00940072=
201601151928 SPECI KATL 151928Z 28006KT 10SM BKN006 OVC019 09/07 A2956 RMK AO2 T00940072=
201601151859 SPECI KATL 151859Z 30005KT 10SM SCT006 BKN019 BKN110 09/07 A2956 RMK AO2 T00890067=
201601151852 METAR KATL 151852Z 28005KT 10SM SCT006 SCT019 BKN110 09/07 A2956 RMK AO2 RAE21 SLP013 P0001 T00890067=
201601151752 METAR KATL 151752Z 02011KT 9SM -RA FEW005 SCT050 OVC080 07/05 A2957 RMK AO2 SLP016 P0014 60094 T00670050 10067 20044 58020=
201601151717 SPECI KATL 151717Z 01015G20KT 3SM RA BR FEW005 SCT015 OVC046 06/04 A2959 RMK AO2 SFC VIS 4 PRESFR P0011 T00560039=
201601151700 SPECI KATL 151700Z 35012KT 2SM +RA BR FEW005 BKN015 OVC040 05/04 A2962 RMK AO2 SFC VIS 3 P0004 T00500039=
201601151656 SPECI KATL 151656Z 34012KT 2SM +RA BR FEW005 BKN015 OVC040 05/04 A2963 RMK AO2 SFC VIS 3 P0001 T00500039=
201601151654 SPECI KATL 151654Z 34011KT 1 3/4SM +RA BR SCT005 OVC034 05/04 A2962 RMK AO2 TWR VIS 2 P0000 T00500039=
201601151652 METAR KATL 151652Z 34012KT 2SM +RA BR BKN005 BKN015 OVC040 05/04 A2963 RMK AO2 SFC VIS 4 SLP035 P0021 T00500039=
201601151611 SPECI KATL 151611Z 34010KT 2SM R09R/6000VP6000FT RA BR BKN005 OVC010 06/04 A2964 RMK AO2 P0007 T00560039=
201601151552 METAR KATL 151552Z 34008KT 2SM -RA BR OVC005 06/04 A2965 RMK AO2 SFC VIS 5 RAE03B52 SLP044 P0000 T00560039=
201601151515 SPECI KATL 151515Z 02013G19KT 2SM BR OVC005 06/04 A2961 RMK AO2 SFC VIS 6 RAE03 P0000 T00560039=
201601151452 METAR KATL 151452Z 36009KT 1 1/2SM -RA BR OVC005 06/04 A2963 RMK AO2 SFC VIS 5 SLP037 P0009 60059 T00560039 58049=
201601151405 SPECI KATL 151405Z 04017KT 1 1/2SM -RA BR BKN005 OVC010 05/03 A2967 RMK AO2 SFC VIS 4 P0002 T00500033=
201601151352 METAR KATL 151352Z 04013KT 1/2SM R09R/P6000FT RA BR OVC004 05/03 A2969 RMK AO2 SFC VIS 2 1/2 SLP055 CIG 003V005 TWRINC P0031 T00500033=
201601151341 SPECI KATL 151341Z 05012KT 1/2SM R09R/P6000FT +RA BR OVC004 05/03 A2970 RMK AO2 SFC VIS 2 1/2 PRESFR CIG 003V005 TWRINC P0027 T00500033=
201601151338 SPECI KATL 151338Z 04012KT 1 1/2SM +RA BR OVC004 05/03 A2970 RMK AO2 SFC VIS 2 1/2 CIG 003V006 P0026 T00500033=
201601151300 SPECI KATL 151300Z 04010KT 1 1/2SM +RA BR BKN006 OVC012 05/03 A2974 RMK AO2 SFC VIS 2 CIG 004V008 P0008 T00500033=
201601151252 METAR KATL 151252Z 04010KT 2 1/2SM RA BR BKN006 OVC014 05/03 A2975 RMK AO2 SLP078 CIG 004V008 P0019 T00500033=
201601151218 SPECI KATL 151218Z 06010KT 3SM RA BR FEW006 OVC012 04/03 A2977 RMK AO2 P0008 T00440028=
201601151152 METAR KATL 151152Z 06009KT 3SM RA BR OVC010 04/03 A2978 RMK AO2 SLP088 CIG 009V013 P0028 60050 70050 T00440028 10078 20044 56022=
201601151057 SPECI KATL 151057Z 05009KT 2SM +RA OVC012 04/02 A2980 RMK AO2 P0004 T00440017=
201601151052 METAR KATL 151052Z 06008KT 1 3/4SM +RA BKN012 OVC022 04/02 A2980 RMK AO2 SLP092 P0022 T00440017=
201601151040 SPECI KATL 151040Z 05009KT 2SM +RA BKN014 OVC033 05/01 A2980 RMK AO2 P0010 T00500011=
201601151022 SPECI KATL 151022Z 07008KT 5SM -RA SCT018 BKN028 OVC050 06/01 A2981 RMK AO2 P0001 T00610011=
201601150952 METAR KATL 150952Z 09008KT 10SM -RA BKN030 OVC042 07/M01 A2982 RMK AO2 RAB42 SLP098 P0000 T00721011=
201601150852 METAR KATL 150852Z 10006KT 10SM OVC100 07/M02 A2985 RMK AO2 SLP108 VIRGA SE-SW-NW T00721017 58039=
201601150752 METAR KATL 150752Z 12006KT 10SM BKN120 OVC200 07/M02 A2989 RMK AO2 SLP122 T00671017=
201601150652 METAR KATL 150652Z 14005KT 10SM SCT130 BKN200 OVC250 06/M02 A2993 RMK AO2 SLP137 T00561022=
201601150552 METAR KATL 150552Z 15006KT 10SM FEW150 SCT200 BKN250 07/M02 A2997 RMK AO2 SLP148 T00671022 10106 20067 58019=
201601150452 METAR KATL 150452Z 17006KT 10SM FEW200 BKN250 07/M03 A3000 RMK AO2 SLP162 T00721028 401561006=
201601150352 METAR KATL 150352Z 17006KT 10SM BKN200 BKN250 08/M03 A3002 RMK AO2 SLP167 T00781028=
201601150252 METAR KATL 150252Z 18006KT 10SM SCT200 BKN250 08/M03 A3002 RMK AO2 SLP170 T00831028 56011=
201601150152 METAR KATL 150152Z 17008KT 10SM FEW200 OVC250 10/M03 A3004 RMK AO2 SLP175 T01001033=
201601150052 METAR KATL 150052Z 17005KT 10SM OVC250 10/M03 A3004 RMK AO2 SLP178 T01001028=
201601142352 METAR KATL 142352Z 18005KT 10SM OVC250 11/M02 A3006 RMK AO2 SLP183 T01061017 10156 20106 55001=
201601142252 METAR KATL 142252Z 18005KT 10SM BKN250 12/M01 A3005 RMK AO2 SLP182 T01171011=
201601142152 METAR KATL 142152Z 20005KT 10SM BKN250 14/M02 A3006 RMK AO2 SLP183 T01391022=
201601142052 METAR KATL 142052Z 20006KT 10SM BKN250 14/M03 A3006 RMK AO2 SLP182 T01441033 56019=
201601141952 METAR KATL 141952Z 23010KT 10SM FEW200 BKN250 15/M03 A3007 RMK AO2 SLP184 T01501033=
201601141852 METAR KATL 141852Z 22007KT 10SM FEW250 14/M01 A3008 RMK AO2 SLP189 T01441011=
201601141752 METAR KATL 141752Z 26007KT 10SM SCT250 14/M01 A3012 RMK AO2 SLP203 T01391006 10139 20011 58015=
201601141652 METAR KATL 141652Z 29009KT 10SM BKN250 13/00 A3015 RMK AO2 PRESFR SLP214 T01280000=
201601141552 METAR KATL 141552Z 25008KT 10SM FEW250 11/M01 A3018 RMK AO2 SLP225 T01061011=
201601141452 METAR KATL 141452Z 24005KT 10SM FEW250 08/M02 A3016 RMK AO2 SLP219 T00831017 53004=
201601141352 METAR KATL 141352Z 21003KT 10SM FEW200 FEW250 05/M01 A3015 RMK AO2 SLP215 T00501011=
201601141252 METAR KATL 141252Z 26003KT 10SM FEW200 01/M04 A3015 RMK AO2 SLP216 T00111039=
201601141152 METAR KATL 141152Z 23004KT 10SM FEW200 01/M04 A3015 RMK AO2 SLP217 T00111044 10022 21006 53006=
201601141052 METAR KATL 141052Z 23004KT 10SM CLR 01/M04 A3013 RMK AO2 SLP208 T00111044=
201601140952 METAR KATL 140952Z 00000KT 10SM CLR 01/M05 A3013 RMK AO2 SLP208 T00061050=
201601140852 METAR KATL 140852Z 25003KT 10SM CLR 02/M05 A3013 RMK AO2 SLP209 T00171050 56003=
201601140752 METAR KATL 140752Z 22005KT 10SM CLR 02/M05 A3014 RMK AO2 SLP210 T00171050=
201601140652 METAR KATL 140652Z 23005KT 10SM FEW250 02/M05 A3013 RMK AO2 SLP209 T00171050=
201601140552 METAR KATL 140552Z 21004KT 10SM SCT250 02/M05 A3014 RMK AO2 SLP213 T00171050 10061 20011 56013=
201601140452 METAR KATL 140452Z 22003KT 10SM FEW250 01/M05 A3015 RMK AO2 SLP216 T00111050 401061011=
201601140352 METAR KATL 140352Z 00000KT 10SM FEW250 02/M06 A3016 RMK AO2 SLP221 T00221056=
201601140252 METAR KATL 140252Z 00000KT 10SM FEW250 03/M06 A3018 RMK AO2 SLP229 T00331061 53001=
201601140152 METAR KATL 140152Z 30003KT 10SM FEW250 04/M06 A3017 RMK AO2 SLP226 T00441061=
201601140052 METAR KATL 140052Z 29004KT 10SM FEW250 05/M07 A3018 RMK AO2 SLP228 T00501067=
201601132352 METAR KATL 132352Z 32004KT 10SM FEW250 06/M06 A3018 RMK AO2 SLP228 T00611061 10106 20061 53002=
201601132252 METAR KATL 132252Z 32007KT 10SM FEW250 08/M07 A3015 RMK AO2 SLP216 T00781067=
201601132152 METAR KATL 132152Z 31010KT 10SM FEW250 09/M06 A3016 RMK AO2 SLP220 T00941061=
201601132052 METAR KATL 132052Z 27012KT 10SM FEW250 10/M06 A3017 RMK AO2 SLP222 T01001061 55010=
201601131952 METAR KATL 131952Z 30009KT 10SM FEW250 10/M06 A3017 RMK AO2 SLP222 T01001061=
201601131852 METAR KATL 131852Z 28012G15KT 10SM FEW250 09/M07 A3020 RMK AO2 SLP231 T00891072=
201601131752 METAR KATL 131752Z VRB05KT 10SM FEW250 08/M08 A3020 RMK AO2 SLP232 T00781083 10078 21011 58020=
201601131652 METAR KATL 131652Z 32011KT 10SM CLR 07/M09 A3023 RMK AO2 SLP242 T00671089=
201601131552 METAR KATL 131552Z 31009KT 10SM CLR 04/M09 A3026 RMK AO2 SLP251 T00441094=
201601131452 METAR KATL 131452Z 30006KT 10SM CLR 02/M09 A3026 RMK AO2 SLP255 T00221094 53021=
201601131352 METAR KATL 131352Z 28006KT 10SM CLR 01/M08 A3023 RMK AO2 SLP244 T00061083=
201601131252 METAR KATL 131252Z 25003KT 10SM CLR M01/M08 A3021 RMK AO2 SLP238 T10111078=
201601131152 METAR KATL 131152Z 26003KT 10SM CLR M01/M07 A3020 RMK AO2 SLP234 T10111072 10039 21011 53005=
201601131052 METAR KATL 131052Z 31005KT 10SM CLR M01/M07 A3018 RMK AO2 SLP227 T10061067=
201601130952 METAR KATL 130952Z 32007KT 10SM CLR 01/M07 A3018 RMK AO2 SLP224 T00061067=
201601130852 METAR KATL 130852Z 32007KT 10SM CLR 01/M06 A3018 RMK AO2 SLP226 T00111056 53009=
201601130752 METAR KATL 130752Z 32006KT 10SM CLR 02/M05 A3017 RMK AO2 SLP221 T00221050=
201601130652 METAR KATL 130652Z 35012KT 10SM CLR 03/M03 A3016 RMK AO2 SLP215 T00331033=
201601130552 METAR KATL 130552Z 32007KT 10SM CLR 03/M03 A3016 RMK AO2 SLP216 T00331028 10089 20033 50007=
201601130452 METAR KATL 130452Z 28007KT 10SM CLR 04/M03 A3016 RMK AO2 SLP218 T00441028 401171022=
201601130352 METAR KATL 130352Z 26005KT 10SM CLR 05/M03 A3015 RMK AO2 SLP214 T00501028=
201601130252 METAR KATL 130252Z 27006KT 10SM CLR 05/M03 A3013 RMK AO2 SLP210 T00501028 53013=
201601130152 METAR KATL 130152Z 26008KT 10SM CLR 07/M03 A3011 RMK AO2 SLP202 T00721033=
201601130052 METAR KATL 130052Z 26006KT 10SM CLR 08/M03 A3011 RMK AO2 SLP201 T00781033=
201601122352 METAR KATL 122352Z 26008KT 10SM CLR 09/M04 A3010 RMK AO2 SLP197 T00891039 10117 20089 53009=
201601122252 METAR KATL 122252Z 27009KT 10SM CLR 09/M04 A3007 RMK AO2 SLP190 T00941039=
201601122152 METAR KATL 122152Z 27012KT 10SM FEW065 11/M04 A3008 RMK AO2 SLP190 T01111044=
201601122052 METAR KATL 122052Z 29014KT 10SM FEW070 12/M04 A3007 RMK AO2 SLP188 T01171044 58016=
201601121952 METAR KATL 121952Z 25014G24KT 10SM FEW065 12/M04 A3008 RMK AO2 PK WND 28028/1853 SLP191 T01171044=
201601121852 METAR KATL 121852Z 28018G27KT 10SM CLR 11/M04 A3011 RMK AO2 PK WND 28027/1850 SLP201 T01061044=
201601121752 SPECI KATL 121752Z 24013G20KT 10SM CLR 09/M05 A3012 RMK AO2 SLP204 T00941050 10094 21011 58020=
201601121752 METAR KATL 121752Z 24013G20KT 10SM CLR 09/M05 A3012 RMK AO2 SLP204 T00941050 10094 21011 58020=
201601121652 METAR KATL 121652Z 27010KT 10SM CLR 08/M06 A3017 RMK AO2 SLP224 T00781056=
201601121552 METAR KATL 121552Z 26013G17KT 10SM CLR 07/M07 A3019 RMK AO2 SLP229 T00671067=
201601121452 METAR KATL 121452Z 27010KT 10SM CLR 04/M08 A3018 RMK AO2 SLP227 T00441083 53015=
201601121352 METAR KATL 121352Z 23007KT 10SM CLR 02/M08 A3016 RMK AO2 SLP221 T00171083=
201601121252 METAR KATL 121252Z 25005KT 10SM CLR 00/M09 A3014 RMK AO2 SLP214 T00001094=
201601121152 METAR KATL 121152Z 25004KT 10SM CLR M01/M09 A3013 RMK AO2 SLP213 T10061094 10000 21022 55004=
201601121052 METAR KATL 121052Z 23004KT 10SM CLR M02/M09 A3012 RMK AO2 SLP207 T10221089=
201601120952 METAR KATL 120952Z 23003KT 10SM CLR M02/M09 A3013 RMK AO2 SLP211 T10171089=
201601120852 METAR KATL 120852Z 25003KT 10SM CLR M02/M08 A3014 RMK AO2 SLP216 T10171083 58005=
201601120752 METAR KATL 120752Z 00000KT 10SM FEW220 M01/M09 A3015 RMK AO2 SLP218 T10111089=
201601120652 METAR KATL 120652Z 00000KT 10SM SCT220 M01/M08 A3015 RMK AO2 SLP219 T10061078=
201601120552 METAR KATL 120552Z 22003KT 10SM BKN200 00/M09 A3016 RMK AO2 SLP221 T00001089 10039 21011 58009=
201601120452 METAR KATL 120452Z 00000KT 10SM BKN200 M01/M09 A3018 RMK AO2 SLP230 T10061089 400721050=
201601120352 METAR KATL 120352Z 30003KT 10SM FEW250 00/M09 A3019 RMK AO2 SLP233 T00001094=
201601120252 METAR KATL 120252Z 31003KT 10SM FEW250 01/M11 A3019 RMK AO2 SLP233 T00061106 53002=
201601120152 METAR KATL 120152Z 33005KT 10SM SCT250 02/M11 A3018 RMK AO2 SLP232 T00171111=
201601120052 METAR KATL 120052Z 00000KT 10SM FEW150 SCT250 02/M12 A3018 RMK AO2 SLP230 T00221117=
201601112352 METAR KATL 112352Z 00000KT 10SM FEW150 04/M13 A3018 RMK AO2 SLP231 T00391133 10072 20033 53007=
201601112252 METAR KATL 112252Z 31005KT 10SM FEW150 04/M13 A3016 RMK AO2 SLP224 T00391128=
201601112152 METAR KATL 112152Z 32006KT 10SM SCT160 SCT250 06/M13 A3016 RMK AO2 SLP221 T00611133=
201601112052 METAR KATL 112052Z 32005KT 10SM FEW150 FEW250 07/M12 A3016 RMK AO2 SLP221 T00671122 56016=
201601111952 METAR KATL 111952Z 28007KT 10SM FEW150 FEW250 07/M12 A3016 RMK AO2 SLP222 T00671117=
201601111852 METAR KATL 111852Z 32007KT 10SM FEW150 FEW250 06/M12 A3018 RMK AO2 SLP227 T00561122=
201601111752 METAR KATL 111752Z 35007KT 10SM FEW150 SCT250 04/M12 A3021 RMK AO2 SLP237 T00441117 10044 21050 58006=
201601111652 METAR KATL 111652Z 31007KT 10SM FEW150 FEW180 SCT250 02/M11 A3025 RMK AO2 SLP252 T00221111=
201601111552 METAR KATL 111552Z 31006KT 10SM FEW150 SCT180 BKN250 M01/M11 A3026 RMK AO2 SLP259 T10061106=
201601111452 METAR KATL 111452Z 31009KT 10SM FEW150 SCT180 BKN200 M03/M11 A3023 RMK AO2 SLP246 T10281106 53012=
201601111352 METAR KATL 111352Z 34008KT 10SM FEW150 SCT180 BKN220 M04/M11 A3019 RMK AO2 SLP236 T10441106=
201601111252 METAR KATL 111252Z 31006KT 10SM SCT220 M05/M10 A3019 RMK AO2 SLP234 T10501100=
201601111152 METAR KATL 111152Z 32006KT 10SM FEW250 M05/M10 A3019 RMK AO2 SLP234 T10501100 11017 21050 53007=
201601111052 METAR KATL 111052Z 32011KT 10SM CLR M04/M09 A3017 RMK AO2 SLP226 T10441094=
201601110952 METAR KATL 110952Z 33012KT 10SM CLR M04/M09 A3016 RMK AO2 SLP221 T10391089=
201601110852 METAR KATL 110852Z 32013KT 10SM CLR M03/M08 A3017 RMK AO2 SLP225 T10331078 53009=
201601110752 METAR KATL 110752Z 33011KT 10SM CLR M03/M07 A3016 RMK AO2 SLP221 T10281072=
201601110652 METAR KATL 110652Z 33012KT 10SM CLR M02/M07 A3014 RMK AO2 SLP216 T10221067=
201601110552 METAR KATL 110552Z 32010KT 10SM CLR M02/M06 A3014 RMK AO2 SLP214 T10171061 10028 21017 50008=
201601110452 METAR KATL 110452Z 30009KT 10SM CLR M01/M06 A3014 RMK AO2 SLP215 T10111056 401171011=
201601110352 METAR KATL 110352Z 31010KT 10SM FEW022 M01/M06 A3012 RMK AO2 SLP207 T10061061=
201601110252 METAR KATL 110252Z 31010KT 10SM FEW032 00/M06 A3011 RMK AO2 SLP205 T00001061 51014=
201601110152 METAR KATL 110152Z 32015G22KT 10SM FEW028 SCT036 01/M05 A3011 RMK AO2 SLP202 T00111050=
201601110052 METAR KATL 110052Z 30011KT 10SM BKN034 02/M04 A3009 RMK AO2 SLP197 T00221039=
201601102352 METAR KATL 102352Z 32015G23KT 10SM SCT026 BKN036 02/M04 A3007 RMK AO2 SLP189 T00221039 10044 20022 51022=
201601102331 SPECI KATL 102331Z 31016G22KT 10SM BKN026 OVC034 03/M03 A3006 RMK AO2 T00281028=
201601102252 METAR KATL 102252Z 30011G20KT 10SM FEW026 OVC034 03/M02 A3005 RMK AO2 SLP180 BINOVC T00331022=
201601102201 SPECI KATL 102201Z 31016G20KT 10SM SCT024 OVC034 03/M02 A3003 RMK AO2 T00331022=
201601102152 METAR KATL 102152Z 30015KT 10SM BKN025 OVC032 03/M02 A3003 RMK AO2 SLP173 T00331022=
201601102118 SPECI KATL 102118Z 30016G22KT 10SM OVC028 04/M02 A3002 RMK AO2 T00391022=
201601102052 METAR KATL 102052Z 29015G20KT 10SM OVC033 04/M02 A3000 RMK AO2 SLP164 T00441022 53015=
201601102038 SPECI KATL 102038Z 31013G24KT 10SM OVC030 04/M02 A3000 RMK AO2 T00391022=
201601101952 METAR KATL 101952Z 29011G20KT 10SM OVC029 04/M02 A2998 RMK AO2 SLP156 T00441017=
201601101852 METAR KATL 101852Z 28016G23KT 10SM BKN025 OVC031 04/M01 A2997 RMK AO2 SLP152 T00391011=
201601101840 SPECI KATL 101840Z 29013G21KT 10SM BKN025 OVC031 04/M01 A2997 RMK AO2 T00441006=
201601101810 SPECI KATL 101810Z 30016KT 10SM SCT023 OVC031 04/M01 A2996 RMK AO2 T00441006=
201601101752 METAR KATL 101752Z 29016G22KT 10SM BKN022 OVC033 04/M01 A2996 RMK AO2 SLP148 T00441006 10072 20033 50007=
201601101652 METAR KATL 101652Z 31017KT 10SM FEW021 BKN028 OVC033 05/00 A2996 RMK AO2 SLP150 T00500000=
201601101552 METAR KATL 101552Z 30012G22KT 10SM BKN022 04/00 A2996 RMK AO2 SLP148 BINOVC T00440000=
201601101452 METAR KATL 101452Z 29014G22KT 10SM OVC018 04/M01 A2994 RMK AO2 PK WND 32028/1400 SLP141 T00391006 53047=
201601101415 SPECI KATL 101415Z 29020G25KT 10SM BKN015 OVC019 04/M01 A2990 RMK AO2 PK WND 32028/1400 T00391006=
201601101359 SPECI KATL 101359Z 31020G27KT 10SM OVC013 04/01 A2989 RMK AO2 PK WND 31027/1355 T00440011=
201601101352 METAR KATL 101352Z 31019G24KT 10SM OVC015 05/02 A2988 RMK AO2 SLP120 T00500017=
201601101252 METAR KATL 101252Z 28014G25KT 10SM FEW014 OVC022 06/02 A2984 RMK AO2 SLP106 T00560017=
201601101248 SPECI KATL 101248Z 28014G25KT 10SM FEW014 OVC022 06/02 A2984 RMK AO2=
201601101207 SPECI KATL 101207Z 30017G24KT 10SM OVC014 07/03 A2981 RMK AO2 T00670033=
201601101152 METAR KATL 101152Z 28011KT 10SM BKN016 OVC022 07/04 A2979 RMK AO2 SLP091 BINOVC 60006 70043 T00720039 10117 20072 53024=
201601101052 METAR KATL 101052Z 27010G18KT 10SM OVC023 07/03 A2976 RMK AO2 SLP080 T00720033=
201601101006 SPECI KATL 101006Z 28013G18KT 10SM FEW015 BKN029 08/04 A2974 RMK AO2 T00780039=
201601100952 METAR KATL 100952Z 27009KT 10SM FEW015 SCT027 08/04 A2974 RMK AO2 SLP073 T00780044=
201601100915 SPECI KATL 100915Z 26012KT 10SM SCT015 SCT023 08/05 A2973 RMK AO2 T00830050=
201601100905 SPECI KATL 100905Z 27012KT 10SM BKN018 BKN023 08/06 A2973 RMK AO2 T00830061=
201601100852 METAR KATL 100852Z 27013G19KT 10SM FEW012 SCT018 SCT050 09/06 A2972 RMK AO2 SLP065 60006 T00890061 51013=
201601100809 SPECI KATL 100809Z 26013KT 10SM FEW009 SCT018 09/07 A2971 RMK AO2 T00940072=
201601100752 METAR KATL 100752Z 26008KT 10SM BKN009 BKN018 BKN045 10/08 A2971 RMK AO2 RAE07 SLP061 BKN009 V SCT P0000 T01000083=
201601100652 METAR KATL 100652Z 27009KT 8SM -RA FEW008 OVC045 11/09 A2970 RMK AO2 SLP058 P0006 T01060089=
201601100629 SPECI KATL 100629Z 27010G17KT 7SM -RA FEW003 SCT011 OVC050 11/09 A2970 RMK AO2 P0006 T01110094=
201601100621 SPECI KATL 100621Z 27012G25KT 5SM -RA BR SCT003 BKN008 OVC032 12/10 A2969 RMK AO2 P0006 T01170100=
201601100552 METAR KATL 100552Z 20004KT 8SM -RA OVC004 11/10 A2968 RMK AO2 RAB43 SLP051 CIG 003V005 P0000 60037 T01110100 10111 20100 58006=
201601100537 SPECI KATL 100537Z 18005KT 8SM OVC004 11/09 A2968 RMK AO2 CIG 003V005 T01060094=
201601100452 METAR KATL 100452Z 14003KT 10SM OVC007 11/09 A2969 RMK AO2 RAB22E47 SLP054 CIG 006V008 P0000 T01060089 401060083=
201601100412 SPECI KATL 100412Z 32005KT 10SM FEW007 BKN012 OVC017 11/09 A2971 RMK AO2 T01060094=
201601100352 METAR KATL 100352Z 00000KT 10SM FEW004 BKN024 OVC042 11/09 A2970 RMK AO2 RAE42 SLP059 P0012 T01060089=
201601100343 SPECI KATL 100343Z 00000KT 10SM SCT006 BKN016 OVC044 11/09 A2970 RMK AO2 RAE42 P0012 T01060094=
201601100252 METAR KATL 100252Z 13005KT 2SM RA BR BKN004 OVC012 10/09 A2970 RMK AO2 SFC VIS 3 RAB15 SLP058 CIG 003V006 P0009 60025 T01000089 56020=
201601100230 SPECI KATL 100230Z 13007KT 2SM -RA BR OVC004 10/09 A2971 RMK AO2 SFC VIS 3 RAB15 CIG 003V006 P0001 T01000089=
201601100206 SPECI KATL 100206Z 12005KT 10SM OVC006 10/09 A2972 RMK AO2 CIG 004V008 T01000089=
201601100152 METAR KATL 100152Z 13007KT 1 1/2SM OVC005 10/08 A2972 RMK AO2 SFC VIS 8 RAE43 SLP065 CIG 003V007 TWRINC P0008 T01000083=
201601100052 METAR KATL 100052Z 12009KT 1 1/2SM -RA BR BKN004 OVC016 10/09 A2973 RMK AO2 SFC VIS 4 RAB2355 SLP069 CIG 003V005 TWRINC P0008 T01000089=
201601100004 SPECI KATL 100004Z 12008KT 1 1/2SM -RA BR OVC004 10/08 A2975 RMK AO2 SFC VIS 4 RAB2355 CIG 003V005 TWRINC P0000 T01000083=
201601092352 METAR KATL 092352Z 13007KT 3SM BR OVC004 10/08 A2976 RMK AO2 SFC VIS 6 RAB05E19 SLP079 CIG 003V005 P0000 60000 T01000083 10106 20100 55013=
201601092307 SPECI KATL 092307Z 13010KT 4SM -RA BR OVC006 10/08 A2975 RMK AO2 RAB05 CIG 005V007 P0000 T01000078=
201601092304 SPECI KATL 092304Z 12012G18KT 8SM OVC006 10/08 A2975 RMK AO2 CIG 005V007 T01000078=
201601092252 METAR KATL 092252Z 12011G18KT 9SM OVC006 10/08 A2975 RMK AO2 SLP075 CIG 005V007 T01000078=
201601092152 METAR KATL 092152Z 11011KT 6SM BR OVC005 10/08 A2977 RMK AO2 SLP082 CIG 004V006 T01000078=
201601092052 METAR KATL 092052Z 12011KT 7SM OVC007 10/08 A2980 RMK AO2 SLP093 T01000078 58028=
201601091952 METAR KATL 091952Z 12007KT 7SM OVC008 10/08 A2984 RMK AO2 SLP107 T01000078=
201601091852 METAR KATL 091852Z 13008KT 8SM OVC009 10/07 A2988 RMK AO2 SLP119 T01000072=
201601091752 METAR KATL 091752Z 09010KT 7SM BKN008 BKN012 OVC050 11/08 A2989 RMK AO2 SLP121 60000 T01060078 10106 20083 58026=
201601091726 SPECI KATL 091726Z 09007KT 7SM BKN007 OVC011 11/08 A2992 RMK AO2 T01060083=
201601091652 METAR KATL 091652Z 10010KT 2SM BR OVC005 10/08 A2993 RMK AO2 SFC VIS 5 SLP136 T01000083=
201601091552 METAR KATL 091552Z 10007KT 1/4SM R09R/P6000FT BR OVC003 09/08 A2998 RMK AO2 SFC VIS 2 1/2 SLP155 T00890078=
201601091452 METAR KATL 091452Z 10008KT 1/4SM R09R/P6000FT BR OVC002 09/08 A2997 RMK AO2 SFC VIS 2 SLP149 60000 T00890078 56001=
201601091352 METAR KATL 091352Z 09009KT 1/4SM R09R/P6000FT BR OVC003 09/08 A2997 RMK AO2 SFC VIS 1 1/2 SLP151 CIG 002V004 TWRINC T00890078=
201601091252 METAR KATL 091252Z 08011KT 1/4SM R09R/3000V4000FT BR VV002 09/08 A2996 RMK AO2 SFC VIS 3/4 DZE44 SLP145 P0000 T00890078=
201601091237 SPECI KATL 091237Z 08010KT 1/4SM R09R/3000V5000FT -DZ BR VV002 09/08 A2997 RMK AO2 SFC VIS 3/4 P0000 T00890078=
201601091226 SPECI KATL 091226Z 08009KT 3/4SM R09R/3500VP6000FT -DZ BR OVC002 09/08 A2997 RMK AO2 TWR VIS 1 P0000 T00890078=
201601091152 METAR KATL 091152Z 10009KT 1SM R09R/5000VP6000FT -DZ BR OVC003 09/08 A2997 RMK AO2 SLP151 CIG 002V005 P0000 60000 T00890078 10100 20089 53001=
201601091149 SPECI KATL 091149Z 10008KT 1SM R09R/4000VP6000FT -DZ BR VV002 09/08 A2997 RMK AO2 P0000=
201601091052 METAR KATL 091052Z 09008KT 3/4SM R09R/3000V3500FT -DZ BR OVC003 09/08 A2995 RMK AO2 TWR VIS 1 SLP142 CIG 002V004 P0000 T00890078=
201601091043 SPECI KATL 091043Z 08007KT 3/4SM R09R/3000V3500FT -DZ BR OVC003 09/08 A2995 RMK AO2 TWR VIS 1 CIG 002V004 P0000 T00890083=
201601090952 METAR KATL 090952Z 09010KT 1SM R09R/6000VP6000FT -DZ BR OVC003 09/08 A2996 RMK AO2 SFC VIS 1 1/4 SLP144 CIG 002V004 P0000 T00890078=
201601090852 METAR KATL 090852Z 10009KT 1SM R09R/5500VP6000FT -DZ BR OVC003 09/08 A2997 RMK AO2 SLP149 CIG 002V004 P0000 60000 T00940083 56007=
201601090752 METAR KATL 090752Z 11007KT 1SM R09R/P6000FT -DZ BR OVC004 09/08 A2998 RMK AO2 SFC VIS 1 1/2 SLP153 CIG 002V005 P0000 T00940083=
201601090652 METAR KATL 090652Z 08010KT 1SM R09R/P6000FT -DZ BR OVC004 09/08 A2997 RMK AO2 SFC VIS 4 SLP150 CIG 003V005 P0000 T00940083=
201601090552 METAR KATL 090552Z 08008KT 1SM R09R/P6000FT -DZ BR OVC004 10/08 A2999 RMK AO2 SFC VIS 3 SLP157 CIG 003V005 P0000 60000 T01000083 10111 20100 58009=
201601090452 METAR KATL 090452Z 07010KT 1SM R09R/P6000FT -DZ BR BKN004 OVC015 10/09 A3000 RMK AO2 SFC VIS 3 SLP160 CIG 003V005 P0000 T01000089 401220089=
201601090352 METAR KATL 090352Z 08008KT 1SM R09R/P6000FT -DZ BR BKN004 OVC015 10/09 A3002 RMK AO2 SFC VIS 2 1/2 SLP167 CIG 003V005 P0000 T01000089=
201601090315 SPECI KATL 090315Z 07009KT 1SM R09R/P6000FT -DZ BR BKN004 OVC015 10/09 A3002 RMK AO2 SFC VIS 2 1/2 CIG 003V005 P0000 T01000089=
201601090252 METAR KATL 090252Z 07008KT 2SM -DZ BR BKN005 OVC015 11/09 A3002 RMK AO2 SFC VIS 3 SLP167 CIG 003V006 P0000 60000 T01060089 50008=
201601090152 METAR KATL 090152Z 07008KT 2SM -DZ BR BKN005 OVC015 11/09 A3002 RMK AO2 SFC VIS 3 SLP167 CIG 004V006 P0000 T01060089=
201601090150 SPECI KATL 090150Z 07009KT 2SM -DZ BR BKN005 OVC015 11/09 A3002 RMK AO2 SFC VIS 3 CIG 004V006 P0000=
201601090052 METAR KATL 090052Z 09008KT 6SM -DZ BR BKN006 BKN014 OVC020 11/09 A3001 RMK AO2 DZB22 SLP162 P0000 T01110089=
201601082352 METAR KATL 082352Z 08007KT 8SM FEW007 BKN013 OVC020 11/09 A2999 RMK AO2 SLP157 60000 T01110089 10122 20106 53006=
201601082252 METAR KATL 082252Z 07005KT 10SM FEW007 BKN013 OVC020 12/09 A2998 RMK AO2 SLP154 T01170089=
201601082152 METAR KATL 082152Z 09006KT 10SM BKN010 OVC016 12/09 A2997 RMK AO2 SLP150 T01170089=
201601082052 METAR KATL 082052Z 11005KT 10SM OVC010 12/09 A2997 RMK AO2 SLP151 60000 T01170089 55004=
201601082046 SPECI KATL 082046Z 11004KT 10SM OVC010 12/09 A2997 RMK AO2=
201601081952 METAR KATL 081952Z 10005KT 10SM OVC009 12/09 A2997 RMK AO2 SLP150 T01170089=
201601081852 METAR KATL 081852Z 11004KT 7SM OVC007 11/09 A2999 RMK AO2 DZE45 SLP155 P0000 T01110089=
201601081752 METAR KATL 081752Z 11006KT 3SM -DZ BR BKN006 OVC008 11/09 A3000 RMK AO2 SFC VIS 4 SLP161 P0000 60000 T01060089 10106 20089 58012=
201601081708 SPECI KATL 081708Z 09006KT 3SM -DZ BR OVC005 11/09 A3003 RMK AO2 SFC VIS 5 P0000 T01060089=
201601081652 METAR KATL 081652Z 10005KT 2SM -DZ BR OVC005 10/08 A3004 RMK AO2 SFC VIS 5 RAE1555DZB06 SLP171 P0000 T01000083=
201601081645 SPECI KATL 081645Z 09008KT 2SM -DZ BR OVC005 10/08 A3004 RMK AO2 SFC VIS 5 RAE1555DZB06 P0000 T01000083=
201601081611 SPECI KATL 081611Z 09007KT 1 1/4SM -DZ BR OVC005 10/08 A3005 RMK AO2 SFC VIS 3 RAE1555DZB06 P0000 T01000083=
201601081606 SPECI KATL 081606Z 09008KT 2 1/2SM -DZ BR OVC005 10/08 A3005 RMK AO2 SFC VIS 3 RAE1555DZB06 P0000 T01000083=
201601081552 METAR KATL 081552Z 09007KT 2SM -RA BR OVC005 10/08 A3005 RMK AO2 TWR VIS 2 1/2 DZE44RAB44 SLP175 P0000 T01000083=
201601081544 SPECI KATL 081544Z 09007KT 2 1/2SM -RA BR OVC006 10/08 A3005 RMK AO2 SFC VIS 3 DZE44RAB44 P0000 T01000083=
201601081452 METAR KATL 081452Z 10007KT 6SM -DZ BR BKN006 OVC008 09/08 A3004 RMK AO2 SLP173 P0000 60000 T00940078 53012=
201601081352 METAR KATL 081352Z 09009KT 4SM -DZ BR BKN006 OVC013 09/07 A3002 RMK AO2 DZB17 SLP165 CIG 005V008 P0000 T00940072=
201601081252 METAR KATL 081252Z 10011KT 10SM BKN008 OVC015 09/07 A3001 RMK AO2 SLP163 CIG 006V009 T00890072=
201601081203 SPECI KATL 081203Z 10009KT 10SM BKN007 OVC017 09/07 A3001 RMK AO2 CIG 006V008 T00890072=
201601081152 METAR KATL 081152Z 10009KT 10SM SCT006 OVC017 09/07 A3000 RMK AO2 SLP161 60021 70021 T00940072 10111 20094 53004=
201601081120 SPECI KATL 081120Z 09011KT 10SM SCT005 OVC014 09/07 A2999 RMK AO2 T00940072=
201601081052 METAR KATL 081052Z 08012KT 10SM SCT006 OVC016 09/08 A2999 RMK AO2 RAE44 SLP154 P0003 T00940078=
201601080952 METAR KATL 080952Z 08010KT 8SM -RA FEW008 OVC016 09/08 A2998 RMK AO2 SLP153 P0002 T00940078=
201601080852 METAR KATL 080852Z 08010KT 6SM RA BR BKN020 OVC060 10/08 A2999 RMK AO2 SLP156 P0012 60016 T01000078 55006=
201601080814 SPECI KATL 080814Z 04006KT 3SM R09R/6000VP6000FT RA BR BKN021CB OVC060 10/08 A3001 RMK AO2 CB NW-NE MOV NE P0010 T01000078=
201601080810 SPECI KATL 080810Z 00000KT 1 1/2SM R09R/6000VP6000FT RA BR BKN021CB OVC060 10/08 A3001 RMK AO2 CB NE-OHD-SW MOV NE P0009 T01000078=
201601080755 SPECI KATL 080755Z 06008KT 9SM -RA BKN021 BKN044 OVC060 11/08 A2999 RMK AO2 P0000 T01060078=
201601080752 METAR KATL 080752Z 07007KT 8SM -RA SCT023 BKN050 OVC070 11/08 A2999 RMK AO2 SLP155 P0001 T01060078=
201601080728 SPECI KATL 080728Z 09009KT 8SM -RA SCT021 BKN055 OVC075 11/08 A2998 RMK AO2 P0000 T01060078=
201601080652 METAR KATL 080652Z 07009KT 10SM -RA OVC021 11/08 A2999 RMK AO2 SLP154 P0003 T01060078=
201601080552 METAR KATL 080552Z 10009KT 10SM -RA OVC024 11/08 A3001 RMK AO2 RAB0454 SLP163 P0000 60000 T01110078 10139 20111 58009=
201601080452 METAR KATL 080452Z 11008KT 10SM BKN022 OVC150 12/07 A3003 RMK AO2 SLP169 VIRGA OHD-ALQDS T01220067 401560044=
201601080352 METAR KATL 080352Z 11007KT 10SM BKN025 OVC150 13/07 A3003 RMK AO2 SLP169 VIRGA OHD-ALQDS T01280067=
201601080252 METAR KATL 080252Z 11006KT 10SM BKN027 OVC180 13/07 A3004 RMK AO2 SLP173 VIRGA OHD-ALQDS T01280067 50001=
201601080152 METAR KATL 080152Z 11007KT 10SM BKN025 OVC180 13/07 A3005 RMK AO2 SLP177 VIRGA OHD-ALQDS T01330067=
201601080052 METAR KATL 080052Z 10007KT 10SM BKN026 OVC200 13/07 A3004 RMK AO2 SLP174 T01330072=
201601072352 METAR KATL 072352Z COR 13004KT 10SM BKN028 BKN040 OVC200 14/07 A3004 RMK AO2 SLP174 T01390072 10156 20133 53004=
201601072252 METAR KATL 072252Z 10007KT 10SM FEW028 BKN060 BKN200 13/07 A3001 RMK AO2 SLP164 T01330067=
201601072152 METAR KATL 072152Z 11005KT 10SM FEW030 BKN060 BKN250 14/07 A3003 RMK AO2 SLP170 T01440067=
201601072052 METAR KATL 072052Z COR 10009KT 10SM FEW030 BKN060 BKN250 15/07 A3003 RMK AO2 SLP169 T01500067 56031=
201601071952 METAR KATL 071952Z 10010KT 10SM FEW060 FEW200 BKN250 15/07 A3004 RMK AO2 SLP175 T01500067=
201601071852 METAR KATL 071852Z VRB06KT 10SM BKN055 BKN250 16/06 A3007 RMK AO2 SLP183 T01560061=
201601071752 METAR KATL 071752Z 07010KT 10SM BKN060 BKN250 14/06 A3012 RMK AO2 SLP202 T01390056 10139 20044 58022=
201601071652 METAR KATL 071652Z 09006KT 10SM BKN055 BKN250 12/04 A3017 RMK AO2 SLP219 T01170039=
201601071552 METAR KATL 071552Z 06005KT 10SM FEW012 BKN050 BKN250 09/02 A3020 RMK AO2 SLP229 T00940017=
201601071452 METAR KATL 071452Z 08008KT 10SM FEW012 SCT055 SCT250 08/01 A3019 RMK AO2 SLP227 T00780006 50003=
201601071430 SPECI KATL 071430Z 10005KT 10SM BKN012 BKN060 07/00 A3020 RMK AO2 T00670000=
201601071352 METAR KATL 071352Z 09007KT 10SM FEW035 SCT055 06/M01 A3019 RMK AO2 SLP229 T00611006=
201601071252 METAR KATL 071252Z 09011KT 10SM SCT035 BKN060 BKN250 05/M01 A3018 RMK AO2 SLP224 T00501011=
201601071152 METAR KATL 071152Z 09011KT 10SM OVC035 05/M02 A3018 RMK AO2 SLP225 T00501017 10056 20050 55011=
201601071052 METAR KATL 071052Z 08014KT 10SM BKN034 OVC055 06/M02 A3017 RMK AO2 SLP222 T00561022=
201601070958 SPECI KATL 070958Z 08011KT 10SM SCT022 OVC033 06/M03 A3018 RMK AO2 VIRGA OHD T00561028=
201601070952 METAR KATL 070952Z 08012KT 10SM SCT018 OVC028 06/M03 A3019 RMK AO2 SLP227 VIRGA OHD T00561028=
201601070852 METAR KATL 070852Z 08010KT 10SM OVC028 06/M03 A3021 RMK AO2 SLP236 T00561028 58019=
201601070752 METAR KATL 070752Z 07011KT 10SM OVC025 06/M03 A3023 RMK AO2 SLP243 T00561033=
201601070735 SPECI KATL 070735Z 07010KT 10SM BKN025 OVC039 06/M03 A3024 RMK AO2 T00561033=
201601070720 SPECI KATL 070720Z 07010KT 10SM SCT024 BKN035 OVC055 06/M03 A3025 RMK AO2 T00561033=
201601070652 METAR KATL 070652Z 08009KT 10SM BKN024 OVC037 06/M04 A3026 RMK AO2 SLP251 T00561039=
201601070627 SPECI KATL 070627Z 06009KT 10SM SCT027 OVC041 06/M04 A3026 RMK AO2 T00561044=
201601070552 METAR KATL 070552Z 08010KT 10SM BKN027 OVC038 06/M05 A3027 RMK AO2 SLP256 T00561050 10056 20039 58010=
201601070452 METAR KATL 070452Z 09009KT 10SM OVC025 05/M06 A3028 RMK AO2 SLP261 BINOVC T00501056 400781033=
201601070414 SPECI KATL 070414Z 09010KT 10SM BKN028 BKN250 05/M06 A3029 RMK AO2 T00501061=
201601070352 METAR KATL 070352Z 08009KT 10SM FEW026 BKN035 BKN250 05/M06 A3030 RMK AO2 SLP268 T00501061=
201601070304 SPECI KATL 070304Z 09008KT 10SM FEW026 BKN035 BKN250 05/M07 A3031 RMK AO2 T00501067=
201601070252 METAR KATL 070252Z COR 09009KT 10SM SCT026 BKN035 BKN250 05/M07 A3030 RMK AO2 SLP269 T00501067 56003=
201601070226 SPECI KATL 070226Z 08010KT 10SM BKN026 BKN035 BKN250 05/M07 A3030 RMK AO2 T00501067=
201601070152 METAR KATL 070152Z 08010KT 10SM BKN035 BKN250 05/M07 A3030 RMK AO2 SLP270 T00501072=
201601070052 METAR KATL 070052Z 09011KT 10SM BKN045 BKN250 06/M07 A3030 RMK AO2 SLP269 T00561072=
201601062352 METAR KATL 062352Z 10006KT 10SM FEW040 SCT200 BKN250 04/M08 A3031 RMK AO2 SLP274 T00441078 10078 20044 55000=
201601062252 METAR KATL 062252Z 09007KT 10SM FEW045 SCT200 BKN250 05/M08 A3030 RMK AO2 SLP269 T00501083=
201601062152 METAR KATL 062152Z 08009KT 10SM FEW045 SCT180 BKN250 07/M08 A3030 RMK AO2 SLP268 T00671078=
201601062052 METAR KATL 062052Z 11007KT 10SM FEW045 SCT180 BKN230 07/M09 A3031 RMK AO2 SLP272 T00671089 56023=
201601061952 METAR KATL 061952Z 08008KT 10SM FEW040 BKN180 BKN250 06/M09 A3032 RMK AO2 SLP274 T00611089=
201601061852 METAR KATL 061852Z 11007KT 10SM FEW180 SCT200 BKN250 06/M10 A3034 RMK AO2 SLP283 T00611100=
201601061752 METAR KATL 061752Z 10005KT 10SM FEW200 BKN250 06/M11 A3038 RMK AO2 SLP296 T00561111 10056 21033 58027=
201601061652 METAR KATL 061652Z 07009KT 10SM FEW200 BKN250 04/M12 A3043 RMK AO2 SLP313 T00391117=
201601061552 METAR KATL 061552Z 10010KT 10SM SCT250 02/M13 A3046 RMK AO2 SLP324 T00221128=
201601061452 METAR KATL 061452Z 08016KT 10SM SCT250 01/M13 A3046 RMK AO2 SLP325 T00061128 53003=
201601061352 METAR KATL 061352Z 08014KT 10SM FEW045 BKN250 M02/M12 A3046 RMK AO2 SLP325 T10171122=
201601061252 METAR KATL 061252Z 07009KT 10SM FEW040 SCT250 M03/M11 A3045 RMK AO2 SLP322 T10281106=
201601061152 METAR KATL 061152Z 08010KT 10SM FEW250 M03/M10 A3045 RMK AO2 SLP323 T10331100 10000 21033 55001=
201601061052 METAR KATL 061052Z 09008KT 10SM FEW250 M03/M10 A3044 RMK AO2 SLP320 T10331100=
201601060952 METAR KATL 060952Z 09009KT 10SM FEW250 M03/M10 A3045 RMK AO2 SLP320 T10281100=
201601060852 METAR KATL 060852Z 09007KT 10SM FEW250 M03/M10 A3046 RMK AO2 SLP323 T10281100 55005=
201601060752 METAR KATL 060752Z 10009KT 10SM FEW250 M01/M11 A3045 RMK AO2 SLP321 T10111106=
201601060652 METAR KATL 060652Z 10011KT 10SM FEW250 M01/M11 A3045 RMK AO2 SLP321 T10061106=
201601060552 METAR KATL 060552Z 10010KT 10SM FEW250 00/M10 A3047 RMK AO2 SLP327 T00001100 10028 21006 58004=
201601060452 METAR KATL 060452Z 10010KT 10SM FEW250 01/M11 A3048 RMK AO2 SLP329 T00061106 400671033=
201601060352 METAR KATL 060352Z 10008KT 10SM FEW250 01/M11 A3048 RMK AO2 SLP331 T00111106=
201601060252 METAR KATL 060252Z 10007KT 10SM FEW250 02/M11 A3048 RMK AO2 SLP332 T00171106 53015=
201601060152 METAR KATL 060152Z 10010KT 10SM FEW250 02/M11 A3047 RMK AO2 SLP327 T00171106=
201601060052 METAR KATL 060052Z 10008KT 10SM FEW250 02/M10 A3045 RMK AO2 SLP324 T00221100=
201601052352 METAR KATL 052352Z 09010KT 10SM FEW250 02/M09 A3044 RMK AO2 SLP319 T00221094 10067 20022 52007=
201601052252 METAR KATL 052252Z 10009KT 10SM FEW250 04/M11 A3043 RMK AO2 SLP315 T00391106=
201601052152 METAR KATL 052152Z 10008KT 10SM FEW250 06/M11 A3042 RMK AO2 SLP310 T00561106=
201601052052 METAR KATL 052052Z 09009KT 10SM FEW250 06/M10 A3042 RMK AO2 SLP308 T00611100 55019=
201601051952 METAR KATL 051952Z 06007KT 10SM FEW250 06/M11 A3041 RMK AO2 SLP308 T00611106=
201601051852 METAR KATL 051852Z 09011KT 10SM FEW250 06/M11 A3044 RMK AO2 SLP317 T00561111=
201601051752 METAR KATL 051752Z 10010KT 10SM FEW250 05/M11 A3047 RMK AO2 SLP328 T00501111 10050 21033 58016=
201601051652 METAR KATL 051652Z 07011KT 10SM FEW250 04/M10 A3049 RMK AO2 SLP335 T00391100=
201601051552 METAR KATL 051552Z 10010KT 10SM FEW250 03/M10 A3051 RMK AO2 SLP343 T00281100=
201601051452 METAR KATL 051452Z 10011KT 10SM FEW250 01/M10 A3052 RMK AO2 SLP345 T00061100 53024=
201601051352 METAR KATL 051352Z 08008KT 10SM CLR M01/M09 A3050 RMK AO2 SLP337 T10111094=
201601051252 METAR KATL 051252Z 11005KT 10SM CLR M03/M10 A3047 RMK AO2 SLP329 T10331100=
201601051152 METAR KATL 051152Z 09006KT 10SM CLR M03/M10 A3045 RMK AO2 SLP321 T10331100 11006 21033 53019=
201601051052 METAR KATL 051052Z 07011KT 10SM CLR M02/M09 A3041 RMK AO2 SLP309 T10171094=
201601050952 METAR KATL 050952Z 06010KT 10SM CLR M02/M09 A3040 RMK AO2 SLP303 T10171094=
201601050852 METAR KATL 050852Z 06008KT 10SM CLR M02/M09 A3039 RMK AO2 SLP299 T10171089 53008=
201601050752 METAR KATL 050752Z 06007KT 10SM CLR M01/M08 A3037 RMK AO2 SLP293 T10111083=
201601050652 METAR KATL 050652Z 06006KT 10SM CLR M01/M08 A3036 RMK AO2 SLP289 T10111083=
201601050552 METAR KATL 050552Z 05008KT 10SM CLR M01/M08 A3036 RMK AO2 SLP291 T10061083 10028 21006 53011=
201601050452 METAR KATL 050452Z 04008KT 10SM CLR 00/M09 A3035 RMK AO2 SLP286 T00001089 400720000=
201601050352 METAR KATL 050352Z 01008KT 10SM CLR 01/M09 A3034 RMK AO2 SLP284 T00061094=
201601050252 METAR KATL 050252Z 36010KT 10SM CLR 01/M09 A3033 RMK AO2 SLP279 T00111094 51022=
201601050152 METAR KATL 050152Z 01014G19KT 10SM CLR 02/M09 A3031 RMK AO2 SLP274 T00171094=
201601050052 METAR KATL 050052Z 01014G22KT 10SM CLR 02/M08 A3029 RMK AO2 SLP268 T00221083=
201601042352 METAR KATL 042352Z 34008KT 10SM CLR 03/M07 A3026 RMK AO2 SLP257 T00281067 10072 20028 53028=
201601042252 METAR KATL 042252Z 34012G19KT 10SM CLR 03/M06 A3023 RMK AO2 SLP246 T00331061=
201601042152 METAR KATL 042152Z 35016G21KT 10SM FEW050 05/M06 A3021 RMK AO2 SLP235 T00501061=
201601042052 METAR KATL 042052Z 34017G23KT 10SM CLR 06/M06 A3018 RMK AO2 SLP225 T00611061 53011=
201601041952 METAR KATL 041952Z 35014G20KT 10SM FEW050 07/M06 A3015 RMK AO2 PK WND 32026/1910 SLP214 T00671056=
201601041852 METAR KATL 041852Z 33016KT 10SM FEW050 07/M05 A3014 RMK AO2 SLP211 T00671050=
201601041752 METAR KATL 041752Z 33013KT 10SM CLR 06/M04 A3015 RMK AO2 SLP213 T00611044 10061 20006 58004=
201601041652 METAR KATL 041652Z 33014G22KT 10SM CLR 06/M04 A3017 RMK AO2 SLP220 T00561044=
201601041552 METAR KATL 041552Z 34014KT 10SM CLR 04/M04 A3017 RMK AO2 SLP222 T00441044=
201601041452 METAR KATL 041452Z 34016G22KT 10SM CLR 03/M04 A3016 RMK AO2 SLP218 T00281044 53035=
201601041352 METAR KATL 041352Z 33016KT 10SM CLR 02/M04 A3012 RMK AO2 SLP204 T00171044=
201601041252 METAR KATL 041252Z 33012KT 10SM FEW025 01/M04 A3008 RMK AO2 SLP193 T00061039=
201601041152 METAR KATL 041152Z 34013G20KT 10SM FEW025 02/M03 A3005 RMK AO2 SLP181 T00171028 10056 20017 53017=
201601041052 METAR KATL 041052Z 33011KT 10SM CLR 02/M03 A3002 RMK AO2 SLP170 T00221028=
201601040952 METAR KATL 040952Z 33011G19KT 10SM FEW220 03/M03 A3000 RMK AO2 SLP163 T00331028=
201601040852 METAR KATL 040852Z 33012KT 10SM FEW220 04/M03 A3000 RMK AO2 SLP162 T00391033 55003=
201601040752 METAR KATL 040752Z 32011KT 10SM FEW180 SCT220 04/M03 A2999 RMK AO2 SLP160 T00441033=
201601040652 METAR KATL 040652Z 33011KT 10SM SCT180 BKN220 05/M03 A3000 RMK AO2 SLP161 VIRGA OHD-ALQDS T00501028=
201601040552 METAR KATL 040552Z 34009KT 10SM BKN200 06/M03 A3001 RMK AO2 SLP165 T00561028 10078 20050 50001=
201601040452 METAR KATL 040452Z 32010KT 10SM BKN200 06/M03 A3001 RMK AO2 SLP167 T00561028 401170017=
201601040352 METAR KATL 040352Z 30009KT 10SM SCT190 05/M02 A3001 RMK AO2 SLP167 T00501022=
201601040252 METAR KATL 040252Z 31008KT 10SM BKN190 06/M02 A3001 RMK AO2 SLP166 T00561017 58004=
201601040152 METAR KATL 040152Z 29008KT 10SM BKN190 07/M02 A3002 RMK AO2 SLP173 T00671017=
201601040052 METAR KATL 040052Z 30008KT 10SM SCT190 BKN250 07/M02 A3002 RMK AO2 SLP171 T00671022=
201601032352 METAR KATL 032352Z 29007KT 10SM FEW180 BKN250 07/M02 A3002 RMK AO2 SLP170 T00721022 10117 20072 53001=
201601032252 METAR KATL 032252Z 32008KT 10SM BKN170 BKN250 09/M03 A3000 RMK AO2 SLP163 T00891028=
201601032152 METAR KATL 032152Z 32009KT 10SM BKN200 10/M03 A3001 RMK AO2 SLP166 T01001033=
201601032052 METAR KATL 032052Z 31007KT 10SM BKN250 11/M03 A3001 RMK AO2 SLP168 T01061033 55013=
201601031952 METAR KATL 031952Z 32013G18KT 10SM BKN250 11/M04 A3000 RMK AO2 SLP163 T01111039=
201601031852 METAR KATL 031852Z 31013KT 10SM BKN200 11/M03 A3002 RMK AO2 SLP171 T01111033=
201601031752 METAR KATL 031752Z 32009KT 10SM BKN200 10/M03 A3005 RMK AO2 SLP181 T01001028 10100 20022 58019=
201601031652 METAR KATL 031652Z 32009KT 10SM BKN200 07/M03 A3007 RMK AO2 SLP188 T00721033=
201601031552 METAR KATL 031552Z 33008KT 10SM BKN200 06/M03 A3010 RMK AO2 SLP198 T00561033=
201601031452 METAR KATL 031452Z 32011KT 10SM BKN180 04/M03 A3011 RMK AO2 SLP202 T00441033 51010=
201601031352 METAR KATL 031352Z 31009KT 10SM SCT180 BKN250 03/M03 A3010 RMK AO2 SLP201 T00281033=
201601031252 METAR KATL 031252Z 30007KT 10SM BKN250 02/M03 A3009 RMK AO2 SLP196 T00221033=
201601031152 METAR KATL 031152Z 32009KT 10SM OVC220 02/M03 A3008 RMK AO2 SLP192 T00221028 10028 20017 58011=
201601031052 METAR KATL 031052Z 31009KT 10SM BKN250 02/M03 A3009 RMK AO2 SLP196 T00221033=
201601030952 METAR KATL 030952Z 31011KT 10SM BKN250 02/M03 A3010 RMK AO2 SLP199 T00171033=
201601030852 METAR KATL 030852Z 31008KT 10SM SCT250 02/M03 A3011 RMK AO2 SLP203 T00171033 58007=
201601030752 METAR KATL 030752Z 31008KT 10SM SCT250 02/M03 A3012 RMK AO2 SLP206 T00171033=
201601030652 METAR KATL 030652Z 29005KT 10SM SCT250 02/M03 A3013 RMK AO2 SLP208 T00221033=
201601030552 METAR KATL 030552Z 31007KT 10SM BKN250 03/M03 A3013 RMK AO2 SLP210 T00281028 10056 20028 58014=
201601030452 METAR KATL 030452Z 30008KT 10SM BKN250 04/M03 A3016 RMK AO2 SLP217 T00391028 400830017=
201601030352 METAR KATL 030352Z 31008KT 10SM OVC250 04/M02 A3016 RMK AO2 SLP220 T00391022=
201601030252 METAR KATL 030252Z 27005KT 10SM OVC250 04/M02 A3017 RMK AO2 SLP225 T00391022 53006=
201601030152 METAR KATL 030152Z 28005KT 10SM OVC250 04/M02 A3017 RMK AO2 SLP223 T00441022=
201601030052 METAR KATL 030052Z 29005KT 10SM OVC240 04/M02 A3015 RMK AO2 SLP218 T00391017=
201601022352 METAR KATL 022352Z 32005KT 10SM OVC240 05/M02 A3015 RMK AO2 SLP218 T00501022 10083 20050 58006=
201601022252 METAR KATL 022252Z 28006KT 10SM FEW180 BKN250 06/M03 A3017 RMK AO2 SLP222 T00611028=
201601022152 METAR KATL 022152Z 30008KT 10SM BKN250 07/M03 A3018 RMK AO2 SLP224 T00671033=
201601022052 METAR KATL 022052Z 31009KT 10SM BKN250 07/M03 A3017 RMK AO2 SLP223 T00721033 56014=
201601021952 METAR KATL 021952Z 31008KT 10SM BKN250 08/M03 A3017 RMK AO2 SLP223 T00781028=
201601021852 METAR KATL 021852Z 33007KT 10SM BKN250 07/M04 A3020 RMK AO2 SLP232 T00721039=
201601021752 METAR KATL 021752Z 33007KT 10SM BKN250 07/M04 A3022 RMK AO2 SLP237 T00721039 10072 20017 58019=
201601021652 METAR KATL 021652Z 32007KT 10SM BKN250 06/M03 A3026 RMK AO2 SLP252 T00611033=
201601021552 METAR KATL 021552Z 33008KT 10SM BKN250 04/M03 A3028 RMK AO2 SLP260 T00441033=
201601021452 METAR KATL 021452Z 33010KT 10SM FEW150 OVC250 03/M03 A3027 RMK AO2 SLP259 T00281033 51015=
201601021352 METAR KATL 021352Z 32008KT 10SM FEW150 BKN250 02/M03 A3027 RMK AO2 SLP256 T00221033=
201601021252 METAR KATL 021252Z 32007KT 10SM BKN250 02/M03 A3025 RMK AO2 SLP249 T00171033=
201601021152 METAR KATL 021152Z 33010G16KT 10SM BKN220 02/M04 A3023 RMK AO2 SLP244 T00171039 10033 20017 58002=
201601021052 METAR KATL 021052Z 33011KT 10SM BKN220 02/M04 A3023 RMK AO2 SLP244 T00221039=
201601020952 METAR KATL 020952Z 32014KT 10SM BKN200 BKN250 02/M04 A3024 RMK AO2 SLP245 T00221039=
201601020852 METAR KATL 020852Z 33013KT 10SM FEW200 SCT250 02/M03 A3024 RMK AO2 SLP245 T00221033 55005=
201601020752 METAR KATL 020752Z 33015KT 10SM BKN200 BKN250 03/M03 A3023 RMK AO2 SLP242 T00281033=
201601020652 METAR KATL 020652Z 33014KT 10SM BKN200 BKN250 03/M03 A3024 RMK AO2 SLP245 T00331033=
201601020552 METAR KATL 020552Z 33011KT 10SM BKN200 BKN250 03/M03 A3025 RMK AO2 SLP249 T00331028 10061 20033 58002=
201601020452 METAR KATL 020452Z 32010KT 10SM SCT200 BKN250 04/M03 A3026 RMK AO2 SLP251 T00391028 400780039=
201601020352 METAR KATL 020352Z 33013KT 10SM BKN200 OVC250 04/M03 A3027 RMK AO2 SLP254 T00441028=
201601020252 METAR KATL 020252Z 32012KT 10SM BKN200 OVC250 05/M03 A3026 RMK AO2 SLP252 T00501028 51015=
201601020152 METAR KATL 020152Z 32014KT 10SM FEW150 BKN200 OVC250 06/M03 A3024 RMK AO2 SLP246 T00561028=
201601020052 METAR KATL 020052Z 32012KT 10SM FEW150 BKN200 OVC250 06/M02 A3024 RMK AO2 SLP246 T00561022=
201601012352 METAR KATL 012352Z 33011KT 10SM FEW150 BKN200 OVC250 06/M02 A3021 RMK AO2 SLP236 T00611017 10078 20061 52012=
201601012252 METAR KATL 012252Z 32013KT 10SM SCT150 BKN200 OVC250 07/M01 A3020 RMK AO2 SLP232 T00671006=
201601012152 METAR KATL 012152Z 32013KT 10SM FEW120 BKN200 07/M01 A3019 RMK AO2 SLP227 T00721006=
201601012052 METAR KATL 012052Z 32012KT 10SM OVC160 07/01 A3018 RMK AO2 SLP224 T00720006 55008=
201601011952 METAR KATL 011952Z 33011KT 10SM OVC150 07/01 A3015 RMK AO2 PRESFR SLP216 T00720006=
201601011852 METAR KATL 011852Z 31010KT 10SM OVC160 08/01 A3017 RMK AO2 SLP221 T00780011=
201601011752 METAR KATL 011752Z 32012KT 10SM BKN140 OVC250 07/01 A3020 RMK AO2 SLP231 T00720011 10078 20044 58007=
201601011652 METAR KATL 011652Z 30009KT 10SM BKN120 OVC200 07/01 A3022 RMK AO2 SLP239 T00720011=
201601011552 METAR KATL 011552Z 32007KT 10SM BKN150 OVC250 07/01 A3021 RMK AO2 SLP234 T00720011=
201601011452 METAR KATL 011452Z 32011KT 10SM SCT200 BKN250 05/01 A3022 RMK AO2 SLP238 T00500006 51017=
201601011352 METAR KATL 011352Z 32011KT 10SM FEW140 BKN200 OVC250 04/01 A3021 RMK AO2 SLP235 T00440006=
201601011252 METAR KATL 011252Z 32012KT 10SM FEW120 BKN180 BKN250 04/01 A3019 RMK AO2 SLP229 T00440011=
