##########################################################
# Query made at 04/19/2024 23:49:44 UTC
# Time interval: from 07/01/2016 12:00  to 07/31/2016 12:59  UTC
##########################################################

##########################################################
# KATL, Atlanta, Hartsfield - Jackson Atlanta International Airport (United States)
# WMO index: 72219. WIGOS ID: 0-20000-0-72219
# Latitude 33-38-59N. Longitude 084-25-00W. Altitude 312 m.
##########################################################

201607311252 METAR KATL 311252Z 31003KT 10SM FEW150 SCT250 26/23 A3008 RMK AO2 SLP175 T02560228=
201607311152 METAR KATL 311152Z 00000KT 10SM FEW150 FEW250 24/22 A3007 RMK AO2 SLP173 70035 T02390222 10239 20222 53010=
201607311052 METAR KATL 311052Z 00000KT 10SM FEW150 SCT250 23/22 A3005 RMK AO2 SLP166 T02280217=
201607310952 METAR KATL 310952Z 00000KT 10SM FEW002 BKN150 23/22 A3005 RMK AO2 SLP165 FG BANK SE-S T02280222=
201607310852 METAR KATL 310852Z 27003KT 10SM FEW002 FEW100 FEW250 23/23 A3004 RMK AO2 SLP163 T02280228 55006=
201607310812 SPECI KATL 310812Z 30006KT 8SM SCT002 23/23 A3003 RMK AO2 T02330228=
201607310752 METAR KATL 310752Z 31005KT 6SM BR BKN002 23/23 A3003 RMK AO2 SLP158 VIS SW-NW 2 1/2 BKN002 V SCT T02280228=
201607310744 SPECI KATL 310744Z 31004KT 2 1/2SM BR BKN002 23/23 A3003 RMK AO2 BKN002 V SCT T02280228=
201607310724 SPECI KATL 310724Z 28005KT 6SM BR SCT002 23/23 A3003 RMK AO2 SCT002 V BKN VIS LWR SE-SW & NW-N T02280228=
201607310703 SPECI KATL 310703Z 30008KT 6SM BR BKN003 23/23 A3004 RMK AO2 VIS LWR W-N-NE T02330228=
201607310652 METAR KATL 310652Z 30005KT 10SM SCT003 SCT100 23/23 A3004 RMK AO2 SLP162 T02280228=
201607310552 METAR KATL 310552Z 27006KT 10SM FEW100 24/23 A3006 RMK AO2 SLP169 T02390228 10256 20233 51002=
201607310452 METAR KATL 310452Z 23005KT 10SM FEW250 24/23 A3005 RMK AO2 SLP165 T02390233 403170228=
201607310352 METAR KATL 310352Z 21004KT 10SM FEW200 SCT250 23/23 A3006 RMK AO2 SLP167 T02330233=
201607310252 METAR KATL 310252Z 22004KT 10SM FEW150 SCT200 SCT250 24/23 A3005 RMK AO2 SLP165 T02390228 51014=
201607310152 METAR KATL 310152Z 25004KT 10SM FEW150 SCT200 BKN250 25/23 A3004 RMK AO2 SLP160 T02500228=
201607310052 METAR KATL 310052Z 27007KT 10SM FEW140 BKN200 BKN250 25/23 A3003 RMK AO2 SLP159 T02500228=
201607302352 METAR KATL 302352Z 22007KT 10SM FEW110 BKN200 BKN250 26/22 A3001 RMK AO2 SLP153 CB DSNT NE 60000 T02560222 10300 20233 55002=
201607302252 METAR KATL 302252Z 21007KT 10SM FEW032 FEW120 BKN200 BKN250 27/22 A3001 RMK AO2 SLP151 T02720217=
201607302152 METAR KATL 302152Z 23005KT 10SM FEW034 FEW110 BKN200 BKN250 28/22 A3002 RMK AO2 SLP154 CB DSNT SE-SW T02780217=
201607302052 METAR KATL 302052Z 26005KT 10SM FEW030TCU BKN120 BKN250 26/23 A3002 RMK AO2 RAB32E43 SLP154 TCU ALQDS P0000 60000 T02610228 56016=
201607301952 METAR KATL 301952Z 23004KT 10SM FEW030 SCT080 BKN180 29/23 A3003 RMK AO2 SLP158 CB DSNT SW T02890228=
201607301852 METAR KATL 301852Z 23004KT 10SM FEW030 SCT100 BKN250 27/22 A3005 RMK AO2 RAE1758 TSE16 SLP163 TS MOV SE CB DSNT E & S-SW P0000 T02720222=
201607301817 SPECI KATL 301817Z 00000KT 10SM SCT030TCU BKN120 26/23 A3005 RMK AO2 RAE1758 TSE16 TS MOV SE CB DSNT E TCU S P0000 T02560233=
201607301752 METAR KATL 301752Z 14006KT 5SM R09R/3500VP6000FT -TSRA BR FEW020 BKN032CB BKN070 23/22 A3007 RMK AO2 RAB13 TSB21 SLP172 OCNL LTGICCG NE-SE-S TS NE-SE-S MOV SE VSBY LWR E-S P0035 60035 T02330222 10317 20228 55003=
201607301742 SPECI KATL 301742Z 00000KT 3SM R09R/2600VP6000FT +TSRA BR FEW008 BKN032CB OVC070 23/22 A3008 RMK AO2 RAB13 TSB21 OCNL LTGICCG SW-OHD-NE TS SW-OHD-NE MOV SE VSBY LWR NE AND SW P0015 T02280222=
201607301737 SPECI KATL 301737Z 36006KT 1SM R09R/4500VP6000FT +TSRA BR FEW008 BKN023CB OVC080 23/22 A3008 RMK AO2 RAB13 TSB21 OCNL LTGICCG W-N-E TS W-N-E MOV SE P0007 T02330222=
201607301731 SPECI KATL 301731Z 34010KT 2SM R09R/6000VP6000FT TSRA BR FEW008 BKN022CB OVC090 24/22 A3009 RMK AO2 RAB13 TSB21 FQT LTGICCG W-N-E TS W-N-E MOV SE P0002 T02440222=
201607301726 SPECI KATL 301726Z 36014KT 4SM -TSRA BKN032CB OVC090 25/22 A3009 RMK AO2 RAB13 TSB21 OCNL LTGICCG N-E TS N-E MOV SE P0000 T02500222=
201607301722 SPECI KATL 301722Z 01018KT 2SM -TSRA OVC020CB 25/22 A3007 RMK AO2 RAB13 TSB21 OCNL LTGICCG N-OHD TS N-OHD MOV SE P0000 T02500222=
201607301652 METAR KATL 301652Z VRB03KT 10SM SCT036TCU BKN090 31/23 A3006 RMK AO2 RAB22E47 SLP168 TCU ALQDS P0000 T03110228=
201607301552 METAR KATL 301552Z VRB06KT 10SM BKN034TCU BKN090 30/23 A3007 RMK AO2 SLP171 TCU NW T03000228=
201607301452 METAR KATL 301452Z 34003KT 10SM BKN032 BKN065 30/23 A3008 RMK AO2 SLP172 T03000233 51013=
201607301352 METAR KATL 301352Z 31007KT 10SM FEW018 FEW120 28/23 A3007 RMK AO2 SLP171 T02780233=
201607301252 METAR KATL 301252Z 28007KT 10SM FEW120 FEW250 26/23 A3005 RMK AO2 SLP165 T02560233=
201607301152 METAR KATL 301152Z 28006KT 10SM FEW150 SCT250 23/23 A3004 RMK AO2 SLP160 60016 70032 T02330228 10244 20228 53015=
201607301052 METAR KATL 301052Z 27006KT 10SM FEW040 SCT100 SCT250 23/22 A3002 RMK AO2 SLP154 T02280222=
201607300952 METAR KATL 300952Z 26004KT 10SM FEW100 FEW250 23/22 A3000 RMK AO2 SLP147 T02330222=
201607300852 METAR KATL 300852Z 23003KT 10SM FEW100 FEW250 23/23 A2999 RMK AO2 SLP144 60016 T02330228 55013=
201607300752 METAR KATL 300752Z 00000KT 10SM FEW100 SCT250 24/23 A2999 RMK AO2 SLP142 T02390233=
201607300652 METAR KATL 300652Z 00000KT 10SM FEW013 SCT075 OVC090 24/22 A3000 RMK AO2 RAE31 TSE22 SLP146 TS MOV NE P0016 T02440222=
201607300622 SPECI KATL 300622Z 00000KT 4SM -RA BR FEW020 BKN037 OVC065 23/23 A3002 RMK AO2 TSE22 OCNL LTGIC DSNT NE TS MOV NE P0016 T02330228=
201607300608 SPECI KATL 300608Z VRB04KT 2SM R09R/6000VP6000FT +TSRA BR FEW020 BKN031CB OVC042 23/23 A3003 RMK AO2 OCNL LTGIC NE TS VC NE MOV NE P0011 T02330228=
201607300552 METAR KATL 300552Z 20007KT 5SM TSRA BR FEW024 BKN040CB BKN060 OVC250 23/23 A3003 RMK AO2 RAB14 TSB07 SLP158 OCNL LTGIC SE TS SE MOV NE P0016 60016 T02330228 10300 20233 55000=
201607300548 SPECI KATL 300548Z 20008KT 2SM +TSRA BR FEW024 BKN034 BKN060 OVC250 23/23 A3004 RMK AO2 RAB14 TSB07 OCNL LTGIC SE TS SE MOV NE P0015=
201607300507 SPECI KATL 300507Z 22017G24KT 10SM TS FEW015 SCT050CB BKN080 BKN250 26/22 A3003 RMK AO2 TSB07 OCNL LTGICCG SW TS SW MOV NE T02610217=
201607300452 METAR KATL 300452Z 26003KT 10SM FEW050 SCT250 26/22 A3002 RMK AO2 SLP153 OCNL LTG DSNT SW T02610217 403390228=
201607300352 METAR KATL 300352Z 33004KT 10SM FEW070 SCT110 SCT250 27/22 A3003 RMK AO2 SLP155 CB DSNT SW T02720217=
201607300252 METAR KATL 300252Z 29003KT 10SM SCT070 BKN100 BKN250 27/22 A3003 RMK AO2 SLP158 T02720222 53016=
201607300152 METAR KATL 300152Z 31005KT 10SM FEW050 SCT110 SCT250 28/22 A3001 RMK AO2 SLP149 T02780217=
201607300052 METAR KATL 300052Z 31004KT 10SM FEW100 SCT150 BKN250 29/21 A2999 RMK AO2 SLP143 T02940211=
201607292352 METAR KATL 292352Z 29011KT 10SM FEW045 SCT100 SCT150 BKN250 30/20 A2999 RMK AO2 SLP143 CB DSNT E-SE & NW T03000200 10339 20300 56001=
201607292252 METAR KATL 292252Z 29010KT 10SM FEW050TCU SCT090 BKN150 BKN250 32/21 A2999 RMK AO2 SLP142 TCU VC NW-NE & DSNT SE-S CB DSNT NE T03220206=
201607292152 METAR KATL 292152Z 29011KT 10SM FEW050TCU SCT090 BKN250 32/21 A2998 RMK AO2 SLP139 TCU VC S-SW & DSNT SE CB DSNT NE & NW-N T03220206=
201607292052 METAR KATL 292052Z 30011KT 10SM FEW050 SCT080 BKN250 33/21 A2999 RMK AO2 SLP143 CB DSNT N TCU DSNT NE-SE-SW SHRA DSNT NE-E T03280206 55011=
201607291952 METAR KATL 291952Z 29015G22KT 10SM SCT055 SCT080 BKN250 33/19 A2999 RMK AO2 SLP143 CB DSNT E TCU DSNT W-NW SHRA DSNT W-NW T03330189=
201607291852 METAR KATL 291852Z 28008KT 10SM BKN045TCU BKN060 BKN250 33/21 A3001 RMK AO2 SLP150 TCU OHD-S-SW-NW CB DSNT N T03280206=
201607291752 METAR KATL 291752Z COR 25010G18KT 10SM FEW040 SCT100 BKN250 32/20 A3002 RMK AO2 SLP155 CB DSNT NW-N T03220200 10333 20233 58009=
201607291652 METAR KATL 291652Z 25009KT 10SM SCT040 BKN250 32/21 A3005 RMK AO2 SLP163 TCU DSNT E & S MDT CU ALQDS T03170211=
201607291552 METAR KATL 291552Z 26008KT 10SM BKN035 BKN250 31/22 A3005 RMK AO2 SLP163 TCU DSNT E-SE T03060217=
201607291452 METAR KATL 291452Z 27011KT 10SM SCT025 SCT250 29/21 A3005 RMK AO2 SLP164 T02890211 50001=
201607291352 METAR KATL 291352Z 28011KT 10SM FEW020 FEW120 SCT250 27/22 A3005 RMK AO2 SLP165 T02720222=
201607291252 METAR KATL 291252Z 28010KT 10SM FEW014 FEW075 SCT160 SCT250 26/22 A3005 RMK AO2 SLP164 T02560222=
201607291152 METAR KATL 291152Z 27005KT 10SM FEW038 FEW075 SCT140 SCT250 23/22 A3005 RMK AO2 SLP163 T02330222 10244 20228 53006=
201607291052 METAR KATL 291052Z 00000KT 10SM FEW070 SCT140 SCT200 BKN250 23/22 A3004 RMK AO2 SLP160 T02280217=
201607290952 METAR KATL 290952Z 27005KT 10SM FEW008 FEW070 SCT140 SCT250 23/22 A3003 RMK AO2 SLP159 T02280217=
201607290852 METAR KATL 290852Z 23003KT 10SM FEW070 SCT140 SCT200 BKN250 24/22 A3003 RMK AO2 SLP157 T02390222 51003=
201607290752 METAR KATL 290752Z 27005KT 10SM SCT140 SCT200 BKN250 24/22 A3003 RMK AO2 SLP155 T02390222=
201607290652 METAR KATL 290652Z 26006KT 10SM FEW150 SCT200 BKN250 24/22 A3003 RMK AO2 SLP155 T02440222=
201607290552 METAR KATL 290552Z 24004KT 10SM FEW150 SCT250 24/22 A3002 RMK AO2 SLP154 T02440217 10294 20244 55001=
201607290452 METAR KATL 290452Z 27005KT 10SM BKN250 25/22 A3001 RMK AO2 SLP150 T02500217 403280233=
201607290352 METAR KATL 290352Z 27008KT 10SM FEW080 BKN250 26/22 A3001 RMK AO2 SLP153 T02610217=
201607290252 METAR KATL 290252Z 27006KT 10SM FEW050 SCT080 BKN250 27/22 A3002 RMK AO2 SLP155 T02670217 53012=
201607290152 METAR KATL 290152Z 27008KT 10SM FEW040 SCT200 BKN250 27/22 A3001 RMK AO2 SLP150 CB DSNT NW T02720217=
201607290052 METAR KATL 290052Z 25009KT 10SM FEW040 SCT200 SCT250 28/22 A2999 RMK AO2 SLP146 T02830217=
201607282352 METAR KATL 282352Z 25011G20KT 10SM FEW040 SCT200 29/21 A2999 RMK AO2 SLP143 T02940206 10328 20289 55001=
201607282252 METAR KATL 282252Z 24014G19KT 10SM FEW080 SCT120 BKN200 30/21 A2998 RMK AO2 PK WND 25026/2156 SLP142 T03000206=
201607282152 METAR KATL 282152Z 23015G20KT 10SM FEW040TCU SCT060 BKN080 30/22 A2999 RMK AO2 SLP144 TCU VC SW-W CB DSNT NE & NW T03000217=
201607282052 METAR KATL 282052Z 26015G24KT 10SM SCT045CB BKN050 BKN070 31/21 A2999 RMK AO2 SLP142 CB N-NE & SE-S MOV E SHRA VC N-NE & SE-S T03060211 56016=
201607282037 SPECI KATL 282037Z 26014G21KT 10SM FEW045CB BKN065 BKN080 31/20 A2998 RMK AO2 CB SW-NW MOV E SHRA VC SW-NW T03110200=
201607281952 METAR KATL 281952Z 23010KT 10SM FEW040 BKN080 31/20 A2999 RMK AO2 SLP144 TCU DSNT S & W T03110200=
201607281852 METAR KATL 281852Z 26013G21KT 10SM FEW040 BKN060 31/21 A3001 RMK AO2 SLP151 T03110206=
201607281752 METAR KATL 281752Z 24011G16KT 210V270 10SM FEW030 BKN040 BKN050 29/21 A3003 RMK AO2 SLP158 T02940211 10306 20239 58007=
201607281652 METAR KATL 281652Z 27010G16KT 10SM SCT030 BKN040 30/22 A3005=
201607281552 METAR KATL 281552Z 24008KT 10SM BKN030 OVC040 28/21 A3006 RMK AO2 SLP169 BINOVC S-SW T02780211=
201607281514 SPECI KATL 281514Z 25011KT 10SM BKN028 27/21 A3006 RMK AO2 T02720206=
201607281452 METAR KATL 281452Z 24010KT 10SM BKN025 27/21 A3006 RMK AO2 SLP167 T02670206 50002=
201607281352 METAR KATL 281352Z 26010G17KT 10SM BKN017 26/21 A3006 RMK AO2 SLP168 T02560211=
201607281314 SPECI KATL 281314Z 25009KT 10SM BKN016 26/21 A3006 RMK AO2 T02560211=
201607281252 METAR KATL 281252Z 25009G16KT 10SM SCT014 25/21 A3006 RMK AO2 SLP167 T02500211=
201607281152 METAR KATL 281152Z 24007KT 10SM FEW010 FEW100 24/21 A3005 RMK AO2 SLP164 T02390211 10256 20233 53007=
201607281052 METAR KATL 281052Z 25008KT 10SM FEW010 FEW100 23/21 A3005 RMK AO2 SLP163 T02330211=
201607280952 METAR KATL 280952Z 24008KT 10SM CLR 24/21 A3003 RMK AO2 SLP158 T02390211=
201607280852 METAR KATL 280852Z 25008KT 10SM CLR 24/21 A3003 RMK AO2 SLP157 T02440206 56009=
201607280752 METAR KATL 280752Z 25009KT 10SM CLR 25/21 A3004 RMK AO2 SLP159 T02500206=
201607280652 METAR KATL 280652Z 24008KT 10SM CLR 25/21 A3005 RMK AO2 SLP163 T02500206=
201607280552 METAR KATL 280552Z 24005KT 10SM CLR 26/20 A3006 RMK AO2 SLP167 T02560200 10311 20250 50003=
201607280452 METAR KATL 280452Z 24005KT 10SM FEW075 26/19 A3006 RMK AO2 SLP167 T02560194 403330233=
201607280352 METAR KATL 280352Z VRB04KT 10SM FEW075 27/19 A3005 RMK AO2 SLP165 T02670194=
201607280252 METAR KATL 280252Z 26005KT 10SM FEW075 27/19 A3005 RMK AO2 SLP164 T02720189 53011=
201607280152 METAR KATL 280152Z 26009KT 10SM FEW050 FEW075 28/20 A3002 RMK AO2 SLP154 T02830200=
201607280052 METAR KATL 280052Z 24010KT 10SM FEW050 30/21 A3002 RMK AO2 SLP153 TCU DSNT NW T03000206=
201607272352 METAR KATL 272352Z 23009KT 10SM FEW050 31/20 A3002 RMK AO2 SLP152 T03110200 10333 20294 55003=
201607272252 METAR KATL 272252Z 24009KT 10SM FEW050 32/20 A3002 RMK AO2 SLP152 T03220200=
201607272152 METAR KATL 272152Z 24009KT 10SM SCT050 SCT070 33/20 A3002 RMK AO2 SLP153 MDT CU OHD T03280200=
201607272052 METAR KATL 272052Z 21010KT 10SM FEW050 SCT070 33/20 A3003 RMK AO2 SLP156 MDT CU DSNT NW-N-NE T03280200 57017=
201607271952 METAR KATL 271952Z 21008KT 10SM SCT040 SCT050 BKN070 31/21 A3004 RMK AO2 SLP161 MDT CU ALQDS T03110211=
201607271852 METAR KATL 271852Z 20008KT 10SM FEW040TCU SCT050 BKN070 32/22 A3006 RMK AO2 SLP168 TCU S-SW-W MDT CU ALQDS T03170222=
201607271752 METAR KATL 271752Z 23007KT 10SM FEW035 BKN060 29/22 A3008 RMK AO2 SLP173 MDT CU S-SW & NW-N T02940217 10311 20244 58006=
201607271652 METAR KATL 271652Z 27005KT 10SM FEW030 BKN040 30/22 A3010 RMK AO2 SLP181 T03000217=
201607271600 SPECI KATL 271600Z 25007KT 10SM BKN027 BKN032 28/21 A3010 RMK AO2 T02830211=
201607271552 METAR KATL 271552Z 30007KT 10SM FEW025 BKN030 29/22 A3010 RMK AO2 SLP182 T02890217=
201607271452 METAR KATL 271452Z 30008KT 10SM BKN025 27/22 A3010 RMK AO2 SLP180 T02720217 50005=
201607271352 METAR KATL 271352Z 27007KT 10SM SCT014 OVC020 26/22 A3010 RMK AO2 SLP180 BINOVC T02610217=
201607271319 SPECI KATL 271319Z 28009KT 10SM BKN016 OVC024 26/22 A3010 RMK AO2 CIG 014V018 BINOVC T02560222=
201607271252 METAR KATL 271252Z 27008KT 10SM BKN014 OVC020 26/23 A3011 RMK AO2 SLP182 CIG 012V016 BINOVC T02560228=
201607271152 METAR KATL 271152Z 29009KT 10SM FEW009 BKN013 24/23 A3008 RMK AO2 SLP174 CIG 010V015 T02440228 10261 20233 53014=
201607271148 SPECI KATL 271148Z 27004KT 10SM FEW009 BKN013 24/23 A3008 RMK AO2 CIG 010V015=
201607271052 METAR KATL 271052Z 24008KT 10SM OVC008 24/23 A3006 RMK AO2 SLP167 T02440228=
201607270959 SPECI KATL 270959Z 22004KT 10SM BKN008 24/23 A3005 RMK AO2 CIG 007V009 T02390228=
201607270952 METAR KATL 270952Z 21004KT 10SM SCT009 23/23 A3005 RMK AO2 SLP162 T02330228=
201607270932 SPECI KATL 270932Z 22004KT 10SM SCT009 24/23 A3004 RMK AO2 T02390228=
201607270852 METAR KATL 270852Z COR 20005KT 10SM FEW010 24/23 A3004 RMK AO2 SLP159 T02390228 56011=
201607270752 METAR KATL 270752Z 21005KT 10SM CLR 24/23 A3004 RMK AO2 SLP159 T02440228=
201607270652 METAR KATL 270652Z 23006KT 10SM FEW070 FEW100 25/23 A3006 RMK AO2 SLP165 T02500228=
201607270552 METAR KATL 270552Z 22007KT 10SM FEW070 FEW100 26/23 A3007 RMK AO2 SLP170 T02610228 10333 20256 51006=
201607270452 METAR KATL 270452Z 22005KT 10SM FEW070 27/22 A3007 RMK AO2 SLP170 T02670222 403560233=
201607270352 METAR KATL 270352Z 22006KT 10SM FEW070 27/22 A3007 RMK AO2 SLP169 T02720222=
201607270252 METAR KATL 270252Z 23007KT 10SM FEW075 28/22 A3005 RMK AO2 SLP164 T02830222 53017=
201607270152 METAR KATL 270152Z 23009KT 10SM FEW070 FEW250 29/21 A3003 RMK AO2 SLP156 T02940211=
201607270052 METAR KATL 270052Z 19007KT 10SM FEW070 FEW250 31/19 A3001 RMK AO2 SLP149 T03110194=
201607262352 METAR KATL 262352Z 20009KT 10SM FEW075 FEW250 33/17 A3000 RMK AO2 SLP147 CB DSNT S & SW T03330172 10356 20333 55002=
201607262252 METAR KATL 262252Z 20009KT 10SM FEW075 FEW250 34/18 A2998 RMK AO2 SLP140 TCU DSNT S-SW T03440178=
201607262152 METAR KATL 262152Z 17009KT 10SM FEW075 FEW250 35/17 A2999 RMK AO2 SLP142 T03500172=
201607262052 METAR KATL 262052Z 15007KT 10SM FEW080 FEW250 35/14 A3001 RMK AO2 SLP149 CB DSNT N & S T03500144 58014=
201607261952 METAR KATL 261952Z 16004KT 10SM FEW070 34/16 A3003 RMK AO2 SLP155 T03440161=
201607261852 METAR KATL 261852Z 19011G14KT 10SM SCT065 34/17 A3004 RMK AO2 SLP159 MDT CU N-NE T03440172=
201607261752 METAR KATL 261752Z 20005KT 10SM SCT065 34/18 A3005 RMK AO2 SLP164 MDT CU N-NE-E T03390183 10344 20250 58011=
201607261652 METAR KATL 261652Z 15005KT 10SM SCT050TCU 33/20 A3007 RMK AO2 SLP170 TCU NE & W T03280200=
201607261552 METAR KATL 261552Z 00000KT 10SM FEW040 32/22 A3008 RMK AO2 SLP175 T03170222=
201607261452 METAR KATL 261452Z 27005KT 10SM FEW040 31/23 A3009 RMK AO2 SLP176 T03110233 50000=
201607261352 METAR KATL 261352Z 00000KT 10SM CLR 29/23 A3009 RMK AO2 SLP178 T02940233=
201607261252 METAR KATL 261252Z 00000KT 10SM CLR 27/23 A3009 RMK AO2 SLP180 T02670233=
201607261152 METAR KATL 261152Z 22004KT 10SM CLR 25/23 A3009 RMK AO2 SLP177 70037 T02500228 10250 20233 53011=
201607261052 METAR KATL 261052Z COR 22004KT 10SM FEW120 FEW250 24/23 A3007 RMK AO2 SLP169 T02390228=
201607260952 METAR KATL 260952Z 22003KT 10SM CLR 24/23 A3004 RMK AO2 SLP160 T02390228=
201607260852 METAR KATL 260852Z 22004KT 10SM CLR 24/23 A3005 RMK AO2 SLP163 T02390228 56006=
201607260752 METAR KATL 260752Z 00000KT 10SM FEW080 24/23 A3006 RMK AO2 SLP165 T02440233=
201607260652 METAR KATL 260652Z 00000KT 10SM FEW075 24/23 A3006 RMK AO2 SLP168 T02440233=
201607260552 METAR KATL 260552Z 30004KT 10SM FEW060 SCT075 25/23 A3007 RMK AO2 SLP170 60020 T02500233 10289 20250 50001=
201607260452 METAR KATL 260452Z 32003KT 10SM SCT055 BKN100 26/23 A3008 RMK AO2 SLP172 T02560233 403670244=
201607260352 METAR KATL 260352Z 32004KT 10SM SCT070 BKN100 26/23 A3008 RMK AO2 SLP172 T02560233=
201607260252 METAR KATL 260252Z 30003KT 10SM FEW090 SCT140 25/23 A3007 RMK AO2 SLP170 60020 T02500233 51020=
201607260152 METAR KATL 260152Z 30007KT 10SM FEW050 SCT090 BKN130 BKN250 26/23 A3005 RMK AO2 RAE23 SLP163 CB DSNT NW VCSH N-NE P0010 T02560233=
201607260106 SPECI KATL 260106Z 33006KT 5SM RA SCT050CB BKN090 BKN150 BKN250 26/23 A3003 RMK AO2 VIS LWR SW-NW CB SW-NW MOV NW P0001 T02610228=
201607260100 SPECI KATL 260100Z 35005KT 2 1/2SM +RA BKN055CB BKN090 BKN150 BKN250 27/23 A3004 RMK AO2 CB NE-OHD-SW & DSNT NW MOV NW P0000 T02670228=
201607260052 METAR KATL 260052Z 31006KT 10SM -RA SCT055CB BKN070 BKN150 BKN250 26/23 A3003 RMK AO2 RAE16B52 SLP158 VIS LWR NE-SE CB NE-SE & VC NW MOV NW P0010 T02610233=
201607252352 METAR KATL 252352Z VRB04KT 8SM -RA SCT055CB BKN070 BKN250 29/22 A3001 RMK AO2 RAB18 SLP149 VIS LWR SW-NW CB SW-NW & DSNT SE MOV NW P0017 60017 T02940222 10367 20278 53006=
201607252252 METAR KATL 252252Z 23008KT 10SM SCT065TCU SCT080 BKN250 35/19 A2997 RMK AO2 SLP136 TCU OHD-NE & W-NW CB DSNT S & NW T03500189=
201607252152 METAR KATL 252152Z 21007KT 10SM SCT065TCU SCT250 35/18 A2998 RMK AO2 SLP139 TCU NE CB DSNT W T03500183=
201607252052 METAR KATL 252052Z 10007KT 10SM SCT070TCU SCT250 36/19 A2999 RMK AO2 SLP141 TCU OHD-E & DSNT NW T03610189 56021=
201607251952 METAR KATL 251952Z 06005KT 10SM BKN065TCU BKN120 35/19 A3001 RMK AO2 SLP149 TCU DSNT N & OHD-E-SE-S-SW T03500189=
201607251852 METAR KATL 251852Z VRB05KT 10SM BKN060TCU 35/18 A3003 RMK AO2 SLP156 TCU N & OHD-E T03500178=
201607251752 METAR KATL 251752Z 00000KT 10SM BKN055TCU 35/19 A3005 RMK AO2 SLP163 TCU OHD & ALQDS T03500194 10356 20267 58015=
201607251652 METAR KATL 251652Z 11004KT 10SM SCT050TCU 34/21 A3007 RMK AO2 SLP171 TCU NE-E-SE-S T03390206=
201607251552 METAR KATL 251552Z 31006KT 10SM FEW040TCU FEW250 33/22 A3009 RMK AO2 SLP176 TCU SE-S T03330217=
201607251452 METAR KATL 251452Z VRB04KT 10SM FEW120 32/22 A3010 RMK AO2 SLP179 T03220217 50001=
201607251352 METAR KATL 251352Z 30004KT 10SM FEW120 FEW250 31/22 A3010 RMK AO2 SLP181 T03060217=
201607251252 METAR KATL 251252Z 29006KT 10SM FEW060 FEW120 29/21 A3010 RMK AO2 SLP181 T02890211=
201607251152 METAR KATL 251152Z 27003KT 10SM FEW020 FEW060 27/22 A3010 RMK AO2 SLP178 T02670217 10267 20244 53013=
201607251052 METAR KATL 251052Z 00000KT 10SM FEW060 FEW250 25/21 A3008 RMK AO2 SLP173 T02500211=
201607250952 METAR KATL 250952Z 00000KT 10SM FEW060 FEW100 25/21 A3007 RMK AO2 SLP169 T02500211=
201607250852 METAR KATL 250852Z 00000KT 10SM FEW065 FEW090 26/21 A3006 RMK AO2 SLP165 T02560211 53004=
201607250752 METAR KATL 250752Z 00000KT 10SM FEW090 26/21 A3003 RMK AO2 SLP157 T02560211=
201607250652 METAR KATL 250652Z 20004KT 10SM CLR 26/21 A3003 RMK AO2 SLP156 T02610211=
201607250552 METAR KATL 250552Z 00000KT 10SM FEW250 27/22 A3004 RMK AO2 SLP161 T02670217 10311 20267 58008=
201607250452 METAR KATL 250452Z 00000KT 10SM FEW085 FEW250 27/21 A3006 RMK AO2 SLP165 T02720211 403560239=
201607250352 METAR KATL 250352Z 00000KT 10SM FEW040 SCT250 28/21 A3006 RMK AO2 SLP167 T02780211=
201607250252 METAR KATL 250252Z 22003KT 10SM FEW120 SCT200 SCT250 29/21 A3007 RMK AO2 SLP170 T02890211 53013=
201607250152 METAR KATL 250152Z 00000KT 10SM FEW120 SCT200 BKN250 29/22 A3005 RMK AO2 SLP164 T02890217=
201607250052 METAR KATL 250052Z 20004KT 10SM FEW046 FEW110 SCT200 BKN250 29/22 A3004 RMK AO2 SLP160 CB DSNT SW TCU DSNT W T02890217=
201607242352 METAR KATL 242352Z 35011KT 10SM FEW050 FEW110 SCT200 BKN250 32/22 A3003 RMK AO2 SLP157 CB DSNT SE & S & SW TCU DSNT ALQDS 60000 T03170217 10356 20317 53005=
201607242252 METAR KATL 242252Z 21004KT 10SM FEW055 FEW120 SCT200 SCT250 34/17 A3001 RMK AO2 SLP149 CB DSNT SE & SW & NW TCU DSNT ALQDS T03390172=
201607242152 METAR KATL 242152Z 13007KT 10SM FEW048TCU SCT120 SCT250 32/21 A3002 RMK AO2 RAB15E35 SLP152 CB DSNT NW-N TCU NW-NE & DSNT ALQDS SHRA DSNT NW-N P0000 T03220211=
201607242052 METAR KATL 242052Z 23007KT 10SM FEW040CB SCT055TCU SCT110 BKN250 35/20 A3001 RMK AO2 SLP150 CB E-SE MOV SW TCU W CB DSNT N T03500200 56016=
201607241952 METAR KATL 241952Z 22012KT 10SM FEW040CB SCT055TCU SCT110 BKN250 34/21 A3002 RMK AO2 SLP154 CB E-SE MOV N TCU W T03440206=
201607241852 METAR KATL 241852Z 21010KT 10SM SCT050 SCT080 BKN250 34/20 A3004 RMK AO2 SLP161 T03440200=
201607241752 METAR KATL 241752Z 23004KT 10SM SCT050 SCT070 BKN250 34/20 A3006 RMK AO2 SLP167 T03440200 10344 20261 58007=
201607241652 METAR KATL 241652Z 26008KT 10SM SCT040 BKN250 33/21 A3007 RMK AO2 SLP171 T03330206=
201607241552 METAR KATL 241552Z COR 00000KT 10SM SCT040 SCT080 BKN250 32/21 A3008 RMK AO2 SLP174 T03220211=
201607241452 METAR KATL 241452Z 25005KT 10SM FEW035 SCT250 31/22 A3008 RMK AO2 SLP174 T03110217 51007=
201607241352 METAR KATL 241352Z VRB06KT 10SM FEW035 SCT250 30/22 A3008 RMK AO2 SLP175 T03000217=
201607241252 METAR KATL 241252Z 20003KT 10SM FEW250 27/22 A3008 RMK AO2 SLP173 T02720217=
201607241152 METAR KATL 241152Z 00000KT 10SM FEW045 FEW250 26/23 A3006 RMK AO2 SLP167 T02610228 10261 20239 53009=
201607241052 METAR KATL 241052Z 00000KT 10SM FEW045 FEW200 SCT250 24/22 A3004 RMK AO2 SLP162 T02390222=
201607240952 METAR KATL 240952Z COR 00000KT 10SM FEW200 24/23 A3003 RMK AO2 SLP159 T02440228=
201607240852 METAR KATL 240852Z 10003KT 10SM FEW250 25/23 A3003 RMK AO2 SLP157 T02500228 55007=
201607240752 METAR KATL 240752Z 10003KT 10SM FEW250 26/22 A3003 RMK AO2 SLP156 T02560222=
201607240652 METAR KATL 240652Z 00000KT 10SM FEW048 FEW060 BKN250 26/23 A3004 RMK AO2 SLP160 T02560228=
201607240552 METAR KATL 240552Z 00000KT 10SM FEW055 FEW075 FEW150 BKN250 26/23 A3005 RMK AO2 SLP164 T02560228 10294 20256 51007=
201607240452 METAR KATL 240452Z 15003KT 10SM FEW046 SCT075 BKN150 BKN250 27/23 A3005 RMK AO2 SLP163 ACC N-NE T02670228 403390244=
201607240352 METAR KATL 240352Z 15003KT 10SM SCT050 SCT150 BKN250 27/22 A3005 RMK AO2 SLP163 T02720222=
201607240252 METAR KATL 240252Z 02005KT 10SM BKN160 BKN200 OVC250 28/21 A3003 RMK AO2 SLP157 T02830211 53008=
201607240152 METAR KATL 240152Z 31003KT 10SM FEW120 BKN170 OVC250 28/22 A3001 RMK AO2 SLP151 T02780217=
201607240052 METAR KATL 240052Z 33007KT 10SM FEW100 BKN140 OVC200 28/22 A3001 RMK AO2 SLP151 T02830217=
201607232352 METAR KATL 232352Z 28004KT 10SM FEW055 SCT110 BKN200 BKN250 29/21 A3001 RMK AO2 SLP150 T02890211 10339 20283 56000=
201607232252 METAR KATL 232252Z 16007KT 10SM SCT050 SCT100 BKN180 OVC250 28/21 A3001 RMK AO2 SLP151 CB DSNT SW SHRA DSNT SW T02830211=
201607232152 METAR KATL 232152Z 05009KT 10SM FEW038 SCT090 BKN180 OVC250 29/22 A3000 RMK AO2 SLP148 OCNL LTGICCG DSNT SW CB DSNT SE & SW TCU DSNT S & SW T02890217=
201607232124 SPECI KATL 232124Z 06011G22KT 10SM FEW038 SCT085 BKN180 OVC250 30/22 A3001 RMK AO2 CB DSNT E-SE & SW T03000222=
201607232052 METAR KATL 232052Z 19003KT 10SM SCT040 SCT080 OVC220 33/20 A3001 RMK AO2 SLP150 CB DSNT E AND W T03280200 58005=
201607231952 METAR KATL 231952Z 22007KT 10SM FEW035 FEW050TCU SCT100 OVC250 32/21 A3002 RMK AO2 SLP153 TCU S-SW CB DSNT E BINOVC T03220206=
201607231852 METAR KATL 231852Z 23006KT 10SM SCT050TCU BKN120 OVC250 33/20 A3002 RMK AO2 SLP152 TCU S-W BINOVC T03280200=
201607231752 METAR KATL 231752Z 23008KT 10SM FEW040 SCT050 BKN120 33/22 A3003 RMK AO2 SLP154 CB DSNT NW-N MDT CU NE-E-S T03330217 10333 20256 58013=
201607231652 METAR KATL 231652Z VRB06KT 10SM FEW038 SCT046 BKN120 32/22 A3004 RMK AO2 SLP161 CB DSNT NW-N TCU DSNT NE T03220217=
201607231552 METAR KATL 231552Z 26007KT 10SM SCT035 BKN045 BKN200 31/22 A3007 RMK AO2 SLP168 MDT CU SW-W T03110222=
201607231452 METAR KATL 231452Z 21005KT 10SM FEW030 BKN200 BKN250 30/23 A3007 RMK AO2 SLP169 T03000233 51006=
201607231352 METAR KATL 231352Z 22005KT 10SM FEW120 BKN180 BKN250 28/23 A3006 RMK AO2 SLP167 T02830233=
201607231252 METAR KATL 231252Z 24003KT 10SM FEW150 BKN200 BKN250 27/23 A3005 RMK AO2 SLP165 T02720233=
201607231152 METAR KATL 231152Z 28005KT 10SM FEW045 FEW150 BKN200 26/23 A3005 RMK AO2 SLP162 T02560228 10261 20244 53003=
201607231052 METAR KATL 231052Z 00000KT 10SM FEW045 FEW150 SCT250 24/22 A3004 RMK AO2 SLP160 T02440222=
201607230952 METAR KATL 230952Z 21004KT 10SM FEW045 SCT250 25/22 A3003 RMK AO2 SLP157 T02500222=
201607230852 METAR KATL 230852Z 21003KT 10SM FEW050 FEW250 25/22 A3004 RMK AO2 SLP159 T02500217 55007=
201607230752 METAR KATL 230752Z 22004KT 10SM CLR 25/22 A3003 RMK AO2 SLP158 T02500217=
201607230652 METAR KATL 230652Z 21004KT 10SM FEW035 FEW250 26/22 A3004 RMK AO2 SLP162 T02560222=
201607230552 METAR KATL 230552Z 22006KT 10SM FEW250 26/22 A3006 RMK AO2 SLP166 T02610222 10317 20261 50000=
201607230452 METAR KATL 230452Z 23003KT 10SM SCT250 26/22 A3007 RMK AO2 SLP170 T02610222 403330211=
201607230352 METAR KATL 230352Z 20005KT 10SM FEW250 27/22 A3007 RMK AO2 SLP172 T02720217=
201607230252 METAR KATL 230252Z 22006KT 10SM FEW250 27/22 A3006 RMK AO2 SLP166 T02720222 53008=
201607230152 METAR KATL 230152Z 20006KT 10SM FEW150 SCT250 28/23 A3004 RMK AO2 SLP160 T02830228=
201607230052 METAR KATL 230052Z 19009KT 10SM FEW150 SCT200 BKN250 30/22 A3004 RMK AO2 SLP162 T03000217=
201607222352 METAR KATL 222352Z 20005KT 10SM FEW050 FEW150 BKN250 32/21 A3003 RMK AO2 SLP159 T03170211 10333 20311 55009=
201607222252 METAR KATL 222252Z 23004KT 10SM FEW050TCU FEW150 BKN250 32/21 A3003 RMK AO2 SLP158 TCU VC SE & S & DSNT NW T03220206=
201607222152 METAR KATL 222152Z 25007KT 10SM FEW050TCU BKN250 33/21 A3003 RMK AO2 SLP156 TCU OHD-NE & DSNT SE-SW T03330206=
201607222052 METAR KATL 222052Z 22006KT 10SM SCT045TCU SCT060 BKN250 32/21 A3006 RMK AO2 SLP168 TCU OHD-NE T03170206 56024=
201607221952 METAR KATL 221952Z 25005KT 10SM FEW050 BKN230 32/20 A3007 RMK AO2 SLP172 T03220200=
201607221852 METAR KATL 221852Z VRB05KT 10SM FEW041 SCT230 BKN300 32/21 A3010 RMK AO2 SLP182 T03220211=
201607221752 METAR KATL 221752Z VRB05KT 10SM FEW036 BKN230 OVC300 32/21 A3013 RMK AO2 SLP192 T03170211 10317 20217 58002=
201607221652 METAR KATL 221652Z COR 10SM 24005KT SCT030 BKN250 BKN300 30/21 A3014 RMK AO2 SLP195 T03000211=
201607221552 METAR KATL 221552Z 21003KT 10SM FEW030 BKN250 BKN300 29/22 A3014 RMK AO2 SLP196 T02890217=
201607221452 METAR KATL 221452Z 23005KT 10SM FEW020 BKN250 BKN300 28/22 A3014 RMK AO2 SLP195 T02780222 58001=
201607221352 METAR KATL 221352Z VRB04KT 10SM FEW015 BKN250 BKN300 26/22 A3014 RMK AO2 SLP196 T02560217=
201607221252 METAR KATL 221252Z 23005KT 10SM FEW008 BKN250 BKN300 23/22 A3014 RMK AO2 SLP199 T02330217=
201607221152 METAR KATL 221152Z 20004KT 9SM SCT003 SCT250 BKN300 22/21 A3014 RMK AO2 SLP198 70001 T02170211 10233 20211 53006=
201607221119 SPECI KATL 221119Z 18005KT 8SM SCT003 BKN250 22/21 A3014 RMK AO2 T02170211=
201607221115 SPECI KATL 221115Z 19004KT 8SM BKN003 BKN250 21/21 A3013 RMK AO2 VIS 002V004 T02110211=
201607221052 METAR KATL 221052Z 18004KT 10SM FEW002 SCT005 SCT250 22/21 A3013 RMK AO2 SLP194 VIS LWR SE-SW T02170211=
201607220952 METAR KATL 220952Z 15004KT 10SM FEW008 SCT250 22/21 A3013 RMK AO2 SLP192 T02220211=
201607220852 METAR KATL 220852Z 14004KT 10SM FEW250 23/22 A3012 RMK AO2 SLP190 T02280217 55007=
201607220752 METAR KATL 220752Z 00000KT 10SM FEW250 23/21 A3012 RMK AO2 SLP187 T02280211=
201607220652 METAR KATL 220652Z 28003KT 10SM SCT250 23/21 A3012 RMK AO2 SLP188 T02330211=
201607220552 METAR KATL 220552Z 29005KT 10SM FEW140 BKN250 23/21 A3015 RMK AO2 SLP196 T02330211 10256 20233 58006=
201607220452 METAR KATL 220452Z 00000KT 10SM FEW130 BKN250 23/21 A3015 RMK AO2 SLP199 T02330211 403500233=
201607220352 METAR KATL 220352Z 21005KT 10SM FEW130 SCT200 BKN250 23/22 A3016 RMK AO2 SLP202 T02330217=
201607220252 METAR KATL 220252Z 18004KT 10SM SCT130 BKN200 BKN250 24/22 A3016 RMK AO2 SLP203 T02440217 53011=
201607220152 METAR KATL 220152Z 19007KT 10SM FEW150 BKN250 24/22 A3014 RMK AO2 SLP195 T02440217=
201607220052 METAR KATL 220052Z 12005KT 10SM FEW110 SCT150 BKN250 25/22 A3014 RMK AO2 SLP197 T02500217=
201607212352 METAR KATL 212352Z 09011KT 10SM FEW110 SCT150 BKN250 26/21 A3013 RMK AO2 SLP193 60001 T02560211 10350 20250 51010=
201607212252 METAR KATL 212252Z 12009KT 10SM FEW040 SCT150 BKN200 BKN250 26/20 A3010 RMK AO2 PK WND 08026/2202 WSHFT 2139 RAE33 TSE23 SLP184 CB DSNT NE-SE P0000 T02610200=
201607212223 SPECI KATL 212223Z 12010KT 10SM -RA FEW040 SCT120 BKN150 BKN200 26/22 A3012 RMK AO2 PK WND 08026/2202 WSHFT 2139 TSE23 OCNL LTG DSNT SE TS MOV S P0000 T02560217=
201607212152 METAR KATL 212152Z 07016KT 10SM -TSRA FEW040CB SCT070 BKN120 BKN200 28/21 A3014 RMK AO2 WSHFT 2137 RAB52 TSB39 SLP194 FRQ LTGICCG NE-SE TS VC NE-SE MOV S P0000 T02780206=
201607212140 SPECI KATL 212140Z 04014KT 10SM TS FEW040CB SCT080 BKN120 BKN200 29/20 A3014 RMK AO2 TSB39 PRESRR FRQ LTGICCG NE-SE TS VC NE-SE MOV S T02890200=
201607212052 METAR KATL 212052Z 27008KT 10SM FEW040 SCT100 BKN150 BKN250 29/19 A3010 RMK AO2 PK WND 28027/1954 RAB04E35 SLP181 OCNL LTGICCG DSNT NE CB DSNT N-NE-E-SE SHRA DSNT N-NE-S-SE P0001 60001 T02890194 56016=
201607212023 SPECI KATL 212023Z 25012G17KT 9SM -RA FEW040CB SCT050TCU BKN100 BKN250 28/20 A3011 RMK AO2 PK WND 28027/1954 RAB04 VIS LWR SE SHRA CB SE & DSNT E & SE & DSNT NW TCU NE-SE P0001 T02830200=
201607212011 SPECI KATL 212011Z 26012KT 8SM RA BKN045CB BKN100 BKN250 28/20 A3012 RMK AO2 PK WND 28027/1954 RAB04 VIS LWR SE SHRA CB OHD-SE MOV SE P0000 T02830200=
201607211952 METAR KATL 211952Z 28021G24KT 10SM BKN045TCU BKN100 BKN250 31/21 A3011 RMK AO2 SLP186 CB DSNT W TCU NE-SE & OHD-SW-NW SHRA DSNT W T03060206=
201607211852 METAR KATL 211852Z 16005KT 10SM BKN047TCU BKN250 35/21 A3012 RMK AO2 SLP185 CB DSNT SW-NW TCU N & E-SE-S & NW T03500211=
201607211752 METAR KATL 211752Z 20004KT 10SM SCT045TCU SCT200 32/22 A3015 RMK AO2 SLP197 CB DSNT NE & W TCU SE-S & SW-NW T03220217 10333 20244 58017=
201607211652 METAR KATL 211652Z 10004KT 10SM FEW040 FEW150 SCT250 32/23 A3017 RMK AO2 SLP206 CB DSNT W-NW TCU DSNT SE T03220233=
201607211552 METAR KATL 211552Z VRB03KT 10SM FEW005 FEW030 SCT150 31/23 A3020 RMK AO2 SLP213 FU FEW005 T03060233=
201607211452 METAR KATL 211452Z 12005KT 10SM FEW005 FEW150 SCT250 28/22 A3020 RMK AO2 SLP214 FU FEW005 T02830222 50007=
201607211352 METAR KATL 211352Z 11004KT 10SM FEW150 BKN180 BKN250 26/22 A3020 RMK AO2 SLP215 T02610222=
201607211252 METAR KATL 211252Z 10005KT 10SM BKN180 BKN250 26/22 A3019 RMK AO2 SLP213 T02560222=
201607211152 METAR KATL 211152Z 11003KT 10SM FEW070 FEW110 BKN160 BKN250 24/22 A3018 RMK AO2 SLP206 ACC SE 70003 T02440217 10256 20233 53016=
201607211052 METAR KATL 211052Z 12004KT 10SM SCT065 SCT120 SCT250 24/22 A3016 RMK AO2 SLP200 T02440217=
201607210952 METAR KATL 210952Z 10004KT 10SM FEW120 FEW250 24/22 A3014 RMK AO2 SLP192 T02390222=
201607210852 METAR KATL 210852Z 08006KT 10SM FEW065 FEW120 24/22 A3013 RMK AO2 SLP190 T02440222 58003=
201607210752 METAR KATL 210752Z COR 13004KT 10SM FEW070 SCT120 25/23 A3014 RMK AO2 SLP192 T02500228=
201607210652 METAR KATL 210652Z 00000KT 10SM FEW120 FEW250 25/23 A3013 RMK AO2 SLP191 T02500228=
201607210552 METAR KATL 210552Z 20004KT 10SM FEW120 SCT250 25/23 A3014 RMK AO2 SLP194 60003 T02500228 10339 20244 58013=
201607210452 METAR KATL 210452Z 00000KT 10SM SCT120 SCT250 26/23 A3015 RMK AO2 SLP198 T02560228 403610217=
201607210352 METAR KATL 210352Z 00000KT 10SM FEW035CB BKN110 BKN250 26/22 A3017 RMK AO2 RAE41 TSE28 SLP203 CB VC S & SW MOV S P0003 T02560222=
201607210328 SPECI KATL 210328Z VRB05KT 10SM -RA FEW035CB SCT060 BKN100 BKN200 25/22 A3018 RMK AO2 TSE28 TS DSIPTD CB S-SW MOV SW P0003 T02500222=
201607210300 SPECI KATL 210300Z 09019G23KT 6SM TSRA SCT045CB BKN060 BKN100 OVC200 27/23 A3016 RMK AO2 VIS LWR SE-S OCNL LTGIC NE TS VC NE MOV SW CB SE-S & VC NE MOV SW P0001 T02720228=
201607210252 METAR KATL 210252Z 11009KT 2SM +TSRA BKN045CB BKN060 BKN100 OVC200 29/22 A3018 RMK AO2 WSHFT 0217 RAB33 SLP207 OCNL LTGICCG NE TS VC NE MOV SW CB OHD-S & VC NE MOV SW P0000 60000 T02890217 53018=
201607210233 SPECI KATL 210233Z 10007KT 080V140 10SM -TSRA FEW045CB BKN060 BKN100 BKN250 29/21 A3017 RMK AO2 WSHFT 0217 RAB33 VIS LWR NE-SE OCNL LTGIC NE-SE TS NE-SE MOV SW P0000 T02940206=
201607210152 METAR KATL 210152Z 20006KT 10SM TS FEW050CB BKN070 BKN250 30/21 A3015 RMK AO2 TSB45 SLP197 OCNL LTGICCG NE TS VC NE MOV SW T03000206=
201607210145 SPECI KATL 210145Z 21007KT 10SM TS FEW055CB SCT080 BKN250 30/21 A3014 RMK AO2 TSB45 OCNL LTGICCG NE TS VC NE MOV SW T03000206=
201607210052 METAR KATL 210052Z 27004KT 10SM FEW060TCU SCT250 32/22 A3013 RMK AO2 SLP191 TCU SW & DSNT NE CB DSNT SE T03170217=
201607202352 METAR KATL 202352Z VRB03KT 10SM FEW060TCU SCT250 34/19 A3012 RMK AO2 SLP188 TCU OHD-SW CB DSNT SE T03390194 10361 20322 55003=
201607202252 METAR KATL 202252Z 32004KT 10SM FEW065TCU FEW250 35/19 A3010 RMK AO2 SLP182 TCU OHD-S & DSNT W-NW CB DSNT SE & SW T03500194=
201607202152 METAR KATL 202152Z 33005KT 10SM FEW060 FEW250 36/20 A3011 RMK AO2 SLP184 CB DSNT S & W T03560200=
201607202052 METAR KATL 202052Z 00000KT 10SM FEW055TCU FEW200 34/19 A3013 RMK AO2 SLP191 TCU N & DSNT E-SE-S & DSNT NW T03440194 58021=
201607201952 METAR KATL 201952Z 29004KT 10SM FEW050 FEW250 33/21 A3015 RMK AO2 SLP199 TCU DSNT E-SE-S T03330206=
201607201852 METAR KATL 201852Z 00000KT 10SM FEW050 FEW200 SCT250 34/22 A3018 RMK AO2 SLP207 TCU DSNT E-SE & DSNT S-SW T03390222=
201607201752 METAR KATL 201752Z 00000KT 10SM FEW045 BKN200 BKN250 32/21 A3020 RMK AO2 SLP214 TCU DSNT SE T03170206 10328 20239 58012=
201607201652 METAR KATL 201652Z VRB03KT 10SM FEW035 SCT200 BKN250 32/22 A3021 RMK AO2 SLP219 T03220222=
201607201552 METAR KATL 201552Z VRB03KT 10SM FEW030 SCT200 BKN250 31/22 A3023 RMK AO2 SLP224 T03060222=
201607201452 METAR KATL 201452Z 16007KT 10SM FEW150 SCT250 28/22 A3023 RMK AO2 SLP226 T02830222 51007=
201607201352 METAR KATL 201352Z 10006KT 10SM FEW120 FEW250 28/22 A3023 RMK AO2 SLP225 T02780222=
201607201252 METAR KATL 201252Z 05003KT 10SM FEW120 SCT200 SCT250 27/22 A3022 RMK AO2 SLP223 T02670217=
201607201152 METAR KATL 201152Z 34003KT 10SM FEW150 SCT200 BKN250 24/22 A3021 RMK AO2 SLP220 70040 T02390217 10239 20217 53012=
201607201052 METAR KATL 201052Z 00000KT 10SM FEW050 SCT200 SCT250 23/21 A3018 RMK AO2 SLP210 T02280211=
201607200952 METAR KATL 200952Z 28004KT 10SM FEW200 SCT250 22/21 A3016 RMK AO2 SLP203 T02220211=
201607200852 METAR KATL 200852Z 28005KT 10SM SCT200 BKN250 22/21 A3017 RMK AO2 SLP205 T02220211 56006=
201607200752 METAR KATL 200752Z 26005KT 10SM FEW250 22/21 A3017 RMK AO2 SLP206 T02170211=
201607200652 METAR KATL 200652Z 19004KT 10SM FEW250 22/21 A3019 RMK AO2 SLP210 T02220211=
201607200552 METAR KATL 200552Z 21005KT 10SM FEW150 SCT250 22/22 A3019 RMK AO2 SLP211 60021 T02220217 10261 20222 51004=
201607200452 METAR KATL 200452Z 22005KT 10SM FEW150 SCT250 23/22 A3019 RMK AO2 SLP211 T02330222 403670228=
201607200352 METAR KATL 200352Z 00000KT 10SM SCT150 BKN250 23/22 A3018 RMK AO2 SLP209 T02330222=
201607200252 METAR KATL 200252Z 34006KT 10SM FEW100 BKN150 BKN250 26/21 A3018 RMK AO2 SLP206 60021 T02610211 56004=
201607200152 METAR KATL 200152Z 33009KT 10SM FEW070 SCT120 BKN200 BKN250 23/21 A3018 RMK AO2 RAE0058 TSE07 SLP209 CB DSNT N P0000 T02330211=
201607200107 SPECI KATL 200107Z 32011KT 10SM FEW030 SCT100 BKN200 BKN250 24/22 A3017=
201607200052 METAR KATL 200052Z 32005KT 9SM -TSRA FEW010 SCT040CB BKN100 BKN200 24/22 A3017 RMK AO2 PRESFR SLP208 VIS LWR SE-S OCNL LTGIC SW & NW TS VC SW & NW MOV SW P0021 T02440217=
201607192352 METAR KATL 192352Z 01007KT 4SM TSRA BR FEW045CB BKN070 BKN100 OVC200 24/22 A3019 RMK AO2 WSHFT 2250 SLP214 VIS LWR NW-NE OCNL LTGICCG NW-NE TS NW-NE MOV S RAB09 P0019 60019 T02390222 10367 20239 53019=
201607192339 SPECI KATL 192339Z 23006KT 4SM TSRA BR SCT050CB BKN070 BKN100 OVC200 24/22 A3016 RMK AO2 WSHFT 2250 FRQ LTGICCG NW-NE-E TS NW-NE-E MOV S RAB09 P0015 T02390222=
201607192328 SPECI KATL 192328Z 25007KT 2 1/2SM +TSRA SCT050CB BKN070 BKN200 OVC250 24/22 A3017 RMK AO2 WSHFT 2250 OCNL LTGICCG NE-OHD-SW TS NE-OHD-SW MOV S RAB09 P0004 T02440217=
201607192307 SPECI KATL 192307Z 29011G20KT 10SM TS FEW050CB BKN070 BKN200 BKN250 27/19 A3016 RMK AO2 WSHFT 2250 FRQ LTGICCG SW-NW & N-NE TS VC SW-NW & N-NE MOV S T02670189=
201607192304 SPECI KATL 192304Z 27013G20KT 10SM FEW050CB BKN070 BKN200 BKN250 28/19 A3017 RMK AO2 WSHFT 2250 PRESRR FRQ LTGICCG SW-NW & N-NE TS VC SW-NW & N-NE MOV S T02780194=
201607192252 METAR KATL 192252Z 22012KT 10SM TS FEW050CB SCT070 BKN200 BKN250 29/22 A3015 RMK AO2 TSB21 SLP197 FRQ LTGICCG SW-NW & DSNT NE TS VC SW-NW & DSNT NE MOV S T02940217=
201607192221 SPECI KATL 192221Z 20009KT 10SM TS FEW050CB SCT200 BKN250 31/22 A3013 RMK AO2 TSB21 OCNL LTGICCG SW-NW TS VC SW-NW MOV STNRY TCU VC NW-NE T03060222=
201607192152 METAR KATL 192152Z 19012KT 10SM FEW060TCU SCT200 BKN250 32/23 A3014 RMK AO2 SLP193 TCU VC N-NE & SW-NW CB DSNT SW T03220228=
201607192052 METAR KATL 192052Z 16006KT 10SM FEW065TCU SCT200 BKN250 34/19 A3013 RMK AO2 SLP191 CB DSNT E & S & NW TCU N & SW T03440189 58022=
201607191952 METAR KATL 191952Z 00000KT 10SM SCT065TCU SCT200 BKN250 35/19 A3016 RMK AO2 SLP201 CB DSNT SE-SW & DSNT NW TCU SW & DSNT ALQDS T03500194=
201607191852 METAR KATL 191852Z 32008KT 10SM SCT060 SCT250 36/19 A3019 RMK AO2 SLP209 CB DSNT SE-SW & DSNT NW TCU DSNT ALQDS T03560194=
201607191752 METAR KATL 191752Z 31009KT 10SM BKN055TCU BKN200 34/21 A3020 RMK AO2 SLP214 CB DSNT SE-S-SW & DSNT NW TCU OHD-SE-SW & DSNT NW T03440206 10350 20256 58020=
201607191652 METAR KATL 191652Z 00000KT 10SM FEW045TCU SCT150 SCT200 34/21 A3022=
201607191552 METAR KATL 191552Z 00000KT 10SM FEW040 SCT120 SCT200 33/22 A3025 RMK AO2 SLP231 CB DSNT W-NW ACC DSNT E T03280217=
201607191452 METAR KATL 191452Z 31009KT 10SM BKN120 BKN150 32/23 A3026 RMK AO2 SLP234 CB DSNT NW T03220228 51012=
201607191352 METAR KATL 191352Z VRB05KT 10SM FEW130 FEW250 30/22 A3026 RMK AO2 SLP234 CB DSNT S & NW T03000217=
201607191252 METAR KATL 191252Z 28005KT 10SM FEW055 BKN130 26/22 A3025 RMK AO2 SLP231 T02610222=
201607191152 METAR KATL 191152Z 27003KT 10SM FEW055 SCT140 25/22 A3023 RMK AO2 SLP224 ACC N-E AND W-N T02500222 10272 20244 53008=
201607191052 METAR KATL 191052Z 00000KT 10SM CLR 24/22 A3022 RMK AO2 SLP222 T02440222=
201607190952 METAR KATL 190952Z 31005KT 10SM FEW150 25/22 A3020 RMK AO2 SLP216 T02500222=
201607190852 METAR KATL 190852Z 00000KT 10SM SCT150 27/22 A3020 RMK AO2 SLP215 T02670217 55002=
201607190752 METAR KATL 190752Z 01003KT 10SM FEW050 FEW150 SCT200 27/22 A3020 RMK AO2 SLP213 T02670217=
201607190652 METAR KATL 190652Z 00000KT 10SM FEW050 SCT150 SCT220 26/22 A3020 RMK AO2 SLP214 T02560222=
201607190552 METAR KATL 190552Z 00000KT 10SM FEW150 SCT250 27/22 A3021 RMK AO2 SLP217 T02670222 10306 20261 55003=
201607190452 METAR KATL 190452Z 31006KT 10SM SCT250 26/22 A3020 RMK AO2 SLP215 T02610222 403390233=
201607190352 METAR KATL 190352Z 00000KT 10SM FEW150 BKN250 28/22 A3021 RMK AO2 SLP216 T02780222=
201607190252 METAR KATL 190252Z 00000KT 10SM FEW150 BKN250 27/22 A3022 RMK AO2 SLP221 T02720222 51001=
201607190152 METAR KATL 190152Z 16005KT 10SM FEW150 SCT200 BKN250 28/23 A3022 RMK AO2 SLP220 FRQ LTG DSNT NW T02780228=
201607190052 METAR KATL 190052Z 17006KT 10SM FEW040 SCT100 BKN200 BKN250 29/22 A3022 RMK AO2 SLP221 OCNL LTG DSNT W-NW T02890217=
201607182352 METAR KATL 182352Z 08006KT 10SM FEW040 SCT150 BKN200 BKN250 31/21 A3022 RMK AO2 SLP220 TCU DSNT SW & W T03060211 10339 20289 53004=
201607182252 METAR KATL 182252Z 07010KT 10SM FEW040TCU BKN150 BKN200 OVC250 29/22 A3020 RMK AO2 SLP216 TCU VC S-SW & DSNT SW-W T02940217=
201607182152 METAR KATL 182152Z 07011KT 10SM FEW045CB SCT100 BKN200 BKN250 31/21 A3020 RMK AO2 SLP216 OCNL LTG DSNT NE CB VC SE & DSNT NE MOV SE TCU DSNT SW T03110211=
201607182052 METAR KATL 182052Z 00000KT 10SM FEW050CB SCT060TCU BKN090 BKN250 33/20 A3020 RMK AO2 SLP216 CB N-NE & DSNT NE-E MOV SE TCU OHD-E-SE-S SHRA VC N-NE & DSNT NE-E T03330200 56023=
201607181952 METAR KATL 181952Z VRB06KT 10SM FEW050 SCT120 BKN230 33/21 A3021 RMK AO2 SLP217 CB DSNT N & NE TCU DSNT N & DSNT SE-S-SW T03330206=
201607181852 METAR KATL 181852Z VRB06KT 10SM FEW050 SCT120 BKN250 33/21 A3024 RMK AO2 SLP227 TCU DSNT E-SE & DSNT W-NW-N T03330206=
201607181752 METAR KATL 181752Z 20010KT 10SM SCT050TCU BKN080 BKN140 BKN250 31/22 A3027 RMK AO2 SLP240 TCU OHD-N-NE-E-SE SHRA VC SE T03110217 10333 20244 58010=
201607181652 METAR KATL 181652Z 34007KT 10SM SCT040TCU SCT140 31/21 A3029 RMK AO2 SLP247 CB DSNT SW TCU N-NE & E-SE-S SHRA DSNT SW T03110206=
201607181552 METAR KATL 181552Z VRB03KT 10SM SCT035TCU SCT140 31/22 A3031 RMK AO2 SLP251 TCU NE & S & DSNT W & VC NW T03110217=
201607181452 METAR KATL 181452Z VRB03KT 10SM FEW030 SCT140 SCT250 29/22 A3030 RMK AO2 SLP250 T02940217 51017=
201607181352 METAR KATL 181352Z VRB03KT 10SM FEW140 SCT180 SCT250 28/22 A3030 RMK AO2 SLP248 T02830222=
201607181252 METAR KATL 181252Z 28009KT 10SM SCT130 SCT180 BKN250 26/22 A3028 RMK AO2 SLP242 T02610222=
201607181152 METAR KATL 181152Z 29007KT 10SM FEW150 SCT250 24/22 A3025 RMK AO2 SLP233 T02440222 10250 20233 53012=
201607181052 METAR KATL 181052Z 27003KT 10SM FEW200 SCT250 23/22 A3023 RMK AO2 SLP226 T02330217=
201607180952 METAR KATL 180952Z 31004KT 10SM FEW120 SCT200 SCT250 24/22 A3022 RMK AO2 SLP221 T02390217=
201607180852 METAR KATL 180852Z 28003KT 10SM FEW120 BKN200 BKN250 24/22 A3021 RMK AO2 SLP219 T02390217 56005=
201607180752 METAR KATL 180752Z 16004KT 10SM FEW120 BKN200 BKN250 24/22 A3022 RMK AO2 SLP221 T02390217=
201607180652 METAR KATL 180652Z 19004KT 10SM SCT120 BKN220 24/22 A3022 RMK AO2 SLP220 T02440217=
201607180552 METAR KATL 180552Z 23006KT 10SM FEW050 SCT120 BKN250 25/22 A3023 RMK AO2 SLP224 60000 T02500217 10289 20244 58011=
201607180452 METAR KATL 180452Z 19007KT 10SM FEW055 SCT120 25/22 A3024 RMK AO2 SLP230 T02500222 403500222=
201607180352 METAR KATL 180352Z 15009KT 10SM SCT055 BKN120 BKN200 27/22 A3026 RMK AO2 SLP234 T02670217=
201607180252 METAR KATL 180252Z 17008KT 10SM BKN055 BKN120 OVC200 27/21 A3026 RMK AO2 SLP236 60000 T02720206 53026=
201607180152 METAR KATL 180152Z 08010KT 10SM SCT055 BKN110 BKN200 28/21 A3021 RMK AO2 SLP219 LTG DSNT E-SE & SW-W CB DSNT E-SE & SW-W T02830206=
201607180052 METAR KATL 180052Z 31006KT 10SM SCT055TCU BKN110 BKN200 27/22 A3021 RMK AO2 RAE03 SLP218 SHRA E & S & W-N TCU E & S & W-N P0000 T02670217=
201607172352 METAR KATL 172352Z 36007KT 10SM -RA SCT055TCU SCT110 BKN200 28/23 A3018 RMK AO2 RAB26 SLP211 TCU NE-E & DSNT S & W-NW P0000 60000 T02780233 10350 20272 53004=
201607172252 METAR KATL 172252Z 03009KT 10SM SCT055TCU SCT110 BKN200 30/22 A3017 RMK AO2 SLP206 SHRA W-N TCU OHD & E & SW & W-N T03000217=
201607172152 METAR KATL 172152Z VRB05KT 10SM SCT055TCU SCT100 BKN200 33/20 A3017 RMK AO2 SLP203 SHRA N-NE TCU OHD & N-NE & DSNT W T03280200=
201607172052 METAR KATL 172052Z 20007G16KT 10SM SCT055TCU SCT100 BKN200 BKN250 33/21 A3017 RMK AO2 SLP204 TCU NW-NE & DSNT ALQDS T03330206 56017=
201607171952 METAR KATL 171952Z 22008KT 10SM SCT055TCU SCT085 SCT200 BKN250 33/19 A3018 RMK AO2 SLP208 TCU N & W & DSNT ALQDS CB DSNT NW-NE T03330189=
201607171852 METAR KATL 171852Z COR 20008KT 10SM SCT048TCU SCT070 SCT200 33/20 A3020 RMK AO2 SLP216 TCU NW-NE & DSNT S & W-N CB DSNT NE & S & NW-N SHRA DSNT S T03330200=
201607171752 METAR KATL 171752Z 22008KT 10SM SCT042TCU SCT065 BKN200 32/20 A3022 RMK AO2 SLP222 TCU ALQDS CB DSNT NE-E & S & NW SHRA DSNT NE & S T03170200 10328 20233 58002=
201607171652 METAR KATL 171652Z VRB06KT 10SM BKN036 BKN180 BKN250 31/21 A3024 RMK AO2 SLP228 MDT CU ALQDS T03110206=
201607171552 METAR KATL 171552Z 22008KT 10SM SCT032 SCT180 SCT250 30/22 A3024 RMK AO2 SLP228 T03000217=
201607171452 METAR KATL 171452Z 20006KT 10SM FEW032 FEW180 SCT250 28/22 A3023 RMK AO2 SLP226 T02830217 51011=
201607171352 METAR KATL 171352Z 20005KT 10SM FEW020 FEW150 FEW250 27/22 A3022 RMK AO2 SLP224 T02670217=
201607171252 METAR KATL 171252Z 21004KT 10SM FEW150 FEW250 25/22 A3021 RMK AO2 SLP221 T02500217=
201607171152 METAR KATL 171152Z 19003KT 10SM FEW150 FEW250 23/21 A3020 RMK AO2 SLP215 T02330211 10244 20222 53013=
201607171052 METAR KATL 171052Z 00000KT 10SM FEW150 FEW250 22/21 A3018 RMK AO2 SLP209 T02220211=
201607170952 METAR KATL 170952Z 15003KT 10SM FEW150 22/21 A3016 RMK AO2 SLP202 T02220211=
201607170852 METAR KATL 170852Z 17004KT 10SM CLR 22/21 A3016 RMK AO2 SLP201 T02220211 56004=
201607170752 METAR KATL 170752Z 15004KT 10SM FEW150 FEW250 23/21 A3016 RMK AO2 SLP202 T02280211=
201607170652 METAR KATL 170652Z 09004KT 10SM FEW150 SCT250 23/21 A3016 RMK AO2 SLP201 T02330211=
201607170552 METAR KATL 170552Z 14004KT 10SM FEW045 SCT150 SCT250 24/21 A3017 RMK AO2 SLP205 T02440206 10283 20239 50007=
201607170452 METAR KATL 170452Z 00000KT 10SM FEW120 SCT210 25/20 A3017 RMK AO2 SLP207 T02500200 403170228=
201607170352 METAR KATL 170352Z 15005KT 10SM SCT120 26/19 A3016 RMK AO2 SLP200 T02560194=
201607170252 METAR KATL 170252Z 00000KT 10SM FEW046 SCT120 BKN210 25/18 A3015 RMK AO2 SLP198 T02500183 53013=
201607170152 METAR KATL 170152Z 34004KT 10SM FEW046 SCT150 BKN210 26/18 A3013 RMK AO2 SLP191 T02610178=
201607170052 METAR KATL 170052Z 35007KT 10SM SCT046 BKN120 OVC200 25/18 A3012 RMK AO2 SLP189 SHRA W-NW CB DSNT W-NW TCU DSNT E AND SE T02500178=
201607162352 METAR KATL 162352Z 01011KT 10SM FEW046 SCT120 OVC200 28/19 A3011 RMK AO2 SLP185 CB DSNT N-NE TCU DSNT E-SE T02830189 10317 20283 53014=
201607162252 METAR KATL 162252Z 21006KT 10SM FEW046 SCT100 OVC200 30/21 A3009 RMK AO2 SLP179 SHRA N LTG DSNT N CB DSNT N TCU DSNT E & SE & S T03000206=
201607162152 METAR KATL 162152Z 20009KT 10SM FEW046 SCT100 OVC200 31/21 A3007 RMK AO2 SLP171 SHRA NW CB DSNT NW T03110211=
201607162052 METAR KATL 162052Z 22007KT 10SM FEW020 FEW046 SCT100 BKN200 31/20 A3007 RMK AO2 SLP169 CB DSNT NE & NW T03110200 56015=
201607161952 METAR KATL 161952Z 21009KT 10SM FEW040 FEW100 BKN200 BKN250 31/20 A3008 RMK AO2 SLP173 CB DSNT N-NE & S TCU DSNT NW-NE T03060200=
201607161852 METAR KATL 161852Z 18014KT 10SM FEW038TCU FEW065 SCT100 BKN200 30/22 A3010 RMK AO2 SLP181 CB DSNT ALQDS TCU NW-N T03000217=
201607161752 METAR KATL 161752Z 18010KT 10SM SCT032 SCT060 SCT100 BKN200 31/23 A3011 RMK AO2 SLP185 CB DSNT S-SW TCU DSNT NW-NE T03060228 10306 20244 58009=
201607161652 METAR KATL 161652Z 16005KT 10SM SCT030TCU BKN060 BKN100 BKN200 29/22 A3012 RMK AO2 SLP189 TCU OHD & ALQDS T02940222=
201607161552 METAR KATL 161552Z 24005KT 10SM FEW050 SCT100 BKN180 BKN250 30/21 A3013 RMK AO2 SLP191 CB DSNT SE & S TCU DSNT NE & W T03000211=
201607161452 METAR KATL 161452Z 30005KT 10SM FEW042TCU SCT090 BKN150 BKN250 29/22 A3014 RMK AO2 SLP194 TCU NW ACC SE-SW T02940217 51017=
201607161352 METAR KATL 161352Z 28004KT 10SM FEW044 FEW100 BKN150 BKN250 28/22 A3013 RMK AO2 SLP191 ACC DSNT W-N T02830217=
201607161252 METAR KATL 161252Z 00000KT 10SM FEW018 FEW080 FEW220 27/21 A3011 RMK AO2 SLP184 T02670211=
201607161152 METAR KATL 161152Z 26004KT 10SM FEW100 FEW200 24/21 A3009 RMK AO2 SLP177 T02440211 10261 20228 53011=
201607161052 METAR KATL 161052Z 27004KT 10SM FEW100 FEW200 23/21 A3007 RMK AO2 SLP170 T02330211=
201607160952 METAR KATL 160952Z 21003KT 10SM FEW080 23/21 A3005 RMK AO2 SLP165 T02330211=
201607160852 METAR KATL 160852Z 25004KT 10SM SCT080 24/21 A3006 RMK AO2 SLP166 T02390211 58000=
201607160752 METAR KATL 160752Z 22006KT 10SM SCT100 24/21 A3006 RMK AO2 SLP167 T02440211=
201607160652 METAR KATL 160652Z 21006KT 10SM FEW100 24/21 A3005 RMK AO2 SLP165 T02440206=
201607160552 METAR KATL 160552Z 27004KT 10SM CLR 26/20 A3006 RMK AO2 SLP166 T02610200 10306 20256 50003=
201607160452 METAR KATL 160452Z 26004KT 10SM FEW100 27/20 A3006 RMK AO2 SLP168 T02670200 403330228=
201607160352 METAR KATL 160352Z 29004KT 10SM FEW100 FEW250 27/20 A3006 RMK AO2 SLP167 T02670200=
201607160252 METAR KATL 160252Z 28006KT 10SM FEW100 FEW250 27/21 A3005 RMK AO2 SLP164 T02720206 53013=
201607160152 METAR KATL 160152Z 25005KT 10SM FEW050 FEW250 29/20 A3003 RMK AO2 SLP157 CB DSNT NE T02890200=
201607160052 METAR KATL 160052Z 21005KT 10SM FEW050TCU FEW250 29/20 A3001 RMK AO2 SLP152 TCU VC NE T02940200=
201607152352 METAR KATL 152352Z 22006KT 10SM FEW050TCU SCT110 SCT250 31/19 A3001 RMK AO2 SLP150 TCU VC NE-E & DSNT SE-S CB DSNT NE 60000 T03060194 10333 20300 55000=
201607152252 METAR KATL 152252Z 22008KT 10SM SCT050TCU SCT080 BKN110 BKN250 32/19 A3000 RMK AO2 RAB28E51 SLP146 TCU OHD-SW & VC NW-N CB DSNT NE P0000 T03170189=
201607152152 METAR KATL 152152Z 26007KT 10SM SCT050TCU BKN070 BKN250 32/19 A3000 RMK AO2 SLP148 TCU OHD-E & VC NE & SW & NW T03170194=
201607152052 METAR KATL 152052Z 25009KT 10SM BKN048TCU BKN250 33/20 A3001 RMK AO2 SLP149 TCU OHD T03280200 56021=
201607151952 METAR KATL 151952Z 26009KT 10SM SCT042TCU SCT170 BKN250 33/21 A3003 RMK AO2 SLP156 TCU W-NW T03280206=
201607151852 METAR KATL 151852Z 26010G16KT 220V290 10SM SCT039 BKN170 BKN250 31/20 A3005 RMK AO2 SLP163 T03110200=
201607151752 METAR KATL 151752Z 26006KT 10SM FEW030 BKN170 BKN250 30/21 A3007 RMK AO2 SLP172 T03000206 10306 20233 58010=
201607151652 METAR KATL 151652Z 23008KT 10SM FEW030 BKN170 BKN250 28/22 A3009 RMK AO2 SLP177 TCU DSNT N T02830217=
201607151552 METAR KATL 151552Z 21009KT 10SM FEW025 SCT150 BKN180 BKN250 27/21 A3009 RMK AO2 SLP180 T02720211=
201607151452 METAR KATL 151452Z 23005KT 10SM FEW020 BKN150 BKN250 26/21 A3010 RMK AO2 SLP182 T02610206 51013=
201607151352 METAR KATL 151352Z 26004KT 10SM FEW020 BKN140 BKN250 26/21 A3009 RMK AO2 SLP180 T02560206=
201607151252 METAR KATL 151252Z 25006KT 10SM FEW150 SCT200 BKN250 25/21 A3010 RMK AO2 SLP179 T02500206=
201607151152 METAR KATL 151152Z 23005KT 10SM SCT200 SCT250 23/21 A3006 RMK AO2 SLP168 T02330206 10244 20228 53010=
201607151052 METAR KATL 151052Z 00000KT 10SM SCT200 BKN250 23/20 A3004 RMK AO2 SLP159 T02330200=
201607150952 METAR KATL 150952Z 06004KT 10SM FEW150 BKN200 BKN250 24/20 A3003 RMK AO2 SLP156 T02440200=
201607150852 METAR KATL 150852Z 02003KT 10SM SCT150 BKN200 BKN250 24/19 A3003 RMK AO2 SLP156 T02390194 56013=
201607150752 METAR KATL 150752Z 33005KT 10SM SCT150 BKN200 BKN250 23/19 A3004 RMK AO2 SLP159 T02330194=
201607150652 METAR KATL 150652Z 33005KT 10SM SCT150 BKN250 23/19 A3005 RMK AO2 SLP162 T02330194=
201607150552 METAR KATL 150552Z 28011KT 10SM FEW120 SCT150 BKN250 24/19 A3007 RMK AO2 SLP171 T02390194 10317 20239 51009=
201607150452 METAR KATL 150452Z 26008KT 10SM SCT120 BKN150 BKN250 26/20 A3007 RMK AO2 SLP170 T02560200 403440217=
201607150352 METAR KATL 150352Z 29010KT 10SM BKN150 BKN250 27/20 A3008 RMK AO2 SLP173 T02670200=
201607150252 METAR KATL 150252Z 28004KT 10SM FEW090 SCT200 SCT250 28/19 A3004 RMK AO2 SLP161 T02830194 53006=
201607150152 METAR KATL 150152Z 27007KT 10SM FEW050 SCT080 SCT200 29/20 A3004 RMK AO2 SLP159 T02890200=
201607150052 METAR KATL 150052Z 22008KT 10SM FEW050 FEW150 FEW250 31/21 A3003 RMK AO2 SLP157 OCNL LTG DSNT W-NW TCU DSNT N-NE T03060206=
201607142352 METAR KATL 142352Z 21010KT 10SM FEW055 FEW150 FEW250 32/20 A3002 RMK AO2 SLP155 CB DSNT W-NW T03220200 10344 20322 57000=
201607142252 METAR KATL 142252Z VRB05KT 10SM FEW060 FEW200 SCT250 33/18 A3002 RMK AO2 SLP152 CB DSNT NE T03330183=
201607142152 METAR KATL 142152Z 28007KT 10SM FEW060TCU SCT250 34/19 A3003 RMK AO2 SLP158 TCU OHD & DSNT NW T03440189=
201607142052 METAR KATL 142052Z 25009KT 10SM FEW060 FEW250 34/19 A3002 RMK AO2 SLP155 CB DSNT NW-N TCU DSNT N & E & W T03440189 56024=
201607141952 METAR KATL 141952Z 21011KT 10SM SCT055TCU SCT250 33/18 A3005 RMK AO2 SLP162 CB DSNT N TCU NE & W-NW-N T03330183=
201607141852 METAR KATL 141852Z VRB03KT 10SM FEW055 FEW250 33/19 A3007 RMK AO2 SLP169 CB DSNT N TCU DSNT N T03280194=
201607141752 METAR KATL 141752Z 24009KT 210V270 10SM FEW050 FEW250 33/19 A3010 RMK AO2 SLP180 CB DSNT N T03280194 10328 20233 58016=
201607141652 METAR KATL 141652Z 28008KT 10SM FEW040 FEW250 32/20 A3011 RMK AO2 SLP185 T03220200=
201607141552 METAR KATL 141552Z VRB04G14KT 10SM FEW030 FEW250 31/21 A3013 RMK AO2 SLP192 T03060211=
201607141452 METAR KATL 141452Z 27006KT 10SM FEW250 29/21 A3015 RMK AO2 SLP196 T02890206 51009=
201607141352 METAR KATL 141352Z VRB06KT 10SM FEW250 28/20 A3014 RMK AO2 SLP196 T02780200 $=
201607141252 METAR KATL 141252Z COR 30007KT 10SM FEW001 FEW150 SCT250 26/19 A3013 RMK AO2 SLP191 FU FEW001 S T02560194=
201607141152 METAR KATL 141152Z 25004KT 10SM FEW250 23/19 A3012 RMK AO2 SLP188 T02330189 10250 20217 53009=
201607141052 METAR KATL 141052Z 29006KT 10SM FEW150 FEW250 22/19 A3011 RMK AO2 SLP184 T02220194=
201607140952 METAR KATL 140952Z 29006KT 10SM FEW150 FEW250 22/19 A3009 RMK AO2 SLP179 T02220189=
201607140852 METAR KATL 140852Z 27004KT 10SM SCT200 23/19 A3009 RMK AO2 SLP177 T02280194 56009 $=
201607140752 METAR KATL 140752Z 26005KT 10SM SCT200 24/19 A3009 RMK AO2 SLP177 T02390189 $=
201607140652 METAR KATL 140652Z 23005KT 10SM SCT150 SCT250 24/19 A3010 RMK AO2 SLP179 T02390194 $=
201607140552 METAR KATL 140552Z 24005KT 10SM SCT150 25/20 A3012 RMK AO2 SLP186 T02500200 10311 20244 58005 $=
201607140452 METAR KATL 140452Z 25003KT 10SM FEW150 SCT250 26/20 A3013 RMK AO2 SLP192 T02560200 403440222 $=
201607140352 METAR KATL 140352Z 28006KT 10SM SCT150 BKN250 26/20 A3014 RMK AO2 SLP195 T02610200 $=
201607140252 METAR KATL 140252Z 26010KT 10SM SCT150 SCT250 28/20 A3013 RMK AO2 SLP192 T02780200 53017 $=
201607140152 METAR KATL 140152Z 27006KT 10SM FEW150 FEW250 29/20 A3011 RMK AO2 SLP184 T02890200 $=
201607140052 METAR KATL 140052Z 22005KT 10SM FEW150 FEW250 29/19 A3009 RMK AO2 SLP178 T02940194 $=
201607132352 METAR KATL 132352Z 23008KT 10SM FEW055 FEW150 FEW250 31/19 A3008 RMK AO2 SLP176 CB DSNT E T03060189 10344 20306 55007 $=
201607132252 METAR KATL 132252Z 26007KT 10SM FEW055 SCT150 SCT250 33/19 A3007 RMK AO2 SLP171 CB DSNT S TCU DSNT E & SE T03280189 $=
201607132152 METAR KATL 132152Z 29009KT 10SM FEW055CB SCT150 SCT200 34/17 A3008 RMK AO2 SLP175 CB VC SE MOV STNRY T03390167 $=
201607132052 METAR KATL 132052Z 27006KT 10SM SCT055TCU SCT150 BKN200 34/19 A3010 RMK AO2 SLP182 CB DSNT W TCU OHD-SE-S-SW T03390194 56021=
201607131952 METAR KATL 131952Z 30006KT 10SM SCT050TCU SCT150 32/19 A3013 RMK AO2 SLP190 CB DSNT NE & DSNT S TCU DSNT SW-W & VC NW-N T03170194=
201607131852 METAR KATL 131852Z 27006KT 10SM FEW060 FEW150 SCT250 33/19 A3014 RMK AO2 SLP196 TCU DSNT SE & SW MDT CU DSNT NW T03330189=
201607131752 METAR KATL 131752Z 36007KT 340V040 10SM FEW055 FEW150 SCT250 32/18 A3017 RMK AO2 SLP205 T03170183 10322 20233 58007=
201607131652 METAR KATL 131652Z 00000KT 10SM FEW050 FEW150 SCT250 31/19 A3019 RMK AO2 SLP210 T03110189=
201607131552 METAR KATL 131552Z 32008KT 290V350 10SM FEW040 FEW150 SCT200 30/18 A3019 RMK AO2 SLP214 T03000178=
201607131452 METAR KATL 131452Z 33011KT 10SM FEW030 FEW150 SCT200 28/19 A3019 RMK AO2 SLP213 T02830189 51006=
201607131352 METAR KATL 131352Z 33012KT 10SM FEW150 FEW180 27/19 A3019 RMK AO2 SLP212 T02670189=
201607131252 METAR KATL 131252Z 28005KT 10SM BKN140 BKN180 24/19 A3019 RMK AO2 SLP214 T02440189=
201607131152 METAR KATL 131152Z 31005KT 10SM BKN140 23/19 A3017 RMK AO2 SLP207 T02330189 10233 20222 51007=
201607131052 METAR KATL 131052Z 00000KT 10SM BKN140 23/19 A3017 RMK AO2 SLP205 T02280189=
201607130952 METAR KATL 130952Z 31006KT 10SM BKN140 23/19 A3017 RMK AO2 SLP205 T02280189=
201607130852 METAR KATL 130852Z 31006KT 10SM BKN150 BKN200 23/19 A3015 RMK AO2 SLP199 T02280189 53006=
201607130752 METAR KATL 130752Z 30005KT 10SM SCT180 22/18 A3014 RMK AO2 SLP194 T02220183=
201607130652 METAR KATL 130652Z 29004KT 10SM FEW100 SCT180 22/19 A3014 RMK AO2 SLP194 T02220194=
201607130552 METAR KATL 130552Z 32003KT 10SM FEW010 FEW120 SCT180 BKN250 23/19 A3013 RMK AO2 SLP193 60000 T02280194 10300 20228 53005=
201607130452 METAR KATL 130452Z 00000KT 10SM SCT150 BKN200 BKN250 24/19 A3013 RMK AO2 SLP192 T02390194 403280211=
201607130352 METAR KATL 130352Z 24005KT 10SM BKN150 BKN200 BKN250 23/20 A3011 RMK AO2 SLP184 T02330200=
201607130252 METAR KATL 130252Z 17004KT 10SM SCT140 BKN200 BKN250 25/19 A3012 RMK AO2 SLP188 60000 T02500189 50000=
201607130152 METAR KATL 130152Z 30007KT 10SM BKN140 BKN200 BKN250 25/18 A3013 RMK AO2 RAB37E50 SLP192 SHRA NE-SE P0000 T02500183=
201607130052 METAR KATL 130052Z 23012G19KT 10SM FEW045CB SCT150 BKN200 BKN250 26/18 A3016 RMK AO2 PK WND 20028/0017 TSE52 SLP202 TS DSIPTD CB VC E-S MOV NE T02610178=
201607122352 METAR KATL 122352Z 22013G19KT 10SM TS FEW050CB SCT150 BKN250 30/19 A3012 RMK AO2 TSB52 SLP187 OCNL LTGICCG S-SW TS VC S-SW MOV NE T03000189 10328 20294 53005=
201607122252 METAR KATL 122252Z 24006KT 10SM FEW050TCU SCT150 SCT250 32/18 A3010 RMK AO2 SLP181 TCU VC NE CB DSNT SE-SW / NW T03170183=
201607122152 METAR KATL 122152Z 21008KT 10SM SCT045TCU SCT250 32/21 A3009 RMK AO2 SLP179 TCU VC NE / DSNT W T03220206=
201607122052 METAR KATL 122052Z 23008KT 10SM SCT046TCU SCT250 32/20 A3010 RMK AO2 SLP182 CB DSNT N / DSNT S-SW-W TCU N-NE / SW-NW T03170200 56019=
201607121952 METAR KATL 121952Z VRB04KT 10SM FEW047TCU 32/20 A3012 RMK AO2 SLP187 TCU NW-N T03170200=
201607121852 METAR KATL 121852Z 22007KT 10SM FEW045 32/21 A3014 RMK AO2 SLP194 TCU DSNT SW-NW-N T03170206=
201607121752 METAR KATL 121752Z VRB03KT 10SM SCT040 31/21 A3016 RMK AO2 SLP202 TCU DSNT N-NE T03060206 10317 20222 58004=
201607121652 METAR KATL 121652Z VRB06KT 10SM SCT035 29/21 A3017 RMK AO2 SLP206 TCU DSNT N MDT CU E T02940211=
201607121552 METAR KATL 121552Z 00000KT 10SM FEW030 FEW250 29/22 A3017 RMK AO2 SLP207 T02940217=
201607121452 METAR KATL 121452Z VRB05KT 10SM FEW030 FEW250 28/21 A3017 RMK AO2 SLP207 T02780211 51011=
201607121352 METAR KATL 121352Z 25004KT 10SM FEW020 FEW250 26/21 A3017 RMK AO2 SLP207 T02610211=
201607121252 METAR KATL 121252Z 27003KT 10SM FEW007 FEW250 24/21 A3015 RMK AO2 SLP200 T02440206=
201607121152 METAR KATL 121152Z 28005KT 10SM FEW007 FEW250 22/20 A3014 RMK AO2 SLP197 70003 T02220200 10222 20211 53014=
201607121145 SPECI KATL 121145Z 29006KT 10SM FEW007 FEW250 22/20 A3014 RMK AO2 T02220200=
201607121052 METAR KATL 121052Z 27003KT 10SM FEW150 FEW250 21/19 A3013 RMK AO2 SLP194 T02110189=
201607120952 METAR KATL 120952Z 27003KT 10SM FEW150 21/19 A3010 RMK AO2 SLP180 T02110194=
201607120852 METAR KATL 120852Z 26003KT 10SM FEW150 21/19 A3010 RMK AO2 SLP180 T02110194 58002=
201607120752 METAR KATL 120752Z 21003KT 10SM CLR 21/19 A3010 RMK AO2 SLP182 T02110194=
201607120652 METAR KATL 120652Z 21004KT 10SM FEW180 21/19 A3010 RMK AO2 SLP183 T02110194=
201607120552 METAR KATL 120552Z 19003KT 10SM FEW180 FEW250 22/20 A3010 RMK AO2 SLP183 60001 T02170200 10233 20217 56007=
201607120452 METAR KATL 120452Z 00000KT 10SM BKN170 BKN250 22/19 A3011 RMK AO2 SLP184 T02220194 403280217=
201607120352 METAR KATL 120352Z 00000KT 10SM BKN170 BKN250 22/20 A3012 RMK AO2 SLP189 T02220200=
201607120252 METAR KATL 120252Z 14003KT 10SM BKN180 BKN250 22/21 A3012 RMK AO2 SLP192 60001 T02220206 51013=
201607120152 METAR KATL 120152Z 20004KT 10SM SCT150 BKN200 BKN250 22/21 A3012 RMK AO2 SLP189 T02220206=
201607120052 METAR KATL 120052Z 22008KT 10SM FEW010 SCT120CB BKN150 BKN200 22/21 A3010 RMK AO2 RAE52 SLP183 CBMAM OHD-NW P0001 T02220206=
201607112352 METAR KATL 112352Z 31008KT 10SM -RA FEW080 BKN120 BKN150 OVC200 23/19 A3008 RMK AO2 RAB16 TSE16 SLP179 OCNL LTG DSNT NE P0002 60002 T02280194 10328 20228 50008=
201607112316 SPECI KATL 112316Z 25007KT 10SM -RA FEW025 SCT120 BKN150 OVC200 23/19 A3009 RMK AO2 RAB16 TSE16 OCNL LTG DSNT NE TS MOV NE P0000 T02330189=
201607112252 METAR KATL 112252Z 20014G26KT 10SM TS FEW025CB SCT055 BKN120 OVC200 24/19 A3010 RMK AO2 PK WND 22034/2236 WSHFT 2224 TSB02 SLP185 OCNL LTGICCG NE-SE TS VC NE-SE MOV NE T02390189=
201607112241 SPECI KATL 112241Z 20018G34KT 10SM TS FEW030CB BKN055 BKN110 BKN200 24/19 A3011 RMK AO2 PK WND 22034/2236 WSHFT 2224 TSB02 PRESRR FRQ LTGICCG NE-SE-S TS NE-SE-S MOV NE T02440189=
201607112222 SPECI KATL 112222Z 26018G24KT 10SM TS SCT050CB SCT150 BKN250 29/20 A3006 RMK AO2 TSB02 FRQ LTGICCG SE-SW TS VC SE-SW MOV NE T02940200=
201607112202 SPECI KATL 112202Z 23007KT 10SM TS SCT055CB SCT200 SCT250 32/19 A3005 RMK AO2 TSB02 FRQ LTGICCG NW & DSNT S-SW TS VC NW & DSNT S-SW MOV NE T03170189=
201607112152 METAR KATL 112152Z 22010KT 10SM SCT055 SCT250 32/19 A3005 RMK AO2 SLP165 FRQ LTG DSNT S-SW / NW T03220189=
201607112052 METAR KATL 112052Z VRB06KT 10SM FEW055 FEW200 SCT250 32/19 A3006 RMK AO2 SLP167 CB DSNT S-SW-W TCU DSNT SW-W-NW-N T03220194 56020=
201607111952 METAR KATL 111952Z 21006KT 10SM FEW050 FEW200 SCT250 32/19 A3007 RMK AO2 SLP170 CB DSNT W TCU DSNT SE-S-SW T03220189=
201607111852 METAR KATL 111852Z 19006KT 10SM SCT047 SCT250 31/21 A3010 RMK AO2 SLP180 TCU DSNT SE / NW T03110206=
201607111752 METAR KATL 111752Z 25006KT 10SM SCT040 SCT150 BKN250 31/20 A3012 RMK AO2 SLP188 TCU DSNT N T03060200 10306 20233 58006=
201607111652 METAR KATL 111652Z VRB06KT 10SM FEW037 BKN150 BKN200 30/20 A3013 RMK AO2 SLP192 T03000200=
201607111552 METAR KATL 111552Z 22006KT 10SM FEW030 SCT130 BKN200 28/21 A3014 RMK AO2 SLP196 T02830206=
201607111452 METAR KATL 111452Z 28006KT 10SM FEW020 SCT130 BKN180 BKN250 26/20 A3014 RMK AO2 SLP195 T02610200 52010=
201607111352 METAR KATL 111352Z 29006KT 10SM BKN130 BKN180 BKN250 25/20 A3013 RMK AO2 SLP192 T02500200=
201607111252 METAR KATL 111252Z 25006KT 10SM BKN150 24/20 A3012 RMK AO2 SLP187 T02390200=
201607111152 METAR KATL 111152Z 27005KT 10SM SCT110 BKN150 23/20 A3011 RMK AO2 SLP184 T02330200 10244 20222 53014=
201607111052 METAR KATL 111052Z 27006KT 10SM FEW120 BKN150 BKN200 23/20 A3009 RMK AO2 SLP178 T02280200=
201607110952 METAR KATL 110952Z 27004KT 10SM SCT060 BKN150 BKN200 22/20 A3007 RMK AO2 SLP171 T02220200=
201607110852 METAR KATL 110852Z 25009KT 10SM FEW140 SCT200 23/20 A3007 RMK AO2 SLP169 T02280200 55003 $=
201607110752 METAR KATL 110752Z 27007KT 10SM FEW060 SCT140 BKN200 23/20 A3005 RMK AO2 SLP164 T02280200 $=
201607110652 METAR KATL 110652Z 28004KT 10SM FEW060 FEW140 BKN200 23/20 A3006 RMK AO2 SLP167 T02330200 $=
201607110552 METAR KATL 110552Z 24006KT 10SM FEW060 SCT140 BKN200 BKN250 24/20 A3007 RMK AO2 SLP172 T02440200 10311 20244 50003 $=
201607110452 METAR KATL 110452Z 26005KT 10SM FEW055 BKN200 BKN250 25/20 A3008 RMK AO2 SLP174 T02500200 403390217 $=
201607110352 METAR KATL 110352Z 26008KT 10SM FEW110 BKN200 BKN250 26/20 A3007 RMK AO2 SLP173 T02610200 $=
201607110252 METAR KATL 110252Z 24009KT 10SM FEW046 FEW100 BKN200 BKN250 27/20 A3006 RMK AO2 SLP170 OCNL LTGICCA DSNT NE CB DSNT NE TCU DSNT NW-N T02720200 53019 $=
201607110152 METAR KATL 110152Z 24011KT 10SM FEW050 FEW110 BKN200 BKN250 28/21 A3005 RMK AO2 SLP163 OCNL LTGICCA DSNT W CB DSNT W T02830206 $=
201607110128 SPECI KATL 110128Z 23010G16KT 10SM FEW050 FEW110 BKN200 BKN250 28/20 A3003 RMK AO2 FRQ LTGICCA DSNT W CB DSNT W T02830200 $=
201607110052 METAR KATL 110052Z 28007KT 10SM FEW055 FEW110 BKN200 BKN250 29/19 A3001 RMK AO2 SLP153 CB DSNT E T02940194 $=
201607102352 METAR KATL 102352Z 28006KT 10SM FEW060 FEW110 SCT200 BKN250 31/19 A3001 RMK AO2 SLP150 CB DSNT E & SE & SW TCU DSNT NE & E T03110194 10339 20311 53001 $=
201607102252 METAR KATL 102252Z 28006KT 10SM FEW060 SCT110 BKN200 BKN250 32/19 A3001 RMK AO2 SLP151 CB DSNT NE-E / SE-S TCU DSNT NE-SE-SW-NW T03170189 $=
201607102152 METAR KATL 102152Z 22007KT 10SM FEW060TCU SCT110 SCT200 BKN250 32/19 A3000 RMK AO2 SLP148 TCU W-NW & DSNT ALQDS T03170189 $=
201607102052 METAR KATL 102052Z 22007KT 10SM SCT055TCU SCT120 BKN250 33/19 A3000 RMK AO2 SLP148 TCU W AND N T03280194 56023 $=
201607101952 METAR KATL 101952Z VRB06KT 10SM SCT050 SCT120 BKN250 32/19 A3001 RMK AO2 SLP150 MDT CU NW-NE T03170189 $=
201607101852 METAR KATL 101852Z 32006KT 10SM SCT045TCU SCT120 BKN250 31/19 A3005 RMK AO2 SLP164 TCU N CB DSNT W T03110194 $=
201607101752 METAR KATL 101752Z VRB03KT 10SM SCT040 SCT120 BKN250 31/21 A3008 RMK AO2 SLP172 T03110211 10317 20222 58005 $=
201607101652 METAR KATL 101652Z 32006KT 10SM FEW035 SCT120 BKN220 31/22 A3009 RMK AO2 SLP178 T03060217 $=
201607101552 METAR KATL 101552Z 36005KT 10SM FEW030 SCT120 BKN220 28/21 A3009 RMK AO2 SLP177 T02830206=
201607101452 METAR KATL 101452Z 29005KT 10SM FEW090 BKN120 OVC200 27/20 A3009 RMK AO2 SLP179 ACC N-NE BINOVC T02670200 51008=
201607101352 METAR KATL 101352Z 34006KT 10SM FEW095 BKN140 OVC200 26/19 A3008 RMK AO2 SLP175 BINOVC T02610194=
201607101252 METAR KATL 101252Z 31009KT 10SM SCT095 BKN150 BKN200 24/19 A3008 RMK AO2 SLP174 T02390194=
201607101152 METAR KATL 101152Z 29008KT 10SM FEW055 SCT095 BKN130 BKN200 22/19 A3007 RMK AO2 SLP171 T02220194 10239 20217 51012=
201607101052 METAR KATL 101052Z 28008KT 10SM SCT130 SCT200 SCT250 22/19 A3005 RMK AO2 SLP165 T02170194=
201607100952 METAR KATL 100952Z 28007KT 10SM FEW050 SCT130 BKN200 22/19 A3005 RMK AO2 SLP164 T02220189=
201607100852 METAR KATL 100852Z 22006KT 10SM SCT150 BKN250 22/19 A3003 RMK AO2 SLP157 T02220189 53004=
201607100752 METAR KATL 100752Z 28004KT 10SM FEW180 BKN250 23/19 A3001 RMK AO2 SLP150 T02280189=
201607100652 METAR KATL 100652Z 26006KT 10SM SCT180 BKN250 23/19 A3001 RMK AO2 SLP150 T02330189=
201607100552 METAR KATL 100552Z 28003KT 10SM SCT180 BKN250 24/19 A3002 RMK AO2 SLP153 T02390189 10306 20239 58010=
201607100452 METAR KATL 100452Z 28005KT 10SM FEW140 SCT180 BKN250 24/18 A3004 RMK AO2 SLP162 T02440183 403440244=
201607100352 METAR KATL 100352Z 29007KT 10SM FEW120 BKN180 BKN250 25/19 A3005 RMK AO2 SLP163 T02500189=
201607100252 METAR KATL 100252Z 29008KT 10SM FEW075 SCT180 BKN250 26/19 A3005 RMK AO2 SLP164 T02610189 51005=
201607100152 METAR KATL 100152Z 25009KT 10SM FEW042 FEW080 SCT180 BKN250 28/19 A3005 RMK AO2 SLP162 T02780189=
201607100052 METAR KATL 100052Z 27008KT 10SM FEW060TCU FEW075 BKN180 BKN250 29/21 A3005 RMK AO2 SLP164 TCU E ACC N / W SHRA VC E T02890206=
201607092352 METAR KATL 092352Z 28006KT 10SM SCT070 SCT120 BKN200 BKN250 31/21 A3003 RMK AO2 SLP158 CB DSNT SE-S TCU DSNT E ACC S-W T03060206 10344 20306 53007=
201607092252 METAR KATL 092252Z 33007KT 10SM FEW060 SCT110 BKN200 BKN250 32/20 A2999 RMK AO2 SLP143 CB DSNT SE-SW TCU DSNT E T03220200=
201607092152 METAR KATL 092152Z 33010KT 10SM FEW055TCU SCT090 BKN180 BKN250 32/21 A3001 RMK AO2 SLP150 TCU SE & DSNT E & S CB DSNT NE T03170206=
201607092052 METAR KATL 092052Z 33009KT 10SM FEW055 SCT085 BKN230 34/21 A3001 RMK AO2 SLP150 T03390206 56013=
201607091952 METAR KATL 091952Z 33009KT 10SM SCT055TCU BKN230 34/21 A3001 RMK AO2 SLP150 TCU N-NE CB DSNT E-S AND W T03390206=
201607091852 METAR KATL 091852Z 30010KT 10SM SCT047 BKN250 34/21 A3003 RMK AO2 SLP157 CB DSNT E-S AND SW-W-N T03390206=
201607091752 METAR KATL 091752Z VRB05KT 10SM SCT047 SCT070 BKN250 33/21 A3005 RMK AO2 SLP162 CB DSNT SE-S AND SW-W T03330211 10333 20261 58010=
201607091652 METAR KATL 091652Z 31008KT 10SM SCT043 SCT070 BKN150 BKN250 33/22 A3007 RMK AO2 SLP167 T03280217=
201607091552 METAR KATL 091552Z 28010KT 10SM SCT037 BKN150 BKN250 33/23 A3008 RMK AO2 SLP172 T03280228=
201607091452 METAR KATL 091452Z 29009KT 10SM FEW030 SCT150 BKN250 31/23 A3008 RMK AO2 SLP172 T03110228 51009=
201607091352 METAR KATL 091352Z 30006KT 10SM FEW050 SCT150 BKN250 29/22 A3008 RMK AO2 SLP172 T02940222=
201607091252 METAR KATL 091252Z 29007KT 10SM FEW150 FEW200 SCT250 28/22 A3007 RMK AO2 SLP171 T02780217=
201607091152 METAR KATL 091152Z 28006KT 10SM FEW050 FEW150 SCT200 SCT250 26/21 A3005 RMK AO2 SLP164 T02610211 10283 20244 52014=
201607091052 METAR KATL 091052Z 26005KT 10SM FEW200 SCT250 25/21 A3004 RMK AO2 SLP159 T02500211=
201607090952 METAR KATL 090952Z 25003KT 10SM FEW050 SCT200 BKN250 26/21 A3003 RMK AO2 SLP155 T02560211=
201607090852 METAR KATL 090852Z 27005KT 10SM FEW050 SCT250 26/21 A3001 RMK AO2 SLP150 T02610211 56009=
201607090752 METAR KATL 090752Z 27006KT 10SM FEW050 SCT250 27/21 A3001 RMK AO2 SLP150 T02670211=
201607090652 METAR KATL 090652Z 25005KT 10SM SCT055 SCT200 SCT250 27/22 A3002 RMK AO2 SLP154 T02720217=
201607090552 METAR KATL 090552Z 26007KT 10SM SCT200 SCT250 28/21 A3004 RMK AO2 SLP158 60000 T02830211 10328 20278 53002=
201607090452 METAR KATL 090452Z 26006KT 10SM SCT200 BKN250 29/22 A3004 RMK AO2 TSE05 SLP158 T02890217 403500261=
201607090405 SPECI KATL 090405Z 24005KT 10SM FEW050 SCT200 BKN250 29/22 A3003 RMK AO2 TSE05 OCNL LTG DSNT SE TS MOV E T02890217=
201607090352 METAR KATL 090352Z 24004KT 10SM TS FEW050CB SCT200 BKN250 29/22 A3003 RMK AO2 TSB44 SLP156 FRQ LTGICCG SE TS VC SE MOV E T02890222=
201607090344 SPECI KATL 090344Z 24003KT 10SM TS FEW050CB SCT200 BKN250 29/22 A3003 RMK AO2 TSB44 OCNL LTGICCG SE TS VC SE MOV E T02890222=
201607090252 METAR KATL 090252Z 24006KT 10SM FEW055 SCT200 BKN250 31/22 A3003 RMK AO2 SLP156 60000 T03060217 51011=
201607090152 METAR KATL 090152Z 24006KT 10SM FEW055 SCT200 BKN250 31/21 A3003 RMK AO2 SLP155 T03110211=
201607090052 METAR KATL 090052Z 29005KT 10SM FEW055 SCT200 BKN250 32/21 A3002 RMK AO2 RAB40E48 SLP152 VCSH NE-SE P0000 T03170206=
201607082352 METAR KATL 082352Z 24008KT 10SM FEW055TCU FEW150 SCT250 33/21 A3000 RMK AO2 SLP146 TCU VC S-SW CB DSNT NE / SW T03280211 10350 20328 55001=
201607082252 METAR KATL 082252Z 25009KT 10SM SCT055TCU SCT200 34/21 A3000 RMK AO2 SLP146 TCU VC NW / DSNT SW CB DSNT NE T03390211=
201607082152 METAR KATL 082152Z 25007G18KT 10SM SCT055 SCT250 34/21 A3000 RMK AO2 SLP146 MDT CU VC NW-NE T03390206=
201607082052 METAR KATL 082052Z 24012G20KT 10SM SCT055 SCT250 34/22 A3000 RMK AO2 SLP147 MDT CU DSNT SW-NW T03440217 56019=
201607081952 METAR KATL 081952Z 24008KT 210V280 10SM FEW055 SCT150 SCT250 34/22 A3002 RMK AO2 SLP153 TCU DSNT N T03440222=
201607081852 METAR KATL 081852Z 25007KT 10SM FEW050 SCT150 SCT250 34/22 A3004 RMK AO2 SLP158 MDT CU NE-SE T03390222=
201607081752 METAR KATL 081752Z 27008KT 10SM SCT045 SCT150 33/23 A3006 RMK AO2 SLP167 MDT CU ALQDS T03330228 10339 20261 58011=
201607081652 METAR KATL 081652Z 26010KT 10SM SCT040 SCT150 33/23 A3009 RMK AO2 SLP175 TCU DSNT SE MDT CU ALQDS T03280228=
201607081552 METAR KATL 081552Z 27012KT 10SM SCT035 SCT150 32/23 A3009 RMK AO2 SLP178 T03220233=
201607081452 METAR KATL 081452Z 28009KT 10SM FEW030 FEW150 SCT250 31/23 A3009 RMK AO2 SLP178 VIRGA DSNT S-SW T03110228 51003=
201607081352 METAR KATL 081352Z 27009KT 10SM FEW120 FEW150 SCT250 29/23 A3009 RMK AO2 SLP177 VIRGA DSNT SW-W T02940228=
201607081252 METAR KATL 081252Z 27011KT 10SM FEW120 SCT180 SCT250 28/22 A3009 RMK AO2 SLP179 ACC DSNT NE / SW-NW T02780222=
201607081152 METAR KATL 081152Z 30009KT 10SM FEW120 SCT160 BKN200 BKN250 27/22 A3008 RMK AO2 SLP175 VIRGA DSNT ALQDS ACC OHD-ALQDS T02670217 10272 20261 51013=
201607081052 METAR KATL 081052Z 26009KT 10SM FEW110 SCT160 BKN200 BKN250 26/22 A3008 RMK AO2 SLP172 VIRGA NE-SE ACC OHD-ALQDS T02610217=
201607080952 METAR KATL 080952Z 25006KT 10SM SCT160 BKN200 BKN250 26/21 A3006 RMK AO2 SLP167 VIRGA NE ACC OHD-N T02610211=
201607080852 METAR KATL 080852Z 26007KT 10SM SCT160 BKN200 BKN250 26/21 A3005 RMK AO2 SLP161 ACC E-OHD-W T02610211 53001=
201607080752 METAR KATL 080752Z 26006KT 10SM SCT170 BKN200 BKN250 27/21 A3003 RMK AO2 SLP157 T02670211=
201607080652 METAR KATL 080652Z 25005KT 10SM BKN180 BKN250 27/21 A3004 RMK AO2 SLP160 T02720206=
201607080552 METAR KATL 080552Z 24006KT 10SM BKN180 BKN250 27/21 A3004 RMK AO2 SLP160 T02720206 10322 20272 51007=
201607080452 METAR KATL 080452Z 24008KT 10SM BKN180 BKN250 28/20 A3004 RMK AO2 SLP158 T02780200 403440217=
201607080352 METAR KATL 080352Z 25005KT 10SM FEW200 SCT250 28/20 A3004 RMK AO2 SLP161 T02780200=
201607080252 METAR KATL 080252Z 23006KT 10SM SCT200 BKN250 28/21 A3002 RMK AO2 SLP154 T02780206 58002=
201607080152 METAR KATL 080152Z 23004KT 10SM FEW065 BKN250 29/21 A3002 RMK AO2 SLP155 T02890206=
201607080052 METAR KATL 080052Z 22004KT 10SM FEW065 BKN250 30/21 A3003 RMK AO2 SLP157 T03000206=
201607072352 METAR KATL 072352Z 24007KT 10SM FEW065 BKN250 32/21 A3003 RMK AO2 SLP156 T03220206 10344 20311 55001=
201607072252 METAR KATL 072252Z 25008KT 10SM FEW065 SCT250 33/20 A3002 RMK AO2 SLP154 T03330200=
201607072152 METAR KATL 072152Z 24011G19KT 10SM FEW065 SCT250 34/18 A3002 RMK AO2 SLP154 T03390183=
201607072052 METAR KATL 072052Z 25008G19KT 10SM FEW055 FEW150 SCT250 33/20 A3003 RMK AO2 SLP157 T03330200 58009=
201607071952 METAR KATL 071952Z 24011G19KT 10SM BKN050 BKN150 33/21 A3004 RMK AO2 SLP161 T03280206=
201607071852 METAR KATL 071852Z 23010G18KT 10SM SCT043 SCT250 32/21 A3005 RMK AO2 SLP163 T03220211=
201607071752 METAR KATL 071752Z 25010G18KT 10SM BKN045 BKN250 32/22 A3006 RMK AO2 SLP167 T03170217 10317 20239 56013=
201607071652 METAR KATL 071652Z 27012G19KT 10SM FEW040 SCT250 31/22 A3007 RMK AO2 SLP170 T03110217=
201607071552 METAR KATL 071552Z 24012G20KT 10SM SCT027 SCT250 29/22 A3006 RMK AO2 SLP170 T02940217=
201607071452 METAR KATL 071452Z 26016G22KT 10SM SCT020 SCT150 28/22 A3010 RMK AO2 SLP180 T02830222 50003=
201607071352 METAR KATL 071352Z 27013KT 10SM FEW015 SCT150 SCT250 27/22 A3010 RMK AO2 SLP183 ACC W-NW T02720222=
201607071252 METAR KATL 071252Z 27011G17KT 10SM SCT010 SCT160 SCT250 26/22 A3009 RMK AO2 SLP182 ACC SW / NW-N T02560222=
201607071232 SPECI KATL 071232Z 26008KT 9SM SCT008 SCT160 BKN250 25/22 A3009 RMK AO2 T02500222=
201607071152 METAR KATL 071152Z 27008KT 8SM OVC008 24/22 A3009 RMK AO2 SLP179 BINOVC 70073 T02390217 10239 20217 51015=
201607071110 SPECI KATL 071110Z 26009KT 8SM BKN007 BKN160 BKN250 23/21 A3007 RMK AO2 ACC OHD & ALQDS T02330211=
201607071052 METAR KATL 071052Z 26006KT 8SM SCT007 BKN150 BKN250 23/21 A3007 RMK AO2 SLP171 ACC OHD / ALQDS T02330211=
201607070952 METAR KATL 070952Z 26008KT 10SM SCT006 BKN150 BKN250 23/21 A3007 RMK AO2 SLP170 T02280211=
201607070934 SPECI KATL 070934Z 25008KT 10SM FEW006 SCT150 BKN250 23/21 A3006 RMK AO2 T02280211=
201607070852 METAR KATL 070852Z 24008KT 10SM FEW250 23/21 A3004 RMK AO2 SLP162 T02330211 55002=
201607070752 METAR KATL 070752Z 23007KT 10SM FEW004 FEW250 22/21 A3003 RMK AO2 SLP159 T02220206=
201607070652 METAR KATL 070652Z 20004KT 10SM FEW250 22/20 A3004 RMK AO2 SLP163 T02170200=
201607070552 METAR KATL 070552Z 00000KT 10SM FEW250 22/20 A3005 RMK AO2 SLP166 60000 T02220200 10244 20222 58012=
201607070452 METAR KATL 070452Z 00000KT 10SM FEW050 SCT250 23/20 A3007 RMK AO2 SLP174 T02330200 403170211=
201607070352 METAR KATL 070352Z 04010KT 10SM FEW015 FEW050 SCT250 23/20 A3010 RMK AO2 SLP183 T02330200=
201607070252 METAR KATL 070252Z 25003KT 10SM FEW060 SCT200 BKN250 24/20 A3008 RMK AO2 SLP176 60000 T02390200 55002=
201607070152 METAR KATL 070152Z 26007KT 10SM SCT150 BKN200 BKN250 23/19 A3004 RMK AO2 SLP163 T02330194=
201607070052 METAR KATL 070052Z 23006KT 10SM FEW060 SCT120CB BKN150 BKN250 23/19 A3005 RMK AO2 RAE26 TSE2358 SLP167 CBMAM NE-OHD-W / VC SE VCSH SE-SW P0000 T02330189=
201607062358 SPECI KATL 062358Z VRB03KT 10SM -RA FEW020 SCT060 BKN120CB BKN250 24/19 A3008 RMK AO2 TSE58 PRESFR OCNL LTG DSNT NE TS MOV SE CBMAM OHD-W P0000 T02440194=
201607062352 METAR KATL 062352Z 00000KT 10SM -TSRA FEW020CB SCT060 BKN110 OVC250 24/19 A3009 RMK AO2 RAB18 TSB13 PRESFR SLP179 OCNL LTGICCG NE TS VC NE MOV SE P0000 60000 T02440194 10289 20211 53002=
201607062313 SPECI KATL 062313Z 24017G25KT 10SM TS FEW025CB SCT100 BKN200 OVC250 27/20 A3008 RMK AO2 TSB13 CONS LTGICCG NW-NE TS VC NW-NE MOV SE T02720200=
201607062252 METAR KATL 062252Z 23009KT 10SM FEW030 SCT200 BKN250 28/22 A3006 RMK AO2 SLP170 OCNL LTG DSNT SW / NW T02780222=
201607062152 METAR KATL 062152Z 21011KT 10SM FEW100 BKN250 29/23 A3007 RMK AO2 SLP171 CB DSNT SW-W / NW T02890228=
201607062052 METAR KATL 062052Z 21009KT 10SM FEW120 SCT150 BKN250 26/22 A3008 RMK AO2 SLP176 CB DSNT NW-N 60000 T02610217 55016=
201607061952 METAR KATL 061952Z 19006KT 10SM FEW120 SCT150 BKN230 25/21 A3007 RMK AO2 SLP175 VIRGA DSNT S CB DSNT N T02500211=
201607061852 METAR KATL 061852Z 00000KT 10SM FEW030 SCT120 BKN160CB BKN250 22/19 A3009 RMK AO2 RAE1754 SLP183 CBMAM NW-N-NE-E P0000 T02220194=
201607061752 METAR KATL 061752Z 17005KT 9SM -RA FEW030 SCT070 BKN120CB BKN250 22/19 A3013 RMK AO2 PK WND 32026/1700 WSHFT 1639 TSE51 SLP195 TS MOV E CBMAM OHD-SW-W-NW-N-NE CB DSNT E-SE-S P0069 60073 T02170194 10317 20211 50004=
201607061727 SPECI KATL 061727Z VRB03KT 9SM R09R/6000VP6000FT -TSRA FEW010CB BKN030 OVC070 21/19 A3015 RMK AO2 PK WND 32026/1700 WSHFT 1639 VIS LWR E-SE-S SHRA OCNL LTGICCG E-SE-S TS E-SE-S MOV E P0069 T02110194=
201607061710 SPECI KATL 061710Z 36008KT 3SM R09R/2800VP6000FT TSRA BKN018CB BKN040 OVC080 22/19 A3016 RMK AO2 PK WND 32026/1700 WSHFT 1639 SFC VIS 4 VIS LWR E-SE-S-SW SHRA FRQ LTGICCG OHD-E-SE-S-SW TS OHD-E-SE-S-SW MOV E P0057 T02170189=
201607061706 SPECI KATL 061706Z 35011G26KT 1SM R09R/2400VP6000FT +TSRA BKN018CB BKN040 OVC080 22/18 A3016 RMK AO2 PK WND 32026/1700 WSHFT 1639 FRQ LTGICCG OHD & ALQDS TS OHD & ALQDS MOV E P0052 T02170183=
201607061701 SPECI KATL 061701Z 31018G26KT 1SM R09R/2400V4000FT +TSRA BKN020CB BKN070 OVC100 22/19 A3017 RMK AO2 PK WND 32026/1700 WSHFT 1639 OCNL LTGICCG OHD & ALQDS TS OHD & ALQDS MOV E P0035 T02170189=
201607061654 SPECI KATL 061654Z 32019G40KT 2SM R09R/2600VP6000FT +TSRA SQ BKN020CB BKN070 OVC100 23/19 A3017 RMK AO2 WSHFT 1639 TWR VIS 3 PRESRR OCNL LTGICCG OHD & ALQDS TS OHD & ALQDS MOV E P0002 T02330189=
201607061647 SPECI KATL 061647Z 32030G40KT 5SM R09R/4000VP6000FT -TSRA SQ BKN030CB BKN040TCU BKN070 OVC250 28/21 A3014 RMK AO2 PK WND 35040/1645 WSHFT 1631 RAB37 TSB44 OCNL LTGICCG SW-W-NW-N TS SW-W-NW-N MOV E SHRA SW-W-NW-N TCU NE-SE P0000=
201607061645 SPECI KATL 061645Z 34024G40KT 9SM -TSRA BKN030CB BKN040TCU BKN070 OVC250 30/22 A3014 RMK AO2 PK WND 35040/1645 WSHFT 1631 RAB37 TSB44 OCNL LTGICCG SW-W-NW-N TS SW-W-NW-N MOV E SHRA SW-W-NW-N TCU NE-SE P0000 T03000217=
201607061624 SPECI KATL 061624Z 24012KT 10SM BKN040TCU BKN100 BKN250 31/22 A3012 RMK AO2 CB DSNT SW-NW TCU OHD & ALQDS SHRA DSNT SW-NW T03110217=
201607061552 METAR KATL 061552Z 23010KT 10SM BKN030TCU BKN100 BKN250 31/23 A3012 RMK AO2 SLP187 CB DSNT NW TCU OHD-SW-NW T03060228=
201607061507 SPECI KATL 061507Z 24010KT 10SM BKN025 BKN100 BKN250 29/23 A3013 RMK AO2 CB DSNT W-NW-N TCU DSNT NW-N T02940228=
201607061452 METAR KATL 061452Z 27011KT 10SM FEW020 BKN100 BKN250 29/23 A3013 RMK AO2 SLP192 CB DSNT NW-N T02890228 50005=
201607061352 METAR KATL 061352Z 27011KT 10SM FEW020 FEW100 FEW250 28/23 A3013 RMK AO2 SLP193 CB DSNT N T02780228=
201607061252 METAR KATL 061252Z 25010KT 10SM FEW010 SCT090 SCT120 SCT200 SCT250 26/23 A3013 RMK AO2 SLP192 T02610228=
201607061152 METAR KATL 061152Z 25005KT 8SM FEW020 SCT100 SCT200 24/22 A3012 RMK AO2 SLP189 70085 T02390217 10239 20228 53010=
201607061052 METAR KATL 061052Z 22004KT 8SM FEW020 SCT140 BKN200 23/21 A3010 RMK AO2 SLP183 T02280211=
201607060952 METAR KATL 060952Z 22003KT 9SM FEW050 SCT140 SCT220 23/21 A3009 RMK AO2 SLP180 T02280211=
201607060852 METAR KATL 060852Z 25004KT 10SM FEW050 SCT120 SCT200 23/21 A3009 RMK AO2 SLP179 T02330211 53002=
201607060752 METAR KATL 060752Z 26003KT 10SM SCT120 23/22 A3008 RMK AO2 SLP176 T02330217=
201607060652 METAR KATL 060652Z 26006KT 10SM FEW120 FEW250 23/22 A3009 RMK AO2 SLP179 T02330217=
201607060552 METAR KATL 060552Z 24005KT 10SM FEW120 24/22 A3008 RMK AO2 SLP177 T02390217 10256 20239 50003=
201607060452 METAR KATL 060452Z 24006KT 10SM SCT250 24/22 A3009 RMK AO2 SLP180 T02440217 403220222=
201607060352 METAR KATL 060352Z 25004KT 10SM FEW120 BKN250 25/22 A3008 RMK AO2 SLP175 T02500222=
201607060252 METAR KATL 060252Z 23003KT 10SM FEW120 BKN250 24/23 A3007 RMK AO2 SLP172 T02440228 50001=
201607060152 METAR KATL 060152Z 24003KT 10SM FEW040 BKN250 25/23 A3007 RMK AO2 SLP172 T02500228=
201607060052 METAR KATL 060052Z 26003KT 10SM FEW020 SCT110 BKN250 25/23 A3007 RMK AO2 SLP172 T02500228=
201607052352 METAR KATL 052352Z 27003KT 10SM FEW030 BKN200 26/22 A3007 RMK AO2 SLP172 60079 T02560222 10272 20222 56008=
201607052252 METAR KATL 052252Z 23005KT 10SM BKN200 26/23 A3008 RMK AO2 SLP175 T02560228=
201607052152 METAR KATL 052152Z 26008KT 10SM FEW150 BKN200 25/22 A3008 RMK AO2 SLP176 T02500222=
201607052052 METAR KATL 052052Z 20007KT 10SM FEW040 SCT100 OVC150 24/23 A3009 RMK AO2 RAE46 SLP180 P0003 60079 T02440228 58006=
201607051952 METAR KATL 051952Z 24007KT 8SM -RA FEW010 SCT040 BKN120 OVC150 24/22 A3011 RMK AO2 SLP187 P0003 T02390217=
201607051852 METAR KATL 051852Z 28009KT 10SM -RA FEW010 SCT020 BKN060 OVC150 23/21 A3011 RMK AO2 PK WND 30034/1800 TSE31B35E50 SLP185 TS MOV E CB DSNT NE-E / SW-W P0073 T02330211 $=
201607051835 SPECI KATL 051835Z 28008KT 8SM -TSRA FEW006 BKN015CB OVC050 23/21 A3012 RMK AO2 PK WND 30034/1800 TSE31B35 VIS LWR NE-SE SHRA TS VC NE-SE & DSNT SW MOV E CB NE-SE & DSNT SW MOV E P0072 T02280206 $=
201607051831 SPECI KATL 051831Z 28005KT 8SM R09R/3000VP6000FT -RA FEW006 BKN015CB OVC050 22/21 A3012 RMK AO2 PK WND 30034/1800 TSE31 VIS LWR NE-SE SHRA TS MOV E CB NE-SE MOV E P0072 T02220206 $=
201607051815 SPECI KATL 051815Z 29012G26KT 1SM R09R/2200VP6000FT +TSRA BR BKN015CB BKN030 OVC060 22/21 A3013 RMK AO2 PK WND 30034/1800 TWR VIS 2 OCNL LTGICCG OHD & ALQDS TS OHD & ALQDS MOV E P0044 T02220206 $=
201607051808 SPECI KATL 051808Z 29018G34KT 2SM R09R/2800VP6000FT +TSRA BR BKN015CB BKN030 OVC060 23/21 A3014 RMK AO2 PK WND 30034/1800 OCNL LTGICCG OHD & ALQDS TS OHD & ALQDS MOV E P0010 T02280206 $=
201607051805 SPECI KATL 051805Z 29019G34KT 2SM R09R/3000VP6000FT +TSRA BR BKN020CB BKN034 OVC065 23/21 A3014 RMK AO2 PK WND 30034/1800 SFC VIS 3 PRESRR OCNL LTGICCG OHD-SW-NW TS OHD-SW-NW MOV E P0003 T02330211 $=
201607051759 SPECI KATL 051759Z 30019G27KT 1SM R09R/P6000FT +TSRA FEW015CB BKN020 OVC070 27/23 A3013 RMK AO2 PK WND 30027/1759 TWR VIS 4 PRESRR OCNL LTGICCG OHD-SW-NW TS OHD-SW-NW MOV E P0000 T02670233=
201607051752 METAR KATL 051752Z 29009KT 9SM -TSRA FEW015CB BKN050 BKN080 BKN250 27/23 A3011 RMK AO2 WSHFT 1639 TSE23B50 PRESRR SLP186 OCNL LTGICCG SW-NW TS VC SW-NW MOV E SHRA VC SW-NW P0006 60006 T02720233 10322 20261 53004=
201607051723 SPECI KATL 051723Z 32007KT 10SM -RA FEW020CB SCT040 BKN080 BKN250 27/23 A3009 RMK AO2 WSHFT 1639 TSE23 TS MOV NE CB N-NE-E & W MOV NE SHRA VC N-NE-E & W P0002 T02720233=
201607051711 SPECI KATL 051711Z 35014KT 9SM -TSRA FEW020CB BKN040 OVC080 26/23 A3009 RMK AO2 WSHFT 1639 VIS LWR NE-E SHRA OCNL LTGIC N-NE-E TS N-NE-E MOV NE P0002 T02610228=
201607051700 SPECI KATL 051700Z 34012G23KT 6SM -TSRA BKN030CB BKN050 OVC080 27/22 A3009 RMK AO2 WSHFT 1639 VIS LWR NE SHRA OCNL LTGICCG NE TS NE MOV NE P0000 T02670217=
201607051655 SPECI KATL 051655Z 34015G23KT 3SM TSRA BKN030CB BKN050 OVC080 28/21 A3010 RMK AO2 WSHFT 1639 TWR VIS 4 OCNL LTGICCG OHD-N TS OHD-N MOV NE P0000 T02780211=
201607051652 METAR KATL 051652Z 34016G23KT 8SM -TSRA BKN030CB BKN050 BKN250 29/22 A3010 RMK AO2 WSHFT 1633 RAB50 TSB10 SLP181 VIS LWR SW-N SHRA OCNL LTGIC SW-N TS SW-N MOV E P0000 T02890217=
201607051635 SPECI KATL 051635Z 21011KT 10SM TS FEW030CB BKN050 BKN250 32/22 A3009 RMK AO2 TSB10 OCNL LTGIC NE & W TS VC NE & W MOV E SHRA VC NE & W CB NE & W MOV E T03170222=
201607051632 SPECI KATL 051632Z 20011KT 10SM TS FEW030CB BKN050 BKN250 32/22 A3009 RMK AO2 TSB10 OCNL LTGIC NE TS VC NE MOV E SHRA VC NE & W CB NE & W MOV E T03170222=
201607051610 SPECI KATL 051610Z 24009KT 10SM TS SCT030CB BKN040TCU BKN250 32/22 A3009 RMK AO2 TSB10 OCNL LTGICCG NW-N-NE TS VC NW-N-NE MOV E SHRA VC NW-N-NE T03170222=
201607051552 METAR KATL 051552Z 21010G17KT 10SM FEW030CB SCT040TCU SCT050 31/22 A3009 RMK AO2 SLP177 CB VC SW-NW MOV E / DSNT SE-SW / DSNT W-N TCU NE-SE SHRA VC SW-NW / VC E T03060222=
201607051509 SPECI KATL 051509Z 24009KT 10SM SCT023 BKN030 BKN040 31/23 A3009 RMK AO2 T03060228=
201607051452 METAR KATL 051452Z 26010KT 10SM BKN023 BKN030 BKN040 29/23 A3010 RMK AO2 SLP181 T02940228 50005=
201607051352 METAR KATL 051352Z 23010G17KT 10SM BKN017 BKN019 BKN025 28/22 A3011 RMK AO2 SLP183 T02780222=
201607051252 METAR KATL 051252Z 23008KT 10SM SCT014 27/23 A3009 RMK AO2 SLP177 SCT014 V BKN T02720228=
201607051241 SPECI KATL 051241Z 25007KT 10SM BKN013 27/22 A3010 RMK AO2 BKN013 V SCT T02670222=
201607051152 METAR KATL 051152Z 25008KT 10SM SCT015 SCT050 26/22 A3009 RMK AO2 SLP175 T02560222 10272 20256 51013=
201607051052 METAR KATL 051052Z 25009KT 10SM FEW015 FEW200 26/22 A3007 RMK AO2 SLP171 T02560222=
201607050952 METAR KATL 050952Z 25010KT 10SM SCT017 26/22 A3006 RMK AO2 SLP168 SCT017 V BKN T02610217=
201607050938 SPECI KATL 050938Z 26009KT 10SM BKN018 26/22 A3006 RMK AO2 T02610217=
201607050919 SPECI KATL 050919Z 24008KT 10SM FEW020 26/22 A3005 RMK AO2 T02610217=
201607050852 METAR KATL 050852Z 25009KT 10SM CLR 26/22 A3005 RMK AO2 SLP161 T02610217 55004=
201607050752 METAR KATL 050752Z 22009KT 10SM CLR 26/22 A3004 RMK AO2 SLP159 T02610217=
201607050652 METAR KATL 050652Z 23008KT 10SM CLR 27/22 A3004 RMK AO2 SLP161 T02670217=
201607050552 METAR KATL 050552Z 23009KT 10SM FEW250 27/22 A3006 RMK AO2 SLP165 T02720222 10333 20272 50005=
201607050452 METAR KATL 050452Z 23011KT 10SM FEW250 28/22 A3006 RMK AO2 SLP167 T02780217 403500244=
201607050352 METAR KATL 050352Z 22008KT 10SM FEW250 28/22 A3005 RMK AO2 SLP164 T02780222=
201607050252 METAR KATL 050252Z 20010KT 10SM SCT250 28/22 A3004 RMK AO2 SLP159 T02830222 53008=
201607050152 METAR KATL 050152Z 20010KT 10SM FEW055 SCT250 29/22 A3003 RMK AO2 SLP154 T02940217=
201607050052 METAR KATL 050052Z 22008KT 10SM FEW055 SCT250 32/19 A3002 RMK AO2 SLP152 TCU DSNT SE T03170194=
201607042352 METAR KATL 042352Z 24010KT 10SM FEW055 SCT250 33/20 A3001 RMK AO2 SLP151 CB DSNT SE TCU DSNT SW T03330200 10350 20328 55006=
201607042252 METAR KATL 042252Z 26009KT 10SM FEW055 SCT250 34/20 A3001 RMK AO2 SLP148 TCU DSNT N / SE-S / NW T03390200=
201607042152 METAR KATL 042152Z VRB06KT 10SM FEW055TCU SCT080 BKN250 34/21 A3001 RMK AO2 SLP148 TCU VC NE-E VCSH NE T03390206=
201607042052 METAR KATL 042052Z 25007KT 10SM SCT055TCU BKN070 BKN230 34/20 A3003 RMK AO2 SLP157 TCU W AND NW-NE SHRA W AND NW-NE T03390200 56009=
201607041952 METAR KATL 041952Z 25009G16KT 10SM SCT055TCU BKN230 35/20 A3004 RMK AO2 SLP160 TCU SW-NW T03500200=
201607041852 METAR KATL 041852Z 23010KT 10SM SCT050 BKN230 34/21 A3005 RMK AO2 SLP162 T03390206=
201607041752 METAR KATL 041752Z 22014G22KT 10SM SCT049 BKN200 33/20 A3006 RMK AO2 SLP167 T03330200 10339 20256 58011=
201607041652 METAR KATL 041652Z 21011KT 10SM BKN041TCU BKN200 32/20 A3009 RMK AO2 SLP177 TCU W-NW SHRA W T03170200=
201607041552 METAR KATL 041552Z 25012KT 10SM BKN032 BKN200 31/21 A3010 RMK AO2 SLP181 T03110211=
201607041452 METAR KATL 041452Z 22011KT 10SM FEW025 SCT200 31/22 A3010 RMK AO2 SLP179 T03060222 50000=
201607041352 METAR KATL 041352Z 26010KT 10SM FEW020 SCT200 29/22 A3010 RMK AO2 SLP181 T02940222=
201607041252 METAR KATL 041252Z 24009KT 10SM FEW018 SCT200 27/22 A3011 RMK AO2 SLP183 T02720222=
201607041152 METAR KATL 041152Z 22007KT 10SM FEW100 FEW200 SCT250 26/22 A3010 RMK AO2 SLP179 T02560222 10261 20244 52015=
201607041052 METAR KATL 041052Z 21004KT 10SM FEW080 FEW200 BKN250 24/21 A3008 RMK AO2 SLP175 T02440211=
201607040952 METAR KATL 040952Z 23005KT 10SM FEW200 SCT250 25/21 A3006 RMK AO2 SLP168 T02500211=
201607040852 METAR KATL 040852Z 24008KT 10SM CLR 26/21 A3005 RMK AO2 SLP162 T02560211 55003=
201607040752 METAR KATL 040752Z 24008KT 10SM CLR 26/21 A3005 RMK AO2 SLP162 T02610211=
201607040652 METAR KATL 040652Z 23009KT 10SM FEW120 26/21 A3006 RMK AO2 SLP165 T02560211=
201607040552 METAR KATL 040552Z 21003KT 10SM FEW120 25/21 A3006 RMK AO2 SLP166 60000 T02500211 10300 20250 53002=
201607040452 METAR KATL 040452Z 21003KT 10SM FEW120 SCT250 27/21 A3005 RMK AO2 SLP163 T02670206 403670233=
201607040352 METAR KATL 040352Z 00000KT 10SM FEW070 SCT120 BKN250 28/21 A3005 RMK AO2 SLP162 T02780206=
201607040252 METAR KATL 040252Z 16005KT 10SM FEW060 BKN085 BKN120 BKN250 28/20 A3005 RMK AO2 SLP164 60000 T02830200 53006=
201607040152 METAR KATL 040152Z 00000KT 10SM FEW065 SCT095 SCT200 BKN250 29/19 A3004 RMK AO2 SLP159 CB DSNT SW T02940194=
201607040052 METAR KATL 040052Z 31004KT 10SM FEW065TCU BKN110 BKN200 BKN250 29/19 A3003 RMK AO2 RAE00 SLP158 TCU SE P0000 T02890194=
201607032352 METAR KATL 032352Z 33007KT 10SM -RA SCT065TCU BKN100 BKN200 BKN250 29/19 A3003 RMK AO2 WSHFT 2246 RAB50 SLP159 TCU E-OHD-W / DSNT SE CB DSNT NE P0000 60000 T02940194 10367 20294 53006=
201607032304 SPECI KATL 032304Z 30014KT 10SM SCT070CB BKN110 BKN250 32/19 A3003 RMK AO2 WSHFT 2246 CB NW-N MOV NE SHRA VC NW-N T03170189=
201607032252 METAR KATL 032252Z 29015G22KT 10SM SCT070CB BKN110 BKN250 32/19 A3002 RMK AO2 SLP153 CB NW-N MOV E TCU DSNT SW SHRA VC NW-N T03220189=
201607032152 METAR KATL 032152Z 23008KT 10SM FEW070TCU SCT110 SCT250 36/18 A3000 RMK AO2 SLP147 TCU SW-NW T03610178=
201607032052 METAR KATL 032052Z 25006G15KT 10SM FEW070 SCT100 SCT250 36/18 A3002 RMK AO2 SLP152 T03610178 58019=
201607031952 METAR KATL 031952Z 23006KT 10SM SCT070 SCT250 35/18 A3004 RMK AO2 SLP160 T03500178=
201607031852 METAR KATL 031852Z 23009KT 10SM FEW070 SCT250 36/18 A3006 RMK AO2 SLP166 T03560178=
201607031752 METAR KATL 031752Z 22012G16KT 10SM FEW065 SCT250 34/18 A3007 RMK AO2 SLP170 T03440178 10350 20244 58007=
201607031652 METAR KATL 031652Z 19009KT 10SM FEW060 SCT250 34/18 A3008 RMK AO2 SLP173 T03440183=
201607031552 METAR KATL 031552Z 23006KT 10SM FEW050 FEW250 33/18 A3009 RMK AO2 SLP176 T03330178=
201607031452 METAR KATL 031452Z 21007KT 10SM FEW250 32/18 A3009 RMK AO2 SLP178 T03170178 51007=
201607031352 METAR KATL 031352Z 00000KT 10SM FEW250 31/19 A3009 RMK AO2 SLP175 T03060189=
201607031252 METAR KATL 031252Z 31003KT 10SM FEW250 28/19 A3008 RMK AO2 SLP173 T02780189=
201607031152 METAR KATL 031152Z 26004KT 10SM FEW250 24/18 A3007 RMK AO2 SLP170 T02440183 10272 20233 53013=
201607031052 METAR KATL 031052Z 00000KT 10SM FEW250 23/18 A3006 RMK AO2 SLP165 T02330178=
201607030952 METAR KATL 030952Z 28005KT 10SM CLR 23/17 A3004 RMK AO2 SLP161 T02330172=
201607030852 METAR KATL 030852Z 28005KT 10SM CLR 24/18 A3003 RMK AO2 SLP157 T02440178 53003=
201607030752 METAR KATL 030752Z 30005KT 10SM CLR 25/18 A3002 RMK AO2 SLP153 T02500178=
201607030652 METAR KATL 030652Z 31006KT 10SM CLR 26/18 A3002 RMK AO2 SLP154 T02560178=
201607030552 METAR KATL 030552Z 32005KT 10SM CLR 27/17 A3003 RMK AO2 SLP154 T02720172 10344 20272 58007=
201607030452 METAR KATL 030452Z 31007KT 10SM FEW250 29/17 A3003 RMK AO2 SLP156 T02890167 403560228=
201607030352 METAR KATL 030352Z 00000KT 10SM FEW080 FEW140 SCT250 29/18 A3004 RMK AO2 SLP160 ACC NE-SE T02890183=
201607030252 METAR KATL 030252Z 20005KT 10SM FEW140 SCT250 SCT300 28/19 A3005 RMK AO2 SLP161 T02830189 51012=
201607030152 METAR KATL 030152Z 26003KT 10SM FEW075 SCT250 SCT300 31/17 A3003 RMK AO2 SLP158 T03110172=
201607030052 METAR KATL 030052Z 29004KT 10SM FEW080 FEW100 SCT250 SCT300 32/17 A3002 RMK AO2 SLP153 T03220167=
201607022352 METAR KATL 022352Z 25004KT 10SM FEW080 FEW100 SCT250 BKN300 34/17 A3001 RMK AO2 SLP149 T03390167 10356 20328 55001=
201607022252 METAR KATL 022252Z 26008KT 10SM FEW075 BKN250 BKN300 35/16 A3000 RMK AO2 SLP145 T03500161=
201607022152 METAR KATL 022152Z 21007KT 10SM FEW070 SCT250 BKN300 34/16 A3000 RMK AO2 SLP145 T03440161=
201607022052 METAR KATL 022052Z 21008KT 10SM FEW070 FEW110 SCT200 SCT250 35/16 A3001 RMK AO2 SLP149 T03500161 58013=
201607021952 METAR KATL 021952Z 25009KT 10SM SCT065 SCT100 35/17 A3002 RMK AO2 SLP154 T03500172=
201607021852 METAR KATL 021852Z 23009KT 10SM BKN065 33/18 A3004 RMK AO2 SLP159 T03330178=
201607021752 METAR KATL 021752Z VRB05KT 10SM SCT065 33/17 A3005 RMK AO2 SLP162 T03330172 10344 20256 58010=
201607021652 METAR KATL 021652Z 26009KT 10SM SCT060 34/18 A3007 RMK AO2 SLP169 T03390178=
201607021552 METAR KATL 021552Z 00000KT 10SM FEW050 FEW200 32/18 A3008 RMK AO2 SLP172 T03220183=
201607021452 METAR KATL 021452Z 19005KT 10SM SCT200 31/18 A3008 RMK AO2 SLP173 T03110178 50007=
201607021352 METAR KATL 021352Z VRB03KT 10SM FEW200 30/18 A3009 RMK AO2 SLP177 T03000178=
201607021252 METAR KATL 021252Z 32007KT 10SM FEW200 SCT250 28/18 A3007 RMK AO2 SLP171 T02780178=
201607021152 METAR KATL 021152Z 31004KT 10SM SCT250 26/18 A3006 RMK AO2 SLP165 T02560178 10261 20228 53015=
201607021052 METAR KATL 021052Z 28004KT 10SM FEW200 SCT250 23/17 A3004 RMK AO2 SLP160 VIRGA W-NW T02330172=
201607020952 METAR KATL 020952Z 31006KT 10SM FEW085 SCT250 24/17 A3002 RMK AO2 SLP153 T02390172=
201607020852 METAR KATL 020852Z 30004KT 10SM FEW085 BKN250 24/17 A3001 RMK AO2 SLP150 T02440167 55004=
201607020752 METAR KATL 020752Z 00000KT 10SM FEW085 SCT200 BKN250 26/17 A3000 RMK AO2 SLP147 T02560167=
201607020652 METAR KATL 020652Z 25004KT 10SM FEW085 FEW250 26/17 A3001 RMK AO2 SLP148 T02560167=
201607020552 METAR KATL 020552Z 00000KT 10SM SCT085 26/17 A3002 RMK AO2 SLP155 T02610172 10328 20256 52002=
201607020452 METAR KATL 020452Z 30004KT 10SM FEW080 27/16 A3003 RMK AO2 SLP155 T02720161 403440239=
201607020352 METAR KATL 020352Z 28004KT 10SM FEW080 29/15 A3002 RMK AO2 SLP151 T02890150=
201607020252 METAR KATL 020252Z 28006KT 10SM FEW080 28/15 A3002 RMK AO2 SLP153 T02830150 53010=
201607020152 METAR KATL 020152Z 28004KT 10SM FEW080 30/15 A3000 RMK AO2 SLP145 T03000150=
201607020052 METAR KATL 020052Z 28006KT 10SM FEW080 31/14 A2999 RMK AO2 SLP142 T03060144=
201607012352 METAR KATL 012352Z 31005KT 10SM FEW080 33/13 A2999 RMK AO2 SLP142 T03280128 10344 20317 53003=
201607012252 METAR KATL 012252Z 28007KT 10SM FEW080 34/12 A2998 RMK AO2 SLP139 T03390122=
201607012152 METAR KATL 012152Z 34007KT 10SM FEW080 34/13 A2997 RMK AO2 SLP137 T03440128=
201607012052 METAR KATL 012052Z 35008KT 300V030 10SM FEW080 34/12 A2998 RMK AO2 SLP139 T03390122 56015=
201607011952 METAR KATL 011952Z 01010KT 10SM FEW080 FEW250 34/11 A2999 RMK AO2 SLP143 T03390111=
201607011852 METAR KATL 011852Z 34013KT 10SM FEW080 FEW250 34/12 A3001 RMK AO2 SLP148 T03390117=
201607011752 METAR KATL 011752Z COR 21003KT 10SM FEW060 SCT250 32/14 A3002 RMK AO2 SLP155 T03170139 10328 20244 56009=
201607011652 METAR KATL 011652Z VRB05KT 10SM FEW045 FEW250 31/17 A3003 RMK AO2 SLP157 T03110172=
201607011552 METAR KATL 011552Z VRB03KT 10SM FEW035 FEW250 31/18 A3004 RMK AO2 SLP161 T03060183=
201607011452 METAR KATL 011452Z VRB03KT 10SM FEW025 FEW250 28/21 A3005 RMK AO2 SLP165 T02780206 51012=
201607011352 METAR KATL 011352Z 25007KT 10SM FEW015 FEW250 26/21 A3005 RMK AO2 SLP164 T02560206=
201607011315 SPECI KATL 011315Z 26005KT 10SM BKN014 26/21 A3004 RMK AO2 T02560206=
201607011252 METAR KATL 011252Z 27007KT 10SM BKN016 25/21 A3004 RMK AO2 SLP163 T02500206=
201607011230 SPECI KATL 011230Z 24006KT 10SM BKN016 25/21 A3003 RMK AO2 T02500206=
