##########################################################
# Query made at 04/19/2024 23:50:08 UTC
# Time interval: from 08/01/2016 12:00  to 08/31/2016 12:59  UTC
##########################################################

##########################################################
# KATL, Atlanta, Hartsfield - Jackson Atlanta International Airport (United States)
# WMO index: 72219. WIGOS ID: 0-20000-0-72219
# Latitude 33-38-59N. Longitude 084-25-00W. Altitude 312 m.
##########################################################

201608311252 METAR KATL 311252Z 04007KT 10SM CLR 26/21 A3001 RMK AO2 SLP152 T02610211=
201608311152 METAR KATL 311152Z 04008KT 10SM CLR 24/21 A3001 RMK AO2 SLP153 T02390211 10244 20239 55000=
201608311052 METAR KATL 311052Z 05006KT 10SM FEW080 24/21 A3001 RMK AO2 SLP151 T02390211=
201608310952 METAR KATL 310952Z 06004KT 10SM CLR 24/21 A3001 RMK AO2 SLP149 T02390206=
201608310852 METAR KATL 310852Z 06004KT 10SM CLR 24/21 A3002 RMK AO2 SLP153 T02390206 58005=
201608310752 METAR KATL 310752Z 07003KT 10SM CLR 24/21 A3003 RMK AO2 SLP156 T02440206=
201608310652 METAR KATL 310652Z 08004KT 10SM CLR 24/21 A3003 RMK AO2 SLP156 T02440206=
201608310552 METAR KATL 310552Z 08004KT 10SM CLR 24/21 A3003 RMK AO2 SLP158 T02440206 10294 20244 55001=
201608310452 METAR KATL 310452Z 11004KT 10SM CLR 26/21 A3003 RMK AO2 SLP156 T02560206 403280228=
201608310352 METAR KATL 310352Z 12005KT 10SM CLR 26/20 A3003 RMK AO2 SLP156 T02610200=
201608310252 METAR KATL 310252Z 11004KT 10SM CLR 27/20 A3003 RMK AO2 SLP158 T02720200 51010=
201608310152 METAR KATL 310152Z 12006KT 10SM FEW080 28/20 A3003 RMK AO2 SLP158 T02780200=
201608310052 METAR KATL 310052Z 09009KT 10SM FEW080 28/19 A3002 RMK AO2 SLP153 T02830194=
201608302352 METAR KATL 302352Z 09010KT 10SM FEW080 FEW250 29/19 A3000 RMK AO2 SLP148 60000 T02940194 10328 20294 55006=
201608302252 METAR KATL 302252Z 07013KT 10SM FEW045 FEW250 31/19 A3000 RMK AO2 SLP148 TCU DSNT NE & SW T03060194=
201608302152 METAR KATL 302152Z 07013G17KT 10SM FEW045 SCT250 31/19 A3001 RMK AO2 RAB04E17 SLP151 CB DSNT SW TCU DSNT SE-S & NW P0000 T03110194=
201608302052 METAR KATL 302052Z COR 08014KT 10SM FEW045CB SCT050TCU BKN110 31/19 A3002 RMK AO2 SLP155 CB N-NE MOV E TCU SW-W SHRA VC N-NE T03060194 56020=
201608302026 SPECI KATL 302026Z 06011KT 10SM FEW050 SCT070 SCT250 31/19 A3003 RMK AO2 LTG DSNT SE CB DSNT SE & SW TCU DSNT SW-W MDT CU NE-E T03060189=
201608301952 METAR KATL 301952Z 07007KT 050V110 10SM FEW045CB SCT055TCU BKN080 32/19 A3004 RMK AO2 SLP160 CB S MOV E TCU OHD-NE-SE TCU DSNT SW-W SHRA VC S T03220194=
201608301908 SPECI KATL 301908Z 09012G15KT 10SM FEW045CB BKN055TCU BKN080 32/19 A3005 RMK AO2 CB S MOV E TCU OHD-NE-SE MDT CU DSNT SW-NW SHRA VC S T03220194=
201608301852 METAR KATL 301852Z 08009KT 10SM SCT050 BKN070 31/19 A3006 RMK AO2 SLP168 TCU DSNT SE-SW T03060194=
201608301752 METAR KATL 301752Z 09008KT 10SM SCT046TCU 31/20 A3008 RMK AO2 SLP175 TCU NE-SE & SW-NW T03110200 10311 20233 58013=
201608301652 METAR KATL 301652Z 10009KT 10SM SCT050 31/19 A3011 RMK AO2 SLP184 MDT CU NE-SE T03060189=
201608301552 METAR KATL 301552Z 09011KT 10SM SCT040 29/19 A3012 RMK AO2 SLP189 MDT CU ALQDS T02940194=
201608301452 METAR KATL 301452Z 07012KT 10SM FEW030 28/20 A3012 RMK AO2 SLP188 T02780200 53007=
201608301352 METAR KATL 301352Z 07008KT 10SM FEW020 FEW150 27/21 A3011 RMK AO2 SLP186 T02670211=
201608301252 METAR KATL 301252Z 07008KT 10SM CLR 25/21 A3011 RMK AO2 SLP185 T02500206=
201608301152 METAR KATL 301152Z 07009KT 10SM CLR 23/20 A3010 RMK AO2 SLP182 T02330200 10256 20228 53006=
201608301052 METAR KATL 301052Z 06008KT 10SM CLR 23/21 A3009 RMK AO2 SLP177 T02280206=
201608300952 METAR KATL 300952Z 05007KT 10SM CLR 23/20 A3008 RMK AO2 SLP175 T02330200=
201608300852 METAR KATL 300852Z 08006KT 10SM CLR 23/20 A3008 RMK AO2 SLP175 T02280200 58004=
201608300752 METAR KATL 300752Z 04007KT 10SM CLR 24/20 A3009 RMK AO2 SLP177 T02440200=
201608300652 METAR KATL 300652Z 09005KT 10SM FEW050 25/20 A3009 RMK AO2 SLP177 T02500200=
201608300552 METAR KATL 300552Z 13003KT 10SM FEW050 26/19 A3009 RMK AO2 SLP179 T02560194 10300 20244 50001=
201608300452 METAR KATL 300452Z 09005KT 10SM FEW050 25/19 A3010 RMK AO2 SLP181 T02500194 403220233=
201608300352 METAR KATL 300352Z COR 08010KT 10SM FEW050 27/19 A3010 RMK AO2 SLP180 T02670189=
201608300252 METAR KATL 300252Z 06010KT 10SM FEW045 28/19 A3009 RMK AO2 SLP178 T02780189 51012=
201608300152 METAR KATL 300152Z 08009KT 10SM FEW250 28/19 A3009 RMK AO2 SLP179 T02780189=
201608300052 METAR KATL 300052Z 08011KT 10SM FEW200 28/18 A3008 RMK AO2 SLP176 T02830183=
201608292352 METAR KATL 292352Z 07012KT 10SM FEW045 FEW200 30/19 A3006 RMK AO2 SLP167 T03000194 10322 20294 55005=
201608292252 METAR KATL 292252Z 07013KT 10SM FEW045 FEW200 31/19 A3005 RMK AO2 SLP165 TCU DSNT S T03110194=
201608292152 METAR KATL 292152Z 06013KT 10SM FEW045 FEW200 32/19 A3006 RMK AO2 SLP166 CB DSNT SE-S T03170194=
201608292052 METAR KATL 292052Z 09011KT 10SM FEW045 FEW250 32/21 A3007 RMK AO2 SLP171 CB DSNT SE-SW TCU DSNT SW-W T03170206 56022=
201608291952 METAR KATL 291952Z 06008G17KT 10SM FEW045 FEW060 SCT250 32/20 A3009 RMK AO2 SLP176 CB DSNT SW TCU DSNT NE-SE & DSNT SW-NW T03170200=
201608291852 METAR KATL 291852Z 05014KT 10SM BKN040TCU BKN050 31/21 A3012 RMK AO2 SLP186 TCU N & NE-SE & SW-NW T03110211=
201608291752 METAR KATL 291752Z 06009KT 10SM SCT040TCU BKN060 30/21 A3014 RMK AO2 SLP193 TCU E & SE-SW & NW T03000211 10306 20239 58009=
201608291652 METAR KATL 291652Z 03012KT 10SM BKN035 BKN055 29/21 A3015 RMK AO2 SLP196 TCU DSNT NE-E MDT CU SE-SW-W T02940211=
201608291552 METAR KATL 291552Z 07007KT 10SM BKN030 BKN050 28/21 A3016 RMK AO2 SLP202 T02830211=
201608291452 METAR KATL 291452Z 05008KT 10SM FEW023 FEW050 28/22 A3016 RMK AO2 SLP202 T02780217 53005=
201608291352 METAR KATL 291352Z 08010KT 10SM FEW020 BKN050 26/21 A3016 RMK AO2 SLP200 T02610211=
201608291252 METAR KATL 291252Z 06008KT 10SM FEW050 25/21 A3015 RMK AO2 SLP198 T02500206=
201608291152 METAR KATL 291152Z 06009KT 10SM FEW014 FEW034 24/20 A3015 RMK AO2 SLP197 T02390200 10256 20233 53010=
201608291052 METAR KATL 291052Z 07008KT 10SM FEW012 FEW036 23/20 A3013 RMK AO2 SLP192 T02330200=
201608290952 METAR KATL 290952Z 07007KT 10SM FEW039 24/20 A3012 RMK AO2 SLP187 T02390200=
201608290852 METAR KATL 290852Z 07007KT 10SM BKN039 24/19 A3012 RMK AO2 SLP186 T02440194 55001=
201608290752 METAR KATL 290752Z 06008KT 10SM CLR 25/19 A3011 RMK AO2 SLP185 T02500194=
201608290652 METAR KATL 290652Z 09007KT 10SM FEW065 FEW100 24/19 A3010 RMK AO2 SLP182 T02440194=
201608290552 METAR KATL 290552Z 08009KT 10SM FEW065 FEW100 SCT200 26/19 A3012 RMK AO2 SLP186 T02560189 10311 20256 58001=
201608290452 METAR KATL 290452Z 06010KT 10SM FEW100 SCT250 27/19 A3012 RMK AO2 SLP188 T02720189 403280233=
201608290352 METAR KATL 290352Z 07011KT 10SM SCT250 27/20 A3012 RMK AO2 SLP187 T02720200=
201608290252 METAR KATL 290252Z 07010KT 10SM BKN250 28/21 A3012 RMK AO2 SLP187 T02830211 53017=
201608290152 METAR KATL 290152Z 06009KT 10SM FEW100 29/21 A3010 RMK AO2 SLP180 T02890211=
201608290052 METAR KATL 290052Z 08010KT 10SM FEW095 SCT250 30/21 A3009 RMK AO2 SLP176 T03000206=
201608282352 METAR KATL 282352Z 08010KT 10SM FEW055 BKN250 31/20 A3007 RMK AO2 SLP171 T03110200 10328 20306 55000=
201608282252 METAR KATL 282252Z 07009KT 10SM FEW055 SCT250 32/19 A3006 RMK AO2 SLP167 TCU DSNT SE T03170194=
201608282152 METAR KATL 282152Z 12008KT 10SM FEW055 FEW250 32/19 A3007 RMK AO2 SLP169 T03220189=
201608282052 METAR KATL 282052Z 10010KT 10SM FEW048 33/19 A3007 RMK AO2 SLP170 T03280194 58028=
201608281952 METAR KATL 281952Z 09010KT 10SM FEW045 31/21 A3010 RMK AO2 SLP180 T03110206=
201608281852 METAR KATL 281852Z 08010G18KT 10SM SCT041 SCT070 BKN250 32/21 A3014 RMK AO2 SLP194 MDT CU S-W T03170211=
201608281752 METAR KATL 281752Z 05010G18KT 10SM SCT040 BKN075 BKN250 31/22 A3015 RMK AO2 SLP199 T03060217 10311 20233 58012=
201608281652 METAR KATL 281652Z 06011G16KT 10SM FEW036 SCT065 BKN250 31/22 A3017 RMK AO2 SLP204 T03060217=
201608281552 METAR KATL 281552Z 05010KT 10SM FEW030 SCT055 SCT250 29/22 A3019 RMK AO2 SLP210 T02890217=
201608281452 METAR KATL 281452Z 05008KT 10SM FEW028 BKN060 BKN250 27/22 A3019 RMK AO2 SLP212 T02720222 51010=
201608281352 METAR KATL 281352Z 06006KT 10SM FEW026 SCT050 SCT250 26/22 A3019 RMK AO2 SLP210 T02610222=
201608281252 METAR KATL 281252Z 07006KT 10SM FEW100 FEW250 25/22 A3018 RMK AO2 SLP206 T02500217=
201608281152 METAR KATL 281152Z 07009KT 10SM FEW250 23/22 A3016 RMK AO2 SLP202 T02330217 10267 20233 51014=
201608281052 METAR KATL 281052Z 07009KT 10SM FEW250 24/22 A3014 RMK AO2 SLP196 T02390217=
201608280952 METAR KATL 280952Z 06009KT 10SM CLR 24/22 A3014 RMK AO2 SLP193 T02390222=
201608280852 METAR KATL 280852Z 09008KT 10SM CLR 24/22 A3012 RMK AO2 SLP187 T02390222 53003=
201608280752 METAR KATL 280752Z 08010KT 10SM CLR 25/22 A3011 RMK AO2 SLP183 T02500217=
201608280652 METAR KATL 280652Z 06008KT 10SM CLR 26/22 A3011 RMK AO2 SLP184 T02560217=
201608280552 METAR KATL 280552Z 09004KT 10SM CLR 26/21 A3011 RMK AO2 SLP184 T02560211 10311 20256 58003=
201608280452 METAR KATL 280452Z 09007KT 10SM CLR 26/22 A3012 RMK AO2 SLP188 T02610222 403330233=
201608280352 METAR KATL 280352Z 09009KT 10SM CLR 27/22 A3012 RMK AO2 SLP188 T02720222=
201608280252 METAR KATL 280252Z 08008KT 10SM FEW080 28/22 A3012 RMK AO2 SLP187 T02780222 51020=
201608280152 METAR KATL 280152Z 07010KT 10SM FEW065 29/22 A3010 RMK AO2 SLP180 T02940217=
201608280052 METAR KATL 280052Z 07007KT 10SM FEW065 30/20 A3008 RMK AO2 SLP173 T03000200=
201608272352 METAR KATL 272352Z 09008KT 10SM FEW060TCU SCT080 31/20 A3006 RMK AO2 SLP166 TCU N T03110200 10333 20311 53000=
201608272252 METAR KATL 272252Z 11007KT 10SM FEW065 33/19 A3004 RMK AO2 SLP159 T03280194=
201608272152 METAR KATL 272152Z 14008KT 10SM FEW060 33/19 A3004 RMK AO2 SLP160 MDT CU W T03280194=
201608272052 METAR KATL 272052Z 10011KT 10SM SCT050 33/21 A3005 RMK AO2 SLP165 MDT CU ALQDS T03280206 58016=
201608271952 METAR KATL 271952Z 11007KT 10SM SCT050TCU 33/20 A3008 RMK AO2 SLP173 TCU E T03280200=
201608271852 METAR KATL 271852Z 12011KT 10SM SCT045 33/20 A3009 RMK AO2 SLP177 MDT CU ALQDS T03280200=
201608271752 METAR KATL 271752Z 09010KT 10SM SCT043 BKN055 31/21 A3010 RMK AO2 SLP182 MDT CU ALQDS T03110211 10322 20239 58011=
201608271652 METAR KATL 271652Z 07009KT 10SM SCT038 BKN060 BKN250 31/22 A3012 RMK AO2 SLP187 MDT CU ALQDS T03110217=
201608271552 METAR KATL 271552Z 10005KT 10SM FEW050 FEW250 29/21 A3013 RMK AO2 SLP190 T02940211=
201608271452 METAR KATL 271452Z 11004KT 10SM FEW048 FEW250 28/21 A3014 RMK AO2 SLP193 T02830211 51007=
201608271352 METAR KATL 271352Z COR 15003KT 10SM FEW050 FEW250 27/21 A3013 RMK AO2 SLP192 T02670206=
201608271252 METAR KATL 271252Z COR 10003KT 10SM FEW050 FEW250 26/22 A3013 RMK AO2 SLP191 T02560217=
201608271152 METAR KATL 271152Z 08003KT 10SM SCT055 SCT250 24/22 A3012 RMK AO2 SLP186 T02390217 10261 20233 53015=
201608271052 METAR KATL 271052Z 10003KT 10SM FEW050 FEW250 24/22 A3009 RMK AO2 SLP177 T02390217=
201608270952 METAR KATL 270952Z 09006KT 10SM FEW050 24/22 A3007 RMK AO2 SLP172 T02390222=
201608270852 METAR KATL 270852Z 07005KT 10SM CLR 24/22 A3007 RMK AO2 SLP171 T02440222 56010=
201608270752 METAR KATL 270752Z 11005KT 10SM CLR 26/22 A3008 RMK AO2 SLP172 T02560222=
201608270652 METAR KATL 270652Z 10005KT 10SM CLR 26/22 A3009 RMK AO2 SLP175 T02560222=
201608270552 METAR KATL 270552Z 08005KT 10SM FEW090 26/22 A3010 RMK AO2 SLP181 T02610217 10322 20261 56001=
201608270452 METAR KATL 270452Z 06010KT 10SM FEW100 27/22 A3010 RMK AO2 SLP180 T02720217 403440244=
201608270352 METAR KATL 270352Z 07007KT 10SM FEW100 28/22 A3011 RMK AO2 SLP182 T02830217=
201608270252 METAR KATL 270252Z 08007KT 10SM SCT060 BKN100 BKN250 29/22 A3011 RMK AO2 SLP182 LTG DSNT N-NE CB DSNT N-NE T02940217 51019=
201608270152 METAR KATL 270152Z 15003KT 10SM FEW060 BKN100 BKN250 30/22 A3009 RMK AO2 LTG DSNT N SLP176 CB DSNT N-NE T03000217=
201608270052 METAR KATL 270052Z 17003KT 10SM FEW060 FEW250 31/21 A3007 RMK AO2 LTG DSNT NE SLP170 CB DSNT NE & NW T03060206=
201608262352 METAR KATL 262352Z 12005KT 10SM FEW060TCU SCT100 SCT250 32/19 A3005 RMK AO2 SLP162 TCU E-SE CB DSNT NE T03220189 10344 20322 53002=
201608262252 METAR KATL 262252Z 10006KT 10SM FEW060 FEW250 33/19 A3003 RMK AO2 SLP158 TCU DSNT NE & SE T03280194=
201608262152 METAR KATL 262152Z 11007KT 10SM FEW060 FEW100 SCT250 33/19 A3003 RMK AO2 SLP157 T03330194=
201608262052 METAR KATL 262052Z 12008KT 090V160 10SM FEW065TCU FEW100 SCT250 33/19 A3004 RMK AO2 SLP161 CB DSNT NW-N TCU SE & SW T03330189 56021=
201608261952 METAR KATL 261952Z VRB06KT 10SM SCT060 33/19 A3005 RMK AO2 SLP163 CB DSNT N MDT CU SW-NW T03330194=
201608261852 METAR KATL 261852Z COR 09008KT 10SM FEW055TCU SCT070 33/19 A3008 RMK AO2 SLP173 TCU N MDT CU SE-SW & SW-NW SHRA N T03330194=
201608261752 METAR KATL 261752Z 09010KT 10SM FEW050 FEW070 33/20 A3010 RMK AO2 SLP181 MDT CU N-NE & SE-SW & SW-NW T03330200 10333 20261 58013=
201608261652 METAR KATL 261652Z VRB04KT 10SM SCT045TCU 31/21 A3013 RMK AO2 SLP189 TCU N & E & SW & NW T03110206=
201608261552 METAR KATL 261552Z 09003KT 10SM FEW045 SCT055 31/20 A3014 RMK AO2 SLP194 T03060200=
201608261452 METAR KATL 261452Z 17003KT 10SM FEW035 FEW050 30/21 A3014 RMK AO2 SLP195 T03000211 52008=
201608261352 METAR KATL 261352Z 17003KT 10SM FEW050 28/21 A3014 RMK AO2 SLP193 T02780211=
201608261252 METAR KATL 261252Z 09003KT 10SM FEW250 27/22 A3013 RMK AO2 SLP190 T02720217=
201608261152 METAR KATL 261152Z 06004KT 10SM FEW250 26/22 A3012 RMK AO2 SLP187 T02610217 10267 20244 53002=
201608261052 METAR KATL 261052Z 07003KT 10SM FEW250 24/22 A3012 RMK AO2 SLP186 T02440217=
201608260952 METAR KATL 260952Z 00000KT 10SM CLR 26/22 A3011 RMK AO2 SLP186 T02560217=
201608260852 METAR KATL 260852Z 00000KT 10SM CLR 24/22 A3011 RMK AO2 SLP185 T02440217 58008=
201608260752 METAR KATL 260752Z 00000KT 10SM FEW070 26/22 A3012 RMK AO2 SLP187 T02560217=
201608260652 METAR KATL 260652Z 00000KT 10SM SCT075 26/22 A3013 RMK AO2 SLP192 T02560217=
201608260552 METAR KATL 260552Z 00000KT 10SM BKN070 27/21 A3014 RMK AO2 SLP194 T02670211 10306 20256 53004=
201608260452 METAR KATL 260452Z 20003KT 10SM FEW080 26/21 A3013 RMK AO2 SLP191 T02610211 403330222=
201608260352 METAR KATL 260352Z 16003KT 10SM SCT080 27/21 A3013 RMK AO2 SLP191 T02720211=
201608260252 METAR KATL 260252Z 14003KT 10SM FEW060 28/21 A3013 RMK AO2 SLP190 T02780211 51013=
201608260152 METAR KATL 260152Z 12005KT 10SM FEW250 29/21 A3012 RMK AO2 SLP188 T02940206=
201608260052 METAR KATL 260052Z 09005KT 10SM FEW250 29/21 A3010 RMK AO2 SLP181 T02890206=
201608252352 METAR KATL 252352Z 09007KT 10SM FEW050 FEW250 31/21 A3009 RMK AO2 SLP177 T03060206 10333 20300 55008=
201608252252 METAR KATL 252252Z 11007KT 10SM FEW050 FEW250 32/20 A3009 RMK AO2 SLP177 T03170200=
201608252152 METAR KATL 252152Z 06006KT 10SM FEW048 SCT250 32/20 A3009 RMK AO2 SLP179 TCU DSNT SE T03220200=
201608252052 METAR KATL 252052Z 07008KT 10SM FEW048TCU FEW250 32/20 A3011 RMK AO2 SLP184 TCU N T03220200 58022=
201608251952 METAR KATL 251952Z 26004KT 10SM FEW045 FEW250 32/22 A3013 RMK AO2 SLP193 TCU DSNT N T03170217=
201608251852 METAR KATL 251852Z 36004KT 10SM SCT040TCU SCT250 32/21 A3016 RMK AO2 SLP202 TCU NE & SE & SW T03170206=
201608251752 METAR KATL 251752Z 25004KT 10SM BKN040 BKN050 31/22 A3018 RMK AO2 SLP208 MDT CU NE-SE T03110217 10311 20228 58015=
201608251652 METAR KATL 251652Z 33003KT 10SM SCT040 SCT050 31/21 A3020 RMK AO2 SLP216 T03060206=
201608251552 METAR KATL 251552Z 24003KT 10SM FEW030 FEW050 29/21 A3022 RMK AO2 SLP223 T02890211=
201608251452 METAR KATL 251452Z VRB03KT 10SM FEW025 FEW045 SCT250 28/22 A3022 RMK AO2 SLP224 T02830217 51002=
201608251352 METAR KATL 251352Z 25004KT 10SM FEW040 FEW250 26/22 A3022 RMK AO2 SLP224 T02610217=
201608251252 METAR KATL 251252Z 00000KT 10SM FEW040 FEW250 24/22 A3023 RMK AO2 SLP225 T02440217=
201608251152 METAR KATL 251152Z 00000KT 9SM FEW250 23/22 A3022 RMK AO2 SLP223 70080 T02280217 10233 20222 53011=
201608251052 METAR KATL 251052Z 08005KT 10SM FEW250 22/21 A3020 RMK AO2 SLP218 T02220211=
201608250952 METAR KATL 250952Z 00000KT 10SM CLR 22/22 A3019 RMK AO2 SLP216 T02220217=
201608250852 METAR KATL 250852Z 12004KT 10SM CLR 23/22 A3018 RMK AO2 SLP212 T02280217 55001 $=
201608250752 METAR KATL 250752Z 10004KT 10SM CLR 23/22 A3018 RMK AO2 SLP211 T02280217 $=
201608250652 METAR KATL 250652Z 12004KT 10SM FEW250 23/21 A3017 RMK AO2 SLP208 T02330211 $=
201608250552 METAR KATL 250552Z 09005KT 10SM FEW250 23/22 A3019 RMK AO2 SLP212 T02330217 10261 20233 58012 $=
201608250452 METAR KATL 250452Z COR 08005KT 10SM SCT250 24/22 A3021 RMK AO2 SLP219 T02390222 402940228 $=
201608250352 METAR KATL 250352Z 08006KT 10SM SCT250 24/22 A3021 RMK AO2 SLP221 T02440222 $=
201608250252 METAR KATL 250252Z 12004KT 10SM BKN250 25/22 A3022 RMK AO2 SLP224 T02500222 53009 $=
201608250152 METAR KATL 250152Z 10004KT 10SM FEW200 BKN250 26/22 A3021 RMK AO2 SLP221 T02560222 $=
201608250052 METAR KATL 250052Z 10005KT 10SM FEW200 BKN250 26/23 A3020 RMK AO2 SLP216 T02560233 $=
201608242352 METAR KATL 242352Z 10005KT 10SM FEW110 SCT200 BKN250 26/24 A3020 RMK AO2 SLP215 60080 T02610239 10294 20228 56011 $=
201608242252 METAR KATL 242252Z 11007KT 10SM FEW110 SCT200 BKN250 26/24 A3020 RMK AO2 SLP215 T02610239 $=
201608242152 METAR KATL 242152Z 14003KT 10SM FEW008 SCT110 BKN200 BKN250 26/23 A3022 RMK AO2 SLP223 T02560228 $=
201608242052 METAR KATL 242052Z COR 00000KT 10SM FEW008 SCT070 BKN110 BKN200 25/24 A3023 RMK AO2 LTG DSNT S AND SW SLP227 CB DSNT S & SW RAE39 TSE07 P0003 60080 T02500239 58004 $=
201608242008 SPECI KATL 242008Z 18005KT 9SM -RA FEW010 BKN060 OVC080 24/23 A3024 RMK AO2 LTG DSNT SW AND W TSE07 VIS LWR SW SHRA TS MOV S CB DSNT SW & W MOV S P0002 T02390233 $=
201608242001 SPECI KATL 242001Z 22004KT 8SM VCTS -RA FEW010CB BKN050 OVC070 24/23 A3024 RMK AO2 LTG DSNT SW TSE01 VIS LWR SW SHRA OCNL LTGICCG SW TS VC SW MOV S P0002 T02390233 $=
201608241952 METAR KATL 241952Z 23003KT 8SM -TSRA FEW010CB BKN050 OVC075 24/23 A3024 RMK AO2 SLP232 VIS LWR SW SHRA OCNL LTGICCG SW TS SW MOV S P0025 T02390228=
201608241935 SPECI KATL 241935Z 00000KT 4SM -TSRA BR FEW010CB BKN050 OVC080 24/22 A3026 RMK AO2 OCNL LTGICCG OHD-SW-NW TS OHD-SW-NW MOV S P0018 T02390222=
201608241916 SPECI KATL 241916Z 07010KT 6SM -TSRA BR FEW010CB BKN050 OVC080 24/23 A3025 RMK AO2 TSB16 VIS LWR SW-NW SHRA OCNL LTGICCG SW-NW TS SW-NW MOV SE P0015 T02440228=
201608241907 SPECI KATL 241907Z 08012KT 8SM VCTS -RA SCT015CB BKN041 OVC050 23/23 A3025 RMK AO2 OCNL LTGICCG SW-NW TS VC SW-NW MOV SE P0015 T02330228=
201608241852 METAR KATL 241852Z COR 10014KT 8SM R09R/6000VP6000FT -RA FEW010CB BKN030 OVC050 23/22 A3025 RMK AO2 PK WND 06027/1816 RAB07 SLP234 VIS LWR E-SE-S & NW-N SHRA CB E-SE-S & NW-N MOV S P0052 T02330222=
201608241846 SPECI KATL 241846Z 10018G22KT 8SM R09R/3500VP6000FT -TSRA FEW010CB BKN030 OVC050 23/22 A3025 RMK AO2 PK WND 06027/1816 RAB07 TSB46 VIS LWR E-SE-S & NW-N SHRA CB E-SE-S & NW-N MOV S P0042=
201608241837 SPECI KATL 241837Z 10018KT 4SM R09R/4000VP6000FT +RA BR FEW009 BKN020CB OVC050 24/23 A3026 RMK AO2 PK WND 06027/1816 RAB07 CB OHD-E-SE-S MOV S P0016 T02390228=
201608241818 SPECI KATL 241818Z 07017G27KT 7SM -RA FEW015CB BKN050 OVC085 26/23 A3025 RMK AO2 PK WND 06027/1816 RAB07 VIS LWR NE-E-SE SHRA CB NE-E-SE MOV S P0000 T02610228=
201608241808 SPECI KATL 241808Z 00000KT 8SM -RA BKN030CB BKN080 OVC120 29/22 A3025 RMK AO2 RAB07 VIS LWR NE-E-SE SHRA CB OHD-NE-E-SE MOV S P0000 T02940222=
201608241752 METAR KATL 241752Z 20005KT 10SM FEW020CB SCT030TCU BKN085 BKN250 29/23 A3024 RMK AO2 LTG DSNT NE SLP229 CB DSNT N-NE & VC E MOV S TCU N-NE SHRA DSNT N-NE & VC E T02890228 10294 20239 58014=
201608241734 SPECI KATL 241734Z 19006KT 10SM SCT030TCU BKN080 BKN250 29/23 A3025 RMK AO2 LTG DSNT N-E CB DSNT N-NE-E TCU N-NE & E-SE-S SHRA DSNT N-NE-E T02890228=
201608241652 METAR KATL 241652Z 22009KT 10SM SCT025TCU BKN075 BKN250 29/23 A3026 RMK AO2 SLP235 CB DSNT NE-E TCU NE-SE & SW-NW SHRA DSNT NE-E T02890228=
201608241609 SPECI KATL 241609Z 22008KT 10SM SCT020TCU SCT050 BKN075 28/23 A3028 RMK AO2 CB DSNT N-NE-E TCU NE-SE SHRA DSNT N-NE-E T02830233=
201608241600 SPECI KATL 241600Z 20005KT 10SM SCT017 SCT026 BKN075 28/23 A3028 RMK AO2 T02780233=
201608241552 METAR KATL 241552Z 18006KT 10SM SCT017TCU BKN025 BKN075 28/23 A3029 RMK AO2 SLP244 CB DSNT N & NE & E & NW TCU NE-SE SHRA DSNT N & NE & E & NW T02780233=
201608241452 METAR KATL 241452Z 20007KT 10SM FEW012 SCT030 BKN070 27/23 A3028 RMK AO2 SLP244 T02670233 51002=
201608241409 SPECI KATL 241409Z 19006KT 10SM FEW010 BKN030 BKN070 26/23 A3029 RMK AO2 T02560233=
201608241352 METAR KATL 241352Z 19009KT 10SM BKN010 BKN025 BKN070 26/23 A3028 RMK AO2 SLP244 T02560233=
201608241327 SPECI KATL 241327Z 18005KT 10SM BKN009 BKN014 OVC023 26/23 A3029 RMK AO2 T02560233=
201608241252 METAR KATL 241252Z 13005KT 10SM BKN011 25/23 A3028 RMK AO2 SLP244 T02500228=
201608241211 SPECI KATL 241211Z 15004KT 9SM SCT012 BKN023 BKN032 24/23 A3028 RMK AO2 T02390233=
201608241152 METAR KATL 241152Z 13003KT 9SM SCT012 SCT034 BKN250 24/23 A3028 RMK AO2 SLP241 T02390228 10261 20233 53016=
201608241052 METAR KATL 241052Z 15004KT 10SM FEW006 FEW014 23/23 A3025 RMK AO2 SLP231 T02330228=
201608241041 SPECI KATL 241041Z 15006KT 10SM SCT014 SCT037 24/23 A3024 RMK AO2 T02390228=
201608241023 SPECI KATL 241023Z 15004KT 10SM BKN013 24/23 A3024 RMK AO2 T02390228=
201608240952 METAR KATL 240952Z 12005KT 10SM FEW055 24/23 A3024 RMK AO2 SLP227 T02390228=
201608240852 METAR KATL 240852Z 09004KT 10SM CLR 24/22 A3023 RMK AO2 SLP224 T02390222 53003=
201608240752 METAR KATL 240752Z 00000KT 10SM FEW055 25/22 A3022 RMK AO2 SLP222 T02500222=
201608240652 METAR KATL 240652Z 13004KT 10SM CLR 25/22 A3022 RMK AO2 SLP222 T02500222=
201608240552 METAR KATL 240552Z 12005KT 10SM CLR 26/22 A3022 RMK AO2 SLP221 T02610217 10311 20261 58009=
201608240452 METAR KATL 240452Z 15005KT 10SM FEW050 26/22 A3023 RMK AO2 SLP226 T02610222 403390228=
201608240352 METAR KATL 240352Z 14003KT 10SM FEW050 27/22 A3025 RMK AO2 SLP231 T02720217=
201608240252 METAR KATL 240252Z 11004KT 10SM SCT045 28/22 A3025 RMK AO2 SLP231 T02780217 51015=
201608240152 METAR KATL 240152Z 09007KT 10SM FEW050 28/21 A3024 RMK AO2 SLP227 T02780211=
201608240052 METAR KATL 240052Z 08009KT 10SM FEW050 SCT250 29/20 A3022 RMK AO2 SLP220 CB DSNT S T02940200=
201608232352 METAR KATL 232352Z 05009KT 10SM FEW055 SCT250 31/19 A3020 RMK AO2 SLP216 CB DSNT SE-S T03110194 10339 20306 53002=
201608232252 METAR KATL 232252Z 02004KT 10SM FEW055 SCT070 BKN250 32/19 A3020 RMK AO2 SLP214 CB DSNT SE-S T03220189=
201608232152 METAR KATL 232152Z 07006KT 10SM SCT055TCU BKN070 BKN250 33/19 A3020 RMK AO2 SLP213 TCU OHD-W T03280194=
201608232052 METAR KATL 232052Z 19003KT 10SM FEW055 BKN065 BKN250 33/19 A3020 RMK AO2 SLP213 T03280194 56018=
201608231952 METAR KATL 231952Z 35008KT 10SM SCT050 BKN070 BKN250 32/19 A3021 RMK AO2 SLP218 T03220194=
201608231852 METAR KATL 231852Z 30007KT 10SM FEW050 BKN060 BKN250 32/20 A3023 RMK AO2 SLP224 T03220200=
201608231752 METAR KATL 231752Z 00000KT 10SM BKN055 BKN250 32/19 A3025 RMK AO2 SLP232 T03170189 10322 20244 58009=
201608231652 METAR KATL 231652Z VRB03KT 10SM SCT050 SCT250 31/19 A3027 RMK AO2 SLP241 T03060194=
201608231552 METAR KATL 231552Z 00000KT 10SM FEW045 FEW180 SCT250 31/20 A3028 RMK AO2 SLP242 T03060200=
201608231452 METAR KATL 231452Z 18003KT 10SM FEW045 FEW150 SCT250 28/20 A3028 RMK AO2 SLP241 ACC DSNT E T02830200 51013=
201608231352 METAR KATL 231352Z 11005KT 10SM FEW150 FEW200 SCT250 27/19 A3027 RMK AO2 SLP239 T02720189=
201608231252 METAR KATL 231252Z 07005KT 10SM FEW045 FEW200 SCT250 26/16 A3026 RMK AO2 SLP236 T02610161=
201608231152 METAR KATL 231152Z 07004KT 10SM FEW043 FEW150 BKN250 24/16 A3024 RMK AO2 SLP229 T02390161 10244 20228 53013=
201608231052 METAR KATL 231052Z 07004KT 10SM FEW045 FEW120 BKN250 24/16 A3022 RMK AO2 SLP223 T02390156=
201608230952 METAR KATL 230952Z 04003KT 10SM FEW040 SCT250 24/16 A3020 RMK AO2 SLP217 T02440161=
201608230852 METAR KATL 230852Z COR 02004KT 10SM SCT040 SCT120 24/19 A3020 RMK AO2 SLP214 T02440189 55001=
201608230752 METAR KATL 230752Z 00000KT 10SM FEW120 24/19 A3019 RMK AO2 SLP213 T02390194=
201608230652 METAR KATL 230652Z 33005KT 10SM FEW120 24/19 A3019 RMK AO2 SLP212 T02390194=
201608230552 METAR KATL 230552Z 31004KT 10SM FEW120 24/21 A3020 RMK AO2 SLP217 T02390206 10283 20239 50003=
201608230452 METAR KATL 230452Z 30004KT 10SM FEW200 SCT250 24/19 A3020 RMK AO2 SLP217 T02390194 403170217=
201608230352 METAR KATL 230352Z 00000KT 10SM FEW200 BKN250 26/19 A3020 RMK AO2 SLP216 T02560194=
201608230252 METAR KATL 230252Z 33004KT 10SM SCT200 BKN250 27/19 A3019 RMK AO2 SLP214 T02670189 53016=
201608230152 METAR KATL 230152Z 32005KT 10SM FEW200 BKN250 26/19 A3018 RMK AO2 SLP208 T02610194=
201608230052 METAR KATL 230052Z 31005KT 10SM FEW090 SCT200 BKN250 27/19 A3016 RMK AO2 SLP202 T02720189=
201608222352 METAR KATL 222352Z 33006KT 10SM FEW090 BKN200 BKN250 28/18 A3015 RMK AO2 SLP198 T02830183 10317 20283 51004=
201608222252 METAR KATL 222252Z 33007KT 10SM FEW045 SCT090 BKN250 30/18 A3014 RMK AO2 SLP196 T03000183=
201608222152 METAR KATL 222152Z 29007KT 10SM FEW050 BKN080 BKN250 30/19 A3014 RMK AO2 SLP195 T03000189=
201608222052 METAR KATL 222052Z 36007KT 10SM SCT055 BKN080 BKN250 31/18 A3014 RMK AO2 SLP194 T03060178 56013=
201608221952 METAR KATL 221952Z 34008KT 10SM SCT050 SCT100 BKN250 31/18 A3014 RMK AO2 SLP194 T03110178=
201608221852 METAR KATL 221852Z 28003KT 10SM SCT050 SCT120 BKN250 31/18 A3016 RMK AO2 SLP203 T03060183=
201608221752 METAR KATL 221752Z 03010KT 10SM FEW050 SCT120 SCT250 30/18 A3017 RMK AO2 SLP207 T03000178 10300 20217 50000=
201608221652 METAR KATL 221652Z 31006KT 10SM FEW050 SCT150 SCT250 29/17 A3018 RMK AO2 SLP209 T02940172=
201608221552 METAR KATL 221552Z 04004KT 10SM FEW045 FEW150 SCT250 28/17 A3018 RMK AO2 SLP209 T02830172=
201608221452 METAR KATL 221452Z 33008KT 10SM FEW040 SCT150 SCT250 28/17 A3017 RMK AO2 SLP207 T02780172 51018=
201608221352 METAR KATL 221352Z 36007KT 10SM SCT120 SCT180 BKN250 27/20 A3016 RMK AO2 SLP202 T02670200=
201608221252 METAR KATL 221252Z 34004KT 10SM SCT120 SCT150 SCT200 BKN250 23/21 A3015 RMK AO2 SLP200 T02330211=
201608221152 METAR KATL 221152Z 33006KT 10SM FEW110 SCT200 BKN250 22/21 A3012 RMK AO2 SLP191 70035 T02220206 10233 20217 53018=
201608221052 METAR KATL 221052Z 33004KT 10SM SCT110 SCT200 SCT250 22/21 A3010 RMK AO2 SLP183 T02220206=
201608220952 METAR KATL 220952Z 33006KT 10SM SCT110 BKN220 22/21 A3008 RMK AO2 SLP176 T02220211=
201608220852 METAR KATL 220852Z 32007KT 10SM FEW110 BKN250 23/21 A3007 RMK AO2 SLP171 T02280211 53004=
201608220752 METAR KATL 220752Z 32004KT 10SM FEW050 SCT110 SCT200 BKN250 23/22 A3006 RMK AO2 SLP169 T02280217=
201608220652 METAR KATL 220652Z 32006KT 10SM FEW050 SCT110 SCT200 23/22 A3005 RMK AO2 SLP166 T02330222=
201608220552 METAR KATL 220552Z 32007KT 10SM FEW050 SCT200 23/23 A3005 RMK AO2 SLP165 60000 T02330228 10256 20233 58000=
201608220452 METAR KATL 220452Z 28004KT 10SM FEW004 FEW028 SCT200 SCT250 23/23 A3006 RMK AO2 SLP168 T02330228 403170222=
201608220352 METAR KATL 220352Z 28006KT 10SM FEW004 FEW028 SCT180 BKN250 24/23 A3006 RMK AO2 SLP169 T02390233=
201608220252 METAR KATL 220252Z 25004KT 10SM FEW004 SCT026 BKN180 BKN250 24/23 A3006 RMK AO2 SLP167 60000 T02390233 53016=
201608220152 METAR KATL 220152Z 26004KT 10SM FEW110 BKN200 BKN250 24/23 A3003 RMK AO2 RAE02 SLP159 P0000 T02440233=
201608220052 METAR KATL 220052Z 26005KT 10SM -RA FEW046 SCT100 BKN200 BKN250 25/23 A3002 RMK AO2 RAB44 SLP156 CB DSNT NW-N P0000 T02500233=
201608212352 METAR KATL 212352Z 22005KT 10SM FEW038 SCT060 BKN180 BKN250 26/24 A3001 RMK AO2 LTG DSNT SW AND W SLP153 VIRGA E-S CB DSNT SW-W & NW 60035 T02560239 10317 20250 51009=
201608212252 METAR KATL 212252Z 25004KT 10SM FEW036TCU FEW080 BKN180 BKN250 26/23 A3000 RMK AO2 LTG DSNT SW RAE04 TSE06 SLP148 TS MOVD E CB DSNT SW & NW TCU NE P0000 T02610233=
201608212207 SPECI KATL 212207Z 25005KT 10SM FEW008 FEW038 SCT085 BKN180CB 27/25 A2999 RMK AO2 RAE04 TSE06 TS MOVD E OCNL LTGICCA DSNT E-SE CBMAM OHD-NE-SE MOV E CB DSNT ALQDS P0000 T02670250=
201608212152 METAR KATL 212152Z 24006KT 8SM TSRA FEW010 SCT034CB SCT075 BKN200 26/24 A2999 RMK AO2 RAE19B34 SLP147 OCNL LTGICCA NE-OHD-SW TS NE-OHD-SW MOV E CB DSNT ALQDS P0014 T02560244=
201608212128 SPECI KATL 212128Z 25004KT 10SM TS FEW008 SCT032CB BKN070 BKN200 26/25 A3000 RMK AO2 RAE19 FRQ LTGICCGCA SW-W TS VC SW-W MOV E CB SW-NW-N MOV E CB DSNT NE P0009 T02610250=
201608212104 SPECI KATL 212104Z 24005KT 8SM -TSRA FEW016 SCT030CB BKN075 BKN200 26/24 A2998 RMK AO2 OCNL LTGIC NE-SE-SW TS NE-SE-SW MOV E CB DSNT ALQDS P0009 T02560244=
201608212058 SPECI KATL 212058Z 28007G17KT 3SM R09R/4500VP6000FT +TSRA BR BKN030CB BKN075 BKN100 BKN200 26/24 A2997 RMK AO2 OCNL LTGICCG NE-OHD-SW TS NE-OHD-SW MOV E P0005 T02610244=
201608212052 METAR KATL 212052Z 29011G17KT 9SM -TSRA BKN030CB BKN045 BKN080 28/23 A2998 RMK AO2 RAB46 TSB37 SLP142 OCNL LTGICCG SW TS S-W-N MOV E CB DSNT S P0000 60021 T02830228 58008=
201608212038 SPECI KATL 212038Z 23008KT 10SM TS SCT030CB BKN045 BKN080 29/23 A2998 RMK AO2 TSB37 OCNL LTGIC SW TS W MOV E CB DSNT NE AND S T02940228=
201608212023 SPECI KATL 212023Z 20009KT 10SM VCTS SCT030CB BKN045 BKN080 29/23 A2996 RMK AO2 OCNL LTGIC W TS W MOV E CB DSNT NE AND S T02940233=
201608211952 METAR KATL 211952Z 22005KT 10SM SCT035CB BKN045TCU BKN070 29/24 A2998 RMK AO2 LTG DSNT N AND E RAE04 TSE18 SLP140 TS MOV E CB W-NW MOV E TCU S-SW CB DSNT E AND N P0002 T02890239=
201608211920 SPECI KATL 211920Z 24003KT 10SM FEW038CB SCT049 BKN060 28/23 A3000 RMK AO2 LTG DSNT E AND NW RAE04 TSE18 TS MOV E CB NE-SE MOV E CB DSNT W-NW P0002 T02830233=
201608211852 METAR KATL 211852Z COR 22005KT 6SM R09R/5500VP6000FT +TSRA BR FEW022CB BKN037TCU BKN050 25/23 A3001 RMK AO2 RAB07E21B38 TSB52 SLP153 OCNL LTGICCG E TS OHD AND NE-SE MOV E TCU N CB DSNT SW-W VSBY LWR S P0019 T02500233=
201608211842 SPECI KATL 211842Z 31009G21KT 270V340 1 3/4SM R09R/2800VP6000FT +RA FEW014CB BKN037 BKN050 27/23 A3002 RMK AO2 RAB07E21B38 PRESRR CB OHD AND ALQDS P0006 T02670233=
201608211752 METAR KATL 211752Z 28011KT 10SM FEW035CB SCT045TCU 32/22 A3001 RMK AO2 LTG DSNT SW SLP149 CB NW MOV E TCU SW-W-NW T03170222 10317 20228 58004=
201608211652 METAR KATL 211652Z 26011KT 10SM SCT028 SCT036TCU 31/23 A3002 RMK AO2 SLP156 TCU SW-W-N T03060228=
201608211552 METAR KATL 211552Z 30011KT 10SM SCT026 29/23 A3003 RMK AO2 SLP159 SCT026 V BKN T02890228=
201608211452 METAR KATL 211452Z 28010KT 10SM FEW020 SCT150 SCT250 28/23 A3002 RMK AO2 SLP154 T02780228 51013=
201608211352 METAR KATL 211352Z 28010KT 10SM SCT008 SCT150 BKN250 26/23 A3001 RMK AO2 SLP153 T02560228=
201608211332 SPECI KATL 211332Z 28011KT 10SM SCT008 BKN150 BKN250 24/23 A3001 RMK AO2 T02440228=
201608211252 METAR KATL 211252Z 28009KT 8SM BKN007 BKN150 BKN250 24/23 A3001 RMK AO2 SLP150 CIG 006V009 BKN007 V SCT T02440228=
201608211232 SPECI KATL 211232Z 26006KT 10SM BKN006 BKN250 23/22 A3000 RMK AO2 CIG 005V008 BKN006 V SCT T02330222=
201608211202 SPECI KATL 211202Z 26005KT 10SM SCT006 SCT150 BKN250 23/22 A2998 RMK AO2 VIS LWR NW-NE T02280222=
201608211152 METAR KATL 211152Z 24005KT 7SM BKN006 BKN250 23/22 A2998 RMK AO2 SLP142 BKN006 V SCT 70002 T02280222 10239 20222 53013=
201608211142 SPECI KATL 211142Z 23005KT 10SM BKN006 BKN250 23/22 A2998 RMK AO2 BKN006 V SCT T02280222=
201608211052 METAR KATL 211052Z 24007KT 10SM FEW005 FEW150 SCT200 BKN250 23/22 A2996 RMK AO2 SLP134 T02280217=
201608210952 METAR KATL 210952Z 26006KT 10SM FEW004 FEW150 23/22 A2995 RMK AO2 SLP130 T02280222=
201608210852 METAR KATL 210852Z 26007KT 10SM FEW004 SCT150 23/22 A2994 RMK AO2 SLP127 VIS LWR NW-W T02280222 53001=
201608210752 METAR KATL 210752Z 24003KT 10SM FEW007 SCT050 BKN150 23/22 A2993 RMK AO2 SLP124 T02330222=
201608210652 METAR KATL 210652Z 27007KT 10SM FEW007 SCT200 23/22 A2994 RMK AO2 SLP127 T02330222=
201608210633 SPECI KATL 210633Z 25006KT 10SM FEW007 FEW150 SCT200 24/22 A2994 RMK AO2 T02390222=
201608210552 METAR KATL 210552Z 25005KT 10SM FEW150 FEW200 BKN250 24/23 A2994 RMK AO2 SLP126 60001 T02390228 10278 20239 55010=
201608210452 METAR KATL 210452Z 24005KT 10SM FEW150 BKN200 BKN250 24/23 A2993 RMK AO2 SLP125 T02390233 403170228=
201608210352 METAR KATL 210352Z 21005KT 10SM SCT150 BKN200 BKN250 24/24 A2995 RMK AO2 SLP132 T02440239=
201608210252 METAR KATL 210252Z 24005KT 10SM FEW110 BKN160 BKN200 BKN250 25/24 A2997 RMK AO2 RAE0158 SLP137 P0000 60001 T02500239 51013=
201608210152 METAR KATL 210152Z 27007KT 10SM -RA FEW075 SCT110 BKN200 BKN250 25/24 A2996 RMK AO2 SLP135 P0001 T02500239=
201608210052 METAR KATL 210052Z 23006KT 10SM -RA FEW055 SCT110 BKN200 BKN250 27/23 A2994 RMK AO2 LTG DSNT N RAB48 SLP127 CB DSNT N P0000 T02720233=
201608202352 METAR KATL 202352Z 23005KT 10SM FEW038 FEW075 SCT140 BKN200 28/24 A2993 RMK AO2 SLP124 FRQ LTGICCA DSNT NW CB DSNT NW 60001 T02780239 10317 20267 53007=
201608202252 METAR KATL 202252Z 28005KT 10SM FEW036 FEW070 SCT130 BKN200 28/24 A2991 RMK AO2 RAB00E24 TSE35 SLP117 TS MOVD E CB DSNT ALQDS TCU DSNT NE & S ACC NW-N P0001 T02780244=
201608202236 SPECI KATL 202236Z 28005KT 10SM FEW038 SCT065 SCT120 BKN200 28/24 A2991 RMK AO2 RAB00E24 TSE35 TS MOVD E OCNL LTGIC DSNT E-SE CB DSNT N-E-SE & SW P0001 T02780244=
201608202152 METAR KATL 202152Z 25004KT 10SM TS FEW032CB SCT045TCU SCT120 BKN200 29/22 A2991 RMK AO2 TSB49 SLP116 OCNL LTGIC W-NW TS VC W-NW MOV E CB VC SW-NW MOV E CB DSNT ALQDS TCU S-SW & DSNT SE T02890222=
201608202150 SPECI KATL 202150Z 25005KT 10SM TS FEW032CB SCT045TCU SCT120 BKN200 29/22 A2991 RMK AO2 TSB49 OCNL LTGIC W-NW TS VC W-NW MOV E CB VC SW-NW MOV E CB DSNT ALQDS TCU S-SW & DSNT SE=
201608202052 METAR KATL 202052Z 24005KT 10SM FEW030 FEW045 SCT120 BKN200 31/22 A2992 RMK AO2 RAB00E10 SLP119 CB DSNT ALQDS TCU DSNT NE & SE-SW P0000 60000 T03060222 56012=
201608201952 METAR KATL 201952Z 26010KT 10SM FEW015 FEW040CB SCT055TCU 29/24 A2992 RMK AO2 RAB32E52 SLP120 CB NE-SE AND SW MOV E TCU NE CB DSNT SW AND NW-N P0000 T02940239=
201608201852 METAR KATL 201852Z 24008KT 10SM SCT040CB SCT050TCU BKN100 30/22 A2993 RMK AO2 SLP124 CB W-NW MOV NE TCU N AND S CB DSNT E T03000217=
201608201752 METAR KATL 201752Z 23009KT 10SM FEW030 SCT040TCU BKN100 31/22 A2995 RMK AO2 SLP132 TCU E AND NW T03060217 10306 20228 58015=
201608201652 METAR KATL 201652Z 26008KT 10SM SCT024 BKN030TCU BKN100 29/23 A2997 RMK AO2 SLP138 TCU W-NW T02940228=
201608201625 SPECI KATL 201625Z 29008KT 10SM SCT018 SCT024TCU BKN030 29/23 A2998 RMK AO2 TCU SE AND N TCU DSNT SW T02890228=
201608201559 SPECI KATL 201559Z 26006KT 10SM SCT019 BKN027TCU BKN038 28/23 A2999 RMK AO2 TCU E AND S CB DSNT NW-N T02830233=
201608201552 METAR KATL 201552Z 27007KT 10SM SCT019CB BKN038 BKN100 28/23 A2999 RMK AO2 SLP146 CB E MOV E T02830233=
201608201543 SPECI KATL 201543Z 27006KT 10SM SCT019CB BKN038 BKN100 28/23 A2999 RMK AO2 CB E MOV E T02780233=
201608201512 SPECI KATL 201512Z VRB06KT 10SM BKN018 BKN030 BKN100 28/23 A2999 RMK AO2 T02780233=
201608201452 METAR KATL 201452Z 27008KT 220V290 10SM FEW018 SCT032 BKN100 BKN220 28/23 A3000 RMK AO2 SLP147 T02830233 53002=
201608201352 METAR KATL 201352Z 24006KT 10SM FEW012 SCT080 SCT130 BKN220 25/22 A2999 RMK AO2 SLP146 T02500222=
201608201252 METAR KATL 201252Z 24004KT 10SM FEW075 SCT130 BKN220 24/22 A3000 RMK AO2 SLP148 T02440222=
201608201152 METAR KATL 201152Z 22003KT 10SM FEW075 BKN150 BKN220 23/22 A2999 RMK AO2 SLP147 ACC W 60000 70085 T02280222 10233 20228 53002=
201608201052 METAR KATL 201052Z 23003KT 10SM BKN150 BKN200 23/22 A2998 RMK AO2 SLP144 T02280222=
201608200952 METAR KATL 200952Z 00000KT 10SM FEW075 BKN150 BKN200 BKN250 23/22 A2998 RMK AO2 SLP140 T02280222=
201608200852 METAR KATL 200852Z 28004KT 10SM FEW075 SCT120 BKN180 BKN250 23/22 A2999 RMK AO2 RAE20 SLP142 P0000 60000 T02280222 58004=
201608200752 METAR KATL 200752Z 28003KT 10SM -RA FEW004 SCT110 BKN200 23/22 A2999 RMK AO2 RAB48 SLP146 P0000 T02280222=
201608200652 METAR KATL 200652Z 00000KT 10SM FEW004 FEW120 SCT150 BKN220 23/22 A3000 RMK AO2 SLP148 T02280222=
201608200552 METAR KATL 200552Z 24003KT 10SM FEW015 FEW045 BKN150 BKN220 23/22 A3000 RMK AO2 SLP146 TCU DSNT S-W T02330222 10244 20228 58007=
201608200452 METAR KATL 200452Z 20003KT 10SM FEW004 SCT150 BKN200 23/23 A3001 RMK AO2 SLP151 T02330228 403390217=
201608200352 METAR KATL 200352Z 00000KT 10SM FEW004 SCT120 BKN150 BKN200 23/23 A3001 RMK AO2 SLP153 T02330228=
201608200252 METAR KATL 200252Z 00000KT 10SM FEW090 SCT120 BKN150 OVC200 24/23 A3002 RMK AO2 SLP154 T02390228 51010=
201608200152 METAR KATL 200152Z 00000KT 10SM BKN120 BKN150 OVC200 24/23 A3001 RMK AO2 SLP153 T02390233=
201608200052 METAR KATL 200052Z 00000KT 10SM FEW110 BKN150 OVC200 24/22 A3001 RMK AO2 SLP151 T02440222=
201608192352 METAR KATL 192352Z 33003KT 10SM FEW060 SCT110 BKN150 OVC200 23/22 A2999 RMK AO2 RAE48 TSE21 SLP145 P0002 60085 T02330222 10339 20217 50004=
201608192321 SPECI KATL 192321Z 22006KT 10SM -RA FEW060 SCT110 BKN150 OVC200 23/23 A3001 RMK AO2 TSE21 OCNL LTG DSNT NE-SE TS MOV E P0000 T02330228=
201608192252 METAR KATL 192252Z 24004KT 10SM -TSRA FEW015CB SCT060 BKN100 OVC200 23/23 A3001 RMK AO2 PK WND 30031/2212 WSHFT 2201 RAB01 SLP154 OCNL LTGICCG E-SE TS VC E-SE MOV E P0083 T02330228=
201608192234 SPECI KATL 192234Z 33005KT 4SM +TSRA BR SCT015CB BKN030 BKN050 OVC150 23/22 A3000 RMK AO2 PK WND 30031/2212 WSHFT 2201 RAB01 VIS LWR NE-E FRQ LTGICCG OHD-NE TS OHD-NE MOV NE P0080 T02280217=
201608192221 SPECI KATL 192221Z 27012G31KT 1 1/2SM R09R/2000VP6000FT +TSRA BR SCT015 BKN025 BKN050 BKN150 OVC200 23/22 A3001 RMK AO2 PK WND 30031/2212 WSHFT 2201 RAB01 PRESRR FRQ LTGICCG SE-OHD-W TS SE-OHD-W MOV E P0028 T02280222=
201608192152 METAR KATL 192152Z COR 35009KT 10SM TS FEW045CB SCT060 BKN110 OVC250 31/21 A2997 RMK AO2 TSB52 SLP139 FRQ LTGICCG SW-W TS VC SW-W MOV E T03060206=
201608192052 METAR KATL 192052Z 29009KT 10SM FEW045 SCT055 BKN100 BKN250 32/21 A2997 RMK AO2 LTG DSNT W-N SLP138 CB DSNT W-NW TCU DSNT S 60000 T03220206 56018=
201608191952 METAR KATL 191952Z 28009KT 10SM FEW035CB FEW050TCU BKN120 31/21 A2998 RMK AO2 LTG DSNT E RAB18E31 SLP141 CB E MOV E TCU W CB DSNT S-SE P0000 T03110211=
201608191852 METAR KATL 191852Z 26009KT 10SM SCT045 BKN055TCU BKN120 31/22 A3001 RMK AO2 LTG DSNT S AND W SLP150 TCU E CB DSNT S AND W T03060217=
201608191752 METAR KATL 191752Z 28008KT 10SM SCT040 BKN055TCU BKN140 32/21 A3003 RMK AO2 LTG DSNT S-W SLP156 TCU ALQDS T03220206 10328 20239 58017=
201608191652 METAR KATL 191652Z 30007KT 10SM SCT035TCU BKN120 BKN250 32/21 A3006 RMK AO2 LTG DSNT SW SLP167 TCU SE AND SW T03220211=
201608191552 METAR KATL 191552Z 25007KT 10SM SCT030 SCT120 BKN250 31/22 A3007 RMK AO2 SLP172 T03110217=
201608191452 METAR KATL 191452Z 27007KT 10SM FEW025 SCT120 BKN240 29/22 A3008 RMK AO2 SLP175 T02890222 51003=
201608191352 METAR KATL 191352Z 30005KT 10SM FEW020 SCT120 BKN220 27/23 A3008 RMK AO2 SLP174 T02720228=
201608191252 METAR KATL 191252Z 24006KT 10SM FEW110 BKN180 BKN250 25/23 A3008 RMK AO2 SLP175 ACC DSNT S & W T02500228=
201608191152 METAR KATL 191152Z 00000KT 10SM BKN150 BKN200 BKN250 24/22 A3007 RMK AO2 SLP174 70004 T02390222 10239 20228 53003=
201608191052 METAR KATL 191052Z 27004KT 10SM BKN150 BKN200 BKN250 23/22 A3006 RMK AO2 SLP169 T02280217=
201608190952 METAR KATL 190952Z 27005KT 10SM FEW110 BKN150 BKN200 BKN250 23/22 A3006 RMK AO2 SLP168 T02280217=
201608190852 METAR KATL 190852Z 27005KT 10SM FEW100 FEW150 BKN250 23/22 A3006 RMK AO2 SLP167 T02330217 58013=
201608190752 METAR KATL 190752Z 25004KT 10SM SCT065 SCT090 BKN150 BKN250 23/22 A3008 RMK AO2 SLP173 T02330217=
201608190652 METAR KATL 190652Z 00000KT 10SM FEW065 SCT100 BKN150 BKN250 23/22 A3009 RMK AO2 SLP178 OCNL LTGIC DSNT SW CB DSNT SW T02330217=
201608190552 METAR KATL 190552Z 16005KT 10SM SCT100 BKN150 BKN250 24/22 A3010 RMK AO2 SLP181 60000 T02390222 10256 20239 55006=
201608190452 METAR KATL 190452Z 00000KT 10SM FEW110 BKN150 24/22 A3009 RMK AO2 SLP176 T02390222 403610233=
201608190352 METAR KATL 190352Z 24003KT 10SM FEW110 BKN150 BKN250 24/22 A3010 RMK AO2 SLP179 T02440217=
201608190252 METAR KATL 190252Z 00000KT 10SM FEW080 SCT120 BKN150 OVC250 24/21 A3012 RMK AO2 SLP187 60000 T02440211 53013=
201608190152 METAR KATL 190152Z 00000KT 10SM FEW080 SCT120 BKN150 OVC250 24/21 A3009 RMK AO2 RAE04 SLP180 P0000 T02440211=
201608190052 METAR KATL 190052Z 35007KT 10SM -RA SCT080 BKN120 BKN150 BKN200 25/21 A3008 RMK AO2 SLP176 P0000 T02500211=
201608182352 METAR KATL 182352Z 30004KT 10SM -RA FEW090 BKN120 BKN150 OVC200 24/22 A3008 RMK AO2 SLP176 P0001 60004 T02390222 10361 20239 50013=
201608182252 METAR KATL 182252Z 01008KT 9SM -RA FEW040 SCT090 BKN120 OVC200 24/22 A3009 RMK AO2 WSHFT 2159 RAB06 TSE40 SLP179 FRQ LTGICCG DSNT NE P0003 T02440217=
201608182240 SPECI KATL 182240Z 02010G19KT 9SM -RA FEW040CB SCT090 BKN120 OVC200 24/22 A3009 RMK AO2 WSHFT 2159 RAB06 TSE40 FRQ LTGICCG DSNT N-NE TS MOV NE P0003 T02440222=
201608182219 SPECI KATL 182219Z 32010G21KT 9SM -TSRA FEW040CB SCT090 BKN120 OVC200 26/22 A3010 RMK AO2 WSHFT 2159 RAB06 PRESRR FRQ LTGICCG N-NE TS VC N-NE MOV NE P0000 T02560222=
201608182152 METAR KATL 182152Z 25012G23KT 10SM TS FEW045CB SCT100 BKN150 BKN200 28/21 A3006 RMK AO2 PK WND 25027/2135 TSB31 SLP167 FRQ LTGICCG NE-E & NW-N TS VC NE-E & NW-N MOV NE T02830206=
201608182131 SPECI KATL 182131Z 23017G25KT 10SM TS SCT055CB BKN150 BKN200 30/20 A3004 RMK AO2 TSB31 OCNL LTGICCG NW-N TS VC NW-N MOV NE CB VC NE & SE & NW-N MOV NE T03000200=
201608182052 SPECI KATL 182052Z VRB06KT 10SM SCT040 BKN060TCU BKN090 BKN250 36/18 A3004 RMK AO2 LTG DSNT ALQDS SLP159 TCU ALQDS CB DSNT ALQDS T03560178 56026=
201608182052 METAR KATL 182052Z VRB06KT 10SM SCT040 BKN060TCU BKN090 BKN250 36/18 A3004 RMK AO2 LTG DSNT ALQDS SLP159 TCU ALQDS CB DSNT ALQDS T03560178 56026=
201608181952 METAR KATL 181952Z COR 24004KT 10SM SCT055TCU BKN100 BKN250 34/19 A3006 RMK AO2 LTG DSNT S AND SW SLP165 TCU ALQDS T03390194=
201608181852 METAR KATL 181852Z VRB06KT 10SM SCT055TCU SCT120 BKN240 36/19 A3008 RMK AO2 SLP173 TCU ALQDS T03560194=
201608181752 METAR KATL 181752Z VRB03KT 10SM SCT050TCU BKN120 BKN240 33/20 A3012 RMK AO2 SLP185 TCU ALQDS T03330200 10339 20239 58015=
201608181652 METAR KATL 181652Z 32005KT 10SM SCT045TCU BKN120 BKN250 32/21 A3014 RMK AO2 SLP194 TCU ALQDS T03220211=
201608181552 METAR KATL 181552Z VRB06KT 10SM FEW045 SCT120 BKN250 32/22 A3016 RMK AO2 SLP199 T03220217=
201608181452 METAR KATL 181452Z 24004KT 10SM FEW120 BKN250 31/22 A3016 RMK AO2 SLP201 ACC SE T03110217 51006=
201608181352 METAR KATL 181352Z 00000KT 10SM FEW120 SCT180 BKN250 29/22 A3016 RMK AO2 SLP201 ACC E T02940222=
201608181252 METAR KATL 181252Z 28005KT 10SM FEW110 FEW150 SCT200 BKN250 27/23 A3016 RMK AO2 SLP202 ACC SE T02720228=
201608181152 METAR KATL 181152Z 20003KT 10SM FEW110 SCT200 SCT250 23/22 A3014 RMK AO2 SLP197 ACC DSNT SE T02330222 10261 20233 52001=
201608181052 METAR KATL 181052Z 17004KT 10SM FEW060 FEW140 SCT200 BKN250 24/22 A3014 RMK AO2 SLP195 TCU DSNT NE T02390222=
201608180952 METAR KATL 180952Z 29004KT 10SM FEW070 FEW140 SCT200 BKN250 24/22 A3014 RMK AO2 SLP196 ACC N-E-SE T02440217=
201608180852 METAR KATL 180852Z 23003KT 10SM FEW140 BKN200 BKN250 24/22 A3014 RMK AO2 SLP193 OCNL LTGIC DSNT SE-S CB DSNT SE-S T02440217 55010=
201608180752 METAR KATL 180752Z 23003KT 10SM FEW050 FEW140 BKN200 BKN250 24/22 A3014 RMK AO2 SLP193 FRQ LTGIC DSNT S-SW CB DSNT S-SW T02440217=
201608180652 METAR KATL 180652Z 00000KT 10SM FEW055 FEW140 BKN200 BKN250 26/22 A3015 RMK AO2 SLP198 T02560217=
201608180552 METAR KATL 180552Z COR 00000KT 10SM FEW055 SCT140 SCT200 BKN250 26/22 A3017 RMK AO2 SLP204 T02560217 10294 20256 53004=
201608180452 METAR KATL 180452Z 22005KT 10SM FEW140 SCT200 BKN250 26/21 A3017 RMK AO2 SLP203 T02610211 403560233=
201608180352 METAR KATL 180352Z 19004KT 10SM FEW140 SCT200 BKN250 27/22 A3016 RMK AO2 SLP200 OCNL LTG DSNT E T02720217=
201608180252 METAR KATL 180252Z VRB03KT 10SM FEW140 SCT200 BKN250 28/22 A3016 RMK AO2 SLP201 FRQ LTG DSNT NE-SE T02780217 51012=
201608180152 METAR KATL 180152Z 29006KT 10SM FEW070 SCT140 BKN250 27/22 A3015 RMK AO2 SLP199 FRQ LTG DSNT NE T02720217=
201608180052 METAR KATL 180052Z 27005KT 10SM FEW050 SCT150 BKN200 BKN250 29/21 A3013 RMK AO2 SLP193 FRQ LTG DSNT E & SE-S T02890211=
201608172352 METAR KATL 172352Z 29006KT 10SM FEW050 SCT200 BKN250 29/21 A3012 RMK AO2 SLP190 OCNL LTG DSNT E & SE CB DSNT NE-SE-S T02940211 10356 20294 53005=
201608172252 METAR KATL 172252Z 29011KT 10SM FEW050CB SCT200 BKN250 31/21 A3011 RMK AO2 SLP185 OCNL LTG DSNT NW CB VC E-SE & DSNT N & NW MOV E T03060211=
201608172152 METAR KATL 172152Z 27007KT 10SM FEW055CB SCT200 BKN250 33/20 A3009 RMK AO2 SLP179 CB VC N & DSNT W-NW MOV E T03330200=
201608172052 METAR KATL 172052Z 30008KT 10SM SCT055 SCT250 34/20 A3011 RMK AO2 SLP182 TCU DSNT SW-W T03390200 56028=
201608171952 METAR KATL 171952Z 23007KT 10SM SCT060 SCT250 35/19 A3013 RMK AO2 SLP191 T03500194=
201608171852 METAR KATL 171852Z VRB05KT 10SM SCT055 SCT250 34/20 A3016 RMK AO2 SLP201 TCU DSNT NW T03440200=
201608171752 METAR KATL 171752Z VRB03KT 10SM SCT050 SCT250 33/19 A3019 RMK AO2 SLP213 TCU DSNT NW T03280194 10339 20239 58014=
201608171652 METAR KATL 171652Z VRB04KT 10SM FEW050 SCT250 32/19 A3022 RMK AO2 SLP222 T03220194=
201608171552 METAR KATL 171552Z 00000KT 10SM FEW045 BKN250 32/21 A3024 RMK AO2 SLP227 T03220206=
201608171452 METAR KATL 171452Z 00000KT 10SM BKN250 29/22 A3024 RMK AO2 SLP227 T02940217 51010=
201608171352 METAR KATL 171352Z 27004KT 10SM FEW150 BKN250 27/22 A3023 RMK AO2 SLP225 T02720222=
201608171252 METAR KATL 171252Z 00000KT 10SM FEW039 BKN250 26/23 A3022 RMK AO2 SLP223 T02560228 $=
201608171152 METAR KATL 171152Z 00000KT 10SM FEW039 FEW200 BKN250 24/22 A3021 RMK AO2 SLP218 60001 70003 T02390222 10244 20233 51005=
201608171052 METAR KATL 171052Z 00000KT 10SM FEW039 SCT150 BKN200 BKN250 24/22 A3020 RMK AO2 SLP217 T02390217=
201608170952 METAR KATL 170952Z 31006KT 10SM FEW009 SCT200 BKN250 24/22 A3020 RMK AO2 SLP215 T02390217=
201608170944 SPECI KATL 170944Z 32005KT 10SM FEW009 SCT200 BKN250 24/22 A3019 RMK AO2 T02390217=
201608170852 METAR KATL 170852Z 01004KT 10SM FEW065 BKN250 24/22 A3019 RMK AO2 SLP212 60001 T02440217 56017=
201608170752 METAR KATL 170752Z 35003KT 10SM FEW065 BKN250 24/22 A3020 RMK AO2 SLP214 T02390217=
201608170652 METAR KATL 170652Z 29005KT 10SM FEW048 SCT065 BKN250 24/21 A3021 RMK AO2 RAE11 TSE13 SLP220 FRQ LTGIC DSNT NE CB DSNT NE TS MOV NE P0001 T02390211=
201608170613 SPECI KATL 170613Z VRB03KT 10SM SCT044 SCT060 BKN080 BKN250 24/22 A3024 RMK AO2 RAE11 TSE13 OCNL LTGIC DSNT NE CB DSNT NE SHRA VC NW-NE P0001 T02390222=
201608170552 METAR KATL 170552Z 26005KT 6SM -TSRA SCT015 BKN036CB BKN070 BKN250 24/22 A3024 RMK AO2 RAB43 TSB17 SLP229 FRQ LTGIC NW-NE TS NW-NE MOV NE P0002 60002 T02440217 10289 20244 53013=
201608170533 SPECI KATL 170533Z 18007KT 10SM TS FEW015 BKN036CB BKN080 BKN200 BKN250 25/22 A3026 RMK AO2 TSB17 FRQ LTGICCG NE-SE-S TS NE-SE-S MOV NE T02500217=
201608170517 SPECI KATL 170517Z 27015G23KT 10SM TS FEW015 SCT034CB SCT080 BKN200 BKN250 26/22 A3023 RMK AO2 TSB17 OCNL LTGICCG S TS VC S MOV NE TCU NE-OHD-NW T02560222=
201608170452 METAR KATL 170452Z 23004KT 10SM FEW050 BKN100 BKN250 26/24 A3021 RMK AO2 RAB0358E06 SLP219 OCNL LTG DSNT SW & NW P0000 T02610239 403330244=
201608170352 METAR KATL 170352Z 21003KT 10SM FEW050 BKN090 BKN120 27/23 A3021 RMK AO2 LTG DSNT W SLP218 T02720233=
201608170252 METAR KATL 170252Z 15003KT 10SM SCT100 BKN150 BKN250 27/23 A3020 RMK AO2 SLP216 T02720233 50015=
201608170152 METAR KATL 170152Z 10003KT 10SM SCT150 BKN200 BKN250 28/23 A3021 RMK AO2 SLP217 T02780228=
201608170052 METAR KATL 170052Z 15003KT 10SM FEW150 SCT200 BKN250 28/23 A3018 RMK AO2 SLP208 T02780228=
201608162352 METAR KATL 162352Z 18003KT 10SM FEW150 BKN200 BKN250 29/23 A3016 RMK AO2 SLP202 T02890228 10306 20283 56004=
201608162252 METAR KATL 162252Z 12005KT 10SM FEW150 BKN200 29/23 A3016 RMK AO2 SLP202 T02890228=
201608162152 METAR KATL 162152Z 10006KT 10SM FEW150 BKN200 29/22 A3016 RMK AO2 SLP202 T02940222=
201608162052 METAR KATL 162052Z 13006KT 10SM FEW030 BKN250 29/22 A3017 RMK AO2 SLP206 TCU DSNT W T02940217 56010=
201608161952 METAR KATL 161952Z 18004KT 10SM FEW035 SCT080 BKN250 29/21 A3017 RMK AO2 LTG DSNT ALQDS TSE27 SLP206 TS DSPTD CB DSNT ALQDS T02940211=
201608161928 SPECI KATL 161928Z 14005KT 10SM FEW035 BKN080 BKN250 30/22 A3019 RMK AO2 TSE27 TS DSPTD CB DSNT SW T03000217=
201608161852 METAR KATL 161852Z 09005KT 10SM TS SCT040CB BKN060 BKN250 29/22 A3019 RMK AO2 TSB09 PRESFR SLP212 OCNL LTGCG N & SW TS N & SW MOV N CB DSNT E T02890217=
201608161810 SPECI KATL 161810Z 13009G17KT 10SM TS BKN040CB BKN075 BKN250 29/22 A3020 RMK AO2 TSB09 OCNL LTGCG N TS N MOV N T02940222=
201608161752 METAR KATL 161752Z COR 14011KT 10SM BKN038TCU BKN080 BKN250 31/22 A3020 RMK AO2 SLP216 TCU N CB DSNT NE & SE TCU DSNT S-SW T03060222 10333 20244 58011=
201608161652 METAR KATL 161652Z COR 14005KT 10SM BKN042 BKN200 33/22 A3022 RMK AO2 LTG DSNT SE SLP220 CB DSNT SE T03330217=
201608161552 METAR KATL 161552Z VRB04KT 10SM BKN035 BKN250 31/22 A3024 RMK AO2 SLP226 T03110217=
201608161452 METAR KATL 161452Z VRB03KT 10SM FEW030 BKN250 31/22 A3024 RMK AO2 SLP227 T03060222 50001=
201608161352 METAR KATL 161352Z 00000KT 10SM FEW045 BKN250 29/23 A3024 RMK AO2 SLP227 T02890228=
201608161252 METAR KATL 161252Z 18003KT 10SM FEW045 FEW200 SCT250 27/23 A3024 RMK AO2 SLP229 T02670228=
201608161152 METAR KATL 161152Z 15003KT 10SM FEW047 SCT250 24/22 A3023 RMK AO2 SLP226 T02440222 10267 20244 53012=
201608161052 METAR KATL 161052Z 12004KT 10SM FEW050 FEW250 24/22 A3022 RMK AO2 SLP222 T02440222=
201608160952 METAR KATL 160952Z 15004KT 10SM FEW050 25/22 A3020 RMK AO2 SLP216 T02500222=
201608160852 METAR KATL 160852Z 13003KT 10SM FEW050 25/22 A3020 RMK AO2 SLP214 T02500217 55003=
201608160752 METAR KATL 160752Z 14003KT 10SM FEW050 26/22 A3020 RMK AO2 SLP213 T02560217=
201608160652 METAR KATL 160652Z 15004KT 10SM FEW050 26/22 A3020 RMK AO2 SLP215 T02560217=
201608160552 METAR KATL 160552Z 14004KT 10SM SCT050 SCT250 27/22 A3021 RMK AO2 SLP217 T02670217 10306 20267 50004=
201608160452 METAR KATL 160452Z 14005KT 10SM FEW250 27/21 A3021 RMK AO2 SLP217 T02720211 403280228=
201608160352 METAR KATL 160352Z 16003KT 10SM FEW055 28/21 A3021 RMK AO2 SLP218 T02780206=
201608160252 METAR KATL 160252Z 00000KT 10SM FEW120 28/21 A3019 RMK AO2 SLP213 T02830206 53015=
201608160152 METAR KATL 160152Z 12003KT 10SM FEW120 FEW250 29/20 A3018 RMK AO2 SLP207 T02940200=
201608160052 METAR KATL 160052Z 16004KT 10SM FEW120 FEW250 29/20 A3015 RMK AO2 SLP199 T02940200=
201608152352 METAR KATL 152352Z 16009KT 10SM FEW055 FEW120 SCT250 31/19 A3015 RMK AO2 SLP198 T03060194 10328 20306 55000=
201608152252 METAR KATL 152252Z 17009KT 10SM FEW055 SCT120 32/19 A3014 RMK AO2 SLP196 T03220189=
201608152152 METAR KATL 152152Z 16007KT 130V200 10SM FEW055 SCT120 33/19 A3014 RMK AO2 SLP194 TCU DSNT NE-E & SW T03280189=
201608152052 METAR KATL 152052Z 14008KT 120V180 10SM FEW055 BKN120 33/18 A3015 RMK AO2 SLP197 TCU DSNT ALQDS T03280183 58020=
201608151952 METAR KATL 151952Z 17005KT 10SM FEW055 BKN120 32/18 A3017 RMK AO2 SLP205 TCU DSNT W T03220183=
201608151852 METAR KATL 151852Z 19006KT 10SM SCT055 BKN120 32/18 A3019 RMK AO2 SLP212 TCU DSNT S-SW T03220183=
201608151752 METAR KATL 151752Z 21010KT 10SM SCT050 SCT200 32/18 A3021 RMK AO2 SLP216 T03220183 10328 20239 58006=
201608151652 METAR KATL 151652Z COR VRB03KT 10SM SCT044 SCT200 31/19 A3022 RMK AO2 SLP219 T03110194=
201608151552 METAR KATL 151552Z VRB03KT 10SM FEW036 30/20 A3022 RMK AO2 SLP222 T03000200=
201608151452 METAR KATL 151452Z 16004KT 10SM FEW030 FEW060 29/21 A3023 RMK AO2 SLP224 T02890211 51009=
201608151352 METAR KATL 151352Z 18007KT 10SM FEW060 SCT150 27/21 A3022 RMK AO2 SLP222 T02720211=
201608151252 METAR KATL 151252Z 22003KT 10SM SCT060 BKN150 26/21 A3021 RMK AO2 SLP216 CB DSNT NE TCU DSNT NW-N T02560206=
201608151152 METAR KATL 151152Z 00000KT 10SM FEW050 SCT070 BKN150 BKN200 24/22 A3020 RMK AO2 SLP214 CB DSNT NE T02390217 10256 20228 51013=
201608151052 METAR KATL 151052Z COR 20006KT 10SM FEW045 FEW075 SCT150 SCT200 23/22 A3019 RMK AO2 SLP211 CB DSNT NE & SE SHRA DSNT NE-SE T02280222=
201608151024 SPECI KATL 151024Z 19005KT 10SM FEW005 FEW075 SCT150 23/22 A3019 RMK AO2 T02330222=
201608150952 METAR KATL 150952Z 17003KT 10SM SCT075 BKN150 BKN200 23/22 A3017 RMK AO2 SLP206 ACC N T02330217=
201608150852 METAR KATL 150852Z 00000KT 10SM FEW200 SCT250 24/22 A3016 RMK AO2 SLP201 T02390217 58008=
201608150752 METAR KATL 150752Z 11003KT 10SM SCT150 BKN200 24/22 A3017 RMK AO2 SLP203 T02440217=
201608150652 METAR KATL 150652Z 13006KT 10SM SCT050 BKN150 BKN200 BKN250 25/21 A3018 RMK AO2 SLP207 T02500211=
201608150552 METAR KATL 150552Z 09014KT 10SM SCT050 SCT120 BKN150 BKN250 26/21 A3018 RMK AO2 RAB11E20 SLP208 OCNL LTGIC DSNT N-NE CB DSNT N-NE P0000 60000 T02610211 10311 20261 53008=
201608150452 METAR KATL 150452Z 19008G16KT 10SM SCT050CB BKN080 BKN140 BKN250 27/21 A3018 RMK AO2 SLP208 OCNL LTGIC DSNT NE-SE CB N MOV NW CB DSNT NE-SE SHRA N T02720211 403390228=
201608150352 METAR KATL 150352Z 00000KT 10SM FEW050 FEW080 SCT140 SCT250 28/21 A3016 RMK AO2 SLP199 OCNL LTGIC DSNT NE-E CONS LTGICCA DSNT S CB DSNT NE-E & S T02830206=
201608150252 METAR KATL 150252Z 22004KT 10SM SCT075 SCT140 SCT250 28/21 A3016 RMK AO2 LTG DSNT E SLP201 CB DSNT E ACC NE T02830206 51023=
201608150152 METAR KATL 150152Z 21004KT 10SM FEW095 SCT140 SCT250 29/20 A3015 RMK AO2 SLP198 ACC N-OHD-S T02940200=
201608150052 METAR KATL 150052Z 21004KT 10SM FEW055 SCT095 SCT200 SCT250 30/19 A3012 RMK AO2 SLP188 CB DSNT SE TCU DSNT E ACC NE-SE T03000194=
201608142352 METAR KATL 142352Z 21005KT 10SM FEW055TCU FEW085 SCT250 31/19 A3009 RMK AO2 SLP178 CB DSNT SE-SW TCU SE & DSNT NE & S T03110189 10339 20311 55001=
201608142252 METAR KATL 142252Z 16008KT 10SM FEW060 FEW085 SCT250 33/18 A3007 RMK AO2 SLP172 CB DSNT SE & SW TCU DSNT NE & E & S T03330183=
201608142152 METAR KATL 142152Z 15008KT 10SM FEW060 SCT080 SCT250 34/18 A3008 RMK AO2 SLP174 TCU DSNT N & NE & S T03390183=
201608142052 METAR KATL 142052Z 19008KT 10SM FEW060 SCT080 SCT250 33/18 A3009 RMK AO2 SLP178 TCU DSNT N-NE & SE T03280183 58022=
201608141952 METAR KATL 141952Z 18010KT 10SM SCT060 SCT075 33/18 A3012 RMK AO2 SLP187 T03280183=
201608141852 METAR KATL 141852Z 16006KT 10SM SCT050 SCT065 33/19 A3014 RMK AO2 SLP195 T03330189=
201608141752 METAR KATL 141752Z 23008KT 10SM SCT047 SCT060 32/20 A3016 RMK AO2 SLP201 T03220200 10322 20233 58003=
201608141652 METAR KATL 141652Z 20008KT 10SM SCT036 BKN050 31/21 A3017 RMK AO2 SLP205 T03060211=
201608141552 METAR KATL 141552Z 20007KT 170V230 10SM BKN032 BKN048 31/21 A3018 RMK AO2 SLP207 T03060211=
201608141519 SPECI KATL 141519Z 19005KT 10SM BKN032 29/22 A3018 RMK AO2 T02940217=
201608141452 METAR KATL 141452Z 23004KT 10SM BKN023 28/22 A3017 RMK AO2 SLP206 T02830222 53012=
201608141445 SPECI KATL 141445Z 26007KT 10SM BKN023 29/23 A3017 RMK AO2 T02940228=
201608141352 METAR KATL 141352Z 18005KT 10SM FEW022 FEW080 27/23 A3016 RMK AO2 SLP201 T02720228=
201608141252 METAR KATL 141252Z 18005KT 10SM FEW250 26/22 A3014 RMK AO2 SLP197 T02560217=
201608141152 METAR KATL 141152Z 17003KT 10SM FEW250 23/22 A3013 RMK AO2 SLP193 T02330217 10250 20228 53013=
201608141052 METAR KATL 141052Z 00000KT 10SM FEW055 FEW250 23/21 A3012 RMK AO2 SLP189 T02280211=
201608140952 METAR KATL 140952Z 15004KT 10SM FEW055 23/22 A3010 RMK AO2 SLP181 T02330217=
201608140852 METAR KATL 140852Z 00000KT 10SM BKN055 BKN250 24/21 A3010 RMK AO2 SLP180 T02390211 55000=
201608140752 METAR KATL 140752Z 22003KT 10SM FEW150 SCT250 23/21 A3009 RMK AO2 SLP177 T02330211=
201608140652 METAR KATL 140652Z 18003KT 10SM FEW150 SCT250 24/22 A3008 RMK AO2 SLP173 T02440217=
201608140552 METAR KATL 140552Z 00000KT 10SM FEW050 SCT120 SCT250 24/22 A3010 RMK AO2 SLP180 TCU DSNT NE T02440217 10300 20239 53002=
201608140452 METAR KATL 140452Z 23004KT 10SM FEW140 SCT250 24/22 A3009 RMK AO2 SLP179 T02440217 403280233=
201608140352 METAR KATL 140352Z 19004KT 10SM FEW120 SCT250 25/22 A3009 RMK AO2 SLP179 T02500217=
201608140252 METAR KATL 140252Z 18003KT 10SM FEW080 FEW120 SCT250 26/22 A3009 RMK AO2 SLP178 OCNL LTGIC DSNT E CB DSNT E T02610217 53017=
201608140152 METAR KATL 140152Z 27004KT 10SM FEW075 SCT120 SCT250 27/21 A3007 RMK AO2 SLP170 FRQ LTGIC DSNT E-SE CB DSNT E-SE T02670211=
201608140052 METAR KATL 140052Z 25006KT 10SM FEW050TCU SCT080 BKN110 BKN250 28/22 A3006 RMK AO2 SLP167 CB DSNT SE-SW TCU E & SE ACC NW-N T02830217=
201608132352 METAR KATL 132352Z 21006KT 10SM FEW055 SCT085 BKN110 BKN250 30/21 A3004 RMK AO2 SLP161 CB DSNT SW & NW TCU DSNT ALQDS SHRA DSNT SW & NW T03000206 10328 20300 53004=
201608132252 METAR KATL 132252Z 20009KT 10SM FEW055TCU SCT085 SCT250 32/19 A3002 RMK AO2 SLP154 CB DSNT S & SW TCU SE & NW SHRA DSNT S T03170194=
201608132152 METAR KATL 132152Z 22008KT 10SM FEW055 SCT085 SCT250 33/19 A3001 RMK AO2 SLP152 TCU DSNT N & NE & S-SW T03280194=
201608132052 METAR KATL 132052Z 18007KT 10SM FEW055TCU SCT080 SCT250 32/20 A3003 RMK AO2 SLP155 TCU N T03220200 58015=
201608131952 METAR KATL 131952Z 22006KT 10SM SCT045 BKN080 31/21 A3004 RMK AO2 SLP162 T03110206=
201608131852 METAR KATL 131852Z 19006KT 10SM SCT042 SCT055 32/21 A3006 RMK AO2 SLP167 T03220206=
201608131752 METAR KATL 131752Z 21005KT 10SM SCT043 BKN250 31/21 A3007 RMK AO2 SLP170 T03110206 10311 20239 58008=
201608131652 METAR KATL 131652Z 17008KT 10SM SCT034 BKN250 30/21 A3009 RMK AO2 SLP178 T03000206=
201608131552 METAR KATL 131552Z 21008KT 10SM SCT030 BKN250 28/21 A3010 RMK AO2 SLP181 T02830211=
201608131452 METAR KATL 131452Z 21008KT 10SM SCT024 BKN250 27/21 A3009 RMK AO2 SLP179 T02670211 51013=
201608131430 SPECI KATL 131430Z 19009KT 10SM SCT020 BKN250 27/22 A3009 RMK AO2 T02670217=
201608131352 METAR KATL 131352Z 21008KT 10SM BKN018 BKN250 26/22 A3009 RMK AO2 SLP178 T02610222=
201608131312 SPECI KATL 131312Z 21006KT 10SM BKN016 25/22 A3008 RMK AO2 T02500222=
201608131252 METAR KATL 131252Z 20007KT 10SM FEW008 BKN012 26/22 A3007 RMK AO2 SLP172 BKN012 V SCT T02560222=
201608131248 SPECI KATL 131248Z 18007KT 10SM FEW008 BKN012 25/22 A3007 RMK AO2 BKN012 V SCT=
201608131236 SPECI KATL 131236Z VRB04KT 10SM FEW008 SCT015 SCT200 25/22 A3007 RMK AO2 SCT015 V BKN T02500222=
201608131152 METAR KATL 131152Z 19004KT 10SM FEW008 BKN016 24/22 A3005 RMK AO2 SLP165 T02390222 10244 20233 51014=
201608131144 SPECI KATL 131144Z 17005KT 10SM SCT008 BKN016 24/23 A3005 RMK AO2 T02390228=
201608131052 METAR KATL 131052Z 15006KT 9SM BKN007 BKN013 23/23 A3004 RMK AO2 SLP160 CIG 006V09 T02330228=
201608130952 METAR KATL 130952Z 16008KT 10SM BKN007 BKN011 23/23 A3003 RMK AO2 SLP156 CIG 005V008 T02330228=
201608130852 METAR KATL 130852Z 21004KT 10SM BKN007 23/23 A3001 RMK AO2 SLP150 CIG 006V008 T02330228 56009=
201608130834 SPECI KATL 130834Z 19005KT 10SM BKN009 23/22 A3001 RMK AO2 T02330222=
201608130752 METAR KATL 130752Z 20005KT 10SM FEW009 23/22 A3001 RMK AO2 SLP151 T02330222=
201608130652 METAR KATL 130652Z 19004KT 10SM CLR 24/22 A3003 RMK AO2 SLP156 T02390222=
201608130552 METAR KATL 130552Z 20005KT 10SM FEW250 24/22 A3004 RMK AO2 SLP160 T02390222 10311 20239 51008=
201608130452 METAR KATL 130452Z 20006KT 10SM SCT250 24/22 A3003 RMK AO2 SLP158 T02440222 403330244=
201608130352 METAR KATL 130352Z 20006KT 10SM FEW200 26/22 A3003 RMK AO2 SLP156 T02560222=
201608130252 METAR KATL 130252Z 20006KT 10SM FEW250 26/22 A3001 RMK AO2 SLP152 T02610217 53013=
201608130152 METAR KATL 130152Z 18005KT 10SM FEW050 SCT250 27/22 A2999 RMK AO2 SLP146 T02720222=
201608130052 METAR KATL 130052Z 20013G17KT 10SM FEW045TCU SCT250 29/22 A2998 RMK AO2 SLP140 TCU VC SE & W-NW T02940217=
201608122352 METAR KATL 122352Z 17009KT 10SM FEW050 FEW200 SCT250 31/21 A2997 RMK AO2 SLP137 CB DSNT SW-W TCU DSNT S T03110211 10333 20311 55002=
201608122252 METAR KATL 122252Z 19008KT 10SM FEW050 SCT250 32/21 A2997 RMK AO2 SLP137 CB DSNT SW T03170206=
201608122152 METAR KATL 122152Z 19010G16KT 10SM FEW050 SCT250 33/21 A2998 RMK AO2 SLP139 T03280206=
201608122052 METAR KATL 122052Z 14009G16KT 10SM SCT049 BKN250 33/21 A2998 RMK AO2 SLP140 T03280206 56014=
201608121952 METAR KATL 121952Z 18010G15KT 10SM SCT047 SCT250 33/21 A2998 RMK AO2 SLP140 T03280206=
201608121852 METAR KATL 121852Z 19010G18KT 10SM SCT045 SCT250 32/21 A3001 RMK AO2 SLP150 T03220211=
201608121752 METAR KATL 121752Z 16010KT 10SM SCT039 SCT250 32/21 A3002 RMK AO2 SLP154 T03170211 10317 20244 58011=
201608121652 METAR KATL 121652Z 14008G15KT 10SM BKN033 BKN050 31/22 A3005 RMK AO2 SLP162 T03060222=
201608121552 METAR KATL 121552Z 14007KT 10SM BKN032 BKN042 29/23 A3006 RMK AO2 SLP166 T02890228=
201608121528 SPECI KATL 121528Z 11006KT 8SM SCT024 SCT029 BKN038 29/23 A3006 RMK AO2 T02890228=
201608121512 SPECI KATL 121512Z VRB04KT 10SM BKN024 BKN042 28/23 A3005 RMK AO2 T02780228=
201608121452 METAR KATL 121452Z VRB06KT 10SM SCT020 BKN250 28/22 A3006 RMK AO2 SLP166 T02780222 51002=
201608121352 METAR KATL 121352Z 13004KT 10SM SCT015 BKN033 BKN250 27/23 A3006 RMK AO2 SLP166 T02670228=
201608121252 METAR KATL 121252Z 13007KT 10SM SCT008 BKN042 BKN250 26/23 A3005 RMK AO2 SLP166 T02560233=
201608121152 METAR KATL 121152Z 14006KT 10SM SCT005 BKN038 BKN250 24/24 A3005 RMK AO2 SLP164 T02440239 10261 20244 53010=
201608121123 SPECI KATL 121123Z 12005KT 10SM BKN005 BKN038 BKN250 24/24 A3005 RMK AO2 CIG 004V006 T02440239=
201608121052 METAR KATL 121052Z 12004KT 10SM SCT006 BKN038 BKN250 24/23 A3003 RMK AO2 SLP157 T02440233=
201608120952 METAR KATL 120952Z 12004KT 10SM FEW004 SCT044 SCT250 24/24 A3001 RMK AO2 SLP151 T02440239=
201608120852 METAR KATL 120852Z 09006KT 10SM BKN042 BKN250 25/24 A3002 RMK AO2 SLP153 T02500239 55006=
201608120752 METAR KATL 120752Z 08007KT 10SM FEW036 SCT045 SCT250 26/23 A3002 RMK AO2 SLP152 T02560233=
201608120652 METAR KATL 120652Z 13003KT 10SM SCT036 BKN048 BKN250 26/22 A3003 RMK AO2 SLP156 T02560222=
201608120552 METAR KATL 120552Z 16004KT 10SM FEW044 FEW250 26/22 A3004 RMK AO2 SLP159 T02560222 10306 20256 58007=
201608120452 METAR KATL 120452Z 16005KT 10SM FEW045 26/23 A3005 RMK AO2 SLP164 T02610228 403220239=
201608120352 METAR KATL 120352Z 14006KT 10SM FEW045 SCT080 27/22 A3006 RMK AO2 SLP166 T02720222=
201608120252 METAR KATL 120252Z 14005KT 10SM FEW080 28/22 A3006 RMK AO2 SLP167 T02780222 53006=
201608120152 METAR KATL 120152Z 12004KT 10SM FEW090 28/22 A3005 RMK AO2 SLP164 T02830217=
201608120052 METAR KATL 120052Z 14005KT 10SM FEW090 FEW250 29/21 A3004 RMK AO2 SLP162 T02890211=
201608112352 METAR KATL 112352Z 14006KT 10SM FEW040 FEW250 31/21 A3004 RMK AO2 SLP161 T03060206 10322 20306 55004=
201608112252 METAR KATL 112252Z 14011KT 10SM FEW040 FEW080 SCT250 32/21 A3004 RMK AO2 SLP159 TCU DSNT NE & E & NW T03170211=
201608112152 METAR KATL 112152Z 18008KT 10SM SCT045TCU BKN080 BKN250 31/21 A3005 RMK AO2 SLP165 TCU OHD-NE SHRA N-NE T03110211=
201608112052 METAR KATL 112052Z 13010KT 10SM FEW045TCU SCT075 SCT250 32/21 A3005 RMK AO2 SLP165 TCU NE-E T03220211 56020=
201608111952 METAR KATL 111952Z 13008KT 10SM FEW050 BKN070 BKN250 31/21 A3007 RMK AO2 SLP171 T03060206=
201608111852 METAR KATL 111852Z 13009G15KT 10SM SCT045 BKN065 BKN250 31/21 A3009 RMK AO2 SLP177 TCU DSNT NW MDT CU ALQDS T03060211=
201608111752 METAR KATL 111752Z 15009KT 10SM SCT040 BKN050 BKN250 31/22 A3011 RMK AO2 SLP185 TCU DSNT SE & NW MDT CU ALQDS T03060217 10306 20239 58009=
201608111652 METAR KATL 111652Z 12008G18KT 10SM BKN030 BKN250 29/22 A3013 RMK AO2 SLP191 MDT CU ALQDS T02940217=
201608111650 SPECI KATL 111650Z 12008G18KT 10SM BKN030 BKN250 29/22 A3013 RMK AO2 MDT CU ALQDS=
201608111552 METAR KATL 111552Z 13007KT 10SM BKN020 BKN030 BKN250 29/23 A3014 RMK AO2 SLP195 T02890228=
201608111549 SPECI KATL 111549Z 12007KT 10SM BKN020 BKN030 BKN250 29/23 A3014 RMK AO2=
201608111452 METAR KATL 111452Z 12010KT 10SM SCT017 SCT250 27/23 A3014 RMK AO2 SLP196 T02720228 50002=
201608111426 SPECI KATL 111426Z 11010KT 10SM SCT015 SCT250 27/23 A3014 RMK AO2 T02670228=
201608111414 SPECI KATL 111414Z 12008KT 10SM FEW013 BKN016 BKN250 26/22 A3014 RMK AO2 T02610222=
201608111352 METAR KATL 111352Z 15008KT 10SM BKN012 26/23 A3015 RMK AO2 SLP198 T02560228=
201608111252 METAR KATL 111252Z 14007KT 10SM OVC010 24/22 A3015 RMK AO2 SLP199 CIG 008V012 BINOVC T02440222=
201608111152 METAR KATL 111152Z 13008KT 10SM OVC010 24/22 A3014 RMK AO2 SLP194 CIG 008V012 BINOVC 70005 T02390222 10244 20239 53008=
201608111117 SPECI KATL 111117Z 15007KT 10SM OVC010 24/22 A3013 RMK AO2 CIG 008V012 BINOVC T02390222=
201608111052 METAR KATL 111052Z 14007KT 10SM OVC009 24/22 A3012 RMK AO2 SLP188 CIG 008V011 BINOVC T02390222=
201608110952 METAR KATL 110952Z 14007KT 10SM OVC009 24/22 A3011 RMK AO2 SLP187 CIG 008V011 T02390222=
201608110852 METAR KATL 110852Z 14006KT 10SM BKN011 OVC018 24/23 A3011 RMK AO2 SLP185 CIG 009V013 T02440228 55003=
201608110846 SPECI KATL 110846Z 14005KT 10SM BKN011 OVC018 24/23 A3011 RMK AO2 CIG 009V013=
201608110830 SPECI KATL 110830Z 13007KT 10SM SCT010 BKN018 BKN085 24/23 A3010 RMK AO2 T02440228=
201608110752 METAR KATL 110752Z 14005KT 10SM BKN011 OVC016 24/23 A3010 RMK AO2 SLP183 CIG 009V013 T02440228=
201608110706 SPECI KATL 110706Z 14005KT 10SM BKN011 OVC026 24/23 A3012 RMK AO2 CIG 009V013 T02440228=
201608110652 METAR KATL 110652Z 14007KT 10SM SCT010 BKN026 OVC070 24/23 A3012 RMK AO2 SLP187 T02440228=
201608110618 SPECI KATL 110618Z 14004KT 10SM FEW012 BKN022 BKN085 24/23 A3012 RMK AO2 T02440228=
201608110552 METAR KATL 110552Z 15006KT 10SM SCT015 BKN085 24/23 A3012 RMK AO2 SLP188 60000 T02440228 10294 20244 58001=
201608110452 METAR KATL 110452Z 14007KT 10SM FEW014 SCT085 25/23 A3012 RMK AO2 SLP189 T02500228 403060233=
201608110352 METAR KATL 110352Z 14008KT 10SM FEW030 SCT090 26/23 A3012 RMK AO2 SLP190 T02560228=
201608110252 METAR KATL 110252Z 16007KT 10SM FEW035 SCT060 OVC085 27/22 A3012 RMK AO2 SLP189 60000 T02670222 53017=
201608110152 METAR KATL 110152Z 14010KT 10SM FEW035 SCT060 OVC075 27/23 A3011 RMK AO2 RAB30E39 SLP185 SHRA NW-N P0000 T02720228=
201608110052 METAR KATL 110052Z 15011KT 10SM SCT035TCU SCT060 BKN090 BKN250 28/22 A3008 RMK AO2 RAE15 SLP176 TCU W-N-NE CB DSNT W P0000 T02780222=
201608102352 METAR KATL 102352Z 11007KT 10SM -RA BKN040TCU BKN060 BKN250 29/23 A3007 RMK AO2 RAB04E18B50 SLP172 OCNL LTG DSNT S-SW TCU N-E & SE-S P0000 60004 T02940233 10306 20250 55006=
201608102252 METAR KATL 102252Z 10009KT 10SM SCT035TCU BKN060 BKN250 29/23 A3007 RMK AO2 SLP171 TCU OHD-E CB DSNT SW T02940233=
201608102152 METAR KATL 102152Z 09011KT 10SM FEW025 FEW080 SCT250 29/24 A3007 RMK AO2 SLP172 CB DSNT S-SW T02890239=
201608102052 METAR KATL 102052Z 11008KT 10SM FEW020 SCT040 BKN070 28/24 A3009 RMK AO2 RAE23 SLP178 CB DSNT S TCU DSNT E-SE P0004 60004 T02780239 58011=
201608102017 SPECI KATL 102017Z 10009KT 9SM -RA FEW030 BKN050 BKN060 26/24 A3011 RMK AO2 P0004 T02560244=
201608101952 METAR KATL 101952Z 14010G22KT 3SM RA BR SCT025TCU BKN040 OVC060 26/24 A3012 RMK AO2 RAB30 SLP188 VIS LWR E-SE-S SHRA TCU OHD-E-SE-S P0000 T02560239=
201608101852 METAR KATL 101852Z 12012KT 10SM FEW028 BKN050 BKN060 30/22 A3010 RMK AO2 SLP183 T03000222=
201608101831 SPECI KATL 101831Z 12009KT 10SM BKN028 BKN040 BKN060 29/22 A3011 RMK AO2 T02890222=
201608101752 METAR KATL 101752Z 12008KT 10SM FEW025 SCT030 BKN050 29/22 A3012 RMK AO2 SLP189 60001 T02890222 10294 20239 58010=
201608101652 METAR KATL 101652Z 14011G17KT 10SM FEW025 BKN040 BKN050 28/22 A3014 RMK AO2 SLP196 T02780222=
201608101552 METAR KATL 101552Z 13009KT 10SM FEW020 FEW040 SCT250 27/23 A3014 RMK AO2 RAB05E17 SLP197 P0001 T02720228=
201608101510 SPECI KATL 101510Z 11007KT 10SM R09R/6000VP6000FT -RA BKN012 BKN020 BKN030 24/23 A3015 RMK AO2 RAB05 VIS LWR E-SE-S SHRA P0001 T02440233=
201608101452 METAR KATL 101452Z 12008KT 10SM FEW013 BKN020 OVC030 26/23 A3015 RMK AO2 SLP200 SHRA DSNT N-NE & VC SE-S-SW 60000 T02560228 53011=
201608101352 METAR KATL 101352Z 12008KT 10SM FEW010 BKN030 BKN040 25/23 A3014 RMK AO2 RAE28 SLP195 P0000 T02500228=
201608101316 SPECI KATL 101316Z 10007KT 8SM -RA SCT009 SCT016 OVC028 24/23 A3013 RMK AO2 P0000 T02440228=
201608101307 SPECI KATL 101307Z 11009KT 8SM -RA BKN008 BKN016 OVC033 24/23 A3013 RMK AO2 P0000 T02390228=
201608101252 METAR KATL 101252Z 11008KT 6SM -RA BR SCT008 BKN014 OVC025 24/23 A3013 RMK AO2 RAB45 SLP193 VIS LWR SE-SW CIG 013V017 P0000 T02390228=
201608101221 SPECI KATL 101221Z 12007KT 10SM FEW008 BKN018 OVC028 24/23 A3012 RMK AO2 T02390228=
201608101152 METAR KATL 101152Z 11008KT 10SM FEW007 BKN011 OVC022 24/23 A3012 RMK AO2 SLP189 CIG 009V013 60005 70013 T02390228 10244 20233 53017=
201608101113 SPECI KATL 101113Z 13007KT 10SM SCT007 OVC013 24/23 A3011 RMK AO2 CIG 011V013 T02390228=
201608101052 METAR KATL 101052Z 12008KT 10SM SCT009 BKN015 OVC030 24/23 A3011 RMK AO2 SLP183 CIG 013V017 T02390228=
201608101006 SPECI KATL 101006Z 12010KT 10SM SCT009 BKN015 OVC028 24/23 A3008 RMK AO2 CIG 013V017 T02390228=
201608100952 METAR KATL 100952Z 11009KT 10SM BKN009 BKN016 OVC024 24/23 A3008 RMK AO2 SLP176 CIG 007V011 T02390233=
201608100852 METAR KATL 100852Z 13008KT 10SM BKN007 BKN014 OVC036 24/23 A3007 RMK AO2 RAE43 SLP171 CIG 005V009 P0003 60005 T02390233 55007=
201608100830 SPECI KATL 100830Z 14007KT 2SM -RA BR BKN006 BKN014 OVC028 24/23 A3007 RMK AO2 SFC VIS 3 CIG 005V007 P0003 T02390233=
201608100752 METAR KATL 100752Z 13010KT 4SM -RA BR BKN006 BKN015 OVC027 24/23 A3007 RMK AO2 DZB04E15RAB15 SLP172 CIG 005V008 P0002 T02390233=
201608100706 SPECI KATL 100706Z 13007KT 5SM -DZ BR BKN007 OVC014 24/23 A3007 RMK AO2 DZB04 CIG 005V009 P0000 T02440233=
201608100652 METAR KATL 100652Z 11006KT 10SM SCT007 BKN013 OVC026 24/24 A3007 RMK AO2 SLP172 CIG 011V015 T02440239=
201608100621 SPECI KATL 100621Z 12006KT 10SM FEW008 BKN014 OVC036 24/24 A3008 RMK AO2 T02440239=
201608100552 METAR KATL 100552Z 14008KT 10SM FEW008 SCT030 OVC050 24/23 A3009 RMK AO2 RAE29 SLP178 P0007 60008 T02440233 10294 20239 51006=
201608100523 SPECI KATL 100523Z 14008KT 7SM -RA FEW008 BKN028CB OVC040 24/23 A3009 RMK AO2 CB NW MOV NW P0007 T02440233=
201608100500 SPECI KATL 100500Z 12008KT 4SM RA BR SCT008 BKN014 OVC024CB 24/24 A3009 RMK AO2 VIS E-S 2 CB SE-OHD-NW MOV NW P0003 T02440239=
201608100454 SPECI KATL 100454Z 11010KT 2SM +RA BR FEW008 BKN014 OVC025 25/24 A3009 RMK AO2 P0001 T02500239=
201608100452 METAR KATL 100452Z 11010KT 2SM +RA BR FEW010 BKN018 OVC040 25/23 A3009 RMK AO2 RAB36 SLP177 P0001 T02500233 403060239=
201608100352 METAR KATL 100352Z 13008KT 10SM BKN018 BKN025 OVC040 26/23 A3008 RMK AO2 SLP176 BINOVC T02610228=
201608100252 METAR KATL 100252Z 12009KT 10SM FEW018 BKN025 BKN035 BKN250 26/23 A3007 RMK AO2 SLP171 T02610228 53024=
201608100152 METAR KATL 100152Z 14012G18KT 10SM FEW020 SCT040 BKN060 BKN250 27/23 A3004 RMK AO2 SLP162 T02720228=
201608100052 METAR KATL 100052Z 14010G14KT 10SM SCT030TCU SCT060 BKN090 BKN250 28/23 A3002 RMK AO2 SLP153 TCU NE & S-SW T02830228=
201608092352 METAR KATL 092352Z 12010KT 10SM SCT030CB BKN045 BKN250 29/22 A3000 RMK AO2 SLP147 CB VC SW MOV NW TCU VC NE 60000 T02940222 10306 20272 55001=
201608092252 METAR KATL 092252Z 12010KT 10SM SCT030 SCT250 30/22 A2998 RMK AO2 SLP141 TCU DSNT SE & S-SW T03000222=
201608092152 METAR KATL 092152Z 10013KT 10SM SCT028 SCT250 29/23 A2999 RMK AO2 SLP143 T02940228=
201608092052 METAR KATL 092052Z 10012G17KT 10SM FEW020 FEW050 29/23 A3000 RMK AO2 RAB23E34 SLP148 P0000 60000 T02890233 56013=
201608091952 METAR KATL 091952Z 14009KT 10SM FEW020TCU SCT040 BKN050 27/24 A3002 RMK AO2 RAB27E38 SLP153 TCU N-NE & NW SHRA VC N-NE & NW P0000 T02720239=
201608091928 SPECI KATL 091928Z 12012G17KT 10SM -RA BKN025 BKN030 BKN060 28/23 A3002 RMK AO2 RAB27 P0000 T02780228=
201608091852 METAR KATL 091852Z 11010KT 10SM SCT023 BKN040 OVC050 28/23 A3002 RMK AO2 RAB10E19 SLP155 SHRA DSNT E & SW P0000 T02780228=
201608091752 METAR KATL 091752Z 12010KT 10SM SCT020 BKN030 OVC040 27/22 A3004 RMK AO2 SLP161 60000 T02720222 10278 20239 58005=
201608091652 METAR KATL 091652Z 10008KT 10SM FEW020 BKN030 BKN050 27/23 A3004 RMK AO2 RAB31E37 SLP163 P0000 T02720228=
201608091552 METAR KATL 091552Z 11008KT 10SM FEW017 BKN020 OVC030 27/22 A3005 RMK AO2 SLP165 T02670222=
201608091452 METAR KATL 091452Z 11012KT 10SM FEW015 BKN030 BKN250 26/22 A3005 RMK AO2 SLP166 60000 T02560222 51017=
201608091442 SPECI KATL 091442Z 10011KT 10SM FEW010 SCT020 BKN030 26/22 A3005 RMK AO2 T02560222=
201608091352 METAR KATL 091352Z 12009KT 10SM FEW010 BKN020 OVC030 24/23 A3005 RMK AO2 RAE1253 SLP166 P0000 T02440228=
201608091252 METAR KATL 091252Z 12008KT 8SM -RA SCT007 BKN023 OVC030 24/23 A3003 RMK AO2 DZE06RAB40 SLP157 P0000 T02390228=
201608091250 SPECI KATL 091250Z 12007KT 8SM -RA SCT007 BKN023 OVC030 24/23 A3003 RMK AO2 DZE06RAB40 P0000=
201608091152 METAR KATL 091152Z 13009KT 5SM -DZ BR BKN007 OVC014 24/23 A3000 RMK AO2 RAE1053DZB42 SLP148 CIG 005V009 VIS LWR NW-NE P0000 60004 70026 T02440233 10250 20244 53016=
201608091052 METAR KATL 091052Z 11008KT 6SM -RA BR BKN007 OVC013 24/24 A2998 RMK AO2 RAB44 SLP141 CIG 005V009 P0000 T02440239=
201608090952 METAR KATL 090952Z 11007KT 5SM BR BKN006 OVC012 24/24 A2996 RMK AO2 RAE50 SLP133 CIG 004V007 P0001 T02440239 $=
201608090908 SPECI KATL 090908Z 11006KT 5SM -RA BR BKN006 OVC010 24/24 A2996 RMK AO2 CIG 005V008 P0000 T02440239=
201608090852 METAR KATL 090852Z 10008KT 2 1/2SM RA BR BKN006 BKN009 OVC013 24/24 A2995 RMK AO2 RAB15 SLP131 CIG 005V008 P0003 60003 T02440239 52001=
201608090850 SPECI KATL 090850Z 09009KT 2SM RA BR BKN006 BKN009 OVC013 24/24 A2995 RMK AO2 RAB15 CIG 005V008 P0002=
201608090752 METAR KATL 090752Z 12006KT 6SM BR BKN008 BKN013 OVC020 24/24 A2995 RMK AO2 RAB01E10B23E49 SLP131 CIG 006V010 P0000 T02440239=
201608090720 SPECI KATL 090720Z 12006KT 10SM BKN009 BKN014 OVC035 25/24 A2995 RMK AO2 RAB01E10 CIG 007V011 P0000 T02500239=
201608090652 METAR KATL 090652Z 13007KT 10SM SCT009 BKN014 OVC022 25/24 A2995 RMK AO2 SLP131 T02500239=
201608090552 METAR KATL 090552Z 12009KT 10SM FEW009 BKN012 OVC020 25/24 A2995 RMK AO2 SLP132 60022 T02500239 10294 20250 53002=
201608090452 METAR KATL 090452Z 09008KT 10SM SCT008 BKN013 BKN060 OVC200 25/24 A2995 RMK AO2 RAB12E22 SLP129 P0000 T02500244 403110244=
201608090435 SPECI KATL 090435Z 10007KT 10SM FEW008 BKN015 BKN060 OVC200 25/24 A2995 RMK AO2 RAB12E22 P0000 T02500244=
201608090413 SPECI KATL 090413Z 11007KT 8SM -RA FEW010 BKN060 BKN090 OVC200 25/24 A2995 RMK AO2 RAB12 P0000 T02500244=
201608090352 METAR KATL 090352Z 09009KT 10SM BKN013 BKN050 BKN090 OVC200 25/24 A2995 RMK AO2 RAE36 TSE07 SLP130 P0022 T02500239=
201608090345 SPECI KATL 090345Z 09010KT 10SM BKN013 BKN050 BKN090 OVC200 25/24 A2995 RMK AO2 RAE36 TSE07 P0022 T02500239=
201608090307 SPECI KATL 090307Z 10009KT 6SM RA BR FEW020CB SCT050 BKN090 OVC200 26/24 A2995 RMK AO2 TSE07 VIS LWR SE-SW TS DSIPTD CB SE-SW MOV NW P0003 T02560239=
201608090252 METAR KATL 090252Z 09008G18KT 9SM -TSRA SCT025CB BKN032 OVC110 26/24 A2995 RMK AO2 RAB43 TSB52 SLP129 OCNL LTGIC SE TS VC SE MOV NW P0000 60000 T02560239 51019=
201608090152 METAR KATL 090152Z 08010KT 10SM FEW025 BKN040 BKN070 BKN250 27/23 A2994 RMK AO2 SLP127 T02670233=
201608090052 METAR KATL 090052Z 10007KT 10SM SCT035 BKN075 BKN250 28/23 A2991 RMK AO2 SLP117 SHRA NE T02780228=
201608082352 METAR KATL 082352Z 13007KT 10SM FEW035 BKN080 BKN250 28/23 A2989 RMK AO2 SLP110 TCU DSNT NE & E T02830228 10311 20283 55001=
201608082252 METAR KATL 082252Z 10010KT 10SM FEW035 BKN070 BKN250 29/22 A2988 RMK AO2 SLP107 TCU DSNT SE T02940222=
201608082152 METAR KATL 082152Z 09008G17KT 10SM FEW040 BKN070 BKN250 31/22 A2988 RMK AO2 SLP107 TCU DSNT SE T03110222=
201608082052 METAR KATL 082052Z 09012KT 10SM FEW040 BKN070 BKN250 31/21 A2989 RMK AO2 SLP110 TCU DSNT NE T03110211 57013=
201608081952 METAR KATL 081952Z 09010KT 10SM FEW035 SCT065 BKN080 31/22 A2990 RMK AO2 SLP113 TCU DSNT E AND W T03110222=
201608081852 METAR KATL 081852Z 08012G18KT 10SM FEW035 BKN055 BKN070 30/22 A2992 RMK AO2 SLP120 TCU DSNT NE-E MDT CU ALQDS T03000217=
201608081752 METAR KATL 081752Z 09012KT 10SM SCT035 BKN045 BKN060 29/22 A2993 RMK AO2 SLP125 TCU DSNT S AND NW T02940222 10306 20244 58010=
201608081652 METAR KATL 081652Z 08010KT 10SM SCT028 SCT040 BKN050 29/22 A2996 RMK AO2 SLP133 TCU DSNT E MDT CU ALQDS T02940222=
201608081552 METAR KATL 081552Z 09008G16KT 10SM FEW020 BKN030 BKN040 28/23 A2997 RMK AO2 SLP135 T02830228=
201608081452 METAR KATL 081452Z 08007KT 10SM FEW015 BKN020 BKN030 27/23 A2996 RMK AO2 SLP134 TCU DSNT NW-N MDT CU ALQDS T02720233 51013=
201608081352 METAR KATL 081352Z 11007KT 10SM FEW009 BKN015 BKN020 26/23 A2996 RMK AO2 SLP133 T02560233=
201608081321 SPECI KATL 081321Z 10007KT 10SM FEW009 BKN015 OVC018 25/23 A2996 RMK AO2 T02500233=
201608081252 METAR KATL 081252Z 08009KT 8SM BKN008 OVC013 24/23 A2995 RMK AO2 SLP129 CIG 007V010 T02440233=
201608081152 METAR KATL 081152Z 10007KT 7SM OVC006 24/23 A2992 RMK AO2 SLP122 CIG 005V008 60000 70024 T02440233 10256 20244 50008=
201608081052 METAR KATL 081052Z 09007KT 7SM OVC007 24/23 A2993 RMK AO2 SLP122 CIG 005V009 T02440233=
201608080952 METAR KATL 080952Z 08012KT 7SM BKN007 OVC014 24/24 A2991 RMK AO2 SLP117 T02440239=
201608080852 METAR KATL 080852Z 08011KT 7SM BKN006 BKN220 24/24 A2990 RMK AO2 SLP113 CIG 004V007 60000 T02440239 55007=
201608080828 SPECI KATL 080828Z 08010KT 7SM BKN005 OVC220 24/24 A2989 RMK AO2 CIG 004V007 T02440239=
201608080752 METAR KATL 080752Z 08010KT 7SM SCT006 SCT055 BKN180 BKN220 24/24 A2989 RMK AO2 SLP112 T02440239=
201608080652 METAR KATL 080652Z 00000KT 10SM FEW005 FEW030 SCT047 BKN150 OVC200 25/23 A2992 RMK AO2 SLP118 RAB0554E10TSE05 TS DSIPTD SHRA NW P0000 T02500233=
201608080609 SPECI KATL 080609Z 09004KT 10SM -RA FEW005 BKN090 BKN150 OVC250 25/23 A2992 RMK AO2 RAB0554TSE05 OCNL LTGIC DSNT W TS DSIPTD CB DSNT W P0000 T02500233=
201608080552 METAR KATL 080552Z 03007KT 10SM TS FEW005 FEW028CB BKN095 OVC150 25/23 A2992 RMK AO2 SLP119 RAB14E42 OCNL LTGICCG NW TS VC NW MOV NW P0000 60000 T02500233 10289 20250 50004=
201608080507 SPECI KATL 080507Z 10007KT 10SM TS SCT028CB BKN035 OVC075 26/23 A2993 RMK AO2 OCNL LTGIC NE-SE TS NE-SE MOV NW T02610233=
201608080452 METAR KATL 080452Z COR 12006KT 10SM VCTS BKN028CB BKN035 OVC060 27/23 A2993 RMK AO2 TSB04 SLP121 OCNL LTGIC NE-E TS NE-E MOV NW T02670233 403560244=
201608080433 SPECI KATL 080433Z 12005KT 10SM VCTS BKN028CB BKN045 27/23 A2992 RMK AO2 TSB02E04 OCNL LTGIC NE-SE TS NE-SE MOV NW T02670233=
201608080408 SPECI KATL 080408Z 14007KT 10SM VCTS FEW050CB BKN140 27/24 A2992 RMK AO2 TSB02E04 OCNL LTGIC NE-SE TS NE-SE T02670244=
201608080352 METAR KATL 080352Z 05004KT 10SM FEW050 BKN140 27/24 A2991 RMK AO2 LTG DSNT NE AND SE SLP114 CB DSNT NE-SE T02720239=
201608080252 METAR KATL 080252Z 35005KT 10SM BKN140 28/24 A2991 RMK AO2 SLP115 T02780239 51011=
201608080152 METAR KATL 080152Z 00000KT 10SM SCT080 BKN160 28/23 A2990 RMK AO2 SLP113 T02780233=
201608080052 METAR KATL 080052Z 00000KT 10SM FEW050 SCT070 BKN140 OVC250 29/23 A2989 RMK AO2 SLP111 CB DSNT NW T02890233=
201608072352 METAR KATL 072352Z 17005KT 10SM FEW050 BKN100 BKN150 BKN250 29/23 A2988 RMK AO2 LTG DSNT W AND NW SLP105 CB DSNT W-NW 60024 T02890233 10356 20261 53001=
201608072252 METAR KATL 072252Z 20005KT 10SM FEW050 SCT090 BKN150 BKN250 31/23 A2987 RMK AO2 SLP101 CB DSNT NW T03060228=
201608072152 METAR KATL 072152Z 16004KT 10SM FEW050 SCT090 BKN150 BKN250 29/22 A2987 RMK AO2 LTG DSNT NW RAE2058 SLP103 CB DSNT NE-SE AND W-N P0000 T02890222=
201608072052 METAR KATL 072052Z 14006KT 10SM -RA FEW080 SCT110 BKN180 BKN250 27/24 A2987 RMK AO2 LTG DSNT SW TSE16 SLP104 TS DSIPTD CB DSNT N-E-SE & SW-NW SHRA DSNT E P0001 60024 T02720239 58011 $=
201608072017 SPECI KATL 072017Z 12005KT 10SM -RA FEW042 BKN100 BKN150 BKN250 27/25 A2990 RMK AO2 TSE16 TS DSIPTD CB DSNT ALQDS P0001 T02670250 $=
201608071952 METAR KATL 071952Z 18007KT 10SM -TSRA FEW042CB BKN080 BKN150 BKN250 27/24 A2991 RMK AO2 WSHFT 1846 RAB02 SLP115 OCNL LTGICCGCA SE-SW-NW TS VC SE-SW-NW MOV SW CB DSNT ALQDS P0023 T02670244 $=
201608071928 SPECI KATL 071928Z 10006G15KT 8SM -TSRA SCT042CB BKN080 BKN150 BKN250 27/24 A2991 RMK AO2 WSHFT 1846 RAB02 OCNL LTGICCA SE-OHD-NW TS SE-OHD-NW MOV SW CB DSNT N & SE & SW TCU DSNT NW P0015 T02720239 $=
201608071911 SPECI KATL 071911Z 08015KT 4SM R09R/5000VP6000FT TSRA SCT040CB BKN050 BKN150 BKN250 29/23 A2991 RMK AO2 WSHFT 1846 RAB02 VIS NE-SE 1 FRQ LTGICCG SE-OHD-NW TS SE-OHD-NW MOV S CB DSNT N-E-S P0000 T02890228 $=
201608071903 SPECI KATL 071903Z 10011G18KT 10SM -TSRA SCT040CB BKN050 BKN150 BKN250 31/22 A2991 RMK AO2 WSHFT 1846 RAB02 VIS LWR NE-SE FRQ LTGICCG SE-OHD-NW TS SE-OHD-NW MOV S CB DSNT N-E-S P0000 T03060217 $=
201608071852 METAR KATL 071852Z 10015G19KT 10SM TS SCT050CB BKN060TCU BKN160 BKN250 32/23 A2991 RMK AO2 TSB08 SLP115 OCNL LTGICCG NE-SE-S TS NE-SE-S MOV S CB NE-SE-S & NW MOV S CB DSNT N-NE TCU SE-OHD-NW SHRA NE-SE-S & NW T03170228=
201608071810 SPECI KATL 071810Z VRB06KT 10SM TS SCT048CB SCT055TCU BKN120 BKN250 34/22 A2990 RMK AO2 TSB08 OCNL LTGICCG NE TS VC NE MOV S CB NE-SE MOV S TCU N-NE T03390217=
201608071752 METAR KATL 071752Z COR 33006KT 10SM FEW044CB SCT050TCU SCT120 BKN250 34/22 A2991 RMK AO2 SLP114 CB NE MOV S CB DSNT N-E-S TCU N-E-SE SHRA VC NE T03440222 10344 20256 58010=
201608071652 METAR KATL 071652Z 27008KT 10SM FEW042TCU SCT100 SCT150 SCT250 34/24 A2993 RMK AO2 SLP121 TCU N-E-S-SW SHRA VC E & SE T03390239=
201608071552 METAR KATL 071552Z COR 30005KT 10SM FEW040TCU FEW150 SCT250 32/23 A2994 RMK AO2 SLP124 TCU ALQDS T03220233=
201608071452 METAR KATL 071452Z 31006KT 10SM FEW032 FEW150 SCT250 31/24 A2994 RMK AO2 SLP125 T03060239 58002=
201608071352 METAR KATL 071352Z VRB03KT 10SM SCT150 SCT250 30/24 A2994 RMK AO2 SLP126 T03000239=
201608071252 METAR KATL 071252Z 27003KT 10SM SCT150 SCT200 SCT250 28/24 A2995 RMK AO2 SLP127 T02780239=
201608071152 METAR KATL 071152Z 29006KT 9SM FEW150 SCT200 SCT250 26/23 A2994 RMK AO2 SLP128 ACC DSNT NE-SE & SW T02560233 10272 20244 53012=
201608071052 METAR KATL 071052Z 25004KT 9SM FEW150 SCT200 25/23 A2993 RMK AO2 SLP124 T02500233=
201608070952 METAR KATL 070952Z 22003KT 10SM FEW150 SCT200 24/23 A2991 RMK AO2 SLP117 T02440233=
201608070852 METAR KATL 070852Z 23003KT 10SM SCT150 SCT200 25/23 A2991 RMK AO2 SLP115 T02500233 55000=
201608070752 METAR KATL 070752Z 00000KT 10SM FEW120 BKN150 26/23 A2990 RMK AO2 SLP112 T02610233=
201608070652 METAR KATL 070652Z 30003KT 10SM FEW120 SCT150 BKN220 27/24 A2990 RMK AO2 SLP112 T02670239=
201608070552 METAR KATL 070552Z 28004KT 10SM FEW080 SCT120 BKN250 27/24 A2991 RMK AO2 SLP115 T02670239 10311 20267 58007=
201608070452 METAR KATL 070452Z 22003KT 10SM FEW100 27/23 A2992 RMK AO2 SLP119 T02720233 403560228=
201608070352 METAR KATL 070352Z 20005KT 10SM SCT120 28/24 A2992 RMK AO2 SLP119 T02780239=
201608070252 METAR KATL 070252Z 26003KT 10SM BKN140 29/23 A2993 RMK AO2 SLP122 T02890228 53009=
201608070152 METAR KATL 070152Z 31006KT 10SM FEW060 BKN150 30/22 A2992 RMK AO2 SLP119 T03000222=
201608070052 METAR KATL 070052Z 32006KT 10SM FEW050 BKN150 BKN250 31/22 A2990 RMK AO2 SLP114 CB DSNT E T03060217=
201608062352 METAR KATL 062352Z 31009KT 10SM FEW045 SCT090 BKN180 BKN250 31/22 A2990 RMK AO2 LTG DSNT E AND SE SLP114 CB DSNT NE-SE T03110217 10356 20311 53004=
201608062252 METAR KATL 062252Z 29011KT 10SM FEW045 SCT080 BKN120 BKN250 32/21 A2989 RMK AO2 LTG DSNT NE AND SE SLP109 CB DSNT NE AND SE T03220206=
201608062152 METAR KATL 062152Z 30010KT 10SM FEW045 FEW060 BKN150 BKN250 33/21 A2988 RMK AO2 SLP106 CB DSNT NE-E T03330206=
201608062052 METAR KATL 062052Z 28008KT 10SM FEW065 SCT110 BKN150 BKN250 33/21 A2989 RMK AO2 SLP110 CB DSNT NE & SE & SW & NW TCU DSNT SE & SW T03330206 58020=
201608061952 METAR KATL 061952Z 29009KT 10SM FEW060TCU BKN110 BKN200 BKN250 35/21 A2991 RMK AO2 SLP115 CB DSNT SW TCU N-E & DSNT ALQDS T03500211=
201608061852 METAR KATL 061852Z 33007KT 10SM FEW055 SCT100 SCT200 SCT250 34/20 A2993 RMK AO2 SLP123 CB DSNT NE & W-NW TCU DSNT SE & SW-W & NW T03440200=
201608061752 METAR KATL 061752Z 31008KT 10SM SCT050 SCT100 SCT250 34/21 A2995 RMK AO2 SLP129 CB DSNT SW & NW TCU DSNT E-SE & SW-W T03390206 10344 20239 58007=
201608061652 METAR KATL 061652Z 29008KT 10SM FEW040TCU FEW100 SCT250 33/22 A2997 RMK AO2 SLP135 CB DSNT SW & NW TCU W & DSNT NE-SE & S T03330217=
201608061552 METAR KATL 061552Z 33008KT 10SM FEW038 FEW200 SCT300 32/22 A2998 RMK AO2 SLP138 CB DSNT NW T03220222=
201608061452 METAR KATL 061452Z 32005KT 10SM FEW110 FEW250 SCT300 31/23 A2997 RMK AO2 SLP137 T03060228 58002=
201608061352 METAR KATL 061352Z 30005KT 10SM FEW110 FEW250 28/23 A2998 RMK AO2 SLP140 T02830228=
201608061252 METAR KATL 061252Z 27006KT 10SM FEW110 FEW200 26/23 A2998 RMK AO2 SLP141 T02610228=
201608061152 METAR KATL 061152Z 28003KT 10SM FEW200 24/22 A2998 RMK AO2 SLP140 T02390217 10250 20228 51012=
201608061052 METAR KATL 061052Z 27004KT 10SM SCT200 23/22 A2998 RMK AO2 SLP140 T02280217=
201608060952 METAR KATL 060952Z 22003KT 10SM FEW200 23/22 A2996 RMK AO2 SLP133 T02280217=
201608060852 METAR KATL 060852Z 00000KT 10SM CLR 23/22 A2994 RMK AO2 SLP127 T02330217 56003=
201608060752 METAR KATL 060752Z VRB04KT 10SM CLR 24/22 A2994 RMK AO2 SLP127 T02390222=
201608060652 METAR KATL 060652Z 26004KT 10SM CLR 24/22 A2994 RMK AO2 SLP126 T02440217=
201608060552 METAR KATL 060552Z 25003KT 10SM CLR 25/22 A2995 RMK AO2 SLP130 T02500222 10300 20250 58013=
201608060452 METAR KATL 060452Z 21004KT 10SM FEW250 26/22 A2997 RMK AO2 SLP138 T02560222 403440239=
201608060352 METAR KATL 060352Z 23006KT 10SM FEW250 26/22 A2998 RMK AO2 SLP141 T02610217=
201608060252 METAR KATL 060252Z 22006KT 10SM FEW120 SCT250 26/22 A2999 RMK AO2 SLP145 T02610222 51015=
201608060152 METAR KATL 060152Z 23005KT 10SM SCT120 BKN250 27/22 A2999 RMK AO2 SLP143 T02720222=
201608060052 METAR KATL 060052Z 20006KT 10SM FEW050 SCT120 SCT250 28/22 A2996 RMK AO2 LTG DSNT SE SLP133 CB DSNT SE TCU DSNT NE T02780217=
201608052352 METAR KATL 052352Z 00000KT 10SM FEW050 BKN110 BKN250 29/20 A2995 RMK AO2 LTG DSNT SE-SW SLP130 CB DSNT SE-SW TCU DSNT NE & E T02940200 10344 20289 53002=
201608052252 METAR KATL 052252Z 31008KT 10SM FEW050 BKN100 BKN250 29/20 A2995 RMK AO2 LTG DSNT S SLP129 CB DSNT S & SW TCU DSNT E & SE T02890200=
201608052152 METAR KATL 052152Z 32014G18KT 10SM SCT050TCU BKN090 BKN250 33/19 A2993 RMK AO2 SLP123 TCU ALQDS CB DSNT SW T03280194=
201608052052 METAR KATL 052052Z 32005KT 10SM SCT050 SCT250 34/19 A2994 RMK AO2 SLP125 FRQ LTG DSNT NW CB DSNT SW & NW T03440194 56022=
201608051952 METAR KATL 051952Z 00000KT 10SM SCT050 SCT250 33/21 A2996 RMK AO2 SLP132 CB DSNT S AND W T03330211=
201608051852 METAR KATL 051852Z 26003KT 10SM SCT040 SCT050TCU SCT250 33/23 A2998 RMK AO2 SLP140 TCU E AND S T03280228=
201608051752 METAR KATL 051752Z VRB03KT 10SM SCT035 SCT250 32/23 A3001 RMK AO2 SLP149 TCU DSNT SW MDT CU ALQDS T03170228 10322 20244 58008=
201608051652 METAR KATL 051652Z 00000KT 10SM FEW025 FEW250 30/23 A3002 RMK AO2 SLP154 T03000233=
201608051552 METAR KATL 051552Z 00000KT 8SM FEW016 SCT060 BKN250 28/24 A3004 RMK AO2 SLP160 T02780239=
201608051531 SPECI KATL 051531Z 34005KT 8SM FEW012 BKN016 BKN020 28/24 A3004 RMK AO2 T02780239=
201608051452 METAR KATL 051452Z 01006KT 6SM HZ BKN012 BKN016 27/24 A3003 RMK AO2 SLP159 T02720239 53001=
201608051409 SPECI KATL 051409Z 00000KT 7SM FEW008 BKN011 BKN014 26/24 A3003 RMK AO2 T02610239=
201608051405 SPECI KATL 051405Z 00000KT 3SM BKN011 26/24 A3003 RMK AO2 SFC VIS 7 T02610239=
201608051352 METAR KATL 051352Z COR 11004KT 3SM BR BKN009 BKN014 26/24 A3003 RMK AO2 SFC VIS 6 SLP159 T02560239=
201608051252 METAR KATL 051252Z 12004KT 3SM OVC006 25/23 A3003 RMK AO2 SFC VIS 8 SLP158 CIG 005V008 BINOVC T02500233=
201608051152 METAR KATL 051152Z COR 11004KT 3SM OVC006 24/23 A3003 RMK AO2 SFC VIS 7 SLP159 CIG 005V007 70025 T02440233 10256 20239 51009=
201608051056 SPECI KATL 051056Z 11007KT 3SM BR OVC005 24/23 A3002 RMK AO2 SFC VIS 6 CIG 004V007 T02390233=
201608051052 METAR KATL 051052Z 11007KT 6SM BR OVC005 24/23 A3003 RMK AO2 SLP157 CIG 004V007 T02440233=
201608050952 METAR KATL 050952Z 11006KT 8SM OVC006 24/23 A3001 RMK AO2 SLP153 CIG 005V008 T02440233=
201608050852 METAR KATL 050852Z 10007KT 10SM OVC006 24/23 A3000 RMK AO2 SLP149 CIG 005V007 T02440233 53005=
201608050815 SPECI KATL 050815Z 10008KT 10SM BKN006 BKN250 24/23 A2999 RMK AO2 CIG 005V007 T02440233=
201608050752 METAR KATL 050752Z 10006KT 10SM SCT006 SCT250 24/23 A2998 RMK AO2 SLP141 T02440233=
201608050652 METAR KATL 050652Z 08006KT 10SM FEW006 FEW250 25/24 A2998 RMK AO2 SLP141 T02500239=
201608050552 METAR KATL 050552Z 08004KT 10SM SCT250 26/24 A2999 RMK AO2 SLP142 60000 T02560239 10272 20256 58006=
201608050452 METAR KATL 050452Z 07005KT 10SM FEW150 SCT250 26/24 A3000 RMK AO2 SLP146 T02610239 403390244=
201608050352 METAR KATL 050352Z 00000KT 10SM FEW150 SCT250 27/23 A3001 RMK AO2 SLP150 T02670228=
201608050252 METAR KATL 050252Z 00000KT 10SM FEW140 SCT200 BKN250 27/23 A3001 RMK AO2 SLP149 60000 T02670233 50005=
201608050152 METAR KATL 050152Z 00000KT 10SM BKN140 BKN200 BKN250 27/23 A3001 RMK AO2 SLP150 T02670228=
201608050052 METAR KATL 050052Z 00000KT 10SM SCT120 BKN150 BKN200 26/24 A3000 RMK AO2 RAE00 SLP148 P0000 T02610239=
201608042352 METAR KATL 042352Z 00000KT 9SM -RA FEW025 SCT100 BKN150 BKN200 27/24 A2999 RMK AO2 SLP145 OCNL LTG DSNT NE & SW-W RAB08 TSE40 P0000 60025 T02670239 10339 20256 53007=
201608042340 SPECI KATL 042340Z 27005KT 7SM -RA FEW025 SCT100 BKN150 BKN200 26/24 A2999 RMK AO2 OCNL LTG DSNT NE & SW-W TS DSIPTD RAB08 P0000 T02610239=
201608042252 METAR KATL 042252Z COR 15010KT 10SM TS FEW030CB SCT100 BKN150 BKN200 28/23 A2999 RMK AO2 TSB34 SLP143 FRQ LTGICCG NW-NE & SW TS NW-NE & VC SW MOV S T02780233=
201608042234 SPECI KATL 042234Z 16013KT 10SM TS FEW030CB SCT100 BKN200 29/23 A2997 RMK AO2 TSB34 OCNL LTGICCG N TS VC N MOV S T02890233=
201608042152 METAR KATL 042152Z COR 17008KT 10SM SCT040TCU SCT080 BKN120 BKN200 29/25 A2996 RMK AO2 RAE23 SLP135 TCU N-NE & VC SE CB DSNT S-SW & NW P0020 T02940250=
201608042052 METAR KATL 042052Z COR VRB06KT 9SM R09R/5000VP6000FT -RA SCT040CB BKN080 BKN110 BKN250 28/23 A2997 RMK AO2 RAB36 SLP138 CB OHD-SE-S-SW MOV SE TCU DSNT NW VIS LWR SE-S-SW SHRA P0005 60005 T02830233 55013=
201608042042 SPECI KATL 042042Z 11006KT 9SM -RA BKN040CB BKN150 BKN250 31/23 A2997 RMK AO2 RAB36 CB OHD-SE-S-SW MOV SE TCU DSNT NW VIS LWR SE-S-SW SHRA P0001 T03110233=
201608041952 METAR KATL 041952Z 27006KT 10SM FEW040CB BKN050TCU BKN150 BKN250 33/23 A2996 RMK AO2 SLP133 CB N & DSNT NE & SE MOV SE TCU OHD-NE-SE SHRA VC N T03280228=
201608041852 METAR KATL 041852Z VRB04KT 10SM FEW040CB BKN050TCU BKN250 33/21 A2998 RMK AO2 LTG DSNT S AND W SLP140 CB NW MOV SE TCU OHD & ALQDS CB DSNT S & W SHRA VC NW T03280211=
201608041752 METAR KATL 041752Z 11005KT 10SM FEW040CB SCT100 SCT250 31/22 A3001 RMK AO2 LTG DSNT S AND W SLP149 CB N & DSNT NE & DSNT S-SW-NW TCU DSNT NE SHRA VC N T03110222 10322 20250 58009=
201608041719 SPECI KATL 041719Z VRB05KT 10SM FEW037TCU SCT100 SCT200 32/23 A3003 RMK AO2 LTG DSNT W CB DSNT W TCU SE-SW & DSNT ALQDS T03170228=
201608041652 METAR KATL 041652Z VRB03KT 10SM SCT030 SCT100 31/23 A3004 RMK AO2 SLP159 CB DSNT W MDT CU SW-NW-N T03060228=
201608041552 METAR KATL 041552Z VRB03KT 10SM FEW025 FEW100 SCT250 30/23 A3004 RMK AO2 SLP160 T03000233=
201608041452 METAR KATL 041452Z 08009KT 10SM FEW020 FEW100 SCT250 29/24 A3004 RMK AO2 SLP158 T02940239 50003=
201608041352 METAR KATL 041352Z 10006KT 10SM FEW015 FEW100 SCT250 28/24 A3004 RMK AO2 SLP160 T02780239=
201608041252 METAR KATL 041252Z 07009KT 10SM FEW075 SCT100 SCT250 26/23 A3004 RMK AO2 SLP160 ACC W & DSNT E T02610233=
201608041152 METAR KATL 041152Z 08007KT 10SM FEW075 SCT200 SCT250 25/23 A3003 RMK AO2 SLP156 ACC DSNT E T02500233 10272 20244 53013=
201608041052 METAR KATL 041052Z 10007KT 10SM FEW080 SCT200 SCT250 25/23 A3000 RMK AO2 SLP146 CB DSNT NE ACC DSNT E T02500233=
201608040952 METAR KATL 040952Z 08007KT 10SM FEW070 BKN085 BKN250 25/23 A2999 RMK AO2 SLP141 T02500233=
201608040852 METAR KATL 040852Z 07008KT 10SM FEW048 BKN080 BKN250 26/23 A2999 RMK AO2 SLP141 T02560233 50001=
201608040752 METAR KATL 040752Z 09004KT 10SM FEW046 SCT075 SCT250 26/23 A2999 RMK AO2 SLP142 T02560233=
201608040652 METAR KATL 040652Z 07007KT 10SM SCT050 BKN075 BKN250 27/23 A2999 RMK AO2 SLP142 T02670233=
201608040552 METAR KATL 040552Z 00000KT 10SM FEW065 SCT250 26/23 A2998 RMK AO2 SLP141 T02610228 10317 20261 58006=
201608040452 METAR KATL 040452Z 00000KT 10SM FEW060 SCT250 27/22 A2999 RMK AO2 SLP143 T02670222 403330228=
201608040352 METAR KATL 040352Z 14004KT 10SM FEW060 28/22 A3000 RMK AO2 SLP146 OCNL LTG DSNT NE T02780217=
201608040252 METAR KATL 040252Z 11005KT 10SM FEW060 29/21 A3000 RMK AO2 SLP147 T02890211 53014=
201608040152 METAR KATL 040152Z VRB04KT 10SM FEW060 31/20 A2998 RMK AO2 SLP139 T03060200=
201608040052 METAR KATL 040052Z 30004KT 10SM FEW060 FEW250 30/21 A2997 RMK AO2 SLP138 T03000206=
201608032352 METAR KATL 032352Z 27005KT 10SM FEW060 FEW250 31/20 A2996 RMK AO2 SLP134 TCU DSNT E & SE T03110200 10333 20311 56005=
201608032252 METAR KATL 032252Z 28007KT 10SM FEW060 FEW250 33/19 A2996 RMK AO2 SLP133 TCU DSNT SE T03280194=
201608032152 METAR KATL 032152Z 32005KT 10SM FEW060 FEW250 33/19 A2997 RMK AO2 SLP135 T03330194=
201608032052 METAR KATL 032052Z 33008KT 10SM FEW060 FEW250 33/19 A2997 RMK AO2 SLP138 CB DSNT SE-S-SW TCU DSNT E T03330194 56022=
201608031952 METAR KATL 031952Z 31011KT 10SM SCT050 SCT250 33/19 A2999 RMK AO2 SLP143 CB DSNT S T03330194=
201608031852 METAR KATL 031852Z 30009G15KT 10SM SCT045 SCT250 32/20 A3001 RMK AO2 SLP150 CB DSNT E-SE-S T03220200=
201608031752 METAR KATL 031752Z VRB04KT 10SM SCT040 32/21 A3004 RMK AO2 SLP160 MDT CU NE-SE & SW-NW T03170211 10322 20228 58004=
201608031652 METAR KATL 031652Z 32007KT 290V350 10SM SCT030TCU SCT250 31/22 A3005 RMK AO2 SLP164 TCU NE-E MDT CU SE T03110222=
201608031552 METAR KATL 031552Z VRB04KT 10SM FEW020TCU 29/23 A3006 RMK AO2 SLP168 TCU NE T02890228=
201608031452 METAR KATL 031452Z 27004KT 10SM FEW014 FEW250 27/23 A3005 RMK AO2 SLP166 T02720233 50001=
201608031417 SPECI KATL 031417Z 31005KT 10SM SCT006 26/23 A3006 RMK AO2 T02560233=
201608031352 METAR KATL 031352Z 31005KT 8SM BKN005 24/23 A3006 RMK AO2 SLP169 T02440228=
201608031305 SPECI KATL 031305Z 31005KT 2 1/2SM BR BKN005 24/23 A3006 RMK AO2 SFC VIS 6 T02390228=
201608031252 METAR KATL 031252Z 30004KT 1/2SM R09R/P6000FT BR OVC004 23/23 A3006 RMK AO2 SFC VIS 5 SLP169 CIG 003V005 VIS LWR SW-NW BINOVC TWRINC T02330228=
201608031234 SPECI KATL 031234Z 29007KT 1/2SM R09R/P6000FT BR OVC003 23/23 A3006 RMK AO2 SFC VIS 5 VIS LWR SW-NW TWRINC T02330228=
201608031152 METAR KATL 031152Z 27004KT 6SM BR OVC004 23/23 A3005 RMK AO2 SLP167 VIS SW-NW 2 CIG 003V005 BINOVC 70004 T02280228 10233 20228 53014=
201608031150 SPECI KATL 031150Z 27005KT 6SM BR OVC004 23/23 A3005 RMK AO2 VIS SW-NW 2 CIG 003V005=
201608031134 SPECI KATL 031134Z 28006KT 7SM BKN005 BKN200 23/23 A3005 RMK AO2 VIS W-N 2 CIG 003V007 T02330228=
201608031052 METAR KATL 031052Z 27005KT 9SM FEW003 SCT120 SCT200 23/23 A3004 RMK AO2 SLP161 T02280228=
201608030952 METAR KATL 030952Z 26004KT 10SM FEW003 BKN120 23/23 A3002 RMK AO2 SLP156 T02330228=
201608030852 METAR KATL 030852Z 27003KT 10SM FEW003 BKN130 23/23 A3001 RMK AO2 SLP153 T02330228 55003 $=
201608030752 METAR KATL 030752Z 27004KT 10SM SCT003 SCT110 23/23 A3000 RMK AO2 SLP151 T02330228 $=
201608030652 METAR KATL 030652Z 27004KT 8SM SCT002 SCT180 23/23 A3001 RMK AO2 SLP152 VIS LWR S-W & NW T02330233 $=
201608030634 SPECI KATL 030634Z 28006KT 6SM BR SCT002 23/23 A3001 RMK AO2 SCT002 V BKN T02330233 $=
201608030607 SPECI KATL 030607Z 28005KT 6SM BR BKN002 23/23 A3002 RMK AO2 VIS LWR S-W T02330233 $=
201608030552 METAR KATL 030552Z 28004KT 7SM SCT002 24/23 A3002 RMK AO2 SLP153 VIS LWR S-W T02390233 10261 20239 56014 $=
201608030452 METAR KATL 030452Z 28005KT 10SM FEW004 SCT250 24/23 A3002 RMK AO2 SLP154 T02390233 403330233 $=
201608030352 METAR KATL 030352Z 23004KT 10SM FEW006 SCT200 BKN250 24/24 A3004 RMK AO2 SLP162 T02440239 $=
201608030252 METAR KATL 030252Z 23004KT 10SM FEW100 BKN150 BKN250 24/24 A3006 RMK AO2 SLP169 T02440239 51012 $=
201608030152 METAR KATL 030152Z 24007KT 10SM FEW010 SCT150 BKN200 BKN250 24/24 A3006 RMK AO2 SLP168 T02440239 $=
201608030052 METAR KATL 030052Z 28006KT 10SM FEW150 SCT200 BKN250 25/24 A3003 RMK AO2 SLP160 CB DSNT NE & NW T02500239 $=
201608022352 METAR KATL 022352Z 27005KT 10SM FEW150 SCT200 BKN250 26/23 A3002 RMK AO2 SLP157 60004 T02610233 10333 20239 58008 $=
201608022252 METAR KATL 022252Z 00000KT 10SM FEW150 BKN200 BKN250 27/23 A3004 RMK AO2 SLP161 T02670233 $=
201608022152 METAR KATL 022152Z 24004KT 10SM BKN150 BKN200 BKN250 26/24 A3004 RMK AO2 RAE01 SLP163 P0000 T02610239 $=
201608022052 METAR KATL 022052Z 29008KT 10SM -RA FEW040 BKN070 BKN110 BKN150 25/22 A3005 RMK AO2 SLP166 P0004 60004 T02500222 58010 $=
201608021952 METAR KATL 021952Z COR 32007KT 9SM -RA FEW030 BKN110 BKN150 BKN250 24/22 A3008 RMK AO2 PK WND 33026/1854 WSHFT 1839 TSE23 SLP178 TS MOV SE CB DSNT E-SE-S T02390222 P0000=
201608021924 SPECI KATL 021924Z 32008KT 10SM -RA FEW030 BKN110 BKN150CB OVC250 24/22 A3011 RMK AO2 PK WND 33026/1854 WSHFT 1839 TSE23 TS MOV SE CBMAM N-NE-E-SE CB DSNT NE-E-SE-S P0000 T02390222=
201608021915 SPECI KATL 021915Z 30012KT 10SM -TSRA FEW010CB SCT070 BKN120 OVC150 24/22 A3010 RMK AO2 PK WND 33026/1854 WSHFT 1839 OCNL LTGICCG NE-SE-S TS NE-SE-S MOV SE P0000 T02390222=
201608021905 SPECI KATL 021905Z 32014G25KT 4SM -TSRA BR FEW010CB SCT040 BKN110 OVC150 24/23 A3010 RMK AO2 PK WND 33026/1854 WSHFT 1839 FRQ LTGICCG NE & SW TS VC NE & SW MOV SE P0000 T02440228=
201608021857 SPECI KATL 021857Z 31020KT 4SM -TSRA FEW015CB BKN040 OVC100 25/22 A3009 RMK AO2 PK WND 33026/1854 WSHFT 1839 FRQ LTGICCG OHD-NE-SE & SW TS OHD-NE-SE & SW MOV SE P0000 T02500222=
201608021852 METAR KATL 021852Z 33020G35KT 5SM -TSRA SCT015CB BKN040 BKN110 OVC150 26/22 A3009 RMK AO2 PK WND 32035/1845 WSHFT 1834 RAB41 TSB16 SLP180 OCNL LTGICCG OHD-NW-N-NE TS OHD-NW-N-NE MOV SE P0000 T02560217=
201608021842 SPECI KATL 021842Z 33025G34KT 5SM TSRA FEW010 BKN030CB BKN040TCU OVC150 28/22 A3009 RMK AO2 PK WND 31034/1838 RAB41 TSB16 FRQ LTGICCG OHD-NW-N-NE TS OHD-NW-N-E MOV SE TCU NE-SE P0000 T02830222=
201608021836 SPECI KATL 021836Z 30012KT 10SM TS FEW030CB BKN040TCU BKN150 BKN250 32/23 A3008 RMK AO2 TSB16 FRQ LTGICCG W-NW-N TS VC W-NW-N MOV SE TCU NE-SE SHRA VC W-NW-N T03170228=
201608021816 SPECI KATL 021816Z 25005KT 10SM TS FEW030CB SCT040TCU SCT150 BKN250 32/23 A3007 RMK AO2 TSB16 OCNL LTGICCG N TS VC N MOV SE CB DSNT W-NW-N TCU NE & SE SHRA VC N T03220233=
201608021752 METAR KATL 021752Z 36005KT 10SM FEW030CB SCT040TCU SCT150 SCT250 33/23 A3008 RMK AO2 SLP174 CB W & DSNT W-NW-N TCU NE MDT CU ALQDS SHRA VC W T03280233 10328 20239 58015=
201608021652 METAR KATL 021652Z VRB06KT 10SM FEW025 SCT200 SCT250 31/24 A3012 RMK AO2 SLP187 CB DSNT NW-N T03110239=
201608021552 METAR KATL 021552Z 29005KT 10SM FEW020 SCT250 29/24 A3013 RMK AO2 SLP193 T02940239=
201608021452 METAR KATL 021452Z 27007KT 10SM FEW016 FEW250 28/23 A3013 RMK AO2 SLP191 T02830233 50002=
201608021352 METAR KATL 021352Z 24006KT 10SM FEW012 FEW100 SCT200 26/23 A3013 RMK AO2 SLP193 T02610233=
201608021345 SPECI KATL 021345Z 26006KT 10SM FEW010 FEW100 SCT200 26/23 A3013 RMK AO2 T02560228=
201608021317 SPECI KATL 021317Z 25007KT 10SM BKN010 25/23 A3013 RMK AO2 T02500228=
201608021252 METAR KATL 021252Z 23008KT 9SM BKN009 BKN100 BKN200 25/23 A3012 RMK AO2 SLP191 BKN009 V SCT T02500228=
201608021152 METAR KATL 021152Z 24005KT 8SM BKN008 BKN012 BKN150 BKN200 24/23 A3012 RMK AO2 SLP190 BKN008 V SCT T02390228 10239 20233 53006=
201608021052 METAR KATL 021052Z 23003KT 6SM BR OVC005 24/23 A3011 RMK AO2 SLP186 T02390228=
201608020952 METAR KATL 020952Z 21005KT 10SM OVC006 23/23 A3010 RMK AO2 SLP183 CIG 005V008 T02330228=
201608020852 METAR KATL 020852Z 22004KT 7SM OVC007 23/23 A3010 RMK AO2 SLP183 CIG 006V008 T02330228 53000=
201608020752 METAR KATL 020752Z 25005KT 7SM OVC005 23/23 A3011 RMK AO2 SLP184 T02330228=
201608020707 SPECI KATL 020707Z 24003KT 10SM BKN005 BKN200 23/23 A3009 RMK AO2 T02330228=
201608020652 METAR KATL 020652Z 22005KT 10SM SCT005 BKN200 23/23 A3009 RMK AO2 SLP178 T02330228=
201608020650 SPECI KATL 020650Z 21006KT 10SM SCT005 BKN200 23/23 A3009 RMK AO2=
201608020552 METAR KATL 020552Z 19006KT 10SM FEW060 FEW150 SCT200 BKN250 23/23 A3010 RMK AO2 SLP181 T02330228 10261 20233 56014=
201608020452 METAR KATL 020452Z 20006KT 10SM FEW060 SCT150 BKN200 OVC250 24/23 A3011 RMK AO2 SLP186 T02440228 403220228=
201608020352 METAR KATL 020352Z 23004KT 10SM FEW060 BKN150 OVC200 25/23 A3013 RMK AO2 TSB06E32 SLP191 T02500228=
201608020333 SPECI KATL 020333Z 35006KT 10SM FEW014 SCT060 BKN150 OVC200 26/23 A3014 RMK AO2 TSB06E32 TS DSIPTD VCSH NW-N T02560228=
201608020318 SPECI KATL 020318Z 36008KT 10SM TS SCT014CB BKN060 BKN150 OVC200 25/23 A3014 RMK AO2 TSB06 OCNL LTGIC NW TS VC NW MOV S T02500228=
201608020306 SPECI KATL 020306Z 36011G16KT 10SM TS BKN014CB BKN060 BKN150 OVC200 25/23 A3014 RMK AO2 TSB06 OCNL LTGICCG NW TS VC NW MOV S T02500228=
201608020252 METAR KATL 020252Z 30008KT 10SM FEW025 SCT070 BKN200 BKN250 24/23 A3014 RMK AO2 SLP197 FRQ LTG DSNT N & NW T02440228 53021=
201608020152 METAR KATL 020152Z 22004KT 10SM FEW100 SCT200 BKN250 24/23 A3010 RMK AO2 SLP184 CONS LTG DSNT N-NE T02440228=
201608020052 METAR KATL 020052Z 20004KT 10SM FEW120 SCT200 BKN250 25/23 A3009 RMK AO2 SLP181 CB DSNT N & NE & NW T02500228=
201608012352 METAR KATL 012352Z 22009KT 10SM FEW120 SCT200 BKN250 26/22 A3008 RMK AO2 SLP175 CB DSNT NE 60000 T02610222 10322 20261 53004=
201608012252 METAR KATL 012252Z 23005KT 10SM SCT150 BKN200 BKN250 28/21 A3007 RMK AO2 SLP171 CB DSNT SE T02780211=
201608012152 METAR KATL 012152Z 22005KT 10SM FEW025 BKN200 BKN250 27/22 A3006 RMK AO2 SLP169 CB DSNT E-SE & SE-S TCU DSNT N-NE T02720217=
201608012052 METAR KATL 012052Z 23006G15KT 10SM FEW020 FEW100 SCT150CB BKN250 27/22 A3007 RMK AO2 SLP171 VIRGA DSNT W CB DSNT NE-E & DSNT S-SW CBMAM W TCU DSNT N-NE SHRA DSNT NE-E & S-SW 60000 T02670217 56013=
201608011952 METAR KATL 011952Z 24005KT 10SM FEW020 SCT080 BKN150 BKN250 28/23 A3008 RMK AO2 RAB02E21 TSE11 SLP175 CB DSNT NE & SW TCU DSNT N-NE-E & DSNT SE SHRA DSNT NE & SW P0000 T02830233=
201608011911 SPECI KATL 011911Z 24006KT 10SM -RA FEW020 SCT075 BKN100 BKN250 28/24 A3008 RMK AO2 RAB02 TSE11 TS MOV SE CB DSNT NE & DSNT S-SW-W TCU DSNT N-NE & DSNT SW SHRA DSNT S-SW-W P0000 T02830239=
201608011852 METAR KATL 011852Z 22004KT 10SM TS FEW040CB BKN150 BKN250 31/22 A3008 RMK AO2 TSB46 SLP174 OCNL LTGICCG SW TS VC SW MOV SE SHRA VC SW T03110217=
201608011847 SPECI KATL 011847Z 30003KT 10SM TS FEW040CB BKN160 BKN250 31/21 A3009 RMK AO2 TSB46 OCNL LTGICCG SW TS VC SW MOV SE SHRA VC SW=
201608011831 SPECI KATL 011831Z VRB05KT 10SM FEW035CB SCT045TCU BKN160 BKN200 32/22 A3010 RMK AO2 CB SW MOV SE TCU NE-E & S & NW SHRA VC SW T03170222=
201608011808 SPECI KATL 011808Z 26004KT 10SM FEW040CB SCT150 SCT200 32/22 A3010 RMK AO2 CB W & NW MOV SE SHRA VC W & NW T03170222=
201608011752 METAR KATL 011752Z VRB03KT 10SM SCT035 SCT200 32/22 A3011 RMK AO2 SLP183 CB DSNT W-NW TCU DSNT NE & S SHRA DSNT W-NW T03170217 10322 20233 58015=
201608011652 METAR KATL 011652Z 16004KT 10SM FEW025 FEW120 SCT160 30/23 A3014 RMK AO2 SLP195 TCU DSNT NW T03000233=
201608011552 METAR KATL 011552Z VRB03KT 10SM FEW020 FEW120 SCT160 SCT250 29/23 A3015 RMK AO2 SLP199 T02890228=
201608011452 METAR KATL 011452Z 24004KT 10SM FEW010 SCT120 BKN160 BKN250 26/23 A3015 RMK AO2 SLP200 T02610233 51009=
201608011352 METAR KATL 011352Z 29007KT 10SM FEW010 BKN140 BKN250 25/23 A3014 RMK AO2 SLP198 T02500228=
201608011325 SPECI KATL 011325Z 30006KT 7SM FEW004 BKN150 BKN250 25/23 A3014 RMK AO2 T02500233=
201608011252 METAR KATL 011252Z 28007KT 6SM BR BKN004 BKN150 BKN250 23/23 A3014 RMK AO2 SLP198 CIG 003V005 T02330228=
201608011244 SPECI KATL 011244Z 27006KT 5SM BR BKN004 BKN150 BKN250 23/23 A3014 RMK AO2 BKN004 V SCT CIG 003V005 T02330228=
201608011228 SPECI KATL 011228Z 28007KT 5SM BR SCT004 BKN150 BKN250 23/23 A3014 RMK AO2 T02330228=
