##########################################################
# Query made at 04/19/2024 23:47:35 UTC
# Time interval: from 02/01/2016 12:00  to 02/29/2016 12:59  UTC
##########################################################

##########################################################
# KATL, Atlanta, Hartsfield - Jackson Atlanta International Airport (United States)
# WMO index: 72219. WIGOS ID: 0-20000-0-72219
# Latitude 33-38-59N. Longitude 084-25-00W. Altitude 312 m.
##########################################################

201602291252 METAR KATL 291252Z 25008KT 10SM FEW065 11/07 A3009 RMK AO2 SLP189 T01060067=
201602291152 METAR KATL 291152Z 25008KT 10SM SCT065 11/06 A3008 RMK AO2 SLP184 T01060061 10128 20100 53004=
201602291052 METAR KATL 291052Z 25009KT 10SM FEW060 10/06 A3007 RMK AO2 SLP180 T01000056=
201602290952 METAR KATL 290952Z 24009G18KT 10SM FEW060 11/06 A3006 RMK AO2 SLP178 T01060056=
201602290852 METAR KATL 290852Z 25012KT 10SM CLR 11/05 A3007 RMK AO2 SLP179 T01110050 58011=
201602290752 METAR KATL 290752Z 24012G19KT 10SM CLR 11/03 A3007 RMK AO2 SLP182 T01110033=
201602290652 METAR KATL 290652Z 24015G20KT 10SM CLR 12/03 A3010 RMK AO2 SLP190 T01220028=
201602290552 METAR KATL 290552Z 24013G19KT 10SM CLR 13/02 A3010 RMK AO2 SLP191 T01280022 10161 20117 50005=
201602290452 METAR KATL 290452Z 23010KT 10SM CLR 12/00 A3010 RMK AO2 SLP192 T01220000 402000033=
201602290352 METAR KATL 290352Z 21007KT 10SM CLR 12/M01 A3009 RMK AO2 SLP189 T01171006=
201602290252 METAR KATL 290252Z 21009KT 10SM CLR 12/M01 A3009 RMK AO2 SLP188 T01221006 51003=
201602290152 METAR KATL 290152Z 20007KT 10SM CLR 13/M01 A3008 RMK AO2 SLP186 T01331011=
201602290052 METAR KATL 290052Z 21006KT 10SM CLR 14/M02 A3008 RMK AO2 SLP189 T01441017=
201602282352 METAR KATL 282352Z 21006KT 10SM CLR 16/M02 A3008 RMK AO2 SLP186 T01611022 10200 20161 55006=
201602282252 METAR KATL 282252Z 22015G20KT 10SM CLR 19/M03 A3007 RMK AO2 SLP184 T01891033=
201602282152 METAR KATL 282152Z 22010KT 10SM CLR 19/M02 A3008 RMK AO2 SLP186 T01941022=
201602282052 METAR KATL 282052Z 24012G19KT 10SM CLR 20/M02 A3009 RMK AO2 SLP190 T02001017 56029=
201602281952 METAR KATL 281952Z 23013G20KT 10SM CLR 19/M02 A3011 RMK AO2 SLP196 T01891022=
201602281852 METAR KATL 281852Z 24007KT 10SM CLR 19/M01 A3014 RMK AO2 SLP205 T01891011=
201602281752 METAR KATL 281752Z 23007G16KT 190V270 10SM CLR 18/M01 A3018 RMK AO2 SLP219 T01781011 10183 20033 58019=
201602281652 METAR KATL 281652Z 24007KT 10SM CLR 17/M01 A3022 RMK AO2 SLP232 T01671006=
201602281552 METAR KATL 281552Z 26009KT 10SM CLR 16/M01 A3023 RMK AO2 SLP239 T01561006=
201602281452 METAR KATL 281452Z 24010KT 10SM CLR 13/00 A3024 RMK AO2 SLP241 T01330000 53009=
201602281352 METAR KATL 281352Z 25006KT 10SM CLR 11/M01 A3023 RMK AO2 SLP240 T01061006=
201602281252 METAR KATL 281252Z 00000KT 10SM CLR 04/M01 A3022 RMK AO2 SLP236 T00441011=
201602281152 METAR KATL 281152Z 23003KT 10SM CLR 04/M02 A3021 RMK AO2 SLP235 T00391022 10083 20039 53004=
201602281052 METAR KATL 281052Z 24004KT 10SM CLR 04/M02 A3021 RMK AO2 SLP232 T00391022=
201602280952 METAR KATL 280952Z 25003KT 10SM CLR 05/M02 A3020 RMK AO2 SLP230 T00501022=
201602280852 METAR KATL 280852Z 24003KT 10SM CLR 04/M02 A3020 RMK AO2 SLP229 T00441022 58009=
201602280752 METAR KATL 280752Z 23004KT 10SM CLR 05/M02 A3021 RMK AO2 SLP233 T00501022=
201602280652 METAR KATL 280652Z 27004KT 10SM CLR 07/M03 A3022 RMK AO2 SLP234 T00721028=
201602280552 METAR KATL 280552Z 30004KT 10SM CLR 08/M03 A3023 RMK AO2 SLP238 T00831033 10122 20067 51004=
201602280452 METAR KATL 280452Z 28003KT 10SM CLR 08/M02 A3023 RMK AO2 SLP238 T00781022 401560017=
201602280352 METAR KATL 280352Z 28003KT 10SM CLR 08/M02 A3023 RMK AO2 SLP239 T00781017=
201602280252 METAR KATL 280252Z 25003KT 10SM CLR 08/M02 A3022 RMK AO2 SLP236 T00831022 51008=
201602280152 METAR KATL 280152Z 00000KT 10SM CLR 09/M02 A3021 RMK AO2 SLP235 T00891022=
201602280052 METAR KATL 280052Z 33007KT 10SM CLR 11/M03 A3021 RMK AO2 SLP234 T01061028=
201602272352 METAR KATL 272352Z 32006KT 10SM CLR 12/M04 A3019 RMK AO2 SLP228 T01171039 10156 20117 55000=
201602272252 METAR KATL 272252Z 29009KT 10SM CLR 14/M04 A3018 RMK AO2 SLP222 T01391039=
201602272152 METAR KATL 272152Z 31008KT 10SM CLR 15/M03 A3019 RMK AO2 SLP224 T01501033=
201602272052 METAR KATL 272052Z 32009KT 10SM CLR 15/M06 A3019 RMK AO2 SLP227 T01501056 56023=
201602271952 METAR KATL 271952Z 32010KT 10SM CLR 14/M06 A3021 RMK AO2 SLP233 T01441061=
201602271852 METAR KATL 271852Z 27009KT 10SM CLR 14/M06 A3023 RMK AO2 SLP238 T01391061=
201602271752 METAR KATL 271752Z 33008KT 10SM CLR 13/M04 A3026 RMK AO2 SLP251 T01281044 10128 20017 58006=
201602271652 METAR KATL 271652Z 32005KT 10SM CLR 11/M04 A3028 RMK AO2 SLP257 T01061044=
201602271552 METAR KATL 271552Z 31006KT 10SM CLR 09/M03 A3029 RMK AO2 SLP262 T00891028=
201602271452 METAR KATL 271452Z 33010KT 10SM CLR 07/M02 A3028 RMK AO2 SLP259 T00721022 51012=
201602271352 METAR KATL 271352Z 32007KT 10SM CLR 05/M02 A3028 RMK AO2 SLP257 T00501022=
201602271252 METAR KATL 271252Z 29004KT 10SM FEW140 03/M03 A3025 RMK AO2 SLP250 T00281033=
201602271152 METAR KATL 271152Z 29005KT 10SM FEW140 02/M04 A3024 RMK AO2 SLP247 T00171039 10039 20017 53011=
201602271052 METAR KATL 271052Z 31005KT 10SM SCT140 03/M03 A3023 RMK AO2 SLP240 T00281033=
201602270952 METAR KATL 270952Z 31009KT 10SM BKN140 03/M03 A3021 RMK AO2 SLP234 T00281028=
201602270852 METAR KATL 270852Z 30005KT 10SM SCT140 02/M04 A3021 RMK AO2 SLP235 T00171039 56003=
201602270752 METAR KATL 270752Z 30004KT 10SM FEW150 02/M04 A3021 RMK AO2 SLP235 T00221039=
201602270652 METAR KATL 270652Z 31003KT 10SM FEW150 FEW200 03/M04 A3022 RMK AO2 SLP237 T00331039=
201602270552 METAR KATL 270552Z 30004KT 10SM FEW250 04/M04 A3022 RMK AO2 SLP238 T00391039 10083 20033 58001=
201602270452 METAR KATL 270452Z 29006KT 10SM CLR 04/M03 A3023 RMK AO2 SLP240 T00391033 401110022=
201602270352 METAR KATL 270352Z 30006KT 10SM CLR 04/M03 A3023 RMK AO2 SLP242 T00441033=
201602270252 METAR KATL 270252Z 27005KT 10SM CLR 05/M03 A3022 RMK AO2 SLP240 T00501033 51009=
201602270152 METAR KATL 270152Z 29007KT 10SM CLR 06/M03 A3022 RMK AO2 SLP239 T00611033=
201602270052 METAR KATL 270052Z 28007KT 10SM CLR 07/M03 A3021 RMK AO2 SLP235 T00671028=
201602262352 METAR KATL 262352Z 31008KT 10SM CLR 08/M04 A3019 RMK AO2 SLP230 T00831039 10111 20078 53001=
201602262252 METAR KATL 262252Z 32010KT 10SM CLR 10/M04 A3018 RMK AO2 SLP224 T01001039=
201602262152 METAR KATL 262152Z 33012G19KT 10SM CLR 11/M04 A3019 RMK AO2 SLP228 T01111039=
201602262052 METAR KATL 262052Z 30014KT 10SM CLR 11/M04 A3019 RMK AO2 SLP228 T01061039 56022=
201602261952 METAR KATL 261952Z 29016G19KT 10SM CLR 11/M04 A3021 RMK AO2 SLP233 T01061039=
201602261852 METAR KATL 261852Z 32014G19KT 10SM CLR 09/M04 A3023 RMK AO2 SLP241 T00941039=
201602261752 METAR KATL 261752Z 33012G18KT 10SM FEW050 08/M04 A3026 RMK AO2 SLP251 T00831039 10089 20022 58001=
201602261652 METAR KATL 261652Z 34015G22KT 10SM FEW045 07/M04 A3027 RMK AO2 SLP256 T00721044=
201602261552 METAR KATL 261552Z 32019KT 10SM FEW040 06/M04 A3027 RMK AO2 SLP255 T00561044=
201602261452 METAR KATL 261452Z 33016G21KT 10SM SCT033 05/M04 A3026 RMK AO2 SLP254 T00501039 53018=
201602261352 METAR KATL 261352Z 33017G28KT 10SM BKN032 03/M04 A3025 RMK AO2 PK WND 34028/1347 SLP248 T00281044=
201602261252 METAR KATL 261252Z 33014G21KT 10SM BKN035 02/M04 A3021 RMK AO2 SLP236 T00221044=
201602261152 METAR KATL 261152Z 32011KT 10SM OVC040 02/M04 A3021 RMK AO2 SLP235 BINOVC 60000 931000 T00221044 10039 20022 51016=
201602261052 METAR KATL 261052Z 32009KT 10SM BKN045 02/M04 A3019 RMK AO2 PK WND 32028/1005 SLP228 T00221044=
201602260952 METAR KATL 260952Z 33018G24KT 10SM FEW034 OVC048 03/M04 A3018 RMK AO2 PK WND 33027/0917 SNB03E14 SLP224 P0000 T00281039=
201602260852 METAR KATL 260852Z COR 31014G18KT 10SM SCT034 OVC048 03/M04 A3016 RMK AO2 SLP217 T00331044 53003=
201602260752 METAR KATL 260752Z 30007KT 10SM OVC050 03/M04 A3015 RMK AO2 SLP213 BINOVC T00331039=
201602260652 METAR KATL 260652Z 32010KT 10SM SCT060 03/M04 A3016 RMK AO2 SLP216 T00281039=
201602260552 METAR KATL 260552Z 30008KT 10SM FEW060 03/M04 A3015 RMK AO2 SLP214 T00281039 10072 20028 51004=
201602260452 METAR KATL 260452Z 31009KT 10SM FEW070 04/M04 A3015 RMK AO2 SLP213 T00391039 401170033=
201602260352 METAR KATL 260352Z 30009KT 10SM FEW070 04/M03 A3015 RMK AO2 SLP213 T00441033=
201602260252 METAR KATL 260252Z 31011KT 10SM FEW070 05/M04 A3014 RMK AO2 SLP210 T00501039 51016=
201602260152 METAR KATL 260152Z 32008KT 10SM SCT070 06/M03 A3013 RMK AO2 SLP207 T00561033=
201602260052 METAR KATL 260052Z 32010KT 10SM FEW050 SCT070 06/M03 A3011 RMK AO2 SLP200 T00611033=
201602252352 METAR KATL 252352Z 32013KT 10SM FEW050 07/M03 A3009 RMK AO2 SLP193 T00721033 10117 20072 53028=
201602252252 METAR KATL 252252Z 30015G21KT 10SM FEW050 09/M03 A3006 RMK AO2 PK WND 32026/2155 SLP182 T00891028=
201602252152 METAR KATL 252152Z 29014G24KT 10SM FEW050 SCT070 10/M03 A3003 RMK AO2 PK WND 32029/2140 SLP172 T01001028=
201602252052 METAR KATL 252052Z 29019G26KT 10SM FEW060 SCT080 10/M03 A3000 RMK AO2 PK WND 30026/2048 SLP163 T01001028 55004=
201602251952 METAR KATL 251952Z 30016KT 10SM FEW050 SCT070 BKN080 11/M01 A3000 RMK AO2 SLP161 T01061011=
201602251852 METAR KATL 251852Z 28016G25KT 10SM BKN050 BKN060 10/M02 A3000 RMK AO2 SLP162 T01001017=
201602251752 METAR KATL 251752Z 31016G22KT 10SM SCT050 09/M01 A3002 RMK AO2 SLP168 T00941011 10100 20050 50001=
201602251652 METAR KATL 251652Z 31021G27KT 10SM BKN050 08/M03 A3003 RMK AO2 PK WND 29030/1557 SLP175 T00781028=
201602251552 METAR KATL 251552Z 29018G28KT 10SM BKN040 BKN050 08/M02 A3003 RMK AO2 PK WND 27031/1500 SLP174 T00781022=
201602251452 METAR KATL 251452Z 29016G26KT 10SM FEW030 FEW050 07/M01 A3001 RMK AO2 PK WND 31026/1444 SLP167 T00671011 53027=
201602251352 METAR KATL 251352Z 28013KT 10SM FEW026 BKN034 BKN055 05/M01 A2998 RMK AO2 SLP157 T00501006=
201602251252 METAR KATL 251252Z 29011KT 10SM BKN033 BKN045 05/M01 A2995 RMK AO2 SLP145 T00501006=
201602251152 METAR KATL 251152Z 28009KT 10SM BKN032 OVC045 05/00 A2993 RMK AO2 SLP139 60000 70017 T00500000 10050 20044 53014=
201602251052 METAR KATL 251052Z 27012KT 10SM BKN038 OVC055 05/00 A2991 RMK AO2 SLP131 T00500000=
201602250952 METAR KATL 250952Z 27011G18KT 10SM FEW028 OVC040 05/01 A2990 RMK AO2 SLP127 T00500011=
201602250852 METAR KATL 250852Z 27010G19KT 10SM FEW028 BKN042 OVC055 05/01 A2989 RMK AO2 SLP124 60000 T00500011 55001=
201602250752 METAR KATL 250752Z 28011KT 10SM OVC032 05/02 A2988 RMK AO2 SLP120 T00500017=
201602250652 METAR KATL 250652Z 27011KT 10SM SCT028 BKN042 OVC065 04/02 A2989 RMK AO2 RAE24 SLP124 P0000 T00440017=
201602250552 METAR KATL 250552Z 28016G21KT 9SM -RA SCT020 BKN032 OVC050 05/02 A2989 RMK AO2 RAB0457E17B46 SLP124 P0000 60000 T00500017 10067 20050 51014=
201602250452 METAR KATL 250452Z 27011G19KT 10SM FEW020 BKN035 OVC050 06/02 A2988 RMK AO2 RAB25E34 SLP118 P0000 T00560017 401830050=
201602250352 METAR KATL 250352Z 27010G18KT 10SM FEW020 BKN040 OVC050 06/01 A2987 RMK AO2 RAE0256 SLP115 P0000 T00560011=
201602250252 METAR KATL 250252Z 27011G22KT 10SM -RA FEW020 BKN035 OVC050 05/01 A2985 RMK AO2 PK WND 29028/0156 RAB24 SLP107 PCPN VRY LGT P0000 60000 T00500011 51041=
201602250152 METAR KATL 250152Z 27016G22KT 10SM FEW025 OVC035 06/00 A2982 RMK AO2 PK WND 26027/0054 RAB05E16 SLP096 BINOVC P0000 T00610000=
201602250052 METAR KATL 250052Z 26017G28KT 10SM SCT027 BKN035 BKN050 BKN200 07/01 A2977 RMK AO2 PK WND 28028/0044 RAE2358 SLP080 P0000 T00670006=
201602242352 METAR KATL 242352Z 26019G26KT 10SM -RA SCT025 BKN035 BKN050 07/02 A2972 RMK AO2 PK WND 26026/2351 RAB07E21B49 SLP065 PCPN VRY LGT P0000 60001 T00670017 10128 20067 53031=
201602242252 METAR KATL 242252Z 27018G25KT 10SM SCT032 BKN045 BKN060 08/03 A2969 RMK AO2 PK WND 25030/2209 RAE30 SLP053 VCSH SW P0000 T00780028=
201602242152 METAR KATL 242152Z 26017G23KT 10SM -RA FEW030 BKN050 BKN060 09/02 A2966 RMK AO2 PK WND 25031/2101 RAE25B51 SLP040 SHRA DSNT N & E P0000 T00890022=
201602242052 METAR KATL 242052Z 24021G28KT 7SM -RA FEW035 BKN045 BKN060 09/04 A2963 RMK AO2 PK WND 26031/2018 RAB02 SLP032 VIS LWR SW-NW SHRA P0000 60001 T00890039 51013=
201602241952 METAR KATL 241952Z 25015G21KT 10SM FEW020 BKN030 OVC050 09/05 A2961 RMK AO2 PK WND 24028/1922 RAB1858E27 SLP025 SHRA DSNT NE-SE P0000 T00940050=
201602241949 SPECI KATL 241949Z 24012KT 10SM FEW020 BKN030 OVC050 09/05 A2961 RMK AO2 PK WND 24028/1922 RAB1858E27 SHRA DSNT NE-SE P0000=
201602241923 SPECI KATL 241923Z 25019G28KT 10SM -RA SCT015 BKN025 OVC030 09/06 A2960 RMK AO2 PK WND 24028/1922 RAB1858 VIS LWR VC NE-SE SHRA P0000 T00940056=
201602241917 SPECI KATL 241917Z 26018G26KT 5SM -RA SCT015 BKN020 OVC030 09/07 A2960 RMK AO2 PK WND 25026/1917 RAB1858 VIS LWR VC N & E SHRA P0000 T00940067=
201602241909 SPECI KATL 241909Z 24015G25KT 10SM -RA SCT020 BKN030 OVC050 10/07 A2959 RMK AO2 RAB1858 VIS LWR VC N & E & SW-NW SHRA P0000 T01000067=
201602241904 SPECI KATL 241904Z 23014G25KT 4SM -RA FEW020 BKN030 OVC060 10/07 A2959 RMK AO2 RAB1858 P0000 T01000067=
201602241852 METAR KATL 241852Z 24017G26KT 10SM SCT020 BKN030 OVC060 11/07 A2959 RMK AO2 PK WND 21031/1756 RAB16E39 SLP017 SHRA VC NE-SE P0001 T01060067=
201602241828 SPECI KATL 241828Z 24019G30KT 9SM -RA FEW020 BKN030 OVC060 10/06 A2959 RMK AO2 PK WND 21031/1756 RAB16 VIS LWR NE-SE SHRA P0001 T01000061=
201602241823 SPECI KATL 241823Z 24017G29KT 5SM -RA SCT025 BKN030 OVC060 11/06 A2959 RMK AO2 PK WND 21031/1756 RAB16 P0000 T01060061=
201602241818 SPECI KATL 241818Z 23017G29KT 6SM -RA BKN025 BKN030 BKN060 12/06 A2958 RMK AO2 PK WND 21031/1756 RAB16 P0000 T01170056=
201602241752 METAR KATL 241752Z 22016G33KT 10SM BKN030 BKN040 BKN050 13/06 A2958 RMK AO2 PK WND 21033/1746 SLP013 SHRA DSNT SW-NW 60016 T01280056 10167 20122 51029=
201602241652 METAR KATL 241652Z 22020G33KT 10SM SCT035 BKN050 BKN060 13/05 A2956 RMK AO2 PK WND 23034/1620 SLP009 SHRA DSNT SW-NW T01330050=
201602241552 METAR KATL 241552Z 20019G28KT 10SM BKN040 BKN060 14/07 A2953 RMK AO2 PK WND 22035/1502 SLP996 T01440067=
201602241502 SPECI KATL 241502Z 22022G35KT 10SM BKN040 BKN050 17/08 A2949 RMK AO2 PK WND 22035/1502 T01670083=
201602241452 METAR KATL 241452Z 21020G32KT 10SM FEW040 16/09 A2949 RMK AO2 PK WND 23034/1422 SLP982 TCU DSNT NE-SE 60016 T01610089 53016=
201602241352 METAR KATL 241352Z 22012KT 10SM FEW026 SCT036 SCT050 16/12 A2947 RMK AO2 PK WND 24031/1254 RAB1255E45 SLP976 P0016 T01560122 $=
201602241252 METAR KATL 241252Z COR 25021G31KT 8SM SCT018CB SCT022 BKN044 16/12 A2945 RMK AO2 PK WND 24031/1252 SLP968 CB NE-OHD-SW MOV NE VIS LWR N-NE T01560122=
201602241152 METAR KATL 241152Z 21010G18KT 10SM FEW012 SCT100 16/13 A2944 RMK AO2 RAE34 SLP966 CB DSNT NE P0005 60047 70146 T01610133 10183 20139 56009=
201602241052 METAR KATL 241052Z 20009KT 7SM -RA FEW007CB SCT018 OVC060 17/16 A2944 RMK AO2 PK WND 16034/1011 RAB05E18B23 SLP966 CB NW-N MOV NE P0008 T01720156=
201602241039 SPECI KATL 241039Z 21014G24KT 7SM -RA SCT011CB BKN029 OVC070 18/16 A2943 RMK AO2 PK WND 16034/1011 RAB05E18B23 CB S-OHD-N MOV NE P0007 T01780156=
201602241020 SPECI KATL 241020Z 19017G34KT 7SM SCT009CB SCT024 BKN048 18/15 A2942 RMK AO2 PK WND 16034/1011 RAB05E18 CB W-NW MOV NE SHRA SW-NW P0000 T01780150 $=
201602241006 SPECI KATL 241006Z 18014G33KT 7SM -RA SCT007CB BKN013 BKN020 18/16 A2942 RMK AO2 PK WND 18033/0957 RAB05 CB SW-NW MOV NE P0000 T01780156 $=
201602240952 METAR KATL 240952Z 18015G25KT 7SM BKN007CB BKN013 BKN050 17/16 A2941 RMK AO2 RAE08 SLP955 CB VC SW-NW MOV NE P0000 T01720156 $=
201602240933 SPECI KATL 240933Z 16013G19KT 7SM BKN007 BKN013 OVC019 17/16 A2942 RMK AO2 RAE08 P0000 T01670156 $=
201602240912 SPECI KATL 240912Z 15011KT 7SM SCT007 BKN013 OVC035 17/15 A2943 RMK AO2 RAE08 P0000 T01670150 $=
201602240852 METAR KATL 240852Z 16010KT 4SM -RA BR SCT007CB BKN018 OVC032 17/15 A2947 RMK AO2 SLP974 CB N-NE MOV NE P0020 60034 T01670150 56043 $=
201602240841 SPECI KATL 240841Z 17014KT 2SM +RA BR BKN009CB BKN015 OVC026 17/15 A2948 RMK AO2 CB S MOV NE P0014 T01670150 $=
201602240831 SPECI KATL 240831Z 16014KT 5SM -RA BR BKN009CB OVC023 17/15 A2947 RMK AO2 CB VC S MOV NE P0007 T01670150 $=
201602240811 SPECI KATL 240811Z 15009G23KT 3SM -RA BR SCT009CB BKN021 OVC035 17/14 A2947 RMK AO2 PRESFR CB SW-NW MOV NE P0002 T01670144=
201602240752 METAR KATL 240752Z 15007KT 6SM -RA BR BKN009 BKN017 OVC050 17/14 A2949 RMK AO2 RAB0656 SLP982 CIG 007V012 P0006 T01670144=
201602240749 SPECI KATL 240749Z 16008G15KT 6SM -RA BR BKN009 BKN017 OVC050 17/14 A2949 RMK AO2 RAB0656 CIG 007V012 P0006=
201602240659 SPECI KATL 240659Z 16014G25KT 10SM -RA SCT008 BKN014 OVC100 17/14 A2952 RMK AO2 RAB56 P0000 T01670144=
201602240652 METAR KATL 240652Z 17020G26KT 10SM BKN008 BKN015 OVC100 17/14 A2953 RMK AO2 PK WND 13031/0620 RAE44 SLP994 CIG 007V011 P0008 T01670139=
201602240630 SPECI KATL 240630Z 14012G23KT 100V170 5SM -RA BR BKN007 OVC038 16/14 A2950 RMK AO2 PK WND 13031/0620 CIG 005V009 P0008 T01560144=
201602240552 METAR KATL 240552Z 11015G22KT 1 1/2SM RA BR BKN005 OVC040 14/13 A2960 RMK AO2 SFC VIS 3 PRESFR SLP019 OCNL LTG DSNT SE-SW CIG 003V008 P0028 60078 T01390128 10139 20111 58039=
201602240509 SPECI KATL 240509Z 12011KT 1 1/2SM +RA BR BKN005 OVC030 13/12 A2965 RMK AO2 SFC VIS 2 1/2 CIG 003V008 P0007 T01280117=
201602240452 METAR KATL 240452Z 11008KT 3/4SM R09R/P6000FT RA BR BKN004 OVC030 13/12 A2965 RMK AO2 SFC VIS 3 RAB11 SLP038 CIG 002V006 P0009 T01280117 401560111=
201602240352 METAR KATL 240352Z 10013G22KT 1/2SM R09R/P6000FT BR OVC002 12/11 A2968 RMK AO2 SFC VIS 1 1/2 RAB18E50 SLP049 P0000 T01170106=
201602240339 SPECI KATL 240339Z 10014G21KT 1/2SM R09R/P6000FT -RA BR OVC002 12/11 A2968 RMK AO2 SFC VIS 1 1/2 RAB18 P0000 T01170106=
201602240311 SPECI KATL 240311Z 11014G20KT 1SM R09R/P6000FT OVC004 12/10 A2970 RMK AO2 SFC VIS 10 CIG 003V007 T01170100=
201602240252 METAR KATL 240252Z 10011KT 10SM OVC006 11/10 A2971 RMK AO2 RAE02 SLP061 CIG 004V008 P0000 60041 T01110100 58014=
201602240152 METAR KATL 240152Z 09014G20KT 7SM -RA BKN006 OVC050 11/10 A2972 RMK AO2 WSHFT 0103 SLP064 CIG 004V008 P0017 T01110100=
201602240123 SPECI KATL 240123Z 09014KT 6SM -RA BR BKN005 OVC015 11/10 A2974 RMK AO2 WSHFT 0103 CIG 003V008 P0013 T01110100=
201602240052 METAR KATL 240052Z 10009KT 5SM -RA BR OVC005 11/10 A2974 RMK AO2 SLP071 CIG 003V007 P0024 T01110100=
201602240015 SPECI KATL 240015Z 08017KT 2SM RA BR BKN005 OVC012CB 12/11 A2975 RMK AO2 SFC VIS 4 CIG 003V007 CB VC SW-W MOV NE P0008 T01170106=
201602232352 METAR KATL 232352Z 08014KT 1/2SM R09R/P6000FT RA BR OVC003 12/11 A2976 RMK AO2 SFC VIS 2 RAB30 SLP074 P0005 60009 T01170106 10156 20117 56014=
201602232252 METAR KATL 232252Z 09013KT 1/8SM R09R/2200V3500FT BR OVC002 12/11 A2976 RMK AO2 SFC VIS 3/4 SLP075 T01220111=
201602232152 METAR KATL 232152Z 08015KT 1/2SM R09R/P6000FT BR BCFG OVC003 13/12 A2977 RMK AO2 SFC VIS 2 SLP078 TWRINC T01330117=
201602232105 SPECI KATL 232105Z 09014KT 1/2SM R09R/P6000FT BR BKN003 BKN007 OVC010 13/12 A2979 RMK AO2 SFC VIS 4 TWRINC T01330122=
201602232052 METAR KATL 232052Z 08015KT 1 1/2SM BR BKN004 BKN007 OVC010 14/12 A2980 RMK AO2 SFC VIS 4 RAE15 SLP087 P0003 60004 T01390122 56025=
201602232008 SPECI KATL 232008Z 09011KT 1 1/2SM R09R/6000VP6000FT -RA BR BKN005 BKN008 OVC010 14/12 A2981 RMK AO2 SFC VIS 4 P0003 T01390122=
201602231952 METAR KATL 231952Z 08012KT 1SM R09R/P6000FT -RA BR BKN004 BKN008 OVC010 14/13 A2982 RMK AO2 SFC VIS 3 RAB24 SLP095 P0001 T01390128=
201602231928 SPECI KATL 231928Z 09013KT 1SM R09R/P6000FT -RA BR BKN004 BKN008 OVC010 14/13 A2983 RMK AO2 SFC VIS 3 RAB24 P0000 T01440128=
201602231900 SPECI KATL 231900Z 10009KT 1SM R09R/P6000FT BR BKN005 BKN008 OVC010 15/13 A2984 RMK AO2 SFC VIS 4 T01500133=
201602231852 METAR KATL 231852Z 10009KT 4SM BR BKN005 BKN008 OVC010 15/13 A2984 RMK AO2 SLP102 T01500133=
201602231752 METAR KATL 231752Z 10008KT 6SM BR FEW006 BKN008 OVC010 15/13 A2987 RMK AO2 RAB00E30 SLP113 P0001 60012 T01500133 10150 20144 58008=
201602231732 SPECI KATL 231732Z 11008KT 6SM BR FEW006 BKN008 OVC012 15/13 A2988 RMK AO2 RAB00E30 P0001 T01500133=
201602231718 SPECI KATL 231718Z 11008KT 2SM R09R/5500VP6000FT RA BR BKN006 BKN008 OVC012 15/13 A2988 RMK AO2 SFC VIS 2 1/2 VIS 1 1/4V5 RAB00 P0001 T01500133=
201602231652 METAR KATL 231652Z 10008KT 6SM BR BKN006 BKN015 OVC030 15/13 A2990 RMK AO2 RAB29E49 SLP122 P0000 T01500133=
201602231552 METAR KATL 231552Z 12009KT 2SM BR BKN005 BKN008 OVC010 14/13 A2990 RMK AO2 SFC VIS 4 RAB13E32 SLP123 P0000 T01440133=
201602231536 SPECI KATL 231536Z 12007KT 2SM BR BKN005 BKN008 OVC012 14/13 A2990 RMK AO2 SFC VIS 4 RAB13E32 P0000 T01440133=
201602231459 SPECI KATL 231459Z 12006KT 2SM BR OVC004 14/13 A2990 RMK AO2 SFC VIS 4 T01440133=
201602231452 METAR KATL 231452Z 12007KT 1 1/2SM BR OVC005 14/13 A2990 RMK AO2 SFC VIS 4 RAB11E38 SLP121 P0001 60011 T01440133 53008=
201602231359 SPECI KATL 231359Z 12007KT 1 1/2SM BR OVC004 14/13 A2989 RMK AO2 SFC VIS 5 CIG 003V005 T01440133=
201602231352 METAR KATL 231352Z 12007KT 1SM R09R/P6000FT BR OVC004 14/13 A2989 RMK AO2 SFC VIS 5 RAE44 SLP118 CIG 003V005 P0003 T01440133=
201602231339 SPECI KATL 231339Z 13005KT 1SM R09R/P6000FT -RA BR BKN004 OVC049 14/13 A2989 RMK AO2 SFC VIS 4 CIG 003V005 P0003 T01440133=
201602231252 METAR KATL 231252Z 13006KT 2SM -RA BR SCT004 BKN009 OVC050 14/13 A2988 RMK AO2 SFC VIS 2 1/2 SLP115 CIG 007V012 P0007 T01440133=
201602231215 SPECI KATL 231215Z 12004KT 2SM -RA BR SCT004 BKN009 OVC070 14/13 A2988 RMK AO2 SFC VIS 4 CIG 007V012 P0002 T01440133=
201602231152 METAR KATL 231152Z 14003KT 5SM -RA BR SCT004 BKN009 OVC033 14/14 A2987 RMK AO2 RAB31 SLP113 CIG 007V012 P0000 60040 70202 T01440139 10150 20144 53008=
201602231052 METAR KATL 231052Z 14004KT 7SM BKN007 BKN034 OVC075 14/13 A2986 RMK AO2 SLP110 T01440133=
201602230952 METAR KATL 230952Z 16004KT 8SM FEW004 SCT040 OVC100 15/14 A2985 RMK AO2 RAE52 SLP105 P0000 T01500139 $=
201602230950 SPECI KATL 230950Z 16005KT 8SM -RA FEW004 SCT040 OVC100 15/14 A2985 RMK AO2 P0000 $=
201602230910 SPECI KATL 230910Z 17004KT 6SM -RA BR SCT008 BKN012 OVC028 15/14 A2985 RMK AO2 P0000 T01500139 $=
201602230852 METAR KATL 230852Z 18003KT 6SM -RA BR FEW005 BKN028 OVC050 15/14 A2985 RMK AO2 SLP103 P0003 60040 T01500139 58010 $=
201602230833 SPECI KATL 230833Z 18005KT 7SM -RA FEW005 BKN025 OVC055 15/14 A2985 RMK AO2 P0002 T01500139 $=
201602230752 METAR KATL 230752Z 19006KT 7SM -RA BKN005 OVC080 15/13 A2986 RMK AO2 SLP108 P0004 T01500133 $=
201602230750 SPECI KATL 230750Z 18005KT 7SM -RA BKN005 OVC080 14/13 A2986 RMK AO2 P0004 $=
201602230737 SPECI KATL 230737Z 00000KT 6SM -RA BR FEW008 SCT012 OVC080 15/14 A2985 RMK AO2 P0002 T01500139 $=
201602230726 SPECI KATL 230726Z 16004KT 8SM -RA BKN008 BKN012 OVC080 14/13 A2987 RMK AO2 P0002 T01440133 $=
201602230719 SPECI KATL 230719Z 15004KT 8SM -RA FEW008 BKN012 OVC080 14/13 A2987 RMK AO2 P0001 T01440133 $=
201602230652 METAR KATL 230652Z 00000KT 8SM -RA FEW014 OVC075 15/13 A2987 RMK AO2 SLP110 CB NE-SE MOV NE P0033 T01500133 $=
201602230634 SPECI KATL 230634Z 22003KT 7SM -RA SCT004 SCT014CB OVC065 15/13 A2988 RMK AO2 CB NE-SE MOV NE P0032 T01500133 $=
201602230620 SPECI KATL 230620Z 32005KT 1SM R09R/5500VP6000FT +RA BR BKN004 OVC010CB 14/13 A2988 RMK AO2 SFC VIS 1 1/4 CB SW-OHD-N MOV NE P0023 T01440133=
201602230618 SPECI KATL 230618Z 31007KT 2SM R09R/5500VP6000FT +RA BR BKN004 OVC010CB 14/13 A2988 RMK AO2 CB SW-OHD-N MOV NE P0016 T01440133=
201602230552 METAR KATL 230552Z 06004KT 2SM RA BR FEW004 BKN012CB OVC080 14/13 A2988 RMK AO2 SFC VIS 3 SLP115 CB VC SW MOV NE P0012 60043 T01440133 10150 20144 58010=
201602230452 METAR KATL 230452Z 09007KT 2SM RA BR SCT004 BKN015 OVC060 14/13 A2989 RMK AO2 SFC VIS 4 SLP120 SCT004 V BKN P0010 T01440133 401720144=
201602230352 METAR KATL 230352Z 08006KT 2SM -RA BR BKN005 OVC050 14/13 A2990 RMK AO2 SFC VIS 4 SLP123 CIG 003V007 P0007 T01440133=
201602230311 SPECI KATL 230311Z 09006KT 2SM -RA BR BKN005 OVC050 14/13 A2991 RMK AO2 SFC VIS 3 CIG 003V007 P0003 T01440133=
201602230252 METAR KATL 230252Z 13007KT 4SM -RA BR SCT004 BKN030 OVC090 14/13 A2991 RMK AO2 SLP126 SCT004 V BKN P0002 60014 T01440133 55007=
201602230212 SPECI KATL 230212Z 11004KT 5SM -RA BR SCT004 BKN060 OVC100 14/13 A2990 RMK AO2 P0001 T01440133=
201602230201 SPECI KATL 230201Z 10005KT 1 1/2SM -RA BR BKN004 BKN060 OVC100 14/13 A2991 RMK AO2 SFC VIS 6 P0000 T01440133=
201602230152 METAR KATL 230152Z 10005KT 1SM R09R/P6000FT -RA BR BKN004 BKN060 OVC090 14/13 A2990 RMK AO2 SFC VIS 6 SLP124 CIG 003V006 P0001 T01440133=
201602230139 SPECI KATL 230139Z 10007KT 1SM R09R/P6000FT -RA BR SCT003 BKN060 OVC090 15/13 A2991 RMK AO2 SFC VIS 5 P0001 T01500133=
201602230052 METAR KATL 230052Z 34003KT 5SM -RA BR FEW004 BKN055 OVC080 15/14 A2991 RMK AO2 SLP126 CB DSNT SE-S P0011 T01500139=
201602230039 SPECI KATL 230039Z 32006KT 3SM RA BR FEW004 BKN045 OVC080 14/13 A2992 RMK AO2 P0009 T01440133=
201602230011 SPECI KATL 230011Z 00000KT 4SM -RA BR SCT007 BKN020 OVC080 15/13 A2993 RMK AO2 P0002 T01500133=
201602222352 METAR KATL 222352Z 19003KT 5SM -RA BR FEW018CB BKN050 OVC090 14/13 A2993 RMK AO2 SLP133 CB VC SE MOV NE P0018 60033 T01440128 10172 20144 53003=
201602222333 SPECI KATL 222333Z 32003KT 4SM RA BR FEW018 BKN035 OVC080 14/13 A2992 RMK AO2 P0017 T01440128=
201602222324 SPECI KATL 222324Z 00000KT 2SM R09R/5500VP6000FT +RA BR SCT018 BKN030 OVC080 14/13 A2993 RMK AO2 P0007 T01440133=
201602222311 SPECI KATL 222311Z 00000KT 5SM -RA BR SCT020 BKN045 OVC090 15/13 A2992 RMK AO2 P0003 T01500133=
201602222252 METAR KATL 222252Z 00000KT 6SM -RA BR FEW010 BKN018 OVC080 15/13 A2992 RMK AO2 SLP128 P0012 T01500133=
201602222248 SPECI KATL 222248Z 00000KT 4SM RA BR FEW010 BKN018 OVC080 15/13 A2992 RMK AO2 P0012=
201602222244 SPECI KATL 222244Z 00000KT 2 1/2SM +RA BR FEW010 BKN018 OVC080 15/13 A2991 RMK AO2 P0011 T01500133=
201602222159 SPECI KATL 222159Z 19004KT 9SM -RA FEW012 BKN020 OVC080 16/14 A2992 RMK AO2 P0000 T01610139=
201602222152 METAR KATL 222152Z 20004KT 8SM -RA BKN012 BKN020 OVC080 16/14 A2992 RMK AO2 SLP130 P0003 T01610139=
201602222125 SPECI KATL 222125Z VRB03KT 6SM -RA BR BKN010 BKN075 OVC085 16/14 A2992 RMK AO2 P0002 T01610139=
201602222052 METAR KATL 222052Z 20003KT 7SM -RA SCT015 BKN075 OVC090 17/13 A2992 RMK AO2 RAB16 SLP129 P0000 60000 T01670133 56019=
201602221952 METAR KATL 221952Z 00000KT 10SM FEW010 BKN080 OVC100 17/14 A2992 RMK AO2 SLP129 T01720139=
201602221852 METAR KATL 221852Z 00000KT 10SM SCT015 BKN080 OVC100 17/14 A2994 RMK AO2 RAE1758 SLP133 P0000 T01720139=
201602221752 METAR KATL 221752Z 22005KT 9SM -RA FEW010 SCT050 OVC070 16/14 A2998 RMK AO2 SLP148 P0003 60086 T01610139 10172 20156 58006=
201602221701 SPECI KATL 221701Z 25003KT 5SM -RA BR FEW009 BKN065 OVC080 16/14 A3000 RMK AO2 P0001 T01560139=
201602221652 METAR KATL 221652Z 24006KT 6SM -RA BR FEW010 BKN070 OVC090 16/14 A3000 RMK AO2 RAB22 SLP157 P0002 T01560139=
201602221552 METAR KATL 221552Z 23005KT 10SM FEW005 SCT015 OVC110 16/14 A3000 RMK AO2 RAE24 SLP155 P0001 T01610144=
201602221550 SPECI KATL 221550Z 23005KT 10SM SCT005 BKN015 OVC110 16/14 A3000 RMK AO2 RAE24 P0001=
201602221522 SPECI KATL 221522Z 21008KT 10SM -RA FEW005 BKN045 OVC085 16/14 A3000 RMK AO2 P0001 T01610144=
201602221452 METAR KATL 221452Z 23004KT 4SM -RA BR FEW030 BKN070 OVC090 16/14 A2999 RMK AO2 TSE22 SLP152 TS MOV E P0008 60080 T01560139 50005=
201602221423 SPECI KATL 221423Z 23003KT 4SM -RA BR FEW010 SCT030 OVC080 16/14 A2999 RMK AO2 TSE22 TS MOV E P0005 T01560139=
201602221417 SPECI KATL 221417Z 00000KT 5SM -TSRA BR FEW010CB SCT030 OVC070 16/14 A3000 RMK AO2 OCNL LTGICCG N & E TS VC N & E MOV E P0005 T01560144=
201602221352 METAR KATL 221352Z 24006KT 2SM R09R/5500VP6000FT +TSRA BR SCT009CB BKN027 OVC033 16/14 A3001 RMK AO2 TSB35 SLP159 FRQ LTGICCG OHD-N TS OHD-N MOV NE P0049 T01560139=
201602221342 SPECI KATL 221342Z 22006KT 1 1/2SM R09R/4500VP6000FT +TSRA BR FEW003 BKN012CB OVC027 16/14 A3001 RMK AO2 TSB35 FRQ LTGICCG OHD-N TS OHD-N MOV NE P0040 T01560144=
201602221335 SPECI KATL 221335Z 24010KT 2 1/2SM R09R/5000VP6000FT +TSRA BR SCT008CB BKN015CB OVC065 16/14 A3001 RMK AO2 TSB35 OCNL LTGICCG OHD-W TS OHD-W MOV NE P0026 T01560139=
201602221329 SPECI KATL 221329Z 22007KT 1 1/2SM R09R/4500VP6000FT +RA BR SCT008CB BKN015 OVC065 16/14 A3000 RMK AO2 CB OHD MOV NE P0022 T01560139=
201602221309 SPECI KATL 221309Z 24005KT 4SM -RA BR BKN017CB BKN040 OVC070 16/14 A2998 RMK AO2 CB OHD-S-SW MOV NE VIS LWR SW P0004 T01560144=
201602221301 SPECI KATL 221301Z 18003KT 1 1/2SM -RA BR FEW007 BKN014CB OVC070 16/14 A2998 RMK AO2 P0002 T01560144=
201602221252 METAR KATL 221252Z COR 19009G19KT 1 1/2SM R09R/4000VP6000FT RA SCT008 BKN014CB OVC040 17/12 A2998 RMK AO2 RAE15B34 SLP148 CB OHD-S-SW MOV NE P0023 T01670122=
201602221250 SPECI KATL 221250Z 1 1/2SM R09R/4000VP6000FT +RA SCT008 BKN014CB OVC040 17/12 A2998 RMK AO2 RAE15B34 CB OHD-S-SW MOV NE P0010=
201602221233 SPECI KATL 221233Z 23003KT 6SM BR SCT006 BKN012CB OVC017 16/14 A2999 RMK AO2 RAE15 CB VC S-SW MOV NE P0002 T01560144=
201602221207 SPECI KATL 221207Z 21004KT 7SM -RA SCT008 BKN017CB OVC034 16/14 A2998 RMK AO2 CB VC SE-SW MOV NE P0002 T01560139=
201602221152 METAR KATL 221152Z 24004KT 9SM -RA BKN017CB BKN024 OVC034 16/14 A2998 RMK AO2 RAB43 SLP147 CB VC SE-S MOV NE P0000 60000 70004 T01560139 10167 20156 53002=
201602221115 SPECI KATL 221115Z 24003KT 9SM BKN022 BKN034 OVC044 16/14 A2997 RMK AO2 T01560139=
201602221052 METAR KATL 221052Z 24003KT 10SM SCT020 SCT027 OVC044 16/14 A2996 RMK AO2 SLP143 T01560139=
201602221021 SPECI KATL 221021Z 24003KT 10SM BKN021 BKN027 OVC034 16/14 A2996 RMK AO2 T01560139=
201602220952 METAR KATL 220952Z 25003KT 9SM FEW021 BKN035 OVC060 16/14 A2997 RMK AO2 SLP144 T01560139=
201602220902 SPECI KATL 220902Z 23004KT 9SM SCT028 BKN035 OVC049 16/14 A2997 RMK AO2 T01560139=
201602220852 METAR KATL 220852Z 24004KT 9SM SCT022 BKN027 OVC041 16/14 A2997 RMK AO2 RAB0759E08 SLP144 P0000 60000 T01560139 58012=
201602220839 SPECI KATL 220839Z 22005KT 9SM BKN027 BKN046 OVC075 16/14 A2997 RMK AO2 RAB0759E08 P0000 T01560139=
201602220752 METAR KATL 220752Z 24004KT 10SM FEW020 BKN041 OVC070 16/14 A2999 RMK AO2 RAB34E49 SLP151 P0000 T01610139=
201602220652 METAR KATL 220652Z 25004KT 10SM SCT038 OVC055 17/14 A3000 RMK AO2 SLP156 T01670139=
201602220552 METAR KATL 220552Z 24005KT 10SM BKN040 OVC055 17/14 A3001 RMK AO2 SLP158 T01670139 10172 20161 58016=
201602220452 METAR KATL 220452Z 24006KT 10SM SCT030 OVC050 17/14 A3002 RMK AO2 SLP164 T01670139 401940128=
201602220352 METAR KATL 220352Z 23005KT 10SM SCT028 OVC036 17/14 A3004 RMK AO2 SLP170 T01670139=
201602220252 METAR KATL 220252Z 24008KT 10SM OVC032 17/14 A3006 RMK AO2 SLP175 T01670139 53004=
201602220152 METAR KATL 220152Z 23007KT 10SM FEW040 SCT075 BKN110 OVC200 17/13 A3005 RMK AO2 SLP173 T01670133=
201602220052 METAR KATL 220052Z COR 22007KT 10SM SCT030 BKN042 BKN110 OVC200 17/13 A3005 RMK AO2 SLP172 T01670133=
201602212352 METAR KATL 212352Z 22007KT 10SM BKN033 BKN110 OVC200 17/13 A3004 RMK AO2 SLP171 60000 T01720133 10194 20161 53001=
201602212252 METAR KATL 212252Z 22005KT 10SM SCT032 BKN100 OVC200 18/13 A3004 RMK AO2 RAE01B22E34 SLP168 VCSH NW-NE P0000 T01780133=
201602212152 METAR KATL 212152Z 24008KT 10SM -RA FEW025 SCT060 OVC100 18/13 A3004 RMK AO2 RAB30 SLP168 P0000 T01780133=
201602212052 METAR KATL 212052Z 25011G17KT 10SM SCT027 SCT032 BKN050 19/13 A3004 RMK AO2 SLP170 T01890133 56014=
201602211952 METAR KATL 211952Z 25009KT 10SM FEW012 BKN100 OVC200 18/14 A3005 RMK AO2 SLP171 T01830139=
201602211930 SPECI KATL 211930Z 25007KT 9SM SCT010 BKN100 17/14 A3005 RMK AO2 T01720139=
201602211903 SPECI KATL 211903Z 25009G16KT 9SM BKN010 OVC110 17/13 A3005 RMK AO2 BKN010 V SCT T01670133=
201602211852 METAR KATL 211852Z 26009KT 10SM SCT010 BKN110 17/14 A3006 RMK AO2 SLP177 T01670139=
201602211846 SPECI KATL 211846Z 25008KT 10SM SCT009 BKN110 17/13 A3006 RMK AO2=
201602211752 METAR KATL 211752Z 28011KT 10SM SCT009 SCT035 OVC090 16/14 A3009 RMK AO2 RAE20 SLP186 P0001 60004 T01610139 10161 20133 58012=
201602211652 METAR KATL 211652Z 24011G16KT 7SM -RA SCT008 SCT048 OVC090 15/13 A3011 RMK AO2 SLP193 SCT008 V BKN P0001 T01500133=
201602211646 SPECI KATL 211646Z 24011KT 7SM -RA SCT008 SCT048 OVC090 15/13 A3011 RMK AO2 SCT008 V BKN P0001=
201602211637 SPECI KATL 211637Z 24011KT 7SM -RA BKN007 OVC090 15/13 A3012 RMK AO2 P0001 T01500133=
201602211552 METAR KATL 211552Z 23011KT 7SM -RA SCT007 OVC085 14/13 A3012 RMK AO2 SLP198 P0001 T01440128=
201602211524 SPECI KATL 211524Z 23009KT 5SM -RA BR FEW009 SCT080 OVC090 14/13 A3013 RMK AO2 P0001 T01440128=
201602211452 METAR KATL 211452Z 22006KT 9SM -RA FEW024 OVC085 14/12 A3013 RMK AO2 RAB16 SLP200 P0001 60001 T01440122 53000=
201602211352 METAR KATL 211352Z 20006KT 10SM FEW025 SCT050 OVC130 14/12 A3012 RMK AO2 PRESFR SLP197 SHRA VC W-NW T01390117=
201602211252 METAR KATL 211252Z 23007KT 9SM FEW025 BKN046 OVC130 13/12 A3014 RMK AO2 RAB16E34 SLP203 P0000 T01330117=
201602211152 METAR KATL 211152Z 21005KT 10SM FEW025 SCT045 BKN110 OVC180 14/12 A3013 RMK AO2 SLP200 T01390117 10144 20128 53001=
201602211052 METAR KATL 211052Z 22004KT 10SM SCT049 BKN110 OVC180 13/11 A3012 RMK AO2 SLP197 T01330111=
201602210952 METAR KATL 210952Z 22004KT 10SM BKN044 OVC110 14/12 A3011 RMK AO2 SLP195 T01390117=
201602210852 METAR KATL 210852Z 24004KT 10SM SCT039 OVC150 13/11 A3013 RMK AO2 SLP199 T01280111 58005=
201602210752 METAR KATL 210752Z 00000KT 10SM BKN039 OVC250 14/11 A3014 RMK AO2 SLP204 T01440111=
201602210652 METAR KATL 210652Z 19003KT 10SM BKN038 OVC250 14/11 A3014 RMK AO2 SLP205 T01390111=
201602210552 METAR KATL 210552Z 00000KT 10SM BKN038 BKN100 OVC180 14/11 A3014 RMK AO2 SLP205 T01390111 10161 20133 58013=
201602210452 METAR KATL 210452Z 00000KT 10SM BKN040 BKN110 OVC180 13/11 A3016 RMK AO2 SLP212 T01330111 401720094=
201602210352 METAR KATL 210352Z 18003KT 10SM FEW040 SCT120 OVC180 14/11 A3017 RMK AO2 SLP213 T01390111=
201602210252 METAR KATL 210252Z 21003KT 10SM FEW040 SCT130 BKN180 OVC250 14/11 A3018 RMK AO2 SLP218 T01390111 58001=
201602210152 METAR KATL 210152Z 20003KT 10SM FEW040 SCT110 OVC200 14/12 A3018 RMK AO2 SLP219 T01440117=
201602210052 METAR KATL 210052Z 18005KT 10SM SCT035 BKN110 OVC200 16/12 A3018 RMK AO2 SLP219 T01560117=
201602202352 METAR KATL 202352Z 17005KT 10SM FEW035 SCT110 BKN200 OVC250 16/12 A3018 RMK AO2 SLP219 VIRGA OHD-ALQDS 60000 T01610117 10172 20161 56001=
201602202307 SPECI KATL 202307Z 19005KT 10SM SCT027 BKN035 BKN100 OVC200 17/12 A3019 RMK AO2 VIRGA NW-NE-E T01670117=
201602202252 METAR KATL 202252Z 24004KT 10SM BKN026 BKN080 OVC110 17/12 A3019 RMK AO2 RAE22 SLP224 P0000 T01670117=
201602202244 SPECI KATL 202244Z 26005KT 10SM BKN026 BKN080 OVC110 17/12 A3020 RMK AO2 RAE22 P0000 T01720117=
201602202152 METAR KATL 202152Z 22009KT 10SM -RA FEW025 BKN085 BKN100 OVC150 17/12 A3017 RMK AO2 RAB44 SLP214 PCPN VRY LGT P0000 T01720117=
201602202052 METAR KATL 202052Z 19006KT 10SM FEW025 BKN120 OVC150 17/12 A3018 RMK AO2 SLP219 T01720117 58019=
201602201952 METAR KATL 201952Z 19008KT 10SM FEW022 OVC160 17/12 A3020 RMK AO2 SLP227 T01670117=
201602201859 SPECI KATL 201859Z 24006KT 10SM SCT020 BKN045 OVC180 17/11 A3022 RMK AO2 T01670111=
201602201852 METAR KATL 201852Z 24007KT 10SM BKN019 OVC180 17/12 A3023 RMK AO2 SLP236 T01670117=
201602201822 SPECI KATL 201822Z 23007KT 10SM BKN019 OVC180 17/11 A3024 RMK AO2 T01670111=
201602201752 METAR KATL 201752Z VRB06KT 10SM SCT018 OVC180 17/11 A3024 RMK AO2 SLP240 T01670111 10167 20106 58014=
201602201734 SPECI KATL 201734Z 23008KT 10SM SCT016 OVC180 16/12 A3025 RMK AO2 T01610117=
201602201715 SPECI KATL 201715Z 24007KT 10SM BKN016 OVC180 16/11 A3026 RMK AO2 T01610111=
201602201652 METAR KATL 201652Z 24007KT 10SM BKN014 OVC180 16/11 A3027 RMK AO2 SLP249 T01560111=
201602201552 METAR KATL 201552Z 25008KT 10SM OVC012 14/11 A3028 RMK AO2 SLP255 T01440106=
201602201452 METAR KATL 201452Z 23006KT 10SM OVC011 13/10 A3028 RMK AO2 SLP255 T01330100 51013=
201602201352 METAR KATL 201352Z 24003KT 10SM BKN013 BKN050 OVC180 12/09 A3028 RMK AO2 SLP254 T01220089=
201602201349 SPECI KATL 201349Z 22005KT 10SM BKN013 BKN050 OVC180 12/09 A3027 RMK AO2=
201602201252 METAR KATL 201252Z 23007KT 10SM FEW015 FEW050 BKN180 BKN250 12/08 A3025 RMK AO2 SLP244 T01170078=
201602201152 METAR KATL 201152Z 21005KT 10SM FEW015 SCT150 BKN200 11/07 A3024 RMK AO2 SLP242 T01060072 10117 20094 50001=
201602201052 METAR KATL 201052Z 22003KT 10SM FEW034 FEW150 BKN200 11/07 A3025 RMK AO2 SLP242 T01060067=
201602200952 METAR KATL 200952Z 22004KT 10SM SCT034 SCT150 BKN220 11/06 A3024 RMK AO2 SLP239 T01060061=
201602200852 METAR KATL 200852Z COR 22005KT 10SM SCT034 BKN150 BKN220 12/06 A3024 RMK AO2 SLP239 T01170061 58008=
201602200752 METAR KATL 200752Z 23004KT 10SM FEW200 BKN250 10/04 A3026 RMK AO2 SLP246 T01000044=
201602200652 METAR KATL 200652Z 23005KT 10SM FEW200 BKN250 10/03 A3027 RMK AO2 SLP248 T01000033=
201602200552 METAR KATL 200552Z 21004KT 10SM FEW200 SCT250 10/03 A3027 RMK AO2 SLP249 T01000028 10150 20094 55000=
201602200452 METAR KATL 200452Z 00000KT 10SM FEW200 11/02 A3027 RMK AO2 SLP249 T01110017 401830044=
201602200352 METAR KATL 200352Z 18004KT 10SM FEW250 11/02 A3026 RMK AO2 SLP249 T01110017=
201602200252 METAR KATL 200252Z 15004KT 10SM CLR 12/01 A3027 RMK AO2 SLP250 T01220011 53001=
201602200152 METAR KATL 200152Z 16006KT 10SM CLR 13/01 A3027 RMK AO2 SLP251 T01280011=
201602200052 METAR KATL 200052Z 16007KT 10SM CLR 14/01 A3026 RMK AO2 SLP248 T01390006=
201602192352 METAR KATL 192352Z 16006KT 10SM CLR 15/01 A3026 RMK AO2 SLP251 T01500006 10183 20150 58010=
201602192252 METAR KATL 192252Z 17012KT 10SM CLR 17/01 A3028 RMK AO2 SLP256 T01720006=
201602192152 METAR KATL 192152Z 18014KT 10SM CLR 18/00 A3028 RMK AO2 WSHFT 2054 SLP254 T01780000=
201602192114 SPECI KATL 192114Z 17013G20KT 10SM CLR 18/00 A3029 RMK AO2 WSHFT 2054 T01780000=
201602192052 METAR KATL 192052Z 15011G18KT 10SM CLR 18/00 A3030 RMK AO2 SLP259 T01780000 56036=
201602191952 METAR KATL 191952Z 17012G17KT 10SM CLR 17/M01 A3033 RMK AO2 SLP271 T01721006=
201602191852 METAR KATL 191852Z 16006G15KT 10SM CLR 17/00 A3037 RMK AO2 SLP283 T01670000=
201602191752 METAR KATL 191752Z 15010KT 110V180 10SM CLR 15/M01 A3041 RMK AO2 SLP298 T01501006 10150 20044 58026=
201602191652 METAR KATL 191652Z 13009KT 10SM CLR 14/01 A3045 RMK AO2 SLP314 T01390006=
201602191552 METAR KATL 191552Z 15012G15KT 10SM CLR 12/02 A3048 RMK AO2 SLP323 T01220017=
201602191452 METAR KATL 191452Z 14008KT 10SM CLR 09/02 A3048 RMK AO2 SLP325 T00940022 51019=
201602191352 METAR KATL 191352Z 13007KT 10SM CLR 07/02 A3047 RMK AO2 SLP321 T00720017=
201602191252 METAR KATL 191252Z 12005KT 10SM CLR 05/01 A3045 RMK AO2 SLP315 T00500006=
201602191152 METAR KATL 191152Z 13005KT 10SM CLR 04/00 A3043 RMK AO2 SLP307 T00440000 10083 20044 53011=
201602191052 METAR KATL 191052Z 13005KT 10SM CLR 05/00 A3041 RMK AO2 SLP301 T00500000=
201602190952 METAR KATL 190952Z 13004KT 10SM CLR 05/00 A3040 RMK AO2 SLP296 T00500000=
201602190852 METAR KATL 190852Z 12005KT 10SM CLR 06/00 A3039 RMK AO2 SLP293 T00610000 58003=
201602190752 METAR KATL 190752Z 13005KT 10SM FEW250 07/00 A3040 RMK AO2 SLP297 T00670000=
201602190652 METAR KATL 190652Z 13004KT 10SM FEW250 07/00 A3040 RMK AO2 SLP297 T00720000=
201602190552 METAR KATL 190552Z 13005KT 10SM FEW250 08/00 A3040 RMK AO2 SLP297 T00830000 10133 20083 58002=
201602190452 METAR KATL 190452Z 13004KT 10SM SCT250 09/00 A3040 RMK AO2 SLP298 T00890000 401610006=
201602190352 METAR KATL 190352Z 13004KT 10SM SCT250 10/00 A3041 RMK AO2 SLP300 T01000000=
201602190252 METAR KATL 190252Z 13004KT 10SM SCT250 11/00 A3041 RMK AO2 SLP300 T01060000 53011=
201602190152 METAR KATL 190152Z 14004KT 10SM FEW250 11/00 A3039 RMK AO2 SLP295 T01110000=
201602190052 METAR KATL 190052Z 14004KT 10SM SCT250 13/M01 A3038 RMK AO2 SLP294 T01281006=
201602182352 METAR KATL 182352Z 14005KT 10SM SCT250 13/M01 A3037 RMK AO2 SLP290 T01331006 10161 20117 58003=
201602182252 METAR KATL 182252Z 15003KT 10SM BKN250 15/M02 A3038 RMK AO2 SLP291 T01501017=
201602182152 METAR KATL 182152Z 09003KT 10SM SCT250 16/M02 A3038 RMK AO2 SLP292 T01561017=
201602182052 METAR KATL 182052Z 34004KT 10SM FEW250 16/M01 A3038 RMK AO2 SLP292 T01611011 56019=
201602181952 METAR KATL 181952Z 05003KT 10SM FEW250 15/M02 A3039 RMK AO2 SLP295 T01501017=
201602181852 METAR KATL 181852Z 00000KT 10SM FEW250 13/M01 A3041 RMK AO2 SLP301 T01281006=
201602181752 METAR KATL 181752Z 21005KT 10SM FEW250 12/M01 A3044 RMK AO2 SLP313 T01171006 10122 20006 58008=
201602181652 METAR KATL 181652Z 00000KT 10SM FEW250 10/M01 A3046 RMK AO2 SLP321 T01001011=
201602181552 METAR KATL 181552Z 12007KT 070V160 10SM CLR 09/M01 A3047 RMK AO2 SLP325 T00891006=
201602181452 METAR KATL 181452Z COR 11009KT 10SM FEW250 07/M01 A3047 RMK AO2 SLP323 T00671011 53026=
201602181352 METAR KATL 181352Z 07006KT 10SM CLR 06/M01 A3043 RMK AO2 SLP310 T00561011=
201602181252 METAR KATL 181252Z 03005KT 10SM CLR 02/M02 A3041 RMK AO2 SLP304 T00221017=
201602181152 METAR KATL 181152Z 33007KT 10SM CLR 01/M02 A3039 RMK AO2 SLP297 T00061017 10033 20006 53023=
201602181052 METAR KATL 181052Z 01005KT 10SM CLR 02/M02 A3035 RMK AO2 SLP283 T00171017=
201602180952 METAR KATL 180952Z 34004KT 10SM CLR 01/M02 A3033 RMK AO2 SLP277 T00111017=
201602180852 METAR KATL 180852Z COR 34005KT 10SM CLR 02/M02 A3032 RMK AO2 SLP271 T00171017 53005=
201602180752 METAR KATL 180752Z 30003KT 10SM CLR 02/M02 A3032 RMK AO2 SLP271 T00171017=
201602180652 METAR KATL 180652Z 36005KT 10SM CLR 03/M02 A3030 RMK AO2 SLP265 T00281017=
201602180552 METAR KATL 180552Z 35007KT 10SM CLR 03/M01 A3030 RMK AO2 SLP266 T00331011 10067 20028 50001=
201602180452 METAR KATL 180452Z 33009KT 10SM CLR 03/M01 A3031 RMK AO2 SLP268 T00331011 401170028=
201602180352 METAR KATL 180352Z 34007KT 10SM CLR 04/M01 A3030 RMK AO2 SLP265 T00391011=
201602180252 METAR KATL 180252Z 34008KT 10SM CLR 04/M01 A3030 RMK AO2 SLP265 T00441006 51011=
201602180152 METAR KATL 180152Z 33010KT 10SM CLR 05/M01 A3029 RMK AO2 SLP262 T00501006=
201602180052 METAR KATL 180052Z 35006KT 10SM CLR 06/00 A3028 RMK AO2 SLP260 T00610000=
201602172352 METAR KATL 172352Z 34012KT 10SM CLR 07/01 A3026 RMK AO2 SLP253 T00670006 10117 20067 53024=
201602172252 METAR KATL 172252Z 31013KT 10SM CLR 09/01 A3023 RMK AO2 SLP242 T00890011=
201602172152 METAR KATL 172152Z 31014KT 10SM FEW035 10/01 A3021 RMK AO2 SLP233 T01000011=
201602172052 METAR KATL 172052Z 33012G21KT 10SM FEW040 11/01 A3019 RMK AO2 SLP226 T01060011 53000=
201602171952 METAR KATL 171952Z 30014G17KT 10SM FEW035 11/02 A3018 RMK AO2 SLP223 T01060017=
201602171852 METAR KATL 171852Z 34008KT 10SM FEW035 11/02 A3017 RMK AO2 SLP220 T01060017=
201602171752 METAR KATL 171752Z 32012KT 10SM FEW030 10/02 A3019 RMK AO2 SLP226 T01000017 10100 20050 50011=
201602171652 METAR KATL 171652Z 33014KT 10SM FEW030 09/02 A3019 RMK AO2 SLP228 T00890017=
201602171552 METAR KATL 171552Z 34011KT 10SM FEW023 08/02 A3017 RMK AO2 SLP220 T00830017=
201602171452 METAR KATL 171452Z 35012G21KT 10SM FEW020 07/01 A3016 RMK AO2 SLP215 T00720011 53033=
201602171352 METAR KATL 171352Z 34014G17KT 10SM SCT022 SCT200 07/02 A3012 RMK AO2 SLP201 T00670017=
201602171252 METAR KATL 171252Z 34010KT 10SM FEW024 SCT200 05/01 A3008 RMK AO2 SLP189 T00500011=
201602171152 METAR KATL 171152Z 33009KT 10SM FEW026 SCT200 05/01 A3006 RMK AO2 SLP180 70003 T00500011 10078 20050 53025=
201602171052 METAR KATL 171052Z 32008KT 10SM FEW030 SCT200 06/02 A3002 RMK AO2 SLP167 T00560022=
201602170952 METAR KATL 170952Z 32008KT 10SM FEW015 SCT030 SCT200 06/03 A3000 RMK AO2 SLP159 T00610033=
201602170852 METAR KATL 170852Z 32011KT 10SM FEW026 SCT038 SCT200 06/03 A2998 RMK AO2 SLP153 T00610028 51015=
201602170752 METAR KATL 170752Z 29007KT 10SM FEW028 FEW040 06/03 A2997 RMK AO2 SLP149 T00610028=
201602170652 METAR KATL 170652Z 26005KT 10SM FEW032 07/03 A2995 RMK AO2 SLP143 T00670028=
201602170552 METAR KATL 170552Z 30011KT 10SM FEW035 08/04 A2994 RMK AO2 SLP137 60003 T00780039 10139 20072 51008=
201602170452 METAR KATL 170452Z 32013KT 10SM FEW035 08/04 A2993 RMK AO2 SLP137 T00830039 401610044=
201602170352 METAR KATL 170352Z 29009KT 10SM FEW035 09/06 A2993 RMK AO2 SLP136 T00890056=
201602170252 METAR KATL 170252Z 24004KT 10SM FEW040 FEW110 09/07 A2991 RMK AO2 WSHFT 0146 RAE05 SLP130 P0002 60003 T00890067 51035=
201602170206 SPECI KATL 170206Z 26008G16KT 10SM FEW040 SCT060 BKN110 BKN200 10/07 A2990 RMK AO2 WSHFT 0146 RAE05 SHRA E-S P0002 T01000067=
201602170152 METAR KATL 170152Z 31012KT 6SM -RA BKN040 BKN055 OVC080 10/07 A2990 RMK AO2 WSHFT 0124 RAB30 SLP128 P0001 T01000072=
201602170142 SPECI KATL 170142Z 33019KT 6SM RA SCT040 BKN055 OVC080 11/06 A2990 RMK AO2 WSHFT 0124 RAB30 VIS LWR NW-NW P0000 T01110061=
201602170052 METAR KATL 170052Z 26011G16KT 10SM BKN060 OVC100 13/03 A2986 RMK AO2 RAB24E47 SLP113 SHRA NE-E P0000 T01330033=
201602170040 SPECI KATL 170040Z 29008KT 10SM -RA BKN060 OVC100 13/04 A2986 RMK AO2 RAB24 P0000 T01330039=
201602162352 METAR KATL 162352Z 20008KT 10SM SCT075 BKN100 BKN200 14/03 A2980 RMK AO2 SLP093 VIRGA NE-SE-SW T01390028 10161 20128 53002=
201602162252 METAR KATL 162252Z 20006KT 10SM FEW050 BKN100 OVC200 14/03 A2980 RMK AO2 SLP091 VIRGA OHD-ALQDS T01440028=
201602162152 METAR KATL 162152Z 24007G16KT 200V270 10SM FEW050 BKN100 BKN250 15/03 A2979 RMK AO2 SLP086 T01500028=
201602162052 METAR KATL 162052Z 22012G18KT 10SM FEW055 FEW120 SCT250 16/02 A2980 RMK AO2 SLP090 T01560017 56019=
201602161952 METAR KATL 161952Z 20006G15KT 10SM FEW055 FEW120 SCT250 15/02 A2981 RMK AO2 SLP093 T01500017=
201602161852 METAR KATL 161852Z 23009KT 10SM FEW050 FEW200 14/03 A2981 RMK AO2 SLP095 T01440028=
201602161752 METAR KATL 161752Z 26003KT 10SM FEW040 BKN150 BKN220 13/03 A2986 RMK AO2 SLP109 T01330028 10133 20044 55013=
201602161652 METAR KATL 161652Z 30004KT 10SM FEW030 BKN250 13/04 A2985 RMK AO2 SLP110 T01280039=
201602161552 METAR KATL 161552Z 31007KT 10SM FEW025 FEW250 10/04 A2986 RMK AO2 SLP112 T01000039=
201602161452 METAR KATL 161452Z 29009KT 10SM FEW015 FEW250 08/04 A2989 RMK AO2 SLP126 T00830039 50019=
201602161352 METAR KATL 161352Z 29009KT 10SM FEW009 06/03 A2990 RMK AO2 SLP129 T00610033=
201602161322 SPECI KATL 161322Z 28010KT 10SM FEW009 06/03 A2988 RMK AO2 PRESRR T00560033=
201602161252 METAR KATL 161252Z 28005KT 10SM FEW015 05/03 A2984 RMK AO2 SLP107 T00500028=
201602161152 METAR KATL 161152Z 28008KT 10SM FEW016 05/03 A2984 RMK AO2 SLP107 60006 70154 T00500028 10117 20050 53013=
201602161052 METAR KATL 161052Z 29011KT 10SM FEW016 06/03 A2982 RMK AO2 SLP100 T00610033=
201602161021 SPECI KATL 161021Z 30011KT 10SM SCT017 07/03 A2980 RMK AO2 T00670033=
201602160952 METAR KATL 160952Z 32017G22KT 10SM BKN019 07/03 A2980 RMK AO2 PK WND 30026/0935 SLP092 T00720033=
201602160852 METAR KATL 160852Z 30012G22KT 10SM FEW012 BKN017 07/04 A2980 RMK AO2 PK WND 30028/0810 SLP091 60006 T00720039 51037=
201602160848 SPECI KATL 160848Z 30015G22KT 10SM FEW012 BKN017 07/04 A2980 RMK AO2 PK WND 30028/0810=
201602160752 METAR KATL 160752Z 30019G28KT 10SM FEW009 BKN014 OVC019 08/06 A2977 RMK AO2 PK WND 29028/0748 SLP083 T00830056=
201602160748 SPECI KATL 160748Z 29021G28KT 8SM FEW009 BKN014 OVC019 09/06 A2977 RMK AO2 PK WND 29028/0748=
201602160652 METAR KATL 160652Z 29018G25KT 7SM BKN007 BKN014 OVC026 09/07 A2974 RMK AO2 PK WND 29028/0632 RAB0553E51 SLP071 P0006 T00940072=
201602160552 METAR KATL 160552Z 21010G16KT 10SM BKN008 BKN015 OVC035 12/10 A2969 RMK AO2 RAE13 SLP054 P0001 60148 T01170100 10117 20050 56012=
201602160452 METAR KATL 160452Z 18008KT 6SM -RA BR SCT004 BKN009 OVC020 09/08 A2970 RMK AO2 RAE00B15 SLP060 P0002 T00940083 401170011=
201602160418 SPECI KATL 160418Z 16005KT 7SM -RA BKN006 OVC070 08/07 A2969 RMK AO2 RAE00B15 CIG 004V008 P0000 T00830072=
201602160411 SPECI KATL 160411Z 15005KT 10SM SCT006 BKN012 OVC070 08/07 A2970 RMK AO2 RAE00 P0000 T00830072=
201602160352 METAR KATL 160352Z 14007KT 8SM -RA SCT012 BKN017 OVC080 08/07 A2969 RMK AO2 TSE52 SLP057 OCNL LTGIC DSNT NE-SE TS MOV NE P0022 T00830067=
201602160252 METAR KATL 160252Z 13010KT 3SM +TSRA BR FEW006 BKN025CB OVC050 07/06 A2972 RMK AO2 PK WND 08031/0200 WSHFT 0201 TSB06 SLP070 OCNL LTGIC OHD-ALQDS TS OHD-ALQDS MOV NE P0084 60123 T00720056 55022 $=
201602160219 SPECI KATL 160219Z 08013G27KT 2SM +TSRA FEW006 BKN020 OVC060 07/04 A2969 RMK AO2 PK WND 08031/0200 WSHFT 0201 TSB06 OCNL LTGIC S-SW TS S-SW MOV NE P0027 T00720039=
201602160215 SPECI KATL 160215Z 23010G27KT 100V270 3SM +TSRA BR FEW006 BKN020CB OVC060 06/04 A2975 RMK AO2 PK WND 08031/0200 WSHFT 0201 TSB06 PRESRR OCNL LTGIC SW-W TS SW-W MOV NE P0017 T00610044=
201602160206 SPECI KATL 160206Z 09018G31KT 3SM +TSRA BR FEW006 BKN020CB OVC060 05/03 A2968 RMK AO2 PK WND 08031/0200 TSB06 PRESFR OCNL LTGIC SW-W TS SW-W MOV NE P0009 T00500033=
201602160152 METAR KATL 160152Z 09020KT 3SM +RA BR SCT018 BKN025 OVC070 06/03 A2971 RMK AO2 SLP067 OCNL LTGIC DSNT SW-W P0032 T00560033=
201602160052 METAR KATL 160052Z 09014KT 5SM RA BKN030 BKN042 OVC060 07/03 A2976 RMK AO2 SLP082 P0007 T00670028=
201602152352 METAR KATL 152352Z 10012KT 9SM -RA BKN038 BKN055 OVC150 09/03 A2979 RMK AO2 RAB39 SLP092 P0000 60000 T00940028 10117 20050 56031=
201602152252 METAR KATL 152252Z 10013G19KT 10SM FEW030 BKN045 BKN080 OVC150 11/02 A2981 RMK AO2 SLP097 T01060017=
201602152152 METAR KATL 152152Z 10015KT 10SM SCT040 SCT120 OVC150 11/01 A2984 RMK AO2 SLP110 T01060011=
201602152052 METAR KATL 152052Z 09012KT 10SM FEW030 SCT120 BKN150 OVC250 12/02 A2989 RMK AO2 SLP123 T01170017 56052=
201602151952 METAR KATL 151952Z 11011G19KT 10SM FEW025 SCT120 BKN250 11/01 A2992 RMK AO2 SLP137 T01060011=
201602151930 SPECI KATL 151930Z 11011KT 10SM FEW025 SCT100 SCT250 10/00 A2995 RMK AO2 T01000000=
201602151852 METAR KATL 151852Z 10009KT 10SM FEW020 BKN025 BKN030 08/M01 A2998 RMK AO2 PRESFR SLP156 T00781011=
201602151832 SPECI KATL 151832Z 11010KT 10SM BKN017 BKN028 06/M02 A3000 RMK AO2 T00611022=
201602151825 SPECI KATL 151825Z 10010KT 10SM OVC015 06/M02 A3001 RMK AO2 T00611022=
201602151752 METAR KATL 151752Z 12009KT 10SM OVC014 05/M03 A3004 RMK AO2 SLP179 T00501028 10050 20011 58033=
201602151720 SPECI KATL 151720Z 13010KT 10SM OVC014 04/M04 A3007 RMK AO2 T00391039=
201602151708 SPECI KATL 151708Z 12009KT 10SM OVC015 04/M04 A3008 RMK AO2 T00391039=
201602151652 METAR KATL 151652Z 11009KT 10SM OVC014 04/M04 A3009 RMK AO2 SLP197 T00391044=
201602151552 METAR KATL 151552Z 11011G16KT 10SM OVC013 03/M06 A3012 RMK AO2 SLP206 T00281061=
201602151452 METAR KATL 151452Z 10012KT 10SM OVC014 02/M07 A3014 RMK AO2 SLP214 T00171067 55005=
201602151352 METAR KATL 151352Z 10011G19KT 10SM OVC014 02/M07 A3014 RMK AO2 SLP214 T00171072=
201602151252 METAR KATL 151252Z 09011KT 10SM OVC014 01/M08 A3015 RMK AO2 SLP218 T00111078=
201602151152 METAR KATL 151152Z 10009KT 10SM OVC014 02/M08 A3016 RMK AO2 SLP219 T00171083 10039 20011 55004=
201602151052 METAR KATL 151052Z 10008KT 10SM OVC012 02/M08 A3015 RMK AO2 SLP216 T00171078=
201602150952 METAR KATL 150952Z 11008KT 10SM OVC013 02/M08 A3015 RMK AO2 SLP216 T00171083=
201602150852 METAR KATL 150852Z 09010KT 10SM OVC014 02/M07 A3017 RMK AO2 SLP222 T00221072 58019=
201602150848 SPECI KATL 150848Z 09011G17KT 10SM OVC014 02/M07 A3018 RMK AO2=
201602150752 METAR KATL 150752Z 09012KT 10SM OVC016 03/M07 A3020 RMK AO2 SLP233 T00281067=
201602150652 METAR KATL 150652Z 12012KT 10SM OVC015 03/M04 A3022 RMK AO2 SLP237 T00331044=
201602150639 SPECI KATL 150639Z 11009KT 10SM OVC015 04/M04 A3023 RMK AO2 T00391044=
201602150617 SPECI KATL 150617Z 11010KT 10SM OVC014 04/M05 A3023 RMK AO2 T00391050=
201602150552 METAR KATL 150552Z 11011KT 10SM OVC017 03/M06 A3023 RMK AO2 SLP243 T00331056 10067 20033 58001=
201602150524 SPECI KATL 150524Z 10010KT 10SM BKN016 BKN075 OVC200 03/M06 A3024 RMK AO2 T00331061=
201602150452 METAR KATL 150452Z 11010KT 10SM FEW030 SCT075 BKN200 OVC250 04/M06 A3023 RMK AO2 SLP244 T00391061 400891022=
201602150352 METAR KATL 150352Z 10012KT 10SM FEW085 BKN200 OVC250 04/M07 A3024 RMK AO2 SLP247 T00441067=
201602150252 METAR KATL 150252Z 11012KT 10SM FEW075 BKN200 OVC250 05/M06 A3023 RMK AO2 SLP245 T00501061 50004=
201602150152 METAR KATL 150152Z 11013KT 10SM FEW080 BKN200 OVC250 06/M07 A3023 RMK AO2 SLP246 T00561067=
201602150052 METAR KATL 150052Z 11009KT 10SM FEW080 BKN200 OVC250 06/M07 A3024 RMK AO2 SLP248 T00611067=
201602142352 METAR KATL 142352Z 12009KT 10SM FEW075 BKN200 BKN250 07/M07 A3022 RMK AO2 SLP241 T00671072 10089 20056 55001=
201602142252 METAR KATL 142252Z 12009KT 10SM FEW065 SCT080 BKN200 BKN250 08/M08 A3022 RMK AO2 SLP239 T00781078=
201602142152 METAR KATL 142152Z 15012KT 10SM BKN060 BKN080 BKN200 OVC250 09/M08 A3021 RMK AO2 SLP238 T00891083=
201602142052 METAR KATL 142052Z 16011G14KT 10SM SCT060 BKN080 BKN250 08/M09 A3022 RMK AO2 SLP241 T00831089 56021=
201602141952 METAR KATL 141952Z 12007KT 10SM FEW070 SCT090 BKN250 09/M09 A3023 RMK AO2 SLP245 T00891094=
201602141852 METAR KATL 141852Z 13010KT 10SM FEW070 BKN090 BKN250 07/M11 A3025 RMK AO2 SLP249 T00721106=
201602141752 METAR KATL 141752Z 16013KT 10SM FEW120 BKN250 06/M12 A3029 RMK AO2 SLP264 T00561117 10061 21022 58027=
201602141652 METAR KATL 141652Z 15013KT 10SM FEW120 BKN250 04/M12 A3032 RMK AO2 SLP275 T00391117=
201602141552 METAR KATL 141552Z 13009KT 10SM FEW120 SCT250 03/M12 A3036 RMK AO2 SLP291 T00281122=
201602141452 METAR KATL 141452Z 11011KT 10SM FEW120 SCT250 01/M13 A3037 RMK AO2 SLP294 T00061128 50008=
201602141352 METAR KATL 141352Z 11009KT 10SM FEW120 BKN250 M01/M13 A3038 RMK AO2 SLP298 T10111128 $=
201602141252 METAR KATL 141252Z 10007KT 10SM FEW120 BKN250 M02/M13 A3037 RMK AO2 SLP294 T10221133 $=
201602141152 METAR KATL 141152Z 09008KT 10SM FEW120 SCT150 BKN200 M02/M13 A3034 RMK AO2 SLP285 T10221133 10000 21022 53005 $=
201602141052 METAR KATL 141052Z 10010KT 10SM FEW080 SCT150 SCT200 BKN250 M02/M13 A3033 RMK AO2 SLP279 T10171133 $=
201602140952 METAR KATL 140952Z 07010KT 10SM FEW150 SCT200 M02/M13 A3032 RMK AO2 SLP275 T10171133=
201602140852 METAR KATL 140852Z 05008KT 10SM SCT200 M02/M14 A3033 RMK AO2 SLP277 T10171139 58000=
201602140752 METAR KATL 140752Z 36006KT 10SM SCT200 M01/M14 A3034 RMK AO2 SLP282 T10111144=
201602140652 METAR KATL 140652Z 32004KT 10SM SCT180 M01/M14 A3034 RMK AO2 SLP282 T10111144=
201602140552 METAR KATL 140552Z 02007KT 10SM FEW180 SCT250 M01/M15 A3033 RMK AO2 SLP279 T10061150 10028 21006 56013=
201602140452 METAR KATL 140452Z 36007KT 10SM FEW200 00/M15 A3033 RMK AO2 SLP281 T00001150 400611017=
201602140352 METAR KATL 140352Z 34009KT 10SM CLR 00/M14 A3035 RMK AO2 SLP285 T00001144=
201602140252 METAR KATL 140252Z 35008KT 10SM CLR 01/M15 A3037 RMK AO2 SLP293 T00061150 50004=
201602140152 METAR KATL 140152Z 35008KT 10SM CLR 01/M15 A3038 RMK AO2 SLP298 T00111150=
201602140052 METAR KATL 140052Z 34010KT 10SM CLR 02/M16 A3038 RMK AO2 SLP297 T00221156=
201602132352 METAR KATL 132352Z 34009KT 10SM CLR 03/M15 A3035 RMK AO2 SLP288 T00281150 10061 20028 53010=
201602132252 METAR KATL 132252Z 34012KT 10SM CLR 04/M15 A3035 RMK AO2 SLP285 T00391150=
201602132152 METAR KATL 132152Z 35016G22KT 10SM CLR 06/M16 A3033 RMK AO2 SLP278 T00561156=
201602132052 METAR KATL 132052Z 32011G20KT 10SM CLR 06/M14 A3032 RMK AO2 SLP275 T00561144 56016=
201602131952 METAR KATL 131952Z 33016G22KT 10SM CLR 05/M15 A3033 RMK AO2 SLP278 T00501150=
201602131852 METAR KATL 131852Z 34012KT 10SM CLR 04/M16 A3035 RMK AO2 SLP285 T00441156=
201602131752 METAR KATL 131752Z 32015G22KT 10SM CLR 04/M14 A3037 RMK AO2 PK WND 33028/1701 SLP292 T00391139 10039 21017 50006=
201602131652 METAR KATL 131652Z 33010G21KT 10SM CLR 03/M14 A3039 RMK AO2 SLP298 T00281139=
201602131552 METAR KATL 131552Z 36016G23KT 10SM CLR 02/M14 A3038 RMK AO2 SLP294 T00171139=
201602131452 METAR KATL 131452Z 33019G23KT 10SM CLR 00/M12 A3035 RMK AO2 SLP286 T00001122 51027=
201602131352 METAR KATL 131352Z 32018KT 10SM CLR M01/M12 A3033 RMK AO2 SLP277 T10061117=
201602131252 METAR KATL 131252Z 32013KT 10SM CLR M01/M09 A3030 RMK AO2 SLP266 T10111089=
201602131152 METAR KATL 131152Z 33015G22KT 10SM CLR M01/M08 A3027 RMK AO2 SLP256 T10111083 10039 21011 53017=
201602131052 METAR KATL 131052Z 33014KT 10SM CLR M01/M08 A3025 RMK AO2 PK WND 34026/1022 SLP247 T10061078=
201602130952 METAR KATL 130952Z 32018G25KT 10SM FEW150 00/M07 A3023 RMK AO2 SLP240 T00001067=
201602130852 METAR KATL 130852Z 32014G24KT 10SM FEW150 01/M06 A3022 RMK AO2 PK WND 33026/0820 SLP237 T00111061 53011=
201602130752 METAR KATL 130752Z 32015KT 10SM FEW150 02/M04 A3021 RMK AO2 SLP231 T00171044=
201602130652 METAR KATL 130652Z 32012KT 10SM FEW150 03/M03 A3019 RMK AO2 SLP227 T00281033=
201602130552 METAR KATL 130552Z 33011KT 10SM FEW150 04/M03 A3019 RMK AO2 SLP225 T00391028 10122 20039 50010=
201602130452 METAR KATL 130452Z 34011KT 10SM FEW250 05/M02 A3019 RMK AO2 SLP228 T00501022 401780033=
201602130352 METAR KATL 130352Z 33013G19KT 10SM FEW250 06/M02 A3018 RMK AO2 SLP224 T00611022=
201602130252 METAR KATL 130252Z 34013G20KT 10SM FEW250 08/M02 A3016 RMK AO2 SLP216 T00781022 53024=
201602130152 METAR KATL 130152Z 31012G21KT 10SM FEW250 11/M02 A3013 RMK AO2 SLP206 T01061017=
201602130052 METAR KATL 130052Z 31015G20KT 10SM FEW250 12/M01 A3011 RMK AO2 SLP197 T01171011=
201602122352 METAR KATL 122352Z 31009KT 10SM CLR 12/M01 A3008 RMK AO2 SLP189 T01221006 10178 20122 53017=
201602122252 METAR KATL 122252Z 31009KT 10SM FEW250 14/00 A3006 RMK AO2 PK WND 29027/2153 SLP182 T01440000=
201602122152 METAR KATL 122152Z 30016G25KT 10SM FEW070 FEW250 16/M01 A3004 RMK AO2 PK WND 29030/2122 SLP175 T01561006=
201602122052 METAR KATL 122052Z 32018KT 10SM FEW070 FEW150 17/00 A3003 RMK AO2 SLP170 T01670000 56017=
201602121952 METAR KATL 121952Z 29012G17KT 10SM FEW070 17/01 A3003 RMK AO2 SLP171 T01720006=
201602121852 METAR KATL 121852Z 27012G16KT 10SM FEW150 16/01 A3006 RMK AO2 SLP179 T01560006=
201602121752 METAR KATL 121752Z VRB04KT 10SM FEW150 13/00 A3008 RMK AO2 SLP190 T01330000 10133 20044 58016=
201602121652 METAR KATL 121652Z 00000KT 10SM FEW150 11/M02 A3011 RMK AO2 SLP200 T01061022=
201602121552 METAR KATL 121552Z 05005KT 10SM FEW100 BKN150 BKN180 08/M03 A3012 RMK AO2 SLP204 T00781028=
201602121452 METAR KATL 121452Z 08005KT 10SM FEW050 SCT100 BKN150 06/M03 A3013 RMK AO2 SLP208 T00611028 50002=
201602121352 METAR KATL 121352Z 05006KT 10SM FEW100 BKN150 BKN250 06/M04 A3013 RMK AO2 SLP208 ACC DSNT N T00561039=
201602121252 METAR KATL 121252Z 06007KT 10SM BKN150 BKN200 BKN250 05/M04 A3013 RMK AO2 SLP207 VIRGA NW-NE T00501039=
201602121152 METAR KATL 121152Z 08005KT 10SM FEW120 BKN150 OVC200 04/M03 A3013 RMK AO2 SLP205 T00441033 10056 20033 50000=
201602121052 METAR KATL 121052Z 06006KT 10SM FEW110 BKN150 OVC200 05/M04 A3014 RMK AO2 SLP207 T00501039=
201602120952 METAR KATL 120952Z 03006KT 10SM BKN150 OVC200 05/M04 A3014 RMK AO2 SLP208 T00501039=
201602120852 METAR KATL 120852Z 09004KT 10SM FEW075 BKN150 BKN250 04/M03 A3013 RMK AO2 SLP204 T00441033 58018=
201602120752 METAR KATL 120752Z 08003KT 10SM FEW075 BKN170 BKN250 04/M04 A3014 RMK AO2 SLP209 T00441039=
201602120652 METAR KATL 120652Z 03004KT 10SM FEW075 BKN200 BKN250 04/M04 A3017 RMK AO2 SLP220 T00441044=
201602120552 METAR KATL 120552Z 00000KT 10SM FEW070 SCT250 04/M04 A3018 RMK AO2 SLP225 T00391044 10111 20039 51002=
201602120452 METAR KATL 120452Z 03003KT 10SM FEW070 SCT250 06/M05 A3018 RMK AO2 SLP223 T00611050 401331022=
201602120352 METAR KATL 120352Z 01006KT 10SM FEW250 06/M04 A3018 RMK AO2 SLP224 T00611044=
201602120252 METAR KATL 120252Z 02007KT 10SM FEW250 07/M04 A3017 RMK AO2 SLP222 T00721044 53004=
201602120152 METAR KATL 120152Z 36009KT 350V060 10SM FEW250 08/M04 A3017 RMK AO2 SLP222 T00831044=
201602120052 METAR KATL 120052Z 36009KT 10SM FEW250 09/M05 A3016 RMK AO2 SLP220 T00941050=
201602112352 METAR KATL 112352Z 31004KT 10SM FEW250 11/M04 A3016 RMK AO2 SLP219 T01111044 10133 20089 51015=
201602112252 METAR KATL 112252Z 28004KT 10SM CLR 11/M04 A3015 RMK AO2 SLP215 T01111044=
201602112152 METAR KATL 112152Z 27006KT 10SM CLR 13/M04 A3014 RMK AO2 SLP209 T01281044=
201602112052 METAR KATL 112052Z 00000KT 10SM CLR 13/M06 A3012 RMK AO2 SLP203 T01281056 56009=
201602111952 METAR KATL 111952Z 00000KT 10SM CLR 13/M04 A3012 RMK AO2 SLP205 T01281044=
201602111852 METAR KATL 111852Z 00000KT 10SM CLR 11/M06 A3012 RMK AO2 SLP204 T01061056=
201602111752 METAR KATL 111752Z VRB04KT 10SM CLR 09/M07 A3015 RMK AO2 SLP214 T00891067 10094 21022 58017=
201602111652 METAR KATL 111652Z 00000KT 10SM CLR 08/M08 A3018 RMK AO2 SLP226 T00781083=
201602111552 METAR KATL 111552Z VRB04KT 10SM FEW250 06/M09 A3020 RMK AO2 SLP233 T00611089=
201602111452 METAR KATL 111452Z 11003KT 10SM CLR 03/M10 A3020 RMK AO2 SLP233 T00331100 51012=
201602111352 METAR KATL 111352Z 00000KT 10SM CLR 01/M08 A3019 RMK AO2 SLP232 T00111083=
201602111252 METAR KATL 111252Z 00000KT 10SM FEW065 M02/M08 A3018 RMK AO2 SLP230 T10171083=
201602111152 METAR KATL 111152Z 00000KT 10SM FEW060 M02/M10 A3016 RMK AO2 SLP222 T10171100 10000 21022 53005=
201602111052 METAR KATL 111052Z 00000KT 10SM CLR M02/M10 A3015 RMK AO2 SLP220 T10221100=
201602110952 METAR KATL 110952Z 00000KT 10SM FEW065 M02/M11 A3014 RMK AO2 SLP216 T10171106=
201602110852 METAR KATL 110852Z 26004KT 10SM FEW060 M01/M11 A3014 RMK AO2 SLP216 T10111111 56004=
201602110752 METAR KATL 110752Z 30004KT 10SM BKN055 M01/M11 A3015 RMK AO2 SLP218 T10061106=
201602110652 METAR KATL 110652Z 29005KT 10SM OVC060 00/M11 A3015 RMK AO2 SLP219 T00001111=
201602110552 METAR KATL 110552Z 30006KT 10SM BKN060 00/M12 A3016 RMK AO2 SLP222 T00001117 10022 20000 50000=
201602110452 METAR KATL 110452Z 31007KT 10SM BKN060 00/M12 A3017 RMK AO2 SLP225 T00001122 400391056=
201602110352 METAR KATL 110352Z 31007KT 10SM BKN055 00/M12 A3017 RMK AO2 SLP226 T00001122=
201602110252 METAR KATL 110252Z 32006KT 10SM BKN055 BKN090 01/M12 A3016 RMK AO2 SLP223 T00111122 53012=
201602110152 METAR KATL 110152Z 31006KT 10SM FEW060 BKN090 01/M13 A3013 RMK AO2 SLP215 T00111128=
201602110052 METAR KATL 110052Z 30007KT 10SM BKN065 OVC090 02/M13 A3012 RMK AO2 SLP212 T00221133=
201602102352 METAR KATL 102352Z 29009KT 10SM BKN070 BKN090 02/M14 A3012 RMK AO2 SLP210 T00221139 10039 20011 53010=
201602102252 METAR KATL 102252Z 29008KT 10SM FEW080 BKN100 02/M14 A3011 RMK AO2 SLP207 T00221139=
201602102152 METAR KATL 102152Z 31014G19KT 10SM FEW070 SCT130 03/M13 A3010 RMK AO2 SLP201 T00331133=
201602102052 METAR KATL 102052Z 31017G22KT 10SM FEW070 FEW250 03/M13 A3009 RMK AO2 PK WND 31027/2016 SLP198 T00331133 56012=
201602101952 METAR KATL 101952Z 30019G24KT 10SM FEW065 FEW250 03/M13 A3010 RMK AO2 SLP201 T00281133=
201602101852 METAR KATL 101852Z 25013G23KT 10SM FEW060 02/M12 A3009 RMK AO2 SLP201 T00221122=
201602101752 METAR KATL 101752Z 30016G23KT 10SM FEW050 01/M12 A3012 RMK AO2 SLP211 T00111122 10011 21056 58003=
201602101652 METAR KATL 101652Z 28012G21KT 10SM FEW040 00/M11 A3014 RMK AO2 SLP216 T00001111=
201602101552 METAR KATL 101552Z 29014G25KT 10SM SCT040 M01/M12 A3015 RMK AO2 SLP220 T10111117=
201602101452 METAR KATL 101452Z 31014G25KT 10SM SCT033 M03/M12 A3013 RMK AO2 PK WND 31027/1442 SLP215 T10281117 51017=
201602101352 METAR KATL 101352Z 30015G18KT 10SM FEW035 M04/M12 A3013 RMK AO2 SLP216 T10441117=
201602101252 METAR KATL 101252Z 30011KT 10SM SCT032 M06/M12 A3010 RMK AO2 SLP204 T10561122=
201602101152 METAR KATL 101152Z 31014KT 10SM FEW035 M05/M13 A3008 RMK AO2 SLP199 931000 60000 T10501133 11028 21050 51019=
201602101052 METAR KATL 101052Z 31012G19KT 10SM SCT033 M04/M12 A3007 RMK AO2 SNE49 SLP193 P0000 T10441122=
201602100952 METAR KATL 100952Z 29014KT 10SM -SN BKN033 M04/M11 A3005 RMK AO2 SLP188 P0000 T10391111=
201602100852 METAR KATL 100852Z 31012G21KT 10SM -SN BKN032 M03/M11 A3002 RMK AO2 SLP179 P0000 60000 T10331106 51008=
201602100752 METAR KATL 100752Z 29012G18KT 10SM -SN SCT030 BKN037 M03/M10 A3001 RMK AO2 SNB51 SLP173 P0000 T10331100=
201602100652 METAR KATL 100652Z 29011G18KT 10SM SCT030 BKN038 M03/M10 A3001 RMK AO2 SNB06E41 SLP174 P0000 T10331100=
201602100552 METAR KATL 100552Z 31015KT 10SM SCT030 BKN038 M03/M09 A3000 RMK AO2 SLP168 T10281094 10000 21028 55001=
201602100452 METAR KATL 100452Z 31014G19KT 10SM FEW030 M03/M09 A3000 RMK AO2 SLP167 T10281089 400281028=
201602100352 METAR KATL 100352Z 31013KT 10SM FEW030 M02/M09 A3000 RMK AO2 SLP168 T10221089=
201602100252 METAR KATL 100252Z 31013G19KT 10SM FEW030 BKN100 M02/M08 A3000 RMK AO2 SLP169 T10171083 51016=
201602100152 METAR KATL 100152Z 31014KT 10SM FEW028 SCT085 BKN100 M01/M08 A2999 RMK AO2 SLP165 T10111078=
201602100052 METAR KATL 100052Z 33011KT 10SM FEW030 SCT040 BKN090 M01/M08 A2998 RMK AO2 SLP162 T10061078=
201602092352 METAR KATL 092352Z COR 29010KT 10SM FEW035 SCT060 SCT080 M01/M08 A2996 RMK AO2 SLP153 SNSH DSNT NW-NE 60000 931000 T10061078 10022 21006 51027=
201602092252 METAR KATL 092252Z 28009KT 10SM FEW030 SCT060 BKN080 00/M07 A2993 RMK AO2 SLP143 T00001072=
201602092152 METAR KATL 092152Z 29015G25KT 10SM FEW030 BKN060 BKN080 00/M07 A2990 RMK AO2 SNB11E18 SLP135 VIRGA DSNT S SHSN DSNT SW P0000 T00001072=
201602092118 SPECI KATL 092118Z 28014KT 10SM SCT030 BKN060 BKN080 00/M06 A2989 RMK AO2 SNB11E18 VIS LWR SHSN VC E-SE-S P0000 T00001061=
201602092115 SPECI KATL 092115Z 29016G24KT 6SM -SN SCT030 BKN060 BKN080 00/M06 A2989 RMK AO2 SNB11 P0000 T00001061=
201602092052 METAR KATL 092052Z 29012G21KT 10SM FEW030 BKN050 OVC060 00/M06 A2987 RMK AO2 PK WND 28029/2019 SNB1954E33 SLP123 SHSN DSNT E-SE-S & DSNT W P0000 60000 T00001061 53014=
201602092044 SPECI KATL 092044Z 30012KT 10SM FEW028 BKN050 OVC080 00/M06 A2987 RMK AO2 PK WND 28029/2019 SNB1954E33 P0000 T00001061=
201602092027 SPECI KATL 092027Z 30017G29KT 7SM -SN FEW028 BKN035 OVC050 00/M06 A2986 RMK AO2 PK WND 28029/2019 SNB1954 P0000 T00001056=
201602092019 SPECI KATL 092019Z 28024G29KT 4SM -SN BKN035 BKN050 OVC080 00/M06 A2986 RMK AO2 PK WND 28029/2019 SNB1954 P0000 T00001061=
201602091954 SPECI KATL 091954Z 28015G22KT 8SM -SN BKN040 BKN050 OVC080 01/M07 A2983 RMK AO2 SNB54 P0000 T00111072=
201602091952 METAR KATL 091952Z 28016G20KT 10SM BKN040 BKN055 OVC080 01/M07 A2983 RMK AO2 PK WND 28027/1914 SNB01E29B39E51 SLP110 SHSN DSNT NE & VC W-NW-N P0000 T00111072=
201602091939 SPECI KATL 091939Z 28012G21KT 10SM -SN BKN040 BKN050 OVC080 02/M07 A2983 RMK AO2 PK WND 28027/1914 SNB01E29B39 VIRGA OHD-SW-NW-N P0000 T00171072=
201602091930 SPECI KATL 091930Z 27014G19KT 10SM BKN043 BKN055 OVC070 02/M08 A2983 RMK AO2 PK WND 28027/1914 SNB01E29 VIRGA OHD-SW-NW-N P0000 T00171078=
201602091901 SPECI KATL 091901Z 27017G23KT 10SM -SN BKN045 BKN060 OVC070 02/M08 A2982 RMK AO2 SNB01 P0000 T00171078=
201602091852 METAR KATL 091852Z 26016G27KT 10SM BKN045 BKN060 OVC080 02/M08 A2982 RMK AO2 PK WND 26027/1850 SLP104 SHSN DSNT NE-E & SW-NW T00171078=
201602091752 METAR KATL 091752Z 27010G22KT 10SM BKN045 BKN055 BKN080 02/M08 A2983 RMK AO2 SLP108 SHSN DSNT ALQDS 60000 T00221083 10028 20006 58006=
201602091652 METAR KATL 091652Z 27016G26KT 10SM BKN040 BKN050 BKN060 02/M07 A2984 RMK AO2 PK WND 30026/1645 SNB1553E08B14E36 SLP112 SHSN DSNT N-NE-E P0000 T00221072=
201602091636 SPECI KATL 091636Z 29015G23KT 10SM BKN040 BKN050 BKN080 02/M07 A2985 RMK AO2 PK WND 29026/1624 SNB1553E08B14E36 P0000 T00221072=
201602091614 SPECI KATL 091614Z 27010G20KT 10SM -SN BKN040 BKN050 BKN080 02/M07 A2985 RMK AO2 SNB1553E08B14 P0000 T00171072=
201602091608 SPECI KATL 091608Z 28009G20KT 10SM BKN040 BKN050 BKN080 02/M07 A2985 RMK AO2 SNB1553E08 P0000 T00171072=
201602091554 SPECI KATL 091554Z 26012KT 10SM -SN BKN040 BKN050 BKN080 02/M07 A2985 RMK AO2 SNB53 P0000 T00221067=
201602091552 METAR KATL 091552Z 28013KT 10SM FEW040 BKN050 BKN080 02/M07 A2985 RMK AO2 SNB06E52 SLP115 SHSN DSNT N-NE & DSNT SW-NW P0000 T00171067=
201602091506 SPECI KATL 091506Z 27012KT 10SM -SN OVC040 01/M07 A2985 RMK AO2 SNB06 P0000 T00111067=
201602091452 METAR KATL 091452Z 27011KT 10SM OVC040 01/M07 A2985 RMK AO2 SNB08E48 SLP115 P0000 60000 T00111067 52005=
201602091409 SPECI KATL 091409Z 28009KT 10SM -SN OVC036 01/M07 A2985 RMK AO2 SNB08 P0000 T00061067=
201602091352 METAR KATL 091352Z 27012G19KT 10SM OVC034 01/M07 A2984 RMK AO2 SLP112 T00061072=
201602091252 METAR KATL 091252Z 26013KT 10SM OVC033 01/M07 A2984 RMK AO2 SLP110 T00111067=
201602091152 METAR KATL 091152Z 29012KT 10SM BKN030 OVC044 01/M06 A2983 RMK AO2 SLP108 T00111061 10028 20011 53012=
201602091052 METAR KATL 091052Z 29012KT 10SM OVC032 01/M06 A2981 RMK AO2 SLP100 T00111056=
201602090952 METAR KATL 090952Z 30011KT 10SM OVC048 01/M06 A2980 RMK AO2 SLP095 T00111061=
201602090852 METAR KATL 090852Z 31012KT 10SM BKN036 BKN047 02/M06 A2980 RMK AO2 SLP095 T00171061 55005=
201602090752 METAR KATL 090752Z 29015G20KT 260V320 10SM FEW034 OVC044 02/M05 A2980 RMK AO2 SLP093 T00221050=
201602090652 METAR KATL 090652Z 29012G18KT 10SM BKN050 BKN070 03/M06 A2980 RMK AO2 SLP096 T00281056=
201602090552 METAR KATL 090552Z 27010KT 10SM BKN055 BKN070 02/M06 A2981 RMK AO2 SLP100 VIRGA W-N T00221061 10067 20017 55006=
201602090452 METAR KATL 090452Z 29010KT 10SM FEW070 02/M07 A2981 RMK AO2 SLP099 T00221067 401220022=
201602090352 METAR KATL 090352Z 29012KT 10SM FEW070 03/M06 A2982 RMK AO2 SLP102 T00281056=
201602090252 METAR KATL 090252Z 29012G25KT 10SM FEW030 SCT055 SCT080 04/M03 A2983 RMK AO2 PK WND 30031/0213 SLP106 VIRGA SE-S T00391033 53014=
201602090152 METAR KATL 090152Z 30013G24KT 10SM SCT055 BKN080 06/M05 A2981 RMK AO2 SLP097 VIRGA N-NW T00611050=
201602090052 METAR KATL 090052Z 29014KT 10SM SCT055 BKN080 07/M06 A2980 RMK AO2 SLP097 VIRGA SW-NW T00671056=
201602082352 METAR KATL 082352Z 30012KT 10SM FEW075 SCT090 07/M06 A2979 RMK AO2 SLP092 T00671056 10122 20067 52017=
201602082252 METAR KATL 082252Z 31018G23KT 10SM FEW075 BKN090 08/M06 A2977 RMK AO2 PK WND 29029/2201 SLP086 VIRGA DSNT N-NE & S T00831061=
201602082152 METAR KATL 082152Z 28015G24KT 10SM FEW080 BKN090 BKN100 10/M06 A2976 RMK AO2 PK WND 27026/2131 SLP080 VIRGA DSNT ALQDS T01001061=
201602082052 METAR KATL 082052Z 29017G23KT 10SM BKN080 BKN090 BKN100 10/M07 A2974 RMK AO2 PK WND 28029/2029 SLP073 VIRGA ALQDS T01001067 56012=
201602081952 METAR KATL 081952Z 26018G31KT 10SM BKN080 BKN100 BKN250 10/M06 A2974 RMK AO2 PK WND 26031/1945 SLP074 VIRGA N-NE & SE & SW-NW T01001056=
201602081852 METAR KATL 081852Z 25013G23KT 10SM FEW050 SCT100 11/M02 A2974 RMK AO2 SLP073 VIRGA DSNT N-NE & E-SE T01111022=
201602081752 METAR KATL 081752Z 26012G19KT 10SM FEW050 BKN090 BKN250 10/M03 A2978 RMK AO2 SLP086 VIRGA DSNT NE-SE T01001028 10111 20022 58018=
201602081652 METAR KATL 081652Z 22009KT 10SM FEW040 BKN070 BKN100 BKN250 08/M02 A2982 RMK AO2 SLP101 VIRGA OHD-NE-SE T00781017=
201602081552 METAR KATL 081552Z 31009KT 10SM BKN050 BKN100 BKN250 07/M02 A2985 RMK AO2 SLP110 VIRGA OHD & ALQDS T00721017=
201602081452 METAR KATL 081452Z 27009G17KT 10SM FEW065 SCT120 BKN180 BKN250 08/M02 A2983 RMK AO2 SLP105 T00781022 58007=
201602081352 METAR KATL 081352Z 25007KT 10SM FEW065 BKN120 BKN200 04/M04 A2985 RMK AO2 SLP110 T00441039=
201602081252 METAR KATL 081252Z 24006KT 10SM SCT065 SCT150 SCT250 03/M04 A2985 RMK AO2 SLP113 T00281044=
201602081152 METAR KATL 081152Z 23005KT 10SM FEW050 SCT150 SCT250 03/M05 A2985 RMK AO2 SLP113 T00281050 10061 20028 55015=
201602081052 METAR KATL 081052Z 22006KT 10SM BKN150 BKN250 03/M06 A2985 RMK AO2 SLP111 T00281056=
201602080952 METAR KATL 080952Z 22005KT 10SM FEW120 SCT250 03/M06 A2986 RMK AO2 SLP114 T00331061=
201602080852 METAR KATL 080852Z 24005KT 10SM FEW120 FEW250 04/M06 A2990 RMK AO2 SLP127 T00441061 58024=
201602080752 METAR KATL 080752Z 25006KT 10SM FEW250 06/M07 A2993 RMK AO2 SLP137 T00561067=
201602080652 METAR KATL 080652Z 25005KT 10SM FEW250 06/M06 A2995 RMK AO2 SLP144 T00561061=
201602080552 METAR KATL 080552Z 26008KT 10SM FEW250 06/M06 A2997 RMK AO2 SLP151 T00561056 10094 20044 56005=
201602080452 METAR KATL 080452Z 25005KT 10SM FEW250 04/M06 A2997 RMK AO2 SLP154 T00441056 401331017=
201602080352 METAR KATL 080352Z 26004KT 10SM FEW250 06/M06 A2997 RMK AO2 SLP152 T00561056=
201602080252 METAR KATL 080252Z 28006KT 10SM FEW250 07/M06 A2999 RMK AO2 SLP159 T00721061 56002=
201602080152 METAR KATL 080152Z 26003KT 10SM FEW250 08/M06 A2999 RMK AO2 SLP161 T00781061=
201602080052 METAR KATL 080052Z VRB04KT 10SM FEW250 08/M06 A2999 RMK AO2 SLP160 T00831061=
201602072352 METAR KATL 072352Z 30006KT 10SM FEW250 09/M06 A2999 RMK AO2 SLP162 T00941061 10133 20094 53002=
201602072252 METAR KATL 072252Z 32011KT 10SM FEW250 12/M06 A2998 RMK AO2 SLP157 T01171061=
201602072152 METAR KATL 072152Z 32011G17KT 10SM FEW250 13/M06 A2999 RMK AO2 SLP159 T01281061=
201602072052 METAR KATL 072052Z 31010KT 10SM FEW250 13/M07 A2999 RMK AO2 SLP160 T01281067 56038=
201602071952 METAR KATL 071952Z 31010KT 10SM BKN250 13/M06 A3002 RMK AO2 PRESFR SLP168 T01281056=
201602071852 METAR KATL 071852Z 34011G21KT 10SM FEW250 12/M05 A3006 RMK AO2 SLP184 T01171050=
201602071752 METAR KATL 071752Z 32010KT 10SM FEW250 11/M05 A3011 RMK AO2 SLP199 T01111050 10111 21017 58022=
201602071652 METAR KATL 071652Z 34012KT 10SM CLR 11/M05 A3015 RMK AO2 SLP215 T01061050=
201602071552 METAR KATL 071552Z 33010KT 10SM CLR 08/M05 A3017 RMK AO2 SLP220 T00831050=
201602071452 METAR KATL 071452Z 32008KT 10SM CLR 05/M05 A3017 RMK AO2 SLP222 T00501050 53011=
201602071352 METAR KATL 071352Z 33006KT 10SM FEW250 02/M06 A3016 RMK AO2 SLP220 T00221056=
201602071252 METAR KATL 071252Z 31010KT 10SM FEW250 M01/M07 A3015 RMK AO2 SLP215 T10061067=
201602071152 METAR KATL 071152Z 32009KT 10SM FEW250 M01/M07 A3014 RMK AO2 SLP213 T10111067 10017 21011 55000=
201602071052 METAR KATL 071052Z 32008KT 10SM FEW250 M01/M06 A3014 RMK AO2 SLP213 T10111061=
201602070952 METAR KATL 070952Z 00000KT 10SM FEW250 00/M07 A3013 RMK AO2 SLP209 T00001072=
201602070852 METAR KATL 070852Z 32008KT 10SM CLR 00/M06 A3014 RMK AO2 SLP212 T00001061 55015=
201602070752 METAR KATL 070752Z 33004KT 10SM CLR 00/M06 A3014 RMK AO2 SLP210 T00001061=
201602070652 METAR KATL 070652Z 34007KT 10SM CLR 01/M07 A3016 RMK AO2 SLP217 T00111067=
201602070552 METAR KATL 070552Z 32008KT 10SM CLR 01/M06 A3018 RMK AO2 SLP227 T00111061 10078 20011 58008=
201602070452 METAR KATL 070452Z 32007KT 10SM FEW250 02/M06 A3020 RMK AO2 SLP231 T00221061 401061006=
201602070352 METAR KATL 070352Z 33006KT 10SM FEW250 04/M07 A3021 RMK AO2 SLP236 T00441067=
201602070252 METAR KATL 070252Z 32004KT 10SM FEW250 06/M07 A3021 RMK AO2 SLP235 T00561072 58005=
201602070152 METAR KATL 070152Z 36005KT 10SM FEW080 FEW250 07/M07 A3022 RMK AO2 SLP241 T00671072=
201602070052 METAR KATL 070052Z 35008KT 10SM FEW080 FEW200 SCT250 07/M07 A3023 RMK AO2 SLP245 T00671072=
201602062352 METAR KATL 062352Z 09006KT 10SM FEW080 SCT200 SCT250 07/M09 A3022 RMK AO2 SLP242 T00721089 10106 20072 58001=
201602062252 METAR KATL 062252Z 08008KT 10SM SCT080 BKN200 BKN250 08/M08 A3024 RMK AO2 SLP245 ACC NE-SE-SW T00831078=
201602062152 METAR KATL 062152Z 02008KT 10SM BKN080 10/M09 A3024 RMK AO2 SLP244 T01001089=
201602062052 METAR KATL 062052Z 35011KT 10SM BKN150 BKN250 09/M09 A3023 RMK AO2 SLP242 T00941089 56031=
201602061952 METAR KATL 061952Z VRB03KT 10SM BKN150 BKN250 11/M08 A3025 RMK AO2 SLP250 T01061083=
201602061852 METAR KATL 061852Z 02008KT 10SM BKN170 BKN250 10/M08 A3028 RMK AO2 SLP257 T01001083=
201602061752 METAR KATL 061752Z 02005KT 10SM BKN180 09/M08 A3032 RMK AO2 SLP273 T00891078 10089 21006 58020=
201602061652 METAR KATL 061652Z 08007KT 10SM BKN180 08/M08 A3036 RMK AO2 SLP285 T00781078=
201602061552 METAR KATL 061552Z 09004KT 10SM BKN180 BKN250 06/M07 A3038 RMK AO2 SLP292 T00611072=
201602061452 METAR KATL 061452Z 08007KT 10SM BKN150 BKN250 05/M06 A3038 RMK AO2 SLP295 T00501061 51012=
201602061352 METAR KATL 061352Z 07010KT 10SM FEW150 BKN250 03/M07 A3038 RMK AO2 SLP293 T00281067=
201602061252 METAR KATL 061252Z 06010KT 10SM FEW150 BKN250 01/M07 A3037 RMK AO2 SLP291 T00061067=
201602061152 METAR KATL 061152Z 07006KT 10SM SCT250 00/M07 A3034 RMK AO2 SLP282 T00001067 10028 21006 53000=
201602061052 METAR KATL 061052Z 07006KT 10SM SCT250 00/M07 A3033 RMK AO2 SLP278 T00001072=
201602060952 METAR KATL 060952Z 10004KT 10SM SCT250 01/M07 A3032 RMK AO2 SLP275 T00061067=
201602060852 METAR KATL 060852Z 00000KT 10SM BKN250 00/M08 A3034 RMK AO2 SLP281 T00001078 58007=
201602060752 METAR KATL 060752Z 00000KT 10SM BKN250 02/M08 A3035 RMK AO2 SLP284 T00171083=
201602060652 METAR KATL 060652Z 33005KT 10SM BKN250 02/M08 A3035 RMK AO2 SLP285 T00171083=
201602060552 METAR KATL 060552Z 34003KT 10SM BKN250 02/M08 A3036 RMK AO2 SLP288 T00221083 10061 20011 53003=
201602060452 METAR KATL 060452Z 34004KT 10SM BKN250 03/M09 A3035 RMK AO2 SLP285 T00281089 401001011=
201602060352 METAR KATL 060352Z 34006KT 10SM SCT250 03/M09 A3035 RMK AO2 SLP285 T00331094=
201602060252 METAR KATL 060252Z 32006KT 10SM FEW250 03/M08 A3035 RMK AO2 SLP286 T00281083 50003=
201602060152 METAR KATL 060152Z 32008KT 10SM CLR 04/M08 A3036 RMK AO2 SLP288 T00391083=
201602060052 METAR KATL 060052Z 32007KT 10SM CLR 04/M08 A3035 RMK AO2 SLP287 T00441083=
201602052352 METAR KATL 052352Z 32007KT 10SM CLR 06/M08 A3035 RMK AO2 SLP284 T00611083 10100 20061 52009=
201602052252 METAR KATL 052252Z 32009KT 10SM FEW250 08/M09 A3034 RMK AO2 SLP280 T00781089=
201602052152 METAR KATL 052152Z 32009KT 10SM FEW250 09/M11 A3033 RMK AO2 SLP276 T00941106=
201602052052 METAR KATL 052052Z VRB05KT 10SM FEW250 10/M10 A3032 RMK AO2 SLP272 T01001100 56020=
201602051952 METAR KATL 051952Z 35012KT 330V030 10SM FEW250 10/M11 A3033 RMK AO2 SLP275 T01001106=
201602051852 METAR KATL 051852Z 01008KT 10SM FEW250 08/M11 A3034 RMK AO2 SLP281 T00831111=
201602051752 METAR KATL 051752Z 01006KT 10SM FEW250 08/M09 A3038 RMK AO2 SLP293 T00781094 10078 21011 50001=
201602051652 METAR KATL 051652Z 01010KT 10SM FEW250 07/M10 A3040 RMK AO2 SLP301 T00671100=
201602051552 METAR KATL 051552Z 34012KT 10SM FEW250 06/M09 A3040 RMK AO2 SLP301 T00561094=
201602051452 METAR KATL 051452Z 34013KT 10SM CLR 03/M09 A3037 RMK AO2 SLP292 T00331094 51025=
201602051352 METAR KATL 051352Z 33009KT 10SM CLR 01/M08 A3036 RMK AO2 SLP289 T00061083=
201602051252 METAR KATL 051252Z 32008KT 10SM CLR M01/M09 A3035 RMK AO2 SLP287 T10111089=
201602051152 METAR KATL 051152Z 34013KT 10SM CLR M01/M09 A3030 RMK AO2 SLP267 T10061094 10022 21006 51003=
201602051052 METAR KATL 051052Z 34016G22KT 10SM CLR M01/M09 A3028 RMK AO2 SLP261 T10061089=
201602050952 METAR KATL 050952Z 32013KT 10SM CLR 00/M08 A3031 RMK AO2 SLP269 T00001083=
201602050852 METAR KATL 050852Z 33017G23KT 10SM CLR 01/M08 A3029 RMK AO2 SLP261 T00061083 51013=
201602050752 METAR KATL 050752Z 33016KT 10SM CLR 01/M08 A3028 RMK AO2 PK WND 33030/0739 SLP258 T00111078=
201602050652 METAR KATL 050652Z 32018G25KT 10SM CLR 02/M07 A3026 RMK AO2 PK WND 33028/0602 SLP253 T00171072=
201602050552 METAR KATL 050552Z 33024G31KT 10SM CLR 02/M07 A3025 RMK AO2 PK WND 33034/0512 SLP248 T00221067 10078 20022 53021=
201602050452 METAR KATL 050452Z 32020G26KT 10SM CLR 03/M06 A3023 RMK AO2 PK WND 33034/0432 SLP241 T00281061 401170028=
201602050352 METAR KATL 050352Z 33017KT 10SM CLR 04/M06 A3020 RMK AO2 PK WND 33032/0342 SLP233 T00391056=
201602050252 METAR KATL 050252Z 32015G25KT 10SM CLR 05/M05 A3019 RMK AO2 SLP227 T00501050 51023=
201602050152 METAR KATL 050152Z 32014G25KT 10SM CLR 06/M06 A3016 RMK AO2 PK WND 33026/0133 SLP220 T00611056=
201602050052 METAR KATL 050052Z 31013G18KT 10SM FEW150 07/M04 A3014 RMK AO2 SLP212 T00671044=
201602042352 METAR KATL 042352Z 32014KT 10SM FEW150 08/M04 A3012 RMK AO2 SLP203 T00781044 10117 20078 51021=
201602042252 METAR KATL 042252Z 32015KT 10SM FEW200 09/M04 A3011 RMK AO2 SLP198 T00891044=
201602042152 METAR KATL 042152Z 32017G26KT 10SM FEW200 10/M04 A3007 RMK AO2 PK WND 34026/2148 SLP185 T01001039=
201602042052 METAR KATL 042052Z 30017KT 10SM FEW200 11/M02 A3005 RMK AO2 PK WND 33026/2014 SLP178 T01061022 56007=
201602041952 METAR KATL 041952Z 30016KT 10SM FEW200 11/M01 A3006 RMK AO2 PK WND 31026/1939 SLP178 T01111011=
201602041852 METAR KATL 041852Z 30016G23KT 10SM FEW200 11/M01 A3005 RMK AO2 SLP178 T01061011=
201602041752 METAR KATL 041752Z 30016KT 10SM FEW200 11/M01 A3007 RMK AO2 SLP184 T01061006 10106 20033 58008=
201602041652 METAR KATL 041652Z 30015KT 10SM FEW200 09/M01 A3010 RMK AO2 SLP193 T00941011=
201602041552 METAR KATL 041552Z 33010KT 10SM FEW200 08/M01 A3011 RMK AO2 SLP196 T00781011=
201602041452 METAR KATL 041452Z 33012KT 10SM FEW150 FEW250 06/M01 A3010 RMK AO2 SLP195 T00561006 53006=
201602041352 METAR KATL 041352Z 32011KT 10SM FEW095 SCT180 SCT250 04/M01 A3009 RMK AO2 SLP191 ACC DSNT E T00391011=
201602041252 METAR KATL 041252Z 31008KT 10SM FEW100 SCT180 SCT250 03/M01 A3008 RMK AO2 SLP188 T00331011=
201602041152 METAR KATL 041152Z 31011KT 10SM FEW100 SCT200 SCT250 04/M01 A3008 RMK AO2 SLP187 70166 T00441006 10111 20044 53011=
201602041052 METAR KATL 041052Z 32011G22KT 10SM SCT200 BKN250 06/M01 A3007 RMK AO2 SLP184 T00561006=
201602040952 METAR KATL 040952Z 33009G19KT 10SM FEW090 BKN250 07/00 A3005 RMK AO2 SLP176 T00670000=
201602040852 METAR KATL 040852Z 33014G20KT 10SM FEW080 SCT095 SCT250 08/01 A3005 RMK AO2 SLP175 T00780006 51010=
201602040752 METAR KATL 040752Z 32012KT 10SM SCT075 BKN090 BKN250 09/01 A3004 RMK AO2 SLP172 T00940006=
201602040652 METAR KATL 040652Z 31011KT 10SM BKN080 BKN250 11/02 A3004 RMK AO2 SLP171 T01060017=
201602040552 METAR KATL 040552Z 33010KT 10SM FEW075 BKN250 11/03 A3001 RMK AO2 SLP162 T01110033 10144 20111 58003=
201602040452 METAR KATL 040452Z 31009KT 10SM BKN075 BKN100 BKN250 12/07 A3003 RMK AO2 SLP168 T01170072 402000117=
201602040352 METAR KATL 040352Z 29006KT 10SM BKN095 BKN250 12/08 A3002 RMK AO2 SLP166 T01220078=
201602040252 METAR KATL 040252Z 26004KT 10SM FEW090 SCT120 BKN250 12/07 A3002 RMK AO2 SLP165 T01220072 53012=
201602040152 METAR KATL 040152Z 27004KT 10SM FEW080 BKN120 BKN250 13/08 A3000 RMK AO2 SLP158 T01280078=
201602040052 METAR KATL 040052Z 29006KT 10SM FEW080 SCT120 BKN250 13/08 A3000 RMK AO2 SLP156 T01280083=
201602032352 METAR KATL 032352Z 28003KT 10SM SCT085 BKN110 BKN150 BKN250 14/09 A2999 RMK AO2 SLP152 60000 T01390089 10156 20139 53020=
201602032252 METAR KATL 032252Z 29005KT 10SM SCT070 BKN090 BKN150 OVC250 15/10 A2995 RMK AO2 SLP138 T01500100=
201602032152 METAR KATL 032152Z 29006KT 10SM FEW020 BKN070 BKN120 OVC250 16/12 A2993 RMK AO2 RAE2054 SLP131 P0000 T01560117=
201602032052 METAR KATL 032052Z 28006KT 10SM -RA FEW015 BKN070 OVC100 16/12 A2993 RMK AO2 RAB35 SLP129 P0000 60000 T01560117 55001=
201602031952 METAR KATL 031952Z 27006KT 10SM FEW010 SCT040 OVC080 16/13 A2992 RMK AO2 RAE01 SLP127 P0000 T01560128=
201602031852 METAR KATL 031852Z 28008KT 10SM -RA BKN010 BKN040 OVC100 16/13 A2993 RMK AO2 RAB52 SLP129 P0000 T01560133=
201602031752 METAR KATL 031752Z 29004KT 8SM BKN005 BKN040 OVC100 16/14 A2993 RMK AO2 SLP131 60166 T01560144 10194 20139 58009=
201602031652 METAR KATL 031652Z 22004KT 8SM BKN007 BKN040 OVC100 15/13 A2996 RMK AO2 RAE1553B19E48 SLP140 P0000 T01500133=
201602031606 SPECI KATL 031606Z 19004KT 9SM FEW005 BKN040 OVC100 14/13 A2995 RMK AO2 RAE1553 P0000 T01440133=
201602031552 METAR KATL 031552Z 20005KT 1 1/2SM -RA BR BKN005 BKN040 OVC100 14/13 A2995 RMK AO2 SFC VIS 6 SLP138 P0016 T01390128=
201602031542 SPECI KATL 031542Z 15005KT 1 1/2SM -RA BR BKN005 BKN060 OVC080 14/13 A2994 RMK AO2 SFC VIS 2 P0016 T01390128=
201602031452 METAR KATL 031452Z 16006KT 2SM RA BR FEW007 BKN070 OVC100 14/13 A2996 RMK AO2 SFC VIS 3 SLP142 P0024 60150 T01390128 51025=
201602031352 METAR KATL 031352Z 21004KT 2SM RA BR SCT007 BKN024 OVC050 14/12 A2995 RMK AO2 SFC VIS 3 PRESRR SLP140 P0015 T01390122=
201602031347 SPECI KATL 031347Z 25003KT 2SM RA BR FEW007 BKN022 OVC045 14/12 A2995 RMK AO2 SFC VIS 2 1/2 P0014=
201602031324 SPECI KATL 031324Z 30006KT 2SM +RA BR SCT026 BKN040 OVC060 14/12 A2993 RMK AO2 SFC VIS 2 1/2 P0006 T01390122=
201602031319 SPECI KATL 031319Z 28007KT 3SM RA BR SCT026 BKN040 OVC065 14/13 A2993 RMK AO2 P0002 T01390128=
201602031306 SPECI KATL 031306Z 28007KT 6SM -RA BR FEW010 BKN026 OVC040 14/13 A2994 RMK AO2 P0000 T01440128=
201602031252 METAR KATL 031252Z COR 30012KT 8SM -RA FEW010 BKN030 OVC045 14/13 A2993 RMK AO2 PK WND 30026/1207 WSHFT 1159 FROPA SLP133 CB DSNT NE-SE-S P0111 T01440128=
201602031249 SPECI KATL 031249Z 29009KT 8SM -RA FEW010 BKN030 OVC045 15/13 A2993 RMK AO2 PK WND 30026/1207 WSHFT 1159 CB DSNT NE-SE-S P0111=
201602031240 SPECI KATL 031240Z 29009G20KT 2SM -RA BR FEW008 BKN020 OVC030CB 15/13 A2993 RMK AO2 PK WND 30026/1207 WSHFT 1159 SFC VIS 3 CB NE-SE-S MOV NE P0110 T01500128=
201602031231 SPECI KATL 031231Z 31014G24KT 1 1/2SM +RA BR FEW008 BKN016 OVC030CB 15/13 A2992 RMK AO2 PK WND 30026/1207 WSHFT 1159 CB NE-SE-SW MOV NE P0102 T01500128=
201602031215 SPECI KATL 031215Z 31016G26KT 1 1/2SM R09R/5500VP6000FT +RA BR FEW006 BKN014 OVC022CB 16/14 A2991 RMK AO2 PK WND 30026/1207 WSHFT 1159 CB NE-OHD-SW MOV NE P0070 T01610144=
201602031206 SPECI KATL 031206Z 32021G24KT 1SM R09R/4000VP6000FT +RA BR SCT006 BKN010 OVC018CB 17/16 A2988 RMK AO2 WSHFT 1139 TWR VIS 1 1/2 CB NE-OHD-SW MOV NE P0048 T01720156=
201602031152 METAR KATL 031152Z 25016G28KT 1SM R09R/3500VP6000FT +RA BR BKN010 OVC020CB 19/18 A2988 RMK AO2 PK WND 17033/1138 WSHFT 1136 TWR VIS 1 1/2 PRESRR SLP112 CB NE-OHD-SW MOV NE P0028 60043 70044 T01940178 10200 20189 55004=
201602031144 SPECI KATL 031144Z 19020G33KT 1 1/2SM R09R/3500VP6000FT +RA BR BKN012 OVC022CB 19/18 A2985 RMK AO2 PK WND 17033/1138 TWR VIS 2 VIS 3/4V5 CB NE-OHD-SW MOV NE P0008 T01940178=
201602031052 METAR KATL 031052Z 18016G25KT 10SM -RA BKN010 OVC018 19/18 A2985 RMK AO2 PK WND 17026/1021 RAE31B51 SLP102 CIG 009V012 P0008 T01940178=
201602030952 METAR KATL 030952Z 18015G22KT 3SM R09R/6000VP6000FT -RA BR FEW008 BKN012 OVC020CB 19/17 A2987 RMK AO2 PK WND 17027/0917 RAE0854B14 SLP108 CIG 010V014 CB NE-OHD-SW MOV NE P0007 T01940172=
201602030852 METAR KATL 030852Z 18018G23KT 8SM -RA BKN010 OVC020 19/17 A2990 RMK AO2 RAB16 SLP116 CIG 008V012 P0000 60000 T01940172 58007=
201602030752 METAR KATL 030752Z 17016G24KT 10SM OVC010 19/17 A2991 RMK AO2 RAE02 SLP119 CIG 008V012 P0000 T01940167=
201602030746 SPECI KATL 030746Z 17015G20KT 10SM OVC010 19/17 A2991 RMK AO2 RAE02 CIG 008V012 P0000=
201602030652 METAR KATL 030652Z 18017G25KT 8SM -RA OVC009 19/17 A2992 RMK AO2 RAE27B49 SLP124 CIG 008V011 P0000 T01940172=
201602030638 SPECI KATL 030638Z 17017G22KT 10SM OVC009 19/17 A2992 RMK AO2 RAE27 CIG 008V011 P0000 T01940172=
201602030552 METAR KATL 030552Z 16015G23KT 8SM -RA BKN012 OVC050 19/17 A2992 RMK AO2 RAB07E24B47 SLP126 P0000 60001 T01940167 10200 20172 58015=
201602030513 SPECI KATL 030513Z 16012G25KT 8SM -RA BKN012 BKN020 OVC050 19/17 A2994 RMK AO2 RAB07 P0000 T01940167=
201602030452 METAR KATL 030452Z 15015G21KT 8SM BKN009 OVC050 19/17 A2995 RMK AO2 SLP136 CIG 006V012 T01890167 402440122=
201602030352 METAR KATL 030352Z 14012G22KT 8SM BKN007 OVC050 18/16 A2997 RMK AO2 RAE08 SLP145 CIG 005V009 P0000 T01780161=
201602030348 SPECI KATL 030348Z 14012G22KT 8SM BKN007 OVC050 18/16 A2997 RMK AO2 RAE08 CIG 005V009 P0000=
201602030318 SPECI KATL 030318Z 13010KT 9SM FEW007 BKN012 OVC050 17/16 A2999 RMK AO2 RAE08 P0000 T01720156=
201602030252 METAR KATL 030252Z 13008KT 9SM -RA SCT011 BKN035 BKN060 OVC200 17/16 A3000 RMK AO2 RAE01B30 SLP156 P0000 60001 T01720156 58004=
201602030152 METAR KATL 030152Z 14010G15KT 9SM -RA SCT035 BKN055 OVC070 18/15 A3001 RMK AO2 RAB50 SLP159 P0001 T01780150=
201602030052 METAR KATL 030052Z 14008G17KT 10SM FEW020 BKN055 BKN070 BKN200 19/14 A3001 RMK AO2 SLP160 T01890144=
201602022352 METAR KATL 022352Z 15012G23KT 10SM FEW022 SCT045 BKN060 BKN200 20/14 A3001 RMK AO2 SLP160 T02000144 10244 20194 53012=
201602022252 METAR KATL 022252Z 16019G24KT 10SM FEW035 BKN060 OVC200 22/14 A3000 RMK AO2 PK WND 16027/2153 SLP155 T02170139=
201602022152 METAR KATL 022152Z 16018G26KT 10SM FEW040 SCT060 BKN150 BKN250 23/13 A2998 RMK AO2 PK WND 17026/2143 SLP147 T02280133=
201602022052 METAR KATL 022052Z 16015G21KT 10SM FEW040 BKN065 BKN250 23/13 A2998 RMK AO2 SLP145 T02330133 56028=
201602021952 METAR KATL 021952Z 14012G18KT 10SM FEW040 SCT080 24/14 A2999 RMK AO2 SLP150 T02440139=
201602021852 METAR KATL 021852Z 14011KT 10SM FEW030 FEW080 22/14 A3002 RMK AO2 SLP160 T02220144=
201602021752 METAR KATL 021752Z 13011KT 10SM FEW020 FEW090 19/14 A3006 RMK AO2 SLP177 T01940139 10194 20122 58010=
201602021652 METAR KATL 021652Z 11008KT 7SM FEW005 SCT008 BKN085 18/14 A3010 RMK AO2 SLP189 T01780144=
201602021635 SPECI KATL 021635Z 11006KT 6SM BR FEW005 BKN008 BKN080 17/15 A3011 RMK AO2 T01720150=
201602021608 SPECI KATL 021608Z 10009KT 2SM BR BCFG OVC005 16/14 A3010 RMK AO2 SFC VIS 5 T01610144=
201602021552 METAR KATL 021552Z 11009KT 1/4SM R09R/P6000FT BR BCFG OVC003 16/14 A3010 RMK AO2 SFC VIS 2 SLP191 TWRINC T01560144=
201602021452 METAR KATL 021452Z 10009KT 1/4SM R09R/2200V2600FT FG VV003 14/14 A3010 RMK AO2 SFC VIS 1/2 SLP189 T01440139 51013=
201602021429 SPECI KATL 021429Z 09006KT 1/4SM R09R/1800V2400FT FG VV002 14/13 A3009 RMK AO2 T01390133=
201602021352 METAR KATL 021352Z 09009KT 1/4SM R09R/1200V1600FT FG VV002 13/12 A3009 RMK AO2 SLP186 T01330122=
201602021302 SPECI KATL 021302Z 10005KT 1/4SM R09R/1200V1800FT FG BKN002 BKN060 12/12 A3008 RMK AO2 T01220117=
201602021252 METAR KATL 021252Z 08007KT 1/4SM R09R/2200V4000FT FG BKN002 BKN060 12/12 A3007 RMK AO2 SLP182 T01220117=
201602021152 METAR KATL 021152Z 08006KT 1/4SM R09R/3500VP6000FT FG VV002 12/11 A3006 RMK AO2 SFC VIS 1/2 SLP176 60000 70003 T01220111 10139 20122 53011=
201602021052 METAR KATL 021052Z 07004KT 1/4SM R09R/2200V5500FT FG BKN003 BKN019 BKN060 13/12 A3004 RMK AO2 SFC VIS 1/2 SLP170 T01330122=
201602021047 SPECI KATL 021047Z 00000KT 1/4SM R09R/1800V3500FT FG BKN003 BKN019 BKN060 13/12 A3004 RMK AO2 SFC VIS 1/2=
201602020952 METAR KATL 020952Z 09003KT 1/4SM R09R/1400FT FG BKN002 BKN019 13/12 A3002 RMK AO2 RAB0857E06 SLP163 P0000 T01280117=
201602020945 SPECI KATL 020945Z 07003KT 1/4SM R09R/1400V1800FT FG BKN002 BKN019 13/12 A3002 RMK AO2 RAB0857E06 P0000 T01280117=
201602020933 SPECI KATL 020933Z 07004KT 1/4SM R09R/1800V2800FT FG BKN002 OVC019 13/12 A3002 RMK AO2 RAB0857E06 P0000 T01280117=
201602020852 METAR KATL 020852Z 00000KT 1/4SM R09R/1200V1400FT BR BKN002 OVC019 14/13 A3002 RMK AO2 SFC VIS 3/4 SLP163 60000 T01390128 53006=
201602020831 SPECI KATL 020831Z 00000KT 1/4SM R09R/1200V1600FT BR BKN002 OVC019 13/13 A3002 RMK AO2 SFC VIS 3/4 T01330128=
201602020752 METAR KATL 020752Z 00000KT 1/4SM R09R/2800V5500FT BR BKN002 BKN019 BKN060 13/13 A3001 RMK AO2 SFC VIS 3/4 RAB08E20 SLP160 P0000 T01330128=
201602020652 METAR KATL 020652Z 00000KT 1/4SM R09R/2200V2600FT FG BKN002 BKN023 OVC065 14/13 A3001 RMK AO2 SFC VIS 1/2 SLP158 BKN002 V SCT T01390128=
201602020552 METAR KATL 020552Z 14003KT 1/4SM R09R/1800V3000FT FG VV002 14/13 A3000 RMK AO2 SFC VIS 1/2 SLP158 T01390128 10172 20139 51003=
201602020503 SPECI KATL 020503Z 00000KT 1/4SM R09R/1400V1600FT FG VV002 14/13 A3000 RMK AO2 T01440133=
201602020454 SPECI KATL 020454Z 00000KT 1/2SM R09R/1400V2200FT FG VV002 14/13 A3000 RMK AO2 T01440133=
201602020452 METAR KATL 020452Z 13003KT 1/2SM R09R/1400V2800FT FG VV002 14/13 A3000 RMK AO2 SLP157 T01440133 402110133=
201602020449 SPECI KATL 020449Z 13003KT 1/2SM R09R/1800V2800FT FG VV002 14/13 A3001 RMK AO2=
201602020413 SPECI KATL 020413Z 00000KT 1 1/2SM BR BKN004 BKN065 14/13 A3001 RMK AO2 SFC VIS 4 VIS E-SW-W 2 T01440133=
201602020401 SPECI KATL 020401Z 00000KT 6SM BR SCT004 BKN065 14/13 A3001 RMK AO2 VIS SE-SW-W 2 T01440133=
201602020352 METAR KATL 020352Z 15003KT 7SM FEW005 BKN065 14/13 A3001 RMK AO2 SLP158 T01440133=
201602020252 METAR KATL 020252Z 18003KT 9SM FEW060 15/13 A2999 RMK AO2 SLP155 T01500133 51008=
201602020152 METAR KATL 020152Z 16004KT 10SM FEW040 16/13 A2999 RMK AO2 SLP154 T01560133=
201602020052 METAR KATL 020052Z 17004KT 10SM FEW040 17/13 A2998 RMK AO2 SLP150 T01670133=
201602012352 METAR KATL 012352Z 17008KT 10SM FEW040 17/13 A2997 RMK AO2 SLP147 T01720133 10211 20172 51009=
201602012252 METAR KATL 012252Z 20005KT 10SM FEW030 19/13 A2997 RMK AO2 SLP143 T01940128=
201602012152 METAR KATL 012152Z 22006KT 10SM FEW030 SCT050 20/13 A2996 RMK AO2 SLP140 T02000133=
201602012052 METAR KATL 012052Z 24007KT 10SM FEW025 FEW030 SCT055 21/13 A2994 RMK AO2 SLP135 T02060133 56010=
201602012047 SPECI KATL 012047Z 24008KT 10SM FEW025 SCT055 20/13 A2994 RMK AO2=
201602012016 SPECI KATL 012016Z 23009KT 10SM BKN025 BKN033 BKN040 20/13 A2994 RMK AO2 T02000133=
201602011952 METAR KATL 011952Z 24012G18KT 10SM SCT020 BKN030 BKN040 19/13 A2996 RMK AO2 SLP139 T01940128=
201602011921 SPECI KATL 011921Z 22006KT 10SM FEW020 SCT030 SCT070 19/13 A2996 RMK AO2 T01890133=
201602011916 SPECI KATL 011916Z 21009KT 10SM SCT020 BKN030 BKN070 19/13 A2996 RMK AO2 T01890133=
201602011852 METAR KATL 011852Z 24006KT 10SM SCT015 BKN025 BKN030 19/13 A2997 RMK AO2 SLP147 T01890133=
201602011834 SPECI KATL 011834Z 25006KT 10SM BKN015 BKN020 BKN030 18/14 A2998 RMK AO2 T01830139=
201602011752 METAR KATL 011752Z 23008KT 10SM BKN010 BKN015 BKN020 17/14 A2999 RMK AO2 SLP152 60003 T01720139 10172 20133 58014=
201602011741 SPECI KATL 011741Z 23011KT 10SM BKN010 OVC020 17/14 A2999 RMK AO2 T01670139=
201602011658 SPECI KATL 011658Z 24006KT 3SM BR OVC006 16/14 A3001 RMK AO2 SFC VIS 6 T01560139=
201602011652 METAR KATL 011652Z 23007KT 2 1/2SM OVC006 16/14 A3001 RMK AO2 SFC VIS 7 SLP161 T01560139=
201602011552 METAR KATL 011552Z 22008KT 2 1/2SM BR OVC005 15/13 A3002 RMK AO2 SFC VIS 6 SLP165 T01500133=
201602011452 METAR KATL 011452Z 21006KT 2 1/2SM BR BKN005 OVC008 14/12 A3003 RMK AO2 SFC VIS 4 SLP167 60003 T01390122 53009=
201602011352 METAR KATL 011352Z 20006KT 2 1/2SM BR BKN005 BKN009 OVC040 13/12 A3001 RMK AO2 SFC VIS 5 DZE19RAB19E46 SLP163 CIG 004V006 P0003 T01330122=
201602011319 SPECI KATL 011319Z 21006KT 2 1/2SM -RA BR OVC005 14/12 A3001 RMK AO2 SFC VIS 3 DZE19RAB19 CIG 004V006 P0001 T01390117=
201602011252 METAR KATL 011252Z 20005KT 6SM -DZ BR OVC005 14/12 A3001 RMK AO2 DZB52 SLP158 P0000 T01390117=
