##########################################################
# Query made at 04/19/2024 23:51:23 UTC
# Time interval: from 11/01/2016 12:00  to 11/30/2016 12:59  UTC
##########################################################

##########################################################
# KATL, Atlanta, Hartsfield - Jackson Atlanta International Airport (United States)
# WMO index: 72219. WIGOS ID: 0-20000-0-72219
# Latitude 33-38-59N. Longitude 084-25-00W. Altitude 312 m.
##########################################################

201611301252 METAR KATL 301252Z 17009KT 8SM FEW008 FEW015 SCT200 BKN250 19/18 A2984 RMK AO2 SLP099 T01890178=
201611301152 METAR KATL 301152Z 18008KT 10SM SCT010 SCT024 BKN090 19/18 A2986 RMK AO2 SLP104 70023 T01890178 10206 20189 55003=
201611301052 METAR KATL 301052Z 20009KT 10SM FEW010 FEW015 19/18 A2986 RMK AO2 SLP104 T01890178=
201611301038 SPECI KATL 301038Z 19009KT 10SM SCT013 19/18 A2986 RMK AO2 T01890178=
201611300952 METAR KATL 300952Z 19010KT 10SM BKN016 19/18 A2986 RMK AO2 SLP106 T01940183=
201611300852 METAR KATL 300852Z 19009KT 10SM BKN015 19/18 A2987 RMK AO2 SLP107 T01940183 55004=
201611300752 METAR KATL 300752Z 18010KT 10SM FEW014 SCT038 SCT070 20/18 A2986 RMK AO2 SLP106 T02000183=
201611300652 METAR KATL 300652Z 18011KT 10SM FEW014 SCT028 BKN038 20/19 A2988 RMK AO2 SLP111 T02000189=
201611300552 METAR KATL 300552Z 20010KT 10SM SCT012 BKN025 OVC040 21/19 A2988 RMK AO2 SLP111 T02060189 10206 20189 58002=
201611300518 SPECI KATL 300518Z 19014G20KT 10SM SCT012 BKN020 OVC045 20/19 A2988 RMK AO2 T02000189=
201611300452 METAR KATL 300452Z 18009KT 10SM FEW005 SCT012 BKN045 BKN250 20/19 A2988 RMK AO2 SLP114 SCT012 V BKN T02000189 402060128=
201611300352 METAR KATL 300352Z 18008KT 10SM FEW005 SCT030 BKN050 BKN250 19/19 A2989 RMK AO2 SLP117 T01940189=
201611300252 METAR KATL 300252Z 18012KT 10SM FEW004 SCT010 BKN250 19/19 A2989 RMK AO2 SLP116 T01940189 58002=
201611300152 METAR KATL 300152Z 14007KT 9SM SCT005 BKN030 BKN250 19/18 A2989 RMK AO2 SLP117 SCT005 V BKN T01890183=
201611300139 SPECI KATL 300139Z 15007KT 9SM SCT004 BKN030 BKN060 BKN250 19/19 A2989 RMK AO2 T01940189=
201611300052 METAR KATL 300052Z 14007KT 10SM SCT032 BKN050 BKN250 19/19 A2990 RMK AO2 SLP122 T01940189=
201611292352 METAR KATL 292352Z 12005KT 10SM BKN032 BKN050 BKN250 20/19 A2989 RMK AO2 SLP119 SHRA W-NW 60000 T02000189 10206 20183 51006=
201611292311 SPECI KATL 292311Z 14004KT 10SM SCT030 BKN060 BKN250 20/18 A2989 RMK AO2 T02000183=
201611292252 METAR KATL 292252Z 14004KT 10SM SCT022 BKN027 OVC040 20/19 A2989 RMK AO2 RAB17E28 SLP117 P0000 T02000189=
201611292152 METAR KATL 292152Z 19005KT 10SM BKN018 BKN027 OVC040 21/18 A2989 RMK AO2 SLP115 T02060183=
201611292105 SPECI KATL 292105Z 20006KT 10SM FEW012 BKN016 OVC030 21/18 A2988 RMK AO2 T02060183=
201611292052 METAR KATL 292052Z 20004KT 10SM BKN014 BKN025 OVC030 21/18 A2987 RMK AO2 RAB07E17 SLP111 P0000 60000 T02060183 56005=
201611291952 METAR KATL 291952Z 20006KT 10SM BKN012 BKN015 OVC030 20/18 A2988 RMK AO2 SLP111 T02000183=
201611291852 METAR KATL 291852Z 21006KT 10SM BKN010 BKN015 OVC030 19/17 A2989 RMK AO2 SLP113 T01940172=
201611291842 SPECI KATL 291842Z 20004KT 10SM BKN010 BKN014 OVC030 19/17 A2988 RMK AO2 T01940172=
201611291752 METAR KATL 291752Z 19006KT 9SM BKN008 BKN030 OVC080 18/17 A2989 RMK AO2 SLP115 60023 T01830172 10183 20128 50007=
201611291652 METAR KATL 291652Z 19006KT 6SM BR BKN006 BKN028 OVC080 17/16 A2989 RMK AO2 SLP117 T01720161=
201611291552 METAR KATL 291552Z 18006KT 6SM BR BKN006 BKN080 BKN250 16/16 A2989 RMK AO2 RAE1456 SLP116 P0000 T01610156=
201611291523 SPECI KATL 291523Z 16005KT 3SM BR BKN005 BKN010 BKN080 15/15 A2988 RMK AO2 SFC VIS 6 RAE1456 P0000 T01500150=
201611291518 SPECI KATL 291518Z 16005KT 3SM BR FEW005 SCT050 BKN080 BKN250 15/15 A2988 RMK AO2 SFC VIS 6 RAE1456 P0000 T01500150=
201611291452 METAR KATL 291452Z 16006KT 1SM R09R/P6000FT -RA BR BKN004 BKN050 BKN080 14/14 A2987 RMK AO2 SFC VIS 5 SLP109 TWRINC P0005 60023 T01440144 50007=
201611291442 SPECI KATL 291442Z 15010KT 1 1/2SM -RA BR FEW005 BKN050 OVC080 14/14 A2985 RMK AO2 SFC VIS 3 P0005 T01440144=
201611291429 SPECI KATL 291429Z 14009KT 2SM R09R/5500VP6000FT RA BR FEW030 BKN045 OVC055 14/14 A2986 RMK AO2 P0003 T01390139=
201611291422 SPECI KATL 291422Z 14008KT 1 3/4SM R09R/5500VP6000FT -RA BR FEW030 BKN050 OVC065 14/14 A2987 RMK AO2 TWR VIS 2 P0002 T01390139=
201611291417 SPECI KATL 291417Z 14006KT 2SM -RA BR FEW030 BKN050 OVC065 14/14 A2987 RMK AO2 SFC VIS 2 1/2 P0001 T01440139=
201611291352 METAR KATL 291352Z 12003KT 3SM -RA BR FEW027 BKN045 OVC060 14/14 A2987 RMK AO2 SLP111 P0011 T01390139=
201611291320 SPECI KATL 291320Z 00000KT 5SM -RA BR FEW026 BKN049 OVC060 13/13 A2987 RMK AO2 P0007 T01280128=
201611291252 METAR KATL 291252Z 33004KT 2SM RA BR FEW005 OVC042 13/13 A2986 RMK AO2 SFC VIS 3 SLP106 P0007 T01330128=
201611291234 SPECI KATL 291234Z 33004KT 2SM RA BR FEW005 OVC032 13/13 A2985 RMK AO2 P0004 T01280128=
201611291221 SPECI KATL 291221Z 34004KT 6SM -RA BR FEW007 FEW016 OVC032 13/12 A2984 RMK AO2 P0002 T01330122=
201611291152 METAR KATL 291152Z 33007KT 6SM -RA BR FEW004 OVC026 13/12 A2984 RMK AO2 SLP102 P0003 60209 70209 T01330122 10200 20133 53026 $=
201611291106 SPECI KATL 291106Z 34009KT 7SM -RA FEW004 SCT011 OVC024 14/13 A2981 RMK AO2 P0001 T01390133 $=
201611291052 METAR KATL 291052Z 35009KT 8SM -RA FEW003 BKN011 OVC022 14/14 A2981 RMK AO2 WSHFT 1006 SLP091 P0016 T01440139 $=
201611291024 SPECI KATL 291024Z 32013KT 4SM RA BR BKN007 BKN028 OVC040 15/14 A2978 RMK AO2 WSHFT 1006 P0015 T01500144=
201611291015 SPECI KATL 291015Z 32013KT 5SM RA BR BKN006 BKN018 OVC034 16/15 A2977 RMK AO2 P0013 T01560150=
201611291009 SPECI KATL 291009Z 30012G17KT 3SM +RA BR SCT004 BKN018 OVC030 17/16 A2977 RMK AO2 P0010 T01670161=
201611290952 METAR KATL 290952Z 21007KT 4SM RA BR FEW004 SCT032 OVC070 17/17 A2976 RMK AO2 SLP072 P0054 T01720172=
201611290924 SPECI KATL 290924Z 19007KT 3SM R09R/6000VP6000FT +RA BR SCT004 BKN024CB OVC085 17/17 A2977 RMK AO2 CB E-SE MOV NE P0039 T01720172=
201611290907 SPECI KATL 290907Z 21008KT 6SM -RA BR FEW007 SCT026CB OVC085 17/17 A2974 RMK AO2 CB E-SE MOV NE P0024 T01720167=
201611290852 METAR KATL 290852Z 23006KT 1SM R09R/6000VP6000FT +RA BR FEW009 SCT018CB OVC024 17/17 A2976 RMK AO2 WSHFT 0743 SFC VIS 1 1/2 TSE27 SLP073 CB ALQDS MOV NE TS DSIPTD P0114 60136 T01720167 53011=
201611290840 SPECI KATL 290840Z 24006KT 1SM R09R/3000VP6000FT +RA BR FEW009 BKN018CB OVC024 17/17 A2977 RMK AO2 WSHFT 0743 TSE27 CB OHD-W-NW MOV NE TS DSIPTD P0091 T01720167=
201611290828 SPECI KATL 290828Z VRB04KT 2SM +RA BR FEW009 BKN021CB OVC026 17/17 A2976 RMK AO2 WSHFT 0743 TSE27 CB VC SW-W MOV NE TS DSIPTD P0060 T01720167=
201611290759 SPECI KATL 290759Z 28010G20KT 2SM +TSRA BR FEW009 BKN021CB OVC038 18/17 A2977 RMK AO2 WSHFT 0743 LTG DSNT SW PRESRR OCNL LTGIC SW-NW TS SW-NW MOV NE P0004 T01780167=
201611290757 SPECI KATL 290757Z 27013G23KT 3SM TSRA BR FEW009 BKN021 OVC025 18/17 A2977 RMK AO2 WSHFT 0743 PRESRR OCNL LTGIC SW-NW TS SW-NW MOV NE P0002 T01780167=
201611290752 METAR KATL 290752Z 20015G23KT 3SM +TSRA BR BKN023CB OVC038 18/17 A2972 RMK AO2 PK WND 16030/0654 TSB41 SLP057 OCNL LTGIC SW-NW-N TS SW-NW-N MOV NE P0022 T01780167=
201611290741 SPECI KATL 290741Z 17019G26KT 4SM TSRA BR BKN023CB OVC030 18/16 A2972 RMK AO2 PK WND 16030/0654 TSB41 OCNL LTGIC SW-NW TS VC SW-NW MOV NE P0015 T01780161=
201611290723 SPECI KATL 290723Z 17012G19KT 4SM RA BR OVC024 18/16 A2972 RMK AO2 PK WND 16030/0654 OCNL LTGIC DSNT SW-NW-N CB DSNT SW-NW-N P0008 T01830161=
201611290652 METAR KATL 290652Z 18019G25KT 10SM -RA OVC027 19/14 A2972 RMK AO2 PK WND 17030/0616 RAB50 SLP059 OCNL LTGIC DSNT W-N CB DSNT W-N P0000 T01940144=
201611290626 SPECI KATL 290626Z 18017G30KT 10SM BKN028 BKN036 OVC070 20/14 A2973 RMK AO2 PK WND 17030/0616 OCNL LTGIC DSNT W-NW CB DSNT W-NW T02000144=
201611290552 METAR KATL 290552Z 18019G31KT 10SM BKN030 BKN070 OVC200 20/14 A2973 RMK AO2 PK WND 18033/0528 SLP061 T02000139 10200 20194 56020=
201611290452 METAR KATL 290452Z 18019G28KT 10SM SCT032 BKN080 BKN110 OVC200 19/13 A2975 RMK AO2 PK WND 18032/0432 SLP069 T01940128 402000083=
201611290352 METAR KATL 290352Z 17017G26KT 10SM SCT035 BKN110 OVC200 19/11 A2976 RMK AO2 PK WND 16030/0330 SLP075 T01940111=
201611290252 METAR KATL 290252Z 17018G24KT 10SM BKN040 BKN070 OVC200 19/10 A2979 RMK AO2 PK WND 15030/0156 SLP085 T01940100 58004=
201611290152 METAR KATL 290152Z 16017G23KT 10SM SCT050 BKN070 OVC120 19/09 A2981 RMK AO2 SLP092 T01940094=
201611290052 METAR KATL 290052Z 16014G25KT 10SM BKN045 OVC110 19/09 A2983 RMK AO2 SLP097 T01940089=
201611282352 METAR KATL 282352Z 15017G27KT 9SM BKN050 BKN070 BKN200 19/08 A2980 RMK AO2 PK WND 14027/2349 SLP089 T01940083 10200 20161 58019=
201611282252 METAR KATL 282252Z 15012G18KT 10SM SCT055 BKN080 BKN200 19/08 A2982 RMK AO2 SLP094 T01940083=
201611282152 METAR KATL 282152Z 14011G17KT 10SM BKN050 OVC080 20/08 A2985 RMK AO2 SLP104 BINOVC T02000083=
201611282052 METAR KATL 282052Z 15014G25KT 10SM SCT050 BKN055 OVC070 19/09 A2986 RMK AO2 SLP108 T01940089 56034=
201611281952 METAR KATL 281952Z 16015G24KT 8SM SCT050 BKN060 BKN230 19/09 A2987 RMK AO2 PK WND 14028/1936 SLP113 T01890094=
201611281852 METAR KATL 281852Z 14013G23KT 10SM BKN060 18/09 A2991 RMK AO2 SLP127 T01780089=
201611281752 METAR KATL 281752Z 15012KT 10SM OVC055 16/09 A2996 RMK AO2 SLP144 T01610089 10161 20083 58038=
201611281652 METAR KATL 281652Z 15012G18KT 10SM OVC055 14/08 A3000 RMK AO2 SLP160 T01390083=
201611281552 METAR KATL 281552Z 13010G17KT 10SM BKN055 BKN250 12/07 A3005 RMK AO2 SLP178 T01220067=
201611281452 METAR KATL 281452Z 11008KT 10SM FEW050 BKN060 BKN250 11/06 A3008 RMK AO2 SLP186 T01060056 58001=
201611281352 METAR KATL 281352Z 13009KT 10SM FEW047 BKN055 OVC250 09/04 A3008 RMK AO2 SLP187 T00940039=
201611281252 METAR KATL 281252Z 12008KT 10SM FEW040 BKN050 OVC250 09/03 A3009 RMK AO2 SLP189 BINOVC T00890028=
201611281152 METAR KATL 281152Z 12009KT 10SM FEW028 SCT050 BKN220 08/02 A3008 RMK AO2 SLP187 T00830022 10100 20083 58009=
201611281052 METAR KATL 281052Z 11007KT 10SM SCT048 BKN180 BKN250 09/02 A3010 RMK AO2 SLP193 T00890017=
201611280952 METAR KATL 280952Z 11007KT 10SM FEW048 SCT180 BKN250 09/01 A3009 RMK AO2 SLP192 T00890006=
201611280852 METAR KATL 280852Z 12006KT 10SM FEW028 SCT200 SCT250 09/01 A3011 RMK AO2 SLP196 T00890006 58003=
201611280850 SPECI KATL 280850Z 11007KT 10SM FEW028 SCT200 SCT250 09/01 A3011 RMK AO2=
201611280752 METAR KATL 280752Z 13006KT 10SM BKN027 BKN040 BKN200 BKN250 10/01 A3012 RMK AO2 SLP200 T01000006=
201611280707 SPECI KATL 280707Z 11007KT 10SM BKN027 BKN140 OVC180 10/00 A3013 RMK AO2 T01000000=
201611280652 METAR KATL 280652Z 11007KT 10SM FEW140 OVC180 10/M01 A3013 RMK AO2 SLP202 T01001006=
201611280552 METAR KATL 280552Z 12006KT 10SM FEW140 OVC180 10/M01 A3012 RMK AO2 SLP199 T01001011 10128 20094 56007=
201611280452 METAR KATL 280452Z 12009KT 10SM FEW140 BKN180 OVC250 11/M02 A3012 RMK AO2 SLP202 T01061017 401610017=
201611280352 METAR KATL 280352Z 12007KT 10SM FEW140 BKN180 BKN250 11/M02 A3013 RMK AO2 SLP204 T01061017=
201611280252 METAR KATL 280252Z 10006KT 10SM BKN180 OVC250 11/M02 A3014 RMK AO2 SLP208 T01111017 53004=
201611280152 METAR KATL 280152Z 11005KT 10SM BKN180 OVC250 12/M02 A3014 RMK AO2 SLP208 T01171022=
201611280052 METAR KATL 280052Z 11008KT 10SM BKN200 OVC250 12/M02 A3013 RMK AO2 SLP206 T01221022=
201611272352 METAR KATL 272352Z 12006KT 10SM BKN200 OVC250 13/M02 A3013 RMK AO2 SLP206 T01281017 10161 20122 58006=
201611272252 METAR KATL 272252Z 12004KT 10SM BKN200 OVC250 13/M02 A3014 RMK AO2 SLP210 T01331022=
201611272152 METAR KATL 272152Z 14005KT 10SM SCT200 OVC250 14/M03 A3016 RMK AO2 SLP215 BINOVC T01441033=
201611272052 METAR KATL 272052Z 16007KT 10SM FEW100 FEW200 BKN250 16/M03 A3015 RMK AO2 SLP212 T01561028 56024=
201611271952 METAR KATL 271952Z 12006KT 10SM FEW200 OVC250 15/M01 A3015 RMK AO2 SLP213 BINOVC T01501011=
201611271852 METAR KATL 271852Z 14004KT 10SM FEW200 OVC250 15/M01 A3018 RMK AO2 SLP222 T01501006=
201611271752 METAR KATL 271752Z VRB04KT 10SM FEW020 BKN250 14/M01 A3022 RMK AO2 SLP236 FU FEW020 T01391011 10139 20028 58018=
201611271652 METAR KATL 271652Z 15005KT 10SM FEW020 BKN240 13/M02 A3025 RMK AO2 SLP247 FU FEW020 T01281017=
201611271552 METAR KATL 271552Z 15006KT 10SM FEW015 BKN240 11/M02 A3027 RMK AO2 SLP252 FU FEW015 T01111017=
201611271452 METAR KATL 271452Z 10007KT 10SM FEW015 BKN240 09/M01 A3028 RMK AO2 SLP256 FU FEW015 T00941011 51008=
201611271352 METAR KATL 271352Z 08009KT 10SM FEW015 FEW200 BKN250 06/M01 A3028 RMK AO2 SLP257 FU FEW015 T00611011=
201611271252 METAR KATL 271252Z 08006KT 10SM FEW015 FEW250 03/M02 A3026 RMK AO2 SLP251 FU FEW015 T00281017=
201611271152 METAR KATL 271152Z 08005KT 10SM FEW250 03/M02 A3025 RMK AO2 SLP249 T00331017 10044 20017 53005=
201611271052 METAR KATL 271052Z 07005KT 10SM CLR 04/M01 A3024 RMK AO2 SLP245 T00391011=
201611270952 METAR KATL 270952Z 00000KT 10SM CLR 02/M02 A3024 RMK AO2 SLP243 T00221017=
201611270852 METAR KATL 270852Z 36004KT 10SM FEW200 02/M02 A3024 RMK AO2 SLP242 T00221017 53006=
201611270752 METAR KATL 270752Z 33005KT 10SM CLR 03/M01 A3023 RMK AO2 SLP239 T00281011=
201611270652 METAR KATL 270652Z 33004KT 10SM CLR 03/M02 A3021 RMK AO2 SLP234 T00331017=
201611270552 METAR KATL 270552Z 34003KT 10SM CLR 04/M02 A3022 RMK AO2 SLP235 T00441017 10100 20039 56004=
201611270452 METAR KATL 270452Z 33005KT 10SM CLR 04/M02 A3022 RMK AO2 SLP238 T00391017 401610039=
201611270352 METAR KATL 270352Z 32006KT 10SM CLR 05/M02 A3022 RMK AO2 SLP235 T00501017=
201611270252 METAR KATL 270252Z 32006KT 10SM CLR 06/M02 A3023 RMK AO2 SLP241 T00611017 56002=
201611270152 METAR KATL 270152Z 33006KT 10SM CLR 07/M02 A3023 RMK AO2 SLP242 T00721017=
201611270052 METAR KATL 270052Z 33009KT 10SM FEW200 09/M02 A3023 RMK AO2 SLP241 T00891017=
201611262352 METAR KATL 262352Z 33012KT 10SM FEW200 10/M02 A3024 RMK AO2 SLP243 T01001022 10161 20100 51005=
201611262252 METAR KATL 262252Z 34010KT 10SM FEW200 11/M02 A3023 RMK AO2 SLP241 T01111017=
201611262152 METAR KATL 262152Z 32011KT 10SM FEW250 14/M02 A3023 RMK AO2 SLP238 T01391022=
201611262052 METAR KATL 262052Z 31009KT 10SM FEW250 16/M02 A3022 RMK AO2 SLP234 T01561022 56009=
201611261952 METAR KATL 261952Z 31008KT 10SM FEW030 FEW250 16/M02 A3022 RMK AO2 SLP235 FU FEW030 T01611017=
201611261852 METAR KATL 261852Z 32011KT 10SM FEW025 FEW250 16/M01 A3023 RMK AO2 SLP237 FU FEW025 T01561011=
201611261752 METAR KATL 261752Z 33009KT 10SM FEW020 FEW250 14/00 A3025 RMK AO2 SLP243 FU FEW020 T01440000 10144 20044 58012=
201611261652 METAR KATL 261652Z 34009KT 10SM FEW015 FEW250 13/00 A3027 RMK AO2 SLP253 FU 015 T01280000=
201611261552 METAR KATL 261552Z 34008KT 10SM FEW015 FEW250 11/01 A3028 RMK AO2 SLP256 FU 0150 N T01110006=
201611261452 METAR KATL 261452Z 34011KT 10SM FEW250 09/02 A3028 RMK AO2 SLP256 T00890017 53012=
201611261352 METAR KATL 261352Z 34012KT 10SM FEW250 06/02 A3027 RMK AO2 SLP251 T00610022=
201611261252 METAR KATL 261252Z 32017G24KT 9SM FEW250 04/02 A3026 RMK AO2 SLP249 T00440022=
201611261152 METAR KATL 261152Z 32014KT 10SM FEW250 04/02 A3025 RMK AO2 SLP245 T00440022 10094 20044 53010=
201611261052 METAR KATL 261052Z 33013KT 10SM CLR 05/02 A3023 RMK AO2 SLP239 T00500022=
201611260952 METAR KATL 260952Z 32013KT 10SM CLR 06/02 A3022 RMK AO2 SLP234 T00560022=
201611260852 METAR KATL 260852Z 33014KT 10SM CLR 07/03 A3022 RMK AO2 SLP230 T00670033 56002=
201611260752 METAR KATL 260752Z 33013KT 10SM FEW250 07/04 A3022 RMK AO2 SLP230 T00720039=
201611260652 METAR KATL 260652Z 33014KT 10SM FEW250 08/04 A3022 RMK AO2 SLP230 T00830044=
201611260552 METAR KATL 260552Z 32011KT 10SM FEW250 09/06 A3022 RMK AO2 SLP231 T00940056 10150 20094 58004=
201611260452 METAR KATL 260452Z 33016G20KT 10SM FEW250 11/06 A3023 RMK AO2 SLP234 T01060061 402330106=
201611260352 METAR KATL 260352Z 33014KT 10SM SCT250 12/07 A3023 RMK AO2 SLP236 T01170072=
201611260252 METAR KATL 260252Z 31010KT 10SM BKN250 12/08 A3023 RMK AO2 SLP236 T01220078 51009=
201611260152 METAR KATL 260152Z 31009KT 10SM BKN250 13/08 A3022 RMK AO2 SLP233 T01280078=
201611260052 METAR KATL 260052Z 31012KT 10SM SCT250 13/07 A3022 RMK AO2 SLP234 T01330072=
201611252352 METAR KATL 252352Z 32010KT 10SM FEW200 BKN250 15/07 A3020 RMK AO2 SLP227 T01500067 10233 20150 53006=
201611252252 METAR KATL 252252Z 33010KT 10SM FEW200 BKN250 17/07 A3019 RMK AO2 SLP222 T01720067=
201611252152 METAR KATL 252152Z 33010KT 10SM FEW150 BKN250 20/07 A3018 RMK AO2 SLP216 T02000067=
201611252052 METAR KATL 252052Z 29011KT 10SM FEW060 SCT200 BKN250 22/03 A3018 RMK AO2 SLP217 T02220028 55012=
201611251952 METAR KATL 251952Z 28009KT 10SM FEW060 SCT200 BKN250 23/03 A3018 RMK AO2 SLP216 T02330033=
201611251852 METAR KATL 251852Z 31009KT 10SM FEW060 SCT200 BKN250 22/06 A3020 RMK AO2 SLP222 T02220061=
201611251752 METAR KATL 251752Z 28006KT 10SM FEW060 SCT200 BKN250 22/06 A3022 RMK AO2 SLP229 T02170061 10228 20111 58017=
201611251652 METAR KATL 251652Z 28006KT 10SM FEW055 SCT200 BKN250 21/07 A3024 RMK AO2 SLP236 T02110072=
201611251552 METAR KATL 251552Z 28009KT 10SM FEW045 SCT200 BKN250 19/08 A3027 RMK AO2 SLP245 T01940078=
201611251452 METAR KATL 251452Z 31007KT 10SM FEW040 SCT200 BKN250 18/10 A3027 RMK AO2 SLP248 T01780100 53009=
201611251352 METAR KATL 251352Z 30005KT 10SM FEW050 SCT200 BKN250 14/12 A3026 RMK AO2 SLP245 MDT CU SW T01390117=
201611251252 METAR KATL 251252Z 30005KT 10SM FEW048 SCT200 BKN250 12/11 A3025 RMK AO2 SLP242 T01170106=
201611251152 METAR KATL 251152Z 30005KT 10SM FEW046 FEW065 BKN250 12/11 A3024 RMK AO2 SLP240 MDT CU E-S T01220106 10150 20117 53009=
201611251052 METAR KATL 251052Z 30006KT 10SM FEW046 FEW065 SCT250 13/11 A3023 RMK AO2 SLP232 T01280111=
201611250952 METAR KATL 250952Z 29004KT 10SM FEW044 SCT060 SCT250 14/12 A3021 RMK AO2 SLP226 T01390117=
201611250852 METAR KATL 250852Z 28003KT 10SM SCT055 SCT250 12/11 A3022 RMK AO2 SLP228 T01220111 53000=
201611250752 METAR KATL 250752Z 28003KT 10SM BKN055 BKN250 14/12 A3022 RMK AO2 SLP226 T01390117=
201611250652 METAR KATL 250652Z 00000KT 10SM BKN055 BKN250 13/11 A3021 RMK AO2 SLP225 T01330111=
201611250552 METAR KATL 250552Z 00000KT 10SM FEW050 BKN250 15/12 A3022 RMK AO2 SLP227 T01500117 10178 20150 51000=
201611250452 METAR KATL 250452Z 00000KT 10SM FEW050 SCT250 16/12 A3022 RMK AO2 SLP227 T01560117 402440117=
201611250352 METAR KATL 250352Z 00000KT 10SM SCT050 SCT250 15/12 A3022 RMK AO2 SLP229 T01500117=
201611250252 METAR KATL 250252Z 22003KT 10SM FEW050 16/12 A3022 RMK AO2 SLP229 T01560117 53004=
201611250152 METAR KATL 250152Z 23004KT 10SM FEW045 16/12 A3021 RMK AO2 SLP226 T01610117=
201611250052 METAR KATL 250052Z 22004KT 10SM FEW045 17/12 A3021 RMK AO2 SLP227 T01720117=
201611242352 METAR KATL 242352Z 21003KT 10SM FEW060 18/12 A3020 RMK AO2 SLP225 T01780122 10244 20178 53008=
201611242252 METAR KATL 242252Z 20003KT 10SM FEW045 FEW060 20/12 A3019 RMK AO2 SLP219 T02000117=
201611242152 METAR KATL 242152Z 23006KT 10SM FEW045 SCT060 23/12 A3018 RMK AO2 SLP217 T02280117=
201611242052 METAR KATL 242052Z 22012G17KT 10SM SCT045 BKN060 24/11 A3018 RMK AO2 SLP214 T02390111 55010=
201611241952 METAR KATL 241952Z 22010G16KT 190V270 10SM FEW040 SCT060 24/12 A3018 RMK AO2 SLP212 T02440117=
201611241852 METAR KATL 241852Z 22011G15KT 10SM SCT035 SCT055 23/13 A3019 RMK AO2 SLP218 T02330128=
201611241752 METAR KATL 241752Z VRB05KT 10SM FEW035 SCT050 BKN060 22/14 A3021 RMK AO2 SLP224 T02220139 10228 20133 58015=
201611241700 SPECI KATL 241700Z 23011KT 10SM SCT027 BKN040 BKN060 21/14 A3023 RMK AO2 T02110139=
201611241652 METAR KATL 241652Z 22010KT 10SM BKN027 BKN040 BKN060 21/14 A3023 RMK AO2 SLP233 T02110139=
201611241647 SPECI KATL 241647Z 19007KT 10SM BKN027 BKN040 BKN060 21/14 A3024 RMK AO2=
201611241552 METAR KATL 241552Z 22006KT 10SM FEW025 SCT045 BKN060 20/14 A3025 RMK AO2 SLP241 T02000139=
201611241452 METAR KATL 241452Z 23007KT 10SM FEW015 SCT045 SCT065 18/13 A3025 RMK AO2 SLP241 T01780133 51013=
201611241352 METAR KATL 241352Z 22007KT 10SM SCT030 BKN045 BKN070 16/12 A3024 RMK AO2 SLP238 T01560122=
201611241252 METAR KATL 241252Z 21003KT 10SM SCT008 BKN040 BKN075 13/11 A3023 RMK AO2 SLP235 MDT CU SW-NW T01330111=
201611241239 SPECI KATL 241239Z 00000KT 10SM BKN008 BKN045 BKN070 14/11 A3022 RMK AO2 T01390111=
201611241219 SPECI KATL 241219Z 00000KT 10SM SCT007 BKN045 BKN070 13/11 A3022 RMK AO2 T01330111=
201611241152 METAR KATL 241152Z 20004KT 10SM BKN008 OVC040 14/11 A3021 RMK AO2 SLP229 CIG 007V010 BINOVC T01390111 10150 20117 51011=
201611241130 SPECI KATL 241130Z 00000KT 10SM OVC008 13/11 A3021 RMK AO2 CIG 007V010 T01330106=
201611241055 SPECI KATL 241055Z 20003KT 10SM BKN010 OVC038 13/10 A3021 RMK AO2 T01280100=
201611241052 METAR KATL 241052Z 20003KT 10SM FEW010 BKN038 BKN085 13/10 A3021 RMK AO2 SLP226 T01330100=
201611241038 SPECI KATL 241038Z 00000KT 10SM FEW009 BKN039 13/10 A3020 RMK AO2 T01280100=
201611240952 METAR KATL 240952Z 20004KT 10SM FEW030 SCT085 12/09 A3019 RMK AO2 SLP221 T01220094=
201611240852 METAR KATL 240852Z 20005KT 10SM FEW028 SCT080 SCT200 12/09 A3018 RMK AO2 SLP217 T01220094 55000=
201611240752 METAR KATL 240752Z 21004KT 10SM FEW030 SCT090 SCT200 14/09 A3018 RMK AO2 SLP217 T01390094=
201611240652 METAR KATL 240652Z 18005KT 10SM BKN030 BKN085 BKN200 14/10 A3018 RMK AO2 SLP215 T01390100=
201611240552 METAR KATL 240552Z 16003KT 10SM SCT040 SCT070 BKN090 15/10 A3018 RMK AO2 SLP217 60000 T01500100 10172 20144 58003=
201611240452 METAR KATL 240452Z 16004KT 10SM FEW045 BKN070 16/10 A3019 RMK AO2 SLP221 T01560100 402060056=
201611240352 METAR KATL 240352Z 15004KT 10SM FEW050 OVC065 16/09 A3020 RMK AO2 SLP224 BINOVC T01560094=
201611240252 METAR KATL 240252Z 14005KT 10SM BKN065 OVC120 16/09 A3019 RMK AO2 RAB09E18 SLP223 P0000 60000 T01610089 51014=
201611240152 METAR KATL 240152Z 12005KT 10SM SCT130 BKN200 BKN250 16/08 A3018 RMK AO2 SLP221 T01610083=
201611240052 METAR KATL 240052Z 16005KT 10SM FEW150 SCT200 BKN250 16/08 A3017 RMK AO2 SLP215 T01610083=
201611232352 METAR KATL 232352Z 14004KT 10SM SCT150 BKN250 17/07 A3015 RMK AO2 SLP210 T01720072 10206 20172 58010=
201611232252 METAR KATL 232252Z 15005KT 10SM BKN150 BKN250 18/07 A3016 RMK AO2 SLP212 T01830072=
201611232152 METAR KATL 232152Z 19006KT 10SM BKN150 BKN250 19/07 A3018 RMK AO2 SLP218 T01940067=
201611232052 METAR KATL 232052Z 20009KT 10SM FEW050 SCT150 SCT250 20/06 A3018 RMK AO2 SLP219 T02000061 56014=
201611231952 METAR KATL 231952Z 20007KT 10SM FEW045 SCT150 SCT250 19/07 A3019 RMK AO2 SLP223 T01940067=
201611231852 METAR KATL 231852Z 17008KT 140V220 10SM FEW040 SCT150 SCT250 19/07 A3019 RMK AO2 SLP223 T01940067=
201611231752 METAR KATL 231752Z VRB05KT 10SM FEW030 SCT150 BKN250 18/07 A3022 RMK AO2 SLP234 T01780067 10178 20061 58024=
201611231652 METAR KATL 231652Z 14010KT 10SM FEW030 SCT150 SCT250 17/05 A3025 RMK AO2 SLP245 T01670050=
201611231552 METAR KATL 231552Z 13006KT 10SM FEW150 BKN200 BKN250 15/02 A3029 RMK AO2 SLP256 T01500022=
201611231452 METAR KATL 231452Z 13007KT 10SM FEW150 SCT200 SCT250 12/M02 A3030 RMK AO2 SLP261 T01171017 53011=
201611231352 METAR KATL 231352Z 12005KT 10SM FEW160 BKN200 BKN250 09/M02 A3029 RMK AO2 SLP257 T00941017=
201611231252 METAR KATL 231252Z 09006KT 10SM BKN200 BKN250 08/M02 A3027 RMK AO2 SLP251 T00781022=
201611231152 METAR KATL 231152Z 09005KT 10SM BKN200 BKN250 07/M03 A3026 RMK AO2 SLP249 T00721028 10089 20056 53004=
201611231052 METAR KATL 231052Z 00000KT 10SM BKN200 BKN250 07/M03 A3025 RMK AO2 SLP245 T00671033=
201611230952 METAR KATL 230952Z 09004KT 10SM SCT200 BKN250 07/M04 A3025 RMK AO2 SLP245 T00671039=
201611230852 METAR KATL 230852Z 08005KT 10SM FEW200 BKN250 07/M04 A3025 RMK AO2 SLP244 T00721044 50002=
201611230752 METAR KATL 230752Z 07005KT 10SM SCT200 BKN250 08/M05 A3026 RMK AO2 SLP247 T00781050=
201611230652 METAR KATL 230652Z 08006KT 10SM SCT200 BKN250 08/M05 A3025 RMK AO2 SLP243 T00831050=
201611230552 METAR KATL 230552Z 09004KT 10SM FEW200 BKN250 08/M04 A3025 RMK AO2 SLP242 T00831044 10144 20078 58005=
201611230452 METAR KATL 230452Z 08005KT 10SM BKN250 09/M05 A3025 RMK AO2 SLP246 T00891050 401830033=
201611230352 METAR KATL 230352Z 09004KT 10SM BKN250 11/M06 A3026 RMK AO2 SLP248 T01061056=
201611230252 METAR KATL 230252Z 09005KT 10SM BKN250 12/M07 A3026 RMK AO2 SLP249 T01171067 51005=
201611230152 METAR KATL 230152Z 12004KT 10SM BKN250 13/M07 A3026 RMK AO2 SLP247 T01281072=
201611230052 METAR KATL 230052Z 12005KT 10SM FEW200 SCT250 14/M08 A3025 RMK AO2 SLP245 T01441078=
201611222352 METAR KATL 222352Z 09004KT 10SM SCT200 BKN250 14/M08 A3024 RMK AO2 SLP244 T01391083 10183 20139 53010=
201611222252 METAR KATL 222252Z 10003KT 10SM SCT200 BKN250 16/M09 A3023 RMK AO2 SLP237 T01611094=
201611222152 METAR KATL 222152Z VRB04KT 10SM BKN200 BKN250 17/M10 A3022 RMK AO2 SLP234 T01721100=
201611222052 METAR KATL 222052Z 14003KT 10SM BKN250 18/M10 A3021 RMK AO2 SLP233 T01781100 55010=
201611221952 METAR KATL 221952Z 00000KT 10SM BKN250 17/M11 A3021 RMK AO2 SLP232 T01721111=
201611221852 METAR KATL 221852Z 13004KT 10SM BKN250 18/M10 A3022 RMK AO2 SLP235 T01781100=
201611221752 METAR KATL 221752Z VRB03KT 10SM BKN250 16/M10 A3024 RMK AO2 SLP243 T01561100 10161 20044 58014=
201611221652 METAR KATL 221652Z 09005KT 10SM BKN250 14/M09 A3027 RMK AO2 SLP252 T01441094=
201611221552 METAR KATL 221552Z 16007KT 10SM BKN250 12/M10 A3030 RMK AO2 SLP263 T01221100=
201611221452 METAR KATL 221452Z 10008KT 10SM BKN250 10/M09 A3029 RMK AO2 SLP260 T01001094 51023=
201611221352 METAR KATL 221352Z 08007KT 10SM FEW150 FEW250 09/M10 A3028 RMK AO2 SLP257 T00891100=
201611221252 METAR KATL 221252Z 04003KT 10SM FEW150 FEW250 07/M10 A3025 RMK AO2 SLP248 T00671100=
201611221152 METAR KATL 221152Z 07005KT 10SM FEW250 04/M09 A3022 RMK AO2 SLP236 T00441089 10056 20033 53010=
201611221052 METAR KATL 221052Z 03005KT 10SM FEW250 04/M09 A3020 RMK AO2 SLP229 T00441094=
201611220952 METAR KATL 220952Z 33004KT 10SM FEW250 04/M09 A3020 RMK AO2 SLP229 T00391094=
201611220852 METAR KATL 220852Z 35005KT 10SM FEW250 05/M10 A3019 RMK AO2 SLP224 T00501100 53003=
201611220752 METAR KATL 220752Z 33006KT 10SM FEW250 04/M09 A3019 RMK AO2 SLP224 T00391089=
201611220652 METAR KATL 220652Z 33006KT 10SM SCT250 04/M09 A3017 RMK AO2 SLP218 T00441094=
201611220552 METAR KATL 220552Z 32007KT 10SM BKN250 06/M09 A3018 RMK AO2 SLP221 T00561094 10106 20056 56002=
201611220452 METAR KATL 220452Z 32009KT 10SM SCT250 06/M11 A3018 RMK AO2 SLP221 T00611106 401610022=
201611220352 METAR KATL 220352Z 34008KT 10SM FEW250 08/M12 A3016 RMK AO2 SLP216 T00781122=
201611220252 METAR KATL 220252Z 33009KT 10SM FEW250 08/M12 A3018 RMK AO2 SLP224 T00781122 51005=
201611220152 METAR KATL 220152Z 33008KT 10SM CLR 09/M13 A3018 RMK AO2 SLP224 T00891128=
201611220052 METAR KATL 220052Z 33008KT 10SM CLR 09/M14 A3017 RMK AO2 SLP221 T00941139=
201611212352 METAR KATL 212352Z 33009KT 10SM CLR 11/M14 A3017 RMK AO2 SLP221 T01061144 10161 20100 53007=
201611212252 METAR KATL 212252Z 32008KT 10SM FEW250 12/M15 A3016 RMK AO2 SLP216 T01171150=
201611212152 METAR KATL 212152Z 33011KT 10SM FEW250 14/M16 A3016 RMK AO2 SLP214 T01391161=
201611212052 METAR KATL 212052Z 33014KT 10SM CLR 15/M16 A3015 RMK AO2 SLP210 T01501161 55008=
201611211952 METAR KATL 211952Z 31012G20KT 10SM CLR 16/M17 A3015 RMK AO2 SLP210 T01561167=
201611211852 METAR KATL 211852Z 30010KT 10SM CLR 16/M17 A3015 RMK AO2 SLP212 T01561172=
201611211752 METAR KATL 211752Z 31014KT 10SM FEW150 14/M15 A3017 RMK AO2 SLP219 T01441150 10144 20022 58011=
201611211652 METAR KATL 211652Z 34013KT 10SM FEW150 13/M14 A3019 RMK AO2 SLP226 T01281144=
201611211552 METAR KATL 211552Z 32012KT 10SM FEW150 11/M12 A3021 RMK AO2 SLP231 T01061117=
201611211452 METAR KATL 211452Z 32011KT 10SM FEW150 FEW250 08/M11 A3021 RMK AO2 SLP232 T00831106 51012=
201611211352 METAR KATL 211352Z 31012KT 10SM FEW200 06/M09 A3019 RMK AO2 SLP230 T00561089=
201611211252 METAR KATL 211252Z 31010KT 10SM FEW200 03/M08 A3019 RMK AO2 SLP228 T00281078=
201611211152 METAR KATL 211152Z 32012KT 10SM FEW200 02/M08 A3017 RMK AO2 SLP221 T00221083 10050 20022 53009=
201611211052 METAR KATL 211052Z 33014KT 10SM CLR 03/M08 A3015 RMK AO2 SLP216 T00281083=
201611210952 METAR KATL 210952Z 32013KT 10SM CLR 03/M08 A3014 RMK AO2 SLP211 T00281083=
201611210852 METAR KATL 210852Z 32013KT 10SM CLR 03/M08 A3014 RMK AO2 SLP209 T00331083 55001=
201611210752 METAR KATL 210752Z 33010KT 10SM CLR 04/M08 A3014 RMK AO2 SLP208 T00391083=
201611210652 METAR KATL 210652Z 32011KT 10SM CLR 04/M09 A3015 RMK AO2 SLP211 T00441089=
201611210552 METAR KATL 210552Z 32012KT 10SM CLR 05/M10 A3014 RMK AO2 SLP210 T00501100 10089 20050 58008=
201611210452 METAR KATL 210452Z 33010KT 10SM CLR 06/M11 A3015 RMK AO2 SLP214 T00561106 401330028=
201611210352 METAR KATL 210352Z 33008KT 10SM CLR 06/M11 A3017 RMK AO2 SLP219 T00611111=
201611210252 METAR KATL 210252Z 32009KT 10SM CLR 07/M11 A3017 RMK AO2 SLP221 T00671106 58003=
201611210152 METAR KATL 210152Z 31007KT 10SM CLR 07/M11 A3017 RMK AO2 SLP223 T00671111=
201611210052 METAR KATL 210052Z 30005KT 10SM FEW200 07/M11 A3018 RMK AO2 SLP225 T00721111=
201611202352 METAR KATL 202352Z 33008KT 10SM FEW200 09/M12 A3018 RMK AO2 SLP224 T00891117 10133 20089 57000=
201611202252 METAR KATL 202252Z 32008KT 10SM FEW040 FEW200 10/M13 A3018 RMK AO2 SLP225 FU FEW040 T01001128=
201611202152 METAR KATL 202152Z 32013KT 10SM FEW050 12/M14 A3018 RMK AO2 SLP224 FU FEW050 T01171144=
201611202052 METAR KATL 202052Z 30016G21KT 10SM CLR 13/M14 A3018 RMK AO2 SLP223 T01281139 56010=
201611201952 METAR KATL 201952Z 32014KT 10SM CLR 13/M13 A3018 RMK AO2 SLP223 T01281133=
201611201852 METAR KATL 201852Z 32012G21KT 10SM CLR 12/M13 A3020 RMK AO2 SLP228 T01221133=
201611201752 METAR KATL 201752Z 30016KT 10SM CLR 11/M13 A3021 RMK AO2 SLP234 T01111128 10111 20028 58015=
201611201652 METAR KATL 201652Z 34013G20KT 10SM CLR 10/M12 A3024 RMK AO2 SLP243 T01001117=
201611201552 METAR KATL 201552Z 33011KT 10SM CLR 08/M10 A3026 RMK AO2 SLP251 T00831100=
201611201452 METAR KATL 201452Z 31014G21KT 10SM CLR 06/M09 A3026 RMK AO2 PK WND 33026/1440 SLP252 T00611094 51009=
201611201352 METAR KATL 201352Z 34015KT 10SM CLR 04/M08 A3025 RMK AO2 SLP249 T00441078=
201611201252 METAR KATL 201252Z 33012G19KT 10SM CLR 03/M07 A3024 RMK AO2 SLP246 T00281072=
201611201152 METAR KATL 201152Z 34012KT 10SM CLR 03/M07 A3023 RMK AO2 SLP242 T00281067 10056 20028 51003=
201611201052 METAR KATL 201052Z 33014G19KT 10SM CLR 03/M06 A3023 RMK AO2 PK WND 32027/0959 SLP240 T00331061=
201611200952 METAR KATL 200952Z 33014KT 10SM CLR 04/M06 A3023 RMK AO2 SLP240 T00391061=
201611200852 METAR KATL 200852Z 33019G23KT 10SM CLR 04/M06 A3022 RMK AO2 SLP236 T00441061 56003=
201611200752 METAR KATL 200752Z 33015G24KT 10SM CLR 05/M06 A3022 RMK AO2 SLP237 T00501061=
201611200652 METAR KATL 200652Z 32014KT 10SM CLR 06/M06 A3022 RMK AO2 SLP235 T00561061=
201611200552 METAR KATL 200552Z 33009KT 10SM CLR 05/M06 A3023 RMK AO2 SLP239 T00501061 10100 20050 58003=
201611200452 METAR KATL 200452Z 31007KT 10SM CLR 05/M06 A3024 RMK AO2 SLP241 T00501056 401560050=
201611200352 METAR KATL 200352Z 31009KT 10SM CLR 07/M06 A3024 RMK AO2 SLP242 T00671061=
201611200252 METAR KATL 200252Z 31009KT 10SM CLR 07/M07 A3024 RMK AO2 SLP242 T00721072 52006=
201611200152 METAR KATL 200152Z 31009KT 10SM CLR 08/M07 A3024 RMK AO2 SLP242 T00831067=
201611200052 METAR KATL 200052Z 32010KT 10SM CLR 09/M06 A3023 RMK AO2 SLP236 T00891061=
201611192352 METAR KATL 192352Z 32011KT 10SM CLR 10/M07 A3022 RMK AO2 SLP235 T01001072 10156 20100 53013=
201611192252 METAR KATL 192252Z 33014KT 10SM CLR 11/M08 A3020 RMK AO2 PK WND 32027/2214 SLP228 T01111083=
201611192152 METAR KATL 192152Z 31015KT 10SM CLR 13/M06 A3019 RMK AO2 PK WND 31026/2056 SLP224 T01281061=
201611192052 METAR KATL 192052Z 32020G27KT 10SM CLR 14/M06 A3019 RMK AO2 PK WND 31030/2028 SLP221 T01391061 55001=
201611191952 METAR KATL 191952Z 33021G29KT 10SM CLR 14/M05 A3018 RMK AO2 PK WND 34031/1939 SLP217 T01441050=
201611191852 METAR KATL 191852Z 31018G27KT 10SM CLR 16/01 A3018 RMK AO2 PK WND 33029/1754 SLP220 T01560006=
201611191752 METAR KATL 191752Z 33020G29KT 10SM FEW050 15/01 A3019 RMK AO2 PK WND 32029/1749 SLP222 T01500006 10150 20128 50003=
201611191652 METAR KATL 191652Z 30018G26KT 10SM FEW040 FEW100 14/03 A3020 RMK AO2 PK WND 30029/1559 SLP225 T01440028=
201611191552 METAR KATL 191552Z 30021G30KT 10SM FEW030 14/04 A3019 RMK AO2 PK WND 30030/1550 SLP223 T01390039=
201611191452 METAR KATL 191452Z 31021G33KT 10SM FEW025 14/07 A3018 RMK AO2 PK WND 32033/1445 SLP218 T01390067 51026=
201611191352 METAR KATL 191352Z 31019G28KT 10SM FEW021 SCT035 BKN047 13/08 A3016 RMK AO2 PK WND 31030/1329 SLP210 T01330078=
201611191252 METAR KATL 191252Z 30015KT 10SM FEW015 OVC025 13/11 A3013 RMK AO2 SLP202 T01330106=
201611191221 SPECI KATL 191221Z 29013G20KT 10SM BKN016 15/13 A3011 RMK AO2 T01500128=
201611191152 METAR KATL 191152Z 26007KT 10SM FEW046 BKN250 14/12 A3010 RMK AO2 SLP190 T01440122 10144 20117 55005=
201611191052 METAR KATL 191052Z 23007KT 10SM FEW060 SCT250 13/11 A3009 RMK AO2 SLP184 T01330111=
201611190952 METAR KATL 190952Z 22006KT 10SM FEW060 BKN250 12/09 A3010 RMK AO2 SLP187 T01220094=
201611190852 METAR KATL 190852Z 23005KT 10SM FEW060 FEW250 13/08 A3012 RMK AO2 SLP192 T01280083 56004=
201611190752 METAR KATL 190752Z 23006KT 10SM FEW060 SCT250 12/07 A3012 RMK AO2 SLP193 T01220072=
201611190652 METAR KATL 190652Z 24004KT 10SM FEW250 12/07 A3012 RMK AO2 SLP194 T01220072=
201611190552 METAR KATL 190552Z 18003KT 10SM FEW250 13/07 A3013 RMK AO2 SLP195 T01330072 10189 20133 58005=
201611190452 METAR KATL 190452Z 26003KT 10SM FEW250 14/07 A3015 RMK AO2 SLP204 T01440067 402610094=
201611190352 METAR KATL 190352Z 24005KT 10SM CLR 16/07 A3016 RMK AO2 SLP208 T01560067=
201611190252 METAR KATL 190252Z 22005KT 10SM CLR 16/06 A3014 RMK AO2 SLP203 T01610056 55001=
201611190152 METAR KATL 190152Z 20004KT 10SM CLR 17/05 A3014 RMK AO2 SLP203 T01670050=
201611190052 METAR KATL 190052Z 20004KT 10SM CLR 18/05 A3014 RMK AO2 SLP204 T01780050=
201611182352 METAR KATL 182352Z 25003KT 10SM CLR 19/05 A3014 RMK AO2 SLP206 T01890050 10261 20189 53004=
201611182252 METAR KATL 182252Z 22003KT 10SM CLR 21/04 A3014 RMK AO2 SLP202 T02110039=
201611182152 METAR KATL 182152Z 18006KT 10SM CLR 25/03 A3013 RMK AO2 SLP198 T02500033=
201611182052 METAR KATL 182052Z 18007KT 10SM CLR 26/03 A3013 RMK AO2 SLP198 T02560028 56021=
201611181952 METAR KATL 181952Z VRB06KT 10SM CLR 26/03 A3015 RMK AO2 SLP203 T02560033=
201611181852 METAR KATL 181852Z VRB04KT 10SM CLR 26/03 A3017 RMK AO2 SLP210 T02610033=
201611181752 METAR KATL 181752Z 00000KT 10SM CLR 25/03 A3020 RMK AO2 SLP219 T02500033 10256 20094 58012=
201611181652 METAR KATL 181652Z VRB03KT 10SM CLR 23/04 A3022 RMK AO2 SLP229 T02330039=
201611181552 METAR KATL 181552Z 32005KT 10SM CLR 22/05 A3024 RMK AO2 SLP235 T02220050=
201611181452 METAR KATL 181452Z 32005KT 10SM CLR 19/07 A3023 RMK AO2 SLP234 T01890067 51015=
201611181352 METAR KATL 181352Z 00000KT 9SM FEW020 17/06 A3022 RMK AO2 SLP232 FU FEW020 FU PLUME E T01670061=
201611181252 METAR KATL 181252Z 00000KT 10SM CLR 11/06 A3021 RMK AO2 SLP227 T01110061=
201611181152 METAR KATL 181152Z 00000KT 10SM FEW020 09/05 A3019 RMK AO2 SLP221 FU FEW020 T00940050 10139 20094 53006=
201611181052 METAR KATL 181052Z 00000KT 10SM CLR 12/06 A3018 RMK AO2 SLP217 T01170061=
201611180952 METAR KATL 180952Z 09003KT 10SM CLR 11/06 A3017 RMK AO2 SLP214 T01060061=
201611180852 METAR KATL 180852Z 09004KT 10SM CLR 12/07 A3017 RMK AO2 SLP212 T01170067 52003=
201611180752 METAR KATL 180752Z 00000KT 10SM CLR 11/06 A3017 RMK AO2 SLP213 T01110061=
201611180652 METAR KATL 180652Z 07003KT 10SM CLR 13/07 A3016 RMK AO2 SLP207 T01330067=
201611180552 METAR KATL 180552Z 00000KT 10SM CLR 14/07 A3016 RMK AO2 SLP209 T01390067 10200 20133 51004=
201611180452 METAR KATL 180452Z 00000KT 10SM CLR 13/07 A3016 RMK AO2 SLP209 T01330067 402610083=
201611180352 METAR KATL 180352Z 13003KT 10SM CLR 14/07 A3016 RMK AO2 SLP207 T01440067=
201611180252 METAR KATL 180252Z 00000KT 10SM CLR 16/06 A3015 RMK AO2 SLP206 T01560061 51010=
201611180152 METAR KATL 180152Z 00000KT 10SM CLR 17/06 A3014 RMK AO2 SLP205 T01670061=
201611180052 METAR KATL 180052Z 00000KT 10SM CLR 18/06 A3013 RMK AO2 SLP202 T01830061=
201611172352 METAR KATL 172352Z 14003KT 10SM CLR 20/06 A3012 RMK AO2 SLP197 T02000056 10261 20189 53009=
201611172252 METAR KATL 172252Z 00000KT 10SM CLR 22/05 A3010 RMK AO2 SLP190 T02170050=
201611172152 METAR KATL 172152Z 31003KT 10SM CLR 24/04 A3010 RMK AO2 SLP187 T02440039=
201611172052 METAR KATL 172052Z 00000KT 10SM CLR 25/03 A3009 RMK AO2 SLP186 T02500033 56010=
201611171952 METAR KATL 171952Z VRB04KT 10SM CLR 26/03 A3010 RMK AO2 SLP187 T02560033=
201611171852 METAR KATL 171852Z 00000KT 10SM CLR 25/04 A3010 RMK AO2 SLP189 T02500039=
201611171752 METAR KATL 171752Z 00000KT 10SM CLR 24/04 A3012 RMK AO2 SLP196 T02390039 10250 20100 58011=
201611171652 METAR KATL 171652Z 21003KT 10SM CLR 23/04 A3015 RMK AO2 SLP205 T02330039=
201611171552 METAR KATL 171552Z 30004KT 10SM CLR 22/04 A3016 RMK AO2 SLP210 T02170044=
201611171452 METAR KATL 171452Z 31004KT 10SM CLR 19/04 A3016 RMK AO2 SLP208 T01890044 51017=
201611171352 METAR KATL 171352Z 31005KT 10SM CLR 14/05 A3015 RMK AO2 SLP206 T01440050=
201611171252 METAR KATL 171252Z 30003KT 10SM CLR 11/04 A3013 RMK AO2 SLP201 T01060044=
201611171152 METAR KATL 171152Z 00000KT 10SM CLR 10/03 A3011 RMK AO2 SLP193 T01000033 10122 20083 53008=
201611171052 METAR KATL 171052Z 31004KT 10SM CLR 09/04 A3009 RMK AO2 SLP188 T00890039=
201611170952 METAR KATL 170952Z 28003KT 10SM CLR 09/04 A3008 RMK AO2 SLP185 T00940039=
201611170852 METAR KATL 170852Z 27003KT 10SM CLR 09/04 A3008 RMK AO2 SLP183 T00890039 53010=
201611170752 METAR KATL 170752Z 00000KT 10SM CLR 10/03 A3007 RMK AO2 SLP179 T01000033=
201611170652 METAR KATL 170652Z 28003KT 10SM CLR 11/03 A3006 RMK AO2 SLP174 T01110033=
201611170552 METAR KATL 170552Z 29005KT 10SM CLR 12/03 A3005 RMK AO2 SLP173 T01170033 10183 20111 53003=
201611170452 METAR KATL 170452Z 29005KT 10SM CLR 14/03 A3005 RMK AO2 SLP171 T01390033 402280083=
201611170352 METAR KATL 170352Z 30004KT 10SM CLR 14/03 A3004 RMK AO2 SLP170 T01390033=
201611170252 METAR KATL 170252Z 30005KT 10SM CLR 16/03 A3004 RMK AO2 SLP171 T01560033 51015=
201611170152 METAR KATL 170152Z 30006KT 10SM CLR 16/03 A3003 RMK AO2 SLP166 T01560028=
201611170052 METAR KATL 170052Z 27004KT 10SM CLR 14/03 A3002 RMK AO2 SLP166 T01440028=
201611162352 METAR KATL 162352Z 31003KT 10SM CLR 18/02 A3000 RMK AO2 SLP157 T01830017 10228 20172 53007=
201611162252 METAR KATL 162252Z 32004KT 10SM CLR 19/01 A2999 RMK AO2 SLP153 T01940006=
201611162152 METAR KATL 162152Z 33008KT 10SM CLR 22/M01 A2998 RMK AO2 SLP150 T02171011=
201611162052 METAR KATL 162052Z 33011KT 10SM CLR 23/03 A2998 RMK AO2 SLP148 T02280033 55007=
201611161952 METAR KATL 161952Z 32009KT 10SM CLR 22/04 A2998 RMK AO2 SLP148 T02220044=
201611161852 METAR KATL 161852Z 32008KT 10SM CLR 22/04 A2999 RMK AO2 SLP151 T02220044=
201611161752 METAR KATL 161752Z 30010KT 10SM CLR 21/07 A3000 RMK AO2 SLP156 T02110067 10211 20089 58007=
201611161652 METAR KATL 161652Z 31010KT 10SM CLR 20/06 A3002 RMK AO2 SLP163 T02000056=
201611161552 METAR KATL 161552Z 35007KT 10SM CLR 19/08 A3003 RMK AO2 SLP164 T01890078=
201611161452 METAR KATL 161452Z 31005KT 10SM FEW250 16/09 A3002 RMK AO2 SLP164 T01560094 51010=
201611161352 METAR KATL 161352Z 31007KT 10SM FEW120 FEW250 13/09 A3001 RMK AO2 SLP162 T01280094=
201611161252 METAR KATL 161252Z 31008KT 10SM FEW150 FEW250 09/07 A3001 RMK AO2 SLP162 T00890072=
201611161152 METAR KATL 161152Z 31009KT 10SM FEW150 SCT250 09/07 A2999 RMK AO2 SLP155 T00890072 10117 20083 53007=
201611161052 METAR KATL 161052Z 29004KT 10SM SCT250 08/06 A2998 RMK AO2 SLP151 T00830056=
201611160952 METAR KATL 160952Z 32005KT 10SM FEW250 08/06 A2997 RMK AO2 SLP148 T00830056=
201611160852 METAR KATL 160852Z 31006KT 10SM FEW075 09/06 A2997 RMK AO2 SLP147 T00890056 53002=
201611160752 METAR KATL 160752Z 31006KT 10SM FEW075 09/06 A2997 RMK AO2 SLP146 T00940056=
201611160652 METAR KATL 160652Z 31006KT 10SM FEW075 11/05 A2997 RMK AO2 SLP144 T01060050=
201611160552 METAR KATL 160552Z 00000KT 10SM FEW075 SCT250 12/06 A2997 RMK AO2 SLP145 T01170056 10172 20111 58001=
201611160452 METAR KATL 160452Z 30006KT 10SM SCT075 12/06 A2997 RMK AO2 SLP146 T01220056 402170061=
201611160352 METAR KATL 160352Z 28003KT 10SM FEW080 13/06 A2997 RMK AO2 SLP146 T01280056=
201611160252 METAR KATL 160252Z 31004KT 10SM FEW080 14/06 A2997 RMK AO2 SLP147 T01390061 51009=
201611160152 METAR KATL 160152Z 31006KT 10SM FEW100 14/06 A2996 RMK AO2 SLP146 T01440056=
201611160052 METAR KATL 160052Z 28005KT 10SM FEW085 SCT110 16/06 A2995 RMK AO2 SLP143 T01560056=
201611152352 METAR KATL 152352Z 33006KT 10SM SCT085 BKN110 17/06 A2994 RMK AO2 SLP139 T01720056 10217 20172 53008=
201611152252 METAR KATL 152252Z 28003KT 10SM BKN110 BKN250 18/04 A2993 RMK AO2 SLP135 T01780044=
201611152152 METAR KATL 152152Z 32006KT 10SM FEW065 BKN110 BKN250 19/04 A2992 RMK AO2 SLP130 T01890039=
201611152052 METAR KATL 152052Z 30006KT 10SM FEW120 FEW250 21/03 A2992 RMK AO2 SLP129 ACSL DSNT N & SE T02060033 56016=
201611151952 METAR KATL 151952Z 28011KT 10SM FEW120 SCT150 SCT250 21/03 A2994 RMK AO2 SLP135 ACSL DSNT N-NE-E T02110033=
201611151852 METAR KATL 151852Z 28008KT 10SM FEW120 FEW150 SCT250 21/03 A2995 RMK AO2 SLP140 T02110028=
201611151752 METAR KATL 151752Z 30007KT 10SM FEW150 FEW250 19/02 A2997 RMK AO2 SLP146 T01940022 10200 20061 58020=
201611151652 METAR KATL 151652Z 32006KT 10SM FEW150 FEW250 19/01 A2999 RMK AO2 SLP153 T01890011=
201611151552 METAR KATL 151552Z 33005KT 9SM FEW250 17/02 A3002 RMK AO2 SLP164 T01720022=
201611151452 METAR KATL 151452Z 31009KT 7SM FEW250 14/04 A3003 RMK AO2 SLP169 T01390039 51007=
201611151352 METAR KATL 151352Z 31007KT 9SM FEW250 11/04 A3003 RMK AO2 SLP169 T01060039=
201611151252 METAR KATL 151252Z 30006KT 8SM FEW002 FEW250 07/04 A3002 RMK AO2 SLP168 FU FEW002 FU PLUME N-NE T00720039=
201611151152 METAR KATL 151152Z 30006KT 8SM FEW250 07/03 A3001 RMK AO2 SLP162 T00670033 10111 20061 53004=
201611151052 METAR KATL 151052Z 29003KT 8SM FEW015 07/03 A3000 RMK AO2 SLP159 FU FEW015 T00670033=
201611150952 METAR KATL 150952Z 28003KT 9SM CLR 08/04 A3000 RMK AO2 SLP157 T00780039=
201611150852 METAR KATL 150852Z 29005KT 8SM CLR 09/04 A3000 RMK AO2 SLP156 T00890044 55003=
201611150752 METAR KATL 150752Z 29005KT 9SM CLR 09/04 A2999 RMK AO2 SLP154 T00940044=
201611150652 METAR KATL 150652Z 30004KT 9SM CLR 10/04 A3000 RMK AO2 SLP157 T01000044=
201611150552 METAR KATL 150552Z 29004KT 10SM CLR 11/04 A3001 RMK AO2 SLP158 T01110044 10144 20094 58003=
201611150452 METAR KATL 150452Z 28003KT 9SM CLR 11/04 A3001 RMK AO2 SLP162 VIS LWR SE-S FU T01060044 401940044=
201611150352 METAR KATL 150352Z 26003KT 6SM FU CLR 11/04 A3002 RMK AO2 SLP164 T01060044=
201611150252 METAR KATL 150252Z 22003KT 5SM FU CLR 10/04 A3002 RMK AO2 SLP166 T01000044 50001=
201611150152 METAR KATL 150152Z 31003KT 5SM FU CLR 11/04 A3002 RMK AO2 SLP167 T01110044=
201611150052 METAR KATL 150052Z 29003KT 4SM FU CLR 12/04 A3002 RMK AO2 SLP169 T01170044=
201611142352 METAR KATL 142352Z 32003KT 4SM FU CLR 14/04 A3001 RMK AO2 SLP165 T01390039 10194 20139 53002=
201611142252 METAR KATL 142252Z 00000KT 3SM FU CLR 16/03 A3000 RMK AO2 SLP160 T01560028=
201611142152 METAR KATL 142152Z 30006KT 4SM FU CLR 17/03 A3000 RMK AO2 SLP159 T01720028=
201611142052 METAR KATL 142052Z 28007KT 3SM FU CLR 19/02 A3001 RMK AO2 SLP161 T01890022 56015=
201611141952 METAR KATL 141952Z 33009KT 3SM FU CLR 19/02 A3001 RMK AO2 SLP162 T01940022=
201611141852 METAR KATL 141852Z 32006KT 4SM FU CLR 19/03 A3003 RMK AO2 SLP167 T01940028=
201611141752 METAR KATL 141752Z 32007KT 4SM FU CLR 18/03 A3005 RMK AO2 SLP177 T01830033 10189 20050 58023=
201611141652 METAR KATL 141652Z 33007KT 4SM FU CLR 17/04 A3009 RMK AO2 SLP188 T01720044=
201611141552 METAR KATL 141552Z 29007KT 6SM FU CLR 14/06 A3011 RMK AO2 SLP198 T01390056=
201611141452 METAR KATL 141452Z 30005KT 9SM BKN012 10/05 A3012 RMK AO2 SLP202 FU BKN012 T01000050 53001=
201611141352 METAR KATL 141352Z 34005KT 9SM SCT020 08/04 A3012 RMK AO2 SLP201 FU SCT020 T00780044=
201611141252 METAR KATL 141252Z 32006KT 8SM FEW020 05/04 A3012 RMK AO2 SLP204 FU FEW020 T00500044=
201611141152 METAR KATL 141152Z 32004KT 10SM FEW200 06/04 A3011 RMK AO2 SLP200 T00560039 10078 20044 51003 $=
201611141052 METAR KATL 141052Z 31007KT 8SM FEW150 FEW200 05/04 A3011 RMK AO2 SLP198 T00500044=
201611140952 METAR KATL 140952Z 27003KT 8SM FEW200 06/04 A3010 RMK AO2 SLP196 T00560044=
201611140852 METAR KATL 140852Z 00000KT 10SM SCT200 07/04 A3010 RMK AO2 SLP194 T00670044 58014=
201611140752 METAR KATL 140752Z 34003KT 10SM FEW090 SCT150 BKN200 07/06 A3012 RMK AO2 SLP201 T00720056=
201611140652 METAR KATL 140652Z 30004KT 9SM FEW090 SCT150 BKN200 07/06 A3015 RMK AO2 SLP212 T00720056=
201611140552 METAR KATL 140552Z 00000KT 9SM SCT180 OVC250 07/06 A3014 RMK AO2 SLP209 T00720056 10100 20072 58011=
201611140452 METAR KATL 140452Z 00000KT 10SM OVC250 07/06 A3016 RMK AO2 SLP216 T00720056 401280072=
201611140352 METAR KATL 140352Z 11004KT 10SM BKN250 08/06 A3016 RMK AO2 SLP215 T00830056=
201611140252 METAR KATL 140252Z 00000KT 10SM FEW250 08/07 A3017 RMK AO2 SLP220 T00830067 57004=
201611140152 METAR KATL 140152Z 14003KT 10SM FEW250 08/06 A3017 RMK AO2 SLP219 T00830061=
201611140052 METAR KATL 140052Z 21003KT 10SM SCT070 SCT250 08/06 A3019 RMK AO2 SLP225 T00830061=
201611132352 METAR KATL 132352Z 12003KT 10SM FEW075 SCT250 10/06 A3018 RMK AO2 SLP223 T01000061 10128 20100 53002=
201611132252 METAR KATL 132252Z 12003KT 10SM FEW070 SCT250 11/07 A3017 RMK AO2 SLP217 T01060067=
201611132152 METAR KATL 132152Z 10004KT 10SM FEW026 BKN070 BKN250 12/06 A3017 RMK AO2 SLP219 T01170061=
201611132110 SPECI KATL 132110Z 03003KT 10SM FEW025 BKN070 12/06 A3018 RMK AO2 T01170061=
201611132052 METAR KATL 132052Z 06003KT 10SM BKN025 BKN070 12/06 A3018 RMK AO2 SLP220 T01170061 56023=
201611131952 METAR KATL 131952Z 07006KT 10SM FEW017 BKN024 12/06 A3019 RMK AO2 SLP223 T01220056=
201611131901 SPECI KATL 131901Z 11004KT 10SM BKN023 BKN060 12/05 A3021 RMK AO2 T01220050=
201611131852 METAR KATL 131852Z 11004KT 10SM SCT022 BKN055 BKN070 11/04 A3021 RMK AO2 SLP232 T01060044=
201611131833 SPECI KATL 131833Z 08006KT 10SM BKN022 BKN055 11/04 A3023 RMK AO2 T01060044=
201611131752 METAR KATL 131752Z 05006KT 10SM FEW050 BKN065 10/04 A3025 RMK AO2 SLP244 60000 T01000039 10100 20089 58013=
201611131652 METAR KATL 131652Z 07007KT 10SM FEW049 BKN060 10/03 A3028 RMK AO2 SLP255 T01000028=
201611131552 METAR KATL 131552Z 08012KT 10SM BKN045 OVC065 09/02 A3030 RMK AO2 SLP262 BINOVC T00940017=
201611131452 METAR KATL 131452Z 09013KT 10SM SCT045 BKN070 OVC085 10/01 A3029 RMK AO2 SLP258 BINOVC 60000 T01000006 51013=
201611131352 METAR KATL 131352Z 08015KT 10SM FEW025 BKN045 BKN070 09/M01 A3028 RMK AO2 RAB16E26 SLP254 SHRA NW-NE P0000 T00941011=
201611131252 METAR KATL 131252Z 08011KT 10SM SCT045 BKN055 BKN070 10/01 A3027 RMK AO2 SLP251 T01000006=
201611131152 METAR KATL 131152Z 07013KT 10SM BKN042 BKN070 10/M01 A3025 RMK AO2 SLP245 T01001006 10122 20100 53004=
201611131052 METAR KATL 131052Z 08012KT 10SM BKN044 OVC070 11/M01 A3024 RMK AO2 SLP240 T01061006=
201611130952 METAR KATL 130952Z 07012KT 10SM BKN042 BKN070 11/00 A3023 RMK AO2 SLP237 T01110000=
201611130852 METAR KATL 130852Z 07010KT 10SM BKN045 OVC070 12/01 A3024 RMK AO2 SLP239 T01170006 56006=
201611130752 METAR KATL 130752Z 11010KT 10SM BKN043 BKN065 OVC150 12/01 A3024 RMK AO2 SLP239 T01220006=
201611130652 METAR KATL 130652Z 09010KT 10SM BKN045 BKN075 OVC150 12/01 A3025 RMK AO2 SLP241 T01220011=
201611130552 METAR KATL 130552Z 09011KT 10SM BKN045 BKN070 OVC120 12/01 A3026 RMK AO2 SLP244 T01220011 10133 20117 58001=
201611130452 METAR KATL 130452Z 09012KT 10SM BKN043 OVC070 13/02 A3026 RMK AO2 SLP246 T01280022 401720117=
201611130352 METAR KATL 130352Z 09008KT 10SM BKN040 OVC065 13/02 A3026 RMK AO2 SLP246 T01280022=
201611130252 METAR KATL 130252Z 09010KT 10SM BKN045 OVC120 13/02 A3026 RMK AO2 SLP245 T01280022 51014=
201611130152 METAR KATL 130152Z 08009KT 10SM SCT050 BKN120 BKN200 12/03 A3025 RMK AO2 SLP244 T01220028=
201611130052 METAR KATL 130052Z 09008KT 10SM SCT043 BKN120 BKN200 13/03 A3023 RMK AO2 SLP238 T01330028=
201611122352 METAR KATL 122352Z 09007KT 10SM SCT130 BKN200 13/02 A3022 RMK AO2 SLP232 T01280022 10172 20128 53005=
201611122252 METAR KATL 122252Z 08011KT 10SM FEW075 SCT140 BKN200 15/02 A3020 RMK AO2 SLP226 ACC W-NW T01500022=
201611122152 METAR KATL 122152Z 07011KT 10SM FEW060 SCT150 BKN200 16/02 A3020 RMK AO2 SLP223 T01560022=
201611122052 METAR KATL 122052Z 07011KT 10SM FEW060 SCT150 BKN200 16/02 A3020 RMK AO2 SLP224 T01610022 56013=
201611121952 METAR KATL 121952Z 07012KT 10SM FEW060 SCT150 BKN200 16/02 A3021 RMK AO2 SLP227 T01610017=
201611121852 METAR KATL 121852Z 07015KT 10SM FEW150 BKN200 17/02 A3021 RMK AO2 SLP229 T01670017=
201611121752 METAR KATL 121752Z 07014KT 10SM FEW150 BKN220 16/02 A3024 RMK AO2 SLP238 T01610017 10161 20122 58006=
201611121652 METAR KATL 121652Z 08019KT 10SM FEW150 BKN220 16/02 A3026 RMK AO2 SLP246 T01560017=
201611121552 METAR KATL 121552Z 08017G26KT 10SM FEW150 BKN220 15/01 A3027 RMK AO2 PK WND 06027/1511 SLP249 T01500011=
201611121452 METAR KATL 121452Z 08020G26KT 10SM SCT150 BKN220 14/01 A3026 RMK AO2 PK WND 07026/1445 SLP244 T01440011 51023=
201611121352 METAR KATL 121352Z 08015KT 10SM FEW150 SCT200 13/02 A3024 RMK AO2 SLP237 T01280017=
201611121252 METAR KATL 121252Z 08014KT 10SM FEW050 SCT150 BKN200 12/02 A3022 RMK AO2 SLP231 T01220022=
201611121152 METAR KATL 121152Z 09013KT 10SM FEW050 SCT150 BKN200 12/02 A3019 RMK AO2 SLP220 T01220022 10144 20122 51024=
201611121052 METAR KATL 121052Z 08013KT 10SM FEW150 BKN200 13/03 A3017 RMK AO2 SLP214 T01280028=
201611120952 METAR KATL 120952Z 08013KT 10SM FEW150 SCT200 13/03 A3014 RMK AO2 SLP203 T01280033=
201611120852 METAR KATL 120852Z 08013KT 10SM FEW150 BKN220 13/03 A3011 RMK AO2 SLP194 T01330033 51007=
201611120752 METAR KATL 120752Z 05009KT 10SM FEW150 BKN200 14/04 A3011 RMK AO2 SLP191 T01440039=
201611120652 METAR KATL 120652Z 01007KT 10SM FEW150 BKN220 14/05 A3011 RMK AO2 SLP191 T01440050=
201611120552 METAR KATL 120552Z 36007KT 10SM FEW150 BKN200 OVC250 14/05 A3009 RMK AO2 SLP186 T01440050 10161 20139 51011=
201611120452 METAR KATL 120452Z 33004KT 9SM SCT150 BKN200 OVC250 14/04 A3009 RMK AO2 SLP186 T01390044 402170072=
201611120352 METAR KATL 120352Z 34008KT 10SM SCT150 BKN200 BKN250 15/04 A3007 RMK AO2 SLP180 T01500039=
201611120252 METAR KATL 120252Z 33010KT 10SM FEW150 BKN200 BKN250 16/03 A3006 RMK AO2 SLP177 T01560033 51005=
201611120152 METAR KATL 120152Z 33009KT 10SM FEW150 BKN200 OVC250 16/03 A3006 RMK AO2 SLP177 T01560028=
201611120052 METAR KATL 120052Z 33010KT 10SM FEW150 BKN200 OVC250 16/02 A3005 RMK AO2 SLP175 T01610022=
201611112352 METAR KATL 112352Z 30007KT 10SM FEW150 BKN200 OVC250 16/02 A3004 RMK AO2 SLP173 T01610017 10217 20161 53011=
201611112252 METAR KATL 112252Z 31008KT 10SM FEW150 SCT200 BKN250 17/01 A3003 RMK AO2 SLP169 T01720011=
201611112152 METAR KATL 112152Z 31012KT 10SM FEW150 BKN180 OVC220 19/00 A3002 RMK AO2 SLP163 VIRGA S AND OHD T01890000=
201611112052 METAR KATL 112052Z 30012G20KT 10SM SCT150 BKN180 OVC220 19/M01 A3001 RMK AO2 SLP160 VIRGA S T01941011 55014=
201611111952 METAR KATL 111952Z 32009KT 10SM FEW085 SCT150 BKN180 BKN250 21/M01 A3001 RMK AO2 SLP159 VIRGA S T02061011=
201611111852 METAR KATL 111852Z 32011KT 10SM FEW080 SCT150 SCT180 BKN250 21/00 A3002 RMK AO2 SLP165 VIRGA S T02060000=
201611111752 METAR KATL 111752Z 32008KT 10SM FEW150 SCT180 BKN250 19/01 A3005 RMK AO2 SLP174 VIRGA DSNT S T01940011 10206 20078 58018=
201611111652 METAR KATL 111652Z 35012KT 10SM FEW150 SCT180 BKN250 19/01 A3009 RMK AO2 SLP186 T01890011=
201611111552 METAR KATL 111552Z 33012KT 10SM FEW150 SCT180 BKN250 17/02 A3008 RMK AO2 SLP186 T01670017=
201611111452 METAR KATL 111452Z 30011KT 10SM FEW005 SCT200 BKN250 14/01 A3011 RMK AO2 SLP193 FU FEW005 T01390011 53002=
201611111352 METAR KATL 111352Z 30008KT 9SM BKN200 BKN250 11/01 A3010 RMK AO2 SLP193 T01060006=
201611111252 METAR KATL 111252Z 30008KT 10SM BKN180 BKN250 09/M01 A3010 RMK AO2 SLP193 T00891006=
201611111152 METAR KATL 111152Z 31010KT 10SM SCT180 BKN250 08/M01 A3010 RMK AO2 SLP192 T00781006 10089 20072 53001=
201611111052 METAR KATL 111052Z 31009KT 9SM FEW014 FEW200 07/M01 A3009 RMK AO2 SLP190 FU FEW014 T00721011=
201611110952 METAR KATL 110952Z 31013KT 10SM CLR 08/M01 A3010 RMK AO2 SLP190 T00831011=
201611110852 METAR KATL 110852Z 31009KT 10SM CLR 09/M01 A3009 RMK AO2 SLP189 T00891011 58009=
201611110752 METAR KATL 110752Z 32009KT 10SM CLR 08/M01 A3010 RMK AO2 SLP192 T00831006=
201611110652 METAR KATL 110652Z 31010KT 10SM CLR 08/M01 A3012 RMK AO2 SLP197 T00831006=
201611110552 METAR KATL 110552Z 31008KT 10SM CLR 09/M01 A3012 RMK AO2 SLP199 T00891011 10167 20089 58011=
201611110452 METAR KATL 110452Z 31003KT 10SM CLR 09/M01 A3014 RMK AO2 SLP205 T00891006 402110056=
201611110352 METAR KATL 110352Z 28003KT 9SM FEW020 11/M01 A3015 RMK AO2 SLP210 FEW020 FU T01061006=
201611110252 METAR KATL 110252Z 28006KT 9SM FEW020 SCT250 12/M01 A3016 RMK AO2 SLP212 FEW020 FU T01221011 50002=
201611110152 METAR KATL 110152Z 30005KT 8SM FEW020 SCT250 13/01 A3016 RMK AO2 SLP213 FEW020 FU T01280011=
201611110052 METAR KATL 110052Z 26003KT 7SM FEW020 12/01 A3017 RMK AO2 SLP219 FEW020 FU T01220011=
201611102352 METAR KATL 102352Z 34003KT 7SM FEW020 17/M01 A3015 RMK AO2 SLP211 FEW020 FU T01671011 10211 20161 50002=
201611102252 METAR KATL 102252Z 32007KT 8SM FEW020 17/M02 A3016 RMK AO2 SLP211 FEW020 FU T01721017=
201611102152 METAR KATL 102152Z 32005KT 9SM CLR 20/M03 A3015 RMK AO2 SLP208 T02001028=
201611102052 METAR KATL 102052Z 29007KT 9SM CLR 21/M01 A3015 RMK AO2 SLP206 T02111011 56015=
201611101952 METAR KATL 101952Z 31006KT 9SM CLR 20/M02 A3015 RMK AO2 SLP207 T02001017=
201611101852 METAR KATL 101852Z 00000KT 8SM CLR 20/M01 A3017 RMK AO2 SLP213 T02001011=
201611101752 METAR KATL 101752Z 27006KT 6SM FU CLR 19/00 A3019 RMK AO2 SLP221 T01890000 10189 20056 58017=
201611101652 METAR KATL 101652Z 00000KT 9SM CLR 17/00 A3022 RMK AO2 SLP231 T01670000=
201611101552 METAR KATL 101552Z 00000KT 10SM CLR 14/02 A3024 RMK AO2 SLP238 T01440017=
201611101452 METAR KATL 101452Z 00000KT 10SM CLR 12/03 A3024 RMK AO2 SLP241 T01170028 51014=
201611101352 METAR KATL 101352Z 28004KT 10SM FEW020 09/03 A3024 RMK AO2 SLP240 FU FEW020 T00940028=
201611101252 METAR KATL 101252Z 33004KT 10SM FEW250 07/03 A3022 RMK AO2 SLP234 T00720033=
201611101152 METAR KATL 101152Z 31005KT 10SM FEW014 FEW250 06/03 A3020 RMK AO2 SLP227 FU FEW014 T00560028 10100 20056 53006=
201611101052 METAR KATL 101052Z 31005KT 10SM FEW014 SCT250 07/03 A3018 RMK AO2 SLP221 FU FEW014 T00670028=
201611100952 METAR KATL 100952Z 32008KT 10SM SCT014 SCT250 07/03 A3018 RMK AO2 SLP218 FU SCT014 T00720033=
201611100852 METAR KATL 100852Z 33006KT 10SM BKN014 BKN250 08/03 A3018 RMK AO2 SLP220 FU BKN014 T00830033 53001=
201611100752 METAR KATL 100752Z 34009KT 10SM SCT015 SCT250 09/03 A3018 RMK AO2 SLP219 FU SCT015 T00890033=
201611100652 METAR KATL 100652Z 32006KT 8SM SCT015 SCT250 09/03 A3018 RMK AO2 SLP216 FU SCT015 T00890033=
201611100552 METAR KATL 100552Z 32006KT 10SM SCT015 BKN250 09/03 A3018 RMK AO2 SLP218 FU SCT015 T00940028 10156 20094 53002=
201611100452 METAR KATL 100452Z 34008KT 10SM FEW015 BKN250 12/03 A3018 RMK AO2 SLP217 FU FEW015 T01170028 402110111=
201611100352 METAR KATL 100352Z 34011KT 8SM BKN250 13/02 A3018 RMK AO2 SLP217 VIS LWR NE-SE-S FU T01280022=
201611100252 METAR KATL 100252Z 34011KT 6SM FU BKN250 13/02 A3018 RMK AO2 SLP216 T01330017 51021=
201611100152 METAR KATL 100152Z 34009KT 10SM BKN250 14/02 A3016 RMK AO2 SLP212 T01440022=
201611100052 METAR KATL 100052Z 34014G19KT 10SM BKN250 15/02 A3014 RMK AO2 SLP205 T01500022=
201611092352 METAR KATL 092352Z 34013KT 10SM BKN250 16/03 A3011 RMK AO2 SLP196 T01560033 10211 20156 53016=
201611092252 METAR KATL 092252Z 33011KT 10SM BKN250 17/03 A3010 RMK AO2 SLP191 T01720028=
201611092152 METAR KATL 092152Z 33017G21KT 10SM BKN250 18/04 A3007 RMK AO2 SLP180 T01830039=
201611092052 METAR KATL 092052Z 31014G20KT 10SM BKN250 19/03 A3007 RMK AO2 SLP178 T01940033 55004=
201611091952 METAR KATL 091952Z 32014KT 10SM BKN250 21/05 A3006 RMK AO2 SLP176 T02110050=
201611091852 METAR KATL 091852Z 34014KT 10SM FEW050 SCT200 BKN250 20/07 A3007 RMK AO2 SLP178 T02000072=
201611091752 METAR KATL 091752Z 34014KT 10SM FEW050 SCT200 BKN250 19/08 A3008 RMK AO2 SLP183 T01940078 10194 20117 58016=
201611091652 METAR KATL 091652Z 33018G22KT 10SM FEW040 BKN250 19/09 A3010 RMK AO2 SLP191 T01890089=
201611091552 METAR KATL 091552Z 33010KT 6SM FU BKN250 18/09 A3012 RMK AO2 SLP197 T01780089=
201611091452 METAR KATL 091452Z 32012KT 10SM FEW040 BKN200 BKN250 16/06 A3012 RMK AO2 SLP199 T01560061 51009=
201611091352 METAR KATL 091352Z 31011KT 10SM FEW080 BKN200 BKN250 14/04 A3012 RMK AO2 SLP198 T01390044=
201611091252 METAR KATL 091252Z 31009KT 10SM FEW085 BKN200 BKN250 12/04 A3011 RMK AO2 SLP194 T01220039=
201611091152 METAR KATL 091152Z 29007KT 10SM FEW085 FEW140 BKN200 OVC250 12/03 A3010 RMK AO2 SLP190 T01170033 10128 20111 55003=
201611091052 METAR KATL 091052Z 28006KT 10SM FEW050 FEW085 SCT140 OVC200 12/03 A3009 RMK AO2 SLP188 T01170033=
201611090952 METAR KATL 090952Z 29007KT 10SM FEW055 BKN085 BKN130 OVC200 13/03 A3010 RMK AO2 SLP190 T01280028=
201611090852 METAR KATL 090852Z 28007KT 10SM FEW090 SCT130 BKN200 OVC250 12/03 A3010 RMK AO2 SLP191 T01220028 56014=
201611090752 METAR KATL 090752Z 28005KT 10SM BKN140 BKN200 OVC250 12/03 A3012 RMK AO2 SLP196 T01170028=
201611090652 METAR KATL 090652Z 27005KT 10SM SCT130 BKN200 BKN250 12/02 A3013 RMK AO2 SLP201 T01220022=
201611090552 METAR KATL 090552Z 27003KT 10SM SCT140 BKN250 12/03 A3015 RMK AO2 SLP206 T01170033 10161 20111 56007=
201611090452 METAR KATL 090452Z 26003KT 10SM SCT140 BKN250 12/03 A3015 RMK AO2 SLP208 T01220033 402060094=
201611090352 METAR KATL 090352Z 29004KT 10SM SCT140 BKN250 14/03 A3016 RMK AO2 SLP212 T01390028=
201611090252 METAR KATL 090252Z 30004KT 10SM SCT150 BKN250 14/03 A3017 RMK AO2 SLP214 T01390028 58008=
201611090152 METAR KATL 090152Z 25003KT 10SM FEW150 BKN250 12/03 A3018 RMK AO2 SLP219 T01220033=
201611090052 METAR KATL 090052Z 00000KT 10SM SCT150 BKN180 BKN250 14/03 A3019 RMK AO2 SLP224 T01440028=
201611082352 METAR KATL 082352Z 00000KT 10SM SCT150 BKN180 BKN250 16/02 A3019 RMK AO2 SLP224 T01560022 10206 20156 56001=
201611082252 METAR KATL 082252Z 21005KT 10SM BKN150 BKN250 17/01 A3019 RMK AO2 SLP223 T01670011=
201611082152 METAR KATL 082152Z 21004KT 10SM FEW150 BKN180 BKN250 18/01 A3019 RMK AO2 SLP223 T01830011=
201611082052 METAR KATL 082052Z 14003KT 10SM FEW150 BKN180 BKN250 19/01 A3020 RMK AO2 SLP223 T01940006 56024=
201611081952 METAR KATL 081952Z 09004KT 10SM FEW150 SCT180 BKN220 19/01 A3021 RMK AO2 SLP229 T01940011=
201611081852 METAR KATL 081852Z 03003KT 10SM FEW150 SCT180 BKN250 18/02 A3025 RMK AO2 SLP240 VIRGA DSNT NE & SE & SW & NW T01780022=
201611081752 METAR KATL 081752Z 12006KT 10SM FEW150 SCT180 BKN200 18/02 A3027 RMK AO2 SLP248 VIRGA DSNT NW-N T01780017 10178 20094 58021=
201611081652 METAR KATL 081652Z 11006KT 10SM SCT150 BKN180 BKN250 18/02 A3030 RMK AO2 SLP260 T01780022=
201611081552 METAR KATL 081552Z 13003KT 10SM FEW150 BKN180 BKN250 16/02 A3034 RMK AO2 SLP273 VIRGA DSNT SW T01560017=
201611081452 METAR KATL 081452Z 13005KT 10SM FEW150 SCT200 BKN250 14/03 A3033 RMK AO2 SLP271 VIRGA DSNT NE-E & NW-N T01440028 53004=
201611081352 METAR KATL 081352Z 18004KT 10SM SCT150 SCT200 BKN250 12/04 A3033 RMK AO2 SLP271 VIRGA N-E-SE T01170039=
201611081252 METAR KATL 081252Z 09004KT 10SM FEW150 BKN180 11/05 A3032 RMK AO2 SLP266 T01110050=
201611081152 METAR KATL 081152Z 08006KT 10SM FEW150 BKN200 09/04 A3032 RMK AO2 SLP267 T00940044 10128 20094 53004=
201611081052 METAR KATL 081052Z 10003KT 10SM BKN200 BKN250 11/04 A3031 RMK AO2 SLP263 T01060044=
201611080952 METAR KATL 080952Z 07007KT 10SM FEW200 BKN250 10/04 A3031 RMK AO2 SLP261 T01000044=
201611080852 METAR KATL 080852Z 07004KT 10SM FEW200 BKN250 10/04 A3031 RMK AO2 SLP261 T01000039 56009=
201611080752 METAR KATL 080752Z 11004KT 10SM CLR 12/04 A3031 RMK AO2 SLP261 T01170039=
201611080652 METAR KATL 080652Z 11005KT 10SM FEW200 BKN250 12/03 A3032 RMK AO2 SLP264 T01170033=
201611080552 METAR KATL 080552Z 11004KT 10SM FEW200 BKN250 13/03 A3034 RMK AO2 SLP269 T01280028 10183 20117 55000=
201611080452 METAR KATL 080452Z 09005KT 10SM SCT250 12/03 A3034 RMK AO2 SLP270 T01220028 402280100=
201611080352 METAR KATL 080352Z 09006KT 10SM BKN250 12/02 A3033 RMK AO2 SLP270 T01220022=
201611080252 METAR KATL 080252Z 09007KT 10SM BKN250 13/02 A3034 RMK AO2 SLP271 T01330017 51005=
201611080152 METAR KATL 080152Z 09006KT 10SM BKN250 14/02 A3033 RMK AO2 SLP270 T01440017=
201611080052 METAR KATL 080052Z 09009KT 10SM BKN250 17/01 A3033 RMK AO2 SLP270 T01670011=
201611072352 METAR KATL 072352Z 09007KT 10SM FEW200 BKN250 17/02 A3032 RMK AO2 SLP267 T01720017 10228 20172 53006=
201611072252 METAR KATL 072252Z 10006KT 10SM FEW200 SCT250 19/01 A3031 RMK AO2 SLP261 T01890011=
201611072152 METAR KATL 072152Z 11008KT 10SM FEW200 FEW250 21/02 A3031 RMK AO2 SLP260 T02110017=
201611072052 METAR KATL 072052Z 10007KT 10SM FEW250 22/02 A3030 RMK AO2 SLP258 T02220017 56017=
201611071952 METAR KATL 071952Z 08008KT 10SM FEW180 FEW250 22/02 A3031 RMK AO2 SLP260 T02220017=
201611071852 METAR KATL 071852Z 12007KT 10SM FEW180 FEW250 22/02 A3033 RMK AO2 SLP267 T02220017=
201611071752 METAR KATL 071752Z 10007G15KT 10SM FEW180 FEW250 21/02 A3035 RMK AO2 SLP274 T02110017 10217 20100 58014=
201611071652 METAR KATL 071652Z 11007KT 10SM FEW180 FEW250 21/02 A3038 RMK AO2 SLP283 T02060022=
201611071552 METAR KATL 071552Z 10010KT 10SM FEW180 BKN250 19/04 A3040 RMK AO2 SLP290 T01890044=
201611071452 METAR KATL 071452Z 09012KT 10SM FEW180 SCT250 17/04 A3039 RMK AO2 SLP290 T01670044 51016=
201611071352 METAR KATL 071352Z 07011KT 10SM FEW200 SCT250 14/05 A3039 RMK AO2 SLP289 T01390050=
201611071252 METAR KATL 071252Z 07009KT 10SM FEW150 SCT200 BKN250 12/05 A3037 RMK AO2 SLP284 T01170050=
201611071152 METAR KATL 071152Z 08004KT 10SM FEW200 BKN250 11/04 A3035 RMK AO2 SLP275 T01060044 10150 20106 51014=
201611071052 METAR KATL 071052Z 06005KT 10SM FEW200 BKN250 11/04 A3034 RMK AO2 SLP271 T01060039=
201611070952 METAR KATL 070952Z 07007KT 10SM FEW200 BKN250 11/04 A3032 RMK AO2 SLP263 T01060044=
201611070852 METAR KATL 070852Z 08006KT 10SM FEW200 BKN250 11/04 A3030 RMK AO2 SLP259 T01110044 50000=
201611070752 METAR KATL 070752Z 08007KT 10SM SCT200 BKN250 12/04 A3031 RMK AO2 SLP260 T01170044=
201611070652 METAR KATL 070652Z 08006KT 10SM SCT220 BKN250 12/04 A3031 RMK AO2 SLP259 T01220044=
201611070552 METAR KATL 070552Z 11004KT 10SM SCT200 BKN250 16/02 A3030 RMK AO2 SLP257 T01560022 10194 20150 50003=
201611070452 METAR KATL 070452Z 14003KT 10SM SCT200 BKN250 16/03 A3031 RMK AO2 SLP258 T01610028 402390083=
201611070352 METAR KATL 070352Z 09005KT 10SM BKN200 OVC250 16/03 A3030 RMK AO2 SLP256 T01560033=
201611070252 METAR KATL 070252Z 10003KT 10SM BKN200 BKN250 17/04 A3030 RMK AO2 SLP255 T01670044 51010=
201611070152 METAR KATL 070152Z 09005KT 10SM BKN200 OVC250 16/04 A3029 RMK AO2 SLP255 T01610044=
201611070052 METAR KATL 070052Z 15003KT 10SM BKN200 BKN250 17/04 A3028 RMK AO2 SLP252 T01720044=
201611062352 METAR KATL 062352Z 10004KT 10SM BKN200 OVC250 19/03 A3027 RMK AO2 SLP247 T01940033 10239 20189 53004=
201611062252 METAR KATL 062252Z 07006KT 10SM BKN200 OVC250 20/03 A3026 RMK AO2 SLP244 T02000028=
201611062152 METAR KATL 062152Z 07006KT 10SM FEW120 BKN200 BKN250 21/02 A3026 RMK AO2 SLP243 T02110022=
201611062052 METAR KATL 062052Z 00000KT 10SM FEW200 BKN250 22/02 A3025 RMK AO2 SLP241 T02220017 55012=
201611061952 METAR KATL 061952Z 10005KT 10SM FEW200 BKN250 23/01 A3025 RMK AO2 SLP240 T02280011=
201611061852 METAR KATL 061852Z VRB06KT 10SM FEW200 BKN250 23/04 A3027 RMK AO2 SLP247 T02280039=
201611061752 METAR KATL 061752Z VRB04KT 10SM FEW150 BKN250 21/04 A3029 RMK AO2 SLP253 T02110039 10217 20083 58019=
201611061652 METAR KATL 061652Z 10SM FEW150 BKN250 20/03 A3031 RMK AO2 SLP261 T02000033=
201611061552 METAR KATL 061552Z 03004KT 10SM BKN250 19/04 A3034 RMK AO2 SLP271 T01940039=
201611061452 METAR KATL 061452Z 07005KT 10SM BKN250 17/04 A3034 RMK AO2 SLP273 T01720039 50002=
201611061352 METAR KATL 061352Z 00000KT 10SM BKN250 15/05 A3036 RMK AO2 SLP278 T01500050=
201611061252 METAR KATL 061252Z 00000KT 10SM FEW200 BKN250 11/06 A3035 RMK AO2 SLP275 T01060061=
201611061152 METAR KATL 061152Z 00000KT 10SM FEW200 SCT250 09/06 A3034 RMK AO2 SLP273 T00890056 10139 20083 53012=
201611061052 METAR KATL 061052Z 00000KT 10SM FEW250 10/06 A3032 RMK AO2 SLP266 T01000056=
201611060952 METAR KATL 060952Z 12003KT 10SM FEW200 SCT250 11/06 A3030 RMK AO2 SLP260 T01060056=
201611060852 METAR KATL 060852Z 08003KT 10SM FEW200 BKN250 12/06 A3030 RMK AO2 SLP259 T01170061 56002=
201611060752 METAR KATL 060752Z 00000KT 10SM FEW200 BKN250 12/06 A3031 RMK AO2 SLP259 T01220056=
201611060652 METAR KATL 060652Z 10004KT 10SM FEW200 BKN250 12/06 A3030 RMK AO2 SLP258 T01220061=
201611060552 METAR KATL 060552Z 00000KT 10SM FEW200 BKN250 14/06 A3031 RMK AO2 SLP260 T01390056 10189 20128 53001=
201611060452 METAR KATL 060452Z 12004KT 10SM SCT200 BKN250 14/06 A3030 RMK AO2 SLP257 T01440056 402220111=
201611060352 METAR KATL 060352Z 12004KT 10SM SCT200 BKN250 15/06 A3030 RMK AO2 SLP259 T01500061=
201611060252 METAR KATL 060252Z 14003KT 10SM SCT200 BKN250 16/06 A3031 RMK AO2 SLP260 T01560061 53010=
201611060152 METAR KATL 060152Z 00000KT 10SM SCT200 BKN250 16/06 A3030 RMK AO2 SLP257 T01610061=
201611060052 METAR KATL 060052Z 15003KT 10SM BKN200 BKN250 16/06 A3028 RMK AO2 SLP253 T01610061=
201611052352 METAR KATL 052352Z 09003KT 10SM BKN200 BKN250 19/05 A3028 RMK AO2 SLP251 T01890050 10222 20183 53004=
201611052252 METAR KATL 052252Z 06007KT 10SM BKN200 BKN250 19/04 A3026 RMK AO2 SLP246 T01940044=
201611052152 METAR KATL 052152Z 05008KT 10SM BKN200 BKN250 21/04 A3027 RMK AO2 SLP246 T02060044=
201611052052 METAR KATL 052052Z 09007KT 10SM SCT200 BKN250 21/05 A3026 RMK AO2 SLP245 T02110050 56016=
201611051952 METAR KATL 051952Z 08004KT 10SM BKN250 22/04 A3027 RMK AO2 SLP246 T02170044=
201611051852 METAR KATL 051852Z VRB03KT 10SM BKN250 21/04 A3029 RMK AO2 SLP252 T02110044=
201611051752 METAR KATL 051752Z 00000KT 10SM SCT250 20/04 A3031 RMK AO2 SLP262 T02000044 10206 20117 58018=
201611051652 METAR KATL 051652Z 10005KT 10SM FEW250 19/05 A3035 RMK AO2 SLP273 T01940050=
201611051552 METAR KATL 051552Z 09007KT 10SM FEW250 18/06 A3037 RMK AO2 SLP280 T01780056=
201611051452 METAR KATL 051452Z 10009KT 10SM FEW250 16/06 A3037 RMK AO2 SLP280 T01610056 51018=
201611051352 METAR KATL 051352Z 08010KT 10SM CLR 14/06 A3036 RMK AO2 SLP277 T01390056=
201611051252 METAR KATL 051252Z 07009KT 10SM CLR 12/06 A3033 RMK AO2 SLP269 T01220056=
201611051152 METAR KATL 051152Z 06010KT 10SM CLR 12/06 A3031 RMK AO2 SLP263 T01170061 10156 20111 53019=
201611051052 METAR KATL 051052Z 05008KT 10SM CLR 12/07 A3030 RMK AO2 SLP256 T01220067=
201611050952 METAR KATL 050952Z 09007KT 10SM CLR 12/07 A3027 RMK AO2 SLP247 T01170067=
201611050852 METAR KATL 050852Z 09007KT 10SM CLR 13/07 A3026 RMK AO2 SLP241 T01280072 51006=
201611050752 METAR KATL 050752Z 09006KT 10SM CLR 13/08 A3025 RMK AO2 SLP239 T01280078=
201611050652 METAR KATL 050652Z 07008KT 10SM CLR 14/08 A3025 RMK AO2 SLP239 T01440078=
201611050552 METAR KATL 050552Z 09005KT 10SM CLR 16/07 A3024 RMK AO2 SLP235 T01560072 10217 20156 51007=
201611050452 METAR KATL 050452Z 00000KT 10SM CLR 17/06 A3024 RMK AO2 SLP232 T01670061 402670161=
201611050352 METAR KATL 050352Z 12003KT 10SM CLR 17/06 A3023 RMK AO2 SLP229 T01670056=
201611050252 METAR KATL 050252Z 04005KT 10SM CLR 19/04 A3022 RMK AO2 SLP227 T01890044 52014=
201611050152 METAR KATL 050152Z 33006KT 10SM CLR 19/04 A3021 RMK AO2 SLP222 T01940039=
201611050052 METAR KATL 050052Z 34009KT 10SM CLR 20/04 A3019 RMK AO2 SLP217 T02000039=
201611042352 METAR KATL 042352Z 35010KT 10SM CLR 22/04 A3018 RMK AO2 SLP212 T02170039 10267 20217 53015=
201611042252 METAR KATL 042252Z 03007KT 10SM FEW070 23/06 A3015 RMK AO2 SLP203 T02330061=
201611042152 METAR KATL 042152Z 03004KT 10SM FEW070 24/06 A3013 RMK AO2 SLP197 T02440061=
201611042052 METAR KATL 042052Z 04004KT 10SM FEW070 26/07 A3013 RMK AO2 SLP195 T02610067 55008=
201611041952 METAR KATL 041952Z 03008KT 10SM SCT070 27/08 A3013 RMK AO2 SLP194 T02670078=
201611041852 METAR KATL 041852Z 05011KT 10SM FEW065 26/08 A3014 RMK AO2 SLP197 T02610083=
201611041752 METAR KATL 041752Z 01009KT 10SM FEW065 FEW250 26/09 A3015 RMK AO2 SLP203 T02560089 10256 20178 58005=
201611041652 METAR KATL 041652Z 02011KT 10SM FEW065 25/09 A3017 RMK AO2 SLP210 T02500094=
201611041552 METAR KATL 041552Z 35011KT 10SM CLR 23/11 A3018 RMK AO2 SLP210 T02330106=
201611041452 METAR KATL 041452Z 01012KT 10SM CLR 22/12 A3017 RMK AO2 SLP208 T02220122 51014=
201611041352 METAR KATL 041352Z 34011KT 10SM CLR 20/14 A3016 RMK AO2 SLP206 T02000139=
201611041252 METAR KATL 041252Z 33008KT 10SM FEW090 FEW250 18/15 A3014 RMK AO2 SLP202 T01830150=
201611041152 METAR KATL 041152Z 32009KT 10SM FEW250 18/15 A3013 RMK AO2 SLP195 T01780150 10194 20178 53012=
201611041052 METAR KATL 041052Z 33010KT 10SM FEW200 SCT250 18/15 A3011 RMK AO2 SLP189 T01830150=
201611040952 METAR KATL 040952Z 30007KT 10SM FEW150 SCT200 SCT250 18/15 A3009 RMK AO2 SLP182 T01830150=
201611040852 METAR KATL 040852Z 32008KT 10SM FEW050 SCT150 BKN200 BKN250 19/15 A3009 RMK AO2 SLP180 T01890150 57003=
201611040752 METAR KATL 040752Z 32009KT 10SM FEW055 SCT150 BKN200 BKN250 19/14 A3009 RMK AO2 SLP182 T01890144=
201611040652 METAR KATL 040652Z 30008KT 10SM FEW060 SCT200 BKN250 19/14 A3010 RMK AO2 SLP183 T01940144=
201611040552 METAR KATL 040552Z 28006KT 10SM FEW065 SCT200 BKN250 19/14 A3010 RMK AO2 SLP183 T01940144 10239 20194 56012=
201611040452 METAR KATL 040452Z 28007KT 10SM FEW065 SCT250 20/14 A3011 RMK AO2 SLP186 T02000139 402890167=
201611040352 METAR KATL 040352Z 27008KT 10SM FEW060 SCT250 21/14 A3012 RMK AO2 SLP191 T02110139=
201611040252 METAR KATL 040252Z 27007KT 10SM FEW060 SCT250 22/13 A3013 RMK AO2 SLP196 T02170128 57002=
201611040152 METAR KATL 040152Z 27005KT 10SM FEW060 FEW140 SCT250 22/12 A3014 RMK AO2 SLP199 T02170122=
201611040052 METAR KATL 040052Z 25003KT 10SM FEW140 SCT250 22/13 A3014 RMK AO2 SLP199 T02220128=
201611032352 METAR KATL 032352Z 25003KT 10SM BKN140 BKN250 24/12 A3014 RMK AO2 SLP201 T02390122 10289 20239 58000=
201611032252 METAR KATL 032252Z 30005KT 10SM SCT150 BKN250 24/12 A3015 RMK AO2 SLP202 T02440117=
201611032152 METAR KATL 032152Z 33009KT 10SM FEW065 BKN250 27/12 A3014 RMK AO2 SLP199 T02670122=
201611032052 METAR KATL 032052Z 31008KT 10SM FEW070 BKN250 27/12 A3014 RMK AO2 SLP198 T02720117 56019=
201611031952 METAR KATL 031952Z 24008KT 10SM FEW065 SCT200 BKN250 28/11 A3015 RMK AO2 SLP200 T02830111=
201611031852 METAR KATL 031852Z 31008KT 10SM FEW055 FEW075 SCT250 26/13 A3018 RMK AO2 SLP210 T02610128=
201611031752 METAR KATL 031752Z VRB05KT 10SM SCT060 SCT250 28/12 A3020 RMK AO2 SLP218 T02780122 10278 20172 58023=
201611031652 METAR KATL 031652Z 30010KT 10SM FEW040 FEW250 27/15 A3023 RMK AO2 SLP230 MDT CU DSNT N-NE T02720150=
201611031552 METAR KATL 031552Z 26009KT 10SM SCT250 26/16 A3026 RMK AO2 SLP240 T02560161=
201611031452 METAR KATL 031452Z 24009KT 10SM FEW200 BKN250 23/17 A3027 RMK AO2 SLP243 T02280167 58001=
201611031352 METAR KATL 031352Z 24006KT 10SM FEW060 FEW250 21/17 A3028 RMK AO2 SLP249 T02060167=
201611031252 METAR KATL 031252Z 23003KT 10SM FEW060 SCT075 SCT200 SCT250 18/16 A3028 RMK AO2 SLP248 ACC N & NE & E-S T01780161=
201611031152 METAR KATL 031152Z 00000KT 10SM FEW070 FEW250 17/15 A3027 RMK AO2 SLP246 ACC W-NW T01720150 10194 20167 53003=
201611031052 METAR KATL 031052Z 00000KT 10SM FEW250 17/15 A3027 RMK AO2 SLP243 T01720150=
201611030952 METAR KATL 030952Z 00000KT 10SM FEW060 SCT075 SCT250 18/15 A3026 RMK AO2 SLP240 T01830150=
201611030852 METAR KATL 030852Z 00000KT 10SM BKN075 BKN250 19/16 A3027 RMK AO2 SLP242 T01890156 55003=
201611030752 METAR KATL 030752Z 00000KT 10SM BKN070 BKN250 18/16 A3026 RMK AO2 SLP242 T01830156=
201611030652 METAR KATL 030652Z 00000KT 10SM SCT065 SCT250 18/16 A3027 RMK AO2 SLP245 T01830156=
201611030552 METAR KATL 030552Z 14003KT 10SM FEW250 19/16 A3028 RMK AO2 SLP245 T01890156 10228 20189 58005=
201611030452 METAR KATL 030452Z 00000KT 10SM FEW250 19/16 A3028 RMK AO2 SLP247 T01890156 402560161=
201611030352 METAR KATL 030352Z 00000KT 10SM FEW250 19/16 A3029 RMK AO2 SLP252 T01940156=
201611030252 METAR KATL 030252Z 11003KT 10SM FEW250 21/16 A3029 RMK AO2 SLP252 T02110161 55000=
201611030152 METAR KATL 030152Z 08005KT 10SM BKN250 21/16 A3029 RMK AO2 SLP251 T02060156=
201611030052 METAR KATL 030052Z 09005KT 10SM FEW200 BKN250 22/16 A3029 RMK AO2 SLP251 T02170156=
201611022352 METAR KATL 022352Z 09004KT 10SM FEW200 BKN250 22/16 A3029 RMK AO2 SLP252 T02220156 10256 20222 55000=
201611022252 METAR KATL 022252Z 08005KT 10SM SCT200 BKN250 23/16 A3028 RMK AO2 SLP249 T02330156=
201611022152 METAR KATL 022152Z 11003KT 10SM FEW040 SCT200 OVC250 24/16 A3029 RMK AO2 SLP251 T02390156=
201611022052 METAR KATL 022052Z 05005KT 10SM FEW040 BKN200 BKN250 24/16 A3029 RMK AO2 SLP253 T02440156 56015=
201611021952 METAR KATL 021952Z 21003KT 10SM FEW035 BKN250 24/16 A3030 RMK AO2 SLP253 T02440156=
201611021852 METAR KATL 021852Z 00000KT 10SM SCT030TCU BKN250 24/17 A3032 RMK AO2 SLP259 TCU SE-S-SW MDT CU ALQDS T02440167=
201611021752 METAR KATL 021752Z VRB03KT 10SM FEW023 SCT032 BKN250 23/17 A3034 RMK AO2 SLP267 T02330167 10239 20172 58013=
201611021729 SPECI KATL 021729Z 10004KT 10SM FEW018 BKN030 BKN250 23/17 A3035 RMK AO2 T02280167=
201611021652 METAR KATL 021652Z 10005KT 10SM BKN020 BKN030 BKN250 22/17 A3037 RMK AO2 SLP278 T02220167=
201611021612 SPECI KATL 021612Z 09004KT 10SM FEW020 BKN030 BKN250 21/17 A3037 RMK AO2 T02110167=
201611021552 METAR KATL 021552Z 12005KT 10SM BKN017 BKN030 BKN250 21/16 A3038 RMK AO2 SLP282 T02110161=
201611021452 METAR KATL 021452Z 05006KT 7SM BKN017 BKN020 BKN250 19/17 A3038 RMK AO2 SLP281 T01940167 51014=
201611021414 SPECI KATL 021414Z 07006KT 6SM BR FEW005 BKN007 OVC010 19/17 A3037 RMK AO2 T01890167=
201611021352 METAR KATL 021352Z 08008KT 040V100 2 1/2SM BR OVC005 18/17 A3037 RMK AO2 SFC VIS 4 SLP279 T01830167=
201611021252 METAR KATL 021252Z 09008KT 2 1/2SM BR OVC005 17/17 A3036 RMK AO2 SFC VIS 5 SLP274 CIG 004V006 T01720167=
201611021152 METAR KATL 021152Z 08006KT 1SM R09R/P6000FT BR OVC004 17/17 A3034 RMK AO2 SFC VIS 5 SLP267 CIG 003V005 TWRINC T01720167 10183 20161 53013=
201611021052 METAR KATL 021052Z 12006KT 1SM R09R/P6000FT BR OVC003 17/17 A3031 RMK AO2 SFC VIS 4 SLP259 CIG 003V005 TWRINC T01720167=
201611020952 METAR KATL 020952Z 08007KT 6SM BR OVC004 17/17 A3030 RMK AO2 SLP255 T01670167=
201611020943 SPECI KATL 020943Z 08007KT 6SM BR OVC004 17/16 A3030 RMK AO2 T01670161=
201611020852 METAR KATL 020852Z 08006KT 6SM BR FEW004 BKN006 BKN250 16/16 A3030 RMK AO2 SLP253 T01610156 53002=
201611020846 SPECI KATL 020846Z 08006KT 6SM BR BKN006 BKN250 16/16 A3030 RMK AO2=
201611020752 METAR KATL 020752Z 08005KT 8SM FEW008 SCT250 17/16 A3029 RMK AO2 SLP250 T01670161=
201611020652 METAR KATL 020652Z 11005KT 10SM SCT008 SCT250 18/16 A3029 RMK AO2 SLP250 T01780161=
201611020633 SPECI KATL 020633Z 12004KT 10SM FEW009 SCT250 18/16 A3029 RMK AO2 T01780161=
201611020552 METAR KATL 020552Z 12006KT 10SM SCT250 18/16 A3029 RMK AO2 SLP250 T01830161 10239 20183 52008=
201611020452 METAR KATL 020452Z 12005KT 10SM BKN250 19/16 A3028 RMK AO2 SLP247 T01890161 402780150=
201611020352 METAR KATL 020352Z 13005KT 10SM BKN250 20/15 A3028 RMK AO2 SLP246 T02000150=
201611020252 METAR KATL 020252Z 14005KT 10SM BKN250 21/14 A3027 RMK AO2 SLP243 T02110144 53014=
201611020152 METAR KATL 020152Z 12006KT 10SM BKN250 22/13 A3025 RMK AO2 SLP239 T02220133=
201611020052 METAR KATL 020052Z 11005KT 10SM BKN250 23/12 A3024 RMK AO2 SLP233 T02280122=
201611012352 METAR KATL 012352Z 11004KT 10SM BKN250 24/12 A3023 RMK AO2 SLP230 T02390122 10278 20239 53009=
201611012252 METAR KATL 012252Z 11006KT 10SM FEW200 SCT250 25/12 A3021 RMK AO2 SLP223 T02500117=
201611012152 METAR KATL 012152Z 14007KT 10SM FEW250 26/10 A3020 RMK AO2 SLP220 T02610100=
201611012052 METAR KATL 012052Z 13009KT 10SM FEW250 27/11 A3020 RMK AO2 SLP218 T02720106 56012=
201611011952 METAR KATL 011952Z 13010KT 10SM FEW065 FEW250 28/11 A3020 RMK AO2 SLP218 T02780106=
201611011852 METAR KATL 011852Z 13009KT 10SM FEW060 FEW250 27/12 A3021 RMK AO2 SLP222 T02720117=
201611011752 METAR KATL 011752Z 10006KT 10SM FEW050 FEW250 26/14 A3024 RMK AO2 SLP230 T02610139 10267 20150 58010=
201611011652 METAR KATL 011652Z 08006KT 9SM FEW005 FEW250 25/14 A3026 RMK AO2 SLP240 FU FEW005 T02500139=
201611011552 METAR KATL 011552Z 08007KT 10SM FEW250 23/14 A3027 RMK AO2 SLP245 T02280144=
201611011452 METAR KATL 011452Z 10007KT 10SM FEW250 21/14 A3027 RMK AO2 SLP243 T02110139 51021=
201611011352 METAR KATL 011352Z 11007KT 10SM FEW250 19/13 A3026 RMK AO2 SLP241 T01890133=
201611011252 METAR KATL 011252Z 08008KT 10SM FEW150 SCT250 17/13 A3024 RMK AO2 SLP235 T01670128=
