##########################################################
# Query made at 04/19/2024 23:50:57 UTC
# Time interval: from 10/01/2016 12:00  to 10/31/2016 12:59  UTC
##########################################################

##########################################################
# KATL, Atlanta, Hartsfield - Jackson Atlanta International Airport (United States)
# WMO index: 72219. WIGOS ID: 0-20000-0-72219
# Latitude 33-38-59N. Longitude 084-25-00W. Altitude 312 m.
##########################################################

201610311252 METAR KATL 311252Z 30004KT 10SM FEW200 18/12 A3013 RMK AO2 SLP196 T01780117=
201610311152 METAR KATL 311152Z 31004KT 10SM FEW065 FEW200 17/11 A3011 RMK AO2 SLP191 T01670106 10189 20156 51008=
201610311052 METAR KATL 311052Z 31003KT 10SM FEW065 17/11 A3010 RMK AO2 SLP187 T01720111=
201610310952 METAR KATL 310952Z 30003KT 10SM CLR 17/11 A3010 RMK AO2 SLP185 T01720106=
201610310852 METAR KATL 310852Z 31006KT 10SM CLR 17/11 A3009 RMK AO2 SLP181 T01670106 58005 $=
201610310752 METAR KATL 310752Z 30004KT 10SM CLR 18/11 A3009 RMK AO2 SLP182 T01830106 $=
201610310652 METAR KATL 310652Z 30006KT 10SM CLR 18/11 A3010 RMK AO2 SLP183 T01780106 $=
201610310552 METAR KATL 310552Z 30006KT 10SM CLR 19/11 A3011 RMK AO2 SLP185 T01890106 10239 20183 55003 $=
201610310452 METAR KATL 310452Z 30006KT 10SM CLR 19/11 A3010 RMK AO2 SLP184 T01890106 403000139 $=
201610310352 METAR KATL 310352Z 29003KT 10SM CLR 21/10 A3011 RMK AO2 SLP187 T02060100 $=
201610310252 METAR KATL 310252Z 31005KT 10SM CLR 22/10 A3012 RMK AO2 SLP189 T02220100 53002 $=
201610310152 METAR KATL 310152Z 29005KT 10SM CLR 22/10 A3011 RMK AO2 SLP189 T02220100 $=
201610310052 METAR KATL 310052Z 30005KT 10SM FEW250 23/10 A3011 RMK AO2 SLP190 T02330100 $=
201610302352 METAR KATL 302352Z 27004KT 10SM FEW200 23/11 A3011 RMK AO2 SLP190 T02330106 10300 20233 53008 $=
201610302252 METAR KATL 302252Z 26004KT 10SM FEW200 26/11 A3009 RMK AO2 SLP183 T02560106 $=
201610302152 METAR KATL 302152Z 27007KT 10SM FEW075 FEW150 SCT250 28/09 A3008 RMK AO2 SLP178 T02830094 $=
201610302052 METAR KATL 302052Z 30010KT 10SM FEW075 SCT150 SCT250 29/09 A3009 RMK AO2 SLP179 T02890094 56022 $=
201610301952 METAR KATL 301952Z 30006KT 10SM FEW070 SCT250 29/09 A3010 RMK AO2 SLP184 T02890094 $=
201610301852 METAR KATL 301852Z 28009KT 240V310 10SM SCT070 SCT250 29/10 A3012 RMK AO2 SLP190 T02940100 $=
201610301752 METAR KATL 301752Z VRB06KT 10SM FEW060 FEW250 28/12 A3015 RMK AO2 SLP203 T02830117 10283 20144 58021 $=
201610301652 METAR KATL 301652Z 30009KT 10SM FEW065 FEW250 28/12 A3019 RMK AO2 SLP216 T02780117 $=
201610301552 METAR KATL 301552Z 31006KT 10SM FEW065 26/12 A3021 RMK AO2 SLP222 T02610122 $=
201610301452 METAR KATL 301452Z 23005KT 10SM FEW065 24/13 A3022 RMK AO2 SLP225 T02390128 51007 $=
201610301352 METAR KATL 301352Z 26004KT 10SM FEW065 22/13 A3021 RMK AO2 SLP225 T02170128 $=
201610301252 METAR KATL 301252Z 24003KT 10SM FEW065 17/13 A3020 RMK AO2 SLP222 T01670128 $=
201610301152 METAR KATL 301152Z 00000KT 10SM FEW250 15/12 A3020 RMK AO2 SLP219 T01500117 10178 20139 51009 $=
201610301052 METAR KATL 301052Z 19003KT 10SM CLR 14/12 A3019 RMK AO2 SLP217 T01440117 $=
201610300952 METAR KATL 300952Z 00000KT 10SM CLR 16/12 A3018 RMK AO2 SLP213 T01560122 $=
201610300852 METAR KATL 300852Z 27003KT 10SM CLR 17/12 A3017 RMK AO2 SLP207 T01720122 56004 $=
201610300752 METAR KATL 300752Z 00000KT 10SM CLR 16/12 A3017 RMK AO2 SLP209 T01560122 $=
201610300652 METAR KATL 300652Z 00000KT 10SM CLR 17/12 A3017 RMK AO2 SLP210 T01720122 $=
201610300552 METAR KATL 300552Z 00000KT 10SM CLR 17/12 A3018 RMK AO2 SLP211 T01720122 10233 20172 56008 $=
201610300452 METAR KATL 300452Z 24003KT 10SM CLR 19/12 A3019 RMK AO2 SLP213 T01890122 402940150 $=
201610300352 METAR KATL 300352Z 00000KT 10SM CLR 20/12 A3020 RMK AO2 SLP218 T02000117 $=
201610300252 METAR KATL 300252Z 21004KT 10SM CLR 21/12 A3021 RMK AO2 SLP222 T02060117 51009 $=
201610300152 METAR KATL 300152Z 00000KT 10SM CLR 21/12 A3020 RMK AO2 SLP220 T02110122 $=
201610300052 METAR KATL 300052Z 00000KT 10SM CLR 22/12 A3019 RMK AO2 SLP217 T02220117 $=
201610292352 METAR KATL 292352Z 20003KT 10SM FEW250 23/12 A3018 RMK AO2 SLP213 T02330117 10294 20233 53006 $=
201610292252 METAR KATL 292252Z 20005KT 10SM FEW250 25/11 A3016 RMK AO2 SLP207 T02500106 $=
201610292152 METAR KATL 292152Z 16007KT 10SM CLR 28/09 A3015 RMK AO2 SLP203 T02780094 $=
201610292052 METAR KATL 292052Z 00000KT 10SM FEW075 29/09 A3016 RMK AO2 SLP205 T02940094 56021 $=
201610291952 METAR KATL 291952Z 00000KT 10SM FEW070 FEW250 28/09 A3017 RMK AO2 SLP208 T02830094 $=
201610291852 METAR KATL 291852Z 21006KT 10SM FEW065 FEW250 28/10 A3019 RMK AO2 SLP215 T02830100 $=
201610291752 METAR KATL 291752Z 00000KT 10SM FEW060 FEW250 29/11 A3022 RMK AO2 SLP226 T02940106 10294 20150 58021 $=
201610291652 METAR KATL 291652Z 27004KT 10SM FEW250 28/11 A3026 RMK AO2 SLP238 T02780111 $=
201610291552 METAR KATL 291552Z 00000KT 10SM FEW250 26/11 A3028 RMK AO2 SLP247 T02560111 $=
201610291452 METAR KATL 291452Z 00000KT 10SM FEW002 FEW250 23/12 A3029 RMK AO2 SLP250 FU FEW002 N T02280122 51011 $=
201610291352 METAR KATL 291352Z 08003KT 10SM FEW250 20/12 A3029 RMK AO2 SLP250 T02000117 $=
201610291252 METAR KATL 291252Z 00000KT 10SM FEW250 16/12 A3027 RMK AO2 SLP245 T01610122 $=
201610291152 METAR KATL 291152Z 00000KT 10SM FEW250 15/11 A3026 RMK AO2 SLP239 T01500111 10189 20150 53010=
201610291052 METAR KATL 291052Z 03004KT 10SM CLR 16/11 A3024 RMK AO2 SLP235 T01610111=
201610290952 METAR KATL 290952Z 00000KT 10SM CLR 15/11 A3023 RMK AO2 SLP230 T01500111=
201610290852 METAR KATL 290852Z 00000KT 10SM CLR 16/11 A3023 RMK AO2 SLP227 T01560111 52001=
201610290752 METAR KATL 290752Z 00000KT 10SM CLR 17/11 A3022 RMK AO2 SLP226 T01670111=
201610290652 METAR KATL 290652Z 00000KT 10SM CLR 17/12 A3023 RMK AO2 SLP228 T01720117=
201610290552 METAR KATL 290552Z 33003KT 10SM CLR 18/12 A3022 RMK AO2 SLP227 T01830117 10244 20172 58002=
201610290452 METAR KATL 290452Z 00000KT 10SM FEW250 20/12 A3022 RMK AO2 SLP226 T02000117 402890156=
201610290352 METAR KATL 290352Z 33003KT 10SM FEW250 19/12 A3023 RMK AO2 SLP229 T01890122=
201610290252 METAR KATL 290252Z 29003KT 10SM FEW250 19/12 A3023 RMK AO2 SLP230 T01940122 52008=
201610290152 METAR KATL 290152Z 33004KT 10SM FEW250 21/12 A3022 RMK AO2 SLP226 T02110122=
201610290052 METAR KATL 290052Z 31004KT 10SM FEW250 23/11 A3022 RMK AO2 SLP226 T02280111=
201610282352 METAR KATL 282352Z 33004KT 10SM FEW250 24/11 A3020 RMK AO2 SLP222 T02440106 10289 20244 53004=
201610282252 METAR KATL 282252Z 34005KT 10SM FEW250 26/10 A3019 RMK AO2 SLP217 T02560100=
201610282152 METAR KATL 282152Z 02006KT 10SM FEW250 28/11 A3018 RMK AO2 SLP213 T02780106=
201610282052 METAR KATL 282052Z 31005KT 10SM FEW070 FEW250 28/11 A3019 RMK AO2 SLP216 T02830106 56016=
201610281952 METAR KATL 281952Z 30004KT 10SM FEW070 FEW250 28/12 A3020 RMK AO2 SLP218 T02830117=
201610281852 METAR KATL 281852Z 31007KT 270V330 10SM FEW065 FEW250 28/12 A3021 RMK AO2 SLP222 T02830122=
201610281752 METAR KATL 281752Z 01005KT 10SM FEW060 FEW250 27/13 A3024 RMK AO2 SLP233 T02720133 10278 20156 58021=
201610281652 METAR KATL 281652Z 34007KT 10SM FEW050 FEW250 27/13 A3028 RMK AO2 SLP243 T02670128=
201610281552 METAR KATL 281552Z VRB05KT 10SM FEW250 26/14 A3030 RMK AO2 SLP251 T02560144=
201610281452 METAR KATL 281452Z VRB03KT 10SM FEW250 22/14 A3031 RMK AO2 SLP256 T02220139 51015=
201610281352 METAR KATL 281352Z 30007KT 10SM FEW250 21/14 A3030 RMK AO2 SLP255 T02060144=
201610281252 METAR KATL 281252Z 00000KT 10SM FEW140 FEW200 17/14 A3028 RMK AO2 SLP250 T01720144=
201610281152 METAR KATL 281152Z 00000KT 10SM FEW065 SCT200 16/14 A3026 RMK AO2 SLP242 T01560139 10194 20156 53012=
201610281052 METAR KATL 281052Z 00000KT 10SM FEW250 16/13 A3024 RMK AO2 SLP236 T01560133=
201610280952 METAR KATL 280952Z 24003KT 10SM FEW070 SCT250 16/13 A3023 RMK AO2 SLP231 T01610133=
201610280852 METAR KATL 280852Z 00000KT 10SM FEW065 FEW250 17/14 A3022 RMK AO2 SLP227 T01670139 56002=
201610280752 METAR KATL 280752Z 20005KT 10SM FEW070 FEW250 18/14 A3022 RMK AO2 SLP227 T01780139=
201610280652 METAR KATL 280652Z 27004KT 10SM BKN065 19/13 A3022 RMK AO2 SLP227 T01890133=
201610280552 METAR KATL 280552Z 22004KT 10SM SCT065 18/14 A3023 RMK AO2 SLP230 T01830139 10217 20183 58007=
201610280452 METAR KATL 280452Z 25004KT 10SM FEW070 19/14 A3024 RMK AO2 SLP232 T01940139 402780156=
201610280352 METAR KATL 280352Z 22005KT 10SM FEW080 19/14 A3025 RMK AO2 SLP237 T01940139=
201610280252 METAR KATL 280252Z 23005KT 10SM FEW080 SCT250 20/14 A3025 RMK AO2 SLP237 T02000139 51003=
201610280152 METAR KATL 280152Z 23003KT 10SM FEW080 SCT250 20/14 A3025 RMK AO2 SLP237 T02000139=
201610280052 METAR KATL 280052Z 22003KT 10SM FEW080 BKN250 21/14 A3024 RMK AO2 SLP237 T02110139=
201610272352 METAR KATL 272352Z 22004KT 10SM FEW080 BKN250 22/14 A3024 RMK AO2 SLP236 T02170139 10278 20217 53004=
201610272252 METAR KATL 272252Z 22004KT 10SM FEW055 SCT250 24/13 A3022 RMK AO2 SLP229 T02390133=
201610272152 METAR KATL 272152Z 22006KT 10SM FEW055 SCT250 26/13 A3023 RMK AO2 SLP229 T02560128=
201610272052 METAR KATL 272052Z 27004KT 10SM FEW055 FEW070 BKN250 27/13 A3023 RMK AO2 SLP229 T02670128 56015=
201610271952 METAR KATL 271952Z 24009KT 10SM FEW050 SCT070 BKN250 27/12 A3023 RMK AO2 SLP231 T02670122=
201610271852 METAR KATL 271852Z 26007KT 10SM SCT045 SCT070 BKN250 26/14 A3025 RMK AO2 SLP235 T02610144=
201610271752 METAR KATL 271752Z 21009G15KT 180V250 10SM SCT038 BKN250 24/15 A3027 RMK AO2 SLP244 T02440150 10256 20156 58016=
201610271652 METAR KATL 271652Z 24008KT 10SM BKN033 24/16 A3030 RMK AO2 SLP254 T02440156=
201610271552 METAR KATL 271552Z 23012KT 10SM FEW030 SCT150 BKN250 24/16 A3032 RMK AO2 SLP260 T02390161=
201610271452 METAR KATL 271452Z 22011KT 10SM FEW025 SCT250 BKN300 22/16 A3032 RMK AO2 SLP260 T02220161 51008=
201610271352 METAR KATL 271352Z 19008KT 10SM SCT250 19/14 A3032 RMK AO2 SLP261 T01890144=
201610271252 METAR KATL 271252Z 16005KT 10SM FEW065 FEW140 BKN200 BKN250 16/12 A3030 RMK AO2 SLP257 ACC DSNT N & W-NW T01610122=
201610271152 METAR KATL 271152Z 13004KT 10SM FEW023 FEW060 BKN200 BKN250 16/12 A3030 RMK AO2 SLP255 T01610117 10178 20156 51006=
201610271133 SPECI KATL 271133Z 13003KT 10SM SCT023 SCT055 SCT200 BKN250 16/12 A3030 RMK AO2 T01610117=
201610271113 SPECI KATL 271113Z 15003KT 10SM BKN023 BKN060 17/12 A3030 RMK AO2 T01670117=
201610271052 METAR KATL 271052Z 00000KT 10SM SCT030 BKN050 BKN150 OVC200 17/12 A3029 RMK AO2 SLP252 T01670117=
201610270952 METAR KATL 270952Z 09004KT 10SM BKN032 OVC050 16/12 A3029 RMK AO2 SLP250 BINOVC T01610117=
201610270852 METAR KATL 270852Z 07005KT 10SM SCT200 BKN250 16/11 A3028 RMK AO2 SLP248 T01610111 58004=
201610270752 METAR KATL 270752Z 08004KT 10SM FEW150 BKN200 BKN250 16/11 A3028 RMK AO2 SLP249 T01610111=
201610270652 METAR KATL 270652Z 11004KT 10SM FEW055 SCT150 BKN200 BKN250 17/11 A3029 RMK AO2 SLP252 T01720111=
201610270552 METAR KATL 270552Z 00000KT 10SM FEW055 SCT150 BKN200 BKN250 17/11 A3029 RMK AO2 SLP252 T01720111 10217 20172 53000=
201610270452 METAR KATL 270452Z 14005KT 10SM FEW050 SCT150 OVC250 18/11 A3029 RMK AO2 SLP250 T01780106 402500111=
201610270352 METAR KATL 270352Z 13007KT 10SM SCT150 BKN200 OVC250 19/10 A3029 RMK AO2 SLP251 T01890100=
201610270252 METAR KATL 270252Z 11005KT 10SM BKN150 BKN200 OVC250 19/11 A3029 RMK AO2 SLP252 T01940106 53008=
201610270152 METAR KATL 270152Z 12005KT 10SM SCT150 BKN200 BKN250 20/11 A3028 RMK AO2 SLP250 T02000106=
201610270052 METAR KATL 270052Z 11006KT 10SM SCT150 BKN200 BKN250 21/11 A3027 RMK AO2 SLP248 T02060111=
201610262352 METAR KATL 262352Z 12005KT 10SM FEW150 BKN250 22/11 A3027 RMK AO2 SLP246 T02170111 10250 20217 55001=
201610262252 METAR KATL 262252Z 11006KT 10SM FEW150 SCT200 BKN250 23/12 A3025 RMK AO2 SLP241 T02280117=
201610262152 METAR KATL 262152Z 12004KT 10SM FEW150 SCT200 OVC250 23/12 A3026 RMK AO2 SLP242 T02330117=
201610262052 METAR KATL 262052Z 20006KT 10SM FEW050 SCT150 BKN250 24/12 A3027 RMK AO2 SLP245 T02390117 56016=
201610261952 METAR KATL 261952Z 19004KT 10SM FEW050 SCT200 BKN250 24/12 A3027 RMK AO2 SLP246 T02390122=
201610261852 METAR KATL 261852Z 11008KT 10SM FEW045 SCT200 BKN250 24/12 A3029 RMK AO2 SLP253 T02390122=
201610261752 METAR KATL 261752Z 13005KT 10SM FEW040 SCT200 BKN250 22/12 A3032 RMK AO2 SLP262 T02170117 10222 20111 58015=
201610261652 METAR KATL 261652Z 15007KT 10SM BKN250 21/11 A3035 RMK AO2 SLP272 T02110111=
201610261552 METAR KATL 261552Z 15008KT 10SM SCT250 20/11 A3036 RMK AO2 SLP277 T02000111=
201610261452 METAR KATL 261452Z 15007KT 10SM FEW020 SCT150 BKN250 18/11 A3036 RMK AO2 SLP278 T01830111 51010=
201610261352 METAR KATL 261352Z 09006KT 10SM FEW015 SCT200 BKN250 16/11 A3036 RMK AO2 SLP277 T01560111=
201610261252 METAR KATL 261252Z 09007KT 10SM FEW007 SCT200 BKN250 13/09 A3034 RMK AO2 SLP271 T01330094=
201610261224 SPECI KATL 261224Z 09006KT 10SM SCT006 SCT200 BKN250 12/08 A3034 RMK AO2 T01220083=
201610261152 METAR KATL 261152Z 09005KT 10SM FEW007 SCT200 BKN250 12/08 A3033 RMK AO2 SLP268 T01170078 10133 20111 51008=
201610261111 SPECI KATL 261111Z 09005KT 10SM SCT007 SCT250 12/07 A3032 RMK AO2 T01170072=
201610261052 METAR KATL 261052Z 08006KT 10SM OVC006 12/08 A3032 RMK AO2 SLP264 BINOVC T01220078=
201610260952 METAR KATL 260952Z 08006KT 10SM BKN007 BKN250 13/08 A3032 RMK AO2 SLP262 T01280078=
201610260852 METAR KATL 260852Z 08006KT 10SM FEW008 SCT250 12/07 A3031 RMK AO2 SLP258 T01220067 51004=
201610260835 SPECI KATL 260835Z 08006KT 10SM FEW007 13/07 A3031 RMK AO2 T01280067=
201610260752 METAR KATL 260752Z 08006KT 10SM SCT250 13/07 A3030 RMK AO2 SLP256 T01280067=
201610260652 METAR KATL 260652Z 10005KT 10SM FEW250 13/06 A3030 RMK AO2 SLP257 T01280061=
201610260552 METAR KATL 260552Z 08007KT 10SM FEW250 13/06 A3029 RMK AO2 SLP254 T01330061 10217 20133 53001=
201610260452 METAR KATL 260452Z 09006KT 10SM FEW250 14/06 A3029 RMK AO2 SLP253 T01440061 402560133=
201610260352 METAR KATL 260352Z 10005KT 10SM SCT250 16/06 A3029 RMK AO2 SLP254 T01560061=
201610260252 METAR KATL 260252Z 09006KT 10SM SCT250 17/06 A3029 RMK AO2 SLP253 T01670061 51009=
201610260152 METAR KATL 260152Z 11003KT 10SM SCT250 18/06 A3028 RMK AO2 SLP250 T01780061=
201610260052 METAR KATL 260052Z 10004KT 10SM BKN250 20/06 A3028 RMK AO2 SLP250 T02000056=
201610252352 METAR KATL 252352Z 10006KT 10SM BKN250 22/06 A3026 RMK AO2 SLP245 T02170056 10256 20211 53009=
201610252252 METAR KATL 252252Z 10004KT 10SM BKN250 23/04 A3024 RMK AO2 SLP236 T02280044=
201610252152 METAR KATL 252152Z 13004KT 10SM SCT250 24/04 A3023 RMK AO2 SLP232 T02440044=
201610252052 METAR KATL 252052Z 10005KT 10SM SCT250 25/04 A3024 RMK AO2 SLP233 T02500039 56017=
201610251952 METAR KATL 251952Z 11007KT 10SM FEW250 26/04 A3024 RMK AO2 SLP235 T02560039=
201610251852 METAR KATL 251852Z 08008KT 10SM FEW250 24/04 A3026 RMK AO2 SLP243 T02440044=
201610251752 METAR KATL 251752Z 06007KT 030V100 10SM FEW250 24/04 A3029 RMK AO2 SLP251 T02390044 10239 20133 58011=
201610251652 METAR KATL 251652Z 07008KT 10SM FEW250 22/04 A3031 RMK AO2 SLP257 T02220044=
201610251552 METAR KATL 251552Z 08009KT 10SM FEW250 21/04 A3032 RMK AO2 SLP263 T02110044=
201610251452 METAR KATL 251452Z 10009KT 10SM FEW250 19/04 A3032 RMK AO2 SLP263 T01940044 51016=
201610251352 METAR KATL 251352Z 09013KT 10SM FEW250 17/06 A3032 RMK AO2 SLP261 T01720056=
201610251252 METAR KATL 251252Z 08010KT 10SM FEW250 16/07 A3030 RMK AO2 SLP256 T01560067=
201610251152 METAR KATL 251152Z 09008KT 10SM FEW250 13/07 A3027 RMK AO2 SLP248 T01330072 10161 20133 53018=
201610251052 METAR KATL 251052Z 07007KT 10SM FEW250 15/08 A3025 RMK AO2 SLP240 T01500083=
201610250952 METAR KATL 250952Z 04008KT 10SM CLR 15/09 A3024 RMK AO2 SLP233 T01500089=
201610250852 METAR KATL 250852Z 03006KT 10SM CLR 15/08 A3022 RMK AO2 SLP227 T01500083 53001=
201610250752 METAR KATL 250752Z 35006KT 10SM CLR 16/08 A3022 RMK AO2 SLP226 T01560083=
201610250652 METAR KATL 250652Z 33008KT 10SM CLR 15/09 A3021 RMK AO2 SLP225 T01500089=
201610250552 METAR KATL 250552Z 31007KT 10SM CLR 16/09 A3022 RMK AO2 SLP226 T01560089 10211 20156 55001=
201610250452 METAR KATL 250452Z 31008KT 10SM FEW250 16/08 A3021 RMK AO2 SLP226 T01610083 402720117=
201610250352 METAR KATL 250352Z 30007KT 10SM FEW250 18/07 A3022 RMK AO2 SLP227 T01780072=
201610250252 METAR KATL 250252Z 31007KT 10SM SCT250 19/07 A3022 RMK AO2 SLP228 T01890072 52008=
201610250152 METAR KATL 250152Z 30007KT 10SM SCT250 19/07 A3022 RMK AO2 SLP228 T01890072=
201610250052 METAR KATL 250052Z 30006KT 10SM BKN250 21/07 A3020 RMK AO2 SLP224 T02060072=
201610242352 METAR KATL 242352Z 31006KT 10SM FEW200 BKN250 22/07 A3020 RMK AO2 SLP222 T02170067 10272 20211 53003=
201610242252 METAR KATL 242252Z 31006KT 10SM FEW150 SCT200 BKN250 23/06 A3019 RMK AO2 SLP220 T02280061=
201610242152 METAR KATL 242152Z 34007KT 10SM FEW200 BKN250 25/05 A3019 RMK AO2 SLP217 T02500050=
201610242052 METAR KATL 242052Z 33008KT 10SM FEW200 BKN250 27/03 A3019 RMK AO2 SLP217 T02670033 56012=
201610241952 METAR KATL 241952Z 32011G18KT 10SM FEW200 BKN250 27/03 A3020 RMK AO2 SLP220 T02720028=
201610241852 METAR KATL 241852Z 30009KT 10SM FEW200 BKN250 27/02 A3021 RMK AO2 SLP223 T02670017=
201610241752 METAR KATL 241752Z 32011G17KT 290V360 10SM FEW200 BKN250 26/02 A3023 RMK AO2 SLP229 T02610022 10261 20128 58015=
201610241652 METAR KATL 241652Z 33014KT 10SM BKN250 24/05 A3025 RMK AO2 SLP238 T02440050=
201610241552 METAR KATL 241552Z 31013KT 10SM BKN250 23/06 A3026 RMK AO2 SLP244 T02280056=
201610241452 METAR KATL 241452Z 32009KT 10SM BKN250 20/06 A3027 RMK AO2 SLP246 T02000056 51008=
201610241352 METAR KATL 241352Z 30009KT 10SM BKN250 17/04 A3027 RMK AO2 SLP247 T01670044=
201610241252 METAR KATL 241252Z 31008KT 10SM BKN250 14/05 A3026 RMK AO2 SLP244 T01440050=
201610241152 METAR KATL 241152Z 30006KT 10SM SCT250 13/04 A3025 RMK AO2 SLP241 T01280044 10156 20117 53009=
201610241052 METAR KATL 241052Z 30004KT 10SM SCT250 12/04 A3023 RMK AO2 SLP234 T01170044=
201610240952 METAR KATL 240952Z 27003KT 10SM SCT250 12/04 A3022 RMK AO2 SLP231 T01170044=
201610240852 METAR KATL 240852Z 30006KT 10SM SCT250 12/04 A3022 RMK AO2 SLP228 T01220039 58004=
201610240752 METAR KATL 240752Z 30006KT 10SM SCT250 13/04 A3023 RMK AO2 SLP231 T01330039=
201610240652 METAR KATL 240652Z 29006KT 10SM FEW250 14/03 A3023 RMK AO2 SLP232 T01440033=
201610240552 METAR KATL 240552Z 29005KT 10SM FEW250 16/03 A3023 RMK AO2 SLP233 T01560033 10178 20122 58005=
201610240452 METAR KATL 240452Z 26003KT 10SM FEW250 14/04 A3024 RMK AO2 SLP237 T01390039 402440067=
201610240352 METAR KATL 240352Z 00000KT 10SM FEW250 14/04 A3025 RMK AO2 SLP240 T01390044=
201610240252 METAR KATL 240252Z 26004KT 10SM FEW250 16/04 A3025 RMK AO2 SLP238 T01610044 53011=
201610240152 METAR KATL 240152Z 00000KT 10SM FEW250 17/04 A3023 RMK AO2 SLP236 T01720039=
201610240052 METAR KATL 240052Z 00000KT 10SM FEW250 18/04 A3022 RMK AO2 SLP232 T01780039=
201610232352 METAR KATL 232352Z 00000KT 10SM FEW250 18/03 A3021 RMK AO2 SLP231 T01780033 10244 20178 53001=
201610232252 METAR KATL 232252Z 28003KT 10SM FEW250 22/01 A3021 RMK AO2 SLP227 T02220006=
201610232152 METAR KATL 232152Z 26005KT 10SM FEW250 23/01 A3020 RMK AO2 SLP226 T02330006=
201610232052 METAR KATL 232052Z 31006KT 10SM FEW250 24/M01 A3021 RMK AO2 SLP228 T02391006 56015=
201610231952 METAR KATL 231952Z 32005KT 10SM CLR 24/M01 A3021 RMK AO2 SLP228 T02391006=
201610231852 METAR KATL 231852Z 31008KT 10SM CLR 23/M02 A3023 RMK AO2 SLP234 T02281017=
201610231752 METAR KATL 231752Z VRB05KT 10SM CLR 22/M01 A3025 RMK AO2 SLP242 T02221006 10228 20072 58015=
201610231652 METAR KATL 231652Z 30006KT 10SM CLR 22/01 A3028 RMK AO2 SLP252 T02170006=
201610231552 METAR KATL 231552Z 32006KT 10SM CLR 20/M01 A3030 RMK AO2 SLP258 T02001011=
201610231452 METAR KATL 231452Z 34007KT 10SM CLR 18/02 A3030 RMK AO2 SLP258 T01830017 51014=
201610231352 METAR KATL 231352Z 34006KT 10SM CLR 14/02 A3029 RMK AO2 SLP258 T01390022=
201610231252 METAR KATL 231252Z 33007KT 10SM CLR 10/02 A3028 RMK AO2 SLP254 T01000017=
201610231152 METAR KATL 231152Z 32007KT 10SM CLR 07/02 A3025 RMK AO2 SLP246 T00720017 10094 20067 53020=
201610231052 METAR KATL 231052Z 33008KT 10SM CLR 08/02 A3023 RMK AO2 SLP237 T00830017=
201610230952 METAR KATL 230952Z 32006KT 10SM CLR 07/02 A3021 RMK AO2 SLP230 T00720022=
201610230852 METAR KATL 230852Z 31007KT 10SM CLR 07/02 A3019 RMK AO2 SLP223 T00720022 52013=
201610230752 METAR KATL 230752Z 31007KT 10SM CLR 08/02 A3018 RMK AO2 SLP218 T00830022=
201610230652 METAR KATL 230652Z 32007KT 10SM CLR 09/02 A3017 RMK AO2 SLP216 T00890022=
201610230552 METAR KATL 230552Z 32006KT 10SM CLR 09/02 A3015 RMK AO2 SLP210 T00940022 10156 20094 51006=
201610230452 METAR KATL 230452Z 32008KT 10SM CLR 09/02 A3015 RMK AO2 SLP209 T00940022 402000078=
201610230352 METAR KATL 230352Z 31006KT 10SM CLR 11/02 A3015 RMK AO2 SLP208 T01060022=
201610230252 METAR KATL 230252Z 31007KT 10SM CLR 12/01 A3014 RMK AO2 SLP205 T01220006 53014=
201610230152 METAR KATL 230152Z 34009KT 10SM CLR 13/00 A3012 RMK AO2 SLP198 T01330000=
201610230052 METAR KATL 230052Z 33005KT 10SM CLR 14/01 A3011 RMK AO2 SLP196 T01390006=
201610222352 METAR KATL 222352Z 32006KT 10SM CLR 16/M01 A3009 RMK AO2 SLP191 T01561006 10200 20150 53008=
201610222252 METAR KATL 222252Z 33008KT 10SM CLR 17/M01 A3008 RMK AO2 SLP186 T01721011=
201610222152 METAR KATL 222152Z 33014KT 10SM CLR 19/M01 A3007 RMK AO2 SLP182 T01891011=
201610222052 METAR KATL 222052Z 32015KT 10SM CLR 19/M01 A3007 RMK AO2 SLP180 T01941006 55005=
201610221952 METAR KATL 221952Z 35013G22KT 10SM CLR 19/M01 A3007 RMK AO2 SLP179 T01941006=
201610221852 METAR KATL 221852Z 32019G25KT 10SM CLR 19/M01 A3007 RMK AO2 PK WND 34026/1807 SLP179 T01891006=
201610221752 METAR KATL 221752Z 31017G24KT 10SM CLR 18/01 A3008 RMK AO2 PK WND 34027/1737 SLP184 T01780011 10178 20078 58007=
201610221652 METAR KATL 221652Z 35019G28KT 10SM CLR 16/01 A3010 RMK AO2 PK WND 32030/1640 SLP191 T01610011=
201610221552 METAR KATL 221552Z 34017G25KT 10SM FEW040 15/02 A3011 RMK AO2 PK WND 36027/1456 SLP195 T01500017=
201610221452 METAR KATL 221452Z 34015G22KT 10SM FEW035 13/02 A3010 RMK AO2 SLP193 T01330022 51015=
201610221352 METAR KATL 221352Z 33013G17KT 10SM CLR 11/03 A3010 RMK AO2 SLP194 T01110033=
201610221252 METAR KATL 221252Z 31010KT 10SM CLR 09/04 A3008 RMK AO2 SLP188 T00890039=
201610221152 METAR KATL 221152Z 31009KT 10SM FEW090 08/04 A3006 RMK AO2 SLP180 T00780039 10106 20078 53018=
201610221052 METAR KATL 221052Z 31011KT 10SM CLR 08/04 A3004 RMK AO2 SLP172 T00830039=
201610220952 METAR KATL 220952Z 31009KT 10SM CLR 08/04 A3002 RMK AO2 SLP166 T00830044=
201610220852 METAR KATL 220852Z 31008KT 10SM CLR 09/04 A3001 RMK AO2 SLP159 T00890044 53009=
201610220752 METAR KATL 220752Z 31008KT 10SM CLR 09/05 A2999 RMK AO2 SLP154 T00940050=
201610220652 METAR KATL 220652Z 30009KT 10SM CLR 10/05 A2999 RMK AO2 SLP154 T01000050=
201610220552 METAR KATL 220552Z 31009KT 10SM CLR 11/05 A2998 RMK AO2 SLP150 T01060050 10156 20106 55003=
201610220452 METAR KATL 220452Z 32008KT 10SM CLR 11/04 A2998 RMK AO2 SLP149 T01110044 402220111=
201610220352 METAR KATL 220352Z 33010KT 10SM CLR 12/04 A2999 RMK AO2 SLP151 T01220039=
201610220252 METAR KATL 220252Z 34013KT 10SM CLR 13/04 A2999 RMK AO2 SLP153 T01330039 51005=
201610220152 METAR KATL 220152Z 33011KT 10SM CLR 14/04 A2999 RMK AO2 SLP153 T01390044=
201610220052 METAR KATL 220052Z 33012KT 10SM CLR 14/04 A2998 RMK AO2 SLP151 T01440044=
201610212352 METAR KATL 212352Z 34012KT 10SM CLR 16/05 A2997 RMK AO2 SLP146 T01560050 10206 20156 53012=
201610212252 METAR KATL 212252Z 33015G20KT 10SM CLR 17/04 A2995 RMK AO2 PK WND 34026/2214 SLP139 T01670044=
201610212152 METAR KATL 212152Z 34018G28KT 10SM FEW055 18/04 A2994 RMK AO2 PK WND 35028/2143 SLP134 T01830039=
201610212052 METAR KATL 212052Z 36017G23KT 10SM FEW055 20/04 A2994 RMK AO2 PK WND 32029/1954 SLP131 T02000039 55004=
201610211952 METAR KATL 211952Z 32022G30KT 10SM FEW050 20/05 A2994 RMK AO2 PK WND 32031/1932 SLP131 T02000050=
201610211852 METAR KATL 211852Z 32019KT 10SM SCT050 20/05 A2994 RMK AO2 PK WND 33030/1836 SLP131 T02000050=
201610211752 METAR KATL 211752Z 34016G28KT 10SM SCT047 19/07 A2995 RMK AO2 PK WND 32028/1744 SLP135 T01890067 10206 20156 58003=
201610211652 METAR KATL 211652Z 35017G27KT 10SM BKN048 19/08 A2996 RMK AO2 PK WND 32029/1615 SLP137 T01940078=
201610211552 METAR KATL 211552Z 34016G26KT 10SM BKN040 18/08 A2996 RMK AO2 PK WND 34030/1455 SLP140 T01830083=
201610211452 METAR KATL 211452Z 33018G26KT 10SM BKN036 18/08 A2996 RMK AO2 PK WND 32034/1441 SLP138 T01780083 51017=
201610211352 METAR KATL 211352Z 33021G30KT 10SM SCT033 SCT250 17/08 A2995 RMK AO2 PK WND 32033/1317 SLP135 T01670083=
201610211252 METAR KATL 211252Z 32014G31KT 10SM BKN032 BKN070 BKN200 BKN250 16/09 A2993 RMK AO2 PK WND 31033/1233 SLP128 T01560094=
201610211152 METAR KATL 211152Z 33014G25KT 10SM SCT026 BKN036 BKN070 BKN250 16/11 A2991 RMK AO2 PK WND 32029/1054 SLP120 T01610111 10217 20161 50016=
201610211114 SPECI KATL 211114Z 31012G23KT 10SM SCT024 BKN036 BKN065 BKN250 16/12 A2991 RMK AO2 PK WND 32029/1054 T01610122=
201610211052 METAR KATL 211052Z 31018G27KT 10SM OVC020 17/12 A2991 RMK AO2 PK WND 29032/1013 SLP119 CIG 018V022 T01670122=
201610210952 METAR KATL 210952Z 32019G25KT 10SM BKN018 OVC032 19/14 A2988 RMK AO2 PK WND 33027/0941 SLP107 T01890144=
201610210936 SPECI KATL 210936Z 32016G26KT 10SM BKN022 BKN036 OVC095 19/16 A2988 RMK AO2 PK WND 29026/0928 T01940156=
201610210909 SPECI KATL 210909Z 30016G23KT 10SM SCT017 BKN034 OVC090 20/17 A2986 RMK AO2 T02000167 $=
201610210852 METAR KATL 210852Z 30016G22KT 10SM BKN016 BKN028 OVC095 20/17 A2986 RMK AO2 SLP101 CIG 014V018 T02000167 55008 $=
201610210835 SPECI KATL 210835Z 29013KT 10SM BKN016 BKN095 BKN250 20/17 A2986 RMK AO2 T02000172 $=
201610210752 METAR KATL 210752Z 30007KT 10SM FEW038 SCT100 SCT250 20/17 A2986 RMK AO2 SLP100 T02000167 $=
201610210652 METAR KATL 210652Z 30008KT 10SM FEW095 SCT250 21/16 A2987 RMK AO2 SLP105 T02060156 $=
201610210552 METAR KATL 210552Z 28007KT 10SM BKN100 BKN250 22/15 A2988 RMK AO2 SLP108 T02170150 10256 20211 56012 $=
201610210452 METAR KATL 210452Z 27007KT 10SM SCT110 22/14 A2989 RMK AO2 SLP111 T02220144 403110189 $=
201610210352 METAR KATL 210352Z 24006KT 10SM FEW090 BKN110 22/15 A2991 RMK AO2 SLP118 T02170150 $=
201610210252 METAR KATL 210252Z 23005KT 10SM FEW090 22/15 A2992 RMK AO2 SLP122 T02220150 56007 $=
201610210152 METAR KATL 210152Z 23004KT 10SM FEW090 SCT250 23/15 A2993 RMK AO2 SLP126 T02280150 $=
201610210052 METAR KATL 210052Z 21004KT 10SM SCT250 24/14 A2993 RMK AO2 SLP125 T02390144 $=
201610202352 METAR KATL 202352Z 24003KT 10SM FEW100 BKN250 26/14 A2994 RMK AO2 SLP130 T02560139 10306 20250 53001 $=
201610202252 METAR KATL 202252Z 22004KT 10SM FEW070 SCT100 BKN250 28/14 A2994 RMK AO2 SLP130 T02780139 $=
201610202152 METAR KATL 202152Z 23005KT 10SM FEW070 BKN250 29/12 A2993 RMK AO2 SLP125 T02890122 $=
201610202052 METAR KATL 202052Z 23008KT 10SM FEW070 SCT100 BKN250 29/12 A2994 RMK AO2 SLP128 T02940122 56021=
201610201952 METAR KATL 201952Z 21006KT 10SM FEW065 SCT095 SCT250 29/12 A2995 RMK AO2 SLP133 T02940122=
201610201852 METAR KATL 201852Z 19007KT 10SM FEW060TCU SCT090 BKN250 29/13 A2997 RMK AO2 SLP139 TCU N MDT CU NE-SE & NW T02940133=
201610201752 METAR KATL 201752Z 24006KT 10SM BKN055 BKN075 BKN250 31/14 A3000 RMK AO2 SLP149 MDT CU ALQDS T03060139 10311 20200 58021=
201610201652 METAR KATL 201652Z VRB04KT 10SM FEW050 SCT080 BKN250 29/16 A3003 RMK AO2 SLP160 ACC NE-SE-SW-NW T02890156=
201610201552 METAR KATL 201552Z 32008KT 10SM FEW070 SCT250 BKN300 28/16 A3005 RMK AO2 SLP166 T02780161=
201610201452 METAR KATL 201452Z 29006KT 10SM SCT075 SCT250 26/17 A3007 RMK AO2 SLP172 ACC SE-SW T02610167 58001=
201610201352 METAR KATL 201352Z 30008KT 10SM SCT075 SCT250 23/17 A3007 RMK AO2 SLP173 ACC ALQDS T02280167=
201610201252 METAR KATL 201252Z 28005KT 10SM SCT075 BKN250 20/16 A3007 RMK AO2 SLP175 ACC ALQDS T02000161=
201610201152 METAR KATL 201152Z 00000KT 10SM SCT075 BKN250 20/16 A3007 RMK AO2 SLP173 T02000156 10206 20189 50007=
201610201052 METAR KATL 201052Z 24003KT 10SM BKN070 BKN250 19/16 A3007 RMK AO2 SLP174 T01940156=
201610200952 METAR KATL 200952Z 25003KT 10SM BKN075 BKN250 19/16 A3006 RMK AO2 SLP170 T01940156=
201610200852 METAR KATL 200852Z 25005KT 10SM SCT250 19/15 A3005 RMK AO2 SLP164 T01890150 56005=
201610200752 METAR KATL 200752Z 19003KT 10SM FEW070 SCT250 19/16 A3005 RMK AO2 SLP166 T01940156=
201610200652 METAR KATL 200652Z 00000KT 10SM FEW065 SCT250 20/16 A3006 RMK AO2 SLP168 T02000156=
201610200552 METAR KATL 200552Z 12003KT 10SM FEW065 SCT250 21/16 A3006 RMK AO2 SLP171 T02060161 10261 20206 58005=
201610200452 METAR KATL 200452Z 00000KT 10SM FEW065 SCT250 21/16 A3007 RMK AO2 SLP171 T02110156 403110189=
201610200352 METAR KATL 200352Z 21003KT 10SM SCT250 22/16 A3008 RMK AO2 SLP176 T02170156=
201610200252 METAR KATL 200252Z 23003KT 10SM FEW250 23/15 A3008 RMK AO2 SLP175 T02280150 53009=
201610200152 METAR KATL 200152Z 21003KT 10SM CLR 24/15 A3007 RMK AO2 SLP172 T02390150=
201610200052 METAR KATL 200052Z 22003KT 10SM CLR 24/15 A3006 RMK AO2 SLP170 T02440150=
201610192352 METAR KATL 192352Z 17003KT 10SM CLR 26/14 A3005 RMK AO2 SLP167 T02610144 10311 20261 53000=
201610192252 METAR KATL 192252Z 19005KT 10SM FEW065 28/14 A3004 RMK AO2 SLP163 T02780139=
201610192152 METAR KATL 192152Z 21004KT 10SM FEW065 30/14 A3004 RMK AO2 SLP164 T03000139=
201610192052 METAR KATL 192052Z 18003KT 10SM FEW060 31/14 A3005 RMK AO2 SLP165 T03060139 56017=
201610191952 METAR KATL 191952Z 16007KT 10SM FEW065 29/14 A3006 RMK AO2 SLP169 T02940144=
201610191852 METAR KATL 191852Z VRB03KT 10SM FEW060 FEW080 29/15 A3007 RMK AO2 SLP174 T02940150=
201610191752 METAR KATL 191752Z VRB03KT 10SM FEW050 BKN070 28/16 A3010 RMK AO2 SLP183 T02830156 10306 20189 58016=
201610191652 METAR KATL 191652Z VRB04KT 10SM FEW050 FEW070 29/16 A3013 RMK AO2 SLP192 T02940156=
201610191552 METAR KATL 191552Z 31006KT 10SM FEW040 FEW070 28/18 A3015 RMK AO2 SLP199 T02830178=
201610191452 METAR KATL 191452Z 32004KT 10SM FEW070 27/17 A3015 RMK AO2 SLP200 T02670172 50010=
201610191352 METAR KATL 191352Z 26003KT 10SM SCT070 23/17 A3016 RMK AO2 SLP203 T02280167=
201610191252 METAR KATL 191252Z 21003KT 10SM SCT070 19/16 A3014 RMK AO2 SLP199 ACC DSNT S & W-NW T01940161=
201610191152 METAR KATL 191152Z 00000KT 10SM SCT065 19/16 A3012 RMK AO2 SLP190 T01890156 10211 20189 53013=
201610191052 METAR KATL 191052Z 23004KT 10SM SCT065 20/16 A3010 RMK AO2 SLP184 T02000156=
201610190952 METAR KATL 190952Z 25003KT 10SM BKN070 21/16 A3009 RMK AO2 SLP179 T02060156=
201610190852 METAR KATL 190852Z 22006KT 10SM OVC070 21/15 A3008 RMK AO2 SLP176 BINOVC T02060150 51001=
201610190752 METAR KATL 190752Z 21004KT 10SM BKN070 20/15 A3008 RMK AO2 SLP176 T02000150=
201610190652 METAR KATL 190652Z 19003KT 10SM BKN070 21/16 A3008 RMK AO2 SLP176 T02060156=
201610190552 METAR KATL 190552Z 14003KT 10SM FEW065 20/16 A3007 RMK AO2 SLP174 T02000156 10250 20200 50001=
201610190452 METAR KATL 190452Z 00000KT 10SM FEW065 21/16 A3008 RMK AO2 SLP175 T02060156 403000167=
201610190352 METAR KATL 190352Z 00000KT 10SM CLR 22/16 A3007 RMK AO2 SLP174 T02170156=
201610190252 METAR KATL 190252Z 21003KT 10SM CLR 22/16 A3007 RMK AO2 SLP173 T02220156 51012=
201610190152 METAR KATL 190152Z 00000KT 10SM CLR 23/16 A3006 RMK AO2 SLP171 T02330156=
201610190052 METAR KATL 190052Z 00000KT 10SM CLR 23/16 A3005 RMK AO2 SLP168 T02330156=
201610182352 METAR KATL 182352Z 19005KT 10SM CLR 25/16 A3003 RMK AO2 SLP163 T02500156 10300 20250 53003=
201610182252 METAR KATL 182252Z 19005KT 10SM FEW020 FEW060 27/15 A3002 RMK AO2 SLP158 FU FEW020 T02670150=
201610182152 METAR KATL 182152Z 21005KT 10SM FEW060 28/14 A3002 RMK AO2 SLP156 T02830144=
201610182052 METAR KATL 182052Z 22006KT 10SM FEW060 28/14 A3002 RMK AO2 SLP157 T02830144 56017=
201610181952 METAR KATL 181952Z 23004KT 10SM FEW055 28/15 A3003 RMK AO2 SLP162 T02780150=
201610181852 METAR KATL 181852Z 20008KT 10SM FEW050 28/15 A3005 RMK AO2 SLP166 T02830150=
201610181752 METAR KATL 181752Z 23008KT 190V260 10SM SCT045 28/16 A3007 RMK AO2 SLP175 MDT CU ALQDS T02830161 10289 20172 58015=
201610181652 METAR KATL 181652Z 26008KT 10SM SCT035 SCT065 27/17 A3010 RMK AO2 SLP185 T02720172=
201610181552 METAR KATL 181552Z 21010KT 10SM FEW030 FEW060 26/18 A3012 RMK AO2 SLP189 T02560178=
201610181452 METAR KATL 181452Z 22008KT 10SM FEW020 FEW060 24/18 A3012 RMK AO2 SLP190 T02390178 51015=
201610181352 METAR KATL 181352Z 22006KT 10SM FEW065 21/17 A3012 RMK AO2 SLP191 T02110172=
201610181252 METAR KATL 181252Z 21007KT 10SM FEW065 19/17 A3009 RMK AO2 SLP183 T01890167=
201610181152 METAR KATL 181152Z 22004KT 10SM FEW065 17/16 A3007 RMK AO2 SLP177 T01720156 10200 20167 53015=
201610181052 METAR KATL 181052Z 20005KT 10SM CLR 17/16 A3006 RMK AO2 SLP172 T01720156=
201610180952 METAR KATL 180952Z 21007KT 10SM CLR 18/16 A3004 RMK AO2 SLP164 T01780156=
201610180852 METAR KATL 180852Z 20006KT 10SM CLR 18/16 A3003 RMK AO2 SLP160 T01780156 51001=
201610180752 METAR KATL 180752Z 20006KT 10SM CLR 18/15 A3003 RMK AO2 SLP160 T01780150=
201610180652 METAR KATL 180652Z 19006KT 10SM CLR 19/16 A3003 RMK AO2 SLP160 T01890156=
201610180552 METAR KATL 180552Z 18005KT 10SM CLR 20/16 A3003 RMK AO2 SLP159 T02000156 10250 20200 50003=
201610180452 METAR KATL 180452Z 14003KT 10SM CLR 21/16 A3003 RMK AO2 SLP159 T02060156 402830167=
201610180352 METAR KATL 180352Z 13003KT 10SM CLR 22/16 A3003 RMK AO2 SLP159 T02170156=
201610180252 METAR KATL 180252Z 14003KT 10SM CLR 22/16 A3002 RMK AO2 SLP157 T02220156 51005=
201610180152 METAR KATL 180152Z 14003KT 10SM CLR 23/16 A3001 RMK AO2 SLP154 T02280156=
201610180052 METAR KATL 180052Z 00000KT 10SM CLR 23/15 A3001 RMK AO2 SLP155 T02330150=
201610172352 METAR KATL 172352Z 17003KT 10SM CLR 25/14 A3000 RMK AO2 SLP152 T02500144 10283 20244 55002=
201610172252 METAR KATL 172252Z 18005KT 10SM CLR 26/14 A3000 RMK AO2 SLP151 T02610144=
201610172152 METAR KATL 172152Z 20008KT 10SM FEW055 27/14 A2999 RMK AO2 SLP148 T02720139=
201610172052 METAR KATL 172052Z 22006KT 10SM SCT055 27/14 A3001 RMK AO2 SLP153 T02720139 56020=
201610171952 METAR KATL 171952Z 16004KT 10SM SCT055 27/14 A3002 RMK AO2 SLP157 T02720139=
201610171852 METAR KATL 171852Z 17004KT 10SM SCT050 28/14 A3003 RMK AO2 SLP161 T02780144=
201610171752 METAR KATL 171752Z 00000KT 10SM SCT048 26/14 A3007 RMK AO2 SLP173 T02610144 10267 20167 58021=
201610171652 METAR KATL 171652Z VRB04KT 10SM SCT040 26/15 A3010 RMK AO2 SLP185 T02610150=
201610171552 METAR KATL 171552Z VRB04KT 10SM FEW030 24/16 A3012 RMK AO2 SLP193 T02440161=
201610171452 METAR KATL 171452Z 17006KT 10SM FEW025 23/17 A3013 RMK AO2 SLP195 T02280167 50006=
201610171352 METAR KATL 171352Z 17007KT 10SM CLR 21/16 A3014 RMK AO2 SLP199 T02110161=
201610171252 METAR KATL 171252Z 00000KT 10SM CLR 19/16 A3013 RMK AO2 SLP194 T01890161=
201610171152 METAR KATL 171152Z 00000KT 10SM CLR 17/15 A3011 RMK AO2 SLP190 70001 T01670150 10189 20167 51007=
201610171052 METAR KATL 171052Z 09004KT 10SM CLR 17/14 A3010 RMK AO2 SLP188 T01670144=
201610170952 METAR KATL 170952Z 00000KT 10SM CLR 18/16 A3010 RMK AO2 SLP185 T01780156=
201610170852 METAR KATL 170852Z 00000KT 10SM CLR 18/15 A3009 RMK AO2 SLP182 T01780150 56005=
201610170752 METAR KATL 170752Z 14004KT 10SM CLR 18/15 A3009 RMK AO2 SLP182 T01780150=
201610170652 METAR KATL 170652Z 00000KT 10SM CLR 18/14 A3010 RMK AO2 SLP186 T01830144=
201610170552 METAR KATL 170552Z 16003KT 10SM CLR 18/14 A3011 RMK AO2 SLP188 T01830144 10233 20183 58005=
201610170452 METAR KATL 170452Z 14004KT 10SM FEW110 19/14 A3011 RMK AO2 SLP190 T01940144 402720172=
201610170352 METAR KATL 170352Z 15004KT 10SM SCT110 21/16 A3012 RMK AO2 SLP192 T02060156=
201610170252 METAR KATL 170252Z 14004KT 10SM SCT120 21/16 A3012 RMK AO2 SLP194 T02110156 51005=
201610170152 METAR KATL 170152Z 00000KT 10SM SCT110 22/16 A3012 RMK AO2 SLP192 T02170156=
201610170052 METAR KATL 170052Z 00000KT 10SM SCT110 23/15 A3012 RMK AO2 SLP193 T02280150=
201610162352 METAR KATL 162352Z 00000KT 10SM BKN100 23/15 A3011 RMK AO2 SLP189 T02330150 10272 20233 55002=
201610162252 METAR KATL 162252Z 16005KT 10SM BKN100 24/14 A3010 RMK AO2 SLP187 T02440139=
201610162152 METAR KATL 162152Z 18006KT 10SM FEW050 BKN100 25/15 A3010 RMK AO2 SLP187 T02500150=
201610162052 METAR KATL 162052Z 17007KT 10SM SCT045 BKN100 26/14 A3011 RMK AO2 SLP190 T02560144 56022=
201610161952 METAR KATL 161952Z 09006KT 10SM SCT045 SCT110 26/14 A3013 RMK AO2 SLP194 T02610144 $=
201610161852 METAR KATL 161852Z 12006KT 10SM SCT050 SCT120 26/14 A3015 RMK AO2 SLP202 T02560139 $=
201610161752 METAR KATL 161752Z 20004KT 10SM FEW040 SCT120 25/15 A3018 RMK AO2 SLP213 60001 T02500150 10256 20172 58023 $=
201610161652 METAR KATL 161652Z 14005KT 10SM FEW035 SCT090 24/15 A3021 RMK AO2 SLP224 T02390150 $=
201610161552 METAR KATL 161552Z 13007KT 10SM FEW030 SCT075 SCT100 23/15 A3023 RMK AO2 SLP231 T02280150 $=
201610161452 METAR KATL 161452Z 11005KT 10SM FEW012 SCT030 BKN075 20/17 A3025 RMK AO2 SLP238 60001 T02000167 53005 $=
201610161352 METAR KATL 161352Z VRB06KT 9SM FEW006 SCT028 SCT180 19/17 A3025 RMK AO2 SLP238 T01890167 $=
201610161252 METAR KATL 161252Z 11007KT 9SM SCT006 SCT065 BKN140 BKN200 17/17 A3023 RMK AO2 RAB06E23 SLP234 P0001 T01720167 $=
201610161152 METAR KATL 161152Z 09006KT 6SM BR FEW006 SCT020 BKN095 BKN180 18/17 A3024 RMK AO2 RAB31E45 SLP234 SHRA SE-SW-W P0000 60002 70002 T01780172 10183 20178 50004 $=
201610161135 SPECI KATL 161135Z 07012KT 7SM -RA SCT008 BKN070 BKN095 BKN180 18/17 A3023 RMK AO2 RAB31 P0000 T01780172 $=
201610161052 METAR KATL 161052Z 06005KT 7SM BKN007 OVC025 18/17 A3024 RMK AO2 RAB09E38 SLP235 CIG 005V009 P0002 T01830172 $=
201610160952 METAR KATL 160952Z 09007KT 7SM BKN008 18/17 A3022 RMK AO2 SLP228 CIG 006V010 T01780167 $=
201610160852 METAR KATL 160852Z 08007KT 8SM OVC006 18/17 A3022 RMK AO2 SLP228 T01780167 58006 $=
201610160752 METAR KATL 160752Z 09005KT 8SM OVC008 18/17 A3023 RMK AO2 SLP230 T01830167 $=
201610160652 METAR KATL 160652Z 08006KT 9SM OVC008 18/17 A3024 RMK AO2 SLP233 CIG 007V010 T01830167 $=
201610160552 METAR KATL 160552Z 10006KT 9SM BKN009 BKN021 18/17 A3024 RMK AO2 SLP234 CIG 008V012 T01830172 10200 20183 58002 $=
201610160505 SPECI KATL 160505Z 11008KT 10SM BKN009 BKN036 OVC055 19/17 A3025 RMK AO2 T01890172 $=
201610160452 METAR KATL 160452Z 11007KT 10SM BKN010 BKN036 OVC055 19/17 A3026 RMK AO2 SLP239 CIG 009V011 T01890172 402610172 $=
201610160352 METAR KATL 160352Z 12007KT 10SM BKN011 OVC038 19/17 A3026 RMK AO2 SLP239 CIG 009V013 T01890172 $=
201610160252 METAR KATL 160252Z 11008KT 10SM OVC011 19/17 A3025 RMK AO2 SLP237 CIG 009V013 T01890167 53003 $=
201610160152 METAR KATL 160152Z 10010KT 10SM OVC012 19/17 A3024 RMK AO2 SLP235 CIG 010V014 T01890167 $=
201610160052 METAR KATL 160052Z 10011KT 10SM OVC012 19/17 A3024 RMK AO2 SLP235 CIG 010V014 T01940167 $=
201610160015 SPECI KATL 160015Z 11011KT 10SM OVC013 19/17 A3024 RMK AO2 CIG 011V015 T01940167 $=
201610152352 METAR KATL 152352Z 10011KT 10SM BKN020 BKN035 BKN065 BKN200 20/17 A3024 RMK AO2 SLP234 T02000167 10261 20200 53007 $=
201610152344 SPECI KATL 152344Z 11010KT 10SM BKN018 BKN033 BKN065 BKN200 20/17 A3024 RMK AO2 T02000167 $=
201610152252 METAR KATL 152252Z 10010KT 10SM FEW032 BKN065 BKN110 BKN200 21/16 A3023 RMK AO2 SLP232 T02110156 $=
201610152152 METAR KATL 152152Z 09012KT 10SM FEW032 BKN060 BKN100 BKN200 23/16 A3022 RMK AO2 SLP229 T02280156 $=
201610152052 METAR KATL 152052Z 11009KT 10SM SCT040 BKN050 BKN100 24/16 A3022 RMK AO2 SLP226 T02440156 56021 $=
201610151952 METAR KATL 151952Z 11008KT 10SM BKN043 BKN050 25/15 A3023 RMK AO2 SLP230 T02500150 $=
201610151852 METAR KATL 151852Z 08011KT 10SM SCT038 SCT050 26/14 A3025 RMK AO2 SLP237 T02560144 $=
201610151752 METAR KATL 151752Z VRB04KT 10SM BKN035 BKN046 25/14 A3028 RMK AO2 SLP248 T02500144 10250 20183 58017 $=
201610151652 METAR KATL 151652Z 13009KT 10SM SCT031 OVC044 23/14 A3031 RMK AO2 SLP259 BINOVC T02330144 $=
201610151552 METAR KATL 151552Z 09009KT 10SM FEW038 SCT060 23/14 A3033 RMK AO2 SLP262 T02330144 $=
201610151452 METAR KATL 151452Z 08009KT 10SM FEW024 BKN050 21/16 A3033 RMK AO2 SLP267 T02110156 51008 $=
201610151412 SPECI KATL 151412Z 08011KT 10SM SCT012 OVC048 20/16 A3033 RMK AO2 T02000161 $=
201610151352 METAR KATL 151352Z 08009KT 10SM BKN012 OVC048 19/17 A3033 RMK AO2 SLP265 BKN012 V SCT T01940167 $=
201610151259 SPECI KATL 151259Z 09008KT 8SM OVC011 18/17 A3032 RMK AO2 T01830167 $=
201610151252 METAR KATL 151252Z 11009KT 8SM BKN009 OVC013 19/17 A3032 RMK AO2 SLP262 T01890167 $=
201610151152 METAR KATL 151152Z 12008KT 9SM BKN009 OVC012 18/17 A3031 RMK AO2 SLP258 T01830167 10183 20172 53015 $=
201610151052 METAR KATL 151052Z 09008KT 10SM SCT008 BKN012 BKN025 18/17 A3029 RMK AO2 SLP251 T01780167 $=
201610151046 SPECI KATL 151046Z 09010KT 10SM SCT008 BKN012 BKN022 18/17 A3029 RMK AO2 $=
201610150952 METAR KATL 150952Z 10007KT 9SM BKN008 OVC011 18/17 A3028 RMK AO2 SLP246 T01780167 $=
201610150939 SPECI KATL 150939Z 09008KT 10SM OVC009 18/16 A3027 RMK AO2 T01780161 $=
201610150859 SPECI KATL 150859Z 08008KT 10SM OVC012 18/16 A3026 RMK AO2 T01780161=
201610150852 METAR KATL 150852Z 09009KT 9SM OVC015 18/16 A3026 RMK AO2 SLP241 T01780161 52002=
201610150752 METAR KATL 150752Z 09008KT 10SM BKN016 BKN250 18/16 A3026 RMK AO2 SLP239 T01780161=
201610150749 SPECI KATL 150749Z 09008KT 10SM BKN016 BKN250 18/16 A3026 RMK AO2=
201610150652 METAR KATL 150652Z 09008KT 10SM FEW035 SCT250 17/16 A3026 RMK AO2 SLP239 T01720156=
201610150552 METAR KATL 150552Z 08008KT 10SM SCT250 18/16 A3026 RMK AO2 SLP239 T01780156 10228 20178 55000=
201610150452 METAR KATL 150452Z 09007KT 10SM BKN250 18/15 A3025 RMK AO2 SLP237 T01830150 402670156=
201610150352 METAR KATL 150352Z 09008KT 10SM BKN250 19/14 A3026 RMK AO2 SLP239 T01940144=
201610150252 METAR KATL 150252Z 09008KT 10SM BKN250 20/14 A3026 RMK AO2 SLP239 T02000144 51012=
201610150152 METAR KATL 150152Z 08010KT 10SM FEW060 BKN250 21/14 A3025 RMK AO2 SLP237 T02110139=
201610150052 METAR KATL 150052Z 08009KT 10SM FEW200 BKN250 22/13 A3023 RMK AO2 SLP231 T02170133=
201610142352 METAR KATL 142352Z 09009KT 10SM BKN250 23/13 A3022 RMK AO2 SLP227 T02280133 10267 20228 53004=
201610142252 METAR KATL 142252Z 10007KT 10SM FEW200 BKN250 24/13 A3021 RMK AO2 SLP225 T02390128=
201610142152 METAR KATL 142152Z 11007KT 10SM FEW200 BKN250 26/13 A3021 RMK AO2 SLP225 T02560128=
201610142052 METAR KATL 142052Z VRB03KT 10SM FEW060 FEW180 BKN250 26/13 A3021 RMK AO2 SLP222 T02560128 56011=
201610141952 METAR KATL 141952Z 11008KT 10SM FEW055 FEW180 OVC250 26/12 A3021 RMK AO2 SLP223 BINOVC T02610122=
201610141852 METAR KATL 141852Z 13009G16KT 10SM FEW050 SCT180 OVC250 26/12 A3022 RMK AO2 SLP226 BINOVC T02560122=
201610141752 METAR KATL 141752Z 14007KT 10SM FEW050 SCT180 OVC250 26/12 A3024 RMK AO2 SLP234 BINOVC T02560122 10261 20156 58008=
201610141652 METAR KATL 141652Z 15008KT 10SM FEW040 FEW150 BKN250 24/14 A3026 RMK AO2 SLP240 T02440139=
201610141552 METAR KATL 141552Z 12009KT 10SM FEW150 BKN200 BKN250 23/14 A3027 RMK AO2 SLP244 T02330139=
201610141452 METAR KATL 141452Z 09008KT 10SM BKN250 22/14 A3027 RMK AO2 SLP243 T02220139 51009=
201610141352 METAR KATL 141352Z 08007KT 10SM BKN250 20/14 A3027 RMK AO2 SLP243 T02000139=
201610141252 METAR KATL 141252Z 08006KT 10SM FEW150 SCT200 BKN250 18/13 A3025 RMK AO2 SLP239 T01780133=
201610141152 METAR KATL 141152Z 09006KT 10SM FEW140 SCT200 BKN250 16/12 A3024 RMK AO2 SLP235 ACC DSNT NW T01560122 10194 20156 53016=
201610141052 METAR KATL 141052Z 08005KT 10SM FEW150 SCT200 BKN250 16/12 A3022 RMK AO2 SLP229 T01560122=
201610140952 METAR KATL 140952Z 08006KT 10SM FEW150 SCT200 BKN250 16/12 A3020 RMK AO2 SLP221 T01560122=
201610140852 METAR KATL 140852Z 08006KT 10SM SCT200 BKN250 17/12 A3019 RMK AO2 SLP216 T01720117 53003=
201610140752 METAR KATL 140752Z 06005KT 10SM SCT200 BKN250 18/12 A3018 RMK AO2 SLP211 T01830117=
201610140652 METAR KATL 140652Z 02003KT 10SM SCT200 BKN250 19/12 A3018 RMK AO2 SLP212 T01940117=
201610140552 METAR KATL 140552Z 00000KT 10SM SCT200 BKN250 17/12 A3018 RMK AO2 SLP213 T01720117 10233 20172 53001=
201610140452 METAR KATL 140452Z 32003KT 10SM FEW200 SCT250 19/11 A3018 RMK AO2 SLP211 T01940111 402830133=
201610140352 METAR KATL 140352Z 00000KT 10SM SCT250 20/12 A3017 RMK AO2 SLP210 T02000117=
201610140252 METAR KATL 140252Z 00000KT 10SM BKN250 21/12 A3018 RMK AO2 SLP212 T02060117 53010=
201610140152 METAR KATL 140152Z 23003KT 10SM BKN250 21/12 A3017 RMK AO2 SLP209 T02060117=
201610140052 METAR KATL 140052Z 00000KT 10SM BKN250 22/11 A3015 RMK AO2 SLP203 T02170106=
201610132352 METAR KATL 132352Z 29004KT 10SM BKN250 23/10 A3015 RMK AO2 SLP203 T02330100 10283 20233 53001=
201610132252 METAR KATL 132252Z 31004KT 10SM BKN250 25/09 A3014 RMK AO2 SLP202 T02500089=
201610132152 METAR KATL 132152Z 33006KT 10SM BKN250 27/09 A3014 RMK AO2 SLP199 T02670089=
201610132052 METAR KATL 132052Z 32008KT 10SM BKN250 28/09 A3014 RMK AO2 SLP200 T02780089 55012=
201610131952 METAR KATL 131952Z 32009KT 10SM SCT250 28/08 A3014 RMK AO2 SLP199 T02780078=
201610131852 METAR KATL 131852Z 34008KT 10SM SCT250 27/08 A3015 RMK AO2 SLP203 T02720083=
201610131752 METAR KATL 131752Z 01011KT 10SM FEW250 27/08 A3018 RMK AO2 SLP212 T02670083 10267 20133 58011=
201610131652 METAR KATL 131652Z 32009KT 10SM FEW250 26/11 A3021 RMK AO2 SLP223 T02560106=
201610131552 METAR KATL 131552Z VRB04KT 10SM FEW250 24/13 A3021 RMK AO2 SLP224 T02390133=
201610131452 METAR KATL 131452Z 30005KT 10SM FEW250 23/14 A3021 RMK AO2 SLP226 T02330144 51006=
201610131352 METAR KATL 131352Z 22003KT 10SM FEW005 FEW250 20/14 A3021 RMK AO2 SLP225 FU FEW005 T02000144=
201610131252 METAR KATL 131252Z 00000KT 10SM FEW002 FEW200 FEW250 17/13 A3020 RMK AO2 SLP223 FU FEW002 FU PLUME SE T01720128=
201610131245 SPECI KATL 131245Z 00000KT 10SM FEW002 FEW200 FEW250 17/12 A3020 RMK AO2 FU FEW002 FU PLUME SE T01670122=
201610131152 METAR KATL 131152Z 00000KT 10SM FEW200 FEW250 14/11 A3020 RMK AO2 SLP222 T01390111 10178 20133 53006=
201610131052 METAR KATL 131052Z 10003KT 10SM FEW250 14/11 A3019 RMK AO2 SLP218 T01390106=
201610130952 METAR KATL 130952Z 07004KT 10SM FEW200 15/11 A3018 RMK AO2 SLP214 T01500111=
201610130852 METAR KATL 130852Z 05003KT 10SM FEW200 15/11 A3018 RMK AO2 SLP213 T01500111 55000=
201610130752 METAR KATL 130752Z 04004KT 10SM CLR 17/11 A3017 RMK AO2 SLP211 T01670106=
201610130652 METAR KATL 130652Z 03003KT 10SM CLR 17/11 A3018 RMK AO2 SLP213 T01720106=
201610130552 METAR KATL 130552Z 10004KT 10SM CLR 17/11 A3018 RMK AO2 SLP213 T01720106 10206 20156 58002=
201610130452 METAR KATL 130452Z 00000KT 10SM CLR 17/11 A3020 RMK AO2 SLP221 T01720111 402560100=
201610130352 METAR KATL 130352Z 00000KT 10SM CLR 18/11 A3020 RMK AO2 SLP222 T01780111=
201610130252 METAR KATL 130252Z 00000KT 10SM CLR 18/11 A3018 RMK AO2 SLP217 T01780106 51005=
201610130152 METAR KATL 130152Z 00000KT 10SM CLR 18/10 A3018 RMK AO2 SLP217 T01780100=
201610130052 METAR KATL 130052Z 00000KT 10SM CLR 21/09 A3018 RMK AO2 SLP217 T02060094=
201610122352 METAR KATL 122352Z 00000KT 10SM CLR 20/09 A3017 RMK AO2 SLP214 T02000094 10256 20200 56004=
201610122252 METAR KATL 122252Z 15003KT 10SM CLR 23/08 A3017 RMK AO2 SLP214 T02330078=
201610122152 METAR KATL 122152Z 00000KT 10SM CLR 24/07 A3017 RMK AO2 SLP213 T02390067=
201610122052 METAR KATL 122052Z 00000KT 10SM CLR 25/08 A3018 RMK AO2 SLP216 T02500078 56020=
201610121952 METAR KATL 121952Z 00000KT 10SM CLR 23/08 A3019 RMK AO2 SLP218 T02330083=
201610121852 METAR KATL 121852Z 00000KT 10SM CLR 24/09 A3021 RMK AO2 SLP226 T02390094=
201610121752 METAR KATL 121752Z 02004KT 10SM CLR 23/10 A3024 RMK AO2 SLP237 T02280100 10228 20111 58026=
201610121652 METAR KATL 121652Z VRB04KT 10SM CLR 21/09 A3028 RMK AO2 SLP250 T02110094=
201610121552 METAR KATL 121552Z 08007KT 10SM CLR 19/09 A3030 RMK AO2 SLP256 T01940094=
201610121452 METAR KATL 121452Z 07010KT 10SM CLR 17/08 A3032 RMK AO2 SLP265 T01720083 51011=
201610121352 METAR KATL 121352Z 07008KT 10SM CLR 15/08 A3032 RMK AO2 SLP266 T01500078=
201610121252 METAR KATL 121252Z 07011KT 10SM FEW200 12/08 A3030 RMK AO2 SLP259 T01220078=
201610121152 METAR KATL 121152Z 06009KT 10SM FEW200 11/07 A3029 RMK AO2 SLP255 T01060072 10128 20100 51006=
201610121052 METAR KATL 121052Z 06008KT 10SM CLR 11/07 A3028 RMK AO2 SLP252 T01110072=
201610120952 METAR KATL 120952Z 06007KT 10SM CLR 11/07 A3028 RMK AO2 SLP249 T01110072=
201610120852 METAR KATL 120852Z 08006KT 10SM CLR 11/06 A3027 RMK AO2 SLP247 T01060061 55001=
201610120752 METAR KATL 120752Z 07005KT 10SM CLR 12/06 A3026 RMK AO2 SLP244 T01170061=
201610120652 METAR KATL 120652Z 07005KT 10SM CLR 13/06 A3027 RMK AO2 SLP248 T01280061=
201610120552 METAR KATL 120552Z 10005KT 10SM CLR 12/06 A3027 RMK AO2 SLP248 T01220061 10194 20122 58002=
201610120452 METAR KATL 120452Z 09006KT 10SM CLR 14/05 A3028 RMK AO2 SLP251 T01390050 402390106=
201610120352 METAR KATL 120352Z 13004KT 10SM CLR 16/04 A3029 RMK AO2 SLP253 T01560044=
201610120252 METAR KATL 120252Z 10006KT 10SM CLR 16/05 A3028 RMK AO2 SLP251 T01560050 53005=
201610120152 METAR KATL 120152Z 08007KT 10SM CLR 16/05 A3027 RMK AO2 SLP247 T01560050=
201610120052 METAR KATL 120052Z 09007KT 10SM CLR 18/04 A3027 RMK AO2 SLP247 T01830039=
201610112352 METAR KATL 112352Z 09005KT 10SM CLR 19/04 A3026 RMK AO2 SLP246 T01940039 10239 20194 56003=
201610112252 METAR KATL 112252Z 08009KT 10SM CLR 21/03 A3027 RMK AO2 SLP246 T02110033=
201610112152 METAR KATL 112152Z 10008KT 10SM CLR 23/03 A3026 RMK AO2 SLP244 T02280033=
201610112052 METAR KATL 112052Z 09007KT 10SM CLR 24/03 A3027 RMK AO2 SLP248 T02390033 56022=
201610111952 METAR KATL 111952Z 07008KT 10SM FEW250 23/03 A3029 RMK AO2 SLP253 T02330028=
201610111852 METAR KATL 111852Z VRB05KT 10SM FEW250 22/03 A3030 RMK AO2 SLP257 T02220033=
201610111752 METAR KATL 111752Z 12007KT 10SM FEW250 22/05 A3034 RMK AO2 SLP269 T02220050 10222 20106 58020=
201610111652 METAR KATL 111652Z 09010KT 10SM FEW250 21/07 A3037 RMK AO2 SLP280 T02060067=
201610111552 METAR KATL 111552Z 10011KT 10SM FEW250 19/07 A3039 RMK AO2 SLP286 T01940067=
201610111452 METAR KATL 111452Z 10007KT 10SM FEW250 18/08 A3040 RMK AO2 SLP290 T01780083 51015=
201610111352 METAR KATL 111352Z 08007KT 10SM FEW250 15/09 A3039 RMK AO2 SLP289 T01500089=
201610111252 METAR KATL 111252Z 08012KT 10SM FEW150 SCT250 12/08 A3037 RMK AO2 SLP282 T01220083=
201610111152 METAR KATL 111152Z 09009KT 10SM FEW150 SCT250 11/08 A3035 RMK AO2 SLP277 T01060078 10156 20106 53015=
201610111052 METAR KATL 111052Z 08007KT 10SM FEW250 11/07 A3034 RMK AO2 SLP270 T01060072=
201610110952 METAR KATL 110952Z 07008KT 10SM FEW250 12/07 A3032 RMK AO2 SLP264 T01170072=
201610110852 METAR KATL 110852Z 08007KT 10SM FEW250 11/07 A3031 RMK AO2 SLP260 T01110072 58001=
201610110752 METAR KATL 110752Z 08006KT 10SM FEW250 12/07 A3031 RMK AO2 SLP258 T01220067=
201610110652 METAR KATL 110652Z 09005KT 10SM FEW250 14/06 A3032 RMK AO2 SLP261 T01390061=
201610110552 METAR KATL 110552Z 11004KT 10SM SCT250 15/05 A3031 RMK AO2 SLP258 T01500050 10206 20150 51002=
201610110452 METAR KATL 110452Z 12004KT 10SM BKN250 17/06 A3031 RMK AO2 SLP258 T01670056 402560128=
201610110352 METAR KATL 110352Z 13004KT 10SM BKN250 18/05 A3031 RMK AO2 SLP259 T01780050=
201610110252 METAR KATL 110252Z 12006KT 10SM BKN250 19/04 A3030 RMK AO2 SLP257 T01890039 51008=
201610110152 METAR KATL 110152Z 12003KT 10SM FEW200 BKN250 18/06 A3030 RMK AO2 SLP257 T01780056=
201610110052 METAR KATL 110052Z 12004KT 10SM FEW200 BKN250 20/04 A3029 RMK AO2 SLP252 T02000039=
201610102352 METAR KATL 102352Z 13003KT 10SM FEW200 BKN250 21/05 A3028 RMK AO2 SLP250 T02060050 10256 20206 53008=
201610102252 METAR KATL 102252Z 13003KT 10SM FEW200 BKN250 22/04 A3027 RMK AO2 SLP245 T02220039=
201610102152 METAR KATL 102152Z 06003KT 10SM FEW200 BKN250 23/02 A3025 RMK AO2 SLP240 T02330022=
201610102052 METAR KATL 102052Z 06008KT 10SM SCT250 24/03 A3026 RMK AO2 SLP240 T02440028 55013=
201610101952 METAR KATL 101952Z 10SM SCT250 24/04 A3025 RMK AO2 SLP239 T02390039=
201610101852 METAR KATL 101852Z VRB03KT 10SM BKN250 24/04 A3027 RMK AO2 SLP244 T02390044=
201610101752 METAR KATL 101752Z 03007G15KT 10SM SCT250 23/04 A3029 RMK AO2 SLP253 T02330044 10233 20128 58017=
201610101652 METAR KATL 101652Z 09010KT 10SM FEW250 22/04 A3032 RMK AO2 SLP262 T02170039=
201610101552 METAR KATL 101552Z 08009KT 10SM SCT250 21/06 A3034 RMK AO2 SLP267 T02060056=
201610101452 METAR KATL 101452Z 10008KT 10SM SCT250 19/06 A3034 RMK AO2 SLP271 T01890056 51017=
201610101352 METAR KATL 101352Z 10010KT 10SM FEW200 SCT250 17/06 A3033 RMK AO2 SLP265 T01720061=
201610101252 METAR KATL 101252Z 09009KT 10SM FEW200 FEW250 15/06 A3031 RMK AO2 SLP262 T01500061=
201610101152 METAR KATL 101152Z 08009KT 10SM FEW200 13/06 A3029 RMK AO2 SLP255 T01330061 10172 20128 51015=
201610101052 METAR KATL 101052Z 07007KT 10SM CLR 13/06 A3028 RMK AO2 SLP250 T01280061=
201610100952 METAR KATL 100952Z 08005KT 10SM CLR 14/06 A3027 RMK AO2 SLP244 T01390056=
201610100852 METAR KATL 100852Z 08005KT 10SM CLR 14/06 A3025 RMK AO2 SLP237 T01390056 53003=
201610100752 METAR KATL 100752Z 07007KT 10SM CLR 16/06 A3024 RMK AO2 SLP233 T01560056=
201610100652 METAR KATL 100652Z 06005KT 10SM CLR 17/06 A3024 RMK AO2 SLP234 T01670056=
201610100552 METAR KATL 100552Z 02004KT 10SM CLR 17/05 A3024 RMK AO2 SLP233 T01720050 10217 20167 51002=
201610100452 METAR KATL 100452Z 02006KT 10SM CLR 17/05 A3024 RMK AO2 SLP234 T01720050 402780111=
201610100352 METAR KATL 100352Z 01009KT 10SM CLR 18/04 A3024 RMK AO2 SLP233 T01780044=
201610100252 METAR KATL 100252Z 35008KT 10SM CLR 19/04 A3023 RMK AO2 SLP232 T01890044 53019=
201610100152 METAR KATL 100152Z 36009KT 10SM CLR 20/04 A3022 RMK AO2 SLP227 T02000039=
201610100052 METAR KATL 100052Z 34009KT 10SM FEW200 21/04 A3019 RMK AO2 SLP219 T02060044=
201610092352 METAR KATL 092352Z 33010KT 10SM FEW200 22/04 A3017 RMK AO2 SLP215 T02170044 10278 20217 53007=
201610092252 METAR KATL 092252Z 34009KT 10SM FEW200 24/03 A3016 RMK AO2 SLP209 T02440033=
201610092152 METAR KATL 092152Z 32009KT 10SM CLR 27/03 A3015 RMK AO2 SLP204 T02670028=
201610092052 METAR KATL 092052Z 34007G15KT 310V020 10SM CLR 27/03 A3015 RMK AO2 SLP204 T02720033 55010=
201610091952 METAR KATL 091952Z 32009KT 10SM CLR 27/03 A3015 RMK AO2 SLP202 T02720033=
201610091852 METAR KATL 091852Z 31010G15KT 280V340 10SM CLR 27/04 A3016 RMK AO2 SLP205 T02670044=
201610091752 METAR KATL 091752Z 33009KT 290V360 10SM CLR 25/04 A3018 RMK AO2 SLP214 T02500044 10256 20117 58004=
201610091652 METAR KATL 091652Z 33008KT 10SM CLR 24/05 A3020 RMK AO2 SLP219 T02390050=
201610091552 METAR KATL 091552Z 34009KT 10SM CLR 22/04 A3020 RMK AO2 SLP221 T02170039=
201610091452 METAR KATL 091452Z 34009KT 10SM CLR 19/05 A3020 RMK AO2 SLP220 T01940050 53020=
201610091352 METAR KATL 091352Z 35010KT 10SM CLR 17/05 A3017 RMK AO2 SLP211 T01670050=
201610091252 METAR KATL 091252Z 34009KT 10SM CLR 14/06 A3015 RMK AO2 SLP206 T01390056=
201610091152 METAR KATL 091152Z 32009KT 10SM CLR 12/06 A3014 RMK AO2 SLP201 T01170056 10172 20111 53019=
201610091052 METAR KATL 091052Z 32005KT 10SM CLR 12/06 A3011 RMK AO2 SLP190 T01220056=
201610090952 METAR KATL 090952Z 34006KT 10SM CLR 13/06 A3010 RMK AO2 SLP185 T01330056=
201610090852 METAR KATL 090852Z 33005KT 10SM CLR 14/06 A3008 RMK AO2 SLP178 T01390056 51008=
201610090752 METAR KATL 090752Z 34010KT 10SM CLR 15/06 A3007 RMK AO2 SLP177 T01500056=
201610090652 METAR KATL 090652Z 32009KT 10SM CLR 16/06 A3006 RMK AO2 SLP172 T01560061=
201610090552 METAR KATL 090552Z 34008KT 10SM CLR 17/06 A3005 RMK AO2 SLP169 T01720061 10228 20172 50007=
201610090452 METAR KATL 090452Z 35010KT 330V050 10SM CLR 18/07 A3005 RMK AO2 SLP169 T01830067 402940183=
201610090352 METAR KATL 090352Z 33012KT 10SM CLR 19/07 A3005 RMK AO2 SLP165 T01940072=
201610090252 METAR KATL 090252Z 33010KT 10SM CLR 21/13 A3003 RMK AO2 SLP162 T02060128 53017=
201610090152 METAR KATL 090152Z 35016G22KT 10SM CLR 22/13 A3001 RMK AO2 SLP155 T02170128=
201610090052 METAR KATL 090052Z 33015KT 10SM FEW050 22/14 A3000 RMK AO2 SLP151 T02170139=
201610082352 METAR KATL 082352Z 34016KT 10SM FEW050 23/14 A2998 RMK AO2 PK WND 33026/2300 SLP144 T02280144 10294 20228 51025=
201610082252 METAR KATL 082252Z 33018KT 10SM FEW055 24/14 A2995 RMK AO2 SLP135 T02440144=
201610082152 METAR KATL 082152Z 34018G23KT 10SM FEW060 27/14 A2993 RMK AO2 PK WND 35028/2058 SLP127 T02670144=
201610082052 METAR KATL 082052Z 32016G24KT 10SM FEW060 FEW200 28/14 A2990 RMK AO2 SLP116 T02780144 53007=
201610081952 METAR KATL 081952Z 34015G24KT 10SM FEW060 28/14 A2989 RMK AO2 PK WND 33027/1856 SLP110 T02830139=
201610081852 METAR KATL 081852Z 33020G24KT 10SM FEW055 FEW150 28/14 A2988 RMK AO2 PK WND 34029/1824 SLP107 T02830144=
201610081752 METAR KATL 081752Z 32021G29KT 10SM FEW050 FEW150 28/15 A2988 RMK AO2 PK WND 32029/1746 SLP108 T02780150 10283 20206 51003=
201610081652 METAR KATL 081652Z 32021KT 10SM FEW048 FEW150 27/15 A2988 RMK AO2 PK WND 32032/1641 SLP107 T02720150=
201610081552 METAR KATL 081552Z 32019G29KT 10SM FEW040 FEW150 27/16 A2988 RMK AO2 PK WND 34029/1546 SLP108 T02670161=
201610081452 METAR KATL 081452Z 33020G27KT 10SM FEW150 25/16 A2987 RMK AO2 PK WND 33028/1435 SLP106 T02500161 53010=
201610081352 METAR KATL 081352Z 33017G24KT 10SM SCT080 SCT150 23/16 A2986 RMK AO2 SLP102 T02280161=
201610081252 METAR KATL 081252Z 32015KT 10SM FEW070 SCT250 21/16 A2985 RMK AO2 SLP101 T02110161=
201610081152 METAR KATL 081152Z 33012KT 10SM FEW070 FEW250 21/18 A2984 RMK AO2 SLP098 60000 70013 T02110183 10233 20211 53002=
201610081052 METAR KATL 081052Z 33010KT 10SM FEW045 SCT070 SCT250 21/18 A2983 RMK AO2 SLP095 T02110183=
201610080952 METAR KATL 080952Z 33013KT 10SM FEW043 BKN075 BKN250 22/18 A2983 RMK AO2 SLP094 T02170183=
201610080852 METAR KATL 080852Z 34008KT 10SM FEW038 FEW046 BKN065 BKN250 22/19 A2984 RMK AO2 SLP095 60000 T02220189 56015=
201610080752 METAR KATL 080752Z 33010KT 10SM FEW007 BKN031 BKN043 OVC250 22/21 A2984 RMK AO2 SLP097 T02220206=
201610080732 SPECI KATL 080732Z 35009KT 10SM FEW009 SCT025 BKN030 OVC250 23/20 A2984 RMK AO2 T02280200=
201610080652 METAR KATL 080652Z 02012KT 10SM FEW009 BKN024 BKN032 OVC250 23/20 A2985 RMK AO2 RAB0554E06 SLP100 P0000 T02280200=
201610080630 SPECI KATL 080630Z 36010KT 10SM FEW010 SCT022 BKN031 OVC250 23/20 A2986 RMK AO2 RAB0554E06 P0000 T02280200=
201610080616 SPECI KATL 080616Z 36010KT 10SM FEW012 BKN022 OVC060 23/20 A2987 RMK AO2 RAB0554E06 P0000 T02280200=
201610080552 METAR KATL 080552Z 03015KT 10SM FEW012 FEW025 BKN042 OVC200 23/20 A2988 RMK AO2 SLP109 60000 T02280200 10233 20217 56011=
201610080452 METAR KATL 080452Z 03016KT 10SM FEW009 BKN050 BKN200 23/20 A2989 RMK AO2 SLP111 T02280200 402610194=
201610080352 METAR KATL 080352Z 02015KT 10SM FEW009 BKN050 BKN200 22/21 A2990 RMK AO2 SLP118 T02220206=
201610080252 METAR KATL 080252Z 03013KT 10SM FEW009 SCT060 BKN150 22/21 A2991 RMK AO2 RAE01 SLP122 P0000 60000 T02220206 58006=
201610080213 SPECI KATL 080213Z 03011KT 10SM SCT009 BKN060 BKN150 22/21 A2992 RMK AO2 RAE01 P0000 T02220206=
201610080152 METAR KATL 080152Z 04015KT 10SM -RA BKN009 BKN030 OVC060 22/21 A2993 RMK AO2 RAB50 SLP128 P0000 T02220206=
201610080135 SPECI KATL 080135Z 04014KT 10SM BKN009 BKN030 BKN060 OVC150 22/21 A2994 RMK AO2 T02220206=
201610080052 METAR KATL 080052Z 03013KT 10SM FEW007 SCT035 BKN060 BKN150 22/21 A2993 RMK AO2 RAE37 SLP129 P0000 T02170206=
201610072352 METAR KATL 072352Z 03013KT 8SM -RA FEW007 SCT050 BKN080 BKN150 22/21 A2993 RMK AO2 RAE26B42 SLP128 VIS LWR NE-SE P0000 60013 T02220206 10261 20217 56008=
201610072252 METAR KATL 072252Z 04010KT 7SM -RA FEW007 BKN030 BKN050 BKN150 22/21 A2994 RMK AO2 SLP131 VIS LWR NE-SE P0000 T02220206=
201610072152 METAR KATL 072152Z 04013KT 8SM -RA FEW008 SCT020 BKN030 OVC150 22/21 A2994 RMK AO2 SLP132 P0013 T02220206=
201610072114 SPECI KATL 072114Z 05008KT 4SM RA BR FEW008 SCT015 BKN028 OVC150 22/21 A2995 RMK AO2 VIS LWR S-W P0010 T02170211=
201610072107 SPECI KATL 072107Z 05012KT 1 1/4SM R09R/3500VP6000FT +RA BR BKN017 BKN025 OVC050 22/21 A2996 RMK AO2 SFC VIS 2 P0001 T02220206=
201610072059 SPECI KATL 072059Z 04009KT 3SM -RA BKN017 OVC025 23/21 A2996 RMK AO2 SFC VIS 4 P0000 T02330206=
201610072052 METAR KATL 072052Z 03010KT 10SM -RA SCT016 OVC023 23/20 A2996 RMK AO2 RAB50 SLP137 P0000 60000 T02330200 56014=
201610071952 METAR KATL 071952Z 04013KT 10SM OVC023 25/19 A2996 RMK AO2 SLP138 T02500189=
201610071852 METAR KATL 071852Z 04010KT 10SM BKN023 BKN150 26/19 A2997 RMK AO2 SLP141 T02560189=
201610071752 METAR KATL 071752Z 03011G18KT 340V060 10SM OVC021 25/18 A3000 RMK AO2 SLP150 T02500183 10261 20194 56017=
201610071652 METAR KATL 071652Z 03010KT 10SM BKN020 BKN050 24/18 A3001 RMK AO2 SLP154 T02390178=
201610071552 METAR KATL 071552Z 03011KT 10SM BKN017 BKN020 OVC050 23/17 A3004 RMK AO2 SLP164 T02280172=
201610071519 SPECI KATL 071519Z 04008KT 10SM BKN015 BKN020 BKN050 22/17 A3004 RMK AO2 T02170172=
201610071452 METAR KATL 071452Z 04012KT 10SM OVC014 21/17 A3005 RMK AO2 SLP169 T02060172 51008=
201610071352 METAR KATL 071352Z 04012KT 10SM OVC014 21/17 A3005 RMK AO2 SLP167 T02060167=
201610071252 METAR KATL 071252Z 05012KT 10SM OVC014 20/17 A3005 RMK AO2 SLP168 T02000167=
201610071206 SPECI KATL 071206Z 04015KT 10SM OVC014 19/17 A3004 RMK AO2 T01940167=
201610071152 METAR KATL 071152Z 05012KT 10SM OVC015 19/16 A3003 RMK AO2 SLP160 T01940161 10200 20194 51006=
201610071052 METAR KATL 071052Z 05013KT 10SM OVC015 19/16 A3002 RMK AO2 SLP159 T01940161=
201610070952 METAR KATL 070952Z 06011KT 10SM OVC016 19/16 A3002 RMK AO2 SLP155 T01940161=
201610070852 METAR KATL 070852Z 06012KT 10SM OVC016 19/16 A3001 RMK AO2 SLP152 BINOVC T01940156 58013 $=
201610070752 METAR KATL 070752Z 06010KT 10SM SCT015 BKN024 BKN250 19/15 A3003 RMK AO2 SLP159 T01940150 $=
201610070713 SPECI KATL 070713Z 07013KT 10SM FEW018 BKN028 BKN250 19/15 A3004 RMK AO2 T01940150 $=
201610070652 METAR KATL 070652Z 06011KT 10SM FEW250 19/15 A3005 RMK AO2 SLP165 T01940150 $=
201610070552 METAR KATL 070552Z 07012KT 10SM FEW250 19/14 A3005 RMK AO2 SLP167 T01940144 10244 20194 56015 $=
201610070452 METAR KATL 070452Z 06010KT 10SM FEW030 20/14 A3006 RMK AO2 SLP171 T02000144 402720161 $=
201610070352 METAR KATL 070352Z 06011KT 10SM CLR 21/14 A3007 RMK AO2 SLP178 T02060144 $=
201610070252 METAR KATL 070252Z 07011KT 10SM FEW035 22/14 A3009 RMK AO2 SLP184 T02170144 50001 $=
201610070152 METAR KATL 070152Z 07012KT 10SM CLR 22/14 A3010 RMK AO2 SLP186 T02170144 $=
201610070052 METAR KATL 070052Z 07010KT 10SM CLR 23/14 A3010 RMK AO2 SLP185 T02280144 $=
201610062352 METAR KATL 062352Z 06011KT 10SM FEW150 24/14 A3009 RMK AO2 SLP183 T02390139 10272 20239 53005 $=
201610062252 METAR KATL 062252Z 05013KT 10SM FEW150 26/14 A3008 RMK AO2 SLP179 T02560139=
201610062152 METAR KATL 062152Z 05015KT 10SM CLR 27/13 A3007 RMK AO2 SLP176 T02670133=
201610062052 METAR KATL 062052Z 06013KT 10SM CLR 27/13 A3007 RMK AO2 SLP175 T02720133 56018=
201610061952 METAR KATL 061952Z 06009KT 10SM FEW200 27/14 A3008 RMK AO2 SLP178 T02670144=
201610061852 METAR KATL 061852Z 07011KT 10SM FEW040 27/14 A3009 RMK AO2 SLP183 T02670144=
201610061752 METAR KATL 061752Z 07009KT 10SM FEW030 25/15 A3013 RMK AO2 SLP194 T02500150 10250 20161 58013=
201610061652 METAR KATL 061652Z 04011KT 10SM FEW030 23/15 A3015 RMK AO2 SLP203 T02280150=
201610061552 METAR KATL 061552Z 08012KT 10SM SCT014 20/14 A3017 RMK AO2 SLP209 T02000144=
201610061549 SPECI KATL 061549Z 07010KT 10SM SCT014 21/15 A3017 RMK AO2=
201610061452 METAR KATL 061452Z 08011KT 10SM BKN013 BKN017 18/14 A3018 RMK AO2 SLP213 T01830144 52008=
201610061352 METAR KATL 061352Z 08012KT 10SM BKN012 18/14 A3017 RMK AO2 SLP210 T01780144=
201610061252 METAR KATL 061252Z 07015KT 10SM OVC010 17/14 A3016 RMK AO2 SLP207 BINOVC T01720144=
201610061224 SPECI KATL 061224Z 07012KT 10SM BKN012 17/14 A3016 RMK AO2 T01670144=
201610061152 METAR KATL 061152Z 07012KT 10SM FEW010 16/14 A3015 RMK AO2 SLP205 T01610144 10183 20161 53008=
201610061052 METAR KATL 061052Z 06014KT 10SM FEW014 FEW028 17/14 A3014 RMK AO2 SLP199 T01670144=
201610060952 METAR KATL 060952Z 07014KT 10SM FEW030 17/14 A3014 RMK AO2 SLP197 T01670144=
201610060852 METAR KATL 060852Z 07011KT 10SM FEW030 17/15 A3013 RMK AO2 SLP195 T01720150 56009=
201610060820 SPECI KATL 060820Z 06010KT 10SM BKN030 17/15 A3013 RMK AO2 T01720150=
201610060752 METAR KATL 060752Z 07012KT 10SM BKN028 18/15 A3014 RMK AO2 SLP198 T01780150=
201610060652 METAR KATL 060652Z 07012KT 10SM CLR 18/15 A3014 RMK AO2 SLP199 T01780150=
201610060552 METAR KATL 060552Z 08012KT 10SM CLR 18/16 A3016 RMK AO2 SLP204 T01830156 10244 20183 50001=
201610060452 METAR KATL 060452Z 09013KT 10SM CLR 19/15 A3017 RMK AO2 SLP207 T01890150 402830167=
201610060352 METAR KATL 060352Z 09011KT 10SM CLR 19/14 A3016 RMK AO2 SLP208 T01940144=
201610060252 METAR KATL 060252Z 09010KT 10SM CLR 21/14 A3015 RMK AO2 SLP204 T02060139 51018=
201610060152 METAR KATL 060152Z 08011KT 10SM CLR 22/13 A3014 RMK AO2 SLP198 T02170128=
201610060052 METAR KATL 060052Z 07010KT 10SM FEW250 23/12 A3012 RMK AO2 SLP193 T02330117=
201610052352 METAR KATL 052352Z 07008KT 10SM FEW250 24/11 A3010 RMK AO2 SLP186 T02440111 10283 20239 53007=
201610052252 METAR KATL 052252Z 06012KT 10SM CLR 26/11 A3009 RMK AO2 SLP181 T02610106=
201610052152 METAR KATL 052152Z 04014KT 10SM CLR 27/11 A3008 RMK AO2 SLP177 T02720111=
201610052052 METAR KATL 052052Z 06010G17KT 030V110 10SM CLR 28/11 A3008 RMK AO2 SLP176 T02780106 56017=
201610051952 METAR KATL 051952Z 06008G16KT 10SM CLR 27/11 A3008 RMK AO2 SLP178 T02720106=
201610051852 METAR KATL 051852Z 05007KT 10SM CLR 27/11 A3010 RMK AO2 SLP184 T02720106=
201610051752 METAR KATL 051752Z 06011KT 10SM CLR 26/11 A3013 RMK AO2 SLP194 T02610111 10261 20167 58020=
201610051652 METAR KATL 051652Z 06013G23KT 10SM CLR 25/12 A3016 RMK AO2 SLP204 T02500117=
201610051552 METAR KATL 051552Z 08013G21KT 10SM CLR 24/12 A3017 RMK AO2 SLP210 T02390117=
201610051452 METAR KATL 051452Z 08016KT 10SM FEW040 22/13 A3019 RMK AO2 SLP216 T02170128 51008=
201610051352 METAR KATL 051352Z 07017KT 10SM CLR 20/13 A3018 RMK AO2 SLP214 T02000133=
201610051252 METAR KATL 051252Z 07016KT 10SM CLR 18/13 A3018 RMK AO2 SLP213 T01780133=
201610051152 METAR KATL 051152Z 07011KT 10SM CLR 17/13 A3016 RMK AO2 SLP208 T01670133 10194 20167 53017=
201610051052 METAR KATL 051052Z 06011KT 10SM CLR 17/13 A3014 RMK AO2 SLP199 T01670133=
201610050952 METAR KATL 050952Z 07011KT 10SM CLR 17/13 A3013 RMK AO2 SLP193 T01720133=
201610050852 METAR KATL 050852Z 06011KT 10SM CLR 18/13 A3011 RMK AO2 SLP188 T01780133 55000=
201610050752 METAR KATL 050752Z 06009KT 10SM CLR 18/13 A3011 RMK AO2 SLP186 T01830133=
201610050652 METAR KATL 050652Z 08011KT 10SM CLR 18/14 A3011 RMK AO2 SLP188 T01830139=
201610050552 METAR KATL 050552Z 07007KT 10SM FEW250 19/14 A3011 RMK AO2 SLP188 T01940139 10244 20183 51005=
201610050452 METAR KATL 050452Z 08009KT 10SM FEW250 19/14 A3011 RMK AO2 SLP186 T01940139 402890183=
201610050352 METAR KATL 050352Z 09008KT 10SM FEW250 20/14 A3011 RMK AO2 SLP185 T02000139=
201610050252 METAR KATL 050252Z 09010KT 10SM FEW250 22/14 A3010 RMK AO2 SLP183 T02170139 53014=
201610050152 METAR KATL 050152Z 09011KT 10SM FEW250 22/14 A3008 RMK AO2 SLP179 T02220144=
201610050052 METAR KATL 050052Z 09011KT 10SM FEW060 FEW250 23/14 A3007 RMK AO2 SLP174 T02330144=
201610042352 METAR KATL 042352Z 09013KT 10SM FEW060 FEW250 24/14 A3006 RMK AO2 SLP171 T02440144 10289 20244 53008=
201610042252 METAR KATL 042252Z 08016G19KT 10SM FEW060 FEW250 26/14 A3004 RMK AO2 SLP163 T02610139=
201610042152 METAR KATL 042152Z 12004KT 10SM FEW060 28/14 A3003 RMK AO2 SLP160 T02780139=
201610042052 METAR KATL 042052Z 07015G20KT 10SM FEW060 BKN070 29/14 A3003 RMK AO2 SLP160 T02890139 56013=
201610041952 METAR KATL 041952Z 11011G16KT 080V150 10SM FEW055 SCT070 28/13 A3004 RMK AO2 SLP163 T02780133=
201610041852 METAR KATL 041852Z 10014G20KT 10SM BKN060 28/13 A3005 RMK AO2 SLP167 T02780133=
201610041752 METAR KATL 041752Z 08014G19KT 10SM SCT050 28/14 A3007 RMK AO2 SLP172 T02780139 10283 20183 58011=
201610041652 METAR KATL 041652Z 08016G21KT 10SM SCT045 27/14 A3009 RMK AO2 SLP179 T02720144=
201610041552 METAR KATL 041552Z 08012KT 10SM FEW038 FEW050 27/16 A3010 RMK AO2 SLP182 T02670156=
201610041452 METAR KATL 041452Z 11009KT 10SM FEW050 FEW250 24/16 A3010 RMK AO2 SLP185 T02440156 51012=
201610041352 METAR KATL 041352Z 10009KT 10SM FEW050 22/16 A3010 RMK AO2 SLP182 T02220161=
201610041252 METAR KATL 041252Z 09010KT 10SM FEW040 FEW060 19/16 A3008 RMK AO2 SLP179 T01940161=
201610041152 METAR KATL 041152Z 08009KT 10SM FEW040 FEW055 18/16 A3007 RMK AO2 SLP173 T01830161 10217 20183 53015=
201610041052 METAR KATL 041052Z 07007KT 10SM SCT040 BKN055 19/17 A3006 RMK AO2 SLP168 T01890167=
201610040952 METAR KATL 040952Z 09006KT 10SM FEW040 18/17 A3003 RMK AO2 SLP160 T01830167=
201610040852 METAR KATL 040852Z 09006KT 10SM FEW040 19/17 A3002 RMK AO2 SLP157 T01890167 53004=
201610040752 METAR KATL 040752Z 09006KT 10SM FEW060 19/17 A3001 RMK AO2 SLP155 T01940167=
201610040652 METAR KATL 040652Z 11006KT 10SM FEW060 21/17 A3001 RMK AO2 SLP153 T02110167=
201610040552 METAR KATL 040552Z 13005KT 10SM SCT060 22/17 A3001 RMK AO2 SLP152 T02170167 10267 20217 50003=
201610040452 METAR KATL 040452Z 13005KT 10SM SCT060 22/17 A3001 RMK AO2 SLP153 T02220167 402940161=
201610040352 METAR KATL 040352Z 13005KT 10SM FEW050 SCT065 23/17 A3001 RMK AO2 SLP152 T02280167=
201610040252 METAR KATL 040252Z 16004KT 10SM SCT050 BKN065 24/15 A3000 RMK AO2 SLP150 T02390150 51014=
201610040152 METAR KATL 040152Z 33003KT 10SM SCT060 25/13 A2998 RMK AO2 SLP144 T02500133=
201610040052 METAR KATL 040052Z 33005KT 10SM BKN060 26/12 A2997 RMK AO2 SLP141 T02610122=
201610032352 METAR KATL 032352Z 34007KT 10SM FEW065 FEW250 27/12 A2996 RMK AO2 SLP137 T02670122 10294 20256 53004=
201610032252 METAR KATL 032252Z 32009KT 10SM FEW065 FEW250 27/12 A2995 RMK AO2 SLP132 T02720122=
201610032152 METAR KATL 032152Z 12008KT 10SM FEW070 FEW250 29/12 A2994 RMK AO2 SLP130 T02890117=
201610032052 METAR KATL 032052Z 05006KT 10SM FEW070 FEW250 29/12 A2995 RMK AO2 SLP131 T02890117 56017=
201610031952 METAR KATL 031952Z VRB03KT 10SM FEW065 FEW150 SCT200 29/12 A2996 RMK AO2 SLP134 T02940122=
201610031852 METAR KATL 031852Z 00000KT 10SM SCT065 SCT150 29/12 A2997 RMK AO2 SLP139 T02940117=
201610031752 METAR KATL 031752Z 00000KT 10SM FEW055 FEW150 27/12 A3000 RMK AO2 SLP149 T02670122 10283 20161 58014=
201610031652 METAR KATL 031652Z 02007KT 10SM FEW050 FEW150 28/14 A3002 RMK AO2 SLP156 T02780139=
201610031552 METAR KATL 031552Z 08006KT 10SM FEW150 26/13 A3004 RMK AO2 SLP163 T02610133=
201610031452 METAR KATL 031452Z VRB06KT 10SM FEW150 24/14 A3004 RMK AO2 SLP164 T02440139 50003=
201610031352 METAR KATL 031352Z 04004KT 10SM FEW150 22/14 A3004 RMK AO2 SLP166 T02220139=
201610031252 METAR KATL 031252Z 36003KT 10SM FEW180 20/14 A3004 RMK AO2 SLP166 T02000139=
201610031152 METAR KATL 031152Z 32004KT 10SM FEW180 FEW250 16/14 A3003 RMK AO2 SLP163 T01610139 10200 20161 51007=
201610031052 METAR KATL 031052Z 03004KT 10SM FEW180 SCT250 18/13 A3002 RMK AO2 SLP160 T01830133=
201610030952 METAR KATL 030952Z 00000KT 10SM SCT180 BKN250 17/13 A3001 RMK AO2 SLP156 T01720133=
201610030852 METAR KATL 030852Z 00000KT 10SM FEW180 SCT220 BKN250 17/14 A3001 RMK AO2 SLP154 T01720139 56007=
201610030752 METAR KATL 030752Z 00000KT 10SM FEW180 SCT220 BKN250 18/14 A3001 RMK AO2 SLP155 T01780139=
201610030652 METAR KATL 030652Z 31003KT 10SM FEW150 SCT200 BKN250 17/14 A3002 RMK AO2 SLP159 T01720139=
201610030552 METAR KATL 030552Z 01005KT 10SM FEW150 SCT200 BKN250 20/13 A3003 RMK AO2 SLP159 T02000133 10244 20183 57007=
201610030452 METAR KATL 030452Z 33004KT 10SM FEW150 BKN200 BKN250 19/14 A3003 RMK AO2 SLP162 T01940139 402720144=
201610030352 METAR KATL 030352Z 33005KT 10SM FEW150 BKN200 OVC250 19/14 A3004 RMK AO2 SLP166 T01940144=
201610030252 METAR KATL 030252Z 32005KT 10SM FEW150 SCT200 BKN250 21/13 A3005 RMK AO2 SLP168 T02110128 51004=
201610030152 METAR KATL 030152Z 00000KT 10SM FEW150 SCT200 BKN250 23/12 A3005 RMK AO2 SLP167 T02280122=
201610030052 METAR KATL 030052Z 13003KT 10SM FEW150 BKN200 BKN250 23/12 A3005 RMK AO2 SLP169 T02280122=
201610022352 METAR KATL 022352Z 34004KT 10SM FEW150 SCT200 BKN250 24/12 A3004 RMK AO2 SLP166 T02440117 10272 20244 53001=
201610022252 METAR KATL 022252Z 34005KT 10SM FEW060 FEW150 BKN200 BKN250 25/12 A3003 RMK AO2 SLP164 T02500117=
201610022152 METAR KATL 022152Z 07004KT 10SM FEW065 FEW150 SCT200 BKN250 26/11 A3003 RMK AO2 SLP164 ACC S T02610111=
201610022052 METAR KATL 022052Z 34003KT 10SM FEW060 SCT150 BKN200 26/11 A3004 RMK AO2 SLP164 T02610111 56010=
201610021952 METAR KATL 021952Z 28008KT 10SM FEW060 SCT150 BKN240 27/11 A3004 RMK AO2 SLP166 T02670106=
201610021852 METAR KATL 021852Z VRB03KT 10SM FEW055 SCT150 BKN250 26/11 A3005 RMK AO2 SLP168 T02610106=
201610021752 METAR KATL 021752Z 27006KT 10SM FEW055 SCT150 BKN220 27/12 A3007 RMK AO2 SLP173 T02670117 10267 20156 58014=
201610021652 METAR KATL 021652Z 00000KT 10SM FEW050 SCT150 BKN250 26/11 A3008 RMK AO2 SLP180 T02610111=
201610021552 METAR KATL 021552Z 00000KT 10SM SCT150 BKN250 25/12 A3010 RMK AO2 SLP185 T02500122=
201610021452 METAR KATL 021452Z 00000KT 10SM SCT150 BKN240 23/12 A3011 RMK AO2 SLP189 T02330117 51009=
201610021352 METAR KATL 021352Z 31004KT 10SM BKN150 BKN240 21/12 A3011 RMK AO2 SLP189 VIRGA W T02110122=
201610021252 METAR KATL 021252Z 00000KT 10SM SCT150 BKN220 18/14 A3009 RMK AO2 SLP183 T01830139=
201610021152 METAR KATL 021152Z 00000KT 10SM FEW070 SCT150 SCT200 16/12 A3008 RMK AO2 SLP182 T01560122 10178 20144 53007=
201610021052 METAR KATL 021052Z 00000KT 10SM FEW070 SCT200 15/12 A3007 RMK AO2 SLP177 T01500122=
201610020952 METAR KATL 020952Z 31006KT 10SM FEW200 15/12 A3007 RMK AO2 SLP175 T01500122=
201610020852 METAR KATL 020852Z 00000KT 10SM FEW200 17/11 A3006 RMK AO2 SLP173 T01720106 58003=
201610020752 METAR KATL 020752Z 00000KT 10SM FEW065 FEW200 FEW250 16/11 A3007 RMK AO2 SLP177 T01610111=
201610020652 METAR KATL 020652Z 00000KT 10SM FEW065 FEW200 SCT250 17/12 A3007 RMK AO2 SLP176 T01720117=
201610020552 METAR KATL 020552Z 00000KT 10SM FEW060 FEW200 SCT250 17/12 A3007 RMK AO2 SLP176 T01720122 10217 20167 51001=
201610020452 METAR KATL 020452Z 00000KT 10SM FEW060 FEW200 SCT250 17/12 A3007 RMK AO2 SLP176 T01720122 402670128=
201610020352 METAR KATL 020352Z 00000KT 10SM FEW060 SCT250 18/12 A3007 RMK AO2 SLP176 T01830117=
201610020252 METAR KATL 020252Z 00000KT 10SM FEW065 FEW250 19/11 A3007 RMK AO2 SLP175 T01940111 50004=
201610020152 METAR KATL 020152Z 17003KT 10SM FEW065 FEW250 19/12 A3007 RMK AO2 SLP176 T01940117=
201610020052 METAR KATL 020052Z 14003KT 10SM FEW065 FEW250 22/11 A3006 RMK AO2 SLP173 T02170111=
201610012352 METAR KATL 012352Z 00000KT 10SM SCT065 SCT250 22/11 A3005 RMK AO2 SLP173 T02170111 10267 20217 53002=
201610012252 METAR KATL 012252Z 22003KT 10SM FEW065 23/10 A3004 RMK AO2 SLP168 T02330100=
201610012152 METAR KATL 012152Z 32004KT 10SM FEW065 26/10 A3004 RMK AO2 SLP166 T02560100=
201610012052 METAR KATL 012052Z VRB04KT 10SM FEW065 26/10 A3005 RMK AO2 SLP169 T02610100 56011=
201610011952 METAR KATL 011952Z 10SM FEW060 24/10 A3005 RMK AO2 SLP172 T02390100 $=
201610011852 METAR KATL 011852Z 01008KT 10SM FEW065 25/10 A3006 RMK AO2 SLP175 T02500100 $=
201610011752 METAR KATL 011752Z 32003KT 10SM FEW060 24/10 A3008 RMK AO2 SLP181 T02440100 10250 20128 58016 $=
201610011652 METAR KATL 011652Z 32009KT 10SM FEW055 24/10 A3011 RMK AO2 SLP191 T02440100 $=
201610011552 METAR KATL 011552Z 27008KT 10SM FEW045 23/09 A3013 RMK AO2 SLP196 T02330094 $=
201610011519 SPECI KATL 011519Z VRB05KT 10SM FEW002 23/10 A3013 RMK AO2 FU FEW002 S T02280100 $=
201610011452 METAR KATL 011452Z 34005KT 10SM CLR 22/09 A3013 RMK AO2 SLP197 T02170094 51017 $=
201610011352 METAR KATL 011352Z 33004KT 10SM CLR 21/10 A3011 RMK AO2 SLP191 T02060100 $=
201610011252 METAR KATL 011252Z 29003KT 10SM CLR 17/12 A3010 RMK AO2 SLP189 T01720117=
