##########################################################
# Query made at 04/19/2024 23:51:46 UTC
# Time interval: from 12/01/2016 12:00  to 12/31/2016 12:59  UTC
##########################################################

##########################################################
# KATL, Atlanta, Hartsfield - Jackson Atlanta International Airport (United States)
# WMO index: 72219. WIGOS ID: 0-20000-0-72219
# Latitude 33-38-59N. Longitude 084-25-00W. Altitude 312 m.
##########################################################

201612311252 METAR KATL 311252Z 15003KT 10SM FEW060 BKN110 BKN200 04/M06 A3020 RMK AO2 SLP233 T00391061=
201612311152 METAR KATL 311152Z 00000KT 10SM FEW060 BKN120 OVC200 03/M06 A3020 RMK AO2 SLP232 VIRGA ALQDS T00331061 10033 20006 53009=
201612311052 METAR KATL 311052Z 18003KT 10SM FEW060 SCT120 BKN150 OVC220 03/M07 A3017 RMK AO2 SLP223 VIRGA OHD-SW-NW T00281067=
201612310952 METAR KATL 310952Z 19003KT 10SM FEW060 SCT120 BKN180 OVC220 03/M07 A3018 RMK AO2 SLP223 VIRGA OHD-SW-NW T00281072=
201612310852 METAR KATL 310852Z 00000KT 10SM FEW100 SCT200 BKN250 02/M06 A3017 RMK AO2 SLP222 T00221061 56009=
201612310752 METAR KATL 310752Z 23003KT 10SM FEW100 SCT200 BKN250 02/M06 A3017 RMK AO2 SLP223 T00171061=
201612310652 METAR KATL 310652Z 00000KT 10SM FEW100 SCT250 02/M07 A3017 RMK AO2 SLP222 T00171072=
201612310552 METAR KATL 310552Z 00000KT 10SM FEW100 SCT250 03/M09 A3020 RMK AO2 SLP232 T00331089 10072 20028 58003=
201612310452 METAR KATL 310452Z 33003KT 10SM FEW250 04/M09 A3022 RMK AO2 SLP239 T00441094 401060017=
201612310352 METAR KATL 310352Z 24004KT 10SM FEW250 03/M08 A3022 RMK AO2 SLP240 T00281083=
201612310252 METAR KATL 310252Z 25003KT 10SM CLR 04/M08 A3021 RMK AO2 SLP236 T00391078 58001=
201612310152 METAR KATL 310152Z 32006KT 10SM CLR 05/M10 A3022 RMK AO2 SLP239 T00501100=
201612310052 METAR KATL 310052Z 30007KT 10SM CLR 06/M09 A3022 RMK AO2 SLP242 T00561089=
201612302352 METAR KATL 302352Z 30005KT 10SM CLR 07/M11 A3021 RMK AO2 SLP237 T00721111 10106 20067 53010=
201612302252 METAR KATL 302252Z 30010KT 10SM CLR 08/M11 A3020 RMK AO2 SLP231 T00781106=
201612302152 METAR KATL 302152Z 29010KT 10SM CLR 09/M11 A3018 RMK AO2 SLP225 T00941111=
201612302052 METAR KATL 302052Z 28015G18KT 10SM FEW250 10/M11 A3018 RMK AO2 SLP225 T01001106 56010=
201612301952 METAR KATL 301952Z 29015G21KT 10SM FEW250 10/M11 A3019 RMK AO2 SLP226 T01001106=
201612301852 METAR KATL 301852Z 30013KT 10SM FEW250 10/M11 A3020 RMK AO2 SLP229 T01001106=
201612301752 METAR KATL 301752Z 29015G24KT 10SM FEW250 09/M10 A3022 RMK AO2 SLP236 T00941100 10094 20017 58010=
201612301652 METAR KATL 301652Z 31015KT 10SM FEW250 08/M09 A3024 RMK AO2 SLP245 T00831094=
201612301552 METAR KATL 301552Z 32016G22KT 10SM CLR 07/M09 A3025 RMK AO2 SLP250 T00671089=
201612301452 METAR KATL 301452Z 29008KT 10SM FEW250 06/M07 A3025 RMK AO2 SLP248 T00561072 53013=
201612301352 METAR KATL 301352Z 29009KT 10SM FEW200 03/M07 A3023 RMK AO2 SLP243 T00331072=
201612301252 METAR KATL 301252Z 31008KT 10SM FEW200 02/M07 A3022 RMK AO2 SLP238 T00221067 $=
201612301152 METAR KATL 301152Z 32010KT 10SM FEW200 03/M07 A3021 RMK AO2 SLP234 70003 T00281072 10050 20028 53007 $=
201612301052 METAR KATL 301052Z 32012G23KT 10SM FEW200 03/M07 A3019 RMK AO2 SLP229 T00331072=
201612300952 METAR KATL 300952Z 30011KT 10SM FEW200 04/M07 A3018 RMK AO2 SLP225 T00391067=
201612300852 METAR KATL 300852Z 30010KT 10SM FEW200 04/M06 A3019 RMK AO2 SLP225 T00391061 53005=
201612300752 METAR KATL 300752Z 29012KT 10SM FEW200 04/M06 A3018 RMK AO2 SLP222 T00441061=
201612300652 METAR KATL 300652Z 29012KT 10SM FEW200 04/M06 A3017 RMK AO2 SLP218 T00441061=
201612300552 METAR KATL 300552Z 29011KT 10SM CLR 05/M07 A3017 RMK AO2 SLP218 T00501067 10094 20050 50011=
201612300452 METAR KATL 300452Z 31012KT 10SM CLR 06/M07 A3018 RMK AO2 PK WND 34029/0419 SLP220 T00611072 401890061=
201612300352 METAR KATL 300352Z 31019G28KT 10SM CLR 07/M08 A3016 RMK AO2 PK WND 31028/0345 SLP216 T00671083=
201612300252 METAR KATL 300252Z 31011G22KT 10SM CLR 08/M09 A3014 RMK AO2 SLP207 T00781094 51015=
201612300152 METAR KATL 300152Z 29010KT 10SM CLR 08/M10 A3012 RMK AO2 SLP201 T00781100=
201612300052 METAR KATL 300052Z 29011KT 10SM CLR 08/M11 A3011 RMK AO2 SLP195 T00831106=
201612292352 METAR KATL 292352Z 30014KT 10SM FEW250 09/M11 A3009 RMK AO2 SLP188 T00891111 10144 20089 53017=
201612292252 METAR KATL 292252Z 30014G21KT 10SM FEW250 10/M11 A3007 RMK AO2 PK WND 31027/2218 SLP179 T01001111=
201612292152 METAR KATL 292152Z 31017KT 10SM FEW250 12/M07 A3006 RMK AO2 PK WND 32031/2100 SLP175 T01171072=
201612292052 METAR KATL 292052Z 32022G34KT 10SM FEW250 13/M07 A3004 RMK AO2 PK WND 33034/2043 SLP170 T01281067 53004=
201612291952 METAR KATL 291952Z 31021G35KT 10SM FEW250 13/M06 A3002 RMK AO2 PK WND 33037/1903 SLP165 T01281056=
201612291852 METAR KATL 291852Z 29023G29KT 10SM FEW060 FEW200 SCT250 14/M03 A3002 RMK AO2 PK WND 31032/1813 SLP163 T01391033=
201612291752 METAR KATL 291752Z 31018G26KT 10SM FEW050 FEW250 14/01 A3003 RMK AO2 PK WND 31035/1654 SLP165 60003 T01440011 10172 20122 50001=
201612291652 METAR KATL 291652Z 31024G32KT 10SM FEW250 14/M01 A3004 RMK AO2 PK WND 32032/1650 SLP172 T01391006=
201612291552 METAR KATL 291552Z 33018G28KT 10SM FEW150 FEW250 13/02 A3005 RMK AO2 PK WND 32029/1513 SLP172 T01330022=
201612291452 METAR KATL 291452Z 33019G25KT 10SM FEW040 SCT150 BKN250 12/04 A3003 RMK AO2 PK WND 33032/1401 SLP165 60003 T01220039 53038=
201612291352 METAR KATL 291352Z 34016G24KT 10SM FEW020 SCT050 BKN200 14/08 A2999 RMK AO2 PK WND 33032/1337 PRESRR SLP151 T01440083=
201612291346 SPECI KATL 291346Z 33018G32KT 290V350 10SM SCT020 BKN050 BKN200 15/11 A2998 RMK AO2 PK WND 33032/1337 PRESRR=
201612291309 SPECI KATL 291309Z 31012KT 10SM SCT014 BKN024 OVC075 16/14 A2995 RMK AO2 T01610144=
201612291252 METAR KATL 291252Z 30013KT 10SM SCT018 BKN030 OVC080 17/14 A2994 RMK AO2 RAE21 SLP134 P0003 T01670144=
201612291220 SPECI KATL 291220Z 30013G19KT 10SM -RA BKN024 BKN050 OVC090 17/16 A2992 RMK AO2 P0003 T01670156=
201612291152 METAR KATL 291152Z 31013KT 5SM RA BR SCT012 BKN030 OVC070 17/16 A2991 RMK AO2 WSHFT 1128 RAB33 SLP125 P0001 60061 70061 T01720161 10189 20167 53004=
201612291147 SPECI KATL 291147Z 31011KT 8SM -RA SCT012 BKN022 OVC060 18/17 A2991 RMK AO2 WSHFT 1128 RAB33 P0000=
201612291052 METAR KATL 291052Z 25007KT 10SM BKN016 BKN033 OVC080 18/18 A2989 RMK AO2 RAE12 TSE03 SLP119 P0002 T01830178=
201612291013 SPECI KATL 291013Z 26010KT 10SM FEW008 BKN025 OVC038 18/17 A2990 RMK AO2 RAE12 TSE03 TS MOVD E P0002 T01830172=
201612291004 SPECI KATL 291004Z 27008KT 10SM -RA BKN012 OVC030 18/17 A2990 RMK AO2 TSE03 TS MOVD E OCNL LTGIC DSNT E-S-SW CB DSNT E-S-SW P0002 T01830172=
201612290952 METAR KATL 290952Z 27014G22KT 8SM R09R/3500VP6000FT -TSRA BKN010 BKN036CB OVC100 18/18 A2990 RMK AO2 PK WND 23027/0940 SLP118 TSB34 VIS E-S 3 OCNL LTGICCA NE-SE-SW TS NE-SE-SW MOV E FROPA P0056 T01830178=
201612290949 SPECI KATL 290949Z 26011G27KT 3SM R09R/3500VP6000FT +TSRA BR BKN010 BKN036CB OVC100 18/18 A2989 RMK AO2 PK WND 23027/0940 TSB34 VIS E-S 1 OCNL LTGICCA NE-SE-SW TS NE-SE-SW MOV E FROPA P0055=
201612290936 SPECI KATL 290936Z 23015G21KT 1SM R09R/P6000FT TSRA BR BKN012 OVC036CB 18/18 A2988 RMK AO2 TSB34 OCNL LTGICCA NE-OHD-SW TS NE-OHD-SW MOV E P0003 T01830178=
201612290933 SPECI KATL 290933Z 23013G20KT 1SM R09R/P6000FT +RA BR BKN012 OVC036CB 18/18 A2988 RMK AO2 CB NE-OHD-SW MOV E P0001 T01830178=
201612290852 METAR KATL 290852Z 23012G24KT 5SM -RA BR BKN012 BKN038 OVC100 18/18 A2988 RMK AO2 RAB28 SLP114 CIG 010V014 P0001 60002 T01830178 56030=
201612290803 SPECI KATL 290803Z 23010G18KT 10SM BKN010 BKN018 OVC038 18/17 A2992 RMK AO2 CIG 008V012 T01830172=
201612290752 METAR KATL 290752Z 23014G17KT 9SM BKN008 OVC015 18/17 A2992 RMK AO2 SLP126 CIG 006V010 T01830172=
201612290652 METAR KATL 290652Z 22011KT 8SM BKN007 OVC015 18/17 A2994 RMK AO2 RAB0554E39 SLP135 CIG 005V009 P0001 T01780172=
201612290552 METAR KATL 290552Z 21009KT 10SM OVC007 17/16 A2998 RMK AO2 SLP147 CIG 006V009 T01720156 10172 20150 56021=
201612290540 SPECI KATL 290540Z 22008KT 10SM OVC007 17/16 A2998 RMK AO2 T01670156=
201612290518 SPECI KATL 290518Z 20009KT 10SM SCT008 BKN013 BKN020 17/15 A2998 RMK AO2 T01670150=
201612290452 METAR KATL 290452Z 20010KT 10SM BKN015 OVC022 17/14 A2999 RMK AO2 SLP155 BINOVC T01670144 401940083=
201612290352 METAR KATL 290352Z 19008KT 10SM OVC016 16/13 A3002 RMK AO2 SLP165 BINOVC T01610133=
201612290317 SPECI KATL 290317Z 20009KT 10SM BKN014 BKN040 BKN200 16/13 A3004 RMK AO2 T01610128=
201612290300 SPECI KATL 290300Z 20008KT 10SM SCT014 BKN040 BKN080 BKN200 16/13 A3004 RMK AO2 T01610128=
201612290252 METAR KATL 290252Z 21009KT 10SM BKN014 BKN070 OVC200 16/13 A3004 RMK AO2 SLP172 T01610133 58005=
201612290206 SPECI KATL 290206Z 20005KT 10SM BKN014 BKN070 OVC200 16/12 A3005 RMK AO2 T01560122=
201612290152 METAR KATL 290152Z 20004KT 10SM FEW015 SCT070 OVC200 15/12 A3005 RMK AO2 SLP176 T01500122=
201612290052 METAR KATL 290052Z 22004KT 10SM FEW015 BKN200 OVC250 16/11 A3007 RMK AO2 SLP181 T01560106=
201612282352 METAR KATL 282352Z 17006KT 10SM FEW150 BKN200 OVC250 16/08 A3006 RMK AO2 SLP179 T01610078 10194 20156 58009=
201612282252 METAR KATL 282252Z 19005KT 10SM FEW150 BKN200 OVC250 16/07 A3008 RMK AO2 SLP185 T01610072=
201612282152 METAR KATL 282152Z 16004KT 10SM FEW060 SCT150 BKN250 18/06 A3008 RMK AO2 SLP185 T01780061=
201612282052 METAR KATL 282052Z 00000KT 10SM FEW060 FEW150 BKN250 18/05 A3009 RMK AO2 SLP186 T01830050 56023=
201612281952 METAR KATL 281952Z 27004KT 10SM FEW060 SCT150 BKN250 18/04 A3011 RMK AO2 SLP193 T01830044=
201612281852 METAR KATL 281852Z 00000KT 10SM FEW065 SCT150 BKN250 17/04 A3013 RMK AO2 SLP202 T01720039=
201612281752 METAR KATL 281752Z 30004KT 10SM FEW060 SCT150 BKN250 17/03 A3016 RMK AO2 SLP210 T01670033 10167 20083 58012=
201612281652 METAR KATL 281652Z 33004KT 10SM FEW060 BKN150 BKN230 14/02 A3018 RMK AO2 SLP217 T01440022=
201612281552 METAR KATL 281552Z 31003KT 10SM FEW060 SCT150 BKN250 12/04 A3019 RMK AO2 SLP221 VIRGA DSNT S T01170044 $=
201612281452 METAR KATL 281452Z 29004KT 10SM FEW150 BKN200 BKN250 10/05 A3019 RMK AO2 SLP224 VIRGA NE-SE & SW-NW T01000050 53012 $=
201612281352 METAR KATL 281352Z 31007KT 10SM SCT170 BKN200 BKN250 09/05 A3018 RMK AO2 SLP220 VIRGA NE-E T00890050=
201612281252 METAR KATL 281252Z 30003KT 10SM BKN200 BKN250 09/06 A3017 RMK AO2 SLP215 T00890056 $=
201612281152 METAR KATL 281152Z 31007KT 10SM BKN200 OVC250 09/06 A3016 RMK AO2 SLP210 T00890061 10139 20089 55002=
201612281052 METAR KATL 281052Z 30007KT 10SM BKN200 OVC250 09/07 A3015 RMK AO2 SLP209 T00940072 $=
201612280952 METAR KATL 280952Z 29005KT 10SM BKN200 BKN250 11/09 A3016 RMK AO2 SLP209 T01060094 $=
201612280852 METAR KATL 280852Z 32006KT 10SM FEW008 BKN200 BKN250 11/10 A3016 RMK AO2 SLP211 T01110100 53003 $=
201612280752 METAR KATL 280752Z 32006KT 10SM FEW009 FEW200 SCT250 12/11 A3015 RMK AO2 SLP208 T01170111 $=
201612280652 METAR KATL 280652Z 31006KT 10SM FEW010 SCT250 13/12 A3015 RMK AO2 SLP206 T01280117 $=
201612280552 METAR KATL 280552Z 29003KT 10SM FEW010 SCT250 14/12 A3015 RMK AO2 SLP207 60000 T01390117 10194 20139 58008 $=
201612280452 METAR KATL 280452Z 29005KT 10SM FEW030 BKN250 15/12 A3017 RMK AO2 SLP213 T01500122 402220128 $=
201612280352 METAR KATL 280352Z 32007KT 10SM BKN030 BKN250 17/13 A3018 RMK AO2 SLP216 T01670128 $=
201612280252 METAR KATL 280252Z 31009KT 10SM FEW013 SCT030 BKN040 BKN250 17/13 A3018 RMK AO2 SLP215 60000 T01720133 53008=
201612280152 METAR KATL 280152Z 31010KT 10SM FEW013 BKN032 BKN055 18/16 A3017 RMK AO2 SLP212 T01780156=
201612280130 SPECI KATL 280130Z 33009KT 10SM FEW013 BKN040 BKN055 18/16 A3016 RMK AO2 T01830161=
201612280052 METAR KATL 280052Z 31009KT 10SM FEW012 BKN017 OVC030 18/16 A3016 RMK AO2 RAB28E38 SLP209 BINOVC P0000 T01830161=
201612280025 SPECI KATL 280025Z 31006KT 10SM SCT017 BKN024 BKN055 19/17 A3016 RMK AO2 T01890167=
201612272352 METAR KATL 272352Z 31009KT 10SM SCT018 BKN030 BKN055 19/17 A3015 RMK AO2 SLP208 60000 T01940167 10222 20194 53005=
201612272252 METAR KATL 272252Z 28005KT 10SM FEW020 SCT030 BKN050 20/17 A3014 RMK AO2 SLP204 T02000172=
201612272152 METAR KATL 272152Z 28007KT 10SM FEW020 BKN030 BKN040 21/17 A3014 RMK AO2 RAB2058E07 SLP202 P0000 T02110172=
201612272052 METAR KATL 272052Z 26005KT 10SM SCT020 BKN030 BKN040 21/17 A3014 RMK AO2 RAB12E22 SLP202 P0000 60000 T02110167 56016=
201612271955 SPECI KATL 271955Z 24008KT 10SM FEW025 BKN030 BKN040 22/17 A3014 RMK AO2 T02170167=
201612271952 METAR KATL 271952Z 26010KT 10SM BKN024 BKN040 22/17 A3014 RMK AO2 SLP203 T02170167=
201612271852 METAR KATL 271852Z 23010KT 10SM OVC024 21/16 A3016 RMK AO2 SLP208 T02110161=
201612271752 METAR KATL 271752Z 24011G21KT 10SM BKN022 BKN150 BKN250 22/16 A3019 RMK AO2 SLP218 T02170161 10217 20133 58019=
201612271652 METAR KATL 271652Z 24010KT 10SM BKN017 BKN022 20/16 A3023 RMK AO2 SLP233 T02000161=
201612271552 METAR KATL 271552Z 24012G20KT 10SM BKN015 BKN020 19/17 A3025 RMK AO2 SLP242 T01890167=
201612271504 SPECI KATL 271504Z 24006KT 6SM BR FEW004 BKN009 BKN015 17/17 A3025 RMK AO2 T01720172=
201612271452 METAR KATL 271452Z 22008KT 6SM BR FEW002 SCT007 SCT015 17/17 A3024 RMK AO2 SLP239 T01670167 58005=
201612271448 SPECI KATL 271448Z 21009KT 2SM BR BCFG BKN005 BKN015 17/17 A3024 RMK AO2 SFC VIS 4=
201612271424 SPECI KATL 271424Z 22007KT 1/8SM R09R/4000VP6000FT BR OVC003 16/16 A3025 RMK AO2 SFC VIS 2 TWRINC T01610161=
201612271352 METAR KATL 271352Z 21004KT 1/8SM R09R/2600V3000FT FG OVC003 14/14 A3026 RMK AO2 SFC VIS 1/2 SLP246 VIS W-N 1 1/2 CIG 002V004 T01440144=
201612271252 METAR KATL 271252Z 00000KT 1/8SM R09R/3000V3500FT BR VV003 14/14 A3027 RMK AO2 SFC VIS 3/4 SLP249 VIS W-N 1 3/4 T01390139=
201612271152 METAR KATL 271152Z 00000KT 1/8SM R09R/4500V6000FT BR VV003 13/13 A3026 RMK AO2 SFC VIS 1 SLP246 60001 70001 T01330133 10133 20128 55011=
201612271052 METAR KATL 271052Z 00000KT 1/8SM R09R/4000V6000FT BR VV003 13/13 A3025 RMK AO2 SFC VIS 3/4 SLP244 T01330133=
201612270952 METAR KATL 270952Z 08003KT 1/8SM R09R/2400V2800FT FG VV002 13/13 A3028 RMK AO2 SFC VIS 1/4 SLP251 T01330133=
201612270852 METAR KATL 270852Z 07003KT 1/8SM R09R/2400V2800FT FG VV002 13/13 A3029 RMK AO2 SFC VIS 1/2 DZE17 SLP257 P0001 60001 T01330133 56012=
201612270752 METAR KATL 270752Z 13003KT 1/8SM R09R/3500FT -DZ FG VV002 13/13 A3030 RMK AO2 SFC VIS 1/2 SLP260 P0000 T01330133=
201612270652 METAR KATL 270652Z 15005KT 1/8SM R09R/2200V2600FT -DZ FG VV002 13/13 A3030 RMK AO2 SFC VIS 1/2 SLP261 P0000 T01280128=
201612270552 METAR KATL 270552Z 13005KT 1/8SM R09R/2200V2400FT -DZ FG VV002 13/13 A3033 RMK AO2 SFC VIS 1/2 SLP269 P0000 60000 T01280128 10133 20128 58017=
201612270452 METAR KATL 270452Z 11006KT 1/8SM R09R/3000V3500FT -DZ BR VV002 13/13 A3035 RMK AO2 SFC VIS 3/4 SLP277 P0000 T01280128 401610128=
201612270352 METAR KATL 270352Z 08007KT 1/8SM R09R/4000VP6000FT -DZ BR VV002 13/13 A3038 RMK AO2 SFC VIS 3/4 SLP287 P0000 T01330133=
201612270252 METAR KATL 270252Z 10005KT 1/8SM R09R/3500V4000FT -DZ FG VV002 13/13 A3038 RMK AO2 SFC VIS 1/2 SLP287 P0000 60000 T01330133 53001=
201612270152 METAR KATL 270152Z 09007KT 1/8SM R09R/2600V5500FT -DZ FG VV002 13/13 A3038 RMK AO2 SFC VIS 1/4 DZB47 SLP288 P0000 T01330133=
201612270052 METAR KATL 270052Z 11010KT 1/8SM R09R/3500VP6000FT BR VV002 13/13 A3037 RMK AO2 SFC VIS 3/4 DZE48 SLP282 P0000 T01330133=
201612262352 METAR KATL 262352Z 09009KT 1/8SM R09R/P6000FT -DZ BR OVC002 13/13 A3038 RMK AO2 SFC VIS 1 SLP285 TWRINC P0000 60000 T01330133 10144 20133 56002=
201612262252 METAR KATL 262252Z 10008KT 1/8SM R09R/3000V4000FT -DZ BR VV002 13/13 A3038 RMK AO2 SFC VIS 3/4 DZB2155 SLP285 P0000 T01330133=
201612262152 METAR KATL 262152Z 08009KT 1/8SM R09R/2200V3000FT FG VV002 14/14 A3038 RMK AO2 SFC VIS 1/4 SLP285 T01390139=
201612262052 METAR KATL 262052Z 11006KT 1/8SM R09R/4500VP6000FT BR OVC002 14/14 A3038 RMK AO2 SFC VIS 3/4 RAB14E23 SLP287 P0000 60000 T01440139 56016=
201612261952 METAR KATL 261952Z 09006KT 1/8SM R09R/P6000FT FG OVC003 14/14 A3039 RMK AO2 SFC VIS 1/2 SLP289 T01440139=
201612261925 SPECI KATL 261925Z 10007KT 1/8SM R09R/P6000FT BR OVC003 14/14 A3039 RMK AO2 SFC VIS 3/4 T01440139=
201612261852 METAR KATL 261852Z 09007KT 3/4SM R09R/P6000FT BR OVC003 14/14 A3040 RMK AO2 SFC VIS 2 RAB1758E08 SLP294 TWRINC P0000 T01440139=
201612261814 SPECI KATL 261814Z 10008KT 3/4SM R09R/P6000FT BR OVC004 14/13 A3042 RMK AO2 SFC VIS 2 RAB1758E08 TWRINC P0000 T01440133=
201612261752 METAR KATL 261752Z 11006KT 1SM R09R/P6000FT BR OVC004 14/13 A3043 RMK AO2 SFC VIS 3 SLP303 60000 T01440133 10150 20139 58014=
201612261745 SPECI KATL 261745Z 10008KT 1SM R09R/P6000FT BR OVC004 14/13 A3043 RMK AO2 SFC VIS 3 T01440133=
201612261726 SPECI KATL 261726Z 10008KT 2 1/2SM OVC004 14/13 A3044 RMK AO2 SFC VIS 10 T01440133=
201612261652 METAR KATL 261652Z 12007KT 7SM OVC007 14/13 A3045 RMK AO2 DZE05 SLP311 P0000 T01440133=
201612261645 SPECI KATL 261645Z 11010KT 7SM OVC007 14/13 A3046 RMK AO2 DZE05 P0000 T01440133=
201612261552 METAR KATL 261552Z 10010KT 2SM -DZ BR OVC005 14/13 A3047 RMK AO2 SFC VIS 3 DZB43 SLP316 P0000 T01390133=
201612261546 SPECI KATL 261546Z 11008KT 2SM -DZ BR OVC006 14/13 A3047 RMK AO2 SFC VIS 3 DZB43 P0000=
201612261500 SPECI KATL 261500Z AUTO 10007KT 7SM BKN008 OVC013 14/13 A3047 RMK AO2 T01440133=
201612261452 METAR KATL 261452Z 11008KT 7SM BKN010 OVC014 14/13 A3046 RMK AO2 RAB04E14 SLP314 P0000 60000 T01440133 52011=
201612261411 SPECI KATL 261411Z 10012KT 6SM -RA BR BKN010 OVC013 14/13 A3045 RMK AO2 RAB04 P0000 T01440133=
201612261352 METAR KATL 261352Z 09009KT 8SM SCT009 OVC015 14/13 A3045 RMK AO2 RAE17 SLP309 P0000 T01440133=
201612261348 SPECI KATL 261348Z 09008KT 8SM SCT009 OVC015 14/13 A3045 RMK AO2 RAE17 P0000=
201612261252 METAR KATL 261252Z 09008KT 7SM -RA OVC016 14/13 A3044 RMK AO2 RAB47 SLP307 P0000 T01440128=
201612261158 SPECI KATL 261158Z 07009KT 040V100 10SM BKN015 OVC023 15/12 A3043 RMK AO2 T01500122=
201612261152 METAR KATL 261152Z 08009KT 10SM BKN014 OVC023 15/12 A3043 RMK AO2 SLP301 T01500122 10156 20150 53007=
201612261132 SPECI KATL 261132Z 08009KT 10SM BKN014 OVC023 15/12 A3042 RMK AO2 T01500122=
201612261052 METAR KATL 261052Z 08009KT 10SM OVC022 15/13 A3041 RMK AO2 SLP295 T01500128=
201612260952 METAR KATL 260952Z 08010KT 10SM BKN028 OVC055 15/13 A3041 RMK AO2 SLP292 T01500128=
201612260858 SPECI KATL 260858Z 10005KT 10SM BKN029 OVC038 16/13 A3041 RMK AO2 T01560128=
201612260852 METAR KATL 260852Z 09007KT 10SM OVC031 16/13 A3041 RMK AO2 SLP293 T01560128 53007=
201612260752 METAR KATL 260752Z 11005KT 10SM SCT033 BKN048 16/13 A3040 RMK AO2 SLP289 T01560133=
201612260652 METAR KATL 260652Z 10005KT 10SM BKN047 16/13 A3039 RMK AO2 SLP287 T01560133=
201612260552 METAR KATL 260552Z 13004KT 10SM FEW060 SCT250 16/13 A3039 RMK AO2 SLP285 T01560128 10200 20156 55001=
201612260452 METAR KATL 260452Z 13005KT 10SM FEW250 17/13 A3038 RMK AO2 SLP283 T01670128 402330106=
201612260352 METAR KATL 260352Z 11008KT 10SM FEW250 17/13 A3039 RMK AO2 SLP287 T01720133=
201612260252 METAR KATL 260252Z 12006KT 10SM FEW250 18/14 A3039 RMK AO2 SLP287 T01780139 51012=
201612260152 METAR KATL 260152Z 12006KT 10SM FEW250 18/14 A3038 RMK AO2 SLP286 T01830144=
201612260052 METAR KATL 260052Z 12006KT 10SM FEW060 FEW250 19/14 A3037 RMK AO2 SLP280 T01890144=
201612252352 METAR KATL 252352Z 12005KT 10SM FEW060 FEW250 20/14 A3035 RMK AO2 SLP275 T02000144 10233 20200 53012=
201612252252 METAR KATL 252252Z 12005KT 10SM FEW036 FEW060 SCT250 21/14 A3033 RMK AO2 SLP269 T02110144=
201612252152 METAR KATL 252152Z 12008KT 10SM FEW038 SCT055 23/14 A3032 RMK AO2 SLP264 T02280144=
201612252052 METAR KATL 252052Z 13004KT 10SM SCT040 BKN050 22/14 A3032 RMK AO2 SLP263 T02220144 55007=
201612251952 METAR KATL 251952Z 14005KT 10SM SCT030 BKN050 23/14 A3031 RMK AO2 SLP260 T02280144=
201612251852 METAR KATL 251852Z 13004KT 10SM SCT030 BKN040 22/15 A3032 RMK AO2 SLP264 T02220150=
201612251752 METAR KATL 251752Z 15007KT 10SM SCT030 22/15 A3034 RMK AO2 SLP269 T02220150 10222 20128 58014=
201612251652 METAR KATL 251652Z VRB05KT 10SM FEW040 22/15 A3037 RMK AO2 SLP279 T02170150=
201612251552 METAR KATL 251552Z 14004KT 8SM BKN038 17/14 A3038 RMK AO2 SLP286 T01720139=
201612251452 METAR KATL 251452Z 00000KT 8SM OVC038 16/13 A3038 RMK AO2 SLP285 VIRGA NE-E BINOVC T01560133 53015=
201612251352 METAR KATL 251352Z 00000KT 9SM BKN037 14/12 A3036 RMK AO2 SLP279 T01440122=
201612251252 METAR KATL 251252Z 00000KT 10SM BKN037 13/12 A3035 RMK AO2 SLP274 T01280117=
201612251152 METAR KATL 251152Z 00000KT 8SM FEW026 OVC036 13/11 A3034 RMK AO2 SLP271 T01280111 10133 20106 53008=
201612251052 METAR KATL 251052Z 04004KT 10SM SCT026 BKN035 12/12 A3032 RMK AO2 SLP266 T01220117=
201612250952 METAR KATL 250952Z 00000KT 10SM SCT024 12/11 A3032 RMK AO2 SLP263 T01220106=
201612250852 METAR KATL 250852Z 04003KT 10SM FEW035 11/10 A3031 RMK AO2 SLP262 T01110100 51005=
201612250752 METAR KATL 250752Z 00000KT 10SM CLR 12/11 A3031 RMK AO2 SLP260 T01220106=
201612250652 METAR KATL 250652Z 00000KT 10SM CLR 13/12 A3030 RMK AO2 SLP257 T01330117=
201612250552 METAR KATL 250552Z 00000KT 10SM CLR 12/11 A3030 RMK AO2 SLP258 T01170106 10178 20117 50004=
201612250452 METAR KATL 250452Z 00000KT 10SM CLR 14/11 A3030 RMK AO2 SLP259 T01390111 402280078=
201612250352 METAR KATL 250352Z 11003KT 10SM CLR 15/12 A3030 RMK AO2 SLP259 T01500117=
201612250252 METAR KATL 250252Z 00000KT 10SM CLR 16/12 A3029 RMK AO2 SLP255 T01610117 51004=
201612250152 METAR KATL 250152Z 17003KT 10SM CLR 16/12 A3028 RMK AO2 SLP255 T01560117=
201612250052 METAR KATL 250052Z 21004KT 10SM CLR 16/12 A3028 RMK AO2 SLP253 T01560117=
201612242352 METAR KATL 242352Z 19003KT 10SM FEW060 18/12 A3027 RMK AO2 SLP250 T01780117 10228 20178 53004=
201612242252 METAR KATL 242252Z 20003KT 10SM BKN060 BKN250 19/12 A3027 RMK AO2 SLP247 T01940117=
201612242152 METAR KATL 242152Z 23004KT 10SM BKN060 BKN250 21/12 A3026 RMK AO2 SLP246 T02110117=
201612242052 METAR KATL 242052Z VRB06KT 10SM BKN060 BKN250 22/12 A3026 RMK AO2 SLP244 T02220117 55009=
201612241952 METAR KATL 241952Z 27008KT 10SM FEW050 SCT120 BKN250 23/12 A3025 RMK AO2 SLP242 T02280117=
201612241852 METAR KATL 241852Z 27006KT 10SM SCT050 BKN120 21/11 A3027 RMK AO2 SLP248 T02110111=
201612241752 METAR KATL 241752Z 20009KT 10SM SCT050 BKN120 19/11 A3029 RMK AO2 SLP254 T01890106 10194 20100 58015=
201612241652 METAR KATL 241652Z 23004KT 10SM FEW015 SCT055 BKN080 18/11 A3032 RMK AO2 SLP265 T01780106=
201612241552 METAR KATL 241552Z 22005KT 10SM SCT008 BKN050 14/11 A3033 RMK AO2 SLP271 T01390106=
201612241505 SPECI KATL 241505Z 16005KT 7SM SCT007 BKN045 12/09 A3033 RMK AO2 T01170094=
201612241452 METAR KATL 241452Z 17005KT 3SM BR BKN007 OVC040 12/09 A3033 RMK AO2 SFC VIS 6 SLP271 T01170094 51014=
201612241352 METAR KATL 241352Z 15003KT 3SM BR BKN007 OVC035 10/08 A3032 RMK AO2 SFC VIS 5 SLP267 CIG 006V009 T01000083=
201612241335 SPECI KATL 241335Z 15004KT 3SM BR OVC007 10/08 A3032 RMK AO2 SFC VIS 5 CIG 006V009 T01000083=
201612241252 METAR KATL 241252Z 14003KT 7SM OVC008 10/07 A3031 RMK AO2 SLP265 CIG 007V009 T01000072=
201612241152 METAR KATL 241152Z 13005KT 10SM BKN009 OVC035 10/06 A3029 RMK AO2 SLP257 T01000056 10106 20078 53001=
201612241110 SPECI KATL 241110Z 00000KT 10SM BKN009 OVC035 10/05 A3029 RMK AO2 T01000050=
201612241052 METAR KATL 241052Z 13004KT 10SM SCT011 OVC034 10/04 A3028 RMK AO2 SLP254 T01000044=
201612241050 SPECI KATL 241050Z 14005KT 10SM SCT011 OVC034 10/04 A3028 RMK AO2=
201612240952 METAR KATL 240952Z 09008KT 10SM BKN012 OVC050 10/04 A3028 RMK AO2 SLP254 T01000039=
201612240857 SPECI KATL 240857Z 08005KT 10SM OVC014 09/03 A3029 RMK AO2 T00940033=
201612240852 METAR KATL 240852Z 08006KT 10SM BKN016 BKN050 09/03 A3029 RMK AO2 SLP256 T00940033 56005=
201612240758 SPECI KATL 240758Z 09005KT 10SM BKN022 BKN050 09/03 A3029 RMK AO2 T00940033=
201612240752 METAR KATL 240752Z 09006KT 10SM SCT022 BKN050 09/03 A3029 RMK AO2 SLP257 T00890033=
201612240652 METAR KATL 240652Z 08006KT 10SM FEW050 SCT250 09/03 A3030 RMK AO2 SLP259 T00890028=
201612240552 METAR KATL 240552Z 10006KT 10SM FEW050 BKN250 11/03 A3030 RMK AO2 SLP261 T01060028 10139 20106 58013=
201612240452 METAR KATL 240452Z 11008KT 10SM BKN050 BKN250 11/02 A3031 RMK AO2 SLP265 T01110022 401670050=
201612240352 METAR KATL 240352Z 11009KT 10SM OVC050 12/02 A3033 RMK AO2 SLP272 T01220022=
201612240252 METAR KATL 240252Z 11010KT 10SM OVC050 13/02 A3034 RMK AO2 SLP275 T01280017 51005=
201612240152 METAR KATL 240152Z 11008KT 10SM OVC050 13/02 A3034 RMK AO2 SLP275 T01280017=
201612240052 METAR KATL 240052Z 11010KT 10SM OVC050 13/02 A3033 RMK AO2 SLP273 T01330017=
201612232352 METAR KATL 232352Z 11008KT 10SM OVC050 14/02 A3032 RMK AO2 SLP271 T01390017 10167 20139 51003=
201612232252 METAR KATL 232252Z 12008KT 10SM FEW050 BKN250 14/02 A3032 RMK AO2 SLP268 T01440022=
201612232152 METAR KATL 232152Z 14007KT 10SM FEW050 SCT250 BKN300 16/01 A3032 RMK AO2 SLP269 T01560011=
201612232052 METAR KATL 232052Z 13005KT 10SM SCT250 16/01 A3032 RMK AO2 SLP267 T01610006 55009=
201612231952 METAR KATL 231952Z 11008KT 10SM FEW250 17/00 A3030 RMK AO2 SLP263 T01670000=
201612231852 METAR KATL 231852Z 13008KT 10SM FEW150 FEW250 16/M01 A3032 RMK AO2 SLP268 T01611006=
201612231752 METAR KATL 231752Z 12007G15KT 10SM FEW050 FEW150 SCT250 14/M02 A3034 RMK AO2 SLP277 T01441017 10144 20050 58018=
201612231652 METAR KATL 231652Z 10010KT 10SM FEW050 FEW250 13/M03 A3040 RMK AO2 SLP295 T01281028=
201612231552 METAR KATL 231552Z 09009KT 10SM FEW250 12/M03 A3041 RMK AO2 SLP301 T01171028=
201612231452 METAR KATL 231452Z 10011KT 10SM FEW250 09/M03 A3040 RMK AO2 SLP296 T00941028 51014=
201612231352 METAR KATL 231352Z 09011KT 10SM FEW180 FEW250 08/M02 A3038 RMK AO2 SLP292 T00781022=
201612231252 METAR KATL 231252Z 09008KT 10SM FEW180 SCT250 05/M02 A3038 RMK AO2 SLP290 T00501017=
201612231152 METAR KATL 231152Z 09007KT 10SM FEW180 FEW250 05/M02 A3035 RMK AO2 SLP281 T00501017 10083 20050 53014=
201612231052 METAR KATL 231052Z 08006KT 10SM FEW180 SCT250 06/M02 A3032 RMK AO2 SLP269 T00611022=
201612230952 METAR KATL 230952Z 09006KT 10SM FEW140 SCT180 SCT250 07/M02 A3030 RMK AO2 SLP261 T00721017=
201612230852 METAR KATL 230852Z 02004KT 10SM BKN150 BKN200 BKN250 07/00 A3031 RMK AO2 SLP265 T00720000 53007=
201612230752 METAR KATL 230752Z 00000KT 10SM FEW140 BKN180 OVC250 07/M01 A3030 RMK AO2 SLP261 T00671006=
201612230652 METAR KATL 230652Z 35005KT 10SM SCT150 BKN250 07/M01 A3029 RMK AO2 SLP258 T00721011=
201612230552 METAR KATL 230552Z 34007KT 10SM FEW150 BKN250 08/M02 A3029 RMK AO2 SLP258 T00781017 10139 20072 50002=
201612230452 METAR KATL 230452Z 33006KT 10SM BKN250 08/M02 A3030 RMK AO2 SLP260 T00781017 401890078=
201612230352 METAR KATL 230352Z 35009KT 10SM BKN250 09/M02 A3029 RMK AO2 SLP257 T00941017=
201612230252 METAR KATL 230252Z 33007KT 10SM FEW250 09/M01 A3029 RMK AO2 SLP257 T00941006 51012=
201612230152 METAR KATL 230152Z 34009G17KT 10SM FEW250 12/00 A3028 RMK AO2 SLP256 T01170000=
201612230052 METAR KATL 230052Z 34008KT 10SM CLR 13/01 A3027 RMK AO2 SLP250 T01280006=
201612222352 METAR KATL 222352Z 35007KT 10SM CLR 14/02 A3025 RMK AO2 SLP243 T01390017 10189 20133 53021=
201612222252 METAR KATL 222252Z 34008KT 10SM FEW250 15/02 A3023 RMK AO2 SLP235 T01500022=
201612222152 METAR KATL 222152Z 32010KT 10SM FEW250 17/03 A3020 RMK AO2 SLP226 T01670033=
201612222052 METAR KATL 222052Z 32010KT 10SM SCT250 18/03 A3019 RMK AO2 SLP220 T01830033 56006=
201612221952 METAR KATL 221952Z 33013KT 10SM FEW250 19/03 A3019 RMK AO2 SLP221 T01890033=
201612221852 METAR KATL 221852Z 31013KT 10SM FEW250 18/02 A3019 RMK AO2 SLP221 T01830022=
201612221752 METAR KATL 221752Z 29010KT 10SM FEW250 17/01 A3020 RMK AO2 SLP226 T01720006 10172 20111 58012=
201612221652 METAR KATL 221652Z 34013KT 10SM FEW050 FEW250 16/01 A3022 RMK AO2 SLP234 T01610006=
201612221552 METAR KATL 221552Z 31009KT 10SM FEW045 SCT055 SCT250 14/04 A3024 RMK AO2 SLP240 T01440039=
201612221452 METAR KATL 221452Z 28011KT 10SM FEW060 SCT080 SCT250 13/04 A3024 RMK AO2 SLP239 T01330044 53008=
201612221352 METAR KATL 221352Z 27006KT 10SM BKN046 BKN250 12/06 A3023 RMK AO2 SLP239 T01170056=
201612221252 METAR KATL 221252Z 25004KT 10SM BKN050 BKN250 11/06 A3022 RMK AO2 SLP235 T01110056=
201612221152 METAR KATL 221152Z 26005KT 10SM BKN055 BKN250 11/05 A3022 RMK AO2 SLP232 T01110050 10122 20100 53005=
201612221052 METAR KATL 221052Z 25006KT 10SM SCT055 SCT250 10/04 A3019 RMK AO2 SLP226 T01000044=
201612220952 METAR KATL 220952Z 23005KT 10SM BKN060 BKN085 BKN250 11/03 A3019 RMK AO2 SLP221 T01060033=
201612220852 METAR KATL 220852Z 23007KT 10SM BKN060 BKN085 BKN250 11/03 A3020 RMK AO2 SLP226 T01110028 58006=
201612220752 METAR KATL 220752Z 23004KT 10SM SCT060 BKN085 BKN250 11/02 A3021 RMK AO2 SLP228 T01060017=
201612220652 METAR KATL 220652Z 24003KT 10SM OVC060 12/02 A3022 RMK AO2 SLP230 T01170017=
201612220552 METAR KATL 220552Z 23004KT 10SM OVC060 12/01 A3022 RMK AO2 SLP233 T01170011 10133 20111 56006=
201612220452 METAR KATL 220452Z 21003KT 10SM OVC060 12/00 A3022 RMK AO2 SLP236 T01170000 401720006=
201612220352 METAR KATL 220352Z 20004KT 10SM BKN060 BKN090 BKN250 12/M01 A3023 RMK AO2 SLP239 T01171011=
201612220252 METAR KATL 220252Z 00000KT 10SM BKN060 BKN085 OVC250 13/M02 A3024 RMK AO2 SLP243 T01281017 58001=
201612220152 METAR KATL 220152Z 00000KT 10SM SCT060 BKN085 BKN250 12/M01 A3024 RMK AO2 SLP245 T01171006=
201612220052 METAR KATL 220052Z 00000KT 10SM SCT060 BKN080 OVC250 12/M02 A3024 RMK AO2 SLP246 T01221022=
201612212352 METAR KATL 212352Z 00000KT 10SM BKN070 BKN250 13/M03 A3024 RMK AO2 SLP246 T01281033 10172 20128 53007=
201612212252 METAR KATL 212252Z 00000KT 10SM BKN070 BKN250 13/M04 A3022 RMK AO2 SLP239 T01331044=
201612212152 METAR KATL 212152Z 18003KT 10SM SCT070 BKN250 16/M06 A3022 RMK AO2 SLP235 T01561061=
201612212052 METAR KATL 212052Z 28004KT 10SM FEW070 SCT250 16/M04 A3022 RMK AO2 SLP237 T01561044 56010=
201612211952 METAR KATL 211952Z 28006KT 10SM FEW070 FEW250 17/M09 A3023 RMK AO2 SLP239 T01671089=
201612211852 METAR KATL 211852Z 28004KT 10SM FEW250 17/M08 A3023 RMK AO2 SLP239 T01671083=
201612211752 METAR KATL 211752Z 00000KT 10SM FEW250 13/M04 A3025 RMK AO2 PRESFR SLP249 T01331044 10139 20006 58020=
201612211652 METAR KATL 211652Z 32005KT 10SM FEW250 11/M01 A3031 RMK AO2 SLP268 T01111011=
201612211552 METAR KATL 211552Z 29005KT 10SM FEW250 08/02 A3032 RMK AO2 SLP273 T00780022=
201612211452 METAR KATL 211452Z 31007KT 9SM FEW250 05/03 A3032 RMK AO2 SLP272 T00500028 51012=
201612211352 METAR KATL 211352Z 32005KT 10SM CLR 03/02 A3031 RMK AO2 SLP269 T00280017=
201612211252 METAR KATL 211252Z 30007KT 8SM CLR 01/01 A3030 RMK AO2 SLP268 T00110006=
201612211152 METAR KATL 211152Z 32006KT 8SM CLR 01/01 A3028 RMK AO2 SLP261 T00060006 10022 20006 52005=
201612211052 METAR KATL 211052Z 29005KT 7SM CLR 01/01 A3028 RMK AO2 SLP261 T00110006=
201612210952 METAR KATL 210952Z 32006KT 6SM BR CLR 01/01 A3026 RMK AO2 SLP254 T00060006=
201612210852 METAR KATL 210852Z 28004KT 7SM CLR 01/01 A3026 RMK AO2 SLP255 T00110006 58005=
201612210752 METAR KATL 210752Z 30005KT 7SM CLR 02/01 A3027 RMK AO2 SLP256 T00170011=
201612210652 METAR KATL 210652Z 32005KT 6SM BR CLR 02/02 A3028 RMK AO2 SLP260 T00220017=
201612210552 METAR KATL 210552Z 30005KT 6SM BR CLR 02/01 A3028 RMK AO2 SLP260 T00170011 10050 20017 58012=
201612210452 METAR KATL 210452Z 30004KT 7SM CLR 02/01 A3029 RMK AO2 SLP263 T00220011 400890022=
201612210352 METAR KATL 210352Z 28004KT 8SM FEW250 02/02 A3031 RMK AO2 SLP270 T00220022=
201612210252 METAR KATL 210252Z 28004KT 8SM FEW250 03/03 A3032 RMK AO2 SLP272 T00330028 58012=
201612210152 METAR KATL 210152Z 32005KT 8SM FEW250 04/03 A3034 RMK AO2 SLP280 T00390028=
201612210052 METAR KATL 210052Z 30007KT 9SM SCT250 04/04 A3035 RMK AO2 SLP285 T00440039=
201612202352 METAR KATL 202352Z 28007KT 10SM FEW200 BKN250 05/04 A3035 RMK AO2 SLP284 T00500039 10089 20050 53001=
201612202252 METAR KATL 202252Z 27005KT 9SM FEW200 BKN250 06/04 A3034 RMK AO2 SLP280 T00610039=
201612202152 METAR KATL 202152Z 29005KT 10SM FEW017 BKN230 08/04 A3034 RMK AO2 SLP279 T00780044=
201612202052 METAR KATL 202052Z 28005KT 10SM SCT017 BKN230 08/04 A3035 RMK AO2 SLP281 T00830044 56023=
201612201952 METAR KATL 201952Z 00000KT 10SM BKN015 09/04 A3036 RMK AO2 SLP285 T00890044=
201612201919 SPECI KATL 201919Z 18003KT 10SM OVC015 08/04 A3037 RMK AO2 T00780044=
201612201852 METAR KATL 201852Z 00000KT 10SM OVC014 08/04 A3038 RMK AO2 SLP294 BINOVC DSNT N T00780044=
201612201752 METAR KATL 201752Z 00000KT 10SM OVC013 07/04 A3042 RMK AO2 SLP306 60000 T00720044 10072 20050 58023=
201612201652 METAR KATL 201652Z 08005KT 9SM OVC010 07/04 A3046 RMK AO2 SLP321 T00670044=
201612201647 SPECI KATL 201647Z 09005KT 9SM OVC010 07/04 A3047 RMK AO2=
201612201555 SPECI KATL 201555Z 09005KT 9SM OVC008 06/04 A3049 RMK AO2 T00610044=
201612201552 METAR KATL 201552Z 08005KT 1 1/2SM OVC008 06/04 A3049 RMK AO2 SFC VIS 9 DZE47 SLP330 P0000 T00610044=
201612201452 METAR KATL 201452Z 07006KT 1 1/2SM -DZ BR OVC005 06/05 A3050 RMK AO2 SFC VIS 4 DZB47 SLP333 P0000 60000 T00560050 53007=
201612201352 METAR KATL 201352Z 08009KT 1 1/2SM BR OVC005 05/04 A3048 RMK AO2 SFC VIS 2 1/2 DZE12 SLP328 CIG 004V008 P0000 T00500044=
201612201349 SPECI KATL 201349Z 08010KT 1 1/2SM BR OVC005 05/04 A3048 RMK AO2 SFC VIS 2 1/2 DZE12 CIG 004V008 P0000=
201612201258 SPECI KATL 201258Z 08007KT 1 1/2SM -DZ BR OVC004 05/04 A3048 RMK AO2 P0000 T00500044=
201612201252 METAR KATL 201252Z 09009KT 2SM -DZ BR OVC005 05/04 A3047 RMK AO2 TWR VIS 2 1/2 DZB43 SLP326 CIG 004V006 P0000 T00500044=
201612201205 SPECI KATL 201205Z 08009KT 2 1/2SM BR OVC006 05/04 A3046 RMK AO2 SFC VIS 3 CIG 005V008 T00500039=
201612201152 METAR KATL 201152Z 09008KT 3SM BR OVC006 05/04 A3046 RMK AO2 SLP321 CIG 005V008 T00500044 10056 20050 53003=
201612201052 METAR KATL 201052Z 07007KT 7SM OVC009 05/04 A3046 RMK AO2 SLP319 T00500039=
201612200952 METAR KATL 200952Z 07009KT 10SM OVC009 05/04 A3045 RMK AO2 SLP318 T00500039=
201612200910 SPECI KATL 200910Z 08009KT 10SM OVC009 05/03 A3046 RMK AO2 T00500033=
201612200852 METAR KATL 200852Z 09008KT 10SM OVC010 06/03 A3045 RMK AO2 SLP317 T00560033 58004=
201612200752 METAR KATL 200752Z 05009KT 10SM OVC011 06/03 A3047 RMK AO2 SLP322 T00560033=
201612200652 METAR KATL 200652Z 05008KT 10SM BKN013 OVC021 06/03 A3046 RMK AO2 SLP321 T00560033=
201612200649 SPECI KATL 200649Z 05009KT 10SM BKN013 OVC021 06/03 A3046 RMK AO2=
201612200552 METAR KATL 200552Z 03005KT 10SM FEW015 OVC022 05/02 A3047 RMK AO2 SLP324 T00500022 10050 20039 58008=
201612200452 METAR KATL 200452Z 01005KT 10SM SCT017 OVC022 04/02 A3048 RMK AO2 SLP329 BINOVC T00440022 400720000=
201612200352 METAR KATL 200352Z 35006KT 10SM SCT017 BKN024 04/02 A3050 RMK AO2 SLP335 T00440017=
201612200252 METAR KATL 200252Z 35006KT 10SM OVC018 05/02 A3050 RMK AO2 SLP335 T00500017 51004=
201612200152 METAR KATL 200152Z 35006KT 10SM OVC020 04/02 A3049 RMK AO2 SLP334 T00440017=
201612200052 METAR KATL 200052Z 33009KT 10SM BKN020 BKN120 04/02 A3050 RMK AO2 SLP336 T00440017=
201612192352 METAR KATL 192352Z 34007KT 10SM BKN020 BKN120 05/02 A3048 RMK AO2 SLP331 T00500017 10072 20050 53006=
201612192323 SPECI KATL 192323Z 34008KT 10SM BKN020 BKN120 05/02 A3048 RMK AO2 T00500017=
201612192252 METAR KATL 192252Z 34007KT 10SM SCT020 BKN120 06/02 A3047 RMK AO2 SLP328 T00560017=
201612192152 METAR KATL 192152Z 34008KT 10SM OVC016 06/02 A3047 RMK AO2 SLP326 T00610022=
201612192052 METAR KATL 192052Z 32008KT 9SM OVC016 07/03 A3047 RMK AO2 SLP324 T00670028 53000=
201612191952 METAR KATL 191952Z 34008KT 10SM OVC015 07/03 A3046 RMK AO2 SLP322 T00670028=
201612191909 SPECI KATL 191909Z 34006KT 10SM OVC015 07/03 A3045 RMK AO2 T00670028=
201612191852 METAR KATL 191852Z 35006KT 10SM OVC014 07/03 A3046 RMK AO2 SLP321 T00670028=
201612191752 METAR KATL 191752Z 02007KT 10SM OVC014 07/02 A3047 RMK AO2 SLP324 T00670022 10067 20006 58008=
201612191652 METAR KATL 191652Z 33007KT 10SM OVC014 05/02 A3050 RMK AO2 SLP337 T00500017=
201612191552 METAR KATL 191552Z 34007KT 9SM OVC014 04/01 A3051 RMK AO2 SLP340 T00390006=
201612191525 SPECI KATL 191525Z 33007KT 9SM OVC014 03/01 A3051 RMK AO2 T00330006=
201612191452 METAR KATL 191452Z 34007KT 10SM OVC015 02/00 A3049 RMK AO2 SLP334 T00220000 53018=
201612191352 METAR KATL 191352Z 34008KT 8SM OVC014 01/M01 A3047 RMK AO2 SLP327 T00111006=
201612191252 METAR KATL 191252Z 34007KT 7SM OVC013 01/M01 A3044 RMK AO2 SLP317 T00061011=
201612191204 SPECI KATL 191204Z 32011KT 9SM OVC012 00/M01 A3044 RMK AO2 CIG 010V014 T00001011=
201612191152 METAR KATL 191152Z 33012KT 9SM OVC008 00/M01 A3044 RMK AO2 SLP316 70014 T00001011 10006 20000 53014=
201612191118 SPECI KATL 191118Z 32010KT 10SM BKN009 OVC040 00/M02 A3043 RMK AO2 T00001017=
201612191052 METAR KATL 191052Z 33012KT 10SM BKN010 OVC040 00/M02 A3042 RMK AO2 SLP308 T00001022=
201612190952 METAR KATL 190952Z 33012KT 10SM BKN013 OVC043 00/M02 A3040 RMK AO2 SLP304 CIG 010V015 T00001022=
201612190852 METAR KATL 190852Z 32010KT 10SM FEW009 BKN050 OVC220 00/M02 A3039 RMK AO2 SLP299 T00001017 51014=
201612190752 METAR KATL 190752Z 32010KT 10SM BKN009 BKN110 OVC220 00/M01 A3038 RMK AO2 SLP295 BKN009 V SCT T00001011=
201612190652 METAR KATL 190652Z 32011KT 10SM BKN009 BKN034 BKN110 OVC180 01/M01 A3037 RMK AO2 SLP288 BKN009 V SCT CIG 008V012 T00061011=
201612190552 METAR KATL 190552Z 32008KT 8SM BKN009 BKN110 OVC200 01/00 A3035 RMK AO2 SLP283 CIG 007V011 60006 T00060000 10033 20006 51014=
201612190452 METAR KATL 190452Z 32011G17KT 7SM OVC007 01/00 A3034 RMK AO2 SLP278 CIG 005V009 T00110000 402220011=
201612190352 METAR KATL 190352Z 31009KT 7SM OVC007 01/01 A3034 RMK AO2 DZE03 SLP278 CIG 005V009 P0000 T00110006=
201612190252 METAR KATL 190252Z 33012G19KT 6SM -DZ BR OVC007 02/01 A3031 RMK AO2 SLP267 RAE43DZB43 CIG 005V009 P0002 60006 T00170011 51006=
201612190152 METAR KATL 190152Z 31011KT 7SM -RA BKN007 BKN055 OVC100 02/01 A3030 RMK AO2 SLP261 CIG 006V009 P0002 T00220011=
201612190052 METAR KATL 190052Z 31011KT 8SM -RA BKN008 BKN050 OVC100 03/02 A3030 RMK AO2 SLP262 CIG 006V010 P0002 T00280017=
201612182352 METAR KATL 182352Z 33015G20KT 5SM -RA BR BKN008 BKN045 OVC085 03/03 A3029 RMK AO2 SLP258 P0005 60005 T00330028 10117 20033 53022=
201612182329 SPECI KATL 182329Z 32012KT 7SM RA SCT008 BKN050 OVC075 04/03 A3028 RMK AO2 P0002 T00390028=
201612182252 METAR KATL 182252Z 32011KT 10SM -RA BKN011 OVC055 04/03 A3025 RMK AO2 RAB41 SLP245 P0000 T00390028=
201612182214 SPECI KATL 182214Z 32012KT 10SM BKN010 OVC050 05/03 A3026 RMK AO2 T00500033=
201612182152 METAR KATL 182152Z 32014KT 10SM BKN007 BKN045 06/04 A3025 RMK AO2 RAB03E34 PRESRR SLP244 P0000 T00560039=
201612182052 METAR KATL 182052Z 31014KT 10SM OVC007 07/06 A3022 RMK AO2 PRESRR SLP234 T00720061 53018=
201612181952 METAR KATL 181952Z 31010KT 10SM OVC009 10/09 A3018 RMK AO2 SLP218 T01000089=
201612181938 SPECI KATL 181938Z 32009KT 10SM FEW008 BKN013 OVC038 11/09 A3018 RMK AO2 T01060089=
201612181917 SPECI KATL 181917Z 31010KT 10SM SCT014 OVC036 11/09 A3018 RMK AO2 T01060089=
201612181852 METAR KATL 181852Z 33013KT 10SM BKN014 OVC036 11/09 A3018 RMK AO2 SLP219 T01110089=
201612181827 SPECI KATL 181827Z 33011KT 10SM BKN014 OVC032 12/09 A3018 RMK AO2 T01170094=
201612181752 METAR KATL 181752Z 34010KT 10SM FEW010 SCT016 OVC032 12/10 A3017 RMK AO2 RAE07B25E43 SLP214 P0000 60003 T01170100 10222 20117 51020=
201612181739 SPECI KATL 181739Z 34012KT 10SM -RA SCT016 OVC032 12/11 A3017 RMK AO2 RAE07B25 P0000 T01170106=
201612181725 SPECI KATL 181725Z 35013KT 10SM -RA BKN011 BKN016 OVC032 12/11 A3018 RMK AO2 RAE07B25 P0000 T01220106=
201612181652 METAR KATL 181652Z 33010KT 7SM -RA BKN008 OVC020 13/12 A3017 RMK AO2 SLP213 P0001 T01280122=
201612181646 SPECI KATL 181646Z 33012KT 7SM -RA BKN008 OVC020 13/12 A3017 RMK AO2 P0001=
201612181631 SPECI KATL 181631Z 32016G22KT 5SM -RA BR FEW008 SCT020 OVC031 13/12 A3017 RMK AO2 P0001 T01280122=
201612181601 SPECI KATL 181601Z 32013KT 8SM -RA BKN008 OVC031 13/13 A3016 RMK AO2 P0000 T01330128=
201612181552 METAR KATL 181552Z 32013KT 8SM -RA SCT008 OVC031 14/13 A3016 RMK AO2 PK WND 32026/1453 WSHFT 1439 SLP208 P0002 T01390128=
201612181505 SPECI KATL 181505Z 32017G25KT 5SM -RA BR FEW009 BKN031 OVC041 14/13 A3012 RMK AO2 PK WND 32026/1453 WSHFT 1439 P0000 T01440133=
201612181452 METAR KATL 181452Z 32029G35KT 8SM -RA SCT017 BKN024 OVC070 16/13 A3011 RMK AO2 PK WND 32035/1451 WSHFT 1434 RAB49 SLP192 P0000 60000 T01560128 53028=
201612181449 SPECI KATL 181449Z 33020G30KT 10SM -RA SCT017 BKN024 OVC075 17/13 A3011 RMK AO2 PK WND 32030/1445 WSHFT 1434 RAB49 PRESRR P0000=
201612181443 SPECI KATL 181443Z 26015G22KT 220V300 10SM FEW009 SCT024 BKN070 22/18 A3009 RMK AO2 PRESRR T02170178=
201612181352 METAR KATL 181352Z 22013G20KT 10SM BKN017 BKN022 BKN070 OVC200 21/18 A3006 RMK AO2 SLP174 T02110183=
201612181252 METAR KATL 181252Z 21014G22KT 10SM BKN019 BKN026 OVC200 21/18 A3003 RMK AO2 RAB07E16 SLP164 BINOVC P0000 T02110178=
201612181152 METAR KATL 181152Z 22011G16KT 10SM FEW012 BKN016 OVC024 21/18 A3002 RMK AO2 SLP161 60000 T02060178 10206 20194 53013=
201612181052 METAR KATL 181052Z 20013G20KT 10SM BKN021 OVC028 21/18 A3000 RMK AO2 RAB17E27 SLP153 P0000 T02060178=
201612180952 METAR KATL 180952Z 21010G16KT 10SM SCT020 BKN025 OVC041 20/17 A3000 RMK AO2 SLP155 T02000172=
201612180852 METAR KATL 180852Z 23013KT 10SM BKN020 OVC028 21/17 A2998 RMK AO2 SLP148 T02060172 58002=
201612180752 METAR KATL 180752Z 21009G19KT 10SM BKN016 OVC023 20/18 A2999 RMK AO2 SLP150 T02000178=
201612180652 METAR KATL 180652Z 21012G17KT 10SM BKN016 OVC022 20/17 A2999 RMK AO2 SLP153 T02000172=
201612180552 METAR KATL 180552Z 20010KT 10SM BKN017 OVC032 19/17 A2999 RMK AO2 SLP153 T01940172 10194 20156 55005=
201612180452 METAR KATL 180452Z 20010G18KT 10SM BKN016 OVC030 19/17 A2999 RMK AO2 SLP154 T01940172 401940028=
201612180352 METAR KATL 180352Z 19010KT 10SM SCT016 BKN042 BKN070 BKN250 19/17 A3000 RMK AO2 SLP157 T01890167=
201612180252 METAR KATL 180252Z 17006KT 10SM SCT034 OVC048 17/16 A3001 RMK AO2 SLP161 BINOVC T01720156 53003=
201612180152 METAR KATL 180152Z 12006KT 10SM BKN035 BKN065 BKN250 16/14 A2999 RMK AO2 SLP157 T01610139=
201612180052 METAR KATL 180052Z 13004KT 10SM BKN038 BKN070 BKN250 16/14 A3000 RMK AO2 SLP159 T01610139=
201612172352 METAR KATL 172352Z 13005KT 10SM BKN065 BKN250 17/14 A3000 RMK AO2 SLP159 T01670139 10178 20089 58002=
201612172252 METAR KATL 172252Z 14006KT 10SM FEW040 OVC060 17/13 A3001 RMK AO2 SLP162 BINOVC T01670133=
201612172152 METAR KATL 172152Z 15007KT 10SM SCT060 BKN085 BKN250 17/13 A3002 RMK AO2 SLP165 ACC SW-NW-NE T01720128=
201612172108 SPECI KATL 172108Z 18008KT 10SM SCT020 BKN055 BKN075 17/13 A3001 RMK AO2 T01720133=
201612172052 METAR KATL 172052Z 18011KT 10SM BKN020 BKN050 17/13 A3001 RMK AO2 SLP162 T01670128 55015=
201612171952 METAR KATL 171952Z 14006KT 10SM FEW010 BKN055 14/10 A3000 RMK AO2 SLP162 T01390100=
201612171934 SPECI KATL 171934Z 14006KT 10SM SCT010 OVC055 13/09 A3000 RMK AO2 T01280094=
201612171852 METAR KATL 171852Z 14003KT 8SM OVC008 11/08 A3003 RMK AO2 SLP172 T01110083=
201612171752 METAR KATL 171752Z 13004KT 3SM BR OVC006 09/07 A3005 RMK AO2 SFC VIS 6 SLP180 60000 T00890067 10089 20039 58025=
201612171652 METAR KATL 171652Z 12006KT 3SM BR OVC005 06/05 A3009 RMK AO2 SFC VIS 6 SLP194 T00610050=
201612171602 SPECI KATL 171602Z 15006KT 3SM BR OVC007 06/04 A3011 RMK AO2 T00560039=
201612171552 METAR KATL 171552Z 12006KT 8SM OVC007 06/04 A3011 RMK AO2 RAB05E34 SLP203 P0000 T00560039=
201612171512 SPECI KATL 171512Z 13005KT 3SM -RA BR OVC006 05/03 A3013 RMK AO2 SFC VIS 4 RAB05 P0000 T00500028=
201612171452 METAR KATL 171452Z 13006KT 9SM OVC007 06/02 A3013 RMK AO2 SLP209 T00560017 53004=
201612171352 METAR KATL 171352Z 12007KT 10SM OVC008 05/01 A3010 RMK AO2 PRESFR SLP198 T00500006=
201612171252 METAR KATL 171252Z 12007KT 10SM BKN009 OVC012 04/M01 A3011 RMK AO2 SLP202 T00391006=
201612171245 SPECI KATL 171245Z 12006KT 10SM OVC009 04/M01 A3012 RMK AO2 T00391006=
201612171152 METAR KATL 171152Z 11008KT 10SM OVC010 04/M01 A3012 RMK AO2 SLP204 T00391011 10039 20028 55011=
201612171052 METAR KATL 171052Z 12007KT 10SM OVC010 03/M02 A3010 RMK AO2 SLP199 T00331017=
201612170952 METAR KATL 170952Z 12009KT 10SM OVC011 03/M02 A3012 RMK AO2 SLP204 T00331017=
201612170852 METAR KATL 170852Z 12006KT 10SM BKN013 OVC024 03/M02 A3015 RMK AO2 SLP214 T00331017 56006=
201612170759 SPECI KATL 170759Z 11007KT 10SM BKN013 OVC024 03/M02 A3015 RMK AO2 T00331022=
201612170752 METAR KATL 170752Z 10007KT 10SM SCT011 OVC024 03/M02 A3015 RMK AO2 SLP215 T00331022=
201612170739 SPECI KATL 170739Z 10007KT 10SM SCT012 OVC024 03/M02 A3015 RMK AO2 T00281022=
201612170652 METAR KATL 170652Z 11009KT 10SM BKN011 OVC023 03/M03 A3014 RMK AO2 SLP210 T00281028=
201612170552 METAR KATL 170552Z 10009KT 10SM OVC012 03/M03 A3017 RMK AO2 SLP221 T00281033 10056 20017 56015=
201612170452 METAR KATL 170452Z 09009KT 10SM OVC012 03/M04 A3018 RMK AO2 SLP228 T00281039 400891022=
201612170352 METAR KATL 170352Z 10007KT 10SM OVC013 02/M05 A3019 RMK AO2 SLP231 T00221050=
201612170320 SPECI KATL 170320Z 10009KT 10SM BKN015 BKN055 02/M06 A3019 RMK AO2 T00171061=
201612170252 METAR KATL 170252Z 09012KT 10SM FEW020 SCT055 02/M07 A3021 RMK AO2 SLP239 T00171067 58006=
201612170152 METAR KATL 170152Z 09012KT 10SM FEW040 SCT250 03/M06 A3023 RMK AO2 SLP244 T00281061=
201612170052 METAR KATL 170052Z 10009KT 10SM FEW040 FEW150 BKN250 04/M06 A3024 RMK AO2 SLP248 T00391056=
201612162352 METAR KATL 162352Z 10008KT 10SM FEW150 BKN250 05/M04 A3023 RMK AO2 SLP246 T00501039 10089 20050 51005=
201612162252 METAR KATL 162252Z 10008KT 10SM FEW150 BKN250 06/M04 A3023 RMK AO2 SLP245 T00611044=
201612162152 METAR KATL 162152Z 11009KT 10SM FEW200 BKN250 08/M04 A3022 RMK AO2 SLP239 T00781039=
201612162052 METAR KATL 162052Z 13009KT 10SM SCT200 BKN250 08/M04 A3021 RMK AO2 SLP238 T00831039 56023=
201612161952 METAR KATL 161952Z 12007KT 10SM BKN220 BKN250 08/M05 A3022 RMK AO2 SLP239 T00781050=
201612161852 METAR KATL 161852Z 12007KT 10SM SCT150 BKN220 BKN250 08/M07 A3025 RMK AO2 SLP250 T00781067=
201612161752 METAR KATL 161752Z 10006KT 10SM FEW070 SCT150 BKN250 07/M08 A3028 RMK AO2 SLP263 T00671083 10067 21017 58020=
201612161652 METAR KATL 161652Z 09009KT 10SM FEW070 SCT150 BKN250 04/M11 A3031 RMK AO2 SLP273 T00391106=
201612161552 METAR KATL 161552Z 09009KT 040V120 10SM FEW070 BKN250 BKN300 03/M12 A3034 RMK AO2 SLP282 T00281117=
201612161452 METAR KATL 161452Z 09012KT 10SM FEW070 SCT250 BKN300 01/M13 A3034 RMK AO2 SLP286 T00061128 51011=
201612161352 METAR KATL 161352Z 08013KT 10SM FEW150 BKN200 BKN250 00/M12 A3034 RMK AO2 SLP285 T00001122=
201612161252 METAR KATL 161252Z 08012KT 10SM FEW150 BKN200 OVC250 M02/M12 A3032 RMK AO2 SLP280 T10171122=
201612161152 METAR KATL 161152Z 09008KT 10SM BKN200 OVC250 M02/M12 A3031 RMK AO2 SLP274 T10171122 11011 21022 53006=
201612161052 METAR KATL 161052Z 09010KT 10SM BKN200 OVC250 M01/M12 A3029 RMK AO2 SLP269 T10111122=
201612160952 METAR KATL 160952Z 09011KT 10SM BKN200 OVC250 M02/M11 A3030 RMK AO2 SLP269 T10171111=
201612160852 METAR KATL 160852Z 08008KT 10SM SCT200 BKN250 M02/M11 A3029 RMK AO2 SLP267 T10221111 50000=
201612160752 METAR KATL 160752Z 05006KT 10SM SCT200 BKN250 M01/M13 A3029 RMK AO2 SLP267 T10111128=
201612160652 METAR KATL 160652Z 01006KT 10SM BKN200 BKN250 M01/M13 A3030 RMK AO2 SLP268 T10111133=
201612160552 METAR KATL 160552Z 34005KT 10SM BKN250 M02/M13 A3029 RMK AO2 SLP266 T10171133 10011 21017 50002=
201612160452 METAR KATL 160452Z 34004KT 10SM BKN250 M01/M14 A3030 RMK AO2 SLP267 T10111139 400671017=
201612160352 METAR KATL 160352Z 32008KT 10SM SCT250 M01/M14 A3029 RMK AO2 SLP266 T10111139=
201612160252 METAR KATL 160252Z 33008KT 10SM BKN250 M01/M14 A3029 RMK AO2 SLP265 T10061139 58003=
201612160152 METAR KATL 160152Z 32007KT 10SM SCT250 00/M14 A3029 RMK AO2 SLP266 T00001139=
201612160052 METAR KATL 160052Z 33008KT 10SM SCT250 01/M14 A3029 RMK AO2 SLP267 T00061139=
201612152352 METAR KATL 152352Z 32010KT 10SM SCT250 01/M13 A3030 RMK AO2 SLP268 T00111133 10067 20011 53009=
201612152252 METAR KATL 152252Z 34012KT 10SM BKN250 02/M14 A3027 RMK AO2 SLP260 T00221139=
201612152152 METAR KATL 152152Z 33014KT 10SM FEW250 BKN300 04/M14 A3028 RMK AO2 SLP260 T00391139=
201612152052 METAR KATL 152052Z 34018G21KT 10SM FEW130 SCT250 SCT300 06/M14 A3027 RMK AO2 SLP255 T00561139 53005=
201612151952 METAR KATL 151952Z 34017G22KT 10SM FEW130 SCT250 BKN300 06/M13 A3026 RMK AO2 SLP251 T00611133=
201612151852 METAR KATL 151852Z 34016G22KT 10SM FEW130 FEW250 SCT300 07/M13 A3026 RMK AO2 SLP250 T00671128=
201612151752 METAR KATL 151752Z 33013KT 10SM FEW250 06/M11 A3025 RMK AO2 SLP249 T00611111 10061 20011 58004=
201612151652 METAR KATL 151652Z 33017G25KT 10SM FEW250 05/M11 A3026 RMK AO2 SLP254 T00501111=
201612151552 METAR KATL 151552Z 32016G23KT 10SM SCT250 04/M11 A3028 RMK AO2 SLP259 T00391106=
201612151452 METAR KATL 151452Z 33011G22KT 10SM FEW250 03/M08 A3026 RMK AO2 SLP254 T00281078 53028=
201612151352 METAR KATL 151352Z 33015G25KT 10SM SCT250 02/M05 A3022 RMK AO2 SLP239 T00221050=
201612151252 METAR KATL 151252Z 33013KT 10SM FEW200 SCT250 02/M02 A3021 RMK AO2 PRESRR SLP237 T00171017=
201612151152 METAR KATL 151152Z 32012KT 10SM FEW250 02/M01 A3018 RMK AO2 SLP224 T00171011 10044 20017 53016=
201612151052 METAR KATL 151052Z 33014KT 10SM FEW150 FEW250 02/M01 A3015 RMK AO2 SLP216 T00221006=
201612150952 METAR KATL 150952Z 33012KT 10SM SCT014 SCT250 02/00 A3014 RMK AO2 SLP209 T00220000=
201612150852 METAR KATL 150852Z 33012KT 10SM FEW013 FEW250 03/01 A3013 RMK AO2 SLP205 T00330011 53006=
201612150752 METAR KATL 150752Z 33009KT 10SM FEW250 04/02 A3011 RMK AO2 SLP198 T00440017=
201612150652 METAR KATL 150652Z 32013KT 10SM FEW250 04/01 A3011 RMK AO2 SLP199 T00440011=
201612150552 METAR KATL 150552Z 31008KT 10SM SCT250 04/01 A3011 RMK AO2 SLP200 T00440011 10094 20044 51009=
201612150452 METAR KATL 150452Z 31007KT 10SM SCT250 04/01 A3010 RMK AO2 SLP197 T00440011 401500044=
201612150352 METAR KATL 150352Z 30008KT 10SM BKN250 06/02 A3010 RMK AO2 SLP197 T00610017=
201612150252 METAR KATL 150252Z 31005KT 10SM BKN250 06/01 A3008 RMK AO2 SLP191 T00610011 50003=
201612150152 METAR KATL 150152Z 32007KT 10SM FEW250 07/02 A3008 RMK AO2 SLP191 T00720017=
201612150052 METAR KATL 150052Z 31007KT 260V330 10SM FEW080 SCT250 08/02 A3008 RMK AO2 SLP190 T00830017=
201612142352 METAR KATL 142352Z 32005KT 10SM SCT080 09/02 A3008 RMK AO2 SLP187 T00940017 10150 20094 53011=
201612142252 METAR KATL 142252Z 31005KT 10SM FEW150 11/02 A3005 RMK AO2 SLP178 T01110017=
201612142152 METAR KATL 142152Z 30006KT 10SM FEW150 13/01 A3005 RMK AO2 SLP177 T01280011=
201612142052 METAR KATL 142052Z VRB04KT 10SM FEW150 14/00 A3004 RMK AO2 SLP173 T01440000 55013=
201612141952 METAR KATL 141952Z 05003KT 10SM FEW150 FEW250 13/00 A3004 RMK AO2 SLP171 T01330000=
201612141852 METAR KATL 141852Z 34009KT 10SM FEW150 FEW250 13/02 A3007 RMK AO2 SLP182 T01280022=
201612141752 METAR KATL 141752Z 34007KT 10SM FEW150 SCT180 BKN250 11/04 A3008 RMK AO2 SLP187 T01110039 10111 20072 58016=
201612141652 METAR KATL 141652Z 33008KT 10SM BKN150 BKN200 09/04 A3011 RMK AO2 SLP199 VIRGA DSNT NE & NW T00890044=
201612141552 METAR KATL 141552Z 33009KT 10SM FEW015 BKN150 BKN220 08/05 A3013 RMK AO2 SLP204 T00830050=
201612141452 METAR KATL 141452Z 32014KT 10SM FEW010 BKN150 BKN250 08/06 A3013 RMK AO2 SLP205 T00780056 51018=
201612141425 SPECI KATL 141425Z 35009KT 10SM FEW008 SCT010 BKN250 08/06 A3013 RMK AO2 T00830061=
201612141352 METAR KATL 141352Z 34012KT 7SM OVC007 07/06 A3012 RMK AO2 SLP200 BINOVC T00720056=
201612141252 METAR KATL 141252Z 33007KT 7SM OVC007 07/06 A3010 RMK AO2 SLP193 T00720061=
201612141152 METAR KATL 141152Z 33014KT 6SM BR OVC006 07/06 A3008 RMK AO2 SLP186 60000 70003 T00720061 10111 20072 53002=
201612141131 SPECI KATL 141131Z 32010G17KT 5SM BR OVC005 08/07 A3007 RMK AO2 T00780067=
201612141113 SPECI KATL 141113Z 34012KT 4SM BR OVC004 08/07 A3007 RMK AO2 T00780072=
201612141052 METAR KATL 141052Z 34009KT 4SM BR OVC005 08/08 A3007 RMK AO2 SLP183 T00830078=
201612140952 METAR KATL 140952Z 33008KT 5SM BR OVC005 09/08 A3007 RMK AO2 SLP182 CIG 004V006 T00890083=
201612140852 METAR KATL 140852Z 32011KT 5SM BR BKN005 OVC012 09/09 A3007 RMK AO2 SLP183 CIG 004V006 60000 T00940089 53013=
201612140812 SPECI KATL 140812Z 31009KT 5SM BR OVC005 10/10 A3006 RMK AO2 CIG 003V007 T01000100=
201612140752 METAR KATL 140752Z 32008KT 1/2SM R09R/P6000FT BR OVC003 11/11 A3005 RMK AO2 SFC VIS 1 1/2 SLP178 CIG 002V005 TWRINC T01060106=
201612140652 METAR KATL 140652Z 34008KT 1/2SM R09R/P6000FT BR OVC003 11/11 A3003 RMK AO2 SFC VIS 3 DZB08E20 SLP171 CIG 002V004 TWRINC P0000 T01110106=
201612140552 METAR KATL 140552Z 35007KT 1/2SM R09R/P6000FT BR OVC002 11/11 A3003 RMK AO2 SFC VIS 1 1/2 SLP169 60002 T01060106 10122 20106 52009=
201612140452 METAR KATL 140452Z 35003KT 1/2SM R09R/P6000FT BR OVC002 11/11 A3001 RMK AO2 SFC VIS 1 1/2 SLP163 T01110111 401220100=
201612140352 METAR KATL 140352Z 34004KT 1/2SM R09R/P6000FT BR OVC004 12/11 A3001 RMK AO2 SFC VIS 3 DZE46 SLP164 CIG 002V005 P0000 T01170111=
201612140252 METAR KATL 140252Z 01007KT 1/2SM R09R/P6000FT -DZ BR OVC003 12/12 A3000 RMK AO2 SFC VIS 1 1/4 RAE49DZB49 SLP159 CIG 002V005 P0001 60002 T01170117 53003=
201612140152 METAR KATL 140152Z 08003KT 1/2SM R09R/P6000FT -RA BR OVC002 12/12 A2999 RMK AO2 SFC VIS 1 1/2 RAB43 SLP156 P0001 T01220122=
201612140052 METAR KATL 140052Z 14004KT 1/2SM R09R/P6000FT BR OVC003 12/12 A2999 RMK AO2 SFC VIS 1 1/2 DZE49 SLP155 CIG 001V005 P0000 T01170117=
201612132352 METAR KATL 132352Z 00000KT 1/2SM R09R/P6000FT -DZ BR VV002 12/12 A2999 RMK AO2 SFC VIS 3/4 SLP156 P0000 60000 T01170117 10117 20106 55003=
201612132252 METAR KATL 132252Z 13003KT 1/2SM R09R/2600V4000FT -DZ FG VV002 12/12 A2998 RMK AO2 SLP154 P0000 T01170117=
201612132152 METAR KATL 132152Z 10004KT 1/2SM R09R/2600V3500FT -DZ FG VV002 12/12 A2999 RMK AO2 DZB47 SLP156 TWRINC P0000 T01170117=
201612132052 METAR KATL 132052Z 13003KT 1/2SM R09R/3500V4500FT FG OVC003 12/12 A3000 RMK AO2 DZE45 SLP159 TWRINC P0000 60000 T01170117 55012=
201612131952 METAR KATL 131952Z 09004KT 1/2SM R09R/4000VP6000FT -DZ BR OVC004 12/12 A2999 RMK AO2 SFC VIS 1 SLP157 P0000 T01170117=
201612131852 METAR KATL 131852Z 08005KT 1/2SM R09R/P6000FT -DZ BR OVC004 11/11 A3001 RMK AO2 SFC VIS 2 SLP164 TWRINC P0000 T01110111=
201612131752 METAR KATL 131752Z 05007KT 1/2SM R09R/3000V5500FT -DZ FG OVC003 11/11 A3004 RMK AO2 SLP172 P0000 60001 T01110111 10117 20106 58014=
201612131652 METAR KATL 131652Z 08008KT 1/2SM R09R/3000V4500FT -DZ FG OVC003 11/11 A3006 RMK AO2 SLP178 P0000 T01060106=
201612131552 METAR KATL 131552Z 05008KT 1/2SM R09R/6000VP6000FT -DZ BR OVC004 11/11 A3008 RMK AO2 SFC VIS 1 1/4 RAB41E49 SLP188 P0000 T01110111=
201612131540 SPECI KATL 131540Z 07009KT 1/2SM R09R/6000VP6000FT -DZ BR OVC004 11/11 A3009 RMK AO2 SFC VIS 1 P0000 T01110111=
201612131452 METAR KATL 131452Z VRB06KT 1/2SM R09R/P6000FT -DZ BR OVC004 11/11 A3008 RMK AO2 SFC VIS 2 1/2 SLP187 TWRINC P0000 60001 T01110111 53008=
201612131352 METAR KATL 131352Z 10005KT 1/2SM R09R/P6000FT -DZ BR OVC004 11/11 A3007 RMK AO2 SFC VIS 1 1/2 SLP184 CIG 003V005 TWRINC P0001 T01060106=
201612131257 SPECI KATL 131257Z 10005KT 1/2SM R09R/P6000FT -RA BR BKN004 OVC008 11/11 A3006 RMK AO2 SFC VIS 1 1/4 DZE54RAB54 CIG 003V005 TWRINC P0000 T01060106=
201612131252 METAR KATL 131252Z 11006KT 1SM R09R/P6000FT -DZ BR SCT004 OVC008 11/10 A3006 RMK AO2 SFC VIS 2 DZB46 SLP179 P0000 T01060100=
201612131248 SPECI KATL 131248Z 11005KT 2SM -DZ BR FEW004 OVC008 11/10 A3006 RMK AO2 SFC VIS 2 1/2 DZB46 P0000=
201612131245 SPECI KATL 131245Z 11007KT 3SM BR OVC008 11/10 A3005 RMK AO2 T01060100=
201612131152 METAR KATL 131152Z 09006KT 9SM OVC011 11/10 A3006 RMK AO2 RAE25 SLP179 P0001 60003 70003 T01060100 10117 20100 53003=
201612131052 METAR KATL 131052Z 09006KT 3SM -RA BR BKN009 OVC014 11/10 A3006 RMK AO2 RAE12B35 SLP176 CIG 008V012 P0002 T01110100=
201612131048 SPECI KATL 131048Z 08006KT 3SM -RA BR OVC009 11/10 A3005 RMK AO2 RAE12B35 CIG 008V012 P0001=
201612131041 SPECI KATL 131041Z 08004KT 5SM -RA BR BKN011 OVC017 11/09 A3005 RMK AO2 RAE12B35 P0000 T01110094=
201612130952 METAR KATL 130952Z 08003KT 10SM -RA FEW017 OVC024 12/09 A3005 RMK AO2 RAB50 SLP174 P0000 T01170094=
201612130937 SPECI KATL 130937Z 00000KT 10SM FEW017 BKN026 OVC033 12/09 A3005 RMK AO2 T01170094=
201612130925 SPECI KATL 130925Z 11004KT 10SM SCT017 BKN032 12/09 A3005 RMK AO2 T01170089=
201612130852 METAR KATL 130852Z 08004KT 10SM BKN017 BKN070 11/09 A3005 RMK AO2 SLP176 T01110094 58005=
201612130807 SPECI KATL 130807Z 00000KT 10SM BKN022 BKN065 11/09 A3006 RMK AO2 T01060094=
201612130752 METAR KATL 130752Z 00000KT 10SM FEW025 SCT030 BKN070 11/09 A3006 RMK AO2 SLP176 T01060094=
201612130712 SPECI KATL 130712Z 00000KT 10SM SCT026 SCT033 BKN070 11/09 A3006 RMK AO2 T01060094=
201612130652 METAR KATL 130652Z 00000KT 10SM FEW015 BKN028 OVC070 11/09 A3006 RMK AO2 SLP179 T01110094=
201612130635 SPECI KATL 130635Z 00000KT 10SM FEW015 BKN028 OVC080 11/09 A3006 RMK AO2 T01060094=
201612130552 METAR KATL 130552Z 00000KT 10SM SCT065 BKN080 11/09 A3007 RMK AO2 SLP180 60000 T01110094 10150 20100 58008=
201612130452 METAR KATL 130452Z 00000KT 10SM FEW085 SCT110 11/09 A3007 RMK AO2 SLP183 T01110089 401780044=
201612130352 METAR KATL 130352Z 00000KT 10SM BKN095 BKN120 12/10 A3009 RMK AO2 SLP188 T01170100=
201612130252 METAR KATL 130252Z 00000KT 10SM FEW080 11/09 A3009 RMK AO2 SLP190 60000 T01110094 50006=
201612130152 METAR KATL 130152Z 35004KT 10SM FEW085 13/11 A3009 RMK AO2 SLP191 T01280111=
201612130052 METAR KATL 130052Z 36006KT 10SM SCT090 BKN120 14/12 A3008 RMK AO2 RAE08 SLP187 P0000 T01440117=
201612122352 METAR KATL 122352Z 36006KT 10SM -RA FEW030 BKN090 BKN120 15/12 A3008 RMK AO2 RAB46 SLP185 P0000 60000 T01500117 10178 20150 53009=
201612122252 METAR KATL 122252Z 35006KT 10SM FEW030 BKN090 BKN120 16/12 A3006 RMK AO2 SLP178 T01560122=
201612122152 METAR KATL 122152Z 32006KT 10SM FEW015 SCT030 BKN100 17/12 A3006 RMK AO2 SLP179 T01670122=
201612122102 SPECI KATL 122102Z 34007KT 300V010 10SM FEW017 BKN030 BKN090 17/13 A3005 RMK AO2 T01670133=
201612122052 METAR KATL 122052Z 33007KT 10SM FEW017 BKN025 BKN080 17/13 A3005 RMK AO2 SLP176 T01670133 55001=
201612122021 SPECI KATL 122021Z 28008KT 10SM BKN017 BKN030 OVC080 17/13 A3004 RMK AO2 T01720133=
201612121952 METAR KATL 121952Z 28006KT 10SM FEW015 SCT030 BKN080 18/13 A3003 RMK AO2 SLP169 T01780133=
201612121913 SPECI KATL 121913Z 25006KT 10SM SCT015 BKN030 OVC070 17/13 A3003 RMK AO2 T01670133=
201612121852 METAR KATL 121852Z 28008KT 10SM BKN015 BKN030 OVC060 17/13 A3004 RMK AO2 SLP174 T01670133=
201612121752 METAR KATL 121752Z 27008KT 10SM BKN013 BKN060 OVC080 17/13 A3005 RMK AO2 RAB00E09 SLP177 P0000 60000 T01670133 10167 20078 58006=
201612121654 SPECI KATL 121654Z 24008KT 10SM FEW015 BKN050 OVC070 16/13 A3007 RMK AO2 T01560128=
201612121652 METAR KATL 121652Z 24007KT 9SM FEW010 BKN020 OVC050 16/13 A3007 RMK AO2 SLP185 T01560128=
201612121624 SPECI KATL 121624Z 27008KT 9SM FEW008 BKN020 OVC050 15/12 A3009 RMK AO2 T01500122=
201612121552 METAR KATL 121552Z 29010KT 3SM BR SCT008 BKN050 OVC080 15/13 A3009 RMK AO2 SFC VIS 6 SLP192 T01500128=
201612121524 SPECI KATL 121524Z 22010KT 3SM BR SCT006 BKN050 OVC090 14/12 A3007 RMK AO2 SFC VIS 6 T01390122=
201612121522 SPECI KATL 121522Z 22008KT 3SM BR BKN006 BKN055 OVC085 14/12 A3007 RMK AO2 SFC VIS 6 T01390122=
201612121452 METAR KATL 121452Z 22007KT 1SM R09R/P6000FT BR OVC005 13/12 A3007 RMK AO2 SFC VIS 5 SLP185 T01280117 51013=
201612121401 SPECI KATL 121401Z 22007KT 1SM R09R/P6000FT BR OVC005 11/09 A3006 RMK AO2 SFC VIS 5 T01110094=
201612121352 METAR KATL 121352Z 23007KT 3SM BR OVC005 11/09 A3006 RMK AO2 SFC VIS 6 SLP180 CIG 004V006 T01110089=
201612121346 SPECI KATL 121346Z 24006KT 3SM BR OVC005 11/08 A3006 RMK AO2 SFC VIS 6 CIG 004V006=
201612121252 METAR KATL 121252Z 23003KT 10SM OVC008 09/07 A3004 RMK AO2 SLP178 CIG 007V009 T00940067=
201612121152 METAR KATL 121152Z 19004KT 10SM BKN010 OVC030 08/05 A3003 RMK AO2 SLP173 60000 T00780050 10078 20044 56013=
201612121109 SPECI KATL 121109Z 00000KT 10SM BKN013 OVC021 07/04 A3003 RMK AO2 T00720039=
201612121052 METAR KATL 121052Z 00000KT 10SM OVC015 07/03 A3004 RMK AO2 SLP176 CIG 014V018 T00670033=
201612121038 SPECI KATL 121038Z 23004KT 10SM BKN015 BKN021 BKN200 07/03 A3004 RMK AO2 T00670033=
201612120952 METAR KATL 120952Z 15005KT 10SM FEW024 BKN200 06/02 A3005 RMK AO2 SLP179 T00610022=
201612120852 METAR KATL 120852Z 15005KT 10SM FEW024 BKN200 05/01 A3007 RMK AO2 SLP186 60000 T00500006 58034=
201612120759 SPECI KATL 120759Z 14007KT 10SM FEW024 SCT150 BKN220 05/00 A3009 RMK AO2 PRESFR T00500000=
201612120752 METAR KATL 120752Z 13008KT 10SM BKN024 BKN150 BKN220 05/00 A3011 RMK AO2 RAB0655E04 SLP199 BKN024 V SCT P0000 T00500000=
201612120731 SPECI KATL 120731Z 12007KT 10SM SCT024 SCT032 BKN200 05/00 A3013 RMK AO2 RAB0655E04 P0000 T00500000=
201612120652 METAR KATL 120652Z 12004KT 10SM OVC023 06/M01 A3016 RMK AO2 SLP217 BINOVC T00611006=
201612120552 METAR KATL 120552Z 09008KT 10SM OVC022 06/M01 A3017 RMK AO2 SLP223 T00561011 10067 20044 58014=
201612120452 METAR KATL 120452Z 08007KT 10SM BKN020 OVC050 06/M02 A3020 RMK AO2 SLP230 T00561022 401001011=
201612120416 SPECI KATL 120416Z 09004KT 10SM SCT021 BKN050 BKN250 04/M03 A3021 RMK AO2 T00441028=
201612120352 METAR KATL 120352Z 10006KT 10SM OVC022 05/M03 A3020 RMK AO2 SLP234 BINOVC T00501028=
201612120308 SPECI KATL 120308Z 09009KT 10SM BKN025 BKN045 BKN250 05/M03 A3021 RMK AO2 T00501033=
201612120252 METAR KATL 120252Z 08007KT 10SM FEW028 BKN040 BKN250 05/M03 A3022 RMK AO2 SLP238 T00501033 58004=
201612120152 METAR KATL 120152Z 09007KT 10SM BKN030 BKN042 BKN250 05/M03 A3023 RMK AO2 SLP242 T00501028=
201612120052 METAR KATL 120052Z 10007KT 10SM FEW048 SCT250 05/M03 A3023 RMK AO2 SLP245 T00501028=
201612112352 METAR KATL 112352Z 11009KT 10SM FEW048 SCT250 07/M02 A3023 RMK AO2 SLP243 T00671017 10100 20061 58005=
201612112252 METAR KATL 112252Z 10008KT 10SM FEW030 SCT048 SCT250 07/M01 A3023 RMK AO2 SLP244 T00721011=
201612112152 METAR KATL 112152Z 10006KT 10SM FEW030 BKN050 BKN250 08/M01 A3026 RMK AO2 SLP255 T00831006=
201612112052 METAR KATL 112052Z 09009KT 10SM FEW028 FEW035 SCT250 10/M01 A3024 RMK AO2 SLP248 T01001011 56025=
201612111952 METAR KATL 111952Z 10010KT 10SM SCT025 SCT031 09/M02 A3026 RMK AO2 SLP253 T00941022=
201612111914 SPECI KATL 111914Z 06008KT 10SM SCT025 BKN045 08/M03 A3029 RMK AO2 T00831033=
201612111852 METAR KATL 111852Z 09008KT 10SM BKN027 BKN045 08/M03 A3030 RMK AO2 SLP267 T00781033=
201612111825 SPECI KATL 111825Z 07006KT 10SM OVC027 07/M04 A3032 RMK AO2 T00671039=
201612111752 METAR KATL 111752Z 09007KT 10SM SCT017 BKN032 OVC049 07/M04 A3032 RMK AO2 SLP274 T00671039 10067 20006 56024=
201612111746 SPECI KATL 111746Z 09006KT 10SM SCT017 BKN034 OVC049 07/M04 A3033 RMK AO2=
201612111652 METAR KATL 111652Z 10008KT 10SM BKN018 OVC027 06/M04 A3036 RMK AO2 SLP287 T00561044=
201612111552 METAR KATL 111552Z 10005KT 10SM BKN022 BKN026 OVC049 04/M05 A3040 RMK AO2 SLP300 T00441050=
201612111452 METAR KATL 111452Z 08009KT 10SM OVC019 03/M04 A3040 RMK AO2 SLP303 T00331044 53012=
201612111352 METAR KATL 111352Z 08007KT 10SM OVC021 03/M04 A3039 RMK AO2 SLP299 T00281044=
201612111252 METAR KATL 111252Z 08006KT 10SM OVC025 01/M04 A3038 RMK AO2 SLP294 T00111044=
201612111152 METAR KATL 111152Z 09007KT 10SM BKN026 01/M04 A3037 RMK AO2 SLP291 T00061044 10028 21011 58003=
201612111145 SPECI KATL 111145Z 10005KT 10SM BKN026 00/M04 A3037 RMK AO2 T00001044=
201612111052 METAR KATL 111052Z 09006KT 10SM FEW030 M01/M05 A3037 RMK AO2 SLP292 T10061050=
201612110952 METAR KATL 110952Z 09006KT 10SM FEW250 M01/M05 A3038 RMK AO2 SLP295 T10061050=
201612110852 METAR KATL 110852Z 09007KT 10SM FEW250 M01/M05 A3038 RMK AO2 SLP293 T10061050 56009=
201612110752 METAR KATL 110752Z 11004KT 10SM FEW250 01/M06 A3039 RMK AO2 SLP296 T00061056=
201612110652 METAR KATL 110652Z 12005KT 10SM FEW250 02/M06 A3039 RMK AO2 SLP296 T00221056=
201612110552 METAR KATL 110552Z 12006KT 10SM FEW250 03/M06 A3040 RMK AO2 SLP302 T00281061 10061 20028 58002=
201612110452 METAR KATL 110452Z 13005KT 10SM FEW250 03/M07 A3043 RMK AO2 SLP311 T00331067 401001033=
201612110352 METAR KATL 110352Z 14003KT 10SM FEW250 03/M07 A3042 RMK AO2 SLP309 T00331067=
201612110252 METAR KATL 110252Z 11004KT 10SM FEW250 04/M07 A3041 RMK AO2 SLP305 T00441072 58002=
201612110152 METAR KATL 110152Z 12005KT 10SM FEW250 05/M08 A3041 RMK AO2 SLP307 T00501078=
201612110052 METAR KATL 110052Z 13003KT 10SM FEW250 05/M07 A3042 RMK AO2 SLP312 T00501067=
201612102352 METAR KATL 102352Z 12003KT 10SM FEW200 06/M08 A3042 RMK AO2 SLP309 T00611083 10100 20061 50003=
201612102252 METAR KATL 102252Z 00000KT 10SM FEW200 08/M09 A3042 RMK AO2 SLP309 T00781094=
201612102152 METAR KATL 102152Z 19003KT 10SM FEW250 08/M10 A3042 RMK AO2 SLP308 T00831100=
201612102052 METAR KATL 102052Z 00000KT 10SM FEW250 09/M11 A3041 RMK AO2 SLP304 T00941111 56023=
201612101952 METAR KATL 101952Z VRB04KT 10SM FEW250 09/M11 A3041 RMK AO2 SLP305 T00891111=
201612101852 METAR KATL 101852Z VRB04KT 10SM CLR 08/M09 A3043 RMK AO2 SLP311 T00831094=
201612101752 METAR KATL 101752Z 03008KT 10SM CLR 07/M09 A3048 RMK AO2 SLP327 T00721089 10072 21033 58020=
201612101652 METAR KATL 101652Z 35007KT 10SM CLR 06/M07 A3051 RMK AO2 SLP341 T00611072=
201612101552 METAR KATL 101552Z 05005KT 10SM CLR 04/M08 A3053 RMK AO2 SLP347 T00391078=
201612101452 METAR KATL 101452Z 01003KT 10SM CLR 02/M07 A3054 RMK AO2 SLP350 T00171072 53013=
201612101352 METAR KATL 101352Z 33006KT 10SM CLR M01/M07 A3052 RMK AO2 SLP344 T10111067=
201612101252 METAR KATL 101252Z 00000KT 10SM CLR M03/M07 A3050 RMK AO2 SLP339 T10281072=
201612101152 METAR KATL 101152Z 34006KT 10SM CLR M03/M07 A3050 RMK AO2 SLP339 T10331072 11011 21033 53013=
201612101052 METAR KATL 101052Z 33007KT 10SM CLR M03/M07 A3048 RMK AO2 SLP333 T10281072=
201612100952 METAR KATL 100952Z 32008KT 10SM CLR M03/M07 A3047 RMK AO2 SLP328 T10281072=
201612100852 METAR KATL 100852Z 33006KT 10SM CLR M02/M08 A3046 RMK AO2 SLP323 T10221078 58000=
201612100752 METAR KATL 100752Z 33006KT 10SM CLR M02/M08 A3046 RMK AO2 SLP324 T10171078=
201612100652 METAR KATL 100652Z 33008KT 10SM CLR M01/M08 A3046 RMK AO2 SLP323 T10111078=
201612100552 METAR KATL 100552Z 31006KT 10SM CLR M01/M08 A3046 RMK AO2 SLP323 T10111078 10022 21011 51004=
201612100452 METAR KATL 100452Z 32009KT 10SM CLR M01/M08 A3045 RMK AO2 SLP322 T10061078 400671028=
201612100352 METAR KATL 100352Z 33006KT 10SM CLR 00/M08 A3046 RMK AO2 SLP322 T00001083=
201612100252 METAR KATL 100252Z 34008KT 10SM CLR 01/M08 A3045 RMK AO2 SLP321 T00061083 53003=
201612100152 METAR KATL 100152Z 34008KT 10SM CLR 01/M08 A3044 RMK AO2 SLP320 T00111083=
201612100052 METAR KATL 100052Z 33011KT 10SM CLR 02/M08 A3043 RMK AO2 SLP316 T00171083=
201612092352 METAR KATL 092352Z 32011KT 10SM CLR 02/M08 A3044 RMK AO2 SLP318 T00221083 10067 20022 53008=
201612092252 METAR KATL 092252Z 33012G17KT 10SM CLR 03/M08 A3042 RMK AO2 SLP313 T00281083=
201612092152 METAR KATL 092152Z 34012KT 10SM CLR 04/M09 A3042 RMK AO2 SLP311 T00441094=
201612092052 METAR KATL 092052Z 33009KT 10SM CLR 06/M10 A3041 RMK AO2 SLP307 T00561100 55008=
201612091952 METAR KATL 091952Z 33014KT 10SM CLR 06/M09 A3040 RMK AO2 SLP302 T00611094=
201612091852 METAR KATL 091852Z 32013KT 10SM CLR 06/M09 A3041 RMK AO2 SLP305 T00611089=
201612091752 METAR KATL 091752Z 33011KT 10SM CLR 05/M09 A3044 RMK AO2 SLP315 T00501089 10050 21028 58014=
201612091652 METAR KATL 091652Z 34013KT 10SM CLR 03/M08 A3047 RMK AO2 SLP326 T00331083=
201612091552 METAR KATL 091552Z 33009KT 10SM CLR 02/M08 A3049 RMK AO2 SLP332 T00171083=
201612091452 METAR KATL 091452Z 31012KT 10SM CLR 00/M08 A3048 RMK AO2 SLP331 T00001083 53019=
201612091352 METAR KATL 091352Z 33012KT 10SM CLR M02/M08 A3045 RMK AO2 SLP320 T10171083=
201612091252 METAR KATL 091252Z 33009KT 10SM CLR M02/M08 A3044 RMK AO2 SLP319 T10221083=
201612091152 METAR KATL 091152Z 32012KT 10SM CLR M02/M09 A3042 RMK AO2 SLP311 T10221089 10017 21022 53013=
201612091052 METAR KATL 091052Z 33010KT 10SM CLR M02/M09 A3040 RMK AO2 SLP303 T10221089=
201612090952 METAR KATL 090952Z 33010KT 10SM CLR M02/M09 A3038 RMK AO2 SLP297 T10171089=
201612090852 METAR KATL 090852Z 33011KT 10SM CLR M01/M08 A3038 RMK AO2 SLP296 T10111078 53007=
201612090752 METAR KATL 090752Z 33009KT 10SM FEW200 M01/M07 A3037 RMK AO2 SLP292 T10061072=
201612090652 METAR KATL 090652Z 33015KT 10SM FEW200 01/M08 A3036 RMK AO2 SLP288 T00061078=
201612090552 METAR KATL 090552Z 34009KT 10SM FEW200 01/M08 A3036 RMK AO2 SLP287 T00111078 10044 20011 50001=
201612090452 METAR KATL 090452Z 33009KT 10SM SCT200 02/M08 A3036 RMK AO2 SLP287 T00221078 400940022=
201612090352 METAR KATL 090352Z 31007KT 10SM BKN200 03/M07 A3036 RMK AO2 SLP287 T00281067=
201612090252 METAR KATL 090252Z 31006KT 10SM BKN200 03/M07 A3035 RMK AO2 SLP285 T00281067 53010=
201612090152 METAR KATL 090152Z 32007KT 10SM BKN200 04/M07 A3034 RMK AO2 SLP281 T00391067=
201612090052 METAR KATL 090052Z 33006KT 10SM FEW150 SCT200 03/M06 A3033 RMK AO2 SLP277 T00331061=
201612082352 METAR KATL 082352Z 32008KT 10SM SCT150 SCT200 04/M06 A3032 RMK AO2 SLP275 T00441061 10094 20044 51020=
201612082252 METAR KATL 082252Z 33011KT 10SM SCT150 BKN200 06/M07 A3031 RMK AO2 SLP268 T00561067=
201612082152 METAR KATL 082152Z 34013KT 10SM FEW150 BKN170 BKN240 07/M08 A3028 RMK AO2 SLP260 T00671078=
201612082052 METAR KATL 082052Z 35018KT 10SM FEW150 BKN170 BKN230 08/M06 A3026 RMK AO2 SLP252 T00781061 50003=
201612081952 METAR KATL 081952Z 34010KT 10SM FEW150 BKN170 BKN200 08/M06 A3027 RMK AO2 PK WND 30027/1907 SLP253 T00781056=
201612081852 METAR KATL 081852Z 32011G18KT 10SM FEW150 BKN170 BKN220 09/M05 A3026 RMK AO2 SLP252 VIRGA DSNT N-NE T00891050=
201612081752 METAR KATL 081752Z 32016G21KT 10SM FEW150 BKN170 BKN250 07/M06 A3025 RMK AO2 SLP249 VIRGA DSNT NE T00721056 10089 20056 50006=
201612081652 METAR KATL 081652Z 34015G24KT 10SM FEW150 BKN180 BKN250 08/M05 A3028 RMK AO2 SLP256 T00831050=
201612081552 METAR KATL 081552Z 32014G20KT 10SM FEW060 BKN160 BKN250 07/M03 A3026 RMK AO2 SLP253 VIRGA DSNT NE & DSNT NW-N T00721028=
201612081452 METAR KATL 081452Z 32016KT 10SM FEW060 BKN170 BKN200 07/M03 A3023 RMK AO2 SLP242 T00671028 53023=
201612081352 METAR KATL 081352Z 33013KT 10SM FEW065 SCT150 BKN200 BKN250 06/M01 A3020 RMK AO2 SLP229 T00611006=
201612081252 METAR KATL 081252Z 32012KT 10SM SCT150 BKN200 BKN250 06/02 A3018 RMK AO2 SLP223 T00560022=
201612081152 METAR KATL 081152Z 31009KT 10SM FEW012 BKN200 06/03 A3017 RMK AO2 SLP218 T00560028 10067 20050 53013=
201612081052 METAR KATL 081052Z 30009KT 10SM SCT180 BKN250 05/03 A3014 RMK AO2 SLP210 T00500028=
201612080952 METAR KATL 080952Z 31010KT 10SM SCT180 BKN250 06/03 A3012 RMK AO2 SLP202 T00560028=
201612080852 METAR KATL 080852Z 30011KT 10SM BKN180 OVC250 06/03 A3013 RMK AO2 SLP203 T00610033 53007=
201612080752 METAR KATL 080752Z 29009KT 10SM OVC170 07/04 A3011 RMK AO2 SLP197 T00670044=
201612080652 METAR KATL 080652Z 30010KT 10SM OVC170 07/04 A3011 RMK AO2 SLP197 T00670044=
201612080552 METAR KATL 080552Z 31011KT 10SM FEW020 BKN150 07/04 A3011 RMK AO2 SLP195 T00670044 10106 20067 58002=
201612080452 METAR KATL 080452Z 32008KT 10SM FEW020 SCT150 07/05 A3011 RMK AO2 SLP199 T00720050 401670067=
201612080352 METAR KATL 080352Z 31009KT 10SM FEW200 08/05 A3011 RMK AO2 SLP199 T00780050=
201612080252 METAR KATL 080252Z 30008KT 10SM FEW035 FEW200 08/06 A3011 RMK AO2 SLP199 T00830056 53011=
201612080152 METAR KATL 080152Z 28007KT 10SM FEW035 FEW200 08/07 A3010 RMK AO2 SLP195 T00830067=
201612080052 METAR KATL 080052Z 27006KT 10SM FEW035 FEW200 09/07 A3008 RMK AO2 SLP189 T00940067=
201612072352 METAR KATL 072352Z 24006KT 10SM FEW035 FEW250 11/07 A3008 RMK AO2 SLP188 T01060072 10167 20106 52017=
201612072252 METAR KATL 072252Z 24006KT 10SM FEW030 FEW250 12/07 A3006 RMK AO2 SLP182 T01220072=
201612072152 METAR KATL 072152Z 27008KT 10SM FEW030 FEW250 14/07 A3004 RMK AO2 SLP173 T01390072=
201612072052 METAR KATL 072052Z 28009KT 10SM FEW030 FEW250 16/07 A3003 RMK AO2 SLP167 T01560067 55006=
201612071952 METAR KATL 071952Z VRB06KT 10SM FEW035 FEW250 16/07 A3002 RMK AO2 SLP163 T01610072=
201612071852 METAR KATL 071852Z 24009KT 10SM FEW030 FEW250 14/07 A3002 RMK AO2 SLP166 T01440067=
201612071752 METAR KATL 071752Z 23006KT 10SM FEW025 FEW250 14/06 A3004 RMK AO2 SLP174 T01390061 10144 20067 58005=
201612071652 METAR KATL 071652Z 31005KT 10SM CLR 13/06 A3006 RMK AO2 SLP180 T01280056=
201612071552 METAR KATL 071552Z VRB03KT 10SM FEW250 11/06 A3007 RMK AO2 SLP185 T01110061=
201612071452 METAR KATL 071452Z 29004KT 10SM FEW250 09/06 A3006 RMK AO2 SLP180 T00940056 53017=
201612071352 METAR KATL 071352Z 32008KT 10SM FEW012 08/06 A3004 RMK AO2 SLP173 T00780056=
201612071252 METAR KATL 071252Z 30005KT 10SM FEW012 FEW250 07/05 A3002 RMK AO2 SLP168 T00670050=
201612071152 METAR KATL 071152Z 31007KT 10SM CLR 07/06 A3001 RMK AO2 SLP163 70008 T00720056 10117 20072 53010=
201612071052 METAR KATL 071052Z 32008KT 10SM FEW015 08/06 A2999 RMK AO2 SLP156 T00780056=
201612070952 METAR KATL 070952Z 32009KT 10SM FEW015 08/06 A2998 RMK AO2 SLP151 T00830061=
201612070928 SPECI KATL 070928Z 32009KT 10SM SCT015 09/07 A2999 RMK AO2 T00890067=
201612070852 METAR KATL 070852Z 33009KT 10SM BKN016 09/07 A2998 RMK AO2 SLP151 T00940072 51006=
201612070752 METAR KATL 070752Z 31008KT 10SM BKN015 10/08 A2998 RMK AO2 SLP150 T01000078=
201612070652 METAR KATL 070652Z 32009KT 10SM SCT017 11/08 A2997 RMK AO2 SLP147 T01060078=
201612070642 SPECI KATL 070642Z 32007KT 10SM SCT017 11/08 A2996 RMK AO2 T01060078=
201612070634 SPECI KATL 070634Z 32007KT 10SM BKN017 11/08 A2996 RMK AO2 T01060083=
201612070618 SPECI KATL 070618Z 32009KT 10SM SCT020 11/08 A2996 RMK AO2 T01060078=
201612070552 METAR KATL 070552Z 33010G16KT 10SM FEW010 BKN016 OVC025 12/09 A2996 RMK AO2 SLP145 60000 T01170089 10144 20111 51012=
201612070452 METAR KATL 070452Z 29008KT 10SM FEW010 SCT016 BKN025 12/10 A2996 RMK AO2 DZE50 SLP144 P0000 T01170100 401780111=
201612070352 METAR KATL 070352Z 30012KT 8SM -DZ OVC012 12/11 A2995 RMK AO2 DZB44 SLP141 P0000 T01220106=
201612070344 SPECI KATL 070344Z 30012KT 8SM -DZ OVC012 12/10 A2995 RMK AO2 DZB44 P0000 T01220100=
201612070252 METAR KATL 070252Z 30008KT 10SM BKN016 OVC030 13/11 A2993 RMK AO2 SLP133 60000 T01280106 51019=
201612070227 SPECI KATL 070227Z 29009KT 10SM BKN017 OVC030 13/11 A2993 RMK AO2 T01280106=
201612070152 METAR KATL 070152Z 28007KT 10SM FEW012 OVC030 13/11 A2991 RMK AO2 SLP128 BINOVC DSNT E-SE T01280111=
201612070133 SPECI KATL 070133Z 28007KT 10SM FEW012 OVC030 13/11 A2991 RMK AO2 BINOVC DSNT E T01280111=
201612070052 METAR KATL 070052Z 28011G17KT 10SM SCT010 BKN016 OVC030 13/12 A2989 RMK AO2 RAB2357E12B32E52 SLP122 BINOVC DSNT NE-E P0000 T01280117=
201612062352 METAR KATL 062352Z 31008KT 280V350 10SM SCT012 BKN018 OVC030 14/13 A2987 RMK AO2 SLP114 T01440128 10178 20128 53030=
201612062252 METAR KATL 062252Z 28011KT 10SM SCT014 BKN025 OVC040 15/13 A2984 RMK AO2 SLP103 T01500133=
201612062211 SPECI KATL 062211Z 27008KT 10SM FEW010 BKN022 OVC040 16/13 A2982 RMK AO2 T01610133=
201612062152 METAR KATL 062152Z 27007KT 10SM FEW010 SCT020 BKN030 16/13 A2980 RMK AO2 SLP091 T01610133=
201612062116 SPECI KATL 062116Z 27009KT 10SM FEW015 SCT023 BKN030 17/14 A2978 RMK AO2 T01670139=
201612062105 SPECI KATL 062105Z 29008KT 10SM SCT015 BKN023 OVC036 17/14 A2978 RMK AO2 T01670144=
201612062052 METAR KATL 062052Z 29008KT 10SM FEW010 SCT020 OVC040 17/14 A2978 RMK AO2 SLP080 T01670144 53008=
201612061952 METAR KATL 061952Z 00000KT 6SM BR FEW010 SCT030 BKN040 16/14 A2976 RMK AO2 SLP074 T01560144=
201612061918 SPECI KATL 061918Z 00000KT 6SM BR FEW005 SCT008 BKN040 15/14 A2975 RMK AO2 T01500139=
201612061852 METAR KATL 061852Z 07004KT 3SM BR FEW005 BKN008 OVC010 14/13 A2975 RMK AO2 SFC VIS 6 SLP073 T01390133=
201612061810 SPECI KATL 061810Z 00000KT 3SM BR OVC005 13/13 A2975 RMK AO2 SFC VIS 5 T01330128=
201612061752 METAR KATL 061752Z 00000KT 6SM BR OVC006 13/12 A2975 RMK AO2 DZE17 SLP074 P0001 60008 T01280122 10128 20111 50007=
201612061719 SPECI KATL 061719Z 09005KT 6SM BR FEW003 BKN007 OVC010 13/12 A2974 RMK AO2 DZE17 P0001 T01280122=
201612061717 SPECI KATL 061717Z 08005KT 5SM BR OVC005 13/12 A2975 RMK AO2 DZE17 P0001 T01280122=
201612061652 METAR KATL 061652Z 05003KT 1SM R09R/5500VP6000FT -DZ BR OVC004 12/12 A2976 RMK AO2 SFC VIS 3 SLP077 P0001 T01220122=
201612061600 SPECI KATL 061600Z 08007KT 1SM R09R/P6000FT -DZ BR OVC004 12/12 A2975 RMK AO2 SFC VIS 3 P0000 T01220117=
201612061552 METAR KATL 061552Z 09005KT 3SM -DZ BR OVC004 12/12 A2976 RMK AO2 SFC VIS 4 RAE50DZB50 SLP076 P0002 T01220117=
201612061550 SPECI KATL 061550Z VRB05KT 3SM -DZ BR OVC004 12/12 A2976 RMK AO2 SFC VIS 4 RAE50DZB50 P0002=
201612061517 SPECI KATL 061517Z 12004KT 3SM -RA BR OVC005 12/12 A2974 RMK AO2 SFC VIS 5 P0001 T01170117=
201612061452 METAR KATL 061452Z 11007KT 1/2SM R09R/P6000FT -RA BR OVC004 12/12 A2973 RMK AO2 SFC VIS 4 RAE18B42 SLP067 TWRINC P0001 60004 T01170117 53007=
201612061352 METAR KATL 061352Z 10009KT 1/2SM R09R/P6000FT -RA BR OVC003 12/12 A2973 RMK AO2 SFC VIS 2 DZB36E48 SLP068 CIG 002V004 TWRINC P0001 T01170117=
201612061252 METAR KATL 061252Z 10010KT 1/2SM R09R/P6000FT -RA BR OVC003 12/12 A2970 RMK AO2 SFC VIS 3 DZE34RAB34 SLP059 CIG 002V004 TWRINC P0002 T01170117=
201612061152 METAR KATL 061152Z 10010KT 1/2SM R09R/P6000FT -DZ BR OVC003 11/11 A2971 RMK AO2 SFC VIS 1 1/2 SLP059 CIG 002V004 TWRINC P0000 60008 70100 T01110111 10117 20111 58026=
201612061052 METAR KATL 061052Z 09013KT 1/2SM R09R/P6000FT -DZ BR OVC003 11/11 A2974 RMK AO2 SFC VIS 2 RAE40DZB40 SLP072 CIG 002V004 TWRINC P0002 T01110111=
201612060952 METAR KATL 060952Z 10011KT 1/2SM R09R/P6000FT -RA BR OVC004 11/11 A2977 RMK AO2 SFC VIS 4 SLP080 CIG 003V005 TWRINC P0001 T01110111=
201612060852 METAR KATL 060852Z 08013KT 1/2SM R09R/P6000FT -RA BR OVC004 12/12 A2979 RMK AO2 SFC VIS 3 SLP086 CIG 003V006 TWRINC P0002 60005 T01170117 58014=
201612060752 METAR KATL 060752Z 09012KT 1/2SM R09R/P6000FT -RA BR OVC004 12/12 A2979 RMK AO2 SFC VIS 2 1/2 DZE12RAB12 SLP089 CIG 003V005 TWRINC P0002 T01170117=
201612060652 METAR KATL 060652Z 09010KT 1/2SM R09R/P6000FT -DZ BR OVC004 12/12 A2983 RMK AO2 SFC VIS 2 RAE48DZB48 SLP100 CIG 003V006 TWRINC P0001 T01170117=
201612060552 METAR KATL 060552Z 08009KT 1/2SM R09R/P6000FT -RA BR OVC003 11/11 A2983 RMK AO2 SFC VIS 2 DZE40RAB40 SLP100 TWRINC P0001 60024 T01110111 10117 20111 58010=
201612060452 METAR KATL 060452Z 10009KT 1/2SM R09R/P6000FT -DZ BR OVC003 11/11 A2984 RMK AO2 SFC VIS 5 DZB47 SLP106 TWRINC P0000 T01110111 401170067=
201612060352 METAR KATL 060352Z 11014G18KT 1/2SM R09R/P6000FT OVC004 11/11 A2987 RMK AO2 SFC VIS 10 RAE14 SLP113 CIG 003V005 P0000 T01110111=
201612060252 METAR KATL 060252Z 09014G20KT 1/2SM R09R/P6000FT -RA OVC005 11/11 A2986 RMK AO2 SFC VIS 8 PRESFR SLP111 CIG 003V006 TWRINC P0002 60023 T01110111 58029=
201612060152 METAR KATL 060152Z 10015KT 1/2SM R09R/P6000FT -RA BKN005 BKN050 OVC100 11/11 A2988 RMK AO2 SFC VIS 8 SLP121 CIG 003V006 TWRINC P0005 T01110111=
201612060118 SPECI KATL 060118Z 08013KT 1/2SM R09R/P6000FT RA BR BKN005 BKN050 OVC100 11/11 A2990 RMK AO2 SFC VIS 4 PRESFR CIG 003V007 TWRINC P0002 T01110106=
201612060052 METAR KATL 060052Z 06011KT 1 1/2SM -RA BR BKN005 BKN040 OVC100 11/11 A2992 RMK AO2 SFC VIS 6 SLP134 CIG 004V007 P0016 T01110106=
201612052352 METAR KATL 052352Z 06007KT 1 1/2SM RA BR BKN005 OVC040 12/11 A2995 RMK AO2 SFC VIS 3 SLP142 CIG 004V007 P0026 60067 T01170111 10117 20100 53004=
201612052322 SPECI KATL 052322Z 05005KT 1 1/2SM RA BR BKN005 OVC040 11/11 A2995 RMK AO2 SFC VIS 3 CIG 003V006 P0015 T01110111=
201612052252 METAR KATL 052252Z 13007KT 1/2SM R09R/P6000FT RA BR BKN005 BKN040 OVC090 11/11 A2993 RMK AO2 SFC VIS 3 RAB16 PRESRR SLP136 CIG 003V006 TWRINC P0003 T01110111=
201612052152 METAR KATL 052152Z 04010KT 1/2SM R09R/P6000FT BR BKN005 BKN040 OVC060 11/11 A2991 RMK AO2 SFC VIS 4 RAE2059 SLP130 TWRINC P0000 T01110106=
201612052113 SPECI KATL 052113Z 07007KT 1/2SM R09R/P6000FT BR BKN004 BKN040 OVC060 11/11 A2992 RMK AO2 SFC VIS 4 RAE2059 TWRINC P0000 T01110106=
201612052052 METAR KATL 052052Z 08008KT 1 1/2SM -RA BR BKN005 BKN040 OVC060 11/11 A2993 RMK AO2 SFC VIS 5 SLP138 P0006 60038 T01110106 58006=
201612052038 SPECI KATL 052038Z 07007KT 1 1/2SM -RA BR BKN005 BKN030 OVC050 11/11 A2993 RMK AO2 SFC VIS 3 P0005 T01110106=
201612051952 METAR KATL 051952Z 02008KT 1 1/2SM R09R/5500VP6000FT -RA BR FEW005 BKN030 OVC050 11/11 A2995 RMK AO2 SFC VIS 3 LTG DSNT NE SLP145 CB DSNT NE P0024 T01060106=
201612051927 SPECI KATL 051927Z 32009KT 1 1/2SM -RA BR BKN005 BKN010 OVC050 11/10 A2997 RMK AO2 SFC VIS 3 P0010 T01060100=
201612051852 METAR KATL 051852Z 35007KT 2SM RA BR BKN006 BKN050 OVC100 10/09 A2994 RMK AO2 SFC VIS 3 SLP142 P0008 T01000094=
201612051848 SPECI KATL 051848Z 02006KT 2SM RA BR BKN006 BKN060 OVC100 10/09 A2993 RMK AO2 SFC VIS 3 P0006=
201612051808 SPECI KATL 051808Z 11006KT 3SM RA BR SCT006 BKN060 OVC100 10/09 A2993 RMK AO2 SFC VIS 4 P0001 T01000094=
201612051752 METAR KATL 051752Z 11004KT 3SM -RA BR FEW007 BKN070 OVC090 10/09 A2995 RMK AO2 SFC VIS 5 RAB27 SLP144 P0001 60001 T01000089 10106 20072 58022=
201612051652 METAR KATL 051652Z 08005KT 3SM BR FEW005 SCT050 OVC100 11/09 A2998 RMK AO2 SFC VIS 5 SLP155 T01060089=
201612051637 SPECI KATL 051637Z 07005KT 3SM BR FEW005 SCT060 OVC100 10/08 A2999 RMK AO2 SFC VIS 5 T01000083=
201612051617 SPECI KATL 051617Z 12003KT 2SM BR SCT005 BKN060 OVC100 10/08 A3000 RMK AO2 SFC VIS 6 T01000083=
201612051552 METAR KATL 051552Z 00000KT 2SM BR BKN005 BKN020 OVC060 09/08 A3001 RMK AO2 SFC VIS 6 SLP165 T00940083=
201612051452 METAR KATL 051452Z 10004KT 2SM BR BKN006 BKN020 BKN060 OVC250 09/08 A3002 RMK AO2 SFC VIS 5 SLP167 BKN006 V SCT T00890078 53008=
201612051444 SPECI KATL 051444Z 00000KT 2SM BR BKN006 BKN020 BKN060 08/08 A3002 RMK AO2 SFC VIS 4 T00830078=
201612051352 METAR KATL 051352Z 11004KT 1 1/2SM BR BKN005 BKN014 OVC060 08/07 A3001 RMK AO2 SFC VIS 5 SLP165 CIG 003V007 T00780072=
201612051321 SPECI KATL 051321Z 00000KT 1SM R09R/P6000FT BR BKN005 OVC014 08/07 A3000 RMK AO2 SFC VIS 5 CIG 003V007 T00780072=
201612051252 METAR KATL 051252Z 00000KT 1SM R09R/P6000FT BR OVC004 07/07 A2999 RMK AO2 SFC VIS 4 SLP160 CIG 003V005 T00720072=
201612051152 METAR KATL 051152Z 09006KT 1SM R09R/P6000FT BR OVC003 07/07 A2999 RMK AO2 SFC VIS 4 DZE48 SLP159 P0000 60001 70082 T00720067 10072 20067 58004=
201612051052 METAR KATL 051052Z 03005KT 1SM R09R/P6000FT -DZ BR OVC003 07/07 A3000 RMK AO2 SFC VIS 4 SLP161 P0000 T00670067=
201612050952 METAR KATL 050952Z 03003KT 1SM R09R/P6000FT -DZ BR OVC003 07/07 A3000 RMK AO2 SFC VIS 2 SLP163 TWRINC P0000 T00670067=
201612050852 METAR KATL 050852Z 03008KT 1SM R09R/P6000FT -DZ BR OVC004 07/07 A3000 RMK AO2 SFC VIS 4 DZB03 SLP163 CIG 003V005 TWRINC P0000 60001 T00670067 56002=
201612050752 METAR KATL 050752Z 06006KT 1SM R09R/P6000FT BR OVC004 07/07 A3001 RMK AO2 SFC VIS 6 RAB0656E24 SLP165 CIG 003V005 P0000 T00670067=
201612050652 METAR KATL 050652Z 09008KT 1SM R09R/P6000FT BR OVC004 07/06 A2997 RMK AO2 SFC VIS 6 RAE38 SLP152 CIG 003V005 TWRINC P0001 T00670061=
201612050649 SPECI KATL 050649Z 09010KT 1SM R09R/P6000FT BR OVC004 07/06 A2997 RMK AO2 SFC VIS 6 RAE38 CIG 003V005 TWRINC P0001=
201612050604 SPECI KATL 050604Z 09010KT 8SM -RA OVC004 07/06 A3000 RMK AO2 P0001 T00670061=
201612050552 METAR KATL 050552Z 10007KT 9SM -RA OVC005 07/06 A3001 RMK AO2 SLP166 CIG 004V007 P0002 60022 T00670061 10072 20067 58010=
201612050452 METAR KATL 050452Z 10009KT 8SM -RA BKN006 OVC012 07/06 A3004 RMK AO2 SLP175 CIG 004V008 P0005 T00670061 400830067=
201612050352 METAR KATL 050352Z 09010KT 8SM -RA BKN006 OVC016 07/07 A3005 RMK AO2 SLP181 CIG 005V008 P0004 T00670067=
201612050252 METAR KATL 050252Z 10008KT 10SM -RA BKN005 OVC024 07/07 A3004 RMK AO2 RAE22B48DZB22E48 SLP176 CIG 004V007 P0001 60011 T00720067 50001=
201612050238 SPECI KATL 050238Z 10010KT 8SM -DZ BKN005 OVC022 07/07 A3004 RMK AO2 RAE22DZB22 CIG 004V007 P0001 T00720067=
201612050232 SPECI KATL 050232Z 09012KT 2SM -DZ BKN005 OVC022 07/07 A3004 RMK AO2 SFC VIS 8 RAE22DZB22 CIG 004V007 TWRINC P0001 T00720067=
201612050152 METAR KATL 050152Z 07008KT 2SM -RA BR BKN004 OVC010 07/07 A3006 RMK AO2 SFC VIS 6 SLP183 CIG 003V006 TWRINC P0008 T00720072=
201612050052 METAR KATL 050052Z 07012KT 2SM -RA BR OVC003 07/07 A3005 RMK AO2 SFC VIS 3 DZE29RAB29 SLP179 P0002 T00720072=
201612042352 METAR KATL 042352Z 09011KT 2SM -DZ BR OVC004 07/07 A3004 RMK AO2 SFC VIS 5 RAE48DZB49 SLP175 CIG 003V005 TWRINC P0001 60005 T00720072 10072 20072 55000=
201612042252 METAR KATL 042252Z 10009KT 2SM -RA BR OVC004 07/07 A3003 RMK AO2 SFC VIS 3 DZE05RAB05 SLP174 CIG 003V005 P0001 T00720072=
201612042152 METAR KATL 042152Z 10012KT 2SM -DZ BR OVC004 07/07 A3003 RMK AO2 SLP173 CIG 003V005 P0000 T00720072=
201612042105 SPECI KATL 042105Z 09013G18KT 2SM -DZ BR OVC004 07/07 A3004 RMK AO2 P0000 T00720072=
201612042052 METAR KATL 042052Z 09014KT 2 1/2SM -DZ BR OVC005 07/07 A3004 RMK AO2 RAE02DZB02 SLP176 P0001 60003 T00720072 56017=
201612042044 SPECI KATL 042044Z 09014KT 2SM -DZ BR OVC005 07/07 A3004 RMK AO2 RAE02DZB02 P0001 T00720072=
201612041952 METAR KATL 041952Z 09011KT 1 1/2SM -RA BR OVC005 07/07 A3005 RMK AO2 RAE30B49DZB30E49 SLP181 P0001 T00720072=
201612041900 SPECI KATL 041900Z 08012G19KT 2SM -RA BR OVC005 07/07 A3007 RMK AO2 P0000 T00720072=
201612041852 METAR KATL 041852Z 08015G19KT 4SM -RA BR OVC005 07/07 A3007 RMK AO2 SLP186 P0001 T00720072=
201612041836 SPECI KATL 041836Z 09012KT 4SM -RA BR OVC005 07/07 A3007 RMK AO2 P0001 T00720072=
201612041752 METAR KATL 041752Z 09009KT 2SM -RA BR OVC006 07/07 A3009 RMK AO2 SLP193 P0002 60054 T00720072 10078 20067 58017=
201612041652 METAR KATL 041652Z 10011KT 2SM -RA BR OVC008 07/07 A3012 RMK AO2 SLP203 P0004 T00720072=
201612041636 SPECI KATL 041636Z 09012KT 5SM -RA BR BKN008 OVC011 07/07 A3013 RMK AO2 P0003 T00720072=
201612041615 SPECI KATL 041615Z 09014KT 3SM -RA BR FEW008 OVC011 07/07 A3013 RMK AO2 P0002 T00720072=
201612041552 METAR KATL 041552Z 09013KT 4SM -RA BR BKN008 OVC015 07/06 A3015 RMK AO2 SLP213 P0018 T00720061=
201612041535 SPECI KATL 041535Z 09012G21KT 3SM -RA BR BKN010 OVC021 07/06 A3014 RMK AO2 P0017 T00670061=
201612041513 SPECI KATL 041513Z 09012KT 2SM R09R/6000VP6000FT +RA BR BKN009 OVC024 07/06 A3015 RMK AO2 P0008 T00670061=
201612041509 SPECI KATL 041509Z 08013KT 3SM -RA BR BKN009 OVC024 07/06 A3015 RMK AO2 P0005 T00720061=
201612041502 SPECI KATL 041502Z 09015G21KT 2 1/2SM RA BR BKN009 OVC026 07/07 A3013 RMK AO2 P0003 T00720067=
201612041452 METAR KATL 041452Z 10010G17KT 4SM RA BR BKN008 OVC026 07/06 A3014 RMK AO2 SLP210 P0014 60030 T00720061 51007=
201612041442 SPECI KATL 041442Z 10011KT 4SM RA BR BKN008 OVC026 07/06 A3014 RMK AO2 P0012 T00720061=
201612041352 METAR KATL 041352Z 10012KT 5SM -RA BR FEW005 BKN028 OVC055 07/07 A3013 RMK AO2 SLP207 P0010 T00720072=
201612041342 SPECI KATL 041342Z 09015KT 5SM -RA BR FEW005 BKN028 OVC055 07/07 A3012 RMK AO2 P0010 T00720072=
201612041252 METAR KATL 041252Z 07011KT 3SM RA BR OVC031 07/06 A3017 RMK AO2 SLP218 P0006 T00720061=
201612041250 SPECI KATL 041250Z 07012KT 3SM +RA BR OVC031 07/06 A3016 RMK AO2 P0005=
201612041152 METAR KATL 041152Z 10011KT 10SM -RA OVC029 08/06 A3012 RMK AO2 SLP202 P0001 60001 70010 T00780061 10083 20078 58006=
201612041149 SPECI KATL 041149Z 10011G19KT 10SM -RA OVC029 08/06 A3012 RMK AO2 P0001=
201612041052 METAR KATL 041052Z 09011KT 10SM -RA BKN031 OVC060 08/06 A3013 RMK AO2 RAB40 SLP203 P0000 T00780061=
201612040952 METAR KATL 040952Z 07014KT 10SM SCT036 OVC060 08/06 A3014 RMK AO2 SLP208 T00780056=
201612040852 METAR KATL 040852Z 09011KT 10SM FEW025 OVC060 08/06 A3014 RMK AO2 SLP206 T00780061 57008=
201612040752 METAR KATL 040752Z 08010KT 10SM FEW025 OVC060 08/06 A3015 RMK AO2 SLP209 T00780061=
201612040652 METAR KATL 040652Z 08010KT 10SM BKN060 OVC085 08/07 A3015 RMK AO2 SLP212 T00830067=
201612040552 METAR KATL 040552Z 08010KT 10SM BKN060 OVC090 08/07 A3016 RMK AO2 RAE28 SLP215 P0000 60006 T00830067 10094 20083 58006=
201612040452 METAR KATL 040452Z 08007KT 10SM -RA SCT060 OVC085 08/07 A3020 RMK AO2 SLP229 P0001 T00830067 401440056=
201612040352 METAR KATL 040352Z 07007KT 9SM -RA OVC060 09/06 A3019 RMK AO2 SLP226 P0000 T00890056=
201612040252 METAR KATL 040252Z 09007KT 10SM -RA BKN060 OVC100 08/07 A3018 RMK AO2 SLP223 PCPN VRY LGT P0000 60005 T00830067 58016=
201612040152 METAR KATL 040152Z 10006KT 10SM -RA SCT075 OVC110 09/07 A3020 RMK AO2 SLP231 P0002 T00890067=
201612040052 METAR KATL 040052Z 00000KT 6SM -RA BR BKN080 BKN100 09/07 A3024 RMK AO2 SLP243 P0003 T00890072=
201612032352 METAR KATL 032352Z 00000KT 8SM -RA BKN080 OVC110 09/07 A3023 RMK AO2 SLP241 P0003 60003 T00890067 10144 20089 51012=
201612032252 METAR KATL 032252Z 34008KT 10SM -RA OVC095 11/04 A3023 RMK AO2 SLP240 P0000 T01060044=
201612032152 METAR KATL 032152Z 34008KT 10SM -RA OVC090 12/01 A3022 RMK AO2 RAB41 SLP235 P0000 T01220006=
201612032052 METAR KATL 032052Z 10SM OVC100 13/M02 A3019 RMK AO2 SLP227 T01331017 56010=
201612031952 METAR KATL 031952Z 13003KT 10SM OVC100 13/M03 A3021 RMK AO2 SLP231 T01331028=
201612031852 METAR KATL 031852Z 03004KT 10SM BKN120 14/M02 A3020 RMK AO2 SLP229 T01391022=
201612031752 METAR KATL 031752Z VRB03KT 10SM FEW020 BKN120 13/M01 A3023 RMK AO2 SLP237 FU FEW020 T01281011 10133 20056 58015=
201612031652 METAR KATL 031652Z 03006KT 10SM BKN140 12/M01 A3023 RMK AO2 SLP239 T01171006=
201612031552 METAR KATL 031552Z 32004KT 10SM BKN150 10/00 A3027 RMK AO2 SLP254 T01000000=
201612031452 METAR KATL 031452Z 34008KT 10SM BKN150 09/00 A3027 RMK AO2 SLP254 T00890000 50002=
201612031352 METAR KATL 031352Z 31005KT 10SM BKN150 BKN250 07/01 A3027 RMK AO2 SLP254 VIRGA SW-NW T00670011=
201612031252 METAR KATL 031252Z 31006KT 10SM BKN180 BKN250 06/01 A3026 RMK AO2 SLP252 T00610006=
201612031152 METAR KATL 031152Z 31006KT 10SM SCT180 BKN250 06/01 A3026 RMK AO2 SLP252 T00560006 10072 20056 53009=
201612031052 METAR KATL 031052Z 28004KT 10SM FEW200 BKN250 06/00 A3026 RMK AO2 SLP250 T00560000=
201612030952 METAR KATL 030952Z 32006KT 10SM BKN250 06/01 A3023 RMK AO2 SLP240 T00610011=
201612030752 METAR KATL 030752Z 32008KT 10SM BKN250 07/01 A3024 RMK AO2 SLP242 T00670011=
201612030652 METAR KATL 030652Z 31008KT 10SM BKN250 07/01 A3024 RMK AO2 SLP242 T00720006=
201612030552 METAR KATL 030552Z 31007KT 10SM BKN250 07/01 A3025 RMK AO2 SLP243 T00720011 10111 20067 58001=
201612030452 METAR KATL 030452Z 31004KT 10SM FEW200 BKN250 08/00 A3024 RMK AO2 SLP243 T00780000 401610033=
201612030352 METAR KATL 030352Z 28004KT 10SM SCT200 BKN250 08/01 A3027 RMK AO2 SLP252 T00780006=
201612030252 METAR KATL 030252Z 32005KT 10SM BKN250 08/00 A3025 RMK AO2 SLP247 T00830000 53003=
201612030152 METAR KATL 030152Z 34005KT 10SM SCT250 09/00 A3024 RMK AO2 SLP243 T00940000=
201612030052 METAR KATL 030052Z 35007KT 10SM SCT250 11/M01 A3024 RMK AO2 SLP245 T01061006=
201612022352 METAR KATL 022352Z 33005KT 10SM SCT250 11/M01 A3024 RMK AO2 SLP245 T01061011 10161 20106 51014=
201612022252 METAR KATL 022252Z 32007KT 10SM SCT250 12/M02 A3023 RMK AO2 SLP241 T01221017=
201612022152 METAR KATL 022152Z 32009KT 10SM BKN250 14/M03 A3022 RMK AO2 SLP236 T01441028=
201612022052 METAR KATL 022052Z 34012KT 10SM SCT250 15/M04 A3020 RMK AO2 SLP229 T01501039 55010=
201612021952 METAR KATL 021952Z 34012KT 10SM FEW250 16/M03 A3020 RMK AO2 SLP227 T01561033=
201612021852 METAR KATL 021852Z 01013G19KT 10SM FEW250 16/M04 A3021 RMK AO2 SLP231 T01561039=
201612021752 METAR KATL 021752Z 32012KT 10SM FEW250 14/M03 A3023 RMK AO2 SLP239 T01391028 10144 20033 58010=
201612021652 METAR KATL 021652Z 35010G15KT 10SM FEW250 13/M03 A3025 RMK AO2 SLP248 T01281028=
201612021552 METAR KATL 021552Z 33011KT 10SM FEW250 11/M02 A3027 RMK AO2 SLP252 T01111017=
201612021452 METAR KATL 021452Z 32009KT 10SM FEW180 08/M01 A3026 RMK AO2 SLP251 T00831011 53028=
201612021352 METAR KATL 021352Z 32008KT 10SM SCT180 06/M01 A3023 RMK AO2 SLP240 T00611006=
201612021252 METAR KATL 021252Z 32007KT 10SM FEW200 04/M01 A3020 RMK AO2 SLP231 T00391011=
201612021152 METAR KATL 021152Z 32007KT 10SM FEW200 04/M01 A3018 RMK AO2 SLP223 T00391011 10061 20033 53016=
201612021052 METAR KATL 021052Z 33010KT 10SM FEW200 04/M01 A3015 RMK AO2 SLP214 T00391011=
201612020952 METAR KATL 020952Z 32008KT 10SM CLR 04/M01 A3014 RMK AO2 SLP208 T00391006=
201612020852 METAR KATL 020852Z 32009KT 10SM CLR 04/M01 A3013 RMK AO2 SLP204 T00391006 53008=
201612020752 METAR KATL 020752Z 32007KT 10SM CLR 03/M01 A3011 RMK AO2 SLP199 T00331006=
201612020652 METAR KATL 020652Z 29008KT 10SM CLR 04/M01 A3011 RMK AO2 SLP197 T00441006=
201612020552 METAR KATL 020552Z 30007KT 10SM CLR 06/M01 A3010 RMK AO2 SLP195 T00561006 10094 20050 53009=
201612020452 METAR KATL 020452Z 29004KT 10SM CLR 05/M01 A3009 RMK AO2 SLP190 T00501006 401440050=
201612020352 METAR KATL 020352Z 31005KT 10SM CLR 06/00 A3008 RMK AO2 SLP190 T00610000=
201612020252 METAR KATL 020252Z 32006KT 10SM CLR 07/00 A3007 RMK AO2 SLP187 T00670000 50010=
201612020152 METAR KATL 020152Z 29005KT 10SM CLR 08/M01 A3009 RMK AO2 SLP191 T00781006=
201612020052 METAR KATL 020052Z 28006KT 10SM CLR 08/M01 A3006 RMK AO2 SLP183 T00781006=
201612012352 METAR KATL 012352Z 32007KT 10SM CLR 09/M01 A3004 RMK AO2 SLP177 T00941011 10144 20094 53009=
201612012252 METAR KATL 012252Z 30008KT 10SM CLR 10/M01 A3003 RMK AO2 SLP172 T01001011=
201612012152 METAR KATL 012152Z 29009KT 10SM FEW250 13/M01 A3002 RMK AO2 SLP167 T01281011=
201612012052 METAR KATL 012052Z 32010KT 10SM FEW250 13/M02 A3001 RMK AO2 SLP164 T01331017 55003=
201612011952 METAR KATL 011952Z 31013KT 10SM FEW250 14/M01 A3001 RMK AO2 SLP163 T01441011=
201612011852 METAR KATL 011852Z 29013G17KT 10SM CLR 14/M01 A3001 RMK AO2 SLP164 T01391011=
201612011752 METAR KATL 011752Z 30016G20KT 10SM CLR 13/M01 A3002 RMK AO2 SLP167 T01281011 10128 20050 58007=
201612011652 METAR KATL 011652Z 33011KT 10SM CLR 12/M01 A3003 RMK AO2 SLP171 T01221006=
201612011552 METAR KATL 011552Z 34014KT 10SM CLR 11/01 A3004 RMK AO2 SLP175 T01060011=
201612011452 METAR KATL 011452Z 30010KT 10SM CLR 09/03 A3004 RMK AO2 SLP174 T00890033 51018=
201612011352 METAR KATL 011352Z 29008KT 10SM CLR 07/03 A3003 RMK AO2 SLP170 T00720033=
201612011252 METAR KATL 011252Z 29008KT 10SM FEW200 05/03 A3001 RMK AO2 SLP163 T00500033=
