##########################################################
# Query made at 04/19/2024 23:48:01 UTC
# Time interval: from 03/01/2016 12:00  to 03/31/2016 12:59  UTC
##########################################################

##########################################################
# KATL, Atlanta, Hartsfield - Jackson Atlanta International Airport (United States)
# WMO index: 72219. WIGOS ID: 0-20000-0-72219
# Latitude 33-38-59N. Longitude 084-25-00W. Altitude 312 m.
##########################################################

201603311252 METAR KATL 311252Z 17010KT 10SM BKN016 BKN026 BKN044 OVC200 18/15 A2998 RMK AO2 SLP147 CIG 014V018 T01830150=
201603311152 METAR KATL 311152Z 18011G17KT 10SM BKN016 BKN042 OVC200 18/15 A2998 RMK AO2 PRESRR SLP146 CIG 014V018 T01780150 10178 20172 53005=
201603311052 METAR KATL 311052Z 15010KT 10SM BKN013 OVC200 17/14 A2995 RMK AO2 SLP135 CIG 011V015 T01720144=
201603310952 METAR KATL 310952Z 14008KT 10SM BKN014 OVC200 17/14 A2994 RMK AO2 SLP131 T01720144=
201603310939 SPECI KATL 310939Z 13011KT 10SM BKN014 BKN200 OVC250 17/14 A2993 RMK AO2 PRESFR T01720144=
201603310903 SPECI KATL 310903Z 14008KT 10SM SCT016 BKN200 OVC250 17/14 A2997 RMK AO2 T01720139=
201603310852 METAR KATL 310852Z 14008KT 10SM BKN015 OVC200 17/14 A2997 RMK AO2 SLP141 T01720139 56023=
201603310752 METAR KATL 310752Z 15010KT 10SM BKN016 BKN022 OVC200 17/14 A3000 RMK AO2 SLP151 T01720139=
201603310652 METAR KATL 310652Z 15015G24KT 10SM BKN016 OVC200 18/14 A3000 RMK AO2 SLP153 T01780144=
201603310552 METAR KATL 310552Z 14012G19KT 10SM OVC013 17/14 A3004 RMK AO2 SLP166 T01720139 10206 20167 58018=
201603310517 SPECI KATL 310517Z 13009KT 10SM BKN013 17/12 A3005 RMK AO2 T01670122=
201603310505 SPECI KATL 310505Z 13010KT 10SM BKN015 BKN250 17/12 A3005 RMK AO2 T01670117=
201603310452 METAR KATL 310452Z 14007KT 10SM SCT015 BKN250 17/11 A3006 RMK AO2 SLP175 T01670111 402220089=
201603310352 METAR KATL 310352Z 14006KT 10SM BKN250 17/08 A3008 RMK AO2 SLP181 T01670083=
201603310252 METAR KATL 310252Z 14005KT 10SM BKN250 17/07 A3009 RMK AO2 SLP186 T01720072 58003=
201603310152 METAR KATL 310152Z 13005KT 10SM FEW200 BKN250 18/06 A3011 RMK AO2 SLP191 T01830061=
201603310052 SPECI KATL 310052Z 12006KT 10SM FEW200 OVC250 19/05 A3010 RMK AO2 SLP190 T01940050=
201603310052 METAR KATL 310052Z 12006KT 10SM FEW200 OVC250 19/05 A3010 RMK AO2 SLP190 T01940050=
201603302352 METAR KATL 302352Z 13008KT 10SM FEW150 OVC250 21/04 A3010 RMK AO2 SLP191 T02060044 10222 20206 56011=
201603302252 METAR KATL 302252Z 13010KT 10SM FEW200 BKN250 21/04 A3010 RMK AO2 SLP191 T02110044=
201603302152 METAR KATL 302152Z 13012KT 10SM BKN250 22/04 A3011 RMK AO2 SLP195 T02170044=
201603302052 METAR KATL 302052Z 14008G16KT 10SM BKN250 22/04 A3013 RMK AO2 SLP201 T02220044 56022=
201603301952 METAR KATL 301952Z 14009G19KT 10SM BKN250 22/04 A3014 RMK AO2 SLP204 T02170044=
201603301852 METAR KATL 301852Z 15010KT 10SM FEW200 BKN250 22/05 A3017 RMK AO2 SLP213 T02170050=
201603301752 METAR KATL 301752Z 15011KT 10SM BKN250 21/04 A3020 RMK AO2 SLP224 T02060044 10206 20094 58020=
201603301652 METAR KATL 301652Z 11010G16KT 10SM BKN250 19/05 A3024 RMK AO2 SLP236 T01940050=
201603301552 METAR KATL 301552Z 11012G17KT 10SM BKN250 18/06 A3025 RMK AO2 SLP240 T01830056=
201603301452 METAR KATL 301452Z 13012KT 10SM BKN250 17/06 A3026 RMK AO2 SLP245 T01670061 51014=
201603301352 METAR KATL 301352Z 12010KT 10SM SCT250 14/07 A3025 RMK AO2 SLP242 T01440072=
201603301252 METAR KATL 301252Z 09006KT 10SM FEW250 12/06 A3024 RMK AO2 SLP239 T01220061=
201603301152 METAR KATL 301152Z 09007KT 10SM SCT250 09/05 A3022 RMK AO2 SLP232 T00940050 10133 20089 53014=
201603301052 METAR KATL 301052Z 09006KT 10SM SCT250 09/04 A3019 RMK AO2 SLP221 T00940044=
201603300952 METAR KATL 300952Z 09007KT 10SM FEW250 09/04 A3018 RMK AO2 SLP218 T00940039=
201603300852 METAR KATL 300852Z 08006KT 10SM CLR 09/04 A3018 RMK AO2 SLP217 T00940044 51004=
201603300752 METAR KATL 300752Z 10006KT 10SM CLR 10/04 A3017 RMK AO2 SLP214 T01000044=
201603300652 METAR KATL 300652Z 09003KT 10SM CLR 12/04 A3018 RMK AO2 SLP218 T01220044=
201603300552 METAR KATL 300552Z 11006KT 10SM CLR 13/04 A3017 RMK AO2 SLP212 T01280044 10200 20117 50008=
201603300452 METAR KATL 300452Z 09007KT 10SM CLR 13/04 A3017 RMK AO2 SLP214 T01330044 402280072=
201603300352 METAR KATL 300352Z 10005KT 10SM CLR 16/04 A3014 RMK AO2 SLP205 T01560039=
201603300252 METAR KATL 300252Z 13004KT 10SM CLR 17/03 A3014 RMK AO2 SLP204 T01670028 53014=
201603300152 METAR KATL 300152Z 01007KT 10SM FEW250 18/02 A3013 RMK AO2 SLP200 T01780022=
201603300052 METAR KATL 300052Z VRB03KT 10SM FEW250 19/02 A3011 RMK AO2 SLP193 T01940017=
201603292352 METAR KATL 292352Z 19003KT 10SM FEW250 20/02 A3010 RMK AO2 SLP192 T02000017 10228 20189 51006=
201603292252 METAR KATL 292252Z 00000KT 10SM FEW250 22/M01 A3010 RMK AO2 SLP191 T02171006=
201603292152 METAR KATL 292152Z 09003KT 10SM SCT250 22/01 A3009 RMK AO2 SLP187 T02220006=
201603292052 METAR KATL 292052Z 10006KT 10SM FEW250 22/01 A3008 RMK AO2 SLP184 T02170011 58013=
201603291952 METAR KATL 291952Z VRB03KT 10SM SCT250 21/01 A3009 RMK AO2 SLP189 T02110011=
201603291852 METAR KATL 291852Z VRB03KT 10SM FEW250 21/01 A3011 RMK AO2 SLP194 T02060011=
201603291752 METAR KATL 291752Z 00000KT 10SM BKN250 19/01 A3012 RMK AO2 SLP197 T01940011 10200 20072 55014=
201603291652 METAR KATL 291652Z 02005KT 10SM SCT250 18/01 A3012 RMK AO2 SLP196 T01830011=
201603291552 METAR KATL 291552Z 05004KT 10SM FEW250 17/02 A3015 RMK AO2 SLP209 T01670017=
201603291452 METAR KATL 291452Z 36005KT 10SM FEW250 16/02 A3016 RMK AO2 SLP212 T01560022 51016=
201603291352 METAR KATL 291352Z 35007KT 10SM FEW250 13/02 A3015 RMK AO2 SLP209 T01330022=
201603291252 METAR KATL 291252Z 35007KT 10SM FEW250 10/03 A3014 RMK AO2 SLP206 T01000028=
201603291152 METAR KATL 291152Z 34008KT 10SM FEW250 07/02 A3011 RMK AO2 SLP197 T00720022 10111 20072 53015=
201603291052 METAR KATL 291052Z 32009KT 10SM SCT250 07/02 A3009 RMK AO2 SLP190 T00720022=
201603290952 METAR KATL 290952Z 31007KT 10SM FEW250 08/02 A3008 RMK AO2 SLP184 T00780022=
201603290852 METAR KATL 290852Z 32007KT 10SM CLR 08/02 A3007 RMK AO2 SLP180 T00830022 53000=
201603290752 METAR KATL 290752Z 31007KT 10SM CLR 09/02 A3007 RMK AO2 SLP180 T00890022=
201603290652 METAR KATL 290652Z 32007KT 10SM CLR 10/02 A3006 RMK AO2 SLP178 T01000022=
201603290552 METAR KATL 290552Z 32011KT 10SM CLR 11/02 A3007 RMK AO2 SLP178 T01110022 10183 20111 58003=
201603290452 METAR KATL 290452Z 33012KT 10SM CLR 12/02 A3007 RMK AO2 SLP180 T01220022 402220122=
201603290352 METAR KATL 290352Z 31009KT 10SM CLR 12/04 A3007 RMK AO2 SLP181 T01220044=
201603290252 METAR KATL 290252Z 33006KT 10SM CLR 13/05 A3008 RMK AO2 SLP181 T01330050 51010=
201603290152 METAR KATL 290152Z 31007KT 10SM CLR 15/05 A3007 RMK AO2 SLP181 T01500050=
201603290052 METAR KATL 290052Z 31005KT 10SM CLR 16/04 A3006 RMK AO2 SLP174 T01610044=
201603282352 METAR KATL 282352Z 33008KT 10SM CLR 18/04 A3004 RMK AO2 SLP170 T01830039 10222 20183 53010=
201603282252 METAR KATL 282252Z 30012KT 10SM CLR 20/02 A3003 RMK AO2 SLP162 T02000022=
201603282152 METAR KATL 282152Z 31011KT 10SM CLR 21/06 A3002 RMK AO2 SLP159 T02110056=
201603282052 METAR KATL 282052Z 33013G18KT 10SM CLR 22/06 A3001 RMK AO2 SLP157 T02170056 57009=
201603281952 METAR KATL 281952Z 32011G20KT 10SM CLR 21/07 A3002 RMK AO2 SLP161 T02110067=
201603281852 METAR KATL 281852Z 32012G19KT 10SM CLR 21/07 A3004 RMK AO2 SLP165 T02110072=
201603281752 METAR KATL 281752Z 29013G19KT 10SM FEW050 21/08 A3004 RMK AO2 SLP168 T02060083 10206 20156 50004=
201603281652 METAR KATL 281652Z 30012G18KT 10SM FEW035 19/11 A3004 RMK AO2 SLP170 T01940111=
201603281552 METAR KATL 281552Z 30010G18KT 10SM FEW030 19/12 A3004 RMK AO2 SLP166 T01940122=
201603281452 METAR KATL 281452Z 29010KT 10SM FEW025 18/12 A3003 RMK AO2 SLP165 T01830122 51018=
201603281352 METAR KATL 281352Z 28014KT 10SM FEW010 FEW030 FEW250 18/14 A3001 RMK AO2 SLP160 T01780144=
201603281252 METAR KATL 281252Z 27009KT 10SM BKN009 17/14 A3000 RMK AO2 SLP155 BKN009 V SCT CIG 007V012 T01670144=
201603281250 SPECI KATL 281250Z 26010KT 10SM BKN009 17/14 A3000 RMK AO2 BKN009 V SCT CIG 007V012=
201603281234 SPECI KATL 281234Z 27009KT 10SM SCT007 BKN018 17/14 A3000 RMK AO2 T01670144=
201603281152 METAR KATL 281152Z 26005KT 9SM FEW007 SCT021 16/14 A2998 RMK AO2 SLP148 60001 70015 T01560144 10167 20156 53008=
201603281118 SPECI KATL 281118Z 27007KT 10SM SCT007 BKN015 16/14 A2997 RMK AO2 T01610144=
201603281052 METAR KATL 281052Z 25008KT 10SM SCT007 SCT032 BKN050 16/14 A2997 RMK AO2 SLP143 T01610144=
201603280952 METAR KATL 280952Z 26006KT 10SM FEW007 SCT038 BKN050 16/14 A2996 RMK AO2 SLP139 T01610144=
201603280852 METAR KATL 280852Z 27007KT 10SM FEW006 BKN040 17/15 A2995 RMK AO2 SLP138 60001 T01670150 58017=
201603280752 METAR KATL 280752Z 25005KT 10SM FEW006 BKN047 16/14 A2997 RMK AO2 RAE06 SLP144 P0001 T01560144=
201603280652 METAR KATL 280652Z 25005KT 10SM -RA FEW006 BKN050 16/14 A2999 RMK AO2 RAB51 SLP153 P0000 T01610144=
201603280552 METAR KATL 280552Z 25005KT 10SM SCT006 BKN035 BKN050 16/15 A3000 RMK AO2 SLP155 60000 T01610150 10178 20161 50004=
201603280550 SPECI KATL 280550Z 26005KT 10SM SCT006 BKN035 BKN050 16/15 A3000 RMK AO2=
201603280543 SPECI KATL 280543Z 27006KT 10SM BKN007 BKN035 BKN050 16/15 A3000 RMK AO2 T01610150=
201603280452 METAR KATL 280452Z 26006KT 10SM FEW004 FEW050 SCT200 SCT250 16/15 A3001 RMK AO2 SLP157 T01610150 401890161=
201603280352 METAR KATL 280352Z 25004KT 8SM FEW004 SCT055 BKN200 OVC250 17/16 A3000 RMK AO2 SLP155 T01670156=
201603280252 METAR KATL 280252Z 23005KT 10SM FEW005 BKN055 BKN120 OVC200 17/16 A2999 RMK AO2 SLP152 60000 T01720161 55004=
201603280152 METAR KATL 280152Z 21003KT 10SM FEW007 SCT038 BKN060 OVC200 18/16 A2997 RMK AO2 SLP145 T01780161=
201603280130 SPECI KATL 280130Z 00000KT 10SM FEW007 BKN030 OVC055 18/16 A2997 RMK AO2 T01780161=
201603280114 SPECI KATL 280114Z 26004KT 10SM SCT007 BKN022 OVC038 18/16 A2998 RMK AO2 T01780161=
201603280052 METAR KATL 280052Z 27005KT 10SM BKN007 OVC014 18/16 A2997 RMK AO2 DZE51 SLP143 CIG 005V009 P0000 T01780161=
201603272352 METAR KATL 272352Z 19004KT 7SM -DZ BKN007 OVC012 18/16 A3000 RMK AO2 DZB49 SLP156 CIG 005V009 P0000 60010 T01780161 10183 20172 55019=
201603272252 METAR KATL 272252Z 13005KT 10SM BKN007 BKN013 OVC070 18/16 A2999 RMK AO2 RAE14 SLP151 CIG 005V009 P0000 T01780161=
201603272206 SPECI KATL 272206Z 11004KT 10SM -RA BKN007 BKN016 OVC070 18/17 A3002 RMK AO2 CIG 005V009 P0000 T01830167=
201603272152 METAR KATL 272152Z 11004KT 8SM -RA FEW007 BKN014 OVC035 18/16 A3003 RMK AO2 SLP165 CIG 012V016 P0001 T01780161=
201603272125 SPECI KATL 272125Z 12003KT 7SM -RA SCT008 OVC014 18/16 A3005 RMK AO2 CIG 012V016 P0001 T01780161=
201603272114 SPECI KATL 272114Z 12003KT 8SM -RA BKN008 OVC015 18/16 A3005 RMK AO2 CIG 006V010 P0001 T01780161=
201603272052 METAR KATL 272052Z 14005KT 6SM -RA BR SCT006 BKN015 OVC100 18/16 A3006 RMK AO2 SLP176 P0001 60009 T01780161 55012=
201603272044 SPECI KATL 272044Z 13005KT 9SM -RA SCT006 BKN020 BKN100 OVC200 18/16 A3006 RMK AO2 P0000 T01780161=
201603272038 SPECI KATL 272038Z 12005KT 10SM -RA FEW005 BKN090 OVC110 18/16 A3006 RMK AO2 P0000 T01780156=
201603271952 METAR KATL 271952Z 24003KT 10SM -RA FEW030 SCT080 OVC120 18/16 A3006 RMK AO2 SLP174 P0001 T01780156=
201603271852 METAR KATL 271852Z 20003KT 7SM -RA FEW014 OVC100 18/16 A3009 RMK AO2 SLP185 P0007 T01780156=
201603271843 SPECI KATL 271843Z 20003KT 7SM -RA FEW011 SCT018 OVC100 18/16 A3009 RMK AO2 P0007 T01780161=
201603271838 SPECI KATL 271838Z 20004KT 7SM -RA FEW011 BKN021 OVC100 18/16 A3010 RMK AO2 P0007 T01780161=
201603271810 SPECI KATL 271810Z 22005KT 5SM -RA BR FEW008 BKN014 OVC080 18/16 A3009 RMK AO2 P0005 T01780156=
201603271752 METAR KATL 271752Z 21003KT 4SM RA BR FEW010 SCT025 OVC090 18/16 A3010 RMK AO2 RAB1656 SLP188 P0004 60004 T01780161 10189 20167 58013=
201603271720 SPECI KATL 271720Z 20006KT 10SM -RA SCT018 SCT050 OVC100 18/16 A3012 RMK AO2 RAB1656 P0000 T01830156=
201603271652 METAR KATL 271652Z 19008KT 10SM SCT010 OVC018 19/16 A3012 RMK AO2 SLP197 T01890156=
201603271633 SPECI KATL 271633Z 16005KT 10SM BKN012 OVC016 18/16 A3013 RMK AO2 T01830156=
201603271552 METAR KATL 271552Z 15005KT 10SM FEW010 BKN037 OVC042 18/16 A3014 RMK AO2 SLP201 T01830156=
201603271452 METAR KATL 271452Z 14004KT 10SM FEW008 BKN065 OVC140 18/16 A3013 RMK AO2 SLP198 T01830156 58006=
201603271427 SPECI KATL 271427Z 12005KT 7SM SCT007 OVC075 18/16 A3013 RMK AO2 T01780156=
201603271352 METAR KATL 271352Z 13006KT 6SM BR OVC006 17/16 A3015 RMK AO2 SLP205 T01720156=
201603271309 SPECI KATL 271309Z 14005KT 6SM BR BKN006 OVC045 17/16 A3014 RMK AO2 T01720156=
201603271306 SPECI KATL 271306Z 14004KT 1 1/2SM BR BKN006 OVC045 17/16 A3014 RMK AO2 SFC VIS 6 T01720156=
201603271252 METAR KATL 271252Z 14005KT 1 1/2SM BR SCT005 OVC045 17/16 A3015 RMK AO2 SFC VIS 6 SLP204 T01720156=
201603271152 METAR KATL 271152Z 11004KT 1 1/2SM BR OVC005 17/16 A3015 RMK AO2 SFC VIS 5 SLP204 CIG 004V008 60000 70002 T01670156 10167 20161 53007=
201603271102 SPECI KATL 271102Z 13005KT 1 1/2SM BR BKN006 OVC012 17/16 A3014 RMK AO2 SFC VIS 5 CIG 004V008 T01670156=
201603271052 METAR KATL 271052Z 12004KT 1/2SM R09R/P6000FT BR BKN004 OVC012 17/16 A3015 RMK AO2 SFC VIS 4 SLP204 CIG 003V006 T01670156=
201603270952 METAR KATL 270952Z 11006KT 1/2SM R09R/P6000FT BR OVC003 17/16 A3012 RMK AO2 SFC VIS 1 1/2 SLP194 T01670156=
201603270852 METAR KATL 270852Z 10006KT 1/2SM R09R/2800V4500FT BR VV002 16/16 A3012 RMK AO2 SFC VIS 3/4 SLP197 60000 T01610156 58013=
201603270752 METAR KATL 270752Z 10007KT 1/2SM R09R/2400V5000FT FG VV002 16/15 A3014 RMK AO2 SLP203 T01610150=
201603270652 METAR KATL 270652Z 08007KT 1/2SM R09R/3500V4000FT FG VV002 16/15 A3017 RMK AO2 DZE0558 SLP211 P0000 T01610150=
201603270552 METAR KATL 270552Z 09008KT 1/2SM R09R/5500VP6000FT -DZ BR OVC002 16/15 A3016 RMK AO2 SFC VIS 3/4 DZB50 SLP211 P0000 60000 T01610150 10178 20161 53003=
201603270452 METAR KATL 270452Z 11008KT 1/2SM R09R/4000V5500FT FG VV002 16/15 A3016 RMK AO2 SLP209 T01610150 401940133=
201603270352 METAR KATL 270352Z 09008KT 1/2SM R09R/3000V4500FT FG VV002 16/15 A3016 RMK AO2 DZB0255E30 SLP209 P0000 T01610150=
201603270252 METAR KATL 270252Z 09008KT 1/2SM R09R/P6000FT BR OVC002 16/15 A3016 RMK AO2 SFC VIS 2 SLP210 TWRINC T01610150 51012=
201603270152 METAR KATL 270152Z COR 09007KT 4SM BR OVC004 17/16 A3015 RMK AO2 SLP208 CIG 003V005 T01670156=
201603270052 METAR KATL 270052Z 07011KT 5SM BR OVC004 17/16 A3013 RMK AO2 SLP200 CIG 003V005 T01720156=
201603270027 SPECI KATL 270027Z 07011KT 6SM BR OVC004 17/16 A3013 RMK AO2 CIG 003V005 T01720156=
201603262352 METAR KATL 262352Z 09010KT 5SM BR OVC006 18/16 A3012 RMK AO2 SLP196 CIG 005V007 60000 T01780156 10194 20167 53005=
201603262319 SPECI KATL 262319Z 08011KT 7SM BKN008 BKN018 BKN200 BKN250 18/16 A3010 RMK AO2 CIG 006V010 T01780161=
201603262305 SPECI KATL 262305Z 09011KT 8SM SCT008 BKN016 BKN200 BKN250 18/16 A3010 RMK AO2 T01830161=
201603262252 METAR KATL 262252Z 09010KT 8SM SCT012 BKN020 BKN200 BKN250 19/16 A3010 RMK AO2 SLP191 T01890161=
201603262152 METAR KATL 262152Z 08005KT 8SM BKN010 BKN018 BKN040 BKN200 19/16 A3011 RMK AO2 SLP191 CIG 008V012 T01890161=
201603262113 SPECI KATL 262113Z 04006KT 6SM BR SCT008 BKN014 BKN036 OVC200 19/17 A3010 RMK AO2 T01940172=
201603262111 SPECI KATL 262111Z 04007KT 2SM SCT008 BKN014 BKN036 OVC200 19/17 A3010 RMK AO2 SFC VIS 7 T01940167=
201603262052 METAR KATL 262052Z 07005KT 2SM BR SCT006 OVC015 18/17 A3010 RMK AO2 SFC VIS 5 SLP190 60000 T01830167 56002=
201603262022 SPECI KATL 262022Z 06005KT 2SM BR BKN006 OVC012 18/16 A3010 RMK AO2 SFC VIS 5 T01830161=
201603262003 SPECI KATL 262003Z 04005KT 2SM BR SCT005 OVC011 18/16 A3011 RMK AO2 SFC VIS 6 T01780161=
201603261952 METAR KATL 261952Z 06008KT 2SM BR BKN005 OVC011 18/16 A3010 RMK AO2 SFC VIS 4 DZB34E49 SLP191 P0000 T01780161=
201603261852 METAR KATL 261852Z 09007KT 1/4SM R09R/P6000FT BR BKN005 OVC010 18/16 A3010 RMK AO2 SFC VIS 2 1/2 DZE1757 SLP191 TWRINC P0000 T01780161=
201603261823 SPECI KATL 261823Z 05006KT 1 1/4SM BR BKN005 OVC011 17/16 A3010 RMK AO2 SFC VIS 3 DZE1757 P0000 T01720156=
201603261752 METAR KATL 261752Z 08006KT 1/4SM R09R/P6000FT -DZ BR OVC003 17/16 A3011 RMK AO2 SFC VIS 2 DZE10B30RAB10E30 SLP193 TWRINC P0001 60002 T01670156 10167 20144 58002=
201603261652 METAR KATL 261652Z 10005KT 1/4SM R09R/5500VP6000FT -DZ BR OVC003 16/15 A3012 RMK AO2 SFC VIS 1 SLP198 TWRINC P0000 T01610150=
201603261552 METAR KATL 261552Z 09007KT 1/4SM R09R/5000VP6000FT -DZ BR OVC003 16/14 A3013 RMK AO2 SFC VIS 1 1/4 SLP199 TWRINC P0000 T01560144=
201603261452 METAR KATL 261452Z 09005KT 1/4SM R09R/4500V5000FT DZ BR OVC003 15/14 A3011 RMK AO2 SFC VIS 3/4 SLP194 TWRINC P0001 60001 T01500139 53024=
201603261426 SPECI KATL 261426Z 09006KT 1/4SM R09R/5500VP6000FT -DZ BR OVC003 15/14 A3010 RMK AO2 SFC VIS 1 TWRINC P0001 T01500139=
201603261352 METAR KATL 261352Z 05008KT 1/2SM R09R/6000VP6000FT -DZ BR OVC004 15/13 A3008 RMK AO2 SFC VIS 1 SLP183 P0000 T01500133=
201603261312 SPECI KATL 261312Z 07006KT 1/2SM R09R/P6000FT -DZ BR OVC004 14/13 A3006 RMK AO2 SFC VIS 1 P0000 T01440133=
201603261252 METAR KATL 261252Z 07006KT 1SM R09R/P6000FT -DZ BR OVC007 14/13 A3007 RMK AO2 SFC VIS 1 1/2 DZB18 SLP177 CIG 005V009 P0000 T01440133=
201603261238 SPECI KATL 261238Z 09005KT 1SM R09R/P6000FT -DZ BR OVC009 14/13 A3006 RMK AO2 SFC VIS 1 3/4 DZB18 P0000 T01440128=
201603261225 SPECI KATL 261225Z 00000KT 1SM R09R/P6000FT -DZ OVC009 14/12 A3006 RMK AO2 SFC VIS 3 DZB18 P0000 T01440117=
201603261220 SPECI KATL 261220Z 00000KT 2SM -DZ OVC010 14/12 A3006 RMK AO2 SFC VIS 5 DZB18 P0000 T01440117=
201603261152 METAR KATL 261152Z 06005KT 9SM OVC011 15/11 A3004 RMK AO2 SLP168 T01500106 10150 20133 53009=
201603261131 SPECI KATL 261131Z 07005KT 10SM OVC012 14/11 A3004 RMK AO2 T01440106=
201603261052 METAR KATL 261052Z 08005KT 10SM FEW009 OVC018 14/09 A3003 RMK AO2 SLP163 T01440094=
201603261016 SPECI KATL 261016Z 05004KT 10SM FEW009 BKN022 OVC030 15/08 A3002 RMK AO2 T01500083=
201603260952 METAR KATL 260952Z 05004KT 10SM SCT009 BKN030 BKN200 14/08 A3002 RMK AO2 SLP160 T01440078=
201603260931 SPECI KATL 260931Z 06004KT 10SM SCT009 BKN039 14/08 A3002 RMK AO2 T01440078=
201603260852 METAR KATL 260852Z COR 00000KT 10SM SCT015 BKN046 BKNSCT250 14/08 A3001 RMK AO2 SLP157 T01390078 53001=
201603260752 METAR KATL 260752Z 12003KT 10SM FEW015 FEW046 SCT250 14/07 A3001 RMK AO2 SLP155 T01440067=
201603260652 METAR KATL 260652Z 12003KT 10SM FEW020 BKN250 14/07 A3001 RMK AO2 SLP158 T01440067=
201603260552 METAR KATL 260552Z 00000KT 10SM FEW020 FEW036 BKN250 14/07 A3001 RMK AO2 SLP157 T01440067 10206 20144 53007=
201603260452 METAR KATL 260452Z 00000KT 10SM FEW025 SCT040 BKN250 16/07 A3000 RMK AO2 SLP154 T01560067 402330144=
201603260352 METAR KATL 260352Z 05004KT 10SM SCT026 BKN040 BKN250 17/07 A3000 RMK AO2 SLP152 T01670067=
201603260252 METAR KATL 260252Z 02006KT 10SM FEW035 BKN250 17/07 A2999 RMK AO2 SLP150 T01720067 52019=
201603260152 METAR KATL 260152Z 34005KT 10SM FEW045 BKN250 18/07 A2997 RMK AO2 SLP145 T01830067=
201603260052 METAR KATL 260052Z 00000KT 10SM FEW045 BKN250 19/07 A2994 RMK AO2 SLP136 T01940072=
201603252352 METAR KATL 252352Z 27005KT 10SM FEW055 BKN250 20/07 A2993 RMK AO2 SLP130 T02000072 10233 20194 53014=
201603252252 METAR KATL 252252Z 26008KT 10SM FEW055 BKN250 22/06 A2991 RMK AO2 SLP124 T02220061=
201603252152 METAR KATL 252152Z 25005KT 10SM FEW055 BKN250 23/08 A2990 RMK AO2 SLP117 T02280078=
201603252052 METAR KATL 252052Z 25011KT 10SM FEW050 OVC250 22/09 A2989 RMK AO2 SLP115 T02220089 56015=
201603251952 METAR KATL 251952Z 26008KT 10SM SCT043 OVC250 22/10 A2989 RMK AO2 SLP116 T02220100=
201603251852 METAR KATL 251852Z 28006KT 10SM SCT041 OVC250 21/12 A2991 RMK AO2 SLP123 T02110117=
201603251752 METAR KATL 251752Z 33004KT 10SM BKN030 BKN040 OVC250 19/12 A2993 RMK AO2 SLP131 60000 T01940117 10194 20150 50000=
201603251652 METAR KATL 251652Z 27007KT 10SM BKN030 BKN040 BKN250 19/12 A2994 RMK AO2 SLP132 T01890117=
201603251649 SPECI KATL 251649Z VRB04KT 10SM BKN030 BKN040 BKN250 18/12 A2994 RMK AO2=
201603251552 METAR KATL 251552Z VRB03KT 10SM BKN025 BKN035 BKN250 19/12 A2993 RMK AO2 SLP130 T01940117=
201603251452 METAR KATL 251452Z 31007KT 10SM FEW025 BKN035 BKN250 17/11 A2992 RMK AO2 SLP129 60000 T01670111 53019=
201603251352 METAR KATL 251352Z 29005KT 10SM FEW015 BKN035 BKN250 16/11 A2990 RMK AO2 SLP123 T01560111=
201603251252 METAR KATL 251252Z 27004KT 10SM FEW017 OVC034 15/11 A2988 RMK AO2 DZB18E33 SLP114 BINOVC P0000 T01500111=
201603251244 SPECI KATL 251244Z 29005KT 10SM SCT017 BKN034 BKN150 OVC200 15/12 A2988 RMK AO2 DZB18E33 P0000 T01500117=
201603251233 SPECI KATL 251233Z 31007KT 10SM BKN017 BKN038 OVC150 15/12 A2988 RMK AO2 DZB18E33 P0000 T01500117=
201603251152 METAR KATL 251152Z VRB05KT 10SM FEW010 BKN014 OVC150 16/13 A2987 RMK AO2 SLP110 60000 70022 T01560128 10172 20156 53021=
201603251052 METAR KATL 251052Z 28004KT 10SM OVC012 16/13 A2984 RMK AO2 SLP102 CIG 010V014 T01560128=
201603251043 SPECI KATL 251043Z 27004KT 10SM BKN014 OVC022 16/13 A2984 RMK AO2 T01560128=
201603250952 METAR KATL 250952Z 28006KT 10SM FEW007 OVC020 16/13 A2981 RMK AO2 DZB23E38 SLP091 P0000 T01560133=
201603250938 SPECI KATL 250938Z 27006KT 10SM SCT008 OVC017 16/13 A2981 RMK AO2 DZB23E38 P0000 T01560133=
201603250852 METAR KATL 250852Z 26006KT 10SM BKN008 OVC015 16/14 A2980 RMK AO2 DZE48 SLP085 CIG 007V010 P0000 60000 T01560139 56007=
201603250752 METAR KATL 250752Z 27008KT 8SM -DZ OVC009 16/14 A2981 RMK AO2 DZB48 SLP088 CIG 008V010 P0000 T01610139=
201603250652 METAR KATL 250652Z 24013KT 10SM OVC011 16/13 A2982 RMK AO2 SLP092 CIG 009V012 T01610133=
201603250605 SPECI KATL 250605Z 25011G17KT 10SM OVC014 17/14 A2982 RMK AO2 CIG 012V016 T01670139=
201603250552 METAR KATL 250552Z 25011KT 10SM OVC015 17/14 A2982 RMK AO2 SLP091 CIG 012V018 60000 T01720139 10189 20172 56007=
201603250506 SPECI KATL 250506Z 22012KT 10SM BKN015 BKN150 OVC200 17/14 A2983 RMK AO2 CIG 012V018 T01720144=
201603250452 METAR KATL 250452Z 22008KT 10SM SCT015 BKN200 OVC250 17/14 A2983 RMK AO2 SLP093 SCT015 V BKN T01720144 402390122=
201603250352 METAR KATL 250352Z 22010KT 10SM SCT016 BKN025 OVC200 17/14 A2983 RMK AO2 SLP097 T01720144=
201603250252 METAR KATL 250252Z 23008KT 10SM SCT017 BKN025 BKN200 OVC250 18/15 A2984 RMK AO2 SLP100 60000 T01780150 53029=
201603250152 METAR KATL 250152Z 28007KT 10SM BKN018 BKN200 OVC250 18/15 A2983 RMK AO2 SLP097 T01780150=
201603250143 SPECI KATL 250143Z 28007KT 10SM BKN018 BKN200 OVC250 18/15 A2982 RMK AO2 T01830150=
201603250052 METAR KATL 250052Z 17013KT 10SM FEW110 SCT150 OVC200 19/15 A2975 RMK AO2 PK WND 17037/0003 RAE2354 SLP070 VIRGA NE-SE-S P0000 T01890150=
201603242352 METAR KATL 242352Z 17026G42KT 10SM -RA FEW010 BKN100CB OVC150 18/14 A2975 RMK AO2 PK WND 17049/2331 SLP072 CBMAM NE-OHD-SW P0002 60022 T01780144 10239 20172 58039=
201603242334 SPECI KATL 242334Z 16039G49KT 8SM -RA FEW010 BKN100CB OVC150 18/14 A2973 RMK AO2 PK WND 17049/2331 PRESFR CBMAM OHD-ALQDS P0002 T01780144=
201603242252 METAR KATL 242252Z 18022G32KT 9SM -RA FEW060 BKN110CB OVC150 18/16 A2981 RMK AO2 PK WND 16032/2247 SLP091 CBMAM SW-NW-N P0002 T01780156=
201603242152 METAR KATL 242152Z 19011G18KT 6SM RA FEW040 SCT055 BKN080 OVC150 18/15 A2988 RMK AO2 RAB2056 TSB18E52 SLP115 VIS LWR NE-SE TS DSIPTD P0018 T01780150=
201603242127 SPECI KATL 242127Z 23009KT 3SM TSRA SCT040CB BKN055 OVC100 18/14 A2990 RMK AO2 RAB2056 TSB18 OCNL LTGIC SW-NW TS SW-NW MOV NE P0005 T01830144=
201603242118 SPECI KATL 242118Z 22010G18KT 5SM -TSRA SCT045CB BKN060 OVC100 20/14 A2989 RMK AO2 RAB2056 TSB18 OCNL LTGIC SW-NW TS VC SW-NW MOV NE P0002 T02000139=
201603242052 METAR KATL 242052Z 19008KT 10SM FEW045CB BKN070 OVC100 23/12 A2987 RMK AO2 SLP109 CB SW-NW MOV NE CBMAM DSNT W SHRA VC SW-NW T02280117 56031=
201603241952 METAR KATL 241952Z 20013G19KT 10SM BKN050 BKN060 OVC100 23/11 A2989 RMK AO2 SLP117 SHRA VC N-NE T02280111=
201603241852 METAR KATL 241852Z 16012G20KT 10SM FEW046 SCT120 BKN250 23/11 A2990 RMK AO2 SLP119 T02280111=
201603241752 METAR KATL 241752Z 18018KT 10SM FEW045 BKN085 BKN250 22/11 A2997 RMK AO2 PK WND 18029/1730 SLP141 ACC NE-SE-SW T02220111 10222 20122 58032=
201603241652 METAR KATL 241652Z 19015G25KT 10SM FEW045 FEW085 SCT110 BKN250 21/11 A3000 RMK AO2 SLP155 T02110106=
201603241552 METAR KATL 241552Z 18010G21KT 10SM R09R/5500VP6000FT FEW040 BKN100 BKN250 21/10 A3004 RMK AO2 SLP167 T02060100=
201603241452 METAR KATL 241452Z 18009KT 10SM FEW060 FEW100 SCT250 18/10 A3006 RMK AO2 SLP176 T01830100 50002=
201603241352 METAR KATL 241352Z 20010KT 10SM FEW005 FEW055 SCT250 16/10 A3007 RMK AO2 SLP179 FU FEW005 T01610100=
201603241252 METAR KATL 241252Z 15007KT 8SM FEW055 SCT200 BKN250 13/09 A3007 RMK AO2 SLP180 T01280094=
201603241152 METAR KATL 241152Z 10005KT 10SM FEW055 SCT200 BKN250 12/09 A3006 RMK AO2 SLP176 T01220094 10161 20122 53001=
201603241052 METAR KATL 241052Z 00000KT 10SM FEW200 SCT250 13/09 A3004 RMK AO2 SLP170 T01280094=
201603240952 METAR KATL 240952Z 00000KT 10SM SCT250 13/09 A3004 RMK AO2 SLP169 T01280094=
201603240852 METAR KATL 240852Z 19006KT 10SM SCT250 13/09 A3005 RMK AO2 SLP173 T01330094 58015=
201603240752 METAR KATL 240752Z 19006KT 10SM SCT250 14/09 A3007 RMK AO2 SLP178 T01390089=
201603240652 METAR KATL 240652Z 18010KT 10SM SCT050 SCT250 15/08 A3009 RMK AO2 SLP183 T01500083=
201603240552 METAR KATL 240552Z 16005KT 10SM BKN050 BKN250 16/08 A3010 RMK AO2 SLP188 T01610083 10194 20161 58012=
201603240452 METAR KATL 240452Z 18005KT 10SM BKN050 BKN250 17/08 A3011 RMK AO2 SLP192 T01670083 402220072=
201603240352 METAR KATL 240352Z 21003KT 10SM BKN050 BKN250 17/08 A3013 RMK AO2 SLP199 T01670083=
201603240252 METAR KATL 240252Z 20006KT 10SM BKN050 BKN250 17/08 A3013 RMK AO2 SLP201 T01720083 53008=
201603240152 METAR KATL 240152Z 19006KT 10SM BKN055 BKN250 17/08 A3012 RMK AO2 SLP197 T01720078=
201603240052 METAR KATL 240052Z 18006KT 10SM FEW060 BKN250 18/08 A3011 RMK AO2 SLP194 T01780078=
201603232352 METAR KATL 232352Z 20009KT 10SM FEW060 BKN250 19/07 A3011 RMK AO2 SLP194 T01940072 10222 20194 56004=
201603232252 METAR KATL 232252Z 22011KT 10SM FEW060 SCT250 21/07 A3011 RMK AO2 SLP194 T02110072=
201603232152 METAR KATL 232152Z 22011KT 10SM FEW060 FEW250 22/07 A3012 RMK AO2 SLP196 T02170067=
201603232052 METAR KATL 232052Z 20010G17KT 10SM FEW060 FEW250 22/07 A3012 RMK AO2 SLP197 T02170067 56024=
201603231952 METAR KATL 231952Z 20009G20KT 10SM FEW060 FEW250 22/07 A3013 RMK AO2 SLP201 T02170067=
201603231852 METAR KATL 231852Z 19011G18KT 10SM FEW055 FEW250 21/07 A3016 RMK AO2 SLP209 T02110067=
201603231752 METAR KATL 231752Z 25009KT 10SM FEW050 FEW250 20/07 A3019 RMK AO2 SLP222 T02000067 10200 20072 58018=
201603231652 METAR KATL 231652Z 20014G19KT 10SM FEW040 FEW250 18/07 A3022 RMK AO2 SLP233 T01830072=
201603231552 METAR KATL 231552Z 24014G19KT 10SM SCT030 SCT250 17/07 A3024 RMK AO2 SLP238 T01670072=
201603231452 METAR KATL 231452Z 22010KT 10SM FEW020 FEW030 SCT250 15/08 A3025 RMK AO2 SLP240 T01500078 51010=
201603231352 METAR KATL 231352Z 27008KT 10SM FEW027 SCT200 SCT250 13/07 A3024 RMK AO2 SLP240 T01280072=
201603231252 METAR KATL 231252Z 28004KT 10SM SCT025 SCT250 10/06 A3024 RMK AO2 SLP239 T01000061=
201603231152 METAR KATL 231152Z 18003KT 10SM FEW020 FEW250 07/04 A3021 RMK AO2 SLP231 T00720039 10111 20072 53006=
201603231052 METAR KATL 231052Z 21003KT 10SM FEW250 07/03 A3019 RMK AO2 SLP222 T00720028=
201603230952 METAR KATL 230952Z 22003KT 10SM FEW250 08/02 A3019 RMK AO2 SLP223 T00780022=
201603230852 METAR KATL 230852Z 22004KT 10SM FEW250 08/02 A3019 RMK AO2 SLP223 T00830017 55001=
201603230752 METAR KATL 230752Z 21004KT 10SM FEW250 09/01 A3019 RMK AO2 SLP220 T00940011=
201603230652 METAR KATL 230652Z 20007KT 10SM FEW250 11/01 A3019 RMK AO2 SLP221 T01060006=
201603230552 METAR KATL 230552Z 20006KT 10SM FEW250 11/00 A3020 RMK AO2 SLP225 T01110000 10167 20111 58006=
201603230452 METAR KATL 230452Z 20007KT 10SM FEW250 12/00 A3021 RMK AO2 SLP227 T01220000 402000033=
201603230352 METAR KATL 230352Z 20009KT 10SM FEW250 13/00 A3021 RMK AO2 SLP230 T01280000=
201603230252 METAR KATL 230252Z 19008KT 10SM FEW250 13/M01 A3022 RMK AO2 SLP231 T01331006 51009=
201603230152 METAR KATL 230152Z 19007KT 10SM FEW250 13/M01 A3021 RMK AO2 SLP231 T01331006=
201603230052 METAR KATL 230052Z 19005KT 10SM FEW250 16/M01 A3020 RMK AO2 SLP227 T01561011=
201603222352 METAR KATL 222352Z 20006KT 10SM FEW250 17/M02 A3019 RMK AO2 SLP223 T01721017 10200 20167 55004=
201603222252 METAR KATL 222252Z 21009KT 10SM CLR 19/M02 A3019 RMK AO2 SLP223 T01891022=
201603222152 METAR KATL 222152Z 19010KT 10SM CLR 19/M02 A3019 RMK AO2 SLP226 T01941022=
201603222052 METAR KATL 222052Z 21012KT 10SM CLR 19/M03 A3020 RMK AO2 SLP226 T01941028 56025=
201603221952 METAR KATL 221952Z 22013G19KT 10SM CLR 19/M02 A3022 RMK AO2 SLP232 T01941022=
201603221852 METAR KATL 221852Z 19009KT 160V230 10SM CLR 18/M02 A3025 RMK AO2 SLP243 T01831017=
201603221752 METAR KATL 221752Z 23009G17KT 10SM FEW250 17/M02 A3027 RMK AO2 SLP252 T01671017 10172 20039 58018=
201603221652 METAR KATL 221652Z 22009G14KT 10SM FEW250 16/M02 A3031 RMK AO2 SLP265 T01611017=
201603221552 METAR KATL 221552Z 00000KT 10SM FEW250 14/M02 A3033 RMK AO2 SLP271 T01391017=
201603221452 METAR KATL 221452Z 26004KT 10SM FEW250 13/M01 A3033 RMK AO2 SLP271 T01281011 51011=
201603221352 METAR KATL 221352Z 00000KT 10SM FEW250 11/01 A3032 RMK AO2 SLP271 T01110006=
201603221252 METAR KATL 221252Z 18003KT 10SM FEW200 07/00 A3031 RMK AO2 SLP268 T00670000=
201603221152 METAR KATL 221152Z 00000KT 10SM FEW200 04/M02 A3029 RMK AO2 SLP263 T00441017 10072 20033 53011=
201603221052 METAR KATL 221052Z 22003KT 10SM CLR 04/M02 A3028 RMK AO2 SLP256 T00391017=
201603220952 METAR KATL 220952Z 28004KT 10SM CLR 04/M02 A3027 RMK AO2 SLP253 T00391017=
201603220852 METAR KATL 220852Z 29004KT 10SM CLR 05/M02 A3026 RMK AO2 SLP249 T00501022 57002=
201603220752 METAR KATL 220752Z 00000KT 10SM CLR 06/M02 A3026 RMK AO2 SLP248 T00561017=
201603220652 METAR KATL 220652Z 25003KT 10SM CLR 06/M02 A3027 RMK AO2 SLP253 T00561017=
201603220552 METAR KATL 220552Z 27004KT 10SM CLR 07/M03 A3027 RMK AO2 SLP251 T00721028 10111 20067 58000=
201603220452 METAR KATL 220452Z 27004KT 10SM CLR 07/M03 A3027 RMK AO2 SLP254 T00721028 401390028=
201603220352 METAR KATL 220352Z 29005KT 10SM CLR 08/M03 A3027 RMK AO2 SLP254 T00781028=
201603220252 METAR KATL 220252Z 28006KT 10SM CLR 08/M02 A3027 RMK AO2 SLP253 T00781022 51014=
201603220152 METAR KATL 220152Z 28004KT 10SM CLR 08/M03 A3026 RMK AO2 SLP253 T00831028=
201603220052 METAR KATL 220052Z 31007KT 10SM CLR 10/M03 A3024 RMK AO2 SLP244 T01001033=
201603212352 METAR KATL 212352Z 31009KT 10SM CLR 11/M03 A3022 RMK AO2 SLP239 T01111033 10139 20106 53002=
201603212252 METAR KATL 212252Z 28007KT 10SM CLR 13/M02 A3021 RMK AO2 SLP234 T01281022=
201603212152 METAR KATL 212152Z 31009KT 10SM CLR 14/M03 A3021 RMK AO2 SLP233 T01391033=
201603212052 METAR KATL 212052Z 33012G18KT 10SM CLR 14/M03 A3022 RMK AO2 SLP236 T01391033 56012=
201603211952 METAR KATL 211952Z 34013G21KT 10SM CLR 13/M04 A3022 RMK AO2 WSHFT 1936 SLP236 T01331039=
201603211852 METAR KATL 211852Z 34013G23KT 10SM CLR 12/M03 A3023 RMK AO2 SLP241 T01221033=
201603211752 METAR KATL 211752Z 31016G20KT 10SM FEW050 11/M02 A3026 RMK AO2 SLP250 T01111022 10111 20028 58005=
201603211652 METAR KATL 211652Z 30013G19KT 10SM FEW045 09/M02 A3027 RMK AO2 SLP256 T00941022=
201603211552 METAR KATL 211552Z 32014KT 10SM FEW040 08/M02 A3028 RMK AO2 PK WND 35027/1530 SLP260 T00831022=
201603211452 METAR KATL 211452Z 33018G25KT 10SM FEW035 08/M02 A3027 RMK AO2 PK WND 34026/1410 SLP255 T00781017 51025=
201603211352 METAR KATL 211352Z 33011G23KT 10SM FEW030 05/M02 A3025 RMK AO2 SLP249 T00501017=
201603211252 METAR KATL 211252Z 31013KT 10SM FEW025 04/M02 A3023 RMK AO2 SLP241 T00391017=
201603211152 METAR KATL 211152Z 32012KT 10SM FEW025 03/M02 A3020 RMK AO2 SLP230 T00281022 10044 20028 53021=
201603211052 METAR KATL 211052Z 32012KT 10SM FEW030 03/M02 A3016 RMK AO2 SLP219 T00281022=
201603210952 METAR KATL 210952Z 32015G21KT 10SM CLR 03/M02 A3015 RMK AO2 SLP214 T00331022=
201603210852 METAR KATL 210852Z 33012G22KT 10SM CLR 04/M03 A3013 RMK AO2 SLP206 T00391028 53007=
201603210752 METAR KATL 210752Z 34015G24KT 10SM FEW033 04/M03 A3012 RMK AO2 SLP202 T00391028=
201603210652 METAR KATL 210652Z 33014G20KT 10SM FEW033 04/M03 A3012 RMK AO2 SLP201 T00441033=
201603210552 METAR KATL 210552Z 31014KT 10SM BKN036 BKN080 04/M06 A3011 RMK AO2 SLP199 T00391061 10083 20039 51005=
201603210452 METAR KATL 210452Z 31013KT 10SM FEW080 04/M07 A3011 RMK AO2 SLP199 T00441067 401390044=
201603210352 METAR KATL 210352Z 32012KT 10SM FEW085 05/M07 A3010 RMK AO2 SLP197 T00501072=
201603210252 METAR KATL 210252Z 30014KT 10SM SCT080 06/M07 A3009 RMK AO2 SLP194 T00611072 51026=
201603210152 METAR KATL 210152Z 30013KT 10SM BKN075 07/M07 A3008 RMK AO2 SLP189 T00671072=
201603210052 METAR KATL 210052Z 31014G23KT 10SM SCT075 07/M08 A3006 RMK AO2 PK WND 31031/0033 SLP181 T00721078=
201603202352 METAR KATL 202352Z 30017G23KT 10SM SCT075 SCT250 08/M07 A3002 RMK AO2 PK WND 29031/2303 SLP168 T00831072 10139 20083 53025=
201603202252 METAR KATL 202252Z 29019G28KT 10SM SCT070 SCT200 10/M07 A2998 RMK AO2 PK WND 31029/2215 SLP156 T01001072=
201603202152 METAR KATL 202152Z 29017G26KT 10SM SCT070 SCT200 12/M05 A2995 RMK AO2 PK WND 32028/2138 SLP144 T01171050=
201603202052 METAR KATL 202052Z 29018G23KT 10SM SCT075 13/M04 A2994 RMK AO2 PK WND 29027/2010 WSHFT 2004 SLP139 T01331044 55007=
201603202024 SPECI KATL 202024Z 32020G24KT 10SM BKN070 13/M03 A2994 RMK AO2 PK WND 29027/2010 WSHFT 2004 T01281028=
201603201952 METAR KATL 201952Z 32015G21KT 10SM SCT060 BKN070 12/M02 A2994 RMK AO2 SLP138 T01221022=
201603201852 METAR KATL 201852Z 32015G23KT 10SM BKN055 BKN070 13/M01 A2995 RMK AO2 SLP142 T01281006=
201603201752 METAR KATL 201752Z 33012G20KT 10SM SCT045 BKN060 13/00 A2996 RMK AO2 SLP146 T01280000 10133 20061 58012=
201603201652 METAR KATL 201652Z 32013G19KT 260V350 10SM SCT040 13/02 A2999 RMK AO2 SLP154 T01280022=
201603201552 METAR KATL 201552Z 31013G21KT 10SM SCT035 SCT070 12/02 A2999 RMK AO2 SLP157 T01170017=
201603201452 METAR KATL 201452Z 32014G18KT 10SM FEW030 FEW070 10/02 A3000 RMK AO2 SLP157 ACC NE-E T01000017 53009=
201603201352 METAR KATL 201352Z 31010KT 10SM FEW030 FEW075 09/01 A2999 RMK AO2 SLP153 T00890011=
201603201252 METAR KATL 201252Z 33011KT 10SM FEW020 FEW075 07/01 A2998 RMK AO2 SLP151 T00720011=
201603201152 METAR KATL 201152Z 32010KT 10SM FEW020 FEW075 06/01 A2997 RMK AO2 SLP149 T00610011 10106 20061 53011=
201603201052 METAR KATL 201052Z 32011KT 10SM CLR 07/01 A2996 RMK AO2 SLP144 T00670011=
201603200952 METAR KATL 200952Z 32011KT 10SM CLR 07/02 A2995 RMK AO2 SLP139 T00720017=
201603200852 METAR KATL 200852Z 32011KT 10SM CLR 08/02 A2994 RMK AO2 SLP135 T00780017 58001=
201603200752 METAR KATL 200752Z 33014KT 10SM CLR 09/02 A2995 RMK AO2 SLP137 T00890022=
201603200652 METAR KATL 200652Z 32012G20KT 10SM FEW220 09/02 A2994 RMK AO2 SLP137 T00940022=
201603200552 METAR KATL 200552Z 32015KT 10SM FEW075 FEW220 11/03 A2994 RMK AO2 SLP135 T01060028 10172 20106 53004=
201603200452 METAR KATL 200452Z 33014KT 10SM BKN180 BKN250 12/03 A2993 RMK AO2 SLP132 T01220028 402330122=
201603200352 METAR KATL 200352Z 34015G21KT 10SM FEW140 SCT200 BKN250 13/03 A2993 RMK AO2 SLP131 T01330028=
201603200252 METAR KATL 200252Z 33010KT 10SM FEW085 SCT140 BKN200 BKN250 14/04 A2993 RMK AO2 SLP131 T01440039 51013=
201603200152 METAR KATL 200152Z 31011KT 10SM BKN090 BKN130 BKN200 16/05 A2992 RMK AO2 SLP130 T01560050=
201603200052 METAR KATL 200052Z 30007G17KT 10SM BKN080 BKN120 OVC200 17/05 A2990 RMK AO2 SLP123 T01670050=
201603192352 METAR KATL 192352Z 30010KT 10SM BKN060 BKN110 BKN200 17/07 A2989 RMK AO2 SLP119 T01720072 10233 20172 53013=
201603192252 METAR KATL 192252Z 29015G21KT 10SM FEW032 SCT110 OVC200 18/10 A2987 RMK AO2 SLP112 T01780100=
201603192152 METAR KATL 192152Z 31015KT 10SM FEW034 BKN110 OVC200 20/12 A2985 RMK AO2 SLP103 T02000117=
201603192052 METAR KATL 192052Z 31012KT 10SM SCT040 BKN060 BKN100 OVC250 21/12 A2985 RMK AO2 SLP103 BINOVC T02060122 55011=
201603191952 METAR KATL 191952Z 25009KT 10SM SCT040 BKN055 BKN070 BKN250 23/12 A2985 RMK AO2 SLP101 T02280117=
201603191852 METAR KATL 191852Z 29012KT 10SM SCT040 BKN045 BKN060 21/12 A2985 RMK AO2 SLP104 T02110122=
201603191752 METAR KATL 191752Z 23009G16KT 10SM SCT035 BKN045 BKN070 BKN250 22/13 A2988 RMK AO2 SLP113 T02220128 10228 20139 56010=
201603191652 METAR KATL 191652Z 24011G19KT 10SM SCT032 BKN044 BKN055 BKN250 22/12 A2989 RMK AO2 SLP115 T02170122=
201603191552 METAR KATL 191552Z 26009KT 10SM SCT030 BKN070 BKN100 BKN250 21/12 A2989 RMK AO2 SLP115 T02060122=
201603191452 METAR KATL 191452Z 27006KT 10SM FEW020 SCT060 BKN100 BKN250 19/13 A2992 RMK AO2 SLP124 T01890133 50005=
201603191352 METAR KATL 191352Z 28008KT 10SM FEW018 SCT050 BKN090 BKN250 17/12 A2992 RMK AO2 SLP125 T01670122=
201603191252 METAR KATL 191252Z 24003KT 10SM SCT036 BKN045 BKN060 BKN250 14/13 A2991 RMK AO2 SLP123 T01440128=
201603191152 METAR KATL 191152Z 21003KT 10SM BKN044 BKN055 OVC250 14/13 A2990 RMK AO2 SLP120 BINOVC 60001 70001 T01390128 10167 20133 53012=
201603191052 METAR KATL 191052Z 22004KT 10SM FEW020 SCT070 BKN250 13/12 A2989 RMK AO2 SLP114 T01330117=
201603190952 METAR KATL 190952Z 21004KT 10SM FEW020 BKN220 14/12 A2987 RMK AO2 SLP109 T01390122=
201603190852 METAR KATL 190852Z 21005KT 10SM FEW023 OVC200 14/12 A2986 RMK AO2 SLP106 60001 T01440122 56008=
201603190752 METAR KATL 190752Z 21009KT 10SM FEW023 FEW080 SCT120 OVC180 15/13 A2987 RMK AO2 RAE0657 SLP109 P0000 T01500128=
201603190652 METAR KATL 190652Z 22006KT 10SM -RA FEW023 BKN070 BKN100 OVC150 15/13 A2988 RMK AO2 SLP110 P0001 T01500128=
201603190552 METAR KATL 190552Z 22008KT 10SM -RA FEW023 SCT095 OVC110 17/12 A2989 RMK AO2 RAB48 SLP115 PCPN VRY LGT P0000 60000 T01670117 10217 20167 56016=
201603190452 METAR KATL 190452Z 22007KT 10SM FEW025 FEW070 BKN150 OVC200 17/12 A2989 RMK AO2 SLP116 VIRGA SE-SW-NW T01720117 402440122=
201603190352 METAR KATL 190352Z 22013KT 10SM FEW025 BKN070 BKN150 OVC200 18/12 A2992 RMK AO2 SLP126 VIRGA S-W T01830117=
201603190252 METAR KATL 190252Z 25010G16KT 10SM BKN065 BKN080 OVC150 19/11 A2994 RMK AO2 SLP133 T01940106 53019=
201603190152 METAR KATL 190152Z 20007KT 10SM BKN070 BKN150 OVC200 20/10 A2990 RMK AO2 SLP119 VIRGA SE-SW T02000100=
201603190052 METAR KATL 190052Z 22011KT 10SM FEW070 BKN090 BKN150 OVC200 21/09 A2990 RMK AO2 SLP120 VIRGA SW-NW T02110089=
201603182352 METAR KATL 182352Z 21005KT 10SM SCT075 BKN110 BKN150 OVC200 22/05 A2988 RMK AO2 SLP114 T02170050 10244 20217 56002=
201603182252 METAR KATL 182252Z 20004KT 10SM BKN110 BKN150 OVC200 23/04 A2988 RMK AO2 SLP115 T02280039=
201603182152 METAR KATL 182152Z 23003KT 10SM SCT120 BKN150 OVC200 23/04 A2988 RMK AO2 SLP112 T02330039=
201603182052 METAR KATL 182052Z VRB03KT 10SM FEW150 OVC200 24/03 A2989 RMK AO2 SLP115 T02390033 56020=
201603181952 METAR KATL 181952Z 17007KT 10SM FEW070 FEW160 BKN240 24/03 A2990 RMK AO2 SLP117 T02390028=
201603181852 METAR KATL 181852Z 11006KT 10SM BKN250 24/02 A2992 RMK AO2 SLP125 T02440022=
201603181752 METAR KATL 181752Z 23005KT 10SM BKN250 23/00 A2995 RMK AO2 SLP135 T02280000 10233 20122 58018=
201603181652 METAR KATL 181652Z 11007KT 10SM BKN250 22/01 A2997 RMK AO2 SLP144 T02220006=
201603181552 METAR KATL 181552Z 08005KT 10SM FEW150 SCT200 BKN250 21/M01 A3000 RMK AO2 SLP151 T02061006=
201603181452 METAR KATL 181452Z 00000KT 10SM FEW150 SCT180 BKN250 18/02 A3000 RMK AO2 SLP155 T01780017 51007=
201603181352 METAR KATL 181352Z 00000KT 10SM FEW080 SCT150 BKN180 BKN250 14/04 A3000 RMK AO2 SLP156 VIRGA OHD-NE-SE-S T01440039=
201603181252 METAR KATL 181252Z 31005KT 10SM FEW085 BKN140 BKN200 BKN250 13/03 A3000 RMK AO2 SLP155 VIRGA NE-OHD-SW ACC NW T01330028=
201603181152 METAR KATL 181152Z 29003KT 10SM BKN140 BKN200 BKN250 13/03 A2998 RMK AO2 SLP148 VIRGA OHD-SE-SW-NW T01280033 10167 20122 53015 $=
201603181052 METAR KATL 181052Z 33004KT 10SM BKN150 BKN200 BKN250 13/03 A2995 RMK AO2 SLP139 T01280033=
201603180952 METAR KATL 180952Z 31004KT 10SM FEW200 SCT250 13/03 A2994 RMK AO2 SLP132 T01330033 $=
201603180852 METAR KATL 180852Z 28006KT 10SM FEW030 FEW150 SCT200 SCT250 14/04 A2994 RMK AO2 SLP131 T01390039 52001 $=
201603180752 METAR KATL 180752Z 26004KT 10SM FEW150 SCT200 BKN250 15/03 A2994 RMK AO2 SLP131 T01500033=
201603180652 METAR KATL 180652Z 27005KT 10SM FEW150 BKN200 OVC250 16/03 A2993 RMK AO2 SLP129 T01610028=
201603180552 METAR KATL 180552Z 26005KT 10SM FEW150 OVC200 17/02 A2993 RMK AO2 SLP130 T01670022 10217 20167 58008=
201603180452 METAR KATL 180452Z 26005KT 10SM FEW110 SCT150 OVC200 18/01 A2995 RMK AO2 SLP136 VIRGA E-S T01780011 402500122=
201603180352 METAR KATL 180352Z 24005KT 10SM FEW080 BKN110 OVC150 18/01 A2996 RMK AO2 SLP140 VIRGA OHD-ALQDS T01830011=
201603180252 METAR KATL 180252Z 00000KT 10SM FEW070 BKN110 OVC150 19/M01 A2996 RMK AO2 SLP138 VIRGA NE-OHD-SW T01941006 50016=
201603180152 METAR KATL 180152Z 36009KT 10SM BKN150 OVC200 21/M02 A2996 RMK AO2 SLP141 VIRGA SE-S T02061017=
201603180052 METAR KATL 180052Z 35006KT 10SM BKN150 OVC200 21/M02 A2995 RMK AO2 SLP135 VIRGA S-W T02111017=
201603172352 METAR KATL 172352Z 34008KT 10SM FEW120 SCT200 BKN250 22/M03 A2991 RMK AO2 SLP124 T02171028 10250 20217 55000=
201603172252 METAR KATL 172252Z 31005KT 10SM FEW150 SCT200 BKN250 22/M02 A2991 RMK AO2 SLP124 T02221022=
201603172152 METAR KATL 172152Z 29007KT 10SM FEW200 BKN250 24/M01 A2991 RMK AO2 SLP121 T02391011=
201603172052 METAR KATL 172052Z 32008KT 10SM FEW150 FEW200 SCT250 24/00 A2991 RMK AO2 SLP122 T02440000 57024=
201603171952 METAR KATL 171952Z 34010KT 10SM FEW150 SCT200 BKN250 24/02 A2994 RMK AO2 SLP130 T02440017=
201603171852 METAR KATL 171852Z 34010G19KT 10SM FEW150 FEW200 SCT250 24/00 A2996 RMK AO2 SLP138 T02390000=
201603171752 METAR KATL 171752Z 32009KT 10SM FEW150 FEW250 24/01 A2998 RMK AO2 SLP147 T02390006 10244 20122 58010=
201603171652 METAR KATL 171652Z 33008KT 10SM FEW250 23/02 A3000 RMK AO2 SLP154 T02330022=
201603171552 METAR KATL 171552Z 32007KT 10SM FEW250 22/02 A3000 RMK AO2 SLP154 T02220022=
201603171452 METAR KATL 171452Z 33008KT 10SM FEW200 SCT250 21/03 A3001 RMK AO2 SLP157 T02060028 50006=
201603171352 METAR KATL 171352Z 32005KT 10SM FEW200 FEW250 17/03 A3002 RMK AO2 SLP159 T01670033=
201603171252 METAR KATL 171252Z 34006KT 10SM FEW200 SCT250 15/01 A3001 RMK AO2 SLP155 T01500011 $=
201603171152 METAR KATL 171152Z 32006KT 10SM FEW200 SCT250 13/02 A3000 RMK AO2 SLP153 T01280017 10172 20122 53017=
201603171052 METAR KATL 171052Z 29004KT 10SM FEW250 13/02 A2997 RMK AO2 SLP144 T01330017=
201603170952 METAR KATL 170952Z 32004KT 10SM FEW050 SCT250 14/01 A2996 RMK AO2 SLP138 T01440006=
201603170852 METAR KATL 170852Z 30003KT 10SM SCT050 SCT250 16/M01 A2994 RMK AO2 SLP132 T01561011 58005=
201603170752 METAR KATL 170752Z 30003KT 10SM BKN055 BKN250 17/M01 A2995 RMK AO2 SLP134 T01671006=
201603170652 METAR KATL 170652Z 00000KT 10SM SCT055 SCT250 17/M01 A2996 RMK AO2 SLP139 T01671006=
201603170552 METAR KATL 170552Z 29004KT 10SM SCT060 SCT250 16/00 A2996 RMK AO2 SLP137 T01610000 10228 20156 58004=
201603170452 METAR KATL 170452Z 31005KT 10SM FEW250 17/M01 A2997 RMK AO2 SLP140 T01721011 402720172=
201603170352 METAR KATL 170352Z 31005KT 10SM FEW250 18/M02 A2997 RMK AO2 SLP141 T01781017=
201603170252 METAR KATL 170252Z 31006KT 10SM SCT250 18/M01 A2997 RMK AO2 SLP142 T01831011 50005=
201603170152 METAR KATL 170152Z 30006KT 10SM FEW200 BKN250 19/M02 A2997 RMK AO2 SLP142 T01941017=
201603170052 METAR KATL 170052Z 32006KT 10SM FEW200 BKN250 21/M02 A2996 RMK AO2 SLP138 T02111022=
201603162352 METAR KATL 162352Z 31006KT 10SM FEW200 BKN250 23/M03 A2995 RMK AO2 SLP137 T02281028 10272 20228 53004=
201603162252 METAR KATL 162252Z 31010KT 10SM FEW200 BKN250 24/M02 A2995 RMK AO2 SLP133 T02441022=
201603162152 METAR KATL 162152Z 26011G15KT 10SM FEW200 BKN250 26/00 A2994 RMK AO2 SLP132 T02610000=
201603162052 METAR KATL 162052Z 29010KT 10SM FEW150 SCT200 BKN250 27/03 A2994 RMK AO2 SLP131 T02670028 56009=
201603161952 METAR KATL 161952Z 33011G18KT 10SM BKN250 27/03 A2995 RMK AO2 SLP135 T02670033=
201603161852 METAR KATL 161852Z 32012KT 10SM FEW150 SCT200 BKN250 27/05 A2996 RMK AO2 SLP135 T02670050=
201603161752 METAR KATL 161752Z 32012KT 10SM FEW150 SCT200 BKN250 27/04 A2997 RMK AO2 SLP140 T02670044 10272 20183 58001=
201603161652 METAR KATL 161652Z 30014G19KT 10SM BKN250 26/07 A2997 RMK AO2 SLP141 T02560067=
201603161552 METAR KATL 161552Z 28008KT 240V310 10SM BKN250 24/12 A2998 RMK AO2 SLP141 T02440122=
201603161452 METAR KATL 161452Z 28011G18KT 9SM FEW020 FEW030 SCT250 23/16 A2997 RMK AO2 SLP141 T02280156 51014=
201603161352 METAR KATL 161352Z 26011G19KT 7SM FEW250 21/16 A2997 RMK AO2 SLP140 T02110161=
201603161252 METAR KATL 161252Z 25007KT 7SM FEW048 SCT250 19/16 A2996 RMK AO2 SLP137 T01890156=
201603161152 METAR KATL 161152Z 24009KT 7SM BKN038 BKN250 18/16 A2993 RMK AO2 SLP127 T01830156 10200 20178 53018=
201603161052 METAR KATL 161052Z 26010KT 9SM FEW012 SCT032 SCT250 18/15 A2991 RMK AO2 SLP118 T01780150=
201603160952 METAR KATL 160952Z 24011G19KT 10SM BKN250 18/14 A2988 RMK AO2 SLP110 T01830144=
201603160852 METAR KATL 160852Z 24010G18KT 10SM BKN250 18/13 A2988 RMK AO2 SLP107 T01830133 51001 $=
201603160752 METAR KATL 160752Z 24008KT 10SM BKN250 19/12 A2988 RMK AO2 SLP107 T01890117 $=
201603160652 METAR KATL 160652Z 24009KT 10SM SCT250 19/11 A2988 RMK AO2 SLP108 T01940106 $=
201603160552 METAR KATL 160552Z 23008KT 10SM SCT250 19/09 A2987 RMK AO2 SLP107 T01940094 10261 20194 55002 $=
201603160452 METAR KATL 160452Z 21010KT 10SM BKN250 21/09 A2987 RMK AO2 SLP104 T02110089 402940128 $=
201603160352 METAR KATL 160352Z 21010KT 10SM BKN250 22/09 A2987 RMK AO2 SLP106 T02170089 $=
201603160252 METAR KATL 160252Z 21012KT 10SM SCT250 23/08 A2988 RMK AO2 SLP109 T02330078 53007 $=
201603160152 METAR KATL 160152Z 21007KT 10SM SCT250 22/07 A2987 RMK AO2 SLP108 T02220067 $=
201603160052 METAR KATL 160052Z 20006KT 10SM SCT250 23/07 A2986 RMK AO2 SLP105 T02330067 $=
201603152352 METAR KATL 152352Z 21006KT 10SM FEW200 SCT250 26/07 A2986 RMK AO2 SLP104 T02610067 10294 20261 53003 $=
201603152252 METAR KATL 152252Z 22011KT 10SM SCT250 28/06 A2985 RMK AO2 SLP100 T02830061 $=
201603152152 METAR KATL 152152Z 23013G18KT 10SM FEW250 29/08 A2984 RMK AO2 SLP099 T02890078 $=
201603152052 METAR KATL 152052Z 25012G17KT 10SM FEW080 FEW250 29/08 A2985 RMK AO2 SLP101 T02890083 56020=
201603151952 METAR KATL 151952Z 23011G20KT 10SM FEW080 29/08 A2986 RMK AO2 SLP104 T02890083=
201603151852 METAR KATL 151852Z 22013KT 10SM FEW070 28/11 A2988 RMK AO2 SLP110 T02830106=
201603151752 METAR KATL 151752Z 21010KT 10SM FEW060 27/12 A2991 RMK AO2 SLP120 T02720122 10272 20128 58014=
201603151652 METAR KATL 151652Z 22010G14KT 10SM FEW250 25/12 A2993 RMK AO2 SLP126 T02500122=
201603151552 METAR KATL 151552Z 19007KT 10SM FEW250 23/12 A2994 RMK AO2 SLP131 T02330117=
201603151452 METAR KATL 151452Z 18006KT 10SM FEW250 21/12 A2995 RMK AO2 SLP137 T02060117 51017=
201603151352 METAR KATL 151352Z COR 18003KT 10SM FEW250 18/11 A2994 RMK AO2 SLP134 T01780111=
201603151252 METAR KATL 151252Z 20004KT 10SM FEW250 16/11 A2992 RMK AO2 SLP125 T01560111=
201603151152 METAR KATL 151152Z 22003KT 10SM FEW250 13/09 A2990 RMK AO2 SLP121 T01280094 10167 20128 53009=
201603151052 METAR KATL 151052Z 23003KT 10SM CLR 13/09 A2989 RMK AO2 SLP115 T01280094=
201603150952 METAR KATL 150952Z 00000KT 10SM CLR 14/10 A2988 RMK AO2 SLP114 T01390100=
201603150852 METAR KATL 150852Z 22005KT 10SM CLR 14/10 A2987 RMK AO2 SLP110 T01390100 51000=
201603150752 METAR KATL 150752Z 00000KT 10SM CLR 15/10 A2987 RMK AO2 SLP109 T01500100=
201603150652 METAR KATL 150652Z 29005KT 10SM CLR 17/11 A2988 RMK AO2 SLP111 T01670106=
201603150552 METAR KATL 150552Z 30006KT 10SM CLR 17/11 A2987 RMK AO2 SLP109 T01670106 10222 20167 53007=
201603150452 METAR KATL 150452Z 28006KT 10SM CLR 17/11 A2986 RMK AO2 SLP104 T01720106 402440139=
201603150352 METAR KATL 150352Z 27006KT 10SM CLR 18/11 A2986 RMK AO2 SLP106 T01830111=
201603150252 METAR KATL 150252Z 26005KT 10SM FEW050 19/12 A2985 RMK AO2 SLP101 T01940117 53017=
201603150152 METAR KATL 150152Z 26007KT 10SM FEW050 20/13 A2983 RMK AO2 SLP096 T02000128=
201603150052 METAR KATL 150052Z 24006KT 10SM FEW050 21/13 A2981 RMK AO2 SLP090 T02060133=
201603142352 METAR KATL 142352Z 23009KT 10SM FEW045 FEW090 22/13 A2980 RMK AO2 SLP085 TCU DSNT SE 60000 T02220128 10244 20222 53003=
201603142252 METAR KATL 142252Z 24008G20KT 10SM FEW045TCU SCT070 BKN100 23/13 A2979 RMK AO2 RAB29E39 SLP082 TCU OHD-NW & VC NE VCSH NE P0000 T02330128=
201603142152 METAR KATL 142152Z 23012KT 10SM SCT045TCU SCT070 BKN100 23/13 A2978 RMK AO2 SLP080 TCU NE-SE SHRA NE-E T02330128=
201603142052 METAR KATL 142052Z 23013KT 10SM FEW050 FEW070 BKN100 23/13 A2979 RMK AO2 PK WND 24031/2035 SLP081 SHRA VC E-SE T02330128 56017=
201603141952 METAR KATL 141952Z 22017G27KT 10SM FEW048 SCT090 23/12 A2979 RMK AO2 PK WND 25028/1932 SLP083 T02330117=
201603141852 METAR KATL 141852Z 23012G19KT 10SM BKN040TCU BKN050 BKN080 22/13 A2982 RMK AO2 SLP091 TCU OHD-SW-NW T02220128=
201603141823 SPECI KATL 141823Z 23012G22KT 200V260 10SM FEW043CB BKN085 BKN100 22/13 A2983 RMK AO2 CB W MOV NE SHRA VC W T02220128=
201603141752 METAR KATL 141752Z 24012G24KT 10SM SCT037TCU BKN055 23/13 A2984 RMK AO2 SLP098 TCU NE-E & SW-W T02330133 10233 20156 58014=
201603141655 SPECI KATL 141655Z 25010G19KT 10SM SCT025 BKN030 22/14 A2986 RMK AO2 T02170144=
201603141652 METAR KATL 141652Z 24011G19KT 10SM BKN025 BKN030 21/14 A2986 RMK AO2 SLP105 T02110139=
201603141624 SPECI KATL 141624Z 22009KT 10SM FEW025 BKN030 BKN050 20/14 A2987 RMK AO2 T02000139=
201603141552 METAR KATL 141552Z 23013G19KT 10SM BKN025 OVC040 19/13 A2988 RMK AO2 SLP112 T01940133=
201603141501 SPECI KATL 141501Z 25013G22KT 10SM BKN025 BKN040 BKN250 19/13 A2988 RMK AO2 T01940133=
201603141452 METAR KATL 141452Z 23012G25KT 10SM SCT020 BKN040 BKN250 20/13 A2988 RMK AO2 SLP113 T02000133 51001=
201603141352 METAR KATL 141352Z 22008KT 10SM FEW015 FEW250 18/13 A2988 RMK AO2 SLP114 T01780133=
201603141252 METAR KATL 141252Z 21008KT 10SM FEW012 FEW023 16/13 A2989 RMK AO2 SLP114 T01610128=
201603141200 SPECI KATL 141200Z 24008KT 10SM SCT012 SCT021 16/13 A2988 RMK AO2 T01560128=
201603141152 METAR KATL 141152Z 24012G20KT 9SM BKN012 16/13 A2988 RMK AO2 SLP111 T01560128 10161 20139 53007=
201603141119 SPECI KATL 141119Z 23010G15KT 10SM BKN012 15/12 A2988 RMK AO2 T01500122=
201603141052 METAR KATL 141052Z 21005KT 10SM CLR 14/12 A2986 RMK AO2 SLP106 T01440122=
201603140952 METAR KATL 140952Z 20007KT 10SM CLR 14/12 A2985 RMK AO2 SLP102 T01440117=
201603140852 METAR KATL 140852Z 23005KT 10SM CLR 15/11 A2986 RMK AO2 SLP103 T01500111 56005=
201603140752 METAR KATL 140752Z 20006KT 10SM CLR 14/11 A2986 RMK AO2 SLP105 T01440111=
201603140652 METAR KATL 140652Z 16003KT 10SM CLR 15/11 A2986 RMK AO2 SLP106 T01500111=
201603140552 METAR KATL 140552Z 15003KT 10SM CLR 16/11 A2987 RMK AO2 SLP108 T01610111 10228 20161 58006=
201603140452 METAR KATL 140452Z 00000KT 10SM CLR 17/11 A2988 RMK AO2 SLP111 T01720111 402500172=
201603140352 METAR KATL 140352Z 00000KT 10SM CLR 18/11 A2989 RMK AO2 SLP114 T01830111=
201603140252 METAR KATL 140252Z 00000KT 10SM CLR 19/11 A2989 RMK AO2 SLP115 T01890111 53006=
201603140152 METAR KATL 140152Z 23003KT 10SM FEW070 19/11 A2988 RMK AO2 SLP113 T01940111=
201603140052 METAR KATL 140052Z 23004KT 10SM FEW065 21/11 A2987 RMK AO2 SLP109 T02110106=
201603132352 METAR KATL 132352Z 24007KT 10SM FEW050 SCT070 23/11 A2987 RMK AO2 SLP109 T02280106 10250 20228 53004=
201603132252 METAR KATL 132252Z 25009G16KT 10SM FEW050 SCT070 23/11 A2986 RMK AO2 SLP103 T02330111=
201603132152 METAR KATL 132152Z 26011KT 10SM FEW055 SCT075 23/11 A2986 RMK AO2 SLP104 T02330111=
201603132052 METAR KATL 132052Z 25009KT 10SM BKN055 BKN075 24/12 A2986 RMK AO2 PK WND 22026/2001 SLP104 T02390117 56014=
201603131952 METAR KATL 131952Z 25013KT 10SM SCT047 SCT090 25/13 A2986 RMK AO2 SLP104 T02500128=
201603131852 METAR KATL 131852Z 25011G18KT 10SM FEW042 BKN100 24/13 A2988 RMK AO2 SLP110 T02390128=
201603131752 METAR KATL 131752Z 22012G20KT 10SM BKN048 BKN085 23/13 A2990 RMK AO2 SLP118 T02280128 10239 20183 58003=
201603131652 METAR KATL 131652Z 24011KT 10SM SCT034 BKN085 BKN120 23/14 A2991 RMK AO2 SLP119 T02330144=
201603131552 METAR KATL 131552Z 24011KT 10SM SCT026 BKN120 22/15 A2991 RMK AO2 SLP122 T02220150=
201603131452 METAR KATL 131452Z 22012G17KT 10SM SCT022 BKN100 BKN250 21/15 A2991 RMK AO2 SLP122 T02110150 50007=
201603131427 SPECI KATL 131427Z 23011KT 10SM SCT023 BKN200 21/15 A2992 RMK AO2 T02060150=
201603131407 SPECI KATL 131407Z 23011G18KT 10SM BKN025 BKN200 19/15 A2992 RMK AO2 T01940150=
201603131352 METAR KATL 131352Z 24009KT 10SM SCT018 BKN080 BKN200 20/15 A2991 RMK AO2 SLP122 T02000150=
201603131252 METAR KATL 131252Z 22009KT 10SM FEW015 SCT036 19/16 A2991 RMK AO2 SLP120 T01890161=
201603131223 SPECI KATL 131223Z 21007KT 9SM SCT010 SCT036 SCT250 18/16 A2990 RMK AO2 T01830161=
201603131152 METAR KATL 131152Z 21011KT 7SM SCT009 BKN015 BKN040 BKN150 18/16 A2989 RMK AO2 RAE29 SLP114 P0000 60000 T01830161 10211 20178 53001=
201603131138 SPECI KATL 131138Z 21008G19KT 7SM SCT009 BKN019 BKN080 BKN150 19/16 A2989 RMK AO2 RAE29 SHRA NE P0000 T01890161=
201603131127 SPECI KATL 131127Z 22013G19KT 7SM -RA BKN008 BKN014 BKN034 BKN150 18/16 A2989 RMK AO2 P0000 T01830161=
201603131119 SPECI KATL 131119Z 25007KT 7SM -RA FEW008 BKN014 OVC023 18/16 A2988 RMK AO2 P0000 T01830161=
201603131104 SPECI KATL 131104Z 18013KT 5SM -RA BR BKN011 BKN020 OVC034 18/16 A2988 RMK AO2 P0000 T01830161=
201603131052 METAR KATL 131052Z 17012G19KT 8SM -RA BKN015 OVC020 19/16 A2987 RMK AO2 RAE01B47 SLP107 P0000 T01890161=
201603130952 METAR KATL 130952Z 16010KT 10SM -RA BKN020 BKN075 OVC090 18/15 A2988 RMK AO2 RAB03 SLP109 P0000 T01780150=
201603130852 METAR KATL 130852Z 15012KT 10SM BKN025 OVC040 19/14 A2989 RMK AO2 RAE28 SLP112 P0000 60000 T01940139 58027=
201603130835 SPECI KATL 130835Z 14010G16KT 10SM BKN025 BKN037 OVC046 19/14 A2989 RMK AO2 RAE28 P0000 T01940139=
201603130752 METAR KATL 130752Z 14009KT 10SM -RA BKN034 OVC060 21/13 A2991 RMK AO2 RAB51 SLP121 P0000 T02060128=
201603130652 METAR KATL 130652Z 14008KT 10SM FEW032 OVC065 21/12 A2994 RMK AO2 RAB22E31 SLP131 P0000 T02110122=
201603130552 METAR KATL 130552Z 17006KT 10SM FEW048 BKN070 OVC100 21/13 A2997 RMK AO2 SLP140 T02060128 10233 20206 58013=
201603130452 METAR KATL 130452Z 17007KT 10SM SCT070 BKN100 OVC150 21/12 A2998 RMK AO2 SLP146 T02110122 402500161=
201603130352 METAR KATL 130352Z 16005KT 10SM FEW075 SCT120 OVC200 21/13 A3000 RMK AO2 SLP151 T02110128=
201603130252 METAR KATL 130252Z 16006KT 10SM FEW080 BKN130 OVC200 22/13 A3001 RMK AO2 SLP154 T02170128 55003=
201603130152 METAR KATL 130152Z 10004KT 10SM FEW075 SCT110 OVC150 22/13 A3000 RMK AO2 SLP152 T02220128=
201603130052 METAR KATL 130052Z 14004KT 10SM SCT075 SCT110 BKN150 OVC200 23/13 A3002 RMK AO2 SLP158 T02280128=
201603122352 METAR KATL 122352Z 14004KT 10SM FEW060 FEW120 BKN170 OVC250 23/13 A3002 RMK AO2 SLP158 VIRGA NW-NE T02330128 10250 20233 56016=
201603122252 METAR KATL 122252Z 17003KT 10SM FEW055 SCT150 BKN200 OVC250 24/13 A3002 RMK AO2 SLP160 T02440128=
201603122152 METAR KATL 122152Z 16006KT 10SM FEW047 BKN200 BKN250 24/13 A3004 RMK AO2 SLP166 T02440128=
201603122052 METAR KATL 122052Z 18011KT 10SM SCT047 SCT060 BKN250 24/13 A3006 RMK AO2 SLP173 T02440128 56020=
201603121952 METAR KATL 121952Z 17013G18KT 10SM SCT047 OVC250 24/13 A3008 RMK AO2 SLP177 T02440133=
201603121852 METAR KATL 121852Z 17010KT 10SM BKN040 OVC200 24/14 A3010 RMK AO2 SLP185 T02390139=
201603121752 METAR KATL 121752Z 18015KT 10SM FEW043 OVC200 23/15 A3012 RMK AO2 SLP194 T02330150 10233 20167 58024=
201603121652 METAR KATL 121652Z 16011KT 10SM FEW043 BKN060 OVC250 22/15 A3016 RMK AO2 SLP208 T02170150=
201603121552 METAR KATL 121552Z 17012KT 10SM FEW043 SCT065 BKN250 22/14 A3018 RMK AO2 SLP214 T02220144=
201603121452 METAR KATL 121452Z 18010KT 10SM FEW055 SCT200 BKN250 22/15 A3020 RMK AO2 SLP219 T02170150 53011=
201603121352 METAR KATL 121352Z 15005KT 10SM FEW043 SCT200 BKN250 20/15 A3019 RMK AO2 SLP215 T02000150=
201603121252 METAR KATL 121252Z 08004KT 10SM FEW043 BKN200 BKN250 18/15 A3017 RMK AO2 SLP211 T01830150=
201603121152 METAR KATL 121152Z 32004KT 9SM FEW045 BKN200 BKN250 17/14 A3016 RMK AO2 SLP208 T01670144 10200 20161 53013=
201603121052 METAR KATL 121052Z 20003KT 10SM FEW040 FEW200 17/14 A3013 RMK AO2 SLP195 T01670144=
201603120952 METAR KATL 120952Z 12007KT 10SM FEW040 SCT200 18/15 A3011 RMK AO2 SLP188 T01780150=
201603120852 METAR KATL 120852Z 13004KT 10SM FEW200 SCT250 18/15 A3012 RMK AO2 SLP193 T01780150 58019=
201603120752 METAR KATL 120752Z COR 15004KT 10SM FEW040 SCT100 SCT150 BKN250 19/15 A3015 RMK AO2 SLP201 T01890150=
201603120652 METAR KATL 120652Z 17005KT 10SM FEW040 SCT055 BKN150 OVC250 19/16 A3017 RMK AO2 SLP208 T01940156=
201603120552 METAR KATL 120552Z 14003KT 10SM BKN040 BKN200 OVC250 20/16 A3018 RMK AO2 SLP212 T02000156 10233 20200 58004=
201603120452 METAR KATL 120452Z 15005KT 10SM SCT042 BKN060 BKN200 BKN250 20/16 A3019 RMK AO2 SLP215 T02000156 402610167=
201603120352 METAR KATL 120352Z 13004KT 10SM FEW045 SCT200 BKN250 21/16 A3019 RMK AO2 SLP216 T02060156=
201603120252 METAR KATL 120252Z 14003KT 10SM SCT050 BKN200 BKN250 22/15 A3019 RMK AO2 SLP217 T02170150 50007=
201603120152 METAR KATL 120152Z 14003KT 10SM FEW050 SCT200 BKN250 22/15 A3020 RMK AO2 SLP221 T02170150=
201603120052 METAR KATL 120052Z 19003KT 10SM SCT065 BKN200 OVC250 22/14 A3019 RMK AO2 SLP218 T02220144=
201603112352 METAR KATL 112352Z 18004KT 10SM SCT065 BKN200 OVC250 23/15 A3017 RMK AO2 SLP211 T02330150 10261 20233 53001=
201603112252 METAR KATL 112252Z 20004KT 10SM FEW045 BKN070 OVC250 24/14 A3017 RMK AO2 SLP209 T02440144=
201603112152 METAR KATL 112152Z 18007KT 10SM FEW046 BKN070 BKN230 26/14 A3017 RMK AO2 SLP208 T02560139=
201603112052 METAR KATL 112052Z 22008KT 190V250 10SM BKN044 BKN150 OVC230 26/14 A3017 RMK AO2 SLP208 T02560139 55010=
201603111952 METAR KATL 111952Z 21006KT 10SM SCT047 SCT150 OVC230 25/15 A3016 RMK AO2 SLP207 T02500150=
201603111852 METAR KATL 111852Z 19006KT 10SM SCT045 BKN150 OVC230 24/14 A3018 RMK AO2 SLP214 T02440144=
201603111752 METAR KATL 111752Z 21008KT 10SM SCT040 SCT150 OVC230 24/14 A3020 RMK AO2 SLP219 BINOVC DSNT S T02440144 10244 20172 52001=
201603111652 METAR KATL 111652Z 20007KT 10SM FEW040 SCT150 BKN230 24/14 A3019 RMK AO2 SLP217 T02390144=
201603111552 METAR KATL 111552Z 21004KT 10SM FEW030 SCT150 SCT200 BKN250 22/14 A3020 RMK AO2 SLP219 T02220144=
201603111452 METAR KATL 111452Z COR 02004KT 10SM R09R/P6000FT FEW150 SCT180 BKN250 21/15 A3019 RMK AO2 SLP218 T02110150 51027=
201603111352 METAR KATL 111352Z 35006KT 10SM FEW085 BKN180 BKN250 18/14 A3019 RMK AO2 SLP218 VIRGA NW-NE-E T01830144=
201603111252 METAR KATL 111252Z 33008G16KT 10SM FEW016 FEW100 BKN180 BKN250 17/14 A3015 RMK AO2 SLP204 VIRGA OHD-ALQDS T01720139=
201603111152 METAR KATL 111152Z 21006KT 10SM FEW120 BKN180 BKN250 17/13 A3011 RMK AO2 SLP191 VIRGA E-S-SW T01720133 10189 20167 56008=
201603111052 METAR KATL 111052Z 21009KT 10SM BKN200 BKN250 17/14 A3011 RMK AO2 SLP190 T01720139=
201603110952 METAR KATL 110952Z 20007KT 10SM FEW110 SCT200 BKN250 17/14 A3012 RMK AO2 SLP193 T01670144=
201603110852 METAR KATL 110852Z 20009KT 10SM FEW010 FEW032 SCT100 BKN250 17/15 A3014 RMK AO2 SLP199 T01720150 58030=
201603110752 METAR KATL 110752Z 20006KT 10SM FEW016 BKN100 BKN200 OVC250 17/15 A3018 RMK AO2 SLP212 T01720150=
201603110652 METAR KATL 110652Z 20004KT 10SM FEW014 BKN090 OVC200 18/16 A3021 RMK AO2 SLP225 T01780156=
201603110552 METAR KATL 110552Z 25010KT 10SM FEW030 BKN080 OVC250 19/16 A3023 RMK AO2 PRESRR SLP230 60000 T01890156 10228 20183 50011=
201603110452 METAR KATL 110452Z 32003KT 10SM SCT035 BKN070 BKN250 18/16 A3025 RMK AO2 RAB13E35 SLP237 P0000 T01830156 402560150=
201603110352 METAR KATL 110352Z 22010KT 10SM BKN045 BKN060 OVC200 22/13 A3022 RMK AO2 SLP227 VCSH SW-NW-NE T02170128=
201603110252 METAR KATL 110252Z 19008KT 10SM SCT055 OVC070 22/13 A3020 RMK AO2 SLP219 T02170133 51028=
201603110152 METAR KATL 110152Z 17004KT 10SM OVC060 22/13 A3018 RMK AO2 SLP215 T02170128=
201603110052 METAR KATL 110052Z 18004KT 10SM BKN055 BKN250 22/13 A3016 RMK AO2 SLP207 T02170128=
201603102352 METAR KATL 102352Z 16007KT 10SM FEW200 BKN250 23/12 A3011 RMK AO2 SLP191 T02330122 10256 20233 55000=
201603102252 METAR KATL 102252Z 17011KT 10SM FEW050 BKN250 24/12 A3011 RMK AO2 SLP191 T02440122=
201603102152 METAR KATL 102152Z 17012KT 10SM FEW050 FEW200 BKN300 25/13 A3010 RMK AO2 SLP186 T02500128=
201603102052 METAR KATL 102052Z 16013KT 10SM FEW050 FEW150 SCT250 26/13 A3011 RMK AO2 SLP190 T02560128 56020=
201603101952 METAR KATL 101952Z 18012G19KT 10SM FEW048 FEW150 SCT250 24/13 A3013 RMK AO2 SLP197 T02440128=
201603101852 METAR KATL 101852Z 18014G20KT 10SM FEW043 SCT250 BKN300 24/13 A3015 RMK AO2 SLP205 T02390128=
201603101752 METAR KATL 101752Z 18012G21KT 10SM SCT040 SCT250 23/13 A3018 RMK AO2 SLP212 T02330128 10233 20150 58009=
201603101652 METAR KATL 101652Z 16013G18KT 10SM BKN040 BKN250 22/13 A3020 RMK AO2 SLP220 T02220128=
201603101552 METAR KATL 101552Z 17015KT 10SM BKN030 BKN040 BKN250 21/12 A3021 RMK AO2 SLP223 T02110122=
201603101452 METAR KATL 101452Z 16010G18KT 10SM FEW023 SCT040 BKN250 20/14 A3020 RMK AO2 SLP222 T02000139 53008=
201603101352 METAR KATL 101352Z 16010KT 10SM BKN040 BKN250 BKN300 18/13 A3020 RMK AO2 SLP221 T01780133=
201603101252 METAR KATL 101252Z 13007KT 10SM BKN044 BKN200 BKN250 16/13 A3018 RMK AO2 SLP216 T01610133=
201603101152 METAR KATL 101152Z 13005KT 10SM BKN046 BKN200 BKN250 15/13 A3018 RMK AO2 SLP215 T01500128 10172 20150 53006=
201603101052 METAR KATL 101052Z 13005KT 10SM BKN046 BKN200 BKN250 15/13 A3017 RMK AO2 SLP213 T01500128=
201603100952 METAR KATL 100952Z 14006KT 10SM BKN048 BKN200 BKN250 16/13 A3016 RMK AO2 SLP208 T01560128=
201603100852 METAR KATL 100852Z 12008KT 10SM FEW050 BKN200 BKN250 16/12 A3016 RMK AO2 SLP208 T01610122 58008=
201603100752 METAR KATL 100752Z 13006KT 10SM BKN050 BKN200 BKN250 16/12 A3018 RMK AO2 SLP212 T01610117=
201603100652 METAR KATL 100652Z COR 10005KT 10SM FEW048 SCT200 BKN250 16/11 A3019 RMK AO2 SLP218 T01610111=
201603100552 METAR KATL 100552Z 13004KT 10SM SCT200 BKN250 17/12 A3019 RMK AO2 SLP216 T01720117 10217 20172 51003=
201603100452 METAR KATL 100452Z 16006KT 10SM FEW050 BKN250 18/12 A3019 RMK AO2 SLP217 T01780117 402440122=
201603100352 METAR KATL 100352Z 15006KT 10SM SCT050 BKN250 18/12 A3018 RMK AO2 SLP215 T01830117=
201603100252 METAR KATL 100252Z 15007KT 10SM BKN250 19/11 A3018 RMK AO2 SLP215 T01890111 53006=
201603100152 METAR KATL 100152Z 14007KT 10SM FEW200 BKN250 19/11 A3016 RMK AO2 SLP208 T01940111=
201603100052 METAR KATL 100052Z 15007KT 10SM FEW200 BKN250 21/11 A3016 RMK AO2 SLP208 T02060111=
201603092352 METAR KATL 092352Z 16010KT 10SM FEW050 SCT200 BKN250 22/11 A3016 RMK AO2 SLP209 T02170106 10244 20211 51011=
201603092252 METAR KATL 092252Z 17011KT 10SM FEW050 BKN250 23/11 A3015 RMK AO2 SLP205 T02280106=
201603092152 METAR KATL 092152Z 18015G22KT 10SM FEW055 BKN250 BKN300 24/11 A3014 RMK AO2 SLP201 T02390106=
201603092052 METAR KATL 092052Z 16016G21KT 10SM FEW055 FEW250 BKN300 24/10 A3013 RMK AO2 SLP196 T02390100 56024=
201603091952 METAR KATL 091952Z 17010G18KT 10SM FEW050 FEW250 SCT300 24/11 A3014 RMK AO2 SLP200 T02390106=
201603091852 METAR KATL 091852Z 14012G19KT 10SM FEW045 FEW250 23/11 A3017 RMK AO2 SLP211 T02280106=
201603091752 METAR KATL 091752Z 15014G23KT 10SM FEW040 22/11 A3020 RMK AO2 SLP221 T02170106 10222 20122 58016=
201603091652 METAR KATL 091652Z 16009G16KT 10SM SCT030 SCT040 20/12 A3023 RMK AO2 SLP234 T02000117=
201603091552 METAR KATL 091552Z 20009G18KT 10SM FEW030 BKN045 19/12 A3026 RMK AO2 SLP243 T01890122=
201603091452 METAR KATL 091452Z 16009KT 10SM FEW020 BKN045 17/12 A3025 RMK AO2 SLP239 T01670122 51010=
201603091352 METAR KATL 091352Z 14006KT 10SM OVC045 14/11 A3024 RMK AO2 SLP237 BINOVC T01440111=
201603091252 METAR KATL 091252Z 11006KT 10SM OVC046 14/11 A3024 RMK AO2 SLP236 BINOVC T01390111=
201603091152 METAR KATL 091152Z 00000KT 10SM OVC046 13/11 A3022 RMK AO2 SLP230 T01280106 10156 20122 53011=
201603091052 METAR KATL 091052Z 13004KT 10SM SCT047 BKN250 12/10 A3019 RMK AO2 SLP220 T01220100=
201603090952 METAR KATL 090952Z 09004KT 10SM BKN049 BKN250 12/10 A3019 RMK AO2 SLP220 T01220100=
201603090852 METAR KATL 090852Z 00000KT 10SM BKN250 13/10 A3018 RMK AO2 SLP217 T01330100 53001=
201603090752 METAR KATL 090752Z 13005KT 10SM BKN250 14/09 A3017 RMK AO2 SLP211 T01390094=
201603090652 METAR KATL 090652Z 14005KT 10SM SCT250 14/09 A3018 RMK AO2 SLP217 T01390089=
201603090552 METAR KATL 090552Z 14004KT 10SM BKN250 16/09 A3018 RMK AO2 SLP215 T01560089 10200 20156 55001=
201603090452 METAR KATL 090452Z 13004KT 10SM FEW200 BKN250 16/09 A3018 RMK AO2 SLP214 T01610089 402280089=
201603090352 METAR KATL 090352Z 13004KT 10SM FEW200 BKN250 17/09 A3017 RMK AO2 SLP214 T01670089=
201603090252 METAR KATL 090252Z 15006KT 10SM SCT200 BKN250 18/09 A3018 RMK AO2 SLP217 T01780089 51009=
201603090152 METAR KATL 090152Z 16007KT 10SM SCT250 18/09 A3018 RMK AO2 SLP217 T01830089=
201603090052 METAR KATL 090052Z 15008KT 10SM FEW250 19/09 A3016 RMK AO2 SLP212 T01890094=
201603082352 METAR KATL 082352Z 15006KT 10SM FEW250 20/09 A3015 RMK AO2 SLP209 T02000089 10228 20200 56012=
201603082252 METAR KATL 082252Z 15010KT 10SM FEW055 FEW250 22/09 A3017 RMK AO2 SLP212 T02220094=
201603082152 METAR KATL 082152Z 15006KT 10SM FEW055 SCT200 BKN250 23/10 A3018 RMK AO2 SLP216 T02280100=
201603082052 METAR KATL 082052Z 18010KT 10SM FEW050 SCT200 BKN250 22/10 A3019 RMK AO2 SLP219 T02220100 56026=
201603081952 METAR KATL 081952Z 19010KT 10SM FEW048 SCT200 BKN250 22/10 A3021 RMK AO2 SLP225 T02170100=
201603081852 METAR KATL 081852Z 19007G16KT 130V220 10SM FEW045 SCT200 BKN250 22/10 A3024 RMK AO2 SLP235 T02170100=
201603081752 METAR KATL 081752Z 22008KT 10SM SCT042 BKN200 BKN250 21/11 A3027 RMK AO2 SLP246 T02060106 10206 20089 58014=
201603081652 METAR KATL 081652Z 18005KT 10SM FEW040 BKN200 BKN250 20/11 A3030 RMK AO2 SLP257 T02000106 $=
201603081552 METAR KATL 081552Z 18008KT 10SM BKN250 18/10 A3032 RMK AO2 SLP264 T01830100 $=
201603081452 METAR KATL 081452Z 17007KT 10SM BKN250 16/10 A3031 RMK AO2 SLP263 T01610100 51016 $=
201603081352 METAR KATL 081352Z 14004KT 9SM FEW150 BKN250 13/09 A3030 RMK AO2 SLP259 T01280094=
201603081252 METAR KATL 081252Z 11004KT 9SM FEW200 BKN250 11/08 A3029 RMK AO2 SLP257 T01060083=
201603081152 METAR KATL 081152Z 08005KT 9SM SCT250 09/07 A3026 RMK AO2 SLP247 T00890067 10133 20089 53011=
201603081052 METAR KATL 081052Z 09005KT 10SM BKN250 09/06 A3024 RMK AO2 SLP239 T00940061=
201603080952 METAR KATL 080952Z 08004KT 10SM BKN250 11/07 A3023 RMK AO2 SLP235 T01060067=
201603080852 METAR KATL 080852Z 14004KT 10SM BKN250 12/08 A3023 RMK AO2 SLP234 T01170078 58004=
201603080752 METAR KATL 080752Z 17006KT 10SM BKN250 12/07 A3024 RMK AO2 SLP236 T01220067=
201603080652 METAR KATL 080652Z 12004KT 10SM BKN250 12/06 A3024 RMK AO2 SLP238 T01220056=
201603080552 METAR KATL 080552Z 13004KT 10SM BKN250 13/06 A3024 RMK AO2 SLP240 T01330056 10183 20133 58001=
201603080452 METAR KATL 080452Z 13004KT 10SM BKN250 14/06 A3025 RMK AO2 SLP241 T01390056 402060061=
201603080352 METAR KATL 080352Z 16006KT 10SM BKN250 14/06 A3026 RMK AO2 SLP244 T01440056=
201603080252 METAR KATL 080252Z 14005KT 10SM BKN250 15/05 A3025 RMK AO2 SLP241 T01500050 51005=
201603080152 METAR KATL 080152Z 15005KT 10SM BKN250 16/04 A3025 RMK AO2 SLP241 T01610039=
201603080052 METAR KATL 080052Z 15007KT 10SM BKN250 17/03 A3024 RMK AO2 SLP241 T01720033=
201603072352 METAR KATL 072352Z 15006KT 10SM BKN250 18/03 A3023 RMK AO2 SLP237 T01830033 10206 20178 53001=
201603072252 METAR KATL 072252Z 14009KT 10SM FEW200 BKN250 20/03 A3022 RMK AO2 SLP232 T02000033=
201603072152 METAR KATL 072152Z 16009KT 10SM FEW200 BKN250 21/03 A3021 RMK AO2 SLP230 T02060033=
201603072052 METAR KATL 072052Z 15005KT 10SM FEW150 FEW200 BKN250 20/04 A3023 RMK AO2 SLP235 T02000044 56025=
201603071952 METAR KATL 071952Z 15005G16KT 10SM FEW150 SCT200 BKN250 20/04 A3024 RMK AO2 SLP238 T02000039=
201603071852 METAR KATL 071852Z 14009KT 10SM FEW150 FEW200 BKN250 19/03 A3027 RMK AO2 SLP247 T01940033=
201603071752 METAR KATL 071752Z 18006G15KT 10SM FEW150 SCT200 BKN250 18/05 A3031 RMK AO2 SLP261 T01780050 10183 20067 58014=
201603071652 METAR KATL 071652Z 17008KT 10SM FEW200 SCT250 17/06 A3034 RMK AO2 SLP273 T01670056=
201603071552 METAR KATL 071552Z 15009KT 10SM FEW200 BKN250 15/05 A3035 RMK AO2 SLP276 T01500050=
201603071452 METAR KATL 071452Z 18010KT 10SM BKN250 13/06 A3035 RMK AO2 SLP277 T01330056 51021=
201603071352 METAR KATL 071352Z 15008KT 10SM SCT250 11/04 A3034 RMK AO2 SLP273 T01060044=
201603071252 METAR KATL 071252Z 15003KT 10SM FEW250 07/03 A3032 RMK AO2 SLP268 T00720028=
201603071152 METAR KATL 071152Z 14005KT 10SM FEW250 07/02 A3028 RMK AO2 SLP255 T00670017 10100 20061 51012=
201603071052 METAR KATL 071052Z 13003KT 10SM FEW250 07/01 A3028 RMK AO2 SLP253 T00720011=
201603070952 METAR KATL 070952Z 12003KT 10SM FEW250 07/01 A3026 RMK AO2 SLP245 T00720011=
201603070852 METAR KATL 070852Z 00000KT 10SM FEW250 08/01 A3025 RMK AO2 SLP242 T00780011 55002=
201603070752 METAR KATL 070752Z 13004KT 10SM FEW250 08/01 A3025 RMK AO2 SLP242 T00830011=
201603070652 METAR KATL 070652Z 13004KT 10SM FEW250 09/01 A3025 RMK AO2 SLP243 T00940011=
201603070552 METAR KATL 070552Z 13003KT 10SM FEW250 10/01 A3025 RMK AO2 SLP244 T01000011 10167 20100 51001=
201603070452 METAR KATL 070452Z 13004KT 10SM FEW250 11/01 A3025 RMK AO2 SLP244 T01060006 402000050=
201603070352 METAR KATL 070352Z 13004KT 10SM SCT200 SCT250 12/01 A3025 RMK AO2 SLP245 T01170006=
201603070252 METAR KATL 070252Z 14004KT 10SM FEW200 SCT250 12/01 A3025 RMK AO2 SLP244 T01220011 51012=
201603070152 METAR KATL 070152Z 13004KT 10SM SCT250 14/00 A3024 RMK AO2 SLP240 T01390000=
201603070052 METAR KATL 070052Z 14004KT 10SM FEW250 15/00 A3023 RMK AO2 SLP237 T01500000=
201603062352 METAR KATL 062352Z 14004KT 10SM FEW200 SCT250 17/M02 A3021 RMK AO2 SLP231 T01721017 10200 20156 53006=
201603062252 METAR KATL 062252Z 15004KT 10SM FEW200 SCT250 18/M03 A3020 RMK AO2 SLP227 T01831033=
201603062152 METAR KATL 062152Z COR 09005KT 10SM SCT250 19/M03 A3019 RMK AO2 SLP224 T01891028=
201603062052 METAR KATL 062052Z 17004KT 10SM SCT250 18/M03 A3019 RMK AO2 SLP223 T01831028 56019=
201603061952 METAR KATL 061952Z VRB04KT 10SM BKN250 17/M03 A3020 RMK AO2 SLP227 T01721028=
201603061852 METAR KATL 061852Z 12004KT 10SM SCT250 17/M03 A3022 RMK AO2 SLP231 T01721028=
201603061752 METAR KATL 061752Z 00000KT 10SM SCT250 16/M03 A3025 RMK AO2 SLP242 T01561028 10161 20050 58010=
201603061652 METAR KATL 061652Z VRB06KT 10SM FEW250 14/M02 A3026 RMK AO2 SLP249 T01441022=
201603061552 METAR KATL 061552Z 33008KT 10SM FEW250 13/M01 A3027 RMK AO2 SLP252 T01281006=
201603061452 METAR KATL 061452Z 33011KT 10SM FEW250 11/00 A3028 RMK AO2 SLP255 T01060000 51018=
201603061352 METAR KATL 061352Z 33007KT 10SM FEW250 08/01 A3027 RMK AO2 SLP250 T00830011=
201603061252 METAR KATL 061252Z 32006KT 10SM CLR 07/01 A3025 RMK AO2 SLP245 T00670011=
201603061152 METAR KATL 061152Z 32008KT 10SM CLR 05/01 A3022 RMK AO2 SLP237 T00500011 10111 20050 53021=
201603061052 METAR KATL 061052Z 30007KT 10SM CLR 06/02 A3020 RMK AO2 SLP228 T00610017=
201603060952 METAR KATL 060952Z 32006KT 10SM CLR 07/02 A3017 RMK AO2 SLP217 T00670017=
201603060852 METAR KATL 060852Z 31006KT 10SM CLR 07/02 A3016 RMK AO2 SLP213 T00720017 51001=
201603060752 METAR KATL 060752Z 34007KT 10SM CLR 09/03 A3015 RMK AO2 SLP211 T00890028=
201603060652 METAR KATL 060652Z 33009KT 10SM FEW075 10/03 A3017 RMK AO2 SLP214 T01000028=
201603060552 METAR KATL 060552Z 32009KT 10SM FEW075 11/03 A3016 RMK AO2 SLP213 T01060028 10150 20100 53006=
201603060452 METAR KATL 060452Z 29008KT 10SM SCT060 SCT075 11/02 A3014 RMK AO2 SLP207 T01110022 401720017=
201603060352 METAR KATL 060352Z 27005KT 10SM FEW085 11/01 A3013 RMK AO2 SLP205 T01060011=
201603060252 METAR KATL 060252Z 26003KT 10SM FEW060 FEW095 SCT200 12/01 A3014 RMK AO2 SLP207 T01170011 51016=
201603060152 METAR KATL 060152Z 29005KT 10SM FEW090 FEW200 13/01 A3012 RMK AO2 SLP203 T01280011=
201603060052 METAR KATL 060052Z 30006KT 10SM BKN085 BKN200 13/01 A3011 RMK AO2 SLP199 ACC ALQDS T01330011=
201603052352 METAR KATL 052352Z 27005KT 10SM SCT095 SCT200 14/01 A3009 RMK AO2 SLP192 ACC E-OHD-W T01440006 10172 20128 53004=
201603052252 METAR KATL 052252Z 28008KT 10SM FEW200 16/01 A3008 RMK AO2 SLP186 T01610006=
201603052152 METAR KATL 052152Z 27004KT 10SM FEW250 17/01 A3006 RMK AO2 SLP181 T01720006=
201603052052 METAR KATL 052052Z 26005KT 10SM FEW250 17/01 A3008 RMK AO2 SLP186 T01720006 56028=
201603051952 METAR KATL 051952Z VRB05KT 10SM FEW250 16/M01 A3009 RMK AO2 SLP192 T01561006=
201603051852 METAR KATL 051852Z 00000KT 10SM FEW040 FEW100 SCT250 16/01 A3012 RMK AO2 SLP201 T01610011=
201603051752 METAR KATL 051752Z 17004KT 10SM FEW040 FEW100 SCT250 13/02 A3016 RMK AO2 SLP217 T01280017 10139 20017 58010=
201603051652 METAR KATL 051652Z VRB03KT 10SM FEW100 FEW250 12/02 A3019 RMK AO2 SLP226 T01220022=
201603051552 METAR KATL 051552Z 00000KT 10SM FEW100 FEW250 11/02 A3020 RMK AO2 SLP229 T01060022=
201603051452 METAR KATL 051452Z 13004KT 10SM FEW100 FEW250 08/02 A3020 RMK AO2 SLP229 T00830022 50010=
201603051352 METAR KATL 051352Z 07007KT 10SM FEW250 07/01 A3020 RMK AO2 SLP230 T00670011=
201603051252 METAR KATL 051252Z 35004KT 10SM SCT250 04/01 A3019 RMK AO2 SLP227 T00390006=
201603051152 METAR KATL 051152Z 35004KT 10SM SCT250 02/00 A3016 RMK AO2 SLP219 T00220000 10044 20022 53013=
201603051052 METAR KATL 051052Z 34003KT 10SM CLR 03/00 A3015 RMK AO2 SLP212 T00280000=
201603050952 METAR KATL 050952Z 32006KT 10SM CLR 02/00 A3014 RMK AO2 SLP209 T00220000=
201603050852 METAR KATL 050852Z 33005KT 10SM FEW250 03/01 A3013 RMK AO2 SLP205 T00330006 55003=
201603050752 METAR KATL 050752Z 32005KT 10SM FEW250 03/01 A3012 RMK AO2 SLP204 T00280011=
201603050652 METAR KATL 050652Z 32006KT 10SM FEW250 03/01 A3014 RMK AO2 SLP209 T00330006=
201603050552 METAR KATL 050552Z 30004KT 10SM SCT250 04/01 A3013 RMK AO2 SLP208 T00440011 10094 20039 55004=
201603050452 METAR KATL 050452Z 34004KT 10SM SCT250 06/01 A3013 RMK AO2 SLP207 T00560011 401280039=
201603050352 METAR KATL 050352Z 00000KT 10SM FEW250 07/01 A3013 RMK AO2 SLP207 T00670011=
201603050252 METAR KATL 050252Z 31005KT 10SM FEW250 07/01 A3015 RMK AO2 SLP213 T00670011 51015=
201603050152 METAR KATL 050152Z 32006KT 10SM FEW250 07/02 A3013 RMK AO2 SLP209 T00720017=
201603050052 METAR KATL 050052Z 32007KT 10SM SCT250 08/02 A3012 RMK AO2 SLP204 T00830017=
201603042352 METAR KATL 042352Z 34007KT 10SM FEW250 09/02 A3010 RMK AO2 SLP197 T00940017 10128 20094 51008=
201603042252 METAR KATL 042252Z 34011G19KT 10SM SCT250 11/02 A3010 RMK AO2 SLP196 T01110022=
201603042152 METAR KATL 042152Z 32010G20KT 10SM FEW035 SCT250 12/03 A3009 RMK AO2 SLP193 T01170028=
201603042052 METAR KATL 042052Z 32010KT 10SM FEW035 SCT250 12/03 A3008 RMK AO2 SLP187 T01220033 56014=
201603041952 METAR KATL 041952Z 32010G15KT 10SM FEW020 BKN250 12/04 A3008 RMK AO2 SLP189 T01220039=
201603041852 METAR KATL 041852Z 31012KT 10SM FEW020 BKN250 11/04 A3009 RMK AO2 SLP194 T01110039=
201603041752 METAR KATL 041752Z 32012KT 10SM SCT020 SCT250 09/03 A3012 RMK AO2 SLP203 60000 T00940033 10094 20044 50004=
201603041748 SPECI KATL 041748Z 33012KT 10SM SCT020 SCT250 09/04 A3012 RMK AO2=
201603041652 METAR KATL 041652Z 32008KT 10SM BKN016 08/03 A3012 RMK AO2 SLP204 T00780028=
201603041639 SPECI KATL 041639Z 33012KT 10SM OVC016 08/03 A3012 RMK AO2 T00780028=
201603041552 METAR KATL 041552Z 33013KT 10SM OVC014 07/03 A3010 RMK AO2 SLP199 T00670028=
201603041508 SPECI KATL 041508Z 33015G21KT 10SM OVC014 06/03 A3009 RMK AO2 T00610028=
201603041454 SPECI KATL 041454Z 33015G20KT 10SM OVC015 07/03 A3008 RMK AO2 T00670028=
201603041452 METAR KATL 041452Z 33012KT 10SM BKN013 OVC015 07/03 A3008 RMK AO2 SLP189 60000 T00670028 51018=
201603041412 SPECI KATL 041412Z 34012KT 10SM BKN013 OVC016 06/03 A3006 RMK AO2 T00610033=
201603041352 METAR KATL 041352Z 32015KT 10SM SCT008 OVC015 06/03 A3006 RMK AO2 SLP185 BINOVC T00560033=
201603041252 METAR KATL 041252Z 31008KT 8SM SCT005 BKN020 05/03 A3004 RMK AO2 DZE44 SLP176 P0000 T00500033=
201603041230 SPECI KATL 041230Z 34009KT 5SM -DZ BR OVC005 05/03 A3003 RMK AO2 CIG 004V006 P0000 T00500033=
201603041214 SPECI KATL 041214Z 33009KT 1 1/2SM -DZ BR OVC005 05/03 A3003 RMK AO2 SFC VIS 5 CIG 004V007 P0000 T00500033=
201603041152 METAR KATL 041152Z 32008KT 1/4SM R09R/P6000FT -DZ BR OVC004 04/03 A3002 RMK AO2 SFC VIS 3 DZB51 SLP171 CIG 003V005 TWRINC P0000 60000 70116 T00440033 10044 20039 53016=
201603041140 SPECI KATL 041140Z 31008KT 2SM BR OVC004 04/03 A3002 RMK AO2 SFC VIS 4 CIG 003V005 T00440033=
201603041052 METAR KATL 041052Z 31005KT 2SM BR OVC005 04/03 A3000 RMK AO2 SFC VIS 5 SLP163 CIG 004V006 T00440028=
201603041019 SPECI KATL 041019Z 33006KT 2SM BR OVC005 04/03 A2998 RMK AO2 SFC VIS 4 CIG 004V006 T00440028=
201603040952 METAR KATL 040952Z 32007KT 2SM BR OVC004 04/03 A2998 RMK AO2 SFC VIS 5 SLP157 CIG 003V006 T00440028=
201603040852 METAR KATL 040852Z 33007KT 1/4SM R09R/P6000FT BR OVC003 04/03 A2997 RMK AO2 SFC VIS 2 DZE50 SLP156 CIG 002V004 TWRINC P0000 60000 T00390028 55007=
201603040752 METAR KATL 040752Z 34004KT 1/4SM R09R/P6000FT -DZ BR OVC003 04/03 A2996 RMK AO2 SFC VIS 2 SLP151 CIG 002V004 TWRINC P0000 T00390028=
201603040652 METAR KATL 040652Z 36006KT 1/4SM R09R/P6000FT -DZ BR OVC004 04/03 A2998 RMK AO2 SFC VIS 3 DZB00RAB20E33 SLP158 CIG 003V005 TWRINC P0000 T00390028=
201603040552 METAR KATL 040552Z 34008KT 1/4SM R09R/P6000FT BR OVC002 04/03 A2999 RMK AO2 SFC VIS 1 1/4 SLP161 TWRINC 60003 T00390028 10050 20039 53026=
201603040452 METAR KATL 040452Z 02011KT 1/4SM R09R/P6000FT BR OVC002 04/03 A2994 RMK AO2 SFC VIS 1 1/4 SLP141 TWRINC T00390028 400890028=
201603040352 METAR KATL 040352Z 03007KT 1/4SM R09R/P6000FT BR OVC003 05/03 A2996 RMK AO2 SFC VIS 4 SLP148 TWRINC T00500033=
201603040252 METAR KATL 040252Z 05016KT 1/4SM R09R/P6000FT BR OVC003 05/03 A2991 RMK AO2 SFC VIS 5 PRESFR SLP134 TWRINC 60003 T00500033 58012=
201603040152 METAR KATL 040152Z 06011KT 1/4SM R09R/P6000FT BR OVC003 05/03 A2993 RMK AO2 SFC VIS 5 SLP139 TWRINC T00500033=
201603040125 SPECI KATL 040125Z 07013KT 1/8SM R09R/P6000FT BR OVC003 05/03 A2992 RMK AO2 SFC VIS 5 TWRINC T00500033=
201603040052 METAR KATL 040052Z 08009KT 1SM R09R/P6000FT BR OVC003 05/03 A2994 RMK AO2 SFC VIS 6 RAE24 SLP142 CIG 002V004 P0003 T00500033=
201603040020 SPECI KATL 040020Z 11012KT 1SM R09R/P6000FT -RA BR BKN004 OVC050 04/03 A2992 RMK AO2 SFC VIS 6 PRESFR CIG 003V005 P0003 T00440033=
201603032352 METAR KATL 032352Z COR 12009KT 2 1/2SM RA BR BKN005 OVC050 04/03 A2995 RMK AO2 SFC VIS 4 SLP148 CIG 003V007 P0017 60112 931000 T00440033 10078 20033 56009=
201603032349 SPECI KATL 032349Z 12009KT 2 1/2SM RA BR BKN005 OVC050 04/03 A2996 RMK AO2 SFC VIS 4 CIG 003V007 P0016=
201603032319 SPECI KATL 032319Z 11007KT 1 1/2SM RA BR BKN005 OVC050 04/03 A2998 RMK AO2 SFC VIS 2 1/2 CIG 003V007 P0008 T00440033=
201603032252 METAR KATL 032252Z 08010KT 3SM RA BR BKN006 BKN040 OVC060 04/03 A2996 RMK AO2 SLP152 CIG 004V009 P0011 T00440033=
201603032221 SPECI KATL 032221Z 11007KT 3SM RA BR BKN006 BKN040 OVC060 04/03 A2998 RMK AO2 SFC VIS 4 CIG 004V009 P0005 T00440033 $=
201603032152 METAR KATL 032152Z 11010KT 3SM RA BR SCT007 SCT030 OVC050 04/03 A2998 RMK AO2 SLP157 P0018 T00440028 $=
201603032139 SPECI KATL 032139Z 11009KT 3SM RA BR SCT005 SCT012 OVC050 04/03 A2998 RMK AO2 P0010 T00440028 $=
201603032106 SPECI KATL 032106Z 10006KT 5SM -RA BR FEW005 SCT030 OVC050 04/03 A2999 RMK AO2 P0003 T00390028 $=
201603032052 METAR KATL 032052Z 10008KT 3SM RA BR FEW010 BKN050 OVC080 04/02 A2998 RMK AO2 TSE08 PRESFR SLP157 TS DSIPT P0026 60066 T00390022 56041 $=
201603032008 SPECI KATL 032008Z 09010KT 4SM -RA BR FEW010 BKN040 OVC050 04/02 A3002 RMK AO2 TSE08 TS DSIPT P0007 T00390017 $=
201603031958 SPECI KATL 031958Z 06010KT 3SM TSRA BR FEW010CB SCT040 OVC050 04/02 A3003 RMK AO2 OCNL LTGIC SW-W TS SW-W MOV NE P0001 T00390017 $=
201603031952 METAR KATL 031952Z 05009KT 3SM TSRA BR FEW010CB SCT030 OVC050 04/02 A3004 RMK AO2 PLE35 TSB45 SLP178 OCNL LTGIC S-SW-W TS VC S-SW-W MOV NE P0029 T00390017=
201603031945 SPECI KATL 031945Z 07011KT 3SM TSRA BR FEW010CB BKN030 OVC060 04/02 A3003 RMK AO2 PLE35 TSB45 OCNL LTGIC S-SW TS VC S-SW MOV NE P0026 T00390017=
201603031940 SPECI KATL 031940Z 07013KT 3SM RA BR FEW010 BKN030 OVC060 04/02 A3002 RMK AO2 PLE35 PRESFR P0023 T00390017=
201603031935 SPECI KATL 031935Z 05013KT 3SM RA BKN050 BKN100 OVC120 04/01 A3004 RMK AO2 PLE35 P0020 T00390011=
201603031910 SPECI KATL 031910Z 05015KT 2SM RAPL BKN060 BKN100 OVC120 05/01 A3002 RMK AO2 PRESFR P0007 T00500011=
201603031852 METAR KATL 031852Z 02012KT 3SM -RAPL BKN060 BKN090 OVC120 06/02 A3004 RMK AO2 PLE1756B28 SLP178 P0011 T00560017=
201603031840 SPECI KATL 031840Z 03010KT 4SM -RAPL BKN065 BKN090 OVC120 06/02 A3007 RMK AO2 PLE1756B28 P0008 T00560017=
201603031828 SPECI KATL 031828Z 36011KT 4SM PLRA BKN065 BKN100 OVC120 06/02 A3008 RMK AO2 PLE1756B28 P0005 T00610017=
201603031818 SPECI KATL 031818Z 36011KT 5SM -RA BKN065 BKN100 OVC120 06/01 A3008 RMK AO2 PLE1756 P0003 T00610011=
201603031756 SPECI KATL 031756Z 34012KT 7SM -RA BKN070 BKN090 OVC120 08/01 A3009 RMK AO2 PLE56 P0000 T00780006 $=
201603031752 METAR KATL 031752Z 33011KT 6SM -RAPL BKN070 BKN090 OVC150 08/00 A3011 RMK AO2 RAB40PLB52 PRESRR SLP199 P0001 60001 T00780000 10089 20028 55006 $=
201603031652 METAR KATL 031652Z 00000KT 10SM BKN090 BKN140 BKN200 09/M02 A3007 RMK AO2 SLP186 VIRGA DSNT NE-E SHRA DSNT SW-NW T00891022=
201603031552 METAR KATL 031552Z 12015G21KT 10SM BKN140 BKN180 BKN250 08/M01 A3006 RMK AO2 SLP183 VIRGA DSNT NE & DSNT SW-NW T00831011=
201603031452 METAR KATL 031452Z 14010KT 10SM FEW150 SCT180 BKN250 07/M02 A3012 RMK AO2 SLP205 VIRGA DSNT NW T00721017 51007=
201603031352 METAR KATL 031352Z 10011KT 10SM SCT150 BKN200 BKN250 06/M02 A3011 RMK AO2 SLP201 T00561017=
201603031252 METAR KATL 031252Z 09013KT 10SM SCT150 BKN200 BKN250 04/M02 A3012 RMK AO2 SLP204 T00391022=
201603031152 METAR KATL 031152Z 08013KT 10SM FEW150 SCT200 SCT250 03/M03 A3010 RMK AO2 SLP199 T00281028 10061 20028 55001=
201603031052 METAR KATL 031052Z 10009KT 10SM SCT150 SCT200 SCT250 03/M03 A3010 RMK AO2 SLP196 T00331033=
201603030952 METAR KATL 030952Z 08008KT 10SM BKN150 BKN200 BKN250 04/M04 A3010 RMK AO2 SLP197 T00441039=
201603030852 METAR KATL 030852Z 03008KT 10SM BKN140 BKN180 BKN250 06/M04 A3011 RMK AO2 SLP197 T00561039 58004=
201603030752 METAR KATL 030752Z 02004KT 10SM SCT150 BKN200 06/M04 A3012 RMK AO2 SLP203 T00561039=
201603030652 METAR KATL 030652Z 00000KT 10SM BKN150 BKN200 05/M03 A3013 RMK AO2 SLP208 T00501028=
201603030552 METAR KATL 030552Z 00000KT 10SM SCT150 BKN200 06/M04 A3012 RMK AO2 SLP203 T00561039 10094 20050 58006=
201603030452 METAR KATL 030452Z 34004KT 10SM FEW150 BKN200 06/M04 A3013 RMK AO2 SLP207 T00561039 401170044=
201603030352 METAR KATL 030352Z 03008KT 10SM BKN200 07/M04 A3013 RMK AO2 SLP207 T00721044=
201603030252 METAR KATL 030252Z 01007KT 10SM SCT200 07/M04 A3014 RMK AO2 SLP210 T00721039 51004=
201603030152 METAR KATL 030152Z 01007KT 10SM SCT180 08/M03 A3014 RMK AO2 SLP210 T00781033=
201603030052 METAR KATL 030052Z 35005KT 10SM SCT250 08/M03 A3014 RMK AO2 SLP211 T00831033=
201603022352 METAR KATL 022352Z 34009KT 10SM FEW250 09/M03 A3012 RMK AO2 SLP205 T00941028 10117 20089 50006=
201603022252 METAR KATL 022252Z 32007KT 10SM FEW200 BKN250 11/M03 A3013 RMK AO2 SLP205 T01061028=
201603022152 METAR KATL 022152Z 32010KT 10SM FEW250 11/M03 A3011 RMK AO2 SLP199 T01111028=
201603022052 METAR KATL 022052Z 32009KT 290V010 10SM FEW250 11/M02 A3010 RMK AO2 SLP196 T01111017 56006=
201603021952 METAR KATL 021952Z 32012KT 10SM CLR 11/M03 A3011 RMK AO2 SLP197 T01061028=
201603021852 METAR KATL 021852Z 32009KT 290V360 10SM FEW045 10/M02 A3011 RMK AO2 SLP198 T01001022=
201603021752 METAR KATL 021752Z 30014G19KT 10SM FEW040 FEW250 09/M02 A3012 RMK AO2 SLP202 T00891017 10089 20044 50001=
201603021652 METAR KATL 021652Z 35012G18KT 10SM FEW035 FEW250 07/M02 A3014 RMK AO2 SLP208 T00721017=
201603021552 METAR KATL 021552Z 31015KT 10SM FEW030 FEW250 06/M01 A3012 RMK AO2 SLP202 T00611011=
201603021452 METAR KATL 021452Z 33018G22KT 10SM FEW020 05/M01 A3012 RMK AO2 SLP203 T00501006 51027=
201603021352 METAR KATL 021352Z 30013G22KT 10SM BKN020 05/00 A3010 RMK AO2 SLP197 T00500000=
201603021252 METAR KATL 021252Z 30014G21KT 10SM BKN019 04/01 A3007 RMK AO2 SLP182 T00440006=
201603021152 METAR KATL 021152Z 31014KT 10SM BKN022 04/01 A3004 RMK AO2 SLP171 BKN022 V SCT 70048 T00440006 10106 20044 53021 $=
201603021149 SPECI KATL 021149Z 31016KT 10SM BKN022 04/01 A3004 RMK AO2 BKN022 V SCT $=
201603021052 METAR KATL 021052Z 31012KT 10SM FEW022 06/01 A3002 RMK AO2 SLP164 T00560011=
201603020952 METAR KATL 020952Z 31018G21KT 10SM SCT018 07/03 A2999 RMK AO2 SLP155 T00720033=
201603020852 METAR KATL 020852Z 31013G20KT 10SM SCT018 08/05 A2997 RMK AO2 SLP147 T00830050 50002=
201603020752 METAR KATL 020752Z COR 29011KT 10SM FEW030 09/06 A2997 RMK AO2 SLP148 T00890056=
201603020652 METAR KATL 020652Z 30009KT 10SM SCT031 SCT110 10/07 A2997 RMK AO2 SLP147 T01000067=
201603020552 METAR KATL 020552Z 29009KT 10SM FEW015 BKN100 BKN200 11/08 A2997 RMK AO2 RAE0459B19E29 SLP145 P0000 60048 T01060078 10194 20106 51026=
201603020452 METAR KATL 020452Z 28010KT 10SM -RA FEW015 BKN080 OVC150 11/08 A2994 RMK AO2 RAB49 SLP138 PCPN VRY LGT P0000 T01110083 402220106=
201603020352 METAR KATL 020352Z 29008KT 10SM FEW020 BKN080 OVC200 12/09 A2991 RMK AO2 PK WND 31033/0318 RAB01E30 SLP127 P0001 T01220094=
201603020333 SPECI KATL 020333Z 32011G22KT 10SM FEW006 SCT020 BKN080 OVC200 13/09 A2990 RMK AO2 PK WND 31033/0318 RAB01E30 P0001 T01280094=
201603020252 METAR KATL 020252Z 28010KT 10SM SCT006 BKN025 BKN070 OVC200 13/11 A2989 RMK AO2 RAE31 TSE28 SLP118 OCNL LTG DSNT SE-SW P0011 60047 T01280111 53011=
201603020228 SPECI KATL 020228Z 25010KT 8SM -RA FEW006 BKN020 OVC070 13/11 A2988 RMK AO2 TSE28 OCNL LTG DSNT SE-SW TS MOVD SE P0011 T01280111=
201603020214 SPECI KATL 020214Z 26011KT 5SM TSRA BR FEW008 SCT030CB OVC070 12/11 A2987 RMK AO2 OCNL LTGICCA E-S-SW TS VC E-S-SW MOV SE P0008 T01220106=
201603020152 METAR KATL 020152Z 24013KT 5SM TSRA BR FEW025CB BKN050 OVC100 12/10 A2988 RMK AO2 PK WND 28048/0133 WSHFT 0121 RAB20 TSB17 SLP118 FRQ LTGICCG NE-SE-SW TS NE-SE-SW MOV SE P0036 T01220100=
201603020145 SPECI KATL 020145Z 23012G33KT 4SM TSRA SCT025CB BKN040 OVC100 13/10 A2986 RMK AO2 PK WND 28048/0133 WSHFT 0121 RAB20 TSB17 FRQ LTGICCG NE-SE-SW TS NE-SE-SW MOV SE P0034 T01280100=
201603020136 SPECI KATL 020136Z 27027G48KT 1SM R09R/2600VP6000FT +TSRA SQ BKN028CB BKN050 OVC100 14/11 A2992 RMK AO2 PK WND 28048/0133 WSHFT 0121 RAB20 TSB17 PRESRR FRQ LTGIC NE-OHD-SW TS NE-OHD-SW MOV SE P0003 T01440111=
201603020134 SPECI KATL 020134Z 28039G48KT 1 1/2SM R09R/3500VP6000FT +TSRA BKN030CB BKN050 OVC150 17/12 A2992 RMK AO2 PK WND 28048/0133 RAB20 TSB17 PRESRR FRQ LTGIC NE-OHD-SW TS NE-OHD-SW MOV SE P0002 T01670117=
201603020117 SPECI KATL 020117Z 20014G21KT 10SM TS FEW035CB BKN060 BKN090 OVC200 19/11 A2981 RMK AO2 TSB17 OCNL LTGIC W-NW TS VC W-NW MOV SE T01890106=
201603020052 METAR KATL 020052Z 20014KT 10SM SCT050 BKN070 BKN090 BKN200 19/11 A2984 RMK AO2 SLP101 OCNL LTG DSNT NW-N T01890106=
201603012352 METAR KATL 012352Z 20013G23KT 10SM FEW045 BKN070 BKN090 BKN200 19/10 A2985 RMK AO2 SLP106 T01940100 10222 20194 56033=
201603012252 METAR KATL 012252Z 20013G19KT 10SM FEW045 BKN080 BKN250 20/10 A2988 RMK AO2 PK WND 22027/2214 SLP115 T02000100=
201603012152 METAR KATL 012152Z 20016G26KT 10SM FEW045 SCT060 BKN080 BKN250 21/10 A2990 RMK AO2 PK WND 19026/2143 SLP122 VIRGA DSNT N T02060100=
201603012052 METAR KATL 012052Z 23013G22KT 10SM FEW040 SCT060 BKN080 21/09 A2995 RMK AO2 SLP139 T02060094 56025=
201603011952 METAR KATL 011952Z 23017G25KT 10SM FEW050 BKN060 BKN080 21/09 A2996 RMK AO2 PK WND 23030/1933 SLP143 T02110094=
201603011852 METAR KATL 011852Z 22015G24KT 10SM FEW040 FEW050 BKN080 22/11 A2999 RMK AO2 SLP150 T02170106=
201603011752 METAR KATL 011752Z 24013G19KT 10SM FEW040 BKN080 21/11 A3003 RMK AO2 SLP164 T02060111 10211 20117 56017=
201603011652 METAR KATL 011652Z 22016G21KT 10SM FEW030 FEW085 20/11 A3004 RMK AO2 SLP171 T02000106=
201603011552 METAR KATL 011552Z 23012G18KT 10SM FEW030 FEW080 19/11 A3006 RMK AO2 SLP175 T01890111=
201603011452 METAR KATL 011452Z 22010KT 10SM FEW085 16/11 A3008 RMK AO2 SLP184 T01560111 50001=
201603011352 METAR KATL 011352Z 21008KT 9SM FEW070 OVC085 13/10 A3009 RMK AO2 SLP188 BINOVC T01280100=
201603011252 METAR KATL 011252Z 22004KT 9SM OVC080 12/09 A3009 RMK AO2 SLP186 BINOVC T01170094=
