##########################################################
# Query made at 04/19/2024 23:49:16 UTC
# Time interval: from 06/01/2016 12:00  to 06/30/2016 12:59  UTC
##########################################################

##########################################################
# KATL, Atlanta, Hartsfield - Jackson Atlanta International Airport (United States)
# WMO index: 72219. WIGOS ID: 0-20000-0-72219
# Latitude 33-38-59N. Longitude 084-25-00W. Altitude 312 m.
##########################################################

201606301252 METAR KATL 301252Z 31003KT 10SM FEW120 FEW200 FEW250 25/17 A3000 RMK AO2 SLP146 T02500172=
201606301152 METAR KATL 301152Z 34006KT 10SM FEW110 FEW200 SCT250 23/16 A2999 RMK AO2 SLP143 T02330161 10244 20222 51011=
201606301052 METAR KATL 301052Z 32005KT 10SM FEW095 SCT120 SCT200 BKN250 22/15 A2998 RMK AO2 SLP140 ACC DSNT NE / SE T02220150=
201606300952 METAR KATL 300952Z 31006KT 10SM BKN120 BKN200 BKN250 23/16 A2997 RMK AO2 SLP136 T02330156=
201606300852 METAR KATL 300852Z 27005KT 10SM BKN120 BKN200 BKN250 24/16 A2996 RMK AO2 SLP132 T02390161 55001=
201606300752 METAR KATL 300752Z 25003KT 10SM BKN110 BKN200 BKN250 24/18 A2995 RMK AO2 SLP130 T02390178=
201606300652 METAR KATL 300652Z 00000KT 10SM FEW075 SCT110 BKN200 BKN250 24/20 A2995 RMK AO2 SLP131 T02390200=
201606300552 METAR KATL 300552Z 21005KT 10SM FEW070 SCT250 24/20 A2996 RMK AO2 SLP134 T02390200 10328 20239 58004=
201606300452 METAR KATL 300452Z 20004KT 10SM FEW070 SCT250 25/19 A2998 RMK AO2 SLP139 T02500194 403440217=
201606300352 METAR KATL 300352Z 27006KT 10SM FEW070 BKN090 BKN250 26/21 A2999 RMK AO2 SLP142 T02610206=
201606300252 METAR KATL 300252Z 18006KT 10SM FEW070 SCT110 SCT250 27/22 A2998 RMK AO2 SLP138 OCNL LTG DSNT NE & SW T02720217 53014=
201606300152 METAR KATL 300152Z 00000KT 10SM FEW070 FEW250 29/17 A2995 RMK AO2 SLP130 CONS LTG DSNT NE T02940172=
201606300052 METAR KATL 300052Z 31004KT 10SM FEW075 FEW250 31/16 A2995 RMK AO2 SLP129 CB DSNT NE & SE & SW TCU DSNT E & S T03110161=
201606292352 METAR KATL 292352Z 32005KT 10SM FEW075 SCT250 33/16 A2993 RMK AO2 SLP123 CB DSNT NE TCU DSNT E / SE / SW T03280161 10344 20317 53001=
201606292252 METAR KATL 292252Z 32006KT 10SM FEW075 SCT250 33/15 A2992 RMK AO2 SLP120 TCU DSNT NE-E T03330150=
201606292152 METAR KATL 292152Z 33006KT 10SM FEW075 BKN250 34/16 A2992 RMK AO2 SLP120 T03390161=
201606292052 METAR KATL 292052Z VRB04KT 10SM FEW075 FEW150 SCT250 34/16 A2993 RMK AO2 SLP123 MDT CU DSNT N-NE T03390156 58019=
201606291952 METAR KATL 291952Z 29006KT 10SM FEW070 SCT150 BKN250 33/16 A2995 RMK AO2 SLP130 T03330161=
201606291852 METAR KATL 291852Z 36004G16KT 10SM FEW060TCU SCT150 SCT250 33/15 A2997 RMK AO2 SLP136 TCU E / S / DSNT SW T03330150=
201606291752 METAR KATL 291752Z COR 01006KT 10SM BKN060TCU BKN250 33/18 A2999 RMK AO2 SLP142 TCU OHD / ALQDS T03280178 10328 20239 58009=
201606291652 METAR KATL 291652Z 35005KT 10SM FEW055 FEW110 SCT250 32/18 A3000 RMK AO2 SLP147 TCU DSNT NW-N-NE T03220178=
201606291552 METAR KATL 291552Z VRB04KT 10SM FEW050 FEW110 SCT250 31/19 A3001 RMK AO2 SLP151 T03110189=
201606291452 METAR KATL 291452Z VRB03KT 10SM FEW110 SCT250 BKN300 29/18 A3001 RMK AO2 SLP153 T02940183 50003=
201606291352 METAR KATL 291352Z 33006KT 10SM FEW110 SCT150 BKN250 28/19 A3002 RMK AO2 SLP155 T02780189=
201606291252 METAR KATL 291252Z 33006KT 10SM FEW150 SCT200 BKN250 26/19 A3001 RMK AO2 SLP151 T02560194=
201606291152 METAR KATL 291152Z 31004KT 10SM FEW150 SCT200 BKN250 24/20 A3001 RMK AO2 SLP151 70056 T02390200 10239 20217 53009=
201606291052 METAR KATL 291052Z 33005KT 10SM FEW150 SCT180 BKN250 23/19 A2999 RMK AO2 SLP146 T02280194=
201606290952 METAR KATL 290952Z 00000KT 10SM FEW120 SCT150 SCT250 22/19 A2998 RMK AO2 SLP144 T02220194=
201606290852 METAR KATL 290852Z 32003KT 10SM FEW150 SCT250 22/19 A2998 RMK AO2 SLP143 T02170194 55002=
201606290752 METAR KATL 290752Z 31003KT 10SM FEW180 22/20 A2997 RMK AO2 SLP141 T02220200=
201606290652 METAR KATL 290652Z 00000KT 10SM SCT180 23/20 A2998 RMK AO2 SLP140 T02280200=
201606290552 METAR KATL 290552Z 32005KT 10SM BKN180 BKN220 23/21 A2999 RMK AO2 SLP142 T02330206 10250 20228 56008=
201606290452 METAR KATL 290452Z 32003KT 10SM BKN180 BKN250 23/21 A3000 RMK AO2 SLP146 T02330206 403330222=
201606290352 METAR KATL 290352Z 00000KT 10SM BKN180 BKN250 23/21 A3000 RMK AO2 SLP147 T02330206=
201606290252 METAR KATL 290252Z 00000KT 10SM BKN170 BKN250 24/21 A3001 RMK AO2 SLP151 T02390206 50008=
201606290152 METAR KATL 290152Z 17003KT 10SM FEW100 BKN150 BKN250 24/21 A3002 RMK AO2 SLP154 T02390206=
201606290052 METAR KATL 290052Z 13004KT 10SM BKN150 BKN250 24/20 A3001 RMK AO2 SLP152 T02440200=
201606282352 METAR KATL 282352Z 11005KT 10SM BKN150 BKN200 BKN250 25/21 A2999 RMK AO2 SLP144 60056 T02500206 10333 20222 55006=
201606282252 METAR KATL 282252Z 06011KT 10SM FEW110 SCT150 BKN200 BKN250 27/21 A2997 RMK AO2 SLP137 T02670206=
201606282152 METAR KATL 282152Z 00000KT 10SM FEW030 SCT110 BKN150 BKN200 23/21 A2999 RMK AO2 TSE17 SLP147 T02330211=
201606282117 SPECI KATL 282117Z 10004KT 10SM FEW030 SCT110 BKN200 23/21 A3000 RMK AO2 TSE17 OCNL LTG DSNT SW TS DSIPTD T02330206=
201606282052 METAR KATL 282052Z COR 17004KT 10SM TS FEW010CB BKN070 BKN110 BKN250 23/21 A3000 RMK AO2 RAE51 SLP152 OCNL LTGICCG SE-SW TS VC SE-SW MOV SE P0038 60056 T02280206 55000=
201606282005 SPECI KATL 282005Z 11016G23KT 9SM R09R/5000VP6000FT -TSRA FEW017CB BKN030 BKN100 BKN250 23/21 A2998 RMK AO2 VIS LWR SE-SW SHRA FRQ LTGICCG SE-SW TS SE-SW MOV SE P0026 T02280206 $=
201606281956 SPECI KATL 281956Z 13015G21KT 1SM R09R/3000VP6000FT TSRA BR FEW012 BKN030CB BKN100 BKN250 23/21 A2999 RMK AO2 SFC VIS 4 VIS LWR E-SE-S-SW SHRA OCNL LTGICCG E-SE-S-SW TS E-SE-S-SW MOV SE P0013 T02280206 $=
201606281947 SPECI KATL 281947Z 09021G26KT 1/2SM R09R/3500VP6000FT TSRA BKN020CB BKN040 OVC100 24/21 A3000 RMK AO2 PK WND 08026/1945 WSHFT 1914 SFC VIS 1 RAB42 TSB13 OCNL LTGICCG OHD-E TS OHD-E MOV SE P0001 $=
201606281945 SPECI KATL 281945Z 08022G26KT 2SM R09R/4500VP6000FT TSRA BKN020CB BKN040 OVC100 25/21 A3000 RMK AO2 PK WND 08026/1945 WSHFT 1914 RAB42 TSB13 OCNL LTGICCG OHD-E TS OHD-E MOV SE P0000 T02500206=
201606281943 SPECI KATL 281943Z 08021G25KT 1SM R09R/5000VP6000FT +TSRA BKN030CB BKN040 OVC100 26/20 A3000 RMK AO2 PK WND 04026/1931 WSHFT 1914 RAB42 TSB13 OCNL LTGICCG OHD-E TS OHD-E MOV SE P0000 T02560200=
201606281936 SPECI KATL 281936Z 05020G26KT 10SM TS BKN030CB BKN040 OVC100 27/20 A2999 RMK AO2 PK WND 04026/1931 WSHFT 1914 TSB13 VIS LWR N-NE-E-SE SHRA FRQ LTGICCG N-NE-E-SE TS N-NE-E-SE MOV SE T02670200=
201606281929 SPECI KATL 281929Z 04018KT 10SM TS BKN030CB BKN040 BKN100 27/20 A2998 RMK AO2 WSHFT 1914 TSB13 VIS LWR E-SE SHRA FRQ LTGICCG E-SE TS E-SE MOV SE T02720200=
201606281914 SPECI KATL 281914Z 33010KT 290V360 10SM TS FEW030CB BKN040CB BKN100 BKN250 31/20 A2998 RMK AO2 TSB13 OCNL LTGICCG N-NE-E TS VC N-NE-E MOV SE SHRA VC N-NE-E & VC SW TCU ALQDS T03110200=
201606281852 METAR KATL 281852Z COR VRB04KT 10SM FEW040CB BKN050TCU BKN100 BKN250 32/21 A2997 RMK AO2 SLP137 CB VC NE / SE / DSNT N-NE-E MOV SE TCU OHD / ALQDS SHRA VC NE / SE / DSNT N-NE-E T03170206=
201606281752 METAR KATL 281752Z 31006KT 10SM SCT040TCU SCT100 BKN250 32/21 A3000 RMK AO2 SLP148 CB DSNT N-NE-E TCU NE-SE / SW-NW SHRA DSNT N-NE-E T03220211 10328 20244 58009=
201606281652 METAR KATL 281652Z VRB04KT 10SM SCT035TCU SCT150 31/20 A3002 RMK AO2 SLP153 CB DSNT SW TCU N-NE-E-SE / SW / NW SHRA NE T03110200=
201606281552 METAR KATL 281552Z VRB04KT 10SM FEW030 FEW150 29/21 A3003 RMK AO2 SLP157 TCU DSNT N T02940206=
201606281452 METAR KATL 281452Z 29007KT 10SM FEW030 FEW150 SCT200 29/21 A3003 RMK AO2 SLP157 T02890211 50005=
201606281352 METAR KATL 281352Z 32005KT 10SM SCT018 SCT150 28/21 A3004 RMK AO2 SLP160 T02780211=
201606281252 METAR KATL 281252Z 32006KT 10SM FEW016 SCT140 SCT220 26/21 A3004 RMK AO2 SLP159 T02610211 $=
201606281152 METAR KATL 281152Z 00000KT 10SM FEW010 SCT140 BKN200 BKN250 24/21 A3002 RMK AO2 SLP152 T02440211 10244 20228 53006=
201606281052 METAR KATL 281052Z 32003KT 9SM FEW120 SCT150 SCT250 23/21 A3001 RMK AO2 SLP151 T02280206=
201606280952 METAR KATL 280952Z 34004KT 10SM FEW110 BKN150 23/21 A3000 RMK AO2 SLP146 T02280206=
201606280908 SPECI KATL 280908Z 33005KT 10SM FEW005 SCT150 23/21 A3000 RMK AO2 T02280206=
201606280852 METAR KATL 280852Z 33006KT 10SM FEW010 FEW110 FEW220 23/21 A3000 RMK AO2 SLP146 T02280206 55006=
201606280752 METAR KATL 280752Z 31005KT 10SM FEW110 SCT220 23/21 A3000 RMK AO2 SLP146 T02330206=
201606280652 METAR KATL 280652Z 29004KT 10SM FEW080 SCT110 BKN220 23/21 A3000 RMK AO2 SLP147 T02330206=
201606280552 METAR KATL 280552Z 28005KT 10SM FEW080 SCT110 BKN250 24/21 A3002 RMK AO2 SLP153 T02390206 10322 20233 58011=
201606280452 METAR KATL 280452Z 09005KT 10SM FEW110 BKN200 BKN250 24/21 A3003 RMK AO2 SLP156 T02390206 403390217=
201606280352 METAR KATL 280352Z 10007KT 10SM FEW038 FEW110 BKN200 BKN250 26/20 A3004 RMK AO2 SLP161 T02560200=
201606280252 METAR KATL 280252Z 05004KT 10SM FEW045 SCT065 SCT110 BKN250 27/19 A3005 RMK AO2 SLP165 T02670194 51018=
201606280152 METAR KATL 280152Z 34012KT 10SM FEW060 SCT100 SCT200 BKN250 27/19 A3004 RMK AO2 PK WND 32029/0054 WSHFT 0046 SLP160 T02670194=
201606280104 SPECI KATL 280104Z 31020G26KT 10SM FEW044CB SCT055TCU BKN090 BKN200 28/20 A3003 RMK AO2 PK WND 32029/0054 WSHFT 0046 CB NW MOV E TCU NE-SE-SW SHRA VC NW T02830200=
201606280052 METAR KATL 280052Z COR 31020G29KT 10SM FEW042CB SCT055TCU SCT100 BKN200 BKN250 29/20 A3002 RMK AO2 PK WND 31029/0048 SLP154 CB NW MOV E CB DSNT N-NE TCU NE-OHD-SW SHRA VC NW T02890200=
201606272352 METAR KATL 272352Z 23006KT 10SM FEW055 SCT110 SCT200 BKN250 32/19 A2999 RMK AO2 SLP145 CB DSNT N-NE & NW TCU DSNT NE-E T03220194 10339 20311 55002=
201606272252 METAR KATL 272252Z 22008KT 10SM FEW060 FEW110 SCT200 SCT250 33/19 A2997 RMK AO2 SLP137 CB DSNT N-NE / SW T03280194=
201606272152 METAR KATL 272152Z 24008KT 210V270 10SM FEW060TCU SCT110 SCT200 SCT250 34/19 A2999 RMK AO2 SLP144 CB DSNT NE TCU S / DSNT E-SE T03390194=
201606272052 METAR KATL 272052Z 25006KT 10SM FEW060 SCT250 33/19 A3000 RMK AO2 SLP146 CB DSNT NE T03280189 56026=
201606271952 METAR KATL 271952Z 20006KT 10SM FEW055 FEW250 33/20 A3002 RMK AO2 SLP152 CB DSNT NE MDT CU DSNT NW T03280200=
201606271852 METAR KATL 271852Z 16009KT 10SM FEW050 FEW250 33/21 A3004 RMK AO2 SLP159 CB DSNT NE T03280206=
201606271752 METAR KATL 271752Z 25004KT 10SM FEW045 FEW250 32/20 A3008 RMK AO2 SLP174 CB DSNT NE-E T03170200 10322 20228 58016=
201606271652 METAR KATL 271652Z 26005KT 10SM FEW045 FEW250 SCT300 31/21 A3011 RMK AO2 SLP184 CB DSNT NE T03110206=
201606271552 METAR KATL 271552Z 26009KT 10SM FEW035 FEW250 SCT300 30/21 A3013 RMK AO2 SLP190 T03000211 $=
201606271452 METAR KATL 271452Z 25006KT 10SM FEW030 SCT250 BKN300 28/21 A3013 RMK AO2 SLP193 T02780211 51000=
201606271352 METAR KATL 271352Z 23004KT 10SM SCT250 26/21 A3013 RMK AO2 SLP192 T02610211=
201606271252 METAR KATL 271252Z 30006KT 9SM FEW120 FEW200 SCT250 24/21 A3014 RMK AO2 SLP199 T02440206=
201606271211 SPECI KATL 271211Z 27006KT 8SM FEW004 FEW120 SCT200 SCT250 23/21 A3014 RMK AO2 T02280206=
201606271152 METAR KATL 271152Z 28009KT 9SM FEW060 FEW120 SCT200 SCT250 23/21 A3013 RMK AO2 SLP193 70028 T02280206 10244 20217 53007=
201606271052 METAR KATL 271052Z 20005KT 10SM FEW060 SCT110 SCT250 22/20 A3011 RMK AO2 SLP187 T02170200=
201606270952 METAR KATL 270952Z VRB03KT 10SM SCT060 SCT100 24/20 A3010 RMK AO2 SLP184 T02390200=
201606270852 METAR KATL 270852Z 03003KT 10SM SCT060 SCT250 24/20 A3011 RMK AO2 SLP186 T02390200 58003=
201606270752 METAR KATL 270752Z 30003KT 10SM FEW070 SCT250 22/20 A3012 RMK AO2 SLP190 T02220200=
201606270652 METAR KATL 270652Z 31003KT 10SM FEW070 SCT200 23/20 A3012 RMK AO2 SLP190 T02280200=
201606270552 METAR KATL 270552Z 36006KT 10SM FEW200 23/20 A3012 RMK AO2 SLP186 T02330200 10239 20228 50001=
201606270452 METAR KATL 270452Z 32005KT 10SM FEW012 FEW200 23/21 A3012 RMK AO2 SLP188 T02330206 403170222=
201606270352 METAR KATL 270352Z 31006KT 10SM FEW012 SCT200 SCT250 23/21 A3012 RMK AO2 SLP188 T02280206=
201606270252 METAR KATL 270252Z 28004KT 10SM FEW140 SCT200 BKN250 23/21 A3011 RMK AO2 SLP186 T02280206 55002=
201606270152 METAR KATL 270152Z 00000KT 10SM FEW085 FEW140 BKN200 BKN250 23/21 A3011 RMK AO2 SLP186 T02330211=
201606270052 METAR KATL 270052Z 23005KT 10SM FEW034TCU FEW090 BKN200 BKN250 24/21 A3012 RMK AO2 SLP188 TCU E T02390211=
201606262352 METAR KATL 262352Z 24004KT 10SM FEW012 FEW095 BKN150 BKN200 24/21 A3012 RMK AO2 SLP190 CB DSNT N-NE & SE TCU DSNT N-NE ACC W 60028 T02390206 10317 20222 53004=
201606262252 METAR KATL 262252Z 22005KT 10SM FEW100 BKN150 BKN200 BKN250 25/22 A3012 RMK AO2 SLP190 CB DSNT N & SE TCU DSNT NE T02500222=
201606262152 METAR KATL 262152Z 30006KT 10SM FEW030 FEW110 BKN200 BKN250 26/22 A3010 RMK AO2 SLP183 CB DSNT SE-S T02610222=
201606262052 METAR KATL 262052Z 23003KT 10SM FEW055 FEW110 BKN200 24/21 A3011 RMK AO2 RAB23E32 SLP185 CB DSNT NE & S TCU DSNT NE-SE SHRA DSNT S & NW P0000 60028 T02390211 58017=
201606261952 METAR KATL 261952Z 20003KT 10SM FEW034CB SCT055 BKN110 23/21 A3012 RMK AO2 WSHFT 1839 RAE38 TSE40 SLP191 MOV SE CB SW-S AND DSNT SE MOV SE P0028 T02280206=
201606261945 SPECI KATL 261945Z 18003KT 10SM FEW034CB SCT055 BKN110 23/21 A3013 RMK AO2 WSHFT 1839 RAE38 TSE40 MOV SE CB SW-S MOV SE P0028 T02280211=
201606261924 SPECI KATL 261924Z 25008KT 7SM TSRA FEW024CB BKN034 OVC055 22/20 A3016 RMK AO2 WSHFT 1839 PRESFR OCNL LTGICCG S-W TS S-W MOV SE VSBY S 2 P0024 T02220200=
201606261911 SPECI KATL 261911Z 30014G20KT 6SM R09R/6000VP6000FT +TSRA SCT012 BKN022CB OVC040 23/20 A3019 RMK AO2 WSHFT 1839 FRQ LTGICCG S-W-N TS S-W-N MOV SE VSBY S 2 P0016 T02280200=
201606261901 SPECI KATL 261901Z 26011G18KT 1 1/2SM +TSRA BR FEW010 SCT019CB OVC029 22/20 A3019 RMK AO2 WSHFT 1839 PRESRR OCNL LTGICCG SW-NW TS SW-NW MOV SE P0006 T02220200=
201606261856 SPECI KATL 261856Z 25011G20KT 2 1/2SM -TSRA FEW010 SCT019CB OVC029 22/20 A3019 RMK AO2 WSHFT 1839 OCNL LTGICCG SW-NW TS SW-NW MOV SE P0002 T02220200=
201606261852 METAR KATL 261852Z 24014G21KT 5SM -TSRA FEW010 SCT019CB OVC025 23/20 A3018 RMK AO2 PK WND 30028/1824 WSHFT 1823 RAB41 SLP209 OCNL LTGICCG SW-NW TS SW-NW MOV SE P0000 T02280200=
201606261837 SPECI KATL 261837Z 01016G25KT 10SM TS SCT019 BKN025 OVC042 26/20 A3017 RMK AO2 PK WND 30028/1824 WSHFT 1823 T02610200 $=
201606261752 METAR KATL 261752Z 08007KT 10SM TS BKN040CB BKN050 OVC090 32/21 A3016 RMK AO2 TSB22 SLP200 OCNL LTGCG W TS W MOV SE T03170206 10317 20250 58008=
201606261723 SPECI KATL 261723Z 09009KT 10SM TS BKN040CB BKN090 31/21 A3016 RMK AO2 TSB22 OCNL LTGCG W TS W MOV SE T03110211=
201606261652 METAR KATL 261652Z 12008KT 10SM SCT035 BKN090 31/21 A3017 RMK AO2 SLP203 CB DSNT NW T03110206=
201606261552 METAR KATL 261552Z 09007KT 10SM SCT032TCU BKN090 BKN250 31/21 A3018 RMK AO2 SLP206 TCU S-SW T03060206=
201606261452 METAR KATL 261452Z 09012KT 10SM FEW026 SCT120 SCT250 30/21 A3018 RMK AO2 SLP207 T03000206 50005=
201606261352 METAR KATL 261352Z 10009KT 10SM FEW022 BKN120 BKN220 28/21 A3019 RMK AO2 SLP209 T02830206=
201606261252 METAR KATL 261252Z 09011KT 10SM FEW019 FEW100 BKN150 BKN200 26/21 A3019 RMK AO2 SLP209 T02610206=
201606261152 METAR KATL 261152Z 08012KT 10SM SCT015 SCT070 SCT180 25/20 A3017 RMK AO2 SLP203 T02500200 10289 20244 53018=
201606261052 METAR KATL 261052Z 08012KT 10SM FEW018 FEW090 SCT150 25/20 A3015 RMK AO2 SLP196 ACC SW-W T02500200=
201606260952 METAR KATL 260952Z 07011KT 10SM FEW025 FEW150 26/19 A3013 RMK AO2 SLP188 T02560194=
201606260852 METAR KATL 260852Z 08014KT 10SM FEW150 FEW250 26/19 A3012 RMK AO2 SLP184 T02610189 53008=
201606260752 METAR KATL 260752Z 08012KT 10SM FEW150 FEW250 26/18 A3010 RMK AO2 SLP179 T02610178=
201606260652 METAR KATL 260652Z 08012KT 10SM FEW150 28/17 A3009 RMK AO2 SLP177 T02780172=
201606260552 METAR KATL 260552Z 06007KT 10SM FEW090 FEW150 SCT250 29/17 A3009 RMK AO2 SLP175 T02890167 10356 20289 50001=
201606260452 METAR KATL 260452Z 03008KT 10SM FEW090 SCT140 BKN200 BKN250 31/17 A3010 RMK AO2 SLP179 T03060167 403780244=
201606260352 METAR KATL 260352Z 03007KT 10SM FEW090 SCT140 BKN200 BKN250 32/17 A3009 RMK AO2 SLP177 ACC N-OHD-S T03170172=
201606260252 METAR KATL 260252Z 02010KT 10SM FEW085 SCT140 BKN200 BKN250 33/18 A3009 RMK AO2 SLP175 T03280183 53012=
201606260152 METAR KATL 260152Z 35008KT 10SM FEW120 BKN200 BKN250 33/17 A3007 RMK AO2 SLP169 FRQ LTGIC DSNT NW CB DSNT NW T03330172=
201606260052 METAR KATL 260052Z 35009KT 10SM FEW070 SCT120 SCT200 BKN250 34/17 A3006 RMK AO2 SLP166 TCU DSNT NE ACC DSNT SW T03390167=
201606252352 METAR KATL 252352Z 34009G19KT 10SM FEW065 SCT100 SCT200 BKN250 36/16 A3005 RMK AO2 SLP162 CB DSNT S SHRA DSNT S T03560161 10378 20356 53001=
201606252252 METAR KATL 252252Z 01012G16KT 10SM FEW065TCU SCT100 SCT200 SCT250 37/17 A3003 RMK AO2 SLP157 TCU S CB DSNT S-W T03670172=
201606252152 METAR KATL 252152Z 31007KT 10SM FEW065 FEW090 SCT200 SCT250 37/18 A3003 RMK AO2 SLP156 T03670183=
201606252052 METAR KATL 252052Z 36008KT 320V050 10SM FEW060 FEW085 SCT250 37/17 A3005 RMK AO2 SLP161 T03670172 58015=
201606251952 METAR KATL 251952Z 32010G16KT 10SM FEW060 FEW080 SCT250 37/18 A3007 RMK AO2 SLP168 T03720178=
201606251852 METAR KATL 251852Z 34010KT 10SM FEW060 FEW075 BKN250 37/16 A3008 RMK AO2 SLP172 T03670161=
201606251752 METAR KATL 251752Z 30009G17KT 10SM FEW060 SCT075 BKN250 36/18 A3009 RMK AO2 SLP177 T03610183 10361 20272 58010=
201606251652 METAR KATL 251652Z 31009KT 270V350 10SM SCT050 SCT080 BKN250 35/20 A3011 RMK AO2 SLP182 T03500200=
201606251552 METAR KATL 251552Z 31013KT 10SM FEW050 FEW070 SCT250 34/21 A3012 RMK AO2 SLP186 T03390206=
201606251452 METAR KATL 251452Z 34008KT 10SM FEW042 FEW070 SCT250 33/22 A3012 RMK AO2 SLP187 T03280217 50005=
201606251352 METAR KATL 251352Z 29005KT 10SM FEW070 FEW220 31/21 A3013 RMK AO2 SLP188 T03060211=
201606251252 METAR KATL 251252Z 31005KT 10SM FEW070 FEW200 29/21 A3012 RMK AO2 SLP188 T02940211=
201606251152 METAR KATL 251152Z 33006KT 10SM FEW200 27/21 A3011 RMK AO2 SLP183 T02670211 10278 20244 53018=
201606251052 METAR KATL 251052Z 32006KT 10SM FEW200 24/21 A3009 RMK AO2 SLP177 T02440211=
201606250952 METAR KATL 250952Z 29004KT 10SM FEW090 FEW200 25/21 A3007 RMK AO2 SLP169 T02500206=
201606250852 METAR KATL 250852Z 29003KT 10SM FEW060 FEW090 FEW200 26/21 A3005 RMK AO2 SLP164 T02560206 55001=
201606250752 METAR KATL 250752Z 00000KT 10SM FEW060 FEW250 27/20 A3005 RMK AO2 SLP161 T02670200=
201606250652 METAR KATL 250652Z 09004KT 10SM FEW060 FEW200 28/20 A3005 RMK AO2 SLP162 T02780200=
201606250552 METAR KATL 250552Z 08005KT 10SM FEW055 SCT250 28/20 A3006 RMK AO2 SLP164 T02780200 10328 20278 50003=
201606250452 METAR KATL 250452Z 31003KT 10SM FEW055 BKN250 29/20 A3006 RMK AO2 SLP165 T02890200 403560239=
201606250352 METAR KATL 250352Z 29003KT 10SM SCT055 BKN250 29/20 A3005 RMK AO2 SLP162 T02940200=
201606250252 METAR KATL 250252Z 00000KT 10SM FEW055 SCT200 SCT250 30/20 A3005 RMK AO2 SLP162 T03000200 53008=
201606250152 METAR KATL 250152Z 27003KT 10SM SCT060 SCT250 31/19 A3004 RMK AO2 SLP158 T03110194=
201606250052 METAR KATL 250052Z 28005KT 10SM FEW060 SCT250 31/19 A3003 RMK AO2 SLP157 T03110194=
201606242352 METAR KATL 242352Z 30009KT 10SM FEW060 SCT250 33/19 A3002 RMK AO2 SLP155 T03280189 10356 20328 56006=
201606242252 METAR KATL 242252Z VRB06KT 10SM FEW060 BKN250 34/19 A3003 RMK AO2 SLP154 T03390189=
201606242152 METAR KATL 242152Z 29012KT 10SM FEW060 SCT090 BKN250 34/18 A3003 RMK AO2 SLP156 T03390183=
201606242052 METAR KATL 242052Z 28010KT 10SM FEW060TCU SCT080 BKN250 34/19 A3004 RMK AO2 SLP160 TCU VC NW-N T03390189 58007=
201606241952 METAR KATL 241952Z 30010KT 10SM SCT060 SCT080 BKN250 35/19 A3005 RMK AO2 SLP164 MDT CU ALQDS T03500194=
201606241852 METAR KATL 241852Z 28010KT 10SM SCT055 SCT180 BKN250 34/20 A3006 RMK AO2 SLP166 MDT CU SW-NW T03390200=
201606241752 METAR KATL 241752Z 26011G18KT 10SM FEW055 SCT100 BKN250 34/20 A3006 RMK AO2 SLP167 TCU DSNT NW T03440200 10344 20250 50000=
201606241652 METAR KATL 241652Z 28012G18KT 10SM FEW050 SCT100 BKN250 33/21 A3007 RMK AO2 SLP171 T03330206=
201606241552 METAR KATL 241552Z 28013KT 10SM FEW100 SCT180 BKN230 31/20 A3009 RMK AO2 SLP176 T03110200=
201606241452 METAR KATL 241452Z 24006KT 10SM FEW100 SCT180 BKN250 29/19 A3006 RMK AO2 SLP168 T02890194 58013=
201606241352 METAR KATL 241352Z 25007KT 10SM FEW030 SCT100 BKN250 27/19 A3008 RMK AO2 SLP173 T02720189=
201606241252 METAR KATL 241252Z 30008KT 10SM FEW040 BKN085 BKN250 26/18 A3010 RMK AO2 SLP182 T02610183=
201606241152 METAR KATL 241152Z 27007KT 10SM FEW042 BKN085 OVC250 25/18 A3010 RMK AO2 SLP182 T02500178 10267 20239 53012=
201606241052 METAR KATL 241052Z COR 26006KT 10SM SCT085 BKN250 24/18 A3009 RMK AO2 SLP177 T02440178=
201606240952 METAR KATL 240952Z 27008KT 10SM FEW055 SCT090 SCT250 24/18 A3007 RMK AO2 SLP172 T02440178=
201606240852 METAR KATL 240852Z 26006KT 10SM FEW050 SCT085 BKN250 26/18 A3007 RMK AO2 SLP169 T02560178 53001=
201606240752 METAR KATL 240752Z 26006KT 10SM BKN085 OVC250 26/18 A3007 RMK AO2 SLP168 T02610178=
201606240652 METAR KATL 240652Z 24007KT 10SM BKN250 26/18 A3006 RMK AO2 SLP165 T02610183=
201606240552 METAR KATL 240552Z 24009KT 10SM BKN250 27/18 A3006 RMK AO2 SLP168 T02670178 10317 20267 50001=
201606240452 METAR KATL 240452Z 25007KT 10SM BKN250 27/18 A3007 RMK AO2 SLP169 T02720178 403390222=
201606240352 METAR KATL 240352Z 24009KT 10SM FEW250 28/18 A3006 RMK AO2 SLP167 T02780183=
201606240252 METAR KATL 240252Z 24006KT 10SM CLR 28/19 A3006 RMK AO2 SLP167 T02830189 53020=
201606240152 METAR KATL 240152Z 25007KT 10SM CLR 29/19 A3004 RMK AO2 SLP159 T02890194=
201606240052 METAR KATL 240052Z 27011KT 10SM FEW055 30/19 A3001 RMK AO2 SLP151 T03000189=
201606232352 METAR KATL 232352Z 27010G17KT 10SM FEW055 32/19 A3000 RMK AO2 SLP147 T03170189 10339 20311 55012=
201606232252 METAR KATL 232252Z 23011KT 10SM FEW055 32/18 A3000 RMK AO2 SLP147 T03220183=
201606232152 METAR KATL 232152Z 28014KT 10SM FEW055 SCT070 33/18 A3002 RMK AO2 SLP154 T03330183=
201606232052 METAR KATL 232052Z 25011G17KT 230V290 10SM SCT060 33/19 A3004 RMK AO2 SLP160 MDT CU NW-N T03330189 56020=
201606231952 METAR KATL 231952Z 25008KT 10SM SCT060 33/19 A3006 RMK AO2 SLP166 T03330189=
201606231852 METAR KATL 231852Z 27011G18KT 10SM SCT055 32/19 A3007 RMK AO2 SLP171 T03220189=
201606231752 METAR KATL 231752Z 27012G17KT 240V340 10SM SCT047 33/19 A3010 RMK AO2 SLP179 T03280189 10328 20239 58019=
201606231652 METAR KATL 231652Z 28009G14KT 10SM SCT050 32/20 A3013 RMK AO2 SLP189 T03170200=
201606231552 METAR KATL 231552Z 29011G19KT 10SM SCT045TCU 31/19 A3015 RMK AO2 SLP197 TCU NW-N-NE T03060194=
201606231452 METAR KATL 231452Z 29012G18KT 10SM FEW040 29/19 A3016 RMK AO2 SLP200 MDT CU DSNT NW-N-NE T02940194 51007=
201606231352 METAR KATL 231352Z 27009KT 10SM FEW040 28/19 A3015 RMK AO2 SLP199 T02780189=
201606231252 METAR KATL 231252Z 28008KT 10SM FEW250 26/18 A3015 RMK AO2 SLP197 T02610178=
201606231152 METAR KATL 231152Z 27008KT 10SM FEW250 24/17 A3014 RMK AO2 SLP193 T02390167 10256 20222 50007=
201606231052 METAR KATL 231052Z 27007KT 10SM FEW250 22/16 A3014 RMK AO2 SLP195 T02220161=
201606230952 METAR KATL 230952Z 27007KT 10SM FEW250 23/16 A3013 RMK AO2 SLP191 T02280156=
201606230852 METAR KATL 230852Z 27006KT 10SM CLR 23/16 A3011 RMK AO2 SLP186 T02330156 53003=
201606230752 METAR KATL 230752Z 27007KT 10SM CLR 24/16 A3011 RMK AO2 SLP184 T02390156=
201606230652 METAR KATL 230652Z 25007KT 10SM CLR 24/16 A3010 RMK AO2 SLP180 T02440161=
201606230552 METAR KATL 230552Z 26007KT 10SM CLR 26/17 A3010 RMK AO2 SLP182 T02560167 10317 20256 50000=
201606230452 METAR KATL 230452Z 24010KT 10SM CLR 27/17 A3011 RMK AO2 SLP183 T02670167 403330228=
201606230352 METAR KATL 230352Z 24008KT 10SM CLR 27/17 A3011 RMK AO2 SLP183 T02720167=
201606230252 METAR KATL 230252Z 24003KT 10SM CLR 27/18 A3010 RMK AO2 SLP182 T02720178 53012=
201606230152 METAR KATL 230152Z 22003KT 10SM CLR 28/17 A3009 RMK AO2 SLP177 T02830172=
201606230052 METAR KATL 230052Z 23005KT 10SM FEW200 30/17 A3007 RMK AO2 SLP172 T03000172=
201606222352 METAR KATL 222352Z 22005KT 10SM CLR 32/17 A3007 RMK AO2 SLP170 T03170172 10333 20306 56006=
201606222252 METAR KATL 222252Z 23007KT 10SM FEW060 FEW080 32/17 A3007 RMK AO2 SLP171 T03220172=
201606222152 METAR KATL 222152Z 29007KT 10SM FEW055 SCT070 33/18 A3008 RMK AO2 SLP174 T03280178=
201606222052 METAR KATL 222052Z 24005KT 10SM FEW050 SCT070 32/18 A3009 RMK AO2 SLP177 T03170178 56016=
201606221952 METAR KATL 221952Z 22008KT 10SM SCT050 SCT250 33/18 A3010 RMK AO2 SLP181 T03280183=
201606221852 METAR KATL 221852Z 24008KT 10SM FEW047 SCT250 32/18 A3012 RMK AO2 SLP186 T03170183=
201606221752 METAR KATL 221752Z 28011KT 10SM FEW047 SCT060 31/18 A3014 RMK AO2 SLP193 T03060178 10306 20244 58010=
201606221652 METAR KATL 221652Z 29014G21KT 10SM FEW055 SCT085 SCT250 29/17 A3015 RMK AO2 SLP199 T02940167=
201606221552 METAR KATL 221552Z 24010G18KT 10SM FEW050 SCT060 SCT250 29/17 A3017 RMK AO2 SLP203 T02890167=
201606221452 METAR KATL 221452Z 24008KT 10SM FEW040 SCT060 SCT250 27/16 A3017 RMK AO2 SLP204 T02670161 53018=
201606221352 METAR KATL 221352Z 27011KT 10SM BKN040 BKN060 BKN250 26/16 A3015 RMK AO2 SLP198 T02560161=
201606221252 METAR KATL 221252Z 27010KT 10SM SCT049 BKN065 BKN250 25/16 A3013 RMK AO2 SLP190 T02500156=
201606221152 METAR KATL 221152Z 24005KT 10SM BKN060 BKN250 24/17 A3011 RMK AO2 SLP184 T02440167 10256 20228 53007=
201606221052 METAR KATL 221052Z 24006KT 10SM SCT055 SCT250 23/16 A3009 RMK AO2 SLP179 T02330161=
201606220952 METAR KATL 220952Z 23006KT 10SM SCT060 SCT250 23/16 A3009 RMK AO2 SLP178 T02280161=
201606220852 METAR KATL 220852Z 28006KT 10SM FEW060 23/16 A3009 RMK AO2 SLP177 T02280161 55002=
201606220752 METAR KATL 220752Z 26007KT 10SM FEW060 24/16 A3009 RMK AO2 SLP176 T02440161=
201606220652 METAR KATL 220652Z 25008KT 10SM SCT060 SCT250 25/16 A3009 RMK AO2 SLP176 T02500161=
201606220552 METAR KATL 220552Z 26006KT 10SM FEW090 BKN250 26/16 A3010 RMK AO2 SLP179 T02560161 10306 20256 50006=
201606220452 METAR KATL 220452Z 25007KT 10SM SCT090 BKN250 26/16 A3010 RMK AO2 SLP179 T02610161 403330206=
201606220352 METAR KATL 220352Z 28010KT 10SM SCT080 BKN200 BKN250 27/16 A3010 RMK AO2 SLP181 T02670161=
201606220252 METAR KATL 220252Z 23007KT 10SM FEW100 SCT200 BKN250 28/16 A3008 RMK AO2 SLP173 T02780161 50005=
201606220152 METAR KATL 220152Z 28006KT 10SM SCT080 BKN100 BKN250 28/16 A3009 RMK AO2 SLP177 T02830161=
201606220052 METAR KATL 220052Z 27007KT 10SM FEW090 SCT200 BKN250 29/16 A3007 RMK AO2 SLP172 T02890156=
201606212352 METAR KATL 212352Z 27007KT 10SM FEW075 SCT100 BKN250 31/15 A3006 RMK AO2 SLP169 T03060150 10333 20306 55002=
201606212252 METAR KATL 212252Z 26007KT 10SM SCT075 BKN250 32/15 A3005 RMK AO2 SLP164 T03170150=
201606212152 METAR KATL 212152Z 27009KT 10SM FEW075 SCT250 33/15 A3005 RMK AO2 SLP163 T03280150=
201606212052 METAR KATL 212052Z 28009KT 10SM FEW080 SCT250 33/14 A3007 RMK AO2 SLP171 T03330144 58028=
201606211952 METAR KATL 211952Z 29005KT 10SM SCT075 SCT250 33/14 A3010 RMK AO2 SLP181 T03280144=
201606211852 METAR KATL 211852Z 35007KT 320V020 10SM FEW070 SCT250 33/15 A3013 RMK AO2 SLP191 T03280150=
201606211752 METAR KATL 211752Z 26006KT 10SM SCT065 SCT250 31/15 A3015 RMK AO2 SLP200 T03110150 10322 20217 58011=
201606211652 METAR KATL 211652Z 28005KT 10SM SCT050 SCT250 31/16 A3017 RMK AO2 SLP205 MDT CU ALQDS T03110161=
201606211552 METAR KATL 211552Z 36008KT 10SM FEW050 FEW250 30/17 A3018 RMK AO2 SLP209 T03000167=
201606211452 METAR KATL 211452Z 31010KT 10SM FEW250 28/17 A3019 RMK AO2 SLP211 T02830172 50003=
201606211352 METAR KATL 211352Z 31007KT 10SM FEW250 26/17 A3019 RMK AO2 SLP213 T02610167=
201606211252 METAR KATL 211252Z 30009KT 10SM FEW200 SCT250 24/16 A3018 RMK AO2 SLP212 T02390156=
201606211152 METAR KATL 211152Z 29007KT 10SM FEW200 BKN250 22/15 A3018 RMK AO2 SLP209 T02170150 10222 20206 53006=
201606211052 METAR KATL 211052Z COR 26003KT 10SM SCT200 BKN250 21/14 A3017 RMK AO2 SLP205 T02110144=
201606210952 METAR KATL 210952Z 28005KT 10SM SCT200 BKN250 21/14 A3016 RMK AO2 SLP203 T02060139=
201606210852 METAR KATL 210852Z 28006KT 10SM BKN250 21/14 A3016 RMK AO2 SLP203 T02110139 56019=
201606210752 METAR KATL 210752Z 27005KT 10SM FEW200 SCT250 21/13 A3017 RMK AO2 SLP206 T02110133=
201606210652 METAR KATL 210652Z 28007KT 10SM FEW075 22/13 A3020 RMK AO2 SLP218 T02170133=
201606210552 METAR KATL 210552Z 26004KT 10SM FEW075 22/13 A3022 RMK AO2 SLP222 T02220133 10289 20222 53000=
201606210452 METAR KATL 210452Z 23005KT 10SM FEW075 23/13 A3022 RMK AO2 SLP223 T02280133 403060178=
201606210352 METAR KATL 210352Z 22004KT 10SM CLR 23/14 A3020 RMK AO2 SLP218 T02330139=
201606210252 METAR KATL 210252Z 23004KT 10SM FEW075 24/13 A3021 RMK AO2 SLP221 T02440133 53006=
201606210152 METAR KATL 210152Z 22005KT 10SM FEW075 25/13 A3020 RMK AO2 SLP218 T02500133=
201606210052 METAR KATL 210052Z 23005KT 10SM SCT075 27/13 A3020 RMK AO2 SLP217 T02720133=
201606202352 METAR KATL 202352Z 21005KT 10SM SCT075 29/12 A3020 RMK AO2 SLP215 T02890122 10306 20272 55008=
201606202252 METAR KATL 202252Z 22004KT 10SM SCT075 29/13 A3019 RMK AO2 SLP215 T02890133=
201606202152 METAR KATL 202152Z 00000KT 10SM SCT075 30/13 A3020 RMK AO2 SLP218 T03000128=
201606202052 METAR KATL 202052Z VRB04KT 10SM SCT075 29/12 A3022 RMK AO2 SLP225 T02890122 56024=
201606201952 METAR KATL 201952Z 00000KT 10SM SCT070 28/12 A3024 RMK AO2 SLP233 T02830122=
201606201852 METAR KATL 201852Z VRB03KT 10SM SCT070 29/14 A3027 RMK AO2 SLP242 T02940144=
201606201752 METAR KATL 201752Z VRB04KT 10SM BKN060 29/14 A3030 RMK AO2 SLP249 T02890139 10289 20206 58019=
201606201652 METAR KATL 201652Z VRB03KT 10SM SCT060 27/13 A3032 RMK AO2 SLP259 T02720133=
201606201552 METAR KATL 201552Z 17003KT 10SM FEW060 27/13 A3035 RMK AO2 SLP266 T02720128=
201606201452 METAR KATL 201452Z 00000KT 10SM FEW055 27/13 A3035 RMK AO2 SLP269 T02670128 51009=
201606201352 METAR KATL 201352Z 00000KT 10SM FEW150 25/14 A3035 RMK AO2 SLP269 T02500144=
201606201252 METAR KATL 201252Z 26005KT 10SM CLR 23/15 A3034 RMK AO2 SLP266 T02280150=
201606201152 METAR KATL 201152Z 00000KT 10SM CLR 21/14 A3033 RMK AO2 SLP261 T02060144 10222 20178 51004=
201606201052 METAR KATL 201052Z 00000KT 10SM CLR 19/13 A3032 RMK AO2 SLP259 T01940133=
201606200952 METAR KATL 200952Z 00000KT 10SM CLR 19/13 A3032 RMK AO2 SLP259 T01940133=
201606200852 METAR KATL 200852Z 00000KT 10SM CLR 19/13 A3031 RMK AO2 SLP256 T01940128 55004=
201606200752 METAR KATL 200752Z 14003KT 10SM CLR 20/13 A3031 RMK AO2 SLP256 T02000133=
201606200652 METAR KATL 200652Z 16003KT 10SM FEW060 21/13 A3032 RMK AO2 SLP258 T02110133=
201606200552 METAR KATL 200552Z 16004KT 10SM SCT060 22/13 A3033 RMK AO2 SLP261 T02170128 10267 20217 58002=
201606200452 METAR KATL 200452Z 15004KT 10SM SCT060 SCT250 23/13 A3034 RMK AO2 SLP264 T02280128 402890200=
201606200352 METAR KATL 200352Z 12005KT 10SM BKN060 BKN250 24/12 A3034 RMK AO2 SLP264 T02390122=
201606200252 METAR KATL 200252Z 08005KT 10SM SCT060 SCT250 24/12 A3033 RMK AO2 SLP262 T02390117 53016=
201606200152 METAR KATL 200152Z 10005KT 10SM FEW060 FEW200 SCT250 24/12 A3031 RMK AO2 SLP256 T02390117=
201606200052 METAR KATL 200052Z 13006KT 10SM FEW065 SCT200 SCT250 26/11 A3029 RMK AO2 SLP249 T02610111=
201606192352 METAR KATL 192352Z 07006KT 10SM SCT200 SCT250 27/12 A3028 RMK AO2 SLP245 T02670122 10289 20261 55003=
201606192252 METAR KATL 192252Z 09008KT 10SM FEW200 SCT250 27/13 A3028 RMK AO2 SLP244 T02720128=
201606192152 METAR KATL 192152Z 06013G18KT 10SM FEW070 SCT200 BKN250 28/11 A3029 RMK AO2 SLP247 T02830106=
201606192052 METAR KATL 192052Z 10011KT 10SM BKN200 28/11 A3029 RMK AO2 SLP247 T02830106 56014=
201606191952 METAR KATL 191952Z 11015G19KT 10SM FEW060 BKN200 28/11 A3030 RMK AO2 SLP252 T02780111=
201606191852 METAR KATL 191852Z 07011G17KT 10SM FEW060 BKN250 28/12 A3032 RMK AO2 SLP256 T02780117=
201606191752 METAR KATL 191752Z 08008G18KT 10SM FEW055 BKN250 27/12 A3033 RMK AO2 SLP263 T02670122 10272 20206 58009=
201606191652 METAR KATL 191652Z 10007KT 10SM BKN050 BKN250 26/13 A3035 RMK AO2 SLP270 T02610133=
201606191552 METAR KATL 191552Z 12011G16KT 10SM BKN048 BKN250 25/13 A3037 RMK AO2 SLP275 T02500128=
201606191452 METAR KATL 191452Z 12009KT 10SM SCT034 BKN250 25/16 A3036 RMK AO2 SLP272 T02500161 50010=
201606191352 METAR KATL 191352Z 11009KT 10SM FEW034 SCT250 23/16 A3037 RMK AO2 SLP274 T02280161=
201606191252 METAR KATL 191252Z 08010KT 10SM BKN030 BKN250 22/16 A3035 RMK AO2 SLP270 T02170156=
201606191152 METAR KATL 191152Z 08009KT 10SM FEW024 FEW070 SCT250 21/15 A3033 RMK AO2 SLP262 T02060150 10228 20200 53015=
201606191052 METAR KATL 191052Z 07008KT 10SM FEW024 FEW070 BKN250 21/14 A3031 RMK AO2 SLP257 T02060144=
201606190952 METAR KATL 190952Z 09009KT 10SM FEW022 SCT070 SCT250 21/14 A3029 RMK AO2 SLP250 T02060144=
201606190852 METAR KATL 190852Z COR 07012KT 10SM FEW018 BKN070 22/15 A3028 RMK AO2 SLP246 T02220150 53011=
201606190752 METAR KATL 190752Z 07011KT 10SM BKN060 22/16 A3027 RMK AO2 SLP242 T02220161=
201606190652 METAR KATL 190652Z 08009KT 10SM BKN060 22/17 A3025 RMK AO2 SLP235 T02170172=
201606190552 METAR KATL 190552Z 10006KT 10SM SCT055 SCT075 22/17 A3025 RMK AO2 SLP235 T02170172 10261 20217 51004=
201606190452 METAR KATL 190452Z 08007KT 10SM SCT050 BKN075 23/17 A3025 RMK AO2 SLP234 T02280172 402720222=
201606190352 METAR KATL 190352Z 09007KT 10SM FEW075 23/17 A3024 RMK AO2 SLP232 T02330172=
201606190252 METAR KATL 190252Z 10007KT 10SM FEW070 24/17 A3024 RMK AO2 SLP230 T02390172 51018=
201606190152 METAR KATL 190152Z 09010KT 10SM BKN070 24/17 A3022 RMK AO2 SLP225 T02440167=
201606190052 METAR KATL 190052Z 08010KT 10SM FEW043 BKN070 25/17 A3021 RMK AO2 SLP220 T02500172=
201606182352 METAR KATL 182352Z 10009KT 10SM FEW040 BKN070 26/17 A3018 RMK AO2 SLP211 T02610172 10272 20244 53008=
201606182252 METAR KATL 182252Z COR 09013KT 10SM FEW038 OVC060 26/17 A3017 RMK AO2 SLP207 BINOVC T02610172=
201606182152 METAR KATL 182152Z 09010KT 10SM FEW038 BKN060 26/18 A3016 RMK AO2 SLP204 T02610178=
201606182052 METAR KATL 182052Z 09012G18KT 10SM SCT034 BKN050 27/17 A3016 RMK AO2 SLP202 T02670172 55003=
201606181952 METAR KATL 181952Z 08010KT 10SM SCT034 BKN045 26/17 A3015 RMK AO2 SLP201 T02610172=
201606181852 METAR KATL 181852Z 11010KT 10SM SCT029 BKN040 25/17 A3017 RMK AO2 SLP206 T02500172=
201606181752 METAR KATL 181752Z 09011G24KT 10SM OVC032 24/17 A3016 RMK AO2 SLP205 T02440167 10250 20222 50011=
201606181728 SPECI KATL 181728Z 10012KT 10SM BKN026 BKN032 24/17 A3016 RMK AO2 T02390167=
201606181652 METAR KATL 181652Z 09014G22KT 10SM FEW025 BKN032 25/17 A3016 RMK AO2 PK WND 07027/1612 SLP206 T02500172=
201606181634 SPECI KATL 181634Z 09014KT 10SM SCT024 BKN032 24/17 A3016 RMK AO2 PK WND 07027/1612 T02390172=
201606181606 SPECI KATL 181606Z 07020KT 10SM BKN028 BKN034 24/17 A3016 RMK AO2 T02440172=
201606181552 METAR KATL 181552Z 07022KT 10SM SCT024 BKN080 24/17 A3015 RMK AO2 PK WND 07028/1534 SLP201 T02440167=
201606181452 METAR KATL 181452Z 10018G24KT 10SM BKN025 BKN050 23/17 A3013 RMK AO2 SLP194 T02330167 51024=
201606181424 SPECI KATL 181424Z 10011KT 10SM BKN024 BKN048 23/17 A3012 RMK AO2 T02330172=
201606181352 METAR KATL 181352Z 09016G24KT 10SM BKN034 OVC045 23/17 A3012 RMK AO2 PK WND 08027/1307 SLP192 T02280167=
201606181252 METAR KATL 181252Z 08017KT 10SM FEW020 BKN032 OVC039 22/17 A3010 RMK AO2 SLP184 T02220167=
201606181210 SPECI KATL 181210Z 08016KT 10SM FEW020 OVC032 22/17 A3007 RMK AO2 T02220167=
201606181152 METAR KATL 181152Z 09016KT 10SM FEW020 BKN028 22/17 A3006 RMK AO2 SLP170 70006 T02220167 10233 20222 53033=
201606181052 METAR KATL 181052Z 09019G24KT 10SM FEW018 BKN023 23/18 A3002 RMK AO2 SLP156 T02280178=
201606180952 METAR KATL 180952Z 08015G23KT 10SM BKN027 BKN200 23/18 A2999 RMK AO2 SLP145 T02280183=
201606180852 METAR KATL 180852Z 08015KT 10SM FEW015 FEW030 BKN200 23/18 A2996 RMK AO2 SLP136 T02280183 51008=
201606180752 METAR KATL 180752Z 08014KT 10SM FEW015 BKN036 BKN200 OVC250 23/19 A2996 RMK AO2 SLP135 T02280189=
201606180652 METAR KATL 180652Z 08013KT 10SM FEW055 FEW075 BKN200 BKN250 23/19 A2995 RMK AO2 SLP131 T02280194=
201606180552 METAR KATL 180552Z 04007KT 10SM FEW055 FEW075 SCT250 23/19 A2993 RMK AO2 SLP124 T02330194 10233 20228 51007=
201606180452 METAR KATL 180452Z 06006KT 10SM FEW080 BKN250 23/20 A2993 RMK AO2 SLP123 T02330200 403500222=
201606180352 METAR KATL 180352Z 33005KT 10SM SCT060 BKN080 BKN250 23/19 A2994 RMK AO2 SLP125 T02280194=
201606180252 METAR KATL 180252Z 31007KT 10SM FEW070 SCT200 BKN250 23/19 A2991 RMK AO2 SLP117 T02280194 53024=
201606180152 METAR KATL 180152Z 27006KT 10SM FEW070 SCT200 BKN250 23/19 A2988 RMK AO2 SLP107 OCNL LTG DSNT SE T02280194=
201606180052 METAR KATL 180052Z 32009KT 10SM FEW030 SCT070 BKN200 BKN250 23/19 A2986 RMK AO2 SLP103 TCU DSNT SE T02330189=
201606172352 METAR KATL 172352Z 32011KT 10SM FEW030 BKN200 BKN250 23/19 A2984 RMK AO2 SLP094 60006 T02330189 10317 20222 53005=
201606172252 METAR KATL 172252Z 28013KT 10SM FEW150 BKN200 BKN250 24/18 A2983 RMK AO2 SLP092 T02390183=
201606172152 METAR KATL 172152Z 29012KT 10SM FEW040 SCT150CB BKN200 23/18 A2983 RMK AO2 SLP090 CBMAM SE-SW-W CB DSNT SW T02330183=
201606172052 METAR KATL 172052Z 24007KT 10SM FEW046 BKN150CB BKN200 23/18 A2982 RMK AO2 SLP089 CBMAM OHD-SW-NW CB DSNT SE-SW-NW 60006 T02280183 58012=
201606171952 METAR KATL 171952Z 00000KT 10SM FEW020 FEW046 BKN100 BKN250 23/19 A2983 RMK AO2 PK WND 30027/1853 RAE21B22E38 TSE20 SLP091 CB DSNT SE-S AND SW MOV SE P0001 T02280189=
201606171921 SPECI KATL 171921Z 24008KT 10SM FEW046 BKN100 BKN250 23/18 A2984 RMK AO2 PK WND 30027/1853 RAE21 TSE20 PRESFR CB DSNT SE-SW MOV SE P0001 T02280183=
201606171852 METAR KATL 171852Z 31012KT 7SM -TSRA FEW046CB BKN085 BKN100 BKN250 24/20 A2990 RMK AO2 PK WND 35036/1826 WSHFT 1808 RAB19 TSB19 SLP116 OCNL LTGIC OHD-SE-SW-NW TS OHD-SE-SW-NW MOV SE P0005 T02440200 $=
201606171837 SPECI KATL 171837Z COR 35015G27KT 1 1/2SM R09R/4500VP6000FT TSRA FEW015 BKN040CB BKN100 BKN200 24/20 A2988 RMK AO2 PK WND 35036/1826 WSHFT 1808 SFC VIS 3 RAB19 TSB19 VIS LWR SE-SW OCNL LTGICCG OHD-SE-SW TS OHD-SE-SW MOV S=
201606171831 SPECI KATL 171831Z 35020G36KT 2SM TSRA SQ FEW018 BKN050CB BKN100 OVC250 24/20 A2989 RMK AO2 PK WND 35036/1826 WSHFT 1808 RAB19 TSB19 OCNL LTGICCG NW-N TS NW-N MOV SE P0001 T02440200=
201606171824 SPECI KATL 171824Z 33012G29KT 9SM -TSRA FEW018 BKN050CB BKN100 BKN250 26/19 A2990 RMK AO2 PK WND 35031/1814 WSHFT 1808 RAB19 TSB19 PRESRR LTGICCG NW-N TS NW-N MOV SE P0000 T02610194=
201606171820 SPECI KATL 171820Z 32021G31KT 10SM -TSRA FEW018 BKN050 BKN100 BKN250 28/18 A2989 RMK AO2 PK WND 35031/1814 RAB19 TSB19 LTGICCG TS NW-N MOV SE P0000 T02780183=
201606171752 METAR KATL 171752Z 27009G18KT 10SM SCT045CB BKN110 BKN250 32/21 A2986 RMK AO2 SLP098 CB W-N-NE MOV SE TCU NE T03170206 10350 20244 58011=
201606171652 METAR KATL 171652Z 28014G19KT 10SM FEW045TCU FEW250 34/22 A2987 RMK AO2 SLP100 CB DSNT NW-N TCU NW-N MDT CU DSNT NE-SE-S T03390222=
201606171552 METAR KATL 171552Z 30015G20KT 10SM FEW040 33/23 A2989 RMK AO2 SLP108 TCU DSNT S T03330228=
201606171452 METAR KATL 171452Z 32013G21KT 9SM FEW035 FEW250 32/23 A2989 RMK AO2 SLP108 T03170233 50004=
201606171352 METAR KATL 171352Z 29010KT 9SM FEW030 FEW250 29/23 A2989 RMK AO2 SLP110 T02940233=
201606171252 METAR KATL 171252Z 29009KT 10SM FEW250 27/22 A2988 RMK AO2 SLP107 T02720222=
201606171152 METAR KATL 171152Z 29008KT 10SM FEW180 FEW250 24/21 A2988 RMK AO2 SLP105 T02440211 10250 20228 53005=
201606171052 METAR KATL 171052Z 29008KT 10SM FEW100 FEW250 23/20 A2987 RMK AO2 SLP102 T02330200=
201606170952 METAR KATL 170952Z 27007KT 10SM FEW100 SCT180 SCT250 23/20 A2986 RMK AO2 SLP100 T02330200=
201606170852 METAR KATL 170852Z 27007KT 10SM FEW100 SCT250 23/19 A2986 RMK AO2 SLP099 T02330194 55002=
201606170752 METAR KATL 170752Z 28007KT 10SM FEW200 SCT250 23/19 A2985 RMK AO2 SLP095 T02330194=
201606170652 METAR KATL 170652Z 28007KT 10SM FEW200 SCT250 24/20 A2986 RMK AO2 SLP099 T02390200=
201606170552 METAR KATL 170552Z 30008KT 10SM SCT200 BKN250 24/21 A2987 RMK AO2 SLP101 T02440206 10306 20244 56004=
201606170452 METAR KATL 170452Z 30009KT 10SM SCT200 BKN250 26/21 A2987 RMK AO2 SLP102 T02560206 403440217=
201606170352 METAR KATL 170352Z 28008KT 10SM FEW200 SCT250 26/21 A2987 RMK AO2 SLP104 T02560206=
201606170252 METAR KATL 170252Z 28010KT 10SM SCT250 27/21 A2988 RMK AO2 SLP106 T02670206 50001=
201606170152 METAR KATL 170152Z 28007KT 10SM BKN250 27/21 A2989 RMK AO2 SLP111 T02720206=
201606170052 METAR KATL 170052Z 27010KT 10SM FEW200 BKN250 29/21 A2989 RMK AO2 SLP111 T02890206=
201606162352 METAR KATL 162352Z 28008KT 10SM BKN200 BKN250 31/20 A2988 RMK AO2 SLP105 CB DSNT SW T03060200 10344 20306 55001=
201606162252 METAR KATL 162252Z 32008KT 10SM FEW055 SCT200 BKN250 32/18 A2987 RMK AO2 SLP104 CB DSNT SW TCU DSNT S T03220183=
201606162152 METAR KATL 162152Z 33008G15KT 10SM FEW055 SCT250 33/19 A2987 RMK AO2 SLP103 CB DSNT SW TCU DSNT S-SW & NW T03280194=
201606162052 METAR KATL 162052Z COR 34013G20KT 10SM FEW055 FEW250 34/20 A2988 RMK AO2 SLP105 CB DSNT W-NW TCU DSNT NE & DSNT SE-S & DSNT NW-N T03440200 56017=
201606161952 METAR KATL 161952Z 33013G23KT 10SM SCT050TCU SCT250 33/20 A2989 RMK AO2 SLP109 CB DSNT NW TCU ALQDS T03280200=
201606161852 METAR KATL 161852Z 29011G17KT 10SM SCT048TCU 33/21 A2991 RMK AO2 SLP115 TCU E & S & W T03280211=
201606161752 METAR KATL 161752Z 31010G17KT 10SM FEW045 33/21 A2993 RMK AO2 SLP123 T03280211 10328 20233 58008=
201606161652 METAR KATL 161652Z 31010KT 10SM FEW045 FEW250 32/20 A2994 RMK AO2 SLP126 T03220200=
201606161552 METAR KATL 161552Z 31011KT 10SM FEW220 30/20 A2995 RMK AO2 SLP130 T03000200=
201606161452 METAR KATL 161452Z 30012KT 10SM FEW220 28/19 A2996 RMK AO2 SLP131 T02830189 50000=
201606161352 METAR KATL 161352Z 30011KT 10SM FEW150 FEW220 27/19 A2996 RMK AO2 SLP135 T02720189=
201606161252 METAR KATL 161252Z 29008KT 10SM FEW080 SCT180 SCT250 25/19 A2997 RMK AO2 SLP136 ACC DSNT SW T02500189=
201606161152 METAR KATL 161152Z 31011KT 10SM FEW050 SCT080 SCT250 23/18 A2996 RMK AO2 SLP132 T02330183 10233 20217 51009=
201606161052 METAR KATL 161052Z 30007KT 10SM FEW050 SCT080 SCT200 BKN250 22/18 A2995 RMK AO2 SLP132 CB DSNT SE TCU DSNT SW-W & NW T02170183=
201606160952 METAR KATL 160952Z 32011KT 10SM FEW050 BKN080 BKN180 BKN250 22/18 A2994 RMK AO2 SLP129 TCU DSNT SW & W ACC NW-NE T02220183=
201606160852 METAR KATL 160852Z 30007KT 10SM FEW080 BKN180 BKN250 22/18 A2993 RMK AO2 SLP123 T02220183 53004=
201606160752 METAR KATL 160752Z 28008KT 10SM FEW140 BKN200 BKN250 22/18 A2991 RMK AO2 SLP117 T02220183=
201606160652 METAR KATL 160652Z 26005KT 10SM SCT140 BKN200 BKN250 23/19 A2990 RMK AO2 SLP112 T02280189=
201606160552 METAR KATL 160552Z 27010KT 10SM BKN140 BKN200 BKN250 23/18 A2991 RMK AO2 SLP119 T02330183 10294 20228 56021=
201606160452 METAR KATL 160452Z 26004KT 10SM SCT120 SCT200 BKN250 23/19 A2992 RMK AO2 SLP120 T02330189 403170222=
201606160352 METAR KATL 160352Z 27008KT 10SM FEW070 BKN110 BKN200 24/18 A2995 RMK AO2 SLP131 T02440183=
201606160252 METAR KATL 160252Z 34016G30KT 10SM FEW025 FEW060 SCT200 27/19 A2998 RMK AO2 PK WND 33030/0248 SLP140 T02670194 53018=
201606160152 METAR KATL 160152Z 27009KT 10SM FEW200 27/22 A2994 RMK AO2 SLP127 CB DSNT NW-N T02720222=
201606160052 METAR KATL 160052Z 25007KT 10SM FEW035 FEW250 29/22 A2993 RMK AO2 SLP122 CB DSNT SE & NW T02890217=
201606152352 METAR KATL 152352Z 25009KT 10SM FEW035TCU FEW070 SCT250 29/21 A2992 RMK AO2 SLP122 TCU VC SE-S T02940211 10317 20294 55002=
201606152252 SPECI KATL 152252Z 27011KT 10SM FEW035TCU SCT070 BKN200 31/21 A2992 RMK AO2 SLP122 TCU VC NE & E-S & NW T03060211=
201606152252 METAR KATL 152252Z 27011KT 10SM FEW035TCU SCT070 BKN200 31/21 A2992 RMK AO2 SLP122 TCU VC NE & E-S & NW T03060211=
201606152152 METAR KATL 152152Z 23007KT 10SM FEW040 SCT060 BKN200 31/21 A2992 RMK AO2 SLP120 TCU DSNT SE T03060206=
201606152052 METAR KATL 152052Z 25007KT 10SM FEW037 SCT100 SCT200 31/21 A2993 RMK AO2 SLP124 CB DSNT E-SE-S T03110211 58023=
201606151952 METAR KATL 151952Z 28010KT 10SM SCT035 BKN060 BKN120 BKN200 29/21 A2996 RMK AO2 SLP133 CB DSNT NE TCU DSNT SE-SW T02940211=
201606151852 METAR KATL 151852Z 32007KT 10SM FEW035 BKN090 BKN120 BKN200 30/21 A2998 RMK AO2 SLP140 CB DSNT NE & NW TCU DSNT E-SE-S SHRA VC N & DSNT NE & NW T03000211=
201606151752 METAR KATL 151752Z 27010KT 10SM FEW030TCU BKN070 BKN100 29/21 A3000 RMK AO2 SLP147 CB DSNT NW-N TCU NE-SE SHRA DSNT NW-N T02940211 10300 20233 58009=
201606151652 METAR KATL 151652Z 23011KT 10SM SCT030TCU SCT100 29/22 A3001 RMK AO2 SLP152 TCU NE-SE & DSNT NW SHRA VC E & DSNT NW T02890217=
201606151552 METAR KATL 151552Z 22007KT 10SM FEW022 28/22 A3002 RMK AO2 SLP156 TCU DSNT NW-N MDT CU DSNT E T02830217=
201606151518 SPECI KATL 151518Z 23006KT 10SM SCT020 28/22 A3003 RMK AO2 TCU DSNT SE T02780217=
201606151452 METAR KATL 151452Z 28006KT 10SM BKN019TCU 27/22 A3003 RMK AO2 SLP157 TCU OHD-NE-SE-SW T02670217 50004=
201606151432 SPECI KATL 151432Z 26006KT 10SM BKN017 27/22 A3003 RMK AO2 T02720222=
201606151352 METAR KATL 151352Z 26007KT 10SM FEW015 26/22 A3003 RMK AO2 SLP159 T02610217=
201606151321 SPECI KATL 151321Z 22006KT 10SM FEW007 SCT100 SCT250 24/21 A3003 RMK AO2 T02440211=
201606151252 METAR KATL 151252Z 24006KT 9SM BKN007 BKN100 BKN250 24/22 A3003 RMK AO2 SLP158 T02390217=
201606151241 SPECI KATL 151241Z 23004KT 10SM BKN007 BKN100 BKN250 24/21 A3002 RMK AO2 T02390211=
201606151152 METAR KATL 151152Z 26005KT 10SM SCT005 SCT100 SCT250 23/21 A3001 RMK AO2 SLP154 70115 T02330206 10233 20222 53012=
201606151143 SPECI KATL 151143Z 27004KT 10SM SCT005 SCT100 SCT250 23/21 A3001 RMK AO2 T02280206=
201606151116 SPECI KATL 151116Z 24006KT 6SM BR BKN006 BKN100 BKN250 23/21 A3000 RMK AO2 T02280206=
201606151052 METAR KATL 151052Z 25004KT 7SM FEW008 FEW100 FEW250 22/21 A3000 RMK AO2 SLP150 T02220206=
201606150952 METAR KATL 150952Z 23004KT 10SM FEW008 FEW140 SCT200 SCT250 22/21 A2999 RMK AO2 SLP145 T02220206=
201606150852 METAR KATL 150852Z 23004KT 10SM FEW140 FEW200 SCT250 22/21 A2998 RMK AO2 SLP142 T02220206 56001 $=
201606150752 METAR KATL 150752Z 25004KT 10SM FEW150 FEW200 SCT250 23/21 A2998 RMK AO2 SLP143 T02280206 $=
201606150652 METAR KATL 150652Z 24003KT 10SM FEW075 SCT150 SCT200 SCT250 23/21 A2998 RMK AO2 SLP141 T02280206 $=
201606150552 METAR KATL 150552Z 20004KT 10SM FEW044 SCT085 SCT150 BKN250 23/21 A2998 RMK AO2 SLP140 60000 T02280211 10244 20228 $=
201606150452 METAR KATL 150452Z 19003KT 10SM FEW080 SCT150 BKN250 23/21 A2998 RMK AO2 SLP141 T02330211 403560222 $=
201606150352 METAR KATL 150352Z 19003KT 10SM FEW080 BKN150 BKN200 BKN250 24/22 A2998 RMK AO2 RAB39E48 SLP138 P0000 T02390217=
201606150252 METAR KATL 150252Z 18004KT 10SM FEW040 SCT080 BKN120 BKN200 24/22 A2997 RMK AO2 SLP137 T02440217 53011=
201606150152 METAR KATL 150152Z 24004KT 10SM FEW040 SCT120 BKN200 BKN250 24/22 A2995 RMK AO2 SLP131 T02440217=
201606150052 METAR KATL 150052Z 21006KT 10SM FEW040 SCT110 BKN150 BKN250 24/22 A2994 RMK AO2 SLP128 SHRA SW-NW T02440222=
201606142352 METAR KATL 142352Z 26005KT 10SM FEW050 SCT110 BKN150 BKN250 24/22 A2994 RMK AO2 RAE2254 SLP127 CB DSNT SW & W-NW P0000 60115 T02440217 10356 20222 53006=
201606142252 METAR KATL 142252Z 00000KT 10SM -RA FEW050 SCT110 BKN150 BKN250 24/22 A2992 RMK AO2 SLP122 CB DSNT SW P0001 T02440222=
201606142152 METAR KATL 142152Z 20003KT 10SM -RA FEW030 BKN120 BKN150 OVC200 24/21 A2992 RMK AO2 RAB15 SLP122 CB DSNT SW P0000 T02390211=
201606142052 METAR KATL 142052Z 09004KT 10SM FEW030 SCT110 BKN160 OVC250 25/19 A2992 RMK AO2 RAE36 TSE04 SLP121 CB DSNT SW SHRA DSNT SW P0000 60114 T02500189 58001=
201606142004 SPECI KATL 142004Z 06013KT 10SM -RA FEW015CB SCT070 BKN110 OVC200 23/21 A2994 RMK AO2 TSE04 VIS LWR N-NE & SW SHRA TS MOV NE CB N-NE & SW MOV NE P0000 T02330206=
201606141952 METAR KATL 141952Z 07013KT 8SM -TSRA FEW015CB SCT070 BKN110 OVC200 23/21 A2995 RMK AO2 PK WND 08029/1907 SLP133 VIS LWR N-NE & VC SW-NW SHRA FRQ LTGICCG N-NE TS N-NE MOV N P0114 T02280206=
201606141948 SPECI KATL 141948Z 08015KT 7SM -TSRA SCT030CB BKN085 OVC100 23/20 A2995 RMK AO2 PK WND 08029/1907 VIS LWR N-NE SHRA FRQ LTGICCG N-NE TS N-NE MOV N P0114 $=
201606141936 SPECI KATL 141936Z 06009KT 2SM R09R/2600VP6000FT TSRA BKN015CB BKN027 OVC050 23/19 A2997 RMK AO2 PK WND 08029/1907 SFC VIS 3 VIS LWR N-NE SHRA CONS LTGICCG OHD-N-NE TS OHD-N-NE MOV N P0110 T02280194 $=
201606141921 SPECI KATL 141921Z 24007KT 2SM R09R/3000V5500FT TSRA BR BKN017CB BKN027 OVC050 22/20 A2999 RMK AO2 PK WND 08029/1907 SFC VIS 3 CONS LTGICCG OHD-SW-NW-NE TS OHD-SW-NW-NE MOV N P0069 T02220200 $=
201606141909 SPECI KATL 141909Z 06015G29KT 1SM R09R/3000VP6000FT +TSRA BKN024CB BKN050 OVC070 23/20 A2999 RMK AO2 PK WND 08029/1907 CONS LTGICCG OHD & ALQDS TS OHD & ALQDS MOV N P0013 T02330200 $=
201606141900 SPECI KATL 141900Z 1/2SM R09R/5500VP6000FT +TSRA BKN028CB BKN050 OVC070 27/20 A2997 RMK AO2 PRESRR CONS LTGICCG OHD & ALQDS TS OHD & ALQDS MOV N P0000 T02670200 $=
201606141852 METAR KATL 141852Z VRB03G23KT 10SM -TSRA BKN030CB BKN070 OVC100 28/21 A2995 RMK AO2 RAB52 TSB34 PRESRR SLP128 VIS LWR SE-S SHRA FRQ LTGICCG OHD-SE-S TS OHD-SE-S MOV N P0000 T02830206=
201606141848 SPECI KATL 141848Z 30011G23KT 170V360 10SM TS BKN045CB BKN070 OVC100 30/21 A2994 RMK AO2 TSB34 PRESRR VIS LWR SE-S SHRA FRQ LTGICCG SE-S & DSNT N TS SE-S & DSNT N MOV NE=
201606141834 SPECI KATL 141834Z 28011G17KT 10SM TS BKN050CB BKN250 33/21 A2991 RMK AO2 TSB34 FRQ LTGICCG SE-S-SW & DSNT N TS VC SE-S-SW & DSNT N MOV NE SHRA VC SE-S-SW & DSNT N T03330211=
201606141752 METAR KATL 141752Z 25009KT 10SM SCT050TCU SCT250 34/20 A2992 RMK AO2 SLP118 CB DSNT N & E & S & NW TCU E-SE-S-SW T03440200 10344 20261 58015=
201606141652 METAR KATL 141652Z 21007KT 10SM SCT046TCU SCT250 34/21 A2995 RMK AO2 SLP129 CB DSNT NE TCU NE-SE & DSNT SW-NW T03390206=
201606141552 METAR KATL 141552Z VRB03KT 9SM FEW040TCU FEW060 SCT120 32/23 A2997 RMK AO2 SLP135 TCU NE T03220228=
201606141452 METAR KATL 141452Z 22003KT 10SM FEW060 BKN070 BKN120 31/22 A2997 RMK AO2 SLP134 ACC ALQDS T03060217 50005=
201606141352 METAR KATL 141352Z COR 00000KT 10SM FEW060 SCT070 SCT120 29/21 A2997 RMK AO2 SLP134 ACC N-NE-E & SW-NW T02940211=
201606141252 METAR KATL 141252Z 31006KT 10SM BKN065 BKN120 27/21 A2996 RMK AO2 SLP133 T02720211=
201606141152 METAR KATL 141152Z 32005KT 10SM FEW140 SCT200 SCT250 26/21 A2995 RMK AO2 SLP128 T02610206 10272 20244 53012=
201606141052 METAR KATL 141052Z COR 31007KT 9SM FEW070 SCT140 SCT250 25/20 A2993 RMK AO2 SLP123 T02500200=
201606140952 METAR KATL 140952Z 29008KT 9SM FEW150 FEW250 24/19 A2992 RMK AO2 SLP120 ACC W T02440194=
201606140852 METAR KATL 140852Z 28008KT 10SM SCT250 25/19 A2991 RMK AO2 SLP116 T02500194 55003=
201606140752 METAR KATL 140752Z 27006KT 10SM FEW070 SCT250 26/19 A2991 RMK AO2 SLP112 T02610194=
201606140652 METAR KATL 140652Z 27004KT 10SM FEW070 SCT250 27/19 A2991 RMK AO2 SLP114 T02720189=
201606140552 METAR KATL 140552Z 28006KT 10SM SCT070 SCT250 27/19 A2992 RMK AO2 SLP118 T02720189 10333 20272 55003=
201606140452 METAR KATL 140452Z 29008KT 10SM SCT250 28/18 A2992 RMK AO2 SLP117 T02830183 403610239=
201606140352 METAR KATL 140352Z 29006KT 10SM FEW250 28/18 A2993 RMK AO2 SLP121 T02830178=
201606140252 METAR KATL 140252Z 26004KT 10SM FEW250 30/18 A2993 RMK AO2 SLP123 T03000178 53013=
201606140152 METAR KATL 140152Z 26005KT 10SM FEW250 31/18 A2991 RMK AO2 SLP116 T03060178=
201606140052 METAR KATL 140052Z 26005KT 10SM FEW075 FEW250 32/18 A2991 RMK AO2 SLP113 T03170178=
201606132352 METAR KATL 132352Z 29008KT 10SM FEW250 33/17 A2989 RMK AO2 SLP109 T03330172 10361 20333 55007=
201606132252 METAR KATL 132252Z VRB06KT 10SM FEW075 FEW250 35/17 A2989 RMK AO2 SLP109 T03500172=
201606132152 METAR KATL 132152Z 31008KT 10SM FEW075 FEW250 36/17 A2990 RMK AO2 SLP110 T03560172=
201606132052 METAR KATL 132052Z 33010KT 10SM FEW075 FEW250 34/17 A2991 RMK AO2 SLP117 CB DSNT S T03440167 56022=
201606131952 METAR KATL 131952Z 27009KT 10SM SCT070 36/18 A2994 RMK AO2 SLP124 T03560183=
201606131852 METAR KATL 131852Z 34009G14KT 10SM FEW075 FEW250 35/17 A2996 RMK AO2 SLP131 T03500167=
201606131752 METAR KATL 131752Z 35006G17KT 10SM FEW070 SCT250 BKN300 34/18 A2998 RMK AO2 SLP139 T03440178 10344 20256 58013=
201606131652 METAR KATL 131652Z 33010KT 10SM FEW065 SCT250 BKN300 34/18 A3000 RMK AO2 SLP144 T03440178=
201606131552 METAR KATL 131552Z 35008KT 10SM FEW055 SCT250 BKN300 33/19 A3001 RMK AO2 SLP150 T03280194=
201606131452 METAR KATL 131452Z 29007KT 10SM FEW045 SCT250 BKN300 31/21 A3002 RMK AO2 SLP153 T03060206 50001=
201606131352 METAR KATL 131352Z 33010KT 10SM SCT250 29/21 A3003 RMK AO2 SLP157 T02940211=
201606131252 METAR KATL 131252Z 31009KT 10SM BKN250 27/21 A3003 RMK AO2 SLP156 T02720206=
201606131152 METAR KATL 131152Z 31007KT 10SM BKN250 26/21 A3002 RMK AO2 SLP153 T02560206 10261 20239 53009=
201606131052 METAR KATL 131052Z 31006KT 10SM BKN250 24/20 A3001 RMK AO2 SLP149 T02440200=
201606130952 METAR KATL 130952Z 32007KT 10SM FEW250 24/20 A2999 RMK AO2 SLP144 T02390200=
201606130852 METAR KATL 130852Z 31007KT 10SM FEW250 24/21 A2999 RMK AO2 SLP144 T02440206 58004=
201606130752 METAR KATL 130752Z 31008KT 10SM FEW250 25/21 A3000 RMK AO2 SLP146 T02500206=
201606130652 METAR KATL 130652Z 31008KT 10SM FEW250 25/21 A3000 RMK AO2 SLP146 T02500206=
201606130552 METAR KATL 130552Z 31007KT 10SM FEW250 26/21 A3000 RMK AO2 SLP147 T02560206 10311 20256 58010=
201606130452 METAR KATL 130452Z 30008KT 10SM FEW250 27/21 A3003 RMK AO2 SLP156 T02720206 403560233=
201606130352 METAR KATL 130352Z 29006KT 10SM FEW200 SCT250 27/21 A3004 RMK AO2 SLP158 T02720206=
201606130252 METAR KATL 130252Z 00000KT 10SM FEW250 28/21 A3004 RMK AO2 SLP159 T02780206 53009=
201606130152 METAR KATL 130152Z 27004KT 10SM FEW200 SCT250 28/20 A3002 RMK AO2 SLP153 T02830200=
201606130052 METAR KATL 130052Z 30006KT 10SM SCT200 SCT250 29/19 A3002 RMK AO2 SLP152 T02890194=
201606122352 METAR KATL 122352Z 32010KT 10SM FEW050 SCT200 SCT250 31/19 A3001 RMK AO2 SLP150 TCU DSNT SE T03110194 10356 20306 55006=
201606122252 METAR KATL 122252Z 32011KT 10SM FEW050 SCT200 SCT250 32/19 A3001 RMK AO2 SLP149 CB DSNT SE T03170189=
201606122152 METAR KATL 122152Z 33010KT 10SM FEW050 SCT200 SCT250 31/18 A3002 RMK AO2 SLP156 TCU DSNT SE T03060183=
201606122052 METAR KATL 122052Z 35013KT 10SM FEW040CB SCT055TCU BKN120 BKN250 31/20 A3003 RMK AO2 SLP157 CB NE MOV SE TCU E-SE-S T03110200 56020=
201606121952 METAR KATL 121952Z 33009KT 10SM FEW040 SCT055TCU SCT120 BKN250 34/19 A3005 RMK AO2 SLP162 TCU NE CB DSNT NW-N T03440189=
201606121852 METAR KATL 121852Z 26009KT 10SM SCT050 SCT120 BKN250 34/19 A3007 RMK AO2 SLP169 CB DSNT N AND SOUTH T03390194=
201606121752 METAR KATL 121752Z 30010KT 10SM BKN048TCU 33/19 A3009 RMK AO2 SLP176 TCU ALQDS T03280194 10339 20244 58015=
201606121652 METAR KATL 121652Z 34011G17KT 10SM SCT045 33/20 A3010 RMK AO2 SLP181 T03280200=
201606121552 METAR KATL 121552Z 31008KT 10SM FEW045 FEW120 31/20 A3012 RMK AO2 SLP187 T03110200=
201606121452 METAR KATL 121452Z 31013G19KT 10SM FEW120 30/20 A3013 RMK AO2 SLP191 T03000200 58001=
201606121352 METAR KATL 121352Z 29010KT 10SM FEW120 28/21 A3014 RMK AO2 SLP195 T02830206=
201606121252 METAR KATL 121252Z 30009KT 10SM FEW100 FEW250 26/20 A3014 RMK AO2 SLP195 T02610200=
201606121152 METAR KATL 121152Z 27008KT 10SM FEW070 SCT100 SCT250 24/20 A3014 RMK AO2 SLP193 T02440200 10267 20233 53009=
201606121052 METAR KATL 121052Z 29008KT 9SM FEW100 SCT250 24/20 A3013 RMK AO2 SLP191 T02390200=
201606120952 METAR KATL 120952Z 28007KT 10SM FEW100 SCT250 24/20 A3011 RMK AO2 SLP185 T02390200=
201606120852 METAR KATL 120852Z 26006KT 10SM FEW200 FEW250 24/20 A3011 RMK AO2 SLP184 T02440200 56006=
201606120752 METAR KATL 120752Z 26008KT 10SM FEW200 SCT250 25/20 A3011 RMK AO2 SLP183 T02500200=
201606120652 METAR KATL 120652Z 25006KT 10SM FEW065 SCT200 BKN250 26/20 A3012 RMK AO2 SLP186 T02610200=
201606120552 METAR KATL 120552Z 25007KT 10SM FEW070 SCT200 BKN250 27/20 A3013 RMK AO2 SLP189 T02670200 10322 20267 58001=
201606120452 METAR KATL 120452Z 23007KT 10SM FEW100 BKN200 BKN250 27/19 A3013 RMK AO2 SLP191 T02720194 403560222=
201606120352 METAR KATL 120352Z 24008KT 10SM FEW070 FEW100 BKN200 BKN250 28/19 A3013 RMK AO2 SLP190 T02780194=
201606120252 METAR KATL 120252Z 23008KT 10SM FEW075 FEW110 BKN200 BKN250 28/19 A3013 RMK AO2 SLP191 T02830189 53014=
201606120152 METAR KATL 120152Z 21009KT 10SM SCT085 BKN200 BKN250 29/19 A3011 RMK AO2 SLP186 T02940189=
201606120052 METAR KATL 120052Z 26004KT 10SM FEW060 FEW100 SCT200 BKN250 31/18 A3009 RMK AO2 SLP176 TCU DSNT E T03060178=
201606112352 METAR KATL 112352Z 28008KT 10SM FEW065 FEW100 SCT200 BKN250 32/17 A3009 RMK AO2 SLP178 CB DSNT S-SW T03220172 10356 20322 55000=
201606112252 METAR KATL 112252Z 27007KT 10SM FEW070 FEW095 SCT250 33/17 A3008 RMK AO2 SLP173 T03330172=
201606112152 METAR KATL 112152Z 17005KT 10SM FEW070 SCT095 SCT250 33/17 A3008 RMK AO2 SLP175 T03330167=
201606112052 METAR KATL 112052Z 29005KT 10SM SCT065 SCT080 33/16 A3009 RMK AO2 SLP178 T03330156 56020=
201606111952 METAR KATL 111952Z 20004KT 10SM SCT070 SCT090 34/15 A3010 RMK AO2 SLP181 T03390150=
201606111852 METAR KATL 111852Z VRB03KT 10SM FEW070 FEW090 SCT250 33/14 A3012 RMK AO2 SLP186 T03330144=
201606111752 METAR KATL 111752Z 24004KT 10SM SCT070 SCT090 SCT250 33/16 A3015 RMK AO2 SLP197 T03330156 10339 20239 58009=
201606111652 METAR KATL 111652Z VRB03KT 10SM SCT060 SCT080 33/15 A3017 RMK AO2 SLP202 T03280150=
201606111552 METAR KATL 111552Z 31005KT 10SM FEW055 FEW150 SCT220 32/17 A3017 RMK AO2 SLP205 T03220172=
201606111452 METAR KATL 111452Z 20004KT 10SM FEW150 FEW250 31/19 A3018 RMK AO2 SLP206 T03060189 50007=
201606111352 METAR KATL 111352Z 00000KT 10SM FEW150 FEW200 28/18 A3018 RMK AO2 SLP209 T02830178=
201606111252 METAR KATL 111252Z 00000KT 10SM FEW150 FEW200 26/17 A3017 RMK AO2 SLP205 T02610172=
201606111152 METAR KATL 111152Z 00000KT 10SM SCT150 SCT250 24/17 A3016 RMK AO2 SLP200 T02390167 10256 20222 51010=
201606111052 METAR KATL 111052Z 09005KT 10SM FEW150 SCT250 23/16 A3015 RMK AO2 SLP198 T02280156=
201606110952 METAR KATL 110952Z 00000KT 10SM SCT250 24/15 A3013 RMK AO2 SLP192 T02390150=
201606110852 METAR KATL 110852Z 10004KT 10SM FEW250 24/16 A3012 RMK AO2 SLP189 T02390156 53007=
201606110752 METAR KATL 110752Z 00000KT 10SM CLR 24/14 A3011 RMK AO2 SLP184 T02440144=
201606110652 METAR KATL 110652Z 00000KT 10SM FEW250 25/15 A3009 RMK AO2 SLP179 T02500150=
201606110552 METAR KATL 110552Z 19005KT 10SM FEW250 25/14 A3010 RMK AO2 SLP181 T02500144 10317 20250 58004=
201606110452 METAR KATL 110452Z 14004KT 10SM FEW250 26/14 A3011 RMK AO2 SLP184 T02610144 403390222=
201606110352 METAR KATL 110352Z 14004KT 10SM FEW250 27/14 A3011 RMK AO2 SLP185 T02670144=
201606110252 METAR KATL 110252Z 14005KT 10SM FEW250 28/14 A3011 RMK AO2 SLP185 T02780139 53018=
201606110152 METAR KATL 110152Z 15005KT 10SM FEW250 29/15 A3009 RMK AO2 SLP177 T02890150=
201606110052 METAR KATL 110052Z 15006KT 10SM FEW150 FEW250 31/14 A3008 RMK AO2 SLP173 T03060144=
201606102352 METAR KATL 102352Z 09010KT 10SM FEW150 FEW250 32/13 A3006 RMK AO2 SLP166 T03170133 10339 20317 55001=
201606102252 METAR KATL 102252Z 08008KT 10SM FEW250 33/13 A3004 RMK AO2 SLP161 T03280133=
201606102152 METAR KATL 102152Z 20003KT 10SM FEW250 33/13 A3005 RMK AO2 SLP162 T03330133=
201606102052 METAR KATL 102052Z 12004KT 10SM FEW250 33/13 A3006 RMK AO2 SLP167 T03280128 56017=
201606101952 METAR KATL 101952Z VRB06KT 10SM FEW250 33/13 A3008 RMK AO2 SLP173 T03280133=
201606101852 METAR KATL 101852Z VRB04KT 10SM FEW250 32/12 A3009 RMK AO2 SLP178 T03220122=
201606101752 METAR KATL 101752Z 00000KT 10SM FEW250 32/13 A3011 RMK AO2 SLP185 T03220133 10322 20239 58009=
201606101652 METAR KATL 101652Z VRB03KT 10SM FEW250 31/14 A3013 RMK AO2 SLP190 T03110144=
201606101552 METAR KATL 101552Z 15003KT 10SM FEW150 FEW250 29/13 A3013 RMK AO2 SLP192 T02940128=
201606101452 METAR KATL 101452Z VRB04KT 10SM SCT150 SCT250 29/16 A3014 RMK AO2 SLP194 ACC NE-SE & NW T02890156 51015=
201606101352 METAR KATL 101352Z 16003KT 10SM BKN150 BKN250 27/15 A3013 RMK AO2 SLP192 ACC NW-N T02670150=
201606101252 METAR KATL 101252Z 09006KT 10SM FEW150 FEW200 SCT250 25/14 A3011 RMK AO2 SLP186 ACC DSNT SE & S T02500144=
201606101152 METAR KATL 101152Z 08006KT 10SM FEW150 SCT200 SCT250 23/14 A3009 RMK AO2 SLP179 ACC DSNT SE & SW & W T02330139 10244 20222 51018=
201606101052 METAR KATL 101052Z 07003KT 10SM FEW150 SCT180 BKN250 23/13 A3007 RMK AO2 SLP172 VIRGA W T02280128=
201606100952 METAR KATL 100952Z 03008KT 10SM BKN180 BKN250 23/13 A3006 RMK AO2 SLP167 T02280128=
201606100852 METAR KATL 100852Z 00000KT 10SM BKN180 BKN250 23/13 A3004 RMK AO2 SLP160 T02280133 55000=
201606100752 METAR KATL 100752Z 08003KT 10SM SCT200 BKN250 23/12 A3003 RMK AO2 SLP158 T02280122=
201606100652 METAR KATL 100652Z 05006KT 10SM BKN200 BKN250 24/13 A3003 RMK AO2 SLP158 T02440128=
201606100552 METAR KATL 100552Z 08006KT 10SM BKN180 BKN250 23/13 A3004 RMK AO2 SLP160 T02330133 10300 20233 50001=
201606100452 METAR KATL 100452Z 07006KT 10SM BKN180 BKN250 25/12 A3004 RMK AO2 SLP162 T02500122 403170167=
201606100352 METAR KATL 100352Z 07005KT 10SM SCT200 BKN250 25/12 A3005 RMK AO2 SLP163 T02500117=
201606100252 METAR KATL 100252Z 04006KT 10SM BKN250 27/11 A3003 RMK AO2 SLP159 T02720111 53016=
201606100152 METAR KATL 100152Z 33005KT 10SM FEW200 BKN250 27/11 A3001 RMK AO2 SLP153 T02670111=
201606100052 METAR KATL 100052Z 09006KT 10SM FEW200 BKN250 28/10 A3000 RMK AO2 SLP147 T02830100=
201606092352 METAR KATL 092352Z 00000KT 10SM FEW200 BKN250 30/09 A2999 RMK AO2 SLP144 T03000094 10317 20289 55001=
201606092252 METAR KATL 092252Z 00000KT 10SM FEW200 BKN250 31/10 A2998 RMK AO2 SLP144 T03110100=
201606092152 METAR KATL 092152Z COR 14005KT 10SM FEW200 BKN250 31/11 A2999 RMK AO2 SLP145 T03110111=
201606092052 METAR KATL 092052Z 12006KT 10SM FEW150 SCT180 BKN250 31/11 A2999 RMK AO2 SLP146 T03060106 56016=
201606091952 METAR KATL 091952Z 15005KT 10SM FEW150 FEW180 SCT250 31/11 A3001 RMK AO2 SLP152 T03060111=
201606091852 METAR KATL 091852Z VRB03KT 10SM FEW150 SCT180 BKN250 30/12 A3002 RMK AO2 SLP156 ACC DSNT SE-S T03000122=
201606091752 METAR KATL 091752Z VRB04KT 10SM FEW150 SCT200 SCT250 29/13 A3004 RMK AO2 SLP162 T02890128 10294 20206 58009=
201606091652 METAR KATL 091652Z 09004KT 10SM FEW150 FEW200 SCT250 28/13 A3005 RMK AO2 SLP168 ACC DSNT S-SW T02780128=
201606091552 METAR KATL 091552Z 06004KT 10SM FEW200 SCT250 27/13 A3006 RMK AO2 SLP171 T02670128=
201606091452 METAR KATL 091452Z 08003KT 10SM FEW200 FEW250 24/13 A3007 RMK AO2 SLP172 T02440128 51008=
201606091352 METAR KATL 091352Z 04005KT 10SM FEW005 FEW200 SCT250 23/13 A3006 RMK AO2 SLP171 FU FEW005 T02330128=
201606091316 SPECI KATL 091316Z 06007KT 10SM FEW005 FEW250 22/12 A3006 RMK AO2 FU FEW005 T02220117=
201606091252 METAR KATL 091252Z 05008KT 10SM FEW100 FEW150 SCT200 SCT250 22/11 A3006 RMK AO2 SLP169 ACC DSNT S T02170111=
201606091152 METAR KATL 091152Z 04008KT 10SM FEW110 FEW150 SCT200 SCT250 21/11 A3004 RMK AO2 SLP163 ACC DSNT S T02060106 10206 20167 53015=
201606091052 METAR KATL 091052Z 01005KT 10SM FEW150 SCT200 SCT250 17/12 A3003 RMK AO2 SLP159 T01720117=
201606090952 METAR KATL 090952Z 34006KT 10SM FEW250 17/12 A3001 RMK AO2 SLP152 T01720117=
201606090852 METAR KATL 090852Z 33005KT 10SM FEW250 17/12 A3000 RMK AO2 SLP148 T01720122 53002=
201606090752 METAR KATL 090752Z 33006KT 10SM FEW200 FEW250 18/12 A2999 RMK AO2 SLP145 T01780117=
201606090652 METAR KATL 090652Z 33004KT 10SM FEW200 SCT250 19/12 A2999 RMK AO2 SLP146 T01890117=
201606090552 METAR KATL 090552Z 32007KT 10SM FEW200 SCT250 20/12 A2999 RMK AO2 SLP146 T02000117 10278 20194 50002=
201606090452 METAR KATL 090452Z 31006KT 10SM BKN250 21/11 A2999 RMK AO2 SLP147 T02060111 403060167=
201606090352 METAR KATL 090352Z 34006KT 10SM BKN250 23/11 A2999 RMK AO2 SLP145 T02330106=
201606090252 METAR KATL 090252Z 35005KT 10SM BKN250 24/09 A2998 RMK AO2 SLP143 T02440094 53015=
201606090152 METAR KATL 090152Z 34006KT 10SM BKN250 25/10 A2996 RMK AO2 SLP136 T02500100=
201606090052 METAR KATL 090052Z 33007KT 10SM SCT250 26/09 A2995 RMK AO2 SLP132 T02610094=
201606082352 METAR KATL 082352Z 33010KT 10SM SCT250 28/08 A2994 RMK AO2 SLP128 T02780083 10306 20278 53007=
201606082252 METAR KATL 082252Z 35010KT 10SM SCT250 29/09 A2992 RMK AO2 SLP124 T02890089=
201606082152 METAR KATL 082152Z 32007G19KT 10SM FEW250 29/08 A2992 RMK AO2 SLP121 T02940078=
201606082052 METAR KATL 082052Z 33011G20KT 10SM FEW200 30/07 A2992 RMK AO2 SLP121 T03000067 56012=
201606081952 METAR KATL 081952Z 31009KT 10SM FEW200 29/08 A2993 RMK AO2 SLP124 T02940078=
201606081852 METAR KATL 081852Z 01010KT 10SM FEW200 29/08 A2994 RMK AO2 SLP127 T02940078=
201606081752 METAR KATL 081752Z 34012G19KT 10SM FEW200 28/09 A2995 RMK AO2 SLP134 T02780089 10283 20189 58006=
201606081652 METAR KATL 081652Z 34009G15KT 10SM FEW200 27/10 A2997 RMK AO2 SLP138 T02720100=
201606081552 METAR KATL 081552Z 33010KT 10SM FEW200 27/10 A2997 RMK AO2 SLP139 T02670100=
201606081452 METAR KATL 081452Z 34010G17KT 300V010 10SM FEW200 25/09 A2997 RMK AO2 SLP140 T02500089 51009=
201606081352 METAR KATL 081352Z 33008G17KT 10SM FEW200 24/10 A2997 RMK AO2 SLP138 T02390100=
201606081252 METAR KATL 081252Z 35009KT 10SM FEW200 22/11 A2996 RMK AO2 SLP135 T02170111=
201606081152 METAR KATL 081152Z 30005KT 10SM FEW200 19/12 A2995 RMK AO2 SLP131 T01890117 10211 20167 51016=
201606081052 METAR KATL 081052Z 32010KT 10SM FEW150 FEW200 17/12 A2994 RMK AO2 SLP129 T01720122=
201606080952 METAR KATL 080952Z 30006KT 10SM CLR 18/12 A2992 RMK AO2 SLP123 T01780117=
201606080852 METAR KATL 080852Z 32008KT 10SM CLR 18/12 A2990 RMK AO2 SLP114 T01830122 52007=
201606080752 METAR KATL 080752Z 31008KT 10SM CLR 19/12 A2989 RMK AO2 SLP112 T01940122=
201606080652 METAR KATL 080652Z 32006KT 10SM CLR 20/13 A2988 RMK AO2 SLP109 T02000133=
201606080552 METAR KATL 080552Z 31007KT 10SM CLR 21/13 A2988 RMK AO2 SLP106 T02110133 10294 20211 51008=
201606080452 METAR KATL 080452Z 32007KT 10SM CLR 22/14 A2987 RMK AO2 SLP105 T02220139 403220206=
201606080352 METAR KATL 080352Z 29005KT 10SM CLR 23/14 A2987 RMK AO2 SLP104 T02330144=
201606080252 METAR KATL 080252Z 32006KT 10SM CLR 25/14 A2985 RMK AO2 SLP098 T02500139 53019=
201606080152 METAR KATL 080152Z 29006KT 10SM CLR 26/14 A2983 RMK AO2 SLP090 T02610144=
201606080052 METAR KATL 080052Z 31009KT 10SM FEW065 28/14 A2981 RMK AO2 SLP083 T02830144=
201606072352 METAR KATL 072352Z 32009KT 10SM FEW065TCU FEW090 29/15 A2980 RMK AO2 SLP079 TCU W T02940150 10322 20294 53003=
201606072252 METAR KATL 072252Z 31008KT 10SM SCT070 SCT100 31/15 A2978 RMK AO2 SLP075 T03060150=
201606072152 METAR KATL 072152Z 29014KT 10SM SCT075 SCT250 32/14 A2978 RMK AO2 SLP073 T03170144=
201606072052 METAR KATL 072052Z 29013KT 10SM BKN075 BKN100 31/14 A2979 RMK AO2 SLP075 T03110144 56010=
201606071952 METAR KATL 071952Z 30016G23KT 10SM FEW070 31/15 A2979 RMK AO2 PK WND 29026/1853 SLP077 T03110150=
201606071852 METAR KATL 071852Z 28016G20KT 10SM FEW065 31/15 A2980 RMK AO2 SLP081 T03110150=
201606071752 METAR KATL 071752Z 29014G21KT 10SM FEW060 31/15 A2982 RMK AO2 SLP085 T03110150 10311 20211 58001=
201606071652 METAR KATL 071652Z 33014G19KT 10SM FEW055 31/16 A2983 RMK AO2 SLP090 T03060156=
201606071552 METAR KATL 071552Z 31010KT 10SM FEW050 29/17 A2984 RMK AO2 SLP093 T02890167=
201606071452 METAR KATL 071452Z 33010KT 10SM CLR 27/16 A2982 RMK AO2 SLP088 T02720161 50011=
201606071352 METAR KATL 071352Z 32009KT 10SM CLR 25/18 A2982 RMK AO2 SLP088 T02500178=
201606071252 METAR KATL 071252Z 32009KT 10SM CLR 23/18 A2981 RMK AO2 SLP083 T02330183=
201606071152 METAR KATL 071152Z 31007KT 10SM CLR 21/19 A2979 RMK AO2 SLP077 70105 T02110189 10222 20206 53009=
201606071052 METAR KATL 071052Z 32009KT 7SM CLR 21/19 A2978 RMK AO2 SLP073 FG BANK DSNT SW-NW T02060189=
201606070952 METAR KATL 070952Z 31011KT 6SM BR SCT004 21/19 A2976 RMK AO2 SLP069 SCT004 V BKN T02110194=
201606070912 SPECI KATL 070912Z 31007KT 6SM BR SCT004 21/20 A2976 RMK AO2 SCT004 V BKN T02110200=
201606070852 METAR KATL 070852Z 32009KT 5SM BR BKN004 22/21 A2976 RMK AO2 SLP069 CIG 002V005 T02170206 58009=
201606070829 SPECI KATL 070829Z 31008KT 4SM BR BKN003 22/21 A2976 RMK AO2 CIG 002V005 T02170206=
201606070814 SPECI KATL 070814Z 32009KT 2SM BR OVC002 22/21 A2976 RMK AO2 BINOVC T02170211=
201606070807 SPECI KATL 070807Z 33008KT 1SM R09R/6000VP6000FT BR OVC002 22/21 A2976=
201606070754 SPECI KATL 070754Z 32005KT 1/4SM R09R/1400V2600FT FG VV002 22/21 A2977 RMK AO2 T02220211=
201606070752 METAR KATL 070752Z 32006KT 1/4SM R09R/1400V2000FT FG VV002 22/21 A2977 RMK AO2 SLP070 T02220211=
201606070738 SPECI KATL 070738Z 32006KT 1/4SM R09R/1400V1600FT FG VV002 22/21 A2977 RMK AO2 T02220211=
201606070715 SPECI KATL 070715Z 30004KT 1/2SM R09R/1800V2400FT FG VV002 22/21 A2978 RMK AO2 T02220211=
201606070657 SPECI KATL 070657Z 30005KT 1SM R09R/4500VP6000FT BR OVC003 22/21 A2978 RMK AO2 T02220206=
201606070652 METAR KATL 070652Z 31006KT 8SM R09R/5000VP6000FT BKN003 BKN075 22/21 A2978 RMK AO2 SLP076 BKN003 V SCT VIS W-N 1 1/2 T02220206=
201606070648 SPECI KATL 070648Z 32005KT 8SM BKN003 BKN075 22/21 A2978 RMK AO2 BKN003 V SCT VIS W-N 1 1/2=
201606070552 METAR KATL 070552Z 29003KT 10SM SCT004 SCT075 22/21 A2979 RMK AO2 SLP076 60042 T02220211 10256 20222 58006=
201606070452 METAR KATL 070452Z 00000KT 10SM FEW004 SCT090 BKN200 23/22 A2981 RMK AO2 RAE42 SLP083 P0015 T02280217 402780222=
201606070423 SPECI KATL 070423Z 16003KT 4SM RA BR FEW007 BKN050 BKN090 OVC150 23/22 A2981 RMK AO2 P0014 T02280217=
201606070358 SPECI KATL 070358Z 15003KT 3SM +RA BR FEW008CB SCT025 BKN050 OVC150 23/21 A2982 RMK AO2 CB SW-W MOV SW P0004 T02280211=
201606070352 METAR KATL 070352Z 10003KT 2SM R09R/4500VP6000FT +RA BR SCT008CB BKN025 BKN050 OVC150 23/21 A2981 RMK AO2 RAB17 SLP086 CB OHD-W MOV SW P0007 T02280211=
201606070348 SPECI KATL 070348Z 11005KT 2SM R09R/4500VP6000FT +RA BR SCT008CB BKN025 BKN050 OVC150 23/21 A2982 RMK AO2 RAB17 CB OHD-NW MOV SW P0004=
201606070336 SPECI KATL 070336Z 10003KT 5SM RA BR SCT008CB BKN025 BKN050 OVC150 23/22 A2981 RMK AO2 RAB17 VIS LWR NW-NE CB OHD-N MOV SW P0002 T02280217=
201606070252 METAR KATL 070252Z 17005KT 10SM FEW009 SCT015CB BKN035 OVC150 23/22 A2981 RMK AO2 RAE43 SLP083 CB VC N-NE MOV SW P0015 60020 T02330217 51010=
201606070152 METAR KATL 070152Z 00000KT 8SM -RA SCT014 BKN030 BKN070 OVC150 24/22 A2979 RMK AO2 RAB20 SLP078 CB DSNT NE & SW P0005 T02440217=
201606070052 METAR KATL 070052Z 00000KT 10SM FEW020 SCT060 BKN150 24/21 A2979 RMK AO2 SLP079 CB DSNT SW TCU DSNT SE SHRA SW-NW-NE T02440206=
201606062352 METAR KATL 062352Z 17005KT 10SM FEW015 SCT120 BKN150 26/21 A2978 RMK AO2 SLP073 CB DSNT SW-NW & NW-NE TCU DSNT E & SE-SW 60063 T02560206 10272 20222 56014=
201606062252 METAR KATL 062252Z VRB03KT 10SM FEW015TCU FEW030 SCT150 26/21 A2978 RMK AO2 SLP074 TCU VC NW & DSNT SE-SW CB DSNT NW-N T02560211=
201606062152 METAR KATL 062152Z 15005KT 10SM FEW015 SCT150 BKN200 25/22 A2979 RMK AO2 RAE2053 SLP078 CB DSNT W-NW TCU DSNT SE P0000 T02500217=
201606062052 METAR KATL 062052Z COR 00000KT 10SM -RA BKN030TCU BKN060 OVC100 23/21 A2982 RMK AO2 SLP089 VIS LWR E SHRA TCU OHD-W-NW CB DSNT NE & NW P0053 60063 T02330206 58007=
201606062029 SPECI KATL 062029Z 15009KT 9SM R09R/4500VP6000FT -RA SCT017CB BKN030 OVC150 22/21 A2983 RMK AO2 VIS LWR E-SE SHRA CB OHD-E-SE MOV SE P0052 T02220206=
201606062021 SPECI KATL 062021Z 13009KT 5SM R09R/4000V5500FT +RA BR BKN023CB BKN050 OVC150 22/21 A2983 RMK AO2 VIS LWR E-SE SHRA CB OHD-E-SE MOV SE P0051 T02220206=
201606061957 SPECI KATL 061957Z 11010KT 8SM R09R/3000VP6000FT RA FEW009 BKN023CB OVC050 24/22 A2983 RMK AO2 VIS LWR E-SE SHRA CB OHD-E-SE MOV SE P0019 T02390217=
201606061952 METAR KATL 061952Z 14010KT 9SM R09R/3500VP6000FT -RA BKN025CB BKN050 OVC150 24/22 A2983 RMK AO2 RAB39 SLP092 VIS LWR E-SE-S-SW SHRA CB OHD-E-SE-S-SW MOV SE TCU DSNT NE-E P0010 T02440217=
201606061950 SPECI KATL 061950Z 14009KT 9SM -RA BKN025CB BKN050 OVC150 24/22 A2983 RMK AO2 RAB39 CB OHD-E-SE-S-SW MOV SE TCU DSNT NE-E SHRA VC E-SE-S-SW P0005=
201606061852 METAR KATL 061852Z 08007KT 10SM FEW020CB BKN030TCU BKN050 OVC150 26/20 A2984 RMK AO2 SLP095 CB E MOV E TCU OHD-NE-SE-SW SHRA VC E T02610200=
201606061752 METAR KATL 061752Z 20005KT 10SM BKN030TCU BKN150 OVC200 27/21 A2986 RMK AO2 SLP101 TCU OHD-NE-SE T02720206 10278 20233 58010=
201606061652 METAR KATL 061652Z 19004KT 10SM BKN024TCU BKN150 OVC200 27/20 A2987 RMK AO2 SLP103 TCU OHD-NE-SE T02670200=
201606061552 METAR KATL 061552Z VRB04KT 10SM SCT020 BKN150 OVC200 27/20 A2989 RMK AO2 SLP110 TCU DSNT NE-SE-S T02720200=
201606061452 METAR KATL 061452Z 30004KT 10SM FEW020TCU SCT150 BKN200 26/21 A2989 RMK AO2 SLP111 TCU E-SE-S T02610206 50000=
201606061352 METAR KATL 061352Z 00000KT 10SM FEW015 SCT050 BKN150 BKN250 26/21 A2989 RMK AO2 SLP112 T02560211=
201606061252 METAR KATL 061252Z 19004KT 10SM SCT011 SCT060 BKN110 BKN180 BKN250 24/21 A2989 RMK AO2 SLP112 T02440211=
201606061152 METAR KATL 061152Z 00000KT 10SM FEW020 SCT060 SCT110 BKN250 23/21 A2989 RMK AO2 SLP110 T02330211 10233 20222 55002=
201606061052 METAR KATL 061052Z 00000KT 10SM FEW050 SCT110 BKN250 22/20 A2988 RMK AO2 SLP108 T02220200=
201606060952 METAR KATL 060952Z 00000KT 10SM FEW020 SCT050 BKN100 BKN250 22/20 A2988 RMK AO2 SLP109 T02220200=
201606060852 METAR KATL 060852Z 33003KT 10SM FEW021 SCT050 BKN100 BKN250 22/20 A2990 RMK AO2 SLP113 T02220200 56004=
201606060752 METAR KATL 060752Z 00000KT 10SM FEW021 SCT047 BKN110 BKN250 22/21 A2990 RMK AO2 SLP114 T02220206=
201606060652 METAR KATL 060652Z 27004KT 10SM SCT060 SCT110 SCT250 23/21 A2990 RMK AO2 SLP116 T02280206=
201606060552 METAR KATL 060552Z 21005KT 10SM FEW075 FEW110 SCT250 23/21 A2991 RMK AO2 SLP118 T02280206 10267 20228 58005=
201606060452 METAR KATL 060452Z 23005KT 10SM FEW075 BKN110 BKN200 BKN250 24/21 A2992 RMK AO2 SLP123 T02390206 402890217=
201606060352 METAR KATL 060352Z 22006KT 10SM BKN110 BKN200 BKN250 24/21 A2993 RMK AO2 SLP124 OCNL LTGIC DSNT NW-NE CB DSNT NW-NE T02440206=
201606060252 METAR KATL 060252Z 20006KT 10SM FEW075 BKN110 BKN200 BKN250 24/21 A2992 RMK AO2 SLP123 OCNL LTGIC DSNT NW CB DSNT NW T02440206 53015=
201606060152 METAR KATL 060152Z 22006KT 10SM FEW034 SCT110 BKN200 BKN250 25/21 A2989 RMK AO2 SLP114 T02500206=
201606060052 METAR KATL 060052Z 22004KT 10SM FEW036TCU FEW075 BKN200 BKN250 26/21 A2989 RMK AO2 SLP110 CB DSNT NW TCU NE & DSNT NW-N T02610206=
201606052352 METAR KATL 052352Z 22009KT 10SM FEW018 FEW038 SCT075 BKN200 27/19 A2988 RMK AO2 SLP107 OCNL LTGICCG DSNT N CB DSNT N & E T02670194 10289 20261 53000=
201606052252 METAR KATL 052252Z 22008KT 10SM FEW038TCU SCT070 BKN200 BKN250 28/19 A2987 RMK AO2 SLP105 CB DSNT NW TCU SE & NW T02830194=
201606052152 METAR KATL 052152Z 24007KT 10SM FEW036 SCT065 BKN200 BKN250 28/18 A2986 RMK AO2 SLP102 CB DSNT E-SE & NW TCU DSNT NW T02830183=
201606052052 METAR KATL 052052Z 22012G18KT 10SM FEW034 SCT060 BKN200 BKN250 28/19 A2987 RMK AO2 SLP106 CB DSNT E & SE TCU DSNT S & SW T02830189 56015=
201606051952 METAR KATL 051952Z 23008KT 10SM SCT035TCU BKN050 BKN250 28/19 A2989 RMK AO2 SLP110 TCU NE T02780189=
201606051852 METAR KATL 051852Z 23008KT 10SM SCT026 BKN160 BKN250 28/19 A2990 RMK AO2 SLP114 T02780194=
201606051810 SPECI KATL 051810Z 22010KT 10SM SCT022 BKN031 BKN080 BKN200 27/19 A2991 RMK AO2 T02670194=
201606051752 METAR KATL 051752Z 22008KT 10SM SCT020 BKN028 BKN120 26/20 A2992 RMK AO2 SLP122 60000 T02610200 10267 20217 58008=
201606051745 SPECI KATL 051745Z 21009KT 10SM BKN023 BKN120 26/20 A2993 RMK AO2 T02610200=
201606051652 METAR KATL 051652Z VRB06KT 10SM SCT020 OVC095 24/20 A2993 RMK AO2 RAE39 SLP127 P0000 T02440200=
201606051614 SPECI KATL 051614Z 27005KT 10SM -RA SCT015 BKN042 OVC090 24/21 A2993 RMK AO2 P0000 T02440206=
201606051552 METAR KATL 051552Z 26006KT 10SM -RA BKN011 BKN035 OVC100 24/21 A2994 RMK AO2 SLP130 P0000 T02390206=
201606051452 METAR KATL 051452Z 25007KT 10SM -RA BKN012 BKN050 OVC100 24/21 A2995 RMK AO2 RAB43 SLP131 P0000 60000 T02390206 51009=
201606051352 METAR KATL 051352Z VRB04KT 10SM FEW008 BKN150 OVC250 24/21 A2994 RMK AO2 RAE14 SLP128 P0000 T02390211=
201606051252 METAR KATL 051252Z 23005KT 10SM -RA FEW007 SCT085 BKN110 OVC130 22/21 A2994 RMK AO2 RAB37 SLP128 P0000 T02220206=
201606051152 METAR KATL 051152Z 18004KT 10SM FEW080 BKN110 OVC130 22/20 A2992 RMK AO2 SLP121 60001 70010 T02170200 10217 20217 53004=
201606051052 METAR KATL 051052Z 17004KT 10SM SCT090 BKN110 OVC150 22/20 A2991 RMK AO2 SLP118 T02170200=
201606050952 METAR KATL 050952Z 00000KT 10SM FEW024 BKN090 OVC110 22/19 A2990 RMK AO2 RAB0859E16 SLP114 P0001 T02170194=
201606050852 METAR KATL 050852Z 23003KT 10SM FEW024 BKN080 OVC110 22/20 A2991 RMK AO2 RAB39E52 SLP117 P0000 60000 T02170200 56007=
201606050752 METAR KATL 050752Z 22004KT 10SM FEW110 OVC140 22/20 A2991 RMK AO2 SLP117 T02170200=
201606050652 METAR KATL 050652Z 22004KT 10SM FEW090 SCT110 OVC140 22/20 A2992 RMK AO2 SLP120 VIRGA W-N T02170200=
201606050552 METAR KATL 050552Z 25004KT 10SM FEW110 BKN150 BKN250 22/20 A2993 RMK AO2 RAE12 SLP124 P0001 60009 T02170200 10278 20217 58010=
201606050507 SPECI KATL 050507Z 23004KT 8SM -RA FEW006 SCT047 SCT070 BKN130 BKN250 22/20 A2995 RMK AO2 P0001 T02170200=
201606050452 METAR KATL 050452Z 22005KT 5SM RA BR FEW028 BKN075 OVC120 22/20 A2996 RMK AO2 RAB03 SLP133 P0008 T02170200 403110217=
201606050352 METAR KATL 050352Z 27006KT 10SM FEW036 FEW050 SCT130 OVC200 24/19 A2996 RMK AO2 SLP135 T02440189=
201606050252 METAR KATL 050252Z 29008KT 10SM FEW030 FEW120 OVC200 25/18 A2996 RMK AO2 SLP133 T02500183 51012=
201606050233 SPECI KATL 050233Z 30008KT 10SM FEW038 FEW110 BKN200 OVC250 26/19 A2995 RMK AO2 T02560189=
201606050152 METAR KATL 050152Z 24005KT 10SM FEW040TCU SCT100 BKN200 OVC250 27/18 A2995 RMK AO2 SLP130 OCNL LTGIC DSNT NW CB DSNT NW TCU W-N T02670183=
201606050052 METAR KATL 050052Z 21006KT 10SM FEW040 SCT100 BKN200 BKN250 27/18 A2994 RMK AO2 SLP129 OCNL LTGICCA DSNT SW-NW CB DSNT SW-NW TCU DSNT E & NW T02670183=
201606042352 METAR KATL 042352Z 22006KT 10SM FEW040 FEW085 BKN200 BKN250 28/18 A2992 RMK AO2 SLP122 CB DSNT NE & SE & SW-NW T02780183 10311 20278 55001=
201606042252 METAR KATL 042252Z 24007G16KT 10SM FEW044 FEW100 BKN200 BKN250 29/18 A2992 RMK AO2 SLP119 CB DSNT SE & SW-NW TCU DSNT NW-NE T02940183=
201606042152 METAR KATL 042152Z 21011KT 10SM FEW042 SCT100 BKN200 BKN250 29/18 A2993 RMK AO2 SLP124 TCU DSNT N & SE T02940183=
201606042052 METAR KATL 042052Z 23008KT 10SM SCT046 BKN100 BKN250 29/18 A2992 RMK AO2 SLP122 CB DSNT NE T02940183 56019=
201606041952 METAR KATL 041952Z 24012G17KT 10SM FEW042TCU SCT090 BKN200 31/18 A2994 RMK AO2 SLP125 TCU N-NE T03060178=
201606041852 SPECI KATL 041852Z 23011KT 10SM SCT040TCU BKN180 BKN250 30/19 A2996 RMK AO2 SLP135 TCU ALQDS T03000194=
201606041852 METAR KATL 041852Z 23011KT 10SM SCT040TCU BKN180 BKN250 30/19 A2996 RMK AO2 SLP135 TCU ALQDS T03000194=
201606041752 METAR KATL 041752Z 23009G17KT 10SM BKN043TCU BKN200 31/19 A2998 RMK AO2 SLP141 TCU NE-E T03060189 10311 20233 58015=
201606041652 METAR KATL 041652Z 22008KT 10SM SCT040 BKN200 30/19 A3000 RMK AO2 SLP146 T03000189=
201606041552 METAR KATL 041552Z 21012KT 10SM SCT050 BKN200 30/18 A3002 RMK AO2 SLP153 T03000178=
201606041452 METAR KATL 041452Z 22007KT 10SM FEW040 SCT130 BKN250 30/19 A3003 RMK AO2 SLP156 T03000189 50003=
201606041352 METAR KATL 041352Z 23005KT 10SM FEW065 BKN130 BKN250 28/20 A3004 RMK AO2 SLP159 T02780200=
201606041252 METAR KATL 041252Z 20006KT 10SM FEW110 SCT150 BKN180 BKN250 25/19 A3004 RMK AO2 SLP160 T02500194=
201606041152 METAR KATL 041152Z 15003KT 10SM SCT110 BKN250 23/19 A3002 RMK AO2 SLP153 ACC NE-E T02330189 10256 20222 50004=
201606041052 METAR KATL 041052Z 00000KT 10SM FEW110 BKN250 23/18 A3002 RMK AO2 SLP155 T02280183=
201606040952 METAR KATL 040952Z 17005KT 10SM FEW110 BKN250 23/18 A3001 RMK AO2 SLP149 T02330183=
201606040852 METAR KATL 040852Z 16003KT 10SM FEW110 BKN250 24/19 A3001 RMK AO2 SLP149 VIRGA N-NE T02390189 58008=
201606040752 METAR KATL 040752Z 17003KT 10SM FEW070 BKN250 24/19 A3001 RMK AO2 SLP150 T02440189=
201606040652 METAR KATL 040652Z 11005KT 10SM FEW070 FEW110 BKN250 24/18 A3003 RMK AO2 SLP155 T02440183=
201606040552 METAR KATL 040552Z 20003KT 10SM FEW110 SCT250 26/18 A3003 RMK AO2 SLP156 T02560183 10317 20256 58003=
201606040452 METAR KATL 040452Z 23004KT 10SM FEW110 BKN250 26/18 A3004 RMK AO2 SLP160 T02610178 403390206=
201606040352 METAR KATL 040352Z 21005KT 10SM FEW110 SCT250 27/18 A3005 RMK AO2 SLP162 T02670178=
201606040252 METAR KATL 040252Z 19004KT 10SM FEW065 SCT110 SCT250 27/18 A3004 RMK AO2 SLP160 T02720178 51017=
201606040152 METAR KATL 040152Z 17003KT 10SM FEW065 BKN250 28/17 A3002 RMK AO2 SLP155 T02830172=
201606040052 METAR KATL 040052Z 19005KT 10SM FEW065 BKN250 29/17 A3000 RMK AO2 SLP148 T02940172=
201606032352 METAR KATL 032352Z 18008KT 10SM FEW065 FEW100 BKN250 32/16 A2999 RMK AO2 SLP143 T03170161 10339 20317 56006=
201606032252 METAR KATL 032252Z 14003KT 10SM FEW065 SCT110 BKN250 32/16 A2999 RMK AO2 SLP145 CB DSNT S TCU DSNT NW T03170161=
201606032152 METAR KATL 032152Z 21007KT 10SM FEW070TCU BKN110 BKN250 33/16 A3000 RMK AO2 SLP147 TCU VC NE & DSNT SE T03280161=
201606032052 METAR KATL 032052Z 24010KT 10SM FEW070 BKN110 BKN250 33/15 A3000 RMK AO2 SLP148 TCU DSNT NE-SE T03330150 58016=
201606031952 METAR KATL 031952Z 21007KT 10SM SCT065 SCT250 33/16 A3002 RMK AO2 SLP155 TCU DSNT S & DSNT NW MDT CU ALQDS T03280156=
201606031852 METAR KATL 031852Z 26007KT 200V280 10SM SCT060 BKN250 33/17 A3004 RMK AO2 SLP159 T03280167=
201606031752 METAR KATL 031752Z VRB03KT 10SM SCT060 BKN250 33/17 A3005 RMK AO2 SLP165 T03280172 10328 20228 58012=
201606031652 METAR KATL 031652Z 24008KT 10SM FEW055 SCT250 31/17 A3007 RMK AO2 SLP171 TCU DSNT NW T03110172=
201606031552 METAR KATL 031552Z VRB04KT 10SM FEW050 FEW250 31/18 A3008 RMK AO2 SLP174 TCU DSNT N & E T03060183=
201606031452 METAR KATL 031452Z 00000KT 10SM FEW040 FEW250 29/19 A3009 RMK AO2 SLP178 T02940194 50003=
201606031352 METAR KATL 031352Z VRB03KT 10SM FEW250 27/20 A3009 RMK AO2 SLP180 T02720200=
201606031252 METAR KATL 031252Z 00000KT 10SM FEW200 FEW300 24/19 A3008 RMK AO2 SLP175 T02440194=
201606031152 METAR KATL 031152Z 00000KT 10SM FEW200 FEW250 23/19 A3008 RMK AO2 SLP174 70006 T02280194 10228 20206 53011=
201606031052 METAR KATL 031052Z 00000KT 10SM FEW150 FEW200 SCT250 21/19 A3007 RMK AO2 SLP171 T02110189=
201606030952 METAR KATL 030952Z 00000KT 10SM FEW250 21/18 A3005 RMK AO2 SLP166 T02110183=
201606030852 METAR KATL 030852Z 16003KT 10SM FEW250 22/19 A3005 RMK AO2 SLP163 T02170189 56009=
201606030752 METAR KATL 030752Z 16003KT 10SM FEW150 SCT250 22/19 A3005 RMK AO2 SLP166 T02220194=
201606030652 METAR KATL 030652Z 15003KT 10SM FEW150 SCT250 23/21 A3006 RMK AO2 SLP168 T02280206=
201606030552 METAR KATL 030552Z 15004KT 10SM FEW150 SCT250 23/21 A3007 RMK AO2 SLP173 60006 T02280206 10289 20228 58001=
201606030452 METAR KATL 030452Z 00000KT 10SM FEW150 SCT250 23/21 A3008 RMK AO2 SLP175 T02280211 403170200=
201606030352 METAR KATL 030352Z 00000KT 10SM FEW100 SCT150 SCT250 24/21 A3009 RMK AO2 SLP177 T02440206=
201606030252 METAR KATL 030252Z 08009KT 10SM FEW045 SCT100 BKN150 BKN200 24/21 A3008 RMK AO2 RAE43 TSB16E36 SLP175 P0006 60006 T02440206 51018=
201606030236 SPECI KATL 030236Z 06010KT 10SM -RA FEW045 SCT090 BKN110 BKN200 25/21 A3008 RMK AO2 TSB16E36 TS DSIPTD CB DSNT NE & SE P0006 T02500206=
201606030216 SPECI KATL 030216Z 01004KT 8SM -TSRA SCT045CB BKN090 BKN150 OVC200 25/20 A3008 RMK AO2 TSB16 OCNL LTGIC NE TS NE MOV NE P0005 T02500200=
201606030152 METAR KATL 030152Z 27008KT 10SM -RA SCT050TCU BKN090 BKN200 27/19 A3007 RMK AO2 RAB51 SLP172 TCU OHD-NW CB DSNT SE P0000 T02670189=
201606030052 METAR KATL 030052Z 03007KT 10SM FEW050 SCT150 BKN250 28/18 A3004 RMK AO2 SLP162 OCNL LTG DSNT SE & SW CB DSNT NE & SE & SW T02830183=
201606022352 METAR KATL 022352Z 04007KT 10SM FEW055TCU SCT200 BKN250 29/18 A3002 RMK AO2 SLP156 TCU W-NW CB DSNT SE & SW T02890183 10317 20283 53007=
201606022252 METAR KATL 022252Z 02010KT 10SM FEW060TCU SCT150 BKN200 BKN250 29/19 A3000 RMK AO2 WSHFT 2229 SLP150 TCU SW CB DSNT SE-S T02940194=
201606022246 SPECI KATL 022246Z 01010KT 10SM FEW060 SCT150 BKN200 BKN250 29/19 A3000 RMK AO2 WSHFT 2229 CB DSNT SE-S & SW=
201606022152 METAR KATL 022152Z 21006KT 10SM FEW065 FEW100 BKN250 31/14 A3000 RMK AO2 SLP148 CB DSNT SE & S T03110144=
201606022052 METAR KATL 022052Z 25009KT 10SM FEW060 SCT100 BKN250 32/18 A3001 RMK AO2 WSHFT 2002 SLP151 CB DSNT NE & SE & NW SHRA DSNT NE T03170178 56022=
201606022024 SPECI KATL 022024Z 34008KT 10SM FEW050CB SCT060TCU BKN100 BKN250 30/17 A3002 RMK AO2 WSHFT 2002 CB NE MOV NE SHRA NE TCU OHD-W T03000167=
201606022018 SPECI KATL 022018Z 34013KT 10SM SCT050CB BKN100 BKN250 29/17 A3002 RMK AO2 WSHFT 2002 CB N-NE MOV NE SHRA VC N-NE T02890167=
201606021952 METAR KATL 021952Z 19010KT 10SM FEW055CB SCT065TCU BKN150 BKN250 31/17 A3003 RMK AO2 SLP157 CB NW & E & DSNT NE & DSNT S MOV NE TCU N-NE-E & DSNT SE-SW SHRA VC NW & E T03110172=
201606021852 METAR KATL 021852Z VRB04KT 10SM SCT047TCU SCT150 BKN250 31/18 A3004 RMK AO2 SLP161 CB DSNT NE & NW TCU NE-E-SE-S-SW T03110183=
201606021752 METAR KATL 021752Z 23006KT 10SM SCT050TCU BKN150 BKN250 31/17 A3008 RMK AO2 SLP174 TCU N & E & S & W T03110172 10311 20222 58008=
201606021652 METAR KATL 021652Z 15005KT 10SM FEW050 SCT150 SCT250 30/18 A3010 RMK AO2 SLP180 T03000183=
201606021552 METAR KATL 021552Z 11004KT 10SM FEW040 SCT150 SCT250 29/18 A3010 RMK AO2 SLP184 T02890183=
201606021452 METAR KATL 021452Z VRB04KT 10SM FEW030 SCT150 BKN250 27/19 A3010 RMK AO2 SLP183 T02670189 51006=
201606021352 METAR KATL 021352Z 00000KT 10SM FEW005 FEW030 SCT200 BKN300 25/18 A3010 RMK AO2 SLP182 FU FEW005 T02500183=
201606021252 METAR KATL 021252Z 17003KT 10SM BKN200 BKN250 24/19 A3010 RMK AO2 SLP183 T02390189=
201606021152 METAR KATL 021152Z 10005KT 10SM FEW140 SCT200 BKN250 22/19 A3008 RMK AO2 SLP178 T02220189 10222 20200 52010=
201606021052 METAR KATL 021052Z 07004KT 10SM FEW140 BKN200 BKN250 21/18 A3007 RMK AO2 SLP175 T02110183=
201606020952 METAR KATL 020952Z 10003KT 10SM FEW140 BKN200 BKN250 21/18 A3006 RMK AO2 SLP171 T02110183=
201606020852 METAR KATL 020852Z 00000KT 10SM FEW065 SCT140 BKN200 BKN250 21/18 A3005 RMK AO2 SLP167 T02060183 53005=
201606020752 METAR KATL 020752Z 00000KT 10SM FEW070 SCT150 BKN200 BKN250 21/18 A3004 RMK AO2 SLP162 T02060178=
201606020652 METAR KATL 020652Z 00000KT 10SM FEW070 BKN150 BKN200 BKN250 21/18 A3004 RMK AO2 SLP161 T02110183=
201606020552 METAR KATL 020552Z 18004KT 10SM FEW120 BKN150 OVC200 22/18 A3004 RMK AO2 SLP161 T02170178 10256 20217 58009=
201606020452 METAR KATL 020452Z 16003KT 10SM SCT150 BKN200 OVC250 22/18 A3005 RMK AO2 SLP164 T02220178 403330217=
201606020352 METAR KATL 020352Z 10005KT 10SM FEW120 SCT200 OVC250 22/18 A3006 RMK AO2 SLP167 T02220178=
201606020252 METAR KATL 020252Z 09009KT 10SM SCT120 BKN200 OVC250 23/18 A3007 RMK AO2 SLP170 T02330178 53019=
201606020152 METAR KATL 020152Z 09011KT 10SM FEW080 BKN120 BKN200 OVC250 24/18 A3005 RMK AO2 SLP166 T02440178=
201606020052 METAR KATL 020052Z 08009KT 10SM FEW070 BKN120 BKN200 OVC250 25/18 A3002 RMK AO2 SLP156 T02500183=
201606012352 METAR KATL 012352Z 07003KT 10SM FEW070 BKN120 BKN150 OVC250 25/18 A3001 RMK AO2 RAB2257E18 SLP153 P0000 60000 T02500183 10333 20233 51013=
201606012252 METAR KATL 012252Z 22007KT 10SM FEW040 SCT070 BKN140 BKN200 23/19 A2999 RMK AO2 RAB25E52 SLP147 CB DSNT NE-SE P0000 T02330189=
201606012152 METAR KATL 012152Z 20007KT 10SM FEW040 SCT070 BKN140 BKN200 27/17 A3000 RMK AO2 SLP148 OCNL LTG DSNT N-NE & NW CB DSNT N-E-SE & NW T02670167=
201606012052 METAR KATL 012052Z 23009G17KT 10SM FEW040 SCT070 BKN100 BKN250 27/18 A2997 RMK AO2 SLP139 CB DSNT N & E & SE-SW SHRA DSNT SE-SW 60000 T02720178 56015=
201606011952 METAR KATL 011952Z 09007KT 10SM BKN065 BKN100 33/17 A2998 RMK AO2 RAB1856E40 SLP139 CB DSNT SW TCU DSNT NE SHRA DSNT SW P0000 T03280167=
201606011915 SPECI KATL 011915Z 19006KT 10SM -RA BKN060CB BKN085 32/17 A2999 RMK AO2 RAB1856 CB E-OHD-W MOV SE TCU DSNT NE P0000 T03170172=
201606011852 METAR KATL 011852Z 14004KT 10SM BKN060TCU BKN100 32/17 A2999 RMK AO2 SLP144 CB DSNT SE & SW TCU E-OHD-W TCU DSNT NE & NW T03170167=
201606011752 METAR KATL 011752Z VRB04KT 10SM BKN060TCU BKN150 32/17 A3002 RMK AO2 SLP152 CB DSNT E & SW TCU SE-SW & SW-NW MDT CU N-NE T03170172 10322 20228 58008=
201606011652 METAR KATL 011652Z 14005KT 10SM FEW060 FEW250 32/18 A3003 RMK AO2 SLP158 TCU DSNT E & SW T03170178=
201606011552 METAR KATL 011552Z 08006KT 10SM FEW150 FEW250 30/20 A3004 RMK AO2 SLP161 T03000200=
201606011452 METAR KATL 011452Z VRB06KT 10SM FEW250 28/20 A3004 RMK AO2 SLP161 T02830200 51008=
201606011352 METAR KATL 011352Z 10005KT 10SM FEW150 FEW250 26/19 A3004 RMK AO2 SLP161 T02560189=
201606011252 METAR KATL 011252Z 08008KT 10SM FEW120 24/18 A3003 RMK AO2 SLP158 T02440183=
