##########################################################
# Query made at 04/19/2024 23:55:14 UTC
# Time interval: from 08/01/2017 12:00  to 08/31/2017 12:59  UTC
##########################################################

##########################################################
# KATL, Atlanta, Hartsfield - Jackson Atlanta International Airport (United States)
# WMO index: 72219. WIGOS ID: 0-20000-0-72219
# Latitude 33-38-59N. Longitude 084-25-00W. Altitude 312 m.
##########################################################

201708311252 METAR KATL 311252Z 10005KT 1/2SM R09R/5000VP6000FT -RA BR OVC002 21/21 A3007 RMK AO2 SFC VIS 3/4 LTG DSNT NE DZE49RAB49 SLP174 CB DSNT NE P0001 T02110211=
201708311152 METAR KATL 311152Z 11007KT 1/2SM R09R/P6000FT -DZ BR BKN003 OVC012CB 21/21 A3006 RMK AO2 SFC VIS 6 RAE50DZB50 SLP171 CIG 002V004 CB N-NE MOV NE TWRINC P0017 60043 70097 T02110206 10211 20206 51005=
201708311133 SPECI KATL 311133Z 10005KT 1/2SM R09R/P6000FT -RA BR OVC003 21/21 A3006 RMK AO2 SFC VIS 3 CIG 002V004 TWRINC P0003 T02110206=
201708311052 METAR KATL 311052Z 11006KT 3/4SM R09R/P6000FT -RA OVC004 21/21 A3006 RMK AO2 SFC VIS 8 RAE0959B46 SLP170 CIG 003V005 TWRINC P0000 T02110206=
201708311047 SPECI KATL 311047Z 11009KT 3/4SM R09R/P6000FT -RA OVC003 21/21 A3006 RMK AO2 SFC VIS 8 RAE0959B46 CIG 002V004 TWRINC P0000=
201708311040 SPECI KATL 311040Z 13006KT 1SM R09R/P6000FT OVC003 21/21 A3005 RMK AO2 SFC VIS 8 RAE0959 CIG 002V004 CB DSNT S TWRINC P0000 T02110206=
201708311030 SPECI KATL 311030Z 10007KT 1 1/2SM OVC004 21/21 A3005 RMK AO2 SFC VIS 8 LTG DSNT S RAE0959 CIG 003V005 CB DSNT S TWRINC P0000 T02110206=
201708311029 SPECI KATL 311029Z 11007KT 1SM R09R/P6000FT OVC004 21/21 A3005 RMK AO2 SFC VIS 8 LTG DSNT S RAE0959 CIG 003V005 CB DSNT S TWRINC P0000 T02110206=
201708310952 METAR KATL 310952Z 09008KT 1 1/2SM -RA OVC004 21/21 A3004 RMK AO2 SFC VIS 8 SLP166 CIG 003V006 TWRINC P0018 T02060206=
201708310852 METAR KATL 310852Z 11006KT 3SM RA BR OVC004 21/20 A3005 RMK AO2 LTG DSNT W SLP169 CIG 003V006 CB DSNT W P0005 60008 T02060200 55006=
201708310803 SPECI KATL 310803Z 11006KT 4SM -RA BR OVC004 21/20 A3005 RMK AO2 CIG 003V005 P0000 T02060200=
201708310752 METAR KATL 310752Z 13004KT 5SM -RA BR OVC005CB 21/20 A3005 RMK AO2 RAB22 SLP168 CIG 004V006 CB NW MOV NE P0003 T02060200=
201708310652 METAR KATL 310652Z 11005KT 9SM FEW004 OVC008 21/20 A3006 RMK AO2 SLP174 CIG 007V010 T02060200=
201708310552 METAR KATL 310552Z 10006KT 9SM BKN007 OVC012 21/20 A3007 RMK AO2 RAE50 SLP176 CIG 005V009 P0000 60009 T02060200 10211 20206 58008=
201708310507 SPECI KATL 310507Z 09006KT 10SM -RA BKN007 OVC016 21/20 A3008 RMK AO2 CIG 005V009 P0000 T02060200=
201708310452 METAR KATL 310452Z 11005KT 10SM -RA SCT007 BKN012 BKN060 OVC150 21/20 A3008 RMK AO2 SLP179 P0000 T02060200 402330206=
201708310352 METAR KATL 310352Z 11007KT 7SM -RA SCT007 BKN012 OVC060 21/20 A3009 RMK AO2 SLP182 P0008 T02060200=
201708310252 METAR KATL 310252Z 12007KT 7SM -RA BKN007 BKN012 OVC060 21/20 A3010 RMK AO2 SLP183 P0001 60001 T02110200 53014=
201708310233 SPECI KATL 310233Z 12005KT 10SM -RA BKN007 BKN060 OVC150 21/20 A3009 RMK AO2 P0000 T02110200=
201708310152 METAR KATL 310152Z 12008KT 10SM -RA FEW007 SCT060 BKN090 OVC150 21/19 A3008 RMK AO2 RAE09B51 SLP177 P0000 T02110194=
201708310052 METAR KATL 310052Z 12008KT 10SM -RA FEW007 SCT050 BKN080 OVC150 21/19 A3007 RMK AO2 SLP175 P0000 T02110194=
201708302352 METAR KATL 302352Z 09009KT 10SM -RA FEW008 SCT090 BKN140 OVC200 21/20 A3005 RMK AO2 RAB28 SLP170 P0000 60022 T02110200 10217 20211 58001=
201708302307 SPECI KATL 302307Z 11007KT 10SM FEW009 SCT014 BKN050 OVC150 22/19 A3007 RMK AO2 SCT014 V BKN T02170194=
201708302252 METAR KATL 302252Z 12006KT 10SM SCT009 BKN014 BKN050 OVC150 22/20 A3007 RMK AO2 RAE02 SLP173 P0000 T02170200=
201708302152 METAR KATL 302152Z 11008KT 8SM -RA SCT008 BKN014 BKN050 OVC150 22/20 A3006 RMK AO2 SLP170 P0000 T02170200=
201708302052 METAR KATL 302052Z 12008KT 6SM -RA BR BKN010 BKN050 OVC110 22/21 A3006 RMK AO2 RAB11 SLP170 P0001 60022 T02170206 58019=
201708302017 SPECI KATL 302017Z 09011KT 10SM -RA BKN010 BKN050 OVC090 22/21 A3006 RMK AO2 RAB11 P0000 T02170206=
201708301952 METAR KATL 301952Z 12005KT 10SM BKN009 BKN030 OVC070 22/21 A3007 RMK AO2 RAE40 SLP176 P0002 T02170206=
201708301852 METAR KATL 301852Z 12006KT 5SM -RA BR FEW007 BKN045 OVC075 22/21 A3010 RMK AO2 SLP185 P0019 T02170206=
201708301752 METAR KATL 301752Z 17004KT 4SM RA BR SCT005 BKN012 OVC050 22/21 A3011 RMK AO2 SLP189 P0019 60023 T02170206 10233 20217 53009=
201708301652 METAR KATL 301652Z 11005KT 4SM RA BR SCT016 BKN050 OVC080 22/21 A3010 RMK AO2 SLP184 P0004 T02220206=
201708301635 SPECI KATL 301635Z 12006KT 4SM -RA BR BKN016 BKN050 OVC070 22/20 A3010 RMK AO2 P0000 T02220200=
201708301552 METAR KATL 301552Z 13007KT 10SM -RA FEW015 BKN045 OVC070 23/20 A3009 RMK AO2 RAB41 SLP182 P0000 T02280200=
201708301452 METAR KATL 301452Z 09010KT 10SM FEW015 SCT040 OVC070 23/19 A3009 RMK AO2 SLP179 T02280189 51009=
201708301352 METAR KATL 301352Z 09008KT 10SM FEW013 SCT040 BKN080 OVC150 23/19 A3008 RMK AO2 SLP177 T02280194=
201708301252 METAR KATL 301252Z 09010KT 10SM FEW012 SCT038 BKN085 OVC130 22/19 A3007 RMK AO2 SLP174 VIRGA NE T02220189=
201708301152 METAR KATL 301152Z 12006KT 10SM FEW035 SCT065 OVC080 22/18 A3006 RMK AO2 SLP169 VIRGA E-OHD-SW T02220183 10228 20222 53012=
201708301052 METAR KATL 301052Z 12006KT 10SM FEW035 BKN060 BKN100 OVC150 22/18 A3004 RMK AO2 SLP162 T02220183=
201708300952 METAR KATL 300952Z 00000KT 10SM FEW035 SCT065 BKN100 OVC150 22/19 A3003 RMK AO2 SLP159 T02220189=
201708300852 METAR KATL 300852Z 12005KT 10SM FEW035 SCT095 BKN150 22/19 A3002 RMK AO2 SLP155 T02220189 53001=
201708300752 METAR KATL 300752Z 13003KT 10SM FEW035 FEW095 BKN150 BKN250 22/19 A3002 RMK AO2 SLP156 T02220189=
201708300652 METAR KATL 300652Z 14005KT 10SM FEW035 SCT110 BKN150 BKN250 22/19 A3002 RMK AO2 SLP155 T02220194=
201708300552 METAR KATL 300552Z 15004KT 10SM FEW035 BKN110 BKN150 BKN200 BKN250 23/19 A3002 RMK AO2 SLP155 60000 T02280189 10261 20228 58001=
201708300452 METAR KATL 300452Z 13003KT 10SM FEW110 BKN150 BKN200 23/19 A3003 RMK AO2 SLP159 T02280189 402890206=
201708300352 METAR KATL 300352Z 11008KT 10SM SCT110 BKN150 BKN200 23/19 A3003 RMK AO2 SLP159 T02330194=
201708300252 METAR KATL 300252Z 12006KT 10SM SCT100 BKN150 OVC200 24/19 A3002 RMK AO2 RAE46 SLP157 SHRA NE-E P0000 60000 T02390194 53006=
201708300152 METAR KATL 300152Z 13005KT 10SM -RA BKN100 OVC150 25/19 A3000 RMK AO2 RAE17B47 SLP151 PCPN VRY LGT P0000 T02500189=
201708300052 METAR KATL 300052Z 14005KT 10SM -RA BKN110 BKN150 OVC200 26/18 A3000 RMK AO2 RAB51 SLP151 PCPN VRY LGT P0000 T02560183=
201708292352 METAR KATL 292352Z 15005KT 10SM SCT140 BKN200 OVC250 26/18 A3000 RMK AO2 SLP151 VIRGA VC S-SW T02610178 10289 20261 51006=
201708292252 METAR KATL 292252Z 16008KT 10SM FEW045 SCT150 BKN200 OVC250 27/18 A3000 RMK AO2 SLP151 T02670178=
201708292152 METAR KATL 292152Z 14006KT 10SM FEW045 SCT200 BKN250 27/17 A3000 RMK AO2 SLP148 T02720172=
201708292052 METAR KATL 292052Z 11004KT 10SM FEW047 SCT150 BKN250 28/17 A2998 RMK AO2 SLP144 T02780167 56008=
201708291952 METAR KATL 291952Z 05006KT 10SM FEW045 SCT150 BKN250 28/17 A2999 RMK AO2 SLP145 T02780167=
201708291852 METAR KATL 291852Z 05005KT 10SM FEW040 SCT050 BKN150 BKN250 27/16 A3000 RMK AO2 SLP149 T02670161=
201708291752 METAR KATL 291752Z VRB04KT 10SM SCT030 BKN040 BKN250 27/18 A3001 RMK AO2 SLP152 T02670178 10272 20206 58010=
201708291652 METAR KATL 291652Z 06004KT 10SM BKN030 BKN250 25/18 A3002 RMK AO2 SLP157 T02500178=
201708291637 SPECI KATL 291637Z 07007KT 10SM BKN030 BKN250 25/18 A3003 RMK AO2 T02500178=
201708291552 METAR KATL 291552Z 08003KT 10SM BKN025 BKN040 BKN250 25/18 A3004 RMK AO2 SLP162 T02500178=
201708291522 SPECI KATL 291522Z 06005KT 10SM FEW025 SCT040 BKN250 24/17 A3003 RMK AO2 T02390172=
201708291452 METAR KATL 291452Z 07006KT 10SM BKN025 BKN040 BKN250 23/17 A3004 RMK AO2 SLP163 T02330167 53010=
201708291352 METAR KATL 291352Z 06008KT 10SM BKN030 BKN100 BKN250 22/16 A3002 RMK AO2 SLP157 T02220161=
201708291252 METAR KATL 291252Z 05010KT 10SM FEW030 SCT095 BKN250 22/16 A3001 RMK AO2 SLP154 T02170156=
201708291152 METAR KATL 291152Z 06007KT 10SM FEW030 BKN095 BKN150 BKN250 21/16 A3001 RMK AO2 SLP152 T02060156 10217 20206 53014=
201708291120 SPECI KATL 291120Z 06009KT 10SM FEW030 BKN100 BKN150 21/15 A2999 RMK AO2 T02060150=
201708291052 METAR KATL 291052Z 07008KT 10SM BKN030 BKN100 BKN140 21/15 A2999 RMK AO2 SLP147 T02060150=
201708291049 SPECI KATL 291049Z 06007KT 10SM BKN030 BKN100 BKN140 21/15 A2999 RMK AO2=
201708291021 SPECI KATL 291021Z 03009KT 10SM BKN029 BKN100 BKN140 21/15 A2998 RMK AO2 T02060150=
201708290952 METAR KATL 290952Z 06007KT 10SM FEW027 SCT100 BKN140 21/15 A2996 RMK AO2 SLP137 T02060150=
201708290852 METAR KATL 290852Z 04007KT 10SM FEW030 BKN100 21/15 A2996 RMK AO2 SLP137 T02110150 58008=
201708290752 METAR KATL 290752Z 05009KT 10SM OVC110 21/15 A2997 RMK AO2 SLP141 T02110150=
201708290652 METAR KATL 290652Z 06010KT 10SM BKN120 OVC200 21/15 A2998 RMK AO2 SLP143 T02110150=
201708290552 METAR KATL 290552Z 07012KT 10SM BKN150 OVC200 22/15 A2999 RMK AO2 SLP146 T02170150 10244 20217 56006=
201708290452 METAR KATL 290452Z 07010KT 10SM BKN150 OVC250 22/15 A3000 RMK AO2 SLP150 T02170150 402670206=
201708290352 METAR KATL 290352Z 07009KT 10SM BKN150 BKN200 OVC250 22/14 A2999 RMK AO2 SLP148 T02170144=
201708290252 METAR KATL 290252Z 05011G18KT 10SM BKN150 BKN200 OVC250 22/14 A3001 RMK AO2 SLP154 T02220139 53006=
201708290152 METAR KATL 290152Z 05013KT 10SM FEW110 SCT150 BKN200 OVC250 23/14 A3000 RMK AO2 SLP151 T02280139=
201708290052 METAR KATL 290052Z 04013KT 10SM BKN120 BKN150 OVC200 23/13 A2999 RMK AO2 SLP147 VIRGA OHD-N T02330133=
201708282352 METAR KATL 282352Z 05011KT 10SM SCT140 BKN200 OVC250 24/13 A2999 RMK AO2 SLP147 T02440133 10267 20239 55000=
201708282252 METAR KATL 282252Z 04011KT 10SM FEW150 SCT200 BKN250 25/13 A2999 RMK AO2 SLP146 T02500133=
201708282152 METAR KATL 282152Z 03014G20KT 10SM FEW200 BKN250 26/13 A2998 RMK AO2 SLP144 T02610128=
201708282052 METAR KATL 282052Z 04012G20KT 10SM FEW180 BKN250 26/13 A2999 RMK AO2 SLP146 T02610133 58012=
201708281952 METAR KATL 281952Z 07011KT 10SM SCT150 BKN180 BKN250 26/13 A3001 RMK AO2 SLP152 T02560128=
201708281852 METAR KATL 281852Z 07013KT 10SM OVC150 24/13 A3002 RMK AO2 SLP157 T02440133=
201708281752 METAR KATL 281752Z 08016G23KT 10SM BKN160 24/13 A3002 RMK AO2 SLP158 T02390133 10239 20206 58008=
201708281652 METAR KATL 281652Z 07017KT 10SM BKN150 BKN180 BKN200 23/13 A3004 RMK AO2 SLP162 T02280133=
201708281552 METAR KATL 281552Z 08015G23KT 10SM FEW150 BKN170 BKN200 22/14 A3004 RMK AO2 SLP164 T02220139=
201708281452 METAR KATL 281452Z 08017KT 10SM FEW120 BKN170 BKN200 21/13 A3005 RMK AO2 PK WND 07026/1409 SLP166 T02110133 50000=
201708281352 METAR KATL 281352Z 07018G22KT 10SM FEW120 BKN170 BKN250 21/13 A3006 RMK AO2 SLP170 T02110133=
201708281252 METAR KATL 281252Z 07017KT 10SM FEW120 SCT150 BKN180 OVC250 21/13 A3005 RMK AO2 SLP168 T02110133=
201708281152 METAR KATL 281152Z 07014KT 10SM FEW150 BKN180 BKN250 21/13 A3005 RMK AO2 SLP166 T02060133 10222 20206 51009=
201708281052 METAR KATL 281052Z 07012KT 10SM FEW150 BKN180 BKN250 21/14 A3004 RMK AO2 SLP162 T02060144=
201708280952 METAR KATL 280952Z 08012KT 10SM BKN180 BKN250 21/15 A3003 RMK AO2 SLP160 T02060150=
201708280852 METAR KATL 280852Z 07010KT 10SM BKN180 BKN250 21/16 A3002 RMK AO2 SLP156 T02110156 56008=
201708280752 METAR KATL 280752Z 08011KT 10SM BKN180 BKN250 21/16 A3002 RMK AO2 SLP158 T02110156=
201708280652 METAR KATL 280652Z 08010KT 10SM BKN180 BKN250 22/16 A3003 RMK AO2 SLP159 T02170161=
201708280552 METAR KATL 280552Z 08010KT 10SM FEW150 SCT180 SCT250 22/16 A3004 RMK AO2 SLP163 T02220161 10261 20222 56002=
201708280452 METAR KATL 280452Z 06011KT 10SM FEW150 BKN180 BKN250 23/17 A3004 RMK AO2 SLP164 T02330167 402940222=
201708280352 METAR KATL 280352Z 06009KT 10SM FEW150 BKN180 BKN250 24/17 A3005 RMK AO2 SLP164 T02440167=
201708280252 METAR KATL 280252Z 07008KT 10SM FEW150 BKN180 BKN250 25/17 A3005 RMK AO2 SLP165 T02500167 53007=
201708280152 METAR KATL 280152Z 06010KT 10SM FEW150 BKN180 BKN250 26/17 A3004 RMK AO2 SLP162 T02610167=
201708280052 METAR KATL 280052Z 08007KT 10SM FEW150 BKN200 OVC250 26/17 A3003 RMK AO2 SLP160 T02560172=
201708272352 METAR KATL 272352Z 10008KT 10SM FEW150 BKN200 OVC250 26/17 A3003 RMK AO2 SLP158 T02610172 10294 20261 58002=
201708272252 METAR KATL 272252Z 10006KT 10SM FEW050 SCT150 BKN200 BKN250 27/17 A3003 RMK AO2 SLP159 T02720172=
201708272152 METAR KATL 272152Z 11008KT 10SM FEW050 BKN200 BKN250 28/17 A3003 RMK AO2 SLP159 T02780172=
201708272052 METAR KATL 272052Z 09013KT 10SM FEW045 FEW150 SCT210 BKN250 28/17 A3003 RMK AO2 SLP160 T02780167 58015=
201708271952 METAR KATL 271952Z 06012G17KT 10SM FEW045 SCT150 BKN250 28/17 A3005 RMK AO2 SLP166 T02780172=
201708271852 METAR KATL 271852Z 05014KT 10SM SCT045 SCT180 BKN250 28/17 A3006 RMK AO2 SLP169 T02780167=
201708271752 METAR KATL 271752Z 10009G19KT 10SM SCT045 SCT150 SCT180 BKN250 29/17 A3008 RMK AO2 SLP174 T02890172 10289 20222 58013=
201708271652 METAR KATL 271652Z 08010G19KT 10SM SCT035 SCT150 BKN180 BKN250 27/17 A3009 RMK AO2 SLP180 T02670172=
201708271552 METAR KATL 271552Z 07014KT 10SM SCT032 BKN180 BKN250 27/18 A3011 RMK AO2 SLP185 T02720183=
201708271452 METAR KATL 271452Z 09011KT 10SM SCT025 SCT200 BKN250 26/19 A3012 RMK AO2 SLP187 T02610189 50008=
201708271352 METAR KATL 271352Z 07013KT 10SM SCT015 SCT150 SCT200 BKN250 25/20 A3012 RMK AO2 SLP189 T02500200=
201708271252 METAR KATL 271252Z 07012KT 10SM FEW080 SCT120 SCT200 BKN250 23/19 A3011 RMK AO2 SLP185 T02280194=
201708271152 METAR KATL 271152Z 07009KT 10SM FEW120 SCT180 BKN220 22/19 A3009 RMK AO2 SLP180 T02220189 10244 20222 53009=
201708271052 METAR KATL 271052Z 06008KT 10SM FEW100 SCT200 BKN250 22/19 A3008 RMK AO2 SLP174 T02220189=
201708270952 METAR KATL 270952Z 06007KT 10SM FEW100 SCT200 BKN250 23/19 A3007 RMK AO2 SLP174 T02280189=
201708270852 METAR KATL 270852Z 08006KT 10SM FEW100 SCT200 BKN250 22/19 A3006 RMK AO2 SLP170 T02220194 56009=
201708270752 METAR KATL 270752Z 08006KT 10SM FEW100 BKN200 23/19 A3007 RMK AO2 SLP170 T02280194=
201708270652 METAR KATL 270652Z 08006KT 10SM FEW200 23/19 A3008 RMK AO2 SLP175 T02280194=
201708270552 METAR KATL 270552Z 07008KT 10SM SCT180 BKN250 24/19 A3009 RMK AO2 SLP179 T02440194 10272 20244 58004=
201708270452 METAR KATL 270452Z 07007KT 10SM SCT180 BKN250 26/20 A3010 RMK AO2 SLP181 T02560200 402940222=
201708270352 METAR KATL 270352Z 06005KT 10SM FEW110 SCT180 BKN250 26/20 A3011 RMK AO2 SLP186 T02610200=
201708270252 METAR KATL 270252Z 10005KT 10SM FEW085 SCT110 BKN180 BKN250 26/20 A3010 RMK AO2 SLP183 T02610200 51008=
201708270152 METAR KATL 270152Z 09005KT 10SM SCT140 BKN200 BKN250 26/20 A3010 RMK AO2 SLP182 T02560200=
201708270052 METAR KATL 270052Z 07007KT 10SM SCT140 BKN200 BKN250 27/20 A3009 RMK AO2 SLP179 T02670200=
201708262352 METAR KATL 262352Z 10005KT 10SM FEW034 SCT120 BKN180 BKN250 27/20 A3008 RMK AO2 SLP175 CB DSNT NE & NW T02720200 10294 20272 56002=
201708262252 METAR KATL 262252Z 12005KT 10SM FEW038 BKN180 BKN250 28/20 A3008 RMK AO2 SLP176 CB DSNT N & NW T02830200=
201708262152 METAR KATL 262152Z 11007KT 10SM FEW040 BKN180 BKN250 28/19 A3008 RMK AO2 SLP175 CB DSNT N TCU DSNT NW T02830194=
201708262052 METAR KATL 262052Z 12006KT 10SM SCT038 BKN150 OVC250 28/19 A3008 RMK AO2 SLP177 CB DSNT N BINOVC T02830194 56012=
201708261952 METAR KATL 261952Z 11008KT 10SM SCT035 BKN200 BKN250 29/19 A3009 RMK AO2 SLP180 T02890194=
201708261852 METAR KATL 261852Z VRB06G14KT 10SM FEW035 BKN200 BKN250 29/20 A3010 RMK AO2 SLP183 T02890200=
201708261752 METAR KATL 261752Z 11008KT 10SM SCT032 BKN250 28/20 A3012 RMK AO2 SLP189 T02780200 10283 20222 58008=
201708261652 METAR KATL 261652Z 07009KT 10SM SCT032 BKN200 BKN300 28/20 A3013 RMK AO2 SLP193 T02780200=
201708261552 METAR KATL 261552Z 08010KT 10SM SCT025 SCT110 BKN200 BKN300 27/21 A3014 RMK AO2 SLP195 T02720206=
201708261452 METAR KATL 261452Z 09009KT 10SM FEW025 BKN250 26/20 A3014 RMK AO2 SLP198 T02610200 50004=
201708261352 METAR KATL 261352Z 07009KT 10SM FEW020 SCT200 BKN250 25/20 A3014 RMK AO2 SLP198 T02500200=
201708261252 METAR KATL 261252Z 08010KT 10SM FEW011 SCT200 BKN250 23/21 A3014 RMK AO2 SLP196 T02330206=
201708261152 METAR KATL 261152Z 06009KT 10SM FEW150 BKN250 22/20 A3013 RMK AO2 SLP193 T02220200 10239 20222 53007=
201708261052 METAR KATL 261052Z 04011KT 10SM FEW032 BKN250 22/21 A3012 RMK AO2 SLP189 T02220206=
201708260952 METAR KATL 260952Z 06009KT 10SM FEW032 BKN250 23/21 A3012 RMK AO2 SLP187 T02280206=
201708260852 METAR KATL 260852Z 07009KT 10SM BKN032 BKN250 23/21 A3011 RMK AO2 SLP185 T02280211 55000=
201708260752 METAR KATL 260752Z 09008KT 10SM FEW028 BKN250 23/21 A3010 RMK AO2 SLP184 T02280211=
201708260652 METAR KATL 260652Z 08009KT 10SM SCT028 SCT043 BKN250 23/21 A3010 RMK AO2 SLP183 T02330206=
201708260552 METAR KATL 260552Z 09010KT 10SM FEW019 BKN032 BKN045 BKN250 24/21 A3011 RMK AO2 SLP186 T02390206 10278 20239 53003=
201708260452 METAR KATL 260452Z 06008KT 10SM SCT035 BKN250 25/21 A3010 RMK AO2 SLP182 T02500206 403000222=
201708260352 METAR KATL 260352Z 09007KT 10SM BKN250 24/21 A3010 RMK AO2 SLP183 T02440206=
201708260252 METAR KATL 260252Z 09009KT 10SM BKN250 25/21 A3010 RMK AO2 SLP183 T02500206 53011=
201708260152 METAR KATL 260152Z 09008KT 10SM BKN250 26/21 A3009 RMK AO2 SLP179 T02560206=
201708260052 METAR KATL 260052Z 08010KT 10SM BKN250 27/20 A3007 RMK AO2 SLP171 T02720200=
201708252352 METAR KATL 252352Z 05009KT 10SM FEW035 BKN250 28/19 A3007 RMK AO2 SLP171 T02780194 10300 20267 53004=
201708252252 METAR KATL 252252Z 07008KT 10SM FEW035 BKN250 29/19 A3006 RMK AO2 SLP166 T02890194=
201708252152 METAR KATL 252152Z 09009KT 10SM FEW035 BKN250 29/21 A3005 RMK AO2 SLP165 T02940206=
201708252052 METAR KATL 252052Z 10008KT 10SM SCT035 BKN250 29/21 A3005 RMK AO2 SLP166 MDT CU N & NE & W-NW T02940211 56010=
201708251952 METAR KATL 251952Z 09007KT 070V150 10SM SCT030 BKN250 28/21 A3006 RMK AO2 SLP169 T02830206=
201708251852 METAR KATL 251852Z 08008KT 10SM BKN030 BKN045 BKN100 BKN250 28/21 A3007 RMK AO2 SLP173 T02780211=
201708251844 SPECI KATL 251844Z 09008KT 10SM BKN030 BKN045 BKN250 27/21 A3007 RMK AO2 T02720211=
201708251752 METAR KATL 251752Z 11008KT 10SM BKN026 BKN040 BKN250 27/21 A3008 RMK AO2 SLP177 T02670206 10278 20228 55001=
201708251652 METAR KATL 251652Z 09010G15KT 10SM BKN023 BKN200 BKN250 27/21 A3008 RMK AO2 SLP176 T02670206=
201708251552 METAR KATL 251552Z 10012KT 10SM BKN022 BKN200 BKN250 27/21 A3009 RMK AO2 SLP178 T02720206=
201708251452 METAR KATL 251452Z 09010KT 10SM FEW024 SCT200 BKN250 26/21 A3008 RMK AO2 SLP176 T02610206 51016=
201708251352 METAR KATL 251352Z 09012KT 10SM FEW022 SCT200 BKN250 25/20 A3006 RMK AO2 SLP169 T02500200=
201708251252 METAR KATL 251252Z 06011KT 10SM FEW120 BKN200 BKN250 23/19 A3005 RMK AO2 SLP167 ACC DSNT N T02330194=
201708251152 METAR KATL 251152Z 07009KT 10SM SCT200 BKN250 23/19 A3003 RMK AO2 SLP158 T02280194 10239 20222 53014=
201708251052 METAR KATL 251052Z 05011KT 10SM FEW200 SCT250 23/20 A3001 RMK AO2 SLP153 T02280200=
201708250952 METAR KATL 250952Z 06008KT 10SM SCT250 23/20 A3000 RMK AO2 SLP146 T02280200=
201708250852 METAR KATL 250852Z 04008KT 10SM FEW250 23/19 A2999 RMK AO2 SLP144 T02280189 53006=
201708250752 METAR KATL 250752Z 05006KT 10SM FEW250 23/18 A2998 RMK AO2 SLP140 T02330183=
201708250652 METAR KATL 250652Z 34005KT 10SM FEW250 23/17 A2998 RMK AO2 SLP139 T02280167=
201708250552 METAR KATL 250552Z 01005KT 10SM FEW250 23/16 A2997 RMK AO2 SLP138 T02330156 10289 20228 50002=
201708250452 METAR KATL 250452Z 34005KT 10SM FEW250 23/16 A2997 RMK AO2 SLP139 T02330156 403170194=
201708250352 METAR KATL 250352Z 33005KT 10SM FEW250 24/16 A2997 RMK AO2 SLP139 T02390156=
201708250252 METAR KATL 250252Z 34005KT 10SM FEW250 25/16 A2997 RMK AO2 SLP137 T02500156 51019=
201708250152 METAR KATL 250152Z 33006KT 10SM FEW060 27/16 A2995 RMK AO2 SLP131 T02670156=
201708250052 METAR KATL 250052Z 35008KT 10SM FEW060 28/17 A2993 RMK AO2 SLP125 T02780172=
201708242352 METAR KATL 242352Z 33010KT 10SM SCT060 29/17 A2991 RMK AO2 SLP117 T02940172 10317 20294 55002=
201708242252 METAR KATL 242252Z 34006KT 10SM SCT065 31/16 A2990 RMK AO2 SLP113 T03060156=
201708242152 METAR KATL 242152Z 34007KT 300V020 10SM FEW070 31/15 A2990 RMK AO2 SLP115 T03110150=
201708242052 METAR KATL 242052Z 35006KT 10SM FEW070 FEW150 31/15 A2991 RMK AO2 SLP119 T03110150 58009=
201708241952 METAR KATL 241952Z VRB06KT 10SM FEW070 FEW150 32/13 A2993 RMK AO2 SLP123 T03170133=
201708241852 METAR KATL 241852Z 03011KT 10SM FEW060 FEW150 31/14 A2994 RMK AO2 SLP126 T03110144=
201708241752 METAR KATL 241752Z 36008KT 10SM FEW060 FEW150 29/15 A2994 RMK AO2 SLP128 T02940150 10294 20200 58009=
201708241652 METAR KATL 241652Z 35008KT 10SM FEW050 FEW150 29/16 A2996 RMK AO2 SLP134 T02890161=
201708241552 METAR KATL 241552Z VRB06KT 10SM FEW040 FEW150 SCT250 28/18 A2997 RMK AO2 SLP138 T02830178=
201708241452 METAR KATL 241452Z 34008KT 10SM FEW010 FEW150 SCT250 26/17 A2997 RMK AO2 SLP138 FU FEW010 ACC DSNT SE-SW T02610172 53013=
201708241352 METAR KATL 241352Z 30006KT 10SM FEW005 FEW150 24/18 A2995 RMK AO2 SLP132 FU FEW005 T02390178=
201708241252 METAR KATL 241252Z 29009KT 10SM SCT180 SCT250 22/17 A2994 RMK AO2 SLP130 T02170167=
201708241152 METAR KATL 241152Z 31008KT 10SM FEW180 SCT250 20/17 A2993 RMK AO2 SLP125 T02000167 10228 20194 50002=
201708241052 METAR KATL 241052Z 31006KT 10SM FEW055 FEW180 SCT250 19/17 A2993 RMK AO2 SLP126 T01940167=
201708240952 METAR KATL 240952Z 31007KT 10SM FEW180 FEW250 21/17 A2993 RMK AO2 SLP123 T02060167=
201708240852 METAR KATL 240852Z 30005KT 10SM FEW200 SCT250 21/17 A2992 RMK AO2 SLP123 T02060167 55001=
201708240752 METAR KATL 240752Z 34006KT 10SM FEW180 SCT250 22/17 A2992 RMK AO2 SLP121 T02170167=
201708240652 METAR KATL 240652Z 32008KT 10SM FEW250 22/17 A2992 RMK AO2 SLP121 T02220172=
201708240552 METAR KATL 240552Z 32007KT 10SM FEW250 23/17 A2993 RMK AO2 SLP123 T02280172 10294 20228 58000=
201708240452 METAR KATL 240452Z 33009KT 10SM FEW250 24/18 A2993 RMK AO2 SLP124 T02390178 403220233=
201708240352 METAR KATL 240352Z 33007KT 10SM FEW250 25/19 A2993 RMK AO2 SLP124 T02500189=
201708240252 METAR KATL 240252Z 29006KT 10SM FEW250 25/19 A2993 RMK AO2 SLP123 T02500194 53012=
201708240152 METAR KATL 240152Z 31007KT 10SM FEW250 27/19 A2992 RMK AO2 SLP119 T02670189=
201708240052 METAR KATL 240052Z 32006KT 10SM FEW250 28/18 A2990 RMK AO2 SLP113 T02780183=
201708232352 METAR KATL 232352Z 30009KT 10SM FEW050 FEW250 29/18 A2989 RMK AO2 SLP111 T02940183 10322 20294 55004=
201708232252 METAR KATL 232252Z 32009KT 10SM FEW050 SCT250 31/19 A2989 RMK AO2 SLP110 T03060189=
201708232152 METAR KATL 232152Z 33007KT 10SM FEW050 SCT250 31/19 A2990 RMK AO2 SLP112 T03060189=
201708232052 METAR KATL 232052Z 35006KT 10SM FEW050 SCT250 31/18 A2991 RMK AO2 SLP114 T03060183 58021=
201708231952 METAR KATL 231952Z 28010KT 10SM SCT048 SCT250 31/19 A2993 RMK AO2 SLP123 T03060189=
201708231852 METAR KATL 231852Z 28008KT 10SM SCT050 SCT250 31/20 A2995 RMK AO2 SLP131 T03060200=
201708231752 METAR KATL 231752Z 32011G16KT 10SM SCT040 SCT250 30/21 A2997 RMK AO2 SLP136 T03000206 10311 20233 58009=
201708231652 METAR KATL 231652Z 27009KT 10SM BKN035 BKN250 30/22 A2998 RMK AO2 SLP141 T03000217=
201708231552 METAR KATL 231552Z 30008KT 10SM SCT028 SCT250 29/22 A2999 RMK AO2 SLP145 T02890217=
201708231452 METAR KATL 231452Z 31009KT 10SM SCT022 SCT250 28/22 A3000 RMK AO2 SLP145 T02830222 53003=
201708231352 METAR KATL 231352Z 27006KT 10SM FEW020 FEW250 27/22 A2999 RMK AO2 SLP145 T02670222 $=
201708231252 METAR KATL 231252Z 30009KT 9SM FEW035 FEW250 25/22 A2999 RMK AO2 SLP143 T02500217=
201708231152 METAR KATL 231152Z 28008KT 9SM FEW035 SCT250 23/22 A2999 RMK AO2 SLP143 T02330217 10256 20233 53001=
201708231052 METAR KATL 231052Z 27006KT 10SM FEW200 FEW250 24/22 A2998 RMK AO2 SLP139 T02390217=
201708230952 METAR KATL 230952Z 27005KT 10SM FEW065 FEW220 24/22 A2998 RMK AO2 SLP139 T02390217=
201708230852 METAR KATL 230852Z 26004KT 10SM FEW040 SCT065 SCT180 BKN220 24/22 A2998 RMK AO2 SLP141 T02440217 56009 $=
201708230752 METAR KATL 230752Z 00000KT 10SM FEW250 24/22 A2998 RMK AO2 SLP141 T02390222 $=
201708230652 METAR KATL 230652Z 21004KT 10SM FEW250 25/22 A2999 RMK AO2 SLP142 T02500222 $=
201708230552 METAR KATL 230552Z 23004KT 10SM FEW250 26/22 A3001 RMK AO2 SLP149 T02560222 10306 20250 58005 $=
201708230452 METAR KATL 230452Z 27006KT 10SM FEW250 25/23 A3003 RMK AO2 SLP157 T02500228 403390233 $=
201708230352 METAR KATL 230352Z 25005KT 10SM FEW250 27/22 A3003 RMK AO2 SLP156 T02670222 $=
201708230252 METAR KATL 230252Z 23006KT 10SM FEW250 27/23 A3002 RMK AO2 SLP155 T02670228 51006 $=
201708230152 METAR KATL 230152Z 21009KT 10SM FEW045 FEW250 27/23 A3002 RMK AO2 SLP153 T02720228 $=
201708230052 METAR KATL 230052Z 20009KT 10SM FEW045 FEW250 28/22 A3001 RMK AO2 SLP152 T02830222 $=
201708222352 METAR KATL 222352Z 25007KT 10SM FEW050 FEW250 31/20 A3001 RMK AO2 SLP150 T03060200 10339 20306 55006 $=
201708222252 METAR KATL 222252Z 23009KT 10SM FEW050 SCT250 32/20 A3001 RMK AO2 SLP149 TCU DSNT SE-S T03220200 $=
201708222152 METAR KATL 222152Z 21009KT 10SM FEW060 FEW250 33/19 A3002 RMK AO2 SLP153 CB DSNT SE & S T03280194 $=
201708222052 METAR KATL 222052Z 23008KT 10SM FEW060 SCT250 33/19 A3002 RMK AO2 SLP155 T03330194 56028 $=
201708221952 METAR KATL 221952Z 25007KT 10SM SCT055 SCT250 33/19 A3006 RMK AO2 SLP166 T03280189 $=
201708221852 METAR KATL 221852Z 29005KT 10SM SCT055 SCT250 33/20 A3008 RMK AO2 SLP172 T03330200 $=
201708221752 METAR KATL 221752Z 29006KT 10SM SCT048 33/20 A3011 RMK AO2 SLP184 T03280200 10328 20239 58015 $=
201708221652 METAR KATL 221652Z 28005KT 10SM SCT040 31/21 A3013 RMK AO2 SLP191 T03060206 $=
201708221552 METAR KATL 221552Z 25005KT 10SM SCT034 30/21 A3015 RMK AO2 SLP196 T03000211=
201708221452 METAR KATL 221452Z 27003KT 10SM FEW028 29/23 A3015 RMK AO2 SLP199 T02940228 51007=
201708221352 METAR KATL 221352Z 00000KT 10SM CLR 28/23 A3015 RMK AO2 SLP199 T02780228=
201708221252 METAR KATL 221252Z 00000KT 10SM CLR 26/23 A3014 RMK AO2 SLP195 T02560228=
201708221152 METAR KATL 221152Z 00000KT 10SM CLR 24/22 A3013 RMK AO2 SLP193 T02390222 10244 20233 53006=
201708221052 METAR KATL 221052Z 00000KT 10SM CLR 23/22 A3013 RMK AO2 SLP189 T02330217=
201708220952 METAR KATL 220952Z 15003KT 10SM CLR 23/22 A3012 RMK AO2 SLP186 T02330217=
201708220852 METAR KATL 220852Z 00000KT 10SM FEW045 24/22 A3012 RMK AO2 SLP186 T02390217 58017=
201708220752 METAR KATL 220752Z 00000KT 10SM CLR 24/22 A3014 RMK AO2 SLP193 T02390217 $=
201708220652 METAR KATL 220652Z 19003KT 10SM FEW045 FEW250 24/22 A3015 RMK AO2 SLP197 T02390217 $=
201708220552 METAR KATL 220552Z 19006KT 10SM FEW045 FEW250 24/22 A3017 RMK AO2 SLP204 T02440217 10306 20244 58005 $=
201708220452 METAR KATL 220452Z 17005KT 10SM FEW045 FEW250 26/22 A3019 RMK AO2 SLP211 T02560217 403330239 $=
201708220352 METAR KATL 220352Z 17008KT 10SM FEW045 FEW250 27/22 A3019 RMK AO2 SLP209 T02670217 $=
201708220252 METAR KATL 220252Z 15004KT 10SM FEW250 28/22 A3018 RMK AO2 SLP208 T02780217 51013 $=
201708220152 METAR KATL 220152Z 12004KT 10SM FEW250 29/21 A3018 RMK AO2 SLP206 T02890211 $=
201708220052 METAR KATL 220052Z 13003KT 10SM FEW045 FEW250 29/21 A3016 RMK AO2 SLP200 T02940206 $=
201708212352 METAR KATL 212352Z 12006KT 10SM FEW045 FEW250 31/20 A3014 RMK AO2 SLP195 T03060200 10328 20306 55001 $=
201708212252 METAR KATL 212252Z 14008KT 10SM FEW045 FEW250 32/19 A3014 RMK AO2 SLP194 TCU DSNT NW T03170194 $=
201708212152 METAR KATL 212152Z 15006KT 10SM FEW045 SCT060 SCT250 32/21 A3015 RMK AO2 SLP197 T03220206 $=
201708212052 METAR KATL 212052Z 11008KT 10SM SCT047 33/21 A3015 RMK AO2 SLP196 T03280206 56015 $=
201708211952 METAR KATL 211952Z 13005KT 10SM FEW050 32/21 A3015 RMK AO2 SLP197 T03220206 $=
201708211852 METAR KATL 211852Z 11008KT 10SM FEW048 SCT110 31/20 A3017 RMK AO2 SLP204 T03110200=
201708211752 METAR KATL 211752Z 08007KT 10SM SCT050 32/21 A3019 RMK AO2 SLP211 T03220206 10333 20250 58007=
201708211652 METAR KATL 211652Z 08004KT 10SM BKN046 32/21 A3021 RMK AO2 SLP217 T03170211=
201708211552 METAR KATL 211552Z 05004KT 10SM FEW040 32/21 A3021 RMK AO2 SLP217 T03170211=
201708211452 METAR KATL 211452Z 09004KT 10SM FEW150 31/22 A3021 RMK AO2 SLP219 T03060217 53009=
201708211352 METAR KATL 211352Z 05005KT 10SM FEW250 29/22 A3020 RMK AO2 SLP214 T02890222=
201708211252 METAR KATL 211252Z 06006KT 10SM FEW200 SCT250 27/22 A3020 RMK AO2 SLP214 T02670222=
201708211152 METAR KATL 211152Z 08004KT 10SM FEW250 25/22 A3019 RMK AO2 SLP210 T02500217 10267 20239 53010=
201708211052 METAR KATL 211052Z 03005KT 10SM FEW250 24/21 A3018 RMK AO2 SLP207 T02440211=
201708210952 METAR KATL 210952Z 05004KT 10SM FEW250 24/21 A3017 RMK AO2 SLP203 T02440211=
201708210852 METAR KATL 210852Z 12003KT 10SM FEW250 25/21 A3016 RMK AO2 SLP200 T02500211 50000=
201708210752 METAR KATL 210752Z 13003KT 10SM FEW250 25/21 A3016 RMK AO2 SLP200 T02500211 $=
201708210652 METAR KATL 210652Z 11005KT 10SM FEW250 26/21 A3016 RMK AO2 SLP199 T02610206 $=
201708210552 METAR KATL 210552Z 00000KT 10SM FEW250 26/21 A3015 RMK AO2 SLP198 T02610206 10311 20261 53004 $=
201708210452 METAR KATL 210452Z 11003KT 10SM FEW250 27/21 A3015 RMK AO2 SLP195 T02670206 403330228 $=
201708210352 METAR KATL 210352Z 12004KT 10SM SCT250 28/21 A3014 RMK AO2 SLP193 T02780206 $=
201708210252 METAR KATL 210252Z 12005KT 10SM FEW250 28/20 A3014 RMK AO2 SLP194 T02830200 51015 $=
201708210152 METAR KATL 210152Z 12004KT 10SM FEW250 29/19 A3013 RMK AO2 SLP190 T02940194 $=
201708210052 METAR KATL 210052Z 13004KT 10SM FEW048TCU FEW100 SCT250 30/19 A3012 RMK AO2 SLP189 TCU W T03000194 $=
201708202352 METAR KATL 202352Z 12005KT 10SM FEW055 FEW100 SCT250 31/19 A3010 RMK AO2 SLP179 TCU DSNT S MDT CU W-NW T03110194 10333 20306 53009 $=
201708202252 METAR KATL 202252Z 10007KT 10SM FEW060 FEW095 SCT200 31/18 A3007 RMK AO2 SLP173 MDT CU W-N T03110183 $=
201708202152 METAR KATL 202152Z 09008KT 10SM FEW060 SCT090 SCT200 33/19 A3007 RMK AO2 SLP170 TCU DSNT SE T03280189 $=
201708202052 METAR KATL 202052Z 10005KT 10SM FEW060 SCT100 SCT200 32/18 A3007 RMK AO2 SLP170 TCU DSNT W T03220183 58016 $=
201708201952 METAR KATL 201952Z VRB03KT 10SM BKN060 32/18 A3008 RMK AO2 SLP175 TCU DSNT W T03220183 $=
201708201852 METAR KATL 201852Z VRB03KT 10SM BKN055 32/19 A3010 RMK AO2 SLP182 T03220189 $=
201708201752 METAR KATL 201752Z 23006KT 10SM SCT055 32/19 A3012 RMK AO2 SLP187 T03220189 10333 20239 58002 $=
201708201652 METAR KATL 201652Z 09004KT 10SM FEW050 32/18 A3013 RMK AO2 SLP189 T03170183 $=
201708201552 METAR KATL 201552Z VRB03KT 10SM FEW050 31/19 A3013 RMK AO2 SLP189 T03110189 $=
201708201452 METAR KATL 201452Z 16004KT 10SM FEW040 30/19 A3012 RMK AO2 SLP189 T03000189 51012 $=
201708201352 METAR KATL 201352Z 00000KT 10SM CLR 29/19 A3012 RMK AO2 SLP188 T02940194 $=
201708201252 METAR KATL 201252Z 00000KT 10SM CLR 27/21 A3010 RMK AO2 SLP182 T02720206 $=
201708201152 METAR KATL 201152Z 00000KT 10SM FEW250 24/20 A3009 RMK AO2 SLP177 T02390200 10256 20228 51014 $=
201708201052 METAR KATL 201052Z 01003KT 10SM FEW250 23/19 A3007 RMK AO2 SLP173 T02330194 $=
201708200952 METAR KATL 200952Z 04004KT 10SM CLR 25/19 A3006 RMK AO2 SLP167 T02500189 $=
201708200852 METAR KATL 200852Z 34003KT 10SM FEW250 24/20 A3004 RMK AO2 SLP161 T02440200 53001 $=
201708200752 METAR KATL 200752Z 00000KT 10SM FEW250 23/19 A3004 RMK AO2 SLP160 T02330194 $=
201708200652 METAR KATL 200652Z 36004KT 10SM FEW250 25/19 A3004 RMK AO2 SLP159 T02500194 $=
201708200552 METAR KATL 200552Z 31004KT 10SM FEW250 25/21 A3004 RMK AO2 SLP160 T02500206 10289 20244 50001 $=
201708200452 METAR KATL 200452Z 30004KT 10SM FEW250 24/21 A3004 RMK AO2 SLP162 T02440206 403220206 $=
201708200352 METAR KATL 200352Z 29004KT 10SM FEW250 26/21 A3004 RMK AO2 SLP161 T02560206 $=
201708200252 METAR KATL 200252Z 28005KT 10SM FEW250 26/19 A3004 RMK AO2 SLP160 T02610194 51017 $=
201708200152 METAR KATL 200152Z 27004KT 10SM FEW250 27/20 A3002 RMK AO2 SLP155 T02670200 $=
201708200052 METAR KATL 200052Z 26004KT 10SM FEW250 28/20 A3000 RMK AO2 SLP149 T02830200 $=
201708192352 METAR KATL 192352Z 26005KT 10SM FEW180 FEW250 29/19 A2998 RMK AO2 SLP143 T02890194 10322 20289 53002 $=
201708192252 METAR KATL 192252Z 27006KT 10SM FEW180 SCT250 30/19 A2997 RMK AO2 SLP139 T03000189 $=
201708192152 METAR KATL 192152Z 26008KT 10SM FEW150 SCT250 32/18 A2997 RMK AO2 SLP139 T03170178 $=
201708192052 METAR KATL 192052Z 29003KT 10SM SCT150 BKN250 32/17 A2998 RMK AO2 SLP140 T03170172 58017 $=
201708191952 METAR KATL 191952Z 28005KT 10SM BKN150 BKN250 31/18 A3000 RMK AO2 SLP146 T03110178 $=
201708191852 METAR KATL 191852Z 35007KT 10SM BKN150 31/17 A3001 RMK AO2 SLP153 T03060172 $=
201708191752 METAR KATL 191752Z 32005KT 10SM SCT150 30/18 A3003 RMK AO2 SLP157 T03000183 10306 20217 58007 $=
201708191652 METAR KATL 191652Z VRB06KT 10SM FEW150 29/18 A3004 RMK AO2 SLP163 T02940183 $=
201708191552 METAR KATL 191552Z 29003KT 10SM FEW036 FEW150 29/19 A3005 RMK AO2 SLP165 T02890189 $=
201708191452 METAR KATL 191452Z 35005KT 10SM FEW035 27/19 A3005 RMK AO2 SLP165 T02720189 53012 $=
201708191352 METAR KATL 191352Z 34004KT 10SM SCT250 26/19 A3003 RMK AO2 SLP157 T02610194 $=
201708191252 METAR KATL 191252Z 27003KT 10SM SCT250 24/19 A3003 RMK AO2 SLP158 T02390189 $=
201708191152 METAR KATL 191152Z 18004KT 10SM SCT250 21/19 A3002 RMK AO2 SLP154 T02110189 10233 20206 53007 $=
201708191052 METAR KATL 191052Z 30005KT 10SM SCT250 21/18 A3000 RMK AO2 SLP148 T02060183 $=
201708190952 METAR KATL 190952Z 29007KT 10SM FEW250 21/18 A3000 RMK AO2 SLP148 T02060183 $=
201708190852 METAR KATL 190852Z 29005KT 10SM FEW250 22/18 A2999 RMK AO2 SLP145 T02170183 55005 $=
201708190752 METAR KATL 190752Z 27006KT 10SM FEW250 22/18 A2999 RMK AO2 SLP144 T02170183 $=
201708190652 METAR KATL 190652Z 30005KT 10SM FEW250 23/18 A3000 RMK AO2 SLP146 T02280183 $=
201708190552 METAR KATL 190552Z 27004KT 10SM FEW250 23/18 A3001 RMK AO2 SLP150 T02330183 10289 20233 53004=
201708190452 METAR KATL 190452Z 30003KT 10SM FEW250 24/19 A3000 RMK AO2 SLP149 T02390189 403220239=
201708190352 METAR KATL 190352Z 29005KT 10SM FEW250 24/19 A3000 RMK AO2 SLP147 T02440194 $=
201708190252 METAR KATL 190252Z 30007KT 10SM FEW250 26/19 A3000 RMK AO2 SLP146 T02560194 51003=
201708190152 METAR KATL 190152Z 29007KT 10SM CLR 26/19 A3000 RMK AO2 SLP146 T02610194=
201708190052 METAR KATL 190052Z 29009KT 10SM CLR 28/19 A2999 RMK AO2 SLP143 T02780194=
201708182352 METAR KATL 182352Z 27006KT 10SM FEW050 29/20 A2999 RMK AO2 SLP143 T02890200 10322 20289 53008=
201708182252 METAR KATL 182252Z 28008KT 10SM FEW050 FEW065 31/19 A2997 RMK AO2 SLP137 T03060194=
201708182152 METAR KATL 182152Z 27009KT 10SM SCT050 SCT065 32/20 A2997 RMK AO2 SLP135 T03170200=
201708182052 METAR KATL 182052Z 26008G15KT 10SM SCT055 32/20 A2996 RMK AO2 SLP133 T03170200 57014=
201708181952 METAR KATL 181952Z 28010KT 10SM SCT048 32/20 A2997 RMK AO2 SLP137 T03170200=
201708181852 METAR KATL 181852Z 27011G17KT 10SM SCT045 32/21 A2999 RMK AO2 SLP143 T03170206=
201708181752 METAR KATL 181752Z 30011KT 10SM SCT035 30/21 A3000 RMK AO2 SLP148 T03000206 10306 20239 58008=
201708181652 METAR KATL 181652Z 29012KT 10SM SCT028 BKN045 30/22 A3002 RMK AO2 SLP153 T03000217=
201708181650 SPECI KATL 181650Z 28012G17KT 10SM SCT028 BKN045 30/22 A3002 RMK AO2=
201708181552 METAR KATL 181552Z 26008KT 10SM BKN025 BKN032 28/22 A3003 RMK AO2 SLP157 T02830222=
201708181513 SPECI KATL 181513Z 27009KT 10SM BKN023 28/23 A3003 RMK AO2 T02830228=
201708181452 METAR KATL 181452Z 28007KT 250V310 10SM SCT020 SCT100 SCT250 29/23 A3003 RMK AO2 SLP156 T02890228 50000=
201708181352 METAR KATL 181352Z 29010KT 10SM SCT018 SCT100 SCT250 27/23 A3003 RMK AO2 SLP156 T02720228=
201708181252 METAR KATL 181252Z 25007KT 10SM FEW015 FEW100 SCT250 26/22 A3003 RMK AO2 SLP159 T02610222=
201708181152 METAR KATL 181152Z 21005KT 10SM FEW100 FEW250 24/22 A3003 RMK AO2 SLP157 T02390222 10256 20239 53009=
201708181052 METAR KATL 181052Z 23004KT 10SM FEW100 FEW250 24/22 A3002 RMK AO2 SLP152 T02390217=
201708180952 METAR KATL 180952Z 27005KT 10SM CLR 24/22 A3000 RMK AO2 SLP148 T02440217=
201708180852 METAR KATL 180852Z 26007KT 10SM CLR 25/22 A3000 RMK AO2 SLP146 T02500217 56005=
201708180752 METAR KATL 180752Z 26007KT 10SM CLR 25/22 A3000 RMK AO2 SLP146 T02500217=
201708180652 METAR KATL 180652Z 25005KT 10SM CLR 26/22 A3001 RMK AO2 SLP150 T02560217=
201708180552 METAR KATL 180552Z 24007KT 10SM CLR 26/22 A3001 RMK AO2 SLP152 T02560222 10294 20256 58009=
201708180452 METAR KATL 180452Z 23005KT 10SM CLR 26/23 A3002 RMK AO2 SLP154 T02560228 403220244=
201708180352 METAR KATL 180352Z 23004KT 10SM CLR 26/22 A3004 RMK AO2 SLP159 T02610222=
201708180252 METAR KATL 180252Z 23005KT 10SM CLR 27/22 A3004 RMK AO2 SLP161 T02720222 51006=
201708180152 METAR KATL 180152Z 23004KT 10SM CLR 28/22 A3004 RMK AO2 SLP161 T02780222=
201708180052 METAR KATL 180052Z 27006KT 10SM FEW250 28/21 A3003 RMK AO2 SLP157 T02830211=
201708172352 METAR KATL 172352Z 27011KT 10SM FEW040 FEW250 29/21 A3002 RMK AO2 SLP156 T02940206 10322 20294 53001=
201708172252 METAR KATL 172252Z 28009KT 10SM FEW040 FEW250 31/21 A3001 RMK AO2 SLP151 T03110206=
201708172152 METAR KATL 172152Z 25009KT 10SM SCT040 SCT250 32/22 A3002 RMK AO2 SLP152 T03170217=
201708172052 METAR KATL 172052Z 28009G16KT 10SM SCT038 SCT100 SCT250 32/22 A3002 RMK AO2 SLP153 CB DSNT E & SE T03170222 57019=
201708171952 METAR KATL 171952Z 28010KT 10SM SCT038TCU SCT110 SCT250 32/22 A3004 RMK AO2 SLP159 TCU NE & NW AND DSNT E-SE SHRA NE T03170222=
201708171852 METAR KATL 171852Z 26013KT 10SM BKN038TCU BKN100 31/23 A3006 RMK AO2 LTG DSNT NE AND E SLP167 CB DSNT NE & E TCU ALQDS T03060228=
201708171752 METAR KATL 171752Z 26010KT 10SM BKN035TCU BKN100 30/23 A3008 RMK AO2 SLP173 LTG DSNT NE CB DSNT NE & E-SE TCU ALQDS SHRA NE & E & SE-S T03000228 10317 20256 58013=
201708171652 METAR KATL 171652Z 28008KT 10SM BKN035TCU 31/23 A3009 RMK AO2 SLP178 TCU S MDT CU ALQDS T03060228=
201708171552 METAR KATL 171552Z VRB04KT 10SM SCT028 30/23 A3011 RMK AO2 SLP182 T03000228=
201708171452 METAR KATL 171452Z 30009KT 10SM SCT026 SCT250 30/23 A3012 RMK AO2 SLP186 MDT CU SE-S T03000228 51006=
201708171352 METAR KATL 171352Z 32007KT 10SM FEW022 FEW200 FEW250 28/23 A3011 RMK AO2 SLP184 T02830228=
201708171252 METAR KATL 171252Z 30010KT 10SM FEW028 FEW250 27/23 A3011 RMK AO2 SLP184 T02670233=
201708171152 METAR KATL 171152Z 28006KT 10SM FEW028 FEW250 25/23 A3010 RMK AO2 SLP180 MDT CU NE T02500233 10261 20244 53018 $=
201708171052 METAR KATL 171052Z 28006KT 10SM FEW030 FEW250 25/23 A3008 RMK AO2 SLP174 T02500228=
201708170952 METAR KATL 170952Z 26004KT 10SM CLR 25/23 A3006 RMK AO2 SLP166 T02500228=
201708170852 METAR KATL 170852Z 27005KT 10SM CLR 25/23 A3004 RMK AO2 SLP162 T02500228 55007 $=
201708170752 METAR KATL 170752Z 00000KT 10SM CLR 26/23 A3004 RMK AO2 SLP159 T02560233 $=
201708170652 METAR KATL 170652Z 27003KT 10SM CLR 26/23 A3005 RMK AO2 SLP164 T02610233 $=
201708170552 METAR KATL 170552Z 28004KT 10SM FEW250 26/23 A3007 RMK AO2 SLP169 T02610233 10300 20261 58013 $=
201708170452 METAR KATL 170452Z 27007KT 10SM FEW250 27/23 A3008 RMK AO2 SLP174 T02720233 403280217 $=
201708170352 METAR KATL 170352Z 25005KT 10SM FEW200 27/23 A3009 RMK AO2 SLP178 T02720233 $=
201708170252 METAR KATL 170252Z 27004KT 10SM FEW200 28/23 A3010 RMK AO2 SLP182 LTG DSNT NE CB DSNT NE T02780233 53022 $=
201708170152 METAR KATL 170152Z 25004KT 10SM FEW035 28/23 A3007 RMK AO2 LTG DSNT NE SLP173 CB DSNT NE T02830233 $=
201708170052 METAR KATL 170052Z 25005KT 10SM FEW035 29/23 A3005 RMK AO2 SLP165 LTG DSNT NE CB DSNT NE T02940233 $=
201708162352 METAR KATL 162352Z 27006KT 10SM FEW040 FEW100 30/23 A3004 RMK AO2 SLP160 CB DSNT NE TCU DSNT NE-E & SE T03000228 10328 20300 53003=
201708162252 METAR KATL 162252Z 27006KT 10SM FEW040CB FEW070 32/22 A3002 RMK AO2 SLP155 CB VC E MOV E TCU DSNT SE T03170222=
201708162152 METAR KATL 162152Z 28008KT 10SM SCT040TCU SCT070 33/22 A3002 RMK AO2 LTG DSNT SE SLP153 CB DSNT SE TCU E-SE T03280222=
201708162052 METAR KATL 162052Z 29008KT 10SM SCT040TCU 32/23 A3003 RMK AO2 SLP156 TCU NW & DSNT S & SW T03170228 56020=
201708161952 METAR KATL 161952Z VRB06KT 10SM SCT040TCU 32/23 A3005 RMK AO2 SLP163 TCU NE MDT CU ALQDS T03220228=
201708161852 METAR KATL 161852Z VRB03KT 10SM SCT035 31/23 A3006 RMK AO2 SLP169 MDT CU N & E & SE-S & NW T03060228=
201708161752 METAR KATL 161752Z 24005KT 10SM SCT034 32/22 A3009 RMK AO2 SLP177 MDT CU ALQDS T03170222 10317 20233 56007=
201708161652 METAR KATL 161652Z 32008KT 10SM SCT032 SCT180 31/23 A3009 RMK AO2 SLP179 T03110228=
201708161552 METAR KATL 161552Z 27004KT 10SM SCT026 SCT180 SCT250 29/23 A3010 RMK AO2 SLP182 T02940228=
201708161452 METAR KATL 161452Z 34006KT 10SM FEW022 SCT180 SCT250 28/23 A3011 RMK AO2 SLP184 T02830228 50007=
201708161352 METAR KATL 161352Z 29007KT 10SM FEW015 SCT150 SCT180 SCT250 26/23 A3011 RMK AO2 SLP186 T02610228=
201708161252 METAR KATL 161252Z 28006KT 10SM FEW010 SCT120 SCT150 BKN180 BKN250 26/22 A3010 RMK AO2 SLP183 T02560222=
201708161152 METAR KATL 161152Z 26006KT 10SM FEW020 SCT120 BKN150 BKN250 23/22 A3009 RMK AO2 SLP178 T02330217 10244 20233 53021=
201708161052 METAR KATL 161052Z 28005KT 10SM BKN150 BKN250 23/22 A3007 RMK AO2 SLP172 T02330217=
201708160952 METAR KATL 160952Z 26004KT 10SM SCT150 23/22 A3004 RMK AO2 SLP162 T02330222=
201708160852 METAR KATL 160852Z 31007KT 10SM SCT150 24/22 A3003 RMK AO2 SLP156 T02390222 51002=
201708160752 METAR KATL 160752Z 30006KT 10SM FEW030 BKN150 24/22 A3002 RMK AO2 SLP155 T02390217=
201708160652 METAR KATL 160652Z 29006KT 10SM FEW032 BKN180 BKN250 24/22 A3002 RMK AO2 SLP154 T02390217=
201708160552 METAR KATL 160552Z 25005KT 10SM FEW050 FEW200 SCT250 24/22 A3002 RMK AO2 SLP153 T02440217 10289 20244 53003=
201708160452 METAR KATL 160452Z 29007KT 10SM FEW200 BKN250 25/22 A3001 RMK AO2 SLP151 T02500222 403220228=
201708160352 METAR KATL 160352Z 27004KT 10SM BKN200 BKN250 26/23 A3001 RMK AO2 SLP149 T02610233=
201708160252 METAR KATL 160252Z 26006KT 10SM BKN200 BKN250 27/23 A3001 RMK AO2 SLP150 T02670233 51007=
201708160152 METAR KATL 160152Z 22005KT 10SM BKN200 BKN250 27/24 A3000 RMK AO2 SLP148 T02720239=
201708160052 METAR KATL 160052Z 25005KT 10SM FEW150 BKN200 BKN250 28/23 A3000 RMK AO2 SLP147 T02780233=
201708152352 METAR KATL 152352Z 24007KT 10SM FEW030 SCT200 BKN250 29/23 A2999 RMK AO2 SLP144 CB DSNT NW-N 60000 T02890233 10311 20267 53011=
201708152252 METAR KATL 152252Z 27006KT 10SM FEW030 SCT200 BKN250 29/23 A2997 RMK AO2 SLP137 T02940233=
201708152152 METAR KATL 152152Z 27007KT 10SM FEW030 SCT200 BKN250 31/22 A2995 RMK AO2 SLP132 T03060222=
201708152052 METAR KATL 152052Z 26008KT 10SM SCT030 SCT070 SCT100 SCT150 BKN200CB 29/23 A2995 RMK AO2 RAE38 SLP132 CBMAM OHD STNRY P0000 60000 T02890228 58011=
201708151952 METAR KATL 151952Z 27009KT 10SM -RA SCT030 SCT040 SCT100 SCT150 BKN250 28/24 A2997 RMK AO2 LTG DSNT S AND SW RAB38 SLP137 CB OHD-SW TCU DSNT SW-W P0000 T02830239=
201708151852 METAR KATL 151852Z 27008KT 10SM SCT030 SCT040 SCT150 BKN250 31/23 A2998 RMK AO2 LTG DSNT SE AND W RAB1756E11 SLP138 TSB1756E11 VIRGA E CB DSNT SE AND W TCU DSNT E SHRA DSNT E P0000 T03110233=
201708151819 SPECI KATL 151819Z 29010KT 10SM SCT028 SCT038 BKN250 29/23 A2999 RMK AO2 RAB1756E11 TSB1756E11 TS DSIPT CB SE-OHD P0000 T02940233=
201708151756 SPECI KATL 151756Z 29011KT 10SM VCTS -RA SCT030CB BKN038 BKN250 30/22 A2999 RMK AO2 LTG DSNT W RAB56 OCNL LTGIC VC SW TS VC SW MOV SE CB DSNT W TCU DSNT S SHRA DSNT E P0000 T03000222=
201708151752 METAR KATL 151752Z 29011KT 10SM SCT030 SCT040 BKN250 31/22 A2999 RMK AO2 SLP144 LTG DSNT SW-W CB DSNT SW-W TCU DSNT S SHRA DSNT E T03060222 10322 20233 58008=
201708151652 METAR KATL 151652Z 28009KT 10SM SCT024 SCT070 BKN250 31/24 A3000 RMK AO2 SLP148 MDT CU OHD & SW & NW-NE T03060239=
201708151618 SPECI KATL 151618Z 28009KT 10SM SCT024 BKN032 BKN250 30/24 A3001 RMK AO2 MDT CU OHD & SW & NW-NE T03000239=
201708151552 METAR KATL 151552Z 28009KT 10SM BKN024 BKN250 29/24 A3001 RMK AO2 SLP152 MDT CU OHD & SE & NW-N T02940239=
201708151550 SPECI KATL 151550Z 27010KT 10SM BKN024 BKN034 BKN250 29/24 A3001 RMK AO2 MDT CU OHD & SE & NW-N=
201708151452 METAR KATL 151452Z 25009KT 10SM FEW022 SCT035 SCT100 SCT250 29/23 A3001 RMK AO2 SLP152 MDT CU NW T02890228 53011=
201708151352 METAR KATL 151352Z 30004KT 10SM FEW015 SCT040 SCT150 SCT200 SCT250 27/23 A3000 RMK AO2 SLP148 T02670228=
201708151252 METAR KATL 151252Z 30007KT 10SM FEW008 FEW150 SCT200 SCT250 25/22 A2999 RMK AO2 SLP146 T02500222=
201708151152 METAR KATL 151152Z 30006KT 7SM FEW005 FEW100 SCT250 23/22 A2998 RMK AO2 SLP143 70003 T02330222 10239 20228 51015=
201708151129 SPECI KATL 151129Z 30006KT 7SM SCT005 SCT027TCU BKN250 23/22 A2998 RMK AO2 TCU E T02330222=
201708151052 METAR KATL 151052Z 28006KT 8SM BKN005 BKN250 23/22 A2997 RMK AO2 SLP137 BKN005 V SCT T02330222=
201708150952 METAR KATL 150952Z 28008KT 7SM BKN005 BKN200 23/23 A2995 RMK AO2 SLP131 BKN005 V SCT T02330228=
201708150852 METAR KATL 150852Z 28007KT 7SM BKN005 BKN200 23/22 A2994 RMK AO2 SLP125 BKN005 V SCT T02330222 53001=
201708150827 SPECI KATL 150827Z 28006KT 7SM OVC005 23/23 A2994 RMK AO2 T02330228=
201708150752 METAR KATL 150752Z 28007KT 7SM OVC004 24/23 A2993 RMK AO2 SLP124 T02390228=
201708150749 SPECI KATL 150749Z 27007KT 8SM OVC004 24/23 A2993 RMK AO2=
201708150737 SPECI KATL 150737Z 27008KT 10SM BKN006 BKN200 BKN250 24/23 A2993 RMK AO2 T02390228=
201708150652 METAR KATL 150652Z 25005KT 10SM FEW005 SCT200 SCT250 24/23 A2993 RMK AO2 SLP123 T02390228=
201708150649 SPECI KATL 150649Z 25006KT 10SM FEW005 SCT200 SCT250 24/23 A2993 RMK AO2=
201708150552 METAR KATL 150552Z 00000KT 10SM FEW200 BKN250 24/23 A2993 RMK AO2 SLP124 T02390233 10256 20239 56008=
201708150452 METAR KATL 150452Z 00000KT 10SM SCT200 BKN250 24/23 A2994 RMK AO2 SLP126 T02440233 403330239=
201708150352 METAR KATL 150352Z 22004KT 10SM FEW200 BKN250 24/23 A2994 RMK AO2 SLP128 T02440228=
201708150252 METAR KATL 150252Z 00000KT 10SM FEW200 BKN250 24/23 A2996 RMK AO2 SLP133 T02440228 51014=
201708150152 METAR KATL 150152Z 00000KT 10SM FEW150 SCT200 BKN250 24/23 A2996 RMK AO2 SLP132 LTG DSNT NE T02440228=
201708150052 METAR KATL 150052Z 27004KT 10SM FEW045 SCT150 BKN200 BKN250 24/23 A2992 RMK AO2 SLP122 LTG DSNT NE T02440233=
201708142352 METAR KATL 142352Z 23004KT 10SM FEW045 SCT100 BKN200 BKN250 26/23 A2991 RMK AO2 RAB04E45 SLP120 LTG DSNT NE CB DSNT NE VCSH NE-SE P0003 60003 T02560233 10333 20250 53009=
201708142252 METAR KATL 142252Z 25012KT 10SM FEW045 SCT110 BKN150 BKN250 29/22 A2991 RMK AO2 SLP115 SHRA SW-NW LTG DSNT NE & S CB DSNT NE & SE & S-SW T02940217=
201708142152 METAR KATL 142152Z 25007KT 10SM FEW050 SCT110 BKN250 33/21 A2989 RMK AO2 SLP109 LTG DSNT SW-W T03280211=
201708142052 METAR KATL 142052Z 24004KT 10SM FEW050 FEW100 SCT250 33/20 A2989 RMK AO2 SLP108 CB DSNT NE-SE & SW-NW T03280200 57018=
201708141952 METAR KATL 141952Z 28005KT 10SM FEW050 SCT250 33/21 A2991 RMK AO2 SLP114 CB DSNT NE-SE & SW-NW T03280211=
201708141852 METAR KATL 141852Z 22008KT 10SM FEW050 FEW100 SCT250 33/21 A2992 RMK AO2 SLP120 CB DSNT NE-SE T03280206=
201708141752 METAR KATL 141752Z VRB06KT 10SM FEW045 FEW065 SCT250 32/22 A2994 RMK AO2 SLP127 CB DSNT NE-E T03220222 10328 20250 58012=
201708141652 METAR KATL 141652Z 20006KT 10SM SCT037TCU SCT065 BKN250 31/22 A2996 RMK AO2 SLP133 CB DSNT E TCU NE-SE T03110217=
201708141552 METAR KATL 141552Z 00000KT 10SM BKN035TCU BKN050 BKN250 30/23 A2997 RMK AO2 SLP137 TCU OHD & ALQDS T03000228=
201708141452 METAR KATL 141452Z 26005KT 10SM BKN030TCU BKN050 BKN250 29/22 A2998 RMK AO2 SLP139 TCU OHD-SW T02890222 53001=
201708141352 METAR KATL 141352Z 14003KT 10SM FEW045 FEW150 SCT250 29/23 A2997 RMK AO2 SLP136 T02890228=
201708141252 METAR KATL 141252Z 02003KT 9SM FEW020 FEW045 SCT150 SCT200 28/22 A2998 RMK AO2 SLP138 T02830222=
201708141152 METAR KATL 141152Z 00000KT 10SM FEW045 FEW100 FEW200 25/23 A2997 RMK AO2 SLP138 T02500228 10256 20239 53011=
201708141052 METAR KATL 141052Z 31007KT 10SM FEW045 SCT100 SCT200 24/23 A2996 RMK AO2 SLP133 T02390228=
201708140952 METAR KATL 140952Z 31004KT 10SM FEW045 SCT080 SCT200 24/23 A2995 RMK AO2 SLP130 T02390228=
201708140852 METAR KATL 140852Z 28004KT 10SM FEW045 FEW080 SCT200 24/22 A2994 RMK AO2 SLP127 T02440222 58002=
201708140752 METAR KATL 140752Z 29003KT 10SM FEW200 24/22 A2994 RMK AO2 SLP126 T02440222=
201708140652 METAR KATL 140652Z 21003KT 10SM SCT200 25/22 A2995 RMK AO2 SLP129 T02500222=
201708140552 METAR KATL 140552Z 00000KT 10SM SCT200 26/22 A2995 RMK AO2 SLP128 T02560222 10306 20256 56017=
201708140452 METAR KATL 140452Z 00000KT 10SM FEW200 SCT250 26/22 A2996 RMK AO2 SLP133 T02610222 403220228=
201708140352 METAR KATL 140352Z 00000KT 10SM FEW045 FEW100 SCT200 SCT250 27/22 A2998 RMK AO2 SLP140 T02670222=
201708140252 METAR KATL 140252Z 17003KT 10SM FEW095 SCT200 SCT250 28/22 A3000 RMK AO2 SLP146 T02780222 53016=
201708140152 METAR KATL 140152Z 32004KT 10SM FEW040 FEW110 SCT200 SCT250 28/22 A2998 RMK AO2 SLP140 FRQ LTGIC DSNT S CB DSNT S T02830217=
201708140052 METAR KATL 140052Z 31004KT 10SM FEW046 SCT200 SCT250 29/21 A2996 RMK AO2 SLP133 T02890206=
201708132352 METAR KATL 132352Z 32006KT 10SM FEW048 SCT200 BKN250 31/19 A2995 RMK AO2 SLP130 CB DSNT SE-S TCU DSNT NE & E T03060194 10322 20300 55001=
201708132252 METAR KATL 132252Z 32006KT 10SM FEW046 SCT200 BKN250 31/21 A2994 RMK AO2 SLP127 CB DSNT SE-S TCU DSNT E & SE T03110206=
201708132152 METAR KATL 132152Z 33006KT 10SM FEW044 SCT200 BKN250 32/21 A2994 RMK AO2 SLP126 TCU DSNT E & SE T03220211=
201708132052 METAR KATL 132052Z 28006KT 10SM SCT042 BKN250 31/22 A2995 RMK AO2 SLP131 MDT CU N & DSNT S T03060217 56013=
201708131952 METAR KATL 131952Z 26007KT 10SM SCT042 BKN250 31/21 A2996 RMK AO2 SLP133 T03060211=
201708131852 METAR KATL 131852Z 31008KT 10SM SCT040 BKN250 31/21 A2997 RMK AO2 SLP136 T03110211=
201708131752 METAR KATL 131752Z 30005KT 10SM SCT035 SCT080 BKN250 31/22 A2999 RMK AO2 SLP143 MDT CU E & DSNT SW & NW T03060222 10311 20239 58006=
201708131652 METAR KATL 131652Z 27007KT 10SM SCT030 SCT100 BKN200 BKN250 30/22 A3000 RMK AO2 SLP148 T03000222=
201708131552 METAR KATL 131552Z 22004KT 10SM SCT030 SCT100 BKN200 BKN250 29/22 A3001 RMK AO2 SLP151 T02890217=
201708131452 METAR KATL 131452Z 18004KT 10SM FEW020 SCT100 BKN200 BKN250 28/23 A3001 RMK AO2 SLP150 T02830228 51007=
201708131352 METAR KATL 131352Z 28004KT 10SM SCT100 BKN200 BKN250 27/23 A3000 RMK AO2 SLP149 T02720228=
201708131252 METAR KATL 131252Z 30005KT 10SM SCT100 BKN200 BKN250 25/23 A2999 RMK AO2 SLP147 T02500228=
201708131152 METAR KATL 131152Z 27003KT 10SM FEW110 SCT200 BKN250 24/23 A2998 RMK AO2 SLP143 T02390228 10244 20228 53015=
201708131052 METAR KATL 131052Z 00000KT 10SM FEW110 SCT200 BKN250 23/22 A2997 RMK AO2 SLP137 T02280217=
201708130952 METAR KATL 130952Z 31004KT 10SM FEW090 BKN250 23/22 A2995 RMK AO2 SLP131 T02330222=
201708130852 METAR KATL 130852Z 31004KT 10SM FEW090 BKN250 24/22 A2994 RMK AO2 SLP126 T02390222 56007=
201708130752 METAR KATL 130752Z 29004KT 10SM FEW110 FEW250 24/22 A2994 RMK AO2 SLP128 T02390222=
201708130652 METAR KATL 130652Z 28004KT 10SM FEW110 24/22 A2995 RMK AO2 SLP131 T02390222=
201708130552 METAR KATL 130552Z 20003KT 10SM BKN110 24/23 A2996 RMK AO2 SLP133 T02440228 10272 20244 58006=
201708130452 METAR KATL 130452Z 29006KT 10SM BKN120 BKN250 24/23 A2997 RMK AO2 SLP137 T02440228 403220228=
201708130352 METAR KATL 130352Z 29008KT 10SM FEW100 BKN140 BKN200 BKN250 25/23 A2997 RMK AO2 SLP139 T02500228=
201708130252 METAR KATL 130252Z 26006KT 10SM FEW120 SCT180 BKN250 25/22 A2998 RMK AO2 SLP140 T02500222 53008=
201708130152 METAR KATL 130152Z 30007KT 10SM BKN120 BKN180 BKN250 26/23 A2996 RMK AO2 SLP135 T02610228=
201708130052 METAR KATL 130052Z 29006KT 10SM SCT110 BKN150 BKN200 26/22 A2995 RMK AO2 SLP129 CB DSNT NW T02610222=
201708122352 METAR KATL 122352Z 27009KT 10SM FEW038 BKN100 BKN150 BKN200 27/22 A2995 RMK AO2 SLP133 CB DSNT SE TCU DSNT NE-E T02720222 10322 20272 53006=
201708122252 METAR KATL 122252Z 29008KT 10SM FEW040TCU SCT110 BKN150 BKN200 29/22 A2994 RMK AO2 SLP127 CB DSNT SE TCU NW-N & DSNT NE SHRA NW-N T02890217=
201708122152 METAR KATL 122152Z 29009KT 10SM FEW045 SCT100 BKN150 BKN200 31/22 A2993 RMK AO2 SLP125 CB DSNT N & E & NW TCU DSNT N & SE-S & NW T03060222=
201708122052 METAR KATL 122052Z 27008KT 10SM SCT045TCU SCT100 BKN150 BKN250 32/22 A2993 RMK AO2 SLP124 TCU E & DSNT W SHRA E & DSNT W T03170217 56016=
201708121952 METAR KATL 121952Z 25006KT 10SM SCT042TCU BKN250 31/22 A2995 RMK AO2 SLP129 TCU OHD & N AND DSNT NE-E & S & W SHRA DSNT NE-E & W T03110222=
201708121852 METAR KATL 121852Z 10SM BKN037TCU BKN250 31/22 A2997 RMK AO2 SLP136 TCU SW AND NW T03110217=
201708121752 METAR KATL 121752Z 23005KT 10SM BKN035 BKN250 31/22 A2998 RMK AO2 SLP141 MDT CU ALQDS T03060217 10311 20233 58008=
201708121652 METAR KATL 121652Z 30005KT 10SM BKN030 BKN250 30/22 A3000 RMK AO2 SLP145 T03000222=
201708121552 METAR KATL 121552Z VRB04KT 10SM SCT025 SCT250 29/23 A3001 RMK AO2 SLP150 T02890228=
201708121502 SPECI KATL 121502Z 33003KT 10SM SCT017 BKN250 27/22 A3000 RMK AO2 MDT CU SE-S T02720222=
201708121452 METAR KATL 121452Z 29004KT 10SM BKN017 BKN250 28/23 A3001 RMK AO2 SLP150 MDT CU SE-S T02780228 51003=
201708121416 SPECI KATL 121416Z 31008KT 10SM SCT012 BKN018 BKN250 27/23 A3001 RMK AO2 T02670233=
201708121352 METAR KATL 121352Z 29007KT 10SM SCT012 BKN250 27/23 A3001 RMK AO2 SLP150 T02670233=
201708121252 METAR KATL 121252Z 29008KT 7SM FEW009 SCT039 SCT120 BKN180 BKN250 26/23 A3001 RMK AO2 SLP152 T02560233=
201708121152 METAR KATL 121152Z 00000KT 6SM BR FEW003 SCT011 SCT022 BKN180 23/23 A3000 RMK AO2 SLP149 MDT CU N-NE T02330228 10244 20228 53007=
201708121052 METAR KATL 121052Z 28004KT 8SM FEW005 FEW120 SCT180 23/22 A2999 RMK AO2 SLP143 ACC DSNT NE T02280222=
201708120952 METAR KATL 120952Z 25003KT 10SM CLR 23/22 A2998 RMK AO2 SLP139 T02330222=
201708120852 METAR KATL 120852Z 31005KT 10SM FEW200 23/22 A2998 RMK AO2 SLP140 T02330222 56005=
201708120752 METAR KATL 120752Z 28003KT 10SM FEW200 24/22 A2999 RMK AO2 SLP143 T02390222=
201708120652 METAR KATL 120652Z 23003KT 10SM FEW200 24/22 A2998 RMK AO2 SLP142 T02390222=
201708120552 METAR KATL 120552Z 00000KT 10SM SCT200 SCT250 24/23 A2999 RMK AO2 SLP146 T02440228 10272 20244 56011=
201708120452 METAR KATL 120452Z 31004KT 10SM BKN200 BKN250 25/22 A3000 RMK AO2 SLP146 T02500222 403110222=
201708120352 METAR KATL 120352Z 28003KT 10SM FEW150 BKN250 25/22 A3000 RMK AO2 SLP149 T02500222=
201708120252 METAR KATL 120252Z 26003KT 10SM FEW060 FEW100 BKN250 26/23 A3003 RMK AO2 SLP157 T02560228 51009=
201708120152 METAR KATL 120152Z 27005KT 10SM FEW060 FEW100 BKN250 26/23 A3003 RMK AO2 SLP158 T02560228=
201708120052 METAR KATL 120052Z 27005KT 10SM FEW030 SCT100 BKN250 26/23 A3001 RMK AO2 SLP153 TCU DSNT NE-SE T02610228=
201708112352 METAR KATL 112352Z 27006KT 10SM FEW030 BKN100 BKN250 27/23 A3000 RMK AO2 SLP148 CB DSNT E TCU DSNT NE-E & SE T02720228 10311 20272 58006=
201708112252 METAR KATL 112252Z 29009KT 10SM SCT032TCU BKN100 BKN250 29/23 A3001 RMK AO2 SLP152 CB DSNT SE TCU VC E & DSNT NE T02890228=
201708112152 METAR KATL 112152Z 28008KT 10SM SCT032TCU BKN100 BKN250 29/23 A3001 RMK AO2 SLP151 TCU OHD-E & DSNT NE-E & S VCSH E T02940228=
201708112052 METAR KATL 112052Z VRB04KT 10SM SCT035TCU BKN090 BKN250 31/22 A3002 RMK AO2 SLP153 TCU OHD-E T03060222 56020=
201708111952 METAR KATL 111952Z 28007KT 10SM BKN035TCU BKN090 BKN250 31/22 A3003 RMK AO2 SLP159 TCU OHD & ALQDS T03060217=
201708111852 METAR KATL 111852Z 22007KT 10SM SCT030 SCT060 BKN250 29/21 A3005 RMK AO2 SLP166 TCU DSNT NE-SE & DSNT SW-W T02940211=
201708111752 METAR KATL 111752Z VRB03KT 10SM SCT030 SCT250 29/22 A3008 RMK AO2 SLP174 CB DSNT E MDT CU N-NE-E & SW-NW T02940217 10300 20228 58018=
201708111652 METAR KATL 111652Z VRB05KT 10SM SCT025 SCT070 BKN250 28/22 A3011 RMK AO2 SLP186 CB DSNT NE-SE MDT CU SW-NW T02830222=
201708111552 METAR KATL 111552Z 18005KT 10SM FEW023 SCT070 SCT100 BKN250 27/22 A3012 RMK AO2 SLP190 T02720217=
201708111452 METAR KATL 111452Z 17007KT 10SM FEW020 BKN070 BKN100 BKN250 26/21 A3013 RMK AO2 SLP194 T02610211 51003=
201708111352 METAR KATL 111352Z 20004KT 10SM FEW008 SCT070 SCT100 BKN250 26/23 A3013 RMK AO2 SLP192 TCU DSNT SE T02560228=
201708111252 METAR KATL 111252Z 17004KT 10SM FEW007 FEW045 BKN085 BKN200 23/22 A3013 RMK AO2 SLP194 ACC OHD-ALQDS T02330222=
201708111152 METAR KATL 111152Z 00000KT 9SM FEW006 FEW050 BKN080 BKN200 23/22 A3012 RMK AO2 SLP192 TCU DSNT NE & SE ACC S-W 70198 T02280222 10228 20222 53004=
201708111052 METAR KATL 111052Z 00000KT 8SM FEW005 SCT055 BKN150 BKN200 22/22 A3011 RMK AO2 SLP188 MDT CU SE-S T02220217=
201708111023 SPECI KATL 111023Z 00000KT 9SM SCT004 SCT060 BKN150 BKN200 22/22 A3011 RMK AO2 T02220217=
201708110952 METAR KATL 110952Z 11004KT 8SM OVC004 23/22 A3010 RMK AO2 SLP182 CIG 003V005 BINOVC T02280222=
201708110924 SPECI KATL 110924Z 10008KT 10SM BKN004 BKN060 BKN150 OVC200 23/22 A3009 RMK AO2 CIG 003V005 T02280222=
201708110852 METAR KATL 110852Z 09003KT 10SM FEW005 SCT060 BKN150 OVC200 23/22 A3011 RMK AO2 SLP187 T02280222 55003=
201708110752 METAR KATL 110752Z 07004KT 10SM FEW005 FEW011 BKN150 OVC200 23/22 A3011 RMK AO2 SLP185 T02280217=
201708110652 METAR KATL 110652Z 17004KT 10SM FEW004 SCT010 SCT100 OVC180 23/22 A3012 RMK AO2 SLP189 T02280222=
201708110552 METAR KATL 110552Z 00000KT 10SM FEW006 FEW100 SCT150 OVC200 23/22 A3012 RMK AO2 SLP189 60001 T02280217 10250 20228 58017=
201708110452 METAR KATL 110452Z 23006KT 10SM FEW008 SCT090 BKN150 OVC200 23/22 A3015 RMK AO2 SLP199 T02280217 402890222=
201708110352 METAR KATL 110352Z 19004KT 10SM SCT025 BKN080 BKN150 OVC200 23/22 A3017 RMK AO2 SLP207 CB DSNT NE T02280222=
201708110252 METAR KATL 110252Z 19004KT 10SM FEW005 SCT015 BKN050 OVC200 24/23 A3017 RMK AO2 SLP208 RAB10E47 TSB21E47 LTG DSNT SE-E P0001 60001 T02390228 51012=
201708110249 SPECI KATL 110249Z 20005KT 10SM FEW005 SCT015 BKN050 OVC200 24/23 A3017 RMK AO2 RAB10E47 TSB21E47 LTG DSNT SE-E TS MOV NE P0001=
201708110222 SPECI KATL 110222Z 20007KT 6SM VCTS -RA BR FEW005 SCT015CB BKN025 BKN200 24/23 A3017 RMK AO2 RAB10 TSB21 OCNL LTGIC VC E-SE TS VC E-SE MOV N P0000 T02440233=
201708110152 METAR KATL 110152Z 18004KT 10SM FEW008CB SCT025 BKN040 BKN200 25/24 A3016 RMK AO2 SLP203 CB VC SE-S & SW MOV N T02500239=
201708110052 METAR KATL 110052Z 00000KT 10SM FEW008 SCT030 BKN050 BKN200 24/23 A3014 RMK AO2 SLP196 TSE13 T02440233=
201708110013 SPECI KATL 110013Z 00000KT 10SM FEW008CB SCT050 BKN150 BKN250 24/23 A3013 RMK AO2 TS DSIPTD CB VC S-SW & DSNT NW MOV SE T02440233=
201708102352 METAR KATL 102352Z 21006KT 10SM VCTS FEW010CB SCT060 BKN150 BKN250 25/24 A3014 RMK AO2 SLP196 RAE29 OCNL LTGICCG VC S-SW TS VC S-SW MOV SE P0011 60195 T02500239 10289 20233 53008=
201708102252 METAR KATL 102252Z 11009KT 3SM R09R/4000V6000FT +TSRA BR SCT018CB BKN030 BKN080 BKN200 24/23 A3012 RMK AO2 PK WND 07029/2204 TSB00 SLP192 VIS LWR SE-SW OCNL LTGICCG SE-SW-W TS SE-SW-W MOV STNRY P0184 T02390228=
201708102245 SPECI KATL 102245Z 13006KT 3SM R09R/3500V6000FT +TSRA BR SCT018CB BKN030 BKN100 BKN250 24/23 A3012 RMK AO2 PK WND 07029/2204 TSB00 VIS LWR SE-SW OCNL LTGICCG SE-SW-W TS SE-SW-W MOV STNRY P0170 T02390228=
201708102206 SPECI KATL 102206Z 07025G29KT 1SM +TSRA SCT022CB BKN040 BKN100 BKN250 26/23 A3011 RMK AO2 PK WND 07029/2204 SFC VIS 3 TSB00 VIS LWR SE-SW OCNL LTGICCG E-SE TS E-SE MOV S CB SE-OHD-NW MOV S P0014 T02610233=
201708102202 SPECI KATL 102202Z 07012G15KT 5SM +TSRA SCT022CB BKN040 BKN100 BKN250 27/23 A3012 RMK AO2 TSB00 OCNL LTGICCG E-SE TS E-SE MOV S CB SE-OHD-NW MOV S P0008 T02670233=
201708102152 METAR KATL 102152Z 18004KT 8SM -RA SCT022CB BKN040 BKN100 BKN250 28/23 A3011 RMK AO2 RAB40 SLP186 VIS LWR NE-SE CB OHD-E & DSNT NE & SW MOV S P0000 T02830228=
201708102052 METAR KATL 102052Z 15006KT 10SM FEW025 FEW100 SCT250 28/23 A3011 RMK AO2 LTG DSNT W AND NW SLP186 CB DSNT NE-E & DSNT SW-NW TCU DSNT SE SHRA DSNT NE-E & DSNT SW-NW 60000 T02830228 56024=
201708101952 METAR KATL 101952Z 15006KT 10SM FEW025CB FEW060 SCT100 SCT200 29/23 A3013 RMK AO2 RAE11 SLP193 CB VC NW-N & VC SE MOV E TCU DSNT S SHRA VC NW-N & VC SE P0000 T02890233=
201708101852 METAR KATL 101852Z 20003KT 9SM -RA SCT025TCU BKN080 BKN100 28/22 A3016 RMK AO2 RAB51 SLP202 CB DSNT SE & NW TCU E-SE-S & SW-NW SHRA DSNT SE & NW P0000 T02780217=
201708101752 METAR KATL 101752Z 24004KT 10SM SCT020TCU BKN030 BKN100 28/22 A3018 RMK AO2 SLP212 TCU NE & NW MDT CU ALQDS 60002 T02780222 10278 20228 58006=
201708101748 SPECI KATL 101748Z 00000KT 10SM SCT020TCU BKN030 BKN100 28/22 A3019 RMK AO2 TCU NE & NW MDT CU ALQDS=
201708101712 SPECI KATL 101712Z 20004KT 10SM FEW018 BKN025 BKN040 27/23 A3019 RMK AO2 T02720228=
201708101700 SPECI KATL 101700Z 18004KT 10SM FEW020 BKN030 27/22 A3020 RMK AO2 T02670222=
201708101652 METAR KATL 101652Z 23006KT 10SM R09R/2800VP6000FT BKN017 BKN027 26/22 A3020 RMK AO2 SLP218 T02610222=
201708101552 METAR KATL 101552Z 16003KT 10SM BKN018 BKN030 26/22 A3020 RMK AO2 SLP219 T02610222=
201708101509 SPECI KATL 101509Z 17005KT 10SM FEW014 BKN020 BKN030 26/22 A3021 RMK AO2 T02560222=
201708101452 METAR KATL 101452Z 17007KT 10SM BKN014 BKN020 BKN030 25/22 A3020 RMK AO2 SLP218 60002 T02500222 51004=
201708101352 METAR KATL 101352Z 14003KT 10SM SCT007 BKN010 BKN030 23/22 A3020 RMK AO2 RAE15 SLP218 P0001 T02330222=
201708101252 METAR KATL 101252Z 15005KT 4SM -RA BR BKN007 OVC012 23/22 A3020 RMK AO2 RAB01 SLP216 CIG 005V009 P0001 T02280222=
201708101152 METAR KATL 101152Z 16003KT 6SM BR BKN006 OVC013 23/22 A3019 RMK AO2 SLP214 CIG 005V008 70010 T02280217 10228 20222 53007=
201708101052 METAR KATL 101052Z 15004KT 6SM BR BKN006 OVC012 23/22 A3018 RMK AO2 SLP210 CIG 005V008 T02280217 $=
201708101033 SPECI KATL 101033Z 13003KT 2 1/2SM BR OVC005 23/22 A3018 RMK AO2 SFC VIS 5 CIG 004V007 T02280217=
201708100952 METAR KATL 100952Z 13005KT 2 1/2SM BR OVC004 23/22 A3017 RMK AO2 SFC VIS 5 SLP207 CIG 003V005 T02280217=
201708100903 SPECI KATL 100903Z 14005KT 2 1/2SM BR OVC004 22/22 A3017 RMK AO2 SFC VIS 6 CIG 003V005 TWRINC T02220217=
201708100852 METAR KATL 100852Z 13005KT 6SM BR OVC004 22/22 A3017 RMK AO2 SLP206 CIG 003V005 T02220217 56008=
201708100752 METAR KATL 100752Z 11005KT 7SM OVC004 22/22 A3017 RMK AO2 SLP209 CIG 003V005 T02220217=
201708100714 SPECI KATL 100714Z 12006KT 8SM OVC004 22/22 A3017 RMK AO2 CIG 003V005 T02220217=
201708100652 METAR KATL 100652Z 13008KT 8SM OVC005 22/21 A3018 RMK AO2 SLP210 CIG 004V006 T02220211=
201708100552 METAR KATL 100552Z 12006KT 10SM OVC006 22/21 A3019 RMK AO2 SLP215 CIG 005V007 60000 T02220211 10239 20222 56002=
201708100452 METAR KATL 100452Z 11008KT 10SM BKN008 OVC015 22/21 A3020 RMK AO2 RAB28E44 SLP217 P0000 T02220211 402670217=
201708100352 METAR KATL 100352Z 11006KT 10SM BKN009 BKN120 BKN200 23/21 A3019 RMK AO2 SLP215 T02280211=
201708100323 SPECI KATL 100323Z 11008KT 10SM BKN009 BKN050 BKN200 23/21 A3020 RMK AO2 T02280211=
201708100252 METAR KATL 100252Z 12005KT 10SM SCT009 BKN055 BKN120 BKN200 23/21 A3020 RMK AO2 SLP219 CB DSNT SW T02280211 51013=
201708100152 METAR KATL 100152Z 09009KT 10SM FEW009 SCT060 BKN120 BKN200 23/21 A3019 RMK AO2 LTG DSNT SW SLP216 CB DSNT SW T02280211=
201708100052 METAR KATL 100052Z 10008KT 10SM FEW012 BKN060 BKN150 BKN200 23/21 A3017 RMK AO2 SLP209 T02330211=
201708092352 METAR KATL 092352Z 10007KT 10SM SCT015 BKN060 BKN150 BKN200 24/21 A3016 RMK AO2 SLP204 T02440211 10267 20239 53008=
201708092252 METAR KATL 092252Z 09008KT 10SM FEW015 BKN150 BKN200 24/21 A3014 RMK AO2 SLP196 VIRGA E-OHD-SW T02440211=
201708092152 METAR KATL 092152Z 08012KT 10SM FEW018 SCT030 BKN150 BKN200 24/21 A3013 RMK AO2 SLP193 T02440211=
201708092052 METAR KATL 092052Z 08007KT 10SM BKN020 BKN050 BKN110 24/21 A3013 RMK AO2 SLP195 T02440211 58006=
201708091952 METAR KATL 091952Z 10008KT 10SM BKN020 BKN060 BKN110 27/22 A3014 RMK AO2 SLP196 T02670217=
201708091904 SPECI KATL 091904Z 09008KT 10SM BKN013 BKN030 BKN100 25/21 A3015 RMK AO2 T02500211=
201708091852 METAR KATL 091852Z 07010KT 10SM BKN015 BKN070 BKN100 25/22 A3015 RMK AO2 SLP201 T02500217=
201708091848 SPECI KATL 091848Z 09009KT 10SM BKN015 BKN070 BKN100 24/22 A3015 RMK AO2=
201708091817 SPECI KATL 091817Z 07011KT 10SM FEW015 BKN030 BKN060 24/21 A3016 RMK AO2 T02440211=
201708091752 METAR KATL 091752Z 07012KT 10SM SCT015 BKN025 BKN050 25/22 A3016 RMK AO2 RAB05E51 SLP205 P0000 60010 T02500222 10256 20217 58006=
201708091703 SPECI KATL 091703Z 08010KT 10SM BKN015 BKN020 BKN060 24/21 A3017 RMK AO2 T02390211=
201708091652 METAR KATL 091652Z 08010KT 10SM BKN010 BKN020 OVC060 23/21 A3018 RMK AO2 SLP210 T02330211=
201708091552 METAR KATL 091552Z 08007KT 10SM BKN010 BKN030 BKN070 23/22 A3018 RMK AO2 DZE48 SLP213 P0000 T02330217=
201708091452 METAR KATL 091452Z 08011KT 3SM -DZ BR BKN008 BKN015 OVC040 22/21 A3018 RMK AO2 SFC VIS 5 RAE43DZB48 SLP212 P0007 60010 T02220211 51018=
201708091414 SPECI KATL 091414Z 07012G17KT 3SM -RA BR BKN008 BKN014 OVC030 22/21 A3017 RMK AO2 SFC VIS 4 P0006 T02170211=
201708091352 METAR KATL 091352Z 08011KT 3SM -RA BR FEW007 BKN012 OVC030 22/21 A3016 RMK AO2 SFC VIS 4 RAE16B39 SLP206 P0000 T02220211=
201708091252 METAR KATL 091252Z 06009KT 3SM -RA BKN007 OVC020 22/21 A3015 RMK AO2 SFC VIS 7 RAB12 SLP200 CIG 006V009 P0003 T02220211=
201708091212 SPECI KATL 091212Z 07008KT 3SM -RA BKN007 BKN015 OVC045 22/21 A3013 RMK AO2 SFC VIS 8 RAB12 P0000 T02220211=
201708091152 METAR KATL 091152Z 08007KT 3SM FEW005 BKN012 BKN045 OVC130 23/21 A3013 RMK AO2 SFC VIS 8 SLP193 60000 70050 T02280211 10228 20222 53012=
201708091113 SPECI KATL 091113Z 08005KT 3SM BR FEW005 BKN012 BKN028 OVC130 23/21 A3012 RMK AO2 SFC VIS 6 T02280211=
201708091052 METAR KATL 091052Z 00000KT 3SM BR SCT008 BKN028 OVC120 22/22 A3011 RMK AO2 SFC VIS 6 SLP189 CB DSNT NW-NE T02220217=
201708091050 SPECI KATL 091050Z 00000KT 3SM BR SCT008 BKN028 OVC120 22/22 A3011 RMK AO2 SFC VIS 6 CIG 004V007 CB DSNT NE=
201708090952 METAR KATL 090952Z 08004KT 2SM BR BKN005 BKN011 OVC130 22/21 A3010 RMK AO2 SFC VIS 6 SLP183 CIG 004V007 T02220211=
201708090852 METAR KATL 090852Z 06005KT 2SM BR SCT004 BKN007 OVC015 22/22 A3009 RMK AO2 SFC VIS 6 DZE48 SLP180 P0000 60000 T02220217 53005 $=
201708090849 SPECI KATL 090849Z 07005KT 2SM BR SCT004 BKN007 OVC015 22/22 A3009 RMK AO2 SFC VIS 6 DZE48 P0000 $=
201708090752 METAR KATL 090752Z 27003KT 1/2SM R09R/P6000FT -DZ BR SCT004 BKN010 OVC021 23/22 A3008 RMK AO2 SFC VIS 5 DZB04 SLP178 P0000 T02280222 $=
201708090705 SPECI KATL 090705Z 00000KT 1/2SM R09R/P6000FT -DZ BR SCT004 BKN012 OVC039 23/22 A3008 RMK AO2 SFC VIS 5 DZB04 P0000 T02280222 $=
201708090652 METAR KATL 090652Z 00000KT 1/2SM R09R/P6000FT BR BKN004 BKN019 OVC039 23/22 A3008 RMK AO2 SFC VIS 5 SLP176 CIG 003V007 T02280222=
201708090552 METAR KATL 090552Z 12003KT 1/2SM R09R/P6000FT BR BKN004 BKN011 OVC110 23/22 A3007 RMK AO2 SFC VIS 2 1/2 SLP175 CIG 003V006 60000 T02280222 10233 20228 58003=
201708090521 SPECI KATL 090521Z 00000KT 1/2SM R09R/P6000FT BR BKN004 BKN110 OVC200 23/22 A3008 RMK AO2 SFC VIS 4 CIG 003V006 T02280222=
201708090452 METAR KATL 090452Z 06004KT 1 1/4SM BR SCT003 BKN008 BKN090 OVC200 23/22 A3008 RMK AO2 SFC VIS 5 RAB27E51 SLP178 P0000 T02280222 402440211=
201708090428 SPECI KATL 090428Z 09004KT 2SM -RA SCT004 BKN090 OVC150 23/22 A3008 RMK AO2 SFC VIS 7 RAB27 SCT004 V BKN P0000 T02280222=
201708090352 METAR KATL 090352Z 00000KT 10SM FEW005 SCT090 BKN150 OVC200 23/21 A3008 RMK AO2 SLP177 T02280211=
201708090252 METAR KATL 090252Z 00000KT 10SM FEW005 BKN085 BKN150 OVC200 23/21 A3008 RMK AO2 SLP179 T02280211 51015=
201708090152 METAR KATL 090152Z 00000KT 10SM FEW005 BKN085 BKN150 OVC200 23/22 A3008 RMK AO2 SLP178 T02280217=
201708090052 METAR KATL 090052Z 28003KT 10SM BKN090 BKN150 OVC200 23/22 A3006 RMK AO2 SLP170 T02280217=
201708082352 METAR KATL 082352Z 00000KT 10SM FEW004 SCT090 BKN150 OVC200 23/22 A3004 RMK AO2 SLP163 60019 T02280217 10244 20222 56004=
201708082252 METAR KATL 082252Z 00000KT 10SM FEW005 SCT050 BKN070 OVC150 23/22 A3004 RMK AO2 RAE47 SLP163 P0012 T02280217=
201708082234 SPECI KATL 082234Z 22003KT 7SM -RA FEW005 SCT025 BKN070 OVC150 22/22 A3004 RMK AO2 VIS LWR NE-SE P0011 T02220217=
201708082201 SPECI KATL 082201Z 25004KT 2SM RA BR FEW008 SCT025 BKN035 OVC150 23/22 A3004 RMK AO2 SFC VIS 3 P0002 T02280217=
201708082152 METAR KATL 082152Z 30005KT 3SM RA BR FEW008 SCT025 BKN035 OVC150 23/22 A3004 RMK AO2 SFC VIS 5 SLP165 VIS LWR SW-W P0007 T02280217=
201708082052 METAR KATL 082052Z 33004KT 3SM -RA BR SCT010 BKN025 OVC050 24/22 A3005 RMK AO2 SFC VIS 4 DZE22RAB44 SLP167 VIS LWR N-NE SHRA P0000 60000 T02390217 56006=
201708082050 SPECI KATL 082050Z 34004KT 6SM -RA SCT010 BKN025 OVC050 24/21 A3005 RMK AO2 DZE22RAB44 VIS LWR N-NE SHRA P0000=
201708081952 METAR KATL 081952Z VRB03KT 6SM -DZ BKN010 BKN020 OVC050 24/21 A3006 RMK AO2 DZE10B49 SLP170 P0000 T02390211=
201708081914 SPECI KATL 081914Z 31004KT 8SM BKN015 BKN050 OVC080 23/21 A3007 RMK AO2 DZE10 P0000 T02330211=
201708081852 METAR KATL 081852Z 00000KT 6SM -DZ BKN020 BKN060 OVC080 24/21 A3007 RMK AO2 RAB1756E05DZB50 SLP174 P0000 T02390206=
201708081824 SPECI KATL 081824Z 00000KT 10SM BKN020 BKN050 OVC080 24/20 A3007 RMK AO2 RAB1756E05 P0000 T02390200=
201708081752 METAR KATL 081752Z 00000KT 10SM FEW020 BKN060 OVC080 24/20 A3008 RMK AO2 SLP176 60031 T02390200 10239 20211 50000=
201708081716 SPECI KATL 081716Z 10004KT 10SM SCT012 BKN050 OVC080 23/20 A3008 RMK AO2 T02330200=
201708081652 METAR KATL 081652Z 08004KT 9SM BKN012 BKN060 OVC080 23/20 A3009 RMK AO2 RAE44 SLP179 P0000 T02280200=
201708081552 METAR KATL 081552Z 02003KT 9SM -RA FEW013 BKN030 OVC080 23/21 A3009 RMK AO2 SLP179 P0000 T02280206=
201708081452 METAR KATL 081452Z 36004KT 10SM -RA FEW009 BKN045 OVC060 22/19 A3008 RMK AO2 SLP176 P0010 60031 T02220194 51012=
201708081430 SPECI KATL 081430Z 04008KT 8SM -RA SCT009 BKN037 OVC045 22/21 A3007 RMK AO2 P0010 T02220211=
201708081408 SPECI KATL 081408Z 02010KT 4SM -RA BR FEW007 BKN035 OVC045 22/21 A3008 RMK AO2 P0009 T02170206=
201708081359 SPECI KATL 081359Z 01009KT 1SM R09R/5000VP6000FT +RA BR FEW007 BKN030 OVC050 22/21 A3007 RMK AO2 TWR VIS 1 1/2 P0006 T02170206=
201708081356 SPECI KATL 081356Z 01007KT 3SM R09R/5000VP6000FT +RA BR FEW007 BKN030 OVC050 22/21 A3008 RMK AO2 P0002 T02170206=
201708081352 METAR KATL 081352Z 35008KT 7SM RA FEW007 SCT040 OVC050 22/21 A3008 RMK AO2 SLP175 P0017 T02170206=
201708081252 METAR KATL 081252Z 32004KT 5SM -RA BR FEW004 BKN055 OVC085 22/21 A3006 RMK AO2 SLP170 P0004 T02170211=
201708081152 METAR KATL 081152Z 29006KT 6SM -RA BR FEW004 BKN050 OVC090 22/21 A3004 RMK AO2 RAB14 SLP164 P0003 60062 70095 T02170206 10228 20211 53013=
201708081127 SPECI KATL 081127Z 29005KT 6SM -RA BR FEW004 SCT030 OVC050 22/21 A3004 RMK AO2 RAB14 P0003 T02170206=
201708081121 SPECI KATL 081121Z 28006KT 2SM RA BR FEW004 BKN030 OVC050 22/21 A3003 RMK AO2 RAB14 P0003 T02170211=
201708081052 METAR KATL 081052Z 31005KT 7SM FEW004 SCT050 BKN075 OVC130 22/21 A3002 RMK AO2 RAB10E20 SLP155 P0000 T02170211=
201708080952 METAR KATL 080952Z 32004KT 10SM FEW004 SCT055 OVC075 22/21 A3001 RMK AO2 RAB24E39 SLP152 P0000 T02220211=
201708080852 METAR KATL 080852Z 00000KT 10SM FEW004 FEW060 OVC110 22/21 A3000 RMK AO2 RAB32E47 SLP149 P0000 60059 T02170211 56012=
201708080752 METAR KATL 080752Z 18003KT 10SM FEW004 SCT060 BKN110 OVC180 22/21 A3000 RMK AO2 SLP150 T02170211=
201708080652 METAR KATL 080652Z 05005KT 10SM FEW005 FEW025 BKN040 BKN130 BKN180 22/21 A3002 RMK AO2 LTG DSNT E RAE36 TSE08 SLP155 TS DSIPT CB DSNT E P0059 T02170206=
201708080632 SPECI KATL 080632Z 03005KT 8SM -RA FEW004 SCT019CB OVC055 22/21 A3003 RMK AO2 TSE08 TS DSIPT CB VC NE-SE MOV NE P0059 T02170206=
201708080623 SPECI KATL 080623Z 02006KT 3SM +RA BR FEW005 BKN028CB OVC050 22/21 A3003 RMK AO2 TSE08 TS DSIPT CB NE-SE MOV NE P0058 T02170206=
201708080612 SPECI KATL 080612Z 00000KT 3/4SM R09R/3500VP6000FT +RA BR SCT008 BKN021CB OVC050 22/21 A3004 RMK AO2 TSE08 TS DSIPT CB SW-OHD-NW-N MOV NE P0027 T02170206=
201708080609 SPECI KATL 080609Z 26004KT 1 1/2SM R09R/3500VP6000FT RA BR FEW008 BKN017CB OVC050 22/21 A3004 RMK AO2 TSE08 TS DSIPT CB NE & SW-OHD-NW MOV NE P0011 T02170206=
201708080552 METAR KATL 080552Z 34007KT 10SM -TSRA FEW009 OVC022CB 23/21 A3004 RMK AO2 RAB47 TSB46 SLP161 OCNL LTGIC W TS W MOV NE CB SW-NW-N MOV NE P0000 60000 T02280206 10261 20228 58001=
201708080546 SPECI KATL 080546Z 32009KT 10SM TS FEW013CB OVC022 23/21 A3004 RMK AO2 TSB46 OCNL LTGIC SW TS VC SW MOV NE CB VC SW-NW-N MOV NE=
201708080452 METAR KATL 080452Z 34012G15KT 10SM BKN015 BKN060 BKN150 OVC200 24/22 A3005 RMK AO2 SLP165 CB DSNT NE & W-NW T02440217 403000228=
201708080352 METAR KATL 080352Z 23006KT 10SM SCT090 BKN150 OVC200 24/23 A3003 RMK AO2 SLP157 LTG DSNT NW-N T02440228=
201708080252 METAR KATL 080252Z 22004KT 10SM FEW025 SCT060 BKN090 OVC200 25/23 A3004 RMK AO2 SLP161 LTG DSNT NW T02500228 53015=
201708080152 METAR KATL 080152Z 22004KT 10SM FEW025 BKN090 BKN150 BKN200 26/23 A3002 RMK AO2 SLP157 T02560228=
201708080052 METAR KATL 080052Z 21006KT 10SM FEW020 SCT090 BKN150 BKN200 26/23 A3000 RMK AO2 SLP149 T02560233=
201708072352 METAR KATL 072352Z 21004KT 10SM FEW020 BKN140 BKN200 BKN250 26/23 A3000 RMK AO2 SLP147 60014 T02610233 10300 20233 56001=
201708072252 METAR KATL 072252Z 21006KT 10SM FEW120 BKN150 BKN200 27/23 A3000 RMK AO2 SLP148 LTG DSNT E-SE T02670233=
201708072152 METAR KATL 072152Z 27004KT 10SM FEW025 SCT100 BKN150 BKN200 26/22 A2999 RMK AO2 PK WND 26031/2109 WSHFT 2106 RAB11E51 TSB15E42 SLP145 TCU DSNT SE-S P0014 T02560217=
201708072144 SPECI KATL 072144Z 00000KT 10SM -RA FEW025 SCT090 BKN150 BKN200 24/21 A2999 RMK AO2 PK WND 26031/2109 WSHFT 2106 RAB11 TSB15E42 TS DSIPTD CB DSNT NE P0014 T02440211=
201708072126 SPECI KATL 072126Z 31006KT 8SM -TSRA FEW025CB SCT040 BKN080 BKN200 23/21 A3001 RMK AO2 PK WND 26031/2109 WSHFT 2106 RAB11 TSB15 OCNL LTGIC N-NE TS N-NE MOV NE P0014 T02330211=
201708072052 METAR KATL 072052Z 22008KT 10SM SCT030CB SCT100 BKN150 BKN200 BKN250 29/22 A3000 RMK AO2 LTG DSNT W SLP148 CB VC SW MOV NE SHRA VC SW 60000 T02890222 56016=
201708071952 METAR KATL 071952Z 23008KT 10SM SCT030 SCT100 SCT150 BKN200 BKN250 29/22 A3001 RMK AO2 SLP151 TCU DSNT NE AND SW SHRA DSNT NE T02890222=
201708071852 METAR KATL 071852Z 24009KT 10SM SCT030TCU SCT050 BKN110 BKN200 BKN250 27/22 A3003 RMK AO2 RAB10E23 SLP159 TCU W-NW SHRA S AND W-NW P0000 T02720222=
201708071752 METAR KATL 071752Z 26005KT 10SM SCT027TCU BKN060 BKN100 BKN200 BKN250 28/23 A3005 RMK AO2 RAB12E47 SLP165 TCU E SHRA E & S & W & DSNT SW VIS LWR E P0019 60019 T02780228 10294 20233 58003=
201708071748 SPECI KATL 071748Z VRB05KT 10SM SCT027TCU BKN060 BKN100 BKN250 27/23 A3005 RMK AO2 RAB12E47 TCU E SHRA W AND DSNT SW VIS LWR E P0019=
201708071742 SPECI KATL 071742Z 29005KT 5SM R09R/2600VP6000FT -RA BR BKN027TCU BKN060 BKN100 BKN250 26/23 A3005 RMK AO2 RAB12 TCU OHD-E VIS LWR E-SE P0019 T02560233=
201708071738 SPECI KATL 071738Z VRB04KT 3/4SM R09R/2600VP6000FT RA BR BKN027TCU BKN060 BKN100 BKN250 24/22 A3005 RMK AO2 RAB12 TCU OHD P0019 T02440222=
201708071733 SPECI KATL 071733Z 27012G18KT 1 1/2SM R09R/2600VP6000FT RA BR SCT030TCU BKN060 BKN070 BKN250 24/22 A3006 RMK AO2 RAB12 TCU OHD-SW-NW P0004 T02440222=
201708071652 METAR KATL 071652Z 22012KT 10SM BKN030 BKN100 BKN250 29/21 A3006 RMK AO2 SLP168 MDT CU SW-NW T02890211=
201708071552 METAR KATL 071552Z 25008KT 10SM FEW025 FEW100 BKN250 28/22 A3007 RMK AO2 SLP171 TCU DSNT E T02780217=
201708071512 SPECI KATL 071512Z 25013KT 10SM FEW021 SCT027 27/22 A3006 RMK AO2 T02720217=
201708071452 METAR KATL 071452Z 23009KT 10SM BKN020 BKN100 BKN250 27/22 A3005 RMK AO2 SLP167 T02670222 51004=
201708071407 SPECI KATL 071407Z 22009KT 200V260 10SM BKN015 BKN019 BKN100 26/23 A3005 RMK AO2 T02560228=
201708071352 METAR KATL 071352Z 24009KT 9SM BKN013 BKN100 BKN250 25/23 A3005 RMK AO2 SLP167 T02500228=
201708071252 METAR KATL 071252Z 21008KT 9SM FEW007 BKN011 BKN090 BKN150 24/23 A3005 RMK AO2 SLP166 CIG 009V013 T02390228=
201708071247 SPECI KATL 071247Z 22008KT 9SM FEW007 BKN011 BKN090 BKN150 24/23 A3005 RMK AO2=
201708071152 METAR KATL 071152Z 21006KT 8SM BKN009 BKN013 OVC100 23/23 A3004 RMK AO2 SLP164 CIG 006V011 60000 70063 T02330228 10233 20228 51004=
201708071052 METAR KATL 071052Z 21006KT 10SM OVC008 23/22 A3004 RMK AO2 SLP162 CIG 007V011 T02330222=
201708070952 METAR KATL 070952Z 24008KT 10SM BKN009 OVC034 23/22 A3003 RMK AO2 SLP160 CIG 008V012 T02330222=
201708070922 SPECI KATL 070922Z 23007G15KT 10SM BKN008 BKN024 BKN100 OVC150 23/22 A3003 RMK AO2 LTG DSNT NW T02330222=
201708070852 METAR KATL 070852Z 22006KT 10SM FEW008 FEW020 BKN100 BKN150 23/22 A3003 RMK AO2 LTG DSNT W RAB33E43 SLP160 P0000 60000 T02280222 56007=
201708070752 METAR KATL 070752Z 21008KT 10SM FEW040 SCT110 BKN150 BKN200 23/22 A3003 RMK AO2 SLP160 T02280222=
201708070652 METAR KATL 070652Z 20008KT 10SM FEW015 FEW040 SCT200 SCT250 23/22 A3004 RMK AO2 SLP162 CB DSNT W-NW T02330222=
201708070613 SPECI KATL 070613Z 19008KT 10SM SCT019 SCT045 BKN200 BKN250 23/22 A3004 RMK AO2 T02330222=
201708070552 METAR KATL 070552Z 16006KT 10SM FEW005 BKN021 OVC045 23/22 A3005 RMK AO2 SLP166 60019 T02330222 10250 20228 58002=
201708070514 SPECI KATL 070514Z 00000KT 10SM FEW005 BKN029 OVC045 23/22 A3006 RMK AO2 T02330222=
201708070452 METAR KATL 070452Z 28004KT 10SM SCT032 BKN045 OVC080 23/22 A3007 RMK AO2 LTG DSNT NE RAB12E39 SLP172 CB DSNT NE P0012 T02280222 403110222=
201708070426 SPECI KATL 070426Z 23003KT 10SM -RA SCT028 BKN050 OVC080 23/22 A3007 RMK AO2 RAB12 P0010 T02330222=
201708070417 SPECI KATL 070417Z 18011G16KT 3SM RA BR FEW008 BKN028 OVC050 23/22 A3007 RMK AO2 RAB12 P0010 T02280222=
201708070352 METAR KATL 070352Z 17005KT 10SM SCT032 BKN050 BKN075 23/22 A3007 RMK AO2 LTG DSNT SE RAE01 SLP171 CB DSNT SE P0000 T02280222=
201708070252 METAR KATL 070252Z 23004KT 10SM -RA FEW039 BKN110 OVC200 23/21 A3006 RMK AO2 SLP168 CB DSNT E P0006 60007 T02280211 50006=
201708070152 METAR KATL 070152Z 19007KT 10SM -RA FEW040 BKN100 OVC250 24/22 A3007 RMK AO2 LTG DSNT SW RAB48 SLP172 CB DSNT SW P0000 T02390222=
201708070052 METAR KATL 070052Z 00000KT 10SM FEW030 BKN080 OVC200 25/23 A3005 RMK AO2 LTG DSNT N RAE12 SLP165 CB DSNT NW-N P0001 T02500228=
201708070010 SPECI KATL 070010Z 00000KT 10SM -RA FEW030 SCT070 BKN120 24/23 A3003 RMK AO2 LTG DSNT ALQDS CB DSNT SE-S & NW-N P0001 T02440228=
201708062352 METAR KATL 062352Z VRB04KT 10SM VCTS -RA FEW028CB BKN050 BKN080 24/23 A3004 RMK AO2 LTG DSNT S-NW SLP163 RAB31 OCNL LTGIC VC S-W-NW TS VC S-W-NW MOV NE P0002 60044 T02440228 10311 20244 55002=
201708062340 SPECI KATL 062340Z 19008KT 5SM R09R/5500VP6000FT VCTS -RA FEW012CB SCT033 BKN048 BKN250 25/22 A3004 RMK AO2 LTG DSNT S-NW RAB31 OCNL LTGIC VC S-W TS VC S-W MOV NE P0002 T02500222=
201708062252 METAR KATL 062252Z 18006KT 10SM FEW032 SCT150 BKN250 28/22 A3002 RMK AO2 LTG DSNT SW SLP157 CB DSNT S-SW T02830217=
201708062152 METAR KATL 062152Z 18006KT 10SM FEW032 FEW065 SCT110 BKN200 27/23 A3003 RMK AO2 LTG DSNT N RAE35 SLP159 CB DSNT ALQDS TCU DSNT N & E & SW-W P0007 T02720233=
201708062052 METAR KATL 062052Z 11003KT 6SM R09R/3000VP6000FT -RA SCT032CB BKN070 BKN110 BKN200 26/21 A3005 RMK AO2 LTG DSNT NW RAB39 SLP164 VIS LWR S-SW CB NE-OHD-SW MOV NE CB DSNT ALQDS TCU ALQDS P0018 60035 T02560211 55007=
201708061952 METAR KATL 061952Z 16010KT 10SM FEW034TCU FEW060 SCT110 BKN200 28/22 A3004 RMK AO2 LTG DSNT S AND SW RAE03 TSB1855E12 SLP162 TS DSIPTD CB DSNT ALQDS TCU SW-NW P0001 T02780222=
201708061915 SPECI KATL 061915Z 06004KT 10SM SCT036CB BKN055 BKN100 BKN200 27/22 A3005 RMK AO2 LTG DSNT E AND SE RAE03 TSB1855E12 TS DSIPTD CB SE-S MOV NE TCU W-NW & DSNT E CB DSNT E & SE SHRA SE-S P0001 T02720222=
201708061858 SPECI KATL 061858Z 14003KT 8SM R09R/5500VP6000FT -TSRA SCT036CB BKN055 BKN100 BKN200 26/23 A3006 RMK AO2 TSB55 OCNL LTGICCG NW-NE TS NW-NE MOV N CB DSNT NE & SE P0001 T02610233=
201708061852 METAR KATL 061852Z 12003KT 6SM R09R/3500VP6000FT +RA BR SCT032CB BKN065 BKN110 BKN200 25/23 A3007 RMK AO2 RAB38 SLP171 VIS NW-NE 2 CB E-OHD-W MOV N CB DSNT SE P0016 T02500228=
201708061752 METAR KATL 061752Z 22008KT 10SM SCT038CB BKN070 BKN150 31/20 A3007 RMK AO2 SLP170 CB SE MOV N TCU ALQDS SHRA SE T03060200 10311 20233 56008=
201708061652 METAR KATL 061652Z 23008KT 10SM BKN034TCU BKN060 29/20 A3008 RMK AO2 SLP173 TCU ALQDS T02890200=
201708061552 METAR KATL 061552Z 20006KT 10SM SCT028 SCT050 29/21 A3008 RMK AO2 SLP175 MDT CU ALQDS T02940206=
201708061452 METAR KATL 061452Z 21005KT 10SM SCT020 BKN030 27/22 A3009 RMK AO2 SLP178 MDT CU ALQDS T02720222 50002=
201708061352 METAR KATL 061352Z 00000KT 10SM FEW016 SCT028 27/22 A3010 RMK AO2 SLP181 T02670222=
201708061343 SPECI KATL 061343Z 12004KT 10SM FEW016 SCT028 26/22 A3010 RMK AO2 T02610222=
201708061309 SPECI KATL 061309Z 00000KT 10SM FEW014 BKN028 26/22 A3011 RMK AO2 T02560222=
201708061252 METAR KATL 061252Z 21004KT 10SM CLR 25/22 A3011 RMK AO2 SLP185 T02500222=
201708061152 METAR KATL 061152Z 16004KT 10SM CLR 23/19 A3008 RMK AO2 SLP177 T02330189 10261 20222 53008=
201708061052 METAR KATL 061052Z 09003KT 10SM FEW025 FEW100 22/18 A3007 RMK AO2 SLP174 T02220178=
201708060952 METAR KATL 060952Z VRB03KT 10SM FEW025 FEW100 23/18 A3007 RMK AO2 SLP170 T02330183=
201708060852 METAR KATL 060852Z 11003KT 10SM BKN100 24/16 A3006 RMK AO2 SLP167 T02440161 53003=
201708060752 METAR KATL 060752Z 08004KT 10SM FEW021 SCT110 24/16 A3006 RMK AO2 SLP168 T02390156=
201708060718 SPECI KATL 060718Z 07007KT 10SM SCT021 SCT100 24/16 A3005 RMK AO2 T02440156=
201708060652 METAR KATL 060652Z 07004KT 10SM BKN022 BKN100 26/16 A3005 RMK AO2 SLP163 T02610161=
201708060636 SPECI KATL 060636Z 07005KT 10SM BKN024 BKN100 26/17 A3005 RMK AO2 T02610167=
201708060552 METAR KATL 060552Z 00000KT 10SM SCT032 SCT200 25/19 A3005 RMK AO2 SLP164 T02500189 10283 20244 58006=
201708060452 METAR KATL 060452Z 11004KT 10SM FEW048 26/17 A3006 RMK AO2 SLP167 T02560172 403110211=
201708060352 METAR KATL 060352Z 05006KT 10SM FEW050 27/18 A3007 RMK AO2 SLP171 T02670183=
201708060252 METAR KATL 060252Z VRB03KT 10SM FEW050 28/18 A3007 RMK AO2 SLP171 T02780183 53008=
201708060152 METAR KATL 060152Z 28003KT 10SM FEW060 27/20 A3006 RMK AO2 SLP168 T02720200=
201708060052 METAR KATL 060052Z 28005KT 10SM FEW040 27/20 A3005 RMK AO2 SLP165 T02670200=
201708052352 METAR KATL 052352Z 26007KT 10SM FEW042 28/19 A3005 RMK AO2 SLP164 T02830194 10311 20283 55001=
201708052252 METAR KATL 052252Z 28007KT 10SM SCT043 28/19 A3004 RMK AO2 SLP162 T02830194=
201708052152 METAR KATL 052152Z 28005KT 10SM SCT044 30/19 A3005 RMK AO2 SLP166 T03000194=
201708052052 METAR KATL 052052Z 30010KT 10SM SCT044 31/19 A3005 RMK AO2 SLP164 T03060189 58006=
201708051952 METAR KATL 051952Z 26007KT 230V290 10SM SCT043 29/19 A3006 RMK AO2 SLP168 T02940194=
201708051852 METAR KATL 051852Z 32009G15KT 10SM BKN042 31/19 A3007 RMK AO2 SLP173 T03060194=
201708051752 METAR KATL 051752Z 28007KT 10SM SCT038 30/19 A3007 RMK AO2 SLP171 T03000189 10300 20217 58014=
201708051652 METAR KATL 051652Z 31007KT 10SM SCT034 29/19 A3009 RMK AO2 SLP177 T02890194=
201708051552 METAR KATL 051552Z VRB04KT 10SM FEW032 28/20 A3010 RMK AO2 SLP183 T02780200=
201708051452 METAR KATL 051452Z 24007KT 10SM FEW024 26/21 A3011 RMK AO2 SLP186 T02610206 51015=
201708051352 METAR KATL 051352Z 00000KT 10SM FEW016 FEW120 FEW250 25/21 A3010 RMK AO2 SLP183 T02500206=
201708051252 METAR KATL 051252Z 28003KT 10SM FEW010 FEW120 23/21 A3009 RMK AO2 SLP178 T02280206=
201708051152 METAR KATL 051152Z 26003KT 10SM FEW004 FEW120 22/21 A3006 RMK AO2 SLP171 60000 70004 T02170206 10222 20211 53018=
201708051052 METAR KATL 051052Z VRB03KT 10SM FEW004 FEW120 21/20 A3004 RMK AO2 SLP161 T02110200=
201708050952 METAR KATL 050952Z 32006KT 10SM FEW004 FEW200 FEW250 21/21 A3002 RMK AO2 SLP154 T02110206=
201708050852 METAR KATL 050852Z 30008KT 10SM FEW100 SCT150 SCT250 22/21 A3001 RMK AO2 SLP151 60000 T02170206 58009=
201708050752 METAR KATL 050752Z 28008KT 10SM FEW035 SCT085 SCT110 BKN150 OVC200 22/21 A3002 RMK AO2 RAE02 SLP155 P0000 T02170206=
201708050652 METAR KATL 050652Z 25006KT 10SM -RA FEW035 SCT085 BKN110 OVC150 22/20 A3003 RMK AO2 RAE10B50 SLP158 P0000 T02220200=
201708050626 SPECI KATL 050626Z 32005KT 10SM FEW010 FEW035 SCT110 BKN150 OVC200 22/20 A3004 RMK AO2 RAE10 P0000 T02220200=
201708050552 METAR KATL 050552Z 22006KT 10SM -RA FEW010 BKN085 OVC100 22/21 A3004 RMK AO2 LTG DSNT N AND SW SLP161 TSB16E44 OCNL LTG DSNT SW TS DSIPT P0004 60004 T02170206 10283 20217 51001 $=
201708050547 SPECI KATL 050547Z 22006KT 10SM -RA FEW010 BKN085 OVC100 22/21 A3003 RMK AO2 LTG DSNT N AND SW TSB16E44 OCNL LTG DSNT NE-E AND SW TS DSIPT P0003 $=
201708050519 SPECI KATL 050519Z 28009KT 10SM -TSRA SCT010 BKN035CB OVC110 23/22 A3003 RMK AO2 LTG DSNT NE AND SW TSB16 OCNL LTGIC SW AND W OCNL DSNT LTG NE TS VC SW AND W MOV E P0002 T02280217=
201708050452 METAR KATL 050452Z 24010KT 10SM -RA BKN010 OVC035 24/22 A3004 RMK AO2 RAB41 SLP164 LTG DSNT N-NE & SW-W P0000 T02390222 403060206=
201708050441 SPECI KATL 050441Z 24007KT 10SM -RA BKN012 BKN035 OVC200 24/22 A3005 RMK AO2 RAB41 LTG DSNT N-NE & DSNT SW-W P0000 T02390217=
201708050352 METAR KATL 050352Z 22009KT 10SM FEW030 SCT120 BKN200 BKN250 24/22 A3003 RMK AO2 SLP159 LTG DSNT N-NE & SW-NW T02390222=
201708050252 METAR KATL 050252Z 21008KT 10SM SCT035 BKN100 BKN200 BKN250 25/23 A3005 RMK AO2 SLP165 T02500228 53013=
201708050152 METAR KATL 050152Z 20006KT 10SM FEW030 BKN100 BKN200 BKN250 26/23 A3002 RMK AO2 SLP157 LTG DSNT NE T02560228=
201708050052 METAR KATL 050052Z 21005KT 10SM SCT035TCU BKN200 BKN250 27/21 A3002 RMK AO2 SLP154 CB DSNT NE TCU N-NE & S & DSNT NW T02720211=
201708042352 METAR KATL 042352Z 22007KT 10SM FEW035TCU SCT200 BKN250 28/21 A3001 RMK AO2 SLP152 CB DSNT SE TCU OHD-NE & DSNT S T02830211 10306 20283 53001=
201708042252 METAR KATL 042252Z 21008KT 10SM FEW040CB BKN250 29/21 A2999 RMK AO2 SLP146 TCU DSNT SE & NW T02890211=
201708042152 METAR KATL 042152Z 21010KT 10SM SCT040TCU BKN250 29/21 A2999 RMK AO2 SLP146 TCU VC NE T02940211=
201708042052 METAR KATL 042052Z 26006KT 10SM BKN040TCU BKN100 BKN200 30/20 A3001 RMK AO2 SLP151 TCU NE-E T03000200 56019=
201708041952 METAR KATL 041952Z 20007KT 10SM SCT037 BKN050 BKN100 29/20 A3002 RMK AO2 SLP155 MDT CU ALQDS T02940200=
201708041852 METAR KATL 041852Z 29008KT 10SM BKN040 BKN080 29/20 A3004 RMK AO2 SLP163 TCU DSNT E T02890200=
201708041752 METAR KATL 041752Z 15006KT 10SM SCT035 BKN090 BKN200 28/19 A3006 RMK AO2 SLP171 TCU DSNT S-SW T02830194 10289 20222 58015=
201708041652 METAR KATL 041652Z VRB03KT 10SM FEW030 BKN050 BKN080 27/19 A3009 RMK AO2 SLP180 TCU DSNT SW T02720194=
201708041552 METAR KATL 041552Z 00000KT 10SM FEW023 SCT030 BKN050 27/20 A3011 RMK AO2 SLP186 T02670200=
201708041550 SPECI KATL 041550Z 00000KT 10SM FEW023 SCT030 BKN050 27/20 A3011 RMK AO2=
201708041452 METAR KATL 041452Z 00000KT 10SM BKN017 BKN020 BKN050 26/21 A3012 RMK AO2 SLP189 T02560211 51006=
201708041432 SPECI KATL 041432Z 00000KT 10SM BKN015 BKN020 BKN050 24/20 A3012 RMK AO2 T02440200=
201708041352 METAR KATL 041352Z VRB04KT 10SM BKN012 BKN015 OVC050 23/20 A3012 RMK AO2 SLP189 T02330200=
201708041335 SPECI KATL 041335Z 23003KT 10SM BKN013 BKN015 OVC050 23/21 A3012 RMK AO2 T02330206=
201708041315 SPECI KATL 041315Z 27004KT 10SM OVC015 23/21 A3012 RMK AO2 T02330206=
201708041252 METAR KATL 041252Z 30005KT 10SM FEW010 OVC014 23/21 A3012 RMK AO2 SLP190 T02280206=
201708041152 METAR KATL 041152Z 28004KT 10SM FEW009 OVC013 22/21 A3010 RMK AO2 SLP184 BINOVC 60000 70001 T02220206 10222 20206 53008=
201708041110 SPECI KATL 041110Z 28005KT 10SM SCT009 BKN015 BKN100 BKN250 22/21 A3009 RMK AO2 T02170206=
201708041052 METAR KATL 041052Z 29005KT 10SM BKN008 OVC014 22/21 A3009 RMK AO2 SLP178 CIG 007V010 BINOVC T02170206=
201708040952 METAR KATL 040952Z 28004KT 9SM BKN006 OVC012 22/21 A3007 RMK AO2 DZE33 SLP175 CIG 005V008 P0000 T02170206=
201708040906 SPECI KATL 040906Z 23003KT 7SM -DZ OVC006 22/21 A3007 RMK AO2 CIG 004V008 P0000 T02170206=
201708040852 METAR KATL 040852Z 23004KT 1 1/4SM -DZ BKN005 OVC012 21/20 A3007 RMK AO2 SFC VIS 7 DZB13 SLP174 CIG 003V007 TWRINC P0000 60000 T02110200 56008=
201708040841 SPECI KATL 040841Z 00000KT 1 1/4SM -DZ BR OVC005 21/21 A3007 RMK AO2 SFC VIS 6 DZB13 CIG 003V007 TWRINC P0000 T02110206=
201708040752 METAR KATL 040752Z 26003KT 1 1/4SM OVC003 21/21 A3008 RMK AO2 SFC VIS 7 SLP178 CIG 002V004 TWRINC T02110206=
201708040652 METAR KATL 040652Z 20003KT 1 1/4SM OVC003 21/20 A3008 RMK AO2 SFC VIS 7 SLP175 CIG 002V004 TWRINC T02060200=
201708040606 SPECI KATL 040606Z 20003KT 9SM BKN004 OVC095 21/20 A3009 RMK AO2 CIG 003V005 T02060200=
201708040552 METAR KATL 040552Z 21006KT 10SM BKN005 BKN100 OVC200 21/20 A3010 RMK AO2 SLP183 CIG 004V006 T02060200 10233 20206 58006=
201708040546 SPECI KATL 040546Z 21004KT 10SM SCT006 BKN100 BKN200 21/20 A3010 RMK AO2=
201708040452 METAR KATL 040452Z 20004KT 10SM BKN090 BKN200 21/20 A3011 RMK AO2 SLP185 T02110200 402830211=
201708040352 METAR KATL 040352Z 19003KT 10SM SCT090 BKN200 21/20 A3011 RMK AO2 SLP187 T02110200=
201708040252 METAR KATL 040252Z 15005KT 10SM FEW025 BKN080 BKN150 BKN200 22/21 A3012 RMK AO2 SLP189 T02220206 50008=
201708040152 METAR KATL 040152Z 16007KT 10SM FEW025 BKN060 BKN100 BKN200 23/21 A3012 RMK AO2 SLP191 T02280206=
201708040052 METAR KATL 040052Z 14005KT 10SM FEW025 BKN060 BKN100 BKN200 23/21 A3011 RMK AO2 SLP186 T02330211=
201708032352 METAR KATL 032352Z 16007KT 10SM FEW025CB BKN060 BKN100 OVC200 23/21 A3009 RMK AO2 RAB28E51 SLP181 CB VC NW MOV NE P0001 60001 T02280206 10283 20228 53001=
201708032252 METAR KATL 032252Z 18007KT 10SM FEW025CB SCT050 BKN100 BKN200 28/19 A3009 RMK AO2 SLP179 CB VC SE-SW MOV NE T02780189=
201708032152 METAR KATL 032152Z 23006KT 10SM FEW025 SCT040 BKN080 OVC200 27/21 A3009 RMK AO2 SLP180 T02670211=
201708032052 METAR KATL 032052Z 00000KT 10SM FEW025 BKN085 BKN110 OVC150 27/21 A3009 RMK AO2 SLP180 CB DSNT NW TCU DSNT NE SHRA DSNT NW 60000 T02720211 56010=
201708032015 SPECI KATL 032015Z 12004KT 10SM FEW025CB BKN095 OVC150 27/21 A3010 RMK AO2 CB VC N-NE MOV NE SHRA VC N-NE T02670206=
201708031952 METAR KATL 031952Z 17006KT 10SM FEW025CB SCT030TCU BKN100 OVC150 26/22 A3011 RMK AO2 RAB43E52 SLP184 CB VC NE MOV NE TCU N-NE-E SHRA VC NE & SE-S P0000 T02610217=
201708031903 SPECI KATL 031903Z 19008KT 10SM FEW035CB SCT045TCU BKN110 OVC150 28/20 A3010 RMK AO2 CB VC SE MOV NE TCU N-NE-E-SE SHRA VC SE T02780200=
201708031852 METAR KATL 031852Z 19007KT 10SM FEW035TCU SCT050 BKN110 OVC150 28/20 A3011 RMK AO2 SLP184 TCU N & E & DSNT S SHRA DSNT S T02780200=
201708031752 METAR KATL 031752Z 15005KT 10SM FEW035 BKN110 BKN150 BKN200 28/19 A3012 RMK AO2 SLP189 T02830194 10283 20222 58007=
201708031652 METAR KATL 031652Z VRB03KT 10SM FEW040 FEW100 BKN150 BKN200 28/18 A3013 RMK AO2 SLP192 T02830178=
201708031552 METAR KATL 031552Z 11006KT 10SM FEW100 BKN150 BKN200 28/18 A3014 RMK AO2 SLP194 ACC DSNT S-SW T02830178=
201708031452 METAR KATL 031452Z 13005KT 10SM FEW120 SCT150 BKN200 26/18 A3014 RMK AO2 SLP196 ACC DSNT SW T02610183 50001=
201708031352 METAR KATL 031352Z 09006KT 10SM FEW120 BKN180 BKN250 24/18 A3015 RMK AO2 SLP198 VIRGA DSNT NW T02440178=
201708031252 METAR KATL 031252Z 09004KT 10SM SCT130 BKN180 BKN250 23/18 A3015 RMK AO2 SLP199 ACC DSNT NE-E & W VIRGA SE-SW T02330178=
201708031152 METAR KATL 031152Z 00000KT 10SM SCT140 BKN180 BKN250 23/18 A3014 RMK AO2 SLP195 VIRGA S-SW ACC N-E & DSNT W T02330178 10250 20217 53015=
201708031052 METAR KATL 031052Z 00000KT 10SM FEW150 SCT180 BKN250 22/18 A3012 RMK AO2 SLP190 ACC DSNT NE T02220183=
201708030952 METAR KATL 030952Z 04003KT 10SM FEW150 BKN180 BKN250 23/18 A3010 RMK AO2 SLP182 T02330178=
201708030852 METAR KATL 030852Z 07003KT 10SM FEW150 SCT180 BKN250 23/18 A3009 RMK AO2 SLP180 T02330183 55006=
201708030752 METAR KATL 030752Z 00000KT 10SM FEW150 BKN180 BKN250 23/18 A3009 RMK AO2 SLP177 T02330183=
201708030652 METAR KATL 030652Z 10003KT 10SM BKN150 BKN180 OVC250 24/18 A3009 RMK AO2 SLP179 T02440178=
201708030552 METAR KATL 030552Z 00000KT 10SM SCT150 BKN180 BKN250 25/17 A3011 RMK AO2 SLP186 T02500167 10283 20239 50000=
201708030452 METAR KATL 030452Z 00000KT 10SM SCT150 BKN200 BKN250 24/17 A3012 RMK AO2 SLP191 T02390167 403000217=
201708030352 METAR KATL 030352Z 00000KT 10SM BKN150 BKN200 OVC250 25/17 A3012 RMK AO2 SLP190 T02500172=
201708030252 METAR KATL 030252Z 15005KT 10SM BKN150 BKN200 OVC250 26/17 A3011 RMK AO2 SLP186 T02610172 53013=
201708030152 METAR KATL 030152Z 15004KT 10SM BKN150 BKN200 OVC250 27/17 A3010 RMK AO2 SLP184 T02670172=
201708030052 METAR KATL 030052Z 12006KT 10SM SCT150 BKN200 BKN250 27/16 A3008 RMK AO2 SLP173 T02720156=
201708022352 METAR KATL 022352Z 12006KT 10SM FEW050 SCT150 BKN200 BKN250 28/14 A3007 RMK AO2 SLP173 T02830144 10300 20272 55005=
201708022252 METAR KATL 022252Z 16004KT 10SM FEW055 SCT150 BKN200 BKN250 28/16 A3006 RMK AO2 SLP170 T02830156=
201708022152 METAR KATL 022152Z 00000KT 10SM FEW060 SCT150 BKN250 28/15 A3008 RMK AO2 SLP176 T02830150=
201708022052 METAR KATL 022052Z 16007KT 10SM FEW060 SCT150 BKN250 29/14 A3009 RMK AO2 SLP177 T02940144 56016=
201708021952 METAR KATL 021952Z VRB03KT 10SM FEW065 FEW100 SCT150 BKN250 29/14 A3010 RMK AO2 SLP182 T02940139=
201708021852 METAR KATL 021852Z VRB04KT 10SM FEW055 FEW150 BKN180 BKN250 29/15 A3012 RMK AO2 SLP188 T02890150=
201708021752 METAR KATL 021752Z 00000KT 10SM FEW050 SCT140 BKN180 BKN250 27/16 A3014 RMK AO2 SLP195 VIRGA DSNT SW T02720156 10272 20228 56007=
201708021652 SPECI KATL 021652Z 00000KT 10SM FEW100 SCT140 BKN180 BKN250 27/16 A3014 RMK AO2 SLP194 VIRGA DSNT NE & SE & S T02670156=
201708021652 METAR KATL 021652Z 00000KT 10SM FEW100 SCT140 BKN180 BKN250 27/16 A3014 RMK AO2 SLP194 VIRGA DSNT NE & SE & S T02670156=
201708021552 METAR KATL 021552Z 11004KT 10SM FEW100 BKN140 OVC200 26/17 A3014 RMK AO2 SLP196 VIRGA OHD & ALQDS T02560172=
201708021452 METAR KATL 021452Z 16005KT 10SM FEW120 SCT150 BKN180 BKN250 25/18 A3016 RMK AO2 SLP202 VIRGA E & S-SW-W-NW T02500183 51011=
201708021352 METAR KATL 021352Z 00000KT 10SM FEW120 BKN160 BKN200 24/17 A3015 RMK AO2 SLP199 VIRGA OHD & ALQDS T02440172=
201708021252 METAR KATL 021252Z 33004KT 10SM FEW120 BKN200 BKN250 25/17 A3014 RMK AO2 SLP196 VIRGA S-W-NW T02500167=
201708021152 METAR KATL 021152Z 32005KT 10SM SCT180 BKN220 BKN250 23/17 A3012 RMK AO2 SLP190 VIRGA DSNT SW AND NW-N T02280167 10239 20217 53009=
201708021052 METAR KATL 021052Z 00000KT 10SM FEW060 SCT180 BKN220 23/17 A3011 RMK AO2 SLP184 T02280167=
201708020952 METAR KATL 020952Z 00000KT 10SM BKN200 BKN250 22/17 A3009 RMK AO2 SLP178 T02220167=
201708020852 METAR KATL 020852Z 00000KT 10SM BKN200 BKN250 22/17 A3010 RMK AO2 SLP180 T02220167 55002=
201708020752 METAR KATL 020752Z 00000KT 10SM FEW180 BKN250 23/16 A3009 RMK AO2 SLP179 T02280161=
201708020652 METAR KATL 020652Z 00000KT 10SM SCT180 23/16 A3010 RMK AO2 SLP181 T02280156=
201708020552 METAR KATL 020552Z 15003KT 10SM BKN180 24/16 A3010 RMK AO2 SLP182 T02390161 10283 20239 58002=
201708020452 METAR KATL 020452Z 14003KT 10SM BKN180 25/16 A3010 RMK AO2 SLP183 T02500161 403060200=
201708020352 METAR KATL 020352Z 14004KT 10SM BKN180 26/16 A3011 RMK AO2 SLP185 T02560161=
201708020252 METAR KATL 020252Z 00000KT 10SM BKN180 26/16 A3011 RMK AO2 SLP183 T02560161 53011=
201708020152 METAR KATL 020152Z 00000KT 10SM BKN150 27/16 A3009 RMK AO2 SLP178 T02670156=
201708020052 METAR KATL 020052Z 15005KT 10SM SCT150 27/16 A3008 RMK AO2 SLP176 T02670156=
201708012352 METAR KATL 012352Z 15008KT 10SM FEW200 29/14 A3007 RMK AO2 SLP173 T02890144 10306 20283 55001=
201708012252 METAR KATL 012252Z 11007KT 10SM FEW060 FEW200 29/14 A3007 RMK AO2 SLP171 T02940144=
201708012152 METAR KATL 012152Z 09008KT 10SM FEW065 SCT150 BKN200 29/14 A3007 RMK AO2 SLP171 T02940144=
201708012052 METAR KATL 012052Z 10007KT 10SM FEW065 SCT150 BKN250 30/15 A3007 RMK AO2 SLP174 T03000150 56017=
201708011952 METAR KATL 011952Z 00000KT 10SM FEW065 FEW150 BKN250 30/14 A3009 RMK AO2 SLP178 T03000144=
201708011852 METAR KATL 011852Z VRB03KT 10SM FEW075 FEW150 BKN250 30/12 A3010 RMK AO2 SLP183 T03000122=
201708011752 METAR KATL 011752Z VRB06KT 10SM FEW060 FEW150 SCT250 29/13 A3012 RMK AO2 SLP190 T02890128 10300 20217 58006=
201708011652 METAR KATL 011652Z 08003KT 10SM SCT055 SCT250 29/14 A3014 RMK AO2 SLP194 T02890144=
201708011552 METAR KATL 011552Z 17006KT 10SM FEW055 FEW250 28/15 A3014 RMK AO2 SLP195 T02780150=
201708011452 METAR KATL 011452Z 15004KT 10SM FEW050 FEW150 SCT250 27/16 A3014 RMK AO2 SLP196 T02720156 51010=
201708011352 METAR KATL 011352Z 00000KT 10SM FEW150 SCT200 BKN250 25/15 A3014 RMK AO2 SLP195 T02500150 $=
201708011252 METAR KATL 011252Z 16003KT 10SM FEW150 SCT200 BKN250 24/16 A3013 RMK AO2 SLP192 T02390156=
