##########################################################
# Query made at 04/19/2024 23:52:38 UTC
# Time interval: from 02/01/2017 12:00  to 02/28/2017 12:59  UTC
##########################################################

##########################################################
# KATL, Atlanta, Hartsfield - Jackson Atlanta International Airport (United States)
# WMO index: 72219. WIGOS ID: 0-20000-0-72219
# Latitude 33-38-59N. Longitude 084-25-00W. Altitude 312 m.
##########################################################

201702281252 METAR KATL 281252Z 10003KT 10SM FEW006 BKN250 11/08 A3028 RMK AO2 SLP255 T01110078=
201702281152 METAR KATL 281152Z 09003KT 10SM FEW005 FEW250 10/08 A3028 RMK AO2 SLP254 70006 T01000078 10117 20100 51004=
201702281103 SPECI KATL 281103Z 12004KT 10SM SCT005 11/08 A3028 RMK AO2 SCT005 V BKN T01110078=
201702281052 METAR KATL 281052Z 10003KT 10SM BKN005 11/08 A3027 RMK AO2 SLP252 BKN005 V SCT T01110078=
201702280952 METAR KATL 280952Z 09005KT 10SM BKN009 11/08 A3027 RMK AO2 SLP252 CIG 008V012 T01110078=
201702280852 METAR KATL 280852Z 08005KT 10SM OVC009 11/08 A3027 RMK AO2 SLP250 CIG 008V012 T01110083 55003=
201702280752 METAR KATL 280752Z 10004KT 10SM OVC009 11/09 A3026 RMK AO2 SLP249 CIG 008V012 T01110094=
201702280727 SPECI KATL 280727Z 09005KT 10SM BKN009 11/09 A3027 RMK AO2 T01110094=
201702280652 METAR KATL 280652Z 08005KT 10SM BKN011 11/09 A3027 RMK AO2 SLP250 CIG 010V014 T01110094=
201702280625 SPECI KATL 280625Z 08006KT 10SM OVC011 11/09 A3027 RMK AO2 T01110094=
201702280552 METAR KATL 280552Z 07007KT 10SM OVC009 11/09 A3027 RMK AO2 SLP252 T01110094 10122 20094 50004=
201702280452 METAR KATL 280452Z 08007KT 10SM OVC012 11/09 A3028 RMK AO2 SLP256 T01060089 401390083=
201702280404 SPECI KATL 280404Z 08007KT 10SM BKN012 BKN250 09/08 A3028 RMK AO2 T00940083=
201702280352 METAR KATL 280352Z 10005KT 10SM FEW010 SCT250 10/09 A3028 RMK AO2 SLP255 T01000089=
201702280252 METAR KATL 280252Z 08006KT 10SM FEW150 SCT200 BKN250 10/09 A3026 RMK AO2 SLP249 T01000089 50006=
201702280152 METAR KATL 280152Z 07007KT 10SM SCT150 BKN200 BKN250 11/09 A3026 RMK AO2 SLP250 T01110094=
201702280052 METAR KATL 280052Z 05006KT 10SM SCT110 BKN200 BKN250 12/09 A3026 RMK AO2 SLP250 T01170094=
201702272352 METAR KATL 272352Z 07006KT 10SM SCT150 BKN200 BKN250 11/09 A3024 RMK AO2 SLP243 VIRGA DSNT SE-SW 60006 T01110094 10139 20094 51001=
201702272252 METAR KATL 272252Z 13007KT 10SM FEW110 BKN150 BKN200 11/09 A3023 RMK AO2 RAB28E37 SLP238 VIRGA NE-OHD-SW P0000 T01060089=
201702272152 METAR KATL 272152Z 09007KT 10SM FEW120 BKN150 OVC180 11/08 A3026 RMK AO2 SLP247 VIRGA DSNT ALQDS T01060083=
201702272052 METAR KATL 272052Z 14005G22KT 10SM FEW070 BKN100 OVC150 10/07 A3024 RMK AO2 RAE49 SLP242 VIRGA OHD & ALQDS P0002 60006 T01000072 58035=
201702271952 METAR KATL 271952Z 13011KT 8SM -RA FEW030 SCT060 OVC080 10/05 A3029 RMK AO2 SLP259 P0004 T01000050=
201702271925 SPECI KATL 271925Z 08008KT 6SM -RA FEW030 BKN060 OVC080 11/03 A3032 RMK AO2 P0001 T01110033=
201702271852 METAR KATL 271852Z 36011KT 8SM -RA FEW035 BKN060 OVC100 13/01 A3033 RMK AO2 RAB46 SLP273 P0000 T01330006=
201702271752 METAR KATL 271752Z 02007KT 10SM FEW030 SCT070 OVC120 13/01 A3035 RMK AO2 RAE1655 SLP277 P0000 60000 T01330006 10139 20083 51029=
201702271652 METAR KATL 271652Z 34008KT 10SM -RA BKN030 BKN060 OVC120 13/01 A3034 RMK AO2 RAB44 SLP277 SHRA DSNT SW-NW P0000 T01280006=
201702271630 SPECI KATL 271630Z VRB03KT 10SM BKN060 BKN120 OVC150 13/01 A3035 RMK AO2 SHRA DSNT SW-NW T01280006=
201702271552 METAR KATL 271552Z 12008KT 10SM FEW080 BKN120 OVC150 12/00 A3028 RMK AO2 SLP255 VIRGA DSNT NE-E & NW-N T01220000=
201702271452 METAR KATL 271452Z 12011G17KT 10SM BKN130 BKN180 BKN250 11/M01 A3026 RMK AO2 SLP248 VIRGA DSNT N & DSNT NE-SE T01111006 58001=
201702271352 METAR KATL 271352Z 11009KT 10SM OVC140 10/M03 A3028 RMK AO2 SLP254 T01001028=
201702271252 METAR KATL 271252Z 09008KT 10SM BKN150 BKN200 09/M02 A3027 RMK AO2 SLP253 T00891017=
201702271152 METAR KATL 271152Z 08007KT 10SM BKN150 08/M02 A3026 RMK AO2 SLP248 T00831022 10100 20083 53018=
201702271052 METAR KATL 271052Z 08006KT 10SM BKN150 08/M02 A3024 RMK AO2 SLP240 T00831022=
201702270952 METAR KATL 270952Z 11004KT 10SM BKN140 10/M04 A3021 RMK AO2 SLP230 T01001039=
201702270852 METAR KATL 270852Z 12005KT 10SM BKN150 09/M04 A3021 RMK AO2 SLP228 T00891039 55002=
201702270752 METAR KATL 270752Z 14003KT 10SM FEW120 BKN150 BKN200 08/M03 A3020 RMK AO2 SLP226 T00831028=
201702270652 METAR KATL 270652Z 12003KT 10SM FEW120 FEW200 09/M04 A3021 RMK AO2 SLP229 T00891044=
201702270552 METAR KATL 270552Z 13005KT 10SM FEW200 09/M04 A3021 RMK AO2 SLP231 T00941044 10150 20094 58007=
201702270452 METAR KATL 270452Z 13006KT 10SM FEW200 10/M05 A3022 RMK AO2 SLP233 T01001050 401720022=
201702270352 METAR KATL 270352Z 11004KT 10SM FEW200 11/M05 A3023 RMK AO2 SLP239 T01061050=
201702270252 METAR KATL 270252Z 00000KT 10SM FEW200 12/M04 A3023 RMK AO2 SLP240 T01171044 53012=
201702270152 METAR KATL 270152Z 12004KT 10SM FEW200 13/M08 A3022 RMK AO2 SLP235 T01281078=
201702270052 METAR KATL 270052Z 11003KT 10SM FEW200 14/M07 A3021 RMK AO2 SLP233 T01391072=
201702262352 METAR KATL 262352Z 00000KT 10SM FEW200 15/M09 A3020 RMK AO2 SLP228 T01501094 10172 20133 53008=
201702262252 METAR KATL 262252Z 00000KT 10SM FEW020 FEW200 16/M10 A3018 RMK AO2 SLP223 FU FEW020 T01611100=
201702262152 METAR KATL 262152Z 00000KT 10SM FEW020 FEW200 17/M09 A3016 RMK AO2 SLP217 FU FEW020 T01671094=
201702262052 METAR KATL 262052Z 26006KT 10SM FEW250 17/M08 A3017 RMK AO2 SLP218 T01671083 56016=
201702261952 METAR KATL 261952Z 36006KT 10SM FEW250 16/M09 A3018 RMK AO2 SLP221 T01561094=
201702261852 METAR KATL 261852Z 32004KT 10SM FEW250 15/M09 A3020 RMK AO2 SLP226 T01501094=
201702261752 METAR KATL 261752Z 36005KT 10SM CLR 13/M08 A3022 RMK AO2 SLP236 T01331083 10133 20022 50000=
201702261652 METAR KATL 261652Z 00000KT 10SM CLR 11/M08 A3023 RMK AO2 SLP239 T01111078=
201702261552 METAR KATL 261552Z 00000KT 10SM CLR 09/M07 A3023 RMK AO2 SLP239 T00941072=
201702261452 METAR KATL 261452Z 36009KT 10SM CLR 07/M07 A3022 RMK AO2 SLP236 T00721072 51020=
201702261352 METAR KATL 261352Z 35012KT 10SM CLR 05/M06 A3021 RMK AO2 SLP234 T00501061=
201702261252 METAR KATL 261252Z 33011KT 10SM CLR 03/M06 A3018 RMK AO2 SLP225 T00281056=
201702261152 METAR KATL 261152Z 33011KT 10SM CLR 02/M06 A3016 RMK AO2 SLP216 T00221061 10061 20022 53021=
201702261052 METAR KATL 261052Z 33010KT 10SM CLR 03/M06 A3013 RMK AO2 SLP207 T00281061=
201702260952 METAR KATL 260952Z 33008KT 10SM CLR 03/M06 A3011 RMK AO2 SLP196 T00281056=
201702260852 METAR KATL 260852Z 32008KT 10SM CLR 04/M06 A3009 RMK AO2 SLP191 T00391061 51009=
201702260752 METAR KATL 260752Z 32006KT 10SM CLR 04/M06 A3008 RMK AO2 SLP188 T00391056=
201702260652 METAR KATL 260652Z 32008KT 10SM CLR 06/M06 A3008 RMK AO2 SLP188 T00561056=
201702260552 METAR KATL 260552Z 33009KT 10SM CLR 07/M05 A3007 RMK AO2 SLP181 T00671050 10122 20061 51010=
201702260452 METAR KATL 260452Z 31012KT 10SM CLR 07/M05 A3006 RMK AO2 SLP180 T00721050 401940072=
201702260352 METAR KATL 260352Z 31011KT 10SM CLR 08/M04 A3006 RMK AO2 SLP178 T00781044=
201702260252 METAR KATL 260252Z 30012KT 10SM CLR 09/M04 A3004 RMK AO2 SLP171 T00891039 51026=
201702260152 METAR KATL 260152Z 31013KT 10SM CLR 09/M06 A3001 RMK AO2 SLP164 T00941056=
201702260052 METAR KATL 260052Z 31012KT 10SM CLR 11/M08 A2998 RMK AO2 SLP152 T01061078=
201702252352 METAR KATL 252352Z 31012KT 10SM CLR 12/M10 A2996 RMK AO2 SLP142 T01221100 10189 20122 51021=
201702252252 METAR KATL 252252Z 31015G19KT 10SM CLR 14/M12 A2994 RMK AO2 SLP135 T01441117=
201702252152 METAR KATL 252152Z 31013KT 10SM CLR 16/M05 A2991 RMK AO2 PK WND 32026/2104 SLP126 T01611050=
201702252052 METAR KATL 252052Z 28017G24KT 10SM CLR 17/M08 A2989 RMK AO2 PK WND 31030/2008 SLP117 T01671083 53002=
201702251952 METAR KATL 251952Z 28019G26KT 10SM CLR 17/M07 A2987 RMK AO2 PK WND 28029/1926 SLP111 T01721072=
201702251852 METAR KATL 251852Z 29014G26KT 10SM FEW250 18/M06 A2987 RMK AO2 PK WND 29027/1831 SLP112 T01781061=
201702251752 METAR KATL 251752Z 28019G24KT 10SM FEW250 18/M06 A2989 RMK AO2 SLP115 60000 T01831061 10183 20139 51008=
201702251652 METAR KATL 251652Z 30018G26KT 10SM FEW250 17/M07 A2988 RMK AO2 PK WND 30026/1652 SLP113 T01721067=
201702251552 METAR KATL 251552Z 29018G25KT 10SM FEW150 17/M03 A2988 RMK AO2 SLP111 T01721028=
201702251452 METAR KATL 251452Z 32018G23KT 10SM FEW070 FEW150 16/02 A2986 RMK AO2 SLP107 60000 T01560017 51031=
201702251352 METAR KATL 251352Z 31016G25KT 10SM FEW020 BKN046 BKN070 14/04 A2986 RMK AO2 PK WND 31032/1313 SLP105 T01390044=
201702251333 SPECI KATL 251333Z 31015G26KT 10SM FEW020 BKN046 OVC070 14/05 A2985 RMK AO2 PK WND 31032/1313 T01440050=
201702251252 METAR KATL 251252Z 30015KT 10SM FEW013 SCT018 BKN034 16/12 A2981 RMK AO2 RAB25E40 SLP090 WSHFT 24 FROPA P0000 T01560122=
201702251233 SPECI KATL 251233Z 30018G23KT 10SM -RA SCT013 BKN018 BKN027 16/14 A2980 RMK AO2 RAB25 P0000 T01610139=
201702251221 SPECI KATL 251221Z 25008KT 10SM FEW007 SCT011 BKN019 17/15 A2978 RMK AO2 T01670150=
201702251152 METAR KATL 251152Z 24010KT 10SM FEW013 SCT017 SCT250 17/15 A2976 RMK AO2 SLP072 CB DSNT W-NW T01670150 10189 20161 53001=
201702251147 SPECI KATL 251147Z 24008KT 10SM FEW013 SCT017 SCT021 SCT250 17/15 A2976 RMK AO2 CB DSNT W-NW=
201702251103 SPECI KATL 251103Z 24009KT 10SM SCT013 BKN020 17/15 A2976 RMK AO2 CIG 017V023 T01720150=
201702251052 METAR KATL 251052Z 25009KT 10SM BKN013 17/15 A2976 RMK AO2 SLP071 CIG 011V016 T01670150=
201702251023 SPECI KATL 251023Z 24009KT 10SM BKN013 17/15 A2976 RMK AO2 T01670150=
201702250952 METAR KATL 250952Z 23007KT 10SM SCT035 SCT045 17/14 A2975 RMK AO2 SLP067 T01670144=
201702250852 METAR KATL 250852Z 22007KT 10SM FEW055 FEW250 17/14 A2976 RMK AO2 SLP071 T01720144 58006=
201702250752 METAR KATL 250752Z 24008KT 10SM FEW045 SCT060 SCT070 18/14 A2978 RMK AO2 SLP077 T01830139=
201702250652 METAR KATL 250652Z 22006KT 10SM SCT050 SCT250 18/13 A2978 RMK AO2 SLP076 T01780128=
201702250552 METAR KATL 250552Z 21008KT 10SM SCT060 19/13 A2978 RMK AO2 SLP077 T01890128 10228 20189 55006=
201702250452 METAR KATL 250452Z 20008KT 10SM BKN060 19/13 A2978 RMK AO2 SLP077 T01940128 402560133=
201702250352 METAR KATL 250352Z 17008KT 10SM BKN060 19/12 A2979 RMK AO2 SLP080 T01940122=
201702250252 METAR KATL 250252Z 17005KT 10SM BKN060 20/12 A2980 RMK AO2 SLP085 T02000122 50003=
201702250152 METAR KATL 250152Z 19005KT 10SM BKN055 20/12 A2980 RMK AO2 SLP086 T02000117=
201702250052 METAR KATL 250052Z 17006KT 10SM CLR 22/12 A2980 RMK AO2 SLP085 T02170117=
201702242352 METAR KATL 242352Z 17007KT 9SM FEW055 23/12 A2979 RMK AO2 SLP082 T02280117 10256 20228 55003=
201702242252 METAR KATL 242252Z 17012KT 10SM FEW055 24/11 A2979 RMK AO2 SLP080 T02440111=
201702242152 METAR KATL 242152Z 17011KT 10SM FEW055 25/11 A2978 RMK AO2 SLP078 T02500111=
201702242052 METAR KATL 242052Z 17009KT 10SM FEW055 FEW200 26/11 A2980 RMK AO2 SLP084 T02560111 56026=
201702241952 METAR KATL 241952Z 18009KT 10SM SCT050 SCT200 25/12 A2982 RMK AO2 SLP093 T02500117=
201702241852 METAR KATL 241852Z 00000KT 10SM BKN048 BKN250 24/12 A2985 RMK AO2 SLP101 T02440122=
201702241752 METAR KATL 241752Z 16006KT 10SM SCT045 SCT250 23/13 A2988 RMK AO2 SLP111 T02280128 10239 20133 58016=
201702241652 METAR KATL 241652Z 17008KT 10SM FEW035 FEW250 22/14 A2990 RMK AO2 SLP120 T02170139=
201702241552 METAR KATL 241552Z 16010KT 10SM FEW030 FEW050 FEW250 21/13 A2992 RMK AO2 SLP124 T02110133=
201702241452 METAR KATL 241452Z 13005KT 10SM FEW015 19/14 A2993 RMK AO2 SLP128 T01890144 52009=
201702241352 METAR KATL 241352Z 15004KT 10SM FEW250 16/14 A2991 RMK AO2 SLP124 T01610139=
201702241252 METAR KATL 241252Z 00000KT 10SM FEW180 FEW250 14/12 A2991 RMK AO2 SLP124 T01390122=
201702241152 METAR KATL 241152Z 12003KT 10SM FEW250 13/12 A2990 RMK AO2 SLP120 T01330122 10161 20133 52012=
201702241052 METAR KATL 241052Z 15004KT 10SM FEW250 14/12 A2989 RMK AO2 SLP114 T01440122=
201702240952 METAR KATL 240952Z 00000KT 10SM FEW250 14/12 A2988 RMK AO2 SLP111 T01440117=
201702240852 METAR KATL 240852Z 15004KT 10SM CLR 14/11 A2986 RMK AO2 SLP106 T01440111 58005=
201702240752 METAR KATL 240752Z 13003KT 10SM CLR 15/11 A2987 RMK AO2 SLP109 T01500111=
201702240652 METAR KATL 240652Z 12004KT 10SM FEW250 16/11 A2988 RMK AO2 SLP110 T01560111=
201702240552 METAR KATL 240552Z 00000KT 10SM FEW250 16/11 A2988 RMK AO2 SLP113 T01610111 10217 20161 51003=
201702240452 METAR KATL 240452Z 13003KT 10SM FEW250 17/11 A2988 RMK AO2 SLP112 T01720111 402440128=
201702240352 METAR KATL 240352Z 13004KT 10SM FEW250 18/11 A2988 RMK AO2 SLP112 T01780111=
201702240252 METAR KATL 240252Z 13004KT 10SM FEW250 18/11 A2987 RMK AO2 SLP111 T01830111 53009=
201702240152 METAR KATL 240152Z 12006KT 10SM FEW250 20/11 A2986 RMK AO2 SLP106 T02000106=
201702240052 METAR KATL 240052Z 10003KT 10SM FEW050 FEW250 21/11 A2985 RMK AO2 SLP103 T02060111=
201702232352 METAR KATL 232352Z 15003KT 10SM FEW050 FEW250 22/12 A2984 RMK AO2 SLP101 T02170117 10244 20211 53011=
201702232252 METAR KATL 232252Z 11007KT 10SM FEW050 FEW250 23/11 A2983 RMK AO2 SLP094 T02330106=
201702232152 METAR KATL 232152Z 15006KT 10SM SCT050 SCT250 23/11 A2982 RMK AO2 SLP091 T02330111=
201702232052 METAR KATL 232052Z 17008KT 10SM SCT048 SCT250 24/11 A2981 RMK AO2 SLP089 T02390111 56019=
201702231952 METAR KATL 231952Z 15006KT 10SM SCT045 SCT250 23/12 A2983 RMK AO2 SLP094 T02280117=
201702231852 METAR KATL 231852Z 16005KT 10SM SCT040 SCT250 23/12 A2985 RMK AO2 SLP101 T02330122=
201702231752 METAR KATL 231752Z 13007KT 100V160 10SM BKN032 22/13 A2987 RMK AO2 SLP109 T02170133 10217 20133 58018=
201702231652 METAR KATL 231652Z 12007KT 090V160 10SM SCT024 21/14 A2990 RMK AO2 SLP120 T02060139=
201702231552 METAR KATL 231552Z 09008KT 10SM SCT015 18/14 A2992 RMK AO2 SLP126 T01830139=
201702231452 METAR KATL 231452Z 08006KT 9SM SCT009 16/14 A2992 RMK AO2 SLP130 T01610144 51011=
201702231352 METAR KATL 231352Z 07008KT 6SM BR SCT006 15/13 A2992 RMK AO2 SLP129 T01500133=
201702231252 METAR KATL 231252Z 07007KT 6SM BR FEW004 13/13 A2990 RMK AO2 SLP123 T01330128=
201702231152 METAR KATL 231152Z 06007KT 8SM FEW200 13/12 A2989 RMK AO2 SLP118 70005 T01330122 10150 20128 51010=
201702231052 METAR KATL 231052Z 08008KT 9SM CLR 13/13 A2988 RMK AO2 SLP114 T01330128=
201702230952 METAR KATL 230952Z 06006KT 9SM CLR 13/13 A2987 RMK AO2 SLP111 T01330128=
201702230852 METAR KATL 230852Z 06005KT 8SM CLR 13/13 A2986 RMK AO2 SLP106 T01330128 56012=
201702230752 METAR KATL 230752Z 08007KT 8SM FEW030 13/13 A2986 RMK AO2 SLP107 T01330128=
201702230652 METAR KATL 230652Z 08008KT 9SM FEW014 SCT033 14/13 A2987 RMK AO2 SLP112 T01440133=
201702230624 SPECI KATL 230624Z 06009KT 9SM FEW015 BKN030 14/13 A2989 RMK AO2 T01440133=
201702230552 METAR KATL 230552Z 05008KT 9SM FEW015 BKN028 15/14 A2989 RMK AO2 SLP118 60000 T01500139 10189 20139 55001=
201702230452 METAR KATL 230452Z 08009KT 8SM FEW020 SCT250 14/14 A2988 RMK AO2 SLP115 T01440139 402170139=
201702230416 SPECI KATL 230416Z 08008KT 10SM SCT020 BKN250 15/14 A2989 RMK AO2 SCT020 V BKN T01500139=
201702230402 SPECI KATL 230402Z 09007KT 10SM BKN020 BKN250 15/14 A2989 RMK AO2 T01500144=
201702230352 METAR KATL 230352Z 09008KT 10SM SCT020 BKN250 16/14 A2989 RMK AO2 SLP119 T01560144=
201702230337 SPECI KATL 230337Z 07009KT 10SM BKN020 BKN250 16/14 A2989 RMK AO2 T01560144=
201702230252 METAR KATL 230252Z 08010KT 10SM FEW020 BKN250 16/14 A2990 RMK AO2 SLP120 60000 T01560144 51007=
201702230239 SPECI KATL 230239Z 07010KT 10SM SCT020 BKN250 16/14 A2990 RMK AO2 T01610144=
201702230228 SPECI KATL 230228Z 07010KT 10SM BKN022 BKN250 16/14 A2990 RMK AO2 T01610144=
201702230152 METAR KATL 230152Z 07010KT 10SM FEW018 FEW030 BKN250 16/15 A2989 RMK AO2 SLP119 T01610150=
201702230052 METAR KATL 230052Z 06008KT 10SM FEW020 SCT028 BKN060 BKN200 17/16 A2989 RMK AO2 RAB17E49 SLP116 P0000 T01720156=
201702222352 METAR KATL 222352Z 05011KT 10SM BKN028 BKN060 OVC200 19/14 A2988 RMK AO2 SLP112 T01890144 10217 20189 53016=
201702222252 METAR KATL 222252Z 09011KT 10SM SCT027 BKN035 BKN050 OVC200 20/14 A2985 RMK AO2 SLP103 MDT CU OHD-NW T02000144=
201702222152 METAR KATL 222152Z 07010KT 10SM SCT027 BKN035 BKN055 OVC200 21/14 A2984 RMK AO2 SLP099 MDT CU ALQDS T02060144=
201702222102 SPECI KATL 222102Z 07015KT 10SM BKN027 BKN037 OVC055 21/15 A2983 RMK AO2 T02060150=
201702222052 METAR KATL 222052Z 07010KT 10SM BKN030 BKN050 BKN150 21/15 A2983 RMK AO2 SLP095 T02060150 56018=
201702222013 SPECI KATL 222013Z 07010KT 10SM SCT027 SCT150 BKN250 21/15 A2983 RMK AO2 T02060150=
201702221952 METAR KATL 221952Z 08010G16KT 10SM SCT150 BKN250 21/15 A2984 RMK AO2 SLP098 T02110150=
201702221852 METAR KATL 221852Z 07012KT 10SM FEW020 FEW050 SCT100 BKN150 BKN250 20/15 A2986 RMK AO2 SLP107 T02000150=
201702221752 METAR KATL 221752Z 10010KT 10SM FEW015 SCT050 BKN080 BKN150 19/16 A2988 RMK AO2 SLP114 60005 T01890156 10189 20161 58010=
201702221718 SPECI KATL 221718Z 08012KT 10SM FEW010 SCT020 OVC050 18/16 A2990 RMK AO2 T01780156=
201702221656 SPECI KATL 221656Z 07010KT 9SM SCT012 BKN020 OVC027 17/16 A2991 RMK AO2 T01720156=
201702221652 METAR KATL 221652Z 08010KT 9SM BKN012 BKN018 OVC020 17/16 A2991 RMK AO2 SLP126 T01720156=
201702221552 METAR KATL 221552Z 07011KT 8SM FEW008 BKN025 OVC150 17/16 A2991 RMK AO2 SLP124 T01720161=
201702221452 METAR KATL 221452Z 08009KT 7SM SCT008 BKN012 OVC020 17/16 A2991 RMK AO2 RAE09 SLP125 P0000 60005 T01670161 53009=
201702221408 SPECI KATL 221408Z 09009KT 7SM -RA SCT008 BKN014 OVC020 17/16 A2990 RMK AO2 P0000 T01670156=
201702221352 METAR KATL 221352Z 10007KT 7SM -RA BKN008 OVC016 17/16 A2990 RMK AO2 RAE19B50DZB03E46 SLP122 CIG 006V010 P0000 T01670161=
201702221252 METAR KATL 221252Z 10007KT 6SM -RA BR BKN007 OVC016 17/16 A2989 RMK AO2 RAE22B49DZB34E49 SLP118 CIG 005V009 P0005 T01670161=
201702221228 SPECI KATL 221228Z 10009KT 6SM BR BKN006 OVC014 16/16 A2989 RMK AO2 RAE22 CIG 004V008 P0005 T01610156=
201702221205 SPECI KATL 221205Z 09009KT 2SM -RA BR BKN006 OVC013 16/16 A2988 RMK AO2 SFC VIS 3 CIG 004V008 P0004 T01610156=
201702221152 METAR KATL 221152Z 10007KT 3SM -RA BR OVC006 16/16 A2988 RMK AO2 SFC VIS 4 SLP116 CIG 004V008 P0007 60017 70039 T01610156 10161 20156 52001=
201702221052 METAR KATL 221052Z 09006KT 3SM -RA BR OVC007 16/16 A2988 RMK AO2 SFC VIS 3 SLP116 CIG 005V009 P0006 T01610156=
201702220958 SPECI KATL 220958Z 09007KT 3SM -RA BR OVC008 16/16 A2988 RMK AO2 SFC VIS 4 CIG 006V010 P0001 T01610156=
201702220952 METAR KATL 220952Z 09006KT 5SM -RA BR BKN008 OVC013 16/16 A2988 RMK AO2 SLP113 CIG 006V010 P0001 T01610156=
201702220926 SPECI KATL 220926Z 10005KT 6SM -RA BR BKN008 OVC014 16/16 A2988 RMK AO2 CIG 006V010 P0000 T01610156=
201702220852 METAR KATL 220852Z 09007KT 6SM -RA BR OVC010 16/16 A2988 RMK AO2 SLP114 CIG 008V012 P0003 60003 T01610156 56012=
201702220752 METAR KATL 220752Z 10007KT 10SM -RA OVC011 16/16 A2989 RMK AO2 RAB0653 SLP116 CIG 009V013 P0000 T01610156=
201702220707 SPECI KATL 220707Z 09009KT 9SM -RA OVC013 16/15 A2990 RMK AO2 RAB0653 P0000 T01610150=
201702220652 METAR KATL 220652Z 08010KT 10SM BKN015 OVC065 16/15 A2990 RMK AO2 SLP120 T01610150=
201702220602 SPECI KATL 220602Z 09009KT 10SM BKN016 BKN055 OVC070 16/15 A2991 RMK AO2 T01610150=
201702220552 METAR KATL 220552Z 08009KT 10SM SCT018 BKN050 OVC075 16/15 A2991 RMK AO2 RAE01 SLP125 P0000 60015 T01560150 10167 20156 58015=
201702220452 METAR KATL 220452Z 08009KT 8SM -RA FEW025 SCT050 OVC070 16/15 A2994 RMK AO2 SLP132 P0001 T01610150 402110128=
201702220352 METAR KATL 220352Z 09005KT 8SM -RA SCT024 BKN030 OVC070 16/16 A2995 RMK AO2 RAB0256 SLP139 P0002 T01610156=
201702220252 METAR KATL 220252Z 08006KT 9SM SCT032 BKN040 OVC070 17/15 A2996 RMK AO2 RAE42 SLP142 SHRA SE-SW P0001 60012 T01670150 56011=
201702220152 METAR KATL 220152Z 04005KT 6SM -RA BR FEW008 BKN032 OVC060 17/16 A2997 RMK AO2 SLP146 P0003 T01670156=
201702220052 METAR KATL 220052Z 00000KT 3SM RA BR FEW006 BKN030 OVC070 16/16 A2998 RMK AO2 SLP151 P0008 T01610156=
201702220047 SPECI KATL 220047Z 00000KT 3SM RA BR FEW006 BKN028 OVC080 16/16 A2998 RMK AO2 P0006=
201702220014 SPECI KATL 220014Z 00000KT 3SM -RA BR FEW006 BKN026 OVC080 17/16 A2999 RMK AO2 TWR VIS 4 P0002 T01670156=
201702212352 METAR KATL 212352Z 15006KT 6SM -RA BR FEW028 BKN040 OVC080 17/16 A2999 RMK AO2 SLP154 P0001 60007 T01670156 10211 20167 55003=
201702212340 SPECI KATL 212340Z 10008KT 4SM -RA BR SCT028 BKN050 OVC080 17/16 A2999 RMK AO2 P0001 T01670156=
201702212252 METAR KATL 212252Z 10006KT 8SM -RA SCT030 BKN050 OVC080 17/16 A2999 RMK AO2 SLP152 P0002 T01720156=
201702212152 METAR KATL 212152Z 09008KT 7SM -RA FEW030 BKN070 OVC090 18/16 A3000 RMK AO2 RAE08B34 SLP154 P0000 T01780156=
201702212052 METAR KATL 212052Z 11006KT 8SM -RA FEW030 BKN050 OVC090 18/16 A3000 RMK AO2 RAB1955 SLP157 P0004 60004 T01780156 56015=
201702212007 SPECI KATL 212007Z 14010G17KT 5SM -RA BKN030 BKN050 OVC090 19/14 A3000 RMK AO2 RAB1955 P0001 T01890144=
201702211952 METAR KATL 211952Z 13009KT 10SM FEW035 BKN050 OVC090 20/13 A3000 RMK AO2 RAB15E37 SLP156 P0000 T02000133=
201702211852 METAR KATL 211852Z 15008KT 10SM BKN030 BKN050 OVC090 20/13 A3002 RMK AO2 SLP161 BINOVC T02000128=
201702211752 METAR KATL 211752Z 13009G16KT 10SM FEW025 SCT055 BKN090 BKN250 21/13 A3005 RMK AO2 SLP171 T02060133 10206 20128 58024=
201702211652 METAR KATL 211652Z 13007KT 10SM FEW020 SCT050 BKN090 BKN250 19/12 A3010 RMK AO2 SLP189 T01890122=
201702211603 SPECI KATL 211603Z 14008KT 10SM FEW016 BKN050 BKN250 17/11 A3013 RMK AO2 T01670106=
201702211552 METAR KATL 211552Z 13009KT 10SM BKN015 BKN050 BKN250 17/11 A3012 RMK AO2 SLP197 T01670106=
201702211547 SPECI KATL 211547Z 12010KT 10SM BKN015 BKN050 BKN250 17/11 A3012 RMK AO2=
201702211452 METAR KATL 211452Z 13009KT 10SM BKN050 BKN200 BKN250 15/09 A3011 RMK AO2 SLP193 T01500094 53001=
201702211352 METAR KATL 211352Z 12009KT 10SM FEW050 BKN250 14/09 A3011 RMK AO2 SLP191 T01390089=
201702211252 METAR KATL 211252Z 12010KT 10SM SCT050 BKN250 13/09 A3011 RMK AO2 SLP193 T01330089=
201702211152 METAR KATL 211152Z 11007KT 10SM SCT050 SCT250 13/08 A3011 RMK AO2 SLP191 T01330083 10150 20128 58001=
201702211052 METAR KATL 211052Z 11007KT 10SM FEW050 BKN250 13/08 A3011 RMK AO2 SLP194 T01330083=
201702210952 METAR KATL 210952Z 12006KT 10SM BKN055 14/08 A3011 RMK AO2 SLP193 T01390083=
201702210852 METAR KATL 210852Z 12007KT 10SM BKN055 BKN250 14/08 A3011 RMK AO2 SLP191 T01440078 57004=
201702210752 METAR KATL 210752Z 11007KT 10SM FEW050 BKN250 14/08 A3011 RMK AO2 SLP192 T01440078=
201702210652 METAR KATL 210652Z 10005KT 10SM BKN250 14/08 A3012 RMK AO2 SLP195 T01390078=
201702210552 METAR KATL 210552Z 09007KT 10SM BKN250 14/07 A3012 RMK AO2 SLP195 T01390072 10206 20139 56004=
201702210452 METAR KATL 210452Z 10005KT 10SM BKN250 16/08 A3012 RMK AO2 SLP197 T01560078 402330094=
201702210352 METAR KATL 210352Z 11005KT 10SM BKN250 17/07 A3013 RMK AO2 SLP198 T01670072=
201702210252 METAR KATL 210252Z 11006KT 10SM BKN250 18/08 A3013 RMK AO2 SLP200 T01780078 50003=
201702210152 METAR KATL 210152Z 13004KT 10SM BKN250 18/07 A3014 RMK AO2 SLP203 T01830072=
201702210052 METAR KATL 210052Z 12005KT 10SM BKN250 19/07 A3013 RMK AO2 SLP200 T01940072=
201702202352 METAR KATL 202352Z 12004KT 10SM BKN250 21/07 A3013 RMK AO2 SLP199 T02060072 10233 20200 58002=
201702202252 METAR KATL 202252Z 16005KT 10SM BKN250 21/07 A3013 RMK AO2 SLP200 T02110072=
201702202152 METAR KATL 202152Z 13007KT 10SM BKN250 23/06 A3013 RMK AO2 SLP199 T02330061=
201702202052 METAR KATL 202052Z 12005KT 10SM BKN250 23/07 A3013 RMK AO2 SLP201 T02280067 56015=
201702201952 METAR KATL 201952Z VRB05KT 10SM BKN250 23/08 A3014 RMK AO2 SLP204 T02280078=
201702201852 METAR KATL 201852Z 19007KT 10SM BKN250 22/08 A3015 RMK AO2 SLP207 T02170078=
201702201752 METAR KATL 201752Z 12006KT 10SM BKN250 21/08 A3018 RMK AO2 SLP216 T02060078 10206 20100 58013=
201702201652 METAR KATL 201652Z 14006KT 10SM BKN250 19/08 A3020 RMK AO2 SLP224 T01940083=
201702201552 METAR KATL 201552Z 11006KT 10SM BKN250 18/08 A3021 RMK AO2 SLP228 T01780078=
201702201452 METAR KATL 201452Z 12007KT 10SM BKN250 16/08 A3022 RMK AO2 SLP230 T01610078 53018=
201702201352 METAR KATL 201352Z 09006KT 10SM BKN250 14/09 A3020 RMK AO2 SLP224 T01390089=
201702201252 METAR KATL 201252Z 11004KT 10SM SCT250 11/08 A3018 RMK AO2 SLP218 T01110078=
201702201152 METAR KATL 201152Z 10004KT 10SM SCT250 11/07 A3016 RMK AO2 SLP213 T01060072 10128 20094 53015=
201702201052 METAR KATL 201052Z 05003KT 10SM SCT250 11/07 A3014 RMK AO2 SLP205 T01060067=
201702200952 METAR KATL 200952Z 07003KT 10SM SCT250 11/07 A3012 RMK AO2 SLP198 T01060072=
201702200852 METAR KATL 200852Z 05003KT 10SM BKN250 10/07 A3012 RMK AO2 SLP196 T01000072 58009=
201702200752 METAR KATL 200752Z 35003KT 10SM SCT250 10/07 A3013 RMK AO2 SLP201 T01000067=
201702200652 METAR KATL 200652Z VRB04KT 10SM FEW200 12/08 A3015 RMK AO2 SLP208 T01170078=
201702200552 METAR KATL 200552Z 31003KT 10SM FEW200 13/08 A3014 RMK AO2 SLP206 T01280078 10172 20122 51006=
201702200452 METAR KATL 200452Z 35006KT 10SM FEW200 12/08 A3013 RMK AO2 SLP202 T01220078 402000111=
201702200352 METAR KATL 200352Z 31006KT 10SM FEW250 13/08 A3014 RMK AO2 SLP204 T01330078=
201702200252 METAR KATL 200252Z 33006KT 10SM CLR 14/08 A3013 RMK AO2 SLP199 T01390078 53007=
201702200152 METAR KATL 200152Z 34005KT 10SM CLR 16/08 A3011 RMK AO2 SLP192 T01560083=
201702200052 METAR KATL 200052Z 34007KT 10SM CLR 16/08 A3010 RMK AO2 SLP193 T01610083=
201702192352 METAR KATL 192352Z 32006KT 10SM CLR 17/08 A3010 RMK AO2 SLP192 T01720083 10200 20172 53006=
201702192252 METAR KATL 192252Z 33010KT 10SM CLR 19/08 A3010 RMK AO2 SLP191 T01890083=
201702192152 METAR KATL 192152Z 33011G19KT 10SM FEW040 19/08 A3008 RMK AO2 SLP184 T01940083=
201702192052 METAR KATL 192052Z 34014KT 10SM FEW040 FEW250 20/09 A3008 RMK AO2 SLP184 T02000094 55004=
201702191952 METAR KATL 191952Z 34011KT 10SM FEW035 20/09 A3006 RMK AO2 SLP177 T02000094=
201702191852 METAR KATL 191852Z 34012KT 10SM SCT032 18/09 A3007 RMK AO2 SLP179 T01830089=
201702191752 METAR KATL 191752Z 32010KT 10SM OVC033 18/10 A3010 RMK AO2 SLP189 T01780100 10183 20117 58001=
201702191652 METAR KATL 191652Z 35011KT 10SM SCT026 BKN031 17/11 A3010 RMK AO2 SLP192 T01720106=
201702191552 METAR KATL 191552Z 34011KT 10SM BKN022 17/11 A3011 RMK AO2 SLP195 T01670111=
201702191505 SPECI KATL 191505Z 33011KT 10SM BKN017 15/11 A3010 RMK AO2 T01500111=
201702191452 METAR KATL 191452Z 32012KT 10SM BKN013 15/11 A3010 RMK AO2 SLP190 T01500111 53022=
201702191437 SPECI KATL 191437Z 31007KT 10SM BKN013 BKN075 14/12 A3009 RMK AO2 T01440117=
201702191413 SPECI KATL 191413Z 31006KT 7SM FEW005 SCT018 BKN075 14/12 A3008 RMK AO2 T01390122=
201702191404 SPECI KATL 191404Z 34007KT 7SM SCT005 BKN018 BKN075 13/12 A3008 RMK AO2 T01280117=
201702191352 METAR KATL 191352Z 32009KT 7SM BKN006 BKN018 BKN060 13/12 A3008 RMK AO2 SLP184 BKN006 V SCT T01280117=
201702191324 SPECI KATL 191324Z 30006KT 6SM BR BKN007 OVC019 12/12 A3007 RMK AO2 T01220117=
201702191310 SPECI KATL 191310Z 30008KT 6SM BR SCT008 BKN014 OVC019 13/12 A3006 RMK AO2 BINOVC T01280117=
201702191252 METAR KATL 191252Z 29004KT 6SM BR SCT014 12/11 A3005 RMK AO2 SLP175 T01170111=
201702191226 SPECI KATL 191226Z 32006KT 7SM SCT006 OVC013 12/12 A3005 RMK AO2 CIG 011V016 T01220117=
201702191208 SPECI KATL 191208Z 30004KT 7SM BKN006 BKN012 OVC029 12/12 A3004 RMK AO2 CIG 004V007 BINOVC T01220117=
201702191152 METAR KATL 191152Z 34005KT 7SM SCT005 BKN021 BKN027 12/11 A3003 RMK AO2 SLP169 70006 T01170111 10122 20111 53016=
201702191131 SPECI KATL 191131Z 31003KT 7SM SCT008 BKN025 12/11 A3003 RMK AO2 CIG 021V029 T01220111=
201702191111 SPECI KATL 191111Z 33005KT 7SM BKN008 BKN014 BKN045 12/11 A3002 RMK AO2 T01220111=
201702191052 METAR KATL 191052Z 32004KT 8SM BKN014 BKN045 11/11 A3002 RMK AO2 SLP165 BKN014 V SCT T01110111=
201702191047 SPECI KATL 191047Z 32004KT 8SM BKN014 BKN045 12/11 A3002 RMK AO2 BKN014 V SCT=
201702190952 METAR KATL 190952Z 31003KT 8SM SCT017 BKN026 BKN060 12/12 A2999 RMK AO2 SLP153 T01220117=
201702190852 METAR KATL 190852Z 26003KT 10SM FEW020 BKN036 BKN055 12/11 A2998 RMK AO2 SLP152 T01220111 52002=
201702190752 METAR KATL 190752Z 24003KT 10SM FEW020 BKN060 12/11 A2998 RMK AO2 SLP151 T01170106=
201702190652 METAR KATL 190652Z 00000KT 10SM FEW020 FEW050 12/10 A2998 RMK AO2 SLP152 T01170100=
201702190552 METAR KATL 190552Z 25003KT 10SM FEW020 FEW050 SCT250 12/11 A2998 RMK AO2 SLP151 60000 T01220106 10156 20117 58004=
201702190519 SPECI KATL 190519Z 00000KT 10SM SCT018 BKN050 BKN085 BKN200 13/11 A2998 RMK AO2 T01280111=
201702190452 METAR KATL 190452Z 00000KT 10SM BKN022 BKN080 OVC200 13/11 A2998 RMK AO2 SLP154 T01280111 401670094=
201702190442 SPECI KATL 190442Z 00000KT 10SM BKN022 OVC080 13/11 A2998 RMK AO2 T01280111=
201702190352 METAR KATL 190352Z 00000KT 10SM FEW022 SCT075 BKN200 14/11 A2999 RMK AO2 SLP154 T01390106=
201702190252 METAR KATL 190252Z 00000KT 10SM SCT024 BKN065 OVC200 14/11 A2999 RMK AO2 RAE01DZB01E13 SLP155 P0000 60000 T01440106 51015=
201702190214 SPECI KATL 190214Z 19005KT 10SM SCT024 BKN043 OVC070 14/10 A2998 RMK AO2 RAE01DZB01E13 P0000 T01440100=
201702190152 METAR KATL 190152Z 00000KT 10SM -RA BKN026 OVC050 15/09 A2998 RMK AO2 DZB0059E49RAB49 SLP150 P0000 T01500094=
201702190052 METAR KATL 190052Z 00000KT 10SM BKN030 OVC046 15/09 A2996 RMK AO2 SLP145 T01500094=
201702182352 METAR KATL 182352Z 00000KT 10SM BKN030 BKN048 16/09 A2995 RMK AO2 SLP139 60000 T01560089 10167 20117 53004=
201702182252 METAR KATL 182252Z 18005KT 10SM SCT030 BKN050 16/09 A2993 RMK AO2 SLP134 T01610089=
201702182152 METAR KATL 182152Z VRB04KT 10SM FEW025 SCT050 BKN080 16/09 A2993 RMK AO2 SLP132 T01610089=
201702182052 METAR KATL 182052Z 23006KT 10SM SCT025 SCT045 BKN075 15/09 A2993 RMK AO2 SLP135 60000 T01500089 58012=
201702182029 SPECI KATL 182029Z 18004KT 10SM SCT022 BKN040 BKN080 15/09 A2993 RMK AO2 BINOVC T01500094=
201702181959 SPECI KATL 181959Z 18009KT 10SM BKN022 OVC045 14/09 A2995 RMK AO2 BINOVC T01390094=
201702181952 METAR KATL 181952Z 16010KT 10SM SCT025 BKN045 OVC055 14/09 A2995 RMK AO2 SLP141 T01440094=
201702181852 METAR KATL 181852Z 17012KT 10SM SCT035 BKN050 OVC070 13/10 A2997 RMK AO2 RAB1755E04 SLP150 P0000 T01330100=
201702181752 METAR KATL 181752Z 00000KT 10SM FEW032 BKN055 OVC090 12/08 A2997 RMK AO2 SLP147 BINOVC 60006 T01220083 10122 20094 58007=
201702181652 METAR KATL 181652Z 08004KT 10SM SCT032 SCT045 OVC090 11/08 A2999 RMK AO2 RAE51 SLP154 P0001 T01060083=
201702181552 METAR KATL 181552Z 11005KT 6SM -RA BR OVC033 09/08 A2999 RMK AO2 SLP156 P0004 T00940078=
201702181452 METAR KATL 181452Z 07003KT 5SM -RA BKN048 BKN070 OVC090 11/06 A2999 RMK AO2 RAB17 SLP154 P0001 60001 T01060061 50001=
201702181352 METAR KATL 181352Z 00000KT 10SM FEW060 SCT075 OVC095 11/04 A2999 RMK AO2 RAB29E48 SLP154 P0000 T01110044=
201702181252 METAR KATL 181252Z 23004KT 9SM SCT075 BKN100 OVC150 11/02 A2999 RMK AO2 SLP156 BINOVC T01060022=
201702181152 METAR KATL 181152Z 18005KT 10SM FEW070 SCT110 OVC150 11/02 A2998 RMK AO2 SLP152 T01060017 10117 20094 55000=
201702181052 METAR KATL 181052Z 00000KT 10SM FEW100 SCT150 OVC200 10/02 A2996 RMK AO2 SLP144 T01000017=
201702180952 METAR KATL 180952Z 00000KT 10SM FEW100 SCT150 OVC220 11/01 A2998 RMK AO2 SLP150 T01110006=
201702180852 METAR KATL 180852Z 20003KT 10SM FEW100 SCT150 BKN200 OVC250 10/01 A2998 RMK AO2 SLP151 T01000011 51006=
201702180752 METAR KATL 180752Z 00000KT 10SM FEW150 SCT200 BKN250 11/01 A2998 RMK AO2 SLP149 T01060011=
201702180652 METAR KATL 180652Z 25003KT 10SM FEW150 BKN250 10/01 A3000 RMK AO2 SLP156 T01000006=
201702180552 METAR KATL 180552Z 00000KT 10SM FEW150 SCT250 12/00 A2997 RMK AO2 SLP145 T01170000 10167 20111 58008=
201702180452 METAR KATL 180452Z 25003KT 10SM BKN200 BKN250 13/M02 A2999 RMK AO2 SLP154 T01281017 402110050=
201702180352 METAR KATL 180352Z 24006KT 10SM BKN200 BKN250 13/M02 A3001 RMK AO2 SLP162 T01331017=
201702180252 METAR KATL 180252Z 22003KT 10SM SCT200 BKN250 14/M02 A2999 RMK AO2 SLP154 T01441022 56000=
201702180152 METAR KATL 180152Z 23005KT 10SM BKN200 OVC250 16/M02 A2999 RMK AO2 SLP156 T01561022=
201702180052 METAR KATL 180052Z 23005KT 10SM FEW200 OVC250 16/M02 A2999 RMK AO2 SLP154 T01561017=
201702172352 METAR KATL 172352Z 22005KT 10SM FEW150 SCT200 BKN250 17/M02 A2999 RMK AO2 SLP156 T01671017 10211 20167 53000=
201702172252 METAR KATL 172252Z 24008KT 10SM FEW180 BKN250 19/M02 A2998 RMK AO2 SLP152 T01891022=
201702172152 METAR KATL 172152Z 26009KT 10SM SCT170 BKN250 21/M02 A2999 RMK AO2 SLP153 T02061022=
201702172052 METAR KATL 172052Z 25010KT 10SM FEW200 BKN250 20/M04 A2999 RMK AO2 SLP154 T02001039 56017=
201702171952 METAR KATL 171952Z 21010KT 10SM SCT250 20/M04 A3000 RMK AO2 SLP155 T02001044=
201702171852 METAR KATL 171852Z 22012KT 10SM SCT250 20/M03 A3002 RMK AO2 SLP164 T02001033=
201702171752 METAR KATL 171752Z 29008KT 10SM FEW250 18/M02 A3004 RMK AO2 SLP171 T01831022 10189 20056 58012=
201702171652 METAR KATL 171652Z 30005KT 10SM FEW250 17/M01 A3006 RMK AO2 SLP181 T01671011=
201702171552 METAR KATL 171552Z 29008KT 10SM FEW250 14/M02 A3008 RMK AO2 SLP186 T01441017=
201702171452 METAR KATL 171452Z 28010KT 10SM FEW250 13/M02 A3008 RMK AO2 SLP185 T01281022 51012=
201702171352 METAR KATL 171352Z 28009KT 10SM SCT250 10/M03 A3007 RMK AO2 SLP183 T01001028=
201702171252 METAR KATL 171252Z 28006KT 10SM FEW250 06/M03 A3005 RMK AO2 SLP180 T00611028=
201702171152 METAR KATL 171152Z 27005KT 10SM FEW200 FEW250 06/M04 A3004 RMK AO2 SLP175 T00561039 10094 20050 50012=
201702171052 METAR KATL 171052Z 27004KT 10SM CLR 06/M04 A3005 RMK AO2 SLP176 T00561039=
201702170952 METAR KATL 170952Z 27004KT 10SM CLR 06/M04 A3002 RMK AO2 SLP167 T00611039=
201702170852 METAR KATL 170852Z 31005KT 10SM CLR 06/M04 A3001 RMK AO2 SLP161 T00611039 58001=
201702170752 METAR KATL 170752Z 26006KT 10SM CLR 08/M04 A3002 RMK AO2 SLP165 T00831044=
201702170652 METAR KATL 170652Z 27006KT 10SM CLR 09/M05 A3003 RMK AO2 SLP170 T00891050=
201702170552 METAR KATL 170552Z 25006KT 10SM CLR 08/M06 A3001 RMK AO2 SLP163 T00831056 10122 20067 56007=
201702170452 METAR KATL 170452Z 26005KT 10SM CLR 08/M06 A3002 RMK AO2 SLP167 T00781056 401560017=
201702170352 METAR KATL 170352Z 23004KT 10SM CLR 08/M05 A3002 RMK AO2 SLP168 T00831050=
201702170252 METAR KATL 170252Z 28003KT 10SM FEW250 10/M07 A3003 RMK AO2 SLP172 T01001067 50012=
201702170152 METAR KATL 170152Z 24003KT 10SM FEW250 09/M06 A3004 RMK AO2 SLP177 T00941061=
201702170052 METAR KATL 170052Z 31006KT 10SM FEW250 12/M07 A3003 RMK AO2 SLP172 T01171067=
201702162352 METAR KATL 162352Z 32007KT 10SM FEW250 12/M07 A2999 RMK AO2 SLP161 T01171067 10156 20117 53004=
201702162252 METAR KATL 162252Z 30009KT 10SM FEW250 14/M07 A2998 RMK AO2 SLP156 T01391072=
201702162152 METAR KATL 162152Z 28013KT 10SM FEW250 15/M08 A2998 RMK AO2 SLP152 T01501078=
201702162052 METAR KATL 162052Z 30009KT 10SM FEW250 15/M08 A2998 RMK AO2 SLP154 T01501078 56015=
201702161952 METAR KATL 161952Z 32010G19KT 10SM FEW250 14/M08 A2998 RMK AO2 SLP155 T01391083=
201702161852 METAR KATL 161852Z 31012G17KT 10SM FEW250 13/M08 A3000 RMK AO2 SLP161 T01331083=
201702161752 METAR KATL 161752Z 34013KT 10SM CLR 12/M08 A3003 RMK AO2 SLP170 T01221078 10122 20017 58005=
201702161652 METAR KATL 161652Z 30014KT 10SM FEW250 11/M07 A3005 RMK AO2 SLP178 T01061072=
201702161552 METAR KATL 161552Z 32014KT 10SM CLR 09/M06 A3005 RMK AO2 SLP178 T00891061=
201702161452 METAR KATL 161452Z 33014KT 10SM CLR 07/M06 A3004 RMK AO2 SLP176 T00671056 51016=
201702161352 METAR KATL 161352Z 32011KT 10SM CLR 04/M04 A3003 RMK AO2 SLP175 T00391044=
201702161252 METAR KATL 161252Z 30007KT 10SM FEW200 02/M04 A3001 RMK AO2 SLP166 T00221044=
201702161152 METAR KATL 161152Z 29008KT 10SM FEW200 02/M05 A2999 RMK AO2 SLP160 70025 T00171050 10056 20017 53017=
201702161052 METAR KATL 161052Z 31009KT 10SM CLR 03/M06 A2997 RMK AO2 SLP153 T00281056=
201702160952 METAR KATL 160952Z 33012KT 10SM CLR 03/M05 A2995 RMK AO2 SLP143 T00331050=
201702160852 METAR KATL 160852Z 32010KT 10SM CLR 04/M04 A2994 RMK AO2 SLP139 T00391044 51006=
201702160752 METAR KATL 160752Z 32009KT 10SM CLR 04/M04 A2993 RMK AO2 SLP138 T00441044=
201702160652 METAR KATL 160652Z 32012KT 10SM CLR 05/M04 A2992 RMK AO2 SLP135 T00501039=
201702160552 METAR KATL 160552Z 33010KT 10SM CLR 06/M03 A2992 RMK AO2 SLP132 T00561033 10111 20056 51013=
201702160452 METAR KATL 160452Z 31008KT 10SM CLR 06/M02 A2991 RMK AO2 SLP131 T00611022 401670061=
201702160352 METAR KATL 160352Z 32013KT 10SM CLR 07/M03 A2990 RMK AO2 SLP127 T00721028=
201702160252 METAR KATL 160252Z 31013KT 10SM CLR 08/M02 A2988 RMK AO2 SLP120 T00781017 51027=
201702160152 METAR KATL 160152Z 32011G19KT 10SM CLR 09/M01 A2986 RMK AO2 SLP113 T00891011=
201702160052 METAR KATL 160052Z 32013G21KT 10SM CLR 10/M02 A2983 RMK AO2 SLP104 T01001017=
201702152352 METAR KATL 152352Z 31014KT 10SM CLR 11/M02 A2980 RMK AO2 SLP091 T01111017 10150 20111 53023=
201702152252 METAR KATL 152252Z 31016G24KT 10SM CLR 13/M01 A2976 RMK AO2 SLP075 T01281011=
201702152152 METAR KATL 152152Z 30017G23KT 10SM FEW250 14/01 A2974 RMK AO2 SLP068 T01440006=
201702152052 METAR KATL 152052Z 32014KT 10SM FEW060 15/01 A2973 RMK AO2 SLP063 T01500006 53002=
201702151952 METAR KATL 151952Z 30014KT 10SM FEW050 15/02 A2972 RMK AO2 PK WND 31026/1856 SLP060 T01500017=
201702151852 METAR KATL 151852Z 31017G24KT 10SM FEW045 FEW250 14/03 A2970 RMK AO2 SLP057 T01440033=
201702151752 METAR KATL 151752Z 31011G21KT 10SM FEW030 FEW050 SCT250 13/05 A2972 RMK AO2 PK WND 31028/1702 SLP063 60025 T01280050 10133 20083 50017=
201702151652 METAR KATL 151652Z 30017G22KT 10SM FEW020 FEW050 12/06 A2973 RMK AO2 SLP065 T01170061=
201702151552 METAR KATL 151552Z 29014KT 10SM FEW010 BKN048 11/07 A2969 RMK AO2 SLP053 T01060067=
201702151455 SPECI KATL 151455Z 29012KT 10SM SCT009 SCT050 09/08 A2967 RMK AO2 T00940078=
201702151452 METAR KATL 151452Z 30013KT 10SM BKN009 BKN050 09/08 A2967 RMK AO2 PK WND 32026/1407 SLP046 60025 T00940078 53016=
201702151352 METAR KATL 151352Z 30012KT 6SM BR BKN006 OVC050 09/08 A2964 RMK AO2 RAE33 SLP033 CIG 005V008 P0003 T00890083 $=
201702151329 SPECI KATL 151329Z 32010KT 3SM -RA BR FEW004 BKN039 BKN050 09/08 A2962 RMK AO2 SFC VIS 5 P0003 T00890083 $=
201702151315 SPECI KATL 151315Z 29007KT 2 1/2SM -RA BR SCT004 BKN039 BKN050 08/08 A2962 RMK AO2 SFC VIS 3 P0003 T00830083 $=
201702151252 METAR KATL 151252Z 31010KT 2 1/2SM -RA BR BKN004 BKN047 OVC060 09/08 A2961 RMK AO2 SFC VIS 4 SLP027 CIG 003V005 CB DSNT SE-S P0022 T00890083 $=
201702151223 SPECI KATL 151223Z 33007KT 2 1/2SM RA BR FEW005 BKN046 OVC060 09/08 A2960 RMK AO2 LTG DSNT SW P0017 T00890083=
201702151152 METAR KATL 151152Z 33008KT 4SM +RA BR FEW007 BKN050 OVC080 09/08 A2962 RMK AO2 PK WND 34033/1127 WSHFT 1108 RAB1058 TSB06E44 SLP028 OCNL LTGICCG DSNT E CB DSNT E TS MOV E P0017 60017 70017 T00890083 10167 20089 55002 $=
201702151145 SPECI KATL 151145Z 34009KT 7SM -RA FEW007 FEW020 OVC080 09/08 A2962 RMK AO2 PK WND 34033/1127 WSHFT 1108 RAB1058 TSB06E44 OCNL LTGICCG DSNT E CB DSNT E TS MOV E P0015 T00890083 $=
201702151131 SPECI KATL 151131Z 34018G33KT 3SM +TSRA BR FEW007 BKN015CB OVC034 09/08 A2963 RMK AO2 PK WND 34033/1127 WSHFT 1108 RAB1058 TSB06 FRQ LTGICCG OHD-E-SE TS OHD-E-SE MOV NE P0013 T00890078 $=
201702151124 SPECI KATL 151124Z 34025G33KT 2SM TSRA BR SCT007 BKN015CB OVC019 11/10 A2964 RMK AO2 PK WND 35033/1124 WSHFT 1108 RAB1058 TSB06 PRESRR FRQ LTGIC SE-OHD-SW TS SE-OHD-SW MOV NE P0008 T01110100 $=
201702151121 SPECI KATL 151121Z 33016G26KT 2SM TSRA BR BKN015CB BKN027 OVC046 13/12 A2963 RMK AO2 PK WND 32027/1118 WSHFT 1106 RAB1058 TSB06 PRESRR FRQ LTGIC SE-OHD-SW TS SE-OHD-SW MOV NE P0005 T01330122 $=
201702151106 SPECI KATL 151106Z 23012G21KT 7SM -TSRA OVC015CB 17/14 A2957 RMK AO2 RAB1058 TSB06 OCNL LTGIC S-W TS VC S-W MOV NE P0001 T01670144=
201702151052 METAR KATL 151052Z 21010KT 10SM OVC016 17/14 A2957 RMK AO2 SLP007 OCNL LTGIC NE AND SW CB DSNT NE AND SW T01670139=
201702151036 SPECI KATL 151036Z 20011G19KT 10SM OVC014 16/13 A2957 RMK AO2 T01610128=
201702151016 SPECI KATL 151016Z 20009KT 10SM BKN017 BKN060 OVC130 15/12 A2958 RMK AO2 BKN017 V SCT T01500117=
201702151008 SPECI KATL 151008Z 21008KT 10SM FEW016 SCT038 BKN060 OVC130 15/11 A2959 RMK AO2 T01500111=
201702150952 METAR KATL 150952Z 20009KT 10SM BKN016 BKN035 OVC150 14/10 A2960 RMK AO2 PRESFR SLP017 T01440100=
201702150926 SPECI KATL 150926Z 21009KT 10SM BKN014 BKN030 OVC055 14/09 A2962 RMK AO2 T01440089=
201702150919 SPECI KATL 150919Z 20007KT 10SM BKN015 BKN030 OVC060 14/08 A2962 RMK AO2 T01440083=
201702150852 METAR KATL 150852Z 22010KT 10SM FEW035 SCT055 BKN100 BKN200 14/08 A2963 RMK AO2 SLP027 T01440078 58039=
201702150752 METAR KATL 150752Z 19008KT 10SM BKN075 OVC110 14/01 A2968 RMK AO2 PRESFR SLP044 BINOVC T01390011=
201702150652 METAR KATL 150652Z 00000KT 10SM BKN090 BKN120 13/00 A2972 RMK AO2 SLP059 T01280000=
201702150552 METAR KATL 150552Z 16003KT 10SM SCT120 BKN200 BKN250 13/01 A2975 RMK AO2 SLP069 T01330006 10189 20133 58024=
201702150452 METAR KATL 150452Z 00000KT 10SM FEW045 BKN130 BKN250 14/00 A2977 RMK AO2 SLP076 VIRGA N-NE T01440000 402220039=
201702150352 METAR KATL 150352Z 34005KT 10SM SCT048 BKN180 BKN250 15/M02 A2980 RMK AO2 SLP089 T01501017=
201702150252 METAR KATL 150252Z 31005KT 10SM BKN048 BKN200 OVC250 16/M01 A2982 RMK AO2 SLP095 T01561011 56010=
201702150152 METAR KATL 150152Z 32003KT 10SM BKN200 OVC250 17/M03 A2983 RMK AO2 SLP098 T01721028=
201702150052 METAR KATL 150052Z 00000KT 10SM FEW055 SCT200 BKN250 17/M03 A2983 RMK AO2 SLP102 T01671028=
201702142352 METAR KATL 142352Z 00000KT 10SM BKN055 BKN200 BKN250 19/M05 A2985 RMK AO2 SLP107 T01891050 10222 20189 56009=
201702142252 METAR KATL 142252Z 25005KT 10SM BKN055 BKN250 20/M07 A2985 RMK AO2 SLP108 T02001067=
201702142152 METAR KATL 142152Z 26007KT 10SM BKN060 BKN250 21/M07 A2986 RMK AO2 SLP111 T02111072=
201702142052 METAR KATL 142052Z 00000KT 10SM BKN060 BKN250 21/M05 A2988 RMK AO2 SLP117 T02111050 56019=
201702141952 METAR KATL 141952Z 31006KT 10SM SCT060 SCT250 22/M05 A2990 RMK AO2 SLP122 T02171050=
201702141852 METAR KATL 141852Z 30003KT 10SM FEW060 FEW150 SCT250 21/M04 A2991 RMK AO2 SLP126 T02111039=
201702141752 METAR KATL 141752Z 33004KT 10SM FEW150 FEW250 20/M02 A2993 RMK AO2 SLP135 T02001022 10206 20044 58026=
201702141652 METAR KATL 141652Z 25006KT 10SM FEW150 FEW250 18/M03 A2997 RMK AO2 SLP147 T01831033=
201702141552 METAR KATL 141552Z 23004KT 10SM FEW150 FEW250 16/M03 A3000 RMK AO2 SLP159 T01561028=
201702141452 METAR KATL 141452Z 00000KT 10SM FEW150 FEW250 13/M06 A3001 RMK AO2 SLP164 T01281056 50006=
201702141352 METAR KATL 141352Z 00000KT 10SM FEW200 FEW250 10/M03 A3002 RMK AO2 SLP166 T01001033=
201702141252 METAR KATL 141252Z 32004KT 10SM FEW200 FEW250 05/M04 A3002 RMK AO2 SLP166 T00501044=
201702141152 METAR KATL 141152Z 32004KT 10SM FEW250 05/M06 A3000 RMK AO2 SLP159 T00501056 10078 20039 53004=
201702141052 METAR KATL 141052Z 34004KT 10SM FEW250 04/M04 A2999 RMK AO2 SLP157 T00441044=
201702140952 METAR KATL 140952Z 00000KT 10SM FEW250 04/M05 A2998 RMK AO2 SLP153 T00441050=
201702140852 METAR KATL 140852Z 00000KT 10SM FEW250 04/M05 A2998 RMK AO2 SLP154 T00441050 58017=
201702140752 METAR KATL 140752Z 00000KT 10SM SCT250 06/M06 A3000 RMK AO2 SLP160 T00611061=
201702140652 METAR KATL 140652Z 32005KT 10SM SCT250 07/M07 A3003 RMK AO2 SLP168 T00721072=
201702140552 METAR KATL 140552Z 30004KT 10SM SCT250 08/M08 A3003 RMK AO2 SLP170 T00781078 10139 20078 58013=
201702140452 METAR KATL 140452Z VRB05KT 10SM FEW250 08/M07 A3005 RMK AO2 SLP177 T00831067 401940061=
201702140352 METAR KATL 140352Z 31007KT 10SM FEW250 09/M07 A3007 RMK AO2 SLP183 T00891072=
201702140252 METAR KATL 140252Z 33005KT 10SM FEW250 10/M07 A3007 RMK AO2 SLP186 T01001067 58004=
201702140152 METAR KATL 140152Z 31005KT 10SM FEW250 11/M07 A3008 RMK AO2 SLP188 T01111067=
201702140052 METAR KATL 140052Z 33006KT 10SM FEW250 13/M07 A3009 RMK AO2 SLP190 T01281067=
201702132352 METAR KATL 132352Z 32008KT 10SM FEW250 14/M06 A3009 RMK AO2 SLP189 T01391056 10194 20139 55008=
201702132252 METAR KATL 132252Z 33007KT 10SM FEW250 17/M06 A3008 RMK AO2 SLP187 T01671056=
201702132152 METAR KATL 132152Z 31006KT 10SM FEW250 SCT300 18/M05 A3009 RMK AO2 SLP188 T01781050=
201702132052 METAR KATL 132052Z 32011KT 10SM FEW200 SCT250 BKN300 18/M05 A3011 RMK AO2 SLP196 T01831050 56017=
201702131952 METAR KATL 131952Z 33010KT 10SM FEW200 SCT250 BKN300 19/M07 A3012 RMK AO2 SLP198 T01891067=
201702131852 METAR KATL 131852Z 32006KT 10SM FEW250 BKN300 18/M06 A3014 RMK AO2 SLP204 T01781061=
201702131752 METAR KATL 131752Z 32009KT 10SM FEW200 SCT250 BKN300 16/M04 A3017 RMK AO2 SLP213 T01611044 10167 20061 58012=
201702131652 METAR KATL 131652Z 33007KT 10SM FEW250 BKN300 14/M04 A3019 RMK AO2 SLP221 T01441039=
201702131552 METAR KATL 131552Z 34009KT 10SM FEW250 BKN300 13/M03 A3021 RMK AO2 SLP228 T01281028=
201702131452 METAR KATL 131452Z 34009KT 10SM BKN250 10/M02 A3020 RMK AO2 SLP225 T01001022 51014=
201702131352 METAR KATL 131352Z 32010KT 10SM SCT250 08/M01 A3020 RMK AO2 SLP224 T00781006=
201702131252 METAR KATL 131252Z 32009KT 10SM SCT250 07/00 A3017 RMK AO2 SLP215 T00670000=
201702131152 METAR KATL 131152Z 33010KT 10SM FEW250 07/00 A3016 RMK AO2 SLP211 70001 T00670000 10128 20067 53009=
201702131052 METAR KATL 131052Z 33009KT 10SM CLR 08/01 A3014 RMK AO2 SLP205 T00780006=
201702130952 METAR KATL 130952Z 33009KT 10SM CLR 08/01 A3013 RMK AO2 SLP202 T00830006=
201702130852 METAR KATL 130852Z 33012KT 10SM CLR 09/01 A3013 RMK AO2 SLP201 T00940011 50001=
201702130752 METAR KATL 130752Z 33013KT 10SM CLR 11/01 A3014 RMK AO2 SLP202 T01060006=
201702130652 METAR KATL 130652Z 33014KT 10SM CLR 12/01 A3013 RMK AO2 SLP200 T01170006=
201702130552 METAR KATL 130552Z 32012KT 10SM FEW250 13/04 A3012 RMK AO2 SLP198 60001 T01280044 10206 20128 51009=
201702130452 METAR KATL 130452Z 32018G26KT 10SM FEW250 15/07 A3012 RMK AO2 PK WND 33029/0418 SLP194 T01500067 402220144=
201702130352 METAR KATL 130352Z 33015G21KT 10SM FEW075 SCT250 16/09 A3011 RMK AO2 SLP191 T01610094=
201702130252 METAR KATL 130252Z 34018G24KT 10SM FEW014 SCT030 BKN075 BKN250 18/13 A3010 RMK AO2 SLP186 60001 T01830133 53015=
201702130248 SPECI KATL 130248Z 34013KT 10SM FEW012 SCT030 BKN080 BKN250 18/16 A3009 RMK AO2=
201702130222 SPECI KATL 130222Z 32013KT 9SM FEW010 BKN015 OVC035 19/17 A3008 RMK AO2 T01890172=
201702130152 METAR KATL 130152Z 30010KT 10SM FEW012 BKN030 OVC050 19/18 A3007 RMK AO2 SLP179 RAB19 TSB21E36 TS DSIPTD FROPA P0001 T01940178=
201702130144 SPECI KATL 130144Z 30017G24KT 6SM -RA BR BKN024 OVC050 19/18 A3008 RMK AO2 RAB19 TSB21E36 TS DSIPTD FROPA P0001 T01940178=
201702130137 SPECI KATL 130137Z 31011KT 6SM -RA SCT024 BKN032 OVC050 20/17 A3008 RMK AO2 RAB19 TSB21E36 TS DSIPTD P0000 T02000172=
201702130122 SPECI KATL 130122Z 28006KT 10SM -TSRA SCT032CB OVC065 20/17 A3005 RMK AO2 TSB21 OCNL LTGICCA NW TS NW MOV SE P0000 T02000167=
201702130052 METAR KATL 130052Z 27007KT 10SM SCT031 OVC070 21/17 A3006 RMK AO2 SLP173 T02060167=
201702122352 METAR KATL 122352Z 27007KT 10SM BKN034 BKN075 BKN250 21/17 A3005 RMK AO2 SLP170 T02060167 10222 20194 53001=
201702122252 METAR KATL 122252Z 26009KT 10SM FEW038 FEW070 SCT250 22/17 A3004 RMK AO2 SLP167 T02170167=
201702122152 METAR KATL 122152Z 25009KT 10SM FEW026 SCT032 BKN070 22/17 A3005 RMK AO2 SLP169 T02220167=
201702122052 METAR KATL 122052Z 27015KT 10SM SCT022 BKN060 22/17 A3005 RMK AO2 SLP169 T02170167 56014=
201702122004 SPECI KATL 122004Z 26008KT 10SM FEW019 BKN040 OVC055 22/17 A3005 RMK AO2 T02170167=
201702121952 METAR KATL 121952Z 24012KT 10SM SCT017 BKN025 OVC043 21/17 A3005 RMK AO2 SLP170 T02110167=
201702121942 SPECI KATL 121942Z 24010KT 10SM FEW017 BKN025 OVC036 21/17 A3005 RMK AO2 T02110172=
201702121922 SPECI KATL 121922Z 25011G17KT 10SM SCT017 BKN033 OVC060 21/17 A3006 RMK AO2 T02110172=
201702121852 METAR KATL 121852Z 25009KT 10SM OVC016 21/17 A3007 RMK AO2 SLP177 T02060172=
201702121807 SPECI KATL 121807Z 25008KT 10SM FEW014 OVC019 20/17 A3008 RMK AO2 T02000172=
201702121752 METAR KATL 121752Z 25009KT 9SM BKN012 OVC018 19/17 A3009 RMK AO2 SLP185 60000 T01940172 10200 20178 58007=
201702121652 METAR KATL 121652Z 24008G17KT 8SM OVC013 19/17 A3011 RMK AO2 SLP190 T01940172=
201702121615 SPECI KATL 121615Z 25010KT 8SM OVC011 20/17 A3012 RMK AO2 T02000172=
201702121552 METAR KATL 121552Z 24010KT 7SM OVC009 19/17 A3011 RMK AO2 SLP192 T01890172=
201702121452 METAR KATL 121452Z 24012KT 8SM OVC009 19/17 A3011 RMK AO2 SLP192 60000 T01890167 53004=
201702121352 METAR KATL 121352Z 23010KT 8SM OVC009 18/17 A3011 RMK AO2 SLP190 CIG 008V011 T01830167=
201702121252 METAR KATL 121252Z 22011KT 7SM BKN008 BKN060 18/17 A3010 RMK AO2 DZB20E41 SLP187 P0000 T01780167=
201702121152 METAR KATL 121152Z 23006KT 10SM OVC007 18/17 A3010 RMK AO2 DZE1059 SLP188 P0000 60000 T01780167 10183 20178 53001=
201702121052 METAR KATL 121052Z 22009KT 8SM -DZ OVC008 18/17 A3010 RMK AO2 DZB51 SLP186 P0000 T01780167=
201702120952 METAR KATL 120952Z 23006KT 10SM OVC009 18/16 A3010 RMK AO2 SLP186 T01780161=
201702120925 SPECI KATL 120925Z 24007KT 10SM OVC009 18/16 A3010 RMK AO2 T01780161=
201702120852 METAR KATL 120852Z 23009KT 10SM OVC011 18/16 A3010 RMK AO2 SLP186 T01830161 58001=
201702120752 METAR KATL 120752Z 25009KT 10SM OVC013 18/16 A3010 RMK AO2 SLP188 T01830156=
201702120702 SPECI KATL 120702Z 23007KT 10SM OVC014 18/16 A3010 RMK AO2 T01830156=
201702120652 METAR KATL 120652Z 24008KT 10SM OVC016 18/15 A3010 RMK AO2 SLP188 T01830150=
201702120623 SPECI KATL 120623Z 23008KT 10SM BKN018 OVC050 18/15 A3010 RMK AO2 BINOVC T01830150=
201702120552 METAR KATL 120552Z 23007KT 10SM SCT022 OVC055 18/15 A3010 RMK AO2 SLP188 BINOVC 60000 T01830150 10200 20183 56006=
201702120538 SPECI KATL 120538Z 21007KT 10SM SCT024 OVC055 18/15 A3010 RMK AO2 BINOVC T01830150=
201702120452 METAR KATL 120452Z 22009KT 10SM BKN024 OVC060 19/14 A3011 RMK AO2 SLP191 T01890144 402060083=
201702120352 METAR KATL 120352Z 20008KT 10SM FEW038 OVC055 19/14 A3010 RMK AO2 SLP190 BINOVC T01890144=
201702120252 METAR KATL 120252Z 20007KT 10SM FEW036 BKN055 BKN250 19/14 A3012 RMK AO2 SLP196 60000 T01890139 58004=
201702120152 METAR KATL 120152Z 22004KT 10SM FEW038 BKN060 BKN250 19/14 A3013 RMK AO2 SLP199 T01890139=
201702120052 METAR KATL 120052Z 22005KT 10SM SCT040 OVC065 19/14 A3013 RMK AO2 SLP200 RAB19E29 P0000 T01940139=
201702112352 METAR KATL 112352Z 21008KT 10SM SCT042 BKN070 BKN250 19/14 A3013 RMK AO2 SLP201 60000 T01940139 10206 20172 56003=
201702112252 METAR KATL 112252Z 23007KT 10SM OVC030 21/14 A3013 RMK AO2 SLP202 BINOVC T02060139=
201702112152 METAR KATL 112152Z 22004KT 10SM BKN032 OVC050 21/14 A3013 RMK AO2 SLP202 BINOVC T02060139=
201702112052 METAR KATL 112052Z 23006KT 10SM OVC033 21/13 A3014 RMK AO2 SLP205 60000 T02060133 56020=
201702112034 SPECI KATL 112034Z 25005KT 10SM FEW028 BKN033 OVC050 20/13 A3014 RMK AO2 T02000133=
201702111952 METAR KATL 111952Z 25007KT 10SM FEW020 BKN025 BKN070 19/13 A3015 RMK AO2 SLP208 T01940133=
201702111923 SPECI KATL 111923Z 25008KT 10SM BKN020 OVC045 19/13 A3016 RMK AO2 T01890133=
201702111902 SPECI KATL 111902Z 24008KT 10SM SCT020 OVC035 18/13 A3017 RMK AO2 T01830133=
201702111852 METAR KATL 111852Z 23009KT 10SM BKN020 OVC035 18/13 A3017 RMK AO2 RAB22E34 SLP217 P0000 T01780133=
201702111752 METAR KATL 111752Z 23013G18KT 10SM BKN016 BKN050 18/13 A3020 RMK AO2 SLP227 T01780128 10183 20111 58012=
201702111745 SPECI KATL 111745Z 22011G17KT 10SM OVC016 18/13 A3021 RMK AO2 T01780128=
201702111652 METAR KATL 111652Z 24011KT 10SM OVC014 16/12 A3024 RMK AO2 SLP238 T01610122=
201702111552 METAR KATL 111552Z 25008KT 10SM OVC014 16/12 A3024 RMK AO2 SLP240 T01560117=
201702111452 METAR KATL 111452Z 23009KT 10SM OVC014 14/11 A3024 RMK AO2 SLP241 T01440106 53003=
201702111352 METAR KATL 111352Z 23007KT 10SM OVC013 13/10 A3023 RMK AO2 SLP238 T01330100=
201702111323 SPECI KATL 111323Z 22008KT 10SM OVC014 13/10 A3023 RMK AO2 T01280100=
201702111252 METAR KATL 111252Z 24008KT 10SM OVC015 12/09 A3023 RMK AO2 SLP238 T01220094=
201702111222 SPECI KATL 111222Z 25006KT 10SM BKN013 OVC055 12/08 A3024 RMK AO2 BKN013 V SCT T01170083=
201702111152 METAR KATL 111152Z 25008KT 10SM FEW011 OVC055 11/08 A3023 RMK AO2 SLP237 T01110078 10111 20083 53006=
201702111146 SPECI KATL 111146Z 25008KT 10SM SCT011 OVC055 11/08 A3023 RMK AO2=
201702111117 SPECI KATL 111117Z 25008KT 10SM BKN011 BKN050 BKN250 11/08 A3023 RMK AO2 T01060078=
201702111111 SPECI KATL 111111Z 26010KT 10SM SCT011 BKN050 BKN250 11/07 A3023 RMK AO2 T01060067=
201702111052 METAR KATL 111052Z VRB06KT 10SM SCT047 BKN250 09/02 A3022 RMK AO2 SLP234 T00940022=
201702110952 METAR KATL 110952Z 25007KT 10SM FEW250 09/00 A3022 RMK AO2 SLP231 T00890000=
201702110852 METAR KATL 110852Z 23006KT 10SM FEW250 08/M01 A3021 RMK AO2 SLP231 T00831011 55004=
201702110752 METAR KATL 110752Z 22010KT 10SM SCT250 09/M02 A3020 RMK AO2 SLP226 T00941017=
201702110652 METAR KATL 110652Z 20008KT 10SM BKN250 10/M02 A3022 RMK AO2 SLP232 T01001017=
201702110552 METAR KATL 110552Z 20008KT 10SM BKN250 10/M02 A3022 RMK AO2 SLP235 T01001022 10144 20094 58008=
201702110452 METAR KATL 110452Z 19007KT 10SM BKN250 10/M02 A3024 RMK AO2 SLP240 T01001022 401781006=
201702110352 METAR KATL 110352Z 19006KT 10SM BKN250 11/M03 A3025 RMK AO2 SLP245 T01061028=
201702110252 METAR KATL 110252Z 18006KT 10SM BKN250 11/M03 A3025 RMK AO2 SLP247 T01111028 58002=
201702110152 METAR KATL 110152Z 18008KT 10SM BKN250 12/M04 A3025 RMK AO2 SLP249 T01221039=
201702110052 METAR KATL 110052Z 17007KT 10SM BKN250 13/M04 A3026 RMK AO2 SLP252 T01331039=
201702102352 METAR KATL 102352Z 16006KT 10SM BKN250 14/M04 A3026 RMK AO2 SLP250 T01441044 10178 20139 56007=
201702102252 METAR KATL 102252Z 18007KT 10SM BKN250 16/M06 A3026 RMK AO2 SLP252 T01611061=
201702102152 METAR KATL 102152Z 19006KT 10SM FEW200 BKN300 17/M08 A3027 RMK AO2 SLP254 T01721078=
201702102052 METAR KATL 102052Z 19010KT 10SM FEW200 BKN300 17/M09 A3028 RMK AO2 SLP257 T01721089 56027=
201702101952 METAR KATL 101952Z 21010KT 10SM FEW200 BKN300 17/M09 A3030 RMK AO2 SLP264 T01671094=
201702101852 METAR KATL 101852Z 18009KT 10SM FEW200 SCT300 15/M13 A3033 RMK AO2 SLP274 T01501128=
201702101752 METAR KATL 101752Z VRB05KT 10SM FEW200 SCT250 BKN300 14/M14 A3036 RMK AO2 SLP285 T01391144 10139 21006 58021=
201702101652 METAR KATL 101652Z 17007KT 10SM FEW250 BKN300 12/M14 A3040 RMK AO2 SLP298 T01171139=
201702101552 METAR KATL 101552Z 13003KT 10SM FEW250 BKN300 09/M12 A3042 RMK AO2 SLP307 T00941117=
201702101452 METAR KATL 101452Z 00000KT 10SM SCT250 06/M08 A3042 RMK AO2 SLP309 T00611078 51010=
201702101352 METAR KATL 101352Z 31003KT 10SM FEW250 SCT300 03/M07 A3042 RMK AO2 SLP307 T00281072=
201702101252 METAR KATL 101252Z 32004KT 10SM FEW250 00/M07 A3040 RMK AO2 SLP304 T00001072=
201702101152 METAR KATL 101152Z 33005KT 10SM FEW250 M01/M08 A3039 RMK AO2 SLP300 T10061078 10022 21006 50009=
201702101052 METAR KATL 101052Z 32005KT 10SM CLR M01/M08 A3039 RMK AO2 SLP300 T10061078=
201702100952 METAR KATL 100952Z 32008KT 10SM CLR 00/M07 A3038 RMK AO2 SLP295 T00001072=
201702100852 METAR KATL 100852Z 31007KT 10SM CLR 00/M08 A3036 RMK AO2 SLP289 T00001078 53004=
201702100752 METAR KATL 100752Z 31006KT 10SM CLR 01/M08 A3036 RMK AO2 SLP286 T00061078=
201702100652 METAR KATL 100652Z 32005KT 10SM CLR 01/M08 A3036 RMK AO2 SLP286 T00111083=
201702100552 METAR KATL 100552Z 34010KT 10SM CLR 02/M09 A3035 RMK AO2 SLP284 T00221089 10061 20022 51012=
201702100452 METAR KATL 100452Z 33008KT 10SM CLR 03/M07 A3034 RMK AO2 SLP282 T00281072 401780028=
201702100352 METAR KATL 100352Z 33006KT 10SM CLR 03/M06 A3033 RMK AO2 SLP277 T00331061=
201702100252 METAR KATL 100252Z 32013KT 10SM FEW250 04/M06 A3032 RMK AO2 SLP273 T00391056 51013=
201702100152 METAR KATL 100152Z 32009KT 10SM FEW250 04/M06 A3031 RMK AO2 SLP270 T00441061=
201702100052 METAR KATL 100052Z 33012KT 10SM FEW250 06/M07 A3030 RMK AO2 SLP266 T00561067=
201702092352 METAR KATL 092352Z 32011KT 10SM FEW250 06/M06 A3028 RMK AO2 SLP258 T00611056 10094 20061 53027=
201702092252 METAR KATL 092252Z 32015G21KT 10SM FEW250 07/M05 A3025 RMK AO2 SLP248 T00721050=
201702092152 METAR KATL 092152Z 33015G21KT 10SM FEW250 09/M04 A3022 RMK AO2 PK WND 33026/2107 SLP238 T00891044=
201702092052 METAR KATL 092052Z 32018G25KT 10SM FEW200 BKN250 09/M04 A3020 RMK AO2 PK WND 32027/2002 SLP227 T00941039 53012=
201702091952 METAR KATL 091952Z 34018G27KT 10SM FEW050 FEW250 09/M03 A3019 RMK AO2 PK WND 34030/1905 SLP223 T00941028=
201702091852 METAR KATL 091852Z 32021G30KT 10SM FEW045 FEW200 SCT250 09/M03 A3017 RMK AO2 PK WND 33030/1847 SLP216 T00941028=
201702091752 METAR KATL 091752Z 32018G27KT 10SM FEW040 FEW200 SCT250 08/M02 A3016 RMK AO2 PK WND 34027/1746 SLP213 T00831017 10083 20044 50008=
201702091652 METAR KATL 091652Z 32017G24KT 10SM FEW035 SCT200 SCT250 07/M01 A3016 RMK AO2 SLP214 T00721011=
201702091552 METAR KATL 091552Z 34017G24KT 10SM FEW030 SCT200 BKN250 06/M01 A3014 RMK AO2 PK WND 34027/1508 SLP207 T00611011=
201702091452 METAR KATL 091452Z 31018G26KT 10SM FEW028 FEW200 06/M01 A3013 RMK AO2 PK WND 33027/1414 SLP205 T00561011 51034=
201702091352 METAR KATL 091352Z 33018G29KT 10SM SCT028 BKN200 05/M01 A3011 RMK AO2 PK WND 35031/1306 SLP195 T00501011=
201702091308 SPECI KATL 091308Z 33020G31KT 10SM SCT024 BKN032 05/M01 A3010 RMK AO2 PK WND 35031/1306 T00501006=
201702091252 METAR KATL 091252Z 32015G24KT 10SM BKN024 BKN033 05/01 A3008 RMK AO2 PK WND 31028/1207 SLP185 T00500006=
201702091152 METAR KATL 091152Z 33015KT 10SM SCT025 OVC032 06/01 A3003 RMK AO2 PK WND 31033/1137 SLP170 BINOVC 60000 70013 T00560011 10156 20056 51052=
201702091052 METAR KATL 091052Z 31020G25KT 10SM OVC020 06/02 A2999 RMK AO2 PK WND 31030/1026 SLP156 CIG 016V024 T00610022=
201702090952 METAR KATL 090952Z 32016G29KT 10SM OVC016 07/04 A2994 RMK AO2 PK WND 30032/0919 SLP136 CIG 014V018 T00720044 $=
201702090852 METAR KATL 090852Z 30021G30KT 10SM SCT016 OVC024 09/06 A2987 RMK AO2 PK WND 32032/0833 SLP113 60000 T00890061 51046 $=
201702090752 METAR KATL 090752Z 29023G32KT 10SM FEW016 BKN026 BKN100 BKN200 11/08 A2983 RMK AO2 PK WND 30038/0727 SLP099 T01110078 $=
201702090652 METAR KATL 090652Z 32014KT 10SM SCT013 BKN028 BKN075 BKN200 14/13 A2977 RMK AO2 RAB25E37 SLP078 P0000 T01440133 $=
201702090552 METAR KATL 090552Z 32013KT 10SM FEW020 SCT090 BKN200 16/14 A2973 RMK AO2 PK WND 32031/0520 LTG DSNT SE RAE07 TSE20 SLP063 P0012 60013 T01560139 10189 20156 53010 $=
201702090520 SPECI KATL 090520Z 32024G31KT 10SM SCT012 BKN025 BKN080 OVC200 17/16 A2973 RMK AO2 PK WND 32031/0520 LTG DSNT S AND SW RAE07 TSE20 PRESRR TS MOVD SE P0012 T01720156 $=
201702090501 SPECI KATL 090501Z 29014G24KT 6SM R09R/6000VP6000FT -TSRA BR FEW012CB SCT020 BKN040 OVC150 18/17 A2970 RMK AO2 LTG DSNT NE VIS LWR NE-SE-SW OCNL LTGIC NE-SE-SW TS NE-SE-SW MOV SE P0011 T01780167 $=
201702090456 SPECI KATL 090456Z 28017G23KT 1 1/2SM +TSRA BR SCT012CB BKN030 OVC080 18/16 A2970 RMK AO2 PRESRR OCNL LTGIC NE-OHD-SW TS NE-OHD-SW MOV SE T01830161 PNO $=
201702090452 METAR KATL 090452Z 26012G19KT 4SM TSRA BR FEW010CB BKN030 OVC080 18/16 A2969 RMK AO2 RAB45 TSB45 SLP047 OCNL LTGIC SW-NW-NE TS SW-NW-NE MOV SE P0001 T01830161 401940128=
201702090445 SPECI KATL 090445Z 24010G19KT 9SM -TSRA FEW010CB SCT040 BKN090 OVC200 19/16 A2967 RMK AO2 RAB45 TSB45 OCNL LTGIC W-NW TS VC W-NW MOV SE P0000 T01890161=
201702090352 METAR KATL 090352Z 22011KT 10SM SCT140 BKN200 BKN250 17/16 A2968 RMK AO2 SLP048 VIRGA NW-NE T01720156=
201702090252 METAR KATL 090252Z 21010KT 10SM SCT200 17/16 A2970 RMK AO2 SLP054 T01670156 58022=
201702090152 METAR KATL 090152Z 22007KT 10SM FEW250 17/16 A2974 RMK AO2 SLP069 T01670156=
201702090052 METAR KATL 090052Z 22004KT 10SM FEW035 FEW250 17/15 A2976 RMK AO2 SLP076 T01670150=
201702082352 METAR KATL 082352Z 22004KT 10SM SCT035 SCT250 18/15 A2977 RMK AO2 SLP077 60000 T01780150 10194 20161 51006=
201702082252 METAR KATL 082252Z 23006KT 10SM FEW020 SCT028 BKN250 19/15 A2976 RMK AO2 SLP074 T01890150=
201702082152 METAR KATL 082152Z 21007KT 10SM FEW015 BKN025 BKN250 19/16 A2977 RMK AO2 SLP078 T01890156=
201702082052 METAR KATL 082052Z 22009KT 10SM FEW010 BKN020 BKN030 18/16 A2975 RMK AO2 DZE50 SLP069 P0000 60000 T01830161 58024=
201702082017 SPECI KATL 082017Z 20007KT 8SM -DZ BKN010 OVC015 18/16 A2977 RMK AO2 P0000 T01780161=
201702081952 METAR KATL 081952Z 21006KT 7SM -DZ OVC008 18/16 A2978 RMK AO2 DZB44 SLP082 P0000 T01780161=
201702081852 METAR KATL 081852Z 20006KT 7SM OVC007 17/16 A2980 RMK AO2 DZE46 SLP087 P0000 T01720161=
201702081752 METAR KATL 081752Z 20006KT 6SM -DZ BR OVC004 16/16 A2982 RMK AO2 DZB49 SLP095 P0000 60000 T01610156 10161 20133 58009=
201702081652 METAR KATL 081652Z 22006KT 8SM OVC007 16/15 A2985 RMK AO2 SLP105 T01610150=
201702081633 SPECI KATL 081633Z 24007KT 8SM OVC006 16/15 A2985 RMK AO2 T01610150=
201702081555 SPECI KATL 081555Z 25006KT 3SM BR OVC005 15/15 A2986 RMK AO2 SFC VIS 6 T01500150=
201702081552 METAR KATL 081552Z 24006KT 1 1/2SM BR OVC005 15/15 A2985 RMK AO2 SFC VIS 5 SLP106 T01500150=
201702081509 SPECI KATL 081509Z 22007KT 1 1/2SM BR OVC004 14/14 A2985 RMK AO2 SFC VIS 5 T01440144=
201702081452 METAR KATL 081452Z 24006KT 1/2SM R09R/P6000FT BR BCFG OVC003 14/14 A2985 RMK AO2 SFC VIS 4 SLP105 T01440144 52018=
201702081352 METAR KATL 081352Z 26006KT 1/2SM R09R/5000VP6000FT BR OVC003 14/14 A2983 RMK AO2 SFC VIS 1 SLP101 TWRINC T01390139=
201702081252 METAR KATL 081252Z VRB06KT 1/2SM R09R/2800V3500FT BR VV002 13/13 A2981 RMK AO2 SFC VIS 3/4 SLP092 T01330133=
201702081152 METAR KATL 081152Z 22006KT 1/2SM R09R/4000V5500FT BR VV002 13/13 A2979 RMK AO2 SFC VIS 1 SLP087 TWRINC 70063 T01330133 10139 20128 56001=
201702081125 SPECI KATL 081125Z 27005KT 1/2SM R09R/4500VP6000FT BR OVC003 13/13 A2978 RMK AO2 SFC VIS 1 TWRINC T01330133=
201702081117 SPECI KATL 081117Z 28004KT 1SM R09R/P6000FT BR OVC003 13/13 A2979 RMK AO2 SFC VIS 2 TWRINC T01330133=
201702081107 SPECI KATL 081107Z 25004KT 1SM R09R/P6000FT BR OVC004 13/13 A2980 RMK AO2 SFC VIS 4 CIG 003V005 TWRINC T01330128=
201702081054 SPECI KATL 081054Z VRB04KT 2SM OVC004 13/13 A2980 RMK AO2 SFC VIS 7 T01330128=
201702081052 METAR KATL 081052Z 26005KT 7SM OVC004 13/13 A2980 RMK AO2 SLP088 T01330128=
201702081048 SPECI KATL 081048Z 26006KT 7SM BKN005 13/13 A2980 RMK AO2 CIG 004V007=
201702080952 METAR KATL 080952Z 23004KT 10SM FEW004 FEW038 BKN250 13/13 A2978 RMK AO2 SLP082 T01280128 $=
201702080856 SPECI KATL 080856Z 24005KT 10SM FEW004 SCT023 BKN038 13/13 A2979 RMK AO2 T01330128 $=
201702080852 METAR KATL 080852Z 24005KT 10SM SCT004 BKN023 BKN038 13/13 A2980 RMK AO2 SLP087 SCT004 V BKN T01330128 55000 $=
201702080848 SPECI KATL 080848Z 25004KT 10SM SCT004 BKN023 BKN038 13/13 A2980 RMK AO2 SCT004 V BKN $=
201702080752 METAR KATL 080752Z 25004KT 8SM BKN004 BKN022 13/13 A2979 RMK AO2 SLP084 CIG 003V006 T01330128 $=
201702080748 SPECI KATL 080748Z 23005KT 8SM BKN004 BKN022 13/13 A2979 RMK AO2 CIG 003V006 $=
201702080701 SPECI KATL 080701Z 00000KT 10SM BKN005 OVC028 13/13 A2980 RMK AO2 T01330128 $=
201702080652 METAR KATL 080652Z 00000KT 10SM SCT006 BKN028 13/13 A2980 RMK AO2 SLP086 SCT006 V BKN T01330128 $=
201702080647 SPECI KATL 080647Z 23003KT 10SM SCT006 BKN028 13/13 A2980 RMK AO2 SCT006 V BKN $=
201702080552 METAR KATL 080552Z 26007KT 10SM BKN006 OVC040 14/13 A2981 RMK AO2 SLP090 60000 T01390133 10144 20133 56000 $=
201702080519 SPECI KATL 080519Z 26007KT 10SM BKN006 BKN040 OVC080 14/13 A2981 RMK AO2 T01390133 $=
201702080452 METAR KATL 080452Z 23004KT 10SM FEW005 BKN040 BKN080 BKN250 13/13 A2981 RMK AO2 SLP091 T01330133 401940133 $=
201702080352 METAR KATL 080352Z 00000KT 10SM FEW005 BKN050 OVC250 13/13 A2979 RMK AO2 SLP084 T01330133 $=
201702080252 METAR KATL 080252Z 22003KT 10SM FEW005 BKN075 OVC120 14/13 A2981 RMK AO2 RAB37E52 SLP092 P0000 60000 T01390133 53008 $=
201702080152 METAR KATL 080152Z 16004KT 10SM FEW006 BKN120 OVC150 14/13 A2980 RMK AO2 SLP087 T01390133 $=
201702080052 METAR KATL 080052Z 17005KT 10SM BKN120 OVC150 14/14 A2977 RMK AO2 RAE16 SLP080 P0000 T01390139 $=
201702072352 METAR KATL 072352Z 11005KT 9SM -RA FEW050 BKN075 OVC100 14/14 A2978 RMK AO2 PRESFR SLP083 P0015 60063 T01440139 10194 20144 58019 $=
201702072252 METAR KATL 072252Z 21004KT 4SM RA BR FEW010 SCT040 OVC060 15/14 A2985 RMK AO2 LTG DSNT E-S TSE44 SLP106 P0033 T01500144 $=
201702072244 SPECI KATL 072244Z 23004KT 4SM RA BR FEW010 SCT040 OVC060 15/14 A2986 RMK AO2 TSE44 P0028 T01500144 $=
201702072218 SPECI KATL 072218Z 25009KT 4SM TSRA BR FEW010CB BKN035 OVC070 16/14 A2986 RMK AO2 OCNL LTGIC NE-SE TS NE-SE MOV NE P0019 T01560144 $=
201702072155 SPECI KATL 072155Z 26009KT 2SM +TSRA BR FEW010CB BKN027 OVC050 16/15 A2985 RMK AO2 LTG DSNT ALQDS OCNL LTGICCG OHD-SE-SW TS OHD-SE-SW MOV NE P0003 T01610150 $=
201702072152 METAR KATL 072152Z 24006KT 3SM +TSRA BR FEW010CB BKN025 OVC050 16/15 A2986 RMK AO2 LTG DSNT E-SW TSB38 SLP107 OCNL LTGICCG OHD-SE-SW TS OHD-SE-SW MOV NE P0012 T01610150 $=
201702072139 SPECI KATL 072139Z 25006KT 6SM -TSRA BR SCT010CB BKN025 OVC030 17/15 A2984 RMK AO2 LTG DSNT ALQDS TSB38 OCNL LTGICCG OHD TS OHD MOV NE P0005 T01670150 $=
201702072112 SPECI KATL 072112Z 26004KT 8SM -RA BKN015 BKN030 OVC090 17/16 A2984 RMK AO2 LTG DSNT SE-W CB DSNT SE-SW P0001 T01720161 $=
201702072052 METAR KATL 072052Z 22005KT 4SM RA BR BKN017CB BKN030 OVC050 17/16 A2984 RMK AO2 LTG DSNT S SLP103 CB N & DSNT S-SW-W MOV NE P0003 60003 T01720156 58019 $=
201702072039 SPECI KATL 072039Z 22004KT 8SM -RA BKN020 BKN050 OVC090 18/16 A2985 RMK AO2 CB DSNT NE & S P0001 T01780156 $=
201702072007 SPECI KATL 072007Z 23007KT 9SM -RA SCT020 BKN040 OVC050 18/16 A2986 RMK AO2 LTG DSNT SW CB DSNT N & SW P0001 T01780156 $=
201702071952 METAR KATL 071952Z 22009KT 10SM -RA FEW020 SCT030 OVC050 18/15 A2987 RMK AO2 RAB02 SLP112 P0000 T01780150 $=
201702071852 METAR KATL 071852Z 22013KT 10SM SCT023 BKN030 OVC050 19/14 A2990 RMK AO2 SLP120 T01940139 $=
201702071847 SPECI KATL 071847Z 21011KT 10SM SCT023 BKN030 OVC100 19/14 A2990 RMK AO2 $=
201702071752 METAR KATL 071752Z 21015G22KT 10SM BKN025 BKN030 OVC100 19/14 A2993 RMK AO2 SLP129 T01940139 10194 20133 58025 $=
201702071721 SPECI KATL 071721Z 22014G19KT 10SM BKN025 BKN110 BKN250 19/13 A2995 RMK AO2 T01890133 $=
201702071652 METAR KATL 071652Z 21013G18KT 10SM FEW025 BKN110 BKN250 18/13 A2997 RMK AO2 SLP144 T01830128 $=
201702071628 SPECI KATL 071628Z 20011G17KT 10SM FEW020 SCT030 BKN120 BKN250 18/12 A2999 RMK AO2 T01780122=
201702071552 METAR KATL 071552Z 21014G22KT 10SM BKN018 BKN023 OVC100 17/12 A3001 RMK AO2 SLP158 T01670122=
201702071452 METAR KATL 071452Z 22014G22KT 10SM BKN016 BKN100 OVC150 16/11 A3000 RMK AO2 SLP158 T01560111 50006=
201702071450 SPECI KATL 071450Z 21014KT 10SM BKN014 BKN100 OVC150 16/11 A3001 RMK AO2=
201702071352 METAR KATL 071352Z 20009KT 10SM FEW013 BKN100 BKN150 15/09 A2999 RMK AO2 SLP155 T01500094=
201702071252 METAR KATL 071252Z 18009KT 10SM SCT110 BKN150 BKN250 14/09 A2998 RMK AO2 SLP151 T01390094=
201702071152 METAR KATL 071152Z 18005KT 10SM BKN100 14/10 A2998 RMK AO2 SLP149 VIRGA N T01390100 10150 20133 56014=
201702071052 METAR KATL 071052Z 18005KT 10SM BKN110 BKN150 14/11 A2999 RMK AO2 SLP153 T01390111=
201702070952 METAR KATL 070952Z 18006KT 10SM FEW120 BKN150 BKN220 14/12 A3001 RMK AO2 SLP158 T01390117=
201702070852 METAR KATL 070852Z 18006KT 10SM FEW120 SCT200 14/12 A3003 RMK AO2 SLP163 T01390117 58009=
201702070752 METAR KATL 070752Z 20007KT 10SM FEW120 SCT200 14/12 A3005 RMK AO2 SLP170 T01440117=
201702070652 METAR KATL 070652Z 19005KT 10SM SCT120 SCT200 BKN250 14/12 A3004 RMK AO2 SLP170 T01440122=
201702070552 METAR KATL 070552Z 18006KT 10SM SCT180 BKN250 15/13 A3005 RMK AO2 SLP174 T01500128 10183 20150 58015=
201702070452 METAR KATL 070452Z 16005KT 10SM FEW140 SCT180 BKN250 15/13 A3008 RMK AO2 SLP182 T01500133 402170067=
201702070352 METAR KATL 070352Z 19005KT 10SM FEW140 BKN180 BKN250 15/13 A3009 RMK AO2 SLP189 T01500133=
201702070252 METAR KATL 070252Z 18005KT 10SM FEW140 BKN200 BKN250 16/13 A3010 RMK AO2 SLP191 T01560133 56002=
201702070152 METAR KATL 070152Z 19003KT 10SM FEW085 BKN200 BKN250 16/13 A3010 RMK AO2 SLP191 T01610133=
201702070052 METAR KATL 070052Z 19003KT 10SM FEW040 FEW085 BKN200 BKN250 17/13 A3010 RMK AO2 SLP193 T01720133=
201702062352 METAR KATL 062352Z 23004KT 10SM FEW045 FEW090 BKN200 BKN250 18/13 A3010 RMK AO2 SLP193 T01830133 10217 20172 55000=
201702062252 METAR KATL 062252Z 22006KT 10SM FEW043 SCT085 BKN200 BKN250 21/13 A3010 RMK AO2 SLP191 T02060133=
201702062152 METAR KATL 062152Z 23006KT 10SM FEW040 SCT100 BKN250 21/13 A3010 RMK AO2 SLP190 T02110133=
201702062052 METAR KATL 062052Z 25007KT 10SM FEW030 BKN050 BKN080 21/13 A3010 RMK AO2 SLP192 T02060133 56021=
201702061952 METAR KATL 061952Z 28006KT 10SM FEW028 BKN040 BKN060 21/13 A3011 RMK AO2 SLP195 T02060128=
201702061852 METAR KATL 061852Z 20007KT 10SM FEW025 BKN050 BKN080 19/12 A3014 RMK AO2 SLP204 T01890122=
201702061752 METAR KATL 061752Z 23009KT 200V270 10SM FEW025 BKN060 BKN100 BKN250 18/12 A3017 RMK AO2 SLP215 SHRA DSNT NW-N 60000 T01830122 10183 20078 58013=
201702061652 METAR KATL 061652Z VRB03KT 10SM FEW015 SCT040 BKN100 BKN250 14/11 A3020 RMK AO2 RAB14E24 SLP227 P0000 T01440111=
201702061552 METAR KATL 061552Z 17004KT 9SM FEW015 SCT040 BKN090 BKN180 BKN250 13/09 A3021 RMK AO2 RAB18E43 SLP232 P0000 T01280089=
201702061452 METAR KATL 061452Z 00000KT 9SM FEW023 SCT100 BKN170 BKN250 12/08 A3021 RMK AO2 SLP230 T01170083 53006=
201702061434 SPECI KATL 061434Z 00000KT 10SM BKN024 BKN090 BKN220 11/08 A3020 RMK AO2 T01060078=
201702061352 METAR KATL 061352Z 00000KT 10SM SCT023 BKN100 BKN220 11/08 A3019 RMK AO2 SLP225 T01060078=
201702061252 METAR KATL 061252Z 31003KT 9SM SCT018 BKN028 BKN100 BKN220 08/07 A3020 RMK AO2 SLP228 T00830067=
201702061209 SPECI KATL 061209Z 31005KT 9SM SCT020 BKN028 BKN110 BKN220 08/07 A3019 RMK AO2 T00780067=
201702061152 METAR KATL 061152Z 32004KT 9SM SCT022 BKN030 BKN110 OVC220 08/07 A3019 RMK AO2 SLP225 70006 T00780067 10083 20072 53009=
201702061052 METAR KATL 061052Z 30005KT 10SM FEW009 SCT040 BKN110 BKN220 07/07 A3017 RMK AO2 SLP219 T00720067=
201702060952 METAR KATL 060952Z 30004KT 10SM FEW009 BKN120 BKN250 07/07 A3016 RMK AO2 SLP216 T00720067=
201702060852 METAR KATL 060852Z 32003KT 10SM FEW009 BKN120 BKN250 08/07 A3016 RMK AO2 SLP215 T00780067 58007=
201702060804 SPECI KATL 060804Z 29005KT 10SM FEW009 BKN250 08/07 A3017 RMK AO2 T00780067=
201702060752 METAR KATL 060752Z 28005KT 10SM BKN009 OVC250 08/07 A3017 RMK AO2 SLP219 T00780067=
201702060652 METAR KATL 060652Z 28007KT 10SM OVC009 08/07 A3018 RMK AO2 SLP224 BINOVC T00830072=
201702060643 SPECI KATL 060643Z 28006KT 10SM OVC009 08/07 A3019 RMK AO2 BINOVC T00830072=
201702060552 METAR KATL 060552Z 27006KT 10SM OVC012 08/07 A3018 RMK AO2 SLP224 CIG 010V014 BINOVC T00830072 10111 20067 53001=
201702060539 SPECI KATL 060539Z 26005KT 10SM BKN012 BKN140 BKN250 08/07 A3018 RMK AO2 T00780067=
201702060452 METAR KATL 060452Z 27003KT 10SM FEW140 SCT250 07/06 A3018 RMK AO2 SLP222 T00720061 401110017=
201702060352 METAR KATL 060352Z VRB03KT 10SM FEW015 SCT130 BKN250 08/07 A3019 RMK AO2 SLP226 T00830072=
201702060301 SPECI KATL 060301Z 32006KT 10SM SCT015 SCT120 BKN250 09/07 A3018 RMK AO2 T00940072=
201702060252 METAR KATL 060252Z 31006KT 10SM BKN015 BKN110 BKN200 09/07 A3018 RMK AO2 SLP225 T00940072 50005=
201702060152 METAR KATL 060152Z 31006KT 10SM OVC015 11/08 A3018 RMK AO2 SLP225 CIG 013V017 T01060083=
201702060052 METAR KATL 060052Z 27004KT 10SM OVC017 11/08 A3018 RMK AO2 SLP223 CIG 015V019 T01060083=
201702052352 METAR KATL 052352Z 25004KT 10SM OVC018 11/08 A3017 RMK AO2 SLP219 CIG 016V020 60000 T01110083 10111 20094 53007=
201702052252 METAR KATL 052252Z 25003KT 10SM OVC015 11/08 A3015 RMK AO2 SLP214 T01110083=
201702052152 METAR KATL 052152Z 27008KT 10SM OVC014 11/08 A3015 RMK AO2 SLP213 T01110078=
201702052052 METAR KATL 052052Z 24007KT 10SM BKN013 OVC025 11/08 A3014 RMK AO2 SLP212 60000 T01060078 56016=
201702052010 SPECI KATL 052010Z 28004KT 10SM OVC014 11/07 A3015 RMK AO2 T01060072=
201702051952 METAR KATL 051952Z 25006KT 10SM BKN015 OVC025 10/07 A3016 RMK AO2 SLP215 CIG013V017 T01000072=
201702051937 SPECI KATL 051937Z 26007KT 10SM BKN015 OVC025 10/07 A3016 RMK AO2 T01000072=
201702051852 METAR KATL 051852Z 27007KT 10SM BKN012 OVC020 09/07 A3016 RMK AO2 RAE01 SLP219 P0000 T00940067=
201702051824 SPECI KATL 051824Z 25006KT 8SM BKN013 OVC020 09/07 A3018 RMK AO2 RAE01 P0000 T00940067=
201702051805 SPECI KATL 051805Z 27009KT 8SM BKN015 BKN020 OVC025 09/07 A3019 RMK AO2 RAE01 P0000 T00940067=
201702051752 METAR KATL 051752Z 26013KT 8SM -RA BKN014 BKN019 OVC026 09/07 A3019 RMK AO2 RAB49 SLP230 P0000 60006 T00940072 10094 20017 58016=
201702051718 SPECI KATL 051718Z 28006KT 8SM BKN012 OVC035 09/07 A3021 RMK AO2 T00890072=
201702051652 METAR KATL 051652Z 23006KT 6SM BR BKN008 OVC035 08/07 A3022 RMK AO2 SLP239 T00780067=
201702051600 SPECI KATL 051600Z 24006KT 3SM BR OVC005 06/05 A3024 RMK AO2 SFC VIS 6 T00560050=
201702051552 METAR KATL 051552Z 25005KT 3SM BR BKN004 OVC035 06/05 A3024 RMK AO2 SFC VIS 6 RAE1453 SLP247 P0000 T00560050=
201702051549 SPECI KATL 051549Z 26005KT 3SM BR BKN004 OVC035 05/04 A3024 RMK AO2 SFC VIS 5 RAE1453 P0000=
201702051514 SPECI KATL 051514Z 21006KT 3SM BR BKN005 BKN033 OVC046 04/04 A3024 RMK AO2 SFC VIS 5 RAE1453 P0000 T00390039=
201702051452 METAR KATL 051452Z 21003KT 3SM -RA BR FEW006 BKN050 OVC065 03/03 A3024 RMK AO2 SFC VIS 6 RAB01 SLP246 P0001 60006 T00330033 53000=
201702051440 SPECI KATL 051440Z 21005KT 3SM -RA BR FEW007 OVC060 03/03 A3024 RMK AO2 RAB01 P0001 T00330028=
201702051352 METAR KATL 051352Z 23003KT 8SM FEW010 BKN038 OVC047 02/02 A3024 RMK AO2 RAB1253E50 SLP248 P0001 T00220017=
201702051252 METAR KATL 051252Z 00000KT 9SM FEW012 BKN035 OVC055 02/01 A3023 RMK AO2 RAE47 SLP244 P0004 T00170006=
201702051152 METAR KATL 051152Z 04003KT 6SM RA FEW025 BKN035 OVC048 03/M02 A3024 RMK AO2 SLP246 P0001 60002 70002 T00281022 10050 20028 53010=
201702051052 METAR KATL 051052Z 09003KT 10SM -RA FEW044 BKN050 OVC085 03/M03 A3022 RMK AO2 RAB14 SLP240 P0001 T00331028=
201702050952 METAR KATL 050952Z 08005KT 10SM BKN050 OVC070 04/M07 A3021 RMK AO2 SLP235 VIRGA NW-N T00441067=
201702050852 METAR KATL 050852Z 12004KT 10SM SCT060 BKN080 BKN095 04/M07 A3021 RMK AO2 SLP234 T00441072 56018=
201702050752 METAR KATL 050752Z 12005KT 10SM BKN075 BKN100 04/M08 A3022 RMK AO2 SLP240 T00441083=
201702050652 METAR KATL 050652Z 10004KT 10SM BKN070 BKN120 04/M08 A3024 RMK AO2 SLP246 T00391078=
201702050552 METAR KATL 050552Z 06003KT 10SM BKN075 BKN200 BKN250 03/M09 A3026 RMK AO2 SLP253 T00331094 10072 20033 58009=
201702050452 METAR KATL 050452Z 12005KT 10SM FEW075 BKN200 BKN250 04/M11 A3027 RMK AO2 SLP255 T00391106 401001006=
201702050352 METAR KATL 050352Z 11006KT 10SM SCT075 BKN200 BKN250 04/M10 A3029 RMK AO2 SLP263 T00441100=
201702050252 METAR KATL 050252Z 11006KT 10SM BKN200 BKN250 06/M11 A3029 RMK AO2 SLP263 T00561111 56006=
201702050152 METAR KATL 050152Z 12006KT 10SM BKN200 BKN250 06/M11 A3029 RMK AO2 SLP264 T00611111=
201702050052 METAR KATL 050052Z 11008KT 10SM SCT200 BKN250 07/M11 A3030 RMK AO2 SLP266 T00671106=
201702042352 METAR KATL 042352Z 10006KT 10SM SCT200 BKN250 06/M09 A3031 RMK AO2 SLP270 T00611094 10100 20061 53003=
201702042252 METAR KATL 042252Z 12006KT 10SM SCT200 BKN250 08/M11 A3030 RMK AO2 SLP268 T00831111=
201702042152 METAR KATL 042152Z 10009KT 10SM BKN250 09/M12 A3029 RMK AO2 SLP265 T00891117=
201702042052 METAR KATL 042052Z 11009KT 10SM BKN250 09/M12 A3030 RMK AO2 SLP266 T00941122 56026=
201702041952 METAR KATL 041952Z 13009KT 10SM BKN250 09/M14 A3031 RMK AO2 SLP272 T00891139=
201702041852 METAR KATL 041852Z VRB03KT 10SM BKN250 08/M14 A3035 RMK AO2 SLP284 T00831144=
201702041752 METAR KATL 041752Z 11007KT 10SM BKN250 07/M15 A3038 RMK AO2 SLP293 T00721150 10078 20000 58016=
201702041652 METAR KATL 041652Z 10009KT 10SM SCT180 SCT250 07/M14 A3042 RMK AO2 SLP307 T00671144=
201702041552 METAR KATL 041552Z 11012KT 10SM SCT180 BKN250 04/M14 A3043 RMK AO2 SLP312 T00441144=
201702041452 METAR KATL 041452Z 10014G19KT 10SM SCT180 BKN250 03/M14 A3043 RMK AO2 SLP311 T00281139 51016=
201702041352 METAR KATL 041352Z 09013KT 10SM FEW180 SCT250 01/M12 A3042 RMK AO2 SLP310 T00111117=
201702041252 METAR KATL 041252Z 07008KT 10SM SCT250 00/M11 A3040 RMK AO2 SLP301 T00001111=
201702041152 METAR KATL 041152Z 05010KT 10SM FEW250 00/M12 A3038 RMK AO2 SLP293 T00001117 10017 21006 53017=
201702041052 METAR KATL 041052Z 03008KT 10SM FEW033 SCT250 01/M12 A3036 RMK AO2 SLP285 T00061122=
201702040952 METAR KATL 040952Z 01006KT 10SM SCT033 BKN250 00/M13 A3034 RMK AO2 SLP278 T00001128=
201702040852 METAR KATL 040852Z 36007KT 10SM BKN032 BKN250 01/M12 A3033 RMK AO2 SLP275 T00061117 50000=
201702040752 METAR KATL 040752Z 34006KT 10SM FEW035 FEW250 00/M11 A3033 RMK AO2 SLP276 T00001111=
201702040652 METAR KATL 040652Z 35007KT 10SM FEW035 FEW250 01/M12 A3033 RMK AO2 SLP275 T00061117=
201702040552 METAR KATL 040552Z 34010KT 10SM FEW250 02/M12 A3033 RMK AO2 SLP274 T00171122 10089 20017 51002=
201702040452 METAR KATL 040452Z 34010KT 10SM FEW250 02/M12 A3033 RMK AO2 SLP275 T00171117 401390017=
201702040352 METAR KATL 040352Z 33012KT 10SM FEW250 03/M12 A3034 RMK AO2 SLP279 T00281122=
201702040252 METAR KATL 040252Z 34014KT 10SM FEW250 03/M12 A3032 RMK AO2 SLP273 T00331122 53021=
201702040152 METAR KATL 040152Z 33016G21KT 10SM FEW250 05/M14 A3030 RMK AO2 SLP267 T00501139=
201702040052 METAR KATL 040052Z 36016KT 10SM FEW250 07/M09 A3028 RMK AO2 SLP256 T00721094=
201702032352 METAR KATL 032352Z 35017G21KT 10SM SCT250 09/M08 A3026 RMK AO2 SLP250 T00891083 10139 20089 53026=
201702032252 METAR KATL 032252Z 35016G21KT 10SM FEW250 11/M05 A3023 RMK AO2 SLP238 T01061050=
201702032152 METAR KATL 032152Z 33015G24KT 10SM FEW250 12/M03 A3020 RMK AO2 SLP229 T01221028=
201702032052 METAR KATL 032052Z 30014KT 10SM FEW034 FEW150 13/M01 A3018 RMK AO2 SLP222 T01281006 55002=
201702031952 METAR KATL 031952Z 29011KT 10SM BKN034 13/00 A3018 RMK AO2 SLP221 T01280000=
201702031852 METAR KATL 031852Z 30012KT 10SM SCT027 BKN042 13/01 A3018 RMK AO2 SLP220 T01280011=
201702031752 METAR KATL 031752Z 32009KT 10SM BKN045 BKN065 12/02 A3019 RMK AO2 SLP223 T01220022 10122 20072 58009=
201702031652 METAR KATL 031652Z 30006KT 10SM FEW030 SCT050 BKN060 BKN250 09/02 A3021 RMK AO2 SLP232 T00940017=
201702031552 METAR KATL 031552Z 28008KT 10SM FEW025 SCT040 BKN055 09/03 A3023 RMK AO2 SLP238 T00940028=
201702031532 SPECI KATL 031532Z 31007KT 10SM FEW020 BKN040 BKN050 09/03 A3022 RMK AO2 T00940028=
201702031452 METAR KATL 031452Z 31008KT 10SM BKN020 BKN030 09/03 A3022 RMK AO2 SLP234 T00890028 51013=
201702031352 METAR KATL 031352Z 30006KT 10SM OVC022 08/03 A3020 RMK AO2 SLP230 BINOVC T00780033=
201702031252 METAR KATL 031252Z 32008KT 10SM BKN022 OVC080 07/04 A3020 RMK AO2 SLP228 T00720039=
201702031229 SPECI KATL 031229Z 30007KT 10SM BKN025 BKN080 BKN200 07/04 A3020 RMK AO2 T00720039=
201702031152 METAR KATL 031152Z 32007KT 10SM FEW016 BKN034 BKN075 BKN200 07/04 A3018 RMK AO2 SLP220 60000 70004 T00720039 10083 20067 53010=
201702031052 METAR KATL 031052Z 30006KT 10SM FEW012 SCT038 BKN080 BKN200 07/04 A3016 RMK AO2 SLP216 T00670044=
201702030952 METAR KATL 030952Z 31008KT 10SM FEW014 SCT048 BKN080 BKN200 07/04 A3015 RMK AO2 SLP210 T00720044=
201702030852 METAR KATL 030852Z 30006KT 10SM FEW015 BKN075 BKN110 OVC200 07/05 A3015 RMK AO2 SLP209 60000 T00720050 57008=
201702030843 SPECI KATL 030843Z 30005KT 10SM SCT016 BKN075 BKN100 OVC200 07/05 A3015 RMK AO2 T00720050=
201702030804 SPECI KATL 030804Z 30007KT 10SM BKN015 BKN070 OVC100 08/06 A3016 RMK AO2 T00780056=
201702030752 METAR KATL 030752Z 31007KT 10SM SCT015 BKN070 BKN100 OVC200 08/06 A3015 RMK AO2 SLP211 T00780056=
201702030721 SPECI KATL 030721Z 31005KT 10SM SCT018 BKN065 OVC085 08/06 A3016 RMK AO2 T00780056=
201702030652 METAR KATL 030652Z 33007KT 10SM BKN018 BKN070 OVC095 08/06 A3016 RMK AO2 RAE02 SLP214 P0000 T00780061=
201702030633 SPECI KATL 030633Z 30008KT 10SM BKN018 BKN065 OVC100 08/06 A3017 RMK AO2 RAE02 P0000 T00780061=
201702030552 METAR KATL 030552Z 31007KT 10SM -RA SCT013 BKN060 OVC100 08/06 A3017 RMK AO2 RAE26B50 SLP215 P0003 60003 T00830061 10128 20083 58003=
201702030452 METAR KATL 030452Z 33012KT 8SM -RA SCT013 BKN032 BKN110 09/06 A3018 RMK AO2 RAB37 SLP218 VIS LWR N-NE P0000 T00940056 402170094=
201702030352 METAR KATL 030352Z 33010KT 10SM BKN015 BKN110 10/04 A3019 RMK AO2 SLP221 T01000044=
201702030330 SPECI KATL 030330Z 32012KT 10SM BKN018 BKN110 11/04 A3019 RMK AO2 T01060044=
201702030252 METAR KATL 030252Z 31006KT 10SM FEW015 SCT050 BKN110 11/07 A3018 RMK AO2 SLP220 T01060067 51001=
201702030152 METAR KATL 030152Z 32006KT 10SM SCT015 BKN110 BKN150 11/07 A3018 RMK AO2 SLP221 T01110072=
201702030052 METAR KATL 030052Z 31006KT 10SM FEW015 SCT110 BKN150 12/08 A3018 RMK AO2 SLP220 T01170078=
201702022352 METAR KATL 022352Z 33009KT 10SM FEW017 BKN085 BKN110 13/08 A3018 RMK AO2 SLP219 60001 T01280083 10217 20128 52005=
201702022252 METAR KATL 022252Z 32006KT 10SM FEW020 SCT055 BKN080 14/11 A3017 RMK AO2 RAE42 SLP215 P0000 T01390106=
201702022152 METAR KATL 022152Z 31006KT 8SM -RA FEW030 BKN065 OVC080 14/12 A3017 RMK AO2 RAB32 SLP216 P0000 T01440117=
201702022052 METAR KATL 022052Z 32007KT 10SM FEW020 SCT060 OVC100 15/12 A3016 RMK AO2 RAE22 SLP212 P0000 60001 T01500122 55001=
201702022020 SPECI KATL 022020Z 30010KT 10SM -RA SCT040 BKN060 OVC090 16/14 A3015 RMK AO2 P0000 T01560144=
201702022011 SPECI KATL 022011Z 31009KT 2SM -RA BR FEW040 BKN060 OVC090 16/14 A3015 RMK AO2 SFC VIS 4 P0000 T01560139=
201702021952 METAR KATL 021952Z 30012KT 8SM -RA FEW015 BKN070 OVC090 17/13 A3015 RMK AO2 RAB12 SLP208 P0001 T01670133=
201702021852 METAR KATL 021852Z 27010KT 10SM SCT035 BKN050 BKN090 BKN250 19/12 A3015 RMK AO2 SLP206 T01940122=
201702021752 METAR KATL 021752Z 25008KT 10SM FEW030 SCT085 BKN120 BKN250 21/11 A3016 RMK AO2 SLP211 T02060111 10211 20100 58010=
201702021652 METAR KATL 021652Z 30005KT 10SM FEW025 FEW085 SCT250 18/11 A3020 RMK AO2 SLP224 T01780106=
201702021552 METAR KATL 021552Z 30008KT 10SM FEW020 BKN090 BKN250 17/11 A3021 RMK AO2 SLP229 T01670106=
201702021452 METAR KATL 021452Z 28007KT 10SM FEW080 SCT250 BKN300 15/11 A3019 RMK AO2 SLP222 T01500106 51015=
201702021352 METAR KATL 021352Z 30005KT 10SM FEW030 FEW085 SCT250 12/09 A3019 RMK AO2 SLP223 T01220094=
201702021252 METAR KATL 021252Z 27004KT 10SM FEW085 SCT250 11/08 A3017 RMK AO2 SLP215 T01060083=
201702021152 METAR KATL 021152Z 24005KT 10SM FEW250 11/08 A3015 RMK AO2 SLP208 T01060078 10122 20100 53008=
201702021052 METAR KATL 021052Z 24004KT 10SM CLR 10/07 A3013 RMK AO2 SLP202 T01000072=
201702020952 METAR KATL 020952Z 25005KT 10SM CLR 11/07 A3013 RMK AO2 SLP199 T01110072=
201702020852 METAR KATL 020852Z 23007KT 10SM CLR 11/07 A3012 RMK AO2 SLP198 T01110072 58002=
201702020752 METAR KATL 020752Z 24004KT 10SM CLR 11/07 A3013 RMK AO2 SLP200 T01110067=
201702020652 METAR KATL 020652Z 24003KT 10SM CLR 12/07 A3013 RMK AO2 SLP200 T01170067=
201702020552 METAR KATL 020552Z 23005KT 10SM FEW250 12/07 A3013 RMK AO2 SLP200 T01170067 10172 20117 58002=
201702020452 METAR KATL 020452Z 22005KT 10SM FEW250 13/07 A3013 RMK AO2 SLP200 T01280067 402170100=
201702020352 METAR KATL 020352Z 22006KT 10SM FEW250 13/07 A3014 RMK AO2 SLP203 T01330067=
201702020252 METAR KATL 020252Z 24006KT 10SM FEW250 14/07 A3014 RMK AO2 SLP203 T01440067 51007=
201702020152 METAR KATL 020152Z 23006KT 10SM FEW040 FEW250 16/07 A3014 RMK AO2 SLP204 T01560067=
201702020052 METAR KATL 020052Z 24006KT 10SM SCT060 SCT250 16/07 A3013 RMK AO2 SLP200 T01610072=
201702012352 METAR KATL 012352Z 23005KT 10SM FEW060 SCT250 17/07 A3011 RMK AO2 SLP196 T01720067 10217 20172 53015=
201702012252 METAR KATL 012252Z 23008KT 10SM SCT060 BKN250 19/06 A3010 RMK AO2 SLP189 T01940061=
201702012152 METAR KATL 012152Z 25010KT 10SM FEW060 SCT250 21/06 A3008 RMK AO2 SLP183 T02060061=
201702012052 METAR KATL 012052Z 25015G19KT 10SM SCT055 SCT250 21/06 A3007 RMK AO2 PK WND 33028/1958 SLP178 T02110061 56015=
201702011952 METAR KATL 011952Z 26009G20KT 10SM SCT050 SCT250 19/07 A3007 RMK AO2 SLP179 T01940072=
201702011852 METAR KATL 011852Z 24011KT 10SM SCT045 SCT250 20/08 A3008 RMK AO2 SLP183 T02000083=
201702011752 METAR KATL 011752Z 27009G18KT 10SM FEW035 SCT045 SCT250 17/09 A3011 RMK AO2 SLP195 T01720094 10194 20100 58014=
201702011710 SPECI KATL 011710Z 23012G18KT 10SM BKN030 BKN250 18/10 A3013 RMK AO2 T01830100=
201702011652 METAR KATL 011652Z 25014G22KT 10SM BKN028 BKN033 BKN250 19/11 A3014 RMK AO2 SLP202 T01890106=
201702011628 SPECI KATL 011628Z 25009KT 10SM BKN025 BKN250 17/11 A3015 RMK AO2 T01720106=
201702011552 METAR KATL 011552Z 27010G19KT 10SM FEW025 FEW250 17/11 A3016 RMK AO2 SLP210 T01670106=
201702011452 METAR KATL 011452Z 25011KT 10SM FEW020 FEW250 14/10 A3015 RMK AO2 SLP209 T01440100 51017=
201702011352 METAR KATL 011352Z 23007KT 10SM FEW012 FEW030 SCT250 12/09 A3014 RMK AO2 SLP207 T01170089=
201702011252 METAR KATL 011252Z 23006KT 10SM FEW200 SCT250 10/08 A3012 RMK AO2 SLP198 T01000078=
