##########################################################
# Query made at 04/19/2024 23:53:57 UTC
# Time interval: from 05/01/2017 12:00  to 05/31/2017 12:59  UTC
##########################################################

##########################################################
# KATL, Atlanta, Hartsfield - Jackson Atlanta International Airport (United States)
# WMO index: 72219. WIGOS ID: 0-20000-0-72219
# Latitude 33-38-59N. Longitude 084-25-00W. Altitude 312 m.
##########################################################

201705311252 METAR KATL 311252Z 30007KT 10SM -RA FEW046 SCT100 BKN120 OVC150 21/19 A3015 RMK AO2 RAE21B46 SLP203 P0000 T02060189=
201705311152 METAR KATL 311152Z 27003KT 10SM -RA FEW020 SCT046 OVC110 20/18 A3015 RMK AO2 RAB00E13B42 SLP202 P0000 60000 70025 T02000183 10200 20194 53013=
201705311052 METAR KATL 311052Z 28003KT 10SM BKN120 OVC180 19/18 A3012 RMK AO2 SLP193 T01940178=
201705310952 METAR KATL 310952Z 00000KT 10SM FEW044 BKN120 OVC200 19/18 A3012 RMK AO2 SLP193 T01940183=
201705310852 METAR KATL 310852Z 23003KT 10SM FEW025 SCT044 SCT100 OVC200 19/18 A3011 RMK AO2 SLP188 T01940178 58008=
201705310839 SPECI KATL 310839Z 00000KT 10SM SCT025 SCT044 SCT100 OVC200 19/18 A3011 RMK AO2 T01940178=
201705310819 SPECI KATL 310819Z 32004KT 10SM BKN025 BKN038 OVC100 19/17 A3011 RMK AO2 T01940172=
201705310752 METAR KATL 310752Z 32003KT 10SM SCT027 BKN035 OVC100 19/17 A3011 RMK AO2 TSE52 SLP190 TS DSIPT CB DSNT NW T01940172=
201705310728 SPECI KATL 310728Z 33007KT 10SM TS FEW007 SCT024CB BKN110 OVC150 20/18 A3012 RMK AO2 OCNL LTGIC NE AND NW TS VC NE AND NW MOV E SHRA NW-NE T02000178=
201705310707 SPECI KATL 310707Z 32007KT 10SM TS FEW007 BKN024CB BKN110 20/18 A3013 RMK AO2 OCNL LTGICCG NW-NE TS NW-NE MOV E SHRA NW-NE T02000183=
201705310652 METAR KATL 310652Z 31005KT 10SM TS SCT024CB BKN050 OVC110 20/18 A3013 RMK AO2 LTG DSNT W TSB05 SLP195 OCNL LTGIC W-NW AND DSNT NE TS VC W-NW MOV NE CB DSNT NE SHRA NW-NE T02000183=
201705310633 SPECI KATL 310633Z 32003KT 10SM TS BKN024CB BKN050 OVC090 20/18 A3013 RMK AO2 LTG DSNT W TSB05 OCNL LTGIC NE AND W-NW TS VC NE AND W-NW MOV NE SHRA NE AND W-NW T02000183=
201705310605 SPECI KATL 310605Z 31006KT 10SM TS FEW037CB BKN050 BKN095 20/18 A3013 RMK AO2 LTG DSNT NE AND E TSB05 OCNL LTGIC NE TS VC NE MOV NE CB DSNT W T02000183=
201705310552 METAR KATL 310552Z 28004KT 10SM SCT041 BKN050 OVC120 20/18 A3013 RMK AO2 SLP197 T02000183 10206 20200 53005=
201705310452 METAR KATL 310452Z 25003KT 10SM BKN120 OVC150 20/18 A3013 RMK AO2 SLP195 T02000183 402500189=
201705310352 METAR KATL 310352Z 24005KT 10SM FEW090 BKN120 OVC150 20/18 A3012 RMK AO2 SLP191 T02000183=
201705310252 METAR KATL 310252Z 19004KT 10SM FEW090 SCT120 BKN150 OVC200 20/19 A3012 RMK AO2 SLP191 VCSH SE T02000189 51012=
201705310152 METAR KATL 310152Z 25007KT 10SM BKN100 BKN150 BKN200 20/19 A3011 RMK AO2 LTG DSNT SW SLP190 CB DSNT SW T02000189=
201705310052 METAR KATL 310052Z 20005KT 10SM SCT110 BKN150 BKN200 BKN250 20/18 A3010 RMK AO2 SLP186 T02000183=
201705302352 METAR KATL 302352Z 20003KT 10SM FEW100 BKN150 BKN200 OVC250 21/19 A3008 RMK AO2 RAE2253 SLP180 P0000 60024 T02060194 10239 20206 56019=
201705302252 METAR KATL 302252Z 18005KT 10SM -RA SCT080 BKN110 BKN150 OVC200 21/19 A3009 RMK AO2 SLP182 P0000 T02110189=
201705302152 METAR KATL 302152Z 24004KT 9SM -RA FEW020 SCT050 BKN100 OVC200 21/19 A3012 RMK AO2 TSE29 SLP194 CB DSNT S & SW P0024 T02110194=
201705302129 SPECI KATL 302129Z 00000KT 9SM -RA FEW015 SCT035 BKN100 OVC200 21/18 A3012 RMK AO2 TSE29 TS DSIPTD P0024 T02110183=
201705302112 SPECI KATL 302112Z 34004KT 4SM R09R/3500VP6000FT TSRA BR FEW015CB BKN040 OVC110 21/19 A3012 RMK AO2 VIS LWR NE-SE OCNL LTGICCG NE-SE TS NE-SE MOV E P0021 T02060194=
201705302108 SPECI KATL 302108Z 31008G17KT 2 1/2SM R09R/3500VP6000FT +TSRA BR SCT015CB BKN040 OVC110 22/19 A3014 RMK AO2 OCNL LTGICCG OHD-S TS OHD-S MOV E P0018 T02170194=
201705302100 SPECI KATL 302100Z 28015KT 5SM TSRA BR FEW015CB BKN050 OVC110 22/20 A3015 RMK AO2 LTG DSNT SE-SW OCNL LTGICCG SW-NW TS SW-NW MOV E P0002 T02170200=
201705302052 METAR KATL 302052Z 29007KT 9SM -TSRA FEW020CB BKN050 OVC110 22/19 A3014 RMK AO2 LTG DSNT SE AND S RAB46 TSB47 SLP199 VIS LWR SW-NW SHRA OCNL LTGICCG SW-NW TS SW-NW MOV SE P0000 60000 T02220189 55007=
201705302038 SPECI KATL 302038Z 24004KT 10SM VCTS FEW020CB BKN060 OVC110 23/18 A3013 RMK AO2 LTG DSNT S-W OCNL LTGICCG VC SW-W TS VC SW-W MOV SE SHRA VC SW-NW T02330183=
201705301952 METAR KATL 301952Z 02005KT 10SM FEW020 BKN110 BKN150 BKN250 23/19 A3011 RMK AO2 LTG DSNT SW SLP188 CB DSNT SW-NW SHRA DSNT SW-NW T02330189=
201705301852 METAR KATL 301852Z 33005KT 10SM FEW020 BKN120 BKN150 BKN250 23/18 A3014 RMK AO2 SLP197 CB DSNT NW T02330183=
201705301752 METAR KATL 301752Z 32005KT 10SM FEW015 SCT060 BKN100 BKN150 23/19 A3016 RMK AO2 RAB02E11 SLP206 SHRA VC N-NE TCU DSNT SE P0000 60001 T02280189 10250 20200 50007=
201705301652 METAR KATL 301652Z 33011KT 10SM FEW010 SCT060 BKN110 OVC150 23/21 A3016 RMK AO2 LTG DSNT N AND NW RAB07E37 SLP206 CB DSNT NW-N P0000 T02280206=
201705301630 SPECI KATL 301630Z 34007KT 10SM -RA SCT020 BKN040 BKN075 BKN250 23/21 A3016 RMK AO2 LTG DSNT N AND NW RAB07 CB DSNT NW-N P0000 T02280206=
201705301552 METAR KATL 301552Z 32009KT 10SM SCT014CB BKN027TCU BKN100 BKN250 24/21 A3015 RMK AO2 LTG DSNT NW SLP202 CB VC NW-N-NE MOV E TCU SE-SW SHRA VC NW-N-NE T02440206=
201705301527 SPECI KATL 301527Z 29009KT 10SM FEW014CB SCT040 SCT100 BKN150 24/21 A3015 RMK AO2 LTG DSNT N AND NW CB VC NW-N-NE MOV E SHRA VC NW-N-NE T02440206=
201705301507 SPECI KATL 301507Z 29010KT 10SM SCT012CB SCT040 BKN100 OVC150 24/21 A3014 RMK AO2 LTG DSNT W AND NW CB VC N-NE & DSNT NW MOV E SHRA DSNT NW & VC N-NE T02390206=
201705301452 METAR KATL 301452Z 27009KT 10SM FEW012 SCT040 SCT100 OVC150 23/21 A3014 RMK AO2 LTG DSNT NW SLP198 CB DSNT W-NW-N TCU DSNT NE & S 60001 T02330206 50005=
201705301352 METAR KATL 301352Z 24007KT 10SM FEW010 FEW040 SCT100 OVC140 22/20 A3014 RMK AO2 LTG DSNT NW RAE17B43E52 SLP200 CB DSNT W-NW-N TCU DSNT NE & S P0000 T02220200=
201705301252 METAR KATL 301252Z 23005KT 10SM -RA SCT035 SCT047 OVC095 21/20 A3014 RMK AO2 SLP199 P0001 T02110200=
201705301152 METAR KATL 301152Z 23003KT 10SM -RA FEW007 FEW080 OVC110 20/18 A3013 RMK AO2 RAB16 SLP194 P0000 60000 70011 T02000183 10211 20194 51013=
201705301052 METAR KATL 301052Z 27005KT 10SM FEW015 FEW050 SCT110 OVC150 20/18 A3011 RMK AO2 SLP189 VIRGA ALQDS T02000183 $=
201705300952 METAR KATL 300952Z 00000KT 10SM FEW015 FEW050 OVC150 20/19 A3010 RMK AO2 SLP185 T02000189=
201705300852 METAR KATL 300852Z 00000KT 10SM FEW015 SCT120 OVC200 20/19 A3009 RMK AO2 SLP181 T02000189 50000=
201705300752 METAR KATL 300752Z 31004KT 10SM FEW007 SCT110 OVC250 21/19 A3008 RMK AO2 SLP180 T02060189=
201705300652 METAR KATL 300652Z 32004KT 10SM FEW007 OVC110 21/19 A3009 RMK AO2 SLP179 T02060189=
201705300552 METAR KATL 300552Z 28003KT 10SM FEW007 FEW060 OVC110 21/19 A3009 RMK AO2 RAB27E38 SLP178 P0000 60000 T02110194 10233 20211 50002=
201705300452 METAR KATL 300452Z 28006KT 10SM FEW007 SCT060 BKN110 OVC250 22/20 A3009 RMK AO2 RAB16E27 SLP178 P0000 T02170200 402890200=
201705300352 METAR KATL 300352Z 27003KT 10SM FEW015 BKN060 BKN150 BKN250 22/21 A3009 RMK AO2 SLP178 T02220211=
201705300318 SPECI KATL 300318Z 29003KT 10SM SCT015 BKN070 BKN140 BKN250 23/21 A3009 RMK AO2 CB DSNT N-NE T02280211=
201705300305 SPECI KATL 300305Z 28003KT 10SM BKN015 BKN140 OVC250 23/21 A3008 RMK AO2 CB DSNT N-NE T02280211=
201705300252 METAR KATL 300252Z 00000KT 10SM FEW012 BKN140 OVC250 23/21 A3008 RMK AO2 SLP177 CB DSNT NW-N T02280211 53015=
201705300152 METAR KATL 300152Z 21004KT 10SM FEW012 SCT120 BKN150 OVC250 23/21 A3005 RMK AO2 SLP167 T02280211=
201705300052 METAR KATL 300052Z 19004KT 10SM SCT120 BKN150 BKN250 23/21 A3003 RMK AO2 SLP162 T02280206=
201705292352 METAR KATL 292352Z 25005KT 10SM FEW015 BKN120 BKN250 23/21 A3003 RMK AO2 SLP162 60011 T02330206 10289 20211 55000=
201705292252 METAR KATL 292252Z 28003KT 10SM FEW015 SCT150 BKN250 24/21 A3001 RMK AO2 SLP155 T02390206=
201705292152 METAR KATL 292152Z 00000KT 10SM SCT015 SCT100 BKN200 23/20 A3002 RMK AO2 RAE03 SLP156 TSE2058 P0000 T02330200=
201705292102 SPECI KATL 292102Z 34005KT 10SM -RA FEW024 SCT041 SCT080 22/21 A3003 RMK AO2 LTG DSNT N-SE CB DSNT N-E-SE TSE2058 MOV NE LTG DSNT N-E SE P0000 T02220206=
201705292052 METAR KATL 292052Z 32003KT 6SM VCTS -RA BR SCT030CB BKN050 BKN100 22/21 A3004 RMK AO2 LTG DSNT ALQDS TSE25B36E51 SLP164 OCNL LTGICCG ALQDS TS ALQDS MOV NE P0011 60011 T02170206 56002=
201705292042 SPECI KATL 292042Z 26005KT 5SM -TSRA BR BKN024CB BKN050 OVC080 22/21 A3005 RMK AO2 LTG DSNT ALQDS TSE25B36 OCNL LTGICCG ALQDS TS ALQDS MOV NE P0010 T02170206=
201705292031 SPECI KATL 292031Z 26008KT 3SM VCTS RA BR FEW030CB BKN080 OVC100 22/21 A3005 RMK AO2 LTG DSNT ALQDS TSE25 OCNL LTGICCG ALQDS TS VC ALQDS MOV NE P0008 T02170206=
201705291952 METAR KATL 291952Z 30010KT 7SM -TSRA SCT033CB BKN070 OVC100 22/20 A3004 RMK AO2 PK WND 30032/1911 WSHFT 1909 LTG DSNT ALQDS RAB11E23B43 TSE34B35 SLP166 OCNL LTGICCG ALQDS TS ALQDS MOV NE P0000 T02170200=
201705291923 SPECI KATL 291923Z 34010KT 7SM TS SCT006 BKN030CB OVC100 22/19 A3005 RMK AO2 PK WND 30032/1911 WSHFT 1909 LTG DSNT ALQDS RAB11E23 TSB48 OCNL LTGICCG NE AND SW AND W TS NE AND SW AND W MOV NE VSBY LWR N P0000 T02220189=
201705291915 SPECI KATL 291915Z 29012G32KT 2SM -TSRA SCT006 OVC030 22/19 A3006 RMK AO2 PK WND 30032/1911 LTG DSNT NE AND SW AND W RAB11 TSB48 OCNL LTGICCG ALQDS TS ALQDS MOV NE P0000 T02220189=
201705291910 SPECI KATL 291910Z 31018G30KT 10SM TS FEW008 SCT040CB OVC100 26/19 A3006 RMK AO2 PK WND 30030/1910 LTG DSNT ALQDS PRESRR TSB48 OCNL LTGICCG ALQDS TS ALQDS MOV NE VSBY LWR W T02560189=
201705291852 METAR KATL 291852Z 18007KT 10SM TS SCT035CB BKN100 BKN250 27/19 A3003 RMK AO2 LTG DSNT SE-W TSB52 SLP161 OCNL LTGCG SE-W TS VC SE-W MOV NE VCSH E MOV NE T02670194=
201705291752 METAR KATL 291752Z 28008KT 10SM BKN034 BKN120 BKN250 28/20 A3004 RMK AO2 SLP163 T02830200 10283 20217 50000=
201705291652 METAR KATL 291652Z 27008KT 10SM SCT036 BKN150 BKN250 28/20 A3005 RMK AO2 SLP165 T02830200=
201705291552 METAR KATL 291552Z 26006KT 10SM FEW032 SCT150 BKN250 27/19 A3005 RMK AO2 SLP167 T02720189=
201705291452 METAR KATL 291452Z 29007KT 10SM FEW028 FEW150 SCT250 26/19 A3004 RMK AO2 SLP164 T02560189 51012 $=
201705291352 METAR KATL 291352Z VRB03KT 10SM FEW025 SCT200 25/19 A3003 RMK AO2 SLP161 T02500189 $=
201705291252 METAR KATL 291252Z 28003KT 10SM FEW080 SCT200 BKN250 23/19 A3003 RMK AO2 SLP159 T02280189 $=
201705291152 METAR KATL 291152Z 25005KT 10SM FEW080 SCT200 BKN250 22/19 A3001 RMK AO2 SLP151 T02170189 10217 20200 53005 $=
201705291052 METAR KATL 291052Z 27005KT 10SM FEW085 SCT200 BKN250 21/18 A2999 RMK AO2 SLP146 T02060183 $=
201705290952 METAR KATL 290952Z 30007KT 10SM FEW085 BKN100 BKN250 21/18 A2999 RMK AO2 SLP147 T02110183 $=
201705290852 METAR KATL 290852Z 30007KT 10SM OVC085 21/19 A2999 RMK AO2 SLP145 BINOVC T02110189 51007=
201705290752 METAR KATL 290752Z 28007KT 10SM FEW080 SCT200 BKN250 21/18 A2999 RMK AO2 SLP145 T02110183=
201705290652 METAR KATL 290652Z 26008KT 10SM FEW100 SCT200 BKN250 22/18 A2998 RMK AO2 SLP143 T02170183=
201705290552 METAR KATL 290552Z 25008KT 10SM FEW100 SCT200 BKN250 22/18 A2997 RMK AO2 SLP138 T02170183 10267 20217 53007=
201705290452 METAR KATL 290452Z 23003KT 10SM SCT200 BKN250 22/18 A2995 RMK AO2 SLP131 T02170178 402940183=
201705290352 METAR KATL 290352Z 24006KT 10SM FEW140 SCT200 BKN250 23/18 A2996 RMK AO2 SLP136 T02280178=
201705290252 METAR KATL 290252Z 27007KT 10SM BKN200 BKN250 23/18 A2995 RMK AO2 SLP132 T02330183 53004=
201705290152 METAR KATL 290152Z 26006KT 10SM BKN200 BKN250 24/19 A2993 RMK AO2 SLP127 T02390189=
201705290052 METAR KATL 290052Z 26006KT 10SM FEW034 SCT200 BKN250 25/19 A2993 RMK AO2 SLP128 T02500189=
201705282352 METAR KATL 282352Z 25008KT 10SM FEW038 SCT200 BKN250 27/19 A2994 RMK AO2 SLP129 TCU DSNT N MDT CU NE T02670189 10294 20267 52007=
201705282252 METAR KATL 282252Z 25006KT 10SM FEW040 SCT200 BKN250 28/19 A2993 RMK AO2 SLP125 TCU DSNT NW-N MDT CU N-NE T02780189=
201705282152 METAR KATL 282152Z 26009G17KT 10SM FEW042 BKN200 BKN250 29/18 A2992 RMK AO2 SLP122 T02890183=
201705282052 METAR KATL 282052Z 26010G15KT 10SM FEW040 FEW120 BKN200 BKN250 28/18 A2991 RMK AO2 SLP120 TCU DSNT NE T02830183 55015=
201705281952 METAR KATL 281952Z 23011G19KT 10SM FEW038 SCT120 BKN200 29/19 A2989 RMK AO2 SLP110 T02890194=
201705281852 METAR KATL 281852Z 24013G20KT 10SM FEW036 FEW120 BKN200 BKN250 29/19 A2992 RMK AO2 SLP120 T02890194=
201705281752 METAR KATL 281752Z 22014G20KT 10SM FEW030 BKN150 BKN250 28/21 A2996 RMK AO2 SLP134 60000 T02780206 10278 20183 58008=
201705281706 SPECI KATL 281706Z 24010KT 10SM SCT025 BKN200 27/21 A2996 RMK AO2 T02720211=
201705281652 METAR KATL 281652Z 27011KT 10SM BKN024 BKN250 27/21 A2997 RMK AO2 SLP137 T02670211=
201705281552 METAR KATL 281552Z 25013G21KT 10SM BKN020 BKN250 25/21 A2998 RMK AO2 SLP142 T02500206=
201705281452 METAR KATL 281452Z 25011KT 10SM FEW100 BKN250 23/20 A2998 RMK AO2 SLP144 60000 T02330200 50002=
201705281352 METAR KATL 281352Z 22007KT 10SM FEW007 BKN100 BKN250 21/19 A2999 RMK AO2 RAE01 SLP146 P0000 T02060189=
201705281252 METAR KATL 281252Z 24008KT 10SM -RA FEW004 FEW044 SCT060 BKN150 BKN200 19/18 A3000 RMK AO2 LTG DSNT S RAB51 SLP149 PCPN VRY LGT P0000 T01890183=
201705281152 METAR KATL 281152Z 00000KT 10SM FEW004 SCT065 BKN150 BKN200 18/18 A2998 RMK AO2 LTG DSNT NE RAE1059 TSE00 SLP143 TS MOV E CBMAM DSNT NE-E P0000 60051 70051 T01830178 10233 20183 51017=
201705281110 SPECI KATL 281110Z 16005KT 10SM FEW006 FEW055 SCT075 OVC150CB 18/18 A2997 RMK AO2 LTG DSNT NE-SE RAE1059 TSE00 FRQ LTGICCA DSNT NE-SE TS MOV E CBMAM OHD-ALQDS P0000 T01830178 $=
201705281100 SPECI KATL 281100Z 16007KT 8SM VCTS FEW006 SCT055 BKN075 OVC150 18/18 A2996 RMK AO2 LTG DSNT NE-S RAE1059 TSE00 FRQ LTGICCA DSNT NE-SE TS MOV E CB DSNT NE-SE P0000 T01830178=
201705281052 METAR KATL 281052Z 17011KT 8SM -TSRA FEW028CB BKN042 BKN075 BKN200 18/18 A2997 RMK AO2 PK WND 32036/1011 WSHFT 1006 LTG DSNT NE-S RAB07 TSB0958 SLP139 CONS LTGICCACCCG E-S TS VC E-S MOV E CBMAM NW-NE-E P0051 T01830178=
201705281037 SPECI KATL 281037Z 04007G20KT 7SM TSRA FEW006 SCT028CB OVC042 18/17 A2998 RMK AO2 PK WND 32036/1011 WSHFT 1006 LTG DSNT ALQDS RAB07 TSB0958 CONS LTGICCACCCG NE-SE TS VC NE-SE MOV E P0048 T01830172=
201705281031 SPECI KATL 281031Z 36009G20KT 4SM +TSRA BR FEW006 BKN028CB OVC035 18/17 A3000 RMK AO2 PK WND 32036/1011 WSHFT 1006 LTG DSNT ALQDS RAB07 TSB0958 CONS LTGICCACCCG OHD-NE-SE TS OHD-NE-SE MOV E P0045 T01830172=
201705281025 SPECI KATL 281025Z 32013KT 1 1/2SM R09R/4500VP6000FT +TSRA BR BKN023CB BKN035 OVC120 18/18 A3002 RMK AO2 PK WND 32036/1011 WSHFT 1006 LTG DSNT ALQDS RAB07 TSB0958 CONS LTGICCACCCG OHD-ALQDS TS OHD-ALQDS MOV E P0039 T01830178=
201705281017 SPECI KATL 281017Z 31018G36KT 3/4SM R09R/4500VP6000FT +TSRA BR SCT019CB BKN035 OVC110 19/17 A3002 RMK AO2 PK WND 32036/1011 LTG DSNT ALQDS RAB07 TSB0958 CONS LTGICCACCCG OHD-ALQDS TS OHD-ALQDS MOV E P0013 T01890172=
201705281014 SPECI KATL 281014Z 32024G36KT 1 1/4SM R09R/4500VP6000FT -TSRA SCT019CB BKN035 OVC110 20/17 A3002 RMK AO2 PK WND 32036/1011 LTG DSNT SW-N RAB07 TSB0958 CONS LTGICCACCCG OHD-W-N TS OHD-W-N MOV E P0001 T02000172=
201705280958 SPECI KATL 280958Z 17003KT 10SM TS FEW019CB BKN040 OVC110 21/17 A2994 RMK AO2 LTG DSNT W-N TSB58 CONS LTGICCACCCG W-N TS VC W-N MOV E T02110172=
201705280952 METAR KATL 280952Z 21003KT 10SM BKN036 BKN048 OVC100 21/17 A2995 RMK AO2 LTG DSNT W-N SLP133 CONS LTGICCCCACG DSNT W-N CB DSNT W-N T02110172=
201705280852 METAR KATL 280852Z 00000KT 10SM BKN047 BKN100 21/17 A2993 RMK AO2 SLP124 60000 T02060172 58016=
201705280752 METAR KATL 280752Z 20003KT 10SM FEW034 SCT100 BKN200 21/17 A2994 RMK AO2 SLP131 T02060167=
201705280652 METAR KATL 280652Z 00000KT 10SM FEW022 FEW034 SCT110 BKN200 22/17 A2996 RMK AO2 WSHFT 0555 RAB16E27 SLP135 P0000 T02170167=
201705280612 SPECI KATL 280612Z 01015KT 10SM SCT022 BKN034 BKN070 BKN200 23/18 A3000 RMK AO2 WSHFT 0555 T02280178=
201705280604 SPECI KATL 280604Z 36014G25KT 10SM SCT022 SCT031 BKN070 BKN200 23/18 A3000 RMK AO2 T02280183=
201705280552 METAR KATL 280552Z 25003KT 10SM FEW045 SCT070 BKN200 BKN250 23/21 A2997 RMK AO2 SLP140 CB DSNT NW-NE T02280211 10261 20228 58001=
201705280452 METAR KATL 280452Z 21006KT 10SM FEW044 FEW075 SCT100 BKN200 23/21 A2997 RMK AO2 SLP139 OCNL LTGIC DSNT NW-NE CB DSNT NW-NE T02330211 402890183=
201705280352 METAR KATL 280352Z 23003KT 10SM SCT070 BKN200 OVC250 23/21 A2999 RMK AO2 SLP146 T02330211=
201705280252 METAR KATL 280252Z 21005KT 10SM SCT200 BKN250 24/21 A2998 RMK AO2 SLP141 T02390206 55001=
201705280152 METAR KATL 280152Z 21006KT 10SM FEW048 SCT200 24/21 A2996 RMK AO2 SLP138 T02440206=
201705280052 METAR KATL 280052Z 21005KT 10SM FEW034 SCT048 SCT200 25/21 A2998 RMK AO2 SLP141 T02500206=
201705272352 METAR KATL 272352Z 22008KT 10SM FEW026 FEW040 BKN060 26/20 A2998 RMK AO2 SLP143 T02610200 10289 20261 55004=
201705272252 METAR KATL 272252Z 24010KT 10SM FEW026 SCT050 27/19 A2998 RMK AO2 SLP142 T02670194=
201705272152 METAR KATL 272152Z 25012G22KT 10SM SCT040 BKN050 BKN250 27/19 A2999 RMK AO2 SLP146 T02670189=
201705272052 METAR KATL 272052Z 24012KT 10SM SCT038 BKN050 BKN250 28/19 A2999 RMK AO2 SLP146 T02780194 56022=
201705271952 METAR KATL 271952Z 22008KT 10SM BKN040 BKN050 BKN250 28/19 A3001 RMK AO2 SLP153 T02830189=
201705271852 METAR KATL 271852Z 22010KT 10SM BKN040 BKN049 BKN250 28/19 A3003 RMK AO2 SLP160 T02780189=
201705271752 METAR KATL 271752Z VRB06KT 10SM SCT038 BKN180 BKN250 28/19 A3006 RMK AO2 SLP169 T02780189 10283 20200 58003=
201705271652 METAR KATL 271652Z 25009KT 10SM FEW036 SCT180 BKN250 27/18 A3007 RMK AO2 SLP175 T02670178=
201705271552 METAR KATL 271552Z 22006KT 10SM FEW036 BKN180 BKN250 26/18 A3006 RMK AO2 SLP170 T02610178=
201705271452 METAR KATL 271452Z 26009KT 10SM BKN180 BKN250 26/17 A3007 RMK AO2 SLP172 T02560172 51008=
201705271352 METAR KATL 271352Z 23007KT 10SM SCT180 BKN250 24/16 A3006 RMK AO2 SLP171 T02440156=
201705271252 METAR KATL 271252Z 24008KT 10SM FEW060 FEW110 SCT200 SCT250 22/16 A3005 RMK AO2 SLP168 T02220161=
201705271152 METAR KATL 271152Z 22007KT 10SM FEW055 FEW110 SCT180 20/17 A3004 RMK AO2 SLP164 T02000172 10217 20183 53006=
201705271052 METAR KATL 271052Z 24005KT 10SM FEW055 SCT180 BKN250 19/17 A3003 RMK AO2 SLP161 T01890167=
201705270952 METAR KATL 270952Z 23005KT 10SM FEW055 BKN180 19/17 A3002 RMK AO2 SLP158 T01890167=
201705270852 METAR KATL 270852Z 22006KT 10SM FEW055 SCT180 19/17 A3002 RMK AO2 SLP158 T01890167 56002=
201705270752 METAR KATL 270752Z 23003KT 10SM SCT180 SCT250 20/17 A3003 RMK AO2 SLP159 T02000167=
201705270652 METAR KATL 270652Z 00000KT 10SM FEW150 BKN200 BKN250 21/17 A3003 RMK AO2 SLP158 T02060167=
201705270552 METAR KATL 270552Z 29003KT 10SM FEW150 SCT200 BKN250 21/17 A3003 RMK AO2 SLP160 T02110167 10267 20211 51006=
201705270452 METAR KATL 270452Z 00000KT 10SM SCT150 22/17 A3003 RMK AO2 SLP158 T02170167 402830133=
201705270352 METAR KATL 270352Z 22004KT 10SM SCT150 22/16 A3002 RMK AO2 SLP156 T02220161=
201705270252 METAR KATL 270252Z 23005KT 10SM SCT150 SCT250 23/16 A3001 RMK AO2 SLP154 T02330161 53008=
201705270152 METAR KATL 270152Z 22006KT 10SM FEW150 FEW250 24/16 A2999 RMK AO2 SLP147 T02390156=
201705270052 METAR KATL 270052Z 21006KT 10SM FEW150 FEW250 25/16 A2999 RMK AO2 SLP146 T02500156=
201705262352 METAR KATL 262352Z 22009KT 10SM FEW250 27/16 A2999 RMK AO2 SLP147 T02670156 10283 20261 55003=
201705262252 METAR KATL 262252Z 26011KT 10SM FEW250 28/14 A2998 RMK AO2 SLP146 T02780144=
201705262152 METAR KATL 262152Z 23009KT 10SM FEW050 FEW250 28/15 A2999 RMK AO2 SLP148 T02830150=
201705262052 METAR KATL 262052Z 26008KT 10SM FEW050 FEW250 28/15 A3000 RMK AO2 SLP151 T02830150 58019=
201705261952 METAR KATL 261952Z 23007KT 10SM FEW045 FEW250 27/14 A3002 RMK AO2 SLP159 T02720144=
201705261852 METAR KATL 261852Z 26007KT 10SM SCT045 SCT250 27/15 A3005 RMK AO2 SLP167 T02720150=
201705261752 METAR KATL 261752Z 28011KT 10SM FEW045 FEW250 26/15 A3005 RMK AO2 SLP170 T02610150 10261 20172 58001=
201705261652 METAR KATL 261652Z 28012G15KT 10SM FEW045 SCT250 26/14 A3006 RMK AO2 SLP174 T02560139=
201705261552 METAR KATL 261552Z 26009KT 10SM FEW045 FEW250 24/12 A3006 RMK AO2 SLP175 T02390122=
201705261452 METAR KATL 261452Z 26009KT 10SM SCT250 23/12 A3006 RMK AO2 SLP172 T02280117 50009=
201705261352 METAR KATL 261352Z 29007KT 10SM SCT250 22/12 A3006 RMK AO2 SLP174 T02170117=
201705261252 METAR KATL 261252Z 28007KT 10SM FEW200 SCT250 19/12 A3005 RMK AO2 SLP168 T01940117=
201705261152 METAR KATL 261152Z 28005KT 10SM FEW200 SCT250 17/12 A3003 RMK AO2 SLP163 T01720122 10172 20133 53017=
201705261052 METAR KATL 261052Z 29004KT 10SM FEW200 SCT250 14/11 A3001 RMK AO2 SLP157 T01440106=
201705260952 METAR KATL 260952Z 29004KT 10SM FEW200 14/11 A3000 RMK AO2 SLP153 T01390106=
201705260852 METAR KATL 260852Z 27005KT 10SM CLR 14/11 A2998 RMK AO2 SLP146 T01390106 53006=
201705260752 METAR KATL 260752Z 26004KT 10SM CLR 14/11 A2996 RMK AO2 SLP141 T01390106=
201705260652 METAR KATL 260652Z 27005KT 10SM CLR 15/11 A2995 RMK AO2 SLP138 T01500106=
201705260552 METAR KATL 260552Z 26004KT 10SM CLR 16/11 A2996 RMK AO2 SLP139 T01560111 10206 20156 51017=
201705260452 METAR KATL 260452Z 25004KT 10SM CLR 16/11 A2995 RMK AO2 SLP136 T01610111 402280133=
201705260352 METAR KATL 260352Z 24005KT 10SM CLR 17/11 A2993 RMK AO2 SLP131 T01720111=
201705260252 METAR KATL 260252Z 23003KT 10SM CLR 17/11 A2991 RMK AO2 SLP122 T01720111 53023=
201705260152 METAR KATL 260152Z 27007KT 10SM CLR 17/11 A2988 RMK AO2 SLP113 T01720111=
201705260052 METAR KATL 260052Z 27006KT 10SM CLR 19/11 A2986 RMK AO2 SLP106 T01890106=
201705252352 METAR KATL 252352Z 28010KT 10SM FEW050 21/10 A2984 RMK AO2 SLP099 T02060100 10228 20206 52012=
201705252252 METAR KATL 252252Z 27011KT 10SM FEW050 22/10 A2982 RMK AO2 SLP095 T02170100=
201705252152 METAR KATL 252152Z 26011G17KT 10SM SCT050 22/10 A2981 RMK AO2 SLP091 T02170100=
201705252052 METAR KATL 252052Z 25013G20KT 220V300 10SM FEW050 22/09 A2980 RMK AO2 SLP086 T02220094 55002=
201705251952 METAR KATL 251952Z 28012G21KT 10SM SCT050 22/10 A2980 RMK AO2 SLP085 T02220100=
201705251852 METAR KATL 251852Z 27015G22KT 10SM SCT050 22/09 A2981 RMK AO2 SLP088 T02170094=
201705251752 METAR KATL 251752Z 27014G23KT 10SM SCT042 21/11 A2981 RMK AO2 SLP088 T02110106 10217 20139 51011=
201705251652 METAR KATL 251652Z 26011G19KT 10SM BKN035 BKN050 20/11 A2980 RMK AO2 SLP085 T02000106=
201705251552 METAR KATL 251552Z 26009G17KT 10SM BKN035 BKN045 19/11 A2979 RMK AO2 SLP083 T01940111=
201705251452 METAR KATL 251452Z 27013G20KT 10SM BKN030 17/11 A2977 RMK AO2 SLP077 T01720106 53021=
201705251352 METAR KATL 251352Z 28009KT 10SM SCT020 17/12 A2975 RMK AO2 SLP068 T01670117=
201705251252 METAR KATL 251252Z 28014G19KT 10SM SCT014 BKN025 BKN075 15/12 A2974 RMK AO2 SLP064 CIG 022V028 T01500117=
201705251235 SPECI KATL 251235Z 29011KT 10SM SCT014 BKN023 BKN070 14/12 A2973 RMK AO2 CIG 020V026 T01440122=
201705251224 SPECI KATL 251224Z 28015KT 10SM BKN014 BKN070 14/12 A2972 RMK AO2 T01440122=
201705251152 METAR KATL 251152Z 27009KT 10SM FEW012 SCT065 BKN095 14/12 A2971 RMK AO2 SLP055 60002 70002 T01390122 10150 20133 53023=
201705251121 SPECI KATL 251121Z 26012KT 10SM FEW014 BKN030 BKN060 BKN130 14/12 A2970 RMK AO2 T01390122=
201705251052 METAR KATL 251052Z 26010KT 10SM FEW012 BKN020 BKN070 BKN140 13/12 A2968 RMK AO2 SLP046 RAB0955E05 CIG 017V023 P0000 T01330117=
201705251027 SPECI KATL 251027Z 26011KT 10SM BKN015 BKN044 BKN080 BKN200 13/12 A2967 RMK AO2 RAB0955E05 CIG 013V017 P0000 T01330122=
201705250952 METAR KATL 250952Z 26008KT 10SM FEW008 BKN065 BKN120 BKN200 13/12 A2965 RMK AO2 SLP035 T01330122=
201705250903 SPECI KATL 250903Z 27008KT 10SM SCT015 SCT046 BKN080 BKN130 14/13 A2964 RMK AO2 T01390128=
201705250852 METAR KATL 250852Z 26009KT 10SM BKN015 BKN044 OVC080 14/13 A2964 RMK AO2 RAB02E32 SLP030 CIG 012V018 P0002 60002 T01390128 53004=
201705250832 SPECI KATL 250832Z 27010KT 10SM BKN015 BKN044 OVC070 14/13 A2964 RMK AO2 RAB02E32 CIG 013V017 P0002 T01390128=
201705250815 SPECI KATL 250815Z 27009KT 6SM -RA BR SCT016 BKN044 OVC075 14/13 A2963 RMK AO2 RAB02 P0001 T01390128=
201705250803 SPECI KATL 250803Z 27009KT 10SM -RA OVC013 14/13 A2963 RMK AO2 RAB02 CIG 011V015 P0000 T01440128=
201705250752 METAR KATL 250752Z 27008KT 10SM OVC015 14/13 A2963 RMK AO2 RAB04E31 SLP025 CIG 013V017 P0000 T01440128=
201705250728 SPECI KATL 250728Z 26009KT 10SM -RA BKN014 OVC080 14/12 A2962 RMK AO2 RAB04 P0000 T01440122=
201705250652 METAR KATL 250652Z 27007KT 10SM FEW044 BKN070 BKN095 OVC130 14/12 A2962 RMK AO2 SLP023 T01440117=
201705250552 METAR KATL 250552Z 26010KT 10SM SCT065 BKN080 BKN120 15/12 A2963 RMK AO2 RAE07 SLP025 P0000 60000 T01500117 10217 20150 51015=
201705250452 METAR KATL 250452Z 28009KT 10SM -RA SCT055 SCT080 BKN100 16/12 A2960 RMK AO2 RAB48 SLP018 P0000 T01560122 402610156=
201705250352 METAR KATL 250352Z 27008KT 10SM FEW050 FEW070 16/12 A2960 RMK AO2 SLP017 T01560117=
201705250252 METAR KATL 250252Z 29008KT 10SM FEW090 17/11 A2958 RMK AO2 SLP010 T01670111 51022=
201705250152 METAR KATL 250152Z 30011G19KT 10SM FEW065 SCT090 18/10 A2956 RMK AO2 SLP004 T01780100=
201705250052 METAR KATL 250052Z 29013KT 10SM FEW040 SCT060 19/13 A2954 RMK AO2 SLP996 T01940128=
201705242352 METAR KATL 242352Z 28010KT 10SM SCT050TCU SCT250 22/13 A2951 RMK AO2 SLP986 TCU VC N 60000 T02170128 10261 20217 53005=
201705242252 METAR KATL 242252Z 26011G22KT 10SM SCT050 SCT250 23/11 A2949 RMK AO2 SLP977 T02280111=
201705242152 METAR KATL 242152Z 27013G21KT 10SM SCT050 BKN070 BKN250 24/13 A2950 RMK AO2 SLP980 T02390133=
201705242052 METAR KATL 242052Z 24017G26KT 10SM FEW050 SCT070 SCT250 25/13 A2950 RMK AO2 PK WND 25026/2029 SLP979 TCU DSNT NW 60000 T02500133 56007=
201705241952 METAR KATL 241952Z 28018G23KT 10SM FEW040CB SCT070 SCT250 25/16 A2950 RMK AO2 RAB17E39 SLP979 CB VC NE-E & DSNT NE-SE MOV NE SHRA VC NE-E & DSNT NE-SE P0000 T02500161=
201705241924 SPECI KATL 241924Z 24010G23KT 10SM -RA SCT040CB BKN070 BKN250 24/15 A2949 RMK AO2 LTG DSNT E RAB17 CB VC SE MOV NE CB DSNT NE-SE SHRA VC SE P0000 T02390150=
201705241917 SPECI KATL 241917Z 24017G23KT 10SM -RA BKN040CB BKN070 BKN250 24/15 A2949 RMK AO2 LTG DSNT E RAB17 CB VC NE & SW MOV NE SHRA VC NE & SW P0000 T02390150=
201705241852 METAR KATL 241852Z 24011G20KT 10SM SCT040TCU SCT100 SCT250 25/16 A2950 RMK AO2 LTG DSNT NW SLP980 CB DSNT N & E & NW TCU N-NE & E-SE & W-NW SHRA VC N-NE & E-SE T02500156=
201705241752 METAR KATL 241752Z 24014G21KT 10SM FEW035 SCT050 SCT250 25/16 A2952 RMK AO2 SLP986 CB DSNT NE-SE & SW-NW T02500161 10256 20194 58014=
201705241652 METAR KATL 241652Z 22011G21KT 10SM SCT030TCU BKN050 BKN120 BKN250 24/17 A2954 RMK AO2 SLP994 CB DSNT NE-SE & DSNT SW-NW TCU NE-SE & SW-NW T02390172=
201705241552 METAR KATL 241552Z 21014G20KT 10SM FEW015 SCT130 BKN250 23/18 A2956 RMK AO2 SLP001 ACC S-SW & NW-N T02280183=
201705241452 METAR KATL 241452Z 18009KT 10SM BKN013 BKN018 BKN120 21/18 A2957 RMK AO2 SLP006 T02060178 58007=
201705241352 METAR KATL 241352Z 17013KT 10SM BKN010 OVC013 20/18 A2959 RMK AO2 SLP012 CIG 008V012 BINOVC T02000178=
201705241252 METAR KATL 241252Z 19009KT 10SM OVC010 19/18 A2959 RMK AO2 SLP012 CIG 008V012 BINOVC T01940178=
201705241232 SPECI KATL 241232Z 21009KT 10SM OVC010 19/18 A2960 RMK AO2 CIG 008V012 BINOVC T01940178=
201705241201 SPECI KATL 241201Z 18006KT 10SM BKN008 OVC016 19/18 A2959 RMK AO2 CIG 006V010 BINOVC T01940178=
201705241152 METAR KATL 241152Z 19008KT 10SM BKN010 OVC018 19/18 A2959 RMK AO2 SLP013 CIG 008V012 BINOVC 60000 70043 T01940178 10194 20189 58014=
201705241130 SPECI KATL 241130Z 18008KT 10SM SCT005 OVC015 19/18 A2961 RMK AO2 BINOVC T01890183=
201705241104 SPECI KATL 241104Z 19006KT 9SM OVC005 19/18 A2962 RMK AO2 CIG 004V007 BINOVC T01890183=
201705241052 METAR KATL 241052Z 19009KT 1SM R09R/P6000FT OVC004 19/18 A2962 RMK AO2 SFC VIS 8 SLP023 CIG 003V005 TWRINC T01890183=
201705241024 SPECI KATL 241024Z 18006KT 1SM R09R/P6000FT OVC004 19/18 A2962 RMK AO2 SFC VIS 8 CIG 003V005 TWRINC T01890183=
201705241016 SPECI KATL 241016Z 20008KT 1/2SM R09R/P6000FT OVC004 19/18 A2962 RMK AO2 SFC VIS 7 CIG 003V005 TWRINC T01890183=
201705240952 METAR KATL 240952Z 19006KT 10SM OVC005 19/18 A2963 RMK AO2 DZE22 SLP026 CIG 004V007 P0000 T01890183=
201705240935 SPECI KATL 240935Z 20006KT 8SM BKN005 OVC012 19/18 A2962 RMK AO2 DZE22 CIG 004V007 P0000 T01890183=
201705240852 METAR KATL 240852Z 19007KT 1 1/4SM -DZ BR OVC003 19/19 A2964 RMK AO2 SFC VIS 6 DZB45 SLP028 CIG 002V004 TWRINC P0000 60000 T01940189 56014=
201705240826 SPECI KATL 240826Z 16004KT 10SM BKN004 BKN010 OVC120 19/18 A2962 RMK AO2 CIG 003V006 T01940183=
201705240752 METAR KATL 240752Z 18006KT 10SM BKN006 OVC012 19/18 A2965 RMK AO2 SLP032 CIG 005V008 T01890178=
201705240659 SPECI KATL 240659Z 16005KT 10SM OVC008 19/17 A2966 RMK AO2 CIG 007V010 T01890172=
201705240652 METAR KATL 240652Z 16005KT 10SM FEW008 OVC010 19/17 A2966 RMK AO2 SLP036 T01890167=
201705240610 SPECI KATL 240610Z 17003KT 10SM BKN014 BKN044 OVC080 19/16 A2967 RMK AO2 CIG 012V016 T01890161=
201705240552 METAR KATL 240552Z 18005KT 10SM SCT016 SCT080 BKN150 OVC200 18/16 A2968 RMK AO2 RAE21 SLP043 P0000 60000 T01830161 10222 20183 56017=
201705240533 SPECI KATL 240533Z 18003KT 10SM BKN016 BKN080 OVC150 19/16 A2969 RMK AO2 RAE21 P0000 T01890161=
201705240452 METAR KATL 240452Z 14003KT 10SM -RA SCT018 BKN070 OVC150 19/16 A2969 RMK AO2 RAB52 SLP047 P0000 T01890161 402330183=
201705240352 METAR KATL 240352Z 00000KT 10SM BKN020 OVC100 19/16 A2971 RMK AO2 LTG DSNT NW SLP054 VCSH W-NW CB DSNT NW T01890156=
201705240252 METAR KATL 240252Z 35010KT 10SM FEW014 BKN020 OVC070 19/16 A2973 RMK AO2 LTG DSNT N AND NE SLP061 VCSH SW-NW-N CB DSNT NW-N-NE T01940156 53010=
201705240241 SPECI KATL 240241Z 01014KT 10SM BKN015 BKN030 BKN070 OVC200 20/16 A2973 RMK AO2 LTG DSNT N AND NW T02000161=
201705240152 METAR KATL 240152Z 22006KT 10SM FEW025 BKN070 BKN100 BKN200 21/18 A2971 RMK AO2 SLP053 LTG DSNT NW AND NE T02110183=
201705240052 METAR KATL 240052Z 18006KT 10SM BKN030 BKN060 BKN200 22/18 A2970 RMK AO2 SLP049 CB DSNT NW T02170183=
201705232352 METAR KATL 232352Z 21006KT 10SM FEW020 SCT045 SCT200 22/17 A2970 RMK AO2 SLP049 TCU DSNT S 60000 T02220172 10233 20200 55007=
201705232252 METAR KATL 232252Z 18009KT 10SM FEW020 FEW028 SCT200 23/18 A2968 RMK AO2 SLP044 T02280178=
201705232220 SPECI KATL 232220Z 17008KT 10SM FEW018TCU SCT025 SCT200 23/18 A2969 RMK AO2 TCU VC NW T02280178=
201705232152 METAR KATL 232152Z 18004KT 10SM SCT018TCU BKN025 BKN200 22/18 A2970 RMK AO2 SLP048 TCU N-NE T02220183=
201705232052 METAR KATL 232052Z 20005KT 10SM FEW015 SCT040 BKN050 22/18 A2972 RMK AO2 SLP056 CB DSNT N 60000 T02220178 58008=
201705231952 METAR KATL 231952Z 21006KT 10SM FEW015 BKN030 OVC070 21/18 A2975 RMK AO2 SLP066 T02110178=
201705231852 METAR KATL 231852Z 20007KT 10SM FEW010 BKN020 BKN070 BKN250 21/18 A2975 RMK AO2 RAE1758 SLP068 P0000 T02110183=
201705231752 METAR KATL 231752Z 14004KT 10SM -RA FEW010 BKN030 BKN070 BKN250 20/18 A2974 RMK AO2 SLP065 P0004 60043 T02000183 10200 20194 58031=
201705231721 SPECI KATL 231721Z 00000KT 8SM -RA SCT007 BKN016 OVC090 19/18 A2978 RMK AO2 P0002 T01940183=
201705231719 SPECI KATL 231719Z 00000KT 8SM -RA SCT007 BKN065 OVC100 19/18 A2978 RMK AO2 P0002 T01940183=
201705231706 SPECI KATL 231706Z 24003KT 5SM -RA BR BKN009 BKN023 OVC070 19/19 A2979 RMK AO2 P0002 T01940189=
201705231652 METAR KATL 231652Z 20004KT 6SM -RA BR FEW005 SCT030 OVC080 19/19 A2979 RMK AO2 PRESFR SLP081 P0014 T01940189=
201705231552 METAR KATL 231552Z 23007KT 9SM -RA FEW010 SCT030 OVC100 19/18 A2983 RMK AO2 SLP096 P0002 T01940183=
201705231503 SPECI KATL 231503Z 25005KT 6SM -RA BR FEW008 BKN050 OVC100 19/19 A2984 RMK AO2 P0001 T01940189=
201705231452 METAR KATL 231452Z 25005KT 7SM -RA SCT008 BKN030 OVC100 20/19 A2984 RMK AO2 SLP097 P0004 60023 T02000189 55006=
201705231352 METAR KATL 231352Z 20007KT 6SM -RA BR SCT008 BKN030 OVC100 19/19 A2984 RMK AO2 SLP097 P0010 T01940189=
201705231340 SPECI KATL 231340Z 21007KT 5SM -RA BR SCT008 BKN050 OVC100 19/19 A2984 RMK AO2 P0009 T01940189=
201705231252 METAR KATL 231252Z 21008KT 5SM -RA BR BKN006 BKN029 OVC090 19/19 A2985 RMK AO2 SLP101 CIG 004V008 BKN006 V SCT P0009 T01940189=
201705231250 SPECI KATL 231250Z 20007KT 5SM -RA BR BKN006 BKN029 OVC090 19/19 A2985 RMK AO2 CIG 004V008 BKN006 V SCT P0009=
201705231233 SPECI KATL 231233Z 20006KT 4SM -RA BR BKN004 OVC095 19/19 A2985 RMK AO2 CIG 003V005 P0006 T01940194=
201705231152 METAR KATL 231152Z 21006KT 5SM -RA BR FEW006 SCT070 OVC100 20/19 A2986 RMK AO2 SLP103 P0009 60050 70144 T02000194 10200 20194 55005=
201705231134 SPECI KATL 231134Z 20006KT 5SM -RA BR SCT006 SCT030 OVC100 20/19 A2986 RMK AO2 BKN006 V SCT P0006 T02000194=
201705231122 SPECI KATL 231122Z 21005KT 5SM -RA BR BKN006 BKN030 OVC100 20/19 A2986 RMK AO2 BKN006 V SCT P0004 T02000194=
201705231052 METAR KATL 231052Z 21004KT 2SM -RA BR BKN004 OVC020 20/19 A2985 RMK AO2 SFC VIS 5 SLP100 CIG 003V006 TWRINC P0005 T02000194=
201705231027 SPECI KATL 231027Z 20005KT 6SM -RA BR BKN004 BKN055 OVC110 20/19 A2984 RMK AO2 CIG 003V005 P0002 T02000194=
201705231009 SPECI KATL 231009Z 20004KT 6SM -RA BR SCT005 SCT060 BKN110 20/19 A2985 RMK AO2 P0001 T02000194=
201705230952 METAR KATL 230952Z 19004KT 5SM -RA BR BKN005 BKN060 OVC095 20/19 A2985 RMK AO2 SLP100 CIG 003V007 BKN005 V SCT P0013 T02000194=
201705230926 SPECI KATL 230926Z 00000KT 4SM RA BR BKN005 BKN060 OVC095 20/19 A2986 RMK AO2 CIG 003V007 BKN005 V SCT P0008 T02000194=
201705230852 METAR KATL 230852Z 23003KT 4SM -RA BR BKN004 OVC027 20/19 A2987 RMK AO2 RAE05B50 SLP109 CIG 003V006 P0001 60023 T02000194 56014 $=
201705230812 SPECI KATL 230812Z 00000KT 4SM BR BKN004 BKN047 OVC090 20/19 A2987 RMK AO2 RAE05 P0000 T02000194 $=
201705230752 METAR KATL 230752Z 15004KT 4SM -RA BR SCT005 BKN060 OVC090 20/19 A2988 RMK AO2 RAE10B28 SLP109 CB DSNT E-SE P0002 T02000194 $=
201705230744 SPECI KATL 230744Z 15003KT 4SM -RA BR SCT005 BKN055 OVC070 20/19 A2988 RMK AO2 RAE10B28 CB MOV E P0001 T02000194 $=
201705230725 SPECI KATL 230725Z 00000KT 7SM BKN005 BKN018CB OVC080 20/19 A2988 RMK AO2 RAE10 CB VC E-SE MOV NE P0000 T02000189 $=
201705230715 SPECI KATL 230715Z 00000KT 8SM SCT005 SCT020CB OVC080 20/19 A2988 RMK AO2 RAE10 CB VC E-SE MOV NE P0000 T02000194 $=
201705230652 METAR KATL 230652Z 08004KT 3SM -RA BR FEW005 SCT015 OVC060 19/19 A2989 RMK AO2 SLP116 P0020 T01940189 $=
201705230631 SPECI KATL 230631Z 08006KT 4SM RA BR FEW005 SCT018 OVC060 20/19 A2990 RMK AO2 P0017 T02000194 $=
201705230619 SPECI KATL 230619Z 08004KT 4SM -RA BR FEW003 BKN013 OVC024 20/19 A2991 RMK AO2 P0016 T02000194 $=
201705230604 SPECI KATL 230604Z VRB03KT 3SM -RA BR SCT005 BKN021 OVC055 20/20 A2990 RMK AO2 CB DSIPTD P0014 T02000200 $=
201705230552 METAR KATL 230552Z 01005KT 1 1/4SM R09R/5000VP6000FT +RA BR SCT005 BKN013CB OVC019 20/20 A2991 RMK AO2 SLP121 CB OHD-W-N MOV NE P0061 60063 T02000200 10217 20200 58018 $=
201705230547 SPECI KATL 230547Z 33008KT 1 1/4SM R09R/6000VP6000FT +RA BR SCT005 BKN013CB OVC019 20/20 A2992 RMK AO2 CB OHD-W-N MOV NE P0049 $=
201705230523 SPECI KATL 230523Z 31005KT 1 1/2SM +RA BR SCT003 BKN008CB OVC035 21/20 A2993 RMK AO2 CB OHD-SW-NW-N MOV NE P0012 T02060200 $=
201705230452 METAR KATL 230452Z 35004KT 5SM -RA BR BKN011 BKN040 OVC070 21/20 A2994 RMK AO2 SLP128 CB DSNT SW P0000 T02060200 402610200 $=
201705230433 SPECI KATL 230433Z 34005KT 6SM -RA BR BKN012 BKN070 OVC120 21/20 A2994 RMK AO2 P0000 T02060200 $=
201705230352 METAR KATL 230352Z 32003KT 8SM -RA FEW008 SCT013 BKN070 OVC130 21/20 A2995 RMK AO2 SLP133 P0001 T02060200 $=
201705230348 SPECI KATL 230348Z 34003KT 7SM -RA FEW008 SCT013 BKN070 OVC130 21/20 A2995 RMK AO2 P0000 $=
201705230315 SPECI KATL 230315Z 32006KT 8SM -RA SCT008 BKN013 OVC070 21/20 A2996 RMK AO2 P0000 T02060200 $=
201705230252 METAR KATL 230252Z 31005KT 9SM -RA SCT008 BKN070 OVC120 21/20 A2997 RMK AO2 RAE31B47 SLP140 P0001 60001 T02110200 53003 $=
201705230152 METAR KATL 230152Z 00000KT 8SM -RA FEW005 BKN100 OVC150 21/19 A2996 RMK AO2 RAB48 SLP137 P0000 T02110194 $=
201705230052 METAR KATL 230052Z 22003KT 10SM FEW070 SCT110 BKN150 OVC200 22/19 A2996 RMK AO2 SLP136 T02170189 $=
201705222352 METAR KATL 222352Z 08004KT 10SM FEW005 SCT110 BKN150 OVC200 22/18 A2996 RMK AO2 SLP138 SHRA SW-NW 60018 T02170178 10244 20211 58010 $=
201705222252 METAR KATL 222252Z 34004KT 10SM FEW005 BKN120 BKN150 OVC200 22/19 A2998 RMK AO2 SLP144 T02170189 $=
201705222152 METAR KATL 222152Z 30005KT 10SM FEW005 SCT120 BKN150 OVC200 22/19 A2997 RMK AO2 SLP143 RAE11 SHRA NW-NE P0000 T02170189 $=
201705222052 METAR KATL 222052Z 31005KT 7SM SCT005 SCT020 BKN100 BKN150 OVC250 21/20 A2999 RMK AO2 LTG DSNT NW RAE52 SLP148 CB DSNT NW BINOVC P0002 60018 T02110200 58012 $=
201705221952 METAR KATL 221952Z 23003KT 6SM -RA BR FEW004 SCT020 OVC110 22/21 A3001 RMK AO2 TSB1858E27 SLP154 LTG DSNT W-NW TS DSIPTD CB DSNT W-NW P0009 T02170211 $=
201705221928 SPECI KATL 221928Z 22007KT 3SM RA BR FEW004 SCT040 OVC090 22/21 A3002 RMK AO2 TSB1858E27 LTG DSNT W-NW TS DSIPTD CB DSNT W-NW P0007 T02170211 $=
201705221858 SPECI KATL 221858Z 00000KT 4SM -TSRA BR FEW005 SCT025CB BKN100 BKN150 OVC250 22/21 A3003 RMK AO2 TSB58 LTG DSNT W-NW OCNL LTGICCG S TS S MOV NE CB DSNT W-NW P0001 T02170211 $=
201705221852 METAR KATL 221852Z 25003KT 4SM VCTS -RA BR FEW005 SCT025CB BKN100 BKN150 OVC250 22/21 A3003 RMK AO2 SLP162 TSB21 OCNL LTGICCG VC SE-S TS VC SE-S MOV NE CB DSNT SW-W P0007 T02170206 $=
201705221829 SPECI KATL 221829Z 32004KT 5SM VCTS -RA BR FEW010 SCT020CB SCT090 SCT150 BKN250 22/21 A3003 RMK AO2 TSB21 OCNL LTGICCG VC S-SW TS VC S-SW MOV NE P0004 T02220211 $=
201705221821 SPECI KATL 221821Z 32008KT 2 1/2SM VCTS RA BR FEW010 SCT025 SCT085 SCT150 BKN250 23/21 A3003 RMK AO2 TSE01 LTG DSNT SW CB DSNT SW P0003 T02280211 $=
201705221818 SPECI KATL 221818Z 32007KT 3SM RA BR FEW010 FEW025 SCT095 SCT150 BKN250 23/21 A3003 RMK AO2 TSE01 LTG DSNT SW CB DSNT SW P0001 T02280211 $=
201705221802 SPECI KATL 221802Z 35006KT 10SM FEW010 FEW025CB SCT095 SCT150 BKN250 24/21 A3002 RMK AO2 RAE01 TSE01 LTG DSNT SW CB DSNT SW P0000 T02390206 $=
201705221752 METAR KATL 221752Z COR 00000KT 10SM VCTS -RA FEW010 FEW025CB SCT095 SCT150 BKN250 24/20 A3003 RMK AO2 LTG DSNT N AND NE AND SW RAB50 TSB03E51 SLP159 TS DSIPTD OCNL LTGICCG VC N TS VC N MOV NE CB DSNT N AND NE P0000 60013 T02440200=
201705221733 SPECI KATL 221733Z 04004KT 10SM TS FEW010 SCT025CB BKN050 BKN150 BKN250 26/19 A3003 RMK AO2 LTG DSNT N AND SW TSB03 OCNL LTGICCG W-NW TS W-NW MOV NE CB DSNT SW-N T02560189=
201705221652 METAR KATL 221652Z 10007KT 10SM VCTS FEW025CB SCT100 BKN250 26/20 A3004 RMK AO2 SLP164 OCNL LTGICCG VC W-NW TS VC W-NW MOV E CB DSNT E T02560200=
201705221552 METAR KATL 221552Z 14003KT 10SM FEW015 SCT070 SCT100 BKN200 24/20 A3006 RMK AO2 LTG DSNT NE-SE RAE29 SLP169 CB DSNT NE-SE-SW TCU DSNT NW-N SHRA DSNT NE-SE-SW P0001 T02390200=
201705221527 SPECI KATL 221527Z 11010KT 10SM -RA FEW020CB SCT070 BKN100 BKN200 24/21 A3008 RMK AO2 LTG DSNT NE AND E VIS LWR NE-SE SHRA TS MOV E CB NE-SE MOV E P0001 T02390206=
201705221512 SPECI KATL 221512Z 20003KT 9SM VCTS -RA FEW020CB BKN090 OVC200 23/22 A3007 RMK AO2 LTG DSNT E VIS LWR E SHRA OCNL LTGICCG VC E TS VC E MOV E P0000 T02330217=
201705221452 METAR KATL 221452Z 27006KT 10SM -RA FEW015CB SCT030TCU BKN070 BKN200 24/21 A3007 RMK AO2 RAB07 SLP172 VIS LWR NE-E & SW SHRA CB NE-E & SW MOV NE TCU N-NE & SE-S & NW P0012 60012 T02440211 50001=
201705221420 SPECI KATL 221420Z 36004KT 8SM R09R/4000VP6000FT -RA SCT020CB BKN060 BKN075 BKN200 23/21 A3008 RMK AO2 RAB07 VIS LWR NE-SE-SW SHRA CB OHD-NE-SE-SW MOV SE P0011 T02330206=
201705221352 METAR KATL 221352Z 31004KT 10SM BKN020TCU BKN060 BKN200 24/20 A3007 RMK AO2 SLP175 TCU OHD-NE-SE-SW T02440200=
201705221252 METAR KATL 221252Z 00000KT 10SM CLR 23/21 A3008 RMK AO2 SLP176 T02330206=
201705221152 METAR KATL 221152Z 18003KT 10SM FEW040 FEW150 SCT200 SCT250 22/20 A3006 RMK AO2 SLP171 CB DSNT SE 70001 T02170200 10222 20200 50001=
201705221052 METAR KATL 221052Z 00000KT 10SM SCT040 SCT070 BKN200 BKN250 21/19 A3007 RMK AO2 SLP175 T02060194=
201705220952 METAR KATL 220952Z 30004KT 10SM FEW040 FEW070 SCT200 SCT250 21/19 A3006 RMK AO2 SLP170 T02110194=
201705220852 METAR KATL 220852Z 00000KT 10SM FEW040 SCT200 BKN250 21/19 A3006 RMK AO2 SLP169 T02110194 56005=
201705220752 METAR KATL 220752Z 00000KT 10SM SCT038 BKN060 22/20 A3006 RMK AO2 SLP171 T02170200=
201705220652 METAR KATL 220652Z 00000KT 10SM FEW070 SCT200 BKN250 22/20 A3006 RMK AO2 SLP171 T02170200=
201705220552 METAR KATL 220552Z 00000KT 10SM FEW030TCU FEW065 BKN250 22/19 A3007 RMK AO2 SLP174 TCU E T02220194 10256 20222 58009=
201705220452 METAR KATL 220452Z 25003KT 10SM SCT030 BKN070 BKN140 OVC200 23/20 A3009 RMK AO2 SLP179 MDT CU E-OHD-W T02280200 402830200=
201705220352 METAR KATL 220352Z 24003KT 10SM FEW070 FEW140 BKN200 OVC250 23/19 A3009 RMK AO2 SLP180 T02330194=
201705220252 METAR KATL 220252Z 23003KT 10SM FEW045TCU FEW055 SCT140 OVC200 24/19 A3010 RMK AO2 SLP184 TCU N T02390194 53007=
201705220152 METAR KATL 220152Z 24003KT 10SM FEW050 FEW140 BKN200 OVC250 24/19 A3009 RMK AO2 SLP182 T02440194=
201705220052 METAR KATL 220052Z 24003KT 10SM FEW030 FEW055 BKN200 BKN250 25/19 A3008 RMK AO2 SLP178 CB DSNT W TCU DSNT E T02500189=
201705212352 METAR KATL 212352Z 26005KT 10SM FEW032TCU FEW055 SCT200 BKN250 26/19 A3008 RMK AO2 SLP176 TCU NE-E & DSNT W-NW T02560189 10283 20256 53004=
201705212252 METAR KATL 212252Z 28007KT 10SM FEW034TCU SCT055 BKN250 27/18 A3005 RMK AO2 SLP167 TCU N-NE & NW & DSNT E-SE & W-NW T02670183=
201705212152 METAR KATL 212152Z 29005KT 10SM FEW034 SCT050 SCT250 27/19 A3004 RMK AO2 SLP163 T02670189=
201705212052 METAR KATL 212052Z 28008KT 10SM SCT032 BKN050 BKN250 28/19 A3007 RMK AO2 SLP172 MDT CU W AND NW AND N T02830194 58013=
201705211952 METAR KATL 211952Z 25004KT 10SM SCT030 BKN042 BKN050 BKN250 27/19 A3008 RMK AO2 SLP178 T02670189=
201705211852 METAR KATL 211852Z VRB05KT 10SM SCT025 SCT035 BKN250 27/20 A3009 RMK AO2 SLP181 T02670200=
201705211752 METAR KATL 211752Z 26008KT 10SM SCT019 SCT027 BKN250 26/21 A3011 RMK AO2 SLP186 60001 T02610206 10261 20206 58002=
201705211749 SPECI KATL 211749Z VRB06KT 10SM SCT019 SCT027 BKN250 26/20 A3011 RMK AO2=
201705211652 METAR KATL 211652Z 29007KT 10SM SCT014 SCT021 BKN028 BKN250 24/20 A3012 RMK AO2 SLP193 DZB30E42 SHRA E P0000 T02390200=
201705211611 SPECI KATL 211611Z 27009KT 10SM SCT014 BKN020 BKN045 BKN250 24/21 A3013 RMK AO2 T02390206=
201705211609 SPECI KATL 211609Z 26009KT 10SM BKN014 BKN018 BKN047 23/21 A3013 RMK AO2 T02330206=
201705211552 METAR KATL 211552Z 27007KT 10SM FEW008 SCT014 BKN035 BKN250 24/21 A3012 RMK AO2 SLP191 RAB00E33DZB33E40 P0001 T02390211=
201705211548 SPECI KATL 211548Z 27006KT 10SM FEW008 SCT014 BKN030 BKN250 24/22 A3012 RMK AO2 RAB00E33DZB33E40 P0001=
201705211537 SPECI KATL 211537Z VRB05KT 10SM SCT008 BKN014 BKN045 BKN250 23/21 A3012 RMK AO2 RAB00E33 P0001 T02280211=
201705211521 SPECI KATL 211521Z 24004KT 9SM -RA SCT014 BKN035 BKN045 BKN250 23/21 A3012 RMK AO2 RAB00 P0001 T02280206=
201705211452 METAR KATL 211452Z 23006KT 10SM BKN014 BKN020 BKN050 BKN250 23/20 A3011 RMK AO2 SLP189 CIG 012V016 SHRA N T02280200 51009 $=
201705211424 SPECI KATL 211424Z 20004KT 10SM BKN010 BKN020 BKN250 22/21 A3010 RMK AO2 CIG 008V0012 T02220206 $=
201705211402 SPECI KATL 211402Z VRB03KT 7SM BKN006 BKN012 BKN250 22/21 A3010 RMK AO2 CIG 004V008 T02170206 $=
201705211352 METAR KATL 211352Z 18003KT 7SM BKN004 BKN010 BKN040 BKN250 21/21 A3010 RMK AO2 SLP186 T02110206 $=
201705211257 SPECI KATL 211257Z 16006KT 1 3/4SM BR OVC004CB 21/20 A3010 RMK AO2 SFC VIS 6 CIG 003V005 CB NW-N MOV NE TWRINC T02060200 $=
201705211252 METAR KATL 211252Z 14006KT 1SM R09R/P6000FT BR OVC004 21/20 A3010 RMK AO2 SFC VIS 6 SLP186 CIG 003V005 TWRINC T02060200 $=
201705211226 SPECI KATL 211226Z 09004KT 1SM R09R/P6000FT BR OVC004 21/20 A3010 RMK AO2 SFC VIS 6 CIG 003V005 TWRINC T02060200 $=
201705211211 SPECI KATL 211211Z 09006KT 2SM BR OVC004 21/19 A3009 RMK AO2 SFC VIS 6 CIG 003V005 TWRINC T02060194 $=
201705211152 METAR KATL 211152Z 06006KT 6SM BR OVC004 21/19 A3009 RMK AO2 RAE09 SLP181 P0001 60021 70066 T02060194 10206 20200 53003 $=
201705211052 METAR KATL 211052Z 05009KT 6SM -RA BR BKN006 OVC022 20/19 A3007 RMK AO2 RAB09 SLP175 P0000 T02000194 $=
201705210952 METAR KATL 210952Z 07009KT 6SM BR BKN005 BKN022 OVC027 20/19 A3005 RMK AO2 RAE38 SLP168 P0011 T02000194 $=
201705210908 SPECI KATL 210908Z 09010KT 6SM -RA BR BKN006 BKN019CB OVC029 20/19 A3007 RMK AO2 CB VC N AND DSNT NW MOV NE P0011 T02000194 $=
201705210852 METAR KATL 210852Z 08011KT 6SM -RA BR BKN004 OVC018CB 20/19 A3008 RMK AO2 SLP176 OCNL LTGIC DSNT SW CB VC SW AND DSNT W-NW MOV NE P0006 60009 T02000194 56015 $=
201705210811 SPECI KATL 210811Z 09008KT 6SM -RA BR BKN004 OVC021 20/19 A3008 RMK AO2 LTG DSNT W OCNL LTGIC DSNT SW-W CB DSNT SW-W P0001 T02000194 $=
201705210752 METAR KATL 210752Z 08008KT 7SM -RA SCT005 OVC021 21/19 A3008 RMK AO2 LTG DSNT W SLP176 OCNL LTGIC DSNT NE-E AND SW-W CB DSNT NE-E AND SW-W P0003 T02060194 $=
201705210652 METAR KATL 210652Z 02004KT 10SM -RA FEW007 BKN028 BKN044 OVC130 21/19 A3009 RMK AO2 LTG DSNT NE AND E RAB01 SLP178 OCNL LTGIC DSNT NE-SE CB DSNT NE-SE P0000 T02060194 $=
201705210612 SPECI KATL 210612Z 34007KT 10SM -RA SCT005 BKN028 BKN060 OVC130 20/19 A3011 RMK AO2 LTG DSNT N-SE RAB01 OCNL LTGIC DSNT NE-SE CB DSNT NE-SE P0000 T02000194 $=
201705210552 METAR KATL 210552Z 31006KT 10SM FEW006 SCT022 BKN034 OVC130 20/19 A3012 RMK AO2 LTG DSNT NE-SE RAE45 TSE44 SLP192 OCNL LTGICCA DSNT NE-SE TS MOV NE CB DSNT NE-SE P0035 60041 T02000194 10222 20200 51006 $=
201705210545 SPECI KATL 210545Z 31007KT 10SM SCT036 SCT049 20/19 A3013 RMK AO2 LTG DSNT NE-SE RAE45 TSE44 OCNL LTGICCA DSNT NE-E TS MOV NE CB DSNT NE-E P0035 T02000194 $=
201705210542 SPECI KATL 210542Z 32009KT 10SM -TSRA FEW006 SCT022 SCT044 OVC130 20/19 A3012 RMK AO2 LTG DSNT NE-SE OCNL LTGICCA DSNT NE-E TS MOV NE CB DSNT NE-E P0035 T02000194 $=
201705210518 SPECI KATL 210518Z 32015KT 5SM -TSRA BR FEW008 BKN024CB OVC050 20/19 A3011 RMK AO2 LTG DSNT NE AND E OCNL LTGICCGCCCA NW-NE-SE TS VC NW-NE-SE MOV NE P0034 T02000194 $=
201705210503 SPECI KATL 210503Z 32016G20KT 1SM R09R/3500VP6000FT +TSRA BR SCT008 OVC024CB 21/19 A3013 RMK AO2 LTG DSNT N-E OCNL LTGICCCCA SE-OHD-NW TS SE-OHD-NW MOV NE CB DSNT N-E P0014 T02060194 $=
201705210452 METAR KATL 210452Z 31021G26KT 7SM -TSRA SCT006 OVC023CB 21/20 A3012 RMK AO2 PK WND 32026/0451 LTG DSNT NW-E SLP192 OCNL LTGICCCCA S-W-NW TS S-W-NW MOV N CB DSNT ALQDS P0003 T02060200 403060206 $=
201705210428 SPECI KATL 210428Z 32010KT 10SM -TSRA FEW005 BKN023CB OVC060 21/21 A3013 RMK AO2 LTG DSNT ALQDS OCNL LTGICCGCCCA SW-NW TS SW-NW MOV N CB DSNT ALQDS P0002 T02110206 $=
201705210410 SPECI KATL 210410Z 00000KT 10SM -TSRA SCT044CB BKN065 OVC100 22/19 A3013 RMK AO2 LTG DSNT ALQDS OCNL LTGICCGCCCA N-E & SW-NW TS N-E & VC SW-NW MOV NE CB DSNT ALQDS P0001 T02170194 $=
201705210352 METAR KATL 210352Z 32004KT 10SM -TSRA BKN040 BKN075 OVC120 22/19 A3011 RMK AO2 RAB0256E11B43 TSB52 SLP186 OCNL LTGICCCCA DSNT SW-NW CB DSNT SW-NW P0000 T02220194 $=
201705210252 METAR KATL 210252Z 03009KT 10SM FEW065 SCT110 OVC200 22/19 A3010 RMK AO2 LTG DSNT W AND NW RAE35 SLP185 CB DSNT SW-NW P0002 60003 T02170194 51020 $=
201705210152 METAR KATL 210152Z 06007KT 10SM -RA SCT060 BKN085 OVC130 22/19 A3010 RMK AO2 SLP185 P0001 T02170194 $=
201705210052 METAR KATL 210052Z 06011KT 10SM -RA FEW018 SCT070 BKN140 OVC200 22/19 A3010 RMK AO2 RAE25B45 SLP183 ACC S-W P0000 T02170189 $=
201705202352 METAR KATL 202352Z 21005KT 10SM -RA FEW018 SCT080 SCT110 OVC200 21/18 A3005 RMK AO2 RAB35 SLP167 ACC SE-OHD-NW P0000 60004 T02110183 10306 20211 50000 $=
201705202252 METAR KATL 202252Z 17007G16KT 10SM FEW014 SCT040 BKN085 OVC200 22/18 A3008 RMK AO2 PK WND 16034/2154 LTG DSNT NW-E RAE26 TSE50 SLP178 OCNL LTGICCA DSNT NW-NE-E CB DSNT ALQDS ACC NE-SE P0004 T02220178 $=
201705202217 SPECI KATL 202217Z 17007G18KT 10SM -TSRA FEW008 SCT030CB OVC075 22/19 A3005 RMK AO2 PK WND 16034/2154 LTG DSNT ALQDS OCNL LTGICCGCCCA SW-NW-NE TS SW-NW-NE MOV NW CB DSNT ALQDS P0004 T02170194 $=
201705202154 SPECI KATL 202154Z 17025G39KT 5SM -TSRA BKN030CB BKN065 OVC100 27/20 A3005 RMK AO2 PK WND 16034/2154 LTG DSNT ALQDS OCNL LTGICCGCCCA N-E-S-SW TS N-E-S-SW MOV NW P0000 T02670200 $=
201705202152 METAR KATL 202152Z 16027G39KT 2SM -TSRA BKN038CB BKN065 OVC100 28/21 A3004 RMK AO2 PK WND 17039/2152 RAB51 TSB46 SLP164 VIS N-E-SE 3 OCNL LTGICCGCC N-E-S-SW TS N-E-S-SW MOV NW P0000 T02780206 $=
201705202052 METAR KATL 202052Z 18008KT 10SM FEW035 SCT050 SCT090 BKN160 BKN250 28/22 A3004 RMK AO2 SLP164 RAB00E22DZB22E30 TSE16 P0000 60000 T02830217 56023 $=
201705202017 SPECI KATL 202017Z 16007KT 10SM -RA FEW035 SCT085 BKN110 BKN250 27/21 A3004 RMK AO2 RAB00 TSE16 TS MOV N P0000 T02720211 $=
201705201952 METAR KATL 201952Z 13009KT 10SM VCTS FEW036 SCT045CB BKN085 BKN250 28/20 A3005 RMK AO2 SLP164 TSB38 OCNL LTGICCG VC SW-W TS VC SW-W MOV NW T02830200=
201705201942 SPECI KATL 201942Z 14009G18KT 10SM VCTS SCT030CB SCT045 BKN250 29/20 A3006 RMK AO2 TSB38 OCNL LTGICCG VC S-SW TS VC S-SW MOV N T02890200=
201705201852 METAR KATL 201852Z 15009KT 10SM SCT032 SCT045 BKN250 29/20 A3008 RMK AO2 LTG DSNT S AND SW SLP174 CB DSNT S AND SW MDT CU W T02940200=
201705201752 METAR KATL 201752Z 15009KT 10SM SCT030 BKN045 BKN250 28/21 A3011 RMK AO2 SLP186 MDT CU OHD AND SE-SW T02830206 10289 20217 58001=
201705201652 METAR KATL 201652Z 14007KT 10SM SCT027 BKN045 BKN200 BKN250 28/21 A3013 RMK AO2 SLP191 MDT CU S SHRA DSNT S T02830206=
201705201552 METAR KATL 201552Z 14007KT 10SM SCT022 SCT200 SCT250 27/21 A3013 RMK AO2 SLP192 T02720206=
201705201452 METAR KATL 201452Z 16008KT 10SM SCT020 SCT200 SCT250 27/21 A3012 RMK AO2 SLP187 T02670206 55002=
201705201352 METAR KATL 201352Z 10006KT 10SM FEW015 SCT200 SCT250 25/21 A3011 RMK AO2 SLP186 T02500206=
201705201252 METAR KATL 201252Z 14004KT 10SM FEW009 FEW150 FEW250 23/20 A3012 RMK AO2 SLP189 T02330200=
201705201205 SPECI KATL 201205Z 15006KT 10SM FEW008 FEW150 FEW250 22/19 A3012 RMK AO2 T02170194=
201705201152 METAR KATL 201152Z 14006KT 10SM FEW010 FEW150 SCT250 22/19 A3012 RMK AO2 SLP189 T02170189 10239 20206 53010=
201705201052 METAR KATL 201052Z 14003KT 10SM FEW150 SCT200 SCT250 21/18 A3011 RMK AO2 SLP186 T02060178=
201705200952 METAR KATL 200952Z 16005KT 10SM FEW150 SCT200 SCT250 21/17 A3010 RMK AO2 SLP182 T02060172=
201705200852 METAR KATL 200852Z 14005KT 10SM FEW120 SCT200 SCT250 22/17 A3009 RMK AO2 SLP179 T02170167 53002=
201705200752 METAR KATL 200752Z 00000KT 10SM FEW200 22/16 A3009 RMK AO2 SLP177 T02220161=
201705200652 METAR KATL 200652Z 14003KT 10SM CLR 23/16 A3008 RMK AO2 SLP174 T02280161=
201705200552 METAR KATL 200552Z 13003KT 10SM FEW200 24/16 A3009 RMK AO2 SLP177 T02390161 10300 20239 58002=
201705200452 METAR KATL 200452Z 14004KT 10SM FEW200 24/17 A3009 RMK AO2 SLP178 T02440167 403220211=
201705200352 METAR KATL 200352Z 17005KT 10SM FEW250 25/17 A3010 RMK AO2 SLP180 T02500172=
201705200252 METAR KATL 200252Z 16005KT 10SM FEW250 26/18 A3009 RMK AO2 SLP178 T02610178 53018=
201705200152 METAR KATL 200152Z 17007KT 10SM FEW090 FEW250 27/18 A3007 RMK AO2 SLP171 T02720178=
201705200052 METAR KATL 200052Z 18006KT 10SM FEW090 FEW250 28/18 A3006 RMK AO2 SLP167 T02780178=
201705192352 METAR KATL 192352Z 15007KT 10SM FEW090 FEW250 30/16 A3004 RMK AO2 SLP160 T03000161 10322 20294 55002=
201705192252 METAR KATL 192252Z 19008KT 10SM FEW055 SCT090 SCT250 31/16 A3003 RMK AO2 SLP159 T03060161=
201705192152 METAR KATL 192152Z 16008KT 10SM SCT060 SCT250 31/16 A3003 RMK AO2 SLP159 TCU NW T03060161=
201705192052 METAR KATL 192052Z 20007KT 160V220 10SM SCT060 SCT250 31/16 A3004 RMK AO2 SLP162 TCU DSNT W SHRA DSNT W T03110161 58016=
201705191952 METAR KATL 191952Z 20008KT 150V230 10SM SCT055 SCT100 SCT250 32/17 A3006 RMK AO2 SLP167 MDT CU ALQDS T03170167=
201705191852 METAR KATL 191852Z VRB05KT 10SM SCT050 BKN250 31/18 A3008 RMK AO2 SLP173 MDT CU OHD-W T03110178=
201705191752 METAR KATL 191752Z 00000KT 10SM SCT047 SCT250 30/18 A3009 RMK AO2 SLP178 T03000178 10306 20217 58014=
201705191652 METAR KATL 191652Z VRB05KT 10SM FEW045 FEW250 29/18 A3011 RMK AO2 SLP185 T02940183=
201705191552 METAR KATL 191552Z 00000KT 10SM FEW040 FEW120 FEW250 29/18 A3013 RMK AO2 SLP191 T02890183=
201705191452 METAR KATL 191452Z 00000KT 10SM FEW120 FEW250 26/17 A3013 RMK AO2 SLP193 T02560172 56008=
201705191352 METAR KATL 191352Z 18007KT 10SM FEW120 FEW250 25/17 A3014 RMK AO2 SLP195 T02500172=
201705191252 METAR KATL 191252Z 16006KT 10SM FEW095 SCT110 SCT200 BKN250 23/17 A3014 RMK AO2 SLP197 ACC W-NW T02280172=
201705191152 METAR KATL 191152Z 14006KT 10SM BKN100 BKN200 BKN250 22/17 A3016 RMK AO2 SLP202 ACC SW & DSNT S & NW T02170167 10250 20211 51019=
201705191052 METAR KATL 191052Z 15004KT 10SM SCT100 SCT200 BKN250 22/17 A3014 RMK AO2 SLP195 ACC W & DSNT NW-N T02170167=
201705190952 METAR KATL 190952Z 14005KT 10SM FEW100 SCT200 BKN250 22/17 A3012 RMK AO2 SLP187 T02220172=
201705190852 METAR KATL 190852Z 14004KT 10SM FEW100 BKN200 BKN250 23/17 A3010 RMK AO2 SLP181 T02280172 53009=
201705190752 METAR KATL 190752Z 17009KT 10SM SCT100 BKN200 BKN250 23/17 A3008 RMK AO2 SLP175 T02330172=
201705190652 METAR KATL 190652Z 17010KT 10SM BKN100 BKN200 BKN250 24/17 A3008 RMK AO2 SLP174 T02440172=
201705190552 METAR KATL 190552Z 17013KT 10SM FEW075 SCT110 BKN200 BKN250 25/18 A3007 RMK AO2 SLP172 ACC SW-NW T02500178 10289 20250 53004=
201705190452 METAR KATL 190452Z 13004KT 10SM SCT070 BKN200 BKN250 26/18 A3006 RMK AO2 SLP168 T02610183 403170228=
201705190352 METAR KATL 190352Z 14004KT 10SM OVC200 26/19 A3006 RMK AO2 SLP168 T02610189=
201705190252 METAR KATL 190252Z 14005KT 10SM BKN200 27/19 A3006 RMK AO2 SLP168 VIRGA E-OHD-W T02670189 58001=
201705190152 METAR KATL 190152Z 15004KT 9SM FEW100 SCT250 27/18 A3006 RMK AO2 SLP168 T02720183=
201705190052 METAR KATL 190052Z 17005KT 10SM FEW050 SCT100 SCT250 28/18 A3007 RMK AO2 SLP171 T02830178=
201705182352 METAR KATL 182352Z 19007KT 10SM FEW050 SCT100 BKN250 29/18 A3006 RMK AO2 SLP168 SHRA DSNT NW CB DSNT N-NE TCU DSNT SW & NW T02890178 10317 20289 55000=
201705182252 METAR KATL 182252Z 18006KT 10SM FEW050TCU SCT110 BKN200 30/17 A3005 RMK AO2 SLP164 CB DSNT N-NE TCU VC SW T03000172=
201705182152 METAR KATL 182152Z 19008KT 10SM FEW050 SCT090 BKN250 30/16 A3005 RMK AO2 LTG DSNT N SLP165 CB DSNT N-NE T03000161=
201705182052 METAR KATL 182052Z 19007KT 10SM FEW050TCU BKN100 BKN250 31/17 A3006 RMK AO2 SLP167 CB DSNT NE TCU NW-N & DSNT E & S SHRA NW T03110172 56017=
201705181952 METAR KATL 181952Z 17008KT 10SM FEW050TCU SCT100 SCT250 31/17 A3008 RMK AO2 SLP172 CB DSNT NE TCU N-NE & SE-S MDT CU ALQDS T03110172=
201705181852 METAR KATL 181852Z 20007KT 10SM SCT047TCU SCT250 30/18 A3009 RMK AO2 SLP176 TCU N-NE & E-SE-S T03000183=
201705181752 METAR KATL 181752Z 19005KT 10SM BKN045TCU BKN250 29/18 A3011 RMK AO2 SLP185 TCU ALQDS T02940183 10306 20228 58010=
201705181652 METAR KATL 181652Z VRB04KT 10SM BKN040TCU BKN050 BKN250 29/19 A3013 RMK AO2 SLP192 TCU NE-SE & OHD-SW-NW T02890189=
201705181552 METAR KATL 181552Z 19003KT 10SM SCT035 BKN250 28/19 A3014 RMK AO2 SLP196 T02780189=
201705181452 METAR KATL 181452Z VRB04KT 10SM FEW005 FEW030 SCT250 27/20 A3014 RMK AO2 SLP197 FU FEW005 T02670200 51006=
201705181352 METAR KATL 181352Z 15005KT 10SM FEW025 FEW250 25/20 A3014 RMK AO2 SLP196 T02500200=
201705181252 METAR KATL 181252Z 20008KT 10SM FEW024 FEW100 SCT250 24/19 A3014 RMK AO2 SLP194 T02390194=
201705181152 METAR KATL 181152Z 17009KT 10SM BKN095 BKN250 23/19 A3013 RMK AO2 SLP190 60000 T02280189 10256 20228 53015=
201705181052 METAR KATL 181052Z 16008KT 10SM BKN100 BKN250 23/18 A3010 RMK AO2 SLP183 T02280178=
201705180952 METAR KATL 180952Z 16007KT 10SM BKN100 BKN250 23/18 A3009 RMK AO2 SLP180 T02330178=
201705180852 METAR KATL 180852Z 15005KT 10SM FEW075 BKN100 BKN250 24/17 A3008 RMK AO2 SLP175 60000 T02390172 52002=
201705180752 METAR KATL 180752Z 17008KT 10SM FEW070 BKN085 BKN250 24/17 A3008 RMK AO2 SLP174 ACC NE-E T02390167=
201705180652 METAR KATL 180652Z 13006KT 10SM SCT070 OVC085 25/16 A3008 RMK AO2 SLP173 RAB27E37 ACC W-NW P0000 T02500161=
201705180552 METAR KATL 180552Z 16008KT 10SM OVC060 26/16 A3007 RMK AO2 SLP172 T02560161 10294 20256 53005=
201705180452 METAR KATL 180452Z 18007KT 10SM BKN080 26/16 A3007 RMK AO2 SLP171 T02560156 403170194=
201705180352 METAR KATL 180352Z 15006KT 10SM BKN080 26/16 A3006 RMK AO2 SLP169 T02610156=
201705180252 METAR KATL 180252Z 16006KT 10SM FEW080 SCT250 26/15 A3006 RMK AO2 SLP168 T02610150 53008=
201705180152 METAR KATL 180152Z 14006KT 10SM SCT200 BKN250 27/15 A3004 RMK AO2 SLP162 T02720150=
201705180052 METAR KATL 180052Z 15008KT 10SM FEW100 SCT200 BKN250 28/14 A3002 RMK AO2 SLP157 VIRGA DSNT S-SW T02780139=
201705172352 METAR KATL 172352Z 15007KT 10SM FEW150 SCT200 BKN250 29/11 A3004 RMK AO2 SLP161 VIRGA DSNT SW T02940111 10317 20294 56008=
201705172252 METAR KATL 172252Z 16011KT 10SM FEW075 SCT250 31/12 A3004 RMK AO2 SLP163 T03060122=
201705172152 METAR KATL 172152Z 19009KT 10SM FEW075 BKN250 31/13 A3005 RMK AO2 SLP166 T03060133=
201705172052 METAR KATL 172052Z 17010KT 10SM FEW075 FEW200 SCT250 31/13 A3006 RMK AO2 SLP168 T03110128 57014=
201705171952 METAR KATL 171952Z 18010G17KT 10SM FEW070 BKN200 BKN250 31/13 A3008 RMK AO2 SLP173 T03110133=
201705171852 METAR KATL 171852Z 19012G21KT 150V210 10SM SCT060 SCT250 31/13 A3009 RMK AO2 SLP178 T03110128=
201705171752 METAR KATL 171752Z 17011G17KT 10SM BKN055 BKN250 29/16 A3010 RMK AO2 SLP183 MDT CU ALQDS T02940156 10306 20200 58007=
201705171652 METAR KATL 171652Z 16010G15KT 10SM FEW045 FEW200 SCT250 29/17 A3012 RMK AO2 SLP188 T02890167=
201705171552 METAR KATL 171552Z 18005KT 10SM FEW035 FEW200 SCT250 27/18 A3013 RMK AO2 SLP191 T02720183=
201705171452 METAR KATL 171452Z 16007KT 10SM SCT250 26/18 A3013 RMK AO2 SLP190 T02610183 51012=
201705171352 METAR KATL 171352Z 19006KT 10SM FEW250 24/18 A3012 RMK AO2 SLP190 T02390183=
201705171252 METAR KATL 171252Z 17009KT 10SM FEW200 FEW250 22/17 A3011 RMK AO2 SLP187 T02170172=
201705171152 METAR KATL 171152Z 16005KT 10SM FEW200 20/16 A3009 RMK AO2 SLP179 T02000156 10239 20194 53014=
201705171052 METAR KATL 171052Z 14003KT 10SM FEW200 19/14 A3007 RMK AO2 SLP172 T01940144=
201705170952 METAR KATL 170952Z 17007KT 10SM CLR 21/14 A3005 RMK AO2 SLP166 T02060144=
201705170852 METAR KATL 170852Z 18007KT 10SM CLR 21/14 A3005 RMK AO2 SLP164 T02110139 53001=
201705170752 METAR KATL 170752Z 17009KT 10SM CLR 22/13 A3004 RMK AO2 SLP160 T02220133=
201705170652 METAR KATL 170652Z 17010KT 10SM CLR 23/13 A3004 RMK AO2 SLP160 T02330133=
201705170552 METAR KATL 170552Z 15004KT 10SM CLR 24/14 A3004 RMK AO2 SLP163 T02390139 10300 20239 58007=
201705170452 METAR KATL 170452Z 14004KT 10SM FEW250 24/14 A3005 RMK AO2 SLP165 T02440139 403220189=
201705170352 METAR KATL 170352Z 15005KT 10SM FEW250 25/14 A3006 RMK AO2 SLP169 T02500139=
201705170252 METAR KATL 170252Z 15006KT 10SM FEW200 26/14 A3007 RMK AO2 SLP169 T02610144 53007=
201705170152 METAR KATL 170152Z 16006KT 10SM FEW200 27/15 A3005 RMK AO2 SLP165 T02670150=
201705170052 METAR KATL 170052Z 17003KT 10SM FEW200 28/14 A3005 RMK AO2 SLP164 T02830144=
201705162352 METAR KATL 162352Z 16008KT 10SM FEW250 30/14 A3004 RMK AO2 SLP164 T03000139 10322 20300 53001=
201705162252 METAR KATL 162252Z 18009KT 10SM SCT250 31/13 A3004 RMK AO2 SLP162 T03110128=
201705162152 METAR KATL 162152Z 18009KT 10SM FEW080 BKN250 31/13 A3004 RMK AO2 SLP161 T03110128=
201705162052 METAR KATL 162052Z 19007KT 10SM FEW080 SCT250 32/12 A3004 RMK AO2 SLP162 T03170122 56013=
201705161952 METAR KATL 161952Z 18006KT 10SM FEW080 FEW250 31/13 A3005 RMK AO2 SLP165 T03110128=
201705161852 METAR KATL 161852Z 24008G15KT 10SM FEW070 FEW250 31/14 A3007 RMK AO2 SLP170 T03110139=
201705161752 METAR KATL 161752Z 10SM FEW065 FEW250 30/14 A3008 RMK AO2 SLP176 T03000144 10306 20211 58006=
201705161652 METAR KATL 161652Z 19009G14KT 150V250 10SM FEW065 FEW250 30/14 A3009 RMK AO2 SLP179 T03000144=
201705161552 METAR KATL 161552Z 22004KT 10SM FEW060 FEW250 29/14 A3010 RMK AO2 SLP183 T02890144=
201705161452 METAR KATL 161452Z 22005KT 10SM FEW250 29/15 A3010 RMK AO2 SLP182 T02890150 50006=
201705161352 METAR KATL 161352Z 00000KT 10SM FEW250 27/16 A3010 RMK AO2 SLP182 T02720161=
201705161252 METAR KATL 161252Z 00000KT 10SM CLR 24/16 A3009 RMK AO2 SLP180 T02440161=
201705161152 METAR KATL 161152Z 28003KT 10SM FEW200 21/17 A3008 RMK AO2 SLP177 T02110167 10217 20189 52018=
201705161052 METAR KATL 161052Z 00000KT 10SM FEW200 19/15 A3006 RMK AO2 SLP171 T01890150=
201705160952 METAR KATL 160952Z 29003KT 10SM CLR 19/16 A3005 RMK AO2 SLP165 T01890156=
201705160852 METAR KATL 160852Z 31003KT 10SM CLR 19/16 A3003 RMK AO2 SLP158 T01940156 53001=
201705160752 METAR KATL 160752Z 00000KT 10SM CLR 21/16 A3002 RMK AO2 SLP155 T02060156=
201705160652 METAR KATL 160652Z 00000KT 10SM CLR 21/16 A3001 RMK AO2 SLP152 T02060156=
201705160552 METAR KATL 160552Z 22003KT 10SM CLR 21/16 A3003 RMK AO2 SLP157 T02060156 10278 20206 50002=
201705160452 METAR KATL 160452Z 00000KT 10SM CLR 23/16 A3003 RMK AO2 SLP158 T02280156 403110172=
201705160352 METAR KATL 160352Z 00000KT 10SM CLR 24/15 A3002 RMK AO2 SLP156 T02390150=
201705160252 METAR KATL 160252Z 28003KT 10SM CLR 24/15 A3002 RMK AO2 SLP155 T02440150 53010=
201705160152 METAR KATL 160152Z 31006KT 10SM CLR 25/14 A3001 RMK AO2 SLP152 T02500144=
201705160052 METAR KATL 160052Z 27006KT 10SM FEW070 26/13 A3000 RMK AO2 SLP148 T02560128=
201705152352 METAR KATL 152352Z 28007KT 10SM FEW070 28/13 A2999 RMK AO2 SLP145 T02830128 10311 20283 53007=
201705152252 METAR KATL 152252Z 31008KT 10SM FEW070 29/13 A2998 RMK AO2 SLP141 T02940128=
201705152152 METAR KATL 152152Z VRB05KT 10SM FEW070 30/13 A2997 RMK AO2 SLP139 T03000133=
201705152052 METAR KATL 152052Z VRB04KT 10SM FEW070 31/13 A2996 RMK AO2 SLP138 T03060128 56019=
201705151952 METAR KATL 151952Z VRB05KT 10SM FEW070 30/13 A2998 RMK AO2 SLP143 T03000128=
201705151852 METAR KATL 151852Z 00000KT 10SM FEW070 31/14 A3000 RMK AO2 SLP148 T03060139=
201705151752 METAR KATL 151752Z VRB05KT 10SM FEW060 29/13 A3002 RMK AO2 SLP156 T02940133 10294 20194 58013=
201705151652 METAR KATL 151652Z 00000KT 10SM FEW060 28/13 A3004 RMK AO2 SLP162 T02780128=
201705151552 METAR KATL 151552Z 27005KT 10SM FEW050 28/14 A3005 RMK AO2 SLP167 T02780139=
201705151452 METAR KATL 151452Z 31006KT 10SM FEW050 27/15 A3006 RMK AO2 SLP171 T02670150 51007=
201705151352 METAR KATL 151352Z VRB05KT 10SM CLR 26/16 A3006 RMK AO2 SLP168 T02560156=
201705151252 METAR KATL 151252Z 28005KT 10SM CLR 23/15 A3005 RMK AO2 SLP166 T02330150=
201705151152 METAR KATL 151152Z 28003KT 10SM CLR 19/15 A3004 RMK AO2 SLP163 T01940150 10200 20172 53015 $=
201705151052 METAR KATL 151052Z 28003KT 10SM CLR 18/13 A3002 RMK AO2 SLP156 T01780133=
201705150952 METAR KATL 150952Z 29003KT 10SM CLR 18/13 A3000 RMK AO2 SLP150 T01830133=
201705150852 METAR KATL 150852Z 29003KT 10SM CLR 18/13 A2999 RMK AO2 SLP148 T01780133 51001=
201705150752 METAR KATL 150752Z 29003KT 10SM CLR 18/13 A2999 RMK AO2 SLP148 T01780133=
201705150652 METAR KATL 150652Z 31005KT 10SM CLR 19/13 A3000 RMK AO2 SLP148 T01890133=
201705150552 METAR KATL 150552Z 23005KT 10SM CLR 20/13 A2999 RMK AO2 SLP147 T02000128 10267 20194 50002=
201705150452 METAR KATL 150452Z 23003KT 10SM CLR 19/13 A2999 RMK AO2 SLP148 T01940133 402830156=
201705150352 METAR KATL 150352Z 26003KT 10SM CLR 21/13 A2999 RMK AO2 SLP146 T02060128=
201705150252 METAR KATL 150252Z 18003KT 10SM CLR 22/13 A2999 RMK AO2 SLP145 T02220128 53011=
201705150152 METAR KATL 150152Z 17003KT 10SM CLR 24/12 A2996 RMK AO2 SLP138 T02390117=
201705150052 METAR KATL 150052Z 16004KT 10SM CLR 25/12 A2996 RMK AO2 SLP136 T02500117=
201705142352 METAR KATL 142352Z 00000KT 10SM CLR 27/11 A2995 RMK AO2 SLP134 T02670111 10283 20250 55006=
201705142252 METAR KATL 142252Z VRB05KT 10SM CLR 28/09 A2995 RMK AO2 SLP134 T02780094=
201705142152 METAR KATL 142152Z 09005KT 10SM FEW070 28/10 A2996 RMK AO2 SLP136 T02780100=
201705142052 METAR KATL 142052Z 00000KT 10SM CLR 28/11 A2997 RMK AO2 SLP141 T02830111 58016=
201705141952 METAR KATL 141952Z 17004KT 10SM FEW060 27/09 A2999 RMK AO2 SLP146 T02720094=
201705141852 METAR KATL 141852Z VRB03KT 10SM FEW060 27/12 A3001 RMK AO2 SLP152 T02720117=
201705141752 METAR KATL 141752Z VRB05KT 10SM FEW055 25/11 A3002 RMK AO2 SLP158 T02500106 10256 20178 58005=
201705141652 METAR KATL 141652Z 00000KT 10SM FEW050 24/11 A3003 RMK AO2 SLP160 T02440111=
201705141552 METAR KATL 141552Z 08004KT 10SM CLR 23/11 A3003 RMK AO2 SLP163 T02330106=
201705141452 METAR KATL 141452Z 08007KT 10SM CLR 22/11 A3003 RMK AO2 SLP163 T02220106 51019=
201705141352 METAR KATL 141352Z 08010KT 10SM CLR 21/11 A3003 RMK AO2 SLP162 T02110106=
201705141252 METAR KATL 141252Z 08008KT 10SM CLR 19/13 A3000 RMK AO2 SLP153 T01940133=
201705141152 METAR KATL 141152Z 05009KT 10SM CLR 18/15 A2998 RMK AO2 SLP144 T01780150 10183 20156 53021=
201705141052 METAR KATL 141052Z 05006KT 10SM CLR 17/16 A2995 RMK AO2 SLP133 T01720161=
201705140952 METAR KATL 140952Z 05006KT 10SM CLR 17/15 A2993 RMK AO2 SLP127 T01670150=
201705140852 METAR KATL 140852Z 03004KT 10SM CLR 17/14 A2991 RMK AO2 SLP122 T01670139 53007=
201705140752 METAR KATL 140752Z 05005KT 10SM CLR 17/13 A2990 RMK AO2 SLP117 T01720133=
201705140652 METAR KATL 140652Z 01004KT 10SM FEW018 SCT050 18/12 A2989 RMK AO2 SLP114 T01780117=
201705140649 SPECI KATL 140649Z VRB03KT 10SM FEW018 SCT050 17/12 A2989 RMK AO2=
201705140602 SPECI KATL 140602Z 01006KT 10SM BKN018 BKN050 18/12 A2989 RMK AO2 T01830117=
201705140552 METAR KATL 140552Z 01005KT 10SM FEW028 SCT050 17/12 A2989 RMK AO2 SLP114 T01720117 10233 20172 51014=
201705140452 METAR KATL 140452Z 35004KT 10SM FEW028 FEW050 FEW250 18/12 A2988 RMK AO2 SLP112 T01830117 402610172=
201705140352 METAR KATL 140352Z 01008KT 10SM FEW048 FEW100 SCT250 19/12 A2986 RMK AO2 SLP106 T01940117=
201705140252 METAR KATL 140252Z 35007KT 10SM FEW040TCU FEW110 SCT250 20/13 A2985 RMK AO2 SLP100 TCU NE-E T02000128 51020=
201705140152 METAR KATL 140152Z 34007KT 10SM FEW040TCU FEW075 FEW120 SCT200 21/13 A2983 RMK AO2 SLP095 TCU E T02060133=
201705140052 METAR KATL 140052Z 33009KT 10SM FEW034 FEW065 SCT120 SCT200 22/14 A2982 RMK AO2 SLP091 TCU DSNT SE-S MDT CU N-NE T02170139=
201705132352 METAR KATL 132352Z 34011KT 10SM FEW036 FEW075 SCT110 SCT200 23/14 A2979 RMK AO2 LTG DSNT NE AND E SLP080 CB DSNT NE-E TCU DSNT N & E-S 60000 T02330144 10261 20222 53007=
201705132252 METAR KATL 132252Z 33009KT 10SM SCT036TCU SCT070 SCT110 SCT200 24/17 A2977 RMK AO2 SLP072 TCU NE-E & SW & DSNT N-E-S T02440172=
201705132152 METAR KATL 132152Z 35005KT 10SM FEW032TCU SCT075 SCT110 SCT200 24/18 A2976 RMK AO2 RAE17 SLP069 TCU S-SW & DSNT NE-SE P0000 T02440183=
201705132052 METAR KATL 132052Z 05013KT 10SM -RA BKN035 BKN070 BKN100 22/17 A2977 RMK AO2 RAB1953E04B27E36B39 TSB14E33 SLP073 TS DSPTD CB DSNT N P0000 60000 T02220172 55003=
201705132038 SPECI KATL 132038Z 04013KT 10SM FEW035 BKN100 23/17 A2976 RMK AO2 RAB1953E04B27E36 TSB14E33 TS DSPTD P0000 T02330172=
201705132019 SPECI KATL 132019Z 33009KT 10SM TS SCT040CB SCT080 BKN250 25/16 A2976 RMK AO2 RAB1953E04 TSB14 OCNL LTGCG NE TS NE MOV S TCU DSNT SW P0000 T02500161=
201705131952 METAR KATL 131952Z 34010G18KT 10SM VCTS SCT041 BKN100 BKN250 25/17 A2976 RMK AO2 LTG DSNT NE SLP070 CB DSNT NE T02500167=
201705131852 METAR KATL 131852Z 26003KT 10SM BKN040 BKN070 25/15 A2977 RMK AO2 SLP072 T02500150=
201705131752 METAR KATL 131752Z 10SM SCT034 BKN055 BKN250 25/16 A2977 RMK AO2 SLP074 T02500156 10250 20178 58004=
201705131652 METAR KATL 131652Z 31003KT 10SM SCT028 BKN055 BKN160 23/16 A2980 RMK AO2 SLP083 T02280161=
201705131633 SPECI KATL 131633Z 00000KT 10SM BKN028 BKN038 BKN150 22/16 A2980 RMK AO2 T02170156=
201705131552 METAR KATL 131552Z 36006KT 10SM SCT022 BKN150 BKN250 22/16 A2980 RMK AO2 SLP084 T02170161=
201705131452 METAR KATL 131452Z 04006KT 10SM FEW020 BKN090 BKN160 21/17 A2979 RMK AO2 SLP080 T02110167 55001=
201705131352 METAR KATL 131352Z 05006KT 10SM FEW015 SCT023 BKN160 BKN250 19/16 A2978 RMK AO2 SLP078 T01940156=
201705131252 METAR KATL 131252Z 00000KT 10SM FEW016 BKN060 BKN130 BKN180 18/16 A2978 RMK AO2 SLP077 CB DSNT SE-S SHRA DSNT SE-S T01830161=
201705131206 SPECI KATL 131206Z 00000KT 10SM SCT016 BKN050 BKN130 BKN180 BKN250 18/16 A2979 RMK AO2 CB DSNT SE-SW T01780161=
201705131152 METAR KATL 131152Z 21004KT 10SM SCT050 BKN130 BKN180 BKN250 18/16 A2979 RMK AO2 SLP081 CB DSNT SE-SW 60002 70018 T01780161 10194 20172 53008=
201705131052 METAR KATL 131052Z 00000KT 10SM FEW030 SCT050 BKN070 BKN250 17/16 A2977 RMK AO2 SLP074 T01720161=
201705130952 METAR KATL 130952Z 00000KT 10SM FEW031 SCT070 BKN130 BKN250 17/16 A2977 RMK AO2 SLP073 T01720161=
201705130852 METAR KATL 130852Z 00000KT 10SM SCT037 SCT070 BKN130 18/16 A2976 RMK AO2 RAB0759E26 SLP070 P0002 60002 T01780161 56007=
201705130752 METAR KATL 130752Z 27008KT 10SM BKN055 BKN070 19/15 A2977 RMK AO2 SLP071 T01890150=
201705130652 METAR KATL 130652Z 28005KT 10SM FEW034 BKN070 BKN100 19/14 A2978 RMK AO2 SLP074 T01890144=
201705130552 METAR KATL 130552Z 21005KT 10SM FEW034 SCT044 BKN100 BKN250 19/17 A2979 RMK AO2 SLP078 T01890167 10228 20189 55001=
201705130452 METAR KATL 130452Z 22006KT 10SM BKN110 BKN250 19/17 A2978 RMK AO2 SLP076 T01940172 402780178=
201705130352 METAR KATL 130352Z 00000KT 10SM SCT100 BKN200 BKN250 20/17 A2978 RMK AO2 SLP076 T02000167=
201705130252 METAR KATL 130252Z 00000KT 10SM FEW110 SCT200 BKN250 19/17 A2979 RMK AO2 SLP080 T01940167 52004=
201705130152 METAR KATL 130152Z 00000KT 10SM FEW040 SCT110 BKN200 21/15 A2979 RMK AO2 SLP080 T02110150=
201705130052 METAR KATL 130052Z 34004KT 10SM FEW040 BKN110 BKN250 21/16 A2978 RMK AO2 SLP077 T02110156=
201705122352 METAR KATL 122352Z 33005KT 10SM FEW035TCU SCT110 BKN200 OVC250 21/17 A2978 RMK AO2 RAE2257 SLP076 TCU NW & VC SE P0000 60016 T02110167 10278 20206 51002=
201705122252 METAR KATL 122252Z 30007KT 9SM -RA SCT035CB BKN060 BKN150 OVC200 21/17 A2978 RMK AO2 WSHFT 2227 LTG DSNT NE RAB37 SLP076 VIS LWR NE CB NE MOV NE P0016 T02060172=
201705122247 SPECI KATL 122247Z 33009G18KT 2SM R09R/2600VP6000FT +RA SCT035CB BKN060 BKN150 OVC200 21/17 A2978 RMK AO2 WSHFT 2227 LTG DSNT N AND NE RAB37 CB OHD-NE MOV NE P0016=
201705122152 METAR KATL 122152Z 21012G17KT 10SM SCT045TCU BKN100 OVC200 26/16 A2977 RMK AO2 LTG DSNT N AND NW SLP073 CB DSNT NW-N-NE TCU W-NW T02610161=
201705122052 METAR KATL 122052Z 24010KT 10SM FEW050TCU SCT100 OVC200 27/16 A2978 RMK AO2 LTG DSNT NW SLP075 CB DSNT W-NW-N TCU S-SW-W T02670156 56019=
201705121952 METAR KATL 121952Z 22012G16KT 10SM SCT050 SCT075 BKN200 OVC250 28/16 A2978 RMK AO2 SLP076 T02780156=
201705121852 METAR KATL 121852Z 25012G16KT 10SM SCT048 SCT080 BKN200 28/14 A2980 RMK AO2 SLP081 T02780144=
201705121752 METAR KATL 121752Z 25010KT 10SM BKN043 BKN055 BKN200 27/16 A2983 RMK AO2 SLP093 T02670161 10272 20194 58008=
201705121652 METAR KATL 121652Z 22008G17KT 10SM FEW038 SCT100 SCT250 26/16 A2985 RMK AO2 SLP098 ACC NE & SE-S & NW T02610161=
201705121552 METAR KATL 121552Z 26008KT 10SM SCT025 SCT100 BKN250 25/17 A2987 RMK AO2 SLP104 ACC NE & W T02500167=
201705121452 METAR KATL 121452Z 23008KT 10SM FEW020 SCT100 BKN180 BKN250 23/18 A2986 RMK AO2 SLP102 ACC NE-SE & SW-NW T02280178 58002=
201705121352 METAR KATL 121352Z 27008KT 10SM FEW015 SCT100 BKN180 BKN250 22/18 A2986 RMK AO2 SLP103 VIRGA NW-N-NE ACC SE-SW T02170178=
201705121252 METAR KATL 121252Z 24007KT 9SM FEW095 FEW150 SCT200 BKN250 20/18 A2988 RMK AO2 SLP108 VIRGA N ACC E & W T02000178=
201705121152 METAR KATL 121152Z 24005KT 10SM FEW150 BKN200 BKN250 19/18 A2986 RMK AO2 SLP103 VIRGA NW ACC E & S T01940178 10211 20178 55003=
201705121052 METAR KATL 121052Z 28005KT 9SM FEW150 BKN200 BKN250 18/17 A2986 RMK AO2 SLP101 T01830172=
201705120952 METAR KATL 120952Z 31006KT 10SM FEW160 SCT200 BKN250 19/17 A2986 RMK AO2 SLP101 T01890172=
201705120852 METAR KATL 120852Z 24004KT 10SM FEW170 SCT250 19/17 A2987 RMK AO2 SLP107 T01890172 56014=
201705120752 METAR KATL 120752Z 25004KT 10SM SCT180 BKN250 19/17 A2988 RMK AO2 SLP107 T01940172=
201705120652 METAR KATL 120652Z 26008KT 10SM FEW150 SCT200 BKN250 20/18 A2990 RMK AO2 SLP116 T02000178=
201705120552 METAR KATL 120552Z 26008KT 10SM FEW150 BKN200 BKN250 21/18 A2992 RMK AO2 SLP120 T02110178 10267 20211 51004=
201705120452 METAR KATL 120452Z 26007KT 10SM BKN200 BKN250 22/18 A2992 RMK AO2 SLP120 T02170178 403000183=
201705120352 METAR KATL 120352Z 27008KT 10SM BKN250 22/18 A2992 RMK AO2 SLP121 T02220178=
201705120252 METAR KATL 120252Z 23009KT 10SM FEW150 BKN250 23/17 A2990 RMK AO2 SLP117 T02280172 55000=
201705120152 METAR KATL 120152Z 24008KT 10SM FEW200 BKN250 24/16 A2990 RMK AO2 SLP114 T02390161=
201705120052 METAR KATL 120052Z 25008KT 10SM FEW200 SCT250 25/16 A2990 RMK AO2 SLP115 T02500161=
201705112352 METAR KATL 112352Z 25010G19KT 10SM FEW060 SCT200 BKN250 27/16 A2990 RMK AO2 SLP117 T02670156 10300 20267 53003=
201705112252 METAR KATL 112252Z 27009KT 10SM FEW150 SCT200 BKN250 28/14 A2989 RMK AO2 SLP112 T02830139=
201705112152 METAR KATL 112152Z 27009KT 10SM FEW150 SCT200 BKN250 29/14 A2990 RMK AO2 SLP115 VIRGA NW-NE ACC NE T02940144=
201705112052 METAR KATL 112052Z 25012G18KT 10SM FEW150 SCT180 BKN250 30/14 A2990 RMK AO2 SLP114 VIRGA DSNT NW ACC DSNT NE-SE T03000144 58022=
201705111952 METAR KATL 111952Z 28009KT 10SM BKN150 BKN180 BKN250 28/15 A2993 RMK AO2 SLP124 VIRGA DSNT W-NW-N T02830150=
201705111852 METAR KATL 111852Z 25009KT 10SM FEW150 BKN180 BKN250 28/15 A2994 RMK AO2 SLP129 T02830150=
201705111752 METAR KATL 111752Z 24009KT 10SM FEW150 SCT180 BKN250 29/16 A2996 RMK AO2 SLP135 T02890156 10294 20200 58018=
201705111652 METAR KATL 111652Z 29011G17KT 10SM FEW150 SCT250 28/16 A2999 RMK AO2 SLP145 T02830156=
201705111552 METAR KATL 111552Z 29008G15KT 260V330 10SM FEW045 FEW150 SCT250 27/17 A3001 RMK AO2 SLP151 T02670167=
201705111452 METAR KATL 111452Z 29007KT 10SM FEW150 FEW200 BKN250 26/17 A3002 RMK AO2 SLP155 T02560172 58006=
201705111352 METAR KATL 111352Z 29012KT 10SM FEW150 SCT200 BKN250 24/16 A3004 RMK AO2 SLP162 T02390161=
201705111252 METAR KATL 111252Z 29008KT 10SM FEW160 BKN200 BKN250 22/16 A3004 RMK AO2 SLP164 T02170161=
201705111152 METAR KATL 111152Z 32012KT 10SM SCT160 BKN200 BKN250 21/16 A3004 RMK AO2 PRESRR SLP162 ACC SE-SW T02060156 10228 20183 53010=
201705111052 METAR KATL 111052Z 27007KT 10SM FEW150 SCT200 BKN250 19/16 A3002 RMK AO2 SLP156 VIRGA NW-N ACC NW-NE T01890156=
201705110952 METAR KATL 110952Z 25005KT 10SM FEW200 SCT250 BKN300 19/16 A3000 RMK AO2 SLP150 T01890156=
201705110852 METAR KATL 110852Z 29005KT 10SM SCT250 BKN300 19/16 A3000 RMK AO2 SLP151 T01890156 55005=
201705110752 METAR KATL 110752Z 28006KT 10SM SCT250 BKN300 19/16 A3000 RMK AO2 SLP148 T01940156=
201705110652 METAR KATL 110652Z 27007KT 10SM FEW250 BKN300 21/16 A3001 RMK AO2 SLP151 T02110156=
201705110552 METAR KATL 110552Z 26012G16KT 10SM SCT250 23/16 A3002 RMK AO2 SLP155 T02280156 10272 20222 58006=
201705110452 METAR KATL 110452Z 24007KT 10SM FEW250 23/16 A3003 RMK AO2 SLP158 T02280156 403000167=
201705110352 METAR KATL 110352Z 26007KT 10SM FEW250 23/16 A3004 RMK AO2 SLP161 T02330156=
201705110252 METAR KATL 110252Z 25004KT 10SM FEW250 24/16 A3004 RMK AO2 SLP161 T02390156 53010=
201705110152 METAR KATL 110152Z 25005KT 10SM FEW250 26/15 A3002 RMK AO2 SLP157 T02560150=
201705110052 METAR KATL 110052Z 25005KT 10SM FEW250 26/15 A3001 RMK AO2 SLP154 T02610150=
201705102352 METAR KATL 102352Z 27007KT 10SM FEW250 27/14 A3001 RMK AO2 SLP152 T02720144 10300 20272 57005=
201705102252 METAR KATL 102252Z 27006KT 10SM FEW200 29/14 A3001 RMK AO2 SLP153 T02890139=
201705102152 METAR KATL 102152Z 27009KT 10SM FEW250 29/14 A3002 RMK AO2 SLP157 T02940144=
201705102052 METAR KATL 102052Z 29006KT 10SM FEW250 30/16 A3002 RMK AO2 SLP158 T03000156 56018=
201705101952 METAR KATL 101952Z 28010KT 10SM FEW060 FEW250 30/14 A3004 RMK AO2 SLP164 T03000144=
201705101852 METAR KATL 101852Z 28009G15KT 10SM FEW055 FEW250 29/16 A3006 RMK AO2 SLP169 T02890156=
201705101752 METAR KATL 101752Z 32009KT 10SM FEW050 FEW250 28/16 A3008 RMK AO2 SLP176 T02830156 10283 20189 58009=
201705101652 METAR KATL 101652Z 29009G14KT 10SM FEW050 FEW250 27/16 A3009 RMK AO2 SLP179 T02720156=
201705101552 METAR KATL 101552Z 28009KT 10SM FEW045 27/16 A3011 RMK AO2 SLP186 T02720161=
201705101452 METAR KATL 101452Z 33007KT 270V010 10SM FEW040 26/16 A3011 RMK AO2 SLP186 T02610161 51006=
201705101352 METAR KATL 101352Z 30007KT 10SM CLR 24/16 A3010 RMK AO2 SLP184 T02440161=
201705101252 METAR KATL 101252Z 29007KT 10SM CLR 22/15 A3010 RMK AO2 SLP185 T02170150=
201705101152 METAR KATL 101152Z 29004KT 10SM CLR 19/15 A3009 RMK AO2 SLP181 T01890150 10200 20167 53017=
201705101052 METAR KATL 101052Z 29004KT 10SM FEW250 17/13 A3007 RMK AO2 SLP175 T01720133=
201705100952 METAR KATL 100952Z 31003KT 10SM FEW250 17/13 A3005 RMK AO2 SLP167 T01720133=
201705100852 METAR KATL 100852Z 30005KT 10SM CLR 18/13 A3004 RMK AO2 SLP163 T01780133 53001 $=
201705100752 METAR KATL 100752Z 27005KT 10SM CLR 18/13 A3002 RMK AO2 SLP158 T01780128 $=
201705100652 METAR KATL 100652Z 28007KT 10SM CLR 19/13 A3002 RMK AO2 SLP156 T01890128=
201705100552 METAR KATL 100552Z 26005KT 10SM CLR 20/13 A3003 RMK AO2 SLP161 T02000128 10267 20200 50001=
201705100452 METAR KATL 100452Z 27007KT 10SM CLR 20/13 A3004 RMK AO2 SLP163 T02000128 402940144=
201705100352 METAR KATL 100352Z 27007KT 10SM CLR 21/12 A3003 RMK AO2 SLP161 T02110122=
201705100252 METAR KATL 100252Z 24004KT 10SM CLR 23/12 A3003 RMK AO2 SLP160 T02280122 52010=
201705100152 METAR KATL 100152Z 25004KT 10SM FEW250 23/12 A3002 RMK AO2 SLP156 T02330122=
201705100052 METAR KATL 100052Z 26006KT 10SM FEW250 25/11 A3001 RMK AO2 SLP154 T02500111=
201705092352 METAR KATL 092352Z 27009KT 10SM FEW250 27/10 A3000 RMK AO2 SLP150 T02670100 10294 20261 56006=
201705092252 METAR KATL 092252Z 27011KT 10SM FEW250 28/10 A3000 RMK AO2 SLP152 T02780100=
201705092152 METAR KATL 092152Z 25010KT 10SM FEW250 29/10 A3001 RMK AO2 SLP154 T02890100=
201705092052 METAR KATL 092052Z 28012G18KT 260V320 10SM FEW070 FEW250 29/12 A3002 RMK AO2 SLP157 T02940122 58020=
201705091952 METAR KATL 091952Z 27012G17KT 10SM FEW070 FEW250 29/12 A3004 RMK AO2 SLP163 T02890122=
201705091852 METAR KATL 091852Z 29009G17KT 10SM FEW070 FEW250 29/12 A3006 RMK AO2 SLP171 T02890122=
201705091752 METAR KATL 091752Z 27013KT 10SM FEW060 FEW250 28/12 A3008 RMK AO2 SLP177 T02830122 10283 20172 58008=
201705091652 METAR KATL 091652Z 26008KT 10SM FEW250 28/13 A3010 RMK AO2 SLP182 T02780128=
201705091552 METAR KATL 091552Z 30009KT 10SM FEW250 27/13 A3010 RMK AO2 SLP185 T02670133=
201705091452 METAR KATL 091452Z 31009KT 10SM FEW250 25/14 A3010 RMK AO2 SLP186 T02500139 51011=
201705091352 METAR KATL 091352Z 31006KT 10SM CLR 23/13 A3009 RMK AO2 SLP183 T02280128=
201705091252 METAR KATL 091252Z 27005KT 10SM CLR 21/12 A3008 RMK AO2 SLP180 T02060122=
201705091152 METAR KATL 091152Z 26004KT 10SM CLR 17/11 A3007 RMK AO2 SLP177 T01720106 10183 20144 53007=
201705091052 METAR KATL 091052Z 28006KT 10SM CLR 15/10 A3006 RMK AO2 SLP172 T01500100=
201705090952 METAR KATL 090952Z 29005KT 10SM FEW200 16/10 A3005 RMK AO2 SLP171 T01560100=
201705090852 METAR KATL 090852Z 29005KT 10SM FEW200 16/11 A3005 RMK AO2 SLP170 T01560106 55006=
201705090752 METAR KATL 090752Z 30003KT 10SM FEW200 17/10 A3005 RMK AO2 SLP168 T01720100=
201705090652 METAR KATL 090652Z 30004KT 10SM FEW200 18/09 A3005 RMK AO2 SLP170 T01780094=
201705090552 METAR KATL 090552Z 26004KT 10SM FEW200 18/10 A3007 RMK AO2 SLP175 T01780100 10239 20178 50002=
201705090452 METAR KATL 090452Z 30006KT 10SM FEW200 18/10 A3008 RMK AO2 SLP180 T01830100 402610100=
201705090352 METAR KATL 090352Z 28004KT 10SM CLR 19/09 A3007 RMK AO2 SLP175 T01940094=
201705090252 METAR KATL 090252Z 27005KT 10SM CLR 20/09 A3006 RMK AO2 SLP174 T02000094 53007=
201705090152 METAR KATL 090152Z 25003KT 10SM FEW250 21/09 A3005 RMK AO2 SLP171 T02060094=
201705090052 METAR KATL 090052Z 28003KT 10SM FEW250 23/08 A3005 RMK AO2 SLP170 T02280083=
201705082352 METAR KATL 082352Z 32010KT 10SM SCT250 24/07 A3004 RMK AO2 SLP168 T02390072 10261 20233 56004=
201705082252 METAR KATL 082252Z 33012KT 10SM FEW250 24/08 A3004 RMK AO2 SLP169 T02440078=
201705082152 METAR KATL 082152Z 31012G20KT 10SM FEW250 26/07 A3005 RMK AO2 SLP169 T02560067=
201705082052 METAR KATL 082052Z 34013G24KT 10SM FEW250 26/07 A3006 RMK AO2 SLP173 T02560067 56016=
201705081952 METAR KATL 081952Z 33010KT 10SM FEW250 25/07 A3007 RMK AO2 SLP178 T02500072=
201705081852 METAR KATL 081852Z 34012KT 10SM FEW065 24/08 A3008 RMK AO2 SLP182 T02440083=
201705081752 METAR KATL 081752Z 30013KT 10SM CLR 24/09 A3010 RMK AO2 SLP189 T02390089 10239 20122 58010=
201705081652 METAR KATL 081652Z 32007KT 10SM CLR 23/08 A3013 RMK AO2 SLP196 T02280078=
201705081552 METAR KATL 081552Z 35009G17KT 10SM CLR 22/07 A3013 RMK AO2 SLP200 T02170072=
201705081452 METAR KATL 081452Z 32011G15KT 10SM CLR 21/08 A3013 RMK AO2 SLP200 T02060078 53009=
201705081352 METAR KATL 081352Z 31008KT 10SM CLR 18/08 A3012 RMK AO2 SLP194 T01830078=
201705081252 METAR KATL 081252Z 33006KT 10SM CLR 15/07 A3011 RMK AO2 SLP193 T01500072=
201705081152 METAR KATL 081152Z 00000KT 10SM CLR 12/07 A3011 RMK AO2 SLP191 T01220072 10133 20100 53018=
201705081052 METAR KATL 081052Z 26003KT 10SM CLR 11/06 A3008 RMK AO2 SLP185 T01060061=
201705080952 METAR KATL 080952Z 28004KT 10SM CLR 11/06 A3006 RMK AO2 SLP177 T01110061=
201705080852 METAR KATL 080852Z 26004KT 10SM CLR 11/06 A3005 RMK AO2 SLP173 T01110061 53007=
201705080752 METAR KATL 080752Z 00000KT 10SM CLR 12/06 A3004 RMK AO2 SLP168 T01170061=
201705080652 METAR KATL 080652Z 31005KT 10SM CLR 12/07 A3003 RMK AO2 SLP167 T01170067=
201705080552 METAR KATL 080552Z 29007KT 10SM CLR 13/06 A3003 RMK AO2 SLP165 T01280061 10194 20122 52004=
201705080452 METAR KATL 080452Z 28005KT 10SM CLR 13/06 A3002 RMK AO2 SLP163 T01330056 402110100=
201705080352 METAR KATL 080352Z 29006KT 10SM CLR 13/06 A3002 RMK AO2 SLP163 T01330056=
201705080252 METAR KATL 080252Z 29006KT 10SM CLR 14/05 A3002 RMK AO2 SLP162 T01440050 53012=
201705080152 METAR KATL 080152Z 31008KT 10SM CLR 16/04 A3000 RMK AO2 SLP158 T01610044=
201705080052 METAR KATL 080052Z 31006KT 10SM CLR 17/04 A2999 RMK AO2 SLP153 T01720039=
201705072352 METAR KATL 072352Z 32009KT 10SM CLR 19/04 A2998 RMK AO2 SLP150 T01940039 10211 20189 55000=
201705072252 METAR KATL 072252Z 31010KT 10SM CLR 21/02 A2998 RMK AO2 SLP148 T02060022=
201705072152 METAR KATL 072152Z 33014G19KT 10SM CLR 21/02 A2998 RMK AO2 SLP148 T02110017=
201705072052 METAR KATL 072052Z 32009KT 280V350 10SM CLR 21/03 A2998 RMK AO2 SLP149 T02110028 58014=
201705071952 METAR KATL 071952Z 34013G21KT 10SM FEW250 21/M01 A3000 RMK AO2 SLP155 T02061011=
201705071852 METAR KATL 071852Z VRB06KT 10SM FEW250 19/00 A3001 RMK AO2 SLP160 T01940000=
201705071752 METAR KATL 071752Z 30012G17KT 10SM CLR 19/02 A3002 RMK AO2 SLP164 T01940017 10194 20117 58008=
201705071652 METAR KATL 071652Z 34012G19KT 10SM CLR 18/00 A3004 RMK AO2 SLP169 T01830000=
201705071552 METAR KATL 071552Z 30011KT 10SM CLR 17/01 A3005 RMK AO2 SLP173 T01720006=
201705071452 METAR KATL 071452Z 34011G18KT 10SM FEW040 FEW250 17/03 A3005 RMK AO2 SLP172 T01670033 51018=
201705071352 METAR KATL 071352Z 33013KT 10SM FEW025 SCT250 15/06 A3004 RMK AO2 SLP168 T01500056=
201705071252 METAR KATL 071252Z 34011KT 10SM FEW015 FEW080 FEW200 14/09 A3002 RMK AO2 SLP161 T01390089=
201705071152 METAR KATL 071152Z 31007KT 10SM FEW080 12/10 A2999 RMK AO2 SLP153 T01170100 10133 20100 53021=
201705071052 METAR KATL 071052Z 31005KT 10SM FEW080 10/09 A2996 RMK AO2 SLP142 T01000089=
201705070952 METAR KATL 070952Z 31005KT 10SM FEW080 11/08 A2993 RMK AO2 SLP133 T01060083=
201705070852 METAR KATL 070852Z 31005KT 10SM SCT070 11/08 A2993 RMK AO2 SLP132 T01110083 51005=
201705070752 METAR KATL 070752Z 32007KT 10SM SCT070 12/09 A2993 RMK AO2 SLP130 T01170089=
201705070652 METAR KATL 070652Z 34009KT 10SM BKN065 13/09 A2992 RMK AO2 SLP128 T01330089=
201705070552 METAR KATL 070552Z 32007KT 10SM BKN060 13/09 A2992 RMK AO2 SLP126 T01330094 10211 20133 51018=
201705070452 METAR KATL 070452Z 34010KT 10SM OVC055 14/09 A2990 RMK AO2 SLP121 T01390089 402280072=
201705070352 METAR KATL 070352Z 35012KT 10SM BKN065 OVC110 14/08 A2989 RMK AO2 SLP118 BINOVC T01440083=
201705070252 METAR KATL 070252Z 33012KT 10SM FEW026 SCT075 BKN120 BKN200 15/11 A2986 RMK AO2 SLP109 ACC NW-NE T01500106 51044=
201705070152 METAR KATL 070152Z 33013KT 10SM SCT075 BKN100 BKN200 17/12 A2982 RMK AO2 WSHFT 0056 SLP094 FROPA VIRGA NW-NE ACC W-N-NE T01670117=
201705070113 SPECI KATL 070113Z 35013KT 10SM BKN075 BKN100 BKN200 19/09 A2980 RMK AO2 WSHFT 0056 VIRGA W-N-NE ACC OHD-ALQDS FROPA T01890094=
201705070052 METAR KATL 070052Z 29009KT 10SM BKN075 BKN100 BKN200 20/07 A2978 RMK AO2 PRESRR SLP081 VIRGA NW-NE ACC E-OHD-W SHRA W T02000072=
201705062352 METAR KATL 062352Z 26012G20KT 10SM FEW060 BKN080 BKN200 21/06 A2973 RMK AO2 PK WND 27030/2253 SLP064 T02110061 10228 20200 55004=
201705062252 METAR KATL 062252Z 26016G28KT 10SM SCT060 BKN085 BKN200 22/06 A2972 RMK AO2 PK WND 26031/2225 SLP060 T02170056=
201705062152 METAR KATL 062152Z 25014G24KT 10SM FEW060 FEW200 22/06 A2972 RMK AO2 PK WND 23030/2128 SLP062 T02220061=
201705062052 METAR KATL 062052Z 25014G25KT 10SM FEW055 FEW250 22/06 A2974 RMK AO2 PK WND 24029/2037 SLP067 T02220061 58023=
201705061952 METAR KATL 061952Z 27014G26KT 10SM FEW055 FEW250 22/07 A2977 RMK AO2 PK WND 28027/1931 SLP077 T02170067=
201705061852 METAR KATL 061852Z 25012KT 10SM FEW060 FEW250 21/06 A2979 RMK AO2 SLP085 T02110061=
201705061752 METAR KATL 061752Z 27016G24KT 10SM FEW060 FEW250 21/04 A2981 RMK AO2 SLP091 T02060039 10206 20083 58015=
201705061652 METAR KATL 061652Z 28015G26KT 10SM FEW250 19/04 A2983 RMK AO2 PK WND 32026/1643 SLP098 T01890039=
201705061552 METAR KATL 061552Z 30018G26KT 10SM FEW045 FEW250 17/04 A2985 RMK AO2 PK WND 28026/1549 SLP105 T01670044=
201705061452 METAR KATL 061452Z 31015KT 10SM FEW030 FEW250 15/05 A2985 RMK AO2 SLP109 T01500050 51017=
201705061352 METAR KATL 061352Z 29013G20KT 10SM FEW020 13/07 A2985 RMK AO2 SLP107 T01280067=
201705061252 METAR KATL 061252Z 29012KT 10SM FEW009 FEW015 11/07 A2983 RMK AO2 SLP101 T01060072=
201705061152 METAR KATL 061152Z 28008KT 10SM FEW007 SCT012 08/07 A2980 RMK AO2 SLP093 70004 T00830072 10100 20072 52024=
201705061101 SPECI KATL 061101Z 27009KT 10SM FEW006 SCT012 SCT023 07/07 A2978 RMK AO2 T00720067=
201705061052 METAR KATL 061052Z 28008KT 10SM FEW006 SCT012 BKN023 08/07 A2978 RMK AO2 SLP084 T00780067=
201705061050 SPECI KATL 061050Z 28008KT 10SM FEW006 SCT012 BKN023 08/07 A2978 RMK AO2=
201705061037 SPECI KATL 061037Z 28008KT 10SM FEW006 BKN012 BKN023 08/07 A2976 RMK AO2 T00780067=
201705060952 METAR KATL 060952Z 30009KT 10SM FEW016 08/07 A2975 RMK AO2 SLP077 T00830067=
201705060852 METAR KATL 060852Z 29010KT 10SM FEW023 FEW032 09/06 A2973 RMK AO2 SLP068 T00890061 53004=
201705060752 METAR KATL 060752Z 31012G18KT 10SM SCT023 BKN030 09/07 A2972 RMK AO2 SLP065 T00940067=
201705060732 SPECI KATL 060732Z 31011KT 10SM SCT023 BKN031 09/07 A2972 RMK AO2 T00940067=
201705060652 METAR KATL 060652Z 30012KT 10SM BKN018 BKN028 10/07 A2972 RMK AO2 SLP063 T01000067=
201705060636 SPECI KATL 060636Z 30012G21KT 10SM BKN022 BKN030 10/07 A2972 RMK AO2 T01000067=
201705060552 METAR KATL 060552Z 30013KT 10SM SCT027 BKN039 09/07 A2972 RMK AO2 SLP063 60000 T00940067 10106 20094 51005=
201705060544 SPECI KATL 060544Z 30014KT 10SM BKN027 BKN032 BKN045 10/07 A2972 RMK AO2 T01000067=
201705060452 METAR KATL 060452Z 30016G22KT 10SM SCT024 BKN030 BKN045 10/06 A2971 RMK AO2 SLP062 T01000061 401330094=
201705060352 METAR KATL 060352Z 32015G23KT 10SM FEW016 SCT025 SCT200 09/06 A2971 RMK AO2 SLP061 T00940061=
201705060320 SPECI KATL 060320Z 30013G22KT 10SM FEW016 BKN025 BKN200 09/07 A2970 RMK AO2 T00940072=
201705060252 METAR KATL 060252Z 30017G22KT 10SM SCT020 SCT080 BKN200 09/07 A2970 RMK AO2 SLP058 60000 T00940072 51017=
201705060152 METAR KATL 060152Z 29011KT 10SM FEW014 SCT022 BKN060 BKN200 10/08 A2970 RMK AO2 RAE10 SLP057 P0000 T01000078=
201705060052 METAR KATL 060052Z 28009KT 10SM -RA FEW008 SCT015 BKN025 BKN200 11/09 A2968 RMK AO2 RAB52 SLP049 P0000 T01060089=
201705052352 METAR KATL 052352Z 27007G17KT 10SM FEW007 SCT014 BKN025 BKN200 10/09 A2965 RMK AO2 RAE40 SLP040 P0001 60003 T01000089 10128 20100 51004=
201705052252 METAR KATL 052252Z 26010G20KT 6SM -RA BR SCT013 BKN025 OVC050 11/09 A2964 RMK AO2 RAB43 SLP039 P0000 T01060089=
201705052152 METAR KATL 052152Z 24012G17KT 10SM SCT015 BKN022 OVC040 11/08 A2964 RMK AO2 DZE29 SLP036 P0000 T01110083=
201705052052 METAR KATL 052052Z 25013G19KT 10SM -DZ BKN016 BKN020 OVC040 11/09 A2963 RMK AO2 SLP034 DZE06B47 P0000 60002 T01110089 51010=
201705051952 METAR KATL 051952Z 26013G21KT 10SM -DZ BKN016 BKN025 OVC037 11/09 A2963 RMK AO2 SLP034 RAE1856B25E40DZB56E25B40 CIG 014V018 P0000 T01110089=
201705051914 SPECI KATL 051914Z 25012G23KT 10SM -DZ SCT012 BKN020 OVC040 12/09 A2962 RMK AO2 RAE1856DZB56 P0000 T01170094=
201705051852 METAR KATL 051852Z 27011G24KT 9SM -RA SCT010 BKN014 OVC040 12/10 A2962 RMK AO2 SLP030 P0002 T01170100=
201705051835 SPECI KATL 051835Z 24013G19KT 7SM -RA BKN012 BKN025 OVC035 12/10 A2962 RMK AO2 P0002 T01170100=
201705051752 METAR KATL 051752Z 24013G20KT 9SM -RA BKN020 BKN028 OVC050 12/08 A2960 RMK AO2 SLP023 DZB08E28 BINOVC P0000 60001 T01220083 10133 20094 53001=
201705051652 METAR KATL 051652Z 24011G19KT 10SM FEW020 BKN025 OVC030 12/08 A2960 RMK AO2 DZE06 SLP022 P0000 T01170083=
201705051552 METAR KATL 051552Z 25011KT 10SM -DZ FEW015 BKN020 OVC030 12/08 A2960 RMK AO2 RAB10E30DZB50 SLP021 P0000 T01170083=
201705051452 METAR KATL 051452Z 25011KT 10SM SCT009 BKN015 OVC020 11/09 A2960 RMK AO2 DZE49 SLP021 P0000 60001 T01060089 53003=
201705051431 SPECI KATL 051431Z 24009KT 4SM -DZ BR BKN006 BKN013 OVC020 10/09 A2959 RMK AO2 P0000 T01000089=
201705051354 SPECI KATL 051354Z 22007G16KT 2SM R09R/5500VP6000FT -DZ BR BKN006 BKN013 OVC020 10/09 A2959 RMK AO2 SFC VIS 4 P0000 T01000089=
201705051352 METAR KATL 051352Z 23009G16KT 2SM R09R/5500VP6000FT -DZ BR BKN009 BKN013 OVC018 10/09 A2959 RMK AO2 SFC VIS 4 DZE09B42RAB09E42 SLP016 P0001 T01000089=
201705051342 SPECI KATL 051342Z 22007KT 2SM R09R/5500VP6000FT -DZ BR BKN009 BKN013 OVC020 10/09 A2959 RMK AO2 SFC VIS 3 DZE09B42RAB09E42 P0001 T01000094=
201705051313 SPECI KATL 051313Z 22008KT 3SM -RA BR SCT009 BKN013 OVC015 09/09 A2959 RMK AO2 SFC VIS 4 DZE09RAB09 P0000 T00940089=
201705051308 SPECI KATL 051308Z 21007KT 3SM -DZ BR SCT009 OVC013 09/08 A2959 RMK AO2 P0000 T00940083=
201705051252 METAR KATL 051252Z 21007KT 7SM -DZ BKN013 OVC020 10/08 A2960 RMK AO2 RAB11E39DZB39 SLP019 CIG 010V016 P0000 T01000083=
201705051212 SPECI KATL 051212Z 22008KT 5SM -RA BR OVC013 09/08 A2960 RMK AO2 RAB11 CIG 010V016 P0000 T00940078=
201705051152 METAR KATL 051152Z 23007KT 10SM BKN013 OVC024 09/08 A2959 RMK AO2 SLP017 CIG 010V016 60000 70063 T00940078 10128 20094 53004=
201705051110 SPECI KATL 051110Z 26008KT 10SM SCT012 OVC022 09/07 A2957 RMK AO2 BINOVC T00940072=
201705051052 METAR KATL 051052Z 24007KT 10SM BKN012 BKN022 OVC040 09/08 A2957 RMK AO2 SLP008 CIG 010V014 BINOVC T00940078=
201705051011 SPECI KATL 051011Z 24008KT 10SM BKN012 OVC033 09/08 A2957 RMK AO2 T00940078=
201705050952 METAR KATL 050952Z 24011KT 10SM FEW010 SCT018 OVC034 09/08 A2957 RMK AO2 DZE14 SLP010 BINOVC P0000 T00940083=
201705050917 SPECI KATL 050917Z 24012G17KT 10SM BKN012 BKN022 OVC035 10/08 A2958 RMK AO2 DZE14 BINOVC P0000 T01000083=
201705050852 METAR KATL 050852Z 23010G16KT 8SM -DZ BKN008 BKN014 OVC022 11/09 A2958 RMK AO2 DZB38 SLP012 CIG 007V010 P0000 60000 T01060094 50000=
201705050849 SPECI KATL 050849Z 23010G16KT 7SM -DZ BKN008 BKN014 OVC022 11/09 A2958 RMK AO2 DZB38 CIG 007V010 P0000=
201705050815 SPECI KATL 050815Z 24010KT 10SM BKN012 BKN020 OVC042 11/09 A2958 RMK AO2 BINOVC T01060094=
201705050803 SPECI KATL 050803Z 24008KT 10SM FEW012 BKN020 BKN042 BKN200 11/09 A2958 RMK AO2 T01060089=
201705050752 METAR KATL 050752Z 23009KT 10SM FEW010 SCT018 BKN044 BKN200 11/09 A2958 RMK AO2 SLP013 T01060089=
201705050729 SPECI KATL 050729Z 24012G18KT 10SM FEW012 SCT017 OVC044 11/09 A2958 RMK AO2 T01110089=
201705050709 SPECI KATL 050709Z 24011KT 10SM BKN010 BKN021 OVC040 11/10 A2958 RMK AO2 CIG 008V012 T01110100=
201705050652 METAR KATL 050652Z 24011KT 10SM BKN008 BKN016 OVC040 12/11 A2958 RMK AO2 SLP014 CIG 007V010 T01170106=
201705050632 SPECI KATL 050632Z 25009G17KT 10SM BKN010 BKN015 OVC036 12/11 A2958 RMK AO2 T01220111=
201705050618 SPECI KATL 050618Z 25007KT 10SM BKN008 BKN013 OVC036 13/12 A2957 RMK AO2 T01280117=
201705050552 METAR KATL 050552Z 24007KT 10SM SCT008 BKN015 OVC043 12/12 A2958 RMK AO2 SLP012 BINOVC 60022 T01220117 10194 20122 58014=
201705050531 SPECI KATL 050531Z 25007KT 10SM FEW008 SCT015 BKN024 BKN200 12/12 A2958 RMK AO2 T01220117=
201705050452 METAR KATL 050452Z 25005KT 10SM SCT014 BKN020 BKN200 13/12 A2959 RMK AO2 SLP018 T01280117 402280128=
201705050352 METAR KATL 050352Z 26008KT 10SM FEW007 BKN030 BKN090 OVC200 14/12 A2961 RMK AO2 RAE44 SLP022 P0001 T01390122=
201705050335 SPECI KATL 050335Z 27014G22KT 9SM -RA SCT007 BKN015 OVC090 14/13 A2961 RMK AO2 P0001 T01440128=
201705050318 SPECI KATL 050318Z 00000KT 8SM -RA SCT012 BKN020 OVC090 16/15 A2960 RMK AO2 P0001 T01560150=
201705050252 METAR KATL 050252Z 26005KT 7SM -RA FEW007 SCT035 BKN090 OVC130 16/14 A2962 RMK AO2 SLP025 P0007 60021 T01560144 53002=
201705050152 METAR KATL 050152Z 26008KT 7SM -RA FEW007 SCT040 BKN055 OVC130 16/15 A2963 RMK AO2 WSHFT 0108 LTG DSNT N AND NE AND S SLP030 CB DSNT NE-SE P0014 T01610150=
201705050142 SPECI KATL 050142Z 27010KT 6SM -RA BR FEW007 SCT025 BKN050 OVC130 16/15 A2963 RMK AO2 WSHFT 0108 LTG DSNT S CB DSNT NE-SE P0013 T01610150=
201705050128 SPECI KATL 050128Z 26013G24KT 3SM RA BR SCT012CB BKN025 OVC060 17/16 A2963 RMK AO2 WSHFT 0108 PRESRR CB VC NE-SE MOV NE P0009 T01720161=
201705050052 METAR KATL 050052Z 15009G16KT 10SM -RA FEW008 SCT015CB BKN025 OVC150 19/17 A2959 RMK AO2 RAB52 SLP014 CB S-W & DSNT NW MOV NE P0000 T01940172=
201705042352 METAR KATL 042352Z 17009KT 10SM FEW008 SCT015 BKN025 OVC200 19/18 A2961 RMK AO2 SLP022 60008 T01940178 10200 20183 55009=
201705042340 SPECI KATL 042340Z 17010G18KT 10SM FEW008 SCT015 BKN080 OVC200 19/18 A2961 RMK AO2 T01940178=
201705042252 METAR KATL 042252Z 18007KT 10SM FEW008 BKN015 BKN028 OVC200 20/18 A2961 RMK AO2 SLP021 T02000178=
201705042152 METAR KATL 042152Z 20009G17KT 10SM FEW007 SCT014 BKN028 OVC150 20/18 A2962 RMK AO2 RAB34E43 SLP024 P0000 T02000183=
201705042128 SPECI KATL 042128Z 17011KT 10SM SCT007 BKN012 OVC040 19/18 A2963 RMK AO2 T01940183=
201705042052 METAR KATL 042052Z 17006KT 8SM BKN008 BKN015 OVC030 19/18 A2964 RMK AO2 RAE36 SLP030 VIS LWR NE-SE SHRA P0001 60008 T01940183 58031=
201705042012 SPECI KATL 042012Z 19010G18KT 7SM -RA BKN008CB BKN012 OVC020 19/18 A2965 RMK AO2 VIS LWR NW SHRA CB NW MOV N P0001 T01890178=
201705041958 SPECI KATL 041958Z 12013G18KT 6SM -RA BR BKN008CB BKN015 OVC030 19/18 A2966 RMK AO2 VIS LWR S-SW-W-NW SHRA CB S-SW-W-NW MOV N P0000 T01890178=
201705041952 METAR KATL 041952Z 13009KT 6SM -RA BR BKN010CB BKN015 OVC030 19/18 A2967 RMK AO2 RAB1858 SLP039 VIS LWR S-SW-W-NW SHRA CB S-SW-W-NW MOV N P0007 T01890178=
201705041934 SPECI KATL 041934Z 15013KT 4SM -RA BR BKN010CB BKN015 OVC020 19/18 A2968 RMK AO2 RAB1858 CB N & SW MOV N P0003 T01890178=
201705041930 SPECI KATL 041930Z 13011G17KT 1 1/2SM +RA BR BKN012CB BKN020 OVC030 19/18 A2969 RMK AO2 SFC VIS 2 RAB1858 CB OHD MOV N P0002 T01890178=
201705041926 SPECI KATL 041926Z 13011G17KT 2SM +RA BR BKN012CB BKN020 OVC030 19/18 A2969 RMK AO2 RAB1858 CB OHD MOV N P0001 T01890178=
201705041900 SPECI KATL 041900Z 13008KT 6SM -RA BR BKN012 BKN020 OVC030 19/17 A2971 RMK AO2 RAB1858 P0000 T01890167=
201705041852 METAR KATL 041852Z 15009KT 10SM BKN014 BKN020 OVC040 19/17 A2972 RMK AO2 SLP056 T01890167=
201705041816 SPECI KATL 041816Z 15017G24KT 10SM BKN014 BKN020 OVC030 19/16 A2973 RMK AO2 T01890161=
201705041752 METAR KATL 041752Z 15015G23KT 10SM BKN015 BKN020 OVC040 19/17 A2974 RMK AO2 SLP063 60033 T01890167 10189 20156 56041=
201705041708 SPECI KATL 041708Z 12009KT 10SM FEW009 BKN016 OVC030 18/16 A2975 RMK AO2 T01780161=
201705041652 METAR KATL 041652Z 13009G17KT 10SM BKN006 BKN030 OVC070 17/16 A2976 RMK AO2 PK WND 14029/1555 RAE17 SLP070 P0000 T01720161=
201705041552 METAR KATL 041552Z 13021G36KT 4SM -RA BR FEW006 BKN040 OVC070 16/16 A2972 RMK AO2 PK WND 13038/1542 SLP057 P0012 T01610156=
201705041547 SPECI KATL 041547Z 12024G38KT 4SM -RA BR FEW006 BKN050 OVC070 16/15 A2972 RMK AO2 PK WND 13038/1542 PRESFR P0012=
201705041535 SPECI KATL 041535Z 12024G35KT 2 1/2SM -RA BR BKN006 BKN030 OVC050 16/15 A2977 RMK AO2 PK WND 12036/1525 SFC VIS 4 PRESFR P0011 T01560150=
201705041525 SPECI KATL 041525Z 12026G36KT 1/2SM R09R/P6000FT RA BR BKN004 BKN020 OVC040 16/15 A2979 RMK AO2 PK WND 12036/1525 SFC VIS 3 PRESFR P0010 T01560150=
201705041452 METAR KATL 041452Z 14010KT 2SM RA BR BKN005 BKN030 OVC040 16/16 A2986 RMK AO2 SFC VIS 3 SLP105 P0014 60021 T01610156 58024=
201705041410 SPECI KATL 041410Z 14008KT 3SM -RA BR BKN005 BKN020 OVC040 16/16 A2987 RMK AO2 SFC VIS 4 P0005 T01560156=
201705041357 SPECI KATL 041357Z 14007KT 3SM RA BR BKN005 BKN025 OVC043 16/15 A2987 RMK AO2 P0002 T01560150=
201705041352 METAR KATL 041352Z 14009KT 4SM RA BR FEW002 BKN005 OVC040 16/15 A2988 RMK AO2 SLP113 FU FEW002 P0006 T01560150=
201705041252 METAR KATL 041252Z 13007KT 6SM -RA BR BKN006 OVC065 16/15 A2992 RMK AO2 SLP124 CIG 004V008 P0001 T01560150=
201705041234 SPECI KATL 041234Z 12005KT 7SM -RA BKN007 BKN060 OVC095 16/14 A2992 RMK AO2 CIG 005V009 P0001 T01560144=
201705041152 METAR KATL 041152Z 17004KT 3SM -RA BR FEW006 BKN055 OVC085 16/14 A2993 RMK AO2 SLP129 P0006 60009 70009 T01560144 10222 20150 58003=
201705041144 SPECI KATL 041144Z 16003KT 3SM RA BR FEW007 BKN055 OVC085 16/14 A2994 RMK AO2 P0004 T01560144=
201705041052 METAR KATL 041052Z 22003KT 10SM -RA FEW075 BKN090 OVC150 16/14 A2994 RMK AO2 SLP131 P0002 T01560144=
201705040952 METAR KATL 040952Z 25012KT 9SM -RA SCT075 OVC090 16/13 A2996 RMK AO2 SLP138 P0001 T01610133=
201705040852 METAR KATL 040852Z 24010KT 10SM -RA FEW070 OVC090 20/11 A2995 RMK AO2 RAB12 SLP131 P0000 60000 T02000106 53002=
201705040752 METAR KATL 040752Z 18006KT 10SM BKN075 OVC100 21/09 A2992 RMK AO2 RAB24E38 SLP121 VIRGA OHD-ALQDS P0000 T02110089=
201705040652 METAR KATL 040652Z 17010KT 10SM FEW075 SCT095 OVC120 22/09 A2992 RMK AO2 SLP120 VIRGA OHD-ALQDS T02170089=
201705040552 METAR KATL 040552Z 15011KT 10SM FEW085 BKN120 OVC180 22/09 A2994 RMK AO2 SLP127 VIRGA OHD-ALQDS T02220089 10261 20222 55011=
201705040452 METAR KATL 040452Z 14008KT 10SM FEW090 BKN150 OVC200 22/10 A2993 RMK AO2 SLP126 T02220100 402830139=
201705040352 METAR KATL 040352Z 13005KT 10SM BKN180 OVC250 23/10 A2996 RMK AO2 SLP136 T02280100=
201705040252 METAR KATL 040252Z 12005KT 10SM BKN200 OVC250 23/10 A2997 RMK AO2 SLP140 T02330100 53003=
201705040152 METAR KATL 040152Z 12005KT 9SM FEW200 OVC250 24/09 A2997 RMK AO2 SLP140 T02440094=
201705040052 METAR KATL 040052Z 15006KT 10SM FEW200 OVC250 25/09 A2996 RMK AO2 SLP137 T02500089=
201705032352 METAR KATL 032352Z 15006KT 10SM FEW200 OVC250 26/08 A2996 RMK AO2 SLP139 T02610078 10283 20261 58007=
201705032252 METAR KATL 032252Z 17009KT 10SM SCT200 OVC250 27/07 A2998 RMK AO2 SLP146 T02720072=
201705032152 METAR KATL 032152Z 19009KT 10SM FEW150 SCT200 BKN250 28/07 A2998 RMK AO2 SLP145 T02830067=
201705032052 METAR KATL 032052Z 21007KT 10SM FEW150 SCT180 BKN250 28/08 A2998 RMK AO2 SLP145 T02780078 58005=
201705031952 METAR KATL 031952Z 18011G18KT 10SM BKN250 28/05 A3000 RMK AO2 SLP150 T02830050=
201705031852 METAR KATL 031852Z 19007KT 10SM BKN250 28/06 A3001 RMK AO2 SLP153 T02780056=
201705031752 METAR KATL 031752Z 14005KT 10SM FEW250 27/06 A3000 RMK AO2 SLP150 T02720061 10272 20161 58031=
201705031652 METAR KATL 031652Z 20004KT 10SM FEW250 27/06 A3006 RMK AO2 SLP169 T02670061=
201705031552 METAR KATL 031552Z 36003KT 10SM FEW250 26/07 A3008 RMK AO2 SLP180 T02610072=
201705031452 METAR KATL 031452Z 00000KT 10SM FEW250 24/06 A3009 RMK AO2 SLP182 T02440061 50006=
201705031352 METAR KATL 031352Z 00000KT 10SM FEW250 23/09 A3009 RMK AO2 SLP183 T02280089=
201705031252 METAR KATL 031252Z 30004KT 10SM FEW150 FEW250 19/08 A3008 RMK AO2 SLP181 T01890083=
201705031152 METAR KATL 031152Z 00000KT 10SM FEW150 SCT250 16/09 A3008 RMK AO2 SLP178 T01610089 10183 20139 53009=
201705031052 METAR KATL 031052Z 00000KT 10SM FEW150 FEW250 14/08 A3006 RMK AO2 SLP173 T01440083=
201705030952 METAR KATL 030952Z 28004KT 10SM FEW150 16/06 A3005 RMK AO2 SLP169 T01610061=
201705030852 METAR KATL 030852Z 27004KT 10SM FEW150 16/06 A3005 RMK AO2 SLP168 T01610061 55001=
201705030752 METAR KATL 030752Z 29005KT 10SM FEW150 17/06 A3004 RMK AO2 SLP167 T01670061=
201705030652 METAR KATL 030652Z 29005KT 10SM FEW150 17/06 A3005 RMK AO2 SLP167 T01720061=
201705030552 METAR KATL 030552Z 28003KT 10SM FEW150 18/06 A3005 RMK AO2 SLP169 T01830056 10228 20167 58002=
201705030452 METAR KATL 030452Z 26004KT 10SM FEW150 17/06 A3006 RMK AO2 SLP173 T01720061 402670100=
201705030352 METAR KATL 030352Z 27003KT 10SM FEW150 19/06 A3006 RMK AO2 SLP174 T01890056=
201705030252 METAR KATL 030252Z 27003KT 10SM FEW150 19/04 A3006 RMK AO2 SLP172 T01940044 53019=
201705030152 METAR KATL 030152Z 29005KT 10SM CLR 21/04 A3004 RMK AO2 SLP166 T02060044=
201705030052 METAR KATL 030052Z 28006KT 10SM FEW150 22/04 A3001 RMK AO2 SLP158 T02170044=
201705022352 METAR KATL 022352Z 28007KT 10SM CLR 23/04 A3000 RMK AO2 SLP153 T02330044 10267 20233 53000=
201705022252 METAR KATL 022252Z 27007KT 10SM CLR 25/03 A2999 RMK AO2 SLP152 T02500033=
201705022152 METAR KATL 022152Z 27009KT 10SM CLR 26/03 A3000 RMK AO2 SLP153 T02610033=
201705022052 METAR KATL 022052Z 29007G19KT 260V320 10SM CLR 26/02 A3000 RMK AO2 WSHFT 2037 SLP152 T02610022 56017=
201705021952 METAR KATL 021952Z 27012G21KT 10SM CLR 26/02 A3001 RMK AO2 SLP156 T02610017=
201705021852 METAR KATL 021852Z 26007KT 230V310 10SM CLR 25/01 A3003 RMK AO2 SLP162 T02500011=
201705021752 METAR KATL 021752Z 26011G19KT 10SM CLR 24/03 A3005 RMK AO2 SLP170 T02440033 10244 20133 58002=
201705021652 METAR KATL 021652Z 28011KT 10SM CLR 23/04 A3006 RMK AO2 SLP173 T02280039=
201705021552 METAR KATL 021552Z 32012KT 10SM CLR 22/06 A3006 RMK AO2 SLP174 T02170061=
201705021452 METAR KATL 021452Z 29006KT 10SM CLR 19/08 A3006 RMK AO2 SLP173 T01940083 51009=
201705021352 METAR KATL 021352Z 30009KT 10SM CLR 18/08 A3006 RMK AO2 SLP172 T01830083=
201705021252 METAR KATL 021252Z 26004KT 10SM CLR 16/07 A3004 RMK AO2 SLP168 T01610072=
201705021152 METAR KATL 021152Z 26004KT 10SM CLR 13/07 A3003 RMK AO2 SLP164 70023 T01330067 10144 20100 53016=
201705021052 METAR KATL 021052Z 21004KT 10SM CLR 10/06 A3001 RMK AO2 SLP160 T01000056=
201705020952 METAR KATL 020952Z 25003KT 10SM CLR 12/05 A2999 RMK AO2 SLP152 T01170050=
201705020852 METAR KATL 020852Z 28003KT 10SM CLR 12/04 A2998 RMK AO2 SLP148 T01220044 51012=
201705020752 METAR KATL 020752Z 26004KT 10SM CLR 13/04 A2997 RMK AO2 SLP146 T01330044=
201705020652 METAR KATL 020652Z 27005KT 10SM CLR 13/05 A2996 RMK AO2 SLP141 T01280050=
201705020552 METAR KATL 020552Z 29009KT 10SM CLR 14/06 A2994 RMK AO2 SLP135 T01390056 10228 20139 51010=
201705020452 METAR KATL 020452Z 29006KT 10SM CLR 15/05 A2993 RMK AO2 SLP130 T01500050 402390150=
201705020352 METAR KATL 020352Z 27008KT 10SM CLR 16/05 A2993 RMK AO2 SLP131 T01610050=
201705020252 METAR KATL 020252Z 26009KT 10SM CLR 18/03 A2991 RMK AO2 SLP124 T01830033 53015=
201705020152 METAR KATL 020152Z 27008KT 10SM CLR 19/04 A2990 RMK AO2 SLP118 T01890039=
201705020052 METAR KATL 020052Z 25008KT 10SM CLR 21/06 A2988 RMK AO2 SLP110 T02060061=
201705012352 METAR KATL 012352Z 25010KT 10SM FEW200 22/06 A2987 RMK AO2 SLP105 T02220056 10239 20200 56002=
201705012252 METAR KATL 012252Z 24013G21KT 10SM FEW200 23/07 A2987 RMK AO2 SLP105 T02330067=
201705012152 METAR KATL 012152Z 24012KT 10SM FEW100 FEW200 23/09 A2987 RMK AO2 SLP105 T02330094=
201705012052 METAR KATL 012052Z 25012G24KT 10SM FEW100 FEW200 23/08 A2987 RMK AO2 PK WND 26027/2042 SLP107 T02330078 57022=
201705011952 METAR KATL 011952Z 23011G19KT 10SM FEW065 BKN100 BKN200 22/06 A2988 RMK AO2 SLP112 T02220061=
201705011852 METAR KATL 011852Z 25011G17KT 10SM FEW050 SCT110 BKN200 21/08 A2992 RMK AO2 SLP126 T02110083=
201705011752 METAR KATL 011752Z 23011G17KT 10SM FEW035 BKN050 OVC070 20/09 A2994 RMK AO2 SLP131 VIRGA DSNT N-NE-E SHRA DSNT S-SW 60023 T02000094 10222 20161 58013=
201705011652 METAR KATL 011652Z 25014KT 10SM SCT035 BKN080 BKN250 19/10 A2995 RMK AO2 RAB1556E13 SLP135 P0000 T01890100=
201705011552 METAR KATL 011552Z 25016G24KT 10SM SCT027 SCT050 BKN080 17/12 A2998 RMK AO2 PK WND 25026/1542 RAE1456 SLP146 P0000 T01720117=
201705011549 SPECI KATL 011549Z 24017G26KT 10SM SCT025 SCT050 BKN080 18/12 A2998 RMK AO2 PK WND 25026/1542 RAE1456 P0000=
201705011454 SPECI KATL 011454Z 26012KT 10SM -RA FEW012 BKN020 BKN070 18/16 A2993 RMK AO2 TS MOV NE P0000 T01830161=
201705011452 METAR KATL 011452Z 26014G21KT 9SM -RA BKN014 BKN030 OVC110 18/16 A2993 RMK AO2 PK WND 25028/1359 RAB1355 TSB1358E36 SLP129 TS MOV NE P0022 60023 T01830161 53010=
201705011436 SPECI KATL 011436Z 26012G20KT 9SM -RA BKN009 BKN012 OVC020 19/18 A2993 RMK AO2 PK WND 25028/1359 RAB1355 TSB1358E36 TS MOV NE P0022 T01940178=
201705011411 SPECI KATL 011411Z 22012G24KT 6SM R09R/2600VP6000FT -TSRA SCT012CB BKN020 OVC040 21/20 A2992 RMK AO2 PK WND 25028/1359 RAB1355 TSB1358 OCNL LTGICCG NE-SE TS NE-SE MOV NE P0016 T02110200=
201705011406 SPECI KATL 011406Z AUTO 23013G28KT 2SM R09R/2600VP6000FT +TSRA BKN012CB BKN020 OVC040 21/20 A2992 RMK AO2 PK WND 25028/1359 RAB1355 TSB1358 OCNL LTGICCG OHD TS OHD MOV NE P0013 T02110200=
201705011359 SPECI KATL 011359Z 24015G28KT 5SM R09R/5500VP6000FT -TSRA BKN014CB BKN020 OVC040 22/20 A2991 RMK AO2 PK WND 25028/1359 RAB55 TSB58 OCNL LTGICCG OHD-SW-NW TS OHD-SW-NW MOV NE P0001 T02220200=
201705011352 METAR KATL 011352Z 20016G28KT 10SM FEW014CB BKN020 OVC040 22/20 A2991 RMK AO2 PK WND 17028/1346 SLP120 CB SW-NW MOV NE SHRA VC SW-NW P0000 T02220200=
201705011252 METAR KATL 011252Z 18013G20KT 10SM BKN018 BKN025 OVC045 22/20 A2991 RMK AO2 RAE12 SLP119 P0001 T02220200=
