##########################################################
# Query made at 04/19/2024 23:54:22 UTC
# Time interval: from 06/01/2017 12:00  to 06/30/2017 12:59  UTC
##########################################################

##########################################################
# KATL, Atlanta, Hartsfield - Jackson Atlanta International Airport (United States)
# WMO index: 72219. WIGOS ID: 0-20000-0-72219
# Latitude 33-38-59N. Longitude 084-25-00W. Altitude 312 m.
##########################################################

201706301252 METAR KATL 301252Z 19007KT 10SM BKN008 OVC020 23/22 A3011 RMK AO2 SLP189 CIG 006V010 T02280217=
201706301231 SPECI KATL 301231Z 19006KT 10SM BKN008 OVC020 23/22 A3011 RMK AO2 CIG 007V010 BINOVC T02280217=
201706301208 SPECI KATL 301208Z 18005KT 10SM BKN010 BKN018 BKN055 BKN130 BKN200 22/22 A3010 RMK AO2 CIG 008V012 T02220217=
201706301152 METAR KATL 301152Z 19004KT 10SM BKN006 BKN016 OVC050 22/21 A3010 RMK AO2 SLP185 CIG 005V008 BINOVC 60011 70105 T02220211 10222 20211 53007=
201706301052 METAR KATL 301052Z 19004KT 10SM BKN008 BKN016 BKN048 OVC130 22/21 A3009 RMK AO2 RAE11 SLP181 CIG 007V010 P0000 T02170211=
201706301023 SPECI KATL 301023Z 18007KT 10SM BKN008 BKN016 BKN048 OVC130 22/21 A3008 RMK AO2 RAE11 CIG 007V010 P0000 T02170211=
201706301002 SPECI KATL 301002Z 18005KT 10SM -RA SCT007 BKN014 OVC044 22/21 A3008 RMK AO2 P0000 T02170211=
201706300952 METAR KATL 300952Z 19005KT 8SM -RA BKN007 BKN014 OVC046 22/21 A3008 RMK AO2 SLP180 CIG 005V009 P0002 T02170211=
201706300852 METAR KATL 300852Z 18007KT 8SM -RA BKN006 OVC012 22/21 A3008 RMK AO2 SLP175 CIG 004V008 P0001 60009 T02170211 56012 $=
201706300752 METAR KATL 300752Z 17006KT 4SM -RA BR BKN006 OVC012 22/21 A3008 RMK AO2 SLP176 CIG 005V008 P0005 T02170211 $=
201706300652 METAR KATL 300652Z 18006KT 5SM -RA BR BKN006 OVC032 21/21 A3010 RMK AO2 SLP183 CIG 005V008 P0003 T02110206 $=
201706300602 SPECI KATL 300602Z 18008KT 10SM -RA BKN008 BKN038 OVC050 22/21 A3011 RMK AO2 CIG 006V010 P0000 T02170206 $=
201706300552 METAR KATL 300552Z 18009KT 9SM -RA SCT006 BKN028 OVC048 22/21 A3011 RMK AO2 SLP189 P0000 60002 T02170211 10228 20217 56007 $=
201706300547 SPECI KATL 300547Z 19008KT 9SM -RA SCT006 BKN028 OVC048 22/21 A3011 RMK AO2 P0000 $=
201706300452 METAR KATL 300452Z 18008KT 9SM -RA BKN006 BKN013 OVC030 22/22 A3012 RMK AO2 RAB14 SLP189 P0000 T02220217 402890217 $=
201706300352 METAR KATL 300352Z 15008KT 9SM BKN006 BKN015 OVC030 22/21 A3012 RMK AO2 RAE05 SLP190 CIG 004V009 P0000 T02220211 $=
201706300252 METAR KATL 300252Z 13005KT 9SM -RA SCT006 BKN010 BKN070 OVC150 23/22 A3014 RMK AO2 SLP196 P0002 60002 T02280217 53007 $=
201706300236 SPECI KATL 300236Z 13006KT 8SM -RA SCT006 BKN010 BKN100 OVC150 23/22 A3014 RMK AO2 P0002 T02280217 $=
201706300152 METAR KATL 300152Z 13004KT 9SM -RA FEW006 SCT012 BKN080 OVC150 22/22 A3013 RMK AO2 RAB11 SLP194 P0000 T02220217 $=
201706300126 SPECI KATL 300126Z 16005KT 10SM -RA FEW006 SCT012 BKN100 OVC150 22/22 A3012 RMK AO2 RAB11 P0000 T02220217 $=
201706300111 SPECI KATL 300111Z 15004KT 10SM -RA SCT006 BKN012 BKN100 OVC150 22/22 A3011 RMK AO2 RAB11 P0000 T02220217 $=
201706300052 METAR KATL 300052Z 18004KT 10SM FEW005 SCT010 BKN090 OVC150 22/21 A3011 RMK AO2 RAE42 SLP189 P0000 T02220211 $=
201706292352 METAR KATL 292352Z 16004KT 10SM -RA FEW007 SCT080 BKN110 OVC150 22/21 A3011 RMK AO2 SLP189 P0002 60092 T02220211 10289 20217 50006 $=
201706292252 METAR KATL 292252Z 20005KT 6SM -RA FEW020 SCT070 BKN100 OVC150 22/21 A3012 RMK AO2 SLP190 TSB05E40 LTG DSNT NE CB DSNT NE P0016 T02170206 $=
201706292240 SPECI KATL 292240Z 19006KT 7SM -RA FEW020 SCT060 BKN100 OVC150 22/21 A3012 RMK AO2 TSB05E40 LTG DSNT NE TS MOVD NE CB DSNT NE P0014 T02170206 $=
201706292205 SPECI KATL 292205Z 21011KT 3SM TSRA BR FEW020CB BKN050 BKN100 OVC150 22/22 A3011 RMK AO2 LTG DSNT E TSB01E02B05 OCNL LTGIC NE TS VC NE MOV N CB VC N-E MOV NE P0010 T02170217 $=
201706292152 METAR KATL 292152Z 18013G28KT 1 1/2SM R09R/1400VP6000FT +RA BR SCT020CB BKN040 BKN100 OVC150 22/21 A3012 RMK AO2 PK WND 18034/2141 RAB2054 SLP192 VIS LWR N-E CB NE-SE-S MOV NE P0074 T02170211 $=
201706292143 SPECI KATL 292143Z 18026G34KT 1/2SM R09R/1600V5500FT +RA FG BKN030CB BKN055 OVC110 22/21 A3012 RMK AO2 PK WND 18034/2141 LTG DSNT SE RAB2054 CB NE-OHD-S MOV NE P0027 T02170211 $=
201706292135 SPECI KATL 292135Z 17021G30KT 1 1/2SM R09R/4500VP6000FT +RA BR SCT030CB BKN055 BKN110 OVC150 24/22 A3012 RMK AO2 PK WND 18030/2134 SFC VIS 2 LTG DSNT SE RAB2054 PRESRR VIS LWR SE-S CB OHD-SE MOV NE P0005 T02440222=
201706292052 METAR KATL 292052Z 16008KT 10SM FEW030CB SCT065 BKN120 OVC150 28/21 A3009 RMK AO2 SLP181 CB DSNT SE-SW & VC W TCU DSNT N-NE & DSNT NW-N SHRA DSNT SE-SW & VC W T02780206 56013=
201706291952 METAR KATL 291952Z 16006KT 10SM FEW030TCU SCT065 SCT150 BKN250 28/21 A3010 RMK AO2 SLP184 CB DSNT SE-SW TCU NE & SE-SW & W SHRA DSNT SE-SW T02830211=
201706291852 SPECI KATL 291852Z 14007KT 10SM FEW030 SCT150 BKN250 28/21 A3011 RMK AO2 SLP186 CB DSNT N-NE-E TCU DSNT S T02780211=
201706291852 METAR KATL 291852Z 14007KT 10SM FEW030 SCT150 BKN250 28/21 A3011 RMK AO2 SLP186 CB DSNT N-NE-E TCU DSNT S T02780211=
201706291752 METAR KATL 291752Z 18011KT 10SM FEW023TCU SCT060 BKN100 BKN140 27/21 A3013 RMK AO2 LTG DSNT N SLP194 CB DSNT N-NE-E & DSNT NW TCU NE-SE & W T02670206 10278 20222 58013=
201706291652 METAR KATL 291652Z 17009KT 10SM FEW023 SCT030 SCT100 BKN150 28/21 A3016 RMK AO2 SLP201 CB DSNT NE & E MDT CU ALQDS SHRA DSNT NE & E T02780211=
201706291552 METAR KATL 291552Z 16008KT 10SM BKN020TCU BKN030 BKN100 26/21 A3017 RMK AO2 SLP205 TCU NE & OHD-SW T02610211=
201706291452 METAR KATL 291452Z 16007KT 10SM BKN015 BKN020 OVC030 25/21 A3017 RMK AO2 SLP208 BINOVC T02500211 58000=
201706291436 SPECI KATL 291436Z 16007KT 10SM FEW012 BKN015 OVC020 24/21 A3017 RMK AO2 BINOVC T02440211=
201706291352 METAR KATL 291352Z 15007KT 110V180 10SM FEW005 BKN012 OVC020 24/21 A3018 RMK AO2 SLP209 FU FEW005 BINOVC T02440211=
201706291252 METAR KATL 291252Z 12007KT 10SM OVC011 23/21 A3018 RMK AO2 SLP210 BINOVC T02330206=
201706291236 SPECI KATL 291236Z 12006KT 10SM BKN011 BKN065 BKN120 OVC200 23/21 A3018 RMK AO2 T02330206=
201706291152 METAR KATL 291152Z 11006KT 10SM SCT013 SCT060 BKN120 BKN200 22/20 A3017 RMK AO2 SLP208 T02220200 10239 20222 51005=
201706291052 METAR KATL 291052Z 12007KT 10SM FEW015 SCT070 BKN110 BKN200 22/19 A3017 RMK AO2 SLP206 T02220194=
201706290952 METAR KATL 290952Z 11007KT 10SM SCT018 BKN065 OVC080 22/19 A3017 RMK AO2 SLP206 T02220189=
201706290907 SPECI KATL 290907Z 09005KT 10SM BKN018 BKN070 OVC085 23/19 A3016 RMK AO2 T02280189=
201706290852 METAR KATL 290852Z 11005KT 10SM SCT024 BKN065 OVC085 22/19 A3016 RMK AO2 SLP202 T02220189 53003=
201706290752 METAR KATL 290752Z 11006KT 10SM BKN075 BKN200 OVC250 23/18 A3015 RMK AO2 SLP198 ACC N-NE T02280183=
201706290652 METAR KATL 290652Z 15005KT 10SM SCT075 BKN200 OVC250 23/18 A3015 RMK AO2 SLP198 T02280183=
201706290552 METAR KATL 290552Z 16011G16KT 10SM FEW040 SCT200 BKN250 24/18 A3015 RMK AO2 SLP199 T02390178 10278 20239 51004=
201706290452 METAR KATL 290452Z 15007KT 10SM BKN250 24/18 A3015 RMK AO2 SLP198 T02390183 403060189=
201706290352 METAR KATL 290352Z 15006KT 10SM BKN250 24/19 A3015 RMK AO2 SLP198 T02440189=
201706290252 METAR KATL 290252Z 12006KT 10SM SCT250 26/19 A3014 RMK AO2 SLP194 T02560189 53007=
201706290152 METAR KATL 290152Z 12005KT 10SM FEW050 FEW250 27/18 A3012 RMK AO2 SLP191 T02670183=
201706290052 METAR KATL 290052Z 13007KT 10SM FEW050TCU SCT070 SCT250 27/18 A3012 RMK AO2 SLP189 TCU S & OHD-W T02720183=
201706282352 METAR KATL 282352Z 16007KT 10SM FEW050TCU SCT070 SCT100 28/17 A3012 RMK AO2 SLP189 TCU E-S & W-NW & DSNT NE T02780172 10306 20278 53004=
201706282252 METAR KATL 282252Z 10008KT 10SM FEW060 FEW080 29/17 A3011 RMK AO2 SLP186 TCU DSNT E-S T02940167=
201706282152 METAR KATL 282152Z 15008KT 10SM SCT060 SCT080 29/17 A3010 RMK AO2 SLP185 MDT CU OHD-SW T02940167=
201706282052 METAR KATL 282052Z 10007KT 10SM SCT060 31/16 A3010 RMK AO2 SLP184 MDT CU NW T03060161 58015=
201706281952 METAR KATL 281952Z 13010G15KT 10SM SCT060 30/16 A3012 RMK AO2 SLP191 MDT CU SW-NW T03000161=
201706281852 METAR KATL 281852Z 15006KT 10SM SCT060 29/16 A3014 RMK AO2 SLP195 T02890156=
201706281752 METAR KATL 281752Z 11007KT 060V150 10SM SCT055 29/17 A3015 RMK AO2 SLP199 T02940167 10294 20206 58007=
201706281652 METAR KATL 281652Z 16011G18KT 10SM FEW050 FEW250 28/16 A3016 RMK AO2 SLP203 T02830156=
201706281552 METAR KATL 281552Z 10009KT 10SM FEW045 FEW250 28/16 A3018 RMK AO2 SLP209 T02780161=
201706281452 METAR KATL 281452Z 10006KT 10SM FEW250 27/18 A3017 RMK AO2 SLP206 T02720178 53008=
201706281352 METAR KATL 281352Z 08005KT 10SM FEW250 24/16 A3016 RMK AO2 SLP204 T02440161=
201706281252 METAR KATL 281252Z 08005KT 10SM FEW200 SCT250 BKN300 22/16 A3014 RMK AO2 SLP199 T02220156=
201706281152 METAR KATL 281152Z 09007KT 10SM SCT200 BKN250 21/14 A3014 RMK AO2 SLP198 T02060144 10217 20189 53013=
201706281052 METAR KATL 281052Z 07006KT 10SM FEW070 BKN200 BKN250 19/14 A3013 RMK AO2 SLP195 ACC DSNT NW-NE T01940139=
201706280952 METAR KATL 280952Z 07007KT 10SM FEW070 SCT200 BKN250 19/14 A3011 RMK AO2 SLP187 ACC DSNT NW-NE T01890139=
201706280852 METAR KATL 280852Z 06007KT 10SM FEW065 SCT250 21/14 A3010 RMK AO2 SLP185 T02060139 55001=
201706280752 METAR KATL 280752Z 04004KT 10SM FEW055 FEW070 SCT250 21/13 A3010 RMK AO2 SLP183 T02110133=
201706280652 METAR KATL 280652Z 00000KT 10SM FEW070 SCT250 21/13 A3010 RMK AO2 SLP182 ACC S-SW T02110128=
201706280552 METAR KATL 280552Z 35004KT 10SM SCT070 SCT250 21/13 A3011 RMK AO2 SLP185 T02110133 10272 20206 50005=
201706280452 METAR KATL 280452Z 36005KT 10SM SCT070 SCT250 22/12 A3011 RMK AO2 SLP185 T02220122 402890189=
201706280352 METAR KATL 280352Z 36007KT 10SM FEW070 SCT250 23/12 A3010 RMK AO2 SLP184 T02330117=
201706280252 METAR KATL 280252Z 35007KT 10SM SCT070 SCT250 24/12 A3009 RMK AO2 SLP180 T02390117 51017=
201706280152 METAR KATL 280152Z 35008KT 10SM FEW070 SCT250 24/11 A3007 RMK AO2 SLP174 T02440111=
201706280052 METAR KATL 280052Z 33009KT 10SM FEW070 FEW250 26/11 A3006 RMK AO2 SLP168 T02560111=
201706272352 METAR KATL 272352Z 34012KT 10SM FEW070 FEW250 27/11 A3004 RMK AO2 SLP163 T02720111 10289 20272 55003=
201706272252 METAR KATL 272252Z 34011KT 10SM FEW070 FEW250 28/12 A3004 RMK AO2 SLP162 T02830117=
201706272152 METAR KATL 272152Z 32009KT 10SM FEW070 FEW250 29/12 A3005 RMK AO2 SLP165 T02890117=
201706272052 METAR KATL 272052Z 33009KT 300V360 10SM FEW065 FEW250 28/12 A3005 RMK AO2 SLP166 T02780122 58015=
201706271952 METAR KATL 271952Z 36009KT 10SM FEW065 FEW150 FEW250 29/13 A3006 RMK AO2 SLP170 T02890133=
201706271852 METAR KATL 271852Z 33011KT 10SM FEW065 SCT180 SCT250 28/13 A3008 RMK AO2 SLP177 T02830128=
201706271752 METAR KATL 271752Z 31010KT 10SM FEW065 SCT150 SCT250 28/13 A3009 RMK AO2 SLP180 T02830128 10283 20206 58005=
201706271652 METAR KATL 271652Z 36012G18KT 320V030 10SM FEW055 SCT150 SCT250 27/13 A3010 RMK AO2 SLP183 T02720133=
201706271552 METAR KATL 271552Z 34012KT 10SM FEW050 FEW120 SCT150 BKN250 27/13 A3010 RMK AO2 SLP183 T02670133=
201706271452 METAR KATL 271452Z 35014KT 10SM FEW120 SCT150 SCT250 26/14 A3011 RMK AO2 SLP185 T02610139 50007=
201706271352 METAR KATL 271352Z 34009KT 10SM FEW120 FEW200 SCT250 26/14 A3011 RMK AO2 SLP186 T02560144=
201706271252 METAR KATL 271252Z 33006KT 10SM FEW150 SCT200 BKN250 24/15 A3009 RMK AO2 SLP180 T02390150=
201706271152 METAR KATL 271152Z 32004KT 10SM FEW120 SCT150 SCT200 BKN250 21/16 A3009 RMK AO2 SLP179 T02060161 10222 20189 51007=
201706271052 METAR KATL 271052Z 31004KT 10SM SCT150 SCT200 BKN250 19/16 A3008 RMK AO2 SLP178 T01890161=
201706270952 METAR KATL 270952Z 32003KT 10SM FEW150 SCT200 BKN250 20/15 A3007 RMK AO2 SLP174 T02000150=
201706270852 METAR KATL 270852Z 33005KT 10SM FEW150 SCT200 BKN250 20/15 A3006 RMK AO2 SLP170 T02000150 56007=
201706270752 METAR KATL 270752Z 33006KT 10SM FEW120 SCT160 SCT250 20/16 A3007 RMK AO2 SLP172 T02000156=
201706270652 METAR KATL 270652Z 33006KT 10SM FEW120 SCT150 BKN250 21/16 A3008 RMK AO2 SLP175 T02060156=
201706270552 METAR KATL 270552Z 33005KT 10SM BKN120 BKN250 22/15 A3009 RMK AO2 SLP178 T02220150 10272 20222 58003=
201706270452 METAR KATL 270452Z 33003KT 10SM BKN110 BKN250 23/15 A3010 RMK AO2 SLP183 T02280150 403000172=
201706270352 METAR KATL 270352Z 03006KT 10SM FEW150 FEW250 24/13 A3010 RMK AO2 SLP182 T02440133=
201706270252 METAR KATL 270252Z 03007KT 10SM FEW070 FEW250 25/13 A3009 RMK AO2 SLP181 T02500133 53010=
201706270152 METAR KATL 270152Z 35005KT 10SM FEW070 FEW250 25/14 A3008 RMK AO2 SLP177 T02500139=
201706270052 METAR KATL 270052Z 32006KT 10SM FEW070 FEW150 SCT250 26/13 A3007 RMK AO2 SLP174 T02560133=
201706262352 METAR KATL 262352Z 33011KT 10SM FEW070 FEW150 SCT250 27/12 A3006 RMK AO2 SLP171 T02720122 10300 20272 55007=
201706262252 METAR KATL 262252Z 31010KT 10SM FEW075 BKN250 28/13 A3005 RMK AO2 SLP169 T02830133=
201706262152 METAR KATL 262152Z 33008G16KT 10SM FEW080 BKN250 29/12 A3007 RMK AO2 SLP173 T02890122=
201706262052 METAR KATL 262052Z 36010G16KT 320V040 10SM FEW080 FEW150 SCT250 29/09 A3009 RMK AO2 SLP179 T02940094 58021=
201706261952 METAR KATL 261952Z 34010KT 10SM FEW070 FEW150 SCT250 29/12 A3011 RMK AO2 SLP187 T02940117=
201706261852 METAR KATL 261852Z VRB06KT 10SM FEW065 FEW150 SCT250 28/14 A3013 RMK AO2 SLP193 T02830139=
201706261752 METAR KATL 261752Z 00000KT 10SM FEW060 FEW180 SCT250 28/13 A3015 RMK AO2 SLP200 T02780133 10278 20206 58013 $=
201706261652 METAR KATL 261652Z VRB03KT 10SM FEW060 SCT150 SCT250 27/13 A3017 RMK AO2 SLP209 T02720128 $=
201706261552 METAR KATL 261552Z 06006KT 10SM FEW055 FEW150 SCT250 26/13 A3018 RMK AO2 SLP212 T02610128=
201706261452 METAR KATL 261452Z 03007KT 10SM FEW150 FEW250 26/12 A3019 RMK AO2 SLP213 T02560117 51007=
201706261352 METAR KATL 261352Z 03009KT 10SM FEW040 FEW150 SCT250 24/11 A3019 RMK AO2 SLP213 T02440106=
201706261252 METAR KATL 261252Z 02009KT 10SM FEW150 SCT200 SCT250 22/11 A3019 RMK AO2 SLP214 T02220111=
201706261152 METAR KATL 261152Z 01008KT 10SM FEW200 FEW250 21/12 A3017 RMK AO2 SLP207 T02060117 10206 20172 53010=
201706261052 METAR KATL 261052Z 34006KT 10SM FEW150 FEW200 17/13 A3016 RMK AO2 SLP206 T01720133=
201706260952 METAR KATL 260952Z 01004KT 10SM FEW200 18/13 A3014 RMK AO2 SLP200 T01830133=
201706260852 METAR KATL 260852Z 01009KT 10SM FEW250 19/13 A3014 RMK AO2 SLP197 T01890133 56003 $=
201706260752 METAR KATL 260752Z 35005KT 10SM FEW180 FEW250 18/16 A3014 RMK AO2 SLP197 T01830161 $=
201706260652 METAR KATL 260652Z 33008KT 10SM FEW180 FEW250 18/17 A3013 RMK AO2 SLP196 T01830167 $=
201706260552 METAR KATL 260552Z 33007KT 10SM SCT180 SCT250 19/16 A3015 RMK AO2 SLP201 T01890161 10233 20189 58003 $=
201706260452 METAR KATL 260452Z 32007KT 10SM SCT180 SCT250 19/16 A3015 RMK AO2 SLP204 T01940161 402720194 $=
201706260352 METAR KATL 260352Z 32010KT 10SM FEW150 SCT200 BKN250 20/16 A3016 RMK AO2 SLP204 T02000161 $=
201706260252 METAR KATL 260252Z 31009KT 10SM SCT150 BKN200 BKN250 21/16 A3016 RMK AO2 SLP205 T02060161 51003 $=
201706260152 METAR KATL 260152Z 32009KT 10SM FEW120 BKN150 BKN200 BKN250 22/16 A3015 RMK AO2 SLP203 VIRGA NE-OHD-SW T02170161 $=
201706260052 METAR KATL 260052Z 32006KT 10SM FEW120 BKN150 BKN200 BKN250 22/15 A3016 RMK AO2 SLP205 VIRGA SW-NW T02220150 $=
201706252352 METAR KATL 252352Z 33008KT 10SM FEW120 BKN150 BKN200 BKN250 23/16 A3015 RMK AO2 SLP202 VIRGA W-NW ACC NW T02330156 10272 20233 51011=
201706252252 METAR KATL 252252Z 33010KT 10SM SCT150 BKN200 BKN250 24/16 A3014 RMK AO2 SLP200 T02390156=
201706252152 METAR KATL 252152Z 34012KT 10SM BKN150 BKN200 BKN250 26/15 A3013 RMK AO2 SLP193 T02560150=
201706252052 METAR KATL 252052Z 32011KT 10SM BKN150 BKN250 27/15 A3011 RMK AO2 SLP188 T02670150 56016=
201706251952 METAR KATL 251952Z 33012KT 10SM BKN180 BKN250 27/17 A3013 RMK AO2 SLP193 T02670167=
201706251852 METAR KATL 251852Z 32012KT 10SM BKN180 26/18 A3014 RMK AO2 SLP198 T02560178=
201706251752 METAR KATL 251752Z 32010KT 10SM BKN140 OVC200 24/17 A3016 RMK AO2 SLP204 T02390172 10239 20200 50001=
201706251652 METAR KATL 251652Z 33009KT 10SM BKN150 BKN180 23/17 A3017 RMK AO2 SLP208 T02280167=
201706251552 METAR KATL 251552Z 31010KT 10SM BKN180 BKN250 24/18 A3017 RMK AO2 SLP207 T02390178=
201706251452 METAR KATL 251452Z 33010KT 10SM SCT140 BKN200 23/17 A3016 RMK AO2 SLP204 T02280172 51012=
201706251352 METAR KATL 251352Z 32007KT 10SM BKN180 BKN220 22/18 A3016 RMK AO2 SLP202 T02170178=
201706251252 METAR KATL 251252Z 32012KT 10SM FEW150 BKN180 BKN220 21/18 A3015 RMK AO2 SLP201 VIRGA W-NW T02060178=
201706251152 METAR KATL 251152Z 31012KT 10SM FEW150 BKN200 BKN250 20/18 A3012 RMK AO2 SLP192 70051 T02000183 10222 20200 53013=
201706251052 METAR KATL 251052Z 31007KT 10SM FEW150 BKN200 BKN250 20/18 A3010 RMK AO2 SLP184 T02000183=
201706250952 METAR KATL 250952Z 32006KT 10SM FEW150 BKN200 BKN250 20/18 A3009 RMK AO2 SLP180 T02000183=
201706250852 METAR KATL 250852Z 33007KT 10SM FEW150 SCT200 SCT250 21/19 A3008 RMK AO2 SLP178 T02060189 55002=
201706250752 METAR KATL 250752Z 33008KT 10SM FEW150 SCT180 BKN250 21/19 A3008 RMK AO2 SLP177 T02110194=
201706250652 METAR KATL 250652Z 34005KT 10SM FEW150 SCT180 22/21 A3008 RMK AO2 SLP176 T02170206=
201706250552 METAR KATL 250552Z 31006KT 10SM FEW110 SCT150 BKN180 22/21 A3009 RMK AO2 SLP180 60012 T02220211 10267 20217 56002=
201706250452 METAR KATL 250452Z 28004KT 10SM FEW004 FEW110 SCT150 BKN200 22/22 A3010 RMK AO2 SLP182 T02220217 402890222=
201706250352 METAR KATL 250352Z 00000KT 10SM FEW008 FEW040 SCT100 SCT140 OVC200 23/22 A3009 RMK AO2 RAE41 TSE28 SLP181 TS DSIPTD P0003 T02330222=
201706250328 SPECI KATL 250328Z 00000KT 6SM -RA BR FEW006 FEW032CB BKN090 OVC140 23/22 A3009 RMK AO2 TSE28 TS DSIPTD CB SW MOV SE P0003 T02330217=
201706250252 METAR KATL 250252Z 04004KT 6SM -TSRA BR FEW006 SCT034CB BKN075 OVC140 23/22 A3010 RMK AO2 SLP183 RAB25 TSB35 FRQ LTGICCCCA SW-W TS SW-W MOV SE P0009 60009 T02330217 53025=
201706250236 SPECI KATL 250236Z 32005KT 3SM TSRA BR FEW004 BKN030CB BKN065 OVC140 23/22 A3009 RMK AO2 RAB25 TSB35 OCNL LTGICCC E-OHD-W TS E-OHD-W MOV SE P0008 T02330217=
201706250227 SPECI KATL 250227Z 32014KT 3SM -RA BR SCT004 BKN030CB BKN065 OVC140 24/23 A3009 RMK AO2 RAB25 CB E-OHD-W MOV SE P0000 T02390228=
201706250218 SPECI KATL 250218Z 22004KT 10SM BKN004 BKN028CB BKN140 OVC200 24/24 A3008 RMK AO2 CB NW-NE MOV SE SHRA NW-NE T02440239=
201706250152 METAR KATL 250152Z 20005KT 10SM SCT004 SCT028TCU BKN150 BKN200 24/24 A3006 RMK AO2 SLP171 CB DSNT ALQDS TCU N-NE SHRA DSNT NW-NE T02440239=
201706250131 SPECI KATL 250131Z 17005KT 10SM FEW006 FEW026TCU SCT100 BKN150 BKN200 25/24 A3006 RMK AO2 LTG DSNT NW CB DSNT ALQDS TCU N & NE T02500239=
201706250052 METAR KATL 250052Z 20005KT 10SM FEW010 FEW026TCU SCT110 BKN150 BKN200 25/24 A3004 RMK AO2 SLP162 CB DSNT ALQDS TCU N-NE & DSNT NW-NE SHRA DSNT NW-NE T02500239=
201706242352 METAR KATL 242352Z 21004KT 10SM FEW014 FEW028 SCT110 BKN150 BKN200 27/24 A3002 RMK AO2 LTG DSNT SW SLP156 CB DSNT ALQDS 60016 T02670239 10289 20250 53005=
201706242252 METAR KATL 242252Z 22005KT 10SM FEW012 FEW028 SCT120 BKN200 27/24 A3000 RMK AO2 LTG DSNT SE RAE2157 SLP149 CB DSNT N-E-S-SW & NW P0000 T02720239=
201706242152 METAR KATL 242152Z 23005KT 10SM -RA FEW008 FEW030 SCT110 BKN200 26/24 A3000 RMK AO2 LTG DSNT SW SLP151 RAE19B34 TSB2056E23 TS MOV E CB DSNT N-E-S-SW P0002 T02610239=
201706242125 SPECI KATL 242125Z 25005KT 10SM FEW010 FEW024TCU SCT055 BKN130 BKN200 26/24 A3001 RMK AO2 LTG DSNT SW RAE19 TSB2056E23 TS MOV E OCNL LTGICCA DSNT E-S-SW CB DSNT N-E-S-SW & NW TCU E P0002 T02560239=
201706242102 SPECI KATL 242102Z 25005KT 6SM -TSRA BR FEW027CB BKN055 BKN085 BKN200 26/24 A3001 RMK AO2 TSB2056 OCNL LTGICCCCA E-S TS E-S MOV E P0002 T02560239=
201706242052 METAR KATL 242052Z 23007KT 5SM -RA BR FEW021CB BKN047 OVC100 26/23 A3001 RMK AO2 RAB11 SLP152 CB SE-SW P0014 60014 T02560233 56007=
201706242046 SPECI KATL 242046Z 25003KT 3SM R09R/3000VP6000FT RA SCT022 BKN060 BKN100 26/22 A3001 RMK AO2 RAB11 P0014=
201706242039 SPECI KATL 242039Z VRB03G17KT 2SM R09R/3000VP6000FT +RA BR SCT025 BKN042 OVC100 26/23 A3001 RMK AO2 RAB11 P0003 T02560233=
201706242037 SPECI KATL 242037Z 29012G17KT 1 1/2SM R09R/4500VP6000FT +RA BR FEW037 SCT044 BKN090 26/24 A3001 RMK AO2 RAB11 P0001 T02610239=
201706241952 METAR KATL 241952Z 24007KT 10SM SCT032 BKN055 BKN120 28/23 A3001 RMK AO2 SLP153 T02780228=
201706241852 METAR KATL 241852Z VRB03KT 10SM SCT017 BKN034 BKN170 28/23 A3003 RMK AO2 SLP159 T02780228=
201706241816 SPECI KATL 241816Z 27003KT 10SM BKN015 BKN100 27/23 A3003 RMK AO2 T02720228=
201706241752 METAR KATL 241752Z VRB03KT 10SM FEW012 BKN036 BKN100 27/24 A3003 RMK AO2 SLP159 60023 T02720239 10272 20228 50000=
201706241705 SPECI KATL 241705Z 25004KT 10SM SCT007 BKN027 OVC160 25/23 A3005 RMK AO2 T02500233=
201706241652 METAR KATL 241652Z 22005KT 10SM BKN009 BKN032 BKN100 24/23 A3004 RMK AO2 LTG DSNT SE RAE43 SLP164 CB DSNT SE P0004 T02440233=
201706241633 SPECI KATL 241633Z 23005KT 10SM -RA FEW009 BKN036 BKN100 24/23 A3004 RMK AO2 LTG DSNT SE AND S CB DSNT SE AND S P0004 T02440233=
201706241618 SPECI KATL 241618Z 24004KT 6SM -RA BR FEW008 BKN021 OVC085 24/23 A3004 RMK AO2 LTG DSNT S CB DSNT S P0004 T02440233=
201706241607 SPECI KATL 241607Z 00000KT 4SM -RA BR FEW007 BKN034 BKN120 24/23 A3004 RMK AO2 P0002 T02390233=
201706241552 METAR KATL 241552Z 26004KT 9SM -RA FEW008 BKN025 OVC100 24/23 A3004 RMK AO2 RAB27 SLP163 P0000 T02390228=
201706241544 SPECI KATL 241544Z 27006KT 10SM -RA SCT010 BKN018 OVC065 24/23 A3004 RMK AO2 RAB27 P0000 T02390228=
201706241538 SPECI KATL 241538Z 26006KT 10SM -RA BKN011 BKN019 OVC025 24/23 A3004 RMK AO2 RAB27 P0000 T02440228=
201706241516 SPECI KATL 241516Z 24004KT 10SM BKN009 BKN014 OVC055 24/23 A3004 RMK AO2 LTG DSNT SW CB DSNT SW T02440228=
201706241452 METAR KATL 241452Z 26006KT 10SM FEW005 SCT008 OVC014 24/23 A3003 RMK AO2 RAB1358E46 SLP159 P0003 60019 T02440233 51007=
201706241438 SPECI KATL 241438Z VRB03KT 5SM -RA BR SCT005 BKN012 OVC017 24/23 A3003 RMK AO2 RAB1358 VSBY LWR N P0003 T02390228=
201706241416 SPECI KATL 241416Z 26004KT 2SM -RA BR BKN009 OVC013 24/23 A3002 RMK AO2 SFC VIS 3 RAB1358 VSBY LWR N P0001 T02390228=
201706241359 SPECI KATL 241359Z 24004KT 9SM -RA BKN007 OVC013 24/23 A3002 RMK AO2 RAB58 P0000 T02390228=
201706241352 METAR KATL 241352Z 23005KT 10SM SCT006 OVC013 24/23 A3002 RMK AO2 RAE32 SLP158 P0016 T02390228=
201706241322 SPECI KATL 241322Z 24006KT 4SM R09R/6000VP6000FT -RA BR SCT005 BKN010 OVC017 23/23 A3003 RMK AO2 P0016 T02330228=
201706241252 METAR KATL 241252Z 24008KT 2SM -RA BR OVC005 23/22 A3003 RMK AO2 SFC VIS 2 1/2 RAB48 SLP158 VIS LWR SW-NW PCPN VRY LGT P0000 T02330222=
201706241152 METAR KATL 241152Z 23005KT 7SM BKN005 OVC040 23/22 A3001 RMK AO2 SLP150 70032 T02280222 10228 20222 53011=
201706241052 METAR KATL 241052Z 23005KT 8SM BKN006 OVC040 23/22 A2999 RMK AO2 SLP144 T02280217=
201706241005 SPECI KATL 241005Z 22005KT 10SM BKN007 BKN012 OVC043 23/22 A2998 RMK AO2 T02280217=
201706240952 METAR KATL 240952Z 22006KT 10SM FEW007 SCT014 OVC043 22/22 A2998 RMK AO2 SLP140 T02220217=
201706240949 SPECI KATL 240949Z 23007KT 10SM FEW007 BKN033 OVC043 22/22 A2998 RMK AO2=
201706240852 METAR KATL 240852Z 23007KT 10SM BKN007 OVC150 22/22 A2998 RMK AO2 SLP139 T02220217 53001=
201706240752 METAR KATL 240752Z 24006KT 10SM BKN006 BKN150 22/22 A2997 RMK AO2 SLP137 CIG 005V009 T02220217=
201706240652 METAR KATL 240652Z 24007KT 10SM BKN005 BKN050 22/22 A2998 RMK AO2 SLP139 CIG 004V008 T02220217=
201706240635 SPECI KATL 240635Z 22008KT 10SM BKN005 BKN050 BKN130 22/22 A2998 RMK AO2 BKN005 V SCT T02220217=
201706240552 METAR KATL 240552Z 22008KT 10SM SCT005 SCT050 BKN130 22/22 A2997 RMK AO2 SLP139 60032 T02220217 10294 20222 56009=
201706240452 METAR KATL 240452Z 23008KT 10SM FEW004 FEW050 SCT250 22/22 A2998 RMK AO2 SLP142 T02220217 403110222=
201706240352 METAR KATL 240352Z 21006KT 10SM FEW004 FEW100 SCT250 23/22 A2999 RMK AO2 SLP144 T02280222=
201706240252 METAR KATL 240252Z 22006KT 10SM FEW007 SCT012 BKN100 BKN200 23/22 A3000 RMK AO2 SLP150 60032 T02280222 53025=
201706240152 METAR KATL 240152Z 27011KT 10SM FEW006 SCT050 BKN110 BKN200 23/22 A2998 RMK AO2 PK WND 26035/0105 RAB04E50 TSE39 SLP144 LTG DSNT NE-SE P0032 T02330222=
201706240139 SPECI KATL 240139Z 27009KT 8SM -RA FEW005 SCT030 BKN050 BKN130 BKN200 23/22 A2998 RMK AO2 PK WND 26035/0105 RAB04 TSE39 LTG DSNT NE-SE TS MOV E P0032 T02330222=
201706240119 SPECI KATL 240119Z 25009G18KT 5SM -TSRA BR FEW005 SCT015CB BKN030 BKN150 BKN200 23/23 A2999 RMK AO2 PK WND 26035/0105 RAB04 VIS LWR NE-SE OCNL LTGIC NE-SE TS NE-SE MOV E P0030 T02330228=
201706240114 SPECI KATL 240114Z 26013G35KT 2SM R09R/2000VP6000FT +TSRA BR SCT020CB BKN035 BKN090 BKN200 24/23 A2999 RMK AO2 PK WND 26035/0105 RAB04 VIS LWR NE-SE OCNL LTGIC NE-OHD-S TS NE-OHD-S MOV E P0028 T02390228=
201706240109 SPECI KATL 240109Z 26014G35KT 3/4SM R09R/2000VP6000FT +TSRA BR BKN030CB BKN050 BKN090 BKN250 24/22 A2999 RMK AO2 PK WND 26035/0105 RAB04 PRESRR OCNL LTGIC OHD-ALQDS TS OHD-ALQDS MOV E P0007 T02440222=
201706240106 SPECI KATL 240106Z 26025G35KT 1SM R09R/2200VP6000FT +TSRA SCT030CB BKN050 BKN090 BKN250 27/22 A2997 RMK AO2 PK WND 26035/0105 RAB04 PRESRR OCNL LTGIC N-OHD-S TS N-OHD-S MOV E P0000 T02720217=
201706240052 METAR KATL 240052Z 20005KT 10SM TS FEW030CB SCT070 SCT250 28/21 A2994 RMK AO2 TSB52 SLP127 OCNL LTGIC SW-W TS VC SW-W MOV E CB VC SW-NW MOV E T02780211=
201706232352 METAR KATL 232352Z 23009KT 10SM FEW045TCU SCT150 SCT250 29/21 A2993 RMK AO2 SLP122 CB DSNT SW-NW TCU E T02940206 10311 20294 53000=
201706232252 METAR KATL 232252Z 20015G23KT 10SM FEW050 FEW150 SCT250 30/21 A2991 RMK AO2 SLP116 T03000206=
201706232152 METAR KATL 232152Z 20012G20KT 10SM SCT050 SCT250 31/21 A2991 RMK AO2 SLP115 T03060206=
201706232052 METAR KATL 232052Z 20017G26KT 10SM SCT050 SCT250 31/21 A2993 RMK AO2 PK WND 21026/2050 SLP122 T03060206 56020=
201706231952 METAR KATL 231952Z 21013G24KT 10SM SCT045 SCT250 31/21 A2995 RMK AO2 PK WND 21030/1853 SLP130 T03110211=
201706231852 METAR KATL 231852Z 22016G23KT 10SM SCT040 SCT100 BKN250 31/21 A2996 RMK AO2 PK WND 22029/1757 SLP135 T03060211=
201706231752 METAR KATL 231752Z 19019G24KT 10SM FEW040 SCT090 BKN250 29/21 A2999 RMK AO2 SLP143 T02940206 10300 20233 58014=
201706231652 METAR KATL 231652Z 24011G21KT 10SM SCT035 SCT100 BKN150 BKN250 29/21 A3001 RMK AO2 SLP150 T02940211=
201706231552 METAR KATL 231552Z 21012G19KT 10SM SCT022 SCT100 BKN150 BKN250 27/21 A3002 RMK AO2 SLP156 T02720211=
201706231452 METAR KATL 231452Z 20010G18KT 10SM SCT017 SCT100 SCT140 BKN250 27/22 A3003 RMK AO2 SLP157 T02670217 53002=
201706231352 METAR KATL 231352Z 20011KT 10SM FEW014 SCT100 SCT150 BKN250 26/22 A3002 RMK AO2 SLP156 T02560222=
201706231252 METAR KATL 231252Z 20009KT 10SM FEW008 FEW100 FEW150 BKN250 24/22 A3002 RMK AO2 SLP157 ACC NW T02440222=
201706231152 METAR KATL 231152Z 20007KT 9SM FEW005 FEW100 SCT150 BKN250 23/22 A3002 RMK AO2 SLP156 ACC NW 70012 T02330222 10233 20222 52001=
201706231052 METAR KATL 231052Z 19006KT 9SM SCT150 SCT200 BKN250 22/22 A3002 RMK AO2 SLP156 T02220217=
201706230952 METAR KATL 230952Z 18006KT 8SM FEW004 SCT150 BKN200 BKN250 23/22 A3002 RMK AO2 SLP156 T02280217=
201706230852 METAR KATL 230852Z 19006KT 9SM FEW004 SCT150 SCT200 BKN250 23/22 A3002 RMK AO2 SLP154 T02280222 56008=
201706230752 METAR KATL 230752Z 20006KT 10SM SCT150 BKN200 BKN250 23/22 A3002 RMK AO2 SLP156 T02280222=
201706230652 METAR KATL 230652Z 20006KT 10SM BKN150 BKN200 BKN250 23/22 A3003 RMK AO2 SLP159 T02330217=
201706230552 METAR KATL 230552Z 19006KT 10SM FEW120 OVC150 23/22 A3004 RMK AO2 SLP163 T02330222 10239 20233 58003=
201706230452 METAR KATL 230452Z 17006KT 10SM SCT120 BKN150 BKN200 23/22 A3005 RMK AO2 SLP166 T02330222 402890222=
201706230352 METAR KATL 230352Z 16006KT 10SM BKN130 BKN200 23/22 A3005 RMK AO2 SLP166 T02330222=
201706230252 METAR KATL 230252Z 15006KT 10SM BKN120 BKN200 23/22 A3005 RMK AO2 SLP166 T02330222 53009=
201706230152 METAR KATL 230152Z 14005KT 10SM SCT130 BKN200 BKN250 24/22 A3004 RMK AO2 SLP162 T02390222=
201706230052 METAR KATL 230052Z 12004KT 10SM SCT120 BKN150 BKN200 24/23 A3002 RMK AO2 SLP158 ACC W T02390228=
201706222352 METAR KATL 222352Z 19004KT 10SM FEW015 SCT050 BKN080 OVC150 24/23 A3002 RMK AO2 PK WND 20030/2309 RAB06E50 TSB04E52 SLP157 LTG DSNT NE-SE TS MOV NE CB DSNT NE-SE & NW MOV NE P0000 60006 T02390228 10289 20239 55001=
201706222304 SPECI KATL 222304Z 19007KT 10SM TS FEW015CB BKN035 BKN070 OVC150 27/24 A3002 RMK AO2 TSB04 OCNL LTGIC VC SE-SW & DSNT NE TS VC SE-SW & DSNT NE MOV NE T02670244=
201706222252 METAR KATL 222252Z 18004KT 10SM FEW015CB SCT035 BKN070 BKN150 OVC200 26/24 A3002 RMK AO2 RAE24 TSE11 SLP156 CB VC SE-SW & DSNT NE MOV NE P0000 T02610244=
201706222211 SPECI KATL 222211Z 20006KT 10SM -RA FEW015CB SCT070 BKN110 BKN150 OVC200 26/24 A3003 RMK AO2 TSE11 TS DSIPTD CB VC NE & NW-N MOV NE P0000 T02610239=
201706222152 METAR KATL 222152Z 19007KT 9SM -TSRA FEW020CB SCT035 BKN070 OVC150 26/24 A3002 RMK AO2 RAE2058B33 TSB48 SLP157 OCNL LTGIC W-NW TS VC W-NW MOV NE P0004 T02610239=
201706222148 SPECI KATL 222148Z 17008KT 8SM -TSRA SCT025CB BKN040 BKN070 OVC150 27/24 A3002 RMK AO2 RAE2058B33 TSB48 OCNL LTGIC SW-NW TS VC SW-NW MOV NE P0004=
201706222052 METAR KATL 222052Z 16007KT 9SM -RA SCT023CB BKN050 OVC140 27/24 A3002 RMK AO2 RAB37 SLP157 VIS LWR NW-N-NE SHRA CB OHD-NW-N-NE & DSNT N & W MOV NE P0002 60002 T02720239 56015=
201706221952 METAR KATL 221952Z 17010KT 10SM FEW020CB SCT050 SCT100 BKN140 BKN250 28/23 A3004 RMK AO2 SLP161 CB VC SW-NW-N MOV NE SHRA VC SW-NW-N T02830228=
201706221852 METAR KATL 221852Z 16007KT 10SM BKN020TCU BKN040 BKN060 28/23 A3005 RMK AO2 SLP165 TCU NE & SE-S & W-NW T02780228=
201706221752 METAR KATL 221752Z 13007KT 10SM BKN015TCU BKN030 BKN050 27/23 A3007 RMK AO2 SLP172 TCU N-NE-E-SE & DSNT W 60006 T02720233 10278 20222 58016=
201706221652 METAR KATL 221652Z 13006KT 7SM FEW007 BKN015 BKN030 26/24 A3009 RMK AO2 RAE13 SLP181 P0000 T02610239=
201706221601 SPECI KATL 221601Z 10008KT 3SM -RA BR BKN007 BKN030 OVC110 24/23 A3011 RMK AO2 SFC VIS 5 P0000 T02440233=
201706221552 METAR KATL 221552Z 11008KT 3SM -RA BR SCT007 BKN045 OVC120 24/23 A3012 RMK AO2 SFC VIS 5 SLP189 P0001 T02390228=
201706221505 SPECI KATL 221505Z 11006KT 2SM -RA BR BKN010 BKN030 OVC100 23/23 A3012 RMK AO2 SFC VIS 5 P0000 T02330228=
201706221452 METAR KATL 221452Z 11007KT 2SM -RA BR BKN005 BKN010 OVC018 23/23 A3012 RMK AO2 SFC VIS 5 RAE10B32 SLP190 P0000 60005 T02330228 50008=
201706221430 SPECI KATL 221430Z 14006KT 2SM BR BKN005 BKN010 OVC020 23/23 A3012 RMK AO2 SFC VIS 6 RAE10 P0000 T02330228=
201706221352 METAR KATL 221352Z 11008KT 1SM R09R/P6000FT -RA BR OVC004 23/22 A3012 RMK AO2 SFC VIS 4 RAE18B42 SLP191 TWRINC P0001 T02280222=
201706221252 METAR KATL 221252Z 11007KT 1SM R09R/P6000FT -RA BR OVC003 23/22 A3012 RMK AO2 SFC VIS 4 SLP193 TWRINC P0004 T02280222=
201706221228 SPECI KATL 221228Z 12007KT 1SM R09R/P6000FT -RA BR OVC004 22/22 A3012 RMK AO2 SFC VIS 4 TWRINC P0001 T02220217=
201706221213 SPECI KATL 221213Z 12005KT 2SM -RA BR OVC004 22/22 A3011 RMK AO2 SFC VIS 4 TWRINC P0001 T02220217=
201706221157 SPECI KATL 221157Z 10006KT 8SM -RA OVC004 22/22 A3010 RMK AO2 P0000 T02220217=
201706221152 METAR KATL 221152Z 10005KT 6SM -RA BR OVC005 22/22 A3010 RMK AO2 RAB41 SLP183 P0000 60002 70008 T02220217 10228 20222 53008=
201706221052 METAR KATL 221052Z 09007KT 9SM OVC006 22/22 A3008 RMK AO2 SLP178 T02220217=
201706220952 METAR KATL 220952Z 09007KT 10SM BKN007 BKN014 BKN030 OVC140 22/21 A3007 RMK AO2 RAE42 SLP174 P0000 T02220211=
201706220941 SPECI KATL 220941Z 09005KT 10SM -RA SCT007 BKN014 BKN030 OVC140 22/21 A3007 RMK AO2 P0000 T02220211=
201706220852 METAR KATL 220852Z 11003KT 10SM -RA BKN008 OVC015 22/22 A3007 RMK AO2 SLP173 P0001 60002 T02220217 56011=
201706220823 SPECI KATL 220823Z 09006KT 9SM -RA FEW003 BKN009 OVC120 22/22 A3007 RMK AO2 P0001 T02220217=
201706220752 METAR KATL 220752Z 09005KT 7SM -RA FEW003 SCT012 BKN110 OVC150 22/22 A3007 RMK AO2 SLP174 P0001 T02220217=
201706220652 METAR KATL 220652Z 11005KT 10SM -RA FEW005 SCT095 OVC130 23/22 A3009 RMK AO2 SLP180 P0000 T02280217=
201706220552 METAR KATL 220552Z 10007KT 9SM -RA FEW006 SCT100 OVC140 23/22 A3010 RMK AO2 SLP184 P0002 60006 T02280217 10233 20222 58006=
201706220452 METAR KATL 220452Z 12005KT 9SM -RA BKN120 OVC150 23/22 A3012 RMK AO2 SLP191 P0000 T02280217 402610211=
201706220352 METAR KATL 220352Z 12005KT 10SM -RA FEW007 SCT100 BKN120 OVC150 23/22 A3012 RMK AO2 SLP192 P0000 T02280222=
201706220252 METAR KATL 220252Z 12005KT 9SM -RA FEW007 SCT100 BKN120 OVC150 23/22 A3012 RMK AO2 SLP191 P0000 60004 T02330222 53007=
201706220152 METAR KATL 220152Z 12004KT 8SM -RA FEW007 SCT080 BKN120 OVC150 23/23 A3011 RMK AO2 SLP187 P0001 T02330228=
201706220052 METAR KATL 220052Z 00000KT 9SM -RA FEW010 SCT070 BKN100 OVC150 22/21 A3010 RMK AO2 SLP185 P0003 T02220211=
201706212352 METAR KATL 212352Z 00000KT 8SM -RA FEW012TCU SCT040 BKN060 OVC150 22/21 A3010 RMK AO2 RAB23 SLP184 CB DSNT N TCU N-NE P0000 60000 T02220206 10261 20222 53003=
201706212252 METAR KATL 212252Z 17004KT 10SM FEW014 SCT025 BKN060 OVC150 25/22 A3009 RMK AO2 SLP182 VCSH SE-SW-NW T02500222=
201706212152 METAR KATL 212152Z 17003KT 10SM SCT018 BKN045 BKN070 OVC150 25/22 A3009 RMK AO2 SLP181 VCSH SE-SW T02500222=
201706212052 METAR KATL 212052Z 15003KT 10SM BKN018 BKN080 OVC150 26/22 A3009 RMK AO2 RAB1959E17 SLP180 P0000 60000 T02610222 56010=
201706212042 SPECI KATL 212042Z VRB04KT 10SM BKN014 BKN075 OVC150 26/22 A3009 RMK AO2 RAB1959E17 P0000 T02560222=
201706211952 METAR KATL 211952Z 13004KT 10SM FEW015 BKN050 OVC080 25/22 A3010 RMK AO2 RAB27E42 SLP183 P0000 T02500222=
201706211852 METAR KATL 211852Z 13006KT 10SM FEW012 BKN100 OVC150 25/22 A3010 RMK AO2 SLP184 T02500222=
201706211752 METAR KATL 211752Z 14005KT 10SM SCT012 BKN090 OVC150 24/22 A3012 RMK AO2 RAB12E28 SLP191 P0000 60000 T02440217 10244 20217 50000=
201706211750 SPECI KATL 211750Z 14006KT 10SM SCT012 BKN085 OVC150 24/22 A3012 RMK AO2 RAB12E28 P0000=
201706211652 METAR KATL 211652Z 14006KT 10SM FEW009 BKN015 OVC070 24/22 A3014 RMK AO2 RAB33E48 SLP197 P0000 T02390217=
201706211616 SPECI KATL 211616Z 15006KT 10SM FEW010 BKN015 BKN080 OVC150 24/22 A3013 RMK AO2 T02390217=
201706211552 METAR KATL 211552Z VRB06KT 10SM BKN010 BKN100 OVC250 24/22 A3012 RMK AO2 SLP192 T02390217=
201706211452 METAR KATL 211452Z 11006KT 10SM BKN010 BKN110 OVC250 24/22 A3011 RMK AO2 SLP187 T02390217 51004=
201706211352 METAR KATL 211352Z 07007KT 10SM FEW010 BKN110 BKN180 OVC250 23/21 A3010 RMK AO2 SLP186 T02280211=
201706211331 SPECI KATL 211331Z 07008KT 10SM BKN012 BKN110 BKN180 OVC250 23/21 A3011 RMK AO2 T02280211=
201706211252 METAR KATL 211252Z 08006KT 10SM BKN007 BKN017 BKN120 BKN180 OVC250 22/21 A3011 RMK AO2 SLP187 T02220206=
201706211152 METAR KATL 211152Z 09004KT 10SM FEW004 SCT065 SCT100 SCT180 BKN250 22/21 A3009 RMK AO2 SLP183 70142 T02220206 10222 20211 50006=
201706211052 METAR KATL 211052Z 11004KT 8SM FEW005 BKN065 BKN180 21/21 A3010 RMK AO2 SLP185 T02110206=
201706211043 SPECI KATL 211043Z 13003KT 2SM FEW005 OVC065 21/21 A3010 RMK AO2 SFC VIS 7 T02110206=
201706211030 SPECI KATL 211030Z 12004KT 2SM BR BKN005 OVC065 21/21 A3010 RMK AO2 SFC VIS 6 CIG 004V008 BKN005 V SCT T02110206=
201706210952 METAR KATL 210952Z 12003KT 2SM BR BKN004 BKN100 BKN200 21/21 A3009 RMK AO2 SFC VIS 6 SLP181 CIG 003V007 BKN004 V SCT T02110206=
201706210852 METAR KATL 210852Z 00000KT 2SM BR BKN004 OVC150 21/21 A3007 RMK AO2 SFC VIS 6 SLP177 CIG 003V007 T02110206 55004 $=
201706210809 SPECI KATL 210809Z 14005KT 2SM BR BKN005 OVC047 21/21 A3007 RMK AO2 SFC VIS 6 CIG 004V007 T02110211 $=
201706210752 METAR KATL 210752Z 14005KT 2SM BR BKN004 OVC047 21/21 A3007 RMK AO2 SFC VIS 6 SLP173 CIG 003V006 T02110211 $=
201706210718 SPECI KATL 210718Z 17003KT 2SM BR BKN004 OVC048 21/21 A3007 RMK AO2 SFC VIS 6 CIG 003V006 T02110211 $=
201706210652 METAR KATL 210652Z 14004KT 2SM SCT003 BKN044 BKN065 OVC180 21/21 A3007 RMK AO2 SFC VIS 8 SLP175 T02110211 $=
201706210631 SPECI KATL 210631Z 16004KT 2SM SCT005 SCT012 BKN065 OVC180 21/21 A3008 RMK AO2 SFC VIS 10 T02110206 $=
201706210619 SPECI KATL 210619Z 15004KT 2SM SCT005 BKN012 BKN017 OVC180 22/21 A3008 RMK AO2 SFC VIS 10 T02170206 $=
201706210552 METAR KATL 210552Z 16005KT 2SM BKN005 BKN017 OVC038 22/21 A3009 RMK AO2 SFC VIS 10 SLP180 CIG 003V008 BKN005 V SCT 60015 T02170211 10217 20211 58008=
201706210536 SPECI KATL 210536Z 15005KT 2SM BKN005 OVC015 22/21 A3009 RMK AO2 SFC VIS 10 CIG 003V008 T02170211=
201706210502 SPECI KATL 210502Z 15003KT 2SM BKN004 BKN040 OVC200 22/21 A3010 RMK AO2 SFC VIS 10 CIG 003V008 T02170211=
201706210457 SPECI KATL 210457Z 16003KT 2SM BKN005 BKN040 OVC200 22/21 A3010 RMK AO2 SFC VIS 10 CIG 003V008 T02170211=
201706210452 METAR KATL 210452Z 15003KT 10SM BKN006 BKN040 OVC200 22/21 A3010 RMK AO2 RAE03 SLP184 CIG 004V009 P0000 T02170211 402440211=
201706210352 METAR KATL 210352Z 20003KT 7SM -RA FEW004 SCT040 BKN060 OVC150 22/21 A3010 RMK AO2 SLP186 P0003 T02170211=
201706210252 METAR KATL 210252Z 20004KT 9SM -RA FEW006 SCT015 BKN040 OVC150 22/21 A3011 RMK AO2 SLP188 P0000 60012 T02170211 53011=
201706210152 METAR KATL 210152Z 21006KT 7SM -RA SCT006 BKN028 BKN060 OVC150 22/21 A3010 RMK AO2 SLP183 P0005 T02170211=
201706210052 METAR KATL 210052Z 19005KT 5SM -RA BR FEW006 BKN018 BKN030 OVC150 22/21 A3008 RMK AO2 SLP179 P0007 T02170211=
201706210021 SPECI KATL 210021Z 19003KT 4SM -RA BR FEW006 SCT025 BKN060 OVC150 22/21 A3008 RMK AO2 P0003 T02170211=
201706202352 METAR KATL 202352Z 00000KT 2SM RA BR FEW006 SCT025 BKN040 OVC150 22/21 A3007 RMK AO2 SFC VIS 3 SLP176 P0027 60124 T02170211 10233 20217 53002=
201706202306 SPECI KATL 202306Z 00000KT 2SM -RA BR FEW006 SCT015CB BKN040 OVC150 22/22 A3006 RMK AO2 SFC VIS 3 CB VC E-SE & SW P0003 T02220217=
201706202252 METAR KATL 202252Z 17004KT 2SM RA BR SCT006 BKN015CB BKN040 OVC150 22/22 A3006 RMK AO2 SFC VIS 3 SLP172 CB VC E-SE & SW MOV NE P0020 T02220217=
201706202152 METAR KATL 202152Z 01004KT 2SM RA BR FEW008CB SCT025 BKN050 OVC150 22/21 A3006 RMK AO2 SFC VIS 3 SLP170 CB VC E-SE & S-SW MOV NE P0055 T02220211=
201706202132 SPECI KATL 202132Z 35005KT 2SM RA BR SCT008CB BKN025 OVC050 22/22 A3006 RMK AO2 CB VC NE-SE & S-SW MOV NE P0050 T02220217=
201706202105 SPECI KATL 202105Z 31008KT 2SM R09R/4500VP6000FT +RA BR BKN008 BKN015CB OVC020 23/21 A3007 RMK AO2 SFC VIS 3 VIS LWR E-SE-S SHRA CB E-SE-S MOV NE P0010 T02280211=
201706202052 METAR KATL 202052Z 31007KT 7SM R09R/5000VP6000FT -RA BKN008 BKN013CB OVC020 22/22 A3007 RMK AO2 RAB14 SLP174 VIS LWR E-SE-S SHRA CB E-SE-S MOV NE P0010 60022 T02220217 56003=
201706201952 METAR KATL 201952Z 29010KT 10SM FEW010CB BKN030 OVC050 23/22 A3007 RMK AO2 RAE10 SLP176 VIS LWR NE-SE SHRA CB NE-SE MOV NE P0001 T02330222=
201706201902 SPECI KATL 201902Z 24005KT 6SM -RA BR SCT008 BKN016 OVC030 23/22 A3007 RMK AO2 CB DSNT NW-N-NE P0001 T02330222=
201706201852 METAR KATL 201852Z 24007KT 3SM -RA BR FEW006 BKN012 OVC030 23/23 A3007 RMK AO2 LTG DSNT N SLP173 TS DSIPT CB DSNT NW-NE P0011 T02330228=
201706201840 SPECI KATL 201840Z 21006KT 4SM R09R/5000VP6000FT RA BR SCT006 BKN012 OVC030 23/23 A3007 RMK AO2 LTG DSNT NW-NE TS DSIPT CB DSNT NW-NE P0005 T02330228=
201706201828 SPECI KATL 201828Z 19005KT 2 1/2SM R09R/6000VP6000FT RA BR FEW006 BKN015CB OVC040 23/22 A3007 RMK AO2 LTG DSNT NE TS DSIPT CB NW-N-NE P0003 T02330222=
201706201815 SPECI KATL 201815Z 18005KT 4SM -RA BR FEW006 SCT015CB OVC040 23/23 A3008 RMK AO2 LTG DSNT NE TS DSIPT CB NW-N-NE & DSNT NW-N-NE & DSNT W MOV NE P0000 T02330228=
201706201754 SPECI KATL 201754Z 20006KT 8SM VCTS -RA FEW006 SCT020CB OVC030 23/22 A3008 RMK AO2 LTG DSNT NE P0000 T02330222=
201706201752 METAR KATL 201752Z 20008KT 7SM -RA FEW006 SCT020CB OVC030 23/22 A3008 RMK AO2 LTG DSNT N AND NE SLP177 CB VC NW-NE & DSNT N-NE & DSNT W MOV N SHRA VC NW-NE P0003 60003 T02330222 10244 20228 58001=
201706201734 SPECI KATL 201734Z 20009KT 6SM -RA BR SCT016CB BKN023 OVC030 23/22 A3008 RMK AO2 LTG DSNT NE CB VC NW-N & DSNT N-NE & DSNT W MOV N SHRA VC ALQDS P0002 T02280222=
201706201712 SPECI KATL 201712Z 19012KT 7SM -RA FEW005 BKN023 OVC031 23/22 A3008 RMK AO2 P0000 T02280222=
201706201652 METAR KATL 201652Z 21009KT 6SM -RA BR BKN008 BKN020CB OVC050 23/22 A3008 RMK AO2 RAB16 SLP178 VIS LWR NE & SE-SW SHRA CB NE & SE-SW MOV N P0000 T02330222=
201706201625 SPECI KATL 201625Z 21010KT 6SM -RA BR SCT008 BKN015CB OVC025 24/22 A3008 RMK AO2 RAB16 VIS LWR N & SE-SW SHRA CB N & SE-SW MOV N P0000 T02390222=
201706201616 SPECI KATL 201616Z 20004KT 8SM -RA FEW010CB BKN020 OVC030 24/22 A3008 RMK AO2 RAB16 VIS LWR N & SE-SW SHRA CB N & SE-SW MOV N P0000 T02440222=
201706201552 METAR KATL 201552Z 22006KT 10SM FEW010CB SCT020TCU OVC040 24/22 A3009 RMK AO2 RAE1458B10E23 SLP179 CB VC N & SE MOV NE TCU E P0000 T02390222=
201706201504 SPECI KATL 201504Z 23004KT 10SM SCT010 BKN020 OVC040 24/22 A3008 RMK AO2 RAE1458 P0000 T02390222=
201706201452 METAR KATL 201452Z 19004KT 9SM -RA BKN010 BKN020 OVC050 24/22 A3008 RMK AO2 RAB50 SLP178 P0000 60000 T02390222 50004=
201706201352 METAR KATL 201352Z 23004KT 8SM FEW007 BKN010 OVC040 23/22 A3009 RMK AO2 SLP179 CIG 006V009 T02330222=
201706201254 SPECI KATL 201254Z 22004KT 8SM BKN007 BKN013 OVC021 23/22 A3008 RMK AO2 CIG 006V009 T02280217=
201706201252 METAR KATL 201252Z 21004KT 7SM SCT007 BKN013 OVC028 23/22 A3008 RMK AO2 SLP176 T02330222=
201706201250 SPECI KATL 201250Z 00000KT 7SM SCT007 BKN013 OVC028 23/22 A3008 RMK AO2=
201706201236 SPECI KATL 201236Z 24003KT 7SM FEW005 SCT010 OVC020 23/22 A3007 RMK AO2 T02280217=
201706201152 METAR KATL 201152Z 29004KT 6SM BR FEW004 BKN010 OVC055 23/22 A3007 RMK AO2 SLP174 BKN010 V SCT 60030 70036 T02280217 10233 20222 53012=
201706201052 METAR KATL 201052Z 25005KT 6SM BR FEW004 BKN014 OVC090 22/22 A3005 RMK AO2 RAE02 SLP167 P0000 T02220217=
201706201042 SPECI KATL 201042Z 24005KT 6SM BR FEW004 BKN014 OVC090 22/22 A3005 RMK AO2 RAE02 P0000 T02220217=
201706200952 METAR KATL 200952Z 24005KT 8SM -RA FEW005 BKN085 OVC100 22/22 A3004 RMK AO2 SLP161 P0003 T02220217=
201706200852 METAR KATL 200852Z 29007KT 7SM -RA FEW007 SCT100 BKN110 OVC140 22/21 A3004 RMK AO2 SLP160 P0016 60027 T02220211 58011 $=
201706200752 METAR KATL 200752Z 25005KT 5SM RA BR FEW007 BKN065 OVC080 22/22 A3005 RMK AO2 SLP164 P0011 T02220217 $=
201706200652 METAR KATL 200652Z 22008KT 10SM -RA FEW009 BKN033CB BKN046 BKN150 23/22 A3006 RMK AO2 LTG DSNT E SLP167 TSB32E50 RAB0554E16B44 TS DSIPT CB VC SW MOV NE CB DSNT E-SE P0000 T02280217 $=
201706200633 SPECI KATL 200633Z 20008KT 10SM VCTS FEW009 BKN017CB BKN055 BKN150 BKN250 23/22 A3006 RMK AO2 RAB0554E16 TSE32 CB VC S-SW MOV NE CB DSNT E-SE P0000 T02330222 $=
201706200552 METAR KATL 200552Z 17006KT 10SM FEW015CB BKN041 OVC055 23/22 A3007 RMK AO2 LTG DSNT E AND SE RAB24E49 SLP171 CB VC SE AND SW MOV NE CB DSNT E-SE SHRA SE P0006 60006 T02330222 10256 20233 50003 $=
201706200452 METAR KATL 200452Z 19006KT 10SM FEW015CB BKN035 BKN090 BKN200 24/21 A3008 RMK AO2 SLP175 CB VC N-NE & E-S-SW MOV NE T02390211 403110222 $=
201706200352 METAR KATL 200352Z 00000KT 10SM FEW032 BKN090 BKN200 24/22 A3007 RMK AO2 LTG DSNT SE SLP171 CB DSNT NE & SE & S-SW T02440217 $=
201706200252 METAR KATL 200252Z 00000KT 10SM SCT035 BKN090 BKN200 24/22 A3006 RMK AO2 SLP169 CB DSNT NE-SE & SW T02390217 53019 $=
201706200152 METAR KATL 200152Z 26004KT 10SM FEW030TCU SCT050 BKN200 BKN250 24/22 A3003 RMK AO2 LTG DSNT E SLP161 CB DSNT NE-SE TCU VC SE-SW T02440217 $=
201706200052 METAR KATL 200052Z 32007KT 10SM FEW030 BKN100 BKN150 BKN250 25/22 A3003 RMK AO2 SLP158 CB DSNT NE-SE & S T02500217 $=
201706192352 METAR KATL 192352Z 32011KT 10SM FEW040 SCT055 BKN080 BKN150 OVC200 26/22 A3000 RMK AO2 SLP151 T02560217 10311 20256 53012 $=
201706192252 METAR KATL 192252Z 28008KT 10SM FEW035 BKN150 BKN200 OVC250 29/20 A2999 RMK AO2 SLP145 LTG DSNT NW CB DSNT NW TCU DSNT SE & S T02890200 $=
201706192152 METAR KATL 192152Z 21006KT 10SM FEW035 SCT150 BKN200 BKN250 29/21 A2998 RMK AO2 LTG DSNT W-NE SLP139 CB DSNT N-NE & SW-W & NW TCU DSNT SE-S T02940211 $=
201706192052 METAR KATL 192052Z 23010KT 10SM FEW035 SCT200 BKN250 31/21 A2997 RMK AO2 LTG DSNT NW SLP136 CB DSNT N & SE & NW T03060206 56019 $=
201706191952 METAR KATL 191952Z 22008KT 10SM SCT035 SCT170 BKN250 30/21 A2998 RMK AO2 SLP140 T03000211=
201706191852 METAR KATL 191852Z 22007KT 10SM SCT030 SCT075 SCT120 BKN250 29/22 A3000 RMK AO2 SLP148 TCU DSNT SW SHRA DSNT SW & NW T02890217=
201706191752 METAR KATL 191752Z 24008KT 10SM SCT030 SCT075 BKN120 BKN250 28/21 A3002 RMK AO2 SLP157 SHRA VC NW-N T02830211 10289 20233 58001=
201706191652 METAR KATL 191652Z 25007KT 10SM SCT025 SCT032 SCT140 BKN190 BKN250 29/22 A3003 RMK AO2 SLP156 T02890222=
201706191552 METAR KATL 191552Z 27005KT 10SM SCT027 BKN190 BKN250 28/22 A3003 RMK AO2 SLP157 T02780222=
201706191452 METAR KATL 191452Z 25008KT 10SM SCT018 SCT150 BKN190 BKN250 26/22 A3003 RMK AO2 SLP158 T02610222 51008=
201706191352 METAR KATL 191352Z 21004KT 10SM FEW012 FEW110 BKN150 BKN170 BKN250 24/21 A3003 RMK AO2 SLP157 T02440211=
201706191252 METAR KATL 191252Z 22005KT 10SM FEW080 SCT110 BKN150 BKN180 BKN250 24/21 A3002 RMK AO2 SLP156 T02390211=
201706191152 METAR KATL 191152Z 25004KT 10SM FEW080 BKN110 BKN180 BKN250 23/21 A3000 RMK AO2 SLP150 70015 T02330211 10233 20222 53010=
201706191052 METAR KATL 191052Z 26004KT 10SM FEW040 SCT080 BKN200 BKN250 22/21 A2999 RMK AO2 SLP145 T02220211=
201706190952 METAR KATL 190952Z 26007KT 10SM FEW006 BKN075 BKN100 22/21 A2997 RMK AO2 SLP140 T02220211=
201706190933 SPECI KATL 190933Z 27007KT 10SM FEW006 BKN075 22/22 A2998 RMK AO2 T02220217=
201706190852 METAR KATL 190852Z 27007KT 10SM FEW035 SCT100 SCT200 22/21 A2997 RMK AO2 SLP139 T02220211 53005 $=
201706190752 METAR KATL 190752Z 24003KT 10SM FEW035 SCT120 SCT200 22/21 A2996 RMK AO2 SLP135 T02220211 $=
201706190652 METAR KATL 190652Z 23004KT 10SM FEW035 SCT100 SCT130 SCT200 22/21 A2995 RMK AO2 SLP132 T02220211 $=
201706190552 METAR KATL 190552Z 20007KT 10SM FEW100 FEW250 23/21 A2995 RMK AO2 SLP133 T02280211 10256 20228 58009 $=
201706190452 METAR KATL 190452Z 21007KT 10SM SCT140 BKN250 23/22 A2998 RMK SLP142 T02330217 402830217=
201706190252 METAR KATL 190252Z 24006KT 10SM FEW036 BKN100 BKN250 24/22 A2998 RMK AO2 SLP143 T02440217 51020 $=
201706190152 METAR KATL 190152Z 00000KT 10SM FEW038 BKN095 BKN200 BKN250 25/22 A2998 RMK AO2 SLP141 MDT CU SE & W-NW T02500217 $=
201706190052 METAR KATL 190052Z 00000KT 10SM FEW030 SCT100 SCT200 BKN250 25/21 A2995 RMK AO2 SLP132 TCU DSNT N ACC W-NW T02500211 $=
201706182352 METAR KATL 182352Z 23004KT 10SM FEW016 FEW100 SCT200 SCT250 26/21 A2992 RMK AO2 SLP123 CB DSNT NE TCU DSNT E & SW ACC DSNT NE & SE-S 60002 T02560211 10283 20244 55003 $=
201706182252 METAR KATL 182252Z 27006KT 10SM FEW014 FEW030 SCT085 BKN200 26/22 A2991 RMK AO2 SLP120 CB DSNT NE & E & S T02610222 $=
201706182152 METAR KATL 182152Z 24006KT 10SM FEW012 SCT026TCU BKN075 BKN200 25/22 A2993 RMK AO2 RAB11E21 SLP126 CB DSNT NE & SE TCU E SHRA E & NW P0000 T02500217 $=
201706182052 METAR KATL 182052Z 28009KT 10SM FEW008 SCT023TCU BKN060 BKN250 26/22 A2993 RMK AO2 DZE04RAB24E37 SLP126 TCU VC E & S SHRA VC E & S P0002 60002 T02560222 56011 $=
201706182018 SPECI KATL 182018Z 21011G16KT 10SM FEW008 SCT023TCU BKN070 BKN250 27/21 A2993 RMK AO2 DZE04 TCU SW-NW SHRA SW-NW & N-NE P0000 T02720211 $=
201706181952 METAR KATL 181952Z 19008KT 10SM -DZ FEW015 SCT030TCU BKN060 BKN250 26/21 A2993 RMK AO2 RAE34DZB52 SLP127 TCU VC SW-W & DSNT E SHRA VC SW-W & NW-NE & DSNT E P0000 T02560211 $=
201706181852 METAR KATL 181852Z 18012G16KT 10SM -RA SCT028TCU SCT035 BKN075 BKN250 27/21 A2994 RMK AO2 RAB1758E07B50 SLP129 TCU OHD-S & SW SHRA S & SW & DSNT NE & W-NW P0000 T02670211 $=
201706181752 METAR KATL 181752Z 19013G19KT 10SM SCT018 SCT030TCU BKN100 BKN250 27/21 A2997 RMK AO2 SLP137 TCU NW & VC SW CB DSNT NE 60013 T02720211 10272 20217 56009 $=
201706181652 METAR KATL 181652Z 25005KT 10SM SCT032TCU SCT048 BKN070 BKN250 25/22 A2997 RMK AO2 RAB20E36 SLP138 TCU OHD-S SHRA VC NE-E P0002 T02500222 $=
201706181552 METAR KATL 181552Z 24003KT 10SM SCT034 SCT060 BKN100 BKN250 23/22 A2998 RMK AO2 SLP144 RAB1456 TSB26E39 TCU S & DSNT SW SHRA S & VC NE P0011 T02330217 $=
201706181539 SPECI KATL 181539Z 21005KT 6SM -RA BR SCT017 BKN032 BKN075 23/22 A2999 RMK AO2 RAB1456 TSB26E37 TS DSIPT MOV NE MDT CU S-SW P0011 T02280217 $=
201706181531 SPECI KATL 181531Z 19006KT 2SM R09R/5500VP6000FT -TSRA BR SCT014 BKN028CB BKN035 23/22 A2999 RMK AO2 TWR VIS 3 RAB1456 TSB26 OCNL LTGICCG W TS W MOV NE VIS N-NE 1 P0011 T02280217=
201706181521 SPECI KATL 181521Z 20007KT 2SM R09R/4000VP6000FT -RA BR FEW014 BKN026 OVC035 23/22 A3000 RMK AO2 RAB1456 P0006 T02280217=
201706181518 SPECI KATL 181518Z 20006KT 4SM R09R/4000VP6000FT RA BR FEW014 BKN026 OVC035 23/22 A3000 RMK AO2 RAB1456 BINOVC P0005 T02330217=
201706181516 SPECI KATL 181516Z 19008KT 2 1/2SM R09R/4000VP6000FT +TSRA BR SCT018 BKN026 BKN045 23/22 A2999 RMK AO2 RAB1456 TSB16 SHRA VC N P0001 T02330217=
201706181510 SPECI KATL 181510Z 19006KT 7SM -RA SCT018 BKN026 BKN045 24/21 A2999 RMK AO2 RAB1456 SHRA VC N P0001 T02390211=
201706181452 METAR KATL 181452Z 21006KT 10SM FEW016 SCT028TCU BKN045 25/21 A2999 RMK AO2 SLP147 TCU S-SW SHRA S-SW & DSNT NW T02500211 53005=
201706181352 METAR KATL 181352Z 21006KT 10SM SCT012 BKN100 24/21 A2998 RMK AO2 SLP144 T02440211=
201706181252 METAR KATL 181252Z 17007KT 10SM SCT009 SCT013 SCT075 23/21 A2997 RMK AO2 SLP140 T02280206=
201706181152 METAR KATL 181152Z 19004KT 10SM FEW008 SCT034 BKN075 22/21 A2998 RMK AO2 SLP141 70033 T02170206 10222 20217 51015=
201706181052 METAR KATL 181052Z 00000KT 10SM FEW008 SCT025 BKN034 22/20 A2997 RMK AO2 SLP139 T02170200=
201706181019 SPECI KATL 181019Z 27005KT 10SM FEW008 SCT021 BKN070 22/20 A2997 RMK AO2 T02170200=
201706180952 METAR KATL 180952Z 25005KT 10SM FEW008 BKN012 BKN016 22/20 A2996 RMK AO2 SLP136 T02170200=
201706180852 METAR KATL 180852Z 23007KT 10SM FEW007 BKN011 22/21 A2993 RMK AO2 SLP125 T02170206 53014=
201706180836 SPECI KATL 180836Z 23004KT 10SM FEW007 BKN011 22/21 A2992 RMK AO2 T02170206=
201706180757 SPECI KATL 180757Z 20005KT 10SM FEW007 22/21 A2990 RMK AO2 T02170206=
201706180752 METAR KATL 180752Z 20005KT 10SM CLR 22/21 A2989 RMK AO2 SLP112 T02170206=
201706180652 METAR KATL 180652Z 20008KT 10SM CLR 22/21 A2988 RMK AO2 SLP106 T02220211=
201706180552 METAR KATL 180552Z 19005KT 10SM FEW038 FEW150 22/21 A2989 RMK AO2 SLP109 60001 T02220211 10256 20222 58010=
201706180452 METAR KATL 180452Z 20006KT 10SM FEW038 FEW150 SCT250 23/21 A2990 RMK AO2 SLP115 T02280211 403170206=
201706180352 METAR KATL 180352Z 19004KT 10SM FEW036 FEW160 SCT250 23/21 A2991 RMK AO2 SLP117 MDT CU SE T02280211=
201706180252 METAR KATL 180252Z 15003KT 10SM FEW110 SCT170 BKN250 24/22 A2992 RMK AO2 SLP121 60001 T02390217 53013=
201706180152 METAR KATL 180152Z 12004KT 10SM FEW038 FEW065 SCT120 BKN200 24/22 A2990 RMK AO2 SLP113 T02440217=
201706180052 METAR KATL 180052Z 11006KT 10SM FEW042TCU FEW060 SCT120 BKN200 25/21 A2989 RMK AO2 LTG DSNT E AND SE RAB26E44 SLP112 CB DSNT E & SE & NW TCU NW P0001 T02500211=
201706172352 METAR KATL 172352Z 15006KT 10SM FEW034CB SCT046TCU SCT120 BKN200 26/21 A2988 RMK AO2 LTG DSNT ALQDS SLP108 CB NW MOV N CB DSNT ALQDS TCU N & SE-SW-W SHRA N & S & NW 60032 T02560211 10317 20239 53011=
201706172252 METAR KATL 172252Z 27004KT 10SM FEW032TCU FEW055 SCT120 BKN200 25/22 A2985 RMK AO2 LTG DSNT ALQDS RAE46 TSE33 SLP099 TS DSIPTD CB DSNT ALQDS TCU E-S-SW SHRA E & SW P0013 T02500217=
201706172234 SPECI KATL 172234Z 21006KT 10SM -RA FEW038TCU SCT055 BKN120 BKN200 24/22 A2984 RMK AO2 LTG DSNT N-E TSE33 TS DSIPTD CB DSNT N-E-SE TCU SW P0013 T02390217=
201706172152 METAR KATL 172152Z 18008KT 6SM TSRA SCT036CB BKN060 BKN100 BKN200 24/21 A2987 RMK AO2 LTG DSNT N-E RAB00 TSB06 SLP105 VIS LWR NE-SE-SW OCNL LTGICCGCA NE-SE-SW TS NE-SE-SW MOV N CB DSNT N-E & W P0019 T02440211 $=
201706172131 SPECI KATL 172131Z 14018G25KT 3SM TSRA BKN034CB BKN065 BKN100 BKN200 26/21 A2988 RMK AO2 RAB00 TSB06 VIS N-E-S 1 FRQ LTGICCGCA N-OHD-S TS N-OHD-S MOV N CB ALQDS MOV N P0010 T02560206 $=
201706172114 SPECI KATL 172114Z 02008KT 6SM -TSRA SCT048CB BKN075 BKN100 BKN200 27/22 A2985 RMK AO2 RAB00 TSB06 VIS NW-NE-SE 1 OCNL LTGICCGCA N-OHD-S TS N-OHD-S MOV N CB ALQDS MOV N P0010 T02720217=
201706172106 SPECI KATL 172106Z 18005KT 6SM R09R/4500VP6000FT +TSRA SCT048CB BKN075 BKN100 BKN200 27/21 A2985 RMK AO2 RAB00 TSB06 OCNL LTGICCGCA N-OHD-S TS N-OHD-S MOV N CB ALQDS MOV N P0004 T02670211=
201706172052 METAR KATL 172052Z 18005KT 10SM VCTS SCT050CB SCT065 BKN100 BKN250 29/20 A2985 RMK AO2 LTG DSNT E SLP096 OCNL LTGIC VC W TS VC W MOV N TCU ALQDS CB DSNT E SHRA DSNT S T02940200 56012=
201706172028 SPECI KATL 172028Z 20009KT 10SM VCTS SCT050CB BKN065 BKN100 BKN250 31/20 A2985 RMK AO2 LTG DSNT E AND W TCU OHD & E-SW & NW OCNL LTGICCG VC SW-W TS VC SW-W MOV N T03110200=
201706171952 METAR KATL 171952Z 25004KT 10SM SCT048TCU SCT060 32/19 A2985 RMK AO2 SLP097 TCU OHD & E-SW CB DSNT SE & S & SW SHRA SW T03170194=
201706171852 METAR KATL 171852Z 19007KT 10SM SCT044 31/20 A2987 RMK AO2 SLP102 TCU DSNT SW MDT CU E-SE T03060200=
201706171752 METAR KATL 171752Z 16008KT 10SM SCT042 29/19 A2988 RMK AO2 SLP107 MDT CU N-E-SW T02940194 10300 20222 58011=
201706171652 METAR KATL 171652Z VRB03KT 10SM SCT035 28/19 A2991 RMK AO2 SLP118 T02830194=
201706171552 METAR KATL 171552Z 16005KT 10SM SCT028 28/21 A2992 RMK AO2 SLP120 T02830206=
201706171452 METAR KATL 171452Z 19006KT 10SM SCT025 SCT250 27/22 A2991 RMK AO2 SLP120 T02670217 50000=
201706171352 METAR KATL 171352Z VRB03KT 10SM SCT025 SCT250 26/22 A2992 RMK AO2 SLP121 T02560217=
201706171252 METAR KATL 171252Z VRB03KT 10SM FEW027 FEW110 FEW200 24/21 A2992 RMK AO2 SLP121 T02390211=
201706171152 METAR KATL 171152Z 00000KT 10SM CLR 22/21 A2991 RMK AO2 SLP119 70034 T02220206 10222 20206 52020=
201706171052 METAR KATL 171052Z 00000KT 10SM FEW110 FEW200 21/20 A2989 RMK AO2 SLP112 T02110200=
201706170952 METAR KATL 170952Z 24003KT 10SM FEW110 FEW200 21/20 A2988 RMK AO2 SLP106 T02060200=
201706170852 METAR KATL 170852Z 00000KT 10SM FEW110 FEW200 21/21 A2985 RMK AO2 SLP099 T02110206 58006=
201706170752 METAR KATL 170752Z 18003KT 10SM FEW110 SCT180 21/21 A2987 RMK AO2 SLP104 T02110206=
201706170652 METAR KATL 170652Z 00000KT 10SM FEW100 SCT120 BKN180 22/21 A2987 RMK AO2 SLP105 T02170211=
201706170552 METAR KATL 170552Z 27003KT 10SM FEW050 SCT110 BKN180 22/21 A2987 RMK AO2 RAE10 SLP106 P0000 60034 T02220211 10289 20217 58008=
201706170452 METAR KATL 170452Z 13003KT 10SM -RA FEW040CB SCT070 BKN110 OVC150 22/21 A2989 RMK AO2 SLP111 CB VC NE MOV NE P0001 T02220211 403000194=
201706170352 METAR KATL 170352Z 27005KT 9SM -RA FEW040CB SCT070 BKN100 OVC200 23/20 A2990 RMK AO2 TSE03 SLP115 CB VC NE-SE MOV NW P0004 T02330200=
201706170304 SPECI KATL 170304Z 21004KT 7SM -RA SCT040CB BKN060 BKN100 OVC200 22/21 A2989 RMK AO2 TSE03 VIS LWR E-SE OCNL LTG DSNT SE TS DSIPTD CB OHD-SE MOV STNRY P0003 T02220206=
201706170252 METAR KATL 170252Z 22008KT 7SM -TSRA BKN040CB BKN070 OVC200 22/21 A2989 RMK AO2 TSB12 SLP114 VIS LWR NE-SE & S-SW OCNL LTGIC E-SE TS E-SE MOV STNRY P0029 60029 T02220206 53014=
201706170213 SPECI KATL 170213Z 21014G18KT 9SM -TSRA SCT040CB BKN060 BKN150 24/21 A2989 RMK AO2 TSB12 VIS LWR SE-SW OCNL LTGIC SE-SW TS SE-SW MOV SE P0005 T02390211=
201706170152 METAR KATL 170152Z 00000KT 10SM -RA SCT045CB BKN060 BKN150 28/19 A2988 RMK AO2 RAB50 SLP108 LTG DSNT SW CB VC SE-S & DSNT SW MOV E P0000 T02780194=
201706170052 METAR KATL 170052Z 28004KT 10SM SCT045CB BKN060 BKN150 27/19 A2986 RMK AO2 LTG DSNT SW SLP101 CB VC SE & DSNT SW MOV SE TCU SE-S & W-NW T02720189=
201706162352 METAR KATL 162352Z 29007KT 10SM FEW045TCU SCT100 SCT150 29/19 A2985 RMK AO2 SLP099 CB DSNT SW TCU NE & OHD-E & VC S T02890189 10300 20261 55007=
201706162252 METAR KATL 162252Z 30006KT 10SM SCT045TCU SCT150 29/19 A2985 RMK AO2 SLP097 TCU E MDT CU ALQDS T02940194=
201706162152 METAR KATL 162152Z 31007KT 270V020 10SM SCT045 SCT120 SCT250 29/19 A2986 RMK AO2 SLP101 CB DSNT N TCU DSNT W T02940189=
201706162052 METAR KATL 162052Z 24006KT 10SM SCT040 SCT120 BKN250 29/19 A2987 RMK AO2 SLP106 TCU DSNT N & NE & SW & W T02890189 57017=
201706161952 METAR KATL 161952Z 00000KT 10SM SCT038 SCT140 SCT200 SCT250 29/19 A2989 RMK AO2 SLP112 T02940194=
201706161852 METAR KATL 161852Z 27005KT 10SM FEW030 BKN140 BKN200 BKN250 27/19 A2991 RMK AO2 SLP118 T02720189=
201706161752 METAR KATL 161752Z 31005KT 10SM FEW030 SCT130 BKN200 BKN250 27/19 A2992 RMK AO2 SLP124 T02670194 10267 20200 58010=
201706161652 METAR KATL 161652Z 29006KT 10SM FEW025 SCT120 BKN200 BKN250 26/19 A2994 RMK AO2 SLP132 T02560189=
201706161552 METAR KATL 161552Z 32006KT 10SM FEW020 BKN120 BKN220 BKN250 24/19 A2996 RMK AO2 SLP136 T02440189=
201706161452 METAR KATL 161452Z 32010KT 10SM FEW018 BKN110 BKN200 BKN250 24/18 A2995 RMK AO2 SLP135 T02390183 55002=
201706161352 METAR KATL 161352Z 31006KT 10SM FEW008 BKN120 BKN200 BKN250 22/19 A2994 RMK AO2 SLP131 VIRGA S & DSNT E T02220189=
201706161252 METAR KATL 161252Z 32007KT 10SM FEW008 BKN110 BKN200 BKN250 21/18 A2995 RMK AO2 SLP135 VIRGA NE & SW & DSNT N T02060183=
201706161152 METAR KATL 161152Z 30009KT 10SM FEW007 FEW045 BKN130 BKN200 20/18 A2996 RMK AO2 SLP138 VIRGA E-S-SW ACC DSNT E & S 60000 70010 T02000183 10206 20194 53008=
201706161052 METAR KATL 161052Z 31010KT 10SM FEW007 BKN130 BKN180 BKN250 20/18 A2995 RMK AO2 SLP134 T02000183=
201706160952 METAR KATL 160952Z 31009KT 10SM FEW007 SCT130 BKN180 BKN250 19/18 A2993 RMK AO2 SLP123 ACC NE-E T01940183=
201706160852 METAR KATL 160852Z 27007KT 10SM FEW007 FEW065 SCT120 OVC180 20/18 A2994 RMK AO2 RAB06E21 SLP125 P0000 60000 T02000183 53003=
201706160752 METAR KATL 160752Z 33005KT 10SM FEW007 BKN130 OVC180 20/18 A2993 RMK AO2 SLP124 T02000183=
201706160652 METAR KATL 160652Z 31005KT 10SM FEW008 BKN140 OVC200 20/19 A2992 RMK AO2 SLP122 T02000189=
201706160552 METAR KATL 160552Z 31006KT 10SM FEW008 SCT180 BKN250 21/18 A2993 RMK AO2 SLP124 T02060183 10233 20200 55006=
201706160452 METAR KATL 160452Z 32004KT 10SM SCT150 BKN250 20/18 A2992 RMK AO2 SLP121 T02000183 403220200=
201706160352 METAR KATL 160352Z 31007KT 10SM SCT150 BKN200 BKN250 21/18 A2993 RMK AO2 SLP123 T02110183=
201706160252 METAR KATL 160252Z 26005KT 10SM FEW100 BKN200 BKN250 21/18 A2995 RMK AO2 SLP130 T02110183 50001=
201706160152 METAR KATL 160152Z 00000KT 10SM FEW110 SCT150 BKN200 BKN250 22/18 A2996 RMK AO2 SLP136 T02170183=
201706160052 METAR KATL 160052Z 24006KT 10SM FEW080 SCT120 SCT150CB BKN200 22/19 A2998 RMK AO2 SLP141 LTG DSNT NE-SE CBMAM VC S CB DSNT NE-SE T02170189=
201706152357 SPECI KATL 152357Z 32008KT 10SM FEW035 SCT080 BKN110 BKN200 23/18 A2994 RMK AO2 LTG DSNT NE-S CB DSNT NE-SE-S T02280183=
201706152352 METAR KATL 152352Z 35005KT 10SM VCTS FEW035 SCT080 BKN110 BKN200 23/18 A2994 RMK AO2 LTG DSNT E-S RAE03 TSE19 SLP130 CB DSNT NE-SE-S P0001 60010 T02330178 10322 20222 53010=
201706152319 SPECI KATL 152319Z 02008KT 10SM FEW035 BKN070 BKN100 BKN250 23/19 A2995 RMK AO2 RAE03 TSE19 LTG DSNT NE-SE TS MOV E CB DSNT NE-SE P0001 T02330194=
201706152252 METAR KATL 152252Z 32017KT 9SM -TSRA FEW030CB SCT060 BKN100 BKN250 23/20 A2994 RMK AO2 PK WND 32043/2219 WSHFT 2213 RAB36 SLP130 OCNL LTGICCG NE-SE TS NE-SE MOV E P0009 T02280200=
201706152233 SPECI KATL 152233Z 32031G38KT 10SM TS FEW010 BKN040CB BKN100 BKN200 24/18 A2993 RMK AO2 PK WND 32043/2219 WSHFT 2213 OCNL LTGICCG NW-N & DSNT NE-SE TS VC NW-N & DSNT NE-SE MOV E T02440183=
201706152221 SPECI KATL 152221Z 31030G43KT 10SM TS SQ SCT040CB BKN070 BKN100 BKN250 29/19 A2993 RMK AO2 PK WND 32043/2219 OCNL LTGICCG NW-N & DSNT NE-SE TS NW-N & DSNT NE-SE MOV E T02890189=
201706152152 METAR KATL 152152Z 28010G18KT 10SM TS SCT045CB SCT100 BKN250 32/20 A2990 RMK AO2 TSB47 SLP114 FRQ LTGICCG NE-SE TS VC NE-SE MOV NE T03220200=
201706152147 SPECI KATL 152147Z 26012G18KT 10SM TS SCT045CB SCT100 BKN250 32/20 A2990 RMK AO2 TSB47 OCNL LTGIC E-SE TS VC E-SE MOV NE=
201706152052 METAR KATL 152052Z 25006KT 10SM FEW035 SCT048TCU SCT065 BKN250 32/20 A2991 RMK AO2 SLP118 LTG DSNT NE-E & SE CB DSNT NE-E & SE & W TCU DSNT W-NW T03170200 58024=
201706152022 SPECI KATL 152022Z 24007KT 10SM FEW035 SCT048TCU BKN065 BKN250 32/21 A2993 RMK AO2 LTG DSNT SE TS VC DSIPT TCU OHD & E MDT CU S CB DSNT SE T03170206=
201706152002 SPECI KATL 152002Z 24004KT 10SM VCTS SCT035CB SCT048TCU BKN065 BKN250 31/20 A2994 RMK AO2 OCNL LTGIC VC NE TS VC NE MOV STNRY TCU OHD & E T03060200=
201706151952 METAR KATL 151952Z 32005KT 10SM SCT048TCU BKN065 31/21 A2994 RMK AO2 SLP128 TCU OHD & E TCU VC NE SHRA VC NE T03110206=
201706151852 METAR KATL 151852Z 28006KT 10SM SCT040TCU SCT100 30/21 A2996 RMK AO2 SLP133 TCU NE T03000206=
201706151752 METAR KATL 151752Z VRB04KT 10SM SCT040TCU 30/21 A2998 RMK AO2 SLP142 TCU ALQDS T03000206 10306 20233 58020=
201706151652 METAR KATL 151652Z 33005KT 10SM SCT035TCU BKN060 29/21 A3001 RMK AO2 SLP150 TCU ALQDS T02940211=
201706151552 METAR KATL 151552Z VRB05KT 10SM SCT032 SCT250 29/22 A3003 RMK AO2 SLP157 TCU DSNT N & NW MDT CU OHD & DSNT S T02940217=
201706151452 METAR KATL 151452Z 32007KT 10SM FEW024 SCT050 SCT210 SCT250 28/22 A3005 RMK AO2 SLP163 T02830222 50005=
201706151425 SPECI KATL 151425Z 29007KT 10SM FEW005 FEW020 BKN044 BKN250 27/22 A3005 RMK AO2 FU FEW005 T02670217=
201706151352 METAR KATL 151352Z 29009KT 10SM FEW022 SCT045 SCT250 27/21 A3005 RMK AO2 SLP164 T02670211=
201706151252 METAR KATL 151252Z 30008KT 10SM BKN040 BKN180 BKN250 25/20 A3004 RMK AO2 SLP162 T02500200=
201706151152 METAR KATL 151152Z 30006KT 10SM SCT040 SCT070 SCT180 SCT250 23/21 A3003 RMK AO2 SLP158 T02330206 10233 20217 53009=
201706151052 METAR KATL 151052Z 26004KT 10SM FEW065 SCT180 SCT250 22/19 A3002 RMK AO2 SLP154 T02170194=
201706150952 METAR KATL 150952Z 28004KT 10SM SCT180 BKN250 22/19 A3001 RMK AO2 SLP151 T02220194=
201706150852 METAR KATL 150852Z 23004KT 10SM BKN180 BKN250 22/19 A3000 RMK AO2 SLP149 T02220194 55012 $=
201706150752 METAR KATL 150752Z 31003KT 10SM FEW110 BKN180 BKN250 23/20 A3000 RMK AO2 SLP147 T02280200 $=
201706150652 METAR KATL 150652Z 23003KT 10SM FEW065 FEW110 BKN200 22/20 A3002 RMK AO2 SLP153 T02220200 $=
201706150552 METAR KATL 150552Z 32003KT 10SM FEW070 SCT100 SCT200 BKN250 23/20 A3004 RMK AO2 SLP161 ACC W-NW 60000 T02330200 10294 20222 58000 $=
201706150452 METAR KATL 150452Z 30004KT 10SM FEW022 SCT095 BKN150 OVC200 23/21 A3004 RMK AO2 RAE08 SLP161 P0000 T02280206 403170211 $=
201706150352 METAR KATL 150352Z 36010KT 9SM -RA FEW070 BKN110 BKN150 OVC200 23/21 A3005 RMK AO2 TSE15 SLP164 P0000 T02280206 $=
201706150315 SPECI KATL 150315Z 29007KT 8SM -RA FEW040 SCT070 BKN110 BKN200 24/19 A3004 RMK AO2 TSE15 TS DSIPTD P0000 T02390194 $=
201706150252 METAR KATL 150252Z 00000KT 10SM -TSRA FEW040CB SCT070 BKN100 BKN200 25/18 A3004 RMK AO2 SLP161 RAB40 TSE08B38 OCNL LTGICCA NW-NE TS VC NW-NE MOV S P0000 60000 T02500183 50008 $=
201706150238 SPECI KATL 150238Z 22004KT 10SM TS FEW040CB BKN150 BKN200 BKN250 24/19 A3004 RMK AO2 TSE08E31B38 OCNL LTGIC NW-NE TS VC NW-NE MOV S T02440189 $=
201706150208 SPECI KATL 150208Z 31006KT 10SM FEW040 BKN150 BKN200 BKN250 25/19 A3005 RMK AO2 TSE08 LTG DSNT W-NW TS DSIPTD CB DSNT W-NW T02500189 $=
201706150152 METAR KATL 150152Z 34010KT 10SM TS FEW040CB BKN150 BKN200 BKN250 26/18 A3005 RMK AO2 SLP164 OCNL LTGICCA NW TS VC NW MOV STNRY T02560183 $=
201706150052 METAR KATL 150052Z 01006KT 10SM TS FEW045CB BKN060 BKN200 BKN250 28/19 A3003 RMK AO2 SLP157 FRQ LTGICCGCA NW-NE TS VC NW-NE MOV SW T02830194 $=
201706142352 METAR KATL 142352Z 20007KT 10SM TS SCT045CB BKN060 BKN250 29/18 A3001 RMK AO2 TSB30 SLP153 FRQ LTGICCG N-NE & DSNT NW TS VC N-NE & DSNT NW MOV S T02940183 10317 20289 53003 $=
201706142330 SPECI KATL 142330Z 23008KT 10SM TS FEW045CB BKN060 BKN250 30/18 A3001 RMK AO2 TSB30 OCNL LTGICCG NE TS VC NE MOV S T03000183 $=
201706142252 METAR KATL 142252Z 20007KT 10SM FEW045TCU BKN060 BKN250 30/19 A3000 RMK AO2 LTG DSNT NE SLP148 CB DSNT NE TCU OHD-NE T03000189 $=
201706142152 METAR KATL 142152Z 25007KT 10SM SCT045TCU SCT060 BKN250 31/19 A3000 RMK AO2 LTG DSNT N AND NE SLP148 CB DSNT N & NE TCU OHD-NE T03060189 $=
201706142052 METAR KATL 142052Z 21006KT 10SM SCT048TCU SCT250 31/20 A3001 RMK AO2 LTG DSNT NE SLP150 CB DSNT N-NE TCU OHD-NE-E T03110200 56022=
201706141952 METAR KATL 141952Z 22005KT 10SM SCT047 SCT250 31/20 A3003 RMK AO2 SLP156 CB DSNT N TCU DSNT NE MDT CU DSNT NW-N-NE T03110200=
201706141852 METAR KATL 141852Z VRB04KT 10SM SCT045 SCT250 31/21 A3005 RMK AO2 SLP163 CB DSNT N TCU DSNT N MDT CU N-NE & E-SE-S T03110206=
201706141752 METAR KATL 141752Z 00000KT 10SM BKN040TCU 29/19 A3007 RMK AO2 SLP173 CB DSNT N TCU OHD-NE-E-SE MDT CU ALQDS T02890194 10300 20228 58013=
201706141652 SPECI KATL 141652Z 21004KT 10SM SCT035 29/20 A3009 RMK AO2 SLP177 MDT CU N & E & S TCU DSNT NW-N T02940200=
201706141652 METAR KATL 141652Z 21004KT 10SM SCT035 29/20 A3009 RMK AO2 SLP177 MDT CU N & E & S TCU DSNT NW-N T02940200=
201706141552 METAR KATL 141552Z 26004KT 10SM SCT035TCU SCT060 29/21 A3010 RMK AO2 SLP183 TCU NE-SE T02890206=
201706141452 METAR KATL 141452Z 00000KT 10SM SCT025TCU SCT250 27/21 A3011 RMK AO2 SLP186 TCU NE-SE-SW-W T02720211 50007=
201706141352 METAR KATL 141352Z 00000KT 10SM FEW020 SCT050 SCT250 27/22 A3011 RMK AO2 SLP187 T02670217=
201706141252 METAR KATL 141252Z 30005KT 10SM SCT050 SCT060 25/21 A3010 RMK AO2 SLP183 T02500211=
201706141152 METAR KATL 141152Z 33003KT 10SM SCT050 23/21 A3009 RMK AO2 SLP180 T02280206 10228 20211 53016=
201706141052 METAR KATL 141052Z 29004KT 10SM BKN048 BKN250 22/21 A3008 RMK AO2 SLP174 T02170206=
201706140952 METAR KATL 140952Z 29007KT 10SM SCT047 SCT250 22/21 A3005 RMK AO2 SLP165 T02170206=
201706140852 METAR KATL 140852Z 23005KT 10SM BKN046 BKN250 22/21 A3005 RMK AO2 SLP163 T02220206 55004=
201706140752 METAR KATL 140752Z 25004KT 10SM FEW055 FEW200 22/20 A3004 RMK AO2 SLP161 T02220200=
201706140652 METAR KATL 140652Z 23004KT 10SM FEW055 FEW200 23/20 A3005 RMK AO2 SLP165 T02280200=
201706140552 METAR KATL 140552Z 19006KT 10SM FEW055 FEW200 23/21 A3006 RMK AO2 SLP168 T02280206 10283 20228 58009=
201706140452 METAR KATL 140452Z 00000KT 10SM FEW050 SCT200 23/21 A3008 RMK AO2 SLP174 T02330206 403110217=
201706140352 METAR KATL 140352Z 21003KT 10SM FEW050 SCT200 24/21 A3009 RMK AO2 SLP178 T02390206=
201706140252 METAR KATL 140252Z 20006KT 10SM FEW050 FEW250 24/20 A3009 RMK AO2 LTG DSNT N AND NW SLP178 T02440200 53014=
201706140152 METAR KATL 140152Z 20006KT 10SM FEW050 FEW250 26/19 A3007 RMK AO2 LTG DSNT N SLP172 CB DSNT N T02610194=
201706140052 METAR KATL 140052Z 17006KT 10SM FEW050 SCT065 SCT250 27/19 A3006 RMK AO2 SLP168 CB DSNT N T02720189=
201706132352 METAR KATL 132352Z 21005KT 10SM FEW050 SCT065 SCT250 28/18 A3004 RMK AO2 SLP164 T02830183 10311 20278 53001=
201706132252 METAR KATL 132252Z 20005KT 10SM FEW050TCU SCT065 SCT250 30/18 A3003 RMK AO2 SLP159 TCU OHD-W T03000183=
201706132152 METAR KATL 132152Z 21004KT 10SM SCT050 SCT250 29/18 A3004 RMK AO2 SLP160 MDT CU OHD & SE T02940183=
201706132052 METAR KATL 132052Z 21005KT 10SM SCT050 SCT250 29/18 A3004 RMK AO2 SLP161 MDT CU NE & OHD-SE-SW T02940178 56023=
201706131952 METAR KATL 131952Z 00000KT 10SM SCT048 SCT250 31/20 A3006 RMK AO2 SLP168 MDT CU NE-SE & SW-NW T03060200=
201706131852 METAR KATL 131852Z VRB04KT 10SM BKN040 BKN250 29/20 A3009 RMK AO2 SLP178 MDT CU OHD & ALQDS T02940200=
201706131752 METAR KATL 131752Z 20007KT 10SM BKN040 BKN150 BKN250 28/19 A3011 RMK AO2 SLP186 MDT CU N-NE & SW-NW T02780194 10289 20228 58018=
201706131652 METAR KATL 131652Z VRB03KT 10SM SCT035 SCT150 BKN250 28/19 A3013 RMK AO2 SLP194 MDT CU SE-SW T02830194=
201706131552 METAR KATL 131552Z 29004KT 10SM FEW035 SCT150 SCT250 28/19 A3016 RMK AO2 SLP203 T02780194=
201706131452 METAR KATL 131452Z VRB05KT 10SM FEW030 SCT150 SCT250 27/19 A3016 RMK AO2 SLP204 TCU DSNT NE T02670194 50003=
201706131352 METAR KATL 131352Z 00000KT 10SM FEW025 SCT150 SCT250 26/19 A3017 RMK AO2 SLP207 T02560189=
201706131252 METAR KATL 131252Z 23003KT 10SM FEW010 SCT170 BKN250 24/20 A3017 RMK AO2 SLP206 T02390200=
201706131152 METAR KATL 131152Z 35003KT 10SM FEW009 FEW150 SCT200 BKN250 23/20 A3016 RMK AO2 SLP201 70011 T02280200 10228 20217 53011=
201706131052 METAR KATL 131052Z 00000KT 10SM FEW008 SCT150 BKN200 BKN250 22/21 A3014 RMK AO2 SLP196 VIRGA S-SW T02220206=
201706130952 METAR KATL 130952Z 32003KT 10SM FEW025 SCT150 BKN200 BKN250 22/20 A3013 RMK AO2 SLP192 T02220200=
201706130852 METAR KATL 130852Z 33003KT 10SM CLR 22/21 A3012 RMK AO2 SLP190 T02220206 56001 $=
201706130752 METAR KATL 130752Z 32003KT 10SM FEW007 SCT025 SCT200 22/21 A3012 RMK AO2 SLP190 T02220206 $=
201706130652 METAR KATL 130652Z 00000KT 10SM FEW030 SCT200 22/21 A3012 RMK AO2 SLP191 T02220211 $=
201706130552 METAR KATL 130552Z 00000KT 10SM FEW030 SCT200 SCT250 23/21 A3013 RMK AO2 SLP191 T02280211 10267 20228 58005 $=
201706130452 METAR KATL 130452Z 22003KT 10SM FEW040 SCT200 BKN250 23/21 A3013 RMK AO2 SLP195 T02280211 402940222 $=
201706130352 METAR KATL 130352Z 00000KT 10SM FEW025 SCT200 BKN250 24/21 A3014 RMK AO2 SLP197 T02390211 $=
201706130252 METAR KATL 130252Z 20004KT 10SM SCT024 BKN035 BKN200 24/20 A3014 RMK AO2 SLP197 T02440200 53010 $=
201706130152 METAR KATL 130152Z 20004KT 10SM SCT030 BKN200 BKN250 25/19 A3012 RMK AO2 SLP191 T02500194 $=
201706130052 METAR KATL 130052Z 16006KT 10SM FEW030 SCT120 BKN200 BKN250 26/19 A3012 RMK AO2 SLP191 CB DSNT SE-S TCU DSNT NW T02560194 $=
201706122352 METAR KATL 122352Z 16007KT 10SM FEW030 SCT110 BKN150 BKN200 27/21 A3011 RMK AO2 SLP186 TCU DSNT SW T02670206 10294 20267 55003=
201706122252 METAR KATL 122252Z 15007KT 10SM FEW030 SCT150 BKN200 BKN250 28/20 A3010 RMK AO2 SLP184 CB DSNT SW TCU DSNT E-SE T02780200=
201706122152 METAR KATL 122152Z 13008KT 10SM FEW030 SCT100 BKN150 BKN200 28/20 A3012 RMK AO2 LTG DSNT NW SLP188 CB DSNT SE & NW T02830200=
201706122052 METAR KATL 122052Z 14010KT 10SM FEW023 SCT040 SCT110 BKN200 28/22 A3012 RMK AO2 LTG DSNT W-N SLP189 TS DSIPT CB DSNT W MOV W SHRA VC N & DSNT W T02830217 56018=
201706122038 SPECI KATL 122038Z 16008G17KT 140V200 10SM FEW025CB SCT045 SCT100 BKN200 29/23 A3012 RMK AO2 LTG DSNT W-N TS DSIPT CB N & DSNT W MOV W SHRA VC NW-N-NE & DSNT W T02890228=
201706122012 SPECI KATL 122012Z 16010G19KT 120V180 10SM VCTS FEW025CB SCT110 BKN200 28/22 A3013 RMK AO2 LTG DSNT W AND NW OCNL LTGICCG VC N-NE TS VC N-NE MOV W SHRA VC N-NE T02830222=
201706121952 METAR KATL 121952Z 13009KT 10SM VCTS FEW020CB SCT110 BKN200 29/22 A3014 RMK AO2 LTG DSNT W SLP194 OCNL LTGICCG VC NE TS VC NE MOV W SHRA VC N-NE T02890217=
201706121938 SPECI KATL 121938Z 14013KT 10SM VCTS FEW020CB SCT110 SCT200 28/22 A3014 RMK AO2 OCNL VC LTGICCG N & E TS VC N & E MOV W SHRA VC N & E T02830217=
201706121852 METAR KATL 121852Z 15009KT 10SM FEW030TCU SCT110 SCT200 28/22 A3015 RMK AO2 LTG DSNT NE AND S AND SW SLP197 CB DSNT NE & DSNT S & W TCU DSNT NE & SE-S & DSNT NW SHRA DSNT NE T02830217=
201706121752 METAR KATL 121752Z 08007KT 10SM FEW020CB SCT030TCU SCT110 BKN250 28/23 A3017 RMK AO2 LTG DSNT SW RAE1658 SLP206 CB VC N & E & W MOV W TCU E & DSNT SE-S & DSNT NW SHRA VC N & E & W P0000 60011 T02830228 10283 20228 58013=
201706121726 SPECI KATL 121726Z 12003KT 10SM VCTS FEW030CB SCT060 SCT110 BKN250 28/21 A3019 RMK AO2 LTG DSNT SW RAE1658 OCNL LTGICCG VC N & E TS VC N & E MOV SW TCU DSNT E-SE-S & DSNT NW SHRA VC N & E & SW P0000 T02780206=
201706121722 SPECI KATL 121722Z 12003KT 10SM FEW030CB SCT060 SCT110 BKN250 27/20 A3019 RMK AO2 LTG DSNT SW RAE1658 CB VC N & E & SW MOV SW TCU DSNT E-SE-S & DSNT NW SHRA VC N & E & SW P0000 T02720200=
201706121652 METAR KATL 121652Z 10003KT 10SM -RA FEW015CB SCT030TCU BKN100 BKN200 24/21 A3020 RMK AO2 LTG DSNT SW RAB1559 TSB08E39 SLP218 TS DSIPT CB N-NE & S-SW MOV SW TCU NE-SE & SW-NW P0011 T02440206=
201706121641 SPECI KATL 121641Z 10005KT 5SM -RA FEW020 BKN085 BKN100 BKN200 23/20 A3020 RMK AO2 RAB1559 TSB08E39 TS DSIPT P0010 T02330200=
201706121624 SPECI KATL 121624Z 11008KT 4SM TSRA BKN020CB BKN040 BKN180 24/22 A3021 RMK AO2 RAB1559 TSB08 VIS LWR NE-SE SHRA OCNL LTGICCG OHD-NE-SE TS OHD-NE-SE MOV SW P0006 T02440217=
201706121617 SPECI KATL 121617Z 11006KT 6SM -TSRA BKN027CB BKN046 BKN200 25/22 A3020 RMK AO2 RAB1559 TSB08 VIS LWR NE-SE SHRA OCNL LTGICCG NE-SE TS NE-SE MOV SW P0005 T02500222=
201706121610 SPECI KATL 121610Z 14006KT 6SM -TSRA BKN027CB BKN040TCU BKN180 BKN250 26/21 A3021 RMK AO2 RAB1559 TSB08 VIS LWR E & S SHRA OCNL LTGICCG E TS E MOV SW P0000 T02560211=
201706121607 SPECI KATL 121607Z 15007KT 8SM -RA BKN027CB BKN040TCU BKN180 BKN250 26/22 A3020 RMK AO2 RAB1559 VIS LWR E & S SHRA CB OHD-E MOV SW TCU NE-E-SE-S P0000 T02610217=
201706121552 METAR KATL 121552Z 00000KT 10SM BKN027TCU BKN050 BKN180 BKN250 27/21 A3020 RMK AO2 SLP217 TCU OHD & ALQDS T02670211=
201706121452 METAR KATL 121452Z VRB03KT 10SM SCT020TCU SCT180 BKN250 26/22 A3021 RMK AO2 SLP219 TCU N & E & SW T02610217 50001=
201706121352 METAR KATL 121352Z VRB04KT 10SM FEW015 SCT060 BKN180 BKN250 26/22 A3022 RMK AO2 SLP223 T02610217=
201706121252 METAR KATL 121252Z 00000KT 9SM FEW008 SCT055 SCT150 BKN200 BKN250 23/22 A3022 RMK AO2 SLP222 T02330217=
201706121208 SPECI KATL 121208Z 17003KT 8SM FEW008 BKN047 BKN055 BKN150 BKN250 23/22 A3021 RMK AO2 T02280217=
201706121152 METAR KATL 121152Z 15003KT 8SM BKN008 BKN030 BKN150 BKN250 23/22 A3021 RMK AO2 SLP219 BKN008 V SCT T02280217 10239 20222 53014=
201706121052 METAR KATL 121052Z 14003KT 8SM OVC006 23/22 A3019 RMK AO2 SLP213 CIG 006V008 T02280217=
201706120952 METAR KATL 120952Z 16003KT 10SM BKN007 BKN070 22/21 A3017 RMK AO2 SLP207 T02220211=
201706120930 SPECI KATL 120930Z 00000KT 10SM BKN007 22/21 A3017 RMK AO2 T02220211=
201706120852 METAR KATL 120852Z 21003KT 10SM FEW008 SCT070 22/21 A3016 RMK AO2 SLP204 T02220211 55001=
201706120752 METAR KATL 120752Z 15004KT 10SM BKN009 23/21 A3016 RMK AO2 SLP203 BKN009 V SCT T02280211=
201706120740 SPECI KATL 120740Z 16005KT 10SM SCT009 23/21 A3016 RMK AO2 SCT009 V BKN T02280211=
201706120725 SPECI KATL 120725Z 16006KT 10SM BKN009 BKN013 23/21 A3016 RMK AO2 T02330211=
201706120652 METAR KATL 120652Z 15005KT 10SM BKN013 BKN027 23/21 A3017 RMK AO2 SLP205 T02330211=
201706120650 SPECI KATL 120650Z 15004KT 10SM BKN013 BKN027 23/21 A3017 RMK AO2=
201706120552 METAR KATL 120552Z 16007KT 10SM FEW033 FEW070 SCT250 24/21 A3018 RMK AO2 SLP210 T02390211 10278 20239 58002=
201706120528 SPECI KATL 120528Z 15007KT 10SM BKN030 BKN070 BKN250 24/21 A3019 RMK AO2 T02390211=
201706120452 METAR KATL 120452Z 16007KT 10SM FEW040 FEW070 BKN250 24/21 A3020 RMK AO2 SLP214 T02440211 403060206=
201706120352 METAR KATL 120352Z 15008KT 10SM FEW045 SCT070 BKN250 25/21 A3019 RMK AO2 SLP212 T02500211=
201706120252 METAR KATL 120252Z 15008KT 10SM FEW045 SCT070 BKN250 26/21 A3019 RMK AO2 SLP213 T02560211 53016=
201706120152 METAR KATL 120152Z 16007KT 10SM FEW040 SCT090 BKN200 BKN250 26/21 A3017 RMK AO2 SLP207 T02610206=
201706120052 METAR KATL 120052Z 15006KT 10SM SCT045 SCT090 BKN200 BKN250 27/19 A3015 RMK AO2 SLP201 TCU DSNT W & NW T02720189=
201706112352 METAR KATL 112352Z 15010KT 10SM SCT045TCU SCT090 BKN200 BKN250 28/18 A3014 RMK AO2 SLP197 TCU NW & DSNT W MDT CU N & NE T02780183 10306 20278 55004=
201706112252 METAR KATL 112252Z 16010KT 10SM SCT050TCU SCT090 BKN200 BKN250 29/19 A3013 RMK AO2 SLP194 TCU W-NW & DSNT E T02890194=
201706112152 METAR KATL 112152Z 14008KT 10SM SCT048TCU SCT100 BKN200 BKN250 29/19 A3014 RMK AO2 SLP197 TCU S & W-NW & DSNT ALQDS T02940189=
201706112052 METAR KATL 112052Z 14011KT 10SM SCT048TCU SCT100 BKN200 BKN250 31/19 A3015 RMK AO2 SLP199 TCU NE-E & W-NW & DSNT ALQDS T03060194 58018=
201706111952 METAR KATL 111952Z 16011G15KT 10SM SCT043TCU BKN095 BKN200 BKN250 29/19 A3017 RMK AO2 SLP208 CB DSNT SE TCU ALQDS T02940194=
201706111852 METAR KATL 111852Z 12007KT 10SM SCT036TCU BKN075 BKN100 BKN200 29/21 A3019 RMK AO2 SLP212 TCU ALQDS T02940206=
201706111752 METAR KATL 111752Z 16008KT 10SM SCT034TCU BKN065 BKN100 BKN200 28/20 A3021 RMK AO2 SLP219 TCU NE-SE & W-NW MDT CU OHD-ALQDS T02830200 10294 20211 58007=
201706111652 METAR KATL 111652Z VRB06KT 10SM SCT025TCU BKN060 BKN200 BKN250 28/21 A3022 RMK AO2 SLP225 TCU S-W T02830211=
201706111552 METAR KATL 111552Z 17007KT 10SM BKN020 BKN060 BKN200 BKN250 26/21 A3023 RMK AO2 SLP229 CIG 016V024 MDT CU OHD-ALQDS T02560211=
201706111452 METAR KATL 111452Z 19007KT 10SM BKN016 BKN055 OVC250 25/21 A3023 RMK AO2 SLP226 CIG 014V018 T02500211 50012=
201706111352 METAR KATL 111352Z 17007KT 10SM BKN010 BKN075 BKN250 24/21 A3023 RMK AO2 SLP228 ACC E-S-W T02390211=
201706111342 SPECI KATL 111342Z 17009KT 10SM BKN010 BKN070 BKN250 24/21 A3023 RMK AO2 ACC SE-SW T02390211=
201706111252 METAR KATL 111252Z 15004KT 10SM FEW008 SCT070 SCT180 BKN250 22/20 A3021 RMK AO2 SLP222 T02220200=
201706111152 METAR KATL 111152Z 15004KT 10SM FEW006 SCT070 OVC250 21/19 A3019 RMK AO2 SLP214 T02110194 10228 20206 53017=
201706111148 SPECI KATL 111148Z 13003KT 10SM FEW006 SCT070 OVC250 21/19 A3019 RMK AO2=
201706111052 METAR KATL 111052Z 11005KT 10SM FEW070 BKN250 21/19 A3017 RMK AO2 SLP207 T02060189=
201706110952 METAR KATL 110952Z 13003KT 10SM FEW070 BKN250 21/19 A3014 RMK AO2 SLP198 T02060189=
201706110852 METAR KATL 110852Z 14004KT 10SM FEW070 SCT250 21/18 A3014 RMK AO2 SLP196 T02110183 55003=
201706110752 METAR KATL 110752Z 14003KT 10SM SCT070 SCT250 21/18 A3014 RMK AO2 SLP195 T02110178=
201706110652 METAR KATL 110652Z 14005KT 10SM SCT250 22/17 A3015 RMK AO2 SLP198 T02170167=
201706110552 METAR KATL 110552Z 12004KT 10SM SCT250 23/16 A3015 RMK AO2 SLP199 T02280161 10272 20222 50001=
201706110452 METAR KATL 110452Z 00000KT 10SM SCT250 23/16 A3015 RMK AO2 SLP200 T02280161 403000189=
201706110352 METAR KATL 110352Z 14004KT 10SM FEW250 23/16 A3015 RMK AO2 SLP201 T02330161=
201706110252 METAR KATL 110252Z 16005KT 10SM FEW075 SCT250 24/16 A3014 RMK AO2 SLP198 T02390161 53019=
201706110152 METAR KATL 110152Z 15004KT 10SM FEW075 SCT250 25/16 A3012 RMK AO2 SLP190 T02500156=
201706110052 METAR KATL 110052Z 18005KT 10SM FEW060 FEW075 SCT250 26/15 A3011 RMK AO2 SLP186 T02610150=
201706102352 METAR KATL 102352Z VRB05KT 10SM FEW055 SCT075 27/15 A3009 RMK AO2 SLP179 T02720150 10300 20272 55001=
201706102252 METAR KATL 102252Z 15008KT 10SM FEW060 BKN080 28/14 A3008 RMK AO2 SLP176 T02830144=
201706102152 METAR KATL 102152Z 15008KT 10SM SCT070 BKN080 28/15 A3008 RMK AO2 SLP178 T02830150=
201706102052 METAR KATL 102052Z 16007KT 10SM SCT070 BKN080 29/14 A3009 RMK AO2 SLP179 T02940144 56010=
201706101952 METAR KATL 101952Z 15006KT 10SM FEW070 BKN080 29/14 A3010 RMK AO2 SLP181 T02890144=
201706101852 METAR KATL 101852Z 15006KT 10SM SCT070 BKN080 28/13 A3011 RMK AO2 SLP185 T02830133=
201706101752 METAR KATL 101752Z 17005KT 10SM SCT065 BKN075 28/14 A3012 RMK AO2 SLP190 T02830139 10289 20206 58001=
201706101652 METAR KATL 101652Z 24006KT 10SM SCT060 BKN075 27/14 A3013 RMK AO2 SLP192 MDT CU SW-NW T02720144=
201706101552 METAR KATL 101552Z 19006KT 10SM SCT055 BKN080 BKN250 28/14 A3014 RMK AO2 SLP195 TCU DSNT W-NW MDT CU ALQDS T02780144=
201706101452 METAR KATL 101452Z 20007KT 10SM FEW050 FEW075 FEW250 27/15 A3013 RMK AO2 SLP192 T02670150 51012=
201706101352 METAR KATL 101352Z 26004KT 10SM FEW070 26/17 A3012 RMK AO2 SLP189 T02610167=
201706101252 METAR KATL 101252Z 23003KT 10SM FEW075 23/16 A3010 RMK AO2 SLP185 ACC DSNT N & W T02280161=
201706101152 METAR KATL 101152Z 21003KT 10SM FEW060 21/16 A3009 RMK AO2 SLP180 T02060161 10217 20189 51021=
201706101052 METAR KATL 101052Z 00000KT 10SM FEW060 19/16 A3007 RMK AO2 SLP174 T01890156=
201706100952 METAR KATL 100952Z 16003KT 10SM FEW060 19/17 A3005 RMK AO2 SLP167 T01890167=
201706100852 METAR KATL 100852Z 23003KT 10SM FEW060 20/16 A3002 RMK AO2 SLP158 T02000161 55000=
201706100752 METAR KATL 100752Z 20003KT 10SM FEW060 21/16 A3002 RMK AO2 SLP156 T02060161=
201706100652 METAR KATL 100652Z 00000KT 10SM CLR 21/16 A3002 RMK AO2 SLP156 T02110161=
201706100552 METAR KATL 100552Z 18003KT 10SM FEW060 22/16 A3002 RMK AO2 SLP158 T02170156 10267 20211 50005=
201706100452 METAR KATL 100452Z 18005KT 10SM FEW060 22/16 A3003 RMK AO2 SLP161 T02170161 402830183=
201706100352 METAR KATL 100352Z 00000KT 10SM FEW060 22/16 A3003 RMK AO2 SLP159 T02220161=
201706100252 METAR KATL 100252Z 00000KT 10SM FEW060 23/16 A3001 RMK AO2 SLP153 T02330156 53018=
201706100152 METAR KATL 100152Z 00000KT 10SM FEW060 24/14 A2998 RMK AO2 SLP144 T02440144=
201706100052 METAR KATL 100052Z 27004KT 10SM FEW060 25/14 A2997 RMK AO2 SLP139 T02500144=
201706092352 METAR KATL 092352Z 27007KT 10SM FEW060 27/14 A2996 RMK AO2 SLP135 T02670139 10283 20261 55002=
201706092252 METAR KATL 092252Z 27007KT 10SM FEW060 28/14 A2994 RMK AO2 SLP130 T02780139=
201706092152 METAR KATL 092152Z 26007KT 10SM SCT060 SCT080 28/14 A2995 RMK AO2 SLP132 T02780144=
201706092052 METAR KATL 092052Z 21005KT 10SM SCT060 SCT080 27/14 A2996 RMK AO2 SLP137 T02670139 57009=
201706091952 METAR KATL 091952Z 22008G15KT 10SM SCT065 28/13 A2997 RMK AO2 SLP140 T02780128=
201706091852 METAR KATL 091852Z VRB05KT 10SM SCT060 27/14 A2998 RMK AO2 SLP142 T02670139=
201706091752 METAR KATL 091752Z 22007KT 10SM SCT055 27/13 A2999 RMK AO2 SLP146 T02670133 10278 20206 58002=
201706091652 METAR KATL 091652Z 27010KT 10SM SCT055 27/16 A3000 RMK AO2 SLP149 T02720156=
201706091552 METAR KATL 091552Z 28009KT 10SM SCT045 26/15 A3000 RMK AO2 SLP150 T02560150=
201706091452 METAR KATL 091452Z VRB03KT 10SM FEW035 24/17 A3000 RMK AO2 SLP148 T02440167 50009=
201706091352 METAR KATL 091352Z 00000KT 10SM FEW020 FEW070 24/18 A3000 RMK AO2 SLP150 T02390178=
201706091252 METAR KATL 091252Z 00000KT 9SM FEW075 FEW250 22/17 A2999 RMK AO2 SLP147 T02170172=
201706091152 METAR KATL 091152Z 05005KT 10SM FEW075 FEW250 21/17 A2997 RMK AO2 SLP140 ACC DSNT SE T02060167 10206 20183 53021=
201706091052 METAR KATL 091052Z 33003KT 10SM FEW045 FEW075 SCT250 18/17 A2995 RMK AO2 SLP133 ACC DSNT E & S T01830167=
201706090952 METAR KATL 090952Z 33006KT 10SM FEW018 FEW040 SCT065 SCT250 19/17 A2992 RMK AO2 SLP124 T01890167=
201706090852 METAR KATL 090852Z 32005KT 10SM FEW040 FEW075 19/17 A2991 RMK AO2 SLP119 MDT CU NE T01890167 53000=
201706090752 METAR KATL 090752Z 00000KT 10SM FEW042 FEW075 19/16 A2990 RMK AO2 SLP117 MDT CU E-OHD-W T01940161=
201706090652 METAR KATL 090652Z 31005KT 10SM FEW048 FEW075 20/17 A2989 RMK AO2 SLP115 T02000167=
201706090552 METAR KATL 090552Z 32006KT 10SM FEW046 SCT075 21/16 A2991 RMK AO2 SLP119 ACC W-NW T02060161 10239 20200 50000=
201706090452 METAR KATL 090452Z 20004KT 10SM SCT048 BKN060 20/17 A2991 RMK AO2 SLP120 T02000167 402670183=
201706090352 METAR KATL 090352Z 00000KT 10SM FEW050 FEW070 22/16 A2991 RMK AO2 SLP120 T02170156=
201706090252 METAR KATL 090252Z 00000KT 10SM FEW070 22/16 A2990 RMK AO2 SLP118 T02220156 53015=
201706090152 METAR KATL 090152Z 26004KT 10SM FEW050 BKN070 22/15 A2988 RMK AO2 SLP112 T02220150=
201706090052 METAR KATL 090052Z 27005KT 10SM FEW050 FEW070 23/14 A2987 RMK AO2 SLP108 T02280144=
201706082352 METAR KATL 082352Z 29006KT 10SM FEW050 FEW070 24/14 A2986 RMK AO2 SLP103 T02440139 10267 20239 56003=
201706082252 METAR KATL 082252Z 26007KT 10SM SCT050TCU SCT070 26/13 A2986 RMK AO2 SLP103 TCU SE T02610133=
201706082152 METAR KATL 082152Z 20006KT 10SM SCT050 SCT070 26/14 A2986 RMK AO2 SLP101 T02610139=
201706082052 METAR KATL 082052Z 21007KT 10SM BKN050 BKN070 26/14 A2987 RMK AO2 SLP106 MDT CU OHD-NW T02610144 58019=
201706081952 METAR KATL 081952Z 27003KT 10SM FEW045TCU SCT065 26/14 A2989 RMK AO2 SLP112 TCU NW T02560144=
201706081852 METAR KATL 081852Z 09006KT 10SM BKN045 BKN065 25/14 A2992 RMK AO2 SLP122 MDT CU ALQDS T02500139=
201706081752 METAR KATL 081752Z VRB04KT 10SM BKN040 BKN080 24/14 A2993 RMK AO2 SLP125 MDT CU N & NE & SE & NW T02390144 10244 20189 58003=
201706081652 METAR KATL 081652Z 00000KT 10SM FEW030 BKN040 BKN070 24/16 A2994 RMK AO2 SLP130 T02390156=
201706081552 METAR KATL 081552Z VRB06KT 10SM BKN030 BKN080 22/15 A2994 RMK AO2 SLP132 T02220150=
201706081452 METAR KATL 081452Z 06009KT 10SM FEW025 SCT030 BKN085 22/16 A2994 RMK AO2 SLP131 T02170156 51009=
201706081352 METAR KATL 081352Z 08009KT 10SM SCT018 SCT027 21/16 A2994 RMK AO2 SLP130 T02110161=
201706081345 SPECI KATL 081345Z 08010KT 10SM SCT018 SCT025 21/17 A2994 RMK AO2 T02110167=
201706081252 METAR KATL 081252Z 08007KT 030V100 10SM SCT012 SCT090 21/17 A2992 RMK AO2 SLP123 T02060167=
201706081152 METAR KATL 081152Z 07010KT 10SM FEW008 SCT090 SCT250 18/17 A2991 RMK AO2 SLP121 ACC SW-W & NW 70107 T01830167 10200 20183 51014=
201706081052 METAR KATL 081052Z 06009KT 8SM FEW008 BKN080 BKN250 19/17 A2990 RMK AO2 SLP116 ACC OHD & W-N T01890172=
201706080952 METAR KATL 080952Z 08006KT 9SM FEW008 BKN080 BKN250 19/17 A2988 RMK AO2 SLP110 ACC W-NW T01890172=
201706080852 METAR KATL 080852Z 09005KT 8SM FEW006 FEW045 BKN080 BKN250 18/17 A2987 RMK AO2 SLP105 T01830172 56005=
201706080752 METAR KATL 080752Z 11006KT 10SM FEW018 FEW045 BKN080 BKN250 19/18 A2987 RMK AO2 SLP106 T01940178=
201706080709 SPECI KATL 080709Z 11005KT 9SM SCT016 BKN040 OVC070 19/18 A2987 RMK AO2 T01940183=
201706080652 METAR KATL 080652Z 12007KT 8SM FEW006 BKN018 OVC040 20/19 A2988 RMK AO2 SLP109 T02000189=
201706080639 SPECI KATL 080639Z 12005KT 9SM FEW007 SCT020 OVC045 20/18 A2988 RMK AO2 T02000183=
201706080612 SPECI KATL 080612Z 14004KT 8SM FEW008 BKN018 OVC040 19/19 A2988 RMK AO2 T01940189=
201706080552 METAR KATL 080552Z 13004KT 10SM FEW016TCU SCT038 OVC070 20/19 A2988 RMK AO2 RAE21 SLP110 TCU SE-SW P0015 60107 T02000189 10250 20189 50005=
201706080452 METAR KATL 080452Z VRB04KT 5SM RA BR SCT015CB BKN030 OVC060 19/18 A2989 RMK AO2 SLP113 VIS LWR SW-W CB OHD-SW MOV SW P0072 T01940183 402670189=
201706080352 METAR KATL 080352Z 02006KT 8SM -RA SCT020CB BKN030 BKN050 OVC150 21/18 A2987 RMK AO2 RAE16B50 SLP107 VIS LWR NW-NE CB NW-NE MOV S P0002 T02060183=
201706080252 METAR KATL 080252Z 17003KT 8SM -RA SCT032 BKN050 BKN080 OVC200 19/17 A2987 RMK AO2 SLP106 CB DSNT N-NE P0017 60018 T01940172 51013=
201706080218 SPECI KATL 080218Z 21005KT 5SM RA BR BKN032CB BKN045 BKN090 OVC200 19/17 A2986 RMK AO2 VIS LWR E-S CB OHD-SE MOV S P0000 T01940172=
201706080159 SPECI KATL 080159Z 33011KT 2SM +RA BKN032CB BKN045 BKN090 OVC200 20/17 A2986 RMK AO2 CB OHD-NE & S MOV S P0000 T02000167=
201706080152 METAR KATL 080152Z 32014KT 8SM -RA SCT032 BKN045 BKN090 BKN250 21/16 A2985 RMK AO2 RAE02B34 SLP102 VIS LWR N-NE CB DSNT N-NE P0001 T02060161=
201706080052 METAR KATL 080052Z VRB03KT 10SM -RA FEW040CB SCT060 BKN090 BKN250 24/17 A2984 RMK AO2 RAB31 SLP097 CB VC SW-W & NW MOV S P0000 T02390167=
201706072352 METAR KATL 072352Z 12008KT 10SM FEW040CB SCT060 SCT100 BKN250 25/16 A2983 RMK AO2 SLP092 VCSH SW-NW CB VC NW MOV SW TCU SW-NW T02500161 10267 20244 53006=
201706072252 METAR KATL 072252Z 08007KT 10SM FEW045TCU SCT060 BKN250 26/16 A2982 RMK AO2 SLP088 TCU VC W-NW T02610156=
201706072152 METAR KATL 072152Z 06007KT 10SM SCT045 BKN250 26/15 A2981 RMK AO2 SLP084 MDT CU NW-N T02560150=
201706072052 METAR KATL 072052Z 08007KT 050V120 10SM FEW045 FEW070 SCT250 27/16 A2981 RMK AO2 SLP084 MDT CU N T02670156 58009=
201706071952 METAR KATL 071952Z 09008KT 10SM FEW045 SCT070 BKN250 27/15 A2982 RMK AO2 SLP089 T02670150=
201706071852 METAR KATL 071852Z 08011KT 10SM FEW047 SCT070 BKN250 26/15 A2983 RMK AO2 SLP090 T02560150=
201706071752 METAR KATL 071752Z 07010KT 10SM FEW045 BKN070 BKN250 24/14 A2984 RMK AO2 SLP094 T02440139 10256 20200 57001=
201706071652 METAR KATL 071652Z 06012KT 10SM FEW045 SCT060 BKN250 25/14 A2984 RMK AO2 SLP094 T02500139=
201706071552 METAR KATL 071552Z 06010KT 10SM FEW035 FEW050 BKN250 23/13 A2984 RMK AO2 SLP096 T02330133=
201706071452 METAR KATL 071452Z 05017G22KT 10SM FEW030 SCT050 BKN250 23/14 A2984 RMK AO2 SLP096 T02280144 50008=
201706071352 METAR KATL 071352Z 09012KT 10SM FEW020 BKN035 BKN250 21/16 A2985 RMK AO2 SLP098 T02060161=
201706071252 METAR KATL 071252Z 07011KT 10SM FEW018 BKN030 BKN050 BKN250 21/17 A2984 RMK AO2 SLP095 T02060167=
201706071237 SPECI KATL 071237Z 07012KT 10SM FEW018 BKN030 BKN055 BKN200 21/17 A2983 RMK AO2 T02060167=
201706071152 METAR KATL 071152Z 06013KT 10SM FEW012 BKN022 BKN050 BKN200 19/17 A2982 RMK AO2 SLP088 70007 T01940167 10217 20194 53016=
201706071052 METAR KATL 071052Z 04015KT 10SM SCT010 BKN016 BKN050 BKN200 21/19 A2979 RMK AO2 SLP079 T02060189=
201706071044 SPECI KATL 071044Z 05012KT 10SM SCT010 BKN016 BKN050 BKN200 21/19 A2979 RMK AO2 T02060189=
201706070952 METAR KATL 070952Z 04009KT 10SM FEW014 SCT045TCU BKN180 BKN250 21/18 A2977 RMK AO2 SLP073 TCU N-E T02110183=
201706070852 METAR KATL 070852Z 02005KT 10SM FEW016 FEW065 BKN180 BKN250 21/19 A2977 RMK AO2 SLP072 T02110189 55003=
201706070752 METAR KATL 070752Z 01003KT 10SM FEW020 FEW140 BKN180 BKN250 21/19 A2976 RMK AO2 SLP069 T02110189=
201706070652 METAR KATL 070652Z 33003KT 10SM FEW140 BKN180 BKN250 21/19 A2977 RMK AO2 SLP071 T02110189=
201706070552 METAR KATL 070552Z 11004KT 10SM FEW065 FEW140 SCT200 BKN250 22/19 A2978 RMK AO2 SLP074 T02170194 10244 20217 58003=
201706070452 METAR KATL 070452Z 00000KT 10SM SCT065 BKN200 OVC250 22/20 A2979 RMK AO2 SLP077 T02220200 402610211=
201706070352 METAR KATL 070352Z 00000KT 10SM SCT060 BKN200 OVC250 22/20 A2980 RMK AO2 SLP080 T02220200=
201706070252 METAR KATL 070252Z 16005KT 10SM FEW060 SCT150 BKN200 OVC250 23/21 A2979 RMK AO2 SLP077 T02280211 53012=
201706070152 METAR KATL 070152Z 00000KT 10SM FEW120 BKN150 OVC200 23/22 A2977 RMK AO2 SLP070 T02330217=
201706070052 METAR KATL 070052Z 00000KT 10SM BKN120 BKN150 OVC200 24/21 A2976 RMK AO2 SLP068 VIRGA E-OHD-W T02440206=
201706062352 METAR KATL 062352Z 08005KT 10SM FEW012 SCT120 BKN150 OVC200 24/20 A2975 RMK AO2 SLP065 60007 T02440200 10256 20228 55003=
201706062252 METAR KATL 062252Z 05004KT 10SM FEW012 BKN150 BKN200 OVC250 25/21 A2974 RMK AO2 RAE02 SLP063 P0000 T02500206=
201706062152 METAR KATL 062152Z 33004KT 10SM -RA FEW012 SCT040 BKN110 OVC150 24/22 A2976 RMK AO2 SLP068 P0000 T02440222=
201706062052 METAR KATL 062052Z 03006KT 10SM -RA FEW020 SCT070 OVC110 24/19 A2976 RMK AO2 SLP068 P0000 60007 T02440194 56010=
201706061952 METAR KATL 061952Z 30005KT 10SM -RA FEW010 SCT070 OVC100 23/22 A2977 RMK AO2 SLP071 P0003 T02330217=
201706061852 METAR KATL 061852Z 32005KT 8SM -RA FEW015TCU SCT070 OVC100 23/20 A2978 RMK AO2 RAB10 SLP077 CB DSNT S-SW TCU E-SE-S P0004 T02330200=
201706061830 SPECI KATL 061830Z 29010KT 8SM -RA FEW015TCU SCT080 OVC100 23/20 A2979 RMK AO2 RAB10 CB DSNT SW TCU NE-SE P0001 T02330200=
201706061752 METAR KATL 061752Z 31006KT 10SM FEW020CB SCT030TCU BKN075 OVC150 26/21 A2979 RMK AO2 RAB24E36 SLP079 CB VC NW MOV SE TCU NE & E & S SHRA VC NW P0000 60000 T02560206 10261 20217 58010=
201706061652 METAR KATL 061652Z 31006KT 10SM SCT020TCU SCT060 BKN100 OVC150 26/21 A2981 RMK AO2 SLP084 TCU N-NE-E-SE-S SHRA VC SE & DSNT S-SW T02560206=
201706061552 METAR KATL 061552Z 31003KT 10SM FEW018TCU SCT070 BKN100 BKN150 OVC250 25/21 A2983 RMK AO2 SLP090 TCU NE-E T02500206=
201706061452 METAR KATL 061452Z 27004KT 10SM FEW010 SCT070 BKN110 BKN140 OVC250 24/22 A2982 RMK AO2 SLP090 SHRA DSNT SE BINOVC DSNT N 60000 T02440217 58001=
201706061352 METAR KATL 061352Z 33004KT 10SM FEW010 SCT070 BKN100 BKN150 OVC250 24/21 A2983 RMK AO2 RAB1257E10 SLP091 BINOVC DSNT N & SE P0000 T02390211=
201706061252 METAR KATL 061252Z 33004KT 10SM FEW005 SCT070 BKN095 BKN130 BKN180 23/21 A2983 RMK AO2 SLP091 T02280206=
201706061152 METAR KATL 061152Z 31003KT 10SM FEW003 BKN070 BKN095 BKN130 OVC180 22/21 A2983 RMK AO2 SLP092 60000 70034 T02170211 10217 20211 53005=
201706061052 METAR KATL 061052Z 00000KT 10SM FEW004 SCT065 SCT100 BKN130 BKN180 BKN250 21/21 A2982 RMK AO2 RAB42E52 SLP089 P0000 T02110206=
201706060952 METAR KATL 060952Z 33004KT 10SM SCT004 SCT055 BKN120 OVC180 21/21 A2981 RMK AO2 SLP086 T02110206=
201706060852 METAR KATL 060852Z 00000KT 7SM BKN004 BKN043 OVC140 22/21 A2981 RMK AO2 RAB0759E09 SLP086 CIG 003V005 P0000 60000 T02170206 56006 $=
201706060850 SPECI KATL 060850Z 31003KT 7SM BKN004 BKN043 OVC130 22/21 A2981 RMK AO2 RAB0759E09 P0000 $=
201706060807 SPECI KATL 060807Z 31005KT 8SM -RA FEW006 SCT027 BKN043 OVC130 22/21 A2982 RMK AO2 RAB0759 P0000 T02170211 $=
201706060752 METAR KATL 060752Z 33004KT 8SM FEW006 BKN017 BKN060 OVC130 22/21 A2982 RMK AO2 SLP087 BKN017 V SCT T02170211 $=
201706060652 METAR KATL 060652Z 00000KT 10SM SCT006 SCT055 OVC120 22/21 A2983 RMK AO2 RAB0553E33 SLP091 P0000 T02170206 $=
201706060552 METAR KATL 060552Z 23003KT 10SM FEW010 BKN090 BKN110 OVC150 22/21 A2984 RMK AO2 RAB38E48 SLP095 P0000 60001 T02170206 10228 20217 57003 $=
201706060452 METAR KATL 060452Z 20003KT 10SM BKN100 OVC150 22/21 A2984 RMK AO2 SLP095 VCSH W-N T02170211 402830211 $=
201706060352 METAR KATL 060352Z 23003KT 10SM BKN140 BKN200 22/21 A2985 RMK AO2 SLP098 T02170211 $=
201706060252 METAR KATL 060252Z 22003KT 10SM BKN140 BKN200 22/21 A2985 RMK AO2 SLP098 60001 T02170211 53009 $=
201706060152 METAR KATL 060152Z 24004KT 10SM FEW010 BKN120 BKN200 BKN250 22/21 A2984 RMK AO2 SLP096 T02220211 $=
201706060052 METAR KATL 060052Z 25006KT 10SM FEW010 BKN130 BKN200 BKN250 22/21 A2983 RMK AO2 RAB2357E28 SLP091 P0001 T02220211 $=
201706052352 METAR KATL 052352Z 25005KT 10SM FEW010 SCT120 BKN150 BKN250 23/22 A2982 RMK AO2 SLP089 SHRA SW-W 60033 T02280217 10283 20211 51005 $=
201706052252 METAR KATL 052252Z 26004KT 10SM FEW080 SCT110 BKN150 OVC250 23/22 A2982 RMK AO2 RAB2156E30 SLP088 P0005 T02330217 $=
201706052152 METAR KATL 052152Z 32007KT 10SM FEW030 SCT070 BKN100 OVC150 22/21 A2982 RMK AO2 PK WND 30027/2107 LTG DSNT E AND SE RAB15E52 SLP090 SHRA NE-SE-SW CB DSNT E-SE P0021 T02170206 $=
201706052130 SPECI KATL 052130Z 29008KT 4SM RA BR FEW020CB BKN035 BKN060 OVC150 22/20 A2983 RMK AO2 PK WND 30027/2107 RAB15 VIS LWR NE-E CB NE-E & VC SE-S MOV E P0015 T02170200 $=
201706052123 SPECI KATL 052123Z 30012KT 2SM R09R/4000VP6000FT +RA BR SCT020CB BKN035 BKN100 OVC200 22/21 A2984 RMK AO2 PK WND 30027/2107 LTG DSNT N AND NE RAB15 CB N-OHD-S & DSNT NE MOV E P0003 T02220206 $=
201706052057 SPECI KATL 052057Z 29009KT 10SM FEW020CB BKN100 BKN250 26/21 A2980 RMK AO2 LTG DSNT N AND SW CB DSNT NE & VC SW-NW MOV E SHRA VC SW-NW T02560206 $=
201706052052 METAR KATL 052052Z 30009KT 10SM FEW020 SCT050 BKN100 BKN250 27/21 A2980 RMK AO2 LTG DSNT N AND NE AND SW RAE35 SLP083 CB DSNT NE & DSNT SW-NW-N SHRA DSNT SW-NW-N P0007 60007 T02670211 58012 $=
201706052007 SPECI KATL 052007Z 30008KT 8SM R09R/5500VP6000FT -RA FEW025CB SCT050 BKN070 BKN250 23/21 A2982 RMK AO2 VIS LWR NE-SE SHRA CB NE-SE MOV E P0002 T02280206 $=
201706051957 SPECI KATL 051957Z 29016G23KT 8SM -RA SCT024CB BKN035 BKN055 BKN250 24/20 A2982 RMK AO2 VIS LWR NE-SE SHRA CB OHD-NE-SE & SW-NW MOV E P0000 T02390200 $=
201706051956 SPECI KATL 051956Z 28014G23KT 5SM +RA SCT024CB BKN035 BKN055 BKN250 24/20 A2982 RMK AO2 VIS LWR NE-SE SHRA CB OHD-NE-SE & SW-NW MOV E P0000 T02440200 $=
201706051952 METAR KATL 051952Z 29017G23KT 4SM +RA BKN035CB BKN060 BKN250 26/21 A2982 RMK AO2 RAB50 SLP089 VIS LWR SW-NW-N SHRA CB DSNT NE & SW-NW-N MOV E P0000 T02610211=
201706051908 SPECI KATL 051908Z 27010KT 10SM FEW030CB BKN040TCU BKN250 28/21 A2982 RMK AO2 CB VC W MOV E TCU OHD-E-SE-S SHRA VC W T02780206=
201706051852 METAR KATL 051852Z 29008KT 10SM FEW030 SCT070 BKN250 28/21 A2983 RMK AO2 RAB00E13 SLP089 CB DSNT W TCU DSNT S & DSNT SW-NW P0000 T02830211=
201706051759 SPECI KATL 051759Z 23010KT 10SM FEW025CB BKN030TCU BKN070 BKN250 27/20 A2984 RMK AO2 CB VC S MOV NE TCU NE & OHD-SW-NW SHRA VC S T02670200=
201706051752 METAR KATL 051752Z 26007KT 10SM FEW025CB BKN030TCU BKN070 BKN250 27/21 A2984 RMK AO2 SLP095 CB DSNT NE & VC S MOV E TCU NE & OHD-SW-NW SHRA VC S T02720206 10272 20222 58016=
201706051711 SPECI KATL 051711Z 24007KT 10SM SCT023TCU BKN030 BKN070 BKN250 26/21 A2986 RMK AO2 CB DSNT NE TCU N & E & S T02610211=
201706051652 METAR KATL 051652Z 24009KT 10SM FEW018 SCT025 BKN070 BKN250 27/21 A2986 RMK AO2 SLP102 T02670211=
201706051617 SPECI KATL 051617Z 24008KT 10SM FEW018 BKN026 BKN060 26/21 A2988 RMK AO2 T02560211=
201706051552 METAR KATL 051552Z 23009KT 10SM FEW015 SCT020 OVC060 24/21 A2989 RMK AO2 SLP111 T02440211=
201706051548 SPECI KATL 051548Z 23008KT 10SM FEW015 SCT020 OVC060 24/21 A2989 RMK AO2=
201706051452 METAR KATL 051452Z 26009KT 10SM BKN015 BKN020 OVC060 24/21 A2989 RMK AO2 SLP113 T02440211 50001=
201706051359 SPECI KATL 051359Z 25008KT 10SM BKN011 BKN015 OVC050 23/21 A2989 RMK AO2 T02330211=
201706051352 METAR KATL 051352Z 25008KT 10SM BKN009 BKN013 OVC050 23/21 A2989 RMK AO2 SLP114 BINOVC DSNT SW T02330211=
201706051252 METAR KATL 051252Z 25009KT 8SM BKN008 BKN050 OVC120 23/21 A2989 RMK AO2 SLP115 BINOVC T02280211=
201706051152 METAR KATL 051152Z 23006KT 6SM BR BKN006 OVC055 22/21 A2989 RMK AO2 SLP112 CIG 005V008 60000 70082 T02220211 10222 20217 51005=
201706051110 SPECI KATL 051110Z 25006KT 7SM BKN007 BKN055 OVC180 22/21 A2989 RMK AO2 BKN007 V SCT T02170211=
201706051052 METAR KATL 051052Z 25005KT 7SM SCT007 SCT037 BKN055 BKN180 22/21 A2989 RMK AO2 SLP112 T02170211=
201706051046 SPECI KATL 051046Z 26006KT 7SM SCT007 SCT037 BKN180 22/21 A2989 RMK AO2 CIG 006V009=
201706051030 SPECI KATL 051030Z 26006KT 6SM BR BKN007 BKN011 OVC037 22/21 A2989 RMK AO2 CIG 006V009 T02170211=
201706051017 SPECI KATL 051017Z 24004KT 8SM FEW005 SCT011 BKN037 OVC180 22/21 A2988 RMK AO2 BINOVC T02170211=
201706051000 SPECI KATL 051000Z 22005KT 7SM SCT005 BKN011 BKN033 OVC180 22/21 A2988 RMK AO2 T02170211=
201706050952 METAR KATL 050952Z 25005KT 7SM FEW005 SCT012 BKN034 BKN180 22/21 A2988 RMK AO2 SLP108 T02170211=
201706050941 SPECI KATL 050941Z 24005KT 7SM FEW005 SCT013 BKN033 BKN150 22/21 A2988 RMK AO2 T02170211 $=
201706050918 SPECI KATL 050918Z 25006KT 8SM SCT006 BKN013 22/21 A2988 RMK AO2 T02170211 $=
201706050848 METAR KATL 050848Z 22004KT 7SM BKN006 OVC013 22/21 A2987 RMK AO2 SLP106 60000 T02170211 56015 $=
201706050847 SPECI KATL 050847Z 22004KT 8SM BKN006 OVC013 22/21 A2987 RMK AO2 $=
201706050752 METAR KATL 050752Z 21003KT 2 1/2SM OVC004 22/21 A2988 RMK AO2 SFC VIS 7 RAB27E36 SLP109 CIG 003V005 P0000 T02170211 $=
201706050740 SPECI KATL 050740Z 21003KT 2 1/2SM BR OVC004 22/21 A2988 RMK AO2 SFC VIS 6 RAB27E36 CIG 003V006 P0000 T02170211 $=
201706050652 METAR KATL 050652Z 20005KT 2 1/2SM OVC006 22/21 A2990 RMK AO2 SFC VIS 8 SLP115 CIG 004V008 T02170211 $=
201706050552 METAR KATL 050552Z 19006KT 2 1/2SM OVC005 22/21 A2992 RMK AO2 SFC VIS 10 RAE0459 SLP122 CIG 004V007 P0000 60012 T02170211 10228 20217 58007 $=
201706050516 SPECI KATL 050516Z 17007KT 2 1/2SM OVC005 22/21 A2992 RMK AO2 SFC VIS 10 RAE0459 CIG 004V007 P0000 T02170211 $=
201706050452 METAR KATL 050452Z 17006KT 2 1/2SM -RA OVC004 22/21 A2993 RMK AO2 SFC VIS 7 RAB0353 SLP127 CIG 003V006 P0001 T02170211 402720217 $=
201706050417 SPECI KATL 050417Z 16004KT 2 1/2SM -RA BKN004 BKN010 OVC030 22/21 A2994 RMK AO2 SFC VIS 7 RAB0353 CIG 003V006 P0000 T02170211 $=
201706050403 SPECI KATL 050403Z 16004KT 9SM -RA BKN007 BKN013 OVC065 22/21 A2994 RMK AO2 RAB0353 CIG 005V009 P0000 T02170211 $=
201706050352 METAR KATL 050352Z 14005KT 10SM SCT004 BKN011 BKN065 OVC130 22/21 A2994 RMK AO2 RAE23 SLP129 CIG 009V013 P0000 T02170211 $=
201706050252 METAR KATL 050252Z 11005KT 10SM -RA FEW005 FEW060 BKN110 OVC200 22/21 A2994 RMK AO2 SLP130 P0005 60011 T02220211 51004 $=
201706050204 SPECI KATL 050204Z 17003KT 7SM -RA SCT009 SCT055 OVC110 22/21 A2994 RMK AO2 P0001 T02220211 $=
201706050152 METAR KATL 050152Z 17005KT 6SM -RA BR BKN010 BKN050 OVC100 22/21 A2994 RMK AO2 RAB0057 SLP132 CIG 008V012 P0005 T02220211 $=
201706050052 METAR KATL 050052Z 17005KT 10SM FEW008 BKN085 BKN110 OVC200 22/21 A2994 RMK AO2 RAE32 SLP129 CB DSNT W-NW ACC OHD-ALQDS P0001 T02220211 $=
201706042352 METAR KATL 042352Z 13005KT 8SM -RA FEW008 SCT070 BKN110 OVC200 23/22 A2993 RMK AO2 LTG DSNT N SLP126 CB DSNT N ACC OHD-ALQDS P0004 60006 T02280217 10272 20228 53001 $=
201706042252 METAR KATL 042252Z 15009KT 10SM -RA FEW040 BKN075 BKN120 OVC200 24/21 A2992 RMK AO2 RAE2155B13 SLP122 CB DSNT W ACC N & E-SE P0000 T02390206 $=
201706042152 METAR KATL 042152Z 12007KT 10SM -RA FEW018 FEW038 BKN070 BKN200 25/21 A2992 RMK AO2 RAB27 SLP122 ACC E & SE-SW P0000 T02500206 $=
201706042052 METAR KATL 042052Z 14007KT 100V160 10SM FEW025 BKN085 27/21 A2993 RMK AO2 LTG DSNT SW SLP124 CB DSNT SW 60002 T02720211 56027 $=
201706041952 METAR KATL 041952Z 09010KT 10SM FEW018 BKN120 26/21 A2994 RMK AO2 SLP129 CB DSNT SE AND SW T02610206 $=
201706041852 METAR KATL 041852Z 09010KT 10SM FEW008 SCT035 BKN060 BKN130 24/22 A2997 RMK AO2 LTG DSNT SE RAB09E40 SLP140 CB DSNT SE P0002 T02440222 $=
201706041838 SPECI KATL 041838Z 08008KT 10SM -RA FEW008 SCT047 BKN060 24/22 A2998 RMK AO2 LTG DSNT SE RAB09 CB DSNT SE P0002 T02390217 $=
201706041815 SPECI KATL 041815Z 06009KT 5SM -RA BR FEW012 SCT041 BKN048 23/21 A2999 RMK AO2 LTG DSNT SE RAB09 CB DSNT SE P0002 T02330211 $=
201706041752 METAR KATL 041752Z 07011KT 10SM FEW008 BKN012 BKN045 BKN130 24/21 A3001 RMK AO2 LTG DSNT E AND SE SLP152 CB DSNT E AND SE 60064 T02390211 10250 20222 58002 $=
201706041711 SPECI KATL 041711Z 03006KT 10SM FEW008 BKN014 OVC065 23/21 A3002 RMK AO2 LTG DSNT N CB DSNT N AND NE T02330211 $=
201706041652 METAR KATL 041652Z 03007KT 8SM VCTS SCT008 BKN014CB OVC055 23/22 A3002 RMK AO2 LTG DSNT N AND NE RAE49 TSB16E51 SLP157 OCNL LTGCG N-E TS N-E MOV NE VSBY LWR N-E P0061 T02280217 $=
201706041631 SPECI KATL 041631Z 02005KT 3SM -TSRA BR FEW008 SCT022CB OVC055 23/21 A3002 RMK AO2 LTG DSNT N-E TSB16 OCNL LTGICCG N-NE TS N-NE MOV NE P0061 T02280211 $=
201706041620 SPECI KATL 041620Z 04006KT 1SM R09R/2600VP6000FT +TSRA BR SCT008 OVC022CB 22/21 A3002 RMK AO2 LTG DSNT NE TSB16 OCNL LTGICCG OHD-N TS OHD-N MOV NE P0053 T02220211 $=
201706041614 SPECI KATL 041614Z 07003KT 2SM R09R/1800VP6000FT +RA BR SCT008 OVC022 23/22 A3005 RMK AO2 LTG DSNT NE PRESRR CB DSNT NE P0026 T02280217 $=
201706041609 SPECI KATL 041609Z 28008KT 7SM R09R/2200VP6000FT -RA FEW008 BKN022 OVC034 23/21 A3004 RMK AO2 LTG DSNT NE CB DSNT NE P0000 T02330211 $=
201706041552 METAR KATL 041552Z 05008KT 7SM -RA FEW011 OVC036 24/21 A3002 RMK AO2 LTG DSNT E RAB49 SLP157 CB DSNT E P0000 T02440211 $=
201706041452 METAR KATL 041452Z 02004KT 10SM SCT044 BKN130 OVC250 24/21 A3001 RMK AO2 LTG DSNT E AND W RAE19 SLP153 CB DSNT E AND W P0001 60003 T02440211 50001 $=
201706041352 METAR KATL 041352Z 32008KT 7SM -RA FEW037 OVC110 22/21 A3003 RMK AO2 LTG DSNT SE RAB11 SLP159 CB DSNT SE P0002 T02220211 $=
201706041252 METAR KATL 041252Z 34004KT 10SM SCT041CB BKN070 BKN085 OVC180 25/19 A3002 RMK AO2 RAB21E44 SLP154 CB VC W-NW MOV NE P0000 T02500194 $=
201706041152 METAR KATL 041152Z 32004KT 10SM FEW048 SCT120 OVC180 24/20 A3001 RMK AO2 LTG DSNT N AND NE SLP152 OCNL LTGIC DSNT N-NE CB DSNT N-NE T02440200 10244 20228 51005 $=
201706041052 METAR KATL 041052Z 00000KT 10SM SCT048 SCT100 BKN180 OVC250 23/20 A3001 RMK AO2 SLP152 T02330200 $=
201706040952 METAR KATL 040952Z 00000KT 10SM SCT050 SCT090 BKN150 OVC200 23/21 A3000 RMK AO2 SLP149 T02280206 $=
201706040852 METAR KATL 040852Z 00000KT 10SM FEW050 SCT120 OVC150 23/20 A3000 RMK AO2 SLP147 T02280200 57004 $=
201706040752 METAR KATL 040752Z 31004KT 10SM SCT090 BKN140 OVC200 23/20 A3000 RMK AO2 SLP149 T02280200 $=
201706040652 METAR KATL 040652Z 31003KT 10SM BKN140 BKN200 OVC250 23/19 A3001 RMK AO2 SLP150 T02330194 $=
201706040552 METAR KATL 040552Z 00000KT 10SM FEW100 BKN130 BKN200 BKN250 23/20 A3001 RMK AO2 SLP152 T02330200 10272 20233 58008 $=
201706040452 METAR KATL 040452Z 22005KT 10SM FEW095 BKN130 BKN200 BKN250 23/20 A3003 RMK AO2 SLP157 T02330200 403110200 $=
201706040352 METAR KATL 040352Z 00000KT 10SM SCT095 BKN120 BKN200 BKN250 24/19 A3003 RMK AO2 SLP158 T02440194 $=
201706040252 METAR KATL 040252Z 00000KT 10SM FEW095 SCT120 BKN200 BKN250 25/19 A3004 RMK AO2 SLP160 T02500189 51012 $=
201706040152 METAR KATL 040152Z 27004KT 10SM SCT095 BKN120 BKN200 BKN250 25/19 A3002 RMK AO2 SLP156 T02500189 $=
201706040052 METAR KATL 040052Z 31009KT 10SM FEW036 SCT100 BKN200 BKN250 26/20 A3002 RMK AO2 LTG DSNT E TSE20 SLP157 TS DSIPTD CB DSNT E & NW TCU DSNT N T02560200 $=
201706040020 SPECI KATL 040020Z 27007KT 10SM FEW038 FEW100 BKN200 BKN250 26/21 A3002 RMK AO2 TSE20 TS DSIPTD CB DSNT W & NW TCU DSNT E SHRA DSNT NW T02560206 $=
201706032352 METAR KATL 032352Z 23004KT 10SM TS FEW042CB SCT095 SCT120 BKN200 27/20 A3000 RMK AO2 LTG DSNT N AND NW TSB45 SLP149 OCNL LTGICCGCA VC NW-N TS VC NW-N MOV SW CB DSNT N & W & NW TCU DSNT E T02720200 10311 20272 55000 $=
201706032345 SPECI KATL 032345Z 23004KT 10SM TS FEW042CB SCT095 SCT120 BKN200 27/20 A3000 RMK AO2 LTG DSNT N AND NW TSB45 OCNL LTGICCGCA VC NW-N TS VC NW-N MOV SW CB DSNT N & W & NW TCU DSNT E T02720200 $=
201706032252 METAR KATL 032252Z 20007KT 10SM FEW050 FEW095 SCT120 BKN200 28/19 A2999 RMK AO2 LTG DSNT W AND NW SLP145 CB DSNT N-NE & SE & W & NW TCU DSNT E & NW SHRA DSNT N-NE T02780189 $=
201706032152 METAR KATL 032152Z 19009KT 10SM FEW055 SCT090 SCT120 BKN200 29/18 A3000 RMK AO2 SLP147 CB DSNT NE & SW TCU DSNT W T02940183 $=
201706032052 METAR KATL 032052Z 17006KT 10SM SCT055 BKN080 BKN250 29/19 A3000 RMK AO2 LTG DSNT SW SLP149 CB DSNT SW TCU DSNT SE T02890189 56016 $=
201706031952 METAR KATL 031952Z 11005KT 10SM BKN055TCU BKN080 29/17 A3001 RMK AO2 SLP153 TCU SE-SW T02940172 $=
201706031852 METAR KATL 031852Z 10003KT 10SM SCT055 BKN090 BKN250 31/17 A3003 RMK AO2 SLP158 MDT CU ALQDS T03060172 $=
201706031752 METAR KATL 031752Z 00000KT 10SM SCT060 BKN090 BKN150 29/17 A3005 RMK AO2 SLP164 T02940172 10300 20222 58014 $=
201706031652 METAR KATL 031652Z 16006KT 10SM SCT045 BKN100 BKN200 29/17 A3007 RMK AO2 SLP170 MDT CU ALQDS T02890172 $=
201706031552 METAR KATL 031552Z 04006KT 10SM BKN045 BKN075 BKN200 28/18 A3009 RMK AO2 SLP177 MDT CU ALQDS T02830183 $=
201706031452 METAR KATL 031452Z VRB03KT 10SM FEW043 SCT150 28/18 A3009 RMK AO2 SLP179 T02830178 50004 $=
201706031352 METAR KATL 031352Z 00000KT 10SM BKN150 BKN250 26/19 A3010 RMK AO2 SLP183 T02610189 $=
201706031252 METAR KATL 031252Z 00000KT 10SM FEW150 SCT200 SCT250 25/19 A3010 RMK AO2 SLP180 T02500189 $=
201706031152 METAR KATL 031152Z 00000KT 10SM FEW130 SCT250 22/19 A3008 RMK AO2 SLP176 T02220189 10239 20200 53016 $=
201706031052 METAR KATL 031052Z 00000KT 10SM FEW130 SCT200 SCT250 21/18 A3006 RMK AO2 SLP169 T02060183 $=
201706030952 METAR KATL 030952Z 00000KT 10SM SCT130 BKN200 21/18 A3004 RMK AO2 SLP163 T02060178 $=
201706030852 METAR KATL 030852Z 28003KT 10SM BKN130 BKN200 22/18 A3003 RMK AO2 SLP158 T02170178 55006 $=
201706030752 METAR KATL 030752Z 24003KT 10SM SCT130 SCT200 22/18 A3003 RMK AO2 SLP158 T02170178 $=
201706030652 METAR KATL 030652Z 00000KT 10SM FEW140 SCT200 SCT250 23/17 A3003 RMK AO2 SLP158 T02280172 $=
201706030552 METAR KATL 030552Z 00000KT 10SM SCT140 SCT250 23/17 A3005 RMK AO2 SLP165 T02280172 10283 20228 58004 $=
201706030452 METAR KATL 030452Z 00000KT 10SM BKN140 BKN250 24/17 A3006 RMK AO2 SLP168 T02440172 403060200 $=
201706030352 METAR KATL 030352Z 00000KT 10SM BKN130 BKN250 24/18 A3007 RMK AO2 SLP171 T02440178 $=
201706030252 METAR KATL 030252Z 24003KT 10SM FEW150 SCT250 25/17 A3006 RMK AO2 SLP170 T02500167 53016 $=
201706030152 METAR KATL 030152Z 22004KT 10SM SCT150 SCT250 26/17 A3004 RMK AO2 SLP162 T02560167 $=
201706030052 METAR KATL 030052Z 20004KT 10SM FEW150 SCT200 BKN250 27/17 A3002 RMK AO2 SLP157 T02670167 $=
201706022352 METAR KATL 022352Z 26006KT 10SM FEW060 BKN200 28/16 A3001 RMK AO2 SLP154 T02830156 10306 20278 56004 $=
201706022252 METAR KATL 022252Z VRB03KT 10SM FEW060 SCT180 SCT250 30/13 A3002 RMK AO2 SLP154 T03000133 $=
201706022152 METAR KATL 022152Z 34008KT 10SM FEW060 SCT250 30/13 A3002 RMK AO2 SLP156 T03000128 $=
201706022052 METAR KATL 022052Z 32007KT 10SM FEW060 SCT250 31/14 A3003 RMK AO2 SLP158 T03060144 56019 $=
201706021952 METAR KATL 021952Z 07007KT 10SM FEW055 BKN250 29/13 A3004 RMK AO2 SLP162 T02940128 $=
201706021852 METAR KATL 021852Z VRB05KT 10SM FEW055 SCT200 BKN250 29/14 A3006 RMK AO2 SLP168 T02940144=
201706021752 METAR KATL 021752Z VRB03KT 10SM SCT055 BKN130 29/16 A3008 RMK AO2 SLP177 T02890161 10289 20217 58010=
201706021652 METAR KATL 021652Z 36010KT 10SM FEW047 SCT120 BKN150 28/17 A3010 RMK AO2 SLP182 T02780167=
201706021552 METAR KATL 021552Z 36006KT 10SM FEW030 SCT140 SCT250 28/17 A3011 RMK AO2 SLP186 T02780172=
201706021452 METAR KATL 021452Z 34006KT 10SM BKN130 BKN150 BKN250 26/18 A3011 RMK AO2 SLP188 T02560183 50001=
201706021352 METAR KATL 021352Z 33005KT 10SM FEW110 BKN140 BKN250 24/19 A3012 RMK AO2 SLP193 T02390189=
201706021252 METAR KATL 021252Z 33004KT 10SM FEW110 BKN160 BKN230 23/19 A3012 RMK AO2 SLP191 T02280189=
201706021152 METAR KATL 021152Z 32006KT 10SM FEW110 BKN150 BKN230 22/18 A3011 RMK AO2 SLP189 T02170183 10222 20200 51012=
201706021052 METAR KATL 021052Z 00000KT 10SM FEW110 SCT170 BKN250 20/18 A3010 RMK AO2 SLP187 T02000183=
201706020952 METAR KATL 020952Z 31003KT 10SM FEW150 BKN180 BKN250 21/19 A3009 RMK AO2 SLP180 T02060189=
201706020852 METAR KATL 020852Z 32004KT 10SM FEW150 BKN180 BKN250 21/19 A3007 RMK AO2 SLP175 T02060189 53002 $=
201706020752 METAR KATL 020752Z 31003KT 10SM FEW120 BKN180 BKN250 20/19 A3007 RMK AO2 SLP172 T02000189 $=
201706020652 METAR KATL 020652Z 27004KT 10SM BKN160 BKN200 BKN250 20/19 A3006 RMK AO2 SLP171 T02000189 $=
201706020552 METAR KATL 020552Z 25003KT 10SM BKN150 OVC250 21/19 A3007 RMK AO2 SLP173 T02060189 10222 20200 58008 $=
201706020452 METAR KATL 020452Z 31005KT 10SM BKN150 OVC250 21/19 A3008 RMK AO2 SLP176 T02060189 402940200 $=
201706020352 METAR KATL 020352Z 24003KT 10SM BKN150 OVC200 21/18 A3009 RMK AO2 SLP180 T02110183 $=
201706020252 METAR KATL 020252Z 23006KT 10SM BKN150 BKN200 OVC250 21/19 A3009 RMK AO2 SLP183 T02110189 53006 $=
201706020152 METAR KATL 020152Z 23003KT 10SM CLR 22/19 A3008 RMK AO2 SLP179 T02170194 $=
201706020052 METAR KATL 020052Z 23005KT 10SM FEW110 BKN150 BKN200 22/19 A3007 RMK AO2 SLP176 VIRGA SE-SW T02170194 $=
201706012352 METAR KATL 012352Z 21008KT 10SM FEW100 BKN140 OVC200 22/19 A3008 RMK AO2 RAE11 SLP177 VIRGA SE-SW P0000 60000 T02220194 10294 20222 53002 $=
201706012252 METAR KATL 012252Z 20007KT 10SM -RA FEW040 BKN110CB BKN150 OVC200 23/19 A3006 RMK AO2 RAB27 SLP170 CBMAM NE P0000 T02330194 $=
201706012152 METAR KATL 012152Z 20009KT 10SM FEW040 SCT110 BKN150 OVC200 24/19 A3007 RMK AO2 SLP174 VIRGA E-OHD-NW T02440189 $=
201706012052 METAR KATL 012052Z 16005KT 10SM FEW050 SCT070 BKN110 BKN250 26/17 A3007 RMK AO2 SLP174 CB DSNT SE-S-SW TCU DSNT NE & S T02560172 57012=
201706012017 SPECI KATL 012017Z 17006KT 10SM SCT050CB BKN100 BKN250 26/18 A3007 RMK AO2 TS DSIPT CB VC E-SE MOV SE TCU NE-SE-S SHRA VC E-SE T02560178=
201706011952 METAR KATL 011952Z 27005KT 10SM VCTS SCT050CB SCT100 BKN250 29/17 A3008 RMK AO2 SLP176 OCNL LTGICCG VC SE TS VC SE MOV SE SHRA VC SE T02890167=
201706011923 SPECI KATL 011923Z 33009KT 10SM VCTS FEW050CB SCT085 BKN250 29/16 A3008 RMK AO2 OCNL LTGICCG VC SE TS VC SE MOV E SHRA VC SE T02940161=
201706011852 METAR KATL 011852Z 32007KT 10SM BKN050TCU BKN085 OVC200 28/16 A3009 RMK AO2 SLP182 CB DSNT SE-SW TCU OHD-E-SE-S-SW & DSNT W T02780161=
201706011752 METAR KATL 011752Z 34006KT 10SM SCT055TCU SCT085 BKN250 28/14 A3010 RMK AO2 SLP184 CB DSNT SE-SW TCU N-NE-E-SE & NW T02830144 10283 20211 58011=
201706011652 METAR KATL 011652Z 29003KT 10SM BKN040TCU BKN085 BKN250 28/18 A3013 RMK AO2 SLP193 TCU OHD-NE-SE-S & DSNT NW T02780178=
201706011552 METAR KATL 011552Z 00000KT 10SM FEW030 SCT110 BKN250 26/19 A3013 RMK AO2 SLP195 T02610194=
201706011452 METAR KATL 011452Z 00000KT 10SM BKN100 BKN150 BKN250 24/20 A3014 RMK AO2 SLP197 T02390200 51002=
201706011352 METAR KATL 011352Z 32004KT 10SM BKN110 BKN130 BKN250 23/19 A3014 RMK AO2 SLP197 T02330194=
201706011252 METAR KATL 011252Z 28003KT 10SM BKN100 BKN130 BKN250 22/19 A3014 RMK AO2 SLP197 T02220194=
