##########################################################
# Query made at 04/19/2024 23:55:42 UTC
# Time interval: from 09/01/2017 12:00  to 09/30/2017 12:59  UTC
##########################################################

##########################################################
# KATL, Atlanta, Hartsfield - Jackson Atlanta International Airport (United States)
# WMO index: 72219. WIGOS ID: 0-20000-0-72219
# Latitude 33-38-59N. Longitude 084-25-00W. Altitude 312 m.
##########################################################

201709301252 METAR KATL 301252Z 07015KT 10SM BKN030 BKN250 22/14 A3013 RMK AO2 SLP194 T02170139=
201709301152 METAR KATL 301152Z 07011KT 10SM FEW028 SCT050 SCT065 21/15 A3011 RMK AO2 SLP187 T02060150 10228 20206 52014=
201709301052 METAR KATL 301052Z 07011KT 10SM FEW020 BKN050 BKN065 21/16 A3010 RMK AO2 SLP182 T02110156=
201709300952 METAR KATL 300952Z 06010KT 10SM FEW020 FEW045 21/16 A3009 RMK AO2 SLP177 T02110156=
201709300852 METAR KATL 300852Z 05010KT 10SM FEW045 22/16 A3007 RMK AO2 SLP172 T02170161 53003=
201709300752 METAR KATL 300752Z 06007KT 10SM CLR 22/16 A3006 RMK AO2 SLP170 T02220161=
201709300652 METAR KATL 300652Z 08008KT 10SM FEW045 22/17 A3007 RMK AO2 SLP170 T02220167=
201709300552 METAR KATL 300552Z 06010KT 10SM FEW045 23/18 A3006 RMK AO2 SLP168 T02330178 10289 20233 50002=
201709300452 METAR KATL 300452Z 05010KT 10SM FEW045 24/18 A3006 RMK AO2 SLP169 T02440183 403170200=
201709300352 METAR KATL 300352Z 03009KT 10SM SCT050 25/18 A3006 RMK AO2 SLP169 T02500183=
201709300252 METAR KATL 300252Z 36007KT 10SM SCT050 25/18 A3005 RMK AO2 SLP167 T02500178 51015=
201709300152 METAR KATL 300152Z 01010KT 10SM FEW050 SCT090 26/18 A3005 RMK AO2 SLP165 T02610183=
201709300052 METAR KATL 300052Z 36010KT 10SM FEW050 SCT090 27/19 A3003 RMK AO2 SLP158 T02670189=
201709292352 METAR KATL 292352Z 35010KT 10SM FEW055TCU SCT080 SCT100 29/18 A3001 RMK AO2 SLP152 TCU SW T02890178 10317 20289 53008=
201709292252 METAR KATL 292252Z 04007KT 10SM SCT055TCU BKN090 29/17 A3000 RMK AO2 SLP148 TCU OHD-SW T02940167=
201709292152 METAR KATL 292152Z 13004KT 10SM SCT055TCU BKN080 31/17 A2999 RMK AO2 SLP144 TCU NE-OHD-S T03060167=
201709292052 METAR KATL 292052Z 32005KT 10SM SCT055 SCT070 30/17 A2998 RMK AO2 SLP143 T03000167 56012=
201709291952 METAR KATL 291952Z 00000KT 10SM SCT060 31/17 A2999 RMK AO2 SLP146 T03110167=
201709291852 METAR KATL 291852Z 32004KT 10SM FEW048 31/17 A3000 RMK AO2 SLP149 T03060172=
201709291752 METAR KATL 291752Z 33006KT 10SM FEW046 30/18 A3002 RMK AO2 SLP154 T03000178 10300 20206 58012=
201709291652 METAR KATL 291652Z 12006KT 10SM CLR 29/18 A3004 RMK AO2 SLP161 T02890183=
201709291552 METAR KATL 291552Z 05008KT 10SM FEW250 28/18 A3005 RMK AO2 SLP165 T02780178=
201709291452 METAR KATL 291452Z 07009KT 10SM FEW250 26/18 A3005 RMK AO2 SLP167 T02610183 51012=
201709291352 METAR KATL 291352Z 07010KT 10SM CLR 24/18 A3004 RMK AO2 SLP164 T02390183=
201709291252 METAR KATL 291252Z 05007KT 10SM FEW250 23/18 A3004 RMK AO2 SLP161 T02330183=
201709291152 METAR KATL 291152Z 34006KT 10SM FEW150 FEW250 21/17 A3002 RMK AO2 SLP156 T02060172 10228 20200 53012=
201709291052 METAR KATL 291052Z 33007KT 10SM CLR 20/17 A3001 RMK AO2 SLP150 T02000172=
201709290952 METAR KATL 290952Z 33006KT 10SM CLR 21/17 A2999 RMK AO2 SLP145 T02060172=
201709290852 METAR KATL 290852Z 33008KT 10SM CLR 21/18 A2998 RMK AO2 SLP141 T02110178 51001=
201709290752 METAR KATL 290752Z 33005KT 10SM CLR 22/18 A2998 RMK AO2 SLP140 T02170183=
201709290652 METAR KATL 290652Z 32004KT 10SM CLR 22/18 A2998 RMK AO2 SLP142 T02170183=
201709290552 METAR KATL 290552Z 32006KT 10SM CLR 23/19 A2998 RMK AO2 SLP140 T02280189 10283 20228 50001=
201709290452 METAR KATL 290452Z 33006KT 10SM CLR 23/19 A2998 RMK AO2 SLP140 T02330194 403280200=
201709290352 METAR KATL 290352Z 31006KT 10SM CLR 24/19 A2998 RMK AO2 SLP140 T02390194=
201709290252 METAR KATL 290252Z 32007KT 10SM CLR 25/19 A2997 RMK AO2 SLP139 T02500189 51015=
201709290152 METAR KATL 290152Z 31006KT 10SM FEW060 27/18 A2996 RMK AO2 SLP135 T02670183=
201709290052 METAR KATL 290052Z 31005KT 10SM FEW065 27/19 A2995 RMK AO2 SLP131 T02720189=
201709282352 METAR KATL 282352Z 31007KT 10SM FEW070TCU 28/18 A2993 RMK AO2 SLP125 TCU SE T02830183 10328 20283 53002=
201709282252 METAR KATL 282252Z 29007KT 10SM FEW065TCU FEW090 29/18 A2992 RMK AO2 SLP123 TCU SE-S T02940178=
201709282152 METAR KATL 282152Z 30010KT 10SM FEW070TCU SCT090 31/18 A2992 RMK AO2 SLP121 TCU OHD-SW T03110178=
201709282052 METAR KATL 282052Z VRB04KT 10SM FEW075 SCT090 33/14 A2992 RMK AO2 SLP121 MDT CU S-SW T03280144 55012=
201709281952 METAR KATL 281952Z 34005KT 10SM SCT070 32/14 A2992 RMK AO2 SLP121 MDT CU NE & S-SW T03170144=
201709281852 METAR KATL 281852Z 28005KT 10SM FEW070 FEW250 31/15 A2994 RMK AO2 SLP126 MDT CU NE-E & SE-S-SW T03110150=
201709281752 METAR KATL 281752Z 00000KT 10SM FEW060 FEW250 31/18 A2996 RMK AO2 SLP134 T03110178 10317 20200 58012=
201709281652 METAR KATL 281652Z 27003KT 10SM FEW010 FEW050 FEW250 30/18 A2998 RMK AO2 SLP140 FU FEW010 T03000178=
201709281552 METAR KATL 281552Z 00000KT 10SM FEW250 29/18 A2999 RMK AO2 SLP144 T02940183=
201709281452 METAR KATL 281452Z VRB03KT 10SM CLR 28/18 A3000 RMK AO2 SLP147 T02830183 51010=
201709281352 METAR KATL 281352Z 31005KT 10SM CLR 26/19 A2999 RMK AO2 SLP146 T02560189=
201709281252 METAR KATL 281252Z 33006KT 10SM FEW300 22/18 A2998 RMK AO2 SLP143 T02220183=
201709281152 METAR KATL 281152Z 31004KT 10SM FEW250 20/18 A2997 RMK AO2 SLP138 T02000183 10228 20200 52008=
201709281052 METAR KATL 281052Z 31008KT 10SM FEW250 20/18 A2996 RMK AO2 SLP136 T02000183=
201709280952 METAR KATL 280952Z 31005KT 10SM CLR 21/18 A2995 RMK AO2 SLP130 T02060183=
201709280852 METAR KATL 280852Z 32005KT 10SM CLR 21/18 A2994 RMK AO2 SLP128 T02110183 51001=
201709280752 METAR KATL 280752Z 31004KT 10SM CLR 22/19 A2994 RMK AO2 SLP128 T02170189=
201709280652 METAR KATL 280652Z 31006KT 10SM CLR 22/19 A2994 RMK AO2 SLP128 T02170189=
201709280552 METAR KATL 280552Z 31007KT 10SM CLR 22/19 A2994 RMK AO2 SLP127 T02220194 10278 20222 56005=
201709280452 METAR KATL 280452Z 32007KT 10SM CLR 23/19 A2994 RMK AO2 SLP129 T02280194 403220194=
201709280352 METAR KATL 280352Z 31007KT 10SM CLR 24/19 A2995 RMK AO2 SLP131 T02440189=
201709280252 METAR KATL 280252Z 31006KT 10SM CLR 26/19 A2995 RMK AO2 SLP132 T02560189 51006=
201709280152 METAR KATL 280152Z 31005KT 10SM CLR 26/18 A2995 RMK AO2 SLP130 T02610183=
201709280052 METAR KATL 280052Z 31006KT 10SM CLR 27/18 A2994 RMK AO2 SLP129 T02670183=
201709272352 METAR KATL 272352Z 31006KT 10SM FEW060 28/18 A2994 RMK AO2 SLP128 T02780178 10322 20278 53004=
201709272252 METAR KATL 272252Z 32007KT 10SM FEW060 FEW080 29/17 A2993 RMK AO2 SLP126 T02940167=
201709272152 METAR KATL 272152Z 32009KT 10SM FEW060 FEW080 31/17 A2992 RMK AO2 SLP121 T03110167=
201709272052 METAR KATL 272052Z 31011KT 10SM FEW060 SCT075 32/17 A2992 RMK AO2 SLP122 MDT CU E-SE-S T03170167 56011=
201709271952 METAR KATL 271952Z 33009KT 10SM FEW060TCU SCT075 31/17 A2993 RMK AO2 SLP124 TCU NE-SE T03110167=
201709271852 METAR KATL 271852Z 33007KT 10SM SCT060TCU 32/17 A2994 RMK AO2 SLP127 TCU NE-SE-SW T03170172=
201709271752 METAR KATL 271752Z 26008KT 10SM SCT055TCU 31/18 A2996 RMK AO2 SLP133 TCU NE & SE MDT CU NE-SE-S & NW T03110183 10317 20206 58010=
201709271652 METAR KATL 271652Z 33006KT 10SM SCT050TCU 31/17 A2998 RMK AO2 SLP139 TCU NE-SE T03110172=
201709271552 METAR KATL 271552Z VRB06KT 10SM FEW045 29/18 A2998 RMK AO2 SLP142 TCU DSNT E MDT CU SE T02940183=
201709271452 METAR KATL 271452Z 32004KT 10SM CLR 28/19 A2999 RMK AO2 SLP144 T02780189 51006=
201709271352 METAR KATL 271352Z 00000KT 10SM CLR 26/19 A2998 RMK AO2 SLP143 T02610189=
201709271252 METAR KATL 271252Z 00000KT 10SM CLR 23/18 A2998 RMK AO2 SLP143 T02330183=
201709271152 METAR KATL 271152Z 33004KT 10SM FEW055 20/18 A2997 RMK AO2 SLP140 T02000178 10217 20194 53007=
201709271052 METAR KATL 271052Z 32005KT 10SM CLR 19/18 A2996 RMK AO2 SLP135 T01940178=
201709270952 METAR KATL 270952Z 32005KT 10SM CLR 21/18 A2995 RMK AO2 SLP132 T02060178=
201709270852 METAR KATL 270852Z 32004KT 10SM FEW055 21/18 A2995 RMK AO2 SLP131 T02060183 58004=
201709270752 METAR KATL 270752Z 33005KT 10SM CLR 21/18 A2995 RMK AO2 SLP131 T02110183=
201709270652 METAR KATL 270652Z 32003KT 10SM CLR 22/18 A2996 RMK AO2 SLP134 T02170183=
201709270552 METAR KATL 270552Z 31006KT 10SM CLR 22/19 A2996 RMK AO2 SLP134 T02170189 10272 20217 58002=
201709270452 METAR KATL 270452Z 31006KT 10SM FEW250 22/19 A2997 RMK AO2 SLP137 T02220189 403110200=
201709270352 METAR KATL 270352Z 31005KT 10SM CLR 23/19 A2997 RMK AO2 SLP137 T02330189=
201709270252 METAR KATL 270252Z 31005KT 10SM CLR 24/18 A2997 RMK AO2 SLP137 T02390183 51010=
201709270152 METAR KATL 270152Z 32005KT 10SM CLR 24/18 A2996 RMK AO2 SLP135 T02440183=
201709270052 METAR KATL 270052Z 32004KT 10SM CLR 26/18 A2995 RMK AO2 SLP131 T02560183=
201709262352 METAR KATL 262352Z 33006KT 10SM FEW055 27/18 A2993 RMK AO2 SLP126 T02720178 10311 20272 53002=
201709262252 METAR KATL 262252Z 34007KT 10SM FEW055 29/17 A2992 RMK AO2 SLP123 T02890172=
201709262152 METAR KATL 262152Z 33008KT 10SM SCT055 30/17 A2993 RMK AO2 SLP122 T03000172=
201709262052 METAR KATL 262052Z 32008KT 10SM SCT055 31/17 A2993 RMK AO2 SLP123 T03060167 56020=
201709261952 METAR KATL 261952Z 34011KT 10SM SCT055 31/17 A2995 RMK AO2 SLP129 T03060167=
201709261852 METAR KATL 261852Z VRB05KT 10SM BKN050 29/17 A2996 RMK AO2 SLP136 MDT CU NE & OHD-SW T02890167=
201709261752 METAR KATL 261752Z VRB03KT 10SM SCT050 30/18 A2999 RMK AO2 SLP143 MDT CU NE & S & NW T03000183 10300 20222 58012=
201709261652 METAR KATL 261652Z 06007KT 10SM SCT050 28/17 A3001 RMK AO2 SLP150 T02780172=
201709261552 METAR KATL 261552Z VRB04KT 10SM SCT040 28/18 A3002 RMK AO2 SLP155 T02780178=
201709261452 METAR KATL 261452Z VRB06KT 10SM FEW035 27/17 A3002 RMK AO2 SLP156 T02670172 50005=
201709261352 METAR KATL 261352Z 04005KT 10SM CLR 26/18 A3003 RMK AO2 SLP158 T02560178=
201709261252 METAR KATL 261252Z 05009KT 10SM CLR 24/17 A3002 RMK AO2 SLP156 T02390172=
201709261152 METAR KATL 261152Z 05007KT 10SM CLR 22/17 A3001 RMK AO2 SLP151 T02220167 10233 20200 53013=
201709261052 METAR KATL 261052Z 32004KT 10SM FEW060 20/17 A2999 RMK AO2 SLP147 T02000172=
201709260952 METAR KATL 260952Z 02004KT 10SM CLR 22/17 A2998 RMK AO2 SLP140 T02170172=
201709260852 METAR KATL 260852Z 03005KT 10SM CLR 22/17 A2997 RMK AO2 SLP138 T02170167 56004 $=
201709260752 METAR KATL 260752Z 04006KT 10SM CLR 22/17 A2997 RMK AO2 SLP138 T02220167=
201709260652 METAR KATL 260652Z 02004KT 10SM FEW060 23/16 A2997 RMK AO2 SLP139 T02280161=
201709260552 METAR KATL 260552Z 04005KT 10SM FEW060 23/16 A2998 RMK AO2 SLP141 T02330161 10272 20211 50002=
201709260452 METAR KATL 260452Z 02004KT 10SM CLR 24/16 A2998 RMK AO2 SLP142 T02390161 403000217=
201709260352 METAR KATL 260352Z 00000KT 10SM CLR 23/17 A2998 RMK AO2 SLP141 T02330167=
201709260252 METAR KATL 260252Z 09003KT 10SM CLR 25/16 A2997 RMK AO2 SLP140 T02500161 51009=
201709260152 METAR KATL 260152Z 09005KT 10SM CLR 24/16 A2997 RMK AO2 SLP139 T02440161=
201709260052 METAR KATL 260052Z 10005KT 10SM CLR 26/16 A2996 RMK AO2 SLP133 T02610161=
201709252352 METAR KATL 252352Z 07006KT 10SM CLR 27/15 A2995 RMK AO2 SLP130 T02720150 10300 20267 55002=
201709252252 METAR KATL 252252Z 07010KT 10SM CLR 28/15 A2994 RMK AO2 SLP128 T02780150=
201709252152 METAR KATL 252152Z 06009G14KT 10SM FEW060 29/15 A2994 RMK AO2 SLP128 T02890150=
201709252052 METAR KATL 252052Z 10SM FEW060 29/14 A2995 RMK AO2 SLP132 T02940139 56023=
201709251952 METAR KATL 251952Z 10SM FEW060 FEW150 29/15 A2996 RMK AO2 SLP136 T02940150=
201709251852 METAR KATL 251852Z 06005KT 10SM FEW060 FEW250 29/14 A2999 RMK AO2 SLP146 T02890144=
201709251752 METAR KATL 251752Z VRB05KT 10SM FEW055 FEW250 29/16 A3002 RMK AO2 SLP155 T02890156 10294 20222 58010=
201709251652 METAR KATL 251652Z 09010KT 10SM FEW050 FEW250 29/16 A3004 RMK AO2 SLP161 T02890161=
201709251552 METAR KATL 251552Z 08012KT 10SM FEW250 28/17 A3005 RMK AO2 SLP165 T02780167=
201709251452 METAR KATL 251452Z 06006KT 10SM FEW150 FEW250 26/17 A3005 RMK AO2 SLP167 T02610172 51008=
201709251352 METAR KATL 251352Z 07011KT 10SM FEW150 FEW250 24/17 A3005 RMK AO2 SLP167 T02440167=
201709251252 METAR KATL 251252Z 05010G16KT 10SM FEW200 FEW250 23/17 A3004 RMK AO2 SLP163 T02330172=
201709251152 METAR KATL 251152Z 06008KT 10SM FEW200 FEW250 22/17 A3003 RMK AO2 SLP160 T02220172 10228 20217 53005=
201709251052 METAR KATL 251052Z 06006KT 10SM SCT250 22/18 A3002 RMK AO2 SLP157 T02170178=
201709250952 METAR KATL 250952Z 04008KT 10SM SCT250 22/18 A3002 RMK AO2 SLP154 T02170178=
201709250852 METAR KATL 250852Z 05007KT 10SM SCT250 22/18 A3001 RMK AO2 SLP153 T02170178 52002=
201709250752 METAR KATL 250752Z 04007KT 10SM FEW250 22/18 A3001 RMK AO2 SLP153 T02220178=
201709250652 METAR KATL 250652Z 05006KT 10SM FEW250 23/18 A3001 RMK AO2 SLP151 T02280178=
201709250552 METAR KATL 250552Z 05005KT 10SM FEW250 23/18 A3001 RMK AO2 SLP151 T02280178 10261 20222 56007=
201709250452 METAR KATL 250452Z 06006KT 10SM SCT250 23/18 A3001 RMK AO2 SLP152 T02330178 402890206=
201709250352 METAR KATL 250352Z 07006KT 10SM SCT250 23/18 A3003 RMK AO2 SLP157 T02330178=
201709250252 METAR KATL 250252Z 09007KT 10SM FEW200 SCT250 23/18 A3003 RMK AO2 SLP160 T02330183 53004=
201709250152 METAR KATL 250152Z 08007KT 10SM FEW200 SCT250 24/18 A3002 RMK AO2 SLP158 T02440178=
201709250052 METAR KATL 250052Z 08006KT 10SM SCT200 SCT250 24/18 A3002 RMK AO2 SLP156 T02440183=
201709242352 METAR KATL 242352Z 10007KT 10SM FEW040 FEW065 SCT200 SCT250 26/18 A3002 RMK AO2 SLP156 MDT CU W-NW T02560178 10289 20256 53000=
201709242252 METAR KATL 242252Z 09009KT 10SM FEW044 FEW070 SCT200 SCT250 27/17 A3002 RMK AO2 SLP156 MDT CU N-NE & W-NW T02670172=
201709242152 METAR KATL 242152Z 09009KT 10SM FEW046 SCT200 SCT250 28/18 A3001 RMK AO2 SLP150 MDT CU ALQDS T02780178=
201709242122 SPECI KATL 242122Z VRB04KT 10SM FEW001 SCT046 SCT250 28/17 A3001 RMK AO2 FU FEW001 FU PLUME N T02780172=
201709242052 METAR KATL 242052Z 06005KT 10SM SCT045 SCT250 29/18 A3002 RMK AO2 SLP154 T02890178 58014=
201709241952 METAR KATL 241952Z 08013KT 10SM SCT042 BKN210 BKN250 28/18 A3004 RMK AO2 SLP161 MDT CU NE AND SE-SW T02830178=
201709241852 METAR KATL 241852Z 10010KT 10SM SCT048 BKN210 BKN250 28/18 A3005 RMK AO2 SLP165 T02780178=
201709241752 METAR KATL 241752Z 08006KT 10SM SCT050 SCT210 SCT250 28/16 A3006 RMK AO2 SLP169 T02780161 10289 20211 58015=
201709241652 METAR KATL 241652Z 08012KT 10SM SCT040 BKN210 BKN240 27/16 A3008 RMK AO2 SLP176 T02720161=
201709241552 METAR KATL 241552Z 08010KT 10SM SCT180 BKN240 26/18 A3010 RMK AO2 SLP182 T02610183=
201709241452 METAR KATL 241452Z 06009KT 10SM SCT180 BKN240 26/19 A3010 RMK AO2 SLP184 T02560189 50007=
201709241352 METAR KATL 241352Z 07009KT 10SM SCT055 BKN180 BKN240 23/18 A3011 RMK AO2 SLP186 T02280183=
201709241252 METAR KATL 241252Z 07008KT 10SM FEW055 BKN180 22/18 A3009 RMK AO2 SLP180 T02220178=
201709241152 METAR KATL 241152Z 05007KT 10SM BKN055 BKN150 BKN220 21/18 A3008 RMK AO2 SLP178 T02110178 10233 20206 53015=
201709241052 METAR KATL 241052Z 06005KT 10SM FEW055 BKN250 21/18 A3007 RMK AO2 SLP172 T02060178=
201709240952 METAR KATL 240952Z 01005KT 10SM BKN250 22/18 A3005 RMK AO2 SLP165 T02170178=
201709240852 METAR KATL 240852Z 00000KT 10SM FEW250 22/18 A3004 RMK AO2 SLP160 T02170183 52003=
201709240752 METAR KATL 240752Z 05003KT 10SM FEW250 22/18 A3003 RMK AO2 SLP159 T02220183=
201709240652 METAR KATL 240652Z 09004KT 10SM FEW200 22/18 A3003 RMK AO2 SLP159 T02220183=
201709240552 METAR KATL 240552Z 10004KT 10SM CLR 23/18 A3003 RMK AO2 SLP158 T02280183 10278 20228 58002=
201709240452 METAR KATL 240452Z 08004KT 10SM CLR 23/18 A3003 RMK AO2 SLP159 T02330183 403060206=
201709240352 METAR KATL 240352Z 08004KT 10SM FEW100 24/18 A3004 RMK AO2 SLP160 T02440178=
201709240252 METAR KATL 240252Z 09005KT 10SM FEW250 24/18 A3004 RMK AO2 SLP161 T02440183 51004=
201709240152 METAR KATL 240152Z 11003KT 10SM FEW250 26/18 A3003 RMK AO2 SLP160 T02560178=
201709240052 METAR KATL 240052Z 12003KT 10SM FEW200 SCT250 26/18 A3003 RMK AO2 SLP161 T02610183=
201709232352 METAR KATL 232352Z 12004KT 10SM FEW050 FEW090 FEW200 SCT250 28/17 A3002 RMK AO2 SLP158 T02780172 10306 20278 53005=
201709232252 METAR KATL 232252Z 12005KT 10SM FEW055 FEW090 SCT200 SCT250 29/17 A3002 RMK AO2 SLP156 T02890167=
201709232152 METAR KATL 232152Z VRB05KT 10SM FEW060 FEW095 SCT200 SCT250 29/16 A3001 RMK AO2 SLP151 CB DSNT NW-N TCU DSNT NW MDT CU E & SW T02940156=
201709232052 METAR KATL 232052Z 13008KT 10SM SCT060 SCT090 SCT250 30/16 A3001 RMK AO2 SLP150 CB DSNT N & S & NW TCU DSNT NW MDT CU SW T03000156 58017=
201709231952 METAR KATL 231952Z 05004KT 10SM SCT055 SCT080 SCT250 30/17 A3003 RMK AO2 SLP157 CB DSNT SE & NW MDT CU W T03000172=
201709231852 METAR KATL 231852Z 07007KT 10SM SCT050TCU SCT075 29/17 A3005 RMK AO2 SLP163 TCU W MDT CU ALQDS T02940172=
201709231752 METAR KATL 231752Z 05007KT 9SM BKN050 BKN075 29/18 A3006 RMK AO2 SLP168 TCU DSNT S & SW MDT CU ALQDS T02890178 10294 20211 58008=
201709231652 METAR KATL 231652Z 11007KT 10SM SCT045 28/18 A3007 RMK AO2 SLP172 T02830178=
201709231552 METAR KATL 231552Z VRB03KT 10SM FEW030 SCT250 28/19 A3008 RMK AO2 SLP175 T02830194=
201709231452 METAR KATL 231452Z 07004KT 10SM FEW250 27/19 A3008 RMK AO2 SLP177 T02670194 51009=
201709231352 METAR KATL 231352Z 05007KT 10SM FEW200 SCT230 25/19 A3008 RMK AO2 SLP175 T02500194=
201709231252 METAR KATL 231252Z 09005KT 10SM FEW150 FEW200 SCT250 23/19 A3007 RMK AO2 SLP173 T02280194=
201709231152 METAR KATL 231152Z 08005KT 10SM FEW250 21/19 A3006 RMK AO2 SLP169 T02110189 10233 20206 51008=
201709231052 METAR KATL 231052Z 09005KT 10SM FEW100 FEW250 22/19 A3005 RMK AO2 SLP167 T02170189=
201709230952 METAR KATL 230952Z 09004KT 10SM FEW100 FEW250 22/19 A3004 RMK AO2 SLP162 T02220194=
201709230852 METAR KATL 230852Z 03005KT 10SM FEW100 FEW250 22/19 A3003 RMK AO2 SLP159 T02220194 55001=
201709230752 METAR KATL 230752Z 00000KT 10SM FEW100 22/20 A3003 RMK AO2 SLP158 T02220200=
201709230652 METAR KATL 230652Z 00000KT 10SM FEW100 22/20 A3003 RMK AO2 SLP159 T02220200=
201709230552 METAR KATL 230552Z 00000KT 10SM FEW250 23/20 A3004 RMK AO2 SLP160 T02280200 10278 20228 58002=
201709230452 METAR KATL 230452Z 00000KT 10SM FEW250 23/20 A3004 RMK AO2 SLP162 T02330200 403170206=
201709230352 METAR KATL 230352Z 00000KT 10SM FEW250 24/20 A3005 RMK AO2 SLP165 T02390200=
201709230252 METAR KATL 230252Z 00000KT 10SM SCT250 24/20 A3004 RMK AO2 SLP164 T02390200 52012=
201709230152 METAR KATL 230152Z 21004KT 10SM FEW055 FEW250 24/21 A3003 RMK AO2 SLP159 T02440206=
201709230052 METAR KATL 230052Z 13004KT 10SM SCT055 SCT250 26/19 A3002 RMK AO2 SLP157 T02610194=
201709222352 METAR KATL 222352Z 00000KT 10SM FEW050 FEW250 28/19 A3001 RMK AO2 SLP151 T02780189 10317 20278 53002=
201709222252 METAR KATL 222252Z 10005KT 10SM FEW050 FEW200 29/18 A3000 RMK AO2 SLP149 CB DSNT SW T02890178=
201709222152 METAR KATL 222152Z 10007KT 10SM FEW055CB FEW150 SCT250 29/18 A3000 RMK AO2 SLP149 CB VC W-NW MOV SW TCU VC SW T02890183=
201709222052 METAR KATL 222052Z 11004KT 10SM SCT055TCU SCT070 SCT250 30/18 A3000 RMK AO2 SLP148 CB DSNT SE & SW TCU W MDT CU N & S T03000178 56017=
201709221952 METAR KATL 221952Z 08005KT 10SM SCT055TCU SCT070 32/18 A3002 RMK AO2 SLP154 SHRA VC W-NW T03170178=
201709221852 METAR KATL 221852Z 02007KT 10SM SCT049TCU 29/18 A3003 RMK AO2 SLP160 TCU SW-W T02940178=
201709221752 METAR KATL 221752Z 03005KT 10SM SCT045 SCT065 30/19 A3005 RMK AO2 SLP166 TCU DSNT SW MDT CU ALQDS T03000189 10300 20211 58016=
201709221652 METAR KATL 221652Z VRB03KT 10SM FEW040 29/20 A3007 RMK AO2 SLP173 T02940200=
201709221552 METAR KATL 221552Z 09006KT 10SM FEW030 28/21 A3009 RMK AO2 SLP180 T02780206=
201709221452 METAR KATL 221452Z 07004KT 10SM CLR 27/21 A3010 RMK AO2 SLP183 T02670206 52006=
201709221352 METAR KATL 221352Z 05003KT 10SM FEW025 FEW100 FEW250 25/19 A3009 RMK AO2 SLP179 T02500194=
201709221252 METAR KATL 221252Z 08007KT 10SM FEW055 FEW110 FEW200 23/19 A3009 RMK AO2 SLP180 CB DSNT NW T02280194=
201709221152 METAR KATL 221152Z 07008KT 10SM FEW055 FEW100 FEW200 22/19 A3008 RMK AO2 SLP178 TCU DSNT N & NW 70010 T02170189 10228 20206 51014=
201709221052 METAR KATL 221052Z 08007KT 10SM FEW055 FEW100 SCT200 21/19 A3007 RMK AO2 SLP174 TCU DSNT N & NE T02110189=
201709220952 METAR KATL 220952Z 07006KT 10SM FEW055 FEW100 22/18 A3005 RMK AO2 SLP167 T02170183=
201709220852 METAR KATL 220852Z 08005KT 10SM FEW095 FEW140 22/18 A3004 RMK AO2 SLP162 T02170183 55001=
201709220752 METAR KATL 220752Z 06006KT 10SM FEW140 22/18 A3003 RMK AO2 SLP159 T02170183=
201709220652 METAR KATL 220652Z 08005KT 10SM FEW140 22/18 A3004 RMK AO2 SLP160 T02170183=
201709220552 METAR KATL 220552Z 06004KT 10SM FEW150 22/19 A3004 RMK AO2 SLP162 T02220189 10278 20222 55003=
201709220452 METAR KATL 220452Z 06006KT 10SM FEW150 23/18 A3004 RMK AO2 SLP161 T02330183 403170206=
201709220352 METAR KATL 220352Z 00000KT 10SM FEW150 24/19 A3005 RMK AO2 SLP164 T02390189=
201709220252 METAR KATL 220252Z 00000KT 10SM SCT060 BKN075 24/19 A3005 RMK AO2 SLP166 CB DSNT S T02440189 51014=
201709220152 METAR KATL 220152Z 02006KT 10SM BKN055 BKN080 BKN140 27/18 A3005 RMK AO2 LTG DSNT NE AND E SLP166 CB DSNT NE-E T02720183=
201709220052 METAR KATL 220052Z 31005KT 10SM BKN060 26/18 A3003 RMK AO2 LTG DSNT NE SLP159 CB DSNT NE T02610183=
201709220014 SPECI KATL 220014Z 29008KT 10SM BKN060 27/19 A3002 RMK AO2 CB DSNT SW T02670189=
201709220000 SPECI KATL 220000Z 33005KT 10SM VCTS BKN060CB BKN250 28/18 A3001 RMK AO2 LTG DSNT W OCNL LTGCG VC SW-W TS VC SW-W MOV S T02780183=
201709212352 METAR KATL 212352Z 32007KT 10SM SCT060 BKN250 26/19 A3001 RMK AO2 LTG DSNT W SLP153 CB DSNT SW-W 60010 T02560189 10317 20250 53002=
201709212337 SPECI KATL 212337Z 25003KT 10SM VCTS SCT060CB BKN080 BKN250 26/20 A3000 RMK AO2 OCNL LTGCG VC W TS VC W MOV S T02560200=
201709212252 METAR KATL 212252Z 22005KT 10SM FEW040CB BKN060 BKN200 26/19 A3001 RMK AO2 RAB00E26 TSB05E20B31E49 SLP152 TS MOV S CB SW P0010 T02560194=
201709212235 SPECI KATL 212235Z 23005KT 10SM TS FEW044CB BKN090 BKN200 26/22 A3000 RMK AO2 RAB00E26 TSB05E20B31 OCNL LTGCG SW TS SW MOV S P0010 T02560217=
201709212226 SPECI KATL 212226Z 18005KT 8SM VCTS FEW039CB BKN070 BKN200 26/21 A3000 RMK AO2 RAB00E26 TSB05E20 OCNL LTGCG VC SW TS VC SW MOV S P0010 T02610211=
201709212205 SPECI KATL 212205Z 09013KT 4SM +TSRA BKN075 BKN110 27/19 A3000 RMK AO2 RAB00 TSB05 P0001 T02720189=
201709212152 METAR KATL 212152Z 11008KT 10SM SCT060TCU BKN120 BKN200 29/18 A3000 RMK AO2 SLP148 CB DSNT NE TCU N-E T02940178=
201709212052 METAR KATL 212052Z VRB03KT 10SM FEW055TCU SCT110 SCT200 31/18 A3000 RMK AO2 SLP149 CB DSNT N TCU N & E & SW T03060183 56019=
201709211952 METAR KATL 211952Z 28004KT 10SM BKN050TCU BKN100 BKN200 31/18 A3003 RMK AO2 SLP156 CB DSNT W-NW-N TCU OHD & ALQDS T03110183=
201709211852 METAR KATL 211852Z 29003KT 10SM SCT050TCU SCT200 30/18 A3004 RMK AO2 SLP161 CB DSNT N & NW TCU NE & SW T03000183=
201709211752 METAR KATL 211752Z 28004KT 10SM SCT055 SCT200 31/19 A3006 RMK AO2 SLP169 CB DSNT NW MDT CU N & E & SE-S-SW-W T03110189 10317 20211 58013=
201709211652 METAR KATL 211652Z 16004KT 10SM FEW050 FEW200 31/19 A3009 RMK AO2 SLP178 CB DSNT NW T03060189 $=
201709211552 METAR KATL 211552Z 16003KT 10SM FEW200 29/18 A3010 RMK AO2 SLP181 CB DSNT NW T02940183 $=
201709211452 METAR KATL 211452Z 05003KT 10SM FEW010 FEW200 28/18 A3010 RMK AO2 SLP182 FU FEW010 CB DSNT NW T02830183 51004 $=
201709211352 METAR KATL 211352Z 06003KT 10SM FEW200 27/19 A3010 RMK AO2 SLP181 CB DSNT NW T02670194=
201709211252 METAR KATL 211252Z 02005KT 10SM FEW200 24/19 A3009 RMK AO2 SLP181 T02440194=
201709211152 METAR KATL 211152Z 32004KT 10SM FEW200 21/19 A3009 RMK AO2 SLP180 T02110194 10233 20206 53015=
201709211052 METAR KATL 211052Z 33004KT 10SM FEW010 FEW200 21/19 A3007 RMK AO2 SLP172 FU FEW010 T02110194=
201709210952 METAR KATL 210952Z 33005KT 10SM FEW010 21/19 A3006 RMK AO2 SLP168 FU FEW010 T02110194=
201709210852 METAR KATL 210852Z 34005KT 10SM FEW010 22/19 A3004 RMK AO2 SLP162 FU FEW010 T02220194 55001=
201709210752 METAR KATL 210752Z 33004KT 10SM CLR 22/19 A3004 RMK AO2 SLP160 T02170194=
201709210652 METAR KATL 210652Z 31003KT 10SM FEW200 22/19 A3004 RMK AO2 SLP162 T02170194=
201709210552 METAR KATL 210552Z 31003KT 10SM FEW200 23/20 A3005 RMK AO2 SLP163 T02330200 10272 20228 58003=
201709210452 METAR KATL 210452Z 31004KT 10SM FEW250 23/19 A3005 RMK AO2 SLP163 T02330194 403170206=
201709210352 METAR KATL 210352Z 31003KT 10SM FEW250 24/19 A3006 RMK AO2 SLP167 T02390194=
201709210252 METAR KATL 210252Z 33006KT 10SM FEW250 24/19 A3005 RMK AO2 SLP166 T02440194 53012=
201709210152 METAR KATL 210152Z 34006KT 10SM SCT250 26/19 A3004 RMK AO2 SLP162 T02560194=
201709210052 METAR KATL 210052Z 32006KT 10SM BKN250 26/19 A3003 RMK AO2 SLP160 T02610194=
201709202352 METAR KATL 202352Z 31007KT 10SM BKN250 27/18 A3002 RMK AO2 SLP156 T02720183 10317 20272 53004=
201709202252 METAR KATL 202252Z 29007KT 10SM BKN250 28/18 A3001 RMK AO2 SLP152 T02780183=
201709202152 METAR KATL 202152Z 33007KT 10SM FEW055 BKN250 30/18 A3000 RMK AO2 SLP148 T03000178=
201709202052 METAR KATL 202052Z 35007KT 10SM FEW060 BKN250 31/17 A3001 RMK AO2 SLP150 CB DSNT N TCU DSNT NE T03110172 56016=
201709201952 METAR KATL 201952Z VRB04KT 10SM FEW055 FEW250 31/18 A3002 RMK AO2 SLP155 T03060178=
201709201852 METAR KATL 201852Z 30007KT 10SM SCT055 SCT250 31/18 A3004 RMK AO2 SLP162 T03110178=
201709201752 METAR KATL 201752Z 34005KT 10SM SCT050 SCT250 31/19 A3006 RMK AO2 SLP167 T03060189 10311 20211 58008=
201709201652 METAR KATL 201652Z VRB05KT 10SM FEW045 30/19 A3007 RMK AO2 SLP172 T03000189=
201709201552 METAR KATL 201552Z 31006KT 10SM FEW040 29/18 A3008 RMK AO2 SLP174 T02890183=
201709201452 METAR KATL 201452Z 34007KT 10SM CLR 28/19 A3008 RMK AO2 SLP175 T02830189 51009=
201709201352 METAR KATL 201352Z 32006KT 10SM CLR 26/20 A3008 RMK AO2 SLP174 T02560200=
201709201252 METAR KATL 201252Z 32003KT 9SM CLR 23/21 A3006 RMK AO2 SLP169 T02280206=
201709201152 METAR KATL 201152Z 32005KT 10SM FEW180 21/19 A3005 RMK AO2 SLP167 T02110194 10228 20206 53013=
201709201052 METAR KATL 201052Z 00000KT 10SM FEW200 21/19 A3003 RMK AO2 SLP158 T02110194=
201709200952 METAR KATL 200952Z 00000KT 10SM CLR 21/19 A3001 RMK AO2 SLP152 T02110194=
201709200852 METAR KATL 200852Z 32005KT 10SM CLR 21/19 A3001 RMK AO2 SLP151 T02110194 51002=
201709200752 METAR KATL 200752Z 33005KT 10SM CLR 22/20 A3000 RMK AO2 SLP149 T02170200=
201709200652 METAR KATL 200652Z 31004KT 10SM FEW200 22/21 A3001 RMK AO2 SLP152 T02170206=
201709200552 METAR KATL 200552Z 30004KT 10SM FEW200 23/20 A3000 RMK AO2 SLP149 T02280200 10278 20228 50003=
201709200452 METAR KATL 200452Z 00000KT 10SM SCT200 23/20 A3001 RMK AO2 SLP150 T02280200 403170189=
201709200352 METAR KATL 200352Z 00000KT 10SM FEW150 SCT250 24/20 A3000 RMK AO2 SLP146 T02440200=
201709200252 METAR KATL 200252Z 28008KT 10SM BKN150 BKN200 BKN250 24/20 A2999 RMK AO2 SLP147 VIRGA SE-OHD-NW T02440200 53002=
201709200152 METAR KATL 200152Z 00000KT 10SM SCT120 BKN150 OVC200 27/19 A2998 RMK AO2 SLP142 VIRGA S-W-NW T02670189=
201709200052 METAR KATL 200052Z 27003KT 10SM FEW120 BKN150 OVC200 27/19 A2999 RMK AO2 SLP146 T02670189=
201709192352 METAR KATL 192352Z 26004KT 10SM FEW055 SCT170CB BKN200 BKN250 27/18 A2999 RMK AO2 SLP146 CBMAM OHD-NW T02720183 10317 20272 53008=
201709192252 METAR KATL 192252Z 35007KT 10SM FEW055 BKN250 29/17 A2998 RMK AO2 SLP143 T02940167=
201709192152 METAR KATL 192152Z 36008KT 10SM SCT060 BKN250 31/16 A2997 RMK AO2 SLP140 T03060161=
201709192052 METAR KATL 192052Z 33006KT 10SM SCT060 SCT250 31/16 A2996 RMK AO2 SLP137 T03110161 56016=
201709191952 METAR KATL 191952Z 30005KT 10SM SCT060 SCT250 31/17 A2997 RMK AO2 SLP137 T03110172=
201709191852 METAR KATL 191852Z VRB03KT 10SM FEW060 FEW250 31/16 A2999 RMK AO2 SLP143 T03060161=
201709191752 METAR KATL 191752Z 00000KT 10SM FEW050 FEW250 29/17 A3001 RMK AO2 SLP154 T02940172 10300 20194 58014=
201709191652 METAR KATL 191652Z VRB03KT 10SM FEW050 SCT250 29/17 A3004 RMK AO2 SLP162 T02940172=
201709191552 METAR KATL 191552Z 29004KT 10SM FEW040 FEW250 28/18 A3005 RMK AO2 SLP165 T02830178=
201709191452 METAR KATL 191452Z VRB03KT 10SM FEW250 27/17 A3006 RMK AO2 SLP168 T02670172 51009=
201709191352 METAR KATL 191352Z 31003KT 10SM FEW250 25/18 A3005 RMK AO2 SLP166 T02500183=
201709191252 METAR KATL 191252Z 34004KT 10SM FEW200 SCT250 22/18 A3004 RMK AO2 SLP163 T02220178=
201709191152 METAR KATL 191152Z 31004KT 10SM SCT250 19/18 A3003 RMK AO2 SLP160 T01940178 10217 20189 53015=
201709191052 METAR KATL 191052Z 31005KT 10SM SCT250 19/18 A3001 RMK AO2 SLP154 T01890178=
201709190952 METAR KATL 190952Z 32007KT 10SM FEW250 19/18 A3000 RMK AO2 SLP150 T01940183=
201709190852 METAR KATL 190852Z 00000KT 10SM CLR 20/18 A2999 RMK AO2 SLP144 T02000183 55005=
201709190752 METAR KATL 190752Z 33003KT 10SM CLR 21/18 A2998 RMK AO2 SLP142 T02060183=
201709190652 METAR KATL 190652Z 30003KT 10SM CLR 21/18 A2999 RMK AO2 SLP145 T02110183=
201709190552 METAR KATL 190552Z 31003KT 10SM CLR 22/18 A3000 RMK AO2 SLP148 T02170183 10267 20217 58010=
201709190452 METAR KATL 190452Z 30003KT 10SM FEW250 22/18 A3001 RMK AO2 SLP153 T02170178 403110194=
201709190352 METAR KATL 190352Z 00000KT 10SM FEW250 23/18 A3002 RMK AO2 SLP157 T02330178=
201709190252 METAR KATL 190252Z 33006KT 10SM FEW250 24/18 A3003 RMK AO2 SLP159 T02440178 51007=
201709190152 METAR KATL 190152Z 31004KT 10SM FEW250 25/17 A3003 RMK AO2 SLP160 T02500172=
201709190052 METAR KATL 190052Z 32006KT 10SM FEW250 26/17 A3003 RMK AO2 SLP159 T02560167=
201709182352 METAR KATL 182352Z 32006KT 10SM FEW250 27/16 A3001 RMK AO2 SLP153 T02670161 10311 20267 55001=
201709182252 METAR KATL 182252Z 31009KT 10SM FEW250 28/16 A3000 RMK AO2 SLP151 T02830161=
201709182152 METAR KATL 182152Z 33009KT 10SM FEW065 SCT250 29/14 A3001 RMK AO2 SLP152 T02890139=
201709182052 METAR KATL 182052Z 36008KT 10SM FEW065 FEW250 30/13 A3001 RMK AO2 SLP153 T03000133 58015=
201709181952 METAR KATL 181952Z 28006KT 10SM FEW065 FEW250 31/16 A3003 RMK AO2 SLP159 T03060156=
201709181852 METAR KATL 181852Z 32006KT 10SM FEW055 FEW250 30/17 A3004 RMK AO2 SLP163 T03000167=
201709181752 METAR KATL 181752Z 32004KT 10SM FEW050 FEW250 30/17 A3006 RMK AO2 SLP167 T03000172 10300 20200 58014=
201709181652 METAR KATL 181652Z 31004KT 10SM FEW050 FEW250 29/17 A3008 RMK AO2 SLP177 T02890167=
201709181552 METAR KATL 181552Z 00000KT 10SM CLR 28/16 A3010 RMK AO2 SLP181 T02780161=
201709181452 METAR KATL 181452Z 26004KT 10SM CLR 26/19 A3010 RMK AO2 SLP183 T02610189 53007=
201709181352 METAR KATL 181352Z 29004KT 10SM R09R/0400VP6000FT CLR 23/19 A3009 RMK AO2 SLP182 T02330189=
201709181252 METAR KATL 181252Z VRB04KT 10SM CLR 23/18 A3008 RMK AO2 SLP177 T02280178=
201709181152 METAR KATL 181152Z 35005KT 10SM CLR 20/17 A3008 RMK AO2 SLP176 T02000172 10217 20194 53011=
201709181052 METAR KATL 181052Z 33005KT 10SM FEW008 20/18 A3006 RMK AO2 SLP168 T02000178=
201709181044 SPECI KATL 181044Z 33005KT 10SM CLR 19/17 A3006 RMK AO2 T01940172=
201709180952 METAR KATL 180952Z 33003KT 10SM CLR 20/17 A3004 RMK AO2 SLP163 T02000172=
201709180852 METAR KATL 180852Z 33003KT 10SM FEW008 21/18 A3004 RMK AO2 SLP164 T02060183 56007=
201709180752 METAR KATL 180752Z 29003KT 9SM FEW008 20/18 A3004 RMK AO2 SLP164 T02000183=
201709180652 METAR KATL 180652Z 31004KT 10SM CLR 21/18 A3005 RMK AO2 SLP167 T02060183=
201709180552 METAR KATL 180552Z 00000KT 10SM FEW010 FEW100 22/18 A3007 RMK AO2 SLP170 FU FEW010 T02170178 10278 20217 58006=
201709180452 METAR KATL 180452Z 00000KT 10SM FEW100 22/18 A3008 RMK AO2 SLP175 T02170183 403110200=
201709180352 METAR KATL 180352Z 02003KT 10SM CLR 24/17 A3009 RMK AO2 SLP177 T02440172=
201709180252 METAR KATL 180252Z 00000KT 10SM CLR 24/17 A3008 RMK AO2 SLP177 T02440172 51009=
201709180152 METAR KATL 180152Z 33003KT 10SM FEW250 25/17 A3008 RMK AO2 SLP176 T02500172=
201709180052 METAR KATL 180052Z 01005KT 10SM FEW046 FEW250 27/17 A3007 RMK AO2 SLP173 T02720167=
201709172352 METAR KATL 172352Z 33007KT 10SM FEW048 FEW100 SCT250 28/18 A3006 RMK AO2 SLP169 T02780178 10311 20278 55002=
201709172252 METAR KATL 172252Z 32007KT 10SM FEW055 SCT110 29/17 A3005 RMK AO2 SLP167 MDT CU SE T02940167=
201709172152 METAR KATL 172152Z 35006KT 10SM FEW055 SCT100 30/18 A3005 RMK AO2 SLP166 MDT CU E T03000178=
201709172052 METAR KATL 172052Z 33008KT 10SM FEW050 SCT100 31/18 A3006 RMK AO2 SLP169 MDT CU N-E T03060183 56016=
201709171952 METAR KATL 171952Z 33005KT 10SM FEW048 SCT060 SCT200 30/17 A3008 RMK AO2 SLP174 T03000172=
201709171852 METAR KATL 171852Z VRB03KT 10SM FEW048 BKN100 29/19 A3009 RMK AO2 SLP180 T02940189=
201709171752 METAR KATL 171752Z 36006KT 10SM SCT047 SCT090 31/19 A3011 RMK AO2 SLP186 T03060189 10306 20206 58016=
201709171652 METAR KATL 171652Z 23004KT 10SM SCT043 28/18 A3014 RMK AO2 SLP197 T02830178=
201709171552 METAR KATL 171552Z 00000KT 10SM FEW040 FEW065 SCT200 28/17 A3016 RMK AO2 SLP201 T02780172=
201709171452 METAR KATL 171452Z 06003KT 10SM FEW100 FEW200 27/19 A3016 RMK AO2 SLP203 T02670189 52008=
201709171352 METAR KATL 171352Z 00000KT 10SM BKN080 BKN200 24/19 A3016 RMK AO2 SLP203 T02390189=
201709171252 METAR KATL 171252Z 06004KT 9SM SCT085 SCT120 24/19 A3014 RMK AO2 SLP197 T02390189=
201709171152 METAR KATL 171152Z 00000KT 10SM FEW110 21/18 A3014 RMK AO2 SLP196 T02060183 10222 20200 53016=
201709171052 METAR KATL 171052Z 00000KT 10SM FEW110 20/18 A3012 RMK AO2 SLP189 T02000183=
201709170952 METAR KATL 170952Z 00000KT 10SM CLR 21/18 A3010 RMK AO2 SLP183 T02060183=
201709170852 METAR KATL 170852Z 00000KT 10SM CLR 21/19 A3009 RMK AO2 SLP179 T02110189 55003=
201709170752 METAR KATL 170752Z 36003KT 10SM FEW110 22/19 A3009 RMK AO2 SLP179 T02170189=
201709170652 METAR KATL 170652Z 31005KT 10SM FEW110 21/19 A3010 RMK AO2 SLP182 T02110194=
201709170552 METAR KATL 170552Z 00000KT 10SM FEW110 22/19 A3010 RMK AO2 SLP182 T02170189 10272 20217 58005=
201709170452 METAR KATL 170452Z 00000KT 10SM FEW250 23/19 A3011 RMK AO2 SLP185 T02280194 403000200=
201709170352 METAR KATL 170352Z 00000KT 10SM FEW110 FEW250 24/19 A3011 RMK AO2 SLP186 T02390194=
201709170252 METAR KATL 170252Z 13003KT 10SM SCT110 SCT250 25/19 A3011 RMK AO2 SLP187 T02500189 51008=
201709170152 METAR KATL 170152Z 00000KT 10SM FEW050 FEW100 SCT250 25/19 A3011 RMK AO2 SLP187 T02500189=
201709170052 METAR KATL 170052Z 00000KT 10SM FEW050 FEW100 SCT250 26/19 A3010 RMK AO2 SLP183 T02560189=
201709162352 METAR KATL 162352Z 13003KT 10SM FEW050 SCT100 SCT250 27/18 A3009 RMK AO2 SLP179 T02720178 10300 20267 55000=
201709162252 METAR KATL 162252Z 10005KT 10SM FEW050 SCT090 SCT250 28/17 A3008 RMK AO2 SLP178 T02780172=
201709162152 METAR KATL 162152Z 09008KT 10SM FEW050 SCT080 SCT250 29/18 A3008 RMK AO2 SLP176 MDT CU NW-N T02890178=
201709162052 METAR KATL 162052Z VRB03KT 10SM SCT050 SCT080 30/18 A3009 RMK AO2 SLP178 MDT CU SW T03000178 56019=
201709161952 METAR KATL 161952Z 00000KT 10SM SCT049 SCT120 29/18 A3010 RMK AO2 SLP182 T02890178=
201709161852 METAR KATL 161852Z 11003KT 10SM SCT048 BKN060 29/18 A3012 RMK AO2 SLP189 T02890183=
201709161752 METAR KATL 161752Z 00000KT 10SM SCT041 29/19 A3014 RMK AO2 SLP197 T02890189 10289 20206 58010=
201709161652 METAR KATL 161652Z 14004KT 10SM SCT039 SCT100 28/18 A3016 RMK AO2 SLP205 T02780178=
201709161552 METAR KATL 161552Z 08007KT 10SM FEW100 28/19 A3018 RMK AO2 SLP209 T02780189=
201709161452 METAR KATL 161452Z 09006KT 10SM FEW100 26/19 A3017 RMK AO2 SLP208 T02610189 53009=
201709161352 METAR KATL 161352Z 07006KT 10SM FEW100 23/18 A3016 RMK AO2 SLP205 T02330183=
201709161252 METAR KATL 161252Z 06007KT 10SM FEW080 22/18 A3016 RMK AO2 SLP203 T02220183=
201709161152 METAR KATL 161152Z 05007KT 10SM FEW080 FEW250 21/18 A3015 RMK AO2 SLP200 T02060178 10222 20200 53016=
201709161052 METAR KATL 161052Z 08004KT 10SM FEW250 20/18 A3013 RMK AO2 SLP195 T02000178=
201709160952 METAR KATL 160952Z 07006KT 10SM FEW250 21/18 A3011 RMK AO2 SLP187 T02060183=
201709160852 METAR KATL 160852Z 07004KT 8SM CLR 21/19 A3010 RMK AO2 SLP183 T02060189 55001=
201709160752 METAR KATL 160752Z 08004KT 10SM FEW250 21/19 A3009 RMK AO2 SLP182 T02060189=
201709160652 METAR KATL 160652Z 07003KT 10SM FEW250 21/19 A3010 RMK AO2 SLP183 T02110189=
201709160552 METAR KATL 160552Z 00000KT 10SM FEW250 23/19 A3010 RMK AO2 SLP184 T02280189 10261 20222 58001=
201709160452 METAR KATL 160452Z 11003KT 9SM FEW250 23/19 A3011 RMK AO2 SLP185 T02280194 402830183=
201709160352 METAR KATL 160352Z 11003KT 10SM FEW070 FEW250 23/19 A3010 RMK AO2 SLP184 T02330194=
201709160252 METAR KATL 160252Z 00000KT 10SM FEW070 FEW250 24/19 A3011 RMK AO2 SLP185 T02440189 51014=
201709160152 METAR KATL 160152Z 14003KT 10SM FEW050 SCT070 SCT250 25/19 A3009 RMK AO2 SLP180 T02500194=
201709160052 METAR KATL 160052Z 15003KT 10SM SCT050 BKN065 BKN250 25/19 A3008 RMK AO2 SLP177 T02500194=
201709152352 METAR KATL 152352Z 15004KT 10SM SCT045TCU BKN060 BKN250 26/19 A3006 RMK AO2 SLP172 TCU OHD-NW T02610189 10283 20261 53000=
201709152252 METAR KATL 152252Z 13003KT 10SM SCT040TCU BKN070 27/18 A3006 RMK AO2 SLP170 TCU OHD-W T02720183=
201709152152 METAR KATL 152152Z 14003KT 10SM SCT040 SCT080 28/18 A3005 RMK AO2 SLP168 MDT CU OHD-N & SW T02780183=
201709152052 METAR KATL 152052Z 15004KT 10SM SCT044 BKN080 28/18 A3006 RMK AO2 SLP171 MDT CU W-N-E T02780178 56013=
201709151952 METAR KATL 151952Z 15005KT 10SM BKN043 BKN090 27/18 A3007 RMK AO2 SLP173 MDT CU ALQDS T02720183=
201709151852 METAR KATL 151852Z VRB04KT 10SM SCT040 SCT060 28/18 A3008 RMK AO2 SLP177 MDT CU ALQDS T02780183=
201709151752 METAR KATL 151752Z 00000KT 10SM BKN036 BKN070 27/18 A3010 RMK AO2 SLP184 MDT CU ALQDS T02670178 10278 20194 56008=
201709151652 METAR KATL 151652Z 00000KT 10SM BKN035 BKN060 27/19 A3011 RMK AO2 SLP187 MDT CU OHD-NE-SE-SW T02720189=
201709151552 METAR KATL 151552Z 00000KT 10SM FEW030 FEW250 27/19 A3012 RMK AO2 SLP189 T02720194=
201709151452 METAR KATL 151452Z 12003KT 10SM FEW030 FEW250 26/18 A3012 RMK AO2 SLP192 T02560183 51008=
201709151352 METAR KATL 151352Z 07004KT 10SM FEW150 23/19 A3013 RMK AO2 SLP193 T02330189=
201709151252 METAR KATL 151252Z 00000KT 9SM FEW150 SCT250 21/19 A3011 RMK AO2 SLP189 ACC NW-N T02110189=
201709151152 METAR KATL 151152Z 00000KT 9SM FEW045 FEW150 SCT250 19/18 A3010 RMK AO2 SLP185 T01940178 10200 20183 53018=
201709151052 METAR KATL 151052Z 05003KT 9SM FEW045 SCT250 19/18 A3008 RMK AO2 SLP178 T01940178=
201709150952 METAR KATL 150952Z 00000KT 9SM FEW030 SCT045 SCT250 20/18 A3006 RMK AO2 SLP170 T02000178=
201709150852 METAR KATL 150852Z 00000KT 8SM BKN040 BKN250 19/18 A3004 RMK AO2 SLP166 T01890178 53003=
201709150752 METAR KATL 150752Z 00000KT 9SM FEW250 19/18 A3004 RMK AO2 SLP164 T01890178=
201709150652 METAR KATL 150652Z 00000KT 10SM FEW250 19/18 A3004 RMK AO2 SLP163 T01940178=
201709150552 METAR KATL 150552Z 33003KT 10SM FEW200 SCT250 20/18 A3003 RMK AO2 SLP162 T02000178 10233 20194 50002=
201709150452 METAR KATL 150452Z 00000KT 10SM SCT250 20/18 A3004 RMK AO2 SLP164 T02000183 402610194=
201709150352 METAR KATL 150352Z 00000KT 10SM FEW070 SCT250 21/18 A3003 RMK AO2 SLP162 T02060183=
201709150252 METAR KATL 150252Z 00000KT 10SM FEW070 FEW250 22/18 A3003 RMK AO2 SLP161 T02170183 53011=
201709150152 METAR KATL 150152Z 23004KT 10SM FEW070 FEW250 22/19 A3002 RMK AO2 SLP157 T02170189=
201709150052 METAR KATL 150052Z 00000KT 10SM FEW070 FEW250 22/19 A3001 RMK AO2 SLP154 T02220189=
201709142352 METAR KATL 142352Z 27004KT 10SM FEW060 FEW250 23/18 A3000 RMK AO2 SLP150 T02330178 10261 20233 53005=
201709142252 METAR KATL 142252Z 28005KT 10SM FEW035 FEW070 24/18 A2999 RMK AO2 SLP147 T02390178=
201709142152 METAR KATL 142152Z 28005KT 10SM FEW040 SCT060 BKN090 25/18 A2998 RMK AO2 SLP144 T02500178=
201709142052 METAR KATL 142052Z 26005KT 10SM BKN040 BKN060 BKN090 26/18 A2998 RMK AO2 SLP144 T02610178 58008=
201709141952 METAR KATL 141952Z 23005KT 10SM FEW040 BKN060 BKN090 25/17 A2999 RMK AO2 SLP146 T02500172=
201709141852 METAR KATL 141852Z 28008KT 10SM FEW040 BKN065 BKN090 25/17 A3000 RMK AO2 SLP150 T02500172=
201709141752 METAR KATL 141752Z 00000KT 10SM FEW030 SCT050 BKN090 BKN250 26/18 A3000 RMK AO2 SLP152 T02560178 10256 20194 58005=
201709141652 METAR KATL 141652Z 24006KT 10SM FEW025 BKN045 BKN095 24/18 A3001 RMK AO2 SLP154 T02440178=
201709141552 METAR KATL 141552Z 30009KT 10SM FEW020 SCT070 BKN090 BKN150 23/18 A3002 RMK AO2 SLP157 T02330178=
201709141452 METAR KATL 141452Z 27009KT 10SM FEW070 BKN090 BKN150 23/18 A3002 RMK AO2 SLP158 T02280178 53012=
201709141352 METAR KATL 141352Z 25006KT 10SM FEW050 BKN070 BKN100 21/17 A3000 RMK AO2 SLP153 T02110172=
201709141252 METAR KATL 141252Z 00000KT 10SM BKN055 OVC090 20/17 A2999 RMK AO2 SLP149 T02000167=
201709141152 METAR KATL 141152Z 17003KT 10SM R09R/6000VP6000FT BKN060 OVC095 19/17 A2998 RMK AO2 SLP147 T01940172 10200 20194 53014=
201709141052 METAR KATL 141052Z 18003KT 10SM SCT060 BKN100 19/17 A2997 RMK AO2 SLP141 T01940167=
201709140952 METAR KATL 140952Z 00000KT 10SM OVC060 19/17 A2995 RMK AO2 SLP136 T01940167=
201709140852 METAR KATL 140852Z 00000KT 10SM FEW050 BKN075 OVC110 19/17 A2994 RMK AO2 SLP131 T01940167 55000=
201709140752 METAR KATL 140752Z 00000KT 10SM FEW048 BKN075 OVC120 19/17 A2994 RMK AO2 SLP130 T01940167=
201709140652 METAR KATL 140652Z 14003KT 10SM FEW047 SCT070 OVC120 19/17 A2994 RMK AO2 SLP129 T01940167=
201709140552 METAR KATL 140552Z 00000KT 10SM FEW070 BKN085 OVC110 20/17 A2994 RMK AO2 SLP130 ACC SW T02000167 10211 20200 50000=
201709140452 METAR KATL 140452Z 16003KT 10SM FEW070 OVC090 20/16 A2994 RMK AO2 SLP133 ACC E-S T02000161 402440156=
201709140352 METAR KATL 140352Z 15003KT 10SM BKN090 BKN200 21/16 A2994 RMK AO2 SLP132 T02060161=
201709140252 METAR KATL 140252Z 00000KT 10SM BKN095 BKN120 OVC200 21/16 A2994 RMK AO2 SLP132 T02060161 51008=
201709140152 METAR KATL 140152Z 00000KT 10SM SCT085 BKN130 OVC200 21/15 A2994 RMK AO2 SLP130 T02060150=
201709140052 METAR KATL 140052Z 28003KT 10SM BKN095 BKN150 OVC200 20/15 A2993 RMK AO2 SLP129 T02000150=
201709132352 METAR KATL 132352Z 00000KT 10SM SCT120 BKN150 BKN200 21/15 A2992 RMK AO2 RAB05E16 SLP125 P0000 60000 T02110150 10244 20206 50002=
201709132252 METAR KATL 132252Z 28008KT 10SM FEW040 SCT120 BKN150 BKN200 21/15 A2992 RMK AO2 SLP126 VIRGA NE-OHD-SW T02110150=
201709132152 METAR KATL 132152Z 28005KT 10SM FEW040 BKN150 BKN200 23/15 A2991 RMK AO2 SLP121 T02280150=
201709132052 METAR KATL 132052Z 24009KT 10SM FEW040 SCT110 BKN140 BKN200 23/14 A2991 RMK AO2 SLP121 T02330139 56007=
201709131952 METAR KATL 131952Z 24009KT 10SM FEW045 BKN110 BKN150 BKN200 23/14 A2991 RMK AO2 SLP122 T02330139=
201709131852 METAR KATL 131852Z 22013KT 10SM FEW040 SCT070 BKN150 BKN200 24/14 A2992 RMK AO2 SLP125 T02390139=
201709131752 METAR KATL 131752Z 22013G20KT 10SM FEW040 SCT070 BKN150 24/14 A2993 RMK AO2 SLP129 T02390139 10239 20161 58009 $=
201709131652 METAR KATL 131652Z 21007KT 10SM FEW040 SCT060 SCT120 23/14 A2994 RMK AO2 SLP132 T02280144=
201709131552 METAR KATL 131552Z 22010KT 10SM FEW030 FEW060 22/14 A2995 RMK AO2 SLP137 T02170139=
201709131452 METAR KATL 131452Z 22008KT 10SM FEW020 SCT055 SCT070 20/14 A2996 RMK AO2 SLP139 T02000144 53011=
201709131352 METAR KATL 131352Z 18008KT 10SM FEW010 FEW070 18/16 A2994 RMK AO2 SLP135 T01830156=
201709131319 SPECI KATL 131319Z 17008KT 7SM FEW005 SCT007 17/16 A2994 RMK AO2 T01670156=
201709131310 SPECI KATL 131310Z 18007KT 2SM BR FEW003 BKN005 17/16 A2993 RMK AO2 SFC VIS 5 T01670156=
201709131252 METAR KATL 131252Z 19007KT 1SM R09R/P6000FT BR FEW003 OVC005 16/16 A2993 RMK AO2 SFC VIS 6 SLP132 CIG 004V006 BINOVC T01610156=
201709131152 METAR KATL 131152Z 19007KT 1SM R09R/P6000FT BR FEW003 OVC005 16/16 A2992 RMK AO2 SFC VIS 5 SLP129 70008 T01610156 10161 20156 53022=
201709131110 SPECI KATL 131110Z 21007KT 1SM R09R/P6000FT BR SCT003 OVC006 16/15 A2991 RMK AO2 SFC VIS 5 T01560150=
201709131052 METAR KATL 131052Z 18006KT 3SM BR SCT003 BKN007 16/15 A2989 RMK AO2 SFC VIS 6 SLP119 CIG 005V009 T01560150=
201709131049 SPECI KATL 131049Z 17005KT 1SM R09R/P6000FT BR SCT003 BKN008 16/15 A2989 RMK AO2 SFC VIS 6=
201709130952 METAR KATL 130952Z 16003KT 1SM R09R/3500VP6000FT BR BKN003 BKN012 16/15 A2988 RMK AO2 SFC VIS 4 SLP114 VIS SE-SW 1 BKN003 V SCT T01560150=
201709130949 SPECI KATL 130949Z 16003KT 1SM R09R/P6000FT BR BKN003 BKN012 16/15 A2988 RMK AO2 SFC VIS 4 VIS SE-SW 1=
201709130852 METAR KATL 130852Z 15005KT 6SM BR BKN004 BKN014 16/15 A2986 RMK AO2 SLP106 BKN004 V SCT CIG 003V006 T01560150 55002=
201709130752 METAR KATL 130752Z 13008KT 8SM BKN004 BKN042 16/16 A2985 RMK AO2 SLP103 BKN004 V SCT CIG 003V006 T01560156=
201709130703 SPECI KATL 130703Z 12008KT 10SM BKN005 BKN042 16/16 A2985 RMK AO2 BKN005 V SCT T01610156=
201709130652 METAR KATL 130652Z 12007KT 10SM SCT005 SCT031 BKN040 16/16 A2985 RMK AO2 SLP105 T01610156=
201709130552 METAR KATL 130552Z 12006KT 10SM SCT007 SCT038 BKN055 16/15 A2986 RMK AO2 SLP108 T01610150 10172 20161 57000=
201709130452 METAR KATL 130452Z 11007KT 10SM FEW004 SCT055 16/15 A2986 RMK AO2 SLP107 T01610150 401780150=
201709130352 METAR KATL 130352Z 11008KT 10SM FEW006 BKN060 16/16 A2986 RMK AO2 SLP109 T01610156=
201709130252 METAR KATL 130252Z 10005KT 10SM FEW008 FEW050 16/16 A2986 RMK AO2 SLP108 T01610156 51010=
201709130152 METAR KATL 130152Z 11005KT 10SM FEW008 SCT040 SCT055 17/16 A2986 RMK AO2 SLP108 T01670156=
201709130052 METAR KATL 130052Z 12006KT 10SM FEW010 SCT032 BKN045 17/16 A2985 RMK AO2 SLP105 T01720156=
201709122352 METAR KATL 122352Z 13005KT 10SM FEW030 BKN045 17/16 A2983 RMK AO2 SLP098 60002 T01720156 10178 20167 51012=
201709122252 METAR KATL 122252Z 17007KT 10SM FEW015 BKN034 OVC045 18/16 A2982 RMK AO2 SLP094 BINOVC T01780156=
201709122229 SPECI KATL 122229Z 17008KT 10SM FEW014 SCT030 OVC040 18/15 A2981 RMK AO2 BINOVC T01780150=
201709122152 METAR KATL 122152Z 18006KT 10SM SCT014 BKN020 OVC030 18/16 A2981 RMK AO2 SLP092 T01780156=
201709122132 SPECI KATL 122132Z 17006KT 10SM FEW010 SCT020 OVC032 18/16 A2981 RMK AO2 BINOVC T01780156=
201709122052 METAR KATL 122052Z 19008KT 10SM BKN015 BKN025 OVC040 17/16 A2980 RMK AO2 RAE09 SLP086 P0001 60002 T01720156 51004=
201709122011 SPECI KATL 122011Z 18010KT 5SM BR SCT011 BKN018 OVC026 17/16 A2979 RMK AO2 RAE09 P0001 T01720156=
201709121952 METAR KATL 121952Z 19005KT 4SM -RA BR BKN013 BKN020 OVC040 17/16 A2979 RMK AO2 RAB28 SLP084 P0001 T01720161=
201709121909 SPECI KATL 121909Z 19009KT 10SM FEW020 SCT025 OVC040 18/16 A2979 RMK AO2 T01780156=
201709121852 METAR KATL 121852Z 19010KT 10SM FEW012 BKN025 OVC035 17/16 A2979 RMK AO2 RAB21E40 SLP083 P0000 T01720156=
201709121752 METAR KATL 121752Z 19010G18KT 9SM BKN008 BKN012 OVC030 17/16 A2978 RMK AO2 DZE50 SLP081 P0001 60006 T01670156 10172 20150 51014=
201709121657 SPECI KATL 121657Z 17012KT 2SM -DZ BR BKN008 BKN014 OVC020 17/16 A2977 RMK AO2 SFC VIS 5 P0000 T01670156=
201709121652 METAR KATL 121652Z 17009G16KT 2SM -DZ BR SCT008 BKN014 OVC020 17/16 A2977 RMK AO2 SFC VIS 5 SLP077 P0000 T01670161=
201709121637 SPECI KATL 121637Z 17012G17KT 2SM -DZ BR SCT006 BKN014 OVC020 17/16 A2977 RMK AO2 SFC VIS 5 P0000 T01670156=
201709121552 METAR KATL 121552Z 16010G17KT 2SM -DZ BR BKN007 BKN013 OVC020 16/16 A2976 RMK AO2 SFC VIS 3 SLP075 P0002 T01610156=
201709121528 SPECI KATL 121528Z 14007KT 2SM R09R/6000VP6000FT -DZ BR BKN007 BKN012 OVC020 16/16 A2976 RMK AO2 SFC VIS 3 P0000 T01610156=
201709121452 METAR KATL 121452Z 16009KT 6SM -DZ BR BKN007 BKN010 OVC015 16/15 A2974 RMK AO2 SLP067 P0001 60003 T01610150 51026=
201709121352 METAR KATL 121352Z 17009KT 2SM -DZ BR BKN006 BKN010 OVC020 16/15 A2972 RMK AO2 SFC VIS 3 SLP059 P0000 T01560150=
201709121319 SPECI KATL 121319Z 14008KT 2SM -DZ BR BKN006 BKN011 OVC017 16/15 A2970 RMK AO2 SFC VIS 3 P0000 T01560150=
201709121252 METAR KATL 121252Z 14009G16KT 5SM -DZ BR BKN007 OVC012 16/15 A2969 RMK AO2 RAE36DZB36 SLP050 CIG 005V009 P0002 T01560150=
201709121237 SPECI KATL 121237Z 14009G16KT 4SM -DZ BR BKN007 OVC015 16/15 A2968 RMK AO2 RAE36DZB36 CIG 005V009 P0002 T01560150=
201709121152 METAR KATL 121152Z 14008G15KT 2 1/2SM -RA BR BKN005 OVC012 15/15 A2966 RMK AO2 DZE13RAB13 SLP041 P0002 60014 70355 T01500150 10172 20150 53027=
201709121130 SPECI KATL 121130Z 13010G16KT 2 1/2SM -RA BR BKN005 OVC009 15/15 A2965 RMK AO2 DZE13RAB13 P0002 T01500150=
201709121052 METAR KATL 121052Z 13010G16KT 4SM -DZ BR BKN006 OVC016 15/15 A2963 RMK AO2 RAE40DZB40 SLP032 CIG 005V008 P0001 T01500150=
201709121043 SPECI KATL 121043Z 13010KT 4SM -DZ BR BKN006 OVC016 15/15 A2963 RMK AO2 RAE40DZB40 CIG 005V008 P0001 T01500150=
201709120952 METAR KATL 120952Z 12010G18KT 2 1/2SM -RA BR BKN006 BKN011 OVC019 16/15 A2960 RMK AO2 RAB0854 SLP020 CIG 003V009 P0000 T01560150=
201709120949 SPECI KATL 120949Z 12012G19KT 2SM -RA BR BKN006 BKN011 OVC019 16/14 A2960 RMK AO2 RAB0854 CIG 003V009 P0000=
201709120902 SPECI KATL 120902Z 13013G21KT 4SM -RA BR BKN006 BKN011 OVC024 16/14 A2958 RMK AO2 RAB0854 P0000 T01560144=
201709120852 METAR KATL 120852Z 13014G25KT 2SM BR BKN006 BKN011 OVC018 16/15 A2958 RMK AO2 RAE52 SLP012 P0003 60011 T01560150 53015=
201709120752 METAR KATL 120752Z 12015G23KT 3SM -RA BR BKN006 BKN011 OVC018 16/16 A2956 RMK AO2 SLP004 P0007 T01610156=
201709120748 SPECI KATL 120748Z 12014G23KT 3SM -RA BR BKN006 BKN011 OVC018 16/16 A2956 RMK AO2 P0006=
201709120700 SPECI KATL 120700Z 12008G20KT 2 1/2SM RA BR BKN007 OVC013 17/16 A2954 RMK AO2 P0002 T01720161=
201709120654 SPECI KATL 120654Z 11012G20KT 3SM -RA BR SCT006 OVC015 17/16 A2954 RMK AO2 P0000 T01720161=
201709120652 METAR KATL 120652Z 11015G21KT 3SM -RA BR SCT006 BKN011 OVC018 17/16 A2954 RMK AO2 PK WND 11026/0555 SLP000 P0001 T01720161=
201709120648 SPECI KATL 120648Z 11012G24KT 4SM -RA BR SCT006 BKN011 OVC020 17/16 A2954 RMK AO2 PK WND 11026/0555 P0001=
201709120552 METAR KATL 120552Z 11016G23KT 5SM -RA BR BKN007 BKN011 OVC024 17/17 A2953 RMK AO2 PK WND 13027/0512 SLP996 P0002 60072 T01720167 10178 20161 51006=
201709120549 SPECI KATL 120549Z 11013G19KT 4SM -RA BR BKN007 BKN011 OVC024 17/17 A2953 RMK AO2 PK WND 13027/0512 P0002=
201709120452 METAR KATL 120452Z 12014G22KT 5SM -RA BR SCT007 BKN012 OVC028 18/17 A2952 RMK AO2 SLP991 P0003 T01780167 401780139=
201709120359 SPECI KATL 120359Z 07014KT 5SM -RA BR SCT007 BKN012 OVC030 18/17 A2951 RMK AO2 P0001 T01780172=
201709120352 METAR KATL 120352Z 08013G21KT 2SM RA BR SCT007 BKN012 OVC030 17/17 A2951 RMK AO2 PK WND 07027/0318 SLP990 P0010 T01720172=
201709120252 METAR KATL 120252Z 08014G28KT 2SM RA BR BKN007 BKN012 OVC025 17/17 A2950 RMK AO2 PK WND 08028/0247 SLP985 P0010 60057 T01720167 58002=
201709120152 METAR KATL 120152Z 06019G25KT 2SM RA BR SCT007 BKN012 OVC025 17/16 A2950 RMK AO2 PK WND 04030/0104 SLP987 P0023 T01670161=
201709120052 METAR KATL 120052Z 05021G33KT 2SM RA BR SCT008 BKN013 OVC030 16/16 A2951 RMK AO2 PK WND 04035/0026 SLP988 P0024 T01610156=
201709112352 METAR KATL 112352Z 05023G30KT 2SM RA BR SCT008 BKN014 OVC025 16/15 A2951 RMK AO2 PK WND 04036/2257 SLP988 P0026 60216 T01610150 10167 20161 58014=
201709112252 METAR KATL 112252Z 04023G30KT 2SM +RA BR SCT008 BKN014 OVC030 16/15 A2953 RMK AO2 PK WND 03034/2205 SLP997 P0036 T01610150=
201709112152 METAR KATL 112152Z 04024G38KT 1 1/2SM R09R/5000VP6000FT +RA BR FEW008 BKN014 OVC030 16/16 A2955 RMK AO2 PK WND 04038/2119 SLP002 P0034 T01610156=
201709112146 SPECI KATL 112146Z 04026G37KT 1 1/2SM R09R/5000VP6000FT +RA BR BKN014 BKN020 OVC040 17/16 A2955 RMK AO2 PK WND 04038/2119 P0028=
201709112059 SPECI KATL 112059Z 04026G36KT 2SM +RA BR BKN013 BKN020 OVC040 16/16 A2955 RMK AO2 PK WND 05036/2053 TWR VIS 2 1/2 P0003 T01610156=
201709112052 METAR KATL 112052Z 04025G43KT 1 3/4SM R09R/6000VP6000FT +RA BR BKN013 BKN020 OVC030 16/15 A2955 RMK AO2 PK WND 04043/2043 SLP003 P0051 60120 T01610150 56046=
201709112037 SPECI KATL 112037Z 04030G40KT 1 3/4SM +RA BR BKN013 BKN020 OVC040 16/15 A2955 RMK AO2 PK WND 03042/2024 P0041 T01610150=
201709112005 SPECI KATL 112005Z 03029G41KT 1 1/4SM R09R/5000V6000FT +RA BR BKN016 BKN020 OVC040 16/15 A2956 RMK AO2 PK WND 04041/2001 P0013 T01610150=
201709111952 METAR KATL 111952Z 04027G43KT 1 1/2SM R09R/5500VP6000FT +RA BR BKN014 BKN020 OVC050 16/15 A2957 RMK AO2 PK WND 03056/1909 SLP009 P0042 T01610150=
201709111939 SPECI KATL 111939Z 03033G43KT 1 3/4SM R09R/4500VP6000FT +RA BR BKN014 BKN020 OVC040 16/15 A2957 RMK AO2 PK WND 03056/1909 P0033 T01610150=
201709111859 SPECI KATL 111859Z 03033G49KT 1 1/2SM R09R/5500VP6000FT +RA BR BKN015 OVC023 16/15 A2960 RMK AO2 PK WND 04047/1854 PRESFR P0005 T01610150=
201709111852 METAR KATL 111852Z 03037G51KT 2SM R09R/5500VP6000FT +RA BR BKN015 BKN023 OVC040 16/14 A2962 RMK AO2 PK WND 05051/1848 SLP025 P0027 T01610144=
201709111840 SPECI KATL 111840Z 03034G49KT 2SM RA BR BKN015 BKN020 OVC050 16/14 A2963 RMK AO2 PK WND 03050/1826 P0022 T01610144=
201709111824 SPECI KATL 111824Z 03035G48KT 1 3/4SM R09R/5500VP6000FT +RA BR SCT013 BKN020 OVC040 16/14 A2964 RMK AO2 PK WND 03048/1824 P0013 T01610144=
201709111818 SPECI KATL 111818Z 03031G45KT 3SM RA BR BKN013 BKN022 OVC028 16/14 A2966 RMK AO2 PK WND 03046/1801 P0011 T01610144=
201709111752 METAR KATL 111752Z 03033G46KT 2 1/2SM +RA BR BKN015 BKN020 OVC040 16/14 A2969 RMK AO2 PK WND 01053/1722 PRESFR SLP050 P0014 60053 T01610144 10161 20139 58058=
201709111745 SPECI KATL 111745Z 03029G44KT 2SM RA BR BKN015 BKN020 OVC050 16/14 A2971 RMK AO2 PK WND 01053/1722 P0012 T01610144=
201709111731 SPECI KATL 111731Z 03029G53KT 3SM RA BR BKN015 BKN020 OVC050 16/14 A2972 RMK AO2 PK WND 01053/1722 P0008 T01610144=
201709111726 SPECI KATL 111726Z 03029G53KT 2 1/2SM RA BR BKN015 BKN020 OVC030 16/14 A2972 RMK AO2 PK WND 01053/1722 P0006 T01610144=
201709111652 METAR KATL 111652Z 03029G39KT 5SM -RA BR SCT014 BKN021 OVC060 16/14 A2976 RMK AO2 PK WND 04044/1616 PRESFR SLP073 P0006 T01610139=
201709111621 SPECI KATL 111621Z 04027G44KT 7SM -RA BKN014 BKN020 OVC050 16/14 A2981 RMK AO2 PK WND 04044/1616 P0002 T01560139=
201709111552 METAR KATL 111552Z 04026G36KT 8SM -RA BKN015 BKN050 OVC080 16/14 A2984 RMK AO2 PK WND 03036/1540 SLP102 P0004 T01560139=
201709111517 SPECI KATL 111517Z 04024G32KT 8SM -RA FEW010 BKN015 OVC050 16/14 A2984 RMK AO2 PK WND 03035/1506 P0002 T01560139=
201709111452 METAR KATL 111452Z 04025G32KT 10SM -RA BKN014 BKN050 OVC100 15/14 A2987 RMK AO2 PK WND 03036/1420 SLP110 P0007 60029 T01500139 58038=
201709111352 METAR KATL 111352Z 03023G31KT 5SM RA BR BKN014 BKN050 OVC080 14/13 A2989 RMK AO2 PK WND 03031/1351 SLP120 P0013 T01440133=
201709111252 METAR KATL 111252Z 05019G25KT 5SM RA BR FEW009 BKN014 OVC080 14/13 A2996 RMK AO2 PK WND 03029/1221 SLP143 P0009 T01440128=
201709111244 SPECI KATL 111244Z 04019G25KT 5SM RA BR FEW009 BKN014 OVC048 14/13 A2996 RMK AO2 PK WND 03029/1221 P0007 T01440128=
201709111152 METAR KATL 111152Z 04019G27KT 6SM -RA BR FEW007 SCT015 OVC100 14/12 A2998 RMK AO2 PK WND 04029/1104 SLP150 P0008 60023 70023 T01390122 10172 20139 58021=
201709111148 SPECI KATL 111148Z 04019G26KT 6SM -RA BR FEW007 SCT015 OVC100 14/13 A2999 RMK AO2 PK WND 04029/1104 P0008=
201709111052 METAR KATL 111052Z 05019KT 9SM -RA SCT025 SCT040 OVC110 14/13 A3000 RMK AO2 PK WND 05028/1002 SLP155 P0005 T01390128=
201709110952 METAR KATL 110952Z 05017KT 9SM -RA SCT025 SCT055 OVC110 14/13 A3003 RMK AO2 SLP167 P0006 T01440128=
201709110852 METAR KATL 110852Z 05016G23KT 10SM -RA FEW009 OVC110 14/12 A3005 RMK AO2 PK WND 05026/0804 SLP170 P0003 60004 T01440122 56020=
201709110848 SPECI KATL 110848Z 05015G23KT 10SM -RA FEW009 OVC110 14/12 A3005 RMK AO2 PK WND 05026/0804 P0003=
201709110752 METAR KATL 110752Z 06015G22KT 10SM -RA BKN120 16/12 A3007 RMK AO2 PK WND 06026/0709 SLP177 P0001 T01560117=
201709110652 METAR KATL 110652Z 06016G25KT 10SM -RA FEW065 SCT110 OVC140 17/11 A3008 RMK AO2 PK WND 05027/0626 RAB24 SLP181 P0000 T01670106=
201709110552 METAR KATL 110552Z 06018G27KT 10SM FEW065 SCT100 OVC130 17/09 A3011 RMK AO2 PK WND 07028/0505 SLP189 VIRGA OHD-ALQDS T01720094 10189 20172 56013=
201709110452 METAR KATL 110452Z 07018G29KT 10SM FEW065 BKN110 OVC140 17/09 A3012 RMK AO2 PK WND 07029/0449 SLP195 VIRGA OHD-ALQDS T01720089 402330156=
201709110352 METAR KATL 110352Z 06017G25KT 10SM FEW060 SCT100 OVC140 18/09 A3013 RMK AO2 PK WND 07030/0326 SLP197 VIRGA OHD-ALQDS T01780089=
201709110252 METAR KATL 110252Z 06022G25KT 10SM FEW065 SCT100 OVC150 18/08 A3015 RMK AO2 PK WND 05030/0209 SLP203 VIRGA OHD-ALQDS T01780083 58005=
201709110152 METAR KATL 110152Z 07020G25KT 10SM FEW070 SCT110 OVC160 18/08 A3016 RMK AO2 PK WND 06027/0129 SLP207 VIRGA OHD-ALQDS T01780083=
201709110052 METAR KATL 110052Z 06018KT 10SM FEW050 SCT070 OVC180 18/08 A3015 RMK AO2 SLP207 VIRGA OHD-ALQDS T01780083=
201709102352 METAR KATL 102352Z 05017G22KT 10SM FEW046 SCT065 OVC180 18/08 A3016 RMK AO2 SLP209 VIRGA OHD-ALQDS T01830078 10233 20183 58010=
201709102252 METAR KATL 102252Z 05016KT 10SM FEW048 BKN065 BKN150 OVC200 19/08 A3018 RMK AO2 SLP215 VIRGA OHD-ALQDS T01890078=
201709102152 METAR KATL 102152Z 04015KT 10SM FEW055 BKN150 BKN250 19/08 A3018 RMK AO2 SLP217 VIRGA OHD-ALQDS T01890078=
201709102052 METAR KATL 102052Z 05017KT 10SM SCT050 BKN150 BKN250 19/07 A3019 RMK AO2 SLP219 VIRGA SE AND W-NW T01940072 56010=
201709101952 METAR KATL 101952Z 05017KT 10SM BKN050 BKN150 BKN250 20/07 A3020 RMK AO2 SLP223 VIRGA SE T02000072=
201709101852 METAR KATL 101852Z 06017KT 10SM SCT050 SCT085 BKN150 BKN250 21/07 A3021 RMK AO2 PK WND 07029/1754 SLP224 VIRGA NE T02110067=
201709101752 METAR KATL 101752Z 06017G27KT 10SM SCT050 SCT085 BKN200 BKN250 22/07 A3022 RMK AO2 PK WND 05027/1744 SLP229 T02220072 10222 20161 58009=
201709101652 METAR KATL 101652Z 07021G29KT 10SM SCT050 BKN085 BKN250 21/08 A3024 RMK AO2 PK WND 07031/1629 SLP233 T02060078=
201709101552 METAR KATL 101552Z 08021G30KT 10SM FEW070 SCT085 SCT250 22/07 A3024 RMK AO2 PK WND 06033/1533 SLP235 T02170072=
201709101452 METAR KATL 101452Z 06025G31KT 10SM FEW070 SCT085 20/08 A3025 RMK AO2 PK WND 06037/1404 SLP238 T02000078 51007=
201709101352 METAR KATL 101352Z 07020G29KT 10SM FEW085 FEW250 19/09 A3025 RMK AO2 PK WND 08031/1325 SLP236 T01890094=
201709101252 METAR KATL 101252Z 07016G24KT 10SM FEW080 FEW250 17/11 A3024 RMK AO2 PK WND 07027/1157 SLP235 T01670106=
201709101152 METAR KATL 101152Z 07018G22KT 10SM FEW080 FEW250 16/11 A3023 RMK AO2 SLP230 T01610106 10183 20156 53018=
201709101052 METAR KATL 101052Z 06017G22KT 10SM FEW080 FEW250 16/11 A3021 RMK AO2 SLP223 T01610106=
201709100952 METAR KATL 100952Z 08013KT 10SM CLR 17/11 A3019 RMK AO2 SLP215 T01670106=
201709100852 METAR KATL 100852Z 07017KT 10SM FEW250 17/11 A3017 RMK AO2 SLP211 T01720106 56001=
201709100752 METAR KATL 100752Z 07014KT 10SM CLR 17/10 A3018 RMK AO2 SLP211 T01720100=
201709100652 METAR KATL 100652Z 07015KT 10SM CLR 18/10 A3017 RMK AO2 SLP211 T01780100=
201709100552 METAR KATL 100552Z 07016KT 10SM CLR 18/11 A3018 RMK AO2 SLP212 T01830106 10233 20183 51002=
201709100452 METAR KATL 100452Z 07015KT 10SM CLR 19/11 A3018 RMK AO2 SLP212 T01890106 402610167=
201709100352 METAR KATL 100352Z 07012KT 10SM CLR 20/11 A3018 RMK AO2 SLP212 T02000111=
201709100252 METAR KATL 100252Z 06014KT 10SM CLR 21/11 A3017 RMK AO2 SLP210 T02110106 53008=
201709100152 METAR KATL 100152Z 06012KT 10SM CLR 21/11 A3017 RMK AO2 SLP208 T02110111=
201709100052 METAR KATL 100052Z 05012KT 10SM CLR 22/11 A3015 RMK AO2 SLP204 T02220106=
201709092352 METAR KATL 092352Z 06012KT 10SM CLR 23/11 A3015 RMK AO2 SLP203 T02330106 10261 20233 58001=
201709092252 METAR KATL 092252Z 07015KT 10SM CLR 24/11 A3015 RMK AO2 SLP205 T02440106=
201709092152 METAR KATL 092152Z 05022KT 10SM CLR 26/11 A3015 RMK AO2 SLP202 T02560106=
201709092052 METAR KATL 092052Z 05017G26KT 10SM FEW070 26/10 A3015 RMK AO2 PK WND 07027/2003 SLP202 T02610100 56017=
201709091952 METAR KATL 091952Z 07017G26KT 10SM FEW070 26/09 A3016 RMK AO2 PK WND 04031/1855 SLP204 T02610089=
201709091852 METAR KATL 091852Z 07018G27KT 10SM FEW065 26/10 A3018 RMK AO2 PK WND 06029/1756 SLP212 T02560100=
201709091752 METAR KATL 091752Z 06019G27KT 10SM SCT065 25/10 A3020 RMK AO2 PK WND 05027/1748 SLP219 T02500100 10256 20172 58013=
201709091652 METAR KATL 091652Z 08013G22KT 10SM SCT055 24/11 A3022 RMK AO2 PK WND 05027/1625 SLP224 T02440111=
201709091552 METAR KATL 091552Z 07019G25KT 10SM FEW050 24/11 A3023 RMK AO2 PK WND 07026/1546 SLP230 T02390106=
201709091452 METAR KATL 091452Z 07014G23KT 10SM CLR 22/11 A3024 RMK AO2 SLP233 T02220111 53011=
201709091352 METAR KATL 091352Z 07013G25KT 290V080 10SM CLR 21/12 A3022 RMK AO2 SLP227 T02060122=
201709091252 METAR KATL 091252Z 07013KT 10SM CLR 18/12 A3022 RMK AO2 SLP227 T01830122=
201709091152 METAR KATL 091152Z 06011KT 10SM CLR 17/12 A3021 RMK AO2 SLP223 T01720122 10189 20167 51016=
201709091052 METAR KATL 091052Z 06010KT 10SM CLR 17/12 A3019 RMK AO2 SLP218 T01670122=
201709090952 METAR KATL 090952Z 06008KT 10SM CLR 17/12 A3018 RMK AO2 SLP213 T01720122=
201709090852 METAR KATL 090852Z 06010KT 10SM CLR 18/12 A3016 RMK AO2 SLP205 T01780122 53000=
201709090752 METAR KATL 090752Z 06009KT 10SM CLR 18/12 A3015 RMK AO2 SLP202 T01780122=
201709090652 METAR KATL 090652Z 07008KT 10SM CLR 18/12 A3015 RMK AO2 SLP202 T01830122=
201709090552 METAR KATL 090552Z 07009KT 10SM CLR 19/12 A3016 RMK AO2 SLP204 T01890122 10233 20183 58003=
201709090452 METAR KATL 090452Z 07008KT 10SM CLR 19/13 A3017 RMK AO2 SLP207 T01940128 402670139=
201709090352 METAR KATL 090352Z 06009KT 10SM CLR 20/13 A3017 RMK AO2 SLP209 T02000128=
201709090252 METAR KATL 090252Z 07010KT 10SM CLR 22/13 A3017 RMK AO2 SLP208 T02170133 51013=
201709090152 METAR KATL 090152Z 07009KT 10SM FEW060 22/13 A3016 RMK AO2 SLP206 T02170133=
201709090052 METAR KATL 090052Z 07010KT 10SM CLR 23/13 A3014 RMK AO2 SLP202 T02280128=
201709082352 METAR KATL 082352Z 08009KT 10SM CLR 23/12 A3013 RMK AO2 SLP195 T02280122 10267 20228 50001=
201709082252 METAR KATL 082252Z 10008KT 10SM FEW060 24/12 A3013 RMK AO2 SLP196 T02440122=
201709082152 METAR KATL 082152Z 10008KT 10SM FEW060 25/12 A3013 RMK AO2 SLP195 T02500117=
201709082052 METAR KATL 082052Z 06010KT 10SM FEW060 26/12 A3012 RMK AO2 SLP194 T02610117 56018=
201709081952 METAR KATL 081952Z VRB04KT 10SM SCT060 26/12 A3014 RMK AO2 SLP200 T02610117=
201709081852 METAR KATL 081852Z 07005KT 10SM FEW055 26/12 A3016 RMK AO2 SLP205 T02560117=
201709081752 METAR KATL 081752Z VRB06KT 10SM FEW055 26/12 A3018 RMK AO2 SLP212 T02560117 10256 20156 58006=
201709081652 METAR KATL 081652Z VRB04KT 10SM FEW050 25/12 A3018 RMK AO2 SLP214 T02500117=
201709081552 METAR KATL 081552Z 08007KT 10SM CLR 23/12 A3019 RMK AO2 SLP216 T02330117=
201709081452 METAR KATL 081452Z 06005KT 10SM CLR 22/12 A3019 RMK AO2 SLP218 T02170122 53005=
201709081352 METAR KATL 081352Z 08005KT 10SM CLR 19/12 A3018 RMK AO2 SLP215 T01890122=
201709081252 METAR KATL 081252Z 05007KT 10SM FEW200 SCT250 17/12 A3019 RMK AO2 SLP217 T01720117=
201709081152 METAR KATL 081152Z 04008KT 10SM FEW200 16/11 A3018 RMK AO2 SLP214 T01560106 10178 20139 53014=
201709081052 METAR KATL 081052Z 04004KT 10SM FEW200 15/10 A3016 RMK AO2 SLP207 T01500100=
201709080952 METAR KATL 080952Z 02005KT 10SM FEW200 14/11 A3015 RMK AO2 SLP203 T01440106=
201709080852 METAR KATL 080852Z 33005KT 10SM FEW200 14/11 A3014 RMK AO2 SLP199 T01390106 56003=
201709080752 METAR KATL 080752Z 34005KT 10SM CLR 14/11 A3014 RMK AO2 SLP199 T01440111=
201709080652 METAR KATL 080652Z 02004KT 10SM CLR 17/10 A3014 RMK AO2 SLP201 T01670100=
201709080552 METAR KATL 080552Z 02003KT 10SM CLR 17/11 A3015 RMK AO2 SLP203 T01720106 10217 20172 51007=
201709080452 METAR KATL 080452Z 36006KT 10SM CLR 17/11 A3014 RMK AO2 SLP202 T01720106 402500117=
201709080352 METAR KATL 080352Z 01009KT 10SM CLR 19/09 A3013 RMK AO2 SLP198 T01890094=
201709080252 METAR KATL 080252Z 01010KT 10SM CLR 20/09 A3012 RMK AO2 SLP195 T02000094 51013=
201709080152 METAR KATL 080152Z 35008KT 10SM CLR 20/09 A3011 RMK AO2 SLP192 T02000089=
201709080052 METAR KATL 080052Z 33007KT 10SM CLR 20/08 A3010 RMK AO2 SLP187 T02000083=
201709072352 METAR KATL 072352Z 32007KT 10SM CLR 22/08 A3008 RMK AO2 SLP183 T02170078 10250 20217 56001=
201709072252 METAR KATL 072252Z 30007KT 10SM CLR 23/08 A3009 RMK AO2 SLP184 T02330083=
201709072152 METAR KATL 072152Z 34004KT 10SM CLR 24/08 A3009 RMK AO2 SLP182 T02440078=
201709072052 METAR KATL 072052Z 27005KT 10SM FEW250 25/09 A3009 RMK AO2 SLP184 T02500089 56015=
201709071952 METAR KATL 071952Z 00000KT 10SM FEW070 FEW250 24/07 A3010 RMK AO2 SLP188 T02440072=
201709071852 METAR KATL 071852Z 32004KT 10SM FEW070 FEW250 24/07 A3012 RMK AO2 SLP193 T02390067=
201709071752 METAR KATL 071752Z 33007KT 10SM FEW065 FEW250 24/07 A3013 RMK AO2 SLP198 T02390072 10239 20128 58005=
201709071652 METAR KATL 071652Z 12005KT 10SM FEW065 FEW250 23/07 A3014 RMK AO2 SLP203 T02280067=
201709071552 METAR KATL 071552Z 05006KT 10SM FEW200 22/07 A3015 RMK AO2 SLP205 T02170072=
201709071452 METAR KATL 071452Z 36010KT 10SM FEW200 21/08 A3015 RMK AO2 SLP204 T02110083 51015=
201709071352 METAR KATL 071352Z 01007KT 10SM FEW200 19/09 A3014 RMK AO2 SLP200 T01890094=
201709071252 METAR KATL 071252Z 33005KT 10SM FEW200 16/11 A3012 RMK AO2 SLP196 T01560106=
201709071152 METAR KATL 071152Z 33007KT 10SM FEW200 13/10 A3010 RMK AO2 SLP191 70007 T01280100 10144 20117 53015=
201709071052 METAR KATL 071052Z 33006KT 10SM FEW048 FEW200 12/10 A3008 RMK AO2 SLP181 T01220100=
201709070952 METAR KATL 070952Z 32008KT 10SM CLR 12/10 A3006 RMK AO2 SLP176 T01220100=
201709070852 METAR KATL 070852Z 32008KT 10SM CLR 12/11 A3006 RMK AO2 SLP174 T01220106 58004=
201709070752 METAR KATL 070752Z 32007KT 10SM CLR 13/11 A3006 RMK AO2 SLP175 T01280106=
201709070652 METAR KATL 070652Z 33005KT 10SM CLR 14/10 A3007 RMK AO2 SLP178 T01390100=
201709070552 METAR KATL 070552Z 33004KT 10SM CLR 14/10 A3007 RMK AO2 SLP179 T01440100 10206 20144 51007=
201709070452 METAR KATL 070452Z 33006KT 10SM CLR 15/11 A3007 RMK AO2 SLP178 T01500106 402440150=
201709070352 METAR KATL 070352Z 33007KT 10SM CLR 16/11 A3006 RMK AO2 SLP175 T01610106=
201709070252 METAR KATL 070252Z 32007KT 280V340 10SM CLR 17/11 A3005 RMK AO2 SLP171 T01670106 51023=
201709070152 METAR KATL 070152Z 33009KT 10SM FEW050 18/11 A3003 RMK AO2 SLP163 T01780106=
201709070052 METAR KATL 070052Z 31006KT 10SM FEW050 18/10 A3000 RMK AO2 SLP154 T01830100=
201709062352 METAR KATL 062352Z 31009KT 10SM FEW050 21/09 A2998 RMK AO2 SLP145 T02060089 10244 20206 53011=
201709062252 METAR KATL 062252Z 33011G18KT 10SM FEW055 22/09 A2996 RMK AO2 SLP140 T02220094=
201709062152 METAR KATL 062152Z 34015G21KT 10SM FEW055 23/11 A2995 RMK AO2 SLP135 T02280106=
201709062052 METAR KATL 062052Z 31010KT 10SM SCT055 24/11 A2994 RMK AO2 SLP132 T02390106 58009=
201709061952 METAR KATL 061952Z 35012G16KT 10SM FEW050 FEW150 23/09 A2995 RMK AO2 SLP135 T02330094=
201709061852 METAR KATL 061852Z VRB05KT 10SM FEW027 SCT040 SCT150 22/14 A2997 RMK AO2 SLP142 T02170139=
201709061752 METAR KATL 061752Z 30006KT 10SM FEW020 SCT100 BKN170 BKN250 21/16 A2997 RMK AO2 SLP143 60007 T02060161 10206 20161 50005=
201709061652 METAR KATL 061652Z 29006KT 10SM FEW010 FEW070 SCT100 BKN140 BKN200 18/15 A2998 RMK AO2 RAE35 SLP146 CB DSNT NE-SE SHRA DSNT NE-SE P0004 T01780150=
201709061552 METAR KATL 061552Z 32008KT 6SM R09R/5500VP6000FT -RA BR SCT015CB BKN070 OVC100 17/14 A2998 RMK AO2 RAB38 SLP147 VIS LWR E-SE-S SHRA CB OHD-E-SE-S MOV NE P0003 T01670144=
201709061543 SPECI KATL 061543Z 30013KT 6SM -RA FEW015 BKN070 OVC120 17/14 A2998 RMK AO2 RAB38 P0001 T01720144=
201709061452 METAR KATL 061452Z 32007KT 10SM FEW010 BKN080 BKN120 OVC150 18/16 A2996 RMK AO2 LTG DSNT W SLP139 SHRA DSNT SW-NW T01780156 51017=
201709061352 METAR KATL 061352Z 32011KT 10SM FEW010 BKN050 BKN120 OVC200 18/16 A2995 RMK AO2 SLP136 SHRA DSNT SW-NW T01830156=
201709061252 METAR KATL 061252Z 32012KT 10SM FEW007 FEW039 SCT060 BKN140 BKN200 18/16 A2992 RMK AO2 SLP125 T01780156=
201709061152 METAR KATL 061152Z 30009KT 9SM FEW007 FEW045 SCT100 BKN150 OVC200 18/16 A2991 RMK AO2 SLP121 70016 T01780156 10200 20178 53007=
201709061052 METAR KATL 061052Z 32011KT 10SM FEW006 SCT015 SCT070 BKN150 BKN200 18/17 A2989 RMK AO2 SLP112 T01830172=
201709061047 SPECI KATL 061047Z 31012KT 10SM FEW006 SCT015 SCT070 BKN150 BKN200 18/17 A2989 RMK AO2=
201709061022 SPECI KATL 061022Z 32010KT 9SM SCT006 SCT010 BKN017 BKN200 19/18 A2989 RMK AO2 BKN017 V SCT T01890178=
201709060952 METAR KATL 060952Z 32010KT 8SM BKN006 BKN010 BKN014 BKN200 20/19 A2989 RMK AO2 SLP112 T02000189=
201709060852 METAR KATL 060852Z 30007KT 7SM OVC005 20/19 A2988 RMK AO2 SLP110 CIG 004V007 T02000189 56020=
201709060850 SPECI KATL 060850Z 30008KT 7SM OVC005 20/19 A2988 RMK AO2 CIG 004V007=
201709060752 METAR KATL 060752Z 31010KT 7SM BKN004 OVC038 19/19 A2989 RMK AO2 SLP111 T01940189=
201709060750 SPECI KATL 060750Z 30010KT 7SM BKN004 OVC038 19/19 A2989 RMK AO2=
201709060715 SPECI KATL 060715Z 29007KT 10SM FEW007 FEW050 BKN065 OVC200 19/19 A2990 RMK AO2 T01940189=
201709060652 METAR KATL 060652Z 26004KT 10SM FEW040 BKN060 OVC180 19/19 A2992 RMK AO2 SLP121 T01940189=
201709060611 SPECI KATL 060611Z 28006KT 10SM FEW004 FEW040 FEW060 OVC180 20/19 A2993 RMK AO2 T02000189=
201709060552 METAR KATL 060552Z 24004KT 10SM FEW004 BKN039 BKN055 OVC200 20/19 A2995 RMK AO2 SLP132 60010 T02000189 10217 20194 56006=
201709060452 METAR KATL 060452Z 29005KT 10SM FEW004 BKN060 OVC200 20/19 A2996 RMK AO2 SLP135 T02000189 403000194=
201709060352 METAR KATL 060352Z 21006KT 8SM SCT004 BKN120 BKN150 OVC200 20/19 A2994 RMK AO2 RAE02 SLP131 P0000 T02000194=
201709060302 SPECI KATL 060302Z 17005KT 9SM FEW007 SCT012 BKN110 OVC150 21/19 A2995 RMK AO2 RAE02 SCT012 V BKN P0000 T02060194=
201709060252 METAR KATL 060252Z 20005KT 9SM -RA FEW007 BKN012 BKN110 OVC150 21/20 A2997 RMK AO2 SLP138 P0001 60010 T02060200 51017=
201709060152 METAR KATL 060152Z 21005KT 9SM -RA FEW050 SCT080 BKN110 OVC150 21/20 A2996 RMK AO2 TSE25 SLP136 LTG DSNT NE-SE-S P0002 T02110200=
201709060125 SPECI KATL 060125Z 29004KT 9SM -RA FEW050 SCT080 BKN110 OVC150 21/19 A2996 RMK AO2 TSE25 LTG DSNT NE-SE-S TS MOV E P0002 T02060189=
201709060052 METAR KATL 060052Z 25003KT 7SM -TSRA FEW025CB SCT050 BKN080 OVC150 21/19 A2995 RMK AO2 WSHFT 0005 SLP133 OCNL LTGICCA NE-SE-SW & DSNT NW TS NE-SE-SW & DSNT NW MOV E P0007 T02060194=
201709060025 SPECI KATL 060025Z 31005KT 5SM -TSRA BR SCT030CB BKN050 BKN100 OVC150 21/19 A2994 RMK AO2 WSHFT 0005 OCNL LTGIC N-E-S-SW TS N-E-S-SW MOV E P0005 T02060194=
201709052352 METAR KATL 052352Z 24008KT 9SM -TSRA FEW040CB SCT070 BKN100 BKN150 OVC200 22/19 A2991 RMK AO2 SLP122 FRQ LTGICCG SE-SW & DSNT NW-NE TS SE-SW & DSNT NW-NE MOV E RAB2258 TSB02 P0006 60006 T02170189 10300 20217 53005=
201709052342 SPECI KATL 052342Z 24007G18KT 6SM VCTS -RA FEW040CB BKN100 BKN150 OVC200 22/19 A2991 RMK AO2 OCNL LTGICCG VC S-SW TS VC S-SW MOV E RAB2258 TSB02 P0004 T02220194=
201709052302 SPECI KATL 052302Z 21005KT 10SM VCTS -RA FEW040CB SCT110 BKN150 BKN200 26/19 A2990 RMK AO2 RAB2258 OCNL LTGICCG VC SW-NW TS VC SW-NW MOV E P0000 T02560189=
201709052252 METAR KATL 052252Z 24003KT 10SM FEW040 SCT120 BKN150 BKN200 26/19 A2990 RMK AO2 SLP114 LTG DSNT SW-NW CB DSNT SW-NW VIRGA OHD-W T02560189=
201709052152 METAR KATL 052152Z 20008KT 10SM FEW040 SCT110 BKN200 BKN250 26/19 A2989 RMK AO2 SLP113 LTG DSNT SE & SW-W T02610194=
201709052143 SPECI KATL 052143Z 20009KT 10SM FEW040 SCT110 BKN200 BKN250 27/19 A2989 RMK AO2 LTG DSNT SE & SW-W TS MOV E T02670189=
201709052052 METAR KATL 052052Z 24013KT 10SM VCTS FEW045CB SCT060 BKN085 BKN250 28/20 A2990 RMK AO2 LTG DSNT SW SLP113 OCNL LTGICCG VC S-SW TS VC S-SW MOV E SHRA VC S-SW T02780200 56013=
201709052048 SPECI KATL 052048Z 22010KT 10SM VCTS FEW045CB SCT060 BKN085 BKN250 28/19 A2990 RMK AO2 LTG DSNT SW OCNL LTGICCG VC SW TS VC SW MOV E SHRA VC SW=
201709051952 METAR KATL 051952Z 21010KT 10SM SCT040TCU SCT070 29/19 A2991 RMK AO2 LTG DSNT SW SLP117 CB DSNT SW TCU N-NE & SW-NW T02890189=
201709051852 METAR KATL 051852Z VRB04KT 10SM FEW040 BKN050 BKN070 29/19 A2994 RMK AO2 SLP126 CB DSNT SW MDT CU SW-NW T02940194=
201709051752 METAR KATL 051752Z VRB04KT 10SM FEW040 28/19 A2997 RMK AO2 SLP137 MDT CU N-NE T02830194 10294 20211 58018=
201709051652 METAR KATL 051652Z VRB05KT 10SM SCT038 29/20 A2999 RMK AO2 SLP143 MDT CU ALQDS T02890200=
201709051552 METAR KATL 051552Z 30008KT 10SM FEW035 FEW250 28/19 A3001 RMK AO2 SLP151 T02780189=
201709051452 METAR KATL 051452Z 26007KT 10SM FEW250 27/18 A3002 RMK AO2 SLP155 T02720183 53002=
201709051352 METAR KATL 051352Z 26007KT 10SM FEW250 26/18 A3001 RMK AO2 SLP154 T02560183=
201709051252 METAR KATL 051252Z 24004KT 10SM FEW250 23/19 A3002 RMK AO2 SLP154 T02330189=
201709051152 METAR KATL 051152Z 21004KT 9SM FEW250 21/19 A3002 RMK AO2 SLP155 T02110189 10228 20211 52003=
201709051052 METAR KATL 051052Z 00000KT 10SM FEW250 22/18 A3001 RMK AO2 SLP153 T02170183=
201709050952 METAR KATL 050952Z 29003KT 10SM FEW032 SCT250 22/18 A3001 RMK AO2 SLP152 T02170183=
201709050852 METAR KATL 050852Z 28003KT 10SM SCT032 BKN040 BKN250 22/19 A3001 RMK AO2 SLP150 T02220189 58005=
201709050752 METAR KATL 050752Z 30004KT 10SM SCT038 22/19 A3001 RMK AO2 SLP153 T02220194 $=
201709050652 METAR KATL 050652Z 31003KT 10SM FEW045 FEW250 22/19 A3002 RMK AO2 SLP153 T02220194 $=
201709050552 METAR KATL 050552Z 00000KT 10SM FEW045 FEW250 23/19 A3002 RMK AO2 SLP156 T02280194 10267 20222 58000 $=
201709050452 METAR KATL 050452Z 30004KT 10SM FEW250 23/19 A3003 RMK AO2 SLP156 T02330194 403060172 $=
201709050352 METAR KATL 050352Z 29003KT 10SM FEW250 24/19 A3002 RMK AO2 SLP155 T02440194 $=
201709050252 METAR KATL 050252Z 00000KT 10SM FEW250 24/19 A3002 RMK AO2 SLP156 T02440194 50001 $=
201709050152 METAR KATL 050152Z 00000KT 10SM SCT250 26/19 A3003 RMK AO2 SLP158 T02560194 $=
201709050052 METAR KATL 050052Z 32005KT 10SM SCT250 26/19 A3002 RMK AO2 SLP156 T02610189 $=
201709042352 METAR KATL 042352Z 28005KT 10SM FEW200 SCT250 27/19 A3002 RMK AO2 SLP157 T02670189 10306 20261 56008 $=
201709042252 METAR KATL 042252Z 28009KT 10SM FEW045 SCT250 28/18 A3002 RMK AO2 SLP159 T02830183 $=
201709042152 METAR KATL 042152Z 23008KT 10SM FEW045 SCT250 29/18 A3003 RMK AO2 SLP161 T02890183 $=
201709042052 METAR KATL 042052Z 27007KT 10SM SCT045 BKN250 30/19 A3004 RMK AO2 SLP164 T03000194 58019 $=
201709041952 METAR KATL 041952Z 23009KT 10SM SCT045 BKN250 29/18 A3006 RMK AO2 SLP170 MDT CU SW T02940183 $=
201709041852 METAR KATL 041852Z 25010KT 10SM BKN045 29/19 A3008 RMK AO2 SLP178 T02940189 $=
201709041752 METAR KATL 041752Z 23007KT 10SM BKN048 BKN065 28/17 A3010 RMK AO2 SLP184 T02830172 10289 20189 58013 $=
201709041652 METAR KATL 041652Z 28007KT 10SM SCT050 SCT070 28/17 A3012 RMK AO2 SLP189 T02830172 $=
201709041552 METAR KATL 041552Z 18005KT 10SM FEW050 FEW250 27/15 A3014 RMK AO2 SLP196 T02670150 $=
201709041452 METAR KATL 041452Z 24003KT 10SM FEW050 FEW250 26/15 A3014 RMK AO2 SLP197 T02610150 51008 $=
201709041352 METAR KATL 041352Z 00000KT 10SM FEW003 SCT050 24/16 A3014 RMK AO2 SLP196 FU FEW003 T02440161 $=
201709041252 METAR KATL 041252Z 00000KT 10SM SCT049 SCT250 21/17 A3013 RMK AO2 SLP193 T02060167 $=
201709041152 METAR KATL 041152Z 32003KT 10SM FEW050 FEW250 19/16 A3011 RMK AO2 SLP190 T01890161 10194 20172 53006 $=
201709041052 METAR KATL 041052Z 00000KT 10SM CLR 17/15 A3010 RMK AO2 SLP186 T01720150 $=
201709040952 METAR KATL 040952Z 00000KT 10SM CLR 18/16 A3009 RMK AO2 SLP182 T01830156 $=
201709040852 METAR KATL 040852Z 31003KT 10SM FEW250 18/15 A3009 RMK AO2 SLP182 T01830150 58006 $=
201709040752 METAR KATL 040752Z 00000KT 10SM FEW250 18/16 A3010 RMK AO2 SLP185 T01780156 $=
201709040652 METAR KATL 040652Z 00000KT 10SM FEW250 19/16 A3011 RMK AO2 SLP186 T01890161 $=
201709040552 METAR KATL 040552Z 00000KT 10SM FEW250 19/16 A3011 RMK AO2 SLP188 T01890161 10250 20189 58001 $=
201709040452 METAR KATL 040452Z 00000KT 10SM FEW250 21/17 A3011 RMK AO2 SLP189 T02060167 402890167 $=
201709040352 METAR KATL 040352Z 32006KT 10SM FEW250 22/16 A3012 RMK AO2 SLP191 T02170156 $=
201709040252 METAR KATL 040252Z 00000KT 10SM FEW250 22/16 A3012 RMK AO2 SLP190 T02220161 53006 $=
201709040152 METAR KATL 040152Z 00000KT 10SM FEW250 23/16 A3011 RMK AO2 SLP188 T02330161 $=
201709040052 METAR KATL 040052Z 30004KT 10SM FEW250 23/16 A3010 RMK AO2 SLP185 T02330161 $=
201709032352 METAR KATL 032352Z 27006KT 10SM FEW055 FEW200 SCT250 25/16 A3010 RMK AO2 SLP185 T02500156 10289 20250 53001 $=
201709032252 METAR KATL 032252Z 26006KT 10SM FEW060 FEW200 FEW250 27/16 A3009 RMK AO2 SLP183 T02720156 $=
201709032152 METAR KATL 032152Z 29007KT 10SM FEW060 FEW250 28/14 A3009 RMK AO2 SLP182 T02830144 $=
201709032052 METAR KATL 032052Z 35004KT 10SM FEW055 FEW300 28/15 A3009 RMK AO2 SLP183 T02830150 56016 $=
201709031952 METAR KATL 031952Z 29009KT 10SM SCT050 SCT250 28/16 A3011 RMK AO2 SLP187 T02830161 $=
201709031852 METAR KATL 031852Z 28007KT 10SM SCT055 SCT300 28/15 A3013 RMK AO2 SLP193 T02780150 $=
201709031752 METAR KATL 031752Z VRB03KT 10SM SCT050 SCT250 SCT300 27/16 A3014 RMK AO2 SLP199 T02720156 10272 20178 58006 $=
201709031652 METAR KATL 031652Z 30010KT 10SM SCT042 SCT250 BKN300 27/16 A3016 RMK AO2 SLP204 T02670156 $=
201709031552 METAR KATL 031552Z 29008G17KT 10SM SCT040 SCT250 26/15 A3017 RMK AO2 SLP207 T02560150 $=
201709031452 METAR KATL 031452Z 30008KT 10SM FEW035 SCT250 SCT300 24/16 A3016 RMK AO2 SLP206 T02440156 53009 $=
201709031352 METAR KATL 031352Z 30005KT 10SM FEW250 22/16 A3015 RMK AO2 SLP201 T02220156 $=
201709031252 METAR KATL 031252Z 31007KT 10SM FEW200 FEW250 20/16 A3015 RMK AO2 SLP202 T02000156 $=
201709031152 METAR KATL 031152Z 32004KT 10SM FEW200 18/15 A3014 RMK AO2 SLP198 T01780150 10194 20167 53012 $=
201709031052 METAR KATL 031052Z 31004KT 10SM FEW250 17/15 A3012 RMK AO2 SLP192 T01720150 $=
201709030952 METAR KATL 030952Z 30004KT 10SM CLR 18/16 A3010 RMK AO2 SLP186 T01780156 $=
201709030852 METAR KATL 030852Z 31005KT 10SM CLR 17/16 A3010 RMK AO2 SLP184 T01720156 53000 $=
201709030752 METAR KATL 030752Z 29003KT 10SM CLR 18/16 A3009 RMK AO2 SLP183 T01780156 $=
201709030652 METAR KATL 030652Z 25003KT 10SM CLR 18/16 A3010 RMK AO2 SLP184 T01830161 $=
201709030552 METAR KATL 030552Z 31004KT 10SM CLR 19/16 A3010 RMK AO2 SLP183 T01940161 10239 20189 58003 $=
201709030452 METAR KATL 030452Z 28003KT 10SM FEW250 20/16 A3010 RMK AO2 SLP184 T02000161 402780161 $=
201709030352 METAR KATL 030352Z 00000KT 10SM FEW250 20/17 A3011 RMK AO2 SLP187 T02000167 $=
201709030252 METAR KATL 030252Z 00000KT 10SM FEW200 FEW250 21/16 A3011 RMK AO2 SLP187 T02110161 53014 $=
201709030152 METAR KATL 030152Z 25004KT 10SM FEW150 FEW200 SCT250 22/16 A3009 RMK AO2 SLP183 T02220161 $=
201709030052 METAR KATL 030052Z 29005KT 10SM FEW150 SCT200 SCT250 22/16 A3007 RMK AO2 SLP177 T02170161 $=
201709022352 METAR KATL 022352Z 27006KT 10SM FEW055 FEW150 SCT200 BKN250 24/15 A3006 RMK AO2 SLP174 T02390150 10278 20239 53005 $=
201709022252 METAR KATL 022252Z 26008KT 10SM FEW055 SCT200 SCT250 BKN300 26/14 A3006 RMK AO2 SLP171 T02560144 $=
201709022152 METAR KATL 022152Z 25010KT 10SM FEW060 SCT200 BKN250 27/14 A3004 RMK AO2 SLP166 T02720144 $=
201709022052 METAR KATL 022052Z 28011KT 10SM SCT055 SCT150 SCT250 28/14 A3005 RMK AO2 SLP167 T02780144 56010 $=
201709021952 METAR KATL 021952Z 28010KT 10SM SCT060 SCT250 27/15 A3005 RMK AO2 SLP167 T02720150 $=
201709021852 METAR KATL 021852Z 26010KT 10SM SCT050 SCT180 BKN250 27/16 A3006 RMK AO2 SLP172 T02720156 $=
201709021752 METAR KATL 021752Z 31012KT 10SM SCT040 SCT100 SCT250 27/15 A3008 RMK AO2 SLP178 T02670150 10267 20167 58005 $=
201709021652 METAR KATL 021652Z 30008KT 10SM FEW040 SCT100 SCT250 26/16 A3009 RMK AO2 SLP182 T02610156 $=
201709021552 METAR KATL 021552Z 30008KT 10SM FEW032 FEW090 FEW250 24/16 A3010 RMK AO2 SLP185 T02440161 $=
201709021452 METAR KATL 021452Z 28006KT 10SM FEW090 FEW200 SCT250 23/16 A3010 RMK AO2 SLP183 T02280156 51014 $=
201709021352 METAR KATL 021352Z 31007KT 10SM FEW080 SCT250 21/16 A3009 RMK AO2 SLP181 T02060156 $=
201709021252 METAR KATL 021252Z 29005KT 10SM FEW080 FEW180 SCT250 19/15 A3007 RMK AO2 SLP176 T01890150 $=
201709021152 METAR KATL 021152Z 31006KT 10SM FEW080 SCT250 17/14 A3005 RMK AO2 SLP170 70006 T01670144 10189 20161 51010=
201709021052 METAR KATL 021052Z 31005KT 10SM FEW075 SCT250 17/15 A3004 RMK AO2 SLP166 T01670150=
201709020952 METAR KATL 020952Z 31008KT 10SM FEW080 SCT250 17/15 A3004 RMK AO2 SLP164 T01720150=
201709020852 METAR KATL 020852Z 27004KT 10SM FEW080 SCT250 17/15 A3002 RMK AO2 SLP159 T01670150 55003=
201709020752 METAR KATL 020752Z 29007KT 10SM FEW250 18/15 A3002 RMK AO2 SLP157 T01780150=
201709020652 METAR KATL 020652Z 27004KT 10SM FEW250 18/16 A3003 RMK AO2 SLP161 T01780156=
201709020552 METAR KATL 020552Z 29007KT 10SM FEW250 19/17 A3003 RMK AO2 SLP161 T01890167 10250 20189 50004=
201709020452 METAR KATL 020452Z 31008KT 10SM FEW030 SCT250 19/17 A3004 RMK AO2 SLP163 T01940172 402780194=
201709020352 METAR KATL 020352Z 32005KT 10SM FEW040 SCT250 20/18 A3003 RMK AO2 SLP161 T02000178=
201709020252 METAR KATL 020252Z 32006KT 10SM FEW040 SCT250 21/18 A3002 RMK AO2 SLP158 T02110178 53024=
201709020152 METAR KATL 020152Z 26007KT 10SM FEW040 FEW250 23/18 A2999 RMK AO2 SLP147 T02280178=
201709020052 METAR KATL 020052Z 24010KT 10SM FEW040 FEW250 24/18 A2997 RMK AO2 SLP138 CB DSNT N & NE T02390178=
201709012352 METAR KATL 012352Z 24008KT 10SM FEW040 SCT250 25/17 A2995 RMK AO2 SLP132 CB DSNT NW T02500172 10278 20250 51012=
201709012252 METAR KATL 012252Z 25008KT 10SM SCT040 BKN055 BKN250 26/17 A2994 RMK AO2 SLP129 MDT CU OHD-SW & NE T02610172=
201709012152 METAR KATL 012152Z 25015G21KT 10SM SCT040 BKN055 BKN250 26/17 A2992 RMK AO2 SLP123 T02610167=
201709012052 METAR KATL 012052Z 24016G22KT 10SM SCT040 BKN050 BKN060 26/17 A2991 RMK AO2 PK WND 24027/2003 SLP119 T02610172 58001=
201709011952 METAR KATL 011952Z 26017G25KT 10SM BKN040 BKN060 BKN250 28/18 A2992 RMK AO2 SLP121 T02780178=
201709011852 METAR KATL 011852Z 23018G24KT 10SM BKN040 BKN050 BKN250 27/18 A2991 RMK AO2 PK WND 23026/1758 SLP119 T02720183=
201709011752 METAR KATL 011752Z 23017G27KT 10SM SCT040 SCT250 28/18 A2992 RMK AO2 PK WND 23030/1702 SLP120 60006 T02780183 10278 20228 58006=
201709011652 METAR KATL 011652Z 23015G25KT 10SM SCT030 SCT040 27/20 A2992 RMK AO2 PK WND 25028/1553 SLP123 T02670200=
201709011552 METAR KATL 011552Z 23018G26KT 10SM BKN020 BKN030 BKN070 25/21 A2994 RMK AO2 PK WND 22030/1532 SLP128 CB DSNT NE-SE SHRA DSNT NE-SE T02500206=
201709011503 SPECI KATL 011503Z 23015G21KT 10SM FEW015 SCT040 SCT070 BKN250 24/21 A2993 RMK AO2 CB DSNT NE-SE SHRA DSNT NE-SE T02390211=
201709011452 METAR KATL 011452Z 23011G19KT 10SM BKN015 BKN040 BKN070 24/22 A2993 RMK AO2 SLP127 CB DSNT NE-SE SHRA DSNT NE-SE P0006 60006 T02390217 53010=
201709011426 SPECI KATL 011426Z 25011G20KT 9SM -RA SCT010CB BKN020 OVC040 24/21 A2994 RMK AO2 VIS LWR NE-SE SHRA CB NE-SE MOV NE P0006 T02390211=
201709011423 SPECI KATL 011423Z 24012G20KT 4SM R09R/5500VP6000FT -RA BR FEW010 BKN019CB OVC065 23/22 A2993 RMK AO2 RAB02 CB OHD MOV NE P0006 T02280217=
201709011405 SPECI KATL 011405Z 21019G24KT 5SM -RA SCT019CB BKN024 OVC070 24/21 A2992 RMK AO2 RAB02 CB OHD-SW-NW MOV NE P0000 T02440211=
201709011352 METAR KATL 011352Z 20014G22KT 10SM BKN018CB BKN023 OVC050 24/21 A2992 RMK AO2 SLP121 VIS LWR SW-NW SHRA CB SW-NW MOV NE T02440211=
201709011252 METAR KATL 011252Z 19013G21KT 10SM BKN016 BKN035 OVC050 24/21 A2991 RMK AO2 SLP118 CIG 014V018 CB DSNT SW-NW BINOVC T02390211=
