##########################################################
# Query made at 04/19/2024 23:57:02 UTC
# Time interval: from 12/01/2017 12:00  to 12/31/2017 12:59  UTC
##########################################################

##########################################################
# KATL, Atlanta, Hartsfield - Jackson Atlanta International Airport (United States)
# WMO index: 72219. WIGOS ID: 0-20000-0-72219
# Latitude 33-38-59N. Longitude 084-25-00W. Altitude 312 m.
##########################################################

201712311252 METAR KATL 311252Z 32007KT 10SM SCT036 OVC047 01/M04 A3017 RMK AO2 SLP225 T00061039=
201712311152 METAR KATL 311152Z 33007KT 10SM FEW027 SCT036 OVC046 00/M04 A3016 RMK AO2 SLP220 T00001039 10011 20000 53007=
201712311052 METAR KATL 311052Z 35009KT 10SM SCT027 BKN034 01/M04 A3015 RMK AO2 SLP215 T00061039=
201712310952 METAR KATL 310952Z 33009KT 10SM SCT032 01/M04 A3014 RMK AO2 SLP211 T00061039=
201712310852 METAR KATL 310852Z 33012G20KT 10SM BKN036 01/M03 A3014 RMK AO2 SLP210 T00061033 53012=
201712310752 METAR KATL 310752Z 31011KT 10SM FEW030 01/M03 A3012 RMK AO2 SLP205 T00061033=
201712310652 METAR KATL 310652Z 31009KT 10SM CLR 01/M03 A3011 RMK AO2 SLP200 T00111033=
201712310552 METAR KATL 310552Z 32008KT 10SM CLR 01/M03 A3010 RMK AO2 SLP198 T00111033 10067 20011 51003=
201712310452 METAR KATL 310452Z 32006KT 10SM CLR 02/M03 A3010 RMK AO2 SLP198 T00171033 401060006=
201712310352 METAR KATL 310352Z 32010KT 10SM FEW250 03/M03 A3011 RMK AO2 SLP203 T00281033=
201712310252 METAR KATL 310252Z 35009KT 10SM FEW250 04/M03 A3009 RMK AO2 SLP196 T00391028 50001=
201712310152 METAR KATL 310152Z 32006KT 10SM FEW250 04/M02 A3010 RMK AO2 SLP201 T00391022=
201712310052 METAR KATL 310052Z 32010KT 10SM FEW250 05/M02 A3011 RMK AO2 SLP203 T00501022=
201712302352 METAR KATL 302352Z 34009KT 10SM FEW200 BKN250 07/M01 A3009 RMK AO2 SLP195 T00671011 10106 20067 53007=
201712302252 METAR KATL 302252Z 30009KT 10SM FEW200 BKN250 08/M01 A3007 RMK AO2 SLP189 T00781006=
201712302152 METAR KATL 302152Z 31010KT 10SM BKN250 09/M01 A3007 RMK AO2 SLP189 T00891006=
201712302052 METAR KATL 302052Z 31012KT 10SM SCT250 11/00 A3007 RMK AO2 SLP186 T01060000 55010=
201712301952 METAR KATL 301952Z 29013G22KT 10SM FEW040 FEW250 10/00 A3007 RMK AO2 SLP186 T01000000=
201712301852 METAR KATL 301852Z 30012KT 10SM FEW035 FEW250 10/00 A3008 RMK AO2 SLP190 T01000000=
201712301752 METAR KATL 301752Z 29010G17KT 10SM FEW035 FEW250 09/00 A3010 RMK AO2 SLP197 T00940000 10094 20006 58020=
201712301652 METAR KATL 301652Z 30014KT 10SM FEW035 FEW250 08/M01 A3014 RMK AO2 SLP210 T00831011=
201712301552 METAR KATL 301552Z 32014KT 10SM FEW032 FEW250 07/M02 A3015 RMK AO2 SLP216 T00671017=
201712301452 METAR KATL 301452Z 30010KT 10SM FEW025 SCT250 05/M01 A3016 RMK AO2 SLP219 T00501011 53008=
201712301352 METAR KATL 301352Z 28006KT 10SM FEW002 FEW150 FEW250 03/M01 A3014 RMK AO2 SLP212 FU FEW002 N-NE T00281011=
201712301349 SPECI KATL 301349Z 28007KT 10SM FEW002 FEW150 FEW250 03/M01 A3014 RMK AO2 FU FEW002 NW-NE=
201712301252 METAR KATL 301252Z 31006KT 10SM FEW150 FEW250 01/M01 A3014 RMK AO2 SLP212 T00061011=
201712301152 METAR KATL 301152Z 28004KT 10SM FEW030 FEW150 SCT250 02/00 A3014 RMK AO2 SLP211 T00170000 10039 20017 56006=
201712301052 METAR KATL 301052Z 29004KT 10SM FEW250 02/01 A3014 RMK AO2 SLP211 T00220006=
201712300952 METAR KATL 300952Z 27004KT 10SM SCT250 02/01 A3014 RMK AO2 SLP210 T00220006=
201712300852 METAR KATL 300852Z 25003KT 10SM BKN250 02/00 A3016 RMK AO2 SLP216 T00220000 58007=
201712300752 METAR KATL 300752Z 29003KT 10SM BKN250 03/M01 A3017 RMK AO2 SLP222 T00281006=
201712300652 METAR KATL 300652Z 23004KT 10SM BKN250 04/00 A3017 RMK AO2 SLP221 T00390000=
201712300552 METAR KATL 300552Z 00000KT 10SM BKN250 04/M01 A3018 RMK AO2 SLP223 T00391006 10078 20039 58008=
201712300452 METAR KATL 300452Z 22003KT 10SM BKN250 04/M01 A3019 RMK AO2 SLP230 T00441006 401170022=
201712300352 METAR KATL 300352Z 18007KT 10SM SCT250 05/M01 A3020 RMK AO2 SLP232 T00501006=
201712300252 METAR KATL 300252Z 17003KT 10SM SCT250 05/M01 A3020 RMK AO2 SLP233 T00501006 58006=
201712300152 METAR KATL 300152Z 00000KT 10SM FEW250 06/M01 A3022 RMK AO2 SLP238 T00561006=
201712300052 METAR KATL 300052Z 00000KT 10SM FEW250 07/M01 A3021 RMK AO2 SLP237 T00671006=
201712292352 METAR KATL 292352Z 00000KT 10SM FEW250 08/M01 A3022 RMK AO2 SLP238 T00781011 10117 20078 53002=
201712292252 METAR KATL 292252Z 27003KT 10SM FEW250 09/M03 A3022 RMK AO2 SLP237 T00891033=
201712292152 METAR KATL 292152Z 22003KT 10SM FEW250 10/M03 A3021 RMK AO2 SLP236 T01001033=
201712292052 METAR KATL 292052Z 25004KT 10SM FEW250 11/M02 A3021 RMK AO2 SLP235 T01061022 56026=
201712291952 METAR KATL 291952Z 00000KT 10SM SCT250 11/M03 A3023 RMK AO2 SLP240 T01061028=
201712291852 METAR KATL 291852Z 34004KT 10SM SCT250 10/M02 A3025 RMK AO2 SLP248 T01001022=
201712291752 METAR KATL 291752Z 00000KT 10SM FEW250 09/M02 A3029 RMK AO2 SLP263 T00891022 10089 20022 58020=
201712291652 METAR KATL 291652Z 35007KT 10SM FEW250 08/M02 A3033 RMK AO2 SLP275 T00831022=
201712291552 METAR KATL 291552Z VRB03KT 10SM FEW250 07/M03 A3035 RMK AO2 SLP281 T00671028=
201712291452 METAR KATL 291452Z 00000KT 10SM FEW250 04/M04 A3035 RMK AO2 SLP284 T00441044 53006=
201712291352 METAR KATL 291352Z 13003KT 10SM FEW034 SCT250 03/M05 A3033 RMK AO2 SLP279 T00281050=
201712291252 METAR KATL 291252Z 13003KT 10SM SCT033 SCT250 02/M05 A3034 RMK AO2 SLP280 T00221050=
201712291152 METAR KATL 291152Z 10003KT 10SM OVC034 03/M05 A3033 RMK AO2 SLP278 T00281050 10039 20028 53003=
201712291052 METAR KATL 291052Z 08006KT 10SM OVC033 03/M05 A3032 RMK AO2 SLP274 T00281050=
201712290952 METAR KATL 290952Z 10004KT 10SM OVC032 03/M05 A3033 RMK AO2 SLP276 T00331050=
201712290852 METAR KATL 290852Z 09005KT 10SM OVC034 03/M04 A3032 RMK AO2 SLP275 T00331044 55010=
201712290752 METAR KATL 290752Z 10006KT 10SM OVC039 03/M05 A3032 RMK AO2 SLP273 T00331050=
201712290652 METAR KATL 290652Z 08007KT 10SM OVC038 04/M05 A3034 RMK AO2 SLP279 T00391050=
201712290552 METAR KATL 290552Z 08007KT 10SM SCT030 OVC045 04/M05 A3036 RMK AO2 SLP286 T00391050 10056 20039 58001=
201712290452 METAR KATL 290452Z 08008KT 10SM BKN032 OVC045 04/M05 A3037 RMK AO2 SLP289 T00391050 400720000=
201712290352 METAR KATL 290352Z 09008KT 10SM FEW028 SCT035 OVC045 04/M04 A3036 RMK AO2 SLP287 T00441044=
201712290252 METAR KATL 290252Z 09007KT 10SM FEW034 OVC045 04/M05 A3036 RMK AO2 SLP288 T00441050 50000=
201712290152 METAR KATL 290152Z 10009KT 10SM OVC045 05/M06 A3036 RMK AO2 SLP288 T00501056=
201712290052 METAR KATL 290052Z 09009KT 10SM OVC040 06/M05 A3037 RMK AO2 SLP293 T00561050=
201712282352 METAR KATL 282352Z 09009KT 040V100 10SM OVC034 06/M05 A3036 RMK AO2 SLP288 T00561050 10072 20056 53002=
201712282252 METAR KATL 282252Z 09008KT 10SM OVC036 06/M04 A3036 RMK AO2 SLP288 T00561044=
201712282152 METAR KATL 282152Z 11008KT 10SM OVC038 06/M04 A3035 RMK AO2 SLP286 BINOVC DSNT NE T00611044=
201712282052 METAR KATL 282052Z 12007KT 10SM BKN039 BKN250 07/M04 A3035 RMK AO2 SLP286 T00671044 55008=
201712281952 METAR KATL 281952Z 10005KT 10SM BKN040 BKN250 07/M04 A3035 RMK AO2 SLP284 T00671039=
201712281852 METAR KATL 281852Z 08006KT 10SM SCT045 SCT250 06/M03 A3037 RMK AO2 SLP291 T00611033=
201712281752 METAR KATL 281752Z 11008KT 10SM FEW040 FEW180 BKN250 06/M03 A3038 RMK AO2 SLP295 T00611028 10067 20011 58023=
201712281652 METAR KATL 281652Z 09010KT 10SM BKN250 06/M03 A3041 RMK AO2 SLP305 T00561028=
201712281552 METAR KATL 281552Z 10007G18KT 10SM BKN250 04/M03 A3044 RMK AO2 SLP315 T00391028=
201712281452 METAR KATL 281452Z 07011KT 10SM FEW045 SCT180 BKN250 03/M03 A3045 RMK AO2 SLP318 T00331028 53015=
201712281352 METAR KATL 281352Z 07013KT 10SM FEW044 SCT060 SCT200 BKN250 02/M03 A3043 RMK AO2 SLP314 T00171028=
201712281252 METAR KATL 281252Z 08011KT 10SM SCT060 BKN200 BKN250 02/M03 A3042 RMK AO2 SLP310 T00171028=
201712281152 METAR KATL 281152Z 07012KT 10SM BKN060 BKN200 OVC250 02/M02 A3041 RMK AO2 SLP303 70002 T00221022 10022 20000 53011=
201712281052 METAR KATL 281052Z 03004KT 10SM SCT055 BKN200 OVC250 02/M02 A3039 RMK AO2 SLP299 T00171022=
201712280952 METAR KATL 280952Z 34003KT 10SM SCT060 SCT150 OVC200 00/M03 A3037 RMK AO2 SLP290 T00001028=
201712280852 METAR KATL 280852Z 01004KT 10SM BKN065 BKN150 OVC200 01/M03 A3037 RMK AO2 SLP292 T00061033 50001=
201712280752 METAR KATL 280752Z 34006KT 10SM BKN060 BKN150 OVC200 01/M03 A3038 RMK AO2 SLP295 T00061033=
201712280652 METAR KATL 280652Z 33006KT 10SM BKN060 OVC150 02/M03 A3037 RMK AO2 SLP291 T00171033=
201712280552 METAR KATL 280552Z 36005KT 10SM BKN060 BKN150 OVC200 02/M03 A3037 RMK AO2 SLP291 T00171033 10044 20017 58005=
201712280452 METAR KATL 280452Z 35008KT 10SM BKN060 BKN150 OVC200 02/M03 A3038 RMK AO2 SLP296 T00221033 400670022=
201712280352 METAR KATL 280352Z 34007KT 10SM BKN200 OVC250 02/M03 A3038 RMK AO2 SLP296 T00221033=
201712280252 METAR KATL 280252Z 33007KT 10SM BKN200 BKN250 03/M03 A3039 RMK AO2 SLP297 T00281033 51006=
201712280152 METAR KATL 280152Z 33009KT 10SM CLR 03/M03 A3038 RMK AO2 SLP295 T00281033=
201712280052 METAR KATL 280052Z 31006KT 10SM SCT200 BKN250 03/M03 A3037 RMK AO2 SLP293 T00331033=
201712272352 METAR KATL 272352Z 33009KT 10SM FEW035 BKN200 BKN250 04/M03 A3037 RMK AO2 SLP290 T00441033 10067 20044 53008=
201712272252 METAR KATL 272252Z 33009KT 10SM BKN035 BKN070 BKN250 06/M02 A3036 RMK AO2 SLP286 T00561022=
201712272152 METAR KATL 272152Z 32008KT 10SM BKN035 BKN070 BKN250 06/M01 A3035 RMK AO2 SLP282 T00611011=
201712272052 METAR KATL 272052Z 31010KT 10SM BKN037 BKN070 06/M01 A3034 RMK AO2 SLP280 T00611006 55013=
201712271952 METAR KATL 271952Z 32007KT 10SM BKN035 BKN070 06/00 A3034 RMK AO2 SLP278 T00610000=
201712271852 METAR KATL 271852Z 33007KT 10SM FEW020 BKN035 OVC070 06/01 A3035 RMK AO2 SLP283 T00610011=
201712271752 METAR KATL 271752Z 32005KT 10SM FEW010 BKN030 OVC070 05/03 A3038 RMK AO2 SLP293 60002 T00500028 10056 20028 58010=
201712271652 METAR KATL 271652Z 35004KT 10SM SCT009 BKN030 OVC070 05/03 A3040 RMK AO2 SLP300 T00500033=
201712271552 METAR KATL 271552Z 33005KT 10SM FEW008 SCT030 OVC070 04/03 A3041 RMK AO2 RAB11E28 SLP305 P0000 T00390033=
201712271452 METAR KATL 271452Z 04004KT 10SM FEW010 SCT030 OVC060 04/01 A3040 RMK AO2 SLP302 60002 T00390006 53001=
201712271352 METAR KATL 271352Z 06006KT 10SM FEW005 FEW038 OVC070 03/02 A3039 RMK AO2 RAE43 SLP299 P0000 T00330017=
201712271252 METAR KATL 271252Z 07005KT 7SM -RA FEW006 SCT038 OVC070 03/02 A3040 RMK AO2 SLP299 P0002 T00330017=
201712271152 METAR KATL 271152Z 32005KT 8SM -RA OVC038 03/02 A3040 RMK AO2 SLP300 P0005 60010 70010 T00330017 10050 20033 51030=
201712271052 METAR KATL 271052Z 02004KT 6SM RA BKN037 OVC075 03/01 A3038 RMK AO2 SLP293 P0005 T00330006=
201712270952 METAR KATL 270952Z 00000KT 8SM -RA SCT038 OVC060 04/00 A3035 RMK AO2 RAB34 SLP284 P0000 T00390000=
201712270852 METAR KATL 270852Z 08006KT 10SM OVC070 04/M01 A3031 RMK AO2 RAB08E28 SLP268 VIRGA SW-NW P0000 60000 T00391006 58012=
201712270752 METAR KATL 270752Z 07006KT 10SM OVC075 04/M02 A3034 RMK AO2 RAE38 SLP277 P0000 T00441017=
201712270652 METAR KATL 270652Z 07005KT 10SM -RA SCT060 OVC090 04/M03 A3033 RMK AO2 RAB50 SLP277 PCPN VRY LGT P0000 T00441033=
201712270552 METAR KATL 270552Z 07005KT 10SM BKN080 BKN150 BKN250 04/M03 A3034 RMK AO2 SLP281 T00441033 10072 20033 55001=
201712270452 METAR KATL 270452Z 09005KT 10SM FEW070 BKN150 BKN250 04/M04 A3034 RMK AO2 SLP279 T00391039 401001011=
201712270352 METAR KATL 270352Z 09006KT 10SM BKN070 BKN250 04/M05 A3035 RMK AO2 SLP284 T00391050=
201712270252 METAR KATL 270252Z 11004KT 10SM FEW080 SCT250 05/M06 A3035 RMK AO2 SLP283 T00501061 51004=
201712270152 METAR KATL 270152Z 12004KT 10SM FEW100 BKN250 06/M07 A3034 RMK AO2 SLP283 T00611067=
201712270052 METAR KATL 270052Z 12005KT 10SM BKN250 07/M06 A3035 RMK AO2 SLP285 T00671061=
201712262352 METAR KATL 262352Z 10005KT 10SM BKN250 07/M05 A3033 RMK AO2 SLP279 T00721050 10100 20072 55000=
201712262252 METAR KATL 262252Z 10006KT 10SM BKN250 07/M04 A3033 RMK AO2 SLP276 T00721044=
201712262152 METAR KATL 262152Z 11004KT 10SM FEW070 BKN250 09/M06 A3033 RMK AO2 SLP276 T00941056=
201712262052 METAR KATL 262052Z 14003KT 10SM BKN070 BKN250 09/M06 A3034 RMK AO2 SLP279 T00941061 55016=
201712261952 METAR KATL 261952Z 15004KT 10SM BKN080 BKN250 09/M06 A3032 RMK AO2 SLP272 T00941061=
201712261852 METAR KATL 261852Z 14006KT 10SM FEW150 BKN250 09/M07 A3034 RMK AO2 SLP281 T00891072=
201712261752 METAR KATL 261752Z 13009KT 10SM BKN250 08/M08 A3038 RMK AO2 SLP295 T00831078 10083 21011 58014=
201712261652 METAR KATL 261652Z 13006KT 10SM FEW100 BKN250 08/M08 A3043 RMK AO2 SLP311 T00781078=
201712261552 METAR KATL 261552Z 11007KT 10SM FEW100 BKN250 06/M07 A3045 RMK AO2 SLP318 T00611072=
201712261452 METAR KATL 261452Z 10010KT 10SM FEW100 BKN250 04/M07 A3043 RMK AO2 SLP312 T00441067 53005=
201712261352 METAR KATL 261352Z 10011G17KT 10SM FEW100 SCT250 02/M07 A3042 RMK AO2 SLP310 T00171067=
201712261252 METAR KATL 261252Z 09007KT 10SM FEW150 SCT250 M01/M07 A3042 RMK AO2 SLP310 T10111067=
201712261152 METAR KATL 261152Z 08007KT 10SM SCT150 M01/M07 A3041 RMK AO2 SLP309 T10061072 10011 21011 53013=
201712261052 METAR KATL 261052Z 09006KT 10SM OVC150 M01/M07 A3039 RMK AO2 SLP302 BINOVC T10061072=
201712260952 METAR KATL 260952Z 09005KT 10SM OVC150 00/M07 A3038 RMK AO2 SLP296 BINOVC T00001072 $=
201712260852 METAR KATL 260852Z 36005KT 10SM OVC180 01/M09 A3037 RMK AO2 SLP295 T00061089 51008 $=
201712260752 METAR KATL 260752Z 01007KT 10SM FEW150 OVC180 01/M09 A3036 RMK AO2 SLP291 T00061089 $=
201712260652 METAR KATL 260652Z 33009KT 10SM OVC180 00/M08 A3036 RMK AO2 SLP291 BINOVC T00001083 $=
201712260552 METAR KATL 260552Z 01009KT 10SM BKN180 OVC250 01/M09 A3035 RMK AO2 SLP287 T00061094 10011 20000 58008 $=
201712260452 METAR KATL 260452Z 35009KT 10SM BKN180 OVC250 00/M09 A3036 RMK AO2 SLP291 T00001089 400561011 $=
201712260352 METAR KATL 260352Z 34010KT 10SM BKN180 BKN250 00/M09 A3038 RMK AO2 SLP299 T00001094 $=
201712260252 METAR KATL 260252Z 34009KT 10SM FEW150 SCT200 BKN250 00/M09 A3037 RMK AO2 SLP296 T00001089 50000 $=
201712260152 METAR KATL 260152Z 35009KT 10SM FEW150 SCT200 BKN250 00/M09 A3038 RMK AO2 SLP297 T00001094 $=
201712260052 METAR KATL 260052Z 35010KT 10SM SCT140 BKN200 BKN250 01/M10 A3037 RMK AO2 SLP296 VIRGA N-NE T00061100 $=
201712252352 METAR KATL 252352Z 34012KT 10SM BKN140 BKN200 BKN250 01/M10 A3037 RMK AO2 SLP296 T00111100 10039 20011 50004 $=
201712252252 METAR KATL 252252Z 33009KT 10SM SCT150 BKN200 BKN250 02/M09 A3039 RMK AO2 SLP299 T00171089 $=
201712252152 METAR KATL 252152Z 32009KT 10SM BKN140 BKN200 BKN250 02/M09 A3037 RMK AO2 SLP295 VIRGA OHD-ALQDS T00171089 $=
201712252052 METAR KATL 252052Z 34013KT 10SM BKN150 BKN200 BKN250 03/M09 A3036 RMK AO2 SLP289 VIRGA SW-NW-N T00281089 55001 $=
201712251952 METAR KATL 251952Z 32012KT 10SM FEW140 BKN200 BKN250 03/M08 A3036 RMK AO2 SLP287 T00331078 $=
201712251852 METAR KATL 251852Z 34014KT 10SM SCT140 BKN200 BKN250 04/M09 A3035 RMK AO2 SLP286 T00391094 $=
201712251752 METAR KATL 251752Z 35014G22KT 10SM SCT140 BKN200 BKN250 03/M10 A3036 RMK AO2 SLP289 T00281100 10033 21011 50017 $=
201712251652 METAR KATL 251652Z 31016G20KT 10SM SCT140 BKN200 BKN250 02/M09 A3037 RMK AO2 SLP291 T00221089 $=
201712251552 METAR KATL 251552Z 32010KT 10SM FEW120 BKN140 BKN250 01/M09 A3036 RMK AO2 SLP289 VIRGA DSNT N-NE T00111089 $=
201712251452 METAR KATL 251452Z 31009KT 10SM FEW110 BKN140 BKN250 00/M08 A3031 RMK AO2 SLP271 VIRGA DSNT NW-NE T00001083 51020 $=
201712251352 METAR KATL 251352Z 33012G18KT 10SM BKN130 BKN200 BKN250 M01/M08 A3029 RMK AO2 SLP266 T10061078 $=
201712251252 METAR KATL 251252Z 32011KT 10SM FEW180 SCT250 M01/M06 A3028 RMK AO2 SLP261 T10061061 $=
201712251152 METAR KATL 251152Z 33012KT 10SM FEW200 M01/M06 A3025 RMK AO2 SLP250 T10061056 10044 21006 53009 $=
201712251052 METAR KATL 251052Z 32016G21KT 10SM FEW200 00/M06 A3023 RMK AO2 SLP244 T00001056 $=
201712250952 METAR KATL 250952Z 32012KT 10SM FEW025 FEW250 01/M03 A3023 RMK AO2 SLP241 T00111028 $=
201712250852 METAR KATL 250852Z 32014KT 10SM SCT028 SCT200 02/M03 A3022 RMK AO2 SLP239 T00171028 51014 $=
201712250752 METAR KATL 250752Z 31015G21KT 10SM SCT024 SCT030 SCT036 03/M02 A3021 RMK AO2 SLP235 T00281022 $=
201712250652 METAR KATL 250652Z 31012G19KT 10SM SCT024 BKN035 04/01 A3019 RMK AO2 SLP230 T00390006 $=
201712250650 SPECI KATL 250650Z 30010KT 10SM SCT024 BKN035 04/01 A3019 RMK AO2 $=
201712250623 SPECI KATL 250623Z 31015G23KT 10SM SCT022 BKN027 BKN038 04/01 A3019 RMK AO2 BKN027 V SCT T00440011 $=
201712250552 METAR KATL 250552Z 29010KT 10SM SCT034 04/01 A3018 RMK AO2 SLP225 T00440006 10083 20044 51007 $=
201712250452 METAR KATL 250452Z 30015G23KT 10SM BKN035 05/01 A3018 RMK AO2 SLP225 T00500006 401060050 $=
201712250444 SPECI KATL 250444Z 31016KT 10SM FEW023 BKN035 06/01 A3018 RMK AO2 T00560011 $=
201712250352 METAR KATL 250352Z 29014G23KT 10SM BKN026 06/02 A3018 RMK AO2 PK WND 28027/0312 SLP223 T00610017 $=
201712250252 METAR KATL 250252Z 29016G22KT 10SM BKN021 07/04 A3016 RMK AO2 SLP217 T00720039 52017 $=
201712250152 METAR KATL 250152Z 29013G20KT 10SM BKN022 08/04 A3014 RMK AO2 SLP210 T00780039 $=
201712250052 METAR KATL 250052Z 29012KT 10SM BKN019 BKN026 08/05 A3012 RMK AO2 SLP205 T00830050 $=
201712242352 METAR KATL 242352Z 29016G21KT 10SM SCT015 BKN024 08/06 A3011 RMK AO2 SLP198 T00830056 10106 20083 53017 $=
201712242252 METAR KATL 242252Z 28011KT 10SM OVC018 09/06 A3008 RMK AO2 SLP189 T00890061 $=
201712242152 METAR KATL 242152Z 26010KT 10SM BKN018 OVC025 09/06 A3008 RMK AO2 SLP187 T00940061 $=
201712242052 METAR KATL 242052Z 27014KT 10SM OVC019 09/06 A3005 RMK AO2 SLP180 T00940061 55001 $=
201712241952 METAR KATL 241952Z 27010KT 10SM OVC017 09/07 A3004 RMK AO2 SLP174 BINOVC T00940067 $=
201712241925 SPECI KATL 241925Z 25009KT 10SM OVC015 09/07 A3003 RMK AO2 BINOVC T00940067 $=
201712241852 METAR KATL 241852Z 25009KT 10SM OVC014 09/06 A3004 RMK AO2 SLP174 BINOVC T00940061 $=
201712241752 METAR KATL 241752Z 27008KT 10SM OVC013 09/07 A3006 RMK AO2 SLP180 T00890067 10089 20072 58013 $=
201712241709 SPECI KATL 241709Z 28007KT 10SM OVC011 08/06 A3008 RMK AO2 T00830061 $=
201712241652 METAR KATL 241652Z 26007KT 10SM OVC009 08/06 A3008 RMK AO2 SLP190 T00780061 $=
201712241552 METAR KATL 241552Z 25003KT 10SM OVC008 08/06 A3008 RMK AO2 SLP190 T00780061 $=
201712241452 METAR KATL 241452Z 31007KT 10SM OVC008 08/07 A3010 RMK AO2 SLP193 T00780067 53011 $=
201712241357 SPECI KATL 241357Z 26005KT 10SM OVC008 07/06 A3008 RMK AO2 T00720061 $=
201712241352 METAR KATL 241352Z 25005KT 8SM OVC007 07/06 A3007 RMK AO2 SLP185 T00720061 $=
201712241252 METAR KATL 241252Z 32005KT 8SM OVC008 07/06 A3007 RMK AO2 SLP183 T00720061 $=
201712241152 METAR KATL 241152Z 31007KT 10SM OVC007 07/07 A3006 RMK AO2 SLP181 70028 T00720067 10094 20072 53002 $=
201712241052 METAR KATL 241052Z 28005KT 10SM OVC008 07/06 A3005 RMK AO2 SLP178 T00720061 $=
201712240952 METAR KATL 240952Z 28007KT 10SM OVC009 08/07 A3005 RMK AO2 SLP175 T00780067 $=
201712240929 SPECI KATL 240929Z 28008KT 10SM OVC009 08/07 A3005 RMK AO2 T00780067 $=
201712240852 METAR KATL 240852Z 30009KT 10SM OVC010 08/07 A3006 RMK AO2 SLP177 T00830067 50000 $=
201712240752 METAR KATL 240752Z 32010KT 10SM OVC011 08/07 A3006 RMK AO2 SLP178 T00830067 $=
201712240652 METAR KATL 240652Z 31007KT 10SM OVC012 09/07 A3006 RMK AO2 SLP175 T00890067 $=
201712240552 METAR KATL 240552Z 33010KT 10SM OVC013 09/07 A3006 RMK AO2 SLP175 T00890072 10122 20089 50002 $=
201712240452 METAR KATL 240452Z 30009KT 10SM OVC012 09/08 A3006 RMK AO2 SLP177 T00940078 402060094 $=
201712240352 METAR KATL 240352Z 32011KT 10SM OVC013 10/08 A3007 RMK AO2 SLP180 T01000083 $=
201712240252 METAR KATL 240252Z 31007KT 10SM OVC012 11/09 A3005 RMK AO2 SLP173 T01060094 53008 $=
201712240152 METAR KATL 240152Z 31008KT 10SM OVC013 11/09 A3004 RMK AO2 SLP170 CIG 011V015 T01110094 $=
201712240130 SPECI KATL 240130Z 30010KT 10SM BKN014 BKN080 BKN200 OVC250 11/09 A3004 RMK AO2 T01110094 $=
201712240052 METAR KATL 240052Z 31010KT 10SM FEW014 SCT075 BKN200 OVC250 11/10 A3003 RMK AO2 SLP168 T01110100 $=
201712232352 METAR KATL 232352Z 31013KT 10SM SCT012 BKN050 BKN075 OVC250 12/11 A3003 RMK AO2 SLP165 60028 T01220106 10206 20122 53013 $=
201712232252 METAR KATL 232252Z 30008KT 10SM FEW016 BKN050 OVC250 16/13 A3000 RMK AO2 SLP155 T01560133 $=
201712232152 METAR KATL 232152Z 29010KT 10SM SCT020 SCT040 BKN050 17/15 A3000 RMK AO2 RAE09 SLP154 P0000 T01670150 $=
201712232052 METAR KATL 232052Z 29010G23KT 8SM -RA SCT015 SCT030 OVC040 17/16 A2999 RMK AO2 PK WND 29028/1954 SLP151 RAE14B44 TSE14 TS DSIPT P0006 60028 T01670161 53014 $=
201712232031 SPECI KATL 232031Z 28010KT 10SM SCT015 BKN030 OVC040 17/16 A2997 RMK AO2 PK WND 29028/1954 TSE14 TS DSIPT P0006 T01670161 $=
201712232017 SPECI KATL 232017Z 28012G20KT 10SM SCT013 BKN028 OVC037 17/16 A2997 RMK AO2 PK WND 29028/1954 TSE14 TS DSIPT P0006 T01720161 $=
201712232007 SPECI KATL 232007Z 27013G23KT 5SM -RA BR SCT006 BKN024CB OVC035 17/16 A2996 RMK AO2 PK WND 29028/1954 TSE07 OCNL LTGIC OHD TS OHD MOV E P0006 T01720161 $=
201712231959 SPECI KATL 231959Z 28016G28KT 2SM R09R/5500VP6000FT +TSRA BR SCT006 BKN020CB OVC030 17/17 A2996 RMK AO2 PK WND 29028/1954 OCNL LTGIC OHD TS OHD MOV E P0003 T01720167 $=
201712231952 METAR KATL 231952Z 28016G21KT 8SM -TSRA SCT006 BKN013 OVC030 18/17 A2996 RMK AO2 TSB52 SLP143 P0021 T01780172 $=
201712231945 SPECI KATL 231945Z 29016KT 4SM -RA BR SCT006 BKN013 OVC030 18/18 A2996 RMK AO2 P0021 T01830178 $=
201712231942 SPECI KATL 231942Z 29014KT 2 1/2SM -RA BR SCT006 OVC013 18/18 A2995 RMK AO2 P0021 T01830178 $=
201712231938 SPECI KATL 231938Z 29018G23KT 2SM R09R/5500VP6000FT RA BR BKN006 OVC015 18/18 A2995 RMK AO2 P0021 T01830178 $=
201712231927 SPECI KATL 231927Z 28011KT 1SM R09R/4500VP6000FT +RA BR BKN006 OVC015 19/19 A2994 RMK AO2 P0013 T01890189 $=
201712231915 SPECI KATL 231915Z 26008KT 1SM R09R/5000VP6000FT +RA BR SCT008 OVC015 19/19 A2994 RMK AO2 P0005 T01890189 $=
201712231852 METAR KATL 231852Z 23009KT 2SM -RA BR BKN015 OVC025 19/18 A2993 RMK AO2 RAB17 SLP131 P0001 T01940183 $=
201712231830 SPECI KATL 231830Z 23010G22KT 2SM -RA BR SCT015 OVC022 20/18 A2994 RMK AO2 SFC VIS 3 RAB17 P0000 T02000178 $=
201712231752 METAR KATL 231752Z 21013G19KT 10SM BKN021 OVC027 20/18 A2994 RMK AO2 SLP136 60000 T02000178 10200 20167 58027 $=
201712231652 METAR KATL 231652Z 21014G25KT 9SM BKN020 OVC027 19/17 A2998 RMK AO2 PK WND 21026/1621 RAB39E49 SLP149 P0000 T01940172 $=
201712231552 METAR KATL 231552Z 21017G23KT 10SM BKN017 BKN024 OVC035 19/17 A3000 RMK AO2 SLP156 BINOVC T01940172 $=
201712231452 METAR KATL 231452Z 20009G18KT 10SM SCT008 OVC015 18/17 A3003 RMK AO2 SLP164 60000 T01830172 55003 $=
201712231449 SPECI KATL 231449Z 20013G18KT 10SM SCT008 OVC015 18/17 A3002 RMK AO2 $=
201712231352 METAR KATL 231352Z 20010KT 8SM BKN008 OVC014 17/17 A3002 RMK AO2 DZE40 SLP165 CIG 007V010 P0000 T01720167 $=
201712231252 METAR KATL 231252Z 20011KT 5SM -DZ BR BKN008 OVC015 17/17 A3003 RMK AO2 DZB45 SLP165 VIS LWR SE-SW CIG 006V010 P0000 T01670167 $=
201712231152 METAR KATL 231152Z 20013KT 10SM BKN009 OVC016 17/17 A3003 RMK AO2 SLP168 CIG 007V010 60000 T01720167 10172 20133 56008 $=
201712231052 METAR KATL 231052Z 20010KT 10SM OVC009 17/16 A3004 RMK AO2 SLP170 CIG 007V010 T01670161 $=
201712230952 METAR KATL 230952Z 19012KT 10SM OVC008 16/16 A3004 RMK AO2 SLP169 CIG 007V010 T01610156 $=
201712230933 SPECI KATL 230933Z 19013KT 8SM OVC008 16/16 A3004 RMK AO2 T01560156 $=
201712230852 METAR KATL 230852Z 19011KT 8SM OVC011 16/15 A3006 RMK AO2 SLP177 60000 T01560150 58009 $=
201712230752 METAR KATL 230752Z 20008KT 8SM BKN013 BKN023 OVC031 15/14 A3008 RMK AO2 RAB06E18 SLP184 P0000 T01500144 $=
201712230739 SPECI KATL 230739Z 20009KT 8SM FEW004 SCT014 OVC025 15/14 A3008 RMK AO2 RAB06E18 P0000 T01500144 $=
201712230652 METAR KATL 230652Z 19010KT 8SM FEW004 SCT032 BKN060 14/14 A3007 RMK AO2 SLP182 T01390139 $=
201712230552 METAR KATL 230552Z 17006KT 6SM BR SCT004 BKN025 BKN060 BKN250 13/13 A3009 RMK AO2 SLP188 T01330133 10139 20128 58013 $=
201712230503 SPECI KATL 230503Z 15005KT 8SM FEW006 SCT025 BKN060 BKN250 13/13 A3011 RMK AO2 T01330133 $=
201712230452 METAR KATL 230452Z 15005KT 7SM FEW006 BKN025 BKN060 BKN250 13/13 A3011 RMK AO2 SLP197 T01330133 401390106 $=
201712230352 METAR KATL 230352Z 15007KT 8SM FEW006 FEW020 SCT060 SCT250 14/13 A3012 RMK AO2 SLP199 T01390133 $=
201712230348 SPECI KATL 230348Z 15007KT 8SM FEW006 FEW020 SCT060 SCT250 14/13 A3012 RMK AO2 $=
201712230252 METAR KATL 230252Z 15007KT 6SM BR FEW006 BKN020 OVC035 14/13 A3013 RMK AO2 SLP201 T01390133 58007 $=
201712230152 METAR KATL 230152Z 16010KT 5SM BR SCT006 BKN022 OVC035 14/13 A3014 RMK AO2 SLP205 SCT006 V BKN T01390133 $=
201712230136 SPECI KATL 230136Z 15006KT 5SM BR SCT005 BKN022 OVC035 13/13 A3013 RMK AO2 T01330133 $=
201712230059 SPECI KATL 230059Z 17005KT 3SM BR BKN005 OVC025 13/13 A3015 RMK AO2 SFC VIS 5 CIG 004V007 T01330133 $=
201712230052 METAR KATL 230052Z 14004KT 1 1/4SM BR BKN005 OVC020 13/13 A3014 RMK AO2 SFC VIS 5 SLP208 CIG 004V007 T01330133=
201712222352 METAR KATL 222352Z 14006KT 1 1/4SM BR OVC004 13/13 A3015 RMK AO2 SFC VIS 4 RAB41E50 SLP210 P0000 60000 T01280128 10133 20122 56001=
201712222322 SPECI KATL 222322Z 14007KT 1 1/4SM BR OVC004 13/13 A3015 RMK AO2 SFC VIS 4 T01280128=
201712222252 METAR KATL 222252Z 13006KT 3SM BR OVC005 13/13 A3015 RMK AO2 SFC VIS 5 SLP210 T01280128=
201712222152 METAR KATL 222152Z 14008KT 3SM BR OVC005 13/13 A3014 RMK AO2 SFC VIS 5 SLP209 T01280128=
201712222052 METAR KATL 222052Z 14006KT 3SM BR OVC005 13/13 A3015 RMK AO2 SFC VIS 4 DZE22 SLP210 P0000 60000 T01330128 56011=
201712221952 METAR KATL 221952Z 15008KT 3SM -DZ BR OVC005 13/13 A3016 RMK AO2 SFC VIS 4 SLP212 DZB47 P0000 T01330128=
201712221852 METAR KATL 221852Z 13007KT 3SM BR BKN006 OVC010 13/13 A3015 RMK AO2 SFC VIS 4 SLP211 RAE07DZB07E25 P0000 T01280128=
201712221829 SPECI KATL 221829Z 10006KT 3SM BR BKN006 OVC010 13/12 A3016 RMK AO2 SFC VIS 4 RAE07DZB07E25 P0000 T01280122=
201712221805 SPECI KATL 221805Z 11007KT 2 1/2SM -RA BR BKN006 BKN010 OVC020 12/12 A3017 RMK AO2 VRY LGT PCPN P0000 T01220122=
201712221752 METAR KATL 221752Z 15005KT 5SM -RA BR BKN006 BKN010 OVC020 12/12 A3018 RMK AO2 RAB50 SLP222 P0000 60000 T01220122 10122 20106 58013=
201712221709 SPECI KATL 221709Z 16006KT 7SM BKN007 BKN010 OVC020 12/12 A3020 RMK AO2 T01220117=
201712221652 METAR KATL 221652Z 14005KT 7SM BKN006 BKN008 OVC010 12/12 A3020 RMK AO2 SLP228 T01220117=
201712221612 SPECI KATL 221612Z 12006KT 7SM BKN005 BKN008 OVC010 12/12 A3022 RMK AO2 T01170117=
201712221552 METAR KATL 221552Z 12006KT 2SM BR BKN005 BKN007 OVC010 12/11 A3022 RMK AO2 SFC VIS 6 SLP236 T01170111=
201712221452 METAR KATL 221452Z 13005KT 2SM BR BKN005 BKN008 OVC010 11/11 A3023 RMK AO2 SFC VIS 5 DZE08 SLP236 P0000 60000 T01110111 53010=
201712221352 METAR KATL 221352Z 13005KT 2SM -DZ BKN005 OVC012 11/11 A3021 RMK AO2 SFC VIS 8 SLP232 CIG 004V007 P0000 T01060106=
201712221340 SPECI KATL 221340Z 14007KT 2SM -DZ BR OVC005 11/11 A3021 RMK AO2 SFC VIS 6 CIG 004V007 P0000 T01060106=
201712221322 SPECI KATL 221322Z 13006KT 1/2SM R09R/P6000FT -DZ BR OVC005 11/11 A3020 RMK AO2 SFC VIS 3 CIG 003V007 P0000 T01060106=
201712221252 METAR KATL 221252Z 13005KT 1/2SM R09R/P6000FT -DZ BR BKN003 OVC008 11/11 A3020 RMK AO2 SFC VIS 2 SLP229 CIG 002V004 TWRINC P0000 T01060106=
201712221232 SPECI KATL 221232Z 13004KT 1/2SM R09R/P6000FT -DZ BR BKN003 OVC010 11/11 A3021 RMK AO2 SFC VIS 2 CIG 002V005 TWRINC P0000 T01060106=
201712221206 SPECI KATL 221206Z 12005KT 1SM R09R/P6000FT -DZ BR OVC004 11/11 A3020 RMK AO2 SFC VIS 3 CIG 003V006 P0000 T01060106=
201712221152 METAR KATL 221152Z 13005KT 1SM R09R/P6000FT -DZ BR OVC006 11/11 A3019 RMK AO2 SFC VIS 4 SLP225 CIG 004V008 P0001 60001 70001 T01060106 10111 20106 51009=
201712221138 SPECI KATL 221138Z 14004KT 1SM R09R/P6000FT -DZ BKN005 OVC010 11/11 A3020 RMK AO2 SFC VIS 8 CIG 003V007 P0001 T01060106=
201712221108 SPECI KATL 221108Z 18004KT 3/4SM R09R/P6000FT -DZ BKN004 OVC009 11/11 A3020 RMK AO2 SFC VIS 8 CIG 003V005 P0001 T01060106=
201712221052 METAR KATL 221052Z 16005KT 1/4SM R09R/4000VP6000FT -DZ FG VV002 11/11 A3019 RMK AO2 SFC VIS 1/2 DZB08 SLP224 P0000 T01060106=
201712221026 SPECI KATL 221026Z 13003KT 3/4SM R09R/2600V3500FT -DZ BR OVC002 11/11 A3019 RMK AO2 DZB08 VIS 1/2V1 P0000 T01060106=
201712220952 METAR KATL 220952Z 13003KT 1SM R09R/4000V6000FT BCFG BR OVC002 11/11 A3018 RMK AO2 SFC VIS 1 1/2 DZE50 SLP219 VIS SW-NW 3/4 CIG 001V003 P0000 T01060106=
201712220852 METAR KATL 220852Z 14005KT 1SM R09R/P6000FT -DZ BCFG BR OVC003 11/11 A3017 RMK AO2 SFC VIS 3 SLP216 VIS NW-NE 1 CIG 001V004 P0000 60000 T01060106 53005=
201712220752 METAR KATL 220752Z 13005KT 1SM R09R/P6000FT -DZ BR OVC002 11/11 A3016 RMK AO2 SFC VIS 1 1/2 SLP214 VIS 1V2 CIG 001V003 P0000 T01110111=
201712220652 METAR KATL 220652Z 12005KT 1SM R09R/5500VP6000FT -DZ BR OVC002 11/11 A3015 RMK AO2 SFC VIS 1 1/2 SLP210 VIS 1V2 CIG 001V003 P0000 T01110111=
201712220552 METAR KATL 220552Z 12007KT 1SM R09R/P6000FT -DZ BR OVC003 11/11 A3015 RMK AO2 SFC VIS 2 DZB47 SLP210 P0000 60000 T01110111 10117 20111 58003=
201712220452 METAR KATL 220452Z 13004KT 1SM R09R/P6000FT BR OVC003 11/11 A3017 RMK AO2 SFC VIS 3 SLP217 CIG 002V004 T01110111 401440111=
201712220352 METAR KATL 220352Z 13006KT 1SM R09R/P6000FT BR OVC003 11/11 A3017 RMK AO2 SFC VIS 3 SLP218 CIG 002V005 T01110111=
201712220346 SPECI KATL 220346Z 14006KT 1SM R09R/P6000FT BR OVC003 11/11 A3017 RMK AO2 SFC VIS 3 CIG 002V005=
201712220252 METAR KATL 220252Z 13007KT 3SM OVC005 12/12 A3016 RMK AO2 SFC VIS 10 SLP214 CIG 004V006 60000 T01170117 51010=
201712220152 METAR KATL 220152Z 11007KT 3SM BKN005 OVC020 12/12 A3016 RMK AO2 SFC VIS 10 SLP212 CIG 004V006 T01170117=
201712220055 SPECI KATL 220055Z 11008KT 3SM BKN005 OVC030 12/11 A3015 RMK AO2 SFC VIS 10 T01170111=
201712220052 METAR KATL 220052Z 11007KT 1 1/2SM BKN005 OVC030 12/12 A3015 RMK AO2 SFC VIS 10 DZE13 SLP210 CIG 004V007 P0000 T01170117=
201712212352 METAR KATL 212352Z 09009KT 1 1/2SM -DZ BR BKN005 OVC030 12/12 A3013 RMK AO2 SFC VIS 4 SLP204 CIG 004V007 P0000 60000 T01170117 10128 20117 51005=
201712212252 METAR KATL 212252Z 10007KT 1 1/2SM -DZ BR BKN006 OVC020 12/12 A3013 RMK AO2 SFC VIS 4 DZB28 SLP202 CIG 004V008 P0000 T01170117=
201712212152 METAR KATL 212152Z 09008KT 3SM BR BKN008 BKN015 OVC020 12/12 A3012 RMK AO2 SFC VIS 6 DZE50 SLP199 P0000 T01220117=
201712212059 SPECI KATL 212059Z 10005KT 2 1/2SM -DZ BR FEW008 BKN010 OVC015 12/12 A3012 RMK AO2 SFC VIS 5 P0000 T01220122=
201712212052 METAR KATL 212052Z 10005KT 2 1/2SM -DZ BR BKN008 BKN010 OVC015 12/12 A3012 RMK AO2 SFC VIS 4 SLP197 P0000 60000 T01220122 53004=
201712212046 SPECI KATL 212046Z 10007KT 2 1/2SM -DZ BR BKN010 OVC013 12/12 A3011 RMK AO2 SFC VIS 3 P0000=
201712211952 METAR KATL 211952Z 11009KT 1 1/2SM -DZ BR OVC005 12/12 A3009 RMK AO2 SFC VIS 3 SLP190 P0000 T01220122=
201712211852 METAR KATL 211852Z 10007KT 1 1/2SM -DZ BR OVC005 12/12 A3009 RMK AO2 SFC VIS 3 SLP187 P0000 T01220122=
201712211752 METAR KATL 211752Z 09008KT 1 1/2SM -DZ BR BKN006 BKN008 OVC010 13/12 A3010 RMK AO2 SFC VIS 3 SLP193 P0000 60000 T01280122 10128 20111 58001=
201712211731 SPECI KATL 211731Z 12007KT 2 1/2SM -DZ BR SCT006 BKN010 OVC020 13/12 A3011 RMK AO2 SFC VIS 4 P0000 T01280117=
201712211652 METAR KATL 211652Z 10006KT 2 1/2SM -DZ OVC007 12/12 A3012 RMK AO2 SFC VIS 8 SLP200 P0000 T01170117=
201712211611 SPECI KATL 211611Z 10008KT 2 1/2SM -DZ BR OVC006 12/11 A3013 RMK AO2 SFC VIS 4 P0000 T01170111=
201712211552 METAR KATL 211552Z 11007KT 1SM R09R/P6000FT -DZ BR OVC004 12/12 A3013 RMK AO2 SFC VIS 3 SLP202 P0000 T01170117=
201712211510 SPECI KATL 211510Z 11009KT 1SM R09R/P6000FT -DZ BR OVC005 12/12 A3012 RMK AO2 SFC VIS 4 P0000 T01170117=
201712211459 SPECI KATL 211459Z 10009KT 1/2SM R09R/P6000FT -DZ BR OVC004 12/12 A3011 RMK AO2 SFC VIS 3 P0000 T01170117=
201712211452 METAR KATL 211452Z 09010KT 2SM -DZ BR OVC005 12/12 A3011 RMK AO2 SFC VIS 4 DZB48 SLP194 P0000 60000 T01170117 53025=
201712211436 SPECI KATL 211436Z 09011KT 2SM BR OVC005 12/12 A3010 RMK AO2 SFC VIS 6 T01170117=
201712211352 METAR KATL 211352Z 07010KT 2SM BR OVC004 12/12 A3008 RMK AO2 SFC VIS 6 SLP185 CIG 003V006 T01170117=
201712211252 METAR KATL 211252Z 08010KT 1/4SM R09R/P6000FT BCFG BR OVC003 12/12 A3005 RMK AO2 SFC VIS 3 SLP175 VIS NE-SE 1 1/2 CIG 002V004 TWRINC T01170117=
201712211152 METAR KATL 211152Z 06011KT 1/4SM R09R/6000VP6000FT BR OVC002 12/12 A3003 RMK AO2 SFC VIS 1 SLP168 CIG 001V003 TWRINC 60003 70188 T01170117 10144 20117 53019=
201712211101 SPECI KATL 211101Z 07008KT 1/4SM R09R/P6000FT BR OVC003 12/12 A3000 RMK AO2 SFC VIS 6 CIG 002V005 TWRINC T01220122=
201712211052 METAR KATL 211052Z 08008KT 1SM R09R/P6000FT BKN004 OVC010 13/13 A3000 RMK AO2 SFC VIS 8 RAE15DZB15E37 SLP157 CIG 003V006 TWRINC P0000 T01280128=
201712211024 SPECI KATL 211024Z 08009KT 1SM R09R/P6000FT -DZ BKN005 OVC009 13/13 A2999 RMK AO2 SFC VIS 7 RAE15DZB15 CIG 004V007 P0000 T01280128=
201712211005 SPECI KATL 211005Z 08011KT 1SM R09R/P6000FT -RA BR OVC004 13/13 A2999 RMK AO2 SFC VIS 2 1/2 CIG 003V006 P0000 T01280128=
201712210952 METAR KATL 210952Z 08009KT 1/2SM R09R/P6000FT -RA BR OVC004 13/13 A2998 RMK AO2 SFC VIS 2 1/2 SLP150 CIG 003V006 TWRINC P0003 T01280128=
201712210852 METAR KATL 210852Z 09006KT 1/2SM R09R/P6000FT -RA BR BKN004 OVC011 14/14 A2997 RMK AO2 SFC VIS 3 DZE49RAB49 SLP148 CIG 003V006 TWRINC P0000 60000 T01390139 53012=
201712210752 METAR KATL 210752Z 09005KT 1/2SM R09R/P6000FT -DZ BR OVC003 14/14 A2996 RMK AO2 SFC VIS 2 DZE19B48 SLP144 CIG 002V004 TWRINC P0000 T01390139=
201712210652 METAR KATL 210652Z 09006KT 1/2SM R09R/2200VP6000FT -DZ BCFG BR OVC002 14/14 A2994 RMK AO2 SFC VIS 2 DZB50 SLP137 VIS SW-W 1/2 TWRINC P0000 T01390139=
201712210552 METAR KATL 210552Z 10004KT 1/2SM R09R/4000VP6000FT BR OVC002 14/14 A2994 RMK AO2 SFC VIS 2 SLP136 60000 T01440144 10161 20144 50010=
201712210452 METAR KATL 210452Z 08005KT 1/2SM R09R/P6000FT BR OVC003 14/14 A2994 RMK AO2 SFC VIS 3 RAB15E37 SLP138 CIG 002V004 P0000 T01440144 401890144=
201712210352 METAR KATL 210352Z 09006KT 1/2SM R09R/P6000FT BR OVC003 14/14 A2992 RMK AO2 SFC VIS 4 SLP129 CIG 002V005 T01440144=
201712210252 METAR KATL 210252Z 13004KT 1/2SM R09R/P6000FT BR BKN003 OVC015 14/14 A2991 RMK AO2 SFC VIS 4 SLP125 BINOVC T01440144 53016=
201712210222 SPECI KATL 210222Z 07007KT 1/2SM R09R/P6000FT BKN004 OVC015 15/15 A2990 RMK AO2 SFC VIS 8 T01500150=
201712210203 SPECI KATL 210203Z 07006KT 1 1/2SM BKN004 BKN012 OVC030 15/15 A2989 RMK AO2 SFC VIS 9 T01500150=
201712210152 METAR KATL 210152Z 03008KT 1SM R09R/P6000FT BKN004 BKN012 OVC030 16/15 A2989 RMK AO2 SFC VIS 9 SLP117 BINOVC T01560150=
201712210138 SPECI KATL 210138Z 04007KT 3/4SM R09R/P6000FT BKN004 BKN030 15/15 A2989 RMK AO2 SFC VIS 9 T01500150=
201712210108 SPECI KATL 210108Z 04008KT 1 1/2SM BKN004 BKN030 16/15 A2988 RMK AO2 SFC VIS 9 T01560150=
201712210052 METAR KATL 210052Z 04004KT 10SM FEW004 FEW020 16/15 A2987 RMK AO2 SLP112 T01560150=
201712202352 METAR KATL 202352Z 01009KT 9SM FEW005 SCT015CB OVC060 16/16 A2986 RMK AO2 RAB17E52 SLP108 CB VC SE MOV E P0029 60029 T01560156 10167 20156 53002=
201712202345 SPECI KATL 202345Z 33008G20KT 4SM RA BR FEW006 BKN012CB OVC040 16/16 A2988 RMK AO2 RAB17 PRESRR CB SE-S MOV E P0028 T01560156=
201712202341 SPECI KATL 202341Z 30013G20KT 1 1/2SM R09R/4000VP6000FT +RA BR SCT006 BKN012CB OVC040 16/16 A2987 RMK AO2 RAB17 PRESRR CB OHD-SW MOV E P0020 T01560156=
201712202329 SPECI KATL 202329Z 09007KT 2SM +RA BR SCT006 BKN012CB OVC040 16/16 A2984 RMK AO2 RAB17 CB VC SW-W MOV E P0004 T01610156=
201712202252 METAR KATL 202252Z 08007KT 10SM BKN006 OVC020 16/16 A2985 RMK AO2 SLP102 BINOVC T01610156=
201712202152 METAR KATL 202152Z 11007KT 10SM BKN008 BKN025 BKN250 17/16 A2983 RMK AO2 SLP098 CB DSNT SW-NW T01670156=
201712202126 SPECI KATL 202126Z 08008KT 10SM FEW008 BKN020 BKN050 17/16 A2985 RMK AO2 T01670156=
201712202052 METAR KATL 202052Z 11003KT 10SM BKN008 BKN025 BKN055 17/16 A2985 RMK AO2 SLP106 60000 T01670156 55007=
201712201952 METAR KATL 201952Z 14005KT 10SM BKN008 BKN030 OVC100 16/16 A2985 RMK AO2 SLP105 T01610156=
201712201852 METAR KATL 201852Z 13005KT 10SM BKN008 BKN090 BKN250 16/16 A2985 RMK AO2 WSHFT 1744 RAE06 SLP103 P0000 T01610156=
201712201816 SPECI KATL 201816Z 10011KT 2SM BR BKN005 BKN050 OVC100 16/16 A2984 RMK AO2 WSHFT 1744 SFC VIS 6 RAE06 P0000 T01560156=
201712201758 SPECI KATL 201758Z 10011KT 2SM -RA BR FEW007 BKN030 OVC050 16/16 A2986 RMK AO2 WSHFT 1744 SFC VIS 6 PRESFR P0000 T01560156=
201712201752 METAR KATL 201752Z 09013KT 2SM R09R/4000VP6000FT -RA BR FEW007 BKN027 OVC040 16/16 A2988 RMK AO2 SFC VIS 4 PRESFR SLP113 P0058 60156 T01560156 10189 20156 58010=
201712201745 SPECI KATL 201745Z 07012KT 1SM R09R/3500VP6000FT +RA BR FEW007 BKN027 OVC040 16/16 A2990 RMK AO2 SFC VIS 2 P0050 T01560156=
201712201725 SPECI KATL 201725Z 06013KT 2SM -RA BR FEW005 SCT010 OVC030 16/16 A2992 RMK AO2 SFC VIS 4 P0028 T01560156=
201712201652 METAR KATL 201652Z 01005KT 1SM R09R/P6000FT +RA BR FEW010CB BKN020 OVC040 16/16 A2993 RMK AO2 SFC VIS 3 SLP130 CB E-SE-S-SW MOV E P0065 T01560156=
201712201620 SPECI KATL 201620Z 00000KT 1SM R09R/5500VP6000FT RA BR FEW010CB BKN030 OVC040 16/16 A2994 RMK AO2 SFC VIS 3 CB E-SE-S MOV E P0044 T01610161 $=
201712201603 SPECI KATL 201603Z 33010KT 1SM R09R/2600VP6000FT +RA BR FEW013 BKN020CB OVC025 16/16 A2993 RMK AO2 CB OHD MOV E P0028 T01610161 $=
201712201555 SPECI KATL 201555Z 31006KT 1SM R09R/2600VP6000FT +RA BR FEW010 BKN020CB OVC030 16/16 A2993 RMK AO2 SFC VIS 3 CB OHD MOV E P0005 T01610161 $=
201712201552 METAR KATL 201552Z VRB04KT 1/2SM R09R/2600VP6000FT +RA BR FEW010 BKN013CB OVC025 17/16 A2994 RMK AO2 WSHFT 1518 SFC VIS 1 SLP134 CB OHD MOV E P0027 T01670161 $=
201712201548 SPECI KATL 201548Z 29007KT 1SM R09R/2600VP6000FT +RA BR BKN010CB BKN013 OVC017 17/17 A2994 RMK AO2 WSHFT 1518 CB OHD MOV E P0011=
201712201541 SPECI KATL 201541Z 35009KT 2SM R09R/5500VP6000FT +RA BR BKN010CB BKN013 OVC017 17/17 A2993 RMK AO2 WSHFT 1518 CB OHD MOV E P0006 T01720167=
201712201538 SPECI KATL 201538Z 32014G20KT 3SM RA BR BKN010CB BKN017 OVC020 17/17 A2994 RMK AO2 WSHFT 1518 TWR VIS 4 CB N-NE & SW-NW MOV E P0004 T01720167=
201712201523 SPECI KATL 201523Z 23014G21KT 4SM -RA BR BKN010CB BKN017 OVC030 19/18 A2992 RMK AO2 CB N-NE & SW-NW MOV E P0004 T01890183=
201712201510 SPECI KATL 201510Z 22015G20KT 6SM -RA BR BKN010CB BKN015 OVC020 19/18 A2991 RMK AO2 CB SW-NW MOV E P0001 T01890183=
201712201452 METAR KATL 201452Z 21012G20KT 1SM R09R/P6000FT RA BR BKN012CB BKN015 OVC030 18/18 A2991 RMK AO2 SFC VIS 3 RAB00 SLP123 CB OHD-SW-NW MOV E P0006 60006 T01830183 56010=
201712201450 SPECI KATL 201450Z 20009G20KT 1SM R09R/P6000FT RA BR BKN012CB BKN015 OVC030 18/18 A2991 RMK AO2 SFC VIS 3 RAB00 CB OHD-SW-NW MOV E P0005=
201712201417 SPECI KATL 201417Z 20012KT 2SM -RA BR BKN012 BKN015 OVC020 18/18 A2992 RMK AO2 SFC VIS 5 RAB00 P0001 T01830178=
201712201352 METAR KATL 201352Z 20011G19KT 9SM OVC012 18/17 A2993 RMK AO2 SLP130 CIG 010V015 T01830172=
201712201252 METAR KATL 201252Z 21008G19KT 8SM FEW009 OVC012 18/17 A2994 RMK AO2 SLP134 T01780172=
201712201152 METAR KATL 201152Z 21009G17KT 10SM FEW008 BKN011 OVC017 18/17 A2995 RMK AO2 DZE1057 SLP138 P0000 60017 70020 T01780172 10178 20161 56020=
201712201106 SPECI KATL 201106Z 21008KT 7SM SCT007 BKN013 OVC018 18/17 A2997 RMK AO2 DZE1057 P0000 T01780172=
201712201052 METAR KATL 201052Z 21010KT 2SM -DZ BR BKN006 BKN010 OVC018 18/18 A2997 RMK AO2 SFC VIS 6 DZB32 SLP144 CIG 004V008 P0000 T01780178=
201712201030 SPECI KATL 201030Z 21009KT 2SM BR OVC005 17/17 A2998 RMK AO2 SFC VIS 5 CIG 004V008 T01720172=
201712200952 METAR KATL 200952Z 21009KT 1/4SM R09R/P6000FT BR OVC002 17/17 A2998 RMK AO2 SFC VIS 3/4 SLP148 T01670167=
201712200855 SPECI KATL 200855Z 21007KT 1/4SM R09R/2000V2400FT FG VV002 17/17 A3001 RMK AO2 SFC VIS 1/2 T01670167=
201712200852 METAR KATL 200852Z 21008KT 1/4SM R09R/2000V2200FT FG VV002 17/17 A3001 RMK AO2 SFC VIS 1/2 RAE0759 SLP159 P0000 60017 T01670167 56018=
201712200752 METAR KATL 200752Z 20006KT 4SM -RA BR BKN003 BKN015 OVC023 17/17 A3003 RMK AO2 RAE34B50 SLP164 P0001 T01670167=
201712200728 SPECI KATL 200728Z 21006KT 5SM -RA BR SCT004 BKN022 OVC055 17/17 A3003 RMK AO2 P0001 T01670167=
201712200652 METAR KATL 200652Z 21005KT 6SM -RA BR BKN004 BKN049 OVC060 16/16 A3004 RMK AO2 SLP171 BKN004 V SCT P0016 T01610161=
201712200638 SPECI KATL 200638Z 22004KT 4SM -RA BR BKN004 BKN029 OVC041 17/17 A3005 RMK AO2 BKN004 V SCT P0015 T01670167=
201712200625 SPECI KATL 200625Z 23004KT 2SM +RA BR SCT004 BKN022 OVC029 16/16 A3005 RMK AO2 P0007 T01610161=
201712200619 SPECI KATL 200619Z 22005KT 5SM -RA BR BKN004 BKN012 OVC040 17/17 A3005 RMK AO2 P0006 T01670167=
201712200612 SPECI KATL 200612Z 20005KT 2 1/2SM RA BR SCT004 BKN025 OVC041 16/16 A3005 RMK AO2 P0005 T01610161=
201712200552 METAR KATL 200552Z 22004KT 3SM -RA BR SCT004 BKN018 OVC080 16/16 A3006 RMK AO2 RAB12 SLP178 P0003 60003 T01610161 10167 20150 57017=
201712200523 SPECI KATL 200523Z 24004KT 5SM -RA BR BKN005 BKN035 OVC100 17/17 A3007 RMK AO2 RAB12 P0000 T01670167=
201712200505 SPECI KATL 200505Z 22005KT 6SM BR FEW003 SCT020 BKN040 OVC150 17/17 A3008 RMK AO2 T01670167=
201712200452 METAR KATL 200452Z 22004KT 5SM BR FEW003 BKN020 BKN055 OVC150 17/17 A3008 RMK AO2 SLP183 T01670167 401720078=
201712200352 METAR KATL 200352Z 23006KT 1SM BR SCT003 BKN007 OVC015 16/16 A3010 RMK AO2 SFC VIS 5 SLP191 T01610161=
201712200258 SPECI KATL 200258Z 21005KT 1/8SM R09R/P6000FT BR OVC002 16/16 A3012 RMK AO2 SFC VIS 1 1/2 T01560156=
201712200252 METAR KATL 200252Z 23005KT 1/2SM R09R/P6000FT BR OVC003 16/16 A3012 RMK AO2 SFC VIS 3 SLP197 60000 T01560156 56008=
201712200243 SPECI KATL 200243Z 22004KT 1/2SM R09R/P6000FT BKN003 OVC015 16/16 A3012 RMK AO2 SFC VIS 7 T01560156=
201712200231 SPECI KATL 200231Z 21006KT 1SM R09R/P6000FT BKN004 OVC015 16/16 A3012 RMK AO2 SFC VIS 7 CIG 003V005 T01560156=
201712200210 SPECI KATL 200210Z 21005KT 3SM BKN005 OVC015 16/15 A3012 RMK AO2 SFC VIS 8 CIG 004V006 T01560150=
201712200152 METAR KATL 200152Z 20004KT 9SM BKN006 BKN015 OVC100 16/14 A3013 RMK AO2 SLP201 T01560139=
201712200141 SPECI KATL 200141Z 21003KT 10SM BKN008 BKN015 OVC100 16/14 A3013 RMK AO2 T01560139=
201712200112 SPECI KATL 200112Z 00000KT 10SM BKN016 BKN060 OVC100 15/14 A3013 RMK AO2 T01500139=
201712200052 METAR KATL 200052Z 00000KT 10SM FEW018 SCT060 BKN100 BKN200 16/14 A3012 RMK AO2 RAE10 SLP200 P0000 T01560139=
201712200039 SPECI KATL 200039Z 00000KT 10SM SCT018 BKN060 OVC100 16/14 A3013 RMK AO2 RAE10 P0000 T01560139=
201712192352 METAR KATL 192352Z 29003KT 10SM -RA BKN020 BKN060 OVC110 16/14 A3014 RMK AO2 RAB51 SLP208 P0000 60000 T01560139 10172 20150 55002=
201712192252 METAR KATL 192252Z 27003KT 10SM FEW012 BKN060 BKN110 BKN250 16/14 A3014 RMK AO2 SLP205 T01610139=
201712192216 SPECI KATL 192216Z 26006KT 10SM FEW012 BKN100 BKN250 16/14 A3014 RMK AO2 T01610139=
201712192152 METAR KATL 192152Z 25005KT 10SM BKN013 BKN100 BKN250 16/14 A3014 RMK AO2 SLP207 T01610139=
201712192146 SPECI KATL 192146Z 25007KT 10SM BKN013 BKN100 BKN250 16/14 A3015 RMK AO2=
201712192118 SPECI KATL 192118Z 25005KT 10SM SCT015 BKN110 BKN250 16/13 A3015 RMK AO2 T01610133=
201712192052 METAR KATL 192052Z 25006KT 10SM BKN015 BKN110 BKN250 16/13 A3015 RMK AO2 SLP208 60000 T01610133 56015=
201712192009 SPECI KATL 192009Z 29007KT 10SM BKN015 BKN075 BKN140 17/13 A3015 RMK AO2 T01670133=
201712191952 METAR KATL 191952Z 29007KT 10SM SCT015 BKN075 BKN140 BKN250 16/13 A3015 RMK AO2 SLP210 T01610128=
201712191852 METAR KATL 191852Z VRB05KT 10SM SCT014 SCT040 BKN110 BKN140 BKN250 16/13 A3017 RMK AO2 RAE1759 SLP214 P0000 T01610128=
201712191752 METAR KATL 191752Z 30004KT 10SM -RA FEW030 SCT070 BKN110 BKN150 BKN250 14/12 A3019 RMK AO2 RAB46 SLP224 VIRGA W P0000 60000 T01440122 10156 20078 58015=
201712191652 METAR KATL 191652Z VRB03KT 10SM FEW120 BKN140 BKN250 14/11 A3022 RMK AO2 SLP233 VIRGA DSNT NW-N T01390111=
201712191552 METAR KATL 191552Z 31005KT 10SM FEW005 SCT130 SCT250 13/12 A3025 RMK AO2 SLP242 T01280117=
201712191516 SPECI KATL 191516Z 30006KT 9SM FEW005 SCT140 SCT200 12/11 A3025 RMK AO2 T01170111=
201712191452 METAR KATL 191452Z 30006KT 6SM BR BCFG FEW003 SCT140 SCT200 11/11 A3024 RMK AO2 SLP240 VIS 1 NW N T01060106 53010=
201712191414 SPECI KATL 191414Z 28005KT 1SM R09R/P6000FT BR BCFG SCT003 BKN140 10/10 A3023 RMK AO2 SFC VIS 2 VIS 1/2 N NE SW NW T01000100=
201712191403 SPECI KATL 191403Z 27004KT 1SM R09R/2600VP6000FT BR SCT003 BKN140 10/10 A3023 RMK AO2 SFC VIS 4 T01000100=
201712191352 METAR KATL 191352Z 26004KT 6SM R09R/4000VP6000FT BR FEW002 BKN140 09/09 A3023 RMK AO2 SLP236 VIS LWR SW-NW-N T00940094=
201712191252 METAR KATL 191252Z 24003KT 7SM FEW002 BKN140 08/08 A3020 RMK AO2 SLP229 VIS SW-NW 1 1/2 T00830083=
201712191223 SPECI KATL 191223Z 28003KT 8SM FEW002 BKN130 08/08 A3021 RMK AO2 T00830083=
201712191152 METAR KATL 191152Z 00000KT 3SM BR BCFG BKN002 BKN130 08/08 A3021 RMK AO2 SLP229 VIS SE-SW 1 1/2 BKN002 V SCT T00780078 10111 20078 53004=
201712191143 SPECI KATL 191143Z 28003KT 3SM R09R/5000VP6000FT BR BCFG SCT002 BKN130 08/08 A3021 RMK AO2 VIS SE-SW 1 1/2 SCT002 V BKN T00780078=
201712191126 SPECI KATL 191126Z 31003KT 2 1/2SM R09R/5000VP6000FT BR BCFG BKN002 BKN130 08/08 A3020 RMK AO2 BKN002 V SCT T00780078=
201712191110 SPECI KATL 191110Z 00000KT 1 1/2SM BR BKN002 BKN130 08/08 A3019 RMK AO2 T00780078=
201712191052 METAR KATL 191052Z 31004KT 3/4SM R09R/3500VP6000FT BR VV002 08/08 A3019 RMK AO2 SLP225 T00830083=
201712191037 SPECI KATL 191037Z 31003KT 1/2SM R09R/2000V4500FT FG VV002 08/08 A3019 RMK AO2 T00830083=
201712191012 SPECI KATL 191012Z 32006KT 1/2SM R09R/1200V1800FT FG VV002 08/08 A3020 RMK AO2 T00830083=
201712191002 SPECI KATL 191002Z 30004KT 3/4SM R09R/1800V3000FT BR OVC002 09/09 A3019 RMK AO2 T00890089=
201712190952 METAR KATL 190952Z 00000KT 1 1/4SM R09R/1800V2800FT BR BKN002 BKN130 08/08 A3019 RMK AO2 SLP223 T00830083=
201712190946 SPECI KATL 190946Z 00000KT 1 1/2SM R09R/1800V2400FT BR BKN002 BKN130 08/08 A3019 RMK AO2=
201712190914 SPECI KATL 190914Z 32004KT 8SM R09R/1600VP6000FT BCFG BKN001 08/08 A3019 RMK AO2 T00830083=
201712190852 METAR KATL 190852Z 00000KT 8SM R09R/1400V2000FT BCFG FEW001 SCT130 08/08 A3019 RMK AO2 SLP224 VIS SE-SW 2 T00830083 58000=
201712190833 SPECI KATL 190833Z 26003KT 8SM R09R/1600V2000FT FEW001 SCT130 08/08 A3020 RMK AO2 VIS SE-SW 2 T00830083=
201712190826 SPECI KATL 190826Z 31004KT 8SM R09R/2000V2400FT SCT001 BKN130 08/08 A3020 RMK AO2 VIS SE-SW-W 1 T00830083=
201712190811 SPECI KATL 190811Z 32004KT 1/2SM R09R/1600V2600FT FG BKN001 BKN130 08/08 A3020 RMK AO2 VIS W-N 1 T00830083=
201712190752 METAR KATL 190752Z 29004KT 1/4SM R09R/1200V1600FT FG BKN001 BKN100 09/09 A3020 RMK AO2 SLP227 T00890089=
201712190740 SPECI KATL 190740Z 31005KT 1/4SM R09R/1000V1200FT FG BKN001 09/09 A3020 RMK AO2 T00890089=
201712190722 SPECI KATL 190722Z 31004KT 1/4SM R09R/1400V2000FT FG VV002 09/09 A3020 RMK AO2 T00940094=
201712190708 SPECI KATL 190708Z 27003KT 1/2SM R09R/2200VP6000FT FG BKN002 BKN220 10/10 A3020 RMK AO2 T01000100=
201712190652 METAR KATL 190652Z 29005KT 6SM BR FEW002 FEW012 SCT220 10/10 A3020 RMK AO2 SLP224 T01000100=
201712190605 SPECI KATL 190605Z 27006KT 10SM FEW002 FEW250 11/11 A3019 RMK AO2 T01110106=
201712190552 METAR KATL 190552Z 27007KT 9SM SCT250 11/11 A3019 RMK AO2 SLP224 T01060106 10139 20106 56002=
201712190452 METAR KATL 190452Z 26004KT 8SM SCT200 BKN250 12/12 A3019 RMK AO2 SLP224 T01170117 401670083=
201712190352 METAR KATL 190352Z 26004KT 8SM FEW004 BKN250 12/12 A3019 RMK AO2 SLP226 T01220122=
201712190338 SPECI KATL 190338Z 23005KT 7SM SCT004 BKN250 12/12 A3020 RMK AO2 T01220122=
201712190252 METAR KATL 190252Z 23005KT 7SM SCT200 BKN250 12/12 A3020 RMK AO2 SLP227 T01220122 50006=
201712190152 METAR KATL 190152Z 23005KT 8SM SCT200 BKN250 13/13 A3020 RMK AO2 SLP228 T01280128=
201712190052 METAR KATL 190052Z 25003KT 9SM FEW080 SCT200 BKN250 13/13 A3019 RMK AO2 SLP224 T01280128=
201712182352 METAR KATL 182352Z 26004KT 10SM FEW100 BKN200 BKN250 14/13 A3018 RMK AO2 SLP221 T01390133 10167 20133 53004=
201712182252 METAR KATL 182252Z 21005KT 10SM FEW050 SCT110 BKN200 BKN250 14/13 A3017 RMK AO2 SLP216 T01440128=
201712182152 METAR KATL 182152Z 27005KT 10SM FEW050 BKN100 BKN150 BKN250 16/13 A3016 RMK AO2 SLP214 T01560128=
201712182052 METAR KATL 182052Z 27004KT 10SM FEW015 BKN050 BKN070 BKN170 16/13 A3017 RMK AO2 SLP216 T01610128 55003=
201712181952 METAR KATL 181952Z 30009KT 10SM FEW015 SCT070 BKN110 BKN250 16/13 A3017 RMK AO2 SLP215 T01610128=
201712181852 METAR KATL 181852Z 27008KT 10SM FEW012 SCT050 BKN080 BKN150 17/13 A3015 RMK AO2 SLP210 T01670133=
201712181805 SPECI KATL 181805Z 24008KT 10SM FEW010 BKN090 BKN150 15/13 A3017 RMK AO2 T01500128=
201712181752 METAR KATL 181752Z 27007KT 9SM BKN010 BKN090 BKN150 15/13 A3018 RMK AO2 SLP220 T01500128 10150 20089 56013=
201712181747 SPECI KATL 181747Z 26007KT 9SM BR BKN010 BKN090 BKN150 14/13 A3018 RMK AO2=
201712181652 METAR KATL 181652Z 00000KT 3SM BR FEW007 BKN150 BKN220 14/12 A3020 RMK AO2 SFC VIS 6 SLP228 T01390122=
201712181618 SPECI KATL 181618Z 32003KT 3SM BR BCFG SCT005 BKN110 BKN250 12/12 A3021 RMK AO2 SFC VIS 5 T01220117=
201712181552 METAR KATL 181552Z 29003KT 1SM R09R/P6000FT BR BCFG BKN004 BKN110 BKN250 11/11 A3022 RMK AO2 SFC VIS 4 SLP234 T01110111=
201712181511 SPECI KATL 181511Z 29004KT 1SM R09R/5500VP6000FT BR BCFG SCT004 BKN110 BKN250 11/11 A3021 RMK AO2 SFC VIS 2 1/2 T01060106=
201712181507 SPECI KATL 181507Z 30004KT 1/2SM R09R/P6000FT BR BCFG BKN004 BKN110 BKN250 11/11 A3021 RMK AO2 SFC VIS 3 T01060106=
201712181452 METAR KATL 181452Z 31006KT 3SM BR BCFG FEW004 SCT110 BKN250 10/10 A3021 RMK AO2 SLP233 VIS LWR NE-S T01000100 51006=
201712181450 SPECI KATL 181450Z 30006KT 3SM BR BCFG FEW004 SCT110 BKN250 10/10 A3021 RMK AO2 VIS LWR NE-S=
201712181403 SPECI KATL 181403Z 00000KT 2 1/2SM R09R/1600V4500FT BR FEW002 BKN110 OVC200 09/09 A3020 RMK AO2 VIS N-E-SE 1 T00940094=
201712181352 METAR KATL 181352Z 00000KT 1 1/2SM R09R/1200V2800FT BR SCT002 OVC110 09/09 A3020 RMK AO2 SLP229 VIS N-E-SE 1/2 T00890089=
201712181347 SPECI KATL 181347Z 00000KT 1 1/2SM R09R/1200V3000FT BR SCT002 OVC110 09/09 A3020 RMK AO2 VIS NE-SE 3/4=
201712181337 SPECI KATL 181337Z 00000KT 1SM R09R/1400V2200FT BR BKN003 OVC110 09/09 A3019 RMK AO2 VIS NE-SE 1/2 CIG 002V005 T00940094=
201712181335 SPECI KATL 181335Z 00000KT 3/4SM R09R/1400V2200FT BR BKN003 OVC110 09/09 A3019 RMK AO2 CIG 002V005 T00890089=
201712181310 SPECI KATL 181310Z 00000KT 1/2SM R09R/1200V3000FT FG BKN003 OVC015 09/09 A3019 RMK AO2 T00890089=
201712181252 METAR KATL 181252Z 00000KT 1/4SM R09R/1000V1400FT FG VV002 09/09 A3019 RMK AO2 SLP227 T00890089=
201712181152 METAR KATL 181152Z 00000KT 1/4SM R09R/1200V1600FT FG VV002 09/09 A3018 RMK AO2 SLP223 70022 T00890089 10089 20083 53008=
201712181052 METAR KATL 181052Z 00000KT 1/4SM R09R/1800V2200FT FG VV002 08/08 A3017 RMK AO2 SLP220 T00830083=
201712181008 SPECI KATL 181008Z 00000KT 1/4SM R09R/1800V2000FT FG VV002 08/08 A3015 RMK AO2 T00830083=
201712180952 METAR KATL 180952Z 00000KT 1/2SM R09R/2200FT FG VV002 08/08 A3015 RMK AO2 SLP213 T00830083=
201712180852 METAR KATL 180852Z 05004KT 1/2SM R09R/2600V4000FT FG VV002 08/08 A3016 RMK AO2 SLP216 T00830083 58001=
201712180803 SPECI KATL 180803Z 00000KT 1/2SM R09R/3500VP6000FT FG VV002 08/08 A3017 RMK AO2 T00830083=
201712180752 METAR KATL 180752Z 00000KT 1SM R09R/3500V4500FT BR OVC003 08/08 A3017 RMK AO2 SLP221 CIG 002V004 T00830083=
201712180731 SPECI KATL 180731Z 00000KT 1 3/4SM BR OVC004 08/08 A3017 RMK AO2 T00830083=
201712180716 SPECI KATL 180716Z 00000KT 2 1/2SM BR OVC004 08/08 A3017 RMK AO2 T00830083=
201712180652 METAR KATL 180652Z 00000KT 5SM BR OVC005 08/08 A3017 RMK AO2 SLP221 CIG 004V006 T00830078=
201712180552 METAR KATL 180552Z 09003KT 6SM BR OVC006 08/08 A3016 RMK AO2 SLP217 60000 T00830078 10083 20072 58004=
201712180452 METAR KATL 180452Z 10003KT 6SM BR OVC007 08/08 A3017 RMK AO2 SLP219 T00830078 400940022=
201712180352 METAR KATL 180352Z 07004KT 7SM OVC009 08/07 A3017 RMK AO2 DZE43 SLP219 CIG 008V010 P0000 T00830072=
201712180338 SPECI KATL 180338Z 07005KT 6SM -DZ BR OVC009 08/07 A3017 RMK AO2 CIG 008V010 P0000 T00830072=
201712180252 METAR KATL 180252Z 07004KT 7SM -DZ OVC010 08/07 A3017 RMK AO2 SLP221 P0000 60000 T00830072 58002=
201712180200 SPECI KATL 180200Z 11004KT 7SM -DZ OVC014 08/07 A3018 RMK AO2 P0000 T00780072=
201712180152 METAR KATL 180152Z 10006KT 6SM -DZ BR OVC015 08/07 A3017 RMK AO2 SLP223 P0000 T00780072=
201712180052 METAR KATL 180052Z 04007KT 6SM -DZ BR FEW006 OVC017 08/07 A3019 RMK AO2 DZB48 SLP227 P0000 T00780067=
201712172352 METAR KATL 172352Z 05007KT 5SM BR FEW004 OVC024 07/07 A3018 RMK AO2 SLP225 60020 T00720067 10078 20061 53002=
201712172252 METAR KATL 172252Z 08009KT 6SM BR FEW006 OVC025 07/06 A3015 RMK AO2 DZB10E50 SLP217 P0000 T00670061=
201712172218 SPECI KATL 172218Z 08006KT 5SM -DZ BR FEW007 OVC026 07/06 A3017 RMK AO2 DZB10 P0000 T00720061=
201712172152 METAR KATL 172152Z 10004KT 5SM BR SCT014 OVC032 07/06 A3017 RMK AO2 RAE02B37E48 SLP223 P0000 T00720061=
201712172145 SPECI KATL 172145Z 09004KT 4SM -RA BR SCT014 OVC033 07/06 A3017 RMK AO2 RAE02B37 P0000 T00670061=
201712172126 SPECI KATL 172126Z 06004KT 4SM BR OVC014 07/06 A3017 RMK AO2 RAE02 P0000 T00670061=
201712172052 METAR KATL 172052Z 06004KT 3SM -RA BR OVC015 07/06 A3017 RMK AO2 RAE18B42 SLP223 P0002 60020 T00670056 56015=
201712172010 SPECI KATL 172010Z 10005KT 3SM -RA BR OVC016 06/06 A3017 RMK AO2 P0002 T00610056=
201712171956 SPECI KATL 171956Z 14004KT 2SM RA BR OVC015 06/06 A3019 RMK AO2 P0000 T00610056=
201712171952 METAR KATL 171952Z VRB03KT 3SM -RA BR OVC015 06/06 A3018 RMK AO2 SLP225 P0013 T00610056=
201712171924 SPECI KATL 171924Z 14006KT 4SM -RA BR BKN022 BKN033 OVC090 07/04 A3017 RMK AO2 P0007 T00670044=
201712171852 METAR KATL 171852Z 15004KT 4SM RA BR FEW075 OVC100 07/04 A3019 RMK AO2 SLP229 P0005 T00670044=
201712171752 METAR KATL 171752Z 11004KT 6SM -RA BKN075 OVC110 07/03 A3022 RMK AO2 SLP237 P0002 60002 T00720033 10094 20022 58021=
201712171652 METAR KATL 171652Z 07004KT 9SM -RA BKN075 OVC100 09/00 A3025 RMK AO2 RAB49 SLP247 P0000 T00890000=
201712171552 METAR KATL 171552Z 34003KT 10SM BKN085 OVC150 08/00 A3029 RMK AO2 SLP262 T00780000=
201712171452 METAR KATL 171452Z 32005KT 10SM BKN090 OVC250 07/00 A3028 RMK AO2 SLP259 T00720000 53023=
201712171352 METAR KATL 171352Z 13006KT 10SM FEW120 SCT150 BKN200 OVC250 05/M01 A3022 RMK AO2 SLP240 VIRGA SE-SW & NW BINOVC T00501011=
201712171252 METAR KATL 171252Z 12004KT 8SM FEW100 BKN150 OVC220 03/M01 A3023 RMK AO2 SLP242 T00331006=
201712171152 METAR KATL 171152Z 10004KT 10SM FEW080 SCT200 BKN250 03/M01 A3021 RMK AO2 SLP236 T00281011 10050 20022 55004=
201712171052 METAR KATL 171052Z 09003KT 10SM FEW200 BKN250 03/M01 A3021 RMK AO2 SLP235 T00331011=
201712170952 METAR KATL 170952Z 00000KT 10SM FEW200 BKN250 03/M01 A3022 RMK AO2 SLP238 T00281006=
201712170852 METAR KATL 170852Z 08004KT 10SM FEW200 BKN250 03/M01 A3022 RMK AO2 PRESFR SLP239 T00331011 58013=
201712170752 METAR KATL 170752Z 00000KT 10SM SCT200 BKN250 03/M01 A3024 RMK AO2 SLP243 T00331011=
201712170652 METAR KATL 170652Z 00000KT 10SM FEW200 FEW250 03/M02 A3025 RMK AO2 SLP248 T00331017=
201712170552 METAR KATL 170552Z 00000KT 10SM SCT200 SCT250 03/M01 A3026 RMK AO2 SLP253 T00331011 10078 20028 58005=
201712170452 METAR KATL 170452Z 00000KT 10SM SCT200 05/M02 A3028 RMK AO2 SLP257 T00501017 401171028=
201712170352 METAR KATL 170352Z 00000KT 10SM BKN200 04/M01 A3028 RMK AO2 SLP259 T00391011=
201712170252 METAR KATL 170252Z 00000KT 10SM SCT200 05/M01 A3028 RMK AO2 SLP260 T00501011 53007=
201712170152 METAR KATL 170152Z 00000KT 10SM FEW200 SCT250 04/M01 A3026 RMK AO2 SLP255 T00441011=
201712170052 METAR KATL 170052Z 00000KT 10SM FEW200 SCT250 06/M01 A3026 RMK AO2 SLP255 T00611011=
201712162352 METAR KATL 162352Z 30003KT 10SM FEW150 SCT200 SCT250 08/M03 A3026 RMK AO2 SLP254 T00781028 10117 20078 53007=
201712162252 METAR KATL 162252Z 31004KT 10SM FEW150 SCT200 SCT250 09/M03 A3025 RMK AO2 SLP249 T00891028=
201712162152 METAR KATL 162152Z 36006KT 10SM BKN250 11/M03 A3023 RMK AO2 SLP242 T01061028=
201712162052 METAR KATL 162052Z 00000KT 10SM BKN250 11/M03 A3023 RMK AO2 SLP244 T01111033 56011=
201712161952 METAR KATL 161952Z VRB03KT 10SM BKN250 11/M02 A3024 RMK AO2 SLP245 T01111022=
201712161852 METAR KATL 161852Z 30005KT 10SM BKN250 11/M02 A3024 RMK AO2 SLP247 T01061022=
201712161752 METAR KATL 161752Z 32008KT 10SM BKN250 10/M02 A3027 RMK AO2 SLP256 T01001022 10100 21028 58010=
201712161652 METAR KATL 161652Z VRB04KT 10SM BKN250 08/M03 A3029 RMK AO2 SLP264 T00781028=
201712161552 METAR KATL 161552Z 30007KT 10SM BKN250 06/M03 A3031 RMK AO2 SLP273 T00561028=
201712161452 METAR KATL 161452Z 31007KT 9SM BKN250 02/M03 A3030 RMK AO2 SLP270 T00221033 52019=
201712161352 METAR KATL 161352Z 28007KT 10SM SCT250 00/M03 A3028 RMK AO2 SLP265 T00001033=
201712161252 METAR KATL 161252Z 28006KT 10SM FEW250 M03/M04 A3026 RMK AO2 SLP257 T10281044=
201712161152 METAR KATL 161152Z 28005KT 10SM BKN250 M03/M05 A3024 RMK AO2 SLP251 T10281050 11017 21028 53005=
201712161052 METAR KATL 161052Z 29005KT 10SM BKN250 M02/M04 A3023 RMK AO2 SLP247 T10221044=
201712160952 METAR KATL 160952Z 31009KT 10SM SCT250 M02/M04 A3022 RMK AO2 SLP242 T10221044=
201712160852 METAR KATL 160852Z 28005KT 10SM FEW250 M03/M05 A3023 RMK AO2 SLP245 T10281050 53005=
201712160752 METAR KATL 160752Z 29005KT 10SM FEW250 M02/M05 A3022 RMK AO2 SLP241 T10221050=
201712160652 METAR KATL 160652Z 28006KT 10SM SCT250 M02/M04 A3021 RMK AO2 SLP239 T10221044=
201712160552 METAR KATL 160552Z 28006KT 10SM SCT250 M02/M04 A3021 RMK AO2 SLP237 T10171044 10022 21017 51007=
201712160452 METAR KATL 160452Z 28007KT 10SM FEW250 M01/M04 A3021 RMK AO2 SLP237 T10111044 400781017=
201712160352 METAR KATL 160352Z 29006KT 10SM FEW200 SCT250 M01/M04 A3020 RMK AO2 SLP235 T10061044=
201712160252 METAR KATL 160252Z 31007KT 10SM SCT200 BKN250 01/M04 A3019 RMK AO2 SLP230 T00061039 51008=
201712160152 METAR KATL 160152Z 32008KT 10SM SCT200 BKN250 01/M04 A3018 RMK AO2 SLP227 T00111039=
201712160052 METAR KATL 160052Z 32010G18KT 10SM SCT200 BKN250 02/M04 A3018 RMK AO2 SLP226 T00171039=
201712152352 METAR KATL 152352Z 31010KT 10SM FEW150 BKN200 BKN250 02/M04 A3016 RMK AO2 SLP221 VIRGA SE-SW T00221044 10056 20022 53021=
201712152252 METAR KATL 152252Z 32012KT 10SM FEW120 SCT150 BKN200 BKN250 03/M04 A3013 RMK AO2 SLP210 VIRGA OHD-ALQDS T00281044=
201712152152 METAR KATL 152152Z 30012KT 10SM FEW120 BKN150 BKN250 03/M04 A3011 RMK AO2 SLP203 VIRGA OHD & ALQDS T00331044=
201712152052 METAR KATL 152052Z 29011G22KT 10SM BKN140 BKN180 OVC200 04/M04 A3010 RMK AO2 SLP197 VIRGA DSNT NW-N T00391044 51010=
201712151952 METAR KATL 151952Z 30012KT 10SM BKN130 BKN150 OVC250 04/M04 A3008 RMK AO2 SLP193 VIRGA NE & SE & NW T00391044=
201712151852 METAR KATL 151852Z 28011KT 10SM FEW150 BKN180 OVC250 04/M04 A3008 RMK AO2 SLP191 T00441039=
201712151752 METAR KATL 151752Z 32016G20KT 10SM FEW150 BKN180 BKN250 06/M04 A3006 RMK AO2 SLP185 T00561039 10067 20022 50001=
201712151652 METAR KATL 151652Z 30012G19KT 10SM FEW150 SCT180 BKN230 07/M03 A3008 RMK AO2 SLP188 T00671028=
201712151552 METAR KATL 151552Z 28008KT 10SM FEW150 FEW180 BKN250 06/M01 A3007 RMK AO2 SLP187 T00561011=
201712151452 METAR KATL 151452Z 31009KT 9SM FEW150 SCT180 BKN250 03/M01 A3006 RMK AO2 SLP184 T00331011 51019=
201712151352 METAR KATL 151352Z 32009KT 10SM FEW150 BKN200 BKN250 03/M02 A3004 RMK AO2 SLP177 T00281017=
201712151252 METAR KATL 151252Z 32008KT 10SM SCT150 BKN200 BKN250 02/M02 A3003 RMK AO2 SLP174 T00221017=
201712151152 METAR KATL 151152Z 32009KT 10SM SCT200 BKN250 03/M01 A3000 RMK AO2 SLP165 T00281011 10078 20022 51007=
201712151052 METAR KATL 151052Z 32008KT 10SM FEW130 SCT200 BKN250 03/M01 A3000 RMK AO2 SLP163 T00331006=
201712150952 METAR KATL 150952Z 30005KT 10SM SCT130 BKN250 04/01 A2999 RMK AO2 SLP158 T00390006=
201712150852 METAR KATL 150852Z 32005KT 10SM BKN150 BKN250 05/01 A2998 RMK AO2 SLP155 T00500011 55002=
201712150752 METAR KATL 150752Z 31004KT 10SM SCT150 BKN200 BKN250 06/01 A2998 RMK AO2 SLP153 T00610011=
201712150652 METAR KATL 150652Z 29003KT 10SM BKN160 OVC250 07/03 A2998 RMK AO2 SLP152 T00670028=
201712150552 METAR KATL 150552Z 30004KT 10SM BKN150 OVC250 08/03 A2999 RMK AO2 SLP156 T00780028 10094 20072 50001=
201712150452 METAR KATL 150452Z 27004KT 10SM BKN150 OVC250 07/03 A3000 RMK AO2 SLP161 T00720028 401440033=
201712150352 METAR KATL 150352Z 27006KT 10SM BKN150 OVC250 08/03 A2999 RMK AO2 SLP158 T00830028=
201712150252 METAR KATL 150252Z 26005KT 10SM BKN150 OVC250 09/03 A2999 RMK AO2 SLP157 T00890028 51010=
201712150152 METAR KATL 150152Z 25003KT 10SM SCT170 BKN250 09/03 A2999 RMK AO2 SLP158 T00890028=
201712150052 METAR KATL 150052Z 24006KT 10SM SCT180 BKN250 09/03 A2997 RMK AO2 SLP153 T00940028=
201712142352 METAR KATL 142352Z 23007KT 10SM FEW200 SCT250 09/03 A2996 RMK AO2 SLP148 T00940028 10144 20094 53009=
201712142252 METAR KATL 142252Z 22005KT 10SM FEW200 SCT250 11/02 A2993 RMK AO2 SLP139 T01060022=
201712142152 METAR KATL 142152Z 24005KT 10SM FEW250 12/02 A2993 RMK AO2 SLP139 T01220022=
201712142052 METAR KATL 142052Z 25006KT 10SM SCT250 13/01 A2993 RMK AO2 SLP137 T01330011 53001=
201712141952 METAR KATL 141952Z 25009KT 10SM BKN250 14/01 A2991 RMK AO2 SLP131 T01390006=
201712141852 METAR KATL 141852Z 23009KT 10SM BKN250 14/01 A2991 RMK AO2 SLP131 T01390006=
201712141752 METAR KATL 141752Z 22006KT 10SM BKN250 13/01 A2992 RMK AO2 SLP135 T01280006 10128 20033 50001=
201712141652 METAR KATL 141652Z 28005KT 10SM FEW250 12/00 A2994 RMK AO2 SLP138 T01220000=
201712141552 METAR KATL 141552Z 29005KT 10SM FEW250 10/M01 A2994 RMK AO2 SLP140 T01001006=
201712141452 METAR KATL 141452Z 29008KT 10SM FEW250 08/M01 A2992 RMK AO2 SLP136 T00781006 51015=
201712141352 METAR KATL 141352Z 27007KT 10SM SCT200 SCT250 06/M01 A2991 RMK AO2 SLP131 T00561006=
201712141252 METAR KATL 141252Z 27007KT 10SM SCT200 SCT250 04/M02 A2990 RMK AO2 SLP129 T00391017=
201712141152 METAR KATL 141152Z 26007KT 10SM SCT250 04/M02 A2988 RMK AO2 SLP122 T00391017 10061 20039 53010=
201712141052 METAR KATL 141052Z 27009KT 10SM SCT250 04/M02 A2985 RMK AO2 SLP112 T00441017=
201712140952 METAR KATL 140952Z 26007KT 10SM SCT250 04/M02 A2984 RMK AO2 SLP110 T00441017=
201712140852 METAR KATL 140852Z 25006KT 10SM FEW250 04/M02 A2985 RMK AO2 SLP110 T00441022 56004=
201712140752 METAR KATL 140752Z 25008KT 10SM FEW250 05/M03 A2985 RMK AO2 SLP112 T00501028=
201712140652 METAR KATL 140652Z 25008KT 10SM FEW250 06/M03 A2985 RMK AO2 SLP112 T00561033=
201712140552 METAR KATL 140552Z 25007KT 10SM FEW250 06/M04 A2986 RMK AO2 SLP115 T00611044 10072 20056 50001=
201712140452 METAR KATL 140452Z 26007KT 10SM FEW250 06/M05 A2987 RMK AO2 SLP119 T00611050 401001022=
201712140352 METAR KATL 140352Z 25011KT 10SM FEW250 07/M06 A2986 RMK AO2 SLP116 T00671061=
201712140252 METAR KATL 140252Z 25007KT 10SM FEW200 06/M07 A2986 RMK AO2 SLP117 T00611067 55008=
201712140152 METAR KATL 140152Z 24009KT 10SM FEW200 07/M07 A2985 RMK AO2 SLP113 T00671072=
201712140052 METAR KATL 140052Z 23008KT 10SM CLR 07/M07 A2986 RMK AO2 SLP119 T00671072=
201712132352 METAR KATL 132352Z 22007KT 10SM CLR 07/M08 A2988 RMK AO2 SLP126 T00721083 10100 20067 56013=
201712132252 METAR KATL 132252Z 22005KT 10SM CLR 07/M09 A2989 RMK AO2 SLP130 T00721089=
201712132152 METAR KATL 132152Z 22008G20KT 10SM FEW250 09/M11 A2990 RMK AO2 SLP130 T00891106=
201712132052 METAR KATL 132052Z 23012G18KT 10SM CLR 09/M12 A2992 RMK AO2 SLP138 T00941122 56027=
201712131952 METAR KATL 131952Z 22010KT 10SM CLR 09/M11 A2993 RMK AO2 SLP141 T00891106=
201712131852 METAR KATL 131852Z 23010KT 10SM CLR 08/M12 A2996 RMK AO2 SLP152 T00781122=
201712131752 METAR KATL 131752Z VRB06KT 10SM CLR 07/M11 A3000 RMK AO2 SLP166 T00671106 10067 21022 58024=
201712131652 METAR KATL 131652Z 25008KT 170V280 10SM CLR 04/M11 A3005 RMK AO2 SLP181 T00441111=
201712131552 METAR KATL 131552Z 28005KT 10SM CLR 03/M12 A3007 RMK AO2 SLP189 T00331117=
201712131452 METAR KATL 131452Z 30007KT 10SM CLR 02/M12 A3008 RMK AO2 SLP191 T00171117 53013=
201712131352 METAR KATL 131352Z 28007KT 10SM CLR M01/M12 A3006 RMK AO2 SLP188 T10061117=
201712131252 METAR KATL 131252Z 29004KT 10SM CLR M02/M12 A3005 RMK AO2 SLP185 T10221117=
201712131152 METAR KATL 131152Z 31010KT 10SM CLR M02/M12 A3004 RMK AO2 SLP179 T10171122 10011 21017 53003=
201712131052 METAR KATL 131052Z 32010KT 10SM CLR M02/M12 A3003 RMK AO2 SLP177 T10171117=
201712130952 METAR KATL 130952Z 30011KT 10SM CLR M01/M12 A3003 RMK AO2 SLP175 T10111117=
201712130852 METAR KATL 130852Z 32010G19KT 10SM CLR M01/M11 A3003 RMK AO2 SLP174 T10061106 53008=
201712130752 METAR KATL 130752Z 32011KT 10SM CLR 00/M11 A3002 RMK AO2 SLP170 T00001106=
201712130652 METAR KATL 130652Z 32013G22KT 10SM CLR 01/M09 A3001 RMK AO2 SLP167 T00061094=
201712130552 METAR KATL 130552Z 32014G22KT 10SM CLR 01/M08 A3000 RMK AO2 SLP164 T00111083 10061 20011 51010=
201712130452 METAR KATL 130452Z 32012G21KT 10SM CLR 02/M07 A3000 RMK AO2 SLP164 T00221072 401060022=
201712130352 METAR KATL 130352Z 32011KT 10SM CLR 03/M07 A2998 RMK AO2 SLP157 T00331067=
201712130252 METAR KATL 130252Z 31016G28KT 10SM CLR 04/M07 A2997 RMK AO2 PK WND 32028/0250 SLP154 T00441067 51011=
201712130152 METAR KATL 130152Z 30012KT 10SM CLR 05/M04 A2996 RMK AO2 SLP150 T00501044=
201712130052 METAR KATL 130052Z 29013KT 10SM CLR 06/M03 A2995 RMK AO2 SLP147 T00561033=
201712122352 METAR KATL 122352Z 29010KT 10SM CLR 06/M02 A2994 RMK AO2 SLP142 T00611022 10094 20061 51008=
201712122252 METAR KATL 122252Z 28008KT 10SM CLR 07/M02 A2993 RMK AO2 PK WND 31026/2219 SLP141 T00671022=
201712122152 METAR KATL 122152Z 30015G23KT 10SM FEW045 FEW250 08/M02 A2992 RMK AO2 PK WND 31027/2102 SLP136 T00781022=
201712122052 METAR KATL 122052Z 29016G25KT 10SM FEW040 09/M02 A2991 RMK AO2 PK WND 32029/2033 SLP133 T00891017 58006=
201712121952 METAR KATL 121952Z 33013G25KT 10SM FEW040 09/00 A2992 RMK AO2 PK WND 32027/1857 SLP133 T00890000=
201712121852 METAR KATL 121852Z 31017G26KT 10SM BKN035 BKN045 08/01 A2994 RMK AO2 PK WND 30026/1850 SLP140 T00830006=
201712121752 METAR KATL 121752Z 34018G28KT 10SM BKN042 09/01 A2993 RMK AO2 PK WND 33032/1728 SLP137 T00940006 10106 20050 50006=
201712121652 METAR KATL 121652Z 33021G26KT 10SM BKN040 09/01 A2994 RMK AO2 PK WND 31030/1557 SLP139 T00940006=
201712121552 METAR KATL 121552Z 32024G30KT 10SM SCT042 09/00 A2993 RMK AO2 PK WND 33030/1551 SLP137 T00940000=
201712121452 METAR KATL 121452Z 32013KT 10SM FEW150 09/02 A2991 RMK AO2 SLP131 T00890017 53018=
201712121352 METAR KATL 121352Z 30010KT 10SM FEW180 FEW220 06/02 A2989 RMK AO2 SLP123 VIRGA NW-N T00610022=
201712121252 METAR KATL 121252Z 29008KT 10SM FEW180 SCT220 05/02 A2987 RMK AO2 SLP116 T00500022=
201712121152 METAR KATL 121152Z 28009KT 10SM FEW180 BKN220 06/03 A2986 RMK AO2 SLP113 T00560028 10089 20056 55004=
201712121052 METAR KATL 121052Z 26006KT 10SM BKN200 06/03 A2984 RMK AO2 SLP106 T00610028=
201712120952 METAR KATL 120952Z 26006KT 10SM BKN200 07/03 A2985 RMK AO2 SLP109 T00670028=
201712120852 METAR KATL 120852Z 24005KT 10SM BKN200 07/03 A2987 RMK AO2 SLP115 T00670028 56019=
201712120752 METAR KATL 120752Z 24006KT 10SM SCT200 07/03 A2988 RMK AO2 SLP118 T00720028=
201712120652 METAR KATL 120652Z 24007KT 10SM FEW200 08/03 A2990 RMK AO2 SLP124 T00830028=
201712120552 METAR KATL 120552Z 23008KT 10SM FEW200 09/03 A2993 RMK AO2 SLP134 T00890028 10111 20083 58019=
201712120452 METAR KATL 120452Z 24008KT 10SM FEW250 09/02 A2995 RMK AO2 SLP142 T00890022 401611011=
201712120352 METAR KATL 120352Z 24009KT 10SM FEW250 09/02 A2997 RMK AO2 SLP149 T00940022=
201712120252 METAR KATL 120252Z 25008KT 10SM FEW250 10/02 A2999 RMK AO2 SLP157 T01000022 56011=
201712120152 METAR KATL 120152Z 23007KT 10SM FEW250 10/02 A2999 RMK AO2 SLP160 T01000017=
201712120052 METAR KATL 120052Z 24007KT 10SM FEW250 10/01 A3001 RMK AO2 SLP169 T01000011=
201712112352 METAR KATL 112352Z 24004KT 10SM FEW250 11/01 A3002 RMK AO2 SLP170 T01110006 10161 20106 55008=
201712112252 METAR KATL 112252Z 23005KT 10SM FEW200 12/01 A3001 RMK AO2 SLP168 T01220006=
201712112152 METAR KATL 112152Z 26007KT 10SM FEW200 14/01 A3003 RMK AO2 SLP173 T01440006=
201712112052 METAR KATL 112052Z 25008KT 10SM FEW200 16/00 A3004 RMK AO2 SLP176 T01560000 56017=
201712111952 METAR KATL 111952Z 27008KT 10SM CLR 16/01 A3005 RMK AO2 SLP178 T01610011=
201712111852 METAR KATL 111852Z 24006KT 10SM CLR 15/02 A3008 RMK AO2 SLP187 T01500017=
201712111752 METAR KATL 111752Z VRB04KT 10SM CLR 13/02 A3010 RMK AO2 SLP195 T01280017 10128 21011 58030=
201712111652 METAR KATL 111652Z 00000KT 10SM CLR 11/01 A3015 RMK AO2 SLP215 T01060006=
201712111552 METAR KATL 111552Z 24008KT 10SM CLR 09/M01 A3019 RMK AO2 SLP227 T00891006=
201712111452 METAR KATL 111452Z 28007KT 10SM CLR 06/M01 A3019 RMK AO2 SLP228 T00611006 53001=
201712111352 METAR KATL 111352Z 28007KT 10SM CLR 03/M01 A3018 RMK AO2 SLP229 T00281011=
201712111252 METAR KATL 111252Z 27005KT 10SM CLR M01/M02 A3019 RMK AO2 SLP230 T10061022=
201712111152 METAR KATL 111152Z 31006KT 10SM CLR M01/M03 A3018 RMK AO2 SLP230 T10061028 10017 21006 55003=
201712111052 METAR KATL 111052Z 29005KT 10SM CLR 01/M02 A3018 RMK AO2 SLP227 T00061022=
201712110952 METAR KATL 110952Z 26004KT 10SM CLR 01/M02 A3018 RMK AO2 SLP227 T00111022=
201712110852 METAR KATL 110852Z 26005KT 10SM CLR 02/M02 A3019 RMK AO2 SLP230 T00171022 56013=
201712110752 METAR KATL 110752Z 24003KT 10SM CLR 01/M02 A3021 RMK AO2 SLP236 T00061022=
201712110652 METAR KATL 110652Z 26004KT 10SM CLR 01/M02 A3022 RMK AO2 SLP239 T00111022=
201712110552 METAR KATL 110552Z 27005KT 10SM CLR 01/M03 A3023 RMK AO2 SLP244 T00111028 10028 20011 50003=
201712110452 METAR KATL 110452Z 28007KT 10SM CLR 01/M03 A3024 RMK AO2 SLP249 T00111028 400721033=
201712110352 METAR KATL 110352Z 27006KT 10SM CLR 02/M03 A3025 RMK AO2 SLP250 T00171028=
201712110252 METAR KATL 110252Z 25005KT 10SM CLR 03/M04 A3022 RMK AO2 SLP243 T00281039 56002=
201712110152 METAR KATL 110152Z 27006KT 10SM CLR 03/M04 A3022 RMK AO2 SLP244 T00281039=
201712110052 METAR KATL 110052Z 24004KT 10SM CLR 03/M03 A3022 RMK AO2 SLP244 T00281033=
201712102352 METAR KATL 102352Z 28007KT 10SM CLR 02/M03 A3023 RMK AO2 SLP247 T00221033 10072 20022 53002=
201712102252 METAR KATL 102252Z 27004KT 10SM CLR 04/M03 A3022 RMK AO2 SLP242 T00391033=
201712102152 METAR KATL 102152Z 27005KT 10SM CLR 06/M03 A3021 RMK AO2 SLP240 T00561033=
201712102052 METAR KATL 102052Z 28008KT 10SM CLR 07/M03 A3022 RMK AO2 SLP242 T00671033 56013=
201712101952 METAR KATL 101952Z 26008KT 10SM CLR 07/M03 A3022 RMK AO2 SLP243 T00671033=
201712101852 METAR KATL 101852Z 30008KT 10SM CLR 06/M03 A3024 RMK AO2 SLP247 T00561033=
201712101752 METAR KATL 101752Z 31008KT 10SM CLR 05/M03 A3026 RMK AO2 SLP255 T00501033 10050 21033 58007=
201712101652 METAR KATL 101652Z 32010KT 10SM CLR 04/M04 A3029 RMK AO2 SLP266 T00391039=
201712101552 METAR KATL 101552Z 31006KT 10SM CLR 02/M04 A3028 RMK AO2 SLP264 T00221039=
201712101452 METAR KATL 101452Z 30007KT 10SM CLR 01/M05 A3028 RMK AO2 SLP265 T00061050 53011=
201712101352 METAR KATL 101352Z 32008KT 10SM CLR M02/M05 A3026 RMK AO2 SLP258 T10171050=
201712101252 METAR KATL 101252Z 29006KT 10SM CLR M03/M06 A3026 RMK AO2 SLP257 T10331056=
201712101152 METAR KATL 101152Z 28006KT 10SM CLR M03/M06 A3025 RMK AO2 SLP254 70004 T10331061 11006 21033 53018=
201712101052 METAR KATL 101052Z 29007KT 10SM CLR M03/M06 A3023 RMK AO2 SLP247 T10331061=
201712100952 METAR KATL 100952Z 28005KT 10SM CLR M03/M06 A3021 RMK AO2 SLP239 T10281061=
201712100852 METAR KATL 100852Z 29005KT 10SM CLR M02/M06 A3019 RMK AO2 SLP234 T10221061 53012=
201712100752 METAR KATL 100752Z 31007KT 10SM CLR M02/M06 A3018 RMK AO2 SLP228 T10171056=
201712100652 METAR KATL 100652Z 31005KT 10SM CLR M02/M04 A3016 RMK AO2 SLP222 T10171044=
201712100552 METAR KATL 100552Z 31008KT 10SM CLR M01/M03 A3016 RMK AO2 SLP221 T10061033 10011 21011 51021=
201712100452 METAR KATL 100452Z 31009KT 10SM CLR M01/M02 A3014 RMK AO2 SLP215 T10061022 400391006=
201712100352 METAR KATL 100352Z 29009KT 10SM FEW060 M01/M02 A3012 RMK AO2 SLP209 T10061017=
201712100252 METAR KATL 100252Z 27007KT 10SM CLR 00/M02 A3009 RMK AO2 SLP199 T00001017 51020=
201712100152 METAR KATL 100152Z 26009KT 10SM FEW060 01/M02 A3007 RMK AO2 SLP192 T00061017=
201712100052 METAR KATL 100052Z 26007KT 10SM SCT060 01/M02 A3005 RMK AO2 SLP186 T00061022=
201712092352 METAR KATL 092352Z 26006KT 10SM FEW060 01/M02 A3003 RMK AO2 SLP179 4/001 T00111022 10039 20006 53026=
201712092252 METAR KATL 092252Z 27006KT 10SM FEW060 01/M03 A3000 RMK AO2 SLP168 T00111028=
201712092152 METAR KATL 092152Z 27010KT 10SM FEW060 02/M03 A2996 RMK AO2 SLP153 T00221028=
201712092052 METAR KATL 092052Z 28013KT 10SM FEW026 FEW060 03/M04 A2995 RMK AO2 SLP150 T00331039 53001=
201712091952 METAR KATL 091952Z 27010KT 10SM FEW026 FEW060 04/M03 A2995 RMK AO2 SLP148 T00391028=
201712091852 METAR KATL 091852Z 28012KT 10SM FEW022 03/M03 A2995 RMK AO2 SLP149 T00281028=
201712091752 METAR KATL 091752Z 29011KT 10SM FEW018 02/M02 A2995 RMK AO2 SLP149 4/001 60004 T00221022 10022 20000 50000=
201712091652 METAR KATL 091652Z 29008G17KT 10SM FEW013 02/M02 A2995 RMK AO2 SLP151 T00171017=
201712091621 SPECI KATL 091621Z 30009KT 10SM SCT012 01/M01 A2995 RMK AO2 T00061011=
201712091552 METAR KATL 091552Z 30010KT 10SM BKN013 01/M01 A2994 RMK AO2 SLP148 T00061011=
201712091452 METAR KATL 091452Z 30010KT 6SM BR OVC008 00/00 A2995 RMK AO2 SNE21 SLP149 P0000 60004 T00000000 53007=
201712091440 SPECI KATL 091440Z 30009KT 6SM BR OVC007 00/00 A2995 RMK AO2 SNE21 P0000 T00000000=
201712091352 METAR KATL 091352Z 32009KT 4SM -SN BR BKN006 OVC022 00/00 A2994 RMK AO2 SLP146 P0001 T00000000=
201712091347 SPECI KATL 091347Z 31011KT 4SM -SN BR BKN006 OVC022 00/M01 A2994 RMK AO2 P0001=
201712091335 SPECI KATL 091335Z 31009KT 2 1/2SM -SN BR BKN006 BKN021 OVC027 00/00 A2994 RMK AO2 P0001 T00000000=
201712091252 METAR KATL 091252Z 31010KT 1 1/4SM -SN BR BKN006 OVC021 00/00 A2993 RMK AO2 SLP144 CIG 004V007 P0003 T00000000=
201712091207 SPECI KATL 091207Z 31008KT 1 1/2SM -SN BR BKN006 OVC019 00/00 A2992 RMK AO2 CIG 004V008 P0000 T00000000=
201712091152 METAR KATL 091152Z 30010KT 1 1/4SM -SN BR BKN004 OVC014 00/00 A2993 RMK AO2 SLP143 40002 SNINCR 1/2 CIG 003V006 P0004 60018 70112 T00000000 10017 20000 51012=
201712091130 SPECI KATL 091130Z 30008KT 1 1/2SM -SN BR BKN004 OVC014 01/01 A2992 RMK AO2 CIG 003V006 P0002 T00060006=
201712091057 SPECI KATL 091057Z 31009KT 2 1/2SM -SN BR BKN005 OVC014 01/01 A2991 RMK AO2 VIS 2V3 CIG 003V006 P0000 T00060006=
201712091052 METAR KATL 091052Z 31009KT 3SM -SN BR BKN005 OVC014 01/01 A2991 RMK AO2 SLP136 CIG 003V006 P0003 T00060006=
201712091049 SPECI KATL 091049Z 31010KT 3SM -SN BR BKN005 OVC014 01/01 A2991 RMK AO2 CIG 003V006 P0003=
201712091040 SPECI KATL 091040Z 31006KT 1 3/4SM -SN BR BKN005 OVC012 01/01 A2991 RMK AO2 CIG 003V006 P0003 T00060006=
201712091003 SPECI KATL 091003Z 32007KT 2 1/2SM -SN BR BKN004 OVC016 01/01 A2989 RMK AO2 CIG 003V006 P0000 T00060006=
201712090952 METAR KATL 090952Z 32007KT 3SM -SN BR BKN004 OVC016 01/01 A2989 RMK AO2 SLP131 CIG 003V006 P0002 T00060006=
201712090917 SPECI KATL 090917Z 35004KT 2SM -SN BR BKN004 OVC024 01/01 A2988 RMK AO2 P0001 T00060006=
201712090901 SPECI KATL 090901Z 35005KT 2SM -SN BR SCT004 OVC022 01/01 A2989 RMK AO2 PRESFR P0001 T00060006=
201712090852 METAR KATL 090852Z 33005KT 1 3/4SM -SN BR SCT004 OVC020 01/01 A2992 RMK AO2 SLP138 P0004 60009 T00060006 58001=
201712090848 SPECI KATL 090848Z 32006KT 1 3/4SM -SN BR SCT004 OVC018 01/01 A2992 RMK AO2 P0004=
201712090823 SPECI KATL 090823Z 32007KT 1 1/2SM -SN BR BKN004 OVC020 01/01 A2992 RMK AO2 BKN004 V SCT004 CIG 003V005 P0002 T00060006=
201712090803 SPECI KATL 090803Z 30006KT 1 1/2SM -SN BR SCT005 OVC016 01/01 A2994 RMK AO2 P0000 T00060006=
201712090752 METAR KATL 090752Z 31006KT 1 1/2SM -SN BR BKN005 BKN010 OVC014 01/01 A2993 RMK AO2 SLP143 CIG 004V006 P0003 T00060006=
201712090748 SPECI KATL 090748Z 31006KT 2SM -SN BR BKN005 BKN010 OVC014 01/01 A2993 RMK AO2 CIG 004V006 P0002=
201712090718 SPECI KATL 090718Z 32008KT 2 1/2SM -SN BR OVC004 01/01 A2991 RMK AO2 VIS 2V3 CIG 003V005 P0000 T00060006=
201712090708 SPECI KATL 090708Z 32007KT 4SM -SN BR OVC004 01/01 A2991 RMK AO2 CIG 002V005 P0000 T00060006=
201712090652 METAR KATL 090652Z 32006KT 2 1/2SM -SN BR OVC004 01/01 A2992 RMK AO2 RAB11E22SNB11 SLP139 VIS 2V3 CIG 002V005 P0002 T00060006=
201712090638 SPECI KATL 090638Z 31006KT 2SM -SN BR OVC004 01/01 A2991 RMK AO2 RAB11E22SNB11 CIG 003V006 P0001 T00110011=
201712090623 SPECI KATL 090623Z 33007KT 2 1/2SM -SN BR OVC006 01/01 A2990 RMK AO2 RAB11E22SNB11 PRESFR CIG 005V008 P0000 T00110011=
201712090613 SPECI KATL 090613Z 33006KT 5SM -RASN BR OVC006 02/02 A2991 RMK AO2 RAB11SNB11 CIG 005V008 P0000 T00170017=
201712090552 METAR KATL 090552Z 03005KT 1SM R09R/P6000FT OVC005 02/02 A2992 RMK AO2 SFC VIS 7 SLP140 CIG 004V007 60006 T00170017 10017 20006 51004=
201712090452 METAR KATL 090452Z 02009KT 1SM R09R/P6000FT OVC004 01/01 A2990 RMK AO2 SFC VIS 7 PRESFR SLP133 CIG 003V006 T00110011 400670006=
201712090435 SPECI KATL 090435Z 36007KT 1SM R09R/P6000FT OVC004 01/01 A2993 RMK AO2 SFC VIS 7 CIG 003V006 T00110011=
201712090352 METAR KATL 090352Z 33008KT 3SM OVC006 01/01 A2995 RMK AO2 SFC VIS 7 SLP149 CIG 004V008 T00110011=
201712090252 METAR KATL 090252Z 04009KT 3SM BKN006 OVC015 02/01 A2991 RMK AO2 SFC VIS 8 RAE10SNE0156 SLP135 CIG 004V008 P0000 60006 T00170011 58009=
201712090157 SPECI KATL 090157Z 04008KT 3SM -RA BKN005 OVC015 01/01 A2993 RMK AO2 SFC VIS 7 SNE56 CIG 004V008 PCPN VRY LGT P0000 T00110011=
201712090152 METAR KATL 090152Z 03007KT 3SM -RASN BKN005 OVC015 01/01 A2994 RMK AO2 SFC VIS 7 RAB28 SLP144 CIG 004V008 PCPN VRY LGT P0002 T00110011=
201712090106 SPECI KATL 090106Z 34007KT 3SM -SN BR BKN006 BKN012 OVC030 01/01 A2995 RMK AO2 SFC VIS 4 P0001 T00110011=
201712090052 METAR KATL 090052Z 33009KT 2SM -SN BR BKN006 BKN012 OVC030 01/01 A2996 RMK AO2 TWR VIS 3 RAE38 PRESRR SLP151 P0004 T00060006=
201712082352 METAR KATL 082352Z 33006KT 3SM -RASN BR SCT005 BKN010 OVC060 01/01 A2994 RMK AO2 SFC VIS 5 GSE49 PRESRR SLP144 P0007 60052 I6000 T00110011 10022 20006 53006=
201712082252 METAR KATL 082252Z 36007KT 3SM -RASNGS BR SCT005 BKN010 OVC040 01/01 A2992 RMK AO2 SFC VIS 4 RAB20PLE20GSB41 SLP139 P0009 T00110011=
201712082242 SPECI KATL 082242Z 01011KT 1 1/2SM -SNRAGS BR SCT005 BKN010 OVC035 01/01 A2990 RMK AO2 SFC VIS 2 RAB20PLE20GSB41 P0008 T00110006=
201712082220 SPECI KATL 082220Z 34008KT 1 1/2SM -SNRA BR SCT005 BKN010 OVC020 01/01 A2993 RMK AO2 SFC VIS 2 RAB20PLE20 OCNL -SG P0004 T00060006=
201712082152 METAR KATL 082152Z 35006KT 1SM R09R/P6000FT -SNPL BR BKN005 OVC009 01/01 A2992 RMK AO2 SFC VIS 1 1/2 RAE25PLE25B49 SLP140 P0008 T00060006=
201712082126 SPECI KATL 082126Z 34006KT 1SM R09R/P6000FT -SN BR BKN005 OVC009 01/01 A2993 RMK AO2 SFC VIS 1 1/2 RAE25PLE25 P0004 T00110011=
201712082052 METAR KATL 082052Z 36008KT 1SM R09R/P6000FT -RASNPL BR OVC005 02/01 A2992 RMK AO2 SFC VIS 4 PLB44SNB50 PRESFR SLP136 P0004 60028 I1000 I3000 T00170011 55025=
201712082045 SPECI KATL 082045Z 34006KT 1SM R09R/P6000FT -PLRA BR OVC005 01/01 A2994 RMK AO2 SFC VIS 5 PLB44 P0004 I1000 T00110011=
201712081952 METAR KATL 081952Z 01010KT 1SM R09R/P6000FT -RA BR OVC006 02/01 A2990 RMK AO2 SFC VIS 4 PLE1857B08E26 SLP130 P0012 I1000 T00170011=
201712081927 SPECI KATL 081927Z 36010KT 1SM R09R/P6000FT -RA BR BKN005 OVC018 02/01 A2991 RMK AO2 SFC VIS 5 PLE1857B08E26 P0009 T00170011=
201712081909 SPECI KATL 081909Z 02014KT 1SM R09R/6000VP6000FT -RAPL BR BKN005 BKN019 OVC037 01/01 A2991 RMK AO2 SFC VIS 3 PLE1857B08 P0004 T00110011=
201712081858 SPECI KATL 081858Z 02012KT 1SM R09R/P6000FT -RA BR BKN005 OVC044 01/01 A2992 RMK AO2 SFC VIS 5 PLE57 P0000 T00110011=
201712081852 METAR KATL 081852Z 01011KT 1SM R09R/P6000FT -RAPL BR OVC005 01/01 A2992 RMK AO2 SFC VIS 5 PRESFR SLP138 P0012 T00110011=
201712081829 SPECI KATL 081829Z 01008KT 1SM R09R/P6000FT -RAPL BR OVC005 01/01 A2995 RMK AO2 SFC VIS 5 P0010 T00110011=
201712081752 METAR KATL 081752Z 34008KT 1SM R09R/P6000FT -PLRA BR BKN005 BKN016 OVC030 01/01 A2999 RMK AO2 SFC VIS 4 RAB21PLB1653E1656B21SNE45 SLP163 P0013 60036 I6000 T00110011 10033 20006 58010=
201712081722 SPECI KATL 081722Z 34007KT 1SM R09R/6000VP6000FT -PLSNRA BR BKN005 BKN013 OVC020 01/01 A3001 RMK AO2 SFC VIS 3 RAB21PLB1653E1656B21 P0009 T00110011=
201712081652 METAR KATL 081652Z 32007KT 1SM R09R/3500VP6000FT -SN BR BKN005 BKN010 OVC040 01/01 A3006 RMK AO2 RAB25E31PLB18E46SNE25B31 SLP184 P0010 T00060006=
201712081650 SPECI KATL 081650Z 31007KT 3/4SM R09R/3500VP6000FT -SN BR BKN005 BKN010 OVC040 01/01 A3006 RMK AO2 TWR VIS 1 RAB25E31PLB18E46SNE25B31 P0010=
201712081634 SPECI KATL 081634Z 32010KT 1SM R09R/P6000FT -PLSN BR BKN006 BKN010 OVC040 01/01 A3005 RMK AO2 SFC VIS 2 RAB25E31PLB18SNE25B31 PRESRR P0007 T00110011=
201712081631 SPECI KATL 081631Z 32008KT 1SM R09R/P6000FT -PLSN BR BKN006 BKN010 OVC030 01/01 A3004 RMK AO2 SFC VIS 4 RAB25E31PLB18SNE25B31 PRESRR P0007 T00110011=
201712081625 SPECI KATL 081625Z 34007KT 1SM R09R/5000VP6000FT -PLRA BR BKN006 BKN020 OVC040 01/01 A3002 RMK AO2 SFC VIS 3 RAB25PLB18SNE25 P0006 T00110011=
201712081618 SPECI KATL 081618Z 35008KT 1SM R09R/4500VP6000FT -SNPL BR BKN006 BKN012 OVC030 01/01 A3002 RMK AO2 SFC VIS 2 PLB18 P0005 T00110011=
201712081609 SPECI KATL 081609Z 36010KT 1SM R09R/3500V5000FT -SN BR BKN006 BKN010 OVC030 01/01 A3002 RMK AO2 P0003 T00110011=
201712081559 SPECI KATL 081559Z 35010KT 1 1/2SM R09R/6000VP6000FT -SN BR BKN006 BKN030 OVC050 01/01 A3003 RMK AO2 SFC VIS 1 3/4 P0001 T00110011=
201712081552 METAR KATL 081552Z 33010KT 3SM -SN BR BKN006 BKN020 OVC040 02/01 A3006 RMK AO2 RAE13B17E49PLE13B17E52SNB30E37B44 SLP185 P0004 T00170011=
201712081545 SPECI KATL 081545Z 32010KT 3SM -SNPLRA BKN006 BKN030 OVC040 02/02 A3007 RMK AO2 SFC VIS 4 RAE13B17PLE13B17SNB30E37B44 PRESRR P0003 T00170017=
201712081538 SPECI KATL 081538Z 34010KT 3SM -PLRA BKN006 BKN030 OVC050 02/02 A3003 RMK AO2 SFC VIS 5 RAE13B17PLE13B17SNB30E37 P0003 T00170017=
201712081530 SPECI KATL 081530Z 34011KT 3SM -PLSN BKN006 BKN027 OVC050 02/02 A3004 RMK AO2 SFC VIS 6 RAE13B17E30PLE13B17SNB30 P0002 T00170017=
201712081517 SPECI KATL 081517Z 35008KT 3SM -PLRA BKN006 BKN027 OVC050 02/02 A3004 RMK AO2 SFC VIS 6 RAE13B17PLE13B17 P0002 T00220017 $=
201712081513 SPECI KATL 081513Z 35009KT 3SM BR BKN006 BKN060 OVC080 02/02 A3004 RMK AO2 SFC VIS 6 RAE13PLE13 P0002 T00220017 $=
201712081452 METAR KATL 081452Z 35008KT 3SM -PLRA BR BKN006 BKN050 OVC080 02/02 A3002 RMK AO2 PLB20 SLP172 P0008 60009 I1000 I3000 T00220017 50002=
201712081433 SPECI KATL 081433Z 34010KT 3SM -PLRA BR SCT008 BKN043 OVC050 02/02 A3003 RMK AO2 PLB20 P0003 I1000 T00220022=
201712081420 SPECI KATL 081420Z 35011KT 5SM -PLRA BR FEW008 BKN045 OVC055 03/02 A3003 RMK AO2 PLB20 P0001 T00280017=
201712081352 METAR KATL 081352Z 34012KT 6SM -RA BR FEW006 SCT010 OVC036 03/02 A3004 RMK AO2 SLP177 P0001 T00280022=
201712081333 SPECI KATL 081333Z 35012KT 6SM -RA BR FEW007 SCT010 OVC038 03/02 A3002 RMK AO2 P0000 T00330022=
201712081252 METAR KATL 081252Z 34010KT 7SM -RA BKN011 OVC043 03/02 A3002 RMK AO2 RAB47 SLP172 CIG 009V013 P0000 T00330022=
201712081152 METAR KATL 081152Z 35009KT 10SM FEW012 BKN046 OVC075 03/02 A3002 RMK AO2 RAB1058E17 SLP169 VIRGA SW-NW-NE P0000 60002 70002 T00330017 10061 20033 58009=
201712081052 METAR KATL 081052Z 35009KT 10SM FEW012 BKN048 OVC070 03/02 A3003 RMK AO2 RAE30 SLP173 P0002 T00330017=
201712080952 METAR KATL 080952Z 34013KT 10SM -RA FEW014 OVC048 04/01 A3004 RMK AO2 SLP177 P0000 T00390011=
201712080852 METAR KATL 080852Z 34005KT 10SM -RA OVC050 05/01 A3004 RMK AO2 RAE11B50 SLP179 PCPN VRY LGT P0000 60000 T00500011 50004=
201712080752 METAR KATL 080752Z 34009KT 10SM -RA OVC055 05/01 A3006 RMK AO2 RAB20 SLP185 P0000 T00500011=
201712080652 METAR KATL 080652Z 31008KT 10SM OVC055 06/01 A3004 RMK AO2 SLP175 VIRGA OHD-ALQDS T00610011=
201712080552 METAR KATL 080552Z 35004KT 10SM BKN065 OVC090 06/02 A3003 RMK AO2 RAB16E45 PRESFR SLP174 P0000 60000 T00610017 10078 20061 58021=
201712080452 METAR KATL 080452Z 30005KT 10SM BKN065 OVC080 07/02 A3009 RMK AO2 SLP192 VIRGA E-OHD-SW T00670017 400890050=
201712080352 METAR KATL 080352Z 32006KT 10SM SCT065 BKN080 OVC110 06/02 A3007 RMK AO2 PRESFR SLP189 T00610017=
201712080252 METAR KATL 080252Z 28005KT 10SM SCT065 BKN080 OVC110 06/02 A3010 RMK AO2 SLP197 T00610017 56004=
201712080152 METAR KATL 080152Z 25004KT 10SM FEW080 BKN110 OVC150 07/02 A3010 RMK AO2 SLP197 T00670017=
201712080052 METAR KATL 080052Z 23004KT 10SM FEW080 BKN110 BKN150 07/02 A3011 RMK AO2 SLP200 T00670017=
201712072352 METAR KATL 072352Z 27005KT 10SM BKN080 OVC100 08/00 A3011 RMK AO2 SLP200 VIGRA NE-OHD-SW T00780000 10089 20072 53003=
201712072252 METAR KATL 072252Z 27003KT 10SM SCT070 BKN085 OVC110 08/00 A3010 RMK AO2 SLP196 VIRGA OHD-ALQDS T00780000=
201712072152 METAR KATL 072152Z 00000KT 10SM BKN060 BKN080 OVC100 08/00 A3010 RMK AO2 SLP197 VIRGA OHD & ALQDS T00830000=
201712072052 METAR KATL 072052Z 28004KT 10SM BKN080 BKN090 OVC110 08/M01 A3010 RMK AO2 SLP196 VIRGA OHD & ALQDS T00831011 56012=
201712071952 METAR KATL 071952Z 33007KT 10SM BKN080 BKN110 OVC140 08/M02 A3011 RMK AO2 SLP200 VIRGA OHD & ALQDS T00831022=
201712071852 METAR KATL 071852Z 31005KT 10SM BKN070 BKN100 OVC140 08/M01 A3010 RMK AO2 SLP198 VIRGA NE-E & E-SE & SW-W T00831006=
201712071752 METAR KATL 071752Z 31007KT 10SM BKN070 BKN090 OVC110 08/M01 A3013 RMK AO2 SLP209 VIRGA DSNT NE & NW T00831006 10083 20056 58015=
201712071652 METAR KATL 071652Z 32006KT 10SM FEW005 BKN070 BKN110 OVC140 07/M01 A3017 RMK AO2 SLP222 VIRGA N-NE & SW-NW FU FEW005 T00721006=
201712071552 METAR KATL 071552Z 31006KT 10SM FEW090 BKN110 OVC140 07/M01 A3019 RMK AO2 SLP227 VIRGA DSNT NW-N T00671006=
201712071452 METAR KATL 071452Z 32007KT 10SM FEW090 SCT110 OVC140 06/M01 A3018 RMK AO2 SLP225 VIRGA OHD-SW-W & DSNT N-NE T00611006 53013=
201712071352 METAR KATL 071352Z 33006KT 10SM FEW095 BKN130 OVC180 06/M01 A3017 RMK AO2 SLP220 VIRGA OHD-ALQDS T00561011=
201712071252 METAR KATL 071252Z 32006KT 10SM BKN095 BKN130 OVC200 06/M01 A3015 RMK AO2 SLP215 VIRGA W-N-NE T00561011=
201712071152 METAR KATL 071152Z 32008KT 10SM OVC120 06/M01 A3014 RMK AO2 SLP213 VIRGA NW-NE 70010 T00561011 10056 20050 56003=
201712071052 METAR KATL 071052Z 31012KT 10SM FEW090 SCT110 OVC140 06/M01 A3014 RMK AO2 SLP214 VIRGA NE T00561011=
201712070952 METAR KATL 070952Z 31010KT 10SM SCT090 BKN120 OVC150 05/M01 A3014 RMK AO2 SLP211 VIRGA NE-SE-SW T00501011=
201712070852 METAR KATL 070852Z 31010KT 10SM BKN090 OVC140 06/M02 A3015 RMK AO2 SLP216 VIRGA OHD-ALQDS T00561017 50000=
201712070752 METAR KATL 070752Z 32009KT 10SM OVC095 06/M02 A3015 RMK AO2 SLP217 VIRGA OHD-ALQDS T00561017=
201712070652 METAR KATL 070652Z 31008KT 10SM FEW085 BKN110 OVC150 06/M02 A3015 RMK AO2 SLP215 VIRGA NW-NE-SE T00561022=
201712070552 METAR KATL 070552Z 29006KT 10SM FEW085 BKN120 OVC150 05/M02 A3015 RMK AO2 SLP216 VIRGA OHD-ALQDS T00501022 10056 20044 58008=
201712070452 METAR KATL 070452Z 31009KT 10SM BKN110 OVC150 06/M02 A3016 RMK AO2 SLP218 T00561022 401280028=
201712070352 METAR KATL 070352Z 32009KT 10SM BKN120 OVC150 06/M02 A3017 RMK AO2 SLP223 T00561022=
201712070252 METAR KATL 070252Z 31010KT 10SM BKN110 OVC150 05/M02 A3018 RMK AO2 SLP224 T00501022 51018=
201712070152 METAR KATL 070152Z 32010KT 10SM OVC100 05/M02 A3017 RMK AO2 SLP222 T00501017=
201712070052 METAR KATL 070052Z 31012KT 10SM BKN120 OVC150 05/M02 A3016 RMK AO2 SLP218 T00501017=
201712062352 METAR KATL 062352Z 33011KT 10SM FEW090 BKN120 OVC150 04/M01 A3012 RMK AO2 SLP205 60010 T00441006 10044 20028 51008=
201712062252 METAR KATL 062252Z 31008KT 10SM FEW080 BKN110 OVC150 04/02 A3011 RMK AO2 RAE04 SLP202 P0000 T00440017=
201712062152 METAR KATL 062152Z 31011KT 10SM -RA FEW060 BKN080 OVC110 04/02 A3012 RMK AO2 RAE03B46 SLP205 P0000 T00390017=
201712062052 METAR KATL 062052Z 30007KT 10SM -RA FEW050 SCT070 OVC100 04/01 A3009 RMK AO2 SLP196 VIRGA DSNT NW-N P0000 60010 T00390011 56025=
201712061952 METAR KATL 061952Z 32007KT 10SM -RA FEW050 SCT080 OVC100 03/02 A3011 RMK AO2 SLP202 P0006 T00330017=
201712061852 METAR KATL 061852Z 31010KT 10SM -RA FEW070 BKN090 OVC110 03/01 A3014 RMK AO2 SLP212 P0004 T00330006=
201712061752 METAR KATL 061752Z 31011KT 10SM -RA FEW050 BKN080 OVC110 05/M01 A3017 RMK AO2 SLP219 P0000 60000 T00501006 10056 20044 58005=
201712061652 METAR KATL 061652Z 31008KT 10SM -RA FEW070 BKN090 OVC110 06/M01 A3018 RMK AO2 RAB35 SLP223 P0000 T00561011=
201712061552 METAR KATL 061552Z 30007KT 10SM FEW050 SCT080 OVC110 06/M03 A3018 RMK AO2 SLP223 VIRGA N-NE & SE & NW T00561028=
201712061452 METAR KATL 061452Z 29009KT 10SM FEW080 BKN110 OVC150 04/M01 A3018 RMK AO2 RAB25E34 SLP224 VIRGA OHD & ALQDS P0000 60000 T00441011 53016=
201712061352 METAR KATL 061352Z 31012KT 10SM FEW090 BKN110 OVC180 04/M01 A3016 RMK AO2 SLP215 VIRGA OHD-ALQDS T00441006=
201712061252 METAR KATL 061252Z 32011KT 10SM FEW110 BKN140 OVC200 04/M01 A3013 RMK AO2 SLP204 VIRGA SW-NW-NE T00441006=
201712061152 METAR KATL 061152Z 30010KT 10SM BKN180 BKN250 04/00 A3014 RMK AO2 SLP206 60000 70039 T00440000 10128 20044 53004=
201712061052 METAR KATL 061052Z 31010KT 10SM BKN180 OVC250 05/01 A3012 RMK AO2 SLP200 T00500006=
201712060952 METAR KATL 060952Z 32012KT 10SM FEW120 BKN180 BKN250 06/02 A3009 RMK AO2 SLP190 T00560017=
201712060924 SPECI KATL 060924Z 32013KT 10SM SCT025 SCT120 BKN200 BKN250 07/02 A3011 RMK AO2 T00670022=
201712060852 METAR KATL 060852Z 32012KT 10SM BKN023 BKN120 BKN200 BKN250 07/03 A3012 RMK AO2 SLP199 60000 T00720033 53013=
201712060834 SPECI KATL 060834Z 31011KT 10SM BKN022 OVC120 07/06 A3012 RMK AO2 T00720056=
201712060752 METAR KATL 060752Z 32012G20KT 10SM FEW010 SCT018 BKN110 OVC200 08/04 A3011 RMK AO2 SLP194 T00780044=
201712060746 SPECI KATL 060746Z 32015G20KT 10SM SCT018 OVC110 08/05 A3011 RMK AO2=
201712060725 SPECI KATL 060725Z 32010KT 10SM SCT010 OVC018 09/08 A3011 RMK AO2 CIG 016V020 T00890078=
201712060652 METAR KATL 060652Z 33015KT 10SM SCT006 OVC010 10/08 A3010 RMK AO2 PK WND 33027/0629 RAE40 SLP190 CIG 008V012 P0000 T01000078=
201712060552 METAR KATL 060552Z 31009KT 9SM -RA BKN006 BKN015 OVC110 13/13 A3009 RMK AO2 RAB35 SLP185 P0001 60015 T01280128 10139 20128 58002=
201712060527 SPECI KATL 060527Z 30007KT 10SM SCT005 BKN015 OVC110 13/13 A3010 RMK AO2 T01280128=
201712060452 METAR KATL 060452Z 31006KT 10SM FEW004 SCT050 OVC110 13/13 A3009 RMK AO2 RAE37 SLP187 P0001 T01280128 402110128=
201712060352 METAR KATL 060352Z 28005KT 7SM -RA SCT004 BKN030 OVC100 13/13 A3010 RMK AO2 SLP190 SCT004 V BKN P0000 T01280128=
201712060252 METAR KATL 060252Z 27004KT 6SM -RA BR SCT005 BKN035 OVC110 13/13 A3009 RMK AO2 SLP188 SCT005 V BKN P0003 60013 T01330133 56003=
201712060224 SPECI KATL 060224Z 32006KT 7SM -RA SCT005 BKN025 OVC110 13/13 A3007 RMK AO2 P0002 T01330133=
201712060152 METAR KATL 060152Z 30003KT 8SM -RA FEW006 BKN080 OVC110 13/13 A3009 RMK AO2 SLP189 P0003 T01330133=
201712060052 METAR KATL 060052Z 04004KT 7SM -RA FEW025 BKN070 OVC120 14/13 A3008 RMK AO2 SLP185 P0007 T01390133=
201712052352 METAR KATL 052352Z 33007KT 4SM RA BR FEW007 BKN040 OVC100 14/13 A3010 RMK AO2 SLP191 P0014 60024 T01390133 10211 20139 53020=
201712052252 METAR KATL 052252Z 33014KT 7SM -RA FEW010 BKN032 BKN055 OVC150 14/14 A3008 RMK AO2 PK WND 30027/2205 WSHFT 2204 RAB09 SLP185 CB DSNT SW P0010 T01440139=
201712052224 SPECI KATL 052224Z 32016G26KT 7SM -RA FEW010 BKN024 BKN055 BKN150 16/13 A3009 RMK AO2 PK WND 30027/2205 WSHFT 2204 RAB09 PRESRR P0000 T01560133=
201712052212 SPECI KATL 052212Z 34020G27KT 9SM -RA BKN022CB BKN030 BKN055 BKN150 17/14 A3007 RMK AO2 PK WND 30027/2205 RAB09 CB VC W-NW MOV E P0000 T01670139=
201712052152 METAR KATL 052152Z 22009KT 10SM BKN030 BKN060 BKN140 21/16 A3005 RMK AO2 SLP170 SHRA VC SW-NW T02110161=
201712052052 METAR KATL 052052Z 20013KT 10SM BKN030 BKN060 BKN130 21/16 A3004 RMK AO2 SLP168 60000 T02110161 56024=
201712051952 METAR KATL 051952Z 21011KT 10SM FEW015 SCT060 OVC130 21/16 A3006 RMK AO2 SLP175 T02060161=
201712051852 METAR KATL 051852Z 21009KT 10SM FEW020 SCT060 OVC130 20/16 A3009 RMK AO2 RAB38E47 SLP185 P0000 T02000161=
201712051752 METAR KATL 051752Z 22009KT 10SM SCT020 SCT060 BKN120 OVC150 19/16 A3011 RMK AO2 SLP194 T01940161 10194 20144 56021=
201712051749 SPECI KATL 051749Z 21008G17KT 10SM BKN020 BKN060 OVC140 19/16 A3011 RMK AO2=
201712051652 METAR KATL 051652Z 20007KT 10SM FEW015 SCT060 OVC140 18/16 A3014 RMK AO2 SLP202 BINOVC DSNT SE-S T01830156=
201712051552 METAR KATL 051552Z 20010KT 8SM FEW012 BKN060 OVC150 17/15 A3018 RMK AO2 SLP217 T01670150=
201712051513 SPECI KATL 051513Z 17012KT 7SM FEW007 SCT010 OVC060 16/15 A3018 RMK AO2 T01610150=
201712051452 METAR KATL 051452Z 17011KT 3SM BR FEW005 SCT008 OVC060 16/15 A3019 RMK AO2 SFC VIS 6 SLP222 T01560150 50001=
201712051447 SPECI KATL 051447Z 18011KT 3SM BR FEW005 SCT008 OVC060 16/14 A3020 RMK AO2 SFC VIS 6=
201712051410 SPECI KATL 051410Z 17008KT 2SM BR BKN005 BKN008 OVC060 15/14 A3020 RMK AO2 SFC VIS 5 T01500144=
201712051352 METAR KATL 051352Z 17009KT 2SM BR SCT005 BKN045 OVC065 15/14 A3020 RMK AO2 SFC VIS 5 SLP223 BINOVC T01500144=
201712051328 SPECI KATL 051328Z 18007KT 2SM BR BKN005 BKN040 OVC070 14/14 A3019 RMK AO2 SFC VIS 4 CIG 003V007 BINOVC T01440144=
201712051252 METAR KATL 051252Z 18006KT 5SM BR BKN006 BKN040 OVC070 14/14 A3019 RMK AO2 SLP222 CIG 005V008 BINOVC T01440144=
201712051152 METAR KATL 051152Z 16008KT 4SM BR BKN005 BKN040 OVC070 14/14 A3019 RMK AO2 SLP221 CIG 004V007 T01440144 10144 20133 56007=
201712051147 SPECI KATL 051147Z 15007KT 4SM BR BKN005 BKN040 OVC070 14/14 A3019 RMK AO2 CIG 004V007 BINOVC=
201712051052 METAR KATL 051052Z 13004KT 7SM OVC004 14/13 A3020 RMK AO2 SLP223 T01390133=
201712051043 SPECI KATL 051043Z 14004KT 5SM BR OVC004 14/13 A3020 RMK AO2 T01390133=
201712050952 METAR KATL 050952Z 13006KT 7SM OVC005 14/13 A3020 RMK AO2 SLP223 T01390133=
201712050852 METAR KATL 050852Z 12006KT 7SM OVC006 14/13 A3021 RMK AO2 SLP227 T01390128 50001=
201712050752 METAR KATL 050752Z 13006KT 10SM BKN009 OVC042 14/12 A3021 RMK AO2 SLP228 T01390117=
201712050750 SPECI KATL 050750Z 13006KT 10SM BKN009 OVC042 14/12 A3021 RMK AO2=
201712050657 SPECI KATL 050657Z 13005KT 10SM BKN028 BKN041 OVC250 14/12 A3021 RMK AO2 T01390117=
201712050652 METAR KATL 050652Z 13006KT 10SM FEW030 BKN041 OVC250 14/12 A3021 RMK AO2 SLP227 BINOVC T01390117=
201712050552 METAR KATL 050552Z 12006KT 10SM FEW032 OVC040 14/11 A3021 RMK AO2 SLP227 BINOVC T01390111 10161 20139 58007=
201712050452 METAR KATL 050452Z 12007KT 10SM BKN038 BKN250 14/11 A3022 RMK AO2 SLP232 T01390111 401890083=
201712050352 METAR KATL 050352Z 12006KT 10SM BKN035 BKN250 14/11 A3023 RMK AO2 SLP236 T01390111=
201712050252 METAR KATL 050252Z 12007KT 10SM FEW040 SCT250 14/11 A3023 RMK AO2 SLP236 T01440106 50002=
201712050152 METAR KATL 050152Z 11006KT 10SM FEW032 BKN040 BKN250 16/11 A3023 RMK AO2 SLP237 T01560111=
201712050052 METAR KATL 050052Z 12007KT 10SM BKN036 BKN250 16/11 A3022 RMK AO2 SLP235 T01610111=
201712042352 METAR KATL 042352Z 12006KT 10SM BKN035 BKN250 16/11 A3022 RMK AO2 SLP234 T01610106 10189 20161 53005=
201712042252 METAR KATL 042252Z 14005KT 10SM FEW035 SCT250 16/10 A3021 RMK AO2 SLP231 T01610100=
201712042152 METAR KATL 042152Z 13009KT 10SM SCT250 18/09 A3021 RMK AO2 SLP229 T01780094=
201712042052 METAR KATL 042052Z 12007KT 10SM FEW250 18/09 A3021 RMK AO2 SLP228 T01830089 56017=
201712041952 METAR KATL 041952Z 15007KT 110V180 9SM FEW040 FEW150 BKN250 18/09 A3022 RMK AO2 SLP232 T01830094=
201712041852 METAR KATL 041852Z 14005G15KT 10SM FEW035 FEW200 BKN250 18/09 A3024 RMK AO2 SLP238 T01780089=
201712041752 METAR KATL 041752Z 10012KT 10SM FEW030 FEW200 SCT250 18/09 A3026 RMK AO2 SLP246 T01780094 10178 20083 58009=
201712041652 METAR KATL 041652Z 13010G16KT 10SM FEW030 FEW250 16/09 A3028 RMK AO2 SLP253 T01610094=
201712041552 METAR KATL 041552Z 13011G18KT 10SM FEW015 FEW250 14/11 A3029 RMK AO2 SLP257 T01440106=
201712041452 METAR KATL 041452Z 12008KT 8SM FEW150 FEW200 SCT250 13/10 A3029 RMK AO2 SLP256 T01280100 51011=
201712041352 METAR KATL 041352Z 10011KT 8SM FEW150 SCT250 11/10 A3027 RMK AO2 SLP252 T01110100=
201712041252 METAR KATL 041252Z 10007KT 4SM BR FEW150 SCT200 SCT250 09/09 A3027 RMK AO2 SLP249 VIS LWR NE-E T00940089=
201712041152 METAR KATL 041152Z 09005KT 7SM SCT250 09/09 A3025 RMK AO2 SLP244 T00890089 10106 20083 53013=
201712041052 METAR KATL 041052Z 10004KT 8SM FEW010 SCT250 09/09 A3023 RMK AO2 SLP236 T00890089=
201712040952 METAR KATL 040952Z 10005KT 8SM FEW010 SCT250 09/09 A3022 RMK AO2 SLP232 T00890089=
201712040852 METAR KATL 040852Z 08005KT 9SM FEW200 SCT250 09/09 A3021 RMK AO2 SLP229 T00890089 53003=
201712040752 METAR KATL 040752Z 09004KT 8SM FEW010 FEW200 09/09 A3021 RMK AO2 SLP228 T00890089=
201712040652 METAR KATL 040652Z 10004KT 8SM MIFG FEW010 FEW200 09/09 A3020 RMK AO2 SLP225 T00940094=
201712040552 METAR KATL 040552Z 07006KT 8SM MIFG FEW200 SCT250 10/10 A3020 RMK AO2 SLP226 T01000100 10167 20100 58002=
201712040452 METAR KATL 040452Z 00000KT 8SM SCT250 BKN300 11/11 A3022 RMK AO2 SLP231 T01110106 402060100=
201712040352 METAR KATL 040352Z 00000KT 9SM FEW180 BKN250 BKN300 12/10 A3021 RMK AO2 SLP230 T01170100=
201712040252 METAR KATL 040252Z 14004KT 10SM SCT180 BKN250 BKN300 13/11 A3021 RMK AO2 SLP229 T01280106 51012=
201712040152 METAR KATL 040152Z 15004KT 10SM FEW180 SCT250 SCT300 13/09 A3020 RMK AO2 SLP227 T01330094=
201712040052 METAR KATL 040052Z 02004KT 10SM FEW180 SCT250 BKN300 16/06 A3019 RMK AO2 SLP221 T01610061=
201712032352 METAR KATL 032352Z 18003KT 10SM FEW150 BKN200 BKN250 16/07 A3017 RMK AO2 SLP216 T01610067 10206 20156 53008=
201712032252 METAR KATL 032252Z 22003KT 10SM FEW150 BKN200 BKN250 17/07 A3015 RMK AO2 SLP210 T01720067=
201712032152 METAR KATL 032152Z 00000KT 10SM SCT200 BKN250 BKN300 19/06 A3015 RMK AO2 SLP206 T01940056=
201712032052 METAR KATL 032052Z 01004KT 10SM FEW200 SCT250 BKN300 20/06 A3015 RMK AO2 SLP205 T02000056 56010=
201712031952 METAR KATL 031952Z 35005KT 10SM FEW200 SCT250 BKN300 20/06 A3015 RMK AO2 SLP207 T02000061=
201712031852 METAR KATL 031852Z 01006KT 10SM SCT250 BKN300 19/07 A3016 RMK AO2 SLP210 T01940067=
201712031752 METAR KATL 031752Z 36004KT 10SM SCT250 BKN300 19/07 A3018 RMK AO2 SLP216 T01890067 10189 20100 58013=
201712031652 METAR KATL 031652Z 07004KT 10SM SCT250 BKN300 17/08 A3020 RMK AO2 SLP225 T01720078=
201712031552 METAR KATL 031552Z 02010KT 10SM FEW003 SCT250 SCT300 14/09 A3022 RMK AO2 SLP233 T01440089=
201712031452 METAR KATL 031452Z 00000KT 4SM BR BCFG FEW003 SCT250 14/12 A3022 RMK AO2 SLP231 VIS NW-N 1 1/2 NE-E 1/2 T01440117 51013=
201712031352 METAR KATL 031352Z 33003KT 4SM BR BCFG FEW003 FEW250 12/11 A3021 RMK AO2 SLP228 VIS N-E 3/4 T01220111=
201712031252 METAR KATL 031252Z 33003KT 3SM BR BCFG FEW002 FEW250 11/11 A3020 RMK AO2 SLP224 FG BANK NW-NE T01060106=
201712031152 METAR KATL 031152Z 34004KT 7SM FEW003 11/10 A3018 RMK AO2 SLP219 VIS LWR NE-SE T01060100 10144 20106 53006=
201712031052 METAR KATL 031052Z 34005KT 8SM FEW003 11/10 A3016 RMK AO2 SLP212 FG BANK NE-SE T01060100=
201712031027 SPECI KATL 031027Z 35005KT 7SM FEW005 FEW200 11/11 A3016 RMK AO2 FG BANK NE-SE T01110106=
201712030952 METAR KATL 030952Z VRB03KT 8SM FEW037 SCT250 12/11 A3016 RMK AO2 SLP210 T01220106=
201712030852 METAR KATL 030852Z 33004KT 6SM BR SCT037 12/11 A3016 RMK AO2 SLP211 T01170111 50001=
201712030752 METAR KATL 030752Z 31004KT 7SM FEW003 FEW250 12/12 A3016 RMK AO2 SLP211 T01220117=
201712030652 METAR KATL 030652Z 31003KT 7SM FEW003 FEW030 SCT250 12/12 A3016 RMK AO2 SLP210 VIS LWR E-S T01220117=
201712030647 SPECI KATL 030647Z 31003KT 7SM FEW003 FEW030 SCT250 12/12 A3015 RMK AO2 VIS LWR E-S=
201712030552 METAR KATL 030552Z 00000KT 7SM FEW028 SCT040 SCT250 14/13 A3016 RMK AO2 SLP209 T01390133 10178 20139 58002=
201712030458 SPECI KATL 030458Z 00000KT 7SM FEW015 SCT028 BKN042 BKN259 15/14 A3018 RMK AO2 T01500139=
201712030452 METAR KATL 030452Z 00000KT 7SM FEW015 BKN028 OVC042 15/14 A3018 RMK AO2 SLP216 BINOVC T01500139 402110100=
201712030402 SPECI KATL 030402Z 00000KT 6SM BR BKN018 BKN038 BKN250 15/13 A3018 RMK AO2 T01500133=
201712030352 METAR KATL 030352Z 00000KT 7SM SCT016 BKN038 BKN250 15/14 A3017 RMK AO2 SLP216 T01500139=
201712030336 SPECI KATL 030336Z 00000KT 7SM SCT016 BKN040 BKN250 15/13 A3017 RMK AO2 T01500133=
201712030322 SPECI KATL 030322Z 00000KT 7SM BKN016 OVC034 17/14 A3017 RMK AO2 BINOVC T01670139=
201712030252 METAR KATL 030252Z 00000KT 8SM BKN036 BKN050 BKN250 15/13 A3016 RMK AO2 SLP212 T01500133 51012=
201712030152 METAR KATL 030152Z 12004KT 9SM BKN038 BKN050 BKN250 16/13 A3015 RMK AO2 SLP209 T01610133=
201712030052 METAR KATL 030052Z 09005KT 10SM SCT038 BKN048 BKN250 16/12 A3014 RMK AO2 SLP204 T01610122=
201712022352 METAR KATL 022352Z 00000KT 10SM FEW038 SCT050 SCT250 17/12 A3013 RMK AO2 SLP200 T01720122 10211 20172 53008=
201712022252 METAR KATL 022252Z 00000KT 10SM BKN050 19/12 A3012 RMK AO2 SLP197 T01890117=
201712022152 METAR KATL 022152Z 32003KT 10SM SCT043 SCT250 20/12 A3011 RMK AO2 SLP193 T02000117=
201712022052 METAR KATL 022052Z 03003KT 10SM SCT045 SCT055 SCT250 21/11 A3010 RMK AO2 SLP190 T02110111 56010=
201712021952 METAR KATL 021952Z 01003KT 10SM SCT030 SCT250 21/12 A3011 RMK AO2 SLP192 T02110122=
201712021852 METAR KATL 021852Z 00000KT 9SM BKN030 BKN045 19/13 A3012 RMK AO2 SLP198 HAZY T01890133=
201712021752 METAR KATL 021752Z 00000KT 7SM SCT022 BKN200 BKN250 19/13 A3013 RMK AO2 SLP202 HAZY T01890133 10200 20117 58022=
201712021652 METAR KATL 021652Z 17003KT 6SM HZ SCT015 SCT150 BKN200 BKN250 18/13 A3017 RMK AO2 SLP213 T01780133=
201712021552 METAR KATL 021552Z 10004KT 5SM HZ SCT180 BKN250 16/13 A3019 RMK AO2 SLP221 T01610133=
201712021452 METAR KATL 021452Z 09003KT 4SM BR BKN160 BKN200 BKN250 14/13 A3020 RMK AO2 SLP225 T01440133 53013=
201712021352 METAR KATL 021352Z 04004KT 5SM BR FEW025 BKN160 BKN200 BKN250 14/13 A3019 RMK AO2 SLP221 T01440133=
201712021252 METAR KATL 021252Z 05004KT 5SM BR FEW025 BKN200 13/12 A3017 RMK AO2 SLP216 T01280122=
201712021220 SPECI KATL 021220Z 00000KT 7SM SCT025 BKN200 12/11 A3017 RMK AO2 T01170111=
201712021152 METAR KATL 021152Z 00000KT 9SM BKN024 BKN200 12/11 A3016 RMK AO2 SLP212 T01170111 10128 20100 53009=
201712021131 SPECI KATL 021131Z 01003KT 9SM BKN024 BKN200 13/12 A3016 RMK AO2 T01280117=
201712021052 METAR KATL 021052Z 02003KT 9SM FEW030 BKN200 12/12 A3015 RMK AO2 SLP206 T01220117=
201712020952 METAR KATL 020952Z 32004KT 9SM BKN180 11/11 A3014 RMK AO2 SLP206 T01060106=
201712020852 METAR KATL 020852Z 00000KT 8SM BKN200 11/11 A3013 RMK AO2 SLP202 T01060106 56005=
201712020752 METAR KATL 020752Z 00000KT 8SM BKN200 11/11 A3015 RMK AO2 SLP206 T01060106=
201712020652 METAR KATL 020652Z 00000KT 9SM FEW100 BKN250 11/11 A3014 RMK AO2 SLP203 T01110106=
201712020552 METAR KATL 020552Z 00000KT 6SM BR BKN250 12/11 A3015 RMK AO2 SLP208 T01170111 10156 20117 50000=
201712020452 METAR KATL 020452Z 00000KT 7SM SCT250 13/12 A3016 RMK AO2 SLP209 T01280117 401890122=
201712020352 METAR KATL 020352Z 00000KT 8SM SCT250 13/12 A3016 RMK AO2 SLP211 T01330122=
201712020252 METAR KATL 020252Z 35003KT 9SM SCT250 16/13 A3015 RMK AO2 SLP207 T01560128 51004=
201712020152 METAR KATL 020152Z 34004KT 9SM FEW250 14/13 A3015 RMK AO2 SLP207 T01440128=
201712020052 METAR KATL 020052Z 31005KT 9SM SCT250 14/12 A3015 RMK AO2 SLP207 T01440122=
201712012352 METAR KATL 012352Z 00000KT 9SM SCT250 15/13 A3014 RMK AO2 SLP203 T01500128 10189 20150 53007=
201712012252 METAR KATL 012252Z 32005KT 9SM SCT250 16/13 A3013 RMK AO2 SLP199 T01610128=
201712012152 METAR KATL 012152Z 30005KT 9SM SCT250 SCT300 17/13 A3012 RMK AO2 SLP197 T01720128=
201712012052 METAR KATL 012052Z 31005KT 8SM FEW020 SCT250 18/13 A3011 RMK AO2 SLP195 T01830133 56008=
201712011952 METAR KATL 011952Z 33004KT 7SM FEW020 SCT250 18/13 A3012 RMK AO2 SLP196 T01830133=
201712011852 METAR KATL 011852Z 32007KT 6SM HZ FEW017 BKN250 18/14 A3013 RMK AO2 SLP199 T01780139=
201712011831 SPECI KATL 011831Z 30005KT 6SM HZ FEW014 BKN250 18/14 A3014 RMK AO2 T01780139=
201712011752 METAR KATL 011752Z 30005KT 5SM HZ BKN012 BKN250 17/14 A3014 RMK AO2 SLP203 T01670139 10167 20133 58009=
201712011735 SPECI KATL 011735Z 30003KT 5SM HZ BKN010 BKN250 17/14 A3015 RMK AO2 T01670139=
201712011730 SPECI KATL 011730Z 31004KT 2SM HZ BKN010 17/14 A3015 RMK AO2 SFC VIS 5 T01670139=
201712011652 METAR KATL 011652Z 30007KT 2SM BR BKN008 16/14 A3016 RMK AO2 SFC VIS 4 SLP210 T01560139=
201712011552 METAR KATL 011552Z 34005KT 2SM BR OVC006 15/14 A3017 RMK AO2 SFC VIS 3 SLP215 T01500139=
201712011452 METAR KATL 011452Z 31005KT 2SM BR OVC005 14/14 A3017 RMK AO2 SFC VIS 2 1/2 SLP214 T01390139 53009=
201712011352 METAR KATL 011352Z 34006KT 2SM BR OVC007 14/14 A3016 RMK AO2 SFC VIS 3 SLP211 CIG 005V009 BINOVC T01390139=
201712011252 METAR KATL 011252Z 35006KT 2SM BR OVC005 13/13 A3014 RMK AO2 SFC VIS 3 SLP205 CIG 004V007 BINOVC T01330133=
201712011246 SPECI KATL 011246Z 34008KT 2SM BR OVC004 13/13 A3014 RMK AO2 SFC VIS 2 1/2 CIG 003V006=
201712011216 SPECI KATL 011216Z 33007KT 1/4SM R09R/1600V4000FT FG VV002 13/13 A3013 RMK AO2 T01330133=
