##########################################################
# Query made at 04/19/2024 23:52:12 UTC
# Time interval: from 01/01/2017 12:00  to 01/31/2017 12:59  UTC
##########################################################

##########################################################
# KATL, Atlanta, Hartsfield - Jackson Atlanta International Airport (United States)
# WMO index: 72219. WIGOS ID: 0-20000-0-72219
# Latitude 33-38-59N. Longitude 084-25-00W. Altitude 312 m.
##########################################################

201701311252 METAR KATL 311252Z 23007KT 10SM CLR 07/03 A3006 RMK AO2 SLP182 T00720033=
201701311152 METAR KATL 311152Z 24009KT 10SM CLR 07/03 A3005 RMK AO2 SLP178 T00720028 10072 20050 55002=
201701311052 METAR KATL 311052Z 23007KT 10SM CLR 07/02 A3005 RMK AO2 SLP176 T00670022=
201701310952 METAR KATL 310952Z 22008KT 10SM CLR 06/01 A3006 RMK AO2 SLP179 T00610011=
201701310852 METAR KATL 310852Z 23006KT 10SM CLR 06/01 A3006 RMK AO2 SLP179 T00610006 58007=
201701310752 METAR KATL 310752Z 22006KT 10SM FEW250 06/00 A3007 RMK AO2 SLP183 T00560000=
201701310652 METAR KATL 310652Z 21006KT 10SM FEW250 05/M01 A3007 RMK AO2 SLP187 T00501006=
201701310552 METAR KATL 310552Z 21005KT 10SM BKN250 06/M01 A3008 RMK AO2 SLP187 T00611006 10106 20061 58008=
201701310452 METAR KATL 310452Z 19005KT 10SM BKN250 07/M01 A3008 RMK AO2 SLP189 T00671006 401390006=
201701310352 METAR KATL 310352Z 22005KT 10SM SCT250 07/M01 A3010 RMK AO2 SLP195 T00721006=
201701310252 METAR KATL 310252Z 24003KT 10SM FEW250 08/M01 A3010 RMK AO2 SLP198 T00781011 55000=
201701310152 METAR KATL 310152Z 24005KT 10SM CLR 09/M01 A3010 RMK AO2 SLP196 T00941011=
201701310052 METAR KATL 310052Z 24005KT 10SM CLR 10/M02 A3010 RMK AO2 SLP198 T01001017=
201701302352 METAR KATL 302352Z 25004KT 10SM CLR 10/M02 A3010 RMK AO2 SLP198 T01001022 10139 20100 51007=
201701302252 METAR KATL 302252Z 27006KT 10SM FEW250 12/M03 A3009 RMK AO2 SLP196 T01171028=
201701302152 METAR KATL 302152Z 28011G18KT 10SM FEW250 13/M03 A3009 RMK AO2 SLP194 T01331028=
201701302052 METAR KATL 302052Z 31012G19KT 10SM FEW070 FEW250 13/M03 A3008 RMK AO2 SLP190 T01331033 55009=
201701301952 METAR KATL 301952Z 27012G21KT 10SM FEW250 13/M04 A3007 RMK AO2 SLP186 T01331039=
201701301852 METAR KATL 301852Z 30016KT 10SM FEW250 13/M03 A3007 RMK AO2 SLP187 T01281028=
201701301752 METAR KATL 301752Z 29013G21KT 10SM FEW055 FEW250 11/M02 A3011 RMK AO2 SLP199 T01111022 10111 20006 58005=
201701301652 METAR KATL 301652Z 30015KT 10SM FEW050 FEW250 09/M03 A3014 RMK AO2 SLP210 T00941028=
201701301552 METAR KATL 301552Z 28007KT 10SM FEW250 07/M03 A3014 RMK AO2 SLP212 T00721028=
201701301452 METAR KATL 301452Z 31011KT 10SM CLR 05/M03 A3012 RMK AO2 SLP205 T00501033 51024=
201701301352 METAR KATL 301352Z 27009KT 10SM CLR 03/M03 A3011 RMK AO2 SLP201 T00281028=
201701301252 METAR KATL 301252Z 27009KT 10SM CLR 01/M03 A3009 RMK AO2 SLP195 T00061033=
201701301152 METAR KATL 301152Z 27007KT 10SM CLR 01/M04 A3005 RMK AO2 SLP181 T00111039 10033 20006 53013=
201701301052 METAR KATL 301052Z 27008KT 10SM FEW070 01/M03 A3003 RMK AO2 SLP176 T00111033=
201701300952 METAR KATL 300952Z 26007KT 10SM FEW070 02/M04 A3002 RMK AO2 SLP169 T00171039=
201701300852 METAR KATL 300852Z 27007KT 10SM FEW065 02/M04 A3001 RMK AO2 SLP166 T00171039 53006=
201701300752 METAR KATL 300752Z 28010KT 10SM FEW065 02/M04 A3000 RMK AO2 SLP163 T00221039=
201701300652 METAR KATL 300652Z 29010KT 10SM FEW060 03/M04 A2999 RMK AO2 SLP160 T00331039=
201701300552 METAR KATL 300552Z 27008KT 10SM FEW060 SCT085 03/M03 A2999 RMK AO2 SLP160 T00331033 10078 20028 58002=
201701300452 METAR KATL 300452Z 29010KT 10SM FEW080 04/M03 A3000 RMK AO2 SLP163 T00391028 401110006=
201701300352 METAR KATL 300352Z 29011KT 10SM FEW085 05/M02 A3000 RMK AO2 SLP164 T00501022=
201701300252 METAR KATL 300252Z 29012G21KT 10SM FEW065 FEW090 06/M02 A3000 RMK AO2 SLP162 T00611022 53014=
201701300152 METAR KATL 300152Z 29014G21KT 10SM FEW060 SCT085 07/M02 A2998 RMK AO2 SLP159 T00671017=
201701300052 METAR KATL 300052Z 31009KT 10SM FEW065 BKN090 08/M02 A2997 RMK AO2 SLP153 T00781017=
201701292352 METAR KATL 292352Z 29010KT 10SM FEW060 BKN100 08/M02 A2996 RMK AO2 SLP149 T00781017 10111 20078 51027=
201701292252 METAR KATL 292252Z 29018KT 10SM FEW055 SCT080 BKN110 08/M03 A2993 RMK AO2 PK WND 27026/2221 SLP140 VIRGA NE TCU DSNT N-NE & E ACC DSNT SE-SW T00831028=
201701292152 METAR KATL 292152Z 29014KT 10SM BKN060 BKN075 BKN100 09/M02 A2991 RMK AO2 SLP132 VIRGA NE-SE T00941017=
201701292052 METAR KATL 292052Z 26014G20KT 10SM BKN065 10/M03 A2987 RMK AO2 SLP120 T01001033 56013=
201701291952 METAR KATL 291952Z 26010KT 10SM OVC060 10/M03 A2988 RMK AO2 SLP121 T01001033=
201701291852 METAR KATL 291852Z 26011G20KT 10SM BKN060 BKN075 OVC100 11/M04 A2989 RMK AO2 SLP123 T01061039=
201701291752 METAR KATL 291752Z 25013G22KT 10SM FEW050 BKN100 10/M04 A2991 RMK AO2 SLP133 T01001039 10100 20006 58016=
201701291652 METAR KATL 291652Z 24011G19KT 10SM FEW050 BKN100 BKN250 10/M04 A2995 RMK AO2 SLP144 T01001039=
201701291552 METAR KATL 291552Z 23010KT 10SM FEW090 BKN250 09/M03 A2996 RMK AO2 SLP148 T00891028=
201701291452 METAR KATL 291452Z 24008KT 10SM FEW150 BKN250 06/M03 A2996 RMK AO2 SLP150 T00611033 52004=
201701291352 METAR KATL 291352Z 24007KT 10SM FEW100 FEW200 SCT250 03/M04 A2996 RMK AO2 SLP150 T00281039=
201701291252 METAR KATL 291252Z 23007KT 10SM FEW060 FEW110 SCT200 01/M04 A2995 RMK AO2 SLP148 T00061044=
201701291152 METAR KATL 291152Z 24006KT 10SM FEW060 FEW110 01/M04 A2995 RMK AO2 SLP147 T00061044 10044 20006 53002=
201701291052 METAR KATL 291052Z 23005KT 10SM FEW060 01/M04 A2994 RMK AO2 SLP141 T00061044=
201701290952 METAR KATL 290952Z 24006KT 10SM FEW060 03/M05 A2994 RMK AO2 SLP141 T00281050=
201701290852 METAR KATL 290852Z 29007KT 10SM CLR 02/M05 A2994 RMK AO2 SLP143 T00221050 58008=
201701290752 METAR KATL 290752Z 27009KT 10SM CLR 03/M05 A2995 RMK AO2 SLP147 T00281050=
201701290652 METAR KATL 290652Z 25007KT 10SM CLR 04/M05 A2996 RMK AO2 SLP149 T00391050=
201701290552 METAR KATL 290552Z 24011KT 10SM FEW250 04/M06 A2996 RMK AO2 SLP150 T00441056 10083 20044 58007=
201701290452 METAR KATL 290452Z 23008KT 10SM FEW250 05/M06 A2997 RMK AO2 SLP155 T00501056 401170000=
201701290352 METAR KATL 290352Z 24010KT 10SM FEW250 06/M06 A2999 RMK AO2 SLP160 T00561056=
201701290252 METAR KATL 290252Z 25010KT 10SM FEW250 06/M06 A2999 RMK AO2 SLP160 T00611056 51007=
201701290152 METAR KATL 290152Z 24009KT 10SM FEW250 07/M06 A2998 RMK AO2 SLP157 T00671056=
201701290052 METAR KATL 290052Z 23009KT 10SM FEW200 07/M07 A2997 RMK AO2 SLP157 T00721067=
201701282352 METAR KATL 282352Z 24007KT 10SM FEW200 08/M09 A2996 RMK AO2 SLP152 T00831089 10117 20083 55000=
201701282252 METAR KATL 282252Z 26012KT 10SM FEW180 FEW250 10/M09 A2996 RMK AO2 SLP149 T01001094=
201701282152 METAR KATL 282152Z 25010KT 10SM FEW250 11/M09 A2996 RMK AO2 SLP149 T01111094=
201701282052 METAR KATL 282052Z 27012KT 10SM FEW250 11/M10 A2996 RMK AO2 SLP151 T01111100 56026=
201701281952 METAR KATL 281952Z 28015G20KT 10SM FEW250 11/M09 A2998 RMK AO2 SLP156 T01111089=
201701281852 METAR KATL 281852Z 27011G19KT 10SM FEW250 11/M08 A3000 RMK AO2 SLP163 T01061083=
201701281752 METAR KATL 281752Z 29012KT 10SM FEW250 09/M07 A3004 RMK AO2 SLP178 T00941067 10094 20000 58016=
201701281652 METAR KATL 281652Z 29013KT 10SM FEW250 08/M07 A3008 RMK AO2 SLP191 T00831072=
201701281552 METAR KATL 281552Z 30009KT 10SM FEW250 06/M06 A3008 RMK AO2 SLP190 T00611056=
201701281452 METAR KATL 281452Z 30010KT 10SM FEW250 04/M05 A3009 RMK AO2 SLP197 T00391050 51019=
201701281352 METAR KATL 281352Z 26009KT 10SM FEW250 02/M04 A3009 RMK AO2 SLP197 T00221044=
201701281252 METAR KATL 281252Z 29009KT 10SM FEW250 00/M04 A3007 RMK AO2 SLP189 T00001044=
201701281152 METAR KATL 281152Z 30010KT 10SM FEW250 00/M04 A3003 RMK AO2 SLP178 T00001044 10022 20000 58006=
201701281052 METAR KATL 281052Z 27009KT 10SM FEW250 00/M04 A3005 RMK AO2 SLP184 T00001044=
201701280952 METAR KATL 280952Z 28009KT 10SM FEW250 01/M04 A3005 RMK AO2 SLP181 T00061044=
201701280852 METAR KATL 280852Z 27008KT 10SM BKN250 01/M04 A3005 RMK AO2 SLP183 T00111044 53002=
201701280752 METAR KATL 280752Z 27009KT 10SM BKN250 01/M04 A3005 RMK AO2 SLP181 T00111044=
201701280652 METAR KATL 280652Z 26007KT 10SM BKN250 02/M04 A3004 RMK AO2 SLP179 T00171044=
201701280552 METAR KATL 280552Z 27009KT 10SM BKN250 02/M04 A3005 RMK AO2 SLP180 T00221044 10050 20022 58004=
201701280452 METAR KATL 280452Z 26007KT 10SM BKN250 03/M04 A3006 RMK AO2 SLP184 T00281044 400830006=
201701280352 METAR KATL 280352Z 26007KT 10SM BKN250 03/M04 A3006 RMK AO2 SLP186 T00281044=
201701280252 METAR KATL 280252Z 26008KT 10SM BKN250 03/M05 A3006 RMK AO2 SLP185 T00331050 51002=
201701280152 METAR KATL 280152Z 27008KT 10SM BKN250 03/M05 A3006 RMK AO2 SLP185 T00331050=
201701280052 METAR KATL 280052Z 29007KT 10SM BKN250 04/M05 A3006 RMK AO2 SLP186 T00441050=
201701272352 METAR KATL 272352Z 27008KT 10SM SCT220 BKN250 05/M06 A3005 RMK AO2 SLP183 T00501056 10083 20050 53010=
201701272252 METAR KATL 272252Z 29012KT 10SM SCT220 BKN250 06/M05 A3004 RMK AO2 SLP178 T00561050=
201701272152 METAR KATL 272152Z 31012KT 10SM BKN250 BKN300 07/M05 A3002 RMK AO2 SLP173 T00671050=
201701272052 METAR KATL 272052Z 30013KT 10SM FEW045 BKN250 BKN300 06/M05 A3002 RMK AO2 SLP171 T00611050 55009=
201701271952 METAR KATL 271952Z 29017KT 10SM FEW045 BKN250 BKN300 08/M04 A3001 RMK AO2 SLP166 T00831044=
201701271852 METAR KATL 271852Z 29011G18KT 270V330 10SM FEW045 BKN250 BKN300 07/M04 A3003 RMK AO2 SLP173 T00721039=
201701271752 METAR KATL 271752Z 30015G20KT 10SM FEW045 BKN250 BKN300 07/M04 A3005 RMK AO2 SLP179 T00721039 10072 20006 58010=
201701271652 METAR KATL 271652Z 29014G23KT 10SM FEW040 FEW250 SCT300 07/M03 A3007 RMK AO2 SLP188 T00671033=
201701271552 METAR KATL 271552Z 31016KT 10SM FEW035 FEW250 SCT300 05/M03 A3009 RMK AO2 SLP194 T00501033=
201701271452 METAR KATL 271452Z 32013G18KT 10SM FEW026 SCT250 04/M02 A3008 RMK AO2 SLP190 T00391022 51010=
201701271352 METAR KATL 271352Z 28011KT 10SM FEW026 SCT200 02/M02 A3006 RMK AO2 SLP186 T00221017=
201701271252 METAR KATL 271252Z 28010KT 10SM SCT026 SCT250 01/M02 A3007 RMK AO2 SLP187 T00111017=
201701271152 METAR KATL 271152Z 28006KT 10SM FEW032 01/M02 A3005 RMK AO2 SLP179 T00111017 10044 20011 53005=
201701271052 METAR KATL 271052Z 29008KT 10SM CLR 02/M02 A3003 RMK AO2 SLP174 T00171017=
201701270952 METAR KATL 270952Z 29008KT 10SM CLR 03/M02 A3003 RMK AO2 SLP172 T00281017=
201701270852 METAR KATL 270852Z 28007KT 10SM CLR 03/M02 A3003 RMK AO2 SLP171 T00281017 56004=
201701270752 METAR KATL 270752Z 27005KT 10SM CLR 03/M02 A3003 RMK AO2 SLP171 T00331017=
201701270652 METAR KATL 270652Z 29008KT 10SM CLR 04/M02 A3004 RMK AO2 SLP175 T00391017=
201701270552 METAR KATL 270552Z 30009KT 10SM CLR 04/M02 A3004 RMK AO2 SLP176 T00441017 10100 20044 50000=
201701270452 METAR KATL 270452Z 30007KT 10SM FEW250 06/M02 A3005 RMK AO2 SLP178 T00561017 401780056=
201701270352 METAR KATL 270352Z 30009KT 10SM FEW250 06/M02 A3005 RMK AO2 SLP179 T00611017=
201701270252 METAR KATL 270252Z 31009KT 10SM FEW250 07/M02 A3004 RMK AO2 SLP176 T00721017 51012=
201701270152 METAR KATL 270152Z 30010KT 10SM FEW250 08/M02 A3003 RMK AO2 SLP172 T00781017=
201701270052 METAR KATL 270052Z 30007KT 10SM BKN250 09/M03 A3002 RMK AO2 SLP168 T00891028=
201701262352 METAR KATL 262352Z 30009KT 10SM FEW180 SCT250 10/M03 A3001 RMK AO2 SLP162 T01001033 10144 20100 53018=
201701262252 METAR KATL 262252Z 30009KT 10SM FEW180 SCT250 11/M04 A2999 RMK AO2 SLP155 T01111039=
201701262152 METAR KATL 262152Z 32014KT 10SM FEW050 FEW180 SCT250 13/M04 A2997 RMK AO2 SLP146 T01281039=
201701262052 METAR KATL 262052Z 28012KT 10SM FEW180 SCT250 14/M03 A2995 RMK AO2 SLP140 T01391033 55000=
201701261952 METAR KATL 261952Z 29016G22KT 10SM SCT250 14/M02 A2994 RMK AO2 SLP135 T01391022=
201701261852 METAR KATL 261852Z 30017G25KT 10SM FEW180 SCT250 BKN300 14/M02 A2993 RMK AO2 PK WND 30026/1819 SLP134 T01391022=
201701261752 METAR KATL 261752Z 28014KT 10SM FEW180 SCT250 BKN300 13/01 A2995 RMK AO2 PK WND 28026/1655 SLP140 T01330011 10139 20100 50005=
201701261652 METAR KATL 261652Z 29017G25KT 10SM SCT250 13/M01 A2998 RMK AO2 PK WND 28026/1640 SLP148 T01281006=
201701261552 METAR KATL 261552Z 31019G25KT 10SM FEW250 11/M02 A2996 RMK AO2 SLP144 T01111017=
201701261452 METAR KATL 261452Z 30012G22KT 10SM FEW030 FEW120 FEW250 11/02 A2994 RMK AO2 PK WND 32026/1410 SLP136 T01060017 51037=
201701261352 METAR KATL 261352Z 29015G22KT 10SM FEW032 SCT080 SCT200 SCT250 10/02 A2991 RMK AO2 SLP126 ACC W-N T01000022=
201701261252 METAR KATL 261252Z 29013KT 10SM FEW024 SCT070 SCT110 BKN200 11/05 A2987 RMK AO2 SLP112 ACC DSNT N T01110050=
201701261152 METAR KATL 261152Z 29013G18KT 10SM FEW020 SCT100 SCT200 BKN250 12/09 A2982 RMK AO2 SLP097 60019 70019 T01220094 10172 20122 53022=
201701261052 METAR KATL 261052Z 30010KT 10SM FEW018 SCT100 BKN200 BKN250 13/10 A2978 RMK AO2 SLP081 T01330100=
201701260952 METAR KATL 260952Z 29010KT 10SM FEW014 SCT065 BKN110 OVC200 14/11 A2976 RMK AO2 SLP072 T01440111=
201701260852 METAR KATL 260852Z 28010KT 10SM FEW008 BKN048 BKN090 OVC200 16/15 A2976 RMK AO2 RAE13 SLP071 P0002 60019 T01560150 53001=
201701260842 SPECI KATL 260842Z 27010KT 10SM FEW008 BKN040 BKN100 OVC200 16/15 A2976 RMK AO2 RAE13 P0002 T01610150=
201701260835 SPECI KATL 260835Z 28009KT 10SM SCT006 BKN020 OVC040 16/16 A2975 RMK AO2 RAE13 P0002 T01610156=
201701260752 METAR KATL 260752Z 24007KT 4SM RA BR BKN008 OVC021 16/16 A2974 RMK AO2 SLP064 CIG 006V010 P0015 T01610156=
201701260721 SPECI KATL 260721Z 25007KT 4SM RA BR SCT008 BKN014 OVC030 17/16 A2975 RMK AO2 P0005 T01670156=
201701260703 SPECI KATL 260703Z 23008KT 6SM -RA BR SCT012 BKN026 OVC080 17/16 A2974 RMK AO2 P0001 T01670156=
201701260652 METAR KATL 260652Z 23009KT 7SM -RA FEW016 BKN065 OVC100 17/16 A2974 RMK AO2 SLP064 P0002 T01670156=
201701260552 METAR KATL 260552Z 22012G19KT 10SM -RA FEW022 BKN050 BKN080 OVC150 17/14 A2976 RMK AO2 RAB52 SLP070 VCSH SW-NW P0000 60000 T01720144 10178 20161 58010=
201701260541 SPECI KATL 260541Z 22010G18KT 10SM SCT022 BKN050 BKN080 OVC150 17/14 A2976 RMK AO2 T01720144=
201701260513 SPECI KATL 260513Z 23010G17KT 10SM BKN022 BKN090 OVC150 17/13 A2978 RMK AO2 T01720133=
201701260452 METAR KATL 260452Z 23009KT 10SM FEW030 SCT100 BKN140 OVC200 17/12 A2979 RMK AO2 SLP081 T01670122 402220056=
201701260352 METAR KATL 260352Z 21007KT 10SM FEW100 BKN150 OVC200 17/11 A2979 RMK AO2 SLP083 VIRGA SW-OHD T01670111=
201701260252 METAR KATL 260252Z 21005KT 10SM FEW100 BKN200 16/11 A2979 RMK AO2 SLP084 T01610106 58010=
201701260152 METAR KATL 260152Z 19007KT 10SM FEW150 SCT200 BKN250 16/11 A2980 RMK AO2 SLP090 T01610111=
201701260052 METAR KATL 260052Z 22005KT 10SM FEW150 SCT200 BKN250 17/11 A2982 RMK AO2 SLP098 T01670106=
201701252352 METAR KATL 252352Z 22005KT 10SM FEW150 SCT200 BKN250 18/11 A2982 RMK AO2 SLP097 T01780106 10222 20178 58001=
201701252252 METAR KATL 252252Z 22007KT 10SM SCT150 BKN250 19/09 A2983 RMK AO2 SLP100 T01940094=
201701252152 METAR KATL 252152Z 21010KT 10SM FEW040 FEW150 SCT250 21/08 A2982 RMK AO2 SLP096 T02110083=
201701252052 METAR KATL 252052Z 22009KT 10SM FEW040 SCT150 BKN250 22/07 A2982 RMK AO2 SLP096 T02170067 56020=
201701251952 METAR KATL 251952Z 24007KT 10SM FEW040 FEW150 BKN250 21/06 A2984 RMK AO2 SLP102 T02110061=
201701251852 METAR KATL 251852Z 23011G19KT 10SM FEW150 SCT200 BKN250 21/02 A2985 RMK AO2 SLP104 T02110022=
201701251752 METAR KATL 251752Z 23011KT 10SM FEW150 FEW200 BKN250 20/M04 A2988 RMK AO2 SLP117 T02001044 10206 20056 58016=
201701251652 METAR KATL 251652Z 25016G21KT 10SM FEW200 SCT250 BKN300 19/M07 A2991 RMK AO2 SLP128 T01941072=
201701251552 METAR KATL 251552Z 22006KT 10SM FEW200 BKN250 16/04 A2994 RMK AO2 SLP136 T01560044=
201701251452 METAR KATL 251452Z 23005KT 10SM FEW200 BKN250 13/04 A2993 RMK AO2 SLP136 T01280044 53007=
201701251352 METAR KATL 251352Z 19003KT 10SM SCT200 SCT250 09/04 A2992 RMK AO2 SLP132 T00940044=
201701251252 METAR KATL 251252Z 16003KT 10SM FEW200 SCT250 06/03 A2992 RMK AO2 SLP134 T00610028=
201701251152 METAR KATL 251152Z 00000KT 10SM FEW250 06/03 A2991 RMK AO2 SLP129 T00610028 10083 20061 53008=
201701251052 METAR KATL 251052Z 32004KT 10SM FEW250 07/02 A2990 RMK AO2 SLP124 T00720022=
201701250952 METAR KATL 250952Z 31004KT 10SM FEW250 07/02 A2989 RMK AO2 SLP122 T00670022=
201701250852 METAR KATL 250852Z 00000KT 10SM FEW250 07/02 A2988 RMK AO2 SLP120 T00670022 53001=
201701250752 METAR KATL 250752Z 00000KT 10SM FEW250 08/02 A2988 RMK AO2 SLP118 T00830022=
201701250652 METAR KATL 250652Z 22003KT 10SM CLR 07/03 A2988 RMK AO2 SLP119 T00720028=
201701250552 METAR KATL 250552Z 23003KT 10SM CLR 07/03 A2988 RMK AO2 SLP120 T00720028 10133 20072 58008=
201701250452 METAR KATL 250452Z 25003KT 10SM CLR 08/03 A2989 RMK AO2 SLP124 T00780028 401670072=
201701250352 METAR KATL 250352Z 26003KT 10SM CLR 09/02 A2990 RMK AO2 SLP127 T00940022=
201701250252 METAR KATL 250252Z 27004KT 10SM CLR 11/02 A2990 RMK AO2 SLP128 T01060022 53008=
201701250152 METAR KATL 250152Z 28004KT 10SM CLR 11/02 A2990 RMK AO2 SLP126 T01060022=
201701250052 METAR KATL 250052Z 31004KT 10SM CLR 12/02 A2989 RMK AO2 SLP122 T01170017=
201701242352 METAR KATL 242352Z 32005KT 10SM CLR 13/01 A2988 RMK AO2 SLP119 T01330011 10167 20128 51017=
201701242252 METAR KATL 242252Z 32006KT 10SM CLR 14/02 A2987 RMK AO2 SLP113 T01440017=
201701242152 METAR KATL 242152Z 31008KT 10SM CLR 16/00 A2985 RMK AO2 SLP107 T01610000=
201701242052 METAR KATL 242052Z 29009KT 10SM CLR 16/03 A2983 RMK AO2 SLP100 T01610028 55009=
201701241952 METAR KATL 241952Z 31007KT 10SM CLR 16/01 A2981 RMK AO2 SLP093 T01560011=
201701241852 METAR KATL 241852Z 31011KT 10SM CLR 14/03 A2983 RMK AO2 SLP102 T01440033=
201701241752 METAR KATL 241752Z 32012KT 10SM CLR 13/03 A2986 RMK AO2 SLP111 T01280033 10128 20072 50002=
201701241652 METAR KATL 241652Z 33011KT 10SM CLR 11/04 A2987 RMK AO2 SLP114 T01110044=
201701241552 METAR KATL 241552Z 30012KT 10SM FEW020 10/05 A2987 RMK AO2 SLP116 T01000050 $=
201701241452 METAR KATL 241452Z 33015KT 10SM SCT014 08/04 A2985 RMK AO2 SLP110 T00830044 51021=
201701241352 METAR KATL 241352Z 31015KT 10SM BKN014 07/04 A2983 RMK AO2 SLP104 T00720044=
201701241252 METAR KATL 241252Z 32014G19KT 10SM BKN014 08/05 A2981 RMK AO2 SLP096 T00780050=
201701241152 METAR KATL 241152Z 31013G19KT 10SM BKN015 08/05 A2979 RMK AO2 SLP088 T00780050 10100 20078 53020=
201701241052 METAR KATL 241052Z 33012KT 10SM BKN017 08/05 A2976 RMK AO2 SLP076 T00830050=
201701240952 METAR KATL 240952Z 32016G23KT 10SM BKN016 09/06 A2975 RMK AO2 SLP075 T00890056=
201701240852 METAR KATL 240852Z 31013KT 10SM BKN017 09/06 A2973 RMK AO2 SLP066 T00890056 55000=
201701240752 METAR KATL 240752Z 32014KT 10SM BKN018 09/06 A2973 RMK AO2 PK WND 31026/0712 SLP067 T00940061=
201701240652 METAR KATL 240652Z 33021G27KT 10SM BKN019 09/06 A2972 RMK AO2 PK WND 31027/0649 SLP064 T00940056=
201701240552 METAR KATL 240552Z 31017G23KT 10SM BKN020 10/06 A2973 RMK AO2 SLP066 T01000061 10117 20094 51016=
201701240452 METAR KATL 240452Z 31015KT 10SM BKN020 10/06 A2972 RMK AO2 SLP064 T01000061 401330089=
201701240352 METAR KATL 240352Z 31014G24KT 10SM BKN022 10/07 A2971 RMK AO2 SLP060 T01000067=
201701240324 SPECI KATL 240324Z 31016G20KT 10SM BKN023 10/06 A2970 RMK AO2 T01000061=
201701240252 METAR KATL 240252Z 32015G22KT 10SM FEW025 10/06 A2968 RMK AO2 PK WND 32029/0156 SLP050 T01000061 51025=
201701240152 METAR KATL 240152Z 32021G27KT 10SM FEW025 11/07 A2967 RMK AO2 PK WND 34031/0102 SLP046 T01060067=
201701240052 METAR KATL 240052Z 31015G24KT 10SM SCT024 BKN030 11/07 A2963 RMK AO2 PK WND 31029/0006 SLP034 T01110072=
201701232352 METAR KATL 232352Z 30025G30KT 10SM SCT027 BKN032 12/07 A2960 RMK AO2 PK WND 29030/2352 SLP023 T01170067 10133 20117 53037=
201701232252 METAR KATL 232252Z 30018G25KT 10SM SCT036 BKN045 13/07 A2956 RMK AO2 PK WND 30027/2236 SLP009 T01280072=
201701232152 METAR KATL 232152Z 32014KT 10SM BKN033 13/08 A2952 RMK AO2 PK WND 33028/2134 SLP997 T01280078=
201701232142 SPECI KATL 232142Z 32016G28KT 10SM BKN030 13/08 A2952 RMK AO2 PK WND 33028/2134 T01280078=
201701232052 METAR KATL 232052Z 32016G22KT 10SM BKN027 12/08 A2949 RMK AO2 PK WND 29029/1958 SLP985 T01220078 51020=
201701231952 METAR KATL 231952Z 31020G26KT 10SM OVC020 12/08 A2947 RMK AO2 PK WND 31031/1907 SLP978 T01170083=
201701231852 METAR KATL 231852Z 30019G30KT 10SM OVC023 12/08 A2945 RMK AO2 PK WND 31030/1756 SLP972 T01220083=
201701231752 METAR KATL 231752Z 30022G29KT 10SM BKN020 BKN030 OVC040 13/09 A2943 RMK AO2 PK WND 31030/1704 SLP965 60000 T01280094 10133 20094 51024=
201701231652 METAR KATL 231652Z 30019G29KT 10SM FEW014 BKN025 OVC034 13/11 A2941 RMK AO2 PK WND 31029/1647 DZE31 SLP959 P0000 T01280106=
201701231552 METAR KATL 231552Z 30017KT 6SM -DZ BR BKN017 BKN020 OVC040 13/11 A2939 RMK AO2 PK WND 31026/1536 DZB49 SLP952 P0000 T01280111=
201701231503 SPECI KATL 231503Z 29012KT 10SM FEW008 BKN015 OVC020 11/11 A2936 RMK AO2 T01110106=
201701231452 METAR KATL 231452Z 29010KT 10SM SCT008 BKN012 OVC020 11/11 A2935 RMK AO2 DZB1358E51 SLP939 P0000 60000 T01110106 52030=
201701231429 SPECI KATL 231429Z 29012KT 4SM -DZ BR FEW006 BKN010 OVC015 10/10 A2934 RMK AO2 DZB1358 P0000 T01000100=
201701231352 METAR KATL 231352Z 28010KT 6SM BR OVC006 09/09 A2932 RMK AO2 DZB15E48 SLP929 CIG 004V008 P0000 T00940089=
201701231337 SPECI KATL 231337Z 29011KT 3SM -DZ BR BKN006 OVC016 09/09 A2931 RMK AO2 DZB15 CIG 005V008 P0000 T00940089=
201701231252 METAR KATL 231252Z 29010KT 8SM BKN007 BKN080 BKN110 09/09 A2929 RMK AO2 RAB24E40 SLP918 BKN007 V SCT P0000 T00940089=
201701231232 SPECI KATL 231232Z 31010KT 7SM -RA SCT007 SCT055 OVC080 09/09 A2928 RMK AO2 RAB24 SCT007 V BKN P0000 T00940089=
201701231152 METAR KATL 231152Z 33008KT 7SM BKN009 BKN014 OVC110 09/08 A2926 RMK AO2 DZE07 SLP907 CIG 007V011 P0000 60030 70043 T00940083 10100 20089 53030=
201701231107 SPECI KATL 231107Z 35010KT 6SM BR BKN005 OVC012 09/09 A2923 RMK AO2 DZE07 CIG 004V007 BINOVC P0000 T00940089=
201701231052 METAR KATL 231052Z 34009KT 4SM -DZ BR OVC004 09/09 A2921 RMK AO2 RAE36DZB36 SLP888 CIG 003V006 P0001 T00940089=
201701231043 SPECI KATL 231043Z 34009KT 4SM -DZ BR OVC004 09/09 A2920 RMK AO2 RAE36DZB36 CIG 003V006 P0001 T00940089=
201701231037 SPECI KATL 231037Z 33009KT 2 1/2SM -DZ BR OVC004 09/09 A2920 RMK AO2 RAE36DZB36 CIG 003V006 P0001 T00940089=
201701230952 METAR KATL 230952Z 25003KT 4SM -RA BR BKN006 OVC012 09/09 A2916 RMK AO2 SLP873 P0004 T00890089 $=
201701230852 METAR KATL 230852Z 17006KT 3SM -RA BR BKN008 OVC015 09/08 A2917 RMK AO2 SLP875 VIS S-SW 2 CIG 007V010 P0012 60025 T00890083 58022 $=
201701230845 SPECI KATL 230845Z 18006KT 4SM -RA BR BKN008 OVC015 09/08 A2917 RMK AO2 VIS S-SW 2 CIG 006V010 P0011 T00890083 $=
201701230828 SPECI KATL 230828Z 16006KT 5SM -RA BR SCT008 BKN013 OVC024 09/08 A2917 RMK AO2 CIG 011V015 P0008 T00890083 $=
201701230804 SPECI KATL 230804Z 17007KT 4SM RA BR FEW008 SCT016 OVC028 09/08 A2920 RMK AO2 P0003 T00890083 $=
201701230752 METAR KATL 230752Z 18007KT 4SM RA BR SCT008 SCT015 OVC032 09/08 A2920 RMK AO2 SLP887 P0011 T00940083 $=
201701230732 SPECI KATL 230732Z 21009KT 5SM RA BR SCT008 SCT025 OVC039 09/08 A2921 RMK AO2 P0008 T00940083 $=
201701230713 SPECI KATL 230713Z 21009KT 4SM RA BR FEW008 BKN012 OVC021 09/08 A2922 RMK AO2 P0003 T00940083 $=
201701230652 METAR KATL 230652Z 22008KT 7SM -RA FEW008 BKN015 OVC024 09/08 A2922 RMK AO2 RAB16 SLP893 P0002 T00940083 $=
201701230552 METAR KATL 230552Z 22009KT 10SM OVC020 10/07 A2923 RMK AO2 SLP897 CIG 017V023 60000 T01000072 10133 20100 58012 $=
201701230452 METAR KATL 230452Z 22015KT 10SM OVC017 10/08 A2926 RMK AO2 SLP907 CIG 014V020 BINOVC T01000078 401720100 $=
201701230352 METAR KATL 230352Z 22014G18KT 10SM SCT016 BKN024 BKN060 BKN150 10/08 A2926 RMK AO2 RAE0256DZB0256E34 SLP907 P0000 T01000078 $=
201701230256 SPECI KATL 230256Z 22009KT 10SM -DZ FEW006 BKN016 OVC031 11/09 A2927 RMK AO2 RAE56DZB56 CIG 014V018 P0000 T01060094 $=
201701230252 METAR KATL 230252Z 22011KT 8SM -RA FEW006 BKN014 OVC027 11/09 A2927 RMK AO2 DZB30E40RAB40 SLP910 CIG 012V016 P0000 60000 T01060094 51023 $=
201701230152 METAR KATL 230152Z 22015G20KT 10SM BKN018 BKN030 OVC055 11/09 A2926 RMK AO2 PK WND 24026/0053 SLP907 T01110089 $=
201701230108 SPECI KATL 230108Z 24013G24KT 10SM SCT014 OVC033 12/09 A2925 RMK AO2 PK WND 24026/0053 T01170089 $=
201701230052 METAR KATL 230052Z 25014G27KT 10SM OVC013 12/09 A2925 RMK AO2 PK WND 23028/0025 SLP902 CIG 010V016 T01170094 $=
201701230019 SPECI KATL 230019Z 22017G27KT 10SM BKN013 BKN026 OVC055 12/11 A2922 RMK AO2 PK WND 21027/0016 T01220111 $=
201701230010 SPECI KATL 230010Z 22015G19KT 10SM BKN016 BKN055 BKN090 BKN150 13/11 A2922 RMK AO2 T01280111 $=
201701222352 METAR KATL 222352Z 23010KT 10SM FEW008 SCT034 BKN055 BKN150 13/12 A2920 RMK AO2 PK WND 23039/2322 WSHFT 2310 LTG DSNT N RAB06E52 SLP885 CB DSNT N P0001 60013 T01330117 10172 20133 53002 $=
201701222350 SPECI KATL 222350Z 23012G22KT 10SM -RA FEW008 SCT034 BKN055 BKN150 13/12 A2920 RMK AO2 PK WND 23039/2322 WSHFT 2310 LTG DSNT N RAB06 CB DSNT N P0001 $=
201701222326 SPECI KATL 222326Z 22026G39KT 3SM RA BR SCT008 BKN015 OVC034 14/13 A2919 RMK AO2 PK WND 23039/2322 WSHFT 2310 LTG DSNT N AND NW RAB06 PRESRR FROPA CB DSNT N AND NW P0001 T01440133 $=
201701222320 SPECI KATL 222320Z 21019G28KT 4SM -RA BR SCT008 BKN015 OVC034 16/16 A2918 RMK AO2 PK WND 19028/2318 LTG DSNT NW RAB06 CB DSNT W AND NW P0001 T01610156=
201701222252 METAR KATL 222252Z 14011G21KT 10SM BKN008 BKN017 OVC036 16/16 A2916 RMK AO2 LTG DSNT W RAE00 SLP871 CIG 006V010 CB DSNT W P0000 T01610156=
201701222235 SPECI KATL 222235Z 14014G22KT 10SM SCT011 BKN020 OVC035 17/16 A2917 RMK AO2 LTG DSNT S RAE00 CB DSNT S BINOVC P0000 T01670156=
201701222214 SPECI KATL 222214Z 13013G17KT 10SM BKN009 BKN015 OVC026 17/16 A2919 RMK AO2 RAE00 CIG 007V011 P0000 T01670156=
201701222152 METAR KATL 222152Z 15010KT 1 1/2SM -RA BR SCT005 BKN008 OVC016 17/16 A2920 RMK AO2 PK WND 11035/2140 WSHFT 2120 SFC VIS 4 RAB16 SLP882 P0012 T01670156=
201701222136 SPECI KATL 222136Z 13012G20KT 100V170 1 1/2SM -RA BR OVC008 16/16 A2920 RMK AO2 PK WND 09029/2056 WSHFT 2120 SFC VIS 2 1/2 VIS 1 1/2V5 RAB16 PRESRR P0009 T01610156=
201701222128 SPECI KATL 222128Z 14012G22KT 1 1/2SM R09R/5500VP6000FT +RA BR OVC007 17/16 A2918 RMK AO2 PK WND 09029/2056 SFC VIS 2 RAB16 P0006 T01670156=
201701222052 METAR KATL 222052Z 10018G29KT 6SM BR OVC005 16/16 A2919 RMK AO2 PK WND 11029/2051 LTG DSNT NW SLP880 60000 T01610156 58081=
201701222047 SPECI KATL 222047Z 10017G25KT 6SM BR OVC005 16/16 A2919 RMK AO2 PK WND 08027/2028 LTG DSNT W AND NW=
201701221952 METAR KATL 221952Z 10011KT 1/4SM R09R/P6000FT BR OVC002 16/16 A2929 RMK AO2 SFC VIS 1 RAB31E52 SLP914 P0000 T01560156=
201701221852 METAR KATL 221852Z 10011KT 1/4SM R09R/P6000FT BR OVC003 16/15 A2935 RMK AO2 SFC VIS 3 SLP935 TWRINC T01560150=
201701221752 METAR KATL 221752Z 11009KT 1/4SM R09R/P6000FT BR OVC002 15/15 A2943 RMK AO2 SFC VIS 3 SLP964 TWRINC T01500150 10150 20133 58035=
201701221652 METAR KATL 221652Z 14005KT 1/4SM R09R/P6000FT BR OVC003 15/14 A2951 RMK AO2 SFC VIS 4 SLP989 TWRINC T01500144=
201701221552 METAR KATL 221552Z 12010KT 1/4SM R09R/P6000FT BR OVC003 14/14 A2954 RMK AO2 SFC VIS 3 SLP999 TWRINC T01440144=
201701221540 SPECI KATL 221540Z 12010KT 1/4SM R09R/P6000FT BR OVC003 14/14 A2953 RMK AO2 SFC VIS 3 TWRINC T01440144=
201701221452 METAR KATL 221452Z 10006KT 3SM BR OVC003 14/14 A2954 RMK AO2 SFC VIS 6 SLP000 T01440139 58012=
201701221421 SPECI KATL 221421Z 13007KT 3SM BR OVC004 14/14 A2956 RMK AO2 SFC VIS 6 T01440139=
201701221352 METAR KATL 221352Z 12005KT 7SM OVC005 14/13 A2957 RMK AO2 SLP011 CIG 004V006 T01390133=
201701221349 SPECI KATL 221349Z 12005KT 7SM OVC005 14/13 A2957 RMK AO2 CIG 004V006=
201701221346 SPECI KATL 221346Z 12005KT 2SM OVC005 14/14 A2958 RMK AO2 SFC VIS 7 CIG 004V006=
201701221320 SPECI KATL 221320Z 14007KT 2SM BR OVC004 14/13 A2957 RMK AO2 SFC VIS 6 CIG 003V005 TWRINC T01390133=
201701221256 SPECI KATL 221256Z 14009KT 3SM BR OVC004 14/13 A2956 RMK AO2 SFC VIS 6 BINOVC T01390133=
201701221252 METAR KATL 221252Z 14008KT 7SM BKN005 BKN070 14/13 A2956 RMK AO2 SLP008 CIG 004V006 T01390133=
201701221235 SPECI KATL 221235Z VRB03KT 7SM BKN005 BKN070 13/13 A2955 RMK AO2 T01330133=
201701221152 METAR KATL 221152Z 14007KT 8SM SCT005 SCT049 BKN065 14/13 A2958 RMK AO2 SLP013 SCT005 V BKN 60050 70364 T01390133 10144 20139 58001=
201701221052 METAR KATL 221052Z 14006KT 10SM SCT008 SCT028 BKN055 14/13 A2958 RMK AO2 RAE34 TSE09 SLP013 SCT008 V BKN TS MOV SE P0001 T01390133=
201701221031 SPECI KATL 221031Z 12006KT 8SM -RA SCT005 SCT036 BKN110 14/13 A2957 RMK AO2 TSE09 TS MOV SE P0001 T01390133=
201701221009 SPECI KATL 221009Z 14010KT 6SM -RA BR BKN004 BKN034 OVC075 14/14 A2956 RMK AO2 TSE09 PRESFR CIG 002V005 TS MOV SE P0001 T01390139=
201701220952 METAR KATL 220952Z 12005KT 6SM -TSRA BR SCT005 SCT032CB OVC055 14/14 A2958 RMK AO2 SLP014 TSB35 OCNL LTGICCG SE TS VC SE MOV NE P0011 T01390139=
201701220936 SPECI KATL 220936Z 13003KT 3SM +TSRA BR SCT004 SCT020CB OVC055 14/14 A2960 RMK AO2 TSB 35 VIS SW-W 2 OCNL LTGICCG SW TS SW MOV NE P0005 T01440139=
201701220927 SPECI KATL 220927Z 00000KT 8SM -RA SCT004 SCT024CB OVC060 14/14 A2959 RMK AO2 CB VC SW MOV NE P0001 T01440139=
201701220852 METAR KATL 220852Z 12007KT 5SM -TSRA BR SCT004 BKN075 OVC095 14/14 A2958 RMK AO2 SLP014 TS MOV NE P0024 60038 T01440139 56027=
201701220847 SPECI KATL 220847Z 11007KT 7SM -TSRA BKN004 BKN032 OVC085 14/14 A2959 RMK AO2 BKN004 V SCT TS MOV NE P0024=
201701220817 SPECI KATL 220817Z 24003KT 4SM TSRA BR SCT004 SCT024CB OVC070 14/14 A2965 RMK AO2 OCNL LTGICCACG ALQDS TS ALQDS MOV NE P0013 T01440139=
201701220800 SPECI KATL 220800Z 21007KT 2 1/2SM +TSRA BR SCT006 SCT024CB OVC055 14/14 A2964 RMK AO2 PRESRR FRQ LTGICCACG ALQDS TS ALQDS MOV NE P0004 T01440139=
201701220752 METAR KATL 220752Z 23005KT 4SM TSRA BR BKN006 BKN046CB OVC085 14/14 A2963 RMK AO2 RAB01 TSB34 SLP030 FRQ LTGICCACG ALQDS TS ALQDS MOV NE P0012 T01440139=
201701220734 SPECI KATL 220734Z 21005KT 6SM -TSRA BR BKN008 BKN046CB OVC085 14/14 A2962 RMK AO2 RAB01 TSB34 FRQ LTGIC S-W-NW TS VC S-W-NW MOV NE P0003 T01440139 $=
201701220715 SPECI KATL 220715Z 13005KT 8SM -RA SCT006 BKN046 OVC100 14/14 A2956 RMK AO2 RAB01 SCT006 V BKN P0000 T01440139=
201701220703 SPECI KATL 220703Z 13006KT 8SM -RA BKN006 BKN035 BKN075 OVC140 14/14 A2955 RMK AO2 RAB01 CIG 005V008 P0000 T01440139=
201701220652 METAR KATL 220652Z 12009KT 10SM SCT004 SCT110 OVC140 14/14 A2956 RMK AO2 RAE32 SLP008 P0002 T01440139=
201701220638 SPECI KATL 220638Z 12009KT 10SM FEW004 BKN065 BKN110 OVC140 14/14 A2957 RMK AO2 RAE32 P0002 T01440139=
201701220627 SPECI KATL 220627Z 12009KT 10SM -RA BKN004 BKN048 OVC070 14/14 A2960 RMK AO2 PRESFR CIG 003V006 P0002 T01390139=
201701220602 SPECI KATL 220602Z 14009KT 10SM -RA BKN009 BKN014 OVC048 14/13 A2965 RMK AO2 LTG DSNT SE P0001 T01440133=
201701220552 METAR KATL 220552Z 16009G16KT 10SM -RA SCT012 BKN022 BKN048 OVC150 14/13 A2966 RMK AO2 LTG DSNT SE RAB40 SLP043 TSB38E50 TS DSIPTD CB DSNT SE P0002 60002 T01390133 10150 20139 56008=
201701220540 SPECI KATL 220540Z 15010KT 8SM VCTS -RA BKN015 BKN020 BKN150 OVC200 14/13 A2967 RMK AO2 RAB40 TSB38 OCNL LTGICCA SE-SW TS VC SE-SW MOV NE P0000 T01390133=
201701220532 SPECI KATL 220532Z 15008KT 10SM SCT014 BKN020 BKN150 OVC200 14/13 A2967 RMK AO2 LTG DSNT SW CB DSNT SW T01390133=
201701220522 SPECI KATL 220522Z 12005KT 10SM SCT018 BKN150 OVC200 14/13 A2965 RMK AO2 LTG DSNT SW CB DSNT SW T01390133=
201701220452 METAR KATL 220452Z 17004KT 10SM FEW008 BKN016 BKN150 OVC200 14/13 A2967 RMK AO2 SLP044 T01390133 401780133=
201701220352 METAR KATL 220352Z 10003KT 10SM FEW008 FEW014 BKN200 BKN250 14/13 A2966 RMK AO2 SLP042 T01390133=
201701220252 METAR KATL 220252Z 00000KT 10SM SCT014 SCT020 SCT200 BKN250 14/13 A2969 RMK AO2 SLP050 T01440133 51005=
201701220152 METAR KATL 220152Z 00000KT 10SM BKN018 BKN200 BKN250 15/14 A2968 RMK AO2 SLP049 T01500139=
201701220052 METAR KATL 220052Z 22004KT 10SM BKN016 BKN200 BKN250 15/14 A2969 RMK AO2 SLP051 T01500139=
201701220014 SPECI KATL 220014Z 22003KT 10SM BKN015 BKN200 BKN250 14/14 A2967 RMK AO2 T01440139=
201701212352 METAR KATL 212352Z 00000KT 10SM SCT016 SCT200 BKN250 14/13 A2967 RMK AO2 SLP044 60000 T01440133 10178 20139 53008=
201701212336 SPECI KATL 212336Z 27004KT 10SM SCT016 SCT200 BKN250 16/14 A2966 RMK AO2 T01560139=
201701212252 METAR KATL 212252Z 21003KT 10SM BKN016 BKN200 BKN250 16/14 A2965 RMK AO2 SLP037 T01610139=
201701212232 SPECI KATL 212232Z 00000KT 10SM SCT016 BKN200 BKN250 18/14 A2964 RMK AO2 T01780139=
201701212152 METAR KATL 212152Z 21003KT 10SM BKN016 BKN120 BKN250 17/14 A2966 RMK AO2 SLP037 T01720139=
201701212113 SPECI KATL 212113Z 00000KT 10SM BKN018 BKN120 BKN250 17/14 A2964 RMK AO2 T01670139=
201701212052 METAR KATL 212052Z 00000KT 10SM FEW015 BKN120 BKN250 17/14 A2965 RMK AO2 SLP034 60000 T01670139 53008=
201701211952 METAR KATL 211952Z VRB03KT 10SM SCT013 BKN120 17/13 A2963 RMK AO2 SLP029 VIRGA S T01670133=
201701211852 METAR KATL 211852Z 03009KT 10SM FEW012 FEW030 OVC120 16/15 A2963 RMK AO2 PK WND 03030/1756 RAE10 PRESRR SLP029 VIRGA OHD BINOVC P0000 T01610150=
201701211759 SPECI KATL 211759Z 04024KT 7SM -RA SCT030 BKN050 OVC100 14/14 A2960 RMK AO2 PK WND 03030/1756 PRESFR P0000 T01440139=
201701211752 METAR KATL 211752Z 03025G30KT 4SM -RA BR SCT007 BKN028 OVC060 14/14 A2962 RMK AO2 PK WND 31033/1717 WSHFT 1700 SLP027 P0059 60312 T01390139 10172 20133 58054=
201701211743 SPECI KATL 211743Z 36018G29KT 1 1/4SM R09R/5500VP6000FT +RA BR SCT005 BKN027 OVC055 14/13 A2971 RMK AO2 PK WND 31033/1717 WSHFT 1700 SFC VIS 1 1/2 P0057 T01390133=
201701211729 SPECI KATL 211729Z 33022G30KT 1SM R09R/3000VP6000FT +RA BR BKN005 OVC021 13/13 A2976 RMK AO2 PK WND 31033/1717 WSHFT 1700 TWR VIS 1 1/4 P0047 T01330133=
201701211721 SPECI KATL 211721Z 32023G33KT 1/2SM R09R/3000VP6000FT +RA FG OVC005 14/13 A2975 RMK AO2 PK WND 31033/1717 WSHFT 1700 TWR VIS 1 1/4 PRESRR P0027 T01390133=
201701211716 SPECI KATL 211716Z 29026G31KT 1 1/4SM R09R/4500VP6000FT +RA BR OVC004 14/14 A2974 RMK AO2 PK WND 28031/1715 WSHFT 1700 LTG DSNT W PRESRR P0009 T01440139=
201701211652 METAR KATL 211652Z 03019KT 1 1/4SM RA BR BKN004 BKN008 OVC019 15/15 A2969 RMK AO2 SFC VIS 2 1/2 LTG DSNT NE SLP050 P0064 T01500150=
201701211620 SPECI KATL 211620Z 02013KT 1 1/4SM R09R/6000VP6000FT +RA BR SCT006 BKN028 OVC050 16/16 A2973 RMK AO2 SFC VIS 1 3/4 LTG DSNT NE AND SE CB MOV NE P0029 T01560156=
201701211609 SPECI KATL 211609Z 04015KT 1 1/4SM VCTS +RA BR SCT006 BKN028CB OVC050 16/15 A2975 RMK AO2 SFC VIS 2 LTG DSNT N AND NE CB ALQDS MOV NE P0019 T01560150=
201701211552 METAR KATL 211552Z 04012G19KT 1 1/4SM VCTS +RA BR SCT006 OVC012CB 16/15 A2977 RMK AO2 WSHFT 1510 SFC VIS 2 1/2 LTG DSNT ALQDS TSE18 SLP079 CB ALQDS MOV NE P0071 T01560150=
201701211542 SPECI KATL 211542Z 05009KT 1 1/4SM VCTS +RA BR SCT008 OVC012CB 16/16 A2978 RMK AO2 WSHFT 1510 SFC VIS 2 LTG DSNT NE-SE TSE18 CB S MOV NE P0063 T01560156=
201701211533 SPECI KATL 211533Z 02013KT 1/4SM R09R/4000VP6000FT VCTS +RA BR SCT008 BKN012CB OVC019 16/15 A2976 RMK AO2 WSHFT 1510 SFC VIS 1 1/4 LTG DSNT ALQDS TSE18 OCNL LTGICCG ALQDS CB S MOV NE P0053 T01560150=
201701211525 SPECI KATL 211525Z 35011KT 1 3/4SM R09R/5000VP6000FT VCTS +RA BR SCT010 BKN017CB OVC029 15/14 A2978 RMK AO2 WSHFT 1510 TWR VIS 3 LTG DSNT ALQDS TSE18 OCNL LTGICCG ALQDS CB S MOV NE P0030 T01500144=
201701211522 SPECI KATL 211522Z 34014KT 2SM R09R/5500VP6000FT VCTS +RA BR SCT010 BKN017CB OVC029 15/14 A2977 RMK AO2 TWR VIS 3 LTG DSNT ALQDS TSE18 OCNL LTGICCG ALQDS CB S MOV NE P0023 T01500144=
201701211506 SPECI KATL 211506Z 04010KT 2SM TSRA BR FEW005 BKN014CB OVC025 16/14 A2978 RMK AO2 TWR VIS 3 LTG DSNT ALQDS OCNL LTGICCG S CB S MOV NE P0011 T01560144=
201701211459 SPECI KATL 211459Z AUTO 03010KT 2SM +RA BR FEW005 BKN014CB OVC025 16/14 A2977 RMK AO2 TWR VIS 3 LTG DSNT ALQDS OCNL LTGICCG S CB S MOV NE P0008 T01560144 TSNO=
201701211456 SPECI KATL 211456Z 04009KT 2SM +TSRA BR FEW005 SCT015 OVC031 16/14 A2977 RMK AO2 TWR VIS 3 PRESFR OCNL LTGICCG S CB S MOV NE P0006 T01560144=
201701211452 METAR KATL 211452Z 03006KT 1 1/2SM +TSRA BR SCT004 BKN026CB BKN033 16/14 A2978 RMK AO2 SFC VIS 1 3/4 SLP082 OCNL LTGICCG S TS SW MOV NE P0064 60118 T01560144 58003=
201701211352 METAR KATL 211352Z 33004G20KT 1 1/2SM R09R/6000VP6000FT +TSRA BR FEW003 BKN015CB OVC021 14/13 A2981 RMK AO2 SFC VIS 3 TSB02 SLP091 OCNL LTGCG E FRQ LTGIC OHD-ALQDS TS OHD-ALQDS MOV NE P0054 T01440128=
201701211346 SPECI KATL 211346Z 34013G20KT 1/4SM R09R/5000VP6000FT +TSRA BR SCT003 OVC012CB 16/16 A2981 RMK AO2 SFC VIS 1 TSB02 OCNL LTGCG E FRQ LTGIC OHD-ALQDS TS OHD-ALQDS MOV NE TWRINC P0046=
201701211303 SPECI KATL 211303Z 09006KT 1/4SM R09R/P6000FT TSRA BR OVC003CB 17/17 A2981 RMK AO2 SFC VIS 1 1/2 TSB02 OCNL LTGICCG SW TS SW MOV NE P0003 T01720172=
201701211252 METAR KATL 211252Z 13004KT 1/4SM R09R/P6000FT -RA BR OVC003 17/17 A2982 RMK AO2 SFC VIS 1 1/2 RAB50 SLP092 OCNL LTG DSNT S-W CB DSNT S-W P0000 T01720172=
201701211152 METAR KATL 211152Z 11003KT 1/4SM R09R/5500VP6000FT BR BKN004 OVC008 17/17 A2979 RMK AO2 SFC VIS 1 1/4 SLP083 CIG 002V006 TWRINC 60000 T01720172 10172 20167 56024=
201701211052 METAR KATL 211052Z 08005KT 1/4SM R09R/2800V4000FT BR OVC003 17/17 A2980 RMK AO2 SFC VIS 1 SLP085 CIG 002V004 TWRINC T01720167=
201701211034 SPECI KATL 211034Z 11004KT 1/4SM R09R/2800VP6000FT FG OVC003 17/17 A2981 RMK AO2 SFC VIS 1/2 CIG 002V004 T01720172=
201701211010 SPECI KATL 211010Z 00000KT 1/4SM R09R/P6000FT BR OVC003 17/17 A2983 RMK AO2 SFC VIS 1 1/4 CIG 002V004 TWRINC T01720172=
201701210952 METAR KATL 210952Z 17003KT 1/4SM R09R/P6000FT BR OVC003 17/17 A2983 RMK AO2 SFC VIS 2 SLP096 CIG 002V004 TWRINC T01720172=
201701210852 METAR KATL 210852Z 19007KT 1/4SM R09R/2200V2600FT FG VV002 17/17 A2986 RMK AO2 SFC VIS 1/2 SLP106 60000 T01720172 56000=
201701210752 METAR KATL 210752Z 19005KT 1/4SM R09R/3500V4000FT FG VV002 17/17 A2987 RMK AO2 SFC VIS 1/2 DZB30E51 SLP108 VIS SW 1/4 P0000 T01720172=
201701210730 SPECI KATL 210730Z 21005KT 1/4SM R09R/3000V4000FT -DZ FG VV002 17/17 A2988 RMK AO2 SFC VIS 1/2 DZB30 P0000 T01720172=
201701210718 SPECI KATL 210718Z 21004KT 1SM R09R/5500VP6000FT BR OVC003 17/17 A2987 RMK AO2 SFC VIS 1 1/2 T01720172=
201701210652 METAR KATL 210652Z 19004KT 1SM R09R/P6000FT BR OVC003 17/17 A2986 RMK AO2 SFC VIS 4 SLP104 VIS SW-NW 2 1/2 T01720167=
201701210618 SPECI KATL 210618Z 19005KT 6SM BR OVC004 17/17 A2986 RMK AO2 CIG 003V005 VIS LWR SW-NW T01720167=
201701210552 METAR KATL 210552Z 19005KT 10SM OVC005 17/16 A2987 RMK AO2 SLP107 T01670161 10189 20156 57005=
201701210520 SPECI KATL 210520Z 19004KT 10SM BKN009 BKN250 16/15 A2987 RMK AO2 T01560150=
201701210452 METAR KATL 210452Z 00000KT 10SM FEW025 SCT250 16/14 A2987 RMK AO2 SLP110 T01610144 402330156=
201701210352 METAR KATL 210352Z 17004KT 10SM FEW028 SCT045 SCT250 17/15 A2988 RMK AO2 SLP111 T01720150=
201701210252 METAR KATL 210252Z 20005KT 10SM FEW026 BKN035 BKN050 17/15 A2988 RMK AO2 SLP113 T01720150 53014=
201701210152 METAR KATL 210152Z 20003KT 10SM FEW040 17/14 A2987 RMK AO2 SLP110 T01720144=
201701210052 METAR KATL 210052Z 20005KT 10SM CLR 18/14 A2985 RMK AO2 SLP103 T01780144=
201701202352 METAR KATL 202352Z 19007KT 10SM FEW070 FEW250 19/14 A2984 RMK AO2 SLP098 T01890144 10233 20189 51005=
201701202252 METAR KATL 202252Z 20006KT 10SM FEW050 FEW070 SCT250 21/14 A2983 RMK AO2 SLP096 T02060139=
201701202152 METAR KATL 202152Z 24007KT 10SM FEW055 SCT070 SCT250 22/13 A2983 RMK AO2 SLP094 T02170128=
201701202052 METAR KATL 202052Z 24008G17KT 10SM FEW045 SCT065 SCT250 23/12 A2982 RMK AO2 SLP092 T02330122 56011=
201701201952 METAR KATL 201952Z 26012KT 10SM FEW048 SCT060 SCT250 23/12 A2982 RMK AO2 SLP093 T02280122=
201701201852 METAR KATL 201852Z 25011G19KT 10SM SCT040 SCT055 BKN250 22/12 A2983 RMK AO2 SLP096 T02170122=
201701201752 METAR KATL 201752Z 25014G19KT 10SM FEW030 SCT040 BKN250 22/12 A2985 RMK AO2 SLP103 T02220122 10222 20172 58013=
201701201652 METAR KATL 201652Z 26011G19KT 10SM FEW025 FEW050 SCT250 20/13 A2988 RMK AO2 SLP115 T02000133=
201701201647 SPECI KATL 201647Z 24013G19KT 10SM FEW025 FEW050 SCT250 20/13 A2989 RMK AO2=
201701201552 METAR KATL 201552Z 24012G18KT 10SM BKN025 BKN045 21/14 A2989 RMK AO2 SLP118 T02060144=
201701201452 METAR KATL 201452Z 24011KT 10SM SCT020 SCT030 19/16 A2988 RMK AO2 SLP112 T01890156 53017=
201701201410 SPECI KATL 201410Z 24006KT 10SM BKN013 BKN020 BKN050 18/17 A2986 RMK AO2 T01780167=
201701201352 METAR KATL 201352Z 23007KT 10SM SCT013 BKN050 18/16 A2986 RMK AO2 SLP106 T01780161=
201701201341 SPECI KATL 201341Z 23006KT 10SM SCT012 BKN016 BKN050 18/16 A2985 RMK AO2 T01780161=
201701201312 SPECI KATL 201312Z 22008KT 10SM BKN014 BKN024 BKN049 17/16 A2985 RMK AO2 T01720161=
201701201252 METAR KATL 201252Z 21007KT 10SM SCT012 BKN048 17/16 A2984 RMK AO2 SLP098 T01720161=
201701201220 SPECI KATL 201220Z 23007KT 10SM BKN013 BKN022 17/16 A2983 RMK AO2 T01720161=
201701201152 METAR KATL 201152Z 22005KT 10SM FEW009 BKN024 17/16 A2983 RMK AO2 SLP094 60000 70034 T01720161 10178 20167 53000=
201701201114 SPECI KATL 201114Z 22005KT 10SM FEW009 BKN014 BKN021 17/16 A2982 RMK AO2 T01670161=
201701201052 METAR KATL 201052Z 22006KT 10SM BKN009 OVC022 17/16 A2982 RMK AO2 SLP092 T01720161=
201701201013 SPECI KATL 201013Z 21006KT 10SM BKN011 BKN060 17/16 A2981 RMK AO2 T01720161=
201701201006 SPECI KATL 201006Z 21009KT 10SM SCT011 BKN060 17/16 A2981 RMK AO2 T01720161 $=
201701200952 METAR KATL 200952Z 20010KT 10SM BKN013 17/16 A2981 RMK AO2 RAB36E49 SLP086 P0000 T01720161 $=
201701200852 METAR KATL 200852Z 22010KT 10SM BKN014 17/16 A2982 RMK AO2 SLP093 60000 T01720161 55004 $=
201701200843 SPECI KATL 200843Z 22009G16KT 10SM OVC013 17/16 A2982 RMK AO2 T01720161 $=
201701200827 SPECI KATL 200827Z 21008KT 10SM BKN015 17/16 A2982 RMK AO2 T01720161 $=
201701200752 METAR KATL 200752Z 22012G20KT 10SM BKN013 BKN020 18/16 A2982 RMK AO2 SLP090 T01780161 $=
201701200711 SPECI KATL 200711Z 21013G19KT 10SM BKN013 BKN020 OVC100 18/17 A2982 RMK AO2 T01780167 $=
201701200652 METAR KATL 200652Z 21010G20KT 10SM BKN016 BKN100 OVC200 17/17 A2981 RMK AO2 RAE23 SLP086 P0000 T01720167 $=
201701200637 SPECI KATL 200637Z 19012KT 10SM FEW010 SCT013 SCT100 OVC150 17/17 A2978 RMK AO2 RAE23 P0000 T01720167 $=
201701200625 SPECI KATL 200625Z 18011KT 10SM FEW006 BKN012 OVC120 17/17 A2978 RMK AO2 RAE23 P0000 T01720167 $=
201701200552 METAR KATL 200552Z 17007KT 7SM -RA SCT008 BKN015 OVC100 17/17 A2984 RMK AO2 SLP097 P0012 60034 T01720167 10206 20150 58011 $=
201701200549 SPECI KATL 200549Z 17007KT 7SM -RA SCT008 BKN015 OVC100 17/17 A2984 RMK AO2 P0011 $=
201701200524 SPECI KATL 200524Z 18006KT 4SM RA BR FEW008 SCT015 BKN030 OVC150 17/16 A2986 RMK AO2 CB DSNT NE-E P0010 T01670161 $=
201701200506 SPECI KATL 200506Z 21003KT 4SM -RA BR SCT015CB BKN022 OVC100 16/16 A2987 RMK AO2 CB N-E MOV NE P0007 T01610156 $=
201701200452 METAR KATL 200452Z 26003KT 2SM +RA BR SCT015CB BKN025 OVC100 16/15 A2988 RMK AO2 RAB0354 SLP111 CB ALQDS MOV NE P0012 T01560150 402390122 $=
201701200415 SPECI KATL 200415Z 00000KT 9SM -RA FEW010 BKN025 OVC150 16/14 A2988 RMK AO2 LTG DSNT NW RAB0354 CB DSNT SW-NW P0002 T01560144 $=
201701200352 METAR KATL 200352Z 16005KT 10SM SCT028 BKN035 OVC150 15/14 A2987 RMK AO2 LTG DSNT W AND NW RAB0255E31 SLP110 SHRA SW-W CB DSNT NE & SW-NW P0010 T01500139 $=
201701200252 METAR KATL 200252Z 12007KT 10SM SCT038CB BKN050 OVC150 18/11 A2987 RMK AO2 SLP110 CB VC SW-W & DSNT S MOV NE T01830106 58006=
201701200152 METAR KATL 200152Z 11007KT 10SM BKN034 OVC050 18/09 A2988 RMK AO2 SLP116 BINOVC T01830094=
201701200052 METAR KATL 200052Z 09010KT 10SM SCT038 BKN060 OVC200 19/11 A2990 RMK AO2 SLP120 T01890106=
201701192352 METAR KATL 192352Z 14006KT 10SM BKN040 BKN180 OVC250 21/13 A2989 RMK AO2 SLP117 T02060133 10239 20206 55010=
201701192252 METAR KATL 192252Z 13007KT 10SM FEW045 BKN200 BKN250 21/13 A2988 RMK AO2 SLP115 T02110128=
201701192152 METAR KATL 192152Z 16010KT 10SM BKN044 BKN080 BKN200 22/12 A2991 RMK AO2 SLP125 T02220122=
201701192052 METAR KATL 192052Z 18009KT 10SM FEW040 BKN085 BKN200 22/12 A2992 RMK AO2 SLP127 T02220122 56025=
201701191952 METAR KATL 191952Z 19011G16KT 10SM FEW045 SCT100 BKN200 24/13 A2993 RMK AO2 SLP128 T02390128=
201701191852 METAR KATL 191852Z VRB05KT 10SM FEW035 SCT100 BKN200 22/14 A2995 RMK AO2 SLP138 T02220139=
201701191752 METAR KATL 191752Z 20007KT 10SM FEW027 SCT050 BKN110 BKN250 21/14 A3000 RMK AO2 SLP153 T02110139 10217 20133 58019=
201701191652 METAR KATL 191652Z 21003KT 10SM FEW030 SCT100 SCT250 21/13 A3003 RMK AO2 SLP163 T02110133=
201701191552 METAR KATL 191552Z 12006KT 10SM FEW100 FEW250 SCT300 19/12 A3005 RMK AO2 SLP171 T01890122=
201701191452 METAR KATL 191452Z 12004KT 10SM FEW020 SCT110 BKN250 17/11 A3006 RMK AO2 SLP174 T01720106 53004=
201701191352 METAR KATL 191352Z 11003KT 10SM BKN120 BKN250 15/12 A3004 RMK AO2 SLP170 T01500117=
201701191252 METAR KATL 191252Z 00000KT 10SM BKN130 13/11 A3004 RMK AO2 SLP171 VIRGA NE T01330111=
201701191152 METAR KATL 191152Z 00000KT 10SM BKN150 13/11 A3004 RMK AO2 SLP171 T01330111 10144 20122 55000=
201701191052 METAR KATL 191052Z 00000KT 10SM BKN150 13/11 A3003 RMK AO2 SLP164 T01330106=
201701190952 METAR KATL 190952Z 00000KT 10SM BKN150 13/11 A3003 RMK AO2 SLP166 T01280106=
201701190852 METAR KATL 190852Z 33003KT 10SM SCT120 BKN160 13/11 A3004 RMK AO2 SLP169 T01280106 56014=
201701190752 METAR KATL 190752Z 00000KT 10SM SCT120 13/11 A3005 RMK AO2 SLP172 T01280106=
201701190652 METAR KATL 190652Z 00000KT 10SM BKN180 13/11 A3007 RMK AO2 SLP178 T01330106=
201701190552 METAR KATL 190552Z 32003KT 10SM BKN180 14/11 A3008 RMK AO2 SLP184 T01390106 10178 20139 58006=
201701190452 METAR KATL 190452Z 30004KT 10SM BKN200 14/11 A3010 RMK AO2 SLP187 T01440106 402170139=
201701190352 METAR KATL 190352Z 29004KT 10SM BKN200 15/11 A3010 RMK AO2 SLP189 T01500111=
201701190252 METAR KATL 190252Z 31004KT 10SM BKN220 16/11 A3010 RMK AO2 SLP190 T01560111 52002=
201701190152 METAR KATL 190152Z 27005KT 10SM BKN250 16/11 A3009 RMK AO2 SLP188 T01610106=
201701190052 METAR KATL 190052Z 27005KT 10SM FEW250 17/11 A3010 RMK AO2 SLP189 T01720106=
201701182352 METAR KATL 182352Z 29008KT 10SM FEW100 FEW250 18/11 A3009 RMK AO2 SLP187 T01780106 10217 20178 53004=
201701182252 METAR KATL 182252Z 27006KT 10SM FEW040 FEW100 SCT250 18/11 A3008 RMK AO2 SLP182 T01830111=
201701182152 METAR KATL 182152Z 28010KT 10SM FEW040 FEW100 SCT250 21/11 A3008 RMK AO2 SLP182 T02060111=
201701182052 METAR KATL 182052Z 29008KT 10SM FEW040 SCT100 BKN250 21/11 A3008 RMK AO2 SLP181 T02110111 56013=
201701181952 METAR KATL 181952Z 30009KT 10SM FEW030 SCT050 BKN100 BKN250 20/11 A3009 RMK AO2 SLP185 T02000111=
201701181852 METAR KATL 181852Z 31015G20KT 10SM FEW030 SCT050 BKN070 BKN250 19/13 A3010 RMK AO2 SLP188 T01940133=
201701181752 METAR KATL 181752Z 27010KT 10SM BKN040 BKN050 BKN080 19/13 A3012 RMK AO2 SLP195 VIRGA E & SW-NW T01890128 10200 20167 58016=
201701181652 METAR KATL 181652Z 28011KT 10SM FEW030 SCT040 BKN080 BKN250 19/13 A3016 RMK AO2 SLP208 SHRA DSNT NW T01940128=
201701181552 METAR KATL 181552Z 30011KT 10SM FEW015 BKN030 BKN070 18/14 A3019 RMK AO2 SLP218 T01780139=
201701181452 METAR KATL 181452Z 30008KT 10SM FEW010 BKN025 BKN070 17/15 A3017 RMK AO2 SLP213 T01720150 53015=
201701181352 METAR KATL 181352Z 30007KT 7SM FEW009 BKN012 OVC020 17/16 A3015 RMK AO2 SLP207 SHRA N T01720161=
201701181320 SPECI KATL 181320Z 25005KT 9SM BKN011 BKN023 OVC060 17/16 A3014 RMK AO2 SHRA SW T01720161=
201701181311 SPECI KATL 181311Z 26006KT 8SM FEW009 SCT015 BKN060 17/16 A3013 RMK AO2 T01720161=
201701181252 METAR KATL 181252Z 26006KT 9SM FEW015 SCT043 BKN055 17/16 A3013 RMK AO2 SLP198 T01720156=
201701181203 SPECI KATL 181203Z 26006KT 10SM FEW013 SCT026 BKN036 17/16 A3013 RMK AO2 T01720156=
201701181152 METAR KATL 181152Z 27007KT 10SM FEW013 BKN024 OVC032 17/16 A3013 RMK AO2 SLP196 BINOVC T01720156 10183 20167 53010=
201701181140 SPECI KATL 181140Z 27007KT 10SM SCT013 BKN024 OVC032 17/16 A3012 RMK AO2 T01720156=
201701181052 METAR KATL 181052Z 27008KT 10SM FEW009 OVC013 17/16 A3010 RMK AO2 SLP187 T01720161=
201701181014 SPECI KATL 181014Z 24008KT 10SM SCT009 BKN014 17/16 A3009 RMK AO2 T01720156=
201701180952 METAR KATL 180952Z 25008G15KT 10SM OVC009 17/16 A3010 RMK AO2 SLP185 T01720156=
201701180939 SPECI KATL 180939Z 25007KT 10SM OVC009 17/16 A3009 RMK AO2 T01720156=
201701180911 SPECI KATL 180911Z 25007KT 10SM OVC013 17/15 A3010 RMK AO2 T01720150=
201701180852 METAR KATL 180852Z 25006KT 10SM BKN016 OVC022 17/15 A3010 RMK AO2 SLP185 T01720150 58006=
201701180843 SPECI KATL 180843Z 26008KT 10SM SCT016 BKN022 17/15 A3010 RMK AO2 T01720150=
201701180752 METAR KATL 180752Z 26009KT 10SM FEW020 FEW080 FEW250 18/15 A3011 RMK AO2 SLP190 T01780150=
201701180652 METAR KATL 180652Z 24009KT 10SM FEW070 FEW250 18/15 A3011 RMK AO2 SLP187 T01830150=
201701180552 METAR KATL 180552Z 23008KT 10SM FEW200 SCT250 18/14 A3012 RMK AO2 SLP192 T01830144 10200 20172 58013=
201701180452 METAR KATL 180452Z 22010KT 10SM SCT200 BKN250 18/14 A3013 RMK AO2 SLP195 T01830139 402390117=
201701180352 METAR KATL 180352Z 22008KT 10SM SCT200 BKN250 17/14 A3015 RMK AO2 SLP205 T01720139=
201701180252 METAR KATL 180252Z 23006KT 10SM FEW075 SCT200 BKN250 18/14 A3015 RMK AO2 SLP207 T01780139 58005=
201701180152 METAR KATL 180152Z 23005KT 10SM FEW075 SCT200 BKN250 18/14 A3016 RMK AO2 SLP212 T01780139=
201701180052 METAR KATL 180052Z 22003KT 10SM FEW070 BKN250 19/14 A3017 RMK AO2 SLP213 T01940139=
201701172352 METAR KATL 172352Z 26004KT 10SM FEW060 SCT200 BKN250 20/13 A3017 RMK AO2 SLP213 T02000133 10239 20200 53013=
201701172252 METAR KATL 172252Z 24008KT 10SM FEW060 SCT180 BKN250 22/13 A3015 RMK AO2 SLP207 T02170133=
201701172152 METAR KATL 172152Z 23010KT 10SM FEW040 FEW060 SCT180 BKN250 22/13 A3014 RMK AO2 SLP204 T02220133=
201701172052 METAR KATL 172052Z 21009KT 10SM SCT040 SCT180 BKN250 23/14 A3013 RMK AO2 SLP200 T02280139 56012=
201701171952 METAR KATL 171952Z 22013G19KT 10SM FEW040 SCT050 BKN180 BKN250 22/13 A3014 RMK AO2 SLP202 T02220133=
201701171852 METAR KATL 171852Z 20015KT 10SM SCT040 BKN180 BKN250 23/13 A3014 RMK AO2 SLP202 T02330128=
201701171752 METAR KATL 171752Z 24012KT 10SM FEW040 FEW080 SCT180 BKN250 23/13 A3017 RMK AO2 SLP211 T02280128 10228 20122 58020=
201701171652 METAR KATL 171652Z 22011KT 10SM FEW030 SCT080 BKN250 22/13 A3021 RMK AO2 SLP226 T02170128=
201701171552 METAR KATL 171552Z 22008KT 10SM FEW050 FEW080 BKN250 18/12 A3024 RMK AO2 SLP236 T01830122=
201701171452 METAR KATL 171452Z 19008KT 10SM FEW050 SCT080 BKN250 16/13 A3023 RMK AO2 SLP234 T01610128 51007=
201701171352 METAR KATL 171352Z 15006KT 7SM FEW045 BKN065 BKN080 BKN250 13/12 A3023 RMK AO2 SLP233 VIS LWR N T01330122=
201701171252 METAR KATL 171252Z 00000KT 6SM BR BKN065 BKN250 13/12 A3022 RMK AO2 SLP231 T01280122=
201701171152 METAR KATL 171152Z 13003KT 8SM FEW002 SCT044 BKN055 13/13 A3021 RMK AO2 SLP226 T01280128 10139 20117 55003=
201701171052 METAR KATL 171052Z 13003KT 8SM FEW003 FEW060 13/12 A3020 RMK AO2 SLP225 VIS LWR NE & S-SW T01280122=
201701170952 METAR KATL 170952Z 00000KT 3SM BR FEW002 BKN060 13/12 A3020 RMK AO2 SLP224 VIS NW-NE 2 T01280122=
201701170940 SPECI KATL 170940Z 09004KT 3SM BR FEW002 OVC060 13/12 A3021 RMK AO2 VIS W-N-NE 1 1/2 T01280122=
201701170852 METAR KATL 170852Z 08005KT 1 1/4SM BR BKN002 OVC060 12/12 A3022 RMK AO2 SLP228 T01220122 58005=
201701170752 METAR KATL 170752Z 08006KT 4SM BR FEW004 BKN050 13/13 A3023 RMK AO2 SLP233 T01330128=
201701170652 METAR KATL 170652Z 13005KT 6SM BR FEW006 SCT050 BKN070 BKN250 13/13 A3022 RMK AO2 SLP231 VIS LWR S-W T01330128=
201701170552 METAR KATL 170552Z 10004KT 8SM FEW006 SCT050 BKN070 14/13 A3023 RMK AO2 SLP235 T01390128 10194 20139 58006=
201701170452 METAR KATL 170452Z 11008KT 10SM SCT050 SCT075 14/13 A3024 RMK AO2 SLP238 T01440128 402170106=
201701170352 METAR KATL 170352Z 11006KT 10SM FEW050 FEW080 SCT180 15/13 A3025 RMK AO2 SLP240 T01500128=
201701170252 METAR KATL 170252Z 09008KT 10SM SCT180 16/13 A3025 RMK AO2 SLP242 T01560128 50007=
201701170152 METAR KATL 170152Z 10008KT 10SM FEW080 FEW180 16/13 A3025 RMK AO2 SLP242 T01610128=
201701170052 METAR KATL 170052Z 13006KT 10SM SCT085 BKN180 19/13 A3024 RMK AO2 SLP238 T01890128=
201701162352 METAR KATL 162352Z 14005KT 10SM SCT085 BKN200 19/12 A3023 RMK AO2 SLP235 T01940122 10217 20183 51003=
201701162252 METAR KATL 162252Z 16005KT 10SM FEW040 BKN085 BKN250 20/12 A3023 RMK AO2 SLP234 T02000122=
201701162152 METAR KATL 162152Z 17008KT 10SM FEW040 SCT085 BKN250 22/11 A3022 RMK AO2 SLP230 T02170111=
201701162052 METAR KATL 162052Z 15005KT 10SM FEW040 BKN080 BKN250 22/13 A3022 RMK AO2 SLP230 T02170128 56018=
201701161952 METAR KATL 161952Z 17003KT 10SM SCT030TCU BKN060 BKN075 BKN250 20/13 A3023 RMK AO2 SLP235 TCU E & OHD-SE-SW T02000133=
201701161852 METAR KATL 161852Z 00000KT 10SM FEW030 BKN080 BKN250 21/14 A3025 RMK AO2 SLP240 TCU DSNT SE-SW T02060139=
201701161752 METAR KATL 161752Z 11004KT 10SM FEW020 BKN080 BKN250 18/13 A3028 RMK AO2 SLP250 T01830133 10189 20111 58013=
201701161652 METAR KATL 161652Z 13005KT 10SM FEW030 BKN075 BKN250 16/13 A3031 RMK AO2 SLP262 T01610128=
201701161552 METAR KATL 161552Z 11005KT 10SM FEW035 BKN075 BKN250 16/12 A3033 RMK AO2 SLP268 T01560122=
201701161452 METAR KATL 161452Z 10003KT 8SM FEW030 BKN080 OVC250 14/11 A3032 RMK AO2 SLP264 T01390111 53015=
201701161352 METAR KATL 161352Z 09006KT 8SM FEW030 BKN075 BKN200 13/11 A3029 RMK AO2 SLP257 T01330106=
201701161252 METAR KATL 161252Z 09006KT 9SM FEW040 BKN070 12/10 A3028 RMK AO2 SLP254 T01170100=
201701161152 METAR KATL 161152Z 07006KT 10SM BKN060 BKN200 11/09 A3027 RMK AO2 SLP249 T01110089 10139 20106 53008=
201701161052 METAR KATL 161052Z 10003KT 10SM SCT065 SCT200 12/09 A3026 RMK AO2 SLP244 T01220089=
201701160952 METAR KATL 160952Z 09003KT 10SM BKN065 BKN200 13/09 A3025 RMK AO2 SLP241 T01330089=
201701160852 METAR KATL 160852Z 08005KT 10SM SCT200 SCT250 12/09 A3024 RMK AO2 SLP238 T01220089 50000=
201701160752 METAR KATL 160752Z 00000KT 10SM BKN200 BKN250 13/09 A3025 RMK AO2 SLP238 T01330094=
201701160652 METAR KATL 160652Z 00000KT 10SM SCT200 BKN250 14/09 A3025 RMK AO2 SLP238 T01390094=
201701160552 METAR KATL 160552Z 00000KT 10SM FEW150 BKN200 OVC250 14/09 A3024 RMK AO2 SLP237 T01390094 10183 20133 56004=
201701160452 METAR KATL 160452Z 00000KT 10SM FEW150 BKN200 BKN250 14/09 A3025 RMK AO2 SLP238 T01390094 402280106=
201701160352 METAR KATL 160352Z 00000KT 10SM FEW055 FEW150 BKN200 OVC250 16/09 A3025 RMK AO2 SLP239 T01560089=
201701160252 METAR KATL 160252Z 17004KT 10SM SCT055 SCT150 BKN200 OVC250 16/09 A3026 RMK AO2 SLP243 T01610089 53002=
201701160152 METAR KATL 160152Z 00000KT 10SM FEW150 BKN200 OVC250 16/08 A3025 RMK AO2 SLP241 T01560083=
201701160052 METAR KATL 160052Z 00000KT 10SM BKN200 OVC250 16/08 A3025 RMK AO2 SLP244 T01610083=
201701152352 METAR KATL 152352Z 00000KT 10SM FEW065 BKN200 BKN250 18/08 A3025 RMK AO2 SLP242 T01780078 10228 20178 53003=
201701152252 METAR KATL 152252Z 00000KT 10SM FEW060 BKN200 BKN250 20/07 A3024 RMK AO2 SLP237 T02000072=
201701152152 METAR KATL 152152Z 23004KT 10SM SCT060 BKN250 22/07 A3024 RMK AO2 SLP235 T02170072=
201701152052 METAR KATL 152052Z 23004KT 10SM SCT055 BKN250 23/07 A3024 RMK AO2 SLP236 T02280072 56016=
201701151952 METAR KATL 151952Z 00000KT 10SM SCT055 BKN250 22/09 A3024 RMK AO2 SLP237 T02220089=
201701151852 METAR KATL 151852Z 31006KT 10SM SCT050 BKN250 22/09 A3026 RMK AO2 SLP243 T02220094=
201701151752 METAR KATL 151752Z 31006KT 10SM SCT045 BKN250 22/09 A3029 RMK AO2 SLP253 T02170094 10228 20106 58018=
201701151652 METAR KATL 151652Z 32005KT 10SM FEW040 BKN250 22/11 A3032 RMK AO2 SLP264 T02220111=
201701151552 METAR KATL 151552Z 00000KT 10SM FEW100 BKN250 20/12 A3035 RMK AO2 SLP272 T02000122=
201701151452 METAR KATL 151452Z 30005KT 10SM FEW050 BKN250 16/12 A3034 RMK AO2 SLP272 T01610117 52008=
201701151352 METAR KATL 151352Z 30003KT 10SM FEW050 FEW200 BKN250 13/12 A3033 RMK AO2 SLP270 T01330117=
201701151252 METAR KATL 151252Z 00000KT 10SM FEW050 SCT200 BKN250 11/09 A3033 RMK AO2 SLP268 T01060094=
201701151152 METAR KATL 151152Z 00000KT 10SM SCT050 BKN250 11/09 A3032 RMK AO2 SLP265 T01110094 10150 20111 55001=
201701151052 METAR KATL 151052Z 29003KT 10SM SCT048 BKN200 BKN250 12/11 A3032 RMK AO2 SLP263 T01220106=
201701150952 METAR KATL 150952Z 30004KT 10SM FEW200 SCT250 13/11 A3032 RMK AO2 SLP262 T01330106=
201701150852 METAR KATL 150852Z 28003KT 10SM FEW200 BKN250 13/11 A3032 RMK AO2 SLP263 T01280106 58006=
201701150752 METAR KATL 150752Z 26004KT 10SM SCT200 BKN250 13/11 A3033 RMK AO2 SLP266 T01280106=
201701150652 METAR KATL 150652Z 28003KT 10SM SCT200 BKN250 14/11 A3034 RMK AO2 SLP268 T01390111=
201701150552 METAR KATL 150552Z 00000KT 10SM FEW150 BKN200 OVC250 14/11 A3034 RMK AO2 SLP269 T01390111 10200 20139 58013=
201701150452 METAR KATL 150452Z 00000KT 10SM BKN200 OVC250 14/12 A3036 RMK AO2 SLP275 T01440117 402500111=
201701150352 METAR KATL 150352Z 00000KT 10SM BKN200 BKN250 15/12 A3037 RMK AO2 SLP281 T01500117=
201701150252 METAR KATL 150252Z 00000KT 10SM BKN200 OVC250 16/12 A3038 RMK AO2 SLP284 T01610117 50000=
201701150152 METAR KATL 150152Z 00000KT 10SM BKN200 OVC250 16/11 A3038 RMK AO2 SLP287 T01610111=
201701150052 METAR KATL 150052Z 32003KT 10SM FEW060 FEW085 BKN200 BKN250 18/11 A3038 RMK AO2 SLP286 T01830111=
201701142352 METAR KATL 142352Z 31005KT 10SM SCT065 BKN080 BKN200 OVC250 20/11 A3038 RMK AO2 SLP284 T02000111 10250 20194 53003=
201701142252 METAR KATL 142252Z 29003KT 10SM FEW055 SCT080 BKN200 BKN250 21/11 A3037 RMK AO2 SLP283 T02110106=
201701142152 METAR KATL 142152Z 30004KT 10SM FEW050 SCT080 BKN250 22/11 A3037 RMK AO2 SLP280 TCU DSNT NE T02220111=
201701142052 METAR KATL 142052Z 31006KT 10SM SCT050 BKN080 BKN250 23/11 A3037 RMK AO2 SLP279 T02330111 56019=
201701141952 METAR KATL 141952Z 00000KT 10SM FEW050 BKN080 BKN250 23/11 A3037 RMK AO2 SLP281 T02330106=
201701141852 METAR KATL 141852Z 29005KT 10SM SCT050 BKN070 BKN250 23/12 A3039 RMK AO2 SLP288 T02280117=
201701141752 METAR KATL 141752Z VRB04KT 10SM FEW050 SCT080TCU BKN250 23/12 A3043 RMK AO2 SLP299 TCU N MDT CU SW-W-NW T02280117 10233 20111 58020=
201701141652 METAR KATL 141652Z 00000KT 10SM FEW035 SCT080 SCT120 BKN250 23/14 A3046 RMK AO2 SLP311 ACC N AND NE-E T02280139=
201701141552 METAR KATL 141552Z 22004KT 10SM FEW028 SCT080 SCT250 21/14 A3048 RMK AO2 SLP319 ACC NE-E T02060139=
201701141452 METAR KATL 141452Z 23004KT 10SM FEW020 SCT080 SCT250 18/15 A3049 RMK AO2 SLP320 T01830150 53009=
201701141352 METAR KATL 141352Z 00000KT 10SM FEW080 SCT200 BKN250 15/15 A3048 RMK AO2 SLP318 T01500150=
201701141252 METAR KATL 141252Z 00000KT 9SM FEW080 SCT200 BKN250 12/11 A3047 RMK AO2 SLP315 T01220111=
201701141152 METAR KATL 141152Z 34003KT 10SM FEW080 BKN250 12/11 A3046 RMK AO2 SLP311 T01170111 10150 20111 53002=
201701141052 METAR KATL 141052Z 00000KT 10SM SCT250 12/12 A3045 RMK AO2 SLP308 T01220122=
201701140952 METAR KATL 140952Z 00000KT 10SM FEW080 SCT250 12/12 A3045 RMK AO2 SLP306 T01220117=
201701140852 METAR KATL 140852Z 00000KT 10SM FEW080 FEW250 13/13 A3045 RMK AO2 SLP308 T01280128 58002=
201701140752 METAR KATL 140752Z 00000KT 10SM FEW080 FEW250 13/13 A3046 RMK AO2 SLP310 T01330128=
201701140652 METAR KATL 140652Z 00000KT 10SM FEW080 13/13 A3046 RMK AO2 SLP309 T01330128=
201701140552 METAR KATL 140552Z 00000KT 10SM FEW080 15/13 A3046 RMK AO2 SLP309 T01500133 10211 20144 58010=
201701140452 METAR KATL 140452Z 00000KT 10SM FEW080 16/14 A3048 RMK AO2 SLP315 T01560139 402390122=
201701140352 METAR KATL 140352Z 00000KT 10SM BKN080 17/14 A3048 RMK AO2 SLP318 T01670139=
201701140252 METAR KATL 140252Z 31004KT 10SM FEW080 17/14 A3049 RMK AO2 SLP321 T01720139 51007=
201701140152 METAR KATL 140152Z 00000KT 10SM FEW080 18/14 A3048 RMK AO2 SLP320 T01780144=
201701140052 METAR KATL 140052Z 00000KT 10SM BKN080 18/14 A3048 RMK AO2 SLP319 T01780144=
201701132352 METAR KATL 132352Z 35004KT 10SM BKN080 BKN250 21/14 A3047 RMK AO2 SLP314 T02110139 10233 20206 53005=
201701132252 METAR KATL 132252Z 00000KT 10SM FEW040 BKN080 BKN250 22/14 A3046 RMK AO2 SLP312 T02170144=
201701132152 METAR KATL 132152Z 33005KT 10SM FEW040 FEW060 BKN080 22/14 A3046 RMK AO2 SLP310 MDT CU NW-N T02220144=
201701132052 METAR KATL 132052Z 32006KT 10SM FEW040 SCT060 OVC080 23/14 A3045 RMK AO2 SLP307 BINOVC T02330139 55008=
201701131952 METAR KATL 131952Z 32006KT 10SM FEW035 SCT050 BKN080 22/14 A3045 RMK AO2 SLP306 T02220139=
201701131852 METAR KATL 131852Z 31007KT 10SM SCT035 BKN045 BKN080 23/14 A3046 RMK AO2 SLP309 T02280144=
201701131752 METAR KATL 131752Z 29008KT 10SM FEW030 SCT050 SCT080 23/14 A3048 RMK AO2 SLP315 T02280139 10239 20133 58012 $=
201701131652 METAR KATL 131652Z 29006KT 10SM FEW030 SCT080 22/15 A3050 RMK AO2 SLP325 T02170150 $=
201701131552 METAR KATL 131552Z 28005KT 10SM SCT080 19/16 A3052 RMK AO2 SLP332 T01940156 $=
201701131452 METAR KATL 131452Z 28003KT 10SM SCT080 17/14 A3051 RMK AO2 SLP329 T01720144 51025 $=
201701131352 METAR KATL 131352Z 28003KT 10SM BKN080 15/14 A3048 RMK AO2 SLP321 T01500139 $=
201701131252 METAR KATL 131252Z 33003KT 10SM FEW032 BKN075 14/14 A3046 RMK AO2 SLP314 T01440139 $=
201701131152 METAR KATL 131152Z 24004KT 10SM BKN075 14/13 A3043 RMK AO2 SLP303 T01390128 10139 20122 53008 $=
201701131052 METAR KATL 131052Z 23004KT 10SM BKN075 13/12 A3042 RMK AO2 SLP298 T01330122=
201701130952 METAR KATL 130952Z 22004KT 10SM FEW075 13/12 A3042 RMK AO2 SLP296 T01330122=
201701130852 METAR KATL 130852Z 24003KT 10SM CLR 13/12 A3041 RMK AO2 SLP294 T01280117 51010=
201701130752 METAR KATL 130752Z 25003KT 10SM CLR 14/12 A3040 RMK AO2 SLP290 T01390117=
201701130652 METAR KATL 130652Z 26004KT 10SM CLR 14/12 A3039 RMK AO2 SLP286 T01390117=
201701130552 METAR KATL 130552Z 00000KT 10SM CLR 14/12 A3038 RMK AO2 SLP283 T01390117 10183 20133 58001=
201701130352 METAR KATL 130352Z 17004KT 10SM CLR 15/12 A3038 RMK AO2 SLP286 T01500117=
201701130252 METAR KATL 130252Z 19003KT 10SM CLR 16/12 A3038 RMK AO2 SLP286 T01560117 53009=
201701130152 METAR KATL 130152Z 21004KT 10SM CLR 16/12 A3037 RMK AO2 SLP282 T01610117=
201701130052 METAR KATL 130052Z 22004KT 10SM FEW040 17/12 A3036 RMK AO2 SLP280 T01720117=
201701122352 METAR KATL 122352Z 19004KT 10SM FEW040 18/12 A3035 RMK AO2 SLP276 T01830117 10222 20183 53010=
201701122252 METAR KATL 122252Z 20007KT 10SM FEW040 FEW250 20/12 A3033 RMK AO2 SLP270 T02000117=
201701122152 METAR KATL 122152Z 20007KT 10SM FEW040 FEW050 FEW250 22/12 A3033 RMK AO2 SLP268 T02220117=
201701122052 METAR KATL 122052Z 20007KT 10SM FEW045 FEW250 22/12 A3032 RMK AO2 SLP264 T02220117 56008=
201701121952 METAR KATL 121952Z 19009KT 10SM FEW040 SCT050 SCT250 22/12 A3033 RMK AO2 SLP266 T02220117=
201701121852 METAR KATL 121852Z VRB06KT 10SM SCT040 BKN050 21/12 A3033 RMK AO2 SLP267 T02110117=
201701121752 METAR KATL 121752Z VRB06KT 10SM FEW030 BKN050 BKN250 21/12 A3035 RMK AO2 SLP273 T02060122 10206 20100 58010=
201701121652 METAR KATL 121652Z 22009KT 10SM FEW025 BKN045 18/11 A3037 RMK AO2 SLP283 T01780111=
201701121552 METAR KATL 121552Z 23008KT 10SM BKN046 16/11 A3039 RMK AO2 SLP291 T01610111=
201701121452 METAR KATL 121452Z 20008KT 10SM BKN050 15/10 A3038 RMK AO2 SLP285 T01500100 53019=
201701121352 METAR KATL 121352Z 15004KT 10SM SCT050 SCT250 12/09 A3036 RMK AO2 SLP279 T01220094 $=
201701121252 METAR KATL 121252Z 15006KT 10SM BKN044 BKN070 BKN200 11/09 A3034 RMK AO2 SLP273 T01060089=
201701121152 METAR KATL 121152Z 00000KT 10SM SCT036 BKN065 BKN250 10/08 A3032 RMK AO2 SLP266 T01000083 10150 20094 53009=
201701121052 METAR KATL 121052Z 00000KT 10SM FEW065 FEW250 11/09 A3031 RMK AO2 SLP262 T01110094=
201701120952 METAR KATL 120952Z 18003KT 10SM FEW060 FEW250 11/09 A3029 RMK AO2 SLP254 T01060089=
201701120852 METAR KATL 120852Z 20005KT 10SM FEW065 FEW250 12/09 A3029 RMK AO2 SLP256 T01170089 51011=
201701120752 METAR KATL 120752Z 21006KT 10SM FEW065 13/09 A3029 RMK AO2 SLP254 T01280094=
201701120652 METAR KATL 120652Z 20008KT 10SM FEW065 14/09 A3027 RMK AO2 SLP248 T01440094=
201701120552 METAR KATL 120552Z 19012KT 10SM FEW065 15/09 A3026 RMK AO2 SLP244 T01500094 10183 20150 58004=
201701120452 METAR KATL 120452Z 19010KT 10SM FEW070 FEW250 15/09 A3027 RMK AO2 SLP249 T01500094 402060117=
201701120352 METAR KATL 120352Z 18007KT 10SM FEW070 SCT250 15/09 A3028 RMK AO2 SLP251 T01500089=
201701120252 METAR KATL 120252Z 17007KT 10SM FEW070 BKN250 16/09 A3027 RMK AO2 SLP250 T01610094 53005=
201701120152 METAR KATL 120152Z 15007KT 10SM FEW070 BKN250 17/09 A3026 RMK AO2 SLP246 T01670094=
201701120052 METAR KATL 120052Z 15006KT 10SM BKN070 BKN250 17/09 A3026 RMK AO2 SLP245 T01720094=
201701112352 METAR KATL 112352Z 15004KT 10SM FEW050 BKN070 BKN250 18/09 A3026 RMK AO2 SLP244 T01830094 10206 20178 53006=
201701112252 METAR KATL 112252Z 18004KT 10SM BKN070 BKN250 19/09 A3024 RMK AO2 SLP238 T01890094=
201701112152 METAR KATL 112152Z 19010KT 10SM FEW045 SCT070 BKN250 20/09 A3023 RMK AO2 SLP235 T02000094=
201701112052 METAR KATL 112052Z 20011KT 10SM FEW045 BKN070 BKN250 21/10 A3024 RMK AO2 SLP237 T02060100 58012=
201701111952 METAR KATL 111952Z 22010KT 10SM FEW040 BKN060 BKN150 19/09 A3026 RMK AO2 SLP243 SHRA DSNT NW-N T01940094=
201701111852 METAR KATL 111852Z 21011G20KT 10SM BKN040 BKN050 BKN060 19/09 A3026 RMK AO2 SLP244 SHRA VC SW-NW T01940094=
201701111752 METAR KATL 111752Z 18009KT 10SM FEW040 BKN070 BKN180 BKN250 19/09 A3028 RMK AO2 SLP249 SHRA DSNT NW T01940089 10200 20117 58023=
201701111652 METAR KATL 111652Z 20010KT 10SM FEW030 SCT100 BKN180 BKN250 18/09 A3031 RMK AO2 SLP260 T01830089 $=
201701111552 METAR KATL 111552Z 20008KT 10SM FEW030 SCT100 BKN160 BKN200 16/09 A3034 RMK AO2 SLP272 VIRGA NE & NW-N T01610089=
201701111452 METAR KATL 111452Z 19008KT 10SM BKN030 BKN100 BKN200 14/08 A3035 RMK AO2 SLP275 T01440083 53017=
201701111352 METAR KATL 111352Z 16006KT 10SM BKN032 BKN060 BKN100 BKN200 13/08 A3033 RMK AO2 SLP269 T01330078=
201701111252 METAR KATL 111252Z 16005KT 10SM FEW035 SCT060 BKN095 BKN200 12/07 A3031 RMK AO2 SLP264 T01220072=
201701111152 METAR KATL 111152Z 20006KT 10SM SCT034 BKN050 BKN090 OVC140 12/07 A3029 RMK AO2 SLP259 T01220072 10133 20117 53004=
201701111108 SPECI KATL 111108Z 21006KT 10SM SCT024 BKN034 BKN050 OVC140 12/07 A3028 RMK AO2 T01170067=
201701111052 METAR KATL 111052Z 18007KT 10SM BKN024 OVC043 12/07 A3027 RMK AO2 SLP250 T01220067=
201701111040 SPECI KATL 111040Z 18006KT 10SM BKN026 BKN036 OVC044 12/07 A3027 RMK AO2 T01220067=
201701110952 METAR KATL 110952Z 19006KT 10SM SCT032 BKN070 OVC095 12/07 A3027 RMK AO2 SLP250 T01220067=
201701110852 METAR KATL 110852Z 19005KT 10SM FEW032 SCT065 OVC090 12/07 A3028 RMK AO2 SLP253 T01220067 56003=
201701110752 METAR KATL 110752Z 19006KT 10SM FEW032 SCT070 OVC095 13/07 A3028 RMK AO2 SLP254 VIRGA NW-NE T01280067=
201701110652 METAR KATL 110652Z 20008KT 10SM FEW075 OVC095 13/07 A3028 RMK AO2 SLP254 VIRGA NW-NE T01280067=
201701110552 METAR KATL 110552Z 19012KT 10SM FEW075 OVC100 13/07 A3029 RMK AO2 SLP257 VIRGA N-NE T01330067 10139 20128 50000=
201701110452 METAR KATL 110452Z 20011KT 10SM OVC090 14/06 A3029 RMK AO2 SLP260 T01390061 401441011=
201701110352 METAR KATL 110352Z 19009KT 10SM FEW035 OVC085 13/06 A3029 RMK AO2 SLP262 T01280056=
201701110252 METAR KATL 110252Z 19011KT 10SM FEW035 BKN085 BKN250 13/06 A3029 RMK AO2 SLP261 T01280061 58004=
201701110152 METAR KATL 110152Z 18017G24KT 10SM FEW035 BKN080 BKN250 13/06 A3030 RMK AO2 SLP266 T01330061=
201701110052 METAR KATL 110052Z 15009KT 10SM SCT038 BKN070 OVC250 13/06 A3031 RMK AO2 SLP269 T01330056=
201701102352 METAR KATL 102352Z 14008KT 10SM FEW040 OVC070 13/06 A3030 RMK AO2 SLP266 T01330056 10144 20106 58003=
201701102252 METAR KATL 102252Z 15006KT 10SM SCT048 BKN070 BKN250 14/05 A3031 RMK AO2 SLP269 T01390050=
201701102152 METAR KATL 102152Z 17009G15KT 10SM FEW045 BKN065 BKN250 14/05 A3031 RMK AO2 SLP269 T01390050=
201701102052 METAR KATL 102052Z 18010KT 10SM FEW040 BKN065 BKN250 14/04 A3031 RMK AO2 SLP268 T01390044 55019=
201701101952 METAR KATL 101952Z 17011KT 10SM BKN055 BKN250 BKN300 14/04 A3030 RMK AO2 SLP266 T01390039 $=
201701101852 METAR KATL 101852Z 14011G17KT 10SM BKN050 BKN250 BKN300 13/03 A3032 RMK AO2 SLP270 T01330028=
201701101752 METAR KATL 101752Z 16011G17KT 10SM FEW065 SCT250 BKN300 11/02 A3037 RMK AO2 PRESFR SLP289 T01060017 10106 21006 58038=
201701101652 METAR KATL 101652Z 13007KT 10SM FEW065 FEW250 08/01 A3043 RMK AO2 SLP312 T00830006=
201701101552 METAR KATL 101552Z 13006KT 10SM FEW050 FEW250 05/M02 A3048 RMK AO2 SLP328 T00501017=
201701101452 METAR KATL 101452Z 14010KT 10SM FEW050 FEW250 03/M03 A3048 RMK AO2 SLP330 T00281033 50010=
201701101352 METAR KATL 101352Z 12007KT 10SM SCT008 BKN048 BKN180 BKN250 01/M06 A3048 RMK AO2 SLP332 T00061056=
201701101252 METAR KATL 101252Z 10005KT 10SM FEW008 SCT060 BKN250 M01/M07 A3047 RMK AO2 SLP328 T10061072=
201701101240 SPECI KATL 101240Z 11006KT 10SM SCT008 BKN060 BKN250 M01/M07 A3046 RMK AO2 T10061072=
201701101152 METAR KATL 101152Z 11006KT 10SM FEW055 SCT250 M01/M08 A3045 RMK AO2 SLP320 T10061078 10006 21011 56006=
201701101052 METAR KATL 101052Z 12005KT 10SM SCT055 00/M09 A3045 RMK AO2 SLP321 T00001089=
201701100952 METAR KATL 100952Z 12004KT 10SM FEW050 SCT250 M01/M10 A3046 RMK AO2 SLP322 T10061100 $=
201701100852 METAR KATL 100852Z 11005KT 10SM SCT050 BKN250 00/M11 A3047 RMK AO2 SLP325 T00001106 56008 $=
201701100752 METAR KATL 100752Z 09005KT 10SM FEW050 SCT250 M01/M10 A3048 RMK AO2 SLP328 T10111100 $=
201701100652 METAR KATL 100652Z 11005KT 10SM FEW050 SCT250 01/M12 A3048 RMK AO2 SLP328 T00061117 $=
201701100552 METAR KATL 100552Z 11005KT 10SM SCT250 01/M11 A3049 RMK AO2 SLP335 T00061111 10050 20006 58017 $=
201701100452 METAR KATL 100452Z 12004KT 10SM SCT250 01/M11 A3052 RMK AO2 SLP344 T00111111 400721028 $=
201701100352 METAR KATL 100352Z 13007KT 10SM SCT250 02/M12 A3053 RMK AO2 SLP348 T00171117 $=
201701100252 METAR KATL 100252Z 13004KT 10SM BKN250 02/M11 A3055 RMK AO2 SLP354 T00221111 53004 $=
201701100152 METAR KATL 100152Z 13005KT 10SM BKN250 03/M11 A3054 RMK AO2 SLP352 T00281111 $=
201701100052 METAR KATL 100052Z 14004KT 10SM FEW250 04/M12 A3054 RMK AO2 SLP352 T00391117 $=
201701092352 METAR KATL 092352Z 13003KT 10SM SCT250 04/M12 A3054 RMK AO2 SLP350 T00441122 10072 20044 55001 $=
201701092252 METAR KATL 092252Z 15006KT 10SM BKN250 06/M13 A3053 RMK AO2 SLP347 T00561128 $=
201701092152 METAR KATL 092152Z 18006KT 10SM BKN250 07/M14 A3055 RMK AO2 SLP352 T00671139=
201701092052 METAR KATL 092052Z 17011G14KT 10SM BKN250 07/M14 A3054 RMK AO2 SLP351 T00721144 56026=
201701091952 METAR KATL 091952Z 17007KT 10SM SCT250 07/M14 A3055 RMK AO2 SLP355 T00671139=
201701091852 METAR KATL 091852Z 14010KT 10SM FEW250 06/M14 A3057 RMK AO2 SLP362 T00611139=
201701091752 METAR KATL 091752Z 17006KT 10SM FEW250 04/M13 A3062 RMK AO2 SLP378 T00441133 10056 21028 58020=
201701091652 METAR KATL 091652Z 11007KT 100V160 10SM FEW250 04/M11 A3066 RMK AO2 SLP393 T00391111=
201701091552 METAR KATL 091552Z 13008KT 10SM FEW250 02/M12 A3068 RMK AO2 SLP400 T00221117=
201701091452 METAR KATL 091452Z 13007G15KT 10SM CLR 01/M11 A3068 RMK AO2 SLP401 T00061111 51005 $=
201701091352 METAR KATL 091352Z 12008KT 10SM CLR M01/M11 A3068 RMK AO2 SLP402 T10111106 $=
201701091252 METAR KATL 091252Z 11005KT 10SM FEW100 M03/M10 A3067 RMK AO2 SLP400 T10281100 $=
201701091152 METAR KATL 091152Z 12006KT 10SM FEW120 M03/M10 A3067 RMK AO2 SLP398 T10281100 11017 21028 51013 $=
201701091052 METAR KATL 091052Z 11007KT 10SM BKN120 M02/M10 A3066 RMK AO2 SLP395 T10221100 $=
201701090952 METAR KATL 090952Z 07007KT 10SM BKN130 M02/M09 A3064 RMK AO2 SLP389 T10221094 $=
201701090852 METAR KATL 090852Z 09005KT 10SM BKN130 BKN200 M03/M10 A3063 RMK AO2 SLP383 T10281100 55002 $=
201701090752 METAR KATL 090752Z 08005KT 10SM SCT120 BKN150 OVC200 M03/M10 A3063 RMK AO2 SLP383 T10281100 $=
201701090652 METAR KATL 090652Z 00000KT 10SM OVC130 M02/M11 A3063 RMK AO2 SLP383 T10221106 $=
201701090552 METAR KATL 090552Z 33004KT 10SM OVC140 M03/M10 A3063 RMK AO2 SLP386 T10281100 11011 21028 55000 $=
201701090452 METAR KATL 090452Z 34004KT 10SM OVC150 M02/M11 A3062 RMK AO2 SLP383 T10221111 400171094 $=
201701090352 METAR KATL 090352Z 34006KT 10SM FEW120 BKN150 OVC200 M02/M12 A3063 RMK AO2 SLP386 T10221117 $=
201701090252 METAR KATL 090252Z 34007KT 10SM FEW120 BKN150 BKN250 M02/M12 A3063 RMK AO2 SLP389 T10221117 53004 $=
201701090152 METAR KATL 090152Z 33007KT 10SM BKN120 BKN200 BKN250 M02/M12 A3063 RMK AO2 SLP387 T10171122 $=
201701090052 METAR KATL 090052Z 33007KT 10SM SCT150 BKN200 BKN250 M02/M13 A3062 RMK AO2 SLP385 T10171128 $=
201701082352 METAR KATL 082352Z 35007KT 10SM BKN200 OVC250 M01/M13 A3062 RMK AO2 SLP386 T10111133 10017 21017 50002 $=
201701082252 METAR KATL 082252Z 32007KT 10SM BKN200 BKN250 M01/M13 A3063 RMK AO2 SLP387 T10111133 $=
201701082152 METAR KATL 082152Z 32008KT 10SM SCT200 BKN250 01/M13 A3062 RMK AO2 SLP384 T00061133 $=
201701082052 METAR KATL 082052Z 33007KT 10SM BKN200 BKN250 01/M12 A3062 RMK AO2 SLP382 T00111122 56006 $=
201701081952 METAR KATL 081952Z VRB06KT 10SM BKN250 02/M12 A3062 RMK AO2 SLP382 T00171122 $=
201701081852 METAR KATL 081852Z 34008KT 10SM BKN250 01/M14 A3062 RMK AO2 SLP382 T00061139 $=
201701081752 METAR KATL 081752Z 35004G14KT 10SM SCT250 M01/M13 A3064 RMK AO2 SLP388 T10061128 10000 21094 58020 $=
201701081652 METAR KATL 081652Z 35010KT 10SM FEW250 M02/M12 A3068 RMK AO2 SLP403 T10221122 $=
201701081552 METAR KATL 081552Z 36013KT 10SM CLR M04/M12 A3070 RMK AO2 SLP412 T10441117 $=
201701081452 METAR KATL 081452Z 32009KT 10SM CLR M07/M12 A3070 RMK AO2 SLP411 T10671117 53033 $=
201701081352 METAR KATL 081352Z 33011KT 10SM CLR M08/M13 A3065 RMK AO2 SLP396 T10831128 $=
201701081252 METAR KATL 081252Z 32011KT 10SM CLR M09/M13 A3063 RMK AO2 SLP390 T10941128 $=
201701081152 METAR KATL 081152Z 33011KT 10SM CLR M09/M13 A3060 RMK AO2 SLP378 T10891128 11067 21089 53010 $=
201701081052 METAR KATL 081052Z 31009KT 10SM CLR M09/M13 A3059 RMK AO2 SLP375 T10891128 $=
201701080952 METAR KATL 080952Z 31010KT 10SM CLR M08/M12 A3057 RMK AO2 SLP367 T10831122 $=
201701080852 METAR KATL 080852Z 32009KT 10SM CLR M08/M12 A3057 RMK AO2 SLP365 T10781122 51009 $=
201701080752 METAR KATL 080752Z 32011KT 10SM CLR M08/M12 A3056 RMK AO2 SLP364 T10781122 $=
201701080652 METAR KATL 080652Z 31011KT 10SM CLR M07/M12 A3054 RMK AO2 SLP357 T10721122 $=
201701080552 METAR KATL 080552Z 31009KT 10SM CLR M07/M12 A3054 RMK AO2 SLP356 T10671117 11039 21067 51010 $=
201701080452 METAR KATL 080452Z 32012KT 10SM CLR M06/M11 A3053 RMK AO2 SLP353 T10611111 410061061 $=
201701080352 METAR KATL 080352Z 32011KT 10SM CLR M06/M12 A3052 RMK AO2 SLP350 T10561117 $=
201701080252 METAR KATL 080252Z 33012KT 10SM CLR M05/M11 A3051 RMK AO2 SLP346 T10501111 53024=
201701080152 METAR KATL 080152Z 33013KT 10SM CLR M04/M11 A3048 RMK AO2 SLP337 T10441111=
201701080052 METAR KATL 080052Z 33012KT 10SM CLR M04/M11 A3045 RMK AO2 SLP328 T10441106=
201701072352 METAR KATL 072352Z 32012KT 10SM CLR M04/M10 A3043 RMK AO2 SLP320 T10391100 11011 21039 53030=
201701072252 METAR KATL 072252Z 33012KT 10SM CLR M03/M10 A3040 RMK AO2 SLP308 T10331100=
201701072152 METAR KATL 072152Z 32015KT 10SM CLR M02/M09 A3037 RMK AO2 SLP299 T10171094 $=
201701072052 METAR KATL 072052Z 32017KT 10SM CLR M02/M08 A3034 RMK AO2 SLP286 T10171083 53009 $=
201701071952 METAR KATL 071952Z 32014KT 10SM FEW024 M02/M07 A3032 RMK AO2 SLP279 T10171067 $=
201701071852 METAR KATL 071852Z 34014KT 10SM FEW020 M02/M07 A3031 RMK AO2 SLP275 T10171067 $=
201701071752 METAR KATL 071752Z 33017G22KT 10SM FEW020 M02/M06 A3031 RMK AO2 PK WND 32026/1708 SLP276 60000 T10221061 11022 21056 50012 $=
201701071652 METAR KATL 071652Z 31017KT 10SM FEW018 M03/M07 A3032 RMK AO2 PK WND 32026/1635 SLP279 T10331067 $=
201701071552 METAR KATL 071552Z 33022G27KT 10SM FEW015 M04/M07 A3031 RMK AO2 PK WND 32030/1457 SLP275 T10391067 $=
201701071452 METAR KATL 071452Z 32024G31KT 10SM FEW012 M05/M08 A3027 RMK AO2 PK WND 32033/1425 SLP264 60000 T10501078 53038 $=
201701071352 METAR KATL 071352Z 32021G27KT 10SM SCT014 M06/M08 A3023 RMK AO2 PK WND 33029/1329 SLP251 SCT014 V BKN T10561078 $=
201701071252 METAR KATL 071252Z 32015G21KT 9SM SCT014 BKN065 M06/M07 A3019 RMK AO2 PK WND 34029/1153 SNE50 SLP235 P0000 T10561072 $=
201701071250 SPECI KATL 071250Z 33017G21KT 9SM SCT014 OVC060 M06/M07 A3019 RMK AO2 PK WND 34029/1153 SNE50 P0000 $=
201701071152 METAR KATL 071152Z 33021G28KT 9SM -SN BKN014 OVC035 M05/M07 A3016 RMK AO2 PK WND 33031/1119 SLP225 CIG 013V017 PCPN VRY LGT P0000 60000 70048 I6007 T10501072 11011 21050 53032 $=
201701071119 SPECI KATL 071119Z 32023G31KT 3SM -SN BR BKN013 OVC029 M05/M06 A3014 RMK AO2 PK WND 33031/1119 SFC VIS 4 CIG 011V015 P0000 T10501061 $=
201701071101 SPECI KATL 071101Z 32019G29KT 3SM -SN BR FEW010 BKN015 OVC029 M04/M06 A3013 RMK AO2 PK WND 33029/1053 PRESRR CIG 013V018 P0000 T10441061 $=
201701071052 METAR KATL 071052Z 32023G31KT 3SM -SN BR BKN011 OVC027 M04/M06 A3011 RMK AO2 PK WND 31031/1049 SLP209 CIG 009V014 P0000 T10441056 $=
201701070952 METAR KATL 070952Z 33016G25KT 3SM -SN BR BKN008 OVC035 M04/M05 A3008 RMK AO2 PK WND 32030/0853 PLE52 SLP198 PCPN VRY LGT P0000 T10391050 $=
201701070852 METAR KATL 070852Z 31023G29KT 3SM -SNPL BR OVC007 M03/M04 A3006 RMK AO2 PK WND 32029/0852 FZRAB06E50SNE06B50PLB17 SLP191 CIG 005V010 P0000 60000 I1007 I3007 T10331044 53010 $=
201701070850 SPECI KATL 070850Z 32021G26KT 3SM -SNPL BR OVC007 M03/M04 A3006 RMK AO2 PK WND 31026/0849 FZRAB06E50SNE06B50PLB17 CIG 005V010 P0000 I1007 $=
201701070831 SPECI KATL 070831Z 32019G24KT 2 1/2SM -FZRAPL BR OVC007 M03/M04 A3006 RMK AO2 TWR VIS 3 FZRAB06SNE06PLB17 CIG 005V010 P0000 I1004 T10331039 $=
201701070818 SPECI KATL 070818Z 32018G24KT 3SM -FZRAPL OVC006 M03/M04 A3005 RMK AO2 FZRAB06SNE06PLB17 P0000 I1001 T10281039 $=
201701070806 SPECI KATL 070806Z 32015KT 3SM -FZRA OVC006 M03/M03 A3004 RMK AO2 SFC VIS 4 FZRAB06SNE06 P0000 I1000 T10281033 $=
201701070752 METAR KATL 070752Z 32012KT 6SM -SN BR BKN007 OVC014 M02/M03 A3004 RMK AO2 SLP181 P0000 T10221033 $=
201701070652 METAR KATL 070652Z 32016G21KT 9SM -SN BKN007 OVC014 M02/M03 A3002 RMK AO2 FZRAE20SNB20 SLP178 CIG 005V009 PCPN VRY LGT P0000 I1000 T10171028 $=
201701070621 SPECI KATL 070621Z 33015KT 8SM -SN OVC006 M02/M02 A3003 RMK AO2 FZRAE20SNB20 PCPN VRY LGT P0000 I1000 T10171022 $=
201701070552 METAR KATL 070552Z 33012KT 7SM -FZRA BKN007 OVC014 M01/M02 A3003 RMK AO2 SLP179 CIG 005V009 P0001 60037 I1001 I6024 T10111022 10000 21011 55005=
201701070452 METAR KATL 070452Z 32014KT 8SM -FZRA BKN006 OVC060 M01/M01 A3003 RMK AO2 SLP178 CIG 004V009 P0006 I1003 T10061011 400781006=
201701070352 METAR KATL 070352Z 35011KT 6SM -FZRA BR BKN007 BKN012 OVC060 00/M01 A3003 RMK AO2 SLP176 P0012 I1007 T00001006=
201701070252 METAR KATL 070252Z 34011KT 5SM -FZRA BR BKN007 BKN012 OVC060 00/M01 A3005 RMK AO2 SLP183 P0004 60018 I1004 I3013 T00001011 51008 $=
201701070152 METAR KATL 070152Z 34008KT 6SM -FZRA BR SCT008 BKN012 OVC060 00/M01 A3004 RMK AO2 SLP180 P0013 I1006 T00001011 $=
201701070132 SPECI KATL 070132Z 35006KT 5SM -FZRA BR SCT008 BKN012 OVC060 00/M01 A3005 RMK AO2 P0010 I1006 T00001006 $=
201701070108 SPECI KATL 070108Z 33011KT 4SM FZRA BR FEW008 SCT012 OVC060 00/M01 A3007 RMK AO2 P0004 I1004 T00001006 $=
201701070052 METAR KATL 070052Z 32013KT 5SM -FZRA BR SCT008 BKN012 OVC070 00/M01 A3007 RMK AO2 PRESRR SLP191 P0001 I1003 T00001011 $=
201701070000 SPECI KATL 070000Z 33009KT 7SM -FZRA SCT009 BKN070 OVC090 00/M01 A3003 RMK AO2 SCT009 V BKN P0000 I1000 T00001011 $=
201701062352 METAR KATL 062352Z 34009KT 7SM -FZRA SCT009 BKN070 OVC090 00/M01 A3002 RMK AO2 SLP175 SCT009 V BKN P0000 60010 I1000 I6/// T00001011 10022 20000 50003 $=
201701062311 SPECI KATL 062311Z 34009KT 8SM -FZRA FEW008 BKN070 OVC090 00/M01 A3002 RMK AO2 P0000 I1000 T00001011 $=
201701062252 METAR KATL 062252Z 33010KT 8SM -FZRA FEW008 BKN012 OVC080 00/M01 A3003 RMK AO2 RAB2154E01B29E52FZRAB52 SLP176 P0000 I1000 T00001011 $=
201701062152 METAR KATL 062152Z 33007KT 8SM FEW008 BKN014 OVC075 01/M01 A3003 RMK AO2 RAE45UPB50E51 SLP175 P0000 T00061006 $=
201701062127 SPECI KATL 062127Z 35010KT 7SM -RA FEW008 OVC013 01/M01 A3002 RMK AO2 P0000 T00061006 $=
201701062052 METAR KATL 062052Z 33009KT 6SM -RA BR BKN013 BKN080 OVC090 01/M01 A3002 RMK AO2 SLP171 P0004 60010 T00061011 55003=
201701061952 METAR KATL 061952Z 34009KT 10SM -RA FEW015 SCT030 OVC065 01/M01 A3001 RMK AO2 SLP168 P0005 T00111011=
201701061852 METAR KATL 061852Z 35005KT 7SM -RA BKN035 OVC060 01/M03 A3001 RMK AO2 RAB24 PRESFR SLP168 P0001 T00061028=
201701061752 METAR KATL 061752Z 33008KT 10SM OVC030 02/M04 A3003 RMK AO2 SLP173 60001 T00221044 10028 20017 58001=
201701061652 METAR KATL 061652Z 32012KT 10SM OVC032 02/M03 A3004 RMK AO2 SLP177 T00221033=
201701061552 METAR KATL 061552Z 32009KT 10SM FEW015 BKN034 OVC050 02/M02 A3004 RMK AO2 SLP178 T00221022=
201701061452 METAR KATL 061452Z 32012KT 10SM FEW015 BKN030 OVC050 02/M02 A3003 RMK AO2 SLP173 60001 T00221017 51022=
201701061352 METAR KATL 061352Z 31011KT 10SM FEW016 BKN032 OVC050 02/M01 A3001 RMK AO2 RAB24E52 SLP166 BINOVC P0001 T00171011=
201701061334 SPECI KATL 061334Z 33007KT 4SM -RA BKN032 BKN039 OVC049 02/M02 A3000 RMK AO2 RAB24 P0001 T00171017=
201701061252 METAR KATL 061252Z 32010KT 10SM BKN032 OVC042 02/M02 A2999 RMK AO2 SLP160 T00221022=
201701061152 METAR KATL 061152Z 33009KT 10SM BKN038 OVC055 03/M02 A2996 RMK AO2 SLP149 T00281017 10067 20028 53009=
201701061052 METAR KATL 061052Z 33009KT 10SM BKN038 BKN055 OVC140 03/M02 A2994 RMK AO2 SLP142 T00331017=
201701060952 METAR KATL 060952Z 33009KT 10SM OVC035 04/M02 A2994 RMK AO2 SLP141 T00391017=
201701060852 METAR KATL 060852Z 32008KT 10SM OVC038 04/M01 A2993 RMK AO2 SLP139 T00441011 51009=
201701060752 METAR KATL 060752Z 33008KT 10SM SCT032 OVC044 05/M02 A2992 RMK AO2 SLP134 T00501017=
201701060652 METAR KATL 060652Z 33012KT 10SM OVC032 06/M02 A2992 RMK AO2 SLP133 T00561017=
201701060552 METAR KATL 060552Z 33012KT 10SM BKN037 OVC055 07/M02 A2991 RMK AO2 SLP130 T00671017 10111 20067 52002=
201701060452 METAR KATL 060452Z 32010KT 10SM BKN040 OVC055 08/M01 A2990 RMK AO2 SLP128 T00831006 401390000=
201701060352 METAR KATL 060352Z 31007KT 10SM BKN040 OVC055 09/M01 A2991 RMK AO2 SLP130 T00891006=
201701060252 METAR KATL 060252Z 32007KT 10SM BKN043 OVC060 09/00 A2990 RMK AO2 SLP130 T00890000 53006=
201701060152 METAR KATL 060152Z 30008KT 10SM SCT045 OVC065 10/01 A2990 RMK AO2 SLP129 T01000011=
201701060052 METAR KATL 060052Z 00000KT 10SM FEW045 OVC060 11/01 A2988 RMK AO2 SLP122 T01060011=
201701052352 METAR KATL 052352Z 31004KT 10SM OVC060 11/02 A2988 RMK AO2 SLP124 T01110017 10139 20111 51009=
201701052252 METAR KATL 052252Z 29003KT 10SM BKN065 BKN250 11/02 A2988 RMK AO2 SLP121 T01110022=
201701052152 METAR KATL 052152Z 24008KT 10SM BKN070 BKN250 12/01 A2987 RMK AO2 SLP118 T01220011=
201701052052 METAR KATL 052052Z 26007KT 10SM BKN080 BKN180 BKN250 13/01 A2986 RMK AO2 SLP114 T01280011 55014=
201701051952 METAR KATL 051952Z 25011KT 10SM FEW080 FEW180 SCT250 13/01 A2985 RMK AO2 SLP111 T01330006=
201701051852 METAR KATL 051852Z 24009KT 10SM FEW085 FEW180 SCT250 13/M01 A2986 RMK AO2 SLP115 T01281011=
201701051752 METAR KATL 051752Z 21006KT 10SM BKN085 BKN180 BKN250 11/M01 A2990 RMK AO2 SLP128 T01111006 10117 20000 58022=
201701051652 METAR KATL 051652Z 17007KT 10SM FEW100 SCT180 BKN250 10/M01 A2994 RMK AO2 SLP141 T01001011=
201701051552 METAR KATL 051552Z 00000KT 10SM BKN100 BKN250 07/M02 A2997 RMK AO2 SLP153 T00671017=
201701051452 METAR KATL 051452Z VRB03KT 10SM FEW100 FEW250 04/M02 A2997 RMK AO2 SLP153 T00441017 53005=
201701051352 METAR KATL 051352Z 30003KT 10SM FEW120 BKN200 BKN250 03/M02 A2995 RMK AO2 SLP147 T00281022=
201701051339 SPECI KATL 051339Z 32003KT 10SM SCT120 BKN200 BKN250 02/M03 A2996 RMK AO2 T00221028=
201701051252 METAR KATL 051252Z 27003KT 10SM SCT120 BKN200 BKN250 00/M03 A2995 RMK AO2 SLP148 T00001028=
201701051152 METAR KATL 051152Z 00000KT 10SM FEW120 SCT200 BKN250 01/M03 A2995 RMK AO2 SLP148 T00061028 10022 20006 53013=
201701051052 METAR KATL 051052Z 17003KT 10SM FEW140 SCT200 BKN250 02/M03 A2992 RMK AO2 SLP139 T00171033=
201701050952 METAR KATL 050952Z 04004KT 10SM SCT200 01/M04 A2991 RMK AO2 SLP133 T00111039=
201701050852 METAR KATL 050852Z 02004KT 10SM FEW200 01/M04 A2991 RMK AO2 SLP134 T00111039 58019=
201701050752 METAR KATL 050752Z 34007KT 10SM SCT200 01/M04 A2994 RMK AO2 SLP143 T00111039=
201701050652 METAR KATL 050652Z 33007KT 10SM BKN200 02/M04 A2995 RMK AO2 SLP145 T00221039=
201701050552 METAR KATL 050552Z 27004KT 10SM BKN200 03/M04 A2997 RMK AO2 SLP153 T00281039 10078 20028 56008=
201701050452 METAR KATL 050452Z 33008KT 10SM BKN200 04/M04 A2997 RMK AO2 SLP153 T00391039 401280033=
201701050352 METAR KATL 050352Z 34008KT 10SM BKN200 04/M04 A2998 RMK AO2 SLP157 T00441044=
201701050252 METAR KATL 050252Z 34011KT 10SM BKN200 05/M04 A2999 RMK AO2 SLP160 T00501044 51008=
201701050152 METAR KATL 050152Z 33012KT 10SM OVC200 06/M03 A2999 RMK AO2 SLP157 T00561028=
201701050052 METAR KATL 050052Z 34011KT 10SM BKN200 07/M04 A2998 RMK AO2 SLP156 T00671039=
201701042352 METAR KATL 042352Z 33011KT 10SM BKN170 OVC220 08/M01 A2997 RMK AO2 SLP149 T00781006 10100 20072 51012=
201701042252 METAR KATL 042252Z 32010KT 10SM SCT170 OVC220 08/M01 A2997 RMK AO2 SLP150 T00781006=
201701042152 METAR KATL 042152Z 34013KT 10SM BKN150 BKN220 09/M02 A2995 RMK AO2 SLP143 T00891022=
201701042052 METAR KATL 042052Z 32012KT 10SM BKN150 BKN200 09/01 A2993 RMK AO2 SLP137 T00940006 53000=
201701041952 METAR KATL 041952Z 31010KT 10SM FEW035 BKN150 BKN220 10/02 A2992 RMK AO2 SLP131 T01000022=
201701041852 METAR KATL 041852Z 34016KT 10SM FEW030 BKN150 BKN230 10/03 A2992 RMK AO2 SLP131 T01000028=
201701041752 METAR KATL 041752Z 33013KT 10SM FEW027 BKN150 BKN230 09/03 A2993 RMK AO2 SLP136 T00940033 10117 20089 50005=
201701041652 METAR KATL 041652Z 33013KT 10SM FEW025 BKN150 BKN240 10/04 A2995 RMK AO2 PK WND 34028/1558 SLP142 T01000044=
201701041552 METAR KATL 041552Z 31019G24KT 10SM FEW023 BKN150 BKN200 09/04 A2995 RMK AO2 SLP143 T00940044=
201701041452 METAR KATL 041452Z 33019G23KT 10SM FEW025 BKN150 BKN240 11/06 A2992 RMK AO2 SLP130 T01060056 53023=
201701041352 METAR KATL 041352Z 33010KT 10SM BKN022 BKN032 BKN110 BKN250 11/08 A2987 RMK AO2 SLP114 T01060078=
201701041312 SPECI KATL 041312Z 32012KT 10SM SCT014 BKN022 BKN250 11/09 A2987 RMK AO2 T01110089=
201701041252 METAR KATL 041252Z 32012KT 10SM BKN014 BKN025 BKN250 11/09 A2987 RMK AO2 SLP113 T01110094=
201701041210 SPECI KATL 041210Z 30007KT 10SM BKN014 BKN019 BKN025 11/10 A2985 RMK AO2 T01060100=
201701041152 METAR KATL 041152Z 31007KT 10SM BKN016 BKN026 11/10 A2985 RMK AO2 SLP106 CIG 014V019 T01060100 10122 20100 53009=
201701041130 SPECI KATL 041130Z 30009KT 10SM SCT016 BKN026 BKN250 11/09 A2984 RMK AO2 T01060094=
201701041052 METAR KATL 041052Z 29008KT 10SM FEW015 BKN250 10/09 A2983 RMK AO2 SLP101 T01000094=
201701040952 METAR KATL 040952Z 28008KT 10SM FEW015 BKN250 11/10 A2983 RMK AO2 SLP098 T01060100=
201701040852 METAR KATL 040852Z 29009KT 10SM SCT250 11/10 A2982 RMK AO2 SLP096 T01110100 54000=
201701040752 METAR KATL 040752Z 29010KT 10SM FEW005 BKN250 12/11 A2982 RMK AO2 SLP096 T01170106=
201701040652 METAR KATL 040652Z 28009KT 10SM FEW005 SCT250 12/11 A2982 RMK AO2 SLP095 T01170111=
201701040610 SPECI KATL 040610Z 28008KT 10SM FEW005 SCT250 12/12 A2982 RMK AO2 T01220117=
201701040552 METAR KATL 040552Z 27010KT 10SM FEW010 BKN250 12/12 A2982 RMK AO2 SLP096 T01220117 10156 20122 58004=
201701040452 METAR KATL 040452Z 27010KT 10SM BKN250 13/12 A2983 RMK AO2 SLP099 T01280122 401830128=
201701040352 METAR KATL 040352Z 27011KT 10SM SCT250 13/12 A2984 RMK AO2 SLP103 T01330122=
201701040252 METAR KATL 040252Z 26008KT 10SM SCT250 13/12 A2984 RMK AO2 SLP100 T01330122 57003=
201701040152 METAR KATL 040152Z 27007KT 10SM FEW030 BKN250 14/12 A2984 RMK AO2 SLP102 T01390122=
201701040052 METAR KATL 040052Z 26007KT 10SM SCT030 BKN250 14/12 A2984 RMK AO2 SLP102 T01440122=
201701032352 METAR KATL 032352Z 25004KT 10SM SCT026 BKN250 16/13 A2985 RMK AO2 SLP104 T01560128 10183 20156 53004=
201701032326 SPECI KATL 032326Z 25005KT 10SM BKN026 BKN250 16/13 A2985 RMK AO2 T01610128=
201701032252 METAR KATL 032252Z 25006KT 10SM FEW028 BKN250 16/13 A2984 RMK AO2 SLP101 T01610128=
201701032212 SPECI KATL 032212Z 24006KT 10SM SCT028 BKN250 17/12 A2983 RMK AO2 T01720122=
201701032152 METAR KATL 032152Z 25011G18KT 10SM BKN028 BKN250 17/12 A2983 RMK AO2 SLP097 T01720122=
201701032137 SPECI KATL 032137Z 26012KT 10SM FEW027 SCT035 BKN250 18/12 A2983 RMK AO2 T01780122=
201701032127 SPECI KATL 032127Z 24011KT 10SM BKN027 BKN190 18/12 A2983 RMK AO2 T01780122=
201701032052 METAR KATL 032052Z 24007KT 10SM SCT025 BKN035 BKN190 18/13 A2983 RMK AO2 SLP098 T01830133 56008=
201701031952 METAR KATL 031952Z 26007KT 10SM SCT020 BKN030 BKN190 17/13 A2983 RMK AO2 SLP099 T01720128=
201701031852 METAR KATL 031852Z 24008KT 10SM FEW020 BKN035 OVC190 17/13 A2983 RMK AO2 SLP097 VIRGA DSNT S T01720133=
201701031759 SPECI KATL 031759Z 24007G16KT 10SM FEW020 BKN027 OVC034 17/13 A2986 RMK AO2 T01670133=
201701031752 METAR KATL 031752Z 24010KT 10SM FEW015 SCT020 OVC030 17/13 A2986 RMK AO2 SLP108 T01670133 10172 20144 58015=
201701031659 SPECI KATL 031659Z 23007KT 10SM FEW015 BKN020 OVC030 17/14 A2987 RMK AO2 T01670139=
201701031652 METAR KATL 031652Z 24007KT 10SM SCT015 BKN032 OVC250 17/14 A2988 RMK AO2 SLP116 T01670139=
201701031556 SPECI KATL 031556Z 25009KT 10SM BKN012 BKN032 OVC250 17/14 A2990 RMK AO2 T01670144=
201701031552 METAR KATL 031552Z 24008KT 10SM FEW012 BKN032 OVC250 17/14 A2990 RMK AO2 SLP123 T01670144=
201701031548 SPECI KATL 031548Z 24008KT 10SM FEW012 BKN032 OVC250 17/14 A2990 RMK AO2=
201701031452 METAR KATL 031452Z 24009KT 10SM BKN010 BKN030 BKN250 16/14 A2990 RMK AO2 SLP123 T01610144 53014=
201701031415 SPECI KATL 031415Z 24007KT 10SM FEW008 SCT020 SCT250 16/14 A2989 RMK AO2 T01560144=
201701031352 METAR KATL 031352Z 24008KT 10SM BKN008 BKN020 BKN250 15/14 A2988 RMK AO2 SLP116 BKN008 V SCT T01500144=
201701031325 SPECI KATL 031325Z 24006KT 10SM SCT008 SCT018 SCT250 15/14 A2988 RMK AO2 SCT008 V BKN T01500144=
201701031308 SPECI KATL 031308Z 24008KT 10SM SCT008 BKN013 BKN018 15/14 A2988 RMK AO2 T01500144=
201701031252 METAR KATL 031252Z 23007KT 10SM SCT008 SCT250 14/14 A2987 RMK AO2 SLP112 T01440139=
201701031249 SPECI KATL 031249Z 23006KT 10SM SCT008 SCT250 14/14 A2987 RMK AO2=
201701031152 METAR KATL 031152Z 25004KT 7SM BKN007 BKN012 15/15 A2986 RMK AO2 SLP108 CIG 005V009 70208 T01500150 10156 20139 58004=
201701031052 METAR KATL 031052Z 23006KT 8SM BKN008 BKN012 BKN018 15/14 A2986 RMK AO2 SLP110 CIG 006V010 T01500144=
201701031006 SPECI KATL 031006Z 22005KT 10SM BKN008 BKN013 14/14 A2986 RMK AO2 T01440144 $=
201701030952 METAR KATL 030952Z 22004KT 10SM BKN013 BKN021 BKN028 14/14 A2987 RMK AO2 SLP113 T01440144 $=
201701030949 SPECI KATL 030949Z 23003KT 10SM BKN013 BKN021 BKN028 14/14 A2987 RMK AO2 $=
201701030905 SPECI KATL 030905Z 23004KT 10SM BKN022 14/14 A2987 RMK AO2 T01440139 $=
201701030852 METAR KATL 030852Z 21004KT 10SM FEW004 FEW022 SCT030 14/14 A2987 RMK AO2 SLP114 T01440144 56008 $=
201701030805 SPECI KATL 030805Z 20007KT 6SM BR FEW004 BKN031 BKN041 14/14 A2988 RMK AO2 T01440144 $=
201701030752 METAR KATL 030752Z 21007KT 1/4SM R09R/P6000FT BKN004 BKN031 OVC041 14/14 A2988 RMK AO2 SFC VIS 8 SLP117 T01440144 $=
201701030652 METAR KATL 030652Z 16007KT 1/4SM R09R/4500VP6000FT FG VV002 14/14 A2987 RMK AO2 SFC VIS 1/2 SLP114 T01440144 $=
201701030621 SPECI KATL 030621Z 15004KT 1/4SM R09R/5500VP6000FT BR OVC002 14/14 A2988 RMK AO2 SFC VIS 1 T01440144 $=
201701030552 METAR KATL 030552Z 17009G15KT 1/4SM R09R/P6000FT OVC003 14/14 A2990 RMK AO2 SFC VIS 10 SLP122 60159 T01390139 10150 20128 55041=
201701030527 SPECI KATL 030527Z 15013KT 1SM R09R/P6000FT BKN004 OVC100 14/14 A2989 RMK AO2 SFC VIS 9 T01390139=
201701030452 METAR KATL 030452Z 11013G18KT 9SM FEW003 BKN007 BKN100 OVC150 14/14 A2985 RMK AO2 PK WND 07031/0427 SLP109 P0009 T01390139 401500100=
201701030431 SPECI KATL 030431Z 08021G31KT 1/4SM R09R/P6000FT -RA BR BKN003 BKN012 OVC100 14/14 A2982 RMK AO2 PK WND 07031/0427 SFC VIS 1 1/2 PRESFR P0009 T01390139=
201701030413 SPECI KATL 030413Z 10008KT 2SM RA BR FEW004 BKN012 OVC100 14/14 A2998 RMK AO2 SFC VIS 4 LTG DSNT SE PRESFR P0007 T01440139=
201701030352 METAR KATL 030352Z 05005KT 1/2SM R09R/P6000FT RA BR SCT004 BKN010 OVC080 14/14 A3000 RMK AO2 SFC VIS 6 SLP158 P0047 T01440139=
201701030252 METAR KATL 030252Z 31007KT 1/2SM R09R/P6000FT +RA BR SCT004 BKN012 OVC070 14/13 A3002 RMK AO2 SFC VIS 2 SLP165 TSE11 P0055 60103 T01390133 56018=
201701030238 SPECI KATL 030238Z 02005KT 1/2SM R09R/6000VP6000FT +RA BR SCT004 BKN020 OVC070 14/14 A3001 RMK AO2 SFC VIS 1 1/2 TSE11 P0035 T01390139=
201701030211 SPECI KATL 030211Z 03006KT 1 1/2SM RA BR SCT004 BKN030 OVC070 14/14 A3001 RMK AO2 SFC VIS 3 TS DSIPTD SCT004 V BKN P0013 T01390139 $=
201701030152 METAR KATL 030152Z 10006KT 1 1/2SM +TSRA BR SCT003 BKN025CB OVC070 13/13 A3003 RMK AO2 SFC VIS 2 SLP168 OCNL LTGIC ALL QUADS TS ALL QUADS MOV NE P0026 T01330133 $=
201701030144 SPECI KATL 030144Z 09008KT 1 1/2SM TSRA BR SCT003 BKN020CB OVC070 13/13 A3002 RMK AO2 SFC VIS 3 OCNL LTGIC ALL QUADS TS ALL QUADS MOV NE P0021 T01330133 $=
201701030052 METAR KATL 030052Z 06008KT 1/2SM R09R/P6000FT TSRA BR BKN003 BKN015CB OVC070 13/13 A3003 RMK AO2 SFC VIS 4 SLP170 OCNL LTGICCCCA ALL QUADS TS ALL QUADS MOV NE P0022 T01330128=
201701030038 SPECI KATL 030038Z 07008KT 1SM R09R/P6000FT TSRA BR BKN004 BKN015CB OVC070 13/13 A3004 RMK AO2 SFC VIS 3 OCNL LTGICCA SE-SW-NW TS SE-SW-NW MOV NE P0018 T01280128=
201701022352 METAR KATL 022352Z 07007KT 2SM TSRA BR FEW004 SCT015CB BKN070 OVC130 13/13 A3008 RMK AO2 SFC VIS 4 SLP184 OCNL LTGICCA SE-OHD-W TS SE-OHD-W MOV NE P0016 60049 T01330133 10139 20122 56017=
201701022343 SPECI KATL 022343Z 08006KT 2SM TSRA BR FEW004 FEW020CB BKN070 OVC130 14/13 A3008 RMK AO2 SFC VIS 4 OCNL LTGIC SW-NW TS VC SW-NW MOV NE P0014 T01390133=
201701022259 SPECI KATL 022259Z 00000KT 2SM RA BR FEW004 SCT020 BKN070 OVC130 13/13 A3011 RMK AO2 SFC VIS 3 PRESRR P0002 T01330133=
201701022252 METAR KATL 022252Z 32004KT 3/4SM R09R/P6000FT -RA BR SCT004 SCT020 BKN060 OVC130 13/13 A3009 RMK AO2 SFC VIS 4 SLP190 P0011 T01330128=
201701022152 METAR KATL 022152Z VRB06KT 1 1/2SM -RA BR FEW004 SCT070 OVC100 13/13 A3009 RMK AO2 SFC VIS 5 SLP189 P0009 T01280128=
201701022149 SPECI KATL 022149Z 10007KT 1 1/2SM -RA BR FEW004 SCT070 OVC100 13/13 A3009 RMK AO2 SFC VIS 4 P0009=
201701022119 SPECI KATL 022119Z 07006KT 3SM -RA BR FEW004 BKN070 OVC110 13/13 A3010 RMK AO2 SFC VIS 5 P0004 T01330128=
201701022059 SPECI KATL 022059Z 05005KT 1 1/2SM -RA BR SCT004 BKN050 OVC070 13/13 A3012 RMK AO2 SFC VIS 4 LTG DSNT W AND NW P0001 T01330128=
201701022052 METAR KATL 022052Z 34004KT 1 1/2SM RA BR SCT004 BKN020 OVC080 13/13 A3013 RMK AO2 SFC VIS 5 LTG DSNT W AND NW SLP202 P0007 60013 T01330128 53005=
201701022043 SPECI KATL 022043Z 02011KT 1 1/2SM -RA BR SCT004 BKN016 OVC075 13/13 A3012 RMK AO2 SFC VIS 5 LTG DSNT SW P0006 T01330128=
201701022023 SPECI KATL 022023Z 04007KT 1/2SM R09R/P6000FT -RA BR SCT004 BKN010 OVC016 13/13 A3013 RMK AO2 SFC VIS 5 LTG DSNT S-W P0002 T01330128=
201701021952 METAR KATL 021952Z 05009KT 1/4SM R09R/P6000FT -RA BR OVC004 13/13 A3012 RMK AO2 SFC VIS 4 LTG DSNT SW AND W SLP198 TWRINC P0004 T01330128=
201701021944 SPECI KATL 021944Z 02007KT 1/4SM R09R/P6000FT -RA BR OVC004 13/13 A3013 RMK AO2 SFC VIS 4 TWRINC P0003 T01330128=
201701021852 METAR KATL 021852Z 02007KT 1/4SM R09R/P6000FT -RA BR OVC002 13/13 A3011 RMK AO2 SFC VIS 2 1/2 RAB01 SLP195 TWRINC P0002 T01330133=
201701021752 METAR KATL 021752Z 07007KT 1/4SM R09R/2000VP6000FT FG VV002 12/12 A3011 RMK AO2 TWR VIS 1/4 SLP197 T01220122 10122 20106 58023=
201701021652 METAR KATL 021652Z 07004KT 1/4SM R09R/2400V3500FT FG VV003 12/12 A3018 RMK AO2 SFC VIS 1/2 SLP219 T01170117=
201701021552 METAR KATL 021552Z 11007KT 1/4SM R09R/4000VP6000FT BR VV003 11/11 A3019 RMK AO2 SFC VIS 3/4 SLP223 T01110111=
201701021452 METAR KATL 021452Z 09005KT 1/4SM R09R/2000V3500FT FG VV002 11/11 A3018 RMK AO2 TWR VIS 1/4 SLP221 T01110111 53017=
201701021352 METAR KATL 021352Z 08008KT 1/4SM R09R/2600V4500FT FG VV002 11/11 A3016 RMK AO2 SFC VIS 1/2 SLP215 T01110111=
201701021326 SPECI KATL 021326Z 10005KT 1/4SM R09R/2800V4500FT FG VV002 11/11 A3017 RMK AO2 SFC VIS 1/2 T01110111=
201701021315 SPECI KATL 021315Z 10005KT 1/4SM R09R/3000VP6000FT BR OVC002 11/11 A3016 RMK AO2 SFC VIS 3/4 T01110111=
201701021252 METAR KATL 021252Z 07008KT 1/4SM R09R/P6000FT BR OVC002 11/11 A3014 RMK AO2 SFC VIS 1 SLP208 TWRINC T01110111=
201701021152 METAR KATL 021152Z 06008KT 1/4SM R09R/P6000FT BR OVC003 11/11 A3013 RMK AO2 SFC VIS 3 RAE17 SLP204 TWRINC P0000 60012 70086 T01060106 10111 20100 51000=
201701021052 METAR KATL 021052Z 07007KT 1/4SM R09R/P6000FT -RA BR OVC004 11/11 A3013 RMK AO2 SFC VIS 5 SLP203 CIG 003V005 TWRINC P0004 T01060106=
201701020952 METAR KATL 020952Z 00000KT 1/4SM R09R/P6000FT -RA BR OVC002 11/11 A3014 RMK AO2 SFC VIS 4 RAB34 SLP206 VIS SE-SW 2 P0000 T01060106=
201701020852 METAR KATL 020852Z 09007KT 1/4SM R09R/P6000FT BR OVC003 11/11 A3013 RMK AO2 SFC VIS 6 RAE30 SLP204 P0002 60008 T01060106 55002=
201701020752 METAR KATL 020752Z 11007KT 1/4SM R09R/P6000FT -RA BR BKN003 OVC011 11/11 A3012 RMK AO2 SFC VIS 6 RAE27B52 SLP202 TWRINC P0001 T01060106=
201701020652 METAR KATL 020652Z 06007KT 1/4SM R09R/P6000FT -RA BR BKN003 BKN011 OVC022 11/11 A3012 RMK AO2 SFC VIS 5 SLP201 CIG 002V006 TWRINC P0005 T01060106=
201701020552 METAR KATL 020552Z 09005KT 1/4SM R09R/P6000FT -RA BR BKN002 OVC016 10/10 A3014 RMK AO2 SFC VIS 2 SLP207 CIG 001V003 TWRINC P0008 60029 T01000100 10100 20094 50004=
201701020452 METAR KATL 020452Z 08005KT 1/4SM R09R/P6000FT -RA BR OVC003 10/10 A3014 RMK AO2 SFC VIS 2 SLP209 CIG 002V004 TWRINC P0006 T01000100 401060050=
201701020352 METAR KATL 020352Z 08005KT 1/8SM R09R/P6000FT -RA BR OVC002 10/10 A3015 RMK AO2 SFC VIS 1 1/2 SLP210 CIG 001V003 TWRINC P0001 T01000100=
201701020252 METAR KATL 020252Z 09007KT 3/4SM R09R/P6000FT -RA BR OVC002 10/09 A3013 RMK AO2 SFC VIS 4 SLP203 TWRINC P0004 60014 T01000094 50003=
201701020152 METAR KATL 020152Z 09008KT 3/4SM R09R/P6000FT -RA BR OVC003 09/09 A3013 RMK AO2 SFC VIS 4 SLP206 CIG 002V004 TWRINC P0003 T00940094=
201701020052 METAR KATL 020052Z 09009KT 3/4SM R09R/P6000FT -RA OVC003 10/10 A3013 RMK AO2 SFC VIS 8 SLP204 CIG 002V004 TWRINC P0007 T01000100=
201701012352 METAR KATL 012352Z 09010KT 3/4SM R09R/P6000FT -RA BR OVC003 10/10 A3012 RMK AO2 SFC VIS 6 SLP201 CIG 002V004 TWRINC P0010 60039 T01000100 10106 20100 53007=
201701012252 METAR KATL 012252Z 11006KT 3/4SM R09R/P6000FT RA BR OVC003 10/10 A3010 RMK AO2 SFC VIS 4 SLP194 TWRINC P0006 T01000100=
201701012152 METAR KATL 012152Z 11008KT 3/4SM R09R/P6000FT -RA BR BKN004 OVC015 10/10 A3009 RMK AO2 SFC VIS 4 SLP189 TWRINC P0017 T01000100=
201701012052 METAR KATL 012052Z 07007KT 1/8SM R09R/P6000FT RA BR OVC003 10/10 A3010 RMK AO2 SFC VIS 1 1/2 SLP193 TWRINC P0004 60006 T01000100 53003=
201701011952 METAR KATL 011952Z 08007KT 1/8SM R09R/P6000FT -RA BR OVC003 11/10 A3007 RMK AO2 SFC VIS 1 1/2 DZE32RAB32 SLP185 TWRINC P0001 T01060100=
201701011852 METAR KATL 011852Z 10006KT 1/8SM R09R/5500VP6000FT -DZ BR OVC002 10/10 A3008 RMK AO2 SFC VIS 1 SLP187 TWRINC P0001 T01000100=
201701011752 METAR KATL 011752Z 10006KT 1/8SM R09R/P6000FT -DZ BR OVC003 10/10 A3008 RMK AO2 SFC VIS 1 SLP191 TWRINC P0000 60006 T01000100 10100 20078 58009=
201701011652 METAR KATL 011652Z 10006KT 1/8SM R09R/1400V2800FT -DZ FG VV002 09/09 A3011 RMK AO2 SFC VIS 1/4 DZB50 SLP199 TWRINC P0000 T00940094=
201701011552 METAR KATL 011552Z 09007KT 1/8SM R09R/1400FT FG VV002 08/08 A3013 RMK AO2 SFC VIS 1/4 RAE04 SLP205 TWRINC P0000 T00830083=
201701011531 SPECI KATL 011531Z 08010KT 1/8SM R09R/1400V2200FT FG VV002 08/08 A3013 RMK AO2 SFC VIS 1/4 RAE04 TWRINC P0000 T00830083=
201701011452 METAR KATL 011452Z 08010KT 1/8SM R09R/2200V2400FT -RA FG VV002 08/08 A3011 RMK AO2 SFC VIS 1/4 SLP201 TWRINC P0002 60006 T00830083 53014=
201701011352 METAR KATL 011352Z 09008KT 040V110 1/8SM R09R/3000V4500FT -RA FG VV002 09/09 A3009 RMK AO2 SFC VIS 1/2 SLP195 TWRINC P0003 T00890089=
201701011350 SPECI KATL 011350Z 09008KT 1/8SM R09R/3000V4000FT -RA FG VV002 09/09 A3010 RMK AO2 SFC VIS 1/2 TWRINC P0003=
201701011334 SPECI KATL 011334Z 09006KT 1/4SM R09R/2600V3000FT -RA FG VV002 08/08 A3009 RMK AO2 SFC VIS 1/2 P0002 T00830083=
201701011252 METAR KATL 011252Z 09007KT 1/4SM R09R/3000V4000FT -RA BR OVC002 08/08 A3008 RMK AO2 SFC VIS 3/4 SLP189 P0001 T00830083=
