##########################################################
# Query made at 04/19/2024 23:54:47 UTC
# Time interval: from 07/01/2017 12:00  to 07/31/2017 12:59  UTC
##########################################################

##########################################################
# KATL, Atlanta, Hartsfield - Jackson Atlanta International Airport (United States)
# WMO index: 72219. WIGOS ID: 0-20000-0-72219
# Latitude 33-38-59N. Longitude 084-25-00W. Altitude 312 m.
##########################################################

201707311252 METAR KATL 311252Z 08007KT 030V100 10SM FEW250 22/13 A3014 RMK AO2 SLP199 T02220133=
201707311152 METAR KATL 311152Z 05010KT 10SM FEW250 22/13 A3013 RMK AO2 SLP192 T02170128 10222 20194 51018=
201707311052 METAR KATL 311052Z 05008KT 10SM FEW250 20/13 A3011 RMK AO2 SLP188 T02000128=
201707310952 METAR KATL 310952Z 06010KT 10SM FEW055 21/13 A3009 RMK AO2 SLP181 T02060133=
201707310852 METAR KATL 310852Z 08007KT 10SM FEW055 20/14 A3008 RMK AO2 SLP174 T02000139 51003=
201707310752 METAR KATL 310752Z 07009KT 10SM FEW055 21/14 A3007 RMK AO2 SLP173 T02110139=
201707310652 METAR KATL 310652Z 06006KT 10SM FEW055 22/15 A3007 RMK AO2 SLP174 T02220150=
201707310552 METAR KATL 310552Z 07007KT 10SM FEW055 22/17 A3007 RMK AO2 SLP171 T02170167 10278 20211 50002=
201707310452 METAR KATL 310452Z 10004KT 10SM FEW055 23/16 A3007 RMK AO2 SLP173 T02280161 403000217=
201707310352 METAR KATL 310352Z 00000KT 10SM FEW055 24/16 A3007 RMK AO2 SLP171 T02390156=
201707310252 METAR KATL 310252Z 10006KT 10SM SCT055 25/15 A3006 RMK AO2 SLP170 T02500150 51012=
201707310152 METAR KATL 310152Z 10005KT 10SM FEW050 25/15 A3005 RMK AO2 SLP167 T02500150=
201707310052 METAR KATL 310052Z 10007KT 10SM FEW055 27/15 A3004 RMK AO2 SLP162 T02670150=
201707302352 METAR KATL 302352Z 09010KT 030V120 10SM FEW060 28/15 A3003 RMK AO2 SLP158 T02830150 10300 20278 53003=
201707302252 METAR KATL 302252Z 07008KT 10SM FEW060 29/15 A3001 RMK AO2 SLP153 T02890150=
201707302152 METAR KATL 302152Z 07010KT 10SM SCT060 29/16 A3001 RMK AO2 SLP152 T02940161=
201707302052 METAR KATL 302052Z 08011KT 10SM BKN060 29/16 A3002 RMK AO2 SLP153 T02940161 56006=
201707301952 METAR KATL 301952Z 08010G16KT 10SM BKN055 28/16 A3002 RMK AO2 SLP154 T02830156=
201707301852 SPECI KATL 301852Z 12009KT 10SM SCT050 29/16 A3003 RMK AO2 SLP156 T02890156=
201707301852 METAR KATL 301852Z 12009KT 10SM SCT050 29/16 A3003 RMK AO2 SLP156 T02890156=
201707301752 METAR KATL 301752Z 09007KT 060V120 10SM SCT050 28/16 A3003 RMK AO2 SLP159 T02830156 10283 20217 58003=
201707301652 METAR KATL 301652Z 07010KT 10SM FEW045 28/16 A3005 RMK AO2 SLP163 T02780156=
201707301552 METAR KATL 301552Z 06010G18KT 10SM FEW040 27/16 A3005 RMK AO2 SLP166 T02670161=
201707301452 METAR KATL 301452Z 09011KT 060V120 10SM FEW035 25/16 A3004 RMK AO2 SLP163 T02500161 51011=
201707301352 METAR KATL 301352Z 08017KT 10SM FEW030 24/16 A3003 RMK AO2 SLP159 T02390161=
201707301252 METAR KATL 301252Z 07014G19KT 10SM FEW070 23/17 A3002 RMK AO2 SLP156 T02280167=
201707301152 METAR KATL 301152Z 08012KT 10SM SCT070 22/17 A3001 RMK AO2 SLP152 T02170167 10244 20217 51020=
201707301052 METAR KATL 301052Z 08012KT 10SM SCT070 22/17 A2999 RMK AO2 SLP144 T02170167=
201707300952 METAR KATL 300952Z 08012KT 10SM BKN065 22/16 A2997 RMK AO2 SLP138 T02220161=
201707300852 METAR KATL 300852Z 07012KT 10SM FEW065 22/16 A2995 RMK AO2 SLP130 T02220156 53011=
201707300752 METAR KATL 300752Z 06010KT 10SM FEW070 23/16 A2994 RMK AO2 SLP125 T02330156=
201707300652 METAR KATL 300652Z 06012KT 10SM FEW070 24/16 A2992 RMK AO2 SLP120 T02390156=
201707300552 METAR KATL 300552Z 05009KT 10SM FEW065 24/17 A2991 RMK AO2 SLP118 T02440172 10289 20244 53010=
201707300452 METAR KATL 300452Z 03010KT 10SM FEW065 25/18 A2990 RMK AO2 SLP113 T02500178 403220239=
201707300352 METAR KATL 300352Z 36010KT 10SM FEW060 25/18 A2989 RMK AO2 SLP110 T02500178=
201707300252 METAR KATL 300252Z 34007KT 10SM CLR 25/18 A2988 RMK AO2 SLP108 T02500183 51015=
201707300152 METAR KATL 300152Z 33010KT 10SM FEW065 26/18 A2987 RMK AO2 SLP103 T02610178=
201707300052 METAR KATL 300052Z 34009KT 10SM FEW065 FEW250 27/17 A2986 RMK AO2 SLP098 T02720167=
201707292352 METAR KATL 292352Z 34011KT 10SM FEW065 FEW250 29/16 A2984 RMK AO2 SLP092 T02890156 10322 20289 53009=
201707292252 METAR KATL 292252Z 32011KT 10SM FEW060 FEW070 FEW250 30/16 A2982 RMK AO2 SLP085 CB DSNT SE-SW T03000161=
201707292152 METAR KATL 292152Z 33015G23KT 10SM FEW070 FEW150 SCT250 31/12 A2981 RMK AO2 SLP083 CB DSNT SE-S T03110122=
201707292052 METAR KATL 292052Z 33017G21KT 10SM SCT060 SCT150 SCT250 31/11 A2981 RMK AO2 SLP082 CB DSNT SE-S T03110106 55002=
201707291952 METAR KATL 291952Z 36012G23KT 10SM SCT060 SCT150 SCT250 32/15 A2981 RMK AO2 PK WND 33027/1942 SLP081 CB DSNT S T03170150=
201707291852 METAR KATL 291852Z 33011G20KT 10SM SCT050 SCT250 31/16 A2981 RMK AO2 SLP083 CB DSNT S T03110161=
201707291752 METAR KATL 291752Z 33011G21KT 10SM SCT050 SCT250 31/18 A2982 RMK AO2 SLP084 MDT CU DSNT S T03110183 10311 20244 58006=
201707291652 METAR KATL 291652Z 33008KT 10SM SCT040 SCT250 31/20 A2982 RMK AO2 SLP086 T03060200=
201707291552 METAR KATL 291552Z 30010KT 10SM SCT030 SCT250 29/21 A2983 RMK AO2 SLP091 T02890211=
201707291452 METAR KATL 291452Z 31010KT 10SM SCT022 SCT150 SCT250 28/22 A2983 RMK AO2 SLP091 T02780217 51005=
201707291352 METAR KATL 291352Z 33006KT 10SM SCT018 SCT150 BKN250 27/22 A2983 RMK AO2 SLP091 T02670217=
201707291252 METAR KATL 291252Z 34009KT 10SM FEW011 SCT035 BKN085 BKN150 BKN220 25/22 A2984 RMK AO2 SLP092 T02500217=
201707291232 SPECI KATL 291232Z 33008KT 10SM SCT010 SCT030 BKN080 BKN150 24/22 A2983 RMK AO2 T02440217=
201707291152 METAR KATL 291152Z 32009KT 10SM SCT007 BKN014 BKN090 24/23 A2982 RMK AO2 SLP086 BKN014 V SCT 70002 T02440228 10250 20239 53013=
201707291052 METAR KATL 291052Z 27006KT 10SM SCT007 BKN013 BKN039 24/23 A2980 RMK AO2 SLP081 BKN013 V SCT T02390233=
201707290952 METAR KATL 290952Z 29007KT 10SM SCT005 BKN015 BKN025 24/23 A2980 RMK AO2 SLP078 T02440233=
201707290902 SPECI KATL 290902Z 27007KT 10SM BKN007 24/23 A2978 RMK AO2 T02440233=
201707290852 METAR KATL 290852Z 26008KT 10SM SCT007 SCT110 24/23 A2978 RMK AO2 SLP073 T02440233 55009=
201707290752 METAR KATL 290752Z 27008KT 10SM FEW006 SCT060 SCT100 24/23 A2978 RMK AO2 SLP074 T02440233=
201707290652 METAR KATL 290652Z 27008KT 10SM FEW006 BKN060 24/23 A2979 RMK AO2 SLP076 T02440233=
201707290552 METAR KATL 290552Z 27008KT 10SM SCT007 BKN055 BKN100 25/23 A2981 RMK AO2 SLP083 60002 T02500233 10272 20250 58006=
201707290523 SPECI KATL 290523Z 26008KT 10SM FEW007 SCT025 SCT055 BKN200 25/23 A2981 RMK AO2 T02500233=
201707290452 METAR KATL 290452Z 25008KT 10SM FEW010 SCT030 BKN060 BKN200 25/24 A2982 RMK AO2 SLP085 VCSH N & SE T02500239 402940228=
201707290352 METAR KATL 290352Z 26006KT 10SM FEW012 BKN030 BKN050 BKN200 26/24 A2983 RMK AO2 RAB11E27 SLP089 CB DSNT E P0002 T02560239=
201707290252 METAR KATL 290252Z 25006KT 10SM SCT045 BKN060 BKN200 26/23 A2983 RMK AO2 SLP089 LTG DSNT SE-S CB DSNT SE-SW T02560233 56004=
201707290152 METAR KATL 290152Z 24007KT 10SM FEW020 SCT060 BKN200 BKN250 26/23 A2983 RMK AO2 SLP089 LTG DSNT S-SW CB DSNT SE-SW T02610228=
201707290052 METAR KATL 290052Z 24006KT 10SM BKN048 BKN060 OVC200 27/22 A2984 RMK AO2 SLP092 T02670222=
201707282352 METAR KATL 282352Z 25011KT 10SM FEW025TCU SCT100 BKN200 BKN250 27/23 A2984 RMK AO2 SLP094 TCU VC SE T02720228 10283 20267 55010=
201707282252 METAR KATL 282252Z 23010KT 10SM FEW020 SCT150 BKN200 BKN250 28/23 A2983 RMK AO2 SLP091 T02780228=
201707282152 METAR KATL 282152Z 24010KT 10SM FEW020 SCT100 BKN150 BKN250 28/23 A2984 RMK AO2 SLP096 T02780228=
201707282112 SPECI KATL 282112Z 25006KT 10SM SCT023 BKN080 BKN150 BKN250 28/23 A2986 RMK AO2 T02780228=
201707282052 METAR KATL 282052Z 27011G20KT 10SM R09R/4500VP6000FT BKN025 BKN070 BKN250 28/23 A2987 RMK AO2 SLP105 T02780228 56018=
201707281952 METAR KATL 281952Z 27011KT 10SM FEW020 SCT050 BKN070 BKN250 27/22 A2988 RMK AO2 SLP108 ACC NE-SE & SW-NW T02670222=
201707281852 METAR KATL 281852Z 27010KT 10SM FEW025 FEW085 BKN150 OVC250 27/22 A2990 RMK AO2 SLP114 T02720217=
201707281752 METAR KATL 281752Z 28011KT 10SM FEW025 BKN085 OVC150 27/21 A2993 RMK AO2 SLP123 VIRGA DSNT SW-NW CB DSNT NE-SE T02720211 10294 20233 58007=
201707281652 METAR KATL 281652Z 27008KT 10SM FEW020 SCT120 BKN150 OVC180 28/23 A2995 RMK AO2 SLP131 T02780233=
201707281552 METAR KATL 281552Z 28013G17KT 10SM FEW020 SCT120 BKN150 BKN200 28/23 A2995 RMK AO2 SLP132 T02830233=
201707281452 METAR KATL 281452Z 27010KT 10SM FEW025 SCT120 BKN150 BKN200 29/23 A2995 RMK AO2 SLP130 MDT CU S-SW T02890233 51004=
201707281352 METAR KATL 281352Z 28008KT 10SM FEW015 FEW120 SCT150 SCT250 28/23 A2994 RMK AO2 SLP129 T02780233=
201707281252 METAR KATL 281252Z 25006KT 9SM FEW050 SCT140 SCT180 BKN250 25/23 A2995 RMK AO2 SLP130 ACC NW MDT CU SW-W T02500228=
201707281152 METAR KATL 281152Z 22006KT 8SM FEW006 SCT180 SCT250 23/23 A2994 RMK AO2 SLP128 70010 T02330228 10239 20228 53003=
201707281052 METAR KATL 281052Z 21003KT 8SM SCT180 BKN250 23/22 A2993 RMK AO2 SLP127 T02280222=
201707280952 METAR KATL 280952Z 24003KT 10SM SCT180 BKN250 23/22 A2993 RMK AO2 SLP124 T02280222=
201707280852 METAR KATL 280852Z 21004KT 10SM BKN180 BKN250 23/22 A2993 RMK AO2 SLP122 T02280222 58011=
201707280752 METAR KATL 280752Z 21004KT 10SM FEW080 SCT180 BKN250 23/22 A2994 RMK AO2 SLP127 T02280222=
201707280652 METAR KATL 280652Z 19004KT 10SM SCT080 BKN180 BKN250 23/22 A2995 RMK AO2 SLP131 T02330222=
201707280552 METAR KATL 280552Z 22004KT 10SM FEW032 FEW065 SCT150 BKN250 24/22 A2996 RMK AO2 SLP133 T02390222 10256 20239 58007=
201707280452 METAR KATL 280452Z 17003KT 10SM SCT032TCU BKN050 BKN150 BKN250 24/22 A2997 RMK AO2 SLP138 TCU NE & VC SE SHRA NE & VC SE T02440222 403330222=
201707280352 METAR KATL 280352Z 00000KT 10SM FEW040CB SCT150 BKN250 24/22 A2998 RMK AO2 SLP141 CB VC NW-N MOV SE T02390222=
201707280252 METAR KATL 280252Z 00000KT 10SM FEW100 SCT200 BKN250 24/22 A2998 RMK AO2 SLP142 T02390222 56002=
201707280152 METAR KATL 280152Z 18005KT 10SM FEW150 SCT200 BKN250 24/23 A2999 RMK AO2 SLP144 T02390228=
201707280052 METAR KATL 280052Z 00000KT 10SM FEW120 SCT150 BKN250 26/23 A2998 RMK AO2 SLP142 T02560228=
201707272352 METAR KATL 272352Z 00000KT 10SM SCT120 BKN150 OVC250 26/23 A2999 RMK AO2 SLP146 60010 T02560228 10333 20244 53005=
201707272252 METAR KATL 272252Z 20004KT 10SM FEW035 SCT080 BKN110 OVC200 24/23 A2998 RMK AO2 WSHFT 2156 SLP141 RAB03E41 TSE45 LTG DSNT SE-S P0010 T02440228=
201707272246 SPECI KATL 272246Z 16007KT 10SM FEW035 SCT080 BKN110 OVC200 24/22 A2998 RMK AO2 WSHFT 2156 RAB03E41 TSE45 LTG DSNT SE-SW TS MOV SE P0010=
201707272219 SPECI KATL 272219Z 33010KT 6SM TSRA BR SCT035CB BKN060 OVC200 24/23 A3001 RMK AO2 WSHFT 2156 VIS LWR E-S-SW RAB03 OCNL LTGIC E-S-SW TS E-S-SW MOV SE P0005 T02440228=
201707272213 SPECI KATL 272213Z 33018KT 2SM R09R/5000VP6000FT +TSRA SCT035CB BKN060 OVC200 26/22 A3000 RMK AO2 WSHFT 2156 RAB03 OCNL LTGICCG NE-OHD-SW TS NE-OHD-SW MOV SE P0000 T02610217=
201707272210 SPECI KATL 272210Z 32020G25KT 5SM TSRA SCT040CB BKN070 BKN200 26/21 A3000 RMK AO2 WSHFT 2156 RAB03 OCNL LTGICCG W-NW & VC NE-SE TS W-NW VC NE-SE MOV SE CB W-NW & VC NE-SE & S MOV SE P0000 T02610211=
201707272152 METAR KATL 272152Z 01016G24KT 10SM VCTS SCT040CB BKN070 BKN200 27/21 A2998 RMK AO2 WSHFT 2128 SLP143 TSB42 OCNL LTGICCG VC NE-SE & W-NW TS VC NE-SE & W-NW MOV SE CB NE-SE & S-SW & W-NW MOV SE T02720211=
201707272142 SPECI KATL 272142Z 01018G25KT 10SM VCTS SCT040CB BKN070 BKN200 28/21 A2998 RMK AO2 WSHFT 2128 OCNL LTGICCG VC NE-E & W-NW TS VC NE-E & W-NW MOV SE CB VC ALQDS MOV SE T02780211=
201707272052 METAR KATL 272052Z VRB03KT 10SM BKN045TCU BKN100 BKN250 32/22 A2998 RMK AO2 LTG DSNT W-N SLP138 CB DSNT NW TCU OHD & ALQDS T03220217 56023=
201707271952 METAR KATL 271952Z 23005KT 10SM SCT045 SCT250 32/22 A2999 RMK AO2 LTG DSNT N SLP144 CB DSNT NW-N MDT CU NE-SE-SW T03220217=
201707271852 METAR KATL 271852Z VRB04KT 10SM SCT043 SCT250 32/21 A3002 RMK AO2 SLP153 CB DSNT NW-N MDT CU NE-E T03170211=
201707271752 METAR KATL 271752Z 29006KT 10SM FEW040 SCT050 SCT250 32/22 A3004 RMK AO2 SLP162 CB DSNT NW MDT CU NE-SE & SW-W T03170217 10317 20233 58018=
201707271652 METAR KATL 271652Z VRB05KT 10SM FEW045 FEW250 31/21 A3008 RMK AO2 SLP173 CB DSNT NW T03110211=
201707271552 METAR KATL 271552Z VRB04KT 10SM FEW035 FEW250 30/21 A3008 RMK AO2 SLP176 T03000211=
201707271452 METAR KATL 271452Z VRB03KT 10SM FEW005 FEW030 SCT250 28/21 A3010 RMK AO2 SLP181 FU FEW005 T02830206 58002=
201707271352 METAR KATL 271352Z 00000KT 10SM FEW015 FEW250 27/23 A3011 RMK AO2 SLP184 T02720228=
201707271252 METAR KATL 271252Z 00000KT 10SM FEW006 SCT055 BKN110 BKN250 24/22 A3011 RMK AO2 SLP186 MDT CU NE-OHD-SW T02440222=
201707271152 METAR KATL 271152Z 00000KT 10SM SCT006 SCT055 BKN110 BKN250 23/21 A3010 RMK AO2 SLP184 T02330211 10233 20222 53006=
201707271052 METAR KATL 271052Z 09003KT 10SM FEW006 FEW055 SCT100 SCT250 23/21 A3009 RMK AO2 SLP179 T02280206=
201707270957 SPECI KATL 270957Z 12005KT 10SM SCT008 BKN055 BKN080 BKN250 23/21 A3009 RMK AO2 T02280206=
201707270952 METAR KATL 270952Z 12003KT 10SM BKN008 OVC055 23/21 A3009 RMK AO2 SLP177 CIG 007V009 T02280206=
201707270945 SPECI KATL 270945Z 14004KT 10SM BKN008 OVC055 23/20 A3009 RMK AO2 T02280200=
201707270933 SPECI KATL 270933Z 12003KT 10SM SCT008 BKN055 BKN080 BKN250 23/20 A3009 RMK AO2 T02280200=
201707270852 METAR KATL 270852Z 12004KT 10SM FEW012 FEW060 SCT085 SCT250 23/20 A3008 RMK AO2 SLP175 T02330200 55004=
201707270752 METAR KATL 270752Z 00000KT 10SM FEW080 SCT200 SCT250 22/19 A3008 RMK AO2 SLP175 T02220194=
201707270652 METAR KATL 270652Z 12003KT 10SM FEW060 FEW080 SCT250 23/19 A3009 RMK AO2 SLP176 T02330194=
201707270552 METAR KATL 270552Z 14004KT 10SM FEW060 FEW080 SCT250 23/19 A3009 RMK AO2 SLP179 T02330189 10267 20228 58005=
201707270452 METAR KATL 270452Z 08006KT 10SM FEW060 SCT080 SCT250 23/19 A3012 RMK AO2 SLP187 T02330189 403440233=
201707270352 METAR KATL 270352Z 17003KT 10SM SCT070 SCT250 24/18 A3012 RMK AO2 SLP189 T02440183=
201707270252 METAR KATL 270252Z 00000KT 10SM FEW250 25/18 A3011 RMK AO2 SLP184 T02500183 53009=
201707270152 METAR KATL 270152Z 15004KT 10SM FEW200 25/19 A3009 RMK AO2 SLP178 T02500194=
201707270052 METAR KATL 270052Z 00000KT 10SM FEW060 FEW200 25/19 A3007 RMK AO2 SLP171 T02500194=
201707262352 METAR KATL 262352Z 12009KT 10SM FEW050 SCT250 27/19 A3008 RMK AO2 PK WND 10030/2318 SLP177 TSB12E37 CB DSNT SW TCU DSNT W-NW T02670194 10344 20267 51008=
201707262337 SPECI KATL 262337Z 14012G23KT 10SM FEW055TCU BKN250 28/19 A3009 RMK AO2 PK WND 10030/2318 TSB12E37 TS DSIPTD TCU VC S-W-NW T02780194=
201707262313 SPECI KATL 262313Z 10010KT 10SM VCTS FEW065CB SCT250 32/20 A3008 RMK AO2 OCNL LTGICCG VC E-SE TSB12 TS VC E-SE MOV SW T03220200=
201707262252 METAR KATL 262252Z 10008KT 10SM FEW065TCU SCT250 33/20 A3008 RMK AO2 SLP173 LTG DSNT NE-SE CB DSNT NE-SE TCU SW & W-NW T03280200=
201707262152 METAR KATL 262152Z 35008KT 10SM SCT065TCU SCT250 34/18 A3007 RMK AO2 SLP169 TCU N & DSNT SE T03440178=
201707262052 METAR KATL 262052Z 31009KT 10SM FEW065 FEW250 34/19 A3006 RMK AO2 SLP166 CB DSNT E-SE MDT CU DSNT NE T03440194 58020=
201707261952 METAR KATL 261952Z 00000KT 10SM FEW060 FEW250 33/19 A3009 RMK AO2 SLP176 CB DSNT SE & NW T03330189=
201707261852 METAR KATL 261852Z 36006KT 10SM FEW055 FEW250 34/20 A3010 RMK AO2 SLP180 CB DSNT E-SE & DSNT W-NW T03390200=
201707261752 METAR KATL 261752Z 06009KT 10SM FEW055TCU FEW250 33/20 A3012 RMK AO2 SLP188 TCU N-NE & S T03280200 10333 20244 58006=
201707261652 METAR KATL 261652Z 06005KT 10SM FEW055 FEW250 32/20 A3013 RMK AO2 SLP192 T03220200=
201707261552 METAR KATL 261552Z 04008KT 10SM FEW050 FEW250 32/19 A3013 RMK AO2 SLP192 T03170194 $=
201707261452 METAR KATL 261452Z 06008KT 10SM FEW250 31/19 A3014 RMK AO2 SLP194 T03060189 50002 $=
201707261352 METAR KATL 261352Z 06006KT 10SM FEW250 29/23 A3015 RMK AO2 SLP197 T02890228 $=
201707261252 METAR KATL 261252Z 36003KT 10SM FEW200 SCT250 27/22 A3015 RMK AO2 SLP198 T02720222=
201707261152 METAR KATL 261152Z 30004KT 10SM FEW200 SCT250 24/22 A3013 RMK AO2 SLP194 T02440222 10244 20233 53009=
201707261052 METAR KATL 261052Z 32004KT 10SM FEW200 SCT250 24/22 A3012 RMK AO2 SLP188 T02390217=
201707260952 METAR KATL 260952Z 31004KT 10SM FEW200 23/22 A3011 RMK AO2 SLP185 T02330222=
201707260852 METAR KATL 260852Z 30004KT 10SM FEW200 24/23 A3011 RMK AO2 SLP183 T02390228 53001=
201707260752 METAR KATL 260752Z 00000KT 10SM FEW200 24/23 A3011 RMK AO2 SLP183 T02440233=
201707260652 METAR KATL 260652Z 00000KT 10SM CLR 24/23 A3010 RMK AO2 SLP179 T02440228=
201707260552 METAR KATL 260552Z 21004KT 10SM FEW200 FEW250 24/22 A3010 RMK AO2 SLP182 T02440222 10272 20244 56011=
201707260452 METAR KATL 260452Z 00000KT 10SM FEW200 SCT250 25/22 A3011 RMK AO2 SLP184 T02500222 403170228=
201707260352 METAR KATL 260352Z 16003KT 10SM FEW120 BKN200 BKN250 26/22 A3012 RMK AO2 SLP187 T02560222=
201707260252 METAR KATL 260252Z 00000KT 10SM FEW120 BKN200 BKN250 25/22 A3013 RMK AO2 SLP193 T02500222 53011=
201707260152 METAR KATL 260152Z 00000KT 10SM FEW150 SCT200 BKN250 26/22 A3011 RMK AO2 SLP186 T02560217=
201707260052 METAR KATL 260052Z 28004KT 10SM FEW030 BKN200 BKN250 26/21 A3010 RMK AO2 SLP184 CB DSNT NE TCU DSNT W-NW T02560211=
201707252352 METAR KATL 252352Z 26004KT 10SM FEW030 SCT150 BKN200 BKN250 27/21 A3010 RMK AO2 LTG DSNT W SLP183 60000 T02670206 10317 20250 53005=
201707252252 METAR KATL 252252Z 20003KT 10SM FEW030 SCT150 BKN200 BKN250 28/21 A3007 RMK AO2 RAE00 TSE14 SLP172 LTG DSNT W-NW P0000 T02830206=
201707252214 SPECI KATL 252214Z 24004KT 10SM FEW030 SCT100 BKN150 BKN250 27/21 A3008 RMK AO2 RAE00 TSE14 LTG DSNT S-SW & W & NW TS MOV SW P0000 T02720206=
201707252152 METAR KATL 252152Z 24005KT 10SM -TSRA FEW035CB SCT080 BKN150 BKN250 26/21 A3007 RMK AO2 PK WND 12031/2111 WSHFT 2104 RAB08E21B52 SLP174 FRQ LTGICCG S & SW-W & DSNT NW TS S & SW-W & DSNT NW MOV SW P0000 T02610206=
201707252121 SPECI KATL 252121Z 15011G29KT 10SM TS FEW035CB SCT045 BKN150 BKN250 26/18 A3008 RMK AO2 PK WND 12031/2111 WSHFT 2104 RAB08E21 FRQ LTGICCG E-S-SW TS E-S-SW MOV SW P0000 T02560183=
201707252052 METAR KATL 252052Z 10SM TS FEW035CB SCT045TCU BKN250 30/23 A3009 RMK AO2 LTG DSNT E TSB26E27B46 SLP177 FRQ LTGICCG N & VC E TS N & VC E MOV SW SHRA N & VC E TCU E & SW-NW T03000233 56005=
201707252033 SPECI KATL 252033Z 19006KT 10SM VCTS FEW030CB SCT040TCU BKN250 31/23 A3009 RMK AO2 LTG DSNT N-E OCNL LTGICCG VC N-NE TS VC N-NE MOV SW SHRA VC N-NE & S CB S MOV SW TCU NE T03060228=
201707251952 METAR KATL 251952Z 26006KT 10SM SCT038TCU SCT150 BKN250 31/23 A3009 RMK AO2 LTG DSNT NE SLP178 CB DSNT NE TCU SE-SW & DSNT NW SHRA DSNT NE T03110228=
201707251852 METAR KATL 251852Z VRB03KT 10SM FEW030 SCT150 BKN250 31/23 A3009 RMK AO2 SLP179 T03110233=
201707251752 METAR KATL 251752Z 24007KT 10SM FEW023 SCT150 BKN250 30/24 A3010 RMK AO2 SLP182 T03000244 10306 20239 58005=
201707251652 METAR KATL 251652Z 30005KT 10SM FEW030 SCT100 BKN220 30/23 A3011 RMK AO2 SLP185 T03000228=
201707251552 METAR KATL 251552Z 00000KT 10SM FEW025 SCT100 SCT150 BKN250 31/24 A3012 RMK AO2 SLP188 T03060239=
201707251452 METAR KATL 251452Z VRB03KT 10SM FEW100 SCT170 BKN250 27/23 A3012 RMK AO2 SLP189 T02720233 50007=
201707251352 METAR KATL 251352Z 28005KT 10SM BKN100 BKN150 BKN250 25/22 A3012 RMK AO2 SLP190 T02500222=
201707251252 METAR KATL 251252Z 28005KT 10SM BKN110 BKN150 OVC200 24/22 A3011 RMK AO2 SLP186 VIRGA SE-SW T02440222=
201707251152 METAR KATL 251152Z 25004KT 10SM FEW060 SCT120 BKN180 BKN250 24/22 A3010 RMK AO2 SLP183 T02390217 10239 20228 51013=
201707251052 METAR KATL 251052Z 27005KT 10SM SCT150 BKN200 BKN250 23/22 A3009 RMK AO2 SLP180 T02280217=
201707250952 METAR KATL 250952Z 26004KT 10SM FEW150 SCT200 BKN250 23/22 A3007 RMK AO2 SLP174 T02330217=
201707250852 METAR KATL 250852Z 28004KT 10SM FEW150 SCT200 BKN250 23/22 A3006 RMK AO2 SLP170 T02280217 53003=
201707250752 METAR KATL 250752Z 28004KT 10SM FEW150 SCT200 BKN250 23/22 A3005 RMK AO2 SLP163 T02280217=
201707250652 METAR KATL 250652Z 26005KT 10SM FEW150 FEW200 BKN250 23/22 A3005 RMK AO2 SLP162 T02280217=
201707250552 METAR KATL 250552Z 28005KT 10SM FEW150 SCT200 SCT250 23/22 A3005 RMK AO2 SLP164 T02280217 10244 20228 50001=
201707250452 METAR KATL 250452Z 00000KT 10SM FEW150 SCT200 BKN250 23/22 A3005 RMK AO2 SLP166 T02330217 403280233=
201707250352 METAR KATL 250352Z 27004KT 10SM FEW150 SCT200 BKN250 24/22 A3005 RMK AO2 SLP164 T02390217=
201707250252 METAR KATL 250252Z 24005KT 10SM SCT150 BKN200 BKN250 24/22 A3005 RMK AO2 SLP164 T02390217 53016=
201707250152 METAR KATL 250152Z 19005KT 10SM BKN150 BKN200 BKN250 24/22 A3004 RMK AO2 SLP160 T02390217=
201707250052 METAR KATL 250052Z 22006KT 10SM FEW100 BKN150 BKN200 BKN250 24/22 A3001 RMK AO2 SLP151 VIRGA NE-OHD-W T02440222=
201707242352 METAR KATL 242352Z 20004KT 10SM FEW100 SCT150CB BKN200 BKN250 24/22 A3000 RMK AO2 SLP149 CBMAM SE 60000 T02440222 10328 20244 51009=
201707242252 METAR KATL 242252Z 27004KT 10SM FEW025 SCT100 BKN150CB OVC250 25/22 A2999 RMK AO2 SLP145 TSE22 CBMAM OHD-SW VCSH NE-SE T02500217=
201707242222 SPECI KATL 242222Z 17004KT 10SM FEW025 SCT100 BKN150 OVC250 25/22 A3001 RMK AO2 TSE22 TS DSIPTD T02500217=
201707242152 METAR KATL 242152Z 13010KT 10SM VCTS FEW012 SCT025CB BKN050 BKN150 OVC250 25/22 A3001 RMK AO2 RAB14E52 SLP152 OCNL LTGICCG VC NE-SE TS VC NE-SE MOV E P0000 T02500222=
201707242052 METAR KATL 242052Z 28007KT 10SM VCTS FEW030CB SCT060 BKN100 BKN250 26/23 A2997 RMK AO2 WSHFT 2002 LTG DSNT ALQDS TSE02B12E36 SLP139 OCNL LTGICCG VC SE-SW TS VC SE-SW MOV E CBMAM DSNT W-NW T02610228 55003=
201707242037 SPECI KATL 242037Z 27006KT 10SM VCTS FEW030CB BKN060 BKN100 BKN250 27/22 A2998 RMK AO2 WSHFT 2002 LTG DSNT ALQDS TSE02B12E36 OCNL LTGICCG VC SE-SE TS VC SE-SW MOV E SHRA VC SE-SW CB DSNT ALQDS T02670222=
201707242016 SPECI KATL 242016Z 30011KT 10SM TS FEW030CB BKN040TCU BKN100 BKN250 28/21 A2998 RMK AO2 WSHFT 2002 LTG DSNT ALQDS OCNL LTGICCG W & DSNT SE & SW TS W & DSNT SE & SW MOV E SHRA W & DSNT SE & SW CB DSNT ALQDS TCU OHD & ALQDS T028302=
201707242008 SPECI KATL 242008Z 35011KT 10SM VCTS FEW035CB BKN040TCU BKN100 BKN250 29/21 A2997 RMK AO2 LTG DSNT ALQDS OCNL LTGICCG VC E & SE & W TS VC E & SE & W MOV SE SHRA VC E & SE & W CB DSNT ALQDS TCU OHD & ALQDS T02890211=
201707241950 METAR KATL 241950Z 36013G26KT 10SM TS FEW030CB BKN040TCU BKN100 BKN250 30/21 A2996 RMK AO2 PK WND 36026/1943 WSHFT 1935 LTG DSNT ALQDS TSB44 SLP134 FRQ LTGICCG N-NE & W TS N-NE & W MOV SE SHRA N-NE & W CB DSNT ALQDS TCU OHD & ALQDS=
201707241949 SPECI KATL 241949Z 01014G26KT 10SM TS FEW030CB BKN040TCU BKN100 BKN250 30/21 A2996 RMK AO2 PK WND 36026/1943 WSHFT 1935 LTG DSNT ALQDS TSB44 FRQ LTGICCG N-NE & W TS N-NE & W MOV SE SHRA N-NE & W CB DSNT ALQDS TCU OHD & ALQDS=
201707241917 SPECI KATL 241917Z VRB04KT 10SM VCTS FEW040CB BKN050TCU BKN100 BKN250 33/22 A2996 RMK AO2 LTG DSNT ALQDS FRQ LTGICCG VC NW-N TS VC NW-N MOV SE SHRA VC NW-N TCU OHD-E-SE-S T03280222=
201707241852 METAR KATL 241852Z 23006KT 10SM BKN050TCU BKN100 BKN250 33/21 A2997 RMK AO2 LTG DSNT N AND S AND NW SLP136 CB DSNT ALQDS TCU OHD-N-NE & DSNT SE-SW-NW T03280211=
201707241752 METAR KATL 241752Z 24006KT 10SM FEW040CB SCT100 SCT250 31/22 A2998 RMK AO2 LTG DSNT NW-E SLP140 CB VC E MOV E CB DSNT NE-SE & SW-NW SHRA VC E T03110222 10322 20239 58005=
201707241725 SPECI KATL 241725Z 26006KT 10SM FEW040CB SCT050TCU SCT250 32/22 A2999 RMK AO2 LTG DSNT NE AND E AND W CB VC E & S MOV E CB DSNT N-NE-E & DSNT SW-NW SHRA VC E & S TCU NE-SE T03170217=
201707241652 METAR KATL 241652Z 24007KT 10SM BKN030TCU BKN250 31/23 A3000 RMK AO2 LTG DSNT E SLP148 CB DSNT NE-E TCU ALQDS T03110228=
201707241552 METAR KATL 241552Z 33004KT 10SM SCT025 SCT250 30/23 A3000 RMK AO2 SLP148 MDT CU NE-SE & SW-NW T03000233=
201707241452 METAR KATL 241452Z 28007KT 260V320 10SM FEW020 FEW150 SCT250 29/23 A3000 RMK AO2 SLP145 T02940233 53004=
201707241352 METAR KATL 241352Z VRB05KT 10SM FEW015 FEW150 SCT250 28/23 A2998 RMK AO2 SLP140 T02780233=
201707241252 METAR KATL 241252Z 24006KT 10SM FEW120 FEW200 SCT250 26/23 A2998 RMK AO2 SLP139 T02560228=
201707241152 METAR KATL 241152Z 27005KT 10SM FEW005 FEW030 SCT200 BKN250 24/23 A2998 RMK AO2 SLP142 CB DSNT NE 60000 T02390228 10261 20239 51018=
201707241120 SPECI KATL 241120Z 28007KT 8SM FEW007 BKN030TCU BKN055 BKN150 BKN220 24/23 A2998 RMK AO2 CB DSNT NE TCU OHD-W-N-NE T02390228=
201707241052 METAR KATL 241052Z 31008KT 10SM SCT032TCU SCT080 SCT150 BKN200 24/22 A2998 RMK AO2 SLP139 TCU NW-OHD-NE T02440222=
201707240952 METAR KATL 240952Z 25005KT 10SM SCT033 24/23 A2995 RMK AO2 RAE0859 SLP130 P0000 T02440228=
201707240852 METAR KATL 240852Z 25006KT 10SM -RA SCT035 SCT080 SCT110 SCT200 25/23 A2993 RMK AO2 RAB48 SLP123 P0000 60000 T02500228 58002=
201707240752 METAR KATL 240752Z 23006KT 10SM FEW037 SCT110 BKN200 BKN250 24/23 A2994 RMK AO2 SLP126 T02440228=
201707240652 METAR KATL 240652Z 18005KT 10SM BKN037 OVC120 26/23 A2995 RMK AO2 SLP130 T02560233=
201707240552 METAR KATL 240552Z 14003KT 10SM FEW080 FEW120 SCT200 SCT250 26/23 A2994 RMK AO2 SLP125 T02610233 10294 20261 56008=
201707240452 METAR KATL 240452Z 23003KT 10SM FEW080 FEW110 SCT200 BKN250 26/23 A2994 RMK AO2 SLP125 T02610233 403330239=
201707240352 METAR KATL 240352Z 21003KT 10SM FEW044 FEW080 SCT110 BKN200 27/23 A2996 RMK AO2 SLP131 CONS LTGICCGCA DSNT E-SE CB DSNT E-SE T02670233=
201707240252 METAR KATL 240252Z 00000KT 10SM FEW042 SCT080 BKN120 BKN200 27/23 A2996 RMK AO2 SLP133 T02720233 53019=
201707240152 METAR KATL 240152Z 29005KT 10SM FEW042 SCT120 BKN200 BKN250 28/23 A2992 RMK AO2 SLP120 T02780233=
201707240052 METAR KATL 240052Z 22007KT 10SM FEW040 SCT120 BKN200 BKN250 28/22 A2990 RMK AO2 SLP112 VIRGA SW ACC SW T02830222=
201707232352 METAR KATL 232352Z 27007KT 10SM FEW038 SCT120 BKN200 BKN250 29/23 A2990 RMK AO2 LTG DSNT ALQDS SLP115 CB DSNT ALQDS ACC SW-W 60000 T02940228 10333 20294 53001=
201707232252 METAR KATL 232252Z 25012KT 10SM FEW040TCU FEW050 SCT110 BKN200 31/23 A2990 RMK AO2 LTG DSNT NW-NE SLP112 CB DSNT ALQDS TCU NE & SE T03110228=
201707232152 METAR KATL 232152Z 25009KT 10SM FEW040TCU FEW050 FEW110 BKN200 32/22 A2989 RMK AO2 LTG DSNT NW-E RAB01E15 TSE34 SLP109 TS MOV E CB DSNT N & NE-E & NW TCU NE & E P0000 T03220222=
201707232135 SPECI KATL 232135Z 28009G15KT 10SM FEW038TCU FEW048 SCT100 BKN200 32/23 A2989 RMK AO2 LTG DSNT NE AND E RAB01E15 TSE34 TS MOV E CB DSNT NE-SE & W TCU N & NE & SE & NW P0000 T03220228=
201707232052 METAR KATL 232052Z 24008KT 10SM TS SCT040CB SCT050TCU BKN100 BKN200 32/23 A2990 RMK AO2 TSB52 SLP113 OCNL LTGICCGCA NE TS NE MOV STNRY TCU ALQDS T03170233 56015=
201707231952 METAR KATL 231952Z 20007KT 10SM SCT047 32/22 A2991 RMK AO2 SLP116 MDT CU ALQDS T03220217=
201707231852 METAR KATL 231852Z VRB06KT 10SM SCT045 32/21 A2994 RMK AO2 SLP125 MDT CU ALQDS T03220211=
201707231752 METAR KATL 231752Z 22005KT 10SM SCT038TCU SCT250 32/22 A2995 RMK AO2 SLP128 TCU ALQDS T03170217 10322 20250 58017=
201707231652 METAR KATL 231652Z 33007KT 10SM SCT033TCU BKN075 31/23 A2997 RMK AO2 SLP137 TCU ALQDS CB DSNT NW T03110228=
201707231552 METAR KATL 231552Z 30005KT 10SM SCT028 31/23 A2999 RMK AO2 SLP144 T03110233=
201707231452 METAR KATL 231452Z 31010KT 10SM FEW024 BKN055 30/23 A3000 RMK AO2 SLP146 T03000233 51000=
201707231352 METAR KATL 231352Z 28006KT 10SM CLR 28/23 A2999 RMK AO2 SLP146 T02830233=
201707231252 METAR KATL 231252Z 27007KT 10SM FEW250 27/23 A3000 RMK AO2 SLP147 T02670233=
201707231152 METAR KATL 231152Z 26004KT 10SM CLR 24/23 A3000 RMK AO2 SLP146 T02440228 10244 20239 53012=
201707231052 METAR KATL 231052Z 25005KT 10SM FEW035 FEW250 24/23 A2998 RMK AO2 SLP141 T02390228=
201707230952 METAR KATL 230952Z 23004KT 10SM FEW035 24/23 A2996 RMK AO2 SLP136 T02390228=
201707230852 METAR KATL 230852Z 28005KT 10SM FEW200 24/23 A2996 RMK AO2 SLP135 T02390228 55007=
201707230752 METAR KATL 230752Z 21008KT 10SM FEW200 24/23 A2996 RMK AO2 SLP133 T02440233=
201707230652 METAR KATL 230652Z 27006KT 10SM CLR 24/23 A2997 RMK AO2 SLP135 T02440233=
201707230552 METAR KATL 230552Z 28004KT 10SM FEW200 24/24 A2998 RMK AO2 SLP140 T02440239 10272 20244 58004=
201707230452 METAR KATL 230452Z 25003KT 10SM FEW200 25/23 A2999 RMK AO2 SLP143 T02500233 403390233=
201707230352 METAR KATL 230352Z 25004KT 10SM SCT180 SCT250 26/23 A2999 RMK AO2 SLP144 T02560233=
201707230252 METAR KATL 230252Z 23004KT 10SM FEW180 SCT250 26/23 A2999 RMK AO2 SLP145 T02560233 50006=
201707230152 METAR KATL 230152Z 23005KT 10SM FEW120 SCT200 BKN250 26/23 A3000 RMK AO2 SLP147 T02610228=
201707230052 METAR KATL 230052Z 00000KT 10SM FEW120 SCT200 BKN250 27/22 A2999 RMK AO2 SLP145 T02670222=
201707222352 METAR KATL 222352Z 23003KT 10SM FEW110 BKN200 BKN250 27/22 A2997 RMK AO2 SLP140 CB DSNT NE 60000 T02720222 10339 20244 56003=
201707222252 METAR KATL 222252Z 22003KT 10SM FEW110 SCT200 BKN250 28/23 A2998 RMK AO2 LTG DSNT S SLP141 CB DSNT S TCU DSNT E T02780228=
201707222152 METAR KATL 222152Z 28005KT 10SM FEW040 FEW110 BKN200 BKN250 27/23 A2998 RMK AO2 LTG DSNT E AND SE SLP141 CB DSNT NE & E-S-SW T02670233=
201707222052 METAR KATL 222052Z 21007KT 10SM FEW042 SCT100 BKN250 27/23 A2998 RMK AO2 WSHFT 1939 LTG DSNT NE AND SW RAB1954E26 TSE33 SLP142 CB DSNT S-SW AND NE TCU DSNT SE P0000 60000 T02670228 56012=
201707222039 SPECI KATL 222039Z 30008KT 10SM VCTS SCT042CB BKN100 BKN250 26/22 A2998 RMK AO2 WSHFT 1939 LTG DSNT SW RAB1954E26 TSE33 OCNL LTGCG VC S-SW TS VC S-SW MOV S P0000 T02610222=
201707221959 SPECI KATL 221959Z 33015G25KT 10SM -TSRA BKN042CB 26/22 A2999 RMK AO2 WSHFT 1939 LTG DSNT SE AND W AND NW RAB54 FQT LTGICCG NW-N TS NW-N MOV SE VSBY LWR N P0000 T02560217=
201707221952 METAR KATL 221952Z 33021G25KT 10SM TS BKN042CB 28/21 A3000 RMK AO2 WSHFT 1936 LTG DSNT NE AND SE AND NW TSB38 SLP147 FQT LTGICCG NW-N TS NW-N MOV SE VSBY LWR N T02780206=
201707221943 SPECI KATL 221943Z 33020G23KT 10SM TS BKN040CB BKN080 30/21 A2999 RMK AO2 LTG DSNT NE AND NW TSB38 OCNL LTGICCG NW TS NW MOV SE T03000206=
201707221909 SPECI KATL 221909Z 24006KT 10SM VCTS SCT042CB SCT080 33/23 A2999 RMK AO2 LTG DSNT W-NE OCNL LTGCG VC NW-NE TS VC NW-NE STNRY T03280228=
201707221852 METAR KATL 221852Z 24008KT 10SM SCT040 BKN100 32/23 A2999 RMK AO2 LTG DSNT NW-NE SLP145 CB DSNT NW-NE T03220228=
201707221752 METAR KATL 221752Z 26004KT 10SM SCT036 BKN048 32/23 A3002 RMK AO2 LTG DSNT W-N SLP152 CB DSNT W AND N T03170233 10317 20239 58015=
201707221652 METAR KATL 221652Z VRB04KT 8SM SCT030 SCT048 31/24 A3005 RMK AO2 SLP162 T03060239=
201707221552 METAR KATL 221552Z 20006KT 8SM FEW026 30/24 A3005 RMK AO2 SLP165 T03000239=
201707221452 METAR KATL 221452Z 22004KT 8SM CLR 28/23 A3006 RMK AO2 SLP168 T02830233 50007=
201707221352 METAR KATL 221352Z VRB03KT 8SM FEW150 27/23 A3007 RMK AO2 SLP169 T02720233=
201707221252 METAR KATL 221252Z 24004KT 8SM FEW009 25/23 A3006 RMK AO2 SLP168 T02500228=
201707221152 METAR KATL 221152Z 25005KT 9SM FEW120 24/22 A3004 RMK AO2 SLP161 T02390222 10256 20233 53015=
201707221052 METAR KATL 221052Z 29004KT 10SM FEW120 FEW250 23/22 A3002 RMK AO2 SLP155 T02330217=
201707220952 METAR KATL 220952Z 23004KT 10SM CLR 23/22 A3000 RMK AO2 SLP147 T02330217=
201707220852 METAR KATL 220852Z 28006KT 10SM CLR 24/22 A3000 RMK AO2 SLP145 T02390217 55005=
201707220752 METAR KATL 220752Z 21004KT 10SM CLR 24/22 A2999 RMK AO2 SLP143 T02390217=
201707220652 METAR KATL 220652Z 24003KT 10SM CLR 25/22 A3000 RMK AO2 SLP145 T02500217=
201707220552 METAR KATL 220552Z 25005KT 10SM FEW060 FEW250 26/22 A3001 RMK AO2 SLP149 T02560217 10322 20256 58011=
201707220452 METAR KATL 220452Z 23006KT 10SM FEW250 26/22 A3004 RMK AO2 SLP158 T02610217 403440244=
201707220352 METAR KATL 220352Z 20010KT 10SM FEW060 SCT250 27/22 A3004 RMK AO2 SLP160 T02670222=
201707220252 METAR KATL 220252Z 18015KT 10SM FEW060 BKN250 28/23 A3004 RMK AO2 SLP161 T02780228 51014=
201707220152 METAR KATL 220152Z 00000KT 10SM SCT060 BKN250 31/22 A3003 RMK AO2 SLP156 LTG DSNT SE-S T03110217=
201707220052 METAR KATL 220052Z 31006KT 10SM FEW055TCU FEW150 SCT250 31/22 A3002 RMK AO2 SLP153 TCU VC W & DSNT NW T03110217=
201707212352 METAR KATL 212352Z 24004KT 10SM FEW055TCU SCT250 32/22 A3000 RMK AO2 SLP147 TCU OHD T03220217 10344 20322 53002=
201707212252 METAR KATL 212252Z 22004KT 10SM FEW055 SCT250 32/22 A2999 RMK AO2 SLP142 TCU DSNT NW T03220222=
201707212152 METAR KATL 212152Z 22003KT 10SM SCT050TCU SCT250 33/21 A3000 RMK AO2 SLP145 TCU S-SW & OHD-W T03280211=
201707212052 METAR KATL 212052Z 30003KT 10SM SCT055 BKN080 33/21 A3000 RMK AO2 SLP145 MDT CU S-W T03280211 56020=
201707211952 METAR KATL 211952Z 29006KT 10SM SCT050TCU BKN085 33/22 A3001 RMK AO2 SLP149 TCU W T03280217=
201707211852 METAR KATL 211852Z 00000KT 10SM SCT050 BKN080 33/21 A3003 RMK AO2 SLP157 MDT CU S-W-N T03280211=
201707211752 METAR KATL 211752Z VRB04KT 10SM SCT050 33/22 A3005 RMK AO2 SLP164 MDT CU SE-SW-NW T03280217 10333 20250 58008=
201707211652 METAR KATL 211652Z 20003KT 10SM FEW047 SCT250 32/22 A3007 RMK AO2 SLP171 MDT CU E-SE-S T03220222=
201707211552 METAR KATL 211552Z 23005KT 10SM SCT037TCU SCT250 32/22 A3008 RMK AO2 SLP172 TCU E & NW T03170222=
201707211452 METAR KATL 211452Z 21003KT 10SM FEW030 SCT150 SCT250 30/23 A3008 RMK AO2 SLP173 T03000228 50004=
201707211352 METAR KATL 211352Z 29004KT 9SM FEW250 29/23 A3008 RMK AO2 SLP175 T02890228=
201707211252 METAR KATL 211252Z 33006KT 9SM FEW250 27/23 A3008 RMK AO2 SLP174 T02670233=
201707211152 METAR KATL 211152Z 33006KT 9SM FEW250 26/23 A3006 RMK AO2 SLP169 T02560233 10261 20244 53013=
201707211052 METAR KATL 211052Z 34004KT 10SM FEW050 SCT250 25/23 A3004 RMK AO2 SLP160 T02500228=
201707210952 METAR KATL 210952Z 33005KT 10SM FEW045 FEW250 25/23 A3003 RMK AO2 SLP156 T02500228=
201707210852 METAR KATL 210852Z 33004KT 10SM FEW250 25/23 A3002 RMK AO2 SLP154 T02500228 56007=
201707210752 METAR KATL 210752Z 31005KT 10SM FEW250 25/23 A3003 RMK AO2 SLP154 T02500233=
201707210652 METAR KATL 210652Z 32006KT 10SM FEW250 26/23 A3003 RMK AO2 SLP156 T02560233=
201707210552 METAR KATL 210552Z 31005KT 10SM FEW100 FEW250 26/23 A3005 RMK AO2 SLP161 T02610233 10317 20261 58002=
201707210452 METAR KATL 210452Z 31007KT 10SM FEW250 27/23 A3006 RMK AO2 SLP167 T02670233 403390228=
201707210352 METAR KATL 210352Z 31007KT 10SM FEW250 27/23 A3006 RMK AO2 SLP167 T02720233=
201707210252 METAR KATL 210252Z 28005KT 10SM FEW250 27/22 A3005 RMK AO2 SLP164 T02720217 53005=
201707210152 METAR KATL 210152Z 33007KT 10SM FEW100 29/21 A3004 RMK AO2 SLP159 T02940206=
201707210052 METAR KATL 210052Z 32008KT 10SM FEW050 FEW100 30/21 A3004 RMK AO2 SLP159 T03000211=
201707202352 METAR KATL 202352Z 32007KT 10SM FEW050 FEW100 SCT250 31/21 A3003 RMK AO2 SLP158 CB DSNT SE T03110206 10339 20311 55003=
201707202252 METAR KATL 202252Z 33008KT 10SM FEW050 SCT100 SCT250 32/20 A3003 RMK AO2 SLP158 CB DSNT S TCU DSNT E-SE T03220200=
201707202152 METAR KATL 202152Z 35012G18KT 10SM FEW050TCU SCT100 SCT250 33/21 A3003 RMK AO2 SLP156 CB DSNT SW TCU VC SE VCSH SE T03330211=
201707202052 METAR KATL 202052Z 34009KT 310V030 10SM FEW050 SCT100 34/21 A3004 RMK AO2 SLP161 MDT CU NE-SE & DSNT NW T03390211 58025=
201707201952 METAR KATL 201952Z 33010G17KT 10SM FEW050TCU SCT250 34/20 A3007 RMK AO2 SLP170 TCU N & SE & W T03390200=
201707201852 METAR KATL 201852Z 36011G19KT 10SM SCT055TCU SCT250 33/20 A3010 RMK AO2 SLP178 TCU NE & SE T03330200=
201707201752 METAR KATL 201752Z 33008KT 10SM FEW050 SCT100 SCT250 33/21 A3012 RMK AO2 SLP187 MDT CU NE-SE T03280206 10328 20244 58007=
201707201652 METAR KATL 201652Z 34012G18KT 10SM FEW045 SCT250 32/20 A3014 RMK AO2 SLP192 T03220200=
201707201552 METAR KATL 201552Z 31008KT 10SM FEW040 SCT250 31/21 A3014 RMK AO2 SLP193 T03110206=
201707201452 METAR KATL 201452Z 32008KT 10SM SCT250 31/21 A3014 RMK AO2 SLP193 T03060211 53006=
201707201352 METAR KATL 201352Z 31006KT 10SM SCT250 29/22 A3013 RMK AO2 SLP190 T02890217=
201707201252 METAR KATL 201252Z 32007KT 10SM FEW250 27/22 A3013 RMK AO2 SLP190 T02670217=
201707201152 METAR KATL 201152Z 32006KT 10SM FEW250 24/22 A3012 RMK AO2 SLP188 T02440217 10256 20228 53007=
201707201052 METAR KATL 201052Z 29006KT 10SM FEW250 23/21 A3011 RMK AO2 SLP184 T02330211=
201707200952 METAR KATL 200952Z 28006KT 10SM CLR 24/21 A3010 RMK AO2 SLP181 T02390211=
201707200852 METAR KATL 200852Z 30005KT 10SM FEW060 24/21 A3010 RMK AO2 SLP180 T02390211 56005 $=
201707200752 METAR KATL 200752Z 29004KT 10SM FEW060 25/21 A3010 RMK AO2 SLP179 T02500211 $=
201707200652 METAR KATL 200652Z 26003KT 10SM FEW060 SCT110 25/22 A3010 RMK AO2 SLP181 T02500217 $=
201707200552 METAR KATL 200552Z 22004KT 10SM FEW100 25/22 A3011 RMK AO2 SLP186 T02500217 10317 20250 50000 $=
201707200452 METAR KATL 200452Z 18006KT 10SM FEW100 26/21 A3012 RMK AO2 SLP188 T02610211 403390233 $=
201707200352 METAR KATL 200352Z 27003KT 10SM FEW100 27/21 A3012 RMK AO2 SLP187 T02720206 $=
201707200252 METAR KATL 200252Z 35005KT 10SM FEW100 30/18 A3011 RMK AO2 SLP185 T03000183 53008 $=
201707200152 METAR KATL 200152Z 35005KT 10SM FEW055 FEW250 31/18 A3010 RMK AO2 SLP181 T03060183 $=
201707200052 METAR KATL 200052Z 33006KT 10SM FEW055 SCT250 30/20 A3009 RMK AO2 SLP179 T03000200 $=
201707192352 METAR KATL 192352Z 32007KT 10SM FEW055 FEW250 32/19 A3009 RMK AO2 SLP177 CB DSNT SE T03170194 10339 20317 55000 $=
201707192252 METAR KATL 192252Z 32008KT 10SM FEW055 32/19 A3008 RMK AO2 SLP173 TCU DSNT SE-S T03220194=
201707192152 METAR KATL 192152Z 31008KT 10SM FEW055 33/19 A3008 RMK AO2 SLP173 T03280189=
201707192052 METAR KATL 192052Z 32009G16KT 10SM FEW060 SCT110 33/19 A3009 RMK AO2 SLP177 TCU DSNT NE & SE & SW & NW T03330194 56017=
201707191952 METAR KATL 191952Z 31008KT 10SM FEW055TCU SCT100 33/21 A3010 RMK AO2 SLP182 TCU NE-E & DSNT S T03330206=
201707191852 METAR KATL 191852Z 35007KT 10SM SCT050TCU 33/20 A3013 RMK AO2 SLP189 TCU N-NE-E & SE-S T03330200=
201707191752 METAR KATL 191752Z 35004KT 10SM SCT045TCU 33/21 A3014 RMK AO2 SLP194 TCU NE-SE T03280211 10328 20244 58011=
201707191652 METAR KATL 191652Z 32008KT 10SM BKN040TCU 31/22 A3017 RMK AO2 SLP203 TCU OHD-NE-E-SE-S MDT CU SW-NW T03060217=
201707191552 METAR KATL 191552Z 31010KT 10SM BKN037TCU 31/22 A3018 RMK AO2 SLP207 TCU ALQDS T03110217=
201707191452 METAR KATL 191452Z 31007KT 10SM FEW030 FEW250 30/23 A3018 RMK AO2 SLP207 T03000228 53005=
201707191352 METAR KATL 191352Z 27003KT 10SM CLR 28/22 A3017 RMK AO2 SLP204 T02830222=
201707191252 METAR KATL 191252Z 29005KT 10SM CLR 26/22 A3017 RMK AO2 SLP203 T02610222=
201707191152 METAR KATL 191152Z 31006KT 10SM CLR 24/22 A3016 RMK AO2 SLP202 70003 T02440222 10267 20233 53013=
201707191052 METAR KATL 191052Z 28004KT 10SM FEW040 23/22 A3014 RMK AO2 SLP199 T02330222=
201707190952 METAR KATL 190952Z 00000KT 10SM CLR 24/22 A3013 RMK AO2 SLP192 T02390222=
201707190852 METAR KATL 190852Z 32003KT 10SM CLR 24/22 A3012 RMK AO2 SLP189 T02390222 55000=
201707190752 METAR KATL 190752Z 00000KT 10SM FEW035 24/22 A3012 RMK AO2 SLP186 T02390222=
201707190652 METAR KATL 190652Z 00000KT 10SM FEW035 25/23 A3013 RMK AO2 SLP190 T02500228=
201707190552 METAR KATL 190552Z 00000KT 10SM FEW035 26/23 A3012 RMK AO2 SLP189 T02610228 10289 20250 58002=
201707190452 METAR KATL 190452Z 00000KT 10SM FEW035 FEW150 26/23 A3014 RMK AO2 SLP193 T02610228 403280211=
201707190352 METAR KATL 190352Z 28003KT 10SM FEW040 SCT150 26/22 A3014 RMK AO2 SLP193 T02610222=
201707190252 METAR KATL 190252Z 32005KT 10SM FEW045 BKN130 BKN250 27/23 A3013 RMK AO2 SLP192 T02670228 53012=
201707190152 METAR KATL 190152Z 23003KT 10SM FEW045 BKN130 BKN250 27/22 A3011 RMK AO2 SLP185 CB DSNT N-NE T02720222=
201707190052 METAR KATL 190052Z 31005KT 10SM FEW045 SCT110 SCT250 29/20 A3010 RMK AO2 SLP182 LTG DSNT NW T02890200=
201707182352 METAR KATL 182352Z 00000KT 10SM FEW045TCU FEW100 SCT250 28/21 A3009 RMK AO2 SLP180 TCU VC NW & DSNT NE 60003 T02830211 10328 20250 53001=
201707182252 METAR KATL 182252Z 26010KT 10SM SCT045CB BKN100 BKN200 25/21 A3008 RMK AO2 RAB09E47 SLP177 CB SW-W MOV SW TCU NW-N P0003 T02500206=
201707182152 METAR KATL 182152Z 13005KT 10SM SCT050TCU SCT100 31/19 A3008 RMK AO2 SLP174 TCU OHD-NW & VC N-NE T03060194=
201707182052 SPECI KATL 182052Z VRB03KT 10SM SCT050TCU SCT100 31/19 A3009 RMK AO2 SLP178 TCU SW-NW MDT CU NE & SE T03110189 56010=
201707182052 METAR KATL 182052Z VRB03KT 10SM SCT050TCU SCT100 31/19 A3009 RMK AO2 SLP178 TCU SW-NW MDT CU NE & SE T03110189 56010=
201707181952 METAR KATL 181952Z VRB03KT 10SM SCT050TCU 31/20 A3009 RMK AO2 SLP178 TCU W-NW MDT CU NE & SE-SW T03110200=
201707181852 METAR KATL 181852Z 17005KT 10SM SCT048 31/20 A3010 RMK AO2 SLP182 MDT CU NE-SE & SW-NW T03110200=
201707181752 METAR KATL 181752Z 12006KT 10SM SCT040 31/21 A3012 RMK AO2 SLP188 MDT CU ALQDS T03060206 10311 20228 58006=
201707181652 METAR KATL 181652Z 06005KT 10SM SCT038 29/21 A3013 RMK AO2 SLP191 MDT CU ALQDS T02940211=
201707181552 METAR KATL 181552Z 04006KT 10SM SCT032 29/21 A3013 RMK AO2 SLP193 T02890211=
201707181452 METAR KATL 181452Z VRB03KT 10SM FEW030 28/21 A3014 RMK AO2 SLP195 T02780206 50001=
201707181352 METAR KATL 181352Z 34005KT 10SM FEW020 26/21 A3015 RMK AO2 SLP198 T02610211=
201707181252 METAR KATL 181252Z 26005KT 10SM FEW009 24/21 A3014 RMK AO2 SLP198 T02390211=
201707181152 METAR KATL 181152Z 29006KT 10SM FEW005 FEW015 FEW120 23/21 A3013 RMK AO2 SLP193 70001 T02280211 10228 20211 53017=
201707181052 METAR KATL 181052Z 00000KT 10SM FEW015 FEW120 22/21 A3011 RMK AO2 SLP186 T02170206=
201707180905 SPECI KATL 180905Z 00000KT 10SM FEW005 FEW035 SCT250 21/20 A3008 RMK AO2 T02110200=
201707180852 METAR KATL 180852Z 00000KT 10SM FEW035 SCT250 21/20 A3008 RMK AO2 SLP176 T02110200 53007=
201707180752 METAR KATL 180752Z 00000KT 10SM SCT035 SCT250 22/20 A3006 RMK AO2 SLP169 T02170200=
201707180652 METAR KATL 180652Z 06004KT 10SM FEW250 22/20 A3006 RMK AO2 SLP169 T02220200=
201707180552 METAR KATL 180552Z 00000KT 10SM FEW250 23/20 A3006 RMK AO2 SLP168 60000 T02280200 10289 20222 55003=
201707180452 METAR KATL 180452Z 01004KT 10SM FEW100 SCT250 23/19 A3006 RMK AO2 SLP167 T02280194 403110200=
201707180352 METAR KATL 180352Z 00000KT 10SM FEW150 BKN250 23/19 A3006 RMK AO2 SLP169 T02280189=
201707180252 METAR KATL 180252Z 05005KT 10SM FEW030 SCT150 BKN200 BKN250 23/19 A3007 RMK AO2 SLP172 60000 T02330189 53016=
201707180152 METAR KATL 180152Z 35005KT 10SM FEW090 BKN150 BKN200 23/19 A3005 RMK AO2 SLP166 RAE0057TSE07 P0000 T02330189=
201707180108 SPECI KATL 180108Z VRB03KT 10SM FEW030 SCT060 BKN100 BKN200 23/18 A3002 RMK AO2 LTG DSNT SW-NW RAE0057TSE07 TS MOV SW P0000 T02280183=
201707180052 METAR KATL 180052Z 27008KT 10SM VCTS -RA FEW030CB SCT060 BKN100 BKN200 23/18 A3001 RMK AO2 PK WND 03039/0008 WSHFT 0005 SLP153 OCNL LTGICCG VC W-NW RAB15 TS VC W-NW MOV SW P0000 T02330183=
201707180025 SPECI KATL 180025Z 02020G28KT 10SM -TSRA SCT030CB BKN050 BKN100 BKN200 23/18 A3005 RMK AO2 PK WND 03039/0008 WSHFT 0005 RAB15 FRQ LTGICCG NW-NE TS NW-NE MOV S P0000 T02330183=
201707180013 SPECI KATL 180013Z 04026G39KT 10SM TS SCT035CB BKN050 BKN200 BKN250 25/18 A3006 RMK AO2 PK WND 03039/0008 FRQ LTGICCG NW-NE TS NW-NE MOV S T02500183=
201707172352 METAR KATL 172352Z 15004KT 10SM TS FEW035CB SCT150 BKN200 BKN250 29/22 A3002 RMK AO2 SLP156 FRQ LTGICCG NW-NE TS NW-NE MOV S TSB43 60001 T02890222 10311 20278 53008=
201707172343 SPECI KATL 172343Z 20004KT 10SM VCTS FEW035CB SCT150 BKN200 BKN250 28/22 A3003 RMK AO2 OCNL LTGICCG VC N-NE & DSNT NW TS VC N-NE & DSNT NW MOV SE TSB43 T02830222=
201707172252 METAR KATL 172252Z AUTO 00000KT 10SM SCT035TCU BKN050 BKN200 BKN250 28/22 A3001 RMK AO2 RAE14 SLP152 LTG DSNT N-NE CB DSNT N-NE TCU E-OHD-W P0001 T02830222=
201707172152 METAR KATL 172152Z 19005KT 10SM -RA SCT035TCU BKN200 BKN250 28/23 A3000 RMK AO2 RAB52 SLP150 TCU N-OHD-SE P0000 T02830228=
201707172115 SPECI KATL 172115Z 21005KT 10SM SCT040TCU BKN200 BKN250 28/22 A2999 RMK AO2 TS DSIPTD CB DSNT SW TCU S & OHD-W T02830222=
201707172052 METAR KATL 172052Z 20004KT 10SM VCTS FEW040CB SCT050TCU BKN250 29/22 A3000 RMK AO2 LTG DSNT S SLP148 OCNL LTGICCG VC S TS VC S MOV N SHRA VC S TCU N-NE T02940217 56013=
201707172047 SPECI KATL 172047Z 22003KT 10SM VCTS FEW040CB SCT050TCU BKN250 29/22 A3000 RMK AO2 LTG DSNT S OCNL LTGICCG VC S TS VC S MOV N SHRA VC S TCU N-NE=
201707171952 METAR KATL 171952Z 34008KT 10SM SCT040TCU SCT250 31/22 A3000 RMK AO2 SLP147 CB DSNT SW-NW-N TCU NE-SE-S T03060222=
201707171852 METAR KATL 171852Z 27005KT 10SM SCT037TCU SCT250 31/22 A3002 RMK AO2 SLP154 CB DSNT W TCU NE-SE T03060222=
201707171752 METAR KATL 171752Z 00000KT 10SM BKN026 BKN250 29/23 A3004 RMK AO2 SLP160 MDT CU NE-SE T02940228 10294 20217 58004=
201707171652 METAR KATL 171652Z 31005KT 10SM SCT030 SCT250 29/22 A3005 RMK AO2 SLP163 T02890222=
201707171552 METAR KATL 171552Z VRB05KT 10SM FEW020 FEW150 SCT250 27/22 A3005 RMK AO2 SLP164 T02720217=
201707171452 METAR KATL 171452Z 00000KT 10SM FEW020 FEW120 SCT250 27/21 A3005 RMK AO2 SLP165 T02670211 50005=
201707171352 METAR KATL 171352Z 00000KT 10SM FEW025 FEW120 SCT250 26/19 A3005 RMK AO2 SLP166 T02560194=
201707171252 METAR KATL 171252Z VRB04KT 10SM FEW009 SCT120 BKN200 BKN250 24/20 A3005 RMK AO2 SLP167 VIRGA SW ACC DSNT SE T02390200=
201707171152 METAR KATL 171152Z 01006KT 10SM FEW007 SCT120 BKN180 BKN250 22/19 A3003 RMK AO2 SLP161 VIRGA OHD-SW 60037 70074 T02170194 10233 20200 53016=
201707171052 METAR KATL 171052Z 32007KT 10SM FEW005 SCT150 BKN220 20/19 A3002 RMK AO2 RAB0954E05 SLP156 P0000 T02000194=
201707170952 METAR KATL 170952Z 00000KT 10SM FEW005 SCT080 BKN110 BKN150 21/19 A2999 RMK AO2 LTG DSNT W RAE45 SLP145 CB DSNT W P0004 T02060189=
201707170947 SPECI KATL 170947Z 35003KT 10SM FEW005 SCT080 BKN110 BKN150 21/19 A2999 RMK AO2 LTG DSNT W RAE45 CB DSNT W P0004=
201707170852 METAR KATL 170852Z 22010KT 8SM -RA FEW015 BKN075 OVC100 20/19 A2999 RMK AO2 RAB01 TSE11B35E52 SLP146 TS DSIPT CB DSNT S-SW P0033 60033 T02000189 58008 $=
201707170835 SPECI KATL 170835Z 25007KT 7SM TSRA FEW018CB BKN041 OVC065 20/19 A2999 RMK AO2 LTG DSNT NW RAB01 TSE11B35 PRESFR OCNL LTGIC S-W-NW TS S-W-NW MOV SW P0029 T02000189 $=
201707170822 SPECI KATL 170822Z 25003KT 4SM +RA BR FEW007 SCT023CB OVC036 20/19 A3000 RMK AO2 RAB01 TSE11 PRESFR VIS SW 2 TS DSIPT CB SW-W MOV S P0018 T02000189 $=
201707170811 SPECI KATL 170811Z 04010KT 1 1/2SM +RA FEW007 FEW018CB OVC036 22/19 A3002 RMK AO2 RAB01 TSE11 TS DSIPT CB OHD MOV S P0000 T02170189 $=
201707170802 SPECI KATL 170802Z 04011KT 7SM -TSRA FEW007 SCT018CB OVC036 22/19 A3003 RMK AO2 LTG DSNT N RAB01 OCNL LTGIC N TS N MOV S P0000 T02220189 $=
201707170752 METAR KATL 170752Z 02017G22KT 10SM TS BKN007 OVC018CB 23/20 A3002 RMK AO2 LTG DSNT N AND NE TSB35 SLP156 OCNL LTGIC OHD-N-NE TS OHD-N-NE MOV S T02280200=
201707170735 SPECI KATL 170735Z 21003KT 10SM TS OVC007CB 23/22 A3001 RMK AO2 LTG DSNT NE TSB35 OCNL LTGIC NE TS VC NE MOV S T02280217=
201707170652 METAR KATL 170652Z 21006KT 10SM OVC007 23/22 A3000 RMK AO2 LTG DSNT N AND NE SLP150 T02280217=
201707170552 METAR KATL 170552Z 22005KT 10SM BKN008 OVC017 23/22 A3001 RMK AO2 SLP153 CIG 007V010 T02330217 10272 20233 51006=
201707170452 METAR KATL 170452Z 20007KT 10SM BKN008 23/22 A3001 RMK AO2 SLP152 T02330222 402890222=
201707170435 SPECI KATL 170435Z 20006KT 10SM BKN008 23/22 A3000 RMK AO2 T02330222=
201707170425 SPECI KATL 170425Z 20007KT 10SM SCT009 SCT250 23/22 A3000 RMK AO2 T02330222=
201707170402 SPECI KATL 170402Z 19005KT 10SM BKN009 BKN020 BKN250 23/22 A3001 RMK AO2 T02330222=
201707170357 SPECI KATL 170357Z 18005KT 10SM SCT009 BKN020 BKN250 23/22 A3001 RMK AO2 T02330222=
201707170352 METAR KATL 170352Z 19005KT 10SM SCT020 BKN250 23/22 A3001 RMK AO2 SLP152 T02330222=
201707170252 METAR KATL 170252Z 18006KT 10SM FEW025 SCT140 SCT200 SCT250 24/22 A3000 RMK AO2 SLP148 TCU DSNT N & S T02440222 53009=
201707170152 METAR KATL 170152Z 20004KT 10SM FEW025 SCT140 SCT200 SCT250 26/22 A2998 RMK AO2 SLP143 TCU DSNT S & W-NW T02560217=
201707170052 METAR KATL 170052Z 00000KT 10SM FEW020 SCT030 BKN140 BKN200 BKN250 27/21 A2997 RMK AO2 SLP140 VIRGA E-S FU FEW020 TCU DSNT E-S & SW-NW T02670211=
201707162352 METAR KATL 162352Z 19005KT 10SM FEW015 SCT030 SCT150 SCT200 BKN250 27/22 A2997 RMK AO2 SLP138 FU FEW015 TCU DSNT ALQDS T02670217 10289 20261 53003=
201707162252 METAR KATL 162252Z 21007KT 10SM FEW015 SCT030 SCT150 BKN200 BKN250 27/21 A2996 RMK AO2 SLP134 FU FEW015 CB DSNT SW TCU DSNT N & SE-S & W T02720211=
201707162152 METAR KATL 162152Z 21006KT 10SM SCT030 SCT140 SCT200 SCT250 28/21 A2996 RMK AO2 SLP134 TCU DSNT N & E & W CB DSNT W T02780206=
201707162052 METAR KATL 162052Z 20005KT 10SM SCT033 SCT140 SCT250 28/21 A2996 RMK AO2 SLP134 TCU DSNT W-N T02780206 56020=
201707161952 METAR KATL 161952Z VRB04KT 10SM FEW032 SCT140 BKN200 28/21 A2998 RMK AO2 SLP140 MDT CU W-N T02780211=
201707161852 METAR KATL 161852Z 19005KT 10SM FEW025 BKN140 BKN250 26/21 A3000 RMK AO2 SLP148 TCU DSNT W-N T02610206=
201707161752 METAR KATL 161752Z 00000KT 10SM FEW025 SCT100 BKN200 27/22 A3002 RMK AO2 SLP155 MDT CU W-N 60037 T02670217 10267 20222 57015=
201707161652 METAR KATL 161652Z 00000KT 10SM FEW015 BKN150 BKN200 26/22 A3003 RMK AO2 RAE14 SLP160 P0000 T02560217=
201707161552 METAR KATL 161552Z 00000KT 10SM -RA FEW010 SCT032 BKN120 23/22 A3005 RMK AO2 RAB1454 SLP167 P0001 T02330217=
201707161452 METAR KATL 161452Z 28003KT 10SM FEW012 SCT070 OVC110 23/22 A3007 RMK AO2 RAE48 SLP172 P0005 60036 T02280217 50005=
201707161421 SPECI KATL 161421Z 28005KT 4SM -RA BR FEW025 BKN055 OVC110 23/22 A3007 RMK AO2 LTG DSNT E CB DSNT E P0005 T02280217=
201707161356 SPECI KATL 161356Z 28005KT 2SM -RA BR FEW020 SCT035 OVC050 23/22 A3008 RMK AO2 P0001 T02280217=
201707161352 METAR KATL 161352Z 28005KT 3SM R09R/5000VP6000FT -RA BR SCT020 BKN035 OVC050 23/22 A3007 RMK AO2 RAB06 SLP175 TSB10E25 TS DSPTD P0031 T02280217=
201707161343 SPECI KATL 161343Z 27007KT 3SM R09R/4000VP6000FT +RA BR FEW010 BKN055 OVC070 23/22 A3007 RMK AO2 RAB06 TSB10E25 TS DSPTD P0023 T02280217=
201707161338 SPECI KATL 161338Z 26010KT 2 1/2SM R09R/4000VP6000FT +RA BR FEW010 BKN055 OVC070 23/22 A3007 RMK AO2 TWR VIS 3 RAB06 TSB10E25 TS DSPTD P0007 T02280217=
201707161331 SPECI KATL 161331Z 27008KT 10SM -RA FEW010 SCT020 OVC050 23/21 A3007 RMK AO2 RAB06 TSB10E25 TS DSPTD VSBY LWR S-SW P0006 T02280211=
201707161316 SPECI KATL 161316Z 27010KT 10SM VCTS -RA FEW015CB SCT025 OVC050 23/21 A3007 RMK AO2 RAB06 TSB10 OCNL LTGCG VC S-SW TS VC S-SW MOV E P0001 T02280211=
201707161252 METAR KATL 161252Z 27005KT 10SM FEW007 SCT035 OVC050 23/21 A3007 RMK AO2 SLP171 CB DSNT S AND SW SHRA VC N-E AND S-SW T02330211=
201707161152 METAR KATL 161152Z 29004KT 10SM FEW007 BKN050 BKN075 23/21 A3005 RMK AO2 SLP166 SHRA DSNT SE AND S-SW T02330211 10244 20233 53010=
201707161052 METAR KATL 161052Z 33008KT 10SM FEW035 BKN100 BKN120 23/22 A3004 RMK AO2 SLP161 T02330217=
201707160952 METAR KATL 160952Z 30005KT 10SM FEW060 BKN130 BKN180 23/22 A3003 RMK AO2 SLP158 T02330217=
201707160852 METAR KATL 160852Z 27004KT 10SM SCT060 SCT080 BKN150 24/22 A3002 RMK AO2 SLP154 T02390217 56007=
201707160752 METAR KATL 160752Z 27003KT 10SM FEW060 SCT080 BKN150 24/22 A3002 RMK AO2 SLP153 T02390217=
201707160652 METAR KATL 160652Z 20004KT 10SM FEW060 SCT090 BKN150 23/22 A3002 RMK AO2 SLP155 T02330217=
201707160552 METAR KATL 160552Z 31003KT 10SM SCT060 BKN080 BKN150 24/21 A3004 RMK AO2 SLP161 T02440211 10267 20239 50002=
201707160452 METAR KATL 160452Z 30006KT 10SM SCT090 BKN140 BKN190 BKN250 24/21 A3005 RMK AO2 SLP163 T02440211 403220228=
201707160352 METAR KATL 160352Z 00000KT 10SM BKN140 BKN160 BKN250 25/21 A3005 RMK AO2 SLP163 T02500211=
201707160252 METAR KATL 160252Z 00000KT 10SM FEW020 BKN150 BKN170 BKN250 24/21 A3004 RMK AO2 SLP160 T02440206 50001=
201707160152 METAR KATL 160152Z 23004KT 10SM FEW020 SCT140 BKN180 BKN250 25/21 A3004 RMK AO2 SLP161 T02500206=
201707160052 METAR KATL 160052Z 31005KT 10SM FEW020 SCT130 SCT200 BKN250 26/21 A3004 RMK AO2 SLP161 MDT CU E-S T02610206=
201707152352 METAR KATL 152352Z 33007KT 10SM FEW040 SCT140 SCT200 BKN250 27/21 A3003 RMK AO2 SLP159 CB DSNT E AND SE TCU DSNT SE-S SHRA DSNT S T02670206 10322 20267 55002=
201707152252 METAR KATL 152252Z 32006KT 10SM FEW040 BKN140 BKN250 28/20 A3002 RMK AO2 SLP157 LTG DSNT SE-S CB DSNT SE-S TCU DSNT N AND E SHRA DSNT E T02780200=
201707152152 METAR KATL 152152Z 34006KT 10SM FEW020 SCT040 SCT075 BKN250 28/21 A3002 RMK AO2 SLP155 LTG DSNT E AND S-SW CB DSNT E AND S-SW TCU DSNT SE SHRA DSNT SE T02780206=
201707152052 METAR KATL 152052Z 35013KT 10SM FEW042TCU SCT070 BKN250 28/21 A3004 RMK AO2 PK WND 34026/2025 LTG DSNT NE AND SW SLP160 CB DSNT NE AND SW TCU E-S T02830206 56014=
201707151952 METAR KATL 151952Z 31010KT 10SM FEW042TCU BKN140 32/21 A3005 RMK AO2 LTG DSNT N AND NW SLP164 CB DSNT NW TCU ALQDS T03220206=
201707151852 METAR KATL 151852Z 30007KT 260V330 10SM SCT040 BKN140 31/21 A3006 RMK AO2 SLP168 T03060211=
201707151752 METAR KATL 151752Z 00000KT 10SM SCT041 BKN160 BKN250 31/22 A3008 RMK AO2 SLP173 TCU DSNT NW-N T03110217 10317 20239 58017=
201707151652 METAR KATL 151652Z 27005KT 10SM FEW042 BKN160 BKN250 31/22 A3011 RMK AO2 SLP183 T03110217=
201707151552 METAR KATL 151552Z 29009KT 10SM FEW040 BKN160 BKN250 31/21 A3012 RMK AO2 SLP187 T03060211=
201707151452 METAR KATL 151452Z VRB04KT 10SM BKN160 BKN250 29/21 A3013 RMK AO2 SLP191 T02940211 58001=
201707151352 METAR KATL 151352Z 00000KT 10SM SCT150 BKN200 BKN250 28/22 A3014 RMK AO2 SLP194 T02780222=
201707151252 METAR KATL 151252Z 15003KT 10SM FEW120 SCT150 BKN200 BKN250 26/22 A3014 RMK AO2 SLP194 T02560217=
201707151152 METAR KATL 151152Z 00000KT 10SM FEW040 FEW150 SCT200 SCT250 24/22 A3013 RMK AO2 SLP192 70030 T02390217 10244 20228 53009=
201707151052 METAR KATL 151052Z 00000KT 10SM FEW040 FEW150 SCT220 23/21 A3012 RMK AO2 SLP188 T02330211=
201707150952 METAR KATL 150952Z 33006KT 10SM FEW070 FEW150 SCT220 23/21 A3011 RMK AO2 SLP184 T02330211=
201707150852 METAR KATL 150852Z 30004KT 10SM FEW040 SCT220 23/22 A3011 RMK AO2 SLP183 T02330217 56009=
201707150752 METAR KATL 150752Z 30003KT 10SM FEW040 SCT200 BKN250 24/22 A3011 RMK AO2 SLP185 T02390217=
201707150652 METAR KATL 150652Z 18003KT 10SM FEW040 FEW150 SCT250 24/22 A3013 RMK AO2 SLP190 T02390222=
201707150552 METAR KATL 150552Z 00000KT 10SM FEW200 SCT250 24/23 A3014 RMK AO2 SLP193 60030 T02440228 10311 20239 58005=
201707150452 METAR KATL 150452Z 23004KT 10SM SCT200 BKN250 24/22 A3014 RMK AO2 SLP196 T02440222 403330239=
201707150352 METAR KATL 150352Z 00000KT 10SM FEW150 BKN200 BKN250 26/22 A3016 RMK AO2 SLP200 T02560217=
201707150252 METAR KATL 150252Z 11004KT 10SM FEW150 SCT200 BKN250 26/22 A3015 RMK AO2 SLP198 60030 T02560222 51017=
201707150152 METAR KATL 150152Z 03007KT 10SM FEW030 SCT120 BKN150 BKN200 26/22 A3015 RMK AO2 PK WND 02027/0105 RAB0056E38 TSE45 SLP197 P0030 T02610217=
201707150145 SPECI KATL 150145Z 01009KT 10SM FEW035 SCT070 BKN120 BKN200 26/22 A3015 RMK AO2 PK WND 02027/0105 RAB0056E38 TSE45 TS DSIPTD P0030 T02610217=
201707150114 SPECI KATL 150114Z 01014G27KT 6SM -TSRA SCT035CB BKN060 BKN150 BKN200 26/22 A3013 RMK AO2 PK WND 02027/0105 RAB0056 OCNL LTGIC NE TS VC NE MOV NE CB NE-SE & VC NE MOV NE P0030 T02560222=
201707150102 SPECI KATL 150102Z 03014G25KT 360V060 1 1/4SM R09R/2200VP6000FT +TSRA SCT045CB BKN100 BKN200 26/22 A3015 RMK AO2 SFC VIS 2 RAB0056 PRESRR OCNL LTGIC NE TS VC NE MOV NE CB OHD-SW & VC NE MOV NE P0005 T02560217=
201707150052 METAR KATL 150052Z 33014G20KT 10SM TS SCT045CB BKN100 BKN200 28/22 A3013 RMK AO2 TSB39 SLP190 VIS LWR SW OCNL LTGIC NE TS VC NE MOV NE CB SW-W & VC NE MOV NE TCU NE-SE-SW T02830222=
201707150039 SPECI KATL 150039Z 32012KT 10SM TS SCT045CB BKN100 BKN200 29/22 A3012 RMK AO2 TSB39 OCNL LTGIC NE TS VC NE MOV NE T02890222=
201707142352 METAR KATL 142352Z 28008KT 10SM FEW045TCU SCT100 SCT200 31/22 A3010 RMK AO2 SLP181 LTG DSNT NE CB DSNT NE TCU NE & VC SW T03110217 10333 20311 55001=
201707142252 METAR KATL 142252Z 23009KT 10SM FEW045TCU FEW150 SCT200 32/21 A3009 RMK AO2 SLP177 TCU NE & DSNT NW T03220206=
201707142152 METAR KATL 142152Z 22009KT 10SM SCT050TCU SCT200 32/21 A3009 RMK AO2 SLP178 TCU NW-NE T03220211=
201707142052 METAR KATL 142052Z 19010KT 10SM FEW050 FEW200 33/19 A3010 RMK AO2 LTG DSNT SW AND W SLP181 CB DSNT SW-NW TCU DSNT N & SE T03280194 58017=
201707141952 METAR KATL 141952Z 15009KT 10SM SCT045 32/20 A3013 RMK AO2 SLP192 MDT CU ALQDS T03220200=
201707141852 METAR KATL 141852Z 20010KT 10SM SCT045 SCT060 32/21 A3014 RMK AO2 SLP193 MDT CU ALQDS T03220211=
201707141752 METAR KATL 141752Z 17008KT 10SM SCT042 SCT050 31/22 A3015 RMK AO2 SLP199 T03110217 10322 20250 58016 $=
201707141652 METAR KATL 141652Z VRB06KT 10SM SCT040 32/22 A3017 RMK AO2 SLP206 T03170222=
201707141552 METAR KATL 141552Z 18006KT 10SM FEW040TCU SCT070 BKN150 31/22 A3019 RMK AO2 SLP213 TCU N & SE & NW T03060217=
201707141452 METAR KATL 141452Z VRB04KT 10SM FEW030TCU FEW070 SCT150 30/23 A3020 RMK AO2 SLP215 TCU E-SE & W T03000228 58000=
201707141352 METAR KATL 141352Z 00000KT 10SM FEW070 FEW150 29/23 A3020 RMK AO2 SLP215 T02890228=
201707141252 METAR KATL 141252Z 25004KT 10SM FEW150 FEW250 27/23 A3020 RMK AO2 SLP216 ACC W T02720228=
201707141152 METAR KATL 141152Z 28006KT 10SM FEW040 FEW150 SCT250 25/22 A3020 RMK AO2 SLP216 TCU DSNT N & NE T02500222 10256 20239 53010=
201707141052 METAR KATL 141052Z 28003KT 10SM FEW040TCU SCT150 SCT250 24/22 A3019 RMK AO2 SLP212 TCU SE & DSNT NW-N T02390217=
201707140952 METAR KATL 140952Z 24005KT 10SM FEW042 FEW150 FEW250 24/22 A3018 RMK AO2 SLP210 T02390217=
201707140852 METAR KATL 140852Z 24003KT 10SM FEW150 FEW250 24/22 A3017 RMK AO2 SLP206 T02390217 53001=
201707140752 METAR KATL 140752Z 26005KT 10SM FEW200 24/22 A3017 RMK AO2 SLP203 T02440217=
201707140652 METAR KATL 140652Z 22004KT 10SM FEW200 24/22 A3016 RMK AO2 SLP201 T02440222=
201707140552 METAR KATL 140552Z 20004KT 10SM FEW250 26/22 A3017 RMK AO2 SLP204 T02560222 10306 20250 50001=
201707140452 METAR KATL 140452Z 22004KT 10SM FEW200 26/22 A3018 RMK AO2 SLP207 T02610222 403280233=
201707140352 METAR KATL 140352Z 21003KT 10SM SCT200 27/22 A3017 RMK AO2 SLP202 T02720217=
201707140252 METAR KATL 140252Z 00000KT 10SM FEW080 SCT200 28/22 A3017 RMK AO2 SLP204 T02780222 51006=
201707140152 METAR KATL 140152Z 00000KT 10SM FEW040 FEW080 SCT200 29/22 A3017 RMK AO2 TSE11 SLP202 LTG DSNT NE T02940222=
201707140111 SPECI KATL 140111Z 21004KT 10SM FEW040 SCT080 BKN200 29/22 A3016 RMK AO2 TSE11 LTG DSNT NE TS MOV NE CB DSNT NE & SW T02890222=
201707140052 METAR KATL 140052Z 00000KT 10SM TS SCT040CB SCT080 BKN200 31/21 A3015 RMK AO2 TSB52 SLP199 OCNL LTGICCG NE-SE TS VC NE-SE MOV NE TCU NW-N T03060211=
201707132352 METAR KATL 132352Z 21004KT 10SM FEW040CB SCT070 SCT200 31/21 A3015 RMK AO2 TSE45 SLP197 CB VC NE-E MOV NE TCU VC NW T03060211 10328 20306 53004=
201707132345 SPECI KATL 132345Z 22003KT 10SM FEW040CB SCT070 SCT200 31/22 A3015 RMK AO2 TSE45 TS DSIPTD CB VC NE MOV NE TCU NE-E & VC W T03060217=
201707132252 METAR KATL 132252Z 24006KT 10SM TS FEW045CB SCT090 SCT200 32/21 A3013 RMK AO2 SLP190 OCNL LTGICCG NW-N TS VC NW-N MOV NE TCU N-E-SE & SW T03170206=
201707132152 METAR KATL 132152Z 20005KT 10SM TS SCT045CB SCT070 SCT250 31/22 A3013 RMK AO2 TSB40 SLP192 OCNL LTGICCG N-NE TS VC N-NE MOV NE T03060217=
201707132140 SPECI KATL 132140Z 23006KT 10SM TS SCT045CB SCT070 31/21 A3013 RMK AO2 TSB40 OCNL LTGICCG NW-N TS VC NW-N MOV NE T03110211=
201707132052 METAR KATL 132052Z 22005KT 10SM SCT045TCU 32/21 A3013 RMK AO2 LTG DSNT N SLP193 CB DSNT N TCU SW-NW-N T03170211 58022=
201707131952 METAR KATL 131952Z 20008KT 10SM SCT050TCU 33/22 A3016 RMK AO2 LTG DSNT NW SLP201 CB DSNT NW TCU NE & W-NW-N T03280217=
201707131852 METAR KATL 131852Z 22008KT 10SM SCT045TCU SCT250 32/21 A3018 RMK AO2 SLP206 CB DSNT NW TCU S & SW-NW-N T03220211=
201707131752 METAR KATL 131752Z 00000KT 10SM SCT045TCU SCT250 32/22 A3020 RMK AO2 SLP215 CB DSNT NW TCU E-SE-S & NW T03220217 10322 20256 58008=
201707131652 METAR KATL 131652Z 00000KT 10SM BKN037TCU BKN070 BKN250 30/21 A3022 RMK AO2 SLP223 TCU OHD & ALQDS T03000206=
201707131552 METAR KATL 131552Z 00000KT 10SM BKN040TCU BKN150 31/22 A3023 RMK AO2 LTG DSNT NW SLP225 CB DSNT NW TCU OHD-E & SW-NW T03110217=
201707131452 METAR KATL 131452Z 00000KT 10SM FEW035 FEW150 SCT250 29/22 A3022 RMK AO2 SLP223 TCU DSNT N T02940217 50007=
201707131352 METAR KATL 131352Z 00000KT 10SM FEW030 FEW150 SCT250 29/22 A3023 RMK AO2 SLP225 T02890217=
201707131252 METAR KATL 131252Z 31004KT 10SM FEW140 SCT250 27/22 A3023 RMK AO2 SLP223 T02720222=
201707131152 METAR KATL 131152Z 00000KT 10SM FEW045 FEW140 SCT250 26/22 A3020 RMK AO2 SLP216 ACC S T02610222 10267 20233 52010=
201707131052 METAR KATL 131052Z 00000KT 10SM FEW150 FEW250 24/22 A3019 RMK AO2 SLP213 T02440217=
201707130952 METAR KATL 130952Z 00000KT 10SM FEW250 23/22 A3018 RMK AO2 SLP208 T02330217=
201707130852 METAR KATL 130852Z 21003KT 10SM FEW250 24/22 A3017 RMK AO2 SLP205 T02390217 55002=
201707130752 METAR KATL 130752Z 17004KT 10SM FEW150 FEW250 24/22 A3017 RMK AO2 SLP204 T02390217=
201707130652 METAR KATL 130652Z 34003KT 10SM FEW250 26/21 A3016 RMK AO2 SLP201 T02610211=
201707130552 METAR KATL 130552Z 00000KT 10SM FEW150 FEW250 26/21 A3018 RMK AO2 SLP207 T02560211 10300 20256 58002=
201707130452 METAR KATL 130452Z 00000KT 10SM FEW150 FEW250 27/21 A3019 RMK AO2 SLP212 T02670206 403220222=
201707130352 METAR KATL 130352Z 25003KT 10SM FEW150 FEW250 26/21 A3019 RMK AO2 SLP211 T02610206=
201707130252 METAR KATL 130252Z 23003KT 10SM FEW150 FEW250 27/21 A3018 RMK AO2 SLP210 T02670206 53017=
201707130152 METAR KATL 130152Z 20005KT 10SM FEW150 FEW250 27/21 A3015 RMK AO2 SLP199 T02720206=
201707130052 METAR KATL 130052Z 21006KT 10SM FEW045 FEW250 28/21 A3014 RMK AO2 SLP196 TCU DSNT NE T02830206=
201707122352 METAR KATL 122352Z 21007KT 10SM FEW045TCU FEW250 30/21 A3013 RMK AO2 SLP193 TCU VC NE T03000211 10322 20294 55002=
201707122252 METAR KATL 122252Z 23006KT 10SM FEW050TCU FEW250 31/21 A3013 RMK AO2 SLP190 TCU NE & DSNT N & NW T03060211=
201707122152 METAR KATL 122152Z 22007KT 10SM FEW050 SCT250 32/20 A3013 RMK AO2 SLP193 TCU DSNT SE & NW-N T03170200=
201707122052 METAR KATL 122052Z 22009KT 10SM FEW050TCU FEW120 SCT250 32/21 A3014 RMK AO2 SLP194 CB DSNT W TCU E-SE-S T03170206 57018=
201707121952 METAR KATL 121952Z 21007KT 10SM FEW045TCU FEW120 SCT250 32/21 A3016 RMK AO2 LTG DSNT SE SLP200 CB DSNT SE-S-SW TCU NW-N MDT CU ALQDS T03170206=
201707121852 METAR KATL 121852Z VRB04KT 10SM FEW040TCU SCT120 SCT200 31/21 A3017 RMK AO2 SLP207 CB DSNT S-SW-NW TCU NE & SE T03060211=
201707121752 METAR KATL 121752Z VRB05KT 10SM BKN040TCU BKN120 31/21 A3019 RMK AO2 SLP213 TCU OHD-NE-SE & DSNT NW T03060211 10306 20228 58004=
201707121652 METAR KATL 121652Z 19003KT 10SM SCT035 SCT120 30/21 A3020 RMK AO2 SLP215 TCU DSNT S MDT CU ALQDS T03000211=
201707121552 METAR KATL 121552Z 27008KT 10SM SCT030 SCT120 29/22 A3021 RMK AO2 SLP218 TCU DSNT NE-E MDT CU ALQDS T02940217=
201707121452 METAR KATL 121452Z 26004KT 10SM SCT020TCU SCT120 28/22 A3021 RMK AO2 SLP219 TCU NE-SE & SW-NW T02780222 50005=
201707121354 SPECI KATL 121354Z 27006KT 10SM BKN015 BKN120 27/23 A3021 RMK AO2 MDT CU NE-SE T02670233=
201707121352 METAR KATL 121352Z 27006KT 10SM BKN013 BKN120 27/23 A3021 RMK AO2 SLP219 MDT CU NE-SE T02670233=
201707121252 METAR KATL 121252Z 25003KT 9SM FEW006 FEW015 SCT060 26/22 A3020 RMK AO2 SLP216 T02560222=
201707121208 SPECI KATL 121208Z 00000KT 10SM FEW006 SCT015 SCT120 23/21 A3019 RMK AO2 T02330211=
201707121152 METAR KATL 121152Z 00000KT 10SM SCT006 BKN015 BKN060 23/21 A3019 RMK AO2 SLP214 T02280211 10228 20222 53014=
201707121150 SPECI KATL 121150Z 00000KT 10SM SCT006 BKN015 BKN060 23/21 A3019 RMK AO2=
201707121122 SPECI KATL 121122Z 18003KT 10SM BKN006 BKN015 22/21 A3018 RMK AO2 BKN006 V SCT T02220211=
201707121052 METAR KATL 121052Z 15004KT 10SM SCT007 SCT060 22/21 A3017 RMK AO2 SLP209 T02220206=
201707121041 SPECI KATL 121041Z 15005KT 10SM FEW007 SCT060 22/21 A3017 RMK AO2 T02220206=
201707120952 METAR KATL 120952Z 00000KT 10SM FEW150 FEW200 22/21 A3015 RMK AO2 SLP202 T02220206=
201707120852 METAR KATL 120852Z 00000KT 10SM FEW200 23/21 A3015 RMK AO2 SLP198 T02280206 53004 $=
201707120752 METAR KATL 120752Z 00000KT 10SM FEW200 SCT250 23/21 A3013 RMK AO2 SLP192 T02280206 $=
201707120652 METAR KATL 120652Z 20003KT 10SM FEW200 SCT250 22/21 A3012 RMK AO2 SLP190 T02220206 $=
201707120552 METAR KATL 120552Z 23003KT 10SM FEW200 BKN250 23/21 A3013 RMK AO2 SLP193 T02280211 10256 20228 50001 $=
201707120452 METAR KATL 120452Z 20003KT 10SM FEW090 SCT200 BKN250 23/21 A3014 RMK AO2 SLP195 T02280211 403170228 $=
201707120352 METAR KATL 120352Z 00000KT 10SM FEW100 BKN200 BKN250 24/21 A3015 RMK AO2 SLP197 T02390206 $=
201707120252 METAR KATL 120252Z 20004KT 10SM FEW150 BKN200 BKN250 23/21 A3013 RMK AO2 SLP194 T02330206 53006 $=
201707120152 METAR KATL 120152Z 25006KT 10SM FEW150 SCT200 BKN250 24/21 A3011 RMK AO2 SLP185 T02390211 $=
201707120052 METAR KATL 120052Z 19006KT 10SM FEW030 SCT200 BKN250 25/22 A3011 RMK AO2 SLP187 TCU DSNT SW T02500217 $=
201707112352 METAR KATL 112352Z 16004KT 10SM FEW025 SCT150 BKN200 BKN250 26/21 A3011 RMK AO2 RAE19 SLP188 LTG DSNT SE-SW P0000 60000 T02560211 10317 20250 53006 $=
201707112252 METAR KATL 112252Z 10004KT 10SM -RA FEW025 SCT140 BKN200 BKN250 26/20 A3006 RMK AO2 RAB2155E04B22 SLP171 LTG DSNT SE-SW P0000 T02560200 $=
201707112152 METAR KATL 112152Z 15006KT 10SM FEW025CB SCT140 BKN200 BKN250 26/21 A3009 RMK AO2 RAE18 TSE52 SLP179 LTG DSNT NE-SE & SW & NW TS MOV SE P0000 T02610206 $=
201707112052 METAR KATL 112052Z 02015G21KT 6SM -TSRA BKN030CB BKN065 BKN200 27/21 A3009 RMK AO2 PK WND 04031/2041 RAB16E26B28 TSB26 SLP180 VIS LWR N-SE SHRA OCNL LTGICCG N-SE & VC SW TS N-SE & VC SW MOV NE P0000 60000 T02720206 55007 $=
201707112040 SPECI KATL 112040Z 01018KT 5SM TSRA BKN030CB BKN060 BKN200 28/21 A3010 RMK AO2 RAB16E26B28 TSB26 VIS LWR N & E-SE & SW SHRA OCNL LTGICCG N & E-SE & SW TS N & E-SE & SW MOV W P0000 T02830211 $=
201707112028 SPECI KATL 112028Z 06004KT 7SM -TSRA BKN030CB BKN060 BKN200 29/22 A3009 RMK AO2 RAB16E26B28 TSB26 VIS LWR NE-SE SHRA OCNL LTGICCG NE-SE TS NE-SE MOV W P0000 T02940217 $=
201707112027 SPECI KATL 112027Z 07003KT 10SM TS BKN030CB BKN060 BKN200 29/22 A3009 RMK AO2 RAB16E26 TSB26 VIS LWR NE-SE SHRA OCNL LTGICCG NE-SE TS NE-SE MOV W P0000 T02940222 $=
201707112018 SPECI KATL 112018Z 24007KT 10SM -RA BKN040CB BKN060 BKN200 30/22 A3009 RMK AO2 RAB16 VIS LWR NE-SE-S & W SHRA CB OHD-NE-SE-S & W-NW P0000 T03000217 $=
201707111952 METAR KATL 111952Z 26008KT 10SM FEW040CB BKN050TCU BKN200 31/22 A3009 RMK AO2 SLP178 CB DSNT N & VC SW-W MOV E TCU OHD-E-SE & NW SHRA VC SW-W T03110217 $=
201707111852 METAR KATL 111852Z 19007KT 10SM BKN040TCU BKN060 BKN200 30/21 A3010 RMK AO2 LTG DSNT NW-NE SLP181 TS DSIPT CB DSNT NW-NE TCU OHD-SW-N SHRA DSNT N-NE T03000211=
201707111843 SPECI KATL 111843Z 23008KT 10SM SCT040TCU SCT200 31/22 A3010 RMK AO2 LTG DSNT NW-NE TS DSIPT CB DSNT N TCU SW-N SHRA DSNT N T03110217=
201707111836 SPECI KATL 111836Z VRB04KT 10SM VCTS SCT040TCU SCT200 31/22 A3010 RMK AO2 LTG DSNT NW-NE TS DSIPT CB DSNT N TCU SW-N SHRA DSNT N T03110222=
201707111809 SPECI KATL 111809Z 18007KT 10SM VCTS SCT040CB SCT200 31/22 A3012 RMK AO2 LTG DSNT NW TSE07 OCNL LTGICCG VC NW TS VC NW MOV E SHRA VC NW T03060217=
201707111752 METAR KATL 111752Z 20005KT 10SM FEW033 SCT200 30/21 A3011 RMK AO2 SLP186 CB DSNT NE & DSNT W-NW SHRA DSNT NE & NW T03000211 10306 20233 58008=
201707111652 METAR KATL 111652Z 17007KT 10SM SCT030TCU 29/23 A3013 RMK AO2 SLP190 CB DSNT W-NW TCU N-NE T02940228=
201707111552 METAR KATL 111552Z VRB05KT 10SM SCT020 28/23 A3014 RMK AO2 SLP197 T02780228=
201707111452 METAR KATL 111452Z 16004KT 10SM SCT013 27/23 A3014 RMK AO2 SLP194 T02720228 50008=
201707111352 METAR KATL 111352Z 19005KT 10SM FEW015 26/22 A3014 RMK AO2 SLP197 T02560222=
201707111252 METAR KATL 111252Z 24004KT 10SM FEW008 FEW250 24/22 A3013 RMK AO2 SLP192 T02440222=
201707111152 METAR KATL 111152Z 20004KT 10SM FEW007 FEW250 23/22 A3011 RMK AO2 SLP186 T02330217 10233 20228 53014=
201707111052 METAR KATL 111052Z 00000KT 10SM FEW250 23/22 A3009 RMK AO2 SLP178 T02330217=
201707110952 METAR KATL 110952Z 00000KT 10SM FEW250 23/22 A3008 RMK AO2 SLP174 T02330217=
201707110852 METAR KATL 110852Z 22003KT 10SM FEW250 23/22 A3007 RMK AO2 SLP171 T02280217 56005 $=
201707110752 METAR KATL 110752Z 24004KT 10SM FEW250 23/22 A3007 RMK AO2 SLP171 T02280217 $=
201707110652 METAR KATL 110652Z 22004KT 10SM FEW250 23/22 A3008 RMK AO2 SLP174 T02280217 $=
201707110552 METAR KATL 110552Z 19004KT 10SM FEW250 23/22 A3009 RMK AO2 SLP177 T02330217 10289 20233 58004 $=
201707110452 METAR KATL 110452Z 20004KT 10SM FEW250 24/22 A3009 RMK AO2 SLP179 T02390217 403280217 $=
201707110352 METAR KATL 110352Z 20004KT 10SM FEW110 SCT250 24/22 A3010 RMK AO2 SLP181 T02440217 $=
201707110252 METAR KATL 110252Z 16005KT 10SM FEW075 FEW120 SCT250 25/22 A3010 RMK AO2 SLP181 T02500217 53012 $=
201707110152 METAR KATL 110152Z 14004KT 10SM FEW070 FEW120 SCT180 SCT250 26/21 A3008 RMK AO2 SLP173 T02560211 $=
201707110052 METAR KATL 110052Z 16004KT 10SM FEW040 FEW065 SCT110 SCT200 26/21 A3006 RMK AO2 TSE26 SLP169 TS DSIPTD VIRGA E CB DSNT NE & SW T02610211 $=
201707110027 SPECI KATL 110027Z 13006KT 10SM FEW045 FEW060 FEW110 SCT200 26/20 A3006 RMK AO2 TSE26 TS DSIPTD CB DSNT E & SW TCU DSNT SE SHRA DSNT E T02610200 $=
201707102352 METAR KATL 102352Z 18005KT 10SM TS FEW045CB SCT055TCU SCT100 BKN200 29/21 A3006 RMK AO2 LTG DSNT E AND SE PRESRR SLP169 OCNL LTGICCGCA E TS E MOV STNRY CB DSNT NE-SE-SW TCU N-E SHRA E T02890211 10328 20289 53008=
201707102320 SPECI KATL 102320Z 23009KT 10SM TS FEW044CB SCT055TCU SCT100 BKN200 29/22 A3003 RMK AO2 LTG DSNT NE-SE FRQ LTGICCGCA E-SE TS E-SE MOV STNRY CB DSNT NE-SE TCU E SHRA E-SE T02890217=
201707102252 METAR KATL 102252Z 29008KT 10SM VCTS FEW045CB FEW055TCU SCT100 BKN200 31/20 A3003 RMK AO2 LTG DSNT NE-SE SLP157 TSB50 OCNL LTGICCGCA VC SE TS VC SE MOV STNRY CB DSNT N-E-S TCU E & SW SHRA VC SE T03110200=
201707102152 METAR KATL 102152Z 26008KT 10SM FEW045CB FEW055TCU SCT110 SCT200 32/19 A3002 RMK AO2 LTG DSNT SE AND SW SLP155 CB NE MOV STNRY CB DSNT N-NE & SE-SW TCU N-NE & S & DSNT E-SE SHRA NE T03170194=
201707102052 METAR KATL 102052Z 25007KT 10SM FEW040CB SCT050TCU SCT250 32/20 A3004 RMK AO2 SLP159 CB NE & DSNT SE-S MOV E TCU NE-SE & DSNT NW T03220200 56015=
201707101952 METAR KATL 101952Z 29007KT 10SM SCT050TCU SCT250 32/21 A3004 RMK AO2 SLP161 CB DSNT SE TCU NE-SE & NW T03220206=
201707101852 METAR KATL 101852Z 28006KT 10SM SCT045TCU SCT250 31/20 A3006 RMK AO2 SLP167 CB DSNT E & S TCU E & S & SW & NW T03060200=
201707101752 METAR KATL 101752Z VRB04KT 10SM SCT040TCU SCT250 31/21 A3008 RMK AO2 SLP176 CB DSNT NE TCU NE & SE-S & SW-NW T03060206 10306 20233 58007=
201707101652 METAR KATL 101652Z 25004KT 10SM SCT033TCU SCT250 30/21 A3010 RMK AO2 SLP181 TCU NE-SE-S T03000211=
201707101552 METAR KATL 101552Z VRB04KT 10SM BKN030TCU BKN250 29/22 A3011 RMK AO2 SLP187 TCU OHD-N-NE-E T02940217=
201707101452 METAR KATL 101452Z 00000KT 10SM FEW025 FEW250 28/21 A3011 RMK AO2 SLP184 T02780211 50006=
201707101352 METAR KATL 101352Z 00000KT 10SM FEW055 FEW090 FEW200 26/21 A3011 RMK AO2 SLP185 T02610211=
201707101252 METAR KATL 101252Z 28005KT 10SM FEW050 BKN090 24/21 A3011 RMK AO2 SLP185 T02440206=
201707101152 METAR KATL 101152Z 30004KT 10SM R09R/5000VP6000FT FEW040 SCT070 BKN090 23/21 A3009 RMK AO2 SLP177 T02330206 10239 20217 53010=
201707101052 METAR KATL 101052Z 00000KT 10SM FEW035 SCT060 SCT200 22/20 A3007 RMK AO2 SLP173 T02220200=
201707100952 METAR KATL 100952Z 00000KT 10SM FEW036 SCT065 BKN200 22/20 A3006 RMK AO2 SLP169 T02220200=
201707100852 METAR KATL 100852Z 00000KT 10SM FEW035 FEW100 SCT200 23/20 A3006 RMK AO2 SLP166 T02280200 56004 $=
201707100752 METAR KATL 100752Z 36004KT 10SM SCT035 SCT150 SCT200 24/20 A3006 RMK AO2 SLP167 T02390200 $=
201707100652 METAR KATL 100652Z 00000KT 10SM FEW110 FEW150 SCT200 24/20 A3006 RMK AO2 SLP167 T02390200 $=
201707100552 METAR KATL 100552Z 29003KT 10SM FEW075 FEW110 FEW150 SCT200 23/19 A3007 RMK AO2 SLP171 T02330189 10300 20228 58007 $=
201707100452 METAR KATL 100452Z 00000KT 10SM FEW075 FEW110 SCT150 SCT200 24/21 A3008 RMK AO2 SLP174 T02390206 403220217 $=
201707100352 METAR KATL 100352Z 19004KT 10SM FEW045TCU FEW075 SCT110 BKN200 24/20 A3009 RMK AO2 SLP179 TCU SE-S T02390200 $=
201707100252 METAR KATL 100252Z 00000KT 10SM FEW055 FEW075 SCT110 BKN200 26/20 A3009 RMK AO2 LTG DSNT S SLP178 TSE12 TS MOV E FRQ LTGICCA DSNT S CB DSNT S T02560200 53018 $=
201707100213 SPECI KATL 100213Z 12005KT 10SM FEW055 FEW075 SCT110 BKN200 25/19 A3008 RMK AO2 LTG DSNT S TSE12 TS MOV E OCNL LTGICCA DSNT NE-SE-S CB DSNT NE-SE-S T02500194 $=
201707100152 METAR KATL 100152Z 10006KT 10SM VCTS FEW050CB SCT065 SCT100 BKN200 26/19 A3007 RMK AO2 SLP173 FRQ LTGICCA VC NE-SE-S TS VC NE-SE-S MOV E CB DSNT S SHRA VC NE-SE-S T02610194=
201707100052 METAR KATL 100052Z 06012KT 10SM TS FEW050CB FEW060TCU SCT100 BKN200 26/20 A3004 RMK AO2 TSB09 SLP164 OCNL LTGICCA NE-E TS NE-E MOV NE CB S MOV NE CB DSNT NE & SE TCU E-SE SHRA NE-E & S T02610200=
201707100043 SPECI KATL 100043Z 07016KT 10SM TS FEW050CB SCT060TCU SCT100 BKN200 27/19 A3005 RMK AO2 TSB09 OCNL LTGICCA NE-E TS NE-E MOV NE CB DSNT NE & SE TCU E-S T02670194=
201707100012 SPECI KATL 100012Z 33009KT 10SM TS SCT055CB SCT065TCU SCT100 BKN200 29/18 A3003 RMK AO2 TSB09 OCNL LTGICCGCA NE TS NE MOV N CB DSNT NE & SE-S TCU E-S T02940183=
201707092352 METAR KATL 092352Z 33009KT 10SM SCT060TCU SCT100 BKN200 BKN250 30/18 A3004 RMK AO2 SLP160 CB DSNT SE-S TCU NE-OHD-S SHRA NE-E T03000183 10322 20294 55001=
201707092252 METAR KATL 092252Z 35009KT 10SM FEW065 FEW150 SCT200 SCT250 32/17 A3002 RMK AO2 SLP156 CB DSNT SE-S TCU DSNT E MDT CU NE T03170172=
201707092152 METAR KATL 092152Z 32006KT 10SM SCT060 SCT250 31/17 A3003 RMK AO2 SLP157 T03060167=
201707092052 METAR KATL 092052Z VRB05KT 10SM BKN055 BKN250 32/18 A3004 RMK AO2 SLP161 MDT CU NE & NW T03220178 58013=
201707091952 METAR KATL 091952Z 00000KT 10SM SCT060 BKN080 BKN250 30/18 A3006 RMK AO2 SLP169 MDT CU N-E-S T03000178=
201707091852 METAR KATL 091852Z 00000KT 10SM SCT047 BKN075 BKN200 BKN250 29/18 A3007 RMK AO2 SLP171 MDT CU OHD & N-E-S T02940183=
201707091752 METAR KATL 091752Z 10SM SCT047 BKN070 BKN200 BKN250 29/19 A3008 RMK AO2 SLP175 MDT CU OHD & N-SE T02940189 10300 20233 58009=
201707091652 METAR KATL 091652Z VRB03KT 10SM SCT040 SCT200 SCT250 30/19 A3009 RMK AO2 SLP179 T03000189=
201707091552 METAR KATL 091552Z 06006KT 10SM FEW035 SCT150 SCT200 SCT250 29/20 A3011 RMK AO2 SLP184 T02890200=
201707091452 METAR KATL 091452Z VRB04KT 10SM FEW035 FEW150 SCT200 SCT250 28/19 A3011 RMK AO2 SLP184 T02780189 51010=
201707091352 METAR KATL 091352Z 09007KT 10SM SCT150 SCT250 26/20 A3010 RMK AO2 SLP183 T02610200=
201707091252 METAR KATL 091252Z 04008KT 10SM FEW070 FEW150 SCT200 SCT250 25/19 A3009 RMK AO2 SLP177 T02500189=
201707091152 METAR KATL 091152Z 01007KT 10SM FEW180 FEW250 23/19 A3008 RMK AO2 SLP174 70004 T02330194 10233 20217 53008=
201707091052 METAR KATL 091052Z 35006KT 10SM FEW200 SCT250 22/19 A3006 RMK AO2 SLP170 T02220194=
201707090952 METAR KATL 090952Z 33003KT 10SM FEW200 22/20 A3005 RMK AO2 SLP168 T02170200=
201707090852 METAR KATL 090852Z 31005KT 10SM FEW200 22/20 A3005 RMK AO2 SLP167 T02170200 53005=
201707090752 METAR KATL 090752Z 32003KT 10SM SCT200 22/20 A3004 RMK AO2 SLP162 T02220200=
201707090652 METAR KATL 090652Z 32004KT 10SM FEW200 SCT250 22/21 A3004 RMK AO2 SLP161 T02220206=
201707090552 METAR KATL 090552Z 31006KT 10SM FEW008 FEW110 SCT200 SCT250 23/21 A3004 RMK AO2 SLP160 60001 T02280211 10272 20228 55002=
201707090452 METAR KATL 090452Z 26004KT 10SM FEW008 FEW110 SCT200 SCT250 23/21 A3003 RMK AO2 SLP158 T02330211 403220217=
201707090352 METAR KATL 090352Z 32003KT 10SM FEW009 FEW042 SCT110 SCT200 24/22 A3004 RMK AO2 SLP162 T02440217=
201707090330 SPECI KATL 090330Z 00000KT 10SM SCT009 BKN042 BKN100 BKN200 24/22 A3005 RMK AO2 T02440222=
201707090252 METAR KATL 090252Z 00000KT 10SM FEW040 FEW095 SCT200 BKN250 25/22 A3004 RMK AO2 SLP162 ACC E 60001 T02500222 53013=
201707090152 METAR KATL 090152Z 00000KT 10SM FEW042 SCT100 BKN200 BKN250 25/22 A3001 RMK AO2 SLP150 RAB34E50 TSB04E26 TS DSIPTD P0001 T02500217=
201707090127 SPECI KATL 090127Z 27004KT 10SM FEW028TCU FEW040 SCT120 BKN200 26/21 A3001 RMK AO2 TSB04E26 TS DSIPTD CB DSNT NW TCU SW T02610206=
201707090109 SPECI KATL 090109Z 34009KT 10SM TS SCT030CB SCT040TCU BKN100 BKN200 26/22 A3003 RMK AO2 TSB04 OCNL LTGICCGCA NW TS NW MOV SE CB DSNT E TCU W T02610222=
201707090052 METAR KATL 090052Z 31007KT 10SM FEW028CB SCT038TCU SCT100 BKN200 27/23 A3003 RMK AO2 LTG DSNT N SLP158 FRQ LTGICCGCA DSNT NW-N CB NW MOV SE CB DSNT E-S & NW-N TCU W SHRA NW T02670233=
201707082352 METAR KATL 082352Z 27006KT 10SM FEW038TCU FEW120 BKN200 BKN250 27/23 A3000 RMK AO2 LTG DSNT E AND NW SLP149 CB DSNT N-E-S & NW TCU NW-N & DSNT S & NW 60003 T02720228 10322 20239 53005=
201707082252 METAR KATL 082252Z 26006KT 10SM FEW038 FEW110 BKN200 BKN250 27/23 A2999 RMK AO2 LTG DSNT N SLP147 CB DSNT N-E-S & NW TCU DSNT N & NE T02720228=
201707082152 METAR KATL 082152Z 26006KT 10SM FEW038TCU FEW110 BKN200 BKN250 27/22 A2998 RMK AO2 LTG DSNT E RAE11 TSE32 SLP143 TS MOV SE CB DSNT ALQDS TCU NE P0000 T02670222=
201707082133 SPECI KATL 082133Z 25005KT 10SM FEW036TCU SCT110 BKN200 BKN250 27/22 A2999 RMK AO2 RAE11 TSE32 TS MOV SE CB DSNT ALQDS TCU N-NE & DSNT SE-SW P0000 T02720222=
201707082052 METAR KATL 082052Z 24007KT 10SM -TSRA FEW038CB SCT048TCU BKN100 BKN200 25/21 A2999 RMK AO2 LTG DSNT E AND SW SLP145 RAB17 TSB10 OCNL LTGICCA SE-SW TS SE-SW MOV SE CB DSNT ALQDS TCU N & S & NW & DSNT E P0003 60003 T02500211 56013=
201707082033 SPECI KATL 082033Z 29016G22KT 8SM -TSRA FEW038CB SCT048TCU SCT100 BKN200 27/21 A3000 RMK AO2 RAB17 TSB10 OCNL LTGICCGCA E-OHD-W TS E-OHD-W MOV SE CB DSNT ALQDS TCU E & SE-SW & DSNT N P0000 T02670206=
201707082013 SPECI KATL 082013Z 29010G17KT 260V320 10SM TS SCT038CB SCT100 BKN200 BKN250 30/22 A3000 RMK AO2 TSB10 OCNL LTGICCGCA W TS W MOV E CB DSNT ALQDS T03000217=
201707081952 METAR KATL 081952Z 26011KT 10SM SCT038TCU BKN250 32/22 A2999 RMK AO2 SLP144 LTG DSNT W CB DSNT W TCU N & E & SW & NW SHRA NW & N T03220222=
201707081852 METAR KATL 081852Z 24009KT 10SM SCT042 BKN250 31/22 A3000 RMK AO2 SLP149 LTG DSNT N CB DSNT N MDT CU ALQDS T03110217=
201707081752 METAR KATL 081752Z 24008KT 10SM SCT038 SCT200 BKN250 31/22 A3003 RMK AO2 SLP156 T03110217 10311 20228 58009 $=
201707081652 METAR KATL 081652Z 22008KT 10SM SCT035 SCT200 BKN250 31/22 A3004 RMK AO2 SLP162 MDT CU SW T03060217 $=
201707081552 METAR KATL 081552Z 26007KT 10SM SCT028 SCT200 BKN250 30/22 A3005 RMK AO2 SLP165 T03000217 $=
201707081452 METAR KATL 081452Z 21006KT 10SM FEW020 SCT200 BKN250 28/23 A3005 RMK AO2 SLP166 T02830228 58001 $=
201707081352 METAR KATL 081352Z 28005KT 10SM FEW015 SCT200 SCT250 27/23 A3005 RMK AO2 SLP167 T02670228 $=
201707081252 METAR KATL 081252Z 30008KT 10SM R09R/5000VP6000FT FEW009 FEW200 FEW250 24/22 A3006 RMK AO2 SLP169 T02440222 $=
201707081152 METAR KATL 081152Z 30010KT 7SM SCT005 SCT045 23/22 A3005 RMK AO2 SLP167 SCT005 V BKN 70014 T02280217 10228 20217 53006 $=
201707081144 SPECI KATL 081144Z 30009KT 7SM SCT004 SCT045 22/22 A3005 RMK AO2 SCT004 V BKN T02220217 $=
201707081123 SPECI KATL 081123Z 29009KT 7SM BKN004 BKN045 BKN200 22/21 A3006 RMK AO2 BKN004 V SCT T02220211 $=
201707081052 METAR KATL 081052Z 28006KT 10SM FEW004 FEW045 FEW200 22/21 A3004 RMK AO2 SLP163 T02170211 $=
201707081050 SPECI KATL 081050Z 29006KT 10SM FEW004 FEW045 FEW200 22/21 A3004 RMK AO2 $=
201707080952 METAR KATL 080952Z 27005KT 10SM FEW038 FEW250 22/22 A3003 RMK AO2 SLP159 T02220217 $=
201707080852 METAR KATL 080852Z 26005KT 10SM FEW038 FEW250 23/22 A3003 RMK AO2 SLP159 T02280217 51002 $=
201707080752 METAR KATL 080752Z 25006KT 10SM FEW038 FEW250 23/22 A3003 RMK AO2 SLP158 T02280217 $=
201707080652 METAR KATL 080652Z 25009KT 10SM FEW250 23/21 A3003 RMK AO2 SLP158 T02280211 $=
201707080552 METAR KATL 080552Z 22010KT 10SM FEW250 22/22 A3003 RMK AO2 SLP157 60014 T02220217 10272 20222 56003 $=
201707080452 METAR KATL 080452Z 21005KT 10SM FEW250 22/21 A3003 RMK AO2 SLP158 T02220211 403280222 $=
201707080352 METAR KATL 080352Z 24004KT 10SM FEW140 22/21 A3002 RMK AO2 SLP155 T02220211 $=
201707080252 METAR KATL 080252Z 28005KT 10SM SCT150 BKN220 23/21 A3004 RMK AO2 SLP161 TSB04E19 RAE01 TS DSPTD P0001 60014 T02280211 50007 $=
201707080223 SPECI KATL 080223Z 26007KT 10SM FEW070 BKN110 OVC140 23/21 A3006 RMK AO2 TSB04E19 RAE01 TS DSPTD P0001 T02280211 $=
201707080210 SPECI KATL 080210Z 27008KT 10SM TS SCT031CB OVC100 22/21 A3006 RMK AO2 LTG DSNT NE TSB04 RAE01 OCNL LTGCG VC NE TS VC NE MOV E P0001 T02220211 $=
201707080204 SPECI KATL 080204Z 26007KT 10SM -TSRA FEW031 SCT075 OVC100 23/21 A3006 RMK AO2 LTG DSNT N AND NE TSE03B04 P0001 T02280211 $=
201707080152 METAR KATL 080152Z 26008G23KT 7SM RA FEW015 SCT049 BKN070 OVC140 22/21 A3007 RMK AO2 PK WND 25026/0138 LTG DSNT N RAE22B41 TSE24 SLP173 TS DSPTD CB DSNT N VSBY LWR SW P0012 T02220211 $=
201707080126 SPECI KATL 080126Z 25012G20KT 10SM FEW038 BKN046 OVC075 24/22 A3007 RMK AO2 LTG DSNT ALQDS RAE22 TSE24 TS DSPTD CB DSNT NE & SW P0007 T02440222 $=
201707080052 METAR KATL 080052Z 25009KT 9SM -TSRA FEW040CB SCT100 BKN160 BKN250 25/22 A3006 RMK AO2 LTG DSNT ALQDS SLP169 RAB40 OCNL LTGICCG VC N-E TS VC N-E MOV E CB DSNT SW P0001 T02500217 $=
201707072352 METAR KATL 072352Z 23006KT 10SM TS FEW045CB SCT100 BKN250 27/21 A3002 RMK AO2 LTG DSNT ALQDS TSB28 SLP153 OCNL LTGCG VC NW TS VC NW MOV E CB DSNT E-SE T02670206 10328 20267 53001 $=
201707072328 SPECI KATL 072328Z 21013G23KT 10SM TS SCT046CB BKN250 27/20 A3001 RMK AO2 LTG DSNT ALQDS TSB28 OCNL LTGCG VC NW TS VC NW MOV E CB DSNT E-S T02720200 $=
201707072252 METAR KATL 072252Z 25011G17KT 10SM FEW045 SCT100 BKN250 31/21 A3000 RMK AO2 LTG DSNT ALQDS SLP146 CB DSNT E-S-SW MDT CU ALQDS T03110206 $=
201707072152 METAR KATL 072152Z 28009KT 10SM FEW045TCU SCT080 BKN250 32/22 A2999 RMK AO2 LTG DSNT ALQDS SLP143 TSE26 TS MOV E CB DSNT NE-E AND S-SW TCU ALQDS T03170217 $=
201707072131 SPECI KATL 072131Z 30010KT 10SM FEW045 SCT070 SCT090 BKN250 32/22 A3000 RMK AO2 LTG DSNT ALQDS TSE26 TS MOV E CB DSNT SW & NE-E T03220222 $=
201707072102 SPECI KATL 072102Z 27010KT 10SM VCTS SCT043CB SCT090 BKN250 32/22 A3001 RMK AO2 LTG DSNT ALQDS TSE01 OCNL LTGICCG VC NE TS VC NE MOV E CB DSNT SW & NW TCU ALQDS T03170217=
201707072052 METAR KATL 072052Z 26010KT 10SM TS SCT040CB SCT090 BKN250 32/22 A3001 RMK AO2 LTG DSNT N AND NW SLP152 TSB44 OCNL LTGICCG N-NE TS N N-NE MOV E CB DSNT NW-E TCU ALQDS T03170217 56018=
201707072049 SPECI KATL 072049Z 26011KT 10SM TS SCT040CB SCT090 BKN250 31/22 A3001 RMK AO2 LTG DSNT N AND NW TSB44E45B48 OCNL LTGICCG N TS N MOV E CB DSNT NW-E TCU ALQDS=
201707072037 SPECI KATL 072037Z 26009G17KT 10SM SCT045TCU BKN250 31/21 A3001 RMK AO2 LTG DSNT NW-E TS DSIPT CB DSNT NW-E TCU ALQDS T03110211=
201707072021 SPECI KATL 072021Z 27009G16KT 10SM VCTS SCT043CB SCT250 32/21 A3002 RMK AO2 LTG DSNT NE AND NW OCNL LTGICCG VC NW TS VC NW MOV E CB DSNT NW-NE T03220211=
201707071952 METAR KATL 071952Z 27011KT 10SM SCT045TCU SCT250 32/22 A3002 RMK AO2 SLP155 LTG DSNT NE & NW CB DSNT NE & NW TCU S-W T03220222=
201707071852 METAR KATL 071852Z 28013KT 10SM SCT040TCU SCT250 32/22 A3004 RMK AO2 SLP161 LTG DSNT NE CB DSNT NE TCU NW T03220217=
201707071752 METAR KATL 071752Z 25008G19KT 10SM SCT040TCU SCT150 SCT250 31/22 A3007 RMK AO2 SLP171 LTG DSNT NE & S CB DSNT NE & S TCU N T03110217 10317 20250 58015=
201707071652 METAR KATL 071652Z 27012KT 10SM SCT035TCU SCT250 31/23 A3009 RMK AO2 LTG DSNT NE AND NW SLP179 CB DSNT N & NE & NW TCU N-NE & SE & SW-W T03110228=
201707071552 METAR KATL 071552Z 28011KT 10SM SCT030 30/22 A3011 RMK AO2 SLP185 TCU DSNT N MDT CU SW-NW T03000222=
201707071452 METAR KATL 071452Z 28009KT 10SM FEW025 FEW250 29/24 A3011 RMK AO2 SLP186 T02940239 51005=
201707071352 METAR KATL 071352Z 29009KT 10SM FEW020 FEW250 29/23 A3011 RMK AO2 SLP186 CB DSNT N TCU DSNT NW T02890233=
201707071252 METAR KATL 071252Z 29011KT 10SM FEW040 FEW150 SCT200 SCT250 27/23 A3011 RMK AO2 SLP185 CB DSNT N & NW TCU DSNT W-NW T02670228=
201707071152 METAR KATL 071152Z 26007KT 10SM FEW040 FEW150 FEW200 SCT250 25/22 A3010 RMK AO2 SLP181 CB DSNT W-NW TCU DSNT NW-N T02500222 10250 20222 51010=
201707071052 METAR KATL 071052Z 25004KT 10SM FEW040 FEW150 SCT200 SCT250 24/21 A3009 RMK AO2 SLP177 CB DSNT NE & NW-N TCU DSNT N & NE T02390211=
201707070952 METAR KATL 070952Z 25005KT 10SM FEW150 FEW200 SCT250 23/21 A3008 RMK AO2 SLP173 CB DSNT N & NE TCU DSNT NW-N T02330206=
201707070852 METAR KATL 070852Z 23005KT 10SM FEW250 22/20 A3007 RMK AO2 SLP171 T02220200 56010=
201707070752 METAR KATL 070752Z 22005KT 10SM FEW080 FEW150 SCT250 23/20 A3007 RMK AO2 SLP173 T02280200=
201707070652 METAR KATL 070652Z 23003KT 10SM FEW150 SCT250 23/20 A3008 RMK AO2 SLP176 T02280200=
201707070552 METAR KATL 070552Z 23003KT 10SM FEW045 FEW150 SCT250 23/20 A3010 RMK AO2 SLP180 T02330200 10267 20233 50001=
201707070452 METAR KATL 070452Z 27003KT 10SM FEW150 SCT250 24/19 A3011 RMK AO2 SLP185 T02390194 403280228=
201707070352 METAR KATL 070352Z 27005KT 10SM FEW150 SCT250 24/20 A3011 RMK AO2 SLP186 T02390200=
201707070252 METAR KATL 070252Z 30005KT 10SM FEW100 SCT250 24/19 A3010 RMK AO2 SLP181 T02440194 51005=
201707070152 METAR KATL 070152Z 29005KT 10SM FEW100 SCT200 BKN250 24/20 A3009 RMK AO2 SLP178 T02440200=
201707070052 METAR KATL 070052Z 30007KT 10SM FEW100 SCT200 BKN250 26/20 A3010 RMK AO2 TSE2355 SLP180 T02560200=
201707062355 SPECI KATL 062355Z 31009G19KT 10SM FEW045 SCT100 BKN200 BKN250 27/20 A3008 RMK AO2 TSE55 TS DSIPTD T02670200=
201707062352 METAR KATL 062352Z 32009G19KT 10SM TS FEW045CB SCT100 BKN200 BKN250 27/20 A3008 RMK AO2 SLP176 TSB38 OCNL LTGIC NE TS VC NE MOV E T02670200 10328 20267 55009=
201707062338 SPECI KATL 062338Z 30012G24KT 10SM TS FEW045CB SCT070 BKN200 BKN250 28/21 A3009 RMK AO2 LTG DSNT NW TSE36B38 OCNL LTGIC NW-N TS VC NW-N MOV E T02830206=
201707062252 METAR KATL 062252Z 23008KT 10SM FEW045TCU SCT200 BKN250 31/21 A3008 RMK AO2 SLP174 LTG DSNT NW CB DSNT W-NW TCU NE & DSNT SW-W T03110211=
201707062152 METAR KATL 062152Z 23009KT 10SM FEW048TCU SCT100 BKN250 32/21 A3009 RMK AO2 SLP176 TCU NE T03170211=
201707062052 METAR KATL 062052Z 24008KT 10SM FEW047TCU SCT100 SCT250 32/21 A3011 RMK AO2 SLP184 CB DSNT N-NE TCU N-NE-E & SW-NW SHRA DSNT N-NE T03220206 56012=
201707061952 METAR KATL 061952Z 22006KT 10SM BKN040TCU BKN250 31/23 A3011 RMK AO2 LTG DSNT N AND NW SLP185 CB DSNT N & E & NW TCU NE-E & OHD-NW SHRA VC NE-E T03110228=
201707061852 METAR KATL 061852Z 17008KT 10SM BKN045TCU BKN250 32/23 A3012 RMK AO2 SLP188 CB DSNT NE & SE & NW TCU NE-E & OHD-NW T03170228=
201707061752 METAR KATL 061752Z 27008KT 230V310 10SM SCT040TCU SCT250 32/22 A3014 RMK AO2 LTG DSNT NE SLP196 CB DSNT N & NE & S TCU E & S SHRA DSNT N & NE & S T03170217 10317 20244 58010=
201707061652 METAR KATL 061652Z 22007KT 10SM BKN040TCU BKN250 30/22 A3017 RMK AO2 LTG DSNT N AND NW SLP205 CB DSNT NW-N TCU NE & E-SE & SW-NW T03000217=
201707061552 METAR KATL 061552Z VRB06KT 10SM SCT032 SCT250 29/22 A3018 RMK AO2 SLP209 MDT CU ALQDS T02940222=
201707061452 METAR KATL 061452Z 30010KT 10SM FEW030 FEW200 BKN250 29/23 A3018 RMK AO2 SLP207 T02940228 51006=
201707061352 METAR KATL 061352Z 30010KT 10SM FEW025 FEW150 BKN250 28/23 A3018 RMK AO2 SLP207 TCU DSNT NW-N T02780228=
201707061252 METAR KATL 061252Z 28007KT 10SM FEW040 FEW150 SCT200 SCT250 27/22 A3017 RMK AO2 SLP205 CB DSNT NW-N TCU DSNT NW T02670222=
201707061152 METAR KATL 061152Z 26004KT 10SM FEW040 FEW150 SCT200 SCT250 24/22 A3016 RMK AO2 SLP203 CB DSNT N & NW T02440217 10244 20228 53007=
201707061052 METAR KATL 061052Z 25004KT 10SM FEW042 FEW150 SCT200 SCT250 24/21 A3014 RMK AO2 SLP196 CB DSNT NW-N TCU DSNT NW T02390206=
201707060952 METAR KATL 060952Z 00000KT 10SM FEW150 SCT200 SCT250 23/21 A3014 RMK AO2 SLP194 T02330206=
201707060852 METAR KATL 060852Z 00000KT 10SM FEW250 24/21 A3014 RMK AO2 SLP193 T02390206 55002=
201707060752 METAR KATL 060752Z 00000KT 10SM FEW150 SCT250 23/21 A3013 RMK AO2 SLP193 T02330206=
201707060652 METAR KATL 060652Z 19003KT 10SM FEW150 SCT250 24/21 A3013 RMK AO2 SLP192 T02390206=
201707060552 METAR KATL 060552Z 00000KT 10SM SCT150 SCT250 24/20 A3014 RMK AO2 SLP196 T02440200 10272 20239 50000=
201707060452 METAR KATL 060452Z 00000KT 10SM SCT150 BKN250 24/21 A3015 RMK AO2 SLP199 T02440206 403330222=
201707060352 METAR KATL 060352Z 19003KT 10SM FEW150 SCT200 BKN250 25/20 A3015 RMK AO2 SLP198 T02500200=
201707060252 METAR KATL 060252Z 28003KT 10SM FEW150 BKN200 BKN250 26/19 A3014 RMK AO2 SLP196 T02560194 53005=
201707060152 METAR KATL 060152Z 02004KT 10SM FEW150 SCT200 BKN250 27/19 A3013 RMK AO2 SLP191 T02720189=
201707060052 METAR KATL 060052Z 35003KT 10SM FEW150 SCT200 BKN250 26/19 A3013 RMK AO2 SLP194 T02610189=
201707052352 METAR KATL 052352Z 32010KT 10SM FEW045 SCT200 BKN250 27/19 A3013 RMK AO2 PK WND 33028/2316 LTG DSNT E SLP192 CB DSNT NE-E T02670189 10333 20267 55002=
201707052252 METAR KATL 052252Z 28009KT 10SM FEW045TCU SCT060 SCT200 BKN250 31/21 A3012 RMK AO2 LTG DSNT NW SLP189 CB DSNT NW TCU VC NE & W-NW T03110206=
201707052152 METAR KATL 052152Z 22007KT 10SM FEW050 SCT200 BKN250 32/21 A3012 RMK AO2 SLP187 TCU DSNT NW T03220211=
201707052052 METAR KATL 052052Z 24007KT 10SM FEW050TCU SCT150 BKN250 31/22 A3014 RMK AO2 SLP194 TCU N-NE & S-SW-W T03110217 56009=
201707051952 METAR KATL 051952Z 20007KT 10SM FEW045TCU SCT150 SCT250 31/21 A3014 RMK AO2 SLP194 TCU SW-W T03110211=
201707051852 METAR KATL 051852Z 27007G14KT 10SM SCT045 SCT250 32/21 A3015 RMK AO2 SLP197 CB DSNT NW MDT CU NE-SE-SW T03220211=
201707051752 METAR KATL 051752Z 21008KT 180V250 10SM SCT045TCU SCT250 32/21 A3016 RMK AO2 SLP203 TCU NE & SW & W CB DSNT NW T03170211 10317 20233 58007=
201707051652 METAR KATL 051652Z 25005KT 10SM FEW040 FEW250 31/22 A3017 RMK AO2 SLP205 CB DSNT NW TCU DSNT N-NE T03060217=
201707051552 METAR KATL 051552Z 27008KT 10SM SCT035 SCT250 31/23 A3018 RMK AO2 SLP210 MDT CU ALQDS T03060228=
201707051452 METAR KATL 051452Z 23009KT 10SM FEW025 FEW200 29/23 A3018 RMK AO2 SLP210 T02940233 51009=
201707051352 METAR KATL 051352Z 24006KT 10SM FEW200 28/23 A3018 RMK AO2 SLP208 T02830228=
201707051252 METAR KATL 051252Z 22005KT 10SM FEW200 25/23 A3017 RMK AO2 SLP209 T02500228=
201707051152 METAR KATL 051152Z 23003KT 9SM FEW200 23/22 A3016 RMK AO2 SLP203 70063 T02330217 10233 20222 53011=
201707051052 METAR KATL 051052Z 00000KT 9SM FEW200 22/21 A3014 RMK AO2 SLP200 T02220211=
201707050952 METAR KATL 050952Z 00000KT 10SM FEW045 FEW200 22/21 A3013 RMK AO2 SLP195 T02220211=
201707050852 METAR KATL 050852Z 00000KT 9SM CLR 22/21 A3012 RMK AO2 SLP191 T02220206 53000=
201707050752 METAR KATL 050752Z 23003KT 8SM FEW040 22/21 A3012 RMK AO2 SLP189 T02220206=
201707050652 METAR KATL 050652Z 20004KT 8SM FEW040 FEW200 22/21 A3012 RMK AO2 SLP189 VIS LWR E-S-SW T02220211=
201707050552 METAR KATL 050552Z 00000KT 5SM BR FEW040 SCT200 23/22 A3012 RMK AO2 SLP189 VIS LWR E-S 60000 T02280217 10239 20222 50002=
201707050452 METAR KATL 050452Z 00000KT 4SM BR FEW040 SCT200 23/22 A3013 RMK AO2 SLP190 VIS E-S-SW 2 T02280217 403220217=
201707050352 METAR KATL 050352Z 19004KT 5SM BR FEW150 23/22 A3013 RMK AO2 SLP190 VIS E-S-SW 2 T02280217=
201707050252 METAR KATL 050252Z 00000KT 10SM FEW150 SCT250 23/22 A3012 RMK AO2 SLP187 VIS LWR SW BCFG 60000 T02280217 53010=
201707050152 METAR KATL 050152Z 00000KT 10SM FEW120 SCT200 SCT250 23/22 A3011 RMK AO2 SLP186 T02330222=
201707050052 METAR KATL 050052Z 00000KT 10SM FEW120 SCT200 BKN250 23/21 A3008 RMK AO2 RAE06 SLP178 P0000 T02330211=
201707042352 METAR KATL 042352Z 21003KT 10SM -RA FEW070 BKN130 BKN200 BKN250 23/22 A3009 RMK AO2 SLP179 PCPN VRY LGT P0001 60063 T02330217 10322 20217 50001=
201707042252 METAR KATL 042252Z 30004KT 9SM -RA FEW060 BKN100 BKN150 BKN200 23/21 A3009 RMK AO2 PK WND 29028/2156 TSE52 SLP183 LTG DSNT SE TS MOV E CB DSNT SE P0038 T02280211=
201707042206 SPECI KATL 042206Z 28009G27KT 5SM TSRA BR FEW015CB BKN035 BKN070 OVC150 22/21 A3012 RMK AO2 PK WND 29028/2156 VIS LWR NE-SE OCNL LTGIC OHD-ALQDS TS OHD-ALQDS MOV E P0035 T02170206=
201707042152 METAR KATL 042152Z 28016G24KT 1 1/2SM R09R/4000VP6000FT +TSRA BR SCT015CB BKN030 BKN070 OVC150 22/21 A3013 RMK AO2 PK WND 30028/2136 WSHFT 2133 RAB2058 TSB35 SLP195 OCNL LTGICCG OHD-ALQDS TS OHD-ALQDS MOV E P0024 T02220211=
201707042144 SPECI KATL 042144Z 29017G28KT 1 1/2SM +TSRA BR SCT015CB BKN030 BKN070 BKN200 23/22 A3012 RMK AO2 PK WND 30028/2136 RAB2058 TSB35 PRESRR VIS LWR SW-NW OCNL LTGICCG NE-OHD-SW TS NE-OHD-SW MOV E P0011 T02330217=
201707042135 SPECI KATL 042135Z 33017G27KT 9SM -TSRA FEW015CB BKN030 BKN070 BKN200 26/23 A3010 RMK AO2 PK WND 33027/2132 RAB2058 TSB35 VIS LWR SW-NW OCNL LTGICCG SW-NW-N TS SW-NW-N MOV E P0009 T02560228=
201707042111 SPECI KATL 042111Z 02009KT 7SM -RA FEW030CB BKN040TCU BKN070 BKN200 27/23 A3008 RMK AO2 LTG DSNT W AND NW RAB2058 VIS LWR NE-SE CB NE-SE & DSNT SW-NW MOV E TCU OHD-ALQDS P0007 T02670233=
201707042104 SPECI KATL 042104Z 35010KT 1 1/2SM R09R/5000VP6000FT +RA SCT030CB BKN040TCU BKN070 BKN200 28/23 A3009 RMK AO2 LTG DSNT W AND NW RAB2058 CB NE-OHD-SW & DSNT SW-NW MOV E TCU OHD-ALQDS P0001 T02780228=
201707042052 METAR KATL 042052Z 02008KT 10SM FEW030CB BKN040TCU BKN070 BKN200 28/21 A3008 RMK AO2 LTG DSNT W AND NW SLP177 CB VC NE & NW & DSNT W MOV E TCU OHD & ALQDS SHRA VC NE & NW T02830211 56006=
201707041952 METAR KATL 041952Z 24007KT 210V270 10SM FEW047TCU SCT100 SCT200 32/22 A3008 RMK AO2 LTG DSNT NW-NE SLP176 CB DSNT NW-N-NE TCU S SHRA DSNT NW-N-NE T03220222=
201707041852 METAR KATL 041852Z 26011KT 10SM FEW043TCU SCT070 SCT200 32/22 A3009 RMK AO2 LTG DSNT N AND NW SLP179 CB DSNT NW-N TCU N & E T03170217=
201707041752 METAR KATL 041752Z 28007KT 10SM FEW043 FEW200 31/21 A3010 RMK AO2 SLP182 CB DSNT NW T03110211 10311 20233 58010=
201707041652 METAR KATL 041652Z 24009KT 10SM SCT040 31/23 A3012 RMK AO2 SLP188 T03060228=
201707041552 METAR KATL 041552Z 24011KT 10SM FEW035 30/22 A3013 RMK AO2 SLP192 T03000217=
201707041452 METAR KATL 041452Z 24011G17KT 10SM FEW030 FEW200 29/22 A3013 RMK AO2 SLP192 T02890217 50001=
201707041352 METAR KATL 041352Z 24009KT 9SM FEW200 27/22 A3014 RMK AO2 SLP195 T02720217=
201707041252 METAR KATL 041252Z 21004KT 10SM FEW200 25/21 A3014 RMK AO2 SLP195 T02500206=
201707041152 METAR KATL 041152Z 00000KT 10SM FEW200 23/21 A3013 RMK AO2 SLP191 70001 T02330206 10239 20222 53014=
201707041052 METAR KATL 041052Z 00000KT 10SM FEW200 22/20 A3011 RMK AO2 SLP186 T02220200=
201707040952 METAR KATL 040952Z 00000KT 10SM CLR 22/20 A3009 RMK AO2 SLP179 T02220200=
201707040852 METAR KATL 040852Z 33004KT 10SM CLR 22/21 A3009 RMK AO2 SLP177 T02220206 53004=
201707040752 METAR KATL 040752Z 31006KT 10SM CLR 22/21 A3007 RMK AO2 SLP172 T02220206=
201707040652 METAR KATL 040652Z 30003KT 10SM CLR 22/21 A3008 RMK AO2 SLP173 T02220206=
201707040552 METAR KATL 040552Z 29007KT 10SM CLR 23/21 A3007 RMK AO2 SLP173 T02280206 10294 20228 56008=
201707040452 METAR KATL 040452Z 26004KT 10SM FEW150 24/21 A3008 RMK AO2 SLP175 T02390206 403110217=
201707040352 METAR KATL 040352Z 26005KT 10SM FEW150 24/21 A3008 RMK AO2 SLP177 T02440211=
201707040252 METAR KATL 040252Z 30006KT 10SM SCT150 SCT250 26/21 A3010 RMK AO2 SLP183 T02560211 53008=
201707040152 METAR KATL 040152Z 00000KT 10SM FEW150 SCT250 27/21 A3008 RMK AO2 SLP174 T02720211=
201707040052 METAR KATL 040052Z 30005KT 10SM FEW040 SCT250 27/21 A3008 RMK AO2 LTG DSNT W SLP177 CB DSNT SW-W T02720211=
201707032352 METAR KATL 032352Z 32009KT 10SM FEW040 SCT250 29/21 A3007 RMK AO2 SLP172 T02940211 10311 20283 53001=
201707032252 METAR KATL 032252Z 28009KT 10SM SCT040 SCT250 30/21 A3007 RMK AO2 SLP171 T03000206=
201707032152 METAR KATL 032152Z VRB06KT 10SM SCT045 30/22 A3006 RMK AO2 SLP169 T03000217=
201707032052 METAR KATL 032052Z 28008KT 10SM SCT042 31/22 A3007 RMK AO2 SLP171 T03060217 56016=
201707031952 METAR KATL 031952Z 30010KT 10SM SCT040 31/22 A3008 RMK AO2 SLP174 T03060217=
201707031852 METAR KATL 031852Z 27008KT 10SM SCT035 30/22 A3010 RMK AO2 SLP180 T03000217=
201707031752 METAR KATL 031752Z 28012KT 10SM BKN032 BKN046 29/22 A3012 RMK AO2 SLP187 MDT CU ALQDS 60001 T02890222 10289 20222 58005=
201707031652 METAR KATL 031652Z 29007KT 10SM FEW020 BKN030 BKN050 BKN200 27/23 A3014 RMK AO2 SLP195 MDT CU ALQDS T02720228=
201707031624 SPECI KATL 031624Z 25007KT 10SM FEW016 BKN025 BKN055 27/23 A3014 RMK AO2 T02670228=
201707031552 METAR KATL 031552Z 28009KT 10SM FEW009 SCT015 BKN150 26/23 A3014 RMK AO2 SLP198 T02610228=
201707031525 SPECI KATL 031525Z 26007KT 10SM FEW009 BKN015 BKN023 25/23 A3014 RMK AO2 T02500228=
201707031511 SPECI KATL 031511Z 28006KT 10SM FEW007 BKN014 BKN025 24/23 A3014 RMK AO2 T02440228=
201707031452 METAR KATL 031452Z 26004KT 10SM OVC009 23/22 A3013 RMK AO2 RAE1356 SLP195 P0000 60001 T02330222 53001=
201707031419 SPECI KATL 031419Z 24005KT 10SM OVC008 23/22 A3013 RMK AO2 RAE1356 P0000 T02330222=
201707031352 METAR KATL 031352Z 23005KT 6SM -RA BR FEW008 BKN012 OVC044 23/22 A3013 RMK AO2 RAB25 SLP193 P0001 T02280217=
201707031347 SPECI KATL 031347Z 24006KT 4SM -RA BR FEW008 BKN014 OVC044 22/22 A3013 RMK AO2 RAB25 P0001=
201707031335 SPECI KATL 031335Z 25004KT 2SM RA BR FEW008 OVC014 23/21 A3013 RMK AO2 RAB25 P0001 T02280211=
201707031309 SPECI KATL 031309Z 25006KT 10SM FEW008 BKN018 OVC040 23/21 A3013 RMK AO2 T02330206=
201707031252 METAR KATL 031252Z 26007KT 10SM FEW012 SCT026 BKN085 24/21 A3013 RMK AO2 SLP192 T02390211=
201707031152 METAR KATL 031152Z 00000KT 10SM FEW003 SCT028 SCT080 SCT180 22/21 A3012 RMK AO2 SLP189 60010 70065 T02220206 10233 20217 53019=
201707031052 METAR KATL 031052Z 28005KT 10SM FEW003 BKN100 22/21 A3009 RMK AO2 SLP180 VIS LWR SE-SW T02170211=
201707030952 METAR KATL 030952Z 24004KT 10SM OVC085 22/21 A3007 RMK AO2 SLP170 BINOVC T02220211=
201707030852 METAR KATL 030852Z 00000KT 10SM FEW009 OVC080 23/21 A3006 RMK AO2 RAE18 SLP168 P0001 60010 T02280206 58015=
201707030752 METAR KATL 030752Z 02006KT 7SM -RA FEW006 BKN048 OVC065 22/21 A3010 RMK AO2 RAB0658 SLP181 P0009 T02220211=
201707030729 SPECI KATL 030729Z 25008KT 4SM RA BR FEW006 BKN033CB OVC070 22/22 A3012 RMK AO2 RAB0658 CB NE MOV NE P0005 T02220217=
201707030652 METAR KATL 030652Z 23008KT 10SM BKN006 OVC070 23/22 A3012 RMK AO2 RAB22E52 SLP188 P0000 T02280217=
201707030552 METAR KATL 030552Z 22005KT 10SM FEW005 BKN070 BKN090 BKN130 OVC200 23/22 A3011 RMK AO2 SLP184 60055 T02280222 10283 20222 58008=
201707030452 METAR KATL 030452Z 26003KT 10SM FEW005 SCT065 BKN090 BKN140 OVC200 23/22 A3011 RMK AO2 RAE48 TSE04 SLP186 TS DSIPTD P0010 T02280222 403170211=
201707030405 SPECI KATL 030405Z 26005KT 8SM -RA FEW006 SCT050 BKN080 OVC130 23/22 A3013 RMK AO2 TSE04 TS DSIPTD P0002 T02280217=
201707030352 METAR KATL 030352Z 24004KT 6SM -TSRA BR FEW006 FEW038CB BKN070 OVC130 22/22 A3013 RMK AO2 SLP194 OCNL LTGICCA SE-S TS SE-S MOV E P0045 T02220217=
201707030325 SPECI KATL 030325Z 27006KT 3SM TSRA BR FEW008 BKN033CB OVC065 23/22 A3014 RMK AO2 FRQ LTGICCCCA N-OHD-S TS N-OHD-S MOV E P0043 T02280217=
201707030259 SPECI KATL 030259Z 26009KT 2 1/2SM TSRA BR FEW007 BKN016 OVC036CB 23/22 A3014 RMK AO2 FRQ LTGICCCCA OHD-S-W TS OHD-S-W MOV E SHELF CLOUD N-OHD-S MOV E P0003 T02330222=
201707030252 METAR KATL 030252Z 23008KT 6SM -TSRA SCT016 BKN038CB OVC080 24/22 A3013 RMK AO2 RAB47 SLP194 FRQ LTGICCGCCCA S-W TS S-W MOV E SHELF CLOUD S-W MOV E P0000 60000 T02440217 53006=
201707030152 METAR KATL 030152Z 10007KT 10SM TS SCT038CB SCT100 BKN150 BKN200 25/22 A3011 RMK AO2 TSB49 SLP186 FRQ LTGICCGCA VC SW-NW TS VC SW-NW MOV E T02500222=
201707030052 METAR KATL 030052Z 10008KT 10SM FEW040TCU FEW100 SCT200 BKN250 26/22 A3010 RMK AO2 WSHFT 2348 SLP184 OCNL LTGICCA DSNT SW-NW CB DSNT SW-NW TCU S-SW T02610222=
201707030004 SPECI KATL 030004Z 08014KT 10SM FEW032CB FEW044TCU FEW100 BKN200 27/22 A3011 RMK AO2 WSHFT 2348 CB E-SE MOV SE CB DSNT W-NW TCU SE SHRA E-SE T02720222=
201707022352 METAR KATL 022352Z 06014KT 10SM FEW036CB SCT046TCU SCT100 BKN200 28/22 A3011 RMK AO2 SLP187 CB E-SE MOV SE TCU N & NE & SE-OHD-NW SHRA E-SE T02830222 10317 20283 53001=
201707022252 METAR KATL 022252Z 24006KT 10SM FEW042TCU FEW100 SCT200 BKN250 31/21 A3009 RMK AO2 SLP179 CB DSNT NE-SE TCU NW-NE-SE & DSNT SW T03060211=
201707022152 METAR KATL 022152Z 26007KT 10SM FEW044TCU FEW100 SCT200 BKN250 31/21 A3009 RMK AO2 SLP180 CB DSNT N & NE & SE TCU N-E-SE T03110211=
201707022052 METAR KATL 022052Z 29009KT 10SM SCT042 SCT100 BKN250 32/22 A3011 RMK AO2 SLP185 CB DSNT NE-E MDT CU ALQDS T03170217 56014=
201707021952 METAR KATL 021952Z 26009KT 10SM SCT038 BKN140 BKN250 31/22 A3011 RMK AO2 SLP186 CB DSNT E MDT CU ALQDS T03060217=
201707021852 METAR KATL 021852Z 28008KT 10SM SCT038 BKN080 BKN250 30/22 A3013 RMK AO2 SLP193 CB DSNT E-SE MDT CU ALQDS T03000217=
201707021752 METAR KATL 021752Z 32005KT 10SM FEW035 SCT120 BKN200 31/21 A3015 RMK AO2 SLP200 CB DSNT E AND SE T03060211 10306 20228 58012=
201707021652 METAR KATL 021652Z VRB04KT 10SM FEW026 BKN080 BKN120 29/22 A3018 RMK AO2 SLP211 T02890222=
201707021552 METAR KATL 021552Z VRB06KT 10SM FEW022 BKN090 BKN200 29/23 A3019 RMK AO2 SLP212 T02890228=
201707021452 METAR KATL 021452Z VRB03KT 10SM FEW024 BKN140 27/22 A3019 RMK AO2 SLP213 T02670222 51011=
201707021352 METAR KATL 021352Z 27004KT 10SM BKN130 25/22 A3018 RMK AO2 SLP212 T02500217=
201707021252 METAR KATL 021252Z 27005KT 10SM BKN130 BKN200 BKN250 23/21 A3018 RMK AO2 SLP209 T02330211=
201707021152 METAR KATL 021152Z 26004KT 10SM FEW150 SCT200 BKN250 22/21 A3015 RMK AO2 SLP202 70001 T02220211 10228 20211 53016=
201707021052 METAR KATL 021052Z 26003KT 9SM FEW100 FEW150 SCT250 21/21 A3014 RMK AO2 SLP196 ACC NE AND NW T02110206=
201707020952 METAR KATL 020952Z 29004KT 10SM FEW003 FEW150 22/21 A3012 RMK AO2 SLP188 T02170206=
201707020852 METAR KATL 020852Z 28003KT 10SM FEW003 FEW150 22/21 A3011 RMK AO2 SLP185 T02170211 56016=
201707020752 METAR KATL 020752Z 00000KT 7SM FEW005 SCT150 22/21 A3012 RMK AO2 SLP190 T02170211=
201707020652 METAR KATL 020652Z 19004KT 8SM FEW005 SCT150 BKN200 22/21 A3014 RMK AO2 SLP194 T02220211=
201707020552 METAR KATL 020552Z 03004KT 10SM FEW006 SCT110 BKN180 23/21 A3015 RMK AO2 SLP200 60001 T02280211 10267 20222 50010=
201707020452 METAR KATL 020452Z 18003KT 10SM FEW006 FEW018 SCT110 BKN200 22/22 A3016 RMK AO2 SLP204 T02220217 403000217=
201707020446 SPECI KATL 020446Z 19005KT 10SM FEW008 FEW020 SCT120 BKN200 22/22 A3016 RMK AO2=
201707020352 METAR KATL 020352Z 30004KT 10SM FEW085 SCT120 BKN180 BKN250 23/22 A3014 RMK AO2 RAB0254E27 SLP198 P0001 T02280217=
201707020252 METAR KATL 020252Z 22007KT 10SM FEW055 SCT120 BKN180 BKN250 23/21 A3012 RMK AO2 LTG DSNT SW TSE50 SLP192 TS DSIPTD CB DSNT S-SW 60000 T02330211 50001 $=
201707020228 SPECI KATL 020228Z 25007KT 10SM TS FEW038CB FEW060 SCT110 BKN200 23/21 A3013 RMK AO2 LTG DSNT W OCNL LTGICCGCA VC SW TS VC SW MOV SE CB DSNT S-W T02330211 $=
201707020152 METAR KATL 020152Z 00000KT 10SM TS FEW034CB FEW055 SCT090 BKN200 24/21 A3014 RMK AO2 RAE00 TSE25B52 SLP197 FRQ LTGICCGCA VC SW-NW TS VC SW-NW MOV SE P0000 T02390206 $=
201707020126 SPECI KATL 020126Z 04005KT 10SM FEW036 FEW055 SCT085 BKN200 24/21 A3013 RMK AO2 RAE00 TSE25 TS DSIPTD OCNL LTGICCCCA DSNT SW-NW CB DSNT SW-NW P0000 T02440206 $=
201707020052 METAR KATL 020052Z 03007KT 10SM -TSRA FEW036CB FEW050TCU SCT090 BKN200 24/21 A3013 RMK AO2 LTG DSNT SE AND NW SLP194 OCNL LTGICCCCA VC SE & W-NW TS VC SE & W-NW MOV E CB DSNT ALQDS TCU SE P0000 T02440206 $=
201707020019 SPECI KATL 020019Z 03007KT 10SM -TSRA FEW018 SCT036CB SCT075 BKN200 25/21 A3013 RMK AO2 OCNL LTGICCCCA E-S-SW TS E-S-SW MOV E CB DSNT ALQDS P0000 T02500211 $=
201707012352 METAR KATL 012352Z 32014KT 10SM -TSRA SCT034CB BKN055 BKN090 BKN200 27/22 A3012 RMK AO2 LTG DSNT ALQDS RAB50 TSB17 SLP191 OCNL LTGICCA SW-NW-NE TS SW-NW-NE MOV E CB DSNT ALQDS TCU S-SW P0000 60000 T02670217 10300 20267 53014 $=
201707012318 SPECI KATL 012318Z 29007KT 10SM TS FEW032CB SCT042TCU SCT110 BKN200 27/21 A3010 RMK AO2 LTG DSNT SW AND W TSB17 OCNL LTGICCA SW-NW TS SW-NW MOV E CB DSNT ALQDS TCU NW-NE T02670211 $=
201707012252 METAR KATL 012252Z 24008KT 10SM FEW036 FEW055 FEW110 BKN200 28/21 A3008 RMK AO2 LTG DSNT E AND SE AND W SLP176 TSE05 TS DSIPTD CB DSNT ALQDS TCU DSNT SE-S T02780206 $=
201707012207 SPECI KATL 012207Z 23009G18KT 10SM FEW036TCU FEW050 SCT130 BKN200 28/22 A3009 RMK AO2 LTG DSNT S AND SW TSE05 TS DSIPTD CB DSNT N-NE & SE-SW-NW TCU SE T02830217 $=
201707012152 METAR KATL 012152Z 25008KT 10SM VCTS FEW034CB FEW044TCU SCT120 BKN200 28/22 A3008 RMK AO2 LTG DSNT ALQDS RAB37E48 SLP175 OCNL LTGICCGCA VC S-SW TS VC S-SW MOV E CB DSNT ALQDS TCU SE P0000 T02780217 $=
201707012052 METAR KATL 012052Z 22007KT 10SM VCTS FEW037CB SCT045 BKN150 28/23 A3008 RMK AO2 LTG DSNT N AND W SLP176 TSB15E40B47 OCNL LTGCG VC N AND W TS VC N AND W MOV E P0000 60000 T02830233 56013 $=
201707012045 SPECI KATL 012045Z 23006KT 10SM FEW037 SCT045 BKN150 29/23 A3008 RMK AO2 LTG DSNT SW-N TSB15E40 CB DSNT SW-N P0000 T02890233 $=
201707012021 SPECI KATL 012021Z 22006KT 10SM VCTS -RA SCT033CB SCT041 BKN100 29/23 A3009 RMK AO2 LTG DSNT SW AND W TSB15 OCNL LTGCG VC SW AND W TS VC SW AND W MOV E P0000 T02890233 $=
201707011952 METAR KATL 011952Z 21007KT 10SM FEW029TCU SCT036 BKN044 BKN150 29/23 A3009 RMK AO2 LTG DSNT W AND NW SLP179 CB DSNT N AND NW TCU NE T02890233 $=
201707011852 METAR KATL 011852Z 20007KT 10SM BKN032TCU 29/23 A3011 RMK AO2 SLP185 TCU S T02940233 $=
201707011752 METAR KATL 011752Z 24009KT 220V280 10SM SCT028 BKN036 29/23 A3012 RMK AO2 SLP190 T02890228 10294 20222 58004 $=
201707011652 METAR KATL 011652Z 24007KT 10SM SCT022 BKN034 28/23 A3013 RMK AO2 SLP192 T02830233 $=
201707011636 SPECI KATL 011636Z 27006KT 10SM SCT023 BKN031 28/23 A3013 RMK AO2 T02830233 $=
201707011602 SPECI KATL 011602Z 28009KT 10SM BKN022 27/23 A3014 RMK AO2 T02720228 $=
201707011552 METAR KATL 011552Z 28010KT 10SM SCT020 28/23 A3014 RMK AO2 SLP195 T02780228 $=
201707011541 SPECI KATL 011541Z 25007KT 220V300 10SM SCT017 27/23 A3013 RMK AO2 T02720228 $=
201707011509 SPECI KATL 011509Z 29009KT 10SM BKN017 26/23 A3014 RMK AO2 T02610228 $=
201707011452 METAR KATL 011452Z 28006KT 10SM BKN014 26/22 A3013 RMK AO2 SLP195 T02560222 50005 $=
201707011411 SPECI KATL 011411Z AUTO 27010KT 10SM BKN012 BKN200 25/22 A3014 RMK AO2 T02500222 $=
201707011352 METAR KATL 011352Z 28010KT 10SM SCT012 BKN040 BKN200 25/22 A3013 RMK AO2 SLP195 T02500222 $=
201707011341 SPECI KATL 011341Z 25009KT 10SM SCT011 BKN037 24/22 A3013 RMK AO2 T02440217 $=
201707011315 SPECI KATL 011315Z 25006KT 10SM BKN010 BKN035 23/22 A3013 RMK AO2 T02330217 $=
201707011252 METAR KATL 011252Z 25006KT 10SM BKN008 BKN030 23/22 A3012 RMK AO2 SLP192 BKN008 V SCT T02330217 $=
201707011247 SPECI KATL 011247Z 24007KT 10SM BKN008 BKN030 23/22 A3012 RMK AO2 BKN008 V SCT $=
