##########################################################
# Query made at 04/19/2024 23:56:37 UTC
# Time interval: from 11/01/2017 12:00  to 11/30/2017 12:59  UTC
##########################################################

##########################################################
# KATL, Atlanta, Hartsfield - Jackson Atlanta International Airport (United States)
# WMO index: 72219. WIGOS ID: 0-20000-0-72219
# Latitude 33-38-59N. Longitude 084-25-00W. Altitude 312 m.
##########################################################

201711301252 METAR KATL 301252Z 00000KT 7SM FEW033 SCT050 BKN100 BKN250 12/12 A3020 RMK AO2 SLP227 ACC W-N T01170117=
201711301152 METAR KATL 301152Z 15003KT 7SM FEW002 BKN034 BKN060 BKN130 12/12 A3020 RMK AO2 SLP227 T01170117 10122 20111 53002=
201711301133 SPECI KATL 301133Z 15004KT 7SM FEW002 BKN035 OVC060 12/12 A3020 RMK AO2 T01170117=
201711301052 METAR KATL 301052Z 15004KT 3SM BCFG FEW001 SCT040 BKN065 OVC130 12/12 A3019 RMK AO2 SFC VIS 7 SLP224 VIS E-SE 2 T01170117=
201711300952 METAR KATL 300952Z 00000KT 3SM BR FEW001 BKN100 11/11 A3019 RMK AO2 SFC VIS 6 SLP222 VIS NE-SE 2 T01110111=
201711300928 SPECI KATL 300928Z 32004KT 3SM BR SCT001 OVC100 11/11 A3019 RMK AO2 VIS NE-SE 1 T01110111=
201711300905 SPECI KATL 300905Z 33003KT 1SM R09R/P6000FT BR BKN001 OVC110 11/11 A3019 RMK AO2 VIS SW-W 3 T01110111=
201711300852 METAR KATL 300852Z 32003KT 1/8SM R09R/2800V5000FT FG BKN001 OVC110 11/11 A3020 RMK AO2 SFC VIS 1/2 SLP223 T01110111 56004=
201711300829 SPECI KATL 300829Z 35003KT 1/8SM R09R/1400V3000FT FG VV001 12/12 A3020 RMK AO2 SFC VIS 1/4 T01170117=
201711300752 METAR KATL 300752Z 00000KT 1/8SM R09R/0800V1200FT FG VV001 11/11 A3020 RMK AO2 SLP223 T01110111=
201711300652 METAR KATL 300652Z 00000KT 1/8SM R09R/0800V1200FT FG VV001 12/12 A3020 RMK AO2 SLP223 T01170117=
201711300552 METAR KATL 300552Z 00000KT 1/8SM R09R/0800V1200FT FG VV001 12/12 A3021 RMK AO2 SLP227 T01220122 10139 20122 58009=
201711300540 SPECI KATL 300540Z 00000KT 1/8SM R09R/0800V1200FT FG VV002 12/12 A3021 RMK AO2 T01220122=
201711300452 METAR KATL 300452Z 17003KT 1/4SM R09R/1200V1800FT FG VV002 13/13 A3022 RMK AO2 SLP232 T01280128 401890089=
201711300352 METAR KATL 300352Z 19003KT 1/4SM R09R/1400V2200FT FG BKN002 OVC100 13/13 A3023 RMK AO2 SFC VIS 1/2 SLP235 VIS NW-N 1 T01330133=
201711300252 METAR KATL 300252Z 00000KT 1/4SM R09R/1000V1400FT FG VV002 13/13 A3023 RMK AO2 TWR VIS 1/4 SLP237 VIS NW-N 3/4 T01330133 58001=
201711300152 METAR KATL 300152Z 15003KT 1/4SM R09R/1000V1600FT FG VV002 14/14 A3024 RMK AO2 TWR VIS 1/4 SLP239 VIS NW-N 3/4 T01390139=
201711300052 METAR KATL 300052Z 19003KT 1/4SM R09R/1400V2200FT FG VV002 14/14 A3025 RMK AO2 SLP242 T01390139=
201711300010 SPECI KATL 300010Z 20005KT 1/2SM R09R/1800VP6000FT FG VV002 14/14 A3024 RMK AO2 T01390139=
201711300000 SPECI KATL 300000Z 19005KT 1SM R09R/1600VP6000FT BR BKN003 14/14 A3024 RMK AO2 SFC VIS 2 VIS LWR E-S-SW CIG 001V005 T01390139=
201711292352 METAR KATL 292352Z 19007KT 2SM BR BKN003 14/14 A3024 RMK AO2 SFC VIS 5 SLP239 VIS LWR E-S-SW T01390139 10189 20139 53003=
201711292348 SPECI KATL 292348Z 19007KT 2SM BR BKN004 14/14 A3024 RMK AO2 SFC VIS 5 VIS LWR SE-SW=
201711292347 SPECI KATL 292347Z 19007KT 5SM BR BKN004 14/14 A3024 RMK AO2=
201711292252 METAR KATL 292252Z 15006KT 7SM FEW070 16/14 A3022 RMK AO2 SLP233 T01560139=
201711292152 METAR KATL 292152Z 18005KT 8SM FEW015 17/14 A3022 RMK AO2 SLP231 T01720144=
201711292052 METAR KATL 292052Z 16003KT 6SM HZ FEW020 18/14 A3023 RMK AO2 SLP234 T01830144 56019=
201711291952 METAR KATL 291952Z 00000KT 5SM HZ FEW015 18/14 A3023 RMK AO2 SLP237 T01780144=
201711291922 SPECI KATL 291922Z 00000KT 5SM HZ FEW010 17/14 A3024 RMK AO2 T01720144=
201711291916 SPECI KATL 291916Z 22004KT 3SM HZ CLR 17/14 A3025 RMK AO2 SFC VIS 4 T01720144=
201711291852 METAR KATL 291852Z VRB03KT 3SM BR BKN010 17/14 A3026 RMK AO2 SFC VIS 4 SLP246 T01720144=
201711291845 SPECI KATL 291845Z VRB03KT 3SM BR BKN010 17/14 A3026 RMK AO2 SFC VIS 4 T01670144=
201711291752 METAR KATL 291752Z 30004KT 2SM BR OVC007 16/14 A3028 RMK AO2 SFC VIS 3 SLP256 T01610144 10161 20117 58013=
201711291738 SPECI KATL 291738Z 27005KT 2SM BR BCFG OVC005 15/14 A3029 RMK AO2 SFC VIS 3 T01500144=
201711291709 SPECI KATL 291709Z 00000KT 1SM R09R/P6000FT BR BCFG OVC005 14/14 A3030 RMK AO2 SFC VIS 3 T01390139=
201711291652 METAR KATL 291652Z 22003KT 1/8SM R09R/5500VP6000FT BR BCFG OVC003 14/14 A3031 RMK AO2 SFC VIS 3 SLP265 VIS LWR NE-SE BCFG TWRINC T01390139=
201711291552 METAR KATL 291552Z 18005KT 1/8SM R09R/2800V4000FT BR BCFG OVC003 13/13 A3032 RMK AO2 SFC VIS 3 SLP266 TWRINC T01330133=
201711291502 SPECI KATL 291502Z 00000KT 1/2SM R09R/2000VP6000FT FG VV003 13/13 A3033 RMK AO2 T01330133=
201711291452 METAR KATL 291452Z 00000KT 1/2SM R09R/1800V2200FT FG VV003 13/13 A3033 RMK AO2 SLP270 T01280128 52007=
201711291356 SPECI KATL 291356Z 10004KT 1/4SM R09R/1400V1800FT FG VV002 12/12 A3032 RMK AO2 TWR VIS 1/2 T01220122=
201711291352 METAR KATL 291352Z 11004KT 1/4SM R09R/1400V2800FT FG VV002 12/12 A3031 RMK AO2 TWR VIS 1/2 SLP266 T01220122=
201711291324 SPECI KATL 291324Z 06005KT 1/2SM R09R/1800V4000FT FG VV002 12/12 A3031 RMK AO2 T01220122=
201711291252 METAR KATL 291252Z 06004KT 1/4SM R09R/2400VP6000FT FG VV002 12/12 A3031 RMK AO2 TWR VIS 1/2 SLP266 T01170117=
201711291249 SPECI KATL 291249Z 06004KT 1/4SM R09R/2400VP6000FT FG VV002 12/12 A3032 RMK AO2 TWR VIS 1/2=
201711291234 SPECI KATL 291234Z 08004KT 1/2SM R09R/1800V2400FT FG VV002 12/12 A3031 RMK AO2 T01170117=
201711291227 SPECI KATL 291227Z 10004KT 1/2SM R09R/1800V2000FT FG VV002 12/12 A3030 RMK AO2 T01170117=
201711291210 SPECI KATL 291210Z 06005KT 1/2SM R09R/1800VP6000FT FG VV002 12/12 A3030 RMK AO2 T01170117=
201711291159 SPECI KATL 291159Z 05005KT 1/2SM R09R/1600V2000FT FG VV002 12/12 A3030 RMK AO2 T01170117=
201711291152 METAR KATL 291152Z 05005KT 1/2SM R09R/1800V2800FT FG VV002 12/12 A3030 RMK AO2 SLP262 T01170117 10117 20089 50002=
201711291148 SPECI KATL 291148Z 05005KT 1/2SM R09R/1800V2800FT FG VV002 12/12 A3030 RMK AO2=
201711291052 METAR KATL 291052Z 08005KT 1/4SM R09R/1800V2200FT FG VV002 11/11 A3030 RMK AO2 TWR VIS 1/2 SLP259 T01110111=
201711290952 METAR KATL 290952Z 04005KT 1/4SM R09R/1600V1800FT FG VV002 11/11 A3030 RMK AO2 TWR VIS 1/2 SLP258 T01110111=
201711290852 METAR KATL 290852Z 08003KT 1/4SM R09R/1800V2000FT FG VV002 10/10 A3030 RMK AO2 TWR VIS 1/2 SLP258 T01000100 58002=
201711290809 SPECI KATL 290809Z 00000KT 1/4SM R09R/1600V1800FT FG OVC003 09/09 A3031 RMK AO2 TWR VIS 1/2 T00940094=
201711290752 METAR KATL 290752Z 08004KT 1/2SM R09R/P6000FT FG VV003 10/09 A3030 RMK AO2 SLP259 T01000089=
201711290748 SPECI KATL 290748Z 08005KT 1/2SM R09R/P6000FT FG VV003 10/08 A3030 RMK AO2=
201711290738 SPECI KATL 290738Z 09006KT 6SM BR BKN004 10/08 A3030 RMK AO2 CIG 003V005 T01000078=
201711290652 METAR KATL 290652Z 07007KT 10SM FEW008 09/05 A3030 RMK AO2 SLP261 T00890050=
201711290603 SPECI KATL 290603Z 08005KT 10SM SCT008 09/03 A3030 RMK AO2 T00940033=
201711290558 SPECI KATL 290558Z 08006KT 10SM BKN008 09/03 A3030 RMK AO2 T00940033=
201711290552 METAR KATL 290552Z 08006KT 10SM SCT008 09/03 A3030 RMK AO2 SLP260 T00940033 10139 20089 50000=
201711290452 METAR KATL 290452Z 07005KT 10SM FEW015 09/03 A3030 RMK AO2 SLP262 T00940033 401890039=
201711290352 METAR KATL 290352Z 08006KT 10SM CLR 11/04 A3030 RMK AO2 SLP262 T01060039=
201711290252 METAR KATL 290252Z 09007KT 10SM CLR 11/04 A3030 RMK AO2 SLP261 T01060044 50004=
201711290152 METAR KATL 290152Z 09006KT 10SM CLR 12/05 A3030 RMK AO2 SLP264 T01170050=
201711290052 METAR KATL 290052Z 10006KT 10SM CLR 13/06 A3029 RMK AO2 SLP260 T01330056=
201711282352 METAR KATL 282352Z 10005KT 10SM CLR 14/06 A3028 RMK AO2 SLP257 T01390061 10189 20139 53009=
201711282252 METAR KATL 282252Z 10005KT 10SM CLR 16/06 A3027 RMK AO2 SLP252 T01560056=
201711282152 METAR KATL 282152Z 12005KT 10SM CLR 18/06 A3026 RMK AO2 SLP248 T01830061=
201711282052 METAR KATL 282052Z 14006KT 10SM FEW030 18/06 A3026 RMK AO2 SLP246 T01830061 56010=
201711281952 METAR KATL 281952Z 12006KT 10SM FEW030 19/06 A3026 RMK AO2 SLP247 T01890061=
201711281852 METAR KATL 281852Z 14004KT 10SM FEW030 FEW060 18/04 A3027 RMK AO2 SLP251 T01830044=
201711281752 METAR KATL 281752Z VRB05KT 10SM FEW025 FEW065 17/01 A3029 RMK AO2 SLP257 T01720011 10178 20039 58012=
201711281652 METAR KATL 281652Z 11008KT 10SM FEW065 16/00 A3031 RMK AO2 SLP264 T01560000=
201711281552 METAR KATL 281552Z 11009KT 10SM CLR 14/00 A3032 RMK AO2 SLP270 T01390000=
201711281452 METAR KATL 281452Z 10006KT 10SM CLR 11/01 A3032 RMK AO2 SLP270 T01060011 51019=
201711281352 METAR KATL 281352Z 08007KT 10SM FEW035 FEW250 08/02 A3031 RMK AO2 SLP267 T00780017=
201711281252 METAR KATL 281252Z 09006KT 10SM CLR 05/00 A3029 RMK AO2 SLP259 T00500000=
201711281152 METAR KATL 281152Z 09005KT 10SM CLR 06/00 A3027 RMK AO2 SLP252 T00560000 10078 20044 53013=
201711281052 METAR KATL 281052Z 08005KT 10SM CLR 06/00 A3025 RMK AO2 SLP246 T00560000=
201711280952 METAR KATL 280952Z 07005KT 10SM CLR 06/00 A3023 RMK AO2 SLP239 T00560000=
201711280852 METAR KATL 280852Z 08007KT 10SM CLR 07/01 A3023 RMK AO2 SLP236 T00670006 53002=
201711280752 METAR KATL 280752Z 09006KT 10SM CLR 07/00 A3022 RMK AO2 SLP233 T00670000=
201711280652 METAR KATL 280652Z 11004KT 10SM CLR 07/01 A3022 RMK AO2 SLP234 T00670006=
201711280552 METAR KATL 280552Z 09005KT 10SM CLR 07/01 A3022 RMK AO2 SLP235 T00720006 10133 20072 50000=
201711280452 METAR KATL 280452Z 12005KT 10SM CLR 09/00 A3023 RMK AO2 SLP235 T00940000 401720022=
201711280352 METAR KATL 280352Z 11003KT 10SM CLR 09/00 A3022 RMK AO2 SLP236 T00940000=
201711280252 METAR KATL 280252Z 12003KT 10SM CLR 10/01 A3022 RMK AO2 SLP235 T01000006 51011=
201711280152 METAR KATL 280152Z 00000KT 10SM CLR 11/01 A3021 RMK AO2 SLP234 T01060006=
201711280052 METAR KATL 280052Z 10003KT 10SM CLR 13/M01 A3020 RMK AO2 SLP231 T01331006=
201711272352 METAR KATL 272352Z 11003KT 10SM CLR 13/M01 A3019 RMK AO2 SLP227 T01331006 10172 20133 53015=
201711272252 METAR KATL 272252Z 12003KT 10SM FEW250 14/M02 A3017 RMK AO2 SLP218 T01441017=
201711272152 METAR KATL 272152Z 13004KT 10SM FEW250 16/M02 A3016 RMK AO2 SLP215 T01611017=
201711272052 METAR KATL 272052Z VRB03KT 10SM FEW250 17/M02 A3014 RMK AO2 SLP208 T01721017 56014=
201711271952 METAR KATL 271952Z 11003KT 10SM FEW250 17/M02 A3014 RMK AO2 SLP209 T01721017=
201711271852 METAR KATL 271852Z 11005KT 10SM FEW250 17/M02 A3016 RMK AO2 SLP215 T01671017=
201711271752 METAR KATL 271752Z 08007KT 10SM FEW250 16/M01 A3019 RMK AO2 SLP223 T01611011 10161 20022 58012=
201711271652 METAR KATL 271652Z 11007KT 10SM FEW250 14/M02 A3021 RMK AO2 SLP231 T01441022=
201711271552 METAR KATL 271552Z 08011KT 10SM FEW250 13/M02 A3023 RMK AO2 SLP238 T01281022=
201711271452 METAR KATL 271452Z 07007KT 10SM FEW250 11/M02 A3022 RMK AO2 SLP236 T01111017 51014=
201711271352 METAR KATL 271352Z 31004KT 10SM CLR 07/M01 A3021 RMK AO2 SLP234 T00721006=
201711271252 METAR KATL 271252Z 00000KT 10SM CLR 04/M02 A3019 RMK AO2 SLP229 T00391017=
201711271152 METAR KATL 271152Z 33005KT 10SM CLR 02/M02 A3018 RMK AO2 SLP225 T00221022 10056 20022 53013=
201711271052 METAR KATL 271052Z 32004KT 10SM CLR 03/M02 A3016 RMK AO2 SLP217 T00281017=
201711270952 METAR KATL 270952Z 33003KT 10SM CLR 04/M02 A3015 RMK AO2 SLP210 T00391017=
201711270852 METAR KATL 270852Z 31009KT 10SM CLR 03/M01 A3014 RMK AO2 SLP208 T00331011 55000=
201711270752 METAR KATL 270752Z 31006KT 10SM CLR 04/M01 A3014 RMK AO2 SLP206 T00391011=
201711270652 METAR KATL 270652Z 32007KT 10SM CLR 04/M01 A3013 RMK AO2 SLP205 T00441011=
201711270552 METAR KATL 270552Z 32006KT 10SM CLR 06/M02 A3014 RMK AO2 SLP208 T00561017 10111 20056 57005=
201711270452 METAR KATL 270452Z 31006KT 10SM CLR 06/M02 A3015 RMK AO2 SLP211 T00611017 401720050=
201711270352 METAR KATL 270352Z 32008KT 10SM CLR 07/M01 A3015 RMK AO2 SLP211 T00721011=
201711270252 METAR KATL 270252Z 32007KT 10SM CLR 08/M02 A3016 RMK AO2 SLP215 T00781017 52008=
201711270152 METAR KATL 270152Z 32005KT 10SM FEW200 09/M02 A3015 RMK AO2 SLP211 T00941022=
201711270052 METAR KATL 270052Z 32005KT 10SM FEW180 11/M03 A3015 RMK AO2 SLP211 T01061028=
201711262352 METAR KATL 262352Z 33006KT 10SM FEW180 11/M03 A3013 RMK AO2 SLP207 T01111028 10172 20111 53002=
201711262252 METAR KATL 262252Z 32009KT 10SM FEW160 FEW250 13/M04 A3012 RMK AO2 SLP202 ACC NW-N T01281039=
201711262152 METAR KATL 262152Z 32010KT 10SM FEW180 FEW250 15/M04 A3012 RMK AO2 SLP200 ACC DSNT NW-N T01501039=
201711262052 METAR KATL 262052Z 34014KT 10SM FEW250 16/M04 A3013 RMK AO2 SLP201 T01611039 55007=
201711261952 METAR KATL 261952Z 33011G17KT 10SM FEW250 17/M03 A3012 RMK AO2 SLP201 T01671033=
201711261852 METAR KATL 261852Z 33013G21KT 10SM FEW250 17/M03 A3013 RMK AO2 SLP203 T01671033=
201711261752 METAR KATL 261752Z 34013KT 10SM FEW250 16/M04 A3015 RMK AO2 SLP209 T01611039 10172 20050 58013=
201711261652 METAR KATL 261652Z 33011KT 10SM FEW250 16/M03 A3018 RMK AO2 SLP218 T01561028=
201711261552 METAR KATL 261552Z 32013G21KT 10SM FEW250 14/M02 A3019 RMK AO2 SLP225 T01391017=
201711261452 METAR KATL 261452Z 33012KT 10SM FEW250 12/01 A3019 RMK AO2 SLP224 T01170006 51019=
201711261352 METAR KATL 261352Z 32012KT 10SM FEW250 09/01 A3017 RMK AO2 SLP219 T00890011=
201711261252 METAR KATL 261252Z 32008KT 10SM FEW200 06/01 A3015 RMK AO2 SLP213 T00560011=
201711261152 METAR KATL 261152Z 32005KT 10SM CLR 06/01 A3013 RMK AO2 SLP205 T00610011 10100 20056 51018=
201711261052 METAR KATL 261052Z 32004KT 10SM CLR 07/02 A3012 RMK AO2 SLP199 T00720017=
201711260952 METAR KATL 260952Z 33008KT 10SM CLR 08/02 A3010 RMK AO2 SLP192 T00780022=
201711260852 METAR KATL 260852Z 33009KT 10SM CLR 08/03 A3008 RMK AO2 SLP184 T00830033 53006=
201711260752 METAR KATL 260752Z 33011KT 10SM CLR 09/04 A3006 RMK AO2 SLP180 T00890044=
201711260652 METAR KATL 260652Z 32009KT 10SM CLR 09/05 A3006 RMK AO2 SLP177 T00890050=
201711260552 METAR KATL 260552Z 32011KT 10SM CLR 09/06 A3006 RMK AO2 SLP177 T00940056 10128 20089 51005=
201711260452 METAR KATL 260452Z 32010KT 10SM CLR 09/06 A3006 RMK AO2 SLP178 T00890056 401720061=
201711260352 METAR KATL 260352Z 29008KT 10SM CLR 10/06 A3005 RMK AO2 SLP175 T01000056=
201711260252 METAR KATL 260252Z 29008KT 10SM FEW250 10/05 A3004 RMK AO2 SLP174 T01000050 53011=
201711260152 METAR KATL 260152Z 29008KT 10SM FEW250 11/05 A3003 RMK AO2 SLP171 T01110050=
201711260052 METAR KATL 260052Z 27006KT 10SM FEW150 SCT250 12/04 A3002 RMK AO2 SLP166 T01170044=
201711252352 METAR KATL 252352Z 29007KT 10SM FEW150 SCT250 13/04 A3001 RMK AO2 SLP163 T01280039 10172 20128 53016=
201711252252 METAR KATL 252252Z 28008KT 10SM FEW150 SCT200 BKN250 14/04 A2998 RMK AO2 SLP153 T01440039=
201711252152 METAR KATL 252152Z 27005KT 10SM SCT150 BKN250 16/06 A2998 RMK AO2 SLP151 T01560056=
201711252052 METAR KATL 252052Z 27006KT 10SM FEW150 BKN250 17/06 A2996 RMK AO2 SLP144 T01670056 55005=
201711251952 METAR KATL 251952Z 23006KT 10SM SCT130 BKN250 17/05 A2995 RMK AO2 SLP141 T01670050=
201711251852 METAR KATL 251852Z 25006KT 10SM BKN150 BKN250 17/05 A2996 RMK AO2 SLP145 T01670050=
201711251752 METAR KATL 251752Z 28008KT 10SM FEW180 BKN220 17/05 A2997 RMK AO2 SLP149 T01670050 10167 20072 58013=
201711251652 METAR KATL 251652Z 28010KT 10SM SCT170 BKN250 14/05 A3000 RMK AO2 SLP161 T01440050=
201711251552 METAR KATL 251552Z 28008KT 10SM SCT180 BKN250 14/08 A3002 RMK AO2 SLP166 VIRGA SE T01390083=
201711251452 METAR KATL 251452Z VRB03KT 10SM BKN150 BKN250 11/08 A3001 RMK AO2 SLP164 VIRGA E T01060083 53008=
201711251352 METAR KATL 251352Z 27005KT 10SM FEW120 BKN180 BKN250 09/08 A3000 RMK AO2 SLP161 VIRGA ALQDS T00940078=
201711251252 METAR KATL 251252Z 20003KT 10SM FEW120 SCT180 BKN250 07/07 A2998 RMK AO2 SLP154 VIRGA N-NE & SW-W T00720067=
201711251152 METAR KATL 251152Z 00000KT 10SM FEW025 SCT200 BKN250 07/06 A2999 RMK AO2 SLP155 VIRGA OHD-NW-N T00720061 10089 20061 53007=
201711251052 METAR KATL 251052Z 30005KT 10SM SCT250 06/05 A2998 RMK AO2 SLP152 T00610050=
201711250952 METAR KATL 250952Z 28003KT 10SM SCT250 06/05 A2996 RMK AO2 SLP147 T00610050=
201711250852 METAR KATL 250852Z 00000KT 10SM FEW250 08/06 A2997 RMK AO2 SLP147 T00780056 57002=
201711250752 METAR KATL 250752Z 00000KT 10SM FEW250 07/06 A2997 RMK AO2 SLP148 T00720056=
201711250652 METAR KATL 250652Z 00000KT 10SM FEW250 07/06 A2997 RMK AO2 SLP149 T00720056=
201711250552 METAR KATL 250552Z 00000KT 10SM FEW250 08/06 A2997 RMK AO2 SLP150 T00830061 10128 20083 58003=
201711250452 METAR KATL 250452Z 23003KT 10SM SCT250 09/06 A2998 RMK AO2 SLP152 T00890061 401720044=
201711250352 METAR KATL 250352Z 22003KT 10SM SCT250 09/06 A2999 RMK AO2 SLP155 T00940061=
201711250252 METAR KATL 250252Z 00000KT 10SM SCT250 09/07 A2998 RMK AO2 SLP154 T00940067 53006=
201711250152 METAR KATL 250152Z 20003KT 10SM FEW250 11/07 A2998 RMK AO2 SLP152 T01110067=
201711250052 METAR KATL 250052Z 21003KT 10SM FEW250 11/07 A2997 RMK AO2 SLP150 T01110067=
201711242352 METAR KATL 242352Z 00000KT 10SM FEW250 13/07 A2996 RMK AO2 SLP148 T01280067 10172 20128 53009=
201711242252 METAR KATL 242252Z 00000KT 10SM FEW250 14/06 A2995 RMK AO2 SLP144 T01390061=
201711242152 METAR KATL 242152Z 19003KT 10SM FEW250 17/06 A2994 RMK AO2 SLP140 T01670061=
201711242052 METAR KATL 242052Z 20004KT 10SM FEW250 17/06 A2993 RMK AO2 SLP137 T01670056 56018=
201711241952 METAR KATL 241952Z 00000KT 10SM CLR 17/06 A2994 RMK AO2 SLP139 T01720061=
201711241852 METAR KATL 241852Z 00000KT 10SM CLR 16/06 A2996 RMK AO2 SLP147 T01560061=
201711241752 METAR KATL 241752Z 00000KT 10SM CLR 15/07 A2999 RMK AO2 SLP155 T01500067 10150 20044 58021=
201711241652 METAR KATL 241652Z 00000KT 10SM CLR 14/06 A3002 RMK AO2 SLP166 T01390056=
201711241552 METAR KATL 241552Z VRB03KT 10SM CLR 12/06 A3004 RMK AO2 SLP173 T01220056=
201711241452 METAR KATL 241452Z 09003KT 10SM FEW250 10/04 A3005 RMK AO2 SLP178 T01000044 51008=
201711241352 METAR KATL 241352Z 07004KT 10SM FEW016 FEW034 08/04 A3005 RMK AO2 SLP176 FU FEW016 T00830044=
201711241252 METAR KATL 241252Z 06004KT 10SM FEW014 FEW032 06/03 A3004 RMK AO2 SLP174 T00610033=
201711241152 METAR KATL 241152Z 08005KT 10SM FEW035 FEW200 06/03 A3003 RMK AO2 SLP170 T00560028 10083 20050 50004=
201711241052 METAR KATL 241052Z 05005KT 10SM FEW016 FEW035 06/03 A3003 RMK AO2 SLP171 T00610033=
201711240952 METAR KATL 240952Z 00000KT 10SM CLR 06/03 A3002 RMK AO2 SLP168 T00560028=
201711240852 METAR KATL 240852Z 06005KT 10SM CLR 06/03 A3001 RMK AO2 SLP164 T00610033 55001=
201711240752 METAR KATL 240752Z 06005KT 10SM CLR 07/03 A3001 RMK AO2 SLP163 T00670033=
201711240652 METAR KATL 240652Z 07005KT 10SM FEW035 07/04 A3002 RMK AO2 SLP165 T00720039=
201711240552 METAR KATL 240552Z 07005KT 10SM FEW035 08/04 A3002 RMK AO2 SLP165 T00780039 10122 20072 58002=
201711240452 METAR KATL 240452Z 08005KT 10SM FEW035 08/04 A3002 RMK AO2 SLP167 T00830039 401610044=
201711240352 METAR KATL 240352Z 00000KT 10SM SCT035 09/04 A3002 RMK AO2 SLP166 T00890044=
201711240252 METAR KATL 240252Z 08003KT 10SM FEW035 10/04 A3002 RMK AO2 SLP168 T01000044 53006=
201711240152 METAR KATL 240152Z 11003KT 10SM FEW035 11/04 A3001 RMK AO2 SLP164 T01060044=
201711240052 METAR KATL 240052Z 12003KT 10SM FEW040 11/04 A3001 RMK AO2 SLP165 T01110044=
201711232352 METAR KATL 232352Z 11005KT 10SM FEW040 12/04 A3000 RMK AO2 SLP162 T01220044 10161 20122 53009=
201711232252 METAR KATL 232252Z 09005KT 10SM FEW040 13/04 A2999 RMK AO2 SLP158 T01330044=
201711232152 METAR KATL 232152Z 10005KT 10SM FEW040 14/05 A2999 RMK AO2 SLP155 T01440050=
201711232052 METAR KATL 232052Z 04006KT 10SM FEW042 16/04 A2998 RMK AO2 SLP152 T01560044 58013=
201711231952 METAR KATL 231952Z 04007KT 10SM FEW042 SCT250 16/04 A2999 RMK AO2 SLP157 T01610039=
201711231852 METAR KATL 231852Z 10003KT 10SM BKN030 14/03 A3001 RMK AO2 SLP163 T01440033=
201711231752 METAR KATL 231752Z 10005KT 10SM FEW028 FEW040 14/02 A3002 RMK AO2 SLP166 T01390022 10144 20056 58021=
201711231652 METAR KATL 231652Z 10007KT 10SM FEW028 FEW040 SCT250 13/02 A3005 RMK AO2 SLP177 T01280017=
201711231552 METAR KATL 231552Z 06008KT 10SM FEW026 SCT040 SCT200 12/01 A3008 RMK AO2 SLP188 T01170011=
201711231533 SPECI KATL 231533Z 06008KT 10SM FEW027 SCT034 BKN200 12/01 A3009 RMK AO2 T01170011=
201711231511 SPECI KATL 231511Z AUTO 08009KT 10SM BKN028 BKN200 10/01 A3009 RMK AO2 T01000011=
201711231452 METAR KATL 231452Z 09008KT 10SM FEW036 SCT200 10/01 A3008 RMK AO2 SLP189 T01000006 53008=
201711231352 METAR KATL 231352Z 08010KT 10SM FEW040 SCT200 SCT250 08/01 A3007 RMK AO2 SLP185 T00830006=
201711231252 METAR KATL 231252Z 08008KT 10SM FEW042 SCT200 SCT250 06/01 A3006 RMK AO2 SLP184 T00560006=
201711231152 METAR KATL 231152Z 05009KT 10SM FEW042 SCT200 SCT250 07/01 A3006 RMK AO2 SLP180 T00670006 10078 20044 55001=
201711231052 METAR KATL 231052Z 08008KT 10SM FEW042 SCT200 SCT250 07/01 A3005 RMK AO2 SLP178 T00670011=
201711230952 METAR KATL 230952Z 08007KT 10SM FEW045 SCT200 SCT250 06/02 A3005 RMK AO2 SLP176 T00610017=
201711230852 METAR KATL 230852Z 06008KT 10SM FEW036 SCT045 SCT200 BKN250 07/02 A3006 RMK AO2 SLP180 T00720017 58007=
201711230752 METAR KATL 230752Z VRB05KT 10SM SCT200 BKN250 06/01 A3007 RMK AO2 SLP184 T00560006=
201711230652 METAR KATL 230652Z 33005KT 10SM SCT200 BKN250 06/00 A3008 RMK AO2 SLP185 T00560000=
201711230552 METAR KATL 230552Z 34007KT 10SM FEW200 BKN250 06/00 A3008 RMK AO2 SLP188 T00610000 10117 20061 50000=
201711230452 METAR KATL 230452Z 33008KT 10SM FEW200 BKN250 07/00 A3009 RMK AO2 SLP189 T00670000 401720067=
201711230352 METAR KATL 230352Z 33005KT 10SM FEW200 BKN250 07/00 A3009 RMK AO2 SLP189 T00720000=
201711230252 METAR KATL 230252Z 32008KT 10SM BKN250 08/01 A3008 RMK AO2 SLP188 T00830006 51003=
201711230152 METAR KATL 230152Z 32007KT 10SM BKN250 09/01 A3008 RMK AO2 SLP188 T00890011=
201711230052 METAR KATL 230052Z 32006KT 10SM FEW200 BKN250 10/02 A3008 RMK AO2 SLP186 T01000017=
201711222352 METAR KATL 222352Z 33008KT 10SM FEW200 BKN250 12/02 A3007 RMK AO2 SLP184 T01170022 10172 20117 51015=
201711222252 METAR KATL 222252Z 31008KT 10SM FEW200 BKN250 13/03 A3006 RMK AO2 SLP181 T01280028=
201711222152 METAR KATL 222152Z 33010KT 10SM BKN250 14/03 A3005 RMK AO2 SLP174 T01440033=
201711222052 METAR KATL 222052Z 34011KT 10SM BKN250 16/03 A3003 RMK AO2 SLP167 T01560028 56012=
201711221952 METAR KATL 221952Z 33010G17KT 10SM BKN250 16/03 A3004 RMK AO2 SLP169 T01610028=
201711221852 METAR KATL 221852Z 32013G19KT 10SM BKN250 16/03 A3004 RMK AO2 SLP171 T01610033=
201711221752 METAR KATL 221752Z 34010KT 10SM BKN250 16/04 A3006 RMK AO2 SLP178 T01610039 10161 20089 58008=
201711221652 METAR KATL 221652Z 31011KT 10SM BKN250 15/04 A3009 RMK AO2 SLP188 T01500039=
201711221552 METAR KATL 221552Z 32011KT 10SM BKN250 14/04 A3010 RMK AO2 SLP193 T01440044=
201711221452 METAR KATL 221452Z 34010KT 10SM FEW250 13/05 A3009 RMK AO2 SLP188 T01280050 51024=
201711221352 METAR KATL 221352Z 33010KT 10SM FEW200 FEW250 10/06 A3007 RMK AO2 SLP181 T01000056=
201711221252 METAR KATL 221252Z 32009KT 10SM FEW200 09/07 A3004 RMK AO2 SLP173 T00890067=
201711221152 METAR KATL 221152Z 33010KT 10SM FEW200 09/08 A3001 RMK AO2 SLP163 60000 T00940078 10133 20094 53002=
201711221052 METAR KATL 221052Z 32009KT 10SM CLR 10/10 A3001 RMK AO2 SLP160 T01000100=
201711220952 METAR KATL 220952Z 00000KT 10SM FEW200 FEW250 11/11 A3001 RMK AO2 SLP160 T01110111=
201711220852 METAR KATL 220852Z 34006KT 10SM FEW150 FEW200 12/12 A3001 RMK AO2 SLP159 60000 T01170117 58007=
201711220800 SPECI KATL 220800Z 33004KT 10SM FEW017 FEW030 SCT150 12/12 A3002 RMK AO2 T01220117=
201711220752 METAR KATL 220752Z 35004KT 10SM BKN017 OVC029 13/12 A3002 RMK AO2 SLP162 T01280122=
201711220712 SPECI KATL 220712Z 36004KT 10SM OVC015 13/12 A3003 RMK AO2 T01330122=
201711220652 METAR KATL 220652Z 00000KT 10SM BKN014 OVC040 13/12 A3004 RMK AO2 SLP171 P0000 RAB01E08 T01280122=
201711220552 METAR KATL 220552Z 00000KT 10SM BKN020 OVC045 13/12 A3003 RMK AO2 SLP167 T01330122 10161 20128 55001=
201711220535 SPECI KATL 220535Z 32003KT 10SM BKN020 OVC045 13/12 A3004 RMK AO2 T01330122=
201711220452 METAR KATL 220452Z 08003KT 10SM SCT045 BKN150 BKN250 13/12 A3002 RMK AO2 SLP164 T01330122 401940056=
201711220352 METAR KATL 220352Z 10003KT 10SM FEW045 FEW070 SCT250 13/12 A3002 RMK AO2 SLP166 T01330122=
201711220252 METAR KATL 220252Z 09003KT 10SM FEW050 BKN070 BKN250 14/12 A3004 RMK AO2 SLP170 T01390122 51004=
201711220152 METAR KATL 220152Z 12005KT 10SM FEW028 FEW050 SCT250 14/12 A3003 RMK AO2 SLP169 T01440122=
201711220052 METAR KATL 220052Z 12004KT 10SM FEW028 SCT040 BKN055 BKN200 16/13 A3003 RMK AO2 SLP170 T01560128=
201711212352 METAR KATL 212352Z 11004KT 10SM SCT040 SCT200 16/12 A3002 RMK AO2 SLP167 60000 T01560122 10194 20156 53004=
201711212252 METAR KATL 212252Z 12003KT 10SM FEW030 SCT045 BKN200 17/12 A3000 RMK AO2 RAE15 SLP160 P0000 T01670122=
201711212152 METAR KATL 212152Z 10003KT 10SM -RA SCT040 BKN055 BKN080 BKN250 18/12 A3001 RMK AO2 RAB49 SLP162 P0000 T01780122=
201711212052 METAR KATL 212052Z 16004KT 10SM FEW045 BKN060 BKN250 18/12 A3001 RMK AO2 SLP162 T01830117 56017=
201711211952 METAR KATL 211952Z 12003KT 10SM FEW050 SCT080 SCT250 19/12 A3002 RMK AO2 SLP163 ACC SW-W T01890117=
201711211852 METAR KATL 211852Z 00000KT 10SM FEW050 BKN060 BKN080 BKN250 18/11 A3004 RMK AO2 SLP171 ACC NE-E & NW T01780111=
201711211752 METAR KATL 211752Z 12006KT 10SM BKN050 BKN070 BKN250 17/11 A3006 RMK AO2 SLP180 ACC ALQDS T01720111 10172 20067 58021=
201711211652 METAR KATL 211652Z 12005KT 10SM FEW050 BKN070 BKN250 15/09 A3010 RMK AO2 SLP193 T01500089=
201711211552 METAR KATL 211552Z 13009KT 10SM FEW050 SCT070 BKN250 12/07 A3012 RMK AO2 SLP200 T01220072=
201711211452 METAR KATL 211452Z 11008KT 10SM FEW045 SCT065 BKN250 11/06 A3013 RMK AO2 SLP203 T01110061 58001=
201711211352 METAR KATL 211352Z 08007KT 10SM FEW042 SCT055 BKN220 09/04 A3014 RMK AO2 SLP209 T00890044=
201711211252 METAR KATL 211252Z 08010KT 10SM FEW020 SCT043 BKN220 07/03 A3012 RMK AO2 SLP204 T00720033=
201711211152 METAR KATL 211152Z 07006KT 10SM FEW020 SCT042 BKN060 BKN220 07/04 A3013 RMK AO2 SLP205 T00720039 10078 20056 55002=
201711211052 METAR KATL 211052Z 08007KT 10SM FEW020 BKN050 OVC220 07/04 A3013 RMK AO2 SLP205 T00720039=
201711210952 METAR KATL 210952Z 07005KT 10SM FEW021 BKN047 OVC220 07/04 A3013 RMK AO2 SLP202 T00720039=
201711210852 METAR KATL 210852Z 07007KT 10SM SCT021 BKN220 07/03 A3014 RMK AO2 SLP205 T00670033 56012=
201711210752 METAR KATL 210752Z 10006KT 10SM FEW020 SCT042 BKN200 BKN250 07/03 A3015 RMK AO2 SLP209 T00720028=
201711210652 METAR KATL 210652Z 08006KT 10SM BKN042 BKN200 07/02 A3016 RMK AO2 SLP213 T00670022=
201711210552 METAR KATL 210552Z 09005KT 10SM BKN038 BKN180 BKN250 06/03 A3017 RMK AO2 SLP219 T00610028 10111 20061 58003=
201711210452 METAR KATL 210452Z 10004KT 10SM SCT038 BKN180 BKN250 07/02 A3018 RMK AO2 SLP222 T00670022 401560000=
201711210352 METAR KATL 210352Z 11004KT 10SM SCT180 BKN250 08/02 A3018 RMK AO2 SLP223 T00780022=
201711210252 METAR KATL 210252Z 10005KT 10SM FEW180 SCT250 08/02 A3018 RMK AO2 SLP224 T00780022 51008=
201711210152 METAR KATL 210152Z 09005KT 10SM SCT200 BKN250 08/02 A3018 RMK AO2 SLP224 T00830017=
201711210052 METAR KATL 210052Z 12003KT 10SM BKN200 BKN250 10/03 A3017 RMK AO2 SLP222 T01000028=
201711202352 METAR KATL 202352Z 13004KT 10SM BKN200 BKN250 11/02 A3015 RMK AO2 SLP216 T01110017 10156 20100 55001=
201711202252 METAR KATL 202252Z 10007KT 10SM BKN200 BKN250 11/02 A3014 RMK AO2 SLP213 T01060017=
201711202152 METAR KATL 202152Z 15005KT 10SM BKN250 14/01 A3016 RMK AO2 SLP216 T01390006=
201711202052 METAR KATL 202052Z 13006KT 10SM BKN250 14/M01 A3016 RMK AO2 SLP215 T01441006 58016=
201711201952 METAR KATL 201952Z 13004KT 10SM BKN250 15/M02 A3017 RMK AO2 SLP221 T01501017=
201711201852 METAR KATL 201852Z 14005KT 10SM BKN250 14/M01 A3019 RMK AO2 SLP228 T01441011=
201711201752 METAR KATL 201752Z 13005KT 10SM BKN250 13/M02 A3021 RMK AO2 SLP231 T01331017 10133 20000 58011=
201711201652 METAR KATL 201652Z 12005KT 10SM BKN250 12/M02 A3023 RMK AO2 SLP242 T01171022=
201711201552 METAR KATL 201552Z 13005KT 10SM SCT250 11/M03 A3024 RMK AO2 SLP245 T01061028=
201711201452 METAR KATL 201452Z 08003KT 10SM SCT250 08/M02 A3024 RMK AO2 SLP245 T00781017 51013=
201711201352 METAR KATL 201352Z VRB03KT 10SM FEW250 04/M01 A3023 RMK AO2 SLP241 T00441011=
201711201252 METAR KATL 201252Z 34005KT 10SM FEW200 01/M02 A3022 RMK AO2 SLP238 T00111022=
201711201152 METAR KATL 201152Z 34006KT 10SM CLR 00/M02 A3020 RMK AO2 SLP232 T00001022 10028 20000 53009=
201711201052 METAR KATL 201052Z 33004KT 10SM CLR 01/M02 A3019 RMK AO2 SLP228 T00061022=
201711200952 METAR KATL 200952Z 33008KT 10SM CLR 01/M02 A3017 RMK AO2 SLP222 T00111022=
201711200852 METAR KATL 200852Z 32008KT 10SM CLR 02/M02 A3017 RMK AO2 SLP221 T00171022 53002=
201711200752 METAR KATL 200752Z 33011KT 10SM CLR 02/M02 A3016 RMK AO2 SLP217 T00221022=
201711200652 METAR KATL 200652Z 32008KT 10SM CLR 02/M02 A3016 RMK AO2 SLP216 T00221022=
201711200552 METAR KATL 200552Z 31006KT 10SM CLR 03/M02 A3016 RMK AO2 SLP218 T00281017 10083 20028 51011=
201711200452 METAR KATL 200452Z 32006KT 10SM CLR 04/M01 A3016 RMK AO2 SLP216 T00391011 401390033=
201711200352 METAR KATL 200352Z 33008KT 10SM CLR 05/M01 A3015 RMK AO2 SLP213 T00501011=
201711200252 METAR KATL 200252Z 33006KT 10SM CLR 05/M01 A3013 RMK AO2 SLP206 T00501006 51016=
201711200152 METAR KATL 200152Z 32007KT 10SM CLR 06/M01 A3011 RMK AO2 SLP202 T00611006=
201711200052 METAR KATL 200052Z 33008KT 10SM CLR 07/M01 A3011 RMK AO2 SLP200 T00721006=
201711192352 METAR KATL 192352Z 32011KT 10SM CLR 08/M01 A3008 RMK AO2 SLP190 T00831006 10122 20083 53020=
201711192252 METAR KATL 192252Z 32010KT 10SM CLR 09/M01 A3004 RMK AO2 SLP176 T00941006=
201711192152 METAR KATL 192152Z 31012KT 10SM CLR 11/M01 A3003 RMK AO2 SLP171 T01111006=
201711192052 METAR KATL 192052Z 32013KT 10SM CLR 12/01 A3002 RMK AO2 SLP166 T01170006 53003=
201711191952 METAR KATL 191952Z 32014G22KT 10SM FEW045 12/01 A3001 RMK AO2 SLP164 T01220006=
201711191852 METAR KATL 191852Z 35015KT 10SM FEW045 12/00 A3001 RMK AO2 PK WND 33026/1831 SLP163 T01220000=
201711191752 METAR KATL 191752Z 29020KT 10SM FEW040 12/01 A3001 RMK AO2 SLP162 T01170011 10122 20067 58008=
201711191652 METAR KATL 191652Z 31012KT 10SM FEW035 11/02 A3003 RMK AO2 SLP170 T01110022=
201711191552 METAR KATL 191552Z 31013G20KT 10SM FEW030 09/02 A3004 RMK AO2 SLP172 T00940017=
201711191452 METAR KATL 191452Z 33015G20KT 10SM FEW030 09/01 A3003 RMK AO2 SLP168 T00890011 53020=
201711191352 METAR KATL 191352Z 34013G26KT 10SM FEW026 07/01 A3001 RMK AO2 PK WND 33026/1346 SLP161 T00720011=
201711191328 SPECI KATL 191328Z 35016KT 10SM SCT026 07/01 A3000 RMK AO2 T00720011=
201711191252 METAR KATL 191252Z 33016G20KT 10SM BKN026 07/02 A2999 RMK AO2 SLP155 BKN026 V SCT T00670017=
201711191152 METAR KATL 191152Z 32014G23KT 10SM BKN027 07/02 A2997 RMK AO2 SLP149 60000 70030 T00720022 10117 20072 53028=
201711191052 METAR KATL 191052Z 32013G20KT 10SM OVC024 08/03 A2995 RMK AO2 PK WND 34029/1008 SLP139 T00780033=
201711190952 METAR KATL 190952Z 33020G25KT 10SM BKN027 08/03 A2991 RMK AO2 PK WND 32033/0907 SLP128 T00830033=
201711190852 METAR KATL 190852Z 32018G32KT 10SM BKN027 OVC065 09/04 A2989 RMK AO2 PK WND 33032/0844 SLP118 60000 T00890044 51028=
201711190752 METAR KATL 190752Z 33019G27KT 10SM BKN028 OVC065 09/06 A2987 RMK AO2 PK WND 35031/0724 SLP111 T00940056=
201711190652 METAR KATL 190652Z 31018G28KT 10SM BKN022 BKN028 OVC065 11/08 A2984 RMK AO2 PK WND 31032/0606 RAE0557 SLP101 CIG 018V025 P0000 T01060083=
201711190552 METAR KATL 190552Z 30017G31KT 10SM -RA BKN020 OVC065 12/10 A2980 RMK AO2 PK WND 30033/0519 RAB0458E15B22 SLP090 P0000 60030 T01170100 10206 20117 51040=
201711190521 SPECI KATL 190521Z 30023G33KT 10SM BKN020 OVC060 13/12 A2977 RMK AO2 PK WND 30033/0519 RAB0458E15 P0000 T01330117=
201711190452 METAR KATL 190452Z 30020G31KT 10SM SCT016 BKN060 OVC095 14/12 A2976 RMK AO2 PK WND 30031/0447 WSHFT 0342 RAE37 SLP074 P0005 T01390122 402060072=
201711190407 SPECI KATL 190407Z 30016KT 6SM RA BR FEW018 SCT032 OVC075 14/14 A2975 RMK AO2 PK WND 31030/0354 WSHFT 0342 CB DSNT NE-SE-SW P0004 T01440139=
201711190359 SPECI KATL 190359Z 31018G31KT 4SM RA BR SCT018 BKN028CB OVC060 14/14 A2974 RMK AO2 PK WND 31030/0354 WSHFT 0342 FROPA CB NE-SE-SW MOV SE P0003 T01440139=
201711190352 METAR KATL 190352Z 31023G41KT 3SM R09R/3000VP6000FT +RA BR BKN024CB OVC055 15/14 A2974 RMK AO2 PK WND 31041/0347 RAB33 SLP068 FROPA CB NE-SE-SW MOV SE P0025 T01500144=
201711190347 SPECI KATL 190347Z 30028G41KT 3/4SM R09R/3000VP6000FT +RA BR BKN024CB OVC055 17/16 A2974 RMK AO2 PK WND 31041/0347 RAB33 CB NE-OHD-SW MOV SE P0005=
201711190344 SPECI KATL 190344Z 32019G25KT 1 1/2SM R09R/6000VP6000FT +RA BR BKN024CB BKN055 OVC090 19/17 A2974 RMK AO2 PK WND 21029/0301 RAB33 PRESRR CB NE-OHD-SW MOV SE P0000 T01940172=
201711190252 METAR KATL 190252Z 21012G23KT 10SM BKN024 BKN042 OVC085 20/17 A2968 RMK AO2 PK WND 21027/0220 SLP047 T02000167 58024=
201711190152 METAR KATL 190152Z 20010G18KT 10SM FEW024 BKN050 OVC075 19/16 A2972 RMK AO2 SLP059 T01940161=
201711190052 METAR KATL 190052Z 20012G19KT 10SM FEW028 OVC070 19/16 A2973 RMK AO2 SLP065 BINOVC T01890156=
201711190011 SPECI KATL 190011Z 19015G21KT 10SM SCT027 OVC070 19/15 A2974 RMK AO2 T01890150=
201711182352 METAR KATL 182352Z 20010KT 10SM BKN027 BKN038 OVC065 19/15 A2976 RMK AO2 SLP074 T01940150 10200 20183 56018=
201711182341 SPECI KATL 182341Z 20009KT 10SM BKN027 BKN035 BKN065 OVC200 19/15 A2976 RMK AO2 T01940150=
201711182311 SPECI KATL 182311Z 19012KT 10SM BKN032 BKN065 OVC200 19/15 A2977 RMK AO2 T01940150=
201711182252 METAR KATL 182252Z 19009KT 10SM BKN028 BKN055 OVC200 19/15 A2977 RMK AO2 SLP080 T01940150=
201711182152 METAR KATL 182152Z 19011KT 10SM BKN032 BKN040 OVC055 19/14 A2979 RMK AO2 SLP085 BINOVC T01940144=
201711182052 METAR KATL 182052Z 21007KT 10SM BKN035 OVC045 19/14 A2981 RMK AO2 SLP092 T01940144 56023=
201711181952 METAR KATL 181952Z 21012G21KT 10SM BKN030 OVC035 19/14 A2982 RMK AO2 SLP095 T01940144=
201711181852 METAR KATL 181852Z 18008KT 10SM OVC030 19/14 A2984 RMK AO2 SLP103 BINOVC T01940139=
201711181837 SPECI KATL 181837Z 19010KT 10SM BKN030 BKN037 BKN046 19/13 A2985 RMK AO2 T01890133=
201711181752 METAR KATL 181752Z 18012KT 10SM BKN025 BKN035 18/13 A2988 RMK AO2 SLP117 T01830128 10189 20078 56031=
201711181749 SPECI KATL 181749Z 18011KT 10SM BKN025 BKN035 18/13 A2988 RMK AO2=
201711181652 METAR KATL 181652Z 19008KT 10SM FEW020 SCT035 SCT250 18/13 A2993 RMK AO2 SLP134 T01830128=
201711181552 METAR KATL 181552Z 18011KT 10SM SCT028 SCT035 SCT250 16/12 A2998 RMK AO2 SLP149 T01610117=
201711181549 SPECI KATL 181549Z 19008G16KT 10SM SCT028 SCT035 SCT250 16/12 A2998 RMK AO2=
201711181452 METAR KATL 181452Z 19006KT 7SM FEW005 BKN028 BKN035 BKN250 13/11 A3000 RMK AO2 SLP159 T01280106 58005=
201711181439 SPECI KATL 181439Z 19008KT 7SM FEW004 BKN028 BKN035 BKN250 12/11 A3000 RMK AO2 T01220106=
201711181421 SPECI KATL 181421Z 18008KT 2SM SCT004 SCT030 BKN250 11/11 A3000 RMK AO2 SFC VIS 7 VIS N-E 2 T01110106=
201711181352 METAR KATL 181352Z VRB06KT 1SM R09R/P6000FT BR BKN004 OVC030 11/10 A3001 RMK AO2 SFC VIS 5 SLP164 CIG 003V005 BINOVC TWRINC T01060100=
201711181328 SPECI KATL 181328Z 18006KT 1SM R09R/P6000FT BR BKN004 OVC030 10/10 A3002 RMK AO2 SFC VIS 4 CIG 003V005 TWRINC T01000100=
201711181312 SPECI KATL 181312Z 15003KT 5SM BR OVC004 09/09 A3002 RMK AO2 T00890089=
201711181252 METAR KATL 181252Z 14003KT 6SM BR BKN005 OVC200 08/08 A3002 RMK AO2 SLP165 BKN005 V SCT T00830083=
201711181246 SPECI KATL 181246Z 13003KT 6SM BR BKN005 OVC200 08/08 A3002 RMK AO2 BKN005 V SCT=
201711181152 METAR KATL 181152Z 11004KT 7SM FEW006 SCT200 08/07 A3002 RMK AO2 SLP165 T00780072 10100 20072 56005=
201711181144 SPECI KATL 181144Z 11005KT 8SM SCT006 SCT200 08/07 A3002 RMK AO2 T00780067=
201711181052 METAR KATL 181052Z 00000KT 10SM FEW030 SCT200 08/07 A3002 RMK AO2 SLP166 T00830072=
201711180952 METAR KATL 180952Z 14003KT 10SM SCT200 SCT250 08/06 A3002 RMK AO2 SLP166 T00780061=
201711180852 METAR KATL 180852Z 00000KT 10SM FEW200 08/06 A3003 RMK AO2 SLP168 T00830061 58006=
201711180752 METAR KATL 180752Z 12003KT 10SM FEW200 08/06 A3004 RMK AO2 SLP171 T00830056=
201711180652 METAR KATL 180652Z 12004KT 10SM FEW200 FEW250 09/06 A3004 RMK AO2 SLP172 T00940061=
201711180552 METAR KATL 180552Z 14004KT 10SM BKN250 09/07 A3005 RMK AO2 SLP175 T00890067 10144 20089 58013=
201711180452 METAR KATL 180452Z 13003KT 10SM BKN250 11/07 A3008 RMK AO2 SLP185 T01060067 401890050=
201711180352 METAR KATL 180352Z 14003KT 10SM SCT250 12/07 A3009 RMK AO2 SLP189 T01170067=
201711180252 METAR KATL 180252Z 14005KT 10SM SCT250 12/07 A3009 RMK AO2 SLP189 T01170067 58002=
201711180152 METAR KATL 180152Z 14004KT 10SM FEW250 12/07 A3009 RMK AO2 SLP192 T01220067=
201711180052 METAR KATL 180052Z 13005KT 10SM FEW250 13/07 A3009 RMK AO2 SLP192 T01330067=
201711172352 METAR KATL 172352Z 14004KT 10SM CLR 14/07 A3009 RMK AO2 SLP193 T01440067 10189 20144 53002=
201711172252 METAR KATL 172252Z 14003KT 10SM FEW250 16/07 A3009 RMK AO2 SLP191 T01560067=
201711172152 METAR KATL 172152Z 15007KT 10SM FEW200 SCT250 18/06 A3009 RMK AO2 SLP188 T01780056=
201711172052 METAR KATL 172052Z 12006KT 10SM FEW200 SCT250 BKN300 18/06 A3009 RMK AO2 SLP189 T01830061 57015=
201711171952 METAR KATL 171952Z 13007KT 10SM FEW200 SCT250 19/06 A3010 RMK AO2 SLP193 T01890056=
201711171852 METAR KATL 171852Z 13009KT 10SM FEW250 18/06 A3012 RMK AO2 SLP200 T01830056=
201711171752 METAR KATL 171752Z 10008G14KT 10SM FEW250 17/06 A3013 RMK AO2 SLP204 T01720056 10172 20050 58022=
201711171652 METAR KATL 171652Z 12004KT 10SM FEW250 16/05 A3017 RMK AO2 SLP218 T01610050=
201711171552 METAR KATL 171552Z 11008KT 10SM FEW250 14/04 A3019 RMK AO2 SLP223 T01440039=
201711171452 METAR KATL 171452Z 10011KT 10SM FEW250 13/03 A3020 RMK AO2 SLP228 T01280028 51013=
201711171352 METAR KATL 171352Z 09006KT 10SM FEW250 10/03 A3020 RMK AO2 SLP228 T01000033=
201711171252 METAR KATL 171252Z 08005KT 10SM FEW250 08/03 A3018 RMK AO2 SLP220 T00830028=
201711171152 METAR KATL 171152Z 36004KT 10SM FEW200 05/03 A3016 RMK AO2 SLP216 T00500028 10078 20050 53014=
201711171052 METAR KATL 171052Z 35003KT 10SM FEW200 06/03 A3013 RMK AO2 SLP205 T00610028=
201711170952 METAR KATL 170952Z 33005KT 10SM CLR 06/03 A3013 RMK AO2 SLP202 T00560028=
201711170852 METAR KATL 170852Z 32004KT 10SM CLR 06/03 A3012 RMK AO2 SLP200 T00610033 58000=
201711170752 METAR KATL 170752Z 32007KT 10SM CLR 06/03 A3013 RMK AO2 SLP201 T00610033=
201711170652 METAR KATL 170652Z 32006KT 10SM FEW250 06/03 A3012 RMK AO2 SLP199 T00610033=
201711170552 METAR KATL 170552Z 32006KT 10SM FEW250 07/03 A3012 RMK AO2 SLP200 T00720033 10139 20072 55001=
201711170452 METAR KATL 170452Z 31005KT 10SM FEW250 08/03 A3012 RMK AO2 SLP199 T00780033 401940078=
201711170352 METAR KATL 170352Z 32007KT 10SM FEW250 09/03 A3012 RMK AO2 SLP200 T00890033=
201711170252 METAR KATL 170252Z 31004KT 10SM FEW250 11/03 A3012 RMK AO2 SLP200 T01060033 53007=
201711170152 METAR KATL 170152Z 31007KT 10SM FEW250 11/04 A3011 RMK AO2 SLP197 T01060039=
201711170052 METAR KATL 170052Z 33008KT 10SM FEW200 SCT250 12/04 A3011 RMK AO2 SLP197 T01220044=
201711162352 METAR KATL 162352Z 32007KT 10SM FEW200 SCT250 14/06 A3010 RMK AO2 SLP193 T01390056 10194 20139 53009=
201711162252 METAR KATL 162252Z 32008KT 10SM FEW150 SCT200 BKN250 15/06 A3009 RMK AO2 SLP190 T01500056=
201711162152 METAR KATL 162152Z 35010KT 10SM FEW150 SCT200 SCT250 18/06 A3008 RMK AO2 SLP185 T01780056=
201711162052 METAR KATL 162052Z 33011KT 10SM FEW150 FEW200 SCT250 19/06 A3008 RMK AO2 SLP182 T01890061 55007=
201711161952 METAR KATL 161952Z 31008KT 10SM FEW150 FEW200 SCT250 19/07 A3007 RMK AO2 SLP181 T01940072=
201711161852 METAR KATL 161852Z 33006KT 10SM FEW200 FEW250 19/08 A3008 RMK AO2 SLP183 T01940083=
201711161752 METAR KATL 161752Z 33012G15KT 10SM FEW150 FEW200 SCT250 18/09 A3010 RMK AO2 SLP189 T01830094 10183 20106 58015=
201711161652 METAR KATL 161652Z 30007KT 10SM FEW030 SCT200 BKN250 17/10 A3013 RMK AO2 SLP201 T01720100=
201711161552 METAR KATL 161552Z 33008KT 10SM FEW027 SCT200 BKN250 17/10 A3014 RMK AO2 SLP206 T01670100=
201711161452 METAR KATL 161452Z 31012KT 10SM FEW025 SCT200 BKN250 16/09 A3014 RMK AO2 SLP206 T01560094 51012=
201711161352 METAR KATL 161352Z 31007KT 10SM FEW024 FEW200 SCT250 13/09 A3013 RMK AO2 SLP204 T01330094=
201711161311 SPECI KATL 161311Z 31005KT 10SM SCT024 SCT250 12/09 A3012 RMK AO2 T01170089=
201711161252 METAR KATL 161252Z 29005KT 10SM BKN024 BKN250 12/09 A3013 RMK AO2 SLP202 T01170089=
201711161152 METAR KATL 161152Z 31004KT 10SM BKN024 11/08 A3011 RMK AO2 SLP196 T01060083 10111 20100 53006=
201711161052 METAR KATL 161052Z 28005KT 10SM OVC028 11/08 A3009 RMK AO2 SLP190 BINOVC T01060078=
201711160952 METAR KATL 160952Z 31004KT 10SM BKN028 OVC050 10/08 A3009 RMK AO2 SLP190 T01000078=
201711160852 METAR KATL 160852Z 29006KT 10SM FEW034 BKN050 BKN110 11/07 A3009 RMK AO2 SLP188 T01060072 56005=
201711160752 METAR KATL 160752Z 29006KT 10SM BKN035 BKN055 BKN110 10/07 A3009 RMK AO2 SLP189 T01000072=
201711160652 METAR KATL 160652Z 27003KT 10SM FEW038 BKN060 BKN110 11/07 A3009 RMK AO2 SLP190 T01110072=
201711160552 METAR KATL 160552Z 21003KT 10SM SCT038 BKN075 BKN120 11/07 A3010 RMK AO2 SLP195 T01060067 10117 20106 58002=
201711160452 METAR KATL 160452Z 25003KT 10SM FEW065 SCT090 BKN110 11/06 A3011 RMK AO2 SLP195 T01110056 401440044=
201711160352 METAR KATL 160352Z 22003KT 10SM BKN060 BKN080 BKN250 11/06 A3012 RMK AO2 SLP199 T01110061=
201711160252 METAR KATL 160252Z 00000KT 10SM SCT060 BKN110 BKN250 11/06 A3011 RMK AO2 SLP198 T01060061 58002=
201711160152 METAR KATL 160152Z 15003KT 10SM SCT085 BKN120 BKN250 11/06 A3012 RMK AO2 SLP200 T01110061=
201711160052 METAR KATL 160052Z 00000KT 10SM FEW090 BKN120 BKN250 12/06 A3012 RMK AO2 SLP200 T01170061=
201711152352 METAR KATL 152352Z 00000KT 10SM FEW150 SCT200 BKN250 12/05 A3012 RMK AO2 SLP201 T01170050 10144 20117 53008=
201711152252 METAR KATL 152252Z 00000KT 10SM FEW150 SCT200 BKN250 13/04 A3009 RMK AO2 SLP192 T01330044=
201711152152 METAR KATL 152152Z 16003KT 10SM FEW180 SCT250 BKN300 14/04 A3009 RMK AO2 SLP189 T01390039=
201711152052 METAR KATL 152052Z 00000KT 10SM FEW200 FEW250 SCT300 14/04 A3009 RMK AO2 SLP191 T01390039 58015=
201711151952 METAR KATL 151952Z 00000KT 10SM FEW150 SCT250 BKN300 14/05 A3011 RMK AO2 SLP196 T01390050=
201711151852 METAR KATL 151852Z 18003KT 10SM FEW200 BKN250 BKN300 13/05 A3012 RMK AO2 SLP203 T01280050=
201711151752 METAR KATL 151752Z VRB03KT 10SM SCT200 BKN250 BKN300 12/05 A3014 RMK AO2 SLP207 T01220050 10122 20056 58024=
201711151652 METAR KATL 151652Z 11007KT 10SM FEW025 FEW200 BKN300 11/05 A3017 RMK AO2 SLP219 T01110050=
201711151552 METAR KATL 151552Z 14007KT 10SM FEW025 SCT250 BKN300 10/04 A3020 RMK AO2 SLP228 T01000044=
201711151452 METAR KATL 151452Z 13008KT 10SM FEW020 SCT250 BKN300 09/04 A3021 RMK AO2 SLP232 T00890039 51008=
201711151352 METAR KATL 151352Z 12011KT 10SM FEW200 SCT250 08/04 A3021 RMK AO2 SLP233 T00780044=
201711151252 METAR KATL 151252Z 11007KT 10SM FEW250 07/04 A3020 RMK AO2 SLP229 T00670039=
201711151152 METAR KATL 151152Z 10008KT 10SM FEW250 06/04 A3019 RMK AO2 SLP225 T00560044 10072 20044 50000=
201711151052 METAR KATL 151052Z 09006KT 10SM FEW250 05/04 A3019 RMK AO2 SLP225 T00500044=
201711150952 METAR KATL 150952Z 08005KT 10SM FEW029 FEW250 06/04 A3019 RMK AO2 SLP227 T00560044=
201711150852 METAR KATL 150852Z 08006KT 10SM FEW030 SCT250 06/04 A3019 RMK AO2 SLP223 T00560044 55005=
201711150752 METAR KATL 150752Z 09005KT 10SM FEW030 FEW250 06/04 A3018 RMK AO2 SLP222 T00610044=
201711150652 METAR KATL 150652Z 08006KT 10SM FEW030 SCT250 06/05 A3020 RMK AO2 SLP227 T00610050=
201711150552 METAR KATL 150552Z 08005KT 10SM FEW250 07/05 A3020 RMK AO2 SLP228 T00670050 10122 20067 55001=
201711150452 METAR KATL 150452Z 11005KT 10SM FEW250 08/06 A3020 RMK AO2 SLP227 T00830056 401610050=
201711150352 METAR KATL 150352Z 11007KT 10SM FEW250 09/06 A3020 RMK AO2 SLP229 T00890061=
201711150252 METAR KATL 150252Z 11005KT 10SM FEW250 09/07 A3021 RMK AO2 SLP231 T00940067 53011=
201711150152 METAR KATL 150152Z 12005KT 10SM FEW250 10/07 A3019 RMK AO2 SLP225 T01000067=
201711150052 METAR KATL 150052Z 12005KT 10SM FEW250 11/07 A3018 RMK AO2 SLP223 T01110067=
201711142352 METAR KATL 142352Z 12007KT 10SM FEW250 12/07 A3017 RMK AO2 SLP219 T01220067 10161 20122 56001=
201711142252 METAR KATL 142252Z 11006KT 10SM FEW250 13/07 A3017 RMK AO2 SLP220 T01330067=
201711142152 METAR KATL 142152Z 09006KT 10SM FEW035 14/07 A3017 RMK AO2 SLP218 T01440067=
201711142052 METAR KATL 142052Z 09007KT 10SM FEW040 16/07 A3018 RMK AO2 SLP220 T01560067 56019=
201711141952 METAR KATL 141952Z VRB04KT 10SM SCT035 14/07 A3019 RMK AO2 SLP225 T01440067=
201711141852 METAR KATL 141852Z 04004KT 10SM SCT030 SCT150 14/07 A3021 RMK AO2 SLP231 T01440072=
201711141752 METAR KATL 141752Z 09006KT 10SM FEW030 FEW150 14/07 A3024 RMK AO2 SLP240 T01390072 10144 20061 58022=
201711141652 METAR KATL 141652Z 10004KT 10SM FEW120 BKN150 BKN250 12/07 A3027 RMK AO2 SLP254 ACC OHD-E-SE-S T01220072=
201711141552 METAR KATL 141552Z 07007KT 10SM FEW120 SCT150 SCT250 11/06 A3030 RMK AO2 SLP264 T01060061=
201711141452 METAR KATL 141452Z 09007KT 10SM FEW120 BKN150 BKN200 09/06 A3030 RMK AO2 SLP263 T00940056 50013=
201711141352 METAR KATL 141352Z 09010KT 10SM FEW040 SCT120 BKN200 BKN250 09/06 A3030 RMK AO2 SLP263 T00890056=
201711141252 METAR KATL 141252Z 09006KT 10SM FEW040 SCT200 BKN250 07/06 A3029 RMK AO2 SLP261 T00670056=
201711141152 METAR KATL 141152Z 09007KT 10SM FEW020 SCT040 BKN220 06/06 A3026 RMK AO2 SLP250 T00610061 10072 20050 51002=
201711141052 METAR KATL 141052Z 08006KT 10SM FEW017 SCT200 07/06 A3026 RMK AO2 SLP247 T00670061=
201711140952 METAR KATL 140952Z 07006KT 10SM FEW012 FEW017 SCT250 07/06 A3026 RMK AO2 SLP248 T00670061=
201711140931 SPECI KATL 140931Z 05005KT 10SM FEW012 SCT017 SCT250 07/06 A3025 RMK AO2 SCT017 V BKN T00670061=
201711140852 METAR KATL 140852Z 01005KT 10SM BKN017 06/05 A3026 RMK AO2 SLP245 T00610050 55002=
201711140752 METAR KATL 140752Z 34005KT 10SM FEW015 06/05 A3025 RMK AO2 SLP243 T00560050=
201711140652 METAR KATL 140652Z 34006KT 10SM FEW015 06/06 A3025 RMK AO2 SLP244 T00610056=
201711140552 METAR KATL 140552Z 33006KT 10SM CLR 07/06 A3026 RMK AO2 SLP249 T00670056 10122 20067 56000=
201711140452 METAR KATL 140452Z 33006KT 10SM FEW015 07/06 A3026 RMK AO2 SLP249 T00720056 401830072=
201711140352 METAR KATL 140352Z 34007KT 10SM CLR 08/06 A3026 RMK AO2 SLP248 T00830061=
201711140252 METAR KATL 140252Z 33004KT 10SM CLR 09/06 A3026 RMK AO2 SLP249 T00890061 53005=
201711140152 METAR KATL 140152Z 32007KT 10SM CLR 09/07 A3026 RMK AO2 SLP248 T00940067=
201711140052 METAR KATL 140052Z 33008KT 10SM CLR 11/07 A3026 RMK AO2 SLP248 T01110072=
201711132352 METAR KATL 132352Z 32009KT 10SM CLR 12/08 A3025 RMK AO2 SLP245 T01220078 10183 20122 53005=
201711132252 METAR KATL 132252Z 32009KT 10SM CLR 14/08 A3025 RMK AO2 SLP244 T01390083=
201711132152 METAR KATL 132152Z 34009KT 10SM CLR 17/08 A3024 RMK AO2 SLP239 T01670083=
201711132052 METAR KATL 132052Z 36010KT 10SM CLR 18/09 A3023 RMK AO2 SLP238 T01780094 56017=
201711131952 METAR KATL 131952Z 35007KT 10SM CLR 18/09 A3025 RMK AO2 SLP241 T01830089=
201711131852 METAR KATL 131852Z 33009KT 10SM CLR 18/10 A3027 RMK AO2 SLP248 T01780100=
201711131752 METAR KATL 131752Z 34009KT 10SM FEW030 17/09 A3029 RMK AO2 SLP256 T01670094 10172 20072 58013=
201711131652 METAR KATL 131652Z 36009KT 10SM FEW030 FEW200 16/09 A3031 RMK AO2 SLP264 T01610089=
201711131552 METAR KATL 131552Z 35012KT 10SM FEW020 FEW200 15/09 A3032 RMK AO2 SLP267 T01500094=
201711131452 METAR KATL 131452Z 35007KT 10SM FEW006 FEW200 12/10 A3032 RMK AO2 SLP270 T01220100 50007=
201711131430 SPECI KATL 131430Z 35009KT 8SM SCT004 11/09 A3032 RMK AO2 T01110094=
201711131412 SPECI KATL 131412Z 35007KT 2SM BR BKN004 09/09 A3033 RMK AO2 SFC VIS 5 CIG 003V006 T00940094=
201711131410 SPECI KATL 131410Z 33008KT 1SM R09R/P6000FT BR BKN004 09/09 A3033 RMK AO2 SFC VIS 5 CIG 003V006 T00940094=
201711131352 METAR KATL 131352Z 34007KT 1SM R09R/P6000FT BR OVC003 09/09 A3033 RMK AO2 SFC VIS 3 SLP273 CIG 002V004 T00890089=
201711131252 METAR KATL 131252Z 34006KT 1/2SM R09R/6000VP6000FT FG OVC002 08/08 A3032 RMK AO2 SLP270 CIG 001V003 T00780078=
201711131152 METAR KATL 131152Z 32008KT 1/2SM R09R/2800V4000FT BR OVC003 07/07 A3030 RMK AO2 SFC VIS 3/4 SLP265 CIG 001V004 BINOVC T00720072 10089 20072 53003=
201711131123 SPECI KATL 131123Z 32007KT 1/2SM R09R/3000V5000FT FG VV002 07/07 A3030 RMK AO2 T00720072=
201711131052 METAR KATL 131052Z 31006KT 1/4SM R09R/1800V4000FT FG VV002 07/07 A3030 RMK AO2 SLP262 T00720072=
201711131038 SPECI KATL 131038Z 31006KT 1/4SM R09R/1800V2000FT FG VV002 08/08 A3030 RMK AO2 T00780078=
201711130956 SPECI KATL 130956Z 30004KT 1/4SM R09R/1600V2000FT FG VV001 08/08 A3030 RMK AO2 T00780078 $=
201711130952 METAR KATL 130952Z 32004KT 1/4SM R09R/1600V3500FT FG VV002 08/08 A3029 RMK AO2 SLP262 T00780078 $=
201711130852 METAR KATL 130852Z 32005KT 1/4SM R09R/2400V3500FT FG VV002 08/08 A3030 RMK AO2 SLP263 T00780078 58005 $=
201711130800 SPECI KATL 130800Z 34007KT 1/4SM R09R/2000V3500FT FG VV002 08/08 A3031 RMK AO2 T00780078 $=
201711130752 METAR KATL 130752Z 32005KT 1/2SM R09R/2200VP6000FT FG OVC002 08/08 A3030 RMK AO2 SLP265 CIG 001V003 T00780078 $=
201711130704 SPECI KATL 130704Z 33005KT 1 1/2SM BR OVC002 08/08 A3031 RMK AO2 CIG 001V003 T00830083 $=
201711130652 METAR KATL 130652Z 33008KT 2SM BR OVC003 08/08 A3032 RMK AO2 SLP269 CIG 002V004 T00830083 $=
201711130642 SPECI KATL 130642Z 33007KT 2 1/2SM BR BKN003 BKN075 BKN200 08/08 A3032 RMK AO2 CIG 002V004 T00830083 $=
201711130633 SPECI KATL 130633Z 32005KT 3SM BR BKN003 BKN075 BKN200 08/08 A3031 RMK AO2 CIG 002V004 T00830083 $=
201711130626 SPECI KATL 130626Z 33006KT 3SM BR FEW003 BKN075 BKN200 08/08 A3032 RMK AO2 T00830083 $=
201711130552 METAR KATL 130552Z 00000KT 7SM BKN075 09/08 A3032 RMK AO2 SLP269 T00890083 10094 20089 58006 $=
201711130452 METAR KATL 130452Z 34006KT 8SM BKN065 09/08 A3033 RMK AO2 SLP273 T00940083 400940067 $=
201711130352 METAR KATL 130352Z 00000KT 8SM BKN070 BKN085 09/08 A3033 RMK AO2 SLP272 T00890078 $=
201711130305 SPECI KATL 130305Z 10004KT 8SM SCT011 BKN080 09/08 A3033 RMK AO2 T00890078 $=
201711130252 METAR KATL 130252Z 12004KT 8SM BKN011 BKN080 09/08 A3033 RMK AO2 SLP275 T00890078 50002=
201711130152 METAR KATL 130152Z 12003KT 9SM OVC010 09/08 A3034 RMK AO2 SLP278 T00890078=
201711130140 SPECI KATL 130140Z 10004KT 8SM OVC010 09/08 A3034 RMK AO2 T00890078=
201711130120 SPECI KATL 130120Z 10005KT 8SM BKN009 OVC100 09/08 A3033 RMK AO2 T00890078=
201711130052 METAR KATL 130052Z 11004KT 7SM OVC010 09/08 A3034 RMK AO2 SLP276 T00890078=
201711130015 SPECI KATL 130015Z 08004KT 7SM BKN010 OVC085 09/08 A3033 RMK AO2 T00890078=
201711130008 SPECI KATL 130008Z 10005KT 7SM SCT010 SCT047 BKN085 09/08 A3032 RMK AO2 T00890078=
201711122357 SPECI KATL 122357Z VRB06KT 7SM BKN010 OVC047 09/08 A3032 RMK AO2 T00890078=
201711122352 METAR KATL 122352Z 10004KT 8SM BKN010 OVC045 09/08 A3033 RMK AO2 SLP272 60000 T00890078 10094 20083 53007=
201711122252 METAR KATL 122252Z 11003KT 9SM OVC011 09/08 A3031 RMK AO2 SLP266 T00890078=
201711122234 SPECI KATL 122234Z 10005KT 10SM BKN011 OVC065 09/08 A3030 RMK AO2 T00890078=
201711122210 SPECI KATL 122210Z 10006KT 10SM SCT011 BKN044 BKN060 BKN250 09/08 A3029 RMK AO2 T00940078=
201711122152 METAR KATL 122152Z 04006KT 9SM SCT009 OVC012 09/07 A3030 RMK AO2 SLP265 T00940072=
201711122052 METAR KATL 122052Z 10005KT 10SM SCT008 OVC013 09/07 A3030 RMK AO2 DZE1956 SLP265 P0000 60000 T00890072 56013=
201711121952 METAR KATL 121952Z 04008KT 9SM -DZ OVC010 09/07 A3031 RMK AO2 SLP266 P0000 T00940072=
201711121941 SPECI KATL 121941Z 04007KT 6SM -DZ BR OVC008 09/07 A3031 RMK AO2 P0000 T00890072=
201711121852 METAR KATL 121852Z 02006KT 6SM -DZ BR OVC012 08/07 A3032 RMK AO2 SLP271 DZB20 P0000 T00830067=
201711121752 METAR KATL 121752Z 02006KT 10SM OVC013 08/06 A3034 RMK AO2 SLP278 T00830061 10089 20067 58009=
201711121652 METAR KATL 121652Z 07006KT 10SM OVC013 08/06 A3036 RMK AO2 SLP284 T00830056=
201711121552 METAR KATL 121552Z 11006KT 10SM OVC013 08/05 A3037 RMK AO2 SLP288 T00780050=
201711121452 METAR KATL 121452Z 08009KT 10SM OVC013 08/04 A3037 RMK AO2 SLP288 T00780044 50005=
201711121352 METAR KATL 121352Z 09011G16KT 10SM OVC015 07/03 A3038 RMK AO2 SLP293 CIG 013V017 T00670033=
201711121333 SPECI KATL 121333Z 11012KT 10SM OVC014 07/03 A3037 RMK AO2 T00720033=
201711121252 METAR KATL 121252Z 09009KT 10SM OVC016 07/04 A3037 RMK AO2 SLP287 T00720039=
201711121152 METAR KATL 121152Z 09009KT 10SM OVC017 07/03 A3036 RMK AO2 SLP284 T00720033 10083 20067 53003=
201711121052 METAR KATL 121052Z 09012KT 10SM OVC017 07/03 A3035 RMK AO2 SLP281 T00720028=
201711120952 METAR KATL 120952Z 10010KT 10SM OVC019 08/03 A3035 RMK AO2 SLP280 T00780028=
201711120852 METAR KATL 120852Z 09011KT 10SM OVC020 08/03 A3035 RMK AO2 SLP279 T00830028 55003=
201711120752 METAR KATL 120752Z 10010KT 10SM BKN021 BKN030 OVC060 08/02 A3034 RMK AO2 SLP277 T00830022=
201711120744 SPECI KATL 120744Z 10010KT 10SM BKN021 BKN030 OVC060 08/02 A3034 RMK AO2 T00830022=
201711120731 SPECI KATL 120731Z 11010KT 10SM SCT021 OVC055 08/02 A3034 RMK AO2 T00830022=
201711120652 METAR KATL 120652Z 10006KT 10SM OVC022 08/02 A3034 RMK AO2 SLP277 T00830022=
201711120552 METAR KATL 120552Z 09011KT 10SM BKN024 OVC060 08/02 A3036 RMK AO2 RAE0459 SLP282 P0000 60000 T00830022 10089 20083 58008=
201711120452 METAR KATL 120452Z 09007KT 10SM -RA OVC024 08/03 A3037 RMK AO2 RAB50 SLP288 P0000 T00830028 401220056=
201711120352 METAR KATL 120352Z 10009KT 10SM OVC024 08/03 A3038 RMK AO2 SLP290 T00830028=
201711120252 METAR KATL 120252Z 08011KT 10SM OVC024 08/03 A3038 RMK AO2 SLP291 T00830028 51012=
201711120152 METAR KATL 120152Z 10009KT 10SM OVC024 08/03 A3038 RMK AO2 SLP290 T00830028=
201711120052 METAR KATL 120052Z 10010KT 10SM OVC022 09/03 A3036 RMK AO2 SLP284 T00890028=
201711112352 METAR KATL 112352Z 09010KT 10SM OVC022 09/03 A3035 RMK AO2 SLP280 T00890033 10117 20089 53008=
201711112252 METAR KATL 112252Z 09010KT 10SM OVC023 09/04 A3033 RMK AO2 SLP275 T00940039=
201711112152 METAR KATL 112152Z 10011KT 10SM OVC023 10/04 A3032 RMK AO2 SLP272 T01000039=
201711112052 METAR KATL 112052Z 11009KT 10SM BKN023 OVC030 11/04 A3032 RMK AO2 SLP271 T01060044 56014=
201711111952 METAR KATL 111952Z 11009KT 10SM OVC022 11/04 A3032 RMK AO2 SLP270 T01110044=
201711111852 METAR KATL 111852Z 09011KT 10SM OVC023 11/05 A3034 RMK AO2 SLP275 T01110050=
201711111752 METAR KATL 111752Z 10010KT 10SM BKN025 OVC250 11/05 A3036 RMK AO2 SLP284 BINOVC T01110050 10122 20056 56023=
201711111731 SPECI KATL 111731Z 10008KT 020V130 10SM BKN026 BKN250 12/05 A3037 RMK AO2 T01170050=
201711111652 METAR KATL 111652Z 08010KT 10SM FEW022 BKN250 11/04 A3038 RMK AO2 SLP291 T01060044=
201711111552 METAR KATL 111552Z 08010KT 10SM FEW022 BKN250 09/03 A3040 RMK AO2 SLP298 T00940033=
201711111452 METAR KATL 111452Z 08013KT 10SM SCT022 BKN200 BKN250 08/03 A3043 RMK AO2 SLP309 T00830028 53020=
201711111352 METAR KATL 111352Z 07015KT 10SM FEW020 SCT200 BKN250 07/03 A3041 RMK AO2 SLP302 T00670028=
201711111252 METAR KATL 111252Z 08015G22KT 10SM SCT200 BKN250 06/03 A3039 RMK AO2 SLP293 T00560028=
201711111152 METAR KATL 111152Z 08015KT 10SM FEW200 SCT250 06/03 A3037 RMK AO2 SLP289 T00560028 10089 20056 52015=
201711111052 METAR KATL 111052Z 08013KT 10SM FEW250 06/03 A3036 RMK AO2 SLP282 T00610033=
201711110952 METAR KATL 110952Z 08013KT 10SM FEW250 07/04 A3034 RMK AO2 SLP276 T00670039=
201711110852 METAR KATL 110852Z 09010KT 10SM FEW250 07/06 A3033 RMK AO2 SLP270 T00720056 53017=
201711110752 METAR KATL 110752Z 09009KT 10SM FEW200 SCT250 07/06 A3031 RMK AO2 SLP262 T00720056=
201711110652 METAR KATL 110652Z 08009KT 10SM SCT200 BKN250 08/06 A3029 RMK AO2 SLP258 T00830056=
201711110552 METAR KATL 110552Z 07005KT 10SM BKN250 09/04 A3028 RMK AO2 SLP253 T00890044 10122 20083 53004=
201711110452 METAR KATL 110452Z 03003KT 10SM BKN250 09/04 A3027 RMK AO2 SLP251 T00890039 401780056=
201711110352 METAR KATL 110352Z 02005KT 10SM SCT250 09/03 A3026 RMK AO2 SLP250 T00940033=
201711110252 METAR KATL 110252Z 34005KT 10SM FEW250 09/03 A3026 RMK AO2 SLP250 T00890033 53013=
201711110152 METAR KATL 110152Z 33006KT 10SM FEW250 10/03 A3025 RMK AO2 SLP245 T01000033=
201711110052 METAR KATL 110052Z 33008KT 10SM FEW250 11/04 A3023 RMK AO2 SLP241 T01110039=
201711102352 METAR KATL 102352Z 33008KT 10SM SCT250 12/04 A3023 RMK AO2 SLP237 T01220044 10178 20122 53009=
201711102252 METAR KATL 102252Z 33007KT 10SM BKN250 14/04 A3021 RMK AO2 SLP232 T01390044=
201711102152 METAR KATL 102152Z 33009KT 10SM SCT250 16/04 A3020 RMK AO2 SLP226 T01610039=
201711102052 METAR KATL 102052Z 32007KT 10SM SCT250 17/05 A3020 RMK AO2 SLP225 T01720050 55006=
201711101952 METAR KATL 101952Z 35008KT 10SM SCT250 18/05 A3019 RMK AO2 SLP223 T01780050=
201711101852 METAR KATL 101852Z 32006KT 10SM FEW250 17/06 A3020 RMK AO2 SLP228 T01720061=
201711101752 METAR KATL 101752Z 34006KT 10SM FEW250 17/06 A3021 RMK AO2 SLP231 T01670056 10167 20061 58012=
201711101652 METAR KATL 101652Z 36003KT 10SM FEW250 15/06 A3024 RMK AO2 SLP242 T01500061=
201711101552 METAR KATL 101552Z 34005KT 10SM FEW250 13/06 A3025 RMK AO2 SLP245 T01330056=
201711101452 METAR KATL 101452Z 36007KT 10SM FEW250 12/06 A3025 RMK AO2 SLP245 T01170061 51022=
201711101352 METAR KATL 101352Z 33010KT 10SM FEW016 FEW250 09/06 A3024 RMK AO2 SLP242 T00890061=
201711101252 METAR KATL 101252Z 32008KT 10SM FEW016 FEW250 07/06 A3021 RMK AO2 SLP231 T00670056=
201711101152 METAR KATL 101152Z 32006KT 10SM FEW018 FEW250 06/05 A3018 RMK AO2 SLP223 70009 T00610050 10083 20056 51018=
201711101052 METAR KATL 101052Z 33007KT 10SM CLR 06/06 A3017 RMK AO2 SLP218 T00610056=
201711100952 METAR KATL 100952Z 33005KT 10SM CLR 07/07 A3015 RMK AO2 SLP212 T00670067=
201711100852 METAR KATL 100852Z 32006KT 10SM CLR 07/07 A3013 RMK AO2 SLP204 T00720067 57002=
201711100752 METAR KATL 100752Z 33009KT 10SM CLR 08/08 A3013 RMK AO2 SLP203 T00780078=
201711100652 METAR KATL 100652Z 32008KT 10SM CLR 08/08 A3014 RMK AO2 SLP207 T00830078=
201711100552 METAR KATL 100552Z 31006KT 10SM CLR 08/08 A3014 RMK AO2 SLP206 T00830083 10122 20083 58003=
201711100452 METAR KATL 100452Z 33008KT 10SM CLR 09/08 A3013 RMK AO2 SLP206 T00940083 401280089=
201711100352 METAR KATL 100352Z 32008KT 10SM CLR 09/09 A3015 RMK AO2 SLP211 T00940089=
201711100252 METAR KATL 100252Z 32009KT 10SM CLR 10/09 A3015 RMK AO2 SLP209 T01000094 51007=
201711100152 METAR KATL 100152Z 31008KT 10SM CLR 11/09 A3014 RMK AO2 SLP207 T01060094=
201711100052 METAR KATL 100052Z 32009KT 10SM FEW012 11/10 A3014 RMK AO2 SLP205 T01110100=
201711100031 SPECI KATL 100031Z 32007KT 10SM FEW012 SCT025 12/11 A3013 RMK AO2 T01170106=
201711092352 METAR KATL 092352Z 32009KT 10SM SCT012 BKN018 OVC040 12/11 A3012 RMK AO2 SLP202 T01220106 10128 20111 53011=
201711092252 METAR KATL 092252Z 32007KT 10SM SCT012 BKN020 OVC040 12/11 A3011 RMK AO2 SLP196 T01220106=
201711092152 METAR KATL 092152Z 32010KT 10SM BKN010 BKN030 OVC040 12/11 A3009 RMK AO2 SLP191 T01220111=
201711092052 METAR KATL 092052Z 33006KT 9SM BKN012 BKN030 OVC050 12/11 A3009 RMK AO2 SLP190 T01220111 53002=
201711092041 SPECI KATL 092041Z 32007KT 9SM BKN010 BKN020 OVC040 12/11 A3009 RMK AO2 T01220111=
201711091952 METAR KATL 091952Z 33005KT 9SM BKN008 BKN020 OVC040 12/11 A3008 RMK AO2 SLP188 T01170111=
201711091852 METAR KATL 091852Z 34004KT 10SM BKN010 BKN020 OVC040 12/10 A3009 RMK AO2 SLP189 T01170100=
201711091811 SPECI KATL 091811Z 34006KT 10SM BKN009 BKN030 OVC050 12/10 A3009 RMK AO2 T01170100=
201711091752 METAR KATL 091752Z 34004KT 10SM BKN010 BKN030 OVC050 12/10 A3009 RMK AO2 SLP189 60009 T01170100 10117 20100 58016=
201711091659 SPECI KATL 091659Z 12006KT 10SM BKN010 BKN020 OVC050 11/10 A3010 RMK AO2 PRESFR T01060100=
201711091652 METAR KATL 091652Z 15003KT 10SM BKN008 BKN020 OVC050 11/10 A3012 RMK AO2 SLP200 T01060100=
201711091601 SPECI KATL 091601Z 08007KT 10SM FEW010 BKN020 OVC050 11/10 A3011 RMK AO2 T01060100=
201711091552 METAR KATL 091552Z 10007KT 10SM BKN010 BKN040 OVC060 11/10 A3010 RMK AO2 RAB29E46 PRESFR SLP195 P0000 T01060100=
201711091527 SPECI KATL 091527Z 07007KT 10SM BKN009 BKN015 OVC030 11/09 A3013 RMK AO2 T01060094=
201711091452 METAR KATL 091452Z 05007KT 10SM BKN010 BKN030 OVC060 11/09 A3013 RMK AO2 RAE47 SLP205 P0000 60009 T01060094 51014=
201711091427 SPECI KATL 091427Z 07007KT 10SM -RA BKN010 BKN020 OVC050 10/09 A3013 RMK AO2 P0000 T01000094=
201711091352 METAR KATL 091352Z 06007KT 3SM -RA BKN007 BKN018 OVC050 10/09 A3012 RMK AO2 SFC VIS 9 SLP201 CIG 005V009 P0002 T01000094=
201711091252 METAR KATL 091252Z 06008KT 3SM -RA BR BKN008 BKN018 OVC055 10/09 A3011 RMK AO2 SFC VIS 6 SLP196 CIG 006V010 P0007 T01000094=
201711091152 METAR KATL 091152Z 05007KT 3SM -RA BR BKN007 BKN014 OVC060 10/09 A3009 RMK AO2 SFC VIS 6 SLP190 CIG 005V009 P0004 60030 70031 T01000094 10106 20100 51012=
201711091128 SPECI KATL 091128Z 09005KT 3SM -RA BKN007 BKN014 OVC065 10/10 A3009 RMK AO2 SFC VIS 7 CIG 005V009 P0001 T01000100=
201711091108 SPECI KATL 091108Z 07008KT 3SM -RA SCT007 OVC014 10/10 A3008 RMK AO2 SFC VIS 7 P0000 T01000100=
201711091052 METAR KATL 091052Z 08009KT 3SM -RA BKN007 BKN015 OVC065 10/10 A3009 RMK AO2 SFC VIS 8 SLP187 CIG 005V009 P0006 T01000100=
201711091032 SPECI KATL 091032Z 09007KT 3SM -RA BKN007 BKN014 OVC060 10/10 A3007 RMK AO2 SFC VIS 7 CIG 005V009 P0005 T01000100=
201711090952 METAR KATL 090952Z 08007KT 3/4SM R09R/P6000FT -RA BR OVC006 10/10 A3007 RMK AO2 SFC VIS 6 SLP181 CIG 004V008 P0006 T01000100=
201711090852 METAR KATL 090852Z 08009KT 3/4SM R09R/P6000FT -RA BKN005 BKN048 OVC090 10/10 A3006 RMK AO2 SFC VIS 8 SLP178 CIG 003V007 TWRINC P0006 60014 T01000100 58016 $=
201711090752 METAR KATL 090752Z 05007KT 3/4SM R09R/P6000FT -RA BR OVC006 10/10 A3009 RMK AO2 SFC VIS 4 SLP189 CIG 005V008 P0007 T01000100 $=
201711090730 SPECI KATL 090730Z 09008KT 3/4SM R09R/P6000FT RA BR OVC005 10/10 A3009 RMK AO2 SFC VIS 3 CIG 004V007 P0004 T01000100 $=
201711090652 METAR KATL 090652Z 07006KT 3/4SM R09R/P6000FT -RA BR OVC004 10/10 A3010 RMK AO2 SFC VIS 4 SLP193 CIG 003V005 TWRINC P0001 T01000100 $=
201711090552 METAR KATL 090552Z 08006KT 3/4SM R09R/P6000FT -RA BR OVC004 10/10 A3010 RMK AO2 SFC VIS 5 DZE28RAB28 SLP194 CIG 003V006 P0000 60000 T01000100 10144 20100 53004 $=
201711090452 METAR KATL 090452Z 07009KT 3/4SM R09R/P6000FT -DZ BR OVC004 11/11 A3009 RMK AO2 SFC VIS 3 SLP190 CIG 003V006 P0000 T01060106 401940106 $=
201711090352 METAR KATL 090352Z 09007KT 3/4SM R09R/P6000FT -DZ BR OVC004 11/11 A3009 RMK AO2 SFC VIS 2 SLP189 CIG 003V005 P0000 T01110111 $=
201711090252 METAR KATL 090252Z 05008KT 1/2SM R09R/P6000FT -DZ BR OVC003 11/11 A3009 RMK AO2 SFC VIS 4 SLP189 P0000 60000 T01110111 53007 $=
201711090152 METAR KATL 090152Z 07010KT 1/2SM R09R/P6000FT -DZ BR OVC004 12/12 A3007 RMK AO2 SFC VIS 5 DZB45 SLP183 CIG 003V005 P0000 T01170117 $=
201711090052 METAR KATL 090052Z 08010KT 3/4SM R09R/P6000FT BKN004 OVC012 12/12 A3007 RMK AO2 SFC VIS 9 RAE03 SLP181 CIG 003V005 P0000 T01220122 $=
201711090027 SPECI KATL 090027Z 10009KT 2SM BKN004 OVC012 13/13 A3008 RMK AO2 SFC VIS 8 RAE03 P0000 T01330133 $=
201711090015 SPECI KATL 090015Z 09010KT 2 1/2SM BKN005 BKN012 OVC060 13/13 A3008 RMK AO2 SFC VIS 8 RAE03 CIG 004V007 P0000 T01330133 $=
201711090004 SPECI KATL 090004Z 07009KT 9SM BKN006 BKN012 OVC060 14/14 A3007 RMK AO2 RAE03 P0000 T01440139 $=
201711082352 METAR KATL 082352Z 01007KT 8SM -RA FEW009 BKN015 OVC100 14/13 A3007 RMK AO2 RAB26 SLP181 P0000 60001 T01440133 10172 20144 50007 $=
201711082347 SPECI KATL 082347Z 02009KT 9SM -RA BKN015 BKN026 OVC100 14/13 A3006 RMK AO2 RAB26 P0000 $=
201711082252 METAR KATL 082252Z 28004KT 10SM FEW015 SCT026 BKN035 OVC150 14/14 A3008 RMK AO2 RAE30 SLP184 P0000 T01440139 $=
201711082152 METAR KATL 082152Z 34007KT 9SM -RA FEW015 BKN040 BKN110 OVC150 15/14 A3006 RMK AO2 SLP179 P0001 T01500139 $=
201711082111 SPECI KATL 082111Z 32007KT 10SM -RA SCT015 BKN030 OVC120 15/14 A3006 RMK AO2 P0000 T01500139 $=
201711082052 METAR KATL 082052Z 30005KT 10SM -RA BKN015 BKN030 OVC120 16/13 A3005 RMK AO2 RAB44 SLP173 P0000 60000 T01560133 55000 $=
201711082038 SPECI KATL 082038Z 29006KT 10SM BKN015 BKN035 OVC120 16/13 A3005 RMK AO2 T01560133 $=
201711081952 METAR KATL 081952Z 32009KT 10SM FEW010 SCT040 BKN120 OVC250 16/13 A3002 RMK AO2 SLP163 BINOVC DSNT E T01610133=
201711081852 METAR KATL 081852Z 31007KT 10SM FEW010 BKN020 OVC050 16/14 A3004 RMK AO2 SLP167 T01610139=
201711081752 METAR KATL 081752Z 33007KT 10SM FEW010 BKN020 OVC060 16/14 A3005 RMK AO2 SLP172 60000 T01560139 10161 20150 58007=
201711081736 SPECI KATL 081736Z 32005KT 10SM FEW005 BKN010 OVC020 16/14 A3006 RMK AO2 T01560139=
201711081652 METAR KATL 081652Z 31005KT 9SM BKN006 BKN020 OVC060 15/14 A3007 RMK AO2 SLP178 T01500144=
201711081556 SPECI KATL 081556Z 33005KT 2SM BR BKN005 BKN020 OVC060 15/15 A3007 RMK AO2 SFC VIS 5 T01500150=
201711081552 METAR KATL 081552Z 35005KT 6SM BR BKN005 BKN020 OVC060 15/15 A3007 RMK AO2 SLP180 T01500150=
201711081452 METAR KATL 081452Z 33007KT 7SM BKN007 BKN020 OVC060 16/15 A3007 RMK AO2 SLP179 60000 T01610150 52009=
201711081352 METAR KATL 081352Z 33004KT 10SM BKN005 BKN065 OVC120 16/16 A3006 RMK AO2 SLP175 CIG 004V006 BINOVC T01560156=
201711081329 SPECI KATL 081329Z 33007KT 10SM BKN005 BKN046 OVC070 16/16 A3006 RMK AO2 CIG 004V006 T01560156=
201711081252 METAR KATL 081252Z 30005KT 10SM FEW005 SCT040 BKN070 OVC130 15/15 A3006 RMK AO2 RAE02 SLP173 P0000 T01500150=
201711081152 METAR KATL 081152Z 35008KT 6SM -RA BR SCT006 BKN042 OVC075 16/16 A3005 RMK AO2 RAB1058 SLP169 P0028 60030 70030 T01560156 10189 20156 51013=
201711081133 SPECI KATL 081133Z 31007KT 6SM -RA BR FEW006 SCT026 BKN075 OVC130 16/16 A3004 RMK AO2 RAB1058 P0022 T01560156=
201711081128 SPECI KATL 081128Z 34008KT 4SM R09R/6000VP6000FT RA BR FEW006 BKN028 BKN065 OVC130 16/16 A3004 RMK AO2 RAB1058 P0021 T01560156=
201711081122 SPECI KATL 081122Z 34009KT 2SM R09R/6000VP6000FT +RA BR FEW007 BKN020 OVC055 16/16 A3004 RMK AO2 RAB1058 P0013 T01560156=
201711081114 SPECI KATL 081114Z 32011KT 2SM +RA BR SCT013 BKN038 OVC070 16/16 A3004 RMK AO2 RAB1058 P0001 T01560156=
201711081103 SPECI KATL 081103Z 32010KT 10SM -RA FEW008 SCT013 BKN050 OVC130 16/16 A3004 RMK AO2 RAB1058 P0000 T01610156=
201711081052 METAR KATL 081052Z 32009KT 7SM SCT008 BKN013 OVC055 16/16 A3003 RMK AO2 SLP163 CIG 011V015 T01610156=
201711081046 SPECI KATL 081046Z 32008KT 7SM SCT008 BKN014 OVC055 16/16 A3003 RMK AO2 CIG 012V016=
201711080952 METAR KATL 080952Z 31008KT 7SM FEW006 SCT060 BKN110 OVC200 16/16 A3002 RMK AO2 SLP160 T01610161 $=
201711080852 METAR KATL 080852Z 28004KT 10SM SCT055 BKN120 BKN200 OVC250 17/17 A3001 RMK AO2 SLP154 60002 T01670167 57008 $=
201711080752 METAR KATL 080752Z 28003KT 10SM FEW033 SCT065 BKN130 OVC200 17/17 A3000 RMK AO2 RAE51 SLP153 P0002 T01670167 $=
201711080739 SPECI KATL 080739Z 32005KT 10SM -RA FEW013 BKN055 OVC120 17/17 A3001 RMK AO2 P0002 T01720167 $=
201711080726 SPECI KATL 080726Z 31007KT 7SM -RA SCT013 BKN028 OVC040 17/17 A3002 RMK AO2 P0001 T01720167 $=
201711080652 METAR KATL 080652Z 31015G21KT 4SM -RA BR OVC014 18/17 A3003 RMK AO2 RAB42 SLP162 CIG 012V016 P0000 T01780167 $=
201711080647 SPECI KATL 080647Z 31014G21KT 6SM -RA BR OVC014 18/17 A3003 RMK AO2 RAB42 CIG 012V016 P0000 $=
201711080558 SPECI KATL 080558Z 29006KT 10SM FEW006 SCT016 BKN028 BKN150 19/18 A3001 RMK AO2 T01890178 $=
201711080552 METAR KATL 080552Z 29007KT 10SM FEW007 SCT015 BKN250 18/18 A3001 RMK AO2 SLP155 T01830178 10222 20183 53001 $=
201711080530 SPECI KATL 080530Z 30008KT 10SM FEW007 SCT015 BKN250 19/17 A3001 RMK AO2 T01890172 $=
201711080452 METAR KATL 080452Z 30006KT 9SM FEW007 BKN015 BKN250 19/19 A3001 RMK AO2 SLP153 T01940189 402610172 $=
201711080428 SPECI KATL 080428Z 00000KT 8SM FEW007 SCT015 SCT040 BKN250 19/19 A3001 RMK AO2 T01940194 $=
201711080401 SPECI KATL 080401Z 27004KT 8SM FEW007 BKN015 BKN040 BKN250 19/19 A3001 RMK AO2 T01940194 $=
201711080352 METAR KATL 080352Z 28005KT 8SM FEW008 SCT015 BKN040 BKN250 19/19 A3001 RMK AO2 SLP155 T01940194 $=
201711080252 METAR KATL 080252Z 26004KT 9SM FEW008 FEW020 BKN250 20/19 A3001 RMK AO2 SLP156 T02000194 50004 $=
201711080246 SPECI KATL 080246Z 27005KT 9SM FEW008 SCT020 BKN250 20/19 A3001 RMK AO2 $=
201711080232 SPECI KATL 080232Z 26006KT 9SM SCT016 BKN025 BKN250 21/20 A3002 RMK AO2 T02060200 $=
201711080152 METAR KATL 080152Z 27007KT 9SM FEW020 SCT030 BKN250 21/20 A3002 RMK AO2 SLP159 T02060200 $=
201711080052 METAR KATL 080052Z 27007KT 10SM FEW030 SCT250 21/19 A3000 RMK AO2 SLP152 T02110194 $=
201711072352 METAR KATL 072352Z 26008KT 10SM FEW024 SCT050 BKN250 22/19 A3000 RMK AO2 SLP153 T02220194 10261 20222 53010 $=
201711072252 METAR KATL 072252Z 27009KT 10SM FEW030 BKN250 23/19 A2998 RMK AO2 SLP146 CB DSNT N & NE TCU DSNT SW T02280194=
201711072152 METAR KATL 072152Z 23011KT 10SM SCT030TCU SCT070 BKN250 24/19 A2998 RMK AO2 SLP144 CB DSNT NW-N-NE TCU NE & NW T02440194=
201711072052 METAR KATL 072052Z 24009KT 10SM FEW030 SCT070 BKN250 25/19 A2997 RMK AO2 SLP141 CB DSNT NW-N-NE T02500194 56013=
201711071952 METAR KATL 071952Z 22011KT 10SM SCT035TCU BKN055 OVC070 25/19 A2997 RMK AO2 LTG DSNT NE SLP143 CB DSNT NW-N-NE TCU OHD-SW-NW T02500194=
201711071852 METAR KATL 071852Z 23010KT 10SM FEW030 SCT040 BKN060 BKN250 26/19 A2998 RMK AO2 SLP145 CB DSNT NW-N MDT CU W T02560194=
201711071800 SPECI KATL 071800Z 24011G18KT 10SM SCT027 BKN035 BKN065 BKN250 26/19 A3001 RMK AO2 MDT CU ALQDS T02560194=
201711071752 METAR KATL 071752Z 24011KT 10SM BKN025 BKN040 BKN060 26/19 A3001 RMK AO2 SLP154 MDT CU ALQDS T02560194 10261 20178 56016=
201711071750 SPECI KATL 071750Z 24009KT 10SM BKN025 BKN040 BKN060 26/19 A3001 RMK AO2 MDT CU ALQDS=
201711071716 SPECI KATL 071716Z 24008KT 10SM FEW025 SCT060 SCT250 25/20 A3003 RMK AO2 TCU DSNT N & DSNT E-SE T02500200=
201711071652 METAR KATL 071652Z 27010KT 10SM BKN023TCU BKN040 BKN060 24/20 A3004 RMK AO2 SLP166 TCU OHD-S-W-N T02440200=
201711071633 SPECI KATL 071633Z 26009KT 10SM BKN023 BKN060 BKN250 24/20 A3005 RMK AO2 T02440200=
201711071552 METAR KATL 071552Z 23007KT 10SM FEW015 SCT030 SCT065 BKN250 23/19 A3006 RMK AO2 SLP171 T02330194=
201711071452 METAR KATL 071452Z 24007KT 9SM FEW010 FEW040 SCT070 BKN250 22/19 A3007 RMK AO2 SLP176 T02170194 51002=
201711071352 METAR KATL 071352Z 22005KT 7SM FEW039 BKN060 19/19 A3007 RMK AO2 SLP177 T01940194=
201711071252 METAR KATL 071252Z 23007KT 7SM FEW026 SCT043 BKN060 19/18 A3007 RMK AO2 SLP178 T01890183=
201711071152 METAR KATL 071152Z 22003KT 8SM OVC060 18/18 A3007 RMK AO2 SLP176 T01780178 10189 20172 55001=
201711071052 METAR KATL 071052Z 15004KT 5SM BR SCT002 BKN055 17/17 A3007 RMK AO2 SLP175 VIS LWR NE-E T01720172=
201711070952 METAR KATL 070952Z 00000KT 2SM R09R/6000VP6000FT BR SCT002 BKN040 BKN200 17/17 A3007 RMK AO2 SLP175 T01720172 $=
201711070915 SPECI KATL 070915Z 00000KT 1/4SM R09R/1400V2400FT FG BKN002 BKN040 17/17 A3007 RMK AO2 VIS NW-N 1 1/2 T01720172 $=
201711070901 SPECI KATL 070901Z 00000KT 1/4SM R09R/1200V1600FT FG BKN002 BKN040 17/17 A3007 RMK AO2 VIS NW-N 1 1/2 T01720172 $=
201711070852 METAR KATL 070852Z 00000KT 1/2SM R09R/1600V2600FT FG VV002 17/17 A3007 RMK AO2 SLP175 VIS NW-N 1 1/2 T01720172 55005 $=
201711070837 SPECI KATL 070837Z 00000KT 1/2SM R09R/2800VP6000FT FG BKN002 BKN200 17/17 A3007 RMK AO2 VIS NW-NE 1 1/2 T01720172 $=
201711070825 SPECI KATL 070825Z 00000KT 3/4SM R09R/2800VP6000FT BR BKN003 BKN200 17/17 A3007 RMK AO2 T01720172 $=
201711070752 METAR KATL 070752Z 00000KT 6SM BR FEW004 SCT250 18/18 A3006 RMK AO2 SLP173 T01780178 $=
201711070652 METAR KATL 070652Z 00000KT 6SM BR FEW004 FEW045 SCT250 19/19 A3007 RMK AO2 SLP175 T01890189 $=
201711070552 METAR KATL 070552Z 00000KT 6SM BR FEW005 BKN045 BKN250 19/19 A3009 RMK AO2 SLP181 T01890189 10217 20189 57002 $=
201711070452 METAR KATL 070452Z 00000KT 7SM FEW045 SCT250 19/19 A3009 RMK AO2 SLP181 T01890189 402560167 $=
201711070352 METAR KATL 070352Z 29004KT 9SM FEW045 FEW250 20/19 A3009 RMK AO2 SLP182 T02000194 $=
201711070252 METAR KATL 070252Z 28003KT 9SM BKN048 21/19 A3009 RMK AO2 SLP182 T02060194 53004 $=
201711070152 METAR KATL 070152Z 27005KT 10SM FEW020 BKN050 21/19 A3009 RMK AO2 SLP183 T02110194 $=
201711070052 METAR KATL 070052Z 22005KT 10SM FEW025 BKN050 BKN250 21/19 A3008 RMK AO2 SLP180 T02110194=
201711062352 METAR KATL 062352Z 26004KT 10SM FEW020 SCT026 BKN050 BKN250 21/19 A3008 RMK AO2 SLP181 60000 T02110194 10256 20211 53009=
201711062252 METAR KATL 062252Z 32010KT 10SM FEW025 SCT032 BKN250 22/19 A3007 RMK AO2 SLP175 MDT CU VC SE-SW T02220194=
201711062152 METAR KATL 062152Z 32009KT 10SM FEW030 SCT050 BKN250 24/19 A3005 RMK AO2 SLP170 SHRA E T02390194=
201711062102 SPECI KATL 062102Z 31008KT 10SM BKN028 BKN040 BKN050 24/19 A3005 RMK AO2 SHRA VC E T02440194=
201711062052 METAR KATL 062052Z 27008KT 10SM BKN030 BKN040 BKN050 24/19 A3005 RMK AO2 RAB34E50 SLP169 SHRA VC NE-E P0000 60000 T02440189 55009=
201711062034 SPECI KATL 062034Z 25005KT 10SM -RA BKN030 BKN040 OVC050 24/19 A3005 RMK AO2 RAB34 VIS LWR NE SHRA P0000 T02440189=
201711061952 METAR KATL 061952Z 24006KT 10SM BKN030 BKN040 BKN060 25/19 A3004 RMK AO2 SLP166 SHRA DSNT N T02500189=
201711061852 METAR KATL 061852Z 24008KT 10SM FEW028 SCT048 SCT250 26/19 A3005 RMK AO2 SLP170 T02560189=
201711061823 SPECI KATL 061823Z 23011KT 10SM BKN028 BKN048 BKN250 24/19 A3006 RMK AO2 T02440189=
201711061752 METAR KATL 061752Z 25011KT 10SM SCT031 BKN050 BKN250 24/18 A3008 RMK AO2 SLP178 T02440183 10250 20167 58008=
201711061726 SPECI KATL 061726Z 27010G16KT 10SM BKN029 BKN036 24/18 A3009 RMK AO2 T02440183=
201711061652 METAR KATL 061652Z 23008KT 10SM FEW030 FEW050 SCT250 24/18 A3010 RMK AO2 SLP187 T02440178=
201711061552 METAR KATL 061552Z 26010G14KT 10SM FEW030 FEW070 SCT180 SCT250 24/17 A3011 RMK AO2 SLP190 T02440172=
201711061452 METAR KATL 061452Z 22010KT 10SM FEW070 FEW180 SCT250 22/18 A3010 RMK AO2 SLP187 CB DSNT NW-N T02170178 50002=
201711061352 METAR KATL 061352Z 22005KT 10SM FEW065 FEW180 SCT250 18/17 A3011 RMK AO2 SLP188 T01830172=
201711061252 METAR KATL 061252Z 22004KT 8SM FEW065 SCT180 SCT250 17/17 A3010 RMK AO2 SLP188 T01670167=
201711061152 METAR KATL 061152Z 21005KT 10SM BKN065 BKN250 17/17 A3010 RMK AO2 SLP185 T01670167 10183 20167 53002=
201711061052 METAR KATL 061052Z 20003KT 10SM FEW050 SCT250 17/17 A3010 RMK AO2 SLP186 T01670167=
201711060952 METAR KATL 060952Z 18003KT 10SM FEW070 BKN250 17/17 A3008 RMK AO2 SLP181 T01670167=
201711060852 METAR KATL 060852Z 15003KT 10SM FEW050 FEW070 17/17 A3009 RMK AO2 SLP182 T01720172 50001=
201711060752 METAR KATL 060752Z 00000KT 10SM FEW036 SCT050 BKN065 18/17 A3012 RMK AO2 SLP192 T01830172=
201711060652 METAR KATL 060652Z 00000KT 10SM SCT044 SCT060 18/17 A3010 RMK AO2 SLP185 T01780172=
201711060552 METAR KATL 060552Z 17004KT 10SM SCT043 BKN060 BKN150 18/18 A3009 RMK AO2 SLP183 T01830178 10222 20183 55007=
201711060452 METAR KATL 060452Z 16005KT 10SM FEW043 FEW060 FEW150 SCT250 19/18 A3009 RMK AO2 SLP182 T01890178 402440178=
201711060352 METAR KATL 060352Z 18005KT 10SM FEW042 FEW055 SCT180 SCT250 19/18 A3010 RMK AO2 SLP186 T01940178=
201711060252 METAR KATL 060252Z 18004KT 10SM SCT040 BKN055 BKN180 BKN250 20/18 A3011 RMK AO2 SLP189 T02000183 53009=
201711060152 METAR KATL 060152Z 19003KT 10SM FEW038 BKN050 BKN180 BKN250 21/18 A3010 RMK AO2 SLP187 T02110183=
201711060052 METAR KATL 060052Z 14004KT 10SM SCT043 BKN180 BKN250 21/19 A3008 RMK AO2 SLP181 T02110189=
201711052352 METAR KATL 052352Z 12004KT 10SM SCT040 BKN180 BKN250 22/18 A3008 RMK AO2 SLP179 T02220183 10244 20211 55000=
201711052252 METAR KATL 052252Z 00000KT 10SM FEW038 BKN180 BKN250 23/18 A3007 RMK AO2 SLP176 T02280178=
201711052152 METAR KATL 052152Z 15005KT 10SM FEW036 BKN150 24/18 A3007 RMK AO2 SLP175 T02390178=
201711052052 METAR KATL 052052Z 16003KT 10SM SCT034 24/18 A3008 RMK AO2 SLP179 MDT CU S-W T02440178 56016=
201711051952 METAR KATL 051952Z VRB03KT 10SM FEW026 FEW200 23/18 A3009 RMK AO2 SLP181 T02330178=
201711051852 METAR KATL 051852Z 15003KT 10SM SCT018 SCT200 23/18 A3010 RMK AO2 SLP186 T02280183=
201711051815 SPECI KATL 051815Z 18005KT 10SM SCT017 BKN200 22/18 A3012 RMK AO2 T02220183=
201711051752 METAR KATL 051752Z 14006KT 8SM BKN013 BKN200 21/18 A3013 RMK AO2 SLP197 T02110183 10217 20178 58013=
201711051705 SPECI KATL 051705Z VRB04KT 6SM BR BKN010 20/18 A3015 RMK AO2 T02000183=
201711051652 METAR KATL 051652Z 15004KT 2SM BR BKN008 19/18 A3015 RMK AO2 SFC VIS 6 SLP204 T01940183=
201711051558 SPECI KATL 051558Z VRB05KT 2SM BR OVC006 19/18 A3016 RMK AO2 SFC VIS 5 T01890183=
201711051552 METAR KATL 051552Z 11005KT 1SM R09R/P6000FT BR OVC006 19/18 A3017 RMK AO2 SFC VIS 4 SLP209 T01890183=
201711051456 SPECI KATL 051456Z 10006KT 3/4SM R09R/P6000FT BR OVC004 18/18 A3017 RMK AO2 SFC VIS 2 T01830183=
201711051452 METAR KATL 051452Z 11007KT 1/4SM R09R/P6000FT BR OVC004 18/18 A3017 RMK AO2 SFC VIS 2 SLP211 TWRINC T01830183 51012=
201711051352 METAR KATL 051352Z 09006KT 1/4SM R09R/5000VP6000FT BR OVC003 18/18 A3017 RMK AO2 SFC VIS 1 1/2 SLP210 TWRINC T01780178=
201711051252 METAR KATL 051252Z 10007KT 1SM R09R/P6000FT BR OVC003 18/18 A3015 RMK AO2 SLP204 T01780178=
201711051152 METAR KATL 051152Z 11006KT 1 1/2SM R09R/4500VP6000FT BR OVC003 18/18 A3013 RMK AO2 SLP198 70004 T01780178 10200 20178 51013=
201711051052 METAR KATL 051052Z 09004KT 1 1/2SM BR OVC003 18/18 A3013 RMK AO2 SLP196 T01830183=
201711050952 METAR KATL 050952Z 10004KT 4SM BR BKN004 BKN250 18/18 A3011 RMK AO2 SLP189 BKN004 V SCT T01780178=
201711050852 METAR KATL 050852Z 12003KT 5SM BR FEW004 FEW110 BKN250 18/18 A3009 RMK AO2 SLP183 T01830183 56004=
201711050752 METAR KATL 050752Z 13004KT 9SM SCT110 BKN250 19/19 A3009 RMK AO2 SLP183 T01890189=
201711050652 METAR KATL 050652Z 10003KT 10SM OVC110 19/19 A3010 RMK AO2 SLP186 T01940194=
201711050552 METAR KATL 050552Z 00000KT 10SM BKN110 OVC250 20/19 A3011 RMK AO2 SLP187 60000 T02000194 10217 20189 50000=
201711050452 METAR KATL 050452Z 12003KT 10SM BKN110 OVC250 20/19 A3011 RMK AO2 SLP188 T02000189 402670161=
201711050352 METAR KATL 050352Z 00000KT 10SM BKN110 BKN250 20/19 A3011 RMK AO2 SLP189 T02000189=
201711050252 METAR KATL 050252Z 11003KT 10SM BKN100 BKN150 BKN250 19/19 A3011 RMK AO2 SLP188 60000 T01940189 50005=
201711050152 METAR KATL 050152Z 12005KT 9SM FEW002 BKN095 BKN140 BKN250 20/20 A3011 RMK AO2 SLP190 T02000200=
201711050052 METAR KATL 050052Z 08005KT 10SM FEW036 BKN080 OVC130 21/20 A3010 RMK AO2 RAE00 SLP187 P0000 T02060200=
201711042352 METAR KATL 042352Z 04005KT 7SM -RA SCT034 BKN065 OVC130 22/19 A3009 RMK AO2 RAB11 SLP184 P0004 60004 T02170189 10267 20217 53010=
201711042252 METAR KATL 042252Z 01008KT 10SM SCT034CB BKN070 BKN120 BKN200 23/18 A3008 RMK AO2 RAB40E51 TSB35E51 SLP181 TS DSIPTD VIS NE 2 1/2 SHRA CB NE-SE-SW MOV E SHRA NE-SE-SW P0000 T02280178=
201711042237 SPECI KATL 042237Z 34007KT 10SM TS SCT036CB BKN075 BKN120 BKN200 23/18 A3008 RMK AO2 TSB35 VIS NE 1 SHRA OCNL LTGIC NE TS NE MOV E CB N-E-S-SW MOV E SHRA N-E-S-SW T02280178=
201711042152 METAR KATL 042152Z 26005KT 10SM SCT038TCU BKN070 BKN120 BKN200 25/18 A3007 RMK AO2 SLP175 TCU NE-SE-SW & DSNT N CB DSNT SW SHRA NE & S-SW & DSNT N T02500183=
201711042052 METAR KATL 042052Z 26004KT 9SM FEW036 BKN085 BKN120 26/18 A3006 RMK AO2 SLP172 MDT CU ALQDS T02610178 55012=
201711041952 METAR KATL 041952Z 21004KT 10SM SCT037 BKN110 26/18 A3006 RMK AO2 SLP172 T02610178=
201711041852 METAR KATL 041852Z 00000KT 10SM SCT034 25/18 A3007 RMK AO2 SLP177 T02500178=
201711041752 METAR KATL 041752Z VRB05KT 10SM SCT030 SCT200 26/19 A3010 RMK AO2 SLP183 MDT CU S-SW T02560194 10256 20167 58018=
201711041719 SPECI KATL 041719Z 00000KT 10SM SCT030 23/19 A3011 RMK AO2 T02330189=
201711041652 METAR KATL 041652Z 32005KT 10SM BKN024 25/19 A3013 RMK AO2 SLP196 T02500194=
201711041606 SPECI KATL 041606Z 29005KT 10SM BKN024 24/19 A3014 RMK AO2 T02390194=
201711041552 METAR KATL 041552Z VRB03KT 10SM SCT024 BKN040 24/19 A3014 RMK AO2 SLP200 T02390189=
201711041452 METAR KATL 041452Z 23003KT 8SM FEW040 22/19 A3015 RMK AO2 SLP203 T02220194 50006=
201711041352 METAR KATL 041352Z 00000KT 7SM FEW040 FEW250 20/19 A3016 RMK AO2 SLP206 T02000189=
201711041252 METAR KATL 041252Z 00000KT 6SM BR FEW040 FEW120 FEW200 17/17 A3014 RMK AO2 SLP203 T01720172=
201711041152 METAR KATL 041152Z 00000KT 8SM FEW040 FEW120 SCT200 17/17 A3013 RMK AO2 SLP197 T01720172 10189 20161 51009=
201711041052 METAR KATL 041052Z 00000KT 10SM FEW040 SCT120 BKN200 17/17 A3012 RMK AO2 SLP194 T01670167=
201711040952 METAR KATL 040952Z 29003KT 10SM BKN045 BKN200 17/17 A3012 RMK AO2 SLP192 T01670167=
201711040852 METAR KATL 040852Z 00000KT 10SM CLR 17/17 A3010 RMK AO2 SLP188 T01720172 56007=
201711040752 METAR KATL 040752Z 00000KT 10SM FEW032 17/17 A3010 RMK AO2 SLP187 T01720172=
201711040652 METAR KATL 040652Z 00000KT 9SM FEW032 18/17 A3011 RMK AO2 SLP187 T01780172=
201711040552 METAR KATL 040552Z 00000KT 10SM FEW032 SCT040 19/18 A3013 RMK AO2 SLP195 T01890183 10211 20189 58005=
201711040452 METAR KATL 040452Z 31004KT 10SM SCT032 BKN040 BKN250 19/18 A3014 RMK AO2 SLP200 T01890183 402670150=
201711040352 METAR KATL 040352Z 00000KT 10SM SCT035 19/18 A3015 RMK AO2 SLP202 T01940183=
201711040252 METAR KATL 040252Z 33004KT 10SM FEW030 20/18 A3014 RMK AO2 SLP200 T02000183 53003=
201711040152 METAR KATL 040152Z 30004KT 10SM FEW030 FEW250 20/19 A3013 RMK AO2 SLP198 T02000189=
201711040052 METAR KATL 040052Z 28004KT 10SM FEW150 FEW250 20/19 A3012 RMK AO2 SLP196 T02000189=
201711032352 METAR KATL 032352Z 00000KT 10SM FEW150 FEW250 22/19 A3013 RMK AO2 SLP199 60000 T02170194 10267 20211 51002=
201711032252 METAR KATL 032252Z 27004KT 10SM SCT140 SCT250 22/19 A3013 RMK AO2 SLP198 T02220194=
201711032152 METAR KATL 032152Z 20003KT 10SM FEW030 SCT110 BKN150 BKN200 23/20 A3013 RMK AO2 SLP198 T02330200=
201711032052 METAR KATL 032052Z 00000KT 10SM FEW030 BKN110 24/19 A3013 RMK AO2 RAB36E49 SLP196 TCU DSNT NE P0000 60000 T02390189 56015=
201711031952 METAR KATL 031952Z 31008KT 270V340 10SM BKN035 BKN050 24/18 A3013 RMK AO2 SLP197 T02440178=
201711031852 METAR KATL 031852Z VRB05KT 10SM SCT032 BKN050 BKN100 26/18 A3014 RMK AO2 SLP201 T02610178=
201711031752 METAR KATL 031752Z 30008KT 10SM SCT032 BKN120 BKN200 24/18 A3017 RMK AO2 SLP211 T02440178 10261 20150 58017=
201711031652 METAR KATL 031652Z 23005KT 10SM FEW028 SCT050 SCT100 24/18 A3020 RMK AO2 SLP221 T02440178=
201711031552 METAR KATL 031552Z 30007KT 10SM FEW020 SCT032 SCT100 23/18 A3022 RMK AO2 SLP227 T02280178=
201711031452 METAR KATL 031452Z 00000KT 10SM FEW033 FEW100 22/16 A3022 RMK AO2 SLP229 ACC DSNT NW T02170161 51010=
201711031352 METAR KATL 031352Z 22003KT 10SM FEW035 FEW100 18/16 A3022 RMK AO2 SLP228 T01830156=
201711031252 METAR KATL 031252Z 00000KT 9SM FEW050 FEW110 17/16 A3020 RMK AO2 SLP223 MDT CU W-NW T01670156=
201711031152 METAR KATL 031152Z 00000KT 8SM FEW050 FEW110 16/14 A3019 RMK AO2 SLP220 MDT CU DSNT W-NW T01560144 10167 20150 51004=
201711031052 METAR KATL 031052Z 00000KT 10SM FEW110 16/15 A3019 RMK AO2 SLP218 T01560150=
201711030952 METAR KATL 030952Z 00000KT 10SM FEW001 FEW055 SCT110 16/15 A3019 RMK AO2 SLP217 T01560150=
201711030852 METAR KATL 030852Z 00000KT 10SM FEW001 FEW050 SCT100 16/15 A3018 RMK AO2 SLP214 T01610150 56004=
201711030752 METAR KATL 030752Z 00000KT 10SM FEW050 16/16 A3018 RMK AO2 SLP214 T01560156=
201711030652 METAR KATL 030652Z 00000KT 10SM CLR 16/15 A3018 RMK AO2 SLP215 T01560150=
201711030552 METAR KATL 030552Z 00000KT 10SM CLR 16/15 A3019 RMK AO2 SLP218 T01610150 10211 20161 58006=
201711030452 METAR KATL 030452Z 00000KT 10SM FEW050 17/16 A3020 RMK AO2 SLP222 T01670156 402390144=
201711030352 METAR KATL 030352Z 00000KT 10SM FEW050 18/16 A3021 RMK AO2 SLP225 T01780156=
201711030252 METAR KATL 030252Z 00000KT 10SM BKN050 BKN075 19/16 A3021 RMK AO2 SLP225 T01890161 51007=
201711030152 METAR KATL 030152Z 00000KT 10SM FEW075 19/16 A3021 RMK AO2 SLP225 T01940161=
201711030052 METAR KATL 030052Z 00000KT 10SM FEW075 SCT090 20/16 A3020 RMK AO2 SLP222 T02000156=
201711022352 METAR KATL 022352Z 20003KT 10SM FEW070 SCT085 BKN100 21/16 A3019 RMK AO2 SLP219 T02110161 10239 20211 53004=
201711022252 METAR KATL 022252Z 18004KT 10SM BKN090 22/16 A3018 RMK AO2 SLP215 T02220156=
201711022152 METAR KATL 022152Z 18004KT 10SM FEW035 BKN090 23/16 A3018 RMK AO2 SLP215 T02280156=
201711022052 METAR KATL 022052Z 16003KT 10SM FEW030 SCT050 BKN090 23/15 A3018 RMK AO2 SLP213 T02280150 56009=
201711021952 METAR KATL 021952Z 22006KT 10SM FEW040 SCT050 BKN090 23/15 A3018 RMK AO2 SLP214 T02280150=
201711021852 METAR KATL 021852Z 19009KT 10SM BKN040 BKN050 BKN080 23/14 A3019 RMK AO2 SLP218 T02280139=
201711021752 METAR KATL 021752Z 17005KT 10SM FEW035 SCT050 SCT080 24/14 A3021 RMK AO2 SLP222 T02390144 10239 20150 58012=
201711021652 METAR KATL 021652Z 20005KT 10SM FEW030 SCT050 SCT080 22/12 A3023 RMK AO2 SLP231 T02220122=
201711021552 METAR KATL 021552Z 16009KT 10SM FEW040 FEW060 SCT080 22/12 A3024 RMK AO2 SLP235 ACC DSNT E T02170117=
201711021452 METAR KATL 021452Z 19004KT 10SM FEW060 FEW080 20/12 A3024 RMK AO2 SLP236 ACC DSNT NE-E T02000122 51015=
201711021352 METAR KATL 021352Z 14004KT 10SM SCT060 SCT080 17/13 A3024 RMK AO2 SLP236 ACC DSNT N T01720128=
201711021252 METAR KATL 021252Z 13003KT 10SM FEW065 BKN075 BKN110 BKN200 16/12 A3022 RMK AO2 SLP231 ACC OHD-ALQDS T01560122=
201711021152 METAR KATL 021152Z 12004KT 10SM SCT060 BKN080 BKN110 BKN200 15/12 A3020 RMK AO2 SLP223 T01500122 10161 20144 51009=
201711021052 METAR KATL 021052Z 12004KT 10SM SCT075 BKN100 BKN140 BKN200 15/12 A3019 RMK AO2 SLP219 T01500122=
201711020952 METAR KATL 020952Z 11004KT 10SM SCT085 BKN095 BKN140 BKN200 15/12 A3018 RMK AO2 SLP216 T01500117=
201711020852 METAR KATL 020852Z 00000KT 10SM BKN065 BKN085 OVC120 16/11 A3017 RMK AO2 SLP212 T01610111 53002=
201711020752 METAR KATL 020752Z 14004KT 10SM BKN080 OVC120 16/12 A3016 RMK AO2 SLP209 T01610117=
201711020652 METAR KATL 020652Z 11004KT 10SM BKN080 BKN110 BKN150 OVC200 16/12 A3017 RMK AO2 SLP210 T01560117=
201711020552 METAR KATL 020552Z 11004KT 10SM BKN095 BKN150 BKN200 15/12 A3016 RMK AO2 SLP209 60000 T01500122 10189 20150 51003=
201711020452 METAR KATL 020452Z 00000KT 10SM SCT095 BKN150 BKN200 16/11 A3016 RMK AO2 SLP209 T01610111 402170094=
201711020352 METAR KATL 020352Z 00000KT 10SM BKN100 BKN150 BKN200 17/11 A3016 RMK AO2 SLP208 T01720111=
201711020252 METAR KATL 020252Z 00000KT 10SM BKN110 BKN150 BKN200 17/11 A3015 RMK AO2 SLP207 60000 T01720111 53010=
201711020152 METAR KATL 020152Z 14003KT 10SM BKN110 OVC150 17/12 A3013 RMK AO2 RAE02 SLP201 P0000 T01720117=
201711020052 METAR KATL 020052Z 14004KT 10SM -RA FEW080 BKN110 OVC150 18/12 A3012 RMK AO2 RAB33 SLP198 P0000 T01780117=
201711012352 METAR KATL 012352Z 15006KT 10SM SCT120 BKN150 OVC200 18/12 A3012 RMK AO2 SLP199 T01830117 10217 20183 55004=
201711012252 METAR KATL 012252Z 15005KT 10SM FEW050 SCT120 BKN150 OVC200 19/11 A3012 RMK AO2 SLP198 VIRGA NE-OHD-W T01940111=
201711012152 METAR KATL 012152Z 15003KT 10SM FEW050 SCT120 BKN150 OVC200 20/09 A3012 RMK AO2 SLP196 VCSH NW-NE T02000094=
201711012052 METAR KATL 012052Z 23004KT 10SM FEW040 BKN140 BKN180 OVC250 21/10 A3013 RMK AO2 SLP202 VIRGA SW-NW-N BINOVC DSNT E T02060100 55004=
201711011952 METAR KATL 011952Z 21008KT 10SM FEW045 BKN150 BKN250 21/10 A3012 RMK AO2 SLP197 SHRA DSNT SW-NW T02060100=
201711011852 METAR KATL 011852Z 18007KT 10SM FEW045 BKN180 BKN250 21/09 A3012 RMK AO2 SLP198 VIRGA DSNT W T02110089=
201711011752 METAR KATL 011752Z 21011G17KT 10SM FEW050 BKN180 BKN250 21/09 A3015 RMK AO2 SLP206 T02110089 10217 20094 58017=
201711011652 METAR KATL 011652Z 19005KT 10SM FEW040 FEW150 FEW180 SCT250 20/10 A3017 RMK AO2 SLP213 T02000100=
201711011552 METAR KATL 011552Z 00000KT 10SM FEW150 FEW180 SCT250 19/11 A3019 RMK AO2 SLP222 T01940111=
201711011452 METAR KATL 011452Z 00000KT 10SM FEW150 FEW180 SCT250 17/11 A3020 RMK AO2 SLP223 T01720106 53020=
201711011352 METAR KATL 011352Z 09004KT 10SM FEW150 BKN180 BKN250 13/11 A3017 RMK AO2 SLP216 T01330106=
201711011252 METAR KATL 011252Z 00000KT 10SM FEW150 SCT200 SCT250 12/09 A3015 RMK AO2 SLP208 T01170094=
