##########################################################
# Query made at 04/19/2024 23:53:03 UTC
# Time interval: from 03/01/2017 12:00  to 03/31/2017 12:59  UTC
##########################################################

##########################################################
# KATL, Atlanta, Hartsfield - Jackson Atlanta International Airport (United States)
# WMO index: 72219. WIGOS ID: 0-20000-0-72219
# Latitude 33-38-59N. Longitude 084-25-00W. Altitude 312 m.
##########################################################

201703311252 METAR KATL 311252Z 28008KT 10SM FEW016 SCT032 17/12 A2980 RMK AO2 SLP084 T01670122=
201703311228 SPECI KATL 311228Z 26010G21KT 10SM FEW015 BKN031 16/13 A2979 RMK AO2 T01610128 $=
201703311152 METAR KATL 311152Z 25009KT 10SM FEW010 BKN022 BKN040 17/15 A2977 RMK AO2 SLP074 MDT CU W-N 60015 70032 T01670150 10172 20161 51010 $=
201703311052 METAR KATL 311052Z 24008KT 10SM SCT010 BKN022 BKN050 17/15 A2976 RMK AO2 SLP071 T01670150=
201703310952 METAR KATL 310952Z 26008KT 10SM SCT014 BKN030 OVC065 16/16 A2975 RMK AO2 SLP066 T01610156=
201703310852 METAR KATL 310852Z 22005KT 10SM BKN018 OVC026 16/14 A2974 RMK AO2 RAE31 SLP063 P0000 60015 T01610144 57012=
201703310829 SPECI KATL 310829Z 24006KT 10SM -RA BKN026 BKN036 OVC050 16/14 A2974 RMK AO2 P0000 T01610144=
201703310752 METAR KATL 310752Z 21007KT 9SM -RA BKN038 BKN055 OVC085 16/14 A2974 RMK AO2 RAE15B32 SLP065 P0004 T01610144=
201703310652 METAR KATL 310652Z 22010G18KT 3SM +RA BR FEW008 BKN050 OVC080 16/14 A2977 RMK AO2 SLP075 P0011 T01610144=
201703310552 METAR KATL 310552Z 23008KT 10SM -RA FEW065 BKN085 OVC150 17/14 A2978 RMK AO2 LTG DSNT W RAB50 SLP076 P0000 60017 T01720139 10250 20167 56026=
201703310452 METAR KATL 310452Z 20007KT 10SM FEW080 BKN100 BKN150 OVC200 17/14 A2978 RMK AO2 SLP078 T01670139 402780167=
201703310352 METAR KATL 310352Z 19008KT 10SM FEW080 BKN120 OVC150 17/15 A2977 RMK AO2 RAE43 TSE13 SLP075 OCNL LTG DSNT NE P0005 T01720150=
201703310313 SPECI KATL 310313Z 24010G15KT 8SM -RA FEW050 BKN080 OVC120 17/16 A2983 RMK AO2 TSE13 OCNL LTG DSNT NE TS MOVD NE P0005 T01720156=
201703310252 METAR KATL 310252Z 23017G27KT 5SM TSRA BR SCT035CB BKN050 OVC120 17/16 A2986 RMK AO2 PK WND 26032/0236 RAB27 TSB14 SLP104 OCNL LTGIC NE-E TS NE-E MOV NE P0012 60012 T01720156 53020=
201703310247 SPECI KATL 310247Z 24018G27KT 4SM TSRA BR SCT035CB BKN050 OVC120 17/16 A2985 RMK AO2 PK WND 26032/0236 RAB27 TSB14 VIS LWR NE-SE FRQ LTGIC NE-SE TS NE-SE MOV NE P0009=
201703310235 SPECI KATL 310235Z 26016G25KT 2 1/2SM +TSRA BKN035CB BKN050 OVC120 18/16 A2983 RMK AO2 RAB27 TSB14 OCNL LTGIC N-OHD-SW TS N-OHD-SW MOV NE P0001 T01830156=
201703310214 SPECI KATL 310214Z 23005KT 10SM TS FEW040CB BKN060 BKN120 OVC150 22/14 A2981 RMK AO2 TSB14 OCNL LTGIC SW-W TS VC SW-W MOV NE T02170139=
201703310152 METAR KATL 310152Z 18010KT 10SM FEW040 SCT070 BKN120 OVC150 22/13 A2981 RMK AO2 RAB37E46 SLP086 OCNL LTG DSNT SW & NW P0000 T02220133=
201703310052 METAR KATL 310052Z 17013G20KT 10SM FEW050 SCT090 BKN120 OVC200 23/13 A2981 RMK AO2 SLP087 RAB23E30 TSB29E52 FRQ LTG DSNT NE & SW TS MOVD NE P0000 T02330128=
201703310029 SPECI KATL 310029Z 18008KT 10SM -TSRA FEW050CB BKN065 BKN100 OVC150 24/11 A2981 RMK AO2 LTG DSNT E AND SE RAB23 TSE27B29 OCNL LTGIC E-SE TS VC E-SE MOV NE P0000 T02440106=
201703302352 METAR KATL 302352Z 19005KT 10SM SCT070 BKN110 BKN200 OVC250 25/11 A2980 RMK AO2 LTG DSNT S SLP083 CB DSNT SE-S T02500106 10278 20250 56011=
201703302252 METAR KATL 302252Z 20010KT 10SM FEW090 SCT200 OVC250 26/09 A2980 RMK AO2 SLP085 FU DSNT NE T02560094=
201703302152 METAR KATL 302152Z 19013G20KT 10SM FEW070 SCT200 BKN250 27/09 A2981 RMK AO2 SLP086 T02670089=
201703302052 METAR KATL 302052Z 20010G23KT 10SM FEW070 FEW150 BKN250 27/08 A2983 RMK AO2 SLP093 T02670083 56030=
201703301952 METAR KATL 301952Z 19014G22KT 10SM FEW070 FEW100 BKN250 27/08 A2986 RMK AO2 SLP101 T02720083=
201703301852 METAR KATL 301852Z 17014G22KT 10SM FEW065 FEW100 BKN250 26/10 A2989 RMK AO2 SLP112 T02610100=
201703301752 METAR KATL 301752Z 18010G17KT 10SM FEW055 FEW085 BKN250 26/12 A2992 RMK AO2 SLP124 T02560122 10256 20172 58027=
201703301652 METAR KATL 301652Z 23010G16KT 10SM FEW050 SCT085 BKN250 24/12 A2997 RMK AO2 SLP139 T02440122=
201703301552 METAR KATL 301552Z 21008KT 10SM FEW070 SCT090 OVC250 23/12 A3000 RMK AO2 SLP149 T02280122=
201703301452 METAR KATL 301452Z 23007KT 10SM FEW070 SCT080 BKN150 BKN250 21/12 A3001 RMK AO2 SLP153 ACC OHD & ALQDS T02110122 50008=
201703301352 METAR KATL 301352Z VRB03KT 10SM FEW150 SCT200 BKN250 19/13 A3002 RMK AO2 SLP157 T01940128=
201703301252 METAR KATL 301252Z 00000KT 9SM FEW150 BKN200 BKN250 18/14 A3001 RMK AO2 SLP153 T01830144=
201703301152 METAR KATL 301152Z 11003KT 9SM FEW150 BKN200 BKN250 17/14 A2998 RMK AO2 SLP145 T01720144 10206 20172 53007=
201703301052 METAR KATL 301052Z 00000KT 10SM BKN200 BKN250 17/13 A2997 RMK AO2 SLP139 T01720133=
201703300952 METAR KATL 300952Z 21004KT 10SM SCT200 BKN250 18/14 A2996 RMK AO2 SLP138 T01780139=
201703300852 METAR KATL 300852Z 21004KT 10SM FEW200 BKN250 18/15 A2996 RMK AO2 SLP138 T01780150 55005=
201703300752 METAR KATL 300752Z 14004KT 10SM SCT200 BKN250 19/16 A2996 RMK AO2 SLP137 T01890156=
201703300652 METAR KATL 300652Z 14004KT 10SM FEW060 SCT200 SCT250 20/16 A2997 RMK AO2 SLP139 T02000156=
201703300552 METAR KATL 300552Z 00000KT 10SM SCT060 SCT200 BKN250 21/16 A2998 RMK AO2 SLP142 T02060156 10267 20206 56008=
201703300452 METAR KATL 300452Z 13004KT 10SM SCT060 SCT250 22/16 A2998 RMK AO2 SLP143 T02170156 402940156=
201703300352 METAR KATL 300352Z 19005KT 10SM BKN055 BKN070 22/16 A2999 RMK AO2 SLP145 T02220156=
201703300252 METAR KATL 300252Z 18006KT 10SM FEW060 SCT080 23/15 A3000 RMK AO2 SLP151 T02330150 53011=
201703300152 METAR KATL 300152Z 17003KT 10SM SCT060 SCT090 24/14 A2999 RMK AO2 SLP146 T02440139=
201703300052 METAR KATL 300052Z 15005KT 10SM SCT060 BKN090 26/14 A2997 RMK AO2 SLP141 T02560139=
201703292352 METAR KATL 292352Z 15004KT 10SM FEW065 SCT100 SCT250 27/13 A2997 RMK AO2 SLP139 T02670133 10294 20256 56010=
201703292252 METAR KATL 292252Z 00000KT 10SM SCT065 SCT100 28/12 A2997 RMK AO2 SLP141 T02780122=
201703292152 METAR KATL 292152Z 00000KT 10SM FEW060 SCT100 SCT250 29/13 A2998 RMK AO2 SLP143 T02890133=
201703292052 METAR KATL 292052Z VRB05KT 10SM FEW060 SCT100 SCT250 28/13 A3000 RMK AO2 SLP150 T02780128 58013=
201703291952 METAR KATL 291952Z 00000KT 10SM SCT060 SCT100 27/13 A3001 RMK AO2 SLP156 T02670133=
201703291852 METAR KATL 291852Z 00000KT 10SM SCT055 27/13 A3004 RMK AO2 SLP163 T02670133=
201703291752 METAR KATL 291752Z 10006KT 10SM FEW050 FEW250 26/13 A3004 RMK AO2 SLP163 T02610133 10261 20167 58011=
201703291652 METAR KATL 291652Z 11005KT 10SM FEW050 FEW250 24/13 A3006 RMK AO2 SLP171 T02440128=
201703291552 METAR KATL 291552Z 12005KT 10SM SCT250 24/13 A3007 RMK AO2 SLP175 T02390128=
201703291452 METAR KATL 291452Z 13007KT 10SM BKN250 21/12 A3007 RMK AO2 SLP175 T02110117 51014=
201703291352 METAR KATL 291352Z 12006KT 10SM FEW200 SCT250 20/12 A3006 RMK AO2 SLP174 T02000122=
201703291252 METAR KATL 291252Z 09006KT 10SM SCT200 SCT250 18/13 A3006 RMK AO2 SLP171 T01830128=
201703291152 METAR KATL 291152Z 03005KT 10SM FEW040 FEW200 SCT250 17/12 A3003 RMK AO2 SLP161 70001 T01720122 10189 20156 53012=
201703291052 METAR KATL 291052Z 01003KT 10SM FEW040 FEW250 16/12 A3002 RMK AO2 SLP158 T01610122=
201703290952 METAR KATL 290952Z 00000KT 10SM FEW045 16/12 A3000 RMK AO2 SLP150 T01610122=
201703290852 METAR KATL 290852Z 32004KT 10SM FEW010 16/13 A2999 RMK AO2 SLP149 FU FEW010 T01560128 56008=
201703290752 METAR KATL 290752Z 32004KT 10SM FEW010 FEW050 16/13 A3000 RMK AO2 SLP150 FU FEW010 T01610133=
201703290652 METAR KATL 290652Z 30003KT 10SM CLR 17/13 A3000 RMK AO2 SLP151 T01720133=
201703290552 METAR KATL 290552Z 00000KT 10SM CLR 18/13 A3002 RMK AO2 SLP157 T01780133 10239 20178 53003=
201703290452 METAR KATL 290452Z 32006KT 10SM CLR 18/14 A3001 RMK AO2 SLP156 T01830139 402720167=
201703290352 METAR KATL 290352Z 32006KT 10SM FEW050 19/14 A3001 RMK AO2 SLP155 T01940139=
201703290252 METAR KATL 290252Z 28004KT 10SM FEW050 21/14 A3001 RMK AO2 SLP154 T02060144 51015=
201703290152 METAR KATL 290152Z 28003KT 10SM FEW050 21/14 A2999 RMK AO2 SLP150 T02110139=
201703290052 METAR KATL 290052Z 34006KT 10SM FEW050 23/14 A2997 RMK AO2 SLP144 T02280139=
201703282352 METAR KATL 282352Z 32009KT 10SM FEW050 FEW120 24/14 A2996 RMK AO2 SLP139 T02390144 10272 20239 53006=
201703282252 METAR KATL 282252Z 31007KT 10SM FEW050TCU FEW250 25/14 A2995 RMK AO2 SLP133 TCU VC SW T02500144=
201703282152 METAR KATL 282152Z 30009KT 10SM SCT055 BKN080 26/14 A2994 RMK AO2 SLP131 MDT CU OHD & SE-SW T02560139=
201703282052 METAR KATL 282052Z 34010G15KT 10SM FEW050 SCT110 26/15 A2994 RMK AO2 SLP132 CB DSNT E SHRA DSNT E MDT CU DSNT SE-SW-NW T02560150 56016=
201703282011 SPECI KATL 282011Z 30014KT 10SM FEW050CB SCT060 BKN100 26/14 A2996 RMK AO2 CB E MOV SE SHRA VC E T02560139=
201703281952 METAR KATL 281952Z 27008KT 240V300 10SM SCT050TCU BKN100 BKN120 27/14 A2995 RMK AO2 SLP134 CB DSNT W TCU E & OHD-NW-N SHRA VC N & E & DSNT W T02670139=
201703281852 METAR KATL 281852Z 30006G17KT 10SM BKN045TCU 26/15 A2997 RMK AO2 SLP142 TCU E-SE & OHD-SW-NW T02560150=
201703281752 METAR KATL 281752Z 25009G16KT 10SM SCT035 26/17 A2999 RMK AO2 SLP147 TCU DSNT W-NW 60001 T02560167 10256 20167 58007=
201703281722 SPECI KATL 281722Z 26010G16KT 230V290 10SM SCT025 BKN035 24/17 A3000 RMK AO2 T02440172=
201703281652 METAR KATL 281652Z 25010KT 10SM BKN022 BKN028 23/17 A3001 RMK AO2 SLP154 T02280172=
201703281552 METAR KATL 281552Z 27007G17KT 10SM BKN015 BKN023 BKN110 21/17 A3002 RMK AO2 SLP157 T02110172=
201703281529 SPECI KATL 281529Z 27008KT 10SM BKN015 BKN020 BKN110 21/18 A3001 RMK AO2 T02110178=
201703281452 METAR KATL 281452Z 24009KT 10SM FEW010 SCT050 BKN110 19/17 A3001 RMK AO2 SLP156 60001 T01940172 53010=
201703281352 METAR KATL 281352Z 24007KT 10SM FEW010 SCT050 BKN100 19/17 A3000 RMK AO2 SLP153 T01890167=
201703281252 METAR KATL 281252Z 24008KT 10SM FEW007 FEW055 OVC095 18/17 A2999 RMK AO2 RAE27 SLP149 P0001 T01780167=
201703281152 METAR KATL 281152Z 22008KT 9SM -RA FEW004 SCT070 OVC100 17/17 A2998 RMK AO2 RAB39 SLP146 P0000 60004 70007 T01670167 10183 20167 53004=
201703281052 METAR KATL 281052Z 22004KT 10SM FEW065 SCT080 OVC100 17/16 A2996 RMK AO2 RAE34 SLP139 P0000 T01670161=
201703280952 METAR KATL 280952Z 22003KT 10SM -RA SCT019 BKN065 OVC100 17/16 A2997 RMK AO2 RAB04 SLP143 P0004 T01670161=
201703280950 SPECI KATL 280950Z 23004KT 9SM -RA SCT019 BKN065 OVC100 17/16 A2998 RMK AO2 RAB04 P0003=
201703280852 METAR KATL 280852Z 33005KT 10SM BKN024 OVC070 17/16 A2997 RMK AO2 RAB27E40 SLP140 SHRA W-N P0000 60000 T01720156 53001=
201703280827 SPECI KATL 280827Z 32008KT 10SM -RA BKN026 OVC075 18/16 A2997 RMK AO2 RAB27 P0000 T01780156=
201703280752 METAR KATL 280752Z 25005KT 10SM FEW095 BKN150 OVC200 18/15 A2996 RMK AO2 SLP138 T01780150=
201703280652 METAR KATL 280652Z 22005KT 10SM SCT090 SCT150 BKN200 BKN250 17/16 A2996 RMK AO2 SLP140 T01720156=
201703280552 METAR KATL 280552Z 25005KT 10SM FEW070 SCT100 BKN180 OVC250 18/16 A2996 RMK AO2 SLP140 BINOVC 60003 T01830156 10239 20178 55001=
201703280452 METAR KATL 280452Z 25005KT 10SM FEW070 BKN100 OVC200 18/16 A2996 RMK AO2 PK WND 24027/0410 RAB04E44 SLP136 OCNL LTG DSNT NE P0003 T01830156 402560150=
201703280352 METAR KATL 280352Z 22011KT 10SM SCT090 BKN120 OVC200 22/13 A2997 RMK AO2 SLP141 OCNL LTG DSNT NW-N T02170128=
201703280252 METAR KATL 280252Z 20008KT 10SM FEW090 SCT150 BKN200 OVC250 22/12 A2997 RMK AO2 SLP140 OCNL LTG DSNT NW-N T02170122 53012=
201703280152 METAR KATL 280152Z 19006KT 10SM FEW100 BKN200 OVC250 22/12 A2995 RMK AO2 SLP135 T02170122=
201703280052 METAR KATL 280052Z 19005KT 10SM FEW100 BKN200 BKN250 22/12 A2994 RMK AO2 SLP133 T02220122=
201703272352 METAR KATL 272352Z 18008KT 10SM FEW045 SCT200 BKN250 24/12 A2993 RMK AO2 SLP129 60000 T02390122 10256 20228 56016=
201703272252 METAR KATL 272252Z 22010KT 10SM FEW045 BKN200 BKN250 25/13 A2994 RMK AO2 LTG DSNT E SLP133 CB DSNT NE-SE T02500128=
201703272152 METAR KATL 272152Z 23008KT 10SM FEW045 SCT100 BKN200 BKN250 24/13 A2996 RMK AO2 SLP138 ACC VC E CB DSNT NE & SE T02440128=
201703272052 METAR KATL 272052Z 22007KT 10SM FEW045 SCT080 BKN200 24/13 A2998 RMK AO2 SLP146 ACC OHD-SW-NW-N 60000 T02440133 56027=
201703271952 METAR KATL 271952Z 20012KT 10SM FEW040 SCT100 BKN180 BKN250 24/14 A3000 RMK AO2 SLP152 VIRGA DSNT SE-S-SW T02440144=
201703271852 METAR KATL 271852Z 18007KT 10SM FEW035 SCT100 BKN180 BKN250 23/15 A3003 RMK AO2 RAE05 SLP164 P0000 T02330150=
201703271752 METAR KATL 271752Z 25009KT 10SM -RA SCT050 BKN080 OVC100 23/14 A3006 RMK AO2 RAB50 SLP174 VIS LWR S SHRA P0000 60000 T02280144 10233 20156 58022=
201703271652 METAR KATL 271652Z 22009KT 10SM BKN035 BKN100 BKN250 23/15 A3008 RMK AO2 SLP180 T02330150=
201703271552 METAR KATL 271552Z 21011KT 10SM BKN023 BKN100 BKN250 22/16 A3011 RMK AO2 SLP191 T02170161=
201703271534 SPECI KATL 271534Z 17007KT 10SM FEW017 SCT100 BKN250 21/17 A3011 RMK AO2 T02110167=
201703271455 SPECI KATL 271455Z 24006KT 10SM BKN015 BKN100 BKN250 20/17 A3013 RMK AO2 T02000167=
201703271452 METAR KATL 271452Z 24008KT 10SM BKN013 BKN100 BKN250 20/17 A3013 RMK AO2 SLP197 60000 T02000167 53003=
201703271424 SPECI KATL 271424Z 24007KT 10SM BKN010 BKN100 OVC250 19/17 A3013 RMK AO2 T01890167=
201703271352 METAR KATL 271352Z 23005KT 9SM FEW006 BKN100 BKN250 18/17 A3012 RMK AO2 DZE25 SLP193 P0000 T01780167=
201703271348 SPECI KATL 271348Z 23007KT 9SM FEW006 BKN100 BKN250 18/17 A3012 RMK AO2 DZE25 P0000=
201703271316 SPECI KATL 271316Z 24007KT 2SM -DZ BR OVC006 17/16 A3013 RMK AO2 SFC VIS 6 P0000 T01670161=
201703271252 METAR KATL 271252Z 24009KT 2SM -DZ BR OVC004 17/16 A3012 RMK AO2 SFC VIS 3 SLP194 CIG 003V006 PCPN VRY LGT P0000 T01670161=
201703271250 SPECI KATL 271250Z 23007KT 2SM -DZ BR OVC004 16/16 A3012 RMK AO2 SFC VIS 3 CIG 003V006 PCPN VRY LGT P0000=
201703271221 SPECI KATL 271221Z 22007KT 1 1/4SM -DZ BR OVC003 16/16 A3011 RMK AO2 SFC VIS 1 3/4 CIG 002V004 TWRINC P0000 T01610156=
201703271200 SPECI KATL 271200Z 22007KT 3/4SM R09R/6000VP6000FT -DZ BR OVC003 16/16 A3010 RMK AO2 SFC VIS 2 CIG 002V004 TWRINC P0000 T01610156=
201703271152 METAR KATL 271152Z 22005KT 2SM -DZ BR OVC004 16/16 A3010 RMK AO2 SFC VIS 2 1/2 DZB48 SLP185 CIG 003V006 P0000 60000 T01610156 10178 20150 53017=
201703271102 SPECI KATL 271102Z 20004KT 10SM BKN008 BKN090 16/14 A3007 RMK AO2 T01560144=
201703271052 METAR KATL 271052Z 21004KT 10SM SCT008 SCT090 15/14 A3007 RMK AO2 SLP177 T01500139=
201703270952 METAR KATL 270952Z 20003KT 10SM SCT100 16/13 A3006 RMK AO2 SLP172 T01560133=
201703270852 METAR KATL 270852Z 18004KT 10SM FEW085 FEW250 16/13 A3005 RMK AO2 SLP168 T01560133 56004 $=
201703270752 METAR KATL 270752Z 00000KT 10SM SCT085 17/13 A3005 RMK AO2 SLP168 T01670128 $=
201703270652 METAR KATL 270652Z 17003KT 10SM FEW050 SCT085 17/13 A3005 RMK AO2 SLP167 T01720128 $=
201703270552 METAR KATL 270552Z 00000KT 10SM FEW050 FEW110 18/13 A3006 RMK AO2 SLP172 T01780128 10239 20178 57006 $=
201703270452 METAR KATL 270452Z 22003KT 10SM FEW075 SCT110 18/13 A3006 RMK AO2 SLP174 T01830128 402610144 $=
201703270352 METAR KATL 270352Z 21003KT 10SM SCT110 18/13 A3007 RMK AO2 SLP177 T01830128 $=
201703270252 METAR KATL 270252Z 19003KT 10SM SCT110 21/12 A3008 RMK AO2 SLP178 T02060122 51010 $=
201703270152 METAR KATL 270152Z 23003KT 10SM SCT110 21/12 A3007 RMK AO2 SLP179 T02060122 $=
201703270052 METAR KATL 270052Z 22003KT 10SM FEW060 SCT100 22/12 A3005 RMK AO2 SLP172 T02220117 $=
201703262352 METAR KATL 262352Z 22006KT 10SM FEW060 SCT100 24/11 A3004 RMK AO2 SLP167 T02390111 10261 20233 55002 $=
201703262252 METAR KATL 262252Z 22011G16KT 10SM SCT060 SCT100 25/12 A3004 RMK AO2 SLP166 T02500117 $=
201703262152 METAR KATL 262152Z 22010KT 10SM SCT060 SCT110 SCT250 25/12 A3004 RMK AO2 SLP166 T02500117 $=
201703262052 METAR KATL 262052Z 23011KT 10SM SCT060 SCT080 BKN250 26/12 A3005 RMK AO2 SLP170 T02560117 56019 $=
201703261952 METAR KATL 261952Z 21013G17KT 10SM BKN055 BKN070 BKN250 25/12 A3006 RMK AO2 SLP174 T02500122 $=
201703261852 METAR KATL 261852Z 22012G18KT 10SM SCT045 SCT100 BKN250 25/13 A3008 RMK AO2 SLP180 T02500133 $=
201703261752 METAR KATL 261752Z 21011G16KT 10SM BKN040 BKN060 23/14 A3011 RMK AO2 SLP189 T02330139 10239 20144 58008 $=
201703261652 METAR KATL 261652Z 20009KT 10SM BKN034 BKN050 22/14 A3012 RMK AO2 SLP194 T02170139 $=
201703261552 METAR KATL 261552Z 18008KT 10SM SCT028 BKN037 21/14 A3013 RMK AO2 SLP198 T02060144 $=
201703261528 SPECI KATL 261528Z 19011G18KT 10SM BKN026 20/14 A3014 RMK AO2 T02000144 $=
201703261452 METAR KATL 261452Z 17012KT 10SM FEW020 FEW150 19/15 A3013 RMK AO2 SLP198 T01940150 51012 $=
201703261352 METAR KATL 261352Z 16009KT 10SM FEW010 FEW055 SCT150 17/16 A3012 RMK AO2 SLP196 T01720156 $=
201703261252 METAR KATL 261252Z 14007KT 9SM SCT005 SCT070 16/15 A3011 RMK AO2 SLP191 T01560150 $=
201703261152 METAR KATL 261152Z 15005KT 8SM FEW005 SCT060 14/14 A3010 RMK AO2 SLP187 60034 70041 T01440144 10161 20144 52010 $=
201703261052 METAR KATL 261052Z 15005KT 10SM FEW006 FEW070 FEW120 15/14 A3009 RMK AO2 SLP183 T01500144 $=
201703261022 SPECI KATL 261022Z 15005KT 10SM FEW006 SCT070 SCT120 SCT250 15/14 A3008 RMK AO2 T01500144 $=
201703260952 METAR KATL 260952Z 14005KT 10SM SCT060 SCT250 15/14 A3008 RMK AO2 RAE0853 SLP178 P0000 T01500144 $=
201703260852 METAR KATL 260852Z 16006KT 10SM -RA BKN090 BKN120 16/15 A3007 RMK AO2 SLP175 P0003 60034 T01560150 58015 $=
201703260752 METAR KATL 260752Z 15006KT 7SM -RA FEW023 BKN070 OVC085 16/15 A3010 RMK AO2 SLP185 P0010 T01560150 $=
201703260704 SPECI KATL 260704Z 19009KT 6SM -RA BR SCT022 BKN055 OVC085 16/15 A3011 RMK AO2 P0008 T01560150 $=
201703260652 METAR KATL 260652Z 20010KT 2SM +RA BR BKN022 BKN031 OVC050 16/15 A3012 RMK AO2 RAB00 SLP192 P0021 T01560150 $=
201703260623 SPECI KATL 260623Z 24004KT 3SM +RA BR BKN028 BKN037 OVC044 16/14 A3011 RMK AO2 RAB00 P0006 T01560144 $=
201703260618 SPECI KATL 260618Z 22003KT 4SM RA BR SCT028 BKN037 OVC075 16/14 A3011 RMK AO2 RAB00 P0003 T01560144 $=
201703260552 METAR KATL 260552Z 00000KT 10SM SCT043 BKN070 OVC085 16/14 A3011 RMK AO2 RAE28 SLP190 P0001 60007 T01610144 10217 20161 50002 $=
201703260452 METAR KATL 260452Z 24007KT 5SM -RA BR BKN035 OVC050 17/13 A3013 RMK AO2 WSHFT 0426 RAB32 SLP197 P0006 T01670133 402440133 $=
201703260442 SPECI KATL 260442Z 24010G18KT 7SM -RA SCT038 BKN050 OVC080 17/13 A3013 RMK AO2 WSHFT 0426 RAB32 PRESRR P0004 T01720133 $=
201703260352 METAR KATL 260352Z 14009KT 10SM FEW060 BKN080 BKN100 19/10 A3011 RMK AO2 SLP189 T01940100 $=
201703260252 METAR KATL 260252Z 13007KT 10SM SCT085 SCT180 BKN210 20/10 A3011 RMK AO2 SLP188 T02000100 51004 $=
201703260152 METAR KATL 260152Z 12006KT 10SM FEW080 SCT190 SCT230 20/10 A3010 RMK AO2 SLP188 T02000100 $=
201703260052 METAR KATL 260052Z 13005KT 10SM FEW070 FEW080 SCT190 SCT250 21/10 A3010 RMK AO2 SLP187 T02110100 $=
201703252352 METAR KATL 252352Z 14008KT 10SM FEW050 SCT070 SCT080 SCT190 SCT250 22/10 A3009 RMK AO2 SLP186 VIRGA W-NW T02170100 10244 20217 55010 $=
201703252252 METAR KATL 252252Z 13011KT 10SM FEW060 SCT070 SCT190 SCT250 23/10 A3009 RMK AO2 SLP183 T02330100 $=
201703252152 METAR KATL 252152Z 16013KT 10SM FEW055 BKN075 BKN085 BKN250 23/10 A3011 RMK AO2 SLP190 T02330100 $=
201703252052 METAR KATL 252052Z 16012G18KT 10SM FEW055 BKN070 BKN250 23/09 A3012 RMK AO2 SLP194 T02330094 58027 $=
201703251952 METAR KATL 251952Z 15010G16KT 10SM BKN055 BKN250 23/11 A3016 RMK AO2 SLP205 T02330106 $=
201703251852 METAR KATL 251852Z 16010G20KT 10SM SCT050 BKN100 BKN250 23/11 A3017 RMK AO2 SLP212 T02330111 $=
201703251752 METAR KATL 251752Z 15013G20KT 10SM SCT045 BKN250 23/11 A3020 RMK AO2 SLP222 T02280111 10233 20133 58025 $=
201703251652 METAR KATL 251652Z 17005G16KT 10SM SCT038 BKN250 22/12 A3024 RMK AO2 SLP233 T02170117 $=
201703251552 METAR KATL 251552Z 17010KT 10SM SCT032 BKN250 21/12 A3026 RMK AO2 SLP242 T02060122 $=
201703251452 METAR KATL 251452Z 18010KT 10SM FEW025 FEW150 BKN250 19/13 A3028 RMK AO2 SLP247 T01890128 58003 $=
201703251352 METAR KATL 251352Z 16010G15KT 10SM BKN250 17/12 A3028 RMK AO2 SLP248 T01670122 $=
201703251252 METAR KATL 251252Z 12006KT 10SM FEW050 SCT200 OVC250 14/11 A3029 RMK AO2 SLP253 BINOVC T01440111 $=
201703251152 METAR KATL 251152Z 09006KT 10SM SCT050 BKN220 13/11 A3029 RMK AO2 SLP253 T01330111 10172 20133 51016 $=
201703251052 METAR KATL 251052Z 12003KT 10SM BKN250 14/11 A3028 RMK AO2 SLP248 T01440106 $=
201703250952 METAR KATL 250952Z 15005KT 10SM BKN250 14/11 A3026 RMK AO2 SLP241 T01440106 $=
201703250852 METAR KATL 250852Z 15006KT 10SM FEW060 OVC250 15/11 A3024 RMK AO2 SLP235 T01500106 58005 $=
201703250752 METAR KATL 250752Z 15007KT 10SM FEW060 BKN250 16/10 A3024 RMK AO2 SLP237 T01560100 $=
201703250652 METAR KATL 250652Z 15009KT 10SM FEW060 BKN250 16/09 A3025 RMK AO2 SLP239 T01610094 $=
201703250552 METAR KATL 250552Z 16014G20KT 10SM FEW060 BKN220 17/09 A3026 RMK AO2 SLP240 T01720094 10217 20172 58012 $=
201703250452 METAR KATL 250452Z 15011G21KT 10SM BKN250 18/09 A3027 RMK AO2 SLP246 T01830089 402330128 $=
201703250352 METAR KATL 250352Z 13007KT 10SM FEW060 BKN250 19/09 A3028 RMK AO2 SLP251 T01890094 $=
201703250252 METAR KATL 250252Z 13007KT 10SM BKN060 BKN250 19/09 A3029 RMK AO2 SLP254 T01940094 58000 $=
201703250152 METAR KATL 250152Z 14003KT 10SM BKN060 BKN250 21/10 A3030 RMK AO2 SLP255 T02060100 $=
201703250052 METAR KATL 250052Z 14004KT 10SM BKN060 BKN250 21/09 A3029 RMK AO2 SLP254 T02110094 $=
201703242352 METAR KATL 242352Z 15006KT 10SM BKN055 BKN250 22/09 A3029 RMK AO2 SLP254 T02170094 10233 20206 55007=
201703242252 METAR KATL 242252Z 17007KT 10SM BKN050 BKN250 22/09 A3028 RMK AO2 SLP248 T02220094=
201703242152 METAR KATL 242152Z 16006KT 10SM BKN050 BKN250 22/09 A3029 RMK AO2 SLP253 T02220094=
201703242052 METAR KATL 242052Z 14009G17KT 10SM SCT050 BKN250 22/09 A3031 RMK AO2 SLP260 T02220089 58019=
201703241952 METAR KATL 241952Z 13010KT 10SM FEW050 BKN250 22/09 A3034 RMK AO2 SLP269 T02220089=
201703241852 METAR KATL 241852Z 16011G16KT 10SM FEW055 BKN250 22/09 A3035 RMK AO2 SLP274 T02220089=
201703241752 METAR KATL 241752Z 15012KT 10SM BKN200 BKN250 21/09 A3037 RMK AO2 SLP280 T02110089 10211 20128 58024=
201703241652 METAR KATL 241652Z 15012G19KT 10SM FEW040 FEW075 SCT250 19/09 A3041 RMK AO2 SLP295 T01940089=
201703241552 METAR KATL 241552Z 15007KT 10SM FEW030 FEW075 SCT250 17/09 A3044 RMK AO2 SLP304 T01670094=
201703241452 METAR KATL 241452Z 12008KT 10SM FEW025 BKN080 15/09 A3045 RMK AO2 SLP308 T01500094 51008=
201703241352 METAR KATL 241352Z 11007KT 10SM FEW018 BKN075 13/08 A3044 RMK AO2 SLP308 T01330083=
201703241252 METAR KATL 241252Z 11009KT 10SM SCT017 BKN060 BKN070 13/08 A3044 RMK AO2 SLP305 T01280078=
201703241249 SPECI KATL 241249Z 11009KT 10SM SCT017 BKN060 BKN070 13/08 A3044 RMK AO2=
201703241216 SPECI KATL 241216Z 13008KT 10SM BKN018 BKN060 BKN070 13/08 A3043 RMK AO2 T01330078=
201703241152 METAR KATL 241152Z 13008KT 10SM SCT019 BKN060 OVC070 13/08 A3042 RMK AO2 SLP300 T01330078 10150 20133 53011=
201703241135 SPECI KATL 241135Z 13007KT 10SM SCT019 OVC060 13/08 A3042 RMK AO2 T01330078=
201703241122 SPECI KATL 241122Z 13007KT 10SM BKN020 OVC060 13/07 A3041 RMK AO2 T01330072=
201703241052 METAR KATL 241052Z 13007KT 10SM SCT018 BKN060 14/07 A3040 RMK AO2 SLP294 T01390072=
201703240952 METAR KATL 240952Z 14010KT 10SM FEW045 OVC060 14/07 A3039 RMK AO2 SLP288 T01390067=
201703240852 METAR KATL 240852Z 14006KT 10SM SCT040 BKN060 14/07 A3039 RMK AO2 SLP288 T01440067 55005=
201703240752 METAR KATL 240752Z 14009KT 10SM FEW040 OVC055 14/07 A3038 RMK AO2 SLP287 T01440072=
201703240652 METAR KATL 240652Z 13009KT 10SM SCT033 BKN060 15/06 A3040 RMK AO2 SLP290 T01500056=
201703240552 METAR KATL 240552Z 13008KT 10SM OVC033 15/04 A3040 RMK AO2 SLP293 T01500044 10167 20150 50000=
201703240452 METAR KATL 240452Z 12009KT 10SM OVC035 16/04 A3041 RMK AO2 SLP297 T01560039 401890100=
201703240352 METAR KATL 240352Z 12007KT 10SM OVC035 16/04 A3041 RMK AO2 SLP296 T01560039=
201703240252 METAR KATL 240252Z 11007KT 10SM OVC038 16/04 A3040 RMK AO2 SLP294 T01560039 51010=
201703240152 METAR KATL 240152Z 12010KT 10SM BKN038 OVC050 16/03 A3040 RMK AO2 SLP292 T01560033=
201703240052 METAR KATL 240052Z 12010G16KT 10SM BKN036 BKN050 BKN250 16/03 A3039 RMK AO2 SLP289 T01610033=
201703232352 METAR KATL 232352Z 14008G16KT 10SM BKN040 BKN250 17/03 A3037 RMK AO2 SLP284 T01670028 10189 20161 55001=
201703232252 METAR KATL 232252Z 11009KT 10SM SCT040 BKN200 BKN250 17/03 A3037 RMK AO2 SLP283 T01720028=
201703232224 SPECI KATL 232224Z 10011KT 6SM FU FEW045 SCT200 BKN250 17/03 A3036 RMK AO2 T01670028=
201703232152 METAR KATL 232152Z 11012KT 8SM FEW050 SCT200 BKN250 18/03 A3037 RMK AO2 SLP282 VIS LWR FU T01780028=
201703232052 METAR KATL 232052Z 12009G20KT 10SM BKN045 BKN220 17/04 A3038 RMK AO2 SLP284 T01720039 56016=
201703231952 METAR KATL 231952Z 09012G18KT 10SM FEW040 BKN220 18/04 A3038 RMK AO2 SLP286 T01830044=
201703231852 METAR KATL 231852Z 11008G19KT 10SM FEW040 SCT050 SCT250 18/04 A3040 RMK AO2 SLP291 T01780039=
201703231752 METAR KATL 231752Z 11011G16KT 10SM FEW055 FEW250 17/03 A3042 RMK AO2 SLP301 T01670028 10167 20100 58003=
201703231652 METAR KATL 231652Z 10012G19KT 10SM FEW050 FEW250 15/03 A3044 RMK AO2 SLP306 T01500028=
201703231552 METAR KATL 231552Z 08015G20KT 10SM FEW030 FEW050 SCT250 14/03 A3044 RMK AO2 SLP307 T01440033=
201703231452 METAR KATL 231452Z 09016G23KT 10SM FEW055 13/03 A3043 RMK AO2 SLP306 T01280028 51022=
201703231352 METAR KATL 231352Z 09017G20KT 10SM BKN055 12/03 A3042 RMK AO2 SLP302 T01170028=
201703231252 METAR KATL 231252Z 09012KT 10SM FEW040 BKN050 11/02 A3039 RMK AO2 SLP293 T01060017=
201703231152 METAR KATL 231152Z 09014KT 10SM SCT042 BKN050 11/M02 A3037 RMK AO2 SLP282 T01061017 10122 20106 53019=
201703231052 METAR KATL 231052Z 08015KT 10SM SCT042 BKN050 11/M01 A3034 RMK AO2 SLP273 T01061011=
201703230952 METAR KATL 230952Z 09012KT 10SM SCT042 BKN050 12/M01 A3032 RMK AO2 SLP267 T01171006=
201703230852 METAR KATL 230852Z 09011KT 10SM BKN048 12/00 A3031 RMK AO2 SLP262 T01170000 51006=
201703230752 METAR KATL 230752Z 08012KT 10SM BKN048 12/02 A3030 RMK AO2 SLP260 T01170017=
201703230652 METAR KATL 230652Z 08010KT 10SM SCT045 12/03 A3030 RMK AO2 SLP261 T01220028=
201703230552 METAR KATL 230552Z 08011KT 10SM SCT046 12/00 A3029 RMK AO2 SLP257 T01170000 10161 20117 51014=
201703230452 METAR KATL 230452Z 03007KT 10SM FEW048 12/M03 A3028 RMK AO2 SLP252 T01221033 402000117=
201703230352 METAR KATL 230352Z 35006KT 10SM SCT048 12/M03 A3027 RMK AO2 SLP250 T01221033=
201703230252 METAR KATL 230252Z 34006KT 10SM FEW050 SCT250 13/M03 A3025 RMK AO2 SLP242 T01281033 53020=
201703230152 METAR KATL 230152Z 34009KT 10SM SCT250 14/M03 A3022 RMK AO2 SLP232 T01391033=
201703230052 METAR KATL 230052Z 32007KT 10SM BKN250 14/00 A3020 RMK AO2 SLP227 T01440000=
201703222352 METAR KATL 222352Z 32008KT 10SM FEW150 BKN250 16/03 A3019 RMK AO2 SLP221 60000 T01610028 10200 20150 53016=
201703222252 METAR KATL 222252Z 34010KT 10SM FEW100 OVC250 17/04 A3017 RMK AO2 SLP215 T01720039=
201703222152 METAR KATL 222152Z 01011KT 10SM FEW100 BKN250 19/04 A3015 RMK AO2 SLP207 T01890044=
201703222052 METAR KATL 222052Z 32011KT 10SM FEW100 SCT140 BKN250 19/06 A3014 RMK AO2 SLP202 60000 T01940056 55008=
201703221952 METAR KATL 221952Z 35010KT 10SM FEW100 SCT150 BKN250 19/07 A3014 RMK AO2 SLP202 ACC NE-E T01940067=
201703221852 METAR KATL 221852Z 34012KT 10SM FEW100 BKN140 OVC180 16/08 A3015 RMK AO2 RAB10E32 SLP209 VIRGA NE-SE-SW P0000 T01560078=
201703221752 METAR KATL 221752Z 32016KT 10SM FEW095 SCT110 OVC150 16/08 A3016 RMK AO2 SLP211 SHRA VC SE-S & SW-NW T01560083 10172 20133 50009=
201703221652 METAR KATL 221652Z 34013KT 10SM FEW060 SCT130 BKN150 BKN230 16/08 A3017 RMK AO2 SLP214 VIRGA NE-SE-SW-NW-N SHRA DSNT SE-S T01560083=
201703221552 METAR KATL 221552Z 33013KT 10SM FEW120 BKN150 BKN200 16/09 A3016 RMK AO2 SLP211 VIRGA OHD & ALQDS T01560089=
201703221452 METAR KATL 221452Z 34012KT 10SM FEW050 SCT140 BKN180 BKN200 17/09 A3014 RMK AO2 SLP201 VIRGA DSNT N T01720094 51022=
201703221352 METAR KATL 221352Z 33011KT 10SM FEW050 FEW140 SCT200 14/11 A3012 RMK AO2 SLP195 T01440106=
201703221252 METAR KATL 221252Z 32011KT 10SM FEW050 SCT200 13/11 A3010 RMK AO2 SLP186 T01330111=
201703221152 METAR KATL 221152Z 32012KT 8SM FEW050 FEW150 SCT200 13/12 A3007 RMK AO2 SLP176 T01330117 10167 20133 53019=
201703221052 METAR KATL 221052Z 31013KT 10SM FEW020 FEW050 SCT200 14/12 A3005 RMK AO2 SLP167 T01390122=
201703220952 METAR KATL 220952Z 32015KT 10SM FEW020 14/13 A3003 RMK AO2 SLP161 T01440128=
201703220852 METAR KATL 220852Z 32014KT 10SM FEW020 FEW200 15/13 A3001 RMK AO2 SLP155 T01500133 56008=
201703220752 METAR KATL 220752Z 30010KT 10SM FEW025 16/14 A3002 RMK AO2 SLP157 T01560139=
201703220652 METAR KATL 220652Z 31010KT 10SM FEW065 FEW150 16/14 A3003 RMK AO2 SLP159 T01560139=
201703220552 METAR KATL 220552Z 31008KT 10SM SCT065 BKN150 17/14 A3004 RMK AO2 SLP164 60000 T01670139 10272 20161 53004=
201703220452 METAR KATL 220452Z 27007KT 10SM FEW070 SCT150 BKN250 17/14 A3003 RMK AO2 SLP162 T01670139 403000150=
201703220352 METAR KATL 220352Z 26006KT 10SM FEW110 SCT150 BKN250 17/14 A3003 RMK AO2 SLP160 T01670144=
201703220252 METAR KATL 220252Z 26005KT 10SM FEW100 BKN150 OVC200 17/14 A3003 RMK AO2 RAE0156 TSE07 SLP161 P0000 60000 T01720144 50036=
201703220207 SPECI KATL 220207Z 02010G20KT 10SM FEW040 BKN100 OVC200 17/15 A3004 RMK AO2 LTG DSNT NE-SE RAE0156 TSE07 TS MOVD SE P0000 T01720150=
201703220152 METAR KATL 220152Z 36016G27KT 9SM -TSRA FEW015 FEW040CB BKN100 OVC200 18/15 A3005 RMK AO2 PK WND 33048/0118 WSHFT 0112 RAB24 TSB08 SLP171 OCNL LTGICCA NE-SE TS VC NE-SE MOV SE P0000 T01780150=
201703220124 SPECI KATL 220124Z 33032G48KT 8SM -TSRA SQ FEW050CB BKN070 OVC150 22/12 A3005 RMK AO2 PK WND 33048/0118 RAB24 TSB08 PRESRR FRQ LTGICCA NW-NE TS VC NW-NE MOV SE P0000 T02170117=
201703220117 SPECI KATL 220117Z 33031G43KT 8SM TS SQ FEW050CB BKN080 BKN150 OVC200 24/12 A3003 RMK AO2 PK WND 34043/0117 TSB08 PRESRR FRQ LTGICCA NW-NE TS VC NW-NE MOV SE T02440117=
201703220109 SPECI KATL 220109Z 27010KT 10SM TS FEW050CB SCT100 BKN150 OVC200 26/12 A2997 RMK AO2 TSB08 PRESRR FRQ LTGICCA VC N-NE & DSNT NW TS VC N-NE & DSNT NW MOV SE T02610117=
201703220052 METAR KATL 220052Z 27011KT 10SM FEW100 BKN200 OVC250 27/12 A2995 RMK AO2 SLP133 FRQ LTG DSNT NW-NE T02670122=
201703212352 METAR KATL 212352Z 26009KT 10SM FEW065 BKN200 BKN250 27/13 A2992 RMK AO2 SLP123 T02720133 10300 20272 56010=
201703212252 METAR KATL 212252Z 26014G20KT 10SM FEW065 SCT200 BKN250 28/13 A2992 RMK AO2 SLP124 TCU DSNT N T02830133=
201703212152 METAR KATL 212152Z 24010G18KT 10SM FEW060 SCT200 29/14 A2992 RMK AO2 SLP122 T02940139=
201703212052 METAR KATL 212052Z 27018KT 10SM SCT060 SCT150 29/14 A2995 RMK AO2 SLP131 T02940139 56025=
201703211952 METAR KATL 211952Z 28014KT 10SM FEW065 FEW150 29/14 A2996 RMK AO2 WSHFT 1917 SLP137 T02940139=
201703211937 SPECI KATL 211937Z 23009G21KT 10SM FEW060 29/14 A2997 RMK AO2 WSHFT 1917 T02940144=
201703211852 METAR KATL 211852Z 24009KT 10SM FEW060 29/14 A2999 RMK AO2 SLP145 T02940144=
201703211752 METAR KATL 211752Z 29011KT 10SM FEW065 FEW230 28/14 A3002 RMK AO2 SLP157 T02830144 10283 20150 58016=
201703211652 METAR KATL 211652Z 30008KT 10SM FEW065 FEW250 27/14 A3005 RMK AO2 SLP167 T02720144=
201703211552 METAR KATL 211552Z 29009KT 10SM FEW065 FEW250 25/15 A3007 RMK AO2 SLP174 T02500150=
201703211452 METAR KATL 211452Z 28009KT 10SM FEW050 FEW250 23/14 A3007 RMK AO2 SLP176 T02280144 52006=
201703211352 METAR KATL 211352Z 26010G17KT 10SM FEW200 21/14 A3006 RMK AO2 SLP174 T02060139=
201703211252 METAR KATL 211252Z 25006KT 10SM FEW250 17/13 A3006 RMK AO2 SLP174 T01720128=
201703211152 METAR KATL 211152Z 24004KT 10SM FEW180 FEW250 16/12 A3005 RMK AO2 SLP172 T01560117 10183 20156 53009=
201703211052 METAR KATL 211052Z 24007KT 10SM CLR 16/12 A3003 RMK AO2 SLP164 T01610117=
201703210952 METAR KATL 210952Z 26007KT 10SM FEW250 17/12 A3003 RMK AO2 SLP162 T01670117=
201703210852 METAR KATL 210852Z 26009KT 10SM BKN250 18/12 A3003 RMK AO2 SLP160 T01830117 56008=
201703210752 METAR KATL 210752Z 24007KT 10SM FEW180 BKN250 17/11 A3003 RMK AO2 SLP162 T01720106=
201703210652 METAR KATL 210652Z 23009KT 10SM FEW100 SCT180 BKN250 17/10 A3004 RMK AO2 SLP166 T01720100=
201703210552 METAR KATL 210552Z 22008KT 10SM FEW100 BKN250 18/09 A3005 RMK AO2 SLP170 T01780094 10222 20167 58013=
201703210452 METAR KATL 210452Z 24006KT 10SM FEW100 BKN250 17/09 A3009 RMK AO2 SLP186 T01720089 402560067=
201703210352 METAR KATL 210352Z 24004KT 10SM SCT250 18/09 A3010 RMK AO2 SLP190 T01780089=
201703210252 METAR KATL 210252Z 21006KT 10SM BKN250 18/08 A3009 RMK AO2 SLP187 T01830083 50006=
201703210152 METAR KATL 210152Z 23004KT 10SM BKN250 19/07 A3010 RMK AO2 SLP190 T01940072=
201703210052 METAR KATL 210052Z 21006KT 10SM BKN250 21/07 A3008 RMK AO2 SLP183 T02060067=
201703202352 METAR KATL 202352Z 20006KT 10SM BKN250 22/07 A3007 RMK AO2 SLP181 T02220067 10256 20200 56010=
201703202252 METAR KATL 202252Z 22009KT 10SM BKN250 24/07 A3008 RMK AO2 SLP182 T02440067=
201703202152 METAR KATL 202152Z 25007KT 10SM FEW070 BKN250 24/07 A3009 RMK AO2 SLP187 T02440067=
201703202052 METAR KATL 202052Z 24010KT 10SM FEW050 FEW070 SCT250 24/06 A3010 RMK AO2 SLP190 T02390056 56034=
201703201952 METAR KATL 201952Z 28006KT 10SM FEW050 FEW060 SCT250 24/06 A3014 RMK AO2 SLP203 T02390056=
201703201852 METAR KATL 201852Z 18007KT 10SM FEW045 FEW055 SCT250 22/02 A3017 RMK AO2 SLP213 T02220022=
201703201752 METAR KATL 201752Z 00000KT 10SM FEW045 BKN055 21/M01 A3021 RMK AO2 SLP227 T02061011 10206 20083 58010=
201703201652 METAR KATL 201652Z 29009KT 10SM BKN040 19/M01 A3023 RMK AO2 SLP234 T01941006=
201703201552 METAR KATL 201552Z 00000KT 10SM SCT045 SCT080 16/02 A3024 RMK AO2 SLP240 T01560017=
201703201452 METAR KATL 201452Z 00000KT 10SM BKN050 BKN080 12/00 A3024 RMK AO2 SLP241 T01220000 53005=
201703201352 METAR KATL 201352Z 12003KT 10SM FEW050 SCT080 10/00 A3023 RMK AO2 SLP238 T01000000=
201703201252 METAR KATL 201252Z 09007KT 10SM BKN075 BKN090 09/00 A3023 RMK AO2 SLP237 T00940000=
201703201152 METAR KATL 201152Z 04004KT 10SM FEW090 08/M01 A3022 RMK AO2 SLP236 T00831011 10089 20067 53006=
201703201052 METAR KATL 201052Z 02005KT 10SM FEW090 08/M01 A3022 RMK AO2 SLP233 T00831011=
201703200952 METAR KATL 200952Z 03008KT 10SM CLR 08/M01 A3020 RMK AO2 SLP226 T00781006=
201703200852 METAR KATL 200852Z 36006KT 10SM CLR 08/M01 A3020 RMK AO2 SLP228 T00831006 58007=
201703200752 METAR KATL 200752Z 33006KT 10SM CLR 07/01 A3022 RMK AO2 SLP235 T00670006=
201703200652 METAR KATL 200652Z 32007KT 10SM CLR 07/01 A3023 RMK AO2 SLP237 T00720006=
201703200552 METAR KATL 200552Z 29004KT 10SM CLR 08/M01 A3023 RMK AO2 SLP236 T00831006 10144 20078 58003=
201703200452 METAR KATL 200452Z 32003KT 10SM CLR 09/M01 A3024 RMK AO2 SLP240 T00891006 401720056=
201703200352 METAR KATL 200352Z 29003KT 10SM CLR 09/M01 A3024 RMK AO2 SLP242 T00941006=
201703200252 METAR KATL 200252Z 35004KT 10SM FEW200 11/M01 A3024 RMK AO2 SLP240 T01111011 51008=
201703200152 METAR KATL 200152Z 35008KT 10SM FEW200 13/M02 A3023 RMK AO2 SLP239 T01281017=
201703200052 METAR KATL 200052Z 34008KT 10SM FEW250 13/M03 A3023 RMK AO2 SLP238 T01331028=
201703192352 METAR KATL 192352Z 34012KT 10SM FEW200 14/M03 A3021 RMK AO2 SLP232 T01441033 10172 20144 53003=
201703192252 METAR KATL 192252Z 33013KT 10SM FEW200 16/M03 A3020 RMK AO2 SLP228 T01611033=
201703192152 METAR KATL 192152Z 35014KT 10SM FEW250 17/M03 A3020 RMK AO2 SLP227 T01671033=
201703192052 METAR KATL 192052Z 36011KT 10SM FEW250 17/M02 A3020 RMK AO2 SLP227 T01721022 56016=
201703191952 METAR KATL 191952Z 32016G21KT 10SM CLR 17/M02 A3021 RMK AO2 SLP228 T01671017=
201703191852 METAR KATL 191852Z 31017G21KT 10SM CLR 16/M01 A3022 RMK AO2 SLP233 T01611011=
201703191752 METAR KATL 191752Z 36012G19KT 10SM FEW250 14/M02 A3025 RMK AO2 SLP243 T01441017 10150 20056 58012=
201703191652 METAR KATL 191652Z 34011KT 10SM FEW120 14/M02 A3028 RMK AO2 SLP253 T01391017=
201703191552 METAR KATL 191552Z 32013KT 10SM CLR 12/M01 A3029 RMK AO2 SLP257 T01171006=
201703191452 METAR KATL 191452Z 32011KT 10SM FEW250 09/01 A3029 RMK AO2 SLP256 T00940006 51019=
201703191352 METAR KATL 191352Z 33011KT 10SM FEW250 08/01 A3027 RMK AO2 SLP252 T00780006=
201703191252 METAR KATL 191252Z 33013KT 10SM FEW250 07/01 A3026 RMK AO2 SLP246 T00670006=
201703191152 METAR KATL 191152Z 31009KT 10SM FEW250 06/00 A3023 RMK AO2 SLP236 70007 T00560000 10117 20056 53024=
201703191052 METAR KATL 191052Z 32006KT 10SM CLR 06/00 A3020 RMK AO2 SLP224 T00610000=
201703190952 METAR KATL 190952Z 32008KT 10SM CLR 07/00 A3017 RMK AO2 SLP217 T00720000=
201703190852 METAR KATL 190852Z 32010KT 10SM CLR 08/00 A3015 RMK AO2 SLP209 T00830000 50002=
201703190752 METAR KATL 190752Z 34014G20KT 10SM CLR 09/M01 A3015 RMK AO2 SLP209 T00941006=
201703190652 METAR KATL 190652Z 33015KT 10SM CLR 10/M01 A3015 RMK AO2 SLP208 T01001006=
201703190552 METAR KATL 190552Z 33013G21KT 10SM CLR 12/M01 A3015 RMK AO2 SLP207 T01171011 10189 20117 51009=
201703190452 METAR KATL 190452Z 33017G28KT 10SM FEW250 13/M01 A3014 RMK AO2 PK WND 34028/0436 SLP205 T01281011 402220122=
201703190352 METAR KATL 190352Z 31011KT 10SM SCT250 15/00 A3013 RMK AO2 SLP201 T01500000=
201703190252 METAR KATL 190252Z 29013KT 10SM SCT250 16/03 A3012 RMK AO2 SLP198 T01610028 53008=
201703190152 METAR KATL 190152Z 29010KT 10SM SCT250 17/07 A3011 RMK AO2 SLP194 T01670072=
201703190052 METAR KATL 190052Z 30009KT 10SM FEW200 SCT250 18/07 A3010 RMK AO2 SLP190 T01830072=
201703182352 METAR KATL 182352Z 29008G17KT 10SM FEW060 SCT200 BKN250 19/11 A3010 RMK AO2 SLP188 T01890106 10222 20172 55001=
201703182252 METAR KATL 182252Z 29012G20KT 10SM FEW060 SCT075 SCT200 BKN250 20/10 A3008 RMK AO2 SLP183 T02000100=
201703182152 METAR KATL 182152Z 28011G21KT 10SM SCT055 BKN075 BKN200 BKN250 21/09 A3009 RMK AO2 SLP183 T02060094=
201703182052 METAR KATL 182052Z 28015G23KT 10SM SCT045 SCT060 BKN250 21/10 A3010 RMK AO2 SLP187 T02110100 56024=
201703181952 METAR KATL 181952Z 28013KT 10SM SCT036 BKN045 BKN250 20/12 A3012 RMK AO2 SLP194 T02000117=
201703181852 METAR KATL 181852Z 28015G21KT 10SM SCT023 SCT032 BKN250 19/13 A3014 RMK AO2 SLP202 T01940128=
201703181800 SPECI KATL 181800Z 27015G20KT 10SM SCT017 SCT025 BKN031 BKN250 18/14 A3017 RMK AO2 T01830139=
201703181752 METAR KATL 181752Z 27010KT 10SM SCT017 BKN022 OVC031 17/14 A3017 RMK AO2 SLP213 BINOVC 60007 T01720139 10172 20122 58014=
201703181701 SPECI KATL 181701Z 28010KT 10SM OVC015 16/13 A3019 RMK AO2 T01610133=
201703181652 METAR KATL 181652Z 28016KT 10SM OVC014 16/13 A3019 RMK AO2 PK WND 28027/1606 SLP221 T01610133=
201703181552 METAR KATL 181552Z 25014G22KT 10SM BKN012 BKN020 OVC035 16/13 A3020 RMK AO2 SLP224 BINOVC T01610133=
201703181508 SPECI KATL 181508Z 24011G21KT 10SM BKN013 OVC036 14/13 A3022 RMK AO2 T01440128=
201703181452 METAR KATL 181452Z 24013G18KT 10SM FEW009 BKN036 OVC100 14/13 A3021 RMK AO2 RAE00 SLP229 P0000 60007 T01390128 56005=
201703181439 SPECI KATL 181439Z 24011G19KT 10SM SCT009 OVC036 14/13 A3021 RMK AO2 RAE00 P0000 T01390128=
201703181400 SPECI KATL 181400Z 24012G18KT 10SM BKN009 BKN013 OVC040 13/12 A3022 RMK AO2 RAE00 P0000 T01280117=
201703181352 METAR KATL 181352Z 24009G16KT 10SM -RA BKN011 BKN040 13/12 A3022 RMK AO2 RAB1254 SLP232 P0000 T01280117=
201703181252 METAR KATL 181252Z 23009KT 8SM FEW021 FEW060 OVC100 12/11 A3022 RMK AO2 RAE35 SLP231 SHRA SE-S P0007 T01220111=
201703181152 METAR KATL 181152Z 25006KT 4SM RA BR SCT038 BKN047 OVC070 13/11 A3023 RMK AO2 RAB1057 SLP233 P0013 60013 70013 T01280111 10161 20128 53010=
201703181052 METAR KATL 181052Z 25008G16KT 10SM BKN055 BKN080 OVC200 15/08 A3020 RMK AO2 SLP224 SHRA W-N T01500083=
201703180952 METAR KATL 180952Z 24008KT 10SM BKN055 BKN070 OVC250 16/08 A3019 RMK AO2 SLP221 T01560083=
201703180852 METAR KATL 180852Z 23012KT 10SM SCT060 BKN075 BKN250 16/08 A3020 RMK AO2 SLP222 T01560078 58009=
201703180752 METAR KATL 180752Z 23013G19KT 10SM BKN075 BKN250 16/07 A3021 RMK AO2 SLP227 T01610072=
201703180652 METAR KATL 180652Z 24009KT 10SM SCT080 SCT180 BKN250 16/05 A3023 RMK AO2 SLP232 T01560050=
201703180552 METAR KATL 180552Z 22010KT 10SM FEW070 FEW250 16/04 A3023 RMK AO2 SLP233 T01560044 10189 20156 56014=
201703180452 METAR KATL 180452Z 22011KT 10SM FEW070 FEW250 16/04 A3024 RMK AO2 SLP239 T01610044 402000028=
201703180352 METAR KATL 180352Z 21006KT 10SM SCT050 OVC075 17/06 A3025 RMK AO2 SLP242 T01670056=
201703180252 METAR KATL 180252Z 22005KT 10SM BKN055 OVC080 17/06 A3027 RMK AO2 SLP249 T01720056 50002=
201703180152 METAR KATL 180152Z 23006KT 10SM BKN055 OVC080 18/05 A3027 RMK AO2 SLP252 T01780050=
201703180052 METAR KATL 180052Z 22006KT 10SM SCT060 BKN080 BKN250 18/05 A3026 RMK AO2 SLP247 T01780050=
201703172352 METAR KATL 172352Z 23006KT 10SM BKN060 BKN250 19/04 A3026 RMK AO2 SLP248 T01890044 10200 20144 55001=
201703172252 METAR KATL 172252Z 21011KT 10SM SCT075 BKN250 19/05 A3025 RMK AO2 SLP242 T01940050=
201703172152 METAR KATL 172152Z 23011G17KT 10SM FEW075 SCT250 20/04 A3025 RMK AO2 SLP243 T02000044=
201703172052 METAR KATL 172052Z 21010KT 10SM SCT075 SCT250 19/03 A3027 RMK AO2 SLP250 T01890033 56035=
201703171952 METAR KATL 171952Z 21008G15KT 180V240 10SM BKN075 BKN250 17/02 A3030 RMK AO2 SLP261 T01720022=
201703171852 METAR KATL 171852Z VRB04KT 10SM SCT040 SCT075 BKN250 16/00 A3033 RMK AO2 SLP273 T01610000=
201703171752 METAR KATL 171752Z 00000KT 10SM SCT030 BKN070 BKN250 15/M03 A3037 RMK AO2 SLP286 T01501028 10150 20056 58012=
201703171652 METAR KATL 171652Z VRB03KT 10SM BKN030 BKN070 BKN250 12/M05 A3039 RMK AO2 SLP295 T01171050=
201703171552 METAR KATL 171552Z VRB03KT 10SM BKN030 BKN075 OVC250 11/M04 A3040 RMK AO2 SLP299 T01061044=
201703171537 SPECI KATL 171537Z 14004KT 10SM BKN030 BKN070 OVC250 10/M03 A3040 RMK AO2 T01001033=
201703171452 METAR KATL 171452Z 12004KT 10SM BKN028 BKN070 OVC250 09/M03 A3041 RMK AO2 SLP300 T00941028 51012=
201703171352 METAR KATL 171352Z 15003KT 9SM FEW050 BKN070 OVC250 08/M05 A3040 RMK AO2 SLP298 T00781050=
201703171252 METAR KATL 171252Z 26003KT 10SM FEW012 FEW050 BKN065 BKN250 06/M03 A3039 RMK AO2 SLP296 FU FEW012 T00611033=
201703171152 METAR KATL 171152Z 00000KT 10SM FEW050 BKN065 BKN250 06/M03 A3037 RMK AO2 SLP289 T00561028 10056 20028 51017=
201703171052 METAR KATL 171052Z 00000KT 10SM FEW012 SCT050 BKN070 04/M06 A3036 RMK AO2 SLP285 FU FEW012 T00441061=
201703170952 METAR KATL 170952Z 28004KT 10SM FEW012 BKN050 BKN075 04/M06 A3034 RMK AO2 SLP276 FU FEW012 T00391056=
201703170852 METAR KATL 170852Z 28003KT 10SM FEW016 03/M05 A3032 RMK AO2 SLP271 FU FEW016 T00331050 58004=
201703170752 METAR KATL 170752Z 26003KT 10SM FEW020 03/M06 A3033 RMK AO2 SLP275 FU FEW020 T00281061=
201703170652 METAR KATL 170652Z 23003KT 10SM CLR 03/M04 A3033 RMK AO2 SLP275 T00281044=
201703170552 METAR KATL 170552Z 31003KT 10SM CLR 06/M07 A3033 RMK AO2 SLP276 T00561067 10100 20039 53003=
201703170452 METAR KATL 170452Z 00000KT 10SM CLR 05/M06 A3033 RMK AO2 SLP275 T00501061 401281039=
201703170352 METAR KATL 170352Z 00000KT 10SM CLR 06/M08 A3033 RMK AO2 SLP275 T00611078=
201703170252 METAR KATL 170252Z 30003KT 10SM CLR 07/M09 A3032 RMK AO2 SLP275 T00721089 50008=
201703170152 METAR KATL 170152Z 34005KT 10SM CLR 08/M09 A3033 RMK AO2 SLP276 T00781089=
201703170052 METAR KATL 170052Z 32008KT 10SM CLR 08/M09 A3032 RMK AO2 SLP274 T00831094=
201703162352 METAR KATL 162352Z 33007KT 10SM CLR 10/M10 A3030 RMK AO2 SLP268 T01001100 10128 20083 53002=
201703162252 METAR KATL 162252Z 30009KT 10SM FEW250 12/M11 A3030 RMK AO2 SLP266 T01171111=
201703162152 METAR KATL 162152Z 32011KT 10SM FEW250 13/M12 A3029 RMK AO2 SLP262 T01281122=
201703162052 METAR KATL 162052Z 31013KT 10SM FEW250 12/M13 A3029 RMK AO2 SLP265 T01221128 58022=
201703162016 SPECI KATL 162016Z 33008G16KT 10SM SCT250 11/M13 A3030 RMK AO2 T01111133=
201703161952 METAR KATL 161952Z VRB06G17KT 10SM SCT250 11/M14 A3031 RMK AO2 SLP271 T01061139=
201703161852 METAR KATL 161852Z 30015KT 10SM SCT250 11/M11 A3034 RMK AO2 SLP281 T01061111=
201703161752 METAR KATL 161752Z 33008G18KT 10SM SCT250 08/M14 A3036 RMK AO2 SLP288 T00831139 10089 21033 58013=
201703161652 METAR KATL 161652Z 31009KT 10SM FEW250 07/M13 A3039 RMK AO2 SLP297 T00671128=
201703161552 METAR KATL 161552Z 31011KT 10SM FEW250 04/M12 A3040 RMK AO2 SLP302 T00441117=
201703161452 METAR KATL 161452Z 32008KT 10SM FEW250 03/M11 A3040 RMK AO2 SLP303 T00281111 53012=
201703161352 METAR KATL 161352Z 01011KT 10SM FEW250 01/M11 A3038 RMK AO2 SLP296 T00111111=
201703161252 METAR KATL 161252Z 33007KT 10SM FEW200 M01/M11 A3037 RMK AO2 SLP294 T10111106=
201703161152 METAR KATL 161152Z 28005KT 10SM CLR M04/M11 A3036 RMK AO2 SLP292 T10391106 11011 21039 53016=
201703161052 METAR KATL 161052Z 28005KT 10SM CLR M03/M11 A3035 RMK AO2 SLP286 T10331106=
201703160952 METAR KATL 160952Z 29006KT 10SM CLR M03/M10 A3033 RMK AO2 SLP279 T10281100=
201703160852 METAR KATL 160852Z 30006KT 10SM CLR M02/M11 A3031 RMK AO2 SLP274 T10221106 58001=
201703160752 METAR KATL 160752Z 30006KT 10SM CLR M02/M11 A3032 RMK AO2 SLP277 T10221106=
201703160652 METAR KATL 160652Z 31006KT 10SM CLR M02/M11 A3032 RMK AO2 SLP278 T10171111=
201703160552 METAR KATL 160552Z 29005KT 10SM CLR M02/M11 A3032 RMK AO2 SLP275 T10171111 10039 21017 50002=
201703160452 METAR KATL 160452Z 32007KT 10SM CLR 00/M11 A3032 RMK AO2 SLP276 T00001111 400611022=
201703160352 METAR KATL 160352Z 32009KT 10SM CLR 01/M11 A3033 RMK AO2 SLP278 T00061111=
201703160252 METAR KATL 160252Z 32007KT 10SM CLR 01/M11 A3031 RMK AO2 SLP273 T00111111 51014=
201703160152 METAR KATL 160152Z 31008KT 10SM CLR 02/M11 A3030 RMK AO2 SLP272 T00221111=
201703160052 METAR KATL 160052Z 32007KT 10SM CLR 03/M12 A3029 RMK AO2 SLP266 T00281117=
201703152352 METAR KATL 152352Z 32011KT 10SM CLR 04/M12 A3027 RMK AO2 SLP259 T00391122 10061 20033 53006=
201703152252 METAR KATL 152252Z 31013G22KT 10SM CLR 05/M12 A3025 RMK AO2 SLP254 T00501122=
201703152152 METAR KATL 152152Z 32013G18KT 10SM FEW250 06/M13 A3025 RMK AO2 SLP251 T00611128=
201703152052 METAR KATL 152052Z 32015KT 10SM CLR 06/M12 A3025 RMK AO2 SLP251 T00561122 56016=
201703151952 METAR KATL 151952Z 36014G23KT 10SM CLR 06/M12 A3026 RMK AO2 SLP254 T00561122=
201703151852 METAR KATL 151852Z 31015KT 10SM CLR 05/M12 A3028 RMK AO2 SLP260 T00501117=
201703151752 METAR KATL 151752Z 32015G20KT 10SM FEW060 04/M12 A3030 RMK AO2 PK WND 36026/1728 SLP269 60000 T00391117 10044 21022 50002=
201703151652 METAR KATL 151652Z 34012G20KT 10SM FEW060 03/M12 A3031 RMK AO2 SLP274 T00281117=
201703151552 METAR KATL 151552Z 34009G19KT 10SM FEW050 02/M11 A3031 RMK AO2 SLP271 T00171106=
201703151452 METAR KATL 151452Z 36016G21KT 10SM FEW040 01/M11 A3029 RMK AO2 SLP267 60000 T00061106 53024=
201703151352 METAR KATL 151352Z 33016KT 10SM FEW032 M01/M08 A3026 RMK AO2 SLP256 T10111078=
201703151252 METAR KATL 151252Z 34012G21KT 10SM SCT033 SCT200 M02/M08 A3024 RMK AO2 SNE15 SLP251 P0000 T10171083=
201703151220 SPECI KATL 151220Z 32012KT 10SM FEW028 SCT036 M02/M08 A3023 RMK AO2 SNE15 P0000 T10221083=
201703151152 METAR KATL 151152Z 34014KT 9SM -SN FEW028 SCT036 M02/M08 A3022 RMK AO2 SNB13 SLP243 SN VRY LGT P0000 60000 T10171078 11006 21022 53019=
201703151052 METAR KATL 151052Z 32013KT 10SM BKN039 M02/M08 A3020 RMK AO2 SLP236 T10171078=
201703150952 METAR KATL 150952Z 32009KT 10SM FEW035 M02/M07 A3018 RMK AO2 SLP227 T10221072=
201703150852 METAR KATL 150852Z 32011KT 10SM FEW035 M02/M07 A3016 RMK AO2 SLP222 T10171067 51005=
201703150752 METAR KATL 150752Z 31012KT 10SM FEW035 M01/M07 A3016 RMK AO2 SLP220 T10111067=
201703150652 METAR KATL 150652Z 30013KT 10SM FEW035 M01/M06 A3016 RMK AO2 SLP220 T10111061=
201703150552 METAR KATL 150552Z 30014KT 10SM FEW035 M01/M06 A3015 RMK AO2 SLP216 T10061061 10022 21006 51006=
201703150452 METAR KATL 150452Z 31010KT 10SM FEW035 M01/M06 A3015 RMK AO2 SLP216 T10061061 400721006=
201703150352 METAR KATL 150352Z 31009KT 10SM FEW035 01/M06 A3014 RMK AO2 SLP215 T00061061=
201703150252 METAR KATL 150252Z 33014G23KT 10SM FEW030 BKN038 01/M06 A3013 RMK AO2 SLP209 T00111056 53022=
201703150152 METAR KATL 150152Z 32016KT 10SM FEW028 BKN038 OVC050 02/M05 A3010 RMK AO2 PK WND 33030/0108 SLP200 BINOVC T00171050=
201703150052 METAR KATL 150052Z 31019G25KT 10SM FEW028 BKN035 OVC050 02/M03 A3008 RMK AO2 PK WND 32026/0006 SLP193 T00171033=
201703142352 METAR KATL 142352Z 32016G22KT 10SM SCT028 BKN035 OVC050 02/M03 A3006 RMK AO2 PK WND 31027/2327 SLP185 BINOVC T00221028 10072 20022 53012=
201703142252 METAR KATL 142252Z 31016KT 10SM BKN025 OVC040 03/M02 A3004 RMK AO2 SLP177 T00331017=
201703142152 METAR KATL 142152Z 33018G25KT 10SM SCT027 BKN032 OVC050 04/M02 A3003 RMK AO2 PK WND 33028/2108 SLP173 T00391017=
201703142131 SPECI KATL 142131Z 31014G25KT 10SM SCT027 BKN035 BKN050 05/M01 A3002 RMK AO2 PK WND 33028/2108 T00501011=
201703142054 SPECI KATL 142054Z 32022G27KT 10SM BKN027 OVC040 05/M01 A3002 RMK AO2 PK WND 31027/2053 T00501006=
201703142052 METAR KATL 142052Z 32015G24KT 10SM FEW020 SCT030 OVC040 05/M01 A3002 RMK AO2 PK WND 30027/2020 SLP173 T00501006 53011=
201703141952 METAR KATL 141952Z 30016KT 10SM FEW030 BKN040 OVC050 06/00 A2999 RMK AO2 PK WND 29029/1927 SLP160 T00610000=
201703141852 METAR KATL 141852Z 29016G22KT 10SM BKN030 OVC040 06/01 A2999 RMK AO2 SLP161 T00610006=
201703141807 SPECI KATL 141807Z 31014G19KT 10SM BKN025 BKN030 OVC040 06/01 A2999 RMK AO2 T00610011=
201703141752 METAR KATL 141752Z 31011G19KT 10SM FEW025 BKN030 OVC040 07/02 A2999 RMK AO2 SLP161 60000 T00670017 10067 20056 50002=
201703141728 SPECI KATL 141728Z 30012KT 10SM SCT020 BKN030 OVC040 06/02 A3000 RMK AO2 T00610017=
201703141652 METAR KATL 141652Z 31015G23KT 10SM BKN020 BKN025 OVC030 06/02 A3000 RMK AO2 RAE1556 SLP163 P0000 T00560022=
201703141552 METAR KATL 141552Z 31012G20KT 9SM -RA SCT016 BKN023 OVC040 06/03 A2999 RMK AO2 PK WND 33027/1526 RAE1457B05E14B26 SLP160 P0000 T00560033=
201703141501 SPECI KATL 141501Z 30012G19KT 10SM SCT020 BKN030 OVC040 07/03 A2997 RMK AO2 RAE1457 P0000 T00670033=
201703141452 METAR KATL 141452Z 32017G24KT 10SM -RA FEW016 BKN020 OVC040 06/03 A2997 RMK AO2 RAE32B50 SLP152 BINOVC N P0000 60000 T00610028 53023=
201703141359 SPECI KATL 141359Z 32015G20KT 10SM -RA BKN016 BKN020 OVC030 06/03 A2994 RMK AO2 P0000 T00560033=
201703141352 METAR KATL 141352Z 31011KT 10SM -RA BKN014 BKN020 OVC030 06/03 A2994 RMK AO2 RAB37 SLP144 P0000 T00560033=
201703141252 METAR KATL 141252Z 30012KT 10SM FEW010 BKN015 OVC030 06/03 A2992 RMK AO2 SLP137 T00560033=
201703141152 METAR KATL 141152Z 30012KT 10SM BKN014 OVC031 06/03 A2990 RMK AO2 SLP128 60002 70022 T00560033 10056 20044 51017=
201703141110 SPECI KATL 141110Z 30010KT 10SM BKN014 OVC022 05/03 A2988 RMK AO2 T00500033=
201703141052 METAR KATL 141052Z 30010G18KT 10SM SCT013 OVC022 05/03 A2988 RMK AO2 SLP125 T00500033=
201703141028 SPECI KATL 141028Z 30013KT 10SM FEW009 SCT012 OVC020 05/03 A2989 RMK AO2 T00500033=
201703141007 SPECI KATL 141007Z 30012KT 10SM FEW008 BKN012 OVC022 05/04 A2987 RMK AO2 T00500039=
201703140952 METAR KATL 140952Z 30010G18KT 10SM BKN009 OVC014 05/04 A2986 RMK AO2 SLP118 T00500039=
201703140852 METAR KATL 140852Z 31010G18KT 10SM OVC007 04/04 A2985 RMK AO2 SLP112 CIG 006V010 60002 T00440039 56018 $=
201703140752 METAR KATL 140752Z 31012KT 8SM OVC007 04/03 A2987 RMK AO2 RAE22 SLP119 CIG 005V009 P0000 T00440033 $=
201703140750 SPECI KATL 140750Z 30013KT 8SM OVC007 04/03 A2987 RMK AO2 RAE22 CIG 005V009 P0000 $=
201703140652 METAR KATL 140652Z 29011G16KT 7SM -RA BKN006 OVC011 04/04 A2988 RMK AO2 SLP123 CIG 004V008 P0002 T00440039 $=
201703140637 SPECI KATL 140637Z 30007KT 7SM -RA BKN006 OVC011 04/04 A2988 RMK AO2 CIG 004V008 P0001 T00440039 $=
201703140612 SPECI KATL 140612Z 32006KT 7SM -RA FEW006 BKN013 OVC020 04/03 A2989 RMK AO2 CIG 011V015 P0000 T00440033 $=
201703140607 SPECI KATL 140607Z 32007KT 7SM -RA SCT006 BKN015 OVC070 04/03 A2989 RMK AO2 CIG 013V017 P0000 T00440033 $=
201703140552 METAR KATL 140552Z 31008KT 7SM -RA BKN006 BKN014 OVC020 04/04 A2990 RMK AO2 SLP130 CIG 005V008 P0002 60016 T00440039 10050 20044 58007 $=
201703140506 SPECI KATL 140506Z 31007KT 6SM -RA BR BKN005 BKN019 OVC070 04/04 A2991 RMK AO2 BKN005 V SCT CIG 004V007 P0001 T00440039 $=
201703140452 METAR KATL 140452Z 34006KT 8SM -RA SCT006 BKN012 OVC070 04/04 A2991 RMK AO2 SLP133 P0003 T00440039 400560022 $=
201703140352 METAR KATL 140352Z 31006KT 4SM -RA BR SCT006 BKN014 OVC060 04/04 A2994 RMK AO2 SLP144 P0008 T00440039 $=
201703140252 METAR KATL 140252Z 04008KT 3SM -RA BR SCT005 BKN012 OVC050 04/04 A2992 RMK AO2 SLP137 VIS LWR SW-NW SHRA P0002 60003 T00440039 58007 $=
201703140242 SPECI KATL 140242Z 06009KT 3SM -RA BR BKN005 BKN012 OVC025 04/04 A2993 RMK AO2 P0001 T00440039 $=
201703140152 METAR KATL 140152Z 01005KT 1 1/2SM -RA BR BKN005 OVC012 04/04 A2994 RMK AO2 DZE0059B19E42RAB0059E19B42 SLP143 P0001 T00440039 $=
201703140120 SPECI KATL 140120Z 10003KT 1 1/2SM -DZ BR OVC006 04/04 A2994 RMK AO2 DZE0059B19RAB0059E19 CIG 004V008 P0000 T00440039 $=
201703140059 SPECI KATL 140059Z 07006KT 2SM -RA BR OVC006 04/04 A2994 RMK AO2 DZE59RAB59 CIG 004V008 P0000 T00440039 $=
201703140052 METAR KATL 140052Z 07006KT 3SM -DZ BR OVC006 04/04 A2994 RMK AO2 DZB2353 SLP145 CIG 004V008 P0000 T00440039 $=
201703132352 METAR KATL 132352Z 07008KT 8SM BKN007 OVC020 05/04 A2994 RMK AO2 SLP146 60004 T00500039 10050 20044 55022=
201703132252 METAR KATL 132252Z 10007KT 8SM BKN008 OVC020 05/03 A2994 RMK AO2 RAE2154 SLP144 P0000 T00500033=
201703132152 METAR KATL 132152Z 10010KT 6SM -RA BR BKN008 BKN013 OVC025 04/03 A2995 RMK AO2 SLP147 PCPN VRY LGT P0001 T00440033=
201703132146 SPECI KATL 132146Z 10011KT 6SM -RA BR SCT008 BKN013 OVC025 04/03 A2995 RMK AO2 PCPN VRY LGT P0001=
201703132052 METAR KATL 132052Z 09009KT 2SM R09R/6000VP6000FT -RA BR BKN009 BKN012 OVC020 04/03 A3001 RMK AO2 SFC VIS 2 1/2 SLP168 P0001 60003 T00440033 56036=
201703132031 SPECI KATL 132031Z 08008KT 2SM R09R/6000VP6000FT -RA BR BKN009 BKN012 OVC030 04/03 A3002 RMK AO2 SFC VIS 3 P0000 T00440033=
201703132023 SPECI KATL 132023Z 09007KT 5SM -RA BR BKN009 BKN012 OVC020 04/03 A3002 RMK AO2 P0000 T00440033=
201703131952 METAR KATL 131952Z 09010KT 6SM -RA BR BKN012 BKN020 OVC040 04/03 A3003 RMK AO2 RAB1854 SLP175 P0001 T00440028=
201703131852 METAR KATL 131852Z 08013KT 7SM OVC013 04/03 A3007 RMK AO2 RAB1757E52 SLP188 P0001 T00440028=
201703131825 SPECI KATL 131825Z 09007KT 5SM -RA OVC015 05/02 A3010 RMK AO2 RAB1757 P0001 T00500022=
201703131818 SPECI KATL 131818Z 09008KT 4SM -RA OVC014 04/02 A3010 RMK AO2 RAB1757 P0000 T00440017=
201703131809 SPECI KATL 131809Z 09010KT 10SM -RA OVC014 05/02 A3010 RMK AO2 RAB1757 P0000 T00500017=
201703131752 METAR KATL 131752Z 08012KT 10SM OVC015 05/01 A3012 RMK AO2 SLP205 T00500011 10056 20022 56024=
201703131652 METAR KATL 131652Z 08012KT 10SM BKN017 OVC020 06/01 A3014 RMK AO2 SLP212 T00560011=
201703131552 METAR KATL 131552Z 07014KT 10SM OVC019 04/01 A3017 RMK AO2 SLP223 T00440006=
201703131452 METAR KATL 131452Z 09011KT 10SM OVC022 04/M01 A3019 RMK AO2 SLP231 T00391006 50001=
201703131352 METAR KATL 131352Z 09013KT 10SM FEW010 OVC020 03/00 A3020 RMK AO2 SLP232 T00280000=
201703131252 METAR KATL 131252Z 09011KT 10SM FEW011 OVC021 03/01 A3019 RMK AO2 SLP231 T00280006=
201703131241 SPECI KATL 131241Z 08013KT 10SM FEW011 OVC023 02/01 A3019 RMK AO2 T00220006=
201703131152 METAR KATL 131152Z 09012KT 10SM BKN010 OVC024 02/01 A3019 RMK AO2 SLP229 CIG 009V013 70002 T00220006 10033 20022 58003=
201703131105 SPECI KATL 131105Z 09013KT 10SM BKN011 OVC025 02/01 A3020 RMK AO2 CIG 009V013 T00220006=
201703131052 METAR KATL 131052Z 09013KT 10SM BKN009 OVC025 02/01 A3020 RMK AO2 SLP232 CIG 008V012 T00220006=
201703130952 METAR KATL 130952Z 08011KT 10SM OVC008 02/01 A3021 RMK AO2 SLP235 T00220011=
201703130852 METAR KATL 130852Z 08010KT 10SM OVC008 03/01 A3020 RMK AO2 SLP232 T00280011 56012=
201703130752 METAR KATL 130752Z 09009KT 10SM OVC009 03/02 A3020 RMK AO2 SLP233 T00280017=
201703130652 METAR KATL 130652Z 09007KT 10SM OVC009 03/02 A3022 RMK AO2 SLP241 BINOVC T00330017=
201703130648 SPECI KATL 130648Z 09007KT 10SM BKN009 03/02 A3023 RMK AO2=
201703130609 SPECI KATL 130609Z 13006KT 10SM BKN010 03/02 A3024 RMK AO2 BKN010 V SCT T00330017=
201703130552 METAR KATL 130552Z 12008KT 10SM BKN009 03/02 A3023 RMK AO2 SLP244 T00330017 10061 20028 58007=
201703130534 SPECI KATL 130534Z 12009KT 10SM OVC009 03/02 A3023 RMK AO2 T00330017=
201703130452 METAR KATL 130452Z 11009KT 10SM FEW009 OVC013 04/02 A3024 RMK AO2 SLP247 T00390022 400720028=
201703130352 METAR KATL 130352Z 10007KT 10SM BKN012 BKN250 03/02 A3025 RMK AO2 SLP250 T00330017=
201703130345 SPECI KATL 130345Z 09009KT 10SM BKN013 BKN250 03/02 A3026 RMK AO2 T00280017=
201703130252 METAR KATL 130252Z 11007KT 10SM FEW250 04/02 A3026 RMK AO2 SLP252 T00390017 51006=
201703130152 METAR KATL 130152Z 12005KT 10SM FEW250 04/02 A3025 RMK AO2 SLP251 T00440017=
201703130052 METAR KATL 130052Z 11005KT 10SM FEW022 FEW200 SCT250 05/02 A3025 RMK AO2 SLP249 T00500022=
201703122352 METAR KATL 122352Z 12007KT 10SM SCT022 SCT200 BKN250 06/02 A3024 RMK AO2 SLP245 T00610022 10072 20056 58005=
201703122343 SPECI KATL 122343Z 11007KT 10SM SCT021 SCT200 BKN250 07/03 A3024 RMK AO2 T00670028=
201703122252 METAR KATL 122252Z 06011KT 10SM BKN020 BKN250 07/02 A3026 RMK AO2 SLP253 T00670022=
201703122152 METAR KATL 122152Z 01010KT 10SM BKN020 07/03 A3026 RMK AO2 SLP252 T00720028=
201703122052 METAR KATL 122052Z 07006KT 10SM BKN018 OVC025 07/03 A3025 RMK AO2 SLP250 T00670028 55010=
201703121952 METAR KATL 121952Z 09009KT 10SM BKN016 OVC025 07/03 A3024 RMK AO2 SLP245 T00670028=
201703121852 METAR KATL 121852Z 05010KT 10SM BKN015 OVC025 06/02 A3026 RMK AO2 SLP253 T00610022=
201703121818 SPECI KATL 121818Z 07009KT 10SM BKN015 BKN025 OVC035 06/03 A3027 RMK AO2 T00610028=
201703121752 METAR KATL 121752Z 08012KT 10SM BKN012 BKN017 OVC035 06/03 A3028 RMK AO2 SLP260 60002 T00560033 10056 20028 56003=
201703121736 SPECI KATL 121736Z 07010KT 10SM SCT007 BKN010 OVC035 06/03 A3029 RMK AO2 T00560033=
201703121652 METAR KATL 121652Z 07013KT 10SM BKN006 OVC015 05/03 A3028 RMK AO2 SLP261 T00500033=
201703121559 SPECI KATL 121559Z 06014KT 8SM BKN005 OVC010 06/04 A3028 RMK AO2 T00560044=
201703121552 METAR KATL 121552Z 05008KT 6SM BR BKN004 OVC010 05/04 A3029 RMK AO2 SLP262 T00500044=
201703121550 SPECI KATL 121550Z 06009KT 6SM BR BKN004 OVC010 05/04 A3028 RMK AO2=
201703121546 SPECI KATL 121546Z 04008KT 2SM BR BKN004 OVC010 05/04 A3028 RMK AO2 SFC VIS 4=
201703121532 SPECI KATL 121532Z 04007KT 3/4SM R09R/P6000FT BR OVC004 05/04 A3028 RMK AO2 SFC VIS 4 T00500044=
201703121529 SPECI KATL 121529Z 06007KT 1 1/2SM BR OVC004 05/04 A3028 RMK AO2 SFC VIS 4 T00500044=
201703121510 SPECI KATL 121510Z 05008KT 2 1/2SM BR BKN005 OVC015 05/04 A3029 RMK AO2 SFC VIS 6 CIG 004V006 T00500039=
201703121452 METAR KATL 121452Z 03007KT 6SM BR BKN005 OVC015 04/04 A3029 RMK AO2 SLP263 CIG 004V006 60002 T00440039 51013=
201703121352 METAR KATL 121352Z 34008KT 6SM BR BKN005 OVC008 03/03 A3028 RMK AO2 DZB06E23 SLP260 CIG 003V007 P0000 T00330028=
201703121252 METAR KATL 121252Z 01004KT 6SM BR BKN006 BKN013 OVC045 03/02 A3026 RMK AO2 RAE51 SLP253 CIG 004V007 P0002 T00280022=
201703121231 SPECI KATL 121231Z 33008KT 4SM RA BR BKN005 OVC012 03/02 A3026 RMK AO2 CIG 004V007 P0001 T00280022=
201703121152 METAR KATL 121152Z 34009KT 4SM -RA BR BKN004 OVC012 03/03 A3025 RMK AO2 SLP249 CIG 003V006 P0004 60014 70036 T00280028 10039 20028 53017=
201703121133 SPECI KATL 121133Z 33009KT 3SM -RA BR BKN004 OVC012 03/03 A3025 RMK AO2 CIG 003V006 P0003 T00280028=
201703121052 METAR KATL 121052Z 33006KT 4SM -RA BR BKN005 OVC028 03/03 A3023 RMK AO2 SLP240 CIG 004V007 P0001 T00280028=
201703120952 METAR KATL 120952Z 34011KT 6SM -RA BR BKN005 OVC016 03/03 A3021 RMK AO2 SLP235 CIG 004V007 P0008 T00330028=
201703120927 SPECI KATL 120927Z 32008KT 5SM -RA BR BKN005 OVC016 03/03 A3021 RMK AO2 CIG 004V007 P0007 T00330033=
201703120911 SPECI KATL 120911Z 33010KT 2 1/2SM RA BR BKN004 BKN020 OVC040 03/03 A3020 RMK AO2 P0002 T00330028=
201703120905 SPECI KATL 120905Z 32009KT 3SM -RA BR BKN004 BKN028 OVC040 03/03 A3020 RMK AO2 P0001 T00330033=
201703120852 METAR KATL 120852Z 33009KT 4SM -RA BR BKN005 OVC026 03/03 A3020 RMK AO2 RAE07B41 SLP229 P0001 60001 T00330028 51001=
201703120752 METAR KATL 120752Z 35008KT 4SM -RA BR BKN005 OVC020 04/03 A3019 RMK AO2 RAB48 SLP227 P0000 T00390033=
201703120652 METAR KATL 120652Z 33010KT 7SM BKN005 OVC017 04/03 A3021 RMK AO2 SLP233 BKN005 V SCT T00390033=
201703120636 SPECI KATL 120636Z 32007KT 7SM BKN005 OVC017 04/03 A3021 RMK AO2 BKN005 V SCT T00390033=
201703120552 METAR KATL 120552Z 33006KT 8SM SCT005 OVC015 04/03 A3020 RMK AO2 RAE36 SLP228 CIG 013V017 P0004 60022 T00390033 10094 20039 55005=
201703120526 SPECI KATL 120526Z 32006KT 6SM -RA BR SCT007 BKN014 OVC055 04/03 A3020 RMK AO2 P0004 T00390033=
201703120507 SPECI KATL 120507Z 33007KT 5SM RA BR BKN007 BKN028 OVC070 04/03 A3020 RMK AO2 CIG 005V009 P0003 T00390028=
201703120452 METAR KATL 120452Z 35004KT 6SM -RA BR SCT006 BKN034 OVC065 04/03 A3019 RMK AO2 PRESFR SLP227 P0009 T00390028 401500039=
201703120449 SPECI KATL 120449Z 35006KT 6SM -RA BR FEW006 BKN032 OVC045 04/03 A3020 RMK AO2 P0008=
201703120352 METAR KATL 120352Z 36008KT 4SM RA BR OVC036 04/03 A3021 RMK AO2 SLP233 P0007 T00440028=
201703120252 METAR KATL 120252Z 32007KT 10SM -RA OVC032 05/03 A3023 RMK AO2 SLP242 P0002 60002 T00500033 53018=
201703120152 METAR KATL 120152Z 33008KT 10SM -RA OVC035 07/01 A3021 RMK AO2 SLP234 P0000 T00670011=
201703120052 METAR KATL 120052Z 31008KT 10SM -RA BKN044 OVC070 08/00 A3019 RMK AO2 RAB30 SLP229 P0000 T00830000=
201703112352 METAR KATL 112352Z 35008KT 10SM BKN048 OVC065 09/M01 A3018 RMK AO2 SLP223 60000 T00941006 10150 20094 56005=
201703112252 METAR KATL 112252Z 33011KT 10SM OVC055 11/M01 A3018 RMK AO2 RAE08 SLP224 P0000 T01111006=
201703112152 METAR KATL 112152Z 34008KT 10SM -RA FEW065 OVC085 12/01 A3018 RMK AO2 RAE2057B30 SLP223 P0000 T01170011=
201703112052 METAR KATL 112052Z 33006KT 10SM -RA FEW060 OVC090 13/M03 A3019 RMK AO2 RAB35 SLP226 P0000 60000 T01331028 56022=
201703111952 METAR KATL 111952Z 28005KT 10SM BKN100 BKN250 14/M04 A3021 RMK AO2 SLP231 T01441039=
201703111852 METAR KATL 111852Z 33007KT 10SM BKN075 13/M05 A3024 RMK AO2 SLP241 T01331050=
201703111752 METAR KATL 111752Z 00000KT 10SM BKN080 BKN120 13/M08 A3026 RMK AO2 SLP248 T01331078 10144 20056 58010=
201703111652 METAR KATL 111652Z 15004KT 10SM BKN070 BKN250 13/M09 A3028 RMK AO2 SLP255 T01281089=
201703111552 METAR KATL 111552Z 04006KT 10SM FEW080 BKN110 12/M09 A3030 RMK AO2 SLP260 T01221089=
201703111452 METAR KATL 111452Z 05005KT 10SM BKN110 BKN250 11/M08 A3029 RMK AO2 SLP258 T01061078 51019=
201703111352 METAR KATL 111352Z 00000KT 10SM FEW100 SCT250 08/M06 A3028 RMK AO2 SLP256 T00831056=
201703111252 METAR KATL 111252Z 34007KT 10SM FEW100 SCT250 06/M04 A3026 RMK AO2 SLP250 T00611044=
201703111152 METAR KATL 111152Z 01007KT 10SM FEW100 SCT250 06/M05 A3023 RMK AO2 SLP238 T00561050 10083 20050 53010=
201703111052 METAR KATL 111052Z 34007KT 10SM BKN250 06/M05 A3022 RMK AO2 SLP234 T00561050=
201703110952 METAR KATL 110952Z 34009KT 10SM SCT250 06/M05 A3021 RMK AO2 SLP228 T00611050=
201703110852 METAR KATL 110852Z 34008KT 10SM FEW250 06/M03 A3020 RMK AO2 SLP226 T00611028 53005=
201703110752 METAR KATL 110752Z 34008KT 10SM SCT250 07/M02 A3018 RMK AO2 SLP219 T00671022=
201703110652 METAR KATL 110652Z 34008KT 10SM FEW250 08/M02 A3018 RMK AO2 SLP219 T00781022=
201703110552 METAR KATL 110552Z 33010KT 10SM SCT250 08/M02 A3018 RMK AO2 SLP219 T00831022 10156 20083 58006=
201703110452 METAR KATL 110452Z 33008KT 10SM FEW250 09/M02 A3019 RMK AO2 SLP223 T00891017 402170089=
201703110352 METAR KATL 110352Z 33009KT 10SM FEW250 10/M02 A3021 RMK AO2 SLP230 T01001017=
201703110252 METAR KATL 110252Z 34011KT 10SM CLR 11/M01 A3020 RMK AO2 SLP226 T01111011 51015=
201703110152 METAR KATL 110152Z 36014KT 10SM CLR 12/00 A3020 RMK AO2 SLP225 T01220000=
201703110052 METAR KATL 110052Z 34011KT 10SM CLR 14/01 A3018 RMK AO2 SLP217 T01390011=
201703102352 METAR KATL 102352Z 34012KT 10SM CLR 16/02 A3016 RMK AO2 SLP211 T01560017 10217 20156 53024=
201703102252 METAR KATL 102252Z 33012KT 10SM FEW250 18/03 A3012 RMK AO2 PK WND 33026/2242 SLP199 T01780028=
201703102152 METAR KATL 102152Z 31016G24KT 10SM FEW070 FEW250 20/03 A3009 RMK AO2 PK WND 33027/2100 SLP187 T02000033=
201703102052 METAR KATL 102052Z 30022G27KT 10SM FEW065 FEW250 21/04 A3009 RMK AO2 PK WND 31029/2033 SLP182 T02110044 55006=
201703101952 METAR KATL 101952Z 31016G26KT 10SM FEW060 FEW250 22/07 A3008 RMK AO2 PK WND 31031/1939 SLP178 T02170067=
201703101852 METAR KATL 101852Z 32015G19KT 10SM FEW045 FEW200 SCT250 21/09 A3007 RMK AO2 SLP179 T02110094=
201703101752 METAR KATL 101752Z 32014G23KT 10SM FEW035 FEW200 SCT250 20/11 A3010 RMK AO2 PK WND 31026/1700 SLP190 T02000106 10200 20117 50000=
201703101652 METAR KATL 101652Z 32014G22KT 280V340 10SM SCT030 BKN200 BKN250 19/11 A3012 RMK AO2 PK WND 33029/1625 SLP197 T01890111=
201703101614 SPECI KATL 101614Z 32010G21KT 10SM FEW025 FEW035 BKN250 18/12 A3012 RMK AO2 T01780122=
201703101552 METAR KATL 101552Z 32019G23KT 10SM BKN025 BKN035 BKN250 17/12 A3012 RMK AO2 SLP197 T01720117=
201703101452 METAR KATL 101452Z 29012KT 10SM SCT013 SCT200 BKN250 16/13 A3010 RMK AO2 SLP190 T01560133 51026=
201703101434 SPECI KATL 101434Z 29010KT 10SM FEW010 SCT020 SCT200 15/13 A3010 RMK AO2 T01500128=
201703101352 METAR KATL 101352Z 29010KT 10SM SCT006 BKN020 OVC200 13/12 A3008 RMK AO2 SLP184 T01330122=
201703101332 SPECI KATL 101332Z 28011KT 10SM SCT006 BKN021 BKN200 BKN250 13/12 A3007 RMK AO2 T01280122=
201703101252 METAR KATL 101252Z 28009KT 10SM FEW006 SCT120 BKN200 BKN250 12/12 A3005 RMK AO2 SLP172 ACC DSNT SE-S T01220117=
201703101152 METAR KATL 101152Z 25005KT 10SM FEW008 SCT100 BKN150 BKN200 12/12 A3002 RMK AO2 RAE09 SLP164 VIRGA OHD-ALQDS P0001 60037 70037 T01220117 10189 20122 50021=
201703101052 METAR KATL 101052Z 26003KT 7SM -RA FEW055 OVC090 12/12 A3003 RMK AO2 TSE49 SLP163 TS DSIPTD P0009 T01220117=
201703100952 METAR KATL 100952Z 32012KT 6SM -TSRA BR FEW008 SCT036CB OVC065 13/12 A3006 RMK AO2 PK WND 33036/0914 WSHFT 0857 RAB10 TSB0858 SLP173 OCNL LTGICCA OHD-ALQDS TS OHD-ALQDS MOV SE P0027 T01280117=
201703100937 SPECI KATL 100937Z 33015KT 4SM +TSRA BR FEW008 BKN034CB OVC055 13/12 A3006 RMK AO2 PK WND 33036/0914 WSHFT 0857 RAB10 TSB0858 FRQ LTGICCACC OHD-ALQDS TS OHD-ALQDS MOV SE P0025 T01280117=
201703100928 SPECI KATL 100928Z 32016G28KT 3SM +TSRA BR FEW018 BKN036CB OVC075 13/11 A3007 RMK AO2 PK WND 33036/0914 WSHFT 0857 RAB10 TSB0858 CONS LTGICCGCA OHD-ALQDS TS OHD-ALQDS MOV SE P0020 T01280111=
201703100919 SPECI KATL 100919Z 33018G36KT 1 1/2SM +TSRA BKN038CB OVC075 14/11 A3004 RMK AO2 PK WND 33036/0914 WSHFT 0857 RAB10 TSB0858 CONS LTGICCGCA NE-OHD-SW TS NE-OHD-SW MOV SE P0003 T01390106=
201703100915 SPECI KATL 100915Z 33026G36KT 2SM +TSRA BKN038CB OVC075 16/10 A3005 RMK AO2 PK WND 33036/0914 WSHFT 0857 RAB10 TSB0858 PRESRR CONS LTGICCGCA NE-OHD-SW TS NE-OHD-SW MOV SE P0000 T01560100=
201703100859 SPECI KATL 100859Z 25014G24KT 10SM TS BKN038CB BKN080 OVC110 19/11 A2996 RMK AO2 TSB58 CONS LTGICCGCACC SW-NW-NE TS VC SW-NW-NE MOV SE T01890111=
201703100852 METAR KATL 100852Z 25016G24KT 10SM SCT038 BKN075 BKN120 OVC200 18/11 A2996 RMK AO2 LTG DSNT W-NE SLP138 CONS LTGICCGCACC DSNT SW-NW-NE CB DSNT SW-NW-NE T01830106 56025=
201703100752 METAR KATL 100752Z 22011KT 10SM FEW150 SCT200 BKN250 17/06 A2998 RMK AO2 SLP146 T01720061=
201703100652 METAR KATL 100652Z 23007KT 10SM SCT200 BKN250 16/06 A3001 RMK AO2 SLP157 T01560061=
201703100552 METAR KATL 100552Z 23007KT 10SM BKN250 16/06 A3004 RMK AO2 SLP166 T01560056 10211 20156 58025=
201703100452 METAR KATL 100452Z 25005KT 10SM BKN250 17/05 A3007 RMK AO2 SLP179 T01670050 402440061=
201703100352 METAR KATL 100352Z 22005KT 10SM SCT250 16/04 A3009 RMK AO2 SLP185 T01610039=
201703100252 METAR KATL 100252Z 25005KT 10SM SCT250 18/03 A3011 RMK AO2 SLP192 T01830033 56004=
201703100152 METAR KATL 100152Z 23005KT 10SM FEW250 18/03 A3012 RMK AO2 SLP195 T01830028=
201703100052 METAR KATL 100052Z 21004KT 10SM FEW250 19/03 A3011 RMK AO2 SLP196 T01940028=
201703092352 METAR KATL 092352Z 26003KT 10SM FEW250 21/02 A3012 RMK AO2 SLP199 T02110022 10244 20206 55004=
201703092252 METAR KATL 092252Z 25006KT 10SM FEW250 23/01 A3011 RMK AO2 SLP195 T02330011=
201703092152 METAR KATL 092152Z 25008KT 10SM FEW250 24/M01 A3012 RMK AO2 SLP198 T02391011=
201703092052 METAR KATL 092052Z 15004KT 10SM FEW250 24/M03 A3014 RMK AO2 SLP202 T02391028 56034=
201703091952 METAR KATL 091952Z 24005KT 10SM FEW250 23/M03 A3017 RMK AO2 SLP213 T02331028=
201703091852 METAR KATL 091852Z 25007KT 10SM FEW250 23/M03 A3020 RMK AO2 SLP223 T02281033=
201703091752 METAR KATL 091752Z 29009KT 260V330 10SM CLR 22/M01 A3024 RMK AO2 SLP236 T02221011 10222 20061 58018=
201703091652 METAR KATL 091652Z 31006G15KT 10SM CLR 21/M02 A3027 RMK AO2 SLP247 T02111022=
201703091552 METAR KATL 091552Z 18005KT 10SM CLR 19/M04 A3028 RMK AO2 SLP251 T01941039=
201703091452 METAR KATL 091452Z 30004KT 10SM FEW250 17/M02 A3029 RMK AO2 SLP257 T01721022 51006=
201703091352 METAR KATL 091352Z 30003KT 10SM FEW250 14/00 A3029 RMK AO2 SLP258 T01390000=
201703091252 METAR KATL 091252Z 30003KT 10SM FEW250 10/M01 A3029 RMK AO2 SLP257 T01001006=
201703091152 METAR KATL 091152Z 31006KT 10SM FEW200 07/01 A3028 RMK AO2 SLP254 T00670006 10117 20061 53002=
201703091052 METAR KATL 091052Z 29004KT 10SM FEW200 06/00 A3027 RMK AO2 SLP252 T00610000=
201703090952 METAR KATL 090952Z 28003KT 10SM FEW200 07/00 A3027 RMK AO2 SLP248 T00670000=
201703090852 METAR KATL 090852Z 30006KT 10SM CLR 08/00 A3027 RMK AO2 SLP248 T00780000 55005=
201703090752 METAR KATL 090752Z 24003KT 10SM CLR 08/00 A3026 RMK AO2 SLP245 T00830000=
201703090652 METAR KATL 090652Z 02005KT 10SM CLR 11/M01 A3028 RMK AO2 SLP252 T01061006=
201703090552 METAR KATL 090552Z 34004KT 10SM FEW250 12/M02 A3028 RMK AO2 SLP253 T01171022 10167 20117 58007=
201703090452 METAR KATL 090452Z 33006KT 10SM FEW250 12/M02 A3030 RMK AO2 SLP257 T01221022 402060094=
201703090352 METAR KATL 090352Z 31005KT 10SM CLR 13/M02 A3031 RMK AO2 SLP262 T01281017=
201703090252 METAR KATL 090252Z 31004KT 10SM CLR 13/M02 A3031 RMK AO2 SLP262 T01331022 53011=
201703090152 METAR KATL 090152Z 32006KT 10SM CLR 14/M03 A3029 RMK AO2 SLP259 T01391028=
201703090052 METAR KATL 090052Z 32005KT 10SM CLR 16/M04 A3028 RMK AO2 SLP254 T01561039=
201703082352 METAR KATL 082352Z 32007KT 10SM FEW250 17/M03 A3027 RMK AO2 SLP250 T01671033 10206 20167 55002=
201703082252 METAR KATL 082252Z 34011KT 10SM FEW250 19/M06 A3027 RMK AO2 SLP247 T01891056=
201703082152 METAR KATL 082152Z 35011KT 10SM FEW250 20/M07 A3027 RMK AO2 SLP246 T02001067=
201703082052 METAR KATL 082052Z 01012G18KT 10SM FEW250 21/M07 A3028 RMK AO2 SLP250 T02061067 56019=
201703081952 METAR KATL 081952Z 36013G21KT 10SM FEW250 20/M06 A3029 RMK AO2 PK WND 33026/1916 SLP252 T02001061=
201703081852 METAR KATL 081852Z 35012KT 10SM FEW250 19/M04 A3031 RMK AO2 SLP259 T01941039=
201703081752 METAR KATL 081752Z 36013G22KT 10SM FEW250 19/M06 A3033 RMK AO2 PK WND 36026/1724 SLP268 T01891061 10194 20094 58004=
201703081652 METAR KATL 081652Z 36014G22KT 10SM FEW250 18/M08 A3035 RMK AO2 SLP276 T01831083=
201703081552 METAR KATL 081552Z 01007KT 330V040 10SM FEW250 17/M02 A3035 RMK AO2 SLP275 T01671022=
201703081452 METAR KATL 081452Z 01009KT 10SM FEW250 14/01 A3035 RMK AO2 SLP274 T01390011 51018=
201703081352 METAR KATL 081352Z 34008KT 10SM FEW055 FEW250 12/05 A3034 RMK AO2 SLP272 T01170050=
201703081252 METAR KATL 081252Z 32009KT 10SM FEW055 SCT250 10/06 A3031 RMK AO2 SLP266 T01000056=
201703081152 METAR KATL 081152Z 33012KT 10SM BKN050 BKN250 11/06 A3029 RMK AO2 SLP257 60002 70054 T01060061 10150 20106 53019=
201703081052 METAR KATL 081052Z 33017G21KT 10SM FEW034 OVC050 11/07 A3027 RMK AO2 SLP251 BINOVC T01110072=
201703080952 METAR KATL 080952Z 33014KT 10SM FEW014 BKN034 BKN055 OVC200 12/10 A3025 RMK AO2 DZE10 SLP241 P0000 T01220100=
201703080916 SPECI KATL 080916Z 32013KT 10SM SCT014 BKN032 OVC055 13/11 A3024 RMK AO2 DZE10 P0000 T01280111=
201703080852 METAR KATL 080852Z 31013KT 9SM -DZ SCT008 BKN022 OVC032 13/12 A3024 RMK AO2 WSHFT 0805 RAE24DZB46 SLP237 FROPA P0002 60002 T01280117 53003=
201703080826 SPECI KATL 080826Z 32014KT 10SM SCT006 OVC024 13/12 A3022 RMK AO2 WSHFT 0805 RAE24 FROPA P0002 T01330117=
201703080822 SPECI KATL 080822Z 31015KT 8SM -RA BKN005 OVC018 13/12 A3022 RMK AO2 WSHFT 0805 FROPA CIG 004V008 P0002 T01330122=
201703080817 SPECI KATL 080817Z 32015KT 6SM -RA BR BKN005 OVC018 13/13 A3022 RMK AO2 WSHFT 01 FROPA CIG 004V008 P0002 T01330128=
201703080805 SPECI KATL 080805Z 28010KT 2SM RA BR OVC006 15/14 A3021 RMK AO2 CIG 005V009 P0000 T01500144=
201703080752 METAR KATL 080752Z 25009KT 8SM -RA OVC007 15/14 A3021 RMK AO2 DZB27E47RAB47 SLP226 CIG 005V009 P0000 T01500144=
201703080728 SPECI KATL 080728Z 25006KT 8SM -DZ BKN008 OVC028 15/14 A3022 RMK AO2 DZB27 P0000 T01500144=
201703080707 SPECI KATL 080707Z 25007KT 10SM FEW008 OVC028 15/14 A3022 RMK AO2 T01500144=
201703080652 METAR KATL 080652Z 25006KT 10SM BKN028 BKN050 OVC150 15/14 A3023 RMK AO2 SLP231 T01500144=
201703080552 METAR KATL 080552Z 22005KT 10SM FEW005 BKN035 OVC150 15/14 A3022 RMK AO2 SLP230 60047 T01500144 10161 20150 53001=
201703080452 METAR KATL 080452Z 21009KT 10SM SCT005 BKN040 BKN080 OVC150 15/14 A3022 RMK AO2 RAE15 SLP228 P0000 T01500144 402110128=
201703080435 SPECI KATL 080435Z 22009KT 10SM BKN005 BKN080 OVC120 15/14 A3023 RMK AO2 RAE15 P0000 T01500144=
201703080352 METAR KATL 080352Z 22007KT 8SM -RA SCT005 BKN030 OVC090 15/15 A3022 RMK AO2 SLP229 SCT005 V BKN P0001 T01500150=
201703080252 METAR KATL 080252Z 17010KT 9SM -RA SCT005 BKN080 OVC110 15/15 A3022 RMK AO2 SLP231 P0003 60046 T01500150 58004=
201703080152 METAR KATL 080152Z 21007KT 8SM -RA FEW005 BKN090 OVC120 15/14 A3025 RMK AO2 SLP241 P0010 T01500144=
201703080052 METAR KATL 080052Z 00000KT 6SM -RA BR FEW015 SCT050 BKN080 OVC130 15/14 A3024 RMK AO2 TSB07E27 SLP238 P0033 T01500144=
201703080027 SPECI KATL 080027Z 32006KT 3SM +RA BR FEW015CB SCT030 BKN045 OVC130 15/14 A3025 RMK AO2 TSB07E27 TS DSIPTD P0025 T01500144=
201703080007 SPECI KATL 080007Z 32011KT 3SM TSRA BR FEW015CB SCT030 BKN050 OVC130 15/14 A3025 RMK AO2 TSB07 OCNL LTGIC NE-SE TS VC NE-SE MOV SE P0008 T01500144=
201703072352 METAR KATL 072352Z 32025G30KT 2SM +RA BR SCT015CB BKN025 OVC040 16/14 A3023 RMK AO2 PK WND 32030/2351 SLP236 CB OHD-ALQDS MOV SE P0002 60005 T01610139 10211 20161 53013=
201703072349 SPECI KATL 072349Z 32019G27KT 2SM +RA BR SCT015CB BKN025 OVC040 16/14 A3022 RMK AO2 PK WND 31027/2349 CB NE-OHD-SW MOV SE P0000=
201703072252 METAR KATL 072252Z 20007KT 5SM RA BR BKN045 BKN070 OVC120 17/14 A3019 RMK AO2 SLP220 CB DSNT SW-NW P0003 T01670144=
201703072152 METAR KATL 072152Z 20008KT 9SM -RA BKN050 BKN080 OVC120 17/13 A3018 RMK AO2 SLP219 P0000 T01720133=
201703072052 METAR KATL 072052Z 23006KT 6SM -RA BKN050 BKN070 OVC100 18/13 A3019 RMK AO2 SLP222 P0000 60000 T01830128 55018=
201703071952 METAR KATL 071952Z 19012G21KT 10SM -RA FEW040 BKN070 OVC100 21/10 A3018 RMK AO2 RAE00B37 SLP217 P0000 T02060100=
201703071852 METAR KATL 071852Z 21009KT 9SM -RA FEW025 BKN060 OVC100 20/12 A3021 RMK AO2 RAB19 SLP225 P0000 T02000117=
201703071752 METAR KATL 071752Z 21017G21KT 10SM FEW045 SCT075 OVC100 20/10 A3025 RMK AO2 SLP239 SHRA DSNT NW T02000100 10206 20133 58023=
201703071652 METAR KATL 071652Z 19014G25KT 10SM FEW040 BKN080 BKN100 20/11 A3028 RMK AO2 SLP250 T02000106=
201703071552 METAR KATL 071552Z 18016KT 10SM FEW030 FEW070 SCT100 SCT250 19/11 A3030 RMK AO2 SLP255 T01940111=
201703071452 METAR KATL 071452Z 19009G20KT 10SM FEW020 FEW060 SCT120 BKN250 17/11 A3032 RMK AO2 SLP263 ACC DSNT E T01720111 51012=
201703071352 METAR KATL 071352Z 17011KT 10SM FEW060 BKN110 BKN250 16/11 A3032 RMK AO2 SLP264 ACC ALQDS T01560106=
201703071252 METAR KATL 071252Z 16009KT 10SM FEW060 SCT110 BKN250 14/11 A3031 RMK AO2 SLP260 ACC S-W-N T01390106=
201703071152 METAR KATL 071152Z 17009KT 10SM FEW060 SCT100 BKN250 13/11 A3028 RMK AO2 SLP252 ACC DSNT SW T01330106 10150 20128 55001=
201703071052 METAR KATL 071052Z 17008KT 10SM FEW060 FEW250 13/11 A3027 RMK AO2 SLP249 T01330106=
201703070952 METAR KATL 070952Z 18008KT 10SM FEW055 SCT250 13/10 A3026 RMK AO2 SLP244 T01330100=
201703070852 METAR KATL 070852Z 16007KT 10SM BKN055 13/10 A3028 RMK AO2 SLP251 T01330100 58007=
201703070752 METAR KATL 070752Z 16006KT 10SM FEW250 14/09 A3030 RMK AO2 SLP256 T01390094=
201703070652 METAR KATL 070652Z 15010G16KT 10SM FEW065 FEW250 14/09 A3030 RMK AO2 SLP256 T01440089=
201703070552 METAR KATL 070552Z 16011KT 10SM FEW065 SCT250 15/08 A3031 RMK AO2 SLP258 T01500083 10189 20150 58006=
201703070452 METAR KATL 070452Z 15013G20KT 10SM BKN065 BKN120 16/08 A3032 RMK AO2 SLP265 T01610078 402170128=
201703070352 METAR KATL 070352Z 16006KT 10SM SCT120 16/07 A3033 RMK AO2 SLP267 T01560072=
201703070252 METAR KATL 070252Z 15007KT 10SM FEW110 17/07 A3032 RMK AO2 SLP266 T01670072 53005=
201703070152 METAR KATL 070152Z 15008KT 10SM FEW110 17/07 A3031 RMK AO2 SLP262 T01720072=
201703070052 METAR KATL 070052Z 15007KT 10SM FEW070 FEW110 18/07 A3031 RMK AO2 SLP262 T01830072=
201703062352 METAR KATL 062352Z 15009KT 10SM SCT065 BKN110 19/07 A3031 RMK AO2 SLP260 T01890067 10217 20189 53001=
201703062252 METAR KATL 062252Z 16010KT 10SM FEW050 SCT070 BKN100 20/07 A3030 RMK AO2 SLP258 T02000067=
201703062152 METAR KATL 062152Z 15011G18KT 10SM FEW050 BKN070 BKN100 21/07 A3030 RMK AO2 SLP257 T02060072=
201703062052 METAR KATL 062052Z 16011G18KT 10SM FEW060 BKN070 BKN130 21/07 A3031 RMK AO2 SLP259 T02060067 56025=
201703061952 METAR KATL 061952Z 15011G15KT 10SM BKN065 BKN150 BKN250 21/06 A3032 RMK AO2 SLP263 T02060061=
201703061852 METAR KATL 061852Z 17013G22KT 10SM BKN055 BKN150 BKN250 21/07 A3034 RMK AO2 SLP271 T02060067=
201703061752 METAR KATL 061752Z 18014G21KT 10SM FEW050 BKN150 BKN250 20/07 A3038 RMK AO2 SLP285 T02000067 10200 20128 58013=
201703061652 METAR KATL 061652Z 18014G22KT 10SM FEW050 FEW100 SCT150 BKN180 19/07 A3041 RMK AO2 SLP295 T01890067=
201703061552 METAR KATL 061552Z 18013G18KT 10SM BKN100 17/08 A3043 RMK AO2 SLP301 T01720078=
201703061452 METAR KATL 061452Z 17012KT 10SM BKN100 16/08 A3042 RMK AO2 SLP299 T01560083 50007=
201703061352 METAR KATL 061352Z 16011G16KT 10SM BKN095 14/09 A3043 RMK AO2 SLP302 T01440089=
201703061252 METAR KATL 061252Z 15006KT 10SM BKN095 13/09 A3041 RMK AO2 SLP297 T01280089=
201703061152 METAR KATL 061152Z 16005KT 10SM FEW080 BKN100 13/09 A3040 RMK AO2 SLP293 60000 T01330089 10156 20133 53010=
201703061052 METAR KATL 061052Z 15004KT 10SM SCT080 BKN095 BKN110 BKN200 13/09 A3039 RMK AO2 RAE18 SLP288 VIRGA N-E-S P0000 T01330089=
201703060952 METAR KATL 060952Z 17006KT 10SM -RA BKN075 OVC095 14/09 A3038 RMK AO2 RAB43 SLP284 P0000 T01390089=
201703060852 METAR KATL 060852Z 16011KT 10SM BKN085 OVC100 14/08 A3037 RMK AO2 RAE12 SLP281 VIRGA S-W-NW P0000 60000 T01440078 58004=
201703060752 METAR KATL 060752Z 17009KT 10SM -RA SCT070 OVC100 14/07 A3039 RMK AO2 RAB51 SLP287 PCPN VRY LGT P0000 T01440072=
201703060652 METAR KATL 060652Z 17010KT 10SM FEW080 OVC110 15/07 A3039 RMK AO2 RAE19 SLP289 VIRGA OHD-NW-N P0000 T01500067=
201703060552 METAR KATL 060552Z 17010KT 10SM -RA SCT080 OVC100 16/06 A3038 RMK AO2 RAB48 SLP284 PCPN VRY LGT P0000 60000 T01560056 10178 20156 58005=
201703060452 METAR KATL 060452Z 16009KT 10SM SCT080 OVC100 16/04 A3039 RMK AO2 SLP287 VIRGA OHD-ALQDS T01560044 402000061=
201703060352 METAR KATL 060352Z 16008KT 10SM FEW085 OVC110 16/03 A3040 RMK AO2 SLP291 VIRGA OHD-ALQDS T01560028=
201703060252 METAR KATL 060252Z 15007KT 10SM BKN100 OVC150 16/M01 A3040 RMK AO2 SLP291 VIRGA OHD-ALQDS T01611006 56004=
201703060152 METAR KATL 060152Z 13004KT 10SM SCT110 BKN150 OVC200 16/M01 A3040 RMK AO2 SLP294 VIRGA NE-SE-SW T01611006=
201703060052 METAR KATL 060052Z 12006KT 10SM FEW080 BKN110 OVC200 17/01 A3040 RMK AO2 SLP294 VIRGA OHD-ALQDS T01720006=
201703052352 METAR KATL 052352Z 14005KT 10SM BKN110 OVC200 18/M01 A3041 RMK AO2 SLP297 VIRGA OHD-ALQDS T01781006 10200 20178 57002=
201703052252 METAR KATL 052252Z 14005KT 10SM BKN110 OVC200 18/M01 A3041 RMK AO2 SLP298 VIRGA W-N-NE T01831006=
201703052152 METAR KATL 052152Z 16010KT 10SM SCT120 OVC240 18/00 A3041 RMK AO2 SLP297 T01830000=
201703052052 METAR KATL 052052Z 18007KT 150V210 10SM FEW060 BKN120 OVC250 19/01 A3041 RMK AO2 SLP298 T01890006 56020=
201703051952 METAR KATL 051952Z 19006KT 10SM BKN170 OVC250 19/M01 A3042 RMK AO2 SLP299 BINOVC T01891011=
201703051852 METAR KATL 051852Z 15004KT 10SM FEW150 BKN250 19/M01 A3044 RMK AO2 SLP309 T01891011=
201703051752 METAR KATL 051752Z VRB05KT 10SM FEW150 BKN250 18/M01 A3047 RMK AO2 SLP318 T01831011 10189 20061 58012=
201703051652 METAR KATL 051652Z 15008KT 10SM FEW150 SCT250 17/M02 A3049 RMK AO2 SLP325 T01721022=
201703051552 METAR KATL 051552Z 15007KT 10SM FEW150 SCT250 15/M01 A3050 RMK AO2 SLP329 T01501006=
201703051452 METAR KATL 051452Z 12004KT 10SM FEW150 FEW250 12/01 A3051 RMK AO2 SLP331 T01220011 51008=
201703051352 METAR KATL 051352Z 18006KT 10SM FEW250 10/01 A3050 RMK AO2 SLP331 T01000011=
201703051252 METAR KATL 051252Z 15003KT 10SM FEW200 FEW250 07/M02 A3049 RMK AO2 SLP328 T00721017=
201703051152 METAR KATL 051152Z 16004KT 10SM FEW200 FEW250 06/M01 A3048 RMK AO2 SLP324 T00611011 10100 20061 53007=
201703051052 METAR KATL 051052Z 12003KT 10SM FEW200 SCT250 07/M01 A3047 RMK AO2 SLP319 T00671011=
201703050952 METAR KATL 050952Z 00000KT 10SM FEW200 BKN250 08/M02 A3045 RMK AO2 SLP313 T00781022=
201703050852 METAR KATL 050852Z 00000KT 10SM FEW200 BKN250 08/M02 A3046 RMK AO2 SLP315 T00831022 58005=
201703050752 METAR KATL 050752Z 00000KT 10SM SCT200 BKN250 08/M03 A3047 RMK AO2 SLP320 T00831028=
201703050652 METAR KATL 050652Z 17003KT 10SM SCT200 BKN250 09/M02 A3048 RMK AO2 SLP321 T00891022=
201703050552 METAR KATL 050552Z 16003KT 10SM BKN200 BKN250 09/M03 A3048 RMK AO2 SLP322 T00941033 10144 20094 56010=
201703050452 METAR KATL 050452Z 00000KT 10SM SCT200 BKN250 10/M03 A3048 RMK AO2 SLP324 T01001028 401780022=
201703050352 METAR KATL 050352Z 00000KT 10SM SCT200 BKN250 10/M03 A3049 RMK AO2 SLP329 T01001028=
201703050252 METAR KATL 050252Z 00000KT 10SM SCT200 BKN250 12/M04 A3051 RMK AO2 SLP332 T01171044 51013=
201703050152 METAR KATL 050152Z 00000KT 10SM SCT200 BKN250 12/M05 A3050 RMK AO2 SLP331 T01171050=
201703050052 METAR KATL 050052Z 18004KT 10SM SCT200 BKN250 13/M05 A3048 RMK AO2 SLP325 T01281050=
201703042352 METAR KATL 042352Z 18004KT 10SM SCT200 SCT250 14/M05 A3047 RMK AO2 SLP321 T01441050 10178 20128 56001=
201703042252 METAR KATL 042252Z 16003KT 10SM FEW200 SCT250 16/M08 A3047 RMK AO2 SLP320 T01611078=
201703042152 METAR KATL 042152Z 00000KT 10SM SCT250 17/M08 A3046 RMK AO2 SLP319 T01671078=
201703042052 METAR KATL 042052Z 06003KT 10SM SCT250 17/M08 A3047 RMK AO2 SLP320 T01721078 56033=
201703041952 METAR KATL 041952Z 15003KT 10SM SCT250 16/M08 A3050 RMK AO2 SLP330 T01561078=
201703041852 METAR KATL 041852Z 00000KT 10SM FEW250 15/M08 A3053 RMK AO2 SLP340 T01501078=
201703041752 METAR KATL 041752Z 00000KT 10SM FEW250 13/M09 A3057 RMK AO2 SLP355 T01281089 10139 20028 58017=
201703041652 METAR KATL 041652Z 15003KT 10SM FEW250 11/M09 A3060 RMK AO2 SLP367 T01111089=
201703041552 METAR KATL 041552Z 09006KT 10SM FEW250 10/M08 A3062 RMK AO2 SLP374 T01001083=
201703041452 METAR KATL 041452Z 13008KT 10SM FEW250 09/M09 A3062 RMK AO2 SLP374 T00891089 51012=
201703041352 METAR KATL 041352Z 09006KT 10SM FEW250 06/M08 A3061 RMK AO2 SLP370 T00611083=
201703041252 METAR KATL 041252Z 01003KT 10SM CLR 04/M07 A3061 RMK AO2 SLP371 T00441072=
201703041152 METAR KATL 041152Z 00000KT 10SM CLR 03/M07 A3059 RMK AO2 SLP362 T00281067 10056 20022 51022=
201703041052 METAR KATL 041052Z 08003KT 10SM CLR 03/M08 A3057 RMK AO2 SLP355 T00331083=
201703040952 METAR KATL 040952Z 03004KT 10SM CLR 03/M07 A3054 RMK AO2 SLP346 T00331072=
201703040852 METAR KATL 040852Z 03005KT 10SM CLR 04/M08 A3052 RMK AO2 SLP337 T00441083 58003=
201703040752 METAR KATL 040752Z 01005KT 10SM CLR 04/M08 A3052 RMK AO2 SLP337 T00441083=
201703040652 METAR KATL 040652Z 33006KT 10SM CLR 04/M08 A3053 RMK AO2 SLP343 T00391078=
201703040552 METAR KATL 040552Z 35009KT 10SM FEW250 06/M08 A3053 RMK AO2 SLP340 T00561083 10111 20050 50002=
201703040452 METAR KATL 040452Z 33006KT 10SM SCT250 05/M07 A3053 RMK AO2 SLP342 T00501072 401440028=
201703040352 METAR KATL 040352Z 34006KT 10SM FEW250 07/M08 A3053 RMK AO2 SLP341 T00671083=
201703040252 METAR KATL 040252Z 34006KT 10SM CLR 08/M09 A3052 RMK AO2 SLP338 T00781094 50009=
201703040152 METAR KATL 040152Z 34007KT 10SM CLR 09/M08 A3052 RMK AO2 SLP340 T00891083=
201703040052 METAR KATL 040052Z 34007KT 10SM CLR 11/M09 A3051 RMK AO2 SLP335 T01061089=
201703032352 METAR KATL 032352Z 35010KT 10SM CLR 12/M08 A3049 RMK AO2 SLP331 T01171083 10144 20117 53010=
201703032252 METAR KATL 032252Z 33013G19KT 10SM CLR 13/M09 A3048 RMK AO2 SLP326 T01281089=
201703032152 METAR KATL 032152Z 31014KT 10SM CLR 14/M07 A3047 RMK AO2 SLP321 T01391072=
201703032052 METAR KATL 032052Z 33011KT 10SM CLR 14/M07 A3046 RMK AO2 PK WND 34026/2019 SLP318 T01391072 55010=
201703031952 METAR KATL 031952Z 30015G25KT 10SM CLR 14/M07 A3046 RMK AO2 PK WND 33026/1939 SLP317 T01391072=
201703031852 METAR KATL 031852Z 30019G29KT 10SM CLR 14/M09 A3047 RMK AO2 PK WND 31029/1848 SLP319 T01391089=
201703031752 METAR KATL 031752Z 31020G23KT 10SM CLR 13/M08 A3049 RMK AO2 PK WND 32027/1715 SLP328 T01331078 10139 20028 50001=
201703031652 METAR KATL 031652Z 35020G24KT 10SM CLR 13/M07 A3051 RMK AO2 PK WND 34028/1625 SLP335 T01281072=
201703031552 METAR KATL 031552Z 32018G22KT 10SM CLR 12/M07 A3050 RMK AO2 SLP333 T01221067=
201703031452 METAR KATL 031452Z 33010G25KT 10SM CLR 11/M04 A3049 RMK AO2 SLP328 T01061044 51019=
201703031352 METAR KATL 031352Z 30011KT 10SM FEW250 08/M04 A3048 RMK AO2 SLP325 T00781039=
201703031252 METAR KATL 031252Z 27004KT 10SM FEW250 04/M03 A3045 RMK AO2 SLP316 T00441033=
201703031152 METAR KATL 031152Z 24003KT 10SM FEW250 03/M03 A3043 RMK AO2 SLP310 T00281033 10061 20028 51017=
201703031052 METAR KATL 031052Z 00000KT 10SM FEW250 03/M04 A3042 RMK AO2 SLP305 T00331044=
201703030952 METAR KATL 030952Z 29005KT 10SM FEW250 04/M04 A3040 RMK AO2 SLP299 T00391039=
201703030852 METAR KATL 030852Z 29005KT 10SM FEW250 04/M04 A3038 RMK AO2 SLP290 T00441044 53000=
201703030752 METAR KATL 030752Z 30006KT 10SM FEW250 04/M04 A3038 RMK AO2 SLP289 T00441039=
201703030652 METAR KATL 030652Z 30003KT 10SM FEW250 05/M04 A3038 RMK AO2 SLP290 T00501039=
201703030552 METAR KATL 030552Z 32005KT 10SM FEW250 06/M04 A3038 RMK AO2 SLP291 T00561039 10117 20056 51010=
201703030452 METAR KATL 030452Z 32006KT 10SM FEW250 06/M04 A3037 RMK AO2 SLP289 T00611039 401560056=
201703030352 METAR KATL 030352Z 31006KT 10SM FEW250 07/M04 A3036 RMK AO2 SLP286 T00721044=
201703030252 METAR KATL 030252Z 32005KT 10SM FEW250 08/M06 A3035 RMK AO2 SLP280 T00831056 51020=
201703030152 METAR KATL 030152Z VRB06KT 10SM FEW250 09/M06 A3033 RMK AO2 SLP275 T00891056=
201703030052 METAR KATL 030052Z 34006KT 10SM FEW250 10/M06 A3031 RMK AO2 SLP267 T01001061=
201703022352 METAR KATL 022352Z 32009KT 10SM BKN250 12/M07 A3029 RMK AO2 SLP260 T01171072 10139 20117 53013=
201703022252 METAR KATL 022252Z 33012KT 10SM BKN250 13/M07 A3027 RMK AO2 SLP251 T01281072=
201703022152 METAR KATL 022152Z 32016KT 10SM BKN250 14/M07 A3025 RMK AO2 SLP244 T01391072=
201703022052 METAR KATL 022052Z 34017G23KT 10SM BKN250 14/M07 A3025 RMK AO2 PK WND 36026/1954 SLP244 T01391067 55002=
201703021952 METAR KATL 021952Z 34014G24KT 10SM BKN250 14/M06 A3024 RMK AO2 PK WND 32026/1907 SLP242 T01391056=
201703021852 METAR KATL 021852Z 32013G21KT 10SM SCT250 13/M04 A3025 RMK AO2 PK WND 35027/1757 SLP242 T01331039=
201703021752 METAR KATL 021752Z 33018G22KT 10SM SCT250 12/M05 A3026 RMK AO2 SLP245 T01221050 10128 20056 50010=
201703021652 METAR KATL 021652Z 32014G24KT 10SM FEW250 12/M04 A3026 RMK AO2 SLP246 T01171039=
201703021552 METAR KATL 021552Z 34012G22KT 10SM FEW250 10/M04 A3025 RMK AO2 SLP241 T01001039=
201703021452 METAR KATL 021452Z 34015G20KT 10SM SCT250 09/M03 A3023 RMK AO2 SLP235 T00891033 53026=
201703021352 METAR KATL 021352Z 34013G21KT 10SM SCT200 SCT250 07/M03 A3019 RMK AO2 SLP225 T00721033=
201703021252 METAR KATL 021252Z 33015G22KT 10SM FEW200 SCT250 06/M03 A3017 RMK AO2 SLP217 T00611033=
201703021152 METAR KATL 021152Z 34013KT 10SM FEW200 SCT250 06/M03 A3015 RMK AO2 PK WND 35026/1116 SLP207 70016 T00611028 10139 20061 53026=
201703021052 METAR KATL 021052Z 34017G22KT 10SM FEW250 07/M03 A3011 RMK AO2 SLP194 T00721028=
201703020952 METAR KATL 020952Z 33012G24KT 10SM FEW200 SCT250 08/M03 A3010 RMK AO2 PK WND 33026/0902 SLP188 T00831028 $=
201703020852 METAR KATL 020852Z 34011G23KT 10SM FEW200 SCT250 09/M03 A3007 RMK AO2 PK WND 34028/0829 SLP178 T00941028 51022 $=
201703020752 METAR KATL 020752Z 34019G26KT 10SM FEW080 SCT200 BKN250 11/M01 A3005 RMK AO2 PK WND 35031/0721 SLP171 T01061006 $=
201703020652 METAR KATL 020652Z 35021G29KT 10SM SCT035 SCT080 BKN250 12/05 A3003 RMK AO2 PK WND 33030/0555 SLP164 T01220050 $=
201703020552 METAR KATL 020552Z 33025G32KT 10SM FEW032 BKN075 OVC200 14/06 A3000 RMK AO2 PK WND 34032/0552 SLP153 60016 T01390061 10244 20139 53015 $=
201703020452 METAR KATL 020452Z 31014KT 10SM FEW050 BKN065 OVC200 16/11 A2998 RMK AO2 SLP145 T01560111 402670156 $=
201703020352 METAR KATL 020352Z 29013KT 10SM BKN050 BKN150 OVC200 16/13 A2996 RMK AO2 SLP140 VIRGA SW-NW-N T01610133 $=
201703020252 METAR KATL 020252Z 27007KT 10SM FEW030 SCT050 BKN150 OVC200 16/14 A2996 RMK AO2 RAB04E13 SLP139 VIRGA OHD-ALQDS P0000 60016 T01610139 51023 $=
201703020152 METAR KATL 020152Z 27009KT 10SM FEW030 SCT050 BKN100 OVC150 17/15 A2994 RMK AO2 LTG DSNT E AND SE RAE43 TSE20 SLP135 P0007 T01670150 $=
201703020120 SPECI KATL 020120Z 29011KT 9SM -RA FEW025 BKN040 OVC150 17/16 A2994 RMK AO2 TSE20 OCNL LTG DSNT NE-SE TS MOVD SE P0006 T01720161 $=
201703020056 SPECI KATL 020056Z 28016G28KT 7SM -TSRA SCT030CB BKN050 OVC150 17/16 A2993 RMK AO2 LTG DSNT ALQDS VIS LWR NE-SE-S FRQ LTGIC NE-SE-S TS NE-SE-S MOV SE P0005 T01720161 $=
201703020052 METAR KATL 020052Z 27014G28KT 2 1/2SM +TSRA BR BKN030CB BKN050 OVC100 17/16 A2993 RMK AO2 PK WND 29030/0031 RAB39 TSB17 SLP132 FRQ LTGICCG OHD-ALQDS TS OHD-ALQDS MOV SE P0009 T01720161 $=
201703020047 SPECI KATL 020047Z 29019G30KT 1 1/2SM +TSRA BKN030CB BKN050 OVC100 19/16 A2993 RMK AO2 PK WND 29030/0031 RAB39 TSB17 PRESRR FRQ LTGICCG OHD-ALQDS TS OHD-ALQDS MOV SE PNO=
201703020017 SPECI KATL 020017Z 24008KT 10SM TS FEW040CB SCT100 BKN150 OVC200 24/16 A2989 RMK AO2 TSB17 FRQ LTGIC SW-NW-NE TS VC SW-NW-NE MOV SE T02390156=
201703012352 METAR KATL 012352Z 24010KT 10SM FEW040 SCT150 OVC200 24/16 A2989 RMK AO2 LTG DSNT W-N SLP113 T02390156 10267 20239 55002=
201703012252 METAR KATL 012252Z 24012G21KT 10SM SCT045TCU BKN070 OVC150 25/16 A2988 RMK AO2 LTG DSNT N SLP112 TCU OHD-NE SHRA NW-NE T02500156=
201703012152 METAR KATL 012152Z 23016G27KT 10SM BKN050TCU BKN070 OVC120 26/15 A2988 RMK AO2 PK WND 24027/2142 SLP112 CB DSNT N TCU OHD & ALQDS T02560150=
201703012052 METAR KATL 012052Z 22020G28KT 10SM BKN050 BKN070 BKN100 OVC250 26/15 A2989 RMK AO2 PK WND 23028/2030 SLP115 T02560150 58024=
201703011952 METAR KATL 011952Z 23013G26KT 10SM FEW050 SCT080 BKN150 BKN250 26/15 A2991 RMK AO2 PK WND 22027/1855 SLP122 CB DSNT N TCU DSNT NE T02610150=
201703011852 METAR KATL 011852Z 23010G24KT 10SM BKN048 BKN060 OVC070 25/14 A2995 RMK AO2 PK WND 25029/1756 SLP136 T02500144=
201703011752 METAR KATL 011752Z 23014G29KT 10SM FEW040 SCT080 BKN250 26/15 A2996 RMK AO2 PK WND 24029/1743 SLP141 T02560150 10256 20178 58025=
201703011652 METAR KATL 011652Z 22015G22KT 10SM FEW030 SCT070 BKN250 24/16 A3000 RMK AO2 PK WND 20031/1614 SLP151 T02390156=
201703011552 METAR KATL 011552Z 21015G27KT 10SM FEW020 SCT030 BKN250 23/16 A3002 RMK AO2 PK WND 20029/1505 SLP158 T02280161=
201703011512 SPECI KATL 011512Z 21015G29KT 10SM SCT016 BKN250 22/17 A3001 RMK AO2 PK WND 20029/1505 T02170167=
201703011459 SPECI KATL 011459Z 21013G22KT 10SM SCT015 BKN021 BKN250 21/17 A3003 RMK AO2 T02110167=
201703011452 METAR KATL 011452Z 22013G22KT 10SM BKN013 BKN250 21/17 A3004 RMK AO2 SLP167 T02110167 58007=
201703011352 METAR KATL 011352Z 21012KT 10SM BKN013 BKN041 BKN250 19/16 A3005 RMK AO2 SLP172 BKN013 V SCT T01890161=
201703011323 SPECI KATL 011323Z 21010KT 10SM BKN014 OVC029 18/16 A3006 RMK AO2 CIG 012V016 T01830161=
201703011252 METAR KATL 011252Z 22006G16KT 9SM FEW013 OVC028 18/16 A3007 RMK AO2 SLP177 T01780161=
201703011240 SPECI KATL 011240Z 22007KT 9SM SCT013 OVC028 18/16 A3007 RMK AO2 T01780161=
201703011229 SPECI KATL 011229Z 21007KT 10SM BKN013 OVC027 18/16 A3006 RMK AO2 T01780161=
