##########################################################
# Query made at 04/19/2024 23:53:30 UTC
# Time interval: from 04/01/2017 12:00  to 04/30/2017 12:59  UTC
##########################################################

##########################################################
# KATL, Atlanta, Hartsfield - Jackson Atlanta International Airport (United States)
# WMO index: 72219. WIGOS ID: 0-20000-0-72219
# Latitude 33-38-59N. Longitude 084-25-00W. Altitude 312 m.
##########################################################

201704301252 METAR KATL 301252Z 16013G20KT 10SM OVC012 21/19 A3008 RMK AO2 SLP177 CIG 010V015 T02110189=
201704301152 METAR KATL 301152Z 15011G18KT 9SM OVC010 21/19 A3006 RMK AO2 SLP170 CIG 009V013 T02110189 10228 20206 56003=
201704301148 SPECI KATL 301148Z 15013G18KT 9SM OVC010 21/19 A3007 RMK AO2 CIG 009V013=
201704301052 METAR KATL 301052Z 14007KT 9SM OVC009 21/19 A3007 RMK AO2 SLP171 CIG 008V011 T02060189=
201704301006 SPECI KATL 301006Z 15008KT 8SM BKN009 21/19 A3006 RMK AO2 T02110194=
201704300952 METAR KATL 300952Z 14009KT 10SM SCT009 SCT250 21/19 A3006 RMK AO2 SLP168 T02110194=
201704300918 SPECI KATL 300918Z 13005KT 8SM SCT009 SCT250 21/20 A3006 RMK AO2 SCT009 V BKN T02110200=
201704300852 METAR KATL 300852Z 14006KT 8SM BKN009 BKN250 22/20 A3007 RMK AO2 SLP174 T02170200 55005 $=
201704300849 SPECI KATL 300849Z 14006KT 8SM SCT008 BKN250 22/20 A3007 RMK AO2 $=
201704300842 SPECI KATL 300842Z 13006KT 10SM FEW008 22/20 A3007 RMK AO2 T02170200=
201704300752 METAR KATL 300752Z 14007KT 10SM FEW060 SCT250 22/20 A3007 RMK AO2 SLP170 T02220200=
201704300652 METAR KATL 300652Z 15009KT 10SM FEW060 BKN250 23/19 A3008 RMK AO2 SLP176 T02280194=
201704300552 METAR KATL 300552Z 15007KT 10SM FEW100 SCT250 23/18 A3009 RMK AO2 SLP177 T02280183 10283 20228 57006=
201704300452 METAR KATL 300452Z 16007KT 10SM SCT250 23/18 A3009 RMK AO2 SLP179 T02330183 403060206=
201704300352 METAR KATL 300352Z 16006KT 10SM FEW200 SCT250 24/18 A3010 RMK AO2 SLP183 T02440183=
201704300252 METAR KATL 300252Z 15006KT 10SM FEW100 SCT200 BKN250 25/20 A3011 RMK AO2 SLP185 T02500200 51011=
201704300152 METAR KATL 300152Z 14005KT 10SM FEW095 SCT200 BKN250 26/20 A3010 RMK AO2 SLP182 T02610200=
201704300052 METAR KATL 300052Z 14005KT 10SM FEW048 FEW090 SCT200 BKN250 27/19 A3008 RMK AO2 SLP178 ACC W & NW T02670194=
201704292352 METAR KATL 292352Z 16009KT 10SM FEW050 FEW100 SCT200 BKN250 28/18 A3007 RMK AO2 SLP173 T02830183 10306 20283 55003=
201704292252 METAR KATL 292252Z 18013G20KT 10SM FEW050 BKN200 BKN250 29/18 A3007 RMK AO2 SLP171 TCU DSNT NE MDT CU W T02890178=
201704292152 METAR KATL 292152Z 16013G19KT 10SM FEW046 BKN200 BKN250 30/18 A3007 RMK AO2 SLP171 TCU DSNT N & NE & W T03000178=
201704292052 METAR KATL 292052Z 15011G18KT 10SM SCT044 BKN200 BKN250 29/19 A3008 RMK AO2 SLP177 MDT CU OHD AND N-NE TCU DSNT W T02940189 58017=
201704291952 METAR KATL 291952Z 15011KT 10SM SCT042 SCT060 BKN200 BKN250 29/19 A3010 RMK AO2 SLP183 MDT CU NE-E T02940194=
201704291852 METAR KATL 291852Z 16011KT 10SM SCT040TCU SCT055 BKN250 29/20 A3013 RMK AO2 SLP191 TCU OHD AND DSNT S AND SW SHRA DSNT SW T02940200=
201704291752 METAR KATL 291752Z 18011KT 10SM SCT042 BKN050 BKN250 29/20 A3013 RMK AO2 SLP193 MDT CU ALQDS T02940200 10294 20211 58008=
201704291652 METAR KATL 291652Z 18012KT 10SM BKN040 BKN055 BKN250 28/19 A3015 RMK AO2 SLP198 T02830189=
201704291552 METAR KATL 291552Z 19007KT 10SM FEW045 SCT070 SCT250 28/19 A3016 RMK AO2 SLP202 T02780194=
201704291452 METAR KATL 291452Z 17008KT 10SM SCT055 SCT250 26/19 A3016 RMK AO2 SLP203 T02610194 50007=
201704291352 METAR KATL 291352Z 13007KT 10SM BKN055 BKN250 24/19 A3016 RMK AO2 SLP206 T02390189=
201704291252 METAR KATL 291252Z 12004KT 9SM BKN050 23/19 A3017 RMK AO2 SLP206 T02280194=
201704291152 METAR KATL 291152Z 10004KT 8SM SCT047 SCT250 21/19 A3014 RMK AO2 SLP197 T02110194 10233 20206 51028=
201704291052 METAR KATL 291052Z 07007KT 9SM FEW050 SCT250 21/19 A3013 RMK AO2 SLP193 T02060189=
201704290952 METAR KATL 290952Z 16003KT 10SM SCT250 22/19 A3008 RMK AO2 SLP175 T02170189=
201704290852 METAR KATL 290852Z 19006KT 10SM SCT250 22/19 A3005 RMK AO2 SLP167 T02170194 56013=
201704290752 METAR KATL 290752Z 19007KT 10SM BKN250 22/19 A3006 RMK AO2 SLP168 T02220189=
201704290652 METAR KATL 290652Z 20006KT 10SM BKN250 23/19 A3008 RMK AO2 SLP176 T02280189=
201704290552 METAR KATL 290552Z 20007KT 10SM FEW042 BKN250 23/19 A3009 RMK AO2 SLP180 T02330189 10272 20233 50001=
201704290452 METAR KATL 290452Z 18007KT 10SM BKN250 24/19 A3010 RMK AO2 SLP181 T02390194 402890194=
201704290352 METAR KATL 290352Z 16005KT 10SM BKN250 24/19 A3010 RMK AO2 SLP181 T02440194=
201704290252 METAR KATL 290252Z 15004KT 10SM BKN250 24/19 A3009 RMK AO2 SLP181 T02440194 53014=
201704290152 METAR KATL 290152Z 15005KT 10SM BKN250 25/19 A3008 RMK AO2 SLP176 T02500194=
201704290052 METAR KATL 290052Z 16004KT 10SM BKN250 26/19 A3006 RMK AO2 SLP171 T02610189=
201704282352 METAR KATL 282352Z 18009KT 10SM BKN250 27/19 A3005 RMK AO2 SLP166 T02720189 10289 20272 53006=
201704282252 METAR KATL 282252Z 18010KT 10SM FEW040 SCT250 28/19 A3004 RMK AO2 SLP162 T02830189=
201704282152 METAR KATL 282152Z 20010KT 10SM SCT040 SCT250 29/18 A3003 RMK AO2 SLP160 T02890183=
201704282052 METAR KATL 282052Z 20008G19KT 10SM SCT044 SCT250 28/18 A3003 RMK AO2 SLP160 T02830183 58005=
201704281952 METAR KATL 281952Z 17010KT 10SM SCT044 SCT250 28/18 A3004 RMK AO2 SLP163 T02780183=
201704281852 METAR KATL 281852Z 19009G17KT 10SM SCT042 BKN250 28/18 A3004 RMK AO2 SLP163 T02830183=
201704281752 METAR KATL 281752Z 19008KT 10SM SCT035 BKN250 27/18 A3005 RMK AO2 SLP165 T02670183 10278 20211 58000=
201704281652 METAR KATL 281652Z 19010G18KT 10SM SCT032 27/18 A3005 RMK AO2 SLP166 T02670183=
201704281552 METAR KATL 281552Z 18011KT 10SM SCT027 26/19 A3005 RMK AO2 SLP167 T02560189=
201704281452 METAR KATL 281452Z 18012KT 10SM SCT017 BKN032 BKN250 24/20 A3005 RMK AO2 SLP166 T02440200 51016=
201704281408 SPECI KATL 281408Z 19008KT 9SM SCT014 BKN022 OVC032 23/20 A3004 RMK AO2 BINOVC T02280200=
201704281352 METAR KATL 281352Z 19007KT 8SM BKN012 BKN018 OVC030 23/21 A3004 RMK AO2 SLP163 CIG 010V014 BINOVC T02280206=
201704281324 SPECI KATL 281324Z 20008KT 6SM BR BKN010 BKN016 OVC030 22/21 A3003 RMK AO2 CIG 008V012 BINOVC T02220206=
201704281252 METAR KATL 281252Z 20006KT 5SM BR OVC008 22/21 A3002 RMK AO2 SLP158 CIG 006V010 T02170206=
201704281152 METAR KATL 281152Z 19003KT 3SM BR BKN006 BKN012 BKN140 BKN250 21/20 A3000 RMK AO2 SFC VIS 4 DZE27 SLP150 CIG 005V008 P0000 60000 70001 T02110200 10211 20194 53019=
201704281128 SPECI KATL 281128Z 20006KT 2 1/2SM BR BKN005 OVC012 21/21 A2998 RMK AO2 SFC VIS 3 DZE27 CIG 004V007 P0000 T02060206=
201704281052 METAR KATL 281052Z 21008KT 1SM R09R/P6000FT -DZ BR OVC004 21/20 A2997 RMK AO2 SFC VIS 3 SLP140 CIG 003V006 TWRINC P0000 T02060200=
201704280952 METAR KATL 280952Z 21006KT 1SM R09R/P6000FT -DZ BR OVC003 21/20 A2996 RMK AO2 SFC VIS 2 1/2 DZB50 SLP135 CIG 002V004 TWRINC P0000 T02060200=
201704280852 METAR KATL 280852Z 22005KT 1 1/2SM BR OVC003 20/20 A2994 RMK AO2 SFC VIS 3 SLP129 CIG 002V004 TWRINC T02000200 53004=
201704280752 METAR KATL 280752Z 21005KT 1 1/2SM BR OVC003 20/19 A2994 RMK AO2 SFC VIS 4 SLP129 CIG 002V004 TWRINC T02000194=
201704280652 METAR KATL 280652Z 21004KT 1 1/2SM BR BKN003 BKN250 19/19 A2993 RMK AO2 SFC VIS 4 SLP127 CIG 002V004 TWRINC T01940189=
201704280552 METAR KATL 280552Z 22006KT 1 1/2SM BR OVC004 20/19 A2993 RMK AO2 SFC VIS 6 SLP126 CIG 003V005 TWRINC BINOVC T02000194 10244 20200 53007=
201704280500 SPECI KATL 280500Z 19007KT 1 1/2SM BKN004 BKN250 20/20 A2991 RMK AO2 SFC VIS 7 T02000200=
201704280452 METAR KATL 280452Z 19006KT 8SM BKN005 BKN250 20/19 A2991 RMK AO2 SLP122 T02000194 402670178=
201704280448 SPECI KATL 280448Z 19005KT 8SM BKN005 BKN250 20/19 A2991 RMK AO2=
201704280352 METAR KATL 280352Z 21006KT 9SM FEW006 SCT250 21/20 A2990 RMK AO2 SLP119 T02060200=
201704280252 METAR KATL 280252Z 19007KT 9SM FEW008 SCT250 22/21 A2990 RMK AO2 SLP119 T02170211 53025=
201704280152 METAR KATL 280152Z 20004KT 10SM FEW010 SCT250 22/21 A2987 RMK AO2 SLP106 T02220211=
201704280052 METAR KATL 280052Z 20006KT 10SM FEW015 SCT250 23/21 A2985 RMK AO2 SLP101 T02330211=
201704272352 METAR KATL 272352Z 19005KT 10SM FEW035 FEW200 24/21 A2983 RMK AO2 SLP092 CB DSNT NE-E & SE TCU DSNT N-NE T02440206 10267 20228 53006=
201704272252 METAR KATL 272252Z 19007KT 10SM SCT035TCU SCT050 BKN200 26/21 A2982 RMK AO2 SLP088 TCU VC E CB DSNT SE T02560206=
201704272152 METAR KATL 272152Z 21009KT 10SM SCT035 SCT050 BKN250 26/20 A2981 RMK AO2 SLP087 CB DSNT N-NE & SE-S T02560200=
201704272052 METAR KATL 272052Z 22011KT 10SM FEW030 FEW050 SCT250 26/19 A2981 RMK AO2 SLP085 CB DSNT N & SE & S T02610194 58002=
201704271952 METAR KATL 271952Z 18013G17KT 10SM SCT020 SCT050 BKN250 26/21 A2981 RMK AO2 SLP087 CB DSNT N & SE T02560206=
201704271949 SPECI KATL 271949Z 18013G17KT 10SM SCT020 SCT050 BKN250 26/21 A2981 RMK AO2 CB DSNT N & SE=
201704271908 SPECI KATL 271908Z 18010KT 10SM BKN014 BKN050 BKN250 24/21 A2981 RMK AO2 CB DSNT SE-S & NW-N T02390206=
201704271852 METAR KATL 271852Z 20013G19KT 10SM BKN015 BKN050 BKN250 23/21 A2981 RMK AO2 SLP088 CB DSNT SE-S & NW-N T02330206=
201704271838 SPECI KATL 271838Z 18013KT 10SM SCT020 SCT090 BKN250 23/21 A2982 RMK AO2 CB DSNT SE-S & NW-N T02330206=
201704271752 METAR KATL 271752Z 18011G17KT 10SM BKN015 BKN020 OVC030 23/21 A2982 RMK AO2 RAE12 TSE1654 SLP092 TS DSIPT P0000 60001 T02280206 10228 20189 51006=
201704271654 SPECI KATL 271654Z 19008KT 7SM -RA BKN016 BKN024 OVC030 22/20 A2982 RMK AO2 TSE54 TS DSIPT P0000 T02170200=
201704271652 METAR KATL 271652Z 19008KT 7SM -TSRA BKN014CB BKN020 OVC040 22/20 A2982 RMK AO2 RAB28 TSB36 SLP090 OCNL LTGIC NW TS NW MOV NE P0000 T02170200=
201704271638 SPECI KATL 271638Z 21007KT 7SM -TSRA BKN014CB BKN020 OVC030 22/19 A2983 RMK AO2 RAB28 TSB36 VIS LWR SW-W SHRA OCNL LTGIC SW-W TS SW-W MOV NE P0000 T02170194=
201704271621 SPECI KATL 271621Z 21010KT 10SM OVC014 22/19 A2983 RMK AO2 LTG DSNT SW AND W T02170194=
201704271552 METAR KATL 271552Z 18006KT 10SM FEW012 BKN017 OVC025 22/19 A2982 RMK AO2 LTG DSNT SW SLP090 CB DSNT SW-NW SHRA DSNT SW-NW T02170194=
201704271514 SPECI KATL 271514Z 19008KT 10SM FEW012 BKN015 OVC020 21/19 A2981 RMK AO2 LTG DSNT SE-W CB DSNT S-SW-W-NW T02110189=
201704271459 SPECI KATL 271459Z 18010KT 10SM BKN012 BKN015 OVC020 21/19 A2981 RMK AO2 T02110189=
201704271452 METAR KATL 271452Z 19011KT 10SM FEW012 BKN015 OVC020 21/19 A2981 RMK AO2 SLP085 60001 T02110189 53003=
201704271436 SPECI KATL 271436Z 18009KT 10SM BKN015 BKN020 OVC030 21/19 A2980 RMK AO2 T02110189=
201704271412 SPECI KATL 271412Z 18009G17KT 10SM SCT012 BKN024 OVC030 21/19 A2980 RMK AO2 T02110189=
201704271352 METAR KATL 271352Z 18011G19KT 10SM BKN010 BKN015 OVC040 21/19 A2980 RMK AO2 SLP082 CIG 007V010 T02060189=
201704271336 SPECI KATL 271336Z 19012KT 10SM FEW007 BKN010 OVC030 21/19 A2980 RMK AO2 CIG 007V010 T02060189=
201704271306 SPECI KATL 271306Z 19012G17KT 10SM BKN008 OVC014 20/19 A2980 RMK AO2 CIG 007V010 T02000189=
201704271252 METAR KATL 271252Z 19009KT 10SM BKN010 OVC016 20/18 A2980 RMK AO2 RAB17E42 SLP081 CIG 008V012 P0001 T02000183=
201704271152 METAR KATL 271152Z 17011KT 8SM OVC008 19/18 A2980 RMK AO2 RAE19 SLP081 CIG 006V010 P0000 60000 T01890178 10194 20178 51009=
201704271118 SPECI KATL 271118Z 18009KT 10SM -RA OVC008 18/17 A2981 RMK AO2 PRESRR CIG 007V009 P0000 T01830172=
201704271105 SPECI KATL 271105Z VRB06G24KT 9SM -RA OVC008 18/17 A2979 RMK AO2 CIG 007V009 P0000 T01830172=
201704271058 SPECI KATL 271058Z 14015G24KT 7SM -RA OVC008 18/17 A2970 RMK AO2 PRESFR CIG 007V009 P0000 T01830167=
201704271052 METAR KATL 271052Z 15011KT 10SM -RA OVC009 18/16 A2978 RMK AO2 RAB52 SLP076 CIG 008V010 P0000 T01830161=
201704271001 SPECI KATL 271001Z 19010KT 10SM BKN012 OVC026 18/15 A2980 RMK AO2 T01830150=
201704270952 METAR KATL 270952Z 19012KT 10SM SCT012 BKN020 OVC040 18/15 A2979 RMK AO2 SLP081 T01830150=
201704270947 SPECI KATL 270947Z 18011KT 10SM SCT016 BKN022 OVC044 18/15 A2979 RMK AO2=
201704270852 METAR KATL 270852Z 16011KT 10SM FEW026 BKN044 BKN150 OVC200 18/14 A2977 RMK AO2 SLP071 T01780139 56019=
201704270752 METAR KATL 270752Z 17008KT 10SM FEW044 BKN200 BKN250 18/13 A2979 RMK AO2 SLP079 T01830133=
201704270652 METAR KATL 270652Z 18008KT 10SM FEW055 SCT200 BKN250 19/13 A2980 RMK AO2 SLP082 T01890133=
201704270552 METAR KATL 270552Z 20008KT 10SM FEW050 SCT250 19/13 A2983 RMK AO2 SLP091 T01940133 10250 20194 53003=
201704270452 METAR KATL 270452Z 17008KT 10SM CLR 20/14 A2981 RMK AO2 SLP087 T02000139 402670150=
201704270352 METAR KATL 270352Z 17009KT 10SM FEW050 SCT250 21/14 A2981 RMK AO2 SLP088 T02060139=
201704270252 METAR KATL 270252Z 18009KT 10SM FEW050 BKN250 22/14 A2982 RMK AO2 SLP089 T02170139 51020=
201704270152 METAR KATL 270152Z 17009KT 10SM FEW050 BKN250 23/14 A2980 RMK AO2 SLP083 T02280144=
201704270052 METAR KATL 270052Z 17008KT 10SM FEW050 BKN250 24/14 A2978 RMK AO2 SLP076 T02390144=
201704262352 METAR KATL 262352Z 16010KT 10SM FEW050 BKN250 25/14 A2976 RMK AO2 SLP069 T02500139 10267 20244 57006=
201704262252 METAR KATL 262252Z 17012KT 10SM SCT250 26/14 A2976 RMK AO2 SLP071 T02610139=
201704262152 METAR KATL 262152Z 18011KT 10SM FEW050 SCT250 27/14 A2977 RMK AO2 SLP073 T02670139=
201704262052 METAR KATL 262052Z 18010KT 10SM FEW050 SCT250 27/14 A2977 RMK AO2 SLP075 T02670139 58015=
201704261952 METAR KATL 261952Z 19014G17KT 10SM FEW050 SCT250 26/14 A2979 RMK AO2 SLP081 T02610139=
201704261852 METAR KATL 261852Z 23006KT 10SM FEW050 FEW250 26/14 A2982 RMK AO2 SLP089 T02560139=
201704261752 METAR KATL 261752Z 16005KT 10SM FEW045 FEW250 24/13 A2982 RMK AO2 SLP091 T02440133 10250 20156 58013=
201704261652 METAR KATL 261652Z 17006KT 10SM FEW040 FEW250 24/13 A2984 RMK AO2 SLP098 T02390133=
201704261552 METAR KATL 261552Z VRB04KT 10SM FEW035 FEW250 23/14 A2985 RMK AO2 SLP101 T02280139=
201704261452 METAR KATL 261452Z 30004KT 10SM CLR 22/14 A2986 RMK AO2 SLP104 T02170144 50013=
201704261352 METAR KATL 261352Z 31009KT 10SM CLR 19/14 A2987 RMK AO2 SLP107 T01940139=
201704261252 METAR KATL 261252Z 28009KT 10SM FEW020 FEW250 18/14 A2985 RMK AO2 SLP102 FU FEW020 T01780139=
201704261152 METAR KATL 261152Z 24004KT 10SM FEW250 16/13 A2982 RMK AO2 SLP091 T01560128 10161 20150 53018=
201704261052 METAR KATL 261052Z 22004KT 10SM FEW200 15/13 A2978 RMK AO2 SLP079 T01500128=
201704260952 METAR KATL 260952Z 21003KT 10SM CLR 16/13 A2977 RMK AO2 SLP075 T01560128=
201704260852 METAR KATL 260852Z 00000KT 10SM CLR 16/13 A2976 RMK AO2 SLP072 T01560128 55006=
201704260752 METAR KATL 260752Z 23003KT 10SM CLR 16/13 A2976 RMK AO2 SLP071 T01610133=
201704260652 METAR KATL 260652Z 22003KT 10SM CLR 16/13 A2978 RMK AO2 SLP076 T01610133=
201704260552 METAR KATL 260552Z 23005KT 10SM CLR 16/14 A2978 RMK AO2 SLP079 T01610139 10228 20161 50002=
201704260452 METAR KATL 260452Z 21003KT 10SM CLR 17/13 A2979 RMK AO2 SLP081 T01720133 402500133=
201704260352 METAR KATL 260352Z 00000KT 10SM CLR 18/14 A2978 RMK AO2 SLP078 T01830139=
201704260252 METAR KATL 260252Z 32003KT 10SM CLR 19/13 A2978 RMK AO2 SLP077 T01940133 53013=
201704260152 METAR KATL 260152Z 32005KT 10SM CLR 21/13 A2976 RMK AO2 SLP072 T02060133=
201704260052 METAR KATL 260052Z 31005KT 10SM CLR 21/13 A2975 RMK AO2 SLP068 T02110133=
201704252352 METAR KATL 252352Z 31007KT 10SM CLR 23/13 A2974 RMK AO2 SLP065 T02280133 10250 20228 53001=
201704252252 METAR KATL 252252Z 29011KT 10SM FEW040 24/13 A2974 RMK AO2 SLP063 T02440128=
201704252152 METAR KATL 252152Z 27010KT 10SM CLR 24/13 A2973 RMK AO2 SLP061 T02440133=
201704252052 METAR KATL 252052Z 30011KT 10SM FEW040 25/14 A2974 RMK AO2 SLP062 T02500139 57013=
201704251952 METAR KATL 251952Z 30009KT 10SM FEW040 24/14 A2975 RMK AO2 SLP066 T02390144=
201704251852 METAR KATL 251852Z 34010G16KT 10SM FEW040 24/14 A2976 RMK AO2 SLP072 T02390139=
201704251752 METAR KATL 251752Z 29009KT 250V310 10SM FEW030 23/14 A2977 RMK AO2 SLP076 T02280144 10228 20144 58006=
201704251652 METAR KATL 251652Z 34013KT 10SM FEW028 22/14 A2979 RMK AO2 SLP082 T02170144=
201704251638 SPECI KATL 251638Z 35011KT 10SM SCT027 21/13 A2979 RMK AO2 T02110133=
201704251552 METAR KATL 251552Z 30014KT 10SM BKN027 20/13 A2980 RMK AO2 SLP086 T02000133=
201704251528 SPECI KATL 251528Z 33008KT 10SM BKN023 20/14 A2980 RMK AO2 T02000139=
201704251452 METAR KATL 251452Z 32011KT 10SM FEW020 19/14 A2979 RMK AO2 SLP084 T01940144 51013=
201704251352 METAR KATL 251352Z 31010KT 10SM FEW015 18/14 A2979 RMK AO2 SLP082 T01780139=
201704251252 METAR KATL 251252Z 30008KT 10SM FEW008 FEW040 16/14 A2977 RMK AO2 SLP076 T01610139=
201704251152 METAR KATL 251152Z 32009KT 10SM FEW005 FEW040 14/13 A2976 RMK AO2 SLP072 60000 70008 T01440133 10156 20133 53007=
201704251150 SPECI KATL 251150Z 31009KT 10SM FEW005 FEW040 14/13 A2976 RMK AO2=
201704251052 METAR KATL 251052Z 29005KT 10SM FEW040 14/13 A2975 RMK AO2 SLP070 T01390128=
201704250952 METAR KATL 250952Z 29007KT 10SM BKN035 BKN040 14/13 A2974 RMK AO2 SLP066 T01440133=
201704250852 METAR KATL 250852Z 31007KT 10SM FEW008 SCT026 BKN033 15/13 A2974 RMK AO2 SLP065 RAE0755DZB0755E42 P0000 60000 T01500133 58003=
201704250817 SPECI KATL 250817Z 30005KT 10SM -DZ SCT006 SCT026 BKN033 15/14 A2974 RMK AO2 RAE0755DZB0755 P0000 T01500139=
201704250752 METAR KATL 250752Z 30004KT 10SM -RA SCT006 SCT010 BKN020 15/14 A2974 RMK AO2 SLP068 DZB04E45RAB45 P0000 T01500139=
201704250735 SPECI KATL 250735Z 31005KT 10SM -DZ SCT006 SCT010 OVC016 15/14 A2974 RMK AO2 DZB04 P0000 T01500139=
201704250652 METAR KATL 250652Z 29006KT 10SM SCT008 OVC013 15/14 A2974 RMK AO2 SLP069 T01500139=
201704250552 METAR KATL 250552Z 19004KT 10SM SCT008 BKN013 OVC020 16/14 A2975 RMK AO2 SLP070 BINOVC OHD T01560139 10172 20150 51003=
201704250541 SPECI KATL 250541Z 18005KT 10SM SCT008 BKN013 OVC020 16/14 A2975 RMK AO2 T01560144=
201704250452 METAR KATL 250452Z 18003KT 10SM FEW008 BKN015 BKN025 16/14 A2974 RMK AO2 SLP068 T01560139 401830111=
201704250422 SPECI KATL 250422Z 08004KT 10SM SCT010 BKN020 BKN080 16/14 A2975 RMK AO2 T01560139=
201704250358 SPECI KATL 250358Z 10006KT 10SM FEW010 SCT022 BKN080 16/14 A2974 RMK AO2 T01560139=
201704250352 METAR KATL 250352Z 10005KT 10SM SCT010 BKN022 BKN080 16/14 A2974 RMK AO2 SLP069 T01610144=
201704250337 SPECI KATL 250337Z 11005KT 10SM BKN010 BKN022 BKN080 17/14 A2974 RMK AO2 T01670144=
201704250252 METAR KATL 250252Z 36005KT 10SM BKN075 BKN090 16/14 A2974 RMK AO2 SLP066 T01610144 53003=
201704250152 METAR KATL 250152Z 31009KT 10SM FEW030 BKN100 16/14 A2973 RMK AO2 SLP064 T01610144=
201704250052 METAR KATL 250052Z 32008KT 10SM FEW020 SCT030 BKN080 17/14 A2973 RMK AO2 SLP066 T01670144=
201704242352 METAR KATL 242352Z 32006KT 10SM SCT028TCU BKN040 BKN070 17/14 A2973 RMK AO2 SLP064 TCU VC SW-NW 60004 T01720144 10183 20139 56004=
201704242252 METAR KATL 242252Z 30007KT 10SM FEW015 FEW070 18/15 A2973 RMK AO2 RAB03E20 SLP065 P0001 T01830150=
201704242152 METAR KATL 242152Z 29011KT 10SM FEW017 SCT035 BKN070 BKN200 18/14 A2973 RMK AO2 SLP065 T01830144=
201704242121 SPECI KATL 242121Z 31007KT 10SM FEW017 SCT025 BKN035 BKN200 17/14 A2973 RMK AO2 T01720139=
201704242052 METAR KATL 242052Z 31008KT 10SM BKN017 BKN020 OVC030 17/13 A2974 RMK AO2 SLP068 BINOVC DSNT NE & S 60003 T01670133 58007=
201704242015 SPECI KATL 242015Z 32009KT 10SM SCT014 BKN020 BKN030 17/14 A2974 RMK AO2 T01720139=
201704241952 METAR KATL 241952Z 34008KT 10SM BKN012 BKN020 BKN030 16/14 A2975 RMK AO2 SLP071 T01610139=
201704241929 SPECI KATL 241929Z 34011KT 10SM BKN012 BKN020 OVC030 17/14 A2975 RMK AO2 T01670139=
201704241906 SPECI KATL 241906Z 34009KT 10SM SCT010 BKN020 OVC030 17/14 A2975 RMK AO2 T01670139=
201704241852 METAR KATL 241852Z 35009KT 10SM FEW009 BKN013 OVC030 16/14 A2975 RMK AO2 RAE28 SLP074 P0003 T01610139=
201704241825 SPECI KATL 241825Z 35006KT 3SM -RA BR SCT009 BKN013 OVC020 14/13 A2976 RMK AO2 SFC VIS 6 P0002 T01390133=
201704241809 SPECI KATL 241809Z 34008KT 3SM -RA BR SCT007 BKN015 OVC020 14/13 A2976 RMK AO2 SFC VIS 5 P0002 T01390128=
201704241759 SPECI KATL 241759Z 34006KT 3SM -RA BR SCT007 BKN015 OVC020 14/13 A2976 RMK AO2 P0001 T01390128=
201704241752 METAR KATL 241752Z 34007KT 3SM -RA BR BKN007 BKN015 OVC020 14/13 A2976 RMK AO2 SFC VIS 4 DZE49RAB49 SLP076 P0001 60004 T01390128 10139 20111 58008=
201704241659 SPECI KATL 241659Z 35007KT 3SM -DZ BR SCT007 BKN015 OVC020 14/12 A2977 RMK AO2 P0000 T01390122=
201704241652 METAR KATL 241652Z 34008KT 3SM -DZ BR BKN009 BKN012 OVC020 14/12 A2977 RMK AO2 DZB22E33B49RAB33E45 SLP080 P0001 T01390122=
201704241635 SPECI KATL 241635Z 36008KT 3SM R09R/6000VP6000FT -RA BR BKN012 BKN015 OVC020 13/12 A2978 RMK AO2 SFC VIS 5 DZB22E33RAB33 P0001 T01330122=
201704241622 SPECI KATL 241622Z 02007KT 1 1/2SM -DZ BR BKN012 BKN015 OVC020 13/12 A2978 RMK AO2 SFC VIS 3 DZB22 P0000 T01330117=
201704241606 SPECI KATL 241606Z 34006KT 8SM BKN010 BKN015 OVC020 13/12 A2978 RMK AO2 T01330117=
201704241552 METAR KATL 241552Z 35005KT 10SM BKN009 BKN020 OVC030 14/12 A2978 RMK AO2 DZE42 SLP083 P0001 T01390117=
201704241542 SPECI KATL 241542Z 35006KT 10SM BKN009 BKN015 OVC020 13/12 A2978 RMK AO2 DZE42 P0001 T01330117=
201704241527 SPECI KATL 241527Z 02007KT 3SM -DZ BR BKN007 BKN013 OVC015 13/12 A2978 RMK AO2 SFC VIS 5 P0001 T01330122=
201704241515 SPECI KATL 241515Z 01006KT 2SM -DZ BR SCT007 BKN013 OVC015 13/12 A2978 RMK AO2 P0001 T01280117=
201704241504 SPECI KATL 241504Z 03008KT 2SM -DZ BR BKN007 BKN013 OVC015 12/11 A2978 RMK AO2 P0001 T01220111=
201704241452 METAR KATL 241452Z 02009KT 2SM -DZ BR SCT007 BKN011 OVC014 12/11 A2978 RMK AO2 SFC VIS 4 SLP085 P0000 60001 T01220111 53010=
201704241422 SPECI KATL 241422Z 02008KT 2SM -DZ BR OVC010 12/11 A2978 RMK AO2 SFC VIS 3 P0000 T01220111=
201704241407 SPECI KATL 241407Z 36007KT 10SM -DZ OVC010 12/11 A2977 RMK AO2 P0000 T01220111=
201704241352 METAR KATL 241352Z 01007KT 6SM -DZ BR BKN009 OVC012 12/11 A2977 RMK AO2 SLP079 P0000 T01220111=
201704241252 METAR KATL 241252Z 04007KT 2 1/2SM -DZ BR OVC007 12/11 A2976 RMK AO2 SLP077 CIG 006V008 P0001 T01170106=
201704241250 SPECI KATL 241250Z 04008KT 2 1/2SM -DZ BR OVC007 12/11 A2976 RMK AO2 CIG 006V008 P0001=
201704241158 SPECI KATL 241158Z 02008KT 3SM -DZ BR OVC007 12/11 A2976 RMK AO2 CIG 006V008 P0001 T01170106=
201704241152 METAR KATL 241152Z 04007KT 2 1/2SM -DZ BR OVC007 12/11 A2975 RMK AO2 SLP073 CIG 006V008 P0000 60000 70083 T01170106 10122 20111 53002=
201704241150 SPECI KATL 241150Z 04008KT 2 1/2SM -DZ BR OVC007 12/11 A2975 RMK AO2 CIG 006V008 P0000=
201704241126 SPECI KATL 241126Z 04009KT 1 3/4SM -DZ BR OVC007 11/11 A2975 RMK AO2 CIG 006V008 P0000 T01110106=
201704241103 SPECI KATL 241103Z 05009KT 2SM -DZ BR OVC008 11/11 A2975 RMK AO2 CIG 007V009 P0000 T01110106=
201704241052 METAR KATL 241052Z 04011KT 3SM -DZ BR OVC008 12/11 A2974 RMK AO2 SLP069 CIG 007V009 P0000 T01170106=
201704240952 METAR KATL 240952Z 05009KT 7SM -DZ OVC008 12/10 A2975 RMK AO2 SLP070 CIG 006V010 P0000 T01170100=
201704240852 METAR KATL 240852Z 05010KT 6SM -DZ BR BKN005 OVC010 12/11 A2975 RMK AO2 SLP071 P0000 60000 T01170106 56010=
201704240752 METAR KATL 240752Z 05010KT 4SM -DZ BR OVC006 12/11 A2975 RMK AO2 SLP071 DZE15B31RAB15E31 CIG 004V008 P0000 T01170111=
201704240652 METAR KATL 240652Z 05009KT 4SM -DZ BR OVC007 12/11 A2976 RMK AO2 SLP076 CIG 005V009 P0000 T01170111=
201704240552 METAR KATL 240552Z 05009KT 3SM -DZ BR OVC006 12/12 A2978 RMK AO2 SLP081 CIG 004V008 P0000 60000 T01220117 10172 20122 58012=
201704240452 METAR KATL 240452Z 08011KT 7SM -DZ OVC007 12/12 A2980 RMK AO2 DZB49 SLP087 CIG 006V008 P0000 T01220117 402000122=
201704240352 METAR KATL 240352Z 08013KT 10SM OVC007 13/12 A2980 RMK AO2 SLP088 CIG 006V009 T01280117=
201704240252 METAR KATL 240252Z 07011KT 10SM OVC007 13/12 A2981 RMK AO2 SLP093 CIG 006V008 T01330117 51014=
201704240152 METAR KATL 240152Z 06013KT 10SM OVC007 13/12 A2981 RMK AO2 SLP090 CIG 006V008 T01330122=
201704240052 METAR KATL 240052Z 07015KT 10SM OVC006 14/13 A2979 RMK AO2 SLP086 CIG 005V007 T01390128=
201704240000 SPECI KATL 240000Z 05016G21KT 10SM BKN006 BKN012 BKN100 BKN250 16/14 A2978 RMK AO2 T01610144=
201704232352 METAR KATL 232352Z 03010G14KT 10SM SCT006 BKN014 BKN100 BKN250 17/14 A2977 RMK AO2 SLP077 60053 T01720144 10194 20161 53002=
201704232252 METAR KATL 232252Z 30006KT 10SM SCT010 BKN032 BKN065 18/15 A2976 RMK AO2 RAE2153 SLP073 P0000 T01780150=
201704232152 METAR KATL 232152Z 32005KT 10SM -RA SCT007 BKN018 OVC046 17/15 A2976 RMK AO2 SLP072 BINOVC P0005 T01670150=
201704232106 SPECI KATL 232106Z 32005KT 4SM -RA BR SCT006 BKN012 OVC055 16/16 A2976 RMK AO2 CB DSNT E P0003 T01610156=
201704232100 SPECI KATL 232100Z 30006KT 2SM -RA BR SCT008 BKN014 OVC055 16/16 A2976 RMK AO2 SFC VIS 3 LTG DSNT E CB DSNT E P0003 T01610156=
201704232052 METAR KATL 232052Z 28007KT 1SM R09R/4500VP6000FT +RA BR FEW007 BKN016 OVC030 16/16 A2977 RMK AO2 TWR VIS 2 LTG DSNT E RAE09B26 SLP075 CB DSNT E P0011 60048 T01610156 56005=
201704232040 SPECI KATL 232040Z 28006KT 2SM -RA BR FEW009 BKN016 OVC030 16/15 A2977 RMK AO2 SFC VIS 3 RAE09B26 P0000 T01610150=
201704232032 SPECI KATL 232032Z 28007KT 10SM -RA SCT016 OVC030 17/15 A2976 RMK AO2 RAE09B26 P0000 T01670150=
201704231952 METAR KATL 231952Z 30009KT 10SM -RA FEW009 SCT016 OVC028 17/16 A2977 RMK AO2 PK WND 30029/1857 LTG DSNT E RAE34B45 SLP076 CB DSNT E P0006 T01670156=
201704231937 SPECI KATL 231937Z 30012KT 10SM FEW008 BKN014 OVC028 17/16 A2977 RMK AO2 PK WND 30029/1857 RAE34 P0006 T01670156=
201704231905 SPECI KATL 231905Z 29016G29KT 3SM R09R/5000VP6000FT -RA BR SCT006 BKN028 OVC050 17/16 A2976 RMK AO2 PK WND 30029/1857 SFC VIS 5 P0006 T01720161=
201704231852 METAR KATL 231852Z 26010KT 1 1/2SM R09R/3500VP6000FT RA BR BKN005 OVC016 19/18 A2975 RMK AO2 TWR VIS 3 SLP068 P0031 T01890183=
201704231843 SPECI KATL 231843Z 22011G16KT 1 1/2SM R09R/5500VP6000FT RA BR BKN005 OVC022 19/18 A2974 RMK AO2 TWR VIS 3 P0020 T01890183=
201704231835 SPECI KATL 231835Z 18005KT 2SM R09R/5500VP6000FT +RA BR BKN006 OVC014 19/19 A2974 RMK AO2 TWR VIS 3 P0015 T01940189=
201704231815 SPECI KATL 231815Z 16006KT 3SM -RA BR BKN008 OVC014 19/18 A2976 RMK AO2 P0009 T01890183=
201704231800 SPECI KATL 231800Z 13005KT 2SM RA BR BKN007 OVC012 19/18 A2977 RMK AO2 TWR VIS 3 P0005 T01890183=
201704231752 METAR KATL 231752Z 15007KT 1SM R09R/4500VP6000FT +RA BR BKN007 OVC012 19/18 A2978 RMK AO2 TWR VIS 3 RAE20B42 SLP079 P0012 60030 T01890178 10194 20167 56013=
201704231748 SPECI KATL 231748Z 15007KT 1 1/2SM R09R/4500VP6000FT +RA BR BKN007 19/18 A2978 RMK AO2 TWR VIS 3 RAE20B42 P0004=
201704231652 METAR KATL 231652Z 14009KT 3SM -RA BR BKN006 OVC050 18/18 A2980 RMK AO2 SFC VIS 6 SLP085 P0011 T01830178=
201704231635 SPECI KATL 231635Z 12009KT 3SM -RA BR BKN006 BKN042 OVC060 18/17 A2981 RMK AO2 SFC VIS 5 P0010 T01780172=
201704231614 SPECI KATL 231614Z 14008KT 2 1/2SM R09R/5500VP6000FT RA BR BKN006 OVC046 18/17 A2982 RMK AO2 TWR VIS 3 P0005 T01780172=
201704231552 METAR KATL 231552Z 14005KT 4SM -RA BR BKN006 BKN049 OVC090 18/17 A2982 RMK AO2 SLP091 P0006 T01780167=
201704231527 SPECI KATL 231527Z 12009KT 3SM -RA BR BKN009 OVC046 17/17 A2982 RMK AO2 SFC VIS 4 P0002 T01720167=
201704231452 METAR KATL 231452Z 14009KT 7SM -RA BKN009 OVC027 18/16 A2985 RMK AO2 RAB49 SLP100 P0000 60001 T01780156 53001=
201704231415 SPECI KATL 231415Z 12005KT 10SM BKN009 OVC029 17/16 A2985 RMK AO2 T01720156=
201704231352 METAR KATL 231352Z 10006KT 10SM SCT008 BKN032 OVC042 17/16 A2985 RMK AO2 SLP100 T01720156=
201704231252 METAR KATL 231252Z 09010KT 10SM FEW006 FEW018 BKN045 OVC150 17/16 A2984 RMK AO2 RAB26E52 SLP098 P0001 T01670156=
201704231152 METAR KATL 231152Z 09009KT 10SM FEW006 SCT016 BKN090 BKN150 BKN200 BKN250 17/15 A2984 RMK AO2 SLP099 TCU DSNT SW SHRA DSNT E AND SE 60001 70001 T01670150 10189 20167 53005=
201704231126 SPECI KATL 231126Z 10009KT 10SM FEW006 SCT030 BKN090 BKN150 BKN200 BKN250 17/15 A2984 RMK AO2 T01670150=
201704231106 SPECI KATL 231106Z 10008KT 10SM SCT020 SCT030 BKN095 BKN150 BKN200 17/15 A2984 RMK AO2 TSE05 T01670150=
201704231052 METAR KATL 231052Z 09008KT 10SM SCT006 BKN020 BKN085 OVC200 17/15 A2983 RMK AO2 SLP095 TSE05 T01670150=
201704231039 SPECI KATL 231039Z 11006KT 10SM SCT006 BKN020 BKN028 17/15 A2984 RMK AO2 TSE05 T01670150=
201704231009 SPECI KATL 231009Z 11011KT 10SM FEW007 BKN035 BKN050 OVC170 17/15 A2983 RMK AO2 LTG DSNT E TSE05 TS MOV NE CB DSNT E-SE T01670150=
201704230952 METAR KATL 230952Z 12007KT 10SM VCTS FEW010 SCT023CB BKN035 BKN130 OVC200 17/15 A2983 RMK AO2 SLP093 DZB0855E09 RAB14E30 TSB14 OCNL LTGICCG VC NE-S TS VC E-S P0001 T01720150=
201704230950 SPECI KATL 230950Z 10007KT 10SM VCTS FEW010 SCT023CB BKN035 BKN130 OVC200 17/15 A2983 RMK AO2 DZB0855E09 RAB14E30 TSB14 OCNL LTGICCG VC NE-S TS VC E-S P0001=
201704230941 SPECI KATL 230941Z 11009KT 10SM TS FEW010 SCT023CB BKN035 BKN130 OVC200 17/15 A2983 RMK AO2 DZB0855E09 RAB14E30 TSB14 OCNL LTGICCG VC NE-S TS VC E-S P0001 T01720150 $=
201704230919 SPECI KATL 230919Z 10005KT 7SM -TSRA BKN025CB BKN037 OVC065 17/14 A2983 RMK AO2 DZB0855E09 RAB14 TSB14 OCNL LTGICCG OHD TS OHD MOV NE OCNL LTGIC DSNT E-S TS VC E-S P0001 T01720144 $=
201704230907 SPECI KATL 230907Z 09007KT 10SM -TSDZ SCT025 BKN039CB OVC075 18/14 A2983 RMK AO2 DZB0855 OCNL LTGIC VC E-SE TS VC E-SE P0000 T01780139=
201704230852 METAR KATL 230852Z 10006KT 10SM BKN040 BKN055 BKN080 BKN140 18/14 A2983 RMK AO2 LTG DSNT N AND SE SLP092 CB DSNT SE 60000 T01780144 56013=
201704230752 METAR KATL 230752Z 13005KT 10SM FEW050 BKN065 BKN140 BKN240 18/15 A2983 RMK AO2 SLP092 T01780150=
201704230652 METAR KATL 230652Z 11006KT 10SM SCT055 SCT070 BKN150 BKN180 BKN250 18/14 A2984 RMK AO2 RAE00 TSE16 SLP095 P0000 T01830144=
201704230616 SPECI KATL 230616Z 10009KT 10SM FEW045 SCT055 SCT070 BKN250 19/14 A2985 RMK AO2 RAE00 TSE16 TS DSIPTD MOV NE P0000 T01890144=
201704230552 METAR KATL 230552Z 09008KT 10SM -TSRA SCT045 SCT070 BKN090 BKN250 19/14 A2987 RMK AO2 RAB51 TSB52 SLP105 OCNL LTGIC VC S TS VC MOV NE P0000 60000 T01890144 10250 20189 58001=
201704230452 METAR KATL 230452Z 03013KT 10SM BKN046 BKN075 OVC110 21/14 A2988 RMK AO2 WSHFT 0406 SLP109 T02060139 402780167=
201704230422 SPECI KATL 230422Z 02017KT 10SM BKN046TCU OVC075 22/15 A2987 RMK AO2 WSHFT 0406 TCU E-OHD-W T02170150=
201704230412 SPECI KATL 230412Z 01013G16KT 10SM BKN047TCU BKN080 OVC110 22/15 A2987 RMK AO2 LTG DSNT N CB DSNT N TCU E-OHD-W T02220150=
201704230352 METAR KATL 230352Z 23004KT 10SM FEW055 BKN080 BKN110 OVC200 22/15 A2987 RMK AO2 LTG DSNT N AND NW SLP104 CB DSNT NW ACC W-N T02170150=
201704230252 METAR KATL 230252Z 22004KT 10SM SCT080 BKN110 BKN200 OVC250 22/14 A2987 RMK AO2 SLP106 ACC NW-N T02170144 51013=
201704230152 METAR KATL 230152Z 21004KT 10SM FEW060 SCT110 BKN200 OVC250 22/14 A2987 RMK AO2 SLP106 T02220139=
201704230052 METAR KATL 230052Z 24005KT 10SM FEW055 BKN200 BKN250 23/13 A2986 RMK AO2 SLP103 T02330133=
201704222352 METAR KATL 222352Z 22008KT 10SM FEW055 SCT200 BKN250 24/13 A2983 RMK AO2 SLP094 T02440133 10278 20244 55004=
201704222252 METAR KATL 222252Z 24010G15KT 10SM FEW060 SCT200 SCT250 26/13 A2983 RMK AO2 SLP093 T02610128=
201704222152 METAR KATL 222152Z 24009KT 10SM FEW065 SCT200 SCT250 27/11 A2984 RMK AO2 SLP095 T02670111=
201704222052 METAR KATL 222052Z 20010KT 10SM FEW070 SCT180 BKN250 27/10 A2984 RMK AO2 SLP097 T02720100 56028=
201704221952 METAR KATL 221952Z 22010KT 190V250 10SM FEW065 BKN200 27/09 A2987 RMK AO2 SLP105 T02720094=
201704221852 METAR KATL 221852Z 22011KT 10SM FEW065 BKN200 27/11 A2990 RMK AO2 SLP117 T02670106=
201704221752 METAR KATL 221752Z 28009KT 10SM FEW060 BKN200 27/12 A2993 RMK AO2 SLP125 T02670117 10272 20178 58016=
201704221652 METAR KATL 221652Z 23012G19KT 10SM FEW060 SCT120 BKN250 27/09 A2995 RMK AO2 SLP134 T02670089=
201704221552 METAR KATL 221552Z 27011G18KT 10SM FEW045 FEW200 26/13 A2997 RMK AO2 SLP139 T02560133=
201704221452 METAR KATL 221452Z 27013G20KT 10SM FEW040 FEW200 24/14 A2998 RMK AO2 SLP142 T02440144 53015=
201704221352 METAR KATL 221352Z 24011KT 10SM FEW250 23/13 A2996 RMK AO2 SLP136 T02280133=
201704221252 METAR KATL 221252Z 24009KT 10SM FEW090 SCT250 21/15 A2995 RMK AO2 SLP131 T02060150=
201704221152 METAR KATL 221152Z 22004KT 10SM FEW090 SCT250 18/14 A2993 RMK AO2 SLP128 T01780144 10200 20167 53012=
201704221052 METAR KATL 221052Z 21004KT 10SM FEW075 SCT090 17/14 A2992 RMK AO2 SLP124 T01670139=
201704220952 METAR KATL 220952Z 24004KT 10SM FEW085 17/14 A2990 RMK AO2 SLP117 T01720139=
201704220852 METAR KATL 220852Z 20004KT 10SM CLR 17/14 A2990 RMK AO2 SLP116 T01720139 56012=
201704220752 METAR KATL 220752Z 25005KT 10SM CLR 19/14 A2990 RMK AO2 SLP115 T01890139=
201704220652 METAR KATL 220652Z 22006KT 10SM FEW100 19/14 A2991 RMK AO2 SLP121 T01890139=
201704220552 METAR KATL 220552Z 21004KT 10SM CLR 20/14 A2993 RMK AO2 SLP127 T02000139 10267 20200 58004=
201704220452 METAR KATL 220452Z 22004KT 10SM CLR 21/13 A2994 RMK AO2 SLP128 T02110133 402940178=
201704220352 METAR KATL 220352Z 23005KT 10SM CLR 22/14 A2994 RMK AO2 SLP130 T02170139=
201704220252 METAR KATL 220252Z 22005KT 10SM CLR 23/14 A2994 RMK AO2 SLP130 T02280139 51009=
201704220152 METAR KATL 220152Z 22005KT 10SM FEW100 24/14 A2994 RMK AO2 SLP128 T02390139=
201704220052 METAR KATL 220052Z 24007KT 10SM FEW060 26/14 A2993 RMK AO2 SLP127 T02560139=
201704212352 METAR KATL 212352Z 22007KT 10SM FEW060 27/13 A2992 RMK AO2 SLP122 T02670133 10294 20267 55001=
201704212252 METAR KATL 212252Z 21010KT 10SM FEW060 FEW100 28/14 A2991 RMK AO2 SLP119 T02780139=
201704212152 METAR KATL 212152Z 21011KT 10SM FEW060 FEW110 28/14 A2991 RMK AO2 SLP120 TCU DSNT SE T02780144=
201704212052 METAR KATL 212052Z 18009KT 10SM SCT060 SCT100 28/15 A2992 RMK AO2 SLP122 T02830150 56027=
201704211952 METAR KATL 211952Z 20006KT 10SM SCT065 SCT110 28/14 A2994 RMK AO2 SLP128 TCU DSNT S & W T02830139=
201704211852 METAR KATL 211852Z 21011G16KT 10SM SCT060TCU SCT100 28/14 A2997 RMK AO2 SLP140 TCU E & SE & SW-NW T02830144=
201704211752 METAR KATL 211752Z 26008KT 10SM SCT055TCU 27/14 A3000 RMK AO2 SLP150 TCU NE & SE & NW T02720139 10283 20189 58017=
201704211652 METAR KATL 211652Z 28007KT 10SM BKN045TCU 27/16 A3003 RMK AO2 SLP161 TCU OHD & ALQDS T02720161=
201704211552 METAR KATL 211552Z 27009KT 10SM FEW050 FEW150 27/15 A3005 RMK AO2 SLP166 T02670150=
201704211452 METAR KATL 211452Z 26005KT 10SM FEW150 26/16 A3005 RMK AO2 SLP168 T02610161 55001=
201704211352 METAR KATL 211352Z 30006KT 10SM FEW150 24/16 A3005 RMK AO2 SLP166 T02390161=
201704211252 METAR KATL 211252Z 29007KT 10SM FEW120 22/17 A3005 RMK AO2 SLP167 T02220167=
201704211152 METAR KATL 211152Z 22004KT 10SM R09R/6000VP6000FT FEW110 19/16 A3006 RMK AO2 SLP170 T01890161 10200 20178 53003=
201704211052 METAR KATL 211052Z 00000KT 10SM FEW120 18/16 A3005 RMK AO2 SLP167 T01830156=
201704210952 METAR KATL 210952Z 20003KT 10SM FEW120 18/16 A3005 RMK AO2 SLP167 T01780161=
201704210852 METAR KATL 210852Z 00000KT 10SM FEW120 19/17 A3005 RMK AO2 SLP165 T01890167 56009=
201704210752 METAR KATL 210752Z 27005KT 10SM FEW120 19/16 A3005 RMK AO2 SLP165 T01940161=
201704210652 METAR KATL 210652Z 22005KT 10SM FEW120 19/17 A3005 RMK AO2 SLP167 T01940172=
201704210552 METAR KATL 210552Z 20004KT 10SM SCT120 20/17 A3007 RMK AO2 SLP174 T02000172 10244 20200 58007=
201704210452 METAR KATL 210452Z 16004KT 10SM BKN110 21/17 A3009 RMK AO2 SLP179 T02110167 402890172=
201704210352 METAR KATL 210352Z 23003KT 10SM SCT095 SCT120 22/17 A3009 RMK AO2 SLP180 T02170172=
201704210252 METAR KATL 210252Z 29003KT 10SM FEW080 BKN095 22/18 A3009 RMK AO2 SLP183 T02220178 51008=
201704210152 METAR KATL 210152Z 31003KT 10SM SCT090 23/18 A3009 RMK AO2 SLP183 T02330178=
201704210052 METAR KATL 210052Z 00000KT 10SM SCT080 SCT120 24/17 A3008 RMK AO2 SLP177 T02390172=
201704202352 METAR KATL 202352Z 30003KT 10SM FEW080 SCT120 SCT250 24/17 A3007 RMK AO2 SLP175 60000 T02440167 10289 20228 58003=
201704202252 METAR KATL 202252Z 28003KT 10SM FEW050 SCT120 SCT200 25/17 A3007 RMK AO2 WSHFT 2139 RAE19 SLP176 P0000 T02500172=
201704202156 SPECI KATL 202156Z 31014KT 9SM -RA SCT050TCU BKN080 BKN120 BKN250 23/17 A3009 RMK AO2 WSHFT 2139 TCU OHD-NW & DSNT NE P0000 T02330172=
201704202152 METAR KATL 202152Z 31014KT 10SM -RA SCT050TCU BKN080 BKN120 BKN250 24/17 A3009 RMK AO2 RAB49 SLP182 TCU OHD-NW CB DSNT NE P0000 T02390167=
201704202052 METAR KATL 202052Z 20007KT 10SM FEW055 FEW080 BKN120 27/14 A3008 RMK AO2 SLP177 CB DSNT NW TCU DSNT E & S & SW SHRA DSNT NW T02720144 56026=
201704201952 METAR KATL 201952Z 17011KT 10SM FEW050TCU FEW110 29/15 A3010 RMK AO2 SLP183 TCU DSNT NW-N T02890150=
201704201852 METAR KATL 201852Z 21005KT 10SM FEW050 SCT080 BKN110 27/14 A3013 RMK AO2 SLP195 TCU DSNT NE-E-SE-S & DSNT NW T02720144=
201704201752 METAR KATL 201752Z 22005KT 10SM BKN045TCU BKN070 27/16 A3016 RMK AO2 SLP203 TCU OHD & ALQDS T02720161 10278 20178 58020=
201704201652 METAR KATL 201652Z 24007KT 10SM FEW030 FEW100 26/16 A3019 RMK AO2 SLP214 T02560161=
201704201552 METAR KATL 201552Z 17007KT 10SM FEW100 24/17 A3021 RMK AO2 SLP222 T02390167=
201704201452 METAR KATL 201452Z 17005KT 10SM FEW110 22/17 A3022 RMK AO2 SLP227 T02170167 58003=
201704201352 METAR KATL 201352Z 18004KT 10SM FEW010 FEW110 19/16 A3023 RMK AO2 SLP230 T01940161=
201704201252 METAR KATL 201252Z 12006KT 10SM FEW007 BKN100 BKN250 18/17 A3024 RMK AO2 SLP233 T01830167=
201704201152 METAR KATL 201152Z 10005KT 7SM FEW005 BKN100 BKN250 18/17 A3023 RMK AO2 SLP230 T01780167 10189 20172 53007=
201704201052 METAR KATL 201052Z 09006KT 7SM SCT006 BKN100 BKN250 18/17 A3021 RMK AO2 SLP224 T01780167=
201704200952 METAR KATL 200952Z 09005KT 8SM SCT005 SCT012 BKN095 18/17 A3021 RMK AO2 SLP223 T01780167=
201704200949 SPECI KATL 200949Z 08004KT 8SM SCT005 SCT012 BKN095 18/17 A3021 RMK AO2 CIG 003V005=
201704200924 SPECI KATL 200924Z 10006KT 8SM BKN004 BKN010 BKN100 18/17 A3021 RMK AO2 CIG 003V005 T01780172=
201704200852 METAR KATL 200852Z 12005KT 9SM SCT006 SCT014 BKN110 18/17 A3021 RMK AO2 SLP221 T01830172 56004=
201704200804 SPECI KATL 200804Z 11007KT 10SM FEW007 SCT012 SCT110 18/17 A3021 RMK AO2 T01830172=
201704200752 METAR KATL 200752Z 10005KT 9SM SCT007 BKN012 BKN110 18/17 A3021 RMK AO2 SLP222 CIG 010V014 T01830172=
201704200652 METAR KATL 200652Z 10008KT 8SM BKN006 OVC110 19/18 A3020 RMK AO2 SLP219 CIG 005V008 T01890178=
201704200552 METAR KATL 200552Z 11008KT 8SM BKN006 OVC110 19/18 A3022 RMK AO2 SLP226 CIG 005V008 T01890178 10244 20189 58006=
201704200541 SPECI KATL 200541Z 12007KT 9SM BKN007 BKN110 19/18 A3022 RMK AO2 CIG 005V009 T01940178=
201704200514 SPECI KATL 200514Z 11005KT 10SM FEW007 OVC110 19/18 A3023 RMK AO2 T01940183=
201704200452 METAR KATL 200452Z 10007KT 10SM FEW010 BKN110 19/18 A3023 RMK AO2 SLP231 T01940183 402610172=
201704200352 METAR KATL 200352Z 10008KT 10SM BKN110 BKN200 20/18 A3024 RMK AO2 SLP233 T02000183=
201704200252 METAR KATL 200252Z 10007KT 10SM SCT100 SCT200 21/18 A3024 RMK AO2 SLP233 T02060183 51011=
201704200152 METAR KATL 200152Z 09008KT 10SM SCT100 SCT200 21/18 A3023 RMK AO2 SLP232 T02110183=
201704200052 METAR KATL 200052Z 08009KT 10SM FEW100 SCT200 BKN250 22/17 A3021 RMK AO2 SLP225 T02220167=
201704192352 METAR KATL 192352Z 12007KT 10SM FEW040 FEW100 BKN250 24/16 A3020 RMK AO2 SLP220 T02440156 10261 20239 55001=
201704192252 METAR KATL 192252Z 12009KT 10SM FEW040 BKN250 26/16 A3020 RMK AO2 SLP219 T02560156=
201704192152 METAR KATL 192152Z 12008KT 10SM FEW040 BKN250 26/16 A3020 RMK AO2 SLP221 TCU DSNT NE T02560161=
201704192052 METAR KATL 192052Z 12007KT 10SM SCT041 BKN100 BKN250 26/16 A3021 RMK AO2 SLP222 T02560161 58017=
201704191952 METAR KATL 191952Z 11006KT 10SM SCT040 SCT048 BKN200 26/16 A3022 RMK AO2 SLP227 T02560161=
201704191852 METAR KATL 191852Z VRB04KT 10SM SCT036 BKN250 25/17 A3025 RMK AO2 SLP235 T02500167=
201704191752 METAR KATL 191752Z 10004KT 10SM SCT030 BKN250 24/17 A3026 RMK AO2 SLP240 T02390167 10244 20178 58011=
201704191714 SPECI KATL 191714Z 13007KT 10SM SCT023 BKN130 BKN250 23/17 A3027 RMK AO2 T02330172=
201704191652 METAR KATL 191652Z 15007KT 10SM FEW018 BKN024 BKN130 22/17 A3028 RMK AO2 SLP247 T02220172=
201704191552 METAR KATL 191552Z VRB05KT 10SM BKN015 BKN020 21/17 A3029 RMK AO2 SLP252 T02110172=
201704191459 SPECI KATL 191459Z 12007KT 8SM FEW009 BKN012 OVC015 19/17 A3029 RMK AO2 T01940167=
201704191452 METAR KATL 191452Z 12005KT 8SM BKN009 OVC014 19/17 A3029 RMK AO2 SLP252 T01940167 53008=
201704191352 METAR KATL 191352Z 12006KT 8SM OVC008 18/17 A3028 RMK AO2 SLP248 T01830167=
201704191252 METAR KATL 191252Z 11006KT 9SM BKN008 OVC014 18/17 A3027 RMK AO2 SLP246 CIG 007V010 T01780167=
201704191152 METAR KATL 191152Z 07009KT 8SM BKN008 OVC016 18/16 A3027 RMK AO2 SLP243 CIG 007V010 70002 T01780161 10178 20172 53013=
201704191052 METAR KATL 191052Z 09008KT 7SM BKN006 OVC016 17/16 A3025 RMK AO2 SLP237 CIG 005V008 T01720161=
201704190952 METAR KATL 190952Z 08009KT 8SM OVC006 17/16 A3023 RMK AO2 SLP231 CIG 005V008 T01720161=
201704190852 METAR KATL 190852Z 08009KT 9SM BKN007 OVC016 17/16 A3023 RMK AO2 SLP230 CIG 006V008 T01720161 55006=
201704190752 METAR KATL 190752Z 08012KT 10SM BKN007 OVC015 17/16 A3022 RMK AO2 SLP228 CIG 006V009 T01720161=
201704190652 METAR KATL 190652Z 07014KT 10SM BKN007 OVC012 18/17 A3023 RMK AO2 SLP229 CIG 006V009 T01780167=
201704190552 METAR KATL 190552Z 08010KT 10SM BKN008 BKN014 OVC095 18/17 A3024 RMK AO2 SLP235 CIG 007V009 60002 T01780167 10217 20178 50003=
201704190531 SPECI KATL 190531Z 07011KT 9SM SCT008 OVC085 18/17 A3024 RMK AO2 T01780167=
201704190452 METAR KATL 190452Z 08011KT 10SM SCT008 BKN013 OVC080 18/17 A3026 RMK AO2 RAB09E49 SLP240 P0002 T01780167 402720178=
201704190352 METAR KATL 190352Z 08009KT 10SM BKN012 BKN070 OVC150 18/17 A3026 RMK AO2 SLP239 T01830167=
201704190328 SPECI KATL 190328Z 09014KT 10SM BKN013 BKN070 OVC150 19/17 A3025 RMK AO2 T01890167=
201704190252 METAR KATL 190252Z 08014KT 10SM FEW013 BKN070 BKN150 OVC250 19/17 A3023 RMK AO2 SLP230 VCSH E-SE T01940167 53022=
201704190241 SPECI KATL 190241Z 07014KT 10SM SCT013 BKN070 BKN150 OVC250 19/17 A3023 RMK AO2 T01940167=
201704190227 SPECI KATL 190227Z 07014KT 10SM BKN013 BKN070 BKN150 OVC250 20/17 A3023 RMK AO2 T02000167=
201704190152 METAR KATL 190152Z 08013KT 10SM FEW014 SCT100 BKN140 BKN250 20/17 A3020 RMK AO2 SLP221 CB DSNT E-SE T02000172=
201704190052 METAR KATL 190052Z 09011KT 10SM FEW015 BKN130 BKN250 21/17 A3018 RMK AO2 SLP216 T02060172=
201704182352 METAR KATL 182352Z 09015KT 10SM SCT090 BKN130 BKN250 22/17 A3017 RMK AO2 SLP210 60000 T02170172 10272 20217 53012=
201704182252 METAR KATL 182252Z 10011KT 10SM FEW050 BKN120 BKN250 23/16 A3016 RMK AO2 SLP206 T02280161=
201704182152 METAR KATL 182152Z 09010KT 10SM FEW040 BKN120 BKN250 23/17 A3014 RMK AO2 RAB2055E15 SLP198 P0000 T02330167=
201704182052 METAR KATL 182052Z 06010KT 10SM FEW030CB BKN100 BKN250 23/17 A3013 RMK AO2 LTG DSNT E SLP196 CB DSNT E & VC SE & W MOV NE SHRA DSNT E & VC SE & W T02330167 58006=
201704182013 SPECI KATL 182013Z 03018KT 10SM FEW040CB SCT070 BKN100 BKN250 25/17 A3015 RMK AO2 LTG DSNT NE AND E TS DSIPT CB N & DSNT NE-E MOV NE SHRA VC N & DSNT NE-E T02500172=
201704181952 METAR KATL 181952Z 08014KT 10SM VCTS FEW050CB SCT060TCU BKN100 BKN250 26/16 A3015 RMK AO2 LTG DSNT NE AND E SLP201 OCNL LTGICCG N TS VC N MOV NE SHRA VC N TCU SW-NW CB DSNT NE T02560156=
201704181948 SPECI KATL 181948Z 07015KT 10SM VCTS FEW050CB SCT060TCU BKN100 BKN250 26/16 A3015 RMK AO2 LTG DSNT NE AND E OCNL LTGICCG N TS VC N MOV NE SHRA VC N TCU SW-NW CB DSNT NE=
201704181852 METAR KATL 181852Z 13006KT 10SM SCT050 BKN110 BKN250 26/15 A3015 RMK AO2 LTG DSNT N-SE SLP201 CB DSNT NE-SE SHRA DSNT NE-SE T02610150=
201704181752 METAR KATL 181752Z VRB03KT 10SM SCT055TCU BKN075 BKN250 26/14 A3017 RMK AO2 SLP207 CB DSNT N & E TCU OHD-N-E-S SHRA DSNT N & E T02560144 10272 20183 58006=
201704181652 METAR KATL 181652Z 00000KT 10SM BKN048TCU BKN070 BKN250 26/14 A3018 RMK AO2 SLP211 TCU OHD-E-S-NW T02560144=
201704181552 METAR KATL 181552Z 08005KT 10SM FEW040 FEW100 BKN250 26/16 A3019 RMK AO2 SLP215 T02560161=
201704181452 METAR KATL 181452Z 12004KT 10SM FEW070 FEW100 BKN250 24/16 A3019 RMK AO2 SLP214 T02440161 51008=
201704181352 METAR KATL 181352Z VRB03KT 10SM FEW065 SCT100 BKN250 22/16 A3018 RMK AO2 SLP212 T02220161=
201704181252 METAR KATL 181252Z 10003KT 10SM FEW070 SCT100 BKN250 21/16 A3017 RMK AO2 SLP210 T02060161=
201704181152 METAR KATL 181152Z 12004KT 10SM FEW070 SCT100 BKN250 18/16 A3016 RMK AO2 SLP207 T01830156 10206 20178 53016=
201704181052 METAR KATL 181052Z 14003KT 10SM FEW070 FEW100 SCT200 SCT250 18/16 A3014 RMK AO2 SLP200 ACC DSNT NE T01780156=
201704180952 METAR KATL 180952Z 12003KT 10SM FEW070 BKN100 19/16 A3013 RMK AO2 SLP195 T01890156=
201704180852 METAR KATL 180852Z 10003KT 10SM FEW090 SCT250 18/16 A3011 RMK AO2 SLP190 T01830156 53001=
201704180752 METAR KATL 180752Z 07007KT 10SM FEW085 FEW200 19/16 A3009 RMK AO2 SLP183 T01890156=
201704180652 METAR KATL 180652Z 05009KT 10SM FEW085 FEW100 19/16 A3010 RMK AO2 SLP185 T01940156=
201704180552 METAR KATL 180552Z 05009KT 10SM SCT070 BKN085 21/17 A3011 RMK AO2 SLP190 T02060167 10244 20206 51005=
201704180452 METAR KATL 180452Z 33004KT 10SM BKN060 BKN250 21/16 A3011 RMK AO2 SLP187 T02110161 402670161=
201704180352 METAR KATL 180352Z 00000KT 10SM FEW060 SCT250 21/16 A3010 RMK AO2 SLP186 T02110156=
201704180252 METAR KATL 180252Z 00000KT 10SM FEW120 22/16 A3010 RMK AO2 SLP183 T02170156 53014=
201704180152 METAR KATL 180152Z 00000KT 10SM FEW120 23/15 A3008 RMK AO2 SLP179 T02280150=
201704180052 METAR KATL 180052Z 24004KT 10SM BKN120 BKN250 23/15 A3007 RMK AO2 SLP174 T02330150=
201704172352 METAR KATL 172352Z 24005KT 10SM SCT110 BKN250 24/14 A3005 RMK AO2 SLP170 T02440144 10267 20228 55003=
201704172252 METAR KATL 172252Z 26008KT 10SM FEW045 SCT110 BKN250 26/14 A3005 RMK AO2 SLP169 T02560144=
201704172152 METAR KATL 172152Z 31007KT 10SM FEW050 BKN100 BKN250 25/16 A3005 RMK AO2 SLP170 T02500156=
201704172052 METAR KATL 172052Z 25009KT 10SM FEW050 BKN100 BKN250 27/15 A3006 RMK AO2 SLP171 T02670150 58023=
201704171952 METAR KATL 171952Z 00000KT 10SM FEW050 SCT080 SCT250 26/13 A3009 RMK AO2 SLP182 CB DSNT NW SHRA DSNT NW T02610128=
201704171852 METAR KATL 171852Z 19008KT 10SM FEW030CB BKN070 BKN090 24/15 A3012 RMK AO2 LTG DSNT N AND NE SLP192 CB N & DSNT NE & DSNT W MOV E SHRA VC N T02390150=
201704171821 SPECI KATL 171821Z 21011G19KT 10SM FEW030CB SCT100 SCT250 24/16 A3012 RMK AO2 LTG DSNT E CB DSNT N & E & S & VC NW SHRA DSNT N & E & S & VC NW T02440161=
201704171752 METAR KATL 171752Z 09005KT 10SM FEW040CB SCT070 BKN090 23/17 A3013 RMK AO2 RAB12E48 TSB14E50 SLP197 TS DSIPT CB E-SE-S & DSNT SW & NW MOV E SHRA E-SE-S & DSNT SW & NW P0000 60000 T02280167 10261 20172 56012=
201704171740 SPECI KATL 171740Z 00000KT 10SM -TSRA FEW040CB BKN070 BKN090 21/16 A3013 RMK AO2 LTG DSNT SW RAB12 TSB14 OCNL LTGICCG E & DSNT SW TS E & DSNT SW MOV E SHRA E & DSNT SW P0000 T02110161=
201704171732 SPECI KATL 171732Z 00000KT 7SM -TSRA FEW030CB BKN040TCU BKN090 21/17 A3014 RMK AO2 LTG DSNT SW RAB12 TSB14 VIS LWR N-NE-E-SE SHRA OCNL LTGIC OHD-N-NE-E-SE & DSNT SW TS OHD-N-NE-E-SE & DSNT SW MOV E TCU OHD & ALQDS P0000 T021=
201704171724 SPECI KATL 171724Z 26008KT 5SM TSRA FEW030CB BKN040TCU BKN080 22/16 A3014 RMK AO2 LTG DSNT SW RAB12 TSB14 OCNL LTGIC OHD-S-SW-W TS OHD-S-SW-W MOV E TCU OHD & ALQDS P0000 T02170156=
201704171716 SPECI KATL 171716Z 23015G20KT 9SM -TSRA FEW030CB BKN040TCU BKN080 BKN250 22/16 A3013 RMK AO2 LTG DSNT SW RAB12 TSB14 OCNL LTGIC S-SW-W TS S-SW-W MOV E SHRA S-SW-W TCU OHD & ALQDS P0000 T02220161=
201704171657 SPECI KATL 171657Z 27006KT 10SM VCTS FEW030CB BKN040 BKN080 BKN250 24/16 A3013 RMK AO2 OCNL LTGIC SW TS VC SW MOV E SHRA VC SW T02440156=
201704171652 METAR KATL 171652Z 27005KT 10SM FEW030CB BKN040TCU BKN080 BKN250 24/16 A3013 RMK AO2 SLP197 CB SW MOV E TCU OHD-E-SE-S & SW-NW SHRA VC SW T02440161=
201704171552 METAR KATL 171552Z 31007KT 10SM FEW030 BKN080 BKN110 24/17 A3016 RMK AO2 SLP205 T02440167=
201704171452 METAR KATL 171452Z VRB06KT 10SM BKN075 23/16 A3017 RMK AO2 SLP207 T02330161 50004=
201704171352 METAR KATL 171352Z 27005KT 10SM SCT075 BKN110 BKN250 21/17 A3017 RMK AO2 SLP208 T02060167=
201704171252 METAR KATL 171252Z 26006KT 10SM BKN075 BKN110 19/16 A3017 RMK AO2 SLP208 T01890156=
201704171152 METAR KATL 171152Z 24005KT 10SM BKN075 BKN110 BKN200 17/14 A3015 RMK AO2 SLP203 T01720144 10183 20161 52012=
201704171052 METAR KATL 171052Z 21004KT 10SM FEW070 SCT110 SCT200 17/14 A3014 RMK AO2 SLP198 T01670139=
201704170952 METAR KATL 170952Z 24007KT 10SM SCT070 SCT200 17/13 A3013 RMK AO2 SLP195 T01720128=
201704170852 METAR KATL 170852Z 17003KT 10SM FEW070 17/12 A3012 RMK AO2 SLP190 T01720122 55010=
201704170752 METAR KATL 170752Z 22003KT 10SM FEW070 17/12 A3012 RMK AO2 SLP190 T01720122=
201704170652 METAR KATL 170652Z 23003KT 10SM FEW070 18/12 A3013 RMK AO2 SLP194 T01780122=
201704170552 METAR KATL 170552Z 23004KT 10SM FEW070 FEW250 18/13 A3015 RMK AO2 SLP201 T01830128 10244 20183 56008=
201704170452 METAR KATL 170452Z 22004KT 10SM FEW250 19/13 A3016 RMK AO2 SLP205 T01890128 402720161=
201704170352 METAR KATL 170352Z 19005KT 10SM FEW250 20/12 A3015 RMK AO2 SLP204 T02000122=
201704170252 METAR KATL 170252Z 19003KT 10SM FEW070 FEW250 21/13 A3017 RMK AO2 SLP210 T02060128 51007=
201704170152 METAR KATL 170152Z 21004KT 10SM FEW075 FEW090 SCT250 22/13 A3017 RMK AO2 SLP209 ACC N & S T02220128=
201704170052 METAR KATL 170052Z 19004KT 10SM FEW050 FEW090 SCT250 23/12 A3015 RMK AO2 SLP204 ACC W T02280122=
201704162352 METAR KATL 162352Z 20005KT 10SM FEW060 FEW100 SCT250 24/12 A3015 RMK AO2 SLP203 T02440122 10272 20244 55007=
201704162252 METAR KATL 162252Z 21008KT 10SM FEW065 FEW100 SCT250 26/11 A3015 RMK AO2 SLP201 T02560111=
201704162152 METAR KATL 162152Z 17010KT 10SM FEW065 SCT100 SCT200 BKN250 27/11 A3016 RMK AO2 SLP205 T02670111=
201704162052 METAR KATL 162052Z 23006G16KT 10SM SCT065 SCT200 SCT250 27/11 A3017 RMK AO2 SLP208 T02670106 58020=
201704161952 METAR KATL 161952Z 19008KT 10SM SCT060 SCT075 BKN250 27/12 A3019 RMK AO2 SLP216 MDT CU W-NW T02670117=
201704161852 METAR KATL 161852Z 18008G17KT 10SM SCT060 SCT075 BKN220 BKN250 26/12 A3021 RMK AO2 SLP222 T02610117=
201704161752 METAR KATL 161752Z 19008KT 10SM SCT050 SCT070 SCT250 26/13 A3023 RMK AO2 SLP229 T02560128 10256 20167 58022=
201704161652 METAR KATL 161652Z 20009G15KT 10SM FEW045 SCT075 BKN250 24/12 A3026 RMK AO2 SLP240 T02390117=
201704161552 METAR KATL 161552Z 20009KT 10SM FEW045 FEW070 SCT250 23/12 A3029 RMK AO2 SLP249 T02280117=
201704161452 METAR KATL 161452Z 19011KT 10SM FEW035 FEW070 SCT250 22/12 A3030 RMK AO2 SLP251 T02220122 50007=
201704161352 METAR KATL 161352Z 20012G21KT 10SM FEW025 SCT070 SCT250 21/13 A3030 RMK AO2 SLP254 T02060133=
201704161252 METAR KATL 161252Z 18007KT 10SM FEW010 SCT070 SCT250 18/15 A3029 RMK AO2 SLP251 T01830150=
201704161152 METAR KATL 161152Z 15005KT 10SM FEW010 FEW250 17/14 A3027 RMK AO2 SLP246 T01670144 10194 20161 53013=
201704161052 METAR KATL 161052Z 17005KT 10SM FEW080 FEW200 17/14 A3025 RMK AO2 SLP238 T01670139=
201704160952 METAR KATL 160952Z 17006KT 10SM CLR 17/13 A3023 RMK AO2 SLP231 T01670133=
201704160852 METAR KATL 160852Z 16006KT 10SM FEW080 FEW200 18/13 A3023 RMK AO2 SLP230 T01780133 55008=
201704160752 METAR KATL 160752Z 17008KT 10SM FEW055 FEW200 18/13 A3023 RMK AO2 SLP230 T01830128=
201704160652 METAR KATL 160652Z 17007KT 10SM FEW055 FEW110 BKN200 19/12 A3025 RMK AO2 SLP235 T01890122=
201704160552 METAR KATL 160552Z 17007KT 10SM FEW110 FEW200 20/12 A3026 RMK AO2 SLP238 T02000117 10244 20200 56002=
201704160452 METAR KATL 160452Z 17009KT 10SM FEW110 SCT200 SCT250 21/11 A3026 RMK AO2 SLP240 T02060111 402720161=
201704160352 METAR KATL 160352Z 17006KT 10SM SCT200 BKN250 21/11 A3025 RMK AO2 SLP238 T02060111=
201704160252 METAR KATL 160252Z 16005KT 10SM BKN200 BKN250 22/11 A3026 RMK AO2 SLP241 T02170111 53007=
201704160152 METAR KATL 160152Z 16005KT 10SM BKN200 OVC250 22/11 A3026 RMK AO2 SLP239 T02220111=
201704160052 METAR KATL 160052Z 15005KT 10SM FEW070 BKN200 BKN250 23/11 A3025 RMK AO2 SLP236 T02330106=
201704152352 METAR KATL 152352Z 15007KT 10SM FEW070 BKN200 BKN250 24/10 A3024 RMK AO2 SLP234 T02440100 10272 20244 53000=
201704152252 METAR KATL 152252Z 16012G17KT 10SM FEW065 FEW085 BKN200 BKN250 26/09 A3024 RMK AO2 SLP233 T02560094=
201704152152 METAR KATL 152152Z 15011G20KT 10SM FEW070 BKN200 BKN250 27/09 A3023 RMK AO2 SLP230 T02670094=
201704152052 METAR KATL 152052Z 15013G17KT 10SM SCT070 BKN250 27/09 A3024 RMK AO2 SLP232 T02670094 58021=
201704151952 METAR KATL 151952Z 17010G21KT 10SM SCT070 BKN250 26/10 A3026 RMK AO2 SLP239 T02610100=
201704151852 METAR KATL 151852Z 17010KT 10SM SCT065 BKN250 26/11 A3028 RMK AO2 SLP248 T02610106=
201704151752 METAR KATL 151752Z 16010G20KT 10SM SCT055 BKN250 26/11 A3030 RMK AO2 SLP254 T02560111 10261 20167 58021=
201704151652 METAR KATL 151652Z 16011KT 10SM SCT050 BKN250 25/11 A3033 RMK AO2 SLP263 T02500111=
201704151552 METAR KATL 151552Z 19006KT 10SM SCT040 BKN250 23/12 A3036 RMK AO2 SLP272 T02280122=
201704151452 METAR KATL 151452Z 19009KT 10SM SCT025 BKN250 22/15 A3037 RMK AO2 SLP276 T02170150 51013=
201704151352 METAR KATL 151352Z 18008KT 10SM FEW015 BKN250 19/14 A3036 RMK AO2 SLP275 T01940144=
201704151252 METAR KATL 151252Z 18008KT 10SM FEW150 BKN250 18/15 A3035 RMK AO2 SLP269 T01780150=
201704151152 METAR KATL 151152Z 15003KT 10SM BKN250 17/14 A3033 RMK AO2 SLP264 T01670144 10194 20161 53018=
201704151052 METAR KATL 151052Z 15003KT 10SM FEW250 16/14 A3031 RMK AO2 SLP257 T01610139=
201704150952 METAR KATL 150952Z 12003KT 10SM SCT250 17/14 A3028 RMK AO2 SLP247 T01720139=
201704150852 METAR KATL 150852Z 18007KT 10SM BKN250 17/14 A3028 RMK AO2 SLP245 T01720139 53003=
201704150752 METAR KATL 150752Z 17005KT 10SM SCT250 18/14 A3027 RMK AO2 SLP244 T01830139=
201704150652 METAR KATL 150652Z 15006KT 10SM SCT250 19/13 A3027 RMK AO2 SLP241 T01890133=
201704150552 METAR KATL 150552Z 14004KT 10SM BKN250 19/13 A3027 RMK AO2 SLP241 T01890133 10256 20189 50002=
201704150452 METAR KATL 150452Z 15005KT 10SM BKN250 21/13 A3027 RMK AO2 SLP241 T02060128 402780161=
201704150352 METAR KATL 150352Z 13003KT 10SM BKN250 21/12 A3026 RMK AO2 SLP240 T02110122=
201704150252 METAR KATL 150252Z 14004KT 10SM BKN250 22/12 A3026 RMK AO2 SLP238 T02220122 51012=
201704150152 METAR KATL 150152Z 15005KT 10SM BKN250 23/12 A3025 RMK AO2 SLP237 T02330117=
201704150052 METAR KATL 150052Z 16004KT 10SM BKN250 24/12 A3024 RMK AO2 SLP232 T02390117=
201704142352 METAR KATL 142352Z 15007KT 10SM BKN250 26/11 A3022 RMK AO2 SLP228 T02560111 10278 20256 53001=
201704142252 METAR KATL 142252Z 14005KT 10SM FEW065 BKN250 27/11 A3022 RMK AO2 SLP226 T02670111=
201704142152 METAR KATL 142152Z 12006KT 10SM FEW065 BKN250 27/11 A3022 RMK AO2 SLP225 T02720111=
201704142052 METAR KATL 142052Z 13007KT 10SM SCT065 BKN250 27/11 A3022 RMK AO2 SLP226 T02720111 56022=
201704141952 METAR KATL 141952Z 18009KT 10SM SCT060 SCT110 SCT250 27/11 A3024 RMK AO2 SLP231 MDT CU OHD AND S-SW T02670111=
201704141852 METAR KATL 141852Z VRB03KT 10SM SCT060 SCT110 SCT250 26/11 A3026 RMK AO2 SLP240 MDT CU OHD AND S-SW T02560111=
201704141752 METAR KATL 141752Z 20007KT 10SM SCT060 SCT110 SCT250 26/12 A3029 RMK AO2 SLP248 T02610117 10261 20167 58013=
201704141652 METAR KATL 141652Z 00000KT 10SM FEW050 FEW100 SCT250 26/13 A3031 RMK AO2 SLP256 ACC N T02560133=
201704141552 METAR KATL 141552Z 21006KT 9SM FEW085 FEW250 23/12 A3032 RMK AO2 SLP261 ACC DSNT N T02330122=
201704141503 SPECI KATL 141503Z 26005KT 8SM FEW085 23/13 A3033 RMK AO2 ACC N-NE T02330133=
201704141452 METAR KATL 141452Z 26007KT 4SM FU FEW085 23/13 A3032 RMK AO2 SLP261 ACC SW-NW-N T02280133 51013=
201704141352 METAR KATL 141352Z 23007KT 5SM FU SCT085 21/13 A3032 RMK AO2 SLP260 ACC SW-NW T02060128=
201704141252 METAR KATL 141252Z 22005KT 10SM FEW010 SCT085 SCT110 BKN250 18/13 A3030 RMK AO2 SLP255 FU FEW010 ACC W-N-NE T01830128=
201704141152 METAR KATL 141152Z 20003KT 10SM SCT075 BKN100 BKN250 17/12 A3029 RMK AO2 SLP249 ACC W-N-NE T01670122 10189 20161 53018=
201704141052 METAR KATL 141052Z 20003KT 10SM SCT085 SCT250 17/13 A3026 RMK AO2 SLP239 ACC NW-NE T01670128=
201704140952 METAR KATL 140952Z 00000KT 10SM FEW100 FEW250 17/13 A3024 RMK AO2 SLP232 T01670133=
201704140852 METAR KATL 140852Z 14003KT 10SM FEW100 FEW250 17/13 A3023 RMK AO2 SLP230 T01720133 53002=
201704140752 METAR KATL 140752Z 23003KT 10SM FEW250 18/13 A3022 RMK AO2 SLP227 T01830128=
201704140652 METAR KATL 140652Z 00000KT 10SM FEW250 18/13 A3022 RMK AO2 SLP227 T01830133=
201704140552 METAR KATL 140552Z 22004KT 10SM FEW100 FEW250 18/13 A3023 RMK AO2 SLP228 T01830128 10261 20183 58002=
201704140452 METAR KATL 140452Z 00000KT 10SM FEW250 19/13 A3023 RMK AO2 SLP231 T01940128 402780156=
201704140352 METAR KATL 140352Z 20004KT 10SM FEW100 SCT250 21/13 A3023 RMK AO2 SLP229 T02060128=
201704140252 METAR KATL 140252Z 20004KT 10SM FEW100 SCT250 21/13 A3023 RMK AO2 SLP230 T02110128 51015=
201704140152 METAR KATL 140152Z 17007KT 10SM SCT250 23/12 A3022 RMK AO2 SLP226 T02280122=
201704140052 METAR KATL 140052Z 18005KT 10SM BKN250 24/11 A3021 RMK AO2 SLP222 T02440111=
201704132352 METAR KATL 132352Z 15006KT 10SM FEW070 BKN250 26/10 A3019 RMK AO2 SLP215 T02610100 10278 20261 55000=
201704132252 METAR KATL 132252Z 15006KT 10SM FEW070 SCT250 27/09 A3018 RMK AO2 SLP213 T02720094=
201704132152 METAR KATL 132152Z 10SM FEW070 SCT250 28/10 A3018 RMK AO2 SLP213 T02780100=
201704132052 METAR KATL 132052Z VRB03KT 10SM FEW070 SCT250 28/10 A3019 RMK AO2 SLP215 T02780100 58025=
201704131952 METAR KATL 131952Z 16007KT 10SM FEW065 SCT085 SCT250 27/11 A3021 RMK AO2 SLP224 T02720111=
201704131852 METAR KATL 131852Z 07006KT 10SM FEW060 SCT100 SCT250 27/13 A3024 RMK AO2 SLP233 MDT CU N-NE & S-SW-W T02720133=
201704131752 METAR KATL 131752Z 14008KT 10SM SCT060TCU SCT250 27/12 A3026 RMK AO2 SLP240 TCU NE & SE & W & NW T02670122 10272 20167 58009=
201704131652 METAR KATL 131652Z 09007KT 10SM SCT055TCU SCT250 26/12 A3028 RMK AO2 SLP246 TCU NE-E-SE-S-SW T02560122=
201704131552 METAR KATL 131552Z 00000KT 10SM FEW050 FEW250 BKN300 25/13 A3030 RMK AO2 SLP251 T02500133=
201704131452 METAR KATL 131452Z VRB03KT 10SM FEW250 23/13 A3029 RMK AO2 SLP251 T02330133 51007=
201704131352 METAR KATL 131352Z 24003KT 10SM FEW250 21/13 A3029 RMK AO2 SLP250 T02110133=
201704131252 METAR KATL 131252Z 15003KT 10SM FEW250 18/13 A3028 RMK AO2 SLP247 T01830128=
201704131152 METAR KATL 131152Z 00000KT 10SM FEW180 FEW250 17/12 A3027 RMK AO2 SLP245 T01670117 10183 20156 53017=
201704131052 METAR KATL 131052Z 07003KT 10SM FEW250 17/12 A3025 RMK AO2 SLP236 T01670117=
201704130952 METAR KATL 130952Z 10003KT 10SM FEW250 17/12 A3023 RMK AO2 SLP231 T01720122=
201704130852 METAR KATL 130852Z 00000KT 10SM FEW250 16/12 A3022 RMK AO2 SLP228 T01610122 56006=
201704130752 METAR KATL 130752Z 00000KT 10SM FEW250 16/12 A3022 RMK AO2 SLP228 T01610122=
201704130652 METAR KATL 130652Z 16003KT 10SM FEW250 18/12 A3023 RMK AO2 SLP228 T01780122=
201704130552 METAR KATL 130552Z 00000KT 10SM CLR 17/12 A3024 RMK AO2 SLP233 T01720122 10244 20172 58003=
201704130452 METAR KATL 130452Z 00000KT 10SM CLR 18/12 A3025 RMK AO2 SLP238 T01780122 402670150=
201704130352 METAR KATL 130352Z 34003KT 10SM FEW100 19/12 A3025 RMK AO2 SLP236 T01890117=
201704130252 METAR KATL 130252Z 00000KT 10SM FEW100 19/11 A3025 RMK AO2 SLP237 T01940111 51007=
201704130152 METAR KATL 130152Z 00000KT 10SM FEW100 FEW250 21/11 A3024 RMK AO2 SLP236 T02060106=
201704130052 METAR KATL 130052Z 31004KT 10SM FEW100 SCT150 SCT250 23/08 A3023 RMK AO2 SLP232 T02330083=
201704122352 METAR KATL 122352Z 02010KT 10SM FEW060 SCT100 BKN200 24/09 A3023 RMK AO2 SLP230 T02440094 10267 20244 53003=
201704122252 METAR KATL 122252Z 28003KT 10SM FEW055 SCT120 BKN250 25/11 A3021 RMK AO2 LTG DSNT NE SLP225 CB DSNT NE & NW VCSH NW-N T02500111=
201704122152 METAR KATL 122152Z 25004KT 10SM FEW060 SCT120 BKN250 26/11 A3021 RMK AO2 SLP223 CB DSNT NW-N TCU DSNT NE T02610111=
201704122052 METAR KATL 122052Z 32009G15KT 10SM FEW060 SCT120 BKN250 25/11 A3022 RMK AO2 LTG DSNT N SLP225 CB DSNT N & SE & W TCU DSNT NE & SW & NW T02500111 58012=
201704121952 METAR KATL 121952Z 34005KT 10SM FEW060 SCT100 BKN250 26/12 A3023 RMK AO2 SLP230 VIRGA DSNT NW CB DSNT N-NE TCU DSNT E-SE-S MDT CU DSNT NW T02560122=
201704121902 SPECI KATL 121902Z 34008KT 10SM FEW065 SCT110 BKN250 26/11 A3024 RMK AO2 LTG DSNT NW CB DSNT N & NW SHRA DSNT NW T02560111=
201704121852 METAR KATL 121852Z 32008KT 10SM FEW065 SCT110 BKN250 26/12 A3024 RMK AO2 SLP233 TCU DSNT NW CB DSNT N SHRA DSNT NW T02610117=
201704121752 METAR KATL 121752Z 01007KT 10SM FEW060 SCT150 BKN250 26/12 A3025 RMK AO2 SLP236 T02610117 10261 20161 58008=
201704121652 METAR KATL 121652Z 07005KT 10SM FEW050 SCT150 BKN250 25/12 A3027 RMK AO2 SLP244 T02500122=
201704121552 METAR KATL 121552Z VRB04KT 10SM FEW040 SCT150 BKN200 23/14 A3028 RMK AO2 SLP246 T02280139=
201704121452 METAR KATL 121452Z 33006KT 10SM FEW150 BKN180 BKN230 21/14 A3028 RMK AO2 SLP246 T02060139 53014=
201704121352 METAR KATL 121352Z 29004KT 10SM FEW100 SCT150 OVC230 19/13 A3025 RMK AO2 SLP239 T01940133=
201704121252 METAR KATL 121252Z 22003KT 9SM FEW060 SCT100 OVC200 16/12 A3024 RMK AO2 SLP235 T01610122=
201704121152 METAR KATL 121152Z 00000KT 9SM FEW070 16/12 A3023 RMK AO2 SLP232 T01610122 10189 20150 53014=
201704121052 METAR KATL 121052Z 22003KT 10SM BKN075 BKN250 16/12 A3021 RMK AO2 SLP226 T01560117=
201704120952 METAR KATL 120952Z 13003KT 10SM BKN090 BKN250 17/12 A3020 RMK AO2 SLP220 T01720117=
201704120852 METAR KATL 120852Z 00000KT 10SM SCT090 17/11 A3019 RMK AO2 SLP217 T01720111 56009=
201704120752 METAR KATL 120752Z 24004KT 10SM SCT080 SCT250 17/11 A3020 RMK AO2 SLP218 T01670111=
201704120652 METAR KATL 120652Z 00000KT 10SM FEW080 FEW250 19/11 A3020 RMK AO2 SLP220 T01890106=
201704120552 METAR KATL 120552Z 24004KT 10SM FEW080 FEW250 18/11 A3022 RMK AO2 SLP226 T01780111 10239 20178 58003=
201704120452 METAR KATL 120452Z 21004KT 10SM FEW080 SCT250 18/11 A3023 RMK AO2 SLP230 T01830111 402670139=
201704120352 METAR KATL 120352Z 22003KT 10SM FEW080 SCT250 19/11 A3023 RMK AO2 SLP231 T01890111=
201704120252 METAR KATL 120252Z 22003KT 10SM SCT250 20/11 A3023 RMK AO2 SLP229 T02000106 51012=
201704120152 METAR KATL 120152Z 17003KT 10SM BKN250 22/10 A3022 RMK AO2 SLP228 T02170100=
201704120052 METAR KATL 120052Z 19004KT 10SM FEW060 SCT250 22/09 A3020 RMK AO2 SLP221 T02220094=
201704112352 METAR KATL 112352Z 19005KT 10SM FEW065 BKN250 24/09 A3019 RMK AO2 SLP218 T02390094 10267 20239 55002=
201704112252 METAR KATL 112252Z 21005KT 10SM FEW065 BKN250 26/09 A3019 RMK AO2 SLP216 T02560094=
201704112152 METAR KATL 112152Z VRB04KT 10SM FEW065 BKN250 26/09 A3019 RMK AO2 SLP218 T02610094=
201704112052 METAR KATL 112052Z 20007KT 10SM SCT065 SCT250 26/10 A3020 RMK AO2 SLP220 T02610100 56026=
201704111952 METAR KATL 111952Z 21007KT 10SM SCT070 SCT250 26/09 A3022 RMK AO2 SLP226 T02560094=
201704111852 METAR KATL 111852Z 12007KT 10SM SCT065 SCT250 26/11 A3025 RMK AO2 SLP238 T02560111=
201704111752 METAR KATL 111752Z 20004KT 10SM SCT060 SCT250 25/11 A3028 RMK AO2 SLP246 T02500106 10256 20144 58014=
201704111652 METAR KATL 111652Z 00000KT 10SM SCT050 SCT250 24/11 A3030 RMK AO2 SLP253 T02390111=
201704111552 METAR KATL 111552Z 29003KT 10SM FEW040 FEW250 SCT300 23/14 A3032 RMK AO2 SLP259 T02330139 $=
201704111452 METAR KATL 111452Z 27003KT 10SM SCT250 22/13 A3032 RMK AO2 SLP260 T02170133 51016 $=
201704111352 METAR KATL 111352Z 21005KT 10SM SCT250 18/14 A3031 RMK AO2 SLP257 T01830139 $=
201704111252 METAR KATL 111252Z 20007KT 10SM FEW150 SCT200 SCT250 16/12 A3030 RMK AO2 SLP254 T01610117=
201704111152 METAR KATL 111152Z 20004KT 10SM FEW150 FEW200 SCT250 14/11 A3027 RMK AO2 SLP245 T01440111 10167 20139 53009=
201704111052 METAR KATL 111052Z 19006KT 10SM SCT200 SCT250 14/11 A3025 RMK AO2 SLP237 T01390106=
201704110952 METAR KATL 110952Z 18006KT 10SM SCT200 BKN250 15/10 A3024 RMK AO2 SLP236 T01500100=
201704110852 METAR KATL 110852Z 00000KT 10SM SCT200 BKN250 15/10 A3024 RMK AO2 SLP235 T01500100 55004=
201704110752 METAR KATL 110752Z 20004KT 10SM SCT200 BKN250 16/09 A3024 RMK AO2 SLP233 T01610089=
201704110652 METAR KATL 110652Z 19004KT 10SM FEW150 SCT200 BKN250 17/09 A3025 RMK AO2 SLP237 T01670094=
201704110552 METAR KATL 110552Z 21004KT 10SM FEW150 SCT200 BKN250 17/09 A3025 RMK AO2 SLP239 T01670089 10239 20167 51001=
201704110452 METAR KATL 110452Z 20007KT 10SM SCT200 BKN250 18/09 A3025 RMK AO2 SLP238 T01780089 402610117=
201704110352 METAR KATL 110352Z 19006KT 10SM SCT200 BKN250 19/09 A3026 RMK AO2 SLP241 T01890089=
201704110252 METAR KATL 110252Z 18006KT 10SM SCT200 BKN250 20/09 A3025 RMK AO2 SLP238 T02000089 53019=
201704110152 METAR KATL 110152Z 15007KT 10SM SCT200 BKN250 21/08 A3022 RMK AO2 SLP229 T02110083=
201704110052 METAR KATL 110052Z 14005KT 10SM SCT200 BKN250 22/08 A3020 RMK AO2 SLP223 T02220083=
201704102352 METAR KATL 102352Z 16007KT 10SM SCT200 BKN250 24/08 A3019 RMK AO2 SLP220 T02390078 10261 20239 56009=
201704102252 METAR KATL 102252Z 17005KT 10SM SCT200 SCT250 25/07 A3020 RMK AO2 SLP221 T02500067=
201704102152 METAR KATL 102152Z 17006KT 10SM SCT200 SCT250 26/06 A3020 RMK AO2 SLP222 T02560056=
201704102052 METAR KATL 102052Z 19005KT 10SM FEW200 SCT250 26/07 A3022 RMK AO2 SLP228 T02560067 56019=
201704102032 SPECI KATL 102032Z 17007KT 10SM SCT250 26/07 A3023 RMK AO2 T02560067=
201704101952 METAR KATL 101952Z 24007G15KT 10SM SCT250 25/06 A3024 RMK AO2 SLP233 T02500061=
201704101852 METAR KATL 101852Z VRB04KT 10SM SCT250 24/06 A3026 RMK AO2 SLP240 T02440061=
201704101752 METAR KATL 101752Z 21005KT 10SM SCT250 24/09 A3028 RMK AO2 SLP248 T02390089 10244 20117 58007=
201704101652 METAR KATL 101652Z 18008KT 10SM SCT250 23/08 A3030 RMK AO2 SLP254 T02280078=
201704101552 METAR KATL 101552Z 19008KT 10SM SCT250 22/08 A3031 RMK AO2 SLP257 T02170083=
201704101452 METAR KATL 101452Z VRB04KT 10SM FEW250 19/09 A3030 RMK AO2 SLP256 T01890094 51011=
201704101352 METAR KATL 101352Z 16003KT 10SM FEW250 17/09 A3029 RMK AO2 SLP252 T01670094=
201704101252 METAR KATL 101252Z 14005KT 10SM FEW250 13/09 A3029 RMK AO2 SLP253 T01330089=
201704101152 METAR KATL 101152Z 13003KT 10SM FEW250 12/08 A3027 RMK AO2 SLP246 T01170078 10156 20117 53017=
201704101052 METAR KATL 101052Z 12004KT 10SM FEW250 12/07 A3025 RMK AO2 SLP238 T01220072=
201704100952 METAR KATL 100952Z 15004KT 10SM FEW250 12/07 A3023 RMK AO2 SLP231 T01220072=
201704100852 METAR KATL 100852Z 17006KT 10SM SCT250 13/07 A3022 RMK AO2 SLP227 T01280067 53005=
201704100752 METAR KATL 100752Z 17008KT 10SM SCT250 14/05 A3021 RMK AO2 SLP224 T01390050=
201704100652 METAR KATL 100652Z 16006KT 10SM SCT250 14/04 A3020 RMK AO2 SLP221 T01440044=
201704100552 METAR KATL 100552Z 14003KT 10SM SCT250 16/03 A3020 RMK AO2 SLP221 T01560033 10222 20156 53007=
201704100452 METAR KATL 100452Z 18005KT 10SM SCT250 16/03 A3019 RMK AO2 SLP219 T01560028 402500072=
201704100352 METAR KATL 100352Z 18006KT 10SM FEW250 17/03 A3018 RMK AO2 SLP216 T01720028=
201704100252 METAR KATL 100252Z 17007KT 10SM FEW250 19/02 A3018 RMK AO2 SLP214 T01890017 53015=
201704100152 METAR KATL 100152Z 15007KT 10SM SCT250 19/02 A3016 RMK AO2 SLP209 T01940017=
201704100052 METAR KATL 100052Z 14004KT 10SM FEW200 SCT250 21/01 A3014 RMK AO2 SLP203 T02110011=
201704092352 METAR KATL 092352Z 18007KT 10SM SCT200 SCT250 23/01 A3013 RMK AO2 SLP201 T02280006 10250 20228 53001=
201704092252 METAR KATL 092252Z 18007KT 10SM FEW200 SCT250 24/M01 A3013 RMK AO2 SLP199 T02391011=
201704092152 METAR KATL 092152Z 20008KT 10SM FEW200 SCT250 24/M02 A3013 RMK AO2 SLP198 T02441017=
201704092052 METAR KATL 092052Z VRB06KT 10SM FEW250 24/M01 A3013 RMK AO2 SLP200 T02441011 58019=
201704091952 METAR KATL 091952Z 15006KT 10SM FEW250 24/M02 A3015 RMK AO2 SLP206 T02391017=
201704091852 METAR KATL 091852Z VRB04KT 10SM FEW250 24/M01 A3017 RMK AO2 SLP213 T02391006=
201704091752 METAR KATL 091752Z 00000KT 10SM SCT250 23/M01 A3019 RMK AO2 SLP219 T02281011 10233 20089 58005=
201704091652 METAR KATL 091652Z 22005KT 10SM FEW250 22/M01 A3020 RMK AO2 SLP223 T02221011=
201704091552 METAR KATL 091552Z 16006KT 10SM SCT250 21/M02 A3021 RMK AO2 SLP227 T02061022=
201704091452 METAR KATL 091452Z 14004KT 10SM BKN250 19/01 A3020 RMK AO2 SLP223 T01940011 51016=
201704091352 METAR KATL 091352Z 13003KT 10SM BKN250 17/01 A3019 RMK AO2 SLP221 T01720006=
201704091252 METAR KATL 091252Z 00000KT 10SM SCT250 14/06 A3018 RMK AO2 SLP216 T01390056=
201704091152 METAR KATL 091152Z 00000KT 10SM SCT250 09/03 A3016 RMK AO2 SLP211 T00890028 10117 20072 53018=
201704091052 METAR KATL 091052Z 31003KT 10SM FEW250 08/02 A3013 RMK AO2 SLP201 T00780017=
201704090952 METAR KATL 090952Z 00000KT 10SM FEW250 09/02 A3011 RMK AO2 SLP195 T00890022=
201704090852 METAR KATL 090852Z 00000KT 10SM FEW250 08/02 A3010 RMK AO2 SLP191 T00830022 53005=
201704090752 METAR KATL 090752Z 00000KT 10SM FEW250 11/02 A3009 RMK AO2 SLP187 T01060022=
201704090652 METAR KATL 090652Z 00000KT 10SM CLR 10/02 A3008 RMK AO2 SLP183 T01000022=
201704090552 METAR KATL 090552Z 00000KT 10SM CLR 12/01 A3009 RMK AO2 SLP186 T01170011 10189 20106 56001=
201704090452 METAR KATL 090452Z 00000KT 10SM CLR 12/01 A3009 RMK AO2 SLP187 T01170006 402170044=
201704090352 METAR KATL 090352Z 31004KT 10SM FEW250 12/00 A3009 RMK AO2 SLP187 T01220000=
201704090252 METAR KATL 090252Z 34004KT 10SM FEW250 17/M04 A3009 RMK AO2 SLP187 T01671044 53013=
201704090152 METAR KATL 090152Z 32003KT 10SM FEW200 SCT250 17/M03 A3008 RMK AO2 SLP183 T01671033=
201704090052 METAR KATL 090052Z 32005KT 10SM FEW200 18/M05 A3006 RMK AO2 SLP177 T01831050=
201704082352 METAR KATL 082352Z 33007KT 10SM FEW200 19/M06 A3005 RMK AO2 SLP175 T01891056 10217 20178 55004=
201704082252 METAR KATL 082252Z 31008KT 10SM CLR 20/M06 A3004 RMK AO2 SLP174 T02001061=
201704082152 METAR KATL 082152Z 00000KT 10SM FEW250 21/M05 A3005 RMK AO2 SLP173 T02111050=
201704082052 METAR KATL 082052Z 30006KT 10SM FEW250 21/M04 A3006 RMK AO2 SLP179 T02061044 56016=
201704081952 METAR KATL 081952Z 32005KT 10SM FEW250 21/M05 A3007 RMK AO2 SLP183 T02061050=
201704081852 METAR KATL 081852Z 32008KT 10SM FEW250 19/M04 A3009 RMK AO2 SLP188 T01941039=
201704081752 METAR KATL 081752Z 00000KT 10SM FEW250 18/M04 A3011 RMK AO2 SLP195 T01781044 10183 20056 58018=
201704081652 METAR KATL 081652Z VRB06KT 10SM FEW250 17/M02 A3013 RMK AO2 SLP202 T01671022=
201704081552 METAR KATL 081552Z 35007G14KT 10SM FEW250 15/M03 A3016 RMK AO2 SLP212 T01501033=
201704081452 METAR KATL 081452Z 36007KT 10SM FEW250 13/00 A3016 RMK AO2 SLP214 T01330000 51015=
201704081352 METAR KATL 081352Z 32007KT 10SM BKN250 12/01 A3015 RMK AO2 SLP210 T01170006=
201704081252 METAR KATL 081252Z 31008KT 10SM BKN250 09/M01 A3014 RMK AO2 SLP207 T00891006=
201704081152 METAR KATL 081152Z 28006KT 10SM FEW250 05/M01 A3012 RMK AO2 SLP201 T00501011 10089 20044 53018=
201704081052 METAR KATL 081052Z 30006KT 10SM FEW200 FEW250 06/M02 A3010 RMK AO2 SLP192 T00561017=
201704080952 METAR KATL 080952Z 31009KT 10SM FEW250 06/M01 A3008 RMK AO2 SLP185 T00561006=
201704080852 METAR KATL 080852Z 27004KT 10SM FEW250 06/M01 A3006 RMK AO2 SLP182 T00611011 58001=
201704080752 METAR KATL 080752Z 29005KT 10SM CLR 06/M01 A3007 RMK AO2 SLP183 T00611011=
201704080652 METAR KATL 080652Z 33006KT 10SM CLR 08/M02 A3006 RMK AO2 SLP180 T00781017=
201704080552 METAR KATL 080552Z 33005KT 10SM CLR 09/M02 A3007 RMK AO2 SLP181 T00891017 10150 20089 50006=
201704080452 METAR KATL 080452Z 32008KT 10SM CLR 09/M01 A3007 RMK AO2 SLP183 T00941011 401780061=
201704080352 METAR KATL 080352Z 31008KT 10SM CLR 11/M01 A3006 RMK AO2 SLP180 T01061011=
201704080252 METAR KATL 080252Z 30006KT 10SM CLR 11/M01 A3005 RMK AO2 SLP176 T01061006 50011=
201704080152 METAR KATL 080152Z 32007KT 10SM CLR 12/M02 A3005 RMK AO2 SLP176 T01221017=
201704080052 METAR KATL 080052Z 31008KT 10SM CLR 13/M02 A3003 RMK AO2 SLP169 T01331022=
201704072352 METAR KATL 072352Z 32009G18KT 10SM FEW250 15/M02 A3001 RMK AO2 SLP164 T01501017 10178 20150 53004=
201704072252 METAR KATL 072252Z 32014G18KT 10SM FEW200 17/M02 A3001 RMK AO2 SLP160 T01671017=
201704072152 METAR KATL 072152Z 30017G24KT 10SM FEW080 FEW200 17/M02 A2999 RMK AO2 PK WND 31026/2123 SLP158 T01671017=
201704072052 METAR KATL 072052Z 32018G24KT 10SM FEW075 FEW200 17/M01 A3000 RMK AO2 PK WND 29034/2012 SLP159 T01671011 56008=
201704071952 METAR KATL 071952Z 31018G29KT 10SM FEW070 FEW250 17/M01 A3001 RMK AO2 PK WND 28030/1906 SLP160 T01671006=
201704071852 METAR KATL 071852Z 30016G29KT 10SM FEW070 FEW250 17/M01 A3001 RMK AO2 PK WND 32031/1813 SLP162 T01671006=
201704071752 METAR KATL 071752Z 30017G26KT 10SM FEW065 FEW250 16/M02 A3003 RMK AO2 PK WND 30027/1707 SLP168 T01561017 10161 20072 58013=
201704071652 METAR KATL 071652Z 29015G24KT 10SM FEW060 FEW250 14/00 A3004 RMK AO2 PK WND 32029/1614 SLP173 T01440000=
201704071552 METAR KATL 071552Z 33017G25KT 10SM FEW055 13/00 A3007 RMK AO2 PK WND 33026/1457 SLP182 T01330000=
201704071452 METAR KATL 071452Z 30018G27KT 10SM FEW050 12/M01 A3006 RMK AO2 PK WND 31031/1441 SLP181 T01171006 53007=
201704071352 METAR KATL 071352Z 31014G23KT 10SM FEW040 11/01 A3005 RMK AO2 PK WND 30026/1308 SLP177 T01060006=
201704071252 METAR KATL 071252Z 30015G24KT 10SM CLR 09/01 A3005 RMK AO2 SLP176 T00890006=
201704071152 METAR KATL 071152Z 28010KT 10SM CLR 07/01 A3004 RMK AO2 SLP175 T00720006 10078 20061 53017=
201704071052 METAR KATL 071052Z 29012KT 10SM CLR 07/01 A3002 RMK AO2 SLP166 T00720006=
201704070952 METAR KATL 070952Z 27008KT 10SM CLR 07/01 A3000 RMK AO2 SLP160 T00670011=
201704070852 METAR KATL 070852Z 28008KT 10SM CLR 07/02 A2999 RMK AO2 SLP158 T00720017 53003=
201704070752 METAR KATL 070752Z 29008KT 10SM CLR 07/02 A2999 RMK AO2 SLP157 T00720022=
201704070652 METAR KATL 070652Z 30007KT 10SM CLR 07/02 A2998 RMK AO2 SLP154 T00720022=
201704070552 METAR KATL 070552Z 29008KT 10SM FEW060 08/02 A2998 RMK AO2 SLP153 T00780017 10117 20078 55002=
201704070452 METAR KATL 070452Z 27009KT 10SM FEW060 09/01 A2998 RMK AO2 SLP153 T00890011 401610089=
201704070352 METAR KATL 070352Z 27008KT 10SM FEW080 09/02 A2998 RMK AO2 SLP153 T00890017=
201704070252 METAR KATL 070252Z 27006KT 10SM FEW080 09/02 A2999 RMK AO2 SLP155 T00940017 51010=
201704070152 METAR KATL 070152Z 26006KT 10SM FEW060 FEW080 10/02 A2998 RMK AO2 SLP154 T01000017=
201704070052 METAR KATL 070052Z 29009KT 10SM FEW080 11/01 A2996 RMK AO2 SLP147 T01110011=
201704062352 METAR KATL 062352Z 30011KT 10SM FEW060 FEW090 12/01 A2996 RMK AO2 PK WND 30033/2255 SLP145 T01170011 10139 20117 51019=
201704062252 METAR KATL 062252Z 30019G29KT 10SM BKN060 13/01 A2994 RMK AO2 PK WND 32033/2156 SLP140 T01280011=
201704062152 METAR KATL 062152Z 31024G33KT 10SM FEW050 BKN060 12/02 A2992 RMK AO2 PK WND 30035/2126 SLP132 T01220017=
201704062052 METAR KATL 062052Z 30022G32KT 10SM FEW050 BKN060 BKN070 13/02 A2990 RMK AO2 PK WND 32039/2038 SLP124 T01280022 53007=
201704061952 METAR KATL 061952Z 29017G29KT 10SM BKN050 BKN060 13/02 A2988 RMK AO2 PK WND 26033/1929 SLP119 VIRGA DSNT N-NE T01280022=
201704061852 METAR KATL 061852Z 29018G30KT 10SM BKN050 BKN060 13/03 A2988 RMK AO2 PK WND 29035/1804 SLP117 T01330028=
201704061752 METAR KATL 061752Z 28023G34KT 10SM SCT045 SCT055 13/03 A2988 RMK AO2 PK WND 28039/1659 SLP115 T01280028 10128 20100 51012=
201704061652 METAR KATL 061652Z 29021G35KT 10SM SCT045 12/02 A2987 RMK AO2 PK WND 29036/1600 SLP114 T01170022=
201704061552 METAR KATL 061552Z 30022G32KT 10SM BKN040 BKN050 11/02 A2988 RMK AO2 PK WND 30038/1516 SLP115 SHRA DSNT N T01110022=
201704061452 METAR KATL 061452Z 29023G33KT 10SM BKN045 BKN050 12/03 A2984 RMK AO2 PK WND 29033/1440 SLP102 SHRA DSNT N T01170033 51018=
201704061352 METAR KATL 061352Z 27014G25KT 10SM BKN040 BKN050 11/03 A2982 RMK AO2 PK WND 28032/1340 SLP097 T01060028=
201704061252 METAR KATL 061252Z 26018G25KT 10SM SCT044 SCT055 11/03 A2981 RMK AO2 SLP091 T01060033=
201704061152 METAR KATL 061152Z 27016G20KT 10SM FEW043 SCT055 10/03 A2979 RMK AO2 SLP084 70426 T01000033 10133 20100 53017=
201704061052 METAR KATL 061052Z 25013G18KT 10SM SCT038 BKN050 11/04 A2976 RMK AO2 SLP074 T01060039=
201704060952 METAR KATL 060952Z 27011G21KT 10SM FEW038 BKN050 11/03 A2975 RMK AO2 PK WND 27031/0902 SLP070 T01060033=
201704060852 METAR KATL 060852Z 27022G34KT 10SM SCT036 BKN046 12/04 A2973 RMK AO2 PK WND 28034/0849 SLP066 T01170039 55007 $=
201704060752 METAR KATL 060752Z 26013G23KT 10SM SCT045 BKN085 BKN250 12/06 A2972 RMK AO2 SLP062 T01170056 $=
201704060652 METAR KATL 060652Z 27012KT 10SM FEW085 SCT200 SCT250 12/06 A2974 RMK AO2 SLP069 T01170061 $=
201704060552 METAR KATL 060552Z 28015G23KT 10SM BKN080 BKN200 13/07 A2976 RMK AO2 PK WND 27027/0529 SLP074 60042 T01330067 10178 20133 53024 $=
201704060452 METAR KATL 060452Z 28013KT 10SM SCT060 BKN090 BKN200 16/12 A2973 RMK AO2 SLP062 T01610122 401940156 $=
201704060352 METAR KATL 060352Z 25008KT 10SM FEW020 BKN055 BKN120 OVC200 17/16 A2971 RMK AO2 WSHFT 0246 RAE12 TSE46 SLP055 CONS LTGICCG DSNT NE-SE P0007 T01720156 $=
201704060346 SPECI KATL 060346Z 25007KT 10SM FEW020 BKN055 BKN120 OVC200 17/16 A2970 RMK AO2 WSHFT 0246 RAE12 TSE46 CONS LTGICCG DSNT NE-SE TS MOVD NE P0007 $=
201704060306 SPECI KATL 060306Z 22013G20KT 8SM -TSRA FEW004 SCT020CB BKN040 OVC150 17/16 A2970 RMK AO2 WSHFT 0246 CONS LTGICCG NE-SE-S TS NE-SE-S MOV NE P0007 T01720156 $=
201704060259 SPECI KATL 060259Z 20013G20KT 8SM -TSRA FEW004 SCT020CB BKN040 OVC150 17/16 A2969 RMK AO2 CONS LTGICCG NE-SE-S TS NE-SE-S MOV NE P0007 T01720156 $=
201704060252 METAR KATL 060252Z 20012G24KT 3SM +TSRA BR FEW004 BKN020CB OVC050 17/16 A2968 RMK AO2 RAB34 TSB18 SLP046 VIS LWR NE-SE-S CONS LTGICCG OHD-ALQDS TS OHD-ALQDS MOV NE P0032 60035 T01720156 55012 $=
201704060241 SPECI KATL 060241Z 34015KT 2SM R09R/3500VP6000FT +TSRA BR SCT004 BKN015CB OVC050 17/17 A2970 RMK AO2 RAB34 TSB18 PRESRR CONS LTGICCG NE-OHD-SW TS NE-OHD-SW MOV NE P0003 T01720167 $=
201704060218 SPECI KATL 060218Z 16006KT 1/2SM R09R/P6000FT TS BKN003 OVC010CB 17/17 A2966 RMK AO2 SFC VIS 9 TSB18 FRQ LTGICCG SW-NW-N TS VC SW-NW-N MOV NE T01720172 $=
201704060152 METAR KATL 060152Z 13010KT 1/2SM R09R/P6000FT BKN004 OVC050 17/17 A2964 RMK AO2 SFC VIS 10 RAE32 TSE37 SLP032 CIG 003V007 LTG DSNT SW-NW-N P0003 T01720167 $=
201704060138 SPECI KATL 060138Z 12010KT 1/2SM R09R/P6000FT BKN004 OVC050 17/16 A2965 RMK AO2 SFC VIS 10 RAE32 TSE37 PRESFR LTG DSNT SW-NW TS DSIPTD P0003 T01670161 $=
201704060127 SPECI KATL 060127Z 12010KT 9SM -TSRA BKN005CB OVC050 17/16 A2967 RMK AO2 PRESFR FRQ LTGICCG NE TS VC NE MOV NE P0003 T01670161 $=
201704060052 METAR KATL 060052Z 12010KT 10SM -TSRA SCT005 BKN010CB OVC060 17/16 A2970 RMK AO2 RAE2356B42 TSB46 SLP051 SCT005 V BKN FRQ LTGICCG SW-NW TS SW-NW MOV NE P0000 T01670161 $=
201704060046 SPECI KATL 060046Z 12010KT 10SM -TSRA SCT005 BKN010CB OVC060 17/16 A2970 RMK AO2 RAE2356B42 TSB46 FRQ LTGICCG SW-NW TS VC SW-NW MOV NE P0000 $=
201704052352 METAR KATL 052352Z 11008KT 8SM -RA SCT008 BKN014 OVC070 17/16 A2972 RMK AO2 LTG DSNT S AND SW RAB07 TSE52 SLP059 TS MOVD E P0003 60052 T01720161 10189 20156 56013 $=
201704052252 METAR KATL 052252Z 12013G19KT 10SM TS BKN010CB BKN020 BKN060 OVC200 18/16 A2973 RMK AO2 TSB41 PRESFR SLP061 OCNL LTGIC SW-NW TS VC SW-NW MOV E T01780161 $=
201704052241 SPECI KATL 052241Z 11013G20KT 10SM TS BKN010CB BKN020 OVC050 18/16 A2976 RMK AO2 LTG DSNT W AND NW TSB41 OCNL LTGIC SW-NW TS VC SW-NW MOV E T01830161 $=
201704052152 METAR KATL 052152Z 11009G16KT 10SM BKN010 BKN020 OVC050 19/17 A2974 RMK AO2 SLP066 T01890167 $=
201704052123 SPECI KATL 052123Z 10013KT 10SM BKN010 BKN020 BKN050 18/17 A2974 RMK AO2 T01830167 $=
201704052052 METAR KATL 052052Z 09012KT 10SM BKN007 BKN020 OVC050 18/17 A2976 RMK AO2 LTG DSNT NW-NE SLP073 CB DSNT N & E 60049 T01780167 56038 $=
201704052025 SPECI KATL 052025Z 10012KT 10SM BKN007 BKN020 OVC050 18/16 A2978 RMK AO2 LTG DSNT ALQDS CB DSNT N & NE & NW T01780161 $=
201704052022 SPECI KATL 052022Z 10008KT 10SM BKN007 BKN021 OVC055 17/16 A2979 RMK AO2 LTG DSNT ALQDS CB DSNT W-NW-N T01720161 $=
201704052004 SPECI KATL 052004Z 10012KT 10SM SCT007 BKN021 OVC080 18/16 A2979 RMK AO2 LTG DSNT W-N CB DSNT W-NW-N T01780161 $=
201704051952 METAR KATL 051952Z 10007G18KT 10SM BKN007 BKN021 OVC060 17/16 A2979 RMK AO2 LTG DSNT W AND NW SLP084 CB DSNT SW-NW T01720161 $=
201704051852 METAR KATL 051852Z 10010KT 9SM BKN008 BKN030 OVC040 17/16 A2983 RMK AO2 LTG DSNT W RAE21 TSE21 SLP098 TS MOV NE P0049 T01670161 $=
201704051847 SPECI KATL 051847Z 10011KT 9SM BKN008 BKN030 OVC040 17/16 A2984 RMK AO2 LTG DSNT NE RAE21 TSE21 OCNL LTGICCG DSNT NW-NE TS MOV NE CB DSNT NW-NE P0049 $=
201704051822 SPECI KATL 051822Z 09012KT 8SM FEW006 SCT020 OVC040 16/16 A2984 RMK AO2 LTG DSNT NE RAE21 TSE21 OCNL LTGICCG DSNT NW-NE TS MOV NE CB DSNT NW-NE P0049 T01610156 $=
201704051814 SPECI KATL 051814Z 09010KT 8SM -TSRA FEW010CB BKN020 OVC040 16/16 A2985 RMK AO2 LTG DSNT NE OCNL LTGICCG N-NE-E TS N-NE-E MOV NE P0049 T01610156 $=
201704051810 SPECI KATL 051810Z 09010KT 5SM R09R/4000VP6000FT -TSRA BR FEW010CB BKN020 OVC040 16/16 A2986 RMK AO2 LTG DSNT NE OCNL LTGICCG NE-E TS NE-E MOV NE P0049 T01610156 $=
201704051758 SPECI KATL 051758Z 05010G17KT 020V120 1SM R09R/2600V4500FT +TSRA BR FEW010CB BKN020 OVC040 16/16 A2986 RMK AO2 SFC VIS 2 LTG DSNT NE AND E OCNL LTGICCG OHD-NE-SE TS OHD-NE-SE MOV NE P0028 T01610156 $=
201704051756 SPECI KATL 051756Z VRB05G17KT 1SM R09R/2600V4000FT +TSRA BR FEW010CB BKN020 OVC040 16/16 A2987 RMK AO2 LTG DSNT NE AND E OCNL LTGICCG OHD-E-SE-S TS OHD-E-SE-S MOV NE P0019 T01610156 $=
201704051752 METAR KATL 051752Z 16014KT 1SM R09R/2600VP6000FT +TSRA BR FEW010CB BKN030 OVC040 16/16 A2987 RMK AO2 LTG DSNT ALQDS RAB1654 TSB24 SLP112 FRQ LTGICCG OHD TS OHD MOV NE P0049 60332 T01610156 10189 20161 53001 $=
201704051743 SPECI KATL 051743Z 10006KT 1SM R09R/4500VP6000FT TSRA BR FEW010CB BKN030 OVC050 16/16 A2982 RMK AO2 SFC VIS 2 LTG DSNT ALQDS RAB1654 TSB24 FRQ LTGICCG OHD-SE-SW TS OHD-SE-SW MOV NE P0018 T01610156 $=
201704051725 SPECI KATL 051725Z 05004KT 4SM TSRA BR FEW006 SCT020CB OVC040 16/16 A2983 RMK AO2 LTG DSNT ALQDS RAB1654 TSB24 OCNL LTGICCG OHD-SW-NW-N TS OHD-SW-NW-N P0006 T01610156 $=
201704051710 SPECI KATL 051710Z 13004KT 7SM VCTS -RA FEW006 SCT015CB OVC070 16/16 A2985 RMK AO2 LTG DSNT ALQDS RAB1654 OCNL LTGICCG VC SE & NW TS VC SE & NW P0001 T01610161 $=
201704051658 SPECI KATL 051658Z 16011KT 7SM VCTS -RA FEW006 SCT020CB OVC070 16/16 A2982 RMK AO2 LTG DSNT ALQDS RAB54 OCNL LTGICCG VC NE-SE & SW-NW TS VC NE-SE & SW-NW P0000 T01610156 $=
201704051652 METAR KATL 051652Z VRB05KT 7SM VCTS FEW006 SCT020CB OVC050 16/16 A2984 RMK AO2 PK WND 01028/1556 WSHFT 1539 LTG DSNT ALQDS RAEMM TSE50 SLP099 OCNL LTGICCG VC NE-SE TS VC NE-SE MOV NE P0098 T01610156 $=
201704051645 SPECI KATL 051645Z 08006KT 6SM -TSRA BR FEW005 BKN020CB OVC060 16/16 A2981 RMK AO2 PK WND 01028/1556 WSHFT 1539 LTG DSNT ALQDS OCNL LTGICG NE-SE TS NE-SE MOV NE P0097 T01610156 $=
201704051631 SPECI KATL 051631Z 08006KT 2SM R09R/2400VP6000FT +TSRA BR FEW005 BKN020CB OVC040 16/16 A2983 RMK AO2 PK WND 01028/1556 WSHFT 1539 LTG DSNT ALQDS FRQ LTGICCG NE-SE TS NE-SE MOV NE P0092 T01610156 $=
201704051628 SPECI KATL 051628Z 08006KT 3/4SM R09R/2400VP6000FT +TSRA BR FEW005 BKN020CB OVC030 16/16 A2984 RMK AO2 PK WND 01028/1556 WSHFT 1539 LTG DSNT ALQDS FRQ LTGICCG OHD TS OHD MOV NE P0088 T01610156 $=
201704051607 SPECI KATL 051607Z 36013KT 3/4SM R09R/3500VP6000FT +TSRA BR FEW006 BKN010CB OVC040 17/16 A2986 RMK AO2 PK WND 01028/1556 WSHFT 1539 LTG DSNT ALQDS OCNL LTGICCG OHD & ALQDS TS OHD & ALQDS MOV NE P0020 T01670156 $=
201704051554 SPECI KATL 051554Z 36021KT 1 1/2SM R09R/4500VP6000FT TSRA BR FEW006 BKN012CB OVC030 17/16 A2985 RMK AO2 WSHFT 1539 SFC VIS 3 LTG DSNT ALQDS OCNL LTGICCG OHD & ALQDS TS OHD & ALQDS MOV NE P0002 T01720161 $=
201704051548 SPECI KATL 051548Z 35016G30KT 1 1/2SM R09R/4500VP6000FT TSRA BR SCT006 BKN012CB OVC030 18/16 A2987 RMK AO2 PK WND 35030/1542 SFC VIS 2 LTG DSNT ALQDS RAE06B23 TSB44 FRQ LTGICCG OHD-SW-NW TS OHD-SW-NW MOV NE PNO=
201704051544 SPECI KATL 051544Z 36021G30KT 4SM -TSRA BR SCT006 BKN012CB OVC030 18/17 A2987 RMK AO2 PK WND 35030/1542 LTG DSNT ALQDS RAE06B23 TSB44 PRESRR FRQ LTGICCG SW-NW TS SW-NW MOV NE P0000 T01780167=
201704051533 SPECI KATL 051533Z 08003KT 3SM VCTS -RA FEW004 BKN012CB OVC030 18/18 A2984 RMK AO2 SFC VIS 10 LTG DSNT ALQDS RAE06B23 OCNL LTGICCG SW-NW TS VC SW-NW MOV NE P0000 T01830178=
201704051452 METAR KATL 051452Z 13007KT 3SM -RA BR SCT005 BKN023 OVC030 19/18 A2983 RMK AO2 SFC VIS 5 LTG DSNT ALQDS SLP096 TS MOV NE P0021 60180 T01890183 55003=
201704051419 SPECI KATL 051419Z 11004KT 3SM -RA BR FEW014 BKN030 OVC050 18/18 A2983 RMK AO2 SFC VIS 5 LTG DSNT ALQDS TSB1357 TS MOV NE P0013 T01830178=
201704051357 SPECI KATL 051357Z 01009KT 2SM R09R/6000VP6000FT TSRA BR SCT014CB BKN035 OVC050 18/17 A2983 RMK AO2 SFC VIS 3 LTG DSNT ALQDS TSB57 OCNL LTGICCG ALQDS TS ALQDS MOV NE P0005 T01780172=
201704051352 METAR KATL 051352Z 03007KT 2SM R09R/6000VP6000FT RA BR FEW005 BKN014 OVC025 18/18 A2983 RMK AO2 SFC VIS 3 LTG DSNT ALQDS TSE40 SLP094 TS MOV NE P0139 T01830178=
201704051340 SPECI KATL 051340Z 35011KT 2SM R09R/6000VP6000FT RA BR FEW005 BKN014 OVC020 18/18 A2982 RMK AO2 SFC VIS 3 LTG DSNT ALQDS TSE40 TS MOV NE P0129 T01830178=
201704051328 SPECI KATL 051328Z 36016G20KT 1SM R09R/3500VP6000FT TSRA BR FEW007 BKN012CB OVC025 18/18 A2983 RMK AO2 TWR VIS 2 LTG DSNT ALQDS FRQ LTGICCG NE-SE TS NE-SE MOV NE P0113 T01830178=
201704051324 SPECI KATL 051324Z 30012G17KT 2SM R09R/4000VP6000FT TSRA BR FEW007 BKN012CB OVC025 19/18 A2984 RMK AO2 SFC VIS 3 LTG DSNT ALQDS FRQ LTGICCG NE-SE TS NE-SE MOV NE P0103 T01890183=
201704051316 SPECI KATL 051316Z 14008KT 090V170 1SM R09R/2000V5500FT +TSRA BR FEW007 BKN010CB OVC025 19/18 A2980 RMK AO2 TWR VIS 2 LTG DSNT ALQDS FRQ LTGICCG OHD-NE-SE TS OHD-NE-SE MOV NE P0088 T01890183=
201704051309 SPECI KATL 051309Z 07011KT 1SM R09R/2000VP6000FT +TSRA BR FEW007 BKN014CB OVC025 19/18 A2982 RMK AO2 TWR VIS 2 LTG DSNT ALQDS FRQ LTGICCG ALQDS TS ALQDS MOV NE P0032 T01890183=
201704051305 SPECI KATL 051305Z 08007KT 2SM R09R/5500VP6000FT +TSRA BR FEW007 BKN019CB OVC025 19/18 A2982 RMK AO2 SFC VIS 3 LTG DSNT ALQDS FRQ LTGICCG ALQDS TS ALQDS MOV NE P0018 T01890183=
201704051252 METAR KATL 051252Z 09007KT 1 1/4SM R09R/4500VP6000FT +TSRA BR BKN007 OVC021CB 19/18 A2984 RMK AO2 TWR VIS 2 LTG DSNT ALQDS SLP095 TSE17B33 CONS LTGICCG OHD-ALQDS TS OHD-ALQDS MOV NE P0020 T01890183=
201704051247 SPECI KATL 051247Z 08003KT 1 1/4SM R09R/4500VP6000FT +TSRA BR BKN007 OVC011CB 19/18 A2985 RMK AO2 TWR VIS 2 LTG DSNT ALQDS TSE17B33 CONS LTGICCG OHD-ALQDS TS OHD-ALQDS MOV NE P0009=
201704051233 SPECI KATL 051233Z 13005KT 6SM -RA BR BKN008 OVC013CB 19/18 A2984 RMK AO2 LTG DSNT ALQDS TSE17 ONCL LTGIC SE-SW-W TS SE-SW-W MOV NE P0001 T01890183=
201704051217 SPECI KATL 051217Z 14004KT 8SM -RA SCT008 BKN013 OVC040 19/18 A2982 RMK AO2 LTG DSNT ALQDS TSE17 TS MOV E ONCL LTGIC DSNT S-W-NW CB DSNT S-W-NW P0001 T01890178=
201704051152 METAR KATL 051152Z VRB03KT 5SM -TSRA BR SCT008 BKN015CB OVC033 18/17 A2985 RMK AO2 LTG DSNT ALQDS RAB39 TSB34 SLP099 FRQ LTGICCG NE-SE TS NE-SE MOV NE CB DSNT SW-NW P0001 60001 70001 T01830172 10183 20161 55001=
201704051145 SPECI KATL 051145Z 11005KT 8SM -TSRA FEW007 OVC015CB 18/17 A2985 RMK AO2 LTG DSNT SW-N RAB39 TSB34 FRQ LTGICCG S&SW TS S&SW MOV NE CB DSNT SW-NW P0000 T01830172=
201704051134 SPECI KATL 051134Z 11004KT 8SM TS SCT007 OVC015 18/17 A2985 RMK AO2 LTG DSNT SW-N TSB34 OCNL LTGIC S TS VC S MOV NE CB DSNT SW-NW T01830167=
201704051127 SPECI KATL 051127Z 10004KT 8SM SCT007 OVC015 18/17 A2984 RMK AO2 LTG DSNT SW-N CB DSNT SW-NW MOV NE T01780167=
201704051112 SPECI KATL 051112Z 12003KT 10SM OVC006 18/16 A2985 RMK AO2 LTG DSNT SW CB DSNT SW MOV NE BINOVC T01780161=
201704051052 METAR KATL 051052Z 15003KT 10SM BKN005 OVC010 18/17 A2983 RMK AO2 SLP092 CIG 004V007 T01780167=
201704050952 METAR KATL 050952Z 18005KT 10SM BKN007 OVC250 17/14 A2985 RMK AO2 SLP101 CIG 006V008 T01720144=
201704050944 SPECI KATL 050944Z 18003KT 10SM BKN008 OVC250 17/14 A2986 RMK AO2 T01670139=
201704050940 SPECI KATL 050940Z 18004KT 10SM SCT009 17/14 A2985 RMK AO2 T01670139=
201704050852 METAR KATL 050852Z 20006KT 10SM FEW050 FEW150 BKN250 17/13 A2985 RMK AO2 SLP099 T01670128 56009=
201704050752 METAR KATL 050752Z 20006KT 10SM FEW050 FEW150 BKN250 17/12 A2985 RMK AO2 SLP101 T01720117=
201704050652 METAR KATL 050652Z 21004KT 10SM FEW150 SCT200 SCT250 17/11 A2987 RMK AO2 SLP106 T01720111=
201704050552 METAR KATL 050552Z 20007KT 10SM FEW050 SCT250 18/12 A2988 RMK AO2 SLP110 T01830117 10250 20183 58002=
201704050452 METAR KATL 050452Z 21007KT 10SM BKN250 19/11 A2988 RMK AO2 SLP110 T01940111 402780156=
201704050352 METAR KATL 050352Z 22007KT 10SM FEW200 BKN250 20/11 A2989 RMK AO2 SLP114 T02000111=
201704050252 METAR KATL 050252Z 21006KT 10SM FEW200 BKN250 21/10 A2988 RMK AO2 SLP111 T02060100 50014=
201704050152 METAR KATL 050152Z 22005KT 10SM SCT250 22/10 A2988 RMK AO2 SLP113 T02170100=
201704050052 METAR KATL 050052Z 20004KT 10SM SCT250 23/10 A2986 RMK AO2 SLP105 T02330100=
201704042352 METAR KATL 042352Z 20006KT 10SM FEW250 25/09 A2984 RMK AO2 SLP098 T02500094 10278 20250 53005=
201704042252 METAR KATL 042252Z 21005KT 10SM FEW250 27/08 A2983 RMK AO2 SLP093 T02670083=
201704042152 METAR KATL 042152Z 25008KT 10SM FEW250 28/09 A2982 RMK AO2 SLP090 T02780094=
201704042052 METAR KATL 042052Z 26009G14KT 10SM FEW070 FEW250 27/08 A2982 RMK AO2 SLP090 T02720083 56020=
201704041952 METAR KATL 041952Z 26013G18KT 10SM FEW065 FEW250 27/09 A2984 RMK AO2 SLP095 T02670094=
201704041852 METAR KATL 041852Z 28007KT 10SM FEW065 FEW250 26/09 A2986 RMK AO2 SLP102 T02610089=
201704041752 METAR KATL 041752Z 25005G16KT 10SM FEW060 FEW250 25/10 A2988 RMK AO2 SLP112 T02500100 10256 20161 58002=
201704041652 METAR KATL 041652Z 26008KT 230V300 10SM FEW050 SCT200 SCT250 24/12 A2989 RMK AO2 SLP115 T02440117=
201704041552 METAR KATL 041552Z 30007KT 250V340 10SM FEW040 SCT200 BKN250 23/12 A2990 RMK AO2 SLP118 T02330117=
201704041452 METAR KATL 041452Z 28005KT 10SM FEW030 FEW250 22/14 A2989 RMK AO2 SLP115 T02220139 53008=
201704041352 METAR KATL 041352Z 26008KT 10SM SCT250 19/15 A2987 RMK AO2 SLP110 T01940150=
201704041252 METAR KATL 041252Z 24006KT 10SM FEW003 FEW250 18/16 A2987 RMK AO2 SLP109 T01780156=
201704041205 SPECI KATL 041205Z 24005KT 6SM BR FEW003 16/16 A2986 RMK AO2 T01610156=
201704041152 METAR KATL 041152Z 22006KT 1/2SM R09R/P6000FT BR BKN004 16/16 A2986 RMK AO2 SFC VIS 5 SLP108 CIG 003V005 TWRINC 70053 T01610156 10183 20156 53016=
201704041137 SPECI KATL 041137Z 23007KT 1/2SM R09R/P6000FT BR BKN004 16/16 A2986 RMK AO2 SFC VIS 4 CIG 003V005 T01610156=
201704041128 SPECI KATL 041128Z 21007KT 5SM BR FEW004 FEW050 16/16 A2985 RMK AO2 T01560156=
201704041052 METAR KATL 041052Z 25006KT 10SM FEW012 FEW025 16/16 A2984 RMK AO2 SLP099 T01610156=
201704040952 METAR KATL 040952Z 27008KT 10SM FEW010 17/16 A2982 RMK AO2 SLP092 T01670161=
201704040852 METAR KATL 040852Z 25009KT 10SM FEW010 17/16 A2981 RMK AO2 SLP091 T01720161 53006=
201704040752 METAR KATL 040752Z 23011KT 10SM SCT012 SCT025 18/16 A2980 RMK AO2 SLP087 T01780161=
201704040706 SPECI KATL 040706Z 24012KT 10SM SCT012 SCT018 SCT060 18/16 A2979 RMK AO2 T01780161=
201704040652 METAR KATL 040652Z 25011G20KT 10SM BKN012 BKN060 18/16 A2979 RMK AO2 SLP084 BKN012 V SCT T01830161=
201704040552 METAR KATL 040552Z 24010KT 10SM BKN013 OVC023 18/16 A2979 RMK AO2 SLP086 CIG 010V016 BINOVC T01780161 10183 20167 51011=
201704040452 METAR KATL 040452Z 23008KT 10SM BKN010 OVC015 17/16 A2978 RMK AO2 SLP082 BINOVC T01720156 402060150=
201704040403 SPECI KATL 040403Z 24008KT 10SM BKN010 17/16 A2978 RMK AO2 T01670156=
201704040352 METAR KATL 040352Z 23010KT 10SM SCT010 SCT250 17/16 A2978 RMK AO2 SLP078 T01670156=
201704040252 METAR KATL 040252Z 22010KT 10SM FEW015 SCT250 17/16 A2976 RMK AO2 SLP072 T01720156 51012=
201704040152 METAR KATL 040152Z 21009KT 10SM SCT017 SCT025 BKN250 17/15 A2975 RMK AO2 SLP069 T01720150=
201704040139 SPECI KATL 040139Z 22012G18KT 10SM SCT017 SCT025 BKN250 18/15 A2975 RMK AO2 T01780150=
201704040052 METAR KATL 040052Z 21011G17KT 10SM OVC020 18/16 A2974 RMK AO2 SLP064 BINOVC T01830156=
201704040005 SPECI KATL 040005Z 20010G14KT 10SM BKN020 BKN250 18/16 A2973 RMK AO2 T01780156=
201704032352 METAR KATL 032352Z 20009KT 10SM SCT020 BKN250 18/15 A2973 RMK AO2 SLP060 60013 T01830150 10194 20156 53006=
201704032252 METAR KATL 032252Z 19014G18KT 10SM FEW150 SCT200 BKN250 19/15 A2971 RMK AO2 SLP056 T01890150=
201704032152 METAR KATL 032152Z 20014G19KT 10SM FEW150 SCT200 BKN250 19/15 A2971 RMK AO2 SLP053 T01940150=
201704032052 METAR KATL 032052Z 20010G18KT 10SM FEW120 BKN150CB BKN220 18/14 A2971 RMK AO2 SLP053 CBMAM OHD-NE-SE VIRGA OHD & ALQDS 60013 T01830144 55062=
201704031952 METAR KATL 031952Z 18014G22KT 10SM FEW120 BKN170 BKN250 17/14 A2969 RMK AO2 PK WND 15027/1935 RAE49 SLP049 VIRGA OHD-NE-SE & DSNT W P0004 T01720144=
201704031949 SPECI KATL 031949Z 19016G22KT 10SM FEW120 BKN170 BKN250 17/14 A2969 RMK AO2 PK WND 15027/1935 RAE49 VIRGA OHD-NE-SE & DSNT W P0004=
201704031852 METAR KATL 031852Z 19010KT 5SM -RA BR FEW040 SCT070 OVC090 16/14 A2985 RMK AO2 PRESFR SLP105 P0009 T01610144=
201704031752 METAR KATL 031752Z 31006KT 10SM -RA FEW050 BKN090 OVC110 16/14 A2989 RMK AO2 LTG DSNT E SLP119 TS MOV E P0009 60040 T01560144 10200 20150 50011=
201704031702 SPECI KATL 031702Z 32011G19KT 8SM -RA FEW010CB BKN050 OVC070 15/14 A2994 RMK AO2 LTG DSNT E-S TS MOV E P0002 T01500139=
201704031652 METAR KATL 031652Z 30014G23KT 3SM -TSRA BR FEW010CB BKN050 OVC080 15/14 A2994 RMK AO2 PK WND 32034/1611 WSHFT 1550 SFC VIS 4 LTG DSNT ALQDS RAB01 TSB1558 SLP134 OCNL LTGICCG NE-SE TS NE-SE MOV NE P0028 T01500144=
201704031631 SPECI KATL 031631Z 31019G25KT 3SM R09R/6000VP6000FT +TSRA BR FEW013CB BKN040 OVC060 15/14 A2992 RMK AO2 PK WND 32034/1611 WSHFT 1550 LTG DSNT ALQDS RAB01 TSB1558 OCNL LTGICCG OHD & ALQDS TS OHD & ALQDS MOV NE P0020 T01500139=
201704031620 SPECI KATL 031620Z 32018G34KT 3SM -TSRA BR SCT013CB BKN030 OVC050 16/14 A2992 RMK AO2 PK WND 32034/1611 WSHFT 1550 SFC VIS 5 LTG DSNT ALQDS RAB01 TSB1558 OCNL LTGICCG OHD & ALQDS TS OHD & ALQDS MOV NE P0013 T01560144=
201704031607 SPECI KATL 031607Z 31025G31KT 3SM TSRA BR BKN010CB BKN015 OVC023 16/15 A2993 RMK AO2 PK WND 30031/1606 WSHFT 1550 LTG DSNT ALQDS RAB01 TSB1558 OCNL LTGICCG OHD & ALQDS TS OHD & ALQDS MOV NE P0005 T01610150=
201704031602 SPECI KATL 031602Z 30022G29KT 1SM R09R/P6000FT +TSRA BR BKN010CB OVC015 18/17 A2993 RMK AO2 PK WND 29029/1559 LTG DSNT ALQDS RAB01 TSB1558 PRESRR OCNL LTGICCG OHD-SW-NW TS OHD-SW-NW MOV NE P0001 T01830167=
201704031558 SPECI KATL 031558Z 26016G22KT 220V280 10SM TS BKN010CB OVC015 20/19 A2989 RMK AO2 LTG DSNT ALQDS TSB58 OCNL LTGICCG SW-NW TS SW-NW MOV NE T02000189=
201704031552 METAR KATL 031552Z 20010KT 10SM VCTS BKN010CB BKN015 OVC020 20/19 A2988 RMK AO2 LTG DSNT SW-NW RAB30E47 SLP112 OCNL LTGICCG SW-NW TS VC SW-NW MOV NE P0002 T02000189=
201704031532 SPECI KATL 031532Z 19010G21KT 4SM -RA BR BKN010CB BKN014 OVC020 20/18 A2987 RMK AO2 LTG DSNT W-N RAB30 CB OHD MOV NE CB DSNT SW-NW P0001 T02000183=
201704031523 SPECI KATL 031523Z 18013KT 10SM FEW008 BKN010 OVC020 20/18 A2987 RMK AO2 LTG DSNT W AND NW CB DSNT SW-NW T02000183=
201704031452 METAR KATL 031452Z 17014G20KT 10SM BKN008 BKN013 OVC020 19/18 A2986 RMK AO2 LTG DSNT E AND NW RAE11 SLP104 CB DSNT NE-SE & SW-NW P0001 60001 T01940183 55006=
201704031444 SPECI KATL 031444Z 17012G20KT 10SM BKN008 BKN013 OVC020 19/18 A2987 RMK AO2 LTG DSNT ALQDS RAE11 CB DSNT NE-SE & SW-NW P0001 T01940178=
201704031352 METAR KATL 031352Z 16011G19KT 8SM -RA OVC014 19/17 A2984 RMK AO2 LTG DSNT NW RAE21B50 SLP098 CB DSNT SW-NW P0000 T01940172=
201704031332 SPECI KATL 031332Z 14010KT 10SM BKN014 OVC021 19/17 A2985 RMK AO2 LTG DSNT W AND NW RAE21 CB DSNT SW-NW P0000 T01940172=
201704031306 SPECI KATL 031306Z 15012KT 10SM -RA BKN015 OVC021 19/17 A2988 RMK AO2 LTG DSNT NW CB DSNT NW P0000 T01940167=
201704031252 METAR KATL 031252Z 16013KT 9SM -RA OVC013 19/17 A2988 RMK AO2 RAB44 SLP111 P0000 T01890167=
201704031152 METAR KATL 031152Z 14010G18KT 10SM BKN013 OVC100 19/17 A2988 RMK AO2 SLP110 T01890167 10200 20189 56019=
201704031052 METAR KATL 031052Z 14011KT 10SM BKN013 OVC250 19/17 A2988 RMK AO2 SLP110 T01890167=
201704030952 METAR KATL 030952Z 14008KT 10SM OVC012 19/17 A2989 RMK AO2 SLP113 T01890167=
201704030859 SPECI KATL 030859Z 13008KT 10SM BKN014 OVC065 19/16 A2994 RMK AO2 T01890161 $=
201704030852 METAR KATL 030852Z 14008KT 10SM BKN015 OVC075 19/16 A2994 RMK AO2 SLP129 T01890161 55007 $=
201704030811 SPECI KATL 030811Z 13007KT 10SM BKN018 OVC075 19/16 A2993 RMK AO2 T01890156 $=
201704030752 METAR KATL 030752Z 13010KT 10SM FEW080 BKN200 OVC250 19/15 A2993 RMK AO2 SLP126 T01890150 $=
201704030652 METAR KATL 030652Z 13007KT 10SM FEW120 BKN220 19/13 A2995 RMK AO2 SLP133 T01940133 $=
201704030552 METAR KATL 030552Z 13010KT 10SM FEW140 SCT200 OVC250 20/13 A2996 RMK AO2 PRESFR SLP137 T02000128 10261 20200 58006 $=
201704030452 METAR KATL 030452Z 13008KT 10SM FEW140 OVC200 21/12 A2998 RMK AO2 SLP143 T02060117 402780122 $=
201704030352 METAR KATL 030352Z 13010KT 10SM FEW140 BKN200 OVC250 22/10 A2999 RMK AO2 SLP148 T02170100 $=
201704030252 METAR KATL 030252Z 11007KT 10SM FEW140 BKN200 BKN250 22/09 A2998 RMK AO2 SLP145 T02220094 53005 $=
201704030152 METAR KATL 030152Z 11008KT 10SM FEW140 BKN200 BKN250 23/09 A2998 RMK AO2 SLP144 T02330094 $=
201704030052 METAR KATL 030052Z 09008KT 10SM FEW150 BKN200 BKN250 22/08 A2996 RMK AO2 SLP141 T02220083 $=
201704022352 METAR KATL 022352Z 12005KT 10SM FEW150 BKN200 BKN250 26/07 A2997 RMK AO2 SLP141 T02610072 10278 20244 56017 $=
201704022252 METAR KATL 022252Z 14006KT 10SM BKN200 BKN250 27/07 A2997 RMK AO2 SLP143 T02720072 $=
201704022152 METAR KATL 022152Z 12008KT 10SM BKN200 BKN250 28/08 A2999 RMK AO2 SLP151 T02780078 $=
201704022052 METAR KATL 022052Z 17006KT 10SM SCT200 BKN250 28/08 A3002 RMK AO2 SLP158 T02780083 56021 $=
201704021952 METAR KATL 021952Z 13010G16KT 10SM FEW070 SCT250 27/09 A3003 RMK AO2 SLP164 T02670089 $=
201704021852 METAR KATL 021852Z VRB04KT 10SM FEW060 SCT250 26/09 A3006 RMK AO2 SLP173 T02560094 $=
201704021752 METAR KATL 021752Z VRB04KT 10SM FEW060 FEW250 24/09 A3008 RMK AO2 SLP180 T02390089 10239 20133 58020 $=
201704021652 METAR KATL 021652Z 11006KT 10SM FEW250 23/10 A3012 RMK AO2 SLP194 T02280100 $=
201704021552 METAR KATL 021552Z 11007KT 10SM FEW250 21/09 A3015 RMK AO2 SLP205 T02060094 $=
201704021452 METAR KATL 021452Z 10008KT 10SM FEW250 19/09 A3014 RMK AO2 SLP202 T01890094 51012 $=
201704021352 METAR KATL 021352Z 10009KT 10SM FEW250 16/08 A3014 RMK AO2 SLP201 T01610083 $=
201704021252 METAR KATL 021252Z 07012KT 10SM FEW250 15/08 A3012 RMK AO2 SLP195 T01500083 $=
201704021152 METAR KATL 021152Z 06007KT 10SM FEW250 13/08 A3011 RMK AO2 SLP191 T01330078 10144 20122 53019 $=
201704021052 METAR KATL 021052Z 02006KT 10SM FEW250 14/07 A3008 RMK AO2 SLP180 T01390072 $=
201704020952 METAR KATL 020952Z 03003KT 10SM FEW250 13/07 A3006 RMK AO2 SLP172 T01330067 $=
201704020852 METAR KATL 020852Z 35005KT 10SM FEW250 13/07 A3005 RMK AO2 SLP171 T01280072 55008 $=
201704020752 METAR KATL 020752Z 36007KT 10SM SCT250 14/07 A3004 RMK AO2 SLP168 T01390072 $=
201704020652 METAR KATL 020652Z 34006KT 10SM FEW250 14/07 A3005 RMK AO2 SLP172 T01390072 $=
201704020552 METAR KATL 020552Z 29004KT 10SM FEW250 14/07 A3008 RMK AO2 SLP179 T01440072 10217 20144 58004 $=
201704020452 METAR KATL 020452Z 31006KT 10SM FEW250 16/07 A3008 RMK AO2 SLP181 T01560072 402500106 $=
201704020352 METAR KATL 020352Z 31006KT 10SM FEW200 FEW250 16/07 A3008 RMK AO2 SLP183 T01610072 $=
201704020252 METAR KATL 020252Z 32007KT 10SM SCT250 18/08 A3009 RMK AO2 SLP185 T01780078 53014 $=
201704020152 METAR KATL 020152Z 33007KT 10SM FEW200 SCT250 19/07 A3008 RMK AO2 SLP182 T01890072 $=
201704020052 METAR KATL 020052Z 33008KT 10SM FEW200 SCT250 21/08 A3005 RMK AO2 SLP174 T02060083 $=
201704012352 METAR KATL 012352Z 31008KT 10SM FEW200 SCT250 22/08 A3005 RMK AO2 SLP171 T02170078 10250 20217 53008 $=
201704012252 METAR KATL 012252Z 31013KT 10SM FEW200 SCT250 23/08 A3004 RMK AO2 SLP167 T02330078 $=
201704012152 METAR KATL 012152Z 33010G16KT 10SM FEW250 24/09 A3003 RMK AO2 SLP162 T02440089 $=
201704012052 METAR KATL 012052Z VRB05G14KT 10SM FEW250 24/08 A3002 RMK AO2 SLP161 T02440078 56011 $=
201704011952 METAR KATL 011952Z 33011KT 10SM CLR 24/07 A3003 RMK AO2 SLP164 T02390072 $=
201704011852 METAR KATL 011852Z 30010KT 10SM CLR 24/09 A3004 RMK AO2 SLP169 T02390089 $=
201704011752 METAR KATL 011752Z 31011KT 10SM CLR 22/08 A3005 RMK AO2 SLP173 T02220078 10222 20111 58002 $=
201704011652 METAR KATL 011652Z 32010KT 10SM CLR 21/08 A3006 RMK AO2 SLP174 T02110083 $=
201704011552 METAR KATL 011552Z 34012G17KT 10SM CLR 19/08 A3007 RMK AO2 SLP177 T01940083 $=
201704011452 METAR KATL 011452Z 31012KT 10SM CLR 17/09 A3006 RMK AO2 SLP175 T01720089 51007 $=
201704011352 METAR KATL 011352Z 31010KT 10SM CLR 15/09 A3006 RMK AO2 SLP175 T01500089 $=
201704011252 METAR KATL 011252Z 31009KT 10SM CLR 13/09 A3006 RMK AO2 SLP176 T01280089 $=
