##########################################################
# Query made at 04/19/2024 23:56:09 UTC
# Time interval: from 10/01/2017 12:00  to 10/31/2017 12:59  UTC
##########################################################

##########################################################
# KATL, Atlanta, Hartsfield - Jackson Atlanta International Airport (United States)
# WMO index: 72219. WIGOS ID: 0-20000-0-72219
# Latitude 33-38-59N. Longitude 084-25-00W. Altitude 312 m.
##########################################################

201710311252 METAR KATL 311252Z 28005KT 10SM CLR 09/07 A3016 RMK AO2 SLP216 T00890067=
201710311152 METAR KATL 311152Z 00000KT 10SM CLR 08/06 A3014 RMK AO2 SLP208 T00830056 10100 20078 53015=
201710311052 METAR KATL 311052Z 26003KT 10SM CLR 08/06 A3013 RMK AO2 SLP203 T00830056=
201710310952 METAR KATL 310952Z 22006KT 10SM CLR 09/06 A3011 RMK AO2 SLP196 T00940061=
201710310852 METAR KATL 310852Z 26005KT 10SM CLR 10/06 A3010 RMK AO2 SLP190 T01000056 51004=
201710310752 METAR KATL 310752Z 24005KT 10SM CLR 09/06 A3010 RMK AO2 SLP191 T00940056=
201710310652 METAR KATL 310652Z 24003KT 10SM CLR 09/06 A3009 RMK AO2 SLP189 T00940056=
201710310552 METAR KATL 310552Z 23005KT 10SM CLR 10/06 A3008 RMK AO2 SLP186 T01000056 10139 20100 50005=
201710310452 METAR KATL 310452Z 23004KT 10SM CLR 11/06 A3009 RMK AO2 SLP188 T01060056 401890000=
201710310352 METAR KATL 310352Z 22004KT 10SM CLR 11/06 A3008 RMK AO2 SLP185 T01110056=
201710310252 METAR KATL 310252Z 22005KT 10SM CLR 11/06 A3007 RMK AO2 SLP184 T01110061 51011=
201710310152 METAR KATL 310152Z 23005KT 10SM CLR 12/06 A3006 RMK AO2 SLP181 T01220056=
201710310052 METAR KATL 310052Z 23005KT 10SM CLR 13/06 A3005 RMK AO2 SLP178 T01280056=
201710302352 METAR KATL 302352Z 23004KT 10SM CLR 14/06 A3004 RMK AO2 SLP174 T01390061 10189 20133 53011=
201710302252 METAR KATL 302252Z 22005KT 10SM CLR 15/06 A3002 RMK AO2 SLP168 T01500056=
201710302152 METAR KATL 302152Z 24007KT 10SM CLR 18/04 A3001 RMK AO2 SLP162 T01780039=
201710302052 METAR KATL 302052Z 24006KT 10SM CLR 18/03 A3000 RMK AO2 SLP161 T01830033 56009=
201710301952 METAR KATL 301952Z 28007G14KT 240V300 10SM CLR 18/02 A3000 RMK AO2 SLP161 T01780017=
201710301852 METAR KATL 301852Z 27011G15KT 10SM CLR 17/02 A3001 RMK AO2 SLP164 T01720017=
201710301752 METAR KATL 301752Z 29008KT 10SM CLR 16/03 A3003 RMK AO2 SLP172 T01610028 10161 20006 58006=
201710301652 METAR KATL 301652Z 28007KT 10SM CLR 14/01 A3005 RMK AO2 SLP179 T01440011=
201710301552 METAR KATL 301552Z 31004KT 10SM CLR 12/01 A3005 RMK AO2 SLP179 T01170006=
201710301452 METAR KATL 301452Z 31006KT 10SM CLR 08/01 A3005 RMK AO2 SLP180 T00830006 51017=
201710301352 METAR KATL 301352Z 30007KT 10SM CLR 05/01 A3004 RMK AO2 SLP178 T00500006=
201710301252 METAR KATL 301252Z 28005KT 10SM CLR 02/M01 A3003 RMK AO2 SLP175 T00221011=
201710301152 METAR KATL 301152Z 29005KT 10SM CLR 01/M02 A3000 RMK AO2 SLP166 T00061017 10017 20000 51014=
201710301052 METAR KATL 301052Z 28006KT 10SM CLR 01/M01 A2999 RMK AO2 SLP162 T00061011=
201710300952 METAR KATL 300952Z 29007KT 10SM CLR 01/M01 A2997 RMK AO2 SLP154 T00061011=
201710300852 METAR KATL 300852Z 28006KT 10SM CLR 01/M01 A2996 RMK AO2 SLP150 T00061011 51016=
201710300752 METAR KATL 300752Z 27005KT 10SM CLR 01/M01 A2994 RMK AO2 SLP146 T00061011=
201710300652 METAR KATL 300652Z 28005KT 10SM CLR 01/M01 A2992 RMK AO2 SLP140 T00111011=
201710300552 METAR KATL 300552Z 32007KT 10SM CLR 02/M01 A2991 RMK AO2 SLP134 T00171011 10039 20011 53012=
201710300452 METAR KATL 300452Z 29005KT 10SM CLR 02/M01 A2990 RMK AO2 SLP131 T00171011 400720011=
201710300352 METAR KATL 300352Z 30007KT 10SM CLR 02/M01 A2988 RMK AO2 SLP125 T00221006=
201710300252 METAR KATL 300252Z 31009KT 10SM CLR 02/00 A2987 RMK AO2 SLP123 T00220000 53007=
201710300152 METAR KATL 300152Z 30008KT 10SM CLR 03/00 A2986 RMK AO2 SLP118 T00280000=
201710300052 METAR KATL 300052Z 31009KT 10SM CLR 03/00 A2985 RMK AO2 SLP114 T00330000=
201710292352 METAR KATL 292352Z 32010KT 10SM CLR 04/00 A2985 RMK AO2 SLP114 T00390000 10072 20039 51005=
201710292252 METAR KATL 292252Z 31009KT 10SM FEW032 05/M01 A2985 RMK AO2 PK WND 30026/2200 SLP113 T00501006=
201710292152 METAR KATL 292152Z 31020G27KT 10SM SCT035 06/M01 A2984 RMK AO2 PK WND 30030/2058 SLP110 T00611011=
201710292052 METAR KATL 292052Z 31020G31KT 10SM BKN034 06/M01 A2984 RMK AO2 PK WND 30032/2035 SLP108 T00611011 53004=
201710291952 METAR KATL 291952Z 33017G29KT 10SM BKN034 06/M01 A2982 RMK AO2 PK WND 32029/1944 SLP102 T00561011=
201710291907 SPECI KATL 291907Z 30021G27KT 10SM OVC030 05/M01 A2982 RMK AO2 PK WND 30028/1856 T00501011=
201710291852 METAR KATL 291852Z 30022G30KT 10SM OVC028 05/M01 A2982 RMK AO2 PK WND 31030/1808 SLP102 T00501006=
201710291752 METAR KATL 291752Z 31021G34KT 10SM OVC028 05/M01 A2982 RMK AO2 PK WND 31034/1746 SLP103 T00501006 10050 20033 58001=
201710291652 METAR KATL 291652Z 32019G32KT 10SM OVC022 04/M01 A2983 RMK AO2 PK WND 33032/1650 SLP107 T00391006=
201710291552 METAR KATL 291552Z 32021G30KT 10SM OVC023 03/M01 A2983 RMK AO2 PK WND 32030/1549 SLP106 T00331011=
201710291452 METAR KATL 291452Z 31019G28KT 10SM OVC027 03/M01 A2983 RMK AO2 PK WND 32029/1358 SLP105 T00331006 51017=
201710291352 METAR KATL 291352Z 31016G28KT 10SM OVC025 03/M01 A2981 RMK AO2 PK WND 33028/1321 SLP099 T00331006=
201710291252 METAR KATL 291252Z 30014G22KT 10SM OVC022 03/00 A2979 RMK AO2 SLP093 T00330000=
201710291152 METAR KATL 291152Z 30014G21KT 10SM OVC020 03/01 A2977 RMK AO2 SLP086 70058 T00330006 10056 20033 53004=
201710291052 METAR KATL 291052Z 31016G23KT 10SM OVC019 03/01 A2976 RMK AO2 SLP083 T00330006=
201710290952 METAR KATL 290952Z 31015KT 10SM BKN017 03/01 A2976 RMK AO2 SLP083 CIG 016V020 T00330011=
201710290909 SPECI KATL 290909Z 30014G22KT 10SM BKN018 04/02 A2976 RMK AO2 CIG 015V020 T00390022=
201710290852 METAR KATL 290852Z 31014KT 10SM SCT018 04/02 A2976 RMK AO2 PK WND 33026/0756 SLP081 SCT018 V BKN T00390017 58008=
201710290752 METAR KATL 290752Z 31015G30KT 10SM BKN020 OVC030 05/02 A2977 RMK AO2 PK WND 34030/0743 SLP082 T00500022=
201710290652 METAR KATL 290652Z 32015G24KT 10SM BKN017 OVC030 05/03 A2978 RMK AO2 SLP084 CIG 015V019 T00500028=
201710290552 METAR KATL 290552Z 31013G20KT 10SM BKN018 OVC030 06/03 A2979 RMK AO2 SLP087 60001 T00560033 10089 20056 58012=
201710290452 METAR KATL 290452Z 32016G23KT 10SM BKN017 OVC030 06/04 A2980 RMK AO2 SLP093 CIG 015V019 T00560039 401830056=
201710290352 METAR KATL 290352Z 32011G20KT 10SM BKN015 OVC030 06/05 A2982 RMK AO2 SLP097 CIG 013V017 T00610050=
201710290252 METAR KATL 290252Z 33019G25KT 10SM OVC010 07/06 A2982 RMK AO2 DZE29 SLP099 CIG 008V012 P0000 60001 T00670056 51009=
201710290223 SPECI KATL 290223Z 33013KT 8SM -DZ OVC007 07/07 A2982 RMK AO2 CIG 005V009 P0000 T00720067=
201710290152 METAR KATL 290152Z 31013KT 6SM -DZ BR OVC004 07/07 A2982 RMK AO2 DZB47 SLP098 CIG 003V005 P0000 T00720072=
201710290113 SPECI KATL 290113Z 32014KT 8SM OVC004 08/08 A2981 RMK AO2 CIG 003V006 T00780078=
201710290052 METAR KATL 290052Z 33015KT 10SM OVC007 08/08 A2981 RMK AO2 RAE52 SLP095 CIG 005V009 P0001 T00830078=
201710282352 METAR KATL 282352Z 32015G19KT 8SM -RA BKN007 OVC012 09/09 A2980 RMK AO2 SLP089 CIG 005V009 P0002 60057 T00890089 10178 20089 51011=
201710282252 METAR KATL 282252Z 31010KT 4SM RA BR BKN008 BKN018 OVC030 09/09 A2979 RMK AO2 SLP087 CIG 006V010 P0020 T00940094=
201710282243 SPECI KATL 282243Z 31011KT 6SM -RA BR BKN008 BKN026 OVC065 09/09 A2979 RMK AO2 CIG 006V010 P0018 T00940094=
201710282211 SPECI KATL 282211Z 32011KT 2SM RA BR BKN007 BKN028 OVC065 10/09 A2980 RMK AO2 LTG DSNT E CIG 005V009 CB DSNT E P0007 T01000094=
201710282152 METAR KATL 282152Z 32007G20KT 3SM RA BR BKN006 BKN035 OVC075 10/10 A2978 RMK AO2 TSB10E49 SLP085 TS MOV NE CIG 004V008 P0026 T01000100=
201710282132 SPECI KATL 282132Z 32015KT 2 1/2SM TSRA BR BKN006 BKN028CB OVC055 11/11 A2978 RMK AO2 LTG DSNT SE TSB10 CIG 004V008 OCNL LTGICCA OHD-ALQDS TS OHD-ALQDS MOV NE CB DSNT SE P0020 T01060106=
201710282125 SPECI KATL 282125Z 31013KT 1 1/2SM +TSRA BR BKN006 BKN013 OVC026CB 11/11 A2978 RMK AO2 LTG DSNT S TSB10 CIG 004V008 OCNL LTGICCA OHD-ALQDS TS OHD-ALQDS MOV NE CB DSNT S P0017 T01060106=
201710282112 SPECI KATL 282112Z 30012KT 1SM R09R/P6000FT +TSRA BR SCT005 OVC026CB 11/11 A2978 RMK AO2 LTG DSNT SW TSB10 OCNL LTGICCA NE-OHD-SW TS NE-OHD-SW MOV NE CB DSNT SW P0006 T01110111=
201710282104 SPECI KATL 282104Z 30008KT 3SM RA BR SCT005 BKN020 OVC032 12/12 A2977 RMK AO2 LTG DSNT SW CB DSNT SW P0003 T01170117=
201710282052 METAR KATL 282052Z 33010KT 3SM -RA BR BKN005 BKN012 OVC026 12/12 A2976 RMK AO2 SLP076 P0008 60009 T01170117 56005=
201710282032 SPECI KATL 282032Z 31012KT 4SM RA BR FEW003 BKN006 OVC012 12/12 A2977 RMK AO2 P0004 T01220122=
201710282024 SPECI KATL 282024Z 32013KT 1SM R09R/P6000FT -RA BR FEW004 BKN006 OVC012 12/12 A2977 RMK AO2 SFC VIS 4 TWRINC P0002 T01220122=
201710281959 SPECI KATL 281959Z 32012KT 1SM R09R/P6000FT -RA BR BKN004 OVC012 14/14 A2977 RMK AO2 SFC VIS 4 TWRINC P0000 T01390139=
201710281952 METAR KATL 281952Z 32013G17KT 5SM -RA BR BKN005 OVC011 16/16 A2976 RMK AO2 RAE1854B30 SLP076 P0000 T01560156=
201710281946 SPECI KATL 281946Z 30005KT 9SM -RA FEW005 OVC011 17/17 A2977 RMK AO2 RAE1854B30 P0000=
201710281922 SPECI KATL 281922Z 26003KT 10SM OVC014 17/16 A2977 RMK AO2 RAE1854 P0000 T01720161=
201710281852 METAR KATL 281852Z 20003KT 10SM -RA OVC016 18/16 A2978 RMK AO2 SLP079 P0001 T01780161=
201710281803 SPECI KATL 281803Z 20006KT 8SM -RA BKN020 BKN028 OVC060 18/16 A2980 RMK AO2 P0000 T01780156=
201710281752 METAR KATL 281752Z 19008KT 8SM -RA SCT020 OVC060 17/15 A2981 RMK AO2 RAB02 SLP089 P0000 60000 T01720150 10183 20150 58023=
201710281652 METAR KATL 281652Z 20009KT 10SM BKN018 BKN120 18/15 A2984 RMK AO2 SLP099 T01780150=
201710281552 METAR KATL 281552Z 18009KT 10SM BKN022 OVC065 18/14 A2986 RMK AO2 SLP108 T01830144=
201710281452 METAR KATL 281452Z 17010KT 10SM SCT019 SCT050 BKN095 16/13 A2988 RMK AO2 RAB38E41 SLP114 P0000 60000 T01610133 58001=
201710281352 METAR KATL 281352Z 16007KT 10SM FEW024 BKN140 BKN250 16/13 A2989 RMK AO2 SLP118 T01560128=
201710281333 SPECI KATL 281333Z 16006KT 10SM SCT025 BKN050 BKN140 15/12 A2990 RMK AO2 T01500122=
201710281252 METAR KATL 281252Z 22005KT 10SM BKN026 BKN041 OVC065 15/12 A2991 RMK AO2 RAB32E42 SLP123 P0000 T01500122=
201710281247 SPECI KATL 281247Z 25006KT 10SM BKN026 BKN041 OVC050 15/12 A2991 RMK AO2 RAB32E42 P0000=
201710281152 METAR KATL 281152Z 16008KT 10SM FEW028 SCT065 BKN085 OVC180 15/12 A2988 RMK AO2 SLP115 60000 T01500117 10167 20150 58005=
201710281052 METAR KATL 281052Z 16009KT 10SM FEW034 BKN055 OVC080 15/11 A2990 RMK AO2 SLP120 T01500106=
201710280952 METAR KATL 280952Z 16009KT 10SM FEW055 BKN075 OVC100 15/10 A2989 RMK AO2 RAB0856E08 SLP116 P0000 T01500100=
201710280852 METAR KATL 280852Z 17009KT 10SM SCT055 BKN080 BKN110 OVC250 15/09 A2990 RMK AO2 RAB39E50 SLP119 P0000 60000 T01500094 58014=
201710280752 METAR KATL 280752Z 17011KT 10SM FEW044 BKN065 OVC090 16/09 A2992 RMK AO2 SLP126 T01560089=
201710280652 METAR KATL 280652Z 17011KT 10SM FEW040 BKN065 BKN095 16/08 A2993 RMK AO2 SLP127 T01610083=
201710280552 METAR KATL 280552Z 18007KT 10SM FEW040 BKN065 BKN090 17/08 A2994 RMK AO2 SLP133 T01670083 10189 20167 56017=
201710280452 METAR KATL 280452Z 16010KT 10SM SCT065 BKN090 BKN250 17/08 A2995 RMK AO2 SLP137 T01670083 402330089=
201710280352 METAR KATL 280352Z 16009KT 10SM SCT065 BKN090 BKN250 17/08 A2998 RMK AO2 SLP146 T01670083=
201710280252 METAR KATL 280252Z 18008KT 10SM FEW060 SCT085 17/08 A2999 RMK AO2 SLP151 T01720083 53001=
201710280152 METAR KATL 280152Z 14007KT 10SM FEW060 BKN085 18/09 A2997 RMK AO2 SLP148 T01780089=
201710280052 METAR KATL 280052Z 16008KT 10SM BKN080 19/09 A2998 RMK AO2 SLP151 T01890089=
201710272352 METAR KATL 272352Z 15006KT 10SM BKN065 18/09 A2999 RMK AO2 SLP153 T01830089 10233 20183 53003=
201710272252 METAR KATL 272252Z 15006KT 10SM FEW050 20/09 A2997 RMK AO2 SLP146 T02000089=
201710272152 METAR KATL 272152Z 15009KT 10SM FEW050 22/10 A2997 RMK AO2 SLP146 T02170100=
201710272052 METAR KATL 272052Z 19011KT 10SM FEW055 23/09 A2998 RMK AO2 SLP148 T02280089 56020=
201710271952 METAR KATL 271952Z 19009KT 10SM FEW055 23/09 A2999 RMK AO2 SLP150 T02280089=
201710271852 METAR KATL 271852Z 22009KT 10SM FEW050 22/11 A3001 RMK AO2 SLP158 T02220106=
201710271752 METAR KATL 271752Z 18008G16KT 10SM FEW042 21/11 A3004 RMK AO2 SLP169 T02110111 10217 20089 58018=
201710271652 METAR KATL 271652Z 21005KT 10SM FEW035 20/12 A3007 RMK AO2 SLP178 T02000117=
201710271552 METAR KATL 271552Z 19004KT 10SM FEW030 18/11 A3009 RMK AO2 SLP186 T01830106=
201710271452 METAR KATL 271452Z VRB04KT 10SM CLR 17/09 A3009 RMK AO2 SLP189 T01670094 53008=
201710271352 METAR KATL 271352Z 20003KT 10SM CLR 13/08 A3008 RMK AO2 SLP184 T01330083=
201710271252 METAR KATL 271252Z 18003KT 10SM CLR 11/08 A3008 RMK AO2 SLP184 T01060078=
201710271152 METAR KATL 271152Z 00000KT 10SM CLR 09/07 A3007 RMK AO2 SLP181 T00940072 10117 20094 51010=
201710271052 METAR KATL 271052Z 20003KT 10SM CLR 10/07 A3006 RMK AO2 SLP178 T01000072=
201710270952 METAR KATL 270952Z 20003KT 10SM CLR 10/07 A3005 RMK AO2 SLP175 T01000072=
201710270852 METAR KATL 270852Z 22003KT 10SM CLR 11/07 A3004 RMK AO2 SLP169 T01060072 51000=
201710270752 METAR KATL 270752Z 22004KT 10SM CLR 11/07 A3004 RMK AO2 SLP168 T01110072=
201710270652 METAR KATL 270652Z 00000KT 10SM FEW015 12/08 A3004 RMK AO2 SLP169 T01170078=
201710270552 METAR KATL 270552Z 21004KT 10SM CLR 12/08 A3004 RMK AO2 SLP169 T01170078 10167 20117 51006=
201710270452 METAR KATL 270452Z 23004KT 10SM CLR 12/08 A3004 RMK AO2 SLP169 T01220083 402220050=
201710270352 METAR KATL 270352Z 22004KT 10SM CLR 13/08 A3003 RMK AO2 SLP167 T01330083=
201710270252 METAR KATL 270252Z 21004KT 10SM CLR 13/09 A3002 RMK AO2 SLP163 T01330089 51015=
201710270152 METAR KATL 270152Z 23005KT 10SM CLR 15/08 A3001 RMK AO2 SLP161 T01500083=
201710270052 METAR KATL 270052Z 21003KT 10SM CLR 16/09 A2999 RMK AO2 SLP155 T01560089=
201710262352 METAR KATL 262352Z 20005KT 10SM CLR 17/09 A2997 RMK AO2 SLP150 T01670089 10222 20167 53008=
201710262252 METAR KATL 262252Z 21007KT 10SM CLR 18/09 A2996 RMK AO2 SLP144 T01830089=
201710262152 METAR KATL 262152Z 23007KT 10SM CLR 21/07 A2995 RMK AO2 SLP139 T02110067=
201710262052 METAR KATL 262052Z 26006KT 10SM CLR 22/07 A2995 RMK AO2 SLP140 T02220072 56013=
201710261952 METAR KATL 261952Z 25005KT 10SM CLR 22/07 A2996 RMK AO2 SLP141 T02170072=
201710261852 METAR KATL 261852Z 27005KT 10SM CLR 21/07 A2996 RMK AO2 SLP144 T02060067=
201710261752 METAR KATL 261752Z VRB05KT 10SM CLR 19/06 A2999 RMK AO2 SLP155 T01890056 10194 20050 58012=
201710261652 METAR KATL 261652Z 16003KT 10SM CLR 17/05 A3001 RMK AO2 SLP161 T01670050=
201710261552 METAR KATL 261552Z 29006KT 10SM CLR 16/04 A3003 RMK AO2 SLP168 T01560039=
201710261452 METAR KATL 261452Z 27009KT 10SM CLR 15/04 A3003 RMK AO2 SLP168 T01500039 51009=
201710261352 METAR KATL 261352Z 21004KT 10SM CLR 09/04 A3002 RMK AO2 SLP169 T00940039=
201710261252 METAR KATL 261252Z 22003KT 10SM CLR 07/03 A3001 RMK AO2 SLP166 T00670033=
201710261152 METAR KATL 261152Z 20003KT 10SM CLR 06/03 A3000 RMK AO2 SLP160 T00560028 10072 20056 53008=
201710261052 METAR KATL 261052Z 00000KT 10SM CLR 06/03 A2998 RMK AO2 SLP155 T00560028=
201710260952 METAR KATL 260952Z 22003KT 10SM CLR 06/03 A2998 RMK AO2 SLP152 T00610028=
201710260852 METAR KATL 260852Z 23003KT 10SM CLR 06/03 A2997 RMK AO2 SLP149 T00610028 53003=
201710260752 METAR KATL 260752Z 26003KT 10SM CLR 07/02 A2997 RMK AO2 SLP149 T00670022=
201710260652 METAR KATL 260652Z 27005KT 10SM CLR 06/02 A2996 RMK AO2 SLP147 T00610017=
201710260552 METAR KATL 260552Z 29006KT 10SM CLR 07/02 A2996 RMK AO2 SLP147 T00670022 10106 20061 51003=
201710260452 METAR KATL 260452Z 29006KT 10SM CLR 07/02 A2996 RMK AO2 SLP146 T00720022 401670050=
201710260352 METAR KATL 260352Z 28007KT 10SM CLR 07/02 A2996 RMK AO2 SLP147 T00720022=
201710260252 METAR KATL 260252Z 27007KT 10SM CLR 07/02 A2995 RMK AO2 SLP145 T00720022 53013=
201710260152 METAR KATL 260152Z 28004KT 10SM CLR 09/02 A2993 RMK AO2 SLP139 T00890022=
201710260052 METAR KATL 260052Z 28008KT 10SM CLR 09/02 A2993 RMK AO2 SLP137 T00940022=
201710252352 METAR KATL 252352Z 27007KT 10SM FEW060 11/02 A2992 RMK AO2 SLP133 T01060022 10167 20100 53012=
201710252252 METAR KATL 252252Z 28011KT 10SM FEW060 12/01 A2990 RMK AO2 SLP128 T01220006=
201710252152 METAR KATL 252152Z 26012KT 10SM FEW060 14/02 A2988 RMK AO2 SLP119 T01440017=
201710252052 METAR KATL 252052Z 26011G21KT 10SM FEW060 16/01 A2988 RMK AO2 SLP119 T01560011 56015=
201710251952 METAR KATL 251952Z 28014G20KT 10SM FEW065 16/01 A2989 RMK AO2 SLP122 T01610006=
201710251852 METAR KATL 251852Z 29013KT 10SM FEW060 16/02 A2990 RMK AO2 SLP124 T01610017=
201710251752 METAR KATL 251752Z 30011KT 10SM FEW060 16/01 A2993 RMK AO2 SLP133 T01560011 10156 20056 58027=
201710251652 METAR KATL 251652Z 27013G19KT 10SM FEW050 14/02 A2997 RMK AO2 SLP149 T01440022=
201710251552 METAR KATL 251552Z 31011KT 10SM FEW045 13/02 A2998 RMK AO2 SLP154 T01330022=
201710251452 METAR KATL 251452Z 32009KT 10SM FEW020 FEW250 12/05 A3001 RMK AO2 SLP162 T01170050 51012=
201710251352 METAR KATL 251352Z 30010KT 10SM FEW250 09/05 A2999 RMK AO2 SLP159 T00890050=
201710251252 METAR KATL 251252Z 28006KT 10SM FEW250 07/04 A2999 RMK AO2 SLP157 T00720044=
201710251152 METAR KATL 251152Z 29005KT 10SM FEW070 06/04 A2997 RMK AO2 SLP150 T00560039 10083 20050 50003=
201710251052 METAR KATL 251052Z 29007KT 10SM FEW070 06/04 A2997 RMK AO2 SLP150 T00560039=
201710250952 METAR KATL 250952Z 28006KT 10SM FEW250 06/04 A2996 RMK AO2 SLP146 T00610044=
201710250852 METAR KATL 250852Z 29008KT 10SM FEW250 07/04 A2996 RMK AO2 SLP144 T00720044 58009=
201710250752 METAR KATL 250752Z 29006KT 10SM FEW075 07/04 A2997 RMK AO2 SLP149 T00670044=
201710250652 METAR KATL 250652Z 29008KT 10SM FEW075 08/04 A2998 RMK AO2 SLP151 T00780044=
201710250552 METAR KATL 250552Z 29006KT 10SM FEW080 08/04 A2999 RMK AO2 SLP153 T00780044 10139 20078 50000=
201710250452 METAR KATL 250452Z 29008KT 10SM FEW080 09/04 A2999 RMK AO2 SLP154 T00890044 402000089=
201710250352 METAR KATL 250352Z 28007KT 10SM FEW080 09/04 A3000 RMK AO2 SLP156 T00940044=
201710250252 METAR KATL 250252Z 28006KT 10SM FEW080 09/05 A2999 RMK AO2 SLP155 T00940050 51012=
201710250152 METAR KATL 250152Z 29006KT 10SM FEW080 11/04 A2998 RMK AO2 SLP151 T01060044=
201710250052 METAR KATL 250052Z 29005KT 10SM FEW070 12/04 A2997 RMK AO2 SLP147 T01220039=
201710242352 METAR KATL 242352Z 31009KT 10SM FEW070 14/03 A2995 RMK AO2 SLP142 T01390033 10200 20139 53020=
201710242252 METAR KATL 242252Z 30009KT 10SM SCT065 BKN080 15/03 A2993 RMK AO2 SLP135 T01500033=
201710242152 METAR KATL 242152Z 30013KT 10SM SCT070 17/03 A2991 RMK AO2 SLP127 T01720033=
201710242052 METAR KATL 242052Z 29010KT 10SM FEW070 19/04 A2989 RMK AO2 SLP120 T01890039 56009=
201710241952 METAR KATL 241952Z 28013KT 10SM FEW065 19/04 A2989 RMK AO2 SLP120 T01890044=
201710241852 METAR KATL 241852Z 29017G27KT 260V320 10SM FEW060 19/05 A2990 RMK AO2 PK WND 30027/1851 SLP123 T01940050=
201710241752 METAR KATL 241752Z 29016G21KT 10SM FEW060 19/05 A2992 RMK AO2 SLP130 T01890050 10200 20106 58009=
201710241652 METAR KATL 241652Z 27009KT 10SM FEW050 19/08 A2994 RMK AO2 SLP134 T01940078=
201710241552 METAR KATL 241552Z 30010G18KT 10SM FEW030 18/09 A2995 RMK AO2 SLP141 T01830094=
201710241452 METAR KATL 241452Z 29009KT 10SM FEW020 16/10 A2995 RMK AO2 SLP139 T01560100 50009=
201710241352 METAR KATL 241352Z 29010KT 10SM CLR 13/10 A2995 RMK AO2 SLP140 T01330100=
201710241252 METAR KATL 241252Z 27009KT 10SM CLR 12/09 A2994 RMK AO2 SLP136 T01170089=
201710241152 METAR KATL 241152Z 25006KT 10SM CLR 11/09 A2992 RMK AO2 SLP131 70090 T01060094 10117 20100 53001=
201710241052 METAR KATL 241052Z 23005KT 10SM CLR 10/09 A2992 RMK AO2 SLP130 T01000094=
201710240952 METAR KATL 240952Z 22004KT 10SM CLR 11/10 A2991 RMK AO2 SLP127 T01060100=
201710240852 METAR KATL 240852Z 29008KT 10SM CLR 11/10 A2992 RMK AO2 SLP128 T01060100 58010=
201710240752 METAR KATL 240752Z 27007KT 10SM CLR 11/11 A2993 RMK AO2 SLP133 T01060106=
201710240652 METAR KATL 240652Z 29008KT 10SM CLR 11/11 A2995 RMK AO2 SLP138 T01110106=
201710240552 METAR KATL 240552Z 30007KT 10SM CLR 12/11 A2995 RMK AO2 SLP139 T01170111 10167 20117 58002=
201710240452 METAR KATL 240452Z 31009KT 10SM FEW020 12/11 A2996 RMK AO2 SLP144 T01220111 402220122=
201710240352 METAR KATL 240352Z 29009KT 10SM FEW025 13/11 A2997 RMK AO2 SLP145 T01280111=
201710240252 METAR KATL 240252Z 28008KT 10SM SCT026 13/12 A2996 RMK AO2 SLP142 T01330117 51015=
201710240152 METAR KATL 240152Z 28011KT 10SM SCT027 BKN032 15/12 A2995 RMK AO2 SLP137 T01500122=
201710240052 METAR KATL 240052Z 27008KT 10SM FEW035 FEW250 16/12 A2993 RMK AO2 SLP131 T01560122=
201710232352 METAR KATL 232352Z 27010KT 10SM FEW035 FEW250 17/12 A2991 RMK AO2 SLP124 T01670122 10222 20167 53012=
201710232252 METAR KATL 232252Z 27009KT 10SM FEW040 18/12 A2989 RMK AO2 SLP115 T01780122=
201710232152 METAR KATL 232152Z 28013G18KT 10SM FEW040 20/11 A2988 RMK AO2 SLP111 T02000111=
201710232052 METAR KATL 232052Z 28012KT 10SM FEW050 22/11 A2988 RMK AO2 SLP110 T02170111 55001=
201710231952 METAR KATL 231952Z 27011G21KT 10SM FEW050 22/11 A2987 RMK AO2 PK WND 28026/1931 SLP106 T02220111=
201710231852 METAR KATL 231852Z 26015G24KT 10SM FEW030 22/13 A2987 RMK AO2 SLP106 T02220133=
201710231752 METAR KATL 231752Z 27016G23KT 10SM FEW030 FEW050 22/14 A2988 RMK AO2 SLP112 60090 T02170144 10217 20172 58005=
201710231652 METAR KATL 231652Z 29010KT 10SM FEW012 BKN018 BKN030 19/17 A2990 RMK AO2 SLP119 T01890172=
201710231557 SPECI KATL 231557Z 29010KT 10SM SCT010 BKN020 BKN060 18/18 A2991 RMK AO2 CB DSNT NE-SE T01830178=
201710231552 METAR KATL 231552Z 30008KT 10SM FEW010 BKN050 BKN060 18/18 A2991 RMK AO2 WSHFT 1439 RAE51 SLP121 CB DSNT NE-SE P0021 T01830178=
201710231526 SPECI KATL 231526Z 28009G19KT 10SM -RA FEW007 BKN040 OVC050 17/17 A2990 RMK AO2 WSHFT 1439 CB DSNT NE-SE P0021 T01720172=
201710231510 SPECI KATL 231510Z 31012KT 6SM -RA BR SCT007 BKN016 OVC030 18/18 A2989 RMK AO2 WSHFT 1439 P0021 T01780178=
201710231502 SPECI KATL 231502Z 29012KT 3SM R09R/5000VP6000FT -RA BR FEW007 SCT010CB OVC020 18/18 A2988 RMK AO2 WSHFT 1439 SFC VIS 4 VIS LWR NE-SE SHRA CB NE-SE MOV NE P0020 T01780178=
201710231455 SPECI KATL 231455Z 28010G21KT 1SM R09R/3000VP6000FT +RA BR FEW007 BKN013CB OVC030 18/18 A2988 RMK AO2 WSHFT 1439 TWR VIS 3 CB OHD-NE-SE MOV NE P0015 T01780178=
201710231452 METAR KATL 231452Z 27010G21KT 1SM R09R/3000VP6000FT +RA BR BKN007 BKN013CB OVC020 18/18 A2990 RMK AO2 WSHFT 1430 TWR VIS 3 SLP118 CB OHD MOV NE FROPA P0048 60069 T01780178 50010=
201710231450 SPECI KATL 231450Z 25012G21KT 2SM R09R/4000VP6000FT +RA BR BKN007 BKN013CB OVC020 18/18 A2990 RMK AO2 WSHFT 1430 TWR VIS 3 PRESRR CB OHD MOV NE FROPA P0039=
201710231443 SPECI KATL 231443Z 29017G21KT 1 3/4SM RA BR BKN007 BKN013CB OVC020 20/20 A2990 RMK AO2 WSHFT 1429 TWR VIS 3 PRESRR CB OHD-SW-NW MOV NE P0020 T02000200=
201710231429 SPECI KATL 231429Z 18010KT 3SM RA BR BKN007 BKN013CB OVC020 21/21 A2987 RMK AO2 LTG DSNT N CB OHD-SW-NW MOV NE P0009 T02060206=
201710231352 METAR KATL 231352Z 15011G16KT 3SM -RA BR BKN007 BKN020 OVC040 21/21 A2987 RMK AO2 SFC VIS 5 SLP107 P0009 T02060206=
201710231349 SPECI KATL 231349Z 15010KT 3SM -RA BR BKN007 BKN020 OVC040 21/21 A2987 RMK AO2 SFC VIS 5 P0009=
201710231252 METAR KATL 231252Z 15013G19KT 2SM RA BR BKN007 BKN045 OVC060 21/21 A2989 RMK AO2 SFC VIS 3 SLP115 CIG 006V010 P0012 T02060206=
201710231245 SPECI KATL 231245Z 17011KT 2SM -RA BR BKN007 BKN047 OVC065 21/21 A2990 RMK AO2 SFC VIS 4 CIG 006V010 P0011 T02060206=
201710231152 METAR KATL 231152Z 17011G18KT 2SM -RA BR SCT007 BKN014 OVC040 21/21 A2992 RMK AO2 SFC VIS 2 1/2 SLP126 P0004 60039 70041 T02060206 10206 20194 56017 $=
201710231052 METAR KATL 231052Z 14009KT 5SM -RA BR BKN006 BKN014 OVC031 21/21 A2994 RMK AO2 SLP129 CIG 005V009 P0003 T02060206=
201710231033 SPECI KATL 231033Z 14007KT 6SM -RA BR BKN006 BKN035 OVC110 21/21 A2993 RMK AO2 P0002 T02060206=
201710231007 SPECI KATL 231007Z 13008KT 7SM -RA SCT005 BKN049 OVC100 21/21 A2993 RMK AO2 SCT005 V BKN P0001 T02060206=
201710230952 METAR KATL 230952Z 13008KT 2SM -RA BR BKN005 BKN045 OVC075 21/21 A2994 RMK AO2 SFC VIS 6 SLP131 CIG 003V007 P0008 T02060206=
201710230852 METAR KATL 230852Z 15009G15KT 2SM R09R/5500VP6000FT -RA BR BKN004 OVC011 20/20 A2998 RMK AO2 SFC VIS 3 RAB44 SLP142 CIG 003V006 P0006 60024 T02000200 58035=
201710230810 SPECI KATL 230810Z 12009KT 2SM BR OVC004 20/20 A2999 RMK AO2 SFC VIS 6 CIG 003V005 T02000200=
201710230752 METAR KATL 230752Z 12010KT 2SM BR BKN005 OVC023 20/20 A3001 RMK AO2 SFC VIS 6 RAE37 SLP154 CIG 003V007 P0017 T02000200=
201710230726 SPECI KATL 230726Z 11010KT 2SM -RA BR BKN005 OVC020 20/20 A3003 RMK AO2 CIG 003V007 P0017 T02000200=
201710230652 METAR KATL 230652Z 12006G16KT 2SM -RA BR OVC004 20/20 A3005 RMK AO2 SFC VIS 6 DZE0554B48E52RAB0554E28B52 SLP167 CIG 003V005 P0001 T02000200=
201710230552 METAR KATL 230552Z 11011G14KT 2SM -DZ BR OVC003 19/19 A3008 RMK AO2 SFC VIS 5 SLP178 P0002 60002 T01940194 10217 20194 58023=
201710230452 METAR KATL 230452Z 12007KT 2SM -DZ BR OVC004 19/19 A3011 RMK AO2 SFC VIS 2 1/2 SLP188 CIG 003V005 P0000 T01940194 402610139=
201710230415 SPECI KATL 230415Z 11009G17KT 2SM -DZ BR OVC004 19/19 A3012 RMK AO2 SFC VIS 2 1/2 CIG 003V005 P0000 T01940194=
201710230405 SPECI KATL 230405Z 11010KT 3SM -DZ BR OVC004 19/19 A3013 RMK AO2 CIG 003V005 P0000 T01940194=
201710230352 METAR KATL 230352Z 11009KT 3SM -DZ BR OVC005 20/19 A3013 RMK AO2 SLP196 CIG 004V006 P0000 T02000194=
201710230323 SPECI KATL 230323Z 10012KT 3SM -DZ BR OVC006 20/19 A3014 RMK AO2 SFC VIS 6 CIG 005V007 P0000 T02000194=
201710230252 METAR KATL 230252Z 11011G18KT 9SM -DZ OVC008 20/19 A3015 RMK AO2 DZB49 SLP204 CIG 007V009 P0000 60000 T02000194 53007=
201710230232 SPECI KATL 230232Z 11012G19KT 10SM OVC009 21/19 A3014 RMK AO2 CIG 008V010 T02060189=
201710230152 METAR KATL 230152Z 10012G17KT 10SM BKN012 OVC022 21/19 A3013 RMK AO2 SLP197 CIG 010V014 T02060189=
201710230052 METAR KATL 230052Z 11013G20KT 10SM BKN013 OVC023 21/19 A3015 RMK AO2 SLP203 CIG 011V015 T02110189=
201710230030 SPECI KATL 230030Z 11013KT 10SM BKN015 BKN023 BKN055 OVC200 21/19 A3014 RMK AO2 CIG 013V017 T02110189=
201710222352 METAR KATL 222352Z 11014G19KT 10SM FEW018 SCT030 SCT060 BKN200 22/19 A3013 RMK AO2 SLP198 T02170189 10261 20217 56006=
201710222252 METAR KATL 222252Z 12014G20KT 10SM FEW036 SCT060 BKN180 BKN250 23/18 A3013 RMK AO2 SLP198 T02330183=
201710222152 METAR KATL 222152Z 09010KT 10SM FEW040 SCT065 BKN180 BKN250 25/18 A3013 RMK AO2 SLP196 T02500183=
201710222052 METAR KATL 222052Z 13009KT 10SM SCT035 SCT060 BKN180 BKN250 26/18 A3015 RMK AO2 SLP203 T02560183 56015=
201710221952 METAR KATL 221952Z 11011G15KT 10SM SCT035 SCT050 BKN200 BKN250 26/18 A3016 RMK AO2 SLP206 T02560178=
201710221852 METAR KATL 221852Z 11009KT 10SM BKN032 BKN048 BKN250 25/18 A3017 RMK AO2 SLP211 T02500178=
201710221841 SPECI KATL 221841Z 14011KT 10SM SCT030 BKN035 BKN048 BKN250 26/18 A3018 RMK AO2 T02560183=
201710221752 METAR KATL 221752Z 12008KT 10SM BKN027 BKN035 BKN060 24/18 A3019 RMK AO2 SLP219 T02440183 10250 20150 58021=
201710221652 METAR KATL 221652Z 12012G18KT 10SM BKN025 BKN065 24/18 A3023 RMK AO2 SLP231 T02390183=
201710221649 SPECI KATL 221649Z 11012G18KT 10SM BKN025 BKN065 24/18 A3023 RMK AO2=
201710221552 METAR KATL 221552Z 14010G16KT 10SM FEW020 SCT027 SCT065 SCT250 23/18 A3025 RMK AO2 SLP239 T02330183=
201710221452 METAR KATL 221452Z 11008G17KT 10SM FEW012 SCT025 BKN060 21/17 A3026 RMK AO2 SLP241 T02060172 50002=
201710221352 METAR KATL 221352Z 08010KT 10SM FEW007 BKN060 18/16 A3028 RMK AO2 SLP248 T01780161=
201710221252 METAR KATL 221252Z 09009KT 10SM FEW007 BKN060 17/16 A3027 RMK AO2 SLP246 T01670156=
201710221231 SPECI KATL 221231Z 08006KT 10SM FEW007 BKN055 16/15 A3026 RMK AO2 T01560150=
201710221152 METAR KATL 221152Z 09008KT 10SM BKN050 BKN250 15/14 A3025 RMK AO2 SLP240 T01500139 10167 20139 51005=
201710221052 METAR KATL 221052Z 08008KT 10SM SCT050 SCT250 14/13 A3025 RMK AO2 SLP239 T01440133=
201710220952 METAR KATL 220952Z 08009KT 10SM FEW250 15/13 A3024 RMK AO2 SLP234 T01500133=
201710220852 METAR KATL 220852Z 09007KT 10SM FEW040 FEW180 SCT250 14/13 A3023 RMK AO2 SLP232 T01440128 58010=
201710220752 METAR KATL 220752Z 08005KT 10SM FEW040 SCT180 SCT250 16/13 A3024 RMK AO2 SLP236 T01560128=
201710220652 METAR KATL 220652Z 07007KT 10SM FEW025 FEW043 SCT180 SCT250 16/13 A3026 RMK AO2 SLP241 T01610128=
201710220552 METAR KATL 220552Z 09006KT 10SM FEW025 FEW050 SCT180 SCT250 16/13 A3027 RMK AO2 SLP243 T01610128 10206 20161 58003=
201710220452 METAR KATL 220452Z 08007KT 10SM FEW050 SCT180 BKN250 16/13 A3027 RMK AO2 SLP244 T01610128 402500122=
201710220352 METAR KATL 220352Z 09005KT 10SM SCT180 BKN250 17/13 A3028 RMK AO2 SLP248 T01670128=
201710220252 METAR KATL 220252Z 09009KT 10SM SCT180 BKN250 17/13 A3028 RMK AO2 SLP248 T01720128 53003=
201710220152 METAR KATL 220152Z 10008KT 10SM BKN180 BKN250 19/13 A3027 RMK AO2 SLP246 T01890133=
201710220052 METAR KATL 220052Z 09009KT 10SM BKN180 BKN250 19/14 A3027 RMK AO2 SLP246 T01890139=
201710212352 METAR KATL 212352Z 10007KT 10SM BKN180 BKN250 21/14 A3027 RMK AO2 SLP247 VIRGA SW-W T02060139 10250 20200 53007=
201710212252 METAR KATL 212252Z 11005KT 10SM BKN180 BKN250 22/14 A3026 RMK AO2 SLP242 VIRGA SW-W T02220139=
201710212152 METAR KATL 212152Z 13006KT 10SM FEW045 SCT180 BKN250 23/14 A3025 RMK AO2 SLP240 T02330139=
201710212052 METAR KATL 212052Z 15007KT 10SM FEW040 SCT180 SCT250 BKN300 24/13 A3025 RMK AO2 SLP237 VIRGA SW-W T02390133 55008=
201710211952 METAR KATL 211952Z 13007KT 10SM FEW180 BKN240 BKN300 24/12 A3024 RMK AO2 SLP236 T02440122=
201710211852 METAR KATL 211852Z 11008KT 10SM FEW180 BKN240 BKN300 24/12 A3025 RMK AO2 SLP238 T02440122=
201710211752 METAR KATL 211752Z 15006KT 10SM FEW200 BKN250 BKN300 24/11 A3027 RMK AO2 SLP245 T02390111 10239 20122 58012=
201710211652 METAR KATL 211652Z 11009KT 10SM SCT200 BKN250 BKN300 23/11 A3030 RMK AO2 SLP255 T02280111=
201710211552 METAR KATL 211552Z 09005KT 10SM BKN250 BKN300 21/14 A3030 RMK AO2 SLP257 T02110139=
201710211452 METAR KATL 211452Z 07004KT 10SM FEW200 BKN250 BKN300 19/13 A3031 RMK AO2 SLP258 T01890133 51013=
201710211352 METAR KATL 211352Z 07005KT 10SM FEW200 BKN250 BKN300 16/11 A3031 RMK AO2 SLP258 T01610111=
201710211252 METAR KATL 211252Z 08006KT 10SM FEW180 BKN250 13/09 A3028 RMK AO2 SLP253 T01280094=
201710211152 METAR KATL 211152Z 07006KT 10SM FEW150 FEW200 BKN250 12/08 A3027 RMK AO2 SLP246 T01220083 10161 20122 51013=
201710211052 METAR KATL 211052Z 07005KT 10SM BKN250 13/09 A3026 RMK AO2 SLP243 T01330089=
201710210952 METAR KATL 210952Z 07005KT 10SM BKN250 13/09 A3024 RMK AO2 SLP234 T01330089=
201710210852 METAR KATL 210852Z 08005KT 10SM BKN250 14/09 A3023 RMK AO2 SLP229 T01390089 52001=
201710210752 METAR KATL 210752Z 06003KT 10SM BKN250 15/08 A3022 RMK AO2 SLP229 T01500083=
201710210652 METAR KATL 210652Z 08004KT 10SM BKN250 14/09 A3022 RMK AO2 SLP229 T01440089=
201710210552 METAR KATL 210552Z 07003KT 10SM BKN250 15/09 A3022 RMK AO2 SLP228 T01500089 10206 20150 57001=
201710210452 METAR KATL 210452Z 00000KT 10SM BKN250 15/09 A3022 RMK AO2 SLP228 T01500089 402670094=
201710210352 METAR KATL 210352Z 09003KT 10SM BKN250 17/08 A3023 RMK AO2 SLP230 T01670083=
201710210252 METAR KATL 210252Z 11003KT 10SM BKN250 18/08 A3022 RMK AO2 SLP230 T01780083 51008=
201710210152 METAR KATL 210152Z 00000KT 10SM BKN250 19/08 A3022 RMK AO2 SLP228 T01890078=
201710210052 METAR KATL 210052Z 00000KT 10SM BKN250 19/08 A3021 RMK AO2 SLP227 T01890078=
201710202352 METAR KATL 202352Z 00000KT 10SM BKN250 21/07 A3020 RMK AO2 SLP224 T02060067 10267 20206 53002=
201710202252 METAR KATL 202252Z 13003KT 10SM BKN250 23/03 A3019 RMK AO2 SLP219 T02280033=
201710202152 METAR KATL 202152Z 14005KT 10SM SCT250 25/02 A3018 RMK AO2 SLP215 T02500022=
201710202052 METAR KATL 202052Z 14006KT 10SM SCT250 26/M04 A3019 RMK AO2 SLP219 T02611039 56017=
201710201952 METAR KATL 201952Z 11008KT 10SM SCT250 26/02 A3020 RMK AO2 SLP221 T02610017=
201710201852 METAR KATL 201852Z 04004KT 10SM SCT250 26/02 A3022 RMK AO2 SLP228 T02610017=
201710201752 METAR KATL 201752Z VRB03KT 10SM FEW250 25/03 A3025 RMK AO2 SLP237 T02500028 10250 20100 58018=
201710201652 METAR KATL 201652Z 08003KT 10SM FEW250 23/06 A3028 RMK AO2 SLP248 T02330056=
201710201552 METAR KATL 201552Z 00000KT 10SM FEW250 22/08 A3029 RMK AO2 SLP253 T02170083=
201710201452 METAR KATL 201452Z 27003KT 10SM FEW010 SCT250 19/08 A3030 RMK AO2 SLP257 FU FEW010 T01940083 51006=
201710201352 METAR KATL 201352Z 29003KT 10SM FEW010 FEW250 17/09 A3030 RMK AO2 SLP256 FU FEW010 T01720089=
201710201252 METAR KATL 201252Z 00000KT 10SM FEW007 FEW200 SCT250 13/09 A3029 RMK AO2 SLP256 FU FEW007 T01280094=
201710201152 METAR KATL 201152Z 31003KT 10SM FEW003 FEW200 SCT250 11/07 A3028 RMK AO2 SLP252 FU FEW003 T01060072 10128 20094 51011=
201710201052 METAR KATL 201052Z 00000KT 10SM FEW250 11/08 A3027 RMK AO2 SLP249 T01060078=
201710200952 METAR KATL 200952Z 31005KT 10SM FEW200 09/07 A3026 RMK AO2 SLP244 T00940072=
201710200852 METAR KATL 200852Z 35003KT 10SM FEW200 10/08 A3025 RMK AO2 SLP239 T01000078 58001=
201710200752 METAR KATL 200752Z 00000KT 10SM FEW200 11/08 A3025 RMK AO2 SLP240 T01110083=
201710200652 METAR KATL 200652Z 00000KT 10SM CLR 12/08 A3026 RMK AO2 SLP242 T01170083=
201710200552 METAR KATL 200552Z 00000KT 10SM CLR 13/08 A3025 RMK AO2 SLP240 T01280083 10194 20122 57003=
201710200452 METAR KATL 200452Z 00000KT 10SM CLR 14/08 A3025 RMK AO2 SLP241 T01390078 402500100=
201710200352 METAR KATL 200352Z 00000KT 10SM CLR 16/08 A3026 RMK AO2 SLP243 T01560078=
201710200252 METAR KATL 200252Z 00000KT 10SM CLR 16/08 A3026 RMK AO2 SLP244 T01560078 53007=
201710200152 METAR KATL 200152Z 00000KT 10SM FEW250 17/08 A3025 RMK AO2 SLP240 T01670078=
201710200052 METAR KATL 200052Z 00000KT 10SM FEW250 18/06 A3025 RMK AO2 SLP241 T01830056=
201710192352 METAR KATL 192352Z 00000KT 10SM FEW250 19/05 A3024 RMK AO2 SLP238 T01940050 10250 20194 53002=
201710192252 METAR KATL 192252Z 34006KT 10SM FEW250 22/03 A3023 RMK AO2 SLP233 T02220033=
201710192152 METAR KATL 192152Z VRB06KT 10SM FEW250 23/05 A3022 RMK AO2 SLP231 T02330050=
201710192052 METAR KATL 192052Z 36005KT 10SM FEW250 24/04 A3023 RMK AO2 SLP234 T02440039 56017=
201710191952 METAR KATL 191952Z VRB04KT 10SM FEW250 24/04 A3024 RMK AO2 SLP237 T02390044=
201710191852 METAR KATL 191852Z 00000KT 10SM FEW250 23/05 A3025 RMK AO2 SLP241 T02330050=
201710191752 METAR KATL 191752Z 08004KT 10SM FEW250 22/05 A3029 RMK AO2 SLP253 T02170050 10217 20106 58016=
201710191652 METAR KATL 191652Z 02004KT 10SM FEW250 21/06 A3031 RMK AO2 SLP263 T02060061=
201710191552 METAR KATL 191552Z 09005KT 10SM FEW250 19/06 A3033 RMK AO2 SLP268 T01890056=
201710191452 METAR KATL 191452Z 08007KT 10SM SCT180 SCT250 17/06 A3034 RMK AO2 SLP271 T01670056 51015=
201710191352 METAR KATL 191352Z 07006KT 10SM FEW180 FEW250 15/06 A3033 RMK AO2 SLP269 T01500061=
201710191252 METAR KATL 191252Z 08005KT 10SM FEW200 SCT250 12/07 A3030 RMK AO2 SLP259 T01220067=
201710191152 METAR KATL 191152Z 06007KT 10SM FEW200 SCT250 11/06 A3029 RMK AO2 SLP256 T01060061 10117 20100 53008=
201710191052 METAR KATL 191052Z 06006KT 10SM FEW200 11/06 A3028 RMK AO2 SLP251 T01060056=
201710190952 METAR KATL 190952Z 05009KT 10SM FEW200 11/06 A3027 RMK AO2 SLP249 T01060056=
201710190852 METAR KATL 190852Z 05008KT 10SM CLR 11/06 A3027 RMK AO2 SLP246 T01110061 56003=
201710190752 METAR KATL 190752Z 07006KT 10SM CLR 10/06 A3027 RMK AO2 SLP247 T01000056=
201710190652 METAR KATL 190652Z 08006KT 10SM CLR 11/06 A3027 RMK AO2 SLP250 T01060061=
201710190552 METAR KATL 190552Z 09006KT 10SM CLR 11/07 A3027 RMK AO2 SLP250 T01110067 10167 20111 58008=
201710190452 METAR KATL 190452Z 08005KT 10SM CLR 11/07 A3028 RMK AO2 SLP253 T01110067 402170089=
201710190352 METAR KATL 190352Z 10005KT 10SM CLR 13/07 A3029 RMK AO2 SLP256 T01280072=
201710190252 METAR KATL 190252Z 08007KT 10SM CLR 13/06 A3030 RMK AO2 SLP258 T01330061 53007=
201710190152 METAR KATL 190152Z 11007KT 10SM CLR 16/06 A3028 RMK AO2 SLP253 T01610061=
201710190052 METAR KATL 190052Z 09007KT 10SM CLR 15/07 A3028 RMK AO2 SLP255 T01500067=
201710182352 METAR KATL 182352Z 10005KT 10SM CLR 16/07 A3028 RMK AO2 SLP253 T01610067 10217 20161 53006=
201710182252 METAR KATL 182252Z 10006KT 10SM CLR 18/05 A3026 RMK AO2 SLP246 T01830050=
201710182152 METAR KATL 182152Z 09008KT 10SM CLR 21/05 A3026 RMK AO2 SLP244 T02060050=
201710182052 METAR KATL 182052Z 11008KT 10SM CLR 21/04 A3026 RMK AO2 SLP245 T02110044 56016=
201710181952 METAR KATL 181952Z VRB03KT 10SM CLR 21/06 A3027 RMK AO2 SLP247 T02110056=
201710181852 METAR KATL 181852Z 08007KT 10SM FEW250 21/06 A3028 RMK AO2 SLP251 T02060056=
201710181752 METAR KATL 181752Z VRB04KT 10SM FEW200 19/06 A3031 RMK AO2 SLP262 T01940056 10194 20094 58015=
201710181652 METAR KATL 181652Z 09011G18KT 10SM FEW200 18/06 A3034 RMK AO2 SLP271 T01830056=
201710181552 METAR KATL 181552Z 11012KT 10SM FEW200 17/05 A3035 RMK AO2 SLP277 T01720050=
201710181452 METAR KATL 181452Z 10009KT 10SM FEW200 16/05 A3036 RMK AO2 SLP278 T01560050 51011=
201710181352 METAR KATL 181352Z 09008KT 10SM FEW200 13/07 A3035 RMK AO2 SLP276 T01280067=
201710181252 METAR KATL 181252Z 08009KT 10SM FEW200 11/06 A3034 RMK AO2 SLP273 T01060061=
201710181152 METAR KATL 181152Z 07008KT 10SM FEW200 09/06 A3032 RMK AO2 SLP268 T00940056 10111 20089 53015=
201710181052 METAR KATL 181052Z 05008KT 10SM CLR 09/06 A3031 RMK AO2 SLP263 T00940056=
201710180952 METAR KATL 180952Z 08007KT 10SM CLR 09/06 A3029 RMK AO2 SLP255 T00890056=
201710180852 METAR KATL 180852Z 08008KT 10SM CLR 09/06 A3028 RMK AO2 SLP251 T00940061 55003=
201710180752 METAR KATL 180752Z 07009KT 10SM CLR 11/06 A3028 RMK AO2 SLP250 T01110061=
201710180652 METAR KATL 180652Z 07008KT 10SM CLR 11/07 A3028 RMK AO2 SLP253 T01110067=
201710180552 METAR KATL 180552Z 07005KT 10SM FEW250 11/06 A3029 RMK AO2 SLP254 T01060061 10161 20106 58002=
201710180452 METAR KATL 180452Z 09005KT 10SM FEW250 11/07 A3029 RMK AO2 SLP255 T01110067 402060106=
201710180352 METAR KATL 180352Z 09005KT 10SM FEW250 12/07 A3030 RMK AO2 SLP258 T01220072=
201710180252 METAR KATL 180252Z 09006KT 10SM FEW250 13/06 A3029 RMK AO2 SLP257 T01280061 53015=
201710180152 METAR KATL 180152Z 11005KT 10SM FEW250 13/07 A3028 RMK AO2 SLP252 T01330067=
201710180052 METAR KATL 180052Z 09007KT 10SM FEW250 14/06 A3026 RMK AO2 SLP245 T01440061=
201710172352 METAR KATL 172352Z 10006KT 10SM FEW250 16/06 A3025 RMK AO2 SLP241 T01610061 10206 20156 55001=
201710172252 METAR KATL 172252Z 09007KT 10SM FEW250 17/05 A3024 RMK AO2 SLP238 T01720050=
201710172152 METAR KATL 172152Z 05007KT 10SM FEW250 19/04 A3024 RMK AO2 SLP239 T01940044=
201710172052 METAR KATL 172052Z 07004KT 10SM FEW250 20/04 A3025 RMK AO2 SLP241 T02000044 56018=
201710171952 METAR KATL 171952Z VRB06KT 10SM CLR 20/04 A3025 RMK AO2 SLP243 T02000044=
201710171852 METAR KATL 171852Z 04010KT 10SM CLR 19/04 A3027 RMK AO2 SLP246 T01940044=
201710171752 METAR KATL 171752Z 10SM CLR 18/05 A3030 RMK AO2 SLP259 T01830050 10189 20106 58014=
201710171652 METAR KATL 171652Z 10010KT 10SM CLR 18/05 A3033 RMK AO2 SLP267 T01780050=
201710171552 METAR KATL 171552Z 09012G22KT 10SM CLR 17/04 A3034 RMK AO2 SLP274 T01670044=
201710171452 METAR KATL 171452Z 08018KT 10SM FEW250 15/04 A3034 RMK AO2 SLP274 T01500044 51015=
201710171352 METAR KATL 171352Z 07017KT 10SM FEW250 14/04 A3033 RMK AO2 SLP269 T01390044=
201710171252 METAR KATL 171252Z 07013KT 10SM FEW250 12/04 A3032 RMK AO2 SLP266 T01220044=
201710171152 METAR KATL 171152Z 06013KT 10SM FEW250 11/04 A3030 RMK AO2 SLP259 T01110039 10128 20106 53017=
201710171052 METAR KATL 171052Z 07009KT 10SM FEW250 11/04 A3027 RMK AO2 SLP251 T01060044=
201710170952 METAR KATL 170952Z 06011KT 10SM SCT250 11/05 A3026 RMK AO2 SLP244 T01060050=
201710170852 METAR KATL 170852Z 07009KT 10SM SCT250 11/06 A3025 RMK AO2 SLP240 T01110056 53005=
201710170752 METAR KATL 170752Z 07009KT 10SM CLR 11/06 A3023 RMK AO2 SLP236 T01110056=
201710170652 METAR KATL 170652Z 07011KT 10SM SCT250 12/06 A3023 RMK AO2 SLP236 T01220056=
201710170552 METAR KATL 170552Z 05008KT 10SM SCT250 13/06 A3023 RMK AO2 SLP235 T01280061 10156 20128 51007=
201710170452 METAR KATL 170452Z 06012KT 10SM BKN250 13/07 A3023 RMK AO2 SLP233 T01330067 402280128=
201710170352 METAR KATL 170352Z 03010KT 10SM BKN250 14/07 A3022 RMK AO2 SLP233 T01390067=
201710170252 METAR KATL 170252Z 01011KT 10SM FEW200 BKN250 14/07 A3021 RMK AO2 SLP228 T01390067 51026=
201710170152 METAR KATL 170152Z 01010KT 10SM BKN250 14/07 A3019 RMK AO2 SLP222 T01440067=
201710170052 METAR KATL 170052Z 35012KT 10SM BKN250 15/07 A3016 RMK AO2 SLP212 T01500072=
201710162352 METAR KATL 162352Z 35014KT 10SM SCT250 16/07 A3013 RMK AO2 SLP200 T01560072 10206 20156 53013=
201710162252 METAR KATL 162252Z 34010KT 10SM SCT250 17/07 A3011 RMK AO2 SLP192 T01720072=
201710162152 METAR KATL 162152Z 33015KT 10SM FEW250 19/08 A3009 RMK AO2 SLP183 T01890078=
201710162052 METAR KATL 162052Z 33012G19KT 10SM FEW250 20/08 A3009 RMK AO2 SLP183 T02000078 55009=
201710161952 METAR KATL 161952Z 35015G20KT 10SM FEW150 FEW250 21/08 A3009 RMK AO2 PK WND 01027/1919 SLP182 T02060083=
201710161852 METAR KATL 161852Z 32018G23KT 10SM FEW150 FEW180 SCT250 19/08 A3009 RMK AO2 SLP182 T01890083=
201710161752 METAR KATL 161752Z 32016KT 10SM FEW150 FEW180 BKN250 18/09 A3012 RMK AO2 SLP192 VIRGA DSNT S T01830089 10189 20128 58010=
201710161652 METAR KATL 161652Z 34016KT 10SM FEW150 FEW180 BKN250 18/09 A3013 RMK AO2 SLP198 VIRGA DSNT SE-SW T01830094=
201710161552 METAR KATL 161552Z 32015G23KT 10SM FEW020 FEW150 BKN250 15/10 A3015 RMK AO2 SLP202 VIRGA DSNT SE-S T01500100=
201710161452 METAR KATL 161452Z 33012KT 10SM FEW015 SCT150 BKN250 14/10 A3015 RMK AO2 SLP203 T01390100 53019=
201710161352 METAR KATL 161352Z 33014KT 10SM OVC010 13/11 A3013 RMK AO2 SLP196 T01330111=
201710161252 METAR KATL 161252Z 33011G20KT 7SM OVC007 13/12 A3011 RMK AO2 SLP190 CIG 006V008 T01330122=
201710161152 METAR KATL 161152Z 33008KT 8SM OVC006 14/14 A3009 RMK AO2 RAB08E43 SLP183 CIG 005V007 P0000 60008 70008 T01440139 10211 20144 53015=
201710161052 METAR KATL 161052Z 32014KT 8SM OVC005 17/16 A3006 RMK AO2 RAE21 SLP172 CIG 004V006 P0000 T01670156=
201710160952 METAR KATL 160952Z 33009KT 8SM -RA BKN006 OVC120 17/17 A3005 RMK AO2 RAE03B20 SLP168 CIG 005V007 P0002 T01720167=
201710160852 METAR KATL 160852Z 33010KT 8SM -RA BKN007 BKN048 OVC110 18/17 A3004 RMK AO2 SLP165 P0002 60006 T01830172 58007 $=
201710160839 SPECI KATL 160839Z 33008KT 8SM -RA BKN007 BKN046 BKN110 18/18 A3004 RMK AO2 P0001 T01830178 $=
201710160819 SPECI KATL 160819Z 32012KT 8SM -RA SCT007 SCT055 OVC110 18/18 A3004 RMK AO2 P0001 T01830178 $=
201710160752 METAR KATL 160752Z 32014KT 7SM -RA BKN007 BKN012 OVC130 19/18 A3005 RMK AO2 SLP168 P0001 T01940183 $=
201710160749 SPECI KATL 160749Z 33014KT 7SM -RA BKN007 BKN012 OVC130 19/18 A3005 RMK AO2 P0001 $=
201710160701 SPECI KATL 160701Z 34009KT 10SM -RA SCT008 BKN050 OVC075 21/20 A3005 RMK AO2 P0000 T02110200 $=
201710160652 METAR KATL 160652Z 32011KT 6SM -RA BR SCT008 BKN013 BKN050 OVC130 21/20 A3006 RMK AO2 RAB13 SLP169 P0003 T02110200 $=
201710160612 SPECI KATL 160612Z 31010KT 10SM FEW008 SCT018 BKN060 BKN130 OVC250 22/21 A3006 RMK AO2 SHRA W-N-NE T02220206 $=
201710160552 METAR KATL 160552Z 30013KT 10SM FEW011 SCT020 BKN050 BKN130 BKN250 23/21 A3006 RMK AO2 SLP171 CB DSNT W-N SHRA VC W-N T02280211 10244 20228 55004 $=
201710160452 METAR KATL 160452Z 24006KT 10SM SCT060 BKN120 BKN250 23/21 A3006 RMK AO2 SLP171 T02280206 402830183 $=
201710160352 METAR KATL 160352Z 23003KT 10SM BKN060 BKN120 BKN250 23/21 A3007 RMK AO2 SLP174 OCNL LTGIC DSNT W-NW CB DSNT W-NW T02330211 $=
201710160252 METAR KATL 160252Z 23004KT 10SM FEW075 SCT120 SCT250 23/21 A3008 RMK AO2 SLP177 OCNL LTGIC DSNT W-NW CB DSNT W-NW T02280206 50008 $=
201710160152 METAR KATL 160152Z 24003KT 10SM FEW030 SCT110 SCT250 23/21 A3008 RMK AO2 SLP179 OCNL LTGIC DSNT NW CB DSNT NW T02330206 $=
201710160052 METAR KATL 160052Z 22003KT 10SM FEW030 FEW110 SCT250 24/21 A3007 RMK AO2 SLP175 FRQ LTGICCA DSNT NW CB DSNT NW T02390211 $=
201710152352 METAR KATL 152352Z 00000KT 10SM FEW030 FEW100 SCT250 24/21 A3005 RMK AO2 SLP170 CB DSNT NW T02440206 10283 20244 55003 $=
201710152252 METAR KATL 152252Z 21006KT 10SM FEW030 FEW080 SCT110 SCT250 26/20 A3004 RMK AO2 SLP166 TCU DSNT NE-E & SE-S & NW T02610200 $=
201710152152 METAR KATL 152152Z 24007KT 10SM FEW032TCU SCT075 BKN110 BKN200 27/20 A3006 RMK AO2 SLP171 TCU N-NE & SW & DSNT SE-S & NW T02670200 $=
201710152052 METAR KATL 152052Z 22010KT 10SM SCT032TCU BKN055 BKN110 BKN200 28/20 A3006 RMK AO2 SLP171 TCU NE & NW & DSNT NW-NE SHRA DSNT NE T02780200 56028 $=
201710151952 METAR KATL 151952Z 21005KT 10SM SCT029 BKN047 27/20 A3009 RMK AO2 SLP180 TCU DSNT N T02720200 $=
201710151852 METAR KATL 151852Z 21007KT 170V240 10SM SCT030 28/20 A3012 RMK AO2 SLP189 MDT CU ALQDS T02780200 $=
201710151752 METAR KATL 151752Z 22005KT 10SM SCT026 BKN065 27/21 A3015 RMK AO2 SLP201 T02670206 10267 20189 58019 $=
201710151652 METAR KATL 151652Z 21003KT 10SM FEW022 SCT080 26/20 A3018 RMK AO2 SLP210 T02610200 $=
201710151552 METAR KATL 151552Z VRB03KT 10SM FEW016 BKN075 24/19 A3020 RMK AO2 SLP219 T02390194 $=
201710151452 METAR KATL 151452Z VRB04KT 10SM FEW008 BKN075 22/19 A3021 RMK AO2 SLP223 T02170194 51008 $=
201710151434 SPECI KATL 151434Z 18005KT 7SM SCT006 BKN060 21/19 A3021 RMK AO2 T02110194 $=
201710151352 METAR KATL 151352Z 14003KT 6SM BR BKN006 OVC060 20/19 A3020 RMK AO2 SLP222 T02000189 $=
201710151252 METAR KATL 151252Z 13005KT 5SM BR BKN005 OVC055 19/18 A3019 RMK AO2 SLP218 T01940183 $=
201710151152 METAR KATL 151152Z 12005KT 6SM BR BKN008 OVC050 19/18 A3018 RMK AO2 SLP215 CIG 006V010 T01890183 10194 20183 53006 $=
201710151134 SPECI KATL 151134Z 14004KT 6SM BR BKN009 OVC050 19/18 A3018 RMK AO2 T01940183 $=
201710151114 SPECI KATL 151114Z 14005KT 9SM SCT009 SCT014 OVC050 19/18 A3018 RMK AO2 T01940183 $=
201710151052 METAR KATL 151052Z 12005KT 10SM SCT012 OVC050 19/18 A3018 RMK AO2 SLP212 T01940183 $=
201710150952 METAR KATL 150952Z 13004KT 10SM OVC012 19/18 A3017 RMK AO2 SLP208 CIG 010V014 T01940183 $=
201710150923 SPECI KATL 150923Z 12004KT 9SM BKN014 19/18 A3016 RMK AO2 CIG 012V017 T01940183 $=
201710150852 METAR KATL 150852Z 12004KT 9SM OVC017 19/18 A3016 RMK AO2 SLP207 T01890178 56007=
201710150752 METAR KATL 150752Z 00000KT 8SM BKN020 BKN029 18/18 A3017 RMK AO2 SLP209 T01830178=
201710150652 METAR KATL 150652Z 11004KT 10SM FEW049 SCT060 19/18 A3017 RMK AO2 SLP211 T01890178=
201710150552 METAR KATL 150552Z 14003KT 10SM BKN042 19/18 A3018 RMK AO2 SLP215 T01890178 10222 20189 56006=
201710150452 METAR KATL 150452Z 00000KT 10SM FEW042 19/18 A3019 RMK AO2 SLP217 T01890178 402330189=
201710150352 METAR KATL 150352Z 12004KT 10SM CLR 19/18 A3019 RMK AO2 SLP219 T01940178=
201710150252 METAR KATL 150252Z 13003KT 10SM CLR 19/18 A3020 RMK AO2 SLP221 T01940178 53001=
201710150152 METAR KATL 150152Z 07005KT 10SM CLR 20/18 A3019 RMK AO2 SLP218 T02000178=
201710150052 METAR KATL 150052Z 00000KT 10SM FEW018 21/18 A3020 RMK AO2 SLP220 T02110178=
201710150041 SPECI KATL 150041Z 12003KT 10SM SCT018 21/18 A3020 RMK AO2 T02110178=
201710142352 METAR KATL 142352Z 14004KT 10SM OVC021 22/18 A3020 RMK AO2 SLP220 T02170178 10233 20217 53003=
201710142252 METAR KATL 142252Z 16003KT 10SM BKN023 22/17 A3019 RMK AO2 SLP217 T02220172=
201710142152 METAR KATL 142152Z 13004KT 10SM BKN021 23/17 A3019 RMK AO2 SLP218 T02280172=
201710142052 METAR KATL 142052Z 17005KT 10SM BKN021 23/17 A3019 RMK AO2 SLP215 T02330172 56019=
201710141952 METAR KATL 141952Z VRB04KT 10SM OVC020 22/18 A3020 RMK AO2 SLP220 T02220178=
201710141852 METAR KATL 141852Z 16007KT 10SM OVC017 22/18 A3022 RMK AO2 SLP226 T02170178=
201710141752 METAR KATL 141752Z 13005KT 10SM OVC015 22/18 A3025 RMK AO2 SLP236 T02170178 10217 20206 58016=
201710141738 SPECI KATL 141738Z 12005KT 10SM OVC015 21/18 A3026 RMK AO2 T02110178=
201710141652 METAR KATL 141652Z 11006KT 10SM OVC014 21/18 A3028 RMK AO2 SLP247 T02110178=
201710141552 METAR KATL 141552Z 12005KT 10SM OVC014 21/18 A3029 RMK AO2 SLP251 T02110178=
201710141452 METAR KATL 141452Z 11007KT 10SM OVC013 21/18 A3030 RMK AO2 SLP252 T02110178 51010=
201710141352 METAR KATL 141352Z 11006KT 10SM OVC013 21/18 A3030 RMK AO2 SLP252 T02060178=
201710141252 METAR KATL 141252Z 12005KT 10SM OVC012 21/18 A3028 RMK AO2 SLP246 CIG 011V015 T02060178=
201710141152 METAR KATL 141152Z 09010KT 10SM OVC011 21/18 A3027 RMK AO2 SLP241 T02060178 10217 20206 53012=
201710141052 METAR KATL 141052Z 13007KT 10SM OVC012 21/18 A3026 RMK AO2 SLP237 T02060178=
201710140952 METAR KATL 140952Z 12006KT 10SM OVC014 21/18 A3024 RMK AO2 SLP231 T02060178=
201710140852 METAR KATL 140852Z 10010KT 10SM OVC012 21/18 A3023 RMK AO2 SLP227 CIG 010V014 T02110183 55001=
201710140752 METAR KATL 140752Z 10006KT 10SM OVC013 21/18 A3023 RMK AO2 SLP226 T02110183=
201710140723 SPECI KATL 140723Z 11005KT 10SM BKN013 OVC035 21/18 A3023 RMK AO2 CIG 012V016 BINOVC T02110183=
201710140719 SPECI KATL 140719Z 12006KT 10SM OVC015 21/18 A3023 RMK AO2 T02110183=
201710140652 METAR KATL 140652Z 10010KT 10SM BKN013 OVC035 21/19 A3023 RMK AO2 SLP229 CIG 012V016 BINOVC T02110189=
201710140552 METAR KATL 140552Z 09009KT 10SM BKN015 OVC035 22/19 A3023 RMK AO2 SLP229 CIG 012V017 BINOVC T02170194 10250 20217 50001=
201710140452 METAR KATL 140452Z 09008KT 10SM BKN013 OVC020 22/19 A3024 RMK AO2 SLP230 T02220194 402890194=
201710140352 METAR KATL 140352Z 09009KT 10SM BKN012 OVC020 22/20 A3024 RMK AO2 SLP231 T02220200=
201710140252 METAR KATL 140252Z 10010KT 10SM BKN013 OVC020 23/20 A3023 RMK AO2 SLP229 T02280200 52018=
201710140152 METAR KATL 140152Z 08014KT 10SM BKN014 23/21 A3021 RMK AO2 SLP222 T02330206=
201710140052 METAR KATL 140052Z 08011KT 10SM BKN016 24/21 A3020 RMK AO2 SLP217 T02390206=
201710132352 METAR KATL 132352Z 09008KT 10SM CLR 25/21 A3018 RMK AO2 SLP210 T02500206 10289 20250 53006=
201710132252 METAR KATL 132252Z 10007KT 10SM FEW035 26/21 A3017 RMK AO2 SLP206 T02610206=
201710132152 METAR KATL 132152Z 08006KT 10SM FEW035 28/18 A3016 RMK AO2 SLP205 T02830183=
201710132052 METAR KATL 132052Z 10007KT 10SM FEW036TCU FEW060 28/19 A3016 RMK AO2 SLP205 TCU NE T02830189 56014=
201710131952 METAR KATL 131952Z 12007KT 10SM SCT033 28/19 A3017 RMK AO2 SLP206 MDT CU ALQDS T02830194=
201710131852 METAR KATL 131852Z 10005KT 10SM SCT028 SCT050 27/21 A3018 RMK AO2 SLP211 MDT CU ALQDS T02670206=
201710131831 SPECI KATL 131831Z 10007KT 10SM FEW020 SCT030 BKN050 27/21 A3019 RMK AO2 T02720211=
201710131752 METAR KATL 131752Z 14006KT 10SM BKN016 OVC021 26/21 A3020 RMK AO2 SLP219 T02560211 10256 20211 58007=
201710131746 SPECI KATL 131746Z 12004KT 10SM OVC017 25/21 A3021 RMK AO2=
201710131706 SPECI KATL 131706Z 10006KT 8SM BKN012 OVC016 24/21 A3022 RMK AO2 T02390211=
201710131652 METAR KATL 131652Z 13005KT 7SM BKN009 OVC014 24/21 A3022 RMK AO2 SLP226 T02440211=
201710131648 SPECI KATL 131648Z 12006KT 7SM OVC009 24/21 A3022 RMK AO2=
201710131552 METAR KATL 131552Z 10007KT 7SM OVC010 24/21 A3023 RMK AO2 SLP228 T02390211=
201710131452 METAR KATL 131452Z 10009KT 10SM BKN015 24/20 A3023 RMK AO2 SLP226 T02390200 51010=
201710131352 METAR KATL 131352Z 08012KT 7SM BKN010 23/21 A3021 RMK AO2 SLP222 T02280206=
201710131347 SPECI KATL 131347Z 09009KT 7SM BKN010 23/21 A3021 RMK AO2=
201710131252 METAR KATL 131252Z 09010KT 2 1/2SM BR OVC009 22/21 A3019 RMK AO2 SFC VIS 6 SLP216 CIG 007V011 BINOVC T02220206=
201710131210 SPECI KATL 131210Z 08011KT 2SM BR OVC005 22/21 A3018 RMK AO2 SFC VIS 5 CIG 004V006 T02170206=
201710131152 METAR KATL 131152Z 09010KT 2SM BR OVC004 21/21 A3017 RMK AO2 SFC VIS 4 SLP209 CIG 003V005 T02110206 10211 20194 51015=
201710131052 METAR KATL 131052Z 08008KT 1/2SM R09R/P6000FT BR OVC002 21/20 A3016 RMK AO2 SFC VIS 1 1/4 SLP204 CIG 001V003 TWRINC T02060200=
201710130952 METAR KATL 130952Z 07008KT 1/2SM R09R/P6000FT BR OVC002 19/19 A3015 RMK AO2 SFC VIS 1 SLP200 CIG 001V003 TWRINC T01940189=
201710130942 SPECI KATL 130942Z 07009KT 1SM R09R/P6000FT BR OVC003 19/19 A3015 RMK AO2 SFC VIS 2 1/2 CIG 002V004 TWRINC T01940189=
201710130930 SPECI KATL 130930Z 07009KT 3SM BR OVC004 19/18 A3014 RMK AO2 CIG 003V005 T01940183=
201710130856 SPECI KATL 130856Z 06010KT 10SM BKN006 20/17 A3013 RMK AO2 CIG 004V007 T02000167=
201710130852 METAR KATL 130852Z 06009KT 10SM SCT006 20/17 A3013 RMK AO2 SLP193 T02000167 53006=
201710130848 SPECI KATL 130848Z 07008KT 10SM FEW007 20/16 A3013 RMK AO2=
201710130752 METAR KATL 130752Z 04005KT 10SM CLR 20/14 A3012 RMK AO2 SLP188 T02000144=
201710130652 METAR KATL 130652Z 01003KT 10SM CLR 20/15 A3011 RMK AO2 SLP187 T02000150=
201710130552 METAR KATL 130552Z 00000KT 10SM CLR 21/15 A3011 RMK AO2 SLP186 T02110150 10250 20200 50001=
201710130452 METAR KATL 130452Z 00000KT 10SM CLR 21/15 A3011 RMK AO2 SLP187 T02060150 403060194=
201710130352 METAR KATL 130352Z 01005KT 10SM CLR 22/14 A3011 RMK AO2 SLP186 T02220139=
201710130252 METAR KATL 130252Z 34005KT 10SM CLR 23/14 A3011 RMK AO2 SLP186 T02280144 51014=
201710130152 METAR KATL 130152Z 32003KT 10SM CLR 23/15 A3010 RMK AO2 SLP182 T02330150=
201710130052 METAR KATL 130052Z 30003KT 10SM CLR 24/14 A3008 RMK AO2 SLP179 T02390144=
201710122352 METAR KATL 122352Z 31004KT 10SM CLR 25/13 A3006 RMK AO2 SLP173 T02500133 10306 20250 53005=
201710122252 METAR KATL 122252Z 30005KT 10SM CLR 27/11 A3006 RMK AO2 SLP168 T02670111=
201710122152 METAR KATL 122152Z 33004KT 10SM CLR 29/09 A3005 RMK AO2 SLP166 T02940089=
201710122052 METAR KATL 122052Z 36007KT 10SM FEW200 30/10 A3005 RMK AO2 SLP166 CB DSNT S T03000100 56009=
201710121952 METAR KATL 121952Z 34006KT 10SM CLR 30/09 A3005 RMK AO2 SLP166 T03000094=
201710121852 METAR KATL 121852Z 36007KT 10SM CLR 30/12 A3006 RMK AO2 SLP168 T03000122=
201710121752 METAR KATL 121752Z 31007KT 10SM CLR 29/13 A3008 RMK AO2 SLP174 T02890133 10294 20194 58009=
201710121652 METAR KATL 121652Z 30010KT 10SM CLR 29/09 A3009 RMK AO2 SLP179 T02890094=
201710121552 METAR KATL 121552Z 33007KT 10SM CLR 27/18 A3010 RMK AO2 SLP184 T02720183=
201710121452 METAR KATL 121452Z 36006KT 10SM FEW020 26/19 A3011 RMK AO2 SLP185 T02560194 51012=
201710121352 METAR KATL 121352Z 32005KT 9SM FEW006 FEW250 23/20 A3010 RMK AO2 SLP184 T02280200=
201710121252 METAR KATL 121252Z 30004KT 6SM BR FEW002 FEW250 21/19 A3009 RMK AO2 SLP180 T02060194=
201710121152 METAR KATL 121152Z 32005KT 6SM BR FEW002 FEW250 19/19 A3007 RMK AO2 SLP174 T01940189 10233 20194 52009=
201710121052 METAR KATL 121052Z 31008KT 8SM FEW002 20/19 A3006 RMK AO2 SLP171 T02000194=
201710120952 METAR KATL 120952Z 31007KT 8SM CLR 21/20 A3005 RMK AO2 SLP166 T02060200=
201710120852 METAR KATL 120852Z 31005KT 9SM CLR 21/21 A3004 RMK AO2 SLP162 T02110206 56003=
201710120752 METAR KATL 120752Z 31006KT 10SM CLR 22/21 A3005 RMK AO2 SLP163 T02170206=
201710120652 METAR KATL 120652Z 31005KT 10SM CLR 22/21 A3005 RMK AO2 SLP164 T02220211=
201710120552 METAR KATL 120552Z 30005KT 10SM FEW250 23/21 A3005 RMK AO2 SLP165 T02330211 10267 20222 58006=
201710120452 METAR KATL 120452Z 30004KT 10SM FEW250 23/21 A3006 RMK AO2 SLP169 T02330211 403110211=
201710120352 METAR KATL 120352Z 27003KT 10SM FEW250 24/21 A3007 RMK AO2 SLP173 T02390211=
201710120252 METAR KATL 120252Z 28003KT 10SM FEW250 24/21 A3007 RMK AO2 SLP172 T02440211 52004=
201710120152 METAR KATL 120152Z 29004KT 10SM FEW250 25/21 A3007 RMK AO2 SLP173 T02500211=
201710120052 METAR KATL 120052Z 31004KT 10SM FEW250 26/21 A3006 RMK AO2 SLP169 T02560211=
201710112352 METAR KATL 112352Z 31004KT 10SM FEW250 27/21 A3006 RMK AO2 SLP169 T02670211 10311 20267 53004=
201710112252 METAR KATL 112252Z 33006KT 10SM SCT250 28/21 A3005 RMK AO2 SLP167 T02780206=
201710112152 METAR KATL 112152Z 33009KT 10SM FEW040 FEW250 29/20 A3005 RMK AO2 SLP164 T02890200=
201710112052 METAR KATL 112052Z 32009KT 10SM FEW040 FEW250 31/19 A3005 RMK AO2 SLP164 T03060189 56010=
201710111952 METAR KATL 111952Z 34011G17KT 10SM FEW040 FEW250 31/21 A3005 RMK AO2 SLP166 MDT CU S T03060206=
201710111852 METAR KATL 111852Z 31009KT 10SM FEW035TCU SCT045 29/22 A3006 RMK AO2 SLP170 TCU S-SW T02940217=
201710111752 METAR KATL 111752Z 30009KT 10SM SCT030 BKN040 BKN050 28/22 A3008 RMK AO2 SLP175 MDT CU NE-SE-SW 60000 T02830217 10306 20228 58007=
201710111652 METAR KATL 111652Z 23007KT 10SM FEW030 SCT040 29/21 A3009 RMK AO2 SLP180 MDT CU SE-S & NW-N T02890206=
201710111552 METAR KATL 111552Z VRB06KT 10SM FEW020 BKN040 28/23 A3010 RMK AO2 SLP182 MDT CU NE-SE T02830228=
201710111549 SPECI KATL 111549Z 28007KT 10SM FEW020 BKN040 28/22 A3010 RMK AO2 MDT CU NE-SE=
201710111513 SPECI KATL 111513Z 29007KT 10SM BKN020 BKN030 27/22 A3010 RMK AO2 T02670222=
201710111452 METAR KATL 111452Z 27005KT 10SM FEW020 SCT050 27/22 A3009 RMK AO2 SLP181 60000 T02720222 50003=
201710111352 METAR KATL 111352Z 19004KT 10SM FEW028 FEW070 SCT250 26/22 A3010 RMK AO2 SLP182 T02560217=
201710111329 SPECI KATL 111329Z 00000KT 10SM BKN028 BKN070 BKN250 25/21 A3010 RMK AO2 T02500211=
201710111252 METAR KATL 111252Z 00000KT 10SM FEW028 SCT050 SCT075 BKN250 24/21 A3009 RMK AO2 RAE1157 SLP180 ACC SW P0000 T02390211=
201710111152 METAR KATL 111152Z 00000KT 10SM -RA BKN030 BKN055 BKN110 BKN250 23/21 A3009 RMK AO2 RAB46 SLP179 P0000 60000 T02280211 10233 20211 53008=
201710111052 METAR KATL 111052Z 00000KT 10SM FEW038 SCT048 BKN070 OVC250 23/21 A3008 RMK AO2 SLP174 T02280211=
201710110952 METAR KATL 110952Z 00000KT 10SM BKN043 OVC065 23/21 A3007 RMK AO2 SLP171 T02330206=
201710110852 METAR KATL 110852Z 00000KT 10SM SCT048 BKN070 BKN250 22/21 A3006 RMK AO2 SLP170 T02220206 56006=
201710110752 METAR KATL 110752Z 00000KT 10SM FEW050 FEW250 22/21 A3007 RMK AO2 SLP171 T02170206=
201710110652 METAR KATL 110652Z 00000KT 10SM FEW250 22/21 A3007 RMK AO2 SLP174 T02170206=
201710110552 METAR KATL 110552Z 00000KT 10SM FEW250 22/21 A3008 RMK AO2 SLP176 T02220206 10261 20222 58002=
201710110452 METAR KATL 110452Z 15003KT 10SM FEW250 22/21 A3008 RMK AO2 SLP177 T02220211 403060222=
201710110352 METAR KATL 110352Z 19003KT 10SM FEW250 23/21 A3009 RMK AO2 SLP180 T02280211=
201710110252 METAR KATL 110252Z 00000KT 10SM FEW250 24/21 A3009 RMK AO2 SLP179 T02390211 53005=
201710110152 METAR KATL 110152Z 00000KT 10SM FEW150 SCT250 24/21 A3008 RMK AO2 SLP177 T02440206=
201710110052 METAR KATL 110052Z 22004KT 10SM FEW150 SCT250 26/21 A3008 RMK AO2 SLP175 T02560211=
201710102352 METAR KATL 102352Z 27004KT 10SM FEW150 SCT250 26/20 A3007 RMK AO2 SLP174 T02610200 10306 20256 53005=
201710102252 METAR KATL 102252Z 25004KT 10SM FEW035 SCT250 28/20 A3007 RMK AO2 SLP170 T02830200=
201710102152 METAR KATL 102152Z 26005KT 10SM SCT035 SCT250 29/21 A3006 RMK AO2 SLP168 MDT CU NE & SE T02940211=
201710102052 METAR KATL 102052Z VRB05KT 10SM SCT035 SCT200 29/22 A3006 RMK AO2 SLP167 MDT CU ALQDS T02890217 56013=
201710101952 METAR KATL 101952Z 24005KT 10SM SCT040TCU 29/22 A3007 RMK AO2 SLP171 TCU SE-SW & NW T02940217=
201710101852 METAR KATL 101852Z 23008KT 10SM SCT036 29/22 A3008 RMK AO2 SLP173 MDT CU ALQDS T02940217=
201710101752 METAR KATL 101752Z 21008KT 10SM SCT028 SCT250 28/22 A3010 RMK AO2 SLP181 CB DSNT E TCU DSNT E MDT CU SW-NW T02830222 10289 20228 58010=
201710101652 METAR KATL 101652Z 22007KT 10SM BKN020TCU 28/23 A3012 RMK AO2 SLP187 TCU ALQDS T02830233=
201710101552 METAR KATL 101552Z 21005KT 9SM FEW008 SCT012 SCT048 27/23 A3012 RMK AO2 SLP191 T02670233=
201710101452 METAR KATL 101452Z 00000KT 8SM SCT008 BKN012 BKN045 25/23 A3013 RMK AO2 SLP193 T02500233 50009=
201710101426 SPECI KATL 101426Z 00000KT 7SM FEW007 SCT012 BKN050 24/23 A3013 RMK AO2 T02440228=
201710101352 METAR KATL 101352Z 00000KT 2SM BR FEW005 SCT010 BKN048 24/23 A3013 RMK AO2 SFC VIS 5 SLP194 T02390228=
201710101330 SPECI KATL 101330Z 00000KT 2SM BR BKN005 BKN008 BKN048 24/23 A3013 RMK AO2 SFC VIS 5 T02390228=
201710101252 METAR KATL 101252Z 00000KT 1SM R09R/P6000FT BR BKN004 BKN080 23/23 A3011 RMK AO2 SFC VIS 4 SLP188 CIG 002V005 T02330228=
201710101152 METAR KATL 101152Z 15004KT 1SM R09R/P6000FT BR OVC003 23/23 A3010 RMK AO2 SFC VIS 2 SLP183 VIS SE-SW 1 CIG 002V004 70042 T02280228 10233 20228 53010=
201710101052 METAR KATL 101052Z 14003KT 1SM R09R/P6000FT BR OVC004 23/23 A3008 RMK AO2 SFC VIS 3 SLP178 CIG 003V005 T02330228=
201710100952 METAR KATL 100952Z 09003KT 1SM R09R/P6000FT BR BKN004 23/23 A3008 RMK AO2 SFC VIS 2 SLP176 CIG 002V005 T02280228=
201710100902 SPECI KATL 100902Z 09003KT 1SM R09R/P6000FT BR BKN005 BKN028 OVC100 23/23 A3007 RMK AO2 SFC VIS 2 1/2 CIG 004V007 T02330228=
201710100852 METAR KATL 100852Z 00000KT 1SM R09R/P6000FT BR BKN004 OVC027 23/23 A3007 RMK AO2 SFC VIS 3 SLP173 T02330228 51003 $=
201710100752 METAR KATL 100752Z 09003KT 1SM R09R/P6000FT BR BKN003 OVC040 23/23 A3006 RMK AO2 SFC VIS 6 SLP171 T02330228 $=
201710100652 METAR KATL 100652Z 00000KT 1SM R09R/P6000FT BR BKN004 OVC040 23/23 A3007 RMK AO2 SFC VIS 4 SLP173 T02330228 $=
201710100552 METAR KATL 100552Z 13003KT 1SM R09R/P6000FT BR BKN004 OVC008 23/23 A3006 RMK AO2 SFC VIS 4 SLP170 CIG 003V006 T02330228 10239 20233 53002 $=
201710100514 SPECI KATL 100514Z 13003KT 1SM R09R/P6000FT BR BKN004 OVC008 23/23 A3006 RMK AO2 SFC VIS 4 CIG 002V006 T02330228 $=
201710100452 METAR KATL 100452Z 14004KT 1SM R09R/P6000FT BR SCT003 BKN006 OVC015 23/23 A3005 RMK AO2 SFC VIS 4 SLP168 T02330233 402500228 $=
201710100352 METAR KATL 100352Z 14004KT 1SM R09R/P6000FT BR SCT003 BKN007 BKN015 23/23 A3006 RMK AO2 SFC VIS 5 SLP169 T02330233 $=
201710100252 METAR KATL 100252Z 15004KT 1SM R09R/P6000FT BR BKN004 OVC015 24/23 A3005 RMK AO2 SFC VIS 6 SLP168 CIG 002V007 BINOVC T02390233 51014 $=
201710100228 SPECI KATL 100228Z 14004KT 1SM R09R/P6000FT SCT003 BKN010 OVC060 24/23 A3005 RMK AO2 SFC VIS 7 SCT003 V BKN T02390233 $=
201710100152 METAR KATL 100152Z 17004KT 9SM FEW003 BKN065 BKN200 24/23 A3005 RMK AO2 SLP166 T02390233 $=
201710100111 SPECI KATL 100111Z 17005KT 9SM FEW005 SCT020 BKN055 BKN200 24/23 A3004 RMK AO2 T02390233 $=
201710100052 METAR KATL 100052Z 19005KT 9SM FEW004 BKN016 BKN030 BKN200 24/23 A3004 RMK AO2 SLP163 T02390233 $=
201710100011 SPECI KATL 100011Z 18005KT 9SM FEW004 BKN012 OVC040 24/23 A3002 RMK AO2 T02390233 $=
201710092352 METAR KATL 092352Z 16004KT 9SM FEW004 SCT020 BKN040 BKN200 24/23 A3001 RMK AO2 RAE32 SLP153 P0000 60001 T02390233 10250 20239 53010 $=
201710092333 SPECI KATL 092333Z 17004KT 8SM FEW005 SCT015 BKN040 24/23 A3001 RMK AO2 RAE32 P0000 T02390233 $=
201710092252 METAR KATL 092252Z 14005KT 3SM -RA BR FEW008 BKN014 OVC040 24/23 A2999 RMK AO2 SFC VIS 6 RAB05 SLP145 P0000 T02440233 $=
201710092200 SPECI KATL 092200Z 14003KT 3SM SCT006 BKN012 OVC040 24/23 A2998 RMK AO2 SFC VIS 7 T02440233 $=
201710092152 METAR KATL 092152Z 15003KT 8SM SCT006 BKN012 OVC040 24/23 A2998 RMK AO2 DZE23 SLP141 P0000 T02440233 $=
201710092112 SPECI KATL 092112Z 19003KT 2SM -DZ BR SCT005 BKN012 OVC040 24/23 A2998 RMK AO2 SFC VIS 4 P0000 T02440233 $=
201710092052 METAR KATL 092052Z 18006KT 2SM R09R/6000VP6000FT -DZ BR BKN008 BKN020 OVC040 24/23 A2998 RMK AO2 RAE1957DZB42 SLP143 P0001 60001 T02440233 56007 $=
201710092028 SPECI KATL 092028Z 16005KT 7SM BKN010 BKN020 OVC030 24/23 A2998 RMK AO2 RAE1957 P0000 T02440233 $=
201710091952 METAR KATL 091952Z 17006KT 5SM -RA BR BKN008 BKN015 OVC030 24/23 A2998 RMK AO2 RAE02B47 SLP144 P0000 T02390228 $=
201710091852 METAR KATL 091852Z 16004KT 5SM -RA BR FEW005 BKN012 OVC030 24/23 A2999 RMK AO2 RAB27 SLP145 P0000 T02440233 $=
201710091810 SPECI KATL 091810Z 18007KT 10SM FEW008 BKN012 OVC030 25/23 A3000 RMK AO2 T02500228 $=
201710091752 METAR KATL 091752Z 20006KT 9SM BKN010 BKN030 BKN080 24/22 A3000 RMK AO2 SLP150 60041 T02440222 10244 20228 58007 $=
201710091714 SPECI KATL 091714Z 17008KT 8SM FEW006 BKN020 OVC040 23/22 A3001 RMK AO2 T02330222 $=
201710091652 METAR KATL 091652Z 18006KT 3SM BR BKN006 BKN020 OVC080 23/22 A3002 RMK AO2 SFC VIS 6 RAE43 SLP155 P0006 T02280217 $=
201710091650 SPECI KATL 091650Z 19006KT 3SM BR BKN006 BKN040 OVC080 23/22 A3002 RMK AO2 SFC VIS 6 RAE43 P0006 $=
201710091623 SPECI KATL 091623Z 17005KT 3SM -RA BR FEW008 BKN040 OVC080 23/22 A3002 RMK AO2 SFC VIS 6 P0006 T02280217 $=
201710091552 METAR KATL 091552Z 13005KT 3SM -RA BR BKN005 BKN020 OVC050 23/22 A3002 RMK AO2 SFC VIS 6 SLP157 P0002 T02280217 $=
201710091452 METAR KATL 091452Z 18012KT 6SM -RA BR BKN007 BKN015 OVC050 23/22 A3003 RMK AO2 SLP158 P0007 60033 T02280222 51021 $=
201710091352 METAR KATL 091352Z 18005KT 7SM -RA FEW005 SCT015 OVC050 23/22 A3002 RMK AO2 SLP155 P0021 T02280222 $=
201710091337 SPECI KATL 091337Z 18004KT 8SM -RA FEW005 SCT020 OVC050 23/22 A3001 RMK AO2 TS DSIPT CB DSNT SE-SW P0021 T02280222 $=
201710091324 SPECI KATL 091324Z 19004KT 2SM R09R/5500VP6000FT RA BR FEW007 BKN020 OVC040 23/22 A3000 RMK AO2 SFC VIS 3 TS DSIPT CB DSNT SE-SW P0019 T02280222 $=
201710091317 SPECI KATL 091317Z 17007KT 2SM R09R/5000VP6000FT +RA BR FEW007 OVC039 23/22 A2999 RMK AO2 SFC VIS 3 TS DSIPT CB DSNT SE-SW P0015 T02280222 $=
201710091252 METAR KATL 091252Z 17003KT 5SM -RA BR FEW005 BKN020 OVC026 23/23 A2999 RMK AO2 TSE51 SLP146 TS DSIPT CB DSNT SE-SW P0005 T02330228=
201710091152 METAR KATL 091152Z 00000KT 6SM -TSRA BR BKN006 OVC011CB 23/23 A2996 RMK AO2 LTG DSNT SE-SW RAB30 TSB52 SLP136 OCNL LTGICCG SW TS VC SW MOV NE P0000 60000 70145 T02330228 10239 20233 53021=
201710091137 SPECI KATL 091137Z 20003KT 6SM -RA BR SCT006 OVC009 23/23 A2996 RMK AO2 LTG DSNT SE AND SW RAB30 OCNL LTGICCG DSNT E-SE & SW CB DSNT E-SE & SW P0000 T02330228=
201710091108 SPECI KATL 091108Z 14004KT 8SM VCTS OVC007CB 23/23 A2995 RMK AO2 LTG DSNT SE-SW TS VC SE-S MOV NE T02330228=
201710091101 SPECI KATL 091101Z 15004KT 8SM VCTS FEW005 OVC010 23/23 A2994 RMK AO2 LTG DSNT S AND SW T02330228=
201710091052 METAR KATL 091052Z 15004KT 8SM BKN009 BKN065 BKN150 BKN250 23/23 A2994 RMK AO2 LTG DSNT SE SLP129 CB DSNT SE-SW T02330228=
201710090952 METAR KATL 090952Z 15005KT 8SM FEW007 BKN013 BKN040 BKN250 23/23 A2991 RMK AO2 LTG DSNT SE SLP120 CB DSNT SE-SW T02330228=
201710090949 SPECI KATL 090949Z 14004KT 8SM FEW007 BKN013 BKN040 BKN250 23/23 A2991 RMK AO2 LTG DSNT SE CB DSNT SE-SW=
201710090852 METAR KATL 090852Z 17004KT 8SM FEW007 SCT026 BKN043 BKN250 23/23 A2990 RMK AO2 LTG DSNT S DZE0756 SLP114 CB DSNT SE-S P0000 60000 T02330228 51004=
201710090845 SPECI KATL 090845Z 17003KT 8SM FEW007 SCT026 BKN043 BKN250 23/23 A2989 RMK AO2 LTG DSNT S DZE0756 CB DSNT S P0000 T02330228=
201710090824 SPECI KATL 090824Z 19003KT 10SM SCT017 BKN028 OVC043 23/23 A2990 RMK AO2 DZE0756 P0000 T02330228=
201710090806 SPECI KATL 090806Z 19003KT 10SM FEW008 SCT022 BKN043 BKN250 24/23 A2990 RMK AO2 DZE0756 P0000 T02390228=
201710090752 METAR KATL 090752Z 20005KT 8SM -DZ FEW008 SCT014 OVC028 24/23 A2989 RMK AO2 RAE02DZB16 SLP113 P0000 T02390228=
201710090749 SPECI KATL 090749Z 19004KT 8SM -DZ FEW008 SCT014 OVC028 24/23 A2989 RMK AO2 RAE02DZB16 P0000=
201710090717 SPECI KATL 090717Z 20005KT 8SM -DZ SCT008 BKN014 OVC026 24/23 A2990 RMK AO2 RAE02DZB16 P0000 T02390228=
201710090657 SPECI KATL 090657Z 21006KT 9SM -RA BKN008 OVC013 24/23 A2990 RMK AO2 CIG 007V010 P0000 T02390228=
201710090652 METAR KATL 090652Z 22005KT 10SM -RA BKN010 OVC015 24/23 A2990 RMK AO2 RAB44 SLP116 P0000 T02390228=
201710090552 METAR KATL 090552Z 19007KT 10SM BKN012 OVC018 24/22 A2988 RMK AO2 SLP110 T02390222 10244 20239 51014=
201710090452 METAR KATL 090452Z 21010KT 10SM BKN012 OVC018 24/22 A2987 RMK AO2 SLP107 CIG 010V014 T02390222 402440228=
201710090352 METAR KATL 090352Z 19012KT 10SM OVC014 24/22 A2986 RMK AO2 SLP103 CIG 011V017 T02440222=
201710090333 SPECI KATL 090333Z 20013G18KT 10SM BKN013 OVC020 24/22 A2986 RMK AO2 CIG 011V015 T02440222=
201710090252 METAR KATL 090252Z 21012KT 10SM FEW010 BKN015 OVC022 24/22 A2984 RMK AO2 SLP096 CIG 013V017 T02440222 53020=
201710090152 METAR KATL 090152Z 19015KT 10SM BKN016 OVC024 24/22 A2982 RMK AO2 SLP089 CIG 014V018 T02440222=
201710090052 METAR KATL 090052Z 19013KT 10SM FEW010 BKN015 OVC024 24/22 A2980 RMK AO2 SLP080 CIG 013V017 T02390222=
201710082352 METAR KATL 082352Z 19014G21KT 10SM BKN016 OVC024 24/22 A2978 RMK AO2 SLP075 CIG 014V018 60049 T02390222 10244 20228 53019=
201710082313 SPECI KATL 082313Z 19017G22KT 10SM BKN018 BKN040 BKN070 OVC200 24/22 A2976 RMK AO2 CIG 016V020 T02390217=
201710082252 METAR KATL 082252Z 18017G27KT 10SM SCT016 BKN044 BKN140 OVC200 24/22 A2975 RMK AO2 PK WND 19029/2230 SLP066 T02440222=
201710082223 SPECI KATL 082223Z 18016G26KT 10SM SCT010 BKN022 BKN036 OVC140 24/23 A2975 RMK AO2 PK WND 17026/2222 T02440228=
201710082152 METAR KATL 082152Z 17015G21KT 2SM SCT006 BKN014 OVC024 24/23 A2974 RMK AO2 SFC VIS 8 RAE24 SLP061 CIG 012V016 P0008 T02440228=
201710082052 METAR KATL 082052Z 16015G22KT 2SM -RA BR SCT007 BKN011 OVC018 24/23 A2972 RMK AO2 SFC VIS 3 SLP056 P0008 60041 T02390228 56026=
201710081952 METAR KATL 081952Z 15013G27KT 2SM RA BR SCT008 BKN013 OVC030 23/22 A2974 RMK AO2 PK WND 16030/1931 SFC VIS 3 SLP060 P0021 T02330222=
201710081945 SPECI KATL 081945Z 16016G30KT 2SM RA BR SCT006 BKN013 OVC032 23/22 A2974 RMK AO2 PK WND 16030/1931 SFC VIS 3 P0020 T02330222=
201710081932 SPECI KATL 081932Z 16018G30KT 2SM R09R/6000VP6000FT +RA BR SCT007 BKN024 OVC034 23/22 A2974 RMK AO2 PK WND 16030/1931 SFC VIS 3 P0013 T02330222=
201710081925 SPECI KATL 081925Z 14013G20KT 3SM RA BR SCT008 BKN019 OVC044 23/22 A2974 RMK AO2 SFC VIS 4 P0007 T02280222=
201710081918 SPECI KATL 081918Z 14011G20KT 3SM RA BR FEW008 BKN032 OVC070 23/22 A2974 RMK AO2 SFC VIS 4 P0005 T02280222=
201710081852 METAR KATL 081852Z 13012G20KT 3SM -RA BR SCT038 BKN065 OVC080 23/22 A2975 RMK AO2 SFC VIS 4 SLP065 P0012 T02280217=
201710081825 SPECI KATL 081825Z 14009G17KT 3SM -RA BR FEW044 SCT075 OVC100 23/21 A2977 RMK AO2 SFC VIS 4 P0007 T02280211=
201710081811 SPECI KATL 081811Z 15009KT 2 1/2SM +RA BR SCT044 SCT075 OVC100 23/21 A2979 RMK AO2 TWR VIS 3 P0003 T02280206=
201710081752 METAR KATL 081752Z 15011G21KT 10SM -RA FEW042 FEW075 OVC110 23/21 A2980 RMK AO2 SLP083 P0001 60096 T02330211 10244 20233 58018=
201710081736 SPECI KATL 081736Z 16012G22KT 10SM -RA FEW012 BKN080 OVC120 23/21 A2983 RMK AO2 P0000 T02330211=
201710081718 SPECI KATL 081718Z 16012G19KT 10SM -RA SCT012 BKN018 OVC080 24/22 A2983 RMK AO2 P0000 T02390222=
201710081708 SPECI KATL 081708Z 17012G21KT 10SM -RA FEW009 BKN012 OVC036 24/22 A2984 RMK AO2 P0000 T02390222=
201710081652 METAR KATL 081652Z 15014G21KT 8SM -RA SCT012 BKN019 OVC070 24/23 A2984 RMK AO2 SLP095 P0006 T02390228=
201710081647 SPECI KATL 081647Z 16013G20KT 8SM -RA BKN015 BKN042 OVC090 24/22 A2984 RMK AO2 P0006=
201710081639 SPECI KATL 081639Z 16013G19KT 5SM -RA BR SCT013 BKN049 OVC100 24/23 A2985 RMK AO2 P0006 T02390228=
201710081607 SPECI KATL 081607Z 16013G25KT 2SM -RA BR FEW009 SCT015 OVC095 24/23 A2985 RMK AO2 SFC VIS 4 P0002 T02390228=
201710081552 METAR KATL 081552Z 16012G26KT 2SM -RA BR FEW009 BKN014 OVC100 24/23 A2986 RMK AO2 PK WND 18026/1550 SFC VIS 4 SLP102 P0013 T02390228=
201710081524 SPECI KATL 081524Z 16012G18KT 2SM -RA BR FEW009 BKN014 OVC050 24/23 A2987 RMK AO2 SFC VIS 4 P0008 T02390228=
201710081504 SPECI KATL 081504Z 15013KT 2SM RA BR BKN009 OVC016 24/23 A2986 RMK AO2 SFC VIS 3 P0003 T02390228=
201710081452 METAR KATL 081452Z 15012KT 2SM RA BR SCT007 BKN016 OVC100 24/23 A2986 RMK AO2 SFC VIS 4 SLP101 P0065 60076 T02390233 55001=
201710081433 SPECI KATL 081433Z 16014KT 2SM R09R/4500VP6000FT -RA BR SCT007 SCT014 OVC021 24/23 A2985 RMK AO2 SFC VIS 3 P0063 T02390228=
201710081422 SPECI KATL 081422Z 17013G19KT 1/2SM R09R/2600VP6000FT +RA BR OVC006 24/23 A2985 RMK AO2 SFC VIS 1 P0040 T02390233=
201710081414 SPECI KATL 081414Z 20012KT 1SM R09R/5500VP6000FT +RA BR OVC008 24/23 A2985 RMK AO2 SFC VIS 1 1/2 P0012 T02390233=
201710081410 SPECI KATL 081410Z 16009KT 2SM R09R/5500VP6000FT +RA BR FEW008 BKN013 OVC020 24/23 A2985 RMK AO2 P0005 T02390233=
201710081359 SPECI KATL 081359Z 13009G15KT 3SM RA BR FEW009 BKN013 OVC018 24/23 A2985 RMK AO2 P0002 T02390228=
201710081352 METAR KATL 081352Z 12009KT 2 1/2SM R09R/5000VP6000FT RA BR FEW008 OVC012 24/23 A2985 RMK AO2 SLP098 P0011 T02390228=
201710081348 SPECI KATL 081348Z 13008KT 2SM R09R/5000VP6000FT +RA BR FEW007 BKN014 OVC020 24/23 A2985 RMK AO2 P0009=
201710081334 SPECI KATL 081334Z 13006G15KT 4SM +RA BR FEW007 BKN014 OVC020 24/23 A2986 RMK AO2 P0004 T02440228=
201710081312 SPECI KATL 081312Z 13009G16KT 7SM -RA FEW009 SCT012 OVC018 24/23 A2986 RMK AO2 P0000 T02440228=
201710081252 METAR KATL 081252Z 14009G16KT 10SM -RA FEW009 BKN014 BKN060 OVC130 24/23 A2986 RMK AO2 RAB11E26B50 SLP101 P0000 T02440228=
201710081209 SPECI KATL 081209Z 14010KT 7SM SCT009 OVC014 24/23 A2986 RMK AO2 T02440228=
201710081152 METAR KATL 081152Z 14010KT 7SM BKN009 BKN014 OVC040 24/23 A2986 RMK AO2 RAE37 SLP102 P0001 60003 70003 T02440228 10244 20239 55006=
201710081052 METAR KATL 081052Z 12009KT 7SM -RA BKN007 OVC013 24/23 A2986 RMK AO2 RAB28 SLP100 P0000 T02390228=
201710080952 METAR KATL 080952Z 12007KT 6SM BR OVC006 24/23 A2986 RMK AO2 RAE44 SLP101 CIG 005V008 P0001 T02390228=
201710080852 METAR KATL 080852Z 12008KT 6SM -RA BR BKN006 OVC015 24/23 A2988 RMK AO2 RAB0755 SLP108 P0001 60001 T02390228 58016=
201710080752 METAR KATL 080752Z 13011KT 10SM OVC008 24/23 A2991 RMK AO2 SLP118 T02390228=
201710080741 SPECI KATL 080741Z 13009KT 10SM OVC008 24/22 A2991 RMK AO2 T02390222=
201710080652 METAR KATL 080652Z 12007KT 10SM BKN013 BKN038 OVC150 24/22 A2992 RMK AO2 RAB0557E50 SLP121 CIG 011V016 P0000 T02440222=
201710080552 METAR KATL 080552Z 12007KT 10SM BKN014 BKN042 OVC150 24/22 A2993 RMK AO2 SLP125 CIG 013V017 60000 T02440222 10250 20239 58015=
201710080538 SPECI KATL 080538Z 10006KT 10SM BKN013 BKN043 OVC150 24/22 A2993 RMK AO2 T02390222=
201710080519 SPECI KATL 080519Z 10008KT 10SM BKN015 BKN041 OVC130 24/22 A2994 RMK AO2 T02390222=
201710080452 METAR KATL 080452Z 10010KT 10SM FEW015 SCT028 BKN050 OVC130 24/22 A2995 RMK AO2 RAE06 SLP132 P0000 T02390222 402780217=
201710080352 METAR KATL 080352Z 11007KT 10SM -RA SCT030 BKN055 BKN100 OVC150 24/22 A2998 RMK AO2 SLP142 P0000 T02390222=
201710080252 METAR KATL 080252Z 10007KT 10SM -RA FEW100 BKN140 OVC180 24/22 A2998 RMK AO2 RAB50 SLP141 P0000 60000 T02440217 51006=
201710080152 METAR KATL 080152Z 11008KT 10SM FEW110 BKN150 BKN200 OVC250 24/22 A2997 RMK AO2 SLP140 T02440222=
201710080052 METAR KATL 080052Z 11007KT 10SM FEW016 BKN150 BKN200 BKN250 25/22 A2997 RMK AO2 SLP140 T02500222=
201710072352 METAR KATL 072352Z 12007KT 10SM FEW018 BKN140 BKN200 BKN250 25/22 A2996 RMK AO2 SLP134 T02500217 10278 20250 55004=
201710072252 METAR KATL 072252Z 11008KT 10SM FEW018 FEW100 BKN140 BKN250 26/22 A2995 RMK AO2 SLP133 ACC DSNT SE-S T02560217=
201710072152 METAR KATL 072152Z 11007KT 10SM FEW020 SCT110 BKN150 OVC250 26/22 A2995 RMK AO2 SLP132 T02610217=
201710072052 METAR KATL 072052Z 13008KT 10SM SCT020 SCT026 SCT100 BKN140 OVC200 27/22 A2997 RMK AO2 SLP138 BINOVC T02670217 56016=
201710072028 SPECI KATL 072028Z 11010KT 10SM SCT020 SCT026 BKN150 OVC200 27/22 A2997 RMK AO2 T02670217=
201710071952 METAR KATL 071952Z 11008KT 10SM SCT022 BKN028 BKN150 BKN250 27/21 A2998 RMK AO2 SLP141 T02670211=
201710071852 METAR KATL 071852Z VRB04KT 10SM SCT022 BKN028 BKN035 BKN250 27/21 A2999 RMK AO2 SLP146 T02720211=
201710071752 METAR KATL 071752Z 10007KT 040V150 10SM SCT020 BKN025 BKN250 27/22 A3002 RMK AO2 SLP154 60000 T02670217 10267 20217 58012=
201710071652 METAR KATL 071652Z 16007KT 10SM BKN018 26/21 A3004 RMK AO2 SLP162 T02610211=
201710071629 SPECI KATL 071629Z 14005KT 10SM SCT010 BKN015 25/21 A3004 RMK AO2 T02500211=
201710071552 METAR KATL 071552Z 15004KT 10SM BKN010 OVC015 24/22 A3005 RMK AO2 SLP166 T02440217=
201710071538 SPECI KATL 071538Z 12006KT 10SM BKN010 BKN015 24/21 A3005 RMK AO2 T02390211=
201710071452 METAR KATL 071452Z 14007KT 7SM BKN007 OVC012 23/22 A3005 RMK AO2 DZE32 SLP167 P0000 60000 T02330217 51008=
201710071438 SPECI KATL 071438Z 15006KT 3SM BKN007 OVC012 23/22 A3005 RMK AO2 SFC VIS 7 DZE32 P0000 T02280217=
201710071352 METAR KATL 071352Z 13005KT 1 1/2SM -DZ BR OVC005 22/22 A3005 RMK AO2 SFC VIS 2 1/2 SLP167 CIG 004V007 P0000 T02220217=
201710071305 SPECI KATL 071305Z 11006KT 1 1/2SM -DZ BR OVC005 22/21 A3004 RMK AO2 SFC VIS 2 CIG 003V007 P0000 T02220211=
201710071257 SPECI KATL 071257Z 11008KT 1/2SM R09R/P6000FT -DZ BR OVC005 22/21 A3004 RMK AO2 SFC VIS 1 1/2 CIG 003V007 P0000 T02220211=
201710071252 METAR KATL 071252Z 12006KT 1 1/2SM -DZ BR OVC005 22/21 A3004 RMK AO2 SLP163 CIG 004V007 P0000 T02220211=
201710071228 SPECI KATL 071228Z 12005KT 1 1/2SM R09R/5500VP6000FT -DZ BR OVC004 22/21 A3003 RMK AO2 SFC VIS 4 CIG 003V006 P0000 T02170211=
201710071217 SPECI KATL 071217Z 11006KT 1/2SM R09R/P6000FT -DZ BR OVC004 22/21 A3003 RMK AO2 SFC VIS 1 1/2 CIG 003V006 P0000 T02170211=
201710071207 SPECI KATL 071207Z 11006KT 1 1/4SM -DZ BR OVC005 22/21 A3003 RMK AO2 SFC VIS 2 1/2 CIG 004V007 P0000 T02170211=
201710071152 METAR KATL 071152Z 12005KT 5SM -DZ BR OVC005 22/21 A3003 RMK AO2 SLP158 CIG 004V007 P0000 60000 T02170211 10233 20217 53010=
201710071052 METAR KATL 071052Z 11005KT 3SM -DZ BR OVC006 22/21 A3001 RMK AO2 DZB43 SLP153 CIG 005V009 P0000 T02170211=
201710071043 SPECI KATL 071043Z 12007KT 3SM -DZ BR BKN006 OVC012 22/21 A3001 RMK AO2 DZB43 CIG 005V008 P0000 T02220211=
201710070952 METAR KATL 070952Z 13008KT 10SM BKN008 OVC012 22/21 A3000 RMK AO2 SLP150 T02220206=
201710070932 SPECI KATL 070932Z 12007G18KT 10SM OVC009 23/21 A3000 RMK AO2 T02280206=
201710070852 METAR KATL 070852Z 13007KT 10SM OVC011 23/21 A2999 RMK AO2 SLP146 T02280206 58008=
201710070752 METAR KATL 070752Z 13007KT 10SM OVC011 23/21 A3001 RMK AO2 SLP150 T02280206=
201710070702 SPECI KATL 070702Z 12006KT 10SM BKN014 BKN050 23/20 A3001 RMK AO2 T02280200=
201710070652 METAR KATL 070652Z 11008KT 10SM FEW029 BKN050 23/21 A3001 RMK AO2 SLP152 T02280206=
201710070552 METAR KATL 070552Z 13009KT 10SM SCT028 BKN048 BKN060 23/20 A3002 RMK AO2 SLP155 T02330200 10261 20233 58007=
201710070452 METAR KATL 070452Z 14008KT 10SM SCT028 BKN040 BKN060 24/19 A3003 RMK AO2 SLP159 T02390194 402890172=
201710070352 METAR KATL 070352Z 12007KT 10SM BKN037 BKN060 24/18 A3004 RMK AO2 SLP164 T02440183=
201710070252 METAR KATL 070252Z 11006KT 10SM FEW040 BKN055 25/18 A3004 RMK AO2 SLP163 T02500178 50002=
201710070152 METAR KATL 070152Z 10005KT 10SM SCT040 BKN055 26/17 A3004 RMK AO2 SLP165 T02560172=
201710070052 METAR KATL 070052Z 12005KT 10SM BKN055 26/17 A3004 RMK AO2 SLP164 T02560172=
201710062352 METAR KATL 062352Z 11005KT 10SM BKN055 26/17 A3003 RMK AO2 SLP162 T02610167 10289 20261 55001=
201710062252 METAR KATL 062252Z 12006KT 10SM BKN055 27/17 A3003 RMK AO2 SLP162 T02670167=
201710062152 METAR KATL 062152Z 11009KT 10SM BKN050 27/16 A3003 RMK AO2 SLP162 T02720161=
201710062052 METAR KATL 062052Z 11009KT 10SM BKN050 28/16 A3004 RMK AO2 SLP163 T02780161 56021=
201710061952 METAR KATL 061952Z 12010KT 10SM SCT050 28/15 A3005 RMK AO2 SLP168 T02830150=
201710061852 METAR KATL 061852Z 09008KT 10SM SCT045 28/15 A3007 RMK AO2 SLP174 T02830150=
201710061752 METAR KATL 061752Z 04008KT 350V060 10SM SCT043 27/15 A3010 RMK AO2 SLP184 T02720150 10272 20183 58019=
201710061652 METAR KATL 061652Z 11009KT 10SM SCT043 27/15 A3013 RMK AO2 SLP194 T02670150=
201710061552 METAR KATL 061552Z 09010KT 10SM FEW040 FEW250 26/16 A3015 RMK AO2 SLP200 T02560161=
201710061452 METAR KATL 061452Z 11007KT 10SM FEW025 FEW250 24/18 A3016 RMK AO2 SLP204 T02390178 58000=
201710061406 SPECI KATL 061406Z 08006KT 10SM FEW006 FEW050 SCT250 21/18 A3016 RMK AO2 T02110178=
201710061352 METAR KATL 061352Z 09008KT 8SM BKN005 BKN050 BKN250 21/18 A3016 RMK AO2 SLP207 T02060183=
201710061316 SPECI KATL 061316Z 08008KT 6SM BR BKN006 BKN050 OVC250 19/17 A3017 RMK AO2 T01940172=
201710061252 METAR KATL 061252Z 08008KT 10SM BKN006 BKN055 BKN250 19/17 A3016 RMK AO2 SLP207 CIG 005V007 T01940172=
201710061236 SPECI KATL 061236Z 07008G15KT 10SM BKN006 BKN055 BKN250 19/17 A3016 RMK AO2 CIG 005V008 T01940167=
201710061233 SPECI KATL 061233Z 06007G15KT 10SM SCT006 BKN055 BKN250 19/16 A3016 RMK AO2 T01940161=
201710061152 METAR KATL 061152Z 06008KT 10SM FEW012 FEW050 SCT250 18/16 A3016 RMK AO2 SLP206 T01830156 10194 20172 53010=
201710061052 METAR KATL 061052Z 06008KT 10SM FEW010 FEW250 18/15 A3014 RMK AO2 SLP199 FU FEW010 T01780150=
201710060952 METAR KATL 060952Z 06006KT 10SM CLR 18/14 A3013 RMK AO2 SLP196 T01780144=
201710060852 METAR KATL 060852Z 08005KT 10SM CLR 17/14 A3013 RMK AO2 SLP195 T01720139 58002=
201710060752 METAR KATL 060752Z 07005KT 10SM CLR 18/14 A3013 RMK AO2 SLP194 T01830144=
201710060652 METAR KATL 060652Z 06004KT 10SM FEW250 18/14 A3013 RMK AO2 SLP196 T01830144=
201710060552 METAR KATL 060552Z 08005KT 10SM FEW250 19/14 A3013 RMK AO2 SLP196 T01890144 10233 20189 58002=
201710060452 METAR KATL 060452Z 06006KT 10SM FEW250 21/14 A3014 RMK AO2 SLP199 T02060144 402780156=
201710060352 METAR KATL 060352Z 06006KT 10SM FEW250 21/14 A3015 RMK AO2 SLP201 T02110144=
201710060252 METAR KATL 060252Z 08005KT 10SM FEW250 22/14 A3014 RMK AO2 SLP198 T02170144 58000=
201710060152 METAR KATL 060152Z 09006KT 10SM FEW250 22/14 A3015 RMK AO2 SLP204 T02170144=
201710060052 METAR KATL 060052Z 08008G15KT 10SM SCT250 22/14 A3015 RMK AO2 SLP203 T02220144=
201710052352 METAR KATL 052352Z 09007KT 10SM FEW055 FEW250 23/14 A3014 RMK AO2 SLP201 T02330139 10278 20233 53001=
201710052252 METAR KATL 052252Z 09007KT 10SM FEW055 26/13 A3014 RMK AO2 SLP198 T02560128=
201710052152 METAR KATL 052152Z 09004KT 10SM SCT055 27/13 A3013 RMK AO2 SLP197 T02670128=
201710052052 METAR KATL 052052Z 08007KT 10SM SCT055 26/13 A3014 RMK AO2 SLP199 T02610133 56019=
201710051952 METAR KATL 051952Z 10010KT 10SM SCT055 28/13 A3015 RMK AO2 SLP202 T02780128=
201710051852 METAR KATL 051852Z 09009KT 10SM FEW050 27/13 A3017 RMK AO2 SLP209 T02720133=
201710051752 METAR KATL 051752Z 07007KT 10SM FEW047 27/14 A3020 RMK AO2 SLP218 T02670144 10267 20167 58023=
201710051652 METAR KATL 051652Z 10006KT 10SM FEW045 25/14 A3023 RMK AO2 SLP229 T02500144=
201710051552 METAR KATL 051552Z 09011KT 10SM FEW035 24/16 A3026 RMK AO2 SLP239 T02440156=
201710051452 METAR KATL 051452Z 09008KT 10SM FEW030 22/16 A3027 RMK AO2 SLP243 T02220156 50001=
201710051352 METAR KATL 051352Z 07008KT 10SM CLR 20/14 A3028 RMK AO2 SLP246 T02000139=
201710051252 METAR KATL 051252Z 07008KT 10SM FEW250 18/12 A3027 RMK AO2 SLP244 T01780117=
201710051152 METAR KATL 051152Z 05007KT 10SM FEW250 17/11 A3027 RMK AO2 SLP243 T01670111 10183 20156 53005=
201710051052 METAR KATL 051052Z 04007KT 10SM FEW200 17/12 A3025 RMK AO2 SLP238 T01670117=
201710050952 METAR KATL 050952Z 04006KT 10SM FEW250 17/12 A3025 RMK AO2 SLP236 T01670117=
201710050852 METAR KATL 050852Z 06006KT 10SM FEW200 SCT250 17/12 A3025 RMK AO2 SLP237 T01670117 56008=
201710050752 METAR KATL 050752Z 07005KT 10SM FEW200 FEW250 16/12 A3025 RMK AO2 SLP238 T01610117=
201710050652 METAR KATL 050652Z 06007KT 10SM FEW200 FEW250 17/12 A3027 RMK AO2 SLP242 T01720117=
201710050552 METAR KATL 050552Z 07006KT 10SM FEW200 SCT250 18/12 A3028 RMK AO2 SLP245 T01830117 10228 20178 58013=
201710050452 METAR KATL 050452Z 08005KT 10SM FEW250 19/12 A3030 RMK AO2 SLP255 T01890122 402670161=
201710050352 METAR KATL 050352Z 06006KT 10SM FEW250 19/13 A3031 RMK AO2 SLP257 T01890128=
201710050252 METAR KATL 050252Z 07009KT 10SM CLR 21/13 A3031 RMK AO2 SLP259 T02060128 52006=
201710050152 METAR KATL 050152Z 10004KT 10SM CLR 21/13 A3031 RMK AO2 SLP259 T02110128=
201710050052 METAR KATL 050052Z 09007KT 10SM FEW250 21/13 A3030 RMK AO2 SLP254 T02060128=
201710042352 METAR KATL 042352Z 09007KT 10SM FEW250 22/12 A3030 RMK AO2 SLP254 T02220122 10267 20222 58001=
201710042252 METAR KATL 042252Z 09010KT 10SM CLR 24/12 A3030 RMK AO2 SLP256 T02440117=
201710042152 METAR KATL 042152Z 09009KT 10SM FEW055 26/12 A3031 RMK AO2 SLP256 T02560122=
201710042052 METAR KATL 042052Z 08005KT 10SM FEW055 26/12 A3030 RMK AO2 SLP254 T02610122 56025=
201710041952 METAR KATL 041952Z 12009KT 10SM FEW050 27/13 A3031 RMK AO2 SLP258 T02670128=
201710041852 METAR KATL 041852Z VRB05KT 10SM SCT047 26/13 A3034 RMK AO2 SLP268 T02560128=
201710041752 METAR KATL 041752Z 05009G18KT 10SM SCT045 26/13 A3038 RMK AO2 SLP278 T02560133 10256 20161 58019=
201710041652 METAR KATL 041652Z 08012G22KT 10SM FEW040 24/13 A3041 RMK AO2 SLP291 T02390133=
201710041552 METAR KATL 041552Z 08015KT 10SM FEW040 23/13 A3043 RMK AO2 SLP297 T02330133=
201710041452 METAR KATL 041452Z 08014KT 10SM FEW250 22/14 A3043 RMK AO2 SLP299 T02170139 51004=
201710041352 METAR KATL 041352Z 07013KT 10SM FEW250 19/13 A3043 RMK AO2 SLP300 T01940133=
201710041252 METAR KATL 041252Z 06012KT 10SM FEW250 18/12 A3043 RMK AO2 SLP298 T01780122=
201710041152 METAR KATL 041152Z 07010KT 10SM FEW250 16/12 A3042 RMK AO2 SLP296 T01610117 10183 20161 51003=
201710041052 METAR KATL 041052Z 06008KT 10SM FEW250 16/12 A3042 RMK AO2 SLP294 T01610117=
201710040952 METAR KATL 040952Z 04008KT 10SM FEW200 17/12 A3042 RMK AO2 SLP293 T01670117=
201710040852 METAR KATL 040852Z 06009KT 10SM FEW200 17/12 A3041 RMK AO2 SLP292 T01720117 55004=
201710040752 METAR KATL 040752Z 06010KT 10SM FEW250 17/12 A3041 RMK AO2 SLP291 T01720117=
201710040652 METAR KATL 040652Z 06010KT 10SM FEW250 18/12 A3042 RMK AO2 SLP295 T01780117=
201710040552 METAR KATL 040552Z 07011KT 10SM FEW250 18/12 A3042 RMK AO2 SLP296 T01830117 10222 20183 58003=
201710040452 METAR KATL 040452Z 07009KT 10SM CLR 19/12 A3043 RMK AO2 SLP297 T01890122 402670161=
201710040352 METAR KATL 040352Z 07011KT 10SM CLR 20/12 A3044 RMK AO2 SLP299 T02000122=
201710040252 METAR KATL 040252Z 07011KT 10SM CLR 20/12 A3043 RMK AO2 SLP299 T02000122 51014=
201710040152 METAR KATL 040152Z 06011KT 10SM CLR 21/13 A3043 RMK AO2 SLP298 T02110128=
201710040052 METAR KATL 040052Z 07009KT 10SM CLR 22/12 A3041 RMK AO2 SLP293 T02170122=
201710032352 METAR KATL 032352Z 09011KT 10SM FEW050 22/13 A3039 RMK AO2 SLP286 T02220128 10267 20222 53005=
201710032252 METAR KATL 032252Z 08013KT 10SM FEW050 24/13 A3038 RMK AO2 SLP284 T02390128=
201710032152 METAR KATL 032152Z 10012KT 10SM FEW050 25/12 A3038 RMK AO2 SLP281 T02500122=
201710032052 METAR KATL 032052Z 10010G16KT 10SM SCT050 26/13 A3038 RMK AO2 SLP281 T02610128 56013=
201710031952 METAR KATL 031952Z 07013G21KT 10SM SCT046 26/13 A3039 RMK AO2 SLP285 T02560133=
201710031852 METAR KATL 031852Z 10011G18KT 10SM FEW045 SCT250 26/13 A3040 RMK AO2 SLP287 T02610133=
201710031752 METAR KATL 031752Z 08012KT 10SM FEW045 FEW250 25/13 A3042 RMK AO2 SLP293 T02500133 10256 20161 58013=
201710031652 METAR KATL 031652Z 10011KT 10SM FEW050 FEW250 25/13 A3045 RMK AO2 SLP302 T02500133=
201710031552 METAR KATL 031552Z 08015KT 10SM FEW040 FEW250 24/14 A3046 RMK AO2 SLP307 T02390139=
201710031452 METAR KATL 031452Z 09014KT 10SM FEW030 FEW250 22/14 A3046 RMK AO2 SLP308 T02170144 51016=
201710031352 METAR KATL 031352Z 09012G17KT 10SM FEW150 20/14 A3044 RMK AO2 SLP303 T02000144=
201710031252 METAR KATL 031252Z 07009KT 10SM FEW008 FEW150 18/15 A3043 RMK AO2 SLP299 T01780150=
201710031152 METAR KATL 031152Z 07008KT 10SM FEW007 FEW050 FEW150 16/14 A3041 RMK AO2 SLP293 T01610144 10189 20161 53019=
201710031052 METAR KATL 031052Z 07008KT 10SM FEW050 16/14 A3039 RMK AO2 SLP286 T01610144=
201710030952 METAR KATL 030952Z 08007KT 10SM CLR 17/14 A3037 RMK AO2 SLP279 T01670144=
201710030852 METAR KATL 030852Z 09007KT 10SM FEW050 17/14 A3035 RMK AO2 SLP273 T01670144 53003=
201710030752 METAR KATL 030752Z 08008KT 10SM FEW050 SCT220 17/14 A3035 RMK AO2 SLP270 T01720144=
201710030652 METAR KATL 030652Z 08011KT 10SM FEW050 SCT220 18/14 A3035 RMK AO2 SLP270 T01830144=
201710030552 METAR KATL 030552Z 08010KT 10SM CLR 19/14 A3035 RMK AO2 SLP269 T01890144 10222 20189 50002=
201710030352 METAR KATL 030352Z 09010KT 10SM FEW050 SCT200 19/14 A3035 RMK AO2 SLP271 T01940139=
201710030252 METAR KATL 030252Z 08012KT 10SM SCT038 BKN050 21/14 A3034 RMK AO2 SLP269 T02110139 51016=
201710030152 METAR KATL 030152Z 07012KT 10SM BKN050 BKN150 22/14 A3033 RMK AO2 SLP264 T02170139=
201710030052 METAR KATL 030052Z 08010KT 10SM SCT150 22/14 A3031 RMK AO2 SLP260 T02170139=
201710022352 METAR KATL 022352Z 09009KT 10SM SCT140 22/14 A3029 RMK AO2 SLP253 T02170144 10250 20217 51006=
201710022252 METAR KATL 022252Z 09008KT 10SM FEW090 SCT140 23/14 A3029 RMK AO2 SLP252 T02280144=
201710022152 METAR KATL 022152Z 10010KT 10SM FEW090 SCT140 23/14 A3028 RMK AO2 SLP249 T02330139=
201710022052 METAR KATL 022052Z 10012KT 10SM FEW045 FEW085 BKN140 BKN250 24/13 A3027 RMK AO2 SLP245 ACC DSNT E T02440133 56015=
201710021952 METAR KATL 021952Z 09010KT 10SM FEW090 FEW140 SCT250 24/13 A3028 RMK AO2 SLP247 ACC DSNT E T02440133=
201710021852 METAR KATL 021852Z 08010G16KT 10SM FEW090 BKN140 BKN250 23/13 A3029 RMK AO2 SLP250 ACC DSNT E T02330128=
201710021752 METAR KATL 021752Z 09013KT 10SM FEW040 SCT090 BKN140 BKN250 23/12 A3032 RMK AO2 SLP261 T02280122 10228 20150 58008=
201710021652 METAR KATL 021652Z 08015KT 10SM FEW045 BKN140 BKN250 21/12 A3033 RMK AO2 SLP267 T02110122=
201710021552 METAR KATL 021552Z 09013KT 10SM FEW040 BKN140 BKN250 20/12 A3034 RMK AO2 SLP270 T02000122=
201710021452 METAR KATL 021452Z 08015KT 10SM BKN035 BKN120 BKN250 18/12 A3034 RMK AO2 SLP272 T01780117 51021=
201710021352 METAR KATL 021352Z 08014KT 10SM OVC030 17/11 A3033 RMK AO2 SLP265 BINOVC N & E T01670111=
201710021305 SPECI KATL 021305Z 08012KT 10SM OVC030 16/10 A3032 RMK AO2 T01610100=
201710021252 METAR KATL 021252Z 09011KT 10SM BKN028 OVC060 16/10 A3031 RMK AO2 SLP260 T01560100=
201710021219 SPECI KATL 021219Z 09012KT 10SM OVC029 16/10 A3029 RMK AO2 BINOVC T01560100=
201710021152 METAR KATL 021152Z 09009KT 10SM BKN030 BKN250 15/10 A3028 RMK AO2 SLP250 T01500100 10161 20144 53013=
201710021052 METAR KATL 021052Z 08012KT 10SM FEW032 SCT095 BKN250 15/09 A3026 RMK AO2 SLP243 T01500094=
201710020952 METAR KATL 020952Z 09011KT 10SM FEW032 FEW080 SCT200 BKN250 14/09 A3024 RMK AO2 SLP237 T01440094=
201710020852 METAR KATL 020852Z 09011KT 10SM FEW070 BKN200 15/09 A3024 RMK AO2 SLP235 T01500094 58003=
201710020752 METAR KATL 020752Z 08012KT 10SM BKN070 BKN180 16/09 A3025 RMK AO2 SLP236 T01610094=
201710020652 METAR KATL 020652Z 08011KT 10SM BKN075 16/09 A3025 RMK AO2 SLP236 T01610089=
201710020552 METAR KATL 020552Z 08010KT 10SM BKN075 BKN120 BKN180 BKN220 16/08 A3025 RMK AO2 SLP238 T01610083 10189 20161 50004=
201710020452 METAR KATL 020452Z 09010KT 10SM SCT080 BKN120 BKN180 BKN250 17/08 A3025 RMK AO2 SLP239 T01670083 402330144=
201710020352 METAR KATL 020352Z 09014KT 10SM SCT080 BKN120 BKN180 BKN250 17/07 A3025 RMK AO2 SLP238 T01720072=
201710020252 METAR KATL 020252Z 09010KT 10SM FEW075 SCT110 BKN180 BKN250 18/07 A3024 RMK AO2 SLP234 T01780072 51015=
201710020152 METAR KATL 020152Z 09013KT 10SM FEW040 SCT070 BKN100 BKN200 17/07 A3023 RMK AO2 SLP233 T01720067=
201710020052 METAR KATL 020052Z 09012KT 10SM FEW095 SCT180 BKN250 18/07 A3021 RMK AO2 SLP226 T01780067=
201710012352 METAR KATL 012352Z 09009KT 10SM FEW075 SCT100 BKN180 BKN250 19/06 A3019 RMK AO2 SLP221 VIRGA SW ACC W & DSNT S-SW T01890061 10233 20189 53007=
201710012252 METAR KATL 012252Z 09010KT 10SM FEW070 SCT100 BKN180 BKN250 20/06 A3018 RMK AO2 SLP216 VIRGA SW & W ACC DSNT SE-SW T02000061=
201710012152 METAR KATL 012152Z 10010KT 10SM FEW070 FEW090 BKN180 BKN250 22/06 A3017 RMK AO2 SLP212 VIRGA SW-W ACC DSNT SE-SW T02170061=
201710012052 METAR KATL 012052Z 10012KT 10SM FEW150 BKN250 22/06 A3017 RMK AO2 SLP211 T02220061 56017=
201710011952 METAR KATL 011952Z 07014G19KT 10SM FEW150 BKN250 23/06 A3018 RMK AO2 SLP215 T02280061=
201710011852 METAR KATL 011852Z 09010G19KT 10SM FEW150 BKN250 22/07 A3020 RMK AO2 SLP221 T02220067=
201710011752 METAR KATL 011752Z 10012G21KT 10SM FEW150 SCT250 22/06 A3023 RMK AO2 SLP229 T02170061 10217 20144 58016=
201710011652 METAR KATL 011652Z 09017G22KT 10SM FEW050 FEW120 SCT250 21/06 A3025 RMK AO2 SLP237 T02060061=
201710011552 METAR KATL 011552Z 09016KT 10SM FEW060 FEW150 19/07 A3027 RMK AO2 SLP244 T01940067=
201710011452 METAR KATL 011452Z 07021KT 10SM FEW060 18/07 A3027 RMK AO2 PK WND 07028/1408 SLP246 T01830067 51013=
201710011352 METAR KATL 011352Z 08018G27KT 10SM FEW050 16/07 A3027 RMK AO2 PK WND 08029/1342 SLP245 T01610067=
201710011252 METAR KATL 011252Z 07019G23KT 10SM FEW220 15/07 A3025 RMK AO2 SLP239 T01500072=
