##########################################################
# Query made at 04/19/2024 23:59:18 UTC
# Time interval: from 05/01/2018 12:00  to 05/31/2018 12:59  UTC
##########################################################

##########################################################
# KATL, Atlanta, Hartsfield - Jackson Atlanta International Airport (United States)
# WMO index: 72219. WIGOS ID: 0-20000-0-72219
# Latitude 33-38-59N. Longitude 084-25-00W. Altitude 312 m.
##########################################################

201805311252 METAR KATL 311252Z 24003KT 1 1/2SM -DZ BR OVC004 23/21 A3003 RMK AO2 SFC VIS 4 DZB16 SLP161 CIG 003V007 P0000 T02280211=
201805311250 SPECI KATL 311250Z 24004KT 1 1/2SM -DZ BR OVC005 23/21 A3003 RMK AO2 SFC VIS 4 DZB16 CIG 003V007 P0000=
201805311152 METAR KATL 311152Z 25003KT 2SM BR BKN006 BKN010 OVC015 22/21 A3001 RMK AO2 SFC VIS 6 SLP152 70004 T02220206 10228 20217 51016=
201805311147 SPECI KATL 311147Z 00000KT 2SM BR BKN006 BKN010 OVC015 22/21 A3001 RMK AO2 SFC VIS 6=
201805311123 SPECI KATL 311123Z 21003KT 7SM OVC009 22/21 A3000 RMK AO2 T02220206=
201805311052 METAR KATL 311052Z 20004KT 10SM SCT006 OVC010 22/21 A2999 RMK AO2 SLP144 T02220206=
201805311007 SPECI KATL 311007Z 22003KT 10SM SCT003 BKN010 BKN200 BKN250 22/20 A2997 RMK AO2 T02170200=
201805310952 METAR KATL 310952Z 21004KT 10SM BKN003 BKN200 BKN250 22/20 A2996 RMK AO2 SLP136 T02170200=
201805310926 SPECI KATL 310926Z 18005KT 10SM SCT003 BKN180 BKN250 22/20 A2996 RMK AO2 T02170200=
201805310852 METAR KATL 310852Z 20003KT 6SM BR BKN004 BKN150 BKN250 22/21 A2996 RMK AO2 SLP135 T02170206 55003=
201805310832 SPECI KATL 310832Z 21004KT 10SM BKN004 BKN250 22/21 A2996 RMK AO2 T02170206=
201805310752 METAR KATL 310752Z 23003KT 10SM SCT005 SCT035 BKN150 BKN250 22/21 A2996 RMK AO2 SLP134 T02170206=
201805310713 SPECI KATL 310713Z 21006KT 10SM FEW005 FEW033 SCT180 BKN250 22/21 A2996 RMK AO2 T02220206=
201805310652 METAR KATL 310652Z 20007KT 10SM FEW033 SCT180 BKN250 22/21 A2996 RMK AO2 SLP134 T02220206=
201805310552 METAR KATL 310552Z 19005KT 10SM SCT038 BKN150 BKN250 23/21 A2997 RMK AO2 SLP138 T02280211 10261 20228 50002=
201805310452 METAR KATL 310452Z 16005KT 10SM FEW040 FEW150 SCT250 23/21 A2997 RMK AO2 SLP139 T02280206 402780217=
201805310352 METAR KATL 310352Z 21004KT 10SM SCT040 BKN200 24/21 A2998 RMK AO2 SLP141 T02390206=
201805310252 METAR KATL 310252Z 00000KT 10SM SCT250 24/21 A2996 RMK AO2 SLP136 T02390206 51013=
201805310152 METAR KATL 310152Z 18004KT 10SM FEW120 SCT250 24/21 A2994 RMK AO2 SLP130 T02440206=
201805310052 METAR KATL 310052Z 19005KT 10SM FEW150 SCT200 BKN250 26/21 A2994 RMK AO2 SLP129 TCU DSNT N-NE T02560206=
201805302352 METAR KATL 302352Z 23007KT 10SM FEW025 SCT250 26/20 A2992 RMK AO2 SLP123 60003 T02610200 10272 20233 53005=
201805302252 METAR KATL 302252Z 23006KT 10SM FEW025 SCT250 27/21 A2990 RMK AO2 SLP115 T02720206=
201805302152 METAR KATL 302152Z VRB06KT 10SM FEW025 SCT200 BKN250 27/21 A2990 RMK AO2 SLP116 T02720206=
201805302052 METAR KATL 302052Z 22006KT 10SM FEW025 FEW080 SCT150 BKN250 27/21 A2991 RMK AO2 SLP117 CB DSNT NE-SE 60003 T02670206 58012=
201805301952 METAR KATL 301952Z 24008KT 10SM FEW025 FEW070 SCT150 BKN250 27/21 A2992 RMK AO2 SLP121 CB DSNT NE-E T02670206=
201805301852 METAR KATL 301852Z 22009KT 10SM FEW015 SCT050 SCT150 BKN250 26/21 A2993 RMK AO2 WSHFT 1739 RAE34 SLP127 CB DSNT NE-SE TCU DSNT NW P0003 T02560211=
201805301805 SPECI KATL 301805Z 23011KT 8SM -RA FEW010CB SCT050 BKN150 BKN250 24/21 A2994 RMK AO2 WSHFT 1739 VIS LWR SE SHRA CB NE & SE MOV NE P0002 T02390206=
201805301755 SPECI KATL 301755Z 24009G19KT 7SM R09R/6000VP6000FT -RA FEW015CB BKN050 BKN250 24/21 A2994 RMK AO2 WSHFT 1739 VIS LWR NE & SW-W SHRA CB NE & SW-W MOV NE P0002 T02390206=
201805301752 METAR KATL 301752Z 25010G19KT 7SM R09R/6000VP6000FT -RA BKN020CB BKN050 BKN250 24/21 A2994 RMK AO2 WSHFT 1734 RAB45 SLP131 VIS LWR N & SW SHRA CB N & SW MOV NE TCU DSNT NE-SE P0001 60001 T02390206 10278 20217 58005=
201805301748 SPECI KATL 301748Z 24013KT 8SM -RA BKN020CB BKN050 BKN250 24/21 A2995 RMK AO2 WSHFT 1734 RAB45 VIS LWR N & SW SHRA CB N & SW MOV NE TCU DSNT NE-SE P0000=
201805301740 SPECI KATL 301740Z 20014KT 10SM BKN025CB BKN050 BKN250 27/21 A2994 RMK AO2 CB OHD-SW-NW-N MOV NE SHRA VC SW-NW-N TCU DSNT NE-SE T02670206=
201805301728 SPECI KATL 301728Z 18009G20KT 10SM FEW025CB SCT050 BKN250 28/21 A2995 RMK AO2 CB SW-NW MOV NE SHRA VC SW-NW TCU DSNT NE-SE T02780206=
201805301707 SPECI KATL 301707Z 20012G19KT 10SM FEW020CB BKN030 BKN070 27/21 A2995 RMK AO2 CB SW-NW MOV NE SHRA VC SW-NW T02670206=
201805301652 METAR KATL 301652Z 20008G18KT 10SM FEW020 BKN030 BKN070 27/21 A2996 RMK AO2 SLP134 CB DSNT SW-NW SHRA DSNT SW-NW T02670211=
201805301552 METAR KATL 301552Z 18010KT 10SM BKN018 BKN040 BKN070 26/21 A2998 RMK AO2 SLP141 CB DSNT SW-NW MDT CU ALQDS T02560211=
201805301458 SPECI KATL 301458Z 18011KT 10SM BKN014 BKN023 OVC070 25/21 A2996 RMK AO2 T02500206=
201805301452 METAR KATL 301452Z 20012KT 10SM BKN015 BKN020 OVC070 24/21 A2996 RMK AO2 SLP135 60000 T02440206 51006=
201805301357 SPECI KATL 301357Z 20008KT 10SM BKN015 BKN070 BKN250 24/21 A2995 RMK AO2 T02390206=
201805301352 METAR KATL 301352Z 19011KT 10SM FEW015 FEW050 FEW070 SCT140 BKN250 24/21 A2996 RMK AO2 RAE1255 SLP135 P0000 T02390206=
201805301252 METAR KATL 301252Z 21009KT 10SM -RA FEW009 SCT035 BKN050 BKN140 BKN250 23/19 A2996 RMK AO2 RAE07B49 SLP134 PCPN VRY LGT P0000 T02280194=
201805301152 METAR KATL 301152Z 20007KT 10SM -RA FEW009 BKN090 BKN110 BKN150 BKN200 22/19 A2994 RMK AO2 SLP129 CB DSNT E-SE P0001 60001 70025 T02170194 10233 20217 53017=
201805301058 SPECI KATL 301058Z 20012KT 8SM -RA SCT009 SCT018 BKN090 BKN150 BKN200 23/21 A2991 RMK AO2 P0000 T02280206=
201805301052 METAR KATL 301052Z 20010KT 8SM -RA BKN009 BKN016 BKN095 BKN150 23/21 A2991 RMK AO2 RAB20E30B47 SLP119 P0000 T02280206=
201805300952 METAR KATL 300952Z 19010KT 10SM BKN008 BKN013 OVC040 23/21 A2989 RMK AO2 LTG DSNT N RAB0855E27 SLP111 OCNL LTGICCG DSNT NE CB DSNT NE P0000 T02280206=
201805300947 SPECI KATL 300947Z 19011G17KT 10SM SCT008 BKN013 OVC040 23/21 A2989 RMK AO2 LTG DSNT N RAB0855E27 OCNL LTGICCG DSNT N-NE CB DSNT NE & SE P0000=
201805300926 SPECI KATL 300926Z 18010KT 9SM -RA BKN008 BKN013CB OVC017 23/21 A2989 RMK AO2 RAB0855 CB W & NW-NE MOV NE P0000 T02280206=
201805300852 METAR KATL 300852Z 17009KT 10SM FEW009 BKN014CB OVC021 23/21 A2989 RMK AO2 SLP110 CIG 012V017 CB SW-NW MOV NE SHRA SW-NW T02280206 55000=
201805300848 SPECI KATL 300848Z 17008KT 10SM FEW009 BKN014CB OVC021 23/21 A2989 RMK AO2 CB SW-NW MOV NE=
201805300752 METAR KATL 300752Z 18007KT 10SM BKN014 OVC060 23/21 A2989 RMK AO2 SLP110 T02280206=
201805300652 METAR KATL 300652Z 17010KT 10SM BKN013 OVC023 23/21 A2988 RMK AO2 SLP110 CIG 011V015 T02330206=
201805300552 METAR KATL 300552Z 18012KT 10SM BKN013 BKN019 OVC047 23/21 A2989 RMK AO2 SLP110 BINOVC 60000 T02330211 10244 20228 51004=
201805300452 METAR KATL 300452Z 18007KT 10SM BKN013 BKN120 BKN200 23/21 A2989 RMK AO2 RAB0357E06 SLP111 P0000 T02330211 402780211=
201805300352 METAR KATL 300352Z 16011KT 10SM SCT009 BKN013CB BKN030 OVC200 24/21 A2988 RMK AO2 SLP110 CB SW-NW MOV N T02390211=
201805300334 SPECI KATL 300334Z 17008KT 10SM BKN009 BKN015CB BKN040 OVC200 24/22 A2989 RMK AO2 CB VC SW-W MOV N T02390217=
201805300252 METAR KATL 300252Z 16008KT 10SM SCT009 BKN020 BKN040 BKN200 23/21 A2988 RMK AO2 SLP107 T02330211 53017=
201805300238 SPECI KATL 300238Z 15008KT 10SM SCT009 BKN020 BKN050 BKN200 23/21 A2987 RMK AO2 T02330211=
201805300152 METAR KATL 300152Z 15005KT 10SM FEW012 SCT025 BKN200 BKN250 23/21 A2985 RMK AO2 SLP100 CB DSNT NE T02330206=
201805300052 METAR KATL 300052Z 17009KT 10SM FEW015 FEW100 SCT250 24/20 A2984 RMK AO2 LTG DSNT NE SLP095 CB DSNT NE & S TCU DSNT E-SE T02390200=
201805292352 METAR KATL 292352Z 17009KT 10SM FEW015 SCT150 BKN200 BKN250 24/21 A2982 RMK AO2 SLP090 CB DSNT NE TCU DSNT E-SE 60014 T02440206 10278 20244 53006=
201805292252 METAR KATL 292252Z 16012G17KT 10SM FEW015CB SCT030 BKN150 BKN250 25/21 A2980 RMK AO2 RAB45E52 SLP082 CB VC SW-W MOV N TCU DSNT SE P0000 T02500211=
201805292152 METAR KATL 292152Z 16011KT 10SM SCT020 BKN050 BKN150 BKN200 27/22 A2980 RMK AO2 LTG DSNT S RAB10E26 SLP081 CB DSNT SE-S P0000 T02670222=
201805292052 METAR KATL 292052Z 15014G19KT 10SM BKN020 BKN050 BKN250 27/22 A2981 RMK AO2 RAB1958E13 SLP083 CB DSNT SE & NW P0001 60014 T02670222 58003=
201805291952 METAR KATL 291952Z 14015G20KT 10SM BKN017CB BKN030TCU BKN250 27/23 A2981 RMK AO2 LTG DSNT N AND NW RAE00B32E42 SLP084 CB N-NE & S-SW MOV N TCU SW-NW SHRA N-NE & S-SW P0000 T02720228=
201805291935 SPECI KATL 291935Z 17012KT 7SM -RA BKN020TCU BKN050 BKN250 27/22 A2980 RMK AO2 RAE00B32 TCU OHD CB DSNT N-NE-E-SE & DSNT W-NW P0000 T02670222=
201805291912 SPECI KATL 291912Z 16011KT 10SM FEW015 FEW030 SCT050 SCT250 27/23 A2981 RMK AO2 RAE00 CB DSNT N-NE-E-SE & DSNT W-NW SHRA DSNT N-NE-E-SE P0000 T02670228=
201805291900 SPECI KATL 291900Z 16010KT 10SM FEW015CB BKN030 BKN050 BKN250 27/23 A2981 RMK AO2 LTG DSNT E RAE00 VIS LWR NW-N-NE SHRA CB NW-N-NE MOV N P0000 T02670228=
201805291855 SPECI KATL 291855Z 17009KT 9SM -RA FEW015 BKN030 BKN050 26/23 A2981 RMK AO2 LTG DSNT E P0000 T02560228=
201805291852 METAR KATL 291852Z 16009KT 7SM R09R/5500VP6000FT -RA BKN013CB BKN030TCU OVC050 25/22 A2981 RMK AO2 LTG DSNT E RAB41 SLP085 CB OHD-N & DSNT NE-SE MOV N TCU ALQDS P0013 T02500222=
201805291847 SPECI KATL 291847Z 20007G20KT 3SM R09R/2400VP6000FT +RA BKN010CB BKN030 OVC050 25/22 A2981 RMK AO2 TWR VIS 4 LTG DSNT E AND SE RAB41 CB OHD-S & DSNT NE-SE MOV N TCU ALQDS P0013=
201805291842 SPECI KATL 291842Z 15010G20KT 1 1/2SM R09R/2400VP6000FT -RA FEW020 BKN030 BKN050 BKN250 26/22 A2981 RMK AO2 TWR VIS 4 LTG DSNT E AND SE RAB41 CB DSNT NE-SE TCU DSNT W-NW-N P0000 T02610217=
201805291752 METAR KATL 291752Z 14012KT 10SM FEW020 BKN030 BKN050 BKN250 27/22 A2981 RMK AO2 LTG DSNT E AND SE RAE22 SLP085 CB DSNT NE-SE TCU DSNT NW-N P0001 60010 T02670217 10272 20222 58004=
201805291652 METAR KATL 291652Z 16012KT 10SM -RA SCT020 BKN030 BKN050 26/21 A2982 RMK AO2 RAB29 SLP087 MDT CU NE P0000 T02560211=
201805291602 SPECI KATL 291602Z 16015G19KT 10SM BKN014 BKN020 OVC030 25/22 A2983 RMK AO2 T02500217=
201805291552 METAR KATL 291552Z 15013KT 10SM FEW010 BKN015 OVC020 24/22 A2983 RMK AO2 RAE1457 SLP090 P0000 T02440217=
201805291509 SPECI KATL 291509Z 15009G20KT 8SM BKN010 BKN015 OVC020 23/22 A2982 RMK AO2 RAE1457 P0000 T02330217=
201805291452 METAR KATL 291452Z 15012G19KT 3SM -RA BR BKN009 BKN015 OVC020 23/22 A2982 RMK AO2 SFC VIS 5 RAE31B40 SLP090 P0002 60009 T02330217 51007=
201805291432 SPECI KATL 291432Z 14012G19KT 3SM BR FEW009 BKN013 OVC020 23/21 A2982 RMK AO2 SFC VIS 6 RAE31 P0002 T02280211=
201805291352 METAR KATL 291352Z 14009G17KT 1 1/2SM -RA BR BKN009 BKN015 OVC020 23/21 A2982 RMK AO2 SFC VIS 3 SLP089 P0005 T02280211=
201805291252 METAR KATL 291252Z 13011G17KT 1 1/2SM -RA BR BKN008 OVC014 23/21 A2981 RMK AO2 SFC VIS 5 SLP086 CIG 006V010 P0002 T02280211=
201805291248 SPECI KATL 291248Z 13009G17KT 1 1/2SM -RA BR BKN008 OVC014 23/21 A2981 RMK AO2 SFC VIS 5 CIG 006V010 P0002=
201805291226 SPECI KATL 291226Z 13010G17KT 6SM -RA BR BKN008 OVC013 22/21 A2981 RMK AO2 CIG 006V010 P0000 T02220206=
201805291217 SPECI KATL 291217Z 13011G19KT 1 1/2SM -RA BR BKN008 OVC013 22/21 A2981 RMK AO2 SFC VIS 2 CIG 006V010 P0000 T02220206=
201805291152 METAR KATL 291152Z 13011G19KT 6SM -RA BR BKN008 OVC013 22/21 A2980 RMK AO2 RAB31 SLP083 CIG 006V010 P0000 60011 70065 T02220206 10222 20217 53006=
201805291052 METAR KATL 291052Z 13010G17KT 6SM BR BKN008 BKN012 BKN250 22/21 A2980 RMK AO2 RAE46 SLP080 CIG 007V011 P0001 T02220206=
201805290952 METAR KATL 290952Z 13009G18KT 4SM -RA BR OVC007 22/21 A2979 RMK AO2 RAE03B22 SLP075 CIG 006V009 P0002 T02220206=
201805290852 METAR KATL 290852Z 12011G21KT 6SM -RA BR BKN007 OVC013 22/21 A2978 RMK AO2 RAB22 SLP074 CIG 006V009 P0000 60008 T02220206 56014 $=
201805290752 METAR KATL 290752Z 11012G17KT 7SM BKN007 OVC013 22/21 A2979 RMK AO2 RAE14 SLP078 CIG 006V009 P0000 T02220206 $=
201805290652 METAR KATL 290652Z 11008G17KT 6SM -RA BR BKN007 OVC014 22/21 A2981 RMK AO2 SLP083 CIG 006V010 P0008 T02170206 $=
201805290552 METAR KATL 290552Z 09009KT 3SM RA BR OVC005 22/20 A2983 RMK AO2 RAB18 SLP090 CIG 004V006 P0005 60014 T02170200 10228 20211 58009 $=
201805290547 SPECI KATL 290547Z 09009KT 2 1/2SM +RA BR OVC005 21/20 A2983 RMK AO2 RAB18 P0004 $=
201805290538 SPECI KATL 290538Z 09010KT 8SM -RA OVC006 21/20 A2983 RMK AO2 RAB18 CIG 005V008 P0002 T02110200 $=
201805290529 SPECI KATL 290529Z 09009KT 2 1/2SM RA BR BKN006 OVC014 21/20 A2983 RMK AO2 RAB18 CIG 005V008 P0002 T02110200 $=
201805290452 METAR KATL 290452Z 10008KT 10SM BKN007 OVC040 22/20 A2985 RMK AO2 SLP097 T02170200 402940206 $=
201805290352 METAR KATL 290352Z 11010G17KT 10SM SCT006 BKN012 BKN040 OVC150 22/19 A2985 RMK AO2 RAB14E37 SLP099 SCT006 V BKN P0001 T02170194 $=
201805290252 METAR KATL 290252Z 08014KT 10SM SCT006 BKN025 BKN120 OVC200 22/20 A2985 RMK AO2 SLP101 60008 T02170200 53007 $=
201805290152 METAR KATL 290152Z 09010KT 10SM FEW005 BKN120 BKN150 BKN250 22/21 A2984 RMK AO2 SLP096 T02220206 $=
201805290052 METAR KATL 290052Z 07010KT 10SM FEW004 SCT025 BKN100 OVC200 22/21 A2982 RMK AO2 RAE30 TSE03 SLP090 P0008 T02220206 $=
201805290037 SPECI KATL 290037Z 08011KT 10SM FEW004 SCT090 BKN120 OVC200 22/20 A2982 RMK AO2 RAE30 TSE03 CB DSNT NW P0008 T02220200 $=
201805290003 SPECI KATL 290003Z 10012KT 4SM RA BR FEW020 SCT050 BKN100 OVC200 22/20 A2984 RMK AO2 TSE03 TS DSIPTD CB DSNT NW P0003 T02220200 $=
201805282351 METAR KATL 282351Z 10009G16KT 1 1/2SM +TSRA BR FEW008 SCT020CB BKN035 OVC150 22/21 A2983 RMK AO2 PK WND 13027/2335 WSHFT 2331 TSB31 SLP094 OCNL LTGIC OHD-ALQDS TS OHD-ALQDS MOV NW P0040 60040 T02220206 10294 20222 53011 $=
201805282350 SPECI KATL 282350Z 11007KT 1 1/2SM +TSRA BR FEW008 SCT020CB BKN035 OVC150 22/21 A2983 RMK AO2 PK WND 13027/2335 WSHFT 2331 TSB31 OCNL LTGIC OHD-ALQDS TS OHD-ALQDS MOV NW P0039 $=
201805282334 SPECI KATL 282334Z 12014G18KT 1SM R09R/6000VP6000FT +TSRA SCT020CB BKN030 BKN060 OVC150 26/22 A2983 RMK AO2 TSB31 PRESRR OCNL LTGICCG NE-OHD-S TS NE-OHD-S MOV NW P0003 T02560222 $=
201805282331 SPECI KATL 282331Z 09011KT 5SM TSRA SCT020CB BKN030 BKN060 OVC200 26/22 A2981 RMK AO2 TSB31 VIS LWR NE-SE OCNL LTGIC NE-SE-S TS NE-SE-S MOV NW P0002 T02560222 $=
201805282252 METAR KATL 282252Z 10010KT 10SM -RA FEW025 SCT120 BKN150 BKN200 26/22 A2979 RMK AO2 RAB24 SLP079 LTG DSNT SE-S & NW CB DSNT NE-SE-SW & NW TCU ALQDS P0000 T02610217 $=
201805282152 METAR KATL 282152Z 09010KT 10SM FEW025 SCT150CB BKN200 27/22 A2980 RMK AO2 SLP081 CBMAM OHD-S CB DSNT S-SW TCU DSNT ALQDS T02720222 $=
201805282052 METAR KATL 282052Z 07014G19KT 10SM SCT034TCU SCT070 BKN250 28/21 A2980 RMK AO2 SLP080 TCU ALQDS CB DSNT SE-SW SHRA N-NE 60000 T02830211 58019 $=
201805281952 METAR KATL 281952Z 09012G17KT 10SM SCT027 SCT035 SCT070 BKN250 28/22 A2982 RMK AO2 SLP087 TCU DSNT N & NW MDT CU ALQDS T02830217 $=
201805281852 METAR KATL 281852Z 09010KT 10SM -DZ SCT020TCU BKN027 BKN250 28/22 A2984 RMK AO2 RAE27DZB33 SLP096 TCU N-NE & S-OHD & DSNT W & NW SHRA N-NE & NW P0000 T02780222 $=
201805281833 SPECI KATL 281833Z 11007KT 10SM -DZ SCT020TCU BKN027 BKN250 26/21 A2984 RMK AO2 RAE27DZB33 TCU N-NE & S-OHD & DSNT W & NW SHRA N-NE & NW P0000 T02610211 $=
201805281752 METAR KATL 281752Z 09011KT 10SM -RA SCT019 SCT024 BKN037 BKN250 26/21 A2986 RMK AO2 RAB52 SLP101 TCU SE & SW & W & NW SHRA SE & SW & NW P0000 60000 T02610211 10272 20217 58008 $=
201805281707 SPECI KATL 281707Z 10008KT 10SM FEW010 BKN015 BKN025 BKN250 26/22 A2987 RMK AO2 BKN015 V SCT SHRA ALQDS T02610217 $=
201805281652 METAR KATL 281652Z 10008KT 10SM BKN012 BKN025 BKN250 26/22 A2987 RMK AO2 DZE23B34E50 SLP105 BKN012 V SCT SHRA NE & W P0000 T02560222 $=
201805281643 SPECI KATL 281643Z 09011G18KT 10SM R09R/6000VP6000FT -DZ BKN012 BKN028 24/21 A2987 RMK AO2 DZE23B34 P0000 T02390211 $=
201805281624 SPECI KATL 281624Z 08009KT 10SM SCT010 BKN015 BKN028 25/22 A2988 RMK AO2 DZE23 P0000 T02500217 $=
201805281552 METAR KATL 281552Z 07012KT 7SM -DZ BKN010 OVC020 24/21 A2989 RMK AO2 SLP112 CIG 008V012 P0000 T02390211 $=
201805281452 METAR KATL 281452Z 08009KT 9SM -DZ BKN009 OVC015 23/21 A2988 RMK AO2 SLP111 RAE16DZB40 P0000 60000 T02280206 56001 $=
201805281352 METAR KATL 281352Z 07010KT 7SM -RA BKN006 OVC010 22/20 A2988 RMK AO2 SLP111 DZE45 P0000 T02220200 $=
201805281348 SPECI KATL 281348Z 08011KT 6SM -DZ BR OVC006 22/20 A2989 RMK AO2 P0000 $=
201805281252 METAR KATL 281252Z 07011KT 2 1/2SM -DZ BR BKN007 OVC015 22/20 A2989 RMK AO2 DZB49 SLP111 CIG 006V010 P0000 T02220200 $=
201805281250 SPECI KATL 281250Z 06012KT 2 1/2SM -DZ BR BKN007 OVC015 22/20 A2989 RMK AO2 DZB49 CIG 006V010 P0000 $=
201805281152 METAR KATL 281152Z 08010KT 10SM BKN007 OVC012 22/20 A2988 RMK AO2 RAE27 SLP109 CIG 006V009 P0000 60002 70007 T02170200 10217 20206 53006 $=
201805281052 METAR KATL 281052Z 07012KT 9SM -RA OVC007 22/20 A2987 RMK AO2 RAB02 SLP105 CIG 006V010 P0001 T02170200 $=
201805280952 METAR KATL 280952Z 07012KT 8SM OVC006 22/19 A2986 RMK AO2 SLP101 CIG 005V008 T02170194 $=
201805280852 METAR KATL 280852Z 06009KT 10SM BKN005 OVC009 21/19 A2986 RMK AO2 RAE07 SLP103 P0000 60001 T02110194 56016 $=
201805280752 METAR KATL 280752Z 05010KT 7SM -RA OVC006 21/19 A2987 RMK AO2 SLP105 CIG 005V008 P0000 T02110194 $=
201805280652 METAR KATL 280652Z 05011KT 8SM -RA BKN006 BKN019 OVC044 21/19 A2989 RMK AO2 SLP113 CIG 005V008 P0001 T02060189 $=
201805280647 SPECI KATL 280647Z 05011KT 8SM -RA BKN006 BKN019 OVC044 21/19 A2989 RMK AO2 P0001 $=
201805280623 SPECI KATL 280623Z 05011KT 8SM -RA FEW006 SCT025 SCT045 OVC130 21/19 A2990 RMK AO2 P0001 T02110189 $=
201805280552 METAR KATL 280552Z 05009KT 8SM -RA SCT006 BKN025 OVC055 21/19 A2991 RMK AO2 SLP120 P0001 60005 T02110189 10250 20206 58015 $=
201805280452 METAR KATL 280452Z 06012KT 8SM -RA FEW008 BKN026 OVC055 21/19 A2994 RMK AO2 SLP128 P0003 T02110189 402830211 $=
201805280437 SPECI KATL 280437Z 06012KT 8SM -RA FEW008 BKN027 OVC060 21/19 A2994 RMK AO2 P0002 T02110189 $=
201805280421 SPECI KATL 280421Z 07011KT 8SM -RA FEW008 BKN036 OVC100 21/19 A2994 RMK AO2 P0002 T02110189 $=
201805280352 METAR KATL 280352Z 07013KT 8SM -RA FEW012 BKN045 OVC080 21/18 A2995 RMK AO2 SLP133 P0001 T02110183 $=
201805280252 METAR KATL 280252Z 10011KT 8SM -RA FEW018 BKN045 OVC080 22/18 A2996 RMK AO2 SLP135 P0000 60000 T02170178 53019 $=
201805280152 METAR KATL 280152Z 11009KT 10SM -RA FEW022 SCT050 BKN095 OVC130 23/19 A2994 RMK AO2 RAB27 SLP129 PCPN VRY LGT P0000 T02330189 $=
201805280052 METAR KATL 280052Z 09010KT 10SM FEW030 SCT070 BKN110 OVC180 24/18 A2992 RMK AO2 SLP121 VIRGA OHD-ALQDS TCU DSNT SE-S T02440183 $=
201805272352 METAR KATL 272352Z 10012KT 10SM FEW034 SCT130 OVC180 25/18 A2990 RMK AO2 SLP116 VIRGA SE-SW CB DSNT SE & NW T02500178 10283 20250 56003 $=
201805272252 METAR KATL 272252Z 09015KT 10SM FEW038 SCT140 OVC200 26/17 A2990 RMK AO2 SLP117 CB DSNT NW TCU DSNT N T02610172 $=
201805272152 METAR KATL 272152Z 10010KT 10SM FEW022 FEW040 SCT140 BKN200 27/18 A2990 RMK AO2 SLP117 CB DSNT NW TCU DSNT NW-NE T02720183 $=
201805272052 METAR KATL 272052Z 13010KT 10SM SCT035TCU SCT150 BKN200 BKN250 28/18 A2991 RMK AO2 SLP119 TCU W AND DSNT N MDT CU NW SHRA W T02780178 56014 $=
201805271952 METAR KATL 271952Z 10010KT 10SM SCT030TCU BKN040 BKN200 OVC250 28/20 A2992 RMK AO2 SLP121 BKN040 V SCT TCU W & DSNT ALQDS BINOVC T02830200=
201805271852 METAR KATL 271852Z 12009KT 10SM SCT028TCU SCT055 BKN200 OVC250 28/20 A2994 RMK AO2 SLP127 TCU W & DSNT ALQDS BINOVC T02780200=
201805271752 METAR KATL 271752Z 08008KT 10SM SCT028 BKN040 OVC250 27/20 A2995 RMK AO2 SLP133 SCT028 V BKN TCU DSNT E & S T02720200 10278 20222 58011=
201805271738 SPECI KATL 271738Z 07008KT 10SM SCT028 BKN050 OVC250 27/20 A2996 RMK AO2 SCT028 V BKN MDT CU ALQDS T02720200=
201805271652 METAR KATL 271652Z 09009KT 10SM BKN028 BKN040 OVC250 27/20 A2997 RMK AO2 SLP139 BKN028 V SCT T02670200=
201805271552 METAR KATL 271552Z VRB06KT 10SM BKN022 BKN200 BKN250 27/20 A2999 RMK AO2 SLP145 BKN022 V SCT T02670200=
201805271550 SPECI KATL 271550Z 11006KT 10SM BKN022 BKN200 BKN250 27/20 A2999 RMK AO2 BKN022 V SCT=
201805271452 METAR KATL 271452Z 12007KT 10SM SCT022 BKN200 BKN250 26/20 A2999 RMK AO2 SLP144 SCT022 V BKN T02610200 53003=
201805271352 METAR KATL 271352Z VRB04KT 10SM SCT018 SCT080 SCT200 BKN250 25/19 A2998 RMK AO2 SLP142 T02500194=
201805271252 METAR KATL 271252Z 11005KT 10SM FEW006 SCT031 BKN075 BKN130 BKN250 23/20 A2998 RMK AO2 SLP143 T02330200=
201805271152 METAR KATL 271152Z 11003KT 10SM FEW006 BKN033 BKN120 BKN250 22/20 A2998 RMK AO2 SLP142 T02220200 10222 20211 53010=
201805271052 METAR KATL 271052Z 12004KT 10SM FEW034 BKN070 BKN120 BKN200 22/19 A2997 RMK AO2 SLP138 T02170194=
201805270952 METAR KATL 270952Z 13003KT 10SM SCT037 BKN075 BKN120 BKN200 22/19 A2996 RMK AO2 SLP134 T02170194=
201805270852 METAR KATL 270852Z 00000KT 10SM FEW060 SCT120 BKN200 21/19 A2995 RMK AO2 SLP131 T02110189 55000=
201805270752 METAR KATL 270752Z 00000KT 10SM FEW110 SCT200 SCT250 21/19 A2994 RMK AO2 SLP128 T02110189=
201805270652 METAR KATL 270652Z 00000KT 10SM FEW120 SCT200 SCT250 22/19 A2994 RMK AO2 SLP130 T02170189=
201805270552 METAR KATL 270552Z 15004KT 10SM FEW120 BKN200 BKN250 22/19 A2995 RMK AO2 SLP131 T02220189 10267 20222 58002=
201805270452 METAR KATL 270452Z 18005KT 10SM SCT120 BKN200 BKN250 23/19 A2996 RMK AO2 SLP135 T02280194 402940206=
201805270352 METAR KATL 270352Z 20004KT 10SM FEW100 SCT140 BKN200 BKN250 23/20 A2997 RMK AO2 SLP140 T02330200=
201805270252 METAR KATL 270252Z 19007KT 10SM FEW090 SCT130 BKN200 BKN250 24/20 A2996 RMK AO2 SLP134 T02390200 53019=
201805270152 METAR KATL 270152Z 17006KT 10SM FEW085 SCT120 BKN200 BKN250 25/20 A2994 RMK AO2 SLP129 T02500200=
201805270052 METAR KATL 270052Z 17006KT 10SM FEW036 FEW085 BKN200 BKN250 26/21 A2991 RMK AO2 SLP120 TSE20 TS DSIPTD CB DSNT SW & NW-N T02560206=
201805270021 SPECI KATL 270021Z 17006KT 10SM FEW038 FEW085 BKN200 BKN250 26/20 A2991 RMK AO2 TSE20 TS DSIPTD CB DSNT NE & SW & NW-N TCU DSNT NE & SE SHRA DSNT NE T02610200=
201805262352 METAR KATL 262352Z 19008KT 10SM VCTS FEW040CB FEW075 SCT110 BKN250 27/20 A2990 RMK AO2 LTG DSNT E AND SE SLP115 TSB51 FRQ LTGICCGCA VC E TS VC E MOV NE CB DSNT SE & SW TCU DSNT ALQDS T02670200 10294 20267 51003=
201805262252 METAR KATL 262252Z 20006KT 10SM FEW045TCU FEW075 SCT110 BKN250 28/19 A2990 RMK AO2 LTG DSNT SE SLP115 CB DSNT N & SE & SW TCU N & S & NW & DSNT E-SE & W T02780189=
201805262152 METAR KATL 262152Z 17010KT 10SM FEW045TCU SCT075 SCT110 BKN250 28/19 A2990 RMK AO2 SLP113 TCU ALQDS T02830189=
201805262052 METAR KATL 262052Z VRB03KT 10SM SCT041TCU BKN250 29/19 A2989 RMK AO2 SLP111 TCU ALQDS T02940194 56024=
201805261952 METAR KATL 261952Z 19005KT 10SM SCT040 BKN250 28/19 A2990 RMK AO2 SLP115 MDT CU ALQDS T02830189=
201805261852 METAR KATL 261852Z VRB03KT 10SM SCT038 BKN250 29/21 A2993 RMK AO2 SLP124 MDT CU ALQDS T02940206=
201805261752 METAR KATL 261752Z VRB03KT 10SM BKN032 BKN250 27/20 A2996 RMK AO2 SLP136 MDT CU ALQDS T02720200 10278 20217 58014=
201805261652 METAR KATL 261652Z 00000KT 10SM BKN031 BKN250 26/20 A2998 RMK AO2 SLP144 T02610200=
201805261625 SPECI KATL 261625Z VRB04KT 10SM BKN021 BKN250 26/20 A2999 RMK AO2 T02610200=
201805261552 METAR KATL 261552Z VRB03KT 10SM SCT018 BKN250 26/21 A3000 RMK AO2 SLP148 T02560206=
201805261526 SPECI KATL 261526Z VRB03KT 10SM BKN016 BKN250 25/20 A3000 RMK AO2 T02500200=
201805261452 METAR KATL 261452Z 27004KT 10SM BKN013 24/20 A3000 RMK AO2 SLP151 T02390200 50008=
201805261433 SPECI KATL 261433Z 24003KT 10SM OVC012 23/19 A3000 RMK AO2 T02280194=
201805261352 METAR KATL 261352Z 18003KT 10SM OVC007 22/20 A3001 RMK AO2 SLP154 T02170200=
201805261252 METAR KATL 261252Z 17005KT 7SM BKN006 OVC010 22/20 A3000 RMK AO2 SLP151 CIG 005V008 T02170200=
201805261152 METAR KATL 261152Z 14004KT 6SM BR BKN006 OVC012 22/19 A2998 RMK AO2 SLP142 70001 T02170194 10222 20206 53015=
201805261136 SPECI KATL 261136Z 12004KT 7SM BKN006 BKN012 BKN140 22/19 A2998 RMK AO2 T02170194=
201805261125 SPECI KATL 261125Z 00000KT 8SM FEW006 BKN012 BKN140 22/19 A2997 RMK AO2 T02170194=
201805261052 METAR KATL 261052Z 14003KT 10SM BKN012 BKN140 BKN200 21/19 A2996 RMK AO2 SLP135 T02110189=
201805260952 METAR KATL 260952Z 00000KT 10SM FEW005 BKN140 BKN200 BKN250 21/19 A2993 RMK AO2 SLP126 T02110189=
201805260907 SPECI KATL 260907Z 00000KT 10SM FEW005 BKN140 BKN200 21/19 A2993 RMK AO2 T02110189=
201805260856 SPECI KATL 260856Z 00000KT 10SM BKN005 BKN085 BKN130 OVC200 21/19 A2993 RMK AO2 BKN005 V SCT T02110189=
201805260852 METAR KATL 260852Z 00000KT 10SM FEW005 FEW085 BKN130 BKN200 21/19 A2993 RMK AO2 SLP127 T02110189 58012=
201805260752 METAR KATL 260752Z 00000KT 10SM FEW008 FEW085 BKN150 BKN200 21/18 A2995 RMK AO2 SLP132 T02110183=
201805260652 METAR KATL 260652Z 17006KT 10SM FEW006 SCT120 BKN200 BKN250 22/19 A2996 RMK AO2 SLP137 T02170194=
201805260625 SPECI KATL 260625Z 18005KT 10SM SCT007 SCT120 BKN200 22/20 A2996 RMK AO2 T02170200=
201805260557 SPECI KATL 260557Z 18005KT 10SM BKN007 BKN014 BKN110 OVC200 22/21 A2997 RMK AO2 BKN007 V SCT CB DSIPT SHRA SE-S T02220206=
201805260552 METAR KATL 260552Z 19006KT 10SM SCT007 SCT014CB BKN090 BKN200 22/21 A2997 RMK AO2 SLP140 CB VC SE-SW MOV NE 60001 T02220206 10244 20222 58012=
201805260540 SPECI KATL 260540Z 17006KT 10SM SCT007 SCT014CB BKN090 BKN200 22/21 A2997 RMK AO2 CB VC SE-SW MOV NE T02220206=
201805260452 METAR KATL 260452Z 17006KT 10SM BKN007 BKN014 OVC200 22/21 A2999 RMK AO2 SLP146 T02220206 402830211=
201805260352 METAR KATL 260352Z 13005KT 10SM BKN006 BKN050 OVC100 22/21 A3000 RMK AO2 RAE52 SLP149 CIG 004V010 P0001 T02220206=
201805260336 SPECI KATL 260336Z 14004KT 10SM -RA BKN007 BKN050 BKN100 OVC200 22/21 A2999 RMK AO2 P0001 T02220206=
201805260311 SPECI KATL 260311Z 13004KT 8SM -RA SCT008 BKN018 BKN100 OVC200 22/21 A3000 RMK AO2 LTG DSNT NW SCT008 V BKN P0001 T02220206=
201805260252 METAR KATL 260252Z 14005KT 8SM -RA FEW008 SCT020 BKN090 OVC150 22/21 A3001 RMK AO2 LTG DSNT NW RAB20 SLP152 SCT020 V BKN CB DSNT NW P0000 60000 T02220206 51016=
201805260152 METAR KATL 260152Z 16005KT 10SM FEW015 SCT120 BKN150 BKN250 24/20 A3001 RMK AO2 RAB0053E23 SLP152 LTG DSNT NW CB DSNT NW P0000 T02390200=
201805260052 METAR KATL 260052Z 15007KT 10SM FEW020 SCT120 BKN150 BKN250 24/20 A2998 RMK AO2 SLP142 TCU DSNT NW-N VCSH E-SE T02390200=
201805252352 METAR KATL 252352Z 18008KT 10SM FEW020TCU SCT080 BKN200 BKN250 24/19 A2996 RMK AO2 RAB29E50 SLP136 TCU VC NW & DSNT NE P0000 60000 T02440194 10283 20244 53000=
201805252252 METAR KATL 252252Z 13007KT 10SM FEW030TCU SCT050 BKN200 BKN250 27/19 A2995 RMK AO2 LTG DSNT N AND E AND W SLP134 CB DSNT ALQDS TCU VC E-S & W T02720194=
201805252152 METAR KATL 252152Z 16007KT 10SM FEW030 SCT200 BKN250 28/20 A2995 RMK AO2 SLP133 CB DSNT N-NE & SE-S T02830200=
201805252052 METAR KATL 252052Z VRB04KT 10SM SCT030 SCT050 BKN200 BKN250 28/20 A2996 RMK AO2 SLP135 TCU DSNT ALQDS CB DSNT NE & E-SE T02780200 56026=
201805251952 METAR KATL 251952Z 13007KT 10SM SCT028TCU BKN045 BKN200 BKN250 28/20 A2999 RMK AO2 SLP144 TCU SW & NW MDT CU ALQDS SHRA NW T02780200=
201805251852 METAR KATL 251852Z 11008KT 10SM SCT025TCU SCT045 BKN180 BKN250 27/21 A3001 RMK AO2 SLP153 TCU N & S & W-N SHRA N & NW T02670206=
201805251807 SPECI KATL 251807Z 16007KT 10SM FEW020 SCT028TCU BKN045 BKN180 BKN250 26/21 A3003 RMK AO2 TCU SW & W BKN028 V SCT MDT CU ALQDS SHRA NE-SE & SW T02610206=
201805251752 METAR KATL 251752Z 14008KT 10SM SCT020 BKN028TCU BKN045 BKN180 BKN250 26/20 A3004 RMK AO2 SLP163 TCU SW & W BKN028 V SCT MDT CU ALQDS SHRA NE-SE & SW T02610200 10267 20217 58015=
201805251652 METAR KATL 251652Z 12006KT 10SM BKN020 BKN026 BKN050 BKN180 BKN250 26/20 A3006 RMK AO2 SLP171 MDT CU ALQDS SHRA E-S T02560200=
201805251627 SPECI KATL 251627Z 09008KT 10SM BKN020 BKN050 BKN180 BKN250 26/21 A3007 RMK AO2 BKN020 V SCT SHRA E-S T02610211=
201805251619 SPECI KATL 251619Z 10007KT 10SM SCT017 SCT028 BKN050 BKN180 BKN250 26/21 A3007 RMK AO2 SHRA E-S T02560206=
201805251552 METAR KATL 251552Z 10007KT 10SM SCT017 BKN022 BKN035 BKN180 BKN250 25/20 A3008 RMK AO2 SLP177 T02500200=
201805251452 METAR KATL 251452Z 07009KT 10SM BKN017 BKN024 OVC030 24/20 A3009 RMK AO2 SLP179 SHRA NE & E & SE BINOVC T02440200 50003=
201805251352 METAR KATL 251352Z 07009KT 10SM SCT012 BKN017 OVC030 24/20 A3009 RMK AO2 SLP182 BINOVC T02390200=
201805251346 SPECI KATL 251346Z 05009KT 10SM SCT012 OVC017 24/19 A3010 RMK AO2 BINOVC=
201805251252 METAR KATL 251252Z 07007KT 10SM BKN010 OVC020 22/19 A3009 RMK AO2 SLP179 CIG 008V012 T02220194=
201805251244 SPECI KATL 251244Z 08007KT 10SM BKN010 OVC020 22/19 A3008 RMK AO2 CIG 008V012 T02220194=
201805251152 METAR KATL 251152Z 09008KT 7SM BKN007 OVC026 22/19 A3008 RMK AO2 SLP174 CIG 005V009 BINOVC 70008 T02170194 10222 20211 51007=
201805251052 METAR KATL 251052Z 07007KT 8SM BKN006 OVC012 22/19 A3007 RMK AO2 SLP173 CIG 004V008 T02170194=
201805250952 METAR KATL 250952Z 08007KT 10SM BKN007 OVC020 22/19 A3006 RMK AO2 SLP169 CIG 005V009 T02170194=
201805250852 METAR KATL 250852Z 08007KT 10SM BKN007 OVC020 22/19 A3005 RMK AO2 SLP166 CIG 005V009 BINOVC T02170194 56014=
201805250752 METAR KATL 250752Z 08006KT 10SM BKN007 OVC018 22/19 A3006 RMK AO2 SLP170 CIG 005V009 BINOVC T02170194=
201805250652 METAR KATL 250652Z 08009KT 10SM OVC008 22/19 A3008 RMK AO2 SLP176 CIG 006V010 T02170194=
201805250552 METAR KATL 250552Z VRB04KT 10SM OVC007 22/20 A3009 RMK AO2 SLP181 CIG 005V009 60008 T02220200 10278 20217 58005=
201805250452 METAR KATL 250452Z 08007KT 10SM OVC007 22/20 A3011 RMK AO2 SLP186 T02220200 403000211=
201805250404 SPECI KATL 250404Z 08003KT 10SM BKN007 BKN150 BKN250 22/20 A3011 RMK AO2 T02220200=
201805250352 METAR KATL 250352Z 09006KT 10SM FEW007 BKN150 BKN250 22/20 A3010 RMK AO2 SLP183 T02170200=
201805250349 SPECI KATL 250349Z 09006KT 10SM SCT007 BKN150 BKN250 22/20 A3010 RMK AO2 SCT007 V BKN=
201805250336 SPECI KATL 250336Z 08007KT 10SM BKN008 BKN150 BKN250 22/20 A3011 RMK AO2 T02220200=
201805250252 METAR KATL 250252Z 08011KT 10SM FEW020 SCT150 BKN200 BKN250 22/19 A3011 RMK AO2 RAE16 SLP187 FRQ LTG DSNT NW P0000 60008 T02220194 51022=
201805250152 METAR KATL 250152Z 09011KT 7SM -RA FEW015CB SCT040 BKN060 BKN200 23/19 A3009 RMK AO2 PK WND 06028/0137 WSHFT 0127 RAB40 TSB26E49 SLP180 CB W-NW MOV W P0008 T02280194=
201805250149 SPECI KATL 250149Z 07012KT 6SM -RA FEW015CB SCT035 BKN060 BKN200 23/19 A3009 RMK AO2 PK WND 06028/0137 WSHFT 0127 RAB40 TSB26E49 TS DSIPTD CB W-NW MOV W P0006=
201805250142 SPECI KATL 250142Z 07016G28KT 2 1/2SM +TSRA SCT020CB BKN030 BKN070 BKN200 24/19 A3010 RMK AO2 PK WND 06028/0137 WSHFT 0127 RAB40 TSB26 OCNL LTGIC OHD-N TS OHD-N MOV W P0000 T02390189=
201805250126 SPECI KATL 250126Z 12009KT 10SM TS FEW020CB SCT030 BKN080 BKN200 26/21 A3010 RMK AO2 TSB26 OCNL LTGIC N-NE TS VC N-NE MOV W T02610211=
201805250052 METAR KATL 250052Z 15007KT 10SM FEW030 SCT100 BKN250 26/21 A3007 RMK AO2 SLP172 CONS LTG DSNT NE-E T02610211=
201805242352 METAR KATL 242352Z 14009KT 10SM FEW040 SCT180 BKN250 28/19 A3004 RMK AO2 SLP163 CB DSNT NE-E TCU DSNT W T02780194 10300 20272 55003=
201805242252 METAR KATL 242252Z 09008KT 10SM FEW040 SCT180 BKN250 29/19 A3004 RMK AO2 SLP162 MDT CU VC ALQDS T02890194=
201805242152 METAR KATL 242152Z 08007KT 10SM SCT040 BKN250 29/20 A3004 RMK AO2 SLP161 MDT CU ALQDS T02940200=
201805242052 METAR KATL 242052Z 09007KT 10SM SCT038 SCT200 BKN250 29/20 A3005 RMK AO2 SLP166 MDT CU ALQDS T02940200 56019=
201805241952 METAR KATL 241952Z 08008KT 10SM SCT038 BKN250 29/19 A3006 RMK AO2 SLP170 MDT CU ALQDS T02890194=
201805241852 METAR KATL 241852Z 10004KT 10SM BKN034TCU BKN250 29/20 A3009 RMK AO2 SLP178 TCU NW MDT CU ALQDS T02890200=
201805241752 METAR KATL 241752Z 12007KT 10SM BKN030TCU BKN250 28/19 A3011 RMK AO2 SLP186 TCU N & SW MDT CU NW T02780194 10283 20217 58006=
201805241652 METAR KATL 241652Z 07007KT 10SM BKN030TCU BKN250 28/21 A3013 RMK AO2 SLP192 TCU ALQDS T02780206=
201805241552 METAR KATL 241552Z 05008KT 10SM BKN030 BKN120 BKN250 27/20 A3014 RMK AO2 SLP196 MDT CU ALQDS T02670200=
201805241452 METAR KATL 241452Z 10005KT 10SM BKN020 BKN120 BKN250 26/20 A3013 RMK AO2 SLP193 T02560200 50001=
201805241352 METAR KATL 241352Z 08005KT 10SM BKN015 BKN120 BKN250 24/19 A3013 RMK AO2 SLP195 T02390194=
201805241350 SPECI KATL 241350Z 09005KT 10SM BKN015 BKN120 BKN250 24/20 A3013 RMK AO2=
201805241252 METAR KATL 241252Z 07005KT 9SM BKN010 BKN120 BKN250 23/20 A3013 RMK AO2 SLP192 CIG 008V012 T02330200=
201805241233 SPECI KATL 241233Z 06006KT 8SM BKN010 BKN120 BKN250 23/19 A3012 RMK AO2 CIG 008V012 T02280194=
201805241152 METAR KATL 241152Z 09006KT 1 1/2SM OVC005 22/20 A3011 RMK AO2 SFC VIS 7 SLP187 CIG 004V006 70001 T02170200 10222 20211 53014=
201805241143 SPECI KATL 241143Z 08006KT 1 1/2SM OVC005 22/20 A3011 RMK AO2 SFC VIS 7 CIG 004V007 T02170200=
201805241052 METAR KATL 241052Z 08007KT 1/2SM R09R/P6000FT BR OVC003 21/20 A3010 RMK AO2 SFC VIS 4 SLP182 CIG 002V004 TWRINC T02110200=
201805240952 METAR KATL 240952Z 09004KT 1/2SM R09R/P6000FT BR OVC003 21/20 A3007 RMK AO2 SFC VIS 3 SLP174 CIG 002V004 TWRINC T02110200=
201805240852 METAR KATL 240852Z 00000KT 1/2SM R09R/P6000FT BR OVC002 21/20 A3007 RMK AO2 SFC VIS 3 SLP173 CIG 001V003 TWRINC T02110200 56004=
201805240752 METAR KATL 240752Z 00000KT 1/2SM R09R/P6000FT BR OVC003 21/20 A3007 RMK AO2 SFC VIS 4 SLP174 CIG 002V004 TWRINC T02110200=
201805240652 METAR KATL 240652Z 07006KT 1/2SM R09R/2800VP6000FT FG VV002 21/21 A3007 RMK AO2 SLP173 T02110206=
201805240626 SPECI KATL 240626Z 07004KT 1/2SM R09R/2200V3500FT FG VV002 22/21 A3007 RMK AO2 T02170206=
201805240552 METAR KATL 240552Z 10005KT 3/4SM R09R/P6000FT BR OVC003 22/21 A3008 RMK AO2 SFC VIS 1 1/2 SLP177 CIG 002V004 T02220206 10261 20222 56007=
201805240549 SPECI KATL 240549Z 09005KT 3/4SM R09R/P6000FT BR OVC003 22/21 A3008 RMK AO2 SFC VIS 1 1/2 CIG 002V005=
201805240535 SPECI KATL 240535Z 08007KT 10SM BKN005 BKN050 BKN110 BKN250 22/21 A3008 RMK AO2 FRQ LTGICCCCA DSNT S-SW CB DSNT S-SW T02220206=
201805240452 METAR KATL 240452Z 00000KT 10SM FEW008 BKN250 23/21 A3009 RMK AO2 SLP181 CONS LTG DSNT S-SW T02280206 402890206=
201805240352 METAR KATL 240352Z 14003KT 10SM FEW009 FEW025 BKN250 23/21 A3010 RMK AO2 SLP184 FRQ LTG DSNT S T02280206=
201805240252 METAR KATL 240252Z 14003KT 10SM FEW012 BKN200 BKN250 23/21 A3009 RMK AO2 SLP180 T02330206 53015=
201805240152 METAR KATL 240152Z 11005KT 10SM FEW025 SCT200 BKN250 24/21 A3007 RMK AO2 SLP172 T02390206=
201805240052 METAR KATL 240052Z 11003KT 10SM FEW025 SCT150 BKN200 BKN250 25/20 A3006 RMK AO2 SLP169 T02500200=
201805240035 SPECI KATL 240035Z 09007KT 10SM SCT025 BKN150 BKN200 BKN250 26/20 A3006 RMK AO2 T02560200=
201805232352 METAR KATL 232352Z 09005KT 10SM FEW025 SCT150 BKN200 BKN250 26/21 A3005 RMK AO2 LTG DSNT W TSE11 SLP165 CB DSNT SW-W T02610206 10289 20256 53001=
201805232252 METAR KATL 232252Z 10004KT 10SM FEW035TCU SCT150 BKN200 BKN250 28/19 A3004 RMK AO2 SLP162 LTG DSNT NW CB DSNT NW TCU VC W-NW T02780194=
201805232152 METAR KATL 232152Z 06007KT 10SM SCT035TCU SCT150 BKN250 28/19 A3004 RMK AO2 LTG DSNT S AND NW SLP163 CB DSNT NW TCU SW & VC NW T02780194=
201805232052 METAR KATL 232052Z VRB06KT 10SM FEW030TCU SCT080 BKN250 28/19 A3004 RMK AO2 SLP164 CB DSNT NE-SE & DSNT SW TCU SW-NW-N T02780194 56013=
201805231952 METAR KATL 231952Z 04009KT 10SM FEW030TCU SCT070 BKN250 28/19 A3005 RMK AO2 SLP167 CB DSNT SE TCU N & DSNT S-SW T02780194=
201805231852 METAR KATL 231852Z 03008G16KT 10SM BKN025TCU BKN040 BKN250 28/20 A3007 RMK AO2 SLP172 TCU OHD-N-NE-E & S-SW-W-NW T02780200=
201805231752 METAR KATL 231752Z 01007KT 10SM SCT020TCU BKN040 BKN070 BKN250 26/19 A3008 RMK AO2 SLP177 TCU NE & SE-S-SW 60001 T02560194 10256 20211 58010=
201805231722 SPECI KATL 231722Z 02005KT 9SM SCT018 SCT030 BKN040 26/20 A3009 RMK AO2 T02560200=
201805231652 METAR KATL 231652Z 03007KT 10SM BKN017 BKN030 OVC060 25/20 A3010 RMK AO2 SLP183 MDT CU ALQDS T02500200=
201805231617 SPECI KATL 231617Z 01007KT 10SM BKN015TCU BKN025 BKN070 25/20 A3011 RMK AO2 TCU NE-SE & SW-NW T02500200=
201805231552 METAR KATL 231552Z 03006KT 10SM SCT015 BKN025 BKN075 25/20 A3011 RMK AO2 RAB1456E24 SLP189 MDT CU ALQDS P0000 T02500200=
201805231545 SPECI KATL 231545Z 36006KT 10SM BKN015 BKN025 BKN075 24/20 A3011 RMK AO2 RAB1456E24 P0000 T02440200=
201805231456 SPECI KATL 231456Z 35007KT 8SM -RA BKN010 BKN015 BKN020 23/20 A3011 RMK AO2 RAB56 P0000 T02330200=
201805231455 SPECI KATL 231455Z 35006KT 10SM BKN010 BKN015 BKN020 23/20 A3011 RMK AO2 T02330200=
201805231452 METAR KATL 231452Z 36007KT 9SM BKN008 BKN015 BKN020 23/20 A3011 RMK AO2 SLP188 VIS LWR E SHRA 60001 T02330200 51008=
201805231407 SPECI KATL 231407Z 35007KT 6SM BR BKN008 BKN015 OVC020 23/20 A3011 RMK AO2 T02280200=
201805231352 METAR KATL 231352Z 34005KT 2SM BR BCFG BKN008 BKN013 OVC020 23/20 A3011 RMK AO2 SFC VIS 5 DZE29 SLP187 BINOVC SW P0000 T02280200=
201805231329 SPECI KATL 231329Z 31007KT 1 1/2SM BR FEW005 BKN008 OVC013 22/20 A3011 RMK AO2 SFC VIS 5 DZE29 P0000 T02170200=
201805231321 SPECI KATL 231321Z 32006KT 1SM R09R/P6000FT -DZ BR BKN005 BKN013 OVC020 22/20 A3010 RMK AO2 SFC VIS 3 P0000 T02170200=
201805231252 METAR KATL 231252Z VRB03KT 2SM -DZ BR BKN005 BKN009 OVC020 22/20 A3009 RMK AO2 SFC VIS 5 DZE07B23RAB07E23 SLP184 CIG 004V008 P0001 T02170200=
201805231245 SPECI KATL 231245Z VRB03KT 2SM BR BKN005 BKN009 OVC020 22/20 A3009 RMK AO2 SFC VIS 6 DZE07B23E35RAB07E23 CIG 004V008 P0001 T02170200=
201805231235 SPECI KATL 231235Z 34005KT 1/2SM R09R/P6000FT BR BKN005 BKN010 OVC020 22/20 A3009 RMK AO2 SFC VIS 6 DZE07B23E35RAB07E23 CIG 004V008 P0001 T02170200=
201805231208 SPECI KATL 231208Z 31004KT 1/2SM R09R/5000VP6000FT -RA BR BKN004 OVC010 21/20 A3009 RMK AO2 SFC VIS 1 1/2 DZE07RAB07 CIG 002V005 P0001 T02110200=
201805231152 METAR KATL 231152Z 00000KT 1 1/4SM -DZ BR BKN004 OVC012 21/20 A3009 RMK AO2 SFC VIS 3 DZB51 SLP180 CIG 003V006 P0000 60025 70077 T02110200 10211 20206 53013=
201805231114 SPECI KATL 231114Z 00000KT 1 1/4SM BR OVC004 21/19 A3008 RMK AO2 SFC VIS 6 CIG 003V006 T02110194=
201805231052 METAR KATL 231052Z 08003KT 1 1/4SM BR OVC005 21/19 A3007 RMK AO2 SFC VIS 6 RAE28 SLP173 CIG 004V007 P0003 T02110194=
201805230952 METAR KATL 230952Z 07003KT 1 1/4SM RA BR BKN005 OVC011 21/19 A3005 RMK AO2 SFC VIS 2 SLP169 CIG 004V008 P0010 T02110194=
201805230852 METAR KATL 230852Z 09003KT 1 1/4SM RA BR SCT004 BKN008 OVC014 21/19 A3005 RMK AO2 SFC VIS 3 SLP165 CIG 007V010 P0009 60012 T02110194 55004 $=
201805230752 METAR KATL 230752Z 13004KT 1 1/4SM -RA BR OVC004 21/20 A3004 RMK AO2 SFC VIS 4 RAB44 SLP164 CIG 002V005 P0003 T02110200=
201805230652 METAR KATL 230652Z 13004KT 1 1/4SM BR OVC003 21/19 A3005 RMK AO2 SFC VIS 4 RAE52 SLP166 CIG 002V004 TWRINC P0000 T02060194=
201805230650 SPECI KATL 230650Z 14006KT 1 1/4SM -RA BR OVC003 21/19 A3005 RMK AO2 SFC VIS 4 TWRINC P0000=
201805230552 METAR KATL 230552Z 17004KT 5SM -RA BR BKN004 BKN045 OVC110 21/19 A3006 RMK AO2 SLP170 P0005 60045 T02060194 10233 20206 58011=
201805230542 SPECI KATL 230542Z 17005KT 5SM -RA BR BKN004 BKN019 OVC075 21/19 A3006 RMK AO2 BKN004 V SCT P0004 T02060194=
201805230516 SPECI KATL 230516Z 00000KT 5SM -RA BR SCT003 SCT022 OVC060 21/19 A3007 RMK AO2 P0003 T02060194=
201805230452 METAR KATL 230452Z 14004KT 4SM RA BR SCT003 BKN028 OVC055 21/19 A3008 RMK AO2 SLP177 P0025 T02060194 402890206=
201805230427 SPECI KATL 230427Z 10003KT 3SM +RA BR SCT004 BKN026CB OVC046 21/19 A3009 RMK AO2 VIS 2V4 CB NE-OHD-SW MOV NE P0019 T02060194=
201805230352 METAR KATL 230352Z 10004KT 3SM +RA BR BKN005 BKN024CB OVC045 21/19 A3010 RMK AO2 RAB02 SLP184 CIG 003V007 CB SW-NW MOV NE P0004 T02060194=
201805230341 SPECI KATL 230341Z 10003KT 7SM -RA BKN005 BKN022CB OVC045 21/19 A3010 RMK AO2 RAB02 CIG 004V007 CB SW MOV NE P0001 T02060189=
201805230252 METAR KATL 230252Z 12005KT 10SM SCT006 BKN020 OVC060 21/19 A3009 RMK AO2 RAB21E40 SLP183 P0000 60011 T02110194 51018=
201805230152 METAR KATL 230152Z 14005KT 10SM FEW008 SCT016 BKN085 OVC140 21/19 A3008 RMK AO2 SLP179 T02110189=
201805230111 SPECI KATL 230111Z 14005KT 10SM FEW008 SCT016 BKN060 OVC130 22/19 A3007 RMK AO2 T02170194=
201805230052 METAR KATL 230052Z 17005KT 6SM BR SCT007 BKN014CB BKN045 OVC130 21/19 A3006 RMK AO2 LTG DSNT SE RAB09E52 TSB01E48 SLP173 TS DSIPTD CB N-NE MOV N CB DSNT SE P0011 T02110194=
201805230049 SPECI KATL 230049Z 20005KT 6SM -RA BR FEW007 SCT014 BKN036CB OVC130 21/19 A3006 RMK AO2 LTG DSNT SE RAB09 TSB01E48 TS DSIPTD CB N-NE MOV N CB DSNT SE P0011=
201805230032 SPECI KATL 230032Z 14007KT 1 1/2SM TSRA BR FEW007 BKN028CB BKN065 OVC130 21/19 A3006 RMK AO2 SFC VIS 3 RAB09 TSB01 OCNL LTGIC NE-OHD-SW TS NE-OHD-SW MOV N SHELF CLOUD NW-NE MOV N P0009 T02110194=
201805230026 SPECI KATL 230026Z 18008KT 4SM TSRA BR FEW007 BKN028CB BKN065 OVC130 21/19 A3006 RMK AO2 RAB09 TSB01 OCNL LTGIC NE-OHD-SW TS NE-OHD-SW MOV N SHELF CLOUD W-N-NE MOV N P0006 T02110189=
201805230002 SPECI KATL 230002Z 20007KT 10SM TS FEW010 BKN032CB BKN065 OVC130 23/19 A3005 RMK AO2 LTG DSNT N AND NE TSB01 OCNL LTGICCA SE-SW TS SE-SW MOV N CB DSNT N-E-S SHELF CLOUD SE-SW MOV N T02330194=
201805222352 METAR KATL 222352Z 35007KT 10SM FEW012 SCT028TCU BKN060 OVC140 23/20 A3004 RMK AO2 LTG DSNT N-SE SLP164 CB DSNT SE TCU SE-SW SHELF CLOUD SE-SW MOV N 60006 T02330200 10289 20217 52004=
201805222252 METAR KATL 222252Z 00000KT 10SM FEW045 SCT075 BKN110 OVC200 23/19 A3003 RMK AO2 LTG DSNT N-SE RAE37 SLP162 CB DSNT ALQDS P0002 T02330194=
201805222152 METAR KATL 222152Z 22007KT 8SM -RA FEW028 BKN075 BKN100 OVC200 22/19 A3003 RMK AO2 LTG DSNT N AND NW RAB28 SLP162 CB DSNT ALQDS P0003 T02220194=
201805222111 SPECI KATL 222111Z 22013G23KT 10SM FEW020CB BKN080 BKN120 BKN250 26/21 A3003 RMK AO2 LTG DSNT NW CB SE-SW & DSNT N & DSNT SW-NW MOV N SHRA SE-SW & DSNT N & DSNT SW-NW T02560206=
201805222052 METAR KATL 222052Z 22004KT 10SM FEW020CB SCT030TCU BKN110 BKN250 26/21 A3003 RMK AO2 LTG DSNT NW RAB15E41 SLP158 CB N-NE & S-SW & DSNT SW-NW MOV N TCU NE & S & NW P0001 60001 T02610206 56021=
201805222028 SPECI KATL 222028Z 00000KT 9SM -RA FEW020CB SCT030TCU BKN100 25/19 A3003 RMK AO2 RAB15 VIS LWR N SHRA CB N MOV N TCU ALQDS P0001 T02500194=
201805221952 METAR KATL 221952Z 14005KT 10SM SCT040TCU BKN050 BKN070 28/19 A3003 RMK AO2 SLP160 CB DSNT S TCU S-SW-W-NW-N MDT CU E-SE SHRA DSNT S T02780194=
201805221852 METAR KATL 221852Z VRB03KT 10SM SCT030TCU SCT080 28/19 A3006 RMK AO2 LTG DSNT NW SLP169 CB DSNT NW TCU ALQDS T02830194=
201805221752 METAR KATL 221752Z 21009KT 10SM SCT030 SCT070 27/19 A3009 RMK AO2 SLP180 MDT CU ALQDS 60001 T02720194 10272 20211 58015=
201805221652 METAR KATL 221652Z VRB03KT 10SM SCT020TCU SCT030 BKN070 26/19 A3011 RMK AO2 RAB1557E09 SLP187 TCU ALQDS P0000 T02560194=
201805221626 SPECI KATL 221626Z 20008KT 10SM SCT017TCU SCT030 BKN070 26/19 A3012 RMK AO2 RAB1557E09 TCU ALQDS P0000 T02560194=
201805221552 METAR KATL 221552Z 22004KT 10SM BKN017TCU BKN025 BKN035 24/20 A3013 RMK AO2 RAB1453E04B24E52 SLP195 TCU SE-SW-NW MDT CU ALQDS SHRA VC SE-SW-NW P0001 T02390200=
201805221452 METAR KATL 221452Z 18005KT 10SM FEW015 BKN020 BKN030 23/19 A3013 RMK AO2 SLP196 60000 T02280189 50005=
201805221358 SPECI KATL 221358Z VRB04KT 10SM SCT010 BKN015 OVC020 22/19 A3014 RMK AO2 T02220194=
201805221352 METAR KATL 221352Z 19006KT 7SM BKN010 BKN015 OVC020 22/19 A3014 RMK AO2 SLP197 T02220194=
201805221252 METAR KATL 221252Z 14006KT 6SM BR OVC008 22/19 A3013 RMK AO2 DZE47 SLP194 CIG 007V010 P0000 T02170194=
201805221152 METAR KATL 221152Z VRB05KT 6SM -DZ BR OVC006 21/19 A3012 RMK AO2 DZB52 SLP190 P0000 60000 70018 T02110194 10211 20206 53011=
201805221052 METAR KATL 221052Z 13004KT 6SM BR OVC007 21/19 A3010 RMK AO2 SLP185 T02110189=
201805220952 METAR KATL 220952Z 14005KT 6SM BR OVC006 21/19 A3009 RMK AO2 SLP182 CIG 005V008 T02060189=
201805220852 METAR KATL 220852Z 14005KT 8SM BKN008 BKN029 21/18 A3008 RMK AO2 SLP178 BKN008 V SCT T02060183 56004=
201805220825 SPECI KATL 220825Z 13005KT 10SM FEW009 BKN024 BKN070 21/18 A3008 RMK AO2 T02060183=
201805220810 SPECI KATL 220810Z 13007KT 10SM FEW009 SCT024 BKN070 21/18 A3009 RMK AO2 T02060183=
201805220752 METAR KATL 220752Z 12006KT 10SM BKN009 OVC021 21/18 A3009 RMK AO2 SLP180 BKN009 V SCT CIG 008V011 T02060183=
201805220747 SPECI KATL 220747Z 13006KT 10SM BKN009 OVC021 21/18 A3009 RMK AO2 CIG 008V011=
201805220716 SPECI KATL 220716Z 12005KT 10SM BKN010 BKN017 OVC065 21/18 A3010 RMK AO2 CIG 009V013 T02110183=
201805220652 METAR KATL 220652Z 12005KT 10SM SCT010 SCT060 BKN080 21/18 A3009 RMK AO2 SLP182 T02110183=
201805220611 SPECI KATL 220611Z 12005KT 10SM SCT021 BKN060 21/18 A3010 RMK AO2 T02110183=
201805220552 METAR KATL 220552Z 11004KT 10SM BKN021 BKN065 21/18 A3010 RMK AO2 SLP184 T02110183 10233 20211 56006=
201805220546 SPECI KATL 220546Z 10004KT 10SM BKN022 BKN065 BKN100 21/18 A3010 RMK AO2=
201805220452 METAR KATL 220452Z 12007KT 10SM FEW100 SCT150 BKN250 21/18 A3010 RMK AO2 SLP185 T02110178 402830189=
201805220352 METAR KATL 220352Z 12006KT 10SM FEW090 SCT200 22/18 A3011 RMK AO2 SLP185 T02170178=
201805220252 METAR KATL 220252Z 14006KT 10SM FEW100 SCT200 22/17 A3012 RMK AO2 SLP190 T02170172 51007=
201805220152 METAR KATL 220152Z 14005KT 10SM BKN090 BKN200 22/18 A3011 RMK AO2 SLP189 T02220178=
201805220052 METAR KATL 220052Z 15004KT 10SM SCT090 BKN120 BKN200 23/18 A3011 RMK AO2 SLP188 T02280178=
201805212352 METAR KATL 212352Z 14010KT 10SM FEW030 BKN090 BKN150 BKN250 23/17 A3010 RMK AO2 RAB11E34 SLP184 CB DSNT W-NW P0018 60018 T02330172 10283 20228 55000=
201805212252 METAR KATL 212252Z 10007KT 10SM FEW035TCU SCT090 BKN150 BKN250 27/18 A3008 RMK AO2 SLP177 CB DSNT S & SW TCU VC E-SE & DSNT SE-SW T02670178=
201805212152 METAR KATL 212152Z 12008KT 10SM FEW040 BKN150 BKN250 27/17 A3009 RMK AO2 SLP179 TCU DSNT SE-S T02720172=
201805212052 METAR KATL 212052Z 14009KT 10SM FEW045 BKN120 BKN150 BKN250 27/17 A3010 RMK AO2 SLP184 60000 T02670167 56018=
201805211952 METAR KATL 211952Z 11009KT 080V140 10SM FEW040TCU BKN110 BKN250 27/18 A3011 RMK AO2 RAB36E49 SLP187 TCU SE MDT CU SE-SW P0000 T02670178=
201805211852 METAR KATL 211852Z 10007KT 10SM SCT035TCU BKN060 BKN100 BKN250 27/18 A3013 RMK AO2 SLP193 TCU OHD-E-SE-S-SW T02670178=
201805211752 METAR KATL 211752Z 11007KT 10SM FEW030TCU BKN060 BKN100 BKN250 26/18 A3015 RMK AO2 SLP202 TCU S & DSNT N-NE & DSNT SW-NW T02610183 10261 20206 58009=
201805211652 METAR KATL 211652Z 14007KT 10SM BKN030 BKN110 BKN250 26/18 A3017 RMK AO2 SLP208 MDT CU ALQDS T02560183=
201805211552 METAR KATL 211552Z 11010G16KT 10SM BKN030 BKN100 BKN250 26/18 A3018 RMK AO2 SLP211 T02560178 $=
201805211459 SPECI KATL 211459Z 09008KT 10SM BKN030 BKN110 BKN250 24/18 A3018 RMK AO2 T02440183 $=
201805211452 METAR KATL 211452Z 13006KT 10SM BKN028 BKN110 BKN250 24/18 A3018 RMK AO2 SLP211 T02440183 50005 $=
201805211352 METAR KATL 211352Z 07008KT 10SM FEW020 SCT040 BKN110 BKN250 23/18 A3018 RMK AO2 SLP213 T02280178=
201805211252 METAR KATL 211252Z VRB05KT 10SM BKN100 BKN140 BKN180 22/18 A3018 RMK AO2 SLP214 T02220183=
201805211152 METAR KATL 211152Z VRB03KT 10SM FEW140 SCT180 SCT250 21/18 A3017 RMK AO2 SLP209 70109 T02060178 10211 20189 53010=
201805211052 METAR KATL 211052Z VRB03KT 10SM SCT140 BKN180 BKN220 19/17 A3014 RMK AO2 SLP202 T01940172=
201805210952 METAR KATL 210952Z 00000KT 10SM BKN140 20/17 A3015 RMK AO2 SLP200 T02000172=
201805210852 METAR KATL 210852Z 15004KT 10SM BKN130 19/18 A3013 RMK AO2 SLP196 T01890178 56009=
201805210752 METAR KATL 210752Z 00000KT 10SM SCT130 BKN160 19/18 A3014 RMK AO2 SLP196 T01940178=
201805210652 METAR KATL 210652Z 12003KT 10SM FEW012 FEW120 BKN170 20/17 A3014 RMK AO2 SLP195 T02000172=
201805210552 METAR KATL 210552Z 16003KT 10SM FEW100 SCT150 BKN200 BKN250 21/17 A3016 RMK AO2 SLP204 60001 T02060172 10217 20206 58006=
201805210452 METAR KATL 210452Z 00000KT 10SM BKN150 BKN200 OVC250 21/18 A3018 RMK AO2 SLP212 T02060178 403000200=
201805210352 METAR KATL 210352Z 17004KT 10SM FEW004 FEW018 BKN150 OVC200 21/19 A3019 RMK AO2 SLP214 T02110194=
201805210314 SPECI KATL 210314Z 16004KT 10SM FEW008 SCT022 SCT120 OVC180 21/21 A3018 RMK AO2 T02110206=
201805210252 METAR KATL 210252Z 17005KT 10SM FEW008 BKN022 BKN120 OVC180 22/21 A3018 RMK AO2 SLP211 60001 T02170206 53013=
201805210250 SPECI KATL 210250Z 16005KT 10SM FEW008 BKN022 BKN120 OVC180 22/21 A3018 RMK AO2=
201805210152 METAR KATL 210152Z 12005KT 10SM FEW055 SCT100 BKN180 OVC250 22/21 A3015 RMK AO2 SLP201 T02170211=
201805210052 METAR KATL 210052Z 13006KT 10SM FEW100 SCT150 BKN200 BKN250 21/21 A3012 RMK AO2 RAE44 SLP193 P0001 T02110206=
201805202352 METAR KATL 202352Z 10006KT 8SM -RA FEW042 SCT100 BKN140CB OVC200 21/20 A3014 RMK AO2 SLP200 TSE42 TS MOV SW FRQ LTGICCA DSNT SW CBMAM W-NW MOV SW CB DSNT SW P0012 60108 T02060200 10300 20200 53017=
201805202343 SPECI KATL 202343Z 10008G18KT 8SM -RA FEW042 SCT085 BKN140CB OVC200 21/20 A3014 RMK AO2 LTG DSNT SW AND W TSE42 TS MOV SW CBMAM NE-OHD-SW MOV SW CB DSNT SW AND W P0011 T02060200=
201805202331 SPECI KATL 202331Z 14008KT 10SM VCTS -RA FEW042CB SCT095 BKN180 OVC250 21/20 A3014 RMK AO2 LTG DSNT S-W PRESRR OCNL LTGICCA VC SE-SW TS VC SE-SW MOV SW CB DSNT S-W P0010 T02060200=
201805202320 SPECI KATL 202320Z VRB04KT 8SM -TSRA FEW008 FEW040CB SCT100 OVC180 20/19 A3012 RMK AO2 LTG DSNT S AND SW FRQ LTGICCA SE-SW TS SE-SW MOV SW CB DSNT SE-SW P0010 T02000194=
201805202252 METAR KATL 202252Z 16010KT 3SM +TSRA BR FEW008 SCT032CB BKN080 OVC200 21/21 A3012 RMK AO2 PK WND 09037/2224 WSHFT 2203 SFC VIS 6 SLP194 RAB17 FRQ LTGICCGCA E-OHD-SW TS E-OHD-SW MOV SW P0096 T02060206=
201805202239 SPECI KATL 202239Z 12011KT 1 1/2SM R09R/2400VP6000FT +TSRA BR BKN036CB BKN070 BKN110 OVC200 21/21 A3014 RMK AO2 PK WND 09037/2224 WSHFT 2203 SFC VIS 3 RAB17 VIS W-N 6 FRQ LTGICCGCA NE-OHD-SW TS NE-OHD-SW MOV W P0070 T02060206=
201805202226 SPECI KATL 202226Z COR 10020G37KT 3/4SM R09R/1800VP6000FT +TSRA BKN036CB BKN070 BKN110 OVC200 23/20 A3014 RMK AO2 PK WND 09037/2224 WSHFT 2203 TWR VIS 2 LTG DSNT ALQDS RAB17 VIS E-SE-S 1/2 FRQ LTGICCGCA NE-OHD-SW TS NE-OHD-SW MO=
201805202218 SPECI KATL 202218Z 08015KT 10SM -TSRA BKN036CB BKN070 BKN110 OVC200 26/19 A3012 RMK AO2 WSHFT 2203 LTG DSNT ALQDS PRESRR RAB17 FRQ LTGICCGCA NE-SE-S TS NE-SE-S MOV W CB DSNT ALQDS P0000 T02560194=
201805202213 SPECI KATL 202213Z 03013KT 10SM TS BKN036CB BKN070 BKN110 OVC200 27/19 A3011 RMK AO2 LTG DSNT ALQDS FRQ LTGICCGCA NE-SE-S TS NE-SE-S MOV W CB DSNT ALQDS T02670194=
201805202152 METAR KATL 202152Z 34013KT 10SM VCTS FEW038CB SCT045TCU BKN110 OVC200 27/21 A3009 RMK AO2 LTG DSNT ALQDS SLP181 FRQ LTGICCGCA VC NE-SE & NW TS VC NE-SE & NW MOV W CB DSNT ALQDS TCU SE-S T02670211=
201805202119 SPECI KATL 202119Z 16006KT 10SM VCTS FEW040CB FEW065 SCT110 BKN200 28/21 A3008 RMK AO2 LTG DSNT ALQDS FRQ LTGICCGCA VC SW-NW-NE TS VC SW-NW-NE MOV W CB DSNT ALQDS T02830206=
201805202052 METAR KATL 202052Z 16009KT 10SM TS FEW042CB SCT055 BKN250 28/21 A3009 RMK AO2 LTG DSNT ALQDS TSB1958E13B35 SLP179 OCNL LTGCG SW-W TS SW-W MOV SW CB DSNT NE MDT CU E-SE T02830211 56016=
201805202041 SPECI KATL 202041Z 16010KT 10SM TS FEW042CB SCT060 BKN250 28/21 A3009 RMK AO2 LTG DSNT NE AND SW AND W TSB1958E13B35 OCNL LTGCG NE & SW-W TS NE & SW-W MOV SW MDT CU E-SE T02830211=
201805202019 SPECI KATL 202019Z 15009KT 10SM VCTS SCT042CB SCT080 BKN250 29/21 A3009 RMK AO2 LTG DSNT SW TSB1958E13 OCNL LTGCG VC W TS VC W MOV SW CB DSNT SW T02890206=
201805202004 SPECI KATL 202004Z 13007KT 10SM TS FEW047CB SCT080 BKN250 29/21 A3009 RMK AO2 TSB1958 OCNL LTGCG N TS N MOV SW T02940206=
201805201952 METAR KATL 201952Z 13006KT 10SM FEW040 SCT080 BKN250 29/21 A3010 RMK AO2 SLP182 MDT CU ALQDS T02940206=
201805201852 METAR KATL 201852Z 16008KT 10SM BKN045 BKN250 29/21 A3012 RMK AO2 SLP189 MDT CU ALQDS T02940206=
201805201752 METAR KATL 201752Z 15005KT 10SM SCT037 BKN250 29/21 A3014 RMK AO2 SLP194 MDT CU ALQDS T02940211 10300 20222 58008=
201805201652 METAR KATL 201652Z 16003KT 10SM FEW039 BKN200 28/21 A3015 RMK AO2 SLP199 T02830206=
201805201552 METAR KATL 201552Z 00000KT 10SM BKN200 28/21 A3016 RMK AO2 SLP201 T02830211=
201805201452 METAR KATL 201452Z 33003KT 10SM BKN200 27/21 A3016 RMK AO2 SLP203 T02670211 51009=
201805201352 METAR KATL 201352Z 32005KT 10SM BKN200 26/20 A3016 RMK AO2 SLP202 T02560200=
201805201252 METAR KATL 201252Z 00000KT 10SM FEW200 BKN250 24/21 A3015 RMK AO2 SLP197 T02440206=
201805201152 METAR KATL 201152Z 00000KT 10SM FEW150 SCT200 BKN250 22/21 A3013 RMK AO2 SLP194 T02220206 10228 20206 53013=
201805201052 METAR KATL 201052Z 00000KT 10SM FEW200 SCT250 21/20 A3012 RMK AO2 SLP189 T02060200=
201805200952 METAR KATL 200952Z 00000KT 10SM SCT250 21/20 A3010 RMK AO2 SLP184 T02060200=
201805200852 METAR KATL 200852Z 15003KT 9SM SCT200 BKN250 21/21 A3009 RMK AO2 SLP181 T02110206 55005=
201805200752 METAR KATL 200752Z 18003KT 10SM FEW200 BKN250 22/21 A3008 RMK AO2 SLP176 T02170206=
201805200652 METAR KATL 200652Z 00000KT 10SM FEW050 FEW200 BKN250 22/21 A3010 RMK AO2 SLP183 T02170206=
201805200552 METAR KATL 200552Z 15003KT 10SM FEW200 BKN250 22/21 A3011 RMK AO2 SLP186 T02220206 10283 20222 53003=
201805200452 METAR KATL 200452Z 14004KT 10SM FEW200 BKN250 23/21 A3010 RMK AO2 SLP183 T02330211 403000211=
201805200352 METAR KATL 200352Z 21003KT 10SM SCT200 BKN250 24/21 A3010 RMK AO2 SLP184 T02390211=
201805200252 METAR KATL 200252Z 13003KT 10SM FEW100 SCT200 BKN250 25/21 A3010 RMK AO2 SLP184 T02500206 53020=
201805200152 METAR KATL 200152Z 18003KT 10SM FEW038 SCT100 SCT200 BKN250 25/21 A3007 RMK AO2 SLP174 T02500211=
201805200052 METAR KATL 200052Z 19004KT 10SM FEW042CB SCT100 SCT200 BKN250 27/21 A3006 RMK AO2 LTG DSNT NE SLP171 CB SE MOV SE CB DSNT NE SHRA SE T02720206=
201805192352 METAR KATL 192352Z 21005KT 10SM FEW044TCU SCT075 SCT200 BKN250 28/20 A3004 RMK AO2 SLP162 CB DSNT NE & SE TCU N-NE & E T02830200 10300 20272 53009=
201805192252 METAR KATL 192252Z 21004KT 10SM FEW044 SCT075 SCT200 BKN250 28/19 A3001 RMK AO2 SLP154 MDT CU N-E T02830194=
201805192152 METAR KATL 192152Z 22008KT 10SM FEW044 FEW075 SCT200 BKN250 28/20 A3001 RMK AO2 SLP152 CB DSNT SE TCU DSNT E & SE T02830200=
201805192052 METAR KATL 192052Z VRB05KT 10SM SCT046TCU SCT075 BKN250 29/20 A3001 RMK AO2 SLP152 TCU N & DSNT NW MDT CU OHD & DSNT E-SE T02890200 56015=
201805191952 METAR KATL 191952Z 22007KT 10SM SCT032 SCT040 29/19 A3002 RMK AO2 SLP156 TCU DSNT NW MDT CU SE-SW T02890194=
201805191852 METAR KATL 191852Z 26006KT 10SM SCT032 SCT040 29/21 A3004 RMK AO2 SLP161 TCU DSNT NW MDT CU SE-SW T02890211=
201805191752 METAR KATL 191752Z 20007KT 160V230 10SM SCT025TCU SCT032 SCT070 27/21 A3005 RMK AO2 RAB15E31 SLP168 TCU ALQDS P0000 60000 T02720211 10278 20217 58007=
201805191652 METAR KATL 191652Z VRB04KT 10SM SCT018 BKN030 BKN037 28/21 A3007 RMK AO2 SLP171 T02780211=
201805191552 METAR KATL 191552Z VRB05KT 10SM SCT019TCU BKN030 BKN037 26/22 A3008 RMK AO2 SLP175 TCU SE MDT CU E & NW SHRA NE & SE & SW T02560217=
201805191546 SPECI KATL 191546Z 21006KT 10SM SCT017 BKN030 BKN037 25/21 A3008 RMK AO2 SHRA NE & SE & SW=
201805191452 METAR KATL 191452Z 20005KT 10SM BKN015 BKN022 BKN035 24/21 A3008 RMK AO2 SLP177 BKN015 V SCT T02390211 51007=
201805191404 SPECI KATL 191404Z 19006KT 10SM OVC015 23/21 A3008 RMK AO2 T02280206=
201805191352 METAR KATL 191352Z 19005KT 10SM BKN014 OVC025 23/21 A3007 RMK AO2 SLP175 CIG 012V016 T02280206=
201805191252 METAR KATL 191252Z 20005KT 10SM OVC012 22/21 A3007 RMK AO2 SLP172 CIG 011V015 BINOVC T02220206=
201805191228 SPECI KATL 191228Z 19005KT 8SM FEW009 BKN012 BKN085 22/21 A3006 RMK AO2 CIG 010V014 T02220206=
201805191152 METAR KATL 191152Z 19009KT 6SM BR BKN008 OVC013 22/21 A3005 RMK AO2 SLP168 CIG 007V010 BINOVC T02170206 10217 20211 53017=
201805191052 METAR KATL 191052Z 17009KT 7SM OVC008 22/21 A3003 RMK AO2 SLP159 CIG 007V010 T02170206=
201805191021 SPECI KATL 191021Z 15007KT 9SM OVC009 22/21 A3002 RMK AO2 T02170206=
201805190952 METAR KATL 190952Z 16007KT 10SM FEW005 BKN011 OVC110 22/21 A3001 RMK AO2 SLP153 T02170206=
201805190922 SPECI KATL 190922Z 17006KT 10SM FEW007 BKN014 BKN110 21/21 A3001 RMK AO2 T02110206=
201805190908 SPECI KATL 190908Z 17006KT 10SM FEW007 BKN015 BKN080 21/21 A3001 RMK AO2 T02110206=
201805190852 METAR KATL 190852Z 17005KT 10SM FEW007 FEW015 BKN100 BKN130 21/21 A3000 RMK AO2 SLP150 T02110206 53004=
201805190831 SPECI KATL 190831Z 16006KT 10SM FEW007 SCT027 BKN100 21/21 A3000 RMK AO2 T02110206=
201805190807 SPECI KATL 190807Z 16008KT 10SM FEW008 BKN022 BKN100 22/21 A2999 RMK AO2 CIG 018V025 T02170211=
201805190752 METAR KATL 190752Z 15007KT 10SM FEW008 SCT020 BKN110 22/21 A2998 RMK AO2 SLP143 T02170211=
201805190718 SPECI KATL 190718Z 16007KT 8SM SCT008 BKN095 BKN120 22/21 A2998 RMK AO2 T02170211=
201805190652 METAR KATL 190652Z 17008KT 8SM BKN008 BKN012 BKN085 22/21 A2998 RMK AO2 SLP144 T02170211=
201805190552 METAR KATL 190552Z 16006KT 8SM BKN007 BKN011 OVC085 22/21 A2999 RMK AO2 SLP146 BKN007 V SCT T02170211 10256 20211 51006=
201805190534 SPECI KATL 190534Z 13005KT 8SM BKN008 BKN090 BKN250 22/21 A2999 RMK AO2 BKN008 V SCT T02170206=
201805190452 METAR KATL 190452Z 15009KT 10SM FEW007 BKN090 BKN250 22/21 A2999 RMK AO2 SLP145 T02170206 402830189=
201805190402 SPECI KATL 190402Z 15009KT 10SM SCT008 BKN080 BKN250 21/21 A2999 RMK AO2 CB DSNT SW-NW T02110206=
201805190352 METAR KATL 190352Z 14009KT 10SM BKN008 BKN080 BKN250 21/21 A2999 RMK AO2 LTG DSNT W SLP145 CB DSNT SW-NW T02110206=
201805190316 SPECI KATL 190316Z 13007KT 10SM BKN010 BKN250 22/21 A2998 RMK AO2 T02170206=
201805190252 METAR KATL 190252Z 14008KT 10SM FEW015 FEW050 SCT250 22/21 A2997 RMK AO2 SLP141 T02170206 53021=
201805190152 METAR KATL 190152Z 13006KT 10SM FEW100 FEW250 24/20 A2994 RMK AO2 SLP132 T02390200=
201805190052 METAR KATL 190052Z 14006KT 10SM SCT110 SCT250 24/19 A2992 RMK AO2 SLP125 T02390194=
201805182352 METAR KATL 182352Z 17008KT 10SM FEW025 FEW250 26/19 A2991 RMK AO2 SLP118 TCU DSNT SW T02560194 10283 20256 53000=
201805182252 METAR KATL 182252Z 14010G17KT 10SM FEW025 SCT250 26/20 A2989 RMK AO2 SLP114 T02610200=
201805182152 METAR KATL 182152Z 17007KT 130V190 10SM FEW025 SCT200 BKN250 27/21 A2989 RMK AO2 SLP114 CB DSNT NW T02670211=
201805182052 METAR KATL 182052Z 16013G17KT 10SM SCT032TCU SCT050 BKN200 26/20 A2991 RMK AO2 SLP118 TCU SW-NW T02610200 55013=
201805181952 METAR KATL 181952Z 17008KT 10SM FEW032 SCT045 BKN250 26/20 A2990 RMK AO2 SLP118 MDT CU SW-NW T02610200=
201805181852 METAR KATL 181852Z 16007KT 10SM SCT030TCU BKN042 BKN250 27/20 A2993 RMK AO2 SLP126 TCU ALQDS T02670200=
201805181752 METAR KATL 181752Z 18009KT 10SM SCT024 SCT041 BKN050 BKN250 26/21 A2994 RMK AO2 SLP131 MDT CU ALQDS T02560206 10261 20189 56007=
201805181652 METAR KATL 181652Z 17007KT 10SM FEW020TCU BKN030 BKN250 26/21 A2995 RMK AO2 SLP132 TCU E-SE-S MDT CU SW-NW T02560211=
201805181552 METAR KATL 181552Z VRB06KT 10SM FEW017 SCT030 SCT250 25/21 A2996 RMK AO2 SLP137 T02500206=
201805181519 SPECI KATL 181519Z 15004KT 10SM FEW015 SCT030 SCT250 23/21 A2996 RMK AO2 T02330206=
201805181452 METAR KATL 181452Z VRB03KT 10SM FEW012 BKN017 BKN030 23/20 A2996 RMK AO2 SLP138 T02280200 51009=
201805181437 SPECI KATL 181437Z 16005KT 9SM SCT008 SCT012 SCT030 22/20 A2996 RMK AO2 T02220200=
201805181434 SPECI KATL 181434Z 17004KT 2SM FEW008 SCT012 BKN030 22/20 A2996 RMK AO2 SFC VIS 10 T02220200=
201805181352 METAR KATL 181352Z VRB03KT 2SM BR BKN006 BKN010 BKN030 21/20 A2996 RMK AO2 SFC VIS 6 SLP138 T02060200=
201805181301 SPECI KATL 181301Z 18004KT 1 1/4SM BR OVC005 20/20 A2995 RMK AO2 SFC VIS 6 T02000200=
201805181252 METAR KATL 181252Z 20003KT 1SM R09R/P6000FT BR OVC005 19/19 A2995 RMK AO2 SFC VIS 6 SLP135 CIG 003V007 T01940194=
201805181152 METAR KATL 181152Z 17004KT 1/2SM R09R/4000VP6000FT BR OVC002 19/19 A2994 RMK AO2 SFC VIS 2 SLP130 VIS SW-W 1 CIG 001V003 70012 T01890189 10194 20189 53015=
201805181052 METAR KATL 181052Z 18006KT 1/2SM R09R/P6000FT BR OVC003 19/19 A2992 RMK AO2 SFC VIS 3 SLP122 CIG 002V004 T01890189=
201805181019 SPECI KATL 181019Z 12003KT 1/2SM R09R/2800VP6000FT BR OVC002 19/19 A2991 RMK AO2 SFC VIS 3/4 T01890189=
201805180959 SPECI KATL 180959Z 15006KT 1SM R09R/P6000FT BKN003 BKN008 BKN070 BKN250 19/19 A2991 RMK AO2 SFC VIS 7 CIG 002V005 T01890189=
201805180952 METAR KATL 180952Z 13004KT 8SM SCT003 BKN008 BKN065 BKN250 19/19 A2990 RMK AO2 SLP117 CIG 006V010 T01890189=
201805180852 METAR KATL 180852Z 10003KT 10SM FEW001 FEW085 SCT140 BKN250 19/19 A2989 RMK AO2 SLP114 T01890189 53007=
201805180752 METAR KATL 180752Z 00000KT 8SM FEW001 FEW003 SCT120 BKN250 19/19 A2988 RMK AO2 SLP111 T01890189=
201805180707 SPECI KATL 180707Z 10004KT 7SM FEW001 FEW008 SCT130 BKN250 19/19 A2987 RMK AO2 T01940194=
201805180652 METAR KATL 180652Z 11003KT 6SM BR FEW001 FEW008 SCT130 BKN250 19/19 A2987 RMK AO2 SLP108 T01940194=
201805180552 METAR KATL 180552Z 00000KT 5SM BR FEW001 SCT003 BKN120 BKN250 19/19 A2987 RMK AO2 SLP107 60012 T01940194 10233 20194 50002=
201805180537 SPECI KATL 180537Z 00000KT 4SM R09R/2200VP6000FT BR BCFG SCT000 BKN003 BKN120 19/19 A2987 RMK AO2 VIS SE-SW-W 3/4 FG SCT000 T01940194=
201805180525 SPECI KATL 180525Z 00000KT 1/2SM R09R/2000V3500FT BCFG SCT000 BKN003 BKN120 19/19 A2987 RMK AO2 SFC VIS 4 VIS SE-SW-W 1 FG SCT000 T01940194=
201805180512 SPECI KATL 180512Z 00000KT 6SM R09R/1400V3000FT BCFG SCT000 BKN003 BKN120 19/19 A2987 RMK AO2 FG SCT000 VIS LWR E-S-W T01940194=
201805180502 SPECI KATL 180502Z 21003KT 8SM R09R/1600V2000FT BCFG SCT001 SCT120 20/20 A2987 RMK AO2 VIS LWR E-S-W T02000200=
201805180452 METAR KATL 180452Z 21003KT 9SM R09R/1800V2800FT BCFG FEW001 SCT120 20/20 A2988 RMK AO2 SLP109 VIS LWR E-S-W T02000200 402780200=
201805180352 METAR KATL 180352Z 16005KT 10SM FEW002 SCT110 BKN150 21/21 A2989 RMK AO2 RAE29 SLP113 P0000 T02060206=
201805180252 METAR KATL 180252Z 00000KT 9SM -RA FEW005 BKN110 OVC150 21/21 A2986 RMK AO2 SLP104 LTG DSNT E P0005 60012 T02110206 50002=
201805180152 METAR KATL 180152Z 24004KT 7SM -RA FEW005 SCT015 BKN080 OVC150 21/21 A2989 RMK AO2 SLP112 P0007 T02110211=
201805180144 SPECI KATL 180144Z 24006KT 6SM -RA BR FEW005 SCT020 BKN080 OVC150 21/21 A2988 RMK AO2 P0007 T02110211=
201805180052 METAR KATL 180052Z 28006KT 10SM -RA FEW020 SCT045 BKN090 BKN200 22/21 A2987 RMK AO2 RAB02E17B38 TSE52 SLP108 TS DSIPTD CB DSNT N P0000 T02220211=
201805172352 METAR KATL 172352Z 16006KT 10SM TS FEW025CB SCT050 BKN150 BKN250 23/20 A2986 RMK AO2 TSB25 SLP103 OCNL LTGIC NW-N TS VC NW-N MOV N CBMAM OHD-W CB VC NW-N MOV N 60000 T02330200 10278 20233 53004=
201805172326 SPECI KATL 172326Z 16009KT 10SM TS SCT035CB BKN060 BKN150 BKN250 25/19 A2986 RMK AO2 LTG DSNT E AND SW TSB25 OCNL LTGIC NW-N TS VC NW-N MOV N CB NW-N & VC SE & DSNT SW MOV N T02500194=
201805172252 METAR KATL 172252Z 18008KT 10SM SCT035TCU BKN060 BKN150 BKN250 26/19 A2985 RMK AO2 SLP098 LTG DSNT SW-W CB DSNT E-SE & SW-W TCU S-OHD-NW T02610189=
201805172152 METAR KATL 172152Z 18005KT 10SM FEW030TCU SCT060 BKN250 26/19 A2984 RMK AO2 SLP095 LTG DSNT SW-W CB DSNT SE & SW-W TCU VC SW T02610194=
201805172052 METAR KATL 172052Z 08006KT 10SM SCT030TCU BKN060 BKN250 26/20 A2985 RMK AO2 SLP097 CB DSNT W TCU N & S & W & DSNT NE-E 60000 T02610200 56021=
201805171952 METAR KATL 171952Z VRB03KT 10SM FEW030TCU BKN100 BKN250 26/20 A2987 RMK AO2 SLP105 TCU SE & NW & DSNT N-NE & DSNT SE-SW T02610200=
201805171852 METAR KATL 171852Z 12005KT 10SM FEW020TCU SCT040 SCT110 BKN250 25/21 A2989 RMK AO2 LTG DSNT NW RAB08E33 SLP111 CB DSNT NW TCU SW-NW & DSNT N & E & S P0000 T02500206=
201805171752 METAR KATL 171752Z 10005KT 10SM FEW020CB SCT030 BKN110 BKN250 24/19 A2991 RMK AO2 LTG DSNT NW SLP120 CB NW & DSNT NW MOV NE SHRA VC NE-SE-SW & VC NW T02440194 10244 20217 58005=
201805171652 METAR KATL 171652Z 07007KT 10SM FEW015 BKN030 BKN120 24/21 A2993 RMK AO2 SLP125 CB DSNT SW-NW TCU DSNT SE-SW SHRA DSNT SE-SW & SW-NW T02390206=
201805171552 METAR KATL 171552Z 07006KT 10SM SCT020 BKN030 OVC120 23/21 A2994 RMK AO2 SLP129 T02330206=
201805171452 METAR KATL 171452Z 09004KT 10SM BKN020 BKN030 OVC120 23/21 A2993 RMK AO2 SLP125 MDT CU ALQDS T02280206 51008=
201805171413 SPECI KATL 171413Z 11005KT 10SM SCT010 BKN020 OVC120 23/20 A2993 RMK AO2 T02280200=
201805171352 METAR KATL 171352Z 09005KT 10SM BKN010 BKN020 OVC110 22/21 A2992 RMK AO2 SLP123 MDT CU NE-SE-S & NW T02220206=
201805171338 SPECI KATL 171338Z 08006KT 10SM BKN010 BKN020 OVC120 22/21 A2992 RMK AO2 T02220206=
201805171252 METAR KATL 171252Z VRB04KT 3SM BKN008 BKN024 BKN120 BKN200 22/21 A2991 RMK AO2 SFC VIS 9 SLP120 CIG 006V010 T02220206=
201805171205 SPECI KATL 171205Z 09005KT 3SM BKN008 BKN014 BKN120 BKN200 22/21 A2990 RMK AO2 SFC VIS 8 CIG 006V010 T02170206=
201805171152 METAR KATL 171152Z 09004KT 3SM SCT008 SCT014 BKN120 OVC200 22/21 A2990 RMK AO2 SFC VIS 9 SLP117 60000 70047 T02170206 10217 20211 53004=
201805171136 SPECI KATL 171136Z 08004KT 3SM SCT007 BKN120 21/21 A2990 RMK AO2 SFC VIS 10 T02110206=
201805171052 METAR KATL 171052Z 10004KT 3SM BKN006 BKN014 BKN100 BKN200 21/21 A2989 RMK AO2 SFC VIS 7 SLP114 CIG 005V008 T02110211=
201805171031 SPECI KATL 171031Z 08004KT 3SM BKN008 BKN016 BKN110 BKN200 21/21 A2988 RMK AO2 SFC VIS 8 CIG 006V010 T02110206=
201805170952 METAR KATL 170952Z 00000KT 10SM BKN008 BKN028 OVC095 21/21 A2988 RMK AO2 SLP110 CIG 006V010 T02110206=
201805170935 SPECI KATL 170935Z 08003KT 10SM SCT008 BKN026 OVC100 21/21 A2988 RMK AO2 T02110206=
201805170852 METAR KATL 170852Z 00000KT 10SM BKN006 BKN026 OVC090 21/21 A2989 RMK AO2 SLP113 CIG 004V008 60000 T02110211 56007=
201805170836 SPECI KATL 170836Z 00000KT 10SM BKN006 BKN026 OVC090 21/21 A2989 RMK AO2 CIG 004V008 T02110211=
201805170752 METAR KATL 170752Z 12003KT 8SM SCT008 BKN024 BKN100 OVC200 21/21 A2989 RMK AO2 RAB28E52 SLP114 P0000 T02110211=
201805170652 METAR KATL 170652Z 00000KT 10SM BKN008 BKN013 OVC110 21/21 A2990 RMK AO2 SLP116 CIG 006V010 T02110206=
201805170629 SPECI KATL 170629Z 12003KT 10SM BKN008 BKN014 OVC110 21/21 A2990 RMK AO2 CIG 006V010 T02110211=
201805170552 METAR KATL 170552Z VRB03KT 10SM SCT006 BKN013 BKN110 OVC200 21/21 A2991 RMK AO2 SLP121 T02110211 10233 20211 50000=
201805170452 METAR KATL 170452Z 12004KT 10SM SCT007 BKN013 BKN120 OVC200 22/21 A2992 RMK AO2 SLP124 T02170211 402440206=
201805170426 SPECI KATL 170426Z 13006KT 10SM SCT007 BKN013 BKN120 OVC200 22/21 A2992 RMK AO2 T02170211=
201805170352 METAR KATL 170352Z 09004KT 10SM SCT007 BKN120 BKN200 22/21 A2992 RMK AO2 SLP123 T02170211=
201805170334 SPECI KATL 170334Z 10006KT 10SM FEW007 BKN120 BKN200 22/21 A2992 RMK AO2 T02170211=
201805170252 METAR KATL 170252Z 13004KT 10SM BKN120 OVC200 22/21 A2991 RMK AO2 SLP119 T02170206 50005=
201805170152 METAR KATL 170152Z 10004KT 10SM FEW010 BKN120 BKN200 22/21 A2992 RMK AO2 SLP124 T02220211=
201805170052 METAR KATL 170052Z 09006KT 10SM FEW015 SCT120 BKN150 BKN200 22/21 A2990 RMK AO2 SLP118 T02220211=
201805162352 METAR KATL 162352Z 14005KT 10SM SCT017 BKN120 BKN150 BKN200 23/21 A2989 RMK AO2 SLP114 T02280211 10244 20222 55005=
201805162252 METAR KATL 162252Z 11006KT 10SM SCT015 BKN120 BKN150 BKN200 24/21 A2989 RMK AO2 SLP113 T02390211=
201805162152 METAR KATL 162152Z 09007KT 10SM FEW015 SCT120 BKN150 BKN200 24/21 A2989 RMK AO2 SLP114 T02390206=
201805162052 METAR KATL 162052Z 10007KT 10SM SCT017TCU BKN025 BKN120 BKN250 24/21 A2991 RMK AO2 SLP119 TCU S-SW-W-NW MDT CU E-SE T02440211 56013=
201805161952 METAR KATL 161952Z 15007KT 10SM BKN015 BKN025 BKN110 BKN250 23/22 A2991 RMK AO2 SLP119 MDT CU ALQDS T02330217=
201805161913 SPECI KATL 161913Z VRB05KT 10SM SCT015 BKN025 BKN110 BKN250 23/21 A2991 RMK AO2 T02330206=
201805161852 METAR KATL 161852Z 11003KT 10SM FEW015TCU SCT040 SCT070 OVC150 23/21 A2992 RMK AO2 SLP124 TCU N-NE & NW BINOVC NW T02330206=
201805161752 METAR KATL 161752Z 23003KT 10SM FEW010TCU BKN040 OVC070 22/21 A2995 RMK AO2 RAE52 SLP133 TCU N-NE-E BINOVC N P0001 60047 T02220206 10228 20206 58003=
201805161652 METAR KATL 161652Z 26005KT 9SM -RA FEW010 BKN030 OVC050 22/22 A2995 RMK AO2 LTG DSNT NE AND E SLP135 CB DSNT NE-SE P0015 T02220217=
201805161649 SPECI KATL 161649Z 27006KT 8SM -RA FEW006 BKN030 OVC050 22/22 A2995 RMK AO2 LTG DSNT NE AND E CB DSNT NE-SE P0015=
201805161620 SPECI KATL 161620Z 00000KT 2 1/2SM -RA BR FEW010 BKN030 OVC050 22/21 A2996 RMK AO2 SFC VIS 4 P0011 T02170211=
201805161552 METAR KATL 161552Z 27004KT 1SM R09R/5000VP6000FT RA BR FEW010CB BKN030 OVC040 21/21 A2996 RMK AO2 SFC VIS 3 SLP138 CB E-SE MOV NE P0022 T02110211=
201805161542 SPECI KATL 161542Z 00000KT 1SM R09R/5000VP6000FT +RA BR FEW010CB BKN025 OVC040 21/21 A2996 RMK AO2 SFC VIS 1 1/2 VIS 3/4V5 CB OHD-E MOV NE P0015 T02110206=
201805161535 SPECI KATL 161535Z 00000KT 1SM R09R/4000VP6000FT +RA BR SCT008CB BKN017 OVC025 21/20 A2996 RMK AO2 SFC VIS 2 CB OHD-S MOV NE P0012 T02060200=
201805161533 SPECI KATL 161533Z 00000KT 2SM R09R/4000VP6000FT +RA BR SCT008CB BKN017 OVC025 21/20 A2996 RMK AO2 TWR VIS 2 1/2 CB OHD-S MOV NE P0011 T02060200=
201805161526 SPECI KATL 161526Z VRB04KT 2SM -RA BR FEW008 BKN017 OVC030 21/21 A2996 RMK AO2 TWR VIS 2 1/2 P0001 T02110211=
201805161454 SPECI KATL 161454Z 33007KT 9SM -RA BKN010 BKN030 OVC100 22/21 A2996 RMK AO2 P0000 T02170211=
201805161452 METAR KATL 161452Z 29005KT 8SM -RA SCT010 BKN030 OVC100 22/21 A2996 RMK AO2 RAE04B38 SLP137 VIS LWR E & SW-NW SHRA P0001 60009 T02220211 51007=
201805161409 SPECI KATL 161409Z 22005KT 10SM SCT008 BKN014 OVC050 22/21 A2996 RMK AO2 RAE04 P0000 T02170211=
201805161352 METAR KATL 161352Z 17004KT 7SM -RA BKN008 BKN015 OVC050 22/21 A2995 RMK AO2 SLP135 P0001 T02170211=
201805161341 SPECI KATL 161341Z 18004KT 10SM -RA BKN008 OVC045 22/21 A2995 RMK AO2 P0001 T02170211=
201805161252 METAR KATL 161252Z 19004KT 7SM -RA SCT007 BKN050 OVC090 21/21 A2995 RMK AO2 SLP133 SCT007 V BKN P0007 T02110211=
201805161207 SPECI KATL 161207Z 23005KT 6SM -RA BR SCT006 SCT019 OVC070 21/21 A2994 RMK AO2 VIS LWR N-NE P0000 T02110206=
201805161152 METAR KATL 161152Z 21007KT 5SM -RA BR BKN006 BKN019 OVC065 21/21 A2994 RMK AO2 RAB05 SLP129 VIS NE 2 1/2SM P0003 60006 70062 T02110211 10211 20211 53008=
201805161122 SPECI KATL 161122Z 00000KT 4SM -RA BR BKN006 BKN013 OVC032 21/21 A2993 RMK AO2 RAB05 P0002 T02110211=
201805161113 SPECI KATL 161113Z 00000KT 2 1/2SM -RA BR SCT006 BKN013 OVC032 21/21 A2993 RMK AO2 RAB05 P0002 T02110211=
201805161052 METAR KATL 161052Z 20003KT 6SM BR BKN005 BKN013 OVC075 21/21 A2992 RMK AO2 RAE13 SLP123 CIG 004V007 BKN005 V SCT P0000 T02110211=
201805161043 SPECI KATL 161043Z 20004KT 6SM BR BKN005 BKN024 OVC075 21/21 A2992 RMK AO2 RAE13 CIG 004V007 BKN005 V SCT P0000 T02110211=
201805161032 SPECI KATL 161032Z 21004KT 6SM BR SCT004 BKN045 OVC075 21/21 A2992 RMK AO2 RAE13 SCT004 V BKN P0000 T02110211=
201805161017 SPECI KATL 161017Z 18004KT 6SM BR SCT004 BKN007 OVC070 21/21 A2992 RMK AO2 RAE13 CIG 005V009 P0000 T02110211=
201805160952 METAR KATL 160952Z 19005KT 6SM -RA BR FEW004 BKN011 OVC065 21/21 A2991 RMK AO2 RAB19 SLP120 P0003 T02110211=
201805160852 METAR KATL 160852Z 18005KT 6SM BR BKN005 BKN018 OVC085 21/21 A2991 RMK AO2 SLP119 CIG 004V007 60000 T02110211 55008=
201805160822 SPECI KATL 160822Z 16004KT 6SM BR SCT005 BKN019 OVC085 21/21 A2990 RMK AO2 T02110211=
201805160817 SPECI KATL 160817Z 16004KT 6SM BR SCT004 BKN009 BKN085 OVC140 21/21 A2990 RMK AO2 T02110211=
201805160752 METAR KATL 160752Z 16003KT 6SM BR SCT005 BKN011 OVC014 21/21 A2990 RMK AO2 RAE0656 SLP117 P0000 T02110211=
201805160652 METAR KATL 160652Z 09004KT 6SM -RA BR BKN005 OVC009 21/21 A2991 RMK AO2 RAB0556 SLP121 CIG 003V007 P0000 T02110211=
201805160605 SPECI KATL 160605Z 08006KT 6SM -RA BR BKN005 BKN085 OVC130 21/21 A2993 RMK AO2 RAB0556 CIG 003V008 P0000 T02110211=
201805160552 METAR KATL 160552Z 08005KT 6SM BR BKN004 OVC009 21/21 A2994 RMK AO2 SLP128 CIG 003V006 60056 T02110211 10244 20206 56010=
201805160531 SPECI KATL 160531Z 09007KT 7SM BKN005 BKN085 OVC110 21/21 A2993 RMK AO2 CIG 004V007 BKN005 V SCT T02110211=
201805160506 SPECI KATL 160506Z 09007KT 10SM FEW005 SCT012 BKN080 OVC150 21/21 A2993 RMK AO2 T02060206=
201805160452 METAR KATL 160452Z 10006KT 10SM SCT005 BKN012 OVC070 21/21 A2994 RMK AO2 RAE50 SLP129 P0004 T02110211 402560206=
201805160352 METAR KATL 160352Z 10006KT 7SM -RA SCT006 BKN060 OVC110 21/21 A2995 RMK AO2 SLP135 P0035 T02060206=
201805160315 SPECI KATL 160315Z 07008KT 6SM -RA BR FEW008 SCT030 BKN060 OVC150 21/21 A2996 RMK AO2 P0028 T02110206=
201805160300 SPECI KATL 160300Z 08010KT 5SM R09R/5500VP6000FT RA BR FEW010CB BKN025 OVC100 21/21 A2997 RMK AO2 CB S-SW MOV SW P0020 T02110206=
201805160252 METAR KATL 160252Z 07008KT 3SM R09R/4500VP6000FT +RA BR SCT012CB BKN025 OVC100 21/21 A2997 RMK AO2 RAB22 SLP140 VIS LWR S-W CB OHD-SW MOV SW P0016 60017 T02110211 52010=
201805160240 SPECI KATL 160240Z 06006KT 2 1/2SM +RA BR SCT012CB BKN025 OVC100 22/21 A2997 RMK AO2 RAB22 CB OHD-E MOV SW P0000 T02220211=
201805160152 METAR KATL 160152Z 08007KT 10SM SCT025 BKN055 BKN100 OVC200 23/20 A2996 RMK AO2 RAB01E35 SLP135 CB DSNT NE P0001 T02330200=
201805160052 METAR KATL 160052Z 09008KT 10SM FEW025 BKN050 BKN100 OVC200 24/19 A2995 RMK AO2 SLP133 VCSH SE-S T02390194=
201805152352 METAR KATL 152352Z 09009KT 10SM FEW025TCU SCT040 BKN060 OVC200 24/19 A2994 RMK AO2 SLP128 VCSH SE TCU VC SE 60000 T02440194 10256 20228 55004=
201805152252 METAR KATL 152252Z 09009KT 10SM FEW025 BKN040 BKN100 OVC200 25/19 A2994 RMK AO2 SLP128 TCU DSNT SW-W & NW T02500189=
201805152152 METAR KATL 152152Z 08006KT 10SM SCT025 BKN110 BKN200 25/20 A2993 RMK AO2 SLP127 T02500200=
201805152052 METAR KATL 152052Z 08012KT 10SM FEW025 SCT090 BKN250 26/19 A2995 RMK AO2 SLP132 60000 T02560194 58022=
201805151952 METAR KATL 151952Z 10009KT 10SM FEW015 SCT030 BKN090 BKN250 24/19 A2997 RMK AO2 RAE26 SLP138 P0000 T02390194=
201805151852 METAR KATL 151852Z 11008KT 10SM -RA FEW010 SCT030 OVC080 23/21 A3000 RMK AO2 RAB33 SLP151 VIS LWR SE-SW SHRA P0000 T02280206=
201805151833 SPECI KATL 151833Z 11015G23KT 8SM -RA BKN027 BKN040 OVC100 25/19 A3001 RMK AO2 RAB33 P0000 T02500194=
201805151752 METAR KATL 151752Z 07010G15KT 10SM BKN025 BKN050 OVC110 26/19 A3001 RMK AO2 RAE10 SLP154 P0000 60000 T02560194 10256 20211 58006=
201805151710 SPECI KATL 151710Z 04009KT 10SM BKN020 BKN080 OVC100 24/21 A3003 RMK AO2 RAE10 P0000 T02440206=
201805151652 METAR KATL 151652Z 04006KT 10SM -RA SCT020 BKN080 OVC100 24/20 A3004 RMK AO2 RAB41 SLP163 P0000 T02390200=
201805151552 METAR KATL 151552Z 09006KT 10SM FEW020 SCT050 BKN110 OVC150 24/19 A3005 RMK AO2 SLP166 T02390194=
201805151452 METAR KATL 151452Z 10004KT 9SM FEW017 SCT050 BKN100 BKN250 24/20 A3003 RMK AO2 SLP160 60000 T02390200 58000=
201805151402 SPECI KATL 151402Z 08007KT 10SM BKN012 BKN050 BKN100 BKN250 23/21 A3003 RMK AO2 T02280206=
201805151352 METAR KATL 151352Z 10006KT 10SM BKN008 BKN050 BKN100 BKN250 23/21 A3003 RMK AO2 RAE23 SLP159 P0000 T02280206=
201805151315 SPECI KATL 151315Z 08007KT 10SM -RA FEW008 SCT050 OVC100 22/21 A3004 RMK AO2 P0000 T02170211=
201805151252 METAR KATL 151252Z 09006KT 10SM -RA FEW020 SCT065 BKN100 BKN130 21/21 A3005 RMK AO2 RAB12 SLP165 P0000 T02110206=
201805151152 METAR KATL 151152Z 08006KT 9SM FEW009 BKN130 BKN180 OVC250 22/20 A3003 RMK AO2 SLP160 VIRGA OHD-N-E-S T02170200 10239 20211 51005=
201805151149 SPECI KATL 151149Z 10005KT 10SM FEW009 BKN130 BKN180 OVC250 22/20 A3003 RMK AO2 VIRGA OHD-N-E-S=
201805151052 METAR KATL 151052Z 11005KT 10SM FEW025 SCT150 BKN180 OVC250 21/19 A3003 RMK AO2 SLP159 T02110194=
201805150952 METAR KATL 150952Z 12004KT 10SM FEW025 BKN180 OVC220 22/19 A3002 RMK AO2 SLP154 T02170189=
201805150852 METAR KATL 150852Z 13003KT 10SM FEW025 BKN180 OVC220 22/19 A3002 RMK AO2 SLP153 VIRGA W-N T02220189 53000=
201805150752 METAR KATL 150752Z 14004KT 10SM FEW150 BKN180 BKN220 22/18 A3001 RMK AO2 SLP151 T02220183=
201805150652 METAR KATL 150652Z 15004KT 10SM FEW150 SCT200 BKN250 23/18 A3001 RMK AO2 SLP151 T02280178=
201805150552 METAR KATL 150552Z 14005KT 10SM FEW120 FEW150 BKN200 24/18 A3002 RMK AO2 SLP153 T02390178 10289 20239 51006=
201805150452 METAR KATL 150452Z 15004KT 10SM BKN150 OVC200 24/18 A3002 RMK AO2 SLP152 T02440183 403280206=
201805150352 METAR KATL 150352Z 14004KT 10SM BKN150 OVC200 25/19 A3002 RMK AO2 SLP153 T02500189=
201805150252 METAR KATL 150252Z 15007KT 10SM OVC200 26/19 A3000 RMK AO2 SLP146 T02560189 53004=
201805150152 METAR KATL 150152Z 16009KT 10SM BKN180 OVC250 27/19 A2999 RMK AO2 SLP145 T02670189=
201805150052 METAR KATL 150052Z 18006KT 10SM BKN180 OVC250 28/19 A2999 RMK AO2 SLP145 T02780194=
201805142352 METAR KATL 142352Z 15006KT 10SM FEW070 BKN200 OVC250 29/18 A2999 RMK AO2 SLP143 T02890183 10328 20289 55000=
201805142252 METAR KATL 142252Z 16007KT 10SM FEW070 BKN200 OVC250 30/17 A2998 RMK AO2 SLP140 T03000172=
201805142152 METAR KATL 142152Z 16008KT 10SM FEW070 BKN200 OVC250 31/18 A2998 RMK AO2 SLP140 T03060178=
201805142052 METAR KATL 142052Z 16007KT 10SM FEW060 BKN180 OVC250 32/17 A2999 RMK AO2 SLP143 T03170167 56018=
201805141952 METAR KATL 141952Z 00000KT 10SM FEW065 BKN200 BKN250 32/16 A3000 RMK AO2 SLP146 T03220161=
201805141852 METAR KATL 141852Z 08007KT 10SM FEW070 SCT200 BKN250 32/16 A3002 RMK AO2 SLP153 MDT CU OHD-E-SE-S T03220156=
201805141752 METAR KATL 141752Z 12006KT 10SM SCT065 SCT250 31/17 A3004 RMK AO2 SLP160 T03060167 10322 20233 58008=
201805141652 METAR KATL 141652Z VRB05KT 10SM FEW055 FEW250 32/17 A3005 RMK AO2 SLP165 T03170167=
201805141552 METAR KATL 141552Z 36007G15KT 10SM FEW050 FEW250 31/18 A3007 RMK AO2 SLP169 T03060178=
201805141452 METAR KATL 141452Z 01005KT 10SM FEW250 29/18 A3007 RMK AO2 SLP169 T02940183 50005=
201805141352 METAR KATL 141352Z 32005KT 10SM FEW250 27/18 A3007 RMK AO2 SLP170 T02720178=
201805141252 METAR KATL 141252Z 30005KT 10SM FEW200 BKN250 26/18 A3007 RMK AO2 SLP170 T02560183=
201805141152 METAR KATL 141152Z 23004KT 10SM FEW200 BKN250 23/17 A3005 RMK AO2 SLP165 T02330167 10256 20206 53009=
201805141052 METAR KATL 141052Z 22003KT 10SM FEW200 BKN250 22/17 A3004 RMK AO2 SLP160 T02220167=
201805140952 METAR KATL 140952Z 00000KT 10SM FEW200 BKN250 22/17 A3003 RMK AO2 SLP158 T02220167=
201805140852 METAR KATL 140852Z 00000KT 10SM FEW200 BKN250 22/18 A3002 RMK AO2 SLP156 T02170178 56014=
201805140752 METAR KATL 140752Z 31003KT 10SM FEW200 BKN250 23/17 A3003 RMK AO2 SLP158 T02280172=
201805140652 METAR KATL 140652Z 29003KT 10SM FEW200 BKN250 23/17 A3005 RMK AO2 SLP163 T02330167=
201805140552 METAR KATL 140552Z 34007KT 10SM FEW200 SCT250 26/16 A3007 RMK AO2 SLP169 T02560161 10300 20233 58004=
201805140452 METAR KATL 140452Z 33005KT 10SM FEW200 SCT250 24/17 A3008 RMK AO2 SLP173 T02440167 403280194=
201805140352 METAR KATL 140352Z 29003KT 10SM FEW200 SCT250 25/16 A3008 RMK AO2 SLP172 T02500161=
201805140252 METAR KATL 140252Z 31003KT 10SM SCT250 26/16 A3008 RMK AO2 SLP173 T02610161 53012=
201805140152 METAR KATL 140152Z 33005KT 10SM SCT250 28/16 A3006 RMK AO2 SLP167 T02780156=
201805140052 METAR KATL 140052Z 32008KT 10SM FEW200 SCT250 28/16 A3004 RMK AO2 SLP163 T02830156=
201805132352 METAR KATL 132352Z 27006KT 10SM FEW200 SCT250 29/15 A3004 RMK AO2 SLP163 T02890150 10328 20289 55003=
201805132252 METAR KATL 132252Z 26005KT 10SM FEW200 SCT250 31/14 A3004 RMK AO2 SLP162 T03060144=
201805132152 METAR KATL 132152Z 01003KT 10SM FEW200 SCT250 32/13 A3005 RMK AO2 SLP163 T03220133=
201805132052 METAR KATL 132052Z 01010KT 10SM FEW250 33/14 A3005 RMK AO2 SLP165 T03280139 56024=
201805131952 METAR KATL 131952Z 00000KT 10SM FEW075 FEW250 32/13 A3007 RMK AO2 SLP173 T03220128=
201805131852 METAR KATL 131852Z VRB04KT 10SM FEW070 32/15 A3010 RMK AO2 SLP182 T03170150=
201805131752 METAR KATL 131752Z 30009KT 10SM FEW075 32/13 A3013 RMK AO2 SLP190 T03170128 10317 20217 58013=
201805131652 METAR KATL 131652Z 02007KT 10SM CLR 31/13 A3015 RMK AO2 SLP197 T03060133=
201805131552 METAR KATL 131552Z 33009KT 10SM CLR 31/15 A3016 RMK AO2 SLP201 T03060150=
201805131452 METAR KATL 131452Z 36007KT 10SM CLR 29/15 A3016 RMK AO2 SLP202 T02890150 51007=
201805131352 METAR KATL 131352Z 35007KT 10SM CLR 27/16 A3016 RMK AO2 SLP201 T02720156=
201805131252 METAR KATL 131252Z 30003KT 10SM CLR 24/17 A3015 RMK AO2 SLP199 T02440167=
201805131152 METAR KATL 131152Z 00000KT 10SM CLR 22/17 A3014 RMK AO2 SLP197 T02170167 10228 20194 51019=
201805131052 METAR KATL 131052Z 00000KT 10SM FEW250 20/16 A3012 RMK AO2 SLP190 T02000161=
201805130952 METAR KATL 130952Z 31004KT 10SM FEW250 20/16 A3011 RMK AO2 SLP183 T02000161=
201805130852 METAR KATL 130852Z 31004KT 10SM FEW250 20/17 A3008 RMK AO2 SLP176 T02000167 55003=
201805130752 METAR KATL 130752Z 31006KT 10SM CLR 21/16 A3007 RMK AO2 SLP173 T02110161=
201805130652 METAR KATL 130652Z 00000KT 10SM FEW250 22/16 A3007 RMK AO2 SLP172 T02220156=
201805130552 METAR KATL 130552Z 00000KT 10SM FEW070 FEW250 22/16 A3009 RMK AO2 SLP179 T02220156 10294 20222 58011=
201805130452 METAR KATL 130452Z 00000KT 10SM FEW250 23/16 A3011 RMK AO2 SLP186 T02330156 403220200=
201805130352 METAR KATL 130352Z 00000KT 10SM FEW250 25/15 A3012 RMK AO2 SLP190 T02500150=
201805130252 METAR KATL 130252Z 36006KT 10SM FEW250 28/13 A3013 RMK AO2 SLP190 T02780133 53013=
201805130152 METAR KATL 130152Z 34006KT 10SM FEW250 28/14 A3011 RMK AO2 SLP185 T02780144=
201805130052 METAR KATL 130052Z 32005KT 10SM SCT250 28/14 A3010 RMK AO2 SLP181 T02830144=
201805122352 METAR KATL 122352Z 31006KT 10SM FEW070 SCT250 29/15 A3009 RMK AO2 SLP178 T02890150 10322 20289 56005=
201805122252 METAR KATL 122252Z 28005KT 10SM FEW075 FEW200 SCT250 31/14 A3009 RMK AO2 SLP178 T03060144=
201805122152 METAR KATL 122152Z 29010KT 10SM FEW075 FEW200 SCT250 32/14 A3009 RMK AO2 SLP178 T03170139=
201805122052 METAR KATL 122052Z 26010KT 10SM FEW075 SCT250 32/16 A3010 RMK AO2 SLP182 T03170156 56019=
201805121952 METAR KATL 121952Z 31009KT 10SM SCT070 32/15 A3012 RMK AO2 SLP188 T03220150=
201805121852 METAR KATL 121852Z 23005KT 10SM SCT070 SCT250 32/15 A3013 RMK AO2 SLP193 T03170150=
201805121752 METAR KATL 121752Z 22006KT 10SM FEW065 31/15 A3016 RMK AO2 SLP202 T03060150 10317 20222 58012=
201805121652 METAR KATL 121652Z 03006KT 10SM FEW060 31/16 A3018 RMK AO2 SLP209 T03060161=
201805121552 METAR KATL 121552Z 10SM CLR 29/17 A3019 RMK AO2 SLP212 T02940167=
201805121452 METAR KATL 121452Z 33009KT 10SM SCT075 28/16 A3019 RMK AO2 SLP214 T02780161 51009=
201805121352 METAR KATL 121352Z 32010KT 10SM FEW070 27/17 A3019 RMK AO2 SLP213 T02670167=
201805121252 METAR KATL 121252Z 32004KT 10SM FEW070 25/17 A3019 RMK AO2 SLP211 T02500172=
201805121152 METAR KATL 121152Z 00000KT 10SM FEW070 22/18 A3017 RMK AO2 SLP205 T02220178 10233 20200 53015=
201805121052 METAR KATL 121052Z 00000KT 10SM FEW070 21/17 A3015 RMK AO2 SLP199 T02060167=
201805120952 METAR KATL 120952Z 00000KT 10SM FEW070 21/17 A3013 RMK AO2 SLP193 T02110167=
201805120852 METAR KATL 120852Z 00000KT 10SM FEW070 21/17 A3012 RMK AO2 SLP188 T02060167 55000=
201805120752 METAR KATL 120752Z 31003KT 9SM CLR 21/17 A3012 RMK AO2 SLP188 T02060167=
201805120652 METAR KATL 120652Z 00000KT 10SM CLR 22/16 A3011 RMK AO2 SLP185 T02220161=
201805120552 METAR KATL 120552Z 28004KT 10SM CLR 23/16 A3012 RMK AO2 SLP189 T02330161 10289 20233 58000=
201805120452 METAR KATL 120452Z 00000KT 10SM CLR 24/17 A3013 RMK AO2 SLP191 T02390172 403170167=
201805120352 METAR KATL 120352Z 24003KT 10SM CLR 24/18 A3013 RMK AO2 SLP190 T02440178=
201805120252 METAR KATL 120252Z 23003KT 10SM CLR 26/17 A3012 RMK AO2 SLP189 T02560172 53015=
201805120152 METAR KATL 120152Z 22003KT 10SM CLR 26/18 A3010 RMK AO2 SLP184 T02610178=
201805120052 METAR KATL 120052Z 00000KT 10SM CLR 28/16 A3009 RMK AO2 SLP179 T02780161=
201805112352 METAR KATL 112352Z 28005KT 10SM FEW060TCU 28/16 A3008 RMK AO2 SLP176 TCU NE T02830161 10317 20283 55001=
201805112252 METAR KATL 112252Z 21006KT 10SM FEW065TCU 30/16 A3007 RMK AO2 SLP174 TCU OHD-NE T03000161=
201805112152 METAR KATL 112152Z 25005KT 10SM FEW065 30/16 A3007 RMK AO2 SLP175 MDT CU OHD-NE T03000161=
201805112052 METAR KATL 112052Z 29008KT 10SM SCT065 31/16 A3008 RMK AO2 SLP177 MDT CU N AND SW T03110161 56017=
201805111952 METAR KATL 111952Z 22003KT 10SM SCT065 30/17 A3009 RMK AO2 SLP181 MDT CU E AND NW T03000167=
201805111852 METAR KATL 111852Z 21008KT 10SM SCT065 31/16 A3011 RMK AO2 SLP188 T03060156=
201805111752 METAR KATL 111752Z 29004KT 10SM SCT060 30/18 A3013 RMK AO2 SLP195 T03000178 10300 20194 58008=
201805111652 METAR KATL 111652Z 28005KT 10SM FEW050 29/18 A3015 RMK AO2 SLP201 T02940178=
201805111552 METAR KATL 111552Z 34006KT 10SM FEW040 FEW250 28/17 A3016 RMK AO2 SLP204 T02830172=
201805111452 METAR KATL 111452Z 30007KT 10SM FEW250 27/18 A3016 RMK AO2 SLP203 T02720183 51008=
201805111352 METAR KATL 111352Z 27004KT 10SM FEW250 25/18 A3016 RMK AO2 SLP204 T02500183=
201805111252 METAR KATL 111252Z 26006KT 10SM FEW250 22/18 A3014 RMK AO2 SLP200 T02220178=
201805111152 METAR KATL 111152Z 28004KT 10SM FEW250 19/17 A3013 RMK AO2 SLP196 70007 T01890167 10189 20167 53014=
201805111052 METAR KATL 111052Z 30003KT 10SM FEW250 17/16 A3012 RMK AO2 SLP190 T01720161=
201805110952 METAR KATL 110952Z 32004KT 10SM FEW250 17/16 A3010 RMK AO2 SLP183 T01720161=
201805110852 METAR KATL 110852Z 00000KT 10SM FEW002 FEW250 17/16 A3009 RMK AO2 SLP180 T01720161 55002=
201805110752 METAR KATL 110752Z 30005KT 10SM FEW250 18/16 A3008 RMK AO2 SLP178 T01780161=
201805110652 METAR KATL 110652Z 30005KT 10SM FEW250 18/16 A3008 RMK AO2 SLP178 T01780156=
201805110552 METAR KATL 110552Z 00000KT 10SM FEW250 18/16 A3009 RMK AO2 SLP182 60004 T01830156 10228 20178 52003=
201805110452 METAR KATL 110452Z 25005KT 10SM SCT250 18/16 A3009 RMK AO2 SLP182 T01830156 403110172=
201805110352 METAR KATL 110352Z 28004KT 10SM SCT250 18/16 A3009 RMK AO2 SLP179 T01830161=
201805110252 METAR KATL 110252Z 31005KT 10SM FEW150 SCT250 19/17 A3009 RMK AO2 SLP179 60004 T01890167 55006=
201805110152 METAR KATL 110152Z 26004KT 10SM FEW100 BKN140 BKN200 19/17 A3007 RMK AO2 RAE23 SLP175 P0000 T01890172=
201805110052 METAR KATL 110052Z 31007KT 10SM -RA FEW035 SCT080 BKN110 BKN200 20/17 A3010 RMK AO2 PK WND 35026/2359 RAB05 SLP184 P0004 T02000167=
201805102352 METAR KATL 102352Z 35020G25KT 10SM SCT060CB BKN090 BKN200 23/14 A3010 RMK AO2 PK WND 35033/2325 WSHFT 2311 RAB16E30 SLP187 LTG DSNT E CB VC SE & DSNT E & SW MOV SE P0000 60003 T02280144 10311 20228 53024=
201805102331 SPECI KATL 102331Z 35024G33KT 10SM SCT060CB BKN090 BKN200 BKN250 23/14 A3009 RMK AO2 PK WND 35033/2325 WSHFT 2311 LTG DSNT N AND NW RAB16E30 PRESRR CB NE-SE & VC SW & DSNT NW MOV SE P0000 T02330144=
201805102252 METAR KATL 102252Z 27009KT 10SM FEW060TCU SCT100 BKN250 28/15 A3004 RMK AO2 SLP163 CB DSNT N-NE & NW TCU VC W-N-NE T02830150=
201805102152 METAR KATL 102152Z 26011G16KT 10SM FEW060TCU SCT100 BKN250 29/16 A3004 RMK AO2 SLP162 TCU OHD T02940156=
201805102052 METAR KATL 102052Z 28011G20KT 10SM FEW060 SCT100 SCT250 31/15 A3003 RMK AO2 SLP159 CB DSNT SE TCU DSNT SE-SW & DSNT SW-NW 60003 T03060150 58021=
201805101952 METAR KATL 101952Z 28011KT 10SM FEW050CB SCT060TCU BKN100 BKN250 31/16 A3005 RMK AO2 RAE08 SLP166 CB E MOV SE TCU ALQDS SHRA E P0000 T03060156=
201805101852 METAR KATL 101852Z 30008KT 9SM -RA FEW045CB BKN060 BKN080 29/19 A3008 RMK AO2 RAB37 SLP178 CB OHD-SE & DSNT E & NW MOV SE SHRA SE & DSNT E & NW P0003 T02890189=
201805101837 SPECI KATL 101837Z 30011KT 9SM -RA FEW050CB BKN060TCU BKN120 29/15 A3008 RMK AO2 RAB37 VIS LWR N SHRA CB OHD-N MOV E TCU ALQDS P0000 T02890150=
201805101825 SPECI KATL 101825Z 25010G16KT 10SM BKN060TCU BKN100 BKN250 29/15 A3008 RMK AO2 TCU ALQDS SHRA NE & VC NW T02890150=
201805101752 METAR KATL 101752Z 28011KT 10SM SCT055TCU SCT100 29/16 A3009 RMK AO2 SLP180 TCU ALQDS T02890156 10306 20200 58010=
201805101652 METAR KATL 101652Z 27008G17KT 10SM FEW060TCU FEW250 30/16 A3011 RMK AO2 SLP185 TCU N MDT CU NE & SW-NW T03000156=
201805101552 METAR KATL 101552Z 27011KT 10SM FEW250 29/15 A3012 RMK AO2 SLP191 T02890150=
201805101452 METAR KATL 101452Z 28011KT 10SM FEW250 28/16 A3013 RMK AO2 SLP191 T02780156 51007=
201805101352 METAR KATL 101352Z 26006KT 10SM FEW250 26/16 A3012 RMK AO2 SLP189 T02610161=
201805101252 METAR KATL 101252Z 27005KT 10SM FEW075 FEW250 23/15 A3012 RMK AO2 SLP190 ACC DSNT NW T02330150=
201805101152 METAR KATL 101152Z 22003KT 10SM FEW250 20/16 A3010 RMK AO2 SLP185 T02000156 10211 20172 53008=
201805101052 METAR KATL 101052Z 21003KT 10SM FEW250 18/15 A3009 RMK AO2 SLP181 T01780150=
201805100952 METAR KATL 100952Z 31004KT 10SM FEW250 18/15 A3009 RMK AO2 SLP180 T01780150=
201805100852 METAR KATL 100852Z 00000KT 10SM FEW250 19/15 A3008 RMK AO2 SLP176 T01890150 55002=
201805100752 METAR KATL 100752Z 22003KT 10SM FEW250 19/15 A3007 RMK AO2 SLP174 T01940150=
201805100652 METAR KATL 100652Z 18003KT 10SM FEW200 SCT250 20/15 A3007 RMK AO2 SLP174 T02000150=
201805100552 METAR KATL 100552Z COR 19004KT 10SM SCT250 21/15 A3008 RMK AO2 SLP178 T02110150 10267 20211 50000=
201805100352 METAR KATL 100352Z 00000KT 10SM SCT250 22/15 A3009 RMK AO2 SLP181 T02220150=
201805100252 METAR KATL 100252Z 16003KT 10SM FEW250 23/15 A3008 RMK AO2 SLP178 T02330150 51010=
201805100152 METAR KATL 100152Z 15004KT 10SM FEW250 24/16 A3008 RMK AO2 SLP175 T02390156=
201805100052 METAR KATL 100052Z 00000KT 10SM FEW250 26/15 A3007 RMK AO2 SLP173 T02560150=
201805092352 METAR KATL 092352Z 14004KT 10SM FEW070 SCT250 27/14 A3005 RMK AO2 SLP169 T02670139 10294 20261 56004=
201805092252 METAR KATL 092252Z 15006KT 10SM FEW070TCU SCT100 BKN250 28/13 A3006 RMK AO2 SLP170 TCU OHD T02830133=
201805092152 METAR KATL 092152Z 19005KT 10SM SCT070TCU BKN250 28/12 A3006 RMK AO2 SLP172 TCU OHD T02780117=
201805092052 METAR KATL 092052Z VRB03KT 10SM SCT070 SCT100 29/12 A3007 RMK AO2 SLP173 MDT CU ALQDS T02890122 56017=
201805091952 METAR KATL 091952Z VRB03KT 10SM SCT060 SCT100 28/14 A3008 RMK AO2 SLP178 MDT CU ALQDS T02830139=
201805091852 METAR KATL 091852Z 31005KT 10SM SCT060TCU BKN100 BKN250 28/14 A3010 RMK AO2 SLP185 TCU OHD-E-SE-S & W T02780144=
201805091752 METAR KATL 091752Z 26004KT 10SM BKN050TCU BKN090 27/15 A3012 RMK AO2 SLP191 TCU ALQDS T02670150 10272 20178 58010=
201805091652 METAR KATL 091652Z VRB04KT 10SM FEW040 FEW070 26/17 A3014 RMK AO2 SLP198 TCU DSNT S-SW-W-NW T02560167=
201805091552 METAR KATL 091552Z 11007KT 10SM FEW070 FEW250 26/16 A3015 RMK AO2 SLP201 ACC N & E-SE-S T02560161=
201805091452 METAR KATL 091452Z 15005KT 10SM FEW070 SCT100 24/15 A3015 RMK AO2 SLP202 ACC NE-E & S-SW T02390150 50002=
201805091352 METAR KATL 091352Z VRB04KT 10SM FEW080 22/16 A3015 RMK AO2 SLP203 ACC NE-E & SW-NW T02220156=
201805091252 METAR KATL 091252Z 09006KT 10SM FEW070 FEW085 19/15 A3015 RMK AO2 SLP204 ACC NE & E & SW-W T01940150=
201805091152 METAR KATL 091152Z 09006KT 10SM FEW070 FEW085 18/14 A3014 RMK AO2 SLP202 ACC N-NE & SE-SW 70002 T01780144 10178 20167 53013=
201805091052 METAR KATL 091052Z 08004KT 10SM SCT070 SCT090 17/14 A3013 RMK AO2 SLP196 ACC OHD-ALQDS T01670144=
201805090952 METAR KATL 090952Z 09005KT 10SM FEW075 SCT100 17/14 A3011 RMK AO2 SLP191 ACC N-E-S T01720144=
201805090852 METAR KATL 090852Z 09005KT 10SM FEW070 FEW100 17/14 A3011 RMK AO2 SLP188 ACC W-NW T01720144 55004=
201805090752 METAR KATL 090752Z 10004KT 10SM FEW100 17/15 A3010 RMK AO2 SLP186 T01720150=
201805090652 METAR KATL 090652Z COR 00000KT 10SM CLR 18/15 A3011 RMK AO2 SLP187 T01780150=
201805090352 METAR KATL 090352Z 11004KT 10SM FEW100 19/13 A3012 RMK AO2 SLP193 T01940133=
201805090252 METAR KATL 090252Z 07004KT 10SM SCT095 20/16 A3012 RMK AO2 SLP192 T02000156 53009=
201805090152 METAR KATL 090152Z 00000KT 10SM FEW120 SCT250 20/15 A3010 RMK AO2 SLP188 T02000150=
201805090052 METAR KATL 090052Z 24003KT 10SM FEW035 SCT070 BKN120 BKN250 20/15 A3010 RMK AO2 SLP188 T02000150=
201805082352 METAR KATL 082352Z 11005KT 10SM FEW035 SCT080 BKN110 BKN250 21/14 A3009 RMK AO2 SLP184 60002 T02110144 10261 20200 51001=
201805082252 METAR KATL 082252Z 10008KT 10SM FEW035 BKN100 BKN200 22/15 A3009 RMK AO2 PK WND 35026/2159 WSHFT 2145 RAE49 TSE20 SLP182 P0001 T02170150=
201805082220 SPECI KATL 082220Z 04011KT 9SM -RA FEW035 SCT060 BKN090 BKN200 20/16 A3011 RMK AO2 PK WND 35026/2159 WSHFT 2145 TSE20 TS DSIPTD CB DSNT NE-SE P0001 T02000156=
201805082205 SPECI KATL 082205Z 01015G26KT 8SM -TSRA FEW035CB SCT060 BKN090 BKN200 21/14 A3011 RMK AO2 PK WND 35026/2159 WSHFT 2145 OCNL LTGIC NW-NE TS NW-NE MOV SE P0000 T02060139=
201805082152 METAR KATL 082152Z 34014G23KT 9SM -TSRA FEW035CB BKN060 BKN100 BKN200 22/16 A3011 RMK AO2 RAB48 TSB36 SLP191 OCNL LTGIC NW-N TS NW-N MOV SE P0000 T02170161=
201805082136 SPECI KATL 082136Z 09007KT 10SM TS FEW035CB SCT070 BKN100 BKN200 23/14 A3008 RMK AO2 TSB36 OCNL LTGIC W-NW TS W-NW MOV SE T02330139=
201805082052 METAR KATL 082052Z 12009KT 10SM FEW035CB SCT080 SCT200 26/15 A3009 RMK AO2 SLP181 OCNL LTG DSNT E-SE CB DSNT E-SE & NW-NE TCU VC SW-W 60001 T02560150 56012=
201805081952 METAR KATL 081952Z 09008KT 10SM FEW030CB SCT070 SCT250 24/16 A3010 RMK AO2 RAB09E29 SLP185 TS DSIPT CB N-NE-E-SE MOV SE SHRA N-NE-E-SE P0001 T02440156=
201805081947 SPECI KATL 081947Z 09008KT 10SM FEW030CB SCT070 SCT250 24/16 A3010 RMK AO2 RAB09E29 TS DSIPT CB N-NE-E-SE MOV SE SHRA N-NE-E-SE P0001=
201805081930 SPECI KATL 081930Z 15012G20KT 10SM VCTS FEW030CB SCT050TCU BKN070 24/14 A3010 RMK AO2 RAB09E29 OCNL LTGICCG VC NE & S TS VC NE & S MOV SE VIS LWR NE & S SHRA CB NE & S MOV SE TCU SW-NW P0001 T02390144=
201805081926 SPECI KATL 081926Z 15011KT 10SM VCTS -RA FEW030CB SCT050TCU BKN070 24/15 A3010 RMK AO2 RAB09 OCNL LTGICCG VC NE TS VC NE MOV SE VIS LWR NE & S SHRA CB NE & S MOV SE TCU SW-NW P0001 T02390150=
201805081909 SPECI KATL 081909Z 08006KT 10SM -RA FEW045CB SCT050TCU BKN090 25/14 A3010 RMK AO2 RAB09 VIS LWR NE-SE SHRA CB OHD-NE-SE-S MOV E TCU ALQDS P0000 T02500144=
201805081852 METAR KATL 081852Z 11007KT 10SM BKN050TCU BKN080 BKN110 25/14 A3011 RMK AO2 SLP187 TCU OHD & ALQDS T02500139=
201805081752 METAR KATL 081752Z 14008KT 10SM SCT045TCU BKN075 25/15 A3012 RMK AO2 SLP193 TCU N-NE & NW ACC S & NW T02500150 10256 20167 58013=
201805081652 METAR KATL 081652Z VRB04KT 10SM FEW035 FEW250 25/17 A3013 RMK AO2 SLP196 T02500167=
201805081552 METAR KATL 081552Z 11007KT 10SM FEW030 FEW090 23/16 A3015 RMK AO2 SLP203 T02330161=
201805081452 METAR KATL 081452Z 11009KT 10SM FEW020 FEW090 22/16 A3016 RMK AO2 SLP205 T02170161 51009=
201805081352 METAR KATL 081352Z 11008KT 10SM FEW018 SCT090 20/16 A3016 RMK AO2 SLP206 T02000156=
201805081252 METAR KATL 081252Z 09010KT 10SM FEW013 SCT095 18/14 A3015 RMK AO2 SLP201 T01780139=
201805081243 SPECI KATL 081243Z 09009KT 10SM SCT013 BKN095 18/14 A3014 RMK AO2 T01780139=
201805081152 METAR KATL 081152Z 09009KT 10SM FEW080 SCT100 17/13 A3013 RMK AO2 SLP197 T01670128 10194 20161 53018=
201805081052 METAR KATL 081052Z 08010KT 10SM FEW080 17/13 A3011 RMK AO2 SLP188 T01670128=
201805080952 METAR KATL 080952Z 08011KT 10SM FEW080 17/13 A3009 RMK AO2 SLP182 T01670128=
201805080852 METAR KATL 080852Z 06013KT 10SM FEW080 18/12 A3008 RMK AO2 SLP178 T01780122 53007=
201805080752 METAR KATL 080752Z 02006KT 10SM FEW080 19/11 A3006 RMK AO2 SLP170 T01890111=
201805080652 METAR KATL 080652Z 33005KT 10SM FEW080 18/12 A3006 RMK AO2 SLP169 T01780117=
201805080552 METAR KATL 080552Z 32007KT 10SM CLR 18/11 A3006 RMK AO2 SLP170 T01830111 10261 20183 58005=
201805080452 METAR KATL 080452Z 31004KT 10SM FEW080 20/11 A3007 RMK AO2 SLP173 T02000111 402830161=
201805080352 METAR KATL 080352Z 32007KT 10SM FEW080 SCT250 21/11 A3007 RMK AO2 SLP173 T02110106=
201805080252 METAR KATL 080252Z 34007KT 10SM FEW080 SCT250 22/11 A3007 RMK AO2 SLP174 T02220106 53014=
201805080152 METAR KATL 080152Z 31007KT 10SM FEW080 FEW250 23/10 A3006 RMK AO2 SLP170 T02280100=
201805080052 METAR KATL 080052Z 32007KT 10SM FEW080 FEW250 24/09 A3004 RMK AO2 SLP166 T02390094=
201805072352 METAR KATL 072352Z 31011KT 10SM FEW080 FEW250 26/08 A3003 RMK AO2 SLP162 T02610083 10283 20261 52004=
201805072252 METAR KATL 072252Z 33011KT 10SM FEW080 FEW250 27/05 A3002 RMK AO2 SLP159 TCU DSNT SE T02720050=
201805072152 METAR KATL 072152Z 33012G19KT 10SM FEW080 FEW250 28/07 A3002 RMK AO2 SLP159 TCU DSNT NE-SE T02830067=
201805072052 METAR KATL 072052Z 29010KT 10SM FEW080 FEW250 28/07 A3002 RMK AO2 SLP156 MDT CU DSNT NE T02780072 56014=
201805071952 METAR KATL 071952Z 33010KT 10SM FEW075 SCT250 28/08 A3003 RMK AO2 SLP161 T02780083=
201805071852 METAR KATL 071852Z 33010G18KT 10SM FEW070 FEW250 28/09 A3004 RMK AO2 SLP165 MDT CU DSNT NE T02780089=
201805071752 METAR KATL 071752Z 32016G19KT 10SM FEW070 FEW250 27/11 A3006 RMK AO2 SLP171 T02720106 10272 20172 58006=
201805071652 METAR KATL 071652Z 32011G16KT 10SM FEW060 FEW150 27/12 A3008 RMK AO2 SLP176 T02670117=
201805071552 METAR KATL 071552Z 33015G20KT 10SM FEW060 FEW150 25/12 A3009 RMK AO2 SLP180 T02500117=
201805071452 METAR KATL 071452Z 33008KT 10SM FEW150 24/13 A3008 RMK AO2 SLP177 T02390133 53005=
201805071352 METAR KATL 071352Z 34011KT 10SM FEW150 22/12 A3007 RMK AO2 SLP175 T02220122=
201805071252 METAR KATL 071252Z 32010KT 10SM FEW150 19/13 A3006 RMK AO2 SLP174 T01940133=
201805071152 METAR KATL 071152Z 31007KT 10SM FEW150 17/13 A3006 RMK AO2 SLP173 T01720128 10189 20161 53014=
201805071052 METAR KATL 071052Z 33006KT 10SM FEW150 FEW200 17/13 A3004 RMK AO2 SLP164 T01670128=
201805070952 METAR KATL 070952Z 31008KT 10SM FEW110 BKN150 17/13 A3003 RMK AO2 SLP159 T01720128=
201805070852 METAR KATL 070852Z 31005KT 10SM FEW110 BKN140 17/13 A3002 RMK AO2 SLP159 T01720128 53004=
201805070752 METAR KATL 070752Z 28003KT 10SM FEW110 BKN140 BKN250 17/12 A3001 RMK AO2 SLP154 T01720122=
201805070652 METAR KATL 070652Z 31007KT 10SM FEW110 18/12 A3000 RMK AO2 SLP152 T01780122=
201805070552 METAR KATL 070552Z 31010KT 10SM FEW110 18/12 A3001 RMK AO2 SLP155 T01830122 10244 20183 58004=
201805070452 METAR KATL 070452Z 31008KT 10SM CLR 19/12 A3002 RMK AO2 SLP157 T01890122 402670156=
201805070352 METAR KATL 070352Z 30007KT 10SM FEW250 19/12 A3002 RMK AO2 SLP159 T01940117=
201805070252 METAR KATL 070252Z 30006KT 10SM BKN250 20/12 A3002 RMK AO2 SLP160 T02000117 51018=
201805070152 METAR KATL 070152Z 30005KT 10SM BKN250 21/12 A3000 RMK AO2 SLP153 T02110117=
201805070052 METAR KATL 070052Z 31007KT 10SM BKN250 23/11 A2999 RMK AO2 SLP149 T02280106=
201805062352 METAR KATL 062352Z 33009KT 10SM FEW070 BKN250 24/10 A2997 RMK AO2 SLP141 60000 T02440100 10267 20244 53001=
201805062252 METAR KATL 062252Z 35014KT 10SM FEW070 SCT250 26/09 A2997 RMK AO2 SLP141 T02560089=
201805062152 METAR KATL 062152Z 35011G21KT 10SM FEW070 SCT250 27/09 A2996 RMK AO2 PK WND 36029/2137 SLP138 T02670094=
201805062052 METAR KATL 062052Z 35019G26KT 10SM FEW070 FEW250 26/09 A2996 RMK AO2 PK WND 36027/1957 SLP139 T02610089 58011=
201805061952 METAR KATL 061952Z 35012G23KT 10SM FEW065 FEW250 26/10 A2997 RMK AO2 PK WND 36026/1908 SLP142 T02610100=
201805061852 METAR KATL 061852Z 34018G25KT 10SM FEW065 FEW250 26/09 A2999 RMK AO2 PK WND 33028/1840 SLP148 T02560094=
201805061752 METAR KATL 061752Z 34013G26KT 10SM FEW065 FEW250 25/08 A3000 RMK AO2 PK WND 32026/1729 SLP150 T02500083 10250 20161 58007=
201805061652 METAR KATL 061652Z 35016G31KT 10SM FEW060 24/08 A3001 RMK AO2 PK WND 34031/1643 SLP157 T02390078=
201805061552 METAR KATL 061552Z 33022G28KT 10SM FEW050 23/09 A3002 RMK AO2 PK WND 35028/1552 SLP159 T02280089=
201805061452 METAR KATL 061452Z 34014G21KT 10SM FEW040 21/12 A3002 RMK AO2 SLP157 T02110117 51008=
201805061352 METAR KATL 061352Z 32015G20KT 10SM FEW020 19/13 A3002 RMK AO2 SLP158 T01890133=
201805061259 SPECI KATL 061259Z 32012KT 10SM SCT012 SCT020 17/14 A3001 RMK AO2 SCT012 V BKN T01720144=
201805061252 METAR KATL 061252Z 31013KT 10SM BKN012 17/14 A3000 RMK AO2 SLP154 BKN012 V SCT T01720144=
201805061216 SPECI KATL 061216Z 31012KT 10SM FEW006 BKN012 17/15 A2999 RMK AO2 T01670150=
201805061152 METAR KATL 061152Z 31011KT 9SM SCT006 SCT012 16/16 A2999 RMK AO2 SLP149 SCT006 V BKN T01610156 10183 20156 51007=
201805061150 SPECI KATL 061150Z 32010KT 9SM SCT006 SCT012 16/16 A2999 RMK AO2 SCT006 V BKN=
201805061106 SPECI KATL 061106Z 30008KT 6SM BR BKN007 16/16 A2999 RMK AO2 CIG 006V008 BKN007 V SCT T01610156=
201805061052 METAR KATL 061052Z 31009KT 10SM SCT008 16/16 A2998 RMK AO2 SLP147 SCT008 V BKN T01610156=
201805060952 METAR KATL 060952Z 29007KT 10SM FEW007 FEW015 16/16 A2997 RMK AO2 SLP142 T01610156=
201805060852 METAR KATL 060852Z 31007KT 10SM FEW007 17/16 A2997 RMK AO2 SLP141 T01670161 56002=
201805060752 METAR KATL 060752Z 31012KT 10SM FEW007 17/16 A2997 RMK AO2 SLP141 T01720161=
201805060652 METAR KATL 060652Z 28004KT 10SM FEW007 FEW100 17/16 A2996 RMK AO2 SLP139 T01720161=
201805060552 METAR KATL 060552Z 28003KT 10SM FEW140 18/16 A2998 RMK AO2 SLP142 T01830161 10233 20183 58008=
201805060452 METAR KATL 060452Z 29009KT 10SM FEW140 19/17 A3000 RMK AO2 SLP152 T01940172 402560189=
201805060352 METAR KATL 060352Z 28009KT 10SM BKN095 21/18 A3001 RMK AO2 SLP152 T02060178=
201805060252 METAR KATL 060252Z 23004KT 10SM BKN150 21/18 A3000 RMK AO2 SLP151 T02060183 55002=
201805060152 METAR KATL 060152Z 17003KT 10SM BKN180 22/18 A2999 RMK AO2 SLP146 T02170183=
201805060052 METAR KATL 060052Z 20004KT 10SM BKN150 23/18 A3000 RMK AO2 SLP153 T02280178=
201805052352 METAR KATL 052352Z 32004KT 10SM FEW046 SCT070 BKN140 23/18 A3001 RMK AO2 SLP154 T02330178 10256 20228 55002=
201805052252 METAR KATL 052252Z 20004KT 10SM SCT060 BKN160 24/17 A3000 RMK AO2 SLP150 T02440167=
201805052152 METAR KATL 052152Z 22005KT 10SM FEW055 SCT075 BKN160 24/16 A3000 RMK AO2 SLP152 MDT CU W T02440161=
201805052052 METAR KATL 052052Z 21006KT 10SM FEW050 FEW075 SCT160 OVC200 25/16 A3001 RMK AO2 SLP156 VIRGA OHD-ALQDS T02500161 58013=
201805051952 METAR KATL 051952Z 21007KT 10SM FEW050 FEW070 SCT160 OVC200 25/16 A3002 RMK AO2 SLP159 VIRGA OHD-ALQDS T02500156=
201805051852 METAR KATL 051852Z 21007KT 10SM FEW045 FEW065 SCT170 OVC200 26/16 A3005 RMK AO2 SLP166 MDT CU NW-NE T02560161=
201805051752 METAR KATL 051752Z 20008KT 10SM FEW040 FEW065 SCT160 OVC200 26/16 A3005 RMK AO2 SLP168 TCU DSNT NW MDT CU NW-NE T02560161 10256 20194 58008=
201805051652 METAR KATL 051652Z 22007KT 10SM FEW038 FEW070 SCT160 OVC200 25/16 A3006 RMK AO2 SLP171 ACC SW MDT CU NE T02500156=
201805051552 METAR KATL 051552Z 17007KT 10SM FEW060 SCT160 OVC200 24/17 A3008 RMK AO2 SLP175 VIRGA N-OHD-S T02440172=
201805051452 METAR KATL 051452Z 15005KT 10SM FEW034 FEW065 SCT160 OVC200 24/17 A3008 RMK AO2 SLP176 T02390172 53007=
201805051352 METAR KATL 051352Z 17005KT 10SM FEW060 SCT150 BKN200 BKN250 23/17 A3007 RMK AO2 SLP174 T02280167=
201805051252 METAR KATL 051252Z 22004KT 10SM FEW055 FEW150 BKN220 BKN250 21/16 A3006 RMK AO2 SLP171 BINOVC T02060161=
201805051152 METAR KATL 051152Z 21003KT 10SM FEW050 FEW150 BKN200 BKN250 19/16 A3006 RMK AO2 SLP170 T01940156 10211 20189 55003=
201805051052 METAR KATL 051052Z 22003KT 10SM FEW150 BKN200 BKN250 19/16 A3005 RMK AO2 SLP168 T01940156=
201805050952 METAR KATL 050952Z 00000KT 10SM FEW150 BKN200 21/15 A3004 RMK AO2 SLP163 T02060150=
201805050852 METAR KATL 050852Z 28006KT 10SM BKN200 20/16 A3007 RMK AO2 SLP172 T02000156 56007=
201805050752 METAR KATL 050752Z 28004KT 10SM CLR 20/15 A3007 RMK AO2 SLP172 T02000150=
201805050652 METAR KATL 050652Z 28007KT 10SM FEW150 BKN220 BKN250 21/15 A3008 RMK AO2 SLP176 T02060150=
201805050552 METAR KATL 050552Z 24005KT 10SM FEW150 SCT200 BKN250 21/15 A3009 RMK AO2 SLP179 T02110150 10261 20211 56008=
201805050452 METAR KATL 050452Z 22003KT 10SM BKN200 BKN250 22/16 A3009 RMK AO2 SLP182 T02170156 402830150=
201805050352 METAR KATL 050352Z 22005KT 10SM SCT200 BKN250 22/16 A3010 RMK AO2 SLP183 T02220156=
201805050252 METAR KATL 050252Z 23004KT 10SM SCT200 BKN250 23/15 A3011 RMK AO2 SLP188 T02280150 51003=
201805050152 METAR KATL 050152Z 22004KT 10SM FEW150 BKN250 24/16 A3011 RMK AO2 SLP188 T02390156=
201805050052 SPECI KATL 050052Z 22004KT 10SM FEW150 BKN250 25/15 A3010 RMK AO2 SLP187 T02500150=
201805050052 METAR KATL 050052Z 22004KT 10SM FEW150 BKN250 25/15 A3010 RMK AO2 SLP187 T02500150=
201805042352 METAR KATL 042352Z 24005KT 10SM FEW150 BKN250 26/15 A3010 RMK AO2 SLP186 T02610150 10283 20250 55005=
201805042252 METAR KATL 042252Z 25007KT 10SM FEW200 SCT250 27/14 A3010 RMK AO2 SLP186 T02720144=
201805042152 METAR KATL 042152Z 27007KT 10SM FEW055 FEW200 SCT250 28/14 A3011 RMK AO2 SLP190 T02780144=
201805042052 METAR KATL 042052Z 28010KT 10SM FEW055 FEW150 BKN250 28/15 A3012 RMK AO2 SLP190 T02830150 58016=
201805041952 METAR KATL 041952Z 30005KT 10SM FEW055 BKN250 27/15 A3013 RMK AO2 SLP196 T02720150=
201805041852 METAR KATL 041852Z 24008KT 10SM FEW050 BKN250 28/16 A3016 RMK AO2 SLP204 T02780161=
201805041752 METAR KATL 041752Z 27005KT 10SM SCT044 SCT055 26/15 A3017 RMK AO2 SLP207 T02560150 10267 20161 56018=
201805041652 METAR KATL 041652Z 26008KT 230V300 10SM SCT040 SCT250 26/17 A3018 RMK AO2 SLP214 T02560167=
201805041552 METAR KATL 041552Z 28010KT 10SM FEW030 FEW050 SCT250 24/17 A3020 RMK AO2 SLP219 T02440167=
201805041452 METAR KATL 041452Z 28005KT 10SM FEW250 23/17 A3022 RMK AO2 SLP226 T02280167 50004=
201805041352 METAR KATL 041352Z 21005KT 10SM FEW250 21/16 A3023 RMK AO2 SLP228 T02060156=
201805041252 METAR KATL 041252Z 22006KT 10SM FEW110 FEW150 SCT250 18/14 A3022 RMK AO2 SLP228 ACC NW-N & DSNT W T01780144=
201805041152 METAR KATL 041152Z 23004KT 10SM FEW150 FEW200 SCT250 16/13 A3021 RMK AO2 SLP222 T01610133 10189 20150 53022=
201805041052 METAR KATL 041052Z 19004KT 10SM FEW200 SCT250 15/12 A3017 RMK AO2 SLP210 T01500122=
201805040952 METAR KATL 040952Z 18007KT 10SM FEW250 16/12 A3015 RMK AO2 SLP202 T01560117=
201805040852 METAR KATL 040852Z 16008KT 10SM SCT250 17/11 A3014 RMK AO2 SLP198 T01670111 58021=
201805040752 METAR KATL 040752Z 19007KT 10SM FEW250 17/11 A3016 RMK AO2 SLP204 T01720111=
201805040652 METAR KATL 040652Z 20003KT 10SM FEW250 18/11 A3019 RMK AO2 SLP215 T01780111=
201805040552 METAR KATL 040552Z 20004KT 10SM SCT250 19/11 A3020 RMK AO2 SLP220 T01890111 10256 20183 58007=
201805040452 METAR KATL 040452Z 20005KT 10SM BKN250 19/11 A3022 RMK AO2 SLP226 T01940111 402830150=
201805040352 METAR KATL 040352Z 20005KT 10SM BKN250 21/12 A3022 RMK AO2 SLP227 T02060117=
201805040252 METAR KATL 040252Z 18005KT 10SM BKN250 22/12 A3022 RMK AO2 SLP227 T02170117 53012=
201805040152 METAR KATL 040152Z 16004KT 10SM BKN250 23/11 A3021 RMK AO2 SLP224 T02330106=
201805040052 METAR KATL 040052Z 17007KT 10SM BKN250 24/11 A3020 RMK AO2 SLP219 T02440106=
201805032352 METAR KATL 032352Z 17006KT 10SM BKN250 26/11 A3019 RMK AO2 SLP216 T02560111 10283 20256 56005=
201805032252 METAR KATL 032252Z 19008KT 10SM BKN250 27/10 A3019 RMK AO2 SLP217 T02720100=
201805032152 METAR KATL 032152Z 17010KT 10SM BKN250 28/11 A3020 RMK AO2 SLP219 T02780106=
201805032052 METAR KATL 032052Z 22005KT 10SM FEW200 SCT250 28/12 A3021 RMK AO2 SLP221 T02780117 58015=
201805031952 METAR KATL 031952Z 19008KT 10SM SCT250 28/12 A3022 RMK AO2 SLP227 T02780117=
201805031852 METAR KATL 031852Z 20007KT 150V250 10SM SCT250 27/13 A3024 RMK AO2 SLP233 T02720128=
201805031752 METAR KATL 031752Z VRB06KT 10SM BKN250 27/13 A3025 RMK AO2 SLP237 T02670128 10267 20167 58018=
201805031652 METAR KATL 031652Z 17008KT 110V190 10SM FEW045 BKN250 BKN300 26/14 A3028 RMK AO2 SLP246 T02560139=
201805031552 METAR KATL 031552Z 19007KT 10SM BKN250 24/15 A3030 RMK AO2 SLP251 T02440150=
201805031452 METAR KATL 031452Z 23005KT 10SM BKN250 22/16 A3031 RMK AO2 SLP255 T02220156 51008=
201805031352 METAR KATL 031352Z 22007KT 10SM BKN250 20/15 A3030 RMK AO2 SLP254 T02000150=
201805031252 METAR KATL 031252Z 19005KT 10SM SCT200 BKN250 BKN300 17/14 A3029 RMK AO2 SLP251 T01720139=
201805031152 METAR KATL 031152Z 17005KT 10SM SCT200 BKN250 BKN300 17/13 A3028 RMK AO2 SLP248 T01670133 10189 20150 53014=
201805031052 METAR KATL 031052Z 16004KT 10SM BKN250 16/13 A3025 RMK AO2 SLP238 T01560128=
201805030952 METAR KATL 030952Z 19005KT 10SM SCT250 16/12 A3024 RMK AO2 SLP233 T01560122=
201805030852 METAR KATL 030852Z 20008KT 10SM FEW250 17/12 A3024 RMK AO2 SLP233 T01670122 53002=
201805030752 METAR KATL 030752Z 17005KT 10SM FEW250 17/11 A3024 RMK AO2 SLP233 T01720106=
201805030652 METAR KATL 030652Z 21003KT 10SM CLR 18/11 A3022 RMK AO2 SLP226 T01830111=
201805030552 METAR KATL 030552Z 21003KT 10SM CLR 19/11 A3024 RMK AO2 SLP231 T01890106 10256 20189 53000=
201805030452 METAR KATL 030452Z 18005KT 10SM FEW250 20/11 A3023 RMK AO2 SLP230 T02000111 402780144=
201805030352 METAR KATL 030352Z 18007KT 10SM FEW250 21/11 A3023 RMK AO2 SLP229 T02110106=
201805030252 METAR KATL 030252Z 16006KT 10SM FEW250 22/12 A3023 RMK AO2 SLP231 T02170117 52002=
201805030152 METAR KATL 030152Z 16006KT 10SM FEW250 23/12 A3023 RMK AO2 SLP230 T02280117=
201805030052 METAR KATL 030052Z 15006KT 10SM FEW250 24/11 A3023 RMK AO2 SLP231 T02390111=
201805022352 METAR KATL 022352Z 19005KT 10SM SCT250 26/11 A3023 RMK AO2 SLP231 T02560111 10278 20256 56006=
201805022252 METAR KATL 022252Z 20004KT 10SM FEW250 27/11 A3023 RMK AO2 SLP230 T02670111=
201805022152 METAR KATL 022152Z 19006KT 10SM FEW250 27/11 A3024 RMK AO2 SLP233 T02720106=
201805022052 METAR KATL 022052Z 18007KT 10SM FEW070 FEW250 27/11 A3025 RMK AO2 SLP236 T02720111 56021=
201805021952 METAR KATL 021952Z 26005KT 10SM FEW070 FEW250 28/12 A3027 RMK AO2 SLP241 T02780122=
201805021852 METAR KATL 021852Z 10005KT 10SM FEW065 FEW250 27/11 A3029 RMK AO2 SLP250 T02720106=
201805021752 METAR KATL 021752Z 00000KT 10SM FEW060 FEW250 26/12 A3031 RMK AO2 SLP258 T02610117 10261 20156 58010=
201805021652 METAR KATL 021652Z 17005KT 10SM FEW060 FEW250 25/12 A3033 RMK AO2 SLP263 T02500117=
201805021552 METAR KATL 021552Z 16007KT 10SM SCT250 24/13 A3034 RMK AO2 SLP267 T02440128=
201805021452 METAR KATL 021452Z 14004KT 10SM BKN250 22/14 A3035 RMK AO2 SLP269 T02220144 51014=
201805021352 METAR KATL 021352Z 21005KT 10SM BKN250 19/14 A3034 RMK AO2 SLP267 T01940139=
201805021252 METAR KATL 021252Z 23006KT 10SM FEW200 SCT250 BKN300 18/14 A3033 RMK AO2 SLP264 T01780139=
201805021152 METAR KATL 021152Z 21005KT 10SM SCT250 16/12 A3030 RMK AO2 SLP256 T01560122 10178 20144 53017=
201805021052 METAR KATL 021052Z 20004KT 10SM SCT250 15/11 A3028 RMK AO2 SLP249 T01500111=
201805020952 METAR KATL 020952Z 18003KT 10SM FEW250 16/11 A3026 RMK AO2 SLP241 T01560106=
201805020852 METAR KATL 020852Z 00000KT 10SM FEW250 16/11 A3025 RMK AO2 SLP238 T01610111 55001=
201805020752 METAR KATL 020752Z 00000KT 10SM FEW250 17/11 A3024 RMK AO2 SLP235 T01720106=
201805020652 METAR KATL 020652Z 21004KT 10SM FEW250 17/12 A3025 RMK AO2 SLP236 T01720117=
201805020552 METAR KATL 020552Z 00000KT 10SM FEW250 18/12 A3025 RMK AO2 SLP238 T01780122 10244 20178 58000=
201805020452 METAR KATL 020452Z 00000KT 10SM FEW250 19/12 A3026 RMK AO2 SLP239 T01890122 402670122=
201805020352 METAR KATL 020352Z 19004KT 10SM SCT250 19/13 A3026 RMK AO2 SLP240 T01940128=
201805020252 METAR KATL 020252Z 17003KT 10SM SCT250 21/13 A3026 RMK AO2 SLP239 T02060128 51012=
201805020152 METAR KATL 020152Z 00000KT 9SM FEW070 SCT250 21/13 A3024 RMK AO2 SLP235 T02110128=
201805020052 METAR KATL 020052Z 21003KT 10SM FEW070 SCT250 23/12 A3024 RMK AO2 SLP233 T02280122=
201805012352 METAR KATL 012352Z 20006KT 10SM FEW075 SCT250 24/11 A3022 RMK AO2 SLP227 T02440111 10267 20239 55002=
201805012252 METAR KATL 012252Z 20006KT 10SM FEW070 FEW250 26/11 A3022 RMK AO2 SLP227 T02560111=
201805012152 METAR KATL 012152Z 21006KT 10SM SCT070 25/12 A3022 RMK AO2 SLP228 T02500117=
201805012052 METAR KATL 012052Z VRB03KT 10SM SCT070 26/12 A3023 RMK AO2 SLP229 T02560117 56018=
201805011952 METAR KATL 011952Z 24005KT 10SM SCT065 26/13 A3024 RMK AO2 SLP234 T02610128=
201805011852 METAR KATL 011852Z 22007KT 10SM SCT060 25/12 A3026 RMK AO2 SLP242 T02500117=
201805011752 METAR KATL 011752Z 21008KT 170V250 10SM FEW050 26/13 A3028 RMK AO2 SLP248 T02560128 10256 20139 58008=
201805011652 METAR KATL 011652Z 14003KT 10SM FEW050 24/11 A3030 RMK AO2 SLP254 T02390111=
201805011552 METAR KATL 011552Z 24006KT 10SM CLR 23/11 A3031 RMK AO2 SLP260 T02330111=
201805011452 METAR KATL 011452Z VRB06KT 10SM FEW250 22/12 A3030 RMK AO2 SLP256 T02170122 51013=
201805011352 METAR KATL 011352Z 21007KT 10SM CLR 19/11 A3030 RMK AO2 SLP255 T01890106=
201805011252 METAR KATL 011252Z 21005KT 10SM CLR 16/10 A3028 RMK AO2 SLP250 T01610100=
