##########################################################
# Query made at 04/20/2024 00:01:06 UTC
# Time interval: from 09/01/2018 12:00  to 09/30/2018 12:59  UTC
##########################################################

##########################################################
# KATL, Atlanta, Hartsfield - Jackson Atlanta International Airport (United States)
# WMO index: 72219. WIGOS ID: 0-20000-0-72219
# Latitude 33-38-59N. Longitude 084-25-00W. Altitude 312 m.
##########################################################

201809301252 METAR KATL 301252Z 10008KT 5SM BR OVC004 23/21 A3025 RMK AO2 SLP235 CIG 003V006 T02280211=
201809301152 METAR KATL 301152Z 09007KT 6SM BR OVC004 22/21 A3024 RMK AO2 SLP229 CIG 003V005 T02220206 10228 20222 51015=
201809301052 METAR KATL 301052Z 08006KT 6SM BR OVC004 22/21 A3022 RMK AO2 SLP223 CIG 003V005 T02220211=
201809300952 METAR KATL 300952Z 07006KT 6SM BR OVC004 22/21 A3021 RMK AO2 SLP218 T02220206=
201809300911 SPECI KATL 300911Z 12006KT 6SM BR OVC004 22/21 A3020 RMK AO2 T02220206=
201809300852 METAR KATL 300852Z 10004KT 7SM OVC005 22/21 A3019 RMK AO2 SLP213 CIG 004V006 T02220206 56003=
201809300839 SPECI KATL 300839Z 09006KT 7SM BKN006 OVC029 22/20 A3019 RMK AO2 T02220200=
201809300752 METAR KATL 300752Z 09005KT 10SM FEW008 BKN013 OVC035 22/21 A3019 RMK AO2 SLP213 T02220206=
201809300748 SPECI KATL 300748Z 09006KT 10SM FEW008 BKN013 OVC035 22/20 A3019 RMK AO2=
201809300652 METAR KATL 300652Z 12004KT 10SM FEW035 FEW200 23/20 A3020 RMK AO2 SLP216 T02280200=
201809300552 METAR KATL 300552Z 11003KT 10SM FEW035 FEW200 23/21 A3019 RMK AO2 SLP211 T02280206 10278 20228 58003=
201809300452 METAR KATL 300452Z 14003KT 10SM SCT035 SCT047 SCT085 SCT200 23/21 A3020 RMK AO2 SLP215 T02330206 403110211=
201809300352 METAR KATL 300352Z 22003KT 10SM SCT036TCU BKN075 BKN180 BKN250 24/21 A3020 RMK AO2 SLP217 TCU NE W MDT CU OHD-ALQDS T02390206=
201809300252 METAR KATL 300252Z 11004KT 10SM SCT032TCU SCT075 BKN180 BKN250 26/19 A3019 RMK AO2 SLP214 TCU E-S T02560189 51012=
201809300152 METAR KATL 300152Z 05007KT 10SM FEW038 SCT060 BKN180 BKN250 26/18 A3019 RMK AO2 SLP214 T02610183=
201809300052 METAR KATL 300052Z 36007KT 10SM FEW044 FEW080 SCT200 BKN250 27/19 A3017 RMK AO2 SLP208 MDT CU NE-E T02670189=
201809292352 METAR KATL 292352Z 36008KT 10SM FEW044TCU SCT080 SCT200 BKN250 28/19 A3016 RMK AO2 SLP203 OCNL LTGICCA DSNT SE-S CB DSNT SE-S TCU NE DSNT E-SE T02780189 10311 20278 53008=
201809292252 METAR KATL 292252Z 35009KT 10SM FEW044TCU SCT075 BKN200 BKN250 29/19 A3014 RMK AO2 SLP196 CB DSNT SE TCU NE SW DSNT SE MDT CU OHD T02940189=
201809292152 METAR KATL 292152Z 36007KT 10SM SCT044TCU SCT070 BKN200 BKN250 30/19 A3013 RMK AO2 SLP194 CB DSNT SE-S TCU NE-OHD-SW DSNT E-SE T03000189=
201809292052 METAR KATL 292052Z 33004KT 10SM SCT044TCU BKN250 31/19 A3013 RMK AO2 SLP193 TCU ALQDS T03060189 56014=
201809291952 METAR KATL 291952Z 31006KT 10SM SCT040TCU BKN200 31/19 A3013 RMK AO2 SLP194 TCU ALQDS T03110194=
201809291852 METAR KATL 291852Z 34003KT 10SM SCT037 BKN090 BKN250 28/19 A3015 RMK AO2 SLP199 MDT CU ALQDS T02830194=
201809291752 METAR KATL 291752Z VRB03KT 10SM BKN036 BKN050 BKN150 29/20 A3017 RMK AO2 SLP207 MDT CU ALQDS T02940200 10306 20211 58012=
201809291652 METAR KATL 291652Z 13003KT 10SM SCT033 BKN150 28/19 A3019 RMK AO2 SLP213 T02780194=
201809291552 METAR KATL 291552Z 08005KT 10SM FEW028 SCT060 SCT250 28/20 A3021 RMK AO2 SLP219 T02780200=
201809291452 METAR KATL 291452Z 02006KT 10SM FEW024 BKN060 BKN250 26/19 A3021 RMK AO2 SLP221 T02610194 51008=
201809291352 METAR KATL 291352Z 02003KT 10SM BKN065 BKN100 25/19 A3020 RMK AO2 SLP219 T02500194=
201809291252 METAR KATL 291252Z 31003KT 10SM BKN065 BKN110 BKN150 BKN250 22/21 A3020 RMK AO2 SLP218 T02220206=
201809291152 METAR KATL 291152Z 33006KT 8SM FEW001 SCT110 BKN200 BKN250 21/20 A3019 RMK AO2 SLP214 VIS LWR NW-N T02110200 10228 20211 53010=
201809291052 METAR KATL 291052Z 32003KT 10SM R09R/6000VP6000FT FEW002 SCT110 SCT250 21/20 A3018 RMK AO2 SLP210 VIS LWR NW-N T02110200=
201809290952 METAR KATL 290952Z 33004KT 3SM R09R/4500VP6000FT BR BCFG FEW002 FEW040 BKN110 BKN250 21/20 A3016 RMK AO2 SLP205 FG BANK S-W-N T02110200=
201809290938 SPECI KATL 290938Z 33004KT 3SM R09R/3000V5000FT BR BCFG FEW002 FEW040 SCT110 SCT250 21/21 A3016 RMK AO2 FG BANK S-W-N T02110206=
201809290852 METAR KATL 290852Z 33004KT 10SM FEW002 FEW040 SCT110 SCT250 22/21 A3016 RMK AO2 SLP202 VIS LWR SW-NW T02170206 58003=
201809290841 SPECI KATL 290841Z 30004KT 10SM FEW002 FEW040 SCT110 22/21 A3015 RMK AO2 T02170206=
201809290752 METAR KATL 290752Z 32003KT 10SM BKN110 22/21 A3016 RMK AO2 SLP202 T02220206=
201809290652 METAR KATL 290652Z 00000KT 10SM BKN110 BKN250 23/21 A3017 RMK AO2 SLP207 T02280206=
201809290552 METAR KATL 290552Z 00000KT 10SM FEW100 BKN120 BKN250 22/21 A3017 RMK AO2 SLP206 60000 T02220206 10250 20222 50000=
201809290452 METAR KATL 290452Z 00000KT 10SM BKN100 BKN140 BKN250 23/21 A3018 RMK AO2 SLP209 T02280206 402830217=
201809290352 METAR KATL 290352Z 00000KT 10SM BKN100 BKN140 BKN200 BKN250 23/21 A3017 RMK AO2 SLP209 T02280206=
201809290252 METAR KATL 290252Z 00000KT 10SM FEW100 BKN140 BKN200 BKN250 23/20 A3017 RMK AO2 SLP206 60000 T02280200 51010=
201809290152 METAR KATL 290152Z 00000KT 10SM FEW007 FEW028 BKN100 OVC200 23/21 A3016 RMK AO2 RAB03E20 SLP205 P0000 T02280211=
201809290052 METAR KATL 290052Z 29006KT 10SM FEW014 SCT030TCU BKN095 OVC200 24/21 A3015 RMK AO2 RAB41E51 SLP201 TCU NE-SE P0000 T02390211=
201809282352 METAR KATL 282352Z 24004KT 10SM SCT030 BKN060 BKN120 OVC200 25/21 A3014 RMK AO2 SLP196 CB DSNT SW-W TCU DSNT NE MDT CU E-OHD-W SHRA DSNT NE SW-W T02500211 10283 20250 53014=
201809282252 METAR KATL 282252Z 23005KT 10SM FEW032TCU SCT060 BKN120 BKN200 26/21 A3012 RMK AO2 LTG DSNT S-W SLP189 CB DSNT NE S-W-NW TCU NE-E DSNT NE SHRA DSNT S-W-NW T02610206=
201809282152 METAR KATL 282152Z 33005KT 10SM SCT032 BKN120 BKN200 BKN250 27/20 A3010 RMK AO2 SLP184 CB DSNT NE TCU DSNT N-NE W-NW ACC E-S T02670200=
201809282052 METAR KATL 282052Z 28005KT 10SM SCT032TCU BKN120 BKN250 28/20 A3009 RMK AO2 SLP181 TCU NW-N-NE T02780200 56011=
201809281952 METAR KATL 281952Z 22006KT 10SM FEW026TCU SCT080 BKN250 28/21 A3010 RMK AO2 SLP182 TCU SW & NW-N T02780206=
201809281852 METAR KATL 281852Z 21005KT 10SM FEW022 SCT032 BKN130 BKN250 26/21 A3011 RMK AO2 SLP189 TCU DSNT N T02610211=
201809281752 METAR KATL 281752Z 23004KT 10SM FEW020 SCT032 BKN070 BKN250 26/21 A3013 RMK AO2 SLP193 TCU DSNT N 60000 T02560206 10267 20217 58005=
201809281726 SPECI KATL 281726Z 18004KT 10SM FEW018 BKN030 BKN065 26/21 A3014 RMK AO2 TCU DSNT N T02610211=
201809281652 METAR KATL 281652Z 21005KT 10SM BKN019 BKN042 BKN250 26/21 A3015 RMK AO2 SLP199 T02560206=
201809281552 METAR KATL 281552Z 15003KT 10SM BKN015 BKN023 BKN100 26/21 A3014 RMK AO2 SLP198 T02560211=
201809281516 SPECI KATL 281516Z 22004KT 10SM BKN015 BKN020 BKN100 24/21 A3014 RMK AO2 T02440206=
201809281452 METAR KATL 281452Z 27003KT 10SM BKN014 BKN020 BKN100 25/21 A3014 RMK AO2 RAE17 SLP199 P0000 60000 T02500211 53009=
201809281428 SPECI KATL 281428Z 26003KT 10SM FEW007 BKN010 BKN100 24/21 A3014 RMK AO2 RAE17 P0000 T02390206=
201809281352 METAR KATL 281352Z 27003KT 9SM -RA BKN007 BKN010 BKN100 23/21 A3014 RMK AO2 RAB47 SLP197 P0000 T02280206=
201809281252 METAR KATL 281252Z 00000KT 10SM BKN007 BKN014 OVC120 22/21 A3012 RMK AO2 SLP192 CIG 005V009 T02220206=
201809281152 METAR KATL 281152Z 28006KT 7SM OVC007 22/20 A3012 RMK AO2 SLP190 CIG 005V009 60000 70011 T02170200 10228 20217 53023=
201809281052 METAR KATL 281052Z 28004KT 8SM OVC006 22/20 A3009 RMK AO2 SLP180 CIG 005V008 BINOVC T02170200=
201809281042 SPECI KATL 281042Z 28004KT 9SM BKN006 OVC014 22/20 A3008 RMK AO2 CIG 005V008 T02170200=
201809281001 SPECI KATL 281001Z 24005KT 10SM SCT006 SCT014 BKN080 OVC130 22/20 A3006 RMK AO2 T02170200=
201809280952 METAR KATL 280952Z 25004KT 10SM BKN006 BKN014 OVC120 22/20 A3006 RMK AO2 SLP172 CIG 004V008 T02170200=
201809280852 METAR KATL 280852Z 00000KT 10SM BKN005 BKN012 OVC120 22/20 A3004 RMK AO2 RAB21E30 SLP166 CIG 004V007 P0000 60000 T02170200 55001=
201809280823 SPECI KATL 280823Z 28006KT 10SM -RA BKN007 BKN015 BKN055 OVC150 22/20 A3004 RMK AO2 RAB21 CIG 006V009 P0000 T02170200=
201809280752 METAR KATL 280752Z 25003KT 10SM FEW007 FEW014 BKN140 OVC200 22/20 A3003 RMK AO2 RAB15E25 SLP160 P0000 T02170200=
201809280658 SPECI KATL 280658Z 27003KT 10SM FEW008 SCT015 BKN140 OVC200 22/21 A3005 RMK AO2 T02220206=
201809280652 METAR KATL 280652Z 27004KT 10SM FEW012 SCT022 BKN140 OVC200 22/20 A3005 RMK AO2 SLP165 T02220200=
201809280621 SPECI KATL 280621Z 26005KT 10SM FEW008 BKN015 BKN024 OVC200 22/21 A3004 RMK AO2 CIG 013V017 T02220206=
201809280552 METAR KATL 280552Z 25005KT 10SM SCT008 BKN014 OVC022 23/21 A3005 RMK AO2 SLP165 60000 T02280206 10239 20222 53008=
201809280452 METAR KATL 280452Z 22004KT 10SM SCT007 BKN012 OVC200 23/21 A3004 RMK AO2 SLP162 T02280211 402940217=
201809280352 METAR KATL 280352Z 24005KT 10SM SCT007 BKN012 BKN120 OVC200 23/21 A3003 RMK AO2 SLP159 T02280211=
201809280335 SPECI KATL 280335Z 24004KT 10SM SCT007 BKN012 BKN120 OVC200 23/21 A3002 RMK AO2 T02280211=
201809280252 METAR KATL 280252Z 23005KT 10SM FEW006 SCT012 BKN120 OVC200 23/21 A3002 RMK AO2 SLP157 60000 T02280211 53011=
201809280223 SPECI KATL 280223Z 21008KT 10SM SCT006 BKN012 BKN120 OVC200 23/21 A3002 RMK AO2 T02280211=
201809280152 METAR KATL 280152Z 21007KT 10SM FEW006 BKN120 OVC200 23/21 A3001 RMK AO2 RAB10E50 SLP155 P0000 T02280211=
201809280127 SPECI KATL 280127Z 22008KT 10SM -RA FEW006 SCT012 BKN120 OVC200 23/21 A3001 RMK AO2 RAB10 P0000 T02280211=
201809280052 METAR KATL 280052Z 21008KT 10SM SCT006 BKN012 BKN150 BKN200 23/21 A2999 RMK AO2 SLP148 T02280211=
201809272359 SPECI KATL 272359Z 20005KT 10SM FEW005 SCT012 BKN150 BKN200 23/21 A2999 RMK AO2 T02280211=
201809272352 METAR KATL 272352Z 20005KT 10SM FEW005 BKN012 BKN150 OVC200 23/21 A2999 RMK AO2 SLP147 60011 T02280211 10294 20222 53002=
201809272333 SPECI KATL 272333Z 26006KT 10SM FEW005 BKN012 BKN150 OVC200 23/21 A2999 RMK AO2 T02280211=
201809272252 METAR KATL 272252Z 22008KT 10SM FEW005 SCT110 BKN140 OVC200 23/21 A2999 RMK AO2 SLP146 T02280211=
201809272152 METAR KATL 272152Z 25006KT 10SM FEW060 SCT100 BKN140 OVC200 23/21 A2996 RMK AO2 RAE52 SLP138 P0003 T02280211=
201809272117 SPECI KATL 272117Z 22009KT 10SM -RA FEW005 BKN110 OVC150 22/21 A2998 RMK AO2 LTG DSNT NE-SE CB DSNT NE-SE P0003 T02220206=
201809272057 SPECI KATL 272057Z 21012KT 6SM -RA BR FEW050 SCT090 OVC110 22/21 A2998 RMK AO2 LTG DSNT E AND SE CB DSNT NE-SE P0001 T02220206=
201809272052 METAR KATL 272052Z 21010KT 4SM VCTS -RA BR FEW050CB BKN100 OVC120 22/21 A2998 RMK AO2 LTG DSNT E AND SE TSB00E28 SLP144 OCNL LTGICCG NE-SE TS VC NE-SE MOV NE P0008 60008 T02220206 55010=
201809272028 SPECI KATL 272028Z 22010KT 190V250 7SM VCTS -RA FEW030CB SCT050 OVC100 23/21 A2998 RMK AO2 LTG DSNT NE-S TSB00E28 OCNL LTGICCG NE-SE TS VC NE-SE MOV NE SHRA VC NE-SE P0002 T02280206=
201809272008 SPECI KATL 272008Z 21015G19KT 7SM -TSRA BKN025CB BKN050 OVC090 24/21 A2998 RMK AO2 LTG DSNT NE AND S TSB00 VIS LWR NE-SE-S SW SHRA OCNL LTGICCG NE-SE-S SW TS NE-SE-S SW MOV NE P0002 T02390211=
201809272001 SPECI KATL 272001Z 25005KT 6SM TSRA FEW020CB BKN050 OVC150 24/22 A2997 RMK AO2 LTG DSNT NE AND S TSB00 VIS LWR SE-SW SHRA OCNL LTGICCG OHD-SE-SW DSNT NE TS OHD-SE-SW DSNT NE MOV NE P0001 T02440217=
201809271952 METAR KATL 271952Z 29011KT 10SM VCTS -RA FEW030CB SCT050TCU BKN150 BKN250 26/21 A2996 RMK AO2 LTG DSNT S AND SW RAB44 SLP137 OCNL LTGICCG N-NE S-SW TS VC N-NE VC S-SW MOV NE TCU N-NE-E-SE P0000 T02610211=
201809271929 SPECI KATL 271929Z 20010KT 10SM VCTS FEW030CB SCT040TCU BKN200 28/21 A2997 RMK AO2 LTG DSNT SW OCNL LTGICCG NW-N DSNT SW TS VC NW-N DSNT SW MOV NE TCU ALQDS SHRA VC NW DSNT SW T02780211=
201809271852 METAR KATL 271852Z 19007KT 10SM SCT025TCU SCT050 BKN250 28/21 A2997 RMK AO2 SLP138 CB DSNT W TCU S-SW-W SHRA DSNT W T02830211=
201809271814 SPECI KATL 271814Z 22008KT 10SM BKN025 BKN050 BKN250 27/21 A2999 RMK AO2 CB DSNT SE SW T02720206=
201809271752 METAR KATL 271752Z 21010KT 10SM FEW020CB BKN040 BKN250 28/21 A3001 RMK AO2 SLP153 CB SE-S MOV NE MDT CU W-NW SHRA VC SE-S T02830211 10289 20217 58015=
201809271704 SPECI KATL 271704Z 20008KT 10SM SCT012 BKN020 BKN250 27/22 A3004 RMK AO2 T02670217=
201809271652 METAR KATL 271652Z 19012G17KT 10SM BKN012 BKN020 BKN250 26/22 A3005 RMK AO2 SLP166 TCU DSNT SE-SW T02610217=
201809271616 SPECI KATL 271616Z 19007KT 10SM BKN012 BKN015 BKN020 25/21 A3006 RMK AO2 T02500211=
201809271600 SPECI KATL 271600Z 18008KT 10SM BKN010 OVC016 25/22 A3006 RMK AO2 CIG 008V012 T02500217=
201809271552 METAR KATL 271552Z 19007KT 10SM BKN009 BKN013 BKN018 24/22 A3006 RMK AO2 SLP169 T02440217=
201809271452 METAR KATL 271452Z 18008KT 8SM BKN007 BKN010 OVC012 24/21 A3006 RMK AO2 SLP170 T02390211 51005=
201809271417 SPECI KATL 271417Z 19008KT 6SM BR BKN006 BKN008 OVC010 23/21 A3006 RMK AO2 T02280211=
201809271352 METAR KATL 271352Z 19006KT 6SM BR BKN005 BKN007 OVC010 23/21 A3006 RMK AO2 SLP170 T02280211=
201809271306 SPECI KATL 271306Z 20006KT 6SM BR BKN005 BKN008 OVC010 22/21 A3006 RMK AO2 T02220206=
201809271252 METAR KATL 271252Z 20006KT 7SM SCT004 OVC011 22/21 A3005 RMK AO2 SLP169 CIG 009V013 T02220206=
201809271241 SPECI KATL 271241Z 19006KT 7SM SCT004 BKN012 OVC050 23/21 A3005 RMK AO2 BINOVC T02280211=
201809271237 SPECI KATL 271237Z 19006KT 1SM R09R/P6000FT SCT004 BKN012 BKN050 BKN180 22/21 A3005 RMK AO2 SFC VIS 7 T02220206=
201809271222 SPECI KATL 271222Z 17006KT 1SM R09R/P6000FT BR BKN004 BKN016 BKN050 BKN180 22/21 A3005 RMK AO2 SFC VIS 6 CIG 003V006 T02220211=
201809271221 SPECI KATL 271221Z 17006KT 1 1/2SM BR BKN004 BKN016 BKN050 BKN180 22/21 A3005 RMK AO2 SFC VIS 6 CIG 003V006 T02220211=
201809271211 SPECI KATL 271211Z 16004KT 3SM BR SCT003 BKN018 BKN050 BKN180 22/21 A3005 RMK AO2 SFC VIS 6 T02220211=
201809271152 METAR KATL 271152Z 16006KT 9SM FEW004 SCT020 SCT050 BKN180 22/21 A3005 RMK AO2 SLP166 70028 T02170206 10222 20217 51004=
201809271127 SPECI KATL 271127Z 15004KT 9SM FEW004 SCT020 BKN045 BKN180 22/21 A3004 RMK AO2 T02170206=
201809271052 METAR KATL 271052Z 15004KT 10SM FEW004 BKN018 BKN045 BKN180 22/21 A3004 RMK AO2 SLP164 T02170206=
201809271044 SPECI KATL 271044Z 15004KT 10SM SCT016 BKN023 BKN045 BKN150 22/21 A3004 RMK AO2 T02220206=
201809271025 SPECI KATL 271025Z 16004KT 10SM FEW012 SCT023 BKN045 BKN150 22/21 A3004 RMK AO2 T02220206=
201809271001 SPECI KATL 271001Z 16003KT 10SM FEW005 SCT012 OVC024 22/21 A3004 RMK AO2 T02220206=
201809270952 METAR KATL 270952Z 14004KT 10SM FEW004 BKN012 OVC030 22/21 A3004 RMK AO2 SLP164 T02220206=
201809270924 SPECI KATL 270924Z 15004KT 8SM FEW003 BKN013 OVC033 22/21 A3003 RMK AO2 T02220206=
201809270852 METAR KATL 270852Z 17003KT 8SM FEW003 SCT013 OVC042 22/21 A3003 RMK AO2 SLP162 T02220206 55008 $=
201809270752 METAR KATL 270752Z 13003KT 10SM SCT004 SCT015 BKN140 BKN250 22/21 A3003 RMK AO2 SLP158 T02170206 $=
201809270706 SPECI KATL 270706Z 13003KT 10SM FEW005 SCT015 BKN130 BKN250 22/21 A3004 RMK AO2 T02170206 $=
201809270652 METAR KATL 270652Z 12003KT 9SM SCT005 BKN015 BKN130 BKN250 22/21 A3004 RMK AO2 SLP162 T02220206 $=
201809270639 SPECI KATL 270639Z 16005KT 7SM BKN006 BKN014 OVC120 22/21 A3005 RMK AO2 CIG 004V008 T02220206 $=
201809270552 METAR KATL 270552Z 14006KT 6SM BR BKN004 OVC008 22/21 A3006 RMK AO2 SLP167 CIG 003V006 60002 T02220211 10228 20217 58001 $=
201809270511 SPECI KATL 270511Z 14003KT 10SM FEW004 BKN008 BKN110 OVC200 22/21 A3006 RMK AO2 CIG 007V010 T02220211 $=
201809270452 METAR KATL 270452Z 15004KT 10SM FEW005 BKN120 OVC200 22/21 A3006 RMK AO2 RAB14E23 SLP169 P0000 T02220211 403170222 $=
201809270352 METAR KATL 270352Z 33004KT 10SM FEW004 SCT120 BKN250 22/21 A3006 RMK AO2 SLP169 T02220206 $=
201809270252 METAR KATL 270252Z 31006KT 10SM FEW004 SCT110 BKN150 OVC250 22/21 A3006 RMK AO2 RAE49 SLP171 P0001 60002 T02220206 50006 $=
201809270152 METAR KATL 270152Z 30005KT 9SM -RA FEW004 BKN110 OVC150 23/21 A3006 RMK AO2 SLP171 P0001 T02280211 $=
201809270052 METAR KATL 270052Z 29004KT 9SM -RA FEW004 SCT070 BKN100 OVC150 23/22 A3006 RMK AO2 SLP171 P0000 T02280217 $=
201809262352 METAR KATL 262352Z 00000KT 10SM -RA FEW080 BKN110 OVC150 23/21 A3004 RMK AO2 SLP165 P0005 60025 T02280211 10317 20222 50002 $=
201809262252 METAR KATL 262252Z 27003KT 5SM RA BR FEW050 BKN080 OVC110 23/21 A3004 RMK AO2 SLP166 P0006 T02280211 $=
201809262152 METAR KATL 262152Z 26003KT 9SM -RA FEW015 SCT070 BKN100 OVC200 23/21 A3004 RMK AO2 RAE30B43 TSE30 SLP164 LTG DSNT NE-SE P0001 T02330211 $=
201809262130 SPECI KATL 262130Z 20005KT 10SM FEW015 SCT070 BKN100 OVC200 23/21 A3003 RMK AO2 RAE30 TSE30 LTG DSNT NE-SE & SW TS MOV NE P0000 T02330211 $=
201809262059 SPECI KATL 262059Z 29004KT 10SM -TSRA FEW015CB BKN050 OVC070 22/20 A3004 RMK AO2 LTG DSNT ALQDS OCNL LTGICCG E-SE-S TS E-SE-S MOV NE P0000 T02220200 $=
201809262052 METAR KATL 262052Z 31005KT 8SM -TSRA FEW015CB BKN050 OVC070 22/20 A3004 RMK AO2 PK WND 29031/2014 WSHFT 2002 LTG DSNT ALQDS RAB14 TSB18 SLP163 OCNL LTGICCG NE-SE TS NE-SE MOV NE P0013 60013 T02220200 55013 $=
201809262042 SPECI KATL 262042Z 34003KT 6SM R09R/5000VP6000FT -TSRA BR SCT017CB BKN040 OVC070 22/21 A3004 RMK AO2 PK WND 29031/2014 WSHFT 2002 LTG DSNT ALQDS RAB14 TSB18 FRQ LTGICCG NE-SE TS NE-SE MOV NE P0013 T02220206 $=
201809262020 SPECI KATL 262020Z 32021G31KT 3SM +TSRA BKN015CB BKN030 OVC060 24/21 A3006 RMK AO2 PK WND 29031/2014 WSHFT 2002 LTG DSNT ALQDS RAB14 TSB18 PRESRR FRQ LTGICCG OHD-SW-NW-NE TS OHD-SW-NW-NE MOV NE P0000 T02390206=
201809262006 SPECI KATL 262006Z 32011G18KT 6SM VCTS HZ BKN030CB BKN050 BKN250 28/21 A3004 RMK AO2 LTG DSNT ALQDS FRQ LTGICCG SW-NW-NE TS VC SW-NW-NE SHRA VC SW-NW-NE T02780211=
201809261952 METAR KATL 261952Z 21009KT 10SM VCTS BKN040CB BKN060 BKN250 29/21 A3002 RMK AO2 LTG DSNT ALQDS SLP156 OCNL LTGICCG SW-NW TS VC SW-NW MOV NE CB SW-NW DSNT E MOV NE TCU DSNT NE-SE SHRA VC SW-NW T02940206=
201809261945 SPECI KATL 261945Z 21008KT 170V260 10SM VCTS FEW040CB SCT060 BKN250 31/21 A3003 RMK AO2 LTG DSNT ALQDS OCNL LTGICCG SW-NW TS VC SW-NW MOV NE CB SW-NW DSNT E MOV NE TCU DSNT NE-SE SHRA VC SW-NW T03110211=
201809261852 METAR KATL 261852Z 23008KT 10SM FEW040 FEW060 BKN250 30/21 A3005 RMK AO2 SLP163 CB DSNT NE E SE W T03000211=
201809261805 SPECI KATL 261805Z 22010KT 10SM BKN040TCU BKN060 BKN250 29/20 A3007 RMK AO2 CB DSNT NE E S TCU OHD-SW-NW SHRA DSNT NE E S T02940200=
201809261752 METAR KATL 261752Z 26008KT 10SM VCTS FEW030CB FEW040TCU SCT060 BKN250 31/21 A3008 RMK AO2 RAB04E12 SLP173 OCNL LTGICCG SE TS VC SE MOV E CB NE SE MOV E TCU W SHRA VC NE SE P0001 60001 T03060211 10306 20228 58015=
201809261713 SPECI KATL 261713Z 28008KT 10SM FEW027CB BKN040TCU BKN060 BKN250 27/22 A3010 RMK AO2 RAB04E12 VIS LWR NE SHRA CB NE MOV NE TCU ALQDS P0001 T02670222=
201809261708 SPECI KATL 261708Z 28009KT 6SM -RA SCT027CB BKN040TCU BKN060 BKN250 27/22 A3010 RMK AO2 RAB04 CB OHD-NE MOV NE TCU ALQDS P0001 T02720222=
201809261707 SPECI KATL 261707Z 28009KT 8SM -RA SCT027CB BKN040TCU BKN060 BKN250 27/22 A3010 RMK AO2 RAB04 CB OHD-NE MOV NE TCU ALQDS P0001 T02720222=
201809261652 METAR KATL 261652Z 18008KT 10SM BKN030TCU BKN060 BKN250 28/22 A3010 RMK AO2 SLP183 TCU NE SW-NW MDT CU NE-SE T02780217=
201809261625 SPECI KATL 261625Z 23007KT 10SM BKN025 BKN060 BKN250 29/22 A3011 RMK AO2 MDT CU NE NW T02890222=
201809261555 SPECI KATL 261555Z VRB06KT 10SM FEW018 FEW023 SCT060 SCT250 27/22 A3011 RMK AO2 T02720217=
201809261552 METAR KATL 261552Z 22007KT 10SM BKN016 BKN023 BKN060 27/22 A3011 RMK AO2 SLP187 T02720217=
201809261539 SPECI KATL 261539Z 21007KT 10SM BKN016 BKN020 BKN060 28/22 A3012 RMK AO2 T02780222=
201809261452 METAR KATL 261452Z 21006KT 10SM BKN012 BKN018 BKN060 26/22 A3012 RMK AO2 SLP189 T02610217 51005=
201809261352 METAR KATL 261352Z 23007KT 10SM BKN011 BKN015 BKN065 25/21 A3012 RMK AO2 SLP190 T02500211=
201809261252 METAR KATL 261252Z 20006KT 10SM FEW013 FEW065 SCT250 23/20 A3011 RMK AO2 SLP186 T02330200=
201809261152 METAR KATL 261152Z 15004KT 10SM FEW016 SCT065 SCT180 BKN250 23/20 A3011 RMK AO2 SLP185 T02280200 10239 20222 50002=
201809261052 METAR KATL 261052Z 00000KT 10SM FEW040 FEW065 SCT180 BKN250 22/20 A3011 RMK AO2 SLP186 T02220200=
201809260952 METAR KATL 260952Z 19003KT 10SM FEW041 SCT065 SCT150 BKN180 23/20 A3010 RMK AO2 SLP181 T02280200=
201809260852 METAR KATL 260852Z 00000KT 10SM BKN044 BKN050 BKN150 23/20 A3010 RMK AO2 SLP182 T02330200 58012=
201809260752 METAR KATL 260752Z 00000KT 10SM FEW050 SCT075 SCT150 23/20 A3011 RMK AO2 SLP185 T02280200=
201809260652 METAR KATL 260652Z 16004KT 10SM SCT040 SCT075 SCT250 23/21 A3013 RMK AO2 SLP191 T02330206=
201809260552 METAR KATL 260552Z 15004KT 10SM BKN036 BKN047 BKN060 24/21 A3014 RMK AO2 SLP194 60000 T02390211 10272 20239 58001=
201809260452 METAR KATL 260452Z 00000KT 10SM FEW035 SCT060 BKN250 24/21 A3014 RMK AO2 SLP197 CB DSNT NE-SE T02390211 403110233=
201809260352 METAR KATL 260352Z 22003KT 10SM FEW040 BKN060 BKN250 24/22 A3016 RMK AO2 SLP204 T02390217=
201809260252 METAR KATL 260252Z 12004KT 10SM FEW040 SCT250 26/21 A3014 RMK AO2 SLP194 60000 T02560206 53012=
201809260152 METAR KATL 260152Z 10006KT 10SM FEW090 SCT250 26/21 A3012 RMK AO2 SLP188 T02560211=
201809260052 METAR KATL 260052Z 15005KT 10SM SCT060 BKN090 BKN250 25/22 A3011 RMK AO2 RAE39 SLP187 P0000 T02500222=
201809252352 METAR KATL 252352Z 19012KT 9SM -RA SCT040CB BKN060 BKN200 28/21 A3010 RMK AO2 RAB52 SLP183 CB S-SW MOV NE P0000 60000 T02780206 10311 20278 53003=
201809252252 METAR KATL 252252Z 13007KT 10SM FEW040 SCT070 BKN200 29/21 A3009 RMK AO2 RAE02 SLP178 CB DSNT NW-N TCU DSNT S-SW P0000 T02890206=
201809252152 METAR KATL 252152Z 14007KT 10SM -RA SCT040TCU BKN070 BKN200 29/20 A3009 RMK AO2 RAB52 SLP177 TCU NE-OHD-SW P0000 T02890200=
201809252052 METAR KATL 252052Z VRB05KT 10SM FEW040 SCT080 BKN150 31/19 A3009 RMK AO2 SLP179 MDT CU DSNT NE-SE SW-NW T03060194 56022=
201809251952 METAR KATL 251952Z 16005KT 10SM SCT040 BKN060 BKN140 30/20 A3011 RMK AO2 SLP184 MDT CU ALQDS T03000200=
201809251852 METAR KATL 251852Z 11005KT 10SM FEW040 SCT050 BKN140 29/21 A3013 RMK AO2 SLP193 MDT CU N S NW T02940206=
201809251752 METAR KATL 251752Z VRB06KT 10SM FEW030 SCT050 BKN140 29/21 A3016 RMK AO2 SLP201 T02940206 10306 20233 58010=
201809251652 METAR KATL 251652Z VRB04G18KT 10SM SCT025 BKN045 BKN055 29/21 A3018 RMK AO2 SLP210 MDT CU NE E-SE S SW-W T02940211=
201809251552 METAR KATL 251552Z 17008KT 10SM SCT020 BKN030 BKN040 27/21 A3019 RMK AO2 SLP213 T02720206=
201809251549 SPECI KATL 251549Z 17009KT 10SM SCT020 BKN030 BKN040 27/21 A3019 RMK AO2=
201809251452 METAR KATL 251452Z 17006KT 10SM FEW015 BKN025 BKN030 26/21 A3019 RMK AO2 SLP214 T02610211 51005=
201809251359 SPECI KATL 251359Z 16009KT 10SM SCT013 BKN020 OVC150 25/21 A3019 RMK AO2 T02500211=
201809251352 METAR KATL 251352Z 15010KT 10SM BKN013 BKN020 OVC150 25/21 A3019 RMK AO2 SLP214 T02500211=
201809251301 SPECI KATL 251301Z 13007KT 7SM BKN011 BKN020 BKN150 24/21 A3018 RMK AO2 T02440211=
201809251252 METAR KATL 251252Z 14007KT 7SM SCT009 BKN015 BKN023 BKN150 24/21 A3018 RMK AO2 SLP211 T02440211=
201809251152 METAR KATL 251152Z 13004KT 6SM BR BKN009 BKN015 OVC020 23/21 A3018 RMK AO2 RAE16 SLP209 CIG 008V011 P0000 60000 T02330211 10239 20233 53010=
201809251052 METAR KATL 251052Z 14006KT 6SM -RA BR BKN009 OVC015 23/21 A3016 RMK AO2 RAB26 SLP204 CIG 008V010 P0000 T02330211=
201809250952 METAR KATL 250952Z 12008KT 7SM BKN009 OVC014 23/21 A3016 RMK AO2 SLP201 CIG 008V012 SHRA W-NW T02330211=
201809250852 METAR KATL 250852Z 12007KT 10SM OVC008 23/21 A3015 RMK AO2 CIG 008V013 SLP197 T02330206 55004=
201809250820 SPECI KATL 250820Z 12008KT 10SM OVC008 23/21 A3015 RMK AO2 T02330206=
201809250752 METAR KATL 250752Z 11007KT 10SM OVC010 23/21 A3014 RMK AO2 SLP196 CIG 008V012 T02330206=
201809250725 SPECI KATL 250725Z 10010KT 10SM BKN012 OVC020 23/21 A3015 RMK AO2 CIG 010V014 T02330206=
201809250652 METAR KATL 250652Z 11007KT 10SM BKN009 OVC065 23/21 A3016 RMK AO2 LTG DSNT NW SLP202 CB DSNT SW & NW T02330206=
201809250552 METAR KATL 250552Z 12012KT 10SM BKN012 BKN020 OVC030 24/21 A3016 RMK AO2 LTG DSNT NW SLP202 CB DSNT NW T02390206 10261 20239 58002=
201809250452 METAR KATL 250452Z 11011KT 10SM BKN013 BKN030 OVC200 24/20 A3017 RMK AO2 LTG DSNT NW SLP206 T02390200 403000222=
201809250434 SPECI KATL 250434Z 09010KT 10SM BKN013 BKN030 OVC200 24/20 A3017 RMK AO2 LTG DSNT W AND NW T02390200=
201809250352 METAR KATL 250352Z 10009G17KT 10SM SCT015 BKN040 OVC200 24/20 A3017 RMK AO2 SLP205 LTG DSNT W-NW T02390200=
201809250252 METAR KATL 250252Z 09011KT 10SM FEW015 SCT035 BKN050 BKN200 24/20 A3016 RMK AO2 SLP205 LTG DSNT W-NW T02440200 53024=
201809250152 METAR KATL 250152Z 10011KT 10SM FEW015 SCT035 BKN050 BKN250 25/20 A3014 RMK AO2 SLP197 T02500200=
201809250052 METAR KATL 250052Z 11014G19KT 10SM FEW035 SCT090 BKN250 26/20 A3011 RMK AO2 SLP188 T02560200=
201809242352 METAR KATL 242352Z 10010KT 10SM FEW090 SCT200 BKN250 26/21 A3009 RMK AO2 SLP181 T02610206 10300 20261 51007=
201809242252 METAR KATL 242252Z 12012G18KT 10SM FEW035 SCT090 BKN250 28/21 A3009 RMK AO2 SLP179 T02780206=
201809242152 METAR KATL 242152Z 11011G18KT 10SM FEW035 SCT080 SCT250 29/20 A3008 RMK AO2 SLP174 T02890200=
201809242052 METAR KATL 242052Z 12011KT 10SM FEW040 SCT050 SCT080 30/20 A3007 RMK AO2 SLP171 MDT CU S-SW-W-NW-N T03000200 56022=
201809241952 METAR KATL 241952Z 14009KT 10SM FEW035TCU SCT050 BKN080 29/20 A3008 RMK AO2 SLP175 TCU NW MDT CU SE-S-SW T02890200=
201809241852 METAR KATL 241852Z 12008KT 10SM FEW030 SCT050 BKN080 28/20 A3010 RMK AO2 SLP183 MDT CU S-SW-W T02830200=
201809241752 METAR KATL 241752Z 11009KT 10SM BKN030 BKN040 BKN060 28/20 A3013 RMK AO2 SLP194 MDT CU ALQDS T02780200 10289 20228 58008=
201809241732 SPECI KATL 241732Z 12009KT 10SM BKN025 BKN035 BKN065 28/20 A3014 RMK AO2 MDT CU ALQDS T02830200=
201809241652 METAR KATL 241652Z 13008KT 10SM SCT025 SCT030 BKN065 27/20 A3015 RMK AO2 SLP199 MDT CU ALQDS T02720200=
201809241634 SPECI KATL 241634Z 13010KT 10SM FEW015 SCT027 BKN060 28/21 A3015 RMK AO2 T02780206=
201809241552 METAR KATL 241552Z 13008G14KT 10SM FEW009 BKN015 BKN020 26/21 A3016 RMK AO2 SLP203 T02560206=
201809241549 SPECI KATL 241549Z 14006G14KT 10SM FEW009 BKN015 BKN020 26/21 A3016 RMK AO2=
201809241505 SPECI KATL 241505Z 13006KT 8SM BKN009 BKN015 OVC020 24/21 A3016 RMK AO2 T02390206=
201809241452 METAR KATL 241452Z 11009KT 7SM BKN010 BKN015 OVC020 23/21 A3016 RMK AO2 SLP204 T02330206 51012=
201809241357 SPECI KATL 241357Z 13005KT 6SM HZ FEW007 BKN010 OVC013 24/21 A3015 RMK AO2 T02390206=
201809241352 METAR KATL 241352Z 12006KT 6SM HZ BKN008 BKN010 OVC013 24/21 A3015 RMK AO2 SLP200 T02390206=
201809241252 METAR KATL 241252Z 14007KT 7SM OVC008 23/21 A3014 RMK AO2 SLP197 T02330206=
201809241152 METAR KATL 241152Z 14007KT 7SM OVC008 23/20 A3013 RMK AO2 SLP192 CIG 007V010 T02280200 10239 20222 53015=
201809241052 METAR KATL 241052Z 12006KT 10SM BKN009 BKN080 22/20 A3011 RMK AO2 SLP183 BKN009 V SCT T02220200=
201809241048 SPECI KATL 241048Z 12005KT 10SM BKN009 BKN080 22/20 A3010 RMK AO2 BKN009 V SCT=
201809240952 METAR KATL 240952Z 11006KT 10SM SCT009 SCT045 BKN080 OVC150 23/20 A3009 RMK AO2 SLP179 T02280200=
201809240852 METAR KATL 240852Z 11007KT 10SM FEW042 SCT080 BKN150 23/19 A3008 RMK AO2 SLP175 T02280194 55002=
201809240752 METAR KATL 240752Z 12005KT 10SM FEW043 SCT120 BKN150 23/19 A3008 RMK AO2 SLP174 T02280189 $=
201809240652 METAR KATL 240652Z 12007KT 10SM FEW060 SCT120 BKN150 24/19 A3008 RMK AO2 SLP175 T02390189 $=
201809240552 METAR KATL 240552Z 13006KT 10SM FEW100 BKN130 24/18 A3009 RMK AO2 SLP177 T02390178 10278 20239 50005 $=
201809240452 METAR KATL 240452Z 11008KT 10SM FEW110 BKN150 BKN250 24/17 A3009 RMK AO2 SLP178 T02440167 403220206 $=
201809240352 METAR KATL 240352Z 09007KT 10SM FEW110 SCT180 SCT250 24/17 A3008 RMK AO2 SLP174 T02440167 $=
201809240252 METAR KATL 240252Z 12006KT 10SM FEW180 SCT250 26/17 A3007 RMK AO2 SLP171 T02610167 51013 $=
201809240152 METAR KATL 240152Z 12004KT 10SM FEW180 SCT250 27/17 A3006 RMK AO2 SLP169 T02670167 $=
201809240052 METAR KATL 240052Z 13003KT 10SM SCT180 SCT250 27/17 A3004 RMK AO2 SLP164 T02670167 $=
201809232352 METAR KATL 232352Z 15004KT 10SM FEW085 SCT180 SCT250 28/16 A3003 RMK AO2 SLP160 T02780161 10322 20278 53004 $=
201809232252 METAR KATL 232252Z 15009KT 10SM FEW060 FEW085 SCT250 30/16 A3002 RMK AO2 SLP157 T03000161 $=
201809232152 METAR KATL 232152Z 16006KT 10SM FEW065 SCT080 SCT250 31/17 A3002 RMK AO2 SLP154 T03060167 $=
201809232052 METAR KATL 232052Z 12008KT 10SM SCT060 SCT080 BKN250 30/17 A3002 RMK AO2 SLP153 MDT CU N-E & DSNT W T03000167 56021 $=
201809231952 METAR KATL 231952Z VRB06KT 10SM SCT055 BKN250 32/17 A3003 RMK AO2 SLP157 T03170172 $=
201809231852 METAR KATL 231852Z 15008KT 090V170 10SM SCT055 BKN250 31/17 A3005 RMK AO2 SLP166 T03060167 $=
201809231752 METAR KATL 231752Z 21005KT 10SM SCT050 BKN250 29/18 A3008 RMK AO2 SLP175 T02940178 10311 20211 58010 $=
201809231652 METAR KATL 231652Z 14007KT 10SM SCT045 BKN250 30/19 A3010 RMK AO2 SLP181 T03000189 $=
201809231552 METAR KATL 231552Z 13007KT 10SM SCT035 BKN250 29/19 A3011 RMK AO2 SLP184 T02890194 $=
201809231452 METAR KATL 231452Z VRB03KT 10SM FEW022 SCT250 27/21 A3011 RMK AO2 SLP185 T02670211 51013 $=
201809231352 METAR KATL 231352Z 19003KT 10SM SCT250 24/20 A3010 RMK AO2 SLP184 T02440200 $=
201809231252 METAR KATL 231252Z 00000KT 10SM SCT250 22/19 A3009 RMK AO2 SLP178 T02220189 $=
201809231152 METAR KATL 231152Z 13003KT 10SM SCT250 21/18 A3007 RMK AO2 SLPNO T02110183 10233 20206 53005 $=
201809231052 METAR KATL 231052Z 15003KT 10SM SCT250 21/17 A3006 RMK AO2 SLP170 T02060172 $=
201809230952 METAR KATL 230952Z 13003KT 10SM BKN250 21/17 A3005 RMK AO2 SLP166 T02110172 $=
201809230852 METAR KATL 230852Z 15004KT 10SM BKN250 22/17 A3006 RMK AO2 SLP167 T02170167 56005 $=
201809230752 METAR KATL 230752Z 14003KT 10SM FEW250 22/17 A3006 RMK AO2 SLP167 T02220167 $=
201809230652 METAR KATL 230652Z 15003KT 10SM FEW250 23/17 A3006 RMK AO2 SLP168 T02280172 $=
201809230552 METAR KATL 230552Z 17003KT 10SM FEW250 23/17 A3007 RMK AO2 SLP171 T02330172 10289 20233 58004 $=
201809230452 METAR KATL 230452Z 19004KT 10SM FEW250 24/17 A3008 RMK AO2 SLP175 T02390172 403280217 $=
201809230352 METAR KATL 230352Z 17006KT 10SM FEW110 SCT250 25/17 A3009 RMK AO2 SLP177 T02500172 $=
201809230252 METAR KATL 230252Z 15004KT 10SM FEW110 SCT250 25/18 A3008 RMK AO2 SLP176 T02500183 $=
201809230152 METAR KATL 230152Z 19003KT 10SM FEW060 FEW110 SCT250 27/18 A3007 RMK AO2 SLP173 T02670178 $=
201809230052 METAR KATL 230052Z 20004KT 10SM FEW060 SCT110 SCT250 27/18 A3006 RMK AO2 SLP167 T02720178 $=
201809222359 SPECI KATL 222359Z 18006KT 10SM FEW060 SCT110 SCT250 29/17 A3004 RMK AO2 T02890167 $=
201809222352 METAR KATL 222352Z COR 18006KT 10SM FEW060 SCT110 SCT250 29/17 A3004 RMK AO2 SLP163 MDT CU SW T02890167 10328 20289 52007 $=
201809222252 METAR KATL 222252Z 16006KT 10SM FEW060 SCT100 SCT250 31/17 A3003 RMK AO2 SLP157 TCU DSNT N NW MDT CU S T03060167=
201809222152 METAR KATL 222152Z 16008KT 10SM FEW055 SCT100 SCT250 31/16 A3002 RMK AO2 SLP155 MDT CU ALQDS T03110156=
201809222052 METAR KATL 222052Z 14006KT 10SM SCT055 SCT100 31/18 A3002 RMK AO2 SLP155 MDT CU ALQDS T03060178 56028=
201809221952 METAR KATL 221952Z 09005KT 10SM SCT050 SCT090 33/19 A3005 RMK AO2 SLP163 TCU DSNT W MDT CU ALQDS T03280189=
201809221852 METAR KATL 221852Z 17004KT 10SM SCT048 BKN070 30/19 A3008 RMK AO2 SLP173 MDT CU ALQDS T03000189=
201809221752 METAR KATL 221752Z VRB03KT 10SM SCT045 31/20 A3011 RMK AO2 SLP184 MDT CU ALQDS T03110200 10311 20217 58013=
201809221652 METAR KATL 221652Z 20004KT 10SM BKN039 30/21 A3013 RMK AO2 SLP191 MDT CU ALQDS T03000206=
201809221552 METAR KATL 221552Z 00000KT 10SM SCT030 30/21 A3015 RMK AO2 SLP196 T03000206=
201809221452 METAR KATL 221452Z VRB03KT 10SM FEW025 FEW065 28/21 A3015 RMK AO2 SLP198 T02780211 51005=
201809221352 METAR KATL 221352Z 19008KT 10SM FEW065 26/21 A3014 RMK AO2 SLP197 T02560206=
201809221252 METAR KATL 221252Z VRB04KT 10SM R09R/5500VP6000FT FEW050 23/20 A3014 RMK AO2 SLP196 T02330200=
201809221152 METAR KATL 221152Z 14004KT 10SM FEW050 22/19 A3013 RMK AO2 SLP194 T02170194 10250 20217 53002=
201809221052 METAR KATL 221052Z 00000KT 10SM FEW050 22/19 A3013 RMK AO2 SLP193 T02220194=
201809220952 METAR KATL 220952Z 16005KT 10SM CLR 22/19 A3012 RMK AO2 SLP188 T02220194=
201809220852 METAR KATL 220852Z 00000KT 10SM FEW050 23/19 A3012 RMK AO2 SLP190 T02280194 56007=
201809220752 METAR KATL 220752Z 18004KT 10SM FEW047 23/19 A3013 RMK AO2 SLP191 T02330194=
201809220652 METAR KATL 220652Z 16007KT 10SM FEW047 24/19 A3014 RMK AO2 SLP193 T02390189=
201809220552 METAR KATL 220552Z 00000KT 10SM SCT047 25/18 A3015 RMK AO2 SLP197 T02500183 10283 20244 55000=
201809220452 METAR KATL 220452Z 12004KT 10SM SCT048 BKN080 26/18 A3014 RMK AO2 SLP196 T02560183 403220217=
201809220352 METAR KATL 220352Z 10004KT 10SM FEW060 26/18 A3014 RMK AO2 SLP197 T02610178=
201809220252 METAR KATL 220252Z 09007KT 10SM SCT060 27/17 A3015 RMK AO2 SLP198 T02670172 51019=
201809220152 METAR KATL 220152Z 00000KT 10SM FEW060 SCT075 28/17 A3014 RMK AO2 SLP196 T02780172=
201809220052 METAR KATL 220052Z 00000KT 10SM CLR 28/17 A3012 RMK AO2 SLP190 T02830167=
201809212352 METAR KATL 212352Z 16004KT 10SM CLR 28/17 A3009 RMK AO2 SLP180 T02830167 10322 20283 55001=
201809212252 METAR KATL 212252Z 17006KT 10SM FEW060 FEW250 30/16 A3008 RMK AO2 SLP175 T03000161=
201809212152 METAR KATL 212152Z 16009KT 10SM FEW060 FEW250 31/16 A3009 RMK AO2 SLP177 T03110161=
201809212052 METAR KATL 212052Z 10007KT 10SM SCT060 SCT250 32/17 A3009 RMK AO2 SLP180 T03170167 56024=
201809211952 METAR KATL 211952Z 10007KT 10SM SCT055 32/17 A3011 RMK AO2 SLP185 T03170167=
201809211852 METAR KATL 211852Z VRB04KT 10SM SCT050 31/17 A3013 RMK AO2 SLP194 T03110172=
201809211752 METAR KATL 211752Z 15006KT 10SM SCT040 31/18 A3017 RMK AO2 SLP203 T03060183 10306 20222 58017=
201809211652 METAR KATL 211652Z 10004KT 10SM SCT040 29/19 A3019 RMK AO2 SLP212 T02940189=
201809211552 METAR KATL 211552Z 14004KT 10SM FEW030 28/20 A3020 RMK AO2 SLP217 T02830200=
201809211452 METAR KATL 211452Z 00000KT 10SM SCT015 SCT020 27/21 A3022 RMK AO2 SLP222 T02670211 53002=
201809211432 SPECI KATL 211432Z 16006KT 10SM BKN015 BKN020 26/21 A3022 RMK AO2 T02560206=
201809211352 METAR KATL 211352Z 12004KT 9SM FEW010 SCT020 26/21 A3021 RMK AO2 SLP219 T02560206=
201809211252 METAR KATL 211252Z 12004KT 8SM FEW012 FEW050 24/20 A3021 RMK AO2 SLP219 T02390200=
201809211152 METAR KATL 211152Z 12005KT 9SM FEW010 FEW045 22/19 A3020 RMK AO2 SLP216 T02220194 10244 20217 53009=
201809211052 METAR KATL 211052Z 13004KT 10SM FEW045 22/19 A3018 RMK AO2 SLP210 T02220194=
201809210952 METAR KATL 210952Z 13004KT 10SM FEW050 22/19 A3018 RMK AO2 SLP209 T02220189=
201809210852 METAR KATL 210852Z 12004KT 10SM FEW050 23/18 A3017 RMK AO2 SLP205 T02280183 51005=
201809210752 METAR KATL 210752Z 12003KT 10SM CLR 23/18 A3017 RMK AO2 SLP204 T02280183=
201809210652 METAR KATL 210652Z 19005KT 10SM CLR 23/18 A3016 RMK AO2 SLP203 T02330183=
201809210552 METAR KATL 210552Z 16007KT 10SM CLR 24/18 A3016 RMK AO2 SLP200 T02440178 10300 20233 51008=
201809210452 METAR KATL 210452Z 15007KT 10SM CLR 25/17 A3015 RMK AO2 SLP198 T02500167 403440233=
201809210352 METAR KATL 210352Z 14005KT 10SM CLR 26/17 A3014 RMK AO2 SLP196 T02560167=
201809210252 METAR KATL 210252Z 13006KT 10SM CLR 27/16 A3013 RMK AO2 SLP192 T02670161 53016=
201809210152 METAR KATL 210152Z 13004KT 10SM CLR 28/17 A3011 RMK AO2 SLP185 T02780167=
201809210052 METAR KATL 210052Z 10006KT 10SM FEW065 29/17 A3010 RMK AO2 SLP181 T02890167=
201809202352 METAR KATL 202352Z 09007KT 10SM FEW065 30/17 A3008 RMK AO2 SLP176 T03000167 10344 20300 53003=
201809202252 METAR KATL 202252Z 10009KT 10SM FEW065 32/17 A3007 RMK AO2 SLP172 T03170172=
201809202152 METAR KATL 202152Z 14007KT 10SM SCT065 33/17 A3007 RMK AO2 SLP171 MDT CU NW T03280172=
201809202052 METAR KATL 202052Z 14006KT 10SM FEW065 33/17 A3007 RMK AO2 SLP172 T03330172 56017=
201809201952 METAR KATL 201952Z 09006KT 10SM SCT065 33/18 A3008 RMK AO2 SLP175 MDT CU N S W T03280178=
201809201852 METAR KATL 201852Z VRB03KT 10SM SCT060 34/19 A3010 RMK AO2 SLP179 MDT CU NE-SE SW-NW T03390189=
201809201752 METAR KATL 201752Z 09005KT 10SM SCT055 33/18 A3013 RMK AO2 SLP189 MDT CU SE-SW NW T03330183 10333 20239 58014=
201809201652 METAR KATL 201652Z 16005KT 10SM SCT055 33/19 A3015 RMK AO2 SLP197 MDT CU NE W T03280189=
201809201552 METAR KATL 201552Z VRB06KT 10SM FEW055 32/18 A3017 RMK AO2 SLP203 T03170183=
201809201452 METAR KATL 201452Z VRB03KT 10SM CLR 31/19 A3017 RMK AO2 SLP203 T03060194 51018=
201809201352 METAR KATL 201352Z 10003KT 10SM FEW065 FEW250 28/19 A3016 RMK AO2 SLP200 T02780194=
201809201252 METAR KATL 201252Z 09005KT 10SM FEW100 FEW250 25/18 A3014 RMK AO2 SLP193 T02500183=
201809201152 METAR KATL 201152Z 10003KT 9SM FEW090 FEW250 24/18 A3011 RMK AO2 SLP185 T02390183 10261 20233 53019=
201809201052 METAR KATL 201052Z 10003KT 10SM FEW085 23/18 A3008 RMK AO2 SLP176 T02330178=
201809200952 METAR KATL 200952Z 09003KT 10SM CLR 24/18 A3007 RMK AO2 SLP170 T02390178=
201809200852 METAR KATL 200852Z 00000KT 10SM CLR 24/18 A3006 RMK AO2 SLP166 T02440178 55000=
201809200752 METAR KATL 200752Z 00000KT 10SM FEW100 24/18 A3005 RMK AO2 SLP164 T02440178=
201809200652 METAR KATL 200652Z 12003KT 10SM FEW100 26/18 A3005 RMK AO2 SLP162 T02560178=
201809200552 METAR KATL 200552Z 08004KT 10SM FEW075 FEW100 26/18 A3006 RMK AO2 SLP165 T02610178 10317 20256 50004=
201809200452 METAR KATL 200452Z 00000KT 10SM FEW070 27/18 A3006 RMK AO2 SLP166 T02670178 403440233=
201809200352 METAR KATL 200352Z 08003KT 10SM CLR 28/17 A3005 RMK AO2 SLP164 T02830172=
201809200252 METAR KATL 200252Z 09004KT 10SM FEW070 28/17 A3005 RMK AO2 SLP162 T02830172 51017=
201809200152 METAR KATL 200152Z 09005KT 10SM FEW070 29/17 A3003 RMK AO2 SLP158 T02890172=
201809200052 METAR KATL 200052Z 05007KT 10SM FEW070 31/16 A3001 RMK AO2 SLP150 T03060161=
201809192352 METAR KATL 192352Z 00000KT 10SM FEW070 32/16 A2999 RMK AO2 SLP144 MDT CU SW T03170161 10344 20317 53005=
201809192252 METAR KATL 192252Z 31005KT 10SM SCT065 32/17 A2999 RMK AO2 SLP142 MDT CU OHD-NE & SW T03220172=
201809192152 METAR KATL 192152Z 08005KT 10SM SCT065 33/17 A2998 RMK AO2 SLP139 MDT CU OHD-SW & E T03330167=
201809192052 METAR KATL 192052Z 32006KT 10SM FEW065 33/17 A2998 RMK AO2 SLP139 MDT CU N SW T03280167 56017=
201809191952 METAR KATL 191952Z VRB03KT 10SM SCT065 33/17 A2999 RMK AO2 SLP143 MDT CU NE T03330172=
201809191852 METAR KATL 191852Z 05007KT 10SM FEW060 34/17 A3001 RMK AO2 SLP148 T03390172=
201809191752 METAR KATL 191752Z 00000KT 10SM FEW050 32/19 A3003 RMK AO2 SLP157 T03220194 10333 20239 58011=
201809191652 METAR KATL 191652Z 00000KT 10SM FEW045 FEW120 32/21 A3005 RMK AO2 SLP163 T03170206=
201809191552 METAR KATL 191552Z 09004KT 10SM FEW050 FEW120 31/19 A3006 RMK AO2 SLP167 T03060194=
201809191452 METAR KATL 191452Z 10004KT 10SM CLR 29/20 A3006 RMK AO2 SLP168 T02890200 51015=
201809191352 METAR KATL 191352Z 09003KT 10SM FEW120 28/20 A3005 RMK AO2 SLP163 T02780200=
201809191252 METAR KATL 191252Z 07004KT 10SM FEW150 26/19 A3004 RMK AO2 SLP159 T02560194=
201809191152 METAR KATL 191152Z 07005KT 10SM FEW150 24/19 A3002 RMK AO2 SLP154 T02390194 10250 20233 53016=
201809191052 METAR KATL 191052Z 04003KT 10SM FEW150 23/19 A3000 RMK AO2 SLP146 T02330194=
201809190952 METAR KATL 190952Z 02004KT 10SM CLR 24/19 A2999 RMK AO2 SLP142 T02390194=
201809190852 METAR KATL 190852Z 03003KT 10SM CLR 24/19 A2997 RMK AO2 SLP136 T02390194 58001=
201809190752 METAR KATL 190752Z 01004KT 10SM CLR 24/19 A2997 RMK AO2 SLP137 T02440194=
201809190652 METAR KATL 190652Z 36004KT 10SM CLR 24/19 A2997 RMK AO2 SLP136 T02440194=
201809190552 METAR KATL 190552Z 34004KT 10SM CLR 25/19 A2997 RMK AO2 SLP137 T02500194 10300 20244 50001=
201809190452 METAR KATL 190452Z 32005KT 10SM CLR 25/19 A2998 RMK AO2 SLP140 T02500194 403390217=
201809190352 METAR KATL 190352Z 34003KT 10SM CLR 26/19 A2997 RMK AO2 SLP137 T02610194=
201809190252 METAR KATL 190252Z 35006KT 10SM FEW150 28/19 A2997 RMK AO2 SLP136 T02780189 50009=
201809190152 METAR KATL 190152Z 02006KT 10SM FEW050 FEW150 29/19 A2997 RMK AO2 SLP136 T02890189=
201809190052 METAR KATL 190052Z 35008KT 10SM FEW050 FEW150 29/19 A2995 RMK AO2 SLP132 T02940189=
201809182352 METAR KATL 182352Z 33006KT 10SM FEW055 FEW150 30/18 A2994 RMK AO2 SLP127 T03000183 10339 20300 53003=
201809182252 METAR KATL 182252Z 32008KT 10SM FEW055 FEW150 32/18 A2993 RMK AO2 SLP125 T03170178=
201809182152 METAR KATL 182152Z 28008KT 10SM FEW055 FEW200 32/18 A2993 RMK AO2 SLP123 T03220183=
201809182052 METAR KATL 182052Z 33008KT 250V360 10SM FEW055 FEW200 33/19 A2993 RMK AO2 SLP123 CB DSNT N-NE T03330189 56016=
201809181952 METAR KATL 181952Z 29007KT 10SM FEW055 FEW150 33/18 A2994 RMK AO2 SLP126 T03280183=
201809181852 METAR KATL 181852Z 29006G15KT 10SM FEW060 FEW150 33/18 A2996 RMK AO2 SLP133 T03280183=
201809181752 METAR KATL 181752Z 32009KT 10SM FEW055 FEW150 32/18 A2998 RMK AO2 SLP140 T03220183 10328 20222 58013=
201809181652 METAR KATL 181652Z 32010KT 10SM FEW050 FEW150 31/19 A3000 RMK AO2 SLP148 T03110189=
201809181552 METAR KATL 181552Z 32008KT 10SM FEW045 FEW065 30/19 A3001 RMK AO2 SLP150 T03000194=
201809181452 METAR KATL 181452Z 32006KT 10SM FEW065 28/20 A3002 RMK AO2 SLP154 T02830200 53004=
201809181352 METAR KATL 181352Z 29004KT 10SM FEW065 FEW250 26/21 A3002 RMK AO2 SLP154 T02610206=
201809181252 METAR KATL 181252Z 32008KT 10SM FEW060 24/20 A3001 RMK AO2 SLP151 T02390200=
201809181152 METAR KATL 181152Z 31005KT 10SM FEW060 22/19 A3001 RMK AO2 SLP150 T02220194 10239 20217 51006=
201809181052 METAR KATL 181052Z 30005KT 10SM FEW060 22/19 A3000 RMK AO2 SLP149 T02220194=
201809180952 METAR KATL 180952Z 31006KT 10SM CLR 22/19 A3000 RMK AO2 SLP146 T02220194=
201809180852 METAR KATL 180852Z 31006KT 10SM FEW070 23/20 A2999 RMK AO2 SLP143 T02280200 50000=
201809180752 METAR KATL 180752Z 31004KT 10SM FEW070 23/20 A2999 RMK AO2 SLP142 T02330200=
201809180652 METAR KATL 180652Z 30004KT 10SM FEW070 23/20 A2999 RMK AO2 SLP144 T02330200=
201809180552 METAR KATL 180552Z 30003KT 10SM FEW070 24/20 A2999 RMK AO2 SLP143 T02390200 10294 20239 50002=
201809180452 METAR KATL 180452Z 35003KT 10SM CLR 26/19 A2999 RMK AO2 SLP143 T02560194 403330206=
201809180352 METAR KATL 180352Z 36007KT 10SM CLR 26/19 A2999 RMK AO2 SLP142 T02610194=
201809180252 METAR KATL 180252Z 01008KT 10SM CLR 27/20 A2998 RMK AO2 SLP141 T02720200 51015=
201809180152 METAR KATL 180152Z 01009KT 10SM CLR 28/21 A2998 RMK AO2 SLP140 T02780206=
201809180052 METAR KATL 180052Z 32005KT 10SM CLR 28/20 A2995 RMK AO2 SLP130 T02830200=
201809172352 METAR KATL 172352Z 32006KT 10SM FEW050 29/19 A2994 RMK AO2 SLP127 T02940194 10333 20294 53002=
201809172252 METAR KATL 172252Z 32006KT 10SM FEW050 31/19 A2993 RMK AO2 SLP125 T03110194=
201809172152 METAR KATL 172152Z 29008KT 10SM FEW050 32/19 A2993 RMK AO2 SLP125 MDT CU W & NW-N-NE T03170194=
201809172052 METAR KATL 172052Z 29007KT 10SM SCT050 33/19 A2993 RMK AO2 SLP124 MDT CU N-NE-E S NW T03280194 57012=
201809171952 METAR KATL 171952Z 30008KT 10SM SCT045 32/20 A2995 RMK AO2 SLP130 MDT CU NE SW-NW T03170200=
201809171852 METAR KATL 171852Z VRB05KT 10SM SCT043 33/21 A2995 RMK AO2 SLP132 T03280211=
201809171752 METAR KATL 171752Z 32006KT 10SM SCT038 31/21 A2997 RMK AO2 SLP137 T03110206 10317 20211 58006=
201809171652 METAR KATL 171652Z 25008KT 10SM FEW035 31/21 A2998 RMK AO2 SLP141 T03060206=
201809171552 METAR KATL 171552Z 26011G16KT 10SM SCT030 29/20 A2999 RMK AO2 SLP143 T02940200=
201809171452 METAR KATL 171452Z 24009KT 10SM FEW030 FEW060 29/21 A2999 RMK AO2 SLP144 T02890211 51012=
201809171352 METAR KATL 171352Z 22005KT 10SM FEW020 FEW060 26/21 A2998 RMK AO2 SLP142 T02610206=
201809171252 METAR KATL 171252Z 22005KT 10SM FEW120 23/20 A2997 RMK AO2 SLP140 T02330200=
201809171152 METAR KATL 171152Z 20003KT 10SM FEW120 21/19 A2995 RMK AO2 SLP133 T02110194 10222 20206 51015=
201809171052 METAR KATL 171052Z 00000KT 10SM CLR 21/19 A2994 RMK AO2 SLP130 T02060189=
201809170952 METAR KATL 170952Z 22003KT 10SM CLR 21/19 A2992 RMK AO2 SLP122 T02110189=
201809170852 METAR KATL 170852Z 00000KT 10SM CLR 22/19 A2991 RMK AO2 SLP116 T02170194 51004 $=
201809170752 METAR KATL 170752Z 23003KT 10SM CLR 21/19 A2990 RMK AO2 SLP116 T02110194 $=
201809170652 METAR KATL 170652Z 23003KT 10SM CLR 22/19 A2990 RMK AO2 SLP116 T02170194 $=
201809170552 METAR KATL 170552Z 27006KT 10SM CLR 22/19 A2989 RMK AO2 SLP113 T02220194 10250 20222 50004 $=
201809170452 METAR KATL 170452Z 26005KT 10SM CLR 22/20 A2990 RMK AO2 SLP113 T02220200 402940222 $=
201809170352 METAR KATL 170352Z 27005KT 10SM FEW055 23/20 A2989 RMK AO2 SLP112 T02280200 $=
201809170252 METAR KATL 170252Z 28008KT 10SM FEW075 24/20 A2988 RMK AO2 SLP110 T02390200 51012 $=
201809170152 METAR KATL 170152Z 30006KT 10SM FEW040 SCT070 24/20 A2987 RMK AO2 SLP107 T02440200 $=
201809170052 METAR KATL 170052Z 28007KT 10SM FEW024 SCT040 BKN070 24/20 A2986 RMK AO2 SLP101 T02440200 $=
201809162352 METAR KATL 162352Z 28007KT 10SM FEW024 SCT038 BKN070 25/21 A2985 RMK AO2 SLP098 60000 T02500206 10283 20244 53009 $=
201809162252 METAR KATL 162252Z 29008KT 10SM SCT026 BKN036 BKN075 25/21 A2983 RMK AO2 RAB23E44 SLP092 P0000 T02500211 $=
201809162152 METAR KATL 162152Z 31009KT 10SM SCT022 BKN034 BKN070 27/20 A2983 RMK AO2 SLP090 SHRA DSNT NE T02720200 $=
201809162052 METAR KATL 162052Z 32010KT 10SM FEW028 BKN060 OVC080 28/20 A2982 RMK AO2 SLP087 SHRA NE-E T02780200 56007 $=
201809161952 METAR KATL 161952Z 32013KT 10SM FEW030 OVC055 28/19 A2982 RMK AO2 SLP088 T02780194 $=
201809161852 METAR KATL 161852Z 32013G19KT 10SM SCT031 OVC050 28/20 A2983 RMK AO2 SLP090 T02830200 $=
201809161752 METAR KATL 161752Z 33016G22KT 10SM FEW025 BKN055 OVC080 28/20 A2984 RMK AO2 SLP095 60000 T02830200 10294 20233 58004 $=
201809161652 METAR KATL 161652Z 31008G15KT 10SM FEW044 FEW060 BKN075 BKN150 28/20 A2985 RMK AO2 SLP096 T02830200 $=
201809161552 METAR KATL 161552Z 32014KT 10SM FEW026 OVC070 26/20 A2986 RMK AO2 SLP101 T02610200 $=
201809161452 METAR KATL 161452Z 33013KT 10SM FEW024 SCT042 BKN085 25/19 A2986 RMK AO2 SLP100 60000 T02500194 50000 $=
201809161352 METAR KATL 161352Z 33012G23KT 10SM FEW020 BKN050 OVC075 24/19 A2986 RMK AO2 RAE39 SLP102 P0000 T02440194 $=
201809161252 METAR KATL 161252Z 32012KT 10SM -RA FEW015 BKN049 BKN060 23/20 A2985 RMK AO2 RAE12B50 SLP098 P0000 T02330200 $=
201809161152 METAR KATL 161152Z 32010KT 9SM -RA FEW035 BKN050 23/20 A2986 RMK AO2 RAB09E18B50 SLP100 P0000 60000 T02330200 10261 20233 53007 $=
201809161052 METAR KATL 161052Z 34007KT 10SM BKN060 BKN075 24/20 A2985 RMK AO2 SLP095 T02390200 $=
201809160952 METAR KATL 160952Z 33007KT 10SM BKN050 24/21 A2984 RMK AO2 SLP094 T02390206 $=
201809160852 METAR KATL 160852Z 33008KT 10SM BKN055 25/19 A2984 RMK AO2 SLP091 T02500194 58015 $=
201809160752 METAR KATL 160752Z 34005KT 10SM BKN050 BKN075 25/20 A2986 RMK AO2 SLP099 T02500200 $=
201809160652 METAR KATL 160652Z 33008KT 10SM BKN055 BKN090 24/21 A2988 RMK AO2 SLP104 T02440211 $=
201809160552 METAR KATL 160552Z 30006KT 10SM FEW032 FEW049 BKN090 24/21 A2988 RMK AO2 SLP107 T02440206 10272 20244 57011 $=
201809160452 METAR KATL 160452Z 34008KT 10SM FEW040 BKN065 BKN090 BKN200 25/21 A2989 RMK AO2 SLP110 ACC OHD-ALQDS SHRA DSNT N-NE T02500206 403500228 $=
201809160352 METAR KATL 160352Z 31007KT 10SM FEW065 BKN085 BKN200 24/21 A2991 RMK AO2 SLP115 T02440206 $=
201809160252 METAR KATL 160252Z 34007KT 10SM FEW030 SCT060 SCT110 BKN200 25/21 A2992 RMK AO2 SLP118 T02500206 50003 $=
201809160152 METAR KATL 160152Z 32007KT 10SM FEW030 SCT060 SCT100 BKN200 25/21 A2992 RMK AO2 SLP120 T02500211 $=
201809160052 METAR KATL 160052Z VRB06KT 10SM FEW065 SCT100 BKN200 26/21 A2992 RMK AO2 SLP119 T02610211 $=
201809152352 METAR KATL 152352Z 32009KT 10SM FEW026 SCT070 BKN100 BKN200 27/21 A2991 RMK AO2 SLP117 TCU DSNT NE ACC S-W SHRA DSNT W-NW T02670211 10350 20267 51008 $=
201809152252 METAR KATL 152252Z 03010KT 10SM FEW030 BKN070 BKN100 BKN200 29/18 A2990 RMK AO2 SLP115 VIRGA N-NE CB DSNT SW-NW TCU DSNT NE-E ACC OHD-ALQDS T02940183 $=
201809152152 METAR KATL 152152Z 04010G22KT 10SM FEW028 BKN060CB BKN110 BKN200 30/18 A2989 RMK AO2 PK WND 05026/2119 LTG DSNT NW SLP110 CB W-NW MOV SW CB DSNT SW-NW SHRA SE W-NW T03000183 $=
201809152052 METAR KATL 152052Z 04010KT 10SM FEW060TCU BKN110 32/19 A2988 RMK AO2 SLP106 TCU SE T03170189 56008 $=
201809151952 METAR KATL 151952Z 06014KT 10SM BKN060 BKN085 33/18 A2988 RMK AO2 SLP107 T03280183 $=
201809151852 METAR KATL 151852Z 03011G22KT 010V080 10SM BKN070 BKN085 34/18 A2989 RMK AO2 SLP108 T03440183 $=
201809151752 METAR KATL 151752Z 06013KT 10SM BKN060 33/18 A2991 RMK AO2 SLP114 T03330183 10339 20233 56015 $=
201809151652 METAR KATL 151652Z 04008KT 10SM FEW060 FEW250 33/18 A2992 RMK AO2 WSHFT 1555 SLP117 T03280178 $=
201809151615 SPECI KATL 151615Z 03013KT 010V070 10SM FEW049 FEW250 32/18 A2993 RMK AO2 WSHFT 1555 T03220183 $=
201809151552 METAR KATL 151552Z 32005KT 10SM FEW050 FEW250 32/19 A2994 RMK AO2 SLP124 T03170194 $=
201809151452 METAR KATL 151452Z 35005KT 10SM FEW250 30/20 A2995 RMK AO2 SLP130 T03000200 53009 $=
201809151352 METAR KATL 151352Z 33008KT 10SM FEW250 28/21 A2994 RMK AO2 SLP126 T02780206 $=
201809151252 METAR KATL 151252Z 33008KT 10SM FEW200 FEW250 26/21 A2993 RMK AO2 SLP124 T02560206 $=
201809151152 METAR KATL 151152Z 33007KT 10SM FEW200 FEW250 23/20 A2993 RMK AO2 SLP122 T02330200 10256 20228 53004 $=
201809151052 METAR KATL 151052Z 32005KT 10SM FEW060 FEW200 SCT250 23/20 A2992 RMK AO2 SLP118 T02280200 $=
201809150952 METAR KATL 150952Z 33007KT 10SM FEW250 23/20 A2991 RMK AO2 SLP117 T02330200 $=
201809150852 METAR KATL 150852Z 33008KT 10SM FEW250 24/20 A2991 RMK AO2 SLP117 T02390200 56006 $=
201809150752 METAR KATL 150752Z 33006KT 10SM FEW250 24/20 A2992 RMK AO2 SLP117 T02440200 $=
201809150652 METAR KATL 150652Z 33007KT 10SM FEW250 25/21 A2992 RMK AO2 SLP119 T02500206 $=
201809150552 METAR KATL 150552Z 34007KT 300V360 10SM FEW055 FEW250 26/21 A2993 RMK AO2 SLP122 T02560206 10306 20256 58005 $=
201809150452 METAR KATL 150452Z 34006KT 10SM FEW055 SCT250 26/21 A2994 RMK AO2 SLP127 T02610206 403500233 $=
201809150352 METAR KATL 150352Z 34006KT 10SM SCT250 27/21 A2995 RMK AO2 SLP128 T02720206 $=
201809150252 METAR KATL 150252Z 34006KT 10SM FEW055 SCT250 28/21 A2995 RMK AO2 SLP128 T02830206 51011 $=
201809150152 METAR KATL 150152Z 34007KT 10SM FEW055 SCT250 28/21 A2994 RMK AO2 SLP127 CB DSNT E T02830206 $=
201809150052 METAR KATL 150052Z 33009KT 10SM FEW055 SCT250 29/21 A2993 RMK AO2 SLP122 CB DSNT NE T02940206 $=
201809142352 METAR KATL 142352Z 33011KT 10SM SCT055 SCT250 31/21 A2991 RMK AO2 SLP117 TCU DSNT NE T03060206 10350 20306 55001 $=
201809142252 METAR KATL 142252Z 32013KT 10SM FEW055 SCT250 33/20 A2991 RMK AO2 SLP115 T03280200 $=
201809142152 METAR KATL 142152Z 34007KT 10SM FEW055 SCT250 34/20 A2991 RMK AO2 SLP115 T03390200 $=
201809142052 METAR KATL 142052Z 33007KT 10SM FEW055 SCT250 34/20 A2991 RMK AO2 SLP117 T03390200 56016=
201809141952 METAR KATL 141952Z 34008KT 10SM FEW055 SCT250 34/20 A2992 RMK AO2 SLP119 T03390200=
201809141852 METAR KATL 141852Z 35011G17KT 300V020 10SM FEW050 SCT250 34/19 A2994 RMK AO2 SLP125 T03390194=
201809141752 METAR KATL 141752Z 31007KT 290V350 10SM FEW045 FEW200 SCT250 33/22 A2996 RMK AO2 SLP133 T03330217 10333 20239 58023=
201809141652 METAR KATL 141652Z 29008KT 10SM FEW040 SCT250 SCT300 32/22 A2999 RMK AO2 SLP143 T03170222=
201809141552 METAR KATL 141552Z 29006KT 10SM FEW030 SCT250 SCT300 31/23 A3002 RMK AO2 SLP152 T03060233=
201809141452 METAR KATL 141452Z 31008KT 10SM FEW025 FEW250 SCT300 29/23 A3003 RMK AO2 SLP158 T02890228 53000=
201809141352 METAR KATL 141352Z 28005KT 10SM BKN250 28/23 A3003 RMK AO2 SLP157 T02780228=
201809141252 METAR KATL 141252Z 31007KT 10SM FEW100 BKN200 BKN250 26/22 A3003 RMK AO2 SLP158 T02560222=
201809141152 METAR KATL 141152Z 32005KT 10SM SCT200 BKN250 24/22 A3003 RMK AO2 SLP160 T02390217 10261 20233 53002=
201809141052 METAR KATL 141052Z 33004KT 10SM FEW140 SCT200 BKN250 24/22 A3003 RMK AO2 SLP159 T02390217=
201809140952 METAR KATL 140952Z 34005KT 10SM FEW120 SCT200 BKN250 24/22 A3002 RMK AO2 SLP155 T02390217=
201809140852 METAR KATL 140852Z 33005KT 10SM FEW120 SCT200 BKN250 24/22 A3003 RMK AO2 SLP157 T02390222 56003=
201809140752 METAR KATL 140752Z 33004KT 10SM FEW140 SCT200 BKN250 24/22 A3003 RMK AO2 SLP156 T02440217 $=
201809140652 METAR KATL 140652Z 33005KT 10SM FEW110 BKN200 BKN250 24/22 A3003 RMK AO2 SLP157 T02440217 $=
201809140552 METAR KATL 140552Z 08005KT 10SM FEW050 SCT110 BKN200 OVC250 26/22 A3004 RMK AO2 SLP159 T02560222 10278 20250 58009 $=
201809140452 METAR KATL 140452Z 02003KT 10SM FEW100 BKN200 BKN250 26/22 A3005 RMK AO2 SLP164 T02560222 403170239 $=
201809140352 METAR KATL 140352Z 31004KT 10SM FEW100 BKN250 26/22 A3006 RMK AO2 SLP169 T02560217 $=
201809140252 METAR KATL 140252Z 25004KT 10SM FEW030 FEW060 BKN250 26/22 A3007 RMK AO2 SLP170 T02610222 50008 $=
201809140152 METAR KATL 140152Z 30004KT 10SM FEW030 SCT200 OVC250 27/22 A3007 RMK AO2 SLP173 T02720217 $=
201809140052 METAR KATL 140052Z 30004KT 10SM FEW030 SCT070 BKN200 OVC250 27/22 A3005 RMK AO2 LTG DSNT SW SLP167 CB DSNT SW T02670217 $=
201809132352 METAR KATL 132352Z 31006KT 10SM FEW030TCU SCT200 OVC250 27/22 A3004 RMK AO2 SLP163 CB DSNT SW TCU E & SE-SW T02720217 10317 20272 53004=
201809132252 METAR KATL 132252Z 17003KT 10SM SCT035CB BKN250 30/22 A3002 RMK AO2 SLP154 CB NE & NW MOV SW T03000217=
201809132152 METAR KATL 132152Z 04004KT 10SM SCT040TCU BKN250 31/21 A3002 RMK AO2 SLP154 TCU NW-N & DSNT NE T03110206=
201809132052 METAR KATL 132052Z 18005KT 10SM FEW040 SCT050 BKN250 31/22 A3003 RMK AO2 SLP158 CB DSNT W-NW-N TCU DSNT NW-N T03060217 57019=
201809131952 METAR KATL 131952Z 00000KT 10SM FEW040TCU FEW050 BKN250 31/22 A3005 RMK AO2 SLP163 CB DSNT NW-N TCU NE SW-W T03060217=
201809131937 SPECI KATL 131937Z 11005KT 10SM FEW040CB SCT050TCU BKN250 31/21 A3005 RMK AO2 CB N MOV SW TCU W SHRA VC N T03060211=
201809131852 METAR KATL 131852Z VRB04KT 10SM FEW035TCU SCT050 BKN250 31/22 A3007 RMK AO2 SLP171 TCU E S-SW-W MDT CU N-NE T03060222=
201809131752 METAR KATL 131752Z VRB05KT 10SM FEW034 SCT044 BKN250 30/22 A3009 RMK AO2 SLP177 MDT CU S-SW-W-NW-N T03000217 10311 20239 58019=
201809131652 METAR KATL 131652Z VRB04KT 10SM FEW030TCU SCT150 BKN250 29/22 A3011 RMK AO2 SLP183 TCU N E T02890222=
201809131552 METAR KATL 131552Z 08005KT 10SM FEW020 BKN025 BKN250 28/23 A3013 RMK AO2 SLP192 T02830228=
201809131459 SPECI KATL 131459Z 09006KT 10SM BKN015 BKN020 BKN250 26/22 A3015 RMK AO2 T02610222=
201809131452 METAR KATL 131452Z 08008KT 10SM BKN013 BKN020 BKN250 27/23 A3014 RMK AO2 SLP197 T02670228 53006=
201809131352 METAR KATL 131352Z 08006KT 10SM BKN010 BKN150 BKN250 27/23 A3013 RMK AO2 SLP193 T02670228=
201809131348 SPECI KATL 131348Z 07007KT 10SM BKN010 BKN150 BKN250 27/23 A3013 RMK AO2=
201809131252 METAR KATL 131252Z 06009KT 8SM BKN008 BKN140 BKN250 24/22 A3012 RMK AO2 SLP190 T02440222=
201809131224 SPECI KATL 131224Z 06009KT 7SM BKN008 BKN140 BKN250 24/22 A3012 RMK AO2 T02440217=
201809131152 METAR KATL 131152Z 07010KT 7SM FEW006 FEW024 SCT140 BKN250 24/22 A3012 RMK AO2 SLP188 CB DSNT NE SE ACC NE 60005 70013 T02390217 10256 20239 53012=
201809131052 METAR KATL 131052Z 06009KT 10SM FEW024 SCT140 BKN250 24/22 A3010 RMK AO2 SLP181 T02390217=
201809130952 METAR KATL 130952Z 06008KT 10SM FEW010 FEW075 SCT150 BKN250 24/22 A3008 RMK AO2 SLP174 T02390217=
201809130852 METAR KATL 130852Z 07006KT 10SM FEW028 FEW070 SCT140 BKN250 24/22 A3008 RMK AO2 SLP174 60005 T02390217 58005=
201809130752 METAR KATL 130752Z 08010KT 10SM FEW034TCU SCT070 BKN140 BKN250 24/22 A3009 RMK AO2 RAB16E47 SLP179 TCU N P0005 T02440222 $=
201809130652 METAR KATL 130652Z 08008KT 10SM SCT032TCU BKN070 BKN140 BKN250 25/21 A3010 RMK AO2 SLP181 TCU NE-SE T02500211 $=
201809130552 METAR KATL 130552Z 09006KT 10SM FEW030 SCT065 BKN140 BKN250 26/22 A3010 RMK AO2 SLP179 T02560222 10278 20256 58002 $=
201809130452 METAR KATL 130452Z 06006KT 10SM FEW034TCU SCT065 SCT150 BKN250 26/22 A3011 RMK AO2 SLP183 TCU N & E & SE T02610217 403220228 $=
201809130352 METAR KATL 130352Z 00000KT 10SM FEW030 FEW080 SCT150 BKN250 26/23 A3011 RMK AO2 SLP185 T02560228 $=
201809130252 METAR KATL 130252Z 10003KT 10SM FEW150 SCT250 27/22 A3010 RMK AO2 SLP182 T02720217 53011 $=
201809130152 METAR KATL 130152Z 11004KT 10SM FEW150 SCT250 27/22 A3009 RMK AO2 SLP178 T02720217=
201809130052 METAR KATL 130052Z 10004KT 10SM FEW100 SCT200 BKN250 27/22 A3007 RMK AO2 SLP173 T02720217=
201809122352 METAR KATL 122352Z 17003KT 10SM FEW100 SCT200 BKN250 27/23 A3007 RMK AO2 SLP173 60008 T02720228 10322 20256 53006=
201809122252 METAR KATL 122252Z 25003KT 10SM FEW030 SCT080 SCT150 BKN200 28/23 A3006 RMK AO2 LTG DSNT NW RAB04E13 TSE20 SLP168 CB DSNT SW & NW P0000 T02780233=
201809122220 SPECI KATL 122220Z 13004KT 10SM FEW030TCU SCT080 BKN150 BKN200 27/23 A3005 RMK AO2 RAB04E13 TSE20 TS DSIPTD CB DSNT N & S-SW & NW TCU NW-N-NE P0000 T02720233=
201809122152 METAR KATL 122152Z 31004KT 10SM TS FEW035CB SCT050 BKN080 BKN200 28/23 A3006 RMK AO2 SLP169 RAB03E28 TSB35 OCNL LTGIC SE-S TS SE-S MOV W CB NE & SE-S & SW & NW MOV W P0008 T02780228=
201809122138 SPECI KATL 122138Z 28004KT 10SM TS FEW035CB SCT050 BKN080 BKN200 27/23 A3006 RMK AO2 RAB03E28 TSB35 OCNL LTGIC SE TS VC SE MOV W CB SE & NW MOV W P0008 T02670228=
201809122052 METAR KATL 122052Z 30006KT 10SM BKN040CB BKN050 BKN070 32/22 A3005 RMK AO2 SLP164 CB N OHD-E W MOV W SHRA VC N E W T03170222 56019=
201809121952 METAR KATL 121952Z VRB05KT 10SM FEW040TCU SCT060 SCT150 30/21 A3006 RMK AO2 SLP169 TCU N S SW-NW SHRA VC SW-W T03000211=
201809121852 METAR KATL 121852Z 12006KT 10SM SCT037TCU SCT150 31/21 A3009 RMK AO2 SLP178 TCU N-NE SE-SW-NW SHRA VC NE T03060211=
201809121752 METAR KATL 121752Z 06004KT 10SM BKN030TCU BKN150 BKN250 31/22 A3011 RMK AO2 SLP184 TCU NE S W NW MDT CU ALQDS T03110222 10317 20244 58010=
201809121652 METAR KATL 121652Z 09009KT 10SM BKN025 BKN150 BKN250 29/22 A3013 RMK AO2 SLP191 MDT CU ALQDS T02940222=
201809121552 METAR KATL 121552Z 12007KT 10SM FEW020 FEW150 SCT250 29/22 A3014 RMK AO2 SLP196 T02890222=
201809121548 SPECI KATL 121548Z 12007KT 080V140 10SM FEW020 FEW150 SCT250 29/23 A3014 RMK AO2=
201809121452 METAR KATL 121452Z 10009KT 10SM BKN015 BKN030 BKN250 28/22 A3015 RMK AO2 SLP198 T02780222 51013=
201809121352 METAR KATL 121352Z 07006KT 10SM SCT010 SCT250 26/22 A3013 RMK AO2 SLP195 T02560217=
201809121333 SPECI KATL 121333Z 07008KT 8SM SCT010 SCT200 BKN250 25/22 A3013 RMK AO2 T02500217=
201809121326 SPECI KATL 121326Z VRB05KT 8SM BKN010 BKN200 BKN250 25/22 A3013 RMK AO2 T02500217=
201809121307 SPECI KATL 121307Z 08006KT 7SM BKN008 BKN200 BKN250 25/22 A3013 RMK AO2 T02500217=
201809121252 METAR KATL 121252Z 10007KT 7SM SCT008 SCT200 BKN250 24/22 A3012 RMK AO2 SLP191 T02440217=
201809121152 METAR KATL 121152Z 08007KT 040V110 3SM BR SCT005 SCT200 BKN250 23/21 A3011 RMK AO2 SFC VIS 6 SLP185 70019 T02280211 10244 20228 53012=
201809121135 SPECI KATL 121135Z 08007KT 3SM BR SCT005 BKN200 BKN250 23/21 A3010 RMK AO2 SFC VIS 6 T02280211=
201809121118 SPECI KATL 121118Z 09007KT 7SM SCT005 BKN200 BKN250 23/21 A3010 RMK AO2 T02280211=
201809121052 METAR KATL 121052Z 08006KT 7SM BKN005 BKN200 BKN250 23/22 A3009 RMK AO2 SLP180 CIG 003V007 T02330217=
201809121021 SPECI KATL 121021Z 07006KT 7SM BKN005 BKN200 BKN250 23/22 A3008 RMK AO2 T02330217=
201809120952 METAR KATL 120952Z 08006KT 8SM FEW007 SCT200 BKN250 23/22 A3007 RMK AO2 SLP174 T02330217=
201809120852 METAR KATL 120852Z 00000KT 10SM FEW008 FEW050 SCT200 BKN250 23/21 A3007 RMK AO2 SLP172 T02330211 55000=
201809120752 METAR KATL 120752Z 04003KT 10SM SCT200 BKN250 24/22 A3006 RMK AO2 SLP170 T02440217=
201809120652 METAR KATL 120652Z 00000KT 10SM FEW140 SCT200 SCT250 24/22 A3006 RMK AO2 SLP170 T02390217=
201809120552 METAR KATL 120552Z 00000KT 10SM FEW050 SCT200 BKN250 24/22 A3007 RMK AO2 SLP171 T02390217 10272 20233 58006=
201809120452 METAR KATL 120452Z 32003KT 10SM FEW050 SCT200 BKN250 24/22 A3008 RMK AO2 SLP174 T02440217 403110228=
201809120352 METAR KATL 120352Z 31003KT 10SM FEW050 SCT150 BKN250 24/22 A3009 RMK AO2 SLP177 T02440217=
201809120252 METAR KATL 120252Z 23004KT 10SM FEW050 SCT150 BKN250 25/22 A3009 RMK AO2 SLP177 CB DSNT NW T02500217 51014=
201809120152 METAR KATL 120152Z 20011G17KT 10SM FEW012 FEW050 SCT150 BKN250 26/22 A3008 RMK AO2 SLP175 T02560222=
201809120052 METAR KATL 120052Z 00000KT 10SM SCT050 BKN075 BKN150 BKN250 27/22 A3007 RMK AO2 LTG DSNT W SLP170 CB DSNT SE-S & SW-W T02670217=
201809112352 METAR KATL 112352Z 11005KT 10SM FEW060 SCT150 SCT250 27/22 A3004 RMK AO2 SLP164 CB DSNT SE & SW TCU DSNT NW 60019 T02670217 10311 20244 51005=
201809112252 METAR KATL 112252Z 09005KT 10SM FEW025 SCT060 BKN150 BKN250 28/21 A3004 RMK AO2 SLP163 CB DSNT S-SW T02780211=
201809112152 METAR KATL 112152Z 09004KT 10SM FEW020 SCT150 BKN200 BKN250 28/22 A3003 RMK AO2 SLP159 CB DSNT S-SW T02780217=
201809112052 METAR KATL 112052Z VRB05KT 10SM FEW020 SCT100 BKN150 BKN250 27/22 A3003 RMK AO2 LTG DSNT S RAB1955E38 SLP158 CB DSNT SE-S TCU DSNT SW P0019 60019 T02720222 56017=
201809112000 SPECI KATL 112000Z 14007KT 4SM RA BKN030CB BKN040TCU BKN250 27/21 A3005 RMK AO2 RAB1955 VIS LWR E-SE-S SHRA CB OHD-E-SE-S MOV SW TCU SW-NW P0000 T02670211=
201809111957 SPECI KATL 111957Z 14006KT 6SM RA BKN030CB BKN040TCU BKN250 27/21 A3005 RMK AO2 RAB55 VIS LWR E-SE-S SHRA CB OHD-E-SE-S MOV SW TCU SW-NW P0000 T02670211=
201809111952 METAR KATL 111952Z 10004KT 10SM BKN030CB BKN040TCU BKN250 27/21 A3005 RMK AO2 LTG DSNT E SLP164 CB E-SE-S MOV SW TCU SW-NW SHRA VC E-SE-S T02670206=
201809111920 SPECI KATL 111920Z 06007KT 10SM VCTS FEW035CB BKN045TCU BKN250 29/21 A3005 RMK AO2 LTG DSNT NE OCNL LTGICCG E-SE TS VC E-SE MOV W TCU OHD ALQDS SHRA VC E-SE T02940211=
201809111912 SPECI KATL 111912Z VRB06KT 10SM VCTS FEW030CB BKN050 BKN060 BKN250 30/21 A3005 RMK AO2 LTG DSNT NE AND E OCNL LTGICCG E TS VC E MOV W SHRA VC E T03000211=
201809111852 METAR KATL 111852Z 32006KT 10SM BKN037TCU BKN050 BKN250 30/21 A3006 RMK AO2 LTG DSNT E SLP166 CB DSNT NE-SE TCU OHD-NE-SE-SW DSNT NW SHRA DSNT NE-SE T03000211=
201809111752 METAR KATL 111752Z VRB05KT 10SM BKN035TCU BKN045 BKN250 29/21 A3008 RMK AO2 SLP175 CB DSNT NE TCU OHD ALQDS SHRA DSNT NE T02940211 10311 20233 58004=
201809111652 METAR KATL 111652Z 31006KT 10SM BKN030TCU BKN040 BKN250 29/21 A3009 RMK AO2 SLP178 TCU OHD-NE-SE-S SW T02940211=
201809111552 METAR KATL 111552Z 35004KT 10SM BKN025TCU BKN045 BKN250 30/22 A3010 RMK AO2 SLP179 TCU OHD-N-E-S T03000217=
201809111452 METAR KATL 111452Z VRB04KT 10SM SCT025 SCT250 28/22 A3009 RMK AO2 SLP179 T02780217 51013=
201809111352 METAR KATL 111352Z 00000KT 10SM FEW020 FEW250 27/22 A3008 RMK AO2 SLP176 T02670217=
201809111252 METAR KATL 111252Z 31004KT 10SM FEW018 BKN250 25/21 A3007 RMK AO2 SLP173 T02500211=
201809111152 METAR KATL 111152Z 36005KT 10SM FEW150 BKN250 23/21 A3005 RMK AO2 SLP167 70003 T02330206 10250 20228 53011=
201809111052 METAR KATL 111052Z 33003KT 10SM FEW150 SCT250 24/21 A3003 RMK AO2 SLP158 T02390211=
201809110952 METAR KATL 110952Z 04003KT 10SM FEW090 FEW200 24/21 A3002 RMK AO2 SLP155 T02390211=
201809110852 METAR KATL 110852Z 33006KT 10SM FEW090 SCT200 23/21 A3002 RMK AO2 SLP154 T02330211 58003=
201809110752 METAR KATL 110752Z 34005KT 10SM FEW080 BKN200 24/21 A3002 RMK AO2 SLP155 T02390211 $=
201809110652 METAR KATL 110652Z 01004KT 10SM FEW050 BKN200 25/21 A3003 RMK AO2 SLP156 T02500211 $=
201809110552 METAR KATL 110552Z 34004KT 10SM FEW060 BKN200 24/22 A3003 RMK AO2 SLP156 T02440217 10261 20244 50001 $=
201809110452 METAR KATL 110452Z 01004KT 10SM FEW025 SCT130 BKN200 26/21 A3004 RMK AO2 SLP160 T02560211 403110222 $=
201809110352 METAR KATL 110352Z VRB04KT 10SM FEW080 BKN120 BKN250 26/21 A3004 RMK AO2 SLP160 T02560211 $=
201809110252 METAR KATL 110252Z 33006KT 10SM FEW080 BKN130 BKN250 26/21 A3003 RMK AO2 SLP156 T02560211 51021 $=
201809110152 METAR KATL 110152Z 32005KT 10SM FEW080 BKN130 BKN250 26/21 A3002 RMK AO2 SLP155 T02560211 $=
201809110052 METAR KATL 110052Z 28007KT 10SM FEW080 BKN150 BKN250 26/21 A2999 RMK AO2 SLP146 T02560211 $=
201809102352 METAR KATL 102352Z 29007KT 10SM FEW030 SCT120 SCT200 BKN250 27/22 A2996 RMK AO2 SLP135 60003 T02670217 10311 20267 53007 $=
201809102252 METAR KATL 102252Z 29005KT 10SM FEW030 SCT110 SCT150 BKN250 28/22 A2995 RMK AO2 LTG DSNT N SLP131 CB DSNT N-NE TCU DSNT SW T02780217 $=
201809102152 METAR KATL 102152Z 20005KT 10SM FEW030 SCT080 BKN110 BKN200 28/22 A2994 RMK AO2 LTG DSNT N AND E RAB29E41 SLP127 CB DSNT NE-E & SW P0000 T02830222 $=
201809102052 METAR KATL 102052Z 27008KT 10SM FEW035TCU FEW095 BKN110 BKN250 31/22 A2994 RMK AO2 LTG DSNT SE RAB15E26 SLP127 CB DSNT SE TCU SE SW DSNT NW SHRA VC SE P0000 60003 T03060217 58010 $=
201809101952 METAR KATL 101952Z 31009KT 10SM FEW040 FEW070 SCT100 SCT250 31/22 A2995 RMK AO2 SLP131 CB DSNT NE W TCU DSNT SE T03060217 $=
201809101852 METAR KATL 101852Z 27009KT 10SM FEW030CB SCT070 BKN090 BKN250 30/22 A2997 RMK AO2 RAB00E12B25E40 SLP137 CB NW MOV NE TCU DSNT E-SE SHRA VC NW P0003 T03000222 $=
201809101814 SPECI KATL 101814Z 28010KT 10SM FEW030CB BKN045TCU BKN100 BKN250 29/23 A2997 RMK AO2 RAB00E12 CB NE MOV NE TCU OHD & ALQDS SHRA VC NE P0003 T02890233 $=
201809101805 SPECI KATL 101805Z 30007KT 5SM R09R/5000VP6000FT -RA FEW030CB BKN040TCU BKN100 BKN250 27/23 A2997 RMK AO2 RAB00 CB OHD MOV NE TCU OHD & ALQDS P0003 T02720228 $=
201809101752 METAR KATL 101752Z 29012KT 10SM BKN036TCU BKN100 BKN250 31/21 A2997 RMK AO2 SLP137 TCU OHD & ALQDS SHRA VC NW-N T03060211 10311 20228 58007 $=
201809101652 METAR KATL 101652Z 28008KT 10SM SCT032CB SCT085 BKN250 30/21 A2998 RMK AO2 LTG DSNT N SLP142 CB DSNT N-NE CB SW-NW MOV NE SHRA VC SW-NW TCU DSNT NE-SE T03000211=
201809101552 METAR KATL 101552Z 27006KT 10SM SCT030 SCT085 BKN250 28/22 A3000 RMK AO2 SLP147 T02830217=
201809101452 METAR KATL 101452Z 22006KT 10SM FEW025 BKN085 BKN250 28/22 A2999 RMK AO2 SLP145 T02830217 53011=
201809101352 METAR KATL 101352Z 23004KT 10SM FEW120 SCT150 SCT180 BKN250 27/22 A2998 RMK AO2 SLP140 ACC DSNT W T02720217=
201809101252 METAR KATL 101252Z 21004KT 10SM SCT050 BKN150 BKN250 24/21 A2997 RMK AO2 SLP139 T02440211=
201809101152 METAR KATL 101152Z 22003KT 10SM FEW040 SCT150 SCT200 BKN250 23/21 A2996 RMK AO2 SLP135 70074 T02280206 10244 20222 53018=
201809101052 METAR KATL 101052Z 25003KT 10SM FEW040 SCT200 SCT250 23/21 A2993 RMK AO2 SLP125 T02280206=
201809100952 METAR KATL 100952Z 00000KT 10SM FEW040 SCT200 BKN250 23/21 A2991 RMK AO2 SLP118 T02280206=
201809100852 METAR KATL 100852Z 22003KT 10SM FEW040 SCT200 BKN250 23/21 A2991 RMK AO2 SLP116 T02280206 56009=
201809100752 METAR KATL 100752Z 00000KT 10SM FEW042 SCT200 BKN250 23/21 A2991 RMK AO2 SLP116 T02330206=
201809100652 METAR KATL 100652Z 00000KT 10SM FEW042 FEW055 SCT200 BKN250 24/21 A2992 RMK AO2 SLP119 T02440206=
201809100552 METAR KATL 100552Z 22003KT 10SM FEW047 BKN060 BKN200 24/21 A2993 RMK AO2 SLP125 T02440211 10278 20244 51002=
201809100452 METAR KATL 100452Z 23004KT 10SM FEW050 BKN200 BKN250 24/21 A2993 RMK AO2 SLP126 T02440211 403110222=
201809100352 METAR KATL 100352Z 24004KT 10SM FEW055 BKN200 BKN250 25/21 A2993 RMK AO2 SLP124 T02500211=
201809100252 METAR KATL 100252Z 21004KT 10SM FEW060 BKN200 BKN250 26/22 A2993 RMK AO2 SLP123 T02560217 51024=
201809100152 METAR KATL 100152Z 21005KT 10SM FEW055 BKN200 BKN250 26/22 A2991 RMK AO2 SLP117 T02610217=
201809100052 METAR KATL 100052Z 20003KT 10SM FEW060 BKN200 BKN250 27/22 A2988 RMK AO2 SLP108 T02670217=
201809092352 METAR KATL 092352Z 19004KT 10SM FEW032 FEW085 SCT200 BKN250 28/22 A2986 RMK AO2 SLP099 CB DSNT E SE NW 60001 T02780217 10311 20267 53002=
201809092252 METAR KATL 092252Z 21006KT 10SM FEW035TCU FEW080 SCT200 BKN250 29/22 A2985 RMK AO2 SLP097 CB DSNT NW-NE TCU NE DSNT NE-SE T02940217=
201809092152 METAR KATL 092152Z 20009KT 10SM FEW035 FEW080 SCT200 BKN250 30/21 A2985 RMK AO2 SLP096 CB DSNT N-NE SE TCU DSNT E S NW T03000211=
201809092052 METAR KATL 092052Z 24005KT 10SM FEW035TCU SCT080 BKN250 29/21 A2985 RMK AO2 LTG DSNT NE RAE1955 SLP097 TCU W-N P0000 60001 T02890211 56020=
201809092018 SPECI KATL 092018Z 22011KT 10SM FEW035TCU SCT100 BKN250 30/22 A2986 RMK AO2 LTG DSNT E RAE1955 TCU S-SW CB DSNT NE-E P0000 T03000217=
201809092004 SPECI KATL 092004Z 21008KT 10SM VCTS FEW035CB BKN060 BKN100 BKN250 30/23 A2986 RMK AO2 LTG DSNT E RAE1955 OCNL LTGCG VC NE-E TS VC NE-E MOV NE P0000 T03000233=
201809091952 METAR KATL 091952Z 21007KT 10SM -RA FEW034TCU BKN060 BKN110 BKN250 29/23 A2987 RMK AO2 RAB00 SLP103 TCU SE-SW SHRA VC N-NE P0001 T02940233=
201809091852 METAR KATL 091852Z 21009KT 10SM SCT032TCU BKN130 BKN250 29/21 A2988 RMK AO2 SLP108 TCU SE-SW T02940211=
201809091752 METAR KATL 091752Z 00000KT 10SM SCT040TCU BKN085 BKN250 28/22 A2991 RMK AO2 LTG DSNT NE RAE14 SLP118 CB DSNT NE TCU SE-S P0027 60073 T02780222 10311 20228 58012=
201809091703 SPECI KATL 091703Z 00000KT 5SM R09R/4000VP6000FT +RA BKN031 BKN055 BKN100 25/21 A2993 RMK AO2 P0026 T02500206=
201809091652 METAR KATL 091652Z 21008KT 1 1/2SM R09R/2000VP6000FT +RA BKN023 OVC070 24/21 A2994 RMK AO2 SFC VIS 3 RAB31 SLP129 P0046 T02440206=
201809091642 SPECI KATL 091642Z VRB06G20KT 1 1/2SM R09R/2000VP6000FT +RA BKN012 BKN028 24/21 A2994 RMK AO2 SFC VIS 2 RAB31 P0018 T02390206=
201809091636 SPECI KATL 091636Z 26012G24KT 7SM R09R/5500VP6000FT +RA BKN028 BKN046 24/21 A2993 RMK AO2 RAB31 VSBY LWR NW P0003 T02440211=
201809091552 METAR KATL 091552Z 24008KT 10SM BKN030TCU 31/22 A2994 RMK AO2 SLP126 TCU SW-NW T03060222=
201809091538 SPECI KATL 091538Z 18006KT 10SM BKN027 29/22 A2994 RMK AO2 MDT CU ALQDS T02940217=
201809091452 METAR KATL 091452Z 22004KT 10SM FEW030 FEW250 28/22 A2995 RMK AO2 SLP129 T02830222 51008=
201809091352 METAR KATL 091352Z VRB04KT 10SM FEW030 FEW250 27/22 A2994 RMK AO2 SLP128 T02670222=
201809091252 METAR KATL 091252Z 21004KT 10SM FEW040 FEW250 24/21 A2994 RMK AO2 SLP126 T02440211=
201809091152 METAR KATL 091152Z 00000KT 10SM FEW250 23/21 A2992 RMK AO2 SLP121 T02280206 10244 20222 53004=
201809091052 METAR KATL 091052Z 00000KT 10SM FEW250 22/21 A2991 RMK AO2 SLP116 T02220206=
201809090952 METAR KATL 090952Z 18003KT 10SM FEW250 23/21 A2990 RMK AO2 SLP115 T02280206=
201809090852 METAR KATL 090852Z 00000KT 10SM FEW055 FEW200 FEW250 23/21 A2991 RMK AO2 SLP117 T02280206 56007=
201809090752 METAR KATL 090752Z 20003KT 10SM FEW055 FEW200 FEW250 23/21 A2991 RMK AO2 SLP117 T02330206=
201809090652 METAR KATL 090652Z 23004KT 10SM FEW055 FEW200 24/21 A2992 RMK AO2 SLP118 T02390206=
201809090552 METAR KATL 090552Z 21003KT 10SM FEW055 FEW200 24/21 A2993 RMK AO2 SLP124 T02390206 10294 20239 58002=
201809090452 METAR KATL 090452Z 22004KT 10SM FEW055 SCT200 BKN250 25/21 A2993 RMK AO2 SLP124 T02500206 403280222=
201809090352 METAR KATL 090352Z 20006KT 10SM FEW055 FEW080 SCT200 BKN250 26/21 A2994 RMK AO2 SLP126 T02560206=
201809090252 METAR KATL 090252Z 21003KT 10SM FEW050TCU FEW080 SCT200 BKN250 27/21 A2994 RMK AO2 SLP125 TCU NW-N T02670206 51013=
201809090152 METAR KATL 090152Z 21004KT 10SM FEW050 SCT080 BKN200 BKN250 27/21 A2993 RMK AO2 SLP125 T02720206=
201809090052 METAR KATL 090052Z 21004KT 10SM FEW055 SCT200 BKN250 28/20 A2991 RMK AO2 SLP117 T02830200=
201809082352 METAR KATL 082352Z 21005KT 10SM FEW050 FEW070 SCT200 BKN250 29/20 A2990 RMK AO2 SLP113 CB DSNT NW TCU DSNT NE-E T02940200 10328 20294 55002=
201809082252 METAR KATL 082252Z 21007KT 10SM FEW048TCU SCT070 BKN200 BKN250 31/19 A2989 RMK AO2 SLP110 TCU E S DSNT NE E-S T03060194=
201809082152 METAR KATL 082152Z 20006KT 10SM FEW048TCU SCT070 SCT200 BKN250 31/20 A2989 RMK AO2 SLP111 TCU N DSNT NE-SE T03110200=
201809082052 METAR KATL 082052Z 17007KT 10SM FEW049 SCT060 BKN250 32/19 A2990 RMK AO2 SLP114 T03170194 58025=
201809081952 METAR KATL 081952Z 22007KT 10SM SCT048 BKN070 BKN250 33/20 A2993 RMK AO2 SLP123 MDT CU ALQDS T03280200=
201809081852 METAR KATL 081852Z 17008KT 10SM SCT050 BKN250 32/19 A2996 RMK AO2 SLP132 MDT CU ALQDS T03220194=
201809081752 METAR KATL 081752Z VRB03KT 10SM SCT045TCU BKN065 BKN250 31/20 A2998 RMK AO2 SLP140 TCU SE-SW T03060200 10317 20228 58015=
201809081652 METAR KATL 081652Z VRB05KT 10SM BKN034 BKN200 31/21 A3000 RMK AO2 SLP147 MDT CU ALQDS T03060211=
201809081552 METAR KATL 081552Z 25004KT 10SM FEW030 BKN200 29/22 A3002 RMK AO2 SLP154 T02940222=
201809081452 METAR KATL 081452Z VRB04KT 10SM BKN200 28/22 A3003 RMK AO2 SLP155 T02830217 51003=
201809081352 METAR KATL 081352Z 22003KT 10SM BKN200 27/22 A3002 RMK AO2 SLP155 T02670217=
201809081252 METAR KATL 081252Z 21004KT 10SM FEW200 SCT250 24/21 A3002 RMK AO2 SLP156 T02440206=
201809081152 METAR KATL 081152Z 00000KT 10SM SCT250 23/21 A3002 RMK AO2 SLP155 T02280206 10256 20222 53004=
201809081052 METAR KATL 081052Z 00000KT 10SM FEW250 23/21 A3001 RMK AO2 SLP152 T02280206=
201809080952 METAR KATL 080952Z 16003KT 10SM FEW250 23/21 A3000 RMK AO2 SLP149 T02280206=
201809080852 METAR KATL 080852Z 17003KT 10SM FEW250 23/21 A3000 RMK AO2 SLP148 T02330206 56015=
201809080752 METAR KATL 080752Z 17003KT 10SM FEW060 FEW250 23/21 A3001 RMK AO2 SLP151 T02330211=
201809080652 METAR KATL 080652Z 00000KT 10SM FEW065 FEW090 FEW250 25/21 A3003 RMK AO2 SLP155 T02500211=
201809080552 METAR KATL 080552Z 00000KT 10SM FEW065 SCT090 SCT250 26/21 A3005 RMK AO2 SLP163 60000 T02560211 10278 20244 58001=
201809080452 METAR KATL 080452Z 00000KT 10SM FEW040 BKN070 BKN100 BKN250 25/21 A3006 RMK AO2 RAB0353E42 SLP168 P0000 T02500211 403390228=
201809080352 METAR KATL 080352Z 33006KT 10SM FEW040TCU BKN065 BKN100 BKN250 25/21 A3006 RMK AO2 SLP168 TCU E-SE SHRA E-SE T02500206=
201809080252 METAR KATL 080252Z VRB04KT 10SM FEW050 SCT085 BKN140 BKN250 27/20 A3005 RMK AO2 SLP165 T02670200 51012=
201809080152 METAR KATL 080152Z 33004KT 10SM SCT140 BKN250 26/19 A3005 RMK AO2 SLP165 T02610194=
201809080052 METAR KATL 080052Z 30005KT 10SM FEW040 BKN140 BKN250 26/21 A3004 RMK AO2 LTG DSNT N SLP160 CB DSNT N & NW T02610206=
201809072352 METAR KATL 072352Z 31006KT 10SM FEW045 SCT100 SCT200 BKN250 27/21 A3002 RMK AO2 LTG DSNT SW SLP154 CB DSNT N & SW & NW 60000 T02670206 10339 20256 55001=
201809072252 METAR KATL 072252Z 24003KT 10SM FEW045 SCT090 BKN200 26/22 A3002 RMK AO2 SLP155 CB DSNT SW & NW TCU DSNT NE T02610217=
201809072152 METAR KATL 072152Z 13004KT 10SM SCT050CB BKN090 BKN250 28/21 A3001 RMK AO2 RAB33E52 SLP150 CB NE & S-SW MOV W P0000 T02780211=
201809072052 METAR KATL 072052Z VRB06KT 10SM SCT055TCU SCT080 33/19 A3002 RMK AO2 LTG DSNT W SLP153 CB DSNT W SHRA VC NE TCU SW-NW T03330194 56029=
201809071952 METAR KATL 071952Z 16006KT 10SM SCT050TCU BKN090 32/19 A3005 RMK AO2 LTG DSNT NW SLP162 CB DSNT NW TCU ALQDS T03170189=
201809071852 METAR KATL 071852Z VRB05KT 10SM SCT050TCU SCT075 33/20 A3008 RMK AO2 SLP172 TCU ALQDS T03330200=
201809071752 METAR KATL 071752Z 15009KT 10SM SCT047TCU 32/20 A3011 RMK AO2 SLP183 TCU ALQDS T03220200 10328 20233 58013=
201809071652 METAR KATL 071652Z 09005KT 10SM SCT040TCU SCT250 32/21 A3013 RMK AO2 SLP189 TCU NE-E SE-S SW-W T03220206 $=
201809071552 METAR KATL 071552Z 10007KT 10SM FEW045 FEW250 31/21 A3014 RMK AO2 SLP195 MDT CU N-NE S W T03060206=
201809071452 METAR KATL 071452Z 00000KT 10SM FEW035 FEW250 30/22 A3015 RMK AO2 SLP197 T03000217 53004=
201809071352 METAR KATL 071352Z 00000KT 10SM FEW250 28/21 A3014 RMK AO2 SLP194 T02830211=
201809071252 METAR KATL 071252Z 00000KT 9SM FEW250 26/21 A3013 RMK AO2 SLP193 T02560206=
201809071152 METAR KATL 071152Z 09004KT 10SM FEW042 FEW250 23/20 A3013 RMK AO2 SLP193 T02330200 10256 20228 53001=
201809071052 METAR KATL 071052Z 09005KT 10SM FEW045 FEW250 23/20 A3013 RMK AO2 SLP192 T02280200=
201809070952 METAR KATL 070952Z 00000KT 10SM FEW250 23/20 A3013 RMK AO2 SLP191 T02330200=
201809070852 METAR KATL 070852Z 07004KT 10SM FEW048 FEW250 24/19 A3013 RMK AO2 SLP192 T02390194 56005=
201809070752 METAR KATL 070752Z 00000KT 10SM FEW050 FEW250 24/20 A3013 RMK AO2 SLP193 T02390200=
201809070652 METAR KATL 070652Z 03003KT 10SM FEW045 SCT250 26/19 A3014 RMK AO2 SLP193 T02560194=
201809070552 METAR KATL 070552Z 00000KT 10SM FEW045 FEW200 SCT250 24/21 A3015 RMK AO2 SLP197 T02440206 10283 20239 58004=
201809070452 METAR KATL 070452Z 07003KT 10SM FEW250 26/20 A3015 RMK AO2 SLP197 T02610200 403110239=
201809070352 METAR KATL 070352Z 00000KT 10SM FEW200 SCT250 26/20 A3016 RMK AO2 SLP201 T02560200=
201809070252 METAR KATL 070252Z 00000KT 10SM FEW200 SCT250 27/20 A3016 RMK AO2 SLP201 T02670200 51016=
201809070152 METAR KATL 070152Z 13003KT 10SM FEW150 SCT200 BKN250 27/20 A3015 RMK AO2 SLP198 T02720200=
201809070052 METAR KATL 070052Z 10005KT 10SM FEW150 SCT200 BKN250 28/19 A3013 RMK AO2 SLP193 T02830194=
201809062352 METAR KATL 062352Z 09004KT 10SM FEW150 SCT200 BKN250 28/19 A3011 RMK AO2 SLP185 T02830194 10311 20283 55003=
201809062252 METAR KATL 062252Z 09004KT 10SM FEW040 BKN200 BKN250 29/19 A3010 RMK AO2 SLP183 T02940194=
201809062152 METAR KATL 062152Z 08007KT 10SM FEW040 BKN200 BKN250 29/20 A3011 RMK AO2 SLP187 T02940200=
201809062052 METAR KATL 062052Z 14007KT 10SM FEW045 SCT180 BKN250 31/21 A3012 RMK AO2 SLP187 CB DSNT NW T03060206 56021=
201809061952 METAR KATL 061952Z 14005KT 10SM FEW035 FEW040 BKN250 29/20 A3014 RMK AO2 SLP194 TCU DSNT E DSNT NW T02940200=
201809061852 METAR KATL 061852Z 11007KT 10SM FEW035 SCT040 BKN250 30/21 A3016 RMK AO2 SLP200 TCU DSNT N T03000206=
201809061752 METAR KATL 061752Z 08009KT 10SM FEW030 SCT040 BKN250 29/21 A3018 RMK AO2 SLP209 T02890211 10300 20239 58014=
201809061652 METAR KATL 061652Z 11009KT 10SM FEW025 SCT035 BKN250 29/21 A3020 RMK AO2 SLP214 MDT CU SE NW T02940211=
201809061552 METAR KATL 061552Z 10006KT 10SM SCT020 BKN030 BKN250 29/22 A3022 RMK AO2 SLP221 MDT CU NE-SE SW-NW T02890217=
201809061452 METAR KATL 061452Z 10005KT 9SM FEW012 SCT018 BKN025 27/22 A3022 RMK AO2 SLP224 MDT CU ALQDS T02720222 53003=
201809061417 SPECI KATL 061417Z 16004KT 9SM FEW009 BKN012 BKN020 26/22 A3022 RMK AO2 T02610222=
201809061352 METAR KATL 061352Z 11003KT 8SM FEW005 BKN009 BKN019 26/22 A3022 RMK AO2 SLP221 T02610222=
201809061252 METAR KATL 061252Z 14004KT 6SM BR BKN006 OVC018 24/22 A3021 RMK AO2 SLP221 BINOVC T02440222 $=
201809061152 METAR KATL 061152Z 12005KT 6SM BR BKN007 BKN020 BKN085 OVC200 24/22 A3021 RMK AO2 SLP220 T02390217 10256 20239 53012=
201809061141 SPECI KATL 061141Z 12005KT 9SM FEW007 SCT022 BKN090 BKN200 24/22 A3021 RMK AO2 T02390217=
201809061052 METAR KATL 061052Z 12003KT 10SM FEW048 SCT120 BKN180 BKN250 24/21 A3020 RMK AO2 SLP217 T02390211=
201809060952 METAR KATL 060952Z 00000KT 10SM SCT050 SCT140 BKN180 BKN250 24/21 A3019 RMK AO2 SLP212 T02440211=
201809060852 METAR KATL 060852Z 00000KT 10SM FEW050 SCT140 BKN180 BKN250 25/21 A3018 RMK AO2 SLP207 T02500211 53001=
201809060752 METAR KATL 060752Z 12003KT 10SM SCT140 BKN180 OVC250 25/22 A3018 RMK AO2 SLP207 T02500217=
201809060652 METAR KATL 060652Z 00000KT 10SM BKN200 OVC250 25/22 A3017 RMK AO2 SLP207 T02500217=
201809060552 METAR KATL 060552Z 00000KT 10SM FEW044 BKN200 OVC250 26/22 A3018 RMK AO2 SLP207 T02560217 10289 20256 58004=
201809060452 METAR KATL 060452Z 09005KT 10SM SCT040 BKN200 OVC250 26/21 A3018 RMK AO2 SLP210 T02610211 403110233=
201809060352 METAR KATL 060352Z 34003KT 10SM FEW040TCU BKN200 OVC250 28/21 A3019 RMK AO2 SLP210 TCU SW T02780206=
201809060252 METAR KATL 060252Z 26003KT 10SM FEW050 BKN200 OVC250 27/21 A3019 RMK AO2 SLP212 T02670211 53012=
201809060152 METAR KATL 060152Z 30004KT 10SM SCT050 BKN200 OVC250 27/21 A3018 RMK AO2 SLP208 T02720211=
201809060052 METAR KATL 060052Z 22003KT 10SM SCT045 BKN200 OVC250 28/21 A3016 RMK AO2 SLP201 T02780206=
201809052352 METAR KATL 052352Z 17003KT 10SM FEW040 BKN200 OVC250 29/20 A3015 RMK AO2 SLP199 T02890200 10311 20289 53002=
201809052252 METAR KATL 052252Z 15003KT 10SM FEW040 BKN200 OVC250 29/19 A3015 RMK AO2 SLP197 T02940194=
201809052152 METAR KATL 052152Z 12005KT 10SM FEW040 SCT200 BKN250 30/19 A3014 RMK AO2 SLP194 T03000194=
201809052052 METAR KATL 052052Z 08007KT 10SM FEW040 FEW150 BKN250 30/20 A3014 RMK AO2 SLP197 VIRGA DSNT SW-NW T03000200 58022=
201809051952 METAR KATL 051952Z VRB04KT 10SM FEW040 SCT050 BKN250 30/20 A3017 RMK AO2 SLP204 MDT CU NE-SE T03000200=
201809051852 METAR KATL 051852Z 14005KT 10SM FEW035 SCT050 BKN230 29/21 A3020 RMK AO2 SLP215 MDT CU NE-SE-S T02940206=
201809051752 METAR KATL 051752Z 10007KT 070V130 10SM FEW035 FEW150 BKN250 29/21 A3021 RMK AO2 SLP219 T02890206 10289 20239 58008=
201809051652 METAR KATL 051652Z 12008KT 10SM SCT030 SCT150 BKN250 28/20 A3022 RMK AO2 SLP223 VIRGA DSNT SW-NW T02830200=
201809051552 METAR KATL 051552Z 10007KT 10SM FEW023 SCT028 BKN250 28/22 A3023 RMK AO2 SLP225 T02830217=
201809051452 METAR KATL 051452Z 13007KT 10SM FEW020 FEW150 BKN240 27/21 A3023 RMK AO2 SLP227 T02670211 53006=
201809051436 SPECI KATL 051436Z 12006KT 10SM SCT015 SCT023 BKN250 26/21 A3023 RMK AO2 T02610206=
201809051429 SPECI KATL 051429Z 11010KT 10SM BKN015 BKN023 BKN250 26/21 A3023 RMK AO2 T02610211=
201809051352 METAR KATL 051352Z 13008KT 10SM BKN012 BKN017 BKN250 26/21 A3023 RMK AO2 SLP226 T02560211=
201809051314 SPECI KATL 051314Z 11008KT 7SM SCT009 BKN014 BKN020 25/22 A3022 RMK AO2 T02500217=
201809051252 METAR KATL 051252Z 12007KT 7SM BKN009 OVC014 24/22 A3022 RMK AO2 SLP221 CIG 008V011 T02440217=
201809051152 METAR KATL 051152Z 11006KT 6SM BR OVC006 24/22 A3020 RMK AO2 SLP217 CIG 005V007 T02390217 10250 20233 53008=
201809051052 METAR KATL 051052Z 11006KT 7SM OVC006 24/22 A3019 RMK AO2 SLP211 T02390217=
201809050958 SPECI KATL 050958Z 09007KT 9SM BKN009 OVC250 23/21 A3018 RMK AO2 T02330211=
201809050952 METAR KATL 050952Z 09006KT 10SM SCT009 BKN250 23/21 A3018 RMK AO2 SLP208 T02330211=
201809050946 SPECI KATL 050946Z 09006KT 10SM SCT009 BKN250 23/21 A3018 RMK AO2=
201809050852 METAR KATL 050852Z 08006KT 10SM FEW038 BKN250 24/21 A3018 RMK AO2 SLP207 T02390211 56004=
201809050752 METAR KATL 050752Z 11005KT 10SM FEW038 BKN250 24/21 A3018 RMK AO2 SLP210 T02440211=
201809050652 METAR KATL 050652Z 09007KT 10SM FEW045 SCT200 BKN250 24/21 A3018 RMK AO2 SLP210 T02440206=
201809050552 METAR KATL 050552Z 09006KT 10SM FEW045 SCT200 BKN250 25/21 A3019 RMK AO2 SLP212 T02500206 10289 20250 58001=
201809050452 METAR KATL 050452Z 09008KT 10SM FEW045 SCT200 BKN250 25/21 A3019 RMK AO2 SLP213 T02500206 403170228=
201809050352 METAR KATL 050352Z 08009KT 10SM FEW050 SCT200 BKN250 26/21 A3020 RMK AO2 SLP214 T02560206=
201809050252 METAR KATL 050252Z 11005KT 10SM FEW050 BKN200 OVC250 27/21 A3019 RMK AO2 SLP213 T02670206 51008=
201809050152 METAR KATL 050152Z 09011KT 10SM FEW050 BKN200 OVC250 28/20 A3018 RMK AO2 SLP210 T02780200=
201809050052 METAR KATL 050052Z 09008KT 10SM FEW040 BKN200 OVC250 28/20 A3018 RMK AO2 SLP208 T02830200=
201809042352 METAR KATL 042352Z 10008KT 10SM FEW040 BKN200 BKN250 29/20 A3017 RMK AO2 SLP205 T02890200 10317 20289 55002=
201809042252 METAR KATL 042252Z 10009KT 10SM FEW045 SCT200 BKN250 30/19 A3016 RMK AO2 SLP204 T03000194=
201809042152 METAR KATL 042152Z 10009KT 10SM FEW045 FEW150 BKN250 30/20 A3017 RMK AO2 SLP204 T03000200=
201809042052 METAR KATL 042052Z 09009KT 10SM FEW045 FEW150 BKN250 31/20 A3018 RMK AO2 SLP208 T03110200 58022=
201809041952 METAR KATL 041952Z 07011KT 10SM SCT040 SCT060 BKN250 30/20 A3020 RMK AO2 SLP215 MDT CU NE-SE SW-NW T03000200=
201809041852 METAR KATL 041852Z 09011G15KT 10SM FEW035 SCT045 BKN150 BKN250 30/21 A3023 RMK AO2 SLP225 T03000206=
201809041752 METAR KATL 041752Z 09010KT 10SM SCT030 BKN150 BKN200 29/21 A3024 RMK AO2 SLP230 T02890206 10289 20239 57008=
201809041652 METAR KATL 041652Z 11011KT 10SM FEW030 SCT150 BKN250 28/21 A3025 RMK AO2 SLP232 T02830206=
201809041634 SPECI KATL 041634Z 10012G17KT 10SM BKN025 BKN030 BKN250 29/21 A3025 RMK AO2 T02890211=
201809041552 METAR KATL 041552Z 09011G16KT 10SM SCT020 BKN030 BKN150 BKN250 28/21 A3026 RMK AO2 SLP236 T02830211=
201809041452 METAR KATL 041452Z 12008KT 10SM SCT015 BKN019 BKN150 BKN200 26/22 A3027 RMK AO2 SLP238 T02610217 53008=
201809041352 METAR KATL 041352Z 09011KT 10SM BKN012 BKN150 BKN200 26/22 A3026 RMK AO2 SLP236 T02560217=
201809041327 SPECI KATL 041327Z 09011KT 10SM BKN010 BKN150 BKN200 25/22 A3025 RMK AO2 T02500217=
201809041252 METAR KATL 041252Z 09010KT 10SM FEW009 BKN150 BKN200 24/21 A3025 RMK AO2 SLP233 T02440211=
201809041232 SPECI KATL 041232Z 09009KT 10SM FEW008 BKN150 BKN200 BKN250 24/21 A3024 RMK AO2 T02440206=
201809041152 METAR KATL 041152Z 09009KT 10SM FEW013 BKN150 BKN200 BKN250 24/21 A3024 RMK AO2 SLP230 T02390206 10244 20228 53006=
201809041052 METAR KATL 041052Z 07009KT 10SM FEW013 BKN150 BKN200 BKN250 24/21 A3023 RMK AO2 SLP227 T02390206=
201809040952 METAR KATL 040952Z 08007KT 10SM FEW013 BKN150 OVC200 23/21 A3023 RMK AO2 SLP225 VIRGA OHD-NW-NE T02330206=
201809040903 SPECI KATL 040903Z 07005KT 10SM FEW014 SCT060 BKN150 OVC180 23/21 A3022 RMK AO2 T02330206=
201809040852 METAR KATL 040852Z 09006KT 10SM BKN014 OVC220 23/21 A3023 RMK AO2 SLP224 T02280206 56004 $=
201809040752 METAR KATL 040752Z 09006KT 10SM FEW060 SCT229 23/21 A3023 RMK AO2 SLP224 T02330206 $=
201809040652 METAR KATL 040652Z 06007KT 10SM FEW060 SCT220 24/21 A3022 RMK AO2 SLP223 T02390206 $=
201809040552 METAR KATL 040552Z 07007KT 10SM FEW060 SCT220 24/21 A3024 RMK AO2 SLP229 T02440206 10278 20239 58005 $=
201809040452 METAR KATL 040452Z 11004KT 10SM FEW060 SCT250 24/21 A3025 RMK AO2 SLP232 T02440206 403220228 $=
201809040352 METAR KATL 040352Z 14006KT 10SM FEW060 SCT250 25/21 A3026 RMK AO2 SLP237 T02500206 $=
201809040252 METAR KATL 040252Z 12006KT 10SM SCT065 BKN250 26/21 A3026 RMK AO2 SLP235 T02560206 51021 $=
201809040152 METAR KATL 040152Z 15004KT 10SM SCT080 BKN250 26/20 A3024 RMK AO2 SLP230 T02560200 $=
201809040052 METAR KATL 040052Z 16008KT 10SM FEW050 SCT075 SCT250 27/20 A3022 RMK AO2 SLP222 TCU DSNT SW T02670200 $=
201809032352 METAR KATL 032352Z 16004KT 10SM FEW050 FEW250 28/19 A3019 RMK AO2 SLP214 CB DSNT SE TCU DSNT E-SE T02780194 10322 20278 53000 $=
201809032252 METAR KATL 032252Z 17006KT 10SM FEW050 SCT200 29/19 A3019 RMK AO2 SLP212 TCU DSNT SW T02890194 $=
201809032152 METAR KATL 032152Z 10012KT 10SM SCT050 SCT200 31/18 A3019 RMK AO2 SLP212 CB DSNT SE-S T03110183 $=
201809032052 METAR KATL 032052Z 11011G16KT 10SM SCT050 SCT070 SCT250 32/18 A3019 RMK AO2 SLP212 CB DSNT SE TCU DSNT E-SE & SW-W & NW MDT CU N & NE T03170183 56020 $=
201809031952 METAR KATL 031952Z 09011G15KT 10SM SCT046 32/18 A3020 RMK AO2 SLP217 CB DSNT SE TCU DSNT SW-W T03170183 $=
201809031852 METAR KATL 031852Z 08012KT 10SM SCT046 32/18 A3023 RMK AO2 SLP226 T03170183 $=
201809031752 METAR KATL 031752Z 09013KT 10SM SCT034 SCT250 30/19 A3025 RMK AO2 SLP234 T03000194 10311 20233 58014 $=
201809031652 METAR KATL 031652Z 10010G17KT 10SM BKN030 BKN250 31/21 A3027 RMK AO2 SLP239 T03060206 $=
201809031624 SPECI KATL 031624Z 10010G18KT 10SM BKN030 30/21 A3028 RMK AO2 T03000206 $=
201809031552 METAR KATL 031552Z 09013KT 10SM BKN025 28/21 A3029 RMK AO2 SLP245 T02780206 $=
201809031452 METAR KATL 031452Z 09012KT 10SM FEW019 BKN025 BKN033 27/21 A3030 RMK AO2 SLP248 T02670211 51009 $=
201809031441 SPECI KATL 031441Z 10009KT 10SM SCT017 BKN025 BKN033 27/21 A3029 RMK AO2 T02720211 $=
201809031352 METAR KATL 031352Z 11009KT 10SM BKN014 BKN027 26/21 A3029 RMK AO2 SLP247 T02560211 $=
201809031252 METAR KATL 031252Z 10009KT 10SM SCT009 BKN014 BKN025 24/21 A3029 RMK AO2 SLP245 T02390211 $=
201809031246 SPECI KATL 031246Z 10011KT 10SM SCT009 BKN014 BKN024 24/21 A3028 RMK AO2 $=
201809031152 METAR KATL 031152Z 09008KT 10SM BKN011 23/21 A3027 RMK AO2 SLP239 CIG 009V014 T02330206 10239 20228 52015 $=
201809031052 METAR KATL 031052Z 08010KT 10SM BKN011 BKN021 23/21 A3025 RMK AO2 SLP233 CIG 010V015 BKN011 V SCT T02280206 $=
201809031041 SPECI KATL 031041Z 08010KT 10SM BKN011 BKN021 23/21 A3025 RMK AO2 BKN011 V SCT T02280206 $=
201809030959 SPECI KATL 030959Z 07010KT 8SM SCT012 23/21 A3024 RMK AO2 T02330206 $=
201809030952 METAR KATL 030952Z 08009KT 10SM BKN011 23/21 A3024 RMK AO2 SLP229 T02330206 $=
201809030912 SPECI KATL 030912Z 08008KT 10SM BKN011 BKN055 23/20 A3023 RMK AO2 T02330200 $=
201809030852 METAR KATL 030852Z 08008KT 10SM FEW055 23/20 A3022 RMK AO2 SLP223 T02330200 55002 $=
201809030752 METAR KATL 030752Z 09007KT 10SM FEW055 FEW150 23/20 A3021 RMK AO2 SLP221 T02280200 $=
201809030652 METAR KATL 030652Z 08007KT 10SM FEW055 FEW150 SCT200 23/20 A3022 RMK AO2 SLP223 T02330200 $=
201809030552 METAR KATL 030552Z 08006KT 10SM FEW055 FEW150 24/20 A3023 RMK AO2 SLP224 T02390200 10294 20233 58001 $=
201809030452 METAR KATL 030452Z 09006KT 10SM FEW150 24/20 A3023 RMK AO2 SLP227 T02440200 403280228 $=
201809030352 METAR KATL 030352Z 14003KT 10SM CLR 25/20 A3024 RMK AO2 SLP228 T02500200 $=
201809030252 METAR KATL 030252Z 13003KT 10SM FEW160 26/20 A3023 RMK AO2 SLP226 T02560200 51022 $=
201809030152 METAR KATL 030152Z 16005KT 10SM FEW060 SCT090 SCT200 27/20 A3022 RMK AO2 SLP222 T02670200 $=
201809030052 METAR KATL 030052Z 18008KT 10SM FEW055 SCT085 28/21 A3019 RMK AO2 SLP213 CB DSNT SW T02780206 $=
201809022352 METAR KATL 022352Z 09008KT 10SM SCT045TCU SCT070 SCT250 29/19 A3016 RMK AO2 LTG DSNT S SLP203 TCU NE CB DSNT SE-SW T02940189 10328 20294 55000 $=
201809022252 METAR KATL 022252Z 08009KT 10SM FEW048 FEW090 SCT250 31/19 A3015 RMK AO2 SLP197 CB DSNT SE-S T03110194 $=
201809022152 METAR KATL 022152Z 09011KT 10SM FEW050 SCT250 31/19 A3014 RMK AO2 SLP197 CB DSNT E-S T03110194 $=
201809022052 METAR KATL 022052Z 10012KT 10SM SCT050TCU SCT090 BKN250 31/19 A3016 RMK AO2 SLP203 TCU E & DSNT S T03060189 56017 $=
201809021952 METAR KATL 021952Z 11009G14KT 10SM FEW046TCU SCT075 SCT200 SCT250 32/20 A3018 RMK AO2 SLP208 CB DSNT N-NE SE TCU SE-SW T03170200 $=
201809021852 METAR KATL 021852Z 10010KT 10SM SCT042 SCT070 SCT200 BKN250 31/20 A3020 RMK AO2 SLP214 TCU DSNT S MDT CU ALQDS SHRA DSNT S T03110200 $=
201809021752 METAR KATL 021752Z 09012G15KT 10SM BKN038 BKN060 BKN200 BKN250 31/21 A3022 RMK AO2 SLP220 MDT CU ALQDS T03110206 10311 20233 57016 $=
201809021652 METAR KATL 021652Z 07012KT 10SM BKN034 BKN200 BKN250 29/20 A3023 RMK AO2 SLP226 T02940200 $=
201809021552 METAR KATL 021552Z 09010KT 10SM BKN030 BKN200 BKN250 29/21 A3025 RMK AO2 SLP233 T02890206 $=
201809021527 SPECI KATL 021527Z 08008KT 10SM SCT026 SCT200 BKN250 28/21 A3025 RMK AO2 T02780206 $=
201809021452 METAR KATL 021452Z 09009KT 10SM BKN024 BKN200 BKN250 27/21 A3027 RMK AO2 SLP238 T02670206 51011 $=
201809021407 SPECI KATL 021407Z VRB04KT 10SM SCT010 BKN016 BKN200 BKN250 26/21 A3026 RMK AO2 T02560211 $=
201809021357 SPECI KATL 021357Z 11004KT 10SM BKN010 BKN018 BKN250 26/22 A3026 RMK AO2 CIG 008V012 T02560217 $=
201809021352 METAR KATL 021352Z 09006KT 9SM BKN008 OVC014 25/22 A3026 RMK AO2 SLP237 CIG 006V010 BINOVC T02500217 $=
201809021252 METAR KATL 021252Z 09006KT 8SM BKN006 BKN250 24/22 A3026 RMK AO2 SLP235 CIG 005V008 T02440217 $=
201809021200 SPECI KATL 021200Z 06005KT 10SM BKN007 BKN050 BKN250 23/21 A3024 RMK AO2 BKN007 V SCT T02330211 $=
201809021152 METAR KATL 021152Z 07004KT 10SM SCT007 BKN050 BKN250 23/21 A3023 RMK AO2 SLP227 SCT007 V BKN T02330211 10244 20228 53016 $=
201809021145 SPECI KATL 021145Z 08004KT 10SM SCT007 SCT250 23/21 A3023 RMK AO2 T02330206 $=
201809021052 METAR KATL 021052Z 00000KT 10SM FEW045 FEW200 FEW250 23/21 A3021 RMK AO2 SLP217 T02330206 $=
201809020952 METAR KATL 020952Z 12004KT 10SM FEW200 FEW250 23/21 A3019 RMK AO2 SLP211 T02330206 $=
201809020852 METAR KATL 020852Z 13003KT 10SM FEW060 FEW200 24/21 A3018 RMK AO2 SLP209 T02390206 53001 $=
201809020752 METAR KATL 020752Z 13003KT 10SM FEW070 FEW200 24/21 A3017 RMK AO2 SLP205 T02390206 $=
201809020652 METAR KATL 020652Z 14005KT 10SM FEW050 FEW070 SCT200 24/21 A3017 RMK AO2 SLP206 T02440206 $=
201809020552 METAR KATL 020552Z 16003KT 10SM FEW050 FEW200 24/20 A3018 RMK AO2 SLP208 T02440200 10300 20244 57000 $=
201809020452 METAR KATL 020452Z 19004KT 10SM FEW100 FEW200 SCT250 25/20 A3018 RMK AO2 SLP209 ACC S T02500200 403220228 $=
201809020352 METAR KATL 020352Z 16004KT 10SM FEW110 FEW200 SCT250 26/20 A3018 RMK AO2 SLP210 T02560200 $=
201809020252 METAR KATL 020252Z 20006KT 10SM FEW110 FEW200 SCT250 26/21 A3018 RMK AO2 SLP210 T02560206 53014 $=
201809020152 METAR KATL 020152Z 10005KT 10SM SCT110 SCT200 SCT250 28/19 A3015 RMK AO2 SLP200 T02780194 $=
201809020052 METAR KATL 020052Z 11004KT 10SM FEW044 FEW110 SCT200 SCT250 29/19 A3015 RMK AO2 SLP199 FRQ LTGICCGCA DSNT SE-S CB DSNT SE-S T02940194 $=
201809012352 METAR KATL 012352Z 12005KT 10SM FEW050 FEW200 SCT250 30/19 A3014 RMK AO2 SLP195 CB DSNT SE-SW TCU DSNT E-S T03000189 10322 20300 53001 $=
201809012252 METAR KATL 012252Z 13005KT 10SM FEW055 FEW200 SCT250 31/19 A3013 RMK AO2 SLP193 CB DSNT SE TCU DSNT NE SE-S NW T03060189 $=
201809012152 METAR KATL 012152Z 09010KT 10SM SCT050 SCT250 32/19 A3013 RMK AO2 SLP192 TCU DSNT NE E SE SW NW MDT CU ALQDS T03170189 $=
201809012052 METAR KATL 012052Z 11009KT 10SM FEW050 SCT250 31/19 A3014 RMK AO2 SLP194 TCU DSNT N & S T03110194 56026 $=
201809011952 METAR KATL 011952Z VRB04KT 10SM SCT048 SCT250 32/19 A3015 RMK AO2 SLP199 T03170194 $=
201809011852 METAR KATL 011852Z 09009G14KT 10SM SCT047 SCT120 32/19 A3018 RMK AO2 SLP208 T03170194 $=
201809011752 METAR KATL 011752Z 09008KT 10SM SCT040 BKN080 31/20 A3022 RMK AO2 SLP220 T03110200 10311 20233 58004 $=
201809011652 METAR KATL 011652Z 15007KT 10SM BKN032 BKN055 29/21 A3023 RMK AO2 SLP225 T02940206 $=
201809011552 METAR KATL 011552Z VRB06KT 10SM SCT028 BKN050 28/22 A3024 RMK AO2 SLP229 T02780217 $=
201809011452 METAR KATL 011452Z 13005KT 10SM SCT017 BKN050 BKN250 28/22 A3023 RMK AO2 SLP226 T02780217 51013 $=
201809011352 METAR KATL 011352Z 16005KT 10SM FEW030 FEW060 SCT250 27/22 A3022 RMK AO2 SLP222 T02670217 $=
201809011252 METAR KATL 011252Z 14005KT 10SM FEW038 FEW065 SCT120 SCT250 25/21 A3020 RMK AO2 SLP217 T02500206 $=
