##########################################################
# Query made at 04/19/2024 23:57:31 UTC
# Time interval: from 01/01/2018 12:00  to 01/31/2018 12:59  UTC
##########################################################

##########################################################
# KATL, Atlanta, Hartsfield - Jackson Atlanta International Airport (United States)
# WMO index: 72219. WIGOS ID: 0-20000-0-72219
# Latitude 33-38-59N. Longitude 084-25-00W. Altitude 312 m.
##########################################################

201801311252 METAR KATL 311252Z 10006KT 10SM FEW200 SCT250 M01/M07 A3034 RMK AO2 SLP283 T10061072=
201801311152 METAR KATL 311152Z 09003KT 10SM FEW200 SCT250 00/M07 A3035 RMK AO2 SLP284 T00001072 10006 21017 53008=
201801311052 METAR KATL 311052Z 03005KT 10SM SCT200 BKN250 00/M07 A3033 RMK AO2 SLP279 T00001072=
201801310952 METAR KATL 310952Z 07007KT 10SM SCT200 BKN250 00/M07 A3031 RMK AO2 SLP272 T00001067=
201801310852 METAR KATL 310852Z 29003KT 10SM FEW200 BKN250 M01/M07 A3032 RMK AO2 SLP275 T10111067 53005=
201801310652 METAR KATL 310652Z 00000KT 10SM FEW200 01/M07 A3030 RMK AO2 SLP267 T00061067=
201801310552 METAR KATL 310552Z 00000KT 10SM FEW200 01/M07 A3031 RMK AO2 SLP271 T00061067 10044 20006 58008=
201801310452 METAR KATL 310452Z 34005KT 10SM SCT200 02/M08 A3034 RMK AO2 SLP282 T00171078 400781011=
201801310352 METAR KATL 310352Z 31007KT 10SM SCT200 SCT250 01/M07 A3035 RMK AO2 SLP285 T00111072=
201801310252 METAR KATL 310252Z 33007KT 10SM SCT250 02/M08 A3033 RMK AO2 SLP280 T00221083 52002=
201801310152 METAR KATL 310152Z 34008KT 10SM BKN250 03/M08 A3032 RMK AO2 SLP277 T00331083=
201801310052 METAR KATL 310052Z 33007KT 10SM BKN250 04/M08 A3033 RMK AO2 SLP280 T00391083=
201801302352 METAR KATL 302352Z 32011KT 10SM SCT250 04/M08 A3032 RMK AO2 SLP277 T00441083 10078 20044 53008=
201801302252 METAR KATL 302252Z 34011KT 10SM FEW200 SCT250 06/M10 A3032 RMK AO2 SLP275 T00561100=
201801302152 METAR KATL 302152Z 31012KT 10SM FEW150 SCT250 07/M09 A3030 RMK AO2 SLP268 T00671094=
201801302052 METAR KATL 302052Z 30013KT 10SM FEW250 07/M08 A3030 RMK AO2 SLP267 T00721078 56023=
201801301952 METAR KATL 301952Z 01010KT 10SM FEW250 07/M07 A3032 RMK AO2 SLP273 T00671072=
201801301852 METAR KATL 301852Z 30010G17KT 10SM FEW250 06/M07 A3034 RMK AO2 SLP279 T00611067=
201801301752 METAR KATL 301752Z 35009KT 10SM FEW250 05/M07 A3037 RMK AO2 SLP290 T00501067 10050 21011 58004=
201801301652 METAR KATL 301652Z 34011G19KT 10SM CLR 04/M06 A3040 RMK AO2 SLP301 T00391061=
201801301552 METAR KATL 301552Z 31011KT 260V320 10SM FEW030 03/M06 A3042 RMK AO2 SLP305 T00281056=
201801301452 METAR KATL 301452Z 31012KT 10SM CLR 01/M06 A3038 RMK AO2 SLP294 T00111061 53026=
201801301352 METAR KATL 301352Z 32009KT 10SM CLR 01/M07 A3035 RMK AO2 PRESRR SLP283 T00061067=
201801301252 METAR KATL 301252Z 33013KT 10SM CLR M01/M07 A3032 RMK AO2 SLP274 T10061072=
201801301152 METAR KATL 301152Z 32011KT 10SM CLR M01/M07 A3030 RMK AO2 SLP267 T10061072 10039 21006 53012=
201801301052 METAR KATL 301052Z 33014G20KT 10SM CLR M01/M07 A3027 RMK AO2 PK WND 34027/1018 SLP255 T10061072=
201801300952 METAR KATL 300952Z 33016G24KT 10SM SCT033 01/M06 A3026 RMK AO2 PK WND 35026/0909 SLP253 T00061061=
201801300917 SPECI KATL 300917Z 35017G26KT 10SM BKN031 01/M05 A3026 RMK AO2 PK WND 35026/0909 T00111050=
201801300852 METAR KATL 300852Z 33011KT 10SM BKN029 02/M04 A3027 RMK AO2 PK WND 32028/0807 SLP253 T00171044 51014=
201801300752 METAR KATL 300752Z 33021G27KT 10SM BKN029 02/M03 A3026 RMK AO2 PK WND 33027/0745 SLP250 T00221033=
201801300652 METAR KATL 300652Z 33015KT 10SM BKN027 03/M02 A3024 RMK AO2 PK WND 33026/0557 SLP244 T00331017=
201801300624 SPECI KATL 300624Z 33015KT 10SM BKN028 03/M02 A3023 RMK AO2 PK WND 33026/0557 T00331017=
201801300552 METAR KATL 300552Z 33019G26KT 10SM BKN033 04/M01 A3022 RMK AO2 PK WND 34026/0543 SLP238 T00391011 10111 20039 53020=
201801300452 METAR KATL 300452Z 32014G22KT 10SM FEW035 06/00 A3020 RMK AO2 SLP231 T00560000 401390056=
201801300352 METAR KATL 300352Z 33017G22KT 10SM CLR 08/M01 A3018 RMK AO2 SLP223 T00781011=
201801300252 METAR KATL 300252Z 29006KT 10SM CLR 07/M02 A3016 RMK AO2 SLP217 T00721022 51015=
201801300152 METAR KATL 300152Z 28005KT 10SM CLR 08/M03 A3015 RMK AO2 SLP214 T00781028=
201801300052 METAR KATL 300052Z 29004KT 10SM CLR 08/M02 A3013 RMK AO2 SLP206 T00831017=
201801292352 METAR KATL 292352Z 33004KT 10SM FEW070 11/M04 A3012 RMK AO2 SLP201 T01061039 10139 20100 51014=
201801292252 METAR KATL 292252Z 35011KT 10SM FEW070 12/M04 A3011 RMK AO2 SLP197 T01171039=
201801292152 METAR KATL 292152Z 34016G22KT 10SM FEW075 13/M04 A3009 RMK AO2 PK WND 35031/2106 SLP191 T01281039=
201801292052 METAR KATL 292052Z 33019G26KT 10SM FEW070 13/M04 A3008 RMK AO2 PK WND 32033/2009 SLP184 T01331039 55007=
201801291952 METAR KATL 291952Z 34020G26KT 10SM FEW065 13/M03 A3007 RMK AO2 PK WND 36026/1938 SLP184 T01331028=
201801291852 METAR KATL 291852Z 32016G23KT 10SM FEW055 13/M01 A3008 RMK AO2 SLP186 T01331011=
201801291752 METAR KATL 291752Z 30017G23KT 10SM FEW050 13/00 A3010 RMK AO2 PK WND 34026/1719 SLP191 T01280000 10128 20083 58004=
201801291652 METAR KATL 291652Z 33016G22KT 10SM FEW040 12/01 A3011 RMK AO2 SLP197 T01170006=
201801291552 METAR KATL 291552Z 32015KT 10SM FEW020 10/04 A3012 RMK AO2 SLP200 T01000039=
201801291452 METAR KATL 291452Z 33015KT 10SM FEW015 09/07 A3011 RMK AO2 SLP197 T00940067 51013=
201801291437 SPECI KATL 291437Z 33011KT 10SM FEW013 09/07 A3011 RMK AO2 T00890067=
201801291352 METAR KATL 291352Z 34011KT 10SM OVC011 08/07 A3010 RMK AO2 SLP194 CIG 010V014 BINOVC T00830072=
201801291324 SPECI KATL 291324Z 33012G21KT 10SM OVC010 08/07 A3009 RMK AO2 BINOVC T00830072=
201801291252 METAR KATL 291252Z 32016G23KT 10SM OVC008 08/08 A3009 RMK AO2 PK WND 33026/1219 SLP189 CIG 006V010 T00830078=
201801291152 METAR KATL 291152Z 32012KT 6SM BR BKN005 OVC010 09/09 A3007 RMK AO2 SLP183 CIG 004V008 60001 70115 T00890089 10122 20089 53007=
201801291052 METAR KATL 291052Z 32013KT 6SM BR BKN005 OVC010 10/09 A3006 RMK AO2 RAB19E28 SLP178 CIG 004V008 P0000 T01000094=
201801290952 METAR KATL 290952Z 32011KT 6SM BR BKN006 OVC012 11/11 A3004 RMK AO2 RAB39E51 SLP173 CIG 005V008 P0000 T01060106=
201801290948 SPECI KATL 290948Z 34010KT 6SM -RA BR BKN006 OVC012 11/11 A3004 RMK AO2 RAB39 CIG 005V008 P0000=
201801290852 METAR KATL 290852Z 33010KT 1 1/2SM BR OVC004 11/11 A3005 RMK AO2 SFC VIS 6 DZE48 SLP175 P0000 60001 T01110111 58004=
201801290752 METAR KATL 290752Z 34008KT 1 1/2SM -DZ BR OVC004 11/11 A3005 RMK AO2 SFC VIS 4 SLP176 P0000 T01110111=
201801290732 SPECI KATL 290732Z 34007KT 1 1/2SM -DZ BR OVC004 12/12 A3006 RMK AO2 SFC VIS 3 CIG 003V005 P0000 T01170117=
201801290652 METAR KATL 290652Z 34007KT 1 1/2SM -DZ BR BKN005 OVC017 12/12 A3006 RMK AO2 SFC VIS 5 RAE33DZB33 SLP179 VIS W-N 2 1/2 CIG 004V008 P0001 T01170117=
201801290649 SPECI KATL 290649Z 34007KT 1 1/2SM -DZ BR BKN005 OVC017 12/12 A3006 RMK AO2 SFC VIS 5 RAE33DZB33 VIS W-N 2 1/2 CIG 004V008 P0001=
201801290552 METAR KATL 290552Z 34008KT 1 1/2SM -RA BR OVC004 12/12 A3008 RMK AO2 SFC VIS 3 DZE40RAB40 SLP186 CIG 003V005 P0001 60001 T01220122 10139 20122 58007=
201801290452 METAR KATL 290452Z 34006KT 1 1/2SM -DZ BR OVC004 12/12 A3009 RMK AO2 SFC VIS 3 SLP189 CIG 003V005 P0000 T01220122 401390117=
201801290352 METAR KATL 290352Z 34007KT 1 1/2SM -DZ BR BKN004 OVC012 13/13 A3010 RMK AO2 SFC VIS 2 1/2 DZB49 SLP193 CIG 003V006 P0000 T01280128=
201801290340 SPECI KATL 290340Z 33006KT 1 1/2SM BR BKN004 OVC012 13/13 A3010 RMK AO2 SFC VIS 2 1/2 CIG 003V007 T01280128=
201801290300 SPECI KATL 290300Z 34005KT 1 1/2SM BR FEW003 BKN012 OVC018 13/13 A3011 RMK AO2 SFC VIS 5 CIG 010V014 T01280128=
201801290252 METAR KATL 290252Z 34006KT 1 1/2SM BR SCT003 BKN008 OVC016 13/13 A3011 RMK AO2 SFC VIS 5 SLP194 CIG 006V010 60000 T01280128 50005=
201801290245 SPECI KATL 290245Z 33007KT 1 1/2SM BR OVC004 13/13 A3011 RMK AO2 SFC VIS 4 CIG 003V005 TWRINC T01280128=
201801290242 SPECI KATL 290242Z 33007KT 3/4SM R09R/P6000FT BR OVC004 13/13 A3011 RMK AO2 SFC VIS 3 CIG 003V005 TWRINC T01280128=
201801290152 METAR KATL 290152Z 33006KT 3SM BR SCT002 BKN006 OVC018 13/13 A3011 RMK AO2 SFC VIS 4 SLP196 CIG 005V008 T01280128=
201801290052 METAR KATL 290052Z 35005KT 3SM OVC006 13/13 A3011 RMK AO2 SFC VIS 7 RAE01 SLP194 CIG 004V007 P0000 T01280128=
201801282352 METAR KATL 282352Z 05005KT 3SM -RA BKN006 BKN048 OVC090 13/13 A3009 RMK AO2 SFC VIS 8 SLP189 CIG 004V008 P0000 60049 T01330128 10133 20133 56002=
201801282252 METAR KATL 282252Z 35008KT 3SM -RA BKN006 BKN018 OVC080 13/13 A3009 RMK AO2 SFC VIS 8 SLP189 CIG 005V008 P0002 T01330128=
201801282232 SPECI KATL 282232Z 36008KT 3SM -RA BKN006 BKN016 OVC070 13/13 A3009 RMK AO2 SFC VIS 8 CIG 005V008 P0002 T01330128=
201801282152 METAR KATL 282152Z 04007KT 3SM -RA BR SCT007 BKN060 OVC085 13/13 A3009 RMK AO2 SFC VIS 6 SLP188 P0006 T01330128=
201801282052 METAR KATL 282052Z 02007KT 3SM -RA BR SCT007 OVC050 13/13 A3010 RMK AO2 SFC VIS 5 SLP192 P0008 60041 T01330128 56010=
201801282014 SPECI KATL 282014Z 05007KT 3SM -RA BR SCT006 OVC044 13/13 A3009 RMK AO2 SFC VIS 6 P0003 T01330128=
201801281959 SPECI KATL 281959Z 03009KT 3SM RA BR BKN007 OVC039 13/13 A3009 RMK AO2 SFC VIS 4 P0001 T01330128=
201801281952 METAR KATL 281952Z 03007KT 1 1/4SM -RA BR OVC007 13/13 A3010 RMK AO2 SFC VIS 2 SLP192 P0011 T01330133=
201801281852 METAR KATL 281852Z 07007KT 1 1/4SM RA BR BKN005 OVC016 13/13 A3010 RMK AO2 SFC VIS 2 SLP192 P0022 T01330133=
201801281809 SPECI KATL 281809Z 01005KT 1 1/4SM RA BR BKN006 OVC016 13/13 A3013 RMK AO2 SFC VIS 3 P0007 T01330133=
201801281752 METAR KATL 281752Z 04008KT 1/4SM R09R/P6000FT RA BR BKN004 OVC019 13/13 A3013 RMK AO2 SFC VIS 2 SLP203 TWRINC P0026 60064 T01330133 10133 20117 58031=
201801281652 METAR KATL 281652Z 05009KT 1/4SM R09R/P6000FT RA BR OVC003 13/13 A3017 RMK AO2 SFC VIS 2 1/2 SLP217 P0009 T01280128=
201801281552 METAR KATL 281552Z 08008KT 1/4SM R09R/P6000FT RA BR BKN004 OVC011 13/13 A3021 RMK AO2 SFC VIS 3 SLP229 TWRINC P0007 T01280128=
201801281452 METAR KATL 281452Z 05006KT 1/4SM R09R/P6000FT RA BR OVC004 12/12 A3023 RMK AO2 SFC VIS 2 SLP235 TWRINC P0016 60022 T01220122 50004=
201801281431 SPECI KATL 281431Z 07005KT 1/4SM R09R/P6000FT RA BR BKN004 OVC008 12/12 A3023 RMK AO2 SFC VIS 2 TWRINC P0010 T01220122=
201801281422 SPECI KATL 281422Z 06005KT 1/4SM R09R/P6000FT RA BR SCT004 BKN008 OVC015 12/12 A3023 RMK AO2 SFC VIS 2 1/2 P0008 T01220122=
201801281415 SPECI KATL 281415Z 08004KT 1/4SM R09R/P6000FT RA BR FEW003 SCT008 OVC015 12/12 A3023 RMK AO2 SFC VIS 2 1/2 P0007 T01220122=
201801281411 SPECI KATL 281411Z 08005KT 1SM R09R/P6000FT RA BR SCT003 OVC013 12/12 A3023 RMK AO2 SFC VIS 2 P0006 T01220122=
201801281405 SPECI KATL 281405Z 07004KT 1SM R09R/P6000FT RA BR BKN003 OVC013 12/12 A3023 RMK AO2 SFC VIS 1 3/4 TWRINC P0004 T01220122=
201801281352 METAR KATL 281352Z 08005KT 3/4SM R09R/P6000FT RA BR BKN003 BKN009 OVC027 12/12 A3023 RMK AO2 SFC VIS 1 1/2 SLP236 CIG 002V004 TWRINC P0005 T01220122=
201801281338 SPECI KATL 281338Z 07004KT 3/4SM R09R/P6000FT -RA BR BKN003 BKN009 OVC015 12/12 A3023 RMK AO2 SFC VIS 1 1/2 CIG 002V004 TWRINC P0002 T01220122=
201801281320 SPECI KATL 281320Z 07006KT 1 1/2SM -RA BR BKN003 BKN009 OVC012 12/12 A3023 RMK AO2 P0001 T01220122=
201801281252 METAR KATL 281252Z 08004KT 1 1/4SM -RA BR OVC002 12/12 A3023 RMK AO2 RAB10E28B48 SLP235 P0001 T01220122=
201801281244 SPECI KATL 281244Z 07004KT 1SM R09R/5000VP6000FT BR OVC002 12/12 A3022 RMK AO2 RAB10E28 P0000 T01220122=
201801281215 SPECI KATL 281215Z 09004KT 1/2SM R09R/2000V2400FT -RA FG VV002 12/12 A3022 RMK AO2 RAB10 P0000 T01220122=
201801281152 METAR KATL 281152Z 09005KT 1/4SM R09R/1600V2000FT FG VV002 12/12 A3021 RMK AO2 RAB1054E23DZB23E48 SLP231 P0000 60019 70028 T01170117 10122 20117 56011=
201801281150 SPECI KATL 281150Z 09006KT 1/4SM R09R/1600V2000FT FG VV002 12/12 A3021 RMK AO2 RAB1054E23DZB23E48 P0000=
201801281134 SPECI KATL 281134Z 08006KT 1/2SM R09R/2200FT -DZ FG VV002 12/12 A3022 RMK AO2 RAB1054E23DZB23 P0000 T01220122=
201801281109 SPECI KATL 281109Z 08006KT 1/2SM R09R/2200V2400FT -RA FG VV002 12/12 A3022 RMK AO2 RAB1054 PCPN VRY LGT P0000 T01220122=
201801281052 METAR KATL 281052Z 07006KT 3/4SM R09R/4500V6000FT BR VV003 12/12 A3023 RMK AO2 SLP236 T01220122=
201801281043 SPECI KATL 281043Z 07006KT 3/4SM R09R/6000VP6000FT BR OVC002 12/12 A3023 RMK AO2 T01220122=
201801281030 SPECI KATL 281030Z 06005KT 1SM R09R/P6000FT BR OVC002 12/12 A3023 RMK AO2 T01220122=
201801280952 METAR KATL 280952Z 00000KT 1 3/4SM R09R/5000VP6000FT BR OVC003 12/12 A3023 RMK AO2 RAE44 SLP236 P0000 T01220122=
201801280945 SPECI KATL 280945Z 07003KT 2SM BR OVC003 12/12 A3023 RMK AO2 RAE44 P0000 T01220122=
201801280914 SPECI KATL 280914Z 08007KT 1 1/2SM -RA BR OVC003 12/12 A3024 RMK AO2 VIS W-N 1 PCPN VRY LGT P0000 T01220122=
201801280852 METAR KATL 280852Z 07004KT 2 1/2SM -RA BR OVC004 12/12 A3025 RMK AO2 SLP243 P0001 60019 T01220122 56010=
201801280752 METAR KATL 280752Z 08003KT 3SM -RA BR OVC004 12/12 A3025 RMK AO2 SLP244 CIG 003V006 P0005 T01220122=
201801280658 SPECI KATL 280658Z 09006KT 3SM -RA BR BKN004 OVC013 12/12 A3026 RMK AO2 CIG 003V006 P0001 T01220122=
201801280652 METAR KATL 280652Z 10005KT 2 1/2SM RA BR OVC004 12/12 A3026 RMK AO2 SLP247 CIG 003V006 P0013 T01220122=
201801280649 SPECI KATL 280649Z 09006KT 2 1/2SM -RA BR OVC004 12/12 A3026 RMK AO2 CIG 003V006 P0012=
201801280639 SPECI KATL 280639Z 09007KT 4SM -RA BR OVC004 12/12 A3027 RMK AO2 CIG 003V006 P0011 T01220122=
201801280552 METAR KATL 280552Z 08007KT 3SM RA BR OVC005 12/12 A3028 RMK AO2 SLP253 CIG 004V006 P0003 60007 T01170117 10133 20111 56012=
201801280452 METAR KATL 280452Z 07007KT 4SM -RA BR OVC007 12/12 A3029 RMK AO2 RAB45 SLP257 CIG 005V009 P0000 T01170117 401390094=
201801280411 SPECI KATL 280411Z 08008KT 8SM BKN007 BKN012 OVC090 12/12 A3030 RMK AO2 CIG 006V009 T01170117=
201801280352 METAR KATL 280352Z 07007KT 10SM FEW006 SCT012 SCT085 OVC140 12/12 A3030 RMK AO2 RAE19 SLP261 P0000 T01220117=
201801280252 METAR KATL 280252Z 08006KT 10SM -RA FEW014 BKN065 OVC090 12/12 A3031 RMK AO2 RAE0159B42 SLP267 P0000 60004 T01220117 50000=
201801280152 METAR KATL 280152Z 08007KT 9SM -RA FEW046 BKN065 OVC090 12/12 A3032 RMK AO2 SLP267 P0004 T01220117=
201801280052 METAR KATL 280052Z 13004KT 9SM -RA FEW048 BKN075 OVC100 13/11 A3032 RMK AO2 RAB2359 SLP268 P0000 T01330111=
201801272352 METAR KATL 272352Z 12006KT 10SM FEW055 BKN075 OVC100 13/11 A3031 RMK AO2 SLP266 VIRGA OHD-ALQDS 60002 T01330106 10139 20128 58007=
201801272252 METAR KATL 272252Z 13007KT 10SM SCT075 OVC110CB 13/11 A3034 RMK AO2 SLP274 VIRGA OHD-ALQDS CBMAM NE-OHD-W MOV NE T01330111=
201801272152 METAR KATL 272152Z 10007KT 10SM SCT065 OVC100 14/11 A3032 RMK AO2 SLP267 T01390111=
201801272052 METAR KATL 272052Z 09004KT 10SM BKN050 OVC080 13/12 A3034 RMK AO2 RAB00E44 SLP273 P0002 60002 T01330117 56023=
201801271952 METAR KATL 271952Z 13004KT 10SM SCT055 BKN070 OVC095 13/11 A3035 RMK AO2 RAB1856E44 SLP277 P0000 T01330111=
201801271852 METAR KATL 271852Z 14003KT 10SM SCT055 OVC085 13/10 A3037 RMK AO2 RAB09E29 SLP287 P0000 T01280100=
201801271752 METAR KATL 271752Z 13005KT 10SM FEW032 SCT048 OVC090 13/09 A3041 RMK AO2 SLP297 60000 T01280094 10128 20094 58018=
201801271652 METAR KATL 271652Z 15008KT 10SM FEW120 OVC250 13/09 A3044 RMK AO2 RAE09 SLP308 P0000 T01280089=
201801271552 METAR KATL 271552Z 09008KT 10SM -RA FEW050 OVC075 11/08 A3044 RMK AO2 RAB30 SLP311 P0000 T01110078=
201801271452 METAR KATL 271452Z 13007KT 10SM FEW028 FEW041 OVC090 10/06 A3046 RMK AO2 SLP317 T01000061 53004=
201801271352 METAR KATL 271352Z 10004KT 10SM FEW032 BKN110 OVC180 10/06 A3046 RMK AO2 SLP316 T01000061=
201801271252 METAR KATL 271252Z 12006KT 10SM FEW050 BKN110 OVC150 09/06 A3045 RMK AO2 SLP311 T00940056=
201801271152 METAR KATL 271152Z 11009KT 10SM FEW050 SCT110 OVC130 09/06 A3045 RMK AO2 SLP312 VIRGA OHD-NW T00940056 10111 20094 58008=
201801271052 METAR KATL 271052Z 11010KT 10SM FEW021 SCT050 OVC130 10/05 A3046 RMK AO2 SLP315 T01000050=
201801270952 METAR KATL 270952Z 12007KT 10SM FEW021 OVC049 10/04 A3047 RMK AO2 SLP317 BINOVC T01000044=
201801270852 METAR KATL 270852Z 10010KT 10SM OVC050 11/04 A3047 RMK AO2 SLP319 T01060039 58006=
201801270752 METAR KATL 270752Z 11009KT 10SM BKN050 OVC130 11/03 A3048 RMK AO2 SLP322 T01060033=
201801270652 METAR KATL 270652Z 11008KT 10SM FEW021 BKN050 OVC130 11/04 A3048 RMK AO2 SLP325 T01060039=
201801270635 SPECI KATL 270635Z 10008KT 10SM SCT021 OVC050 11/03 A3049 RMK AO2 T01060033=
201801270552 METAR KATL 270552Z 11009KT 10SM BKN023 BKN050 OVC150 11/03 A3049 RMK AO2 SLP325 T01110028 10122 20094 58005=
201801270452 METAR KATL 270452Z 11007KT 10SM SCT035 BKN150 OVC250 11/01 A3050 RMK AO2 SLP329 T01060011 401440017=
201801270352 METAR KATL 270352Z 10008KT 10SM FEW040 OVC150 11/M02 A3050 RMK AO2 SLP332 T01061017=
201801270252 METAR KATL 270252Z 10007KT 10SM BKN045 BKN150 BKN250 11/M03 A3051 RMK AO2 SLP334 T01061033 50001=
201801270152 METAR KATL 270152Z 10009KT 10SM SCT045 BKN150 BKN250 11/M03 A3051 RMK AO2 SLP336 T01061028=
201801270052 METAR KATL 270052Z 10008KT 10SM SCT180 BKN250 12/M02 A3050 RMK AO2 SLP334 T01171022=
201801262352 METAR KATL 262352Z 11005KT 10SM BKN180 BKN250 13/M02 A3050 RMK AO2 SLP334 T01281022 10144 20122 55000=
201801262252 METAR KATL 262252Z 12009KT 10SM BKN180 BKN250 13/M03 A3049 RMK AO2 SLP329 T01331028=
201801262152 METAR KATL 262152Z 13007KT 10SM BKN180 BKN250 14/M05 A3050 RMK AO2 SLP331 T01391050=
201801262052 METAR KATL 262052Z 11006KT 10SM SCT200 BKN250 14/M06 A3050 RMK AO2 SLP333 T01391056 56026=
201801261952 METAR KATL 261952Z 15008KT 10SM FEW080 BKN200 BKN250 14/M07 A3052 RMK AO2 SLP338 T01391067=
201801261852 METAR KATL 261852Z 11008KT 10SM FEW080 SCT150 BKN200 13/M06 A3054 RMK AO2 SLP345 T01281061=
201801261752 METAR KATL 261752Z 11008KT 10SM FEW150 SCT180 BKN250 13/M06 A3058 RMK AO2 SLP359 VIRGA DSNT N T01281056 10128 20022 58007=
201801261652 METAR KATL 261652Z 14008KT 10SM FEW150 FEW180 BKN250 10/M04 A3061 RMK AO2 SLP370 VIRGA DSNT NE & NW T01001039=
201801261552 METAR KATL 261552Z 14009KT 10SM FEW150 SCT180 BKN250 08/M03 A3062 RMK AO2 SLP374 VIRGA SE-S & W-NW T00831028=
201801261452 METAR KATL 261452Z 11006KT 10SM BKN250 06/M02 A3060 RMK AO2 SLP369 T00611017 53017=
201801261352 METAR KATL 261352Z 08007KT 10SM FEW150 BKN180 BKN250 04/M02 A3058 RMK AO2 SLP361 VIRGA SW-NW T00391017=
201801261252 METAR KATL 261252Z 09005KT 10SM FEW150 BKN200 BKN250 02/M03 A3057 RMK AO2 SLP356 T00221028=
201801261152 METAR KATL 261152Z 09004KT 10SM SCT200 BKN250 02/M03 A3055 RMK AO2 SLP352 T00221028 10056 20017 53010=
201801261052 METAR KATL 261052Z 08006KT 10SM SCT200 BKN250 02/M03 A3054 RMK AO2 SLP346 T00221033=
201801260952 METAR KATL 260952Z 08006KT 10SM BKN200 OVC250 03/M03 A3052 RMK AO2 SLP338 T00281033=
201801260852 METAR KATL 260852Z 13003KT 10SM SCT200 BKN250 04/M04 A3052 RMK AO2 SLP339 T00391039 55002=
201801260752 METAR KATL 260752Z 00000KT 10SM FEW200 BKN250 03/M04 A3052 RMK AO2 SLP338 T00331039=
201801260652 METAR KATL 260652Z 09005KT 10SM FEW200 SCT250 04/M04 A3052 RMK AO2 SLP339 T00391044=
201801260552 METAR KATL 260552Z 08005KT 10SM SCT250 06/M04 A3053 RMK AO2 SLP341 T00561044 10106 20056 51004=
201801260452 METAR KATL 260452Z 13003KT 10SM SCT250 07/M06 A3052 RMK AO2 SLP340 T00721056 401440000=
201801260352 METAR KATL 260352Z 14004KT 10SM FEW250 07/M03 A3052 RMK AO2 SLP340 T00671033=
201801260252 METAR KATL 260252Z 00000KT 10SM FEW250 07/M04 A3051 RMK AO2 SLP338 T00721044 51011=
201801260152 METAR KATL 260152Z 16003KT 10SM FEW250 07/M03 A3051 RMK AO2 SLP338 T00721028=
201801260052 METAR KATL 260052Z 00000KT 10SM FEW250 09/M04 A3049 RMK AO2 SLP333 T00891044=
201801252352 METAR KATL 252352Z 00000KT 10SM FEW250 11/M07 A3048 RMK AO2 SLP327 T01061067 10144 20100 53008=
201801252252 METAR KATL 252252Z 00000KT 10SM FEW250 13/M08 A3047 RMK AO2 SLP322 T01331083=
201801252152 METAR KATL 252152Z VRB03KT 10SM FEW250 13/M07 A3046 RMK AO2 SLP319 T01331067=
201801252052 METAR KATL 252052Z 00000KT 10SM FEW250 14/M07 A3045 RMK AO2 SLP317 T01391067 56012=
201801251952 METAR KATL 251952Z VRB04KT 10SM FEW250 14/M07 A3046 RMK AO2 SLP317 T01391072=
201801251852 METAR KATL 251852Z 04004KT 10SM FEW250 13/M06 A3047 RMK AO2 SLP322 T01281056=
201801251752 METAR KATL 251752Z 06007KT 10SM FEW250 12/M06 A3049 RMK AO2 SLP329 T01171056 10117 20000 58005=
201801251652 METAR KATL 251652Z 01007KT 10SM FEW250 10/M03 A3051 RMK AO2 SLP337 T01001033=
201801251552 METAR KATL 251552Z 34006KT 10SM FEW250 08/M03 A3052 RMK AO2 SLP339 T00831033=
201801251452 METAR KATL 251452Z 33007KT 10SM FEW250 06/M02 A3051 RMK AO2 SLP336 T00561022 53021=
201801251352 METAR KATL 251352Z 32008KT 10SM FEW200 FEW250 03/M03 A3048 RMK AO2 SLP327 T00281028=
201801251252 METAR KATL 251252Z 31008KT 10SM FEW250 01/M03 A3046 RMK AO2 SLP322 T00061033=
201801251152 METAR KATL 251152Z 32008KT 10SM FEW250 01/M04 A3044 RMK AO2 SLP315 T00111039 10033 20011 53016=
201801251052 METAR KATL 251052Z 32009KT 10SM FEW250 01/M04 A3042 RMK AO2 SLP305 T00111039=
201801250952 METAR KATL 250952Z 32009KT 10SM FEW250 01/M04 A3040 RMK AO2 SLP300 T00111039=
201801250852 METAR KATL 250852Z 33008KT 10SM FEW250 02/M04 A3039 RMK AO2 SLP297 T00171039 53008=
201801250752 METAR KATL 250752Z 31008KT 10SM FEW200 FEW250 03/M04 A3038 RMK AO2 SLP292 T00281039=
201801250652 METAR KATL 250652Z 33006KT 10SM FEW200 SCT250 02/M04 A3036 RMK AO2 SLP286 T00171039=
201801250552 METAR KATL 250552Z 30005KT 10SM FEW250 03/M03 A3037 RMK AO2 SLP289 T00281033 10078 20028 53009=
201801250452 METAR KATL 250452Z 31006KT 10SM FEW250 04/M03 A3036 RMK AO2 SLP285 T00391033 401170017=
201801250352 METAR KATL 250352Z 32008KT 10SM FEW250 04/M03 A3035 RMK AO2 SLP283 T00441033=
201801250252 METAR KATL 250252Z 31008KT 10SM FEW250 05/M04 A3034 RMK AO2 SLP281 T00501039 51011=
201801250152 METAR KATL 250152Z 31010KT 10SM SCT250 06/M04 A3033 RMK AO2 SLP277 T00611039=
201801250052 METAR KATL 250052Z 30008KT 10SM SCT250 07/M04 A3032 RMK AO2 SLP274 T00671039=
201801242352 METAR KATL 242352Z 29008KT 10SM BKN250 08/M04 A3031 RMK AO2 SLP270 T00781039 10117 20072 51023=
201801242252 METAR KATL 242252Z 31012KT 10SM BKN250 09/M04 A3029 RMK AO2 SLP263 T00941039=
201801242152 METAR KATL 242152Z 31015G20KT 10SM FEW250 11/M04 A3026 RMK AO2 SLP252 T01061039=
201801242052 METAR KATL 242052Z 31015G25KT 10SM SCT250 12/M04 A3024 RMK AO2 SLP244 T01171039 55002=
201801241952 METAR KATL 241952Z 32013G21KT 10SM SCT250 12/M04 A3023 RMK AO2 SLP240 T01171044=
201801241852 METAR KATL 241852Z 31016KT 10SM FEW250 11/M04 A3022 RMK AO2 SLP238 T01061039=
201801241752 METAR KATL 241752Z 32010KT 10SM FEW250 09/M02 A3025 RMK AO2 SLP248 T00941022 10094 20022 58002=
201801241652 METAR KATL 241652Z 30012KT 10SM FEW250 08/M02 A3027 RMK AO2 SLP255 T00831017=
201801241552 METAR KATL 241552Z 31011KT 10SM SCT250 07/M02 A3027 RMK AO2 SLP257 T00671017=
201801241452 METAR KATL 241452Z 32012KT 10SM SCT250 05/M02 A3025 RMK AO2 SLP249 T00501017 53024=
201801241352 METAR KATL 241352Z 32014G19KT 10SM SCT250 03/M02 A3023 RMK AO2 SLP241 T00331017=
201801241252 METAR KATL 241252Z 33010KT 10SM SCT250 02/M02 A3020 RMK AO2 SLP233 T00221022=
201801241152 METAR KATL 241152Z 33011KT 10SM FEW250 02/M02 A3018 RMK AO2 SLP224 T00221022 10039 20017 53006=
201801241052 METAR KATL 241052Z 31008KT 10SM FEW250 02/M02 A3018 RMK AO2 SLP223 T00171022=
201801240952 METAR KATL 240952Z 33010KT 10SM FEW250 02/M02 A3016 RMK AO2 SLP215 T00221017=
201801240852 METAR KATL 240852Z 33012KT 10SM FEW250 03/M02 A3016 RMK AO2 SLP216 T00281017 50003=
201801240752 METAR KATL 240752Z 33012KT 10SM FEW250 03/M02 A3016 RMK AO2 SLP218 T00281017=
201801240652 METAR KATL 240652Z 32014KT 10SM FEW250 03/M01 A3016 RMK AO2 SLP218 T00331011=
201801240552 METAR KATL 240552Z 33014G19KT 10SM FEW250 04/M01 A3015 RMK AO2 SLP213 T00391011 10094 20039 50005=
201801240452 METAR KATL 240452Z 32011KT 10SM FEW250 05/M01 A3016 RMK AO2 SLP217 T00501006 401720050=
201801240352 METAR KATL 240352Z 31017G20KT 10SM FEW250 06/M01 A3016 RMK AO2 SLP216 T00561006=
201801240252 METAR KATL 240252Z 31015G21KT 10SM SCT250 07/00 A3014 RMK AO2 SLP209 T00720000 51023=
201801240152 METAR KATL 240152Z 30009KT 10SM SCT250 08/01 A3011 RMK AO2 SLP200 T00780006=
201801240052 METAR KATL 240052Z 28007KT 10SM SCT250 08/01 A3009 RMK AO2 SLP194 T00780006=
201801232352 METAR KATL 232352Z 27008KT 10SM SCT250 09/00 A3007 RMK AO2 SLP184 T00890000 10139 20089 53025=
201801232252 METAR KATL 232252Z 27011KT 10SM SCT250 11/00 A3004 RMK AO2 SLP173 T01110000=
201801232152 METAR KATL 232152Z 28010G16KT 10SM FEW050 SCT250 BKN300 12/00 A3001 RMK AO2 SLP163 T01170000=
201801232052 METAR KATL 232052Z 27011G20KT 10SM FEW050 FEW250 SCT300 13/01 A2999 RMK AO2 SLP153 T01330006 53001=
201801231952 METAR KATL 231952Z 28015G22KT 10SM FEW055 SCT250 BKN300 13/M01 A2998 RMK AO2 SLP149 T01281006=
201801231852 METAR KATL 231852Z 27011KT 10SM SCT250 12/01 A2998 RMK AO2 SLP149 T01220006=
201801231752 METAR KATL 231752Z 26010G21KT 10SM SCT250 12/00 A2998 RMK AO2 SLP151 T01220000 10122 20067 58008=
201801231652 METAR KATL 231652Z 30014KT 10SM BKN250 11/01 A3001 RMK AO2 SLP161 T01060006=
201801231552 METAR KATL 231552Z 29015KT 10SM BKN250 09/00 A3002 RMK AO2 SLP166 T00890000=
201801231452 METAR KATL 231452Z 29015G18KT 10SM BKN250 08/01 A3001 RMK AO2 SLP162 T00830006 53022=
201801231352 METAR KATL 231352Z 27011KT 10SM SCT250 08/01 A2998 RMK AO2 SLP152 T00780006=
201801231252 METAR KATL 231252Z 27007KT 10SM SCT250 07/00 A2997 RMK AO2 SLP149 T00670000=
201801231152 METAR KATL 231152Z 28010KT 10SM FEW040 FEW200 08/01 A2994 RMK AO2 SLP139 70083 T00830006 10172 20083 53019=
201801231052 METAR KATL 231052Z 28011KT 10SM FEW040 FEW250 09/02 A2992 RMK AO2 SLP132 T00940022=
201801230952 METAR KATL 230952Z 26011G18KT 10SM BKN045 12/03 A2990 RMK AO2 SLP123 T01170028=
201801230852 METAR KATL 230852Z 26017G24KT 10SM FEW026 SCT035 BKN049 BKN250 14/09 A2988 RMK AO2 PK WND 27029/0832 SLP117 T01390089 53008=
201801230809 SPECI KATL 230809Z 26013G23KT 10SM FEW015 SCT024 BKN041 BKN250 16/13 A2987 RMK AO2 T01560128=
201801230752 METAR KATL 230752Z 26015G21KT 10SM SCT013 BKN028 BKN048 BKN250 16/14 A2987 RMK AO2 SLP111 T01610144=
201801230750 SPECI KATL 230750Z 26010G21KT 10SM SCT013 BKN028 BKN048 BKN250 16/14 A2986 RMK AO2=
201801230725 SPECI KATL 230725Z 25013G19KT 10SM SCT013 SCT019 BKN060 BKN250 17/15 A2986 RMK AO2 T01670150=
201801230652 METAR KATL 230652Z 24012G19KT 10SM SCT012 BKN017 BKN042 BKN250 17/16 A2986 RMK AO2 SLP106 T01720156=
201801230617 SPECI KATL 230617Z 23010KT 10SM SCT009 BKN013 OVC025 17/16 A2986 RMK AO2 T01670161=
201801230552 METAR KATL 230552Z 22010KT 10SM BKN008 OVC015 17/16 A2986 RMK AO2 SLP108 CIG 006V010 60064 T01670161 10167 20156 58017=
201801230514 SPECI KATL 230514Z 21010KT 10SM BKN007 OVC014 17/16 A2987 RMK AO2 CIG 005V009 T01670161=
201801230452 METAR KATL 230452Z 21010KT 10SM BKN010 BKN018 OVC040 17/16 A2988 RMK AO2 SLP115 CIG 008V012 T01670161 401670083=
201801230352 METAR KATL 230352Z 20009KT 10SM BKN008 BKN016 OVC045 16/16 A2990 RMK AO2 SLP123 CIG 006V010 T01610161=
201801230334 SPECI KATL 230334Z 20012KT 10SM BKN008 OVC036 16/16 A2990 RMK AO2 CIG 006V010 T01610161=
201801230320 SPECI KATL 230320Z 20010KT 10SM BKN010 BKN036 BKN110 OVC200 16/16 A2991 RMK AO2 CIG 008V012 T01610161=
201801230300 SPECI KATL 230300Z 19012KT 10SM SCT008 BKN045 BKN100 OVC200 16/16 A2991 RMK AO2 T01610161=
201801230252 METAR KATL 230252Z 20010KT 10SM BKN008 BKN016 OVC035 16/16 A2991 RMK AO2 PK WND 21026/0154 SLP127 RAE30 CIG 006V010 P0003 60064 T01610161 56011=
201801230232 SPECI KATL 230232Z 20010G18KT 8SM BKN008 BKN014 OVC024 16/16 A2992 RMK AO2 PK WND 21026/0154 RAE30 CIG 006V010 P0003 T01610161=
201801230152 METAR KATL 230152Z 19018G28KT 3SM RA BR SCT007 BKN014 OVC026 17/16 A2993 RMK AO2 PK WND 18028/0151 SFC VIS 3 SLP133 CIG 012V016 P0036 T01670161=
201801230141 SPECI KATL 230141Z 18015G21KT 3SM RA BR SCT008 BKN014 OVC020 17/16 A2991 RMK AO2 CIG 012V016 P0032 T01670161=
201801230131 SPECI KATL 230131Z 13008G15KT 090V180 3SM -RA BR BKN008 OVC016 16/16 A2991 RMK AO2 SFC VIS 4 CIG 005V009 P0028 T01610161=
201801230121 SPECI KATL 230121Z VRB03KT 1SM R09R/P6000FT RA BR BKN007 BKN016 OVC039 16/16 A2991 RMK AO2 SFC VIS 2 PRESFR CIG 005V009 P0027 T01610161=
201801230118 SPECI KATL 230118Z VRB03KT 1SM R09R/P6000FT +RA BR SCT006 BKN016 OVC065 16/16 A2992 RMK AO2 SFC VIS 1 3/4 P0026 T01610161=
201801230052 METAR KATL 230052Z 14009KT 1SM R09R/P6000FT +RA BR FEW004 SCT050CB OVC080 16/16 A2992 RMK AO2 SFC VIS 2 LTG DSNT SE SLP130 CB SW MOV NE CB DSNT SE P0025 T01560156=
201801230042 SPECI KATL 230042Z 13010KT 1SM R09R/P6000FT +RA BR SCT004 SCT050CB OVC080 16/16 A2993 RMK AO2 SFC VIS 2 LTG DSNT SE CB SW MOV NE CB DSNT SE P0020 T01610161=
201801222352 METAR KATL 222352Z 15007KT 3SM -RA BR FEW006 SCT050 OVC085 16/16 A2994 RMK AO2 SFC VIS 4 SLP139 P0015 60019 T01560156 10167 20144 58003=
201801222318 SPECI KATL 222318Z 15007KT 3SM RA BR SCT018 BKN038 OVC080 16/16 A2994 RMK AO2 SFC VIS 4 P0011 T01610156=
201801222252 METAR KATL 222252Z 17008KT 1SM R09R/P6000FT +RA BR SCT016 BKN030CB OVC090 16/16 A2995 RMK AO2 SFC VIS 1 1/2 DZB04E20RAB20 SLP142 CB S-SW MOV NE P0004 T01610156=
201801222152 METAR KATL 222152Z 16008KT 7SM BKN010 BKN020 OVC040 16/15 A2995 RMK AO2 SLP142 T01610150=
201801222148 SPECI KATL 222148Z 16007KT 7SM BKN010 BKN020 OVC040 16/15 A2995 RMK AO2=
201801222052 METAR KATL 222052Z 15005KT 6SM BR BKN006 BKN010 OVC030 16/15 A2996 RMK AO2 SLP145 T01560150 56028=
201801221952 METAR KATL 221952Z 17007KT 5SM BR BKN006 BKN010 OVC040 15/14 A2999 RMK AO2 SLP155 T01500144=
201801221852 METAR KATL 221852Z 16009KT 5SM BR BKN006 BKN010 OVC030 15/14 A3000 RMK AO2 SLP157 T01500144=
201801221752 METAR KATL 221752Z 17009KT 5SM BR BKN008 BKN010 OVC030 14/13 A3005 RMK AO2 SLP174 T01440133 10144 20083 58025=
201801221652 METAR KATL 221652Z 14007KT 5SM BR BKN007 BKN010 OVC030 14/12 A3009 RMK AO2 SLP187 T01390122=
201801221552 METAR KATL 221552Z 13006KT 6SM BR BKN007 BKN010 OVC040 12/11 A3011 RMK AO2 SLP195 T01220106=
201801221452 METAR KATL 221452Z 13010KT 10SM BKN007 BKN030 OVC050 11/07 A3012 RMK AO2 SLP201 T01060072 53005=
201801221432 SPECI KATL 221432Z 14005KT 10SM FEW008 BKN034 OVC048 11/07 A3013 RMK AO2 T01060067=
201801221352 METAR KATL 221352Z 12006KT 10SM FEW028 SCT200 OVC250 10/06 A3012 RMK AO2 SLP198 T01000061=
201801221252 METAR KATL 221252Z 08009KT 10SM FEW028 SCT200 OVC250 09/06 A3010 RMK AO2 SLP194 BINOVC T00890056=
201801221152 METAR KATL 221152Z 12003KT 10SM SCT200 OVC250 08/06 A3011 RMK AO2 SLP195 T00830056 10117 20083 50000=
201801221052 METAR KATL 221052Z 09004KT 10SM BKN200 OVC250 09/06 A3011 RMK AO2 SLP196 T00940056=
201801220952 METAR KATL 220952Z 11004KT 10SM BKN200 OVC250 09/06 A3010 RMK AO2 SLP191 T00940056 $=
201801220852 METAR KATL 220852Z 13005KT 10SM BKN200 OVC250 10/06 A3011 RMK AO2 SLP193 T01000056 56016 $=
201801220752 METAR KATL 220752Z 13004KT 10SM OVC200 11/06 A3011 RMK AO2 SLP194 T01060056 $=
201801220652 METAR KATL 220652Z 14004KT 10SM OVC200 11/06 A3013 RMK AO2 SLP200 T01060061 $=
201801220552 METAR KATL 220552Z 15003KT 10SM OVC200 11/06 A3016 RMK AO2 SLP210 T01110061 10161 20106 58006 $=
201801220452 METAR KATL 220452Z 17005KT 10SM BKN200 OVC250 12/06 A3017 RMK AO2 SLP213 T01220061 402060039 $=
201801220352 METAR KATL 220352Z 15005KT 10SM SCT200 BKN250 13/06 A3017 RMK AO2 SLP217 T01280061 $=
201801220252 METAR KATL 220252Z 16004KT 10SM FEW200 BKN250 12/06 A3017 RMK AO2 SLP218 T01220061 51004 $=
201801220152 METAR KATL 220152Z 14004KT 10SM SCT250 14/06 A3017 RMK AO2 SLP219 T01390061 $=
201801220052 METAR KATL 220052Z 14003KT 10SM SCT250 14/07 A3017 RMK AO2 SLP218 T01440067 $=
201801212352 METAR KATL 212352Z 16004KT 10SM FEW200 SCT250 16/07 A3016 RMK AO2 SLP215 T01560067 10206 20156 58001 $=
201801212252 METAR KATL 212252Z 18004KT 10SM FEW250 17/08 A3017 RMK AO2 SLP217 T01720078 $=
201801212152 METAR KATL 212152Z 17007KT 10SM CLR 19/07 A3018 RMK AO2 SLP219 T01940072 $=
201801212052 METAR KATL 212052Z 19005KT 10SM CLR 20/07 A3017 RMK AO2 SLP214 T02000072 56024 $=
201801211952 METAR KATL 211952Z 16007KT 10SM CLR 20/07 A3019 RMK AO2 SLP221 T02000072 $=
201801211852 METAR KATL 211852Z 15005KT 10SM FEW090 19/07 A3021 RMK AO2 SLP228 T01890067 $=
201801211752 METAR KATL 211752Z VRB03KT 10SM FEW070 18/07 A3024 RMK AO2 SLP240 T01830067 10183 20039 58012 $=
201801211652 METAR KATL 211652Z VRB03KT 10SM FEW070 17/06 A3028 RMK AO2 SLP253 T01720061 $=
201801211552 METAR KATL 211552Z 00000KT 10SM FEW065 15/06 A3029 RMK AO2 SLP257 T01500056 $=
201801211452 METAR KATL 211452Z 00000KT 10SM CLR 13/05 A3028 RMK AO2 SLP254 T01330050 53012 $=
201801211352 METAR KATL 211352Z 00000KT 10SM CLR 08/04 A3026 RMK AO2 SLP249 T00830044 $=
201801211252 METAR KATL 211252Z 31004KT 10SM CLR 04/02 A3025 RMK AO2 SLP247 T00440022 $=
201801211152 METAR KATL 211152Z 00000KT 10SM CLR 05/02 A3024 RMK AO2 SLP244 T00500022 10083 20050 53005 $=
201801211052 METAR KATL 211052Z 00000KT 10SM FEW180 06/02 A3023 RMK AO2 SLP239 T00560022 $=
201801210952 METAR KATL 210952Z 30003KT 10SM FEW180 06/03 A3022 RMK AO2 SLP235 T00610028 $=
201801210852 METAR KATL 210852Z 29006KT 10SM FEW180 FEW250 07/03 A3023 RMK AO2 SLP236 T00720028 58001 $=
201801210752 METAR KATL 210752Z 29005KT 10SM FEW180 FEW250 08/03 A3024 RMK AO2 SLP239 T00780028 $=
201801210652 METAR KATL 210652Z 30005KT 10SM FEW180 SCT250 07/03 A3024 RMK AO2 SLP240 T00670033 $=
201801210552 METAR KATL 210552Z 00000KT 10SM SCT180 SCT250 08/03 A3023 RMK AO2 SLP239 T00830033 10122 20083 56007 $=
201801210452 METAR KATL 210452Z 27003KT 10SM FEW180 SCT250 09/03 A3024 RMK AO2 SLP241 T00890033 401780006=
201801210352 METAR KATL 210352Z 28006KT 10SM FEW180 FEW250 09/03 A3024 RMK AO2 SLP242 T00940033=
201801210252 METAR KATL 210252Z 27004KT 10SM FEW250 09/03 A3025 RMK AO2 SLP249 T00890033 51009=
201801210152 METAR KATL 210152Z 27003KT 10SM FEW250 10/03 A3025 RMK AO2 SLP249 T01000033=
201801210052 METAR KATL 210052Z 27005KT 10SM FEW250 11/03 A3024 RMK AO2 SLP247 T01060033=
201801202352 METAR KATL 202352Z 26003KT 10SM FEW180 FEW250 13/04 A3023 RMK AO2 SLP240 T01280039 10178 20128 53008=
201801202252 METAR KATL 202252Z 22005KT 10SM FEW180 FEW250 14/04 A3021 RMK AO2 SLP235 T01440044=
201801202152 METAR KATL 202152Z 31007KT 10SM FEW250 17/05 A3021 RMK AO2 SLP234 T01670050=
201801202052 METAR KATL 202052Z 34008KT 10SM FEW045 FEW250 17/05 A3020 RMK AO2 SLP230 T01720050 56015=
201801201952 METAR KATL 201952Z 32010KT 10SM FEW045 FEW250 17/04 A3021 RMK AO2 SLP232 T01720044=
201801201852 METAR KATL 201852Z VRB04KT 10SM FEW042 16/03 A3022 RMK AO2 SLP237 T01560033=
201801201752 METAR KATL 201752Z 29008KT 10SM FEW040 14/02 A3025 RMK AO2 SLP246 T01440022 10144 20006 58008=
201801201652 METAR KATL 201652Z 30009KT 10SM BKN038 12/M01 A3028 RMK AO2 SLP256 T01171006=
201801201552 METAR KATL 201552Z 29007KT 10SM BKN038 11/M02 A3029 RMK AO2 SLP261 T01061017=
201801201452 METAR KATL 201452Z 29007KT 10SM CLR 07/M05 A3027 RMK AO2 SLP256 T00671050 53008=
201801201352 METAR KATL 201352Z 00000KT 10SM BKN036 05/M05 A3026 RMK AO2 SLP253 T00501050=
201801201252 METAR KATL 201252Z 25004KT 10SM BKN034 01/M07 A3025 RMK AO2 SLP249 T00111067=
201801201152 METAR KATL 201152Z 23004KT 10SM FEW035 FEW200 02/M08 A3025 RMK AO2 SLP248 T00171083 10028 20006 52001=
201801201052 METAR KATL 201052Z 30006KT 10SM FEW035 01/M10 A3025 RMK AO2 SLP247 T00061100=
201801200952 METAR KATL 200952Z 30006KT 10SM CLR 01/M10 A3025 RMK AO2 SLP247 T00111100=
201801200852 METAR KATL 200852Z 29008KT 10SM CLR 02/M10 A3024 RMK AO2 SLP246 T00221100 53002=
201801200752 METAR KATL 200752Z 30007KT 10SM CLR 02/M11 A3024 RMK AO2 SLP246 T00171106=
201801200652 METAR KATL 200652Z 29007KT 10SM CLR 02/M11 A3023 RMK AO2 SLP243 T00221106=
201801200552 METAR KATL 200552Z 24003KT 10SM FEW250 02/M11 A3024 RMK AO2 SLP245 T00221111 10078 20022 50002=
201801200452 METAR KATL 200452Z 29005KT 10SM FEW250 04/M12 A3024 RMK AO2 SLP246 T00391122 401281033=
201801200352 METAR KATL 200352Z 26003KT 10SM FEW250 03/M09 A3025 RMK AO2 SLP250 T00331094=
201801200252 METAR KATL 200252Z 29004KT 10SM FEW250 06/M13 A3023 RMK AO2 SLP244 T00611133 51006=
201801200152 METAR KATL 200152Z 26005KT 10SM FEW250 06/M11 A3023 RMK AO2 SLP245 T00561111=
201801200052 METAR KATL 200052Z 24003KT 10SM FEW250 05/M09 A3022 RMK AO2 SLP243 T00501094=
201801192352 METAR KATL 192352Z 23003KT 10SM FEW250 07/M10 A3021 RMK AO2 SLP240 T00671100 10128 20067 57005=
201801192252 METAR KATL 192252Z 27004KT 10SM FEW250 11/M15 A3022 RMK AO2 SLP239 T01061150=
201801192152 METAR KATL 192152Z 28004KT 10SM FEW250 12/M14 A3022 RMK AO2 SLP240 T01171139=
201801192052 METAR KATL 192052Z 29004KT 10SM FEW250 12/M14 A3023 RMK AO2 SLP242 T01221144 56018=
201801191952 METAR KATL 191952Z 30005KT 10SM FEW250 12/M14 A3024 RMK AO2 SLP246 T01171144=
201801191852 METAR KATL 191852Z VRB05KT 10SM FEW250 11/M14 A3025 RMK AO2 SLP249 T01061139=
201801191752 METAR KATL 191752Z 27007KT 10SM FEW250 09/M12 A3028 RMK AO2 SLP262 T00891122 10089 21033 58014=
201801191652 METAR KATL 191652Z 28006KT 10SM FEW250 07/M11 A3032 RMK AO2 SLP274 T00721106=
201801191552 METAR KATL 191552Z 32008KT 10SM FEW250 04/M11 A3033 RMK AO2 SLP281 T00441106=
201801191452 METAR KATL 191452Z 32010KT 10SM FEW250 02/M09 A3032 RMK AO2 SLP279 T00171094 53012=
201801191352 METAR KATL 191352Z 32008KT 10SM CLR M01/M10 A3030 RMK AO2 SLP272 T10111100=
201801191252 METAR KATL 191252Z 31007KT 10SM CLR M03/M11 A3029 RMK AO2 SLP269 T10331106=
201801191152 METAR KATL 191152Z 30011KT 10SM CLR M03/M11 A3029 RMK AO2 SLP267 4/001 T10331106 11017 21033 53000=
201801191052 METAR KATL 191052Z 30006KT 10SM CLR M03/M11 A3028 RMK AO2 SLP265 T10281106=
201801190952 METAR KATL 190952Z 31009KT 10SM CLR M03/M10 A3029 RMK AO2 SLP265 T10281100=
201801190852 METAR KATL 190852Z 30007KT 10SM CLR M03/M10 A3029 RMK AO2 SLP265 T10281100 58003=
201801190752 METAR KATL 190752Z 28004KT 10SM CLR M03/M10 A3029 RMK AO2 SLP266 T10281100=
201801190652 METAR KATL 190652Z 30007KT 10SM CLR M02/M10 A3029 RMK AO2 SLP268 T10221100=
201801190552 METAR KATL 190552Z 30006KT 10SM CLR M02/M11 A3030 RMK AO2 SLP270 4/001 T10221106 10017 21022 58007=
201801190452 METAR KATL 190452Z 28007KT 10SM CLR M02/M11 A3032 RMK AO2 SLP277 T10171106 400501094=
201801190352 METAR KATL 190352Z 29005KT 10SM CLR M01/M11 A3032 RMK AO2 SLP280 T10111111=
201801190252 METAR KATL 190252Z 31007KT 10SM CLR M01/M11 A3032 RMK AO2 SLP279 T10111106 58005=
201801190152 METAR KATL 190152Z 31007KT 10SM CLR 00/M11 A3032 RMK AO2 SLP282 T00001106=
201801190052 METAR KATL 190052Z 31008KT 10SM CLR 01/M11 A3034 RMK AO2 SLP287 T00061106=
201801182352 METAR KATL 182352Z 30008KT 10SM CLR 02/M10 A3033 RMK AO2 SLP286 4/001 T00171100 10050 20011 54000=
201801182252 METAR KATL 182252Z 28008KT 10SM CLR 03/M10 A3034 RMK AO2 SLP286 T00281100=
201801182152 METAR KATL 182152Z 32011KT 10SM CLR 04/M11 A3033 RMK AO2 SLP282 T00441106=
201801182052 METAR KATL 182052Z 33010KT 10SM CLR 04/M10 A3033 RMK AO2 SLP284 T00441100 56015=
201801181952 METAR KATL 181952Z 32008KT 10SM CLR 04/M10 A3035 RMK AO2 SLP289 T00441100=
201801181852 METAR KATL 181852Z 32011KT 10SM CLR 03/M10 A3036 RMK AO2 SLP293 T00281100=
201801181752 METAR KATL 181752Z 30009KT 10SM CLR 01/M11 A3038 RMK AO2 SLP301 T00111106 10011 21094 58018=
201801181652 METAR KATL 181652Z 30009KT 10SM CLR M01/M11 A3042 RMK AO2 SLP315 T10061111=
201801181552 METAR KATL 181552Z 33010KT 10SM CLR M03/M11 A3043 RMK AO2 SLP318 T10281111=
201801181452 METAR KATL 181452Z 33008KT 10SM CLR M06/M12 A3043 RMK AO2 SLP322 T10561122 53011=
201801181352 METAR KATL 181352Z 34011KT 10SM CLR M08/M12 A3041 RMK AO2 SLP314 T10781122=
201801181252 METAR KATL 181252Z 33010KT 10SM CLR M09/M13 A3040 RMK AO2 SLP312 T10891128=
201801181152 METAR KATL 181152Z 31013KT 10SM CLR M09/M13 A3040 RMK AO2 SLP311 4/002 T10941128 11089 21094 55000=
201801181052 METAR KATL 181052Z 32014KT 10SM CLR M09/M13 A3039 RMK AO2 SLP309 T10941128=
201801180952 METAR KATL 180952Z 31013KT 10SM CLR M09/M13 A3039 RMK AO2 SLP309 T10941133=
201801180852 METAR KATL 180852Z 31013KT 10SM CLR M09/M13 A3040 RMK AO2 SLP310 T10941133 58001=
201801180752 METAR KATL 180752Z 31011KT 10SM CLR M09/M13 A3041 RMK AO2 SLP313 T10941133=
201801180652 METAR KATL 180652Z 31011KT 10SM CLR M09/M13 A3040 RMK AO2 SLP312 T10891133=
201801180552 METAR KATL 180552Z 31010KT 10SM CLR M09/M13 A3040 RMK AO2 SLP312 4/002 T10891133 11056 21089 55000=
201801180452 METAR KATL 180452Z 32015KT 10SM CLR M08/M13 A3039 RMK AO2 SLP309 T10831133 410281100=
201801180352 METAR KATL 180352Z 32015KT 10SM CLR M07/M13 A3039 RMK AO2 SLP308 T10671128=
201801180252 METAR KATL 180252Z 33014KT 10SM CLR M07/M13 A3040 RMK AO2 SLP312 T10671128 52004=
201801180152 METAR KATL 180152Z 33013KT 10SM CLR M06/M13 A3040 RMK AO2 SLP312 T10611128=
201801180052 METAR KATL 180052Z 33016G23KT 10SM CLR M06/M13 A3039 RMK AO2 PK WND 33029/0000 SLP307 T10561128=
201801172352 METAR KATL 172352Z 32018G28KT 10SM CLR M06/M13 A3039 RMK AO2 PK WND 31028/2326 SLP307 4/002 T10561133 11039 21072 53014=
201801172252 METAR KATL 172252Z 32019G23KT 10SM CLR M05/M13 A3037 RMK AO2 PK WND 31027/2235 SLP301 T10501128=
201801172152 METAR KATL 172152Z 33018G29KT 10SM CLR M04/M13 A3036 RMK AO2 PK WND 32031/2056 SLP294 T10391128=
201801172052 METAR KATL 172052Z 32019G29KT 10SM CLR M04/M13 A3035 RMK AO2 PK WND 31030/2031 SLP292 T10391128 55006=
201801171952 METAR KATL 171952Z 32021G28KT 10SM CLR M04/M13 A3034 RMK AO2 PK WND 31028/1921 SLP290 T10441133=
201801171852 METAR KATL 171852Z 30020G25KT 10SM CLR M06/M13 A3035 RMK AO2 PK WND 32027/1838 SLP292 T10561133=
201801171752 METAR KATL 171752Z 30015G24KT 10SM CLR M07/M13 A3037 RMK AO2 PK WND 32029/1700 SLP298 4/002 933002 T10721133 11072 21100 58002=
201801171652 METAR KATL 171652Z 31020G28KT 10SM FEW030 M08/M13 A3040 RMK AO2 PK WND 30028/1645 SLP308 T10781133=
201801171552 METAR KATL 171552Z 31020G28KT 10SM FEW020 M09/M13 A3040 RMK AO2 PK WND 31028/1550 SLP309 T10891133=
201801171452 METAR KATL 171452Z 30012KT 10SM FEW020 M09/M13 A3037 RMK AO2 SLP300 T10941133 53011=
201801171352 METAR KATL 171352Z 33016KT 10SM FEW015 FEW090 M10/M14 A3036 RMK AO2 SLP294 T11001139=
201801171252 METAR KATL 171252Z 33015KT 10SM FEW070 SCT090 M09/M13 A3034 RMK AO2 SLP289 T10891128=
201801171152 METAR KATL 171152Z 31010KT 10SM FEW010 FEW025 OVC070 M08/M11 A3034 RMK AO2 SNE20 SLP285 4/002 P0001 60014 70015 T10831111 11039 21083 57003=
201801171120 SPECI KATL 171120Z 32012KT 8SM FEW007 SCT027 OVC060 M08/M10 A3033 RMK AO2 SNE20 P0001 T10831100=
201801171115 SPECI KATL 171115Z 33013KT 4SM -SN BR FEW009 BKN020 OVC035 M08/M10 A3033 RMK AO2 P0001 T10831100=
201801171052 METAR KATL 171052Z 32015KT 3/4SM R09R/4500VP6000FT -SN BR SCT009 OVC012 M08/M09 A3033 RMK AO2 SLP282 SNINCR 1/2 P0005 T10831094 $=
201801171044 SPECI KATL 171044Z 32015KT 1/2SM R09R/4000V5500FT SN FZFG VV009 M08/M09 A3032 RMK AO2 TWR VIS 3/4 P0004 T10831094=
201801171039 SPECI KATL 171039Z 32016KT 1/2SM R09R/4000V6000FT SN FZFG VV010 M08/M09 A3032 RMK AO2 TWR VIS 3/4 P0003 T10831094=
201801171022 SPECI KATL 171022Z 32015G19KT 3/4SM R09R/3000VP6000FT -SN BR SCT009 BKN013 M08/M09 A3033 RMK AO2 P0002 T10781094=
201801171008 SPECI KATL 171008Z 32013KT 3/4SM R09R/5500V6000FT -SN BR OVC009 M08/M09 A3034 RMK AO2 CIG 008V012 P0001 T10781089=
201801170952 METAR KATL 170952Z 31012KT 1/2SM R09R/5000V6000FT SN FZFG SCT009 OVC012 M07/M09 A3035 RMK AO2 TWR VIS 3/4 SLP287 P0003 T10721089=
201801170940 SPECI KATL 170940Z 31013KT 1/2SM R09R/5000V5500FT -SN FZFG SCT009 OVC012 M07/M08 A3035 RMK AO2 TWR VIS 3/4 P0002 T10671078=
201801170924 SPECI KATL 170924Z 32015KT 3/4SM R09R/5500VP6000FT -SN BR SCT009 OVC017 M07/M08 A3035 RMK AO2 P0001 T10671083=
201801170852 METAR KATL 170852Z 31012KT 1SM R09R/P6000FT -SN BR SCT009 OVC022 M06/M07 A3035 RMK AO2 SFC VIS 1 1/4 SLP285 P0002 60005 T10611072 55002=
201801170752 METAR KATL 170752Z 33012KT 1SM R09R/P6000FT -SN BR SCT009 OVC024 M06/M07 A3034 RMK AO2 SFC VIS 1 1/2 SLP281 P0002 T10561067=
201801170652 METAR KATL 170652Z 33010KT 1SM R09R/P6000FT -SN BR SCT009 BKN015 OVC050 M04/M06 A3035 RMK AO2 SLP285 P0001 T10441061=
201801170637 SPECI KATL 170637Z 33013KT 2 1/2SM -SN BR FEW009 BKN037 OVC050 M04/M06 A3035 RMK AO2 P0000 T10441061=
201801170615 SPECI KATL 170615Z 32014KT 3SM -SN BR FEW009 SCT025 OVC050 M04/M06 A3035 RMK AO2 P0000 T10441061=
201801170552 METAR KATL 170552Z 32014KT 2SM -SN BR SCT012 BKN025 OVC050 M04/M06 A3035 RMK AO2 SNB0458 SLP287 P0000 60001 T10391056 10050 21039 58006=
201801170530 SPECI KATL 170530Z 32014KT 4SM -SN BR SCT012 BKN030 OVC055 M03/M05 A3036 RMK AO2 SNB0458 P0000 T10331050=
201801170522 SPECI KATL 170522Z 32013KT 2 1/2SM -SN BR SCT012 BKN025 OVC055 M03/M04 A3035 RMK AO2 SNB0458 P0000 T10331044=
201801170452 METAR KATL 170452Z 31011KT 9SM FEW010 SCT016 OVC055 M03/M05 A3036 RMK AO2 SNE05 SLP289 SNSH S-W-NW P0000 T10281050 401001028=
201801170406 SPECI KATL 170406Z 32015KT 9SM SCT010 BKN016 OVC060 M02/M03 A3037 RMK AO2 SNE05 P0000 T10171033=
201801170352 METAR KATL 170352Z 32013KT 6SM -SN BR BKN010 OVC020 M02/M03 A3037 RMK AO2 SLP292 PCPN VRY LGT P0000 T10171028=
201801170334 SPECI KATL 170334Z 33011KT 5SM -SN BR BKN008 OVC020 M01/M02 A3038 RMK AO2 P0000 T10111022=
201801170252 METAR KATL 170252Z 32012KT 2SM -SN BR SCT007 BKN020 OVC035 M01/M02 A3037 RMK AO2 SLP294 SCT007 V BKN P0001 60001 T10111017 51014=
201801170154 SPECI KATL 170154Z 32011KT 2SM -SN BR SCT008 BKN025 OVC050 00/M01 A3037 RMK AO2 P0000 T00001011=
201801170152 METAR KATL 170152Z 32010KT 4SM -SN BR SCT008 BKN025 OVC050 00/M01 A3037 RMK AO2 SNB16 SLP293 P0000 T00001011=
201801170052 METAR KATL 170052Z 31013KT 10SM FEW040 OVC055 02/M02 A3036 RMK AO2 SLP289 T00171022=
201801162352 METAR KATL 162352Z 32013KT 10SM FEW035 OVC055 05/M01 A3033 RMK AO2 WSHFT 2316 SLP279 T00501006 10100 20050 51006=
201801162336 SPECI KATL 162336Z 32013KT 10SM SCT035 BKN055 OVC100 06/01 A3033 RMK AO2 WSHFT 2316 T00610006=
201801162252 METAR KATL 162252Z 24007KT 10SM SCT035 BKN060 OVC120 08/01 A3032 RMK AO2 SLP274 VIRGA NW-NE T00830006=
201801162152 METAR KATL 162152Z 23009KT 10SM BKN040 BKN120 OVC150 09/00 A3032 RMK AO2 SLP274 VIRGA S-SW-W T00890000=
201801162052 METAR KATL 162052Z 22007KT 10SM BKN050 BKN120 OVC150 09/M01 A3031 RMK AO2 SLP271 VIRGA SW-NW T00891006 56020=
201801161952 METAR KATL 161952Z VRB05KT 10SM FEW050 BKN120 OVC250 09/M01 A3033 RMK AO2 SLP277 T00941011=
201801161852 METAR KATL 161852Z 25009KT 10SM FEW050 BKN120 BKN250 09/M02 A3035 RMK AO2 SLP283 T00941017=
201801161752 METAR KATL 161752Z 23008KT 10SM FEW050 SCT120 BKN200 BKN250 09/M02 A3037 RMK AO2 SLP291 T00891022 10094 20000 58016=
201801161652 METAR KATL 161652Z VRB04KT 10SM FEW120 SCT200 BKN250 07/M02 A3040 RMK AO2 SLP299 T00721022=
201801161552 METAR KATL 161552Z 29006KT 10SM FEW120 FEW200 BKN250 05/M03 A3042 RMK AO2 SLP310 T00501028=
201801161452 METAR KATL 161452Z 24004KT 10SM SCT250 04/M03 A3042 RMK AO2 SLP308 T00441028 53018=
201801161352 METAR KATL 161352Z 30005KT 10SM SCT200 02/M03 A3041 RMK AO2 SLP305 T00221033=
201801161252 METAR KATL 161252Z 17005KT 10SM SCT200 01/M04 A3037 RMK AO2 SLP292 T00061039=
201801161152 METAR KATL 161152Z 14004KT 10SM FEW200 00/M04 A3037 RMK AO2 SLP291 T00001044 10022 21006 58007=
201801161052 METAR KATL 161052Z 13005KT 10SM FEW200 00/M04 A3038 RMK AO2 SLP294 T00001039=
201801160952 METAR KATL 160952Z 15003KT 10SM FEW200 00/M04 A3039 RMK AO2 SLP296 T00001039 $=
201801160852 METAR KATL 160852Z 00000KT 10SM FEW200 01/M04 A3039 RMK AO2 SLP297 T00061044 56004 $=
201801160752 METAR KATL 160752Z 09005KT 10SM FEW200 00/M04 A3040 RMK AO2 SLP300 T00001044 $=
201801160652 METAR KATL 160652Z 00000KT 10SM FEW250 02/M04 A3039 RMK AO2 SLP297 T00171044 $=
201801160552 METAR KATL 160552Z 00000KT 10SM SCT250 02/M04 A3040 RMK AO2 SLP302 T00221044 10061 20011 58001 $=
201801160452 METAR KATL 160452Z 15003KT 10SM SCT250 02/M04 A3040 RMK AO2 SLP302 T00221039 400941033 $=
201801160352 METAR KATL 160352Z 14003KT 10SM FEW250 03/M04 A3041 RMK AO2 SLP305 T00281039 $=
201801160252 METAR KATL 160252Z 15004KT 10SM FEW250 04/M04 A3040 RMK AO2 SLP304 T00391039 53009 $=
201801160152 METAR KATL 160152Z 14003KT 10SM FEW250 04/M03 A3040 RMK AO2 SLP303 T00441033 $=
201801160052 METAR KATL 160052Z 13003KT 10SM FEW250 06/M03 A3038 RMK AO2 SLP298 T00561028 $=
201801152352 METAR KATL 152352Z 00000KT 10SM FEW200 06/M03 A3038 RMK AO2 SLP296 T00611028 10094 20050 53000 $=
201801152252 METAR KATL 152252Z 00000KT 10SM FEW200 08/M03 A3037 RMK AO2 SLP293 T00781028 $=
201801152152 METAR KATL 152152Z 21003KT 10SM SCT250 09/M04 A3038 RMK AO2 SLP293 T00891039 $=
201801152052 METAR KATL 152052Z VRB03KT 10SM CLR 09/M04 A3038 RMK AO2 SLP293 T00891044 56019 $=
201801151952 METAR KATL 151952Z 00000KT 10SM CLR 08/M05 A3039 RMK AO2 SLP298 T00781050 $=
201801151852 METAR KATL 151852Z VRB03KT 10SM FEW050 07/M06 A3040 RMK AO2 SLP302 T00721056=
201801151752 METAR KATL 151752Z 00000KT 10SM FEW250 05/M06 A3043 RMK AO2 SLP314 T00501056 10056 21033 58020=
201801151652 METAR KATL 151652Z 11004KT 10SM FEW040 FEW250 04/M06 A3048 RMK AO2 SLP330 T00391056=
201801151552 METAR KATL 151552Z 12005KT 10SM FEW040 02/M06 A3049 RMK AO2 SLP335 T00171061=
201801151452 METAR KATL 151452Z 13006KT 10SM FEW040 FEW090 00/M07 A3049 RMK AO2 SLP337 T00001067 51010=
201801151352 METAR KATL 151352Z 09009KT 10SM FEW040 FEW090 M02/M07 A3049 RMK AO2 SLP335 T10171072=
201801151252 METAR KATL 151252Z 08008KT 10SM FEW040 FEW085 M03/M07 A3047 RMK AO2 SLP331 T10281072=
201801151152 METAR KATL 151152Z 08007KT 10SM FEW085 M03/M07 A3046 RMK AO2 SLP326 T10281072 11011 21028 53016=
201801151052 METAR KATL 151052Z 07005KT 10SM FEW090 M03/M07 A3044 RMK AO2 SLP318 T10281072=
201801150952 METAR KATL 150952Z 07005KT 10SM SCT090 SCT200 M02/M08 A3043 RMK AO2 SLP314 T10221078=
201801150852 METAR KATL 150852Z 07006KT 10SM FEW095 SCT200 M02/M08 A3041 RMK AO2 SLP309 T10221078 58007=
201801150752 METAR KATL 150752Z 08008KT 10SM FEW075 SCT095 SCT200 M02/M08 A3042 RMK AO2 SLP310 T10221083=
201801150652 METAR KATL 150652Z 09003KT 10SM SCT090 SCT200 M01/M08 A3044 RMK AO2 SLP318 T10111083=
201801150552 METAR KATL 150552Z 10004KT 10SM FEW200 SCT250 M01/M09 A3044 RMK AO2 SLP317 T10111089 10022 21017 58005=
201801150452 METAR KATL 150452Z 07004KT 10SM SCT200 SCT250 M01/M10 A3045 RMK AO2 SLP322 T10061100 400561078=
201801150352 METAR KATL 150352Z 01006KT 10SM FEW200 SCT250 01/M10 A3046 RMK AO2 SLP325 T00061100=
201801150252 METAR KATL 150252Z 36006KT 10SM BKN200 BKN250 01/M11 A3045 RMK AO2 SLP325 T00061106 51005=
201801150152 METAR KATL 150152Z 35007KT 10SM BKN200 BKN250 01/M11 A3045 RMK AO2 SLP324 T00061106=
201801150052 METAR KATL 150052Z 34006KT 10SM BKN200 BKN250 01/M10 A3044 RMK AO2 SLP322 T00111100=
201801142352 METAR KATL 142352Z 33008KT 10SM SCT200 SCT250 02/M10 A3044 RMK AO2 SLP320 T00221100 10056 20017 53001=
201801142252 METAR KATL 142252Z 34005KT 10SM FEW200 SCT250 03/M11 A3043 RMK AO2 SLP317 T00331106=
201801142152 METAR KATL 142152Z 33004KT 10SM FEW250 FEW300 04/M12 A3043 RMK AO2 SLP315 T00441117=
201801142052 METAR KATL 142052Z 31003KT 10SM SCT250 SCT300 05/M10 A3043 RMK AO2 SLP317 T00501100 55014=
201801141952 METAR KATL 141952Z 00000KT 10SM SCT250 SCT300 04/M09 A3043 RMK AO2 SLP316 T00391094=
201801141852 METAR KATL 141852Z 00000KT 10SM FEW250 03/M09 A3044 RMK AO2 SLP318 T00281089=
201801141752 METAR KATL 141752Z 24003KT 10SM FEW250 02/M08 A3047 RMK AO2 SLP332 T00171083 10017 21078 58016=
201801141652 METAR KATL 141652Z 00000KT 10SM FEW200 FEW250 01/M09 A3051 RMK AO2 SLP344 T00111089=
201801141552 METAR KATL 141552Z 32005KT 10SM SCT200 SCT250 M02/M09 A3053 RMK AO2 SLP351 T10171089=
201801141452 METAR KATL 141452Z 34005KT 10SM FEW200 SCT250 M04/M09 A3052 RMK AO2 SLP350 T10391094 51022=
201801141352 METAR KATL 141352Z 34006KT 10SM FEW150 FEW250 M06/M11 A3051 RMK AO2 SLP345 T10611106=
201801141252 METAR KATL 141252Z 32007KT 10SM FEW250 M08/M11 A3049 RMK AO2 SLP342 T10781111=
201801141152 METAR KATL 141152Z 34008KT 10SM CLR M08/M11 A3046 RMK AO2 SLP328 T10781111 11056 21078 53010=
201801141052 METAR KATL 141052Z 33008KT 10SM CLR M07/M11 A3045 RMK AO2 SLP325 T10721106=
201801140952 METAR KATL 140952Z 34007KT 10SM CLR M07/M11 A3043 RMK AO2 SLP318 T10721106=
201801140852 METAR KATL 140852Z 33008G14KT 10SM CLR M07/M11 A3043 RMK AO2 SLP316 T10671106 50004=
201801140752 METAR KATL 140752Z 33007KT 10SM CLR M07/M10 A3043 RMK AO2 SLP316 T10671100=
201801140652 METAR KATL 140652Z 33011KT 10SM CLR M06/M10 A3042 RMK AO2 SLP314 T10561100=
201801140552 METAR KATL 140552Z 33014G21KT 10SM CLR M06/M09 A3041 RMK AO2 SLP311 T10561094 11017 21056 51009=
201801140452 METAR KATL 140452Z 32019G25KT 10SM CLR M05/M09 A3041 RMK AO2 SLP310 T10501094 400281050=
201801140352 METAR KATL 140352Z 32014G22KT 10SM CLR M04/M09 A3040 RMK AO2 PK WND 33026/0328 SLP308 T10441089=
201801140252 METAR KATL 140252Z 33011KT 10SM CLR M03/M08 A3038 RMK AO2 PK WND 33026/0209 SLP302 T10331083 51014=
201801140152 METAR KATL 140152Z 33017G23KT 10SM CLR M03/M08 A3037 RMK AO2 SLP298 T10281083=
201801140052 METAR KATL 140052Z 33013KT 10SM CLR M02/M08 A3036 RMK AO2 SLP293 T10221078=
201801132352 METAR KATL 132352Z 32015G21KT 10SM CLR M02/M07 A3034 RMK AO2 SLP287 T10171072 10028 21017 53025=
201801132252 METAR KATL 132252Z 32018G22KT 10SM CLR M01/M06 A3031 RMK AO2 SLP275 T10111061=
201801132152 METAR KATL 132152Z 32016G24KT 10SM FEW026 01/M06 A3029 RMK AO2 PK WND 34026/2053 SLP268 T00061056=
201801132052 METAR KATL 132052Z 33016KT 10SM FEW028 02/M04 A3026 RMK AO2 SLP258 T00221044 53007=
201801131952 METAR KATL 131952Z 31016G21KT 10SM FEW025 03/M04 A3025 RMK AO2 SLP255 T00281039=
201801131852 METAR KATL 131852Z 32018KT 10SM SCT025 02/M04 A3025 RMK AO2 PK WND 30026/1809 SLP252 T00171044=
201801131752 METAR KATL 131752Z 33018KT 10SM SCT022 01/M04 A3024 RMK AO2 PK WND 32027/1712 SLP252 T00111044 10017 21017 50017=
201801131750 SPECI KATL 131750Z 32019KT 10SM SCT022 01/M04 A3024 RMK AO2 PK WND 32027/1712=
201801131652 METAR KATL 131652Z 32020G23KT 10SM BKN022 01/M04 A3025 RMK AO2 PK WND 33030/1642 SLP254 T00111039=
201801131552 METAR KATL 131552Z 32021G32KT 10SM BKN021 00/M04 A3023 RMK AO2 PK WND 32035/1541 SLP246 T00001044=
201801131452 METAR KATL 131452Z 33021G31KT 10SM BKN023 BKN030 M01/M05 A3019 RMK AO2 PK WND 31034/1441 SLP234 T10061050 51032=
201801131352 METAR KATL 131352Z 32021G30KT 10SM BKN017 M01/M05 A3016 RMK AO2 PK WND 32030/1352 SLP223 T10111050=
201801131252 METAR KATL 131252Z 32016G26KT 10SM OVC017 M02/M05 A3013 RMK AO2 PK WND 32030/1222 SLP211 BINOVC NE-SE T10171050=
201801131152 METAR KATL 131152Z 32019G24KT 10SM OVC018 M02/M05 A3009 RMK AO2 PK WND 31026/1058 SLP199 70049 T10171050 11017 21022 51023=
201801131052 METAR KATL 131052Z 33017G26KT 10SM OVC020 M02/M06 A3007 RMK AO2 PK WND 32029/1015 SLP190 T10171056=
201801130952 METAR KATL 130952Z 32018G27KT 10SM OVC019 M02/M06 A3005 RMK AO2 PK WND 32028/0932 SLP183 BINOVC T10221056=
201801130852 METAR KATL 130852Z 31018G23KT 10SM OVC020 M02/M06 A3002 RMK AO2 SLP171 BINOVC T10221056 53023=
201801130752 METAR KATL 130752Z 31015KT 10SM OVC019 M02/M06 A3000 RMK AO2 SLP163 T10221061=
201801130652 METAR KATL 130652Z 32014G23KT 10SM OVC019 M02/M06 A2998 RMK AO2 PK WND 32029/0623 SLP156 T10221061=
201801130552 METAR KATL 130552Z 31019G25KT 10SM OVC020 M02/M06 A2995 RMK AO2 PK WND 32031/0512 SLP148 BINOVC T10221061 10044 21022 51014=
201801130452 METAR KATL 130452Z 30014KT 10SM SCT020 BKN026 M02/M06 A2995 RMK AO2 PK WND 32032/0428 SLP147 T10221056 401671022=
201801130352 METAR KATL 130352Z 30015G30KT 10SM BKN017 OVC025 M02/M05 A2994 RMK AO2 PK WND 30030/0256 SLP143 T10171050=
201801130252 METAR KATL 130252Z 30019G30KT 10SM BKN014 OVC020 M01/M03 A2991 RMK AO2 PK WND 31030/0248 SLP132 T10061028 51034=
201801130152 METAR KATL 130152Z 30024G29KT 10SM BKN014 OVC020 01/M02 A2988 RMK AO2 PK WND 30031/0130 SLP120 T00061017=
201801130052 METAR KATL 130052Z 31021G28KT 10SM BKN013 OVC020 02/00 A2985 RMK AO2 PK WND 30028/0052 SLP108 T00220000=
201801122352 METAR KATL 122352Z 30013G23KT 10SM BKN012 OVC020 04/03 A2981 RMK AO2 PK WND 31027/2311 PRESRR SLP095 60002 T00440028 10150 20044 53051=
201801122252 METAR KATL 122252Z 28015G23KT 10SM BKN010 OVC020 08/07 A2974 RMK AO2 PK WND 28026/2206 SLP071 BINOVC T00830072=
201801122152 METAR KATL 122152Z 27016G22KT 10SM SCT012 BKN017 BKN050 11/09 A2970 RMK AO2 PK WND 28027/2124 RAE2058 SLP054 P0000 T01060089=
201801122149 SPECI KATL 122149Z 27012G22KT 10SM SCT012 BKN017 BKN050 11/09 A2970 RMK AO2 PK WND 28027/2124 RAE2058 P0000=
201801122140 SPECI KATL 122140Z 27017G25KT 10SM BKN012 BKN020 OVC035 11/09 A2969 RMK AO2 PK WND 28027/2124 RAE2058 P0000 T01110094=
201801122131 SPECI KATL 122131Z 28020G27KT 10SM SCT010 BKN015 BKN021 12/10 A2968 RMK AO2 PK WND 28027/2124 RAE2058 PRESRR P0000 T01170100=
201801122103 SPECI KATL 122103Z 27015G23KT 10SM SCT017 BKN037 BKN050 14/12 A2966 RMK AO2 RAE2058 P0000 T01390122=
201801122052 METAR KATL 122052Z 27011G24KT 7SM -RA SCT014 BKN021 BKN048 13/12 A2965 RMK AO2 RAB12 SLP038 FROPA P0000 60002 T01330122 55012=
201801122016 SPECI KATL 122016Z 25010KT 10SM -RA SCT014 BKN021 OVC030 14/13 A2964 RMK AO2 RAB12 P0000 T01440128=
201801121952 METAR KATL 121952Z 23009KT 10SM SCT012 BKN035 BKN050 14/13 A2965 RMK AO2 SLP036 T01440133=
201801121946 SPECI KATL 121946Z 22008KT 10SM SCT012 BKN035 BKN050 14/13 A2965 RMK AO2=
201801121852 METAR KATL 121852Z 21011KT 10SM SCT013 BKN023 OVC045 14/14 A2967 RMK AO2 RAE47 SLP043 P0002 T01390139=
201801121752 METAR KATL 121752Z 19008KT 10SM -RA FEW010 BKN080 OVC100 14/13 A2969 RMK AO2 RAB09 SLP051 P0002 60047 T01440133 10167 20133 56035=
201801121652 METAR KATL 121652Z 16005KT 10SM FEW010 SCT050 OVC070 14/14 A2970 RMK AO2 RAE09 SLP054 VIRGA E & S & W P0001 T01440139=
201801121552 METAR KATL 121552Z 13006KT 8SM -RA FEW008 BKN060 OVC080 14/13 A2975 RMK AO2 PRESFR SLP072 P0021 T01390133=
201801121452 METAR KATL 121452Z 19006KT 4SM RA BR FEW008 OVC048 14/14 A2980 RMK AO2 WSHFT 1339 PRESRR SLP087 P0009 60023 T01440139 53007=
201801121407 SPECI KATL 121407Z 26008KT 10SM -RA FEW020 BKN045 OVC070 14/13 A2978 RMK AO2 WSHFT 1339 P0000 T01440133=
201801121355 SPECI KATL 121355Z 27010G21KT 9SM -RA FEW007 BKN020CB OVC050 14/13 A2977 RMK AO2 WSHFT 1339 CB NE-SE MOV E P0000 T01440133=
201801121352 METAR KATL 121352Z 28011G21KT 6SM -RA BR SCT007 BKN014CB OVC038 15/13 A2976 RMK AO2 WSHFT 1338 SLP076 CB NE-SE MOV E P0013 T01500133=
201801121347 SPECI KATL 121347Z 28015G21KT 1 1/2SM +RA BR SCT007 BKN014CB OVC038 15/14 A2977 RMK AO2 CB N-OHD-S MOV E P0012=
201801121341 SPECI KATL 121341Z 27013KT 1SM R09R/P6000FT +RA BR BKN007 OVC014CB 16/16 A2978 RMK AO2 PRESRR CB N-OHD-S MOV E P0007 T01610161=
201801121252 METAR KATL 121252Z 16011G18KT 8SM -RA BKN008 OVC018 16/16 A2975 RMK AO2 SLP071 CIG 006V010 P0001 T01610161=
201801121152 METAR KATL 121152Z 15008KT 10SM -RA BKN007 BKN014 OVC036 16/16 A2977 RMK AO2 RAE04B45 SLP079 CIG 005V009 P0000 60003 70004 T01560156 10167 20144 58014=
201801121126 SPECI KATL 121126Z 15008KT 10SM BKN007 BKN012 OVC038 16/16 A2978 RMK AO2 RAE04 CIG 005V009 P0000 T01560156=
201801121121 SPECI KATL 121121Z 15009KT 10SM SCT009 BKN012 OVC090 16/16 A2979 RMK AO2 RAE04 P0000 T01560156=
201801121115 SPECI KATL 121115Z 15009KT 10SM BKN012 BKN065 OVC090 16/16 A2979 RMK AO2 RAE04 P0000 T01560156=
201801121052 METAR KATL 121052Z 14007KT 6SM -RA BR BKN015 BKN040 OVC080 16/16 A2978 RMK AO2 RAE18B44 SLP082 P0002 T01560156=
201801120952 METAR KATL 120952Z 18010KT 7SM -RA SCT012 BKN018 OVC055 16/16 A2981 RMK AO2 RAB14 SLP092 P0001 T01610156=
201801120946 SPECI KATL 120946Z 19011KT 10SM -RA SCT012 BKN020 OVC060 17/16 A2982 RMK AO2 RAB14 P0001=
201801120905 SPECI KATL 120905Z 17009KT 10SM SCT007 BKN014 OVC100 16/16 A2980 RMK AO2 T01610161=
201801120852 METAR KATL 120852Z 15008KT 1/2SM R09R/P6000FT BKN004 OVC012 16/16 A2980 RMK AO2 SFC VIS 8 DZE10 SLP089 CIG 003V007 TWRINC P0000 60000 T01610161 56019=
201801120817 SPECI KATL 120817Z 14007KT 1/2SM R09R/P6000FT BR OVC004 16/16 A2981 RMK AO2 SFC VIS 6 DZE10 CIG 003V007 TWRINC P0000 T01610161=
201801120752 METAR KATL 120752Z 14008KT 1/4SM R09R/5000VP6000FT -DZ FG VV002 16/16 A2982 RMK AO2 SFC VIS 1/2 SLP096 P0000 T01560156=
201801120740 SPECI KATL 120740Z 15007KT 1/4SM R09R/2200V2800FT -DZ FG VV002 15/15 A2983 RMK AO2 SFC VIS 1/2 P0000 T01500150=
201801120652 METAR KATL 120652Z 11003KT 1/4SM R09R/1600V1800FT -DZ FG VV002 14/14 A2983 RMK AO2 DZB25 SLP100 P0000 T01440144=
201801120552 METAR KATL 120552Z 14005KT 1/4SM R09R/1400V1600FT FG VV002 15/15 A2986 RMK AO2 SLP109 T01500150 10150 20144 58021=
201801120452 METAR KATL 120452Z 11005KT 1/4SM R09R/1200V1400FT FG VV002 14/14 A2989 RMK AO2 TWR VIS 1/4 SLP121 T01440144 401560117=
201801120352 METAR KATL 120352Z 11003KT 1/4SM R09R/1200FT FG VV002 14/14 A2992 RMK AO2 TWR VIS 1/4 SLP130 T01440144=
201801120252 METAR KATL 120252Z 00000KT 1/4SM R09R/1000V1200FT FG VV002 14/14 A2992 RMK AO2 SLP131 T01440144 56014=
201801120225 SPECI KATL 120225Z 13005KT 1/4SM R09R/1600V2200FT FG VV002 14/14 A2993 RMK AO2 SFC VIS 1/2 T01440144=
201801120152 METAR KATL 120152Z 11004KT 1/4SM R09R/3500VP6000FT BR BCFG VV002 14/14 A2994 RMK AO2 SFC VIS 1 SLP136 T01440144=
201801120125 SPECI KATL 120125Z 09004KT 1/4SM R09R/5500VP6000FT BR VV002 14/14 A2994 RMK AO2 SFC VIS 1 T01440144=
201801120052 METAR KATL 120052Z 09005KT 1/4SM R09R/P6000FT BR OVC003 14/14 A2995 RMK AO2 SFC VIS 5 SLP140 CIG 001V005 TWRINC T01440144=
201801112352 METAR KATL 112352Z 09009KT 1/4SM R09R/P6000FT OVC003 15/15 A2997 RMK AO2 SFC VIS 7 SLP146 CIG 002V005 TWRINC 60000 T01500150 10156 20133 58008=
201801112252 METAR KATL 112252Z 07006KT 1/4SM R09R/P6000FT BR OVC003 15/15 A2998 RMK AO2 SFC VIS 3 RAB05E18 SLP151 TWRINC P0000 T01500150=
201801112152 METAR KATL 112152Z 00000KT 1/4SM R09R/P6000FT BR BCFG BKN003 BKN007 OVC020 15/15 A2999 RMK AO2 SFC VIS 1 3/4 DZE46 SLP153 TWRINC P0000 T01500150=
201801112052 METAR KATL 112052Z 10005KT 1/4SM R09R/P6000FT -DZ BR BKN004 BKN007 OVC020 15/15 A2999 RMK AO2 SFC VIS 2 SLP154 TWRINC P0000 60000 T01500150 56023=
201801112039 SPECI KATL 112039Z 11007KT 1/4SM R09R/P6000FT -DZ BR BKN004 BKN008 OVC020 15/15 A2999 RMK AO2 SFC VIS 2 TWRINC P0000 T01500150=
201801112020 SPECI KATL 112020Z 12004KT 3/4SM R09R/P6000FT -DZ BR BKN005 BKN008 OVC020 15/15 A3000 RMK AO2 SFC VIS 3 P0000 T01500150=
201801111952 METAR KATL 111952Z 11008KT 1 1/4SM -DZ BR BKN005 BKN007 OVC020 15/15 A3000 RMK AO2 SFC VIS 4 SLP157 P0000 T01500150=
201801111940 SPECI KATL 111940Z 11007KT 1 1/4SM -DZ BR BKN005 BKN008 OVC020 15/14 A3001 RMK AO2 SFC VIS 4 P0000 T01500144=
201801111938 SPECI KATL 111938Z 11007KT 1/2SM R09R/P6000FT -DZ BR BKN005 BKN008 OVC020 15/14 A3001 RMK AO2 SFC VIS 4 P0000 T01500144=
201801111852 METAR KATL 111852Z 08007KT 1/2SM R09R/P6000FT -DZ BR BKN003 BKN007 OVC020 14/14 A3002 RMK AO2 SFC VIS 2 1/2 DZB48 SLP165 TWRINC P0000 T01390139=
201801111752 METAR KATL 111752Z 09007KT 1/2SM R09R/P6000FT BR BKN003 BKN006 OVC020 13/13 A3006 RMK AO2 SFC VIS 3 DZE48 SLP179 TWRINC P0000 60001 T01330133 10133 20117 58020=
201801111652 METAR KATL 111652Z 10008KT 1/2SM R09R/P6000FT -DZ BR BKN004 BKN006 OVC020 13/13 A3009 RMK AO2 SFC VIS 4 SLP189 TWRINC P0000 T01330133=
201801111552 METAR KATL 111552Z 09013KT 1/2SM R09R/P6000FT -DZ BR BKN004 BKN007 OVC020 13/13 A3012 RMK AO2 SFC VIS 3 DZE20B45RAB20E39 SLP198 TWRINC P0001 T01280128=
201801111452 METAR KATL 111452Z 08011KT 1/2SM R09R/P6000FT -DZ BR OVC004 12/12 A3012 RMK AO2 SFC VIS 2 SLP200 TWRINC P0000 60000 T01170117 53007=
201801111352 METAR KATL 111352Z 09011KT 1/2SM R09R/P6000FT -DZ BR OVC003 12/12 A3011 RMK AO2 SFC VIS 1 3/4 RAE38DZB38 SLP196 CIG 002V004 TWRINC P0000 T01170117=
201801111252 METAR KATL 111252Z 09010KT 1/2SM R09R/P6000FT -RA BR OVC004 12/12 A3010 RMK AO2 SFC VIS 2 1/2 SLP192 CIG 003V005 TWRINC P0000 T01170117=
201801111241 SPECI KATL 111241Z 08011KT 1/2SM R09R/P6000FT -RA BR OVC004 12/12 A3010 RMK AO2 SFC VIS 2 CIG 003V005 TWRINC P0000 T01170117=
201801111152 METAR KATL 111152Z 10007KT 3/4SM R09R/P6000FT -RA BR OVC003 12/12 A3010 RMK AO2 SFC VIS 3 SLP191 CIG 002V005 TWRINC P0002 60005 70005 T01170117 10139 20117 53005=
201801111052 METAR KATL 111052Z 09010KT 3/4SM R09R/P6000FT -RA BR OVC003 12/12 A3009 RMK AO2 SFC VIS 2 1/2 SLP187 CIG 002V005 TWRINC P0002 T01170117=
201801110952 METAR KATL 110952Z 08012KT 3/4SM R09R/P6000FT -RA BR OVC003 12/12 A3007 RMK AO2 SFC VIS 2 SLP182 CIG 002V004 TWRINC P0000 T01220122=
201801110852 METAR KATL 110852Z 09012KT 3/4SM R09R/P6000FT -RA BR OVC004 13/13 A3009 RMK AO2 SFC VIS 3 RAE0759B32DZB0759E32 SLP186 CIG 003V005 TWRINC P0000 60001 T01280128 56016=
201801110848 SPECI KATL 110848Z 09014KT 3/4SM R09R/P6000FT -RA BR OVC004 13/13 A3009 RMK AO2 SFC VIS 2 1/2 RAE0759B32DZB0759E32 CIG 003V005 TWRINC P0000=
201801110752 METAR KATL 110752Z 10011KT 1 1/2SM -RA BR OVC004 13/13 A3010 RMK AO2 SFC VIS 3 SLP191 CIG 003V006 P0000 T01330133=
201801110652 METAR KATL 110652Z 10011KT 1 1/2SM -RA BR OVC004 13/13 A3010 RMK AO2 SFC VIS 3 RAE04B25DZB04E25 SLP191 CIG 003V005 P0001 T01330133=
201801110634 SPECI KATL 110634Z 10009KT 1 1/2SM -RA BR OVC004 13/13 A3011 RMK AO2 SFC VIS 2 1/2 RAE04B25DZB04E25 CIG 003V005 P0000 T01330133=
201801110625 SPECI KATL 110625Z 10011KT 1 1/2SM -RA BR OVC005 13/13 A3012 RMK AO2 SFC VIS 2 1/2 RAE04B25DZB04E25 P0000 T01330133=
201801110552 METAR KATL 110552Z 10011KT 7SM -RA OVC006 14/14 A3014 RMK AO2 DZE15RAB15 SLP203 CIG 005V008 P0000 60000 T01390139 10167 20139 58016=
201801110523 SPECI KATL 110523Z 09010KT 4SM -RA BR OVC006 14/14 A3014 RMK AO2 DZE15RAB15 CIG 005V008 P0000 T01390139=
201801110515 SPECI KATL 110515Z 10009KT 2 1/2SM -RA BR OVC006 14/14 A3015 RMK AO2 DZE15RAB15 CIG 005V008 P0000 T01390139=
201801110452 METAR KATL 110452Z 10010KT 4SM -DZ BR OVC007 14/14 A3015 RMK AO2 DZB12 SLP209 CIG 005V009 P0000 T01390139 401830117=
201801110412 SPECI KATL 110412Z 11010KT 7SM -DZ OVC008 14/14 A3017 RMK AO2 DZB12 P0000 T01440139=
201801110352 METAR KATL 110352Z 10011KT 10SM BKN010 OVC020 14/13 A3017 RMK AO2 RAB22E37 SLP215 P0000 T01440133=
201801110341 SPECI KATL 110341Z 10009KT 10SM BKN012 OVC020 15/13 A3018 RMK AO2 RAB22E37 P0000 T01500133=
201801110252 METAR KATL 110252Z 10011KT 10SM SCT017 BKN022 OVC040 16/12 A3018 RMK AO2 SLP219 T01560122 50004=
201801110152 METAR KATL 110152Z 11009KT 10SM BKN020 OVC035 16/12 A3019 RMK AO2 SLP220 T01610117=
201801110052 METAR KATL 110052Z 10010KT 10SM BKN024 BKN032 OVC045 17/12 A3018 RMK AO2 SLP218 T01670117=
201801102352 METAR KATL 102352Z 11010KT 10SM BKN025 BKN035 OVC050 17/12 A3017 RMK AO2 SLP215 T01670122 10183 20167 53005=
201801102332 SPECI KATL 102332Z 11009KT 10SM SCT027 OVC035 17/12 A3017 RMK AO2 BINOVC T01670122=
201801102252 METAR KATL 102252Z 12013G18KT 10SM BKN027 OVC050 17/12 A3017 RMK AO2 SLP213 T01720117=
201801102152 METAR KATL 102152Z 11011G18KT 10SM BKN028 OVC050 18/11 A3015 RMK AO2 SLP209 T01780111=
201801102052 METAR KATL 102052Z 12005KT 10SM BKN035 BKN050 18/11 A3016 RMK AO2 SLP210 T01780111 56020=
201801102042 SPECI KATL 102042Z 10009KT 10SM BKN030 BKN040 BKN050 18/11 A3016 RMK AO2 T01780111=
201801101952 METAR KATL 101952Z 10008KT 10SM FEW015 BKN025 BKN050 17/12 A3017 RMK AO2 SLP214 T01670117=
201801101852 METAR KATL 101852Z 12009KT 10SM BKN025 BKN040 BKN050 17/11 A3018 RMK AO2 SLP219 VIRGA E-SE T01720106=
201801101802 SPECI KATL 101802Z 11009KT 10SM BKN027 BKN032 OVC050 18/10 A3021 RMK AO2 T01780100=
201801101752 METAR KATL 101752Z 10011KT 10SM FEW027 SCT040 OVC050 17/10 A3022 RMK AO2 SLP230 T01720100 10172 20122 58020=
201801101718 SPECI KATL 101718Z 10011KT 10SM SCT028 BKN039 OVC048 16/09 A3024 RMK AO2 T01610094=
201801101652 METAR KATL 101652Z 10009KT 10SM BKN025 OVC030 16/10 A3026 RMK AO2 SLP245 VIRGA DSNT SE-SW-NW T01560100=
201801101607 SPECI KATL 101607Z 10010KT 10SM SCT026 OVC033 15/10 A3028 RMK AO2 T01500100=
201801101552 METAR KATL 101552Z 10011KT 10SM BKN025 OVC033 15/11 A3028 RMK AO2 SLP253 T01500106=
201801101519 SPECI KATL 101519Z 11010KT 10SM BKN025 BKN035 14/11 A3029 RMK AO2 T01440111=
201801101452 METAR KATL 101452Z 10009KT 10SM BKN037 14/11 A3028 RMK AO2 SLP253 T01390111 51014=
201801101352 METAR KATL 101352Z 10006KT 10SM BKN017 OVC024 13/11 A3027 RMK AO2 SLP251 BINOVC T01280111 $=
201801101323 SPECI KATL 101323Z 09008KT 10SM BKN015 BKN024 BKN035 13/12 A3026 RMK AO2 T01280117=
201801101252 METAR KATL 101252Z 08009KT 10SM SCT017 SCT024 BKN035 12/12 A3025 RMK AO2 SLP242 T01220117=
201801101152 METAR KATL 101152Z 10007KT 10SM BKN018 OVC026 12/12 A3024 RMK AO2 SLP238 BINOVC T01220122 10133 20117 51011=
201801101104 SPECI KATL 101104Z 09008KT 10SM BKN019 OVC031 12/12 A3022 RMK AO2 T01170117=
201801101052 METAR KATL 101052Z 09006KT 10SM SCT021 BKN031 BKN050 12/12 A3022 RMK AO2 SLP232 T01170117=
201801101036 SPECI KATL 101036Z 09006KT 10SM FEW003 SCT021 BKN033 12/12 A3021 RMK AO2 T01170117=
201801101002 SPECI KATL 101002Z 06006KT 10SM FEW004 BKN026 12/12 A3022 RMK AO2 T01170117=
201801100952 METAR KATL 100952Z 05007KT 2SM FEW002 BKN004 OVC024 12/12 A3022 RMK AO2 SFC VIS 8 SLP231 TWRINC T01220122=
201801100934 SPECI KATL 100934Z 06007KT 1/4SM R09R/2000V5000FT FG VV002 12/12 A3022 RMK AO2 T01220122=
201801100906 SPECI KATL 100906Z 04007KT 1/4SM R09R/1400V2200FT FG VV002 12/12 A3021 RMK AO2 T01220122=
201801100852 METAR KATL 100852Z 07005KT 1/4SM R09R/2000V2600FT FG VV002 13/13 A3020 RMK AO2 SFC VIS 1/2 SLP225 T01280128 55004=
201801100752 METAR KATL 100752Z 11005KT 1/4SM R09R/P6000FT BR OVC002 13/13 A3020 RMK AO2 SFC VIS 2 SLP224 T01280128=
201801100701 SPECI KATL 100701Z 12008KT 1/4SM R09R/4000V6000FT BR VV002 13/13 A3020 RMK AO2 SFC VIS 3/4 T01280128=
201801100652 METAR KATL 100652Z 13009KT 1/4SM R09R/5000VP6000FT BR OVC003 13/13 A3020 RMK AO2 SFC VIS 1 1/2 SLP225 T01280128=
201801100649 SPECI KATL 100649Z 13009KT 2SM R09R/5500VP6000FT BR OVC003 13/13 A3020 RMK AO2=
201801100644 SPECI KATL 100644Z 13010KT 3SM BR OVC003 13/13 A3020 RMK AO2 T01280128=
201801100621 SPECI KATL 100621Z 12007KT 8SM BKN006 BKN010 OVC035 13/13 A3020 RMK AO2 T01330128=
201801100552 METAR KATL 100552Z 11007KT 10SM SCT006 BKN035 BKN250 13/13 A3021 RMK AO2 SLP230 SCT006 V BKN T01330133 10150 20117 58004=
201801100522 SPECI KATL 100522Z 11007KT 10SM FEW006 SCT012 BKN035 BKN250 13/13 A3022 RMK AO2 T01330128=
201801100452 METAR KATL 100452Z 12005KT 10SM FEW015 SCT022 BKN035 BKN250 13/13 A3022 RMK AO2 SLP234 T01330128 401830022=
201801100412 SPECI KATL 100412Z 12006KT 10SM FEW015 BKN022 BKN035 BKN250 13/12 A3023 RMK AO2 T01330117=
201801100352 METAR KATL 100352Z 10006KT 10SM SCT016 BKN035 BKN100 BKN250 12/11 A3023 RMK AO2 SLP238 T01220111=
201801100252 METAR KATL 100252Z 08007KT 10SM FEW030 SCT250 12/10 A3023 RMK AO2 SLP236 T01170100 53007=
201801100152 METAR KATL 100152Z 08007KT 10SM FEW030 SCT250 12/11 A3022 RMK AO2 SLP235 T01220106=
201801100052 METAR KATL 100052Z 10005KT 10SM FEW030 FEW250 14/11 A3020 RMK AO2 SLP229 T01440111=
201801092352 METAR KATL 092352Z 09006KT 10SM FEW030 FEW250 14/11 A3020 RMK AO2 SLP229 T01440106 10183 20133 51010=
201801092252 METAR KATL 092252Z 08006KT 10SM FEW025 FEW250 15/11 A3020 RMK AO2 SLP226 T01500106=
201801092152 METAR KATL 092152Z 07009KT 10SM FEW025 FEW060 FEW250 17/11 A3018 RMK AO2 SLP222 T01720111=
201801092052 METAR KATL 092052Z 05009KT 10SM FEW025 FEW060 SCT250 18/12 A3017 RMK AO2 SLP218 T01780117 55015=
201801091952 METAR KATL 091952Z 10005KT 10SM FEW020 FEW060 SCT250 17/12 A3017 RMK AO2 SLP219 T01720122=
201801091852 METAR KATL 091852Z 09006KT 10SM FEW015 SCT060 SCT250 16/12 A3019 RMK AO2 SLP226 T01610122=
201801091803 SPECI KATL 091803Z 06005KT 10SM FEW006 SCT015 SCT020 14/11 A3021 RMK AO2 T01440111=
201801091752 METAR KATL 091752Z 05007KT 10SM FEW006 SCT015 BKN020 13/11 A3022 RMK AO2 DZE29 SLP236 P0000 60000 T01330111 10133 20061 58013=
201801091730 SPECI KATL 091730Z 05007KT 7SM BKN006 BKN012 OVC015 13/11 A3024 RMK AO2 DZE29 P0000 T01280106=
201801091652 METAR KATL 091652Z 06005KT 4SM -DZ BR BKN006 BKN010 OVC015 11/10 A3026 RMK AO2 DZB22 SLP250 P0000 T01110100=
201801091623 SPECI KATL 091623Z VRB05KT 3SM -DZ BR BKN006 BKN008 OVC013 10/09 A3026 RMK AO2 DZB22 P0000 T01000094=
201801091552 METAR KATL 091552Z 11005KT 5SM BR BKN007 BKN010 OVC013 10/08 A3027 RMK AO2 SLP255 T01000083=
201801091452 METAR KATL 091452Z 09008KT 6SM BR BKN008 09/07 A3026 RMK AO2 DZB36E49 SLP251 P0000 60000 T00890072 51020=
201801091436 SPECI KATL 091436Z 10006KT 6SM -DZ BR OVC007 08/07 A3025 RMK AO2 DZB36 P0000 T00830067=
201801091352 METAR KATL 091352Z 07007KT 7SM OVC007 08/06 A3024 RMK AO2 SLP246 T00780061=
201801091252 METAR KATL 091252Z 07007KT 7SM OVC006 07/05 A3021 RMK AO2 SLP237 T00670050=
201801091152 METAR KATL 091152Z 10004KT 7SM OVC006 06/05 A3019 RMK AO2 SLP231 70027 T00610050 10061 20022 53005=
201801091052 METAR KATL 091052Z 07007KT 7SM OVC008 06/04 A3019 RMK AO2 SLP228 CIG 007V009 T00560044=
201801090952 METAR KATL 090952Z 08007KT 7SM OVC007 05/04 A3018 RMK AO2 SLP226 CIG 006V010 BINOVC T00500039 $=
201801090852 METAR KATL 090852Z 05007KT 9SM OVC009 04/03 A3018 RMK AO2 SLP225 CIG 008V012 T00390033 56007 $=
201801090828 SPECI KATL 090828Z 05006KT 7SM BKN008 03/03 A3017 RMK AO2 T00280028 $=
201801090752 METAR KATL 090752Z 06006KT 9SM FEW003 FEW080 FEW200 03/03 A3018 RMK AO2 SLP226 T00280028 $=
201801090652 METAR KATL 090652Z 06007KT 8SM FEW003 FEW080 SCT200 03/03 A3019 RMK AO2 SLP229 T00330028 $=
201801090552 METAR KATL 090552Z 05007KT 6SM BR FEW003 FEW024 BKN075 BKN200 04/03 A3020 RMK AO2 SLP232 60002 T00390033 10039 20022 50001 $=
201801090452 METAR KATL 090452Z VRB06KT 6SM BR FEW003 FEW020 SCT100 BKN200 03/03 A3021 RMK AO2 SLP236 T00330028 400611006 $=
201801090352 METAR KATL 090352Z 06007KT 5SM BR FEW002 FEW018 SCT080 BKN180 03/02 A3021 RMK AO2 SLP237 T00280022 $=
201801090252 METAR KATL 090252Z 09006KT 4SM BR FEW003 SCT018 SCT085 OVC180 03/03 A3020 RMK AO2 SLP233 60002 T00280028 53001 $=
201801090152 METAR KATL 090152Z 06007KT 7SM FEW003 SCT075 BKN100 OVC200 03/02 A3020 RMK AO2 RAE29 SLP234 P0000 T00280022 $=
201801090052 METAR KATL 090052Z 10009KT 6SM -RA BR FEW003 SCT065 OVC100 03/02 A3019 RMK AO2 SLP231 P0002 T00280022 $=
201801082352 METAR KATL 082352Z 08010KT 6SM -RA BR FEW004 FEW028 OVC070 03/02 A3019 RMK AO2 SLP234 P0004 60024 T00330022 10061 20033 50007 $=
201801082252 METAR KATL 082252Z 07011KT 5SM -RA BR FEW006 SCT024 OVC065 04/03 A3020 RMK AO2 SLP235 P0006 T00390033 $=
201801082152 METAR KATL 082152Z 08009KT 5SM -RA BR FEW024 BKN065 OVC080 04/02 A3018 RMK AO2 SLP229 P0010 T00440022 $=
201801082110 SPECI KATL 082110Z 10004KT 6SM -RA BR FEW025 BKN050 OVC080 05/03 A3018 RMK AO2 P0003 T00500028 $=
201801082052 METAR KATL 082052Z 09006KT 7SM -RA BKN024 BKN040 OVC080 06/03 A3017 RMK AO2 RAB07 SLP225 P0004 60004 T00560028 55008=
201801082006 SPECI KATL 082006Z 11004KT 10SM BKN028 BKN050 OVC080 06/01 A3016 RMK AO2 T00610006=
201801081952 METAR KATL 081952Z 11004KT 10SM BKN030 BKN050 OVC080 06/01 A3016 RMK AO2 SLP220 T00610006=
201801081852 METAR KATL 081852Z 13005KT 10SM FEW030 BKN080 OVC120 06/00 A3017 RMK AO2 RAB01E15 SLP224 P0000 T00560000=
201801081752 METAR KATL 081752Z 13007KT 10SM FEW040 BKN080 OVC120 04/M01 A3019 RMK AO2 SLP233 60001 T00441011 10044 21006 58029=
201801081652 METAR KATL 081652Z 10008KT 10SM FEW045 BKN085 OVC110 03/M02 A3022 RMK AO2 RAE13 SLP243 P0000 T00281022=
201801081552 METAR KATL 081552Z 10008KT 9SM -RA FEW040 BKN050 OVC090 01/M04 A3026 RMK AO2 SLP256 P0001 T00111039=
201801081452 METAR KATL 081452Z 12006KT 10SM -RA BKN045 BKN080 OVC110 01/M08 A3028 RMK AO2 RAB52 SLP265 P0000 60000 T00111083 56009=
201801081352 METAR KATL 081352Z 10007KT 10SM BKN048 BKN110 OVC150 00/M11 A3029 RMK AO2 SLP265 VIRGA DSNT NW-N T00001111=
201801081252 METAR KATL 081252Z 10006KT 10SM FEW016 OVC120 00/M12 A3029 RMK AO2 SLP266 VIRGA ALQDS T00001122=
201801081152 METAR KATL 081152Z 08007KT 10SM FEW016 OVC130 M01/M12 A3031 RMK AO2 SLP273 VIRGA OHD-NW T10061117 10000 21006 55002=
201801081052 METAR KATL 081052Z 08009KT 10SM FEW016 OVC150 M01/M12 A3028 RMK AO2 SLP262 T10061122=
201801080952 METAR KATL 080952Z 08009KT 10SM SCT017 OVC200 M01/M13 A3029 RMK AO2 SLP266 SCT017 V BKN T10061128=
201801080950 SPECI KATL 080950Z 08009KT 10SM SCT017 OVC200 M01/M13 A3029 RMK AO2=
201801080852 METAR KATL 080852Z 07008KT 10SM OVC017 00/M13 A3032 RMK AO2 SLP274 T00001128 50000=
201801080752 METAR KATL 080752Z 09009KT 10SM OVC015 00/M13 A3032 RMK AO2 SLP275 T00001133=
201801080748 SPECI KATL 080748Z 09009KT 10SM OVC015 00/M13 A3032 RMK AO2=
201801080652 METAR KATL 080652Z 10008KT 10SM OVC014 M01/M14 A3032 RMK AO2 SLP275 T10061139=
201801080649 SPECI KATL 080649Z 10008KT 10SM OVC014 M01/M14 A3032 RMK AO2=
201801080628 SPECI KATL 080628Z 09010KT 10SM BKN016 OVC220 M01/M14 A3033 RMK AO2 T10061139=
201801080615 SPECI KATL 080615Z 10008KT 10SM SCT019 SCT130 OVC200 M01/M14 A3033 RMK AO2 T10061139=
201801080552 METAR KATL 080552Z 10011KT 10SM SCT130 OVC200 M01/M14 A3034 RMK AO2 SLP284 VIRGA N-E T10061139 10022 21006 58016=
201801080452 METAR KATL 080452Z 10007KT 10SM BKN140 OVC200 00/M14 A3038 RMK AO2 SLP297 T00001139 400441061=
201801080352 METAR KATL 080352Z 10010KT 10SM BKN140 OVC200 00/M14 A3037 RMK AO2 SLP295 T00001139=
201801080252 METAR KATL 080252Z 09011KT 10SM SCT140 BKN180 OVC250 00/M13 A3039 RMK AO2 SLP302 T00001133 58005=
201801080152 METAR KATL 080152Z 09009KT 10SM SCT140 BKN180 OVC250 00/M13 A3041 RMK AO2 SLP311 T00001128=
201801080052 METAR KATL 080052Z 11010KT 10SM SCT140 BKN180 OVC250 02/M13 A3042 RMK AO2 SLP313 T00171128=
201801072352 METAR KATL 072352Z 11008KT 10SM SCT140 BKN180 OVC250 02/M13 A3041 RMK AO2 SLP309 T00221133 10044 20017 53001=
201801072252 METAR KATL 072252Z 12006KT 10SM SCT150 BKN200 BKN250 03/M13 A3040 RMK AO2 SLP305 T00281133=
201801072152 METAR KATL 072152Z 11010KT 10SM FEW150 SCT200 BKN250 04/M13 A3040 RMK AO2 SLP305 T00391133=
201801072052 METAR KATL 072052Z 12007KT 10SM SCT200 BKN250 04/M13 A3040 RMK AO2 SLP307 T00391133 56023=
201801071952 METAR KATL 071952Z 11008KT 10SM SCT200 BKN250 04/M13 A3042 RMK AO2 SLP313 T00391128=
201801071852 METAR KATL 071852Z 15007KT 10SM SCT200 BKN250 03/M13 A3044 RMK AO2 SLP320 T00331128=
201801071752 METAR KATL 071752Z 13009KT 10SM SCT200 BKN250 02/M13 A3047 RMK AO2 SLP329 T00221133 10022 21056 58026=
201801071652 METAR KATL 071652Z 13008KT 10SM BKN250 01/M13 A3051 RMK AO2 SLP344 T00061133=
201801071552 METAR KATL 071552Z 12007KT 10SM BKN250 M01/M13 A3055 RMK AO2 SLP358 T10111133=
201801071452 METAR KATL 071452Z 11011KT 10SM BKN250 M02/M13 A3055 RMK AO2 SLP359 T10221133 53014=
201801071352 METAR KATL 071352Z 10009KT 10SM FEW200 BKN250 M04/M13 A3054 RMK AO2 SLP355 T10441133=
201801071252 METAR KATL 071252Z 09010KT 10SM FEW200 SCT250 M06/M13 A3052 RMK AO2 SLP350 T10561128=
201801071152 METAR KATL 071152Z 09008KT 10SM FEW200 SCT250 M06/M13 A3051 RMK AO2 SLP345 T10561133 11028 21061 53014=
201801071052 METAR KATL 071052Z 08007KT 10SM FEW200 M06/M13 A3049 RMK AO2 SLP339 T10561133=
201801070952 METAR KATL 070952Z 08007KT 10SM FEW200 M06/M14 A3048 RMK AO2 SLP333 T10561144=
201801070852 METAR KATL 070852Z 08008KT 10SM CLR M05/M16 A3047 RMK AO2 SLP330 T10501161 53000=
201801070752 METAR KATL 070752Z 05007KT 10SM CLR M04/M17 A3046 RMK AO2 SLP325 T10391167=
201801070652 METAR KATL 070652Z 03006KT 10SM CLR M04/M18 A3045 RMK AO2 SLP322 T10391178=
201801070552 METAR KATL 070552Z 36005KT 10SM CLR M03/M18 A3047 RMK AO2 SLP328 T10281178 10006 21028 53003=
201801070452 METAR KATL 070452Z 01005KT 10SM CLR M02/M18 A3047 RMK AO2 SLP328 T10221178 400441061=
201801070352 METAR KATL 070352Z 34005KT 10SM CLR M03/M17 A3046 RMK AO2 SLP326 T10281167=
201801070252 METAR KATL 070252Z 31007KT 10SM CLR M03/M17 A3046 RMK AO2 SLP328 T10281167 51006=
201801070152 METAR KATL 070152Z 34010KT 10SM FEW200 M01/M17 A3045 RMK AO2 SLP326 T10111172=
201801070052 METAR KATL 070052Z 34008KT 10SM FEW200 M01/M17 A3045 RMK AO2 SLP326 T10061172=
201801062352 METAR KATL 062352Z 33007KT 10SM FEW200 01/M18 A3044 RMK AO2 SLP320 T00061178 10044 20000 51008=
201801062252 METAR KATL 062252Z 34008KT 10SM FEW200 01/M17 A3043 RMK AO2 SLP318 T00111172=
201801062152 METAR KATL 062152Z 35011KT 10SM FEW250 03/M18 A3043 RMK AO2 SLP316 T00331183=
201801062052 METAR KATL 062052Z 31009KT 10SM FEW250 04/M14 A3042 RMK AO2 SLP311 T00391139 56009=
201801061952 METAR KATL 061952Z 32009KT 10SM FEW250 04/M11 A3042 RMK AO2 SLP310 T00391111=
201801061852 METAR KATL 061852Z 33011KT 300V360 10SM FEW250 03/M10 A3042 RMK AO2 SLP312 T00331100=
201801061752 METAR KATL 061752Z 30013G18KT 10SM FEW250 03/M11 A3044 RMK AO2 SLP319 T00281106 10028 21061 58008=
201801061652 METAR KATL 061652Z 31012KT 10SM SCT250 02/M11 A3047 RMK AO2 SLP330 T00171106=
201801061552 METAR KATL 061552Z 30007KT 10SM SCT250 M01/M12 A3048 RMK AO2 SLP334 T10061117=
201801061452 METAR KATL 061452Z 32006KT 10SM FEW250 M03/M13 A3047 RMK AO2 SLP330 T10281128 53016=
201801061352 METAR KATL 061352Z 34009KT 10SM FEW200 FEW250 M04/M13 A3044 RMK AO2 SLP323 T10441128=
201801061252 METAR KATL 061252Z 32009KT 10SM FEW150 SCT200 SCT250 M06/M13 A3043 RMK AO2 SLP317 T10561128=
201801061152 METAR KATL 061152Z 32008KT 10SM FEW250 M06/M13 A3042 RMK AO2 SLP314 T10561128 11033 21061 51011=
201801061052 METAR KATL 061052Z 31007KT 10SM SCT250 M06/M13 A3041 RMK AO2 SLP311 T10561128=
201801060952 METAR KATL 060952Z 31006KT 10SM FEW250 M06/M12 A3039 RMK AO2 SLP303 T10561122=
201801060852 METAR KATL 060852Z 31006KT 10SM FEW250 M05/M13 A3039 RMK AO2 SLP301 T10501128 53006=
201801060752 METAR KATL 060752Z 33005KT 10SM FEW250 M04/M13 A3037 RMK AO2 SLP296 T10441133=
201801060652 METAR KATL 060652Z 32005KT 10SM SCT250 M04/M13 A3037 RMK AO2 SLP297 T10391133=
201801060552 METAR KATL 060552Z 31006KT 10SM SCT250 M03/M13 A3037 RMK AO2 SLP295 T10331133 11006 21033 53007=
201801060452 METAR KATL 060452Z 32007KT 10SM SCT250 M03/M14 A3036 RMK AO2 SLP294 T10281139 400391083=
201801060352 METAR KATL 060352Z 32007KT 10SM SCT250 M03/M14 A3035 RMK AO2 SLP292 T10281139=
201801060252 METAR KATL 060252Z 31005KT 10SM SCT250 M02/M14 A3035 RMK AO2 SLP290 T10171144 51014=
201801060152 METAR KATL 060152Z 31005KT 10SM SCT250 M02/M14 A3034 RMK AO2 SLP287 T10171144=
201801060052 METAR KATL 060052Z 30006KT 10SM FEW250 M01/M14 A3032 RMK AO2 SLP283 T10111144=
201801052352 METAR KATL 052352Z 27006KT 10SM FEW250 M01/M15 A3031 RMK AO2 SLP277 T10061150 10039 21006 51007=
201801052252 METAR KATL 052252Z 30012KT 10SM FEW250 01/M15 A3030 RMK AO2 SLP276 T00061150=
201801052152 METAR KATL 052152Z 28011G18KT 10SM FEW250 03/M16 A3030 RMK AO2 SLP271 T00281156=
201801052052 METAR KATL 052052Z 29012KT 10SM FEW250 03/M17 A3028 RMK AO2 SLP267 T00331167 55009=
201801051952 METAR KATL 051952Z 30013KT 10SM FEW250 03/M16 A3028 RMK AO2 SLP266 T00331161=
201801051852 METAR KATL 051852Z 33015G20KT 10SM FEW250 02/M16 A3029 RMK AO2 SLP269 T00221156=
201801051752 METAR KATL 051752Z 30011KT 10SM FEW250 02/M16 A3031 RMK AO2 SLP277 T00171156 10017 21083 58008=
201801051652 METAR KATL 051652Z 31007KT 10SM FEW250 M01/M18 A3033 RMK AO2 SLP283 T10061178=
201801051552 METAR KATL 051552Z 27007KT 10SM FEW250 M03/M18 A3034 RMK AO2 SLP287 T10281178=
201801051452 METAR KATL 051452Z 33011KT 10SM FEW250 M05/M17 A3033 RMK AO2 SLP287 T10501172 51015=
201801051352 METAR KATL 051352Z 31008KT 10SM FEW150 FEW200 M07/M16 A3033 RMK AO2 SLP284 T10721156=
201801051252 METAR KATL 051252Z 31009KT 10SM FEW200 FEW250 M08/M16 A3030 RMK AO2 SLP277 T10831156=
201801051152 METAR KATL 051152Z 32012KT 10SM FEW250 M08/M16 A3029 RMK AO2 SLP272 T10831156 11067 21083 53016=
201801051052 METAR KATL 051052Z 32014KT 10SM FEW250 M08/M16 A3027 RMK AO2 SLP265 T10831156=
201801050952 METAR KATL 050952Z 30010KT 10SM FEW250 M08/M15 A3025 RMK AO2 SLP258 T10781150=
201801050852 METAR KATL 050852Z 31009KT 10SM FEW250 M08/M15 A3024 RMK AO2 SLP253 T10781150 53006=
201801050752 METAR KATL 050752Z 31010KT 10SM CLR M07/M15 A3024 RMK AO2 SLP254 T10721150=
201801050652 METAR KATL 050652Z 31010KT 10SM FEW250 M07/M14 A3022 RMK AO2 SLP246 T10721144=
201801050552 METAR KATL 050552Z 32008KT 10SM FEW250 M07/M14 A3022 RMK AO2 SLP247 T10721144 11022 21072 50003=
201801050452 METAR KATL 050452Z 32010KT 10SM CLR M07/M14 A3022 RMK AO2 SLP247 T10671144 400171067=
201801050352 METAR KATL 050352Z 33015G20KT 10SM CLR M06/M14 A3022 RMK AO2 SLP248 T10561144=
201801050252 METAR KATL 050252Z 33013G19KT 10SM CLR M05/M14 A3021 RMK AO2 SLP244 T10501144 51019=
201801050152 METAR KATL 050152Z 32015G20KT 10SM CLR M04/M16 A3019 RMK AO2 SLP239 T10441156=
201801050052 METAR KATL 050052Z 33018G22KT 10SM CLR M03/M16 A3018 RMK AO2 PK WND 31027/0002 SLP233 T10331156=
201801042352 METAR KATL 042352Z 33015G20KT 10SM CLR M02/M17 A3015 RMK AO2 SLP224 T10221167 10017 21022 53026=
201801042252 METAR KATL 042252Z 32018KT 10SM CLR M02/M17 A3012 RMK AO2 SLP212 T10171167=
201801042152 METAR KATL 042152Z 30012G19KT 10SM CLR 00/M16 A3009 RMK AO2 SLP203 T00001161=
201801042052 METAR KATL 042052Z 30015G26KT 10SM CLR 01/M16 A3007 RMK AO2 PK WND 31026/2043 SLP194 T00111161 53006=
201801041952 METAR KATL 041952Z 31019G27KT 10SM CLR 01/M16 A3006 RMK AO2 PK WND 30028/1928 SLP190 T00111156=
201801041852 METAR KATL 041852Z 30019G24KT 10SM FEW250 01/M14 A3005 RMK AO2 SLP187 T00061144=
201801041752 METAR KATL 041752Z 32015KT 10SM FEW250 01/M13 A3006 RMK AO2 PK WND 30027/1709 SLP188 T00061133 10006 21056 50000=
201801041652 METAR KATL 041652Z 32015G25KT 10SM FEW250 M01/M13 A3006 RMK AO2 PK WND 32027/1632 SLP191 T10061133=
201801041552 METAR KATL 041552Z 31019G28KT 10SM FEW200 FEW250 M02/M13 A3007 RMK AO2 PK WND 31028/1550 SLP194 T10221128=
201801041452 METAR KATL 041452Z 31018G26KT 10SM FEW200 M03/M12 A3005 RMK AO2 PK WND 31028/1432 SLP188 T10331117 53014=
201801041352 METAR KATL 041352Z 31017G22KT 10SM FEW022 M05/M11 A3004 RMK AO2 SLP184 T10501111=
201801041252 METAR KATL 041252Z 30016KT 10SM CLR M05/M12 A3003 RMK AO2 SLP180 T10501117=
201801041152 METAR KATL 041152Z 31018G23KT 10SM CLR M05/M12 A3001 RMK AO2 SLP175 T10501117 11017 21050 53006=
201801041052 METAR KATL 041052Z 31016G21KT 10SM CLR M04/M12 A3000 RMK AO2 SLP169 T10441122=
201801040952 METAR KATL 040952Z 31012KT 10SM CLR M04/M13 A2999 RMK AO2 SLP164 T10441128=
201801040852 METAR KATL 040852Z 31011KT 10SM CLR M03/M13 A3000 RMK AO2 SLP167 T10331133 56009=
201801040752 METAR KATL 040752Z 31013KT 10SM CLR M03/M14 A3000 RMK AO2 SLP168 T10281139=
201801040652 METAR KATL 040652Z 31012KT 10SM CLR M03/M14 A3000 RMK AO2 SLP170 T10281139=
201801040552 METAR KATL 040552Z 30012KT 10SM CLR M02/M14 A3002 RMK AO2 SLP176 T10221139 10000 21022 58002=
201801040452 METAR KATL 040452Z 30013KT 10SM CLR M02/M14 A3002 RMK AO2 SLP176 T10171139 400391028=
201801040352 METAR KATL 040352Z 32009KT 10SM CLR M01/M14 A3003 RMK AO2 SLP179 T10111139=
201801040252 METAR KATL 040252Z 30009KT 10SM CLR M01/M14 A3003 RMK AO2 SLP179 T10111139 58005=
201801040152 METAR KATL 040152Z 30008KT 10SM CLR M01/M14 A3004 RMK AO2 SLP184 T10061139=
201801040052 METAR KATL 040052Z 29007KT 10SM CLR M01/M15 A3004 RMK AO2 SLP184 T10111150=
201801032352 METAR KATL 032352Z 30008KT 10SM CLR 00/M16 A3004 RMK AO2 SLP184 T00001156 10039 20000 55003=
201801032252 METAR KATL 032252Z 30009KT 10SM CLR 01/M15 A3004 RMK AO2 SLP182 T00111150=
201801032152 METAR KATL 032152Z 32012KT 10SM FEW250 03/M13 A3005 RMK AO2 SLP185 T00281133=
201801032052 METAR KATL 032052Z 30009KT 10SM BKN055 BKN140 BKN250 03/M13 A3005 RMK AO2 SLP186 T00281128 56025=
201801031952 METAR KATL 031952Z 31003KT 10SM FEW070 FEW100 SCT140 BKN250 03/M14 A3007 RMK AO2 SLP191 T00331144=
201801031852 METAR KATL 031852Z 32007KT 10SM BKN065 BKN100 OVC140 02/M16 A3010 RMK AO2 SLP201 T00221156=
201801031752 METAR KATL 031752Z 28007KT 260V330 10SM FEW080 SCT140 BKN250 03/M15 A3013 RMK AO2 SLP213 T00281150 10028 21028 58032=
201801031652 METAR KATL 031652Z VRB04KT 10SM BKN085 BKN150 BKN250 02/M15 A3018 RMK AO2 SLP230 VIRGA SW-NW-N T00171150=
201801031552 METAR KATL 031552Z 02005KT 10SM FEW100 SCT150 BKN250 01/M14 A3021 RMK AO2 SLP239 VIRGA DSNT NW-N T00061139=
201801031452 METAR KATL 031452Z 31005KT 10SM FEW080 BKN100 OVC250 M01/M14 A3023 RMK AO2 SLP247 VIRGA OHD & ALQDS T10111144 50001=
201801031352 METAR KATL 031352Z 31006KT 10SM BKN110 BKN250 M02/M14 A3024 RMK AO2 SLP250 BINOVC T10221144=
201801031252 METAR KATL 031252Z 00000KT 10SM OVC130 M03/M15 A3024 RMK AO2 SLP254 T10281150=
201801031152 METAR KATL 031152Z 03005KT 10SM OVC130 M02/M16 A3022 RMK AO2 SLP245 BINOVC T10221161 11017 21028 55008=
201801031052 METAR KATL 031052Z 08006KT 10SM OVC130 M03/M14 A3021 RMK AO2 SLP241 BINOVC T10281144=
201801030952 METAR KATL 030952Z 08007KT 10SM OVC130 M03/M15 A3023 RMK AO2 SLP247 T10281150=
201801030852 METAR KATL 030852Z 06009KT 10SM OVC120 M02/M15 A3025 RMK AO2 PRESFR SLP253 T10221150 58025=
201801030752 METAR KATL 030752Z 04007KT 10SM BKN140 OVC200 M02/M15 A3028 RMK AO2 SLP265 T10171150=
201801030652 METAR KATL 030652Z 08006KT 10SM FEW110 BKN140 OVC200 M02/M14 A3030 RMK AO2 SLP273 T10221144=
201801030552 METAR KATL 030552Z 00000KT 10SM BKN150 BKN250 M02/M16 A3033 RMK AO2 SLP280 T10171161 10000 21022 58010=
201801030452 METAR KATL 030452Z 12005KT 10SM BKN150 BKN250 M02/M17 A3033 RMK AO2 SLP284 T10171167 400221106=
201801030352 METAR KATL 030352Z 10005KT 10SM BKN150 BKN250 M02/M15 A3035 RMK AO2 SLP291 T10221150=
201801030252 METAR KATL 030252Z 10005KT 10SM BKN170 M02/M15 A3036 RMK AO2 SLP294 T10171150 58005=
201801030152 METAR KATL 030152Z 09008KT 10SM BKN180 M01/M15 A3036 RMK AO2 SLP296 T10111150=
201801030052 METAR KATL 030052Z 10004KT 10SM SCT200 M01/M16 A3038 RMK AO2 SLP302 T10061156=
201801022352 METAR KATL 022352Z 07007KT 10SM FEW250 00/M16 A3037 RMK AO2 SLP300 T00001161 10022 21006 58016=
201801022252 METAR KATL 022252Z 06005KT 10SM FEW150 FEW250 01/M16 A3039 RMK AO2 SLP306 T00061156=
201801022152 METAR KATL 022152Z 00000KT 10SM FEW150 SCT250 02/M16 A3041 RMK AO2 SLP311 T00171156=
201801022052 METAR KATL 022052Z 09004KT 10SM SCT250 02/M16 A3042 RMK AO2 SLP316 T00171156 56022=
201801021952 METAR KATL 021952Z 00000KT 10SM SCT250 02/M14 A3044 RMK AO2 SLP321 T00171144=
201801021852 METAR KATL 021852Z 26003KT 10SM FEW250 01/M14 A3045 RMK AO2 SLP326 T00061144=
201801021752 METAR KATL 021752Z 10003KT 10SM FEW250 M01/M14 A3049 RMK AO2 SLP339 T10061139 11006 21106 58027=
201801021652 METAR KATL 021652Z 01005KT 10SM FEW250 M02/M13 A3053 RMK AO2 SLP354 T10171133=
201801021552 METAR KATL 021552Z 09005KT 10SM CLR M04/M13 A3056 RMK AO2 SLP364 T10391128=
201801021452 METAR KATL 021452Z 05006KT 10SM FEW250 M06/M13 A3057 RMK AO2 SLP369 T10611133 51012=
201801021352 METAR KATL 021352Z 35006KT 10SM FEW200 FEW250 M08/M13 A3057 RMK AO2 SLP368 T10831133=
201801021252 METAR KATL 021252Z 34007KT 10SM FEW200 FEW250 M11/M14 A3056 RMK AO2 SLP366 T11061139=
201801021152 METAR KATL 021152Z 33007KT 10SM CLR M11/M14 A3053 RMK AO2 SLP358 T11061139 11078 21106 53004=
201801021052 METAR KATL 021052Z 33006KT 10SM CLR M10/M14 A3053 RMK AO2 SLP354 T11001139=
201801020952 METAR KATL 020952Z 34006KT 10SM CLR M09/M14 A3052 RMK AO2 SLP352 T10941144 $=
201801020852 METAR KATL 020852Z 33005KT 10SM CLR M09/M14 A3052 RMK AO2 SLP351 T10941139 53007 $=
201801020752 METAR KATL 020752Z 34006KT 10SM CLR M09/M14 A3051 RMK AO2 SLP348 T10891144 $=
201801020652 METAR KATL 020652Z 34008KT 10SM CLR M08/M14 A3050 RMK AO2 SLP346 T10831144 $=
201801020552 METAR KATL 020552Z 34009KT 10SM CLR M08/M14 A3050 RMK AO2 SLP345 T10781144 11044 21078 50001 $=
201801020452 METAR KATL 020452Z 34009KT 10SM CLR M08/M14 A3051 RMK AO2 SLP348 T10781139 410171078=
201801020352 METAR KATL 020352Z 33008KT 10SM CLR M07/M14 A3050 RMK AO2 SLP346 T10721144=
201801020252 METAR KATL 020252Z 34010KT 10SM CLR M07/M14 A3050 RMK AO2 SLP344 T10671144 50003=
201801020152 METAR KATL 020152Z 34011KT 10SM CLR M06/M14 A3050 RMK AO2 SLP344 T10611139=
201801020052 METAR KATL 020052Z 33011KT 10SM CLR M06/M13 A3049 RMK AO2 SLP343 T10561133=
201801012352 METAR KATL 012352Z 33012KT 10SM FEW250 M04/M13 A3049 RMK AO2 SLP339 T10441133 11017 21050 53012=
201801012252 METAR KATL 012252Z 33010KT 10SM FEW250 M04/M13 A3047 RMK AO2 SLP333 T10391133=
201801012152 METAR KATL 012152Z 32011KT 10SM FEW038 SCT250 M03/M12 A3046 RMK AO2 SLP329 T10281122=
201801012052 METAR KATL 012052Z 31010KT 10SM SCT038 BKN250 M02/M12 A3045 RMK AO2 SLP326 T10221117 55001=
201801011952 METAR KATL 011952Z 34008KT 10SM FEW025 BKN038 M02/M12 A3044 RMK AO2 SLP322 T10221117=
201801011852 METAR KATL 011852Z 34010KT 10SM SCT022 OVC035 M04/M13 A3045 RMK AO2 SLP325 BINOVC T10391128=
201801011849 SPECI KATL 011849Z 33010KT 10SM SCT022 OVC035 M04/M13 A3045 RMK AO2 BINOVC=
201801011752 METAR KATL 011752Z 33011KT 10SM BKN022 OVC035 M05/M13 A3045 RMK AO2 SLP326 60000 T10501133 11050 21078 58005=
201801011652 METAR KATL 011652Z 32012G19KT 10SM BKN022 OVC030 M06/M14 A3048 RMK AO2 SLP335 T10611139=
201801011552 METAR KATL 011552Z 34010KT 10SM OVC021 M07/M14 A3048 RMK AO2 SLP336 SNE27 P0000 T10671139=
201801011533 SPECI KATL 011533Z 33009KT 9SM OVC021 M07/M14 A3048 RMK AO2 SNE27 P0000 T10671139=
201801011452 METAR KATL 011452Z 32013KT 9SM -SN OVC024 M07/M14 A3047 RMK AO2 SNB00 SLP332 PCPN VRY LGT P0000 60000 T10721144 53029=
201801011352 METAR KATL 011352Z 33013KT 10SM OVC025 M07/M14 A3044 RMK AO2 SLP321 T10721144=
201801011252 METAR KATL 011252Z 34014KT 10SM OVC026 M07/M14 A3040 RMK AO2 SLP310 T10721144=
201801011229 SPECI KATL 011229Z 34012KT 10SM BKN027 OVC036 M07/M15 A3040 RMK AO2 T10721150=
