##########################################################
# Query made at 04/19/2024 23:59:44 UTC
# Time interval: from 06/01/2018 12:00  to 06/30/2018 12:59  UTC
##########################################################

##########################################################
# KATL, Atlanta, Hartsfield - Jackson Atlanta International Airport (United States)
# WMO index: 72219. WIGOS ID: 0-20000-0-72219
# Latitude 33-38-59N. Longitude 084-25-00W. Altitude 312 m.
##########################################################

201806301252 METAR KATL 301252Z VRB05KT 9SM FEW015 FEW250 26/22 A3010 RMK AO2 SLP183 T02610217=
201806301152 METAR KATL 301152Z 09006KT 7SM FEW008 FEW250 24/22 A3008 RMK AO2 SLP176 T02440222 10250 20233 53019=
201806301052 METAR KATL 301052Z 08005KT 8SM FEW008 FEW150 FEW250 23/21 A3006 RMK AO2 SLP167 T02330211=
201806301049 SPECI KATL 301049Z 08004KT 8SM FEW008 FEW150 FEW250 23/21 A3006 RMK AO2=
201806300952 METAR KATL 300952Z 10004KT 10SM FEW250 24/22 A3004 RMK AO2 SLP162 T02390217=
201806300852 METAR KATL 300852Z 00000KT 10SM FEW250 23/22 A3002 RMK AO2 SLP156 T02330217 55003=
201806300752 METAR KATL 300752Z 12003KT 10SM FEW250 24/22 A3002 RMK AO2 SLP154 T02440217=
201806300652 METAR KATL 300652Z 11003KT 10SM FEW035 FEW250 24/22 A3003 RMK AO2 SLP157 T02440222=
201806300552 METAR KATL 300552Z 09006KT 10SM FEW035 FEW200 FEW250 25/22 A3003 RMK AO2 SLP158 T02500222 10289 20250 58004=
201806300452 METAR KATL 300452Z 10005KT 10SM SCT035 BKN250 26/22 A3005 RMK AO2 SLP164 T02560217 403220194=
201806300352 METAR KATL 300352Z 10003KT 10SM FEW200 SCT250 26/21 A3006 RMK AO2 SLP167 T02610211=
201806300252 METAR KATL 300252Z 10006KT 10SM FEW200 SCT250 26/22 A3005 RMK AO2 SLP163 T02610217 53010=
201806300152 METAR KATL 300152Z 09007KT 10SM FEW150 SCT200 BKN250 27/21 A3003 RMK AO2 SLP160 T02670211=
201806300052 METAR KATL 300052Z 07006KT 10SM FEW035 SCT200 BKN250 28/21 A3002 RMK AO2 LTG DSNT NW SLP154 CB DSNT NW T02830211=
201806292352 METAR KATL 292352Z 05009KT 10SM FEW040TCU SCT200 BKN250 28/22 A3001 RMK AO2 SLP153 TCU VC SW-W T02830217 10322 20283 55000=
201806292252 METAR KATL 292252Z 12005KT 10SM FEW040TCU SCT200 BKN250 31/21 A3001 RMK AO2 SLP151 LTG DSNT N CB DSNT N TCU SW T03060211=
201806292152 METAR KATL 292152Z 11005KT 10SM SCT045TCU BKN200 BKN250 32/22 A3001 RMK AO2 SLP150 LTG DSNT E-SE CB DSNT NE-SE TCU OHD & VC NW T03220217=
201806292052 METAR KATL 292052Z 15003KT 10SM BKN046TCU BKN250 BKN300 31/22 A3001 RMK AO2 LTG DSNT NE SLP153 TCU OHD & N & E & DSNT E & W CB DSNT NE & E T03060217 56014=
201806291952 METAR KATL 291952Z 00000KT 10SM BKN045 BKN250 BKN300 31/20 A3002 RMK AO2 SLP157 MDT CU ALQDS T03110200=
201806291852 METAR KATL 291852Z 02005KT 10SM SCT043 BKN250 BKN300 32/21 A3004 RMK AO2 SLP162 MDT CU ALQDS T03170211=
201806291752 METAR KATL 291752Z 36008KT 10SM SCT038 BKN250 31/21 A3006 RMK AO2 SLP167 MDT CU ALQDS T03060211 10311 20211 50002=
201806291652 METAR KATL 291652Z 02006KT 10SM FEW040 SCT250 BKN300 31/22 A3006 RMK AO2 SLP169 T03110217=
201806291552 METAR KATL 291552Z 04004KT 10SM FEW030 SCT250 BKN300 29/21 A3006 RMK AO2 SLP171 T02940206=
201806291452 METAR KATL 291452Z 34003KT 10SM FEW250 BKN300 27/22 A3005 RMK AO2 SLP166 T02720217 50002=
201806291352 METAR KATL 291352Z 32005KT 10SM FEW015 SCT250 BKN300 24/21 A3006 RMK AO2 SLP170 T02440206=
201806291252 METAR KATL 291252Z 35004KT 9SM FEW010 BKN250 BKN300 23/19 A3005 RMK AO2 SLP168 T02330194=
201806291152 METAR KATL 291152Z 33006KT 10SM FEW004 FEW040 BKN250 BKN300 21/19 A3004 RMK AO2 SLP166 70017 T02110189 10211 20194 50008=
201806291052 METAR KATL 291052Z 32010KT 10SM FEW002 FEW038 SCT250 BKN300 19/18 A3004 RMK AO2 SLP167 TCU DSNT W-NW T01940183=
201806290952 METAR KATL 290952Z 29005KT 10SM FEW002 SCT250 BKN300 19/18 A3003 RMK AO2 SLP163 T01940183=
201806290852 METAR KATL 290852Z 30006KT 10SM FEW002 SCT250 BKN300 19/18 A3002 RMK AO2 SLP157 T01940183 53003=
201806290752 METAR KATL 290752Z 29008KT 10SM SCT250 BKN300 19/18 A3000 RMK AO2 SLP152 T01940183=
201806290652 METAR KATL 290652Z 28005KT 9SM SCT003 SCT200 BKN250 19/18 A3001 RMK AO2 SLP155 T01940183=
201806290552 METAR KATL 290552Z 30005KT 10SM FEW004 SCT200 BKN250 20/18 A3001 RMK AO2 SLP156 T02000183 10211 20200 58003=
201806290452 METAR KATL 290452Z 27006KT 10SM FEW005 SCT200 BKN250 20/19 A3002 RMK AO2 SLP159 T02000189 403000200=
201806290352 METAR KATL 290352Z 28004KT 10SM FEW150 BKN200 BKN250 21/19 A3003 RMK AO2 SLP157 T02060189=
201806290252 METAR KATL 290252Z 26004KT 10SM FEW150 BKN200 BKN250 21/19 A3002 RMK AO2 SLP156 T02060189 53014=
201806290152 METAR KATL 290152Z 33005KT 10SM SCT150 BKN200 OVC250 21/19 A2998 RMK AO2 SLP144 T02110189=
201806290052 METAR KATL 290052Z 29003KT 10SM BKN140 BKN200 OVC250 21/19 A2998 RMK AO2 SLP142 VIRGA SE-SW-NW T02110189=
201806282352 METAR KATL 282352Z 34006KT 10SM SCT120 BKN150 OVC200 21/19 A2998 RMK AO2 RAE42 SLP144 P0000 60008 T02110189 10239 20211 58015=
201806282252 METAR KATL 282252Z 28011KT 10SM -RA FEW080 BKN110 OVC150 21/19 A3001 RMK AO2 SLP155 P0004 T02110189=
201806282152 METAR KATL 282152Z 31009KT 9SM -RA FEW030 BKN110 BKN150 OVC200 22/19 A3005 RMK AO2 LTG DSNT SW-NW SLP169 P0004 T02170189=
201806282052 METAR KATL 282052Z 30010KT 10SM -RA FEW050 BKN110 BKN150 OVC200 22/19 A3002 RMK AO2 LTG DSNT W AND NW RAB31 SLP159 CB DSNT SW-NW P0000 60000 T02220194 55006=
201806281952 METAR KATL 281952Z 00000KT 10SM FEW100 BKN150 OVC250 24/20 A2997 RMK AO2 LTG DSNT N AND NW SLP141 CBMAM DSNT W CB DSNT S-SW-W SHRA DSNT SW-NW-N T02390200=
201806281852 METAR KATL 281852Z 24007KT 10SM FEW100 BKN160 OVC250 22/19 A2999 RMK AO2 LTG DSNT SE-W SLP146 CBMAM DSNT SE-S-SW-W CB DSNT SE-S-SW-W T02170194=
201806281752 METAR KATL 281752Z 18006KT 10SM FEW050 BKN090 BKN150CB OVC250 21/18 A3004 RMK AO2 PK WND 02037/1655 LTG DSNT ALQDS RAE36 TSE24 SLP166 TS MOV S CBMAM OHD-N-NE-E-SE CB DSNT S-SW-W SHRA VC N & E & DSNT S-SW-W P0009 60009 T0211=
201806281724 SPECI KATL 281724Z 07008G20KT 10SM VCTS -RA FEW010CB SCT050 OVC080 22/19 A3006 RMK AO2 PK WND 02037/1655 LTG DSNT ALQDS TSE24 OCNL LTGIC VC SE-SW TS VC SE-SW MOV S P0009 T02170189=
201806281702 SPECI KATL 281702Z 02021G37KT 6SM R09R/4500VP6000FT -TSRA FEW010 BKN020CB OVC040 22/19 A3009 RMK AO2 PK WND 02037/1655 LTG DSNT ALQDS OCNL LTGICC SE-S-SW-W TS SE-S-SW-W MOV S P0008 T02220194=
201806281652 METAR KATL 281652Z 03030G43KT 3SM TSRA FEW010 BKN015CB BKN100 OVC250 23/19 A3008 RMK AO2 PK WND 03043/1647 LTG DSNT ALQDS RAB40 TSB42 SLP179 OCNL LTGICCG ALQDS TS ALQDS MOV S P0000 T02330194=
201806281646 SPECI KATL 281646Z 03026G35KT 4SM -TSRA BKN015CB BKN100 OVC250 25/21 A3008 RMK AO2 PK WND 03035/1644 LTG DSNT ALQDS RAB40 TSB42 OCNL LTGICCG ALQDS TS ALQDS MOV S P0000=
201806281642 SPECI KATL 281642Z 03025G32KT 6SM -TSRA BKN020 BKN100 OVC250 26/22 A3007 RMK AO2 PK WND 03032/1640 LTG DSNT ALQDS RAB40 TSB42 OCNL LTGICCG N-E & S-W TS N-E & S-W MOV S P0000 T02610222=
201806281633 SPECI KATL 281633Z 04015G19KT 10SM VCTS BKN025CB BKN100 BKN250 28/23 A3007 RMK AO2 LTG DSNT ALQDS OCNL LTGICCG VC N-E & S-W TS VC N-E & S-W MOV S T02830228=
201806281605 SPECI KATL 281605Z 01010KT 10SM BKN025 BKN100 BKN250 29/23 A3007 RMK AO2 LTG DSNT N-E CB DSNT N-NE-E TCU DSNT SW-NW T02890233=
201806281552 METAR KATL 281552Z 31007KT 10SM FEW020 SCT100 BKN250 29/23 A3007 RMK AO2 LTG DSNT E SLP172 CB DSNT N-NE-E ACC OHD-SE-S & W T02890233=
201806281452 METAR KATL 281452Z 29006KT 10SM FEW020 FEW110 SCT150 BKN250 28/23 A3005 RMK AO2 SLP166 CB DSNT N-NE TCU DSNT N T02780233 51005=
201806281352 METAR KATL 281352Z 24004KT 10SM FEW010 FEW110 SCT150 BKN250 24/22 A3005 RMK AO2 SLP166 CB DSNT NE T02440217=
201806281252 METAR KATL 281252Z 28006KT 10SM FEW012 FEW065 SCT110 BKN200 23/21 A3005 RMK AO2 LTG DSNT NE SLP168 CB DSNT NE ACC SW & DSNT E & W-NW T02280206=
201806281152 METAR KATL 281152Z 25006KT 10SM FEW080 FEW110 SCT180 BKN250 22/19 A3004 RMK AO2 LTG DSNT N AND NE SLP164 CB DSNT NW-NE ACC W & NW-N 60000 70018 T02170194 10222 20206 55001=
201806281052 METAR KATL 281052Z 22006KT 10SM FEW040 FEW100 SCT180 BKN250 21/19 A3003 RMK AO2 SLP163 VIRGA DSNT W CB DSNT NW-NE ACC DSNT W-NW T02060189=
201806280952 METAR KATL 280952Z 20004KT 10SM FEW005 SCT120 BKN180 BKN250 21/19 A3004 RMK AO2 SLP162 ACC NW-NE T02110194=
201806280852 METAR KATL 280852Z 21006KT 10SM FEW004 SCT085 BKN130 BKN200 21/19 A3004 RMK AO2 RAB00E10 SLP162 ACC NW-NE P0000 60000 T02110194 58003 $=
201806280800 SPECI KATL 280800Z 18006KT 10SM -RA SCT005 SCT090 BKN140 OVC200 22/20 A3005 RMK AO2 RAB00 P0000 T02170200 $=
201806280752 METAR KATL 280752Z 17007KT 10SM BKN005 BKN085 BKN100 OVC130 22/20 A3005 RMK AO2 RAB37E50 SLP163 CIG 004V007 P0000 T02170200 $=
201806280748 SPECI KATL 280748Z 19008KT 10SM -RA BKN005 BKN085 BKN100 OVC130 22/20 A3005 RMK AO2 RAB37 CIG 004V007 P0000 $=
201806280717 SPECI KATL 280717Z 11005KT 10SM FEW007 BKN130 OVC200 22/20 A3006 RMK AO2 T02170200 $=
201806280652 METAR KATL 280652Z VRB03KT 10SM FEW100 BKN130 OVC200 22/19 A3005 RMK AO2 SLP165 T02220194 $=
201806280552 METAR KATL 280552Z 31004KT 10SM SCT110 BKN140 BKN200 22/20 A3004 RMK AO2 PRESRR SLP161 60010 T02170200 10222 20211 58007 $=
201806280452 METAR KATL 280452Z 22007KT 10SM SCT080 BKN110 BKN200 22/20 A3003 RMK AO2 RAE01B37E52 SLP157 P0002 T02170200 403220217 $=
201806280352 METAR KATL 280352Z 33006KT 8SM -RA FEW020 SCT040 BKN055 OVC200 22/20 A3009 RMK AO2 RAB45 SLP179 LTG DSNT NE CB DSNT NE P0002 T02220200 $=
201806280252 METAR KATL 280252Z 33005KT 10SM FEW100 BKN140 BKN200 22/20 A3006 RMK AO2 SLP170 60006 T02220200 53003 $=
201806280152 METAR KATL 280152Z 20003KT 10SM FEW100 BKN140 BKN200 22/20 A3004 RMK AO2 RAE51 SLP162 P0000 T02170200 $=
201806280052 METAR KATL 280052Z 23005KT 9SM -RA BKN110 BKN150 BKN200 22/19 A3005 RMK AO2 SLP168 TSB58E23 P0006 T02170194 $=
201806280024 SPECI KATL 280024Z 24007KT 8SM -RA FEW030 BKN110 BKN150 OVC200 22/20 A3006 RMK AO2 TSB58E23 TS DSIPTD P0003 T02170200 $=
201806272359 SPECI KATL 272359Z 25009KT 8SM VCTS -RA FEW030CB BKN110 BKN150 OVC200 22/20 A3006 RMK AO2 TSB58 OCNL LTGIC SE-SW TS VC SE-SW MOV E P0000 T02170200 $=
201806272352 METAR KATL 272352Z 27009KT 9SM -RA FEW070 BKN110 BKN150 OVC200 22/20 A3005 RMK AO2 SLP168 LTG DSNT SE-SW CB DSNT SE-SW P0002 60008 T02220200 10322 20217 53021 $=
201806272252 METAR KATL 272252Z 30006KT 9SM -RA FEW030 SCT070 BKN110 OVC200 22/19 A3002 RMK AO2 PK WND 32029/2158 WSHFT 2142 SLP159 TSB33E52 RAB02 LTG DSNT E-S TS MOV SE P0006 T02170194 $=
201806272235 SPECI KATL 272235Z 31015G23KT 6SM VCTS -RA FEW030CB BKN060 BKN100 OVC200 23/19 A3003 RMK AO2 PK WND 32029/2158 WSHFT 2142 TSB33 RAB02 OCNL LTGIC E-SE & DSNT SW-W TS VC E-SE & DSNT SW-W MOV SE P0002 T02280194 $=
201806272202 SPECI KATL 272202Z 32023G29KT 10SM -RA SCT040CB BKN060 BKN200 BKN250 26/18 A3002 RMK AO2 PK WND 32029/2158 WSHFT 2142 RAB02 LTG DSNT NE & W CB SW-NW-N & DSNT NE & W MOV SE P0000 T02610178=
201806272152 METAR KATL 272152Z 32019G32KT 10SM SCT040CB BKN060 BKN200 BKN250 28/17 A3001 RMK AO2 PK WND 30032/2144 PRESRR SLP152 LTG DSNT NE & W CB VC NW-N & DSNT NE & W MOV SE T02780172=
201806272052 METAR KATL 272052Z 28010G14KT 10SM FEW040 FEW150 SCT250 32/22 A2999 RMK AO2 LTG DSNT NW-NE SLP143 CB DSNT NW-N TCU DSNT N-NE-E & DSNT S-SW T03170222 56029=
201806271952 METAR KATL 271952Z 26008KT 10SM BKN040TCU BKN200 32/23 A3001 RMK AO2 SLP152 CB DSNT W & NW TCU OHD-N-NE-E-SE-S T03220228=
201806271852 METAR KATL 271852Z 27005KT 10SM SCT037TCU SCT200 31/22 A3005 RMK AO2 SLP165 CB DSNT W & NW TCU NE & SE & W T03110222=
201806271752 METAR KATL 271752Z 26006KT 10SM SCT035TCU 31/23 A3008 RMK AO2 SLP174 TCU E-SE-S-SW T03060228 10311 20222 58005=
201806271652 METAR KATL 271652Z 25009KT 10SM BKN035 30/22 A3008 RMK AO2 SLP176 T03000222=
201806271552 METAR KATL 271552Z 29009KT 10SM FEW030 FEW250 30/22 A3009 RMK AO2 SLP178 T03000222=
201806271452 METAR KATL 271452Z 27009KT 10SM FEW030 FEW150 FEW250 28/21 A3009 RMK AO2 SLP178 T02830211 56001=
201806271352 METAR KATL 271352Z 24006KT 10SM FEW150 FEW250 27/21 A3009 RMK AO2 SLP178 T02670211=
201806271252 METAR KATL 271252Z 21006KT 10SM FEW120 FEW150 SCT250 24/20 A3009 RMK AO2 SLP179 ACC NE T02440200=
201806271152 METAR KATL 271152Z 21004KT 10SM CLR 22/20 A3009 RMK AO2 SLP180 T02220200 10228 20217 58001=
201806271052 METAR KATL 271052Z 18003KT 10SM FEW008 SCT120 BKN200 BKN250 22/19 A3010 RMK AO2 SLP180 T02170194=
201806270952 METAR KATL 270952Z 20003KT 10SM FEW008 SCT150 BKN200 BKN250 22/19 A3010 RMK AO2 SLP180 T02170194=
201806270852 METAR KATL 270852Z 24003KT 10SM FEW008 SCT150 BKN200 BKN250 22/19 A3010 RMK AO2 SLP181 T02170194 55011=
201806270752 METAR KATL 270752Z 16005KT 10SM FEW007 SCT200 BKN250 22/19 A3009 RMK AO2 SLP177 T02170189=
201806270707 SPECI KATL 270707Z 13005KT 7SM SCT008 BKN200 22/20 A3009 RMK AO2 T02220200=
201806270652 METAR KATL 270652Z 13008KT 7SM BKN008 22/20 A3010 RMK AO2 SLP182 T02220200=
201806270552 METAR KATL 270552Z 07010KT 10SM SCT008 SCT200 23/20 A3013 RMK AO2 SLP192 TSE29 TS MOV NE T02280200 10311 20222 50013=
201806270529 SPECI KATL 270529Z 07013KT 10SM FEW005 FEW024 FEW045 BKN200 23/20 A3014 RMK AO2 TSE29 OCNL LTG DSNT NE-E TS MOV NE CB DSNT NE-E T02280200=
201806270452 METAR KATL 270452Z 05018KT 10SM VCTS FEW015CB SCT045 SCT100 BKN200 24/19 A3015 RMK AO2 PK WND 03026/0438 SLP199 TSB43 OCNL LTGIC NE TS VC NE MOV E T02440189 403330206=
201806270444 SPECI KATL 270444Z 03019G26KT 10SM VCTS FEW020CB BKN045 BKN100 BKN200 26/19 A3015 RMK AO2 PK WND 03026/0438 TSB43 OCNL LTGICCG NE TS VC NE MOV E T02560189=
201806270352 METAR KATL 270352Z 34005KT 10SM FEW030 SCT100 BKN200 BKN250 26/22 A3013 RMK AO2 SLP190 T02610217=
201806270252 METAR KATL 270252Z 28005KT 10SM FEW030 SCT200 BKN250 27/22 A3009 RMK AO2 LTG DSNT N AND NE SLP179 CB DSNT N & NE T02670222 51009=
201806270152 METAR KATL 270152Z 14003KT 10SM FEW040 SCT200 BKN250 29/22 A3008 RMK AO2 SLP174 TSB12E39 LTG DSNT NE CB DSNT NE T02890217=
201806270140 SPECI KATL 270140Z 00000KT 10SM FEW040TCU SCT060 SCT200 BKN250 29/22 A3008 RMK AO2 TSB12E39 LTG DSNT NE TS DSIPTD TCU VC NE-E T02940222=
201806270113 SPECI KATL 270113Z 00000KT 10SM VCTS SCT040CB SCT200 BKN250 29/22 A3008 RMK AO2 TSB12 OCNL LTGICCG NE-E TS VC NE-E MOV STNRY T02940222=
201806270052 METAR KATL 270052Z 23006KT 10SM SCT045CB SCT200 BKN250 29/22 A3008 RMK AO2 SLP174 TSE17 CB VC NE-E MOV E T02940217=
201806270018 SPECI KATL 270018Z 21008KT 10SM SCT045TCU SCT200 BKN250 31/22 A3008 RMK AO2 TSE17 TS DSIPTD TCU NE-E T03060217=
201806262352 METAR KATL 262352Z 23006KT 10SM VCTS SCT045CB SCT200 BKN250 31/21 A3006 RMK AO2 SLP169 TSB39 OCNL LTGICCG NE-SE TS VC NE-SE MOV E TCU OHD-E T03110211 10333 20311 55002=
201806262341 SPECI KATL 262341Z 21006KT 10SM VCTS SCT045CB SCT200 BKN250 31/22 A3006 RMK AO2 TSB39 OCNL LTGICCG NE-SE TS VC NE-SE MOV E TCU OHD-E T03110217=
201806262252 METAR KATL 262252Z 20005KT 10SM FEW045TCU SCT200 SCT250 32/22 A3004 RMK AO2 SLP162 TCU E & DSNT NW T03170217=
201806262152 METAR KATL 262152Z 00000KT 10SM SCT045TCU BKN200 32/21 A3006 RMK AO2 SLP168 TCU E & SW T03220206=
201806262052 METAR KATL 262052Z VRB05KT 10SM SCT050 SCT250 33/22 A3007 RMK AO2 SLP171 CB DSNT SW & NW MDT CU SW-NW-N T03280217 56022=
201806261952 METAR KATL 261952Z VRB05KT 10SM SCT045 SCT200 32/22 A3008 RMK AO2 SLP176 CB DSNT W TCU DSNT W & NW T03220217=
201806261852 METAR KATL 261852Z VRB05KT 10SM SCT040 SCT200 32/22 A3012 RMK AO2 SLP188 CB DSNT W TCU DSNT NE & NW MDT CU ALQDS T03170222=
201806261752 METAR KATL 261752Z VRB04KT 10SM SCT040 32/23 A3014 RMK AO2 SLP194 T03170228 10317 20222 58006=
201806261652 METAR KATL 261652Z 00000KT 10SM FEW035 30/21 A3015 RMK AO2 SLP199 T03000211=
201806261552 METAR KATL 261552Z 31006KT 10SM FEW030 29/22 A3016 RMK AO2 SLP204 T02890217=
201806261452 METAR KATL 261452Z 25004KT 10SM FEW025 FEW250 27/22 A3016 RMK AO2 SLP202 T02720217 51001=
201806261352 METAR KATL 261352Z 30005KT 10SM FEW020 FEW250 26/21 A3015 RMK AO2 SLP202 T02560211=
201806261252 METAR KATL 261252Z 10SM FEW003 SCT250 24/21 A3016 RMK AO2 SLP203 T02390206 $=
201806261152 METAR KATL 261152Z 28003KT 8SM FEW002 SCT250 22/21 A3015 RMK AO2 SLP203 70071 T02220206 10222 20206 50012=
201806261139 SPECI KATL 261139Z 30003KT 7SM FEW002 SCT250 22/20 A3015 RMK AO2 T02170200=
201806261117 SPECI KATL 261117Z 30004KT 2SM BR SCT002 SCT150 BKN250 21/19 A3016 RMK AO2 SFC VIS 6 VIS SW-W 2 T02110194=
201806261105 SPECI KATL 261105Z 32003KT 1SM R09R/P6000FT BR BKN002 BKN150 BKN200 BKN250 21/20 A3016 RMK AO2 SFC VIS 2 VIS SW-NW 1 1/2 NW-NE 2 T02110200=
201806261052 METAR KATL 261052Z 32005KT 1SM R09R/P6000FT BR SCT002 SCT150 BKN200 BKN250 21/19 A3016 RMK AO2 SFC VIS 1 1/2 SLP204 VIS SW-NW 1 NW-NE 1 1/2 SCT002 V BKN T02060194=
201806261016 SPECI KATL 261016Z 32005KT 1SM R09R/P6000FT BR BCFG SCT003 SCT150 SCT200 SCT250 21/19 A3015 RMK AO2 SFC VIS 5 VIS S-SW-NW 1 FG BANK S-SW-NW TWRINC T02060194=
201806260952 METAR KATL 260952Z 32006KT 10SM FEW003 FEW150 FEW200 FEW250 21/19 A3014 RMK AO2 SLP198 T02060194=
201806260852 METAR KATL 260852Z 26003KT 10SM FEW004 FEW200 21/19 A3012 RMK AO2 SLP188 T02110194 58014 $=
201806260752 METAR KATL 260752Z 23003KT 10SM FEW004 21/19 A3014 RMK AO2 SLP196 T02110194 $=
201806260652 METAR KATL 260652Z 00000KT 4SM BR BCFG FEW004 FEW150 SCT200 21/20 A3015 RMK AO2 SLP200 VIS NE-SE-S 2 FG BANK NE-SE-S T02110200 $=
201806260633 SPECI KATL 260633Z 09004KT 5SM BR BCFG SCT004 SCT150 BKN200 21/20 A3015 RMK AO2 VIS NW-NE & S 2 T02110200 $=
201806260612 SPECI KATL 260612Z 10005KT 7SM BCFG FEW004 SCT150 SCT200 22/20 A3016 RMK AO2 VIS LWR NE-E & S-SW T02170200 $=
201806260552 METAR KATL 260552Z 10003KT 10SM FEW005 FEW150 SCT200 SCT250 22/20 A3016 RMK AO2 SLP204 60002 T02170200 10233 20211 53006 $=
201806260452 METAR KATL 260452Z 00000KT 10SM FEW005 FEW150 BKN250 22/20 A3015 RMK AO2 SLP197 T02170200 403280217 $=
201806260352 METAR KATL 260352Z 00000KT 10SM FEW007 BKN200 OVC250 22/20 A3014 RMK AO2 SLP195 T02220200 $=
201806260252 METAR KATL 260252Z 30004KT 10SM SCT007 BKN150 BKN200 OVC250 22/20 A3014 RMK AO2 SLP196 SCT007 V BKN 60002 T02220200 53006 $=
201806260236 SPECI KATL 260236Z 34006KT 10SM BKN007 BKN150 BKN200 OVC250 22/21 A3015 RMK AO2 T02220206 $=
201806260152 METAR KATL 260152Z 26005KT 10SM FEW008 BKN150 BKN200 BKN250 22/21 A3012 RMK AO2 SLP191 T02170206 $=
201806260052 METAR KATL 260052Z 15009KT 10SM FEW100 SCT150 BKN200 BKN250 22/20 A3005 RMK AO2 RAE26 PRESFR SLP164 P0002 T02220200 $=
201806252352 METAR KATL 252352Z 02010KT 8SM -RA SCT090 BKN120 BKN150 OVC200 23/21 A3012 RMK AO2 TSE13 SLP192 P0009 60059 T02280206 10328 20222 50013 $=
201806252313 SPECI KATL 252313Z 02013G20KT 7SM -RA FEW050 BKN090 BKN120 OVC150 23/21 A3015 RMK AO2 TSE13 TS DSIPTD P0002 T02280206 $=
201806252252 METAR KATL 252252Z 35008KT 8SM -TSRA FEW020CB SCT060 BKN090 OVC150 23/21 A3017 RMK AO2 SLP207 OCNL LTGICCA NE-SE TS NE-SE MOV SE P0048 T02280206 $=
201806252218 SPECI KATL 252218Z 33007KT 4SM TSRA BR FEW010 SCT030CB BKN050 OVC150 22/21 A3018 RMK AO2 OCNL LTGICCA OHD-E TS OHD-E MOV SE P0036 T02220206 $=
201806252152 METAR KATL 252152Z 32017G23KT 1 1/2SM +TSRA BR FEW010 BKN030CB BKN050 OVC150 23/21 A3018 RMK AO2 PK WND 01035/2124 PRESRR SLP209 TSB22 RAB41 OCNL LTGICCG NE-OHD-SW TS NE-OHD-SW MOV SE P0001 T02330211 $=
201806252144 SPECI KATL 252144Z 35018G29KT 9SM -TSRA FEW010 BKN035CB BKN050 BKN200 25/20 A3013 RMK AO2 PK WND 01035/2124 PRESRR TSB22 RAB41 FRQ LTGICCG SW-NW-NE TS SW-NW-NE MOV SE P0000 T02500200=
201806252123 SPECI KATL 252123Z 36025G32KT 10SM VCTS FEW015 SCT035CB BKN100 BKN200 30/22 A3010 RMK AO2 PK WND 36032/2123 TSB22 OCNL LTGICCG N & SW-NW TS VC N & SW-NW MOV SE T03000217=
201806252052 METAR KATL 252052Z 24005KT 10SM FEW040 SCT110 BKN180 BKN250 32/22 A3008 RMK AO2 LTG DSNT SW-N SLP175 CB DSNT E-SE-S & DSNT SW-W-NW 60001 T03220222 55013=
201806251952 METAR KATL 251952Z 21005KT 10SM FEW035 FEW080 SCT110 BKN250 29/21 A3007 RMK AO2 LTG DSNT E-S RAB25E27 SLP171 CB DSNT E-SE-S & DSNT W-NW-N P0001 T02940211=
201806251852 METAR KATL 251852Z 26006KT 10SM FEW030CB SCT080 BKN110 BKN200 27/21 A3010 RMK AO2 LTG DSNT ALQDS RAB48E50 TSB17E18 PRESFR SLP182 TS DSIPT CBMAM DSNT S CB N & DSNT NE & E & SE & SW & NW SHRA VC N P0000 T02670206=
201806251827 SPECI KATL 251827Z VRB04KT 10SM VCTS FEW030CB SCT040TCU SCT080 BKN200 28/21 A3012 RMK AO2 LTG DSNT ALQDS TSB17E18 OCNL LTGICCG VC SW & NW TS VC SW & NW MOV E SHRA VC SW & NW & DSNT NE CB SW & NW & DSNT NE MOV E TCU S T02830211=
201806251811 SPECI KATL 251811Z 00000KT 10SM VCTS FEW035CB SCT080 BKN200 29/19 A3011 RMK AO2 LTG DSNT ALQDS OCNL LTGICCG VC SW & NW-N TS VC SW & NW-N MOV E SHRA VC SW & NW-N TCU DSNT E-SE-S T02890194=
201806251755 SPECI KATL 251755Z VRB03KT 10SM FEW035CB SCT060 BKN080 BKN200 27/21 A3012 RMK AO2 LTG DSNT ALQDS TS DSIPT CB E & DSNT SW-NW-N MOV E SHRA E & DSNT SW-NW-N T02720206=
201806251752 METAR KATL 251752Z VRB03KT 10SM VCTS FEW030CB SCT060 BKN090 BKN200 27/21 A3012 RMK AO2 LTG DSNT ALQDS RAB27E49 TSB24E49 SLP190 VIS LWR E SHRA OCNL LTGICCG VC E TS VC E MOV E CB DSNT N & W P0010 60010 T02720206 10328 20261 58003=
201806251735 SPECI KATL 251735Z 00000KT 8SM R09R/4000VP6000FT -TSRA BKN030CB BKN060 BKN110 BKN200 27/18 A3013 RMK AO2 LTG DSNT SW-NW RAB27 TSB24 VIS LWR SE SHRA FRQ LTGICCG OHD-SE TS OHD-SE MOV E P0010 T02670178=
201806251731 SPECI KATL 251731Z 01004G22KT 1 3/4SM R09R/4000VP6000FT +TSRA BKN030CB BKN050 BKN110 27/18 A3013 RMK AO2 LTG DSNT SW-NW RAB27 TSB24 OCNL LTGICCG OHD TS OHD MOV E P0007 T02670183=
201806251728 SPECI KATL 251728Z 32011G22KT 7SM R09R/4000VP6000FT -TSRA FEW030CB BKN040TCU BKN110 BKN200 28/19 A3013 RMK AO2 LTG DSNT W AND NW RAB27 TSB24 OCNL LTGICCG E-SE & W-NW TS E-SE & W-NW MOV E TCU SW-NW-N SHRA E-SE & W-NW P0002 T02780194=
201806251700 SPECI KATL 251700Z 31007KT 10SM VCTS FEW042 32/22 A3012 RMK AO2 LTG DSNT NW T03220222=
201806251652 METAR KATL 251652Z 27008KT 10SM SCT040TCU SCT200 33/23 A3012 RMK AO2 LTG DSNT W SLP187 CB DSNT SW-NW TCU SW-NW-N SHRA DSNT SW-NW T03280228=
201806251552 METAR KATL 251552Z 29010KT 10SM FEW040TCU 32/22 A3014 RMK AO2 SLP194 TCU E & SE & DSNT NW T03170222=
201806251452 METAR KATL 251452Z 28008KT 10SM FEW035 FEW250 31/23 A3013 RMK AO2 SLP191 T03110228 53010=
201806251352 METAR KATL 251352Z 26006KT 10SM FEW150 FEW250 29/22 A3011 RMK AO2 SLP185 T02940217=
201806251252 METAR KATL 251252Z 25004KT 10SM SCT250 28/22 A3010 RMK AO2 SLP181 T02830217=
201806251152 METAR KATL 251152Z 00000KT 10SM FEW150 SCT250 26/22 A3010 RMK AO2 SLP182 ACC DSNT N T02610222 10267 20239 52013=
201806251052 METAR KATL 251052Z 00000KT 10SM FEW150 SCT250 24/22 A3009 RMK AO2 SLP178 T02440217=
201806250952 METAR KATL 250952Z 16003KT 10SM FEW250 24/22 A3008 RMK AO2 SLP173 T02440217=
201806250852 METAR KATL 250852Z 27003KT 10SM FEW250 25/22 A3007 RMK AO2 SLP169 T02500222 53001=
201806250752 METAR KATL 250752Z 29005KT 10SM CLR 26/22 A3006 RMK AO2 SLP167 T02560222=
201806250652 METAR KATL 250652Z 22004KT 10SM FEW250 26/23 A3006 RMK AO2 SLP166 T02560228=
201806250552 METAR KATL 250552Z 15004KT 10SM FEW040 FEW250 26/23 A3006 RMK AO2 SLP167 T02610228 10317 20261 58001=
201806250452 METAR KATL 250452Z 00000KT 10SM FEW200 SCT250 27/23 A3006 RMK AO2 SLP166 T02720228 403330233=
201806250352 METAR KATL 250352Z 27007KT 10SM FEW038 SCT200 BKN250 28/23 A3007 RMK AO2 SLP169 T02780228=
201806250252 METAR KATL 250252Z 23004KT 10SM FEW038 FEW120 SCT200 BKN250 28/23 A3006 RMK AO2 SLP168 T02830228 51016=
201806250152 METAR KATL 250152Z 00000KT 10SM FEW042 FEW110 SCT200 BKN250 30/22 A3005 RMK AO2 SLP161 FRQ LTGICCA DSNT SW CB DSNT SW T03000222=
201806250052 METAR KATL 250052Z 32006KT 10SM FEW046TCU FEW110 SCT200 BKN250 31/23 A3003 RMK AO2 SLP158 CB DSNT E-SE TCU SE & DSNT W T03060228=
201806242352 METAR KATL 242352Z AUTO 30007KT 10SM FEW050TCU FEW110 SCT200 BKN250 32/22 A3002 RMK AO2 LTG DSNT E AND SE SLP152 TSB16E48 TS MOV E CB DSNT NE-SE TCU E-SE T03170222 10333 20311 53002=
201806242318 SPECI KATL 242318Z 28007KT 10SM VCTS FEW050CB FEW110 BKN200 BKN250 32/22 A3002 RMK AO2 LTG DSNT E TSB16 OCNL LTGICCG VC N-NE TS VC N-NE MOV E CB DSNT E-SE T03170222=
201806242252 METAR KATL 242252Z 28010KT 10SM FEW050TCU FEW110 SCT200 BKN250 32/22 A3001 RMK AO2 LTG DSNT E SLP150 CB DSNT E TCU N & E SHRA N T03220222=
201806242152 METAR KATL 242152Z 26010KT 10SM FEW048TCU SCT110 BKN250 32/22 A2999 RMK AO2 SLP145 CB DSNT NE TCU N & NE-E & W T03220222=
201806242052 METAR KATL 242052Z 27011KT 10SM SCT046TCU BKN250 33/22 A3001 RMK AO2 LTG DSNT NE SLP150 CB DSNT NE TCU SW MDT CU N-E T03280222 56012=
201806241952 METAR KATL 241952Z 27009KT 10SM SCT044TCU SCT060 BKN100 BKN250 33/23 A3001 RMK AO2 SLP150 TCU N T03280228=
201806241852 METAR KATL 241852Z 29008KT 10SM FEW042 BKN250 33/23 A3002 RMK AO2 LTG DSNT NE SLP155 CB DSNT NE MDT CU ALQDS T03280228=
201806241752 METAR KATL 241752Z 26006G15KT 10SM SCT040 BKN250 31/22 A3005 RMK AO2 SLP162 MDT CU ALQDS T03110222 10328 20244 58004=
201806241652 METAR KATL 241652Z 29012KT 10SM SCT033 SCT060 SCT250 32/23 A3006 RMK AO2 SLP167 MDT CU ALQDS T03170233=
201806241552 METAR KATL 241552Z 29012KT 10SM SCT031 31/23 A3006 RMK AO2 SLP168 MDT CU ALQDS T03110228=
201806241452 METAR KATL 241452Z 27010KT 10SM FEW024 30/23 A3006 RMK AO2 SLP167 T03000233 51012=
201806241352 METAR KATL 241352Z 28011G16KT 10SM FEW020 28/23 A3005 RMK AO2 SLP166 T02830228=
201806241252 METAR KATL 241252Z 26007KT 10SM CLR 27/23 A3004 RMK AO2 SLP161 T02720228=
201806241152 METAR KATL 241152Z 21004KT 10SM CLR 24/22 A3002 RMK AO2 SLP156 70018 T02440217 10244 20233 51014=
201806241052 METAR KATL 241052Z 00000KT 10SM FEW012 FEW200 24/21 A3001 RMK AO2 SLP153 T02390211=
201806240952 METAR KATL 240952Z 24006KT 10SM FEW200 24/21 A2999 RMK AO2 SLP147 T02390211=
201806240852 METAR KATL 240852Z 24004KT 10SM FEW250 23/21 A2998 RMK AO2 SLP142 T02330211 56002=
201806240752 METAR KATL 240752Z 22003KT 10SM FEW160 FEW250 23/22 A2999 RMK AO2 SLP144 T02330217=
201806240652 METAR KATL 240652Z 19004KT 10SM FEW160 SCT250 24/22 A2998 RMK AO2 SLP141 T02390217=
201806240552 METAR KATL 240552Z 27004KT 10SM FEW160 FEW250 24/22 A2999 RMK AO2 SLP143 T02390217 10267 20239 53003=
201806240452 METAR KATL 240452Z 20005KT 10SM SCT160 SCT250 24/22 A2997 RMK AO2 SLP139 T02390217 402830222=
201806240352 METAR KATL 240352Z 18005KT 10SM FEW150 SCT250 24/21 A2998 RMK AO2 SLP140 T02440211=
201806240252 METAR KATL 240252Z 19003KT 10SM FEW150 SCT200 SCT250 24/21 A2998 RMK AO2 SLP140 T02440211 53014=
201806240152 METAR KATL 240152Z 00000KT 10SM FEW150 SCT200 SCT250 26/21 A2996 RMK AO2 SLP133 T02560206=
201806240052 METAR KATL 240052Z 22003KT 10SM FEW110 FEW150 SCT200 SCT250 26/21 A2995 RMK AO2 SLP131 T02560206=
201806232352 METAR KATL 232352Z 20005KT 10SM FEW110 SCT200 BKN250 27/20 A2994 RMK AO2 SLP127 ACC DSNT NE T02670200 10283 20267 58010=
201806232252 METAR KATL 232252Z 22007KT 10SM FEW034 FEW075 SCT120 BKN200 27/19 A2995 RMK AO2 SLP133 SHRA DSNT N-NE T02670194=
201806232152 METAR KATL 232152Z 24008KT 10SM FEW034 FEW110 SCT150 BKN200 27/19 A2996 RMK AO2 SLP136 CB DSNT W-NW ACC DSNT N-NE T02720194=
201806232052 METAR KATL 232052Z 23008KT 10SM FEW034 SCT100 BKN150 BKN200 28/19 A2997 RMK AO2 SLP137 CB DSNT NE ACC DSNT NW-N T02780194 58003=
201806231952 METAR KATL 231952Z 26008KT 10SM SCT030 BKN100 BKN200 28/20 A2997 RMK AO2 SLP137 T02780200=
201806231852 METAR KATL 231852Z 27008KT 10SM FEW028 BKN150 28/22 A2999 RMK AO2 SLP144 T02780217=
201806231752 METAR KATL 231752Z 25007KT 10SM FEW016 BKN170 28/23 A2998 RMK AO2 RAB1659E24 SLP141 P0018 60018 T02780233 10283 20239 50001=
201806231720 SPECI KATL 231720Z 26005KT 8SM -RA SCT025 BKN050 BKN100 26/23 A2998 RMK AO2 RAB1659 P0018 T02610228=
201806231652 METAR KATL 231652Z 26009G17KT 10SM BKN017 OVC025 27/23 A2998 RMK AO2 SLP142 CB DSNT SE SHRA VC W T02720228=
201806231609 SPECI KATL 231609Z 24009KT 10SM FEW017 BKN023 OVC038 27/22 A2997 RMK AO2 LTG DSNT SE AND S CB DSNT SE-S T02670222=
201806231552 METAR KATL 231552Z 25009KT 10SM FEW021 BKN032 BKN060 BKN250 28/22 A2997 RMK AO2 LTG DSNT SE RAB27E36 SLP139 CB DSNT SE P0000 T02780222=
201806231507 SPECI KATL 231507Z 25010KT 10SM FEW020 SCT040 BKN075 28/22 A2997 RMK AO2 LTG DSNT S AND SW CB DSNT S-SW T02780222=
201806231452 METAR KATL 231452Z 26010G17KT 10SM VCTS FEW021 SCT040CB BKN090 BKN250 28/22 A2997 RMK AO2 LTG DSNT S AND SW SLP140 OCNL LTGCG VC S-SW TS VC S-SW MOV E T02780222 51012=
201806231352 METAR KATL 231352Z 27007KT 10SM FEW016 BKN060 BKN090 26/22 A2997 RMK AO2 SLP139 T02610217=
201806231311 SPECI KATL 231311Z 26006KT 10SM FEW012 BKN060 24/21 A2996 RMK AO2 T02440211=
201806231252 METAR KATL 231252Z 24008KT 8SM BKN010 BKN065 24/22 A2996 RMK AO2 SLP135 CIG 008V014 BKN010 V SCT T02440217=
201806231246 SPECI KATL 231246Z 25009KT 10SM BKN010 BKN065 24/22 A2995 RMK AO2 CIG 008V014 BKN010 V SCT=
201806231213 SPECI KATL 231213Z 27008KT 7SM SCT009 BKN060 BKN085 24/22 A2994 RMK AO2 T02440217=
201806231152 METAR KATL 231152Z 26009KT 7SM BKN009 BKN060 24/22 A2994 RMK AO2 SLP128 BKN009 V SCT 70047 T02390217 10239 20222 53017=
201806231052 METAR KATL 231052Z 26006KT 6SM BR OVC008 23/22 A2991 RMK AO2 SLP118 CIG 007V010 BINOVC T02330217=
201806230952 METAR KATL 230952Z 23004KT 8SM BKN006 BKN015 OVC027 23/22 A2989 RMK AO2 SLP109 CIG 005V009 T02330217=
201806230910 SPECI KATL 230910Z 22006KT 10SM SCT008 BKN016 BKN029 23/21 A2989 RMK AO2 T02280211=
201806230858 SPECI KATL 230858Z 23005KT 10SM BKN016 BKN029 BKN060 BKN150 23/21 A2989 RMK AO2 LTG DSNT SE CB DSNT SE T02280211=
201806230852 METAR KATL 230852Z 23006KT 10SM SCT014 SCT029 SCT050 BKN150 BKN200 23/21 A2989 RMK AO2 SLP109 TSB08E26 OCNL LTGICCG DSNT SE CB DSNT SE TS MOV SE T02280211 53004=
201806230829 SPECI KATL 230829Z 22006KT 10SM FEW009 SCT020 SCT060 BKN150 BKN200 BKN250 23/21 A2988 RMK AO2 TSB08E26 OCNL LTGICCG DSNT SE-S CB DSNT SE-S TS MOV SE T02280206=
201806230809 SPECI KATL 230809Z 23008KT 10SM VCTS FEW007 FEW025CB BKN060 BKN200 BKN250 22/21 A2988 RMK AO2 TSB08 OCNL LTGICCG SE-S TS VC SE-S MOV NE T02220206=
201806230752 METAR KATL 230752Z 22007KT 10SM FEW007 FEW025 BKN055 BKN200 BKN250 23/21 A2988 RMK AO2 SLP107 OCNL LTG DSNT SE-SW CB DSNT SE-SW T02280206=
201806230652 METAR KATL 230652Z 20004KT 10SM FEW007 FEW047 FEW095 SCT200 BKN250 22/21 A2988 RMK AO2 SLP106 OCNL LTG SE-SW CB DSNT SE-SW T02220206=
201806230552 METAR KATL 230552Z 00000KT 10SM FEW009 FEW040 SCT095 SCT200 22/21 A2987 RMK AO2 LTG DSNT SW SLP105 ACC DSNT SE 60000 T02220206 10228 20222 56002=
201806230452 METAR KATL 230452Z 23003KT 10SM FEW007 SCT020CB BKN040 OVC200 23/21 A2988 RMK AO2 RAB12E21B39E45 SLP105 CB VC NE & DSNT NW MOV E P0000 T02280206 403280222=
201806230439 SPECI KATL 230439Z 29007KT 9SM -RA SCT007 BKN020CB BKN120 OVC200 23/21 A2988 RMK AO2 RAB12E21B39 CB NW-NE MOV E P0000 T02280206=
201806230352 METAR KATL 230352Z 23007KT 10SM FEW030 SCT150 BKN250 22/21 A2987 RMK AO2 SLP105 CB DSNT NW T02220206=
201806230252 METAR KATL 230252Z 22007KT 10SM FEW090 SCT200 BKN250 22/21 A2988 RMK AO2 SLP108 60000 T02220206 55002=
201806230152 METAR KATL 230152Z 20006KT 10SM FEW090 BKN150 BKN200 22/21 A2987 RMK AO2 SLP105 T02220206=
201806230052 METAR KATL 230052Z 19006KT 10SM FEW080 SCT140 BKN200 22/21 A2987 RMK AO2 RAE03 SLP105 P0000 T02220206=
201806222352 METAR KATL 222352Z 21008G18KT 8SM -RA FEW020 SCT035 BKN070 OVC200 23/20 A2989 RMK AO2 RAE19B35 SLP112 TSB18E51 LTG DSNT SE TS MOV E P0002 60047 T02280200 10328 20222 53020=
201806222319 SPECI KATL 222319Z 24006KT 10SM VCTS FEW020CB SCT070 BKN100 OVC200 23/21 A2986 RMK AO2 RAE19 TSB18 OCNL LTGICCG S-SW TS VC S-SW MOV E P0000 T02280211=
201806222300 SPECI KATL 222300Z 29007KT 9SM -RA FEW020 SCT060 BKN100 OVC200 23/21 A2986 RMK AO2 OCNL LTG DSNT NE-SE & SW TS MOV E P0000 T02280206=
201806222252 METAR KATL 222252Z 30007KT 8SM VCTS -RA FEW020CB SCT050 BKN100 OVC200 23/21 A2986 RMK AO2 PK WND 30029/2218 WSHFT 2205 SLP103 RAB13 OCNL LTGICCG NE-E TS VC NE-E MOV E P0045 T02280206=
201806222233 SPECI KATL 222233Z 31016G24KT 6SM R09R/2200VP6000FT -TSRA BR FEW010 SCT025CB BKN040 OVC150 22/21 A2986 RMK AO2 PK WND 30029/2218 WSHFT 2205 VIS LWR N-E RAB13 OCNL LTGICCG NE-SE TS NE-SE MOV E P0045 T02220206=
201806222221 SPECI KATL 222221Z 30023G29KT 1 1/2SM R09R/4000VP6000FT +TSRA FEW010 BKN025CB BKN040 OVC150 24/21 A2989 RMK AO2 PK WND 30029/2218 WSHFT 2205 PRESRR RAB13 FRQ LTGICCG SW-OHD-NE TS SW-OHD-NE MOV E P0000 T02440206=
201806222214 SPECI KATL 222214Z 31019G27KT 9SM -TSRA FEW010 SCT025CB BKN040 OVC150 25/20 A2985 RMK AO2 PK WND 30027/2214 RAB14 TSB13 RAB13 FRQ LTGICCG SW-NW-NE TS SW-NW-NE MOV NE P0000 T02500200=
201806222152 METAR KATL 222152Z 23009KT 10SM VCTS FEW030CB SCT110 BKN150 OVC200 29/21 A2984 RMK AO2 RAE2056 SLP093 TSB40 FRQ LTGICCG NW-N TS VC NW-N MOV NE P0000 T02890211=
201806222141 SPECI KATL 222141Z 23011G22KT 10SM VCTS FEW030CB SCT110 BKN150 OVC200 29/21 A2984 RMK AO2 RAE2056 TSB40 OCNL LTGICCG NW TS VC NW MOV NE P0000 T02890211=
201806222052 METAR KATL 222052Z 22010G22KT 10SM -RA SCT039 BKN120 BKN200 29/21 A2983 RMK AO2 LTG DSNT N AND NW RAB47 SLP089 CB DSNT NW-N P0000 60000 T02890211 56020=
201806221952 METAR KATL 221952Z 21010G19KT 10SM SCT047 BKN130 BKN250 32/20 A2984 RMK AO2 SLP094 MDT CU SE-S T03170200=
201806221852 METAR KATL 221852Z 24015G21KT 7SM FEW045 BKN200 32/19 A2987 RMK AO2 SLP102 T03220194=
201806221752 METAR KATL 221752Z 24013G20KT 10SM FEW045 SCT150 BKN250 31/20 A2989 RMK AO2 PK WND 28027/1730 SLP110 T03110200 10311 20228 58003=
201806221652 METAR KATL 221652Z 27013G23KT 10SM FEW040 FEW150 FEW250 30/21 A2990 RMK AO2 SLP113 T03000206=
201806221552 METAR KATL 221552Z 23013KT 10SM FEW040 FEW140 FEW250 29/20 A2990 RMK AO2 SLP112 T02940200=
201806221452 METAR KATL 221452Z 24010KT 10SM FEW030 BKN130 BKN150 28/19 A2990 RMK AO2 SLP113 T02780194 51009=
201806221352 METAR KATL 221352Z 23009KT 10SM FEW150 26/19 A2989 RMK AO2 SLP112 T02610189=
201806221252 METAR KATL 221252Z 24009KT 10SM FEW022 FEW110 SCT150 SCT250 24/19 A2990 RMK AO2 SLP115 ACC W & NW T02440194=
201806221152 METAR KATL 221152Z 22009KT 10SM FEW110 SCT150 SCT200 BKN250 23/19 A2987 RMK AO2 SLP105 ACC DSNT W 60000 70001 T02280194 10228 20222 50000=
201806221052 METAR KATL 221052Z 20008KT 10SM FEW060 SCT100 BKN150 BKN250 22/19 A2986 RMK AO2 RAB0958E14 SLP102 VIRGA DSNT NE-E & NW ACC OHD-ALQDS P0000 T02220194=
201806220952 METAR KATL 220952Z 26009KT 10SM FEW022 SCT060 BKN140 BKN250 22/20 A2989 RMK AO2 SLP112 SHRA SW-NW T02220200=
201806220852 METAR KATL 220852Z 24009KT 10SM FEW005 FEW018 SCT060 SCT250 23/21 A2987 RMK AO2 SLP105 T02280206 53004=
201806220752 METAR KATL 220752Z 25006KT 10SM FEW005 FEW060 SCT250 22/21 A2985 RMK AO2 SLP098 T02220206=
201806220746 SPECI KATL 220746Z 26007KT 10SM FEW005 FEW060 SCT250 23/21 A2985 RMK AO2=
201806220652 METAR KATL 220652Z 26006KT 10SM FEW060 SCT250 23/21 A2985 RMK AO2 SLP097 T02280206=
201806220552 METAR KATL 220552Z 27007KT 10SM FEW005 FEW250 23/21 A2986 RMK AO2 SLP099 T02280211 10250 20228 58011=
201806220452 METAR KATL 220452Z 26007KT 10SM FEW007 FEW200 23/22 A2987 RMK AO2 SLP104 T02330217 403110233=
201806220352 METAR KATL 220352Z 23009KT 10SM FEW007 FEW200 24/22 A2988 RMK AO2 SLP107 T02390222=
201806220252 METAR KATL 220252Z 23007KT 10SM FEW100 SCT250 24/22 A2989 RMK AO2 SLP111 T02440222 51004=
201806220152 METAR KATL 220152Z 22006KT 10SM BKN100 BKN200 BKN250 24/22 A2989 RMK AO2 SLP110 T02440222=
201806220052 METAR KATL 220052Z 21004KT 10SM FEW035 SCT100 BKN200 BKN250 24/22 A2988 RMK AO2 SLP109 T02440217=
201806212352 METAR KATL 212352Z 23006KT 10SM SCT110 BKN150 OVC250 25/21 A2988 RMK AO2 RAE06 SLP108 P0000 60001 T02500211 10311 20250 53003=
201806212252 METAR KATL 212252Z 24008KT 10SM -RA FEW070 BKN100 BKN150 OVC200 25/22 A2988 RMK AO2 SLP107 P0001 T02500217=
201806212152 METAR KATL 212152Z 27009KT 10SM -RA FEW020 SCT110 BKN150 BKN200 27/22 A2987 RMK AO2 RAE00B49 SLP104 P0000 T02670217=
201806212052 METAR KATL 212052Z 27007KT 10SM -RA FEW020CB SCT070 BKN100 BKN200 26/23 A2987 RMK AO2 RAB19 SLP103 TS DSIPT CB NE-SE MOV E SHRA VC NE-SE P0000 60000 T02610233 55002=
201806212047 SPECI KATL 212047Z 27011KT 10SM -RA FEW020CB SCT070 BKN100 BKN200 26/23 A2987 RMK AO2 LTG DSNT NE RAB19 TS DSIPT CB NE-SE MOV E SHRA VC NE-SE P0000=
201806212032 SPECI KATL 212032Z 27013G22KT 7SM VCTS -RA FEW020CB SCT080 BKN110 BKN200 27/22 A2986 RMK AO2 LTG DSNT ALQDS RAB19 OCNL LTGIC VC S-SW TS VC S-SW MOV E P0000 T02670222=
201806211952 METAR KATL 211952Z 26012KT 10SM FEW030 SCT080 BKN150 BKN250 30/22 A2987 RMK AO2 LTG DSNT ALQDS SLP101 CB DSNT N & E-SE & SW-NW SHRA DSNT SW-NW T03000222=
201806211852 METAR KATL 211852Z 24012KT 10SM FEW040 SCT080 BKN150 BKN250 31/22 A2988 RMK AO2 RAB04E19 SLP105 CB DSNT E & S & NW TCU DSNT NE-E & SE-S-SW SHRA DSNT NW P0000 T03110217=
201806211752 METAR KATL 211752Z 26008KT 10SM FEW035 SCT080 BKN200 29/21 A2990 RMK AO2 LTG DSNT E RAB03E29 SLP111 CB DSNT E-SE & DSNT SW MDT CU DSNT NE & NW P0000 60000 T02890211 10311 20256 58012=
201806211709 SPECI KATL 211709Z 28011G19KT 9SM -RA BKN034TCU BKN080 BKN200 28/22 A2991 RMK AO2 LTG DSNT SW RAB03 CB DSNT SW TCU E & OHD-S-SW-W P0000 T02830222=
201806211652 METAR KATL 211652Z 27009KT 10SM SCT034TCU SCT150 BKN200 31/22 A2992 RMK AO2 LTG DSNT SW AND W SLP117 CB DSNT SW TCU E-SE-S-SW T03110222=
201806211552 METAR KATL 211552Z 25009KT 10SM FEW035 BKN150 BKN200 29/22 A2993 RMK AO2 LTG DSNT W SLP122 CB DSNT W ACC NE T02940217=
201806211452 METAR KATL 211452Z 22010KT 10SM FEW030 BKN150 BKN200 29/21 A2993 RMK AO2 SLP124 T02940211 50003=
201806211352 METAR KATL 211352Z 23006KT 10SM FEW100 BKN140 BKN250 28/21 A2994 RMK AO2 SLP127 ACC DSNT SW-NW T02830206=
201806211252 METAR KATL 211252Z 24004KT 10SM FEW110 BKN150 BKN200 BKN250 27/21 A2993 RMK AO2 SLP124 ACC DSNT W T02670211=
201806211152 METAR KATL 211152Z 22004KT 9SM SCT150 BKN200 BKN250 26/21 A2992 RMK AO2 SLP121 60000 T02560206 10267 20244 53006=
201806211052 METAR KATL 211052Z 00000KT 10SM SCT150 SCT200 BKN250 26/20 A2992 RMK AO2 SLP118 T02560200=
201806210952 METAR KATL 210952Z 28003KT 10SM FEW120 SCT150 BKN200 BKN250 24/20 A2991 RMK AO2 SLP115 T02440200=
201806210852 METAR KATL 210852Z 31005KT 10SM SCT120 BKN150 OVC200 26/21 A2991 RMK AO2 RAE03 SLP113 P0000 60000 T02560206 56009=
201806210752 METAR KATL 210752Z 31004KT 10SM -RA FEW055 SCT120 BKN150 OVC200 26/21 A2991 RMK AO2 RAB52 SLP114 P0000 T02610206=
201806210652 METAR KATL 210652Z 31004KT 10SM BKN140 BKN180 BKN250 27/20 A2992 RMK AO2 SLP117 T02670200=
201806210552 METAR KATL 210552Z 32005KT 10SM BKN140 BKN250 27/20 A2993 RMK AO2 SLP123 T02670200 10311 20267 58007=
201806210452 METAR KATL 210452Z 31005KT 10SM BKN150 BKN250 27/19 A2995 RMK AO2 SLP128 T02720194 403390239=
201806210352 METAR KATL 210352Z 31006KT 10SM SCT150 BKN250 28/19 A2996 RMK AO2 SLP131 T02780194=
201806210252 METAR KATL 210252Z 33006KT 10SM FEW150 SCT250 28/19 A2995 RMK AO2 SLP130 T02830194 51014=
201806210152 METAR KATL 210152Z 32006KT 10SM FEW150 SCT250 29/19 A2994 RMK AO2 SLP127 T02940189=
201806210052 METAR KATL 210052Z 30006KT 10SM FEW055 SCT250 29/18 A2993 RMK AO2 SLP123 T02940183=
201806202352 METAR KATL 202352Z 28010KT 10SM FEW060 BKN250 31/18 A2991 RMK AO2 SLP116 T03110178 10339 20311 55006=
201806202252 METAR KATL 202252Z 30012KT 10SM FEW060 BKN250 32/18 A2991 RMK AO2 SLP115 T03220183=
201806202152 METAR KATL 202152Z 32009KT 10SM FEW060 BKN250 32/18 A2991 RMK AO2 SLP117 T03220183=
201806202052 METAR KATL 202052Z 30010KT 10SM FEW060 FEW150 SCT250 33/18 A2993 RMK AO2 SLP122 T03330183 58015=
201806201952 METAR KATL 201952Z 31011G17KT 10SM FEW065 FEW150 SCT250 33/18 A2995 RMK AO2 SLP128 T03330183=
201806201852 METAR KATL 201852Z 31010KT 10SM FEW060 FEW150 SCT250 33/18 A2996 RMK AO2 SLP131 T03280183=
201806201752 METAR KATL 201752Z 32013G17KT 10SM FEW065 SCT150 SCT250 33/18 A2997 RMK AO2 SLP137 T03330183 10333 20256 58006=
201806201652 METAR KATL 201652Z 33016G20KT 10SM FEW150 FEW250 32/16 A2998 RMK AO2 SLP137 T03220161=
201806201552 METAR KATL 201552Z 36011KT 10SM FEW150 SCT250 SCT300 32/18 A2999 RMK AO2 SLP143 T03220183=
201806201452 METAR KATL 201452Z 33009KT 10SM FEW150 FEW250 SCT300 31/20 A2999 RMK AO2 SLP143 T03060200 50004=
201806201352 METAR KATL 201352Z 33009KT 10SM FEW150 FEW250 29/21 A2999 RMK AO2 SLP144 T02940206=
201806201252 METAR KATL 201252Z 32011KT 10SM FEW250 27/21 A2999 RMK AO2 SLP144 T02720206=
201806201152 METAR KATL 201152Z 32009KT 10SM FEW250 26/20 A2998 RMK AO2 SLP140 T02560200 10261 20239 51005=
201806201052 METAR KATL 201052Z 32007KT 10SM FEW150 FEW250 24/20 A2998 RMK AO2 SLP138 T02390200=
201806200952 METAR KATL 200952Z 31008KT 10SM FEW250 24/20 A2997 RMK AO2 SLP137 T02440200=
201806200852 METAR KATL 200852Z 31008KT 10SM SCT250 24/21 A2997 RMK AO2 SLP135 T02440206 58005=
201806200752 METAR KATL 200752Z 31008KT 10SM SCT250 25/21 A2997 RMK AO2 SLP138 T02500206=
201806200652 METAR KATL 200652Z 31009KT 10SM SCT250 26/21 A2998 RMK AO2 SLP139 T02560211=
201806200552 METAR KATL 200552Z 31008KT 10SM SCT250 26/21 A2998 RMK AO2 SLP140 T02610206 10317 20261 58003=
201806200452 METAR KATL 200452Z 32007KT 10SM SCT250 27/21 A2999 RMK AO2 SLP141 T02670206 403390239=
201806200352 METAR KATL 200352Z 32006KT 10SM SCT250 27/21 A2999 RMK AO2 SLP144 T02720206=
201806200252 METAR KATL 200252Z 31006KT 10SM SCT250 28/21 A2999 RMK AO2 SLP144 T02780206 53009=
201806200152 METAR KATL 200152Z 32007KT 10SM FEW150 BKN250 29/21 A2997 RMK AO2 SLP138 T02890206=
201806200052 METAR KATL 200052Z 34010KT 10SM FEW055 SCT250 30/21 A2997 RMK AO2 SLP138 T03000206=
201806192352 METAR KATL 192352Z 31009KT 10SM FEW055 SCT250 32/20 A2996 RMK AO2 SLP134 T03170200 10339 20317 55004=
201806192252 METAR KATL 192252Z 32009KT 10SM FEW055TCU SCT250 33/19 A2995 RMK AO2 SLP131 TCU NE & DSNT NW T03280194=
201806192152 METAR KATL 192152Z 29010KT 10SM SCT055 SCT250 33/19 A2996 RMK AO2 SLP134 MDT CU N-E-SE T03330194=
201806192052 METAR KATL 192052Z 33010KT 10SM FEW060 FEW250 33/19 A2998 RMK AO2 SLP139 MDT CU DSNT NE-SE-SW T03330194 56022=
201806191952 METAR KATL 191952Z 28012KT 10SM SCT055 33/20 A2999 RMK AO2 SLP144 TCU DSNT N T03280200=
201806191852 METAR KATL 191852Z 30012KT 10SM FEW050 33/21 A3001 RMK AO2 SLP149 TCU DSNT NE T03330206=
201806191752 METAR KATL 191752Z 33008KT 10SM SCT050TCU 33/21 A3004 RMK AO2 SLP160 TCU NE & E & SE & W T03280211 10333 20256 58010=
201806191652 METAR KATL 191652Z 32009KT 10SM SCT040TCU 32/22 A3006 RMK AO2 SLP166 TCU N-NE-E-SE MDT CU ALQDS T03220222=
201806191552 METAR KATL 191552Z 33008G16KT 10SM FEW040 32/22 A3007 RMK AO2 SLP168 T03170217=
201806191452 METAR KATL 191452Z 36009KT 10SM FEW035 30/21 A3007 RMK AO2 SLP170 T03000211 58004=
201806191352 METAR KATL 191352Z 34009KT 10SM CLR 29/21 A3008 RMK AO2 SLP175 T02890211=
201806191252 METAR KATL 191252Z 32010KT 10SM CLR 27/21 A3008 RMK AO2 SLP175 T02720211=
201806191152 METAR KATL 191152Z 31008KT 10SM FEW250 26/21 A3008 RMK AO2 SLP175 T02560211 10261 20239 53006=
201806191052 METAR KATL 191052Z 31007KT 10SM CLR 24/21 A3008 RMK AO2 SLP173 T02440206=
201806190952 METAR KATL 190952Z 31008KT 10SM FEW070 24/21 A3007 RMK AO2 SLP170 T02440206=
201806190852 METAR KATL 190852Z 31008KT 10SM CLR 24/21 A3006 RMK AO2 SLP169 T02440206 58001=
201806190752 METAR KATL 190752Z 31009KT 10SM FEW040 25/21 A3006 RMK AO2 SLP170 T02500206=
201806190652 METAR KATL 190652Z 31008KT 10SM CLR 26/21 A3007 RMK AO2 SLP170 T02560206=
201806190552 METAR KATL 190552Z 31008KT 10SM CLR 26/21 A3007 RMK AO2 SLP169 T02610206 10311 20261 58007=
201806190452 METAR KATL 190452Z 31009KT 10SM SCT250 27/21 A3008 RMK AO2 SLP173 T02670206 403280217=
201806190352 METAR KATL 190352Z 32006KT 10SM FEW040 SCT250 27/21 A3009 RMK AO2 SLP177 T02720211=
201806190252 METAR KATL 190252Z 30006KT 10SM FEW040 SCT250 28/21 A3009 RMK AO2 SLP177 T02830206 51008=
201806190152 METAR KATL 190152Z 28003KT 10SM FEW045 SCT070 SCT250 28/21 A3008 RMK AO2 SLP175 T02830211=
201806190052 METAR KATL 190052Z 27005KT 10SM FEW045 FEW120 SCT250 29/21 A3007 RMK AO2 SLP172 T02940206=
201806182352 METAR KATL 182352Z 26005KT 10SM FEW050 SCT120 SCT250 31/21 A3006 RMK AO2 SLP169 60000 T03110206 10328 20278 56009=
201806182252 METAR KATL 182252Z 00000KT 10SM FEW040 FEW150 SCT250 32/21 A3006 RMK AO2 SLP170 T03170206=
201806182152 METAR KATL 182152Z 03007KT 10SM FEW040TCU SCT150 BKN250 32/21 A3007 RMK AO2 LTG DSNT NE SLP173 CB DSNT NE TCU VC SW & DSNT N T03170206=
201806182052 METAR KATL 182052Z 10004KT 10SM FEW040CB BKN100 BKN250 29/20 A3009 RMK AO2 LTG DSNT NE RAB11E28 TSE24 SLP180 CB NE & DSNT NE MOV STNRY SHRA VC NE & DSNT NE P0000 60000 T02940200 58017=
201806182024 SPECI KATL 182024Z 17003KT 10SM -RA FEW030CB SCT040TCU BKN100 BKN250 28/19 A3010 RMK AO2 RAB11 TSE24 TS DSIPT CB NE MOV SW TCU W-NW P0000 T02830194=
201806182016 SPECI KATL 182016Z 16005KT 10SM -TSRA FEW040CB SCT065 BKN100 BKN250 28/19 A3011 RMK AO2 RAB11 OCNL LTGICCG NE TS NE MOV SW SHRA NE & SE-S P0000 T02830189=
201806182011 SPECI KATL 182011Z 16007KT 10SM -TSRA FEW050CB SCT065 BKN100 BKN250 28/19 A3011 RMK AO2 RAB11 OCNL LTGICCG NE & S TS NE & S MOV SW SHRA NE & S P0000 T02780189=
201806181952 METAR KATL 181952Z 13008KT 10SM TS SCT050CB BKN065 BKN100 BKN250 29/20 A3011 RMK AO2 TSB30E31B36 SLP186 FRQ LTGICCG SE-S TS SE-S MOV SW CB SE-S MOV SW SHRA SE-S T02940200=
201806181941 SPECI KATL 181941Z 29008KT 10SM TS SCT050CB BKN075 BKN100 BKN250 32/20 A3012 RMK AO2 TSB30E31B36 FRQ LTGICCG SE TS SE MOV S CB SE MOV S SHRA SE T03170200=
201806181937 SPECI KATL 181937Z 32007KT 10SM TS SCT050CB BKN100 BKN250 32/19 A3012 RMK AO2 TSB30E31B36 OCNL LTGIC SE TS SE MOV SW CB SE MOV SW SHRA VC SE T03170194=
201806181934 SPECI KATL 181934Z 34009KT 10SM SCT050CB BKN100 BKN250 32/19 A3012 RMK AO2 CB SE MOV SW SHRA VC SE T03170194=
201806181852 METAR KATL 181852Z 34008KT 10SM SCT050TCU SCT250 32/20 A3013 RMK AO2 SLP192 TCU N-NE-E-SE-S & W T03220200=
201806181752 METAR KATL 181752Z 33007KT 10SM SCT050 SCT150 33/21 A3015 RMK AO2 SLP196 MDT CU NE-SE-SW T03280206 10328 20239 58012=
201806181652 METAR KATL 181652Z 35008KT 10SM SCT040 SCT250 31/21 A3016 RMK AO2 SLP201 MDT CU NE-SE T03110206=
201806181552 METAR KATL 181552Z 31008KT 10SM FEW035 FEW120 SCT250 30/21 A3017 RMK AO2 SLP207 T03000211=
201806181452 METAR KATL 181452Z 32006KT 10SM FEW040 FEW120 SCT250 29/20 A3018 RMK AO2 SLP209 ACC DSNT SE T02890200 50003=
201806181352 METAR KATL 181352Z 34008KT 10SM FEW035 FEW120 27/20 A3019 RMK AO2 SLP213 T02720200=
201806181252 METAR KATL 181252Z 31004KT 10SM FEW120 26/20 A3018 RMK AO2 SLP210 ACC DSNT SW T02560200=
201806181152 METAR KATL 181152Z 33004KT 10SM FEW120 24/19 A3017 RMK AO2 SLP208 T02390194 10239 20217 52011=
201806181052 METAR KATL 181052Z 30006KT 10SM SCT120 SCT150 22/19 A3016 RMK AO2 SLP204 T02170194=
201806180952 METAR KATL 180952Z 33007KT 10SM FEW012 FEW150 22/19 A3015 RMK AO2 SLP199 T02220189=
201806180852 METAR KATL 180852Z 33004KT 10SM FEW200 22/19 A3014 RMK AO2 SLP195 T02170194 55004=
201806180752 METAR KATL 180752Z 01005KT 10SM FEW200 23/19 A3013 RMK AO2 SLP190 T02280194=
201806180652 METAR KATL 180652Z 31006KT 10SM FEW200 22/19 A3014 RMK AO2 SLP194 T02220194=
201806180552 METAR KATL 180552Z 31005KT 10SM FEW150 FEW200 22/19 A3015 RMK AO2 SLP198 T02220194 10256 20217 56007=
201806180452 METAR KATL 180452Z 00000KT 10SM FEW150 SCT200 SCT250 23/19 A3015 RMK AO2 SLP201 T02280194 403170217=
201806180352 METAR KATL 180352Z 28005KT 10SM FEW150 SCT200 BKN250 23/19 A3016 RMK AO2 SLP202 T02280194=
201806180252 METAR KATL 180252Z 28003KT 10SM FEW110 BKN150 BKN200 BKN250 23/20 A3017 RMK AO2 SLP206 T02330200 53016=
201806180152 METAR KATL 180152Z 29004KT 10SM FEW110 BKN150 BKN200 BKN250 23/21 A3015 RMK AO2 SLP199 T02330206=
201806180052 METAR KATL 180052Z 30004KT 10SM FEW038 SCT120 BKN200 BKN250 25/20 A3013 RMK AO2 SLP194 CB DSNT NE & W T02500200=
201806172352 METAR KATL 172352Z 29005KT 10SM FEW038TCU SCT100 BKN200 BKN250 25/19 A3012 RMK AO2 SLP191 CB DSNT NE TCU S T02500194 10317 20250 51006=
201806172252 METAR KATL 172252Z 29010KT 10SM FEW042 SCT100 BKN200 BKN250 26/21 A3012 RMK AO2 LTG DSNT W SLP190 CB DSNT W TCU DSNT NW-N T02610206=
201806172152 METAR KATL 172152Z 23006KT 10SM FEW046 FEW110 BKN200 BKN250 27/21 A3011 RMK AO2 LTG DSNT W AND NW SLP185 TSE07 TS MOV W CB DSNT SE & W-NW T02720211=
201806172109 SPECI KATL 172109Z 18010KT 10SM SCT046 SCT110 BKN200 BKN250 29/21 A3010 RMK AO2 LTG DSNT SW-NW TSE07 TS MOV W FRQ LTGICCGCA DSNT SW-NW CB DSNT SW-NW T02890211=
201806172052 METAR KATL 172052Z 18008KT 10SM VCTS SCT046CB SCT110 BKN200 BKN250 29/21 A3010 RMK AO2 SLP182 TSB40 FRQ LTGICCGCA VC SW-NW TS VC SW-NW MOV W CB DSNT SW-NW TCU E & W T02940211 58013=
201806172043 SPECI KATL 172043Z 17009KT 10SM VCTS SCT046CB SCT110 BKN200 BKN250 29/21 A3011 RMK AO2 LTG DSNT SW AND W TSB40 FRQ LTGICCGCA VC SW-W TS VC SW-W MOV W CB DSNT SW-NW T02940206=
201806171952 METAR KATL 171952Z 12007KT 10SM SCT046TCU SCT110 BKN200 BKN250 31/21 A3012 RMK AO2 SLP188 CB DSNT NW TCU SE-SW-NW T03110211=
201806171852 METAR KATL 171852Z VRB03KT 10SM SCT042 SCT100 BKN250 31/22 A3013 RMK AO2 SLP192 T03060217=
201806171752 METAR KATL 171752Z 28003KT 10SM SCT040 BKN200 30/22 A3014 RMK AO2 SLP195 T03000217 10300 20233 58014=
201806171710 SPECI KATL 171710Z 00000KT 10SM BKN033 BKN100 BKN250 28/22 A3016 RMK AO2 T02830217=
201806171652 METAR KATL 171652Z 25003KT 10SM BKN027 BKN100 BKN250 28/21 A3017 RMK AO2 SLP205 T02780211=
201806171552 METAR KATL 171552Z 24003KT 10SM BKN025 BKN250 28/22 A3019 RMK AO2 SLP212 T02780217=
201806171525 SPECI KATL 171525Z 00000KT 10SM BKN028 BKN250 28/22 A3019 RMK AO2 T02830217=
201806171452 METAR KATL 171452Z 00000KT 10SM SCT023 BKN140 BKN250 28/21 A3018 RMK AO2 SLP209 T02780211 50011=
201806171439 SPECI KATL 171439Z 23003KT 10SM SCT018 BKN140 BKN250 27/22 A3018 RMK AO2 T02670217=
201806171352 METAR KATL 171352Z 27003KT 10SM BKN018 BKN140 26/22 A3018 RMK AO2 SLP210 T02610217=
201806171345 SPECI KATL 171345Z VRB03KT 10SM BKN016 BKN140 26/22 A3018 RMK AO2 T02610217=
201806171313 SPECI KATL 171313Z 33004KT 10SM SCT012 BKN140 BKN250 26/21 A3017 RMK AO2 T02560211=
201806171252 METAR KATL 171252Z 31003KT 8SM BKN011 BKN140 BKN220 24/21 A3016 RMK AO2 SLP203 BKN011 V SCT T02440211=
201806171240 SPECI KATL 171240Z 29003KT 8SM FEW008 BKN011 BKN140 BKN220 24/21 A3016 RMK AO2 T02440211=
201806171152 METAR KATL 171152Z 30004KT 7SM OVC007 23/21 A3015 RMK AO2 SLP198 CIG 006V008 T02330211 10244 20217 53020=
201806171139 SPECI KATL 171139Z 31004KT 8SM OVC007 23/21 A3014 RMK AO2 CIG 006V008 T02330211=
201806171052 METAR KATL 171052Z 32005KT 8SM SCT007 BKN014 OVC050 23/21 A3012 RMK AO2 SLP188 BINOVC T02280211=
201806170952 METAR KATL 170952Z 25004KT 10SM BKN009 BKN012 BKN050 22/20 A3010 RMK AO2 SLP181 T02220200=
201806170946 SPECI KATL 170946Z 29003KT 10SM BKN009 BKN013 BKN050 22/20 A3010 RMK AO2=
201806170928 SPECI KATL 170928Z 22003KT 10SM SCT009 BKN013 BKN050 BKN200 22/20 A3009 RMK AO2 T02170200=
201806170852 METAR KATL 170852Z 16004KT 10SM SCT012 SCT050 SCT220 22/20 A3009 RMK AO2 SLP178 T02220200 56008=
201806170850 SPECI KATL 170850Z 17004KT 10SM SCT012 SCT050 SCT220 22/20 A3009 RMK AO2=
201806170841 SPECI KATL 170841Z 15004KT 10SM BKN012 BKN050 BKN220 23/20 A3009 RMK AO2 T02280200=
201806170752 METAR KATL 170752Z 10007KT 10SM SCT011 BKN050 BKN220 23/20 A3010 RMK AO2 SLP181 T02330200=
201806170652 METAR KATL 170652Z 16004KT 10SM FEW050 SCT140 BKN220 24/20 A3010 RMK AO2 SLP180 T02390200=
201806170552 METAR KATL 170552Z 00000KT 10SM FEW018 SCT050 SCT140 BKN200 24/21 A3011 RMK AO2 SLP185 T02440206 10300 20244 58000=
201806170452 METAR KATL 170452Z 00000KT 10SM SCT018 SCT050 BKN140 OVC200 24/20 A3014 RMK AO2 SLP194 T02440200 403280228=
201806170406 SPECI KATL 170406Z 13004KT 10SM SCT022 BKN048 BKN130 OVC200 24/20 A3013 RMK AO2 LTG DSNT N CB DSNT N T02440200=
201806170352 METAR KATL 170352Z 15009KT 10SM BKN020TCU BKN044 BKN130 OVC200 25/20 A3013 RMK AO2 LTG DSNT N AND NE SLP192 CB DSNT N-NE TCU SW-NW-N SHRA N T02500200=
201806170329 SPECI KATL 170329Z 13007KT 10SM BKN026TCU BKN050 BKN130 BKN200 26/21 A3012 RMK AO2 FRQ LTGICCA DSNT N-NE CB DSNT N-NE TCU N-OHD-S T02610211=
201806170252 METAR KATL 170252Z 18006KT 10SM FEW040TCU SCT130 BKN200 BKN250 27/22 A3011 RMK AO2 SLP185 CONS LTGICCA DSNT N-NE & SE CB DSNT N-NE & SE TCU N T02670217 53022=
201806170152 METAR KATL 170152Z 19007KT 10SM FEW038TCU SCT120 BKN200 BKN250 27/22 A3008 RMK AO2 SLP176 CONS LTGICCA DSNT E-SE CB DSNT E-SE TCU NE & SE SHRA NE T02720217=
201806170052 METAR KATL 170052Z 19006KT 10SM FEW044 FEW120 BKN200 BKN250 28/22 A3007 RMK AO2 SLP170 FRQ LTGICCGCA DSNT NE-SE CB DSNT NE-SE TCU DSNT NE-SE T02830217=
201806162352 METAR KATL 162352Z 18006KT 10SM FEW046 FEW110 BKN200 BKN250 30/21 A3004 RMK AO2 LTG DSNT NE-SE SLP163 TSB14E40 TS DSIPTD CB DSNT NE & E-SE & S T03000206 10328 20300 53009=
201806162342 SPECI KATL 162342Z 20008KT 10SM FEW046 FEW110 BKN200 BKN250 30/21 A3005 RMK AO2 TSB14E40 TS DSIPTD CB DSNT NE & E & S & SW T03000206=
201806162316 SPECI KATL 162316Z 16007KT 10SM VCTS FEW046CB SCT110 BKN200 BKN250 31/20 A3004 RMK AO2 LTG DSNT NE AND NW TSB14 OCNL LTGICCG VC NW TS VC NW MOV SW CB DSNT NE & NW TCU NE-SE-SW T03060200=
201806162252 METAR KATL 162252Z 14007KT 10SM SCT046TCU SCT110 BKN200 BKN250 31/20 A3004 RMK AO2 LTG DSNT NE AND NW SLP160 CB DSNT NE & NW TCU N & NE-SE-SW & NW T03110200=
201806162152 METAR KATL 162152Z 16010KT 10SM SCT044 BKN250 32/21 A3001 RMK AO2 LTG DSNT N AND NW SLP150 CB DSNT E & NW-N T03170206=
201806162052 METAR KATL 162052Z 18006KT 10SM SCT050TCU SCT080 BKN250 32/21 A3002 RMK AO2 LTG DSNT N AND NW SLP153 TCU SE-SW CB DSNT NW-N T03170211 58009=
201806161952 METAR KATL 161952Z 16009KT 10SM SCT045TCU BKN060 32/21 A3003 RMK AO2 SLP157 TCU N & S-SW T03170211=
201806161852 METAR KATL 161852Z 15008KT 100V180 10SM SCT043 SCT060 SCT250 32/21 A3004 RMK AO2 SLP160 MDT CU ALQDS T03220211=
201806161752 METAR KATL 161752Z VRB06KT 10SM SCT040 SCT200 31/22 A3005 RMK AO2 SLP162 CB DSNT N T03110217 10317 20233 58010=
201806161652 METAR KATL 161652Z 00000KT 10SM SCT035 30/22 A3007 RMK AO2 SLP169 T03000217=
201806161552 METAR KATL 161552Z 10005KT 10SM SCT027 30/22 A3007 RMK AO2 SLP171 T03000217=
201806161452 METAR KATL 161452Z 00000KT 10SM FEW024 FEW200 29/23 A3008 RMK AO2 SLP173 T02890228 50007=
201806161352 METAR KATL 161352Z 00000KT 8SM SCT012 27/22 A3009 RMK AO2 SLP177 T02670222=
201806161332 SPECI KATL 161332Z 32003KT 7SM FEW007 SCT010 26/22 A3008 RMK AO2 T02610222=
201806161252 METAR KATL 161252Z 00000KT 1 1/2SM BR BKN005 24/23 A3007 RMK AO2 SFC VIS 5 SLP171 CIG 004V006 T02390228=
201806161227 SPECI KATL 161227Z 23004KT 1 1/2SM BR BKN003 23/22 A3006 RMK AO2 SFC VIS 3 TWRINC T02330222=
201806161152 METAR KATL 161152Z 26003KT 1/2SM R09R/4000V6000FT BR BKN002 23/22 A3006 RMK AO2 SFC VIS 2 SLP168 TWRINC 70038 T02330222 10244 20228 53013=
201806161150 SPECI KATL 161150Z 27003KT 1/2SM R09R/4000V5000FT BR BKN002 23/22 A3006 RMK AO2 SFC VIS 2=
201806161121 SPECI KATL 161121Z 26004KT 1SM R09R/1800V3500FT BR BKN002 23/22 A3005 RMK AO2 TWR VIS 1 1/2 T02280222=
201806161101 SPECI KATL 161101Z 29005KT 3/4SM R09R/1600V4000FT BR BKN002 23/22 A3005 RMK AO2 TWR VIS 1 1/2 VIS W-N 1/2 T02280222=
201806161052 METAR KATL 161052Z 28004KT 1SM R09R/2200V3500FT BR BCFG BKN003 BKN200 23/22 A3004 RMK AO2 TWR VIS 1 1/2 SLP164 VIS W-N 1/2 BKN003 V SCT T02280222=
201806161042 SPECI KATL 161042Z 26004KT 1 1/2SM R09R/2800VP6000FT BR BCFG BKN003 BKN200 23/22 A3004 RMK AO2 VIS W-N 1/2 T02280222=
201806161032 SPECI KATL 161032Z 27005KT 4SM R09R/4000VP6000FT BR BCFG SCT005 SCT200 23/22 A3004 RMK AO2 VIS W-N 1/2 T02280217=
201806160952 METAR KATL 160952Z 00000KT 10SM FEW005 SCT200 23/22 A3003 RMK AO2 SLP157 T02330217=
201806160852 METAR KATL 160852Z 24003KT 10SM FEW200 SCT250 23/22 A3002 RMK AO2 SLP153 T02330217 58001=
201806160752 METAR KATL 160752Z 21003KT 10SM FEW200 SCT250 23/22 A3002 RMK AO2 SLP155 T02330217=
201806160652 METAR KATL 160652Z 22003KT 9SM FEW200 SCT250 24/22 A3002 RMK AO2 SLP154 T02390222=
201806160552 METAR KATL 160552Z 21004KT 10SM FEW200 BKN250 24/22 A3002 RMK AO2 SLP154 T02440222 10283 20244 58004=
201806160452 METAR KATL 160452Z 00000KT 10SM BKN250 25/22 A3003 RMK AO2 SLP158 T02500222 403280222=
201806160352 METAR KATL 160352Z 22003KT 10SM FEW150 BKN250 26/22 A3004 RMK AO2 SLP159 T02560217=
201806160252 METAR KATL 160252Z 19004KT 10SM FEW150 BKN250 26/22 A3003 RMK AO2 SLP158 T02610222 53018=
201806160152 METAR KATL 160152Z 22004KT 10SM FEW060 SCT200 BKN250 26/23 A3001 RMK AO2 SLP151 T02610228=
201806160052 METAR KATL 160052Z 00000KT 10SM FEW030TCU SCT060 BKN200 BKN250 28/22 A2999 RMK AO2 TSE17 SLP143 TCU NW-N T02780217=
201806160017 SPECI KATL 160017Z 22005KT 10SM FEW030TCU SCT150 BKN200 BKN250 28/23 A2998 RMK AO2 TSE17 TS DSIPTD TCU VC N-NE & DSNT SW-NW T02780228=
201806152352 METAR KATL 152352Z 20004KT 10SM TS FEW030CB SCT150 BKN200 BKN250 28/23 A2998 RMK AO2 TSB52 SLP141 OCNL LTGICCG N-NE & DSNT W TS VC N-NE & DSNT W MOV STNRY 60038 T02780228 10328 20261 53006=
201806152252 METAR KATL 152252Z 22003KT 10SM FEW030TCU SCT200 SCT250 28/24 A2996 RMK AO2 RAE46 TSE31 SLP133 TCU VC NW & DSNT NE P0037 T02830244=
201806152232 SPECI KATL 152232Z 00000KT 10SM -RA FEW030TCU SCT150 SCT250 28/23 A2996 RMK AO2 TSE31 TS DSIPTD TCU VC NW & DSNT NE P0037 T02780228=
201806152152 METAR KATL 152152Z 17008KT 9SM -TSRA SCT040CB BKN060 BKN250 30/22 A2996 RMK AO2 SLP135 RAB46 TSB47 FRQ LTGICCG OHD-NW TS OHD-NW MOV W P0001 T03000222=
201806152150 SPECI KATL 152150Z 18009KT 9SM -TSRA SCT040CB BKN060 BKN250 31/22 A2996 RMK AO2 RAB46 TSB47 FRQ LTGICCG OHD-NW TS OHD-NW MOV W P0001=
201806152052 METAR KATL 152052Z 21008KT 10SM BKN040TCU BKN060 BKN250 31/22 A2996 RMK AO2 LTG DSNT SE AND SW SLP134 CB DSNT E & SE & SW TCU OHD-NW-N-NE T03060217 56014=
201806151952 METAR KATL 151952Z 00000KT 10SM BKN045TCU BKN250 32/20 A2997 RMK AO2 LTG DSNT SW SLP135 TCU S-SW-W-NW MDT CU ALQDS T03220200=
201806151852 METAR KATL 151852Z 14005KT 10SM BKN050TCU BKN250 31/20 A2998 RMK AO2 SLP141 TCU OHD-E-SE-S-SW T03110200=
201806151752 METAR KATL 151752Z 06008KT 10SM SCT046TCU 32/21 A3000 RMK AO2 SLP146 TCU E-SE-S-SW T03220211 10322 20228 58013=
201806151652 METAR KATL 151652Z 04007KT 10SM BKN040TCU BKN250 31/22 A3002 RMK AO2 SLP154 TCU OHD & ALQDS T03110217=
201806151552 METAR KATL 151552Z 34006KT 10SM FEW035 FEW250 31/22 A3004 RMK AO2 SLP162 MDT CU OHD-NE T03060217=
201806151452 METAR KATL 151452Z 30006KT 10SM FEW025 FEW250 29/23 A3004 RMK AO2 SLP161 T02890228 50005=
201806151352 METAR KATL 151352Z 29004KT 10SM FEW020 FEW250 SCT300 27/22 A3005 RMK AO2 SLP164 T02670217=
201806151252 METAR KATL 151252Z VRB05KT 10SM FEW010 SCT250 SCT300 25/22 A3004 RMK AO2 SLP162 T02500217=
201806151152 METAR KATL 151152Z 24008KT 9SM FEW006 FEW140 SCT250 BKN300 23/21 A3003 RMK AO2 SLP156 T02280211 10239 20222 51008=
201806151052 METAR KATL 151052Z 23004KT 10SM FEW008 FEW140 SCT250 BKN300 22/21 A3002 RMK AO2 SLP154 T02220206=
201806150952 METAR KATL 150952Z 27006KT 10SM FEW250 22/20 A3001 RMK AO2 SLP151 T02220200=
201806150852 METAR KATL 150852Z 28007KT 10SM FEW038 FEW050 SCT250 22/20 A3000 RMK AO2 SLP148 T02220200 58001=
201806150752 METAR KATL 150752Z 27006KT 10SM FEW042 FEW050 SCT250 23/20 A3001 RMK AO2 SLP150 T02280200=
201806150652 METAR KATL 150652Z 23007KT 10SM SCT042 BKN050 BKN250 23/21 A3002 RMK AO2 SLP155 T02280206=
201806150552 METAR KATL 150552Z 27005KT 10SM SCT043 SCT250 23/21 A3000 RMK AO2 SLP149 T02330206 10289 20233 58008=
201806150452 METAR KATL 150452Z 25004KT 10SM FEW200 24/21 A3002 RMK AO2 SLP156 T02390211 403110217=
201806150352 METAR KATL 150352Z 27005KT 10SM FEW150 SCT200 SCT250 24/21 A3003 RMK AO2 SLP158 T02390211=
201806150252 METAR KATL 150252Z 27005KT 10SM FEW150 SCT200 25/21 A3003 RMK AO2 SLP158 T02500211 53012=
201806150152 METAR KATL 150152Z 29004KT 10SM FEW060 SCT150 SCT250 27/20 A3001 RMK AO2 SLP153 T02670200=
201806150052 METAR KATL 150052Z 31007KT 10SM FEW030 FEW150 SCT250 28/20 A3000 RMK AO2 SLP147 T02780200=
201806142352 METAR KATL 142352Z 31003KT 10SM FEW030TCU SCT150 SCT250 29/21 A2999 RMK AO2 LTG DSNT S SLP144 CB DSNT S & SW TCU SE T02940206 10311 20289 55000=
201806142252 METAR KATL 142252Z AUTO 31007KT 280V350 10SM FEW030TCU SCT150 BKN250 30/21 A2998 RMK AO2 SLP139 TCU SE & DSNT S-SW T03000211=
201806142152 METAR KATL 142152Z 34009KT 10SM FEW030TCU SCT050 BKN150 BKN250 31/22 A2999 RMK AO2 SLP143 TCU OHD-SE & VC NE T03060217=
201806142052 METAR KATL 142052Z 33008KT 10SM FEW030TCU SCT150 SCT250 29/22 A2999 RMK AO2 SLP145 TCU NE & SE T02940217 56019=
201806141952 METAR KATL 141952Z 28008KT 10SM SCT037TCU SCT080 BKN150 BKN250 30/21 A3001 RMK AO2 SLP150 TCU SE-S & NW T03000206=
201806141852 METAR KATL 141852Z VRB03KT 10SM FEW035 FEW080 SCT150 BKN250 29/21 A3002 RMK AO2 SLP157 T02940211=
201806141752 METAR KATL 141752Z VRB03KT 10SM FEW035 FEW070 SCT150 BKN250 28/22 A3005 RMK AO2 SLP165 MDT CU DSNT NE T02830217 10289 20222 58013=
201806141652 METAR KATL 141652Z 22004KT 10SM FEW025 SCT070 BKN150 BKN250 27/22 A3007 RMK AO2 SLP172 TCU DSNT SE-S T02720217=
201806141552 METAR KATL 141552Z 30006KT 10SM SCT020 BKN060 BKN150 BKN250 27/22 A3009 RMK AO2 SLP178 TCU DSNT N-NE & DSNT SW-NW MDT CU ALQDS SHRA VC W T02670217=
201806141452 METAR KATL 141452Z 33008KT 10SM SCT020 BKN050 BKN150 BKN250 26/22 A3009 RMK AO2 SLP180 MDT CU ALQDS T02610217 51011=
201806141352 METAR KATL 141352Z 30004KT 7SM FEW008 BKN150 BKN250 24/21 A3009 RMK AO2 SLP179 T02440211=
201806141347 SPECI KATL 141347Z 33005KT 3SM FEW008 BKN150 BKN250 24/21 A3008 RMK AO2 SFC VIS 7 CIG 003V005 BINOVC=
201806141305 SPECI KATL 141305Z 32007KT 3SM BR OVC004 23/21 A3007 RMK AO2 SFC VIS 5 CIG 003V005 BINOVC T02280211=
201806141252 METAR KATL 141252Z 31007KT 3SM BR BKN005 BKN110 BKN150 BKN200 23/21 A3007 RMK AO2 SFC VIS 6 SLP171 CIG 004V006 T02280211=
201806141229 SPECI KATL 141229Z 32007KT 6SM BR BKN005 BKN110 BKN150 BKN200 23/21 A3006 RMK AO2 VIRGA NW-NE CIG 004V006 T02280206=
201806141152 METAR KATL 141152Z 27006KT 7SM FEW004 SCT130 BKN160 BKN250 22/21 A3006 RMK AO2 SLP167 VIRGA NW-NE ACC NE 70114 T02220206 10222 20217 53008=
201806141052 METAR KATL 141052Z 22003KT 8SM FEW003 SCT140 BKN180 BKN250 22/21 A3004 RMK AO2 SLP161 T02220206=
201806140952 METAR KATL 140952Z 22004KT 10SM SCT140 BKN180 BKN250 22/20 A3002 RMK AO2 SLP155 T02220200=
201806140852 METAR KATL 140852Z 27004KT 10SM FEW140 BKN200 BKN250 22/20 A3003 RMK AO2 SLP158 T02220200 58010=
201806140752 METAR KATL 140752Z 30003KT 10SM FEW002 SCT140 BKN200 BKN250 22/21 A3004 RMK AO2 SLP162 T02220206=
201806140652 METAR KATL 140652Z 23004KT 9SM FEW003 FEW022 SCT180 BKN250 22/21 A3005 RMK AO2 SLP165 T02170206=
201806140552 METAR KATL 140552Z 20003KT 10SM FEW005 SCT180 BKN250 22/21 A3006 RMK AO2 SLP169 60114 T02220206 10283 20222 56004=
201806140452 METAR KATL 140452Z 15004KT 10SM FEW005 SCT100 BKN150 OVC200 23/21 A3006 RMK AO2 RAE0358 SLP170 P0000 T02280211 403110222=
201806140352 METAR KATL 140352Z 03004KT 10SM -RA FEW005 SCT100 BKN150 OVC200 23/21 A3006 RMK AO2 SLP168 P0001 T02330211=
201806140252 METAR KATL 140252Z 12004KT 9SM -RA FEW008 SCT080 BKN110 OVC150 23/21 A3007 RMK AO2 TSE52 SLP174 LTG DSNT NE-SE & W TS DSIPTD CB DSNT NE-SE & W P0034 60113 T02280206 51018=
201806140213 SPECI KATL 140213Z 09008KT 030V100 4SM TSRA BR FEW020CB BKN040 BKN070 OVC150 22/21 A3007 RMK AO2 OCNL LTGICCA OHD-ALQDS TS OHD-ALQDS MOV E P0033 T02220206=
201806140152 METAR KATL 140152Z 18004KT 1 1/2SM R09R/6000VP6000FT +TSRA BR SCT018CB BKN030 BKN070 OVC150 22/21 A3006 RMK AO2 RAE03B18 TSB03 SLP170 FRQ LTGICCG OHD-ALQDS TS OHD-ALQDS MOV E P0079 T02220211=
201806140136 SPECI KATL 140136Z 09010KT 1 1/2SM +TSRA BR SCT020CB BKN030 BKN100 OVC200 23/21 A3007 RMK AO2 RAE03B18 TSB03 FRQ LTGICCG OHD-ALQDS TS OHD-ALQDS MOV E P0052 T02330211=
201806140128 SPECI KATL 140128Z 10010KT 2SM R09R/5500VP6000FT +TSRA BR SCT020CB BKN030 BKN100 OVC200 23/21 A3006 RMK AO2 RAE03B18 TSB03 PRESRR FRQ LTGICCG OHD-ALQDS TS OHD-ALQDS MOV E P0039 T02330211=
201806140104 SPECI KATL 140104Z 02005KT 10SM TS SCT030CB BKN045 BKN100 BKN200 27/20 A3004 RMK AO2 RAE03 TSB03 OCNL LTGIC E-SE & DSNT N-NE TS VC E-SE & DSNT N-NE MOV E P0000 T02670200=
201806140052 METAR KATL 140052Z 02008KT 10SM -RA SCT030CB BKN045 BKN100 BKN200 27/20 A3004 RMK AO2 RAB52 SLP164 LTG DSNT N & E-SE CB VC ALQDS MOV E P0000 T02670200=
201806132352 METAR KATL 132352Z 27006KT 10SM FEW035 SCT055 BKN090 BKN200 28/20 A3002 RMK AO2 SLP154 LTG DSNT NE-E & NW CB DSNT NE-SE & NW T02830200 10311 20272 55003=
201806132252 METAR KATL 132252Z 28008KT 10SM FEW040 SCT090 BKN200 BKN250 28/18 A3000 RMK AO2 LTG DSNT NE AND E SLP147 CB DSNT NE-E TCU DSNT NE & SW T02780183=
201806132152 METAR KATL 132152Z VRB06KT 10SM SCT040TCU BKN200 BKN250 31/21 A3001 RMK AO2 LTG DSNT N SLP151 CB DSNT NE & W & NW TCU E-SE & S T03060206=
201806132052 METAR KATL 132052Z 28008KT 10SM SCT045TCU SCT150 BKN250 31/21 A3002 RMK AO2 LTG DSNT NE SLP156 CB DSNT NE & SE & NW TCU-N-NE-E & S-SW-W T03060206 56020=
201806131952 METAR KATL 131952Z 27010G16KT 10SM SCT038TCU SCT250 31/21 A3004 RMK AO2 LTG DSNT NE SLP160 CB DSNT NE & NW TCU E & S & DSNT NW-N T03110206=
201806131852 METAR KATL 131852Z 28008KT 10SM SCT035TCU SCT200 31/21 A3006 RMK AO2 LTG DSNT N-E SLP169 CB DSNT NE-SE TCU E & S T03060211=
201806131752 METAR KATL 131752Z 24005KT 10SM SCT030TCU 29/21 A3008 RMK AO2 SLP177 TCU NE-SE-S 60000 T02890211 10294 20222 58011=
201806131652 METAR KATL 131652Z 19008KT 10SM FEW025TCU BKN050 BKN250 28/22 A3011 RMK AO2 RAB07E24 SLP186 TCU NW-N-NE & DSNT S P0000 T02780217=
201806131624 SPECI KATL 131624Z 24005KT 10SM FEW020CB SCT030TCU BKN050 BKN250 27/22 A3012 RMK AO2 RAB07E24 CB NE-SE-S MOV E TCU W & NW SHRA NE-SE-S P0000 T02670217=
201806131615 SPECI KATL 131615Z 23007KT 6SM RA BKN024CB BKN030TCU BKN250 26/21 A3012 RMK AO2 RAB07 CB OHD-SE-S MOV E TCU ALQDS P0000 T02560211=
201806131612 SPECI KATL 131612Z 20006KT 9SM -RA SCT024CB BKN030TCU BKN250 26/22 A3012 RMK AO2 RAB07 VIS LWR SE-S-SW-W SHRA CB OHD-SE-SW TCU ALQDS P0000 T02610217=
201806131552 METAR KATL 131552Z 24006KT 10SM BKN025TCU BKN250 28/22 A3012 RMK AO2 SLP190 TCU ALQDS T02780217=
201806131452 METAR KATL 131452Z VRB03KT 10SM SCT025 SCT250 26/21 A3012 RMK AO2 SLP189 T02610211 50004=
201806131441 SPECI KATL 131441Z 00000KT 9SM FEW016 SCT023 26/21 A3012 RMK AO2 T02610206=
201806131352 METAR KATL 131352Z VRB04KT 8SM FEW010 BKN015 OVC020 24/21 A3013 RMK AO2 SLP193 T02440206=
201806131336 SPECI KATL 131336Z 18004KT 6SM FEW009 BKN015 OVC020 24/20 A3013 RMK AO2 T02390200=
201806131252 METAR KATL 131252Z 13005KT 2SM BR BKN007 OVC015 23/21 A3012 RMK AO2 SFC VIS 6 SLP190 CIG 005V009 T02280206=
201806131152 METAR KATL 131152Z 12005KT 2SM BR BKN005 OVC018 22/21 A3011 RMK AO2 SFC VIS 4 SLP186 CIG 004V006 T02220206 10228 20222 53008=
201806131101 SPECI KATL 131101Z 11006KT 2SM BR OVC005 22/21 A3009 RMK AO2 SFC VIS 5 CIG 004V006 T02220206=
201806131052 METAR KATL 131052Z 13006KT 2 1/2SM BR OVC005 22/20 A3009 RMK AO2 SFC VIS 5 SLP181 CIG 004V006 T02220200=
201806131023 SPECI KATL 131023Z 11004KT 2 1/2SM BR OVC005 22/20 A3009 RMK AO2 SFC VIS 6 CIG 004V006 T02220200=
201806130952 METAR KATL 130952Z 12004KT 7SM OVC006 22/20 A3009 RMK AO2 SLP179 CIG 005V007 T02220200=
201806130852 METAR KATL 130852Z 14004KT 9SM OVC006 22/20 A3008 RMK AO2 SLP177 CIG 005V007 T02220200 55003=
201806130752 METAR KATL 130752Z 12006KT 10SM OVC007 22/20 A3008 RMK AO2 SLP175 CIG 006V008 T02220200=
201806130652 METAR KATL 130652Z 11006KT 10SM OVC008 22/20 A3009 RMK AO2 SLP179 CIG 007V010 T02220200=
201806130625 SPECI KATL 130625Z 10008KT 10SM BKN008 OVC022 23/20 A3009 RMK AO2 T02280200=
201806130552 METAR KATL 130552Z 11008KT 10SM FEW012 BKN022 BKN042 BKN200 23/20 A3009 RMK AO2 SLP180 T02280200 10261 20228 58003=
201806130452 METAR KATL 130452Z 12006KT 10SM FEW020 BKN200 23/20 A3010 RMK AO2 SLP183 T02330200 402890206=
201806130413 SPECI KATL 130413Z 12008KT 10SM SCT028 BKN200 23/20 A3011 RMK AO2 T02330200=
201806130352 METAR KATL 130352Z 12004KT 10SM BKN025 BKN040 BKN250 24/20 A3011 RMK AO2 SLP188 T02390200=
201806130252 METAR KATL 130252Z 10008KT 10SM FEW030 BKN250 24/20 A3010 RMK AO2 SLP184 LTG DSNT SW-W CB DSNT SE & SW-W T02390200 53016=
201806130152 METAR KATL 130152Z 10007KT 10SM SCT030 SCT250 24/20 A3009 RMK AO2 SLP179 LTG DSNT W-NW CB DSNT SW & W-NW T02440200=
201806130052 METAR KATL 130052Z 11007KT 10SM FEW025 FEW250 26/20 A3006 RMK AO2 SLP170 CB DSNT S & SW T02560200=
201806122352 METAR KATL 122352Z 11008KT 10SM FEW025 SCT250 26/20 A3005 RMK AO2 SLP168 TCU DSNT S & SW T02610200 10289 20261 53001=
201806122252 METAR KATL 122252Z 11009KT 10SM FEW028TCU SCT250 27/20 A3004 RMK AO2 SLP165 TCU VC SW T02670200=
201806122152 METAR KATL 122152Z 11007KT 10SM SCT030 SCT250 28/21 A3005 RMK AO2 SLP166 MDT CU VC SE-S T02780206=
201806122052 METAR KATL 122052Z 10007KT 10SM SCT030 SCT250 27/21 A3005 RMK AO2 SLP167 MDT CU SW-NW T02720206 58019=
201806121952 METAR KATL 121952Z 10010KT 10SM FEW020 FEW050 SCT250 28/21 A3008 RMK AO2 WSHFT 1908 SLP176 TCU DSNT S-SW & DSNT NW T02780211=
201806121928 SPECI KATL 121928Z 07013KT 10SM SCT025TCU SCT050 BKN250 27/21 A3009 RMK AO2 WSHFT 1908 TCU S-SW-W-NW T02720206=
201806121852 METAR KATL 121852Z 12008KT 10SM SCT030TCU SCT080 BKN250 28/20 A3009 RMK AO2 SLP182 TCU N-NE-E & S-SW-W T02780200=
201806121752 METAR KATL 121752Z 11007KT 10SM BKN035 BKN250 28/20 A3011 RMK AO2 SLP186 TCU DSNT NE-E MDT CU NE & SE & NW T02780200 10278 20217 58005=
201806121652 METAR KATL 121652Z 08009KT 10SM FEW020 BKN030 BKN040 26/19 A3012 RMK AO2 SLP191 T02610194=
201806121641 SPECI KATL 121641Z VRB06KT 10SM FEW015 SCT025 BKN030 26/20 A3012 RMK AO2 T02610200=
201806121552 METAR KATL 121552Z 06006KT 10SM FEW015 BKN025 BKN030 24/20 A3012 RMK AO2 SLP192 T02440200=
201806121452 METAR KATL 121452Z 11005KT 9SM FEW015 BKN018 BKN020 24/19 A3012 RMK AO2 SLP191 T02390194 50012=
201806121352 METAR KATL 121352Z 10008KT 060V120 7SM FEW010 BKN015 BKN020 23/19 A3012 RMK AO2 SLP192 T02280194=
201806121324 SPECI KATL 121324Z 11004KT 5SM HZ BKN011 BKN015 23/19 A3012 RMK AO2 T02280194=
201806121252 METAR KATL 121252Z 10006KT 6SM HZ OVC008 22/19 A3011 RMK AO2 SLP186 CIG 007V011 BINOVC T02220194=
201806121152 METAR KATL 121152Z 10005KT 3SM BR OVC007 22/19 A3009 RMK AO2 SFC VIS 6 SLP180 CIG 006V009 BINOVC 70004 T02170194 10217 20206 53017 $=
201806121142 SPECI KATL 121142Z 09004KT 3SM BR BKN007 BKN200 BKN250 22/19 A3008 RMK AO2 SFC VIS 6 CIG 006V009 T02170194 $=
201806121125 SPECI KATL 121125Z 06004KT 1 1/2SM BR OVC005 21/19 A3008 RMK AO2 SFC VIS 5 CIG 004V008 BINOVC T02110194=
201806121052 METAR KATL 121052Z 04008KT 1/2SM R09R/P6000FT BR OVC003 21/19 A3005 RMK AO2 SFC VIS 1 1/2 SLP167 BINOVC TWRINC T02060189=
201806121042 SPECI KATL 121042Z 06006KT 1/2SM R09R/P6000FT BR BCFG BKN003 BKN013 BKN120 BKN250 21/19 A3004 RMK AO2 SFC VIS 2 1/2 VIS NW-N-E 1 BKN003 V SCT T02110194=
201806121037 SPECI KATL 121037Z 05007KT 1/2SM R09R/P6000FT BR BCFG SCT003 SCT013 SCT120 BKN250 21/19 A3004 RMK AO2 SFC VIS 4 VIS NW-N-E 1 T02110194=
201806121029 SPECI KATL 121029Z 07005KT 4SM BR BCFG FEW003 SCT120 SCT250 21/19 A3004 RMK AO2 VIS N-E 2 FG BANK N-E T02110189=
201806120952 METAR KATL 120952Z 03003KT 10SM BR FEW003 FEW120 22/19 A3003 RMK AO2 SLP160 T02170189=
201806120906 SPECI KATL 120906Z 00000KT 7SM FEW003 21/19 A3003 RMK AO2 T02110194 $=
201806120852 METAR KATL 120852Z 05005KT 4SM BR BKN003 21/19 A3003 RMK AO2 SLP161 VIS N-NE 2 BKN003 V SCT T02110194 53003 $=
201806120652 METAR KATL 120652Z 27003KT 10SM FEW140 FEW250 21/19 A3002 RMK AO2 SLP154 T02060189=
201806120552 METAR KATL 120552Z 00000KT 10SM FEW008 FEW140 FEW250 21/19 A3003 RMK AO2 SLP157 T02110189 10239 20211 51010=
201806120452 METAR KATL 120452Z 25003KT 10SM FEW006 SCT140 SCT250 21/19 A3002 RMK AO2 SLP158 T02110189 403110211=
201806120352 METAR KATL 120352Z 00000KT 10SM FEW150 SCT200 SCT250 22/19 A3001 RMK AO2 SLP154 T02170194=
201806120252 METAR KATL 120252Z 00000KT 10SM FEW150 BKN200 BKN250 22/20 A2999 RMK AO2 SLP147 T02220200 53001=
201806120152 METAR KATL 120152Z 00000KT 10SM FEW150 BKN200 BKN250 22/19 A2999 RMK AO2 SLP146 T02220194=
201806120052 METAR KATL 120052Z 00000KT 10SM FEW110 SCT150 BKN200 OVC250 22/19 A2999 RMK AO2 SLP148 T02220194=
201806112352 METAR KATL 112352Z 06007KT 10SM FEW015 SCT070 BKN120 OVC200 23/19 A2999 RMK AO2 WSHFT 2239 RAB2256E49 TSE22 SLP147 LTG DSNT SE P0004 60004 T02330194 10311 20222 51022=
201806112323 SPECI KATL 112323Z 34008KT 10SM -RA FEW025 BKN080 BKN150 OVC250 22/19 A2999 RMK AO2 WSHFT 2239 RAB2256 TSE22 TS DSIPTD P0004 T02220194=
201806112259 SPECI KATL 112259Z 36010KT 9SM -TSRA FEW025CB SCT040 BKN070 BKN150 OVC250 24/19 A2998 RMK AO2 WSHFT 2239 RAB56 OCNL LTGIC NW-NE TS VC NW-NE MOV SE P0000 T02440189=
201806112252 METAR KATL 112252Z 34010KT 10SM TS FEW025CB SCT040 BKN070 BKN150 OVC250 25/18 A2998 RMK AO2 WSHFT 2237 TSE03B27 SLP144 OCNL LTGICCG NW-NE TS VC NW-NE MOV SE T02500183=
201806112227 SPECI KATL 112227Z VRB05KT 10SM TS FEW025CB SCT110 BKN150 BKN250 25/18 A2996 RMK AO2 TSE03B27 OCNL LTGICCG NW-N TS VC NW-N MOV SE T02500178=
201806112203 SPECI KATL 112203Z 10007KT 10SM FEW025 SCT060 BKN120 BKN200 25/18 A2996 RMK AO2 TSE03 OCNL LTG DSNT E-SE & NW TS MOV SE T02500183=
201806112152 METAR KATL 112152Z 09013KT 10SM TS FEW025CB SCT050 BKN110 OVC200 25/18 A2996 RMK AO2 WSHFT 2122 TSB18 SLP136 FRQ LTGICCG NE-SE TS VC NE-SE MOV SE T02500183=
201806112142 SPECI KATL 112142Z 06015G24KT 10SM TS FEW025CB SCT050 BKN100 OVC200 25/18 A2996 RMK AO2 WSHFT 2122 TSB18 FRQ LTGICCG NE-SE TS VC NE-SE MOV SE T02500183=
201806112118 SPECI KATL 112118Z 26006KT 10SM TS FEW025CB SCT070 BKN100 OVC200 27/21 A2995 RMK AO2 TSB18 FRQ LTGICCG NE-SE TS VC NE-SE MOV SE T02670206=
201806112052 METAR KATL 112052Z 27011KT 10SM FEW030TCU SCT110 BKN200 27/21 A2992 RMK AO2 LTG DSNT ALQDS SLP123 CB DSNT N-NE-E & DSNT S TCU NE-E-SE SHRA DSNT N-NE-E & DSNT S T02720206 56017=
201806111952 METAR KATL 111952Z 30007KT 10SM FEW045 SCT120 SCT250 31/20 A2993 RMK AO2 LTG DSNT ALQDS SLP122 CB DSNT NE-SE & SW-NW T03110200=
201806111852 METAR KATL 111852Z VRB05KT 10SM FEW030TCU SCT200 SCT250 30/21 A2995 RMK AO2 LTG DSNT W SLP131 CB DSNT NE-E & W-NW TCU N-NE-E & DSNT SE-S T03000211=
201806111752 METAR KATL 111752Z 28011KT 10SM FEW040 FEW120 SCT250 30/21 A2998 RMK AO2 SLP139 CB DSNT NE-E & W-NW TCU DSNT N & E & S T03000206 10300 20222 58009=
201806111652 METAR KATL 111652Z VRB05KT 10SM FEW025 BKN050 BKN120 BKN250 28/21 A3001 RMK AO2 SLP151 T02780211=
201806111552 METAR KATL 111552Z 31008KT 10SM FEW025 SCT120 SCT250 27/21 A3001 RMK AO2 SLP153 T02720206=
201806111452 METAR KATL 111452Z 27007KT 10SM FEW030 SCT120 SCT250 27/20 A3000 RMK AO2 SLP150 T02670200 50008=
201806111352 METAR KATL 111352Z 30008KT 10SM FEW100 BKN130 BKN180 BKN250 24/19 A3001 RMK AO2 SLP153 ACC SW-NW T02440194=
201806111252 METAR KATL 111252Z 27007KT 9SM FEW100 BKN150 BKN200 BKN250 23/19 A3000 RMK AO2 SLP150 ACC W T02280189=
201806111152 METAR KATL 111152Z 27006KT 8SM FEW005 FEW140 SCT200 BKN250 22/19 A2998 RMK AO2 SLP142 T02220194 10228 20211 53008=
201806111052 METAR KATL 111052Z 23006KT 10SM FEW100 FEW140 SCT200 BKN250 21/19 A2996 RMK AO2 SLP137 T02110189=
201806110952 METAR KATL 110952Z 20003KT 10SM FEW007 SCT085 SCT100 BKN250 21/19 A2996 RMK AO2 SLP136 T02110194=
201806110852 METAR KATL 110852Z 29005KT 10SM FEW180 BKN250 22/19 A2995 RMK AO2 SLP134 T02170194 55002=
201806110752 METAR KATL 110752Z 25004KT 10SM FEW180 BKN250 22/19 A2994 RMK AO2 SLP130 T02170194 $=
201806110652 METAR KATL 110652Z 26003KT 10SM FEW180 BKN250 22/19 A2995 RMK AO2 SLP130 T02220194 $=
201806110552 METAR KATL 110552Z 22006KT 10SM SCT180 BKN250 23/20 A2996 RMK AO2 SLP134 T02280200 10256 20228 58009 $=
201806110452 METAR KATL 110452Z 24008KT 10SM FEW120 SCT180 BKN250 23/20 A2998 RMK AO2 SLP142 T02280200 403170200 $=
201806110352 METAR KATL 110352Z 23007KT 10SM FEW130 SCT180 BKN250 23/19 A2998 RMK AO2 SLP141 T02330189 $=
201806110252 METAR KATL 110252Z 21004KT 10SM SCT140 BKN200 BKN250 23/19 A2999 RMK AO2 SLP145 T02330189 53006 $=
201806110152 METAR KATL 110152Z 22007KT 10SM FEW130 BKN200 BKN250 24/19 A2999 RMK AO2 SLP145 T02390194 $=
201806110052 METAR KATL 110052Z 22004KT 10SM FEW110 SCT140 BKN200 BKN250 24/19 A2997 RMK AO2 SLP139 T02440189 $=
201806102352 METAR KATL 102352Z 31008KT 10SM FEW110 BKN140 BKN200 BKN250 26/19 A2997 RMK AO2 PRESRR SLP139 CB DSNT NE & W-NW 60000 T02610194 10317 20256 53003 $=
201806102252 METAR KATL 102252Z 28004KT 10SM FEW100 SCT140 BKN200 BKN250 26/19 A2995 RMK AO2 LTG DSNT N SLP131 CB DSNT N-NE & SE-SW-W T02610189 $=
201806102152 METAR KATL 102152Z 24007KT 10SM FEW045 SCT110 BKN200 BKN250 26/18 A2995 RMK AO2 SLP133 CB DSNT ALQDS TCU DSNT N-NE & NW T02560183 $=
201806102052 METAR KATL 102052Z 28009KT 10SM FEW045 BKN120 BKN200 BKN250 26/19 A2996 RMK AO2 RAE1956 SLP137 LTG DSNT SE CB DSNT SE TCU DSNT N-NE & NW P0000 60000 T02610194 56015 $=
201806101952 METAR KATL 101952Z 26007KT 10SM -RA FEW025 SCT050TCU BKN075 BKN250 27/21 A2998 RMK AO2 LTG DSNT SW AND W SLP141 RAB25 CB DSNT SW & W TCU OHD & E & DSNT S & W-NW-N P0000 P0000 T02720211 $=
201806101907 SPECI KATL 101907Z 30010KT 10SM FEW025 BKN045TCU BKN100 BKN150 BKN250 29/20 A2997 RMK AO2 LTG DSNT SW AND W TSE05 TS OHD-W-NW DSIPT CB DSNT SW & W TCU OHD & E & NW SHRA NW T02890200 $=
201806101852 METAR KATL 101852Z 26006KT 10SM TS SCT045CB BKN070 BKN100 BKN250 30/19 A2997 RMK AO2 LTG DSNT SW AND W SLP138 TSB48 OCNL LTGIC 0HD-W-NW TS OHD-W-NW MOV E CB DSNT SW & W TCU E P0000 T03000189 $=
201806101842 SPECI KATL 101842Z 24005KT 10SM VCTS SCT045CB SCT070 SCT100 BKN250 30/19 A2998 RMK AO2 LTG DSNT SW AND W OCNL LTGIC VC W-NW TS VC W-NW MOV E CB DSNT SW & W TCU OHD T03000189 $=
201806101752 METAR KATL 101752Z 00000KT 10SM SCT045TCU SCT100 SCT250 31/19 A3001 RMK AO2 LTG DSNT W SLP150 CB DSNT W TCU N & NW T03060194 10311 20217 58019 $=
201806101652 METAR KATL 101652Z 34006KT 10SM SCT030 BKN250 30/21 A3004 RMK AO2 SLP162 TCU DSNT W MDT CU NE & W & NW SHRA DSNT W T03000211 $=
201806101552 METAR KATL 101552Z 33004KT 10SM FEW030 SCT150 SCT210 BKN250 28/21 A3006 RMK AO2 SLP170 T02830206 $=
201806101452 METAR KATL 101452Z 29007KT 10SM BKN250 28/20 A3007 RMK AO2 SLP170 T02780200 50003 $=
201806101352 METAR KATL 101352Z 31006KT 10SM FEW200 BKN250 26/19 A3007 RMK AO2 SLP172 T02610194 $=
201806101252 METAR KATL 101252Z 29004KT 10SM FEW140 BKN250 24/19 A3007 RMK AO2 SLP171 T02440189 $=
201806101152 METAR KATL 101152Z 28003KT 10SM FEW150 FEW200 BKN250 22/19 A3006 RMK AO2 SLP168 T02170189 10228 20200 53012 $=
201806101052 METAR KATL 101052Z 22004KT 10SM FEW150 FEW200 BKN250 20/18 A3005 RMK AO2 SLP166 T02000183 $=
201806100952 METAR KATL 100952Z 00000KT 10SM FEW150 BKN200 21/18 A3002 RMK AO2 SLP157 T02110183 $=
201806100852 METAR KATL 100852Z 25004KT 10SM FEW180 SCT250 21/18 A3002 RMK AO2 SLP157 T02110183 56005 $=
201806100752 METAR KATL 100752Z 21003KT 10SM SCT180 BKN250 22/18 A3002 RMK AO2 SLP156 T02170183 $=
201806100652 METAR KATL 100652Z 29004KT 10SM FEW180 SCT250 22/18 A3003 RMK AO2 SLP157 T02220183 $=
201806100552 METAR KATL 100552Z 27005KT 10SM FEW180 FEW250 22/18 A3004 RMK AO2 SLP160 T02220183 10278 20222 58014 $=
201806100452 METAR KATL 100452Z 25009KT 10SM FEW180 SCT250 23/19 A3006 RMK AO2 SLP168 T02330189 403220211 $=
201806100352 METAR KATL 100352Z 25007KT 10SM SCT180 BKN250 24/19 A3007 RMK AO2 SLP172 T02390194 $=
201806100252 METAR KATL 100252Z 27004KT 10SM FEW140 BKN180 BKN250 24/21 A3008 RMK AO2 SLP175 T02440206 53010 $=
201806100152 METAR KATL 100152Z 22004KT 10SM FEW120 BKN180 BKN250 26/19 A3007 RMK AO2 SLP171 T02560194 $=
201806100052 METAR KATL 100052Z 20004KT 10SM FEW040TCU FEW110 BKN180 BKN250 27/20 A3006 RMK AO2 SLP167 TCU NW-N CB DSNT N T02670200 $=
201806092352 METAR KATL 092352Z 21005KT 10SM FEW110 SCT180 BKN250 28/18 A3005 RMK AO2 LTG DSNT NE SLP165 CB DSNT NE ACC E & DSNT SE T02780183 10322 20267 53002=
201806092252 METAR KATL 092252Z 22005KT 10SM FEW036 SCT100 BKN180 BKN250 28/20 A3004 RMK AO2 LTG DSNT NE SLP164 CB DSNT N-NE ACC SE & W T02830200=
201806092152 METAR KATL 092152Z 21006KT 10SM FEW034TCU SCT110 BKN180 BKN250 29/20 A3004 RMK AO2 SLP162 CB DSNT NE & NW TCU N & DSNT NE T02890200=
201806092052 METAR KATL 092052Z 21004KT 10SM SCT030 SCT100 BKN150 BKN180 BKN250 27/19 A3004 RMK AO2 SLP164 TCU DSNT N & NE & SE & NW T02670194 56025=
201806092041 SPECI KATL 092041Z 21007KT 10SM SCT030 SCT100 BKN150 BKN180 BKN250 27/19 A3005 RMK AO2 LTG DSNT S TS VC NE-E DSIPT CB DSNT S T02670194=
201806091952 METAR KATL 091952Z 28007KT 10SM VCTS SCT040CB BKN100 BKN150 BKN250 29/19 A3007 RMK AO2 SLP173 LTG DSNT SW TSB16 OCNL LTGICCG VC SE-S TS VC SE-S MOV S TCU NE-E & NW CB DSNT SW T02890189 $=
201806091916 SPECI KATL 091916Z 29008KT 10SM TS SCT050TCU BKN100 BKN250 31/19 A3008 RMK AO2 LTG DSNT SW TSB16 CB DSNT SW TCU OHD & ALQDS SHRA SE & DSNT S T03110194 $=
201806091852 METAR KATL 091852Z 29010KT 10SM SCT050TCU BKN100 BKN250 31/18 A3009 RMK AO2 LTG DSNT SW SLP178 CB DSNT SW TCU OHD & ALQDS SHRA SE & DSNT S T03060183 $=
201806091840 SPECI KATL 091840Z 28012KT 10SM SCT050TCU SCT100 BKN250 30/19 A3010 RMK AO2 LTG DSNT SW TS VC W DSIPT CB DSNT SW TCU OHD & ALQDS SHRA SE T03000194 $=
201806091814 SPECI KATL 091814Z 32005KT 10SM VCTS SCT050CB BKN250 31/18 A3011 RMK AO2 LTG DSNT SW OCNL LTGIC VC W TS VC W MOV E CB DSNT SW T03110178 $=
201806091752 METAR KATL 091752Z 28005KT 10SM SCT050TCU BKN250 32/19 A3012 RMK AO2 SLP188 LTG DSNT SW & W CB DSNT SW & W TCU OHD & ALQDS SHRA W T03170194 10317 20233 58013 $=
201806091652 METAR KATL 091652Z 25004KT 10SM SCT045TCU BKN120 BKN250 31/18 A3014 RMK AO2 SLP195 TCU ALQDS T03110183 $=
201806091552 METAR KATL 091552Z VRB04KT 10SM FEW035 SCT250 29/19 A3015 RMK AO2 SLP200 T02940189 $=
201806091452 METAR KATL 091452Z 00000KT 10SM SCT250 29/19 A3016 RMK AO2 SLP201 T02890194 50001 $=
201806091352 METAR KATL 091352Z 00000KT 10SM SCT250 27/19 A3016 RMK AO2 SLP202 T02720189 $=
201806091252 METAR KATL 091252Z 06006KT 10SM FEW120 FEW200 FEW250 26/19 A3016 RMK AO2 SLP203 T02560189 $=
201806091152 METAR KATL 091152Z 08003KT 10SM FEW120 FEW200 23/19 A3016 RMK AO2 SLP202 70001 T02330189 10233 20211 53013 $=
201806091052 METAR KATL 091052Z 06005KT 10SM FEW120 FEW200 22/19 A3014 RMK AO2 SLP196 T02220189 $=
201806090952 METAR KATL 090952Z 12005KT 10SM FEW120 FEW200 22/19 A3012 RMK AO2 SLP191 T02170189 $=
201806090852 METAR KATL 090852Z 00000KT 10SM FEW120 22/19 A3012 RMK AO2 SLP188 T02220189 58011 $=
201806090752 METAR KATL 090752Z 00000KT 10SM CLR 22/19 A3013 RMK AO2 SLP192 T02220189 $=
201806090652 METAR KATL 090652Z 00000KT 10SM FEW120 22/19 A3014 RMK AO2 SLP196 T02220189 $=
201806090552 METAR KATL 090552Z 33005KT 10SM FEW120 23/19 A3015 RMK AO2 SLP198 T02280189 10256 20228 58003 $=
201806090452 METAR KATL 090452Z 00000KT 10SM FEW150 SCT250 23/19 A3015 RMK AO2 SLP200 T02280189 403220228 $=
201806090352 METAR KATL 090352Z 00000KT 10SM FEW120 SCT150 BKN250 25/19 A3016 RMK AO2 SLP203 T02500189 $=
201806090252 METAR KATL 090252Z 10004KT 10SM FEW110 SCT140 BKN250 24/19 A3016 RMK AO2 SLP202 T02440189 53009 $=
201806090152 METAR KATL 090152Z 15003KT 10SM SCT140 BKN250 24/19 A3014 RMK AO2 SLP198 T02440189 $=
201806090052 METAR KATL 090052Z 00000KT 10SM FEW150 SCT200 BKN250 24/18 A3012 RMK AO2 SLP192 T02440183 $=
201806082352 METAR KATL 082352Z 19005KT 10SM FEW150 SCT200 BKN250 24/18 A3013 RMK AO2 SLP194 60001 T02440183 10322 20244 53004 $=
201806082252 METAR KATL 082252Z 17007KT 10SM FEW100 SCT150 BKN200 BKN250 28/18 A3011 RMK AO2 LTG DSNT S AND SW SLP187 LTG DSNT SW CB DSNT NE-SE & SW T02830183 $=
201806082152 METAR KATL 082152Z 15006KT 10SM FEW040 SCT150 BKN200 BKN250 28/18 A3011 RMK AO2 SLP186 LTG DSNT NE-SE & SW CB DSNT NE-SE & SW T02830183 $=
201806082144 SPECI KATL 082144Z 13004KT 10SM FEW040 SCT150 BKN200 BKN250 29/17 A3012 RMK AO2 LTG DSNT NE-SE TS DSIPTD CB DSNT NE-SE & S-SW T02890172 $=
201806082052 METAR KATL 082052Z 02012KT 8SM VCTS SCT045CB SCT110 BKN250 28/18 A3012 RMK AO2 LTG DSNT E RAE16 SLP188 OCNL LTGIC VC S TS VC S MOV S CB DSNT N-NE-E P0000 60001 T02780178 56014 $=
201806082049 SPECI KATL 082049Z 02013KT 10SM VCTS SCT045CB SCT110 BKN250 28/18 A3012 RMK AO2 LTG DSNT NE AND E RAE16 OCNL LTGIC VC S TS VC S MOV S CB DSNT N-NE-E P0000 $=
201806082012 SPECI KATL 082012Z 35009KT 10SM -RA SCT055TCU BKN090 BKN110 BKN250 29/17 A3013 RMK AO2 LTG DSNT N AND NE TCU E & SE & S & NW CB DSNT N & NE P0000 T02890172 $=
201806081952 METAR KATL 081952Z 35011KT 7SM VCTS -RA SCT055CB SCT075 BKN100 BKN250 28/20 A3012 RMK AO2 LTG DSNT N AND NE SLP190 TSB35E50 RAB29 TS OHD-NW DSPTD OCNL LTGIC VC N-NE TS VC N-NE MOV S CB DSNT N & NW P0001 T02830200 $=
201806081939 SPECI KATL 081939Z 36012KT 10SM -TSRA SCT050CB BKN120 BKN250 30/19 A3012 RMK AO2 LTG DSNT N AND NW TSB35 RAB29 OCNL LTGIC OHD-NW TS OHD-NW CB DSNT N AND NW P0000 T03000189 $=
201806081852 METAR KATL 081852Z 00000KT 10SM SCT050TCU BKN110 BKN250 30/19 A3013 RMK AO2 LTG DSNT N SLP192 TCU OHD-NW & SE & S CB DSNT N T03000189=
201806081752 METAR KATL 081752Z 09005KT 10SM SCT050TCU SCT150 BKN250 32/19 A3016 RMK AO2 SLP201 TCU OHD-W & NW T03170194 10317 20239 58005=
201806081652 METAR KATL 081652Z 08007KT 050V170 9SM FEW045 FEW120 SCT250 31/19 A3017 RMK AO2 SLP205 T03060189=
201806081552 METAR KATL 081552Z 10006KT 10SM FEW120 FEW250 29/20 A3017 RMK AO2 SLP205 T02940200=
201806081452 METAR KATL 081452Z 09007KT 10SM SCT120 SCT250 27/20 A3017 RMK AO2 SLP207 T02720200 50009=
201806081352 METAR KATL 081352Z 08006KT 10SM BKN120 BKN250 25/19 A3018 RMK AO2 SLP209 T02500194=
201806081252 METAR KATL 081252Z 07006KT 9SM BKN110 BKN200 BKN250 24/19 A3017 RMK AO2 SLP205 T02390189=
201806081152 METAR KATL 081152Z 06007KT 10SM SCT110 SCT200 BKN250 24/19 A3015 RMK AO2 SLP198 T02440189 10256 20228 53019=
201806081052 METAR KATL 081052Z 05004KT 10SM FEW085 SCT110 SCT200 BKN250 24/18 A3012 RMK AO2 SLP188 ACC DSNT E T02390183=
201806080952 METAR KATL 080952Z 08005KT 10SM FEW120 SCT200 SCT250 23/18 A3009 RMK AO2 SLP179 T02280183=
201806080852 METAR KATL 080852Z 07004KT 10SM FEW130 SCT200 SCT250 23/18 A3009 RMK AO2 SLP178 T02280183 55002=
201806080752 METAR KATL 080752Z 09005KT 10SM SCT120 SCT250 23/18 A3009 RMK AO2 SLP177 T02330183=
201806080652 METAR KATL 080652Z 08006KT 10SM SCT200 BKN250 24/18 A3009 RMK AO2 SLP177 T02390183=
201806080552 METAR KATL 080552Z 06005KT 10SM FEW140 SCT200 BKN250 26/18 A3010 RMK AO2 SLP180 T02560183 10294 20250 50008 $=
201806080452 METAR KATL 080452Z 00000KT 10SM BKN250 26/18 A3010 RMK AO2 SLP180 T02560178 403170206=
201806080352 METAR KATL 080352Z 00000KT 10SM BKN250 26/17 A3009 RMK AO2 SLP177 T02610172=
201806080252 METAR KATL 080252Z 14003KT 10SM FEW065 BKN250 27/17 A3007 RMK AO2 SLP172 T02720167 53017=
201806080152 METAR KATL 080152Z 16003KT 10SM FEW065 SCT250 28/16 A3005 RMK AO2 SLP165 T02780161=
201806080052 SPECI KATL 080052Z 16003KT 10SM FEW065 SCT250 28/16 A3004 RMK AO2 SLP160 T02830161=
201806080052 METAR KATL 080052Z 16003KT 10SM FEW065 SCT250 28/16 A3004 RMK AO2 SLP160 T02830161=
201806072352 METAR KATL 072352Z 15004KT 10SM FEW065 SCT250 29/16 A3002 RMK AO2 SLP155 T02940156 10317 20294 53002=
201806072252 METAR KATL 072252Z 15005KT 10SM SCT065 SCT250 31/16 A3002 RMK AO2 SLP154 T03060161=
201806072152 METAR KATL 072152Z 12005KT 10SM SCT065 30/15 A3001 RMK AO2 SLP154 T03000150=
201806072052 METAR KATL 072052Z 09003KT 10SM SCT070 32/15 A3001 RMK AO2 SLP152 T03170150 56013=
201806071952 METAR KATL 071952Z 17006KT 10SM SCT070 31/16 A3003 RMK AO2 SLP157 T03110161=
201806071852 METAR KATL 071852Z VRB03KT 10SM SCT070 SCT250 31/16 A3004 RMK AO2 SLP159 T03110156=
201806071752 METAR KATL 071752Z 30007KT 280V340 10SM SCT065 SCT250 31/16 A3005 RMK AO2 SLP165 T03060156 10311 20239 50000=
201806071652 METAR KATL 071652Z VRB06KT 10SM SCT060 SCT250 31/16 A3006 RMK AO2 SLP168 T03060156=
201806071552 METAR KATL 071552Z 10SM FEW055 SCT250 29/16 A3005 RMK AO2 SLP165 T02940161=
201806071452 METAR KATL 071452Z VRB06KT 10SM FEW250 29/17 A3005 RMK AO2 SLP165 T02890167 51015=
201806071352 METAR KATL 071352Z VRB04KT 10SM FEW250 27/16 A3004 RMK AO2 SLP161 T02720161=
201806071252 METAR KATL 071252Z 05011KT 10SM FEW250 26/16 A3003 RMK AO2 SLP157 T02610156=
201806071152 METAR KATL 071152Z 34005KT 10SM FEW200 SCT250 24/17 A3001 RMK AO2 SLP150 T02390167 10250 20206 53016=
201806071052 METAR KATL 071052Z 34004KT 10SM FEW003 FEW200 SCT250 22/16 A2999 RMK AO2 SLP143 FU FEW003 T02170161=
201806070952 METAR KATL 070952Z 32005KT 10SM FEW250 21/16 A2997 RMK AO2 SLP136 T02110161=
201806070852 METAR KATL 070852Z 33007KT 10SM CLR 23/16 A2996 RMK AO2 SLP132 T02280156 53008=
201806070752 METAR KATL 070752Z 33007KT 10SM CLR 23/16 A2994 RMK AO2 SLP127 T02280156=
201806070652 METAR KATL 070652Z 34006KT 10SM CLR 24/15 A2994 RMK AO2 SLP127 T02440150=
201806070552 METAR KATL 070552Z 34007KT 10SM CLR 23/16 A2993 RMK AO2 SLP125 T02330156 10300 20233 51004=
201806070452 METAR KATL 070452Z 34006KT 10SM CLR 24/16 A2993 RMK AO2 SLP124 T02390156 403280172=
201806070352 METAR KATL 070352Z 34008KT 10SM CLR 26/15 A2993 RMK AO2 SLP123 T02560150=
201806070252 METAR KATL 070252Z 34008KT 10SM CLR 26/14 A2992 RMK AO2 SLP121 T02560144 53013=
201806070152 METAR KATL 070152Z 32005KT 10SM CLR 26/14 A2991 RMK AO2 SLP117 T02610139=
201806070052 METAR KATL 070052Z 33009KT 10SM FEW250 28/13 A2989 RMK AO2 SLP114 T02780128=
201806062352 METAR KATL 062352Z 34011G17KT 10SM FEW250 30/11 A2988 RMK AO2 SLP109 T03000111 10328 20300 53003=
201806062252 METAR KATL 062252Z 31011KT 10SM FEW075 FEW250 31/12 A2987 RMK AO2 SLP106 T03110117=
201806062152 METAR KATL 062152Z 33011KT 10SM FEW075 FEW250 32/13 A2987 RMK AO2 SLP104 T03170133=
201806062052 METAR KATL 062052Z 35005KT 10SM FEW080 FEW250 32/12 A2987 RMK AO2 SLP106 T03220117 58014=
201806061952 METAR KATL 061952Z 31006KT 10SM FEW080 FEW250 32/14 A2989 RMK AO2 SLP111 T03220139=
201806061852 METAR KATL 061852Z VRB05KT 10SM FEW070 FEW250 31/13 A2990 RMK AO2 SLP116 T03110133=
201806061752 METAR KATL 061752Z 10005KT 10SM FEW250 30/13 A2992 RMK AO2 SLP120 T03000128 10306 20194 50001=
201806061652 METAR KATL 061652Z VRB03KT 10SM FEW250 29/13 A2992 RMK AO2 SLP123 T02890128=
201806061552 METAR KATL 061552Z 01004KT 10SM FEW250 28/14 A2993 RMK AO2 SLP124 T02830144=
201806061452 METAR KATL 061452Z 33005KT 10SM FEW250 27/16 A2991 RMK AO2 SLP120 T02670156 51007=
201806061352 METAR KATL 061352Z 32005KT 10SM SCT250 24/14 A2991 RMK AO2 SLP119 T02390144=
201806061252 METAR KATL 061252Z 31005KT 10SM FEW200 SCT250 21/16 A2990 RMK AO2 SLP115 T02110156=
201806061152 METAR KATL 061152Z 30005KT 10SM FEW150 SCT200 SCT250 19/16 A2989 RMK AO2 SLP114 T01940156 10194 20172 53009=
201806061052 METAR KATL 061052Z 31007KT 10SM FEW200 SCT250 18/15 A2988 RMK AO2 SLP110 T01780150=
201806060952 METAR KATL 060952Z 31006KT 10SM FEW200 BKN250 18/15 A2986 RMK AO2 SLP105 T01780150=
201806060852 METAR KATL 060852Z 31007KT 10SM FEW200 BKN250 18/15 A2986 RMK AO2 SLP104 T01830150 55005=
201806060752 METAR KATL 060752Z 29006KT 10SM BKN250 19/15 A2986 RMK AO2 SLP102 T01890150=
201806060652 METAR KATL 060652Z 28006KT 10SM SCT250 19/15 A2987 RMK AO2 SLP104 T01940150=
201806060552 METAR KATL 060552Z 22005KT 10SM BKN250 19/15 A2988 RMK AO2 SLP109 T01940150 10256 20194 58004=
201806060452 METAR KATL 060452Z 29003KT 10SM BKN250 21/15 A2988 RMK AO2 SLP110 T02060150 402830172=
201806060352 METAR KATL 060352Z 27004KT 10SM FEW200 BKN250 21/15 A2989 RMK AO2 SLP113 T02110150=
201806060252 METAR KATL 060252Z 30005KT 10SM FEW200 BKN250 22/16 A2989 RMK AO2 SLP113 T02220156 51009=
201806060152 METAR KATL 060152Z 27005KT 10SM SCT200 BKN250 22/16 A2989 RMK AO2 SLP112 T02220161=
201806060052 METAR KATL 060052Z 28005KT 10SM FEW150 SCT200 BKN250 23/15 A2987 RMK AO2 SLP109 T02280150=
201806052352 METAR KATL 052352Z 32006KT 10SM FEW150 SCT200 BKN250 26/14 A2986 RMK AO2 SLP105 T02560144 10283 20256 56007=
201806052252 METAR KATL 052252Z 31007KT 10SM FEW150 BKN200 26/14 A2986 RMK AO2 SLP105 T02610144=
201806052152 METAR KATL 052152Z 32008KT 10SM FEW150 BKN200 26/14 A2987 RMK AO2 SLP109 T02560139=
201806052052 METAR KATL 052052Z 30010KT 10SM FEW060 BKN200 BKN250 26/13 A2989 RMK AO2 SLP112 T02610133 58009=
201806051952 METAR KATL 051952Z 30009KT 10SM FEW060 SCT150 BKN180 BKN250 28/13 A2989 RMK AO2 SLP113 VIRGA DSNT NW-N-NE T02780133=
201806051852 METAR KATL 051852Z 29007KT 10SM FEW150 BKN190 BKN250 27/13 A2991 RMK AO2 SLP118 VIRGA DSNT NW-N T02670133=
201806051752 METAR KATL 051752Z 27005KT 10SM FEW150 BKN180 BKN250 26/13 A2991 RMK AO2 SLP120 T02610128 10272 20178 58005=
201806051652 METAR KATL 051652Z 28005KT 10SM FEW150 BKN200 BKN250 27/12 A2992 RMK AO2 SLP123 VIRGA DSNT N & W T02670117=
201806051552 METAR KATL 051552Z 00000KT 10SM FEW150 SCT180 BKN250 26/13 A2992 RMK AO2 SLP124 T02610128=
201806051452 METAR KATL 051452Z 06005KT 10SM FEW150 SCT180 BKN250 26/12 A2993 RMK AO2 SLP125 T02610122 56006=
201806051352 METAR KATL 051352Z VRB05KT 10SM FEW150 BKN180 BKN250 23/13 A2993 RMK AO2 SLP127 T02330133=
201806051252 METAR KATL 051252Z 33006KT 10SM FEW150 SCT200 BKN250 21/13 A2993 RMK AO2 SLP128 T02060133=
201806051152 METAR KATL 051152Z 31007KT 10SM FEW150 SCT200 BKN250 18/13 A2995 RMK AO2 SLP132 T01780128 10200 20172 51013=
201806051052 METAR KATL 051052Z 29007KT 10SM FEW150 SCT200 BKN250 17/13 A2995 RMK AO2 SLP132 T01720128=
201806050952 METAR KATL 050952Z 31006KT 10SM FEW150 SCT200 BKN250 18/13 A2993 RMK AO2 SLP124 T01780128=
201806050852 METAR KATL 050852Z 30007KT 10SM FEW200 SCT250 18/13 A2991 RMK AO2 SLP118 T01830133 55003=
201806050752 METAR KATL 050752Z 31005KT 10SM SCT250 18/13 A2989 RMK AO2 SLP113 T01830133=
201806050652 METAR KATL 050652Z 28004KT 10SM FEW200 SCT250 19/13 A2990 RMK AO2 SLP115 T01940133=
201806050552 METAR KATL 050552Z 31007KT 10SM FEW200 BKN250 20/14 A2992 RMK AO2 SLP122 T02000139 10272 20194 58006=
201806050452 METAR KATL 050452Z 31008KT 10SM SCT250 21/14 A2993 RMK AO2 SLP126 T02060139 402940189=
201806050352 METAR KATL 050352Z 29007KT 10SM SCT250 21/14 A2993 RMK AO2 SLP127 T02060139=
201806050252 METAR KATL 050252Z 28005KT 10SM BKN250 22/13 A2994 RMK AO2 SLP128 T02220133 53006=
201806050152 METAR KATL 050152Z 29006KT 10SM SCT250 23/13 A2994 RMK AO2 SLP128 T02330128=
201806050052 METAR KATL 050052Z 32007KT 10SM SCT250 25/13 A2991 RMK AO2 SLP120 T02500128=
201806042352 METAR KATL 042352Z 31008KT 10SM SCT250 27/12 A2992 RMK AO2 SLP121 T02720122 10294 20272 55006=
201806042252 METAR KATL 042252Z 32011KT 10SM SCT250 28/12 A2991 RMK AO2 SLP120 T02830122=
201806042152 METAR KATL 042152Z 31012KT 10SM BKN250 28/12 A2992 RMK AO2 SLP123 T02830122=
201806042052 METAR KATL 042052Z 32011KT 280V340 10SM FEW250 SCT300 29/13 A2993 RMK AO2 SLP126 T02940128 56008=
201806041952 METAR KATL 041952Z 33015G23KT 10SM FEW250 BKN300 29/11 A2994 RMK AO2 SLP128 T02890111=
201806041852 METAR KATL 041852Z 33015G20KT 10SM FEW250 29/12 A2995 RMK AO2 SLP131 T02890122=
201806041752 METAR KATL 041752Z VRB06KT 10SM FEW250 28/12 A2996 RMK AO2 SLP134 T02780122 10283 20200 58012=
201806041652 METAR KATL 041652Z 02010G17KT 330V030 10SM FEW250 27/11 A2997 RMK AO2 SLP138 T02720106=
201806041552 METAR KATL 041552Z 35012KT 10SM CLR 27/09 A2999 RMK AO2 SLP143 T02670089=
201806041452 METAR KATL 041452Z 32011G15KT 10SM CLR 24/13 A3000 RMK AO2 SLP147 T02440128 50005=
201806041352 METAR KATL 041352Z 31008KT 10SM CLR 23/14 A3000 RMK AO2 SLP150 T02330139=
201806041252 METAR KATL 041252Z 34007KT 10SM CLR 22/14 A2998 RMK AO2 SLP143 T02170139=
201806041152 METAR KATL 041152Z 32008KT 10SM CLR 20/14 A2998 RMK AO2 SLP143 70001 T02000139 10239 20189 53014=
201806041052 METAR KATL 041052Z 31009KT 10SM CLR 19/13 A2996 RMK AO2 SLP136 T01890133=
201806040952 METAR KATL 040952Z 32009KT 10SM CLR 19/14 A2995 RMK AO2 SLP131 T01940139=
201806040852 METAR KATL 040852Z 32009KT 10SM CLR 20/14 A2994 RMK AO2 SLP127 T02000139 58005 $=
201806040752 METAR KATL 040752Z 32009KT 10SM CLR 21/15 A2995 RMK AO2 SLP129 T02110150 $=
201806040652 METAR KATL 040652Z 33010KT 10SM CLR 22/16 A2995 RMK AO2 SLP131 T02220156 $=
201806040552 METAR KATL 040552Z 34010KT 10SM FEW200 FEW250 24/16 A2995 RMK AO2 SLP132 T02390161 10294 20239 51002 $=
201806040452 METAR KATL 040452Z 33013KT 10SM FEW100 SCT200 SCT250 25/19 A2995 RMK AO2 SLP129 T02500189 403330222 $=
201806040352 METAR KATL 040352Z 32008KT 10SM SCT032 BKN044 BKN090 BKN250 27/21 A2996 RMK AO2 SLP132 T02670211 $=
201806040252 METAR KATL 040252Z 21004KT 10SM FEW028 BKN038 BKN085 BKN200 26/22 A2995 RMK AO2 SLP129 T02610222 53024 $=
201806040152 METAR KATL 040152Z 29004KT 10SM FEW032 SCT055 SCT200 BKN250 28/22 A2993 RMK AO2 LTG DSNT SW SLP122 CB DSNT SW T02780222 $=
201806040052 METAR KATL 040052Z 33004KT 10SM FEW034 FEW070 SCT200 BKN250 28/23 A2989 RMK AO2 LTG DSNT SE AND S SLP111 CB DSNT SE-SW TCU DSNT SE & S & NW T02830228 $=
201806032352 METAR KATL 032352Z 34009KT 10SM FEW039 SCT070 SCT120 BKN200 28/24 A2988 RMK AO2 LTG DSNT SE AND S RAB31E50 SLP105 CB DSNT SE-S & SW TCU DSNT SW P0001 60001 T02830239 10333 20283 53001 $=
201806032252 METAR KATL 032252Z 34014KT 10SM FEW045TCU SCT065 SCT110 BKN200 31/22 A2986 RMK AO2 LTG DSNT E-S SLP100 RAB14E46 TSB02E50 TS MOV SE CB DSNT E-S & SW TCU N-NE & SE P0000 T03110222 $=
201806032205 SPECI KATL 032205Z 27011KT 10SM TS SCT046CB BKN075 BKN200 BKN250 31/22 A2986 RMK AO2 LTG DSNT NW TSB02 OCNL LTGICCG NW-NE TS NW-NE MOV SE CB DSNT NW T03110217 $=
201806032152 METAR KATL 032152Z 28007KT 10SM SCT046TCU SCT075 BKN200 BKN250 33/23 A2986 RMK AO2 SLP100 CB DSNT N & NW TCU NW-NE T03280228 $=
201806032052 METAR KATL 032052Z 28008KT 10SM FEW050TCU SCT070 SCT200 BKN250 33/21 A2987 RMK AO2 SLP103 CB DSNT NW TCU S-SW & NW T03280211 58015 $=
201806031952 METAR KATL 031952Z 31011G16KT 10SM FEW050 SCT150 SCT250 33/21 A2989 RMK AO2 LTG DSNT NW SLP110 CB DSNT NE & NW T03280206 $=
201806031852 METAR KATL 031852Z 30010KT 10SM FEW045 SCT150 SCT250 32/19 A2991 RMK AO2 SLP115 T03220194 $=
201806031752 METAR KATL 031752Z 27007KT 10SM FEW040 BKN150 BKN250 31/21 A2992 RMK AO2 SLP118 T03060211 10317 20239 58008 $=
201806031652 METAR KATL 031652Z 26005KT 10SM FEW036 SCT140 BKN250 31/22 A2993 RMK AO2 SLP124 T03060217 $=
201806031552 METAR KATL 031552Z 28008KT 10SM FEW031 BKN140 BKN250 30/22 A2995 RMK AO2 SLP128 T03000222 $=
201806031452 METAR KATL 031452Z 30008KT 10SM SCT140 BKN250 29/22 A2994 RMK AO2 SLP126 T02890217 51009 $=
201806031352 METAR KATL 031352Z 29005KT 10SM FEW150 SCT250 27/21 A2993 RMK AO2 SLP124 T02720211 $=
201806031252 METAR KATL 031252Z 30005KT 10SM FEW120 SCT200 BKN250 26/21 A2993 RMK AO2 SLP123 T02560206 $=
201806031152 METAR KATL 031152Z 28006KT 10SM FEW150 SCT250 24/21 A2991 RMK AO2 SLP118 70003 T02390206 10244 20222 53012 $=
201806031052 METAR KATL 031052Z 29005KT 10SM SCT250 22/20 A2990 RMK AO2 SLP112 T02220200 $=
201806030952 METAR KATL 030952Z 29005KT 10SM FEW250 23/20 A2988 RMK AO2 SLP106 T02280200 $=
201806030852 METAR KATL 030852Z 30006KT 10SM FEW250 23/21 A2988 RMK AO2 SLP106 T02280206 55006 $=
201806030752 METAR KATL 030752Z 31006KT 10SM CLR 23/21 A2987 RMK AO2 SLP105 T02330206 $=
201806030652 METAR KATL 030652Z 31007KT 10SM CLR 24/21 A2989 RMK AO2 SLP110 T02390206 $=
201806030552 METAR KATL 030552Z 29006KT 10SM CLR 24/21 A2990 RMK AO2 SLP112 T02440211 10283 20239 50004 $=
201806030452 METAR KATL 030452Z 28005KT 10SM FEW090 FEW200 SCT250 24/22 A2990 RMK AO2 SLP115 T02440222 403170200 $=
201806030352 METAR KATL 030352Z 30006KT 10SM FEW085 SCT200 SCT250 26/22 A2990 RMK AO2 SLP113 T02560222 $=
201806030252 METAR KATL 030252Z 25004KT 10SM SCT200 BKN250 26/22 A2988 RMK AO2 SLP108 T02610217 53013 $=
201806030152 METAR KATL 030152Z 22005KT 10SM SCT200 BKN250 27/22 A2987 RMK AO2 SLP102 T02670222 $=
201806030052 METAR KATL 030052Z 28004KT 10SM FEW038 SCT200 BKN250 28/22 A2986 RMK AO2 SLP100 T02780217 $=
201806022352 METAR KATL 022352Z 28007KT 10SM FEW040 FEW070 SCT200 BKN250 28/22 A2985 RMK AO2 SLP096 CB DSNT NE-E & SE & SW 60003 T02830217 10317 20267 55005 $=
201806022252 METAR KATL 022252Z 33008KT 10SM FEW042 FEW070 SCT200 BKN250 31/21 A2984 RMK AO2 SLP092 CB DSNT NE & E & SE & NW T03060211 $=
201806022152 METAR KATL 022152Z 33009KT 10SM FEW045TCU SCT065 SCT250 31/21 A2986 RMK AO2 SLP099 CB DSNT NE & SE & SW TCU E & SE-S T03060206 $=
201806022052 METAR KATL 022052Z 31014KT 10SM SCT043TCU SCT060 SCT250 32/21 A2986 RMK AO2 SLP100 TCU SE-SW 60003 T03170206 56013=
201806021952 METAR KATL 021952Z 32006KT 10SM FEW040TCU FEW250 31/22 A2986 RMK AO2 LTG DSNT SE AND SW RAB07E20 SLP101 CB DSNT SE & SW TCU SE-SW P0000 T03060217=
201806021852 METAR KATL 021852Z 25006KT 10SM FEW040 SCT080 BKN250 28/21 A2989 RMK AO2 LTG DSNT SW RAB09E37 TSE10 SLP111 CB DSNT SW TCU E P0003 T02830206=
201806021839 SPECI KATL 021839Z 26010KT 10SM SCT050 SCT065 BKN080 27/21 A2989 RMK AO2 LTG DSNT SW AND W RAB09E37 TSE10 CB DSNT SW SHRA VC E P0003 T02670206=
201806021830 SPECI KATL 021830Z 27009KT 10SM -RA SCT034 BKN110 27/24 A2990 RMK AO2 LTG DSNT SW AND W RAB09 TSE10 CB DSNT SW SHRA VC E P0003 T02720239=
201806021820 SPECI KATL 021820Z 28005KT 7SM VCTS RA BKN030CB OVC110 27/23 A2990 RMK AO2 LTG DSNT SW AND W RAB09 TSE10 OCNL LTGCG VC SW-W TS VC SW-W MOV SE VSBY LWR W P0002 T02670228=
201806021752 METAR KATL 021752Z 25007KT 10SM BKN032TCU BKN100 30/22 A2990 RMK AO2 SLP115 TCU W T03000222 10300 20217 58011=
201806021652 METAR KATL 021652Z 20007KT 10SM SCT024 BKN034 28/23 A2992 RMK AO2 SLP122 T02780228=
201806021552 METAR KATL 021552Z 27007KT 10SM SCT020 BKN041 27/22 A2993 RMK AO2 SLP126 MDT CU SE-S T02720222=
201806021452 METAR KATL 021452Z 24005KT 10SM FEW020 SCT055 BKN250 27/22 A2993 RMK AO2 SLP127 T02720222 58004=
201806021352 METAR KATL 021352Z 27006KT 10SM FEW009 FEW020 SCT150 SCT250 25/22 A2994 RMK AO2 SLP130 T02500217=
201806021252 METAR KATL 021252Z 28004KT 10SM FEW007 FEW100 FEW180 23/20 A2994 RMK AO2 SLP130 T02330200 $=
201806021217 SPECI KATL 021217Z 32003KT 10SM SCT009 SCT017 SCT110 BKN150 22/19 A2994 RMK AO2 SCT009 V BKN T02220194 $=
201806021205 SPECI KATL 021205Z 33004KT 10SM BKN009 BKN017 BKN150 22/19 A2994 RMK AO2 BKN009 V SCT T02170194 $=
201806021152 METAR KATL 021152Z 30004KT 10SM SCT009 BKN017 BKN100 BKN150 22/19 A2995 RMK AO2 SLP133 70053 T02170194 10217 20200 53006 $=
201806021052 METAR KATL 021052Z 25003KT 10SM FEW011 FEW032 SCT100 SCT180 SCT220 21/19 A2993 RMK AO2 SLP129 CB DSNT NW-N T02060189 $=
201806021039 SPECI KATL 021039Z 00000KT 10SM FEW011 SCT032 SCT100 BKN180 21/19 A2994 RMK AO2 CB DSNT NW T02060189 $=
201806021011 SPECI KATL 021011Z 00000KT 10SM BKN015 BKN032 BKN100 BKN150 21/19 A2994 RMK AO2 LTG DSNT SE BKN015 V SCT OCNL LTG DSNT SE CB DSNT SE T02060189 $=
201806020952 METAR KATL 020952Z 00000KT 10SM SCT035 SCT047 SCT120 SCT180 21/18 A2993 RMK AO2 LTG DSNT SE AND S TSE10 SLP127 OCNL LTGICCG DSNT SE-S TS MOV SE-S T02060183 $=
201806020910 SPECI KATL 020910Z 00000KT 10SM SCT026 BKN047 BKN120 21/19 A2992 RMK AO2 LTG DSNT S AND SW TSE10 OCNL LTGICCG DSNT SE & S-SW TS MOV S-SW T02060189 $=
201806020852 METAR KATL 020852Z 27003KT 10SM TS FEW005 FEW028CB SCT043 SCT130 SCT200 20/18 A2993 RMK AO2 LTG DSNT E AND S TSB43 SLP127 OCNL LTGICCG SW & DSNT E-SE TS VC SW MOV SE CB DSNT E-SE T02000183 58004 $=
201806020844 SPECI KATL 020844Z 10SM TS FEW005 FEW028CB SCT043 SCT130 SCT200 20/18 A2993 RMK AO2 LTG DSNT ALQDS TSB43 OCNL LTGICCG SW & DSNT E-SE TS VC SW MOV SE CB DSNT E-SE T02000183=
201806020752 METAR KATL 020752Z 29005KT 10SM FEW007 BKN031TCU BKN120 21/19 A2994 RMK AO2 LTG DSNT N SLP131 TCU NE T02060189=
201806020652 METAR KATL 020652Z 21004KT 10SM FEW034 BKN120 21/19 A2993 RMK AO2 SLP127 T02060194=
201806020552 METAR KATL 020552Z 24004KT 10SM SCT120 SCT150 SCT250 21/19 A2994 RMK AO2 SLP127 T02060194 10222 20206 58009=
201806020452 METAR KATL 020452Z 24003KT 10SM SCT120 BKN150 BKN250 21/19 A2996 RMK AO2 SLP135 LTG DSNT SE T02110194 403170200=
201806020352 METAR KATL 020352Z 29005KT 10SM FEW080 BKN150 BKN250 21/19 A2998 RMK AO2 SLP140 T02110194=
201806020252 METAR KATL 020252Z 23003KT 10SM BKN150 BKN250 21/19 A2997 RMK AO2 SLP138 T02110194 50005=
201806020152 METAR KATL 020152Z 24005KT 10SM FEW004 SCT150 BKN200 21/19 A2997 RMK AO2 SLP139 T02110194=
201806020128 SPECI KATL 020128Z 24008KT 10SM FEW004 SCT110 BKN150 BKN200 21/20 A2996 RMK AO2 T02110200=
201806020052 METAR KATL 020052Z 24004KT 10SM SCT120 BKN150 BKN200 22/19 A2995 RMK AO2 SLP134 T02170194=
201806012352 METAR KATL 012352Z 00000KT 10SM FEW050 SCT110 BKN150 BKN200 22/19 A2995 RMK AO2 RAE51 SLP135 P0001 60053 T02170194 10317 20200 56022=
201806012252 METAR KATL 012252Z 26003KT 8SM -RA FEW060 BKN110 BKN150 OVC200 21/19 A2997 RMK AO2 RAB03 TSE19 SLP140 P0002 T02110194=
201806012219 SPECI KATL 012219Z 26003KT 10SM -RA FEW050 BKN110 BKN150 OVC200 21/19 A2999 RMK AO2 RAB03 TSE19 OCNL LTG DSNT SE-S TS MOV SE P0000 T02110189=
201806012152 METAR KATL 012152Z 00000KT 10SM TS FEW015CB SCT090 BKN120 OVC200 21/19 A3000 RMK AO2 SLP152 RAE09 OCNL LTGICCA SE-SW TS VC SE-SW MOV SE P0000 T02110189=
201806012052 METAR KATL 012052Z 16004KT 5SM -TSRA BR SCT009CB BKN060 OVC090 21/18 A3002 RMK AO2 PK WND 31039/2021 LTG DSNT ALQDS TSB21 SLP159 OCNL LTGICCG SE-S-SW TS SE-S-SW MOV SE P0034 60050 T02060183 53018=
201806012045 SPECI KATL 012045Z 21006G14KT 3SM -TSRA SCT025CB OVC080 21/18 A3002 RMK AO2 PK WND 31039/2021 LTG DSNT ALQDS TSB21 OCNL LTGICCG OHD-SW TS OHD-SW MOV SE P0033 T02060178=
201806012031 SPECI KATL 012031Z 33015G34KT 2SM R09R/5500VP6000FT +TSRA FEW009CB BKN025 OVC080 21/18 A3005 RMK AO2 PK WND 31039/2021 LTG DSNT ALQDS TSB21 FRQ LTGICCG OHD TS OHD MOV SE P0014 T02060178=
201806012022 SPECI KATL 012022Z 32029G39KT 9SM -TSRA FEW009CB SCT025 OVC080 23/19 A3005 RMK AO2 PK WND 31039/2021 LTG DSNT ALQDS TSB21 PRESRR FRQ LTGICCG SW-NW-N TS SW-NW-N MOV SE P0000 T02280194=
201806011952 METAR KATL 011952Z 35005KT 10SM VCTS -RA SCT038CB BKN090 BKN250 23/19 A2996 RMK AO2 LTG DSNT ALQDS RAB07 TSE31 SLP136 OCNL LTGCG VC SE-SW TS VC SE-SW MOV SE P0016 T02280189=
201806011937 SPECI KATL 011937Z 27005KT 7SM VCTS -RA SCT040CB BKN070 BKN095 22/19 A2995 RMK AO2 LTG DSNT ALQDS RAB07 TSE31 OCNL LTGCG VC E-SE-S TS VC E-SE-S MOV SE CB DSNT SW P0016 T02220194=
201806011928 SPECI KATL 011928Z 29007G17KT 5SM R09R/4500VP6000FT TSRA SCT038CB BKN050 BKN090 23/19 A2995 RMK AO2 LTG DSNT ALQDS RAB07 OCNL LTGICCG N-NE & SW TS N-NE & SW MOV SE P0016 T02280189=
201806011913 SPECI KATL 011913Z 33015KT 2SM TSRA BKN035CB BKN055 OVC085 24/19 A2996 RMK AO2 LTG DSNT ALQDS RAB07 FRQ LTGICCG N-NE & W-NW TS N-NE & W-NW MOV SE P0001 T02390189=
201806011852 METAR KATL 011852Z 32023G34KT 10SM TS SCT037CB BKN250 28/20 A2996 RMK AO2 PK WND 32034/1850 LTG DSNT ALQDS TSB49 SLP134 OCNL LTGCG NE & W-NW TS NE & W-NW MOV SE T02830200=
201806011830 SPECI KATL 011830Z 24011KT 10SM VCTS SCT037CB BKN250 31/21 A2994 RMK AO2 LTG DSNT W-NE OCNL LTGCG VC N-NE & W-NW TS VC N-NE & W-NW MOV SE T03060211=
201806011752 METAR KATL 011752Z 28009KT 10SM SCT038 SCT250 31/22 A2996 RMK AO2 LTG DSNT W-N SLP135 CB DSNT W-N MDT CU NE-SE T03110222 10311 20211 56015=
201806011652 METAR KATL 011652Z 24009KT 10SM FEW035 FEW250 31/22 A2997 RMK AO2 LTG DSNT NW SLP139 CB DSNT W-NW-N T03060217=
201806011552 METAR KATL 011552Z 21010KT 10SM FEW030 FEW250 29/21 A2998 RMK AO2 SLP142 CB DSNT NW TCU DSNT N T02890211=
201806011452 METAR KATL 011452Z 24009KT 10SM FEW030 FEW180 SCT250 27/22 A3001 RMK AO2 SLP151 T02720217 50000=
201806011352 METAR KATL 011352Z 28009G14KT 10SM FEW018 SCT180 BKN250 26/21 A3004 RMK AO2 SLP160 T02560211=
201806011333 SPECI KATL 011333Z 26008KT 10SM FEW011 SCT200 BKN250 26/21 A3004 RMK AO2 T02560206=
201806011312 SPECI KATL 011312Z 27005KT 10SM BKN013 24/19 A3004 RMK AO2 T02390194=
201806011252 METAR KATL 011252Z 29006KT 10SM SCT016 SCT200 BKN250 23/19 A3003 RMK AO2 SLP157 T02330189=
