##########################################################
# Query made at 04/19/2024 23:57:59 UTC
# Time interval: from 02/01/2018 12:00  to 02/28/2018 12:59  UTC
##########################################################

##########################################################
# KATL, Atlanta, Hartsfield - Jackson Atlanta International Airport (United States)
# WMO index: 72219. WIGOS ID: 0-20000-0-72219
# Latitude 33-38-59N. Longitude 084-25-00W. Altitude 312 m.
##########################################################

201802281257 SPECI KATL 281257Z 12005KT 2 1/2SM RA BR BKN007 BKN014 OVC050 11/11 A3017 RMK AO2 CIG 005V009 P0002 T01110106=
201802281252 METAR KATL 281252Z VRB03KT 4SM -RA BR SCT006 SCT012 OVC055 11/11 A3017 RMK AO2 SLP216 P0005 T01110106=
201802281238 SPECI KATL 281238Z 12005KT 4SM -RA BR FEW007 SCT014 OVC055 11/11 A3016 RMK AO2 P0004 T01110106=
201802281228 SPECI KATL 281228Z 12004KT 5SM -RA BR FEW007 BKN014 OVC060 11/11 A3016 RMK AO2 P0002 T01110106=
201802281201 SPECI KATL 281201Z 12006KT 8SM -RA BKN014 BKN075 OVC100 11/11 A3016 RMK AO2 P0001 T01110106=
201802281152 METAR KATL 281152Z 12006KT 7SM -RA FEW014 BKN050 OVC085 11/11 A3016 RMK AO2 SLP212 P0005 60005 70005 T01110106 10128 20111 56005=
201802281052 METAR KATL 281052Z 15006KT 10SM -RA FEW032 BKN065 OVC110 12/09 A3016 RMK AO2 RAE10B38 SLP212 P0000 T01170094=
201802280952 METAR KATL 280952Z 10004KT 10SM -RA FEW018 SCT040 OVC100 12/09 A3017 RMK AO2 RAE05B47 PRESFR SLP213 P0000 T01170094=
201802280852 METAR KATL 280852Z 14006KT 10SM -RA SCT018 BKN060 OVC100 12/10 A3018 RMK AO2 RAB44 SLP217 P0000 60000 T01170100 55015=
201802280849 SPECI KATL 280849Z 14004KT 10SM -RA SCT018 BKN060 OVC100 12/10 A3017 RMK AO2 RAB44 P0000=
201802280752 METAR KATL 280752Z 15003KT 10SM BKN016 OVC140 12/08 A3019 RMK AO2 SLP220 VIRGA OHD-ALQDS CIG 014V018 T01220083=
201802280745 SPECI KATL 280745Z 16004KT 10SM BKN016 OVC140 12/08 A3018 RMK AO2 VIRGA OHD-ALQDS CIG 014V018 T01220078=
201802280719 SPECI KATL 280719Z 13005KT 10SM BKN013 OVC140 12/07 A3020 RMK AO2 VIRGA OHD-ALQDS T01220072=
201802280652 METAR KATL 280652Z 14003KT 10SM FEW014 BKN140 OVC200 12/07 A3022 RMK AO2 SLP232 VIRGA OHD-ALQDS T01220067=
201802280552 METAR KATL 280552Z 09005KT 10SM BKN130 OVC200 12/07 A3023 RMK AO2 SLP237 T01220067 10167 20122 55006=
201802280452 METAR KATL 280452Z 11005KT 10SM BKN140 OVC200 13/06 A3023 RMK AO2 SLP235 T01280061 401830072=
201802280352 METAR KATL 280352Z 12006KT 10SM BKN140 OVC200 14/06 A3025 RMK AO2 SLP243 T01390061=
201802280252 METAR KATL 280252Z 13005KT 10SM BKN150 BKN200 14/06 A3025 RMK AO2 SLP244 T01440056 58003=
201802280152 METAR KATL 280152Z 13005KT 10SM SCT200 14/06 A3027 RMK AO2 SLP250 T01440061=
201802280052 METAR KATL 280052Z 12006KT 10SM SCT200 BKN250 16/06 A3026 RMK AO2 SLP246 T01560061=
201802272352 METAR KATL 272352Z 11007KT 10SM SCT200 SCT250 17/06 A3026 RMK AO2 SLP248 T01670061 10183 20161 56011=
201802272252 METAR KATL 272252Z 14008KT 10SM FEW150 SCT250 18/06 A3027 RMK AO2 SLP249 T01780061=
201802272152 METAR KATL 272152Z 15009KT 10SM SCT250 18/06 A3026 RMK AO2 SLP246 T01830056=
201802272052 METAR KATL 272052Z 13007KT 10SM FEW050 FEW250 18/06 A3030 RMK AO2 SLP258 T01830061 56026=
201802271952 METAR KATL 271952Z 13007KT 080V150 10SM FEW050 FEW250 18/06 A3031 RMK AO2 SLP262 T01780061=
201802271852 METAR KATL 271852Z 09009KT 070V140 10SM FEW040 18/07 A3034 RMK AO2 SLP272 T01780072=
201802271752 METAR KATL 271752Z 09008G16KT 10SM CLR 16/07 A3037 RMK AO2 SLP286 T01560072 10161 20072 58012=
201802271652 METAR KATL 271652Z 11008G17KT 070V140 10SM CLR 15/07 A3040 RMK AO2 SLP294 T01500067=
201802271552 METAR KATL 271552Z 08012G18KT 10SM FEW250 13/06 A3041 RMK AO2 SLP299 T01280061=
201802271452 METAR KATL 271452Z 09009KT 10SM FEW250 11/06 A3041 RMK AO2 SLP299 T01110056 51016=
201802271352 METAR KATL 271352Z 09009KT 10SM FEW250 09/05 A3040 RMK AO2 SLP296 T00940050=
201802271252 METAR KATL 271252Z 09010KT 10SM CLR 08/05 A3038 RMK AO2 SLP288 T00780050=
201802271152 METAR KATL 271152Z 08007KT 10SM FEW010 07/05 A3036 RMK AO2 SLP282 70004 T00720050 10100 20072 53014=
201802271052 METAR KATL 271052Z 08007KT 10SM CLR 08/06 A3034 RMK AO2 SLP276 T00780056=
201802270952 METAR KATL 270952Z 10007KT 10SM CLR 08/06 A3032 RMK AO2 SLP268 T00830056=
201802270852 METAR KATL 270852Z 06007KT 10SM CLR 09/08 A3032 RMK AO2 SLP265 T00890078 50004=
201802270752 METAR KATL 270752Z 07010KT 10SM CLR 10/07 A3032 RMK AO2 SLP265 T01000072=
201802270652 METAR KATL 270652Z 03008KT 10SM FEW008 10/07 A3032 RMK AO2 SLP264 T01000072=
201802270552 METAR KATL 270552Z 35006KT 10SM CLR 09/08 A3030 RMK AO2 SLP260 T00890078 10150 20089 53007=
201802270452 METAR KATL 270452Z 34006KT 10SM CLR 09/08 A3029 RMK AO2 SLP258 T00940083 401890094=
201802270352 METAR KATL 270352Z 34010KT 10SM CLR 10/08 A3029 RMK AO2 SLP256 T01000083=
201802270252 METAR KATL 270252Z 33008KT 10SM FEW250 11/08 A3028 RMK AO2 SLP254 T01110083 51014=
201802270152 METAR KATL 270152Z 32009KT 10SM FEW250 12/08 A3027 RMK AO2 SLP250 T01220083=
201802270052 METAR KATL 270052Z 32011KT 10SM FEW200 SCT250 14/08 A3025 RMK AO2 SLP243 T01390083=
201802262352 METAR KATL 262352Z 34007KT 10SM SCT200 BKN250 15/11 A3024 RMK AO2 SLP237 T01500106 10189 20150 53021=
201802262252 METAR KATL 262252Z 31010KT 10SM FEW025 SCT200 BKN250 16/12 A3022 RMK AO2 SLP230 T01610117=
201802262152 METAR KATL 262152Z 34011KT 10SM FEW030 SCT050 SCT070 BKN250 18/12 A3019 RMK AO2 SLP219 T01780122=
201802262052 METAR KATL 262052Z 31010KT 10SM FEW030 BKN070 BKN250 19/12 A3017 RMK AO2 SLP214 T01890122 55006=
201802261952 METAR KATL 261952Z 30011KT 10SM FEW020 BKN050 BKN080 BKN250 18/13 A3017 RMK AO2 SLP214 T01830128=
201802261852 METAR KATL 261852Z 27005KT 10SM FEW025 SCT040 SCT080 BKN250 19/13 A3017 RMK AO2 SLP214 T01890133=
201802261752 METAR KATL 261752Z 28006KT 10SM BKN020 BKN070 BKN250 18/14 A3019 RMK AO2 SLP220 60004 T01780139 10178 20139 50005=
201802261652 METAR KATL 261652Z 22005KT 10SM FEW010 BKN060 BKN080 BKN250 16/13 A3020 RMK AO2 SLP223 T01560133=
201802261552 METAR KATL 261552Z 24005KT 10SM FEW008 BKN040 OVC070 15/14 A3020 RMK AO2 SLP223 T01500139=
201802261540 SPECI KATL 261540Z 24004KT 10SM SCT008 BKN050 OVC070 14/13 A3020 RMK AO2 T01440133=
201802261452 METAR KATL 261452Z VRB03KT 9SM FEW010 SCT050 BKN070 BKN250 14/13 A3017 RMK AO2 SLP216 RAE1358DZB1358 P0000 60004 T01440133 50004=
201802261433 SPECI KATL 261433Z 18007KT 6SM BR FEW004 SCT060 OVC080 14/13 A3016 RMK AO2 RAE1358DZB1358 P0000 T01390133=
201802261352 METAR KATL 261352Z 19008KT 4SM -RA BR SCT004 BKN060 OVC085 14/14 A3018 RMK AO2 SLP218 P0001 T01390139=
201802261252 METAR KATL 261252Z 16005KT 3SM -RA BR FEW004 BKN075 OVC090 14/14 A3016 RMK AO2 SLP210 P0003 T01390139=
201802261152 METAR KATL 261152Z 00000KT 3SM -RA BR SCT003 SCT025 OVC080 14/14 A3016 RMK AO2 SLP211 P0005 60047 70077 T01390139 10150 20139 55003=
201802261052 METAR KATL 261052Z 00000KT 3SM -RA BR SCT003 OVC085 14/14 A3015 RMK AO2 SLP207 VIS E-SE 2 P0002 T01390139=
201802260952 METAR KATL 260952Z 00000KT 4SM -RA BR SCT004 SCT050 OVC080 14/14 A3014 RMK AO2 SLP205 VIS E 2 P0008 T01390139=
201802260902 SPECI KATL 260902Z 00000KT 3SM RA BR FEW005 BKN050 OVC070 14/14 A3016 RMK AO2 P0003 T01390139=
201802260852 METAR KATL 260852Z 19004KT 2 1/2SM RA BR FEW005 SCT035 OVC050 14/14 A3017 RMK AO2 SLP213 P0027 60032 T01390139 50010=
201802260850 SPECI KATL 260850Z 20004KT 2 1/2SM RA BR FEW005 SCT035 OVC050 14/14 A3017 RMK AO2 P0027=
201802260833 SPECI KATL 260833Z 29006KT 2 1/2SM RA BR SCT040 OVC050 14/14 A3018 RMK AO2 P0019 T01390139=
201802260752 METAR KATL 260752Z 31010KT 6SM -RA BR OVC055 14/14 A3017 RMK AO2 RAB05 SLP213 P0005 T01390139=
201802260652 METAR KATL 260652Z 33009KT 10SM SCT050 OVC060 14/13 A3014 RMK AO2 RAE27 SLP203 P0000 T01440133=
201802260552 METAR KATL 260552Z 35005KT 7SM -RA OVC060 15/12 A3016 RMK AO2 RAE06B43 SLP208 P0000 60001 T01500122 10172 20150 58009=
201802260452 METAR KATL 260452Z 32007KT 5SM -RA BR OVC040 15/14 A3018 RMK AO2 RAB13 SLP216 P0000 T01500144 402060150=
201802260352 METAR KATL 260352Z 31007KT 10SM SCT048 OVC065 16/14 A3017 RMK AO2 RAB04E14 SLP215 VIRGA OHD-ALQDS P0000 T01610139=
201802260252 METAR KATL 260252Z 26004KT 10SM FEW060 OVC075 16/15 A3018 RMK AO2 RAB14E26 SLP218 VIRGA OHD-ALQDS P0000 60001 T01610150 51017=
201802260152 METAR KATL 260152Z 21003KT 10SM FEW055 OVC070 17/16 A3017 RMK AO2 RAE30 SLP212 VIRGA OHD-ALQDS P0000 T01670156=
201802260052 METAR KATL 260052Z 25005KT 9SM -RA OVC080 17/15 A3017 RMK AO2 RAB07 SLP213 P0001 T01670150=
201802260020 SPECI KATL 260020Z 21004KT 10SM -RA OVC080 17/16 A3016 RMK AO2 RAB07 P0000 T01720156=
201802252352 METAR KATL 252352Z 00000KT 10SM FEW065 OVC080 17/16 A3013 RMK AO2 RAE06 SLP198 VIRGA SW-NW-NE P0000 60000 T01720156 10183 20172 52012=
201802252252 METAR KATL 252252Z 28009KT 10SM -RA FEW060 OVC075 18/15 A3012 RMK AO2 SLP196 PCPN VRY LGT P0000 T01780150=
201802252152 METAR KATL 252152Z 17007KT 10SM -RA OVC080 18/15 A3010 RMK AO2 RAB47 SLP189 PCPN VRY LGT P0000 T01830150=
201802252052 METAR KATL 252052Z 16006KT 10SM OVC080 18/15 A3009 RMK AO2 SLP186 60000 T01780150 56027=
201802251952 METAR KATL 251952Z 15005KT 10SM OVC080 18/16 A3012 RMK AO2 SLP194 T01780156=
201802251852 METAR KATL 251852Z 28004KT 10SM FEW015 SCT065 OVC080 18/15 A3015 RMK AO2 RAE03 SLP203 P0000 T01780150=
201802251812 SPECI KATL 251812Z VRB03KT 10SM FEW010 SCT015 OVC080 18/16 A3015 RMK AO2 RAE03 PRESFR P0000 T01780161=
201802251805 SPECI KATL 251805Z 32006KT 10SM SCT008 BKN017 OVC075 17/16 A3016 RMK AO2 RAE03 P0000 T01720161=
201802251752 METAR KATL 251752Z 29007KT 10SM -RA BKN008 BKN017 OVC085 17/17 A3018 RMK AO2 RAB1659E25B50 SLP213 P0000 60029 T01720167 10200 20161 51012=
201802251741 SPECI KATL 251741Z 29008KT 10SM BKN008 BKN020 OVC085 17/17 A3018 RMK AO2 RAB1659E25 P0000 T01720167=
201802251715 SPECI KATL 251715Z 26004KT 10SM -RA FEW006 BKN025 OVC090 17/16 A3017 RMK AO2 RAB1659 P0000 T01670161=
201802251652 METAR KATL 251652Z 25004KT 10SM SCT006 OVC085 17/16 A3016 RMK AO2 RAE05 SLP210 P0000 T01670161=
201802251552 METAR KATL 251552Z VRB03KT 9SM -RA SCT050 OVC075 17/16 A3015 RMK AO2 SLP206 P0005 T01670156=
201802251534 SPECI KATL 251534Z 34004KT 9SM -RA FEW050 OVC075 16/16 A3015 RMK AO2 P0005 T01610156=
201802251521 SPECI KATL 251521Z 34007KT 2SM -RA BR FEW020 BKN045 OVC070 16/16 A3015 RMK AO2 SFC VIS 3 P0005 T01610156=
201802251452 METAR KATL 251452Z 32011KT 2SM -RA BR FEW006 BKN022 OVC075 17/16 A3014 RMK AO2 PK WND 32026/1416 WSHFT 1412 SFC VIS 4 RAB1359 SLP200 FROPA P0024 60024 T01670161 53030=
201802251428 SPECI KATL 251428Z 31014KT 2SM R09R/4000VP6000FT RA BR FEW006 BKN012 OVC025 17/17 A3014 RMK AO2 PK WND 32026/1416 WSHFT 1412 RAB1359 FROPA P0020 T01670167=
201802251416 SPECI KATL 251416Z 33021G26KT 1SM R09R/3500VP6000FT +RA BR FEW006 BKN012 OVC025 18/18 A3012 RMK AO2 PK WND 32026/1416 TWR VIS 2 RAB1359 PRESRR P0004 T01830178=
201802251414 SPECI KATL 251414Z 31019G23KT 2SM R09R/3500VP6000FT -RA BR SCT012 BKN016 OVC025 19/18 A3012 RMK AO2 RAB1359 PRESRR P0001 T01940183=
201802251352 METAR KATL 251352Z 22011KT 8SM BKN017 BKN021 OVC080 20/18 A3009 RMK AO2 SLP181 CIG 014V019 SHRA VC W-N T02000178=
201802251341 SPECI KATL 251341Z 23011KT 10SM BKN017 BKN080 OVC100 20/18 A3008 RMK AO2 CIG 014V019 SHRA DSNT W-N T02000178=
201802251315 SPECI KATL 251315Z 21011G18KT 10SM BKN014 BKN100 20/18 A3006 RMK AO2 BKN014 V SCT T02000178=
201802251252 METAR KATL 251252Z 23008KT 10SM BKN015 OVC100 19/18 A3007 RMK AO2 SLP174 BINOVC T01940178=
201802251152 METAR KATL 251152Z 22010KT 10SM BKN015 BKN030 BKN085 19/17 A3005 RMK AO2 SLP169 CIG 014V018 BKN015 V SCT T01940172 10200 20189 53004=
201802251052 METAR KATL 251052Z 22008KT 10SM FEW013 BKN032 BKN090 19/17 A3004 RMK AO2 SLP164 T01940172=
201802251017 SPECI KATL 251017Z 21012G17KT 10SM FEW013 BKN034 BKN090 19/17 A3003 RMK AO2 T01940172=
201802250952 METAR KATL 250952Z 23010G20KT 10SM FEW013 SCT018 BKN029 19/17 A3004 RMK AO2 SLP163 CIG 027V034 T01890172=
201802250924 SPECI KATL 250924Z 22010G19KT 10SM SCT013 OVC025 19/17 A3004 RMK AO2 T01890172=
201802250911 SPECI KATL 250911Z 24010KT 10SM BKN013 19/17 A3005 RMK AO2 T01890172=
201802250852 METAR KATL 250852Z 23009KT 10SM FEW012 SCT200 SCT250 19/17 A3004 RMK AO2 SLP164 T01890167 58011=
201802250752 METAR KATL 250752Z 21010KT 10SM FEW020 FEW200 19/16 A3005 RMK AO2 SLP168 T01890161=
201802250652 METAR KATL 250652Z 21010G19KT 10SM FEW021 FEW075 FEW250 20/16 A3006 RMK AO2 SLP173 T02000161=
201802250552 METAR KATL 250552Z 21007KT 10SM FEW050 FEW075 SCT250 20/15 A3007 RMK AO2 SLP175 T02000150 10239 20200 51008=
201802250452 METAR KATL 250452Z 21008KT 10SM FEW070 SCT095 SCT250 21/15 A3007 RMK AO2 SLP175 T02110150 402610172=
201802250352 METAR KATL 250352Z 22010KT 10SM FEW095 FEW250 21/15 A3007 RMK AO2 SLP175 T02110150=
201802250252 METAR KATL 250252Z 19009KT 10SM FEW050 SCT070 SCT095 SCT250 22/14 A3005 RMK AO2 SLP169 T02170144 50003=
201802250152 METAR KATL 250152Z 19007KT 10SM SCT070 SCT095 SCT250 23/15 A3005 RMK AO2 SLP171 T02280150=
201802250052 METAR KATL 250052Z 20006KT 10SM SCT090 BKN250 23/15 A3005 RMK AO2 SLP170 T02280150=
201802242352 METAR KATL 242352Z 20009KT 10SM FEW060 BKN080 BKN250 24/14 A3004 RMK AO2 SLP165 T02390144 10261 20239 56006=
201802242252 METAR KATL 242252Z 20008KT 10SM FEW060 BKN080 BKN250 25/14 A3004 RMK AO2 SLP166 T02500144=
201802242152 METAR KATL 242152Z 21013G19KT 10SM FEW050 SCT080 BKN250 25/14 A3005 RMK AO2 SLP167 T02500139=
201802242052 METAR KATL 242052Z 21014G20KT 10SM SCT050 SCT075 26/14 A3006 RMK AO2 SLP170 T02610144 56029=
201802241952 METAR KATL 241952Z 23015G21KT 10SM SCT050 SCT120 26/14 A3008 RMK AO2 SLP177 T02560144=
201802241852 METAR KATL 241852Z 20011G25KT 10SM BKN044 BKN120 26/15 A3011 RMK AO2 SLP189 T02560150=
201802241752 METAR KATL 241752Z 20017G25KT 10SM SCT044 BKN130 25/16 A3015 RMK AO2 SLP201 T02500156 10250 20172 58022=
201802241652 METAR KATL 241652Z 21014G18KT 10SM FEW030 BKN120 23/16 A3019 RMK AO2 SLP216 T02330156=
201802241552 METAR KATL 241552Z 21011KT 10SM BKN120 BKN200 22/16 A3021 RMK AO2 SLP223 T02170156=
201802241452 METAR KATL 241452Z 21008KT 10SM BKN120 BKN200 19/16 A3022 RMK AO2 SLP226 T01940161 51007=
201802241352 METAR KATL 241352Z 19007KT 9SM FEW070 BKN110 BKN150 18/16 A3021 RMK AO2 SLP225 T01780161=
201802241252 METAR KATL 241252Z 18007KT 9SM FEW070 BKN120 17/16 A3021 RMK AO2 SLP223 T01720156=
201802241152 METAR KATL 241152Z 17008KT 10SM OVC120 18/16 A3019 RMK AO2 SLP219 T01780156 10194 20172 56002=
201802241052 METAR KATL 241052Z 17004KT 10SM FEW055 BKN070 BKN120 18/16 A3019 RMK AO2 SLP218 T01780156=
201802240952 METAR KATL 240952Z 00000KT 10SM SCT055 BKN075 18/15 A3020 RMK AO2 SLP218 T01830150=
201802240852 METAR KATL 240852Z 20003KT 10SM FEW049 BKN070 18/16 A3020 RMK AO2 SLP220 T01830156 58013=
201802240752 METAR KATL 240752Z 19007KT 10SM FEW045 SCT065 BKN085 19/15 A3022 RMK AO2 SLP226 T01890150=
201802240652 METAR KATL 240652Z 17006KT 10SM SCT048 BKN075 BKN100 19/15 A3023 RMK AO2 SLP231 T01940150=
201802240552 METAR KATL 240552Z 14005KT 10SM FEW070 BKN090 BKN250 19/15 A3024 RMK AO2 SLP235 T01890150 10228 20189 58010=
201802240452 METAR KATL 240452Z 14005KT 10SM FEW070 19/15 A3026 RMK AO2 SLP239 T01890150 402560156=
201802240352 METAR KATL 240352Z 15006KT 10SM FEW070 SCT250 20/15 A3026 RMK AO2 SLP243 T02000150=
201802240252 METAR KATL 240252Z 15005KT 10SM FEW070 SCT250 21/15 A3027 RMK AO2 SLP246 T02060150 50000=
201802240152 METAR KATL 240152Z 14005KT 10SM SCT065 BKN090 BKN250 21/15 A3028 RMK AO2 SLP249 T02110150=
201802240052 METAR KATL 240052Z 14004KT 10SM SCT055 BKN070 BKN250 22/15 A3028 RMK AO2 SLP248 T02220150=
201802232352 METAR KATL 232352Z 15005KT 10SM FEW080 SCT250 23/15 A3027 RMK AO2 SLP245 T02280150 10256 20222 56009=
201802232252 METAR KATL 232252Z 17005KT 10SM FEW045 FEW070 SCT250 24/15 A3028 RMK AO2 SLP247 T02440150=
201802232152 METAR KATL 232152Z 17006KT 10SM FEW045 FEW070 25/15 A3028 RMK AO2 SLP248 T02500150=
201802232052 METAR KATL 232052Z VRB05KT 10SM SCT043 SCT055 25/15 A3030 RMK AO2 SLP254 T02500150 56029=
201802231952 METAR KATL 231952Z 16009KT 10SM SCT040 SCT055 24/16 A3032 RMK AO2 SLP261 T02440161=
201802231852 METAR KATL 231852Z 18005KT 10SM SCT030 BKN055 24/17 A3035 RMK AO2 SLP271 T02390172=
201802231752 METAR KATL 231752Z 19005KT 10SM FEW020 SCT050 22/18 A3039 RMK AO2 SLP285 T02220178 10222 20156 58010=
201802231724 SPECI KATL 231724Z VRB05KT 10SM FEW012 SCT020 SCT050 22/18 A3041 RMK AO2 T02170178=
201802231709 SPECI KATL 231709Z 19005KT 10SM FEW012 BKN020 BKN050 21/18 A3042 RMK AO2 T02060178=
201802231652 METAR KATL 231652Z 17004KT 10SM FEW006 BKN012 BKN050 21/18 A3043 RMK AO2 SLP298 T02060178=
201802231614 SPECI KATL 231614Z 17003KT 9SM BKN008 BKN012 OVC050 18/18 A3043 RMK AO2 T01830178=
201802231610 SPECI KATL 231610Z VRB05KT 9SM BKN007 BKN012 OVC050 18/18 A3044 RMK AO2 T01830178=
201802231552 METAR KATL 231552Z 18003KT 2SM BR BKN005 OVC008 18/18 A3043 RMK AO2 SFC VIS 6 SLP301 T01780178=
201802231528 SPECI KATL 231528Z 21004KT 2SM BR OVC005 17/17 A3043 RMK AO2 SFC VIS 5 T01720172=
201802231452 METAR KATL 231452Z 18007KT 1/2SM R09R/P6000FT BR BCFG OVC004 17/17 A3042 RMK AO2 SFC VIS 3 SLP296 T01720172 51009=
201802231411 SPECI KATL 231411Z 17005KT 1/2SM R09R/5000VP6000FT BR BKN003 OVC005 17/17 A3042 RMK AO2 SFC VIS 1 TWRINC T01670167=
201802231352 METAR KATL 231352Z 15005KT 3/4SM R09R/P6000FT BR OVC004 17/17 A3042 RMK AO2 SFC VIS 3 SLP294 CIG 003V005 T01670167=
201802231339 SPECI KATL 231339Z 15005KT 3/4SM R09R/P6000FT BR OVC004 17/17 A3041 RMK AO2 SFC VIS 6 T01670167=
201802231311 SPECI KATL 231311Z 15003KT 6SM BR BKN006 16/16 A3040 RMK AO2 T01610161=
201802231252 METAR KATL 231252Z 12003KT 6SM BR FEW006 16/16 A3040 RMK AO2 SLP289 T01560156=
201802231152 METAR KATL 231152Z 12003KT 9SM CLR 16/15 A3039 RMK AO2 SLP285 T01560150 10183 20156 51003=
201802231052 METAR KATL 231052Z 13003KT 9SM CLR 16/16 A3039 RMK AO2 SLP284 T01610156=
201802230952 METAR KATL 230952Z 00000KT 10SM CLR 16/16 A3039 RMK AO2 SLP283 T01610156=
201802230852 METAR KATL 230852Z 13004KT 10SM CLR 17/16 A3038 RMK AO2 SLP281 T01670156 58003=
201802230752 METAR KATL 230752Z 11003KT 10SM CLR 17/16 A3038 RMK AO2 SLP282 T01720161=
201802230652 METAR KATL 230652Z 00000KT 10SM CLR 18/16 A3038 RMK AO2 SLP283 T01780161=
201802230552 METAR KATL 230552Z 17003KT 10SM CLR 18/16 A3039 RMK AO2 SLP284 T01830161 10228 20183 58001=
201802230452 METAR KATL 230452Z 15004KT 10SM CLR 19/17 A3039 RMK AO2 SLP284 T01890167 402610172=
201802230352 METAR KATL 230352Z 16007KT 10SM CLR 20/17 A3039 RMK AO2 SLP285 T02000172=
201802230252 METAR KATL 230252Z 16007KT 10SM CLR 21/17 A3039 RMK AO2 SLP286 T02060172 51003=
201802230152 METAR KATL 230152Z 17009KT 10SM CLR 22/17 A3039 RMK AO2 SLP284 T02170172=
201802230052 METAR KATL 230052Z 16006KT 10SM FEW040 22/17 A3039 RMK AO2 SLP285 T02170172=
201802222352 METAR KATL 222352Z 15006KT 10SM FEW040 23/17 A3038 RMK AO2 SLP282 T02280172 10261 20228 53005=
201802222252 METAR KATL 222252Z 16007KT 10SM FEW040 FEW250 24/17 A3037 RMK AO2 SLP279 T02440172=
201802222152 METAR KATL 222152Z 15010KT 10SM FEW040 SCT050 26/17 A3036 RMK AO2 SLP275 MDT CU DSNT NW T02560172=
201802222052 METAR KATL 222052Z 19006KT 10SM FEW040 SCT060 26/18 A3037 RMK AO2 SLP275 MDT CU NW T02610178 56024=
201802221952 METAR KATL 221952Z 15008KT 10SM FEW030 FEW050 26/18 A3039 RMK AO2 SLP282 TCU DSNT NW T02560183=
201802221852 METAR KATL 221852Z 12007KT 10SM SCT030TCU SCT050 26/18 A3041 RMK AO2 SLP290 TCU SW-NW T02560178=
201802221754 SPECI KATL 221754Z 14006KT 10SM SCT025 BKN035 BKN050 24/18 A3044 RMK AO2 T02440183=
201802221752 METAR KATL 221752Z 17007KT 10SM BKN025 BKN040 BKN050 25/18 A3044 RMK AO2 SLP300 T02500183 10250 20172 58006=
201802221652 METAR KATL 221652Z 18009KT 10SM FEW025 SCT055 23/18 A3046 RMK AO2 SLP308 T02330178=
201802221552 METAR KATL 221552Z 12006KT 8SM FEW015 SCT030 SCT050 22/18 A3046 RMK AO2 SLP308 T02220183=
201802221452 METAR KATL 221452Z 13004KT 6SM HZ FEW005 SCT040 BKN050 20/18 A3046 RMK AO2 SLP308 T02000183 51014=
201802221352 METAR KATL 221352Z 15005KT 6SM BR FU SCT006 SCT033 BKN050 BKN250 18/18 A3045 RMK AO2 SLP306 T01830178=
201802221335 SPECI KATL 221335Z 15005KT 6SM BR SCT005 SCT035 BKN055 BKN250 18/18 A3044 RMK AO2 T01830178=
201802221252 METAR KATL 221252Z 13004KT 6SM BR SCT035 BKN050 BKN250 17/17 A3044 RMK AO2 SLP301 T01720172=
201802221152 METAR KATL 221152Z 14004KT 8SM SCT038 BKN050 BKN250 17/17 A3042 RMK AO2 SLP294 T01720172 10194 20172 53012=
201802221052 METAR KATL 221052Z 14003KT 10SM SCT040 BKN050 BKN250 17/17 A3040 RMK AO2 SLP287 T01720172=
201802220952 METAR KATL 220952Z 15004KT 10SM FEW038 BKN050 BKN250 18/17 A3039 RMK AO2 SLP284 T01780172=
201802220852 METAR KATL 220852Z 15004KT 10SM FEW040 BKN055 BKN250 18/17 A3038 RMK AO2 SLP281 T01830172 51003=
201802220752 METAR KATL 220752Z 17005KT 10SM SCT038 BKN050 BKN250 19/17 A3038 RMK AO2 SLP281 T01890172=
201802220652 METAR KATL 220652Z 18007KT 10SM BKN040 BKN250 19/17 A3038 RMK AO2 SLP281 T01890172=
201802220552 METAR KATL 220552Z 18007KT 10SM FEW250 19/17 A3037 RMK AO2 SLP278 T01940172 10228 20194 50003=
201802220452 METAR KATL 220452Z 16004KT 10SM FEW250 20/17 A3037 RMK AO2 SLP279 T02000172 402500183=
201802220352 METAR KATL 220352Z 16005KT 10SM FEW050 FEW250 21/17 A3037 RMK AO2 SLP278 T02060172=
201802220252 METAR KATL 220252Z 15007KT 10SM FEW080 FEW250 21/18 A3036 RMK AO2 SLP274 T02110178 51004=
201802220152 METAR KATL 220152Z 15006KT 10SM FEW080 FEW250 22/18 A3036 RMK AO2 SLP274 T02170178=
201802220052 METAR KATL 220052Z 15006KT 10SM FEW080 FEW250 22/18 A3035 RMK AO2 SLP271 T02220183=
201802212352 METAR KATL 212352Z 15006KT 10SM FEW040 FEW250 23/18 A3035 RMK AO2 SLP270 T02330183 10250 20217 53002=
201802212252 METAR KATL 212252Z 15008KT 10SM FEW035 SCT080 24/18 A3035 RMK AO2 SLP269 T02440183=
201802212152 METAR KATL 212152Z 18009KT 10SM FEW025 SCT040 BKN080 25/18 A3034 RMK AO2 SLP267 TCU DSNT NE-SE T02500183=
201802212052 METAR KATL 212052Z 17008KT 10SM BKN030TCU BKN040 24/19 A3034 RMK AO2 SLP268 TCU S-SW-W-NW-N MDT CU NE-SE T02390189 56020=
201802211952 METAR KATL 211952Z 17008KT 10SM BKN030 24/19 A3035 RMK AO2 SLP272 MDT CU ALQDS T02390189=
201802211852 METAR KATL 211852Z 19011KT 10SM FEW015 SCT020 BKN030 23/19 A3037 RMK AO2 SLP279 T02280194=
201802211845 SPECI KATL 211845Z 19010KT 10SM FEW017 SCT020 BKN030 23/19 A3038 RMK AO2 T02280194=
201802211752 METAR KATL 211752Z 18007KT 10SM FEW010 BKN015 OVC020 22/19 A3040 RMK AO2 SLP288 60000 T02170194 10217 20194 58005=
201802211701 SPECI KATL 211701Z 18006KT 10SM FEW007 BKN015 OVC020 22/19 A3042 RMK AO2 T02170194=
201802211652 METAR KATL 211652Z 19004KT 10SM FEW007 BKN013 OVC020 21/19 A3042 RMK AO2 RAE03 SLP296 P0000 T02110194=
201802211620 SPECI KATL 211620Z 19005KT 7SM FEW007 BKN010 OVC020 21/20 A3043 RMK AO2 RAE03 P0000 T02060200=
201802211603 SPECI KATL 211603Z 17006KT 3SM BR SCT007 BKN014 OVC020 21/20 A3043 RMK AO2 SFC VIS 6 RAE03 P0000 T02060200=
201802211552 METAR KATL 211552Z 18004KT 2SM -RA BR BKN007 BKN012 OVC018 21/20 A3043 RMK AO2 SFC VIS 4 DZB23E45RAB45 SLP299 P0000 T02060200=
201802211538 SPECI KATL 211538Z 19005KT 2SM -DZ BR BKN007 OVC012 20/20 A3043 RMK AO2 SFC VIS 4 DZB23 P0000 T02000200=
201802211523 SPECI KATL 211523Z 19007KT 3SM -DZ BR OVC008 20/19 A3042 RMK AO2 SFC VIS 5 DZB23 P0000 T02000194=
201802211452 METAR KATL 211452Z 18007KT 9SM OVC010 21/19 A3042 RMK AO2 DZE01 SLP294 P0000 60000 T02060194 53010=
201802211352 METAR KATL 211352Z 17009KT 7SM -DZ OVC008 20/19 A3040 RMK AO2 DZB48 SLP288 CIG 007V010 PCPN VRY LGT P0000 T02000194=
201802211252 METAR KATL 211252Z 17010KT 7SM OVC008 19/19 A3039 RMK AO2 SLP287 CIG 007V010 T01940194=
201802211152 METAR KATL 211152Z 17009KT 8SM OVC008 19/19 A3038 RMK AO2 SLP283 CIG 007V009 60005 70005 T01940189 10200 20183 53006=
201802211052 METAR KATL 211052Z 15008KT 7SM OVC008 19/19 A3037 RMK AO2 SLP278 CIG 007V009 T01890189=
201802210952 METAR KATL 210952Z 16005KT 7SM OVC008 19/19 A3037 RMK AO2 RAE02 SLP278 CIG 007V009 P0000 T01890189 $=
201802210852 METAR KATL 210852Z 16006KT 6SM -RA BR BKN009 BKN025 OVC075 19/18 A3037 RMK AO2 RAE0758B29 SLP276 CIG 008V012 P0004 60005 T01890183 51001 $=
201802210845 SPECI KATL 210845Z 16008KT 4SM -RA BR SCT010 BKN022 OVC075 19/18 A3036 RMK AO2 RAE0758B29 P0004 T01890183 $=
201802210842 SPECI KATL 210842Z 15007KT 4SM -RA BR SCT009 BKN014 OVC022 19/18 A3037 RMK AO2 RAE0758B29 P0003 T01890183 $=
201802210834 SPECI KATL 210834Z 15006KT 6SM -RA BR BKN009 OVC030 19/18 A3037 RMK AO2 RAE0758B29 CIG 008V012 P0000 T01890183=
201802210830 SPECI KATL 210830Z 17006KT 9SM -RA BKN012 OVC031 19/18 A3037 RMK AO2 RAE0758B29 P0000 T01890183=
201802210752 METAR KATL 210752Z 16007KT 9SM -RA SCT033 BKN046 BKN070 19/18 A3036 RMK AO2 RAB17 SLP275 MDT CU SW & NW P0001 T01940183=
201802210720 SPECI KATL 210720Z 16008KT 10SM -RA BKN030 BKN047 BKN060 19/18 A3036 RMK AO2 RAB17 P0000 T01940178=
201802210652 METAR KATL 210652Z 15006KT 10SM BKN028 BKN039 BKN055 20/18 A3037 RMK AO2 SLP277 T02000178=
201802210552 METAR KATL 210552Z 15006KT 10SM SCT036 BKN045 BKN080 20/17 A3036 RMK AO2 SLP275 T02000172 10222 20200 53007=
201802210452 METAR KATL 210452Z 14006KT 10SM SCT036 BKN045 BKN080 21/17 A3036 RMK AO2 SLP274 T02060172 402390144=
201802210352 METAR KATL 210352Z 13006KT 10SM SCT036 BKN090 21/17 A3035 RMK AO2 SLP271 T02060172=
201802210252 METAR KATL 210252Z 14005KT 10SM BKN090 20/17 A3034 RMK AO2 SLP270 T02000172 51001=
201802210152 METAR KATL 210152Z 12006KT 10SM BKN090 21/17 A3034 RMK AO2 SLP270 T02060172=
201802210052 METAR KATL 210052Z 12006KT 10SM BKN085 21/17 A3034 RMK AO2 SLP270 T02110172=
201802202352 METAR KATL 202352Z 13005KT 10SM FEW055 BKN080 22/17 A3034 RMK AO2 SLP269 T02220172 10239 20211 53008=
201802202252 METAR KATL 202252Z 13008KT 10SM FEW030 SCT060 BKN080 23/17 A3032 RMK AO2 SLP263 T02280167=
201802202152 METAR KATL 202152Z 15008KT 10SM FEW030 SCT050 BKN080 23/17 A3031 RMK AO2 SLP258 T02330167=
201802202052 METAR KATL 202052Z 14011KT 10SM FEW040 SCT050 BKN070 23/17 A3031 RMK AO2 SLP260 T02330167 56018=
201802201952 METAR KATL 201952Z 17008KT 10SM FEW035 BKN045 BKN065 23/17 A3032 RMK AO2 SLP263 T02330172=
201802201852 METAR KATL 201852Z 16009KT 10SM FEW023 SCT028 BKN030 23/17 A3034 RMK AO2 SLP269 T02280172=
201802201835 SPECI KATL 201835Z 17009KT 10SM SCT025 BKN030 BKN040 23/18 A3035 RMK AO2 T02280178=
201802201752 METAR KATL 201752Z VRB05KT 10SM BKN015 BKN020 BKN025 22/18 A3037 RMK AO2 SLP279 60000 T02170183 10217 20156 58005=
201802201721 SPECI KATL 201721Z 15006KT 10SM SCT007 BKN012 OVC015 20/18 A3038 RMK AO2 T02000183=
201802201652 METAR KATL 201652Z 15007KT 7SM OVC007 19/18 A3039 RMK AO2 SLP288 T01890183=
201802201620 SPECI KATL 201620Z 15007KT 6SM BR OVC006 18/18 A3040 RMK AO2 T01830183=
201802201553 SPECI KATL 201553Z 16007KT 2SM BR OVC005 18/18 A3039 RMK AO2 SFC VIS 5 T01780178=
201802201552 METAR KATL 201552Z 16005KT 1SM R09R/P6000FT BR OVC005 18/18 A3039 RMK AO2 SFC VIS 5 DZE49 SLP289 P0000 T01780178=
201802201452 METAR KATL 201452Z 15009KT 1/4SM R09R/5500VP6000FT -DZ BR OVC003 17/17 A3039 RMK AO2 SFC VIS 2 DZB49 SLP287 TWRINC P0000 60000 T01720172 51008=
201802201352 METAR KATL 201352Z 13005KT 1/4SM R09R/2000V2600FT FG VV002 17/17 A3038 RMK AO2 SFC VIS 1/2 SLP284 TWRINC T01670167=
201802201335 SPECI KATL 201335Z 13005KT 1/4SM R09R/2200V2400FT FG VV002 17/17 A3038 RMK AO2 SFC VIS 1/2 T01670167=
201802201324 SPECI KATL 201324Z 13005KT 1/4SM R09R/1800V2200FT FG VV002 17/17 A3037 RMK AO2 SFC VIS 1/2 T01670167=
201802201320 SPECI KATL 201320Z 13006KT 1/2SM R09R/1800V2200FT FG VV002 16/16 A3037 RMK AO2 T01610161=
201802201252 METAR KATL 201252Z 12006KT 1/4SM R09R/1800V2200FT FG VV002 16/16 A3038 RMK AO2 TWR VIS 1/2 SLP283 T01610161=
201802201240 SPECI KATL 201240Z 11004KT 1/2SM R09R/2000V2200FT FG VV002 16/16 A3038 RMK AO2 T01610161=
201802201152 METAR KATL 201152Z 12006KT 1/2SM R09R/5500VP6000FT BR OVC002 16/16 A3036 RMK AO2 SFC VIS 1 1/4 SLP278 TWRINC T01560156 10156 20144 53010=
201802201145 SPECI KATL 201145Z 13006KT 1/2SM R09R/5500VP6000FT BR OVC003 16/16 A3036 RMK AO2 SFC VIS 1 1/2 TWRINC T01560156=
201802201052 METAR KATL 201052Z 13006KT 1/2SM R09R/P6000FT BR OVC003 16/16 A3035 RMK AO2 SFC VIS 5 SLP273 CIG 002V004 TWRINC T01560156=
201802200952 METAR KATL 200952Z 10005KT 1/2SM R09R/P6000FT BR OVC003 15/15 A3034 RMK AO2 SFC VIS 4 SLP267 VIS NW-NE 2 1/2 T01500150=
201802200920 SPECI KATL 200920Z 11005KT 6SM BR BKN004 14/14 A3033 RMK AO2 BKN004 V SCT T01440144=
201802200852 METAR KATL 200852Z 11006KT 6SM BR SCT005 14/14 A3033 RMK AO2 SLP265 SCT005 V BKN T01440144 50001=
201802200849 SPECI KATL 200849Z 11005KT 6SM BR BKN005 14/14 A3033 RMK AO2 BKN005 V SCT=
201802200752 METAR KATL 200752Z 10006KT 7SM SCT005 15/15 A3034 RMK AO2 SLP267 SCT005 V BKN T01500150=
201802200652 METAR KATL 200652Z 10005KT 8SM SCT005 SCT065 15/15 A3033 RMK AO2 SLP267 SCT005 V BKN T01500150=
201802200650 SPECI KATL 200650Z 12005KT 8SM SCT005 SCT065 15/15 A3033 RMK AO2 SCT005 V BKN=
201802200632 SPECI KATL 200632Z 10008KT 7SM BKN005 BKN065 16/15 A3034 RMK AO2 BKN005 V SCT T01560150=
201802200552 METAR KATL 200552Z 09008KT 9SM FEW005 BKN065 BKN250 16/16 A3033 RMK AO2 SLP267 T01560156 10189 20156 50002=
201802200452 METAR KATL 200452Z 08009KT 8SM SCT005 BKN070 BKN250 16/16 A3033 RMK AO2 SLP269 SCT005 V BKN T01610156 402440150=
201802200352 METAR KATL 200352Z 09010KT 8SM SCT005 BKN070 BKN250 16/16 A3033 RMK AO2 SLP267 SCT005 V BKN T01610161=
201802200252 METAR KATL 200252Z 08010KT 8SM BKN005 BKN070 BKN250 16/16 A3032 RMK AO2 SLP265 T01610161 53014=
201802200152 METAR KATL 200152Z 09009KT 9SM BKN005 BKN070 BKN250 16/16 A3031 RMK AO2 SLP260 T01610161=
201802200052 METAR KATL 200052Z 09011KT 9SM FEW005 SCT010 SCT065 BKN250 17/16 A3029 RMK AO2 SLP254 T01670161=
201802192352 METAR KATL 192352Z 07011KT 10SM FEW005 SCT065 BKN250 19/17 A3028 RMK AO2 SLP250 T01890167 10244 20189 53009=
201802192252 METAR KATL 192252Z 15006KT 10SM FEW045 SCT060 BKN250 23/14 A3026 RMK AO2 SLP241 T02330144=
201802192152 METAR KATL 192152Z 18009KT 10SM FEW025 SCT045 BKN060 BKN250 24/14 A3025 RMK AO2 SLP239 T02440144=
201802192052 METAR KATL 192052Z 17013KT 10SM SCT045 BKN065 BKN250 24/14 A3025 RMK AO2 SLP238 T02390139 55024=
201802191952 METAR KATL 191952Z 17012G18KT 10SM SCT030 SCT065 BKN250 23/15 A3025 RMK AO2 SLP237 T02330150=
201802191852 METAR KATL 191852Z 12007KT 10SM SCT018 SCT150 BKN250 22/17 A3028 RMK AO2 SLP248 T02170172=
201802191833 SPECI KATL 191833Z 11006KT 9SM SCT015 BKN250 20/17 A3029 RMK AO2 T02000172=
201802191752 METAR KATL 191752Z 13007KT 7SM BKN010 OVC017 19/17 A3032 RMK AO2 SLP265 BINOVC 60000 T01890172 10189 20156 58008=
201802191743 SPECI KATL 191743Z 14007KT 7SM BKN010 BKN015 OVC020 18/17 A3033 RMK AO2 BINOVC T01830172=
201802191652 METAR KATL 191652Z 14008KT 3SM BR OVC006 17/17 A3035 RMK AO2 SFC VIS 4 DZE50 SLP276 CIG 005V007 P0000 T01720167=
201802191637 SPECI KATL 191637Z 13007KT 1 1/4SM -DZ BR OVC005 17/17 A3035 RMK AO2 SFC VIS 2 CIG 004V006 P0000 T01670167=
201802191552 METAR KATL 191552Z 13005KT 1/4SM R09R/P6000FT -DZ BR OVC003 16/16 A3036 RMK AO2 SFC VIS 1 1/4 SLP278 TWRINC P0000 T01610161=
201802191452 METAR KATL 191452Z 13006KT 1/2SM R09R/3500V4000FT -DZ BR OVC003 16/16 A3035 RMK AO2 SFC VIS 3/4 SLP274 TWRINC P0000 60000 T01610161 52011=
201802191352 METAR KATL 191352Z 11008KT 1/2SM R09R/4000V6000FT -DZ BR OVC003 16/16 A3034 RMK AO2 SFC VIS 3/4 SLP271 TWRINC P0000 T01560156=
201802191252 METAR KATL 191252Z 11009KT 1/2SM R09R/6000VP6000FT -DZ BR OVC003 16/16 A3033 RMK AO2 SFC VIS 1 1/4 SLP268 TWRINC P0000 T01560156=
201802191152 METAR KATL 191152Z 10009KT 1/2SM R09R/P6000FT -DZ BR OVC002 16/16 A3031 RMK AO2 SFC VIS 1 1/2 SLP264 TWRINC P0001 60001 70004 T01560156 10156 20150 51016=
201802191052 METAR KATL 191052Z 10006KT 1/2SM R09R/5500VP6000FT -DZ BR OVC002 16/16 A3030 RMK AO2 SFC VIS 1 1/4 SLP259 TWRINC P0000 T01560156=
201802191013 SPECI KATL 191013Z 11005KT 1/2SM R09R/6000VP6000FT -DZ BR OVC002 16/16 A3029 RMK AO2 SFC VIS 1 CIG 001V003 TWRINC P0000 T01560156=
201802190952 METAR KATL 190952Z 12006KT 1/2SM R09R/3500V4000FT -DZ BR VV002 16/16 A3029 RMK AO2 SFC VIS 3/4 SLP254 TWRINC P0000 T01560156=
201802190852 METAR KATL 190852Z 12007KT 1/2SM R09R/5500V6000FT -DZ BR VV002 15/15 A3027 RMK AO2 SFC VIS 1 SLP246 P0000 60000 T01500150 58000=
201802190752 METAR KATL 190752Z 12005KT 1/2SM R09R/P6000FT -DZ BR OVC002 15/15 A3027 RMK AO2 SFC VIS 1 1/4 SLP246 TWRINC P0000 T01500150=
201802190723 SPECI KATL 190723Z 11007KT 1/2SM R09R/P6000FT -DZ BR OVC003 15/15 A3027 RMK AO2 SFC VIS 1 3/4 TWRINC P0000 T01500150=
201802190700 SPECI KATL 190700Z 11008KT 1/2SM R09R/P6000FT -DZ BR OVC003 15/15 A3027 RMK AO2 SFC VIS 2 1/2 CIG 002V005 TWRINC P0000 T01500150=
201802190652 METAR KATL 190652Z 10006KT 1/2SM R09R/P6000FT -DZ BR OVC003 15/15 A3027 RMK AO2 SFC VIS 3 DZB23 SLP247 CIG 003V005 P0000 T01500150=
201802190552 METAR KATL 190552Z 10005KT 8SM OVC004 15/15 A3027 RMK AO2 SLP247 CIG 003V005 T01500150 10156 20150 58002=
201802190539 SPECI KATL 190539Z 10007KT 10SM OVC004 15/15 A3027 RMK AO2 T01500150=
201802190452 METAR KATL 190452Z 11006KT 10SM OVC006 16/15 A3028 RMK AO2 SLP250 CIG 005V007 T01560150 401890089=
201802190352 METAR KATL 190352Z 11005KT 10SM OVC009 16/14 A3028 RMK AO2 SLP250 CIG 008V010 T01560144=
201802190252 METAR KATL 190252Z 11006KT 10SM BKN010 OVC036 16/14 A3028 RMK AO2 SLP251 T01560144 51010=
201802190152 METAR KATL 190152Z 09006KT 10SM BKN012 OVC030 16/14 A3027 RMK AO2 SLP252 T01560144=
201802190118 SPECI KATL 190118Z 08004KT 10SM BKN012 OVC028 16/14 A3026 RMK AO2 T01560144=
201802190052 METAR KATL 190052Z 10006KT 10SM FEW012 OVC025 16/14 A3026 RMK AO2 SLP246 T01560144=
201802182352 METAR KATL 182352Z 12003KT 10SM OVC015 16/14 A3025 RMK AO2 RAE2257 SLP242 CIG 013V017 P0000 60003 T01560144 10189 20156 51007=
201802182252 METAR KATL 182252Z 15006KT 8SM -RA FEW016 OVC020 16/14 A3024 RMK AO2 SLP240 P0003 T01560144=
201802182235 SPECI KATL 182235Z 16005KT 6SM -RA BR OVC020 16/14 A3024 RMK AO2 P0003 T01610139=
201802182217 SPECI KATL 182217Z 12004KT 2SM RA OVC020 17/13 A3023 RMK AO2 SFC VIS 3 P0001 T01670133=
201802182152 METAR KATL 182152Z 16005KT 8SM -RA BKN019 BKN025 17/13 A3023 RMK AO2 RAB46 SLP237 P0000 T01670133=
201802182052 METAR KATL 182052Z 19003KT 10SM BKN022 BKN030 BKN250 17/12 A3022 RMK AO2 SLP233 T01720117 56010=
201802182048 SPECI KATL 182048Z 17006KT 10SM BKN025 BKN030 BKN250 17/12 A3022 RMK AO2=
201802181952 METAR KATL 181952Z 19007KT 10SM BKN030 BKN040 BKN250 18/11 A3023 RMK AO2 SLP232 T01830106=
201802181852 METAR KATL 181852Z 16007KT 10SM BKN040 BKN100 BKN250 19/10 A3024 RMK AO2 SLP236 T01890100=
201802181752 METAR KATL 181752Z 16006KT 10SM FEW050 SCT100 BKN250 18/09 A3026 RMK AO2 SLP243 T01780094 10183 20089 58001=
201802181652 METAR KATL 181652Z VRB04KT 10SM FEW030 SCT100 SCT250 16/08 A3027 RMK AO2 SLP247 T01610083=
201802181552 METAR KATL 181552Z 00000KT 10SM FEW030 SCT070 SCT250 14/08 A3028 RMK AO2 SLP250 T01440078=
201802181452 METAR KATL 181452Z 34008KT 10SM FEW015 FEW065 FEW250 12/08 A3026 RMK AO2 SLP245 T01220078 51016=
201802181352 METAR KATL 181352Z 32007KT 10SM FEW014 FEW055 FEW250 10/08 A3025 RMK AO2 SLP240 T01000078=
201802181252 METAR KATL 181252Z 32007KT 10SM FEW014 FEW100 FEW250 09/08 A3023 RMK AO2 SLP233 T00940078=
201802181152 METAR KATL 181152Z 32006KT 10SM BKN014 BKN055 10/08 A3021 RMK AO2 SLP227 60000 70002 T01000078 10156 20100 51015=
201802181052 METAR KATL 181052Z 35011KT 10SM BKN014 BKN055 10/08 A3020 RMK AO2 SLP224 BKN014 V SCT T01000078=
201802181035 SPECI KATL 181035Z 33010KT 10SM BKN014 BKN055 11/08 A3020 RMK AO2 BKN014 V SCT T01060083=
201802180952 METAR KATL 180952Z 33011KT 10SM BKN015 BKN046 BKN060 11/09 A3019 RMK AO2 SLP218 BKN015 V SCT T01110089=
201802180852 METAR KATL 180852Z 32014KT 10SM SCT013 OVC043 12/10 A3017 RMK AO2 SLP210 60000 T01220100 52013=
201802180752 METAR KATL 180752Z 32009KT 10SM FEW010 SCT048 BKN085 BKN200 13/12 A3015 RMK AO2 RAE02 SLP204 P0000 T01330117=
201802180747 SPECI KATL 180747Z 32011G17KT 10SM SCT010 BKN048 BKN085 13/12 A3015 RMK AO2 RAE02 P0000=
201802180652 METAR KATL 180652Z 31011KT 10SM -RA BKN011 BKN028 OVC042 14/13 A3015 RMK AO2 RAE19B45 SLP203 PCPN VRY LGT P0000 T01440133=
201802180646 SPECI KATL 180646Z 32012KT 10SM -RA BKN011 BKN028 OVC037 14/13 A3015 RMK AO2 RAE19B45 PCPN VRY LGT P0000=
201802180620 SPECI KATL 180620Z 31013KT 10SM SCT009 SCT018 OVC028 15/13 A3014 RMK AO2 RAE19 P0000 T01500133=
201802180552 METAR KATL 180552Z 33007KT 10SM -RA BKN009 OVC016 16/15 A3013 RMK AO2 SLP197 CIG 008V010 P0000 60002 T01560150 10217 20156 58001=
201802180548 SPECI KATL 180548Z 32007KT 10SM -RA BKN009 BKN014 16/15 A3013 RMK AO2 P0000=
201802180504 SPECI KATL 180504Z 30011KT 10SM -RA BKN013 BKN026 OVC080 17/16 A3013 RMK AO2 CIG 011V015 P0000 T01670156=
201802180452 METAR KATL 180452Z 30010KT 10SM -RA SCT014 BKN024 OVC095 17/16 A3014 RMK AO2 DZE22RAB45 SLP204 P0000 T01670156 402500106=
201802180416 SPECI KATL 180416Z 31006G20KT 7SM -DZ SCT009 OVC018 17/16 A3012 RMK AO2 CIG 016V022 P0000 T01720161=
201802180408 SPECI KATL 180408Z 33014G20KT 7SM -DZ BKN009 OVC018 17/17 A3014 RMK AO2 CIG 008V010 P0000 T01720167=
201802180352 METAR KATL 180352Z 32009KT 8SM -DZ OVC011 17/17 A3014 RMK AO2 RAE21DZB36 SLP203 CIG 009V013 P0000 T01720167=
201802180337 SPECI KATL 180337Z 30007KT 8SM -DZ BKN013 BKN022 OVC040 17/17 A3014 RMK AO2 RAE21DZB36 CIG 011V015 P0000 T01720167=
201802180328 SPECI KATL 180328Z 29008KT 10SM SCT013 BKN022 OVC040 17/17 A3013 RMK AO2 RAE21 P0000 T01720167=
201802180252 METAR KATL 180252Z 29011KT 6SM -RA BR BKN032 OVC050 17/17 A3013 RMK AO2 WSHFT 0215 RAB18 SLP200 FROPA P0002 60002 T01720167 53019=
201802180231 SPECI KATL 180231Z 30010KT 8SM -RA BKN036 BKN050 OVC075 18/16 A3012 RMK AO2 WSHFT 0215 RAB18 PRESRR FROPA P0000 T01830156=
201802180152 METAR KATL 180152Z 23006KT 10SM FEW050 BKN075 BKN090 BKN250 21/14 A3008 RMK AO2 SLP183 SHRA DSNT W-N T02060139=
201802180052 METAR KATL 180052Z 24008KT 10SM BKN085 BKN250 21/13 A3008 RMK AO2 SLP182 T02110133=
201802172352 METAR KATL 172352Z 24008KT 10SM BKN090 BKN250 22/13 A3007 RMK AO2 SLP180 T02170128 10250 20206 53002=
201802172252 METAR KATL 172252Z 24013G25KT 10SM FEW055 BKN085 BKN250 23/12 A3006 RMK AO2 SLP176 T02280122=
201802172152 METAR KATL 172152Z 25017G23KT 10SM SCT055 SCT090 BKN250 24/12 A3007 RMK AO2 PK WND 26029/2109 SLP178 T02390117=
201802172052 METAR KATL 172052Z 24017G26KT 10SM SCT040 SCT050 BKN250 25/12 A3007 RMK AO2 PK WND 25027/2014 SLP177 T02500122 56015=
201802171952 METAR KATL 171952Z 23012G23KT 10SM SCT035 SCT045 BKN250 24/16 A3007 RMK AO2 PK WND 21027/1929 SLP179 MDT CU N T02440156=
201802171852 METAR KATL 171852Z 24009KT 10SM SCT030 BKN037 BKN047 BKN250 23/16 A3008 RMK AO2 SLP182 T02280161=
201802171752 METAR KATL 171752Z 21006KT 10SM SCT025 BKN055 BKN250 21/16 A3011 RMK AO2 SLP193 T02060156 10206 20117 58013=
201802171652 METAR KATL 171652Z 15005KT 10SM SCT014 SCT047 BKN070 BKN250 17/13 A3013 RMK AO2 SLP201 T01670128=
201802171631 SPECI KATL 171631Z VRB05KT 10SM SCT011 BKN041 OVC050 16/12 A3014 RMK AO2 T01610122=
201802171552 METAR KATL 171552Z 12006KT 10SM OVC010 14/11 A3014 RMK AO2 SLP206 CIG 008V012 T01390111=
201802171550 SPECI KATL 171550Z 11006KT 10SM OVC010 14/11 A3014 RMK AO2 CIG 008V012=
201802171452 METAR KATL 171452Z 09006KT 10SM OVC009 13/11 A3015 RMK AO2 SLP208 CIG 008V011 T01280106 53003=
201802171411 SPECI KATL 171411Z 10005KT 10SM OVC009 12/10 A3015 RMK AO2 CIG 008V011 T01220100=
201802171352 METAR KATL 171352Z 11005KT 10SM OVC010 12/09 A3014 RMK AO2 SLP207 CIG 009V013 T01170094=
201802171252 METAR KATL 171252Z 09004KT 10SM BKN013 OVC029 12/09 A3014 RMK AO2 SLP206 T01170094=
201802171248 SPECI KATL 171248Z 09004KT 10SM BKN013 OVC029 12/09 A3014 RMK AO2=
201802171152 METAR KATL 171152Z 05004KT 10SM SCT012 OVC027 12/09 A3014 RMK AO2 SLP204 70002 T01170089 10122 20106 51006=
201802171147 SPECI KATL 171147Z 05003KT 10SM SCT012 OVC028 12/09 A3014 RMK AO2=
201802171103 SPECI KATL 171103Z 00000KT 10SM BKN011 BKN029 OVC039 11/09 A3013 RMK AO2 T01110089=
201802171052 METAR KATL 171052Z 00000KT 10SM FEW028 BKN039 OVC065 11/09 A3013 RMK AO2 SLP202 BINOVC T01110089=
201802170952 METAR KATL 170952Z 02004KT 10SM FEW025 FEW040 SCT130 11/09 A3012 RMK AO2 SLP197 T01060089=
201802170852 METAR KATL 170852Z 31003KT 10SM SCT032 BKN041 OVC130 11/09 A3012 RMK AO2 SLP197 T01060089 58009=
201802170752 METAR KATL 170752Z 31003KT 10SM FEW030 BKN046 BKN130 11/09 A3014 RMK AO2 SLP201 T01110089=
201802170652 METAR KATL 170652Z 33008KT 10SM BKN030 BKN048 12/09 A3015 RMK AO2 SLP207 T01170094=
201802170552 METAR KATL 170552Z 32005KT 10SM FEW025 BKN032 OVC050 12/10 A3015 RMK AO2 SLP206 60002 T01220100 10194 20122 50003=
201802170452 METAR KATL 170452Z 32007KT 10SM FEW009 BKN025 OVC040 13/11 A3015 RMK AO2 SLP205 T01280106 402390128=
201802170352 METAR KATL 170352Z 33006KT 10SM FEW009 BKN025 OVC060 13/12 A3015 RMK AO2 SLP206 T01330117=
201802170252 METAR KATL 170252Z 32008KT 10SM FEW007 BKN025 OVC070 14/12 A3014 RMK AO2 SLP203 60002 T01390122 51016=
201802170152 METAR KATL 170152Z 32010KT 10SM FEW005 BKN020 OVC050 14/13 A3013 RMK AO2 RAE0059 SLP199 P0000 T01390133=
201802170052 METAR KATL 170052Z 33017KT 6SM -RA BR FEW008 BKN015 OVC030 14/14 A3012 RMK AO2 RAB01 SLP196 FROPA P0002 T01440139=
201802170046 SPECI KATL 170046Z 33015KT 5SM -RA BR FEW008 BKN015 OVC030 14/14 A3012 RMK AO2 RAB01 FROPA P0002=
201802170028 SPECI KATL 170028Z 32015G24KT 2SM -RA BR SCT010 BKN018 OVC030 18/18 A3011 RMK AO2 RAB01 P0000 T01830178=
201802162352 METAR KATL 162352Z 25008KT 10SM SCT017 BKN022 OVC035 19/17 A3009 RMK AO2 SLP185 BINOVC 60000 T01940167 10233 20189 51017=
201802162252 METAR KATL 162252Z 27011KT 10SM SCT020 BKN026 OVC035 19/17 A3008 RMK AO2 DZE38 SLP181 P0000 T01940167=
201802162152 METAR KATL 162152Z 26013G18KT 9SM -DZ BKN028 OVC034 21/16 A3006 RMK AO2 DZB50 SLP172 P0000 T02110156=
201802162150 SPECI KATL 162150Z 26012G16KT 9SM -DZ BKN028 OVC034 21/16 A3006 RMK AO2 DZB50 P0000=
201802162052 METAR KATL 162052Z 26010G18KT 10SM BKN034 OVC050 22/15 A3004 RMK AO2 SLP166 T02170150 55005=
201802161952 METAR KATL 161952Z 27015G19KT 10SM BKN036 OVC050 23/16 A3003 RMK AO2 SLP163 BINOVC T02280156=
201802161852 METAR KATL 161852Z 25010KT 10SM BKN036 BKN050 BKN250 23/16 A3003 RMK AO2 SLP162 T02280156=
201802161752 METAR KATL 161752Z 24015G22KT 10SM FEW040 BKN055 BKN250 23/15 A3006 RMK AO2 SLP170 T02280150 10239 20183 58009=
201802161652 METAR KATL 161652Z 27016G26KT 10SM FEW040 SCT050 SCT250 23/14 A3007 RMK AO2 PK WND 27026/1647 SLP177 T02330144=
201802161552 METAR KATL 161552Z 24012G22KT 10SM FEW030 SCT050 SCT250 22/16 A3008 RMK AO2 PK WND 24026/1537 SLP180 T02170156=
201802161452 METAR KATL 161452Z 24014G21KT 10SM SCT020 SCT100 SCT250 21/16 A3008 RMK AO2 SLP181 T02060161 51004=
201802161352 METAR KATL 161352Z 24013G18KT 10SM SCT014 SCT038 SCT200 BKN250 19/17 A3008 RMK AO2 SLP182 T01890172=
201802161252 METAR KATL 161252Z 25007KT 10SM FEW012 FEW040 SCT200 BKN250 18/17 A3008 RMK AO2 SLP180 T01830167=
201802161152 METAR KATL 161152Z 24009KT 10SM FEW024 SCT040 SCT100 BKN250 18/17 A3007 RMK AO2 SLP177 60000 T01830172 10194 20183 53000=
201802161052 METAR KATL 161052Z 24009KT 10SM FEW014 SCT026 SCT045 BKN250 18/17 A3006 RMK AO2 SLP174 T01830172=
201802160952 METAR KATL 160952Z 24010KT 10SM BKN016 BKN050 BKN250 19/18 A3006 RMK AO2 SLP173 CIG 014V018 T01890178=
201802160930 SPECI KATL 160930Z 24011KT 10SM SCT014 BKN022 BKN045 BKN250 19/18 A3006 RMK AO2 T01890178=
201802160852 METAR KATL 160852Z 24009KT 10SM FEW008 BKN014 OVC042 19/18 A3007 RMK AO2 SLP177 CIG 012V016 BINOVC 60000 T01890178 58009=
201802160826 SPECI KATL 160826Z 24011G16KT 10SM FEW008 BKN013 BKN040 18/18 A3007 RMK AO2 T01830178=
201802160752 METAR KATL 160752Z 23009KT 10SM FEW008 SCT014 OVC038 19/18 A3008 RMK AO2 DZB10E31 SLP180 BINOVC P0000 T01890178=
201802160736 SPECI KATL 160736Z 22011KT 10SM SCT014 BKN038 OVC046 19/18 A3008 RMK AO2 DZB10E31 P0000 T01890178=
201802160652 METAR KATL 160652Z 24011G18KT 10SM OVC013 19/17 A3010 RMK AO2 SLP187 CIG 011V015 T01940172=
201802160552 METAR KATL 160552Z 24008KT 10SM BKN012 OVC020 19/18 A3010 RMK AO2 SLP186 T01890178 10206 20183 58007=
201802160452 METAR KATL 160452Z 22010G22KT 10SM BKN012 OVC020 18/17 A3010 RMK AO2 SLP189 T01830172 402110150=
201802160352 METAR KATL 160352Z 21010G17KT 10SM BKN012 BKN018 OVC030 18/17 A3012 RMK AO2 SLP194 BINOVC T01830172=
201802160331 SPECI KATL 160331Z 21008G15KT 10SM BKN012 BKN018 OVC030 19/17 A3012 RMK AO2 BINOVC T01890172=
201802160252 METAR KATL 160252Z 20009KT 10SM SCT015 BKN025 BKN038 BKN250 19/17 A3012 RMK AO2 SLP195 T01890167 56007=
201802160245 SPECI KATL 160245Z 20011KT 10SM FEW015 SCT025 BKN038 BKN250 19/17 A3012 RMK AO2 T01890167=
201802160152 METAR KATL 160152Z 21007KT 10SM BKN024 BKN250 19/16 A3013 RMK AO2 SLP198 T01890161=
201802160145 SPECI KATL 160145Z 21006KT 10SM BKN025 BKN250 19/16 A3013 RMK AO2 T01890161=
201802160052 METAR KATL 160052Z 20005KT 10SM FEW040 SCT250 19/16 A3013 RMK AO2 SLP197 T01940161=
201802152352 METAR KATL 152352Z 22007KT 10SM FEW025 OVC035 21/16 A3014 RMK AO2 SLP202 BINOVC T02060161 10211 20189 56008=
201802152252 METAR KATL 152252Z 22006KT 10SM SCT026 OVC035 21/17 A3015 RMK AO2 SLP203 BINOVC T02060167=
201802152152 METAR KATL 152152Z 24010KT 10SM FEW020 SCT028 BKN036 21/16 A3015 RMK AO2 SLP205 T02110161=
201802152132 SPECI KATL 152132Z 24010KT 10SM FEW020 BKN028 OVC036 21/16 A3015 RMK AO2 T02110161=
201802152052 METAR KATL 152052Z 23009G14KT 10SM FEW015 SCT025 BKN035 21/17 A3017 RMK AO2 SLP210 T02060167 56027=
201802152003 SPECI KATL 152003Z 23008G15KT 10SM SCT022 OVC030 20/16 A3018 RMK AO2 T02000161=
201802151952 METAR KATL 151952Z 22009G17KT 10SM BKN020 OVC030 20/16 A3019 RMK AO2 SLP218 T02000161=
201802151852 METAR KATL 151852Z 24011KT 10SM FEW016 BKN025 OVC030 19/16 A3022 RMK AO2 SLP228 T01940161=
201802151826 SPECI KATL 151826Z 22013KT 10SM SCT015 BKN025 BKN030 19/17 A3022 RMK AO2 T01940167=
201802151752 METAR KATL 151752Z 24009KT 10SM BKN014 BKN020 BKN030 19/17 A3025 RMK AO2 SLP238 T01940167 10194 20161 58006=
201802151652 METAR KATL 151652Z 24010KT 10SM BKN013 BKN020 OVC030 19/17 A3027 RMK AO2 SLP245 T01890167=
201802151609 SPECI KATL 151609Z 25009G18KT 10SM BKN013 BKN025 OVC030 18/17 A3028 RMK AO2 T01830167=
201802151552 METAR KATL 151552Z 24010KT 10SM FEW009 BKN025 OVC030 19/17 A3027 RMK AO2 SLP247 T01890167=
201802151533 SPECI KATL 151533Z 24008KT 10SM FEW009 SCT015 OVC030 18/17 A3027 RMK AO2 T01830172=
201802151452 METAR KATL 151452Z 26007KT 7SM OVC008 18/17 A3027 RMK AO2 SLP246 T01780167 51010=
201802151352 METAR KATL 151352Z 23007KT 3SM OVC006 17/17 A3026 RMK AO2 SFC VIS 7 SLP245 CIG 005V007 T01670167=
201802151345 SPECI KATL 151345Z 24006KT 3SM OVC006 17/16 A3026 RMK AO2 SFC VIS 7 CIG 005V007 T01670161=
201802151252 METAR KATL 151252Z 22007KT 1SM R09R/P6000FT OVC005 17/16 A3025 RMK AO2 SFC VIS 7 SLP239 CIG 004V006 TWRINC T01670161=
201802151237 SPECI KATL 151237Z 22008KT 1SM R09R/P6000FT OVC005 16/16 A3024 RMK AO2 SFC VIS 8 CIG 004V006 TWRINC T01610161=
201802151152 METAR KATL 151152Z 22008KT 1SM R09R/P6000FT OVC004 16/16 A3024 RMK AO2 SFC VIS 8 DZE50 SLP237 P0000 60002 70002 T01610161 10161 20150 55005=
201802151052 METAR KATL 151052Z 22009KT 1SM R09R/P6000FT -DZ BR OVC004 16/16 A3023 RMK AO2 SFC VIS 5 DZB24 SLP235 CIG 003V005 TWRINC P0000 T01610161=
201802151027 SPECI KATL 151027Z 22010KT 3SM -DZ OVC004 16/16 A3024 RMK AO2 SFC VIS 8 DZB24 CIG 003V005 P0000 T01610161=
201802151025 SPECI KATL 151025Z 22008KT 8SM -DZ OVC004 16/16 A3024 RMK AO2 DZB24 CIG 003V005 P0000 T01610161=
201802150952 METAR KATL 150952Z 22008KT 8SM OVC006 16/16 A3024 RMK AO2 SLP239 CIG 005V007 T01610161=
201802150852 METAR KATL 150852Z 22006KT 10SM OVC007 16/16 A3025 RMK AO2 SLP242 CIG 006V008 60002 T01560156 56013=
201802150752 METAR KATL 150752Z 22004KT 9SM BKN007 OVC013 15/15 A3025 RMK AO2 RAE03DZB03E50 SLP243 CIG 006V008 P0000 T01500150=
201802150652 METAR KATL 150652Z 23004KT 9SM -RA BKN008 OVC015 15/15 A3028 RMK AO2 SLP251 CIG 007V010 P0002 T01500150=
201802150613 SPECI KATL 150613Z 20006KT 10SM -RA FEW007 BKN018 OVC100 15/15 A3028 RMK AO2 P0001 T01500150=
201802150552 METAR KATL 150552Z 21005KT 10SM -RA FEW007 SCT028 BKN100 OVC150 15/14 A3029 RMK AO2 RAB26 SLP256 P0000 60000 T01500144 10150 20144 58010=
201802150518 SPECI KATL 150518Z 21005KT 10SM FEW007 SCT025 BKN120 OVC200 15/14 A3030 RMK AO2 SHRA W-NW T01500144=
201802150452 METAR KATL 150452Z 19004KT 10SM FEW015 BKN022 OVC030 15/14 A3031 RMK AO2 SLP264 T01500144 401560089=
201802150352 METAR KATL 150352Z 21005KT 10SM FEW010 BKN020 OVC030 15/14 A3032 RMK AO2 RAB14E49 SLP268 P0000 T01500144=
201802150252 METAR KATL 150252Z 16005KT 10SM SCT013 BKN020 OVC030 15/14 A3032 RMK AO2 SLP268 SHRA SW-NW T01500139 58002=
201802150225 SPECI KATL 150225Z 19004KT 10SM BKN012 OVC020 14/13 A3033 RMK AO2 T01440133=
201802150152 METAR KATL 150152Z 19004KT 10SM BKN015 OVC022 15/13 A3034 RMK AO2 SLP275 T01500133=
201802150052 METAR KATL 150052Z 14003KT 10SM OVC018 15/13 A3033 RMK AO2 SLP271 T01500128=
201802142352 METAR KATL 142352Z 00000KT 10SM OVC018 15/13 A3033 RMK AO2 SLP270 T01500128 10156 20117 58008=
201802142252 METAR KATL 142252Z 19003KT 10SM OVC018 16/13 A3034 RMK AO2 SLP274 T01560128=
201802142152 METAR KATL 142152Z 00000KT 10SM FEW015 OVC020 15/12 A3034 RMK AO2 SLP275 T01500122=
201802142054 SPECI KATL 142054Z 18006KT 10SM FEW012 BKN018 OVC020 14/12 A3035 RMK AO2 BINOVC OHD & SW-W T01440122=
201802142052 METAR KATL 142052Z 18006KT 9SM BKN013 BKN018 OVC020 14/12 A3035 RMK AO2 SLP279 BINOVC OHD & SW-W T01440122 58025=
201802141952 METAR KATL 141952Z 17004KT 8SM OVC010 13/12 A3039 RMK AO2 SLP291 T01330117=
201802141852 METAR KATL 141852Z 17003KT 3SM BR OVC007 13/12 A3040 RMK AO2 SFC VIS 6 SLP297 T01280117=
201802141752 METAR KATL 141752Z 15004KT 2SM BR OVC006 12/11 A3043 RMK AO2 SFC VIS 4 SLP306 60000 T01220111 10122 20089 58024=
201802141709 SPECI KATL 141709Z 12003KT 2SM BR OVC006 12/11 A3046 RMK AO2 SFC VIS 6 T01170106=
201802141656 SPECI KATL 141656Z 13004KT 1SM R09R/P6000FT BR OVC005 11/11 A3046 RMK AO2 SFC VIS 5 T01110106=
201802141652 METAR KATL 141652Z 13004KT 1SM R09R/P6000FT BR OVC005 11/11 A3046 RMK AO2 SFC VIS 3 SLP318 T01110106=
201802141552 METAR KATL 141552Z 15005KT 1/4SM R09R/P6000FT BR OVC004 11/11 A3049 RMK AO2 SFC VIS 3 DZE36 SLP327 TWRINC P0000 T01060106=
201802141536 SPECI KATL 141536Z 14004KT 1/4SM R09R/P6000FT BR OVC003 10/10 A3049 RMK AO2 SFC VIS 2 1/2 DZE36 TWRINC P0000 T01000100=
201802141452 METAR KATL 141452Z 00000KT 1/4SM R09R/5000V5500FT -DZ BR OVC003 10/10 A3050 RMK AO2 SFC VIS 3/4 SLP330 P0000 60000 T01000100 53010=
201802141355 SPECI KATL 141355Z 09004KT 1/4SM R09R/4000V6000FT -DZ BR OVC003 09/09 A3049 RMK AO2 SFC VIS 3/4 P0000 T00940094=
201802141352 METAR KATL 141352Z 05005KT 3/4SM R09R/4000V6000FT -DZ BR OVC003 09/09 A3049 RMK AO2 SLP326 P0000 T00940094=
201802141259 SPECI KATL 141259Z 04005KT 3/4SM R09R/4000V5000FT -DZ BR OVC003 09/09 A3049 RMK AO2 P0000 T00890089=
201802141252 METAR KATL 141252Z 05005KT 1SM R09R/4000VP6000FT -DZ BR OVC003 09/09 A3049 RMK AO2 SFC VIS 1 1/4 SLP325 P0000 T00890089=
201802141214 SPECI KATL 141214Z 09005KT 1SM R09R/P6000FT -DZ BR OVC004 09/09 A3048 RMK AO2 SFC VIS 3 VIS W-N-NE 1 3/4 CIG 003V006 P0000 T00890089=
201802141152 METAR KATL 141152Z 08005KT 3SM -DZ BR OVC005 09/09 A3047 RMK AO2 DZB48 SLP320 VIS NW-NE 2 1/2 CIG 004V006 CIG LWR NW-NE P0000 60000 T00890089 10100 20089 53001=
201802141126 SPECI KATL 141126Z 00000KT 4SM BR OVC005 09/08 A3047 RMK AO2 CIG 004V006 T00890083=
201802141052 METAR KATL 141052Z 11003KT 1SM R09R/P6000FT BR OVC004 09/09 A3045 RMK AO2 SFC VIS 4 DZE07 SLP314 CIG 003V006 P0000 T00890089=
201802140952 METAR KATL 140952Z 12004KT 1SM R09R/P6000FT -DZ BR OVC004 09/09 A3046 RMK AO2 SFC VIS 1 3/4 SLP318 CIG 003V006 P0000 T00890089=
201802140917 SPECI KATL 140917Z 12005KT 2 1/2SM -DZ BR OVC004 09/08 A3046 RMK AO2 CIG 004V006 P0000 T00890083=
201802140912 SPECI KATL 140912Z 12004KT 3SM -DZ BR OVC004 09/08 A3047 RMK AO2 CIG 004V006 P0000 T00890083=
201802140852 METAR KATL 140852Z 13006KT 3SM -DZ BR OVC005 09/08 A3047 RMK AO2 DZB52 SLP319 CIG 004V006 P0000 60000 T00890083 58019=
201802140752 METAR KATL 140752Z 13006KT 10SM OVC009 09/08 A3049 RMK AO2 SLP328 T00890078=
201802140704 SPECI KATL 140704Z 12005KT 10SM OVC009 10/07 A3051 RMK AO2 T01000072=
201802140652 METAR KATL 140652Z 09006KT 10SM OVC012 10/07 A3052 RMK AO2 SLP337 T01000072=
201802140618 SPECI KATL 140618Z 08007KT 10SM OVC013 10/07 A3053 RMK AO2 T01000072=
201802140552 METAR KATL 140552Z 10005KT 10SM OVC015 10/07 A3052 RMK AO2 SLP338 T01000072 10122 20100 58009=
201802140452 METAR KATL 140452Z 12003KT 10SM BKN015 BKN250 10/07 A3054 RMK AO2 SLP345 T01000072 401330083=
201802140352 METAR KATL 140352Z 12005KT 10SM BKN015 BKN250 11/07 A3055 RMK AO2 SLP347 T01060072=
201802140252 METAR KATL 140252Z 10006KT 10SM BKN016 BKN250 11/07 A3055 RMK AO2 SLP349 T01060072 50004=
201802140242 SPECI KATL 140242Z 12006KT 10SM SCT016 SCT250 11/07 A3055 RMK AO2 T01060072=
201802140152 METAR KATL 140152Z 10010KT 10SM OVC016 11/08 A3056 RMK AO2 SLP351 BINOVC T01110078=
201802140052 METAR KATL 140052Z 12007KT 10SM OVC018 12/07 A3056 RMK AO2 SLP349 T01170067=
201802132352 METAR KATL 132352Z 10008KT 10SM OVC017 12/07 A3054 RMK AO2 SLP343 BINOVC T01220072 10133 20100 53002=
201802132252 METAR KATL 132252Z 09008KT 10SM OVC020 13/07 A3053 RMK AO2 SLP340 T01280072=
201802132152 METAR KATL 132152Z 11007KT 10SM OVC018 13/07 A3053 RMK AO2 SLP339 T01330067=
201802132052 METAR KATL 132052Z 10006KT 10SM OVC020 13/07 A3053 RMK AO2 SLP341 T01280067 56016=
201802131952 METAR KATL 131952Z 06008KT 10SM OVC018 12/06 A3054 RMK AO2 SLP345 T01220061=
201802131852 METAR KATL 131852Z 08009KT 10SM OVC019 12/06 A3056 RMK AO2 SLP350 T01170061=
201802131752 METAR KATL 131752Z 07008KT 10SM OVC018 11/06 A3058 RMK AO2 SLP358 60000 T01060056 10117 20083 58004=
201802131652 METAR KATL 131652Z 08010KT 10SM OVC018 10/06 A3060 RMK AO2 SLP366 T01000056=
201802131552 METAR KATL 131552Z 09013KT 10SM OVC017 09/06 A3061 RMK AO2 SLP367 T00890056=
201802131452 METAR KATL 131452Z 09012KT 10SM OVC015 09/07 A3060 RMK AO2 SLP363 60000 T00890067 51015=
201802131449 SPECI KATL 131449Z 10008KT 10SM OVC015 09/07 A3060 RMK AO2=
201802131352 METAR KATL 131352Z 09015KT 9SM FEW006 OVC013 08/07 A3058 RMK AO2 DZE1254B17E37 SLP357 CIG 011V015 P0000 T00830067 $=
201802131345 SPECI KATL 131345Z 08017KT 9SM SCT006 OVC013 09/07 A3058 RMK AO2 DZE1254B17E37 CIG 011V015 P0000 T00890072 $=
201802131252 METAR KATL 131252Z 09016KT 5SM -DZ BR BKN006 OVC011 09/09 A3055 RMK AO2 SLP347 CIG 005V008 P0000 T00940089 $=
201802131214 SPECI KATL 131214Z 06017KT 2SM -DZ BR BKN005 BKN012 OVC017 10/10 A3052 RMK AO2 SFC VIS 2 1/2 CIG 004V007 P0000 T01000100 $=
201802131152 METAR KATL 131152Z 07016KT 2SM -DZ BR BKN004 OVC010 12/12 A3051 RMK AO2 DZB1057 SLP332 CIG 003V006 P0001 60001 70005 T01170117 10122 20100 53019 $=
201802131058 SPECI KATL 131058Z 07008KT 2SM -DZ BR OVC004 12/12 A3048 RMK AO2 DZB57 P0000 T01170117 $=
201802131052 METAR KATL 131052Z 06007KT 3SM BR OVC004 12/12 A3047 RMK AO2 SFC VIS 6 SLP319 T01170117 $=
201802131026 SPECI KATL 131026Z 06007KT 3SM BR OVC004 12/11 A3046 RMK AO2 SFC VIS 6 T01170111 $=
201802131005 SPECI KATL 131005Z 07009KT 3SM OVC005 12/10 A3046 RMK AO2 SFC VIS 7 T01170100 $=
201802130952 METAR KATL 130952Z 05007KT 10SM OVC005 12/09 A3046 RMK AO2 SLP314 T01170094 $=
201802130921 SPECI KATL 130921Z 03006KT 10SM BKN006 OVC017 11/08 A3045 RMK AO2 T01110083 $=
201802130852 METAR KATL 130852Z 02005KT 10SM FEW008 OVC016 11/08 A3045 RMK AO2 SLP313 T01060083 51007 $=
201802130850 SPECI KATL 130850Z 03005KT 10SM FEW008 OVC016 11/08 A3045 RMK AO2 $=
201802130842 SPECI KATL 130842Z 03005KT 10SM BKN015 BKN020 OVC060 11/08 A3045 RMK AO2 T01060078 $=
201802130752 METAR KATL 130752Z 34003KT 10SM FEW040 BKN065 10/08 A3045 RMK AO2 SLP313 T01000078 $=
201802130652 METAR KATL 130652Z 02006KT 10SM FEW028 BKN040 OVC065 10/08 A3044 RMK AO2 SLP307 T01000078 $=
201802130552 METAR KATL 130552Z 32004KT 10SM FEW028 BKN042 OVC070 11/08 A3043 RMK AO2 SLP305 T01060083 10133 20100 50007 $=
201802130452 METAR KATL 130452Z 32007KT 10SM FEW022 BKN036 OVC055 11/08 A3043 RMK AO2 SLP306 T01060083 402500106 $=
201802130352 METAR KATL 130352Z 31006KT 10SM SCT025 BKN050 OVC075 11/09 A3042 RMK AO2 SLP303 T01110089 $=
201802130252 METAR KATL 130252Z 33006KT 10SM SCT027 OVC055 12/09 A3041 RMK AO2 SLP298 BINOVC T01170094 51012 $=
201802130152 METAR KATL 130152Z 33006KT 10SM FEW023 SCT038 BKN055 OVC150 12/09 A3040 RMK AO2 SLP294 T01170094 $=
201802130115 SPECI KATL 130115Z 33008KT 10SM SCT023 BKN033 OVC055 12/09 A3039 RMK AO2 BINOVC T01220094 $=
201802130052 METAR KATL 130052Z 31008KT 10SM OVC024 12/10 A3040 RMK AO2 SLP292 T01220100 $=
201802130004 SPECI KATL 130004Z 32007KT 10SM BKN026 OVC050 13/10 A3038 RMK AO2 BINOVC T01330100 $=
201802122352 METAR KATL 122352Z 31006KT 10SM SCT028 OVC050 13/10 A3037 RMK AO2 SLP284 BINOVC T01330100 10150 20133 52017 $=
201802122252 METAR KATL 122252Z 31006KT 10SM BKN026 OVC037 14/11 A3036 RMK AO2 SLP279 T01440111 $=
201802122233 SPECI KATL 122233Z 31006KT 10SM SCT028 OVC035 14/11 A3035 RMK AO2 T01440111 $=
201802122152 METAR KATL 122152Z 30004KT 10SM BKN025 OVC030 15/11 A3034 RMK AO2 SLP272 T01500111 $=
201802122052 METAR KATL 122052Z 00000KT 10SM FEW015 BKN025 OVC040 14/11 A3032 RMK AO2 SLP267 T01440111 55000 $=
201802121952 METAR KATL 121952Z 32004KT 10SM FEW013 BKN020 OVC030 14/11 A3032 RMK AO2 SLP264 T01390111 $=
201802121942 SPECI KATL 121942Z 30004KT 10SM FEW015 SCT025 OVC030 14/11 A3032 RMK AO2 T01390111 $=
201802121852 METAR KATL 121852Z 33007KT 10SM BKN013 BKN020 OVC030 14/12 A3031 RMK AO2 SLP263 T01440117 $=
201802121752 METAR KATL 121752Z 31006KT 10SM BKN012 BKN015 OVC030 14/12 A3033 RMK AO2 SLP268 60004 T01440122 10167 20122 51005 $=
201802121652 METAR KATL 121652Z 32007KT 10SM BKN010 BKN020 OVC030 13/12 A3032 RMK AO2 SLP266 T01330117 $=
201802121650 SPECI KATL 121650Z 33006KT 10SM BKN010 BKN020 OVC030 13/12 A3032 RMK AO2 $=
201802121552 METAR KATL 121552Z 32008KT 9SM BKN006 BKN012 OVC030 13/12 A3031 RMK AO2 DZE24 SLP263 P0000 T01280122 $=
201802121524 SPECI KATL 121524Z 34009KT 9SM BKN006 BKN010 OVC030 12/12 A3031 RMK AO2 DZE24 P0000 T01220122 $=
201802121502 SPECI KATL 121502Z 34010KT 2SM -DZ BR BKN005 BKN010 OVC030 13/13 A3030 RMK AO2 SFC VIS 6 P0000 T01280128 $=
201802121452 METAR KATL 121452Z 33012KT 1SM R09R/P6000FT -DZ BR BKN004 BKN010 OVC030 13/13 A3030 RMK AO2 SFC VIS 6 DZB01E20B49 SLP259 TWRINC P0000 60004 T01330133 51034 $=
201802121425 SPECI KATL 121425Z 31008KT 1SM R09R/P6000FT BR BKN004 BKN020 OVC040 14/14 A3029 RMK AO2 SFC VIS 6 DZB01E20 TWRINC P0000 T01390139 $=
201802121352 METAR KATL 121352Z 31009KT 7SM BKN006 BKN020 OVC042 14/14 A3028 RMK AO2 RAE01DZB01E09 SLP250 CIG 005V007 P0000 T01390139=
201802121323 SPECI KATL 121323Z 31011KT 5SM BR BKN005 BKN020 OVC042 14/14 A3026 RMK AO2 RAE01DZB01E09 CIG 004V008 P0000 T01390139=
201802121311 SPECI KATL 121311Z 30009KT 7SM BKN004 BKN010 BKN042 14/14 A3024 RMK AO2 RAE01DZB01E09 CIG 003V006 P0000 T01440144=
201802121300 SPECI KATL 121300Z 31012KT 2SM -RA BR BKN004 OVC008 15/15 A3024 RMK AO2 SFC VIS 3 VIS E-S 2 CIG 003V006 P0000 T01500150=
201802121252 METAR KATL 121252Z 32014KT 1SM R09R/P6000FT -RA BR BKN004 OVC008 16/16 A3023 RMK AO2 SFC VIS 1 3/4 DZE28RAB28 SLP235 CIG 003V006 P0004 T01610161=
201802121227 SPECI KATL 121227Z 24005KT 1SM R09R/P6000FT -DZ BR OVC004 17/17 A3021 RMK AO2 SFC VIS 1 1/2 CIG 003V006 P0001 T01670167=
201802121202 SPECI KATL 121202Z 25006KT 2SM -DZ BR OVC004 17/17 A3020 RMK AO2 CIG 003V005 P0000 T01670167=
201802121152 METAR KATL 121152Z 25007KT 4SM -DZ BR OVC004 17/17 A3020 RMK AO2 DZB37 SLP222 VIS W-N 2 1/2 P0000 60000 70029 T01670167 10167 20161 53019=
201802121142 SPECI KATL 121142Z 25008KT 4SM -DZ BR OVC005 17/17 A3019 RMK AO2 DZB37 VIS NW-NE 2 1/2 CIG 004V006 P0000 T01670167=
201802121052 METAR KATL 121052Z 25006KT 10SM BKN008 OVC014 17/17 A3017 RMK AO2 SLP213 CIG 006V010 T01670167=
201802120952 METAR KATL 120952Z 22006KT 7SM OVC006 17/17 A3015 RMK AO2 SLP206 T01670167=
201802120852 METAR KATL 120852Z 23005KT 7SM OVC006 17/17 A3014 RMK AO2 SLP202 CIG 005V008 60000 T01670167 53002 $=
201802120808 SPECI KATL 120808Z 23005KT 7SM OVC005 17/17 A3013 RMK AO2 CIG 004V008 T01670167 $=
201802120752 METAR KATL 120752Z 22009KT 6SM BR OVC004 16/16 A3013 RMK AO2 DZE35 SLP199 P0000 T01610161 $=
201802120652 METAR KATL 120652Z 21006KT 4SM -DZ BR OVC004 16/16 A3013 RMK AO2 DZB34 SLP197 P0000 T01610161 $=
201802120634 SPECI KATL 120634Z 19007KT 3SM -DZ BR OVC004 16/16 A3012 RMK AO2 DZB34 PRESFR P0000 T01610161 $=
201802120552 METAR KATL 120552Z 21007KT 10SM OVC006 16/16 A3013 RMK AO2 RAE12 SLP200 CIG 005V007 P0000 60024 T01610161 10178 20161 51012 $=
201802120452 METAR KATL 120452Z 18010KT 8SM -RA BKN006 BKN048 OVC100 16/16 A3011 RMK AO2 SLP193 CIG 004V008 P0006 T01610161 401940161 $=
201802120440 SPECI KATL 120440Z 16013KT 8SM -RA FEW006 SCT048 OVC100 16/16 A3010 RMK AO2 P0006 T01610161 $=
201802120352 METAR KATL 120352Z 18009KT 4SM RA BR FEW010 SCT040 OVC085 17/17 A3012 RMK AO2 SLP195 P0011 T01670167 $=
201802120328 SPECI KATL 120328Z 20009KT 7SM -RA FEW013 SCT045 OVC100 17/17 A3011 RMK AO2 P0004 T01670167 $=
201802120300 SPECI KATL 120300Z 19011G18KT 3SM -RA BR FEW007 SCT015 OVC045 16/16 A3010 RMK AO2 SFC VIS 6 P0001 T01610161 $=
201802120252 METAR KATL 120252Z 18010KT 3SM +RA BR FEW007 BKN017 OVC038 17/17 A3010 RMK AO2 SFC VIS 4 SLP187 P0007 60007 T01670167 51015 $=
201802120228 SPECI KATL 120228Z 22007KT 3SM -RA SCT007 BKN017 OVC023 17/17 A3011 RMK AO2 SFC VIS 7 P0000 T01670167 $=
201802120222 SPECI KATL 120222Z 21007KT 3SM -RA SCT007 BKN014 OVC021 17/17 A3011 RMK AO2 SFC VIS 7 LTG DSNT NW CB DSNT NW P0000 T01670167 $=
201802120152 METAR KATL 120152Z 19010KT 3SM -RA BR BKN007 OVC014 17/17 A3009 RMK AO2 DZB25E50RAB50 SLP186 CIG 006V009 P0000 T01670167=
201802120052 METAR KATL 120052Z 19008KT 8SM OVC008 17/17 A3007 RMK AO2 SLP177 CIG 007V009 T01720167=
201802112352 METAR KATL 112352Z 19008KT 8SM OVC007 18/17 A3005 RMK AO2 DZE49 SLP172 CIG 006V008 P0000 60003 T01780172 10194 20178 53013=
201802112252 METAR KATL 112252Z 20010KT 4SM -DZ BR OVC005 18/18 A3003 RMK AO2 DZB43 SLP166 CIG 004V006 P0000 T01780178=
201802112152 METAR KATL 112152Z 20009KT 10SM OVC008 18/18 A3001 RMK AO2 SLP158 T01780178=
201802112132 SPECI KATL 112132Z 21011KT 10SM OVC008 18/17 A3002 RMK AO2 T01830172=
201802112052 METAR KATL 112052Z 20008KT 10SM OVC011 18/18 A3001 RMK AO2 SLP158 60003 T01830178 55002=
201802112038 SPECI KATL 112038Z 19008KT 10SM OVC009 18/18 A3001 RMK AO2 T01830178=
201802111952 METAR KATL 111952Z 20009G15KT 10SM SCT008 OVC012 18/18 A3001 RMK AO2 RAE33 SLP157 P0001 T01830178=
201802111947 SPECI KATL 111947Z 20011G19KT 10SM SCT008 OVC011 18/18 A3001 RMK AO2 RAE33 P0001=
201802111929 SPECI KATL 111929Z 19007G18KT 8SM -RA BKN009 OVC015 18/18 A3001 RMK AO2 P0001 T01830178=
201802111852 METAR KATL 111852Z 20007KT 6SM -RA BR FEW008 OVC013 19/18 A3002 RMK AO2 RAB04 SLP161 P0002 T01890183=
201802111832 SPECI KATL 111832Z 20008KT 7SM -RA BKN014 OVC025 19/18 A3003 RMK AO2 RAB04 P0001 T01890183=
201802111752 METAR KATL 111752Z 20008KT 10SM BKN016 OVC022 19/18 A3003 RMK AO2 SLP165 60002 T01940178 10194 20172 50004=
201802111652 METAR KATL 111652Z 21012G18KT 10SM BKN015 OVC022 19/18 A3004 RMK AO2 SLP167 T01940178=
201802111552 METAR KATL 111552Z 21011KT 10SM OVC012 19/18 A3004 RMK AO2 SLP167 T01890178=
201802111514 SPECI KATL 111514Z 20010KT 10SM FEW008 OVC012 18/18 A3003 RMK AO2 T01830178=
201802111452 METAR KATL 111452Z 21012G18KT 10SM OVC008 18/18 A3002 RMK AO2 SLP160 60002 T01830178 53007=
201802111352 METAR KATL 111352Z 20010KT 7SM OVC006 18/18 A3001 RMK AO2 RAE51 SLP158 CIG 005V008 P0000 T01780178=
201802111305 SPECI KATL 111305Z 18012G17KT 10SM -RA BKN009 BKN028 OVC060 17/17 A3001 RMK AO2 P0000 T01720172=
201802111252 METAR KATL 111252Z 18008KT 10SM -RA FEW009 BKN028 OVC070 17/17 A3000 RMK AO2 SLP155 P0002 T01720167=
201802111242 SPECI KATL 111242Z 19009KT 10SM -RA FEW009 BKN028 OVC065 17/17 A3000 RMK AO2 P0002 T01720167=
201802111152 METAR KATL 111152Z 20009KT 10SM -RA FEW009 SCT070 OVC110 17/17 A3000 RMK AO2 SLP154 P0005 60037 70074 T01720167 10189 20172 55002=
201802111129 SPECI KATL 111129Z 19012KT 10SM -RA SCT009 OVC100 17/17 A2999 RMK AO2 P0005 T01720167=
201802111052 METAR KATL 111052Z 19011KT 10SM -RA FEW012 BKN075 OVC100 17/17 A2999 RMK AO2 SLP151 P0009 T01720167=
201802110952 METAR KATL 110952Z 19013KT 7SM -RA FEW012 SCT055 OVC075 17/17 A3000 RMK AO2 SLP155 P0015 T01720172=
201802110946 SPECI KATL 110946Z 19010KT 7SM -RA SCT012 SCT055 OVC075 17/17 A3000 RMK AO2 P0013=
201802110921 SPECI KATL 110921Z 19012KT 9SM -RA BKN009 BKN048 OVC070 18/18 A3000 RMK AO2 BKN009 V SCT CIG 008V012 P0009 T01780178=
201802110852 METAR KATL 110852Z 20012G19KT 7SM -RA FEW009 SCT055 OVC075 18/18 A3000 RMK AO2 SLP155 P0007 60008 T01830178 55002=
201802110807 SPECI KATL 110807Z 20011KT 10SM -RA BKN009 OVC100 18/18 A2999 RMK AO2 CIG 008V012 P0000 T01830183=
201802110752 METAR KATL 110752Z 20009KT 10SM -RA SCT008 BKN085 OVC110 18/18 A2998 RMK AO2 SLP148 P0000 T01830183=
201802110750 SPECI KATL 110750Z 20009KT 10SM -RA SCT008 BKN060 OVC090 18/18 A2998 RMK AO2 P0000=
201802110652 METAR KATL 110652Z 19011KT 8SM -RA BKN007 BKN013 OVC045 18/18 A3000 RMK AO2 SLP157 CIG 006V009 P0001 T01830183=
201802110552 METAR KATL 110552Z 20008KT 10SM -RA BKN009 BKN015 OVC045 18/18 A3001 RMK AO2 SLP158 CIG 007V011 P0005 60027 T01830183 10183 20172 56004=
201802110503 SPECI KATL 110503Z 19008KT 4SM RA BR BKN007 BKN014 OVC065 18/18 A3001 RMK AO2 LTG DSNT NE CIG 005V009 CB DSNT NE P0004 T01830183=
201802110452 METAR KATL 110452Z 19010KT 3SM RA BR FEW007 SCT018 OVC065 18/18 A3001 RMK AO2 SLP159 TSB28E45 TS MOV NE P0007 T01830183 401830106=
201802110446 SPECI KATL 110446Z 19007KT 3SM RA BR SCT007 BKN018 OVC060 18/18 A3001 RMK AO2 TSB28E45 TS MOV NE P0005=
201802110431 SPECI KATL 110431Z 20009KT 8SM VCTS -RA BKN007 OVC018CB 18/18 A3001 RMK AO2 TSB28 OCNL LTGICCCCA VC SE TS VC SE MOV NE P0000 T01830183=
201802110352 METAR KATL 110352Z 19010G19KT 8SM -RA BKN007 OVC018 18/18 A3002 RMK AO2 SLP162 CIG 005V009 P0012 T01830183=
201802110252 METAR KATL 110252Z 18010KT 5SM -RA BR OVC008 18/18 A3002 RMK AO2 DZE07RAB07 SLP164 CIG 006V010 P0003 60003 T01830183 55007=
201802110152 METAR KATL 110152Z 16009KT 8SM -DZ OVC012 18/18 A3002 RMK AO2 DZB49 SLP163 CIG 010V014 P0000 T01830178=
201802110052 METAR KATL 110052Z 17007KT 7SM BKN012 BKN018 OVC032 17/17 A3004 RMK AO2 SLP169 CIG 010V014 T01720172=
201802110037 SPECI KATL 110037Z 16006KT 7SM BKN011 BKN018 OVC032 17/17 A3004 RMK AO2 CIG 009V013 T01720172=
201802102352 METAR KATL 102352Z 16006KT 7SM BKN008 BKN014 OVC030 17/17 A3004 RMK AO2 DZE19B29E50RAB19E29 SLP171 CIG 007V010 P0000 60007 T01720167 10172 20133 56002=
201802102331 SPECI KATL 102331Z 15007KT 10SM -DZ BKN009 BKN015 OVC021 17/17 A3004 RMK AO2 DZE19B29RAB19E29 CIG 013V017 P0000 T01720167=
201802102321 SPECI KATL 102321Z 14007KT 8SM -RA FEW008 BKN015 OVC026 17/17 A3003 RMK AO2 DZE19RAB19 CIG 013V017 P0000 T01720167=
201802102252 METAR KATL 102252Z 17007KT 8SM -DZ BKN014 OVC028 17/17 A3005 RMK AO2 DZB46 SLP173 CIG 012V016 P0000 T01720167=
201802102152 METAR KATL 102152Z 18009KT 8SM BKN010 OVC030 17/17 A3004 RMK AO2 SLP171 CIG 008V012 T01720167=
201802102052 METAR KATL 102052Z 18007KT 1 1/2SM BR OVC007 17/17 A3005 RMK AO2 SFC VIS 6 RAB20E47 SLP174 P0000 60007 T01670167 55018=
201802102020 SPECI KATL 102020Z 16007KT 1 1/2SM -RA BR OVC005 16/16 A3004 RMK AO2 SFC VIS 4 RAB20 P0000 T01610161=
201802101952 METAR KATL 101952Z 13005KT 1/4SM R09R/P6000FT BR OVC003 16/16 A3004 RMK AO2 SFC VIS 2 RAE07B26E43 SLP171 TWRINC P0006 T01560156=
201802101852 METAR KATL 101852Z 15005KT 1/4SM R09R/2600V4000FT -RA FG VV002 14/14 A3006 RMK AO2 SFC VIS 1/2 RAB38 SLP180 P0001 T01440144=
201802101836 SPECI KATL 101836Z 13005KT 1/4SM R09R/1800V3000FT FG VV002 14/14 A3007 RMK AO2 SFC VIS 1/2 P0001 T01390139=
201802101822 SPECI KATL 101822Z 16007KT 1/4SM R09R/1400V1800FT FG VV002 14/14 A3009 RMK AO2 T01390139=
201802101812 SPECI KATL 101812Z 13004KT 1/4SM R09R/1600V3500FT FG VV002 14/14 A3008 RMK AO2 T01390139=
201802101752 METAR KATL 101752Z 13005KT 1/4SM R09R/1400V2200FT FG VV002 13/13 A3010 RMK AO2 RAB1659E37 SLP194 P0001 60003 T01330133 10133 20106 58024=
201802101718 SPECI KATL 101718Z 14007KT 1/4SM R09R/1400V1600FT -RA FG VV002 13/13 A3013 RMK AO2 TWR VIS 1/4 RAB1659 P0001 T01280128=
201802101652 METAR KATL 101652Z 13006KT 1/4SM R09R/1800V2600FT FG VV002 12/12 A3014 RMK AO2 SFC VIS 1/2 RAB39E49 SLP208 P0001 T01220122=
201802101552 METAR KATL 101552Z 12007KT 1/4SM R09R/4000V5500FT BR VV002 12/12 A3016 RMK AO2 SFC VIS 3/4 SLP214 T01170117=
201802101452 METAR KATL 101452Z 13005KT 1/4SM R09R/5000VP6000FT BR OVC002 11/11 A3018 RMK AO2 SFC VIS 1 RAE48 SLP219 P0000 60001 T01110111 58003=
201802101401 SPECI KATL 101401Z 13007KT 1/4SM R09R/1800V2600FT -RA FG VV002 11/11 A3018 RMK AO2 TWR VIS 1/4 P0000 T01110111=
201802101357 SPECI KATL 101357Z 10006KT 1/4SM R09R/1800V2200FT -RA FG VV002 11/11 A3018 RMK AO2 TWR VIS 1/4 P0000 T01110111=
201802101352 METAR KATL 101352Z 11008KT 1/4SM R09R/2000V2600FT -RA FG VV002 11/11 A3018 RMK AO2 DZB07E39RAB39 SLP221 P0001 T01060106=
201802101252 METAR KATL 101252Z 12006KT 1/4SM R09R/2400V3000FT FG VV002 11/11 A3019 RMK AO2 SFC VIS 1/2 SLP223 T01060106=
201802101233 SPECI KATL 101233Z 12004KT 1/4SM R09R/2800V3500FT FG VV002 11/11 A3019 RMK AO2 SFC VIS 1/2 T01060106=
201802101152 METAR KATL 101152Z 13005KT 1/2SM R09R/2400V2600FT FG VV002 11/11 A3019 RMK AO2 SLP222 60000 70055 T01060106 10117 20106 55003=
201802101052 METAR KATL 101052Z 12006KT 1/2SM R09R/2600V3500FT FG VV002 11/11 A3018 RMK AO2 SLP221 T01060106=
201802100952 METAR KATL 100952Z 12006KT 3/4SM R09R/4000V5500FT BR VV002 11/11 A3018 RMK AO2 DZE49 SLP220 P0000 T01060106=
201802100852 METAR KATL 100852Z 12007KT 1 1/2SM -DZ BR OVC003 11/11 A3019 RMK AO2 SLP224 CIG 002V004 P0000 60000 T01060106 58015=
201802100752 METAR KATL 100752Z 11007KT 1 3/4SM -DZ BR OVC003 11/11 A3021 RMK AO2 DZB36 SLP230 CIG 002V004 PCPN VRY LGT P0000 T01060106=
201802100749 SPECI KATL 100749Z 11006KT 1 3/4SM -DZ BR OVC003 11/11 A3021 RMK AO2 DZB36 CIG 002V004 PCPN VRY LGT P0000=
201802100747 SPECI KATL 100747Z 11007KT 2SM -DZ BR OVC003 11/11 A3021 RMK AO2 DZB36 CIG 002V004 P0000=
201802100652 METAR KATL 100652Z 09008KT 5SM BR OVC004 11/11 A3022 RMK AO2 SLP234 CIG 003V005 T01110111=
201802100622 SPECI KATL 100622Z 11008KT 6SM BR BKN004 OVC012 11/11 A3023 RMK AO2 CIG 003V006 T01110111=
201802100552 METAR KATL 100552Z 10007KT 8SM SCT004 BKN012 OVC040 12/12 A3024 RMK AO2 RAE22 SLP240 P0001 60055 T01170117 10144 20117 58007=
201802100452 METAR KATL 100452Z 12008KT 3SM -RA BR FEW005 BKN015 OVC050 12/12 A3026 RMK AO2 SLP248 P0041 T01170117 401720028=
201802100442 SPECI KATL 100442Z 00000KT 5SM -RA BR SCT005 BKN012 OVC030 12/12 A3027 RMK AO2 P0041 T01170117=
201802100432 SPECI KATL 100432Z 00000KT 3SM RA BR FEW006 BKN020 OVC035 12/12 A3027 RMK AO2 P0038 T01170117=
201802100420 SPECI KATL 100420Z 13005KT 1 1/2SM R09R/4500VP6000FT +RA BR FEW006 BKN018 OVC030 12/12 A3027 RMK AO2 P0014 T01170117=
201802100414 SPECI KATL 100414Z 00000KT 2SM +RA BR SCT006 BKN015 OVC030 12/12 A3027 RMK AO2 P0009 T01170117=
201802100352 METAR KATL 100352Z 11003KT 4SM RA BR SCT007 BKN010 OVC015 12/12 A3026 RMK AO2 RAB0257 SLP248 P0013 T01170117=
201802100252 METAR KATL 100252Z 12009KT 10SM OVC012 12/11 A3026 RMK AO2 SLP248 SHRA SW-NW T01220106 50004=
201802100231 SPECI KATL 100231Z 13010KT 10SM OVC013 13/11 A3026 RMK AO2 T01280106=
201802100152 METAR KATL 100152Z 11009KT 10SM OVC016 13/09 A3026 RMK AO2 SLP250 T01330094=
201802100052 METAR KATL 100052Z 13007KT 10SM BKN020 OVC040 14/08 A3026 RMK AO2 SLP250 T01390083=
201802092352 METAR KATL 092352Z 12008KT 10SM BKN024 OVC040 14/07 A3025 RMK AO2 SLP246 BINOVC T01440067 10172 20144 55002=
201802092252 METAR KATL 092252Z 14008KT 10SM BKN028 BKN045 15/07 A3024 RMK AO2 SLP243 T01500072=
201802092152 METAR KATL 092152Z 13009KT 10SM BKN027 16/06 A3024 RMK AO2 SLP243 T01560061=
201802092120 SPECI KATL 092120Z 14007KT 10SM BKN028 BKN043 16/06 A3025 RMK AO2 T01610056=
201802092052 METAR KATL 092052Z 14006KT 10SM BKN038 16/04 A3025 RMK AO2 SLP246 T01560044 56032=
201802091952 METAR KATL 091952Z 16007KT 10SM BKN036 BKN250 16/03 A3027 RMK AO2 SLP252 T01610033=
201802091852 METAR KATL 091852Z 13008KT 10SM BKN034 BKN120 BKN250 16/02 A3031 RMK AO2 SLP264 T01560017=
201802091752 METAR KATL 091752Z 14009KT 10SM FEW034 SCT100 SCT250 15/01 A3035 RMK AO2 SLP278 T01500011 10150 20028 58020=
201802091652 METAR KATL 091652Z 13008KT 10SM FEW100 FEW200 SCT250 13/01 A3039 RMK AO2 SLP292 T01330011=
201802091552 METAR KATL 091552Z 13009G18KT 10SM FEW100 FEW200 SCT250 11/01 A3041 RMK AO2 SLP302 T01110011=
201802091452 METAR KATL 091452Z 11007KT 10SM FEW100 FEW200 BKN250 09/04 A3041 RMK AO2 SLP301 T00890039 53010=
201802091352 METAR KATL 091352Z 09007KT 10SM FEW100 SCT200 BKN250 06/03 A3039 RMK AO2 SLP297 T00610033=
201802091252 METAR KATL 091252Z 09007KT 10SM FEW100 BKN200 BKN250 03/02 A3039 RMK AO2 SLP296 T00330017=
201802091152 METAR KATL 091152Z 09005KT 10SM SCT200 BKN250 03/01 A3038 RMK AO2 SLP291 T00330006 10067 20033 53009=
201802091052 METAR KATL 091052Z 07008KT 10SM SCT200 SCT250 03/00 A3036 RMK AO2 SLP285 T00330000=
201802090952 METAR KATL 090952Z 08006KT 10SM SCT200 SCT250 04/00 A3035 RMK AO2 SLP281 T00390000=
201802090852 METAR KATL 090852Z 09004KT 10SM FEW200 SCT250 04/00 A3035 RMK AO2 SLP280 T00390000 58006=
201802090752 METAR KATL 090752Z 12004KT 10SM SCT250 05/M01 A3036 RMK AO2 SLP285 T00501006=
201802090652 METAR KATL 090652Z 05005KT 10SM SCT250 06/M01 A3037 RMK AO2 SLP287 T00611011=
201802090552 METAR KATL 090552Z 01005KT 10SM SCT250 06/M01 A3037 RMK AO2 SLP287 T00611011 10111 20056 58014=
201802090452 METAR KATL 090452Z 34007KT 10SM SCT250 06/M01 A3039 RMK AO2 SLP294 T00611006 401500006=
201802090352 METAR KATL 090352Z 34006KT 10SM FEW250 07/M01 A3041 RMK AO2 SLP302 T00671006=
201802090252 METAR KATL 090252Z 33004KT 10SM FEW250 08/M01 A3041 RMK AO2 SLP303 T00781011 52008=
201802090152 METAR KATL 090152Z 33006KT 10SM CLR 08/00 A3040 RMK AO2 SLP302 T00780000=
201802090052 METAR KATL 090052Z 32008G16KT 270V330 10SM CLR 09/00 A3039 RMK AO2 SLP298 T00940000=
201802082352 METAR KATL 082352Z 33006KT 10SM FEW250 11/00 A3039 RMK AO2 SLP295 T01110000 10150 20106 53004=
201802082252 METAR KATL 082252Z 33008KT 10SM FEW250 13/00 A3038 RMK AO2 SLP292 T01280000=
201802082152 METAR KATL 082152Z 34009KT 10SM FEW250 14/M01 A3037 RMK AO2 SLP289 T01441011=
201802082052 METAR KATL 082052Z 01011KT 10SM FEW250 14/M02 A3037 RMK AO2 SLP289 T01441017 55013=
201802081952 METAR KATL 081952Z 35008KT 10SM FEW250 14/M02 A3037 RMK AO2 SLP287 T01441017=
201802081852 METAR KATL 081852Z 35010KT 10SM FEW250 13/M02 A3038 RMK AO2 SLP291 T01331022=
201802081752 METAR KATL 081752Z 33007KT 10SM FEW250 11/M02 A3041 RMK AO2 SLP303 T01111017 10111 20006 58002=
201802081652 METAR KATL 081652Z 30008KT 10SM FEW250 09/M02 A3043 RMK AO2 SLP307 T00891017=
201802081552 METAR KATL 081552Z 32007KT 10SM FEW250 06/M01 A3043 RMK AO2 SLP309 T00611006=
201802081452 METAR KATL 081452Z 32010KT 10SM FEW250 03/M01 A3042 RMK AO2 SLP305 T00281006 51022=
201802081352 METAR KATL 081352Z 33008KT 9SM SCT200 BKN250 01/M01 A3040 RMK AO2 SLP300 T00111011=
201802081252 METAR KATL 081252Z 33010KT 9SM BKN200 BKN250 01/M01 A3038 RMK AO2 SLP293 T00111011=
201802081152 METAR KATL 081152Z 32015KT 10SM BKN200 BKN250 01/M01 A3035 RMK AO2 SLP283 70151 T00111006 10044 20011 53015=
201802081052 METAR KATL 081052Z 32011KT 10SM BKN200 BKN250 02/00 A3032 RMK AO2 SLP273 T00170000=
201802080952 METAR KATL 080952Z 32012KT 10SM BKN200 OVC250 03/01 A3032 RMK AO2 SLP268 T00280006=
201802080852 METAR KATL 080852Z 32012KT 10SM FEW150 OVC200 03/01 A3031 RMK AO2 SLP265 T00280011 51014=
201802080752 METAR KATL 080752Z 33012KT 10SM FEW012 OVC180 03/02 A3030 RMK AO2 SLP261 T00330017=
201802080652 METAR KATL 080652Z 32012KT 10SM FEW012 SCT140 OVC180 04/02 A3028 RMK AO2 SLP257 T00390022=
201802080552 METAR KATL 080552Z 32017KT 10SM FEW012 BKN150 BKN200 04/02 A3026 RMK AO2 SLP250 60000 T00440022 10117 20044 51012=
201802080507 SPECI KATL 080507Z 32015G21KT 10SM SCT012 BKN150 OVC200 05/03 A3028 RMK AO2 T00500028=
201802080452 METAR KATL 080452Z 33014KT 10SM BKN012 BKN200 06/04 A3026 RMK AO2 SLP249 T00560039 401670056=
201802080352 METAR KATL 080352Z 32016KT 10SM BKN014 BKN020 BKN200 07/05 A3025 RMK AO2 SLP246 T00670050=
201802080252 METAR KATL 080252Z 33009KT 10SM BKN015 BKN200 08/07 A3023 RMK AO2 SLP237 60000 T00830067 51018=
201802080222 SPECI KATL 080222Z 33014KT 10SM BKN014 BKN050 BKN200 08/07 A3021 RMK AO2 T00830067=
201802080152 METAR KATL 080152Z 33014KT 10SM FEW007 FEW015 BKN050 BKN200 09/07 A3022 RMK AO2 RAB06E19 SLP234 P0000 T00890067=
201802080138 SPECI KATL 080138Z 32016KT 10SM FEW007 SCT016 OVC045 09/07 A3021 RMK AO2 RAB06E19 P0000 T00890072=
201802080052 METAR KATL 080052Z 31014KT 10SM BKN007 BKN012 OVC030 10/09 A3018 RMK AO2 SLP220 T01000094=
201802080030 SPECI KATL 080030Z 34012KT 10SM BKN007 BKN012 OVC030 11/11 A3018 RMK AO2 T01110106=
201802072352 METAR KATL 072352Z 30012KT 10SM SCT008 BKN012 OVC030 12/11 A3017 RMK AO2 SLP217 BINOVC 60001 T01170111 10167 20117 53031=
201802072252 METAR KATL 072252Z 30015KT 10SM FEW007 BKN018 OVC050 13/12 A3013 RMK AO2 WSHFT 2210 RAB2159E20 SLP202 P0001 T01280117=
201802072230 SPECI KATL 072230Z 31019G23KT 9SM SCT006 BKN010 OVC040 14/13 A3013 RMK AO2 WSHFT 2210 RAB2159E20 P0001 T01390128=
201802072220 SPECI KATL 072220Z 32015G22KT 9SM SCT006 BKN010 OVC040 14/14 A3012 RMK AO2 RAB2159E20 PRESRR P0001 T01440144=
201802072152 METAR KATL 072152Z 27010KT 8SM FEW010 BKN025 OVC050 16/15 A3010 RMK AO2 SLP189 FROPA T01610150=
201802072052 METAR KATL 072052Z 27008KT 10SM FEW010 SCT025 BKN050 OVC150 17/16 A3008 RMK AO2 RAE02 SLP183 P0000 60000 T01670156 53008=
201802072036 SPECI KATL 072036Z 27007KT 10SM SCT026 BKN038 BKN050 17/16 A3007 RMK AO2 RAE02 P0000 T01670156=
201802071952 METAR KATL 071952Z 26008KT 10SM -RA BKN018 BKN050 OVC100 17/15 A3006 RMK AO2 RAB1857E18B37 SLP177 P0000 T01670150=
201802071921 SPECI KATL 071921Z 24010G17KT 10SM BKN018 BKN040 OVC090 17/15 A3007 RMK AO2 RAB1857E18 P0000 T01670150=
201802071852 METAR KATL 071852Z 23006KT 10SM FEW010 SCT040 BKN080 OVC150 16/16 A3005 RMK AO2 RAB1753E10B33E51 SLP174 P0000 T01610156=
201802071815 SPECI KATL 071815Z 24008KT 200V270 10SM BKN010 BKN020 OVC080 16/16 A3008 RMK AO2 RAB1753E10 P0000 T01610156=
201802071752 METAR KATL 071752Z 19007KT 9SM BKN006 BKN010 OVC090 16/16 A3005 RMK AO2 RAE38 SLP175 P0001 60150 T01560156 10161 20150 58020=
201802071744 SPECI KATL 071744Z 20007KT 6SM BR BKN006 BKN060 OVC090 16/16 A3007 RMK AO2 RAE38 P0001 T01560156=
201802071724 SPECI KATL 071724Z 18010KT 2SM -RA BR BKN007 BKN070 OVC090 15/15 A3008 RMK AO2 SFC VIS 5 LTG DSNT E-SE P0001 T01500150=
201802071657 SPECI KATL 071657Z 18008KT 6SM -RA BR BKN007 BKN050 OVC080 15/15 A3009 RMK AO2 LTG DSNT E-SE P0000 T01500150=
201802071652 METAR KATL 071652Z 19006KT 3SM -RA BR SCT005 BKN050 OVC090 15/15 A3010 RMK AO2 SFC VIS 5 TSE41 SLP191 LTG DSNT NE-SE TS MOV NE P0015 T01500150=
201802071641 SPECI KATL 071641Z 20003KT 3SM RA BR FEW005 BKN050 OVC090 15/15 A3011 RMK AO2 SFC VIS 5 TSE41 LTG DSNT NE-SE TS MOV NE P0013 T01500150=
201802071608 SPECI KATL 071608Z 20007KT 3SM TSRA BR FEW005 SCT015CB OVC085 15/15 A3012 RMK AO2 LTG DSNT E-S OCNL LTGICCG OHD-NE-SE-SW TS OHD-NE-SE-SW MOV NE P0005 T01500150=
201802071552 METAR KATL 071552Z 18009KT 3SM TSRA BR FEW005 SCT020CB OVC070 15/15 A3010 RMK AO2 SFC VIS 4 LTG DSNT ALQDS SLP192 OCNL LTGICCA NE-SE-SW TS NE-SE-SW MOV NE P0027 T01500150=
201802071533 SPECI KATL 071533Z 22005KT 3SM TSRA BR SCT020CB BKN040 OVC070 15/15 A3010 RMK AO2 SFC VIS 4 LTG DSNT E-SW OCNL LTGICCA E-SE-S-SW TS E-SE-S-SW MOV NE P0021 T01500150=
201802071515 SPECI KATL 071515Z 23006KT 3SM TSRA BR FEW004 SCT020CB OVC030 15/15 A3012 RMK AO2 SFC VIS 4 LTG DSNT ALQDS OCNL LTGICCA OHD & ALQDS TS OHD & ALQDS MOV NE P0013 T01500150=
201802071452 METAR KATL 071452Z 21007KT 2SM R09R/5500VP6000FT +TSRA BR FEW007 SCT015CB OVC020 15/15 A3011 RMK AO2 WSHFT 1339 TWR VIS 3 LTG DSNT ALQDS SLP195 OCNL LTGICCA OHD & ALQDS TS OHD & ALQDS MOV NE P0094 60107 T01500150 53016=
201802071428 SPECI KATL 071428Z VRB06KT 2SM R09R/3500VP6000FT +TSRA BR SCT005 BKN020CB OVC040 16/16 A3009 RMK AO2 WSHFT 1339 TWR VIS 3 LTG DSNT SW-N OCNL LTGICCA SW-NW TS SW-NW MOV NE P0055 T01560156=
201802071412 SPECI KATL 071412Z 24007KT 3SM TSRA BR SCT005 BKN020CB OVC038 16/16 A3007 RMK AO2 WSHFT 1339 SFC VIS 4 LTG DSNT SW AND W OCNL LTGICCA OHD-ALQDS TS OHD-ALQDS MOV NE CB DSNT SW P0032 T01610156 $=
201802071404 SPECI KATL 071404Z 27010KT 1 1/2SM R09R/5000VP6000FT +TSRA BR SCT005 BKN020CB OVC038 16/16 A3009 RMK AO2 WSHFT 1339 LTG DSNT SW OCNL LTGICCA OHD-ALQDS TS OHD-ALQDS MOV NE CB DSNT SW P0029 T01560156=
201802071352 METAR KATL 071352Z 28020G27KT 1 1/2SM R09R/4000VP6000FT +TSRA BR BKN005 OVC014CB 16/16 A3011 RMK AO2 PK WND 29027/1350 WSHFT 1337 TSB32 PRESRR SLP193 OCNL LTGICCCCA NE-OHD-SW TS NE-OHD-SW MOV NE P0013 T01610161=
201802071334 SPECI KATL 071334Z 19015G22KT 3SM -TSRA BR BKN005 OVC012CB 16/16 A3005 RMK AO2 SFC VIS 5 LTG DSNT W-NE TSB32 OCNL LTGICCCCA SW-NW TS SW-NW MOV E CB DSNT W-N-NE P0003 T01610161=
201802071300 SPECI KATL 071300Z 19012KT 3SM -RA BR OVC005 16/16 A3004 RMK AO2 SFC VIS 5 LTG DSNT W AND NW CIG 004V007 CB DSNT W-NW P0001 T01560156=
201802071252 METAR KATL 071252Z 19012KT 6SM -RA BR OVC006 16/16 A3004 RMK AO2 LTG DSNT W AND NW RAB11 SLP171 CIG 005V008 CB DSNT W P0000 T01560156=
201802071152 METAR KATL 071152Z 19012G19KT 10SM BKN008 OVC014 15/15 A3007 RMK AO2 PK WND 16026/1120 RAE13 SLP178 CIG 007V010 P0009 60017 70017 T01500150 10156 20139 55007=
201802071111 SPECI KATL 071111Z 17014G24KT 10SM -RA FEW008 BKN014 OVC036 15/14 A3006 RMK AO2 P0009 T01500144 $=
201802071102 SPECI KATL 071102Z 17017G24KT 6SM -RA BR SCT016 BKN036 OVC100 15/14 A3005 RMK AO2 LTG DSNT S CB DSNT S P0009 T01500144=
201802071052 METAR KATL 071052Z 17017G22KT 2 1/2SM +RA BR BKN020 OVC040 15/14 A3006 RMK AO2 LTG DSNT S RAB31 SLP175 P0008 T01500139=
201802070952 METAR KATL 070952Z 17009KT 10SM FEW014 BKN024 OVC085 14/12 A3008 RMK AO2 RAB0854E07 SLP180 P0000 T01440122=
201802070933 SPECI KATL 070933Z 16010KT 10SM BKN023 OVC110 14/12 A3008 RMK AO2 RAB0854E07 P0000 T01440122=
201802070909 SPECI KATL 070909Z 16011G18KT 10SM SCT025 BKN040 OVC110 14/12 A3009 RMK AO2 RAB0854E07 P0000 T01390117=
201802070852 METAR KATL 070852Z 15012KT 10SM BKN023 OVC090 14/12 A3009 RMK AO2 RAB03E14B32E49 SLP184 P0000 60000 T01440117 58036=
201802070809 SPECI KATL 070809Z 15007KT 10SM -RA BKN024 OVC080 14/11 A3014 RMK AO2 RAB03 P0000 T01440106=
201802070752 METAR KATL 070752Z 14007KT 10SM BKN033 OVC090 14/11 A3014 RMK AO2 SLP204 T01440106=
201802070652 METAR KATL 070652Z 13005KT 10SM FEW038 BKN095 OVC150 14/09 A3017 RMK AO2 SLP215 T01390094=
201802070552 METAR KATL 070552Z 13004KT 10SM FEW040 BKN100 OVC150 14/09 A3020 RMK AO2 SLP223 T01390094 10172 20139 58016=
201802070452 METAR KATL 070452Z 12005KT 10SM SCT040 BKN120 BKN150 BKN250 14/09 A3022 RMK AO2 SLP232 T01440089 402060044=
201802070352 METAR KATL 070352Z 13004KT 10SM FEW120 BKN150 BKN250 14/08 A3024 RMK AO2 SLP239 T01440083=
201802070252 METAR KATL 070252Z 11007KT 10SM SCT120 BKN200 BKN250 16/08 A3024 RMK AO2 SLP242 T01560083 50002=
201802070152 METAR KATL 070152Z 11006KT 10SM FEW120 SCT200 BKN250 16/08 A3025 RMK AO2 SLP244 T01610083=
201802070052 METAR KATL 070052Z 11005KT 10SM SCT120 SCT250 17/08 A3024 RMK AO2 SLP241 T01670083=
201802062352 METAR KATL 062352Z 10006KT 10SM SCT120 SCT250 17/08 A3024 RMK AO2 SLP239 T01720083 10206 20144 53006=
201802062252 METAR KATL 062252Z 10005KT 10SM SCT120 SCT150 BKN250 19/08 A3023 RMK AO2 SLP237 T01890083=
201802062152 METAR KATL 062152Z 14007KT 10SM FEW100 FEW150 SCT250 21/07 A3022 RMK AO2 SLP233 T02060072=
201802062052 METAR KATL 062052Z 18006KT 10SM FEW100 FEW150 SCT250 19/07 A3022 RMK AO2 SLP233 T01940072 56027=
201802061952 METAR KATL 061952Z 17004KT 10SM FEW050 FEW100 BKN250 18/06 A3023 RMK AO2 SLP237 T01830061=
201802061852 METAR KATL 061852Z VRB04KT 10SM FEW050 SCT090 BKN250 17/06 A3026 RMK AO2 SLP247 T01670056=
201802061752 METAR KATL 061752Z 00000KT 10SM FEW040 SCT050 BKN090 BKN250 14/04 A3030 RMK AO2 SLP263 T01440044 10144 20061 58010=
201802061652 METAR KATL 061652Z 00000KT 10SM FEW040 BKN050 BKN070 BKN250 12/03 A3033 RMK AO2 SLP273 T01170028=
201802061552 METAR KATL 061552Z 10003KT 10SM BKN040 BKN060 OVC080 09/02 A3033 RMK AO2 SLP276 VIRGA DSNT NW-N T00940022=
201802061452 METAR KATL 061452Z 09004KT 10SM BKN045 BKN055 BKN250 09/01 A3033 RMK AO2 SLP275 T00890011 51020=
201802061352 METAR KATL 061352Z 01006KT 10SM SCT046 BKN055 BKN070 08/01 A3031 RMK AO2 SLP269 T00830006=
201802061252 METAR KATL 061252Z 03008KT 10SM FEW065 BKN080 07/00 A3029 RMK AO2 SLP260 T00720000=
201802061152 METAR KATL 061152Z 36005KT 10SM BKN060 OVC075 07/01 A3027 RMK AO2 SLP253 BINOVC T00720006 10072 20044 53008=
201802061052 METAR KATL 061052Z 10003KT 10SM OVC065 07/00 A3024 RMK AO2 SLP243 T00720000=
201802060952 METAR KATL 060952Z 12004KT 10SM OVC065 06/M01 A3023 RMK AO2 SLP240 BINOVC T00611011=
201802060852 METAR KATL 060852Z 00000KT 10SM OVC060 06/M01 A3025 RMK AO2 SLP245 T00561006 50001=
201802060752 METAR KATL 060752Z 00000KT 10SM BKN060 06/M01 A3025 RMK AO2 SLP248 T00561011=
201802060652 METAR KATL 060652Z 10003KT 10SM FEW060 05/M02 A3025 RMK AO2 SLP247 T00501017=
201802060552 METAR KATL 060552Z 12003KT 10SM FEW060 06/M02 A3024 RMK AO2 SLP246 T00561017 10094 20050 53009=
201802060452 METAR KATL 060452Z 07004KT 10SM CLR 06/M01 A3023 RMK AO2 SLP241 T00561011 401170033=
201802060352 METAR KATL 060352Z 10004KT 10SM CLR 06/M01 A3021 RMK AO2 SLP235 T00611011=
201802060252 METAR KATL 060252Z 00000KT 10SM CLR 07/01 A3022 RMK AO2 SLP237 T00670006 53007=
201802060152 METAR KATL 060152Z 04008KT 10SM CLR 09/M01 A3020 RMK AO2 SLP233 T00891006=
201802060052 METAR KATL 060052Z 00000KT 10SM CLR 08/01 A3020 RMK AO2 SLP231 T00780006=
201802052352 METAR KATL 052352Z 00000KT 10SM CLR 09/M01 A3020 RMK AO2 SLP230 T00891006 10117 20072 53009=
201802052252 METAR KATL 052252Z 33004KT 10SM CLR 11/M01 A3018 RMK AO2 SLP224 T01061006=
201802052152 METAR KATL 052152Z 00000KT 10SM CLR 11/M03 A3018 RMK AO2 SLP224 T01111028=
201802052052 METAR KATL 052052Z VRB04KT 10SM CLR 11/M02 A3017 RMK AO2 SLP219 T01111022 55009=
201802051952 METAR KATL 051952Z 32004KT 10SM FEW250 10/M03 A3016 RMK AO2 SLP217 T01001028=
201802051852 METAR KATL 051852Z 00000KT 10SM FEW250 09/M03 A3017 RMK AO2 SLP219 T00891028=
201802051752 METAR KATL 051752Z 33008KT 10SM CLR 07/M02 A3019 RMK AO2 SLP230 T00721022 10078 20033 58001=
201802051652 METAR KATL 051652Z 31007KT 10SM FEW025 06/M01 A3022 RMK AO2 SLP238 T00611011=
201802051552 METAR KATL 051552Z 32010KT 10SM FEW020 05/00 A3022 RMK AO2 SLP238 T00500000=
201802051452 METAR KATL 051452Z 32009KT 10SM FEW018 04/00 A3020 RMK AO2 SLP231 T00390000 51026=
201802051405 SPECI KATL 051405Z 33014KT 10SM SCT016 03/01 A3018 RMK AO2 T00330006=
201802051352 METAR KATL 051352Z 32016KT 10SM BKN017 03/00 A3018 RMK AO2 SLP223 BKN017 V SCT T00330000=
201802051252 METAR KATL 051252Z 33014KT 9SM BKN015 BKN021 04/02 A3015 RMK AO2 SLP213 CIG 013V018 T00390022=
201802051223 SPECI KATL 051223Z 33014KT 8SM SCT012 BKN015 BKN020 04/03 A3013 RMK AO2 T00440033=
201802051152 METAR KATL 051152Z 33014G19KT 10SM BKN011 04/03 A3012 RMK AO2 SLP203 BKN011 V SCT CIG 009V014 70069 T00440033 10056 20039 53018=
201802051149 SPECI KATL 051149Z 32015G19KT 10SM BKN011 04/03 A3011 RMK AO2 BKN011 V SCT CIG 009V014=
201802051106 SPECI KATL 051106Z 32009KT 8SM BKN009 04/04 A3010 RMK AO2 T00440039=
201802051052 METAR KATL 051052Z 30007KT 9SM FEW009 04/03 A3009 RMK AO2 SLP196 T00390033=
201802051025 SPECI KATL 051025Z 29007KT 10SM FEW009 04/04 A3008 RMK AO2 T00390039=
201802050952 METAR KATL 050952Z 28006KT 10SM FEW025 FEW200 04/04 A3008 RMK AO2 SLP190 T00390039=
201802050852 METAR KATL 050852Z 28006KT 10SM CLR 04/04 A3006 RMK AO2 SLP185 T00440039 53005=
201802050752 METAR KATL 050752Z 29008KT 10SM CLR 04/04 A3006 RMK AO2 SLP184 T00440044=
201802050652 METAR KATL 050652Z 30007KT 10SM CLR 05/04 A3005 RMK AO2 SLP179 T00500044=
201802050552 METAR KATL 050552Z 27005KT 10SM CLR 06/04 A3005 RMK AO2 SLP180 T00560044 10089 20056 51006=
201802050452 METAR KATL 050452Z 29004KT 10SM FEW030 07/05 A3004 RMK AO2 SLP178 T00670050 400890017=
201802050352 METAR KATL 050352Z 30010KT 10SM SCT016 BKN030 08/06 A3004 RMK AO2 SLP179 T00780061=
201802050252 METAR KATL 050252Z 30008KT 10SM FEW010 BKN016 OVC028 08/07 A3003 RMK AO2 SLP173 CIG 014V018 BINOVC T00830067 51021=
201802050152 METAR KATL 050152Z 30009KT 10SM OVC023 09/07 A3001 RMK AO2 SLP166 CIG 020V025 T00890067=
201802050052 METAR KATL 050052Z 29007KT 10SM OVC021 09/07 A2999 RMK AO2 SLP161 CIG 019V023 T00890072=
201802042352 METAR KATL 042352Z 27005KT 10SM FEW007 OVC020 08/07 A2997 RMK AO2 SLP152 60000 T00830072 10083 20056 53026=
201802042252 METAR KATL 042252Z 29004KT 10SM FEW007 OVC020 08/07 A2994 RMK AO2 DZB09E49 SLP142 P0000 T00780072=
201802042244 SPECI KATL 042244Z 26003KT 8SM -DZ SCT007 OVC020 08/07 A2994 RMK AO2 DZB09 P0000 T00780072=
201802042152 METAR KATL 042152Z 28006KT 7SM BKN006 OVC010 08/07 A2991 RMK AO2 SLP135 T00780072=
201802042052 METAR KATL 042052Z 28009KT 8SM OVC006 08/07 A2989 RMK AO2 SLP125 T00830072 55003=
201802041952 METAR KATL 041952Z 30004KT 3SM BR OVC005 07/07 A2987 RMK AO2 SLP118 T00720067=
201802041852 METAR KATL 041852Z 30003KT 7SM BKN008 OVC013 07/06 A2988 RMK AO2 SLP121 T00670056=
201802041752 METAR KATL 041752Z 00000KT 10SM BKN008 OVC013 06/04 A2990 RMK AO2 SLP128 60069 T00560044 10056 20017 56010=
201802041652 METAR KATL 041652Z 07003KT 7SM BKN005 OVC010 04/04 A2990 RMK AO2 SLP129 T00440039=
201802041552 METAR KATL 041552Z 12007KT 7SM BKN005 BKN020 OVC030 03/03 A2990 RMK AO2 RAE17 SLP132 P0000 T00330033=
201802041510 SPECI KATL 041510Z 08009KT 7SM -RA BKN005 BKN030 OVC055 03/03 A2992 RMK AO2 P0000 T00280028=
201802041452 METAR KATL 041452Z 08011KT 6SM -RA BR SCT005 BKN015 OVC070 03/02 A2993 RMK AO2 SLP140 P0012 60069 T00280022 58008=
201802041450 SPECI KATL 041450Z 08010KT 7SM -RA SCT005 BKN015 OVC070 03/02 A2993 RMK AO2 P0012=
201802041432 SPECI KATL 041432Z 09010KT 5SM -RA BR SCT005 SCT025 OVC090 02/02 A2993 RMK AO2 P0011 T00220022=
201802041414 SPECI KATL 041414Z 09009KT 4SM RA BR SCT005 BKN025 OVC090 02/02 A2995 RMK AO2 P0008 T00220022=
201802041402 SPECI KATL 041402Z 07012KT 2 1/2SM RA BR BKN005 BKN015 OVC035 02/02 A2995 RMK AO2 PRESFR BKN005 V SCT P0005 T00220022=
201802041352 METAR KATL 041352Z 01008KT 1 3/4SM R09R/5000VP6000FT +RA BR BKN005 BKN015 OVC035 02/02 A3000 RMK AO2 SLP165 BKN005 V SCT CIG 004V008 P0038 T00220022=
201802041332 SPECI KATL 041332Z 33014KT 1 3/4SM R09R/4500VP6000FT +RA BR BKN005 BKN010 OVC014 02/02 A3000 RMK AO2 CIG 004V008 P0022 T00220017=
201802041316 SPECI KATL 041316Z 33013KT 2 1/2SM R09R/6000VP6000FT +RA BR BKN005 OVC010 02/02 A3000 RMK AO2 CIG 004V008 P0012 T00220022=
201802041252 METAR KATL 041252Z 36011KT 4SM RA BR BKN004 OVC017 02/02 A2997 RMK AO2 PRESRR SLP155 CIG 003V007 P0019 T00170017=
201802041224 SPECI KATL 041224Z 09012KT 4SM RA BR BKN004 02/02 A2992 RMK AO2 P0010 T00170017=
201802041152 METAR KATL 041152Z 06013KT 5SM RA BR OVC005 02/02 A2995 RMK AO2 SLP149 P0023 60074 70074 T00220017 10061 20017 58028=
201802041137 SPECI KATL 041137Z 07015KT 5SM -RA BR BKN004 OVC014 02/02 A2995 RMK AO2 P0021 T00170017=
201802041112 SPECI KATL 041112Z 05013KT 2 1/2SM +RA BR BKN006 BKN010 OVC017 02/02 A2999 RMK AO2 CIG 005V008 P0011 T00220017=
201802041103 SPECI KATL 041103Z 05014KT 3SM +RA BR BKN006 BKN015 OVC027 02/02 A2999 RMK AO2 CIG 005V008 P0005 T00170017=
201802041052 METAR KATL 041052Z 04012KT 2 1/2SM +RA BR BKN006 OVC013 02/02 A3001 RMK AO2 SLP167 CIG 005V009 P0028 T00170017=
201802041040 SPECI KATL 041040Z 03012KT 2 1/2SM +RA BR BKN006 BKN013 OVC020 02/02 A3001 RMK AO2 P0020 T00170017=
201802041025 SPECI KATL 041025Z 07014KT 4SM -RA BR BKN006 BKN013 OVC020 02/02 A2997 RMK AO2 P0016 T00220017=
201802041018 SPECI KATL 041018Z 07015KT 2 1/2SM +RA BR SCT007 BKN013 OVC020 02/02 A2998 RMK AO2 PRESFR P0013 T00220017=
201802040952 METAR KATL 040952Z 07011KT 4SM RA BR FEW005 OVC014 02/02 A3002 RMK AO2 SLP169 P0011 T00220017=
201802040926 SPECI KATL 040926Z 09010KT 6SM -RA BR FEW005 OVC014 03/02 A3003 RMK AO2 P0004 T00280017=
201802040852 METAR KATL 040852Z 09010KT 6SM RA BR FEW008 BKN019 OVC024 03/02 A3004 RMK AO2 PRESFR SLP177 P0010 60012 T00280017 56030=
201802040849 SPECI KATL 040849Z 09010KT 5SM RA BR FEW008 BKN019 OVC024 03/02 A3005 RMK AO2 PRESFR P0009=
201802040752 METAR KATL 040752Z 12007KT 7SM -RA FEW019 BKN024 OVC070 04/00 A3009 RMK AO2 RAB0655 SLP193 P0002 T00440000=
201802040652 METAR KATL 040652Z 11010KT 10SM BKN025 OVC031 06/M05 A3013 RMK AO2 SLP207 VIRGA OHD-NW T00611050=
201802040552 METAR KATL 040552Z 11010KT 10SM BKN025 OVC032 06/M06 A3017 RMK AO2 SLP222 VIRGA OHD-NW-N T00611061 10078 20061 58018=
201802040540 SPECI KATL 040540Z 12011G17KT 10SM BKN025 OVC037 06/M07 A3018 RMK AO2 VIRGA OHD-SW-NW T00611067=
201802040517 SPECI KATL 040517Z 12010KT 10SM SCT027 OVC037 06/M07 A3019 RMK AO2 VIRGA N-E-S T00611067=
201802040452 METAR KATL 040452Z 11010G17KT 10SM BKN027 OVC038 06/M07 A3020 RMK AO2 SLP231 VIRGA OHD-ALQDS T00611072 401000000=
201802040435 SPECI KATL 040435Z 12010G17KT 10SM BKN027 BKN040 OVC120 06/M07 A3021 RMK AO2 VIRGA OHD-ALQDS T00611072=
201802040352 METAR KATL 040352Z 11010KT 10SM SCT085 BKN130 OVC180 06/M08 A3022 RMK AO2 SLP238 VIRGA NE-E T00611078=
201802040252 METAR KATL 040252Z 12010KT 10SM SCT085 BKN140 OVC180 07/M08 A3023 RMK AO2 SLP241 VIRGA NW-NE T00671078 58006=
201802040152 METAR KATL 040152Z 11008KT 10SM SCT080 BKN130 OVC200 07/M08 A3023 RMK AO2 SLP245 VIRGA W-NW-NE T00671078=
201802040052 METAR KATL 040052Z 11009KT 10SM FEW120 BKN160 OVC200 07/M07 A3024 RMK AO2 SLP248 VIRGA SW-NW-NE T00721072=
201802032352 METAR KATL 032352Z 11007KT 10SM FEW140 BKN170 BKN250 08/M07 A3024 RMK AO2 SLP248 VIRGA E-SE & W-NW T00781072 10100 20072 55005=
201802032252 METAR KATL 032252Z 12007KT 10SM FEW150 BKN180 BKN250 08/M08 A3024 RMK AO2 SLP247 VIRGA S-W T00831078=
201802032152 METAR KATL 032152Z 14008KT 10SM FEW170 BKN250 BKN300 09/M08 A3025 RMK AO2 SLP251 T00891083=
201802032052 METAR KATL 032052Z 14009KT 10SM FEW170 BKN250 BKN300 09/M09 A3026 RMK AO2 SLP253 T00941094 56033=
201802031952 METAR KATL 031952Z 15009KT 10SM FEW170 BKN250 BKN300 09/M09 A3028 RMK AO2 SLP260 T00891089=
201802031852 METAR KATL 031852Z 11009G15KT 10SM FEW160 BKN250 BKN300 09/M09 A3031 RMK AO2 SLP270 T00891094=
201802031752 METAR KATL 031752Z 11008KT 10SM SCT160 BKN250 BKN300 07/M09 A3036 RMK AO2 SLP288 T00721094 10072 20000 58020=
201802031652 METAR KATL 031652Z 11007KT 10SM BKN160 BKN250 06/M10 A3040 RMK AO2 SLP303 T00611100=
201802031552 METAR KATL 031552Z 10010KT 10SM BKN160 BKN250 04/M11 A3042 RMK AO2 SLP309 T00391106=
201802031452 METAR KATL 031452Z 11007KT 10SM BKN160 BKN250 02/M10 A3042 RMK AO2 SLP310 T00171100 51008=
201802031352 METAR KATL 031352Z 11008KT 10SM BKN150 BKN200 01/M10 A3041 RMK AO2 SLP307 T00061100=
201802031252 METAR KATL 031252Z 13007KT 10SM BKN150 00/M10 A3041 RMK AO2 SLP307 T00001100=
201802031152 METAR KATL 031152Z 12006KT 10SM BKN150 00/M09 A3040 RMK AO2 SLP302 T00001094 10006 20000 53003=
201802031052 METAR KATL 031052Z 08007KT 10SM BKN150 00/M08 A3038 RMK AO2 SLP298 T00001083=
201802030952 METAR KATL 030952Z 04007KT 10SM OVC150 00/M11 A3038 RMK AO2 SLP297 T00001106=
201802030852 METAR KATL 030852Z 01005KT 10SM OVC150 00/M11 A3039 RMK AO2 SLP298 T00001106 56006=
201802030752 METAR KATL 030752Z 01005KT 10SM OVC150 00/M11 A3039 RMK AO2 SLP299 T00001106=
201802030652 METAR KATL 030652Z 34005KT 10SM OVC150 00/M11 A3040 RMK AO2 SLP302 T00001111=
201802030552 METAR KATL 030552Z 34007KT 10SM OVC150 00/M11 A3041 RMK AO2 SLP305 T00001111 10017 20000 50000=
201802030452 METAR KATL 030452Z 34010KT 10SM BKN180 00/M12 A3041 RMK AO2 SLP305 T00001117 400780000=
201802030352 METAR KATL 030352Z 33012KT 10SM BKN180 00/M11 A3040 RMK AO2 SLP305 T00001106=
201802030252 METAR KATL 030252Z 34010G17KT 10SM FEW150 00/M11 A3040 RMK AO2 SLP305 T00001106 50003=
201802030152 METAR KATL 030152Z 33010KT 10SM CLR 01/M10 A3041 RMK AO2 SLP306 T00061100=
201802030052 METAR KATL 030052Z 33011KT 10SM CLR 01/M11 A3041 RMK AO2 SLP306 T00111111=
201802022352 METAR KATL 022352Z 32013KT 10SM FEW250 02/M11 A3040 RMK AO2 SLP302 T00171106 10056 20017 52010=
201802022252 METAR KATL 022252Z 32014KT 10SM FEW250 03/M12 A3039 RMK AO2 SLP297 T00331117=
201802022152 METAR KATL 022152Z 33010KT 10SM SCT250 04/M11 A3037 RMK AO2 SLP293 T00441111=
201802022052 METAR KATL 022052Z 33014G22KT 10SM SCT250 SCT300 05/M12 A3036 RMK AO2 SLP288 T00501122 55005=
201802021952 METAR KATL 021952Z 33018G25KT 10SM SCT250 SCT300 06/M12 A3035 RMK AO2 SLP284 T00561117=
201802021852 METAR KATL 021852Z 31017G22KT 10SM SCT250 BKN300 05/M11 A3036 RMK AO2 SLP284 T00501106=
201802021752 METAR KATL 021752Z 33019G25KT 10SM BKN250 04/M09 A3038 RMK AO2 SLP293 T00391094 10044 20011 50005=
201802021652 METAR KATL 021652Z 32017G22KT 10SM BKN250 04/M08 A3039 RMK AO2 SLP297 T00391078=
201802021552 METAR KATL 021552Z 33012G20KT 10SM FEW150 SCT180 BKN250 03/M06 A3038 RMK AO2 SLP292 T00331056=
201802021452 METAR KATL 021452Z 32015KT 10SM FEW150 SCT180 BKN250 02/M07 A3036 RMK AO2 SLP287 T00171067 51035=
201802021352 METAR KATL 021352Z 33015KT 10SM FEW026 SCT180 BKN250 01/M05 A3033 RMK AO2 SLP275 T00111050=
201802021252 METAR KATL 021252Z 32011G20KT 10SM FEW022 FEW110 BKN200 BKN250 02/M03 A3030 RMK AO2 SLP263 T00171028=
201802021152 METAR KATL 021152Z 32013KT 10SM FEW020 FEW110 SCT200 BKN250 02/M01 A3026 RMK AO2 SLP249 60001 70009 T00171011 10067 20017 51024=
201802021052 METAR KATL 021052Z 33010KT 10SM SCT022 SCT200 BKN250 03/00 A3023 RMK AO2 PK WND 32027/0958 SLP239 T00280000=
201802020952 METAR KATL 020952Z 32019G26KT 10SM SCT020 SCT110 BKN200 BKN250 03/01 A3022 RMK AO2 PK WND 33027/0936 SLP234 T00330006=
201802020852 METAR KATL 020852Z 33016G24KT 10SM FEW018 SCT070 BKN100 BKN200 04/02 A3019 RMK AO2 PK WND 33028/0820 SLP223 60001 T00440017 53024=
201802020752 METAR KATL 020752Z 33016G26KT 10SM FEW014 SCT050 OVC085 05/03 A3016 RMK AO2 PK WND 32028/0730 RAE21 SLP214 P0000 T00500028=
201802020652 METAR KATL 020652Z 32016G23KT 10SM -RA FEW010 BKN036 OVC055 06/04 A3013 RMK AO2 PK WND 32026/0553 RAE0554B50 SLP205 P0001 T00610044=
201802020552 METAR KATL 020552Z 33019G27KT 10SM -RA FEW007 SCT018 OVC065 07/06 A3011 RMK AO2 PK WND 32030/0536 SLP198 P0000 60008 T00670056 10150 20067 53024=
201802020452 METAR KATL 020452Z 33023G29KT 7SM -RA SCT007 BKN015 OVC050 08/07 A3008 RMK AO2 PK WND 32030/0433 WSHFT 0429 RAB10 SLP188 P0008 T00780072 401780044=
201802020445 SPECI KATL 020445Z 32022G26KT 5SM RA BR FEW007 SCT012 OVC040 08/08 A3008 RMK AO2 PK WND 32030/0433 WSHFT 0429 RAB10 P0007 T00830083=
201802020436 SPECI KATL 020436Z 32024G30KT 2 1/2SM +RA BR SCT012 BKN020 OVC080 12/11 A3007 RMK AO2 PK WND 32030/0433 RAB10 PRESRR P0000 T01170106=
201802020352 METAR KATL 020352Z 22013G20KT 10SM FEW014 SCT060 BKN080 BKN250 13/12 A3002 RMK AO2 SLP166 VCSH W-N T01330117=
201802020252 METAR KATL 020252Z 21012KT 10SM SCT100 BKN250 14/11 A3004 RMK AO2 SLP174 T01390111 58009=
201802020152 METAR KATL 020152Z 21010KT 10SM FEW070 BKN100 BKN200 14/11 A3006 RMK AO2 SLP179 T01390111=
201802020052 METAR KATL 020052Z 20011KT 10SM BKN070 BKN090 BKN200 14/11 A3006 RMK AO2 SLP180 T01440106=
201802012352 METAR KATL 012352Z 20011KT 10SM FEW040 BKN080 BKN200 15/11 A3007 RMK AO2 SLP183 T01500106 10178 20150 50002=
201802012252 METAR KATL 012252Z 21011KT 10SM SCT040 BKN070 BKN250 16/10 A3007 RMK AO2 SLP185 T01610100=
201802012152 METAR KATL 012152Z 23009KT 10SM FEW030 BKN040 BKN070 BKN250 17/09 A3007 RMK AO2 SLP182 T01670094=
201802012052 METAR KATL 012052Z 23011G17KT 10SM FEW040 SCT050 BKN060 BKN250 17/09 A3006 RMK AO2 SLP181 T01720094 56016=
201802011952 METAR KATL 011952Z 24014G24KT 10SM SCT040 BKN050 BKN060 BKN150 17/09 A3007 RMK AO2 SLP184 T01670089=
201802011852 METAR KATL 011852Z 25014G20KT 10SM BKN035 BKN060 BKN150 17/09 A3008 RMK AO2 SLP186 T01670094=
201802011752 METAR KATL 011752Z 22012KT 10SM FEW027 FEW060 BKN150 BKN250 16/10 A3011 RMK AO2 SLP197 T01560100 10161 20061 56018=
201802011652 METAR KATL 011652Z 21012G21KT 10SM BKN025 BKN060 BKN250 14/08 A3016 RMK AO2 SLP213 T01390083=
201802011552 METAR KATL 011552Z 21012G18KT 10SM FEW025 BKN060 BKN250 11/06 A3017 RMK AO2 SLP218 T01110056=
201802011452 METAR KATL 011452Z 22006KT 10SM FEW020 FEW050 BKN060 09/03 A3018 RMK AO2 SLP221 T00940033 53004=
201802011352 METAR KATL 011352Z 22004KT 10SM SCT024 OVC050 07/01 A3017 RMK AO2 SLP219 BINOVC T00720011=
201802011252 METAR KATL 011252Z 21005KT 10SM FEW018 OVC050 07/00 A3016 RMK AO2 SLP217 BINOVC T00670000=
