##########################################################
# Query made at 04/20/2024 00:02:27 UTC
# Time interval: from 12/01/2018 12:00  to 12/31/2018 12:59  UTC
##########################################################

##########################################################
# KATL, Atlanta, Hartsfield - Jackson Atlanta International Airport (United States)
# WMO index: 72219. WIGOS ID: 0-20000-0-72219
# Latitude 33-38-59N. Longitude 084-25-00W. Altitude 312 m.
##########################################################

201812311252 METAR KATL 311252Z 12006KT 1/4SM R09R/2400V3000FT FG VV002 14/13 A3013 RMK AO2 SFC VIS 1/2 SLP200 T01390133=
201812311152 METAR KATL 311152Z 12006KT 1/4SM R09R/4000FT BR OVC002 14/13 A3012 RMK AO2 SFC VIS 3/4 DZB01E40 SLP197 P0000 60001 70018 T01390128 10139 20128 55001=
201812311052 METAR KATL 311052Z 15007KT 110V170 1/4SM R09R/2600V4000FT FG VV002 13/13 A3011 RMK AO2 SFC VIS 1/2 DZE49 SLP195 P0001 T01330128=
201812311003 SPECI KATL 311003Z 11008KT 1/4SM R09R/2000V2600FT -DZ FG VV002 13/12 A3010 RMK AO2 P0000 T01330122=
201812310952 METAR KATL 310952Z 11006KT 1/4SM R09R/1800V2000FT -DZ FG VV002 13/13 A3010 RMK AO2 SLP192 P0000 T01330128=
201812310852 METAR KATL 310852Z 11005KT 1/4SM R09R/1400V1600FT -DZ FG VV002 13/12 A3012 RMK AO2 TWR VIS 1/4 SLP199 P0000 60000 T01330122 58005=
201812310752 METAR KATL 310752Z 10005KT 1/4SM R09R/1600V1800FT -DZ FG VV002 13/12 A3013 RMK AO2 SLP203 P0000 T01280122=
201812310652 METAR KATL 310652Z 11004KT 1/4SM R09R/2400V3000FT -DZ FG VV002 13/12 A3013 RMK AO2 SFC VIS 1/2 SLP201 P0000 T01280122=
201812310552 METAR KATL 310552Z 11007KT 1/4SM R09R/2400V2800FT -DZ FG VV002 13/12 A3013 RMK AO2 SFC VIS 1/2 SLP204 P0000 60003 T01280117 10128 20122 58007=
201812310452 METAR KATL 310452Z 12006KT 1/4SM R09R/3500V6000FT -DZ BR VV002 13/12 A3015 RMK AO2 SFC VIS 3/4 RAB04E16 SLP208 P0000 T01280117 401280106=
201812310352 METAR KATL 310352Z 11006KT 1/4SM R09R/3000V3500FT -DZ FG VV002 13/12 A3016 RMK AO2 SFC VIS 1/2 DZE08B46RAB08E46 SLP211 P0000 T01280117=
201812310252 METAR KATL 310252Z 11007KT 1/2SM R09R/P6000FT -DZ BR OVC002 13/12 A3016 RMK AO2 SFC VIS 2 DZE27B47RAB27E47 SLP213 CIG 001V003 TWRINC P0000 60003 T01280117 58002=
201812310152 METAR KATL 310152Z 09006KT 1/2SM R09R/P6000FT -DZ BR OVC002 13/12 A3017 RMK AO2 SFC VIS 3 RAE49DZB49 SLP216 CIG 001V003 TWRINC P0003 T01280117=
201812310052 METAR KATL 310052Z 10006KT 1/2SM R09R/P6000FT -RA BR OVC002 12/12 A3016 RMK AO2 SFC VIS 2 RAB48 SLP214 CIG 001V003 TWRINC P0000 T01220117=
201812302352 METAR KATL 302352Z 10005KT 1/2SM R09R/P6000FT BR OVC002 12/11 A3016 RMK AO2 SFC VIS 3 DZE49 SLP215 CIG 002V004 TWRINC P0000 60013 T01220111 10128 20117 53008=
201812302252 METAR KATL 302252Z 11006KT 1/2SM R09R/P6000FT -DZ OVC004 12/11 A3016 RMK AO2 SFC VIS 8 DZB11 SLP213 CIG 003V005 TWRINC P0000 T01220111=
201812302221 SPECI KATL 302221Z 11006KT 1/2SM R09R/P6000FT -DZ OVC004 13/11 A3015 RMK AO2 SFC VIS 8 DZB11 CIG 003V005 TWRINC P0000 T01280111=
201812302152 METAR KATL 302152Z 08007KT 040V100 1 1/2SM BR BKN004 OVC008 13/11 A3014 RMK AO2 SFC VIS 5 SLP208 T01280111=
201812302150 SPECI KATL 302150Z 08007KT 1 1/2SM BR BKN004 OVC008 13/11 A3014 RMK AO2 SFC VIS 5=
201812302102 SPECI KATL 302102Z 09007KT 3/4SM R09R/P6000FT BR BKN004 OVC010 12/11 A3014 RMK AO2 SFC VIS 4 T01220111=
201812302052 METAR KATL 302052Z 11004KT 1 1/2SM BR BKN005 OVC010 12/11 A3014 RMK AO2 SFC VIS 4 RAB1953E05 SLP207 P0000 60013 T01220111 55003=
201812302043 SPECI KATL 302043Z 09004KT 1 1/2SM BR BKN005 OVC012 12/11 A3014 RMK AO2 SFC VIS 4 RAB1953E05 P0000 T01220111=
201812301952 METAR KATL 301952Z 11003KT 1 1/2SM BR BKN004 OVC017 12/11 A3014 RMK AO2 SFC VIS 4 DZE1857RAB1857E49 SLP206 P0013 T01220111=
201812301950 SPECI KATL 301950Z 11003KT 1 1/2SM BR BKN004 OVC017 12/11 A3013 RMK AO2 SFC VIS 4 DZE1857RAB1857E49 P0013=
201812301852 METAR KATL 301852Z 07005KT 1/2SM R09R/4000V6000FT -DZ BR BKN003 OVC008 12/11 A3014 RMK AO2 SFC VIS 1 DZB21 SLP206 P0000 T01170106=
201812301813 SPECI KATL 301813Z 09005KT 3/4SM R09R/P6000FT BR BKN003 OVC010 12/11 A3014 RMK AO2 SFC VIS 1 1/2 T01170106=
201812301752 METAR KATL 301752Z 08005KT 3/4SM R09R/P6000FT BR BKN005 OVC010 12/10 A3015 RMK AO2 SFC VIS 2 1/2 SLP210 60001 T01170100 10117 20106 58021=
201812301735 SPECI KATL 301735Z 05006KT 3/4SM R09R/P6000FT BR BKN005 OVC010 12/10 A3015 RMK AO2 SFC VIS 2 1/2 T01170100=
201812301652 METAR KATL 301652Z 09006KT 1 1/2SM BR BKN005 OVC010 12/10 A3017 RMK AO2 SFC VIS 4 DZE51 SLP217 P0000 T01170100=
201812301623 SPECI KATL 301623Z 10006KT 1 1/2SM -DZ BR BKN005 OVC010 12/10 A3019 RMK AO2 SFC VIS 2 1/2 P0000 T01170100=
201812301552 METAR KATL 301552Z 08006KT 3/4SM R09R/P6000FT -DZ BR BKN005 OVC010 11/09 A3020 RMK AO2 SFC VIS 1 1/2 SLP228 P0001 T01110094=
201812301510 SPECI KATL 301510Z 08005KT 3/4SM R09R/P6000FT -DZ BR OVC005 11/09 A3022 RMK AO2 SFC VIS 1 1/2 P0000 T01060094=
201812301452 METAR KATL 301452Z 07006KT 1 1/2SM -DZ BR BKN005 OVC010 11/09 A3021 RMK AO2 DZB09 SLP232 P0000 60000 T01060089 50011=
201812301449 SPECI KATL 301449Z 06006KT 1 1/2SM -DZ BR BKN005 OVC010 11/09 A3021 RMK AO2 SFC VIS 2 DZB09 P0000=
201812301410 SPECI KATL 301410Z 09007KT 2 1/2SM -DZ BR SCT008 OVC012 11/09 A3020 RMK AO2 SFC VIS 3 DZB09 P0000 T01060089=
201812301352 METAR KATL 301352Z 09009KT 6SM BR SCT008 OVC012 11/09 A3019 RMK AO2 SLP223 T01060089=
201812301252 METAR KATL 301252Z 06008KT 7SM SCT008 OVC014 11/09 A3018 RMK AO2 RAE07 SLP220 P0000 T01060089=
201812301212 SPECI KATL 301212Z 05007KT 8SM FEW007 OVC015 11/09 A3016 RMK AO2 RAE07 P0000 T01060089=
201812301152 METAR KATL 301152Z 07005KT 9SM -RA FEW007 OVC014 11/09 A3016 RMK AO2 RAE32B47 SLP214 P0000 60020 70020 T01060089 10117 20106 53005=
201812301141 SPECI KATL 301141Z 08005KT 10SM FEW008 OVC014 11/08 A3016 RMK AO2 RAE32 P0000 T01060083=
201812301052 METAR KATL 301052Z 00000KT 6SM -RA BR OVC016 11/08 A3016 RMK AO2 SLP211 P0002 T01060083=
201812300952 METAR KATL 300952Z 09006KT 4SM RA BR FEW009 OVC018CB 11/08 A3014 RMK AO2 LTG DSNT N AND NW RAB20 TSB35E51 SLP204 TS DSIPT CB VC NW-N MOV NE P0008 T01060083=
201812300935 SPECI KATL 300935Z 10003KT 4SM TSRA BR FEW009 OVC018CB 11/08 A3014 RMK AO2 LTG DSNT W AND NW RAB20 TSB35 OCNL LTGICCG W & DSNT NW TS VC W MOV NE P0002 T01060083=
201812300852 METAR KATL 300852Z 12005KT 10SM BKN021 OVC027 11/08 A3015 RMK AO2 LTG DSNT W RAE33 SLP208 OCNL LTGIC DSNT NW CB DSNT NW P0003 60010 T01060083 58011=
201812300752 METAR KATL 300752Z 05005KT 9SM -RA OVC024 11/08 A3018 RMK AO2 RAB50 SLP218 P0000 T01110083=
201812300652 METAR KATL 300652Z 00000KT 10SM OVC028 11/08 A3019 RMK AO2 RAE36 SLP224 P0007 T01060083=
201812300646 SPECI KATL 300646Z 00000KT 10SM OVC028 11/08 A3020 RMK AO2 RAE36 P0007=
201812300616 SPECI KATL 300616Z 00000KT 4SM RA FEW027 OVC034 11/08 A3018 RMK AO2 OCNL LTGIC DSNT NE CB DSNT NE P0007 T01060078=
201812300552 METAR KATL 300552Z 04004KT 10SM -RA BKN038 OVC060 11/07 A3018 RMK AO2 RAB12E23B52 SLP220 OCNL LTGIC DSNT NW-N CB DSNT NW-N P0000 60000 T01110072 10139 20106 58007=
201812300452 METAR KATL 300452Z 33008KT 10SM FEW024 BKN050 OVC080 11/07 A3020 RMK AO2 RAB25E36 SLP227 VIRGA OHD-ALQDS P0000 T01110072 401670094=
201812300352 METAR KATL 300352Z 34008KT 10SM BKN055 OVC100 12/07 A3019 RMK AO2 PRESFR SLP223 T01170072=
201812300252 METAR KATL 300252Z 31009KT 10SM BKN055 OVC100 12/08 A3020 RMK AO2 RAE43 SLP229 P0000 60000 T01220078 51004=
201812300152 METAR KATL 300152Z 33005KT 10SM -RA SCT055 OVC090 13/08 A3020 RMK AO2 RAB03 SLP227 PCPN VRY LGT P0000 T01280078=
201812300052 METAR KATL 300052Z 31004KT 10SM SCT085 BKN100 OVC140 13/07 A3020 RMK AO2 SLP227 VIRGA OHD-ALQDS T01330072=
201812292352 METAR KATL 292352Z 34007KT 10SM SCT100 BKN120 OVC200 14/07 A3019 RMK AO2 SLP224 VIRGA E-OHD-W ACC OHD-ALQDS T01390067 10167 20139 53002=
201812292252 METAR KATL 292252Z 32006KT 10SM SCT120 BKN150 BKN200 OVC250 14/06 A3019 RMK AO2 SLP223 ACC E-OHD-W VIRGA E-S T01440061=
201812292152 METAR KATL 292152Z 32003KT 10SM SCT120 SCT170 BKN250 BKN300 16/06 A3018 RMK AO2 SLP219 T01560056=
201812292052 METAR KATL 292052Z 31004KT 10SM FEW120 SCT150 BKN250 BKN300 16/06 A3018 RMK AO2 SLP220 T01610056 55005=
201812291952 METAR KATL 291952Z 33008KT 10SM FEW150 BKN250 BKN300 16/07 A3018 RMK AO2 SLP219 T01560067=
201812291852 METAR KATL 291852Z 30008KT 10SM FEW150 BKN250 BKN300 16/08 A3020 RMK AO2 SLP224 T01560078=
201812291752 METAR KATL 291752Z 35009KT 10SM FEW018 FEW150 BKN250 BKN300 15/09 A3020 RMK AO2 SLP225 T01500089 10150 20094 58022=
201812291652 METAR KATL 291652Z 33008KT 10SM FEW014 FEW150 BKN250 BKN300 14/09 A3023 RMK AO2 SLP237 T01390094=
201812291552 METAR KATL 291552Z 31005KT 8SM FEW005 FEW150 BKN250 BKN300 12/09 A3027 RMK AO2 SLP250 T01170094=
201812291534 SPECI KATL 291534Z 30005KT 7SM SCT002 SCT150 BKN250 11/09 A3027 RMK AO2 T01110094=
201812291452 METAR KATL 291452Z 30005KT 1SM R09R/2400VP6000FT BR SCT002 SCT150 BKN250 10/09 A3027 RMK AO2 SFC VIS 2 1/2 SLP249 VIS S & W 1 1/4 T01000089 51023=
201812291426 SPECI KATL 291426Z 30006KT 1 1/4SM R09R/4500VP6000FT BR SCT002 SCT150 BKN250 10/09 A3027 RMK AO2 SFC VIS 2 1/2 T01000089=
201812291352 METAR KATL 291352Z 31006KT 3/4SM R09R/3000V5500FT BR BKN002 BKN250 09/09 A3025 RMK AO2 SLP245 VIS NW-NE 1/2 T00940089=
201812291252 METAR KATL 291252Z 33007KT 3/4SM R09R/3500VP6000FT BR VV002 09/08 A3023 RMK AO2 SLP235 T00940083=
201812291217 SPECI KATL 291217Z 31007KT 2SM R09R/2200V6000FT BR BKN002 BKN028 BKN250 09/08 A3021 RMK AO2 SFC VIS 3 VIS NW-NE-E 2 BKN002 V SCT T00940083=
201812291152 METAR KATL 291152Z 32007KT 5SM BR FEW002 SCT028 09/08 A3019 RMK AO2 SLP225 VIS LWR N-NE & S-SW 70156 T00940083 10122 20094 53011=
201812291140 SPECI KATL 291140Z 31007KT 6SM BR FEW003 SCT028 10/09 A3020 RMK AO2 VIS LWR NW-NE T01000089=
201812291117 SPECI KATL 291117Z 31007KT 6SM BR BKN028 BKN250 10/09 A3020 RMK AO2 T01000094=
201812291052 METAR KATL 291052Z 31007KT 8SM SCT028 SCT250 10/09 A3018 RMK AO2 SLP219 T01000089=
201812290959 SPECI KATL 290959Z 32006KT 10SM SCT028 10/09 A3015 RMK AO2 T01000094=
201812290952 METAR KATL 290952Z 32007KT 10SM BKN028 11/09 A3015 RMK AO2 SLP210 BKN028 V SCT T01060094=
201812290927 SPECI KATL 290927Z 31006KT 10SM SCT028 10/09 A3015 RMK AO2 T01000089=
201812290852 METAR KATL 290852Z 28004KT 10SM BKN023 BKN250 11/09 A3016 RMK AO2 SLP212 VIS LWR S-SW BKN023 V SCT T01060094 53012=
201812290841 SPECI KATL 290841Z 26003KT 6SM R09R/4500VP6000FT BCFG FEW002 BKN023 BKN250 11/09 A3016 RMK AO2 VIS E-S-SW 1 T01060094=
201812290752 METAR KATL 290752Z 31006KT 10SM FEW030 SCT250 11/09 A3014 RMK AO2 SLP205 T01060094=
201812290652 METAR KATL 290652Z 31007KT 10SM FEW030 SCT250 11/10 A3013 RMK AO2 SLP200 T01110100=
201812290552 METAR KATL 290552Z 31005KT 7SM MIFG FEW030 SCT250 12/11 A3012 RMK AO2 SLP199 T01170106 10156 20111 50004=
201812290452 METAR KATL 290452Z 00000KT 9SM FEW030 SCT250 13/11 A3013 RMK AO2 SLP200 T01280111 401720106=
201812290352 METAR KATL 290352Z 31004KT 10SM FEW025 BKN250 13/12 A3011 RMK AO2 SLP195 T01330122=
201812290252 METAR KATL 290252Z 00000KT 7SM BCFG FEW005 BKN025 BKN200 15/14 A3011 RMK AO2 SLP193 VIS LWR SW-NW T01500139 51017=
201812290152 METAR KATL 290152Z 00000KT 6SM R09R/4000VP6000FT BCFG BR SCT002 BKN020 BKN200 15/14 A3010 RMK AO2 SLP191 VIS SW-NW-N 1 T01500144=
201812290138 SPECI KATL 290138Z 00000KT 6SM BR SCT002 BKN006 BKN025 BKN200 15/14 A3010 RMK AO2 VIS SW-NW 1 T01500139=
201812290110 SPECI KATL 290110Z 27003KT 10SM SCT003 BKN025 BKN200 15/14 A3009 RMK AO2 SCT003 V BKN T01500139=
201812290052 METAR KATL 290052Z 30004KT 10SM FEW008 SCT025 BKN200 14/13 A3008 RMK AO2 SLP185 SCT025 V BKN T01440133=
201812290009 SPECI KATL 290009Z 00000KT 10SM BKN025 BKN150 OVC200 16/14 A3007 RMK AO2 T01560139=
201812282352 METAR KATL 282352Z 00000KT 10SM SCT028 BKN150 OVC200 16/14 A3006 RMK AO2 SLP178 T01560139 10172 20156 53013=
201812282252 METAR KATL 282252Z 00000KT 10SM SCT016 BKN035 BKN150 OVC200 16/14 A3006 RMK AO2 SLP177 VIRGA NE-OHD-SW T01610144=
201812282235 SPECI KATL 282235Z 28007KT 10SM BKN016 BKN110 OVC150 16/14 A3006 RMK AO2 PRESRR T01610144=
201812282152 METAR KATL 282152Z 32006KT 10SM SCT021 SCT100 OVC140 17/14 A3002 RMK AO2 SLP163 VIRGA OHD & ALQDS T01670139=
201812282147 SPECI KATL 282147Z VRB03KT 10SM SCT021 SCT100 OVC140 16/14 A3002 RMK AO2 VIRGA OHD & ALQDS=
201812282052 METAR KATL 282052Z 26003KT 10SM SCT020 BKN110 OVC150 17/14 A3004 RMK AO2 SLP171 VIRGA OHD & ALQDS T01670144 53029=
201812282031 SPECI KATL 282031Z 28003KT 10SM BKN020 BKN110 OVC150 17/14 A3002 RMK AO2 T01670144=
201812281952 METAR KATL 281952Z 27005KT 10SM FEW010 SCT018 BKN110 OVC150 17/14 A3002 RMK AO2 SLP164 VIRGA OHD & ALQDS T01720139=
201812281852 METAR KATL 281852Z VRB05KT 10SM FEW005 SCT070 BKN110 OVC140 17/14 A2996 RMK AO2 SLP145 VIRGA OHD & ALQDS T01720139=
201812281752 METAR KATL 281752Z 22005KT 10SM FEW005 SCT070 BKN120 OVC150 17/15 A2995 RMK AO2 RAE11 SLP141 VIRGA OHD ALQDS P0002 60156 T01670150 10172 20111 58032=
201812281716 SPECI KATL 281716Z 16009KT 10SM FEW003 SCT070 OVC110 16/15 A2996 RMK AO2 RAE11 P0002 T01610150=
201812281709 SPECI KATL 281709Z 16013G21KT 1/2SM R09R/P6000FT -RA SCT003 SCT070 OVC100 16/15 A2995 RMK AO2 SFC VIS 9 LTG DSNT SE TWRINC P0002 T01610150=
201812281652 METAR KATL 281652Z 17005KT 5SM RA BR FEW050 SCT080 OVC110 16/15 A3000 RMK AO2 RAB15 SLP158 P0005 T01610150=
201812281552 METAR KATL 281552Z 24006KT 10SM FEW010 SCT050 OVC110 17/16 A3005 RMK AO2 WSHFT 1439 RAE46 TSE1457 SLP173 P0017 T01720156=
201812281548 SPECI KATL 281548Z 25006KT 10SM FEW010 SCT050 OVC110 17/16 A3005 RMK AO2 WSHFT 1439 RAE46 TSE1457 P0017=
201812281457 SPECI KATL 281457Z AUTO 24011G19KT 2SM -RA BR FEW007 SCT012 OVC024 17/16 A3005 RMK AO2 WSHFT 1439 SFC VIS 4 LTG DSNT SE-SW TSE57 TS MOV NE P0004 T01720156=
201812281452 METAR KATL 281452Z 22012G21KT 2SM R09R/4000VP6000FT -TSRA BR FEW007CB SCT010 OVC020 17/16 A3005 RMK AO2 WSHFT 1438 SFC VIS 4 LTG DSNT SE-SW SLP175 TSB53 OCNL LTGICCA NE-SE-S TS NE-SE-S MOV NE P0075 60132 T01670156 51023=
201812281440 SPECI KATL 281440Z 27011KT 1SM R09R/2600VP6000FT +TSRA BR BKN007CB BKN015 OVC020 16/15 A3006 RMK AO2 LTG DSNT W PRESRR TSB53 OCNL LTGICCA OHD ALQDS TS OHD ALQDS MOV NE P0042 T01610150=
201812281437 SPECI KATL 281437Z 29014KT 1SM R09R/2600VP6000FT +TSRA BR BKN007CB BKN015 OVC020 16/15 A3005 RMK AO2 TWR VIS 2 LTG DSNT W PRESRR TSB53 OCNL LTGICCA OHD-SW-NW TS OHD-SW-NW MOV NE P0026 T01610150=
201812281426 SPECI KATL 281426Z 23008KT 2SM -TSRA BR SCT007CB BKN012 OVC020 17/16 A3002 RMK AO2 SFC VIS 4 LTG DSNT W TSB53 OCNL LTGICCA NE SW-NW TS NE SW-NW MOV NE P0016 T01720161=
201812281413 SPECI KATL 281413Z 24007KT 1 3/4SM R09R/6000VP6000FT +TSRA BR OVC007CB 15/14 A3003 RMK AO2 TWR VIS 2 TSB53 OCNL LTGICCA SW-NW-NE TS SW-NW-NE MOV NE P0003 T01500139=
201812281409 SPECI KATL 281409Z 22003KT 2SM -TSRA OVC007CB 15/14 A3003 RMK AO2 SFC VIS 9 TSB53 OCNL LTGICCA SW-NW-NE TS SW-NW-NE MOV NE P0002 T01500144=
201812281401 SPECI KATL 281401Z 27003KT 2SM -TSRA BR BKN004 OVC010CB 15/14 A3002 RMK AO2 SFC VIS 6 TSB53 OCNL LTGICCA SW-NW TS SW-NW MOV NE P0002 T01500139=
201812281355 SPECI KATL 281355Z 28004KT 2SM -TSRA BR SCT004 BKN010 OVC020CB 14/13 A3003 RMK AO2 SFC VIS 3 TSB53 OCNL LTGICCA SW-NW TS SW-NW MOV NE P0001 T01440133=
201812281352 METAR KATL 281352Z 31006KT 2SM -RA BR SCT004 BKN010 OVC020 14/13 A3003 RMK AO2 LTG DSNT SW SLP168 CB DSNT SW P0020 T01390128=
201812281312 SPECI KATL 281312Z 00000KT 2SM -RA FEW007 BKN014 OVC030 13/12 A3001 RMK AO2 SFC VIS 8 P0009 T01280117=
201812281252 METAR KATL 281252Z 08003KT 2SM +RA BR SCT008 BKN024 OVC050 13/12 A3000 RMK AO2 SFC VIS 3 LTG DSNT NE SLP160 TSB13E36 TS MOV NE CB DSNT NE P0037 T01330122=
201812281237 SPECI KATL 281237Z 03005KT 2SM -RA BR SCT004 BKN008 OVC020 12/11 A3000 RMK AO2 SFC VIS 2 1/2 LTG DSNT NE TSB13E36 TS MOV NE CB DSNT NE P0034 T01220111=
201812281223 SPECI KATL 281223Z 35003KT 1/2SM R09R/4500VP6000FT +TSRA BR SCT004 BKN008CB 12/11 A3001 RMK AO2 SFC VIS 1 1/4 TSB13 OCNL LTGICCA NE-OHD-SW TS NE-OHD-SW MOV NE P0021 T01170111=
201812281214 SPECI KATL 281214Z 34004KT 1/2SM R09R/P6000FT TSRA BR BKN004 OVC010CB 12/11 A3000 RMK AO2 SFC VIS 2 TSB13 OCNL LTGICCA SW-NW TS SW-NW MOV NE P0008 T01170106=
201812281152 METAR KATL 281152Z 04005KT 1/2SM R09R/P6000FT -RA BR OVC004 11/10 A2998 RMK AO2 SFC VIS 4 LTG DSNT N SLP152 CIG 003V005 CB DSNT N P0026 60155 70274 T01110100 10111 20106 56016=
201812281139 SPECI KATL 281139Z 04007KT 1/2SM R09R/P6000FT -RA BR BKN004 OVC012 11/10 A2998 RMK AO2 SFC VIS 4 CIG 003V006 P0025 T01110100=
201812281052 METAR KATL 281052Z 05008KT 1 1/2SM +RA BR SCT003 BKN008 OVC015 11/09 A2998 RMK AO2 SFC VIS 2 SLP153 CIG 006V010 P0037 T01060094=
201812281030 SPECI KATL 281030Z 06005KT 1 1/2SM +RA BR SCT003 BKN008 OVC013 11/09 A2999 RMK AO2 SFC VIS 2 CIG 006V010 P0014 T01060094=
201812280952 METAR KATL 280952Z 05006KT 1 1/2SM -RA BR BKN004 OVC010 11/09 A3000 RMK AO2 SFC VIS 3 SLP158 CIG 003V006 P0009 T01060094=
201812280949 SPECI KATL 280949Z 08007KT 1 1/2SM -RA BR BKN004 OVC010 11/09 A3000 RMK AO2 SFC VIS 3 CIG 003V006 P0009=
201812280940 SPECI KATL 280940Z 09008KT 1 1/2SM RA BR SCT003 OVC008 11/09 A3000 RMK AO2 SFC VIS 2 CIG 006V010 P0008 T01060094=
201812280852 METAR KATL 280852Z 09007KT 1 1/2SM -RA BR SCT004 BKN014 OVC026 11/09 A3003 RMK AO2 SFC VIS 4 SLP168 P0006 60083 T01060094 56012=
201812280837 SPECI KATL 280837Z 07006KT 1 1/2SM -RA SCT004 BKN012 OVC026 11/09 A3004 RMK AO2 SFC VIS 8 P0004 T01060094=
201812280752 METAR KATL 280752Z 08009KT 1 1/2SM -RA BR SCT004 BKN016 OVC028 11/09 A3004 RMK AO2 SFC VIS 2 1/2 SLP174 P0022 T01060094=
201812280734 SPECI KATL 280734Z 08007KT 1 1/2SM RA BR BKN004 BKN021 OVC034 11/09 A3004 RMK AO2 SFC VIS 4 P0015 T01060094=
201812280652 METAR KATL 280652Z 07012KT 3SM RA BR SCT004 BKN026 OVC044 11/09 A3004 RMK AO2 TSE43 SLP173 TS MOV NE P0055 T01060094=
201812280644 SPECI KATL 280644Z 07012KT 3SM RA BR FEW004 SCT028 OVC050 11/09 A3004 RMK AO2 TSE43 TS MOV NE P0050 T01060094=
201812280630 SPECI KATL 280630Z 07013KT 3SM TSRA BR FEW004 BKN024CB OVC044 11/10 A3004 RMK AO2 PRESFR OCNL LTGICCA OHD-ALQDS TS OHD-ALQDS MOV NE P0046 T01110100=
201812280625 SPECI KATL 280625Z 06014KT 2 1/2SM +TSRA BR FEW004 BKN024CB OVC044 11/10 A3004 RMK AO2 OCNL LTGICCA OHD-ALQDS TS OHD-ALQDS MOV NE P0043 T01110100=
201812280609 SPECI KATL 280609Z 04013KT 1 1/2SM R09R/5500VP6000FT +TSRA BR SCT004 BKN020CB OVC038 11/10 A3006 RMK AO2 OCNL LTGICCA OHD-ALQDS TS OHD-ALQDS MOV NE P0021 T01110100=
201812280552 METAR KATL 280552Z 36012KT 2SM TSRA BR SCT004 BKN016CB OVC040 11/09 A3006 RMK AO2 SLP181 TSB20 OCNL LTGIC OHD-ALQDS TS OHD-ALQDS MOV NE P0037 60109 T01110094 10117 20094 55006=
201812280523 SPECI KATL 280523Z 35014G20KT 2 1/2SM TSRA BR FEW003 BKN010CB OVC025 12/10 A3009 RMK AO2 TSB20 OCNL LTGIC S-SW TS S-SW MOV NE P0016 T01170100=
201812280517 SPECI KATL 280517Z 32014G17KT 3SM RA BR SCT003 BKN010 OVC020 12/11 A3009 RMK AO2 LTG DSNT SW P0010 T01170106=
201812280452 METAR KATL 280452Z 12008KT 1SM R09R/P6000FT RA BR BKN003 OVC010CB 11/11 A3006 RMK AO2 SFC VIS 3 LTG DSNT SW SLP180 CB SW-NW MOV NE P0008 T01110106 401220083=
201812280352 METAR KATL 280352Z 11011G18KT 1SM R09R/P6000FT -RA BR OVC003 11/10 A3007 RMK AO2 SFC VIS 4 SLP183 P0002 T01110100=
201812280252 METAR KATL 280252Z 11013G18KT 7SM -RA OVC005 10/09 A3008 RMK AO2 SLP188 CIG 003V008 P0023 60062 T01000089 58020=
201812280152 METAR KATL 280152Z 11009KT 3SM RA BR BKN005 OVC015 10/09 A3013 RMK AO2 LTG DSNT SE SLP205 P0026 T01000089=
201812280052 METAR KATL 280052Z 09015KT 4SM RA BR BKN007 OVC015 09/08 A3010 RMK AO2 PRESFR SLP195 P0013 T00940078=
201812280046 SPECI KATL 280046Z 09015G21KT 4SM RA BR BKN008 OVC015 09/08 A3012 RMK AO2 PRESFR P0011=
201812280032 SPECI KATL 280032Z 10012KT 4SM RA BR BKN012 OVC020 10/08 A3015 RMK AO2 P0005 T01000078=
201812272352 METAR KATL 272352Z 10011KT 8SM -RA BKN015 OVC025 10/08 A3014 RMK AO2 TSE20 SLP209 P0008 60010 T01000078 10122 20100 56006=
201812272320 SPECI KATL 272320Z 08015KT 6SM -RA BR BKN017 BKN025 OVC100 10/08 A3012 RMK AO2 TSE20 PRESFR LTG DSNT N-NE TS MOV NE P0006 T01000078=
201812272252 METAR KATL 272252Z 09011KT 5SM TSRA BKN018CB BKN025 OVC100 11/07 A3015 RMK AO2 RAB37 TSB50 SLP212 OCNL LTGIC SW-NW TS SW-NW MOV NE P0002 T01060072=
201812272250 SPECI KATL 272250Z 09011KT 6SM -TSRA BKN018CB BKN025 OVC100 11/07 A3015 RMK AO2 RAB37 TSB50 OCNL LTGIC SW-NW TS SW-NW MOV NE P0001=
201812272152 METAR KATL 272152Z 09015KT 10SM BKN025 BKN050 OVC090 12/07 A3013 RMK AO2 SLP203 T01170067=
201812272052 METAR KATL 272052Z 10016G22KT 10SM SCT020 BKN030 BKN090 BKN200 12/07 A3016 RMK AO2 SLP215 T01170067 56013=
201812271952 METAR KATL 271952Z 11015G20KT 10SM BKN018 BKN030 OVC040 12/07 A3018 RMK AO2 SLP221 T01220067=
201812271852 METAR KATL 271852Z 11014G19KT 10SM BKN018 BKN030 OVC050 12/07 A3018 RMK AO2 SLP220 T01220067=
201812271752 METAR KATL 271752Z 10016G21KT 10SM FEW018 BKN025 OVC040 12/06 A3020 RMK AO2 SLP228 T01170061 10117 20083 58038=
201812271707 SPECI KATL 271707Z 10014G20KT 10SM BKN017 BKN032 OVC042 11/06 A3024 RMK AO2 T01060056=
201812271652 METAR KATL 271652Z 10011G18KT 10SM FEW017 BKN030 OVC040 11/05 A3025 RMK AO2 SLP246 T01060050=
201812271608 SPECI KATL 271608Z 11014G21KT 10SM FEW017 BKN030 OVC050 10/05 A3028 RMK AO2 T01000050=
201812271552 METAR KATL 271552Z 10012G19KT 10SM FEW016 BKN020 OVC045 10/04 A3029 RMK AO2 SLP260 T01000044=
201812271452 METAR KATL 271452Z 10008KT 10SM BKN017 BKN060 OVC120 09/04 A3032 RMK AO2 SLP269 T00890039 53007=
201812271352 METAR KATL 271352Z 10018G21KT 10SM BKN016 BKN065 OVC130 08/03 A3031 RMK AO2 PK WND 08026/1306 SLP266 T00830028=
201812271252 METAR KATL 271252Z 09018KT 10SM OVC017 08/02 A3030 RMK AO2 SLP263 T00830022=
201812271152 METAR KATL 271152Z 09012KT 10SM OVC017 08/02 A3029 RMK AO2 SLP261 60000 T00830017 10094 20083 58007=
201812271052 METAR KATL 271052Z 10013KT 10SM BKN021 OVC060 08/01 A3030 RMK AO2 SLP263 T00830006=
201812270952 METAR KATL 270952Z 11011KT 10SM FEW016 BKN024 BKN060 OVC130 09/00 A3031 RMK AO2 SLP265 T00890000=
201812270852 METAR KATL 270852Z 09013KT 10SM SCT017 BKN026 BKN065 OVC130 09/00 A3032 RMK AO2 RAB07E17 SLP267 P0000 60000 T00890000 58013=
201812270752 METAR KATL 270752Z 09009KT 10SM BKN028 OVC065 09/01 A3036 RMK AO2 SLP281 T00890006=
201812270652 METAR KATL 270652Z 09011KT 10SM OVC028 09/01 A3036 RMK AO2 SLP282 T00890006=
201812270552 METAR KATL 270552Z 09011KT 10SM BKN042 BKN250 09/01 A3036 RMK AO2 SLP281 T00890006 10111 20089 58006=
201812270452 METAR KATL 270452Z 09010G18KT 10SM BKN040 OVC250 09/02 A3037 RMK AO2 SLP285 T00940017 401500050=
201812270352 METAR KATL 270352Z 09011KT 10SM BKN040 OVC250 09/02 A3038 RMK AO2 SLP289 T00940022=
201812270252 METAR KATL 270252Z 10010KT 10SM BKN040 BKN250 10/02 A3037 RMK AO2 SLP288 T01000022 53006=
201812270152 METAR KATL 270152Z 10009KT 10SM SCT180 BKN250 10/03 A3035 RMK AO2 SLP281 T01000028=
201812270052 METAR KATL 270052Z 09009KT 10SM SCT200 BKN250 11/03 A3037 RMK AO2 SLP287 T01060033=
201812262352 METAR KATL 262352Z 10007KT 10SM FEW200 BKN250 11/03 A3036 RMK AO2 SLP282 T01110033 10150 20111 53002=
201812262252 METAR KATL 262252Z 10006KT 10SM BKN200 BKN250 12/04 A3035 RMK AO2 SLP279 T01220039=
201812262152 METAR KATL 262152Z 11009KT 10SM FEW200 BKN250 BKN300 13/03 A3034 RMK AO2 SLP276 T01330033=
201812262052 METAR KATL 262052Z 09010KT 10SM SCT250 BKN300 14/03 A3035 RMK AO2 SLP279 T01440033 55013=
201812261952 METAR KATL 261952Z 10012KT 10SM BKN250 BKN300 15/03 A3035 RMK AO2 SLP277 T01500033=
201812261852 METAR KATL 261852Z 12007KT 10SM FEW040 SCT250 BKN300 14/03 A3036 RMK AO2 SLP283 T01440028=
201812261752 METAR KATL 261752Z 08009KT 10SM FEW040 SCT250 BKN300 14/03 A3039 RMK AO2 SLP292 T01390033 10139 20050 58020=
201812261652 METAR KATL 261652Z 09009KT 10SM FEW040 SCT250 BKN300 13/03 A3042 RMK AO2 SLP303 T01280033=
201812261552 METAR KATL 261552Z 11007KT 10SM FEW040 SCT250 BKN300 11/03 A3044 RMK AO2 SLP310 T01110028=
201812261452 METAR KATL 261452Z 08008KT 10SM FEW040 SCT250 SCT300 08/03 A3045 RMK AO2 SLP314 T00830033 51019=
201812261352 METAR KATL 261352Z 07009KT 10SM FEW035 FEW200 SCT250 07/03 A3043 RMK AO2 SLP307 T00720028=
201812261252 METAR KATL 261252Z 08007KT 10SM FEW035 SCT200 SCT250 06/02 A3042 RMK AO2 SLP303 T00560022=
201812261152 METAR KATL 261152Z 05005KT 10SM FEW034 SCT200 SCT250 07/02 A3039 RMK AO2 SLP293 T00670022 10078 20056 53012=
201812261052 METAR KATL 261052Z 08005KT 10SM FEW200 SCT250 06/02 A3037 RMK AO2 SLP285 T00560017=
201812260952 METAR KATL 260952Z 00000KT 10SM FEW034 FEW200 SCT250 07/02 A3035 RMK AO2 SLP280 T00670017=
201812260852 METAR KATL 260852Z 04006KT 10SM FEW034 SCT250 07/02 A3035 RMK AO2 SLP280 T00670022 51008=
201812260752 METAR KATL 260752Z 06006KT 10SM SCT250 07/02 A3035 RMK AO2 SLP279 T00720017=
201812260652 METAR KATL 260652Z 00000KT 10SM SCT250 07/02 A3034 RMK AO2 SLP276 T00720017=
201812260552 METAR KATL 260552Z 03003KT 10SM SCT250 08/02 A3033 RMK AO2 SLP272 T00780017 10133 20078 53006=
201812260452 METAR KATL 260452Z 00000KT 10SM FEW060 SCT250 08/02 A3032 RMK AO2 SLP268 T00830022 401500011=
201812260352 METAR KATL 260352Z 00000KT 10SM FEW060 SCT250 09/02 A3032 RMK AO2 SLP270 T00940017=
201812260252 METAR KATL 260252Z 16004KT 10SM FEW060 SCT250 10/02 A3031 RMK AO2 SLP268 T01000017 50002=
201812260152 METAR KATL 260152Z 00000KT 10SM FEW040 BKN060 12/02 A3032 RMK AO2 SLP269 T01170017=
201812260052 METAR KATL 260052Z 07005KT 10SM FEW040 BKN060 12/01 A3031 RMK AO2 SLP268 T01220011=
201812252352 METAR KATL 252352Z 03006KT 10SM OVC040 13/00 A3031 RMK AO2 SLP266 BINOVC T01330000 10150 20128 53013=
201812252252 METAR KATL 252252Z 02005KT 10SM BKN050 13/01 A3028 RMK AO2 SLP258 T01330006=
201812252152 METAR KATL 252152Z 00000KT 10SM BKN055 14/00 A3027 RMK AO2 SLP253 T01440000=
201812252052 METAR KATL 252052Z 00000KT 10SM SCT060 15/M01 A3027 RMK AO2 SLP252 T01501006 55008=
201812251952 METAR KATL 251952Z VRB03KT 10SM BKN060 14/00 A3026 RMK AO2 SLP251 T01390000=
201812251852 METAR KATL 251852Z 00000KT 10SM FEW070 FEW250 14/01 A3027 RMK AO2 SLP255 T01440006=
201812251752 METAR KATL 251752Z 00000KT 10SM FEW070 FEW250 13/01 A3029 RMK AO2 SLP260 T01330011 10139 20017 58006=
201812251652 METAR KATL 251652Z 00000KT 10SM FEW250 12/02 A3031 RMK AO2 SLP269 T01220017=
201812251552 METAR KATL 251552Z 08003KT 10SM CLR 10/02 A3034 RMK AO2 SLP277 T01000022=
201812251452 METAR KATL 251452Z 13007KT 10SM FEW250 07/02 A3031 RMK AO2 SLP269 T00670017 50010=
201812251352 METAR KATL 251352Z 11003KT 10SM FEW180 FEW250 04/00 A3031 RMK AO2 SLP271 T00440000=
201812251252 METAR KATL 251252Z 08005KT 10SM FEW180 FEW250 02/M02 A3030 RMK AO2 SLP267 T00171022=
201812251152 METAR KATL 251152Z 09003KT 10SM FEW180 FEW250 02/M02 A3028 RMK AO2 SLP259 T00221022 10033 20011 53008=
201812251052 METAR KATL 251052Z 10003KT 10SM FEW180 03/M02 A3026 RMK AO2 SLP254 T00281022=
201812250952 METAR KATL 250952Z 00000KT 10SM FEW180 FEW250 02/M02 A3025 RMK AO2 SLP249 T00221022=
201812250852 METAR KATL 250852Z 00000KT 10SM FEW200 02/M03 A3025 RMK AO2 SLP249 T00171028 51010=
201812250752 METAR KATL 250752Z 05003KT 10SM FEW200 03/M03 A3025 RMK AO2 SLP247 T00281028=
201812250652 METAR KATL 250652Z 00000KT 10SM FEW200 02/M02 A3024 RMK AO2 SLP246 T00221017=
201812250552 METAR KATL 250552Z 05004KT 10SM FEW250 03/M03 A3022 RMK AO2 SLP239 T00281028 10072 20028 58006=
201812250452 METAR KATL 250452Z 34005KT 10SM FEW250 03/M02 A3024 RMK AO2 SLP246 T00331022 401170017=
201812250352 METAR KATL 250352Z 32003KT 10SM FEW250 04/M02 A3024 RMK AO2 SLP247 T00391022=
201812250252 METAR KATL 250252Z 34004KT 10SM FEW250 04/M02 A3024 RMK AO2 SLP247 T00441017 58001=
201812250152 METAR KATL 250152Z 33006KT 10SM FEW250 05/M01 A3026 RMK AO2 SLP253 T00501006=
201812250052 METAR KATL 250052Z 32005KT 10SM FEW250 06/M01 A3025 RMK AO2 SLP251 T00561006=
201812242352 METAR KATL 242352Z 33005KT 10SM FEW250 07/M01 A3024 RMK AO2 SLP248 T00721011 10117 20072 58000=
201812242252 METAR KATL 242252Z 33007KT 10SM FEW250 09/M01 A3024 RMK AO2 SLP246 T00891011=
201812242152 METAR KATL 242152Z 32007KT 10SM FEW200 11/M01 A3025 RMK AO2 SLP247 T01061011=
201812242052 METAR KATL 242052Z 33007KT 10SM FEW200 12/M02 A3025 RMK AO2 SLP245 T01171022 55008=
201812241952 METAR KATL 241952Z 31004KT 10SM FEW200 11/M02 A3023 RMK AO2 SLP241 T01111017=
201812241852 METAR KATL 241852Z 34007KT 10SM FEW200 11/M02 A3025 RMK AO2 SLP246 T01111017=
201812241752 METAR KATL 241752Z VRB06KT 10SM FEW200 09/M01 A3027 RMK AO2 SLP254 T00891011 10089 20017 58020=
201812241652 METAR KATL 241652Z 34007KT 10SM FEW200 07/M01 A3031 RMK AO2 SLP269 T00721006=
201812241552 METAR KATL 241552Z 31008KT 10SM CLR 06/00 A3033 RMK AO2 SLP276 T00560000=
201812241452 METAR KATL 241452Z 34008KT 10SM FEW018 03/M01 A3033 RMK AO2 SLP275 T00331011 51013=
201812241352 METAR KATL 241352Z 33010KT 10SM FEW013 02/M01 A3033 RMK AO2 SLP275 T00221011=
201812241252 METAR KATL 241252Z 31010KT 10SM FEW013 FEW200 02/M01 A3031 RMK AO2 SLP267 T00171011=
201812241152 METAR KATL 241152Z 32008KT 10SM FEW013 02/M01 A3029 RMK AO2 SLP261 70001 T00221011 10078 20022 53010=
201812241052 METAR KATL 241052Z 33010KT 10SM FEW013 03/00 A3027 RMK AO2 SLP253 T00330000=
201812240952 METAR KATL 240952Z 33011KT 10SM FEW015 04/01 A3026 RMK AO2 SLP249 T00390006=
201812240852 METAR KATL 240852Z 33009KT 10SM FEW015 05/01 A3026 RMK AO2 SLP248 T00500011 52008=
201812240825 SPECI KATL 240825Z 30008KT 10SM SCT015 06/02 A3027 RMK AO2 T00560022=
201812240752 METAR KATL 240752Z 32009KT 10SM BKN017 06/02 A3025 RMK AO2 SLP245 BKN017 V SCT T00610022=
201812240652 METAR KATL 240652Z 32010KT 10SM BKN018 07/03 A3024 RMK AO2 SLP241 BKN018 V SCT T00720028=
201812240552 METAR KATL 240552Z 33014KT 10SM BKN018 08/04 A3023 RMK AO2 SLP239 CIG 016V020 T00780039 10139 20078 51009=
201812240452 METAR KATL 240452Z 31010KT 10SM BKN016 08/05 A3023 RMK AO2 SLP238 CIG 014V018 T00830050 401670017=
201812240418 SPECI KATL 240418Z 30010KT 10SM BKN016 09/06 A3023 RMK AO2 T00890056=
201812240352 METAR KATL 240352Z 30011KT 10SM FEW016 09/06 A3022 RMK AO2 SLP236 T00940056=
201812240252 METAR KATL 240252Z 31015G21KT 10SM FEW018 11/07 A3021 RMK AO2 SLP230 T01060067 53016=
201812240152 METAR KATL 240152Z 31010KT 10SM FEW021 12/08 A3019 RMK AO2 SLP227 T01170078=
201812240052 METAR KATL 240052Z 29008KT 10SM FEW060 12/08 A3017 RMK AO2 SLP219 T01220083=
201812232352 METAR KATL 232352Z 29013KT 10SM SCT042 BKN065 14/08 A3016 RMK AO2 SLP215 60001 T01390083 10167 20139 53021=
201812232252 METAR KATL 232252Z 29012KT 10SM FEW028 BKN044 BKN070 BKN200 15/09 A3014 RMK AO2 RAB15E25 SLP208 P0000 T01500094=
201812232152 METAR KATL 232152Z 26010KT 10SM SCT036 BKN065 BKN200 17/11 A3011 RMK AO2 SLP198 MDT CU W-NW-NE SHRA W-NW-NE T01670106=
201812232052 METAR KATL 232052Z 22007KT 10SM FEW031 BKN041 BKN055 16/10 A3009 RMK AO2 SLP192 60001 T01610100 55005=
201812232024 SPECI KATL 232024Z 22009KT 10SM BKN030 BKN046 16/10 A3009 RMK AO2 T01610100=
201812231952 METAR KATL 231952Z 22008KT 10SM OVC029 16/10 A3008 RMK AO2 SLP188 T01610100=
201812231929 SPECI KATL 231929Z 23009KT 10SM BKN029 17/10 A3008 RMK AO2 T01670100=
201812231852 METAR KATL 231852Z 21017G23KT 10SM SCT029 BKN055 BKN250 17/10 A3008 RMK AO2 RAB1759E15 SLP186 P0001 T01670100=
201812231752 METAR KATL 231752Z 22012G17KT 10SM FEW026 BKN032 BKN046 16/09 A3011 RMK AO2 SLP197 T01560094 10156 20017 58026=
201812231652 METAR KATL 231652Z 22012G21KT 10SM FEW022 SCT050 BKN090 BKN250 14/08 A3014 RMK AO2 SLP208 T01390083=
201812231552 METAR KATL 231552Z 20012KT 10SM SCT042 SCT250 12/07 A3017 RMK AO2 SLP219 T01220067=
201812231452 METAR KATL 231452Z 20010KT 10SM SCT023 08/03 A3019 RMK AO2 SLP228 T00780033 53002=
201812231352 METAR KATL 231352Z 00000KT 10SM FEW030 FEW250 04/01 A3018 RMK AO2 SLP224 T00390011=
201812231252 METAR KATL 231252Z 13003KT 10SM FEW030 02/00 A3018 RMK AO2 SLP227 T00170000=
201812231152 METAR KATL 231152Z 00000KT 10SM FEW030 FEW250 02/00 A3018 RMK AO2 SLP227 T00220000 10039 20017 56006=
201812231052 METAR KATL 231052Z 00000KT 10SM FEW030 FEW250 02/00 A3019 RMK AO2 SLP227 T00220000=
201812230952 METAR KATL 230952Z 00000KT 10SM CLR 02/00 A3019 RMK AO2 SLP228 T00220000=
201812230852 METAR KATL 230852Z 00000KT 10SM CLR 02/00 A3020 RMK AO2 SLP232 T00220000 51011=
201812230752 METAR KATL 230752Z 00000KT 10SM CLR 03/00 A3020 RMK AO2 SLP229 T00330000=
201812230652 METAR KATL 230652Z 00000KT 10SM CLR 04/00 A3017 RMK AO2 SLP222 T00390000=
201812230552 METAR KATL 230552Z 00000KT 10SM FEW250 04/01 A3017 RMK AO2 SLP220 T00390006 10078 20039 50003=
201812230452 METAR KATL 230452Z 00000KT 10SM FEW250 04/01 A3017 RMK AO2 SLP221 T00390006 401170022=
201812230352 METAR KATL 230352Z 00000KT 10SM FEW250 06/01 A3016 RMK AO2 SLP219 T00560006=
201812230252 METAR KATL 230252Z 00000KT 10SM FEW250 06/01 A3016 RMK AO2 SLP219 T00560006 51008=
201812230152 METAR KATL 230152Z 00000KT 10SM FEW250 06/01 A3015 RMK AO2 SLP216 T00610006=
201812230052 METAR KATL 230052Z 00000KT 10SM FEW250 07/01 A3015 RMK AO2 SLP215 T00720006=
201812222352 METAR KATL 222352Z 24003KT 10SM FEW250 08/01 A3013 RMK AO2 SLP209 T00780006 10117 20078 52010=
201812222252 METAR KATL 222252Z 27004KT 10SM FEW200 FEW250 09/01 A3012 RMK AO2 SLP205 T00890006=
201812222152 METAR KATL 222152Z 28006KT 10SM FEW200 FEW250 11/00 A3011 RMK AO2 SLP201 T01110000=
201812222052 METAR KATL 222052Z 28007KT 10SM FEW250 11/00 A3010 RMK AO2 SLP197 T01110000 55002=
201812221952 METAR KATL 221952Z 30005KT 10SM FEW250 11/01 A3010 RMK AO2 SLP196 T01110006=
201812221852 METAR KATL 221852Z 31010KT 10SM FEW250 11/01 A3009 RMK AO2 SLP193 T01060006=
201812221752 METAR KATL 221752Z 31008KT 10SM FEW250 09/01 A3011 RMK AO2 SLP200 T00890006 10100 20022 58006=
201812221652 METAR KATL 221652Z 30008KT 10SM FEW250 08/01 A3013 RMK AO2 SLP206 T00780006=
201812221552 METAR KATL 221552Z 31010KT 10SM FEW022 FEW250 06/00 A3014 RMK AO2 SLP212 T00560000=
201812221452 METAR KATL 221452Z 29008G17KT 10SM SCT019 BKN250 04/00 A3013 RMK AO2 SLP208 T00440000 51037=
201812221352 METAR KATL 221352Z 27009KT 10SM FEW030 FEW250 04/M01 A3009 RMK AO2 SLP195 T00391006=
201812221252 METAR KATL 221252Z 27005KT 10SM FEW026 FEW250 02/M02 A3005 RMK AO2 SLP184 T00221017=
201812221152 METAR KATL 221152Z 27008KT 10SM SCT026 03/M02 A3001 RMK AO2 SLP169 70002 T00331017 10044 20033 51018=
201812221148 SPECI KATL 221148Z 27008KT 10SM SCT026 03/M02 A3001 RMK AO2=
201812221052 METAR KATL 221052Z 29007KT 10SM BKN026 04/M01 A3000 RMK AO2 SLP163 T00391006=
201812220952 METAR KATL 220952Z 29012KT 10SM BKN024 OVC033 04/00 A2998 RMK AO2 SLP157 T00440000=
201812220852 METAR KATL 220852Z 29011KT 10SM OVC016 04/01 A2996 RMK AO2 SLP149 T00440011 53028=
201812220752 METAR KATL 220752Z 28009KT 10SM OVC016 04/01 A2993 RMK AO2 SLP139 T00440011=
201812220747 SPECI KATL 220747Z 28012KT 10SM OVC016 04/01 A2993 RMK AO2=
201812220652 METAR KATL 220652Z 27006KT 10SM BKN012 OVC018 04/02 A2989 RMK AO2 SLP124 CIG 010V014 T00440017=
201812220552 METAR KATL 220552Z 28008KT 10SM OVC010 04/02 A2987 RMK AO2 SLP120 T00440017 10056 20044 51020=
201812220452 METAR KATL 220452Z 28011KT 10SM OVC010 04/02 A2987 RMK AO2 SLP119 T00440017 401110044=
201812220352 METAR KATL 220352Z 28015G22KT 10SM OVC012 04/02 A2985 RMK AO2 SLP110 T00440017=
201812220252 METAR KATL 220252Z 29014KT 10SM BKN013 OVC025 05/02 A2981 RMK AO2 SLP098 T00500017 51037=
201812220152 METAR KATL 220152Z 27013KT 10SM BKN010 OVC025 05/02 A2977 RMK AO2 PK WND 29026/0114 SLP086 T00500022=
201812220052 METAR KATL 220052Z 29017G26KT 9SM OVC009 05/02 A2974 RMK AO2 PK WND 30027/0038 SLP073 T00500022=
201812212352 METAR KATL 212352Z 29016G22KT 10SM BKN012 OVC020 06/03 A2970 RMK AO2 PK WND 30027/2253 SLP060 60001 T00560028 10083 20056 51044=
201812212252 METAR KATL 212252Z 28018G27KT 10SM BKN010 OVC020 06/03 A2966 RMK AO2 PK WND 29027/2252 SLP047 T00560028=
201812212152 METAR KATL 212152Z 29015G25KT 10SM BKN013 OVC020 07/03 A2962 RMK AO2 PK WND 28027/2106 SLP031 T00670033=
201812212149 SPECI KATL 212149Z 29018G25KT 10SM BKN013 OVC020 07/03 A2962 RMK AO2 PK WND 28027/2106=
201812212052 METAR KATL 212052Z 28016G28KT 10SM OVC017 07/03 A2957 RMK AO2 PK WND 29033/2005 SLP014 60001 T00720033 53035=
201812211952 METAR KATL 211952Z 29020G28KT 10SM BKN019 OVC025 08/04 A2952 RMK AO2 PK WND 29028/1951 SLP997 T00780039=
201812211852 METAR KATL 211852Z 30018G24KT 10SM BKN016 OVC022 07/04 A2948 RMK AO2 PK WND 28030/1820 RAE36 SLP986 P0001 T00720044=
201812211752 METAR KATL 211752Z 29016G24KT 8SM -RA BKN015 OVC030 07/04 A2946 RMK AO2 PK WND 29027/1703 SLP978 P0000 60001 T00720044 10094 20072 51027=
201812211652 METAR KATL 211652Z 29016G28KT 10SM -RA BKN016 OVC022 08/05 A2944 RMK AO2 PK WND 29028/1649 SLP970 P0000 T00830050=
201812211552 METAR KATL 211552Z 30017G22KT 10SM -RA BKN014 OVC022 08/06 A2942 RMK AO2 PK WND 31026/1534 DZE15RAB15 SLP963 PCPN VRY LGT P0001 T00830061=
201812211452 METAR KATL 211452Z 29014G20KT 9SM -DZ FEW009 BKN012 OVC017 09/07 A2938 RMK AO2 RAE1357B28E50DZB50 SLP949 P0000 60000 T00890067 53030=
201812211402 SPECI KATL 211402Z 29013KT 10SM SCT008 OVC012 08/07 A2935 RMK AO2 RAE1357 P0000 T00830067=
201812211352 METAR KATL 211352Z 29014KT 9SM -RA BKN012 OVC020 08/07 A2934 RMK AO2 SLP936 CIG 010V014 PCPN VRY LGT P0000 T00830067=
201812211332 SPECI KATL 211332Z 29017G21KT 8SM -RA BKN012 OVC020 08/07 A2933 RMK AO2 CIG 010V014 P0000 T00830067=
201812211252 METAR KATL 211252Z 28012KT 8SM -RA BKN009 OVC018 09/07 A2931 RMK AO2 SLP926 CIG 008V011 P0000 T00890072=
201812211152 METAR KATL 211152Z 28010KT 8SM -RA BKN008 OVC016 09/08 A2929 RMK AO2 RAE28B52DZB28E52 SLP918 CIG 007V010 P0000 60044 70133 T00940078 10106 20089 53009=
201812211129 SPECI KATL 211129Z 28009KT 8SM -DZ BKN012 OVC020 09/08 A2928 RMK AO2 RAE28DZB28 CIG 010V014 P0000 T00890078=
201812211052 METAR KATL 211052Z 30012KT 3SM -RA OVC007 09/07 A2927 RMK AO2 SFC VIS 8 RAB45 SLP911 CIG 005V009 P0000 T00940072=
201812210952 METAR KATL 210952Z 31014KT 3SM OVC006 09/08 A2925 RMK AO2 SFC VIS 8 RAE50 SLP905 CIG 004V008 P0002 T00940078 $=
201812210900 SPECI KATL 210900Z 31011KT 3SM -RA BKN007 BKN017 OVC075 09/08 A2926 RMK AO2 SFC VIS 10 P0000 T00940078 $=
201812210852 METAR KATL 210852Z 31011KT 3SM -RA SCT005 SCT028 OVC070 09/08 A2926 RMK AO2 SFC VIS 8 SLP908 P0010 60042 T00940078 58018 $=
201812210820 SPECI KATL 210820Z 36013G19KT 3SM RA BR SCT005 SCT014 OVC055 09/08 A2926 RMK AO2 SFC VIS 4 PRESFR P0008 T00940078 $=
201812210752 METAR KATL 210752Z 31011KT 3SM -RA BR BKN006 BKN014 OVC050 09/08 A2929 RMK AO2 SFC VIS 6 SLP919 CIG 004V008 P0006 T00940083 $=
201812210706 SPECI KATL 210706Z 32006KT 3SM -RA BR BKN005 BKN038 OVC055 10/08 A2930 RMK AO2 SFC VIS 6 P0002 T01000083 $=
201812210652 METAR KATL 210652Z 32010KT 3SM -RA BR SCT003 BKN032 OVC050 10/09 A2930 RMK AO2 SFC VIS 5 SLP921 P0026 T01000089 $=
201812210637 SPECI KATL 210637Z 32009KT 3SM RA BR SCT003 BKN022 OVC050 10/09 A2931 RMK AO2 SFC VIS 3 P0022 T01000089 $=
201812210552 METAR KATL 210552Z 32005KT 1/2SM R09R/P6000FT -RA BR OVC003 11/09 A2932 RMK AO2 SFC VIS 1 1/2 SLP927 CIG 002V005 P0002 60005 T01060094 10111 20100 58031=
201812210452 METAR KATL 210452Z 36003KT 1/2SM R09R/P6000FT -RA BR OVC003 11/09 A2935 RMK AO2 SFC VIS 2 SLP939 CIG 002V005 P0001 T01110094 401110083=
201812210352 METAR KATL 210352Z 11003KT 2SM -RA BR OVC005 11/09 A2939 RMK AO2 SFC VIS 5 SLP951 CIG 003V006 P0000 T01060094=
201812210252 METAR KATL 210252Z 00000KT 2SM -RA BR SCT003 BKN006 OVC020 10/09 A2941 RMK AO2 SFC VIS 5 RAE04B49 SLP959 P0000 60002 T01000094 58013=
201812210207 SPECI KATL 210207Z 00000KT 2SM BR SCT003 BKN006 OVC030 10/09 A2942 RMK AO2 SFC VIS 5 RAE04 P0000 T01000089=
201812210152 METAR KATL 210152Z 00000KT 2SM -RA BR FEW002 SCT006 OVC028 10/09 A2943 RMK AO2 SFC VIS 4 SLP965 SCT006 V BKN P0001 T01000089=
201812210136 SPECI KATL 210136Z 24003KT 2SM -RA BR SCT003 BKN007 OVC015 10/09 A2944 RMK AO2 SFC VIS 4 P0001 T01000089=
201812210052 METAR KATL 210052Z 19003KT 1/2SM R09R/P6000FT -RA BR OVC003 10/09 A2945 RMK AO2 SFC VIS 3 RAB29 SLP974 CIG 002V005 P0001 T01000089=
201812202352 METAR KATL 202352Z 00000KT 1 1/4SM BKN004 OVC010 10/09 A2945 RMK AO2 SFC VIS 7 SLP973 60014 T01000089 10106 20094 56005=
201812202252 METAR KATL 202252Z 00000KT 1 1/4SM BKN004 OVC010 10/08 A2945 RMK AO2 SFC VIS 7 SLP973 CIG 003V006 T01000083=
201812202155 SPECI KATL 202155Z 29007KT 1 1/4SM BKN004 OVC010 10/08 A2945 RMK AO2 SFC VIS 7 CIG 003V006 T01000083=
201812202152 METAR KATL 202152Z 30005KT 1/2SM R09R/P6000FT BKN004 OVC010 10/08 A2945 RMK AO2 SFC VIS 7 RAE12 SLP973 CIG 003V006 TWRINC P0000 T01000083=
201812202052 METAR KATL 202052Z 30005KT 2SM -RA BR BKN005 BKN010 OVC020 10/09 A2947 RMK AO2 SFC VIS 5 DZE1955RAB1955 SLP978 P0005 60014 T01000089 55016=
201812201952 METAR KATL 201952Z 29004KT 1 1/4SM -DZ BR BKN005 OVC010 11/09 A2946 RMK AO2 SFC VIS 1 1/2 SLP974 RAE1857B22E34DZB34 CIG 003V007 TWRINC P0002 T01060089=
201812201940 SPECI KATL 201940Z 27003KT 1 1/4SM -DZ BR OVC005 11/09 A2946 RMK AO2 SFC VIS 2 RAE1857B22E34DZB34 CIG 003V007 TWRINC P0002 T01060094=
201812201937 SPECI KATL 201937Z 25003KT 1 1/4SM BR OVC005 11/09 A2946 RMK AO2 SFC VIS 1 3/4 RAE1857B22E34 TWRINC P0002 T01060089=
201812201852 METAR KATL 201852Z 09006KT 1/4SM R09R/P6000FT -RA BR BKN004 OVC010 10/09 A2946 RMK AO2 SFC VIS 1 3/4 PRESFR SLP976 P0007 T01000089=
201812201754 SPECI KATL 201754Z 08007KT 1/4SM R09R/4000VP6000FT -RA BR BKN004 OVC010 09/08 A2951 RMK AO2 SFC VIS 1 CIG 003V005 P0001 T00940083=
201812201752 METAR KATL 201752Z 09006KT 1/2SM R09R/4000VP6000FT -RA BR BKN004 OVC010 09/08 A2951 RMK AO2 SFC VIS 1 1/2 SLP995 CIG 003V005 P0002 60070 T00940083 10094 20083 56046=
201812201749 SPECI KATL 201749Z 08006KT 1/2SM R09R/4500VP6000FT -RA BR BKN004 OVC010 09/08 A2951 RMK AO2 SFC VIS 1 1/2 CIG 003V005 P0002=
201812201741 SPECI KATL 201741Z 08007KT 1 1/2SM -RA BR BKN004 OVC010 09/08 A2952 RMK AO2 SFC VIS 4 P0002 T00940078=
201812201702 SPECI KATL 201702Z 07014KT 1/2SM R09R/P6000FT -RA BR BKN004 OVC010 09/07 A2955 RMK AO2 SFC VIS 4 PRESFR CIG 003V005 TWRINC P0001 T00890072=
201812201652 METAR KATL 201652Z 07013KT 1 1/2SM -RA BR BKN005 OVC010 09/07 A2957 RMK AO2 SFC VIS 3 PRESFR SLP012 CIG 004V006 P0017 T00890072=
201812201552 METAR KATL 201552Z 07011KT 1 1/2SM RA BR BKN005 OVC012 08/07 A2965 RMK AO2 SFC VIS 3 SLP042 CIG 004V006 P0012 T00830072=
201812201452 METAR KATL 201452Z 07012KT 1 1/2SM -RA BR BKN005 OVC012 08/07 A2970 RMK AO2 SFC VIS 3 SLP059 CIG 004V006 P0014 60039 T00830067 56021=
201812201352 METAR KATL 201352Z 07012KT 1 1/2SM RA BR BKN005 OVC015 08/07 A2972 RMK AO2 SFC VIS 3 SLP065 CIG 004V007 P0009 T00830072=
201812201314 SPECI KATL 201314Z 07013KT 1 1/2SM -RA BR BKN005 OVC017 08/07 A2973 RMK AO2 SFC VIS 5 CIG 004V007 P0003 T00830067=
201812201252 METAR KATL 201252Z 07012KT 4SM RA BR BKN005 BKN014 OVC022 08/07 A2974 RMK AO2 SLP072 P0016 T00830072=
201812201152 METAR KATL 201152Z 07014KT 3SM -RA BR BKN005 OVC012 08/07 A2976 RMK AO2 SLP079 CIG 004V008 P0006 60017 70017 T00830072 10100 20083 58024=
201812201052 METAR KATL 201052Z 08012KT 4SM -RA BR BKN006 BKN014 OVC026 09/07 A2980 RMK AO2 SLP090 CIG 005V008 P0011 T00890072=
201812201029 SPECI KATL 201029Z 08010KT 3SM RA BR BKN008 OVC016 09/07 A2981 RMK AO2 CIG 006V010 P0006 T00890072=
201812201026 SPECI KATL 201026Z 08011KT 2 1/2SM RA BR BKN008 OVC016 09/07 A2981 RMK AO2 CIG 006V010 P0006 T00890072=
201812201005 SPECI KATL 201005Z 08008KT 2 1/2SM -RA BR FEW007 BKN012 OVC020 09/07 A2982 RMK AO2 CIG 010V014 P0001 T00890072=
201812200958 SPECI KATL 200958Z 07010KT 2 1/2SM -RA BR SCT012 BKN019 OVC025 09/07 A2982 RMK AO2 P0000 T00890072=
201812200952 METAR KATL 200952Z 08010KT 3SM -RA BR BKN012 OVC027 09/07 A2982 RMK AO2 RAB19 SLP098 CIG 010V014 P0000 T00890067=
201812200852 METAR KATL 200852Z 09008KT 10SM OVC011 09/06 A2984 RMK AO2 SLP104 60000 T00940061 58025=
201812200752 METAR KATL 200752Z 08012KT 10SM BKN012 BKN060 OVC120 10/06 A2987 RMK AO2 SLP113 CIG 010V014 T01000061=
201812200652 METAR KATL 200652Z 09007KT 10SM OVC013 10/06 A2990 RMK AO2 RAE0553 SLP125 P0000 T01000056=
201812200552 METAR KATL 200552Z 07008KT 10SM -RA OVC014 10/06 A2992 RMK AO2 RAB20 SLP131 P0000 60000 T01000056 10122 20100 58014=
201812200540 SPECI KATL 200540Z 08008KT 10SM -RA BKN014 BKN038 OVC055 10/06 A2992 RMK AO2 RAB20 P0000 T01000056=
201812200452 METAR KATL 200452Z 09008KT 10SM BKN016 BKN090 OVC150 11/05 A2994 RMK AO2 SLP140 T01060050 401440061=
201812200352 METAR KATL 200352Z 10007KT 10SM BKN020 BKN100 OVC150 11/05 A2996 RMK AO2 SLP144 T01060050=
201812200252 METAR KATL 200252Z 10010KT 10SM BKN110 OVC150 11/05 A2996 RMK AO2 SLP147 VIRGA SW-NW T01110050 56008=
201812200152 METAR KATL 200152Z 09009KT 10SM BKN110 OVC150 11/06 A2996 RMK AO2 SLP148 T01110056=
201812200052 METAR KATL 200052Z 10009KT 10SM FEW110 BKN150 OVC200 12/06 A2998 RMK AO2 SLP153 T01170056=
201812192352 METAR KATL 192352Z 10007G16KT 10SM FEW110 BKN150 OVC200 12/05 A2999 RMK AO2 SLP156 T01220050 10144 20122 50005=
201812192252 METAR KATL 192252Z 10008KT 10SM FEW150 BKN200 OVC250 13/04 A2999 RMK AO2 SLP156 T01280044=
201812192152 METAR KATL 192152Z 12006KT 10SM SCT180 BKN240 OVC300 13/04 A2998 RMK AO2 SLP152 T01330044=
201812192052 METAR KATL 192052Z 13008KT 10SM SCT160 BKN220 OVC300 14/04 A2997 RMK AO2 SLP149 T01440044 56024=
201812191952 METAR KATL 191952Z 12007KT 10SM SCT160 BKN220 OVC300 14/04 A2998 RMK AO2 SLP153 T01440044=
201812191852 METAR KATL 191852Z 14006KT 10SM SCT180 SCT220 OVC300 14/04 A3001 RMK AO2 SLP162 T01390044=
201812191752 METAR KATL 191752Z 13008KT 10SM SCT220 OVC300 13/04 A3004 RMK AO2 SLP174 BINOVC T01330039 10133 20061 58031=
201812191652 METAR KATL 191652Z 15006KT 10SM SCT250 OVC300 12/04 A3008 RMK AO2 SLP186 BINOVC T01220044=
201812191552 METAR KATL 191552Z 11007KT 10SM FEW220 FEW250 OVC300 11/03 A3012 RMK AO2 SLP199 T01110033=
201812191452 METAR KATL 191452Z 13005KT 10SM BKN220 OVC250 09/04 A3014 RMK AO2 SLP207 T00890039 51011=
201812191352 METAR KATL 191352Z 11006KT 10SM FEW200 OVC250 07/04 A3013 RMK AO2 SLP204 T00720039=
201812191252 METAR KATL 191252Z 08006KT 10SM FEW200 OVC250 06/03 A3012 RMK AO2 SLP202 T00610028=
201812191152 METAR KATL 191152Z 08006KT 10SM FEW200 OVC250 06/02 A3010 RMK AO2 SLP196 T00610022 10083 20061 53004=
201812191052 METAR KATL 191052Z 09006KT 10SM SCT200 BKN250 06/02 A3009 RMK AO2 SLP191 T00610022=
201812190952 METAR KATL 190952Z 07007KT 10SM SCT250 07/02 A3009 RMK AO2 SLP189 T00670017=
201812190852 METAR KATL 190852Z 07007KT 10SM BKN250 07/02 A3009 RMK AO2 SLP190 T00670017 55000=
201812190752 METAR KATL 190752Z 11004KT 10SM BKN250 08/02 A3009 RMK AO2 SLP190 T00780017=
201812190652 METAR KATL 190652Z 09006KT 10SM BKN250 07/02 A3009 RMK AO2 SLP189 T00720017=
201812190552 METAR KATL 190552Z 09006KT 10SM BKN250 08/02 A3009 RMK AO2 SLP190 T00830017 10144 20083 58001=
201812190452 METAR KATL 190452Z 08006KT 10SM BKN250 09/02 A3010 RMK AO2 SLP194 T00890017 401830056=
201812190352 METAR KATL 190352Z 08003KT 10SM BKN250 10/01 A3010 RMK AO2 SLP194 T01000011=
201812190252 METAR KATL 190252Z 00000KT 10SM OVC250 11/01 A3010 RMK AO2 SLP193 T01110011 50004=
201812190152 METAR KATL 190152Z 00000KT 10SM BKN250 12/01 A3010 RMK AO2 SLP195 T01170006=
201812190052 METAR KATL 190052Z 00000KT 10SM BKN250 12/M01 A3010 RMK AO2 SLP197 T01171006=
201812182352 METAR KATL 182352Z 00000KT 10SM FEW200 BKN250 13/M01 A3008 RMK AO2 SLP189 T01331006 10183 20122 53008=
201812182252 METAR KATL 182252Z 27003KT 10SM FEW200 BKN250 14/M02 A3006 RMK AO2 SLP180 T01441017=
201812182152 METAR KATL 182152Z 00000KT 10SM FEW180 SCT250 BKN300 17/M02 A3006 RMK AO2 SLP180 T01671022=
201812182052 METAR KATL 182052Z 26005KT 10SM FEW120 FEW180 SCT250 BKN300 18/M02 A3006 RMK AO2 SLP178 T01831022 55003=
201812181952 METAR KATL 181952Z 29007KT 10SM FEW120 BKN190 BKN250 17/M01 A3005 RMK AO2 SLP178 T01721011=
201812181852 METAR KATL 181852Z 00000KT 10SM SCT180 SCT250 18/M03 A3005 RMK AO2 SLP176 T01781033=
201812181752 METAR KATL 181752Z 36004KT 10SM FEW120 FEW250 17/M03 A3007 RMK AO2 SLP181 T01671033 10167 20056 58024=
201812181652 METAR KATL 181652Z 03012KT 10SM FEW120 FEW250 14/M03 A3009 RMK AO2 SLP189 T01441028=
201812181552 METAR KATL 181552Z 35011KT 10SM FEW250 12/M01 A3013 RMK AO2 SLP205 T01221011=
201812181452 METAR KATL 181452Z 32010KT 10SM FEW250 09/01 A3014 RMK AO2 SLP209 T00890006 53008=
201812181352 METAR KATL 181352Z 31012KT 10SM FEW250 07/01 A3013 RMK AO2 SLP206 T00670006=
201812181252 METAR KATL 181252Z 33011KT 10SM FEW250 06/01 A3011 RMK AO2 SLP199 T00560006=
201812181152 METAR KATL 181152Z 32011KT 10SM FEW250 06/01 A3011 RMK AO2 SLP200 T00560006 10072 20056 53004=
201812181052 METAR KATL 181052Z 31010KT 10SM FEW250 06/01 A3010 RMK AO2 SLP194 T00610006=
201812180952 METAR KATL 180952Z 31007KT 10SM FEW250 06/01 A3010 RMK AO2 SLP194 T00560006=
201812180852 METAR KATL 180852Z 31008KT 10SM SCT250 06/01 A3010 RMK AO2 SLP194 T00610011 51003=
201812180752 METAR KATL 180752Z 31008KT 10SM SCT250 06/02 A3010 RMK AO2 SLP193 T00560017=
201812180652 METAR KATL 180652Z 31007KT 10SM SCT250 06/02 A3010 RMK AO2 SLP192 T00610017=
201812180552 METAR KATL 180552Z 33010KT 10SM BKN250 07/02 A3009 RMK AO2 SLP190 T00720017 10111 20067 58012=
201812180452 METAR KATL 180452Z 31006KT 10SM BKN250 07/02 A3012 RMK AO2 SLP202 T00720017 401670072=
201812180352 METAR KATL 180352Z 29007KT 10SM BKN250 08/02 A3013 RMK AO2 SLP204 T00780022=
201812180252 METAR KATL 180252Z 29006KT 10SM SCT250 09/02 A3013 RMK AO2 SLP204 T00890022 53001=
201812180152 METAR KATL 180152Z 31006KT 10SM FEW250 09/02 A3012 RMK AO2 SLP202 T00940022=
201812180052 METAR KATL 180052Z 27005KT 10SM FEW250 10/02 A3012 RMK AO2 SLP204 T01000022=
201812172352 METAR KATL 172352Z 28007KT 10SM FEW250 11/02 A3013 RMK AO2 SLP203 T01110022 10167 20111 53007=
201812172252 METAR KATL 172252Z 33008KT 10SM FEW250 12/02 A3012 RMK AO2 SLP200 T01220017=
201812172152 METAR KATL 172152Z 33014KT 10SM FEW250 15/00 A3011 RMK AO2 SLP196 T01500000=
201812172052 METAR KATL 172052Z 33014KT 10SM FEW250 16/M01 A3010 RMK AO2 SLP194 T01561011 56012=
201812171952 METAR KATL 171952Z 31013KT 10SM FEW250 16/M01 A3011 RMK AO2 SLP195 T01611011=
201812171852 METAR KATL 171852Z 31013G19KT 10SM FEW250 16/M01 A3010 RMK AO2 SLP193 T01611006=
201812171752 METAR KATL 171752Z 30014KT 10SM CLR 15/02 A3014 RMK AO2 SLP206 T01500017 10150 20072 58016=
201812171652 METAR KATL 171652Z 31011KT 10SM FEW250 14/03 A3017 RMK AO2 SLP218 T01390028=
201812171552 METAR KATL 171552Z 32011KT 10SM FEW250 12/04 A3019 RMK AO2 SLP224 T01220039=
201812171452 METAR KATL 171452Z 33010KT 10SM FEW200 10/05 A3019 RMK AO2 SLP223 T01000050 51018=
201812171352 METAR KATL 171352Z 32012KT 10SM FEW006 FEW200 FEW250 09/06 A3017 RMK AO2 SLP218 T00890061=
201812171349 SPECI KATL 171349Z 32012KT 10SM FEW006 FEW200 FEW250 08/06 A3017 RMK AO2=
201812171252 METAR KATL 171252Z 31011KT 8SM FEW090 SCT200 SCT250 07/06 A3016 RMK AO2 SLP215 T00720056=
201812171152 METAR KATL 171152Z 31008KT 10SM SCT180 BKN220 08/06 A3013 RMK AO2 SLP206 T00830061 10094 20083 53002=
201812171052 METAR KATL 171052Z 31009KT 10SM OVC150 08/06 A3013 RMK AO2 SLP204 T00830061=
201812170952 METAR KATL 170952Z 33007KT 10SM FEW090 BKN160 09/06 A3012 RMK AO2 SLP200 T00890061 $=
201812170852 METAR KATL 170852Z 31011KT 10SM FEW090 BKN180 09/06 A3013 RMK AO2 SLP203 T00890061 56005 $=
201812170752 METAR KATL 170752Z 32009KT 10SM FEW090 BKN220 09/06 A3013 RMK AO2 SLP205 T00890061 $=
201812170652 METAR KATL 170652Z 33010G20KT 10SM FEW090 BKN250 09/06 A3013 RMK AO2 SLP206 T00890061 $=
201812170552 METAR KATL 170552Z 33009KT 10SM SCT018 BKN250 09/06 A3014 RMK AO2 SLP209 T00940061 10106 20094 58003 $=
201812170452 METAR KATL 170452Z 33010KT 10SM SCT016 09/06 A3016 RMK AO2 SLP213 T00940061 401220078 $=
201812170429 SPECI KATL 170429Z 33011KT 10SM SCT015 SCT250 10/06 A3015 RMK AO2 T01000061 $=
201812170352 METAR KATL 170352Z 32016G20KT 10SM BKN016 11/07 A3016 RMK AO2 SLP213 T01060067 $=
201812170252 METAR KATL 170252Z 33011G20KT 10SM BKN017 11/07 A3015 RMK AO2 SLP213 T01060067 51015 $=
201812170152 METAR KATL 170152Z 32013KT 10SM BKN017 11/06 A3014 RMK AO2 SLP209 T01060061 $=
201812170052 METAR KATL 170052Z 31011KT 10SM BKN018 11/06 A3013 RMK AO2 SLP205 T01060061 $=
201812170049 SPECI KATL 170049Z 32011KT 10SM OVC018 11/06 A3013 RMK AO2 $=
201812162354 SPECI KATL 162354Z 32016G22KT 10SM SCT020 11/06 A3011 RMK AO2 SCT020 V BKN T01060061 $=
201812162352 METAR KATL 162352Z 32014G22KT 10SM BKN020 11/06 A3011 RMK AO2 SLP197 T01060061 10122 20106 51006 $=
201812162252 METAR KATL 162252Z 32014KT 10SM OVC022 11/06 A3011 RMK AO2 SLP197 BINOVC T01110061 $=
201812162152 METAR KATL 162152Z 31012G19KT 10SM BKN022 BKN250 11/07 A3012 RMK AO2 SLP200 T01110067 $=
201812162052 METAR KATL 162052Z 31009KT 10SM OVC023 12/07 A3009 RMK AO2 SLP190 BINOVC T01170067 55001 $=
201812161952 METAR KATL 161952Z 32006KT 10SM OVC024 11/06 A3009 RMK AO2 SLP191 BINOVC T01110061 $=
201812161852 METAR KATL 161852Z 30012KT 10SM FEW018 OVC023 11/07 A3009 RMK AO2 SLP191 BINOVC T01110067 $=
201812161752 METAR KATL 161752Z 32008KT 10SM FEW017 BKN023 OVC032 11/06 A3009 RMK AO2 SLP191 BINOVC 60000 T01110061 10117 20083 58011 $=
201812161652 METAR KATL 161652Z 30010KT 10SM SCT016 BKN024 BKN034 11/07 A3011 RMK AO2 DZE45 SLP196 P0000 T01110067 $=
201812161619 SPECI KATL 161619Z 29010G16KT 8SM -DZ SCT014 BKN018 OVC032 11/07 A3012 RMK AO2 CIG 015V021 BINOVC P0000 T01060072 $=
201812161552 METAR KATL 161552Z 29009KT 7SM -DZ SCT008 BKN012 OVC020 10/07 A3013 RMK AO2 SLP203 CIG 010V014 P0000 T01000072 $=
201812161452 METAR KATL 161452Z 27007KT 7SM -DZ OVC011 09/07 A3013 RMK AO2 DZB08 SLP203 CIG 009V013 P0000 60000 T00940067 53016 $=
201812161425 SPECI KATL 161425Z 28007KT 7SM -DZ OVC013 09/07 A3011 RMK AO2 DZB08 P0000 T00890067 $=
201812161352 METAR KATL 161352Z 28006KT 7SM BKN015 BKN024 OVC033 09/07 A3010 RMK AO2 SLP196 T00890067 $=
201812161252 METAR KATL 161252Z 28006KT 10SM FEW015 OVC020 08/07 A3010 RMK AO2 SLP194 T00830067 $=
201812161152 METAR KATL 161152Z 26005KT 10SM FEW014 BKN026 08/06 A3008 RMK AO2 SLP187 70001 T00830061 10094 20078 53013 $=
201812161056 SPECI KATL 161056Z 29007KT 10SM SCT014 BKN021 BKN032 08/07 A3006 RMK AO2 T00830067 $=
201812161052 METAR KATL 161052Z 29007KT 10SM FEW009 BKN014 BKN021 08/07 A3006 RMK AO2 SLP182 T00830067 $=
201812161033 SPECI KATL 161033Z 28007KT 10SM FEW008 BKN012 BKN030 08/07 A3006 RMK AO2 T00830067 $=
201812160952 METAR KATL 160952Z 27005KT 10SM FEW009 FEW022 SCT031 08/07 A3004 RMK AO2 SLP175 T00830067 $=
201812160852 METAR KATL 160852Z 29008KT 10SM SCT009 BKN020 OVC037 09/07 A3004 RMK AO2 SLP174 T00890072 51005 $=
201812160752 METAR KATL 160752Z 28007KT 10SM SCT007 BKN013 OVC044 09/07 A3004 RMK AO2 SLP174 T00890072 $=
201812160741 SPECI KATL 160741Z 28010KT 10SM SCT007 BKN013 OVC047 09/07 A3004 RMK AO2 T00890072 $=
201812160701 SPECI KATL 160701Z 27009KT 10SM SCT006 SCT013 OVC049 09/07 A3003 RMK AO2 T00890072 $=
201812160652 METAR KATL 160652Z 26008KT 10SM BKN006 BKN013 OVC049 09/07 A3003 RMK AO2 SLP170 CIG 005V009 BKN006 V SCT T00890072 $=
201812160552 METAR KATL 160552Z 29008KT 10SM BKN007 OVC015 09/08 A3002 RMK AO2 SLP167 DZE34 CIG 005V009 BINOVC P0000 60001 T00940078 10100 20089 58001 $=
201812160452 METAR KATL 160452Z 26007KT 10SM -DZ BKN007 OVC015 09/08 A3003 RMK AO2 DZB50 SLP171 VRY LGT PCPN P0000 T00940078 401170089 $=
201812160352 METAR KATL 160352Z 26005KT 6SM BR BKN005 OVC010 09/08 A3003 RMK AO2 DZE16RAB16E25 SLP170 P0001 T00940078 $=
201812160252 METAR KATL 160252Z 26005KT 4SM -DZ BR OVC005 09/08 A3003 RMK AO2 SLP169 P0000 60000 T00940078 52013 $=
201812160209 SPECI KATL 160209Z 26005KT 7SM -DZ BKN009 OVC015 09/07 A3002 RMK AO2 VRY LGT PCPN P0000 T00940072 $=
201812160152 METAR KATL 160152Z 24004KT 7SM -DZ BKN010 OVC015 09/07 A3002 RMK AO2 SLP167 DZB41 VRY LGT PCPN P0000 T00940072 $=
201812160052 METAR KATL 160052Z 22005KT 10SM BKN012 BKN018 OVC026 09/07 A3000 RMK AO2 SLP159 T00940067 $=
201812152352 METAR KATL 152352Z 23005KT 10SM FEW020 BKN027 BKN035 10/06 A2999 RMK AO2 SLP156 60000 T01000061 10111 20094 53014 $=
201812152322 SPECI KATL 152322Z 24008KT 10SM FEW020 BKN027 BKN035 10/06 A2998 RMK AO2 T01000061 $=
201812152252 METAR KATL 152252Z 23006KT 10SM FEW025 SCT047 BKN070 09/06 A2997 RMK AO2 SLP150 T00940056 $=
201812152152 METAR KATL 152152Z 24009G17KT 10SM SCT021 BKN036 OVC065 10/06 A2996 RMK AO2 SLP146 T01000056 $=
201812152052 METAR KATL 152052Z 24009KT 10SM SCT020 BKN036 OVC055 11/06 A2995 RMK AO2 RAE13 SLP141 BINOVC P0000 60000 T01060061 53005 $=
201812152019 SPECI KATL 152019Z 24008KT 10SM SCT020 BKN034 OVC050 10/06 A2994 RMK AO2 RAE13 P0000 T01000061 $=
201812151952 METAR KATL 151952Z 23007KT 9SM -RA BKN018 OVC026 10/07 A2993 RMK AO2 RAB31 SLP138 P0000 T01000067 $=
201812151932 SPECI KATL 151932Z 20008KT 8SM -RA SCT019 BKN026 OVC038 11/06 A2993 RMK AO2 RAB31 P0000 T01060061 $=
201812151852 METAR KATL 151852Z 22007KT 10SM SCT026 BKN035 OVC046 11/06 A2993 RMK AO2 SLP135 T01110056=
201812151752 METAR KATL 151752Z 24008KT 10SM FEW026 SCT035 OVC047 11/05 A2993 RMK AO2 SLP135 BINOVC T01110050 10117 20094 58008=
201812151652 METAR KATL 151652Z 23009KT 10SM SCT026 BKN035 OVC047 11/06 A2994 RMK AO2 SLP140 BINOVC T01110056=
201812151552 METAR KATL 151552Z 22007KT 10SM SCT023 BKN045 11/06 A2995 RMK AO2 SLP143 T01110061=
201812151452 METAR KATL 151452Z 24008KT 10SM FEW023 BKN034 10/06 A2996 RMK AO2 SLP145 T01000061 51014=
201812151352 METAR KATL 151352Z 20008KT 10SM FEW009 SCT023 BKN030 10/07 A2995 RMK AO2 SLP142 T01000067=
201812151335 SPECI KATL 151335Z 20013G19KT 8SM FEW008 SCT020 BKN032 10/07 A2994 RMK AO2 T01000067=
201812151320 SPECI KATL 151320Z 21005KT 6SM BR SCT003 BKN020 BKN036 09/08 A2994 RMK AO2 VIS LWR N T00940083=
201812151252 METAR KATL 151252Z 15006KT 1/2SM R09R/P6000FT BR OVC003 09/08 A2993 RMK AO2 SFC VIS 3 SLP137 CIG 002V004 T00940083=
201812151152 METAR KATL 151152Z 12005KT 1/2SM R09R/P6000FT BR BKN003 OVC038 09/08 A2991 RMK AO2 SFC VIS 5 RAE1055 SLP131 P0000 60003 70098 T00940083 10111 20094 53006=
201812151052 METAR KATL 151052Z 11005KT 1/2SM R09R/P6000FT -RA BR BKN004 BKN036 OVC043 09/08 A2990 RMK AO2 SFC VIS 4 RAB0957 SLP127 BKN004 V SCT P0003 T00940083=
201812151049 SPECI KATL 151049Z 11007KT 1/2SM R09R/P6000FT -RA BR BKN004 BKN036 OVC043 09/08 A2991 RMK AO2 SFC VIS 4 RAB0957 BKN004 V SCT P0003=
201812150952 METAR KATL 150952Z 13004KT 1/4SM R09R/2600V3000FT FG VV002 09/08 A2990 RMK AO2 SFC VIS 1/2 RAB37E46 SLP127 P0000 T00940083=
201812150929 SPECI KATL 150929Z 09005KT 1/4SM R09R/1800V2400FT FG VV002 09/09 A2989 RMK AO2 T00940089=
201812150852 METAR KATL 150852Z 09007KT 1/4SM R09R/1600FT FG VV002 10/09 A2990 RMK AO2 SLP124 60000 T01000089 56009=
201812150752 METAR KATL 150752Z 10003KT 1/4SM R09R/1800V2000FT FG VV002 10/09 A2990 RMK AO2 SLP126 T01000094=
201812150749 SPECI KATL 150749Z 11003KT 1/4SM R09R/1800V2000FT FG VV002 10/09 A2991 RMK AO2=
201812150740 SPECI KATL 150740Z 10003KT 1/2SM R09R/2000V2200FT FG VV002 11/09 A2990 RMK AO2 TWR VIS 1 T01060094=
201812150715 SPECI KATL 150715Z 10007KT 1/2SM R09R/2200V2400FT FG VV002 11/09 A2990 RMK AO2 TWR VIS 1 T01060094=
201812150652 METAR KATL 150652Z 12004KT 1SM R09R/4500VP6000FT BR OVC003 11/10 A2991 RMK AO2 RAE15DZB15E46 SLP131 P0000 T01060100=
201812150552 METAR KATL 150552Z 12005KT 1SM R09R/P6000FT -RA BR OVC003 11/10 A2992 RMK AO2 SFC VIS 4 RAB39 SLP134 P0000 60051 T01110100 10117 20100 55003=
201812150452 METAR KATL 150452Z 14004KT 1SM R09R/P6000FT OVC004 11/09 A2991 RMK AO2 SFC VIS 8 RAE14 SLP127 P0000 T01110094 401170078=
201812150352 METAR KATL 150352Z 08011KT 1SM R09R/P6000FT -RA BKN004 BKN060 OVC100 11/09 A2989 RMK AO2 SFC VIS 7 PRESFR SLP123 P0004 T01060094=
201812150328 SPECI KATL 150328Z 09012KT 1SM R09R/P6000FT -RA BKN004 BKN030 OVC100 11/09 A2991 RMK AO2 SFC VIS 7 PRESFR P0001 T01060089=
201812150305 SPECI KATL 150305Z 10009KT 3SM -RA BKN005 BKN030 OVC100 10/09 A2994 RMK AO2 SFC VIS 7 P0001 T01000089=
201812150252 METAR KATL 150252Z 09013KT 7SM -RA SCT008 BKN030 OVC100 10/09 A2994 RMK AO2 SLP138 SCT008 V BKN P0005 60047 T01000089 58001=
201812150238 SPECI KATL 150238Z 09009KT 7SM -RA SCT005 BKN060 OVC100 10/09 A2994 RMK AO2 P0003 T01000089=
201812150152 METAR KATL 150152Z 09009KT 2SM -RA BR BKN005 BKN050 OVC100 10/09 A2995 RMK AO2 SFC VIS 6 SLP145 P0008 T01000089=
201812150117 SPECI KATL 150117Z 10011KT 2SM -RA BKN005 BKN040 OVC110 10/09 A2993 RMK AO2 SFC VIS 8 P0006 T01000089=
201812150052 METAR KATL 150052Z 10009KT 1/2SM R09R/6000VP6000FT RA BR BKN004 BKN015 OVC070 10/09 A2995 RMK AO2 SFC VIS 3 SLP143 P0034 T01000089=
201812142352 METAR KATL 142352Z 04008KT 1/2SM R09R/P6000FT RA BR BKN004 BKN010 OVC040 11/09 A2994 RMK AO2 SFC VIS 2 1/2 SLP139 LTG DSNT NE P0025 60037 T01060089 10106 20094 50010=
201812142252 METAR KATL 142252Z 10007KT 1/2SM R09R/P6000FT -RA BR OVC003 10/09 A2995 RMK AO2 SFC VIS 2 RAB50 SLP143 P0000 T01000089=
201812142225 SPECI KATL 142225Z 08010KT 1/2SM R09R/P6000FT OVC004 10/09 A2992 RMK AO2 SFC VIS 8 T01000089=
201812142152 METAR KATL 142152Z 08009KT 1 1/2SM OVC005 11/09 A2992 RMK AO2 SFC VIS 7 SLP133 RAE00DZB00E22 P0000 T01060089=
201812142130 SPECI KATL 142130Z 09009KT 2SM OVC005 10/09 A2993 RMK AO2 SFC VIS 7 RAE00DZB00E22 TWRINC P0000 T01000089=
201812142111 SPECI KATL 142111Z 08014G22KT 1/4SM R09R/P6000FT -DZ BR OVC004 10/08 A2990 RMK AO2 SFC VIS 5 RAE00DZB00 TWRINC P0000 T01000083=
201812142052 METAR KATL 142052Z 06015KT 1SM R09R/P6000FT -RA BR OVC004 11/08 A2991 RMK AO2 SFC VIS 5 SLP129 P0005 60012 T01060083 58019=
201812141952 METAR KATL 141952Z 08015KT 2SM -RA BR BKN004 OVC015 09/08 A2994 RMK AO2 SFC VIS 4 DZE19RAB19 SLP141 P0007 T00940083=
201812141940 SPECI KATL 141940Z 08012KT 2SM RA BR BKN004 OVC020 09/08 A2994 RMK AO2 SFC VIS 3 DZE19RAB19 P0006 T00940083=
201812141852 METAR KATL 141852Z 08010KT 1/2SM R09R/6000VP6000FT -DZ BR OVC003 09/08 A2997 RMK AO2 SFC VIS 1 SLP149 P0000 T00940083=
201812141752 METAR KATL 141752Z 07012KT 1/2SM R09R/P6000FT -DZ BR OVC004 09/08 A2996 RMK AO2 SFC VIS 2 SLP148 P0000 60007 T00940083 10094 20078 58024=
201812141652 METAR KATL 141652Z 08014KT 3/4SM R09R/P6000FT -DZ BR OVC004 09/08 A3000 RMK AO2 SFC VIS 3 SLP160 P0001 T00940078=
201812141552 METAR KATL 141552Z 08013KT 3/4SM R09R/P6000FT -DZ BR OVC004 09/08 A3003 RMK AO2 SFC VIS 2 SLP171 P0000 T00890078=
201812141452 METAR KATL 141452Z 08012KT 3/4SM R09R/P6000FT -DZ BR OVC004 09/07 A3004 RMK AO2 SFC VIS 2 SLP173 P0000 60006 T00890072 55004=
201812141352 METAR KATL 141352Z 08016KT 3/4SM R09R/P6000FT -DZ BR OVC004 08/07 A3002 RMK AO2 SFC VIS 4 RAE47DZB47 SLP168 CIG 003V005 P0001 T00830072=
201812141317 SPECI KATL 141317Z 08016KT 1/2SM R09R/P6000FT -RA BR OVC003 08/07 A2999 RMK AO2 SFC VIS 2 1/2 PRESFR CIG 002V004 TWRINC P0000 T00830067=
201812141252 METAR KATL 141252Z 08015KT 1/2SM R09R/P6000FT -RA BR OVC003 08/07 A3003 RMK AO2 SFC VIS 3 SLP173 CIG 002V004 TWRINC P0005 T00830067=
201812141152 METAR KATL 141152Z 07013KT 1/2SM R09R/P6000FT -RA BR OVC002 08/07 A3005 RMK AO2 SFC VIS 2 RAE03B31DZB03E31 SLP178 CIG 001V003 TWRINC P0001 60012 70012 T00780067 10100 20078 56018=
201812141143 SPECI KATL 141143Z 07014KT 1/2SM R09R/P6000FT -RA BR OVC002 08/07 A3004 RMK AO2 SFC VIS 3 RAE03B31DZB03E31 PRESFR CIG 001V003 TWRINC P0000 T00780067=
201812141052 METAR KATL 141052Z 08015KT 1 1/2SM -RA BR OVC003 08/07 A3006 RMK AO2 SFC VIS 4 SLP183 CIG 002V005 P0001 T00780067=
201812141021 SPECI KATL 141021Z 08016KT 1 1/2SM -RA BR OVC003 08/06 A3003 RMK AO2 SFC VIS 4 PRESFR CIG 002V005 P0001 T00780061=
201812140952 METAR KATL 140952Z 08011KT 4SM -RA BR OVC004 08/06 A3007 RMK AO2 SLP185 CIG 003V006 P0004 T00780061=
201812140852 METAR KATL 140852Z 08014KT 6SM -RA BR OVC009 08/06 A3010 RMK AO2 SLP196 CIG 007V011 P0003 60006 T00830061 58006=
201812140752 METAR KATL 140752Z 09010KT 7SM -RA BKN012 OVC020 08/06 A3012 RMK AO2 SLP200 CIG 010V014 P0003 T00830061=
201812140652 METAR KATL 140652Z 09012KT 9SM -RA OVC013 09/04 A3011 RMK AO2 RAB23 SLP198 P0000 T00940044=
201812140625 SPECI KATL 140625Z 09014KT 10SM -RA OVC013 10/04 A3011 RMK AO2 RAB23 P0000 T01000039=
201812140552 METAR KATL 140552Z 09013KT 10SM OVC015 10/04 A3012 RMK AO2 SLP201 T01000039 10100 20089 55009=
201812140452 METAR KATL 140452Z 08014KT 10SM BKN015 OVC070 10/03 A3012 RMK AO2 SLP201 T01000033 401170039=
201812140352 METAR KATL 140352Z 09014KT 10SM BKN016 BKN070 OVC200 09/03 A3014 RMK AO2 SLP208 T00940028=
201812140335 SPECI KATL 140335Z 08013KT 10SM BKN020 BKN070 OVC200 09/02 A3014 RMK AO2 T00940022=
201812140252 METAR KATL 140252Z 08013KT 10SM FEW025 BKN070 OVC200 09/02 A3015 RMK AO2 SLP213 T00940022 58008=
201812140152 METAR KATL 140152Z 08013KT 10SM BKN055 BKN080 OVC200 09/02 A3016 RMK AO2 SLP216 T00940022=
201812140052 METAR KATL 140052Z 09011KT 10SM BKN060 BKN080 OVC200 09/02 A3017 RMK AO2 SLP221 T00940022=
201812132352 METAR KATL 132352Z 09011KT 10SM SCT060 BKN080 BKN200 09/02 A3017 RMK AO2 SLP222 T00940022 10117 20094 51011=
201812132252 METAR KATL 132252Z 09009KT 10SM SCT055 BKN120 OVC200 09/02 A3017 RMK AO2 SLP220 T00940022=
201812132152 METAR KATL 132152Z 10008KT 10SM FEW030 SCT055 SCT110 OVC190 10/02 A3016 RMK AO2 SLP216 T01000022=
201812132052 METAR KATL 132052Z 09010KT 10SM FEW030 SCT050 SCT110 BKN190 11/02 A3014 RMK AO2 SLP210 T01060022 57005=
201812132013 SPECI KATL 132013Z 09008KT 10SM FEW028 SCT050 SCT110 OVC190 11/02 A3014 RMK AO2 T01060017=
201812131952 METAR KATL 131952Z 10007KT 10SM BKN028 BKN110 BKN200 11/02 A3015 RMK AO2 SLP213 T01110017=
201812131948 SPECI KATL 131948Z 10006KT 10SM BKN028 BKN100 BKN200 11/02 A3015 RMK AO2=
201812131852 METAR KATL 131852Z 08007KT 10SM FEW100 BKN180 BKN250 11/02 A3016 RMK AO2 SLP216 VIRGA SE-SW T01060022=
201812131752 METAR KATL 131752Z 11005KT 10SM FEW110 BKN180 OVC250 10/01 A3017 RMK AO2 SLP221 VIRGA E-SE-SW T01000011 10100 20039 58016=
201812131652 METAR KATL 131652Z 10005KT 10SM FEW110 BKN170 OVC250 09/01 A3021 RMK AO2 SLP233 VIRGA DSNT N-NE-E DSNT S-SW-W T00890006=
201812131552 METAR KATL 131552Z 11007KT 10SM FEW110 BKN180 OVC250 08/00 A3022 RMK AO2 SLP240 VIRGA DSNT SE-S NW-N T00780000=
201812131452 METAR KATL 131452Z 09007KT 10SM FEW100 BKN180 OVC250 06/01 A3022 RMK AO2 SLP239 VIRGA OHD ALQDS T00560006 51007=
201812131352 METAR KATL 131352Z 08007KT 040V100 10SM FEW110 BKN180 OVC250 06/01 A3021 RMK AO2 SLP235 VIRGA SW-NW-NE T00610006=
201812131252 METAR KATL 131252Z 09006KT 10SM FEW110 BKN170 OVC250 04/00 A3021 RMK AO2 SLP236 VIRGA N-E-S & W-NW T00440000=
201812131152 METAR KATL 131152Z 09004KT 10SM BKN180 BKN250 04/M01 A3020 RMK AO2 SLP231 T00441006 10056 20039 53004=
201812131052 METAR KATL 131052Z 07003KT 10SM BKN180 OVC250 04/00 A3018 RMK AO2 SLP226 T00390000=
201812130952 METAR KATL 130952Z 00000KT 10SM BKN200 OVC250 04/M01 A3018 RMK AO2 SLP223 T00441006=
201812130852 METAR KATL 130852Z 09003KT 10SM SCT200 BKN250 04/M01 A3019 RMK AO2 SLP226 T00441011 53001=
201812130752 METAR KATL 130752Z 05005KT 10SM BKN200 BKN250 04/M01 A3019 RMK AO2 SLP227 T00391011=
201812130652 METAR KATL 130652Z 20003KT 10SM BKN200 BKN250 05/M01 A3017 RMK AO2 SLP222 T00501011=
201812130552 METAR KATL 130552Z 00000KT 10SM FEW180 BKN250 04/M01 A3018 RMK AO2 SLP224 T00441011 10083 20044 58007=
201812130452 METAR KATL 130452Z 00000KT 10SM BKN180 OVC250 05/M01 A3019 RMK AO2 SLP227 T00501011 401221006=
201812130352 METAR KATL 130352Z 19003KT 10SM FEW150 BKN200 OVC250 06/M01 A3020 RMK AO2 SLP232 T00561011=
201812130252 METAR KATL 130252Z 00000KT 10SM FEW150 SCT200 BKN250 07/M02 A3020 RMK AO2 SLP234 T00671022 50004=
201812130152 METAR KATL 130152Z 23003KT 10SM FEW150 SCT200 BKN250 07/M02 A3021 RMK AO2 SLP236 T00721022=
201812130052 METAR KATL 130052Z 22004KT 10SM SCT200 BKN250 07/M02 A3020 RMK AO2 SLP234 T00721017=
201812122352 METAR KATL 122352Z 20004KT 10SM BKN200 BKN250 08/M02 A3019 RMK AO2 SLP229 T00831022 10122 20083 53005=
201812122252 METAR KATL 122252Z 19003KT 10SM BKN200 BKN250 09/M02 A3019 RMK AO2 SLP228 T00941022=
201812122152 METAR KATL 122152Z 20004KT 10SM FEW150 SCT180 BKN250 10/M02 A3018 RMK AO2 SLP226 T01001022=
201812122052 METAR KATL 122052Z 24006KT 10SM FEW150 FEW180 BKN230 11/M05 A3018 RMK AO2 SLP224 VIRGA DSNT W-NW-N T01111050 55009=
201812121952 METAR KATL 121952Z 23008KT 10SM FEW150 FEW180 BKN220 12/M06 A3017 RMK AO2 SLP223 VIRGA DSNT NW-N-NE T01171061=
201812121852 METAR KATL 121852Z 28006KT 10SM FEW150 SCT180 BKN240 11/M03 A3019 RMK AO2 SLP229 VIRGA DSNT NW-N T01061028=
201812121752 METAR KATL 121752Z 25006KT 10SM BKN220 10/M03 A3020 RMK AO2 SLP233 T01001033 10100 21006 58014=
201812121652 METAR KATL 121652Z 26007KT 10SM BKN230 09/M03 A3024 RMK AO2 SLP247 T00891033=
201812121552 METAR KATL 121552Z 30004KT 10SM BKN240 06/M02 A3024 RMK AO2 SLP246 T00611017=
201812121452 METAR KATL 121452Z 20003KT 10SM FEW100 SCT150 BKN180 BKN220 02/M02 A3025 RMK AO2 SLP250 VIRGA DSNT NE DSNT W-N T00221022 50003=
201812121352 METAR KATL 121352Z 00000KT 10SM FEW100 SCT180 BKN220 02/M03 A3025 RMK AO2 SLP253 VIRGA OHD-W-N T00171028=
201812121252 METAR KATL 121252Z 32004KT 10SM SCT180 BKN220 01/M04 A3024 RMK AO2 SLP249 T00061039=
201812121152 METAR KATL 121152Z 30004KT 10SM SCT200 BKN250 00/M04 A3024 RMK AO2 SLP247 T00001039 10011 21006 52000=
201812121052 METAR KATL 121052Z 30005KT 10SM SCT250 00/M04 A3023 RMK AO2 SLP245 T00001039=
201812120952 METAR KATL 120952Z 28005KT 10SM SCT250 00/M04 A3024 RMK AO2 SLP245 T00001044=
201812120852 METAR KATL 120852Z 28005KT 10SM CLR 01/M04 A3023 RMK AO2 SLP243 T00061039 56003=
201812120752 METAR KATL 120752Z 29006KT 10SM FEW250 01/M04 A3024 RMK AO2 SLP245 T00061039=
201812120652 METAR KATL 120652Z 28005KT 10SM FEW250 01/M04 A3023 RMK AO2 SLP243 T00111039=
201812120552 METAR KATL 120552Z 27005KT 10SM FEW250 01/M04 A3024 RMK AO2 SLP246 T00111039 10061 20011 56010=
201812120452 METAR KATL 120452Z 28005KT 10SM FEW250 02/M04 A3025 RMK AO2 SLP248 T00171039 401170006=
201812120352 METAR KATL 120352Z 28005KT 10SM FEW250 02/M04 A3025 RMK AO2 SLP250 T00221039=
201812120252 METAR KATL 120252Z 29007KT 10SM FEW250 03/M04 A3028 RMK AO2 SLP259 T00281039 53005=
201812120152 METAR KATL 120152Z 29007KT 10SM FEW250 03/M04 A3027 RMK AO2 SLP258 T00331039=
201812120052 METAR KATL 120052Z 29007KT 10SM FEW250 05/M04 A3026 RMK AO2 SLP256 T00501044=
201812112352 METAR KATL 112352Z 31006KT 10SM CLR 06/M04 A3026 RMK AO2 SLP253 T00561039 10117 20056 53004=
201812112252 METAR KATL 112252Z 28006KT 10SM CLR 08/M03 A3025 RMK AO2 SLP248 T00781033=
201812112152 METAR KATL 112152Z 31006KT 10SM CLR 10/M04 A3024 RMK AO2 SLP247 T01001044=
201812112052 METAR KATL 112052Z 30006KT 10SM CLR 12/M06 A3025 RMK AO2 SLP246 T01171056 55007 $=
201812111952 METAR KATL 111952Z 28008KT 10SM CLR 12/M04 A3024 RMK AO2 SLP244 T01171044 $=
201812111852 METAR KATL 111852Z 00000KT 10SM CLR 11/M06 A3025 RMK AO2 SLP249 T01061056 $=
201812111752 METAR KATL 111752Z 30010KT 10SM FEW250 10/M04 A3027 RMK AO2 SLP254 T01001039 10100 20006 58017 $=
201812111652 METAR KATL 111652Z 31009KT 10SM FEW250 08/M03 A3030 RMK AO2 SLP265 T00831028 $=
201812111552 METAR KATL 111552Z 32009KT 10SM CLR 06/M03 A3032 RMK AO2 SLP271 T00561033=
201812111452 METAR KATL 111452Z 31010KT 10SM CLR 03/M02 A3032 RMK AO2 SLP274 T00331017 53020=
201812111352 METAR KATL 111352Z 31013KT 10SM CLR 02/M02 A3029 RMK AO2 SLP264 T00171017=
201812111252 METAR KATL 111252Z 31011KT 10SM CLR 01/M02 A3027 RMK AO2 SLP258 T00061017=
201812111152 METAR KATL 111152Z 31007KT 10SM FEW008 FEW020 01/M01 A3026 RMK AO2 SLP254 70008 T00111011 10050 20011 53012=
201812111052 METAR KATL 111052Z 31008KT 9SM FEW008 FEW020 03/00 A3024 RMK AO2 SLP247 T00280000=
201812111033 SPECI KATL 111033Z 30010KT 6SM BR FEW006 SCT020 03/01 A3024 RMK AO2 T00280006=
201812111010 SPECI KATL 111010Z 29007KT 6SM BR SCT006 BKN020 03/02 A3023 RMK AO2 T00330017=
201812110952 METAR KATL 110952Z 29007KT 5SM BR BKN006 03/02 A3023 RMK AO2 SLP242 CIG 005V009 T00330017=
201812110852 METAR KATL 110852Z 31007KT 6SM BR BKN006 BKN017 04/03 A3022 RMK AO2 SLP240 T00440028 53007=
201812110752 METAR KATL 110752Z 32007KT 5SM BR BKN005 BKN010 OVC017 04/03 A3021 RMK AO2 SLP236 T00440028=
201812110652 METAR KATL 110652Z 30005KT 5SM BR BKN005 BKN017 05/03 A3020 RMK AO2 SLP232 T00500033=
201812110650 SPECI KATL 110650Z 30005KT 5SM BR BKN005 BKN017 05/03 A3020 RMK AO2=
201812110630 SPECI KATL 110630Z 31005KT 6SM BR SCT005 SCT012 BKN022 05/03 A3020 RMK AO2 T00500033=
201812110552 METAR KATL 110552Z 33007KT 7SM SCT006 BKN012 OVC025 05/03 A3020 RMK AO2 SLP232 60003 T00500033 10050 20044 51008=
201812110452 METAR KATL 110452Z 33006KT 7SM OVC006 05/03 A3019 RMK AO2 RAE37 SLP229 CIG 005V009 P0000 T00500033 400610039=
201812110352 METAR KATL 110352Z 34005KT 7SM -RA BKN006 OVC020 05/03 A3018 RMK AO2 SLP227 P0000 T00500033=
201812110252 METAR KATL 110252Z 34006KT 7SM -RA BKN008 OVC050 04/03 A3018 RMK AO2 SLP224 CIG 005V011 P0001 60003 T00440028 53008=
201812110152 METAR KATL 110152Z 34008KT 7SM -RA BKN006 BKN012 OVC050 04/03 A3017 RMK AO2 SLP221 P0001 T00440033=
201812110140 SPECI KATL 110140Z 33004KT 7SM -RA SCT005 BKN010 OVC050 04/03 A3017 RMK AO2 P0001 T00440033=
201812110052 METAR KATL 110052Z 34007KT 8SM -RA FEW007 SCT025 BKN050 OVC150 04/03 A3016 RMK AO2 SLP217 P0001 T00440028=
201812110047 SPECI KATL 110047Z 34006KT 8SM -RA FEW007 SCT025 BKN050 OVC150 04/03 A3016 RMK AO2 P0001=
201812102352 METAR KATL 102352Z 34007KT 6SM -RA BR BKN007 BKN015 OVC050 05/03 A3015 RMK AO2 SLP215 P0002 60005 T00500033 10061 20050 51019=
201812102252 METAR KATL 102252Z 33009KT 2SM -RA BR BKN006 BKN015 OVC025 05/03 A3013 RMK AO2 SFC VIS 4 SLP209 P0001 T00500033=
201812102152 METAR KATL 102152Z 32010KT 2SM -RA BR BKN007 BKN010 OVC020 06/04 A3011 RMK AO2 SFC VIS 3 SLP203 P0001 T00560039=
201812102052 METAR KATL 102052Z 32010KT 2SM -RA BR BKN007 BKN020 OVC040 06/04 A3009 RMK AO2 SFC VIS 3 RAB42 SLP195 P0000 60001 T00560039 53004=
201812102048 SPECI KATL 102048Z 32009KT 2SM -RA BR BKN007 BKN020 OVC040 06/04 A3009 RMK AO2 SFC VIS 3 RAB42 P0000=
201812101959 SPECI KATL 101959Z 32008KT 3SM BR SCT007 BKN019 OVC025 06/04 A3008 RMK AO2 SFC VIS 5 T00610044=
201812101952 METAR KATL 101952Z 32007KT 3SM BR SCT007 BKN013 OVC019 06/04 A3008 RMK AO2 SFC VIS 5 RAB11E44 SLP191 P0001 T00610039=
201812101917 SPECI KATL 101917Z 31007KT 3SM -RA BR BKN007 BKN015 OVC020 06/04 A3008 RMK AO2 SFC VIS 4 RAB11 P0000 T00560039=
201812101852 METAR KATL 101852Z 30006KT 3SM BR BKN007 BKN012 OVC020 06/04 A3008 RMK AO2 SFC VIS 6 RAE48 SLP191 P0000 T00610039=
201812101850 SPECI KATL 101850Z 28005KT 3SM BR BKN007 BKN012 OVC020 06/04 A3008 RMK AO2 SFC VIS 6 RAE48 P0000=
201812101830 SPECI KATL 101830Z 31006KT 3SM -RA BR FEW007 BKN012 OVC020 06/04 A3008 RMK AO2 SFC VIS 5 P0000 T00610039=
201812101752 METAR KATL 101752Z 29007KT 3SM -RA BR BKN007 BKN015 OVC020 06/04 A3009 RMK AO2 SFC VIS 5 SLP195 P0000 60000 T00560039 10061 20039 58004=
201812101652 METAR KATL 101652Z 31007KT 3SM -RA BR BKN007 BKN010 OVC020 06/03 A3010 RMK AO2 SFC VIS 6 RAE1558B48DZB13E48 SLP200 P0000 T00560033=
201812101623 SPECI KATL 101623Z 32008KT 3SM -DZ BR BKN007 BKN012 OVC020 05/03 A3011 RMK AO2 SFC VIS 5 RAE1558DZB13 P0000 T00500033=
201812101614 SPECI KATL 101614Z 33008KT 3SM -DZ BR SCT007 BKN012 OVC020 05/03 A3012 RMK AO2 SFC VIS 5 RAE1558DZB13 P0000 T00500033=
201812101552 METAR KATL 101552Z 32008KT 3SM -RA BR BKN007 OVC012 05/03 A3012 RMK AO2 SFC VIS 5 RAB48 SLP204 P0000 T00500033=
201812101457 SPECI KATL 101457Z 32006KT 3SM BR OVC005 04/03 A3010 RMK AO2 SFC VIS 5 T00440028=
201812101452 METAR KATL 101452Z 31006KT 2 1/2SM BR OVC005 04/03 A3010 RMK AO2 SFC VIS 5 DZE47 SLP199 P0000 60000 T00440028 53022=
201812101352 METAR KATL 101352Z 31004KT 2 1/2SM -DZ BR OVC005 04/03 A3008 RMK AO2 SFC VIS 4 RAB00E12DZB12 SLP192 CIG 004V006 P0000 T00390028=
201812101342 SPECI KATL 101342Z 31008KT 2 1/2SM -DZ BR OVC005 04/02 A3007 RMK AO2 SFC VIS 5 RAB00E12DZB12 CIG 004V006 P0000 T00390022=
201812101326 SPECI KATL 101326Z 30005KT 2 1/2SM -DZ BR OVC004 04/02 A3007 RMK AO2 SFC VIS 5 RAB00E12DZB12 P0000 T00390022=
201812101313 SPECI KATL 101313Z 31006KT 1 1/4SM -DZ BR OVC004 04/03 A3007 RMK AO2 SFC VIS 4 RAB00E12DZB12 P0000 T00390028=
201812101302 SPECI KATL 101302Z 31005KT 3SM -RA BR OVC004 04/03 A3007 RMK AO2 SFC VIS 4 RAB00 P0000 T00390028=
201812101252 METAR KATL 101252Z 29006KT 6SM BR OVC005 04/03 A3006 RMK AO2 RAB18E33 SLP185 CIG 004V006 P0000 T00390028=
201812101152 METAR KATL 101152Z 33005KT 6SM BR OVC005 04/02 A3003 RMK AO2 SLP177 60002 70006 T00390022 10039 20039 53006=
201812101052 METAR KATL 101052Z 33007KT 6SM BR OVC005 04/02 A3002 RMK AO2 SLP173 T00390022=
201812100952 METAR KATL 100952Z 33005KT 7SM OVC006 04/02 A3001 RMK AO2 SLP168 CIG 005V007 T00390022 $=
201812100852 METAR KATL 100852Z 32007KT 10SM OVC006 04/02 A3002 RMK AO2 RAE0757 SLP171 P0000 60002 T00390022 53003 $=
201812100809 SPECI KATL 100809Z 33006KT 8SM BKN008 BKN024 OVC028 04/02 A3001 RMK AO2 RAE0757 P0000 T00390022 $=
201812100752 METAR KATL 100752Z 32009KT 6SM -RA BR SCT007 BKN020 OVC025 04/02 A3001 RMK AO2 DZE23RAB23 SLP168 P0001 T00390022 $=
201812100725 SPECI KATL 100725Z 32010KT 7SM -RA SCT005 SCT010 OVC020 04/02 A3000 RMK AO2 DZE23RAB23 P0000 T00390022 $=
201812100659 SPECI KATL 100659Z 31006KT 5SM -DZ BR OVC004 04/03 A3000 RMK AO2 P0000 T00390028 $=
201812100652 METAR KATL 100652Z 31006KT 4SM -DZ BR BKN005 OVC019 04/03 A3000 RMK AO2 DZE07B32RAB07E32 SLP166 CIG 004V006 P0001 T00390028 $=
201812100552 METAR KATL 100552Z 29005KT 4SM -DZ BR BKN005 OVC010 04/03 A3001 RMK AO2 SLP167 P0000 60000 T00390028 10039 20033 50001 $=
201812100537 SPECI KATL 100537Z 29005KT 5SM -DZ BR BKN005 OVC013 04/03 A3001 RMK AO2 VRY LGT PCPN P0000 T00390028 $=
201812100452 METAR KATL 100452Z 34004KT 7SM -DZ SCT007 BKN012 OVC020 04/02 A3001 RMK AO2 DZE36B51 SLP168 VRY LGT PCPN P0000 T00390022 400390022 $=
201812100437 SPECI KATL 100437Z 35004KT 7SM SCT007 OVC015 04/02 A3001 RMK AO2 DZE36 P0000 T00390022 $=
201812100352 METAR KATL 100352Z 33006KT 7SM -DZ BKN008 OVC012 04/02 A3001 RMK AO2 SLP169 VRY LGT PCPN P0000 T00390022 $=
201812100343 SPECI KATL 100343Z 32006KT 7SM -DZ BKN009 OVC013 03/02 A3001 RMK AO2 P0000 T00330022 $=
201812100252 METAR KATL 100252Z 02008KT 10SM -DZ BKN010 OVC018 04/02 A3000 RMK AO2 SLP166 VRY LGT PCPN P0000 60000 T00390017 51004 $=
201812100152 METAR KATL 100152Z 03007KT 8SM -DZ BKN012 OVC018 04/01 A3000 RMK AO2 SLP164 DZB03 P0000 T00390011 $=
201812100052 METAR KATL 100052Z 03008KT 10SM BKN012 OVC020 03/01 A3000 RMK AO2 DZE50 SLP166 P0000 T00330011 $=
201812092352 METAR KATL 092352Z 04008KT 10SM -DZ BR BKN009 OVC015 03/01 A2999 RMK AO2 SLP163 VRY LGT PCPN P0000 60000 T00330011 10033 20028 51011 $=
201812092252 METAR KATL 092252Z 04008KT 3SM -DZ BR BKN006 OVC011 03/01 A2998 RMK AO2 SFC VIS 5 SLP159 P0000 T00280011 $=
201812092152 METAR KATL 092152Z 05007KT 2SM -DZ BR BKN006 OVC009 03/01 A2997 RMK AO2 DZB29 SLP156 P0000 T00280011 $=
201812092147 SPECI KATL 092147Z 06008KT 2SM -DZ BR BKN006 OVC009 03/01 A2997 RMK AO2 SFC VIS 2 1/2 DZB29 P0000 $=
201812092133 SPECI KATL 092133Z 06008KT 5SM -DZ BR OVC009 03/01 A2997 RMK AO2 DZB29 P0000 T00280011 $=
201812092052 METAR KATL 092052Z 06010KT 8SM OVC010 03/01 A2996 RMK AO2 DZE28 SLP152 P0000 60000 T00280006 53001 $=
201812091952 METAR KATL 091952Z 05011G21KT 6SM -DZ BR OVC009 03/01 A2995 RMK AO2 DZB21 SLP148 P0000 T00280011 $=
201812091852 METAR KATL 091852Z 07014G21KT 8SM OVC009 03/01 A2995 RMK AO2 DZE50 SLP147 P0000 T00280006 $=
201812091803 SPECI KATL 091803Z 07017KT 4SM -DZ BR BKN009 OVC014 03/01 A2995 RMK AO2 P0000 T00330011 $=
201812091752 METAR KATL 091752Z 06015KT 2 1/2SM -DZ BR OVC009 03/01 A2995 RMK AO2 SLP150 P0000 60004 T00330011 10033 20022 58015 $=
201812091736 SPECI KATL 091736Z 07015KT 2 1/2SM -DZ BR OVC008 03/01 A2996 RMK AO2 P0000 T00280011 $=
201812091652 METAR KATL 091652Z 07017G24KT 6SM -DZ BR OVC009 03/01 A2997 RMK AO2 DZB49 SLP157 P0000 T00280011 $=
201812091552 METAR KATL 091552Z 07014KT 10SM OVC009 03/01 A2998 RMK AO2 RAE03UPB1459E00DZB03E39 SLP159 P0000 T00280011 $=
201812091534 SPECI KATL 091534Z 06016G22KT 5SM -DZ BR OVC009 03/01 A2999 RMK AO2 RAE03UPB1459E00DZB03 P0000 T00280011 $=
201812091452 METAR KATL 091452Z 07014G19KT 3SM -RA BR OVC010 03/01 A3000 RMK AO2 DZB09E49RAB49 SLP166 P0000 60004 T00280006 55001 $=
201812091429 SPECI KATL 091429Z 07013G22KT 4SM -DZ BR OVC012 02/00 A3000 RMK AO2 DZB09 P0000 T00220000 $=
201812091352 METAR KATL 091352Z 07017KT 10SM OVC011 02/00 A2999 RMK AO2 PK WND 08031/1310 SLP160 CIG 010V014 T00220000 $=
201812091252 METAR KATL 091252Z 08019G24KT 9SM BKN010 OVC013 02/00 A2999 RMK AO2 PK WND 07027/1242 RAE40 SLP161 P0004 T00220000 $=
201812091203 SPECI KATL 091203Z 07018KT 3SM -RA BR BKN009 BKN014 OVC024 02/01 A3001 RMK AO2 SFC VIS 4 P0001 T00220006 $=
201812091152 METAR KATL 091152Z 08017G24KT 3SM -RA BR FEW007 BKN012 OVC017 02/01 A3000 RMK AO2 SFC VIS 4 SLP166 P0009 60078 70245 T00220006 10039 20022 55006 $=
201812091052 METAR KATL 091052Z 08019G24KT 3SM -RA BR BKN009 OVC015 02/01 A2999 RMK AO2 SFC VIS 5 SLP162 P0011 T00220006 $=
201812090952 METAR KATL 090952Z 08020G26KT 3SM -RA BR BKN009 OVC014 02/01 A2999 RMK AO2 PK WND 08031/0922 SFC VIS 4 SLP161 P0003 T00220006 $=
201812090852 METAR KATL 090852Z 07018G24KT 3SM -RA BR BKN009 OVC013 03/01 A3002 RMK AO2 PK WND 07027/0759 SFC VIS 4 SLP172 CIG 007V011 P0014 60055 T00280006 58025 $=
201812090848 SPECI KATL 090848Z 08019G24KT 3SM -RA BR BKN009 OVC013 03/01 A3002 RMK AO2 PK WND 07027/0759 SFC VIS 4 CIG 007V011 P0013 $=
201812090832 SPECI KATL 090832Z 07017G25KT 2SM +RA BR BKN009 OVC015 03/01 A3003 RMK AO2 PK WND 07027/0759 TWR VIS 3 CIG 007V011 P0012 T00280011 $=
201812090803 SPECI KATL 090803Z 08015G27KT 3SM +RA BR BKN009 OVC015 03/01 A3004 RMK AO2 PK WND 07027/0759 SFC VIS 5 CIG 007V011 P0002 T00280006 $=
201812090752 METAR KATL 090752Z 06015KT 3SM -RA BR BKN010 OVC014 03/01 A3004 RMK AO2 PK WND 06028/0725 SFC VIS 5 SLP180 P0010 T00280011 $=
201812090735 SPECI KATL 090735Z 06018G24KT 3SM RA BR FEW008 BKN012 OVC019 03/01 A3006 RMK AO2 PK WND 06028/0725 SFC VIS 4 P0007 T00280011 $=
201812090652 METAR KATL 090652Z 05013KT 3SM +RA BR BKN008 OVC015 03/02 A3008 RMK AO2 PK WND 08026/0600 SLP190 CIG 007V011 P0031 T00330017 $=
201812090634 SPECI KATL 090634Z 05014KT 3SM RA BR BKN009 OVC015 03/02 A3009 RMK AO2 PK WND 08026/0600 SFC VIS 4 CIG 007V011 P0023 T00330017 $=
201812090606 SPECI KATL 090606Z 04010G26KT 2 1/2SM +RA BR BKN009 OVC015 04/02 A3012 RMK AO2 PK WND 08026/0600 TWR VIS 3 PRESRR CIG 007V011 P0004 T00390017=
201812090552 METAR KATL 090552Z 06016G25KT 3SM RA BR BKN009 OVC015 04/02 A3010 RMK AO2 PK WND 07033/0518 SFC VIS 4 SLP197 P0007 60071 T00390017 10050 20039 58012=
201812090452 METAR KATL 090452Z 08019G32KT 3SM RA BR BKN008 OVC013 04/02 A3010 RMK AO2 PK WND 08032/0449 SLP198 P0015 T00390017 400780039=
201812090449 SPECI KATL 090449Z 08026G32KT 3SM RA BR BKN008 OVC015 04/02 A3010 RMK AO2 PK WND 08032/0449 SFC VIS 4 PRESFR P0014=
201812090406 SPECI KATL 090406Z 08018G29KT 2 1/2SM +RA BR BKN009 OVC015 04/02 A3013 RMK AO2 PK WND 08029/0357 TWR VIS 3 P0006 T00390022=
201812090352 METAR KATL 090352Z 07021G27KT 3SM RA BR BKN009 OVC013 04/02 A3015 RMK AO2 PK WND 08029/0305 SFC VIS 3 SLP216 P0016 T00440022=
201812090335 SPECI KATL 090335Z 06022G26KT 2SM +RA BR OVC009 04/03 A3014 RMK AO2 PK WND 08029/0305 TWR VIS 3 P0012 T00440028=
201812090252 METAR KATL 090252Z 09020G34KT 10SM -RA BKN008 OVC012 04/02 A3013 RMK AO2 PK WND 09034/0247 SLP209 P0005 60033 T00440022 56026=
201812090152 METAR KATL 090152Z 09024G33KT 5SM RA BR BKN008 OVC013 04/03 A3014 RMK AO2 PK WND 08035/0137 SLP213 P0011 T00440028=
201812090052 METAR KATL 090052Z 08021G28KT 4SM RA BR BKN008 OVC012 04/03 A3019 RMK AO2 PK WND 09028/0046 SLP229 P0017 T00440028=
201812082352 METAR KATL 082352Z 08017KT 3SM RA BR BKN008 OVC012 05/03 A3021 RMK AO2 PK WND 08030/2318 SLP235 P0015 60069 T00500028 10056 20044 56015=
201812082252 METAR KATL 082252Z 08018G24KT 4SM RA BR BKN008 OVC012 04/03 A3022 RMK AO2 SLP238 BINOVC P0019 T00440028=
201812082152 METAR KATL 082152Z 07018KT 3SM RA BR BKN006 OVC011 05/03 A3024 RMK AO2 SLP244 P0013 T00500028=
201812082052 METAR KATL 082052Z 08013KT 4SM RA BR OVC006 05/03 A3025 RMK AO2 SLP250 P0006 60022 T00500033 58020=
201812081952 METAR KATL 081952Z 07012KT 4SM RA BR BKN006 OVC011 05/04 A3029 RMK AO2 SLP263 P0008 T00500039=
201812081852 METAR KATL 081852Z 08011KT 4SM RA BR OVC006 05/04 A3028 RMK AO2 SLP260 P0008 T00500039=
201812081752 METAR KATL 081752Z 08013KT 6SM -RA BR OVC006 05/03 A3032 RMK AO2 SLP271 P0004 60027 T00500033 10056 20044 58034=
201812081652 METAR KATL 081652Z 08014KT 5SM -RA BR OVC006 05/03 A3036 RMK AO2 SLP286 P0002 T00500033=
201812081552 METAR KATL 081552Z 08011KT 5SM -RA BR OVC007 05/03 A3040 RMK AO2 SLP301 P0005 T00500033=
201812081452 METAR KATL 081452Z 09009KT 4SM -RA BR OVC008 04/03 A3042 RMK AO2 SLP307 P0007 60016 T00440028 51027=
201812081352 METAR KATL 081352Z 07012KT 4SM -RA BR BKN007 BKN015 OVC047 04/03 A3040 RMK AO2 SLP299 CIG 005V009 P0006 T00440028 $=
201812081252 METAR KATL 081252Z 07009KT 5SM -RA BR BKN005 BKN015 OVC045 04/03 A3037 RMK AO2 SLP290 CIG 004V008 P0003 T00440028 $=
201812081241 SPECI KATL 081241Z 09007KT 4SM BR BKN005 BKN012 OVC055 04/03 A3037 RMK AO2 RAEMM CIG 004V008 P0002 T00440033 $=
201812081237 SPECI KATL 081237Z 10008KT 4SM -RA BR OVC004 04/03 A3036 RMK AO2 P0002 T00440033=
201812081152 METAR KATL 081152Z 06012KT 5SM -RA BR BKN005 OVC039 06/04 A3034 RMK AO2 SLP279 CIG 004V007 P0001 60009 70011 T00560039 10078 20056 58007=
201812081052 METAR KATL 081052Z 08008KT 4SM -RA BR BKN005 OVC060 06/04 A3035 RMK AO2 SLP281 CIG 004V007 P0002 T00610044=
201812080952 METAR KATL 080952Z 08007KT 4SM -RA BR OVC005 07/05 A3036 RMK AO2 SLP284 P0004 T00670050=
201812080941 SPECI KATL 080941Z 08006KT 4SM -RA BR BKN006 OVC050 07/05 A3036 RMK AO2 P0003 T00670050=
201812080852 METAR KATL 080852Z 08006KT 5SM -RA BR SCT006 OVC046 07/05 A3036 RMK AO2 RAB0757 SLP285 P0002 60002 T00670050 50000=
201812080752 METAR KATL 080752Z 07006KT 8SM FEW009 BKN049 OVC060 07/05 A3037 RMK AO2 RAE48 SLP288 P0000 T00720050=
201812080652 METAR KATL 080652Z 06006KT 7SM -RA FEW012 BKN036 OVC047 07/04 A3035 RMK AO2 SLP283 P0000 T00720044=
201812080552 METAR KATL 080552Z 04004KT 7SM -RA BKN032 OVC070 08/05 A3036 RMK AO2 RAE31B52 SLP285 P0000 60000 T00780050 10078 20067 58003=
201812080452 METAR KATL 080452Z 01007KT 8SM -RA FEW010 OVC025 07/04 A3037 RMK AO2 RAB51 SLP288 P0000 T00720044 400780033=
201812080352 METAR KATL 080352Z 00000KT 8SM FEW010 OVC028 07/05 A3037 RMK AO2 SLP291 T00720050=
201812080252 METAR KATL 080252Z 00000KT 8SM FEW010 BKN028 OVC070 07/04 A3037 RMK AO2 SLP289 T00720039 58002=
201812080152 METAR KATL 080152Z 00000KT 9SM FEW015 BKN030 OVC070 07/04 A3038 RMK AO2 SLP291 T00720044=
201812080052 METAR KATL 080052Z 00000KT 10SM FEW015 SCT032 OVC070 07/04 A3038 RMK AO2 SLP291 T00720039=
201812072352 METAR KATL 072352Z 29003KT 10SM SCT032 BKN070 OVC200 07/04 A3037 RMK AO2 RAB11E50 SLP291 P0000 60001 T00670044 10078 20067 51006=
201812072252 METAR KATL 072252Z 27003KT 10SM FEW035 BKN075 OVC200 07/04 A3037 RMK AO2 RAB2159E26 SLP289 P0000 T00720044=
201812072152 METAR KATL 072152Z 00000KT 8SM FEW046 BKN100 OVC200 08/04 A3036 RMK AO2 RAE38 SLP288 P0000 T00780039=
201812072052 METAR KATL 072052Z 00000KT 8SM -RA FEW034 BKN090 OVC200 08/04 A3036 RMK AO2 RAE06B42 SLP285 P0001 60001 T00780039 56018=
201812071952 METAR KATL 071952Z VRB03KT 10SM -RA FEW044 SCT080 OVC200 08/03 A3036 RMK AO2 SLP286 P0000 T00780033=
201812071852 METAR KATL 071852Z 33004KT 9SM -RA SCT040 BKN050 OVC080 07/02 A3039 RMK AO2 SLP297 P0000 T00720022=
201812071752 METAR KATL 071752Z 33004KT 10SM -RA FEW040 BKN075 OVC100 07/01 A3041 RMK AO2 SLP303 P0000 60001 T00720011 10072 20050 58012=
201812071719 SPECI KATL 071719Z 34004KT 10SM -RA FEW025 BKN085 OVC100 07/01 A3042 RMK AO2 P0000 T00720011=
201812071652 METAR KATL 071652Z 35004KT 10SM -RA BKN025 BKN085 OVC100 07/01 A3043 RMK AO2 SLP311 P0001 T00720011=
201812071607 SPECI KATL 071607Z 32005KT 10SM -RA BKN027 BKN085 OVC100 07/M01 A3044 RMK AO2 P0000 T00671006=
201812071552 METAR KATL 071552Z 32005KT 10SM -RA FEW040 BKN090 OVC110 06/M01 A3045 RMK AO2 RAE25B52 SLP317 P0000 T00611006=
201812071452 METAR KATL 071452Z 31007KT 10SM -RA FEW040 BKN080 OVC100 06/M01 A3045 RMK AO2 RAB36 SLP317 P0000 60000 T00561006 51020=
201812071352 METAR KATL 071352Z 29006KT 10SM FEW055 BKN070 OVC100 06/M01 A3043 RMK AO2 SLP309 VIRGA SW-NW T00561011=
201812071252 METAR KATL 071252Z 30006KT 10SM BKN060 OVC085 05/M01 A3041 RMK AO2 RAB13E24 SLP302 P0000 T00501011=
201812071152 METAR KATL 071152Z 31005KT 10SM BKN060 OVC080 05/M02 A3039 RMK AO2 RAB39E51 SLP295 P0000 60000 T00501017 10056 20033 53012=
201812071052 METAR KATL 071052Z 28003KT 10SM BKN060 BKN085 OVC150 05/M02 A3037 RMK AO2 SLP289 T00501022=
201812070952 METAR KATL 070952Z 30003KT 10SM BKN070 BKN180 BKN250 04/M02 A3035 RMK AO2 SLP283 T00441022=
201812070852 METAR KATL 070852Z 33003KT 10SM BKN070 BKN180 OVC250 04/M03 A3035 RMK AO2 SLP283 T00391028 50000=
201812070752 METAR KATL 070752Z 31004KT 10SM FEW085 BKN180 BKN250 04/M03 A3036 RMK AO2 SLP283 T00391028=
201812070652 METAR KATL 070652Z 31004KT 10SM SCT085 BKN200 BKN250 04/M03 A3035 RMK AO2 SLP280 T00391033=
201812070552 METAR KATL 070552Z 32003KT 10SM BKN085 BKN250 05/M04 A3035 RMK AO2 SLP282 T00501044 10067 20039 58005=
201812070452 METAR KATL 070452Z 32007KT 10SM FEW065 BKN090 BKN250 05/M04 A3037 RMK AO2 SLP288 T00501044 401111022=
201812070352 METAR KATL 070352Z 26003KT 10SM FEW060 SCT100 BKN250 04/M05 A3036 RMK AO2 SLP286 T00391050=
201812070252 METAR KATL 070252Z 31006KT 10SM FEW100 BKN250 04/M04 A3036 RMK AO2 SLP289 T00391044 53005=
201812070152 METAR KATL 070152Z 32006KT 10SM FEW150 BKN250 05/M05 A3036 RMK AO2 SLP287 T00501050=
201812070052 METAR KATL 070052Z 26003KT 10SM FEW200 SCT250 06/M06 A3035 RMK AO2 SLP286 T00611061=
201812062352 METAR KATL 062352Z 26003KT 10SM FEW150 BKN200 BKN250 06/M04 A3035 RMK AO2 SLP285 T00611039 10111 20061 53010=
201812062252 METAR KATL 062252Z 24004KT 10SM FEW150 SCT200 BKN250 07/M06 A3033 RMK AO2 SLP279 T00721061=
201812062152 METAR KATL 062152Z 19006KT 10SM FEW150 SCT200 BKN250 10/M06 A3032 RMK AO2 SLP275 T01001061=
201812062052 METAR KATL 062052Z 21003KT 10SM FEW150 SCT200 BKN250 09/M07 A3032 RMK AO2 SLP274 T00941072 56013=
201812061952 METAR KATL 061952Z 30004KT 10SM FEW150 SCT200 BKN250 10/M06 A3033 RMK AO2 SLP279 VIRGA DSNT SW T01001061=
201812061852 METAR KATL 061852Z 00000KT 10SM FEW150 SCT200 BKN250 10/M07 A3034 RMK AO2 SLP280 T01001067=
201812061752 METAR KATL 061752Z 09004KT 10SM FEW010 FEW150 SCT250 08/M06 A3036 RMK AO2 SLP287 FU FEW010 T00831061 10083 21022 58015=
201812061652 METAR KATL 061652Z 14004KT 10SM FEW010 FEW150 FEW250 07/M07 A3038 RMK AO2 SLP295 FU FEW010 T00671067=
201812061552 METAR KATL 061552Z 15006KT 10SM FEW150 FEW200 BKN250 04/M07 A3040 RMK AO2 SLP302 T00441067=
201812061452 METAR KATL 061452Z 09004KT 10SM FEW150 FEW200 BKN250 03/M06 A3040 RMK AO2 SLP305 T00331061 53013=
201812061352 METAR KATL 061352Z 05006KT 10SM FEW150 SCT200 BKN250 02/M07 A3038 RMK AO2 SLP298 T00171067=
201812061252 METAR KATL 061252Z 35003KT 10SM FEW150 SCT200 SCT250 M02/M07 A3037 RMK AO2 SLP295 T10171067=
201812061152 METAR KATL 061152Z 34005KT 10SM SCT200 BKN250 M02/M07 A3037 RMK AO2 SLP293 T10221067 11011 21022 53009=
201812061052 METAR KATL 061052Z 35006KT 10SM FEW200 SCT250 M02/M07 A3034 RMK AO2 SLP286 T10171067=
201812060952 METAR KATL 060952Z 32004KT 10SM FEW200 BKN250 M02/M07 A3034 RMK AO2 SLP282 T10221067=
201812060852 METAR KATL 060852Z 34008KT 10SM FEW250 M02/M07 A3034 RMK AO2 SLP282 T10171067 55004=
201812060752 METAR KATL 060752Z 32007KT 10SM FEW250 M02/M06 A3033 RMK AO2 SLP279 T10221061=
201812060652 METAR KATL 060652Z 34007KT 10SM FEW250 M02/M07 A3033 RMK AO2 SLP280 T10171067=
201812060552 METAR KATL 060552Z 32004KT 10SM CLR M01/M07 A3035 RMK AO2 SLP286 T10111067 10022 21011 51001=
201812060452 METAR KATL 060452Z 35004KT 10SM CLR M01/M07 A3035 RMK AO2 SLP285 T10111067 400611011=
201812060352 METAR KATL 060352Z 33005KT 10SM CLR M01/M07 A3036 RMK AO2 SLP288 T10061067=
201812060252 METAR KATL 060252Z 32005KT 10SM CLR 00/M07 A3035 RMK AO2 SLP285 T00001067 51010=
201812060152 METAR KATL 060152Z 34007KT 10SM CLR 01/M07 A3034 RMK AO2 SLP282 T00061067=
201812060052 METAR KATL 060052Z 35008KT 10SM CLR 01/M07 A3033 RMK AO2 SLP281 T00111067=
201812052352 METAR KATL 052352Z 32011KT 10SM FEW040 02/M06 A3032 RMK AO2 SLP275 T00221061 10061 20022 51025=
201812052252 METAR KATL 052252Z 33010KT 10SM FEW040 03/M06 A3030 RMK AO2 SLP270 T00281056=
201812052152 METAR KATL 052152Z 33011KT 10SM FEW040 FEW250 04/M06 A3028 RMK AO2 SLP260 T00441056=
201812052052 METAR KATL 052052Z 31014KT 10SM FEW040 06/M04 A3024 RMK AO2 SLP247 T00561044 53003=
201812051952 METAR KATL 051952Z 31015G20KT 10SM FEW040 06/M04 A3023 RMK AO2 SLP243 T00611044=
201812051852 METAR KATL 051852Z 31011G19KT 10SM FEW040 06/M04 A3022 RMK AO2 SLP242 T00611039=
201812051752 METAR KATL 051752Z 31014KT 10SM FEW038 06/M04 A3023 RMK AO2 SLP244 T00561039 10061 21006 58006=
201812051652 METAR KATL 051652Z 32013KT 10SM FEW040 05/M04 A3024 RMK AO2 SLP249 T00501044=
201812051552 METAR KATL 051552Z 30013KT 10SM FEW040 FEW250 04/M04 A3025 RMK AO2 SLP252 T00391044=
201812051452 METAR KATL 051452Z 31012KT 10SM FEW030 FEW250 03/M04 A3025 RMK AO2 SLP251 T00281044 53016=
201812051352 METAR KATL 051352Z 29009KT 10SM FEW200 01/M04 A3023 RMK AO2 SLP244 T00111044=
201812051252 METAR KATL 051252Z 29008KT 10SM FEW200 00/M04 A3021 RMK AO2 SLP238 T00001044=
201812051152 METAR KATL 051152Z 29009KT 10SM FEW200 00/M04 A3020 RMK AO2 SLP236 T00001044 10017 20000 53016=
201812051052 METAR KATL 051052Z 29010KT 10SM CLR 01/M04 A3019 RMK AO2 SLP229 T00061044=
201812050952 METAR KATL 050952Z 29009KT 10SM CLR 01/M04 A3016 RMK AO2 SLP220 T00061044=
201812050852 METAR KATL 050852Z 30009KT 10SM CLR 01/M04 A3015 RMK AO2 SLP217 T00061044 53002=
201812050752 METAR KATL 050752Z 31008KT 10SM CLR 01/M04 A3015 RMK AO2 SLP216 T00111044=
201812050652 METAR KATL 050652Z 31008KT 10SM CLR 01/M04 A3014 RMK AO2 SLP211 T00111044=
201812050552 METAR KATL 050552Z 32007KT 10SM CLR 02/M04 A3015 RMK AO2 SLP214 T00171044 10056 20017 58001=
201812050452 METAR KATL 050452Z 32008KT 10SM CLR 02/M04 A3015 RMK AO2 SLP216 T00221044 400940022=
201812050352 METAR KATL 050352Z 30005KT 10SM CLR 02/M03 A3015 RMK AO2 SLP216 T00221033=
201812050252 METAR KATL 050252Z 32006KT 10SM CLR 03/M03 A3015 RMK AO2 SLP215 T00331033 51009=
201812050152 METAR KATL 050152Z 32009KT 10SM CLR 04/M03 A3015 RMK AO2 SLP215 T00441033=
201812050052 METAR KATL 050052Z 31008KT 10SM FEW045 05/M03 A3012 RMK AO2 SLP207 T00501033=
201812042352 METAR KATL 042352Z 31008KT 10SM FEW045 06/M03 A3012 RMK AO2 SLP206 T00561028 10094 20056 51015=
201812042252 METAR KATL 042252Z 30015G20KT 10SM FEW045 07/M03 A3011 RMK AO2 SLP201 T00671028=
201812042152 METAR KATL 042152Z 31014KT 10SM FEW045 08/M03 A3009 RMK AO2 SLP195 T00831028=
201812042052 METAR KATL 042052Z 32011KT 10SM FEW040 09/M02 A3008 RMK AO2 SLP189 T00891017 56007=
201812041952 METAR KATL 041952Z 34014KT 10SM FEW045 09/M02 A3008 RMK AO2 SLP189 T00891022=
201812041852 METAR KATL 041852Z 31009KT 10SM FEW040 09/M01 A3009 RMK AO2 SLP193 T00941011=
201812041752 METAR KATL 041752Z 32011G17KT 10SM FEW040 08/M01 A3010 RMK AO2 SLP197 T00831011 10083 20033 58016=
201812041652 METAR KATL 041652Z 32009KT 10SM FEW030 07/M01 A3013 RMK AO2 SLP207 T00721006=
201812041552 METAR KATL 041552Z 34009KT 10SM SCT027 SCT180 07/M01 A3015 RMK AO2 SLP214 T00671011=
201812041452 METAR KATL 041452Z 33015G20KT 10SM FEW030 BKN180 BKN220 05/M02 A3015 RMK AO2 SLP214 T00501017 51019=
201812041352 METAR KATL 041352Z 33011G19KT 10SM FEW035 FEW120 SCT220 05/M02 A3013 RMK AO2 SLP206 VIRGA NW-N T00501017=
201812041252 METAR KATL 041252Z 33009KT 10SM SCT200 SCT250 04/M02 A3012 RMK AO2 SLP202 T00391022=
201812041152 METAR KATL 041152Z 33011KT 10SM SCT200 SCT250 04/M02 A3009 RMK AO2 SLP193 T00391022 10061 20039 53013=
201812041052 METAR KATL 041052Z 33010KT 10SM BKN250 04/M02 A3007 RMK AO2 SLP187 T00391017=
201812040952 METAR KATL 040952Z 33011KT 10SM BKN250 04/M02 A3006 RMK AO2 SLP179 T00441017=
201812040852 METAR KATL 040852Z 33013KT 10SM SCT250 05/M02 A3005 RMK AO2 SLP178 T00501017 50002=
201812040752 METAR KATL 040752Z 32009KT 10SM SCT250 05/M02 A3006 RMK AO2 SLP179 T00501017=
201812040652 METAR KATL 040652Z 32010KT 10SM SCT250 06/M02 A3006 RMK AO2 SLP177 T00561017=
201812040552 METAR KATL 040552Z 33015G18KT 10SM SCT250 06/M01 A3005 RMK AO2 SLP174 T00611006 10128 20056 51008=
201812040452 METAR KATL 040452Z 33013KT 10SM BKN250 07/00 A3004 RMK AO2 PK WND 33029/0425 SLP174 T00720000 401940072=
201812040352 METAR KATL 040352Z 33011KT 10SM FEW090 BKN250 09/01 A3004 RMK AO2 SLP173 T00890006=
201812040252 METAR KATL 040252Z 31010KT 10SM FEW090 BKN250 09/01 A3002 RMK AO2 SLP166 T00940011 51012=
201812040152 METAR KATL 040152Z 31009KT 10SM FEW090 BKN250 11/02 A3002 RMK AO2 SLP165 T01060017=
201812040052 METAR KATL 040052Z 29008KT 10SM SCT250 11/02 A3000 RMK AO2 SLP159 T01110017=
201812032352 METAR KATL 032352Z 31009KT 10SM BKN250 13/02 A2998 RMK AO2 SLP153 T01280017 10189 20128 51018=
201812032252 METAR KATL 032252Z 29008KT 10SM BKN250 14/02 A2997 RMK AO2 SLP147 T01390017=
201812032152 METAR KATL 032152Z 30012KT 10SM BKN250 16/M01 A2996 RMK AO2 SLP144 T01611006=
201812032052 METAR KATL 032052Z 29010KT 10SM BKN250 17/01 A2993 RMK AO2 SLP134 T01720006 55003=
201812031952 METAR KATL 031952Z 27008KT 10SM FEW110 FEW150 BKN250 18/M01 A2992 RMK AO2 SLP128 T01831006=
201812031852 METAR KATL 031852Z 27013KT 10SM FEW110 SCT150 BKN250 18/M01 A2992 RMK AO2 SLP129 ACC DSNT NE-SE T01831006=
201812031752 METAR KATL 031752Z 26008KT 10SM FEW110 FEW150 BKN250 18/02 A2994 RMK AO2 PK WND 32026/1749 SLP136 ACC DSNT SE T01780017 10194 20111 58005=
201812031652 METAR KATL 031652Z 29008KT 10SM SCT110 SCT150 BKN250 16/03 A2996 RMK AO2 SLP143 T01610028=
201812031552 METAR KATL 031552Z 33013KT 10SM FEW110 FEW150 BKN250 15/02 A2997 RMK AO2 SLP148 T01500022=
201812031452 METAR KATL 031452Z 32007KT 10SM FEW110 SCT150 BKN250 13/04 A2995 RMK AO2 SLP142 T01330044 51017=
201812031352 METAR KATL 031352Z 29006KT 10SM BKN100 BKN200 12/04 A2994 RMK AO2 SLP138 T01170044=
201812031252 METAR KATL 031252Z 28006KT 10SM SCT100 BKN120 12/03 A2992 RMK AO2 SLP131 T01170033=
201812031152 METAR KATL 031152Z 30007KT 10SM BKN095 11/04 A2990 RMK AO2 SLP124 T01110044 10117 20100 53005=
201812030952 METAR KATL 030952Z 29006KT 10SM BKN100 11/06 A2988 RMK AO2 SLP115 T01110061 $=
201812030852 METAR KATL 030852Z 00000KT 10SM CLR 11/05 A2989 RMK AO2 SLP117 T01060050 53003 $=
201812030752 METAR KATL 030752Z 27003KT 10SM CLR 10/06 A2988 RMK AO2 SLP115 T01000061 $=
201812030652 METAR KATL 030652Z 28005KT 10SM CLR 11/07 A2988 RMK AO2 SLP112 T01110067 $=
201812030552 METAR KATL 030552Z 18003KT 10SM CLR 11/07 A2988 RMK AO2 SLP113 T01110072 10167 20111 51007 $=
201812030452 METAR KATL 030452Z 29004KT 10SM CLR 12/07 A2986 RMK AO2 SLP110 T01220067 402330122 $=
201812030352 METAR KATL 030352Z 29006KT 10SM CLR 13/08 A2987 RMK AO2 SLP111 T01280078 $=
201812030252 METAR KATL 030252Z 23005KT 10SM CLR 14/08 A2985 RMK AO2 SLP106 T01390078 53012 $=
201812030152 METAR KATL 030152Z 25005KT 10SM CLR 15/08 A2984 RMK AO2 SLP099 T01500078 $=
201812030052 METAR KATL 030052Z 23006KT 10SM CLR 16/08 A2983 RMK AO2 SLP096 T01560078 $=
201812022352 METAR KATL 022352Z 23005KT 10SM CLR 17/08 A2982 RMK AO2 SLP091 T01670078 10233 20167 53015 $=
201812022252 METAR KATL 022252Z 23005KT 10SM FEW250 18/08 A2980 RMK AO2 SLP085 T01830078 $=
201812022152 METAR KATL 022152Z 21007KT 10SM FEW250 21/07 A2979 RMK AO2 SLP079 T02110072 $=
201812022052 METAR KATL 022052Z 22011KT 10SM FEW060 FEW250 22/07 A2977 RMK AO2 SLP074 T02220067 55005 $=
201812021952 METAR KATL 021952Z 24009KT 10SM FEW250 22/07 A2976 RMK AO2 SLP072 T02220072 $=
201812021852 METAR KATL 021852Z 26010KT 10SM FEW250 23/07 A2976 RMK AO2 SLP071 T02280072 $=
201812021752 METAR KATL 021752Z 27010KT 10SM FEW070 FEW250 22/09 A2979 RMK AO2 SLP080 T02170089 10217 20189 58005 $=
201812021652 METAR KATL 021652Z 23004KT 10SM FEW028 BKN070 BKN250 19/12 A2982 RMK AO2 SLP095 T01890117 $=
201812021552 METAR KATL 021552Z 26008KT 10SM FEW022 FEW040 BKN060 19/14 A2983 RMK AO2 SLP097 T01940139 $=
201812021452 METAR KATL 021452Z 24004KT 10SM FEW010 BKN080 19/17 A2980 RMK AO2 SLP087 T01940167 53021 $=
201812021352 METAR KATL 021352Z 26005KT 8SM FEW005 BKN034 OVC065 19/16 A2978 RMK AO2 SLP080 BINOVC T01890161 $=
201812021320 SPECI KATL 021320Z 23006KT 8SM SCT005 BKN034 OVC045 19/18 A2977 RMK AO2 T01890178 $=
201812021252 METAR KATL 021252Z 21006KT 5SM BR BKN007 OVC065 19/18 A2975 RMK AO2 SLP071 CIG 005V009 T01890178 $=
201812021152 METAR KATL 021152Z 18007KT 4SM BR BKN007 BKN013 OVC065 19/18 A2974 RMK AO2 SLP065 CIG 005V009 60002 70160 T01940178 10194 20183 53002 $=
201812021130 SPECI KATL 021130Z 17007KT 3SM BR BKN007 BKN040 OVC060 19/18 A2973 RMK AO2 T01890178 $=
201812021052 METAR KATL 021052Z 19007KT 5SM BR SCT006 SCT015 OVC060 19/18 A2974 RMK AO2 RAE0953 PRESRR SLP066 P0000 T01890178 $=
201812020952 METAR KATL 020952Z 20009KT 1/2SM R09R/P6000FT -RA BR BKN005 BKN012 OVC080 19/18 A2972 RMK AO2 SFC VIS 4 RAB01 SLP057 CIG 004V008 P0001 T01940183 $=
201812020852 METAR KATL 020852Z 19009KT 1/2SM R09R/P6000FT BR OVC005 19/18 A2973 RMK AO2 SFC VIS 5 SLP062 CIG 004V008 60001 T01940183 55000 $=
201812020806 SPECI KATL 020806Z 19007KT 1/2SM R09R/P6000FT BR OVC005 19/18 A2973 RMK AO2 SFC VIS 6 CIG 004V009 T01890178 $=
201812020752 METAR KATL 020752Z 19007KT 1/2SM R09R/P6000FT BR OVC004 19/18 A2973 RMK AO2 SFC VIS 6 RAE12DZB12E27 SLP063 CIG 003V005 P0001 T01890178 $=
201812020652 METAR KATL 020652Z 19009KT 1/2SM R09R/P6000FT -RA BR BKN003 OVC010 19/18 A2972 RMK AO2 SFC VIS 3 DZE03B19E51RAB03E19B51 SLP061 CIG 002V005 P0000 T01890178 $=
201812020552 METAR KATL 020552Z 19009KT 1/2SM R09R/P6000FT -DZ BR OVC003 18/17 A2973 RMK AO2 SFC VIS 2 1/2 SLP063 CIG 002V004 TWRINC P0001 60002 T01830172 10183 20150 58006 $=
201812020452 METAR KATL 020452Z 16005KT 1/2SM R09R/P6000FT -DZ BR OVC003 17/16 A2974 RMK AO2 SFC VIS 1 1/2 DZB47 SLP067 CIG 002V004 P0000 T01670161 401670106 $=
201812020352 METAR KATL 020352Z 16004KT 1/2SM R09R/P6000FT BR OVC002 16/16 A2975 RMK AO2 SFC VIS 3 DZE51 SLP071 CIG 001V003 TWRINC P0000 T01610156 $=
201812020252 METAR KATL 020252Z 12004KT 1/2SM R09R/4000V5500FT -DZ BR OVC003 16/14 A2975 RMK AO2 SFC VIS 1 DZB29 SLP071 CIG 002V004 P0001 60001 T01560144 58003 $=
201812020152 METAR KATL 020152Z 14006KT 1/2SM R09R/P6000FT BR OVC002 16/14 A2975 RMK AO2 SFC VIS 1 1/4 DZE37 SLP072 CIG 001V004 P0000 T01560144 $=
201812020052 METAR KATL 020052Z 12005KT 1/2SM R09R/P6000FT -DZ BR OVC002 15/14 A2976 RMK AO2 SFC VIS 1 DZB49 SLP077 CIG 001V003 P0000 T01500144 $=
201812012352 METAR KATL 012352Z 12005KT 1SM R09R/P6000FT BR OVC003 15/14 A2976 RMK AO2 SFC VIS 6 DZE24 SLP075 CIG 002V004 TWRINC P0000 60017 T01500139 10150 20139 58001 $=
201812012252 METAR KATL 012252Z 11005KT 1SM R09R/P6000FT -DZ BR OVC003 14/13 A2977 RMK AO2 SFC VIS 3 DZE2155B40RAB2155E40 SLP078 CIG 002V004 CB DSNT NW P0001 T01440133 $=
201812012152 METAR KATL 012152Z 11008KT 1SM R09R/P6000FT -DZ BR OVC003 14/13 A2977 RMK AO2 SFC VIS 4 SLP078 RAE33DZB33 P0002 T01440133 $=
201812012052 METAR KATL 012052Z 11007KT 1SM R09R/P6000FT -RA BR OVC004 14/13 A2976 RMK AO2 SFC VIS 2 SLP076 DZE25RAB25 P0000 60014 T01440128 56017 $=
201812012028 SPECI KATL 012028Z 10009KT 1SM R09R/P6000FT -RA BR OVC004 14/13 A2976 RMK AO2 SFC VIS 5 P0000 T01440128 $=
201812011952 METAR KATL 011952Z 09008KT 2SM -DZ BKN004 BKN008 OVC025 14/13 A2977 RMK AO2 SFC VIS 7 SLP079 RAE40DZB40 P0002 T01440128 $=
201812011948 SPECI KATL 011948Z 10006KT 2SM -DZ BKN004 BKN008 OVC025 14/13 A2977 RMK AO2 SFC VIS 7 RAE40DZB40 P0002 $=
201812011932 SPECI KATL 011932Z 10008KT 1SM R09R/P6000FT -RA BR BKN004 BKN009 OVC030 14/13 A2977 RMK AO2 SFC VIS 4 P0002 T01440133 $=
201812011919 SPECI KATL 011919Z 10007KT 3SM -RA BR BKN004 OVC025 14/13 A2978 RMK AO2 P0001 T01440128 $=
201812011910 SPECI KATL 011910Z 09007KT 2SM -RA BR BKN004 OVC030 14/13 A2979 RMK AO2 P0001 T01390128 $=
201812011852 METAR KATL 011852Z 10007KT 4SM -RA BR SCT004 BKN035 OVC048 14/13 A2980 RMK AO2 SLP088 P0012 T01390128 $=
201812011843 SPECI KATL 011843Z 09009KT 8SM -RA SCT004 SCT020 OVC050 14/13 A2980 RMK AO2 P0012 T01390128 $=
201812011832 SPECI KATL 011832Z 08008KT 6SM -RA BR FEW006 SCT015 OVC040 14/13 A2980 RMK AO2 P0012 T01390128 $=
201812011818 SPECI KATL 011818Z 10007KT 3SM -RA BR SCT006 BKN015 OVC022 14/13 A2981 RMK AO2 P0011 T01440128 $=
201812011813 SPECI KATL 011813Z 10005KT 2 1/2SM RA BR SCT008 BKN014 OVC020 14/13 A2982 RMK AO2 P0011 T01440128 $=
201812011802 SPECI KATL 011802Z 00000KT 1 1/4SM R09R/5000VP6000FT +RA BR SCT005 BKN010 OVC015 14/13 A2983 RMK AO2 P0005 T01390128 $=
201812011758 SPECI KATL 011758Z 00000KT 2SM +RA BR SCT005 BKN010 OVC020 14/13 A2982 RMK AO2 VIS 1 3/4V2 1/2 P0003 T01390128 $=
201812011752 METAR KATL 011752Z 10006KT 2 1/2SM RA BR BKN005 BKN010 BKN015 14/12 A2981 RMK AO2 SLP094 P0016 60139 T01390122 10139 20106 56021 $=
201812011739 SPECI KATL 011739Z 10005KT 2 1/2SM RA BR BKN005 OVC010 14/12 A2982 RMK AO2 P0014 T01390122 $=
201812011720 SPECI KATL 011720Z VRB06KT 1 1/2SM R09R/6000VP6000FT +RA BR OVC005 14/12 A2984 RMK AO2 P0007 T01390122 $=
201812011652 METAR KATL 011652Z 11008KT 4SM -RA BR BKN005 OVC010 13/12 A2983 RMK AO2 SLP097 P0040 T01330122 $=
201812011649 SPECI KATL 011649Z 12008G16KT 4SM -RA BR BKN005 OVC010 13/12 A2982 RMK AO2 P0040 $=
201812011645 SPECI KATL 011645Z 11011KT 2 1/2SM -RA BR BKN005 OVC010 13/12 A2982 RMK AO2 P0040 T01330122 $=
201812011639 SPECI KATL 011639Z 11011KT 1SM R09R/4500VP6000FT +RA BR OVC005 13/12 A2983 RMK AO2 P0039 T01330117 $=
201812011635 SPECI KATL 011635Z 10012KT 3/4SM R09R/3500VP6000FT +RA BR BKN005 OVC010 13/12 A2983 RMK AO2 PRESFR P0035 T01330117 $=
201812011629 SPECI KATL 011629Z 11011KT 1 1/2SM R09R/3500VP6000FT +RA BR BKN005 OVC010 13/12 A2986 RMK AO2 P0022 T01330117 $=
201812011602 SPECI KATL 011602Z 12014G20KT 2SM RA BR BKN007 OVC013 13/12 A2986 RMK AO2 PRESFR P0008 T01280117 $=
201812011552 METAR KATL 011552Z 13013KT 1 1/4SM R09R/6000VP6000FT VCTS RA BR BKN007 OVC013CB 13/12 A2988 RMK AO2 SLP115 OCNL LTGIC VC SE TS VC SE MOV NE P0024 T01280117 $=
201812011544 SPECI KATL 011544Z 12010G16KT 1 3/4SM R09R/6000VP6000FT +RA BR BKN007 OVC013 13/12 A2989 RMK AO2 P0016 T01280117=
201812011532 SPECI KATL 011532Z 12008G18KT 2SM +RA BR BKN007 OVC013 13/11 A2989 RMK AO2 PRESFR P0009 T01280111=
201812011500 SPECI KATL 011500Z 07008KT 3SM RA BR SCT005 BKN008 OVC030 12/11 A2990 RMK AO2 P0003 T01170106=
201812011452 METAR KATL 011452Z 10012KT 2 1/2SM RA BR BKN005 OVC010 12/11 A2989 RMK AO2 PRESFR SLP119 P0021 60059 T01170106 58018=
201812011442 SPECI KATL 011442Z 09013KT 2SM +RA BR BKN005 OVC010 12/10 A2991 RMK AO2 PRESFR P0016 T01170100=
201812011433 SPECI KATL 011433Z 10006KT 3SM -RA BR BKN005 OVC010 11/10 A2993 RMK AO2 P0011 T01110100=
201812011417 SPECI KATL 011417Z 14004KT 2SM +RA BR BKN006 OVC013CB 11/10 A2993 RMK AO2 LTG DSNT N CB VC N MOV NE P0006 T01110100=
201812011408 SPECI KATL 011408Z 13008KT 5SM -RA BR BKN006 OVC013CB 11/10 A2993 RMK AO2 CB VC NW MOV NE P0001 T01110100=
201812011354 SPECI KATL 011354Z 13009G17KT 3SM RA BR SCT006 BKN013 OVC028 11/10 A2991 RMK AO2 P0001 T01110100=
201812011352 METAR KATL 011352Z 13011G18KT 3SM RA BR SCT007 BKN016 OVC025 11/10 A2991 RMK AO2 SLP125 CB DSNT W-NW P0020 T01110100=
201812011345 SPECI KATL 011345Z 14013G18KT 4SM -RA BR BKN007 OVC025 11/09 A2992 RMK AO2 CIG 005V009 CB DSNT SW-NW P0019 T01110094=
201812011334 SPECI KATL 011334Z 11012KT 2 1/2SM +RA BR BKN007 OVC028 11/09 A2991 RMK AO2 CIG 006V009 P0016 T01060089=
201812011317 SPECI KATL 011317Z 11007KT 5SM -RA BR BKN008 OVC035 11/09 A2992 RMK AO2 CIG 007V010 P0008 T01060089=
201812011252 METAR KATL 011252Z 10008KT 6SM -RA BR BKN012 BKN024 OVC048 11/09 A2994 RMK AO2 SLP136 P0018 T01110094=
201812011249 SPECI KATL 011249Z 10006KT 6SM -RA BR BKN013 BKN024 OVC048 11/09 A2994 RMK AO2 P0018=
201812011247 SPECI KATL 011247Z 11005KT 5SM RA BR SCT013 BKN024 OVC048 11/09 A2994 RMK AO2 P0018=
201812011238 SPECI KATL 011238Z 09008KT 3SM +RA BR FEW018 OVC048 11/09 A2991 RMK AO2 P0015 T01060089=
