##########################################################
# Query made at 04/20/2024 00:02:02 UTC
# Time interval: from 11/01/2018 12:00  to 11/30/2018 12:59  UTC
##########################################################

##########################################################
# KATL, Atlanta, Hartsfield - Jackson Atlanta International Airport (United States)
# WMO index: 72219. WIGOS ID: 0-20000-0-72219
# Latitude 33-38-59N. Longitude 084-25-00W. Altitude 312 m.
##########################################################

201811301252 METAR KATL 301252Z 22005KT 10SM BKN042 OVC065 11/08 A3011 RMK AO2 SLP196 BINOVC T01110078=
201811301152 METAR KATL 301152Z 23007KT 10SM FEW038 SCT055 BKN085 BKN200 11/08 A3010 RMK AO2 RAE35 SLP194 P0002 60002 70002 T01060078 10133 20106 53004=
201811301052 METAR KATL 301052Z 23006KT 7SM -RA SCT036 BKN065 OVC090 12/07 A3010 RMK AO2 SLP190 RAB29 P0000 T01170067=
201811300952 METAR KATL 300952Z 22007KT 10SM BKN034 OVC050 12/06 A3008 RMK AO2 SLP184 T01220061=
201811300852 METAR KATL 300852Z 22006KT 10SM BKN032 OVC045 12/07 A3009 RMK AO2 SLP188 60000 T01220067 50002=
201811300752 METAR KATL 300752Z 21006KT 10SM BKN032 BKN045 OVC070 12/07 A3010 RMK AO2 RAB29E42 SLP192 P0000 T01220072=
201811300720 SPECI KATL 300720Z 22007KT 10SM BKN030 OVC075 13/07 A3010 RMK AO2 T01280067=
201811300652 METAR KATL 300652Z 20008KT 10SM OVC026 13/07 A3009 RMK AO2 SLP190 T01330067=
201811300552 METAR KATL 300552Z 21008KT 10SM BKN025 BKN090 13/06 A3009 RMK AO2 SLP186 T01330061 10150 20128 58004=
201811300452 METAR KATL 300452Z 21010KT 10SM SCT025 BKN090 13/06 A3009 RMK AO2 SLP189 T01280061 401721006=
201811300352 METAR KATL 300352Z 20010KT 10SM FEW027 BKN050 OVC085 13/07 A3010 RMK AO2 SLP192 T01330067=
201811300252 METAR KATL 300252Z 21010KT 10SM SCT028 BKN050 OVC090 13/07 A3010 RMK AO2 SLP193 T01330067 53005=
201811300152 METAR KATL 300152Z 20009KT 10SM SCT045 BKN085 14/07 A3009 RMK AO2 SLP190 T01390067=
201811300052 METAR KATL 300052Z 19006KT 10SM FEW035 BKN080 BKN250 14/07 A3009 RMK AO2 SLP193 T01390072=
201811292352 METAR KATL 292352Z 21007KT 10SM FEW035 BKN090 BKN250 15/08 A3008 RMK AO2 SLP191 T01500078 10172 20139 53009=
201811292252 METAR KATL 292252Z 21005KT 10SM BKN033 BKN050 BKN250 16/08 A3007 RMK AO2 SLP187 T01560083=
201811292152 METAR KATL 292152Z 22008KT 10SM SCT033 BKN050 BKN080 BKN250 16/08 A3006 RMK AO2 SLP182 T01610083=
201811292052 METAR KATL 292052Z 19008KT 10SM FEW040 SCT070 BKN090 BKN250 17/07 A3006 RMK AO2 SLP180 T01670072 58014=
201811291952 METAR KATL 291952Z 00000KT 10SM FEW040 BKN060 BKN080 BKN250 15/06 A3008 RMK AO2 SLP188 VIRGA OHD-S-W-N T01500056=
201811291852 METAR KATL 291852Z 22004KT 10SM BKN038 BKN070 BKN250 14/05 A3008 RMK AO2 SLP190 T01440050=
201811291752 METAR KATL 291752Z 20006KT 10SM BKN035 BKN080 BKN250 14/04 A3010 RMK AO2 SLP196 T01390039 10144 20000 58019=
201811291652 METAR KATL 291652Z 24008KT 10SM FEW045 BKN065 BKN080 BKN250 12/01 A3013 RMK AO2 SLP209 T01220011=
201811291552 METAR KATL 291552Z 21005KT 10SM BKN050 BKN250 09/01 A3016 RMK AO2 SLP219 T00890006=
201811291452 METAR KATL 291452Z 21004KT 10SM BKN048 BKN250 08/00 A3016 RMK AO2 SLP216 T00830000 50006=
201811291352 METAR KATL 291352Z 00000KT 10SM FEW032 SCT045 SCT200 BKN250 06/M02 A3016 RMK AO2 SLP220 T00561022=
201811291252 METAR KATL 291252Z 00000KT 10SM FEW032 FEW200 SCT250 01/M05 A3014 RMK AO2 SLP215 T00111050=
201811291152 METAR KATL 291152Z 00000KT 10SM FEW200 SCT250 00/M06 A3014 RMK AO2 SLP213 T00001061 10017 21006 53008=
201811291052 METAR KATL 291052Z 28003KT 10SM FEW250 00/M06 A3013 RMK AO2 SLP209 T00001061=
201811290952 METAR KATL 290952Z 31005KT 10SM FEW250 M01/M05 A3012 RMK AO2 SLP207 T10061050=
201811290852 METAR KATL 290852Z 29003KT 10SM FEW250 M01/M06 A3011 RMK AO2 SLP204 T10061056 58001=
201811290752 METAR KATL 290752Z 29004KT 10SM FEW250 00/M06 A3013 RMK AO2 SLP208 T00001061=
201811290652 METAR KATL 290652Z 00000KT 10SM FEW180 SCT250 01/M06 A3012 RMK AO2 SLP207 T00061061=
201811290552 METAR KATL 290552Z 30004KT 10SM BKN180 BKN250 01/M06 A3012 RMK AO2 SLP206 T00111061 10044 20011 51009=
201811290452 METAR KATL 290452Z 31005KT 10SM FEW180 SCT250 01/M06 A3011 RMK AO2 SLP203 T00111061 400781028=
201811290352 METAR KATL 290352Z 29006KT 10SM SCT180 BKN250 02/M06 A3011 RMK AO2 SLP205 T00221061=
201811290252 METAR KATL 290252Z 27004KT 10SM SCT180 SCT250 02/M07 A3009 RMK AO2 SLP198 T00221072 58002=
201811290152 METAR KATL 290152Z 30003KT 10SM FEW150 FEW250 02/M06 A3010 RMK AO2 SLP201 T00221061=
201811290052 METAR KATL 290052Z 00000KT 10SM FEW150 FEW250 03/M08 A3009 RMK AO2 SLP200 T00331078=
201811282352 METAR KATL 282352Z 33006KT 10SM FEW150 FEW250 04/M08 A3010 RMK AO2 SLP201 T00391078 10078 20039 51007=
201811282252 METAR KATL 282252Z 28005KT 10SM FEW150 FEW250 04/M08 A3009 RMK AO2 SLP198 T00441078=
201811282152 METAR KATL 282152Z 31010KT 10SM FEW150 FEW250 07/M08 A3009 RMK AO2 SLP196 T00671078=
201811282052 METAR KATL 282052Z 32007KT 10SM FEW150 FEW250 07/M10 A3008 RMK AO2 SLP192 T00721100 58013=
201811281952 METAR KATL 281952Z 30011KT 10SM FEW150 FEW250 07/M07 A3009 RMK AO2 SLP198 T00671072=
201811281852 METAR KATL 281852Z 29015KT 10SM FEW250 06/M08 A3011 RMK AO2 SLP203 T00611078=
201811281752 METAR KATL 281752Z 32011KT 10SM FEW250 04/M08 A3011 RMK AO2 SLP206 T00441083 10050 21028 58010=
201811281652 METAR KATL 281652Z 32010KT 10SM FEW150 FEW250 03/M08 A3013 RMK AO2 SLP210 T00281083=
201811281552 METAR KATL 281552Z 31013KT 10SM FEW150 FEW250 01/M09 A3014 RMK AO2 SLP215 T00111089=
201811281452 METAR KATL 281452Z 33013KT 10SM FEW250 M01/M09 A3014 RMK AO2 SLP217 T10061089 51025=
201811281352 METAR KATL 281352Z 30012KT 10SM FEW150 SCT250 M02/M09 A3012 RMK AO2 SLP211 T10171089=
201811281252 METAR KATL 281252Z 30010KT 10SM FEW250 M03/M09 A3010 RMK AO2 SLP203 T10281089=
201811281152 METAR KATL 281152Z 32008KT 10SM FEW250 M03/M09 A3007 RMK AO2 SLP191 T10281094 11006 21028 53005=
201811281052 METAR KATL 281052Z 31009KT 10SM CLR M03/M09 A3006 RMK AO2 SLP189 T10281089=
201811280952 METAR KATL 280952Z 32009KT 10SM CLR M02/M09 A3005 RMK AO2 SLP183 T10221089=
201811280852 METAR KATL 280852Z 32012KT 10SM CLR M02/M08 A3005 RMK AO2 SLP184 T10171083 53009=
201811280752 METAR KATL 280752Z 31013KT 10SM CLR M02/M08 A3004 RMK AO2 SLP178 T10171078=
201811280652 METAR KATL 280652Z 31012KT 10SM CLR M01/M08 A3003 RMK AO2 SLP176 T10111078=
201811280552 METAR KATL 280552Z 30012KT 10SM CLR M01/M07 A3002 RMK AO2 SLP174 T10111072 10017 21011 50002=
201811280452 METAR KATL 280452Z 31012KT 10SM CLR M01/M07 A3003 RMK AO2 SLP175 T10061072 400671006=
201811280352 METAR KATL 280352Z 31013G21KT 10SM CLR 00/M07 A3002 RMK AO2 SLP174 T00001072=
201811280252 METAR KATL 280252Z 31014G22KT 10SM CLR 00/M07 A3002 RMK AO2 PK WND 32026/0209 SLP175 T00001072 51012=
201811280152 METAR KATL 280152Z 31020G28KT 10SM CLR 01/M07 A3001 RMK AO2 PK WND 32028/0152 SLP172 T00061072=
201811280052 METAR KATL 280052Z 30016G21KT 10SM CLR 01/M07 A3000 RMK AO2 SLP168 T00111067=
201811272352 METAR KATL 272352Z 30015KT 10SM CLR 02/M07 A2998 RMK AO2 SLP162 T00221072 10067 20022 53023=
201811272252 METAR KATL 272252Z 31014KT 10SM CLR 03/M08 A2995 RMK AO2 SLP152 T00281078=
201811272152 METAR KATL 272152Z 31017KT 10SM CLR 05/M08 A2993 RMK AO2 PK WND 29030/2058 SLP144 T00501078=
201811272052 METAR KATL 272052Z 30020G25KT 10SM CLR 06/M07 A2991 RMK AO2 PK WND 29029/2027 SLP136 T00611067 55006=
201811271952 METAR KATL 271952Z 30013G23KT 10SM CLR 07/M07 A2991 RMK AO2 PK WND 28030/1926 SLP135 T00671067=
201811271852 METAR KATL 271852Z 30018G26KT 10SM CLR 06/M07 A2991 RMK AO2 PK WND 27029/1832 SLP136 T00611072=
201811271752 METAR KATL 271752Z 28016KT 10SM CLR 06/M07 A2993 RMK AO2 SLP142 T00561067 10061 21006 58019=
201811271652 METAR KATL 271652Z 29012G23KT 10SM CLR 04/M06 A2997 RMK AO2 SLP154 T00441056=
201811271552 METAR KATL 271552Z 30012KT 10SM CLR 03/M06 A2999 RMK AO2 SLP162 T00281061=
201811271452 METAR KATL 271452Z 29016KT 10SM FEW030 01/M06 A2999 RMK AO2 SLP163 T00111056 53008=
201811271352 METAR KATL 271352Z 30012KT 10SM FEW026 00/M06 A2998 RMK AO2 SLP159 T00001056=
201811271252 METAR KATL 271252Z 29010KT 10SM FEW026 FEW250 M01/M06 A2996 RMK AO2 SLP154 T10061056=
201811271249 SPECI KATL 271249Z 31011KT 10SM FEW026 FEW250 M01/M06 A2997 RMK AO2=
201811271152 METAR KATL 271152Z 30010KT 10SM BKN026 BKN200 BKN250 00/M06 A2995 RMK AO2 SLP150 BKN026 V SCT T00001056 10017 20000 53011=
201811271132 SPECI KATL 271132Z 31011KT 10SM BKN026 BKN250 00/M06 A2994 RMK AO2 T00001056=
201811271114 SPECI KATL 271114Z 31012KT 10SM SCT026 SCT200 BKN250 00/M06 A2993 RMK AO2 T00001056=
201811271052 METAR KATL 271052Z 30011KT 10SM BKN025 BKN250 01/M05 A2994 RMK AO2 SLP143 T00061050=
201811271050 SPECI KATL 271050Z 31012KT 10SM BKN025 BKN250 01/M05 A2994 RMK AO2=
201811270952 METAR KATL 270952Z 32013KT 10SM FEW025 SCT200 BKN250 01/M05 A2992 RMK AO2 SLP138 T00061050=
201811270852 METAR KATL 270852Z 32010KT 10SM FEW025 BKN200 01/M04 A2992 RMK AO2 SLP137 T00061044 56005=
201811270752 METAR KATL 270752Z 32013G19KT 10SM FEW025 SCT200 01/M04 A2992 RMK AO2 SLP138 T00111044=
201811270652 METAR KATL 270652Z 31011KT 10SM FEW025 FEW200 01/M04 A2992 RMK AO2 SLP139 T00111044=
201811270552 METAR KATL 270552Z 32011KT 10SM FEW025 02/M04 A2993 RMK AO2 SLP142 T00171039 10050 20011 58010=
201811270452 METAR KATL 270452Z 31012G20KT 10SM FEW025 02/M03 A2996 RMK AO2 SLP149 T00171033 401280017=
201811270352 METAR KATL 270352Z 30010KT 10SM FEW025 02/M03 A2996 RMK AO2 SLP151 T00221028=
201811270252 METAR KATL 270252Z 32010G19KT 10SM FEW025 FEW200 03/M03 A2997 RMK AO2 SLP152 T00281028 58001=
201811270152 METAR KATL 270152Z 32013KT 10SM FEW025 FEW200 03/M02 A2997 RMK AO2 SLP154 T00331022=
201811270052 METAR KATL 270052Z 31015G22KT 10SM SCT026 BKN200 04/M02 A2997 RMK AO2 PK WND 32026/0027 SLP154 T00441017=
201811262352 METAR KATL 262352Z 32016KT 10SM BKN030 BKN150 BKN250 05/M02 A2997 RMK AO2 SLP152 T00501017 10083 20050 51019=
201811262252 METAR KATL 262252Z 31013G19KT 10SM BKN032 BKN150 BKN250 06/M01 A2995 RMK AO2 SLP144 T00611006=
201811262152 METAR KATL 262152Z 31014KT 10SM FEW035 SCT150 SCT250 08/00 A2994 RMK AO2 PK WND 31026/2109 SLP140 T00780000=
201811262052 METAR KATL 262052Z 31015KT 10SM FEW035 FEW150 BKN200 08/00 A2991 RMK AO2 SLP131 T00830000 55001=
201811261952 METAR KATL 261952Z 33017G23KT 10SM FEW034 FEW150 SCT250 08/M01 A2989 RMK AO2 SLP124 T00831006=
201811261852 METAR KATL 261852Z 31016KT 10SM SCT034 SCT250 07/M01 A2990 RMK AO2 SLP128 T00671006=
201811261752 METAR KATL 261752Z 29017G24KT 10SM BKN030 BKN150 BKN250 07/00 A2992 RMK AO2 SLP133 T00720000 10100 20056 51008=
201811261652 METAR KATL 261652Z 30018G24KT 10SM BKN030 BKN250 07/00 A2991 RMK AO2 PK WND 29027/1621 SLP131 T00670000=
201811261612 SPECI KATL 261612Z 30016G23KT 10SM BKN030 07/00 A2992 RMK AO2 T00670000=
201811261552 METAR KATL 261552Z 32018G24KT 10SM BKN028 07/M01 A2992 RMK AO2 PK WND 31029/1458 SLP133 T00671006=
201811261452 METAR KATL 261452Z 29015G24KT 10SM BKN024 06/01 A2989 RMK AO2 PK WND 29030/1440 SLP124 T00610006 53033=
201811261352 METAR KATL 261352Z 30022G28KT 10SM BKN022 BKN200 07/02 A2986 RMK AO2 PK WND 30028/1349 SLP114 T00670017=
201811261331 SPECI KATL 261331Z 27015G21KT 10SM BKN022 BKN200 07/03 A2985 RMK AO2 T00720028=
201811261312 SPECI KATL 261312Z 29016KT 10SM SCT017 SCT024 SCT200 08/03 A2984 RMK AO2 T00780028=
201811261252 METAR KATL 261252Z 32019G22KT 10SM BKN019 BKN025 BKN200 09/05 A2982 RMK AO2 SLP100 T00890050=
201811261221 SPECI KATL 261221Z 27010KT 10SM FEW015 BKN022 BKN200 09/05 A2980 RMK AO2 T00890050=
201811261152 METAR KATL 261152Z 27012KT 10SM SCT012 SCT023 SCT200 10/07 A2979 RMK AO2 PK WND 29026/1132 SLP089 60000 70016 T01000067 10128 20100 53016=
201811261141 SPECI KATL 261141Z 29014G26KT 10SM SCT012 SCT017 SCT023 11/07 A2979 RMK AO2 PK WND 29026/1132 T01060067=
201811261118 SPECI KATL 261118Z 28017G24KT 10SM SCT009 BKN013 OVC031 12/10 A2976 RMK AO2 T01220100=
201811261052 METAR KATL 261052Z 26008KT 7SM BKN006 OVC014 13/12 A2975 RMK AO2 SLP073 CIG 005V009 BINOVC T01280117=
201811261044 SPECI KATL 261044Z 26007KT 7SM BR BKN007 OVC012 13/12 A2975 RMK AO2 CIG 005V009 T01280117=
201811261014 SPECI KATL 261014Z 23007KT 2SM BR OVC005 12/12 A2974 RMK AO2 SFC VIS 6 CIG 004V008 T01220117=
201811261002 SPECI KATL 261002Z 23007KT 2SM BR OVC004 12/11 A2974 RMK AO2 SFC VIS 4 CIG 002V005 T01220111=
201811260952 METAR KATL 260952Z 24007KT 1/4SM R09R/P6000FT BR OVC003 12/11 A2975 RMK AO2 SFC VIS 2 1/2 DZE52 SLP073 CIG 002V004 P0000 T01220111=
201811260905 SPECI KATL 260905Z 19006KT 1/4SM R09R/3500FT DZ FG VV002 11/11 A2974 RMK AO2 SFC VIS 1/2 P0000 T01110106=
201811260903 SPECI KATL 260903Z 19005KT 3/4SM R09R/3500FT -DZ BR VV002 11/11 A2974 RMK AO2 P0000 T01110106=
201811260852 METAR KATL 260852Z 19005KT 1SM R09R/4000V5500FT -DZ BR OVC003 11/11 A2975 RMK AO2 SLP071 P0000 60000 T01110106 56008=
201811260848 SPECI KATL 260848Z 19005KT 1SM R09R/4500VP6000FT -DZ BR OVC003 11/10 A2975 RMK AO2 P0000=
201811260804 SPECI KATL 260804Z 17006KT 2 1/2SM -DZ BR OVC002 11/10 A2975 RMK AO2 P0000 T01110100=
201811260752 METAR KATL 260752Z 18005KT 3SM -DZ BR OVC003 11/10 A2975 RMK AO2 DZE02B49RAB02E49 SLP072 P0000 T01110100=
201811260652 METAR KATL 260652Z 16005KT 4SM -DZ BR OVC004 11/09 A2977 RMK AO2 RAB35E47DZB48 SLP081 CIG 003V005 P0000 T01060094=
201811260552 METAR KATL 260552Z 16009KT 4SM BR OVC004 10/09 A2980 RMK AO2 SLP090 CIG 003V005 60016 T01000089 10106 20094 56027=
201811260452 METAR KATL 260452Z 14007KT 5SM BR OVC004 10/08 A2982 RMK AO2 RAB14E25DZB38E49 SLP099 CIG 003V005 P0000 T01000083 401330067=
201811260438 SPECI KATL 260438Z 13007KT 5SM -DZ BR OVC004 10/08 A2981 RMK AO2 RAB14E25DZB38 PRESFR CIG 003V006 P0000 T01000083=
201811260413 SPECI KATL 260413Z 14006KT 7SM BKN007 BKN012 OVC026 10/08 A2985 RMK AO2 CIG 005V009 T01000083=
201811260401 SPECI KATL 260401Z 12007KT 7SM SCT006 BKN012 OVC026 10/08 A2985 RMK AO2 T01000083=
201811260352 METAR KATL 260352Z 12006KT 7SM SCT006 SCT014 OVC026 10/08 A2985 RMK AO2 SLP109 T01000083=
201811260345 SPECI KATL 260345Z 12006KT 8SM FEW006 SCT014 OVC027 10/08 A2985 RMK AO2 T01000083=
201811260315 SPECI KATL 260315Z 11008KT 10SM FEW006 SCT012 OVC032 10/08 A2986 RMK AO2 T01000083=
201811260301 SPECI KATL 260301Z 13005KT 8SM SCT005 BKN012 OVC038 10/08 A2987 RMK AO2 T01000083=
201811260252 METAR KATL 260252Z 12007KT 9SM SCT004 BKN036 OVC055 10/08 A2988 RMK AO2 RAE51 SLP120 P0006 60016 T01000083 58004=
201811260239 SPECI KATL 260239Z 09007KT 3SM RA BR SCT005 BKN036 OVC055 10/08 A2989 RMK AO2 P0006 T01000083=
201811260152 METAR KATL 260152Z 14006KT 6SM -RA BR OVC005 10/08 A2991 RMK AO2 SLP131 CIG 004V007 P0001 T01000083=
201811260052 METAR KATL 260052Z 13005KT 4SM -RA BR BKN006 BKN048 OVC100 09/08 A2987 RMK AO2 SLP118 CIG 004V008 P0009 T00940078=
201811260038 SPECI KATL 260038Z 13008KT 3SM RA BR BKN006 BKN050 OVC090 09/08 A2987 RMK AO2 P0007 T00940078=
201811260035 SPECI KATL 260035Z 14008KT 3SM RA BR FEW006 SCT050 OVC090 09/08 A2987 RMK AO2 P0007 T00940078=
201811252352 METAR KATL 252352Z 10007KT 10SM -RA FEW012 SCT070 OVC110 11/07 A2989 RMK AO2 RAB52 SLP124 P0000 60000 T01060072 10133 20106 55008=
201811252252 METAR KATL 252252Z 11011KT 10SM SCT070 SCT110 OVC200 11/07 A2987 RMK AO2 SLP117 VIRGA SW-NW-N ACC W-NW T01110072=
201811252152 METAR KATL 252152Z 12008KT 10SM BKN170 BKN250 12/07 A2990 RMK AO2 PRESFR SLP127 T01220067=
201811252052 METAR KATL 252052Z 13005KT 10SM BKN170 OVC250 13/07 A2992 RMK AO2 SLP132 T01280072 55010=
201811251952 METAR KATL 251952Z 14004KT 10SM BKN150 OVC250 13/07 A2991 RMK AO2 SLP130 T01280072=
201811251852 METAR KATL 251852Z 11005KT 10SM BKN200 12/07 A2994 RMK AO2 SLP142 T01220072=
201811251752 METAR KATL 251752Z VRB05KT 9SM SCT150 BKN250 12/08 A2995 RMK AO2 SLP142 T01220078 10122 20067 58018=
201811251728 SPECI KATL 251728Z VRB03KT 8SM SCT007 BKN150 BKN250 11/07 A2997 RMK AO2 T01110072=
201811251657 SPECI KATL 251657Z 11005KT 6SM HZ OVC005 10/07 A2998 RMK AO2 T01000072=
201811251652 METAR KATL 251652Z VRB03KT 1 1/4SM HZ OVC005 10/07 A2998 RMK AO2 SFC VIS 6 SLP153 T01000072=
201811251626 SPECI KATL 251626Z 12004KT 1 1/4SM BR OVC004 09/07 A2999 RMK AO2 SFC VIS 4 T00890067=
201811251552 METAR KATL 251552Z VRB03KT 1/4SM R09R/P6000FT BR OVC003 08/07 A3000 RMK AO2 SFC VIS 1 1/2 SLP160 TWRINC T00830067=
201811251452 METAR KATL 251452Z 12004KT 1/4SM R09R/1800VP6000FT FG VV002 07/07 A3000 RMK AO2 SLP162 T00720067 51014=
201811251442 SPECI KATL 251442Z 12003KT 1/4SM R09R/1200V3000FT FG VV002 07/07 A3000 RMK AO2 T00720067=
201811251357 SPECI KATL 251357Z 11004KT 1/4SM R09R/1600V1800FT FG VV002 07/06 A2999 RMK AO2 T00720061=
201811251352 METAR KATL 251352Z 08004KT 1/4SM R09R/1600V1800FT FG VV002 07/06 A2999 RMK AO2 TWR VIS 1 SLP157 T00720061=
201811251337 SPECI KATL 251337Z VRB03KT 1/4SM R09R/1200V2000FT FG VV002 07/07 A2998 RMK AO2 TWR VIS 1 T00720067=
201811251257 SPECI KATL 251257Z 00000KT 1/2SM R09R/3000V6000FT FG VV002 07/06 A2998 RMK AO2 TWR VIS 1 T00720061=
201811251252 METAR KATL 251252Z 00000KT 1/4SM R09R/2200VP6000FT FG VV002 07/06 A2999 RMK AO2 TWR VIS 1 SLP157 T00720061=
201811251239 SPECI KATL 251239Z 00000KT 1/4SM R09R/1400V4000FT FG VV002 07/06 A2998 RMK AO2 TWR VIS 1 T00720061=
201811251152 METAR KATL 251152Z 00000KT 1/4SM R09R/1400V1600FT FG VV002 07/07 A2996 RMK AO2 TWR VIS 1 SLP148 T00720067 10083 20072 53009=
201811251052 METAR KATL 251052Z 00000KT 1/4SM R09R/1200V1400FT FG VV002 07/07 A2995 RMK AO2 TWR VIS 1 SLP145 T00720067=
201811250952 METAR KATL 250952Z 30004KT 1/4SM R09R/1000V1400FT FG VV002 07/06 A2994 RMK AO2 TWR VIS 1 SLP141 T00720061=
201811250946 SPECI KATL 250946Z 32004KT 1/4SM R09R/1000V1400FT FG VV002 08/07 A2994 RMK AO2 TWR VIS 1=
201811250852 METAR KATL 250852Z 00000KT 1/2SM R09R/1200V1400FT FG VV002 07/07 A2993 RMK AO2 TWR VIS 1 SLP139 T00720067 50003=
201811250808 SPECI KATL 250808Z 27003KT 1/2SM R09R/1800V2200FT FG VV002 08/07 A2994 RMK AO2 TWR VIS 1 T00780067=
201811250752 METAR KATL 250752Z 00000KT 1/2SM R09R/2000V3000FT FG VV002 08/07 A2994 RMK AO2 TWR VIS 1 SLP141 T00780067=
201811250746 SPECI KATL 250746Z 28005KT 3/4SM R09R/2400V4500FT BR VV002 08/07 A2994 RMK AO2 TWR VIS 1=
201811250652 METAR KATL 250652Z 29004KT 1SM R09R/P6000FT BR OVC003 08/07 A2993 RMK AO2 SFC VIS 2 SLP140 TWRINC T00780067=
201811250552 METAR KATL 250552Z 32004KT 1SM R09R/P6000FT BR OVC004 08/07 A2993 RMK AO2 SFC VIS 3 SLP137 CIG 003V005 T00830072 10100 20083 51007=
201811250452 METAR KATL 250452Z 32005KT 1SM R09R/P6000FT BR OVC004 08/07 A2992 RMK AO2 SFC VIS 4 SLP134 CIG 003V005 T00830067 401000033=
201811250445 SPECI KATL 250445Z 31004KT 2SM BR OVC004 08/07 A2992 RMK AO2 SFC VIS 5 CIG 003V006 T00830067=
201811250352 METAR KATL 250352Z 30005KT 8SM OVC006 08/07 A2991 RMK AO2 SLP132 CIG 004V008 BINOVC T00830067=
201811250252 METAR KATL 250252Z 31009KT 8SM OVC006 09/07 A2990 RMK AO2 SLP130 CIG 005V008 T00890067 51011=
201811250152 METAR KATL 250152Z 32005KT 7SM OVC007 09/07 A2990 RMK AO2 SLP128 CIG 006V008 T00940072=
201811250052 METAR KATL 250052Z 34005KT 7SM OVC007 10/08 A2988 RMK AO2 SLP122 CIG 006V009 T01000078=
201811242352 METAR KATL 242352Z 33006KT 7SM OVC008 10/08 A2987 RMK AO2 SLP119 CIG 007V010 T01000078 10100 20072 51009=
201811242252 METAR KATL 242252Z 32003KT 6SM BR OVC008 10/08 A2986 RMK AO2 SLP116 CIG 006V010 T01000078=
201811242152 METAR KATL 242152Z 30004KT 2SM BR OVC005 09/07 A2985 RMK AO2 SFC VIS 6 SLP114 T00940072=
201811242052 METAR KATL 242052Z 31003KT 2SM BR OVC005 09/07 A2984 RMK AO2 SFC VIS 5 SLP109 T00890072 55009=
201811241952 METAR KATL 241952Z 00000KT 2SM BR OVC005 09/07 A2983 RMK AO2 SFC VIS 6 SLP106 T00890067=
201811241909 SPECI KATL 241909Z 31005KT 2SM BR OVC005 08/06 A2985 RMK AO2 SFC VIS 6 T00830061=
201811241852 METAR KATL 241852Z 30005KT 1SM R09R/P6000FT BR OVC004 08/06 A2985 RMK AO2 SFC VIS 5 SLP112 TWRINC T00780061=
201811241752 METAR KATL 241752Z 33004KT 1SM R09R/P6000FT BR OVC004 07/06 A2987 RMK AO2 SFC VIS 3 SLP118 TWRINC 60000 T00720056 10078 20033 58020=
201811241735 SPECI KATL 241735Z 34005KT 1SM R09R/P6000FT BR OVC004 08/06 A2987 RMK AO2 SFC VIS 5 TWRINC T00780056=
201811241652 METAR KATL 241652Z 00000KT 5SM BR OVC005 07/05 A2989 RMK AO2 SLP125 T00670050=
201811241552 METAR KATL 241552Z 11004KT 7SM OVC005 06/04 A2991 RMK AO2 SLP132 T00610039=
201811241452 METAR KATL 241452Z 12003KT 4SM BR OVC006 04/03 A2993 RMK AO2 DZE49 SLP140 P0000 60000 T00440028 51010=
201811241444 SPECI KATL 241444Z 05004KT 3SM -DZ BR OVC005 04/02 A2993 RMK AO2 P0000 T00440022=
201811241401 SPECI KATL 241401Z VRB05KT 2SM -DZ BR OVC005 04/03 A2993 RMK AO2 P0000 T00390028=
201811241352 METAR KATL 241352Z 06005KT 1 3/4SM -DZ BR BKN004 OVC009 04/02 A2992 RMK AO2 SLP138 CIG 003V006 P0000 T00390022=
201811241318 SPECI KATL 241318Z 05006KT 1 3/4SM -DZ BR OVC004 03/02 A2991 RMK AO2 P0000 T00330022=
201811241303 SPECI KATL 241303Z 06006KT 2 1/2SM -DZ BR OVC004 03/02 A2991 RMK AO2 P0000 T00330022=
201811241252 METAR KATL 241252Z 07007KT 3SM -DZ BR OVC004 03/02 A2991 RMK AO2 DZB52 SLP133 P0000 T00330022=
201811241152 METAR KATL 241152Z 07007KT 6SM BR OVC004 03/02 A2990 RMK AO2 SLP129 60038 70038 T00330022 10039 20033 55016=
201811241122 SPECI KATL 241122Z 08008KT 6SM BR OVC004 03/02 A2990 RMK AO2 T00330022=
201811241052 METAR KATL 241052Z 09010KT 6SM BR OVC005 03/02 A2988 RMK AO2 RAE40 SLP125 CIG 004V007 P0004 T00330022=
201811240952 METAR KATL 240952Z 08014KT 6SM -RA BR OVC006 04/02 A2990 RMK AO2 PRESFR SLP128 P0001 T00390022=
201811240852 METAR KATL 240852Z 06012KT 5SM -RA BR BKN005 BKN055 OVC075 04/02 A2995 RMK AO2 SLP145 CIG 004V007 P0007 60033 T00390022 58011=
201811240832 SPECI KATL 240832Z 06008KT 6SM -RA BR BKN005 BKN036 OVC050 04/03 A2997 RMK AO2 CIG 004V007 P0004 T00390028=
201811240813 SPECI KATL 240813Z 07011KT 7SM -RA SCT005 BKN019 OVC055 04/03 A2997 RMK AO2 P0003 T00390028=
201811240752 METAR KATL 240752Z 05004KT 5SM RA BR BKN006 OVC012 04/02 A3000 RMK AO2 SLP164 CIG 004V009 P0020 T00390022=
201811240749 SPECI KATL 240749Z 05004KT 5SM RA BR BKN006 OVC012 04/03 A3000 RMK AO2 CIG 004V009 P0020=
201811240735 SPECI KATL 240735Z 08006KT 5SM RA BR SCT007 OVC012 04/03 A2999 RMK AO2 P0016 T00390028=
201811240659 SPECI KATL 240659Z 07009KT 3SM RA BR BKN006 OVC013 04/02 A3000 RMK AO2 CIG 004V007 P0006 T00390022=
201811240656 SPECI KATL 240656Z 07006KT 2 1/2SM +RA BR OVC005 04/02 A3000 RMK AO2 CIG 004V007 P0005 T00390022=
201811240652 METAR KATL 240652Z 08007KT 3SM RA BR OVC005 04/03 A3000 RMK AO2 SLP162 CIG 004V007 P0006 T00390028=
201811240552 METAR KATL 240552Z 10010G20KT 7SM -RA OVC006 04/03 A2998 RMK AO2 SLP156 CIG 004V008 PCPN VRY LGT P0000 60000 T00390028 10056 20039 58020=
201811240452 METAR KATL 240452Z 09013KT 3SM -RA BR OVC006 04/03 A3001 RMK AO2 PRESFR SLP167 CIG 004V009 P0000 T00440028 400940039=
201811240352 METAR KATL 240352Z 08011KT 4SM -RA BR OVC006 04/03 A3006 RMK AO2 SLP182 CIG 004V009 P0000 T00440028=
201811240252 METAR KATL 240252Z 10014G21KT 4SM -RA BR OVC006 04/03 A3004 RMK AO2 SLP177 CIG 004V009 P0000 60000 T00440028 58027=
201811240152 METAR KATL 240152Z 09012G20KT 3SM -RA BR OVC006 05/03 A3007 RMK AO2 SLP186 CIG 004V008 P0000 T00500033=
201811240052 METAR KATL 240052Z 09013KT 3SM -RA BR BKN006 OVC015 05/03 A3010 RMK AO2 SLP198 P0000 T00500033=
201811240018 SPECI KATL 240018Z 10012KT 4SM -RA BR BKN008 BKN012 OVC020 06/03 A3012 RMK AO2 P0000 T00560033=
201811232352 METAR KATL 232352Z 09015KT 6SM -RA BKN012 OVC020 06/03 A3012 RMK AO2 RAB2255E24B52 SLP206 P0000 60000 T00560028 10094 20056 56007=
201811232252 METAR KATL 232252Z 08015KT 10SM FEW010 OVC022 06/03 A3013 RMK AO2 SLP208 T00610028=
201811232152 METAR KATL 232152Z 10014G19KT 10SM FEW012 OVC023 07/03 A3013 RMK AO2 RAE37 SLP208 P0000 T00670028=
201811232052 METAR KATL 232052Z 10014G20KT 10SM -RA OVC023 08/02 A3014 RMK AO2 SLP212 P0000 60000 T00780022 58021=
201811231952 METAR KATL 231952Z 08015KT 7SM -RA OVC026 08/02 A3017 RMK AO2 RAB1855E01B47 SLP220 P0000 T00830017=
201811231927 SPECI KATL 231927Z 09015KT 10SM OVC029 09/02 A3017 RMK AO2 RAB1855E01 P0000 T00890017=
201811231852 METAR KATL 231852Z 08012KT 10SM OVC032 09/02 A3019 RMK AO2 SLP226 T00890017=
201811231752 METAR KATL 231752Z 08018G23KT 10SM BKN035 OVC200 09/02 A3021 RMK AO2 SLP233 T00890022 10094 20039 58031=
201811231652 METAR KATL 231652Z 08015KT 10SM BKN034 OVC250 09/02 A3024 RMK AO2 SLP243 T00890017=
201811231552 METAR KATL 231552Z 08019G22KT 10SM SCT036 BKN070 OVC250 08/01 A3028 RMK AO2 SLP257 T00780011=
201811231452 METAR KATL 231452Z 09016G23KT 10SM FEW018 FEW045 OVC250 07/02 A3030 RMK AO2 SLP265 T00720017 53004=
201811231352 METAR KATL 231352Z 09014KT 10SM SCT013 SCT070 BKN200 OVC250 06/02 A3030 RMK AO2 SLP264 T00610022=
201811231323 SPECI KATL 231323Z 09013KT 10SM SCT011 SCT070 BKN200 OVC250 06/02 A3029 RMK AO2 T00560022=
201811231252 METAR KATL 231252Z 07014KT 9SM OVC011 05/02 A3028 RMK AO2 SLP259 BINOVC T00500022=
201811231155 SPECI KATL 231155Z 08013KT 10SM BKN014 BKN070 BKN250 04/02 A3029 RMK AO2 T00390017=
201811231152 METAR KATL 231152Z 08011KT 10SM SCT014 SCT070 BKN250 04/02 A3029 RMK AO2 SLP261 T00390017 10061 20039 51010=
201811231052 METAR KATL 231052Z 09012KT 10SM SCT250 04/02 A3028 RMK AO2 SLP258 T00440017=
201811230952 METAR KATL 230952Z 09011KT 10SM FEW250 05/02 A3027 RMK AO2 SLP253 T00500022=
201811230852 METAR KATL 230852Z 09010KT 10SM FEW250 05/02 A3026 RMK AO2 SLP249 T00500022 56017=
201811230752 METAR KATL 230752Z 09010KT 10SM FEW250 06/03 A3029 RMK AO2 SLP258 T00560028=
201811230652 METAR KATL 230652Z 09008KT 10SM FEW250 05/03 A3029 RMK AO2 SLP258 T00500028=
201811230552 METAR KATL 230552Z 08008KT 10SM CLR 06/03 A3031 RMK AO2 SLP267 T00560028 10106 20056 53000=
201811230452 METAR KATL 230452Z 08007KT 10SM CLR 06/03 A3030 RMK AO2 SLP263 T00610028 401610022=
201811230352 METAR KATL 230352Z 09006KT 10SM CLR 06/02 A3031 RMK AO2 SLP265 T00610022=
201811230252 METAR KATL 230252Z 08006KT 10SM FEW250 07/03 A3031 RMK AO2 SLP267 T00720028 51010=
201811230152 METAR KATL 230152Z 09006KT 10SM FEW250 08/02 A3030 RMK AO2 SLP265 T00830022=
201811230052 METAR KATL 230052Z 10005KT 10SM FEW250 09/02 A3029 RMK AO2 SLP262 T00890022=
201811222352 METAR KATL 222352Z 11004KT 10SM FEW200 11/02 A3028 RMK AO2 SLP257 T01060017 10144 20106 53006=
201811222252 METAR KATL 222252Z 11005KT 10SM FEW200 SCT250 12/02 A3027 RMK AO2 SLP255 T01170017=
201811222152 METAR KATL 222152Z 11004KT 10SM FEW200 BKN250 13/01 A3027 RMK AO2 SLP254 T01280011=
201811222052 METAR KATL 222052Z 09007KT 10SM BKN200 13/02 A3026 RMK AO2 SLP251 T01330017 56015=
201811221952 METAR KATL 221952Z 15006KT 10SM BKN180 14/01 A3028 RMK AO2 SLP256 T01390011=
201811221852 METAR KATL 221852Z 15007KT 10SM BKN180 BKN250 13/02 A3029 RMK AO2 SLP261 T01330017=
201811221752 METAR KATL 221752Z 15008KT 10SM BKN180 BKN250 14/01 A3031 RMK AO2 SLP266 T01390011 10161 20056 58013=
201811221652 METAR KATL 221652Z 11006KT 10SM BKN180 BKN250 16/01 A3034 RMK AO2 SLP275 T01560006=
201811221552 METAR KATL 221552Z 10006KT 10SM SCT180 BKN250 13/01 A3035 RMK AO2 SLP279 T01330006=
201811221452 METAR KATL 221452Z 09006KT 10SM SCT180 BKN250 10/02 A3035 RMK AO2 SLP281 T01000017 51019=
201811221352 METAR KATL 221352Z 07008KT 10SM SCT180 SCT250 08/01 A3034 RMK AO2 SLP279 T00830011=
201811221252 METAR KATL 221252Z 08005KT 10SM SCT180 SCT250 06/00 A3031 RMK AO2 SLP269 T00560000=
201811221152 METAR KATL 221152Z 03005KT 10SM SCT180 BKN250 06/M01 A3029 RMK AO2 SLP261 T00611006 10061 20022 53009=
201811221052 METAR KATL 221052Z 00000KT 10SM SCT180 BKN250 04/M01 A3028 RMK AO2 SLP258 T00391011=
201811220952 METAR KATL 220952Z 33003KT 10SM SCT180 SCT250 03/M01 A3026 RMK AO2 SLP252 T00281011=
201811220852 METAR KATL 220852Z 00000KT 10SM FEW180 SCT250 04/M01 A3026 RMK AO2 SLP251 T00441011 50001=
201811220752 METAR KATL 220752Z 34005KT 10SM SCT180 SCT250 04/M01 A3027 RMK AO2 SLP253 T00391011=
201811220652 METAR KATL 220652Z 33005KT 10SM FEW180 BKN250 04/M01 A3026 RMK AO2 SLP251 T00441011=
201811220552 METAR KATL 220552Z 33006KT 10SM BKN250 05/M01 A3026 RMK AO2 SLP248 T00501011 10089 20044 50001=
201811220452 METAR KATL 220452Z 31004KT 10SM SCT250 05/M01 A3027 RMK AO2 SLP252 T00501011 401390011=
201811220352 METAR KATL 220352Z 34006KT 10SM SCT250 07/M02 A3025 RMK AO2 SLP248 T00671017=
201811220252 METAR KATL 220252Z 33007KT 10SM SCT250 07/M02 A3026 RMK AO2 SLP249 T00671017 53002=
201811220152 METAR KATL 220152Z 31009KT 10SM SCT250 07/M02 A3024 RMK AO2 SLP245 T00721017=
201811220052 METAR KATL 220052Z 33008KT 10SM FEW250 08/M02 A3025 RMK AO2 SLP248 T00831022=
201811212352 METAR KATL 212352Z 33007KT 10SM FEW250 09/M03 A3025 RMK AO2 SLP248 T00891028 10139 20089 53007=
201811212252 METAR KATL 212252Z 32009KT 10SM FEW250 11/M04 A3024 RMK AO2 SLP245 T01061039=
201811212152 METAR KATL 212152Z 32008KT 10SM FEW250 13/M02 A3023 RMK AO2 SLP240 T01281017=
201811212052 METAR KATL 212052Z 31008KT 10SM FEW250 13/00 A3023 RMK AO2 SLP239 T01330000 56008=
201811211952 METAR KATL 211952Z 34010KT 10SM SCT250 13/01 A3023 RMK AO2 SLP240 T01330011=
201811211852 METAR KATL 211852Z 32007KT 10SM FEW250 13/02 A3024 RMK AO2 SLP244 T01330017=
201811211752 METAR KATL 211752Z 27007KT 230V320 10SM FEW250 13/02 A3025 RMK AO2 SLP247 T01330017 10133 20011 58015=
201811211652 METAR KATL 211652Z 00000KT 10SM FEW250 12/02 A3028 RMK AO2 SLP255 T01220017=
201811211552 METAR KATL 211552Z 00000KT 10SM FEW250 11/02 A3030 RMK AO2 SLP262 T01110022=
201811211452 METAR KATL 211452Z 32004KT 10SM FEW250 07/01 A3030 RMK AO2 SLP265 T00720011 53017=
201811211352 METAR KATL 211352Z 35004KT 10SM FEW250 05/00 A3027 RMK AO2 SLP257 T00500000=
201811211252 METAR KATL 211252Z 34004KT 10SM CLR 02/M01 A3026 RMK AO2 SLP253 T00221006=
201811211152 METAR KATL 211152Z 32007KT 10SM CLR 02/M01 A3025 RMK AO2 SLP248 70002 T00171011 10044 20017 53007=
201811211052 METAR KATL 211052Z 33007KT 10SM CLR 02/M01 A3023 RMK AO2 SLP242 T00171006=
201811210952 METAR KATL 210952Z 31010KT 10SM CLR 02/M01 A3022 RMK AO2 SLP238 T00221006=
201811210852 METAR KATL 210852Z 32006KT 10SM CLR 03/M01 A3023 RMK AO2 SLP239 T00281006 53004=
201811210752 METAR KATL 210752Z 33008KT 10SM CLR 03/M01 A3022 RMK AO2 SLP237 T00331006=
201811210652 METAR KATL 210652Z 32009KT 10SM CLR 04/00 A3022 RMK AO2 SLP236 T00390000=
201811210552 METAR KATL 210552Z 32009KT 10SM CLR 04/00 A3022 RMK AO2 SLP235 T00440000 10089 20039 50003=
201811210452 METAR KATL 210452Z 32010KT 10SM CLR 05/01 A3022 RMK AO2 SLP235 T00500006 401390050=
201811210352 METAR KATL 210352Z 33010KT 10SM CLR 06/01 A3021 RMK AO2 SLP235 T00560006=
201811210252 METAR KATL 210252Z 34010KT 10SM CLR 06/01 A3021 RMK AO2 SLP233 T00610006 51008=
201811210152 METAR KATL 210152Z 33011KT 10SM CLR 07/01 A3020 RMK AO2 SLP231 T00670011=
201811210052 METAR KATL 210052Z 34010KT 10SM CLR 08/01 A3019 RMK AO2 SLP227 T00780011=
201811202352 METAR KATL 202352Z 32009KT 10SM CLR 09/02 A3018 RMK AO2 SLP223 T00890017 10139 20089 53021=
201811202252 METAR KATL 202252Z 35011KT 10SM CLR 10/02 A3016 RMK AO2 SLP213 T01000022=
201811202152 METAR KATL 202152Z 34012KT 10SM CLR 12/02 A3013 RMK AO2 SLP204 T01220022=
201811202052 METAR KATL 202052Z 32013KT 10SM CLR 13/03 A3012 RMK AO2 SLP198 T01330028 55003=
201811201952 METAR KATL 201952Z 32013KT 10SM FEW040 FEW250 14/03 A3012 RMK AO2 WSHFT 1859 SLP197 T01390033=
201811201919 SPECI KATL 201919Z 31014KT 10SM FEW250 14/04 A3012 RMK AO2 WSHFT 1859 T01390039=
201811201852 METAR KATL 201852Z 34011G19KT 10SM FEW040 FEW250 14/03 A3012 RMK AO2 SLP197 T01390028=
201811201752 METAR KATL 201752Z 31015G20KT 10SM FEW035 FEW250 13/04 A3013 RMK AO2 SLP201 60002 T01280039 10133 20094 58006=
201811201652 METAR KATL 201652Z 31012KT 10SM FEW030 FEW250 12/04 A3015 RMK AO2 SLP209 T01170044=
201811201552 METAR KATL 201552Z 32011KT 10SM FEW017 FEW040 SCT060 11/06 A3016 RMK AO2 SLP212 T01110056=
201811201452 METAR KATL 201452Z 31010KT 10SM FEW015 BKN045 BKN055 09/06 A3015 RMK AO2 SLP209 60002 T00940061 51019=
201811201352 METAR KATL 201352Z 31011KT 9SM FEW009 FEW015 OVC040 09/07 A3013 RMK AO2 SLP204 T00940067=
201811201335 SPECI KATL 201335Z 31011KT 8SM FEW009 SCT015 OVC038 09/07 A3013 RMK AO2 T00940067=
201811201317 SPECI KATL 201317Z 31013G21KT 8SM SCT007 BKN013 OVC065 09/07 A3013 RMK AO2 T00940067=
201811201252 METAR KATL 201252Z 31011KT 6SM BR BKN007 OVC012 11/09 A3011 RMK AO2 RAE38 SLP196 CIG 006V010 P0002 T01060089=
201811201233 SPECI KATL 201233Z 29007KT 6SM -RA BR BKN006 OVC012 11/09 A3011 RMK AO2 P0002 T01110094=
201811201216 SPECI KATL 201216Z 28007KT 6SM -RA BR SCT006 BKN012 OVC032 11/09 A3010 RMK AO2 P0002 T01110094=
201811201152 METAR KATL 201152Z 30011KT 6SM -RA BR SCT008 BKN022 OVC065 11/09 A3009 RMK AO2 SLP188 BKN022 V SCT P0001 60001 70001 T01110094 10139 20111 53009=
201811201147 SPECI KATL 201147Z 31013KT 6SM -RA BR SCT009 BKN022 OVC065 12/09 A3009 RMK AO2 BKN022 V SCT P0001=
201811201125 SPECI KATL 201125Z 30010KT 6SM -RA BR BKN009 OVC060 12/10 A3008 RMK AO2 CIG 008V012 P0001 T01220100=
201811201105 SPECI KATL 201105Z 31009KT 8SM -RA BKN012 OVC060 13/10 A3008 RMK AO2 CIG 011V015 P0000 T01280100=
201811201052 METAR KATL 201052Z 30007KT 10SM -RA FEW013 BKN040 OVC070 13/10 A3007 RMK AO2 RAB42 SLP180 P0000 T01280100=
201811200952 METAR KATL 200952Z 31006KT 10SM BKN042 BKN055 OVC090 13/09 A3006 RMK AO2 SLP176 T01280094=
201811200852 METAR KATL 200852Z 29006KT 10SM OVC044 13/09 A3006 RMK AO2 SLP177 T01280089 56007=
201811200752 METAR KATL 200752Z 27006KT 10SM BKN046 OVC070 13/08 A3006 RMK AO2 SLP176 T01330083=
201811200652 METAR KATL 200652Z 29008KT 10SM BKN050 BKN070 OVC200 13/08 A3007 RMK AO2 SLP179 T01330083=
201811200552 METAR KATL 200552Z 27006KT 10SM SCT060 BKN090 OVC200 14/08 A3008 RMK AO2 SLP184 T01390078 10156 20133 57002=
201811200452 METAR KATL 200452Z 27006KT 10SM FEW040 SCT090 BKN200 14/08 A3009 RMK AO2 SLP185 T01390078 402060067=
201811200352 METAR KATL 200352Z 27006KT 10SM FEW045 BKN200 14/08 A3009 RMK AO2 SLP186 T01440078=
201811200252 METAR KATL 200252Z 27006KT 10SM BKN050 BKN250 15/08 A3009 RMK AO2 SLP187 T01500078 50001=
201811200152 METAR KATL 200152Z 27006KT 10SM BKN050 BKN250 16/08 A3009 RMK AO2 SLP188 T01560083=
201811200052 METAR KATL 200052Z 26004KT 10SM BKN060 BKN250 16/08 A3009 RMK AO2 SLP191 T01560083=
201811192352 METAR KATL 192352Z 23004KT 10SM FEW050 SCT090 BKN250 16/08 A3009 RMK AO2 SLP189 T01560083 10206 20150 53004=
201811192252 METAR KATL 192252Z 22004KT 10SM SCT100 BKN150 BKN250 17/08 A3008 RMK AO2 SLP186 VIRGA DSNT NW T01670083=
201811192152 METAR KATL 192152Z 28005KT 10SM FEW150 BKN180 BKN250 18/08 A3007 RMK AO2 SLP183 T01780078=
201811192052 METAR KATL 192052Z 24005KT 10SM FEW150 FEW250 19/07 A3008 RMK AO2 SLP183 T01940072 56017=
201811191952 METAR KATL 191952Z 23009KT 10SM FEW120 SCT150 BKN230 21/07 A3009 RMK AO2 SLP187 T02060067=
201811191852 METAR KATL 191852Z 25006KT 10SM BKN150 BKN240 19/06 A3010 RMK AO2 SLP192 T01890061=
201811191752 METAR KATL 191752Z VRB05KT 10SM BKN150 BKN250 18/08 A3013 RMK AO2 SLP201 T01830078 10183 20067 58018=
201811191652 METAR KATL 191652Z 23003KT 10SM FEW150 FEW180 SCT250 17/08 A3016 RMK AO2 SLP212 T01670083=
201811191552 METAR KATL 191552Z 20003KT 10SM BKN250 16/09 A3018 RMK AO2 SLP220 T01560089=
201811191452 METAR KATL 191452Z 00000KT 9SM FEW150 FEW180 BKN250 13/09 A3018 RMK AO2 SLP221 T01330094 51008=
201811191352 METAR KATL 191352Z 13003KT 9SM FEW150 SCT200 BKN250 11/08 A3018 RMK AO2 SLP222 T01060078=
201811191252 METAR KATL 191252Z 00000KT 10SM FEW150 SCT200 SCT250 08/05 A3018 RMK AO2 SLP221 T00780050=
201811191152 METAR KATL 191152Z 00000KT 10SM FEW200 SCT250 07/04 A3016 RMK AO2 SLP215 T00720044 10100 20067 54000=
201811191052 METAR KATL 191052Z 00000KT 10SM SCT200 BKN250 07/05 A3016 RMK AO2 SLP215 T00720050=
201811190952 METAR KATL 190952Z 00000KT 10SM SCT200 BKN250 07/05 A3016 RMK AO2 SLP212 T00720050=
201811190852 METAR KATL 190852Z 00000KT 10SM SCT200 BKN250 08/06 A3016 RMK AO2 SLP213 T00780056 58003=
201811190752 METAR KATL 190752Z 00000KT 10SM SCT200 BKN250 08/06 A3016 RMK AO2 SLP212 T00780056=
201811190652 METAR KATL 190652Z 00000KT 10SM FEW200 SCT250 09/06 A3017 RMK AO2 SLP216 T00890056=
201811190552 METAR KATL 190552Z 00000KT 10SM FEW200 SCT250 09/06 A3017 RMK AO2 SLP215 T00890061 10133 20089 58007=
201811190452 METAR KATL 190452Z 00000KT 10SM FEW200 SCT250 09/06 A3018 RMK AO2 SLP220 T00940061 401890056=
201811190352 METAR KATL 190352Z 00000KT 10SM SCT200 SCT250 11/07 A3019 RMK AO2 SLP222 T01060067=
201811190252 METAR KATL 190252Z 00000KT 10SM FEW200 SCT250 11/07 A3019 RMK AO2 SLP225 T01060067 51004=
201811190152 METAR KATL 190152Z 00000KT 10SM SCT250 12/07 A3019 RMK AO2 SLP224 T01220067=
201811190052 METAR KATL 190052Z 00000KT 10SM FEW250 12/07 A3020 RMK AO2 SLP227 T01220067=
201811182352 METAR KATL 182352Z 00000KT 10SM FEW250 13/07 A3018 RMK AO2 SLP222 T01280067 10189 20128 53004=
201811182252 METAR KATL 182252Z 13003KT 10SM FEW180 FEW250 15/07 A3017 RMK AO2 SLP218 T01500067=
201811182152 METAR KATL 182152Z 13004KT 10SM FEW160 SCT250 SCT300 17/06 A3017 RMK AO2 SLP217 T01720061=
201811182052 METAR KATL 182052Z 00000KT 10SM FEW180 FEW250 SCT300 18/06 A3017 RMK AO2 SLP216 T01780056 56021=
201811181952 METAR KATL 181952Z 01003KT 10SM FEW200 SCT250 SCT300 18/07 A3019 RMK AO2 SLP222 T01830067=
201811181852 METAR KATL 181852Z 00000KT 10SM SCT180 SCT250 SCT300 18/06 A3021 RMK AO2 SLP228 T01830061=
201811181752 METAR KATL 181752Z 00000KT 10SM FEW160 SCT250 SCT300 17/07 A3023 RMK AO2 SLP237 T01720067 10178 20056 58016=
201811181652 METAR KATL 181652Z 00000KT 10SM FEW180 SCT250 SCT300 16/07 A3027 RMK AO2 SLP250 T01610067=
201811181552 METAR KATL 181552Z 00000KT 10SM FEW200 SCT250 14/07 A3029 RMK AO2 SLP258 T01440072=
201811181452 METAR KATL 181452Z 07003KT 10SM FEW180 SCT250 12/07 A3028 RMK AO2 SLP255 T01170067 51012=
201811181352 METAR KATL 181352Z 09005KT 10SM FEW150 SCT200 BKN250 09/06 A3028 RMK AO2 SLP254 VIRGA OHD-W T00940056=
201811181252 METAR KATL 181252Z 08003KT 10SM FEW200 BKN250 07/04 A3026 RMK AO2 SLP251 T00670044=
201811181152 METAR KATL 181152Z 07004KT 10SM FEW250 06/04 A3024 RMK AO2 SLP244 T00610039 10089 20061 53008=
201811181052 METAR KATL 181052Z 07004KT 10SM FEW250 07/04 A3023 RMK AO2 SLP237 T00720044=
201811180952 METAR KATL 180952Z 08005KT 10SM FEW250 07/04 A3023 RMK AO2 SLP239 T00720039=
201811180852 METAR KATL 180852Z 09004KT 10SM CLR 07/04 A3022 RMK AO2 SLP233 T00720039 56002=
201811180752 METAR KATL 180752Z 08004KT 10SM CLR 08/04 A3022 RMK AO2 SLP232 T00830039=
201811180652 METAR KATL 180652Z 07005KT 10SM CLR 08/04 A3022 RMK AO2 SLP232 T00780044=
201811180552 METAR KATL 180552Z 08004KT 10SM CLR 09/04 A3023 RMK AO2 SLP234 T00890044 10133 20078 58001=
201811180452 METAR KATL 180452Z 10003KT 10SM FEW250 08/04 A3023 RMK AO2 SLP237 T00830044 401890028=
201811180352 METAR KATL 180352Z 07004KT 10SM FEW200 SCT250 11/04 A3023 RMK AO2 SLP238 T01110044=
201811180252 METAR KATL 180252Z 00000KT 10SM BKN200 BKN250 10/06 A3023 RMK AO2 SLP238 T01000056 51008=
201811180152 METAR KATL 180152Z 02003KT 10SM BKN200 BKN250 12/04 A3022 RMK AO2 SLP236 T01220044=
201811180052 METAR KATL 180052Z 00000KT 10SM BKN200 OVC250 12/06 A3021 RMK AO2 SLP234 T01170056=
201811172352 METAR KATL 172352Z 33003KT 10SM SCT200 BKN250 13/05 A3020 RMK AO2 SLP231 T01280050 10189 20122 51003=
201811172252 METAR KATL 172252Z 31003KT 10SM BKN180 OVC250 14/06 A3020 RMK AO2 SLP230 VIRGA S-W-NW T01390056=
201811172152 METAR KATL 172152Z 31004KT 10SM FEW200 BKN250 16/04 A3020 RMK AO2 SLP228 VIRGA S-SW T01610039=
201811172052 METAR KATL 172052Z 28003KT 10SM FEW200 BKN250 17/03 A3019 RMK AO2 SLP225 VIRGA S-SW T01720028 56008=
201811171952 METAR KATL 171952Z 30005KT 10SM BKN250 18/04 A3020 RMK AO2 SLP226 T01780039=
201811171852 METAR KATL 171852Z 29003KT 10SM SCT250 18/03 A3020 RMK AO2 SLP226 T01780033=
201811171752 METAR KATL 171752Z 36003KT 10SM FEW250 17/04 A3022 RMK AO2 SLP234 T01720039 10172 20028 58012=
201811171652 METAR KATL 171652Z 35004KT 10SM FEW250 16/04 A3024 RMK AO2 SLP240 T01560039=
201811171552 METAR KATL 171552Z 35006KT 10SM FEW250 13/04 A3025 RMK AO2 SLP246 T01330044=
201811171452 METAR KATL 171452Z 32005KT 10SM CLR 10/04 A3026 RMK AO2 SLP248 T01000044 51015=
201811171352 METAR KATL 171352Z 31005KT 10SM CLR 07/03 A3024 RMK AO2 SLP245 T00720033=
201811171252 METAR KATL 171252Z 31005KT 10SM CLR 04/02 A3022 RMK AO2 SLP240 T00390017=
201811171152 METAR KATL 171152Z 31006KT 10SM CLR 03/01 A3021 RMK AO2 SLP235 T00280011 10050 20028 53009=
201811171052 METAR KATL 171052Z 30005KT 10SM CLR 03/01 A3020 RMK AO2 SLP230 T00330011=
201811170952 METAR KATL 170952Z 31007KT 10SM CLR 03/01 A3019 RMK AO2 SLP226 T00330011=
201811170852 METAR KATL 170852Z 31008KT 10SM SCT250 04/02 A3018 RMK AO2 SLP223 T00390017 53002=
201811170752 METAR KATL 170752Z 30007KT 10SM SCT250 05/02 A3018 RMK AO2 SLP221 T00500017=
201811170652 METAR KATL 170652Z 29004KT 10SM SCT250 04/02 A3017 RMK AO2 SLP221 T00440022=
201811170552 METAR KATL 170552Z 30005KT 10SM SCT250 04/02 A3017 RMK AO2 SLP222 T00440022 10094 20044 51005=
201811170452 METAR KATL 170452Z 29004KT 10SM FEW250 06/02 A3017 RMK AO2 SLP222 T00560022 401390000=
201811170352 METAR KATL 170352Z 30004KT 10SM FEW250 06/03 A3016 RMK AO2 SLP219 T00560028=
201811170252 METAR KATL 170252Z 29004KT 10SM FEW250 07/03 A3016 RMK AO2 SLP218 T00670028 51006=
201811170152 METAR KATL 170152Z 28004KT 10SM FEW250 07/03 A3016 RMK AO2 SLP217 T00720028=
201811170052 METAR KATL 170052Z 32006KT 10SM FEW200 SCT250 08/03 A3015 RMK AO2 SLP216 T00830028=
201811162352 METAR KATL 162352Z 32008KT 10SM FEW200 BKN250 09/03 A3014 RMK AO2 SLP213 T00940028 10139 20089 53008=
201811162252 METAR KATL 162252Z 28003KT 10SM FEW200 SCT250 11/03 A3013 RMK AO2 SLP206 T01060028=
201811162152 METAR KATL 162152Z 31007KT 10SM SCT200 BKN250 13/02 A3012 RMK AO2 SLP206 T01280022=
201811162052 METAR KATL 162052Z 31006KT 10SM FEW200 SCT250 13/02 A3012 RMK AO2 SLP202 T01330022 55009=
201811161952 METAR KATL 161952Z 31007KT 280V340 10SM FEW200 SCT250 13/02 A3012 RMK AO2 SLP202 T01330017=
201811161852 METAR KATL 161852Z 29010KT 10SM FEW180 SCT250 13/01 A3012 RMK AO2 SLP204 T01280011=
201811161752 METAR KATL 161752Z 32010KT 10SM FEW180 FEW250 11/00 A3014 RMK AO2 SLP213 T01060000 10106 20000 58016=
201811161652 METAR KATL 161652Z 32012KT 10SM FEW180 SCT250 09/M01 A3018 RMK AO2 SLP224 T00941006=
201811161552 METAR KATL 161552Z 31011KT 10SM FEW180 FEW250 SCT300 07/M01 A3020 RMK AO2 SLP231 T00721006=
201811161452 METAR KATL 161452Z 32009KT 10SM FEW180 SCT250 SCT300 04/M02 A3019 RMK AO2 SLP232 T00441017 51012=
201811161352 METAR KATL 161352Z 33010KT 10SM FEW180 SCT250 02/M03 A3019 RMK AO2 SLP232 T00171028=
201811161252 METAR KATL 161252Z 31008KT 10SM FEW180 BKN250 00/M03 A3018 RMK AO2 SLP228 T00001028=
201811161152 METAR KATL 161152Z 31010KT 10SM BKN180 BKN250 00/M03 A3016 RMK AO2 SLP220 70001 T00001033 10011 20000 51008=
201811161052 METAR KATL 161052Z 30009KT 10SM BKN200 00/M03 A3015 RMK AO2 SLP219 T00001028=
201811160952 METAR KATL 160952Z 30007KT 10SM FEW016 BKN200 01/M03 A3014 RMK AO2 SLP215 T00061028=
201811160935 SPECI KATL 160935Z 31009KT 10SM SCT015 BKN200 01/M03 A3014 RMK AO2 T00061028=
201811160852 METAR KATL 160852Z 32012KT 10SM OVC015 01/M03 A3013 RMK AO2 SLP210 BINOVC T00061033 53003=
201811160752 METAR KATL 160752Z 30013G19KT 10SM OVC015 01/M03 A3012 RMK AO2 SLP207 T00061033=
201811160652 METAR KATL 160652Z 31013KT 10SM OVC015 01/M03 A3012 RMK AO2 SLP206 T00111028=
201811160552 METAR KATL 160552Z 31015G21KT 10SM OVC016 01/M03 A3012 RMK AO2 PK WND 32027/0532 SLP205 T00111028 10017 20011 51002=
201811160452 METAR KATL 160452Z 32016G21KT 10SM OVC017 01/M03 A3012 RMK AO2 SLP206 T00111028 400720011=
201811160352 METAR KATL 160352Z 31014G20KT 10SM OVC016 01/M03 A3012 RMK AO2 SLP206 T00111028=
201811160252 METAR KATL 160252Z 30014G19KT 10SM BKN015 OVC025 01/M03 A3011 RMK AO2 SLP204 T00111028 51009=
201811160152 METAR KATL 160152Z 29012KT 10SM OVC015 01/M02 A3011 RMK AO2 SLP203 T00111022=
201811160052 METAR KATL 160052Z 30014KT 10SM BKN015 OVC030 01/M02 A3010 RMK AO2 SLP200 T00111022=
201811152352 METAR KATL 152352Z 30013G22KT 10SM BKN015 OVC025 02/M02 A3009 RMK AO2 SLP194 60000 T00171022 10072 20017 53015=
201811152252 METAR KATL 152252Z 30012KT 10SM BKN010 OVC020 02/M01 A3007 RMK AO2 SLP188 T00171006=
201811152155 SPECI KATL 152155Z 28012KT 10SM BKN007 OVC012 03/01 A3005 RMK AO2 T00280011=
201811152152 METAR KATL 152152Z 28009KT 2 1/2SM BKN007 OVC012 03/01 A3005 RMK AO2 SFC VIS 9 SLP182 T00280011=
201811152052 METAR KATL 152052Z 27010G17KT 2 1/2SM BR BKN005 BKN012 OVC020 03/02 A3004 RMK AO2 SFC VIS 4 DZE50 SLP178 P0000 60000 T00330017 53001=
201811152034 SPECI KATL 152034Z 29012KT 2 1/2SM -DZ BR BKN005 BKN010 OVC020 04/02 A3004 RMK AO2 SFC VIS 3 P0000 T00390022=
201811151952 METAR KATL 151952Z 28013KT 8SM -DZ BKN007 BKN010 OVC020 06/04 A3003 RMK AO2 DZE1853B51 SLP173 P0000 T00560039=
201811151854 SPECI KATL 151854Z 29008KT 8SM BKN007 BKN012 OVC020 07/05 A3001 RMK AO2 DZE53 P0000 T00670050=
201811151852 METAR KATL 151852Z 29010KT 4SM -DZ BR BKN007 BKN012 OVC020 07/05 A3002 RMK AO2 DZB1759 SLP169 P0000 T00670050=
201811151818 SPECI KATL 151818Z 28007KT 4SM -DZ BR BKN009 BKN012 OVC020 07/05 A3003 RMK AO2 DZB1759 P0000 T00720050=
201811151800 SPECI KATL 151800Z 00000KT 7SM -DZ FEW009 BKN012 OVC020 07/04 A3003 RMK AO2 DZB1759 P0000 T00670044=
201811151752 METAR KATL 151752Z 00000KT 8SM BKN012 BKN020 OVC030 07/05 A3004 RMK AO2 DZE50 SLP175 P0001 60001 T00720050 10072 20056 58016=
201811151652 METAR KATL 151652Z 00000KT 3SM -DZ BR FEW009 BKN012 OVC020 07/04 A3007 RMK AO2 SFC VIS 6 SLP187 P0000 T00670044=
201811151608 SPECI KATL 151608Z 11004KT 3SM -DZ BR BKN009 BKN012 OVC020 07/04 A3007 RMK AO2 SFC VIS 6 P0000 T00670044=
201811151552 METAR KATL 151552Z 09003KT 2SM -DZ BR BKN008 BKN012 OVC020 06/04 A3008 RMK AO2 SFC VIS 6 DZB34 SLP190 VIS LWR E-S P0000 T00610044=
201811151534 SPECI KATL 151534Z VRB03KT 2SM -DZ BR BKN012 BKN015 OVC018 07/04 A3008 RMK AO2 SFC VIS 4 DZB34 P0000 T00670039=
201811151452 METAR KATL 151452Z 07004KT 10SM BKN012 BKN015 OVC020 07/04 A3009 RMK AO2 SLP191 60000 T00670039 55003=
201811151352 METAR KATL 151352Z 08006KT 10SM BKN008 OVC026 06/04 A3008 RMK AO2 DZE24 SLP191 CIG 006V010 P0000 T00560039=
201811151252 METAR KATL 151252Z 06007KT 7SM -DZ BKN007 BKN012 OVC032 06/04 A3009 RMK AO2 RAE01DZB50 SLP196 CIG 005V009 P0000 T00560039=
201811151152 METAR KATL 151152Z 08003KT 8SM -RA BKN008 BKN030 OVC045 06/04 A3009 RMK AO2 SLP195 CIG 006V010 P0005 60040 70147 T00560039 10067 20056 56005=
201811151125 SPECI KATL 151125Z 03006KT 3SM -RA BR SCT008 BKN028 OVC037 06/04 A3008 RMK AO2 P0004 T00560039=
201811151052 METAR KATL 151052Z 00000KT 6SM -RA BR BKN008 BKN014 OVC024 06/04 A3010 RMK AO2 RAE21B37 SLP197 CIG 006V010 P0001 T00560039=
201811150952 METAR KATL 150952Z 09005KT 6SM -RA BR BKN008 BKN014 OVC021 06/04 A3006 RMK AO2 SLP184 CIG 006V010 P0012 T00560039=
201811150928 SPECI KATL 150928Z 27005KT 3SM RA BR BKN006 OVC012 06/04 A3013 RMK AO2 PRESRR CIG 004V008 P0009 T00560044=
201811150852 METAR KATL 150852Z 00000KT 3SM R09R/5500VP6000FT RA BR OVC010 06/04 A3011 RMK AO2 PK WND 10026/0754 SLP200 CIG 008V012 P0011 60022 T00560039 55005=
201811150752 METAR KATL 150752Z 09020G26KT 8SM -RA BKN006 OVC018 06/04 A3006 RMK AO2 PK WND 08029/0733 SLP184 CIG 004V008 P0003 T00560039=
201811150652 METAR KATL 150652Z 09015KT 6SM -RA BR BKN006 BKN036 OVC065 06/05 A3011 RMK AO2 SLP201 CIG 004V008 P0008 T00610050=
201811150605 SPECI KATL 150605Z 09017G23KT 4SM RA BR BKN007 BKN040 OVC075 07/05 A3012 RMK AO2 P0002 T00670050=
201811150552 METAR KATL 150552Z 09018KT 4SM RA BR SCT005 BKN030 OVC090 07/05 A3012 RMK AO2 SLP204 SCT005 V BKN P0014 60087 T00670050 10078 20067 58028=
201811150506 SPECI KATL 150506Z 08017KT 5SM RA BR FEW008 BKN030 OVC090 07/05 A3018 RMK AO2 P0006 T00670050=
201811150452 METAR KATL 150452Z 09013KT 3SM +RA BR SCT009 BKN015 OVC025 07/05 A3019 RMK AO2 SLP225 VIS LWR SE-SW P0018 T00670050 401060061=
201811150352 METAR KATL 150352Z 10005KT 3SM RA BR BKN007 OVC015 07/05 A3021 RMK AO2 SFC VIS 4 SLP234 P0015 T00720050=
201811150252 METAR KATL 150252Z 08009KT 3SM RA BR BKN007 OVC020 07/06 A3021 RMK AO2 SLP233 CIG 005V010 P0017 60040 T00720056 50008=
201811150152 METAR KATL 150152Z 09008KT 3SM RA BR BKN007 OVC020 07/06 A3021 RMK AO2 SFC VIS 5 SLP234 CIG 005V010 P0014 T00720056=
201811150052 METAR KATL 150052Z 09011KT 3SM RA BR BKN007 OVC020 07/06 A3021 RMK AO2 SFC VIS 4 SLP232 CIG 005V010 P0009 T00720056=
201811142352 METAR KATL 142352Z 08014KT 3SM -RA BR BKN007 OVC020 08/06 A3018 RMK AO2 SFC VIS 5 SLP225 CIG 005V010 P0006 60013 T00780061 10094 20078 56007=
201811142252 METAR KATL 142252Z 08016KT 3SM -RA BR BKN006 OVC030 08/06 A3020 RMK AO2 SFC VIS 6 SLP229 CIG 004V008 P0002 T00780061=
201811142152 METAR KATL 142152Z 07013KT 3SM -RA BR BKN008 BKN012 OVC030 08/06 A3018 RMK AO2 SFC VIS 5 SLP225 P0004 T00780061=
201811142107 SPECI KATL 142107Z 07016G20KT 3SM -RA BR BKN008 BKN010 OVC020 08/06 A3020 RMK AO2 SFC VIS 5 P0001 T00830061=
201811142052 METAR KATL 142052Z 07016G21KT 6SM -RA BR BKN008 BKN012 OVC020 08/06 A3021 RMK AO2 SLP233 P0001 60001 T00830061 56012=
201811141952 METAR KATL 141952Z 07013KT 9SM -RA BKN007 BKN010 OVC020 08/06 A3022 RMK AO2 SLP236 P0000 T00830061=
201811141852 METAR KATL 141852Z 07017KT 9SM -RA BKN007 BKN012 OVC020 09/07 A3022 RMK AO2 RAE1756B23 SLP239 P0000 T00890067=
201811141752 METAR KATL 141752Z 06013KT 9SM -RA BKN008 BKN012 OVC020 09/08 A3024 RMK AO2 RAB23 SLP244 P0000 60007 T00940078 10106 20072 58015=
201811141702 SPECI KATL 141702Z 08008KT 10SM BKN008 BKN014 OVC020 10/08 A3028 RMK AO2 PRESRR T01000078=
201811141652 METAR KATL 141652Z 08010KT 10SM BKN010 BKN015 OVC020 10/08 A3027 RMK AO2 RAE35 SLP252 P0001 T01000078=
201811141607 SPECI KATL 141607Z 07015G20KT 8SM -RA BKN007 BKN012 OVC015 09/08 A3028 RMK AO2 P0001 T00940078=
201811141552 METAR KATL 141552Z 08013KT 10SM -RA FEW008 BKN012 OVC017 10/08 A3028 RMK AO2 RAB17 PRESFR SLP258 P0000 T01000078=
201811141547 SPECI KATL 141547Z 08013KT 10SM -RA FEW008 BKN012 OVC015 10/08 A3029 RMK AO2 RAB17 P0000=
201811141452 METAR KATL 141452Z 07012KT 9SM OVC006 10/08 A3029 RMK AO2 RAB1355E45 SLP259 P0001 60006 T01000078 53015=
201811141415 SPECI KATL 141415Z 09011KT 8SM -RA OVC006 10/08 A3027 RMK AO2 RAB1355 P0000 T01000083=
201811141352 METAR KATL 141352Z 06008KT 3SM OVC005 10/08 A3027 RMK AO2 SFC VIS 7 RAE48 PRESRR SLP252 CIG 003V006 P0002 T01000083=
201811141252 METAR KATL 141252Z 01006KT 1/4SM R09R/P6000FT -RA BR OVC004 08/06 A3025 RMK AO2 SFC VIS 3 SLP247 P0003 T00780061=
201811141152 METAR KATL 141152Z 05003KT 1/4SM R09R/P6000FT -RA BR OVC003 08/07 A3024 RMK AO2 SFC VIS 4 SLP244 P0003 60003 70014 T00780067 10078 20061 53008=
201811141052 METAR KATL 141052Z 04004KT 1/4SM R09R/P6000FT -RA BR OVC003 07/06 A3022 RMK AO2 SFC VIS 2 1/2 RAB0957E10B27 SLP236 TWRINC P0000 T00720061=
201811141007 SPECI KATL 141007Z 03004KT 1 1/2SM -RA BR OVC004 07/06 A3022 RMK AO2 SFC VIS 5 RAB0957 P0000 T00720056=
201811140952 METAR KATL 140952Z 04005KT 3SM BR OVC005 07/05 A3021 RMK AO2 SFC VIS 5 RAE21 SLP232 P0000 T00670050=
201811140852 METAR KATL 140852Z 03005KT 3SM -RA BR OVC008 07/04 A3022 RMK AO2 SFC VIS 6 RAB50 SLP235 P0000 60000 T00670044 53003=
201811140752 METAR KATL 140752Z 32009KT 3SM BR OVC005 06/04 A3021 RMK AO2 SFC VIS 6 SLP233 CIG 004V007 T00610044=
201811140652 METAR KATL 140652Z 02006KT 3SM BR BKN005 OVC110 07/05 A3020 RMK AO2 SFC VIS 6 RAE04 SLP230 CIG 004V007 P0000 T00670050=
201811140552 METAR KATL 140552Z 33010KT 3SM -RA BR BKN005 BKN040 OVC110 07/05 A3021 RMK AO2 SFC VIS 6 SLP233 CIG 004V007 P0001 60003 T00670050 10083 20067 53004=
201811140524 SPECI KATL 140524Z 31009KT 3SM -RA BR BKN005 BKN020 OVC110 07/05 A3021 RMK AO2 SFC VIS 6 CIG 003V007 P0001 T00670050=
201811140517 SPECI KATL 140517Z 31010KT 7SM -RA BKN005 BKN020 OVC110 07/05 A3020 RMK AO2 PRESRR P0001 T00670050=
201811140452 METAR KATL 140452Z 03011KT 6SM -RA BR SCT005 BKN020 OVC110 07/05 A3016 RMK AO2 PRESFR SLP216 SCT005 V BKN P0001 T00670050 401060067=
201811140352 METAR KATL 140352Z 32010KT 8SM -RA BKN006 OVC020 07/06 A3019 RMK AO2 SLP225 P0001 T00720056=
201811140252 METAR KATL 140252Z 33005KT 9SM -RA BKN007 OVC110 07/06 A3020 RMK AO2 RAE07B35 SLP228 P0000 60000 T00720056 53017=
201811140152 METAR KATL 140152Z 32012G19KT 9SM -RA BKN007 OVC020 08/06 A3019 RMK AO2 SLP225 P0000 T00780056=
201811140052 METAR KATL 140052Z 35009G17KT 9SM -RA BKN006 OVC110 08/06 A3014 RMK AO2 RAE15B33 SLP209 P0000 T00830061=
201811132352 METAR KATL 132352Z 33012KT 9SM -RA BKN008 BKN015 OVC110 08/07 A3015 RMK AO2 SLP211 PCPN VRY LGT P0000 60001 T00830067 10106 20083 50005=
201811132252 METAR KATL 132252Z 32011KT 8SM -RA BKN008 BKN020 OVC110 09/07 A3015 RMK AO2 SLP213 PCPN VRY LGT P0000 T00890072=
201811132234 SPECI KATL 132234Z 32008KT 3SM -RA BKN007 BKN020 OVC100 09/07 A3015 RMK AO2 SFC VIS 8 PCPN VRY LGT P0000 T00890072=
201811132152 METAR KATL 132152Z 31009KT 3SM -RA BKN006 BKN020 OVC100 09/08 A3017 RMK AO2 SFC VIS 8 RAE00B44 SLP218 P0000 T00940078=
201811132052 METAR KATL 132052Z 31010KT 3SM -RA BR BKN008 BKN020 OVC030 10/08 A3013 RMK AO2 SFC VIS 6 SLP206 P0001 60001 T01000078 53007=
201811131952 METAR KATL 131952Z 32010G18KT 3SM -RA BR BKN006 BKN010 OVC020 10/08 A3011 RMK AO2 SFC VIS 6 SLP198 P0000 T01000083=
201811131852 METAR KATL 131852Z 33010G19KT 3SM -RA BR BKN006 BKN012 OVC030 10/08 A3009 RMK AO2 SFC VIS 5 RAE1757B47 SLP191 P0000 T01000083=
201811131805 SPECI KATL 131805Z 34007G20KT 6SM BR BKN006 BKN010 OVC030 10/08 A3009 RMK AO2 RAE1757 P0000 T01000083=
201811131752 METAR KATL 131752Z 33010KT 6SM -RA BR BKN005 BKN020 OVC060 11/09 A3011 RMK AO2 SLP199 P0002 60007 T01060089 10106 20089 50002=
201811131718 SPECI KATL 131718Z 33008KT 6SM -RA BR SCT008 BKN060 OVC090 11/09 A3010 RMK AO2 P0001 T01060089=
201811131707 SPECI KATL 131707Z 32007KT 6SM -RA BR BKN008 BKN060 OVC085 11/09 A3011 RMK AO2 P0001 T01060089=
201811131652 METAR KATL 131652Z 32011KT 2SM -RA BR BKN006 BKN012 OVC020 11/09 A3012 RMK AO2 SFC VIS 6 SLP203 P0002 T01060089=
201811131552 METAR KATL 131552Z 31008KT 2SM -RA BR BKN005 BKN010 OVC020 10/09 A3012 RMK AO2 SFC VIS 6 SLP201 P0001 T01000089=
201811131452 METAR KATL 131452Z 30007KT 2SM -RA BR BKN005 BKN013 OVC020 10/08 A3010 RMK AO2 SFC VIS 5 RAE1358B47 SLP197 P0000 60002 T01000083 53022=
201811131435 SPECI KATL 131435Z 30007KT 2SM BR BKN005 BKN013 OVC030 09/08 A3010 RMK AO2 SFC VIS 5 RAE1358 P0000 T00940078=
201811131425 SPECI KATL 131425Z 30008KT 3SM BR BKN005 BKN013 OVC020 10/08 A3009 RMK AO2 SFC VIS 5 RAE1358 P0000 T01000078=
201811131352 METAR KATL 131352Z 00000KT 3SM -RA BR SCT005 SCT021 OVC120 10/08 A3007 RMK AO2 SFC VIS 6 RAB44 PRESRR SLP185 SCT005 V BKN P0000 T01000083=
201811131327 SPECI KATL 131327Z 07004KT 3SM BR SCT004 SCT024 BKN055 OVC130 09/08 A3004 RMK AO2 SFC VIS 6 T00940078=
201811131306 SPECI KATL 131306Z 10003KT 3SM BR SCT006 BKN022 OVC027 09/08 A3006 RMK AO2 SFC VIS 6 T00940078=
201811131252 METAR KATL 131252Z 03004KT 3SM BR BKN006 BKN022 OVC050 09/07 A3005 RMK AO2 SFC VIS 5 RAE40 SLP179 P0002 T00940072=
201811131250 SPECI KATL 131250Z 02004KT 3SM BR BKN006 BKN022 OVC050 09/07 A3005 RMK AO2 SFC VIS 5 RAE40 P0002=
201811131242 SPECI KATL 131242Z 33003KT 3SM BR SCT004 SCT012 OVC050 09/08 A3005 RMK AO2 SFC VIS 6 RAE40 P0002 T00890078=
201811131238 SPECI KATL 131238Z 00000KT 3SM -RA BR BKN004 BKN012 OVC050 09/07 A3004 RMK AO2 SFC VIS 6 BKN004 V SCT P0002 T00890072=
201811131159 SPECI KATL 131159Z 36004KT 1 1/4SM -RA BR BKN004 BKN019 OVC026 09/07 A3004 RMK AO2 SFC VIS 3 BKN004 V SCT P0001 T00890072=
201811131152 METAR KATL 131152Z 35005KT 1 1/4SM R09R/5000VP6000FT -RA BR SCT004 BKN009 OVC034 09/07 A3004 RMK AO2 SFC VIS 4 SLP174 P0003 60012 70225 T00890072 10089 20072 51012=
201811131102 SPECI KATL 131102Z 35006KT 1 1/4SM -RA SCT005 OVC009 08/07 A3003 RMK AO2 SFC VIS 7 P0000 T00830072=
201811131052 METAR KATL 131052Z 01003KT 1 1/4SM -RA BR FEW004 OVC010 08/07 A3003 RMK AO2 SFC VIS 6 DZE17RAB17 SLP171 P0004 T00830072=
201811131038 SPECI KATL 131038Z 02004KT 1 1/4SM -RA BR SCT004 OVC010 08/07 A3002 RMK AO2 SFC VIS 6 DZE17RAB17 P0004 T00830067=
201811130952 METAR KATL 130952Z 36005KT 1 1/4SM -DZ BR OVC003 08/07 A3002 RMK AO2 SFC VIS 4 SLP169 P0003 T00830067=
201811130852 METAR KATL 130852Z 13003KT 1 1/4SM -DZ BR OVC002 08/07 A3000 RMK AO2 SFC VIS 2 1/2 SLP163 P0001 60002 T00780067 58004=
201811130818 SPECI KATL 130818Z 08006KT 1 1/4SM -DZ BR OVC002 08/07 A3001 RMK AO2 P0000 T00780067=
201811130809 SPECI KATL 130809Z 07006KT 3/4SM R09R/5500VP6000FT -DZ BR OVC002 08/07 A3000 RMK AO2 TWR VIS 1 1/4 P0000 T00780067=
201811130752 METAR KATL 130752Z 08006KT 1SM R09R/P6000FT -DZ BR OVC002 08/07 A3001 RMK AO2 TWR VIS 1 1/4 SLP167 P0001 T00780067=
201811130652 METAR KATL 130652Z 09007KT 1 1/4SM -DZ BR OVC003 08/07 A3001 RMK AO2 SFC VIS 2 RAE26DZB26 SLP167 TWRINC P0000 T00780067=
201811130552 METAR KATL 130552Z 08007KT 1 1/4SM -RA BR OVC003 07/06 A3001 RMK AO2 SFC VIS 6 SLP168 P0002 60026 T00720061 10072 20067 56014=
201811130452 METAR KATL 130452Z 09007KT 1 1/4SM -RA OVC004 07/06 A3002 RMK AO2 SFC VIS 8 SLP170 P0002 T00720061 400940056=
201811130352 METAR KATL 130352Z 09012KT 1 1/4SM -RA BR BKN004 OVC010 07/06 A3004 RMK AO2 SFC VIS 5 SLP176 P0003 T00720056=
201811130332 SPECI KATL 130332Z 09009KT 1 1/4SM -RA BR BKN004 OVC010 07/06 A3005 RMK AO2 SFC VIS 6 P0002 T00720056=
201811130252 METAR KATL 130252Z 09009KT 3SM -RA OVC005 07/06 A3006 RMK AO2 SFC VIS 8 SLP183 CIG 004V006 P0005 60019 T00670056 52001=
201811130152 METAR KATL 130152Z 10010KT 3SM -RA BR BKN005 OVC015 07/06 A3006 RMK AO2 SFC VIS 6 SLP183 CIG 003V007 P0006 T00670056=
201811130052 METAR KATL 130052Z 10009KT 3SM -RA BKN005 BKN015 OVC060 07/06 A3005 RMK AO2 SFC VIS 7 SLP182 P0008 T00720056=
201811122352 METAR KATL 122352Z 10009G15KT 3SM -RA BKN005 BKN020 OVC070 07/06 A3005 RMK AO2 SFC VIS 8 RAE2253B51 SLP182 P0000 60076 T00720056 10072 20056 56017=
201811122321 SPECI KATL 122321Z 10010G17KT 3SM BKN005 BKN025 OVC070 07/06 A3005 RMK AO2 SFC VIS 8 RAE2253 P0000 T00720056=
201811122252 METAR KATL 122252Z 09015G18KT 7SM -RA FEW005 BKN025 OVC070 07/06 A3006 RMK AO2 SLP182 P0006 T00720056=
201811122152 METAR KATL 122152Z 04010KT 1 1/2SM R09R/5000VP6000FT RA BR SCT006 BKN026 OVC032 07/06 A3008 RMK AO2 SFC VIS 2 SLP191 P0031 T00720056=
201811122123 SPECI KATL 122123Z 03011KT 1 1/2SM RA BR FEW006 BKN040 OVC070 07/05 A3007 RMK AO2 SFC VIS 2 1/2 VIS 1 3/4V4 P0015 T00670050=
201811122101 SPECI KATL 122101Z 35010KT 1 1/2SM R09R/5000VP6000FT +RA BR FEW006 OVC022 06/04 A3012 RMK AO2 SFC VIS 1 3/4 P0006 T00610044=
201811122052 METAR KATL 122052Z 35010KT 1 1/2SM R09R/4500VP6000FT +RA BR SCT005 BKN013 OVC022 06/04 A3011 RMK AO2 WSHFT 2017 SFC VIS 1 3/4 SLP199 P0028 60039 T00610044 53004=
201811122037 SPECI KATL 122037Z 35014KT 1 1/2SM +RA BR BKN005 BKN013 OVC020 06/04 A3010 RMK AO2 WSHFT 2017 SFC VIS 2 1/2 P0018 T00610044=
201811121952 METAR KATL 121952Z 06012KT 1 1/2SM -RA BR BKN005 BKN010 OVC020 06/05 A3003 RMK AO2 SFC VIS 2 PRESFR SLP172 P0007 T00610050=
201811121852 METAR KATL 121852Z 08011KT 1 1/2SM RA BR BKN005 BKN012 OVC020 06/04 A3006 RMK AO2 SFC VIS 2 SLP183 P0004 T00610044=
201811121834 SPECI KATL 121834Z 08008KT 1 1/2SM -RA BR BKN005 BKN010 OVC020 06/04 A3007 RMK AO2 SFC VIS 3 P0002 T00560044=
201811121752 METAR KATL 121752Z 08014KT 4SM -RA BR BKN006 BKN012 OVC020 06/04 A3009 RMK AO2 SLP194 P0021 60111 T00610044 10067 20056 56031=
201811121748 SPECI KATL 121748Z 08011KT 4SM RA BR BKN006 BKN010 OVC020 06/04 A3010 RMK AO2 P0021=
201811121738 SPECI KATL 121738Z 09016G21KT 2SM -RA BR BKN006 BKN010 OVC020 06/04 A3010 RMK AO2 SFC VIS 5 P0020 T00560044=
201811121652 METAR KATL 121652Z 06015KT 2SM R09R/4000VP6000FT +RA BR SCT006 BKN010 OVC030 06/04 A3014 RMK AO2 SFC VIS 3 SLP211 P0049 T00560039=
201811121628 SPECI KATL 121628Z 05015KT 2SM R09R/6000VP6000FT +RA BR SCT007 BKN010 OVC030 06/04 A3017 RMK AO2 SFC VIS 3 P0026 T00560044=
201811121612 SPECI KATL 121612Z 05015KT 2SM +RA BR BKN007 OVC030 06/04 A3018 RMK AO2 SFC VIS 3 P0011 T00610039=
201811121552 METAR KATL 121552Z 07013KT 1SM R09R/6000VP6000FT +RA BR FEW005 BKN007 OVC012 06/04 A3019 RMK AO2 SFC VIS 2 SLP226 P0025 T00560044=
201811121452 METAR KATL 121452Z 06015KT 1SM R09R/P6000FT -RA BR BKN007 OVC010 06/04 A3019 RMK AO2 SFC VIS 2 SLP226 P0007 60016 T00610044 55014=
201811121443 SPECI KATL 121443Z 06014KT 1SM R09R/5500VP6000FT +RA BR OVC007 06/04 A3018 RMK AO2 SFC VIS 2 P0004 T00610044=
201811121352 METAR KATL 121352Z 08018KT 5SM -RA BR OVC007 06/04 A3018 RMK AO2 SLP221 CIG 006V009 P0005 T00610044=
201811121252 METAR KATL 121252Z 08015KT 5SM -RA BR BKN007 BKN014 OVC065 06/04 A3018 RMK AO2 SLP224 CIG 006V008 P0004 T00610039=
201811121152 METAR KATL 121152Z 07011KT 5SM RA BR BKN008 BKN015 OVC080 06/04 A3023 RMK AO2 SLP239 P0007 60021 70021 T00610044 10089 20061 58012=
201811121145 SPECI KATL 121145Z 08010KT 6SM -RA BR BKN008 BKN015 OVC080 06/04 A3023 RMK AO2 P0005 T00610039=
201811121137 SPECI KATL 121137Z 08009KT 5SM -RA BR FEW008 BKN015 OVC080 06/04 A3024 RMK AO2 P0004 T00610039=
201811121052 METAR KATL 121052Z 08011KT 7SM -RA FEW014 OVC090 06/04 A3022 RMK AO2 SLP238 P0005 T00610039=
201811121037 SPECI KATL 121037Z 07012KT 7SM -RA FEW014 OVC085 06/04 A3023 RMK AO2 P0003 T00610039=
201811120952 METAR KATL 120952Z 07010KT 9SM -RA OVC014 07/03 A3027 RMK AO2 SLP253 P0005 T00670033=
201811120935 SPECI KATL 120935Z 07010KT 6SM RA BKN014 BKN036 OVC090 07/03 A3026 RMK AO2 P0004 T00670033=
201811120852 METAR KATL 120852Z 07009KT 10SM -RA BKN018 BKN085 OVC100 07/03 A3026 RMK AO2 SLP250 P0004 60004 T00720033 51002=
201811120752 METAR KATL 120752Z 09011KT 10SM -RA BKN020 OVC085 08/02 A3025 RMK AO2 RAB0656E23B50 SLP246 P0000 T00830017=
201811120652 METAR KATL 120652Z 09006KT 10SM BKN021 OVC085 09/01 A3029 RMK AO2 SLP257 T00890006=
201811120616 SPECI KATL 120616Z 11009KT 10SM BKN022 BKN085 OVC130 09/00 A3027 RMK AO2 T00890000=
201811120552 METAR KATL 120552Z 10007KT 10SM FEW025 BKN085 OVC130 09/01 A3026 RMK AO2 SLP248 VIRGA SW-W T00890006 10111 20083 58010=
201811120523 SPECI KATL 120523Z 09009KT 10SM SCT023 BKN085 OVC140 08/01 A3027 RMK AO2 T00830006=
201811120452 METAR KATL 120452Z 09009KT 10SM OVC024 09/01 A3028 RMK AO2 SLP256 T00940006 401390028=
201811120352 METAR KATL 120352Z 09009KT 10SM OVC023 09/01 A3029 RMK AO2 SLP261 T00940011=
201811120323 SPECI KATL 120323Z 09008KT 10SM BKN022 OVC080 09/01 A3029 RMK AO2 T00940006=
201811120252 METAR KATL 120252Z 09010KT 10SM FEW028 OVC080 09/01 A3029 RMK AO2 SLP259 T00940006 53005=
201811120152 METAR KATL 120152Z 09010KT 10SM FEW027 OVC080 10/01 A3028 RMK AO2 SLP258 T01000011=
201811120150 SPECI KATL 120150Z 09009KT 10SM SCT026 OVC080 10/01 A3028 RMK AO2=
201811120052 METAR KATL 120052Z 09009KT 10SM BKN026 BKN070 OVC200 11/01 A3027 RMK AO2 SLP254 T01060011=
201811112352 METAR KATL 112352Z 10010KT 10SM BKN026 OVC070 11/01 A3027 RMK AO2 SLP255 T01110011 10139 20111 53006=
201811112329 SPECI KATL 112329Z 10007KT 10SM BKN025 OVC075 11/02 A3026 RMK AO2 T01110017=
201811112252 METAR KATL 112252Z 09008KT 10SM OVC075 12/02 A3026 RMK AO2 SLP250 ACC OHD-ALQDS T01170017=
201811112152 METAR KATL 112152Z 09008KT 10SM BKN080 BKN110 BKN200 12/03 A3025 RMK AO2 SLP247 ACC OHD-ALQDS T01170028=
201811112052 METAR KATL 112052Z 12008KT 10SM FEW031 BKN110 13/02 A3025 RMK AO2 SLP248 T01280017 58013=
201811111952 METAR KATL 111952Z 10007KT 10SM SCT030 13/01 A3026 RMK AO2 SLP251 T01330011=
201811111939 SPECI KATL 111939Z 10005KT 10SM BKN030 13/01 A3027 RMK AO2 T01280011=
201811111852 METAR KATL 111852Z 09007KT 10SM BKN028 12/00 A3028 RMK AO2 SLP258 T01170000=
201811111752 METAR KATL 111752Z 07009KT 10SM BKN027 11/M01 A3029 RMK AO2 SLP262 T01111006 10117 20028 58019=
201811111652 METAR KATL 111652Z 09009KT 10SM FEW025 FEW200 11/M02 A3032 RMK AO2 SLP272 T01061017=
201811111552 METAR KATL 111552Z 08010KT 10SM FEW200 SCT250 09/M02 A3035 RMK AO2 SLP281 T00891022=
201811111452 METAR KATL 111452Z 09012KT 10SM FEW200 SCT250 07/M03 A3035 RMK AO2 SLP284 T00671028 51013=
201811111352 METAR KATL 111352Z 08014KT 10SM FEW200 FEW250 04/M03 A3035 RMK AO2 SLP283 T00441033=
201811111252 METAR KATL 111252Z 08010KT 10SM FEW200 03/M03 A3033 RMK AO2 SLP279 T00281033=
201811111152 METAR KATL 111152Z 08010KT 10SM SCT200 03/M03 A3031 RMK AO2 SLP270 T00281028 10044 20028 53009=
201811111052 METAR KATL 111052Z 08009KT 10SM FEW028 SCT200 03/M02 A3030 RMK AO2 SLP266 T00281022=
201811110952 METAR KATL 110952Z 08010KT 10SM FEW028 SCT200 03/M02 A3028 RMK AO2 SLP260 T00331017=
201811110852 METAR KATL 110852Z 08008KT 10SM FEW028 FEW140 SCT200 03/M01 A3028 RMK AO2 SLP260 T00331011 52003=
201811110752 METAR KATL 110752Z 08010KT 10SM FEW028 FEW140 SCT200 03/M02 A3028 RMK AO2 SLP260 T00331017=
201811110652 METAR KATL 110652Z 07009KT 10SM FEW028 FEW140 SCT200 04/M02 A3027 RMK AO2 SLP256 T00441017=
201811110552 METAR KATL 110552Z 05006KT 10SM FEW036 SCT200 04/M02 A3027 RMK AO2 SLP257 T00391022 10056 20028 51012=
201811110452 METAR KATL 110452Z 02005KT 10SM FEW200 03/M03 A3026 RMK AO2 SLP252 T00331028 401000017=
201811110352 METAR KATL 110352Z 32005KT 10SM CLR 03/M02 A3025 RMK AO2 SLP251 T00281022=
201811110252 METAR KATL 110252Z 34006KT 10SM CLR 03/M02 A3024 RMK AO2 SLP246 T00331022 51004=
201811110152 METAR KATL 110152Z 34008KT 10SM CLR 04/M03 A3024 RMK AO2 SLP246 T00391028=
201811110052 METAR KATL 110052Z 33006KT 10SM FEW200 04/M03 A3023 RMK AO2 SLP245 T00441028=
201811102352 METAR KATL 102352Z 32006KT 10SM FEW200 06/M03 A3023 RMK AO2 SLP243 T00561028 10100 20056 51004=
201811102252 METAR KATL 102252Z 33011KT 10SM FEW200 07/M03 A3022 RMK AO2 SLP240 T00671028=
201811102152 METAR KATL 102152Z 33010KT 10SM CLR 08/M03 A3022 RMK AO2 SLP240 T00831033=
201811102052 METAR KATL 102052Z 34011KT 10SM CLR 09/M03 A3022 RMK AO2 SLP236 T00941028 56008=
201811101952 METAR KATL 101952Z 33011G18KT 10SM CLR 10/M03 A3022 RMK AO2 SLP237 T01001028=
201811101852 METAR KATL 101852Z 34011G18KT 10SM CLR 09/M02 A3023 RMK AO2 SLP240 T00941017=
201811101752 METAR KATL 101752Z 33016G19KT 10SM FEW250 08/M02 A3024 RMK AO2 SLP245 T00831017 10083 20017 58006=
201811101652 METAR KATL 101652Z 31012KT 10SM FEW250 07/M02 A3026 RMK AO2 SLP252 T00721022=
201811101552 METAR KATL 101552Z 32015KT 10SM FEW250 06/M03 A3027 RMK AO2 SLP254 T00561028=
201811101452 METAR KATL 101452Z 33011KT 10SM FEW250 04/M03 A3026 RMK AO2 SLP252 T00441033 51020=
201811101352 METAR KATL 101352Z 33013KT 10SM SCT250 03/M03 A3025 RMK AO2 SLP248 T00331033=
201811101252 METAR KATL 101252Z 33014KT 10SM SCT250 02/M03 A3022 RMK AO2 SLP238 T00221033=
201811101152 METAR KATL 101152Z 33011G20KT 10SM SCT250 02/M03 A3020 RMK AO2 PK WND 33028/1120 SLP230 70028 T00221033 10061 20022 53012=
201811101052 METAR KATL 101052Z 33012KT 10SM BKN250 03/M02 A3019 RMK AO2 SLP225 T00281022=
201811100952 METAR KATL 100952Z 33017G26KT 10SM FEW020 SCT250 04/M01 A3017 RMK AO2 PK WND 32026/0946 SLP219 T00391011=
201811100852 METAR KATL 100852Z 33015G24KT 10SM FEW020 SCT250 04/M01 A3016 RMK AO2 SLP216 T00441006 51007=
201811100752 METAR KATL 100752Z 33012G20KT 10SM FEW018 SCT250 05/01 A3016 RMK AO2 SLP213 T00500006=
201811100652 METAR KATL 100652Z 32015G22KT 10SM FEW018 SCT250 06/02 A3015 RMK AO2 SLP210 T00610017=
201811100552 METAR KATL 100552Z 32012KT 10SM FEW020 SCT150 BKN250 06/02 A3014 RMK AO2 SLP208 60000 T00610022 10128 20061 50005=
201811100452 METAR KATL 100452Z 33013G21KT 10SM SCT020 BKN250 07/02 A3015 RMK AO2 SLP210 SCT020 V BKN T00670022 401560067=
201811100406 SPECI KATL 100406Z 33016G24KT 10SM SCT018 BKN250 07/03 A3014 RMK AO2 T00720028=
201811100352 METAR KATL 100352Z 32014KT 10SM FEW009 BKN016 BKN250 08/04 A3014 RMK AO2 PK WND 33032/0312 SLP206 T00780039=
201811100252 METAR KATL 100252Z 32019G30KT 10SM SCT008 BKN014 OVC020 09/06 A3012 RMK AO2 PK WND 32030/0248 SLP201 60000 T00890056 51012=
201811100250 SPECI KATL 100250Z 32020G30KT 10SM SCT008 BKN014 OVC020 09/06 A3012 RMK AO2 PK WND 32030/0248=
201811100152 METAR KATL 100152Z 33015KT 9SM BKN006 OVC015 10/08 A3009 RMK AO2 SLP191 T01000078=
201811100052 METAR KATL 100052Z 32014KT 9SM SCT004 BKN010 OVC030 11/09 A3009 RMK AO2 RAE09 SLP188 P0000 T01110089=
201811100024 SPECI KATL 100024Z 31014G21KT 2SM OVC004 12/11 A3006 RMK AO2 SFC VIS 7 RAE09 CIG 003V005 P0000 T01170106=
201811092352 METAR KATL 092352Z 30015G19KT 8SM -RA BKN007 BKN015 OVC030 13/11 A3005 RMK AO2 RAB15 SLP176 P0000 60000 T01280106 10156 20128 53016=
201811092316 SPECI KATL 092316Z 31017G22KT 8SM -RA OVC006 14/12 A3005 RMK AO2 RAB15 P0000 T01390122=
201811092252 METAR KATL 092252Z 32009KT 3SM OVC005 15/13 A3003 RMK AO2 SFC VIS 8 DZB01E32RAB32E50 SLP165 CIG 004V007 P0000 T01500133=
201811092152 METAR KATL 092152Z 33006KT 3SM BR OVC004 16/14 A3003 RMK AO2 SFC VIS 6 SLP166 T01560139=
201811092052 METAR KATL 092052Z 31003KT 3SM BR OVC006 16/13 A3000 RMK AO2 SFC VIS 6 SLP158 60000 T01560133 55004=
201811091952 METAR KATL 091952Z 01004KT 3SM OVC008 16/13 A3000 RMK AO2 SFC VIS 10 SLP157 T01560128=
201811091852 METAR KATL 091852Z 05005KT 3SM BKN006 OVC012 15/13 A3000 RMK AO2 SFC VIS 10 DZE1756 SLP156 P0000 T01500128=
201811091752 METAR KATL 091752Z 05008KT 3SM -DZ BR BKN006 BKN012 OVC020 14/12 A3002 RMK AO2 SFC VIS 4 RAE01B18E45DZB48 SLP163 P0001 60028 T01390117 10139 20133 58010=
201811091654 SPECI KATL 091654Z 01009KT 3SM -RA BR FEW003 BKN009 OVC015 14/12 A3004 RMK AO2 SFC VIS 6 P0000 T01390122=
201811091652 METAR KATL 091652Z 36010KT 3SM -RA BR FEW003 BKN007 OVC015 14/12 A3004 RMK AO2 SFC VIS 3 RAE1558B15 SLP171 P0025 T01390122=
201811091636 SPECI KATL 091636Z 35010G17KT 3SM -RA BR BKN005 BKN013 OVC020 14/13 A3005 RMK AO2 SFC VIS 5 RAE1558B15 P0022 T01390128=
201811091625 SPECI KATL 091625Z 33014G19KT 1/2SM +RA BR OVC003 14/13 A3006 RMK AO2 SFC VIS 1 RAE1558B15 PRESRR P0015 T01390128 RVRNO=
201811091552 METAR KATL 091552Z 09006KT 1/2SM R09R/P6000FT -RA BR OVC003 14/13 A3003 RMK AO2 SFC VIS 3 DZE48RAB48 SLP169 P0001 T01390128=
201811091452 METAR KATL 091452Z 10008KT 1/2SM R09R/P6000FT -DZ BR OVC003 14/13 A3005 RMK AO2 SFC VIS 2 SLP174 TWRINC P0000 60001 T01390128 50002=
201811091352 METAR KATL 091352Z 09008KT 1/2SM R09R/P6000FT -DZ BR OVC002 14/13 A3005 RMK AO2 SFC VIS 2 DZE03B20RAB03E20 SLP175 CIG 001V003 TWRINC P0000 T01390128=
201811091252 METAR KATL 091252Z 10005KT 1/2SM R09R/P6000FT -DZ BR OVC003 13/12 A3005 RMK AO2 SFC VIS 4 RAE45DZB45 SLP174 CIG 002V004 TWRINC P0001 T01330122=
201811091246 SPECI KATL 091246Z 09008KT 1/2SM R09R/P6000FT -DZ BR OVC003 13/12 A3004 RMK AO2 SFC VIS 6 RAE45DZB45 CIG 002V004 TWRINC P0001=
201811091152 METAR KATL 091152Z 09007KT 1 1/2SM -RA BR OVC004 13/12 A3004 RMK AO2 SFC VIS 6 SLP171 CIG 003V006 P0001 60023 70064 T01330122 10133 20128 55005=
201811091052 METAR KATL 091052Z 09008KT 1 1/2SM RA BR OVC004 13/12 A3004 RMK AO2 SFC VIS 3 SLP170 CIG 003V005 P0003 T01330122=
201811090952 METAR KATL 090952Z 09010KT 1 1/2SM -RA BR OVC004 13/12 A3005 RMK AO2 SFC VIS 5 DZE32RAB32 SLP173 CIG 003V006 P0002 T01330117=
201811090852 METAR KATL 090852Z 08011KT 1 1/2SM -DZ BR OVC004 13/12 A3006 RMK AO2 SFC VIS 6 RAE01DZB01 SLP175 CIG 003V006 P0000 60017 T01330122 58008=
201811090752 METAR KATL 090752Z 08008KT 1 1/2SM -RA BR OVC004 13/12 A3008 RMK AO2 SFC VIS 3 SLP182 CIG 003V006 P0001 T01330122=
201811090731 SPECI KATL 090731Z 07008KT 1 1/2SM -RA BR OVC004 13/12 A3008 RMK AO2 SFC VIS 3 CIG 003V007 P0001 T01330122=
201811090652 METAR KATL 090652Z 09009KT 1 1/2SM -RA BR BKN005 OVC014 13/12 A3008 RMK AO2 SFC VIS 4 SLP183 CIG 003V007 P0016 T01330122=
201811090552 METAR KATL 090552Z 05010KT 1 1/2SM R09R/4500VP6000FT +RA BR OVC005 13/12 A3008 RMK AO2 SLP184 CIG 003V007 P0026 60028 T01330122 10139 20133 58011=
201811090452 METAR KATL 090452Z 07012KT 1 1/2SM -RA BR OVC005 14/12 A3009 RMK AO2 SFC VIS 2 SLP188 CIG 003V006 P0000 T01390122 401720133=
201811090352 METAR KATL 090352Z 08010KT 1SM R09R/P6000FT -RA BR OVC005 14/13 A3012 RMK AO2 SFC VIS 2 DZE09RAB09 SLP196 CIG 003V006 P0002 T01390128=
201811090310 SPECI KATL 090310Z 09009KT 1SM R09R/P6000FT -RA BR OVC005 14/12 A3011 RMK AO2 SFC VIS 1 1/2 DZE09RAB09 CIG 003V006 P0000 T01390122=
201811090252 METAR KATL 090252Z 08009KT 040V100 2SM -DZ BR OVC005 14/12 A3011 RMK AO2 SLP195 CIG 004V007 P0000 60000 T01390122 53006=
201811090206 SPECI KATL 090206Z 10008KT 3SM -DZ BR OVC006 14/12 A3011 RMK AO2 SFC VIS 5 CIG 004V007 P0000 T01390117=
201811090152 METAR KATL 090152Z 09008KT 6SM -DZ BR OVC006 14/12 A3011 RMK AO2 DZB51 SLP193 P0000 T01390117=
201811090109 SPECI KATL 090109Z 09009KT 10SM OVC008 14/11 A3010 RMK AO2 T01390111=
201811090052 METAR KATL 090052Z 09010KT 10SM OVC010 14/11 A3010 RMK AO2 SLP191 CIG 008V012 T01390111=
201811082352 METAR KATL 082352Z 07011KT 9SM FEW005 BKN010 OVC020 14/11 A3010 RMK AO2 DZE19 SLP190 P0000 60003 T01390106 10172 20139 53009=
201811082252 METAR KATL 082252Z 06011KT 6SM -DZ SCT006 BKN010 OVC020 15/12 A3009 RMK AO2 RAE2154DZB33 SLP186 CIG 005V009 P0000 T01500122=
201811082234 SPECI KATL 082234Z 06013KT 5SM -DZ BR BKN007 OVC020 15/13 A3008 RMK AO2 RAE2154DZB33 CIG 005V009 P0000 T01500128=
201811082206 SPECI KATL 082206Z 08011KT 6SM BR FEW004 BKN010 OVC025 16/13 A3007 RMK AO2 RAE2154 P0000 T01560133=
201811082152 METAR KATL 082152Z 06012KT 5SM -RA BR BKN010 BKN015 OVC020 16/13 A3008 RMK AO2 RAB10E28B41 SLP182 P0000 T01560133=
201811082140 SPECI KATL 082140Z 06008KT 6SM BR BKN008 BKN012 OVC020 16/14 A3008 RMK AO2 RAB10E28 P0000 T01610139=
201811082052 METAR KATL 082052Z 08009KT 9SM BKN010 BKN015 OVC020 16/14 A3007 RMK AO2 RAB11E37 SLP180 P0001 60003 T01610139 55006=
201811081959 SPECI KATL 081959Z 11008KT 10SM BKN012 BKN015 OVC030 17/14 A3007 RMK AO2 T01670139=
201811081952 METAR KATL 081952Z 09007KT 10SM FEW012 BKN015 OVC028 17/13 A3007 RMK AO2 SLP178 T01670133=
201811081852 METAR KATL 081852Z 07011KT 10SM FEW010 BKN015 OVC020 17/14 A3008 RMK AO2 RAE46 SLP181 P0002 T01670139=
201811081752 METAR KATL 081752Z 09009KT 9SM -RA FEW012 BKN016 OVC030 16/14 A3009 RMK AO2 RAB07 SLP187 P0010 60010 T01610139 10172 20156 58012=
201811081744 SPECI KATL 081744Z 09009KT 1 1/2SM R09R/5000VP6000FT -RA FEW013 BKN016 OVC030 16/13 A3009 RMK AO2 SFC VIS 4 RAB07 P0007 T01610133=
201811081652 METAR KATL 081652Z 11007KT 10SM FEW015 BKN020 OVC030 17/12 A3011 RMK AO2 SLP194 T01720122=
201811081552 METAR KATL 081552Z 11005KT 10SM FEW010 BKN020 OVC030 17/12 A3013 RMK AO2 SLP199 T01670122=
201811081452 METAR KATL 081452Z 07008KT 10SM OVC018 16/12 A3012 RMK AO2 SLP198 T01610122 53015=
201811081352 METAR KATL 081352Z 07006KT 10SM FEW011 OVC017 16/12 A3011 RMK AO2 SLP193 BINOVC T01610122=
201811081252 METAR KATL 081252Z 05009KT 10SM SCT009 OVC018 16/12 A3008 RMK AO2 SLP184 BINOVC T01560122=
201811081227 SPECI KATL 081227Z 04008KT 10SM SCT010 OVC018 16/13 A3008 RMK AO2 BINOVC T01560128=
201811081218 SPECI KATL 081218Z 04007KT 10SM BKN008 OVC018 16/13 A3008 RMK AO2 BINOVC T01560128=
201811081152 METAR KATL 081152Z 04004KT 2SM OVC007 16/13 A3008 RMK AO2 SFC VIS 8 SLP183 CIG 006V008 70069 T01560133 10156 20144 53010=
201811081052 METAR KATL 081052Z 03003KT 2SM BR OVC005 15/13 A3007 RMK AO2 SFC VIS 6 SLP178 CIG 004V007 T01500133=
201811080952 METAR KATL 080952Z 36004KT 2SM BR OVC004 15/13 A3006 RMK AO2 SFC VIS 4 SLP176 CIG 003V005 T01500133=
201811080933 SPECI KATL 080933Z 01004KT 2SM BR OVC004 15/13 A3005 RMK AO2 SFC VIS 5 CIG 003V005 T01500133=
201811080852 METAR KATL 080852Z 01006KT 7SM OVC006 15/13 A3005 RMK AO2 SLP173 CIG 005V007 T01500133 56006=
201811080752 METAR KATL 080752Z 06004KT 8SM OVC008 15/13 A3005 RMK AO2 SLP172 CIG 006V010 T01500128=
201811080652 METAR KATL 080652Z 02003KT 9SM OVC009 15/13 A3006 RMK AO2 SLP174 CIG 008V010 T01500133=
201811080636 SPECI KATL 080636Z 01004KT 10SM OVC009 15/13 A3006 RMK AO2 T01500133=
201811080552 METAR KATL 080552Z 33005KT 9SM BKN012 OVC040 15/13 A3007 RMK AO2 SLP177 T01500133 10167 20150 55005=
201811080452 METAR KATL 080452Z 03006KT 10SM BKN012 BKN040 OVC200 16/13 A3006 RMK AO2 SLP174 T01560128 402330111=
201811080352 METAR KATL 080352Z 07006KT 10SM BKN015 OVC040 16/13 A3008 RMK AO2 SLP182 T01560128=
201811080337 SPECI KATL 080337Z 07006KT 10SM BKN015 OVC040 16/13 A3008 RMK AO2 T01560128=
201811080252 METAR KATL 080252Z 02004KT 8SM FEW004 SCT016 BKN040 OVC200 16/13 A3009 RMK AO2 SLP185 T01560133 51024=
201811080227 SPECI KATL 080227Z 35005KT 7SM FEW004 BKN016 BKN040 BKN200 15/13 A3008 RMK AO2 T01500133=
201811080152 METAR KATL 080152Z 34008KT 7SM SCT005 BKN200 BKN250 15/13 A3008 RMK AO2 SLP182 T01500133=
201811080052 METAR KATL 080052Z 33007KT 6SM BR FEW003 SCT200 BKN250 16/14 A3004 RMK AO2 SLP169 T01560139=
201811072352 METAR KATL 072352Z 03007KT 8SM SCT008 BKN200 17/14 A3001 RMK AO2 SLP161 SCT008 V BKN 60069 T01670139 10233 20161 55005=
201811072255 SPECI KATL 072255Z 07013KT 3SM BKN005 BKN080 BKN250 17/15 A2998 RMK AO2 SFC VIS 9 T01670150=
201811072252 METAR KATL 072252Z 07013KT 9SM SCT006 BKN080 BKN150 BKN250 17/15 A2998 RMK AO2 RAE50 SLP150 P0018 T01670150=
201811072213 SPECI KATL 072213Z 04005KT 5SM -RA BR FEW010 BKN075 OVC150 16/14 A3005 RMK AO2 P0008 T01610139=
201811072152 METAR KATL 072152Z 34003KT 2SM -RA BR BKN040 BKN070 OVC100 16/14 A3005 RMK AO2 SFC VIS 5 LTG DSNT SE AND S TSB05E44E46 SLP174 CB DSNT SE-SW P0037 T01610139=
201811072145 SPECI KATL 072145Z 34008KT 2SM -RA BR BKN040 BKN070 OVC100 17/14 A3005 RMK AO2 SFC VIS 5 LTG DSNT SE-SW TSB05E44 CB DSNT SE-SW P0035 T01670139=
201811072130 SPECI KATL 072130Z 34012KT 2SM -TSRA BR FEW010CB SCT030 OVC050 17/14 A3004 RMK AO2 SFC VIS 3 LTG DSNT SE-SW TSB05 OCNL LTGICCG SE-S-SW TS SE-S-SW MOV NE P0031 T01670144=
201811072106 SPECI KATL 072106Z 32013KT 2SM -TSRA BR FEW010CB BKN050 OVC070 18/16 A3005 RMK AO2 SFC VIS 2 1/2 LTG DSNT SW TSB05 FRQ LTGICCG SW-W TS SW-W MOV NE P0013 T01780156=
201811072052 METAR KATL 072052Z 34009KT 2SM VCTS -RA BR FEW015CB BKN055 OVC075 18/16 A3003 RMK AO2 SFC VIS 3 LTG DSNT SW SLP166 OCNL LTGICCG SW-W TS VC SW-W MOV NE P0014 60014 T01780156 51003=
201811072036 SPECI KATL 072036Z 34010KT 4SM -RA FEW015 BKN030 OVC050 19/16 A3003 RMK AO2 LTG DSNT W CB DSNT E-SE SW-NW P0006 T01890156=
201811072024 SPECI KATL 072024Z 33009KT 10SM -RA FEW025 BKN050 OVC090 19/16 A3002 RMK AO2 LTG DSNT SW AND W VIS LWR NE-SE SHRA CB DSNT E-SE SW-W P0003 T01940156=
201811072004 SPECI KATL 072004Z 34007KT 3SM -RA SCT025 BKN040 OVC080 21/16 A3002 RMK AO2 SFC VIS 4 LTG DSNT W CB DSNT W P0001 T02060156=
201811071958 SPECI KATL 071958Z 36007KT 5SM RA FEW025 BKN035 OVC055 22/15 A3001 RMK AO2 P0000 T02170150=
201811071952 METAR KATL 071952Z 33006KT 10SM -RA BKN025 BKN050 OVC100 22/14 A3003 RMK AO2 RAB51 SLP164 P0000 T02170144=
201811071948 SPECI KATL 071948Z 32009KT 10SM BKN025 BKN050 OVC100 22/14 A3003 RMK AO2 SHRA VC SW-NW=
201811071852 METAR KATL 071852Z 00000KT 10SM FEW030 SCT100 BKN140 BKN250 23/14 A3002 RMK AO2 SLP162 T02280144=
201811071752 METAR KATL 071752Z 13005KT 10SM FEW040 SCT070 SCT250 22/12 A3004 RMK AO2 SLP169 T02220117 10233 20111 58020=
201811071652 METAR KATL 071652Z 14005KT 10SM FEW025 SCT065 BKN250 21/11 A3007 RMK AO2 SLP178 T02110106=
201811071601 SPECI KATL 071601Z 07003KT 10SM SCT025 BKN060 BKN250 20/10 A3010 RMK AO2 T02000100=
201811071552 METAR KATL 071552Z 00000KT 10SM BKN025 BKN065 BKN250 19/09 A3010 RMK AO2 SLP191 T01940094=
201811071452 METAR KATL 071452Z 08004KT 10SM FEW020 BKN070 BKN250 18/09 A3011 RMK AO2 SLP193 T01780089 51014=
201811071352 METAR KATL 071352Z 04005KT 10SM FEW032 SCT060 SCT250 16/09 A3011 RMK AO2 SLP192 T01610089=
201811071252 METAR KATL 071252Z 05003KT 10SM FEW075 FEW110 FEW250 13/11 A3008 RMK AO2 SLP184 ACC DSNT SE-SW T01280106=
201811071152 METAR KATL 071152Z 00000KT 10SM FEW110 FEW250 12/09 A3007 RMK AO2 SLP179 70027 T01170094 10128 20111 53000=
201811071052 METAR KATL 071052Z 00000KT 10SM FEW250 11/09 A3007 RMK AO2 SLP180 T01110089=
201811070952 METAR KATL 070952Z 00000KT 10SM FEW250 11/09 A3006 RMK AO2 SLP177 T01110089=
201811070852 METAR KATL 070852Z 32004KT 10SM CLR 11/10 A3007 RMK AO2 SLP178 T01110100 50000=
201811070752 METAR KATL 070752Z 31005KT 10SM CLR 12/11 A3007 RMK AO2 SLP179 T01220106=
201811070652 METAR KATL 070652Z 29003KT 10SM FEW110 12/11 A3007 RMK AO2 SLP178 T01220106=
201811070552 METAR KATL 070552Z 29003KT 10SM SCT120 13/11 A3007 RMK AO2 SLP178 T01280111 10183 20128 50004=
201811070452 METAR KATL 070452Z 30003KT 10SM FEW120 13/11 A3007 RMK AO2 SLP179 T01330111 402220133=
201811070352 METAR KATL 070352Z 00000KT 10SM FEW120 14/12 A3007 RMK AO2 SLP178 T01390117=
201811070252 METAR KATL 070252Z 22003KT 10SM FEW120 15/12 A3005 RMK AO2 SLP174 T01500117 53007=
201811070152 METAR KATL 070152Z 34006KT 10SM FEW120 17/12 A3003 RMK AO2 SLP166 T01720117=
201811070052 METAR KATL 070052Z 34005KT 10SM SCT120 17/12 A3004 RMK AO2 SLP168 T01720117=
201811062352 METAR KATL 062352Z 33006KT 10SM BKN110 18/12 A3003 RMK AO2 SLP163 T01780122 10217 20178 53008=
201811062252 METAR KATL 062252Z 30004KT 10SM BKN110 BKN250 19/13 A3002 RMK AO2 SLP159 T01890133=
201811062152 METAR KATL 062152Z 31005KT 10SM BKN100 BKN120 BKN250 21/13 A3001 RMK AO2 SLP155 T02060128=
201811062052 METAR KATL 062052Z 32008KT 10SM FEW070 BKN100 BKN250 21/12 A3001 RMK AO2 SLP155 T02060122 53003=
201811061952 METAR KATL 061952Z 30008KT 10SM FEW025 BKN080 BKN250 21/14 A2999 RMK AO2 SLP150 T02060139=
201811061852 METAR KATL 061852Z 28006KT 10SM FEW020 BKN070 BKN090 21/14 A2999 RMK AO2 SLP148 T02060144=
201811061752 METAR KATL 061752Z 00000KT 10SM FEW020 SCT040 BKN060 BKN250 20/14 A3000 RMK AO2 SLP151 VIRGA DSNT N 60027 T02000139 10222 20167 58010=
201811061652 METAR KATL 061652Z 13003KT 10SM FEW030 BKN050 BKN070 19/14 A3000 RMK AO2 RAB16E48 SLP153 VIRGA DSNT NE SW P0000 T01940139=
201811061552 METAR KATL 061552Z 29007KT 10SM FEW010 BKN050 OVC060 18/16 A3004 RMK AO2 RAB19E30 SLP167 BINOVC DSNT SE P0000 T01830156=
201811061452 METAR KATL 061452Z 29003KT 10SM FEW010 SCT030 BKN050 17/16 A3003 RMK AO2 WSHFT 1341 RAE35 SLP164 FROPA P0016 60027 T01720156 53030=
201811061431 SPECI KATL 061431Z 33007KT 10SM -RA FEW015 SCT030 OVC050 17/15 A3001 RMK AO2 WSHFT 1341 FROPA P0016 T01720150=
201811061417 SPECI KATL 061417Z 31010G21KT 3SM +RA BR FEW015 BKN034 OVC042 17/15 A3002 RMK AO2 WSHFT 1341 TWR VIS 4 FROPA P0014 T01720150=
201811061412 SPECI KATL 061412Z 31013G21KT 2SM +RA BR FEW015 BKN028 OVC036 17/15 A3002 RMK AO2 WSHFT 1341 TWR VIS 4 FROPA P0009 T01720150=
201811061408 SPECI KATL 061408Z 30016G21KT 4SM -RA FEW012 SCT018 OVC030 18/15 A3001 RMK AO2 WSHFT 1341 FROPA P0006 T01780150=
201811061406 SPECI KATL 061406Z 30011KT 6SM -RA FEW012 SCT018 OVC030 18/15 A3001 RMK AO2 WSHFT 1341 FROPA P0006 T01780150=
201811061359 SPECI KATL 061359Z 29014G23KT 1SM R09R/P6000FT -RA SCT012 BKN025 OVC035 18/15 A3000 RMK AO2 WSHFT 1341 SFC VIS 3 FROPA P0005 T01780150=
201811061352 METAR KATL 061352Z 32016G25KT 1SM R09R/P6000FT +RA SCT012 BKN018 OVC025 18/16 A3000 RMK AO2 SFC VIS 2 RAE06B36 PRESRR SLP156 P0011 T01830156=
201811061348 SPECI KATL 061348Z 32015G25KT 1SM R09R/P6000FT +RA SCT009 BKN015 OVC100 19/16 A3000 RMK AO2 SFC VIS 2 1/2 RAE06B36 PRESRR P0004=
201811061342 SPECI KATL 061342Z 31015G25KT 5SM -RA BR BKN011 BKN032 OVC100 22/20 A2999 RMK AO2 RAE06B36 PRESRR P0002 T02170200=
201811061252 METAR KATL 061252Z 21011G17KT 9SM -RA SCT011 BKN015 OVC035 22/19 A2993 RMK AO2 RAB1156E05B51 SLP130 P0000 T02170194=
201811061152 METAR KATL 061152Z 24010G20KT 10SM SCT013 BKN018 OVC032 22/19 A2993 RMK AO2 SLP130 60007 70009 T02170194 10217 20183 53005=
201811061052 METAR KATL 061052Z 20011KT 8SM SCT008 OVC011 21/19 A2990 RMK AO2 RAE29 SLP120 P0000 T02110194=
201811061031 SPECI KATL 061031Z 19008KT 8SM SCT008 OVC013 21/19 A2991 RMK AO2 RAE29 P0000 T02110194=
201811060952 METAR KATL 060952Z 22011KT 7SM -RA OVC009 21/19 A2992 RMK AO2 RAE19B52 SLP126 CIG 007V012 P0001 T02110194=
201811060911 SPECI KATL 060911Z 20011KT 5SM -RA BR BKN007 OVC015 21/19 A2991 RMK AO2 CIG 006V010 P0000 T02060194=
201811060852 METAR KATL 060852Z 20009G18KT 10SM -RA OVC007 21/19 A2992 RMK AO2 RAB52 SLP125 CIG 005V010 P0001 60006 T02060189 56009=
201811060835 SPECI KATL 060835Z 20010KT 10SM OVC007 21/19 A2992 RMK AO2 CIG 005V010 P0001 T02060189=
201811060752 METAR KATL 060752Z 19010G19KT 1SM R09R/P6000FT BR OVC005 20/19 A2992 RMK AO2 SFC VIS 6 RAE0655B29E32 SLP126 CIG 004V008 P0000 T02000189=
201811060652 METAR KATL 060652Z 18011KT 1SM R09R/P6000FT -RA BR OVC004 19/18 A2994 RMK AO2 SFC VIS 4 RAB22 SLP135 CIG 003V006 TWRINC P0005 T01940183=
201811060552 METAR KATL 060552Z 16007KT 1SM R09R/P6000FT BR OVC003 18/18 A2995 RMK AO2 SFC VIS 6 RAB0459E48 SLP137 P0001 60002 T01830178 10194 20172 58025=
201811060452 METAR KATL 060452Z 16007KT 1SM R09R/P6000FT BR OVC003 18/17 A2998 RMK AO2 SFC VIS 6 RAB00E36 SLP148 CIG 002V005 P0000 T01780172 401830133=
201811060352 METAR KATL 060352Z 15008KT 1SM R09R/3000V4000FT BR OVC002 17/17 A3000 RMK AO2 SFC VIS 1 1/2 RAB12E35 SLP157 P0001 T01720167=
201811060252 METAR KATL 060252Z 15009KT 1SM R09R/2400V3000FT BR OVC002 17/16 A3003 RMK AO2 SLP164 60000 T01720161 58007=
201811060152 METAR KATL 060152Z 13005KT 1SM R09R/P6000FT BR OVC003 17/16 A3003 RMK AO2 SFC VIS 3 DZE28 SLP168 CIG 002V004 P0000 T01720161=
201811060128 SPECI KATL 060128Z 12005KT 1SM R09R/P6000FT BR OVC003 17/16 A3003 RMK AO2 SFC VIS 3 DZE28 P0000 T01720161=
201811060052 METAR KATL 060052Z 12007KT 1/4SM R09R/P6000FT -DZ BR OVC003 17/16 A3005 RMK AO2 SFC VIS 2 SLP172 TWRINC P0000 T01720161=
201811052359 SPECI KATL 052359Z 11008KT 1/4SM R09R/P6000FT -DZ BR OVC003 17/16 A3004 RMK AO2 SFC VIS 2 TWRINC P0000 T01720156=
201811052352 METAR KATL 052352Z 11006KT 1SM R09R/P6000FT -DZ BR OVC003 17/16 A3005 RMK AO2 SFC VIS 2 SLP172 P0000 60000 T01720161 10183 20167 53008=
201811052311 SPECI KATL 052311Z 12006KT 1SM R09R/P6000FT -DZ BR OVC004 17/16 A3004 RMK AO2 SFC VIS 2 CIG 002V005 P0000 T01720156=
201811052255 SPECI KATL 052255Z 13006KT 2 1/2SM -DZ BR OVC005 17/16 A3003 RMK AO2 SFC VIS 4 CIG 003V007 P0000 T01720156=
201811052252 METAR KATL 052252Z 12007KT 4SM -DZ BR OVC005 17/16 A3003 RMK AO2 DZB17 SLP168 CIG 003V006 P0000 T01720156=
201811052217 SPECI KATL 052217Z 13007KT 4SM -DZ BR OVC005 17/16 A3003 RMK AO2 DZB17 CIG 004V007 P0000 T01720156=
201811052152 METAR KATL 052152Z 13006KT 6SM BR OVC006 17/16 A3002 RMK AO2 SLP163 T01720156=
201811052052 METAR KATL 052052Z 12008KT 9SM OVC007 18/15 A3002 RMK AO2 SLP163 T01780150 56018=
201811051952 METAR KATL 051952Z 10007KT 8SM OVC009 18/15 A3003 RMK AO2 SLP167 T01780150=
201811051852 METAR KATL 051852Z 11005KT 6SM HZ OVC008 18/15 A3005 RMK AO2 SLP172 T01780150=
201811051752 METAR KATL 051752Z 13005KT 5SM HZ OVC006 17/14 A3007 RMK AO2 SLP181 T01720144 10172 20133 58017=
201811051652 METAR KATL 051652Z 08004KT 2 1/2SM BR OVC005 16/14 A3011 RMK AO2 SFC VIS 4 SLP193 T01560139=
201811051552 METAR KATL 051552Z 09004KT 1SM R09R/P6000FT BR BCFG OVC004 15/13 A3013 RMK AO2 SFC VIS 2 SLP200 T01500133=
201811051452 METAR KATL 051452Z 10004KT 1SM R09R/P6000FT BR BCFG OVC004 14/13 A3012 RMK AO2 SFC VIS 3 SLP198 T01440128 53005=
201811051400 SPECI KATL 051400Z 11004KT 1SM R09R/P6000FT BR OVC004 14/13 A3012 RMK AO2 SFC VIS 4 VIS LWR NW-NE CIG 003V005 TWRINC T01390128=
201811051352 METAR KATL 051352Z 09005KT 2 1/2SM BR BKN004 OVC013 14/12 A3012 RMK AO2 SFC VIS 4 SLP196 CIG 003V005 TWRINC T01390122=
201811051303 SPECI KATL 051303Z 10004KT 2 1/2SM BR BKN004 OVC013 13/12 A3011 RMK AO2 SFC VIS 6 CIG 003V005 TWRINC T01330122 $=
201811051252 METAR KATL 051252Z VRB04KT 1 1/2SM BR OVC004 13/12 A3011 RMK AO2 SFC VIS 5 SLP193 CIG 003V005 TWRINC T01330122=
201811051152 METAR KATL 051152Z 08007KT 1 1/2SM BR OVC004 13/12 A3011 RMK AO2 SFC VIS 6 SLP192 CIG 003V005 60010 70011 T01330122 10144 20133 53005=
201811051052 METAR KATL 051052Z 04007KT 1 1/2SM BR BKN004 OVC012 13/12 A3010 RMK AO2 SFC VIS 3 RAB21E33 SLP192 CIG 003V006 TWRINC P0000 T01330122=
201811051032 SPECI KATL 051032Z 04007KT 5SM -RA BR BKN005 OVC011 13/12 A3010 RMK AO2 RAB21 CIG 004V008 P0000 T01330122=
201811050952 METAR KATL 050952Z 06007KT 6SM BR BKN004 OVC008 14/12 A3009 RMK AO2 RAE16 SLP188 P0000 T01390122=
201811050852 METAR KATL 050852Z 36007KT 3SM -RA BR BKN004 BKN008 OVC013 14/12 A3009 RMK AO2 SLP187 CIG 003V007 P0004 60010 T01390122 57011=
201811050833 SPECI KATL 050833Z 33005KT 3SM -RA BR BKN004 OVC011 14/13 A3010 RMK AO2 CIG 003V007 P0003 T01390128=
201811050759 SPECI KATL 050759Z 33004KT 2 1/2SM -RA BR BKN005 OVC009 14/13 A3010 RMK AO2 CIG 004V007 P0001 T01390128=
201811050752 METAR KATL 050752Z 33005KT 3SM -RA BR BKN004 OVC007 14/13 A3010 RMK AO2 RAB00 SLP189 VIS SW-NW 2 1/2 P0002 T01390128=
201811050724 SPECI KATL 050724Z 36006KT 3SM -RA BR BKN004 OVC008 14/13 A3010 RMK AO2 RAB00 P0002 T01390128=
201811050716 SPECI KATL 050716Z 01006KT 2 1/2SM -RA BR BKN005 OVC009 14/13 A3011 RMK AO2 RAB00 CIG 004V007 P0001 T01440128=
201811050652 METAR KATL 050652Z 03004KT 6SM BR FEW004 OVC007 14/13 A3012 RMK AO2 RAE52 SLP195 CIG 005V008 SHRA W-N P0004 T01440128=
201811050552 METAR KATL 050552Z 12007KT 4SM -RA BR OVC009 14/12 A3012 RMK AO2 RAB29 SLP198 CIG 007V011 P0001 60001 T01440122 10167 20144 58010=
201811050452 METAR KATL 050452Z 11007KT 10SM OVC014 16/11 A3014 RMK AO2 SLP203 CIG 012V016 T01560111 401890061=
201811050352 METAR KATL 050352Z 11008KT 10SM OVC022 16/11 A3014 RMK AO2 SLP205 T01560106=
201811050252 METAR KATL 050252Z 11007KT 10SM OVC023 16/11 A3015 RMK AO2 SLP209 T01560106 58002=
201811050152 METAR KATL 050152Z 10008KT 10SM BKN023 BKN032 OVC060 16/11 A3016 RMK AO2 SLP211 T01560106=
201811050142 SPECI KATL 050142Z 10009KT 10SM BKN024 BKN036 OVC095 16/11 A3015 RMK AO2 T01560106=
201811050052 METAR KATL 050052Z 09009KT 040V120 10SM SCT026 BKN038 BKN060 OVC200 16/11 A3016 RMK AO2 SLP212 T01610106=
201811050036 SPECI KATL 050036Z 11005KT 10SM BKN027 OVC040 16/11 A3016 RMK AO2 T01610106=
201811042352 METAR KATL 042352Z 11010KT 10SM BKN030 BKN044 OVC065 17/11 A3016 RMK AO2 SLP214 T01670106 10189 20161 55001=
201811042252 METAR KATL 042252Z 11008KT 10SM BKN030 OVC060 17/11 A3016 RMK AO2 SLP213 T01670106=
201811042152 METAR KATL 042152Z 10007KT 10SM BKN038 OVC050 17/11 A3015 RMK AO2 SLP209 T01720106=
201811042052 METAR KATL 042052Z 10010KT 10SM BKN037 BKN045 BKN250 18/10 A3016 RMK AO2 SLP214 T01780100 56028=
201811041952 METAR KATL 041952Z 10010KT 10SM SCT038 SCT045 SCT200 BKN250 BKN300 18/09 A3017 RMK AO2 SLP214 T01830094=
201811041852 METAR KATL 041852Z 11008KT 10SM BKN037 BKN045 BKN250 BKN300 17/09 A3021 RMK AO2 SLP228 T01720089=
201811041752 METAR KATL 041752Z 09012KT 10SM SCT036 BKN250 BKN300 17/08 A3025 RMK AO2 SLP242 T01720078 10172 20067 58023=
201811041652 METAR KATL 041652Z 11010KT 10SM BKN033 BKN250 16/06 A3029 RMK AO2 SLP256 T01610061=
201811041552 METAR KATL 041552Z 09013G17KT 10SM SCT035 SCT250 14/05 A3030 RMK AO2 SLP262 T01440050=
201811041452 METAR KATL 041452Z 10012KT 10SM FEW150 FEW250 13/05 A3032 RMK AO2 SLP267 T01280050 50008=
201811041352 METAR KATL 041352Z 10009KT 10SM FEW250 11/05 A3032 RMK AO2 SLP270 T01060050=
201811041252 METAR KATL 041252Z 10008KT 10SM FEW250 08/04 A3032 RMK AO2 SLP269 T00780039=
201811041152 METAR KATL 041152Z 09009KT 10SM FEW250 07/04 A3029 RMK AO2 SLP260 T00670039 10100 20061 53003=
201811041052 METAR KATL 041052Z 08008KT 10SM CLR 07/04 A3029 RMK AO2 SLP259 T00720039=
201811040952 METAR KATL 040952Z 09007KT 10SM CLR 08/04 A3028 RMK AO2 SLP255 T00780039=
201811040852 METAR KATL 040852Z 09006KT 10SM CLR 07/04 A3028 RMK AO2 SLP255 T00720044 50002=
201811040752 METAR KATL 040752Z 09006KT 10SM CLR 08/05 A3030 RMK AO2 SLP259 T00830050=
201811040652 METAR KATL 040652Z 07005KT 10SM CLR 09/05 A3029 RMK AO2 SLP255 T00890050=
201811040552 METAR KATL 040552Z 08006KT 10SM CLR 10/06 A3028 RMK AO2 SLP252 T01000056 10139 20094 50002=
201811040452 METAR KATL 040452Z 13003KT 10SM CLR 10/06 A3028 RMK AO2 SLP254 T01000061 401890050=
201811040352 METAR KATL 040352Z 12005KT 10SM CLR 11/06 A3028 RMK AO2 SLP255 T01110056=
201811040252 METAR KATL 040252Z 12003KT 10SM CLR 12/07 A3027 RMK AO2 SLP251 T01170067 51014=
201811040152 METAR KATL 040152Z 13004KT 10SM FEW250 12/07 A3026 RMK AO2 SLP248 T01220067=
201811040052 METAR KATL 040052Z 13004KT 10SM FEW250 13/07 A3025 RMK AO2 SLP244 T01330067=
201811032352 METAR KATL 032352Z 00000KT 10SM SCT250 14/07 A3023 RMK AO2 SLP239 T01390067 10189 20139 53014=
201811032252 METAR KATL 032252Z 18003KT 10SM SCT250 16/06 A3020 RMK AO2 SLP228 T01560061=
201811032152 METAR KATL 032152Z 16004KT 10SM FEW048 SCT250 17/06 A3019 RMK AO2 SLP224 T01720056=
201811032052 METAR KATL 032052Z 00000KT 10SM FEW050 SCT250 18/05 A3019 RMK AO2 SLP223 T01780050 55002=
201811031952 METAR KATL 031952Z 23004KT 10SM FEW050 FEW250 18/05 A3017 RMK AO2 SLP216 T01780050=
201811031852 METAR KATL 031852Z 30005KT 10SM FEW045 FEW250 17/06 A3018 RMK AO2 SLP220 T01720056=
201811031752 METAR KATL 031752Z VRB04KT 10SM FEW040 FEW250 17/06 A3019 RMK AO2 SLP225 T01720061 10172 20050 58005=
201811031652 METAR KATL 031652Z 11003KT 10SM FEW035 FEW250 16/06 A3021 RMK AO2 SLP230 T01560056=
201811031552 METAR KATL 031552Z 30004KT 10SM FEW030 FEW250 14/06 A3022 RMK AO2 SLP234 T01390056=
201811031452 METAR KATL 031452Z 30005KT 10SM FEW250 12/06 A3021 RMK AO2 SLP231 T01220061 51031=
201811031352 METAR KATL 031352Z 25003KT 10SM FEW250 09/06 A3019 RMK AO2 SLP225 T00890056=
201811031252 METAR KATL 031252Z 00000KT 10SM FEW250 07/04 A3014 RMK AO2 SLP209 T00720044=
201811031152 METAR KATL 031152Z 31004KT 10SM CLR 05/03 A3011 RMK AO2 SLP201 T00500033 10061 20050 51023=
201811031052 METAR KATL 031052Z 30005KT 10SM CLR 06/03 A3009 RMK AO2 SLP193 T00560033=
201811030952 METAR KATL 030952Z 28005KT 10SM CLR 06/04 A3007 RMK AO2 SLP184 T00610039=
201811030852 METAR KATL 030852Z 27005KT 10SM CLR 06/03 A3004 RMK AO2 SLP175 T00560033 51008=
201811030752 METAR KATL 030752Z 28005KT 10SM CLR 06/03 A3003 RMK AO2 SLP171 T00610033=
201811030652 METAR KATL 030652Z 25004KT 10SM CLR 06/03 A3003 RMK AO2 SLP170 T00560033=
201811030552 METAR KATL 030552Z 26004KT 10SM CLR 06/03 A3002 RMK AO2 SLP165 T00560033 10094 20056 53015=
201811030452 METAR KATL 030452Z 28005KT 10SM CLR 06/04 A2999 RMK AO2 SLP156 T00560039 401720056=
201811030352 METAR KATL 030352Z 28007KT 10SM FEW250 06/04 A2999 RMK AO2 SLP155 T00610039=
201811030252 METAR KATL 030252Z 28007KT 10SM CLR 07/03 A2997 RMK AO2 SLP149 T00670033 53020=
201811030152 METAR KATL 030152Z 28007KT 10SM FEW250 07/03 A2994 RMK AO2 SLP140 T00720033=
201811030052 METAR KATL 030052Z 29008KT 10SM FEW025 SCT250 08/03 A2992 RMK AO2 SLP133 T00830028=
201811022352 METAR KATL 022352Z 31016G20KT 10SM SCT024 OVC035 09/03 A2991 RMK AO2 SLP127 BINOVC T00940033 10161 20094 53025=
201811022252 METAR KATL 022252Z 30018G25KT 10SM SCT022 BKN030 OVC050 10/05 A2988 RMK AO2 SLP118 T01000050=
201811022152 METAR KATL 022152Z 30014G21KT 10SM SCT024 BKN032 OVC050 12/07 A2986 RMK AO2 SLP108 T01170067=
201811022052 METAR KATL 022052Z 28011KT 10SM FEW025 BKN045 OVC060 12/07 A2983 RMK AO2 SLP100 T01170067 52016=
201811022030 SPECI KATL 022030Z 30017KT 10SM SCT025 BKN035 OVC045 12/07 A2982 RMK AO2 T01170072=
201811021952 METAR KATL 021952Z 29019G23KT 10SM BKN021 BKN028 OVC040 12/08 A2982 RMK AO2 SLP093 T01220078=
201811021943 SPECI KATL 021943Z 29012G17KT 10SM BKN021 BKN028 OVC040 13/08 A2981 RMK AO2 T01330083=
201811021916 SPECI KATL 021916Z 30013KT 10SM SCT018 BKN035 BKN050 OVC150 13/09 A2980 RMK AO2 T01330089=
201811021852 METAR KATL 021852Z 30013KT 10SM BKN019 OVC025 13/09 A2980 RMK AO2 SLP089 T01330089=
201811021811 SPECI KATL 021811Z 29015G22KT 10SM SCT019 BKN028 BKN044 OVC150 14/11 A2979 RMK AO2 T01440106=
201811021752 METAR KATL 021752Z 27012KT 10SM SCT025 BKN044 BKN150 OVC250 16/10 A2978 RMK AO2 SLP082 60000 T01610100 10161 20150 58010=
201811021652 METAR KATL 021652Z 29010KT 10SM FEW015 SCT030 BKN040 OVC150 16/12 A2981 RMK AO2 SLP091 T01560122=
201811021618 SPECI KATL 021618Z 30010KT 10SM FEW010 BKN020 OVC090 15/12 A2982 RMK AO2 T01500122=
201811021552 METAR KATL 021552Z 30013KT 10SM BKN010 BKN030 OVC090 16/13 A2982 RMK AO2 SLP093 T01560128=
201811021547 SPECI KATL 021547Z 30013KT 10SM BKN010 BKN030 OVC090 16/13 A2982 RMK AO2=
201811021452 METAR KATL 021452Z 25005KT 10SM SCT010 SCT040 BKN090 OVC150 16/14 A2979 RMK AO2 RAB21E30 SLP085 P0000 60000 T01560139 58002=
201811021352 METAR KATL 021352Z 23003KT 10SM FEW010 SCT040 OVC060 15/13 A2980 RMK AO2 RAE35 SLP086 P0000 T01500133=
201811021252 METAR KATL 021252Z 22004KT 6SM -RA BR FEW008 BKN038 OVC065 15/13 A2979 RMK AO2 RAE22B46 SLP086 P0000 T01500133=
201811021152 METAR KATL 021152Z 25006KT 6SM -RA BR FEW007 BKN030 OVC060 15/13 A2980 RMK AO2 RAB21 SLP086 P0002 60004 70052 T01500133 10172 20150 56001=
201811021150 SPECI KATL 021150Z 25006KT 6SM -RA BR FEW007 BKN030 OVC060 15/14 A2979 RMK AO2 RAB21 P0002=
201811021111 SPECI KATL 021111Z 28003KT 10SM SCT012 BKN020 OVC030 16/14 A2980 RMK AO2 T01560139=
201811021052 METAR KATL 021052Z 29007KT 10SM FEW009 BKN014 OVC026 16/14 A2980 RMK AO2 RAB09E45 SLP087 CIG 012V016 P0002 T01560139=
201811020952 METAR KATL 020952Z 00000KT 10SM OVC018 17/14 A2979 RMK AO2 SLP082 T01670144=
201811020852 METAR KATL 020852Z 29004KT 10SM FEW006 BKN016 OVC028 17/14 A2980 RMK AO2 RAB30E46 SLP088 CIG 014V018 P0000 60000 T01670139 58002=
201811020844 SPECI KATL 020844Z 30007KT 10SM -RA FEW004 BKN014 OVC024 17/14 A2981 RMK AO2 RAB30 CIG 012V016 P0000 T01670144=
201811020752 METAR KATL 020752Z 21005KT 10SM BKN008 BKN015 OVC034 17/16 A2981 RMK AO2 RAB11E21 SLP090 CIG 006V010 P0000 T01720156=
201811020652 METAR KATL 020652Z 23006KT 10SM BKN006 OVC012 17/16 A2981 RMK AO2 SLP091 CIG 004V008 T01720156=
201811020552 METAR KATL 020552Z 19006KT 10SM BKN007 BKN012 OVC060 17/16 A2981 RMK AO2 RAB39E49 SLP088 CIG 005V009 P0000 60000 T01720156 10172 20172 58009=
201811020452 METAR KATL 020452Z 20007KT 10SM BKN007 BKN015 OVC030 17/16 A2982 RMK AO2 SLP092 T01720156 402170161=
201811020352 METAR KATL 020352Z 20007KT 10SM SCT007 BKN012 BKN030 OVC150 17/16 A2983 RMK AO2 SLP095 T01720156=
201811020252 METAR KATL 020252Z 19007KT 10SM SCT008 BKN014 BKN030 OVC150 17/16 A2983 RMK AO2 SLP097 T01720156 51008=
201811020152 METAR KATL 020152Z 20007KT 10SM SCT007 BKN012 BKN035 OVC150 17/16 A2983 RMK AO2 SLP098 T01720156=
201811020052 METAR KATL 020052Z 21004KT 10SM SCT007 BKN012 OVC150 17/16 A2983 RMK AO2 SLP097 T01720156=
201811012352 METAR KATL 012352Z 00000KT 10SM SCT008 BKN014 BKN030 OVC150 17/16 A2981 RMK AO2 SLP090 SCT008 V BKN 60047 T01720156 10206 20167 53024=
201811012321 SPECI KATL 012321Z 29010KT 10SM BKN008 OVC150 17/16 A2980 RMK AO2 PRESRR T01670156=
201811012252 METAR KATL 012252Z 17006KT 10SM FEW008 BKN140 OVC200 17/15 A2977 RMK AO2 RAB2159E08 SLP078 VIRGA OHD-ALQDS P0000 T01670150=
201811012152 METAR KATL 012152Z 00000KT 10SM FEW008 BKN120 OVC150 17/15 A2976 RMK AO2 RAE17 SLP073 VIRGA OHD-ALQDS P0000 T01720150=
201811012052 METAR KATL 012052Z 14011KT 7SM -RA FEW010 SCT050 OVC120 17/16 A2974 RMK AO2 PRESFR SLP065 VIRGA DSNT W-N P0006 60047 T01670156 58021=
201811012034 SPECI KATL 012034Z 14009KT 6SM -RA BR FEW010 SCT050 OVC110 17/16 A2976 RMK AO2 P0005 T01670156=
201811011952 METAR KATL 011952Z 16005KT 6SM -RA BR FEW050 BKN070 OVC100 17/16 A2980 RMK AO2 SLP087 P0016 T01720156=
201811011934 SPECI KATL 011934Z 20004KT 4SM -RA BR FEW030 BKN070 OVC090 17/16 A2980 RMK AO2 P0014 T01720156=
201811011926 SPECI KATL 011926Z 21005KT 6SM -RA BR FEW010 SCT030 OVC070 17/16 A2981 RMK AO2 P0013 T01720161=
201811011925 SPECI KATL 011925Z 21005KT 3SM -RA BR FEW010 SCT030 OVC070 17/16 A2981 RMK AO2 SFC VIS 6 P0013 T01720161=
201811011852 METAR KATL 011852Z 22009G18KT 2SM -RA BR FEW010 BKN030 OVC050 18/16 A2982 RMK AO2 WSHFT 1820 SFC VIS 3 SLP093 P0025 T01780161=
201811011837 SPECI KATL 011837Z 22013G23KT 2SM -RA BR FEW012CB BKN030 OVC060 18/16 A2982 RMK AO2 WSHFT 1820 SFC VIS 3 VIS LWR NE-SE SHRA CB NE-SE MOV NE P0018 T01830161=
201811011828 SPECI KATL 011828Z 24013G23KT 2SM R09R/3000VP6000FT -RA BR FEW010CB BKN030 OVC040 19/17 A2981 RMK AO2 SFC VIS 4 PRESRR VIS LWR NE-SE SHRA CB NE-SE MOV NE P0014 T01940172=
201811011825 SPECI KATL 011825Z 24015G23KT 1SM R09R/3000VP6000FT +RA BR FEW010CB BKN030 OVC040 20/18 A2981 RMK AO2 TWR VIS 2 PRESRR CB OHD-SW-NW MOV NE P0009 T02000178=
201811011823 SPECI KATL 011823Z 24014G23KT 1 3/4SM R09R/3000VP6000FT -RA FEW010CB BKN030 OVC040 21/18 A2980 RMK AO2 CB OHD-SW-NW MOV NE P0004 T02060178=
201811011752 METAR KATL 011752Z 18015KT 5SM -RA FEW020CB BKN030 OVC040 21/17 A2980 RMK AO2 RAB36 SLP085 CB SW-NW MOV NE P0001 60001 T02060172 10217 20172 58031=
201811011652 METAR KATL 011652Z 16011G17KT 10SM BKN018 BKN024 OVC150 21/17 A2984 RMK AO2 SLP097 T02110167=
201811011606 SPECI KATL 011606Z 17012G20KT 10SM FEW012 BKN015 OVC020 20/16 A2987 RMK AO2 T02000161=
201811011604 SPECI KATL 011604Z 16012G20KT 10SM OVC015 20/16 A2986 RMK AO2 T02000161=
201811011552 METAR KATL 011552Z 17011KT 10SM BKN012 BKN015 OVC020 19/16 A2988 RMK AO2 SLP112 T01940161=
201811011452 METAR KATL 011452Z 18012G21KT 10SM OVC012 19/16 A2990 RMK AO2 SLP118 T01890161 58004=
201811011352 METAR KATL 011352Z 18013G22KT 10SM OVC010 18/16 A2991 RMK AO2 SLP123 T01830156=
201811011252 METAR KATL 011252Z 17013G20KT 10SM OVC011 18/15 A2991 RMK AO2 SLP122 CIG 009V013 T01780150=
