##########################################################
# Query made at 04/20/2024 00:00:09 UTC
# Time interval: from 07/01/2018 12:00  to 07/31/2018 12:59  UTC
##########################################################

##########################################################
# KATL, Atlanta, Hartsfield - Jackson Atlanta International Airport (United States)
# WMO index: 72219. WIGOS ID: 0-20000-0-72219
# Latitude 33-38-59N. Longitude 084-25-00W. Altitude 312 m.
##########################################################

201807311252 METAR KATL 311252Z 21003KT 6SM BR OVC005 23/21 A3006 RMK AO2 SLP168 CIG 004V007 T02280211=
201807311152 METAR KATL 311152Z 21005KT 6SM BR OVC006 23/21 A3005 RMK AO2 SLP165 CIG 005V007 T02280206 10239 20222 51013=
201807311103 SPECI KATL 311103Z 19006KT 8SM BKN009 OVC012 23/20 A3004 RMK AO2 T02280200=
201807311052 METAR KATL 311052Z 20004KT 9SM OVC010 23/20 A3004 RMK AO2 SLP161 T02280200=
201807310952 METAR KATL 310952Z 20003KT 10SM BKN013 BKN024 OVC031 23/20 A3003 RMK AO2 SLP156 T02280200=
201807310949 SPECI KATL 310949Z 21004KT 10SM BKN013 BKN024 OVC031 23/20 A3002 RMK AO2=
201807310918 SPECI KATL 310918Z 22005KT 10SM BKN020 BKN045 BKN150 OVC200 22/20 A3002 RMK AO2 T02220200=
201807310852 METAR KATL 310852Z 21005KT 10SM FEW050 FEW150 BKN250 22/20 A3001 RMK AO2 SLP150 T02220200 55008=
201807310752 METAR KATL 310752Z 21006KT 10SM FEW050 FEW150 BKN250 23/20 A3001 RMK AO2 SLP150 T02280200=
201807310652 METAR KATL 310652Z 18007KT 10SM FEW046 FEW150 BKN250 23/21 A3002 RMK AO2 SLP154 T02280206=
201807310552 METAR KATL 310552Z 19005KT 10SM FEW046 FEW150 SCT200 BKN250 24/21 A3003 RMK AO2 SLP159 T02390206 10283 20239 55001=
201807310452 METAR KATL 310452Z 18003KT 10SM SCT150 BKN200 BKN250 24/21 A3003 RMK AO2 SLP159 T02440206 403110222=
201807310352 METAR KATL 310352Z 20007KT 10SM SCT140 BKN200 BKN250 24/21 A3004 RMK AO2 SLP161 T02440206=
201807310252 METAR KATL 310252Z 17008KT 10SM FEW110 BKN150 OVC250 26/22 A3004 RMK AO2 SLP161 T02610217 51016=
201807310152 METAR KATL 310152Z 17009KT 10SM FEW025 SCT120 BKN200 BKN250 27/22 A3003 RMK AO2 SLP160 T02670222=
201807310130 SPECI KATL 310130Z 15008KT 9SM SCT028 BKN150 BKN250 27/22 A3002 RMK AO2 T02670222=
201807310122 SPECI KATL 310122Z 15006KT 9SM BKN028 BKN150 BKN250 27/22 A3002 RMK AO2 T02720222=
201807310052 METAR KATL 310052Z 14007KT 10SM SCT025 BKN150 BKN250 27/22 A3001 RMK AO2 SLP152 T02720217=
201807302352 METAR KATL 302352Z 17006KT 10SM FEW030 SCT150 BKN250 28/22 A2999 RMK AO2 LTG DSNT N AND NW SLP145 CB DSNT NW-N T02830217 10311 20278 50002=
201807302252 METAR KATL 302252Z 16008KT 10SM FEW035CB SCT150 BKN250 29/22 A2999 RMK AO2 LTG DSNT N AND W TSB17E41 SLP145 CB N-NE & DSNT SW-NW MOV NE T02940217=
201807302241 SPECI KATL 302241Z 17009KT 10SM FEW035CB SCT150 BKN250 29/22 A2999 RMK AO2 TSB17E41 TS DSIPTD CB N-NE MOV STNRY T02940217=
201807302217 SPECI KATL 302217Z 15009KT 10SM TS SCT035CB BKN150 BKN250 30/22 A2999 RMK AO2 TSB17 OCNL LTGIC NW-N TS NW-N MOV N T03000222=
201807302152 METAR KATL 302152Z 16010KT 10SM SCT035TCU BKN150 BKN250 29/21 A2998 RMK AO2 SLP142 SHRA NW-N-NE TCU W-N-NE T02940211=
201807302052 METAR KATL 302052Z VRB06KT 10SM BKN030TCU BKN050 BKN250 30/22 A2998 RMK AO2 SLP142 TCU OHD-NW-N-NE T03000217 58020=
201807301952 METAR KATL 301952Z 19007KT 10SM FEW020CB SCT030TCU BKN250 31/22 A3001 RMK AO2 SLP150 CB NE MOV NE TCU NW-N SHRA VC NE T03060222=
201807301914 SPECI KATL 301914Z 17004KT 10SM SCT025CB BKN030 BKN250 29/22 A3002 RMK AO2 CB N-NE MOV NE MDT CU ALQDS SHRA VC N-NE T02890217=
201807301852 METAR KATL 301852Z VRB03KT 9SM BKN025TCU BKN030 BKN250 29/22 A3003 RMK AO2 SLP156 CB DSNT SE-SW TCU N-NE & OHD-SE-SW-NW T02890222=
201807301752 METAR KATL 301752Z VRB04KT 9SM FEW025 SCT030 BKN250 28/22 A3004 RMK AO2 SLP163 T02830222 10289 20228 58010=
201807301724 SPECI KATL 301724Z 00000KT 9SM FEW020 SCT030 BKN250 28/22 A3006 RMK AO2 T02830222=
201807301652 METAR KATL 301652Z VRB04KT 9SM BKN023 BKN030 28/22 A3007 RMK AO2 SLP173 T02780217=
201807301552 METAR KATL 301552Z 00000KT 10SM BKN020 OVC030 27/22 A3009 RMK AO2 SLP179 T02670217=
201807301522 SPECI KATL 301522Z 14004KT 9SM BKN017 26/22 A3008 RMK AO2 T02610217=
201807301452 METAR KATL 301452Z 18004KT 9SM BKN012 BKN015 25/21 A3007 RMK AO2 SLP173 T02500211 51008=
201807301430 SPECI KATL 301430Z VRB03KT 7SM FEW008 BKN012 OVC015 25/21 A3007 RMK AO2 T02500211=
201807301352 METAR KATL 301352Z 17003KT 6SM HZ FEW005 BKN008 OVC010 24/21 A3007 RMK AO2 SLP173 T02390211=
201807301252 METAR KATL 301252Z 14005KT 2SM BR OVC005 23/21 A3006 RMK AO2 SFC VIS 5 SLP168 CIG 004V006 T02280211=
201807301246 SPECI KATL 301246Z 13005KT 2SM BR OVC005 23/21 A3005 RMK AO2 SFC VIS 5 CIG 004V006=
201807301152 METAR KATL 301152Z 13006KT 2SM BR OVC004 22/21 A3005 RMK AO2 SFC VIS 5 SLP165 CIG 003V005 TWRINC T02220211 10239 20222 50007=
201807301109 SPECI KATL 301109Z 11008KT 2SM BR OVC004 22/21 A3006 RMK AO2 SFC VIS 5 CIG 003V005 TWRINC T02220206=
201807301052 METAR KATL 301052Z 11007KT 1SM R09R/P6000FT BR OVC004 22/21 A3005 RMK AO2 SFC VIS 5 SLP166 CIG 003V005 TWRINC T02220206=
201807301010 SPECI KATL 301010Z 08007KT 1SM R09R/P6000FT BR OVC004 22/21 A3004 RMK AO2 SFC VIS 5 CIG 003V005 TWRINC T02220206=
201807301007 SPECI KATL 301007Z 08007KT 6SM BR OVC004 22/21 A3004 RMK AO2 CIG 003V005 T02220206=
201807300952 METAR KATL 300952Z 08009KT 7SM BKN006 BKN150 23/21 A3004 RMK AO2 SLP161 T02280206=
201807300852 METAR KATL 300852Z 13003KT 10SM FEW150 BKN250 23/21 A3003 RMK AO2 SLP157 T02280206 55002=
201807300752 METAR KATL 300752Z 13004KT 9SM FEW150 BKN250 23/21 A3002 RMK AO2 SLP156 T02280206=
201807300652 METAR KATL 300652Z 16005KT 9SM SCT150 BKN250 23/21 A3003 RMK AO2 SLP155 T02330206=
201807300552 METAR KATL 300552Z 13004KT 10SM SCT150 BKN250 24/21 A3003 RMK AO2 SLP158 VIRGA ALQDS T02390206 10289 20239 58003=
201807300452 METAR KATL 300452Z 11005KT 10SM FEW160 BKN250 24/21 A3006 RMK AO2 SLP167 T02440206 403170200=
201807300352 METAR KATL 300352Z 16006KT 10SM FEW160 BKN250 24/20 A3005 RMK AO2 SLP165 T02440200=
201807300252 METAR KATL 300252Z 00000KT 10SM FEW050 SCT160 BKN250 27/17 A3004 RMK AO2 SLP162 CB DSNT NE T02720172 53009=
201807300152 METAR KATL 300152Z 24003KT 10SM FEW050 SCT160 BKN250 27/17 A3002 RMK AO2 SLP155 OCNL LTGIC DSNT NE CB DSNT NE T02720167=
201807300052 METAR KATL 300052Z 22003KT 10SM FEW055 BKN160 BKN250 28/17 A3001 RMK AO2 SLP153 CB DSNT NE T02830167=
201807292352 METAR KATL 292352Z 24003KT 10SM FEW055 FEW100 SCT160 BKN200 BKN250 29/16 A3001 RMK AO2 SLP153 TCU DSNT NE-E T02890161 10317 20289 53006=
201807292252 METAR KATL 292252Z 28005KT 10SM FEW070 SCT200 SCT250 31/16 A3000 RMK AO2 SLP149 TCU DSNT E T03110156=
201807292152 METAR KATL 292152Z 28007KT 10SM FEW070 FEW150 FEW200 SCT250 31/16 A2999 RMK AO2 SLP146 CB DSNT E-SE T03110156=
201807292052 METAR KATL 292052Z 31006KT 10SM FEW070 FEW150 FEW200 SCT250 32/14 A3000 RMK AO2 SLP146 CB DSNT E-SE T03170139 56021=
201807291952 METAR KATL 291952Z 29008KT 10SM FEW070 FEW150 SCT200 SCT250 32/17 A3002 RMK AO2 SLP154 CB DSNT E-SE T03170167=
201807291852 METAR KATL 291852Z 32011KT 10SM FEW065 FEW200 SCT250 32/16 A3004 RMK AO2 SLP160 CB DSNT E-SE T03170161=
201807291752 METAR KATL 291752Z 25006KT 10SM FEW060 FEW200 SCT250 31/17 A3006 RMK AO2 SLP168 CB DSNT E-SE T03060172 10311 20206 58004=
201807291652 METAR KATL 291652Z VRB03KT 10SM FEW055 FEW200 SCT250 30/17 A3007 RMK AO2 SLP172 T03000172=
201807291552 METAR KATL 291552Z 16005KT 10SM FEW150 SCT200 SCT250 28/17 A3007 RMK AO2 SLP172 T02830167=
201807291452 METAR KATL 291452Z 00000KT 10SM FEW150 SCT200 SCT250 27/18 A3007 RMK AO2 SLP172 ACC N T02670178 51001=
201807291352 METAR KATL 291352Z 08006KT 10SM FEW001 FEW150 SCT200 SCT250 26/18 A3007 RMK AO2 SLP172 FU FEW001 FU PLUME NE T02560183=
201807291252 METAR KATL 291252Z 05005KT 10SM FEW150 SCT200 BKN250 23/17 A3007 RMK AO2 SLP172 T02330172=
201807291152 METAR KATL 291152Z 32006KT 10SM FEW150 SCT200 BKN250 21/17 A3007 RMK AO2 SLP173 T02060167 10217 20200 53003=
201807291052 METAR KATL 291052Z 32004KT 10SM FEW150 FEW200 BKN250 21/17 A3006 RMK AO2 SLP170 T02060167=
201807290952 METAR KATL 290952Z 32005KT 10SM BKN250 21/17 A3005 RMK AO2 SLP166 T02060167=
201807290852 METAR KATL 290852Z 33003KT 10SM BKN250 21/17 A3006 RMK AO2 SLP167 T02110167 56003=
201807290752 METAR KATL 290752Z 33003KT 10SM SCT250 21/17 A3006 RMK AO2 SLP167 T02110167=
201807290652 METAR KATL 290652Z 31006KT 10SM SCT250 21/17 A3006 RMK AO2 SLP168 T02110167=
201807290552 METAR KATL 290552Z 31005KT 10SM SCT250 22/17 A3007 RMK AO2 SLP171 T02170167 10289 20217 58003=
201807290452 METAR KATL 290452Z 30004KT 10SM SCT250 BKN300 23/16 A3008 RMK AO2 SLP173 T02280161 403220222=
201807290352 METAR KATL 290352Z 32005KT 10SM SCT250 BKN300 24/16 A3008 RMK AO2 SLP175 T02390161=
201807290252 METAR KATL 290252Z 33005KT 10SM SCT250 BKN300 26/16 A3008 RMK AO2 SLP174 T02560156 51009=
201807290152 METAR KATL 290152Z 34007KT 10SM SCT250 BKN300 26/16 A3007 RMK AO2 SLP172 T02610156=
201807290052 METAR KATL 290052Z 34008KT 10SM FEW200 SCT250 BKN300 27/16 A3006 RMK AO2 SLP167 T02720156=
201807282352 METAR KATL 282352Z 35010KT 10SM FEW200 BKN250 BKN300 28/15 A3005 RMK AO2 SLP164 T02830150 10322 20283 55001=
201807282252 METAR KATL 282252Z 33010KT 10SM FEW070 BKN250 BKN300 31/13 A3004 RMK AO2 SLP160 ACC DSNT S T03060133=
201807282152 METAR KATL 282152Z 36010G17KT 10SM FEW075 FEW250 BKN300 32/14 A3004 RMK AO2 SLP161 ACC DSNT E & S T03170139=
201807282052 METAR KATL 282052Z 33011KT 10SM FEW075 FEW200 SCT250 32/12 A3005 RMK AO2 SLP164 ACC DSNT E & SE T03220122 58010=
201807281952 METAR KATL 281952Z 33013KT 10SM FEW070 FEW200 SCT250 32/14 A3007 RMK AO2 SLP172 T03220144=
201807281852 METAR KATL 281852Z 33007KT 10SM FEW065 FEW200 SCT250 31/13 A3008 RMK AO2 SLP174 T03110133=
201807281752 METAR KATL 281752Z 30009KT 10SM FEW060 FEW200 SCT250 31/14 A3008 RMK AO2 SLP174 T03110144 10311 20233 58009=
201807281652 METAR KATL 281652Z 36007KT 10SM FEW055 FEW200 SCT250 31/15 A3009 RMK AO2 SLP178 T03110150=
201807281552 METAR KATL 281552Z 33007KT 10SM FEW200 SCT250 30/17 A3010 RMK AO2 SLP182 T03000167=
201807281452 METAR KATL 281452Z 33007KT 10SM SCT250 29/18 A3011 RMK AO2 SLP184 T02890183 51008=
201807281352 METAR KATL 281352Z 33009KT 10SM SCT100 SCT250 27/18 A3010 RMK AO2 SLP182 T02720183=
201807281252 METAR KATL 281252Z 33008KT 10SM SCT100 BKN250 24/19 A3010 RMK AO2 SLP181 ACC W-NW T02440189=
201807281152 METAR KATL 281152Z 34005KT 10SM BKN100 BKN250 23/19 A3008 RMK AO2 SLP176 T02330189 10256 20222 53014=
201807281052 METAR KATL 281052Z 32006KT 10SM BKN100 BKN150 BKN250 23/19 A3007 RMK AO2 SLP170 T02280189=
201807280952 METAR KATL 280952Z 32006KT 10SM FEW100 SCT150 BKN250 22/19 A3004 RMK AO2 SLP163 T02220194=
201807280852 METAR KATL 280852Z 31005KT 10SM BKN150 BKN250 23/20 A3004 RMK AO2 SLP160 T02280200 56007=
201807280752 METAR KATL 280752Z 31006KT 10SM BKN150 BKN250 24/19 A3004 RMK AO2 SLP162 T02390194=
201807280652 METAR KATL 280652Z 31005KT 10SM FEW150 FEW250 24/20 A3006 RMK AO2 SLP166 T02440200=
201807280552 METAR KATL 280552Z 00000KT 10SM FEW150 FEW250 25/20 A3006 RMK AO2 SLP167 T02500200 10300 20244 50002=
201807280452 METAR KATL 280452Z 34006KT 10SM SCT150 SCT250 26/21 A3007 RMK AO2 SLP170 T02560206 403280217=
201807280352 METAR KATL 280352Z 32005KT 10SM SCT150 SCT250 27/21 A3007 RMK AO2 SLP171 T02670206=
201807280252 METAR KATL 280252Z 34007KT 10SM BKN150 BKN250 28/20 A3006 RMK AO2 SLP165 T02780200 53006=
201807280152 METAR KATL 280152Z 35005KT 10SM BKN150 BKN250 28/20 A3004 RMK AO2 SLP162 T02780200=
201807280052 METAR KATL 280052Z 33007KT 10SM FEW080 BKN140 BKN250 29/19 A3004 RMK AO2 SLP159 T02890194=
201807272352 METAR KATL 272352Z 28008KT 10SM FEW055 BKN080 BKN250 30/19 A3004 RMK AO2 SLP160 TCU DSNT NE T03000194 10328 20300 57000=
201807272252 METAR KATL 272252Z 26007KT 10SM FEW055 SCT200 BKN250 31/18 A3004 RMK AO2 SLP160 T03110178=
201807272152 METAR KATL 272152Z 25007KT 10SM FEW060 BKN250 32/18 A3004 RMK AO2 SLP160 T03220183=
201807272052 METAR KATL 272052Z 28010KT 10SM FEW060 SCT200 BKN250 32/18 A3004 RMK AO2 SLP160 T03220178 56009=
201807271952 METAR KATL 271952Z 32010KT 10SM SCT055 BKN250 33/18 A3004 RMK AO2 SLP160 T03280183=
201807271852 METAR KATL 271852Z 31009KT 10SM FEW055 FEW200 BKN300 32/18 A3005 RMK AO2 SLP165 T03220183=
201807271752 METAR KATL 271752Z 30009KT 10SM SCT055 BKN250 BKN300 32/19 A3006 RMK AO2 SLP168 T03220189 10328 20228 58001=
201807271652 METAR KATL 271652Z 29008KT 10SM FEW055 FEW250 BKN300 32/18 A3008 RMK AO2 SLP173 T03170178=
201807271552 METAR KATL 271552Z 32006KT 10SM FEW050 SCT250 BKN300 31/18 A3008 RMK AO2 SLP172 T03110178=
201807271452 METAR KATL 271452Z VRB04KT 10SM SCT250 30/19 A3007 RMK AO2 SLP169 T03000194 51009=
201807271352 METAR KATL 271352Z 32005KT 10SM R09R/5000VP6000FT FEW250 28/19 A3007 RMK AO2 SLP169 T02830194=
201807271252 METAR KATL 271252Z 26003KT 9SM FEW200 FEW250 27/19 A3005 RMK AO2 SLP165 T02670194=
201807271152 METAR KATL 271152Z 30003KT 10SM FEW200 23/18 A3004 RMK AO2 SLP161 T02280183 10239 20217 53010=
201807271052 METAR KATL 271052Z 31003KT 10SM FEW200 22/17 A3002 RMK AO2 SLP156 T02170172=
201807270952 METAR KATL 270952Z 31003KT 10SM FEW200 22/18 A3001 RMK AO2 SLP151 T02220178=
201807270852 METAR KATL 270852Z 31003KT 10SM FEW200 FEW250 22/18 A3001 RMK AO2 SLP150 T02220178 50002=
201807270752 METAR KATL 270752Z 00000KT 10SM FEW200 SCT250 23/17 A3001 RMK AO2 SLP151 T02280172=
201807270652 METAR KATL 270652Z 31004KT 10SM FEW250 23/18 A3001 RMK AO2 SLP149 T02280178=
201807270552 METAR KATL 270552Z 33004KT 10SM FEW250 24/17 A3000 RMK AO2 SLP148 T02390172 10294 20228 58010=
201807270452 METAR KATL 270452Z 29003KT 10SM FEW250 24/17 A3002 RMK AO2 SLP154 T02440167 403280211=
201807270352 METAR KATL 270352Z 01005KT 10SM FEW250 27/16 A3002 RMK AO2 SLP154 T02720156=
201807270252 METAR KATL 270252Z 35005KT 10SM SCT250 27/16 A3003 RMK AO2 SLP158 T02670161 50014=
201807270152 METAR KATL 270152Z 35005KT 10SM BKN250 28/15 A3004 RMK AO2 SLP159 T02830150=
201807270052 METAR KATL 270052Z 32005KT 10SM BKN250 28/16 A3002 RMK AO2 SLP153 T02830161=
201807262352 METAR KATL 262352Z 28007KT 10SM BKN250 29/17 A2999 RMK AO2 SLP145 T02890172 10328 20289 53002=
201807262252 METAR KATL 262252Z 32007KT 10SM FEW070 BKN250 31/13 A2998 RMK AO2 SLP142 T03110133=
201807262152 METAR KATL 262152Z 32008KT 10SM FEW070 BKN250 32/14 A2999 RMK AO2 SLP143 T03220144=
201807262052 METAR KATL 262052Z 29006KT 10SM FEW075 SCT250 33/16 A2998 RMK AO2 SLP141 CB DSNT SE-S-SW T03280156 56013=
201807261952 METAR KATL 261952Z 32010KT 10SM FEW070 FEW250 33/16 A3000 RMK AO2 SLP147 T03280156=
201807261852 METAR KATL 261852Z 04003KT 10SM FEW060 FEW250 32/16 A3001 RMK AO2 SLP150 T03220161=
201807261752 METAR KATL 261752Z 32007KT 290V360 10SM FEW055 FEW250 32/18 A3002 RMK AO2 SLP155 MDT CU E-SE T03170178 10317 20228 58003=
201807261652 METAR KATL 261652Z VRB06KT 10SM SCT050 SCT250 31/19 A3003 RMK AO2 SLP159 MDT CU NE-SE T03110189=
201807261552 METAR KATL 261552Z VRB04KT 10SM FEW040 FEW250 30/20 A3004 RMK AO2 SLP159 T03000200=
201807261452 METAR KATL 261452Z 34006KT 10SM FEW030 FEW250 28/22 A3003 RMK AO2 SLP159 T02830217 50005=
201807261352 METAR KATL 261352Z VRB03KT 10SM FEW025 FEW250 27/21 A3003 RMK AO2 SLP159 T02720211=
201807261252 METAR KATL 261252Z 01006KT 10SM FEW250 26/21 A3004 RMK AO2 SLP160 T02560206=
201807261152 METAR KATL 261152Z 32006KT 10SM FEW200 23/19 A3002 RMK AO2 SLP154 T02280194 10244 20211 53017=
201807261052 METAR KATL 261052Z 33003KT 10SM FEW030 FEW200 22/18 A2999 RMK AO2 SLP145 T02170183=
201807260952 METAR KATL 260952Z 33005KT 10SM CLR 22/19 A2998 RMK AO2 SLP142 T02170189=
201807260852 METAR KATL 260852Z 33005KT 10SM CLR 22/18 A2997 RMK AO2 SLP136 T02220183 55002=
201807260752 METAR KATL 260752Z 31006KT 10SM CLR 22/19 A2996 RMK AO2 SLP134 T02170194=
201807260652 METAR KATL 260652Z 31009KT 10SM FEW250 23/19 A2996 RMK AO2 SLP136 T02280189=
201807260552 METAR KATL 260552Z VRB03KT 10SM FEW250 24/19 A2997 RMK AO2 SLP138 T02390189 10294 20228 58005=
201807260452 METAR KATL 260452Z 31003KT 10SM FEW250 24/19 A2999 RMK AO2 SLP143 T02440189 403170222=
201807260352 METAR KATL 260352Z 31004KT 10SM FEW250 25/19 A2998 RMK AO2 SLP142 T02500189=
201807260252 METAR KATL 260252Z 31004KT 10SM FEW250 26/18 A2999 RMK AO2 SLP144 T02610183 51014=
201807260152 METAR KATL 260152Z 34006KT 10SM FEW200 27/18 A2997 RMK AO2 SLP139 T02720178=
201807260052 METAR KATL 260052Z 33008KT 10SM FEW200 28/17 A2996 RMK AO2 SLP135 CB DSNT E T02780172=
201807252352 METAR KATL 252352Z 33009KT 10SM FEW045 29/18 A2994 RMK AO2 SLP129 CB DSNT E-SE T02940183 10317 20294 53007=
201807252252 METAR KATL 252252Z 33009KT 10SM FEW045 31/18 A2993 RMK AO2 SLP124 TCU DSNT SE-S T03060183=
201807252152 METAR KATL 252152Z 31012KT 10SM FEW045 31/20 A2992 RMK AO2 SLP121 CB DSNT NE TCU DSNT E-S T03110200=
201807252052 METAR KATL 252052Z 33010KT 10SM SCT045TCU 31/20 A2992 RMK AO2 SLP121 TCU E-SE-S & NW MDT CU ALQDS T03110200 56014=
201807251952 METAR KATL 251952Z 33008KT 10SM SCT045TCU 31/21 A2993 RMK AO2 SLP124 TCU N-NE-SE-SW-W T03110206=
201807251852 METAR KATL 251852Z 29007KT 10SM SCT043TCU 30/21 A2995 RMK AO2 SLP130 TCU E-SE-S-SW & DSNT SW-NW T03000206=
201807251752 METAR KATL 251752Z 24004KT 10SM SCT040TCU 30/21 A2997 RMK AO2 SLP136 TCU E-SE-S-SW T03000206 10306 20233 58008=
201807251652 METAR KATL 251652Z VRB03KT 10SM SCT035 SCT150 29/21 A2998 RMK AO2 SLP142 TCU DSNT S MDT CU DSNT N & DSNT SE-SW T02940206=
201807251552 METAR KATL 251552Z 32005KT 10SM SCT028 28/20 A3000 RMK AO2 SLP148 TCU DSNT S MDT CU ALQDS T02780200=
201807251452 METAR KATL 251452Z 00000KT 10SM BKN020TCU 27/21 A2999 RMK AO2 SLP145 TCU OHD & ALQDS T02670211 50009=
201807251352 METAR KATL 251352Z 05006KT 10SM FEW017 26/21 A2999 RMK AO2 SLP146 T02610211=
201807251252 METAR KATL 251252Z 36004KT 10SM FEW008 FEW014 25/21 A2998 RMK AO2 SLP142 T02500206=
201807251152 METAR KATL 251152Z 00000KT 10SM FEW008 23/21 A2996 RMK AO2 SLP136 T02330206 10244 20222 53008=
201807251052 METAR KATL 251052Z 09004KT 10SM FEW009 FEW023 FEW200 23/21 A2995 RMK AO2 SLP132 T02280206=
201807250952 METAR KATL 250952Z 04007KT 10SM FEW023 23/21 A2994 RMK AO2 SLP128 T02330206=
201807250852 METAR KATL 250852Z 05004KT 10SM FEW015 24/20 A2994 RMK AO2 SLP127 T02390200 56007=
201807250752 METAR KATL 250752Z 04004KT 10SM FEW015 24/21 A2994 RMK AO2 SLP127 T02390206=
201807250652 METAR KATL 250652Z 04006KT 10SM FEW050 FEW080 FEW150 24/21 A2995 RMK AO2 SLP131 T02440206=
201807250552 METAR KATL 250552Z 33004KT 10SM FEW050 FEW080 SCT150 SCT250 24/21 A2996 RMK AO2 SLP134 T02390211 10272 20233 58005=
201807250452 METAR KATL 250452Z 00000KT 10SM FEW080 SCT150 SCT250 24/20 A2997 RMK AO2 SLP139 T02440200 403000217=
201807250352 METAR KATL 250352Z 00000KT 10SM FEW150 SCT250 24/20 A2997 RMK AO2 SLP140 T02440200=
201807250252 METAR KATL 250252Z 10004KT 10SM FEW150 SCT250 26/19 A2998 RMK AO2 SLP141 T02560189 51018=
201807250152 METAR KATL 250152Z 12003KT 10SM FEW120 SCT250 26/21 A2996 RMK AO2 SLP136 T02560206=
201807250052 METAR KATL 250052Z 10006KT 10SM FEW120 SCT250 26/20 A2994 RMK AO2 SLP129 TCU DSNT W T02610200=
201807242352 METAR KATL 242352Z 10007KT 10SM FEW035 SCT200 BKN250 27/21 A2992 RMK AO2 SLP122 T02720206 10300 20267 52003=
201807242252 METAR KATL 242252Z 10006KT 10SM FEW035 SCT120 BKN200 BKN250 27/20 A2992 RMK AO2 SLP122 CB DSNT NE TCU DSNT SW T02720200=
201807242152 METAR KATL 242152Z 10010KT 10SM FEW035TCU SCT110 BKN250 27/21 A2991 RMK AO2 LTG DSNT SE AND S SLP120 CB DSNT NE & SE-S TCU SW T02720211=
201807242052 METAR KATL 242052Z 32007KT 10SM SCT034 SCT110 BKN250 29/21 A2991 RMK AO2 SLP119 CB DSNT NE-SE TCU DSNT SW-NW MDT CU N & S T02940206 56018=
201807241952 METAR KATL 241952Z 32005KT 10SM FEW035 FEW110 BKN250 29/21 A2992 RMK AO2 LTG DSNT NE AND E SLP122 CB DSNT NE-E-SE T02890211=
201807241852 METAR KATL 241852Z VRB03KT 10SM FEW027 SCT035 BKN250 28/20 A2995 RMK AO2 SLP131 CB DSNT N & DSNT NE-SE T02830200=
201807241752 METAR KATL 241752Z VRB05KT 10SM FEW030 FEW110 BKN250 28/21 A2997 RMK AO2 SLP137 CB DSNT NE-SE T02780206 10278 20228 58005=
201807241720 SPECI KATL 241720Z 05007KT 10SM FEW025 BKN030 BKN110 BKN250 27/20 A2998 RMK AO2 T02670200=
201807241652 METAR KATL 241652Z 08004KT 10SM BKN026 BKN110 BKN250 26/20 A2998 RMK AO2 SLP143 T02560200=
201807241552 METAR KATL 241552Z 06006KT 10SM FEW017 BKN027 OVC110 24/20 A2999 RMK AO2 SLP147 T02440200=
201807241452 METAR KATL 241452Z 07007KT 10SM FEW015 BKN025 OVC110 24/19 A2998 RMK AO2 SLP143 BINOVC S T02390194 51012=
201807241352 METAR KATL 241352Z 07006KT 9SM FEW010 BKN020 OVC110 23/21 A2997 RMK AO2 SLP140 T02330206=
201807241310 SPECI KATL 241310Z 07009KT 9SM R09R/4500VP6000FT BKN010 BKN110 23/20 A2996 RMK AO2 T02280200=
201807241252 METAR KATL 241252Z 08006KT 8SM BKN009 BKN110 23/20 A2996 RMK AO2 SLP136 T02330200=
201807241250 SPECI KATL 241250Z 08007KT 8SM BKN009 BKN110 23/20 A2996 RMK AO2=
201807241152 METAR KATL 241152Z 06006KT 9SM SCT006 SCT110 SCT180 BKN250 22/20 A2994 RMK AO2 SLP130 70082 T02220200 10222 20217 53012=
201807241143 SPECI KATL 241143Z 08005KT 9SM SCT008 SCT080 BKN180 BKN250 22/21 A2994 RMK AO2 T02220206=
201807241126 SPECI KATL 241126Z 08007KT 8SM SCT005 BKN009 BKN180 BKN250 22/20 A2994 RMK AO2 BKN009 V SCT T02170200=
201807241052 METAR KATL 241052Z 09007KT 7SM SCT006 SCT016 SCT180 SCT250 22/20 A2993 RMK AO2 SLP125 SCT006 V BKN T02170200=
201807241043 SPECI KATL 241043Z 08007KT 8SM SCT006 SCT016 BKN180 22/20 A2992 RMK AO2 SCT006 V BKN T02170200=
201807240952 METAR KATL 240952Z 09006KT 9SM OVC008 22/21 A2991 RMK AO2 SLP120 CIG 006V010 BINOVC T02170206=
201807240852 METAR KATL 240852Z 09007KT 8SM BKN006 BKN075 BKN180 22/21 A2991 RMK AO2 SLP117 CIG 005V007 T02170206 55001=
201807240817 SPECI KATL 240817Z 09007KT 8SM BKN005 BKN075 OVC180 22/21 A2990 RMK AO2 T02170206=
201807240752 METAR KATL 240752Z 08008KT 10SM CLR 22/21 A2990 RMK AO2 SLP114 T02170206=
201807240652 METAR KATL 240652Z 05009KT 10SM FEW009 SCT048 OVC180 22/20 A2990 RMK AO2 SLP116 T02220200=
201807240552 METAR KATL 240552Z 04005KT 10SM FEW009 FEW055 SCT110 BKN150 OVC180 22/20 A2991 RMK AO2 RAE43 SLP118 P0002 60082 T02220200 10272 20222 58001=
201807240542 SPECI KATL 240542Z 04005KT 10SM -RA FEW009 FEW055 SCT110 BKN150 OVC180 22/20 A2991 RMK AO2 P0002 T02220200=
201807240452 METAR KATL 240452Z 02007KT 8SM -RA FEW020 BKN070 BKN110 OVC150 23/21 A2992 RMK AO2 SLP121 TSE52 TS DSIPTD P0006 T02280206 402940200=
201807240352 METAR KATL 240352Z 25003KT 5SM VCTS RA BR FEW025CB BKN050 BKN080 OVC150 22/21 A2992 RMK AO2 SLP121 OCNL LTGIC N & SE-SW TS VC N & SE-SW MOV NW P0014 T02220206=
201807240327 SPECI KATL 240327Z 16005KT 4SM TSRA BR SCT025CB BKN040 BKN070 OVC150 22/21 A2993 RMK AO2 TSB26 VIS LWR S-W OCNL LTGIC NE-SE-SW TS NE-SE-SW MOV NW P0005 T02220206=
201807240325 SPECI KATL 240325Z 14005KT 4SM VCTS RA BR SCT025CB BKN040 BKN070 OVC150 22/21 A2992 RMK AO2 VIS LWR S-W OCNL LTGIC NE-SE-SW TS NE-SE-SW MOV NW P0005 T02220206=
201807240252 METAR KATL 240252Z 02005KT 4SM VCTS RA FEW025CB BKN050 BKN080 OVC150 23/19 A2991 RMK AO2 SLP120 TSB16 OCNL LTGIC NE-SE TS VC NE-SE MOV W P0005 60060 T02280194 51021=
201807240216 SPECI KATL 240216Z 36008KT 2SM +TSRA SCT025CB BKN050 OVC150 24/20 A2991 RMK AO2 TSB16 OCNL LTGICCG OHD-NE TS OHD-NE MOV W P0000 T02440200=
201807240209 SPECI KATL 240209Z 31004KT 2SM +RA SCT025CB BKN050 BKN120 OVC200 23/21 A2990 RMK AO2 CB OHD-NE-SE MOV SW P0000 T02330206=
201807240152 METAR KATL 240152Z 31006KT 10SM -RA SCT025CB BKN070 BKN150 BKN200 23/21 A2990 RMK AO2 SLP114 RAB09 TSB09E50 TS DSIPTD CB NE-E & S-SW MOV SW P0055 T02280206=
201807240110 SPECI KATL 240110Z 30006KT 10SM VCTS -RA SCT035CB BKN060 BKN090 BKN250 24/21 A2988 RMK AO2 TSB09 OCNL LTGIC NW TS VC NW MOV SW P0000 T02390206=
201807240052 METAR KATL 240052Z 29008KT 10SM SCT035TCU BKN080 BKN250 24/20 A2988 RMK AO2 RAB04E27 SLP107 SHRA N-NE & SW CB DSNT NE TCU ALQDS P0000 T02440200=
201807232352 METAR KATL 232352Z 24003KT 10SM SCT035TCU BKN080 BKN250 27/19 A2985 RMK AO2 SLP098 SHRA W-NW CB DSNT E-SE TCU OHD-W 60000 T02720194 10294 20261 53012=
201807232252 METAR KATL 232252Z 21004KT 10SM SCT035TCU BKN090 BKN250 27/19 A2983 RMK AO2 SLP090 TCU OHD-SW & NW-N T02720194=
201807232152 METAR KATL 232152Z 19005KT 10SM SCT035TCU BKN080 BKN250 28/19 A2982 RMK AO2 RAB27E48 SLP089 CB DSNT SW TCU OHD & NE & NW P0000 T02830189=
201807232052 SPECI KATL 232052Z 00000KT 10SM SCT038TCU SCT050 BKN080 BKN250 28/19 A2981 RMK AO2 SLP086 CB DSNT S TCU N-NE-E & SW-NW T02830189 56013=
201807232052 METAR KATL 232052Z 00000KT 10SM SCT038TCU SCT050 BKN080 BKN250 28/19 A2981 RMK AO2 SLP086 CB DSNT S TCU N-NE-E & SW-NW T02830189 56013=
201807231952 METAR KATL 231952Z 04003KT 10SM SCT037TCU BKN047 BKN090 BKN250 28/19 A2982 RMK AO2 SLP089 TCU SW-NW-N T02780189=
201807231852 METAR KATL 231852Z 09004KT 10SM FEW035CB SCT050TCU BKN090 BKN250 28/19 A2984 RMK AO2 SLP094 CB SE MOV S TCU SW-NW SHRA VC SE T02780194=
201807231752 METAR KATL 231752Z 10004KT 10SM SCT038TCU BKN050 BKN080 BKN250 28/20 A2985 RMK AO2 SLP100 TCU NE-SE & SW-NW T02780200 10278 20217 51004 $=
201807231652 METAR KATL 231652Z VRB03KT 10SM BKN030TCU BKN040 BKN250 26/19 A2985 RMK AO2 SLP100 TCU OHD & ALQDS T02610189=
201807231552 METAR KATL 231552Z VRB03KT 10SM SCT023TCU 27/19 A2986 RMK AO2 SLP100 TCU NE-SE-S MDT CU SW-NW T02670194=
201807231452 METAR KATL 231452Z 35005KT 10SM SCT018 24/19 A2984 RMK AO2 SLP096 T02440189 53006=
201807231352 METAR KATL 231352Z 33005KT 10SM SCT012 24/19 A2983 RMK AO2 SLP092 T02390194=
201807231252 METAR KATL 231252Z 31006KT 10SM FEW010 FEW100 FEW180 FEW250 23/20 A2982 RMK AO2 SLP091 T02280200=
201807231152 METAR KATL 231152Z 29005KT 10SM FEW090 FEW200 FEW250 22/19 A2983 RMK AO2 SLP089 70015 T02170189 10217 20200 53008=
201807231052 METAR KATL 231052Z 00000KT 10SM SCT090 SCT200 SCT250 20/18 A2982 RMK AO2 SLP090 T02000183=
201807230952 METAR KATL 230952Z 22003KT 10SM SCT090 SCT200 20/18 A2980 RMK AO2 SLP081 T02000183=
201807230852 METAR KATL 230852Z 18003KT 10SM SCT085 SCT200 20/18 A2980 RMK AO2 SLP081 T02000183 53005=
201807230752 METAR KATL 230752Z 28004KT 10SM BKN080 BKN200 21/18 A2980 RMK AO2 SLP079 T02060183=
201807230652 METAR KATL 230652Z 28005KT 10SM FEW090 SCT130 SCT200 SCT250 21/18 A2979 RMK AO2 SLP077 T02060178=
201807230552 METAR KATL 230552Z 31005KT 10SM FEW130 FEW200 FEW250 21/18 A2979 RMK AO2 SLP076 60015 T02110183 10278 20206 58016=
201807230452 METAR KATL 230452Z 00000KT 10SM SCT130 SCT200 SCT250 21/19 A2981 RMK AO2 SLP085 T02060189 403060206=
201807230352 METAR KATL 230352Z 30003KT 10SM SCT120 SCT200 BKN250 21/19 A2982 RMK AO2 SLP088 T02110189=
201807230252 METAR KATL 230252Z 00000KT 10SM FEW075 BKN100 BKN200 BKN250 22/19 A2984 RMK AO2 SLP094 ACC NE-SE 60015 T02170194 51021=
201807230152 METAR KATL 230152Z 21003KT 10SM SCT070 BKN090 BKN150 BKN200 21/19 A2982 RMK AO2 LTG DSNT E-S RAE44 TSE30 SLP087 TS MOV SE CONS LTGICCA DSNT E-S CB DSNT E-S ACC N-OHD-S P0009 T02110194=
201807230131 SPECI KATL 230131Z 35008KT 10SM -RA FEW075 BKN100 BKN150 BKN200 22/19 A2981 RMK AO2 LTG DSNT E-S TSE30 TS MOV SE FRQ LTGICCA DSNT E-S CB DSNT E-S P0009 T02170189=
201807230052 METAR KATL 230052Z 01014KT 4SM +TSRA SCT048CB BKN075 BKN100 OVC150 21/18 A2983 RMK AO2 SLP091 VIS LWR N-E FRQ LTGICCGCA OHD-ALQDS TS OHD-ALQDS MOV SE P0006 T02110183=
201807230032 SPECI KATL 230032Z 33015G24KT 6SM -TSRA BKN048CB BKN100 BKN150 OVC200 22/18 A2981 RMK AO2 LTG DSNT S-W VIS LWR NW-NE-E OCNL LTGICCGCA OHD-ALQDS TS OHD-ALQDS MOV SE P0001 T02170183=
201807222352 METAR KATL 222352Z 33007KT 10SM -TSRA SCT046CB SCT090 BKN160 BKN250 28/18 A2977 RMK AO2 LTG DSNT W SLP070 RAB30 TSB25 OCNL LTGICCGCA SW-NW TS SW-NW MOV SE CB DSNT NW-N P0000 60000 T02780183 10306 20278 52005=
201807222335 SPECI KATL 222335Z 32005KT 8SM -TSRA SCT046CB SCT080 BKN180 BKN250 28/18 A2978 RMK AO2 LTG DSNT W AND NW RAB30 TSB25 OCNL LTGICCGCA W-NW TS W-NW MOV SE CB DSNT NW-N P0000 T02830183=
201807222326 SPECI KATL 222326Z 30007KT 10SM VCTS FEW046CB SCT080 BKN180 BKN250 28/18 A2977 RMK AO2 LTG DSNT W-N TSB25 OCNL LTGICCGCA VC W-NW TS VC W-NW MOV SE CB DSNT N T02830183=
201807222252 METAR KATL 222252Z 27009KT 10SM FEW048TCU SCT095 BKN200 BKN250 29/18 A2976 RMK AO2 LTG DSNT NW SLP068 CB DSNT NE & SE & S & NW TCU NW T02890183=
201807222152 METAR KATL 222152Z 28008KT 10SM FEW048TCU SCT100 BKN200 BKN250 30/18 A2976 RMK AO2 SLP067 CB DSNT NW-NE TCU SE & SW T03000183=
201807222052 METAR KATL 222052Z 30011KT 10SM SCT050 SCT200 BKN250 30/18 A2975 RMK AO2 SLP065 CB DSNT NE & NW-N TCU DSNT W T03000183 56020=
201807221952 METAR KATL 221952Z 29010KT 10SM SCT050 SCT250 31/19 A2976 RMK AO2 SLP067 MDT CU W T03060189=
201807221852 METAR KATL 221852Z 30012KT 10SM SCT045 SCT250 30/19 A2978 RMK AO2 SLP073 MDT CU S-W AND DSNT NE T03000189=
201807221752 METAR KATL 221752Z 27009G16KT 230V290 10SM SCT044 30/20 A2982 RMK AO2 SLP085 MDT CU SE-W T03000200 10300 20222 58009=
201807221652 METAR KATL 221652Z 29012G15KT 10SM SCT040 29/19 A2984 RMK AO2 SLP092 T02890194=
201807221552 METAR KATL 221552Z 29009KT 10SM SCT035 28/19 A2985 RMK AO2 SLP097 T02830194=
201807221452 METAR KATL 221452Z 29010KT 10SM FEW028 FEW080 FEW250 27/20 A2984 RMK AO2 SLP096 T02720200 51005=
201807221352 METAR KATL 221352Z 31011KT 10SM FEW025 FEW250 26/19 A2984 RMK AO2 SLP094 T02610194=
201807221252 METAR KATL 221252Z 31008KT 10SM FEW200 FEW250 24/19 A2984 RMK AO2 SLP093 T02390189=
201807221152 METAR KATL 221152Z 29008KT 10SM FEW250 22/19 A2983 RMK AO2 SLP091 70025 T02220189 10222 20211 53008=
201807221052 METAR KATL 221052Z 27008KT 10SM FEW250 21/19 A2982 RMK AO2 SLP088 T02110189=
201807220952 METAR KATL 220952Z 27005KT 10SM FEW250 21/19 A2981 RMK AO2 SLP084 T02110189=
201807220852 METAR KATL 220852Z 29006KT 10SM CLR 21/19 A2980 RMK AO2 SLP081 T02110189 58011=
201807220752 METAR KATL 220752Z 28005KT 10SM CLR 22/19 A2981 RMK AO2 SLP084 T02170194=
201807220652 METAR KATL 220652Z 27006KT 10SM CLR 22/19 A2983 RMK AO2 SLP090 T02170194=
201807220552 METAR KATL 220552Z 28008KT 10SM FEW120 FEW200 FEW250 22/19 A2984 RMK AO2 SLP093 T02220194 10272 20222 50001=
201807220452 METAR KATL 220452Z 28006KT 10SM FEW048 FEW120 SCT200 SCT250 22/19 A2985 RMK AO2 SLP099 T02220194 403220200=
201807220352 METAR KATL 220352Z 27008KT 10SM FEW050 FEW110 SCT200 SCT250 23/20 A2985 RMK AO2 SLP097 FRQ LTGICCA DSNT S CB DSNT S T02280200=
201807220252 METAR KATL 220252Z 27009KT 10SM FEW050 FEW120 SCT200 BKN250 23/19 A2983 RMK AO2 SLP093 OCNL LTGICCA DSNT SW CB DSNT SW TCU DSNT N T02280194 51007=
201807220152 METAR KATL 220152Z 24006KT 10SM FEW026 FEW050 SCT120 BKN250 24/21 A2983 RMK AO2 SLP092 CB DSNT N-NE & SW-W T02440206=
201807220052 METAR KATL 220052Z 24007G17KT 10SM FEW014 FEW028 FEW110 BKN250 26/22 A2983 RMK AO2 LTG DSNT NW-E SLP091 CB DSNT NW-NE-E & SW TCU DSNT SW & NW T02560222=
201807212352 METAR KATL 212352Z 24007KT 10SM FEW026 FEW070 SCT120 BKN200 27/24 A2981 RMK AO2 LTG DSNT N-E SLP086 RAE18 TSE32 TS MOV E CB DSNT N-E & SW & NW P0010 60010 T02670239 10322 20267 56012=
201807212334 SPECI KATL 212334Z 29008KT 10SM FEW028 FEW040 SCT110 BKN200 27/24 A2981 RMK AO2 LTG DSNT N-E RAE18 TSE32 TS MOV E CB DSNT N-E & NW TCU DSNT SW P0010 T02720239=
201807212320 SPECI KATL 212320Z 28008KT 10SM VCTS FEW018 SCT038CB BKN100 BKN200 28/24 A2982 RMK AO2 LTG DSNT N RAE18 OCNL LTGICCGCA VC NE-SE TS VC NE-SE MOV E CB DSNT N P0010 T02830239=
201807212252 METAR KATL 212252Z 23006KT 10SM -TSRA SCT036CB SCT075 BKN110 BKN200 29/22 A2981 RMK AO2 LTG DSNT SW AND W SLP084 RAB46 TSB38 OCNL LTGICCGCA SW-NW TS SW-NW MOV E CBMAM SE MOV SE CB DSNT SW-W P0000 T02890217=
201807212241 SPECI KATL 212241Z 24008KT 10SM VCTS FEW036CB FEW075 BKN180 BKN250 29/22 A2981 RMK AO2 LTG DSNT SW AND W TSB38 OCNL LTGICCGCA VC SW-W TS VC SW-W MOV SE CB NW MOV SE CBMAM SE-S MOV SE CB DSNT SW-W T02940217=
201807212152 METAR KATL 212152Z 26008KT 10SM FEW036 FEW065 SCT200 BKN250 30/22 A2981 RMK AO2 LTG DSNT W SLP084 CB DSNT SW-W T03000217=
201807212052 METAR KATL 212052Z 28013KT 10SM SCT036 SCT065 SCT250 32/23 A2985 RMK AO2 SLP095 T03170228 55010=
201807211952 METAR KATL 211952Z 23008KT 10SM FEW030 FEW070 FEW250 31/22 A2984 RMK AO2 SLP093 T03060222=
201807211852 METAR KATL 211852Z 24007KT 10SM FEW025 FEW065 FEW250 29/23 A2985 RMK AO2 SLP098 T02940228=
201807211752 METAR KATL 211752Z 18005KT 10SM FEW022 FEW070 FEW250 27/22 A2988 RMK AO2 SLP106 60015 T02720217 10278 20206 58019=
201807211652 METAR KATL 211652Z 19007KT 10SM SCT020 BKN065 BKN250 26/21 A2992 RMK AO2 SLP121 T02610211=
201807211648 SPECI KATL 211648Z 19008KT 10SM SCT020 BKN065 BKN250 26/21 A2992 RMK AO2=
201807211636 SPECI KATL 211636Z 22006KT 10SM BKN016 BKN060 BKN250 26/21 A2993 RMK AO2 T02560211=
201807211552 METAR KATL 211552Z VRB04KT 10SM BKN012 BKN065 BKN250 25/21 A2994 RMK AO2 SLP128 T02500206=
201807211452 METAR KATL 211452Z 13006KT 10SM BKN012 BKN250 24/20 A2993 RMK AO2 SLP126 60015 T02390200 56007=
201807211425 SPECI KATL 211425Z 15006KT 10SM BKN010 BKN015 23/20 A2994 RMK AO2 CIG 008V012 T02280200=
201807211352 METAR KATL 211352Z 10006KT 10SM BKN009 22/20 A2994 RMK AO2 RAE1257 SLP129 CIG 007V012 P0000 T02220200=
201807211307 SPECI KATL 211307Z 35005KT 10SM SCT005 BKN009 BKN015 21/19 A2994 RMK AO2 RAE1257 P0000 T02110189 $=
201807211252 METAR KATL 211252Z 01004KT 7SM -RA FEW008 BKN013 BKN032 BKN130 BKN200 21/19 A2993 RMK AO2 LTG DSNT S AND SW SLP127 CIG 010V017 CB DSNT SE-SW P0015 T02110194 $=
201807211247 SPECI KATL 211247Z 36006KT 7SM -RA BKN013 BKN034 BKN100 BKN200 21/19 A2994 RMK AO2 LTG DSNT SE-SW CIG 010V017 P0015 $=
201807211152 METAR KATL 211152Z 32007KT 3SM +RA BR FEW008 SCT020 OVC040 21/19 A2996 RMK AO2 PK WND 36035/1103 WSHFT 1058 LTG DSNT ALQDS SLP135 TSE45 OCNL LTGICCA DSNT SE-SW TS MOV SE P0095 60096 70096 T02060189 10244 20200 53020 $=
201807211147 SPECI KATL 211147Z 32010KT 4SM RA BR FEW008 BKN035 OVC070 21/19 A2997 RMK AO2 PK WND 36035/1103 WSHFT 1058 LTG DSNT ALQDS TSE45 OCNL LTGICCA DSNT SE TS MOV SE P0093 $=
201807211131 SPECI KATL 211131Z 26008KT 3SM +TSRA BR FEW015CB OVC025 20/19 A2994 RMK AO2 PK WND 36035/1103 WSHFT 1058 LTG DSNT ALQDS FRQ LTGICCA OHD-E-SE TS OHD-E-SE MOV SE P0085 T02000189 $=
201807211113 SPECI KATL 211113Z 01014G27KT 1SM R09R/1800VP6000FT +TSRA BR FEW015CB BKN027 OVC038 21/19 A2996 RMK AO2 PK WND 36035/1103 WSHFT 1058 LTG DSNT ALQDS FRQ LTGICCG OHD-ALQDS TS OHD-ALQDS MOV SE P0012 T02060189 $=
201807211112 SPECI KATL 211112Z 36016G35KT 1 1/2SM R09R/1800VP6000FT +TSRA BR FEW015CB BKN027 OVC038 21/19 A2997 RMK AO2 PK WND 36035/1103 WSHFT 1058 LTG DSNT ALQDS FRQ LTGICCG OHD-ALQDS TS OHD-ALQDS MOV SE P0005 T02060189 $=
201807211106 SPECI KATL 211106Z 36023G35KT 1 1/2SM -TSRA SCT015CB SCT027 OVC038 22/19 A2997 RMK AO2 PK WND 36035/1103 LTG DSNT ALQDS PRESRR FRQ LTGICCG OHD-NW-NE TS OHD-NW-NE MOV SE P0000 T02220189 $=
201807211058 SPECI KATL 211058Z 35014G25KT 7SM -TSRA SCT031CB BKN042 OVC055 23/21 A2996 RMK AO2 LTG DSNT ALQDS PRESRR FRQ LTGICCG NW-NE TS NW-NE MOV SE P0000 T02330211 $=
201807211052 METAR KATL 211052Z 22005KT 7SM VCTS -RA SCT029CB BKN042 BKN055 BKN200 23/21 A2990 RMK AO2 LTG DSNT ALQDS SLP114 RAB43TSB47 FRQ LTGICCG NW-NE-E TS VC NW-NE-E MOV SE P0001 T02330211 $=
201807211050 SPECI KATL 211050Z 21008KT 7SM VCTS -RA SCT029CB BKN042 BKN055 BKN200 23/21 A2990 RMK AO2 LTG DSNT NW-E RAB43TSB47 FRQ LTGICCG NW-NE-E TS VC NW-NE-E MOV SE P0001 $=
201807211004 SPECI KATL 211004Z 20006KT 10SM SCT024 BKN044 24/21 A2989 RMK AO2 LTG DSNT N AND NW T02390206 $=
201807210952 METAR KATL 210952Z 19007KT 10SM BKN024 BKN046 24/21 A2990 RMK AO2 SLP112 T02390206 $=
201807210945 SPECI KATL 210945Z 19007KT 10SM BKN024 BKN046 24/21 A2989 RMK AO2 T02390206 $=
201807210852 METAR KATL 210852Z 00000KT 10SM BKN050 24/20 A2991 RMK AO2 SLP116 T02390200 56020 $=
201807210752 METAR KATL 210752Z 19004KT 10SM FEW039 FEW110 23/21 A2992 RMK AO2 SLP119 T02330206 $=
201807210652 METAR KATL 210652Z 16004KT 10SM SCT039 BKN110 BKN150 24/21 A2995 RMK AO2 SLP130 T02440206 $=
201807210552 METAR KATL 210552Z 15004KT 10SM BKN110 BKN150 25/21 A2997 RMK AO2 SLP136 T02500206 10283 20244 56008 $=
201807210452 METAR KATL 210452Z 00000KT 10SM SCT150 SCT250 25/21 A2997 RMK AO2 SLP137 T02500206 403060233 $=
201807210352 METAR KATL 210352Z 18004KT 10SM FEW150 SCT250 25/21 A2998 RMK AO2 SLP142 T02500211 $=
201807210252 METAR KATL 210252Z 00000KT 10SM SCT250 26/21 A2999 RMK AO2 SLP144 T02610206 53010 $=
201807210152 METAR KATL 210152Z 16004KT 10SM SCT250 26/21 A2997 RMK AO2 SLP138 T02610206 $=
201807210052 METAR KATL 210052Z 13006KT 10SM FEW040 SCT250 27/20 A2996 RMK AO2 SLP133 T02720200 $=
201807202352 METAR KATL 202352Z 13006KT 10SM FEW040 SCT250 28/20 A2996 RMK AO2 SLP134 T02830200 10306 20278 58001 $=
201807202252 METAR KATL 202252Z 13006KT 10SM FEW040 BKN250 29/20 A2996 RMK AO2 SLP134 T02890200 $=
201807202152 METAR KATL 202152Z 09006KT 10SM SCT040 BKN250 30/20 A2996 RMK AO2 SLP136 T03000200 $=
201807202052 METAR KATL 202052Z 12005KT 10SM SCT038 BKN250 30/21 A2996 RMK AO2 SLP135 T03000206 58019=
201807201952 METAR KATL 201952Z 07007KT 10SM SCT035 SCT055 BKN250 29/20 A2999 RMK AO2 SLP145 MDT CU S-W T02890200=
201807201852 METAR KATL 201852Z 06007KT 10SM SCT035 SCT055 SCT110 BKN250 29/21 A3001 RMK AO2 SLP151 MDT CU ALQDS T02940206=
201807201752 METAR KATL 201752Z 09009KT 10SM SCT025 SCT045 BKN100 BKN250 29/21 A3002 RMK AO2 SLP154 MDT CU ALQDS 60000 T02940211 10294 20239 58010=
201807201652 METAR KATL 201652Z 07010KT 8SM SCT020 BKN050 BKN120 BKN250 27/21 A3003 RMK AO2 SLP159 MDT CU ALQDS T02720211=
201807201552 METAR KATL 201552Z 08008KT 10SM FEW015 BKN045 BKN120 26/22 A3005 RMK AO2 RAB15E32 SLP164 P0000 T02610217=
201807201510 SPECI KATL 201510Z 06010KT 10SM BKN014 BKN025 BKN120 25/21 A3005 RMK AO2 T02500211=
201807201452 METAR KATL 201452Z 09007KT 10SM BKN015 BKN019 OVC030 26/22 A3005 RMK AO2 SLP166 T02560217 51013=
201807201352 METAR KATL 201352Z 07009KT 10SM BKN013 BKN020 OVC120 24/21 A3004 RMK AO2 SLP163 T02440211=
201807201303 SPECI KATL 201303Z 09009G16KT 8SM BKN013 BKN023 BKN110 25/21 A3003 RMK AO2 T02500211=
201807201252 METAR KATL 201252Z 05008KT 10SM SCT012 SCT025 SCT110 BKN250 24/21 A3003 RMK AO2 SLP159 T02440211=
201807201248 SPECI KATL 201248Z 07010KT 10SM SCT010 SCT023 SCT110 BKN250 24/21 A3003 RMK AO2=
201807201152 METAR KATL 201152Z 08008KT 8SM OVC010 24/21 A3001 RMK AO2 SLP154 CIG 008V012 60000 70004 T02390211 10239 20233 53014=
201807201134 SPECI KATL 201134Z 07008KT 8SM BKN010 OVC020 24/21 A3001 RMK AO2 CIG 008V012 T02390211=
201807201052 METAR KATL 201052Z 07009KT 7SM BKN008 OVC015 23/21 A2999 RMK AO2 SLP146 CIG 007V010 T02330211=
201807200952 METAR KATL 200952Z 07009KT 8SM BKN005 OVC022 23/22 A2997 RMK AO2 SLP138 CIG 004V007 T02330217=
201807200852 METAR KATL 200852Z 07009KT 10SM BKN005 OVC020 23/22 A2997 RMK AO2 SLP137 CIG 003V007 60000 T02330217 56010=
201807200752 METAR KATL 200752Z 08009KT 10SM BKN006 BKN013 OVC038 23/22 A2997 RMK AO2 RAE11 SLP138 CIG 004V008 BINOVC P0000 T02330217=
201807200733 SPECI KATL 200733Z 07008KT 10SM FEW006 SCT013 BKN040 OVC130 23/22 A2998 RMK AO2 RAE11 P0000 T02330217=
201807200652 METAR KATL 200652Z 06008KT 10SM -RA SCT008 BKN015 OVC036CB 24/22 A2999 RMK AO2 RAB48 SLP144 CIG 013V017 CB NW-NE MOV W P0000 T02390217=
201807200614 SPECI KATL 200614Z 09004KT 10SM FEW007 BKN017 BKN040 OVC250 24/22 A2999 RMK AO2 CIG 015V019 T02390217=
201807200552 METAR KATL 200552Z 09006KT 10SM SCT010 BKN017 OVC045 24/22 A3000 RMK AO2 SLP148 CIG 015V019 60001 T02390217 10244 20239 58004=
201807200512 SPECI KATL 200512Z 07006KT 10SM BKN010 BKN028 BKN100 BKN250 24/22 A3000 RMK AO2 CIG 008V012 T02390217=
201807200452 METAR KATL 200452Z 08006KT 10SM FEW008 BKN015 BKN030 BKN200 24/22 A3001 RMK AO2 SLP150 T02390217 403280233=
201807200352 METAR KATL 200352Z 10004KT 10SM FEW008 BKN015 BKN040 BKN200 24/22 A3002 RMK AO2 RAE01 SLP153 P0000 T02390222=
201807200252 METAR KATL 200252Z 09005KT 10SM -RA SCT008 BKN015 OVC030 24/22 A3001 RMK AO2 RAB02 SLP152 P0001 60001 T02390222 51014=
201807200152 METAR KATL 200152Z 10006KT 10SM FEW009 BKN018 BKN100 OVC200 24/22 A3001 RMK AO2 SLP151 SHRA SW-NW-N T02440217=
201807200126 SPECI KATL 200126Z 12006KT 10SM BKN020 BKN100 BKN150 OVC200 24/22 A3001 RMK AO2 T02440217=
201807200052 METAR KATL 200052Z 10008KT 10SM SCT070 BKN100 BKN150 OVC200 24/21 A3000 RMK AO2 LTG DSNT W RAE46 SLP149 CB DSNT W-NW P0000 T02390211=
201807192352 METAR KATL 192352Z 10010KT 10SM -RA FEW030 SCT060 BKN090 OVC150 24/21 A2997 RMK AO2 LTG DSNT S SLP138 CB DSNT SE-SW TCU DSNT W-NW P0003 60003 T02440211 10328 20244 53010=
201807192252 METAR KATL 192252Z 06012G20KT 9SM -RA FEW030 SCT120 BKN150 OVC200 28/22 A2995 RMK AO2 RAB25 SLP132 LTG DSNT S-SW CB DSNT NE & S-SW P0000 T02830217=
201807192152 METAR KATL 192152Z 06013KT 10SM FEW045 SCT150 BKN200 30/20 A2995 RMK AO2 LTG DSNT E AND SW SLP129 CB DSNT E & SW T03000200=
201807192052 METAR KATL 192052Z 09011KT 10SM FEW045 FEW150 BKN250 32/21 A2994 RMK AO2 LTG DSNT W SLP125 CB DSNT SW-W & DSNT NW TCU DSNT NE-SE T03220206 56015=
201807191952 METAR KATL 191952Z 09010KT 10SM FEW040 FEW150 BKN250 32/22 A2994 RMK AO2 LTG DSNT W AND NW SLP126 CB DSNT W-NW TCU DSNT NE-SE T03220217=
201807191852 METAR KATL 191852Z 07014G17KT 10SM FEW040 SCT150 SCT250 31/22 A2996 RMK AO2 SLP134 CB DSNT NW MDT CU N-NE T03110222=
201807191752 METAR KATL 191752Z 09012G16KT 10SM FEW035TCU SCT150 SCT250 31/23 A2998 RMK AO2 SLP141 TCU S-SW-W-NW T03060228 10317 20250 58004=
201807191652 METAR KATL 191652Z 09007G15KT 10SM BKN033TCU BKN250 30/22 A3000 RMK AO2 SLP147 TCU OHD & ALQDS T03000217=
201807191552 METAR KATL 191552Z 08007KT 10SM FEW030 SCT150 SCT250 31/23 A3001 RMK AO2 SLP149 T03110228=
201807191452 METAR KATL 191452Z 10009KT 10SM FEW030 FEW150 SCT250 29/22 A3000 RMK AO2 SLP145 T02890222 50002=
201807191352 METAR KATL 191352Z 07006KT 10SM FEW150 FEW250 28/23 A3000 RMK AO2 SLP147 T02830228=
201807191252 METAR KATL 191252Z 08008KT 9SM FEW030 FEW150 SCT200 BKN250 27/22 A3000 RMK AO2 SLP145 T02670222=
201807191152 METAR KATL 191152Z 07008KT 8SM FEW150 SCT200 BKN250 25/22 A2999 RMK AO2 SLP143 T02500222 10261 20233 53014=
201807191052 METAR KATL 191052Z 09007KT 9SM FEW030 FEW150 SCT200 BKN250 24/22 A2997 RMK AO2 SLP135 TCU DSNT NE T02440222=
201807190952 METAR KATL 190952Z 00000KT 10SM FEW012 FEW028 SCT150 SCT250 25/21 A2996 RMK AO2 SLP133 T02500211=
201807190852 METAR KATL 190852Z 15004KT 10SM FEW014 FEW150 SCT200 SCT250 24/21 A2995 RMK AO2 SLP128 T02390211 55001=
201807190752 METAR KATL 190752Z 00000KT 10SM FEW200 SCT250 24/21 A2993 RMK AO2 SLP124 T02390211=
201807190652 METAR KATL 190652Z 00000KT 10SM FEW055 SCT200 BKN250 24/21 A2994 RMK AO2 SLP126 T02390211=
201807190552 METAR KATL 190552Z 00000KT 10SM FEW100 SCT200 BKN250 26/21 A2995 RMK AO2 SLP130 T02560206 10317 20250 58008=
201807190452 METAR KATL 190452Z 00000KT 10SM FEW035 SCT200 BKN250 26/20 A2996 RMK AO2 SLP134 T02610200 403390233=
201807190352 METAR KATL 190352Z 19005KT 10SM SCT050 BKN250 26/21 A2997 RMK AO2 SLP136 T02610206=
201807190252 METAR KATL 190252Z 11005KT 10SM FEW035 SCT070 BKN250 26/20 A2997 RMK AO2 SLP139 TSE47 T02610200 53016=
201807190248 SPECI KATL 190248Z 13006KT 10SM FEW035 SCT070 BKN250 27/20 A2997 RMK AO2 TSE47 TS DSIPTD=
201807190152 METAR KATL 190152Z 21003KT 10SM TS BKN040CB BKN070 BKN250 28/21 A2996 RMK AO2 SLP134 TSB04 FRQ LTGICCG NE-SE TS NE-SE MOV S T02780211=
201807190148 SPECI KATL 190148Z 22005KT 10SM TS SCT040CB BKN070 BKN250 28/21 A2995 RMK AO2 TSB04 FRQ LTGICCG NE-SE TS NE-SE MOV S=
201807190105 SPECI KATL 190105Z 35010KT 10SM VCTS FEW045CB BKN250 30/21 A2992 RMK AO2 TSB04 OCNL LTGICCG SE-S TS VC SE-S MOV S T03000206=
201807190052 METAR KATL 190052Z 34008KT 10SM FEW050TCU BKN250 31/20 A2993 RMK AO2 LTG DSNT SE AND S SLP122 CB DSNT NE & SE-S TCU VC NE-SE T03060200=
201807182352 METAR KATL 182352Z 33009KT 10SM FEW050TCU BKN250 32/18 A2992 RMK AO2 SLP121 TCU VC S T03170183 10339 20311 53000=
201807182252 METAR KATL 182252Z 33008KT 10SM FEW050 BKN250 33/21 A2991 RMK AO2 SLP116 MDT CU S T03280206=
201807182152 METAR KATL 182152Z 32009KT 10SM FEW050 BKN250 33/21 A2991 RMK AO2 SLP115 TCU DSNT N T03280211=
201807182052 METAR KATL 182052Z VRB05KT 10SM FEW050TCU FEW150 SCT250 33/21 A2992 RMK AO2 SLP120 TCU SW-W MDT CU NW-N T03330206 58019=
201807181952 METAR KATL 181952Z 31008KT 10SM FEW047TCU SCT150 SCT250 33/21 A2994 RMK AO2 SLP126 TCU S-SW-W-NW T03330211=
201807181852 METAR KATL 181852Z 32010KT 10SM SCT040 SCT150 BKN250 33/22 A2996 RMK AO2 SLP133 CB DSNT SW TCU DSNT SW MDT CU DSNT NW T03280222=
201807181752 METAR KATL 181752Z 00000KT 10SM FEW040 FEW140 BKN220 32/22 A2998 RMK AO2 SLP139 ACC DSNT NW T03170217 10317 20233 58011=
201807181652 METAR KATL 181652Z 31008KT 10SM FEW030 BKN140 BKN250 31/22 A3000 RMK AO2 SLP147 ACC OHD-NW-N T03060222=
201807181552 METAR KATL 181552Z 00000KT 10SM FEW030 FEW150 SCT250 29/22 A3001 RMK AO2 SLP149 T02890222=
201807181452 METAR KATL 181452Z 32006KT 10SM FEW020 SCT150 BKN180 BKN250 27/23 A3001 RMK AO2 SLP151 T02720228 50002=
201807181352 METAR KATL 181352Z 31006KT 10SM FEW015 FEW150 BKN180 BKN250 26/22 A3001 RMK AO2 SLP152 T02610222=
201807181252 METAR KATL 181252Z 30008KT 8SM FEW010 SCT200 BKN250 25/22 A3002 RMK AO2 SLP153 T02500222=
201807181152 METAR KATL 181152Z 28009KT 6SM BR FEW007 SCT200 BKN250 23/22 A3000 RMK AO2 SLP149 T02330217 10261 20233 53016=
201807181148 SPECI KATL 181148Z 28006KT 6SM BR FEW007 SCT200 BKN250 23/22 A3000 RMK AO2=
201807181052 METAR KATL 181052Z 26007KT 9SM FEW200 BKN250 23/22 A2998 RMK AO2 SLP141 T02330217=
201807180952 METAR KATL 180952Z 28004KT 10SM CLR 24/22 A2996 RMK AO2 SLP133 T02390217=
201807180852 METAR KATL 180852Z 31003KT 10SM FEW150 SCT200 SCT250 24/22 A2996 RMK AO2 SLP132 T02440222 55010 $=
201807180752 METAR KATL 180752Z 32007KT 10SM FEW150 SCT200 25/22 A2995 RMK AO2 SLP130 T02500222 $=
201807180652 METAR KATL 180652Z 32009KT 10SM FEW150 SCT200 BKN250 26/22 A2997 RMK AO2 SLP135 T02560222 $=
201807180552 METAR KATL 180552Z 31006KT 10SM FEW150 SCT200 BKN250 26/23 A2999 RMK AO2 SLP142 T02610228 10294 20256 58004 $=
201807180452 METAR KATL 180452Z 32008KT 10SM SCT150 BKN250 26/23 A3000 RMK AO2 SLP148 T02610233 403280228 $=
201807180352 METAR KATL 180352Z 28008KT 10SM FEW150 BKN250 26/23 A3000 RMK AO2 SLP145 T02610233 $=
201807180252 METAR KATL 180252Z 26006KT 10SM FEW030 FEW150 BKN250 27/23 A3000 RMK AO2 SLP148 T02670233 53006 $=
201807180152 METAR KATL 180152Z 29005KT 10SM FEW100 BKN150 BKN250 28/23 A2999 RMK AO2 SLP143 T02780233 $=
201807180052 METAR KATL 180052Z 23006KT 10SM FEW035 BKN150 BKN250 28/23 A2999 RMK AO2 SLP144 T02830228 $=
201807172352 METAR KATL 172352Z 23007KT 10SM FEW035 SCT150 BKN250 29/23 A2998 RMK AO2 SLP141 TCU DSNT NE & SE T02940233 10328 20294 53005 $=
201807172252 METAR KATL 172252Z 24008KT 10SM FEW035 SCT200 BKN250 31/22 A2996 RMK AO2 SLP134 TCU DSNT SE & S & NW-NE T03060222 $=
201807172152 METAR KATL 172152Z 27007KT 10SM FEW040 SCT200 BKN250 31/22 A2997 RMK AO2 SLP136 CB DSNT NW TCU DSNT SW T03110222 $=
201807172052 METAR KATL 172052Z 26008KT 10SM FEW040 SCT200 SCT250 32/22 A2997 RMK AO2 SLP135 CB DSNT N TCU DSNT SE-S-SW T03220222 56018=
201807171952 METAR KATL 171952Z 28006KT 10SM SCT040TCU SCT200 BKN250 32/22 A2998 RMK AO2 SLP139 CB DSNT N TCU E-SE-S-SW-W T03170222=
201807171852 METAR KATL 171852Z 32007KT 10SM FEW040 SCT200 BKN250 32/22 A3000 RMK AO2 SLP146 CB DSNT N TCU DSNT W MDT CU E T03170222=
201807171752 METAR KATL 171752Z 25006KT 10SM FEW030TCU SCT200 BKN250 31/23 A3002 RMK AO2 SLP155 TCU SE-S T03110233 10317 20239 58012=
201807171652 METAR KATL 171652Z 29005KT 10SM SCT025 SCT200 BKN250 30/23 A3005 RMK AO2 SLP164 MDT CU NE-SE & SW-NW T03000233=
201807171552 METAR KATL 171552Z 28006KT 10SM FEW020 SCT200 BKN250 29/23 A3005 RMK AO2 SLP166 T02890228=
201807171452 METAR KATL 171452Z 29003KT 10SM SCT015 SCT200 BKN250 28/23 A3006 RMK AO2 SLP168 T02780233 58001=
201807171352 METAR KATL 171352Z 28006KT 10SM FEW005 FEW010 SCT250 27/23 A3007 RMK AO2 SLP171 T02720233 $=
201807171300 SPECI KATL 171300Z 27006KT 6SM BR SCT004 BKN250 26/23 A3007 RMK AO2 SCT004 V BKN T02560233 $=
201807171252 METAR KATL 171252Z 26005KT 2SM BR BKN004 BKN250 25/23 A3007 RMK AO2 SFC VIS 6 SLP173 CIG 003V005 BKN004 V SCT TWRINC T02500228 $=
201807171226 SPECI KATL 171226Z 24004KT 2SM BR BKN004 BKN250 24/23 A3006 RMK AO2 SFC VIS 4 CIG 002V005 BKN004 V SCT T02440228 $=
201807171152 METAR KATL 171152Z 00000KT 5SM BR SCT004 SCT110 BKN250 24/23 A3006 RMK AO2 SLP168 SCT004 V BKN 70037 T02390228 10239 20228 51016 $=
201807171129 SPECI KATL 171129Z 27003KT 5SM BR SCT004 SCT110 SCT250 23/22 A3005 RMK AO2 SCT004 V BKN T02330222 $=
201807171052 METAR KATL 171052Z 00000KT 6SM BR OVC004 23/22 A3005 RMK AO2 SLP164 CIG 003V005 T02330222=
201807170952 METAR KATL 170952Z 00000KT 4SM BR OVC004 23/22 A3003 RMK AO2 SLP159 CIG 003V005 BINOVC T02280217=
201807170852 METAR KATL 170852Z 23003KT 4SM BR BKN004 OVC180 23/22 A3001 RMK AO2 SLP151 CIG 002V005 T02280217 56009=
201807170752 METAR KATL 170752Z 20003KT 4SM BR BKN004 BKN060 OVC200 23/22 A3002 RMK AO2 SLP153 CIG 003V005 BKN004 V SCT T02330222=
201807170652 METAR KATL 170652Z 00000KT 6SM BR SCT003 SCT060 OVC200 23/22 A3003 RMK AO2 SLP156 SCT003 V BKN T02330222=
201807170615 SPECI KATL 170615Z 00000KT 5SM BR SCT003 SCT060 OVC180 23/22 A3003 RMK AO2 T02330222=
201807170552 METAR KATL 170552Z 16003KT 4SM BR BKN003 BKN110 BKN150 OVC200 23/22 A3004 RMK AO2 SLP161 VIS S 2 CIG 002V005 BKN003 V SCT 60037 T02330222 10289 20228 58007=
201807170535 SPECI KATL 170535Z 15003KT 5SM BR BKN004 BKN110 BKN150 OVC200 23/22 A3004 RMK AO2 CIG 003V005 BKN004 V SCT T02330222=
201807170452 METAR KATL 170452Z 13004KT 10SM SCT006 BKN110 BKN150 OVC200 23/22 A3005 RMK AO2 RAE32 SLP164 P0000 T02330222 403170228=
201807170352 METAR KATL 170352Z 00000KT 8SM -RA BKN110 OVC150 24/22 A3007 RMK AO2 SLP171 P0003 T02390222=
201807170252 METAR KATL 170252Z 16003KT 10SM -RA FEW015 BKN100 OVC150 23/22 A3006 RMK AO2 SLP169 TSE45 LTG DSNT NE P0003 60034 T02330217 51020=
201807170245 SPECI KATL 170245Z 18003KT 10SM -RA FEW015 BKN100 OVC150 23/22 A3006 RMK AO2 TSE45 LTG DSNT NE TS DSIPTD P0002 T02330217=
201807170152 METAR KATL 170152Z 28004KT 9SM VCTS -RA FEW020CB SCT080 BKN110 OVC150 24/22 A3004 RMK AO2 SLP162 FRQ LTGICCG NE-SE TS VC NE-SE MOV NE P0031 T02440217=
201807170114 SPECI KATL 170114Z 08006KT 4SM TSRA BR SCT020CB BKN060 BKN150 OVC200 23/21 A3003 RMK AO2 VIS LWR NE-SE FRQ LTGICCG N-OHD-S TS N-OHD-S MOV NE P0030 T02330211=
201807170057 SPECI KATL 170057Z 18012G17KT 2SM R09R/4500VP6000FT +TSRA BR SCT020CB BKN030 BKN150 BKN250 24/22 A3004 RMK AO2 PRESRR FRQ LTGICCG OHD-ALQDS TS OHD-ALQDS MOV NE P0007 T02390217=
201807170052 METAR KATL 170052Z 23012G19KT 9SM -TSRA SCT020CB BKN030 BKN150 BKN250 25/22 A3003 RMK AO2 PRESRR SLP158 TSB32 RAB49 FRQ LTGICCG SE-SW-NW TS SE-SW-NW MOV NE P0000 T02500217=
201807170032 SPECI KATL 170032Z 11006KT 10SM VCTS FEW020CB SCT050 BKN150 BKN250 28/23 A3001 RMK AO2 TSB32 OCNL LTGICCG S-W-NW TS VC S-W-NW MOV NE T02830233=
201807162352 METAR KATL 162352Z 14003KT 10SM FEW025 SCT150 BKN200 BKN250 29/23 A3000 RMK AO2 SLP147 LTG DSNT SW-NW CB DSNT SW-NW T02890228 10317 20283 55000=
201807162252 METAR KATL 162252Z 19005KT 10SM FEW025 BKN200 BKN250 30/22 A2999 RMK AO2 SLP145 LTG DSNT NW CB DSNT SW-W & NW T03000222=
201807162152 METAR KATL 162152Z 12006KT 10SM FEW025TCU SCT150 BKN200 BKN250 29/22 A3000 RMK AO2 SLP148 TCU OHD-W & DSNT SE T02890222=
201807162052 METAR KATL 162052Z 20003KT 10SM FEW025 SCT100 BKN250 29/22 A3000 RMK AO2 LTG DSNT NE-SE SLP147 CB DSNT NE-SE TCU DSNT S SHRA DSNT NE-SE T02940222 58019=
201807162034 SPECI KATL 162034Z 19005KT 10SM FEW025 SCT120 BKN250 29/22 A3001 RMK AO2 LTG DSNT NE-SE TS DSIPT CB DSNT NE-SE TCU DSNT S & NW SHRA DSNT NE-SE T02940222=
201807162019 SPECI KATL 162019Z 18008KT 10SM VCTS FEW025CB SCT100 BKN250 29/22 A3001 RMK AO2 LTG DSNT NE-SE OCNL LTGICCG E-SE TS VC E-SE MOV NE CB DSNT NE-E TCU DSNT N & S & NW SHRA VC E-SE & DSNT NE T02890222=
201807161952 METAR KATL 161952Z 27010KT 10SM VCTS FEW030CB SCT040TCU SCT070 BKN250 29/23 A3002 RMK AO2 LTG DSNT ALQDS SLP155 OCNL LTGICCG S TS VC S MOV E TCU NE-SE SHRA VC S T02890228=
201807161931 SPECI KATL 161931Z 26009G14KT 10SM VCTS FEW030CB SCT040TCU BKN250 31/23 A3002 RMK AO2 LTG DSNT ALQDS OCNL LTGICCG E & W TS VC E & W MOV E CB DSNT N-NE TCU NE & NW SHRA VC E & W T03110233=
201807161905 SPECI KATL 161905Z 28009KT 10SM VCTS FEW030CB SCT050 BKN250 31/23 A3003 RMK AO2 LTG DSNT N-E OCNL LTGICCG E TS VC E MOV E CB DSNT N-NE & DSNT W SHRA VC E T03110233=
201807161852 METAR KATL 161852Z 25007KT 10SM FEW030TCU SCT050 BKN250 31/22 A3004 RMK AO2 LTG DSNT N-E SLP160 CB DSNT N-NE-E TCU E-SE-S & DSNT NW T03060217=
201807161847 SPECI KATL 161847Z 25009KT 10SM VCTS FEW030TCU SCT050 BKN250 31/23 A3004 RMK AO2 LTG DSNT N-E CB DSNT N-NE-E TCU E-SE-S & DSNT NW=
201807161752 METAR KATL 161752Z 27008KT 10SM BKN023TCU BKN033 BKN250 29/24 A3006 RMK AO2 LTG DSNT N SLP167 CB DSNT NW TCU NE-SE-SW T02890239 10300 20244 58008=
201807161732 SPECI KATL 161732Z 28006KT 10SM SCT025TCU BKN035 BKN250 29/23 A3007 RMK AO2 TCU N & W T02940233=
201807161652 METAR KATL 161652Z 24005KT 10SM SCT017TCU BKN025 BKN250 29/23 A3007 RMK AO2 SLP173 TCU OHD-NW-N T02890233=
201807161637 SPECI KATL 161637Z 18005KT 9SM BKN017 BKN020 28/23 A3008 RMK AO2 T02830233=
201807161552 METAR KATL 161552Z 20003KT 9SM BKN014 BKN020 27/23 A3009 RMK AO2 SLP177 T02720233=
201807161452 METAR KATL 161452Z 22005KT 7SM BKN010 OVC015 26/23 A3008 RMK AO2 SLP176 T02610228=
201807161352 METAR KATL 161352Z 22005KT 9SM BKN007 OVC010 26/23 A3009 RMK AO2 SLP178 T02560228 $=
201807161348 SPECI KATL 161348Z 19004KT 8SM BKN007 OVC012 26/23 A3009 RMK AO2 $=
201807161252 METAR KATL 161252Z 18005KT 6SM BR BKN006 OVC033 25/23 A3007 RMK AO2 SLP172 CIG 005V008 T02500233=
201807161152 METAR KATL 161152Z 17004KT 6SM BR BKN007 OVC038 25/23 A3007 RMK AO2 SLP170 70001 T02500228 10256 20244 51009=
201807161115 SPECI KATL 161115Z 15003KT 6SM BR BKN008 BKN038 OVC100 24/23 A3007 RMK AO2 T02440228=
201807161052 METAR KATL 161052Z 12003KT 7SM FEW007 SCT036 BKN100 OVC150 24/23 A3006 RMK AO2 SLP167 T02440228=
201807160952 METAR KATL 160952Z 00000KT 10SM SCT009 BKN100 25/23 A3005 RMK AO2 SLP163 T02500228 $=
201807160948 SPECI KATL 160948Z 00000KT 10SM SCT009 BKN100 25/23 A3005 RMK AO2 $=
201807160904 SPECI KATL 160904Z 00000KT 10SM BKN009 BKN060 BKN200 24/22 A3004 RMK AO2 T02440222 $=
201807160852 METAR KATL 160852Z 00000KT 10SM SCT010 SCT060 BKN200 25/22 A3004 RMK AO2 SLP159 T02500222 55005 $=
201807160752 METAR KATL 160752Z 06003KT 10SM FEW014 SCT060 BKN220 25/22 A3003 RMK AO2 SLP157 T02500217 $=
201807160652 METAR KATL 160652Z 06004KT 10SM SCT014 BKN060 OVC220 25/22 A3001 RMK AO2 SLP151 T02500217 $=
201807160552 METAR KATL 160552Z 07005KT 10SM SCT014 SCT060 OVC220 25/22 A3005 RMK AO2 SLP164 SCT014 V BKN 60000 T02500217 10289 20244 58007 $=
201807160540 SPECI KATL 160540Z 01005KT 10SM BKN014 BKN020 BKN060 OVC220 25/21 A3006 RMK AO2 BKN014 V SCT T02500211 $=
201807160533 SPECI KATL 160533Z 01004KT 10SM FEW014 SCT020 BKN060 OVC250 25/21 A3006 RMK AO2 T02500211 $=
201807160528 SPECI KATL 160528Z 02004KT 10SM SCT014 BKN020 BKN033 OVC250 25/21 A3006 RMK AO2 T02500211 $=
201807160517 SPECI KATL 160517Z 35007KT 10SM BKN014 BKN022 BKN033 26/21 A3006 RMK AO2 T02560211 $=
201807160510 SPECI KATL 160510Z 36005KT 10SM SCT014 BKN022 BKN033 25/21 A3007 RMK AO2 T02500211 $=
201807160452 METAR KATL 160452Z 31003KT 10SM FEW012 SCT022 SCT060 BKN200 25/21 A3006 RMK AO2 LTG DSNT NE SLP169 CB DSNT NE T02500211 403220233 $=
201807160352 METAR KATL 160352Z 00000KT 10SM FEW012 SCT036TCU SCT120 BKN200 26/23 A3007 RMK AO2 LTG DSNT N SLP171 CB DSNT N TCU N SHRA N T02560228 $=
201807160252 METAR KATL 160252Z 20008KT 10SM FEW012 SCT034 BKN120 BKN200 26/23 A3007 RMK AO2 SLP172 FRQ LTGICCA DSNT W-N CB DSNT W-N 60000 T02610233 51018 $=
201807160152 METAR KATL 160152Z 19006KT 10SM FEW018 BKN034 BKN110 BKN200 27/23 A3006 RMK AO2 SLP168 CONS LTGICCA DSNT SW-NW CB DSNT SW-NW T02720233 $=
201807160052 METAR KATL 160052Z 16006KT 10SM FEW030 FEW060 SCT100 BKN200 28/23 A3004 RMK AO2 RAB2358E43 TSE49 SLP161 TS MOV W OCNL LTGICCA DSNT SW-NW CB DSNT SW-NW P0000 T02780233 $=
201807152352 METAR KATL 152352Z 15007KT 10SM TS FEW036CB SCT075 SCT110 BKN250 28/23 A3002 RMK AO2 LTG DSNT W SLP154 TSB39 OCNL LTGICCA N-NE & VC W TS N-NE & VC W MOV SW TCU S-SW & NW 60001 T02830228 10322 20283 55001 $=
201807152343 SPECI KATL 152343Z 15006KT 10SM TS SCT038CB SCT075 BKN110 BKN250 29/23 A3001 RMK AO2 TSB39 OCNL LTGICCA NE & VC W TS NE & VC W MOV SW TCU N & S-SW T02890228 $=
201807152252 METAR KATL 152252Z 18006KT 10SM SCT040TCU SCT085 BKN250 31/23 A3001 RMK AO2 SLP153 TCU SE-SW-NW T03060228 $=
201807152152 METAR KATL 152152Z 16006KT 10SM SCT038TCU SCT060 BKN250 31/22 A3002 RMK AO2 SLP155 TCU ALQDS T03060217 $=
201807152052 METAR KATL 152052Z 00000KT 10SM SCT038TCU SCT050 BKN250 32/22 A3002 RMK AO2 SLP154 TCU N & DSNT E MDT CU OHD & S & W 60001 T03170222 56022 $=
201807151952 METAR KATL 151952Z 00000KT 10SM SCT038TCU SCT085 BKN250 31/23 A3003 RMK AO2 RAB08E37 SLP158 TCU ALQDS MDT CU OHD P0001 T03110228 $=
201807151852 METAR KATL 151852Z 00000KT 10SM SCT035TCU BKN065 BKN250 30/22 A3007 RMK AO2 SLP170 TCU OHD-W & S & NW MDT CU E-SE T03000222 $=
201807151752 METAR KATL 151752Z 13005KT 10SM SCT032TCU BKN045 BKN250 30/23 A3009 RMK AO2 SLP178 TCU OHD-W & NE & SE T03000228 10306 20233 58006 $=
201807151652 METAR KATL 151652Z 00000KT 10SM BKN032TCU BKN055 BKN250 29/23 A3011 RMK AO2 SLP185 TCU OHD & ALQDS SHRA SW T02940228 $=
201807151612 SPECI KATL 151612Z 00000KT 8SM SCT025TCU BKN032 BKN070 BKN250 28/23 A3011 RMK AO2 TCU OHD & ALQDS SHRA SE-S-SW T02780228 $=
201807151552 METAR KATL 151552Z 23004KT 8SM FEW015 BKN023TCU BKN065 BKN250 27/23 A3011 RMK AO2 SLP187 TCU E-SE & SW SHRA E-SE & SW T02720228 $=
201807151452 METAR KATL 151452Z 21004KT 7SM SCT015 BKN024 BKN250 27/23 A3011 RMK AO2 SLP185 T02670228 58003 $=
201807151404 SPECI KATL 151404Z 21003KT 6SM HZ SCT008 BKN015 BKN250 26/23 A3011 RMK AO2 T02560228 $=
201807151352 METAR KATL 151352Z 23004KT 6SM BR SCT005 BKN012 BKN250 26/23 A3012 RMK AO2 SLP188 T02560233 $=
201807151350 SPECI KATL 151350Z 21003KT 6SM HZ SCT005 BKN012 BKN250 26/23 A3012 RMK AO2 $=
201807151307 SPECI KATL 151307Z 17003KT 3SM BR BKN007 BKN012 OVC020 24/22 A3012 RMK AO2 SFC VIS 5 T02390222 $=
201807151257 SPECI KATL 151257Z 19004KT 3SM BR SCT007 BKN012 OVC020 24/22 A3012 RMK AO2 SFC VIS 5 T02390222 $=
201807151252 METAR KATL 151252Z 19004KT 3SM BR SCT007 OVC015 24/22 A3012 RMK AO2 SFC VIS 6 SLP189 T02390222 $=
201807151249 SPECI KATL 151249Z 19003KT 3SM BR SCT006 OVC015 24/22 A3012 RMK AO2 SFC VIS 6 $=
201807151212 SPECI KATL 151212Z 19003KT 3SM BR BKN005 BKN010 OVC014 23/22 A3011 RMK AO2 SFC VIS 4 CIG 003V006 T02330222 $=
201807151152 METAR KATL 151152Z 00000KT 3SM BR BKN004 OVC011 23/22 A3011 RMK AO2 SFC VIS 5 SLP188 CIG 003V005 BKN004 V SCT 70300 T02330222 10244 20233 53010 $=
201807151146 SPECI KATL 151146Z 00000KT 3SM BR OVC004 23/22 A3011 RMK AO2 SFC VIS 4 CIG 003V005 BKN004 V SCT $=
201807151118 SPECI KATL 151118Z 21003KT 1 1/2SM BR BKN003 OVC011 23/22 A3010 RMK AO2 SFC VIS 4 BKN003 V SCT TWRINC T02330222 $=
201807151113 SPECI KATL 151113Z 20003KT 1 1/2SM BR SCT003 OVC011 23/22 A3010 RMK AO2 SFC VIS 4 TWRINC T02330222 $=
201807151107 SPECI KATL 151107Z 18003KT 1SM R09R/P6000FT BR SCT003 OVC011 23/22 A3010 RMK AO2 SFC VIS 4 TWRINC T02330222 $=
201807151052 METAR KATL 151052Z 19003KT 5SM BR FEW003 OVC011 23/22 A3009 RMK AO2 SLP181 T02330217 $=
201807151027 SPECI KATL 151027Z 00000KT 6SM BR SCT005 BKN011 23/22 A3008 RMK AO2 T02330217 $=
201807151014 SPECI KATL 151014Z 24003KT 6SM BR BKN005 BKN011 23/22 A3009 RMK AO2 CIG 004V008 T02330222 $=
201807151009 SPECI KATL 151009Z 24004KT 6SM BR BKN004 OVC011 23/22 A3009 RMK AO2 BINOVC T02330222 $=
201807150952 METAR KATL 150952Z 23004KT 7SM FEW004 BKN009 OVC016 23/22 A3008 RMK AO2 SLP178 T02330222 $=
201807150949 SPECI KATL 150949Z 23006KT 7SM BKN009 BKN016 BKN055 23/22 A3008 RMK AO2 $=
201807150852 METAR KATL 150852Z 00000KT 7SM BKN013 BKN050 BKN100 BKN200 24/22 A3009 RMK AO2 SLP177 T02390222 56002 $=
201807150840 SPECI KATL 150840Z 00000KT 7SM BKN013 BKN050 BKN100 BKN200 24/22 A3008 RMK AO2 T02390222 $=
201807150802 SPECI KATL 150802Z 00000KT 8SM SCT028 SCT049 BKN100 BKN200 24/22 A3009 RMK AO2 T02390222 $=
201807150752 METAR KATL 150752Z 00000KT 6SM BR BKN028 BKN049 24/22 A3009 RMK AO2 SLP177 T02390222 $=
201807150652 METAR KATL 150652Z 00000KT 9SM FEW006 BKN021 BKN034 BKN200 24/22 A3009 RMK AO2 SLP178 T02440222 $=
201807150647 SPECI KATL 150647Z 00000KT 9SM FEW006 BKN021 BKN034 BKN200 24/22 A3009 RMK AO2 $=
201807150552 METAR KATL 150552Z 10003KT 9SM FEW006 SCT200 BKN250 24/22 A3009 RMK AO2 SLP179 T02390222 10250 20239 58008 $=
201807150452 METAR KATL 150452Z 07005KT 9SM FEW006 FEW120 SCT200 BKN250 24/22 A3010 RMK AO2 SLP182 T02390222 403170239 $=
201807150352 METAR KATL 150352Z 00000KT 9SM FEW007 FEW075 SCT120 BKN250 24/22 A3012 RMK AO2 SLP188 T02390222 $=
201807150252 METAR KATL 150252Z 10004KT 9SM FEW008 SCT075 BKN120 BKN200 24/22 A3012 RMK AO2 SLP188 T02440222 50010 $=
201807150152 METAR KATL 150152Z 11005KT 9SM FEW008 FEW012 BKN110 OVC200 24/23 A3013 RMK AO2 SLP193 T02440228 $=
201807150052 METAR KATL 150052Z 19004KT 9SM FEW008 BKN090 BKN140 OVC200 25/23 A3012 RMK AO2 LTG DSNT S AND SW SLP188 VIRGA E-S CB DSNT SE-SW ACC OHD-ALQDS T02500233 $=
201807142352 METAR KATL 142352Z 10004KT 10SM FEW010 SCT075 BKN120 BKN200 24/23 A3009 RMK AO2 LTG DSNT S AND SW RAE30 TSE13 SLP179 TS DSIPTD CB DSNT SE-SW ACC E-S-SW P0001 60300 T02440228 10317 20239 50001 $=
201807142314 SPECI KATL 142314Z 08006KT 6SM -RA FEW042 BKN070 BKN110 OVC200 25/22 A3009 RMK AO2 LTG DSNT S AND SW TSE13 TS DSIPTD CB DSNT SE-SW-W P0001 T02500222 $=
201807142252 METAR KATL 142252Z 06006KT 3SM TSRA BR FEW007 SCT034CB BKN065 OVC130 24/22 A3011 RMK AO2 SLP185 OCNL LTGICCA SE-OHD-NW TS SE-OHD-NW MOV STNRY CB DSNT SE-SW P0137 T02440222 $=
201807142244 SPECI KATL 142244Z 05006KT 3SM TSRA BR SCT007 SCT034CB BKN065 OVC130 24/23 A3011 RMK AO2 OCNL LTGICCA SE-OHD-NW TS SE-OHD-NW MOV STNRY CB DSNT SE-SW P0135 T02440228 $=
201807142220 SPECI KATL 142220Z 10008KT 3SM R09R/4500VP6000FT +TSRA BR SCT014 BKN026CB OVC075 24/23 A3011 RMK AO2 OCNL LTGICCA SE-OHD-NW TS SE-OHD-NW MOV STNRY CB DSNT SE-SW-NW P0118 T02440228 $=
201807142205 SPECI KATL 142205Z 06014KT 1SM R09R/2000V4000FT +TSRA BR SCT012 OVC022CB 24/23 A3011 RMK AO2 LTG DSNT SE-SW FRQ LTGICCGCA SE-OHD-NW TS SE-OHD-NW MOV STNRY CB DSNT ALQDS P0072 T02390228 $=
201807142152 METAR KATL 142152Z 03010KT 2SM R09R/2800V3500FT +TSRA BR SCT012 BKN024CB BKN070 OVC130 24/23 A3011 RMK AO2 LTG DSNT NW TSB23 SLP186 VIS N-E 6 FRQ LTGICCA SE-OHD-NW TS SE-OHD-NW MOV STNRY CB DSNT NW P0156 T02390228 $=
201807142124 SPECI KATL 142124Z 01007KT 2 1/2SM R09R/2600VP6000FT +TSRA BKN035CB BKN070 BKN110 OVC200 26/23 A3009 RMK AO2 LTG DSNT NW TSB23 OCNL LTGICCA E-OHD-SW-NW TS E-OHD-SW-NW MOV SW CB DSNT NW P0030 T02560228 $=
201807142115 SPECI KATL 142115Z 05018KT 2 1/2SM R09R/2000V6000FT +RA BR BKN035CB OVC070 26/24 A3009 RMK AO2 LTG DSNT NW VIS W-NW 1 CB E-OHD-W MOV SW CB DSNT NW P0017 T02610239 $=
201807142109 SPECI KATL 142109Z 36008KT 1 1/2SM R09R/5500VP6000FT +RA SCT035CB BKN070 BKN120 OVC200 28/23 A3009 RMK AO2 LTG DSNT NW CB E-OHD-W MOV SW CB DSNT NW P0005 T02780233 $=
201807142052 METAR KATL 142052Z 25006KT 5SM -RA BKN035TCU BKN045 BKN250 28/23 A3008 RMK AO2 RAB37 SLP176 TCU ALQDS P0006 60006 T02780233 56017 $=
201807141952 METAR KATL 141952Z 14003KT 10SM SCT033TCU BKN049 BKN250 30/22 A3009 RMK AO2 SLP177 TCU ALQDS SHRA SW-W & NW-N T03000217=
201807141852 METAR KATL 141852Z VRB04KT 8SM SCT030TCU BKN065 BKN250 30/22 A3011 RMK AO2 LTG DSNT W AND NW SLP184 CB DSNT W & NW TCU ALQDS SHRA SW-W T03000217=
201807141815 SPECI KATL 141815Z 10005KT 8SM SCT030TCU BKN045 BKN200 BKN250 30/22 A3013 RMK AO2 LTG DSNT NW CB DSNT NW TCU OHD-W & E & NW SHRA W-NW T03000222=
201807141752 METAR KATL 141752Z 12004KT 8SM BKN028TCU BKN042 BKN250 29/22 A3013 RMK AO2 SLP193 TCU OHD-W & SE & NW SHRA W T02940222 10300 20244 58011=
201807141652 METAR KATL 141652Z VRB05KT 8SM BKN025TCU BKN250 29/22 A3016 RMK AO2 SLP201 TCU N MDT CU E-SE-S SHRA DSNT NW-N T02890222=
201807141552 METAR KATL 141552Z VRB04KT 8SM BKN018 BKN040 OVC250 28/23 A3017 RMK AO2 SLP205 BINOVC T02830228=
201807141550 SPECI KATL 141550Z 00000KT 8SM BKN018 BKN040 OVC250 28/22 A3017 RMK AO2 BINOVC=
201807141513 SPECI KATL 141513Z 12003KT 8SM BKN014 OVC250 27/22 A3017 RMK AO2 BINOVC T02720222=
201807141452 METAR KATL 141452Z 13006KT 8SM SCT014 BKN035 BKN250 27/23 A3017 RMK AO2 SLP204 SCT014 V BKN T02720228 51007=
201807141411 SPECI KATL 141411Z 09004KT 8SM SCT012 BKN034 27/23 A3016 RMK AO2 T02720228=
201807141352 METAR KATL 141352Z 09004KT 7SM BKN012 OVC035 26/22 A3017 RMK AO2 SLP204 BINOVC T02560222=
201807141252 METAR KATL 141252Z 08008KT 7SM OVC010 25/22 A3016 RMK AO2 SLP203 T02500222=
201807141246 SPECI KATL 141246Z 09006KT 7SM OVC010 25/22 A3016 RMK AO2=
201807141152 METAR KATL 141152Z 12004KT 7SM OVC008 24/22 A3015 RMK AO2 SLP198 BINOVC 70102 T02440222 10250 20244 53010=
201807141052 METAR KATL 141052Z 09007KT 7SM OVC008 24/22 A3013 RMK AO2 SLP192 T02440222=
201807140952 METAR KATL 140952Z 09006KT 8SM BKN009 BKN014 24/22 A3012 RMK AO2 SLP191 T02440222=
201807140852 METAR KATL 140852Z 09008KT 9SM FEW009 BKN013 BKN044 24/22 A3011 RMK AO2 SLP186 T02440222 58008=
201807140813 SPECI KATL 140813Z 09009KT 9SM FEW009 BKN013 BKN018 25/22 A3013 RMK AO2 T02500222=
201807140752 METAR KATL 140752Z 09007KT 10SM FEW011 BKN015 OVC021 25/22 A3013 RMK AO2 SLP190 T02500222=
201807140721 SPECI KATL 140721Z 09006KT 10SM BKN021 24/22 A3013 RMK AO2 T02440222=
201807140652 METAR KATL 140652Z 09007KT 10SM FEW035 BKN200 24/22 A3013 RMK AO2 SLP191 T02440222=
201807140552 METAR KATL 140552Z 09007KT 10SM FEW035 SCT065 BKN200 BKN250 25/22 A3014 RMK AO2 SLP194 T02500222 10267 20250 55002=
201807140452 METAR KATL 140452Z 09006KT 10SM SCT140 BKN200 OVC250 26/22 A3014 RMK AO2 SLP193 T02560222 403220244=
201807140352 METAR KATL 140352Z 07007KT 10SM FEW020 SCT080 BKN150 OVC200 26/23 A3014 RMK AO2 SLP195 T02610228=
201807140252 METAR KATL 140252Z 09008KT 10SM FEW030 BKN120 BKN150 OVC200 26/22 A3014 RMK AO2 SLP197 T02610222 51016=
201807140152 METAR KATL 140152Z 10004KT 10SM SCT075 BKN120 BKN200 BKN250 27/22 A3014 RMK AO2 LTG DSNT N AND NW SLP195 CB DSNT NW-N T02670217=
201807140052 METAR KATL 140052Z 15003KT 9SM FEW080 SCT120 BKN200 OVC250 26/23 A3011 RMK AO2 LTG DSNT N AND NE SLP185 CB DSNT N-NE T02610228=
201807132352 METAR KATL 132352Z 22006KT 8SM FEW080 SCT110 BKN200 OVC250 26/23 A3009 RMK AO2 SLP181 LTG DSNT NW-NE CB DSNT NW-NE-E 60102 T02560233 10322 20244 51002=
201807132252 METAR KATL 132252Z 22004KT 10SM FEW050 SCT080 BKN100 BKN200 26/23 A3009 RMK AO2 SLP181 TSE35 RAE52 P0053 T02560233=
201807132236 SPECI KATL 132236Z 22005KT 8SM -RA FEW025 SCT050 BKN080 BKN200 26/23 A3010 RMK AO2 TSE35 TS DSIPTD P0053 T02560233=
201807132152 METAR KATL 132152Z 22014G23KT 7SM R09R/2600V5000FT TSRA SCT025CB BKN040 BKN070 BKN250 24/23 A3010 RMK AO2 WSHFT 2123 RAB31 TSB35 SLP182 VIS LWR SW-W OCNL LTGICCG SW-W TS SW-W MOV STNRY P0049 T02440228=
201807132137 SPECI KATL 132137Z 23012G22KT 7SM R09R/5500VP6000FT +TSRA SCT025CB BKN040 BKN070 BKN250 26/23 A3010 RMK AO2 WSHFT 2123 RAB31 TSB35 VIS LWR SW-NW OCNL LTGIC SW-NW TS SW-NW MOV STNRY P0005 T02610233=
201807132052 METAR KATL 132052Z VRB05KT 10SM SCT040TCU SCT070 BKN250 32/22 A3009 RMK AO2 LTG DSNT S AND SW SLP177 CB DSNT SW TCU W-NW-N SHRA DSNT SW T03170222 56019=
201807131952 METAR KATL 131952Z 09006KT 10SM SCT035TCU BKN250 32/22 A3011 RMK AO2 LTG DSNT SE AND S SLP185 CB DSNT SE & S TCU SW-W T03170222=
201807131852 METAR KATL 131852Z 04005KT 8SM SCT030TCU BKN250 31/23 A3012 RMK AO2 LTG DSNT S AND W SLP187 CB DSNT S TCU E & DSNT SW-W T03110228=
201807131752 METAR KATL 131752Z 06008KT 9SM SCT025 BKN035 BKN250 31/23 A3015 RMK AO2 SLP197 T03110233 10317 20250 58010=
201807131652 METAR KATL 131652Z 06007KT 9SM BKN023 BKN250 30/23 A3017 RMK AO2 SLP204 T03000228=
201807131628 SPECI KATL 131628Z 06007KT 9SM BKN020 BKN250 29/23 A3017 RMK AO2 T02940228=
201807131552 METAR KATL 131552Z 06006KT 8SM BKN017 29/23 A3018 RMK AO2 SLP207 T02890228=
201807131549 SPECI KATL 131549Z VRB05KT 8SM BKN017 29/23 A3018 RMK AO2=
201807131452 METAR KATL 131452Z 07008KT 7SM BKN010 28/23 A3017 RMK AO2 SLP207 T02780228 51011=
201807131412 SPECI KATL 131412Z 00000KT 6SM HZ BKN010 27/23 A3017 RMK AO2 T02670228=
201807131352 METAR KATL 131352Z VRB04KT 6SM HZ BKN009 26/23 A3016 RMK AO2 SLP203 T02610228=
201807131252 METAR KATL 131252Z 13004KT 6SM HZ OVC008 25/22 A3016 RMK AO2 SLP201 CIG 007V010 T02500222=
201807131203 SPECI KATL 131203Z 09006KT 7SM BKN008 BKN140 BKN200 BKN250 25/22 A3015 RMK AO2 T02500222=
201807131152 METAR KATL 131152Z 06007KT 7SM SCT008 SCT140 BKN200 BKN250 25/22 A3014 RMK AO2 SLP196 T02500222 10256 20244 53013=
201807131122 SPECI KATL 131122Z 08007KT 7SM BKN008 BKN140 BKN200 BKN250 24/22 A3014 RMK AO2 T02440222=
201807131052 METAR KATL 131052Z 15003KT 7SM FEW008 FEW150 SCT200 BKN250 24/22 A3013 RMK AO2 SLP191 T02440222=
201807130952 METAR KATL 130952Z 10004KT 10SM FEW050 SCT150 BKN200 BKN250 25/22 A3011 RMK AO2 SLP183 T02500222=
201807130852 METAR KATL 130852Z 03007KT 10SM SCT055 BKN150 BKN250 26/22 A3010 RMK AO2 SLP180 T02560217 53002=
201807130752 METAR KATL 130752Z 00000KT 10SM SCT200 BKN250 25/22 A3009 RMK AO2 SLP178 T02500217=
201807130652 METAR KATL 130652Z 00000KT 10SM SCT200 BKN250 25/22 A3010 RMK AO2 SLP179 T02500217=
201807130552 METAR KATL 130552Z 27004KT 10SM SCT200 BKN250 26/22 A3010 RMK AO2 SLP178 T02560217 10283 20256 58002=
201807130452 METAR KATL 130452Z 28006KT 10SM FEW100 SCT250 26/22 A3011 RMK AO2 SLP182 T02610217 403440250=
201807130352 METAR KATL 130352Z 21005KT 10SM SCT250 27/22 A3011 RMK AO2 SLP184 T02670217=
201807130252 METAR KATL 130252Z 28007KT 10SM SCT250 27/22 A3010 RMK AO2 SLP180 T02670217 51011=
201807130152 METAR KATL 130152Z 22003KT 10SM FEW040 BKN250 27/21 A3009 RMK AO2 SLP177 TCU DSNT SE T02720211=
201807130052 METAR KATL 130052Z 21005KT 10SM FEW040 BKN250 28/21 A3008 RMK AO2 SLP174 T02830211=
201807122352 METAR KATL 122352Z 20007KT 10SM FEW040 BKN250 28/22 A3007 RMK AO2 SLP170 TCU DSNT NE T02830217 10344 20283 51003=
201807122252 METAR KATL 122252Z 16006KT 10SM SCT045TCU SCT150 BKN250 33/21 A3007 RMK AO2 SLP169 LTG DSNT SE-SW CB DSNT SE-SW TCU VC NE-E T03280211=
201807122152 METAR KATL 122152Z 33010KT 10SM FEW045 SCT110 BKN250 34/21 A3007 RMK AO2 SLP170 LTG DSNT E-S-SW CB DSNT E-S-SW TCU DSNT NE-E T03390211=
201807122052 METAR KATL 122052Z 31008KT 10SM FEW050 FEW100 SCT250 33/21 A3006 RMK AO2 LTG DSNT ALQDS SLP166 TCU DSNT SE-S-SW MDT CU DSNT N-NE T03330206 56016=
201807121952 METAR KATL 121952Z 32014KT 10SM FEW040CB SCT050TCU BKN250 33/22 A3007 RMK AO2 SLP170 TS DSIPT CB NW MOV SE CB DSNT W TCU NE-E-SE-S SHRA VC NW T03280217=
201807121929 SPECI KATL 121929Z 29010KT 10SM VCTS FEW045CB BKN050TCU BKN250 33/22 A3008 RMK AO2 LTG DSNT W OCNL LTGICCG VC W TS VC W MOV SE SHRA VC W TCU ALQDS T03280217=
201807121852 METAR KATL 121852Z 29005KT 10SM SCT050TCU SCT250 BKN300 34/22 A3009 RMK AO2 SLP176 CB DSNT SE & W TCU OHD-E & NW TCU DSNT NE T03390217=
201807121752 METAR KATL 121752Z 33007KT 10SM SCT048 SCT250 BKN300 33/22 A3011 RMK AO2 SLP183 TCU DSNT NE & SE & SW & NW T03280217 10333 20267 50001=
201807121652 METAR KATL 121652Z 28009KT 8SM FEW045 BKN250 BKN300 33/22 A3012 RMK AO2 SLP186 CB DSNT W TCU DSNT NE & SW & NW MDT CU E T03330217=
201807121552 METAR KATL 121552Z 28006KT 10SM FEW045 BKN250 BKN300 33/22 A3012 RMK AO2 SLP185 TCU DSNT NW T03280217=
201807121452 METAR KATL 121452Z 29005KT 10SM FEW040 SCT250 BKN300 32/22 A3011 RMK AO2 SLP181 T03220222 51012=
201807121352 METAR KATL 121352Z 31004KT 10SM BKN250 30/22 A3010 RMK AO2 SLP180 T03000217=
201807121252 METAR KATL 121252Z 32004KT 9SM SCT200 SCT250 BKN300 28/22 A3008 RMK AO2 SLP174 T02780222=
201807121152 METAR KATL 121152Z 33004KT 9SM SCT200 SCT250 BKN300 27/22 A3007 RMK AO2 SLP170 T02670222 10267 20250 53010=
201807121052 METAR KATL 121052Z 30005KT 9SM SCT200 BKN250 BKN300 25/22 A3006 RMK AO2 SLP165 T02500217=
201807120952 METAR KATL 120952Z 32004KT 10SM FEW200 SCT250 26/22 A3004 RMK AO2 SLP161 T02560217=
201807120852 METAR KATL 120852Z 30004KT 10SM FEW200 SCT250 25/22 A3004 RMK AO2 SLP160 T02500222 55003=
201807120752 METAR KATL 120752Z 31006KT 10SM SCT200 BKN250 26/22 A3003 RMK AO2 SLP157 T02610217=
201807120652 METAR KATL 120652Z 31003KT 10SM SCT200 BKN250 27/22 A3004 RMK AO2 SLP160 T02670217=
201807120552 METAR KATL 120552Z 28004KT 10SM FEW100 SCT200 BKN250 27/22 A3005 RMK AO2 SLP162 T02670217 10311 20267 50002=
201807120452 METAR KATL 120452Z 29003KT 10SM FEW100 BKN250 28/22 A3006 RMK AO2 SLP164 T02780217 403390228=
201807120352 METAR KATL 120352Z 35005KT 10SM FEW100 BKN250 30/21 A3005 RMK AO2 SLP164 T03000206=
201807120252 METAR KATL 120252Z 32005KT 10SM SCT100 BKN250 30/21 A3004 RMK AO2 SLP160 T03000211 53018=
201807120152 METAR KATL 120152Z 27003KT 10SM SCT090 BKN110 BKN250 30/21 A3002 RMK AO2 SLP151 T03000211=
201807120052 METAR KATL 120052Z 07003KT 10SM FEW045TCU BKN090 BKN250 31/21 A3000 RMK AO2 TSE26 SLP148 CB DSNT NE TCU NE-E T03060206=
201807120026 SPECI KATL 120026Z 06005KT 10SM FEW045CB SCT100 BKN250 30/22 A3000 RMK AO2 TSE26 TS DSIPTD CB NE-E MOV S T03000217=
201807112352 METAR KATL 112352Z 15013KT 10SM TS FEW045CB SCT080 BKN250 29/21 A2999 RMK AO2 TSB2254 SLP144 OCNL LTGICCG SE-S & VC NW-NE TS SE-S & VC NW-NE MOV S T02890211 10339 20289 55006=
201807112255 SPECI KATL 112255Z 26009KT 10SM TS SCT050CB SCT250 33/21 A2998 RMK AO2 TSB54 OCNL LTGIC SE-S TS SE-S MOV STNRY T03280206=
201807112252 METAR KATL 112252Z 29008KT 10SM SCT050CB SCT250 33/21 A2998 RMK AO2 TSB51E52 SLP140 CB SE-S MOV STNRY TCU NE-SE T03330206=
201807112152 METAR KATL 112152Z 30008KT 270V330 10SM SCT050TCU SCT250 34/21 A2999 RMK AO2 SLP144 SHRA NE TCU OHD-S & NE-E T03390206=
201807112052 METAR KATL 112052Z 29005KT 10SM BKN050CB BKN110 32/20 A3001 RMK AO2 LTG DSNT SE SLP149 CB SE-S MOV S CB DSNT SE MDT CU N-NE-E SHRA VC SE-S T03220200 56015=
201807111952 METAR KATL 111952Z 35006KT 10SM BKN055TCU BKN110 33/21 A3001 RMK AO2 SLP151 TCU OHD-NE-SE-SW T03280206=
201807111852 METAR KATL 111852Z 26006KT 10SM BKN055TCU BKN100 33/22 A3003 RMK AO2 SLP157 TCU OHD-NE-E-SE-S MDT CU ALQDS T03330217=
201807111752 METAR KATL 111752Z 24006KT 10SM SCT050TCU SCT250 33/21 A3005 RMK AO2 SLP164 TCU NE & E-SE-S-SW MDT CU ALQDS T03280206 10339 20244 58009=
201807111652 METAR KATL 111652Z 27008KT 10SM SCT055TCU SCT250 33/21 A3006 RMK AO2 SLP168 TCU NE-E-SE T03330211=
201807111552 METAR KATL 111552Z 00000KT 10SM FEW045 FEW120 SCT250 31/21 A3008 RMK AO2 SLP171 TCU DSNT N T03110206=
201807111452 METAR KATL 111452Z 00000KT 10SM FEW040 FEW110 SCT250 31/22 A3008 RMK AO2 SLP172 T03060222 50006=
201807111352 METAR KATL 111352Z 32004KT 10SM FEW100 FEW250 29/22 A3008 RMK AO2 SLP175 T02890217=
201807111252 METAR KATL 111252Z 32007KT 10SM FEW095 27/21 A3007 RMK AO2 SLP172 T02670211=
201807111152 METAR KATL 111152Z 31006KT 10SM SCT095 24/21 A3006 RMK AO2 SLP167 T02440206 10250 20228 53010=
201807111052 METAR KATL 111052Z 30008KT 10SM FEW100 23/21 A3005 RMK AO2 SLP163 T02330206=
201807110952 METAR KATL 110952Z 30005KT 10SM FEW060 23/21 A3004 RMK AO2 SLP159 T02280206=
201807110852 METAR KATL 110852Z 27005KT 10SM FEW060 23/21 A3003 RMK AO2 SLP156 T02330206 55006=
201807110752 METAR KATL 110752Z 28005KT 10SM FEW060 24/21 A3002 RMK AO2 SLP154 T02390206=
201807110652 METAR KATL 110652Z 30004KT 10SM FEW060 24/21 A3003 RMK AO2 SLP157 T02440206=
201807110552 METAR KATL 110552Z 29005KT 10SM FEW060 24/21 A3005 RMK AO2 SLP162 T02440206 10311 20244 58004=
201807110452 METAR KATL 110452Z 27004KT 10SM CLR 26/21 A3006 RMK AO2 SLP165 T02560206 403390217=
201807110352 METAR KATL 110352Z 31004KT 10SM FEW250 27/21 A3006 RMK AO2 SLP165 T02720206=
201807110252 METAR KATL 110252Z 31007KT 10SM FEW050 FEW250 28/21 A3006 RMK AO2 SLP166 CB DSNT S & SW T02780206 53011=
201807110152 METAR KATL 110152Z 31007KT 10SM FEW050 FEW250 29/21 A3005 RMK AO2 SLP162 CB DSNT SW T02890211=
201807110052 METAR KATL 110052Z 31008KT 10SM FEW055TCU FEW250 30/21 A3004 RMK AO2 SLP159 TCU VC SE & DSNT SW T03000206=
201807102352 METAR KATL 102352Z 28006KT 10SM SCT055TCU 31/21 A3002 RMK AO2 SLP155 TCU NE-OHD-S & DSNT SW T03110206 10339 20311 56012=
201807102252 METAR KATL 102252Z 32006KT 10SM FEW055 FEW250 33/19 A3003 RMK AO2 SLP156 MDT CU E-S & NW T03280189=
201807102152 METAR KATL 102152Z 32008KT 10SM FEW055TCU SCT080 SCT250 33/19 A3004 RMK AO2 SLP161 TCU SE-S & DSNT SW T03330194=
201807102052 METAR KATL 102052Z 32009G15KT 10SM FEW060 SCT080 SCT250 33/19 A3006 RMK AO2 SLP167 MDT CU NE & SE T03330189 56022=
201807101952 METAR KATL 101952Z 31010KT 10SM BKN060 BKN080 BKN250 33/19 A3008 RMK AO2 SLP173 MDT CU OHD-NE-SE-S T03330189=
201807101852 METAR KATL 101852Z 11006KT 10SM SCT065 SCT250 32/18 A3010 RMK AO2 SLP181 MDT CU SW-NW-N T03220178=
201807101752 METAR KATL 101752Z 00000KT 10SM SCT055 SCT250 33/19 A3013 RMK AO2 SLP190 MDT CU NE-SE-S T03280194 10328 20239 58013=
201807101652 METAR KATL 101652Z 30009KT 10SM SCT050 SCT250 32/20 A3015 RMK AO2 SLP197 MDT CU ALQDS T03220200=
201807101552 METAR KATL 101552Z 31006KT 10SM FEW043 FEW250 31/20 A3016 RMK AO2 SLP202 MDT CU DSNT NE & DSNT SW-W T03110200=
201807101452 METAR KATL 101452Z 33007KT 300V360 10SM FEW040 FEW250 30/21 A3017 RMK AO2 SLP203 T03000206 50002=
201807101352 METAR KATL 101352Z 33009KT 10SM FEW250 28/19 A3017 RMK AO2 SLP205 T02780189=
201807101252 METAR KATL 101252Z 32007KT 10SM CLR 26/20 A3017 RMK AO2 SLP205 T02610200=
201807101152 METAR KATL 101152Z 31006KT 10SM CLR 24/19 A3016 RMK AO2 SLP202 T02390189 10244 20217 51004=
201807101052 METAR KATL 101052Z 32006KT 10SM FEW070 22/19 A3016 RMK AO2 SLP201 T02170189=
201807100952 METAR KATL 100952Z 31006KT 10SM FEW070 22/19 A3015 RMK AO2 SLP199 T02220189=
201807100852 METAR KATL 100852Z 31006KT 10SM CLR 22/19 A3015 RMK AO2 SLP197 T02220189 56009=
201807100752 METAR KATL 100752Z 31006KT 10SM CLR 23/19 A3015 RMK AO2 SLP200 T02280189=
201807100652 METAR KATL 100652Z 30005KT 10SM CLR 23/19 A3016 RMK AO2 SLP204 T02280189=
201807100552 METAR KATL 100552Z 00000KT 10SM CLR 24/19 A3018 RMK AO2 SLP207 T02440189 10300 20239 58008=
201807100452 METAR KATL 100452Z 00000KT 10SM CLR 25/19 A3019 RMK AO2 SLP211 T02500189 403280211=
201807100352 METAR KATL 100352Z 31005KT 10SM FEW250 26/19 A3020 RMK AO2 SLP215 T02560189=
201807100252 METAR KATL 100252Z 32006KT 10SM FEW250 26/19 A3020 RMK AO2 SLP216 T02610189 53009=
201807100152 METAR KATL 100152Z 32007KT 10SM FEW060 FEW250 27/19 A3019 RMK AO2 SLP212 T02720189=
201807100052 METAR KATL 100052Z 31007KT 10SM FEW060 FEW250 28/18 A3018 RMK AO2 SLP209 T02830183=
201807092352 METAR KATL 092352Z 32009KT 10SM FEW060 30/18 A3017 RMK AO2 SLP206 T03000178 10328 20294 56007=
201807092252 METAR KATL 092252Z 34008KT 10SM SCT060 32/17 A3017 RMK AO2 SLP207 T03170167=
201807092152 METAR KATL 092152Z 02004KT 10SM SCT060 32/16 A3018 RMK AO2 SLP208 T03220161=
201807092052 METAR KATL 092052Z 29008KT 10SM SCT060 32/18 A3019 RMK AO2 SLP214 T03220183 58021=
201807091952 METAR KATL 091952Z 24006KT 10SM BKN060 31/17 A3021 RMK AO2 SLP220 T03110172=
201807091852 METAR KATL 091852Z 00000KT 10SM SCT050 30/17 A3024 RMK AO2 SLP230 T03000172=
201807091752 METAR KATL 091752Z 27006KT 10SM SCT050 SCT250 29/18 A3026 RMK AO2 SLP235 T02940178 10306 20228 58014=
201807091652 METAR KATL 091652Z 31003KT 10SM SCT045 SCT250 30/19 A3028 RMK AO2 SLP244 T03000189=
201807091552 METAR KATL 091552Z 07004KT 10SM FEW035 FEW250 28/18 A3030 RMK AO2 SLP248 T02830178=
201807091452 METAR KATL 091452Z VRB05KT 10SM FEW250 27/17 A3030 RMK AO2 SLP249 T02720167 50005=
201807091352 METAR KATL 091352Z 12005KT 10SM FEW250 26/16 A3030 RMK AO2 SLP251 T02560156=
201807091252 METAR KATL 091252Z 08008G17KT 10SM FEW250 24/14 A3029 RMK AO2 SLP249 T02390144=
201807091152 METAR KATL 091152Z 06008KT 10SM FEW250 23/14 A3028 RMK AO2 SLP244 T02280139 10228 20211 53012=
201807091052 METAR KATL 091052Z 06007KT 10SM FEW250 22/14 A3027 RMK AO2 SLP241 T02170144=
201807090952 METAR KATL 090952Z 06008KT 10SM FEW250 22/14 A3025 RMK AO2 SLP234 T02170144=
201807090852 METAR KATL 090852Z 05007KT 10SM FEW250 22/16 A3025 RMK AO2 SLP232 T02220156 56007=
201807090752 METAR KATL 090752Z 07006KT 10SM FEW250 23/16 A3025 RMK AO2 SLP235 T02280161=
201807090652 METAR KATL 090652Z 08005KT 10SM FEW250 22/17 A3026 RMK AO2 SLP237 T02220167=
201807090552 METAR KATL 090552Z 08005KT 10SM FEW250 22/17 A3027 RMK AO2 SLP240 T02220172 10278 20222 58001=
201807090452 METAR KATL 090452Z 09007KT 10SM FEW250 23/17 A3027 RMK AO2 SLP241 T02330172 402940217=
201807090352 METAR KATL 090352Z 09008KT 10SM FEW250 24/17 A3028 RMK AO2 SLP244 T02390167=
201807090252 METAR KATL 090252Z 09006KT 10SM FEW250 25/17 A3027 RMK AO2 SLP241 T02500167 53018=
201807090152 METAR KATL 090152Z 09007KT 10SM FEW250 26/17 A3024 RMK AO2 SLP233 T02610172=
201807090052 METAR KATL 090052Z 12007KT 10SM FEW042 FEW250 27/17 A3023 RMK AO2 SLP227 T02670172=
201807082352 METAR KATL 082352Z 09005KT 10SM FEW042 FEW250 28/17 A3022 RMK AO2 SLP222 T02780172 10294 20272 55001=
201807082252 METAR KATL 082252Z 12006KT 10SM FEW042 FEW250 28/18 A3021 RMK AO2 SLP221 T02830183=
201807082152 METAR KATL 082152Z 09007KT 10SM FEW042 29/18 A3022 RMK AO2 SLP224 T02890183=
201807082052 METAR KATL 082052Z VRB03KT 10SM FEW040 29/18 A3022 RMK AO2 SLP223 T02890183 58014=
201807081952 METAR KATL 081952Z VRB06KT 10SM FEW038 28/19 A3023 RMK AO2 SLP228 T02830189=
201807081852 METAR KATL 081852Z 08006KT 10SM SCT036 28/18 A3025 RMK AO2 SLP234 T02830183=
201807081752 METAR KATL 081752Z 06005KT 10SM FEW034 28/19 A3026 RMK AO2 SLP237 T02780189 10278 20217 58009=
201807081652 METAR KATL 081652Z 07007KT 10SM SCT030 SCT150 27/18 A3028 RMK AO2 SLP245 T02670178=
201807081629 SPECI KATL 081629Z 09012KT 10SM BKN028 26/18 A3028 RMK AO2 T02560178=
201807081552 METAR KATL 081552Z 10014KT 10SM SCT026 25/17 A3029 RMK AO2 SLP247 T02500172=
201807081507 SPECI KATL 081507Z 08012KT 10SM SCT022 25/18 A3029 RMK AO2 T02500178=
201807081452 METAR KATL 081452Z 10011G19KT 10SM BKN022 24/18 A3029 RMK AO2 SLP248 T02440178 50006=
201807081401 SPECI KATL 081401Z 09014KT 10SM BKN018 BKN032 23/18 A3029 RMK AO2 T02280178=
201807081352 METAR KATL 081352Z 08015KT 10SM SCT018 BKN032 23/18 A3029 RMK AO2 SLP248 T02280178=
201807081316 SPECI KATL 081316Z 08014KT 10SM FEW015 OVC030 22/18 A3028 RMK AO2 T02220178=
201807081252 METAR KATL 081252Z 09012KT 10SM SCT015 OVC029 22/18 A3027 RMK AO2 SLP243 T02220183=
201807081152 METAR KATL 081152Z 09008KT 10SM SCT012 OVC023 22/19 A3027 RMK AO2 SLP241 60000 T02170189 10228 20217 53020=
201807081147 SPECI KATL 081147Z 08010KT 10SM SCT012 OVC025 22/19 A3026 RMK AO2=
201807081052 METAR KATL 081052Z 08012KT 10SM BKN012 OVC028 22/19 A3024 RMK AO2 SLP231 T02170189=
201807080952 METAR KATL 080952Z 07013KT 10SM OVC011 22/19 A3022 RMK AO2 SLP225 T02220189=
201807080935 SPECI KATL 080935Z 08012KT 10SM OVC009 22/19 A3022 RMK AO2 T02170189=
201807080852 METAR KATL 080852Z 08011KT 10SM OVC010 22/19 A3021 RMK AO2 SLP220 60000 T02220189 53005=
201807080752 METAR KATL 080752Z 08012KT 10SM OVC011 22/19 A3019 RMK AO2 SLP213 T02220194=
201807080652 METAR KATL 080652Z 07012KT 10SM BKN011 OVC037 22/19 A3019 RMK AO2 DZE06 SLP213 CIG 010V015 BKN011 V SCT P0000 T02220194=
201807080552 METAR KATL 080552Z 06013KT 9SM -DZ BKN012 OVC039 23/20 A3019 RMK AO2 DZB49 SLP213 CIG 010V015 BKN012 V SCT P0000 60000 T02280200 10267 20228 56006=
201807080550 SPECI KATL 080550Z 07015KT 9SM -DZ BKN012 OVC039 23/19 A3019 RMK AO2 DZB49 CIG 010V015 BKN012 V SCT P0000=
201807080452 METAR KATL 080452Z 08013KT 10SM SCT014 OVC026 23/20 A3020 RMK AO2 SLP217 BINOVC T02330200 403110217=
201807080408 SPECI KATL 080408Z 09010KT 10SM BKN016 OVC028 23/20 A3021 RMK AO2 CIG 014V018 BINOVC T02330200=
201807080352 METAR KATL 080352Z 09010KT 10SM BKN014 BKN024 BKN110 OVC200 23/20 A3021 RMK AO2 SLP220 CIG 012V016 T02330200=
201807080341 SPECI KATL 080341Z 09011KT 10SM BKN014 OVC022 24/20 A3021 RMK AO2 CIG 012V016 T02390200=
201807080252 METAR KATL 080252Z 09010KT 10SM OVC015 24/20 A3020 RMK AO2 SLP216 CIG 013V017 T02390200 53024=
201807080152 METAR KATL 080152Z 07016KT 10SM BKN015 OVC025 24/21 A3017 RMK AO2 SLP206 CIG 013V017 T02440206=
201807080052 METAR KATL 080052Z 09013KT 10SM BKN020 BKN030 BKN120 OVC200 26/21 A3014 RMK AO2 SLP198 CB DSNT SW T02560206=
201807072352 METAR KATL 072352Z 09012G17KT 10SM SCT020 SCT032 SCT100 BKN200 27/21 A3013 RMK AO2 LTG DSNT S AND SW SLP191 CB DSNT SE-SW T02670211 10311 20267 53011=
201807072252 METAR KATL 072252Z 05011KT 10SM FEW032CB SCT085 BKN200 BKN250 28/21 A3009 RMK AO2 LTG DSNT SE AND SW SLP179 CB SE MOV W CB DSNT E-S-W-NW TCU N SHRA SE T02780206=
201807072152 METAR KATL 072152Z 05011KT 10SM FEW014 SCT030 BKN085 BKN200 28/21 A3009 RMK AO2 LTG DSNT W SLP179 TSB00E50 TS MOV W CB DSNT ALQDS TCU DSNT ALQDS SHRA DSNT S-W T02780206=
201807072103 SPECI KATL 072103Z 06015KT 10SM TS SCT034CB BKN060 BKN200 28/21 A3009 RMK AO2 LTG DSNT W AND NW TSB00 OCNL LTGICCGCA S-W-NW TS S-W-NW MOV W T02780211=
201807072052 METAR KATL 072052Z 07017G23KT 10SM VCTS SCT034CB BKN050 BKN250 28/21 A3009 RMK AO2 LTG DSNT W SLP180 OCNL LTGCG VC W TS VC W MOV W CB DSNT NE & SE T02830211 56018=
201807072045 SPECI KATL 072045Z 05018KT 10SM VCTS SCT036CB BKN050 BKN250 28/21 A3009 RMK AO2 LTG DSNT N AND W OCNL LTGCG VC W TS VC W MOV W CB DSNT N T02830211=
201807071952 METAR KATL 071952Z 07011KT 10SM SCT035TCU SCT080 29/21 A3010 RMK AO2 LTG DSNT N SLP183 CB DSNT N TCU ALQDS T02940206=
201807071852 METAR KATL 071852Z 09012KT 10SM SCT033TCU SCT060 29/21 A3013 RMK AO2 SLP192 TCU ALQDS T02890211=
201807071752 METAR KATL 071752Z 11007KT 10SM SCT030 29/21 A3015 RMK AO2 LTG DSNT W SLP198 CB DSNT W T02940211 10300 20228 58005=
201807071652 METAR KATL 071652Z 07007KT 050V110 10SM SCT026TCU BKN140 BKN200 28/22 A3017 RMK AO2 SLP206 TCU SW T02830217=
201807071552 METAR KATL 071552Z 07008KT 10SM SCT022 BKN150 27/22 A3018 RMK AO2 SLP208 T02720217=
201807071535 SPECI KATL 071535Z 07009KT 10SM SCT020 BKN150 27/22 A3018 RMK AO2 T02720217=
201807071508 SPECI KATL 071508Z 08010KT 10SM BKN025 BKN140 BKN200 27/21 A3017 RMK AO2 T02670211=
201807071452 METAR KATL 071452Z 06007KT 10SM SCT021 BKN200 27/21 A3016 RMK AO2 SLP205 T02670211 53004=
201807071352 METAR KATL 071352Z 09008KT 10SM FEW022 BKN200 26/21 A3016 RMK AO2 SLP203 T02610206=
201807071252 METAR KATL 071252Z 07007KT 10SM SCT055 BKN150 BKN200 BKN250 25/19 A3015 RMK AO2 SLP202 T02500194=
201807071152 METAR KATL 071152Z 16003KT 10SM SCT055 SCT150 BKN200 BKN250 23/21 A3015 RMK AO2 SLP201 70010 T02280206 10228 20217 53021=
201807071052 METAR KATL 071052Z 00000KT 9SM SCT006 SCT150 BKN200 BKN250 22/21 A3013 RMK AO2 SLP193 T02170206=
201807070952 METAR KATL 070952Z 03003KT 10SM SCT006 SCT200 SCT250 22/20 A3010 RMK AO2 SLP183 T02220200=
201807070852 METAR KATL 070852Z 03005KT 10SM FEW005 22/20 A3009 RMK AO2 SLP179 T02220200 58004=
201807070752 METAR KATL 070752Z 10006KT 6SM BR FEW006 FEW014 SCT200 22/21 A3009 RMK AO2 SLP177 T02220206=
201807070741 SPECI KATL 070741Z 12004KT 6SM BR FEW004 FEW014 SCT200 22/21 A3009 RMK AO2 T02220206=
201807070652 METAR KATL 070652Z 16006KT 1/2SM R09R/P6000FT BR BKN003 BKN014 OVC030 22/21 A3011 RMK AO2 SFC VIS 4 SLP184 CIG 002V006 TWRINC T02220211=
201807070631 SPECI KATL 070631Z 16006KT 1/2SM R09R/P6000FT BR BKN003 OVC030 22/21 A3011 RMK AO2 SFC VIS 3 TWRINC T02220206=
201807070625 SPECI KATL 070625Z 16006KT 8SM SCT003 22/21 A3011 RMK AO2 T02220206=
201807070552 METAR KATL 070552Z 09004KT 10SM FEW150 FEW200 SCT250 23/21 A3010 RMK AO2 SLP181 60000 T02280206 10244 20222 56008=
201807070452 METAR KATL 070452Z 00000KT 10SM FEW150 SCT200 BKN250 23/20 A3011 RMK AO2 SLP184 T02280200 403220222=
201807070352 METAR KATL 070352Z 35007KT 10SM FEW150 BKN200 BKN250 23/21 A3010 RMK AO2 SLP183 T02280206=
201807070252 METAR KATL 070252Z 32007KT 10SM FEW050 SCT150 BKN200 OVC250 23/21 A3012 RMK AO2 SLP190 60000 T02280206 56005=
201807070152 METAR KATL 070152Z 29010KT 10SM FEW050 SCT120 BKN150 OVC200 23/21 A3013 RMK AO2 RAE40 SLP192 P0000 T02280211=
201807070052 METAR KATL 070052Z 28004KT 10SM -RA FEW030 SCT110 BKN150 OVC200 24/21 A3011 RMK AO2 RAB52 SLP187 LTG DSNT SW-W P0000 T02390206=
201807062352 METAR KATL 062352Z 03010KT 10SM FEW030TCU SCT070 BKN110 OVC200 24/21 A3014 RMK AO2 RAE42 SLP197 LTG DSNT NE & SW CB DSNT NE & SW TCU VC NW P0001 60010 T02390211 10322 20228 53013=
201807062252 METAR KATL 062252Z 07003KT 10SM -RA FEW030 SCT080 BKN120 OVC200 24/21 A3010 RMK AO2 SLP184 TSE51 LTG DSNT NE-SE-SW TS MOV S P0007 T02440211=
201807062152 METAR KATL 062152Z 03017KT 7SM -TSRA SCT030CB BKN050 BKN070 OVC200 24/21 A3011 RMK AO2 SLP186 VIS LWR NE-SE OCNL LTGICCG N-E-SE TS N-E-SE MOV S P0001 T02390206=
201807062052 METAR KATL 062052Z 29005KT 8SM -TSRA BKN047CB BKN080 BKN250 27/21 A3010 RMK AO2 LTG DSNT SW-N RAB40 TSB37E38 SLP183 OCNL LTGICCG NW-N TS NW-N MOV SW P0001 60001 T02670211 55024=
201807062044 SPECI KATL 062044Z 24005KT 7SM TSRA SCT047CB SCT080 BKN250 28/21 A3010 RMK AO2 LTG DSNT ALQDS RAB40 TSB37E38 OCNL LTGCG NW-N TS NW-N MOV SW P0001 T02780211=
201807062018 SPECI KATL 062018Z 29009KT 10SM VCTS SCT040CB BKN120 BKN250 30/20 A3010 RMK AO2 LTG DSNT N AND NW OCNL LTGCG VC W-NW TS VC W-NW MOV W T03000200=
201807061952 METAR KATL 061952Z 26008KT 10SM TS FEW050CB BKN090 BKN250 32/22 A3010 RMK AO2 LTG DSNT SW TSB49 SLP180 OCNL LTGCG W-NW TS W-NW MOV W TCU S T03170222=
201807061949 SPECI KATL 061949Z 26007KT 10SM TS FEW050CB BKN090 BKN250 32/22 A3010 RMK AO2 LTG DSNT SW TSB49 OCNL LTGCG W-NW TS W-NW MOV W TCU S=
201807061852 METAR KATL 061852Z 23005KT 10SM SCT042TCU BKN250 31/22 A3014 RMK AO2 LTG DSNT N SLP194 CB DSNT N TCU ALQDS T03060217=
201807061752 METAR KATL 061752Z 31004KT 10SM SCT040TCU BKN250 31/22 A3017 RMK AO2 SLP206 TCU ALQDS T03060217 10317 20250 58017=
201807061652 METAR KATL 061652Z VRB05KT 10SM SCT030TCU SCT200 BKN250 30/22 A3021 RMK AO2 SLP217 TCU ALQDS T03000217=
201807061552 METAR KATL 061552Z VRB05KT 10SM SCT030TCU SCT200 BKN250 29/22 A3022 RMK AO2 SLP222 TCU NE & SE MDT CU NE-SE-S T02940222=
201807061452 METAR KATL 061452Z 32007KT 10SM FEW030 SCT200 BKN250 29/21 A3022 RMK AO2 SLP223 T02890211 58002=
201807061352 METAR KATL 061352Z 31005KT 10SM FEW030 FEW200 BKN250 28/21 A3023 RMK AO2 SLP224 T02830211=
201807061252 METAR KATL 061252Z 31007KT 10SM FEW032 SCT200 BKN250 26/21 A3023 RMK AO2 SLP227 T02610211=
201807061152 METAR KATL 061152Z 00000KT 10SM FEW036 FEW150 SCT200 BKN250 25/21 A3023 RMK AO2 SLP226 T02500211 10256 20233 51003=
201807061052 METAR KATL 061052Z 32005KT 10SM FEW085 FEW150 SCT200 BKN250 24/21 A3023 RMK AO2 SLP226 ACC DSNT NW-NE T02390211=
201807060952 METAR KATL 060952Z 30003KT 10SM FEW150 SCT200 SCT250 23/21 A3022 RMK AO2 SLP223 T02330211=
201807060852 METAR KATL 060852Z 31004KT 10SM FEW250 24/21 A3022 RMK AO2 SLP222 T02390206 56007=
201807060752 METAR KATL 060752Z 00000KT 10SM FEW250 24/21 A3022 RMK AO2 SLP224 T02440211=
201807060652 METAR KATL 060652Z 00000KT 10SM FEW200 SCT250 25/22 A3023 RMK AO2 SLP224 T02500217=
201807060552 METAR KATL 060552Z 00000KT 10SM FEW250 25/21 A3024 RMK AO2 SLP229 60000 T02500211 10300 20250 58002=
201807060452 METAR KATL 060452Z 14003KT 10SM FEW040 SCT250 26/21 A3025 RMK AO2 SLP231 T02560211 403170239=
201807060352 METAR KATL 060352Z 15004KT 10SM FEW040 SCT250 26/21 A3025 RMK AO2 SLP232 T02610211=
201807060252 METAR KATL 060252Z 09006KT 10SM FEW060 SCT250 27/21 A3025 RMK AO2 SLP231 60000 T02720206 51015=
201807060152 METAR KATL 060152Z 36003KT 10SM FEW035 FEW150 SCT250 28/20 A3024 RMK AO2 SLP228 TSE20 T02780200=
201807060122 SPECI KATL 060122Z 33006KT 10SM FEW035 SCT150 BKN250 28/20 A3022 RMK AO2 TSE20 TS DSIPTD T02780200=
201807060052 METAR KATL 060052Z 03010KT 10SM VCTS FEW035CB SCT100 BKN250 28/21 A3022 RMK AO2 SLP221 TSB38 OCNL LTGICCG NW TS VC NW MOV W P0000 T02780206=
201807060039 SPECI KATL 060039Z 06009KT 10SM TS FEW035CB SCT060 BKN100 BKN250 28/21 A3021 RMK AO2 TSB38 OCNL LTGICCG NW-N TS NW-N MOV W P0000 T02830211=
201807052352 METAR KATL 052352Z 09008KT 10SM FEW035CB FEW060 BKN250 29/20 A3020 RMK AO2 SLP216 CB VC E-SE MOV W TCU SE-S & DSNT SW-W T02940200 10317 20289 55003=
201807052252 METAR KATL 052252Z 09009KT 10SM FEW040TCU SCT200 BKN250 30/19 A3018 RMK AO2 SLP209 TCU VC S-SW T03000194=
201807052152 METAR KATL 052152Z 09007KT 10SM FEW045 SCT250 31/20 A3019 RMK AO2 SLP210 MDT CU SE-SW T03110200=
201807052052 METAR KATL 052052Z 08008KT 10SM FEW040 FEW070 SCT250 32/21 A3021 RMK AO2 SLP219 CB DSNT NW-N-NE SHRA DSNT NW-N-NE T03170211 58017=
201807051952 METAR KATL 051952Z 07009KT 10SM FEW040 SCT060 SCT250 29/21 A3023 RMK AO2 SLP226 CB DSNT NE TCU DSNT E & DSNT NW-N T02940211=
201807051852 METAR KATL 051852Z 15007KT 10SM SCT038TCU BKN090 BKN250 30/21 A3025 RMK AO2 SLP233 TCU OHD-N-NE-E SHRA NE-E T03000211=
201807051752 METAR KATL 051752Z 08008KT 10SM SCT040TCU BKN080 BKN250 31/21 A3026 RMK AO2 SLP238 TCU OHD & ALQDS T03060211 10306 20250 58006=
201807051652 METAR KATL 051652Z 11007KT 10SM FEW030CB SCT040TCU SCT250 29/22 A3028 RMK AO2 SLP243 CB NE MOV W TCU W MDT CU ALQDS SHRA VC NE T02940217=
201807051552 METAR KATL 051552Z 10010KT 10SM BKN030 BKN250 28/21 A3028 RMK AO2 SLP243 TCU DSNT NE-E MDT CU ALQDS T02780211=
201807051452 METAR KATL 051452Z 08010KT 10SM SCT025 SCT250 28/22 A3028 RMK AO2 SLP245 MDT CU ALQDS T02830217 58003=
201807051352 METAR KATL 051352Z 09008KT 10SM BKN020TCU BKN250 27/23 A3029 RMK AO2 SLP249 TCU OHD-N-NE-E T02720228=
201807051252 METAR KATL 051252Z 06010KT 10SM SCT012 SCT024 SCT100 BKN250 26/22 A3029 RMK AO2 SLP246 T02610222=
201807051152 METAR KATL 051152Z 08008KT 7SM FEW024 FEW100 SCT200 SCT250 25/22 A3027 RMK AO2 SLP240 70017 T02500217 10250 20239 51014=
201807051052 METAR KATL 051052Z 06008KT 8SM FEW024 FEW100 SCT200 BKN250 24/21 A3026 RMK AO2 SLP236 T02390211=
201807050952 METAR KATL 050952Z 05006KT 10SM FEW044 SCT100 SCT250 24/21 A3025 RMK AO2 SLP232 CB DSNT NE ACC DSNT E T02390211=
201807050852 METAR KATL 050852Z 07004KT 10SM FEW012 FEW085 SCT250 24/21 A3023 RMK AO2 SLP225 T02390211 53002=
201807050752 METAR KATL 050752Z 07006KT 8SM FEW085 SCT200 BKN250 24/21 A3022 RMK AO2 SLP223 T02390211=
201807050652 METAR KATL 050652Z 09005KT 8SM FEW050 FEW085 SCT250 24/21 A3022 RMK AO2 SLP221 T02390211=
201807050552 METAR KATL 050552Z 08006KT 7SM FEW050 FEW080 BKN250 24/22 A3022 RMK AO2 SLP222 ACC N 60017 T02390217 10294 20233 58002=
201807050452 METAR KATL 050452Z 10005KT 7SM SCT050 BKN080 BKN250 24/22 A3023 RMK AO2 SLP224 T02440217 403280233=
201807050352 METAR KATL 050352Z 04005KT 7SM FEW050 SCT070 SCT250 25/22 A3023 RMK AO2 SLP225 T02500217=
201807050252 METAR KATL 050252Z 09005KT 10SM FEW070 SCT110 SCT250 25/22 A3023 RMK AO2 RAE09 TSE22 SLP225 LTG DSNT SW-NW P0013 60017 T02500217 51021=
201807050222 SPECI KATL 050222Z 08003KT 10SM FEW035 BKN080 BKN110 BKN200 24/22 A3022 RMK AO2 RAE09 TSE22 LTG DSNT SW-NW TS MOV W P0013 T02440217=
201807050152 METAR KATL 050152Z 12015G26KT 8SM -TSRA SCT035CB BKN060 BKN100 BKN200 24/21 A3022 RMK AO2 PK WND 10027/0142 RAB31 TSB33 SLP222 OCNL LTGIC S-W-NW TS S-W-NW MOV W P0004 T02390211=
201807050133 SPECI KATL 050133Z 13005KT 9SM -TSRA SCT040CB BKN090 BKN200 29/21 A3021 RMK AO2 LTG DSNT NE RAB31 TSB33 OCNL LTGIC NE-SE TS NE-SE MOV W P0000 T02890206=
201807050052 METAR KATL 050052Z 11007KT 10SM FEW040 SCT200 29/20 A3019 RMK AO2 SLP213 CB DSNT E T02890200=
201807042352 METAR KATL 042352Z 09009KT 10SM FEW040 SCT250 29/20 A3016 RMK AO2 SLP202 CB DSNT E TCU DSNT NE & NW 60000 T02940200 10328 20294 55000=
201807042252 METAR KATL 042252Z 09012KT 10SM FEW040 BKN250 30/21 A3016 RMK AO2 SLP202 TCU DSNT N-NE T03000206=
201807042152 METAR KATL 042152Z 09013KT 10SM FEW045TCU SCT250 30/20 A3016 RMK AO2 SLP201 TCU VC W & DSNT N-NE T03000200=
201807042052 METAR KATL 042052Z 08012G17KT 10SM SCT048 SCT080 SCT220 BKN250 32/20 A3016 RMK AO2 SLP202 TCU SCT N MDT CU DSNT E 60000 T03220200 58013=
201807041952 METAR KATL 041952Z 11013KT 10SM SCT045TCU SCT080 BKN250 32/20 A3018 RMK AO2 SLP209 RAB02E14 TCU SE & S & DSNT W-N-E P0000 T03170200=
201807041852 METAR KATL 041852Z 08014KT 10SM BKN045TCU BKN100 BKN250 31/20 A3019 RMK AO2 SLP210 TCU OHD & NE & SE T03110200=
201807041752 METAR KATL 041752Z 11016G22KT 10SM SCT042TCU SCT110 BKN250 32/21 A3020 RMK AO2 SLP215 CB DSNT W TCU SW & DSNT E T03170206 10322 20244 58005=
201807041652 METAR KATL 041652Z 08014G19KT 10SM SCT035 SCT250 31/21 A3021 RMK AO2 SLP217 MDT CU ALQDS T03110206=
201807041552 METAR KATL 041552Z 07010KT 10SM SCT025 SCT150 SCT250 31/21 A3022 RMK AO2 SLP221 TCU DSNT NW MDT CU DSNT E-S-W T03060211=
201807041452 METAR KATL 041452Z 04008KT 10SM FEW025 SCT040TCU SCT095 29/21 A3022 RMK AO2 SLP220 TCU W-NW T02940211 50010=
201807041352 METAR KATL 041352Z 09006KT 10SM SCT070 BKN095 BKN110 BKN250 26/21 A3022 RMK AO2 SLP222 T02610211=
201807041252 METAR KATL 041252Z 09007KT 10SM FEW075 SCT100 SCT250 24/21 A3021 RMK AO2 SLP219 ACC E-S T02440206=
201807041152 METAR KATL 041152Z 03008KT 10SM FEW075 SCT100 SCT250 26/20 A3019 RMK AO2 SLP211 ACC NE-SE 60000 T02560200 10261 20239 51010=
201807041052 METAR KATL 041052Z 05008KT 10SM FEW075 SCT100 SCT250 24/19 A3018 RMK AO2 SLP207 CB DSNT N TCU DSNT E T02440194=
201807040952 METAR KATL 040952Z 04007KT 10SM FEW075 FEW100 SCT250 24/20 A3017 RMK AO2 SLP205 T02440200=
201807040852 METAR KATL 040852Z 11003KT 10SM FEW030 FEW075 SCT100 SCT250 24/20 A3016 RMK AO2 RAB08E28 SLP200 P0000 60000 T02440200 57008=
201807040752 METAR KATL 040752Z 00000KT 10SM SCT070 BKN090 BKN250 25/20 A3017 RMK AO2 SLP204 CB DSNT E ACC SW SHRA DSNT E T02500200=
201807040652 METAR KATL 040652Z 15003KT 10SM FEW075 FEW100 SCT250 26/20 A3017 RMK AO2 SLP204 ACC N T02560200=
201807040552 METAR KATL 040552Z 09005KT 10SM SCT070 BKN100 BKN150 BKN200 26/20 A3018 RMK AO2 SLP207 ACC SW-NW-N T02610200 10317 20261 51010=
201807040452 METAR KATL 040452Z 11004KT 10SM FEW030 SCT100 BKN150 BKN200 27/20 A3017 RMK AO2 SLP203 TSE21 LTG DSNT NE & NW T02670200 403330228=
201807040421 SPECI KATL 040421Z 12006KT 10SM FEW030 SCT100 BKN150 OVC200 27/20 A3018 RMK AO2 TSE21 LTG DSNT NW TS MOV SW T02720200=
201807040352 METAR KATL 040352Z 12011G16KT 10SM VCTS FEW030CB BKN150 OVC200 28/20 A3017 RMK AO2 LTG DSNT N SLP204 TSB51 OCNL LTGICCG NW-N TS VC NW-N MOV SW T02780200=
201807040252 METAR KATL 040252Z 09007KT 10SM FEW075 BKN150 OVC200 29/22 A3015 RMK AO2 SLP197 T02890217 53015=
201807040152 METAR KATL 040152Z 08007KT 10SM FEW100 SCT150 BKN200 OVC250 31/20 A3012 RMK AO2 SLP187 T03060200=
201807040052 METAR KATL 040052Z 09010KT 10SM BKN200 BKN250 31/20 A3010 RMK AO2 SLP182 VIRGA NE-SE T03060200=
201807032352 METAR KATL 032352Z 09008KT 10SM FEW200 BKN250 32/19 A3010 RMK AO2 SLP182 T03170194 10333 20311 55004=
201807032252 METAR KATL 032252Z 12006KT 10SM FEW050 BKN250 32/19 A3010 RMK AO2 SLP181 T03220194=
201807032152 METAR KATL 032152Z 11007KT 10SM FEW050 SCT250 32/19 A3011 RMK AO2 SLP183 T03220194=
201807032052 METAR KATL 032052Z 12007KT 10SM SCT050 SCT250 33/20 A3012 RMK AO2 SLP186 MDT CU N-NE & S-SW T03280200 58016=
201807031952 METAR KATL 031952Z 14007KT 10SM SCT047 33/20 A3013 RMK AO2 SLP192 MDT CU ALQDS T03280200=
201807031852 METAR KATL 031852Z 11008G17KT 10SM SCT050 32/20 A3015 RMK AO2 SLP198 T03220200=
201807031752 METAR KATL 031752Z VRB06KT 10SM SCT047 32/21 A3017 RMK AO2 SLP203 T03220211 10322 20233 58002=
201807031652 METAR KATL 031652Z 14008KT 10SM SCT045 SCT150 32/21 A3017 RMK AO2 SLP206 T03170206=
201807031552 METAR KATL 031552Z 12006KT 10SM FEW040 FEW150 SCT250 31/22 A3018 RMK AO2 SLP207 T03060217=
201807031452 METAR KATL 031452Z 11007KT 10SM FEW030 FEW150 SCT250 29/22 A3017 RMK AO2 SLP205 T02940222 51009=
201807031352 METAR KATL 031352Z 08005KT 10SM FEW020 FEW150 SCT250 28/23 A3017 RMK AO2 SLP205 T02780228=
201807031252 METAR KATL 031252Z 09005KT 10SM SCT150 BKN220 BKN250 26/22 A3015 RMK AO2 SLP200 T02560217=
201807031152 METAR KATL 031152Z 08005KT 10SM CLR 23/21 A3014 RMK AO2 SLP197 70001 T02330211 10256 20228 53017=
201807031052 METAR KATL 031052Z 08006KT 10SM FEW050 SCT080 SCT150 BKN200 BKN250 23/21 A3013 RMK AO2 SLP192 T02330206=
201807030952 METAR KATL 030952Z 11004KT 10SM FEW045 SCT150 SCT200 23/21 A3010 RMK AO2 SLP182 T02330206=
201807030852 METAR KATL 030852Z 11004KT 10SM FEW045 FEW200 23/21 A3009 RMK AO2 SLP179 T02330206 55005=
201807030752 METAR KATL 030752Z 09007KT 10SM FEW045 FEW200 SCT250 24/21 A3009 RMK AO2 SLP177 T02390211=
201807030652 METAR KATL 030652Z 09005KT 10SM FEW050 SCT200 BKN250 24/21 A3009 RMK AO2 SLP180 T02440211=
201807030552 METAR KATL 030552Z 11004KT 10SM FEW050 BKN200 BKN250 26/21 A3011 RMK AO2 SLP184 T02560206 10294 20256 50006=
201807030452 METAR KATL 030452Z 15005KT 10SM FEW045 SCT200 BKN250 26/21 A3013 RMK AO2 SLP190 T02610206 403110233=
201807030352 METAR KATL 030352Z 12006KT 10SM SCT040 BKN250 27/22 A3012 RMK AO2 SLP187 T02720217=
201807030252 METAR KATL 030252Z 00000KT 10SM FEW150 SCT250 27/22 A3009 RMK AO2 SLP178 T02720217 51010=
201807030152 METAR KATL 030152Z 12004KT 10SM FEW035 FEW150 SCT250 28/22 A3008 RMK AO2 LTG DSNT W SLP175 CB DSNT W-NW T02780217=
201807030052 METAR KATL 030052Z 13005KT 10SM FEW040 SCT130 BKN250 28/22 A3008 RMK AO2 SLP174 T02830217=
201807022352 METAR KATL 022352Z 12010KT 10SM FEW040 SCT200 BKN250 29/21 A3006 RMK AO2 SLP167 T02940211 10311 20283 53003=
201807022252 METAR KATL 022252Z 15008KT 10SM SCT040 BKN250 31/21 A3003 RMK AO2 SLP158 T03060206=
201807022152 METAR KATL 022152Z 14009KT 10SM SCT040 SCT250 30/21 A3004 RMK AO2 SLP160 T03000206=
201807022052 METAR KATL 022052Z 14008KT 10SM BKN037TCU BKN070 BKN250 30/21 A3005 RMK AO2 SLP164 TCU OHD-W SHRA VC W T03000206 56017=
201807021952 METAR KATL 021952Z 13010KT 10SM FEW035TCU SCT045 SCT250 31/22 A3006 RMK AO2 SLP167 TCU W-NW-N T03060217=
201807021852 METAR KATL 021852Z 12008KT 10SM SCT030TCU SCT040 BKN050 BKN250 29/22 A3008 RMK AO2 SLP174 TCU N & E-SE & NW T02940217=
201807021752 METAR KATL 021752Z 13003KT 10SM FEW020 FEW030 SCT040 SCT250 28/23 A3010 RMK AO2 RAB06E24 SLP181 TCU DSNT W P0001 60001 T02830228 10283 20233 58002=
201807021715 SPECI KATL 021715Z 12005KT 10SM -RA SCT020 BKN030 BKN040 BKN250 27/22 A3011 RMK AO2 RAB06 P0001 T02670222=
201807021652 METAR KATL 021652Z 07005KT 10SM BKN025 BKN050 BKN250 27/22 A3011 RMK AO2 SLP186 T02720217=
201807021552 METAR KATL 021552Z 11004KT 10SM SCT020 BKN030 OVC040 26/22 A3011 RMK AO2 SLP186 T02610217=
201807021452 METAR KATL 021452Z 13005KT 10SM FEW015 BKN020 BKN030 BKN250 25/21 A3010 RMK AO2 SLP184 T02500211 53004=
201807021352 METAR KATL 021352Z 13007KT 10SM FEW012 BKN025 BKN250 26/21 A3010 RMK AO2 SLP182 T02560211=
201807021252 METAR KATL 021252Z 14007KT 8SM SCT007 BKN012 BKN180 BKN250 24/22 A3009 RMK AO2 SLP180 CIG 011V016 BKN012 V SCT MDT CU OHD-E-SE T02440217=
201807021248 SPECI KATL 021248Z 16006KT 8SM SCT007 BKN012 BKN180 BKN250 24/22 A3009 RMK AO2 CIG 011V016 BKN012 V SCT MDT CU OHD-E-SE=
201807021152 METAR KATL 021152Z 13005KT 6SM BR BKN005 BKN180 23/22 A3008 RMK AO2 SLP177 BKN005 V SCT 70006 T02330217 10239 20233 52005=
201807021052 METAR KATL 021052Z 11004KT 6SM BR BKN006 BKN036 BKN180 BKN250 23/22 A3008 RMK AO2 SLP175 CIG 005V009 BKN006 V SCT T02330217=
201807021042 SPECI KATL 021042Z 11004KT 6SM BR BKN006 BKN010 BKN180 23/22 A3008 RMK AO2 T02330217=
201807021009 SPECI KATL 021009Z 14003KT 7SM SCT005 SCT011 SCT026 BKN180 23/22 A3007 RMK AO2 T02330217=
201807020952 METAR KATL 020952Z 00000KT 7SM BKN007 BKN011 BKN026 BKN180 23/22 A3007 RMK AO2 SLP172 CIG 005V009 BKN007 V SCT T02330217=
201807020852 METAR KATL 020852Z 14003KT 7SM BKN007 BKN032 BKN200 23/22 A3007 RMK AO2 SLP172 CIG 006V009 BKN007 V SCT T02330217 50001 $=
201807020752 METAR KATL 020752Z 00000KT 7SM BKN006 OVC030 23/22 A3007 RMK AO2 SLP172 CIG 005V009 T02330222 $=
201807020734 SPECI KATL 020734Z 13004KT 7SM BKN005 OVC030 24/22 A3007 RMK AO2 T02390222 $=
201807020652 METAR KATL 020652Z 12005KT 10SM SCT007 BKN031 BKN080 BKN250 24/22 A3007 RMK AO2 SLP171 T02390222 $=
201807020552 METAR KATL 020552Z 13005KT 10SM FEW009 SCT020 SCT080 SCT150 BKN250 24/22 A3006 RMK AO2 SLP170 60001 T02390222 10283 20239 58002 $=
201807020516 SPECI KATL 020516Z 15003KT 10SM FEW009 SCT023 BKN150 BKN250 24/22 A3007 RMK AO2 T02440222 $=
201807020452 METAR KATL 020452Z 16004KT 10SM FEW010 SCT033 BKN160 BKN250 24/22 A3007 RMK AO2 SLP171 T02390222 403060228 $=
201807020352 METAR KATL 020352Z 15003KT 10SM FEW020 SCT033 SCT110 BKN250 24/22 A3007 RMK AO2 SLP175 TCU DSNT N SHRA DSNT N T02440222 $=
201807020252 METAR KATL 020252Z 09005KT 10SM SCT036 BKN065 BKN080 BKN250 24/22 A3007 RMK AO2 RAE22B39E52 SLP171 LTG DSNT NE CB DSNT NE P0000 60001 T02440222 53014 $=
201807020152 METAR KATL 020152Z 15007KT 10SM -RA FEW020 SCT035 BKN110 BKN250 24/22 A3005 RMK AO2 LTG DSNT E RAB33 SLP165 CB DSNT E P0001 T02390217 $=
201807020052 METAR KATL 020052Z 00000KT 10SM FEW020 SCT035CB SCT110 SCT150 BKN250 28/22 A3004 RMK AO2 LTG DSNT E AND S SLP161 CB DSNT E AND S T02780222 $=
201807012352 METAR KATL 012352Z 00000KT 10SM FEW038 SCT090 SCT110 SCT150 BKN250 28/22 A3003 RMK AO2 LTG DSNT SE AND S SLP158 CB DSNT NE & SE TCU DSNT S 60000 T02780222 10306 20272 51001 $=
201807012252 METAR KATL 012252Z 25003KT 10SM SCT038 BKN090 BKN110 BKN150 BKN250 28/23 A3003 RMK AO2 SLP158 OCNL LTG DSNT NW CB DSNT NW TCU DSNT NE & SE-SW T02830228 $=
201807012222 SPECI KATL 012222Z 27004KT 10SM SCT035 BKN090 BKN150 BKN250 28/23 A3003 RMK AO2 LTG DSNT NW CB DSNT NW TCU DSNT NE & SE & SW T02780228 $=
201807012209 SPECI KATL 012209Z 22004KT 10SM VCTS SCT035CB BKN080 BKN100 BKN150 BKN250 28/22 A3003 RMK AO2 OCNL LTGIC VC W-NW TS VC W-NW MOV NW TCU OHD-N T02780222 $=
201807012152 METAR KATL 012152Z 16004KT 10SM SCT034CB BKN075 BKN090 BKN150 BKN250 28/21 A3003 RMK AO2 RAB29E39 SLP159 CB VC W-NW MOV NW TCU OHD-N P0000 T02830211 $=
201807012052 METAR KATL 012052Z 09009KT 10SM SCT030CB BKN075 BKN110 BKN250 27/21 A3003 RMK AO2 RAB31E51 SLP157 CB NW-N MOV NW CB DSNT ALQDS TCU NE-SE P0000 60000 T02720211 58016 $=
201807012035 SPECI KATL 012035Z 13011G16KT 090V160 6SM -RA SCT030CB BKN075 BKN110 BKN250 31/22 A3004 RMK AO2 RAB31 CB NE-OHD-S MOV NW CB DSNT ALQDS P0000 T03060217 $=
201807011952 METAR KATL 011952Z 18007KT 10SM SCT024TCU BKN075 BKN110 BKN250 28/23 A3005 RMK AO2 SLP163 CB DSNT SE-SW NW TCU N-E-SE T02830228 $=
201807011852 METAR KATL 011852Z 12010KT 10SM FEW026CB SCT036TCU BKN085 BKN250 29/21 A3006 RMK AO2 SLP168 CB E S MOV NW CB DSNT NW-NE TCU SE SW SHRA E S T02890211 $=
201807011752 METAR KATL 011752Z 11010KT 10SM FEW036TCU BKN075 BKN110 BKN250 29/22 A3008 RMK AO2 RAB1659E10 SLP173 CB DSNT ALQDS TCU SE SW-W P0000 60005 T02940222 10294 20233 58004 $=
201807011652 METAR KATL 011652Z 11007KT 10SM FEW036 SCT065 BKN100 BKN250 28/23 A3009 RMK AO2 RAE16 SLP179 CB DSNT NE E SE-S W TCU DSNT NE-SE SW P0003 T02780228=
201807011608 SPECI KATL 011608Z 11008KT 10SM -RA SCT022CB BKN060 BKN100 BKN250 25/22 A3009 RMK AO2 CB SW-W MOV NW TCU ALQDS P0003 T02500222=
201807011552 METAR KATL 011552Z 13007KT 6SM R09R/5500VP6000FT RA BR BKN020CB BKN060 BKN100 BKN250 24/22 A3009 RMK AO2 RAB39 SLP180 CB OHD-S-SW MOV W TCU ALQDS P0002 T02390217=
201807011452 METAR KATL 011452Z 10009G14KT 10SM BKN020 BKN040 BKN100 BKN250 27/21 A3009 RMK AO2 SLP178 MDT CU OHD-ALQDS T02720211 50001=
201807011352 METAR KATL 011352Z 09007KT 10SM BKN016 OVC028 26/22 A3009 RMK AO2 SLP178 MDT CU OHD-ALQDS BINOVC T02610217=
201807011252 METAR KATL 011252Z 09008KT 10SM BKN010 BKN080 BKN250 26/22 A3010 RMK AO2 SLP180 BKN010 V SCT T02560217=
201807011230 SPECI KATL 011230Z 07007KT 9SM SCT007 BKN080 BKN250 24/21 A3009 RMK AO2 T02390211=
