##########################################################
# Query made at 04/19/2024 23:58:25 UTC
# Time interval: from 03/01/2018 12:00  to 03/31/2018 12:59  UTC
##########################################################

##########################################################
# KATL, Atlanta, Hartsfield - Jackson Atlanta International Airport (United States)
# WMO index: 72219. WIGOS ID: 0-20000-0-72219
# Latitude 33-38-59N. Longitude 084-25-00W. Altitude 312 m.
##########################################################

201803311252 METAR KATL 311252Z 10008KT 10SM FEW250 08/04 A3032 RMK AO2 SLP267 T00830039=
201803311152 METAR KATL 311152Z 06008KT 10SM FEW250 08/03 A3029 RMK AO2 SLP258 T00780033 10094 20067 53012=
201803311052 METAR KATL 311052Z 04007KT 10SM FEW250 08/03 A3028 RMK AO2 SLP255 T00780033=
201803310952 METAR KATL 310952Z 35004KT 10SM FEW250 08/03 A3026 RMK AO2 SLP246 T00780033=
201803310852 METAR KATL 310852Z 36009KT 10SM FEW250 08/03 A3025 RMK AO2 SLP245 T00830033 58001=
201803310752 METAR KATL 310752Z 36008KT 10SM FEW250 09/04 A3025 RMK AO2 SLP244 T00890039=
201803310652 METAR KATL 310652Z 34006KT 10SM FEW250 09/04 A3026 RMK AO2 SLP248 T00890039=
201803310552 METAR KATL 310552Z 34008KT 10SM FEW250 10/04 A3026 RMK AO2 SLP245 T01000039 10150 20100 50004=
201803310452 METAR KATL 310452Z 34008KT 10SM SCT250 11/04 A3026 RMK AO2 SLP246 T01060039 401830106=
201803310352 METAR KATL 310352Z 34007KT 10SM FEW200 SCT250 12/04 A3025 RMK AO2 SLP242 T01170039=
201803310252 METAR KATL 310252Z 35008KT 10SM FEW200 SCT250 12/03 A3024 RMK AO2 SLP241 T01220033 51023=
201803310152 METAR KATL 310152Z 34015KT 10SM BKN250 13/04 A3023 RMK AO2 SLP235 T01330044=
201803310052 METAR KATL 310052Z 32008KT 10SM BKN250 14/06 A3020 RMK AO2 SLP225 T01390056=
201803302352 METAR KATL 302352Z 32017KT 10SM FEW045 BKN250 15/05 A3018 RMK AO2 SLP216 T01500050 10183 20150 53018=
201803302252 METAR KATL 302252Z 33015G21KT 10SM FEW045 BKN250 17/06 A3015 RMK AO2 SLP209 T01670061=
201803302152 METAR KATL 302152Z 33016G23KT 10SM FEW045 BKN250 17/07 A3014 RMK AO2 SLP202 T01720072=
201803302052 METAR KATL 302052Z 31013G21KT 10SM FEW045 SCT200 BKN250 17/07 A3012 RMK AO2 SLP197 T01720072 58000=
201803301952 METAR KATL 301952Z 31018KT 10SM FEW043 SCT200 BKN250 17/08 A3013 RMK AO2 SLP198 T01720078=
201803301852 METAR KATL 301852Z 32013KT 10SM FEW040 SCT050 BKN250 17/09 A3012 RMK AO2 SLP198 T01670089=
201803301752 METAR KATL 301752Z 29013KT 10SM FEW038 SCT200 BKN250 17/09 A3012 RMK AO2 SLP196 T01720094 10172 20133 50005=
201803301652 METAR KATL 301652Z 32014KT 10SM BKN035 BKN200 BKN250 17/09 A3013 RMK AO2 SLP201 T01670094=
201803301612 SPECI KATL 301612Z 32013KT 10SM SCT027 16/09 A3013 RMK AO2 T01560094=
201803301552 METAR KATL 301552Z 31012KT 10SM BKN028 BKN200 BKN250 15/10 A3013 RMK AO2 SLP201 T01500100=
201803301517 SPECI KATL 301517Z 30010KT 10SM BKN025 BKN200 BKN250 15/10 A3012 RMK AO2 T01500100=
201803301452 METAR KATL 301452Z 31011KT 10SM SCT024 SCT200 BKN250 14/10 A3011 RMK AO2 SLP192 T01440100 51024=
201803301352 METAR KATL 301352Z 31015KT 10SM FEW018 SCT200 BKN250 13/10 A3008 RMK AO2 SLP184 T01330100=
201803301252 METAR KATL 301252Z 29011KT 10SM FEW018 SCT027 BKN200 BKN250 13/11 A3007 RMK AO2 SLP179 T01330106=
201803301217 SPECI KATL 301217Z 31016KT 10SM FEW017 SCT027 BKN200 BKN250 14/12 A3005 RMK AO2 T01390117=
201803301152 METAR KATL 301152Z 27009KT 10SM SCT016 BKN027 BKN200 BKN250 14/13 A3003 RMK AO2 SLP166 70093 T01390128 10167 20139 53022=
201803301052 METAR KATL 301052Z 26007KT 10SM FEW016 SCT026 SCT120 BKN200 14/13 A3000 RMK AO2 SLP152 T01440133=
201803301047 SPECI KATL 301047Z 27008KT 10SM SCT016 SCT120 BKN200 14/13 A3000 RMK AO2=
201803300952 METAR KATL 300952Z 27007KT 10SM SCT010 OVC022 15/14 A2998 RMK AO2 SLP147 BINOVC T01500139=
201803300910 SPECI KATL 300910Z 26006KT 10SM SCT008 OVC016 15/14 A2997 RMK AO2 T01500139=
201803300852 METAR KATL 300852Z 27008KT 10SM SCT008 BKN014 OVC024 15/14 A2997 RMK AO2 SLP141 T01500139 53006=
201803300821 SPECI KATL 300821Z 26005KT 10SM FEW006 BKN020 BKN100 BKN250 15/14 A2996 RMK AO2 T01500144=
201803300752 METAR KATL 300752Z 27008KT 10SM FEW006 SCT015 SCT100 BKN250 15/14 A2995 RMK AO2 SLP136 T01500144=
201803300744 SPECI KATL 300744Z 28009KT 10SM FEW007 SCT015 SCT090 BKN200 16/15 A2995 RMK AO2 T01560150=
201803300706 SPECI KATL 300706Z 28009KT 10SM SCT007 BKN015 BKN085 OVC200 16/16 A2995 RMK AO2 T01610161=
201803300652 METAR KATL 300652Z 28010KT 10SM SCT006 BKN075 OVC110 16/16 A2995 RMK AO2 SLP135 T01610161=
201803300614 SPECI KATL 300614Z 24006KT 10SM FEW007 BKN070 OVC110 17/16 A2995 RMK AO2 T01670161=
201803300552 METAR KATL 300552Z 25006KT 10SM FEW015 BKN065 BKN100 OVC200 17/16 A2995 RMK AO2 SLP137 60093 T01670161 10217 20167 50000=
201803300452 METAR KATL 300452Z 24007KT 10SM FEW006 SCT015 BKN060 OVC150 17/17 A2996 RMK AO2 RAB0354E16 SLP140 P0001 T01670167 402440139=
201803300352 METAR KATL 300352Z 24009KT 10SM SCT006 BKN015 BKN050 OVC150 17/17 A2996 RMK AO2 RAE34 SLP140 P0003 T01720172=
201803300318 SPECI KATL 300318Z 24007KT 9SM -RA SCT006 BKN010 BKN050 OVC150 17/17 A2996 RMK AO2 P0003 T01720172=
201803300252 METAR KATL 300252Z 25004KT 6SM -RA BR FEW006 SCT060 BKN090 OVC150 17/17 A2995 RMK AO2 SLP137 P0010 60089 T01720172 51024=
201803300152 METAR KATL 300152Z 21006KT 4SM RA BR FEW006 BKN040 OVC080 17/17 A2994 RMK AO2 SLP134 P0037 T01670167=
201803300145 SPECI KATL 300145Z 21007KT 2 1/2SM +RA BR FEW008 BKN035 OVC080 17/17 A2995 RMK AO2 P0030 T01720167=
201803300052 METAR KATL 300052Z 29012KT 4SM RA BR FEW008 BKN040 BKN070 OVC150 17/17 A2995 RMK AO2 PK WND 28027/0015 WSHFT 0012 RAB18 TSE42 SLP137 CB DSNT NE-SE P0042 T01670167=
201803300042 SPECI KATL 300042Z 30013KT 4SM RA BR FEW008CB BKN030 BKN070 OVC150 17/17 A2994 RMK AO2 PK WND 28027/0015 WSHFT 0012 RAB18 TSE42 TS DSIPTD CB VC NE-SE MOV NE P0037 T01720172=
201803300031 SPECI KATL 300031Z 29015G23KT 2SM +TSRA BR FEW008CB BKN035 BKN070 OVC150 17/17 A2995 RMK AO2 PK WND 28027/0015 WSHFT 0012 RAB18 PRESRR OCNL LTGIC NW-NE TS VC NW-NE MOV NE CB NE-OHD-SW MOV NE P0017 T01720172=
201803300022 SPECI KATL 300022Z 31017G27KT 2 1/2SM +TSRA BR FEW020CB BKN035 BKN070 OVC150 18/17 A2992 RMK AO2 PK WND 28027/0015 RAB18 PRESRR OCNL LTGIC N-NE TS VC N-NE MOV NE CB NE-OHD-SW MOV NE P0002 T01830167=
201803292352 METAR KATL 292352Z 16009KT 10SM TS FEW025CB BKN070 BKN100 OVC200 22/16 A2988 RMK AO2 TSB52 SLP112 OCNL LTGIC SW-NW TS VC SW-NW MOV NE 60000 T02170156 10244 20211 58007=
201803292252 METAR KATL 292252Z 18011G20KT 10SM BKN036 BKN080 OVC200 22/16 A2991 RMK AO2 PK WND 18026/2154 SLP121 T02220156=
201803292152 METAR KATL 292152Z 17015G24KT 10SM SCT045 BKN060 OVC250 24/16 A2990 RMK AO2 PK WND 20026/2134 RAB30E39 SLP117 P0000 T02390156=
201803292052 METAR KATL 292052Z 19013G23KT 10SM BKN050 BKN060 OVC250 23/14 A2990 RMK AO2 SLP119 T02330144 56032=
201803291952 METAR KATL 291952Z 18013G22KT 10SM FEW040 FEW060 SCT180 BKN250 24/14 A2992 RMK AO2 SLP125 T02390144=
201803291852 METAR KATL 291852Z 18014G25KT 10SM BKN040 BKN060 OVC250 22/14 A2996 RMK AO2 PK WND 15026/1829 SLP139 T02220144=
201803291752 METAR KATL 291752Z 20013G22KT 10SM BKN030 BKN040 BKN060 21/15 A3000 RMK AO2 SLP152 T02110150 10217 20144 58013=
201803291652 METAR KATL 291652Z 18016G26KT 10SM FEW025 BKN030 BKN050 BKN250 21/15 A3003 RMK AO2 PK WND 19026/1650 SLP161 T02110150=
201803291606 SPECI KATL 291606Z 18015G21KT 10SM SCT020 BKN030 BKN050 BKN250 20/16 A3004 RMK AO2 T02000156=
201803291552 METAR KATL 291552Z 19016G20KT 10SM BKN025 BKN050 BKN250 20/16 A3004 RMK AO2 SLP167 T02000156=
201803291452 METAR KATL 291452Z 19013G19KT 10SM FEW020 BKN050 BKN250 19/15 A3004 RMK AO2 SLP166 T01940150 51004=
201803291352 METAR KATL 291352Z 19009KT 9SM FEW045 SCT200 BKN250 17/14 A3004 RMK AO2 SLP166 T01720144=
201803291252 METAR KATL 291252Z 18009KT 8SM BKN045 BKN200 BKN250 16/13 A3004 RMK AO2 SLP168 T01560133=
201803291152 METAR KATL 291152Z 18006KT 8SM BKN200 BKN250 14/13 A3003 RMK AO2 SLP162 T01440133 10183 20139 53007=
201803291052 METAR KATL 291052Z 16005KT 9SM FEW150 BKN200 BKN250 15/13 A3000 RMK AO2 SLP152 T01500128=
201803290952 METAR KATL 290952Z 20006KT 9SM BKN200 BKN250 16/13 A2999 RMK AO2 SLP150 T01560128=
201803290852 METAR KATL 290852Z 20006KT 10SM FEW150 BKN200 OVC250 16/13 A3000 RMK AO2 SLP154 T01560128 58007=
201803290752 METAR KATL 290752Z 20007KT 10SM FEW150 BKN200 BKN250 17/13 A3001 RMK AO2 SLP156 T01670128=
201803290652 METAR KATL 290652Z 21008KT 10SM SCT200 BKN250 18/13 A3003 RMK AO2 SLP161 T01780128=
201803290552 METAR KATL 290552Z 19011KT 10SM BKN250 18/13 A3003 RMK AO2 SLP160 T01830128 10228 20183 55000=
201803290452 METAR KATL 290452Z 18009KT 10SM BKN250 19/13 A3003 RMK AO2 SLP161 T01890128 402440089=
201803290352 METAR KATL 290352Z 18009KT 10SM BKN250 19/13 A3003 RMK AO2 SLP161 T01890128=
201803290252 METAR KATL 290252Z 17006KT 10SM BKN250 19/13 A3003 RMK AO2 SLP163 T01940133 50000=
201803290152 METAR KATL 290152Z 18006KT 10SM BKN250 21/13 A3002 RMK AO2 SLP163 T02060133=
201803290052 METAR KATL 290052Z 17005KT 10SM FEW200 SCT250 21/13 A3004 RMK AO2 SLP168 T02060133=
201803282352 METAR KATL 282352Z 18007KT 10SM FEW060 SCT200 BKN250 23/13 A3003 RMK AO2 SLP164 T02280133 10244 20228 56010=
201803282252 METAR KATL 282252Z 19006KT 10SM SCT060 BKN200 BKN250 24/13 A3003 RMK AO2 SLP166 T02390133=
201803282152 METAR KATL 282152Z 23007KT 10SM SCT055 BKN200 BKN250 24/13 A3005 RMK AO2 SLP170 T02440133=
201803282052 METAR KATL 282052Z 20008KT 10SM FEW055 BKN200 BKN250 24/13 A3006 RMK AO2 SLP175 T02390133 56024=
201803281952 METAR KATL 281952Z 22010KT 10SM SCT045 BKN200 BKN250 24/13 A3008 RMK AO2 SLP181 T02390128=
201803281852 METAR KATL 281852Z 19013G20KT 10SM FEW050 SCT200 BKN250 24/13 A3010 RMK AO2 SLP189 T02390133=
201803281752 METAR KATL 281752Z 21012KT 10SM FEW040 SCT200 BKN250 23/13 A3013 RMK AO2 SLP200 T02330128 10233 20094 58013=
201803281652 METAR KATL 281652Z 20015G20KT 10SM FEW035 SCT200 BKN250 22/13 A3015 RMK AO2 SLP206 T02170133=
201803281552 METAR KATL 281552Z 21015G23KT 10SM FEW030 SCT200 BKN250 21/13 A3017 RMK AO2 SLP213 T02060133=
201803281452 METAR KATL 281452Z 20010KT 10SM FEW020 SCT150 BKN250 18/13 A3017 RMK AO2 SLP215 T01780133 51010=
201803281352 METAR KATL 281352Z 18009KT 9SM R09R/1000VP6000FT BKN250 15/12 A3017 RMK AO2 SLP215 T01500122=
201803281252 METAR KATL 281252Z 00000KT 7SM FEW006 FEW025 BKN250 12/11 A3016 RMK AO2 SLP214 T01170106=
201803281152 METAR KATL 281152Z 10004KT 7SM FEW006 BKN250 09/09 A3014 RMK AO2 SLP207 T00940089 10100 20089 53001=
201803281052 METAR KATL 281052Z 08006KT 7SM SCT006 BKN250 09/08 A3013 RMK AO2 SLP204 SCT006 V BKN T00890083=
201803281050 SPECI KATL 281050Z 08006KT 7SM SCT006 BKN250 09/08 A3013 RMK AO2 SCT006 V BKN=
201803281029 SPECI KATL 281029Z 09005KT 7SM BKN006 BKN250 09/09 A3012 RMK AO2 BKN006 V SCT T00940089=
201803280952 METAR KATL 280952Z 11004KT 10SM FEW035 BKN250 09/08 A3012 RMK AO2 SLP200 T00940083=
201803280852 METAR KATL 280852Z 12005KT 10SM FEW035 SCT250 09/08 A3014 RMK AO2 SLP206 T00940083 56025=
201803280752 METAR KATL 280752Z 11004KT 10SM FEW035 SCT250 10/08 A3016 RMK AO2 SLP213 T01000083=
201803280652 METAR KATL 280652Z 12006KT 10SM FEW035 FEW200 10/08 A3018 RMK AO2 SLP221 T01000083=
201803280552 METAR KATL 280552Z 12007KT 10SM FEW035 FEW060 FEW200 10/08 A3021 RMK AO2 SLP233 T01000083 10139 20100 58022=
201803280452 METAR KATL 280452Z 12005KT 10SM BKN034 BKN060 OVC200 11/08 A3025 RMK AO2 SLP243 T01060083 401560078=
201803280352 METAR KATL 280352Z 09006KT 10SM SCT034 BKN060 OVC200 11/09 A3027 RMK AO2 SLP253 T01110089=
201803280252 METAR KATL 280252Z 09008KT 10SM BKN036 OVC050 12/09 A3028 RMK AO2 SLP255 T01170089 50003=
201803280152 METAR KATL 280152Z 08007KT 10SM BKN036 OVC055 12/09 A3030 RMK AO2 SLP261 T01220089=
201803280052 METAR KATL 280052Z 07009KT 10SM OVC040 13/09 A3028 RMK AO2 SLP255 T01330089=
201803272352 METAR KATL 272352Z 08010KT 10SM BKN042 BKN060 BKN200 BKN250 14/09 A3027 RMK AO2 SLP252 T01390094 10156 20100 55009=
201803272252 METAR KATL 272252Z 11006KT 10SM FEW060 BKN200 BKN250 15/09 A3027 RMK AO2 SLP250 T01500094=
201803272152 METAR KATL 272152Z 13007KT 10SM FEW022 FEW065 BKN200 BKN250 15/09 A3028 RMK AO2 SLP255 T01500094=
201803272052 METAR KATL 272052Z 08006KT 10SM FEW020 SCT060 BKN250 14/09 A3030 RMK AO2 SLP262 T01390094 58010=
201803271952 METAR KATL 271952Z 13005KT 10SM FEW017 BKN060 BKN250 13/08 A3031 RMK AO2 SLP264 T01280083=
201803271928 SPECI KATL 271928Z 13006KT 10SM FEW017 BKN050 BKN070 12/08 A3031 RMK AO2 T01220083=
201803271852 METAR KATL 271852Z 11004KT 10SM BKN016 BKN060 11/08 A3033 RMK AO2 SLP274 T01110078=
201803271752 METAR KATL 271752Z 09010KT 10SM OVC013 10/07 A3036 RMK AO2 SLP284 60000 T01000072 10100 20089 58018=
201803271652 METAR KATL 271652Z 09007KT 8SM OVC013 10/07 A3039 RMK AO2 SLP295 T01000072=
201803271552 METAR KATL 271552Z 09009KT 10SM OVC013 09/06 A3041 RMK AO2 DZE44 SLP301 P0000 T00890061=
201803271452 METAR KATL 271452Z 11012G18KT 10SM -DZ OVC014 09/06 A3042 RMK AO2 DZE22B44 SLP303 P0000 60000 T00890061 50008=
201803271352 METAR KATL 271352Z 10012KT 9SM -DZ OVC018 09/06 A3042 RMK AO2 DZB49 SLP304 P0000 T00890056=
201803271252 METAR KATL 271252Z 10008KT 10SM OVC020 09/04 A3042 RMK AO2 SLP305 T00890044=
201803271152 METAR KATL 271152Z 10009G18KT 10SM OVC020 09/04 A3039 RMK AO2 SLP294 T00940039 10094 20083 53008=
201803271052 METAR KATL 271052Z 09011KT 10SM OVC024 09/03 A3038 RMK AO2 SLP290 T00890033=
201803270952 METAR KATL 270952Z 10009KT 10SM OVC024 09/03 A3037 RMK AO2 SLP285 T00940033=
201803270852 METAR KATL 270852Z 09012KT 10SM OVC027 09/03 A3036 RMK AO2 SLP285 T00890033 58019=
201803270752 METAR KATL 270752Z 09009KT 10SM OVC029 09/03 A3039 RMK AO2 SLP294 T00890033=
201803270652 METAR KATL 270652Z 09012KT 10SM OVC029 08/03 A3041 RMK AO2 SLP300 T00830033=
201803270552 METAR KATL 270552Z 08011KT 10SM OVC028 08/03 A3042 RMK AO2 SLP305 60000 T00830033 10083 20072 58015=
201803270452 METAR KATL 270452Z 08010KT 10SM OVC024 08/04 A3044 RMK AO2 SLP312 T00780039 400940072=
201803270352 METAR KATL 270352Z 10012KT 10SM BKN024 OVC028 07/03 A3045 RMK AO2 RAE06 SLP317 P0000 T00720033=
201803270252 METAR KATL 270252Z 11010G21KT 9SM -RA OVC024 07/03 A3047 RMK AO2 RAB52 SLP321 P0000 60000 T00720028 53013=
201803270152 METAR KATL 270152Z 10010G19KT 10SM OVC025 08/02 A3046 RMK AO2 SLP318 T00780017=
201803270052 METAR KATL 270052Z 10008G16KT 10SM OVC024 08/01 A3043 RMK AO2 RAB03E26 SLP308 P0000 T00780011=
201803262352 METAR KATL 262352Z 11009KT 10SM OVC023 08/01 A3043 RMK AO2 SLP306 60000 T00830006 10094 20083 53018=
201803262252 METAR KATL 262252Z 09016KT 10SM OVC025 08/00 A3039 RMK AO2 RAB2153E04 SLP293 P0000 T00830000=
201803262152 METAR KATL 262152Z 09013KT 10SM OVC025 09/00 A3037 RMK AO2 SLP286 T00890000=
201803262052 METAR KATL 262052Z 09012KT 10SM OVC025 09/00 A3037 RMK AO2 SLP287 T00890000 56010=
201803261952 METAR KATL 261952Z 10013KT 10SM OVC026 09/M01 A3038 RMK AO2 SLP289 T00891006=
201803261852 METAR KATL 261852Z 08017KT 10SM OVC027 09/M01 A3039 RMK AO2 SLP295 T00891006=
201803261752 METAR KATL 261752Z 10012KT 10SM OVC030 09/M02 A3040 RMK AO2 SLP299 T00891017 10089 20072 55005=
201803261652 METAR KATL 261652Z 09015KT 10SM OVC030 08/M01 A3040 RMK AO2 SLP297 T00831011=
201803261552 METAR KATL 261552Z 10011G18KT 10SM OVC033 08/M02 A3042 RMK AO2 PK WND 08026/1503 SLP304 T00781022=
201803261452 METAR KATL 261452Z 08012G20KT 10SM OVC035 08/M01 A3042 RMK AO2 SLP304 T00781011 51018=
201803261352 METAR KATL 261352Z 09017G21KT 10SM OVC035 07/M01 A3040 RMK AO2 SLP298 T00721006=
201803261252 METAR KATL 261252Z 09019G25KT 10SM FEW020 OVC034 07/00 A3039 RMK AO2 SLP294 T00720000=
201803261152 METAR KATL 261152Z 08021KT 10SM FEW020 OVC034 08/02 A3036 RMK AO2 PK WND 08026/1119 SLP286 60000 70012 T00780022 10083 20078 53021=
201803261052 METAR KATL 261052Z 09016G21KT 10SM FEW020 OVC036 08/03 A3034 RMK AO2 SLP277 T00830033=
201803260952 METAR KATL 260952Z 09011KT 10SM FEW020 OVC036 08/03 A3031 RMK AO2 RAB33E43 SLP268 P0000 T00830033=
201803260852 METAR KATL 260852Z 10016G21KT 10SM OVC034 08/03 A3030 RMK AO2 SLP264 T00830033 53006=
201803260652 METAR KATL 260652Z 10014G18KT 10SM FEW030 OVC036 08/04 A3029 RMK AO2 SLP260 T00830044=
201803260552 METAR KATL 260552Z 11014G20KT 10SM FEW030 BKN036 OVC045 08/04 A3028 RMK AO2 SLP258 60000 T00830044 10094 20083 51016=
201803260452 METAR KATL 260452Z 09011KT 10SM FEW028 OVC035 08/04 A3027 RMK AO2 SLP254 T00830044 402060061=
201803260434 SPECI KATL 260434Z 09015KT 10SM SCT028 OVC034 08/05 A3027 RMK AO2 T00830050=
201803260411 SPECI KATL 260411Z 09011KT 10SM OVC026 08/05 A3027 RMK AO2 T00830050=
201803260352 METAR KATL 260352Z 10009G17KT 10SM SCT018 OVC030 08/06 A3027 RMK AO2 RAB35E45 SLP253 P0000 T00830056=
201803260252 METAR KATL 260252Z 09015KT 10SM SCT016 OVC021 09/06 A3023 RMK AO2 SLP242 T00890061 53030=
201803260152 METAR KATL 260152Z 09011G20KT 10SM SCT016 OVC020 09/07 A3019 RMK AO2 SLP228 T00940067=
201803260052 METAR KATL 260052Z 10011KT 10SM OVC019 09/07 A3016 RMK AO2 SLP215 T00940067=
201803252352 METAR KATL 252352Z 09012KT 10SM FEW016 OVC020 09/07 A3014 RMK AO2 SLP210 T00940072 10094 20078 52009=
201803252342 SPECI KATL 252342Z 10009KT 10SM SCT014 OVC020 09/07 A3014 RMK AO2 T00940072=
201803252252 METAR KATL 252252Z 09012KT 10SM OVC014 09/07 A3013 RMK AO2 SLP207 CIG 012V016 T00940072=
201803252152 METAR KATL 252152Z 10009KT 10SM OVC012 09/07 A3012 RMK AO2 SLP203 T00940072=
201803252052 METAR KATL 252052Z 06013KT 10SM OVC010 09/07 A3011 RMK AO2 SLP200 T00890067 55000=
201803252037 SPECI KATL 252037Z 08013KT 10SM OVC010 09/07 A3011 RMK AO2 T00890067=
201803251952 METAR KATL 251952Z 09011KT 10SM OVC008 08/07 A3011 RMK AO2 SLP197 T00830067=
201803251852 METAR KATL 251852Z 09012KT 10SM OVC008 08/07 A3009 RMK AO2 SLP194 T00780067=
201803251752 METAR KATL 251752Z 07010G19KT 10SM OVC007 08/07 A3011 RMK AO2 SLP199 60012 T00780067 10078 20061 51010=
201803251652 METAR KATL 251652Z 08012KT 5SM BR OVC007 07/07 A3011 RMK AO2 SLP195 T00720067=
201803251552 METAR KATL 251552Z 09012KT 10SM OVC006 07/06 A3010 RMK AO2 SLP191 T00720061=
201803251452 METAR KATL 251452Z 09012KT 10SM OVC006 07/06 A3008 RMK AO2 RAE18 SLP186 P0001 60012 T00670061 51027=
201803251433 SPECI KATL 251433Z 08012KT 7SM OVC006 07/06 A3008 RMK AO2 RAE18 P0001 T00670061=
201803251352 METAR KATL 251352Z 09010KT 2SM -RA BR BKN005 OVC015 06/06 A3006 RMK AO2 SFC VIS 4 SLP179 P0006 T00610061=
201803251333 SPECI KATL 251333Z 09008KT 2SM -RA BR OVC006 07/06 A3006 RMK AO2 SFC VIS 3 P0003 T00670061=
201803251252 METAR KATL 251252Z 07012KT 6SM -RA BR BKN005 OVC015 07/06 A3004 RMK AO2 SLP169 P0005 T00670061=
201803251250 SPECI KATL 251250Z 08013KT 6SM -RA BR BKN005 OVC015 07/06 A3003 RMK AO2 P0005=
201803251232 SPECI KATL 251232Z 09010KT 5SM -RA BR OVC004 07/07 A3003 RMK AO2 P0003 T00670067=
201803251203 SPECI KATL 251203Z 10006KT 3SM -RA BR BKN005 OVC010 07/07 A3001 RMK AO2 CIG 004V007 P0002 T00670067=
201803251152 METAR KATL 251152Z 09011KT 2 1/2SM R09R/5500VP6000FT +RA BR BKN005 BKN011 OVC023 07/07 A3000 RMK AO2 SLP157 CIG 004V007 P0018 60023 70026 T00670067 10111 20067 53016=
201803251052 METAR KATL 251052Z 07013KT 5SM -RA BR OVC005 08/07 A2998 RMK AO2 RAB29 SLP151 CIG 004V007 P0000 T00780067=
201803250952 METAR KATL 250952Z 09011KT 6SM BR OVC005 08/07 A2996 RMK AO2 SLP143 T00780072=
201803250852 METAR KATL 250852Z 08009KT 7SM BKN005 OVC013 08/08 A2995 RMK AO2 DZE47 SLP140 CIG 004V006 P0000 60005 T00830078 53007=
201803250752 METAR KATL 250752Z 10008KT 5SM -DZ BR OVC004 09/09 A2994 RMK AO2 RAB21E32DZB41 SLP136 P0000 T00940089=
201803250740 SPECI KATL 250740Z 09008KT 6SM BR OVC004 09/09 A2994 RMK AO2 RAB21E32 P0000 T00940089=
201803250702 SPECI KATL 250702Z 08011KT 5SM BR BKN005 BKN026 OVC031 10/09 A2994 RMK AO2 T01000094=
201803250652 METAR KATL 250652Z 08011KT 7SM FEW005 BKN026 OVC040 10/09 A2994 RMK AO2 RAE45 SLP136 P0005 T01000089=
201803250626 SPECI KATL 250626Z 10008KT 7SM -RA FEW007 BKN026 OVC035 10/09 A2994 RMK AO2 P0003 T01000094=
201803250552 METAR KATL 250552Z 05015KT 6SM -RA BR FEW009 OVC030 12/09 A2993 RMK AO2 WSHFT 0526 RAB10 SLP133 P0003 60003 T01170094 10222 20117 53013=
201803250544 SPECI KATL 250544Z 03012G19KT 3SM RA BR FEW012 BKN028 OVC035 12/09 A2993 RMK AO2 WSHFT 0526 RAB10 P0003 T01170094=
201803250452 METAR KATL 250452Z 24012G20KT 10SM BKN036 OVC055 21/13 A2989 RMK AO2 SLP117 BINOVC T02060128 402330106=
201803250352 METAR KATL 250352Z 24010KT 10SM BKN040 OVC065 21/12 A2989 RMK AO2 SLP116 T02110122=
201803250252 METAR KATL 250252Z 24008KT 10SM OVC048 21/12 A2989 RMK AO2 SLP118 T02110117 56003=
201803250152 METAR KATL 250152Z 23008KT 10SM BKN060 OVC090 22/11 A2990 RMK AO2 SLP119 T02170111=
201803250052 METAR KATL 250052Z 22006KT 10SM SCT060 BKN070 OVC095 22/10 A2990 RMK AO2 SLP120 T02170100=
201803242352 METAR KATL 242352Z 23006KT 10SM BKN060 OVC075 22/09 A2990 RMK AO2 SLP123 T02220094 10233 20183 56007=
201803242252 METAR KATL 242252Z 22012G22KT 10SM BKN070 BKN095 BKN250 22/09 A2991 RMK AO2 SLP123 T02220089=
201803242152 METAR KATL 242152Z 22010G21KT 10SM FEW065 BKN090 BKN250 23/09 A2991 RMK AO2 SLP122 T02280089=
201803242052 METAR KATL 242052Z 20013G17KT 10SM FEW050 SCT090 BKN250 22/09 A2992 RMK AO2 SLP129 T02220089 56041=
201803241952 METAR KATL 241952Z 22010KT 10SM FEW040 FEW100 BKN150 BKN250 20/09 A2996 RMK AO2 SLP141 T02000089=
201803241852 METAR KATL 241852Z 23011G21KT 10SM BKN100 OVC160 20/10 A2999 RMK AO2 SLP154 T02000100=
201803241752 METAR KATL 241752Z 20008KT 10SM FEW030 BKN090 BKN170 18/11 A3005 RMK AO2 SLP173 60000 T01830111 10183 20106 58028=
201803241652 METAR KATL 241652Z 21011KT 10SM BKN090 OVC250 17/09 A3009 RMK AO2 SLP187 T01670094=
201803241552 METAR KATL 241552Z 22010G17KT 10SM BKN090 OVC250 15/09 A3012 RMK AO2 SLP198 T01500089=
201803241452 METAR KATL 241452Z 21008KT 10SM BKN095 OVC250 13/08 A3013 RMK AO2 SLP203 60000 T01330083 58002=
201803241352 METAR KATL 241352Z 23005KT 10SM FEW026 BKN085 OVC250 13/08 A3014 RMK AO2 RAE1253 SLP205 P0000 T01280078=
201803241252 METAR KATL 241252Z 21008KT 9SM -RA SCT026 BKN090 BKN150 BKN250 12/06 A3015 RMK AO2 RAB48 SLP207 PCPN VRY LGT P0000 T01170056=
201803241152 METAR KATL 241152Z 17005KT 10SM FEW028 BKN090 BKN150 11/06 A3014 RMK AO2 SLP206 T01060061 10117 20106 50004=
201803241052 METAR KATL 241052Z 00000KT 10SM BKN090 BKN150 11/05 A3014 RMK AO2 SLP206 T01060050=
201803240952 METAR KATL 240952Z 00000KT 10SM OVC090 12/04 A3014 RMK AO2 SLP204 T01170044=
201803240852 METAR KATL 240852Z 00000KT 10SM OVC095 12/06 A3013 RMK AO2 SLP200 T01170056 56015=
201803240752 METAR KATL 240752Z 12003KT 10SM SCT080 BKN110 12/05 A3013 RMK AO2 SLP202 T01170050=
201803240652 METAR KATL 240652Z 20004KT 10SM FEW080 BKN130 12/05 A3016 RMK AO2 SLP210 T01170050=
201803240552 METAR KATL 240552Z 19003KT 10SM SCT080 BKN120 BKN250 12/06 A3017 RMK AO2 SLP217 T01170056 10144 20117 58007=
201803240452 METAR KATL 240452Z 00000KT 10SM BKN085 BKN250 13/04 A3018 RMK AO2 SLP220 T01330044 401780033=
201803240352 METAR KATL 240352Z 00000KT 10SM BKN080 BKN150 BKN250 13/03 A3019 RMK AO2 SLP224 T01330033=
201803240252 METAR KATL 240252Z 00000KT 10SM FEW090 BKN150 BKN250 13/04 A3020 RMK AO2 SLP226 T01330039 51006=
201803240152 METAR KATL 240152Z 23004KT 10SM BKN085 OVC110 14/04 A3020 RMK AO2 SLP226 T01390039=
201803240052 METAR KATL 240052Z 24004KT 10SM FEW080 BKN110 BKN250 14/04 A3019 RMK AO2 SLP224 T01440039=
201803232352 METAR KATL 232352Z 26006KT 10SM SCT120 SCT200 BKN250 14/03 A3018 RMK AO2 SLP221 T01440028 10178 20144 55003=
201803232252 METAR KATL 232252Z 27009KT 10SM SCT120 BKN200 BKN250 16/03 A3018 RMK AO2 SLP220 T01610028=
201803232152 METAR KATL 232152Z 29010KT 10SM FEW110 SCT200 BKN250 17/03 A3018 RMK AO2 SLP220 T01720033=
201803232052 METAR KATL 232052Z 28008G19KT 10SM FEW080 BKN110 BKN250 17/03 A3019 RMK AO2 SLP223 ACC OHD-NW-N T01720028 56025=
201803231952 METAR KATL 231952Z 35003KT 10SM FEW080 FEW120 SCT250 17/02 A3020 RMK AO2 SLP227 T01720022=
201803231852 METAR KATL 231852Z 33011G17KT 10SM FEW080 SCT120 SCT250 17/02 A3023 RMK AO2 SLP239 ACC E & S & W T01670022=
201803231752 METAR KATL 231752Z 00000KT 10SM FEW080 FEW110 SCT250 15/01 A3026 RMK AO2 SLP249 60000 T01500011 10150 20039 58016=
201803231652 METAR KATL 231652Z 34003KT 10SM FEW085 SCT110 SCT250 13/01 A3029 RMK AO2 RAB16E25 SLP259 P0000 T01280006=
201803231552 METAR KATL 231552Z 28003KT 10SM FEW085 BKN110 BKN150 BKN250 10/M02 A3030 RMK AO2 SLP263 T01001017=
201803231452 METAR KATL 231452Z 30006KT 10SM BKN085 BKN110 BKN150 08/M01 A3031 RMK AO2 SLP268 VIRGA DSNT S-SW-W T00781011 51003=
201803231352 METAR KATL 231352Z 31006KT 10SM BKN090 BKN150 07/M01 A3031 RMK AO2 SLP267 T00671011=
201803231252 METAR KATL 231252Z 32007KT 10SM SCT110 BKN140 BKN250 06/M02 A3031 RMK AO2 SLP266 ACC W-NW T00611022=
201803231152 METAR KATL 231152Z 30007KT 10SM SCT100 BKN140 BKN250 04/M02 A3030 RMK AO2 SLP266 T00391017 10067 20033 53017=
201803231052 METAR KATL 231052Z 26003KT 10SM FEW110 SCT250 04/M02 A3027 RMK AO2 SLP253 T00391022=
201803230952 METAR KATL 230952Z 32007KT 10SM SCT250 04/M02 A3027 RMK AO2 SLP253 T00391017=
201803230852 METAR KATL 230852Z 30007KT 10SM SCT250 05/M02 A3025 RMK AO2 SLP246 T00501022 55002=
201803230752 METAR KATL 230752Z 32006KT 10SM FEW250 05/M02 A3025 RMK AO2 SLP244 T00501022=
201803230652 METAR KATL 230652Z 31006KT 10SM CLR 06/M02 A3026 RMK AO2 SLP250 T00561022=
201803230552 METAR KATL 230552Z 31005KT 10SM CLR 06/M02 A3026 RMK AO2 SLP249 T00611022 10117 20061 50001=
201803230452 METAR KATL 230452Z 31006KT 10SM CLR 07/M02 A3027 RMK AO2 SLP253 T00721022 401390011=
201803230352 METAR KATL 230352Z 34005KT 10SM CLR 08/M02 A3027 RMK AO2 SLP253 T00781022=
201803230252 METAR KATL 230252Z 33006KT 10SM CLR 09/M02 A3025 RMK AO2 SLP249 T00891022 51012=
201803230152 METAR KATL 230152Z 32007KT 10SM CLR 09/M02 A3025 RMK AO2 SLP246 T00941017=
201803230052 METAR KATL 230052Z 32007KT 10SM CLR 11/M02 A3023 RMK AO2 SLP242 T01061022=
201803222352 METAR KATL 222352Z 32011KT 10SM CLR 12/M04 A3022 RMK AO2 SLP237 T01171039 10139 20111 53002=
201803222252 METAR KATL 222252Z 33015G22KT 10SM CLR 13/M03 A3021 RMK AO2 PK WND 32026/2237 SLP233 T01331033=
201803222152 METAR KATL 222152Z 29014KT 10SM CLR 13/M02 A3020 RMK AO2 PK WND 32028/2059 SLP229 T01331022=
201803222052 METAR KATL 222052Z 32015G22KT 10SM FEW060 13/M03 A3021 RMK AO2 PK WND 32027/2015 SLP234 T01331028 56014=
201803221952 METAR KATL 221952Z 33019G24KT 10SM FEW055 13/M02 A3022 RMK AO2 PK WND 30026/1907 SLP238 T01331017=
201803221852 METAR KATL 221852Z 31014G21KT 10SM FEW050 12/M01 A3024 RMK AO2 SLP244 T01221011=
201803221752 METAR KATL 221752Z 31013G22KT 10SM CLR 11/M01 A3025 RMK AO2 PK WND 35028/1722 SLP249 T01111011 10111 20011 58010=
201803221652 METAR KATL 221652Z 33018G23KT 10SM CLR 10/M02 A3028 RMK AO2 SLP258 T01001017=
201803221552 METAR KATL 221552Z 32014KT 10SM CLR 08/M03 A3029 RMK AO2 SLP261 T00831028=
201803221452 METAR KATL 221452Z 34011KT 10SM CLR 07/M02 A3028 RMK AO2 SLP260 T00671022 53017=
201803221352 METAR KATL 221352Z 33011KT 10SM CLR 04/M02 A3026 RMK AO2 SLP253 T00441022=
201803221252 METAR KATL 221252Z 31009KT 10SM CLR 02/M03 A3025 RMK AO2 SLP250 T00221028=
201803221152 METAR KATL 221152Z 31008KT 10SM CLR 01/M03 A3023 RMK AO2 SLP244 T00111033 10033 20011 51025=
201803221052 METAR KATL 221052Z 30009KT 10SM CLR 01/M03 A3021 RMK AO2 SLP236 T00111033=
201803220952 METAR KATL 220952Z 31010KT 10SM CLR 02/M03 A3019 RMK AO2 SLP227 T00171033=
201803220852 METAR KATL 220852Z 33009KT 10SM CLR 02/M03 A3016 RMK AO2 SLP217 T00221033 50003=
201803220752 METAR KATL 220752Z 32012KT 10SM CLR 03/M03 A3016 RMK AO2 SLP217 T00281033=
201803220652 METAR KATL 220652Z 32012KT 10SM CLR 03/M03 A3016 RMK AO2 SLP218 T00281028=
201803220552 METAR KATL 220552Z 33012KT 10SM CLR 03/M02 A3015 RMK AO2 SLP214 T00331022 10083 20033 51015=
201803220452 METAR KATL 220452Z 33014G20KT 10SM CLR 04/M02 A3014 RMK AO2 SLP210 T00441022 401060022=
201803220352 METAR KATL 220352Z 33012KT 10SM CLR 06/M03 A3012 RMK AO2 SLP204 T00561028=
201803220252 METAR KATL 220252Z 32009KT 10SM CLR 06/M02 A3010 RMK AO2 SLP198 T00611022 51025=
201803220152 METAR KATL 220152Z 29009KT 10SM CLR 07/M02 A3008 RMK AO2 SLP191 T00721022=
201803220052 METAR KATL 220052Z 30010KT 10SM CLR 08/M03 A3006 RMK AO2 SLP182 T00781033=
201803212352 METAR KATL 212352Z 32012G20KT 10SM FEW060 08/M03 A3003 RMK AO2 PK WND 30030/2254 SLP172 T00831028 10106 20083 52022=
201803212252 METAR KATL 212252Z 31018G25KT 10SM SCT060 09/M02 A3001 RMK AO2 PK WND 32029/2242 SLP165 T00941022=
201803212152 METAR KATL 212152Z 29016G26KT 10SM BKN060 09/M02 A2998 RMK AO2 PK WND 30032/2140 SLP156 T00941022=
201803212052 METAR KATL 212052Z 31021G32KT 10SM BKN060 09/M02 A2996 RMK AO2 PK WND 31032/2048 SLP149 T00941017 53014=
201803211952 METAR KATL 211952Z 30022G29KT 10SM SCT060 SCT070 09/M02 A2993 RMK AO2 PK WND 32037/1919 SLP141 T00941017=
201803211852 METAR KATL 211852Z 32022G32KT 10SM BKN060 BKN070 09/M02 A2992 RMK AO2 PK WND 25040/1815 SLP135 T00941017=
201803211752 METAR KATL 211752Z 30024G30KT 10SM BKN055 09/M02 A2992 RMK AO2 PK WND 30032/1738 SLP134 T00891017 10089 20022 50008=
201803211652 METAR KATL 211652Z 30022G32KT 10SM BKN050 08/M01 A2992 RMK AO2 PK WND 29032/1652 SLP135 T00781011=
201803211552 METAR KATL 211552Z 30020G29KT 10SM BKN030 BKN040 06/M01 A2992 RMK AO2 PK WND 29031/1511 SLP134 T00561011=
201803211525 SPECI KATL 211525Z 29018G29KT 10SM BKN030 04/M01 A2991 RMK AO2 PK WND 29031/1511 T00441011=
201803211452 METAR KATL 211452Z 30018G25KT 10SM BKN026 04/M01 A2989 RMK AO2 PK WND 29026/1359 SLP125 T00441011 53020=
201803211352 METAR KATL 211352Z 30019G26KT 10SM OVC024 03/M01 A2987 RMK AO2 PK WND 31026/1350 SLP118 T00331006=
201803211252 METAR KATL 211252Z 30014KT 10SM OVC026 03/M01 A2985 RMK AO2 SLP111 T00281011=
201803211239 SPECI KATL 211239Z 29016G21KT 10SM OVC028 03/M01 A2984 RMK AO2 T00281006=
201803211152 METAR KATL 211152Z 28012KT 10SM FEW024 BKN031 02/M01 A2983 RMK AO2 SLP105 70012 T00221006 10067 20022 53016=
201803211052 METAR KATL 211052Z 28011KT 10SM FEW024 03/M01 A2980 RMK AO2 SLP094 T00281006=
201803211001 SPECI KATL 211001Z 30010KT 10SM SCT026 03/M01 A2978 RMK AO2 T00331006=
201803210952 METAR KATL 210952Z 31014G19KT 10SM BKN025 03/M01 A2978 RMK AO2 SLP088 T00331006=
201803210852 METAR KATL 210852Z 30010KT 10SM BKN026 04/M01 A2978 RMK AO2 PK WND 30028/0755 SLP084 T00391006 51010=
201803210752 METAR KATL 210752Z 30020G29KT 10SM BKN026 03/M01 A2978 RMK AO2 PK WND 30029/0748 SLP084 T00331011 $=
201803210718 SPECI KATL 210718Z 29018G25KT 10SM SCT016 BKN026 BKN040 04/M01 A2977 RMK AO2 PK WND 31028/0657 T00391011 $=
201803210652 METAR KATL 210652Z 31025G31KT 10SM SCT022 BKN030 BKN060 04/M01 A2977 RMK AO2 PK WND 31032/0605 SLP080 T00441011 $=
201803210552 METAR KATL 210552Z 29017G28KT 10SM SCT018 BKN026 OVC040 07/03 A2975 RMK AO2 PK WND 29030/0517 SLP072 60000 T00670033 10106 20067 51012 $=
201803210521 SPECI KATL 210521Z 30022G30KT 10SM BKN024 BKN038 OVC060 08/03 A2975 RMK AO2 PK WND 29030/0517 BINOVC T00780033 $=
201803210452 METAR KATL 210452Z 29019G27KT 10SM SCT026 BKN038 BKN065 08/03 A2974 RMK AO2 PK WND 29033/0425 SLP068 T00830033 402110083 $=
201803210352 METAR KATL 210352Z 29018G25KT 10SM SCT023 BKN030 BKN050 09/05 A2973 RMK AO2 PK WND 29028/0334 SLP063 T00890050 $=
201803210252 METAR KATL 210252Z 29018G22KT 10SM SCT022 BKN030 BKN060 09/06 A2971 RMK AO2 RAB11E28 SLP059 P0000 60000 T00940061 51021 $=
201803210152 METAR KATL 210152Z 30016G26KT 10SM FEW020 SCT035 BKN050 10/07 A2970 RMK AO2 PK WND 28028/0140 SLP055 T01000067 $=
201803210052 METAR KATL 210052Z 29017G26KT 10SM SCT020 BKN030 BKN060 11/08 A2967 RMK AO2 PK WND 28026/0045 SLP044 VCSH SW T01060078 $=
201803202352 METAR KATL 202352Z 29010KT 10SM SCT020 BKN030 BKN060 11/09 A2965 RMK AO2 SLP039 RAE00 P0001 60012 T01060089 10200 20106 51032 $=
201803202252 METAR KATL 202252Z 31019KT 8SM -RA SCT020 BKN035 BKN100 12/11 A2963 RMK AO2 PK WND 27027/2156 SLP032 P0011 T01170106=
201803202243 SPECI KATL 202243Z 29013G27KT 6SM -RA BR SCT025 BKN040 OVC100 12/10 A2962 RMK AO2 PK WND 27027/2156 VIS LWR NE-SE P0011 T01170100=
201803202229 SPECI KATL 202229Z 29014G25KT 2SM +RA SCT028 BKN045 OVC100 12/09 A2962 RMK AO2 PK WND 27027/2156 P0001 T01220094=
201803202152 METAR KATL 202152Z 29014G24KT 10SM -RA SCT038 BKN050 OVC100 14/09 A2960 RMK AO2 PK WND 31031/2116 RAB51 SLP020 TCU DSNT W-NW P0000 T01390089=
201803202052 METAR KATL 202052Z 27019G28KT 10SM SCT050TCU BKN080 BKN100 17/08 A2955 RMK AO2 PK WND 28028/2049 SLP002 TCU NE & SW-NW SHRA NE & VC SW-NW T01720078 55001=
201803201952 METAR KATL 201952Z 28017G24KT 10SM SCT045 SCT070 19/08 A2953 RMK AO2 PK WND 28032/1855 SLP994 TCU DSNT W-NW-N MDT CU SW-NW SHRA DSNT W-NW-N T01940083=
201803201852 METAR KATL 201852Z 29022G29KT 10SM BKN045TCU BKN060 BKN090 19/10 A2955 RMK AO2 PK WND 28029/1852 SLP002 TCU NE-SE & SW-NW SHRA DSNT NE T01940100=
201803201752 METAR KATL 201752Z 26012KT 10SM SCT055 BKN070 BKN250 19/08 A2955 RMK AO2 SLP002 TCU DSNT NW T01940083 10211 20128 58006=
201803201652 METAR KATL 201652Z 23013G19KT 10SM SCT045 SCT200 BKN250 20/10 A2956 RMK AO2 SLP003 TCU DSNT NW-N MDT CU NE & W-NW-N T02000100=
201803201552 METAR KATL 201552Z 26008KT 10SM FEW040 BKN200 BKN250 19/11 A2957 RMK AO2 SLP010 T01940111=
201803201452 METAR KATL 201452Z 24009KT 10SM FEW015 SCT200 BKN250 18/15 A2957 RMK AO2 SLP008 T01830150 50000=
201803201352 METAR KATL 201352Z 27006KT 9SM FEW005 SCT200 SCT250 17/16 A2958 RMK AO2 SLP011 T01720156=
201803201320 SPECI KATL 201320Z 27003KT 6SM BR FEW002 SCT250 16/15 A2958 RMK AO2 T01560150=
201803201252 METAR KATL 201252Z 26003KT 3SM BR FEW002 SCT250 14/14 A2958 RMK AO2 SFC VIS 5 SLP013 T01390139=
201803201237 SPECI KATL 201237Z 22003KT 3SM BR FEW002 SCT250 13/13 A2958 RMK AO2 SFC VIS 5 T01330133=
201803201152 METAR KATL 201152Z 00000KT 1 1/2SM R09R/1400VP6000FT BR FEW002 SCT250 13/13 A2957 RMK AO2 SLP011 VIS W-N-NE 1/2 70131 T01280128 10161 20128 50008=
201803201141 SPECI KATL 201141Z 29003KT 1SM R09R/1400V2400FT BR FEW002 SCT250 13/13 A2958 RMK AO2 VIS W-N 1/4 T01280128=
201803201133 SPECI KATL 201133Z 00000KT 1/2SM R09R/1400V2200FT FG BKN002 13/13 A2958 RMK AO2 T01280128=
201803201120 SPECI KATL 201120Z 28003KT 1/2SM R09R/1400V2600FT FG BKN002 13/13 A2958 RMK AO2 T01330133=
201803201058 SPECI KATL 201058Z 29005KT 1/4SM R09R/1800V2000FT FG VV002 13/13 A2958 RMK AO2 T01330133=
201803201052 METAR KATL 201052Z 29005KT 3/4SM R09R/1800VP6000FT BR BKN002 13/13 A2958 RMK AO2 SLP012 T01330133=
201803201050 SPECI KATL 201050Z 30005KT 1 3/4SM R09R/1800VP6000FT BR FEW075 FEW250 13/13 A2958 RMK AO2=
201803200952 METAR KATL 200952Z 24005KT 10SM FEW075 FEW250 14/14 A2956 RMK AO2 SLP005 T01390139=
201803200852 METAR KATL 200852Z 26004KT 10SM FEW080 15/14 A2955 RMK AO2 SLP002 T01500144 58001=
201803200752 METAR KATL 200752Z 27004KT 10SM FEW004 BKN075 16/15 A2956 RMK AO2 SLP006 T01560150=
201803200652 METAR KATL 200652Z 24004KT 7SM FEW004 SCT080 BKN120 16/16 A2955 RMK AO2 SLP002 OCNL LTGICCA DSNT E AND SE T01560156=
201803200552 METAR KATL 200552Z 25005KT 7SM FEW004 FEW050 BKN090 OVC150 16/16 A2955 RMK AO2 RAE51 TSE45 SLP003 OCNL LTGICCA DSNT SE-S TS MOV SE 10183 20161 P0001 60131 T01610161 51018=
201803200546 SPECI KATL 200546Z 23006KT 7SM -RA FEW004 FEW050 BKN090 OVC150 16/16 A2956 RMK AO2 TSE45 OCNL LTGICCA DSNT SE-S TS MOV SE P0001=
201803200452 METAR KATL 200452Z 28004KT 6SM -TSRA BR FEW010CB BKN070 BKN100 OVC150 16/16 A2954 RMK AO2 WSHFT 0339 PRESFR SLP001 OCNL LTGICCA OHD-ALQDS TS OHD-ALQDS MOV E P0019 T01610161 401890139=
201803200405 SPECI KATL 200405Z 32008KT 4SM TSRA BR FEW008CB SCT020 OVC070 16/16 A2958 RMK AO2 WSHFT 0339 OCNL LTGICCA OHD-ALQDS TS OHD-ALQDS MOV SE P0012 T01610161=
201803200356 SPECI KATL 200356Z 32015G26KT 3SM R09R/3500VP6000FT +TSRA BR SCT008CB BKN020 OVC050 16/16 A2959 RMK AO2 WSHFT 0339 PRESRR FRQ LTGICCA OHD-ALQDS TS OHD-ALQDS MOV SE P0005 T01610161=
201803200352 METAR KATL 200352Z 33017G26KT 2 1/2SM R09R/3500VP6000FT +TSRA BR SCT008CB BKN020 OVC050 16/16 A2957 RMK AO2 PK WND 01031/0338 WSHFT 0314 PRESRR SLP008 FRQ LTGICCA OHD-ALQDS TS OHD-ALQDS MOV SE RAB12TSB12GRB21E28 P0111 T01610161=
201803200340 SPECI KATL 200340Z 36022G31KT 2 1/2SM R09R/2800VP6000FT +TSRA BR BKN007CB OVC020 17/17 A2955 RMK AO2 PK WND 01031/0338 WSHFT 0314 FRQ LTGICCG OHD-ALQDS TS OHD-ALQDS MOV SE RAB12TSB12GRB21E28 P0080 T01670167=
201803200330 SPECI KATL 200330Z 04021G25KT 1SM R09R/2600V5000FT +TSRA BR BKN005CB OVC015 18/18 A2953 RMK AO2 PK WND 15027/0257 WSHFT 0314 CONS LTGICCG OHD-ALQDS TS OHD-ALQDS MOV SE RAB12TSB12GRB21E28 P0045 T01780178=
201803200323 SPECI KATL 200323Z 04017KT 1SM R09R/2800VP6000FT +TSRAGR BR OVC006CB 18/18 A2956 RMK AO2 PK WND 15027/0257 PRESRR CONS LTGICCG OHD-ALQDS TS OHD-ALQDS GR 1/2 MOV SE RAB12TSB12GRB21 P0005 T01780178=
201803200314 SPECI KATL 200314Z 13011G24KT 3SM -TSRA BR OVC006CB 18/18 A2950 RMK AO2 PK WND 15027/0257 SFC VIS 6 FRQ LTGICCG SW-NW-NE TS SW-NW-NE MOV SE RAB12TSB12 P0000 T01830178=
201803200252 METAR KATL 200252Z 14013G23KT 3SM VCTS BR OVC006CB 18/18 A2950 RMK AO2 SFC VIS 6 TSE47 PRESFR SLP984 FRQ LTGICCG NW TS VC NW MOV SE T01780178 58049=
201803200152 METAR KATL 200152Z 15012G17KT 3SM BR OVC006 18/17 A2959 RMK AO2 SFC VIS 5 SLP014 CIG 004V008 T01780172=
201803200052 METAR KATL 200052Z 13007KT 1 1/2SM BR OVC005 17/17 A2962 RMK AO2 SFC VIS 3 SLP027 CIG 004V006 T01720172=
201803192352 METAR KATL 192352Z 11006KT 1/2SM R09R/P6000FT BR OVC004 17/17 A2965 RMK AO2 SFC VIS 3 SLP037 60000 T01720167 10172 20156 55021=
201803192252 METAR KATL 192252Z 10004KT 2SM BR OVC005 17/17 A2964 RMK AO2 SFC VIS 3 RAE26 SLP031 P0000 T01720167=
201803192226 SPECI KATL 192226Z 09007KT 2SM BR OVC005 17/17 A2964 RMK AO2 SFC VIS 3 RAE26 P0000 T01670167=
201803192201 SPECI KATL 192201Z 15016G22KT 1/2SM R09R/P6000FT -RA BR OVC005 17/17 A2962 RMK AO2 SFC VIS 3 LTG DSNT W PRESFR CIG 004V006 CB DSNT SW-W P0000 T01670167=
201803192152 METAR KATL 192152Z 13012KT 1 1/2SM -RA BR OVC005 17/16 A2964 RMK AO2 SFC VIS 4 RAB47 PRESFR SLP035 CIG 004V006 CB DSNT SW-W P0000 T01670161=
201803192052 METAR KATL 192052Z 13004KT 2SM BR OVC006 17/16 A2971 RMK AO2 SFC VIS 5 SLP059 60000 T01670161 56017=
201803191952 METAR KATL 191952Z 12005KT 2SM BR OVC006 17/16 A2971 RMK AO2 SFC VIS 5 SLP058 T01720161=
201803191852 METAR KATL 191852Z 11005KT 2SM BR OVC005 17/16 A2974 RMK AO2 SFC VIS 4 DZE48 SLP068 P0000 T01670161=
201803191752 METAR KATL 191752Z 13007KT 2SM -DZ BR OVC004 16/15 A2976 RMK AO2 SFC VIS 4 SLP076 P0000 60000 T01560150 10156 20139 58015=
201803191715 SPECI KATL 191715Z 13006KT 2SM -DZ BR OVC005 16/15 A2978 RMK AO2 SFC VIS 4 P0000 T01560150=
201803191652 METAR KATL 191652Z 14008KT 3SM -DZ BR OVC005 15/14 A2979 RMK AO2 SFC VIS 5 DZB25 SLP085 P0000 T01500144=
201803191629 SPECI KATL 191629Z 13007KT 5SM -DZ BR OVC006 15/14 A2980 RMK AO2 DZB25 P0000 T01500144=
201803191625 SPECI KATL 191625Z 14007KT 3SM -DZ BR OVC006 15/14 A2980 RMK AO2 SFC VIS 5 DZB25 P0000 T01500144=
201803191552 METAR KATL 191552Z 13006KT 7SM OVC006 15/14 A2980 RMK AO2 SLP088 T01500139=
201803191452 METAR KATL 191452Z 12006KT 9SM BKN009 BKN012 OVC015 14/14 A2981 RMK AO2 SLP091 T01440139 53009=
201803191433 SPECI KATL 191433Z 11005KT 8SM FEW009 SCT012 OVC015 14/14 A2981 RMK AO2 T01440139=
201803191352 METAR KATL 191352Z 13005KT 7SM BKN007 OVC016 14/14 A2979 RMK AO2 SLP084 T01440139=
201803191252 METAR KATL 191252Z 12006KT 7SM BKN009 OVC018 14/13 A2979 RMK AO2 SLP084 T01390133=
201803191248 SPECI KATL 191248Z 13007KT 7SM BKN009 OVC018 14/13 A2979 RMK AO2=
201803191152 METAR KATL 191152Z 11005KT 8SM SCT007 BKN022 OVC120 14/13 A2978 RMK AO2 SLP080 BKN022 V SCT 60009 70014 T01390133 10156 20139 58005=
201803191128 SPECI KATL 191128Z 12007KT 10SM FEW008 SCT025 BKN110 14/13 A2976 RMK AO2 T01390133=
201803191052 METAR KATL 191052Z 11004KT 10SM OVC025 14/14 A2979 RMK AO2 RAB13E37 SLP081 P0000 T01440139=
201803190952 METAR KATL 190952Z 08004KT 10SM BKN028 OVC037 14/13 A2980 RMK AO2 SLP084 T01440133=
201803190907 SPECI KATL 190907Z 15004KT 10SM BKN029 OVC037 14/14 A2980 RMK AO2 T01390139=
201803190852 METAR KATL 190852Z 15005KT 10SM SCT027 BKN038 OVC046 14/13 A2980 RMK AO2 SLP083 60009 T01440133 58023=
201803190752 METAR KATL 190752Z 07006KT 10SM BKN040 OVC055 14/14 A2982 RMK AO2 RAE40 SLP090 P0003 T01440139=
201803190652 METAR KATL 190652Z 15004KT 6SM -RA BR SCT035 BKN047 OVC055 14/14 A2985 RMK AO2 SLP102 P0006 T01440139=
201803190552 METAR KATL 190552Z 33008KT 8SM -RA BKN050 OVC070 16/13 A2987 RMK AO2 RAE16B49 SLP107 P0003 60005 T01560133 10217 20156 51007=
201803190452 METAR KATL 190452Z 30005KT 10SM -RA BKN070 OVC090 16/13 A2986 RMK AO2 SLP107 P0002 T01560133 402500139=
201803190352 METAR KATL 190352Z 22006KT 10SM -RA BKN090 OVC120 17/12 A2985 RMK AO2 RAB42 SLP103 P0000 T01670117=
201803190252 METAR KATL 190252Z 18006KT 10SM FEW080 BKN100 OVC150 17/12 A2985 RMK AO2 RAB24E47 SLP102 VIRGA N P0000 60000 T01720117 58002=
201803190152 METAR KATL 190152Z 19007KT 10SM FEW070 BKN085 OVC110 18/11 A2987 RMK AO2 RAE04 SLP109 VIRGA OHD-ALQDS P0000 T01830111=
201803190052 METAR KATL 190052Z 21011G16KT 10SM -RA SCT075 BKN090 OVC120 20/09 A2986 RMK AO2 RAB21 SLP105 PCPN VRY LGT P0000 T02000094=
201803182352 METAR KATL 182352Z 00000KT 10SM BKN110 OVC200 22/03 A2985 RMK AO2 SLP103 VIRGA OHD-ALQDS T02220028 10250 20217 50003=
201803182252 METAR KATL 182252Z 26003KT 10SM FEW100 BKN130 OVC200 22/02 A2986 RMK AO2 SLP107 VIRGA OHD-ALQDS T02220022=
201803182152 METAR KATL 182152Z 35007KT 10SM SCT120 BKN150 OVC200 23/01 A2984 RMK AO2 SLP097 VIRGA DSNT SW-NW T02330011=
201803182052 METAR KATL 182052Z 30007KT 10SM SCT160 BKN200 BKN250 24/02 A2984 RMK AO2 SLP099 T02390022 58028=
201803181952 METAR KATL 181952Z 30010KT 10SM SCT160 BKN200 BKN250 24/04 A2987 RMK AO2 SLP110 T02440044=
201803181852 METAR KATL 181852Z VRB05KT 10SM SCT170 BKN200 BKN250 23/05 A2990 RMK AO2 SLP119 T02330050=
201803181752 METAR KATL 181752Z 29007G16KT 10SM SCT170 BKN200 BKN250 23/05 A2993 RMK AO2 SLP127 T02330050 10239 20139 58010=
201803181652 METAR KATL 181652Z 30009KT 10SM SCT190 BKN250 22/06 A2995 RMK AO2 SLP135 T02220056=
201803181552 METAR KATL 181552Z 30007KT 10SM BKN200 BKN250 20/09 A2996 RMK AO2 SLP138 T02000089=
201803181452 METAR KATL 181452Z 29008KT 10SM BKN220 BKN250 18/09 A2996 RMK AO2 SLP140 T01780089 51015=
201803181352 METAR KATL 181352Z 28010KT 10SM FEW180 SCT250 16/10 A2996 RMK AO2 SLP141 T01610100=
201803181252 METAR KATL 181252Z 30006KT 10SM FEW040 FEW110 SCT180 SCT250 15/11 A2993 RMK AO2 SLP132 T01500111=
201803181152 METAR KATL 181152Z 30006KT 10SM FEW040 SCT200 14/13 A2991 RMK AO2 SLP125 70001 T01390128 10183 20139 53012=
201803181052 METAR KATL 181052Z 30005KT 10SM FEW050 BKN200 15/13 A2990 RMK AO2 SLP119 T01500133=
201803180952 METAR KATL 180952Z 28006KT 10SM FEW050 BKN200 16/14 A2989 RMK AO2 SLP114 T01560139=
201803180852 METAR KATL 180852Z 28006KT 10SM CLR 17/14 A2988 RMK AO2 SLP111 T01670144 52001=
201803180752 METAR KATL 180752Z AUTO 26006KT 10SM FEW050 FEW110 SCT200 SCT250 17/14 A2988 RMK AO2 SLP110 T01670144=
201803180652 METAR KATL 180652Z 25006KT 10SM FEW050 FEW110 SCT200 SCT250 17/15 A2988 RMK AO2 SLP111 T01720150=
201803180552 METAR KATL 180552Z 25006KT 10SM FEW050 FEW110 SCT200 SCT250 18/15 A2987 RMK AO2 SLP110 T01830150 10217 20183 51001=
201803180452 METAR KATL 180452Z 25006KT 10SM FEW050 FEW110 SCT200 BKN250 19/15 A2987 RMK AO2 SLP111 T01890150 402390122=
201803180352 METAR KATL 180352Z 25005KT 10SM SCT200 BKN250 18/16 A2988 RMK AO2 SLP112 T01830156=
201803180252 METAR KATL 180252Z 24010KT 10SM SCT200 BKN250 19/16 A2987 RMK AO2 SLP109 T01940156 53001=
201803180152 METAR KATL 180152Z 23007KT 10SM SCT200 BKN250 19/16 A2986 RMK AO2 SLP108 T01940156=
201803180052 METAR KATL 180052Z 23007KT 10SM BKN200 BKN250 20/15 A2986 RMK AO2 SLP106 T02000150=
201803172352 METAR KATL 172352Z 23009KT 10SM FEW032 BKN200 BKN250 22/15 A2987 RMK AO2 SLP109 CB DSNT N & SE-S T02170150 10239 20200 56006=
201803172252 METAR KATL 172252Z 23010G19KT 10SM FEW034 BKN180 OVC250 23/14 A2987 RMK AO2 SLP108 VIRGA W-N T02280144=
201803172152 METAR KATL 172152Z 23014KT 10SM FEW036 BKN200 BKN250 23/15 A2987 RMK AO2 SLP110 T02280150=
201803172052 METAR KATL 172052Z 25011G19KT 10SM FEW034 BKN250 BKN300 23/16 A2989 RMK AO2 SLP114 T02330156 56026=
201803171952 METAR KATL 171952Z 27011G21KT 10SM SCT030 BKN250 BKN300 22/16 A2991 RMK AO2 SLP124 T02220156=
201803171852 METAR KATL 171852Z 24010G16KT 10SM SCT025 SCT150 SCT250 BKN300 22/16 A2994 RMK AO2 SLP134 T02170156=
201803171752 METAR KATL 171752Z 26011KT 10SM SCT012 SCT095 SCT150 BKN250 20/16 A2997 RMK AO2 SLP144 60001 T02000161 10200 20139 58008=
201803171652 METAR KATL 171652Z 25007KT 10SM SCT006 BKN120 BKN150 BKN250 17/16 A2999 RMK AO2 DZE1553RAB1553E13 SLP154 P0001 T01720156=
201803171638 SPECI KATL 171638Z 24007KT 10SM SCT006 BKN120 BKN200 17/16 A3000 RMK AO2 DZE1553RAB1553E13 P0001 T01670161=
201803171552 METAR KATL 171552Z 27013KT 7SM -DZ BKN008 OVC011 16/16 A3002 RMK AO2 LTG DSNT N SLP162 DZB45 CB DSNT N AND NW P0000 T01610156=
201803171539 SPECI KATL 171539Z 27009KT 10SM BKN009 OVC012 17/15 A3001 RMK AO2 LTG DSNT W-N CB DSNT W-N T01670150=
201803171452 METAR KATL 171452Z 25009KT 8SM OVC010 17/14 A2999 RMK AO2 SLP153 T01670144 58001=
201803171352 METAR KATL 171352Z 23009KT 10SM BKN010 OVC015 16/13 A3000 RMK AO2 SLP157 T01560133=
201803171252 METAR KATL 171252Z 22008KT 10SM OVC011 14/12 A2999 RMK AO2 SLP154 T01440117=
201803171216 SPECI KATL 171216Z 22006KT 10SM OVC013 14/11 A2999 RMK AO2 T01390111=
201803171152 METAR KATL 171152Z 24006KT 10SM BKN018 OVC040 14/11 A2999 RMK AO2 SLP155 60000 T01390106 10139 20128 53002=
201803171052 METAR KATL 171052Z 22006KT 10SM OVC021 13/10 A2999 RMK AO2 LTG DSNT NW SLP150 T01330100=
201803170952 METAR KATL 170952Z 22006KT 10SM OVC024 13/09 A2998 RMK AO2 RAE0858 SLP150 P0000 T01330094=
201803170852 METAR KATL 170852Z 19006KT 8SM -RA BKN025 OVC032 13/09 A2999 RMK AO2 RAB45 SLP151 P0000 60000 T01330094 58019=
201803170752 METAR KATL 170752Z 20003KT 10SM SCT022 BKN041 OVC055 13/09 A3001 RMK AO2 SLP159 T01330094=
201803170652 METAR KATL 170652Z 00000KT 10SM OVC055 13/09 A3004 RMK AO2 SLP167 T01330094=
201803170552 METAR KATL 170552Z 25003KT 10SM BKN060 13/09 A3005 RMK AO2 SLP171 T01280094 10172 20122 51004=
201803170452 METAR KATL 170452Z 25004KT 10SM BKN250 13/09 A3004 RMK AO2 SLP171 T01330089 402170078=
201803170352 METAR KATL 170352Z 23007KT 10SM BKN250 13/09 A3004 RMK AO2 SLP171 T01330089=
201803170252 METAR KATL 170252Z 23005KT 10SM BKN250 14/08 A3003 RMK AO2 SLP168 T01390083 53002=
201803170152 METAR KATL 170152Z 19004KT 10SM FEW250 15/08 A3002 RMK AO2 SLP163 T01500083=
201803170052 METAR KATL 170052Z 22005KT 10SM FEW200 SCT250 16/08 A3003 RMK AO2 SLP167 T01610078=
201803162352 METAR KATL 162352Z 23003KT 10SM FEW150 SCT200 BKN250 17/07 A3003 RMK AO2 SLP168 T01720072 10217 20172 53000=
201803162252 METAR KATL 162252Z 26006KT 10SM FEW150 SCT200 BKN250 19/07 A3003 RMK AO2 SLP166 T01890067=
201803162152 METAR KATL 162152Z 23011KT 10SM BKN200 BKN250 19/05 A3002 RMK AO2 SLP163 T01940050=
201803162052 METAR KATL 162052Z 24010KT 10SM BKN200 BKN250 19/06 A3003 RMK AO2 SLP166 T01940061 56007=
201803161952 METAR KATL 161952Z 27012G15KT 10SM BKN190 BKN250 BKN300 20/04 A3003 RMK AO2 SLP168 T02000044=
201803161852 METAR KATL 161852Z 24003KT 10SM FEW150 SCT250 BKN300 21/04 A3004 RMK AO2 SLP168 T02110044=
201803161752 METAR KATL 161752Z 31012G16KT 10SM FEW150 SCT250 SCT300 20/03 A3005 RMK AO2 SLP172 T02000033 10206 20078 58006=
201803161652 METAR KATL 161652Z 29009KT 10SM FEW150 BKN250 BKN300 19/06 A3006 RMK AO2 SLP178 T01890056=
201803161552 METAR KATL 161552Z 29007KT 10SM FEW150 BKN200 BKN300 16/04 A3007 RMK AO2 SLP180 VIRGA SE-S-SW T01610044=
201803161452 METAR KATL 161452Z 30008KT 10SM FEW150 BKN250 BKN300 14/04 A3007 RMK AO2 SLP179 T01440039 51008=
201803161352 METAR KATL 161352Z 28008KT 10SM FEW150 SCT250 BKN300 12/02 A3007 RMK AO2 SLP180 T01170022=
201803161252 METAR KATL 161252Z 29006KT 9SM FEW110 SCT200 BKN250 09/01 A3006 RMK AO2 SLP180 T00890011=
201803161152 METAR KATL 161152Z 27007KT 10SM FEW120 SCT200 SCT250 08/01 A3004 RMK AO2 SLP173 T00830006 10122 20083 53020=
201803161052 METAR KATL 161052Z 25006KT 10SM FEW250 08/M01 A3002 RMK AO2 SLP165 T00831006=
201803160952 METAR KATL 160952Z 25004KT 10SM FEW200 SCT250 09/M02 A2999 RMK AO2 SLP154 T00941017=
201803160852 METAR KATL 160852Z 25007KT 10SM FEW250 11/M03 A2998 RMK AO2 SLP151 T01061028 56004=
201803160752 METAR KATL 160752Z 25006KT 10SM FEW250 11/M03 A2999 RMK AO2 SLP152 T01111033=
201803160652 METAR KATL 160652Z 25008KT 10SM FEW250 12/M03 A2999 RMK AO2 SLP152 T01171028=
201803160552 METAR KATL 160552Z 25006KT 10SM FEW250 12/M03 A3000 RMK AO2 SLP155 T01171028 10167 20117 58005=
201803160452 METAR KATL 160452Z 25007KT 10SM FEW250 12/M03 A3001 RMK AO2 SLP159 T01221033 402000011=
201803160352 METAR KATL 160352Z 24007KT 10SM FEW250 13/M03 A3001 RMK AO2 SLP163 T01281033=
201803160252 METAR KATL 160252Z 25007KT 10SM FEW250 14/M03 A3001 RMK AO2 SLP163 T01391033 53015=
201803160152 METAR KATL 160152Z 24008KT 10SM FEW250 14/M03 A2999 RMK AO2 SLP158 T01441033=
201803160052 METAR KATL 160052Z 25007KT 10SM FEW250 16/M04 A2998 RMK AO2 SLP152 T01561044=
201803152352 METAR KATL 152352Z 27008KT 10SM FEW250 17/M04 A2997 RMK AO2 SLP149 T01671044 10200 20167 56005=
201803152252 METAR KATL 152252Z 27009KT 10SM FEW250 18/M04 A2997 RMK AO2 SLP149 T01831044=
201803152152 METAR KATL 152152Z 28012G20KT 10SM FEW250 19/M05 A2997 RMK AO2 PK WND 26027/2125 SLP149 T01891050=
201803152052 METAR KATL 152052Z 26009G19KT 10SM CLR 19/M05 A2998 RMK AO2 SLP153 T01941050 56021=
201803151952 METAR KATL 151952Z 28014G23KT 10SM CLR 19/M04 A3000 RMK AO2 WSHFT 1854 SLP158 T01891044=
201803151914 SPECI KATL 151914Z 25012G21KT 10SM CLR 18/M04 A3001 RMK AO2 WSHFT 1854 T01831044=
201803151852 METAR KATL 151852Z 24016G22KT 10SM CLR 18/M05 A3002 RMK AO2 SLP166 T01831050=
201803151752 METAR KATL 151752Z 26013G17KT 10SM CLR 17/M03 A3005 RMK AO2 SLP175 T01721028 10172 20011 58024=
201803151652 METAR KATL 151652Z 25008G19KT 10SM CLR 16/M02 A3009 RMK AO2 SLP189 T01561017=
201803151552 METAR KATL 151552Z 26008KT 10SM CLR 13/M03 A3011 RMK AO2 SLP198 T01281028=
201803151452 METAR KATL 151452Z 26012KT 10SM CLR 11/M04 A3012 RMK AO2 SLP203 T01061044 53006=
201803151352 METAR KATL 151352Z 27007KT 10SM CLR 08/M04 A3011 RMK AO2 SLP199 T00781044=
201803151252 METAR KATL 151252Z 23005KT 10SM FEW020 03/M04 A3010 RMK AO2 SLP198 FU FEW020 T00281044=
201803151152 METAR KATL 151152Z 27004KT 10SM FEW020 02/M06 A3010 RMK AO2 SLP199 FU FEW020 T00171056 10033 20011 53004=
201803151052 METAR KATL 151052Z 26004KT 10SM CLR 02/M06 A3008 RMK AO2 SLP192 T00171056=
201803150952 METAR KATL 150952Z 28006KT 10SM CLR 02/M06 A3009 RMK AO2 SLP193 T00171056=
201803150852 METAR KATL 150852Z 00000KT 10SM CLR 02/M06 A3009 RMK AO2 SLP194 T00171056 58003=
201803150752 METAR KATL 150752Z 24003KT 10SM CLR 02/M06 A3009 RMK AO2 SLP195 T00171056=
201803150652 METAR KATL 150652Z 27003KT 10SM CLR 02/M06 A3010 RMK AO2 SLP199 T00221061=
201803150552 METAR KATL 150552Z 27004KT 10SM CLR 03/M07 A3010 RMK AO2 SLP197 T00331067 10078 20033 58005=
201803150452 METAR KATL 150452Z 28005KT 10SM CLR 03/M06 A3010 RMK AO2 SLP197 T00331061 401110017=
201803150352 METAR KATL 150352Z 30007KT 10SM CLR 04/M06 A3011 RMK AO2 SLP203 T00441061=
201803150252 METAR KATL 150252Z 29009KT 10SM CLR 05/M06 A3011 RMK AO2 SLP203 T00501061 50008=
201803150152 METAR KATL 150152Z 29010KT 10SM CLR 06/M07 A3012 RMK AO2 SLP204 T00611067=
201803150052 METAR KATL 150052Z 29011KT 10SM CLR 07/M07 A3011 RMK AO2 SLP201 T00671067=
201803142352 METAR KATL 142352Z 29010KT 10SM CLR 08/M08 A3009 RMK AO2 SLP195 T00781078 10111 20078 53004=
201803142252 METAR KATL 142252Z 27012KT 10SM CLR 09/M08 A3008 RMK AO2 SLP191 T00941083=
201803142152 METAR KATL 142152Z 31013KT 10SM CLR 11/M08 A3008 RMK AO2 SLP189 T01061078=
201803142052 METAR KATL 142052Z 30015G21KT 10SM CLR 11/M08 A3008 RMK AO2 SLP190 T01061078 56017=
201803141952 METAR KATL 141952Z 32011G22KT 10SM CLR 10/M08 A3009 RMK AO2 PK WND 31026/1859 SLP194 T01001083=
201803141852 METAR KATL 141852Z 29017G20KT 10SM CLR 09/M07 A3011 RMK AO2 SLP200 T00941067=
201803141752 METAR KATL 141752Z 32015G24KT 10SM CLR 08/M08 A3013 RMK AO2 PK WND 34027/1732 SLP206 T00831078 10089 20017 58004=
201803141652 METAR KATL 141652Z 30015KT 10SM CLR 07/M08 A3014 RMK AO2 SLP212 T00721078=
201803141552 METAR KATL 141552Z 35015G22KT 10SM CLR 06/M08 A3015 RMK AO2 SLP213 T00561083=
201803141452 METAR KATL 141452Z 33011G18KT 10SM CLR 04/M07 A3014 RMK AO2 PK WND 31026/1423 SLP212 T00441067 51018=
201803141352 METAR KATL 141352Z 32014G20KT 10SM CLR 03/M06 A3013 RMK AO2 SLP207 T00331056=
201803141252 METAR KATL 141252Z 33013G21KT 10SM FEW040 03/M05 A3011 RMK AO2 SLP202 T00281050=
201803141152 METAR KATL 141152Z 32011KT 10SM FEW042 02/M04 A3009 RMK AO2 SLP193 T00221044 10056 20017 53010=
201803141052 METAR KATL 141052Z 31010KT 10SM CLR 02/M04 A3006 RMK AO2 SLP184 T00221039=
201803140952 METAR KATL 140952Z 29009KT 10SM CLR 02/M03 A3005 RMK AO2 SLP181 T00221033=
201803140852 METAR KATL 140852Z 28006KT 10SM CLR 02/M03 A3005 RMK AO2 SLP181 T00221033 58003=
201803140752 METAR KATL 140752Z 31006KT 10SM CLR 03/M03 A3007 RMK AO2 SLP185 T00331033=
201803140652 METAR KATL 140652Z 33009KT 10SM CLR 04/M04 A3008 RMK AO2 SLP188 T00441039=
201803140552 METAR KATL 140552Z 35010G17KT 10SM CLR 06/M03 A3006 RMK AO2 SLP184 T00561033 10100 20056 53013=
201803140452 METAR KATL 140452Z 28009KT 10SM CLR 06/M03 A3004 RMK AO2 SLP176 T00611028 401220017=
201803140352 METAR KATL 140352Z 29010KT 10SM CLR 07/M02 A3003 RMK AO2 SLP174 T00671022=
201803140252 METAR KATL 140252Z 29009KT 10SM CLR 07/M02 A3003 RMK AO2 SLP172 T00721022 50006=
201803140152 METAR KATL 140152Z 28009KT 10SM CLR 08/M02 A3003 RMK AO2 SLP172 T00781017=
201803140052 METAR KATL 140052Z 28005KT 10SM CLR 08/M02 A3002 RMK AO2 SLP170 T00831017=
201803132352 METAR KATL 132352Z 29007KT 10SM CLR 10/M02 A3001 RMK AO2 SLP166 T01001017 10122 20089 55000=
201803132252 METAR KATL 132252Z 31014G20KT 10SM FEW250 12/M03 A3000 RMK AO2 SLP164 T01171028=
201803132152 METAR KATL 132152Z 31014KT 10SM FEW250 12/M03 A3000 RMK AO2 SLP162 T01221028=
201803132052 METAR KATL 132052Z 29014KT 10SM FEW250 12/M02 A3001 RMK AO2 SLP165 T01221017 56031=
201803131952 METAR KATL 131952Z 31014G21KT 10SM SCT250 12/M02 A3004 RMK AO2 SLP174 T01171022=
201803131852 METAR KATL 131852Z 30009G17KT 10SM BKN250 11/M02 A3006 RMK AO2 SLP184 T01061022=
201803131752 METAR KATL 131752Z 31012G19KT 270V330 10SM FEW250 09/M02 A3010 RMK AO2 SLP198 T00941017 10094 20017 58012=
201803131652 METAR KATL 131652Z 31013G19KT 10SM FEW250 08/M02 A3012 RMK AO2 SLP206 T00781022=
201803131552 METAR KATL 131552Z 34011G17KT 10SM FEW035 06/M02 A3014 RMK AO2 SLP211 T00611022=
201803131452 METAR KATL 131452Z 33011KT 10SM FEW030 04/M03 A3014 RMK AO2 SLP212 T00441028 51012=
201803131352 METAR KATL 131352Z 33013KT 10SM FEW020 03/M02 A3014 RMK AO2 SLP211 T00331022=
201803131252 METAR KATL 131252Z 33013KT 10SM CLR 02/M03 A3012 RMK AO2 SLP205 T00221033=
201803131152 METAR KATL 131152Z 32010KT 10SM CLR 02/M04 A3010 RMK AO2 SLP199 T00171039 10044 20017 51015=
201803131052 METAR KATL 131052Z 31008KT 10SM CLR 02/M04 A3009 RMK AO2 SLP196 T00221039=
201803130952 METAR KATL 130952Z 32010KT 10SM CLR 03/M03 A3007 RMK AO2 SLP187 T00281033=
201803130852 METAR KATL 130852Z 32010KT 10SM BKN035 03/M03 A3006 RMK AO2 SLP183 T00331033 55000=
201803130752 METAR KATL 130752Z 35017G24KT 10SM BKN035 04/M03 A3005 RMK AO2 PK WND 33026/0715 SLP180 T00391028=
201803130652 METAR KATL 130652Z 33011KT 10SM BKN035 04/M02 A3006 RMK AO2 SLP183 T00441022=
201803130552 METAR KATL 130552Z 33008KT 10SM BKN039 04/M02 A3006 RMK AO2 SLP183 T00441017 10089 20044 53005=
201803130452 METAR KATL 130452Z 33010KT 10SM FEW040 04/M02 A3005 RMK AO2 SLP181 T00441017 401170039=
201803130352 METAR KATL 130352Z 33011KT 10SM FEW045 05/M02 A3005 RMK AO2 SLP181 T00501017=
201803130252 METAR KATL 130252Z 32015KT 10SM FEW045 06/M02 A3004 RMK AO2 PK WND 31027/0156 SLP180 T00561022 51022=
201803130152 METAR KATL 130152Z 32019G29KT 10SM FEW045 06/M03 A3004 RMK AO2 PK WND 30029/0053 SLP176 T00611028=
201803130052 METAR KATL 130052Z 32022G31KT 10SM SCT045 08/M01 A3001 RMK AO2 PK WND 32034/0015 SLP166 T00781011=
201803122352 METAR KATL 122352Z 33019G26KT 10SM FEW050 09/M02 A2998 RMK AO2 PK WND 33026/2351 SLP156 T00891017 10117 20072 53019=
201803122252 METAR KATL 122252Z 32017G31KT 10SM FEW050 10/M03 A2995 RMK AO2 PK WND 33037/2226 SLP146 T01001028=
201803122152 METAR KATL 122152Z 34021G29KT 10SM CLR 11/M03 A2993 RMK AO2 PK WND 33036/2112 SLP137 T01111033=
201803122052 METAR KATL 122052Z 33018KT 10SM FEW055 12/M02 A2992 RMK AO2 PK WND 32033/2013 SLP133 T01171022 53006=
201803121952 METAR KATL 121952Z 32024G32KT 10SM FEW045 11/M02 A2990 RMK AO2 PK WND 33036/1918 SLP125 T01061022=
201803121852 METAR KATL 121852Z 32024G39KT 10SM FEW035 09/01 A2989 RMK AO2 PK WND 33039/1844 SLP123 T00940006=
201803121752 METAR KATL 121752Z 33022G31KT 10SM FEW025 BKN030 BKN040 07/02 A2990 RMK AO2 PK WND 31034/1701 SLP127 T00720017 10072 20039 51009=
201803121652 METAR KATL 121652Z 33022G29KT 10SM BKN025 06/01 A2990 RMK AO2 PK WND 33030/1621 SLP127 T00560006=
201803121552 METAR KATL 121552Z 32019G25KT 10SM OVC020 04/01 A2989 RMK AO2 PK WND 31026/1458 SLP124 T00440006=
201803121452 METAR KATL 121452Z 32019G25KT 10SM OVC019 04/01 A2988 RMK AO2 PK WND 31030/1426 SLP120 T00390006 51018=
201803121352 METAR KATL 121352Z 31014G23KT 10SM OVC017 04/01 A2986 RMK AO2 PK WND 31029/1310 SLP114 CIG 015V020 T00390011=
201803121252 METAR KATL 121252Z 31019G27KT 10SM FEW010 OVC015 04/02 A2984 RMK AO2 PK WND 31027/1204 SLP107 CIG 014V018 T00440017=
201803121224 SPECI KATL 121224Z 32020G27KT 10SM FEW009 OVC015 04/02 A2983 RMK AO2 PK WND 31027/1204 T00440017=
201803121209 SPECI KATL 121209Z 31017G27KT 10SM FEW009 OVC014 04/02 A2983 RMK AO2 PK WND 31027/1204 T00440022=
201803121152 METAR KATL 121152Z 30014KT 7SM OVC009 04/04 A2982 RMK AO2 PK WND 30028/1100 DZB06E34 SLP100 CIG 007V012 P0000 60013 70058 T00440039 10117 20044 53023=
201803121108 SPECI KATL 121108Z 31020G28KT 6SM -DZ BR BKN009 OVC019 06/04 A2980 RMK AO2 PK WND 30028/1100 DZB06 CIG 008V012 PCPN VRY LGT P0000 T00560044=
201803121057 SPECI KATL 121057Z 30021G24KT 7SM FEW008 BKN015 BKN035 06/04 A2979 RMK AO2 CIG 012V018 T00560044=
201803121052 METAR KATL 121052Z 31016G26KT 7SM BKN008 BKN012 OVC035 06/04 A2979 RMK AO2 PK WND 30028/1029 RAB11E20DZB26E48 SLP089 CIG 006V010 P0000 T00610044=
201803121027 SPECI KATL 121027Z 31021G26KT 4SM -DZ BR BKN008 OVC012 07/06 A2979 RMK AO2 PK WND 29027/1016 RAB11E20DZB26 CIG 006V010 P0000 T00670056=
201803120952 METAR KATL 120952Z 31014G28KT 10SM OVC011 08/07 A2977 RMK AO2 PK WND 30028/0946 RAE27 SLP081 P0000 T00830067=
201803120852 METAR KATL 120852Z 36010KT 7SM -RA BKN007 OVC013 09/09 A2975 RMK AO2 SLP074 P0002 60013 T00940094 58007=
201803120752 METAR KATL 120752Z 32011KT 10SM -RA BKN009 BKN026 OVC065 11/10 A2977 RMK AO2 RAE24B50 SLP080 CIG 007V013 P0003 T01110100=
201803120717 SPECI KATL 120717Z 31012KT 6SM -RA BR BKN009 BKN070 OVC090 11/11 A2976 RMK AO2 BKN009 V SCT CIG 007V013 P0003 T01110111=
201803120708 SPECI KATL 120708Z 31013G22KT 6SM -RA BR SCT005 BKN050 OVC070 12/11 A2976 RMK AO2 P0003 T01170111=
201803120652 METAR KATL 120652Z 27011G17KT 2 1/2SM -RA BR BKN005 OVC013 12/12 A2977 RMK AO2 SFC VIS 5 SLP080 CIG 003V007 TWRINC P0008 T01170117=
201803120630 SPECI KATL 120630Z 25005KT 1SM R09R/P6000FT -RA BR BKN003 BKN010 OVC046 12/12 A2977 RMK AO2 SFC VIS 3 CIG 002V005 TWRINC P0006 T01170117=
201803120622 SPECI KATL 120622Z 24005KT 1SM R09R/P6000FT -RA BR OVC003 12/12 A2977 RMK AO2 SFC VIS 2 P0004 T01170117=
201803120605 SPECI KATL 120605Z 21005KT 1SM R09R/4000VP6000FT -RA BR OVC002 12/12 A2977 RMK AO2 P0001 T01170117=
201803120552 METAR KATL 120552Z 17006KT 3/4SM R09R/3500V5500FT -RA BR OVC002 12/12 A2977 RMK AO2 TWR VIS 1 RAB0457E06B45DZB20E45 SLP080 P0000 60000 T01170117 10122 20117 58023=
201803120452 METAR KATL 120452Z 17004KT 1SM R09R/P6000FT BR OVC004 12/12 A2979 RMK AO2 SFC VIS 2 1/2 DZE30 SLP088 CIG 003V005 P0000 T01170117 401390117=
201803120352 METAR KATL 120352Z 20003KT 3SM -DZ BR OVC004 12/12 A2982 RMK AO2 SFC VIS 4 DZB22 SLP097 CIG 003V005 PCPN VRY LGT P0000 T01170117=
201803120252 METAR KATL 120252Z 20003KT 3SM BR BKN005 OVC010 12/12 A2984 RMK AO2 SFC VIS 4 DZB04E49 SLP104 CIG 003V007 P0000 60000 T01170117 50010=
201803120204 SPECI KATL 120204Z 23003KT 3SM -DZ BR BKN007 OVC012 12/12 A2985 RMK AO2 SFC VIS 4 DZB04 CIG 006V009 P0000 T01220122=
201803120152 METAR KATL 120152Z 22003KT 3SM FEW006 OVC011 12/12 A2984 RMK AO2 SFC VIS 7 DZE06B24E45RAB06E24 SLP105 CIG 009V013 P0000 T01220117=
201803120145 SPECI KATL 120145Z 00000KT 3SM SCT008 OVC014 12/12 A2984 RMK AO2 SFC VIS 7 DZE06B24E45RAB06E24 P0000 T01220117=
201803120052 METAR KATL 120052Z 29004KT 3SM -DZ BR BKN008 OVC018 12/12 A2984 RMK AO2 SFC VIS 6 DZB51 SLP103 CIG 007V010 P0000 T01220117=
201803120038 SPECI KATL 120038Z 19003KT 3SM BKN008 OVC018 12/12 A2983 RMK AO2 SFC VIS 8 CIG 007V010 T01220117=
201803112352 METAR KATL 112352Z 13005KT 3SM FEW005 SCT012 OVC018 12/12 A2981 RMK AO2 SFC VIS 8 DZE27 SLP093 P0000 60002 T01220117 10139 20122 58013=
201803112329 SPECI KATL 112329Z 15008KT 2 1/2SM BR SCT005 SCT012 OVC018 12/12 A2981 RMK AO2 SFC VIS 6 DZE27 P0000 T01220122=
201803112252 SPECI KATL 112252Z 16010KT 1 1/2SM -DZ BR BKN006 OVC012 12/12 A2983 RMK AO2 SFC VIS 3 DZE23B50RAB23E50 SLP099 CIG 004V008 P0000 T01220122=
201803112252 METAR KATL 112252Z 16010KT 1 1/2SM -DZ BR BKN006 OVC012 12/12 A2983 RMK AO2 SFC VIS 3 DZE23B50RAB23E50 SLP099 CIG 004V008 P0000 T01220122=
201803112227 SPECI KATL 112227Z 14008KT 1SM R09R/P6000FT -RA BR BKN005 OVC012 13/13 A2983 RMK AO2 SFC VIS 2 DZE23RAB23 CIG 004V007 P0000 T01280128=
201803112205 SPECI KATL 112205Z 16007KT 1 1/2SM -DZ BR BKN007 OVC014 13/13 A2984 RMK AO2 SFC VIS 3 CIG 005V009 P0000 T01330128=
201803112152 METAR KATL 112152Z 15007KT 2 1/2SM -DZ BR BKN007 OVC014 13/13 A2984 RMK AO2 SFC VIS 3 RAE05DZB05 SLP103 CIG 005V009 P0001 T01330128=
201803112145 SPECI KATL 112145Z 14006KT 2 1/2SM -DZ BR BKN008 OVC016 13/13 A2984 RMK AO2 SFC VIS 3 RAE05DZB05 CIG 006V010 P0001 T01330133=
201803112052 METAR KATL 112052Z 14006KT 2 1/2SM -RA BR SCT006 OVC012 13/13 A2985 RMK AO2 SFC VIS 4 RAE30B51 SLP105 P0001 60001 T01330128 58004=
201803112038 SPECI KATL 112038Z 15005KT 3SM BR FEW006 OVC012 13/13 A2985 RMK AO2 SFC VIS 4 RAE30 P0001 T01330128=
201803111952 METAR KATL 111952Z 13004KT 3SM -RA BR SCT009 SCT013 OVC019 13/13 A2985 RMK AO2 SFC VIS 4 RAB25 SLP108 P0000 T01330128=
201803111934 SPECI KATL 111934Z 14004KT 3SM -RA BR BKN009 BKN014 OVC021 13/13 A2986 RMK AO2 SFC VIS 4 RAB25 P0000 T01330128=
201803111929 SPECI KATL 111929Z 15004KT 3SM -RA BR BKN012 BKN019 OVC034 13/12 A2986 RMK AO2 SFC VIS 5 RAB25 P0000 T01330122=
201803111852 METAR KATL 111852Z 14008KT 10SM FEW010 BKN015 OVC019 14/12 A2986 RMK AO2 SLP110 T01390122=
201803111809 SPECI KATL 111809Z 13006KT 10SM BKN011 OVC016 14/13 A2988 RMK AO2 PRESFR T01390128=
201803111752 METAR KATL 111752Z 14004KT 10SM BKN009 OVC016 13/13 A2990 RMK AO2 SLP124 60043 T01330128 10133 20117 56012=
201803111652 METAR KATL 111652Z 14008KT 10SM BKN009 OVC012 13/13 A2992 RMK AO2 SLP129 T01330128=
201803111552 METAR KATL 111552Z 12007KT 6SM BR BKN006 OVC011 13/13 A2992 RMK AO2 RAE43 SLP129 P0003 T01280128=
201803111521 SPECI KATL 111521Z 09008KT 5SM -RA BR SCT005 BKN009 OVC012 12/12 A2994 RMK AO2 P0002 T01220122=
201803111516 SPECI KATL 111516Z 09006KT 1 1/2SM -RA BR SCT005 OVC009 12/12 A2995 RMK AO2 SFC VIS 4 P0002 T01220122=
201803111507 SPECI KATL 111507Z 09005KT 1 1/2SM -RA BR SCT005 BKN011 OVC065 12/12 A2994 RMK AO2 SFC VIS 4 P0001 T01220122=
201803111452 METAR KATL 111452Z 11006KT 1 1/2SM -RA BR FEW005 SCT011 OVC065 12/12 A2994 RMK AO2 SFC VIS 3 SLP136 P0006 60040 T01220122 58006=
201803111417 SPECI KATL 111417Z 09008KT 1 1/2SM -RA BR SCT008 BKN011 OVC034 12/12 A2995 RMK AO2 SFC VIS 3 P0002 T01220122=
201803111352 METAR KATL 111352Z 05008KT 1 1/2SM -RA BR FEW006 BKN028 OVC065 13/12 A2995 RMK AO2 SFC VIS 2 SLP141 P0015 T01280122=
201803111315 SPECI KATL 111315Z 00000KT 1 1/2SM RA BR FEW008 BKN028 OVC039 12/12 A2996 RMK AO2 P0006 T01170117=
201803111252 METAR KATL 111252Z 00000KT 2 1/2SM -RA BR FEW008 SCT013 OVC029 12/12 A2995 RMK AO2 SLP142 P0019 T01170117=
201803111243 SPECI KATL 111243Z 00000KT 2 1/2SM RA BR FEW008 SCT013 OVC025 12/12 A2996 RMK AO2 P0018 T01170117=
201803111227 SPECI KATL 111227Z 26004KT 2 1/2SM -RA BR FEW008 BKN013 OVC050 12/12 A2996 RMK AO2 P0014 T01170117=
201803111152 METAR KATL 111152Z 00000KT 2 1/2SM RA BR FEW009 OVC035 12/12 A2996 RMK AO2 SLP142 P0029 60052 70052 T01170117 10133 20117 53011=
201803111131 SPECI KATL 111131Z 34006KT 2 1/2SM +RA BR SCT009 SCT026 OVC040 12/12 A2996 RMK AO2 P0019 T01170117=
201803111117 SPECI KATL 111117Z 33007KT 3SM RA BR BKN008 OVC037 12/12 A2995 RMK AO2 VIS S-W 2 1/2 CIG 007V011 P0010 T01220117=
201803111052 METAR KATL 111052Z 00000KT 5SM -RA BR FEW007 BKN012 OVC039 12/12 A2993 RMK AO2 SLP134 BKN012 V SCT P0006 T01220117=
201803111046 SPECI KATL 111046Z 06004KT 6SM -RA BR BKN012 BKN039 OVC075 12/12 A2993 RMK AO2 BKN012 V SCT P0006=
201803110952 METAR KATL 110952Z 12003KT 5SM RA BR SCT035 SCT049 OVC060 12/12 A2992 RMK AO2 SLP130 P0007 T01220117=
201803110852 METAR KATL 110852Z 00000KT 8SM -RA FEW040 BKN065 OVC080 13/12 A2994 RMK AO2 SLP134 P0005 60010 T01280117 55005=
201803110752 METAR KATL 110752Z 00000KT 7SM -RA SCT032 SCT045 OVC075 13/12 A2994 RMK AO2 SLP134 P0004 T01280122=
201803110652 METAR KATL 110652Z 00000KT 9SM -RA FEW008 BKN060 OVC085 13/12 A2994 RMK AO2 SLP136 P0001 T01280122=
201803110552 METAR KATL 110552Z 22005KT 9SM -RA FEW008 BKN065 OVC110 13/12 A2995 RMK AO2 RAB20 SLP140 P0000 60000 T01280122 10161 20128 58007=
201803110452 METAR KATL 110452Z 22004KT 10SM FEW042 SCT070 OVC100 13/13 A2996 RMK AO2 RAB07E47 SLP143 VIRGA OHD-ALQDS P0000 T01330128 401940044=
201803110352 METAR KATL 110352Z 21004KT 10SM FEW044 BKN060 BKN110 OVC180 14/12 A2997 RMK AO2 RAE22 SLP147 VIRGA OHD-ALQDS P0000 T01390117=
201803110252 METAR KATL 110252Z 05003KT 10SM -RA SCT046 BKN060 OVC110 14/12 A2997 RMK AO2 RAB49 SLP149 PCPN VRY LGT P0000 60000 T01440117 51009=
201803110152 METAR KATL 110152Z 07006KT 10SM SCT060 BKN120 OVC180 15/12 A2997 RMK AO2 SLP148 VIRGA SW-NW-NE T01500117=
201803110052 METAR KATL 110052Z 08007KT 10SM BKN065 BKN120 OVC200 15/12 A2996 RMK AO2 SLP146 T01500122=
201803102352 METAR KATL 102352Z 01008KT 10SM BKN075 BKN120 OVC200 16/12 A2995 RMK AO2 RAB27E40 SLP141 P0000 60000 T01610117 10194 20161 53002=
201803102252 METAR KATL 102252Z 31003KT 10SM FEW048 BKN070 BKN120 BKN200 18/09 A2994 RMK AO2 SLP139 T01830094=
201803102152 METAR KATL 102152Z 27004KT 10SM FEW050 BKN070 BKN110 BKN250 18/09 A2994 RMK AO2 SLP137 T01830094=
201803102052 METAR KATL 102052Z 26008KT 10SM FEW044 BKN080 OVC110 19/09 A2994 RMK AO2 SLP138 T01890094 55010=
201803101952 METAR KATL 101952Z 25010KT 10SM SCT080 OVC250 19/09 A2994 RMK AO2 SLP136 T01890089=
201803101852 METAR KATL 101852Z 26006KT 10SM FEW042 BKN080 OVC250 18/09 A2996 RMK AO2 SLP143 T01830089=
201803101752 METAR KATL 101752Z 24007KT 10SM SCT038 BKN050 BKN250 17/09 A2997 RMK AO2 SLP148 T01720089 10183 20044 58020=
201803101652 METAR KATL 101652Z 24008KT 10SM BKN038 BKN250 17/10 A2999 RMK AO2 SLP156 T01720100=
201803101552 METAR KATL 101552Z 23007KT 10SM FEW022 SCT040 BKN250 16/09 A3001 RMK AO2 SLP161 T01610094=
201803101452 METAR KATL 101452Z 23007KT 10SM BKN250 12/07 A3003 RMK AO2 SLP170 T01170067 58002=
201803101352 METAR KATL 101352Z 21006KT 10SM FEW070 FEW200 SCT250 09/04 A3003 RMK AO2 SLP172 T00890044=
201803101252 METAR KATL 101252Z 00000KT 10SM FEW070 FEW200 SCT250 06/02 A3005 RMK AO2 SLP178 T00610017=
201803101152 METAR KATL 101152Z 00000KT 10SM FEW200 SCT250 05/01 A3004 RMK AO2 SLP173 T00500006 10078 20050 53004=
201803101052 METAR KATL 101052Z 00000KT 10SM SCT250 05/00 A3004 RMK AO2 SLP173 T00500000=
201803100952 METAR KATL 100952Z 23004KT 10SM BKN250 06/00 A3003 RMK AO2 SLP168 T00560000=
201803100852 METAR KATL 100852Z 24005KT 10SM FEW200 BKN250 06/M01 A3003 RMK AO2 SLP168 T00611011 53000=
201803100752 METAR KATL 100752Z 24004KT 10SM SCT250 07/M02 A3002 RMK AO2 SLP166 T00671017=
201803100652 METAR KATL 100652Z 22006KT 10SM SCT250 07/M02 A3003 RMK AO2 SLP169 T00721022=
201803100552 METAR KATL 100552Z 22004KT 10SM SCT250 08/M03 A3003 RMK AO2 SLP169 T00781028 10133 20078 58003=
201803100452 METAR KATL 100452Z 21005KT 10SM SCT250 08/M02 A3003 RMK AO2 SLP173 T00831022 401611011=
201803100352 METAR KATL 100352Z 21003KT 10SM SCT250 09/M02 A3004 RMK AO2 SLP175 T00891022=
201803100252 METAR KATL 100252Z 22005KT 10SM SCT250 10/M03 A3004 RMK AO2 SLP174 T01001028 51005=
201803100152 METAR KATL 100152Z 21006KT 10SM FEW250 11/M02 A3003 RMK AO2 SLP174 T01061022=
201803100052 METAR KATL 100052Z 21006KT 10SM FEW200 SCT250 12/M02 A3003 RMK AO2 SLP173 T01171017=
201803092352 METAR KATL 092352Z 20007KT 10SM SCT200 BKN250 13/M02 A3002 RMK AO2 SLP171 T01331022 10161 20117 55008=
201803092252 METAR KATL 092252Z 20007KT 10SM SCT200 BKN250 15/M03 A3002 RMK AO2 SLP168 T01501033=
201803092152 METAR KATL 092152Z 22009KT 10SM SCT200 BKN250 16/M03 A3002 RMK AO2 SLP171 T01561028=
201803092052 METAR KATL 092052Z 27009G17KT 10SM FEW200 BKN250 16/M03 A3005 RMK AO2 SLP178 T01561028 56022=
201803091952 METAR KATL 091952Z 25010KT 10SM FEW200 BKN250 15/M02 A3006 RMK AO2 SLP184 T01501022=
201803091852 METAR KATL 091852Z VRB06KT 10SM FEW200 BKN250 13/M04 A3008 RMK AO2 SLP191 T01331039=
201803091752 METAR KATL 091752Z 32005KT 10SM SCT250 12/M03 A3011 RMK AO2 SLP202 T01171033 10117 21011 58014 $=
201803091652 METAR KATL 091652Z 28007KT 10SM FEW250 09/M04 A3014 RMK AO2 SLP210 T00941044 $=
201803091552 METAR KATL 091552Z VRB04KT 10SM FEW250 07/M06 A3015 RMK AO2 SLP213 T00721056 $=
201803091452 METAR KATL 091452Z 29006KT 10SM FEW005 FEW250 05/M04 A3016 RMK AO2 SLP218 FU FEW005 T00501044 51011=
201803091352 METAR KATL 091352Z 31008KT 10SM FEW040 FEW250 03/M05 A3015 RMK AO2 SLP216 FU FEW040 T00281050=
201803091252 METAR KATL 091252Z 28006KT 10SM FEW250 01/M05 A3014 RMK AO2 SLP215 T00061050=
201803091152 METAR KATL 091152Z 29004KT 10SM FEW250 M01/M06 A3012 RMK AO2 SLP207 T10111056 10017 21011 53014=
201803091052 METAR KATL 091052Z 31005KT 10SM CLR M01/M06 A3010 RMK AO2 SLP201 T10061056=
201803090952 METAR KATL 090952Z 33006KT 10SM CLR M01/M05 A3009 RMK AO2 SLP196 T10061050=
201803090852 METAR KATL 090852Z 28005KT 10SM CLR M01/M06 A3008 RMK AO2 SLP191 T10061056 50000 $=
201803090752 METAR KATL 090752Z 30005KT 10SM FEW250 01/M05 A3008 RMK AO2 SLP192 T00061050 $=
201803090652 METAR KATL 090652Z 28004KT 10SM FEW250 01/M06 A3009 RMK AO2 SLP194 T00061056 $=
201803090552 METAR KATL 090552Z 32004KT 10SM FEW250 02/M05 A3008 RMK AO2 SLP191 T00171050 10072 20017 50002 $=
201803090452 METAR KATL 090452Z 32005KT 10SM FEW250 02/M05 A3009 RMK AO2 SLP193 T00221050 400941006 $=
201803090352 METAR KATL 090352Z 34007KT 10SM FEW250 03/M04 A3009 RMK AO2 SLP194 T00331044 $=
201803090252 METAR KATL 090252Z 35011KT 10SM FEW250 04/M04 A3007 RMK AO2 SLP189 T00441044 51013 $=
201803090152 METAR KATL 090152Z 31012KT 10SM CLR 06/M04 A3007 RMK AO2 SLP188 T00561044 $=
201803090052 METAR KATL 090052Z 31013KT 10SM FEW050 06/M04 A3005 RMK AO2 SLP183 T00611044 $=
201803082352 METAR KATL 082352Z 32014G23KT 10SM FEW055 07/M05 A3003 RMK AO2 SLP176 T00721050 10094 20072 53010 $=
201803082252 METAR KATL 082252Z 30012KT 10SM FEW055 08/M04 A3001 RMK AO2 PK WND 32026/2220 SLP167 T00831039 $=
201803082152 METAR KATL 082152Z 30018G24KT 10SM FEW055 09/M04 A3000 RMK AO2 PK WND 32028/2113 SLP165 T00891039 $=
201803082052 METAR KATL 082052Z 31020G26KT 10SM FEW055 09/M04 A3000 RMK AO2 PK WND 31026/2051 SLP163 T00891044 55012 $=
201803081952 METAR KATL 081952Z 30014G22KT 10SM FEW055 09/M03 A3000 RMK AO2 PK WND 31026/1916 SLP163 T00891028 $=
201803081852 METAR KATL 081852Z 31014G19KT 10SM SCT050 08/M03 A3001 RMK AO2 SLP168 T00831028 $=
201803081752 METAR KATL 081752Z 29013G24KT 10SM SCT055 08/M03 A3004 RMK AO2 SLP175 T00831028 10089 21006 56006=
201803081652 METAR KATL 081652Z 30013G22KT 10SM BKN050 BKN060 07/M03 A3004 RMK AO2 SLP177 T00721033=
201803081552 METAR KATL 081552Z 29012G20KT 10SM BKN040 BKN050 06/M03 A3005 RMK AO2 SLP180 T00561033=
201803081452 METAR KATL 081452Z 28011KT 10SM SCT035 05/M03 A3005 RMK AO2 SLP183 T00501028 50004=
201803081352 METAR KATL 081352Z 29007KT 10SM FEW040 SCT060 03/M03 A3006 RMK AO2 SLP184 T00281028=
201803081252 METAR KATL 081252Z 28008KT 10SM FEW042 FEW070 01/M03 A3006 RMK AO2 SLP185 T00111028=
201803081152 METAR KATL 081152Z 28006KT 10SM FEW042 M01/M04 A3004 RMK AO2 SLP179 T10061039 10039 21006 53016=
201803081052 METAR KATL 081052Z 27005KT 10SM CLR 00/M04 A3003 RMK AO2 SLP174 T00001039=
201803080952 METAR KATL 080952Z 27005KT 10SM CLR 01/M03 A3000 RMK AO2 SLP166 T00061033=
201803080852 METAR KATL 080852Z 29008KT 10SM FEW040 02/M03 A2999 RMK AO2 SLP161 T00171033 58005 $=
201803080752 METAR KATL 080752Z 28005KT 10SM CLR 02/M03 A3000 RMK AO2 SLP162 T00221033 $=
201803080652 METAR KATL 080652Z 31007KT 10SM CLR 03/M03 A3001 RMK AO2 SLP166 T00281028 $=
201803080552 METAR KATL 080552Z 32010KT 10SM FEW042 04/M03 A3001 RMK AO2 SLP167 T00391033 10072 20039 58012 $=
201803080452 METAR KATL 080452Z 32008KT 10SM BKN043 04/M03 A3003 RMK AO2 SLP175 T00391028 401000039 $=
201803080352 METAR KATL 080352Z 31007KT 10SM SCT045 04/M03 A3005 RMK AO2 SLP179 T00391028 $=
201803080252 METAR KATL 080252Z 31010KT 10SM BKN045 04/M03 A3005 RMK AO2 SLP180 T00441028 51013 $=
201803080152 METAR KATL 080152Z 31011KT 10SM FEW050 05/M03 A3003 RMK AO2 SLP174 T00501028 $=
201803080052 METAR KATL 080052Z 33009KT 10SM CLR 06/M03 A3002 RMK AO2 SLP171 T00611028 $=
201803072352 METAR KATL 072352Z 31010KT 8SM CLR 07/M03 A3001 RMK AO2 SLP166 VIS LWR FU T00721028 10100 20072 51009 $=
201803072252 METAR KATL 072252Z 32011KT 8SM FEW250 08/M03 A3000 RMK AO2 SLP162 VIS LWR FU T00831028 $=
201803072152 METAR KATL 072152Z 33017KT 10SM FEW045 FEW250 09/M03 A3000 RMK AO2 SLP161 T00941028 $=
201803072052 METAR KATL 072052Z 34016G23KT 10SM FEW050 FEW250 10/M03 A2998 RMK AO2 PK WND 33027/1953 SLP154 T01001028 57006 $=
201803071952 METAR KATL 071952Z 33020G27KT 10SM FEW055 10/M03 A2999 RMK AO2 PK WND 35027/1947 SLP156 T01001028=
201803071852 METAR KATL 071852Z 32017G25KT 10SM FEW050 09/M02 A2999 RMK AO2 SLP159 T00941022=
201803071752 METAR KATL 071752Z 31016G22KT 270V330 10SM FEW050 09/M02 A3000 RMK AO2 SLP161 T00891022 10089 20050 50006=
201803071652 METAR KATL 071652Z 33016G27KT 10SM FEW045 08/M04 A3001 RMK AO2 PK WND 31027/1647 SLP165 T00781039=
201803071552 METAR KATL 071552Z 31016KT 10SM FEW040 07/M03 A3000 RMK AO2 PK WND 32028/1506 SLP160 T00671033=
201803071452 METAR KATL 071452Z 32020G28KT 10SM FEW040 06/M04 A2998 RMK AO2 PK WND 34033/1421 SLP154 T00561044 51033=
201803071352 METAR KATL 071352Z 32016G26KT 10SM FEW040 06/M03 A2996 RMK AO2 PK WND 31035/1340 SLP148 T00561033=
201803071252 METAR KATL 071252Z 30015G26KT 10SM FEW030 06/M04 A2992 RMK AO2 PK WND 31027/1224 SLP135 T00561039=
201803071152 METAR KATL 071152Z 29017G25KT 10SM CLR 06/M04 A2988 RMK AO2 SLP119 70054 T00561039 10089 20056 51026=
201803071052 METAR KATL 071052Z 31011KT 10SM CLR 07/M03 A2986 RMK AO2 SLP110 T00671028=
201803070952 METAR KATL 070952Z 29012KT 10SM CLR 07/M03 A2983 RMK AO2 SLP101 T00721028 $=
201803070852 METAR KATL 070852Z 27011KT 10SM FEW250 08/M03 A2980 RMK AO2 SLP091 T00781028 58007 $=
201803070752 METAR KATL 070752Z 25007KT 10SM FEW250 08/M02 A2980 RMK AO2 SLP092 T00831022 $=
201803070652 METAR KATL 070652Z 27008KT 10SM FEW250 08/M02 A2982 RMK AO2 SLP098 T00831017 $=
201803070552 METAR KATL 070552Z 27007KT 10SM SCT250 09/M01 A2982 RMK AO2 SLP098 T00891011 10133 20083 50007 $=
201803070452 METAR KATL 070452Z 28011KT 10SM SCT250 09/01 A2983 RMK AO2 SLP099 T00940011 401560094 $=
201803070352 METAR KATL 070352Z 27009KT 10SM SCT250 10/03 A2981 RMK AO2 SLP095 T01000033 $=
201803070252 METAR KATL 070252Z 27008KT 10SM FEW250 11/06 A2980 RMK AO2 SLP090 T01060061 51004 $=
201803070152 METAR KATL 070152Z 27007KT 10SM SCT250 12/07 A2980 RMK AO2 SLP089 T01170067 $=
201803070052 METAR KATL 070052Z 25004KT 10SM SCT250 12/07 A2979 RMK AO2 SLP087 T01170072 $=
201803062352 METAR KATL 062352Z 26005KT 10SM FEW020 FEW250 13/07 A2979 RMK AO2 SLP085 60007 T01330072 10156 20122 56005 $=
201803062252 METAR KATL 062252Z 29007KT 10SM FEW020 FEW060 15/10 A2979 RMK AO2 SLP086 T01500100=
201803062152 METAR KATL 062152Z 33007KT 10SM FEW015 SCT022 SCT060 16/12 A2980 RMK AO2 SLP088 T01560117=
201803062132 SPECI KATL 062132Z 30009KT 10SM FEW010 BKN020 BKN050 14/12 A2980 RMK AO2 T01390117=
201803062052 METAR KATL 062052Z 27007KT 10SM FEW007 BKN010 BKN050 14/12 A2980 RMK AO2 SLP090 60007 T01390122 53002=
201803061952 METAR KATL 061952Z 32005KT 8SM BKN007 BKN015 OVC030 13/12 A2980 RMK AO2 RAE1858 SLP088 P0000 T01280122=
201803061903 SPECI KATL 061903Z 31010KT 10SM BKN007 BKN010 OVC030 13/12 A2980 RMK AO2 RAE1858 P0000 T01280122=
201803061852 METAR KATL 061852Z 32007KT 2SM -RA BR FEW005 SCT010 OVC030 12/12 A2980 RMK AO2 SFC VIS 4 SLP089 P0007 T01220122=
201803061810 SPECI KATL 061810Z 32017KT 2SM R09R/4000VP6000FT -RA BR BKN005 BKN012 OVC030 13/13 A2980 RMK AO2 SFC VIS 4 P0004 T01280128=
201803061759 SPECI KATL 061759Z 31013KT 2SM R09R/5000VP6000FT RA BR SCT005 BKN012 OVC027 13/13 A2980 RMK AO2 SFC VIS 3 P0003 T01330133=
201803061752 METAR KATL 061752Z 30016G25KT 2SM R09R/5000VP6000FT RA BR BKN005 BKN010 OVC020 14/14 A2980 RMK AO2 SFC VIS 3 TSE13 SLP090 P0019 60047 T01390139 10156 20128 56008=
201803061714 SPECI KATL 061714Z 26004KT 2SM RA BR BKN005 BKN015 OVC020 15/15 A2979 RMK AO2 SFC VIS 3 TSE13 TS MOV NE CB DSNT NE P0007 T01500150=
201803061705 SPECI KATL 061705Z 20005KT 2SM R09R/6000VP6000FT -TSRA BR SCT005 BKN008CB OVC015 15/15 A2979 RMK AO2 SFC VIS 3 OCNL LTGICCG NE-E TS NE-E MOV NE P0004 T01500150=
201803061652 METAR KATL 061652Z 25004KT 2SM R09R/4500VP6000FT TSRA BR BKN008CB BKN015 OVC020 15/15 A2981 RMK AO2 SFC VIS 3 TSB41 SLP091 OCNL LTGICCG OHD-NE-SE TS OHD-NE-SE MOV NE P0015 T01500150=
201803061648 SPECI KATL 061648Z 24005KT 2SM R09R/4500VP6000FT +TSRA BR BKN008CB BKN015 OVC020 15/15 A2981 RMK AO2 LTG DSNT W TSB41 OCNL LTGICCG OHD & ALQDS TS OHD & ALQDS MOV NE P0012=
201803061642 SPECI KATL 061642Z 20008KT 3SM R09R/6000VP6000FT TSRA BR BKN008CB BKN010 OVC020 15/15 A2981 RMK AO2 TWR VIS 4 LTG DSNT W TSB41 OCNL LTGICCG S-SW-W TS S-SW-W MOV NE P0005 T01500150=
201803061639 SPECI KATL 061639Z 19008G16KT 4SM RA BR BKN008CB BKN013 OVC020 15/15 A2981 RMK AO2 LTG DSNT W CB OHD-SW-NW-N MOV NE P0004 T01500150=
201803061554 SPECI KATL 061554Z 19010KT 6SM -RA BR BKN005 BKN008 OVC010 14/14 A2983 RMK AO2 P0000 T01440144=
201803061552 METAR KATL 061552Z 19011KT 2SM -RA BR BKN005 BKN008 OVC010 14/14 A2983 RMK AO2 SFC VIS 4 RAE1456B21 SLP098 P0001 T01440144=
201803061513 SPECI KATL 061513Z 19011KT 2SM BR BKN005 BKN008 OVC012 14/14 A2985 RMK AO2 SFC VIS 4 RAE1456 P0000 T01390139=
201803061452 METAR KATL 061452Z 18009KT 6SM -RA BR BKN005 BKN008 OVC010 14/14 A2985 RMK AO2 SLP106 P0005 60012 T01390139 58008=
201803061352 METAR KATL 061352Z 20009KT 4SM -RA BR BKN006 OVC011 14/14 A2987 RMK AO2 SLP115 CIG 005V008 P0005 T01390139=
201803061315 SPECI KATL 061315Z 19010KT 4SM -RA BR BKN008 BKN013 OVC033 14/14 A2988 RMK AO2 P0002 T01390139=
201803061252 METAR KATL 061252Z 19009KT 5SM -RA BR FEW005 BKN012 OVC020 13/13 A2987 RMK AO2 RAB05E15B18 SLP114 P0002 T01330133=
201803061230 SPECI KATL 061230Z 18009KT 4SM -RA BR FEW005 BKN017 OVC025 13/13 A2987 RMK AO2 RAB05E15B18 P0002 T01330133=
201803061223 SPECI KATL 061223Z 19008KT 2SM -RA BR SCT006 OVC020 13/13 A2988 RMK AO2 RAB05E15B18 P0001 T01330133=
201803061216 SPECI KATL 061216Z 20007KT 8SM FEW006 BKN020 OVC037 13/13 A2987 RMK AO2 RAB05E15 P0000 T01330133=
201803061152 METAR KATL 061152Z 22009KT 6SM BR BKN006 BKN035 BKN075 OVC200 13/13 A2987 RMK AO2 RAB1058E49 SLP114 P0004 60017 70017 T01280128 10133 20106 55006=
201803061052 METAR KATL 061052Z 19009KT 7SM BKN009 BKN075 OVC090 11/11 A2987 RMK AO2 RAE39 SLP115 P0006 T01110111=
201803061044 SPECI KATL 061044Z 19008KT 7SM BKN009 OVC085 11/11 A2987 RMK AO2 RAE39 P0006 T01110106=
201803060952 METAR KATL 060952Z 20005KT 4SM RA BR SCT055 OVC075 11/09 A2989 RMK AO2 SLP120 P0007 T01110094 $=
201803060852 METAR KATL 060852Z 22007KT 9SM -RA SCT035 BKN080 OVC110 12/07 A2989 RMK AO2 RAB40 SLP120 P0000 60000 T01220067 55016 $=
201803060752 METAR KATL 060752Z 19010KT 10SM FEW060 SCT095 BKN150 OVC180 13/02 A2988 RMK AO2 SLP117 T01330022 $=
201803060652 METAR KATL 060652Z 19007KT 10SM BKN060 BKN080 OVC095 13/02 A2992 RMK AO2 SLP131 T01330017 $=
201803060552 METAR KATL 060552Z 17008KT 10SM BKN055 OVC070 13/02 A2994 RMK AO2 SLP137 T01280022 10139 20128 58015 $=
201803060452 METAR KATL 060452Z 16008KT 10SM BKN055 OVC080 13/02 A2995 RMK AO2 SLP141 T01280022 401500067 $=
201803060352 METAR KATL 060352Z 12004KT 10SM OVC055 13/03 A2997 RMK AO2 SLP149 T01280033 $=
201803060252 METAR KATL 060252Z 13003KT 10SM BKN055 BKN250 13/03 A2998 RMK AO2 SLP152 T01280033 56008 $=
201803060152 METAR KATL 060152Z 16005KT 10SM BKN055 BKN250 13/04 A2999 RMK AO2 SLP154 T01280039=
201803060052 METAR KATL 060052Z 16004KT 10SM BKN055 OVC100 13/04 A3000 RMK AO2 SLP161 T01330044=
201803052352 METAR KATL 052352Z 16004KT 10SM BKN060 OVC100 13/04 A3001 RMK AO2 RAB12E23 SLP163 P0000 60000 T01330044 10150 20128 56009=
201803052252 METAR KATL 052252Z 19005KT 10SM BKN070 BKN090 OVC120 14/04 A3002 RMK AO2 SLP165 T01390039=
201803052152 METAR KATL 052152Z 20004KT 10SM FEW050 BKN080 BKN110 14/03 A3003 RMK AO2 SLP169 T01440033=
201803052052 METAR KATL 052052Z 24003KT 10SM FEW050 BKN080 BKN120 14/04 A3004 RMK AO2 SLP172 60000 T01440044 56022=
201803051952 METAR KATL 051952Z 23005KT 10SM FEW060 BKN080 OVC120 14/04 A3004 RMK AO2 RAB07E15 SLP173 VIRGA NE-E P0000 T01390044=
201803051852 METAR KATL 051852Z 27008KT 10SM FEW040 BKN080 OVC120 13/04 A3008 RMK AO2 RAB1755E22 SLP187 VIRGA SE-S-SW-W-NW P0000 T01330039=
201803051752 METAR KATL 051752Z 25008KT 10SM FEW040 BKN070 OVC120 14/00 A3010 RMK AO2 SLP194 VIRGA OHD & ALQDS T01440000 10144 20100 58001=
201803051652 METAR KATL 051652Z 28007KT 10SM BKN080 BKN120 OVC250 14/00 A3012 RMK AO2 SLP197 T01390000=
201803051552 METAR KATL 051552Z 28007KT 10SM BKN090 BKN120 OVC250 13/01 A3011 RMK AO2 SLP196 T01330006=
201803051452 METAR KATL 051452Z 28006KT 10SM BKN090 BKN110 OVC250 13/00 A3011 RMK AO2 SLP195 T01330000 53005=
201803051352 METAR KATL 051352Z 25007KT 10SM BKN095 OVC250 12/M02 A3010 RMK AO2 SLP193 BINOVC T01221017=
201803051252 METAR KATL 051252Z 24003KT 10SM BKN100 BKN250 10/M01 A3009 RMK AO2 SLP189 T01001006=
201803051152 METAR KATL 051152Z 00000KT 10SM BKN100 BKN150 BKN250 10/M01 A3009 RMK AO2 SLP189 T01001011 10111 20067 53008=
201803051052 METAR KATL 051052Z 00000KT 10SM BKN110 BKN150 BKN250 09/M01 A3007 RMK AO2 SLP183 T00891006=
201803050952 METAR KATL 050952Z 00000KT 10SM CLR 07/02 A3007 RMK AO2 SLP182 T00670017=
201803050852 METAR KATL 050852Z 13003KT 10SM FEW140 FEW200 08/01 A3007 RMK AO2 SLP181 T00830011 58022=
201803050752 METAR KATL 050752Z 00000KT 10SM FEW140 FEW180 FEW250 09/M01 A3009 RMK AO2 SLP187 T00941011=
201803050652 METAR KATL 050652Z 23004KT 10SM FEW140 FEW180 FEW250 10/M01 A3012 RMK AO2 SLP199 T01001006=
201803050552 METAR KATL 050552Z 00000KT 10SM FEW140 SCT180 SCT250 11/01 A3013 RMK AO2 SLP203 T01060006 10161 20106 58005=
201803050452 METAR KATL 050452Z 21003KT 10SM SCT140 BKN180 BKN250 12/01 A3014 RMK AO2 SLP205 T01220011 401940033=
201803050352 METAR KATL 050352Z 32004KT 10SM BKN170 BKN250 13/M02 A3015 RMK AO2 SLP209 T01331017=
201803050252 METAR KATL 050252Z 00000KT 10SM BKN160 BKN250 12/M02 A3015 RMK AO2 SLP209 T01221017 53002=
201803050152 METAR KATL 050152Z 31006KT 10SM FEW120 SCT150 SCT250 13/M02 A3015 RMK AO2 SLP212 T01281022=
201803050052 METAR KATL 050052Z 21003KT 10SM FEW150 FEW200 SCT250 14/M02 A3014 RMK AO2 SLP207 T01441017=
201803042352 METAR KATL 042352Z 20004KT 10SM FEW150 FEW200 SCT250 16/M02 A3014 RMK AO2 SLP209 T01611022 10194 20161 55008=
201803042252 METAR KATL 042252Z 00000KT 10SM SCT200 SCT250 18/M06 A3014 RMK AO2 SLP207 T01831056=
201803042152 METAR KATL 042152Z 00000KT 10SM FEW200 SCT250 19/M07 A3015 RMK AO2 SLP209 T01891067=
201803042052 METAR KATL 042052Z VRB03KT 10SM FEW250 19/M06 A3017 RMK AO2 SLP215 T01891061 56018=
201803041952 METAR KATL 041952Z 27005KT 10SM FEW200 FEW250 18/M05 A3018 RMK AO2 SLP221 T01831050=
201803041852 METAR KATL 041852Z 08007KT 020V110 10SM FEW250 18/M04 A3020 RMK AO2 SLP227 T01781039=
201803041752 METAR KATL 041752Z 10005KT 10SM CLR 17/M04 A3022 RMK AO2 SLP234 T01671044 10167 20033 58012=
201803041652 METAR KATL 041652Z 00000KT 10SM CLR 16/M02 A3024 RMK AO2 SLP242 T01561022=
201803041552 METAR KATL 041552Z 10007KT 10SM CLR 13/M06 A3025 RMK AO2 SLP246 T01331056=
201803041452 METAR KATL 041452Z 11005KT 10SM CLR 12/M04 A3026 RMK AO2 SLP248 T01171039 50007=
201803041352 METAR KATL 041352Z 02005KT 10SM CLR 09/M04 A3027 RMK AO2 SLP252 T00891039=
201803041252 METAR KATL 041252Z 31004KT 10SM CLR 05/M03 A3026 RMK AO2 SLP248 T00501028=
201803041152 METAR KATL 041152Z 32004KT 10SM CLR 03/M03 A3024 RMK AO2 SLP243 T00331028 10083 20033 53007=
201803041052 METAR KATL 041052Z 33005KT 10SM CLR 03/M03 A3023 RMK AO2 SLP238 T00331028=
201803040952 METAR KATL 040952Z 32004KT 10SM CLR 05/M04 A3022 RMK AO2 SLP234 T00501039=
201803040852 METAR KATL 040852Z 30004KT 10SM CLR 06/M04 A3022 RMK AO2 SLP234 T00561039 55000=
201803040752 METAR KATL 040752Z 33008KT 10SM CLR 07/M05 A3021 RMK AO2 SLP232 T00671050=
201803040652 METAR KATL 040652Z 35006KT 10SM CLR 08/M06 A3021 RMK AO2 SLP230 T00781056=
201803040552 METAR KATL 040552Z 35009KT 10SM CLR 08/M06 A3022 RMK AO2 SLP233 T00831061 10133 20078 50007=
201803040452 METAR KATL 040452Z 33008KT 10SM CLR 08/M06 A3022 RMK AO2 SLP235 T00831056 401780028=
201803040352 METAR KATL 040352Z 33006KT 10SM CLR 09/M05 A3021 RMK AO2 SLP232 T00891050=
201803040252 METAR KATL 040252Z 32008KT 10SM CLR 09/M04 A3020 RMK AO2 SLP227 T00941044 51002=
201803040152 METAR KATL 040152Z 34011KT 10SM CLR 11/M05 A3020 RMK AO2 SLP228 T01061050=
201803040052 METAR KATL 040052Z 33014KT 10SM CLR 12/M05 A3020 RMK AO2 SLP228 T01221050=
201803032352 METAR KATL 032352Z 32017G23KT 10SM CLR 13/M06 A3019 RMK AO2 SLP226 T01331056 10178 20133 56001=
201803032252 METAR KATL 032252Z 33014KT 10SM FEW040 16/M05 A3020 RMK AO2 SLP227 FU FEW040 T01611050=
201803032152 METAR KATL 032152Z 33011KT 10SM CLR 17/M03 A3018 RMK AO2 SLP222 T01721033=
201803032052 METAR KATL 032052Z 32013KT 10SM CLR 17/M03 A3019 RMK AO2 SLP225 T01721028 56024=
201803031952 METAR KATL 031952Z 35009G14KT 10SM CLR 17/M05 A3020 RMK AO2 SLP228 T01671050=
201803031852 METAR KATL 031852Z 01007G17KT 10SM CLR 17/M04 A3023 RMK AO2 SLP238 T01721039=
201803031752 METAR KATL 031752Z 34009G14KT 10SM CLR 16/M06 A3026 RMK AO2 SLP250 T01561061 10156 20028 58009=
201803031652 METAR KATL 031652Z 34005KT 10SM CLR 14/M05 A3027 RMK AO2 SLP253 T01391050=
201803031552 METAR KATL 031552Z 36010KT 10SM CLR 12/M04 A3029 RMK AO2 SLP258 T01171039=
201803031452 METAR KATL 031452Z 33006KT 10SM CLR 09/M04 A3029 RMK AO2 SLP260 T00891039 51013=
201803031352 METAR KATL 031352Z 32011KT 10SM CLR 06/M03 A3028 RMK AO2 SLP256 T00611033=
201803031252 METAR KATL 031252Z 33009KT 10SM CLR 04/M03 A3028 RMK AO2 SLP257 T00391028=
201803031152 METAR KATL 031152Z 32008KT 10SM CLR 03/M03 A3025 RMK AO2 SLP248 T00331028 10067 20033 53010=
201803031052 METAR KATL 031052Z 34010KT 10SM CLR 04/M03 A3024 RMK AO2 SLP242 T00391028=
201803030952 METAR KATL 030952Z 32012KT 10SM CLR 04/M03 A3023 RMK AO2 SLP240 T00441028=
201803030852 METAR KATL 030852Z 33010KT 10SM CLR 05/M03 A3022 RMK AO2 SLP236 T00501028 53002=
201803030752 METAR KATL 030752Z 33012KT 10SM CLR 06/M03 A3022 RMK AO2 SLP235 T00561028=
201803030652 METAR KATL 030652Z 33010KT 10SM CLR 06/M03 A3022 RMK AO2 SLP234 T00611028=
201803030552 METAR KATL 030552Z 32010KT 10SM CLR 07/M03 A3022 RMK AO2 SLP234 T00671033 10117 20067 55002=
201803030452 METAR KATL 030452Z 33010KT 10SM CLR 08/M04 A3021 RMK AO2 SLP231 T00781039 401440072=
201803030352 METAR KATL 030352Z 33012KT 10SM CLR 09/M03 A3022 RMK AO2 SLP237 T00891033=
201803030252 METAR KATL 030252Z 33013KT 10SM CLR 09/M03 A3022 RMK AO2 SLP236 T00941028 50002=
201803030152 METAR KATL 030152Z 33011KT 10SM CLR 10/M03 A3022 RMK AO2 SLP236 T01001033=
201803030052 METAR KATL 030052Z 32009KT 10SM CLR 10/M03 A3022 RMK AO2 SLP235 T01001028=
201803022352 METAR KATL 022352Z 33014KT 10SM CLR 12/M04 A3022 RMK AO2 SLP234 T01171039 10144 20117 53008=
201803022252 METAR KATL 022252Z 31018KT 10SM CLR 13/M03 A3021 RMK AO2 SLP229 T01331033=
201803022152 METAR KATL 022152Z 33018G24KT 10SM CLR 14/M03 A3019 RMK AO2 PK WND 32027/2108 SLP226 T01391028=
201803022052 METAR KATL 022052Z 32019KT 10SM CLR 14/M03 A3019 RMK AO2 PK WND 32027/2022 SLP224 T01441033 56010=
201803021952 METAR KATL 021952Z 33017G23KT 10SM CLR 14/M04 A3019 RMK AO2 SLP226 T01441039=
201803021852 METAR KATL 021852Z 33016G27KT 10SM CLR 14/M03 A3021 RMK AO2 PK WND 32027/1850 SLP229 T01391033=
201803021752 METAR KATL 021752Z 34014G24KT 10SM CLR 13/M04 A3022 RMK AO2 SLP234 T01281039 10133 20072 50003=
201803021652 METAR KATL 021652Z 32014G23KT 10SM CLR 13/M02 A3023 RMK AO2 PK WND 32026/1622 SLP238 T01281017=
201803021552 METAR KATL 021552Z 32019G25KT 10SM FEW250 11/M02 A3023 RMK AO2 PK WND 35026/1517 SLP236 T01111022=
201803021452 METAR KATL 021452Z 33015G22KT 10SM CLR 10/01 A3021 RMK AO2 PK WND 33027/1434 SLP231 T01000011 53022=
201803021352 METAR KATL 021352Z 34015G27KT 10SM CLR 08/03 A3018 RMK AO2 PK WND 32028/1304 SLP222 T00830028=
201803021252 METAR KATL 021252Z 33015G23KT 10SM CLR 07/03 A3016 RMK AO2 PK WND 35026/1222 SLP215 T00720028=
201803021152 METAR KATL 021152Z 33018G23KT 10SM FEW200 07/02 A3014 RMK AO2 SLP209 70016 T00720022 10111 20072 53012=
201803021052 METAR KATL 021052Z 32012KT 10SM FEW200 08/02 A3013 RMK AO2 SLP204 T00780022=
201803020952 METAR KATL 020952Z 32011KT 10SM FEW200 08/04 A3011 RMK AO2 SLP198 T00830039=
201803020852 METAR KATL 020852Z 32009KT 10SM FEW200 SCT250 08/04 A3011 RMK AO2 SLP196 T00830044 51008=
201803020752 METAR KATL 020752Z 32013G19KT 10SM FEW200 SCT250 09/04 A3011 RMK AO2 SLP195 T00890044=
201803020652 METAR KATL 020652Z 34014G21KT 10SM FEW200 SCT250 10/06 A3011 RMK AO2 PK WND 33027/0611 SLP196 T01000056=
201803020552 METAR KATL 020552Z 33012KT 10SM FEW015 SCT200 11/07 A3008 RMK AO2 PK WND 34028/0539 SLP185 T01110072 10139 20111 53020=
201803020452 METAR KATL 020452Z 32013KT 10SM FEW015 BKN200 12/10 A3005 RMK AO2 SLP173 T01220100 402280122=
201803020352 METAR KATL 020352Z 32012KT 10SM FEW015 BKN200 13/12 A3004 RMK AO2 SLP167 T01330117=
201803020252 METAR KATL 020252Z 31012KT 10SM FEW015 SCT200 13/12 A3002 RMK AO2 SLP161 T01330122 53020=
201803020216 SPECI KATL 020216Z 29012KT 10SM SCT018 BKN150 BKN200 13/13 A3000 RMK AO2 T01330128=
201803020152 METAR KATL 020152Z 29013G18KT 10SM SCT018 BKN025 BKN150 BKN200 13/13 A2999 RMK AO2 SLP151 T01330128=
201803020052 METAR KATL 020052Z 27009KT 10SM SCT020 BKN030 BKN150 BKN200 14/13 A2996 RMK AO2 SLP142 T01390128=
201803012352 METAR KATL 012352Z 27008KT 10SM FEW060 SCT075 BKN100 BKN200 14/13 A2996 RMK AO2 RAE51 SLP141 P0003 60011 T01390133 10167 20139 53021=
201803012252 METAR KATL 012252Z 28008KT 8SM -RA OVC080 14/14 A2994 RMK AO2 RAE20B36 SLP134 P0001 T01440139=
201803012152 METAR KATL 012152Z 27006KT 10SM -RA FEW010 FEW050 OVC080 14/14 A2990 RMK AO2 RAB21 SLP122 P0001 T01440139=
201803012052 METAR KATL 012052Z 31010KT 10SM FEW010 SCT050 OVC070 15/14 A2990 RMK AO2 RAE39 SLP119 P0002 60006 T01500144 50020=
201803011952 METAR KATL 011952Z 31017KT 6SM -RA BR FEW010 BKN050 OVC070 15/14 A2990 RMK AO2 SLP122 P0004 T01500139=
201803011950 SPECI KATL 011950Z 32015KT 6SM -RA BR FEW010 BKN050 OVC070 15/14 A2989 RMK AO2 P0004=
201803011911 SPECI KATL 011911Z 32017G23KT 2SM RA BR FEW010 BKN020 OVC050 15/14 A2988 RMK AO2 SFC VIS 4 PRESRR P0000 T01500144=
201803011855 SPECI KATL 011855Z 32015G20KT 8SM -RA BKN010 BKN020 OVC050 16/15 A2985 RMK AO2 P0000 T01560150=
201803011852 METAR KATL 011852Z 31014G20KT 8SM -RA FEW005 BKN015 OVC040 16/15 A2985 RMK AO2 PK WND 32026/1825 SLP104 P0000 T01560150=
201803011832 SPECI KATL 011832Z 33016G26KT 6SM -RA BR FEW010 BKN020 OVC050 16/15 A2985 RMK AO2 PK WND 32026/1825 P0000 T01560150=
201803011752 METAR KATL 011752Z 31016G26KT 8SM -RA FEW010 BKN040 OVC080 17/15 A2984 RMK AO2 PK WND 24031/1705 WSHFT 1712 RAB04 SLP099 CB DSNT NE-SE-S MOV E P0005 60005 T01670150 10228 20167 55000=
201803011732 SPECI KATL 011732Z 31015G25KT 8SM -RA FEW020CB BKN030 OVC050 17/16 A2983 RMK AO2 PK WND 24031/1705 WSHFT 1712 RAB04 CB NE-SE-S MOV E P0004 T01670161=
201803011718 SPECI KATL 011718Z 32015KT 3SM R09R/4500VP6000FT -RA BR SCT025CB BKN035 OVC045 17/17 A2982 RMK AO2 PK WND 24031/1705 WSHFT 1658 SFC VIS 6 RAB04 VIS LWR NE-SE SHRA CB NE-SE MOV E P0003 T01720167=
201803011714 SPECI KATL 011714Z 31017G31KT 2SM R09R/4500VP6000FT +RA BR SCT025CB BKN030 OVC050 17/17 A2983 RMK AO2 PK WND 24031/1705 WSHFT 1658 RAB04 PRESRR CB OHD MOV E P0001 T01720167=
201803011708 SPECI KATL 011708Z 32025G31KT 1SM R09R/5500VP6000FT +RA BKN027CB BKN034 OVC065 21/17 A2982 RMK AO2 PK WND 24031/1705 TWR VIS 2 RAB04 PRESRR VIS LWR SW-NW-N SHRA CB OHD-SW-NW-N MOV E P0000 T02110172=
201803011704 SPECI KATL 011704Z 23019G29KT 8SM -RA BKN027CB BKN040 OVC050 22/17 A2979 RMK AO2 PK WND 22029/1704 RAB04 VIS LWR SW-NW-N SHRA CB OHD-SW-NW-N MOV E P0000 T02220172=
201803011652 METAR KATL 011652Z 23016G26KT 10SM BKN025CB BKN040 OVC050 23/18 A2980 RMK AO2 PK WND 22031/1615 SLP084 CB VC SW-NW SHRA VC SW-NW T02280178=
201803011631 SPECI KATL 011631Z 23013G29KT 10SM BKN025 BKN030 BKN080 BKN250 22/18 A2980 RMK AO2 PK WND 22031/1615 CB DSNT SW-NW SHRA DSNT SW-NW T02220178=
201803011552 METAR KATL 011552Z 23010G22KT 10SM BKN025 BKN035 BKN080 22/17 A2981 RMK AO2 SLP089 T02170172=
201803011524 SPECI KATL 011524Z 22018G24KT 10SM FEW025 BKN030 BKN080 BKN250 21/17 A2982 RMK AO2 T02110172=
201803011452 METAR KATL 011452Z 22008KT 10SM BKN020 BKN030 BKN080 21/17 A2984 RMK AO2 SLP099 T02060172 58005=
201803011352 METAR KATL 011352Z 22013G23KT 10SM SCT018 BKN026 BKN080 BKN200 20/17 A2985 RMK AO2 SLP103 ACC N & NE T02000172=
201803011252 METAR KATL 011252Z 23011G17KT 10SM SCT014 BKN024 BKN085 BKN250 19/18 A2986 RMK AO2 SLP105 ACC DSNT NE-SE T01890178=
