##########################################################
# Query made at 04/19/2024 23:58:50 UTC
# Time interval: from 04/01/2018 12:00  to 04/30/2018 12:59  UTC
##########################################################

##########################################################
# KATL, Atlanta, Hartsfield - Jackson Atlanta International Airport (United States)
# WMO index: 72219. WIGOS ID: 0-20000-0-72219
# Latitude 33-38-59N. Longitude 084-25-00W. Altitude 312 m.
##########################################################

201804301252 METAR KATL 301252Z 13005KT 10SM CLR 13/05 A3030 RMK AO2 SLP259 T01330050=
201804301152 METAR KATL 301152Z 09004KT 10SM CLR 11/05 A3028 RMK AO2 SLP253 T01060050 10133 20094 53017=
201804301052 METAR KATL 301052Z 00000KT 10SM CLR 10/03 A3025 RMK AO2 SLP243 T01000033=
201804300952 METAR KATL 300952Z 09004KT 10SM CLR 10/03 A3024 RMK AO2 SLP237 T01000028=
201804300852 METAR KATL 300852Z 08004KT 10SM CLR 11/02 A3023 RMK AO2 SLP235 T01110017 53007=
201804300752 METAR KATL 300752Z 04004KT 10SM CLR 12/M01 A3022 RMK AO2 SLP231 T01221006=
201804300652 METAR KATL 300652Z 00000KT 10SM CLR 11/01 A3021 RMK AO2 SLP227 T01110011=
201804300552 METAR KATL 300552Z 01004KT 10SM CLR 13/M01 A3021 RMK AO2 SLP228 T01331006 10189 20117 51005=
201804300452 METAR KATL 300452Z 33004KT 10SM CLR 12/01 A3021 RMK AO2 SLP229 T01220006 402170106=
201804300352 METAR KATL 300352Z 32005KT 10SM CLR 13/01 A3021 RMK AO2 SLP227 T01280006=
201804300252 METAR KATL 300252Z 33009KT 10SM CLR 14/01 A3020 RMK AO2 SLP224 T01390006 51014=
201804300152 METAR KATL 300152Z 32009KT 10SM CLR 16/01 A3019 RMK AO2 SLP221 T01560011=
201804300052 METAR KATL 300052Z 32009KT 10SM FEW250 17/02 A3017 RMK AO2 SLP215 T01670017=
201804292352 METAR KATL 292352Z 31010KT 10SM FEW250 19/01 A3016 RMK AO2 SLP210 T01890006 10217 20189 53003=
201804292252 METAR KATL 292252Z 32007KT 10SM FEW250 21/02 A3015 RMK AO2 SLP206 T02060017=
201804292152 METAR KATL 292152Z 32006KT 10SM FEW250 21/02 A3015 RMK AO2 SLP206 T02110022=
201804292052 METAR KATL 292052Z 33009G17KT 10SM FEW250 22/03 A3015 RMK AO2 SLP205 T02170028 56013=
201804291952 METAR KATL 291952Z 28011G15KT 10SM FEW250 21/03 A3016 RMK AO2 SLP208 T02110033=
201804291852 METAR KATL 291852Z 03009KT 10SM FEW250 21/M01 A3017 RMK AO2 SLP214 T02061006=
201804291752 METAR KATL 291752Z 02007KT 10SM FEW250 19/01 A3019 RMK AO2 SLP218 T01940006 10194 20111 58004=
201804291652 METAR KATL 291652Z 02011KT 10SM FEW250 18/M01 A3020 RMK AO2 SLP223 T01831006=
201804291552 METAR KATL 291552Z 35007KT 10SM FEW250 17/01 A3021 RMK AO2 SLP225 T01720006=
201804291452 METAR KATL 291452Z 36009KT 10SM CLR 16/01 A3020 RMK AO2 SLP223 T01610011 52020=
201804291352 METAR KATL 291352Z 35010KT 10SM CLR 14/03 A3018 RMK AO2 SLP217 T01440028=
201804291252 METAR KATL 291252Z 34010KT 10SM CLR 13/03 A3016 RMK AO2 SLP210 T01280033=
201804291152 METAR KATL 291152Z 33007KT 10SM CLR 11/03 A3014 RMK AO2 SLP203 T01110033 10161 20106 53031=
201804291052 METAR KATL 291052Z 33004KT 10SM CLR 11/03 A3011 RMK AO2 SLP190 T01060028=
201804290952 METAR KATL 290952Z 32005KT 10SM CLR 12/03 A3007 RMK AO2 SLP178 T01170028=
201804290852 METAR KATL 290852Z 33010KT 10SM CLR 13/03 A3005 RMK AO2 SLP170 T01280028 53006=
201804290752 METAR KATL 290752Z 33009KT 10SM CLR 13/03 A3003 RMK AO2 SLP164 T01330033=
201804290652 METAR KATL 290652Z 33010KT 10SM CLR 15/03 A3003 RMK AO2 SLP163 T01500033=
201804290552 METAR KATL 290552Z 33010KT 10SM CLR 16/04 A3003 RMK AO2 SLP163 T01610039 10228 20161 52013=
201804290452 METAR KATL 290452Z 32009KT 10SM CLR 17/07 A3003 RMK AO2 SLP161 T01670067 402560111=
201804290352 METAR KATL 290352Z 27006KT 10SM CLR 17/06 A2999 RMK AO2 SLP150 T01720061=
201804290252 METAR KATL 290252Z 29007KT 10SM FEW090 18/06 A2999 RMK AO2 SLP149 T01830061 51015=
201804290152 METAR KATL 290152Z 28007KT 10SM CLR 19/06 A2998 RMK AO2 SLP147 T01890056=
201804290052 METAR KATL 290052Z 29009G17KT 10SM FEW085 21/05 A2996 RMK AO2 SLP141 T02110050=
201804282352 METAR KATL 282352Z 31012G18KT 10SM CLR 23/04 A2994 RMK AO2 SLP135 T02280044 10256 20228 53005=
201804282252 METAR KATL 282252Z 33015G21KT 10SM FEW085 24/04 A2993 RMK AO2 SLP131 T02440044=
201804282152 METAR KATL 282152Z 29009KT 10SM FEW080 25/07 A2993 RMK AO2 SLP129 T02500072=
201804282052 METAR KATL 282052Z 26012G19KT 10SM FEW075 25/06 A2993 RMK AO2 SLP129 T02500056 58017=
201804281952 METAR KATL 281952Z 27012G19KT 10SM FEW075 25/06 A2994 RMK AO2 SLP134 T02500061=
201804281852 METAR KATL 281852Z 34009KT 10SM FEW080 24/06 A2996 RMK AO2 SLP141 T02390056=
201804281752 METAR KATL 281752Z 28012G21KT 10SM FEW070 23/06 A2998 RMK AO2 SLP146 T02330061 10233 20122 58005=
201804281652 METAR KATL 281652Z 30011G19KT 10SM FEW060 22/07 A2999 RMK AO2 SLP149 T02220072=
201804281552 METAR KATL 281552Z 28009KT 10SM FEW048 21/09 A3000 RMK AO2 SLP154 T02110094=
201804281452 METAR KATL 281452Z 30010KT 10SM FEW032 20/12 A2999 RMK AO2 SLP153 T02000117 53009=
201804281352 METAR KATL 281352Z 31007KT 10SM CLR 18/11 A2998 RMK AO2 SLP148 T01780111=
201804281252 METAR KATL 281252Z 31009KT 10SM CLR 15/09 A2998 RMK AO2 SLP147 T01500094=
201804281152 METAR KATL 281152Z 31009KT 10SM CLR 12/09 A2997 RMK AO2 SLP144 T01220089 10133 20111 53013=
201804281052 METAR KATL 281052Z 30007KT 10SM FEW065 11/08 A2995 RMK AO2 SLP138 T01110083=
201804280952 METAR KATL 280952Z 30007KT 10SM FEW065 12/09 A2993 RMK AO2 SLP133 T01170089=
201804280852 METAR KATL 280852Z 29006KT 10SM FEW065 12/09 A2993 RMK AO2 SLP129 T01220089 53001=
201804280752 METAR KATL 280752Z 30006KT 10SM FEW065 12/09 A2992 RMK AO2 SLP128 T01220089=
201804280652 METAR KATL 280652Z 30007KT 10SM FEW065 13/09 A2991 RMK AO2 SLP125 T01330089=
201804280552 METAR KATL 280552Z 30007KT 10SM CLR 13/09 A2992 RMK AO2 SLP128 T01330089 10194 20133 51002=
201804280452 METAR KATL 280452Z 29008KT 10SM CLR 14/09 A2992 RMK AO2 SLP129 T01440089 402220111=
201804280352 METAR KATL 280352Z 29008KT 10SM CLR 16/09 A2992 RMK AO2 SLP127 T01560089=
201804280252 METAR KATL 280252Z 28006KT 10SM CLR 16/08 A2992 RMK AO2 SLP127 T01560083 52016=
201804280152 METAR KATL 280152Z 27006KT 10SM CLR 16/08 A2990 RMK AO2 SLP122 T01610083=
201804280052 METAR KATL 280052Z 28007KT 10SM CLR 18/08 A2988 RMK AO2 SLP117 T01780083=
201804272352 METAR KATL 272352Z 29011KT 10SM FEW055 19/08 A2987 RMK AO2 SLP111 T01940078 10222 20194 53006=
201804272252 METAR KATL 272252Z 32011KT 10SM FEW055 21/07 A2986 RMK AO2 SLP106 T02110067=
201804272152 METAR KATL 272152Z 31010KT 10SM FEW055 FEW250 22/07 A2985 RMK AO2 SLP103 T02170072=
201804272052 METAR KATL 272052Z 30010KT 10SM FEW055 FEW250 22/08 A2985 RMK AO2 SLP104 T02170083 58009=
201804271952 METAR KATL 271952Z 28013G17KT 10SM FEW045 FEW250 21/09 A2986 RMK AO2 SLP108 T02110094=
201804271852 METAR KATL 271852Z 31013G19KT 10SM FEW045 FEW250 21/09 A2987 RMK AO2 SLP111 T02110089=
201804271752 METAR KATL 271752Z 31014G23KT 10SM FEW045 SCT250 21/09 A2988 RMK AO2 SLP113 T02060089 10206 20117 58006=
201804271652 METAR KATL 271652Z 34010KT 10SM FEW040 FEW250 19/08 A2989 RMK AO2 SLP119 T01890083=
201804271552 METAR KATL 271552Z 31012G20KT 10SM FEW030 FEW250 18/09 A2990 RMK AO2 SLP123 T01830089=
201804271452 METAR KATL 271452Z 34011KT 10SM FEW025 FEW250 16/10 A2989 RMK AO2 SLP121 T01610100 51006=
201804271352 METAR KATL 271352Z 33009G17KT 10SM FEW015 FEW250 14/11 A2989 RMK AO2 SLP119 T01440106=
201804271252 METAR KATL 271252Z 32008KT 10SM SCT012 SCT018 SCT200 13/11 A2989 RMK AO2 SLP120 T01280106=
201804271243 SPECI KATL 271243Z 32009KT 10SM SCT012 SCT018 SCT200 12/10 A2989 RMK AO2 T01220100=
201804271226 SPECI KATL 271226Z 33008KT 10SM BKN012 BKN018 BKN200 12/10 A2988 RMK AO2 T01220100=
201804271152 METAR KATL 271152Z 31007KT 10SM SCT010 SCT015 SCT200 12/11 A2988 RMK AO2 SLP115 70029 T01170106 10128 20111 53014=
201804271052 METAR KATL 271052Z 31007KT 10SM OVC010 12/11 A2985 RMK AO2 SLP107 CIG 008V012 BINOVC T01170106=
201804271018 SPECI KATL 271018Z 31011KT 10SM OVC010 12/11 A2984 RMK AO2 CIG 008V012 T01170106=
201804270952 METAR KATL 270952Z 31009KT 9SM OVC008 12/11 A2984 RMK AO2 SLP103 CIG 006V010 T01170111=
201804270852 METAR KATL 270852Z 31009KT 8SM OVC006 12/12 A2983 RMK AO2 SLP101 CIG 004V008 T01170117 53003=
201804270802 SPECI KATL 270802Z 31013KT 2SM BR OVC003 12/12 A2982 RMK AO2 SFC VIS 3 VIS 2V4 CIG 002V004 T01170117=
201804270757 SPECI KATL 270757Z 32012KT 3SM BR OVC003 12/12 A2982 RMK AO2 VIS 2V4 CIG 002V004 T01170117=
201804270752 METAR KATL 270752Z 31011KT 2SM BR OVC003 12/12 A2981 RMK AO2 SLP094 VIS 1V3 CIG 002V004 T01220122=
201804270739 SPECI KATL 270739Z 31010KT 1SM R09R/P6000FT BR OVC002 12/12 A2981 RMK AO2 T01220122=
201804270738 SPECI KATL 270738Z 30010KT 3SM BR OVC002 12/12 A2981 RMK AO2 T01220122=
201804270652 METAR KATL 270652Z 28005KT 1SM R09R/3500VP6000FT BR OVC002 12/12 A2981 RMK AO2 SLP094 VIS W-N-NE 1/2 BINOVC T01220122=
201804270642 SPECI KATL 270642Z 30005KT 1 1/2SM R09R/4500VP6000FT BR OVC002 12/12 A2981 RMK AO2 T01220122=
201804270552 METAR KATL 270552Z 31004KT 5SM BR BKN004 BKN012 13/13 A2982 RMK AO2 SLP098 CIG 003V005 T01280128 10150 20128 56007=
201804270540 SPECI KATL 270540Z 31005KT 6SM BR SCT004 BKN012 13/13 A2983 RMK AO2 T01280128=
201804270503 SPECI KATL 270503Z 31009KT 1/2SM R09R/4500VP6000FT BR BKN002 BKN010 13/13 A2983 RMK AO2 SFC VIS 4 T01280128=
201804270459 SPECI KATL 270459Z 31008KT 1/4SM R09R/4500VP6000FT BR BKN002 BKN010 13/13 A2983 RMK AO2 SFC VIS 3 VIS E-S-SW 3/4 T01280128=
201804270452 METAR KATL 270452Z 29006KT 1/4SM R09R/2800VP6000FT BR BKN002 OVC010 13/13 A2983 RMK AO2 SFC VIS 3/4 SLP098 T01280128 401560106=
201804270443 SPECI KATL 270443Z 27006KT 1/4SM R09R/4500VP6000FT FG VV002 13/13 A2983 RMK AO2 SFC VIS 1/2 T01280128=
201804270436 SPECI KATL 270436Z 29006KT 1/4SM R09R/P6000FT BR SCT002 BKN008 13/13 A2983 RMK AO2 SFC VIS 3 VIS LWR W-N-NE T01280128=
201804270352 METAR KATL 270352Z 24004KT 8SM FEW009 13/13 A2984 RMK AO2 SLP101 T01280128=
201804270325 SPECI KATL 270325Z 24004KT 9SM SCT009 13/13 A2984 RMK AO2 T01280128=
201804270313 SPECI KATL 270313Z 24003KT 9SM BKN009 13/13 A2984 RMK AO2 T01280128=
201804270252 METAR KATL 270252Z 00000KT 10SM SCT009 13/13 A2985 RMK AO2 SLP105 T01330128 51010=
201804270152 METAR KATL 270152Z 00000KT 10SM FEW008 FEW020 14/13 A2984 RMK AO2 SLP102 T01390133=
201804270052 METAR KATL 270052Z 19006KT 10SM FEW009 SCT020 SCT080 14/14 A2983 RMK AO2 SLP098 TCU DSNT E-SE T01440139=
201804270027 SPECI KATL 270027Z 19005KT 10SM FEW012TCU SCT020 BKN080 BKN200 15/14 A2982 RMK AO2 TCU VC E-SE T01500139=
201804270006 SPECI KATL 270006Z 00000KT 10SM SCT012 BKN025 BKN080 BKN200 15/14 A2982 RMK AO2 CB DSNT SE-S T01500139=
201804262352 METAR KATL 262352Z 16003KT 10SM FEW010 SCT028 BKN080 BKN200 15/14 A2982 RMK AO2 SLP094 CB DSNT S 60020 T01500139 10156 20139 53002=
201804262252 METAR KATL 262252Z 16006KT 10SM FEW012 SCT040 BKN080 BKN200 16/14 A2981 RMK AO2 RAB2156E11 SLP092 CB DSNT SW TCU DSNT NE-E & S P0000 T01560139=
201804262152 METAR KATL 262152Z 13004KT 10SM FEW015TCU SCT040 BKN060 BKN200 15/13 A2981 RMK AO2 RAB30E40 SLP092 SHRA SW TCU OHD-SW P0000 T01500128=
201804262052 METAR KATL 262052Z 13006KT 10SM FEW010 BKN050 BKN080 15/13 A2981 RMK AO2 RAE12 SLP093 TCU DSNT SW-NW-N P0000 60020 T01500128 58015=
201804261952 METAR KATL 261952Z 10011G18KT 10SM -RA SCT010 BKN050 BKN080 14/13 A2982 RMK AO2 SLP097 P0003 T01440133=
201804261852 METAR KATL 261852Z 10008KT 4SM -RA BR FEW005 SCT050 OVC080 14/13 A2985 RMK AO2 SLP108 P0017 T01390133=
201804261752 METAR KATL 261752Z VRB04KT 4SM -RA BR FEW030 BKN060 OVC080 14/13 A2990 RMK AO2 SLP124 P0009 60009 T01390128 10156 20117 55004=
201804261733 SPECI KATL 261733Z 30005KT 4SM RA BR FEW040 BKN060 OVC080 14/12 A2991 RMK AO2 P0004 T01440122=
201804261652 METAR KATL 261652Z 33005KT 10SM -RA FEW015 SCT060 OVC090 16/12 A2988 RMK AO2 RAE1556B26 SLP117 VIS LWR SW-NW SHRA P0000 T01560117=
201804261552 METAR KATL 261552Z 32003KT 10SM -RA FEW015 SCT060 BKN090 OVC250 16/12 A2990 RMK AO2 RAB49 SLP123 P0000 T01560117=
201804261452 METAR KATL 261452Z 32009KT 10SM FEW005 SCT065 BKN095 BKN250 14/12 A2991 RMK AO2 RAE23 SLP127 FU FEW005 ACC SE-SW P0000 60000 T01440117 50016=
201804261352 METAR KATL 261352Z 29008KT 10SM -RA FEW060 BKN090 BKN110 BKN250 13/11 A2993 RMK AO2 RAB50 SLP131 VIRGA SW-NW P0000 T01280111=
201804261252 METAR KATL 261252Z 29005KT 10SM FEW075 SCT110 BKN200 BKN250 14/11 A2989 RMK AO2 SLP120 ACC SW-NW T01390111=
201804261152 METAR KATL 261152Z 00000KT 10SM FEW080 SCT150 BKN200 BKN250 12/10 A2987 RMK AO2 SLP110 ACC NW-N T01170100 10122 20106 53003=
201804261052 METAR KATL 261052Z 29004KT 10SM FEW075 SCT150 BKN200 BKN250 11/10 A2985 RMK AO2 SLP107 T01110100=
201804260952 METAR KATL 260952Z 00000KT 10SM FEW075 SCT140 BKN200 BKN250 11/09 A2985 RMK AO2 SLP104 T01060094=
201804260852 METAR KATL 260852Z 29005KT 10SM FEW100 BKN200 BKN250 11/10 A2986 RMK AO2 SLP108 T01110100 56013=
201804260752 METAR KATL 260752Z 29006KT 10SM FEW100 SCT200 BKN250 11/10 A2986 RMK AO2 SLP108 T01110100=
201804260652 METAR KATL 260652Z 29004KT 10SM FEW100 SCT250 11/10 A2987 RMK AO2 SLP110 T01110100=
201804260552 METAR KATL 260552Z 30004KT 10SM FEW100 12/10 A2990 RMK AO2 SLP121 T01220100 10183 20117 58006=
201804260452 METAR KATL 260452Z 30005KT 10SM CLR 13/11 A2992 RMK AO2 SLP130 T01280106 402000122=
201804260352 METAR KATL 260352Z 32006KT 10SM CLR 14/10 A2992 RMK AO2 SLP131 T01390100=
201804260252 METAR KATL 260252Z 33007KT 10SM FEW200 15/10 A2992 RMK AO2 SLP128 T01500100 58001=
201804260152 METAR KATL 260152Z 35008KT 10SM FEW045 FEW200 16/09 A2992 RMK AO2 SLP129 T01610094=
201804260052 METAR KATL 260052Z 34011KT 10SM FEW045 FEW200 17/10 A2992 RMK AO2 SLP127 T01720100=
201804252352 METAR KATL 252352Z 34010KT 10SM FEW032 BKN045 BKN250 18/11 A2992 RMK AO2 SLP127 T01830111 10200 20178 51005=
201804252252 METAR KATL 252252Z 32008KT 10SM FEW030 OVC045 19/12 A2992 RMK AO2 SLP128 BINOVC T01890117=
201804252152 METAR KATL 252152Z 31012KT 10SM FEW030 BKN040 OVC050 19/12 A2991 RMK AO2 SLP125 BINOVC T01890117=
201804252052 METAR KATL 252052Z 30013KT 10SM FEW030 BKN040 OVC050 19/12 A2990 RMK AO2 SLP122 T01890117 55007=
201804251952 METAR KATL 251952Z 33015G20KT 10SM BKN035 BKN045 19/12 A2990 RMK AO2 SLP121 T01940122=
201804251852 METAR KATL 251852Z 31008KT 10SM FEW025 BKN035 OVC045 18/12 A2991 RMK AO2 SLP124 BINOVC N T01830122=
201804251752 METAR KATL 251752Z 31011G21KT 10SM FEW025 SCT030 BKN040 18/12 A2992 RMK AO2 SLP130 T01780122 10183 20133 58008=
201804251713 SPECI KATL 251713Z 31014G18KT 10SM FEW025 BKN030 BKN040 18/12 A2994 RMK AO2 T01780122=
201804251652 METAR KATL 251652Z 31009KT 10SM BKN025 BKN035 17/12 A2994 RMK AO2 SLP136 T01670117=
201804251633 SPECI KATL 251633Z 32012KT 10SM BKN028 BKN035 17/12 A2994 RMK AO2 T01720117=
201804251552 METAR KATL 251552Z 33009G17KT 10SM BKN030 17/11 A2995 RMK AO2 SLP138 T01720111=
201804251547 SPECI KATL 251547Z 32013KT 10SM BKN030 17/11 A2995 RMK AO2=
201804251452 METAR KATL 251452Z 32008KT 10SM BKN023 OVC030 16/11 A2995 RMK AO2 SLP140 T01560111 53013=
201804251352 METAR KATL 251352Z 33013G18KT 10SM FEW010 SCT018 OVC024 15/12 A2994 RMK AO2 SLP134 T01500122=
201804251252 METAR KATL 251252Z 31011KT 10SM FEW009 SCT016 OVC029 14/12 A2992 RMK AO2 SLP129 T01440122=
201804251218 SPECI KATL 251218Z 29008KT 10SM FEW007 FEW013 OVC029 14/13 A2991 RMK AO2 T01390128=
201804251152 METAR KATL 251152Z 29008KT 9SM FEW007 SCT022 BKN030 13/13 A2991 RMK AO2 SLP126 70001 T01330128 10139 20122 53011=
201804251052 METAR KATL 251052Z 29006KT 8SM FEW005 SCT027 SCT050 12/12 A2990 RMK AO2 SLP122 T01220122=
201804250952 METAR KATL 250952Z 29007KT 10SM FEW050 13/12 A2988 RMK AO2 SLP115 T01280122=
201804250852 METAR KATL 250852Z 28007KT 10SM FEW055 13/13 A2988 RMK AO2 SLP114 T01330128 56007=
201804250752 METAR KATL 250752Z 29007KT 10SM FEW055 13/13 A2988 RMK AO2 SLP115 T01330128=
201804250652 METAR KATL 250652Z 28007KT 10SM FEW090 13/13 A2989 RMK AO2 SLP117 T01330128=
201804250552 METAR KATL 250552Z 28009KT 10SM FEW090 14/13 A2990 RMK AO2 SLP122 60000 T01390128 10183 20139 58003=
201804250452 METAR KATL 250452Z 28008KT 10SM FEW090 14/13 A2991 RMK AO2 SLP126 T01440128 402110144=
201804250352 METAR KATL 250352Z 29009KT 10SM FEW090 16/13 A2991 RMK AO2 SLP125 T01560128=
201804250252 METAR KATL 250252Z 28007KT 10SM FEW100 16/13 A2991 RMK AO2 SLP125 60000 T01560128 53014=
201804250152 METAR KATL 250152Z 29010KT 10SM FEW060 BKN095 17/13 A2990 RMK AO2 SLP121 T01670128=
201804250052 METAR KATL 250052Z 30009KT 10SM FEW040 SCT060 BKN095 17/14 A2988 RMK AO2 RAE2358 SLP114 P0000 T01720139=
201804242352 METAR KATL 242352Z 31011KT 10SM -RA SCT035 BKN050 BKN090 18/13 A2987 RMK AO2 RAB49 SLP110 P0000 60001 T01830133 10211 20167 53007=
201804242252 METAR KATL 242252Z 30007KT 10SM FEW035 SCT060 BKN085 19/14 A2985 RMK AO2 RAB2158E09 SLP104 P0001 T01890139=
201804242152 METAR KATL 242152Z 28010KT 10SM FEW030TCU SCT050 BKN085 19/13 A2985 RMK AO2 RAB06E22 SLP104 TCU W-NW SHRA W-NW P0000 T01890128=
201804242052 METAR KATL 242052Z 27012G18KT 10SM FEW030 SCT050 BKN080 20/13 A2985 RMK AO2 SLP102 TCU DSNT N-NE SHRA DSNT N-NE 60000 T02000133 58012=
201804241952 METAR KATL 241952Z 26012G18KT 10SM FEW025 SCT040 SCT080 20/14 A2986 RMK AO2 SLP106 MDT CU N-NE T02000139=
201804241852 METAR KATL 241852Z 29013G19KT 10SM FEW020 BKN050 BKN080 19/15 A2988 RMK AO2 RAE06 SLP113 TCU DSNT NE-SE MDT CU SW-NW SHRA DSNT NE-SE P0000 T01940150=
201804241752 METAR KATL 241752Z 29013KT 9SM -RA SCT017TCU BKN030 OVC050 17/15 A2988 RMK AO2 RAB50 SLP115 TCU N-NE-E-SE P0000 60000 T01670150 10189 20150 58003=
201804241721 SPECI KATL 241721Z 25009G14KT 10SM BKN014 BKN024 BKN033 18/16 A2988 RMK AO2 T01830156=
201804241652 METAR KATL 241652Z 27008KT 10SM SCT015TCU BKN030 BKN060 17/16 A2988 RMK AO2 RAB00E33 SLP116 TCU N-NE-E-SE SHRA VC SE P0000 T01720161=
201804241552 METAR KATL 241552Z 31009KT 10SM BKN015TCU BKN030 BKN050 18/15 A2989 RMK AO2 SLP117 TCU SE-SW-W SHRA SE-SW-W T01780150=
201804241452 METAR KATL 241452Z 32010KT 10SM BKN010TCU BKN020 BKN030 18/16 A2989 RMK AO2 SLP117 TCU OHD & ALQDS 60000 T01780156 53008=
201804241352 METAR KATL 241352Z 30009KT 9SM BKN007 BKN020 BKN030 17/16 A2988 RMK AO2 RAB04E17 SLP116 P0000 T01670156=
201804241317 SPECI KATL 241317Z 30009KT 6SM R09R/4500VP6000FT BR BKN007 BKN010 OVC020 16/16 A2988 RMK AO2 RAB04E17 P0000 T01610156=
201804241304 SPECI KATL 241304Z 29007KT 3SM -RA BR BKN007 BKN010 OVC030 16/16 A2987 RMK AO2 RAB04 P0000 T01610156=
201804241252 METAR KATL 241252Z 29007KT 6SM BR BKN007 BKN013 OVC032 16/16 A2987 RMK AO2 SLP112 CIG 005V009 T01560156=
201804241208 SPECI KATL 241208Z 27006KT 6SM BR BKN005 BKN018 BKN055 16/16 A2987 RMK AO2 CIG 004V006 BKN005 V SCT T01560156=
201804241152 METAR KATL 241152Z 28006KT 2 1/2SM BR BKN005 BKN016 OVC050 15/15 A2987 RMK AO2 SFC VIS 4 DZE52 SLP110 CIG 004V006 BKN005 V SCT BINOVC P0001 60001 70302 T01500150 10161 20150 53008=
201804241135 SPECI KATL 241135Z 29007KT 2 1/2SM -DZ BR BKN005 OVC016 15/15 A2986 RMK AO2 P0001 T01500150=
201804241052 METAR KATL 241052Z 29006KT 1SM R09R/P6000FT -DZ BR BKN005 OVC011 15/15 A2986 RMK AO2 SFC VIS 3 DZB19 SLP107 CIG 004V007 P0000 T01500150=
201804241022 SPECI KATL 241022Z 28006KT 1SM R09R/P6000FT -DZ BR FEW004 BKN008 OVC015 15/15 A2985 RMK AO2 SFC VIS 4 DZB19 CIG 007V009 P0000 T01500150=
201804240952 METAR KATL 240952Z 28005KT 1SM R09R/P6000FT BR OVC003 15/15 A2984 RMK AO2 SFC VIS 5 SLP099 TWRINC T01500150=
201804240852 METAR KATL 240852Z 28005KT 1SM R09R/P6000FT BR OVC003 15/15 A2984 RMK AO2 SFC VIS 2 1/2 SLP100 TWRINC T01500150 55004=
201804240758 SPECI KATL 240758Z 24004KT 1SM R09R/P6000FT BR OVC003 16/16 A2983 RMK AO2 SFC VIS 4 TWRINC T01560156 $=
201804240752 METAR KATL 240752Z 24005KT 2 1/2SM BR OVC004 16/16 A2983 RMK AO2 SFC VIS 4 SLP097 CIG 003V005 T01560156 $=
201804240746 SPECI KATL 240746Z 28004KT 2 1/2SM BR OVC004 16/16 A2983 RMK AO2 SFC VIS 4 CIG 003V005 $=
201804240729 SPECI KATL 240729Z 29005KT 6SM BR OVC004 16/16 A2983 RMK AO2 T01560156 $=
201804240652 METAR KATL 240652Z 28005KT 7SM OVC007 16/16 A2983 RMK AO2 SLP097 T01610161 $=
201804240552 METAR KATL 240552Z 34006KT 7SM OVC007 16/16 A2985 RMK AO2 RAE11 SLP106 P0000 60232 T01610161 10183 20161 56007 $=
201804240513 SPECI KATL 240513Z 32006KT 10SM BKN005 OVC015 16/16 A2986 RMK AO2 LTG DSNT NE RAE11 OCNL LTGICCA DSNT NE CB DSNT NE P0000 T01610161 $=
201804240452 METAR KATL 240452Z 30005KT 9SM -RA SCT005CB BKN015 OVC050 16/16 A2986 RMK AO2 TSE51 SLP108 OCNL LTG DSNT NE TS MOV NE SCT005 V BKN P0034 T01610161 402060144 $=
201804240408 SPECI KATL 240408Z 04009KT 4SM TSRA BR FEW008CB SCT025 BKN040 OVC150 16/16 A2986 RMK AO2 OCNL LTGICCA NE-SE TS VC NE-SE MOV NE P0020 T01610161 $=
201804240356 SPECI KATL 240356Z 05008KT 2 1/2SM +TSRA BR FEW008CB SCT025 BKN040 OVC150 16/16 A2986 RMK AO2 OCNL LTGICCA NE-SE TS NE-SE MOV NE P0007 T01610161 $=
201804240352 METAR KATL 240352Z 06007KT 4SM TSRA BR FEW008CB SCT025 BKN040 OVC150 17/16 A2987 RMK AO2 SLP110 OCNL LTGICCA NE-SE-S TS NE-SE-S MOV NE P0066 T01670161 $=
201804240325 SPECI KATL 240325Z 04014KT 7SM -TSRA FEW008CB SCT025 BKN050 BKN200 17/16 A2986 RMK AO2 OCNL LTGICCGCA N-E-S TS N-E-S MOV NE P0064 T01670161 $=
201804240310 SPECI KATL 240310Z 05019KT 4SM R09R/5500VP6000FT TSRA BR FEW008CB BKN020 OVC050 17/17 A2987 RMK AO2 OCNL LTGICCGCA N-E-S TS N-E-S MOV NE P0063 T01670167 $=
201804240252 METAR KATL 240252Z 07016KT 1 1/4SM R09R/4000V5500FT +TSRA BR SCT008CB BKN020 OVC050 17/17 A2988 RMK AO2 SLP113 FRQ LTGICCGCA OHD-ALQDS TS OHD-ALQDS MOV NE P0125 60132 T01670167 52004 $=
201804240224 SPECI KATL 240224Z 05013KT 2SM +TSRA BR BKN008CB BKN030 OVC060 17/17 A2988 RMK AO2 OCNL LTGIC OHD-ALQDS TS OHD-ALQDS MOV NE P0018 T01670167 $=
201804240152 METAR KATL 240152Z 07012KT 6SM TSRA BR BKN008CB OVC030 17/17 A2987 RMK AO2 RAB06 TSB16 SLP113 OCNL LTGIC S-SW TS S-SW MOV NE P0007 T01670167=
201804240116 SPECI KATL 240116Z 07014KT 10SM -TSRA BKN008CB OVC030 17/17 A2987 RMK AO2 RAB06 TSB16 OCNL LTGICCG SW TS VC SW MOV NE P0000 T01720167=
201804240052 METAR KATL 240052Z 07016G21KT 10SM BKN008CB OVC030 18/17 A2986 RMK AO2 LTG DSNT N AND E SLP108 CB VC SW & DSNT NE-SE MOV SE SHRA SW T01780167=
201804240013 SPECI KATL 240013Z 07014KT 10SM BKN009 OVC060 18/17 A2987 RMK AO2 LTG DSNT SE CB DSNT NE-SE & SW-NW T01780167=
201804232352 METAR KATL 232352Z 07013KT 10SM FEW008 BKN012 OVC060 18/17 A2986 RMK AO2 SLP108 CB DSNT E-SE & SW-NW 60045 T01830167 10206 20172 56003=
201804232342 SPECI KATL 232342Z 07012KT 10SM FEW008 BKN013 OVC060 18/17 A2986 RMK AO2 CB DSNT E-SE & SW-W T01830172=
201804232252 METAR KATL 232252Z 06010KT 10SM FEW008 SCT025 BKN060 18/17 A2986 RMK AO2 SLP109 CB DSNT NE & SE T01830167=
201804232152 METAR KATL 232152Z 05014G18KT 10SM FEW008 SCT035 BKN060 BKN150 20/18 A2987 RMK AO2 PK WND 05028/2107 RAE34 TSB04E52 SLP109 OCNL LTG DSNT NE TS MOV NE P0029 T02000183=
201804232121 SPECI KATL 232121Z 05011KT 5SM -TSRA BR FEW010CB BKN040 BKN070 OVC150 19/18 A2986 RMK AO2 PK WND 05028/2107 TSB04 OCNL LTGIC NE-SE TS NE-SE MOV NE P0029 T01890183=
201804232110 SPECI KATL 232110Z 05015G28KT 1 1/2SM R09R/2200VP6000FT +TSRA BR SCT010CB BKN040 OVC070 18/18 A2987 RMK AO2 PK WND 05028/2107 TSB04 OCNL LTGIC OHD-ALQDS TS OHD-ALQDS MOV NE P0023 T01830183=
201804232104 SPECI KATL 232104Z 07010G19KT 2SM R09R/6000VP6000FT +TSRA BR SCT010CB BKN040 BKN070 19/18 A2987 RMK AO2 TSB04 OCNL LTGICCG NE-OHD-SW TS NE-OHD-SW MOV NE P0008 T01890183=
201804232057 SPECI KATL 232057Z 07014KT 6SM R09R/5000VP6000FT VCTS -RA BR FEW010CB BKN050 BKN070 19/18 A2988 RMK AO2 LTG DSNT SW OCNL LTGICCG VC SE-SW TS VC SE-SW MOV NE P0004 T01940183=
201804232052 METAR KATL 232052Z 06014KT 6SM R09R/5000VP6000FT -RA BR FEW012 BKN050 BKN070 19/18 A2987 RMK AO2 LTG DSNT SW RAB1955 SLP110 CB DSNT E & DSNT S-SW P0016 60016 T01940183 58026=
201804231952 METAR KATL 231952Z 06010KT 9SM FEW005 SCT010TCU BKN030 20/18 A2990 RMK AO2 LTG DSNT E AND SE SLP121 CB DSNT E-SE & DSNT S SHRA DSNT E-SE & DSNT S TCU W-NW T02000178=
201804231925 SPECI KATL 231925Z 06015KT 9SM BKN006 BKN040 OVC060 19/18 A2991 RMK AO2 LTG DSNT SE CB DSNT SE T01940178=
201804231852 METAR KATL 231852Z 04010KT 8SM BKN005 BKN009 OVC020 18/17 A2993 RMK AO2 SLP131 CB DSNT SE SHRA VC SE T01830172=
201804231752 METAR KATL 231752Z 06008KT 10SM SCT005 BKN007 OVC010 17/17 A2995 RMK AO2 LTG DSNT SE DZE1654 SLP139 CB DSNT NE-SE & DSNT SW P0000 60024 T01720167 10178 20150 58016=
201804231652 METAR KATL 231652Z 07012KT 6SM -DZ BR BKN006 BKN010 OVC015 17/16 A2998 RMK AO2 DZB48 SLP147 P0000 T01670161=
201804231555 SPECI KATL 231555Z 08009KT 9SM BKN006CB BKN015 OVC020 17/16 A3000 RMK AO2 CB NE-SE MOV NE T01670161=
201804231552 METAR KATL 231552Z 08010KT 4SM BR BKN006CB BKN015 OVC030 17/16 A2999 RMK AO2 RAE52 SLP153 CB NE-SE MOV NE BINOVC N P0024 T01670161=
201804231524 SPECI KATL 231524Z 09013KT 4SM -RA BR BKN006CB OVC010 16/16 A2999 RMK AO2 CB N-OHD-S MOV NE P0015 T01610161=
201804231505 SPECI KATL 231505Z 09011KT 3SM R09R/5500VP6000FT +RA BR BKN006CB OVC010 16/16 A2999 RMK AO2 TWR VIS 4 CB OHD-NE-SE-S MOV NE P0003 T01610161=
201804231458 SPECI KATL 231458Z 07012KT 4SM -RA BR BKN006CB OVC010 17/16 A2999 RMK AO2 CB OHD-NE-SE-S MOV NE P0000 T01670161=
201804231452 METAR KATL 231452Z 08012KT 8SM -RA BKN006CB OVC010 17/16 A3000 RMK AO2 DZB1353E07RAB45 SLP155 VIS LWR NE-SE SHRA CB NE-SE-S MOV NE P0000 60000 T01670161 51002=
201804231352 METAR KATL 231352Z 10008KT 6SM BR OVC006 17/16 A3000 RMK AO2 SLP155 T01670161=
201804231332 SPECI KATL 231332Z 12009KT 6SM BR OVC006 17/16 A3000 RMK AO2 T01670161=
201804231252 METAR KATL 231252Z 10008KT 2 1/2SM BR OVC004 17/16 A2999 RMK AO2 SFC VIS 6 SLP154 T01670161=
201804231217 SPECI KATL 231217Z 12008KT 2 1/2SM BR BKN004 OVC009 16/16 A3000 RMK AO2 SFC VIS 6 T01560156=
201804231152 METAR KATL 231152Z 10006KT 5SM BR FEW003 BKN008 OVC015 15/15 A2999 RMK AO2 RAE01 SLP154 CIG 006V010 P0001 60095 70172 T01500150 10150 20144 53017=
201804231136 SPECI KATL 231136Z 09007KT 1SM R09R/P6000FT BR BKN004 BKN015 OVC070 15/15 A2999 RMK AO2 SFC VIS 5 RAE01 CIG 003V005 TWRINC P0001 T01500150=
201804231107 SPECI KATL 231107Z 08006KT 6SM BR FEW005 BKN016 OVC055 15/15 A2997 RMK AO2 RAE01 P0001 T01500150=
201804231052 METAR KATL 231052Z 04006KT 4SM -RA BR BKN005 OVC014 15/15 A2997 RMK AO2 SLP147 CIG 004V008 BKN005 V SCT BINOVC P0006 T01500150=
201804231011 SPECI KATL 231011Z 34003KT 5SM -RA BR BKN006 BKN011 OVC016 15/15 A2996 RMK AO2 CIG 005V008 P0004 T01500150=
201804230952 METAR KATL 230952Z 01003KT 4SM -RA BR FEW005 BKN016 OVC029 14/14 A2995 RMK AO2 SLP140 P0035 T01440144=
201804230950 SPECI KATL 230950Z 01003KT 4SM RA BR FEW005 BKN016 OVC029 14/14 A2995 RMK AO2 P0035=
201804230929 SPECI KATL 230929Z 28004KT 2SM +RA BR SCT005 SCT009 OVC014 14/14 A2996 RMK AO2 P0018 T01440144=
201804230915 SPECI KATL 230915Z 15005KT 2 1/2SM +RA BR BKN005 OVC015 14/14 A2996 RMK AO2 CIG 004V007 P0006 T01440144=
201804230902 SPECI KATL 230902Z VRB05KT 6SM -RA BR OVC005 14/14 A2995 RMK AO2 CIG 004V007 P0001 T01440144=
201804230852 METAR KATL 230852Z 12004G16KT 3SM -RA BR OVC006 14/14 A2994 RMK AO2 SLP135 CIG 005V008 P0008 60053 T01440144 55008=
201804230752 METAR KATL 230752Z 11012G24KT 6SM -RA BR OVC007 15/14 A2994 RMK AO2 SLP135 CIG 006V010 P0012 T01500144=
201804230652 METAR KATL 230652Z 12015G20KT 4SM RA BR BKN008 OVC015 14/14 A2996 RMK AO2 SLP143 CIG 006V010 P0033 T01440144=
201804230647 SPECI KATL 230647Z 12012G20KT 2 1/2SM +RA BR BKN008 OVC015 14/14 A2996 RMK AO2 CIG 006V010 P0029=
201804230601 SPECI KATL 230601Z 11014G23KT 4SM RA BR BKN008 OVC022 14/14 A2999 RMK AO2 CIG 006V010 P0007 T01440144=
201804230552 METAR KATL 230552Z 12017G27KT 2 1/2SM +RA BR BKN008 BKN013 OVC030 15/14 A2999 RMK AO2 PK WND 11027/0542 SLP152 P0021 60051 T01500144 10156 20150 56014=
201804230545 SPECI KATL 230545Z 12016G27KT 2 1/2SM +RA BR BKN008 OVC013 15/14 A2999 RMK AO2 PK WND 11027/0542 P0014 T01500144=
201804230452 METAR KATL 230452Z 11015G26KT 4SM RA BR OVC010 15/14 A3000 RMK AO2 PK WND 11030/0417 SLP158 CIG 008V012 P0015 T01500144 401670144=
201804230352 METAR KATL 230352Z 11015G29KT 5SM RA BR OVC012 15/14 A3001 RMK AO2 PK WND 11033/0318 SLP160 CIG 010V014 P0011 T01500144=
201804230252 METAR KATL 230252Z 11019G32KT 6SM -RA BR BKN010 OVC014 15/14 A3003 RMK AO2 PK WND 11032/0248 SLP166 CIG 008V012 P0001 60004 T01500144 56009=
201804230152 METAR KATL 230152Z 11017G30KT 6SM -RA BR SCT007 BKN011 OVC017 15/14 A3004 RMK AO2 PK WND 11033/0110 SLP171 P0001 T01500144=
201804230052 METAR KATL 230052Z 11021G32KT 9SM -RA SCT008 BKN013 OVC022 16/14 A3003 RMK AO2 PK WND 09033/0004 SLP165 P0002 T01560144=
201804230025 SPECI KATL 230025Z 10016G26KT 8SM -RA SCT008 BKN014 OVC026 16/15 A3006 RMK AO2 PK WND 09033/0004 P0002 T01560150=
201804222352 METAR KATL 222352Z 11018G23KT 6SM -RA BR BKN008 BKN014 OVC028 16/15 A3006 RMK AO2 PK WND 09029/2340 SLP176 CIG 006V010 P0005 60016 T01560150 10161 20150 55014=
201804222252 METAR KATL 222252Z 10018G28KT 3SM RA BR SCT008 BKN014 OVC024 16/15 A3005 RMK AO2 PK WND 10028/2248 SLP175 P0008 T01560150=
201804222234 SPECI KATL 222234Z 11014G24KT 3SM RA BR SCT008 BKN014 OVC024 16/15 A3007 RMK AO2 P0001 T01560150=
201804222152 METAR KATL 222152Z 11014G23KT 9SM -RA BKN008 OVC015 16/15 A3007 RMK AO2 RAE07B36 SLP180 CIG 007V010 P0000 T01560150=
201804222052 METAR KATL 222052Z 10012G21KT 5SM -RA BR BKN013 OVC026 16/15 A3010 RMK AO2 SLP190 P0001 60003 T01560150 58021=
201804221952 METAR KATL 221952Z 12012G22KT 10SM -RA BKN011 OVC016 16/14 A3012 RMK AO2 PK WND 11026/1910 RAE09B35 SLP197 P0000 T01560144=
201804221936 SPECI KATL 221936Z 12015G24KT 10SM -RA OVC010 16/15 A3014 RMK AO2 PK WND 11026/1910 RAE09B35 P0000 T01560150=
201804221852 METAR KATL 221852Z 12014G24KT 10SM -RA OVC008 16/15 A3016 RMK AO2 RAB12 TSE29 SLP210 TS VC S DSPTD P0002 T01560150=
201804221850 SPECI KATL 221850Z 12012G24KT 10SM -RA OVC008 16/15 A3016 RMK AO2 LTG DSNT NE RAB12 TSE29 TS VC S DSPTD P0002=
201804221835 SPECI KATL 221835Z 11015G25KT 9SM VCTS -RA OVC008CB 16/15 A3016 RMK AO2 RAB12 TSE29 OCNL LTGIC VC S TS VC S MOV NE P0002 T01560150=
201804221752 METAR KATL 221752Z 12011G20KT 7SM OVC008 15/14 A3018 RMK AO2 RAE47 SLP217 P0002 60010 T01500144 10156 20144 58011=
201804221652 METAR KATL 221652Z 12009G16KT 2 1/2SM -RA BR BKN008 OVC013 15/14 A3019 RMK AO2 SFC VIS 4 RAE1553B10 SLP221 P0007 T01500144=
201804221636 SPECI KATL 221636Z 10013KT 2 1/2SM -RA BR FEW008 OVC012 15/14 A3020 RMK AO2 SFC VIS 3 RAE1553B10 P0006 T01500144=
201804221552 METAR KATL 221552Z 10009KT 10SM -RA BKN012 OVC016 15/14 A3021 RMK AO2 SLP228 P0001 T01500139=
201804221520 SPECI KATL 221520Z 13008KT 8SM -RA SCT010 BKN014 OVC025 15/14 A3022 RMK AO2 P0001 T01500139=
201804221500 SPECI KATL 221500Z 11009G21KT 9SM -RA SCT015 BKN027 OVC037 15/14 A3022 RMK AO2 P0000 T01500139=
201804221452 METAR KATL 221452Z 09013G20KT 10SM -RA SCT016 BKN036 OVC085 15/13 A3021 RMK AO2 RAB05 SLP228 P0000 60000 T01500133 58004=
201804221352 METAR KATL 221352Z 11011KT 10SM FEW014 OVC040 16/13 A3021 RMK AO2 SLP227 T01560128=
201804221339 SPECI KATL 221339Z 11012G17KT 10SM SCT014 OVC040 15/13 A3022 RMK AO2 T01500128=
201804221309 SPECI KATL 221309Z 11009KT 10SM BKN014 OVC040 15/13 A3023 RMK AO2 T01500128=
201804221252 METAR KATL 221252Z 13010KT 10SM BKN015 BKN041 OVC060 15/13 A3023 RMK AO2 SLP234 BKN015 V SCT T01500128=
201804221152 METAR KATL 221152Z 09012KT 10SM FEW027 BKN036 OVC060 16/12 A3023 RMK AO2 SLP231 T01560122 10167 20156 50005=
201804221052 METAR KATL 221052Z 11009KT 10SM FEW027 BKN040 OVC050 16/12 A3024 RMK AO2 SLP234 T01560122=
201804221029 SPECI KATL 221029Z 11008KT 10SM FEW027 OVC045 16/12 A3023 RMK AO2 T01560122=
201804220952 METAR KATL 220952Z 11009KT 10SM BKN027 BKN045 OVC100 16/12 A3022 RMK AO2 SLP228 BKN027 V SCT T01610122=
201804220949 SPECI KATL 220949Z 12007KT 10SM BKN027 BKN045 OVC100 16/12 A3022 RMK AO2 BKN027 V SCT=
201804220922 SPECI KATL 220922Z 12010KT 10SM SCT027 BKN049 OVC100 16/12 A3021 RMK AO2 T01610122=
201804220904 SPECI KATL 220904Z 12006KT 10SM BKN028 BKN036 OVC044 16/12 A3021 RMK AO2 BKN028 V SCT T01610122=
201804220852 METAR KATL 220852Z 12007G15KT 10SM FEW025 BKN037 BKN044 OVC250 16/12 A3021 RMK AO2 SLP225 T01610122 56010=
201804220756 SPECI KATL 220756Z 12009KT 10SM SCT025 OVC033 16/12 A3022 RMK AO2 T01610117=
201804220752 METAR KATL 220752Z 12007KT 10SM BKN025 OVC031 16/12 A3022 RMK AO2 SLP227 T01610117=
201804220736 SPECI KATL 220736Z 12006KT 10SM SCT023 BKN029 OVC090 16/12 A3022 RMK AO2 T01610117=
201804220652 METAR KATL 220652Z 11007KT 10SM BKN034 BKN080 BKN200 16/11 A3023 RMK AO2 SLP232 T01610106=
201804220552 METAR KATL 220552Z 11005KT 10SM FEW042 FEW055 BKN080 BKN200 17/09 A3024 RMK AO2 SLP236 T01670089 10200 20167 58002=
201804220452 METAR KATL 220452Z 13005KT 10SM BKN042 BKN070 OVC200 17/07 A3025 RMK AO2 SLP240 T01720072 402220078=
201804220352 METAR KATL 220352Z 12007KT 10SM BKN075 BKN200 OVC250 17/05 A3025 RMK AO2 SLP239 T01720050=
201804220252 METAR KATL 220252Z 10007KT 10SM FEW055 SCT075 BKN200 BKN250 17/04 A3025 RMK AO2 SLP239 T01720044 50004=
201804220152 METAR KATL 220152Z 12007KT 10SM SCT055 BKN075 BKN200 BKN250 19/05 A3026 RMK AO2 SLP244 T01890050=
201804220052 METAR KATL 220052Z 12007KT 10SM FEW060 SCT075 BKN200 BKN250 19/05 A3024 RMK AO2 SLP239 T01890050=
201804212352 METAR KATL 212352Z 12009KT 10SM FEW055 SCT075 SCT200 BKN250 20/06 A3024 RMK AO2 SLP237 ACC SE-S T02000056 10222 20200 56003=
201804212252 METAR KATL 212252Z 11009KT 10SM FEW055 BKN075 BKN250 21/06 A3024 RMK AO2 SLP239 ACC W-N-NE T02060061=
201804212152 METAR KATL 212152Z 12008KT 10SM SCT055 BKN070 BKN250 22/06 A3024 RMK AO2 SLP238 T02170061=
201804212052 METAR KATL 212052Z 11008KT 10SM SCT070 BKN250 22/07 A3024 RMK AO2 SLP239 T02220067 56018=
201804211952 METAR KATL 211952Z 11008KT 10SM BKN060 BKN250 22/06 A3026 RMK AO2 SLP245 T02170056=
201804211852 METAR KATL 211852Z 12009G15KT 10SM SCT060 BKN250 21/05 A3028 RMK AO2 SLP251 T02110050=
201804211752 METAR KATL 211752Z 11008G15KT 080V150 10SM BKN250 21/03 A3030 RMK AO2 SLP258 T02060028 10206 20083 58013=
201804211652 METAR KATL 211652Z 08014G19KT 10SM BKN250 19/02 A3032 RMK AO2 SLP263 T01940022=
201804211552 METAR KATL 211552Z 09014G20KT 10SM BKN250 18/03 A3034 RMK AO2 SLP270 T01830028=
201804211452 METAR KATL 211452Z 13014G20KT 10SM BKN250 17/02 A3034 RMK AO2 SLP272 T01670017 50002=
201804211352 METAR KATL 211352Z 12010KT 10SM BKN250 14/04 A3034 RMK AO2 SLP273 T01440039=
201804211252 METAR KATL 211252Z 08007KT 10SM SCT250 12/05 A3034 RMK AO2 SLP273 T01170050=
201804211152 METAR KATL 211152Z 08007KT 10SM FEW250 08/03 A3033 RMK AO2 SLP271 T00830028 10117 20078 53009=
201804211052 METAR KATL 211052Z 09006KT 10SM FEW250 08/02 A3031 RMK AO2 SLP264 T00830022=
201804210952 METAR KATL 210952Z 10005KT 10SM FEW250 09/02 A3030 RMK AO2 SLP259 T00940022=
201804210852 METAR KATL 210852Z 08006KT 10SM CLR 09/03 A3030 RMK AO2 SLP260 T00940028 53007=
201804210752 METAR KATL 210752Z 08005KT 10SM FEW250 10/02 A3029 RMK AO2 SLP254 T01000022=
201804210652 METAR KATL 210652Z 09003KT 10SM FEW250 12/02 A3028 RMK AO2 SLP252 T01170017=
201804210552 METAR KATL 210552Z 10004KT 10SM FEW250 11/02 A3028 RMK AO2 SLP252 T01110022 10183 20111 55002=
201804210452 METAR KATL 210452Z 08005KT 10SM FEW250 12/02 A3028 RMK AO2 SLP252 T01220017 402000067=
201804210352 METAR KATL 210352Z 12003KT 10SM FEW250 13/02 A3029 RMK AO2 SLP255 T01330017=
201804210252 METAR KATL 210252Z 13003KT 10SM CLR 14/02 A3029 RMK AO2 SLP255 T01390022 51007=
201804210152 METAR KATL 210152Z 15003KT 10SM CLR 16/02 A3029 RMK AO2 SLP255 T01560017=
201804210052 METAR KATL 210052Z 12005KT 10SM CLR 17/M02 A3027 RMK AO2 SLP252 T01721017=
201804202352 METAR KATL 202352Z 10005KT 10SM CLR 18/M02 A3026 RMK AO2 SLP248 T01781022 10200 20167 55000=
201804202252 METAR KATL 202252Z 07006KT 10SM FEW250 19/M03 A3026 RMK AO2 SLP247 T01941033=
201804202152 METAR KATL 202152Z 05007KT 10SM FEW250 20/M02 A3026 RMK AO2 SLP245 T02001022=
201804202052 METAR KATL 202052Z 05006KT 10SM FEW250 19/M02 A3026 RMK AO2 SLP248 T01941022 58023=
201804201952 METAR KATL 201952Z 11009G16KT 10SM FEW250 19/M02 A3029 RMK AO2 SLP257 T01891022=
201804201852 METAR KATL 201852Z 06013KT 10SM CLR 18/M01 A3032 RMK AO2 SLP265 T01831011=
201804201752 METAR KATL 201752Z 09008KT 10SM CLR 17/M01 A3034 RMK AO2 SLP272 T01721006 10172 20072 58007=
201804201652 METAR KATL 201652Z 08010G18KT 10SM FEW250 16/M02 A3034 RMK AO2 SLP276 T01561017=
201804201552 METAR KATL 201552Z 12013G18KT 10SM FEW250 14/M02 A3035 RMK AO2 SLP278 T01391017=
201804201452 METAR KATL 201452Z 09014G19KT 10SM CLR 13/M01 A3036 RMK AO2 PK WND 08026/1418 SLP281 T01281006 51013=
201804201352 METAR KATL 201352Z 08015KT 10SM CLR 11/M01 A3035 RMK AO2 SLP278 T01061006=
201804201252 METAR KATL 201252Z 08015KT 10SM FEW250 08/00 A3034 RMK AO2 SLP274 T00830000=
201804201152 METAR KATL 201152Z 08010KT 8SM FEW250 07/01 A3032 RMK AO2 SLP268 T00720011 10094 20067 53032=
201804201052 METAR KATL 201052Z 06009KT 10SM FEW250 07/01 A3028 RMK AO2 SLP254 T00720011=
201804200952 METAR KATL 200952Z 02005KT 10SM FEW250 07/01 A3025 RMK AO2 SLP242 T00670006=
201804200852 METAR KATL 200852Z 01007KT 10SM FEW200 SCT250 07/01 A3022 RMK AO2 SLP234 T00720006 53013=
201804200752 METAR KATL 200752Z 01008KT 10SM FEW250 08/01 A3020 RMK AO2 SLP226 T00780006=
201804200652 METAR KATL 200652Z 35007KT 10SM FEW250 08/01 A3019 RMK AO2 SLP222 T00830006=
201804200552 METAR KATL 200552Z 35009KT 10SM SCT250 09/01 A3018 RMK AO2 SLP219 T00940006 10133 20094 53001=
201804200452 METAR KATL 200452Z 35010KT 10SM SCT250 10/01 A3018 RMK AO2 SLP217 T01000006 402000100=
201804200352 METAR KATL 200352Z 34010KT 10SM BKN250 10/01 A3017 RMK AO2 SLP215 T01000011=
201804200252 METAR KATL 200252Z 32009KT 10SM BKN250 11/01 A3018 RMK AO2 SLP219 T01060011 51014=
201804200152 METAR KATL 200152Z 32011KT 10SM SCT250 12/01 A3017 RMK AO2 SLP214 T01170011=
201804200052 METAR KATL 200052Z 33014G18KT 10SM SCT250 12/01 A3015 RMK AO2 SLP208 T01220011=
201804192352 METAR KATL 192352Z 35015KT 10SM FEW250 13/02 A3014 RMK AO2 SLP204 T01330017 10189 20133 51014=
201804192252 METAR KATL 192252Z 33015G22KT 9SM CLR 16/02 A3013 RMK AO2 SLP198 VIS LWR FU T01560022=
201804192152 METAR KATL 192152Z 31015G21KT 10SM CLR 17/03 A3011 RMK AO2 SLP192 T01720033=
201804192052 METAR KATL 192052Z 32012G22KT 290V010 10SM CLR 18/04 A3010 RMK AO2 SLP187 T01830044 51003=
201804191952 METAR KATL 191952Z 34012G19KT 10SM FEW055 19/06 A3010 RMK AO2 SLP186 T01890056=
201804191852 METAR KATL 191852Z 33017G21KT 10SM FEW055 19/05 A3010 RMK AO2 SLP186 T01890050=
201804191752 METAR KATL 191752Z 28015G23KT 10SM FEW050 19/06 A3009 RMK AO2 PK WND 32026/1717 SLP182 T01890056 10189 20167 51013=
201804191652 METAR KATL 191652Z 33019G23KT 10SM FEW050 18/06 A3007 RMK AO2 SLP178 T01830056=
201804191552 METAR KATL 191552Z 31013G20KT 10SM FEW050 18/05 A3006 RMK AO2 SLP174 T01830050=
201804191452 METAR KATL 191452Z 31013G18KT 10SM CLR 17/06 A3005 RMK AO2 SLP168 T01720061 53026=
201804191352 METAR KATL 191352Z 32014G27KT 10SM CLR 17/06 A3002 RMK AO2 PK WND 30027/1343 SLP158 T01670061=
201804191252 METAR KATL 191252Z 30016KT 10SM FEW034 17/09 A2999 RMK AO2 SLP149 T01720094=
201804191152 METAR KATL 191152Z 29011KT 10SM FEW023 FEW030 FEW050 17/12 A2997 RMK AO2 SLP140 T01670117 10194 20161 53016=
201804191052 METAR KATL 191052Z 28007KT 10SM FEW023 SCT028 SCT055 17/14 A2994 RMK AO2 SLP130 MDT CU E-OHD-W T01670144=
201804190952 METAR KATL 190952Z 24007KT 10SM BKN032 BKN055 17/14 A2992 RMK AO2 SLP123 T01670139=
201804190852 METAR KATL 190852Z 25009KT 10SM FEW050 17/13 A2992 RMK AO2 SLP123 T01670133 55006=
201804190752 METAR KATL 190752Z 23007KT 10SM FEW055 17/13 A2991 RMK AO2 SLP121 T01720133=
201804190652 METAR KATL 190652Z 24009KT 10SM FEW060 18/13 A2993 RMK AO2 SLP125 T01830128=
201804190552 METAR KATL 190552Z 24008KT 10SM FEW060 19/13 A2994 RMK AO2 SLP129 T01940128 10250 20194 55000=
201804190452 METAR KATL 190452Z 25007KT 10SM FEW060 21/12 A2994 RMK AO2 SLP128 T02060122 402830117=
201804190352 METAR KATL 190352Z 26009KT 10SM FEW060 21/11 A2994 RMK AO2 SLP130 T02110111=
201804190252 METAR KATL 190252Z 26008KT 10SM FEW060 22/11 A2994 RMK AO2 SLP132 T02170111 51007=
201804190152 METAR KATL 190152Z 25006KT 10SM FEW200 23/11 A2994 RMK AO2 SLP131 T02280106=
201804190052 METAR KATL 190052Z 23006G15KT 10SM FEW200 23/10 A2992 RMK AO2 SLP127 T02330100=
201804182352 METAR KATL 182352Z 24013G20KT 10SM FEW200 25/09 A2992 RMK AO2 SLP125 T02500089 10283 20250 55002=
201804182252 METAR KATL 182252Z 22013G21KT 10SM FEW250 27/07 A2991 RMK AO2 PK WND 23028/2230 SLP122 T02670072=
201804182152 METAR KATL 182152Z 24015G25KT 10SM FEW250 27/07 A2992 RMK AO2 PK WND 21033/2134 SLP124 T02720067=
201804182052 METAR KATL 182052Z 21013G22KT 10SM FEW250 27/09 A2992 RMK AO2 SLP125 T02720089 58023=
201804181952 METAR KATL 181952Z 25012G19KT 10SM FEW250 28/07 A2995 RMK AO2 PK WND 22028/1921 SLP133 T02780067=
201804181852 METAR KATL 181852Z 23015G24KT 10SM FEW250 27/08 A2997 RMK AO2 PK WND 23026/1841 SLP142 T02670078=
201804181752 METAR KATL 181752Z 25012G20KT 10SM FEW250 25/09 A2999 RMK AO2 SLP149 T02500094 10250 20128 58006=
201804181652 METAR KATL 181652Z 24010G21KT 10SM SCT250 24/08 A3002 RMK AO2 SLP158 T02390083=
201804181552 METAR KATL 181552Z 23013G19KT 10SM FEW250 22/09 A3002 RMK AO2 SLP161 T02170094=
201804181452 METAR KATL 181452Z 25012G20KT 10SM FEW250 19/10 A3001 RMK AO2 SLP157 T01890100 58000=
201804181352 METAR KATL 181352Z 25013KT 10SM FEW250 17/10 A3001 RMK AO2 SLP158 T01720100=
201804181252 METAR KATL 181252Z 24008KT 220V300 10SM FEW250 15/09 A3002 RMK AO2 SLP162 T01500089=
201804181152 METAR KATL 181152Z 24006KT 10SM FEW250 13/07 A3001 RMK AO2 SLP158 T01280072 10172 20117 53022=
201804181052 METAR KATL 181052Z 25005KT 10SM FEW200 FEW250 12/07 A2999 RMK AO2 SLP149 T01220072=
201804180952 METAR KATL 180952Z 26006KT 10SM FEW250 13/07 A2996 RMK AO2 SLP140 T01330067=
201804180852 METAR KATL 180852Z 25010KT 10SM FEW250 14/07 A2994 RMK AO2 SLP133 T01440067 55002=
201804180752 METAR KATL 180752Z 24012G20KT 10SM FEW250 16/06 A2993 RMK AO2 SLP129 T01610061=
201804180652 METAR KATL 180652Z 24013G24KT 10SM FEW250 17/07 A2994 RMK AO2 SLP132 T01670067=
201804180552 METAR KATL 180552Z 23010KT 10SM FEW250 17/08 A2995 RMK AO2 SLP136 T01670078 10228 20161 56007=
201804180452 METAR KATL 180452Z 23006KT 10SM FEW250 17/08 A2996 RMK AO2 SLP140 T01670078 402440022=
201804180352 METAR KATL 180352Z 23006KT 10SM FEW250 17/08 A2996 RMK AO2 SLP142 T01720078=
201804180252 METAR KATL 180252Z 23007KT 10SM FEW250 18/08 A2997 RMK AO2 SLP147 T01830078 51008=
201804180152 METAR KATL 180152Z 23009KT 10SM FEW250 19/08 A2996 RMK AO2 SLP145 T01890083=
201804180052 METAR KATL 180052Z 22005KT 10SM FEW250 20/06 A2996 RMK AO2 SLP144 T02000061=
201804172352 METAR KATL 172352Z 25010G20KT 10SM FEW250 23/04 A2995 RMK AO2 SLP141 T02280044 10244 20206 55004=
201804172252 METAR KATL 172252Z 25013G19KT 10SM CLR 24/07 A2995 RMK AO2 SLP139 T02390067=
201804172152 METAR KATL 172152Z 26013G21KT 10SM CLR 24/08 A2995 RMK AO2 SLP142 T02440078=
201804172052 METAR KATL 172052Z 25013G25KT 10SM CLR 24/08 A2996 RMK AO2 SLP144 T02390078 58029=
201804171952 METAR KATL 171952Z 26012G24KT 10SM CLR 23/07 A2999 RMK AO2 SLP156 T02280072=
201804171852 METAR KATL 171852Z 25011G20KT 10SM CLR 22/07 A3002 RMK AO2 PK WND 28027/1827 SLP166 T02220067=
201804171752 METAR KATL 171752Z 27014G22KT 10SM CLR 21/06 A3005 RMK AO2 SLP175 T02060061 10206 20028 58021=
201804171652 METAR KATL 171652Z 29016G23KT 10SM CLR 18/05 A3007 RMK AO2 SLP183 T01830050=
201804171552 METAR KATL 171552Z 29013KT 10SM CLR 15/04 A3010 RMK AO2 SLP193 T01500044=
201804171452 METAR KATL 171452Z 27009KT 10SM CLR 12/03 A3012 RMK AO2 SLP200 T01220033 51008=
201804171352 METAR KATL 171352Z 24006KT 10SM CLR 09/01 A3011 RMK AO2 SLP200 T00890011=
201804171252 METAR KATL 171252Z 28006KT 10SM CLR 05/00 A3011 RMK AO2 SLP199 T00500000=
201804171152 METAR KATL 171152Z 31008KT 10SM CLR 03/M01 A3009 RMK AO2 SLP194 T00281011 10044 20022 53009=
201804171052 METAR KATL 171052Z 31008KT 10SM CLR 02/M02 A3007 RMK AO2 SLP187 T00221017=
201804170952 METAR KATL 170952Z 31008KT 10SM CLR 02/M02 A3007 RMK AO2 SLP186 T00221017=
201804170852 METAR KATL 170852Z 30007KT 10SM CLR 02/M02 A3006 RMK AO2 SLP184 T00221017 55002=
201804170752 METAR KATL 170752Z 29008KT 10SM CLR 03/M01 A3005 RMK AO2 SLP182 T00281011=
201804170652 METAR KATL 170652Z 29008KT 10SM CLR 03/M01 A3006 RMK AO2 SLP183 T00331006=
201804170552 METAR KATL 170552Z 31007KT 10SM CLR 04/M01 A3007 RMK AO2 SLP186 T00441006 10106 20044 51006=
201804170452 METAR KATL 170452Z 33009KT 10SM CLR 06/M01 A3006 RMK AO2 SLP185 T00561006 401170033=
201804170352 METAR KATL 170352Z 31010KT 10SM CLR 07/01 A3006 RMK AO2 SLP182 T00720006=
201804170252 METAR KATL 170252Z 30008KT 10SM CLR 08/02 A3005 RMK AO2 SLP180 T00780017 51018=
201804170152 METAR KATL 170152Z 29008KT 10SM CLR 08/01 A3003 RMK AO2 SLP174 T00830011=
201804170052 METAR KATL 170052Z 28010KT 10SM CLR 09/01 A3001 RMK AO2 SLP167 T00890011=
201804162352 METAR KATL 162352Z 29016G22KT 10SM FEW040 11/01 A2999 RMK AO2 SLP160 T01060006 10117 20078 51007=
201804162252 METAR KATL 162252Z 29011G21KT 10SM FEW040 12/01 A2999 RMK AO2 PK WND 29028/2156 SLP158 T01170011=
201804162152 METAR KATL 162152Z 29017G27KT 10SM FEW040 12/02 A2998 RMK AO2 PK WND 28029/2123 SLP155 T01170017=
201804162052 METAR KATL 162052Z 28017G25KT 10SM FEW040 11/01 A2997 RMK AO2 PK WND 30027/2032 SLP153 T01110011 56015=
201804161952 METAR KATL 161952Z 26017G24KT 10SM FEW040 10/00 A2998 RMK AO2 PK WND 27026/1853 SLP156 T01000000=
201804161852 METAR KATL 161852Z 28018G25KT 10SM SCT040 09/01 A3000 RMK AO2 PK WND 30027/1804 SLP164 T00940011=
201804161752 METAR KATL 161752Z 31018G26KT 10SM BKN040 08/01 A3002 RMK AO2 PK WND 29028/1654 SLP169 T00830006 10083 20033 51003=
201804161652 METAR KATL 161652Z 29019G28KT 10SM BKN030 BKN040 07/00 A3001 RMK AO2 PK WND 29028/1652 SLP168 T00720000=
201804161552 METAR KATL 161552Z 29016G26KT 10SM BKN032 06/00 A3002 RMK AO2 PK WND 31026/1548 SLP169 T00610000=
201804161452 METAR KATL 161452Z 27014G19KT 10SM BKN030 06/01 A3001 RMK AO2 SLP166 T00560006 53012=
201804161352 METAR KATL 161352Z 27015G23KT 10SM BKN025 OVC035 04/00 A2999 RMK AO2 PK WND 30026/1306 SLP160 T00390000=
201804161252 METAR KATL 161252Z 27011G21KT 10SM SCT019 BKN025 BKN037 04/01 A2998 RMK AO2 SLP155 T00440006=
201804161152 METAR KATL 161152Z 27013G19KT 10SM FEW019 SCT023 SCT028 03/00 A2997 RMK AO2 SLP152 70066 T00330000 10050 20033 53011=
201804161149 SPECI KATL 161149Z 26012G19KT 10SM FEW019 SCT023 SCT028 03/00 A2997 RMK AO2=
201804161108 SPECI KATL 161108Z 27012KT 10SM FEW021 BKN028 BKN035 04/01 A2996 RMK AO2 T00390006=
201804161052 METAR KATL 161052Z 27010G19KT 10SM FEW026 BKN034 04/01 A2995 RMK AO2 SLP145 T00390006=
201804160952 METAR KATL 160952Z 27010G21KT 10SM FEW024 BKN035 04/01 A2995 RMK AO2 SLP144 T00390011=
201804160943 SPECI KATL 160943Z 28012KT 10SM SCT024 BKN037 03/01 A2995 RMK AO2 T00330011=
201804160856 SPECI KATL 160856Z 27012KT 10SM BKN023 BKN035 04/01 A2994 RMK AO2 T00390011=
201804160852 METAR KATL 160852Z 27009KT 10SM SCT023 BKN035 04/01 A2994 RMK AO2 SLP140 T00390011 51004=
201804160821 SPECI KATL 160821Z 27009KT 10SM SCT023 03/01 A2993 RMK AO2 T00330011=
201804160752 METAR KATL 160752Z 27010KT 10SM SCT018 OVC024 04/02 A2994 RMK AO2 PK WND 28026/0708 SLP139 T00390017=
201804160735 SPECI KATL 160735Z 26008KT 10SM SCT018 BKN025 BKN033 04/02 A2994 RMK AO2 PK WND 28026/0708 T00440017=
201804160652 METAR KATL 160652Z 29014G22KT 10SM FEW022 BKN060 04/01 A2993 RMK AO2 PK WND 28026/0609 SLP138 T00440011=
201804160601 SPECI KATL 160601Z 28014G21KT 10SM FEW015 SCT021 OVC060 05/01 A2993 RMK AO2 T00500011=
201804160552 METAR KATL 160552Z 28014G21KT 10SM SCT015 BKN021 OVC060 05/02 A2992 RMK AO2 PK WND 27028/0527 SLP135 60000 T00500022 10106 20050 53016=
201804160510 SPECI KATL 160510Z 28011G22KT 10SM BKN017 BKN044 OVC060 06/03 A2991 RMK AO2 T00560033=
201804160452 METAR KATL 160452Z 30013KT 10SM SCT015 BKN040 OVC055 06/04 A2990 RMK AO2 PK WND 30027/0358 RAE46 SLP128 P0000 T00560039 402220056=
201804160415 SPECI KATL 160415Z 29016G24KT 9SM -RA FEW016 SCT024 OVC038 06/04 A2989 RMK AO2 PK WND 30027/0358 P0000 T00560044=
201804160352 METAR KATL 160352Z 29015G25KT 10SM -RA BKN023 BKN038 OVC055 07/03 A2988 RMK AO2 RAB0255 SLP118 PCPN VRY LGT P0000 T00720033=
201804160252 METAR KATL 160252Z 29014KT 10SM SCT026 OVC036 08/04 A2988 RMK AO2 SLP115 T00780039 53029=
201804160235 SPECI KATL 160235Z 29013G21KT 10SM SCT026 OVC035 08/03 A2987 RMK AO2 T00830033=
201804160152 METAR KATL 160152Z 31017G22KT 10SM BKN028 OVC038 09/04 A2984 RMK AO2 PK WND 29028/0111 SLP104 T00890039=
201804160109 SPECI KATL 160109Z 31019G27KT 10SM BKN027 OVC042 09/04 A2982 RMK AO2 PK WND 31027/0109 T00940044=
201804160052 METAR KATL 160052Z 29010KT 10SM BKN036 OVC046 10/05 A2981 RMK AO2 SLP094 T01000050=
201804152352 METAR KATL 152352Z 27013G19KT 10SM FEW032 SCT042 OVC050 11/06 A2979 RMK AO2 SLP085 60004 T01060056 10144 20106 53020 $=
201804152252 METAR KATL 152252Z 29014G21KT 10SM FEW026 SCT034 OVC046 12/07 A2976 RMK AO2 SLP073 BINOVC T01220067 $=
201804152152 METAR KATL 152152Z 28013G19KT 10SM SCT036 OVC048 13/09 A2973 RMK AO2 SLP066 BINOVC T01330089 $=
201804152121 SPECI KATL 152121Z 28016KT 10SM FEW014 BKN032 BKN050 BKN200 13/10 A2973 RMK AO2 CIG 010V015 T01330100 $=
201804152052 METAR KATL 152052Z 31014G17KT 10SM BKN012 BKN026 BKN032 12/11 A2973 RMK AO2 SLP064 CIG 010V015 60004 T01220106 55006 $=
201804152025 SPECI KATL 152025Z 28012G21KT 10SM SCT008 BKN015 OVC022 12/11 A2974 RMK AO2 BINOVC T01220111 $=
201804151952 METAR KATL 151952Z 28014G21KT 10SM BKN008 OVC012 13/12 A2972 RMK AO2 SLP060 T01280117 $=
201804151852 METAR KATL 151852Z 29007KT 10SM BKN007 OVC030 14/13 A2971 RMK AO2 RAE41 SLP057 P0004 T01390133 $=
201804151842 SPECI KATL 151842Z 29006KT 10SM BKN005 OVC030 13/13 A2972 RMK AO2 RAE41 P0004 T01330128 $=
201804151803 SPECI KATL 151803Z 32006KT 3SM -RA BR SCT005 BKN033 OVC048 13/12 A2972 RMK AO2 PRESFR LTG DSNT N AND E CB DSNT N AND E P0002 T01280122 $=
201804151752 METAR KATL 151752Z 27005KT 1 1/2SM R09R/4500VP6000FT VCTS RA BR SCT005 BKN017CB OVC030 13/13 A2975 RMK AO2 SLP068 LTG DSNT S TSB25E40 OCNL LTGICCC VC W-NW TS W-NW MOV N CB DSNT S P0031 60062 T01280128 10183 20122 55001 $=
201804151742 SPECI KATL 151742Z 28007KT 1 1/2SM R09R/4500VP6000FT VCTS RA BR SCT007 BKN015CB OVC030 13/13 A2975 RMK AO2 LTG DSNT ALQDS TSB25E40 OCNL LTGICCC VC SW TS VC SW MOV NE P0024 T01280128 $=
201804151728 SPECI KATL 151728Z 29011KT 1 1/2SM R09R/5000VP6000FT TSRA BR SCT005 BKN011CB OVC017 13/13 A2974 RMK AO2 LTG DSNT SW-W TSB25 OCNL LTGICCG SW TS SW MOV NE CB DSNT SW-W P0012 T01280128 $=
201804151722 SPECI KATL 151722Z 29009KT 1 3/4SM R09R/6000VP6000FT VCTS RA BR BKN005 BKN011CB OVC017 13/13 A2975 RMK AO2 LTG DSNT SW-W OCNL LTGICCG VC S TS VC S MOV NE CB DSNT SW-W P0009 T01280128 $=
201804151716 SPECI KATL 151716Z 30011KT 1 3/4SM R09R/6000VP6000FT BR BKN005 BKN011 OVC016 13/13 A2974 RMK AO2 RAEMM LTG DSNT S-SW CB DSNT S-SW P0007 T01280128 $=
201804151708 SPECI KATL 151708Z 28012KT 2SM R09R/6000VP6000FT -RA BR BKN005 OVC013 13/13 A2974 RMK AO2 LTG DSNT SW AND NW CB DSNT SW P0006 T01280128 $=
201804151652 METAR KATL 151652Z 30011KT 1 3/4SM R09R/6000VP6000FT RA BR BKN005 OVC012 13/13 A2974 RMK AO2 LTG DSNT S AND SW RAE04B15 SLP065 WSHFT 20 FROPA CB DSNT SW P0010 T01330133 $=
201804151634 SPECI KATL 151634Z 29010KT 1 1/2SM R09R/6000VP6000FT -RA BR BKN006 OVC011 14/14 A2973 RMK AO2 RAE04B15 WSHFT 20 FROPA P0003 T01440144 $=
201804151628 SPECI KATL 151628Z 29013KT 1 1/2SM R09R/6000VP6000FT -RA BR SCT006 BKN010 OVC017 14/14 A2973 RMK AO2 WSHFT 1613 LTG DSNT SE RAE04B15 CB DSNT SE P0002 T01440144 $=
201804151621 SPECI KATL 151621Z 31017KT 2SM R09R/5000VP6000FT RA BR SCT006 BKN011 OVC020 15/14 A2973 RMK AO2 RAE04B15 P0001 T01500144 $=
201804151618 SPECI KATL 151618Z 30015KT 3SM R09R/5000VP6000FT RA BR SCT006 BKN013 OVC020 16/16 A2973 RMK AO2 RAE04B15 P0000 T01560156 $=
201804151552 METAR KATL 151552Z 16005KT 5SM -RA BR SCT015 BKN024 OVC030 18/18 A2974 RMK AO2 RAE04B37 SLP062 P0002 T01830178=
201804151452 METAR KATL 151452Z 20007KT 10SM -RA FEW009 BKN015 OVC048 18/17 A2975 RMK AO2 SLP066 P0000 60019 T01830172 55016=
201804151444 SPECI KATL 151444Z 18010G16KT 7SM -RA SCT009 BKN015 OVC025 18/17 A2975 RMK AO2 P0000 T01830172=
201804151352 METAR KATL 151352Z 16012G19KT 7SM -RA BKN005 BKN040 OVC100 18/18 A2973 RMK AO2 PK WND 13027/1333 SLP060 BKN005 V SCT P0009 T01780178=
201804151344 SPECI KATL 151344Z 14013G25KT 6SM -RA BR SCT005 BKN040 OVC100 18/17 A2971 RMK AO2 PK WND 13027/1333 P0008 T01780172=
201804151252 METAR KATL 151252Z 14009KT 3SM -RA BR BKN005 OVC020 17/17 A2980 RMK AO2 SLP083 CIG 004V007 P0010 T01670167=
201804151213 SPECI KATL 151213Z 14007KT 5SM -RA BR BKN006 BKN050 OVC095 17/17 A2979 RMK AO2 P0003 T01670167=
201804151152 METAR KATL 151152Z 14007KT 4SM -RA BR FEW004 FEW042 OVC090 17/17 A2980 RMK AO2 SLP083 P0009 60043 70043 T01670167 10217 20167 58010=
201804151052 METAR KATL 151052Z 12005KT 6SM -RA BR FEW031 SCT048 OVC090 17/17 A2981 RMK AO2 SLP087 TSE18 TS MOV E P0026 T01670167=
201804151035 SPECI KATL 151035Z 15004KT 4SM RA BR FEW014 BKN031 OVC041 17/17 A2982 RMK AO2 LTG DSNT S TSE18 TS MOV E CB DSNT E-S P0021 T01670167=
201804151018 SPECI KATL 151018Z 14004KT 4SM RA BR FEW014CB BKN029 OVC035 17/17 A2981 RMK AO2 LTG DSNT E AND SE OCNL LTGICCG DSNT E-SE TS MOV E CB W AND DSNT E-SE P0014 T01720167=
201804150952 METAR KATL 150952Z 15003KT 3SM TS BR BKN032CB OVC040 17/16 A2983 RMK AO2 LTG DSNT S RAB13RAEMM TSB48 SLP092 OCNL LTGICCACG OHD-NW TS OHD-NW MOV NE CB DSNT S P0007 T01720161 $=
201804150948 SPECI KATL 150948Z 00000KT 3SM TSRA BR BKN032CB OVC040 18/16 A2982 RMK AO2 LTG DSNT S RAB13 TSB48 OCNL LTGICCACG OHD-SW TS OHD-SW MOV NE P0004=
201804150852 METAR KATL 150852Z 16005KT 10SM BKN037 OVC050 19/15 A2983 RMK AO2 RAB16E49 SLP092 SHRA W-NW P0001 60001 T01890150 55020=
201804150752 METAR KATL 150752Z 14007G16KT 10SM SCT047 SCT055 BKN095 21/12 A2982 RMK AO2 LTG DSNT NW SLP089 T02110122=
201804150652 METAR KATL 150652Z 16010KT 10SM FEW050 FEW070 BKN110 OVC180 21/13 A2985 RMK AO2 SLP100 T02110133=
201804150552 METAR KATL 150552Z 18010KT 10SM BKN047 BKN060 BKN130 OVC200 22/14 A2989 RMK AO2 SLP113 T02170144 10250 20217 58009=
201804150452 METAR KATL 150452Z 17009KT 10SM FEW065 BKN080 BKN140 OVC200 22/15 A2991 RMK AO2 SLP118 ACC NE-OHD-SW T02220150 402670161=
201804150352 METAR KATL 150352Z 16011KT 10SM FEW060 SCT075 BKN150 OVC200 23/16 A2992 RMK AO2 SLP121 ACC SE & SW-NW T02280156=
201804150252 METAR KATL 150252Z 16009KT 10SM SCT070 SCT150 OVC200 23/16 A2992 RMK AO2 SLP123 T02330156 50002=
201804150152 METAR KATL 150152Z 16011G16KT 10SM FEW048 SCT065 BKN140 OVC200 24/15 A2992 RMK AO2 SLP125 T02390150=
201804150052 METAR KATL 150052Z 15009KT 10SM FEW050 SCT075 SCT150 OVC200 24/15 A2992 RMK AO2 SLP124 T02390150=
201804142352 METAR KATL 142352Z 14007KT 10SM FEW055 SCT070 BKN160 OVC200 25/15 A2991 RMK AO2 SLP122 VIRGA SE & W-NW T02500150 10267 20250 55007=
201804142252 METAR KATL 142252Z 17011G19KT 10SM FEW055 FEW075 SCT160 OVC250 26/14 A2991 RMK AO2 SLP121 VIRGA N-OHD-S T02560144=
201804142152 METAR KATL 142152Z 16014G22KT 10SM FEW055 SCT075 OVC200 26/14 A2992 RMK AO2 SLP123 T02610144=
201804142052 METAR KATL 142052Z 17014KT 10SM BKN055 OVC070 26/15 A2993 RMK AO2 SLP128 T02610150 56018=
201804141952 METAR KATL 141952Z 15014G18KT 10SM SCT050 BKN070 OVC250 27/16 A2995 RMK AO2 SLP133 BINOVC T02670156=
201804141852 METAR KATL 141852Z 18015G22KT 10SM SCT047 SCT060 BKN250 27/16 A2997 RMK AO2 SLP140 T02670156=
201804141752 METAR KATL 141752Z 16015G20KT 10SM SCT047 SCT055 BKN250 26/16 A2999 RMK AO2 SLP147 T02560156 10256 20167 58019=
201804141652 METAR KATL 141652Z 16013G19KT 10SM BKN047 BKN060 25/16 A3001 RMK AO2 SLP154 T02500156=
201804141552 METAR KATL 141552Z 16014G22KT 10SM BKN040 BKN055 23/15 A3004 RMK AO2 SLP164 T02330150=
201804141452 METAR KATL 141452Z 18011KT 10SM SCT020 SCT050 BKN250 22/16 A3005 RMK AO2 SLP168 T02170161 50002=
201804141448 SPECI KATL 141448Z 19013KT 10SM SCT020 BKN045 BKN250 22/16 A3005 RMK AO2=
201804141418 SPECI KATL 141418Z 18010KT 10SM SCT015 BKN020 BKN250 21/17 A3006 RMK AO2 T02060172=
201804141352 METAR KATL 141352Z 17012KT 10SM BKN013 BKN250 19/17 A3006 RMK AO2 SLP172 T01940172=
201804141307 SPECI KATL 141307Z 17010KT 10SM BKN010 BKN015 OVC050 19/17 A3006 RMK AO2 BINOVC T01890172=
201804141252 METAR KATL 141252Z 17011KT 8SM BKN009 BKN014 OVC055 18/17 A3007 RMK AO2 SLP175 CIG 008V012 T01830167=
201804141152 METAR KATL 141152Z 16009KT 8SM BKN008 OVC050 17/16 A3004 RMK AO2 SLP167 T01670156 10200 20161 53008=
201804141145 SPECI KATL 141145Z 16006KT 8SM BKN008 OVC050 17/16 A3003 RMK AO2 T01670156=
201804141138 SPECI KATL 141138Z 15007KT 9SM FEW008 OVC050 17/16 A3003 RMK AO2 BINOVC T01670156=
201804141052 METAR KATL 141052Z 13007KT 10SM SCT055 17/15 A3001 RMK AO2 SLP155 T01670150=
201804140952 METAR KATL 140952Z 14007KT 10SM BKN055 18/16 A3000 RMK AO2 SLP152 T01830156=
201804140852 METAR KATL 140852Z 18005KT 10SM BKN055 18/16 A3002 RMK AO2 SLP157 T01830156 58011=
201804140752 METAR KATL 140752Z 19006KT 10SM FEW055 SCT250 18/16 A3003 RMK AO2 SLP160 T01830156=
201804140652 METAR KATL 140652Z 19008KT 10SM SCT055 SCT250 19/15 A3004 RMK AO2 SLP165 T01940150=
201804140552 METAR KATL 140552Z 18010KT 10SM SCT060 SCT250 20/14 A3005 RMK AO2 SLP168 T02000144 10244 20200 58003=
201804140452 METAR KATL 140452Z 17010KT 10SM BKN060 BKN250 21/14 A3006 RMK AO2 SLP170 T02060139 402670117=
201804140352 METAR KATL 140352Z 17009KT 10SM BKN060 BKN250 21/13 A3006 RMK AO2 SLP171 T02110133=
201804140252 METAR KATL 140252Z 16006KT 10SM BKN060 BKN250 21/13 A3006 RMK AO2 SLP173 T02110128 53008=
201804140152 METAR KATL 140152Z 16007KT 10SM BKN060 BKN250 22/13 A3005 RMK AO2 SLP171 T02170128=
201804140052 METAR KATL 140052Z 16006KT 10SM FEW060 FEW250 22/12 A3004 RMK AO2 SLP167 T02220122=
201804132352 METAR KATL 132352Z 17010KT 10SM FEW060 FEW250 24/12 A3004 RMK AO2 SLP165 T02440122 10267 20239 53000=
201804132252 METAR KATL 132252Z 17014KT 10SM FEW065 26/12 A3003 RMK AO2 SLP163 T02560117=
201804132152 METAR KATL 132152Z 20013G19KT 10SM SCT060 26/11 A3003 RMK AO2 SLP162 T02610111=
201804132052 METAR KATL 132052Z 19013G21KT 10SM SCT060 SCT250 26/12 A3003 RMK AO2 SLP164 T02610117 56018=
201804131952 METAR KATL 131952Z 16013G20KT 140V200 10SM SCT055 SCT250 26/12 A3005 RMK AO2 SLP170 T02610122=
201804131852 METAR KATL 131852Z 19011G20KT 10SM SCT050 SCT250 26/13 A3007 RMK AO2 SLP175 T02560128=
201804131752 METAR KATL 131752Z 19013G17KT 10SM BKN048 BKN250 24/13 A3009 RMK AO2 SLP182 T02390128 10239 20128 58017=
201804131652 METAR KATL 131652Z 17016G19KT 10SM BKN045 BKN250 23/13 A3012 RMK AO2 PK WND 19026/1618 SLP192 T02280128=
201804131552 METAR KATL 131552Z 18013G17KT 10SM SCT035 SCT200 BKN250 22/14 A3013 RMK AO2 SLP196 T02170139=
201804131452 METAR KATL 131452Z 20010G16KT 10SM FEW030 SCT200 BKN250 20/14 A3014 RMK AO2 SLP200 T02000139 51008=
201804131352 METAR KATL 131352Z 17009KT 10SM BKN250 17/11 A3014 RMK AO2 SLP201 T01720106=
201804131252 METAR KATL 131252Z 18009KT 9SM FEW200 BKN250 BKN300 14/09 A3014 RMK AO2 SLP202 T01440094=
201804131152 METAR KATL 131152Z 12004KT 9SM FEW200 BKN250 BKN300 13/09 A3012 RMK AO2 SLP194 T01280089 10156 20117 53006=
201804131052 METAR KATL 131052Z 14003KT 10SM FEW200 SCT250 12/08 A3010 RMK AO2 SLP189 T01220078=
201804130952 METAR KATL 130952Z 13004KT 10SM SCT250 13/07 A3010 RMK AO2 SLP186 T01330072=
201804130852 METAR KATL 130852Z 00000KT 10SM FEW250 13/07 A3010 RMK AO2 SLP186 T01330072 56001=
201804130752 METAR KATL 130752Z 20004KT 10SM SCT250 14/07 A3010 RMK AO2 SLP186 T01390072=
201804130652 METAR KATL 130652Z 20005KT 10SM SCT250 15/07 A3009 RMK AO2 SLP185 T01500067=
201804130552 METAR KATL 130552Z 19004KT 10SM SCT250 16/07 A3010 RMK AO2 SLP187 T01560067 10222 20156 53001=
201804130452 METAR KATL 130452Z 18008KT 10SM SCT250 17/06 A3010 RMK AO2 SLP185 T01670061 402500100=
201804130352 METAR KATL 130352Z 18010KT 10SM SCT250 18/06 A3009 RMK AO2 SLP185 T01780056=
201804130252 METAR KATL 130252Z 18009KT 10SM SCT250 19/05 A3010 RMK AO2 SLP186 T01890050 51006=
201804130152 METAR KATL 130152Z 16008KT 10SM FEW250 19/05 A3010 RMK AO2 SLP187 T01940050=
201804130052 METAR KATL 130052Z 17008KT 10SM FEW250 21/05 A3009 RMK AO2 SLP184 T02060050=
201804122352 METAR KATL 122352Z 16006KT 10SM SCT250 22/04 A3008 RMK AO2 SLP182 T02220044 10250 20222 56006=
201804122252 METAR KATL 122252Z 20010KT 10SM SCT250 24/04 A3009 RMK AO2 SLP184 VIS LWR S-W FU T02390039=
201804122152 METAR KATL 122152Z 21006G16KT 10SM FEW250 24/04 A3009 RMK AO2 SLP185 T02440039=
201804122052 METAR KATL 122052Z 20009KT 160V220 10SM FEW250 25/04 A3010 RMK AO2 SLP187 T02500044 56026=
201804121952 METAR KATL 121952Z 18008KT 10SM FEW250 24/04 A3012 RMK AO2 SLP193 T02440039=
201804121852 METAR KATL 121852Z 19007KT 10SM FEW250 24/04 A3015 RMK AO2 SLP205 T02390044=
201804121752 METAR KATL 121752Z 16008KT 10SM SCT250 23/03 A3018 RMK AO2 SLP216 T02280033 10228 20111 58021=
201804121652 METAR KATL 121652Z 22008G18KT 10SM SCT250 22/03 A3021 RMK AO2 SLP227 T02170028=
201804121552 METAR KATL 121552Z 17009KT 10SM BKN250 21/03 A3024 RMK AO2 SLP236 T02110028=
201804121452 METAR KATL 121452Z 18007KT 10SM SCT250 19/03 A3024 RMK AO2 SLP237 T01940033 53011=
201804121352 METAR KATL 121352Z 18008KT 10SM FEW150 FEW250 17/04 A3022 RMK AO2 SLP232 T01720044=
201804121252 METAR KATL 121252Z 18006KT 10SM FEW001 FEW160 SCT200 SCT250 14/03 A3021 RMK AO2 SLP227 FU FEW001 T01440033=
201804121152 METAR KATL 121152Z 15004KT 10SM FEW120 FEW160 SCT200 BKN250 12/04 A3020 RMK AO2 SLP224 T01170039 10122 20100 53013=
201804121052 METAR KATL 121052Z 00000KT 10SM FEW170 SCT200 BKN250 11/04 A3018 RMK AO2 SLP219 T01060044=
201804120952 METAR KATL 120952Z 16003KT 10SM SCT200 BKN250 11/04 A3017 RMK AO2 SLP214 T01060044=
201804120852 METAR KATL 120852Z 00000KT 10SM SCT200 BKN250 12/03 A3016 RMK AO2 SLP209 T01170033 53001=
201804120752 METAR KATL 120752Z 21003KT 10SM BKN200 OVC250 12/04 A3015 RMK AO2 SLP205 T01170044=
201804120652 METAR KATL 120652Z 20003KT 10SM SCT200 BKN250 11/05 A3014 RMK AO2 SLP205 T01060050=
201804120552 METAR KATL 120552Z 00000KT 10SM SCT200 OVC250 12/05 A3015 RMK AO2 SLP208 T01220050 10183 20117 56004=
201804120452 METAR KATL 120452Z 00000KT 10SM BKN250 13/05 A3016 RMK AO2 SLP211 T01280050 402110067=
201804120352 METAR KATL 120352Z 00000KT 10SM BKN250 13/05 A3016 RMK AO2 SLP211 T01330050=
201804120252 METAR KATL 120252Z 00000KT 10SM BKN250 15/04 A3017 RMK AO2 SLP214 T01500039 53004=
201804120152 METAR KATL 120152Z 00000KT 10SM BKN250 16/02 A3016 RMK AO2 SLP211 T01610022=
201804120052 METAR KATL 120052Z 33004KT 10SM BKN250 17/01 A3015 RMK AO2 SLP208 T01720011=
201804112352 METAR KATL 112352Z 33007KT 10SM BKN250 18/01 A3015 RMK AO2 SLP211 T01830006 10211 20183 50002=
201804112252 METAR KATL 112252Z 31011KT 10SM BKN250 19/00 A3016 RMK AO2 SLP211 T01940000=
201804112152 METAR KATL 112152Z 32011KT 10SM BKN250 20/00 A3016 RMK AO2 SLP211 T02000000=
201804112052 METAR KATL 112052Z 33013KT 10SM BKN250 21/00 A3015 RMK AO2 SLP207 T02060000 56017=
201804111952 METAR KATL 111952Z 34014G18KT 10SM BKN250 21/M01 A3016 RMK AO2 SLP212 T02111006=
201804111852 METAR KATL 111852Z 35010G18KT 10SM BKN250 21/M01 A3018 RMK AO2 SLP219 T02061006=
201804111752 METAR KATL 111752Z 34014G18KT 10SM BKN250 19/M01 A3020 RMK AO2 SLP225 T01941006 10194 20072 58001=
201804111652 METAR KATL 111652Z 33011KT 10SM FEW200 BKN250 18/M01 A3022 RMK AO2 SLP230 T01781006=
201804111552 METAR KATL 111552Z 32009KT 10SM SCT250 16/01 A3022 RMK AO2 SLP232 T01610011=
201804111452 METAR KATL 111452Z 34010KT 10SM SCT250 14/02 A3020 RMK AO2 SLP227 T01390017 53011=
201804111352 METAR KATL 111352Z 35010KT 10SM SCT250 12/03 A3019 RMK AO2 SLP224 T01220033=
201804111252 METAR KATL 111252Z 32008KT 10SM SCT250 10/03 A3018 RMK AO2 SLP219 T01000033=
201804111152 METAR KATL 111152Z 31008KT 10SM FEW250 07/03 A3017 RMK AO2 SLP217 T00720028 10111 20067 53016=
201804111052 METAR KATL 111052Z 31009KT 10SM FEW250 07/03 A3015 RMK AO2 SLP208 T00670028=
201804110952 METAR KATL 110952Z 31008KT 10SM CLR 07/03 A3013 RMK AO2 SLP200 T00720033=
201804110852 METAR KATL 110852Z 31008KT 10SM CLR 08/03 A3012 RMK AO2 SLP198 T00780033 56001=
201804110752 METAR KATL 110752Z 31009KT 10SM CLR 09/03 A3012 RMK AO2 SLP198 T00940033=
201804110652 METAR KATL 110652Z 32007KT 10SM FEW250 09/03 A3012 RMK AO2 SLP196 T00940033=
201804110552 METAR KATL 110552Z 34006KT 10SM CLR 11/03 A3013 RMK AO2 SLP199 T01060028 10178 20106 50004=
201804110452 METAR KATL 110452Z COR 33009KT 10SM CLR 12/03 A3013 RMK AO2 SLP201 T01170033 402110100=
201804110252 METAR KATL 110252Z 32005KT 10SM FEW070 13/03 A3011 RMK AO2 SLP196 T01330033 51013=
201804110152 METAR KATL 110152Z 35007KT 10SM FEW065 16/02 A3011 RMK AO2 SLP194 T01560022=
201804110052 METAR KATL 110052Z 35007G16KT 10SM FEW065 17/02 A3008 RMK AO2 SLP184 T01670022=
201804102352 METAR KATL 102352Z 33009KT 10SM FEW065 18/02 A3007 RMK AO2 SLP181 T01780022 10211 20178 53002=
201804102252 METAR KATL 102252Z 31011KT 10SM FEW065 19/01 A3007 RMK AO2 SLP179 T01940011=
201804102152 METAR KATL 102152Z 31012G16KT 10SM FEW065 FEW250 21/03 A3006 RMK AO2 SLP177 T02060033=
201804102052 METAR KATL 102052Z 33011G15KT 10SM FEW065 FEW250 21/03 A3007 RMK AO2 SLP180 T02110033 56018=
201804101952 METAR KATL 101952Z 27010KT 10SM FEW060 FEW250 21/06 A3008 RMK AO2 SLP183 T02060056=
201804101852 METAR KATL 101852Z 31008KT 10SM FEW050 FEW250 19/07 A3010 RMK AO2 SLP191 T01940072=
201804101752 METAR KATL 101752Z 32005KT 10SM FEW040 FEW250 18/07 A3012 RMK AO2 SLP198 T01830072 10183 20106 58018=
201804101652 METAR KATL 101652Z 03007KT 10SM FEW030 SCT040 SCT250 16/08 A3015 RMK AO2 SLP210 T01610083=
201804101552 METAR KATL 101552Z VRB03KT 10SM FEW025 BKN045 BKN120 15/09 A3018 RMK AO2 SLP219 T01500089=
201804101452 METAR KATL 101452Z VRB04KT 10SM FEW020 BKN040 BKN120 13/09 A3018 RMK AO2 SLP219 T01330094 50008=
201804101352 METAR KATL 101352Z 33005KT 10SM FEW010 BKN040 OVC120 12/09 A3018 RMK AO2 SLP222 T01170094=
201804101252 METAR KATL 101252Z 35007KT 10SM BKN037 OVC120 11/09 A3017 RMK AO2 SLP218 T01110094=
201804101152 METAR KATL 101152Z 34006KT 10SM FEW009 SCT030 BKN120 BKN250 11/09 A3015 RMK AO2 SLP211 60000 70002 T01060094 10106 20100 51013=
201804101137 SPECI KATL 101137Z 01003KT 9SM FEW009 SCT026 BKN120 BKN150 11/09 A3015 RMK AO2 T01060094=
201804101052 METAR KATL 101052Z 02003KT 10SM FEW020 SCT095 OVC120 11/09 A3014 RMK AO2 RAB23E40 SLP206 P0000 T01060094=
201804101000 SPECI KATL 101000Z 06003KT 10SM FEW008 SCT020 OVC110 10/09 A3014 RMK AO2 T01000089=
201804100952 METAR KATL 100952Z 00000KT 10SM FEW008 BKN020 OVC110 10/09 A3014 RMK AO2 SLP205 BKN020 V SCT T01000089=
201804100937 SPECI KATL 100937Z 00000KT 10SM BKN020 OVC110 10/09 A3013 RMK AO2 T01000094=
201804100852 METAR KATL 100852Z 00000KT 10SM FEW008 FEW040 BKN110 BKN150 10/09 A3012 RMK AO2 SLP198 T01000089 55002=
201804100752 METAR KATL 100752Z 09004KT 10SM FEW008 BKN110 BKN150 10/09 A3011 RMK AO2 SLP197 T01000094=
201804100652 METAR KATL 100652Z 10005KT 10SM FEW008 SCT120 BKN200 11/09 A3012 RMK AO2 SLP201 T01060094=
201804100552 METAR KATL 100552Z 09006KT 10SM FEW008 BKN130 BKN200 10/09 A3012 RMK AO2 SLP201 T01000094 10133 20100 53003=
201804100507 SPECI KATL 100507Z 09007KT 10SM FEW008 BKN130 BKN200 BKN250 11/09 A3011 RMK AO2 T01060094=
201804100452 METAR KATL 100452Z 09007KT 10SM BKN130 BKN250 11/09 A3011 RMK AO2 SLP197 T01060094 401500078=
201804100352 METAR KATL 100352Z 11006KT 10SM BKN130 BKN250 11/09 A3011 RMK AO2 SLP198 T01110094=
201804100252 METAR KATL 100252Z 12005KT 10SM BKN130 BKN250 12/09 A3011 RMK AO2 SLP198 T01170094 53022=
201804100152 METAR KATL 100152Z 11007KT 10SM BKN140 BKN250 12/10 A3008 RMK AO2 SLP188 T01170100=
201804100052 METAR KATL 100052Z 10006KT 10SM FEW040 BKN150 BKN250 13/09 A3006 RMK AO2 SLP180 T01280094=
201804092352 METAR KATL 092352Z 10005KT 10SM FEW040 BKN150 BKN250 13/09 A3005 RMK AO2 SLP176 ACC NE-SE T01330094 10150 20111 51008=
201804092252 METAR KATL 092252Z 12005KT 10SM FEW022 BKN040 BKN150 14/10 A3004 RMK AO2 SLP174 T01390100=
201804092152 METAR KATL 092152Z 09006KT 10SM FEW022 SCT030 BKN045 BKN150 14/10 A3003 RMK AO2 SLP171 T01440100=
201804092052 METAR KATL 092052Z 10005KT 10SM SCT020 BKN030 BKN140 14/10 A3002 RMK AO2 SLP167 ACC NE-SE & SW-NW T01390100 56009=
201804092020 SPECI KATL 092020Z 08009KT 10SM FEW020 BKN030 BKN150 14/10 A3002 RMK AO2 T01390100=
201804091952 METAR KATL 091952Z VRB05KT 10SM BKN020 BKN030 BKN150 14/10 A3003 RMK AO2 SLP168 T01440100=
201804091915 SPECI KATL 091915Z 05008KT 10SM FEW010 SCT015 BKN025 13/11 A3002 RMK AO2 T01330106=
201804091852 METAR KATL 091852Z VRB05KT 9SM BKN010 BKN015 BKN020 12/10 A3004 RMK AO2 SLP172 T01220100=
201804091752 METAR KATL 091752Z 15005KT 8SM OVC009 11/10 A3005 RMK AO2 SLP177 60002 T01110100 10117 20083 50008=
201804091652 METAR KATL 091652Z VRB03KT 8SM FEW005 BKN007 OVC010 11/10 A3005 RMK AO2 SLP177 T01110100=
201804091552 METAR KATL 091552Z 03007KT 7SM OVC007 11/09 A3005 RMK AO2 SLP175 T01060094=
201804091452 METAR KATL 091452Z 05006KT 6SM BR BKN005 BKN007 OVC010 10/09 A3003 RMK AO2 DZE18 SLP170 P0000 60002 T01000089 51017=
201804091352 METAR KATL 091352Z 05006KT 4SM -DZ BR FEW005 BKN007 OVC010 09/09 A3002 RMK AO2 DZE02B49RAB02E22 SLP167 P0002 T00940089=
201804091305 SPECI KATL 091305Z 36007KT 2 1/2SM -RA BR OVC005 09/08 A3001 RMK AO2 DZE02RAB02 CIG 003V006 P0001 T00890083=
201804091252 METAR KATL 091252Z 02006KT 2 1/2SM -DZ BR OVC004 09/08 A3001 RMK AO2 RAE45DZB45 SLP164 P0000 T00890083=
201804091209 SPECI KATL 091209Z 10006KT 2 1/2SM -RA BR BKN004 OVC033 08/08 A2999 RMK AO2 P0000 T00830083=
201804091152 METAR KATL 091152Z 09007KT 3SM -RA BR BKN004 OVC033 08/08 A2998 RMK AO2 SLP152 P0005 60008 70008 T00830078 10100 20078 53007=
201804091148 SPECI KATL 091148Z 07007KT 3SM -RA BR BKN004 BKN026 OVC035 08/08 A2998 RMK AO2 P0005=
201804091052 METAR KATL 091052Z 07006KT 3SM -RA BR OVC006 08/08 A2996 RMK AO2 RAE09B26 SLP147 CIG 005V009 P0002 T00830078=
201804091026 SPECI KATL 091026Z 07008KT 5SM -RA BR OVC008 08/07 A2996 RMK AO2 RAE09B26 CIG 006V010 P0001 T00830072=
201804091003 SPECI KATL 091003Z 07007KT 4SM -RA BR FEW006 OVC011 08/07 A2995 RMK AO2 P0000 T00830072=
201804090952 METAR KATL 090952Z 07006KT 4SM -RA BR BKN012 OVC022 08/07 A2995 RMK AO2 RAB19 SLP144 P0001 T00830072=
201804090930 SPECI KATL 090930Z 09004KT 6SM -RA BR BKN013 OVC021 08/07 A2995 RMK AO2 RAB19 P0000 T00830072=
201804090852 METAR KATL 090852Z 09006KT 9SM OVC017 08/07 A2996 RMK AO2 RAB06E35 SLP144 P0000 60000 T00830067 56003=
201804090752 METAR KATL 090752Z 08006KT 10SM OVC021 09/06 A2996 RMK AO2 SLP144 T00940061=
201804090720 SPECI KATL 090720Z 09007KT 10SM BKN029 OVC045 09/06 A2996 RMK AO2 T00940056=
201804090652 METAR KATL 090652Z 11008KT 10SM OVC049 09/06 A2996 RMK AO2 SLP147 T00940056=
201804090552 METAR KATL 090552Z 11006KT 10SM FEW027 BKN055 OVC070 10/06 A2997 RMK AO2 SLP149 T01000056 10111 20100 56004=
201804090501 SPECI KATL 090501Z 12006KT 10SM SCT027 BKN055 OVC070 10/05 A2997 RMK AO2 T01000050=
201804090452 METAR KATL 090452Z 11008KT 10SM BKN027 BKN050 OVC070 10/05 A2997 RMK AO2 SLP150 T01000050 401280033=
201804090352 METAR KATL 090352Z 11005KT 10SM OVC070 10/06 A2997 RMK AO2 SLP151 T01000056=
201804090252 METAR KATL 090252Z 12005KT 10SM BKN075 BKN150 BKN250 10/05 A2998 RMK AO2 SLP154 T01000050 50010=
201804090152 METAR KATL 090152Z 13005KT 10SM FEW075 BKN150 BKN250 10/05 A2998 RMK AO2 SLP155 T01000050=
201804090052 METAR KATL 090052Z 13006KT 10SM BKN180 BKN250 11/04 A2996 RMK AO2 SLP150 T01060044=
201804082352 METAR KATL 082352Z 12006KT 10SM FEW110 BKN180 BKN250 11/04 A2995 RMK AO2 SLP145 ACC N-E & DSNT W T01110039 10128 20100 56002=
201804082252 METAR KATL 082252Z 13007KT 10SM FEW034 BKN180 BKN250 12/04 A2995 RMK AO2 SLP146 T01220044=
201804082152 METAR KATL 082152Z 11008KT 10SM FEW032 BKN180 BKN250 12/05 A2995 RMK AO2 SLP145 T01170050=
201804082052 METAR KATL 082052Z 10005KT 10SM SCT030 BKN200 12/06 A2996 RMK AO2 SLP147 T01220056 56012=
201804081952 METAR KATL 081952Z 11008KT 050V140 10SM BKN031 BKN200 12/05 A2996 RMK AO2 SLP149 T01170050=
201804081852 METAR KATL 081852Z 10007KT 10SM BKN031 12/05 A2997 RMK AO2 SLP152 T01170050=
201804081825 SPECI KATL 081825Z 12005KT 10SM BKN031 11/04 A2998 RMK AO2 T01060044=
201804081752 METAR KATL 081752Z 14004KT 10SM BKN025 BKN031 10/04 A2999 RMK AO2 SLP159 T01000044 10100 20033 58007=
201804081727 SPECI KATL 081727Z 13005KT 10SM SCT021 BKN031 09/04 A3000 RMK AO2 T00940044=
201804081652 METAR KATL 081652Z VRB06KT 10SM BKN019 BKN031 09/05 A2999 RMK AO2 SLP161 T00890050=
201804081552 METAR KATL 081552Z 10SM BKN016 OVC030 07/04 A3002 RMK AO2 SLP170 T00720044 $=
201804081452 METAR KATL 081452Z VRB03KT 10SM OVC014 06/03 A3001 RMK AO2 SLP167 T00610033 51018 $=
201804081352 METAR KATL 081352Z 36006KT 10SM OVC014 05/02 A3000 RMK AO2 SLP163 T00500017 $=
201804081252 METAR KATL 081252Z 33008KT 10SM OVC013 04/01 A2998 RMK AO2 SLP158 T00390011 $=
201804081215 SPECI KATL 081215Z 33007KT 10SM OVC014 03/01 A2997 RMK AO2 T00330006 $=
201804081152 METAR KATL 081152Z 31007KT 10SM OVC015 03/01 A2996 RMK AO2 SLP149 70002 T00330011 10039 20033 51013 $=
201804081052 METAR KATL 081052Z 32009KT 10SM OVC015 03/01 A2995 RMK AO2 SLP145 T00330006 $=
201804080952 METAR KATL 080952Z 31010KT 10SM OVC015 03/01 A2993 RMK AO2 SLP139 T00330006 $=
201804080852 METAR KATL 080852Z 32010KT 10SM OVC015 03/01 A2992 RMK AO2 SLP134 T00330006 53010 $=
201804080752 METAR KATL 080752Z 33010G16KT 10SM BKN015 BKN110 03/01 A2991 RMK AO2 SLP129 T00330011 $=
201804080652 METAR KATL 080652Z 32011KT 10SM BKN015 BKN110 04/01 A2990 RMK AO2 SLP126 T00390011 $=
201804080552 METAR KATL 080552Z 32012KT 10SM BKN015 BKN110 BKN250 04/02 A2989 RMK AO2 SLP122 60002 T00390017 10083 20039 51005 $=
201804080550 SPECI KATL 080550Z 32012KT 10SM BKN015 BKN110 BKN250 04/02 A2989 RMK AO2 $=
201804080452 METAR KATL 080452Z 32018G25KT 10SM BKN014 BKN110 BKN200 04/02 A2988 RMK AO2 PK WND 32027/0433 RAE0354 SLP120 P0000 T00390017 401560039 $=
201804080352 METAR KATL 080352Z 32017G22KT 10SM -RA OVC011 05/03 A2988 RMK AO2 PK WND 32026/0332 RAE00B38 SLP120 P0000 T00500033 $=
201804080340 SPECI KATL 080340Z 31018G26KT 10SM -RA BKN011 OVC020 05/03 A2988 RMK AO2 PK WND 32026/0332 RAE00B38 P0000 T00500033 $=
201804080252 METAR KATL 080252Z 31016KT 10SM -RA BKN008 OVC017 06/04 A2987 RMK AO2 RAE00B18 SLP117 CIG 006V010 P0000 60002 T00560044 51030 $=
201804080207 SPECI KATL 080207Z 31015G21KT 10SM OVC008 06/06 A2985 RMK AO2 RAE00 CIG 007V010 P0000 T00610056 $=
201804080152 METAR KATL 080152Z 31013G20KT 9SM -RA BKN011 OVC060 07/06 A2985 RMK AO2 RAB10 SLP109 CIG 009V013 P0002 T00670056 $=
201804080135 SPECI KATL 080135Z 31012KT 8SM -RA BKN011 OVC060 07/06 A2984 RMK AO2 RAB10 P0002 T00670056 $=
201804080052 METAR KATL 080052Z 31014KT 10SM OVC011 07/05 A2981 RMK AO2 RAE08 SLP094 BINOVC P0000 T00720050 $=
201804080021 SPECI KATL 080021Z 31014G22KT 10SM BKN012 BKN100 OVC200 08/06 A2979 RMK AO2 RAE08 P0000 T00780061 $=
201804072352 METAR KATL 072352Z 33014KT 9SM -RA FEW014 SCT070 OVC100 08/07 A2978 RMK AO2 RAB2253 SLP085 P0000 60000 T00830067 10150 20083 58002 $=
201804072252 METAR KATL 072252Z 32014KT 10SM FEW016 BKN100 OVC200 09/06 A2979 RMK AO2 SLP089 SHRA SW-NW-N T00940061 $=
201804072216 SPECI KATL 072216Z 32012KT 10SM SCT014 BKN100 BKN200 11/07 A2979 RMK AO2 T01060072 $=
201804072152 METAR KATL 072152Z 31018G24KT 10SM BKN014 OVC080 11/07 A2979 RMK AO2 SLP086 T01060072 $=
201804072150 SPECI KATL 072150Z 31019G24KT 10SM BKN014 OVC080 11/08 A2979 RMK AO2 $=
201804072103 SPECI KATL 072103Z 31016KT 10SM BKN018 BKN080 BKN250 13/09 A2977 RMK AO2 T01280089 $=
201804072052 METAR KATL 072052Z 33016G22KT 10SM SCT017 BKN250 13/09 A2977 RMK AO2 SLP079 T01330094 55006 $=
201804072025 SPECI KATL 072025Z 30015G21KT 10SM BKN016 13/10 A2977 RMK AO2 T01330100 $=
201804071952 METAR KATL 071952Z 33012KT 10SM OVC011 13/11 A2975 RMK AO2 SLP073 BINOVC T01330111 $=
201804071852 METAR KATL 071852Z 33011KT 10SM OVC012 14/12 A2976 RMK AO2 SLP077 T01390117 $=
201804071752 METAR KATL 071752Z 32011KT 10SM OVC014 14/12 A2979 RMK AO2 SLP084 60000 T01440122 10156 20133 50002 $=
201804071736 SPECI KATL 071736Z 33011KT 10SM OVC012 15/13 A2979 RMK AO2 T01500128 $=
201804071720 SPECI KATL 071720Z 32010KT 10SM OVC016 16/13 A2979 RMK AO2 T01560128 $=
201804071652 METAR KATL 071652Z 29006KT 10SM OVC013 15/13 A2979 RMK AO2 SLP086 T01500128 $=
201804071552 METAR KATL 071552Z VRB03KT 10SM OVC012 15/13 A2978 RMK AO2 SLP083 T01500128 $=
201804071526 SPECI KATL 071526Z 32007KT 10SM FEW008 BKN011 OVC031 14/13 A2978 RMK AO2 T01440128 $=
201804071452 METAR KATL 071452Z 33007KT 7SM OVC007 14/13 A2978 RMK AO2 DZE29 SLP082 P0000 60000 T01390133 50002 $=
201804071352 METAR KATL 071352Z 33009KT 3SM -DZ BR BKN006 OVC011 13/13 A2980 RMK AO2 SFC VIS 4 RAE04DZB25 SLP087 CIG 004V008 P0000 T01330133 $=
201804071257 SPECI KATL 071257Z 28005KT 3SM -RA BR BKN006 BKN014 OVC033 14/14 A2978 RMK AO2 SFC VIS 5 CIG 004V008 P0000 T01440139 $=
201804071252 METAR KATL 071252Z 00000KT 3SM -RA BR SCT009 BKN014 OVC033 14/14 A2978 RMK AO2 SFC VIS 4 RAE13B46 SLP080 BKN014 V SCT P0000 T01390139 $=
201804071205 SPECI KATL 071205Z 20003KT 8SM -RA FEW008 BKN014 OVC060 14/13 A2977 RMK AO2 P0000 T01390133=
201804071152 METAR KATL 071152Z 19003KT 8SM -RA FEW008 SCT012 BKN060 OVC130 14/13 A2978 RMK AO2 RAB02 SLP080 P0002 60003 70005 T01390133 10150 20133 53005=
201804071127 SPECI KATL 071127Z 18004KT 8SM -RA FEW008 SCT015 BKN060 OVC130 14/13 A2977 RMK AO2 RAB02 P0000 T01390128=
201804071105 SPECI KATL 071105Z 21004KT 10SM -RA FEW008 BKN018 BKN060 OVC130 14/12 A2977 RMK AO2 RAB02 BKN018 V SCT P0000 T01390122=
201804071052 METAR KATL 071052Z 21006KT 10SM FEW008 FEW030 BKN065 OVC130 14/12 A2977 RMK AO2 RAB41E52 SLP074 P0000 T01390122=
201804070952 METAR KATL 070952Z 15004KT 10SM FEW008 SCT040 OVC065 13/12 A2976 RMK AO2 RAB02E26 SLP074 P0000 T01330117=
201804070950 SPECI KATL 070950Z 15003KT 10SM FEW008 SCT040 OVC065 13/12 A2976 RMK AO2 RAB02E26 P0000=
201804070852 METAR KATL 070852Z 12004KT 10SM FEW010 OVC055 13/11 A2977 RMK AO2 RAE30 SLP075 P0001 60001 T01330106 58026=
201804070752 METAR KATL 070752Z 17003KT 10SM -RA FEW050 OVC090 13/11 A2981 RMK AO2 RAB0656 SLP089 P0000 T01330111=
201804070652 METAR KATL 070652Z 26004KT 10SM FEW050 BKN080 OVC090 14/09 A2985 RMK AO2 RAB20E49 SLP102 P0000 T01390089=
201804070552 METAR KATL 070552Z 00000KT 10SM FEW050 OVC100 15/08 A2985 RMK AO2 SLP104 60000 T01500083 10178 20144 57007=
201804070452 METAR KATL 070452Z 31006KT 10SM FEW050 SCT080 OVC095 15/09 A2986 RMK AO2 SLP108 T01500089 402330100=
201804070352 METAR KATL 070352Z 33004KT 10SM BKN100 BKN120 OVC150 16/08 A2986 RMK AO2 SLP107 T01610083=
201804070252 METAR KATL 070252Z 34007KT 10SM BKN100 BKN120 OVC150 17/10 A2987 RMK AO2 SLP112 60000 T01670100 55002=
201804070152 METAR KATL 070152Z 00000KT 10SM BKN090 OVC200 18/09 A2987 RMK AO2 SLP112 T01780094=
201804070052 METAR KATL 070052Z 00000KT 10SM FEW080 BKN110 BKN200 17/11 A2987 RMK AO2 RAE2359 SLP113 P0000 T01720106=
201804062352 METAR KATL 062352Z 32006KT 10SM -RA FEW050 SCT075 BKN100 OVC200 17/11 A2988 RMK AO2 RAB17 SLP115 P0001 60002 T01720106 10233 20172 58010=
201804062252 METAR KATL 062252Z 20011G16KT 10SM FEW045 SCT070 BKN100 OVC200 20/08 A2989 RMK AO2 RAE07B45E52 SLP121 P0000 T02000083=
201804062152 METAR KATL 062152Z 22010KT 9SM -RA FEW060 BKN080 BKN100 OVC200 20/07 A2991 RMK AO2 RAB42 SLP126 P0001 T02000072=
201804062052 METAR KATL 062052Z 17016G19KT 10SM SCT070 BKN100 BKN200 23/04 A2991 RMK AO2 SLP123 T02330044 58035=
201804061952 METAR KATL 061952Z 20007KT 10SM FEW070 SCT090 BKN250 22/06 A2995 RMK AO2 SLP138 T02220056=
201804061852 METAR KATL 061852Z 24010KT 10SM SCT070 BKN110 BKN250 21/04 A2998 RMK AO2 SLP150 T02110044=
201804061752 METAR KATL 061752Z 18009KT 10SM SCT075 BKN090 BKN250 21/03 A3001 RMK AO2 SLP160 T02060033 10211 20106 58025=
201804061652 METAR KATL 061652Z 17007KT 10SM SCT080 SCT150 BKN250 20/03 A3004 RMK AO2 SLP170 T02000028=
201804061552 METAR KATL 061552Z 22006KT 10SM FEW100 FEW150 BKN250 18/03 A3007 RMK AO2 SLP181 T01830033=
201804061452 METAR KATL 061452Z 21007KT 10SM FEW100 SCT150 BKN250 16/04 A3009 RMK AO2 SLP187 ACC SE-S T01610044 58003=
201804061352 METAR KATL 061352Z 21004KT 10SM BKN100 BKN150 BKN250 14/04 A3010 RMK AO2 SLP192 T01390044=
201804061252 METAR KATL 061252Z 20006KT 10SM SCT095 SCT150 BKN250 13/03 A3011 RMK AO2 SLP193 ACC SW-NW T01280033=
201804061152 METAR KATL 061152Z 21003KT 10SM BKN090 BKN150 BKN250 11/02 A3010 RMK AO2 SLP190 ACC SW-W T01110017 10122 20100 53009=
201804061052 METAR KATL 061052Z 24003KT 10SM SCT100 SCT150 SCT250 11/02 A3008 RMK AO2 SLP184 T01060017=
201804060952 METAR KATL 060952Z 15003KT 10SM FEW095 SCT150 SCT250 11/02 A3007 RMK AO2 SLP182 T01110017=
201804060852 METAR KATL 060852Z 22004KT 10SM SCT100 BKN150 BKN250 12/02 A3007 RMK AO2 SLP180 T01170017 58007=
201804060752 METAR KATL 060752Z 20003KT 10SM BKN095 BKN150 BKN250 11/02 A3008 RMK AO2 SLP184 T01110017=
201804060652 METAR KATL 060652Z 00000KT 10SM SCT095 BKN150 BKN250 12/01 A3009 RMK AO2 SLP186 T01170011=
201804060552 METAR KATL 060552Z 19004KT 10SM FEW150 FEW250 12/01 A3009 RMK AO2 SLP187 T01220011 10172 20117 55003=
201804060452 METAR KATL 060452Z 18003KT 10SM FEW150 SCT250 12/01 A3009 RMK AO2 SLP188 T01220011 401890033=
201804060352 METAR KATL 060352Z 20003KT 10SM FEW250 13/01 A3010 RMK AO2 SLP190 T01280011=
201804060252 METAR KATL 060252Z 15005KT 10SM SCT250 14/00 A3010 RMK AO2 SLP192 T01390000 58003=
201804060152 METAR KATL 060152Z 16003KT 10SM BKN250 16/01 A3012 RMK AO2 SLP198 T01560006=
201804060052 METAR KATL 060052Z 17003KT 10SM BKN250 16/01 A3011 RMK AO2 SLP197 T01610006=
201804052352 METAR KATL 052352Z 19003KT 10SM BKN250 17/M01 A3011 RMK AO2 SLP196 T01721011 10189 20167 55004=
201804052252 METAR KATL 052252Z 18007KT 10SM BKN250 18/M03 A3010 RMK AO2 SLP194 T01831033=
201804052152 METAR KATL 052152Z 00000KT 10SM BKN250 19/M03 A3010 RMK AO2 SLP195 T01891033=
201804052052 METAR KATL 052052Z 18004KT 10SM BKN250 18/M04 A3012 RMK AO2 SLP200 T01831044 56025=
201804051952 METAR KATL 051952Z 00000KT 10SM BKN250 18/M05 A3014 RMK AO2 SLP208 T01831050=
201804051852 METAR KATL 051852Z 21004KT 10SM BKN250 18/M02 A3017 RMK AO2 SLP216 T01781017=
201804051752 METAR KATL 051752Z 08003KT 10SM FEW250 17/M02 A3019 RMK AO2 SLP225 T01671022 10167 20039 58017=
201804051652 METAR KATL 051652Z VRB03KT 10SM FEW250 14/M03 A3022 RMK AO2 SLP235 T01441028=
201804051552 METAR KATL 051552Z 00000KT 10SM FEW250 13/M02 A3025 RMK AO2 SLP244 T01331017=
201804051452 METAR KATL 051452Z 12004KT 10SM FEW250 12/M02 A3024 RMK AO2 SLP243 T01171022 51013=
201804051352 METAR KATL 051352Z VRB03KT 10SM FEW250 09/M02 A3024 RMK AO2 SLP240 T00891022=
201804051252 METAR KATL 051252Z 35006KT 10SM FEW250 06/M01 A3023 RMK AO2 SLP237 T00611011=
201804051152 METAR KATL 051152Z 32007KT 10SM FEW250 04/M01 A3020 RMK AO2 SLP231 T00391011 10072 20033 53018=
201804051052 METAR KATL 051052Z 34008KT 10SM FEW200 04/M02 A3018 RMK AO2 SLP222 T00391017=
201804050952 METAR KATL 050952Z 34008KT 10SM CLR 04/M02 A3016 RMK AO2 SLP215 T00441017=
201804050852 METAR KATL 050852Z 33007KT 10SM CLR 04/M02 A3015 RMK AO2 SLP211 T00441017 58007=
201804050752 METAR KATL 050752Z 32008KT 10SM CLR 05/M02 A3016 RMK AO2 SLP214 T00501017=
201804050652 METAR KATL 050652Z 33009KT 10SM CLR 06/M02 A3017 RMK AO2 SLP218 T00611017=
201804050552 METAR KATL 050552Z 33009KT 10SM CLR 07/M02 A3017 RMK AO2 SLP217 T00721022 10139 20072 53006=
201804050452 METAR KATL 050452Z 33010KT 10SM CLR 08/M02 A3016 RMK AO2 SLP214 T00831022 402110083=
201804050352 METAR KATL 050352Z 34009KT 10SM CLR 09/M02 A3016 RMK AO2 SLP213 T00891017=
201804050252 METAR KATL 050252Z 34009KT 10SM CLR 10/M02 A3015 RMK AO2 SLP210 T01001017 53021=
201804050152 METAR KATL 050152Z 33013KT 10SM CLR 12/M02 A3012 RMK AO2 SLP200 T01171022=
201804050052 METAR KATL 050052Z 33012KT 10SM CLR 13/M03 A3010 RMK AO2 SLP192 T01281033=
201804042352 METAR KATL 042352Z 33014KT 10SM CLR 14/M03 A3009 RMK AO2 PK WND 31026/2300 SLP186 T01391033 10167 20133 53012=
201804042252 METAR KATL 042252Z 32016G25KT 10SM FEW250 16/M03 A3007 RMK AO2 PK WND 32027/2233 SLP180 T01561033=
201804042152 METAR KATL 042152Z 30013KT 10SM FEW200 16/00 A3005 RMK AO2 SLP172 T01610000=
201804042052 METAR KATL 042052Z 32015G23KT 10SM FEW200 16/02 A3005 RMK AO2 PK WND 32027/2041 SLP174 T01560017 58001=
201804041952 METAR KATL 041952Z 33016G21KT 10SM FEW200 FEW250 15/02 A3005 RMK AO2 SLP175 T01500017=
201804041852 METAR KATL 041852Z 31019G24KT 10SM FEW150 SCT180 BKN250 13/02 A3006 RMK AO2 PK WND 34026/1812 SLP174 VIRGA DSNT S T01330022=
201804041752 METAR KATL 041752Z 33019G26KT 10SM BKN150 BKN250 13/00 A3005 RMK AO2 PK WND 31026/1744 SLP173 VIRGA N-NE & SW-NW 60000 T01330000 10161 20122 50010=
201804041652 METAR KATL 041652Z 33018G22KT 10SM FEW030 SCT150 BKN250 13/01 A3005 RMK AO2 SLP173 T01330011=
201804041552 METAR KATL 041552Z 32018G24KT 10SM FEW020 SCT150 BKN250 13/03 A3004 RMK AO2 PK WND 33028/1501 SLP170 T01280028=
201804041452 METAR KATL 041452Z 32020G27KT 10SM FEW018 BKN150 OVC250 13/07 A3002 RMK AO2 PK WND 33027/1447 SLP162 60000 T01280067 53028=
201804041435 SPECI KATL 041435Z 33014G22KT 10SM FEW015 SCT020 SCT150 OVC250 13/10 A3002 RMK AO2 T01330100=
201804041352 METAR KATL 041352Z 30014G22KT 8SM BKN010 BKN020 OVC150 13/12 A3000 RMK AO2 SLP152 T01330117=
201804041347 SPECI KATL 041347Z 30015G22KT 8SM BKN010 BKN020 OVC150 13/12 A2999 RMK AO2=
201804041310 SPECI KATL 041310Z 32014G23KT 10SM FEW015 SCT027 BKN150 OVC200 14/13 A2997 RMK AO2 T01440128=
201804041252 METAR KATL 041252Z 30015KT 10SM SCT008 SCT014 BKN026 OVC180 14/13 A2996 RMK AO2 RAB29E40 SLP139 CIG 013V018 P0000 T01440128=
201804041232 SPECI KATL 041232Z 30016G25KT 10SM -RA SCT008 OVC015 16/14 A2995 RMK AO2 RAB29 CIG 013V018 P0000 T01560139=
201804041217 SPECI KATL 041217Z 27011KT 8SM BKN008 BKN015 OVC027 16/16 A2994 RMK AO2 CIG 006V010 T01560156=
201804041157 SPECI KATL 041157Z 27009KT 7SM FEW006 BKN021 BKN100 OVC150 16/16 A2993 RMK AO2 T01560156=
201804041152 METAR KATL 041152Z 27009KT 6SM BR FEW006 SCT021 BKN100 OVC150 16/16 A2994 RMK AO2 SLP132 60023 70023 T01560156 10211 20156 53007=
201804041052 METAR KATL 041052Z 26007KT 10SM FEW006 SCT110 OVC150 16/16 A2991 RMK AO2 SLP121 T01560156=
201804040952 METAR KATL 040952Z 24008KT 10SM FEW004 FEW070 BKN110 OVC150 16/16 A2991 RMK AO2 RAE37 SLP122 P0011 T01560156=
201804040852 METAR KATL 040852Z 25006KT 7SM -RA BKN080 OVC100 16/16 A2992 RMK AO2 SLP124 P0004 60012 T01560156 53010 $=
201804040752 METAR KATL 040752Z 27007KT 10SM -RA FEW028 BKN060 BKN075 OVC130 16/15 A2990 RMK AO2 PK WND 28031/0704 WSHFT 0655 SLP119 RAB07TSB15E33 TS DSIPTD CB DSNT E-S P0008 T01610150 $=
201804040736 SPECI KATL 040736Z 29011KT 9SM -RA FEW020 BKN055 OVC075 16/15 A2991 RMK AO2 PK WND 28031/0704 WSHFT 0655 RAB07TSB15E33 TS DSIPTD CB DSNT E-SE AND S P0008 T01610150 $=
201804040719 SPECI KATL 040719Z 30010G25KT 4SM -TSRA BR SCT020CB BKN035 BKN055 BKN250 17/15 A2992 RMK AO2 PK WND 28031/0704 WSHFT 0655 RAB07TSB15 OCNL LTGIC SW-NW-NE TS SW-NW-NE MOV E P0006 T01720150 $=
201804040709 SPECI KATL 040709Z 30016G31KT 7SM -RA SCT023CB BKN035 BKN045 BKN250 20/14 A2992 RMK AO2 PK WND 28031/0704 WSHFT 0655 RAB07 PRESRR CB OHD-SW-NW-NE MOV E P0000 T02000144=
201804040652 METAR KATL 040652Z 22012G20KT 10SM FEW015CB BKN035 BKN150 BKN250 21/17 A2987 RMK AO2 SLP108 CB VC W-N MOV E SHRA VC W-N T02060167=
201804040552 METAR KATL 040552Z 22013G21KT 10SM FEW070 BKN200 BKN250 21/16 A2989 RMK AO2 SLP112 T02060156 10250 20206 50001=
201804040452 METAR KATL 040452Z 22013G21KT 10SM FEW070 SCT200 BKN250 22/14 A2991 RMK AO2 SLP119 T02170144 402670144=
201804040352 METAR KATL 040352Z 23009G18KT 10SM FEW070 SCT200 SCT250 22/14 A2992 RMK AO2 SLP124 T02170144=
201804040252 METAR KATL 040252Z 20008KT 10SM SCT250 22/14 A2988 RMK AO2 SLP113 T02170139 56001=
201804040152 METAR KATL 040152Z 20008KT 10SM FEW250 23/14 A2989 RMK AO2 SLP115 T02280139=
201804040052 METAR KATL 040052Z 19006KT 10SM FEW150 FEW250 23/14 A2988 RMK AO2 SLP112 T02330139=
201804032352 METAR KATL 032352Z 20009KT 10SM FEW045 FEW250 25/13 A2989 RMK AO2 SLP114 T02500133 10267 20239 56015=
201804032252 METAR KATL 032252Z 22013G21KT 10SM FEW045 FEW070 SCT250 26/14 A2990 RMK AO2 SLP119 T02610139=
201804032152 METAR KATL 032152Z 23011G17KT 10SM FEW045 SCT070 BKN200 26/15 A2991 RMK AO2 SLP123 T02610150=
201804032052 METAR KATL 032052Z 23012KT 10SM FEW045 SCT070 SCT200 26/15 A2993 RMK AO2 SLP130 MDT CU N & SE & SW T02560150 56019=
201804031952 METAR KATL 031952Z 23011KT 10SM SCT050 BKN070 BKN200 26/16 A2995 RMK AO2 SLP134 T02610156=
201804031852 METAR KATL 031852Z 21009G20KT 10SM FEW045 BKN055 BKN200 24/16 A2997 RMK AO2 SLP142 T02440156=
201804031752 METAR KATL 031752Z 21010G15KT 10SM BKN040 BKN050 BKN200 24/16 A2999 RMK AO2 SLP149 60000 T02390161 10239 20150 58013=
201804031652 METAR KATL 031652Z 21014G18KT 10SM BKN030 BKN040 BKN200 23/16 A3001 RMK AO2 SLP156 T02330161=
201804031552 METAR KATL 031552Z 20008G16KT 10SM BKN025 BKN040 BKN180 21/16 A3003 RMK AO2 SLP163 T02110161=
201804031452 METAR KATL 031452Z 20007KT 180V240 10SM BKN018 BKN025 BKN200 19/16 A3003 RMK AO2 SLP162 60000 T01940161 50009=
201804031429 SPECI KATL 031429Z VRB06KT 10SM BKN015 19/16 A3003 RMK AO2 T01890161=
201804031352 METAR KATL 031352Z 23008KT 7SM OVC010 17/16 A3003 RMK AO2 SLP164 T01720161=
201804031323 SPECI KATL 031323Z 22006KT 6SM BR OVC006 17/16 A3002 RMK AO2 CIG 002V005 TWRINC T01670161=
201804031258 SPECI KATL 031258Z 23009KT 1 1/4SM BR OVC004 16/16 A3001 RMK AO2 SFC VIS 5 CIG 002V005 TWRINC T01610161=
201804031252 METAR KATL 031252Z 23006KT 1/4SM R09R/P6000FT BR OVC004 16/16 A3001 RMK AO2 SFC VIS 3 DZB15E50 SLP158 CIG 002V005 TWRINC P0000 T01560156=
201804031157 SPECI KATL 031157Z 22007KT 1/4SM R09R/4000VP6000FT BR OVC003 15/15 A3000 RMK AO2 SFC VIS 1 TWRINC T01500150=
201804031152 METAR KATL 031152Z 22007KT 1/4SM R09R/6000VP6000FT BR OVC004 15/15 A3000 RMK AO2 SFC VIS 1 1/2 SLP153 CIG 003V006 TWRINC T01500150 10167 20144 53008=
201804031143 SPECI KATL 031143Z 22009KT 1/4SM R09R/P6000FT BR OVC004 15/15 A3000 RMK AO2 SFC VIS 4 CIG 003V006 TWRINC T01500150=
201804031122 SPECI KATL 031122Z 18004KT 7SM BKN006 15/14 A2999 RMK AO2 BKN006 V SCT T01500139=
201804031052 METAR KATL 031052Z 18004KT 10SM FEW006 FEW200 SCT250 15/13 A2998 RMK AO2 SLP147 T01500133=
201804030952 METAR KATL 030952Z 18004KT 10SM FEW050 SCT250 15/13 A2997 RMK AO2 SLP144 T01500128=
201804030852 METAR KATL 030852Z 21004KT 10SM FEW050 BKN250 15/12 A2998 RMK AO2 SLP144 T01500122 55002=
201804030752 METAR KATL 030752Z 19004KT 10SM FEW050 SCT250 16/11 A2997 RMK AO2 SLP142 T01610106=
201804030652 METAR KATL 030652Z 00000KT 10SM FEW050 SCT250 16/09 A2998 RMK AO2 SLP146 T01610089=
201804030552 METAR KATL 030552Z 00000KT 10SM FEW050 SCT250 16/08 A2998 RMK AO2 SLP145 T01610083 10233 20161 58003=
201804030452 METAR KATL 030452Z 00000KT 10SM FEW250 17/08 A3000 RMK AO2 SLP151 T01670078 402720133=
201804030352 METAR KATL 030352Z 22004KT 10SM FEW250 18/07 A3000 RMK AO2 SLP152 T01780067=
201804030252 METAR KATL 030252Z 23005KT 10SM FEW250 19/06 A2999 RMK AO2 SLP150 T01890056 53010=
201804030152 METAR KATL 030152Z 22006KT 10SM FEW250 21/04 A2998 RMK AO2 SLP146 T02060039=
201804030052 METAR KATL 030052Z 22004KT 10SM FEW200 21/04 A2996 RMK AO2 SLP141 T02110044=
201804022352 METAR KATL 022352Z 22007KT 8SM SCT180 SCT250 23/03 A2996 RMK AO2 SLP140 VIS LWR FU T02330033 10272 20233 53004=
201804022252 METAR KATL 022252Z 22009KT 10SM FEW200 BKN250 24/03 A2995 RMK AO2 SLP135 T02440033=
201804022152 METAR KATL 022152Z 21009G15KT 10SM BKN250 26/03 A2994 RMK AO2 SLP133 T02560033=
201804022052 METAR KATL 022052Z 23006KT 10SM BKN250 27/01 A2995 RMK AO2 SLP136 T02670006 56019=
201804021952 METAR KATL 021952Z 21005G17KT 10SM SCT250 26/03 A2996 RMK AO2 SLP139 T02610028=
201804021852 METAR KATL 021852Z 21010KT 10SM SCT250 26/06 A2999 RMK AO2 SLP148 T02560056=
201804021752 METAR KATL 021752Z 21008KT 10SM BKN250 26/09 A3001 RMK AO2 SLP154 T02560089 10256 20133 58008=
201804021652 METAR KATL 021652Z 19006KT 10SM FEW180 BKN240 BKN280 23/09 A3003 RMK AO2 SLP162 T02330094=
201804021552 METAR KATL 021552Z 24008KT 10SM FEW010 SCT200 BKN250 23/09 A3004 RMK AO2 SLP165 FU FEW010 T02280089=
201804021452 METAR KATL 021452Z 26009KT 10SM BKN250 22/08 A3003 RMK AO2 SLP163 T02170083 51003=
201804021352 METAR KATL 021352Z 26006KT 10SM BKN250 20/09 A3003 RMK AO2 SLP163 T02000094=
201804021252 METAR KATL 021252Z 25004KT 10SM FEW110 SCT220 BKN250 16/09 A3003 RMK AO2 SLP164 T01610094=
201804021152 METAR KATL 021152Z 23003KT 10SM FEW110 SCT200 BKN250 13/08 A3002 RMK AO2 SLP162 T01330083 10161 20133 53009=
201804021052 METAR KATL 021052Z 23007KT 10SM FEW110 SCT250 14/08 A3001 RMK AO2 SLP156 T01390078=
201804020952 METAR KATL 020952Z 23005KT 10SM SCT120 SCT250 14/08 A3000 RMK AO2 SLP151 T01390078=
201804020852 METAR KATL 020852Z 23005KT 10SM SCT120 SCT250 14/07 A3000 RMK AO2 SLP151 T01440072 58009=
201804020752 METAR KATL 020752Z 23006KT 10SM SCT120 16/07 A3001 RMK AO2 SLP156 T01560072=
201804020652 METAR KATL 020652Z 28004KT 10SM SCT120 SCT250 16/06 A3002 RMK AO2 SLP160 T01560061=
201804020552 METAR KATL 020552Z 00000KT 10SM FEW140 SCT250 16/06 A3002 RMK AO2 SLP160 T01610061 10228 20161 55004=
201804020452 METAR KATL 020452Z 20006KT 10SM FEW140 SCT250 17/06 A3002 RMK AO2 SLP160 T01670061 402500083=
201804020352 METAR KATL 020352Z 18007KT 10SM SCT150 BKN250 17/07 A3003 RMK AO2 SLP165 T01670072=
201804020252 METAR KATL 020252Z 22006KT 10SM BKN150 BKN250 18/06 A3003 RMK AO2 SLP165 T01830056 53006=
201804020152 METAR KATL 020152Z 21007KT 10SM FEW140 SCT200 SCT250 19/06 A3003 RMK AO2 SLP163 T01940056=
201804020052 METAR KATL 020052Z 23005KT 10SM FEW120 SCT200 BKN250 21/06 A3002 RMK AO2 SLP162 T02060056=
201804012352 METAR KATL 012352Z 23006KT 10SM FEW130 SCT200 BKN250 23/04 A3002 RMK AO2 SLP162 ACC DSNT NW-N T02280044 10250 20228 56009=
201804012252 METAR KATL 012252Z 22006KT 10SM FEW140 BKN200 BKN250 24/04 A3002 RMK AO2 SLP160 T02440044=
201804012152 METAR KATL 012152Z 23008KT 10SM SCT140 BKN200 BKN250 24/06 A3002 RMK AO2 SLP162 T02440056=
201804012052 METAR KATL 012052Z 21008KT 10SM FEW150 BKN210 BKN300 24/06 A3004 RMK AO2 SLP170 T02440056 56027=
201804011952 METAR KATL 011952Z 22007KT 10SM SCT200 BKN250 BKN300 24/07 A3007 RMK AO2 SLP178 T02440067=
201804011852 METAR KATL 011852Z 21004KT 10SM FEW150 SCT250 BKN300 23/06 A3009 RMK AO2 SLP188 T02280056=
201804011752 METAR KATL 011752Z VRB04KT 10SM FEW150 BKN300 23/07 A3013 RMK AO2 SLP198 T02280067 10228 20083 58021=
201804011652 METAR KATL 011652Z 24008KT 10SM FEW150 BKN300 22/07 A3016 RMK AO2 SLP208 T02170067=
201804011552 METAR KATL 011552Z 22004KT 10SM FEW150 BKN300 20/08 A3018 RMK AO2 SLP216 T02000078=
201804011452 METAR KATL 011452Z 24008KT 10SM SCT250 SCT300 18/06 A3019 RMK AO2 SLP221 T01830061 51003=
201804011352 METAR KATL 011352Z 21006KT 10SM FEW200 SCT250 16/07 A3019 RMK AO2 SLP221 T01560067=
201804011252 METAR KATL 011252Z 21003KT 10SM FEW250 12/06 A3018 RMK AO2 SLP219 T01220056=
