##########################################################
# Query made at 04/20/2024 00:00:37 UTC
# Time interval: from 08/01/2018 12:00  to 08/31/2018 12:59  UTC
##########################################################

##########################################################
# KATL, Atlanta, Hartsfield - Jackson Atlanta International Airport (United States)
# WMO index: 72219. WIGOS ID: 0-20000-0-72219
# Latitude 33-38-59N. Longitude 084-25-00W. Altitude 312 m.
##########################################################

201808311252 METAR KATL 311252Z 00000KT 10SM BKN140 BKN250 25/20 A3018 RMK AO2 SLP209 ACC NE-SE T02500200=
201808311152 METAR KATL 311152Z 19004KT 10SM FEW085 BKN140 BKN250 23/21 A3017 RMK AO2 SLP206 ACC N-NE SE DSNT NW T02280206 10239 20222 53011=
201808311052 METAR KATL 311052Z 15003KT 10SM BKN140 BKN200 BKN250 23/21 A3015 RMK AO2 SLP199 VIRGA E ACC N-E-SE T02280206=
201808310952 METAR KATL 310952Z 18003KT 10SM FEW090 BKN130 BKN200 BKN250 22/21 A3015 RMK AO2 SLP197 T02220206=
201808310852 METAR KATL 310852Z 21004KT 10SM SCT090 BKN120 BKN200 BKN250 23/20 A3014 RMK AO2 SLP195 ACC N-OHD-S T02280200 53006=
201808310752 METAR KATL 310752Z 35004KT 10SM SCT110 BKN150 BKN200 BKN250 23/20 A3012 RMK AO2 SLP190 T02330200 $=
201808310652 METAR KATL 310652Z 33006KT 10SM FEW150 SCT200 SCT250 23/20 A3011 RMK AO2 SLP186 T02330200 $=
201808310552 METAR KATL 310552Z 26004KT 10SM SCT150 SCT200 BKN250 23/20 A3012 RMK AO2 SLP188 T02330200 10289 20233 58011 $=
201808310452 METAR KATL 310452Z 21009KT 10SM BKN150 BKN250 24/21 A3014 RMK AO2 SLP195 T02390206 403110211 $=
201808310352 METAR KATL 310352Z 18007KT 10SM FEW040 SCT120 BKN150 BKN250 25/20 A3015 RMK AO2 SLP199 T02500200 $=
201808310252 METAR KATL 310252Z 17007KT 10SM SCT070 BKN120 BKN200 26/20 A3015 RMK AO2 SLP200 T02560200 52017 $=
201808310152 METAR KATL 310152Z 22004KT 10SM SCT150 BKN200 26/21 A3014 RMK AO2 SLP195 T02610206 $=
201808310052 METAR KATL 310052Z 18007KT 10SM BKN150 BKN200 27/21 A3011 RMK AO2 SLP187 T02720206 $=
201808302352 METAR KATL 302352Z 19006KT 10SM FEW045 BKN150 BKN200 29/19 A3010 RMK AO2 SLP183 T02890194 10311 20289 53004 $=
201808302252 METAR KATL 302252Z 20007KT 10SM FEW045TCU SCT150 SCT250 30/19 A3008 RMK AO2 SLP176 TCU N-NE T03000194 $=
201808302152 METAR KATL 302152Z 19006KT 10SM FEW050 FEW200 31/20 A3007 RMK AO2 SLP173 TCU DSNT S T03060200 $=
201808302052 METAR KATL 302052Z 23005KT 10SM FEW050 FEW150 SCT250 31/18 A3009 RMK AO2 SLP179 CB DSNT NE E TCU DSNT N S T03110183 56019 $=
201808301952 METAR KATL 301952Z 15007KT 10SM FEW040TCU FEW070 SCT140 SCT250 30/19 A3011 RMK AO2 SLP185 TCU N T03000194 $=
201808301852 METAR KATL 301852Z 17007KT 10SM FEW045 FEW070 SCT140 SCT250 31/21 A3012 RMK AO2 SLP190 CB DSNT N-NE T03060211 $=
201808301752 METAR KATL 301752Z 10003KT 10SM FEW040 FEW070 BKN140 BKN250 30/21 A3015 RMK AO2 SLP198 CB DSNT NE T03000206 10300 20222 58015=
201808301652 METAR KATL 301652Z 12003KT 10SM FEW005 FEW035 SCT070 BKN140 28/19 A3017 RMK AO2 SLP207 FU FEW005 CB DSNT N-NE T02780194=
201808301552 METAR KATL 301552Z VRB03KT 10SM FEW030 FEW070 SCT120 BKN150 27/19 A3018 RMK AO2 SLP212 TCU DSNT NE T02720194=
201808301452 METAR KATL 301452Z 18004KT 10SM FEW075 SCT120 BKN160 26/19 A3019 RMK AO2 SLP214 T02610189 52002=
201808301352 METAR KATL 301352Z VRB03KT 10SM FEW070 SCT120 BKN150 BKN250 26/21 A3019 RMK AO2 SLP213 T02560206=
201808301252 METAR KATL 301252Z 15003KT 10SM FEW070 BKN150 23/20 A3019 RMK AO2 SLP213 T02280200=
201808301152 METAR KATL 301152Z 00000KT 10SM SCT120 BKN250 22/19 A3019 RMK AO2 SLP212 T02220194 10222 20211 53015=
201808301052 METAR KATL 301052Z 32003KT 10SM FEW120 21/19 A3017 RMK AO2 SLP207 T02110189=
201808300952 METAR KATL 300952Z 04003KT 10SM FEW150 22/19 A3016 RMK AO2 SLP200 T02170194=
201808300852 METAR KATL 300852Z 04005KT 10SM FEW150 22/19 A3014 RMK AO2 SLP196 T02170194 55009 $=
201808300752 METAR KATL 300752Z 08004KT 10SM FEW150 21/19 A3014 RMK AO2 SLP194 T02110194 $=
201808300652 METAR KATL 300652Z 17003KT 10SM FEW150 21/19 A3014 RMK AO2 SLP197 T02110194 $=
201808300552 METAR KATL 300552Z VRB03KT 10SM FEW150 22/19 A3017 RMK AO2 SLP205 60000 T02170194 10278 20217 58004 $=
201808300452 METAR KATL 300452Z 26008KT 10SM FEW070 SCT200 22/19 A3019 RMK AO2 SLP211 T02220194 403220222 $=
201808300352 METAR KATL 300352Z 24010G18KT 10SM FEW015 SCT070 BKN100 BKN250 23/19 A3019 RMK AO2 RAB23E51 TSE32 SLP212 LTG DSNT NW P0000 T02280189 $=
201808300332 SPECI KATL 300332Z 23011G20KT 9SM -RA FEW015 SCT050 BKN100 BKN250 23/21 A3019 RMK AO2 RAB23 TSE32 CONS LTG DSNT NW TS DSIPTD P0000 T02330206 $=
201808300252 METAR KATL 300252Z 20014G21KT 10SM TS SCT030CB BKN150 BKN250 25/21 A3018 RMK AO2 TSB51 SLP209 OCNL LTGIC SE-SW TS SE-SW MOV NW T02500206 53020 $=
201808300152 METAR KATL 300152Z 00000KT 10SM FEW025TCU SCT050 BKN250 27/19 A3016 RMK AO2 LTG DSNT SW SLP201 CB DSNT N & SE & SW TCU N-E T02670194 $=
201808300052 METAR KATL 300052Z 00000KT 10SM FEW025TCU SCT150 BKN250 27/19 A3014 RMK AO2 SLP195 LTG DSNT SE-S CB DSNT SE-S TCU W T02720189 $=
201808292352 METAR KATL 292352Z 03008KT 10SM FEW025CB SCT100 SCT150 BKN250 28/18 A3012 RMK AO2 SLP190 TSE24 CB S MOV NW 60000 T02780183 10322 20261 53010 $=
201808292325 SPECI KATL 292325Z 35004KT 10SM FEW025 SCT100 SCT150 BKN250 28/19 A3013 RMK AO2 TSE24 TS DSIPTD CB DSNT NE T02780189 $=
201808292252 METAR KATL 292252Z 36011KT 10SM TS FEW025CB SCT050 BKN150 BKN250 27/18 A3011 RMK AO2 RAB13E50 TSB04 SLP185 OCNL LTGICCG N-NE TS N-NE MOV N P0000 T02670183 $=
201808292210 SPECI KATL 292210Z 29008KT 10SM TS SCT035CB BKN050 BKN250 29/22 A3010 RMK AO2 LTG DSNT N TSB04 OCNL LTGIC N-NE TS N-NE MOV N CB OHD-ALQDS MOV N T02940217 $=
201808292152 METAR KATL 292152Z 31010KT 10SM SCT035TCU BKN050 BKN250 31/21 A3009 RMK AO2 SLP180 TCU OHD-ALQDS VCSH N & SW T03110211 $=
201808292052 METAR KATL 292052Z 00000KT 10SM FEW040TCU SCT080 SCT250 31/21 A3009 RMK AO2 SLP178 CB DSNT N TCU E-SE-S T03110211 58022=
201808291952 METAR KATL 291952Z 21008KT 10SM FEW040CB SCT050TCU SCT080 31/21 A3012 RMK AO2 LTG DSNT N SLP188 CB NW-N MOV NW TCU ALQDS SHRA VC NW-N T03110211=
201808291852 METAR KATL 291852Z 15006KT 10SM FEW035CB SCT040TCU SCT070 SCT250 31/21 A3014 RMK AO2 LTG DSNT SW-NW SLP195 CB NW DSNT SW-NW MOV NW TCU W SHRA VC NW T03060211=
201808291752 METAR KATL 291752Z VRB05KT 10SM SCT036TCU BKN065 BKN250 30/21 A3016 RMK AO2 LTG DSNT SW AND W SLP201 CB DSNT E W TCU SE-S W-NW T03000206 10317 20233 58021=
201808291652 METAR KATL 291652Z 17003KT 10SM FEW040TCU SCT070 SCT150 30/22 A3018 RMK AO2 LTG DSNT E AND SE SLP207 CB DSNT E-SE TCU S-W-N DSNT NE SHRA DSNT E-SE T03000217=
201808291552 METAR KATL 291552Z VRB03KT 10SM BKN035TCU BKN065 BKN150 29/22 A3021 RMK AO2 SLP219 TCU OHD-NE-SE DSNT SW-NW SHRA VC NE T02940217=
201808291452 METAR KATL 291452Z 29009KT 10SM FEW035 FEW080 SCT150 29/21 A3022 RMK AO2 SLP221 CB DSNT N W ACC DSNT SW-W T02940206 52007=
201808291352 METAR KATL 291352Z 26007KT 10SM FEW030 FEW060 FEW080 SCT150 28/21 A3021 RMK AO2 SLP218 CB DSNT N T02780211=
201808291252 METAR KATL 291252Z 29006KT 10SM SCT080 SCT150 SCT200 26/21 A3021 RMK AO2 SLP218 T02560211=
201808291152 METAR KATL 291152Z 29003KT 7SM FEW060 SCT150 SCT200 23/21 A3020 RMK AO2 SLP215 T02330211 10244 20228 53011=
201808291052 METAR KATL 291052Z 28004KT 10SM FEW060 FEW250 23/21 A3017 RMK AO2 SLP207 T02280206=
201808290952 METAR KATL 290952Z 00000KT 10SM FEW060 FEW250 23/21 A3016 RMK AO2 SLP202 T02330206=
201808290852 METAR KATL 290852Z 00000KT 10SM FEW250 23/21 A3016 RMK AO2 SLP202 T02330206 53005 $=
201808290752 METAR KATL 290752Z 19004KT 10SM FEW250 23/21 A3015 RMK AO2 SLP200 T02330206 $=
201808290652 METAR KATL 290652Z 22003KT 10SM FEW250 24/21 A3014 RMK AO2 SLP197 T02390211 $=
201808290552 METAR KATL 290552Z 20003KT 10SM FEW250 24/21 A3015 RMK AO2 SLP197 T02440211 10300 20244 58005 $=
201808290452 METAR KATL 290452Z 22003KT 10SM FEW250 25/21 A3015 RMK AO2 SLP200 T02500211 403220233 $=
201808290352 METAR KATL 290352Z 22003KT 10SM FEW250 26/22 A3016 RMK AO2 SLP203 T02560217 $=
201808290252 METAR KATL 290252Z 19006KT 10SM FEW250 27/21 A3016 RMK AO2 SLP202 T02720211 51011 $=
201808290152 METAR KATL 290152Z 18004KT 10SM FEW150 FEW250 28/21 A3016 RMK AO2 SLP200 T02780211 $=
201808290052 METAR KATL 290052Z 18004KT 10SM FEW150 SCT250 28/20 A3014 RMK AO2 SLP194 T02830200 $=
201808282352 METAR KATL 282352Z 17004KT 10SM FEW045 SCT250 30/21 A3013 RMK AO2 SLP192 60000 T03000206 10322 20272 55001=
201808282252 METAR KATL 282252Z 13004KT 10SM FEW045TCU FEW110 SCT250 31/19 A3012 RMK AO2 SLP188 TCU E-SE & DSNT NW-N-NE T03110194=
201808282152 METAR KATL 282152Z 15004KT 10SM FEW045 SCT200 31/21 A3012 RMK AO2 SLP189 TCU DSNT N-E-S T03110206=
201808282052 METAR KATL 282052Z VRB04KT 10SM FEW045 SCT070 SCT120 32/22 A3013 RMK AO2 SLP192 TCU DSNT NE-E-SE-S 60000 T03170217 58020=
201808281952 METAR KATL 281952Z 23005KT 10SM FEW030CB SCT040TCU BKN120 28/21 A3016 RMK AO2 RAB02E34 SLP201 CB W MOV W TCU N-NE-E SE-S SHRA VC W P0000 T02830211=
201808281852 METAR KATL 281852Z 00000KT 10SM SCT040TCU SCT060 BKN110 30/21 A3018 RMK AO2 SLP208 TCU OHD-SE-S-SW T03000206=
201808281752 METAR KATL 281752Z 23004KT 10SM FEW045 FEW085 SCT110 32/21 A3019 RMK AO2 SLP212 TCU DSNT N DSNT E-SE-S-SW-W T03170211 10317 20244 58012=
201808281652 METAR KATL 281652Z 11005KT 10SM SCT030TCU SCT065 BKN110 29/21 A3021 RMK AO2 SLP217 TCU N NE-E S-SW-NW T02940211=
201808281602 SPECI KATL 281602Z 09009KT 10SM SCT033CB BKN045TCU BKN110 28/21 A3022 RMK AO2 CB NE-E MOV E TCU SW-NW DSNT S SHRA VC NE-E T02830211=
201808281552 METAR KATL 281552Z 07005KT 10SM SCT030CB BKN045TCU BKN110 29/21 A3022 RMK AO2 SLP221 CB E MOV E TCU NE & SW-W SHRA E T02890206=
201808281452 METAR KATL 281452Z 30004KT 10SM FEW030 SCT060 SCT090 29/22 A3023 RMK AO2 SLP224 TCU DSNT NW ACC NE-SE T02940217 53009=
201808281352 METAR KATL 281352Z 32006KT 10SM BKN060 28/21 A3022 RMK AO2 SLP221 T02780211=
201808281252 METAR KATL 281252Z 31005KT 10SM SCT065 SCT200 27/21 A3021 RMK AO2 SLP219 T02720211=
201808281152 METAR KATL 281152Z 00000KT 10SM FEW200 24/21 A3020 RMK AO2 SLP216 T02440206 10256 20233 53021 $=
201808281052 METAR KATL 281052Z 00000KT 10SM CLR 24/20 A3018 RMK AO2 SLP207 T02390200=
201808280952 METAR KATL 280952Z 00000KT 10SM CLR 24/20 A3015 RMK AO2 SLP198 T02390200=
201808280852 METAR KATL 280852Z 00000KT 10SM CLR 24/21 A3014 RMK AO2 SLP193 T02390206 55003=
201808280752 METAR KATL 280752Z 19003KT 10SM CLR 24/20 A3014 RMK AO2 SLP193 T02440200=
201808280652 METAR KATL 280652Z 17003KT 10SM FEW250 25/20 A3013 RMK AO2 SLP192 T02500200=
201808280552 METAR KATL 280552Z 16004KT 10SM FEW250 26/20 A3015 RMK AO2 SLP196 T02560200 10294 20256 58008=
201808280452 METAR KATL 280452Z 00000KT 10SM FEW250 26/21 A3015 RMK AO2 SLP199 T02610206 403280222=
201808280352 METAR KATL 280352Z 14004KT 10SM FEW250 26/21 A3017 RMK AO2 SLP204 T02610206=
201808280252 METAR KATL 280252Z 15004KT 10SM FEW250 27/20 A3017 RMK AO2 SLP205 T02720200 51016=
201808280152 METAR KATL 280152Z 17003KT 10SM FEW250 28/20 A3016 RMK AO2 SLP202 T02780200=
201808280052 METAR KATL 280052Z 16004KT 10SM FEW055 FEW250 28/20 A3014 RMK AO2 SLP195 T02830200=
201808272352 METAR KATL 272352Z 14004KT 10SM FEW055 FEW250 29/19 A3012 RMK AO2 SLP189 TCU DSNT NW T02940194 10328 20294 55005=
201808272252 METAR KATL 272252Z 18007KT 10SM SCT055TCU 31/19 A3012 RMK AO2 SLP187 TCU OHD-NW T03110194=
201808272152 METAR KATL 272152Z 20004KT 10SM SCT050TCU 31/19 A3012 RMK AO2 SLP190 TCU OHD T03110189=
201808272052 METAR KATL 272052Z 15006KT 10SM SCT055TCU 32/19 A3014 RMK AO2 SLP193 TCU SE-S W-NW T03170189 58021=
201808271952 METAR KATL 271952Z 17007KT 10SM SCT050TCU 32/19 A3016 RMK AO2 SLP201 TCU SE-SW NW T03220194=
201808271852 METAR KATL 271852Z 19005KT 10SM SCT050TCU 31/19 A3019 RMK AO2 SLP210 TCU SE-SW-NW T03110194=
201808271752 METAR KATL 271752Z 14006KT 10SM SCT050TCU SCT100 32/20 A3020 RMK AO2 SLP215 TCU NE-SE SW-NW T03170200 10317 20228 58009=
201808271652 METAR KATL 271652Z VRB03G15KT 10SM SCT045TCU 31/20 A3022 RMK AO2 SLP220 TCU ALQDS T03110200=
201808271552 METAR KATL 271552Z 21005KT 10SM SCT040TCU 29/21 A3023 RMK AO2 SLP226 TCU ALQDS T02940206=
201808271452 METAR KATL 271452Z 20006KT 10SM FEW030 29/21 A3023 RMK AO2 SLP224 MDT CU N T02890206 51009=
201808271352 METAR KATL 271352Z 00000KT 10SM CLR 27/22 A3022 RMK AO2 SLP224 T02720217 $=
201808271252 METAR KATL 271252Z 11003KT 10SM CLR 25/21 A3022 RMK AO2 SLP222 T02500206=
201808271152 METAR KATL 271152Z 13003KT 10SM CLR 23/19 A3020 RMK AO2 SLP216 T02280194 10256 20222 53012=
201808271052 METAR KATL 271052Z 12003KT 10SM FEW045 23/19 A3018 RMK AO2 SLP209 T02280194=
201808270952 METAR KATL 270952Z 00000KT 10SM FEW045 23/19 A3017 RMK AO2 SLP206 T02330189=
201808270852 METAR KATL 270852Z 11004KT 10SM SCT045 24/18 A3016 RMK AO2 SLP203 T02390183 56006=
201808270752 METAR KATL 270752Z 07005KT 10SM SCT046 24/19 A3017 RMK AO2 SLP203 T02390189=
201808270652 METAR KATL 270652Z 07006KT 10SM SCT047 25/19 A3017 RMK AO2 SLP205 T02500189=
201808270552 METAR KATL 270552Z 06006KT 10SM CLR 26/19 A3018 RMK AO2 SLP209 T02560189 10289 20250 58004=
201808270452 METAR KATL 270452Z 08005KT 10SM CLR 26/19 A3020 RMK AO2 SLP214 T02560189 403170211=
201808270352 METAR KATL 270352Z 10005KT 10SM CLR 26/18 A3020 RMK AO2 SLP214 T02610183=
201808270252 METAR KATL 270252Z 00000KT 10SM CLR 27/19 A3020 RMK AO2 SLP213 T02670189 51009=
201808270152 METAR KATL 270152Z 13003KT 10SM CLR 27/18 A3019 RMK AO2 SLP213 T02720183=
201808270052 METAR KATL 270052Z 10005KT 10SM FEW250 28/18 A3018 RMK AO2 SLP208 T02830178=
201808262352 METAR KATL 262352Z 10007KT 10SM FEW050 FEW250 29/17 A3017 RMK AO2 SLP206 T02890172 10317 20289 55006=
201808262252 METAR KATL 262252Z VRB04KT 10SM FEW055 31/17 A3017 RMK AO2 SLP205 T03060172=
201808262152 METAR KATL 262152Z 09007KT 10SM FEW060 31/18 A3018 RMK AO2 SLP208 T03110178=
201808262052 METAR KATL 262052Z 10009KT 10SM FEW055 31/18 A3019 RMK AO2 SLP212 T03110183 56021=
201808261952 METAR KATL 261952Z 05008KT 10SM SCT050 SCT065 32/18 A3020 RMK AO2 SLP217 MDT CU SW T03170183=
201808261852 METAR KATL 261852Z VRB06KT 10SM SCT047 SCT065 31/18 A3023 RMK AO2 SLP226 T03060183=
201808261752 METAR KATL 261752Z VRB06KT 10SM SCT042 31/19 A3025 RMK AO2 SLP233 T03110194 10311 20222 58011=
201808261652 METAR KATL 261652Z 07005KT 10SM SCT038 29/19 A3026 RMK AO2 SLP238 T02890194=
201808261552 METAR KATL 261552Z 12004KT 10SM SCT032 29/21 A3028 RMK AO2 SLP243 T02890206=
201808261452 METAR KATL 261452Z 00000KT 10SM FEW030 28/21 A3028 RMK AO2 SLP244 T02830206 51006=
201808261352 METAR KATL 261352Z 00000KT 10SM CLR 26/21 A3028 RMK AO2 SLP243 T02560206=
201808261252 METAR KATL 261252Z 00000KT 10SM FEW250 24/18 A3028 RMK AO2 SLP243 T02390183=
201808261152 METAR KATL 261152Z 07004KT 10SM FEW250 22/18 A3026 RMK AO2 SLP239 T02220178 10228 20211 53017=
201808261052 METAR KATL 261052Z 08005KT 10SM FEW250 21/17 A3024 RMK AO2 SLP232 T02110172=
201808260952 METAR KATL 260952Z 08005KT 9SM CLR 21/17 A3022 RMK AO2 SLP224 T02110172=
201808260852 METAR KATL 260852Z 09005KT 10SM CLR 22/18 A3021 RMK AO2 SLP221 T02170178 55003=
201808260752 METAR KATL 260752Z 08006KT 9SM CLR 22/17 A3021 RMK AO2 SLP219 T02220172=
201808260652 METAR KATL 260652Z 08006KT 10SM CLR 23/17 A3021 RMK AO2 SLP218 T02280172=
201808260552 METAR KATL 260552Z 09006KT 10SM FEW150 23/18 A3022 RMK AO2 SLP223 T02280178 10278 20228 58005=
201808260452 METAR KATL 260452Z 08006KT 10SM FEW150 23/18 A3023 RMK AO2 SLP226 T02330178 403060189=
201808260352 METAR KATL 260352Z 10005KT 9SM SCT150 25/18 A3024 RMK AO2 SLP229 T02500178=
201808260252 METAR KATL 260252Z 09006KT 9SM SCT150 24/18 A3024 RMK AO2 SLP229 T02440178 53018=
201808260152 METAR KATL 260152Z 10007KT 10SM CLR 26/18 A3022 RMK AO2 SLP223 T02610178=
201808260052 METAR KATL 260052Z 11006KT 10SM FEW100 27/18 A3019 RMK AO2 SLP215 T02670178=
201808252352 METAR KATL 252352Z 11007KT 9SM FEW048 FEW100 28/17 A3018 RMK AO2 SLP211 T02780172 10306 20278 55002=
201808252252 METAR KATL 252252Z 07008KT 9SM FEW050 FEW090 29/17 A3017 RMK AO2 SLP208 T02890172=
201808252152 METAR KATL 252152Z 05007KT 9SM FEW050 SCT080 30/17 A3018 RMK AO2 SLP212 T03000172=
201808252052 METAR KATL 252052Z 06007KT 020V080 10SM SCT050 29/17 A3019 RMK AO2 SLP213 T02940172 58015=
201808251952 METAR KATL 251952Z VRB03KT 10SM SCT048 29/17 A3020 RMK AO2 SLP218 T02940172=
201808251852 METAR KATL 251852Z 00000KT 10SM FEW047 FEW150 29/17 A3022 RMK AO2 SLP224 T02940172=
201808251752 METAR KATL 251752Z VRB03KT 10SM FEW045 BKN070 29/17 A3023 RMK AO2 SLP228 T02890172 10289 20194 58008=
201808251652 METAR KATL 251652Z 07006KT 10SM FEW200 28/17 A3025 RMK AO2 SLP234 T02780172=
201808251552 METAR KATL 251552Z 09008KT 10SM FEW200 27/18 A3026 RMK AO2 SLP238 T02720178=
201808251452 METAR KATL 251452Z 08007KT 10SM FEW150 25/17 A3026 RMK AO2 SLP237 T02500167 51010=
201808251352 METAR KATL 251352Z 08007KT 10SM SCT150 SCT250 23/16 A3024 RMK AO2 SLP233 T02280156=
201808251252 METAR KATL 251252Z 06008KT 10SM BKN055 21/14 A3024 RMK AO2 SLP233 T02060144=
201808251152 METAR KATL 251152Z 06007KT 10SM SCT060 SCT200 19/14 A3023 RMK AO2 SLP228 T01940139 10206 20189 53016=
201808251052 METAR KATL 251052Z 08008KT 10SM FEW060 FEW200 19/14 A3021 RMK AO2 SLP221 T01890139=
201808250952 METAR KATL 250952Z 08007KT 10SM BKN060 19/14 A3019 RMK AO2 SLP215 T01890144=
201808250852 METAR KATL 250852Z 08007KT 10SM FEW250 19/14 A3018 RMK AO2 SLP212 T01890144 50001=
201808250752 METAR KATL 250752Z 08008KT 10SM FEW250 19/14 A3018 RMK AO2 SLP211 T01940144=
201808250652 METAR KATL 250652Z 09007KT 10SM FEW250 20/14 A3018 RMK AO2 SLP210 T02000139=
201808250552 METAR KATL 250552Z 08008KT 10SM FEW250 21/14 A3018 RMK AO2 SLP210 T02060144 10256 20206 50000=
201808250452 METAR KATL 250452Z 09007KT 10SM FEW250 21/14 A3018 RMK AO2 SLP211 T02110139 402780178=
201808250352 METAR KATL 250352Z 11009KT 10SM SCT250 23/13 A3018 RMK AO2 SLP211 T02280133=
201808250252 METAR KATL 250252Z 10009KT 10SM SCT250 22/14 A3018 RMK AO2 SLP210 T02220139 53014=
201808250152 METAR KATL 250152Z 08012KT 10SM SCT250 23/15 A3016 RMK AO2 SLP206 T02330150=
201808250052 METAR KATL 250052Z 07010KT 10SM SCT250 25/17 A3014 RMK AO2 SLP199 T02500167=
201808242352 METAR KATL 242352Z 08009KT 10SM BKN250 26/17 A3013 RMK AO2 SLP196 T02560167 10278 20256 53001=
201808242252 METAR KATL 242252Z 10008KT 10SM FEW045 BKN250 27/17 A3012 RMK AO2 SLP192 T02670167=
201808242152 METAR KATL 242152Z 12008KT 10SM FEW045 SCT250 27/17 A3012 RMK AO2 SLP192 T02720172=
201808242052 METAR KATL 242052Z 11005KT 10SM SCT045 BKN060 BKN250 27/17 A3013 RMK AO2 SLP194 T02670167 56014=
201808241952 METAR KATL 241952Z 09008KT 10SM FEW045 SCT060 BKN250 27/17 A3014 RMK AO2 SLP196 T02720167=
201808241852 METAR KATL 241852Z 07012KT 10SM FEW040 SCT070 BKN250 27/17 A3015 RMK AO2 SLP201 T02670167=
201808241752 METAR KATL 241752Z 07011KT 10SM FEW035 SCT050 SCT250 27/17 A3017 RMK AO2 SLP208 T02720172 10272 20183 58008=
201808241652 METAR KATL 241652Z 10007KT 10SM FEW030 FEW050 SCT070 SCT250 26/17 A3019 RMK AO2 SLP213 T02560172=
201808241552 METAR KATL 241552Z 07011KT 10SM FEW020 SCT040 BKN070 24/17 A3020 RMK AO2 SLP219 T02440167=
201808241517 SPECI KATL 241517Z 07011KT 10SM FEW020 SCT030 BKN070 23/16 A3020 RMK AO2 T02280161=
201808241452 METAR KATL 241452Z 08009KT 10SM BKN020 BKN030 BKN060 22/16 A3020 RMK AO2 SLP217 T02220156 53015=
201808241352 METAR KATL 241352Z 09010KT 10SM BKN015 BKN065 BKN250 21/15 A3017 RMK AO2 SLP208 T02110150=
201808241252 METAR KATL 241252Z 10011KT 9SM FEW015 SCT065 SCT150 SCT250 20/14 A3015 RMK AO2 SLP201 T02000139=
201808241152 METAR KATL 241152Z 09011KT 10SM FEW065 FEW150 SCT250 18/13 A3013 RMK AO2 SLP195 T01830133 10211 20178 53013=
201808241052 METAR KATL 241052Z 09010KT 10SM FEW150 SCT200 SCT250 18/13 A3011 RMK AO2 SLP187 T01830133=
201808240952 METAR KATL 240952Z 08008KT 10SM FEW200 FEW250 18/13 A3010 RMK AO2 SLP183 T01830133=
201808240852 METAR KATL 240852Z 09007KT 10SM FEW200 SCT250 19/13 A3009 RMK AO2 SLP180 T01890133 55003 $=
201808240752 METAR KATL 240752Z 09009KT 10SM FEW200 SCT250 19/14 A3009 RMK AO2 SLP179 T01940139 $=
201808240652 METAR KATL 240652Z 09007KT 10SM FEW200 SCT250 20/14 A3009 RMK AO2 SLP181 T02000144 $=
201808240552 METAR KATL 240552Z 09006KT 10SM SCT200 SCT250 21/15 A3010 RMK AO2 SLP183 T02110150 10267 20211 58001 $=
201808240452 METAR KATL 240452Z 10005KT 10SM BKN250 22/16 A3010 RMK AO2 SLP185 T02170156 403000194 $=
201808240352 METAR KATL 240352Z 11004KT 10SM BKN250 23/16 A3011 RMK AO2 SLP185 T02280161 $=
201808240252 METAR KATL 240252Z 13005KT 10SM FEW045 BKN250 24/17 A3010 RMK AO2 SLP184 T02440167 51016 $=
201808240152 METAR KATL 240152Z 11006KT 10SM FEW045 SCT250 25/17 A3009 RMK AO2 SLP180 T02500172 $=
201808240052 METAR KATL 240052Z 11005KT 10SM SCT050 SCT250 26/17 A3007 RMK AO2 SLP173 T02610172 $=
201808232352 METAR KATL 232352Z 12006KT 10SM SCT055 27/17 A3005 RMK AO2 SLP168 T02670167 10300 20267 53004 $=
201808232252 METAR KATL 232252Z 10005KT 10SM BKN055 BKN250 28/16 A3004 RMK AO2 SLP164 T02780161 $=
201808232152 METAR KATL 232152Z 16005KT 10SM SCT055 SCT250 28/16 A3004 RMK AO2 SLP163 T02780161 $=
201808232052 METAR KATL 232052Z VRB05KT 10SM SCT055 29/17 A3004 RMK AO2 SLP163 T02940167 56014 $=
201808231952 METAR KATL 231952Z 07003KT 10SM FEW050 SCT065 29/17 A3005 RMK AO2 SLP167 T02940172 $=
201808231852 METAR KATL 231852Z VRB03KT 10SM SCT060 SCT250 29/17 A3007 RMK AO2 SLP172 T02890172 $=
201808231752 METAR KATL 231752Z 06007KT 10SM SCT044 29/17 A3009 RMK AO2 SLP178 T02890172 10289 20200 58008=
201808231652 METAR KATL 231652Z 12007KT 10SM SCT040 27/17 A3010 RMK AO2 SLP183 T02720167=
201808231552 METAR KATL 231552Z 09007KT 10SM FEW040 27/17 A3011 RMK AO2 SLP187 T02670172=
201808231452 METAR KATL 231452Z 09008KT 9SM FEW250 26/17 A3011 RMK AO2 SLP187 T02560167 51011=
201808231352 METAR KATL 231352Z VRB05KT 9SM FEW250 24/17 A3010 RMK AO2 SLP183 T02440167=
201808231252 METAR KATL 231252Z 35006KT 8SM FEW200 SCT250 22/18 A3009 RMK AO2 SLP181 T02170178=
201808231152 METAR KATL 231152Z 33007KT 8SM SCT200 SCT250 20/18 A3008 RMK AO2 SLP176 T02000178 10217 20194 53015=
201808231052 METAR KATL 231052Z 33006KT 8SM SCT200 SCT250 19/17 A3006 RMK AO2 SLP169 T01940172=
201808230952 METAR KATL 230952Z 33004KT 9SM FEW200 SCT250 20/17 A3005 RMK AO2 SLP165 T02000172=
201808230852 METAR KATL 230852Z 32005KT 9SM FEW200 FEW250 20/18 A3003 RMK AO2 SLP161 T02000178 56002=
201808230752 METAR KATL 230752Z 33006KT 9SM FEW250 21/18 A3003 RMK AO2 SLP160 T02110178=
201808230652 METAR KATL 230652Z 33008KT 10SM FEW250 21/18 A3003 RMK AO2 SLP158 T02110178=
201808230552 METAR KATL 230552Z 32006KT 10SM FEW250 22/18 A3004 RMK AO2 SLP162 T02170178 10261 20217 57005=
201808230452 METAR KATL 230452Z 33007KT 10SM FEW250 22/18 A3004 RMK AO2 SLP163 T02220178 403000211=
201808230352 METAR KATL 230352Z 33009KT 10SM FEW250 23/18 A3005 RMK AO2 SLP165 T02280178=
201808230252 METAR KATL 230252Z 33009KT 10SM BKN250 23/18 A3005 RMK AO2 SLP166 T02330183 51011=
201808230152 METAR KATL 230152Z 31007KT 10SM BKN250 24/18 A3005 RMK AO2 SLP166 T02390183=
201808230052 METAR KATL 230052Z 31008KT 10SM BKN250 25/18 A3003 RMK AO2 SLP159 T02500178=
201808222352 METAR KATL 222352Z 32009KT 10SM BKN250 26/18 A3002 RMK AO2 SLP156 T02610183 10300 20261 58001=
201808222252 METAR KATL 222252Z 31011KT 10SM FEW040 BKN250 27/18 A3002 RMK AO2 SLP157 T02720178=
201808222152 METAR KATL 222152Z 34013KT 10SM FEW040 SCT250 28/17 A3002 RMK AO2 SLP156 T02830172=
201808222052 METAR KATL 222052Z 29015KT 10SM FEW040 FEW060 BKN250 28/18 A3002 RMK AO2 SLP156 T02830178 56006=
201808221952 METAR KATL 221952Z 31014KT 10SM FEW040 SCT060 BKN250 29/19 A3002 RMK AO2 SLP157 T02890189=
201808221852 METAR KATL 221852Z 29013KT 10SM SCT035 SCT055 BKN250 29/18 A3003 RMK AO2 SLP157 T02890183=
201808221752 METAR KATL 221752Z 31010KT 10SM FEW035 SCT055 BKN250 29/19 A3004 RMK AO2 SLP161 T02890189 10294 20217 58006=
201808221652 METAR KATL 221652Z 30011KT 10SM SCT035 SCT250 28/19 A3005 RMK AO2 SLP165 MDT CU SW-NW T02830194=
201808221552 METAR KATL 221552Z 32010KT 10SM SCT035 28/19 A3006 RMK AO2 SLP168 MDT CU W-NW-N T02780194=
201808221452 METAR KATL 221452Z 32007KT 10SM FEW030 FEW250 27/19 A3006 RMK AO2 SLP168 T02670194 53001=
201808221352 METAR KATL 221352Z 29006KT 10SM FEW025 FEW250 SCT300 25/19 A3005 RMK AO2 SLP165 T02500194=
201808221252 METAR KATL 221252Z 30008KT 10SM FEW060 FEW150 FEW200 23/19 A3005 RMK AO2 SLP166 T02330194=
201808221152 METAR KATL 221152Z 30007KT 10SM FEW060 FEW150 FEW200 22/19 A3006 RMK AO2 SLP168 70001 T02170189 10233 20211 53015=
201808221052 METAR KATL 221052Z 30007KT 10SM FEW060 21/19 A3004 RMK AO2 SLP163 T02110189=
201808220952 METAR KATL 220952Z 29007KT 10SM CLR 21/19 A3001 RMK AO2 SLP153 T02110189=
201808220852 METAR KATL 220852Z 27006KT 10SM FEW060 22/19 A3001 RMK AO2 SLP151 T02170189 56007=
201808220752 METAR KATL 220752Z 27006KT 10SM FEW060 22/19 A3002 RMK AO2 SLP153 T02220189=
201808220652 METAR KATL 220652Z 28006KT 10SM BKN060 23/19 A3002 RMK AO2 SLP156 T02280194=
201808220552 METAR KATL 220552Z 27004KT 10SM SCT060 BKN100 23/20 A3003 RMK AO2 SLP158 60000 T02330200 10267 20233 58001=
201808220452 METAR KATL 220452Z 29006KT 10SM SCT055 BKN070 24/20 A3003 RMK AO2 SLP160 T02390200 403110228=
201808220352 METAR KATL 220352Z 29007KT 10SM FEW030 BKN060 25/21 A3004 RMK AO2 SLP162 T02500206=
201808220252 METAR KATL 220252Z 28008KT 10SM FEW030 OVC060 26/21 A3003 RMK AO2 SLP160 60000 T02560206 51014=
201808220152 METAR KATL 220152Z 26004KT 10SM FEW030 SCT060 BKN100 BKN250 26/20 A3002 RMK AO2 RAE0054 SLP156 CB DSNT E-SE P0000 T02560200=
201808220052 METAR KATL 220052Z 27012G18KT 10SM -RA FEW025TCU SCT040 BKN070 BKN250 26/21 A3000 RMK AO2 RAB44 SLP150 CB DSNT NE TCU SE-SW P0000 T02610211=
201808212352 METAR KATL 212352Z 22008KT 10SM FEW030 SCT250 27/22 A2999 RMK AO2 LTG DSNT SE SLP145 CB DSNT SE & NW-N-NE 60001 T02670222 10311 20267 53004=
201808212252 METAR KATL 212252Z 23010KT 10SM FEW035 SCT250 29/22 A2998 RMK AO2 LTG DSNT S SLP142 CB DSNT NE & SE-S & NW T02890217=
201808212152 METAR KATL 212152Z 25011G18KT 10SM SCT035 BKN250 30/22 A2998 RMK AO2 SLP140 CB DSNT SW T03000217=
201808212052 METAR KATL 212052Z 25012G17KT 10SM SCT035TCU SCT250 30/22 A2998 RMK AO2 SLP140 TCU E-SE W 60001 T03000222 56021=
201808211952 METAR KATL 211952Z 23007KT 10SM FEW030CB FEW040TCU SCT080 29/22 A2999 RMK AO2 LTG DSNT NE RAB00E10 SLP144 CB NW DSNT NE-E MOV NE TCU W DSNT S-SW SHRA NW DSNT NE-E P0001 T02940217=
201808211907 SPECI KATL 211907Z 24012G18KT 8SM -RA SCT030CB BKN040 BKN050 28/22 A3000 RMK AO2 RAB00 VIS LWR N-NE SHRA CB OHD-N-NE MOV E P0001 T02830222=
201808211852 METAR KATL 211852Z 21011KT 10SM SCT030CB BKN040TCU BKN080 29/22 A3001 RMK AO2 SLP152 CB NW DSNT N MOV NE TCU OHD ALQDS SHRA VC NW DSNT N T02940222=
201808211752 METAR KATL 211752Z 21010KT 10SM SCT025 BKN040 BKN050 29/22 A3004 RMK AO2 SLP162 60000 T02890222 10289 20233 58011=
201808211704 SPECI KATL 211704Z 25008KT 10SM BKN013 BKN018 BKN060 27/23 A3006 RMK AO2 T02720228=
201808211652 METAR KATL 211652Z 23010G17KT 10SM SCT010 BKN015 BKN060 27/23 A3006 RMK AO2 RAB07E24 SLP169 P0000 T02670228=
201808211632 SPECI KATL 211632Z 21006KT 9SM FEW010 BKN020 BKN060 27/23 A3007 RMK AO2 RAB07E24 VIS LWR S P0000 T02670233=
201808211622 SPECI KATL 211622Z 22006KT 3SM -RA BR BKN012 BKN020 BKN060 25/23 A3007 RMK AO2 SFC VIS 5 RAB07 VIS LWR S P0000 T02500228=
201808211615 SPECI KATL 211615Z 22008KT 3SM -RA BR BKN012 BKN020 OVC060 25/23 A3007 RMK AO2 SFC VIS 4 RAB07 P0000 T02500228=
201808211610 SPECI KATL 211610Z 22010KT 4SM -RA BKN012 BKN020 OVC060 25/22 A3007 RMK AO2 RAB07 P0000 T02500222=
201808211552 METAR KATL 211552Z 22010KT 10SM BKN013 BKN020 OVC060 26/22 A3007 RMK AO2 SLP175 T02560217=
201808211549 SPECI KATL 211549Z 22009KT 10SM BKN013 BKN020 OVC060 26/22 A3008 RMK AO2=
201808211452 METAR KATL 211452Z 21007KT 10SM BKN018 BKN060 OVC080 26/22 A3008 RMK AO2 SLP175 60000 T02560217 51004=
201808211413 SPECI KATL 211413Z 25006KT 10SM FEW020 SCT060 SCT080 26/22 A3007 RMK AO2 T02610217=
201808211352 METAR KATL 211352Z 25006KT 10SM BKN014 BKN020 BKN060 26/21 A3007 RMK AO2 SLP175 T02560211=
201808211252 METAR KATL 211252Z 22009KT 10SM BKN012 OVC023 24/21 A3008 RMK AO2 DZB21E38 SLP176 CIG 010V014 BINOVC P0000 T02390211=
201808211152 METAR KATL 211152Z 22009KT 8SM FEW009 OVC013 23/21 A3007 RMK AO2 SLP172 CIG 011V015 T02330211 10233 20228 53011=
201808211052 METAR KATL 211052Z 22007KT 10SM FEW009 BKN013 OVC020 23/21 A3005 RMK AO2 SLP165 T02330206=
201808210952 METAR KATL 210952Z 23006KT 10SM FEW008 BKN011 BKN017 23/21 A3003 RMK AO2 SLP160 CIG 010V014 T02280206=
201808210948 SPECI KATL 210948Z 23007KT 10SM FEW008 BKN011 BKN017 23/21 A3003 RMK AO2 CIG 010V014=
201808210852 METAR KATL 210852Z 22005KT 10SM OVC009 23/21 A3003 RMK AO2 SLP159 CIG 008V011 T02280206 56013=
201808210809 SPECI KATL 210809Z 24008KT 10SM OVC009 23/21 A3003 RMK AO2 T02280206=
201808210752 METAR KATL 210752Z 24007KT 10SM OVC011 23/20 A3004 RMK AO2 SLP163 T02280200=
201808210652 METAR KATL 210652Z 24009G15KT 10SM SCT008 BKN011 OVC015 23/21 A3005 RMK AO2 SLP165 T02330206=
201808210452 METAR KATL 210452Z 23005KT 10SM SCT008 BKN013 OVC020 23/21 A3008 RMK AO2 SLP175 T02330211 402940228=
201808210352 METAR KATL 210352Z 21007KT 10SM SCT008 BKN013 BKN200 23/22 A3008 RMK AO2 SLP177 T02330217=
201808210330 SPECI KATL 210330Z 21005KT 10SM SCT008 BKN013 BKN200 23/22 A3007 RMK AO2 T02330217=
201808210252 METAR KATL 210252Z 21007KT 10SM BKN007 OVC015 24/22 A3007 RMK AO2 SLP175 T02390217 53009=
201808210152 METAR KATL 210152Z 21007KT 10SM BKN007 OVC015 23/22 A3006 RMK AO2 SLP171 T02330217=
201808210117 SPECI KATL 210117Z 20007KT 10SM BKN008 BKN150 BKN250 23/22 A3006 RMK AO2 T02330217=
201808210052 METAR KATL 210052Z 21006KT 10SM FEW010 BKN150 BKN200 BKN250 24/22 A3005 RMK AO2 SLP167 T02390217=
201808202352 METAR KATL 202352Z 19006KT 10SM FEW010 SCT120 BKN150 BKN250 24/22 A3004 RMK AO2 RAB28E52 SLP165 P0000 60000 T02390217 10294 20239 50002=
201808202312 SPECI KATL 202312Z 21010KT 10SM SCT012 BKN110 BKN150 OVC200 25/22 A3005 RMK AO2 T02500222=
201808202252 METAR KATL 202252Z 21011KT 10SM BKN012 BKN150 OVC200 25/22 A3006 RMK AO2 SLP170 LTG DSNT NE T02500222=
201808202152 METAR KATL 202152Z 20011KT 10SM FEW020 SCT150 BKN200 BKN250 27/22 A3005 RMK AO2 SLP164 LTG DSNT NW CB DSNT NE & NW T02670222=
201808202052 METAR KATL 202052Z 19010KT 10SM FEW025 SCT070 BKN150 BKN250 28/22 A3004 RMK AO2 LTG DSNT E AND SE RAB06E34 SLP162 CB DSNT E-SE TCU DSNT N-NE P0000 60000 T02830217 56013=
201808201952 METAR KATL 201952Z 20005KT 10SM FEW030TCU SCT040 BKN160 BKN250 28/22 A3004 RMK AO2 LTG DSNT S SLP163 CB DSNT S TCU N-NE NW T02830217=
201808201852 METAR KATL 201852Z 17003KT 10SM FEW025TCU SCT030 SCT050 BKN160 28/22 A3006 RMK AO2 RAB30E41 SLP168 TCU SE S W P0000 T02780217=
201808201818 SPECI KATL 201818Z 21003KT 10SM FEW025 SCT035 BKN160 BKN250 28/22 A3007 RMK AO2 T02780217=
201808201752 METAR KATL 201752Z 00000KT 10SM BKN025 BKN040 BKN150 27/22 A3008 RMK AO2 SLP175 T02720217 10278 20233 58012=
201808201727 SPECI KATL 201727Z VRB04KT 10SM BKN020 BKN050 BKN150 27/22 A3009 RMK AO2 T02720217=
201808201652 METAR KATL 201652Z 23006KT 10SM FEW015 SCT030 BKN120 BKN250 26/21 A3010 RMK AO2 SLP182 T02610211=
201808201635 SPECI KATL 201635Z 24006KT 10SM FEW015 SCT025 SCT050 OVC150 26/22 A3010 RMK AO2 T02610217=
201808201552 METAR KATL 201552Z 24009KT 10SM BKN015 BKN020 OVC050 26/21 A3012 RMK AO2 SLP188 T02560211=
201808201452 METAR KATL 201452Z 22006KT 10SM BKN015 BKN050 OVC150 25/21 A3011 RMK AO2 SLP187 T02500211 53012=
201808201352 METAR KATL 201352Z 22009KT 10SM SCT015 BKN050 BKN150 25/21 A3008 RMK AO2 SLP177 T02500211=
201808201304 SPECI KATL 201304Z 27008KT 10SM FEW008 BKN010 BKN020 24/21 A3007 RMK AO2 T02390211=
201808201252 METAR KATL 201252Z 26007KT 9SM SCT009 OVC017 23/21 A3007 RMK AO2 SLP175 CIG 013V017 T02330211=
201808201228 SPECI KATL 201228Z 26007KT 10SM BKN011 BKN017 OVC050 23/21 A3008 RMK AO2 CIG 009V014 T02330211=
201808201215 SPECI KATL 201215Z 27006KT 9SM BKN009 BKN016 OVC050 23/21 A3007 RMK AO2 CIG 008V012 BKN009 V SCT T02330211=
201808201152 METAR KATL 201152Z 24008KT 9SM SCT009 SCT015 OVC037 23/21 A3008 RMK AO2 SLP175 SCT009 V BKN T02280206 10233 20228 53013=
201808201149 SPECI KATL 201149Z 24006KT 9SM SCT009 SCT015 OVC037 23/21 A3008 RMK AO2 SCT009 V BKN=
201808201052 METAR KATL 201052Z 25005KT 10SM OVC008 23/21 A3006 RMK AO2 SLP168 BINOVC T02280206=
201808200952 METAR KATL 200952Z 27009KT 7SM OVC007 23/21 A3004 RMK AO2 SLP162 CIG 006V008 T02280206=
201808200852 METAR KATL 200852Z 26005KT 8SM OVC007 23/21 A3004 RMK AO2 SLP161 T02280206 56003=
201808200756 SPECI KATL 200756Z 24006KT 10SM BKN008 BKN100 23/21 A3004 RMK AO2 T02280206=
201808200752 METAR KATL 200752Z 25007KT 10SM SCT008 BKN100 BKN200 23/21 A3004 RMK AO2 SLP161 T02280206=
201808200745 SPECI KATL 200745Z 24006KT 10SM SCT008 BKN100 23/21 A3003 RMK AO2 T02280206=
201808200652 METAR KATL 200652Z 22005KT 10SM FEW070 SCT100 BKN200 23/21 A3003 RMK AO2 SLP160 T02280206=
201808200552 METAR KATL 200552Z 22005KT 10SM FEW040 BKN065 BKN120 BKN200 24/21 A3004 RMK AO2 SLP164 T02390206 10267 20233 51008=
201808200452 METAR KATL 200452Z 22004KT 10SM FEW040 SCT120 SCT200 SCT250 24/21 A3004 RMK AO2 SLP163 T02390211 402890228=
201808200352 METAR KATL 200352Z 22006KT 10SM FEW042 FEW110 SCT200 SCT250 24/21 A3004 RMK AO2 SLP161 T02440211=
201808200252 METAR KATL 200252Z 24005KT 10SM FEW110 SCT200 BKN250 25/21 A3002 RMK AO2 SLP156 T02500211 53009=
201808200152 METAR KATL 200152Z 24005KT 10SM FEW075 FEW110 SCT200 BKN250 25/22 A3001 RMK AO2 SLP154 T02500217=
201808200052 METAR KATL 200052Z 21006KT 10SM FEW075 FEW110 SCT200 BKN250 26/22 A2999 RMK AO2 SLP148 CB DSNT NW TCU DSNT N T02560217=
201808192352 METAR KATL 192352Z 21008KT 10SM FEW024TCU FEW070 SCT110 BKN200 27/22 A2999 RMK AO2 LTG DSNT W SLP146 CB DSNT N W-NW TCU N DSNT NW SHRA N T02670222 10289 20267 53002=
201808192252 METAR KATL 192252Z 21008KT 10SM SCT028CB SCT100 SCT200 BKN250 28/22 A2999 RMK AO2 SLP144 CB W-NW MOV NE TCU DSNT E SE SHRA W-NW T02780222=
201808192152 METAR KATL 192152Z 21006KT 10SM FEW026 SCT036 SCT200 BKN250 28/22 A2999 RMK AO2 SLP146 CB DSNT SW T02830217=
201808192052 METAR KATL 192052Z 20005KT 10SM SCT028 BKN034 BKN100 BKN250 28/22 A2999 RMK AO2 SLP144 T02830217 58017=
201808191952 METAR KATL 191952Z 25007KT 10SM SCT026 SCT045 BKN100 28/22 A3001 RMK AO2 SLP151 T02830217=
201808191852 METAR KATL 191852Z 26007KT 10SM SCT023 BKN040 BKN100 BKN250 28/22 A3002 RMK AO2 SLP156 T02830222=
201808191752 METAR KATL 191752Z 28007KT 10SM SCT021 BKN030 BKN100 27/22 A3004 RMK AO2 RAB18E27 SLP161 P0000 60000 T02670217 10278 20228 58003=
201808191652 METAR KATL 191652Z 24006KT 10SM SCT024 BKN038 BKN055 27/21 A3005 RMK AO2 SLP165 SHRA NW & DSNT E T02670211=
201808191645 SPECI KATL 191645Z 25006KT 10SM SCT020 BKN035 OVC050 27/21 A3005 RMK AO2 T02670211=
201808191552 METAR KATL 191552Z 26007KT 10SM BKN015 BKN020 BKN030 26/21 A3005 RMK AO2 SLP166 T02560211=
201808191518 SPECI KATL 191518Z 26009KT 10SM OVC015 26/22 A3005 RMK AO2 CIG 013V017 T02560217=
201808191452 METAR KATL 191452Z 25007KT 10SM OVC012 25/21 A3005 RMK AO2 SLP165 CIG 010V015 BINOVC T02500211 51009=
201808191352 METAR KATL 191352Z 22006KT 10SM OVC010 24/21 A3004 RMK AO2 SLP164 CIG 009V012 T02390211=
201808191252 METAR KATL 191252Z 22004KT 10SM OVC010 23/21 A3003 RMK AO2 SLP161 CIG 009V013 BINOVC T02330211=
201808191231 SPECI KATL 191231Z 26003KT 9SM OVC010 23/21 A3002 RMK AO2 BINOVC T02330211=
201808191152 METAR KATL 191152Z 28006KT 7SM OVC009 23/21 A3002 RMK AO2 SLP156 CIG 007V010 BINOVC 70139 T02280211 10228 20228 53013=
201808191107 SPECI KATL 191107Z 26008KT 7SM BKN007 BKN150 23/21 A3001 RMK AO2 CIG 006V009 BKN007 V SCT T02280211=
201808191052 METAR KATL 191052Z 26005KT 7SM SCT006 SCT055 BKN085 BKN150 23/21 A3001 RMK AO2 SLP152 T02280211=
201808191034 SPECI KATL 191034Z 25006KT 8SM SCT006 SCT055 BKN085 23/21 A3000 RMK AO2 T02280211=
201808191005 SPECI KATL 191005Z 26006KT 7SM BKN006 BKN055 BKN085 23/21 A2999 RMK AO2 T02280211=
201808190952 METAR KATL 190952Z 24005KT 8SM SCT006 SCT055 BKN085 BKN150 23/21 A2999 RMK AO2 SLP145 T02280211=
201808190852 METAR KATL 190852Z 23007KT 10SM FEW006 BKN055 BKN070 23/21 A2998 RMK AO2 SLP144 T02280211 58004=
201808190752 METAR KATL 190752Z 24006KT 10SM FEW006 SCT023 BKN060 BKN200 23/21 A2999 RMK AO2 SLP143 T02280211=
201808190652 METAR KATL 190652Z 25006KT 10SM SCT006 SCT023 BKN065 BKN200 23/21 A2999 RMK AO2 SLP143 T02280211=
201808190646 SPECI KATL 190646Z 25007KT 10SM SCT007 SCT023 SCT065 BKN200 23/21 A2999 RMK AO2=
201808190620 SPECI KATL 190620Z 23007KT 8SM BKN007 BKN023 OVC065 23/22 A2999 RMK AO2 CIG 006V009 T02280217=
201808190552 METAR KATL 190552Z 22007KT 8SM SCT007 BKN021 BKN090 BKN150 BKN250 23/22 A2999 RMK AO2 SLP145 60000 T02280217 10239 20228 58006=
201808190521 SPECI KATL 190521Z 24007KT 8SM BKN007 BKN023 BKN090 BKN150 23/22 A3000 RMK AO2 CIG 006V009 BKN007 V SCT T02280217=
201808190452 METAR KATL 190452Z 23008KT 10SM FEW008 SCT015 SCT150 BKN200 23/22 A3000 RMK AO2 SLP147 T02330217 403110228=
201808190352 METAR KATL 190352Z 23008KT 10SM FEW008 SCT022 SCT150 BKN200 23/22 A3001 RMK AO2 SLP152 T02330217=
201808190252 METAR KATL 190252Z 24006KT 10SM SCT008 SCT100 BKN150 OVC200 24/22 A3001 RMK AO2 SLP152 60000 T02390222 53000=
201808190220 SPECI KATL 190220Z 22005KT 10SM SCT008 SCT016 BKN120 OVC200 24/22 A3001 RMK AO2 T02390222=
201808190152 METAR KATL 190152Z 23007KT 9SM BKN007 OVC015 24/22 A3001 RMK AO2 RAB06E31 SLP150 CIG 005V009 P0000 T02390222=
201808190052 METAR KATL 190052Z 23004KT 9SM BKN005 OVC012 23/22 A3001 RMK AO2 SLP152 CIG 004V007 T02330222=
201808182352 METAR KATL 182352Z 22005KT 10SM BKN008 BKN060 BKN110 OVC200 23/22 A3001 RMK AO2 RAE2253 SLP153 CIG 007V010 CB DSNT W-N-NE P0000 60139 T02330217 10311 20228 53001=
201808182252 METAR KATL 182252Z 21011KT 10SM -RA FEW006 SCT030CB BKN065 BKN200 24/22 A3000 RMK AO2 RAB19 SLP151 CB E MOV E CB DSNT NW-NE P0006 T02390217=
201808182152 METAR KATL 182152Z 19008G16KT 10SM SCT024TCU BKN060 BKN120 OVC200 24/22 A3000 RMK AO2 LTG DSNT E-SW RAE35 TSE35 SLP151 TS MOV NE CB DSNT NE-SE-SW TCU S-SW DSNT NW-NE P0023 T02440222=
201808182138 SPECI KATL 182138Z 20011KT 10SM FEW008 SCT032 BKN075 BKN140 24/22 A3000 RMK AO2 LTG DSNT ALQDS RAE35 TSE35 FRQ LTGICCA DSNT SE-SW CB DSNT ALQDS TCU DSNT N P0023 T02390217=
201808182102 SPECI KATL 182102Z 29007G23KT 8SM +TSRA BR FEW008 SCT015 BKN030CB OVC130 24/21 A2999 RMK AO2 LTG DSNT ALQDS FRQ LTGICCG NE-SE-SW TS NE-SE-SW MOV E P0020 T02390211=
201808182049 SPECI KATL 182049Z VRB05KT 1/2SM R09R/1400V5000FT +TSRA BR FEW008 BKN018CB OVC030 23/22 A3000 RMK AO2 PK WND 26029/2013 WSHFT 2007 LTG DSNT ALQDS RAB15 TSB1957 FRQ LTGICCG OHD & ALQDS TS OHD & ALQDS MOV E P0085=
201808182047 SPECI KATL 182047Z VRB04KT 1/4SM R09R/1400V5000FT +TSRA BR FEW008 BKN030CB OVC045 23/22 A3000 RMK AO2 PK WND 26029/2013 WSHFT 2007 LTG DSNT ALQDS RAB15 TSB1957 FRQ LTGICCG OHD & ALQDS TS OHD & ALQDS MOV E P0071=
201808182032 SPECI KATL 182032Z 01016KT 1SM R09R/4500VP6000FT +TSRA BR FEW008 BKN030CB OVC045 24/22 A3000 RMK AO2 PK WND 26029/2013 WSHFT 2007 LTG DSNT NE AND S RAB15 TSB1957 OCNL LTGICCG OHD-E TS OHD-E MOV E CB DSNT NE & S P0033 T02390222=
201808182021 SPECI KATL 182021Z COR 36019G29KT 3/4SM R09R/2400VP6000FT +TSRA BR FEW008 BKN017CB OVC028 24/23 A3002 RMK AO2 PK WND 26029/2013 WSHFT 2007 LTG DSNT NE RAB15 TSB1957 PRESRR FRQ LTGICCG OHD & ALQDS TS OHD & ALQDS MOV E CB DSNT NE=
201808181959 SPECI KATL 181959Z 22008KT 8SM TS FEW005 BKN030CB BKN048 BKN150 BKN250 29/22 A2999 RMK AO2 LTG DSNT W-NE TSB57 OCNL LTGICCG W-N TS W-N MOV E VIS LWR W-NW CB DSNT SW & NE TCU DSNT S SHRA DSNT S T02940217=
201808181952 METAR KATL 181952Z 19010KT 10SM VCTS FEW005 SCT035CB BKN045 BKN150 BKN250 30/22 A2998 RMK AO2 LTG DSNT W-N SLP142 OCNL LTGICCG VC W-NE TS VC W-NE MOV E CB DSNT SW-W TCU DSNT S SHRA DSNT S T03000217=
201808181941 SPECI KATL 181941Z 21011KT 10SM VCTS SCT035CB BKN055 BKN150 BKN250 31/22 A2999 RMK AO2 LTG DSNT W-N OCNL LTGICCG VC NW-N TS VC NW-N MOV E CB DSNT SW-W T03060217=
201808181852 METAR KATL 181852Z 24010KT 10SM SCT030TCU BKN060 BKN150 BKN250 30/22 A3002 RMK AO2 RAB35E45 SLP154 TCU OHD & DSNT N-NE & SW & NW P0000 T03000222=
201808181752 METAR KATL 181752Z 23011G15KT 10SM BKN030 BKN048 BKN250 29/22 A3005 RMK AO2 SLP165 60000 T02890217 10294 20239 58018=
201808181724 SPECI KATL 181724Z VRB06G14KT 10SM SCT030 BKN038 BKN180 BKN250 29/22 A3006 RMK AO2 T02940222=
201808181652 METAR KATL 181652Z 23006KT 10SM SCT022 BKN028 BKN055 BKN180 BKN250 28/22 A3007 RMK AO2 SLP173 TCU DSNT SE T02830222=
201808181614 SPECI KATL 181614Z 23010KT 10SM BKN022 BKN030 BKN250 27/22 A3008 RMK AO2 T02720217=
201808181552 METAR KATL 181552Z 25009KT 10SM SCT022 BKN030 BKN250 28/22 A3009 RMK AO2 SLP178 T02780217=
201808181510 SPECI KATL 181510Z 24011KT 10SM SCT017 SCT023 BKN036 28/22 A3010 RMK AO2 T02780217=
201808181452 METAR KATL 181452Z 25009KT 10SM SCT017 BKN026 BKN035 BKN200 27/22 A3011 RMK AO2 SLP185 60000 T02670217 57003=
201808181427 SPECI KATL 181427Z 25009KT 10SM BKN016 BKN022 BKN200 27/22 A3011 RMK AO2 T02720222=
201808181352 METAR KATL 181352Z 24009KT 10SM BKN014 OVC020 26/22 A3011 RMK AO2 SLP184 RAE1255DZB55E10 BINOVC P0000 T02560217=
201808181252 METAR KATL 181252Z 24007KT 8SM -RA BKN010 BKN024 OVC037 24/22 A3012 RMK AO2 RAB44 SLP189 CIG 009V014 P0000 T02390217=
201808181221 SPECI KATL 181221Z 22007KT 10SM BKN010 OVC024 24/22 A3012 RMK AO2 CIG 009V014 T02390217=
201808181152 METAR KATL 181152Z 22008KT 10SM BKN009 BKN018 OVC024 24/22 A3012 RMK AO2 SLP188 70006 T02390217 10239 20228 52004=
201808181052 METAR KATL 181052Z 22006KT 10SM BKN009 BKN015 BKN130 BKN250 23/21 A3011 RMK AO2 SLP186 CIG 008V013 BKN009 V SCT T02330211=
201808181048 SPECI KATL 181048Z 22007KT 10SM BKN008 BKN015 BKN130 BKN250 23/21 A3011 RMK AO2=
201808181031 SPECI KATL 181031Z 23006KT 10SM SCT009 SCT022 BKN130 BKN250 23/21 A3011 RMK AO2 T02330211=
201808180952 METAR KATL 180952Z 24005KT 9SM FEW008 BKN011 BKN022 23/21 A3010 RMK AO2 SLP184 CIG 009V014 T02330211=
201808180947 SPECI KATL 180947Z 23006KT 9SM FEW008 BKN011 BKN022 23/21 A3011 RMK AO2 CIG 009V013=
201808180904 SPECI KATL 180904Z 24009KT 10SM OVC010 23/21 A3011 RMK AO2 T02330211=
201808180852 METAR KATL 180852Z 25007KT 10SM BKN009 OVC015 23/21 A3011 RMK AO2 SLP186 T02330211 58004=
201808180754 SPECI KATL 180754Z 25007KT 10SM BKN009 BKN012 BKN050 23/21 A3012 RMK AO2 T02330211=
201808180752 METAR KATL 180752Z 25006KT 10SM SCT009 BKN012 BKN050 23/21 A3012 RMK AO2 SLP188 T02330206=
201808180727 SPECI KATL 180727Z 25007KT 10SM SCT009 SCT014 SCT050 SCT150 23/21 A3011 RMK AO2 T02330206=
201808180652 METAR KATL 180652Z 24008KT 10SM BKN007 BKN050 BKN150 23/21 A3012 RMK AO2 SLP189 CIG 006V010 T02330211=
201808180552 METAR KATL 180552Z 22008KT 10SM BKN009 BKN014 BKN150 BKN250 23/21 A3012 RMK AO2 SLP190 CIG 008V011 BKN009 V SCT 60000 T02330211 10278 20233 56008=
201808180537 SPECI KATL 180537Z 22007KT 180V240 10SM BKN009 BKN014 BKN150 BKN250 23/21 A3013 RMK AO2 BKN009 V SCT T02330211=
201808180452 METAR KATL 180452Z 22007KT 10SM FEW010 SCT150 BKN250 24/21 A3013 RMK AO2 SLP192 T02390211 403060228=
201808180352 METAR KATL 180352Z 22006KT 10SM FEW013 SCT030 BKN080 BKN200 24/22 A3014 RMK AO2 SLP195 RAB29E42 P0000 T02440217=
201808180336 SPECI KATL 180336Z 21008KT 10SM -RA BKN013 BKN080 BKN200 24/22 A3014 RMK AO2 RAB29 P0000 T02440217=
201808180252 METAR KATL 180252Z 21007KT 10SM FEW020 SCT080 BKN200 25/22 A3015 RMK AO2 SLP199 CB DSNT NW T02500217 51017=
201808180152 METAR KATL 180152Z 20005KT 10SM FEW020 SCT060 SCT250 26/22 A3014 RMK AO2 SLP194 LTG DSNT E-SE T02610217=
201808180052 METAR KATL 180052Z 23004KT 10SM FEW030 FEW050 SCT250 26/22 A3011 RMK AO2 LTG DSNT SE SLP187 CB DSNT SE & SW T02610217=
201808172352 METAR KATL 172352Z 19008KT 10SM FEW030 SCT250 28/21 A3009 RMK AO2 SLP181 CB DSNT SE 60006 T02780206 10306 20272 55004=
201808172252 METAR KATL 172252Z 22007KT 10SM FEW030 SCT200 BKN250 29/21 A3009 RMK AO2 LTG DSNT SE SLP179 CB DSNT SE TCU DSNT N T02890211=
201808172152 METAR KATL 172152Z 18011KT 10SM FEW030TCU SCT150 BKN200 BKN250 28/21 A3011 RMK AO2 SLP186 VCSH E-SE TCU W-N T02780211=
201808172052 METAR KATL 172052Z 19007KT 10SM FEW034TCU BKN200 29/21 A3011 RMK AO2 LTG DSNT E SLP185 CB DSNT E & SW TCU ALQDS 60006 T02940211 56019=
201808172031 SPECI KATL 172031Z 21008KT 10SM FEW034 SCT090 BKN200 29/21 A3012 RMK AO2 LTG DSNT E TS MOV NE CB DSNT E T02890206=
201808172000 SPECI KATL 172000Z 20009KT 10SM VCTS FEW032CB SCT080 BKN160 28/21 A3013 RMK AO2 LTG DSNT NE OCNL LTGCG VC NE-E TS VC NE-E MOV NE T02830211=
201808171952 METAR KATL 171952Z 20012KT 10SM FEW027CB SCT032 SCT080 BKN160 29/21 A3013 RMK AO2 LTG DSNT NE RAB1853E06 SLP191 CB NE-E-SE & NW MOV NE P0006 T02890211=
201808171859 SPECI KATL 171859Z 00000KT 7SM R09R/3000VP6000FT -RA SCT033CB BKN043 BKN055 28/23 A3014 RMK AO2 RAB53 CB OHD-SE MOV NE P0006 T02780228=
201808171852 METAR KATL 171852Z 19009KT 6SM HZ SCT033TCU BKN041 BKN055 BKN250 29/22 A3014 RMK AO2 SLP195 TCU NE & W T02890217=
201808171752 METAR KATL 171752Z 19009KT 10SM SCT032 SCT050 BKN200 30/22 A3017 RMK AO2 SLP204 MDT CU ALQDS 60000 T03000217 10306 20233 56012=
201808171652 METAR KATL 171652Z 21009KT 10SM SCT020 BKN040 BKN050 28/21 A3018 RMK AO2 SLP209 MDT CU ALQDS T02780211=
201808171650 SPECI KATL 171650Z 21011KT 10SM SCT020 BKN040 BKN050 28/21 A3018 RMK AO2 MDT CU ALQDS=
201808171552 METAR KATL 171552Z 24009KT 10SM SCT018TCU BKN027 BKN040 27/22 A3020 RMK AO2 SLP216 TCU N-NE-E MDT CU ALQDS T02720217=
201808171452 METAR KATL 171452Z 22006KT 10SM FEW015 BKN018 BKN040 26/21 A3021 RMK AO2 SLP220 60000 T02560211 51002=
201808171434 SPECI KATL 171434Z 20007KT 180V240 10SM BKN015 BKN020 BKN040 26/21 A3021 RMK AO2 T02560211=
201808171352 METAR KATL 171352Z 21007KT 10SM BKN012 BKN020 BKN040 26/22 A3021 RMK AO2 SLP219 T02560217=
201808171252 METAR KATL 171252Z 24008KT 10SM OVC012 24/21 A3022 RMK AO2 RAB03E21 SLP223 CIG 010V015 P0000 T02390211=
201808171202 SPECI KATL 171202Z 21005KT 10SM BKN010 BKN120 BKN200 OVC250 24/21 A3020 RMK AO2 CIG 009V012 T02390211=
201808171152 METAR KATL 171152Z 20005KT 8SM SCT010 BKN120 BKN200 BKN250 23/21 A3020 RMK AO2 RAB21E33 SLP216 P0000 60000 T02330211 10239 20228 51011=
201808171123 SPECI KATL 171123Z 23005KT 10SM -RA SCT012 BKN110 BKN200 BKN250 23/21 A3020 RMK AO2 RAB21 P0000 T02330211=
201808171104 SPECI KATL 171104Z 23004KT 10SM OVC010 23/21 A3020 RMK AO2 CIG 009V012 BINOVC T02330211=
201808171052 METAR KATL 171052Z 24005KT 10SM OVC008 23/21 A3019 RMK AO2 SLP214 CIG 006V010 BINOVC T02330211=
201808170952 METAR KATL 170952Z 26008KT 9SM OVC007 23/21 A3019 RMK AO2 SLP212 CIG 005V009 T02330211=
201808170852 METAR KATL 170852Z 24006KT 10SM OVC006 23/21 A3017 RMK AO2 SLP204 CIG 005V007 T02330211 55002=
201808170752 METAR KATL 170752Z 22004KT 10SM BKN006 OVC012 23/21 A3016 RMK AO2 SLP201 CIG 004V008 T02280211=
201808170744 SPECI KATL 170744Z 22005KT 10SM BKN006 BKN012 BKN140 BKN250 23/21 A3016 RMK AO2 CIG 005V008 T02280211=
201808170652 METAR KATL 170652Z 20005KT 10SM FEW008 FEW140 SCT200 BKN250 23/21 A3016 RMK AO2 SLP203 ACC SE T02280211=
201808170552 METAR KATL 170552Z 22005KT 10SM FEW150 SCT200 BKN250 23/21 A3017 RMK AO2 SLP206 T02330211 10294 20233 58003=
201808170452 METAR KATL 170452Z 21006KT 10SM FEW150 BKN250 24/21 A3019 RMK AO2 SLP212 T02390211 403280228=
201808170352 METAR KATL 170352Z 21006KT 10SM BKN250 24/21 A3020 RMK AO2 SLP215 T02440211=
201808170252 METAR KATL 170252Z 21009KT 10SM BKN250 25/21 A3018 RMK AO2 SLP210 T02500211 51014=
201808170152 METAR KATL 170152Z 21010KT 10SM BKN250 26/21 A3017 RMK AO2 SLP205 T02610211=
201808170052 METAR KATL 170052Z 20007KT 10SM FEW080 BKN250 27/22 A3016 RMK AO2 SLP201 T02720217=
201808162352 METAR KATL 162352Z 21006KT 10SM FEW040 BKN250 29/21 A3014 RMK AO2 SLP195 T02940206 10328 20294 53002=
201808162252 METAR KATL 162252Z 21008KT 10SM FEW045TCU SCT250 31/20 A3014 RMK AO2 TSE08 SLP194 CB DSNT SW TCU NE T03060200=
201808162208 SPECI KATL 162208Z 21008KT 10SM SCT045TCU SCT250 32/19 A3013 RMK AO2 TSE08 TS DSIPTD TCU NW-N-NE T03170194=
201808162152 METAR KATL 162152Z 20006KT 10SM TS SCT045CB SCT250 32/19 A3013 RMK AO2 SLP192 TSB18 OCNL LTGICCG NE TS NE MOV NE T03170194=
201808162123 SPECI KATL 162123Z 22009KT 10SM TS SCT045CB SCT250 32/21 A3013 RMK AO2 TSB18 OCNL LTGICCG N-NE TS N-NE MOV NE T03170206=
201808162052 METAR KATL 162052Z 21008KT 10SM SCT045TCU SCT250 32/21 A3013 RMK AO2 SLP192 CB DSNT E TCU N-NE-E T03170206 56014=
201808161952 METAR KATL 161952Z 19005KT 10SM SCT050TCU SCT250 32/19 A3015 RMK AO2 LTG DSNT E AND SE SLP196 CB DSNT E-SE TCU N-NE-E T03220194=
201808161852 METAR KATL 161852Z 20007KT 150V230 10SM BKN048 BKN250 32/20 A3016 RMK AO2 SLP200 MDT CU OHD-N-E-S NW T03220200=
201808161752 METAR KATL 161752Z VRB03KT 10SM CLR 32/22 A3017 RMK AO2 SLP206 T03170217 10322 20239 58004=
201808161652 METAR KATL 161652Z VRB06KT 10SM FEW040 SCT250 BKN300 31/21 A3018 RMK AO2 SLP208 MDT CU SE-SW SW-NW T03110206=
201808161552 METAR KATL 161552Z VRB06KT 10SM FEW035 SCT250 BKN300 30/21 A3019 RMK AO2 SLP213 T03000211=
201808161452 METAR KATL 161452Z VRB04KT 9SM FEW030 SCT250 BKN300 29/22 A3019 RMK AO2 SLP211 T02890222 51008=
201808161352 METAR KATL 161352Z 26004KT 10SM SCT250 28/22 A3018 RMK AO2 SLP210 T02780217=
201808161252 METAR KATL 161252Z 26004KT 9SM FEW200 SCT250 26/22 A3018 RMK AO2 SLP206 T02610217=
201808161152 METAR KATL 161152Z 00000KT 8SM FEW200 SCT250 23/21 A3016 RMK AO2 SLP203 T02330211 10250 20228 53013=
201808161052 METAR KATL 161052Z 24003KT 8SM FEW140 FEW200 SCT250 23/21 A3015 RMK AO2 SLP197 T02330211=
201808160952 METAR KATL 160952Z 26003KT 10SM FEW200 SCT250 23/21 A3014 RMK AO2 SLP193 T02330211=
201808160852 METAR KATL 160852Z 00000KT 10SM FEW200 SCT250 23/21 A3012 RMK AO2 SLP189 T02330206 53004=
201808160752 METAR KATL 160752Z 22003KT 10SM FEW200 SCT250 24/20 A3011 RMK AO2 SLP185 T02390200=
201808160652 METAR KATL 160652Z 19003KT 10SM FEW200 SCT250 25/19 A3011 RMK AO2 SLP185 T02500194=
201808160552 METAR KATL 160552Z 14004KT 10SM FEW200 BKN250 25/20 A3011 RMK AO2 SLP185 T02500200 10294 20250 58004=
201808160452 METAR KATL 160452Z 14003KT 10SM FEW200 BKN250 26/19 A3012 RMK AO2 SLP188 T02610194 403390217=
201808160352 METAR KATL 160352Z 00000KT 10SM SCT200 BKN250 27/20 A3013 RMK AO2 SLP190 T02720200=
201808160252 METAR KATL 160252Z 00000KT 10SM FEW200 BKN250 28/20 A3013 RMK AO2 SLP190 T02780200 53011=
201808160152 METAR KATL 160152Z 16003KT 10SM FEW200 BKN250 28/19 A3011 RMK AO2 SLP184 T02830194=
201808160052 METAR KATL 160052Z 00000KT 10SM FEW060 SCT200 BKN250 29/18 A3010 RMK AO2 SLP180 T02940183=
201808152352 METAR KATL 152352Z 26005KT 10SM FEW060 SCT200 BKN250 29/19 A3009 RMK AO2 SLP179 MDT CU OHD T02940189 10339 20294 53004=
201808152252 METAR KATL 152252Z 23006KT 10SM FEW060TCU SCT250 32/18 A3008 RMK AO2 SLP175 TCU OHD T03170183=
201808152152 METAR KATL 152152Z 24004KT 10SM SCT060TCU SCT250 32/18 A3008 RMK AO2 SLP174 TCU OHD T03220183=
201808152052 METAR KATL 152052Z 24004KT 10SM FEW065 FEW250 33/19 A3008 RMK AO2 SLP173 T03280189 56013=
201808151952 METAR KATL 151952Z 33005KT 10SM FEW060 SCT150 SCT250 33/17 A3009 RMK AO2 SLP177 T03330172=
201808151852 METAR KATL 151852Z 36006KT 10SM FEW065 FEW180 SCT250 32/17 A3010 RMK AO2 SLP182 T03220172=
201808151752 METAR KATL 151752Z VRB03KT 10SM FEW060 FEW180 SCT250 32/17 A3012 RMK AO2 SLP187 T03170172 10317 20233 58006=
201808151652 METAR KATL 151652Z VRB06KT 9SM FEW060 FEW150 SCT250 32/17 A3012 RMK AO2 SLP189 T03170167=
201808151552 METAR KATL 151552Z 00000KT 10SM FEW050 FEW200 SCT250 30/17 A3013 RMK AO2 SLP191 T03000167=
201808151452 METAR KATL 151452Z 32003KT 10SM SCT250 29/17 A3013 RMK AO2 SLP193 T02890172 51017=
201808151352 METAR KATL 151352Z 31004KT 9SM BKN250 27/18 A3012 RMK AO2 SLP189 T02720183=
201808151252 METAR KATL 151252Z 29004KT 9SM SCT200 BKN250 26/19 A3011 RMK AO2 SLP184 T02560189=
201808151152 METAR KATL 151152Z 33003KT 8SM FEW150 SCT200 BKN250 23/19 A3008 RMK AO2 SLP176 T02330194 10244 20217 53010=
201808151052 METAR KATL 151052Z 32004KT 10SM FEW150 SCT250 22/19 A3007 RMK AO2 SLP172 T02220189=
201808150952 METAR KATL 150952Z 31006KT 10SM FEW150 SCT250 22/19 A3006 RMK AO2 SLP167 T02220194=
201808150852 METAR KATL 150852Z 32004KT 10SM FEW150 FEW250 23/19 A3005 RMK AO2 SLP166 T02280189 56007=
201808150752 METAR KATL 150752Z 33005KT 10SM FEW250 23/19 A3006 RMK AO2 SLP166 T02280189=
201808150652 METAR KATL 150652Z 30004KT 10SM FEW250 23/19 A3006 RMK AO2 SLP168 T02280194=
201808150552 METAR KATL 150552Z 00000KT 10SM FEW250 24/19 A3008 RMK AO2 SLP173 T02440189 10294 20244 50001=
201808150452 METAR KATL 150452Z 00000KT 10SM FEW250 24/19 A3009 RMK AO2 SLP179 T02440189 403220200=
201808150352 METAR KATL 150352Z 00000KT 10SM FEW250 26/19 A3009 RMK AO2 SLP177 T02560189=
201808150252 METAR KATL 150252Z 32003KT 10SM FEW250 26/19 A3007 RMK AO2 SLP173 T02610189 53014=
201808150152 METAR KATL 150152Z 32005KT 10SM FEW250 27/18 A3005 RMK AO2 SLP163 T02720183=
201808150052 METAR KATL 150052Z 31006KT 10SM SCT250 28/17 A3004 RMK AO2 SLP162 T02830172=
201808142352 METAR KATL 142352Z 32009KT 10SM FEW055 BKN250 29/17 A3003 RMK AO2 SLP159 T02940172 10322 20294 53005=
201808142252 METAR KATL 142252Z 31008KT 10SM FEW055 BKN250 31/17 A3002 RMK AO2 SLP157 T03060167=
201808142152 METAR KATL 142152Z 26008KT 10SM FEW060 SCT250 31/17 A3002 RMK AO2 SLP156 T03110167=
201808142052 METAR KATL 142052Z 32008KT 10SM FEW060 FEW250 32/16 A3002 RMK AO2 SLP154 T03170161 58014=
201808141952 METAR KATL 141952Z 28007KT 240V320 10SM FEW060 FEW250 31/18 A3004 RMK AO2 SLP161 T03060178=
201808141852 METAR KATL 141852Z 35007KT 10SM FEW065 FEW250 32/17 A3005 RMK AO2 SLP164 T03170172=
201808141752 METAR KATL 141752Z 00000KT 10SM FEW060 FEW250 31/17 A3006 RMK AO2 SLP168 T03110172 10311 20222 58007=
201808141652 METAR KATL 141652Z 29005KT 10SM FEW050 FEW250 31/17 A3008 RMK AO2 SLP175 T03060172=
201808141552 METAR KATL 141552Z 34005KT 10SM FEW045 FEW250 30/18 A3008 RMK AO2 SLP176 T03000183=
201808141452 METAR KATL 141452Z VRB06KT 10SM FEW250 28/19 A3008 RMK AO2 SLP176 T02830194 51005=
201808141352 METAR KATL 141352Z 32005KT 10SM FEW250 26/19 A3008 RMK AO2 SLP174 T02610194=
201808141252 METAR KATL 141252Z 32006KT 10SM FEW200 FEW250 23/19 A3008 RMK AO2 SLP175 T02330189=
201808141152 METAR KATL 141152Z 30004KT 10SM FEW200 FEW250 22/18 A3007 RMK AO2 SLP171 T02220183 10239 20200 51014=
201808141052 METAR KATL 141052Z 25004KT 10SM FEW250 21/18 A3005 RMK AO2 SLP167 T02060178=
201808140952 METAR KATL 140952Z 00000KT 10SM FEW250 21/18 A3004 RMK AO2 SLP163 T02110183=
201808140852 METAR KATL 140852Z 00000KT 10SM SCT250 23/18 A3002 RMK AO2 SLP156 T02280178 55003=
201808140752 METAR KATL 140752Z 01004KT 10SM FEW250 24/18 A3002 RMK AO2 SLP154 T02390178=
201808140652 METAR KATL 140652Z 30003KT 10SM FEW250 23/18 A3003 RMK AO2 SLP158 T02280183=
201808140552 METAR KATL 140552Z 33006KT 10SM FEW250 23/19 A3003 RMK AO2 SLP159 T02330189 10289 20228 58007=
201808140452 METAR KATL 140452Z 29003KT 10SM FEW250 24/18 A3005 RMK AO2 SLP166 T02390183 403170222=
201808140352 METAR KATL 140352Z 29003KT 10SM FEW250 24/19 A3006 RMK AO2 SLP168 T02440189=
201808140252 METAR KATL 140252Z 32004KT 10SM FEW250 26/18 A3006 RMK AO2 SLP167 T02610183 51015=
201808140152 METAR KATL 140152Z 33006KT 10SM CLR 27/18 A3005 RMK AO2 SLP164 T02670178=
201808140052 METAR KATL 140052Z 33006KT 10SM CLR 27/17 A3003 RMK AO2 SLP157 T02720172=
201808132352 METAR KATL 132352Z 32008KT 10SM FEW060 29/17 A3001 RMK AO2 SLP151 T02890172 10317 20289 55002=
201808132252 METAR KATL 132252Z 27006KT 10SM FEW060 29/17 A3000 RMK AO2 SLP149 T02940167=
201808132152 METAR KATL 132152Z 28009KT 10SM FEW060 31/17 A3001 RMK AO2 SLP150 T03060167=
201808132052 METAR KATL 132052Z 30004KT 10SM FEW060 31/16 A3002 RMK AO2 SLP153 T03110161 58018=
201808131952 METAR KATL 131952Z 24007KT 10SM FEW060 31/17 A3004 RMK AO2 SLP160 T03060167=
201808131852 METAR KATL 131852Z 25008KT 10SM FEW050 31/19 A3006 RMK AO2 SLP166 T03110189=
201808131752 METAR KATL 131752Z 27007KT 10SM FEW040 30/19 A3007 RMK AO2 SLP172 T03000194 10306 20233 58005=
201808131652 METAR KATL 131652Z 31008KT 10SM FEW045 FEW250 30/18 A3008 RMK AO2 SLP174 T03000183=
201808131552 METAR KATL 131552Z 32007KT 10SM FEW040 FEW250 29/19 A3009 RMK AO2 SLP176 T02890194=
201808131452 METAR KATL 131452Z 33007KT 10SM FEW250 28/19 A3009 RMK AO2 SLP177 T02780194 51007=
201808131352 METAR KATL 131352Z 32005KT 10SM FEW200 FEW250 27/21 A3008 RMK AO2 SLP176 T02670206=
201808131252 METAR KATL 131252Z 31006KT 9SM FEW200 SCT250 24/21 A3007 RMK AO2 SLP173 T02440206=
201808131152 METAR KATL 131152Z 32004KT 8SM FEW200 SCT250 23/20 A3007 RMK AO2 SLP170 T02330200 10244 20222 53007=
201808131052 METAR KATL 131052Z 30004KT 10SM SCT200 BKN250 22/20 A3006 RMK AO2 SLP166 T02220200=
201808130952 METAR KATL 130952Z 31003KT 10SM SCT200 BKN250 23/21 A3005 RMK AO2 SLP163 T02280206=
201808130852 METAR KATL 130852Z 32004KT 10SM SCT200 BKN250 23/21 A3005 RMK AO2 SLP163 T02330206 55003 $=
201808130752 METAR KATL 130752Z 31006KT 10SM FEW200 BKN250 23/21 A3005 RMK AO2 SLP162 T02330211 $=
201808130652 METAR KATL 130652Z 00000KT 10SM FEW200 BKN250 24/21 A3005 RMK AO2 SLP165 T02390206 $=
201808130552 METAR KATL 130552Z 32003KT 10SM SCT200 BKN250 24/21 A3006 RMK AO2 SLP166 T02440211 10300 20244 58004 $=
201808130452 METAR KATL 130452Z 29004KT 10SM BKN200 BKN250 25/21 A3006 RMK AO2 SLP168 T02500206 403280222 $=
201808130352 METAR KATL 130352Z 32005KT 10SM BKN200 BKN250 26/21 A3007 RMK AO2 SLP171 T02610206 $=
201808130252 METAR KATL 130252Z 00000KT 10SM BKN200 BKN250 27/20 A3007 RMK AO2 SLP170 T02670200 51021 $=
201808130152 METAR KATL 130152Z 31005KT 10SM FEW085 SCT200 BKN250 27/20 A3005 RMK AO2 SLP164 T02720200 $=
201808130052 METAR KATL 130052Z 32007KT 10SM FEW040 FEW085 SCT200 BKN250 29/19 A3003 RMK AO2 SLP158 CB DSNT SW TCU DSNT S-SW T02890189 $=
201808122352 METAR KATL 122352Z 31008KT 10SM FEW042 FEW080 SCT200 BKN250 30/22 A3000 RMK AO2 SLP149 CB DSNT SE TCU DSNT SW T03000217 10328 20300 55004 $=
201808122252 METAR KATL 122252Z 29006KT 10SM FEW042 FEW075 SCT200 BKN250 31/21 A3000 RMK AO2 SLP148 CB DSNT SE S TCU DSNT W T03060211 $=
201808122152 METAR KATL 122152Z 29009KT 10SM FEW043TCU SCT070 BKN200 BKN250 30/22 A3000 RMK AO2 LTG DSNT SE AND S SLP148 CB DSNT SE S TCU N E SE T03000217 $=
201808122052 METAR KATL 122052Z 31008KT 10SM SCT043TCU BKN060 BKN250 32/21 A3002 RMK AO2 SLP153 TCU NE & NW T03170206 56015 $=
201808121952 METAR KATL 121952Z 33010KT 10SM FEW042 BKN200 32/22 A3002 RMK AO2 SLP155 T03220217 $=
201808121852 METAR KATL 121852Z 31009G14KT 10SM SCT038 BKN050 BKN200 33/22 A3004 RMK AO2 SLP160 T03280217 $=
201808121752 METAR KATL 121752Z 33008KT 10SM FEW036 BKN250 31/22 A3006 RMK AO2 SLP167 T03110217 10311 20233 58007 $=
201808121652 METAR KATL 121652Z VRB05KT 10SM FEW036 BKN180 BKN250 31/22 A3008 RMK AO2 SLP173 T03110222 $=
201808121552 METAR KATL 121552Z 31008KT 10SM BKN250 29/21 A3009 RMK AO2 SLP178 T02890211 $=
201808121452 METAR KATL 121452Z 30007KT 10SM BKN250 28/22 A3008 RMK AO2 SLP176 T02830217 51012 $=
201808121352 METAR KATL 121352Z 33005KT 10SM BKN250 27/21 A3007 RMK AO2 SLP172 T02670211 $=
201808121252 METAR KATL 121252Z 32007KT 10SM SCT200 BKN250 24/21 A3006 RMK AO2 SLP169 T02440206 $=
201808121152 METAR KATL 121152Z 31006KT 10SM FEW200 SCT250 23/20 A3005 RMK AO2 SLP163 T02330200 10239 20222 53012 $=
201808121052 METAR KATL 121052Z 30006KT 10SM FEW200 SCT250 22/20 A3003 RMK AO2 SLP157 T02220200 $=
201808120952 METAR KATL 120952Z 30004KT 10SM FEW250 22/20 A3001 RMK AO2 SLP152 T02220200 $=
201808120852 METAR KATL 120852Z 30004KT 10SM FEW250 23/20 A3001 RMK AO2 SLP151 T02280200 58002 $=
201808120752 METAR KATL 120752Z 29005KT 10SM FEW250 23/20 A3002 RMK AO2 SLP153 T02330200 $=
201808120652 METAR KATL 120652Z 30004KT 10SM FEW250 23/21 A3002 RMK AO2 SLP154 T02330206 $=
201808120552 METAR KATL 120552Z 31004KT 10SM FEW250 24/21 A3002 RMK AO2 SLP153 T02390206 10289 20233 50002 $=
201808120452 METAR KATL 120452Z 31006KT 10SM FEW250 24/21 A3002 RMK AO2 SLP155 T02440206 403110228 $=
201808120352 METAR KATL 120352Z 29004KT 10SM SCT250 24/21 A3002 RMK AO2 SLP154 T02440206 $=
201808120252 METAR KATL 120252Z 32005KT 10SM FEW200 SCT250 26/21 A3001 RMK AO2 SLP152 T02560206 53013 $=
201808120152 METAR KATL 120152Z 31006KT 10SM FEW070 FEW200 SCT250 27/21 A3000 RMK AO2 SLP147 T02670206=
201808120052 METAR KATL 120052Z 31007KT 10SM FEW040 FEW070 SCT200 SCT250 27/20 A2998 RMK AO2 SLP143 TCU DSNT E T02720200=
201808112352 METAR KATL 112352Z 32007KT 10SM FEW042 FEW075 SCT200 SCT250 29/20 A2997 RMK AO2 SLP138 CB DSNT NE SE-SW T02890200 10311 20283 53003=
201808112252 METAR KATL 112252Z 33009KT 10SM FEW044 FEW070 SCT200 SCT250 30/20 A2997 RMK AO2 SLP136 CB DSNT NE SE-SW T03000200=
201808112152 METAR KATL 112152Z 32011KT 10SM FEW042 SCT065 SCT200 BKN250 31/20 A2996 RMK AO2 SLP135 CB DSNT SE-SW T03060200=
201808112052 METAR KATL 112052Z 33007G16KT 10SM SCT038 SCT060 BKN250 31/20 A2996 RMK AO2 SLP135 CB DSNT SE-SW T03060200 58017=
201808111952 METAR KATL 111952Z 33009KT 10SM FEW038 BKN060 BKN250 30/20 A2998 RMK AO2 SLP142 T03000200=
201808111852 METAR KATL 111852Z 30013KT 10SM FEW033 SCT060 BKN250 29/20 A3000 RMK AO2 SLP149 T02940200=
201808111752 METAR KATL 111752Z 33010KT 10SM SCT033 BKN060 29/21 A3002 RMK AO2 SLP153 MDT CU SE-SW T02890206 10289 20228 50001=
201808111652 METAR KATL 111652Z 32011KT 10SM SCT032 BKN049 29/21 A3002 RMK AO2 SLP154 MDT CU ALQDS T02890206=
201808111552 METAR KATL 111552Z 30007KT 10SM FEW028 BKN250 28/21 A3002 RMK AO2 SLP155 T02780206=
201808111452 METAR KATL 111452Z 29009KT 10SM FEW024 SCT250 27/21 A3001 RMK AO2 SLP153 T02720206 50007=
201808111352 METAR KATL 111352Z 30008KT 10SM SCT018 BKN250 26/21 A3002 RMK AO2 SLP153 T02610211=
201808111315 SPECI KATL 111315Z 28007KT 10SM SCT010 BKN250 24/21 A3001 RMK AO2 T02440211=
201808111252 METAR KATL 111252Z 29007KT 7SM BKN008 BKN250 24/21 A3001 RMK AO2 SLP150 CIG 006V010 T02390211=
201808111152 METAR KATL 111152Z 28004KT 7SM OVC006 23/21 A2999 RMK AO2 SLP146 BINOVC T02330211 10239 20228 53011=
201808111052 METAR KATL 111052Z 27007KT 7SM OVC008 23/21 A2998 RMK AO2 SLP140 CIG 006V010 T02280211=
201808110952 METAR KATL 110952Z 26006KT 8SM BKN008 BKN012 23/21 A2996 RMK AO2 SLP134 T02330211=
201808110852 METAR KATL 110852Z 27007KT 7SM BKN007 BKN014 23/22 A2996 RMK AO2 SLP133 CIG 006V009 BKN007 V SCT T02330217 55007=
201808110752 METAR KATL 110752Z 27008KT 7SM BKN006 BKN250 23/22 A2996 RMK AO2 SLP133 CIG 005V008 T02330222=
201808110731 SPECI KATL 110731Z 28008KT 8SM BKN006 BKN250 23/22 A2996 RMK AO2 CIG 005V008 BKN006 V SCT T02330217=
201808110652 METAR KATL 110652Z 26008KT 9SM SCT006 SCT250 23/22 A2996 RMK AO2 SLP134 SCT006 V BKN T02330217=
201808110649 SPECI KATL 110649Z 27008KT 10SM SCT006 23/22 A2996 RMK AO2 SCT006 V BKN=
201808110552 METAR KATL 110552Z 24005KT 8SM BKN007 BKN250 24/22 A2998 RMK AO2 SLP141 CIG 006V008 BKN008 V SCT T02390222 10278 20239 58005=
201808110515 SPECI KATL 110515Z 24005KT 10SM BKN008 BKN250 24/22 A2998 RMK AO2 BKN008 V SCT T02440222=
201808110452 METAR KATL 110452Z VRB04KT 10SM FEW008 BKN250 24/23 A2999 RMK AO2 SLP143 T02440228 403170217 $=
201808110352 METAR KATL 110352Z 22005KT 10SM FEW008 BKN250 24/23 A2999 RMK AO2 SLP144 T02440228=
201808110252 METAR KATL 110252Z 23008KT 10SM BKN250 25/23 A2999 RMK AO2 SLP147 T02500228 53016=
201808110152 METAR KATL 110152Z 22008KT 10SM FEW040 BKN250 26/22 A2998 RMK AO2 SLP142 T02610222=
201808110052 METAR KATL 110052Z 22006KT 10SM FEW040 SCT200 BKN250 27/23 A2995 RMK AO2 SLP132 T02670228=
201808102352 METAR KATL 102352Z 21007KT 10SM FEW040 SCT200 BKN250 28/23 A2995 RMK AO2 SLP130 T02780228 10317 20278 51004=
201808102252 METAR KATL 102252Z 24007KT 10SM FEW040TCU SCT200 BKN250 29/21 A2995 RMK AO2 SLP130 TCU E & S T02940206=
201808102152 METAR KATL 102152Z VRB06KT 10SM SCT040 BKN250 31/21 A2994 RMK AO2 SLP128 MDT CU ALQDS T03060206=
201808102052 METAR KATL 102052Z 27008KT 10SM SCT038 BKN250 31/22 A2993 RMK AO2 SLP125 T03110217 58026=
201808101952 METAR KATL 101952Z 28008KT 10SM SCT038 SCT150 BKN250 31/21 A2996 RMK AO2 SLP135 CB DSNT SE & SW T03060211=
201808101852 METAR KATL 101852Z 29008KT 10SM SCT034TCU BKN046 BKN100 29/22 A2998 RMK AO2 LTG DSNT SW SLP143 TCU ALQDS T02940217=
201808101752 METAR KATL 101752Z 28004KT 10SM SCT034 29/22 A3001 RMK AO2 SLP153 TCU E T02940222 10300 20222 58018=
201808101718 SPECI KATL 101718Z 30005KT 10SM SCT030TCU SCT180 29/22 A3003 RMK AO2 TCU E T02940222=
201808101652 METAR KATL 101652Z VRB04KT 10SM BKN025 BKN030 BKN180 29/23 A3004 RMK AO2 SLP160 T02940228=
201808101552 METAR KATL 101552Z VRB04KT 10SM SCT025 BKN180 BKN250 28/22 A3006 RMK AO2 SLP170 T02830222=
201808101520 SPECI KATL 101520Z VRB05KT 10SM SCT015 SCT250 27/22 A3007 RMK AO2 T02720217=
201808101452 METAR KATL 101452Z 29008KT 10SM BKN015 BKN250 26/22 A3007 RMK AO2 SLP173 T02610217 53002=
201808101352 METAR KATL 101352Z 31007KT 10SM SCT010 SCT250 25/21 A3007 RMK AO2 SLP172 T02500211=
201808101252 METAR KATL 101252Z 27007KT 6SM BR BKN008 BKN200 BKN250 23/21 A3006 RMK AO2 SLP171 CIG 006V010 T02330211=
201808101152 METAR KATL 101152Z 29007KT 3SM BR BKN008 OVC020 22/21 A3006 RMK AO2 SFC VIS 6 SLP171 CIG 006V010 BINOVC 70078 T02220206 10222 20217 53008=
201808101052 METAR KATL 101052Z 29006KT 3SM BR BKN005 OVC012 22/21 A3004 RMK AO2 SFC VIS 6 SLP166 CIG 004V007 BINOVC T02170206=
201808100952 METAR KATL 100952Z 27003KT 3SM BR OVC003 22/21 A3004 RMK AO2 SFC VIS 5 SLP163 CIG 002V004 T02170206=
201808100852 METAR KATL 100852Z 28007KT 6SM BR OVC004 22/21 A3004 RMK AO2 SLP163 CIG 003V005 BINOVC T02170206 56009=
201808100752 METAR KATL 100752Z 28006KT 8SM BKN004 BKN200 BKN250 22/21 A3004 RMK AO2 SLP163 CIG 003V005 T02170206=
201808100722 SPECI KATL 100722Z 28006KT 8SM BKN004 BKN200 BKN250 22/21 A3004 RMK AO2 CIG 003V005 T02170206=
201808100652 METAR KATL 100652Z 27006KT 10SM SCT004 SCT200 BKN250 22/20 A3004 RMK AO2 SLP164 T02170200=
201808100650 SPECI KATL 100650Z 27006KT 10SM SCT005 SCT200 BKN250 22/20 A3005 RMK AO2=
201808100615 SPECI KATL 100615Z 26007KT 10SM BKN005 BKN200 BKN250 22/21 A3006 RMK AO2 CIG 004V006 T02170206=
201808100552 METAR KATL 100552Z 26004KT 10SM FEW003 SCT200 BKN250 22/21 A3006 RMK AO2 SLP169 T02170206 10233 20217 50004=
201808100452 METAR KATL 100452Z 28006KT 10SM FEW004 BKN200 BKN250 22/21 A3008 RMK AO2 SLP173 T02220206 403220217=
201808100352 METAR KATL 100352Z 26003KT 10SM FEW150 SCT200 BKN250 22/21 A3006 RMK AO2 SLP168 T02220206=
201808100252 METAR KATL 100252Z 22005KT 10SM FEW110 SCT150 BKN200 BKN250 23/21 A3005 RMK AO2 SLP165 T02280211 58004=
201808100152 METAR KATL 100152Z 00000KT 10SM FEW110 BKN150 BKN200 OVC250 23/21 A3006 RMK AO2 SLP170 T02280211=
201808100052 METAR KATL 100052Z 23004KT 10SM SCT110 BKN150 BKN200 OVC250 23/21 A3006 RMK AO2 SLP171 T02330211=
201808092352 METAR KATL 092352Z 23003KT 10SM SCT120 BKN150 OVC200 23/21 A3006 RMK AO2 SLP170 60078 T02330211 10322 20217 55009=
201808092252 METAR KATL 092252Z 34005KT 10SM SCT110 BKN150 OVC200 23/21 A3004 RMK AO2 RAE10 SLP166 P0000 T02330211=
201808092152 METAR KATL 092152Z 35007KT 9SM -RA FEW005 SCT070 BKN100 OVC200 23/21 A3007 RMK AO2 PK WND 31031/2054 WSHFT 2041 SLP173 TSE36 LTG DSNT NE P0049 T02330211=
201808092137 SPECI KATL 092137Z 35008KT 7SM -RA FEW015 SCT070 BKN100 OVC200 23/21 A3007 RMK AO2 PK WND 31031/2054 WSHFT 2041 TSE36 LTG DSNT NE & E-SE TS MOV E P0049 T02330211=
201808092110 SPECI KATL 092110Z 34010KT 6SM -TSRA BR FEW005 SCT012CB BKN050 OVC150 23/21 A3008 RMK AO2 PK WND 31031/2054 WSHFT 2041 VIS LWR NE-SE FRQ LTGICCG NE-SE TS NE-SE MOV E P0047 T02280206=
201808092057 SPECI KATL 092057Z 33020G33KT 310V020 1 1/4SM R09R/2600VP6000FT +TSRA BR FEW005 BKN012CB OVC050 22/19 A3008 RMK AO2 PK WND 31031/2054 WSHFT 2041 SFC VIS 2 LTG DSNT W-N FRQ LTGICCG OHD TS OHD MOV E P0028 T02170194=
201808092055 SPECI KATL 092055Z 31023G33KT 2SM R09R/2600VP6000FT +TSRA BR FEW005 BKN015CB OVC050 22/20 A3009 RMK AO2 PK WND 31031/2054 WSHFT 2041 LTG DSNT W-N FRQ LTGICCG OHD-SW-NW TS OHD-SW-NW MOV E P0013 T02220200=
201808092052 METAR KATL 092052Z 29023G34KT 3SM R09R/2800VP6000FT +TSRA BR FEW005 BKN015CB OVC050 23/21 A3009 RMK AO2 PK WND 31034/2043 LTG DSNT W-N RAB1955E09B43 TSB40 SLP180 FRQ LTGICCG OHD-SW-NW TS OHD-SW-NW MOV E P0003 60029 T02280211 53010=
201808092046 SPECI KATL 092046Z 30025G34KT 8SM -TSRA BKN015CB BKN050 OVC120 25/22 A3008 RMK AO2 PK WND 31034/2043 LTG DSNT W-N RAB1955E09B43 TSB40 PRESRR FRQ LTGICCG OHD-SW-NW TS OHD-SW-NW MOV E P0001=
201808092037 SPECI KATL 092037Z 25007KT 10SM VCTS FEW015CB SCT120 BKN250 27/23 A3004 RMK AO2 LTG DSNT W-N RAB1955E09 OCNL LTGICCG SW-NW TS VC SW-NW MOV E CB SW-NW DSNT E MOV E SHRA VC SW-NW & DSNT E P0001 T02670233=
201808091956 SPECI KATL 091956Z 19004KT 8SM -RA FEW030 BKN100 BKN120 BKN250 25/22 A3003 RMK AO2 LTG DSNT ALQDS RAB55 TS MOV E CB DSNT E & DSNT SW-NW TCU DSNT N-NE DSNT S-SW P0000 T02500222=
201808091952 METAR KATL 091952Z 18004KT 10SM FEW030 BKN070 BKN100 BKN250 25/22 A3003 RMK AO2 LTG DSNT ALQDS RAB1856E06B13E49 TSB1854E48 SLP161 TS MOV E CB DSNT E DSNT SW-NW TCU DSNT N-NE DSNT S-SW P0026 T02500222=
201808091949 SPECI KATL 091949Z VRB03KT 9SM FEW030 BKN070 BKN100 BKN250 25/22 A3004 RMK AO2 LTG DSNT ALQDS RAB1856E06B13E49 TSB1854E48 TS MOV E CB DSNT E DSNT SW-NW TCU DSNT N-NE S-SW P0026=
201808091934 SPECI KATL 091934Z 24005KT 8SM -TSRA FEW030CB BKN050 BKN100 BKN250 24/22 A3004 RMK AO2 LTG DSNT NE-SE RAB1856E06B13 TSB1854 VIS LWR E-SE SHRA FRQ LTGICCG E-SE TS E-SE MOV E P0025 T02440217=
201808091925 SPECI KATL 091925Z COR 24006KT 6SM R09R/4500VP6000FT -TSRA BR FEW015 BKN030CB BKN050 BKN250 24/22 A3005 RMK AO2 LTG DSNT E AND SE RAB1856E06B13 TSB1854 VIS LWR E-SE SHRA FRQ LTGICCG OHD-E-SE TS OHD-E-SE MOV E P0022=
201808091913 SPECI KATL 091913Z 25011G23KT 8SM -TSRA BKN030CB BKN040 BKN070 BKN250 25/22 A3005 RMK AO2 LTG DSNT E AND SE AND W RAB1856E06B13 TSB1854 VIS LWR E-SE-SW-W SHRA FRQ LTGICCG OHD-E-SE-SW-W TS OHD-E-SE-SW-W MOV E P0001 T02500217=
201808091906 SPECI KATL 091906Z COR 24011G17KT 8SM R09R/4500VP6000FT TS BKN030CB BKN040 BKN070 BKN250 26/21 A3005 RMK AO2 LTG DSNT E AND SE AND W RAB1856E06 TSB1854 VIS LWR NE-SE-SW-W SHRA OCNL LTGICCG OHD-NE-SE-SW-W TS OHD-NE-SE-SW-W MOV E=
201808091856 SPECI KATL 091856Z 26009G19KT 230V290 6SM -TSRA SCT030CB BKN045TCU BKN070 BKN250 29/22 A3004 RMK AO2 LTG DSNT ALQDS RAB56 TSB54 OCNL LTGICCG OHD-N-SE-SW TS OHD-N-SE-SW MOV E P0000 T02890217=
201808091852 METAR KATL 091852Z 29008G19KT 250V320 10SM VCTS SCT030CB BKN045TCU BKN250 29/22 A3004 RMK AO2 LTG DSNT ALQDS SLP160 OCNL LTGICCG N S-SW TS VC N S-SW MOV E CB N S-SW MOV E TCU OHD ALQDS SHRA VC N S-SW T02940217=
201808091823 SPECI KATL 091823Z 34010KT 10SM VCTS FEW030CB BKN040TCU BKN250 32/22 A3004 RMK AO2 LTG DSNT ALQDS OCNL LTGICCG SE-SW TS VC SE-SW MOV E CB SE-SW DSNT NE NW MOV E TCU OHD-SE-SW-NW SHRA VC SE-SW T03170222=
201808091752 METAR KATL 091752Z 31008KT 10SM SCT035 SCT250 32/23 A3006 RMK AO2 LTG DSNT S-W SLP165 CB DSNT NE SE SW NW TCU DSNT ALQDS T03220233 10322 20228 58015=
201808091652 METAR KATL 091652Z 28008KT 240V300 10SM FEW030 SCT120 SCT250 31/23 A3009 RMK AO2 LTG DSNT SE-SW SLP177 CB DSNT SE S SW NW TCU DSNT SE-S-SW MDT CU NW-N T03110228=
201808091552 METAR KATL 091552Z 30009KT 10SM FEW030 FEW150 SCT250 30/23 A3010 RMK AO2 SLP182 TCU DSNT S-SW T03000228=
201808091452 METAR KATL 091452Z 29008KT 10SM FEW020 FEW100 SCT160 SCT250 28/23 A3010 RMK AO2 SLP183 ACC DSNT S-SW-W T02830228 52010=
201808091352 METAR KATL 091352Z 27011KT 10SM FEW020 FEW150 FEW250 27/22 A3009 RMK AO2 SLP180 CB DSNT N W T02670222=
201808091252 METAR KATL 091252Z 25005KT 10SM FEW038 FEW150 SCT200 SCT250 25/22 A3008 RMK AO2 SLP177 CB DSNT W NW T02500217=
201808091152 METAR KATL 091152Z 28005KT 10SM FEW038 FEW150 SCT200 SCT250 23/21 A3007 RMK AO2 SLP172 CB DSNT N W-NW 70041 T02280211 10228 20222 53005=
201808091052 METAR KATL 091052Z 28004KT 10SM FEW040 FEW150 SCT200 SCT250 22/21 A3006 RMK AO2 SLP167 CB DSNT W T02220206=
201808090952 METAR KATL 090952Z 27004KT 10SM FEW038TCU FEW150 SCT200 BKN250 22/21 A3005 RMK AO2 SLP166 TCU NE T02220206=
201808090852 METAR KATL 090852Z 22004KT 10SM FEW038CB SCT150 SCT200 BKN250 22/21 A3005 RMK AO2 SLP166 CB NE MOV E TCU SE SHRA NE T02220206 56009=
201808090752 METAR KATL 090752Z 00000KT 10SM FEW004 BKN038 BKN150 BKN200 22/21 A3007 RMK AO2 SLP170 T02220211 $=
201808090739 SPECI KATL 090739Z 19006KT 10SM FEW004 SCT038 BKN150 BKN200 22/21 A3007 RMK AO2 T02220206 $=
201808090652 METAR KATL 090652Z 00000KT 10SM FEW110 BKN150 BKN200 23/21 A3006 RMK AO2 SLP170 T02280211 $=
201808090552 METAR KATL 090552Z 27004KT 10SM FEW120 BKN150 OVC200 23/21 A3008 RMK AO2 SLP176 60041 T02280211 10278 20222 50002 $=
201808090452 METAR KATL 090452Z 23003KT 10SM SCT110 BKN150 OVC200 23/21 A3009 RMK AO2 SLP178 T02280211 403280222 $=
201808090352 METAR KATL 090352Z 35004KT 10SM FEW110 BKN150 OVC200 23/21 A3009 RMK AO2 RAE38 SLP179 P0000 T02280206 $=
201808090252 METAR KATL 090252Z 22003KT 10SM -RA FEW070 BKN100 OVC150 22/21 A3008 RMK AO2 TSE23 SLP175 LTG DSNT SE-SW P0004 60041 T02220206 50006 $=
201808090223 SPECI KATL 090223Z 23004KT 8SM -RA FEW070 BKN110 OVC150 22/20 A3009 RMK AO2 TSE23 LTG DSNT S-SW TS DSIPTD P0002 T02220200 $=
201808090152 METAR KATL 090152Z 26014KT 7SM -TSRA FEW025CB SCT070 BKN110 OVC150 22/21 A3011 RMK AO2 SLP187 OCNL LTGICCA S-W TS S-W MOV E P0002 T02220206 $=
201808090052 METAR KATL 090052Z 35007KT 5SM TSRA SCT025CB BKN040 BKN100 OVC200 24/21 A3010 RMK AO2 PK WND 35043/0039 WSHFT 2341 SLP182 RAB29 TSB19 VIS LWR NE-SE OCNL LTGICCG N-E-SE TS N-E-SE MOV E P0035 T02390211 $=
201808090039 SPECI KATL 090039Z 34025G43KT 1 1/2SM R09R/2000VP6000FT +TSRA BR SCT025CB BKN040 BKN100 OVC200 23/21 A3010 RMK AO2 PK WND 35043/0039 WSHFT 2341 RAB29 TSB19 OCNL LTGICCG OHD-ALQDS TS OHD-ALQDS MOV E P0018 T02330211=
201808090019 SPECI KATL 090019Z 34010KT 10SM TS FEW030CB SCT050 BKN100 BKN250 27/20 A3007 RMK AO2 WSHFT 2341 TSB19 OCNL LTGICCG SW-NW TS SW-NW MOV E T02720200=
201808090001 SPECI KATL 090001Z 34015KT 10SM SCT030CB BKN050 BKN150 BKN250 27/19 A3006 RMK AO2 WSHFT 2341 LTG DSNT W-NW CB NW-N-NE & DSNT W-NW MOV E TCU OHD-ALQDS T02720194=
201808082352 METAR KATL 082352Z 35016G26KT 10SM SCT030CB BKN050 BKN150 BKN250 28/19 A3006 RMK AO2 PK WND 34026/2344 LTG DSNT E AND W AND NW SLP168 CB N & DSNT E & W-NW MOV E TCU E-OHD-W T02780194 10328 20278 53005=
201808082252 METAR KATL 082252Z 27008KT 10SM SCT045 SCT200 BKN250 31/22 A3003 RMK AO2 LTG DSNT N AND NE SLP158 CB DSNT N-NE & NW T03060217=
201808082152 METAR KATL 082152Z 25008KT 10SM FEW050 SCT250 32/21 A3003 RMK AO2 SLP158 CB DSNT N-NE & NW T03220206=
201808082052 METAR KATL 082052Z 25007KT 10SM SCT050TCU SCT250 32/21 A3004 RMK AO2 SLP162 CB DSNT NW-N TCU N-NE MDT CU SW-NW T03170211 56016=
201808081952 METAR KATL 081952Z 23009KT 10SM BKN040TCU BKN250 32/22 A3005 RMK AO2 SLP164 CB DSNT S NW TCU NE OHD-W T03220222=
201808081852 METAR KATL 081852Z 28006KT 10SM SCT037 SCT250 31/23 A3007 RMK AO2 SLP170 CB DSNT NE SE-SW NW TCU DSNT W-NW MDT CU NE-SE T03110228=
201808081752 METAR KATL 081752Z 21007KT 10SM SCT035TCU SCT250 31/22 A3009 RMK AO2 SLP178 CB DSNT NE NW TCU E W MDT CU NE-SE-SW T03110222 10317 20239 58014=
201808081652 METAR KATL 081652Z 29009KT 10SM FEW035 FEW200 SCT250 31/22 A3012 RMK AO2 SLP187 CB DSNT N-NE DSNT NW T03110222=
201808081552 METAR KATL 081552Z 28009KT 10SM FEW040 FEW200 BKN250 31/22 A3013 RMK AO2 SLP190 CB DSNT N T03060217=
201808081452 METAR KATL 081452Z 25007KT 10SM FEW030 FEW200 SCT250 29/21 A3013 RMK AO2 SLP193 T02890211 53006=
201808081352 METAR KATL 081352Z 27006KT 10SM BKN250 27/21 A3012 RMK AO2 SLP190 T02720206=
201808081252 METAR KATL 081252Z 27008KT 10SM SCT200 SCT250 26/20 A3012 RMK AO2 SLP189 T02560200=
201808081152 METAR KATL 081152Z 27004KT 10SM FEW040 FEW150 SCT200 SCT250 24/20 A3011 RMK AO2 SLP188 T02390200 10239 20228 53009=
201808081052 METAR KATL 081052Z 23003KT 10SM FEW150 SCT200 SCT250 23/20 A3010 RMK AO2 SLP185 T02280200=
201808080952 METAR KATL 080952Z 00000KT 10SM BKN200 BKN250 23/20 A3009 RMK AO2 SLP181 T02330200=
201808080852 METAR KATL 080852Z 23003KT 10SM SCT200 BKN250 23/21 A3009 RMK AO2 SLP176 T02330206 56004=
201808080752 METAR KATL 080752Z 23003KT 10SM BKN200 BKN250 23/21 A3009 RMK AO2 SLP177 T02330206=
201808080652 METAR KATL 080652Z 22005KT 10SM FEW150 BKN200 BKN250 24/21 A3009 RMK AO2 SLP177 T02390206=
201808080552 METAR KATL 080552Z 19004KT 10SM FEW150 BKN200 BKN250 24/21 A3010 RMK AO2 SLP180 T02390206 10272 20239 58002=
201808080452 METAR KATL 080452Z 23003KT 10SM FEW150 BKN200 BKN250 24/21 A3011 RMK AO2 SLP183 T02390206 403330239=
201808080352 METAR KATL 080352Z 23004KT 10SM SCT150 BKN200 BKN250 24/20 A3010 RMK AO2 SLP183 T02390200=
201808080252 METAR KATL 080252Z 22006KT 10SM FEW150 SCT200 BKN250 24/20 A3010 RMK AO2 SLP182 T02440200 51015=
201808080152 METAR KATL 080152Z 21005KT 10SM FEW150 BKN200 BKN250 25/20 A3010 RMK AO2 SLP181 T02500200=
201808080052 METAR KATL 080052Z 31006KT 10SM SCT150 BKN200 BKN250 26/20 A3007 RMK AO2 SLP170 T02610200=
201808072352 METAR KATL 072352Z 29005KT 10SM FEW120 BKN200 BKN250 27/19 A3006 RMK AO2 SLP168 T02720194 10333 20261 58005=
201808072252 METAR KATL 072252Z 21005KT 10SM FEW040 SCT100 BKN150CB BKN250 26/18 A3007 RMK AO2 SLP174 TSE44 LTG DSNT NW CBMAM OHD T02610183=
201808072245 SPECI KATL 072245Z 21007KT 10SM FEW040 SCT100 BKN150CB BKN250 26/18 A3008 RMK AO2 TSE44 LTG DSNT NW TS DSIPTD CBMAM OHD T02610183=
201808072227 SPECI KATL 072227Z 20008KT 10SM VCTS FEW040CB SCT100 BKN200 BKN250 26/19 A3008 RMK AO2 OCNL LTGICCG NW-N TS VC NW-N MOV N T02610189=
201808072152 METAR KATL 072152Z 20014G26KT 10SM TS SCT040CB BKN080 BKN200 OVC250 26/19 A3010 RMK AO2 PK WND 19034/2123 SLP183 TSB06 FRQ LTGICCG NE & VC W-N-NE TS NE & VC W-N-NE MOV STNRY T02610194=
201808072144 SPECI KATL 072144Z 20016G26KT 10SM TS SCT045CB BKN080 BKN200 BKN250 27/19 A3010 RMK AO2 PK WND 19034/2123 TSB06 FRQ LTGICCG N-NE & VC NW-N TS N-NE & VC NW-N MOV STNRY T02670194=
201808072107 SPECI KATL 072107Z 22008KT 10SM VCTS FEW045CB SCT100 BKN200 BKN250 33/21 A3008 RMK AO2 TSB06 FRQ LTGICCG NW-N-NE TS VC NW-N-NE MOV STNRY T03280211=
201808072052 METAR KATL 072052Z VRB05KT 10SM FEW045 SCT120 BKN250 33/22 A3007 RMK AO2 LTG DSNT S AND SW SLP172 CB DSNT NE DSNT SE-S-SW TCU DSNT NW-N T03280222 56017=
201808072017 SPECI KATL 072017Z VRB04KT 10SM VCTS FEW040CB SCT120 SCT250 31/22 A3006 RMK AO2 LTG DSNT NE-S OCNL LTGICCG NE TS VC NE MOV SE CB NE DSNT SE-SW SHRA VC NE T03110217=
201808071952 METAR KATL 071952Z 10SM FEW045TCU SCT120 BKN250 32/21 A3007 RMK AO2 LTG DSNT SE AND S SLP171 CB DSNT SE-S TCU N-NE-E DSNT NW SHRA DSNT SE-S T03220211=
201808071905 SPECI KATL 071905Z 27005KT 10SM FEW040 SCT120 BKN250 32/22 A3010 RMK AO2 LTG DSNT E-S CB DSNT NE-SE-S TCU DSNT NE W-NW SHRA DSNT NE-SE-S T03220217=
201808071852 METAR KATL 071852Z 28006KT 10SM VCTS FEW040CB SCT120 SCT250 32/22 A3009 RMK AO2 LTG DSNT SE AND S SLP178 OCNL LTGICCG SE-S TS VC SE-S MOV SE CB SE-S DSNT NE-SE-S W TCU DSNT N-NE-E SW-NW SHRA VC SE-S T03170222=
201808071829 SPECI KATL 071829Z 26006G15KT 10SM VCTS FEW040CB SCT120 BKN250 31/21 A3010 RMK AO2 LTG DSNT ALQDS OCNL LTGICCG SE TS VC SE MOV SE CB SE DSNT NE S TCU DSNT N-NE S SHRA VC SE DSNT NE S T03060206=
201808071827 SPECI KATL 071827Z 27009KT 10SM R09R/5500VP6000FT VCTS FEW040CB SCT120 BKN250 31/21 A3011 RMK AO2 LTG DSNT ALQDS OCNL LTGICCG SE TS VC SE MOV SE CB SE DSNT NE S TCU DSNT N-NE S SHRA VC SE DSNT NE S T03060206=
201808071823 SPECI KATL 071823Z 28010KT 10SM R09R/5500VP6000FT FEW040CB SCT120 BKN250 32/22 A3011 RMK AO2 LTG DSNT ALQDS CB NE SE NW MOV SE SHRA VC NE SE NW TCU DSNT N-NE S T03170217=
201808071752 METAR KATL 071752Z 28009KT 10SM FEW035 SCT045 BKN250 32/19 A3012 RMK AO2 LTG DSNT E AND SE AND W SLP188 CB DSNT E-SE SW-W TCU DSNT N-NE SE-SW NW SHRA DSNT NE-SE SW-W T03220194 10328 20256 58009=
201808071743 SPECI KATL 071743Z 31008KT 10SM FEW035 SCT045 SCT250 32/21 A3012 RMK AO2 LTG DSNT E AND SE AND W CB DSNT NE-SE & DSNT SW-W TCU DSNT N-NE & DSNT SE-SW & DSNT NW SHRA DSNT NE-SE & DSNT SW-W T03170211=
201808071728 SPECI KATL 071728Z 31011KT 10SM VCTS FEW030CB BKN050TCU BKN250 32/21 A3013 RMK AO2 LTG DSNT E AND SE OCNL LTGICCG NW TS VC NW MOV SE CB SW-NW & DSNT NE-SE MOV SE SHRA VC SW-NW & DSNT NE-SE TCU NE-SE-SW T03170206=
201808071652 METAR KATL 071652Z 27005KT 10SM FEW030CB BKN040TCU BKN250 32/23 A3014 RMK AO2 LTG DSNT NE AND E SLP192 TSB13E46 CB NE & SE & NW MOV SE TCU OHD & ALQDS SHRA VC NE & SE & NW T03220228=
201808071638 SPECI KATL 071638Z 28007KT 10SM VCTS FEW035CB BKN040TCU BKN250 31/22 A3014 RMK AO2 TSE13B25E26 OCNL LTGICCG NE & SE TS VC NE & SE MOV SE CB NE & SE MOV SE TCU SE-S-SW-NW SHRA VC NE & SE T03060217=
201808071615 SPECI KATL 071615Z 27007KT 10SM VCTS FEW030CB SCT040TCU SCT250 32/23 A3014 RMK AO2 TSE13 OCNL LTGICCG NE TS VC NE MOV E CB NE MOV E TCU SE-S-SW & NW SHRA VC NE T03220228=
201808071603 SPECI KATL 071603Z 29009KT 10SM FEW030CB SCT040TCU SCT250 32/22 A3015 RMK AO2 CB NE & E MOV E TCU SE-S-SW & NW SHRA VC NE & E T03220222=
201808071552 METAR KATL 071552Z 29007KT 10SM SCT040TCU SCT250 31/22 A3015 RMK AO2 SLP197 TCU N-NE-E-SE-S T03060217=
201808071452 METAR KATL 071452Z VRB04KT 10SM FEW030 FEW200 SCT250 32/23 A3015 RMK AO2 SLP198 CB DSNT S-SW T03170228 50004=
201808071352 METAR KATL 071352Z 00000KT 10SM FEW200 FEW250 29/23 A3015 RMK AO2 SLP198 CB DSNT S-SW T02890233=
201808071252 METAR KATL 071252Z 18003KT 10SM FEW002 FEW150 SCT200 SCT250 27/23 A3015 RMK AO2 SLP196 FU FEW002 FU PLUME NW T02670228=
201808071152 METAR KATL 071152Z 00000KT 10SM FEW002 SCT250 26/22 A3014 RMK AO2 SLP194 FU FEW002 FU PLUME NW-N T02560222 10272 20244 53012=
201808071052 METAR KATL 071052Z 00000KT 10SM FEW200 SCT250 24/22 A3013 RMK AO2 SLP191 VIRGA NW-NE T02440217=
201808070952 METAR KATL 070952Z 32003KT 10SM FEW200 SCT250 24/22 A3011 RMK AO2 SLP185 VIRGA N-NE T02440217=
201808070852 METAR KATL 070852Z 26003KT 10SM FEW200 BKN250 24/22 A3010 RMK AO2 SLP182 T02440222 56002=
201808070752 METAR KATL 070752Z 15003KT 10SM FEW200 BKN250 26/22 A3010 RMK AO2 SLP181 T02560217=
201808070652 METAR KATL 070652Z 32003KT 10SM FEW200 BKN250 27/22 A3010 RMK AO2 SLP180 T02670217=
201808070552 METAR KATL 070552Z 00000KT 10SM FEW200 BKN250 27/22 A3011 RMK AO2 SLP183 T02670222 10317 20267 58015=
201808070452 METAR KATL 070452Z 28004KT 10SM BKN250 27/22 A3013 RMK AO2 SLP190 T02720222 403390244=
201808070352 METAR KATL 070352Z 00000KT 10SM BKN250 28/22 A3014 RMK AO2 SLP195 T02830217=
201808070252 METAR KATL 070252Z 00000KT 10SM BKN250 29/22 A3015 RMK AO2 SLP198 T02890217 53014=
201808070152 METAR KATL 070152Z 31004KT 10SM FEW200 BKN250 29/22 A3015 RMK AO2 SLP196 T02940217=
201808070052 METAR KATL 070052Z 31007KT 10SM FEW200 SCT250 31/21 A3012 RMK AO2 SLP186 T03060211=
201808062352 METAR KATL 062352Z 32007KT 10SM FEW050 SCT250 32/21 A3011 RMK AO2 SLP185 CB DSNT S T03170211 10339 20317 53000=
201808062252 METAR KATL 062252Z 31008KT 10SM FEW050 SCT250 33/20 A3010 RMK AO2 SLP181 T03280200=
201808062152 METAR KATL 062152Z COR 32007KT 10SM FEW050 SCT250 33/21 A3010 RMK AO2 SLP182 MDT CU NE T03280206=
201808062052 METAR KATL 062052Z 33008KT 10SM FEW050 FEW200 SCT250 33/21 A3011 RMK AO2 SLP184 CB DSNT N & E & SE T03330211 56026=
201808061952 METAR KATL 061952Z 33010KT 10SM FEW050TCU SCT200 SCT250 34/21 A3013 RMK AO2 SLP190 TCU NE & SE & S T03390206=
201808061852 METAR KATL 061852Z 32007KT 10SM FEW050TCU SCT200 SCT250 33/22 A3016 RMK AO2 LTG DSNT SE SLP202 CB DSNT NE & SE TCU NE-SE-S T03330222=
201808061752 METAR KATL 061752Z 29005KT 10SM FEW045TCU SCT200 SCT250 33/22 A3019 RMK AO2 SLP211 TCU NE & SE & DSNT NW T03330222 10333 20261 58006=
201808061652 METAR KATL 061652Z 27006KT 10SM FEW045TCU FEW200 BKN250 33/23 A3021 RMK AO2 SLP216 TCU N-NE-E & W T03280228=
201808061552 METAR KATL 061552Z 29006KT 10SM FEW040 FEW200 BKN250 32/23 A3021 RMK AO2 SLP217 MDT CU NE-SE T03170228=
201808061452 METAR KATL 061452Z 28005KT 10SM FEW035 FEW200 SCT250 31/23 A3021 RMK AO2 SLP217 T03110228 50000=
201808061352 METAR KATL 061352Z 31004KT 10SM FEW250 30/23 A3021 RMK AO2 SLP219 T03000228=
201808061252 METAR KATL 061252Z 01003KT 10SM FEW200 FEW250 28/22 A3022 RMK AO2 SLP220 T02830222=
201808061152 METAR KATL 061152Z 02006KT 10SM FEW150 FEW200 FEW250 26/22 A3021 RMK AO2 SLP218 70001 T02610222 10267 20244 53010=
201808061052 METAR KATL 061052Z 30003KT 10SM FEW200 SCT250 24/22 A3019 RMK AO2 SLP213 T02440222=
201808060952 METAR KATL 060952Z 00000KT 10SM FEW200 SCT250 24/22 A3018 RMK AO2 SLP208 T02440222=
201808060852 METAR KATL 060852Z 00000KT 10SM SCT250 25/22 A3018 RMK AO2 SLP207 T02500222 56007=
201808060752 METAR KATL 060752Z 00000KT 10SM FEW005 FEW200 SCT250 25/23 A3018 RMK AO2 SLP208 T02500228=
201808060652 METAR KATL 060652Z 31003KT 10SM FEW200 25/23 A3018 RMK AO2 SLP209 T02500228=
201808060552 METAR KATL 060552Z 18003KT 10SM FEW250 25/22 A3020 RMK AO2 SLP215 T02500222 10294 20250 58007=
201808060452 METAR KATL 060452Z 00000KT 10SM FEW250 26/22 A3022 RMK AO2 SLP220 T02610222 403330239=
201808060352 METAR KATL 060352Z 00000KT 10SM SCT250 27/22 A3022 RMK AO2 SLP223 T02670222=
201808060252 METAR KATL 060252Z 00000KT 10SM FEW120 SCT250 27/22 A3022 RMK AO2 SLP222 T02720222 51014=
201808060152 METAR KATL 060152Z 00000KT 10SM FEW120 FEW200 SCT250 28/22 A3021 RMK AO2 SLP220 LTG DSNT NE CB DSNT NE T02780217=
201808060052 METAR KATL 060052Z 00000KT 10SM FEW045 FEW070 FEW120 BKN250 28/22 A3019 RMK AO2 SLP212 MCT CU S CB DSNT W AND NW TCU DSNT ALQDS T02830222=
201808052352 METAR KATL 052352Z 00000KT 10SM FEW050TCU FEW090 BKN250 29/22 A3018 RMK AO2 SLP209 RAE22 TSE22 TCU SE & S & DSNT ALQDS SHRA SE & S P0000 60001 T02890217 10333 20272 53003=
201808052328 SPECI KATL 052328Z 18005KT 10SM FEW050TCU SCT090 SCT200 BKN250 28/21 A3017 RMK AO2 LTG DSNT NE RAE22 TSE22 TS DSIPTD CB DSNT NE TCU SW AND DSNT ALQDS P0000 T02830206=
201808052252 METAR KATL 052252Z 21006KT 10SM -TSRA SCT048CB BKN065 BKN090 BKN250 27/21 A3018 RMK AO2 SLP209 RAB10E27B44 OCNL LTGICCG OHD-SE-SW & VC N-NE TS OHD-SE-SW MOVC SE TS VC N-NE TCU DSNT ALQDS P0001 T02720206=
201808052248 SPECI KATL 052248Z 16007G16KT 10SM -TSRA SCT048CB BKN065 BKN090 BKN250 27/20 A3017 RMK AO2 RAB10E27B44 OCNL LTGICCG OHD-SE-SW TS OHD-SE-SW MOV SE CB DSNT N-NE TCU DSNT ALQDS P0001=
201808052152 METAR KATL 052152Z 12006KT 10SM VCTS BKN048CB BKN095 BKN200 BKN250 31/21 A3017 RMK AO2 SLP205 OCNL LTGICCG VC NE & SE TS VC NE & SE MOV E CB OHD-E MOV E CB DSNT N & NW TCU ALQDS T03110206=
201808052102 SPECI KATL 052102Z VRB05KT 10SM TS SCT048CB BKN095 BKN200 BKN250 31/21 A3018 RMK AO2 LTG DSNT N AND NW OCNL LTGICCG OHD-E TS E MOV E CB DSNT N & NW TCU ALQDS T03110211=
201808052052 METAR KATL 052052Z 20005KT 10SM SCT048TCU SCT090 SCT200 BKN250 32/22 A3018 RMK AO2 LTG DSNT W SLP209 CB DSNT W & NW TCU ALQDS T03170217 56021=
201808051952 METAR KATL 051952Z 00000KT 10SM SCT048TCU SCT095 SCT250 33/22 A3019 RMK AO2 SLP212 TCU ALQDS T03280217=
201808051852 METAR KATL 051852Z VRB04KT 10SM SCT045TCU SCT090 SCT250 31/21 A3022 RMK AO2 SLP221 TCU ALQDS T03060211=
201808051752 METAR KATL 051752Z 00000KT 10SM SCT042TCU SCT085 SCT250 32/22 A3025 RMK AO2 SLP230 TCU ALQDS T03220222 10322 20250 58009=
201808051652 METAR KATL 051652Z VRB03KT 10SM SCT036TCU BKN080 BKN250 31/22 A3026 RMK AO2 SLP235 TCU ALQDS T03110217=
201808051552 METAR KATL 051552Z 33005KT 10SM SCT030TCU SCT065 SCT250 31/22 A3027 RMK AO2 SLP238 TCU ALQDS T03060222=
201808051452 METAR KATL 051452Z VRB04KT 10SM SCT024TCU SCT050 SCT200 SCT250 30/23 A3027 RMK AO2 SLP240 TCU SW-NW & DSNT N T03000228 50006=
201808051352 METAR KATL 051352Z 09005KT 10SM FEW016 FEW045 FEW200 SCT250 28/23 A3028 RMK AO2 SLP241 T02830228=
201808051252 METAR KATL 051252Z 00000KT 10SM FEW014 FEW040 FEW200 SCT250 28/23 A3027 RMK AO2 SLP238 T02780228=
201808051152 METAR KATL 051152Z 00000KT 10SM FEW010 FEW040 FEW100 FEW200 25/22 A3025 RMK AO2 SLP234 T02500222 10267 20239 51015=
201808051052 METAR KATL 051052Z 00000KT 10SM FEW040 FEW100 FEW200 24/22 A3024 RMK AO2 SLP230 T02390217=
201808050952 METAR KATL 050952Z 00000KT 10SM SCT039 SCT100 24/22 A3023 RMK AO2 SLP224 T02390217=
201808050852 METAR KATL 050852Z 00000KT 10SM FEW042 24/22 A3021 RMK AO2 SLP218 T02440217 55002=
201808050752 METAR KATL 050752Z 00000KT 10SM FEW042 FEW100 FEW250 24/22 A3021 RMK AO2 SLP219 T02440217=
201808050652 METAR KATL 050652Z 00000KT 10SM FEW042 FEW100 FEW250 26/22 A3021 RMK AO2 SLP219 T02560222=
201808050552 METAR KATL 050552Z 00000KT 10SM FEW100 FEW250 26/22 A3022 RMK AO2 SLP220 T02560217 10294 20250 50008=
201808050452 METAR KATL 050452Z 00000KT 10SM FEW100 FEW250 26/22 A3022 RMK AO2 SLP221 T02610217 403170228=
201808050352 METAR KATL 050352Z 23003KT 10SM FEW040 FEW100 FEW150 SCT250 26/21 A3020 RMK AO2 SLP217 T02610211=
201808050252 METAR KATL 050252Z 22003KT 10SM FEW040 FEW100 SCT150 SCT250 27/22 A3019 RMK AO2 SLP212 T02720217 53009=
201808050152 METAR KATL 050152Z 00000KT 10SM FEW040 FEW100 SCT150 SCT250 28/22 A3018 RMK AO2 SLP207 CB DSNT N T02780217=
201808050052 METAR KATL 050052Z 22003KT 10SM FEW040 SCT100 SCT150 SCT250 29/21 A3017 RMK AO2 SLP205 CB DSNT NW-N SHRA DSNT N T02890211=
201808042352 METAR KATL 042352Z 20005KT 10SM SCT045 SCT100 SCT200 SCT250 29/21 A3016 RMK AO2 LTG DSNT N SLP203 CB DSNT E & W & NW-N TCU DSNT N SHRA DSNT NW T02940211 10317 20294 53002=
201808042252 METAR KATL 042252Z 18007KT 10SM SCT045TCU SCT100 SCT250 31/20 A3016 RMK AO2 SLP201 TCU NW & DSNT S T03110200=
201808042152 METAR KATL 042152Z 10SM SCT045CB SCT100 BKN200 BKN250 31/20 A3016 RMK AO2 SLP201 CB NW-N MOV STNRY SHRA NE AND NW TCU NW CB DSNT E T03110200=
201808042052 METAR KATL 042052Z 24004KT 10SM SCT044CB BKN090 BKN200 BKN250 32/20 A3016 RMK AO2 SLP200 CB N MOV NE TCU NE & DSNT W-NW SHRA N T03170200 56014=
201808041952 METAR KATL 041952Z 18009KT 10SM SCT040TCU BKN090 BKN200 BKN250 30/21 A3017 RMK AO2 SLP205 CB DSNT NE TCU N-NE & DSNT NW SHRA DSNT NE T03000206=
201808041852 METAR KATL 041852Z 18007KT 10SM BKN038TCU BKN080 BKN200 BKN250 31/22 A3019 RMK AO2 SLP211 TCU ALQDS T03060217=
201808041752 METAR KATL 041752Z 21005KT 10SM BKN034TCU BKN080 BKN200 BKN250 30/22 A3020 RMK AO2 SLP215 TCU ALQDS T03000217 10306 20228 58009=
201808041652 METAR KATL 041652Z 18007KT 10SM SCT032TCU SCT060 SCT200 BKN250 30/22 A3022 RMK AO2 SLP222 TCU NW-NE-E MDT CU ALQDS T03000222=
201808041552 METAR KATL 041552Z 19006KT 10SM SCT030TCU SCT065 BKN150 BKN200 28/22 A3023 RMK AO2 SLP226 TCU ALQDS T02780217=
201808041452 METAR KATL 041452Z 13003KT 10SM SCT026TCU SCT150 SCT200 BKN250 28/22 A3023 RMK AO2 SLP225 TCU ALQDS T02830217 51008=
201808041352 METAR KATL 041352Z 16005KT 10SM FEW018 SCT150 SCT200 BKN250 27/22 A3023 RMK AO2 SLP225 ACC DSNT SW T02670222=
201808041252 METAR KATL 041252Z 00000KT 10SM FEW045 SCT150 BKN250 26/22 A3021 RMK AO2 SLP221 T02610222=
201808041157 SPECI KATL 041157Z 11003KT 10SM FEW005 FEW045 SCT150 SCT250 23/21 A3021 RMK AO2 T02280211=
201808041152 METAR KATL 041152Z 13003KT 10SM CLR 23/21 A3020 RMK AO2 SLP218 T02280211 10239 20228 53020=
201808041052 METAR KATL 041052Z 00000KT 10SM FEW040 FEW150 SCT200 SCT250 23/21 A3018 RMK AO2 SLP209 T02280211=
201808040952 METAR KATL 040952Z 00000KT 10SM CLR 23/21 A3016 RMK AO2 SLP202 T02280211=
201808040852 METAR KATL 040852Z 00000KT 10SM FEW035 FEW250 23/21 A3014 RMK AO2 SLP197 T02330206 55001=
201808040752 METAR KATL 040752Z 00000KT 10SM FEW035 BKN250 23/21 A3013 RMK AO2 SLP193 T02330211=
201808040652 METAR KATL 040652Z 22003KT 10SM FEW035 BKN250 24/21 A3014 RMK AO2 SLP194 T02390211=
201808040552 METAR KATL 040552Z 22003KT 10SM FEW035 BKN250 24/21 A3015 RMK AO2 SLP197 T02440211 10283 20239 58003=
201808040452 METAR KATL 040452Z 00000KT 10SM FEW035 BKN250 24/21 A3016 RMK AO2 SLP204 T02440211 403060217=
201808040352 METAR KATL 040352Z 22004KT 10SM FEW035 BKN250 25/21 A3015 RMK AO2 SLP201 T02500211=
201808040252 METAR KATL 040252Z 00000KT 10SM FEW035 SCT150 BKN250 26/21 A3016 RMK AO2 SLP202 T02560206 53016=
201808040152 METAR KATL 040152Z 00000KT 10SM FEW035 SCT150 BKN250 27/21 A3013 RMK AO2 SLP194 T02670211=
201808040052 METAR KATL 040052Z 22004KT 10SM FEW035 SCT250 27/21 A3012 RMK AO2 SLP190 TCU DSNT N T02720206=
201808032352 METAR KATL 032352Z 20004KT 10SM FEW040 SCT250 28/21 A3011 RMK AO2 SLP186 TCU DSNT NW-N T02830206 10306 20278 53005=
201808032252 METAR KATL 032252Z 20005KT 10SM FEW040 FEW250 29/20 A3009 RMK AO2 SLP180 T02940200=
201808032152 METAR KATL 032152Z 22007KT 10SM SCT040 SCT250 29/20 A3009 RMK AO2 SLP180 MDT CU OHD & NE T02940200=
201808032052 METAR KATL 032052Z 27005KT 10SM SCT040 SCT250 29/20 A3009 RMK AO2 SLP181 T02890200 58016=
201808031952 METAR KATL 031952Z 19004KT 10SM SCT040 BKN250 29/20 A3011 RMK AO2 SLP185 MDT CU ALQDS T02940200=
201808031852 METAR KATL 031852Z 00000KT 10SM SCT040TCU BKN250 29/21 A3013 RMK AO2 SLP193 TCU S & NW T02890206=
201808031752 METAR KATL 031752Z 30003KT 10SM SCT030 BKN250 28/21 A3014 RMK AO2 SLP197 MDT CU ALQDS T02830206 10283 20222 58002 $=
201808031652 METAR KATL 031652Z VRB04KT 10SM BKN034 BKN250 28/21 A3015 RMK AO2 SLP201 MDT CU ALQDS T02780211=
201808031552 METAR KATL 031552Z 31003KT 10SM FEW020 BKN030 BKN250 26/21 A3016 RMK AO2 SLP203 T02610206 $=
201808031452 METAR KATL 031452Z 24005KT 10SM SCT020 SCT250 25/21 A3015 RMK AO2 SLP200 T02500206 51007=
201808031448 SPECI KATL 031448Z 24005KT 10SM SCT020 SCT250 26/21 A3015 RMK AO2=
201808031352 METAR KATL 031352Z 27008KT 10SM FEW008 BKN020 BKN030 24/21 A3014 RMK AO2 SLP197 T02390211=
201808031252 METAR KATL 031252Z 29007KT 8SM BKN006 BKN014 OVC024 23/21 A3013 RMK AO2 SLP194 CIG 005V008 BINOVC T02280211=
201808031247 SPECI KATL 031247Z 28005KT 8SM BKN006 BKN012 OVC022 23/21 A3012 RMK AO2 CIG 004V008 BINOVC=
201808031152 METAR KATL 031152Z 21005KT 2SM BKN005 BKN018 OVC055 22/21 A3011 RMK AO2 SFC VIS 8 RAB08E37 SLP188 CIG 003V007 P0006 60010 70369 T02220211 10222 20217 51010=
201808031052 METAR KATL 031052Z 23003KT 2SM BKN005 BKN022 OVC060 22/21 A3011 RMK AO2 SFC VIS 8 SLP187 CIG 003V007 T02220211=
201808031034 SPECI KATL 031034Z 22005KT 2SM BKN005 BKN026 BKN060 BKN140 22/21 A3010 RMK AO2 SFC VIS 8 CIG 003V007 T02220211=
201808030952 METAR KATL 030952Z 23004KT 10SM SCT004 BKN008 BKN024 22/21 A3009 RMK AO2 RAB01E17 SLP182 CIG 006V010 P0000 T02170206=
201808030852 METAR KATL 030852Z 22004KT 10SM OVC005 22/21 A3008 RMK AO2 RAB05E40 SLP178 CIG 003V007 P0004 60004 T02220206 53007=
201808030752 METAR KATL 030752Z 22004KT 10SM BKN006 OVC017 22/21 A3007 RMK AO2 RAB01E13 SLP172 CIG 004V008 P0000 T02220211=
201808030652 METAR KATL 030652Z 22005KT 10SM OVC005 22/21 A3006 RMK AO2 RAE33 SLP171 CIG 003V007 P0000 T02220211=
201808030552 METAR KATL 030552Z 22006KT 10SM -RA OVC005 22/21 A3006 RMK AO2 RAB49 SLP170 CIG 004V007 P0000 60144 T02220211 10239 20222 51005=
201808030452 METAR KATL 030452Z 19009KT 10SM BKN006 OVC020 22/21 A3006 RMK AO2 SLP169 CIG 004V008 T02220211 402500217=
201808030352 METAR KATL 030352Z 18011KT 10SM BKN005 BKN012 OVC020 22/21 A3006 RMK AO2 RAE52 SLP169 BINOVC P0000 T02220211=
201808030252 METAR KATL 030252Z 17009KT 3SM -RA BR BKN006 OVC015 22/21 A3005 RMK AO2 SLP166 VIS LWR N-E P0001 60144 T02220211 51015=
201808030237 SPECI KATL 030237Z 15011G16KT 3SM -RA BR BKN006 BKN012 OVC030 22/21 A3005 RMK AO2 P0001 T02220211=
201808030152 METAR KATL 030152Z 11007KT 3SM -RA SCT006 BKN015 OVC060 23/21 A3004 RMK AO2 SLP163 P0009 T02280211=
201808030141 SPECI KATL 030141Z 11008KT 8SM -RA SCT006 BKN015 OVC060 23/21 A3004 RMK AO2 P0008 T02280211=
201808030116 SPECI KATL 030116Z 10010KT 5SM -RA BR FEW006 SCT015 BKN050 OVC150 23/21 A3002 RMK AO2 P0008 T02280211=
201808030052 METAR KATL 030052Z 10015G19KT 2SM RA BR FEW006 BKN020 OVC070 22/21 A3002 RMK AO2 SLP157 P0134 T02220206=
201808030013 SPECI KATL 030013Z 09015G20KT 1SM R09R/3500VP6000FT +RA BR FEW008CB BKN025 OVC070 22/21 A3001 RMK AO2 CB NE-OHD-SW MOV N P0031 T02220211=
201808022352 METAR KATL 022352Z 10012G23KT 2SM RA BR FEW006 BKN035 BKN070 OVC150 23/21 A3000 RMK AO2 SLP150 VIS LWR SE-SW P0062 60143 T02280206 10250 20222 58012=
201808022344 SPECI KATL 022344Z 11015G23KT 2SM RA BR FEW006 BKN030 OVC100 22/21 A3000 RMK AO2 P0061 T02220206=
201808022321 SPECI KATL 022321Z 09018G22KT 1SM R09R/3500VP6000FT +RA BR FEW006 BKN035 OVC100 22/21 A3000 RMK AO2 P0033 T02220211=
201808022255 SPECI KATL 022255Z 09016G19KT 2SM +RA BR FEW006 BKN035 BKN060 OVC150 22/21 A3002 RMK AO2 P0002 T02220211=
201808022252 METAR KATL 022252Z 09013KT 3SM RA BR FEW006 SCT035 BKN060 OVC150 22/21 A3002 RMK AO2 SLP158 P0035 T02220211=
201808022228 SPECI KATL 022228Z 07015KT 4SM RA BR FEW006 SCT020 BKN040 OVC150 23/21 A3003 RMK AO2 P0028 T02280211=
201808022214 SPECI KATL 022214Z 09011KT 2 1/2SM R09R/6000VP6000FT +RA BR FEW006 SCT015 BKN025 OVC150 23/21 A3003 RMK AO2 P0012 T02280211=
201808022152 METAR KATL 022152Z 12006KT 4SM RA BR FEW006 SCT015 BKN030 OVC150 23/22 A3003 RMK AO2 SLP161 P0030 T02280217=
201808022131 SPECI KATL 022131Z 06010KT 2SM R09R/5500VP6000FT +RA BR FEW008 BKN030 OVC080 23/21 A3003 RMK AO2 P0013 T02280211=
201808022052 METAR KATL 022052Z 07007KT 4SM -RA BR FEW010 BKN050 OVC080 23/21 A3003 RMK AO2 SLP162 P0015 60016 T02330206 58009=
201808022016 SPECI KATL 022016Z 09007KT 4SM R09R/6000VP6000FT +RA BR FEW012 BKN040 OVC060 23/22 A3005 RMK AO2 P0004 T02330217=
201808021952 METAR KATL 021952Z 09008KT 7SM R09R/4000VP6000FT -RA FEW013 SCT030 OVC050 24/22 A3005 RMK AO2 SLP167 P0001 T02390217=
201808021950 SPECI KATL 021950Z 09008KT 7SM -RA FEW015 SCT030 OVC050 24/22 A3005 RMK AO2 P0001=
201808021852 METAR KATL 021852Z 13005KT 10SM -RA BKN020 BKN030 OVC050 25/21 A3006 RMK AO2 RAB31 SLP171 P0000 T02500206=
201808021752 METAR KATL 021752Z 17006KT 10SM SCT010 BKN020 OVC050 25/21 A3007 RMK AO2 RAE19 SLP174 CB DSNT NE-E P0000 60072 T02500211 10250 20217 58011=
201808021652 METAR KATL 021652Z 19005KT 10SM -RA BKN009 BKN020 OVC050 24/21 A3010 RMK AO2 SLP184 P0001 T02390211=
201808021601 SPECI KATL 021601Z 13003KT 10SM -RA FEW007 BKN014 OVC060 23/21 A3011 RMK AO2 P0000 T02330211=
201808021552 METAR KATL 021552Z 00000KT 8SM -RA FEW007 SCT020 OVC050 23/21 A3011 RMK AO2 SLP187 P0007 T02280206=
201808021452 METAR KATL 021452Z 26006KT 3SM -RA BR SCT005 BKN030 OVC060 22/21 A3011 RMK AO2 SFC VIS 4 SLP187 P0014 60064 T02220211 53007=
201808021426 SPECI KATL 021426Z 22004KT 3SM -RA BR FEW007 SCT020 OVC050 22/21 A3010 RMK AO2 SFC VIS 4 P0008 T02220206=
201808021401 SPECI KATL 021401Z 22003KT 3SM -RA BR SCT005 BKN025 OVC050 22/21 A3010 RMK AO2 SFC VIS 4 P0005 T02170206=
201808021352 METAR KATL 021352Z 00000KT 1 1/4SM R09R/5000VP6000FT +RA BR SCT005 BKN020 OVC030 22/21 A3010 RMK AO2 SFC VIS 1 1/2 SLP186 P0046 T02170206=
201808021348 SPECI KATL 021348Z 19003KT 1SM R09R/5000VP6000FT +RA BR SCT005 BKN020 OVC030 22/21 A3010 RMK AO2 TWR VIS 1 1/4 P0040=
201808021333 SPECI KATL 021333Z 18007KT 1/2SM R09R/5000VP6000FT +RA BR BKN005 BKN020 OVC030 22/21 A3010 RMK AO2 SFC VIS 1 P0016 T02220206=
201808021329 SPECI KATL 021329Z 18009KT 1 1/4SM +RA BR SCT005 BKN012 OVC040 22/21 A3010 RMK AO2 TWR VIS 1 1/2 P0011 T02220206=
201808021315 SPECI KATL 021315Z 14004KT 1 1/2SM RA BR SCT008 BKN020 OVC044 22/21 A3010 RMK AO2 SFC VIS 2 1/2 P0004 T02220211=
201808021252 METAR KATL 021252Z 16004KT 3SM RA BR SCT007 BKN016 OVC030 22/21 A3009 RMK AO2 SFC VIS 4 SLP181 P0004 T02220206=
201808021222 SPECI KATL 021222Z 16004KT 3SM -RA BR SCT007 BKN012 OVC024 22/21 A3008 RMK AO2 SFC VIS 5 CIG 010V014 P0001 T02220206=
201808021152 METAR KATL 021152Z 15004KT 3SM -RA BR SCT005 BKN015 OVC055 22/21 A3009 RMK AO2 SFC VIS 6 SLP181 CIG 013V017 P0002 60002 70124 T02220206 10222 20217 53011=
201808021143 SPECI KATL 021143Z 17005KT 5SM -RA BR SCT005 BKN015 OVC090 22/21 A3008 RMK AO2 CIG 013V017 P0001 T02220206=
201808021052 METAR KATL 021052Z 15004KT 8SM -RA FEW004 SCT020 BKN070 OVC130 22/21 A3007 RMK AO2 SLP175 P0000 T02220206=
201808021007 SPECI KATL 021007Z 13004KT 10SM -RA FEW005 SCT017 BKN050 OVC130 22/21 A3007 RMK AO2 P0000 T02220206=
201808020952 METAR KATL 020952Z 00000KT 9SM -RA SCT005 BKN016 OVC044 22/21 A3006 RMK AO2 RAB49 SLP171 P0000 T02220206=
201808020942 SPECI KATL 020942Z 15004KT 10SM SCT007 BKN016 OVC046 22/21 A3006 RMK AO2 T02220206=
201808020852 METAR KATL 020852Z 15005KT 10SM BKN008 BKN015 OVC026 22/21 A3005 RMK AO2 RAE06B14E49 SLP168 CIG 006V010 P0000 60000 T02220206 55004 $=
201808020809 SPECI KATL 020809Z 16004KT 10SM BKN007 OVC015 22/21 A3005 RMK AO2 RAE06 CIG 005V009 P0000 T02220211 $=
201808020752 METAR KATL 020752Z 15005KT 9SM -RA SCT006 BKN010 OVC020 22/21 A3005 RMK AO2 RAB48 SLP167 CIG 008V012 P0000 T02220211 $=
201808020719 SPECI KATL 020719Z 15005KT 10SM SCT006 BKN016 OVC024 22/21 A3006 RMK AO2 CIG 014V018 T02220206 $=
201808020652 METAR KATL 020652Z 16004KT 10SM FEW004 SCT008 OVC014 22/21 A3006 RMK AO2 RAE02DZB02E48 SLP170 CIG 012V016 P0000 T02220206 $=
201808020552 METAR KATL 020552Z 12003KT 10SM -RA SCT004 BKN008 OVC015 22/21 A3006 RMK AO2 RAE13B34 SLP172 CIG 007V010 BINOVC P0000 60024 T02170206 10222 20211 58005 $=
201808020537 SPECI KATL 020537Z 14006KT 10SM -RA BKN007 BKN014 OVC026 22/21 A3007 RMK AO2 RAE13B34 CIG 005V009 P0000 T02220206 $=
201808020530 SPECI KATL 020530Z 13004KT 10SM SCT005 BKN010 OVC024 22/21 A3007 RMK AO2 RAE13 CIG 008V012 P0000 T02220206 $=
201808020513 SPECI KATL 020513Z 12005KT 10SM SCT006 SCT012 BKN024 OVC130 22/21 A3007 RMK AO2 RAE13 P0000 T02220206 $=
201808020452 METAR KATL 020452Z 13005KT 10SM -RA FEW004 SCT012 SCT028 OVC130 22/21 A3008 RMK AO2 RAE07B27 SLP178 PCPN VRY LGT P0000 T02170206 402440211 $=
201808020352 METAR KATL 020352Z 12003KT 10SM -RA FEW004 SCT020 BKN050 OVC150 22/21 A3008 RMK AO2 SLP178 P0001 T02220206 $=
201808020252 METAR KATL 020252Z 10005KT 8SM -RA FEW004 SCT020 BKN035 OVC150 22/21 A3008 RMK AO2 RAB06 SLP178 P0000 60023 T02170206 53012 $=
201808020152 METAR KATL 020152Z 10006KT 10SM FEW004 SCT080 BKN110 OVC200 22/20 A3007 RMK AO2 RAE31 SLP173 P0001 T02170200 $=
201808020052 METAR KATL 020052Z 00000KT 7SM -RA FEW007 SCT050 BKN090 OVC150 22/20 A3005 RMK AO2 SLP169 P0022 T02170200 $=
201808020026 SPECI KATL 020026Z 00000KT 6SM -RA BR FEW007 SCT040 BKN100 OVC150 21/20 A3005 RMK AO2 P0021 T02110200 $=
201808012352 METAR KATL 012352Z 00000KT 2SM RA BR FEW007 SCT015 BKN030 OVC150 21/19 A3005 RMK AO2 SLP167 P0037 60086 T02110194 10244 20211 53005 $=
201808012341 SPECI KATL 012341Z 25003KT 2SM R09R/4500VP6000FT +RA BR FEW007 SCT015 BKN040 OVC150 22/21 A3004 RMK AO2 P0023 T02170206 $=
201808012325 SPECI KATL 012325Z 28006KT 5SM R09R/5500VP6000FT -RA BR FEW007 SCT015CB BKN050 OVC150 22/21 A3004 RMK AO2 VIS LWR N-NE CB N-NE MOV NE P0019 T02220206 $=
201808012320 SPECI KATL 012320Z 25004KT 1SM R09R/2600VP6000FT RA BR SCT007 BKN015CB BKN060 OVC150 22/21 A3004 RMK AO2 CB OHD-NW MOV NE P0018 T02170206 $=
201808012316 SPECI KATL 012316Z 25009KT 1 1/2SM R09R/2600VP6000FT +RA BR SCT007 BKN015CB BKN060 OVC150 22/21 A3004 RMK AO2 CB OHD-NW MOV NE P0010 T02220206 $=
201808012252 METAR KATL 012252Z 17003KT 9SM -RA FEW007 SCT015CB BKN070 OVC150 24/22 A3003 RMK AO2 SLP162 CB SW-NW MOV NE P0002 T02390217 $=
201808012152 METAR KATL 012152Z 00000KT 10SM -RA FEW008 SCT030 BKN070 OVC150 24/22 A3003 RMK AO2 SLP160 CB DSNT SE & SW P0002 T02440217 $=
201808012052 METAR KATL 012052Z VRB03KT 8SM -RA FEW010CB BKN070 OVC090 24/22 A3003 RMK AO2 SLP161 CB E MOV NE P0003 60045 T02390217 56011 $=
201808012003 SPECI KATL 012003Z 21004KT 6SM -RA BR FEW015CB BKN030 OVC050 23/21 A3004 RMK AO2 VIS LWR NE SHRA CB NE MOV NE P0002 T02280211 $=
201808011959 SPECI KATL 011959Z 20004KT 6SM -RA BR SCT010CB BKN020 OVC040 23/21 A3004 RMK AO2 VIS LWR NE SHRA CB NE MOV NE P0001 T02280211 $=
201808011952 METAR KATL 011952Z 19006KT 1/2SM R09R/2600VP6000FT +RA BR BKN010CB BKN020 OVC030 23/21 A3004 RMK AO2 SFC VIS 1 RAB31RAEMMB45 SLP166 CB OHD MOV NE P0042 T02280206 $=
201808011948 SPECI KATL 011948Z 15009KT 1/2SM R09R/2200VP6000FT +RA FG BKN010CB BKN020 OVC030 23/21 A3005 RMK AO2 RAB31RAEMMB45 CB OHD-S MOV NE P0041 $=
201808011944 SPECI KATL 011944Z VRB05KT 1/2SM R09R/2200VP6000FT BR BKN010CB BKN020 OVC030 23/22 A3005 RMK AO2 SFC VIS 1 RAB31RAEMM CB OHD-S MOV NE P0023 T02330217 $=
201808011937 SPECI KATL 011937Z 24007KT 3SM R09R/4500VP6000FT -RA BKN013CB BKN020 OVC030 24/21 A3005 RMK AO2 TWR VIS 4 RAB31 VIS LWR S-SW SHRA CB OHD-S-SW MOV NE P0000 T02440211=
201808011852 METAR KATL 011852Z 20007KT 10SM SCT013 BKN030 OVC110 24/22 A3005 RMK AO2 RAE26B42E52 SLP165 P0000 T02440217=
201808011801 SPECI KATL 011801Z 21008KT 10SM -RA SCT010 BKN028 OVC065 24/22 A3006 RMK AO2 P0000 T02440217=
201808011752 METAR KATL 011752Z 20008KT 10SM -RA FEW010 BKN040 OVC080 24/22 A3007 RMK AO2 SLP172 P0001 60012 T02440222 10244 20222 58005=
201808011722 SPECI KATL 011722Z 18010G18KT 7SM -RA SCT010 BKN020 OVC090 24/22 A3007 RMK AO2 P0000 T02390217=
201808011652 SPECI KATL 011652Z COR 18009KT 9SM -RA BR SCT015 BKN050 OVC100 24/22 A3008 RMK AO2 SLP177 P0001 T02390217=
201808011652 METAR KATL 011652Z 18009KT 9SM -RA BR SCT015 BKN050 OVC100 24/22 A3008 RMK AO2 SLP177 P0001 T02390217=
201808011645 SPECI KATL 011645Z 18009KT 9SM -RA BR BKN015 BKN050 OVC090 24/22 A3008 RMK AO2 P0000 T02390217=
201808011559 SPECI KATL 011559Z 19006KT 2SM -RA BR BKN008 BKN012 OVC030 23/22 A3008 RMK AO2 SFC VIS 5 P0000 T02330217=
201808011552 METAR KATL 011552Z 18008KT 2SM -RA BR BKN010 BKN030 OVC050 23/21 A3009 RMK AO2 SFC VIS 6 SLP180 P0007 T02280211=
201808011452 METAR KATL 011452Z 19007KT 5SM RA BR BKN010 BKN030 OVC040 23/22 A3008 RMK AO2 SLP178 P0003 60003 T02330217 53010=
201808011352 METAR KATL 011352Z 18009KT 9SM -RA BKN010 BKN020 OVC030 23/21 A3007 RMK AO2 RAB48 SLP173 P0000 T02330211=
201808011300 SPECI KATL 011300Z 17008KT 6SM BR FEW005 BKN008 OVC012 23/21 A3006 RMK AO2 T02330211=
201808011252 METAR KATL 011252Z 18006KT 2SM BR BKN005 BKN008 OVC012 23/21 A3005 RMK AO2 SFC VIS 6 RAE14 SLP169 CIG 003V007 P0000 T02280211=
201808011236 SPECI KATL 011236Z 18009KT 2SM BR OVC005 23/21 A3005 RMK AO2 SFC VIS 6 RAE14 CIG 003V007 P0000 T02280211=
