##########################################################
# Query made at 04/20/2024 00:07:13 UTC
# Time interval: from 10/01/2019 12:00  to 10/31/2019 12:59  UTC
##########################################################

##########################################################
# KATL, Atlanta, Hartsfield - Jackson Atlanta International Airport (United States)
# WMO index: 72219. WIGOS ID: 0-20000-0-72219
# Latitude 33-38-59N. Longitude 084-25-00W. Altitude 312 m.
##########################################################

201910311252 METAR KATL 311252Z 20012KT 2SM -DZ BR BKN008 OVC015 22/21 A2991 RMK AO2 SFC VIS 6 DZB42 SLP120 CIG 006V010 P0000 T02220206=
201910311243 SPECI KATL 311243Z 20010G17KT 2SM -DZ BR BKN008 OVC014 22/21 A2991 RMK AO2 SFC VIS 4 DZB42 CIG 007V010 P0000 T02220206=
201910311152 METAR KATL 311152Z 20012KT 9SM OVC011 23/20 A2992 RMK AO2 SLP122 CIG 009V013 60000 70066 T02280200 10228 20222 51002=
201910311052 METAR KATL 311052Z 20010KT 10SM FEW008 BKN012 OVC022 22/20 A2991 RMK AO2 RAE05 SLP120 P0000 T02220200=
201910310952 METAR KATL 310952Z 20010G16KT 10SM -RA SCT009 BKN014 OVC045 23/20 A2992 RMK AO2 RAB51 SLP124 P0000 T02280200=
201910310852 METAR KATL 310852Z 19010G17KT 10SM SCT008 BKN014 OVC036 23/21 A2991 RMK AO2 SLP120 T02280206 56020=
201910310752 METAR KATL 310752Z 17007KT 9SM BKN007 OVC012 23/21 A2991 RMK AO2 SLP121 CIG 005V009 T02280211=
201910310652 METAR KATL 310652Z 19007KT 9SM BKN007 BKN012 OVC020 23/21 A2994 RMK AO2 SLP131 CIG 005V009 T02280211=
201910310552 METAR KATL 310552Z 20009KT 10SM BKN008 BKN013 OVC020 23/21 A2997 RMK AO2 SLP140 CIG 007V010 60000 T02280206 10228 20222 58010=
201910310452 METAR KATL 310452Z 19008G15KT 10SM BKN008 OVC030 23/21 A2998 RMK AO2 SLP145 CIG 005V012 T02280206 402280189=
201910310352 METAR KATL 310352Z 19006KT 10SM BKN007 OVC040 22/21 A2999 RMK AO2 RAB11E48 SLP149 CIG 005V010 P0000 T02220206=
201910310252 METAR KATL 310252Z 18008KT 10SM SCT007 BKN014 BKN040 OVC200 23/21 A3000 RMK AO2 SLP151 T02280206 55001=
201910310152 METAR KATL 310152Z 18009KT 10SM SCT008 BKN013 OVC040 23/21 A2999 RMK AO2 SLP149 T02280206=
201910310052 METAR KATL 310052Z 20008KT 10SM SCT007 BKN011 OVC050 23/21 A3000 RMK AO2 SLP151 T02280211=
201910302352 METAR KATL 302352Z 19008KT 9SM SCT008 BKN014 BKN050 OVC150 23/21 A3000 RMK AO2 SLP153 60029 T02280211 10228 20211 53005=
201910302252 METAR KATL 302252Z 18013KT 9SM SCT007 BKN015 BKN070 OVC150 23/21 A2999 RMK AO2 RAE15 SLP149 P0001 T02280211=
201910302152 METAR KATL 302152Z 17010KT 2SM -RA BR BKN006 BKN015 OVC070 22/21 A2998 RMK AO2 SFC VIS 5 RAB2059 SLP144 P0018 T02220211=
201910302052 METAR KATL 302052Z 14010KT 2SM BR BKN007 BKN010 OVC020 22/21 A2999 RMK AO2 SFC VIS 6 RAB1956E20 SLP147 P0002 60010 T02220206 56020=
201910301952 METAR KATL 301952Z 15008KT 2SM BR FEW004 BKN007 OVC012 22/21 A2999 RMK AO2 SFC VIS 6 RAE04B26E38 SLP150 TWRINC P0001 T02220206=
201910301947 SPECI KATL 301947Z 14008KT 2SM OVC007 22/21 A2999 RMK AO2 SFC VIS 7 RAE04B26E38 TWRINC P0001=
201910301902 SPECI KATL 301902Z 16006KT 1/2SM R09R/P6000FT -RA BR BKN004 BKN007 OVC010 22/21 A3001 RMK AO2 SFC VIS 5 TWRINC P0000 T02170206=
201910301852 METAR KATL 301852Z 15007KT 1/2SM R09R/P6000FT -RA BR BKN005 BKN008 OVC010 22/20 A3002 RMK AO2 SFC VIS 4 SLP158 TWRINC P0007 T02170200=
201910301806 SPECI KATL 301806Z 15008KT 1/2SM R09R/P6000FT -RA BR BKN005 BKN007 OVC010 21/20 A3004 RMK AO2 SFC VIS 3 TWRINC P0001 T02110200=
201910301752 METAR KATL 301752Z 15007KT 1/2SM R09R/4500VP6000FT -RA BR OVC004CB 21/20 A3005 RMK AO2 SFC VIS 4 RAE16B34 SLP169 TWRINC VIS LWR NE-SE SHRA CB OHD-NE-SE MOV NE P0025 60037 T02110200 10211 20200 58016=
201910301740 SPECI KATL 301740Z 14009KT 1/2SM R09R/2400VP6000FT +RA BR OVC004CB 21/19 A3005 RMK AO2 SFC VIS 1 RAE16B34 VIS LWR S SHRA CB S MOV NE P0006 T02110194=
201910301652 METAR KATL 301652Z 13009KT 1/2SM R09R/P6000FT -RA BR BKN004 BKN008 OVC010 21/19 A3007 RMK AO2 SFC VIS 5 RAE1553B36DZB17E36 SLP177 TWRINC P0004 T02060194 $=
201910301618 SPECI KATL 301618Z 13009G15KT 1/2SM R09R/P6000FT -DZ BR OVC004 21/19 A3009 RMK AO2 SFC VIS 2 RAE1553DZB17 TWRINC P0000 T02060194 $=
201910301552 METAR KATL 301552Z 14008KT 1/2SM R09R/P6000FT -RA BR OVC004 21/19 A3009 RMK AO2 SFC VIS 4 RAB19 SLP183 TWRINC P0001 T02060194 $=
201910301452 METAR KATL 301452Z 13008KT 1/2SM R09R/P6000FT BR OVC004 21/19 A3010 RMK AO2 SFC VIS 6 RAE39 SLP185 TWRINC P0003 60007 T02060194 58005 $=
201910301425 SPECI KATL 301425Z 13008KT 1/2SM R09R/P6000FT -RA BR OVC004 21/19 A3010 RMK AO2 SFC VIS 5 TWRINC P0003 T02060194 $=
201910301352 METAR KATL 301352Z 14009KT 1/2SM R09R/P6000FT RA BR OVC004CB 21/19 A3011 RMK AO2 SFC VIS 3 RAE1257B26 SLP191 VIS LWR SW-W-NW SHRA CB SW-W-NW MOV NE TWRINC P0003 T02060189 $=
201910301252 METAR KATL 301252Z 13007KT 1/2SM R09R/P6000FT -RA BR OVC003 20/19 A3011 RMK AO2 SFC VIS 6 SLP189 CIG 002V004 TWRINC P0001 T02000189 $=
201910301152 METAR KATL 301152Z 13006KT 1/2SM R09R/P6000FT -RA BR OVC003 20/19 A3011 RMK AO2 SFC VIS 4 SLP190 CIG 002V004 TWRINC P0001 60004 70008 T02000189 10200 20189 50002 $=
201910301052 METAR KATL 301052Z 13007KT 1/2SM R09R/P6000FT -RA BR OVC002 19/18 A3011 RMK AO2 SFC VIS 3 DZE50RAB50 SLP191 CIG 001V003 TWRINC P0000 T01940183=
201910300952 METAR KATL 300952Z 12007KT 1/2SM R09R/P6000FT -DZ BR OVC002 19/18 A3012 RMK AO2 SFC VIS 3 RAE30DZB30 SLP192 CIG 001V003 TWRINC P0000 T01940183=
201910300852 METAR KATL 300852Z 11007KT 1/2SM R09R/P6000FT -RA BR OVC003 19/18 A3011 RMK AO2 SFC VIS 2 1/2 SLP189 CIG 002V004 TWRINC P0003 60003 T01940183 58010=
201910300752 METAR KATL 300752Z 13005KT 1/2SM R09R/P6000FT -RA BR OVC002 19/18 A3012 RMK AO2 SFC VIS 1 1/2 DZE46RAB46 SLP194 TWRINC P0000 T01890183=
201910300652 METAR KATL 300652Z 11005KT 1/2SM R09R/3500V4500FT -DZ FG VV002 19/18 A3014 RMK AO2 SLP199 P0000 T01890178=
201910300552 METAR KATL 300552Z 12006KT 1/2SM R09R/2400V3500FT -DZ FG VV002 19/18 A3014 RMK AO2 RAE24DZB24 SLP199 P0000 60003 T01890178 10194 20189 58013=
201910300452 METAR KATL 300452Z 08007KT 1/2SM R09R/3500V5500FT -RA BR OVC003 19/18 A3016 RMK AO2 SFC VIS 1 1/4 SLP207 CIG 002V005 TWRINC P0000 T01890178 402170150=
201910300352 METAR KATL 300352Z 08005KT 1/2SM R09R/P6000FT -RA BR OVC003 19/17 A3017 RMK AO2 SFC VIS 1 1/2 SLP210 TWRINC P0003 T01890172=
201910300308 SPECI KATL 300308Z 08008KT 1/2SM R09R/P6000FT -RA BR OVC003 19/17 A3018 RMK AO2 SFC VIS 5 PCPN VRY LGT TWRINC P0000 T01890172=
201910300255 SPECI KATL 300255Z 08009KT 1SM R09R/P6000FT -RA BR OVC005 19/17 A3018 RMK AO2 SFC VIS 6 CIG 003V006 PCPN VRY LGT P0000 T01890172=
201910300252 METAR KATL 300252Z 08009KT 1 1/2SM -RA BR OVC005 19/17 A3018 RMK AO2 SFC VIS 6 SLP213 CIG 003V006 PCPN VRY LGT P0000 60000 T01890172 53009=
201910300201 SPECI KATL 300201Z 08009KT 1 1/2SM -RA BR OVC005 19/17 A3016 RMK AO2 SFC VIS 3 CIG 003V006 P0000 T01890172=
201910300152 METAR KATL 300152Z 09007KT 3SM -RA BR OVC005 19/17 A3016 RMK AO2 DZB25E32RAB32 SLP209 P0000 T01890172=
201910300132 SPECI KATL 300132Z 10009KT 2 1/2SM -RA BR OVC005 19/17 A3016 RMK AO2 DZB25E32RAB32 P0000 T01890172=
201910300052 METAR KATL 300052Z 09010KT 10SM OVC007 19/17 A3015 RMK AO2 SLP206 T01940172=
201910292352 METAR KATL 292352Z 08008KT 10SM OVC007 19/17 A3015 RMK AO2 SLP204 T01940172 10217 20194 50000=
201910292252 METAR KATL 292252Z 10008KT 10SM BKN009 OVC020 20/17 A3015 RMK AO2 SLP205 T02000172=
201910292152 METAR KATL 292152Z 12008KT 10SM SCT011 BKN017 BKN070 OVC200 20/17 A3015 RMK AO2 SLP205 T02000167=
201910292145 SPECI KATL 292145Z 13008KT 10SM BKN013 BKN070 OVC200 20/17 A3015 RMK AO2 T02000167=
201910292052 METAR KATL 292052Z 13009KT 10SM FEW020 BKN050 BKN070 OVC200 21/16 A3015 RMK AO2 SLP204 T02060161 55004=
201910291952 METAR KATL 291952Z 12004KT 10SM FEW020 BKN040 BKN060 OVC200 21/17 A3014 RMK AO2 SLP203 T02110167=
201910291852 METAR KATL 291852Z 16005KT 10SM FEW020 FEW030 BKN060 OVC200 21/16 A3014 RMK AO2 SLP202 T02060161=
201910291815 SPECI KATL 291815Z 16004KT 10SM FEW015 BKN028 BKN060 OVC200 20/16 A3015 RMK AO2 T02000156=
201910291752 METAR KATL 291752Z 16004KT 10SM FEW015 FEW030 BKN060 OVC200 19/16 A3016 RMK AO2 RAB01E20 SLP208 P0001 60001 T01940156 10206 20167 58010=
201910291711 SPECI KATL 291711Z 13004KT 9SM -RA FEW015 SCT030 BKN050 OVC200 19/16 A3017 RMK AO2 RAB01 P0001 T01940156=
201910291706 SPECI KATL 291706Z 14005KT 3SM RA FEW015 SCT030 OVC050 20/16 A3017 RMK AO2 RAB01 P0001 T02000156=
201910291652 METAR KATL 291652Z 13004KT 10SM FEW015 BKN050 BKN080 BKN200 20/14 A3018 RMK AO2 SLP214 T02000144=
201910291552 METAR KATL 291552Z 08006KT 10SM SCT040 BKN050 BKN070 BKN200 19/14 A3018 RMK AO2 SLP216 T01940139=
201910291452 METAR KATL 291452Z 10003KT 10SM BKN030 BKN040 BKN060 OVC200 19/13 A3019 RMK AO2 SLP219 T01890133 51021=
201910291352 METAR KATL 291352Z 09005KT 10SM BKN030 BKN060 OVC200 18/13 A3017 RMK AO2 SLP211 T01830128=
201910291252 METAR KATL 291252Z 10004KT 10SM FEW035 BKN060 BKN200 17/12 A3015 RMK AO2 SLP203 T01720122=
201910291152 METAR KATL 291152Z 08003KT 10SM BKN060 BKN200 17/12 A3012 RMK AO2 SLP196 T01670122 10167 20150 53008=
201910291052 METAR KATL 291052Z 07007KT 10SM SCT035 BKN050 BKN200 16/12 A3011 RMK AO2 SLP193 T01610122=
201910290952 METAR KATL 290952Z 09004KT 10SM SCT035 BKN046 BKN250 16/12 A3011 RMK AO2 SLP190 T01560122=
201910290852 METAR KATL 290852Z 08005KT 10SM FEW200 SCT250 15/12 A3010 RMK AO2 SLP187 T01500122 57001=
201910290752 METAR KATL 290752Z 07005KT 10SM FEW200 SCT250 16/12 A3011 RMK AO2 SLP188 T01610122=
201910290652 METAR KATL 290652Z 10004KT 10SM FEW200 SCT250 16/12 A3010 RMK AO2 SLP187 T01560122=
201910290552 METAR KATL 290552Z 08004KT 10SM FEW200 SCT250 16/12 A3011 RMK AO2 SLP189 T01610122 10206 20161 58004=
201910290452 METAR KATL 290452Z 00000KT 10SM FEW200 SCT250 17/13 A3011 RMK AO2 SLP190 T01670128 402500100=
201910290352 METAR KATL 290352Z 13003KT 10SM FEW200 17/13 A3012 RMK AO2 SLP195 T01720128=
201910290252 METAR KATL 290252Z 00000KT 10SM FEW250 17/13 A3012 RMK AO2 SLP195 T01670128 51014=
201910290152 METAR KATL 290152Z 00000KT 10SM FEW250 19/13 A3010 RMK AO2 SLP191 T01890128=
201910290052 METAR KATL 290052Z 12003KT 10SM FEW250 21/12 A3009 RMK AO2 SLP188 T02060122=
201910282352 METAR KATL 282352Z 00000KT 10SM SCT250 20/13 A3008 RMK AO2 SLP183 T02000128 10250 20200 53009=
201910282252 METAR KATL 282252Z 21004KT 10SM FEW200 SCT250 22/13 A3007 RMK AO2 SLP178 T02170128=
201910282152 METAR KATL 282152Z 19005KT 10SM BKN250 24/12 A3005 RMK AO2 SLP171 T02390117=
201910282052 METAR KATL 282052Z 15005KT 10SM BKN250 24/11 A3005 RMK AO2 SLP171 T02390111 56009=
201910281952 METAR KATL 281952Z 18006KT 10SM BKN250 24/12 A3005 RMK AO2 SLP172 T02440122=
201910281852 METAR KATL 281852Z VRB06KT 10SM SCT250 23/12 A3006 RMK AO2 SLP173 T02330122=
201910281752 METAR KATL 281752Z 19004KT 10SM SCT250 23/13 A3008 RMK AO2 SLP180 T02280128 10228 20100 58011=
201910281652 METAR KATL 281652Z 00000KT 10SM FEW010 FEW030 SCT250 21/13 A3010 RMK AO2 SLP189 T02110128=
201910281552 METAR KATL 281552Z 00000KT 10SM FEW010 FEW250 19/13 A3011 RMK AO2 SLP193 T01940128=
201910281452 METAR KATL 281452Z 00000KT 10SM FEW005 FEW250 17/12 A3011 RMK AO2 SLP194 FG BANK N-NE NW-N T01720122 51010=
201910281352 METAR KATL 281352Z 00000KT 8SM FEW002 FEW250 14/12 A3010 RMK AO2 SLP192 FG BANK N-NE-E SW-NW-N T01390117=
201910281252 METAR KATL 281252Z 31003KT 5SM BR FEW002 FEW250 11/09 A3009 RMK AO2 SLP187 VIS N-NE 1/2 SW-W 1 1/2 FG BANK W-N-NE T01060094=
201910281152 METAR KATL 281152Z 30003KT 5SM BR FEW002 SCT200 10/09 A3008 RMK AO2 SLP184 VIS N-NE 1/2 W-NW 1/2 NW-N 1 1/2 FG BANK W-N-NE T01000089 10122 20100 52015=
201910281128 SPECI KATL 281128Z 32004KT 5SM R09R/1600V2400FT BR SCT002 SCT030 10/09 A3007 RMK AO2 VIS SW-NW-N 1 1/2 T01000089=
201910281118 SPECI KATL 281118Z 32005KT 3/4SM R09R/1600V2200FT BR BKN002 11/09 A3007 RMK AO2 T01060094=
201910281107 SPECI KATL 281107Z 31005KT 1/2SM R09R/1600VP6000FT FG BKN002 11/09 A3007 RMK AO2 VIS SW-W 1/4 T01060094=
201910281102 SPECI KATL 281102Z 31005KT 1 1/2SM R09R/3000VP6000FT BR SCT002 11/09 A3007 RMK AO2 VIS SW-W 1/4 T01110094=
201910281052 METAR KATL 281052Z 32005KT 7SM FEW002 11/09 A3006 RMK AO2 SLP178 FG BANK NW-NE VIS LWR NW-NE T01110094 $=
201910281047 SPECI KATL 281047Z 33003KT 10SM FEW002 11/09 A3006 RMK AO2 $=
201910280952 METAR KATL 280952Z 30004KT 10SM CLR 11/09 A3005 RMK AO2 SLP172 T01110094=
201910280852 METAR KATL 280852Z 30003KT 10SM CLR 11/09 A3003 RMK AO2 SLP167 T01110094 52001=
201910280752 METAR KATL 280752Z 32008KT 10SM CLR 11/09 A3003 RMK AO2 SLP165 T01110094=
201910280652 METAR KATL 280652Z 29005KT 10SM CLR 11/09 A3003 RMK AO2 SLP167 T01110094=
201910280552 METAR KATL 280552Z 00000KT 10SM CLR 12/11 A3003 RMK AO2 SLP165 T01220106 10178 20122 55003=
201910280452 METAR KATL 280452Z 29004KT 10SM CLR 13/11 A3003 RMK AO2 SLP165 T01280106 402280128=
201910280352 METAR KATL 280352Z 28004KT 10SM CLR 13/11 A3003 RMK AO2 SLP166 T01280111=
201910280252 METAR KATL 280252Z 26004KT 10SM CLR 14/11 A3004 RMK AO2 SLP169 T01390111 51009=
201910280152 METAR KATL 280152Z 29009KT 10SM CLR 15/12 A3003 RMK AO2 SLP167 T01500117=
201910280052 METAR KATL 280052Z 28006KT 10SM CLR 16/12 A3002 RMK AO2 SLP164 T01560117=
201910272352 METAR KATL 272352Z 28006KT 10SM CLR 17/12 A3001 RMK AO2 SLP159 T01670117 10222 20167 53008=
201910272252 METAR KATL 272252Z 31009KT 10SM CLR 18/12 A3000 RMK AO2 SLP153 T01830117=
201910272152 METAR KATL 272152Z 31008KT 10SM CLR 20/12 A2999 RMK AO2 SLP150 T02000117=
201910272052 METAR KATL 272052Z 29010KT 10SM CLR 21/12 A2998 RMK AO2 SLP147 T02110117 55002=
201910271952 METAR KATL 271952Z 29006G14KT 10SM CLR 21/12 A2998 RMK AO2 SLP146 T02110117=
201910271852 METAR KATL 271852Z 30009KT 10SM FEW040 22/12 A2998 RMK AO2 SLP146 T02170122=
201910271752 METAR KATL 271752Z 29004KT 10SM FEW038 21/12 A2999 RMK AO2 SLP148 T02060117 10211 20144 58000=
201910271652 METAR KATL 271652Z 31008G18KT 10SM FEW032 19/12 A3000 RMK AO2 SLP153 T01940117=
201910271552 METAR KATL 271552Z 29009G17KT 10SM FEW026 18/12 A3000 RMK AO2 SLP154 T01780117=
201910271452 METAR KATL 271452Z 33007KT 10SM SCT018 17/12 A2999 RMK AO2 SLP150 T01670117 51016=
201910271352 METAR KATL 271352Z 30009KT 10SM SCT013 16/12 A2999 RMK AO2 SLP150 T01560117=
201910271252 METAR KATL 271252Z 30009KT 10SM FEW005 FEW009 FEW015 14/12 A2996 RMK AO2 SLP141 T01440117=
201910271231 SPECI KATL 271231Z 29006KT 10SM FEW009 14/12 A2996 RMK AO2 T01440122=
201910271152 METAR KATL 271152Z 29005KT 10SM FEW013 14/12 A2994 RMK AO2 SLP134 60000 70015 T01440122 10211 20144 51020=
201910271116 SPECI KATL 271116Z 33008KT 10SM FEW013 16/13 A2993 RMK AO2 T01560128=
201910271052 METAR KATL 271052Z 32011KT 10SM BKN013 BKN029 16/13 A2993 RMK AO2 SLP127 CIG 011V015 BKN013 V SCT T01610133=
201910271033 SPECI KATL 271033Z 31011KT 10SM BKN012 BKN029 16/13 A2992 RMK AO2 CIG 011V014 BKN012 V SCT T01610133=
201910270952 METAR KATL 270952Z 31010KT 10SM SCT013 SCT022 BKN029 17/14 A2991 RMK AO2 SLP122 T01670139=
201910270919 SPECI KATL 270919Z 31013KT 10SM SCT009 BKN016 BKN036 17/14 A2990 RMK AO2 CIG 014V019 T01670139=
201910270857 SPECI KATL 270857Z 31011KT 10SM BKN009 BKN028 OVC036 18/16 A2988 RMK AO2 CIG 008V012 T01780161=
201910270852 METAR KATL 270852Z 30009KT 10SM SCT009 BKN028 OVC036 18/16 A2988 RMK AO2 SLP112 60000 T01830161 52014=
201910270752 METAR KATL 270752Z 29011KT 10SM SCT009 BKN016 BKN045 19/17 A2987 RMK AO2 SLP106 CIG 013V019 T01940172=
201910270721 SPECI KATL 270721Z 28009KT 10SM FEW009 BKN023 BKN045 20/18 A2986 RMK AO2 T02000183=
201910270703 SPECI KATL 270703Z 27008KT 10SM FEW009 SCT019 OVC045 20/18 A2986 RMK AO2 T02000183=
201910270652 METAR KATL 270652Z 27008KT 10SM SCT009 SCT014 OVC019 21/18 A2986 RMK AO2 RAE0553B20E46 SLP102 P0000 T02060183=
201910270552 METAR KATL 270552Z 24011KT 7SM -RA FEW009 BKN018 OVC045 21/19 A2984 RMK AO2 SLP098 WSHFT 17 FROPA P0003 60010 T02110189 10228 20211 53003=
201910270452 METAR KATL 270452Z 20010G18KT 5SM -RA BR SCT008 BKN012 OVC023CB 23/21 A2983 RMK AO2 SLP092 CB NW MOV NE P0000 T02280206 402440194=
201910270439 SPECI KATL 270439Z 19011G19KT 3SM -RA BR FEW008 BKN014 OVC028CB 23/21 A2983 RMK AO2 CB W-NW MOV NE P0000 T02280206=
201910270417 SPECI KATL 270417Z 18010KT 9SM -RA SCT014 BKN028CB OVC060 23/21 A2982 RMK AO2 CB SW-NW MOV NE P0000 T02280206=
201910270352 METAR KATL 270352Z 18010KT 7SM -RA FEW008 BKN013 OVC030 23/21 A2982 RMK AO2 RAB19 SLP089 P0007 T02280206=
201910270343 SPECI KATL 270343Z 16011G16KT 5SM -RA BR FEW008 BKN014 OVC032 23/21 A2982 RMK AO2 RAB19 P0007 T02280206=
201910270332 SPECI KATL 270332Z 16009KT 4SM -RA BR SCT015 BKN026 OVC042 23/21 A2982 RMK AO2 RAB19 P0006 T02280206=
201910270322 SPECI KATL 270322Z 17012G20KT 2SM R09R/6000VP6000FT +RA BR SCT017 BKN032 OVC050 23/21 A2982 RMK AO2 RAB19 P0002 T02280206=
201910270252 METAR KATL 270252Z 16010KT 9SM SCT018 BKN038 BKN065 OVC140 23/21 A2983 RMK AO2 SLP094 T02280206 53003=
201910270218 SPECI KATL 270218Z 15008KT 8SM BKN026 BKN038 OVC070 22/21 A2982 RMK AO2 BINOVC T02220206=
201910270152 METAR KATL 270152Z 13008KT 8SM SCT032 BKN042 BKN070 OVC140 22/21 A2982 RMK AO2 SLP091 T02220206=
201910270052 METAR KATL 270052Z 12009KT 8SM FEW009 BKN034 OVC070 22/21 A2983 RMK AO2 SLP092 BINOVC T02220206=
201910262352 METAR KATL 262352Z 12008KT 9SM FEW008 BKN038 OVC060 22/21 A2982 RMK AO2 RAE01 SLP092 BINOVC P0000 60005 T02220206 10244 20217 58005=
201910262320 SPECI KATL 262320Z 11008KT 8SM FEW008 BKN026 OVC036 22/21 A2983 RMK AO2 RAE01 P0000 T02220206=
201910262252 METAR KATL 262252Z 13007KT 10SM -RA FEW009 SCT018 BKN040 OVC140 22/21 A2984 RMK AO2 RAE23B52 SLP096 P0001 T02220206=
201910262152 METAR KATL 262152Z 13011G17KT 3SM RA BKN022 BKN038 OVC060 23/20 A2984 RMK AO2 RAB06 SLP096 P0004 T02280200=
201910262120 SPECI KATL 262120Z 14011G17KT 4SM -RA BKN024 BKN034 OVC060 23/19 A2984 RMK AO2 RAB06 P0001 T02330194=
201910262052 METAR KATL 262052Z 13009G17KT 10SM FEW026 BKN055 OVC085 24/19 A2984 RMK AO2 SLP096 T02440189 56023=
201910262033 SPECI KATL 262033Z 14011G17KT 10SM FEW024 SCT031 BKN090 24/19 A2984 RMK AO2 T02440189=
201910261952 METAR KATL 261952Z 14015G22KT 10SM SCT021 BKN028 BKN045 24/19 A2986 RMK AO2 SLP101 T02390189=
201910261852 METAR KATL 261852Z 14009G19KT 10SM BKN017 BKN023 23/19 A2988 RMK AO2 SLP112 T02330189=
201910261824 SPECI KATL 261824Z 14009G18KT 10SM OVC016 23/19 A2989 RMK AO2 T02280189=
201910261752 METAR KATL 261752Z 13008KT 10SM OVC013 22/18 A2991 RMK AO2 SLP121 60000 T02170183 10217 20194 58027=
201910261652 METAR KATL 261652Z 13012G17KT 10SM OVC013 21/18 A2996 RMK AO2 RAB30E41 SLP137 P0000 T02110183 $=
201910261552 METAR KATL 261552Z 13011G22KT 10SM BKN014 OVC027 22/18 A2997 RMK AO2 SLP141 T02170178 $=
201910261503 SPECI KATL 261503Z 14012G18KT 10SM BKN010 OVC017 21/18 A3000 RMK AO2 T02110178 $=
201910261452 METAR KATL 261452Z 13011G18KT 10SM BKN009 OVC014 21/18 A2999 RMK AO2 SLP150 T02060178 56003 $=
201910261352 METAR KATL 261352Z 10SM OVC008 20/18 A3000 RMK AO2 SLP154 T02000178 $=
201910261252 METAR KATL 261252Z 13009KT 10SM OVC007 19/18 A2998 RMK AO2 SLP146 CIG 006V008 T01940178=
201910261152 METAR KATL 261152Z 12008KT 10SM OVC007 19/17 A3000 RMK AO2 SLP153 CIG 006V008 70019 T01940172 10200 20194 56006=
201910261052 METAR KATL 261052Z 12009KT 10SM OVC007 19/17 A3001 RMK AO2 SLP156 CIG 006V009 T01940172=
201910260952 METAR KATL 260952Z 12011KT 10SM OVC007 19/17 A3000 RMK AO2 SLP153 CIG 006V010 T01940172=
201910260852 METAR KATL 260852Z 12010G16KT 7SM BKN008 OVC012 19/18 A3002 RMK AO2 SLP158 CIG 006V010 T01940178 58013=
201910260752 METAR KATL 260752Z 13006KT 7SM OVC008 20/18 A3004 RMK AO2 SLP164 T02000178=
201910260652 METAR KATL 260652Z 12008KT 7SM BKN007 OVC013 20/18 A3005 RMK AO2 SLP170 CIG 006V009 T02000183=
201910260552 METAR KATL 260552Z 12010KT 6SM BR BKN007 OVC013 20/18 A3006 RMK AO2 RAE17 SLP173 CIG 006V009 P0000 60019 T02000183 10206 20194 58014=
201910260452 METAR KATL 260452Z 12008KT 6SM -RA BR BKN006 BKN020 OVC060 20/19 A3008 RMK AO2 SLP179 P0010 T02000189 402220161=
201910260352 METAR KATL 260352Z 11007KT 5SM -RA BR BKN006 OVC020 20/18 A3010 RMK AO2 SLP186 CIG 004V008 P0003 T02000183=
201910260252 METAR KATL 260252Z 11009KT 6SM -RA BR BKN006 BKN025 OVC080 19/18 A3010 RMK AO2 SLP188 P0006 60006 T01940178 53002=
201910260231 SPECI KATL 260231Z 10009KT 6SM -RA BR BKN008 OVC025 19/18 A3010 RMK AO2 P0005 T01940178=
201910260219 SPECI KATL 260219Z 11007KT 2 1/2SM RA BR BKN008 OVC025 19/17 A3011 RMK AO2 P0004 T01940172=
201910260205 SPECI KATL 260205Z 10007KT 3SM -RA BR BKN012 OVC025 19/17 A3010 RMK AO2 P0001 T01940172=
201910260152 METAR KATL 260152Z 10006KT 9SM -RA BKN016 OVC030 20/17 A3009 RMK AO2 RAB0054 SLP186 P0000 T02000167=
201910260052 METAR KATL 260052Z 08011KT 10SM BKN022 BKN040 OVC200 20/16 A3010 RMK AO2 SLP186 T02000161=
201910252352 METAR KATL 252352Z 08013KT 10SM SCT018 BKN025 BKN060 OVC200 21/16 A3009 RMK AO2 SLP186 T02060161 10222 20200 53003=
201910252252 METAR KATL 252252Z 08013KT 10SM FEW018 SCT040 BKN060 OVC200 21/17 A3008 RMK AO2 SLP181 T02110167=
201910252152 METAR KATL 252152Z 10007KT 10SM SCT018 BKN035 BKN050 OVC150 22/17 A3009 RMK AO2 SLP182 T02220172=
201910252052 METAR KATL 252052Z 11008KT 10SM FEW020 SCT030 BKN090 OVC150 22/17 A3009 RMK AO2 SLP182 T02220167 56017=
201910252002 SPECI KATL 252002Z 12009KT 10SM FEW017 SCT025 OVC065 22/17 A3008 RMK AO2 T02170167=
201910251952 METAR KATL 251952Z 12009KT 10SM SCT017 BKN024 OVC065 22/17 A3009 RMK AO2 SLP182 T02170167=
201910251852 METAR KATL 251852Z 11009KT 10SM OVC016 21/16 A3011 RMK AO2 SLP189 T02060156=
201910251752 METAR KATL 251752Z 11008KT 10SM BKN016 OVC030 20/15 A3014 RMK AO2 SLP200 T02000150 10206 20167 58018=
201910251652 METAR KATL 251652Z 10012KT 10SM BKN015 BKN020 OVC030 20/14 A3016 RMK AO2 SLP207 T02000144=
201910251615 SPECI KATL 251615Z 10010KT 10SM BKN015 BKN030 OVC040 20/14 A3017 RMK AO2 T02000144=
201910251552 METAR KATL 251552Z 10011KT 10SM OVC013 19/13 A3019 RMK AO2 SLP219 T01890133=
201910251452 METAR KATL 251452Z 09012KT 10SM OVC012 18/13 A3019 RMK AO2 SLP220 T01830133 58002=
201910251352 METAR KATL 251352Z 09009KT 10SM OVC012 17/12 A3021 RMK AO2 SLP228 T01720122=
201910251252 METAR KATL 251252Z 08013KT 10SM BKN013 BKN036 BKN120 BKN200 17/11 A3020 RMK AO2 SLP224 T01670111=
201910251235 SPECI KATL 251235Z 08012KT 10SM SCT012 BKN035 BKN140 BKN200 17/11 A3020 RMK AO2 T01670111=
201910251152 METAR KATL 251152Z 08011KT 10SM BKN012 OVC032 17/11 A3020 RMK AO2 SLP223 BINOVC 60000 T01670106 10172 20161 58002=
201910251148 SPECI KATL 251148Z 09009KT 10SM BKN012 OVC032 16/11 A3020 RMK AO2 BINOVC=
201910251132 SPECI KATL 251132Z 09010KT 10SM SCT013 OVC034 17/10 A3020 RMK AO2 BINOVC T01670100=
201910251052 METAR KATL 251052Z 08011KT 10SM BKN013 OVC034 17/09 A3020 RMK AO2 SLP223 T01670094=
201910251036 SPECI KATL 251036Z 08010KT 10SM OVC014 17/09 A3020 RMK AO2 T01670094=
201910250952 METAR KATL 250952Z 06010KT 10SM BKN018 OVC036 17/09 A3021 RMK AO2 SLP226 T01720094=
201910250912 SPECI KATL 250912Z 08010KT 10SM BKN020 BKN036 OVC080 17/09 A3020 RMK AO2 T01670094=
201910250852 METAR KATL 250852Z 08010KT 10SM BKN036 BKN075 OVC140 17/09 A3021 RMK AO2 SLP224 VIRGA SW-NW-NE 60000 T01670089 56007=
201910250752 METAR KATL 250752Z 09011KT 10SM SCT026 BKN050 BKN080 OVC140 17/09 A3021 RMK AO2 RAB0653E03B19E29 SLP224 VIRGA OHD-ALQDS P0000 T01670089=
201910250652 METAR KATL 250652Z 08010KT 10SM BKN026 BKN044 BKN065 OVC140 17/08 A3022 RMK AO2 SLP229 VIRGA SW-NW T01720083=
201910250552 METAR KATL 250552Z 09008KT 10SM OVC028 17/08 A3023 RMK AO2 SLP231 T01720078 10189 20167 56005=
201910250550 SPECI KATL 250550Z 09008KT 10SM OVC028 17/08 A3023 RMK AO2=
201910250452 METAR KATL 250452Z 09008KT 10SM SCT035 BKN050 OVC200 17/07 A3024 RMK AO2 SLP234 T01720072 402170094=
201910250352 METAR KATL 250352Z 09010KT 10SM FEW035 SCT060 BKN200 BKN250 17/08 A3024 RMK AO2 SLP237 T01670078=
201910250252 METAR KATL 250252Z 08009KT 10SM FEW035 SCT200 BKN250 17/08 A3025 RMK AO2 SLP240 T01720078 53009=
201910250152 METAR KATL 250152Z 08011KT 10SM BKN035 BKN050 BKN200 18/07 A3024 RMK AO2 SLP238 T01780072=
201910250052 METAR KATL 250052Z 08009KT 10SM BKN035 OVC200 18/07 A3023 RMK AO2 SLP235 T01830067=
201910242352 METAR KATL 242352Z 08010KT 10SM SCT040 BKN100 BKN150 BKN250 19/07 A3022 RMK AO2 SLP232 T01890067 10217 20183 53009=
201910242252 METAR KATL 242252Z 10006KT 10SM FEW100 SCT150 BKN200 BKN250 19/07 A3021 RMK AO2 SLP229 T01890067=
201910242152 METAR KATL 242152Z 09008KT 10SM FEW120 BKN180 BKN250 20/06 A3020 RMK AO2 SLP224 T02000061=
201910242052 METAR KATL 242052Z 08007KT 10SM FEW150 BKN180 BKN250 21/06 A3019 RMK AO2 SLP222 T02060061 56015=
201910241952 METAR KATL 241952Z 11006KT 10SM FEW150 SCT180 BKN250 21/06 A3020 RMK AO2 SLP223 VIRGA DSNT S T02110056=
201910241852 METAR KATL 241852Z 10007KT 10SM FEW150 SCT180 BKN250 21/06 A3021 RMK AO2 SLP227 VIRGA DSNT S-SW-W T02060056=
201910241752 METAR KATL 241752Z 10008KT 10SM FEW150 FEW200 BKN250 21/06 A3024 RMK AO2 SLP237 T02060056 10217 20094 58015=
201910241652 METAR KATL 241652Z 12007KT 10SM FEW150 SCT250 21/06 A3027 RMK AO2 SLP248 T02060061=
201910241552 METAR KATL 241552Z 07008KT 10SM FEW005 FEW150 FEW250 18/07 A3028 RMK AO2 SLP251 FU FEW005 T01830067=
201910241452 METAR KATL 241452Z 09006KT 10SM FEW150 FEW250 17/06 A3029 RMK AO2 SLP254 T01670056 51014=
201910241352 METAR KATL 241352Z 08008KT 10SM FEW150 FEW250 13/05 A3028 RMK AO2 SLP252 T01280050=
201910241252 METAR KATL 241252Z 08009KT 10SM FEW170 FEW250 11/04 A3026 RMK AO2 SLP245 ACC DSNT SE-SW T01110044=
201910241152 METAR KATL 241152Z 08007KT 10SM FEW180 FEW250 10/04 A3024 RMK AO2 SLP240 T01000039 10117 20094 51010=
201910241052 METAR KATL 241052Z 06006KT 10SM FEW250 10/04 A3024 RMK AO2 SLP238 T01000039=
201910240952 METAR KATL 240952Z 08007KT 10SM FEW250 10/03 A3023 RMK AO2 SLP235 T01000033=
201910240852 METAR KATL 240852Z 05006KT 10SM FEW250 11/03 A3021 RMK AO2 SLP229 T01110033 53004=
201910240752 METAR KATL 240752Z 05004KT 10SM CLR 12/03 A3020 RMK AO2 SLP224 T01170033=
201910240652 METAR KATL 240652Z 08004KT 10SM CLR 11/04 A3020 RMK AO2 SLP226 T01110039=
201910240552 METAR KATL 240552Z 08004KT 10SM CLR 11/04 A3020 RMK AO2 SLP225 T01110039 10172 20111 58005=
201910240452 METAR KATL 240452Z 08005KT 10SM CLR 12/04 A3020 RMK AO2 SLP226 T01220039 402060083=
201910240352 METAR KATL 240352Z 10004KT 10SM CLR 13/04 A3021 RMK AO2 SLP229 T01280039=
201910240252 METAR KATL 240252Z 09006KT 10SM CLR 14/03 A3021 RMK AO2 SLP230 T01440028 53015=
201910240152 METAR KATL 240152Z 09006KT 10SM CLR 15/03 A3020 RMK AO2 SLP225 T01500033=
201910240052 METAR KATL 240052Z 10005KT 10SM CLR 16/02 A3019 RMK AO2 SLP221 T01610022=
201910232352 METAR KATL 232352Z 09004KT 10SM CLR 17/02 A3017 RMK AO2 SLP215 T01720022 10206 20172 53008=
201910232252 METAR KATL 232252Z 05005KT 10SM CLR 19/01 A3016 RMK AO2 SLP212 T01890011=
201910232152 METAR KATL 232152Z 04006KT 10SM CLR 19/01 A3015 RMK AO2 SLP208 T01940006=
201910232052 METAR KATL 232052Z VRB05KT 10SM FEW250 20/02 A3015 RMK AO2 SLP206 T02000017 55012=
201910231952 METAR KATL 231952Z 36009G15KT 320V030 10SM FEW250 20/02 A3014 RMK AO2 SLP206 T02000017=
201910231852 METAR KATL 231852Z 36007G16KT 10SM FEW250 19/01 A3016 RMK AO2 SLP209 T01890011=
201910231752 METAR KATL 231752Z 03009KT 10SM FEW250 19/01 A3018 RMK AO2 SLP218 T01890011 10189 20083 58003=
201910231652 METAR KATL 231652Z 36010G21KT 10SM FEW250 18/01 A3021 RMK AO2 SLP227 T01780006=
201910231552 METAR KATL 231552Z 03005KT 10SM FEW250 17/02 A3021 RMK AO2 SLP228 T01670017=
201910231452 METAR KATL 231452Z 01011KT 10SM FEW250 15/03 A3019 RMK AO2 SLP222 T01500028 51013=
201910231352 METAR KATL 231352Z 34010KT 10SM FEW250 12/03 A3018 RMK AO2 SLP219 T01220033=
201910231252 METAR KATL 231252Z 33007KT 10SM FEW200 FEW250 11/03 A3017 RMK AO2 SLP217 T01060033=
201910231152 METAR KATL 231152Z 32008KT 10SM FEW200 09/04 A3015 RMK AO2 SLP210 70002 T00890039 10117 20083 53011=
201910231052 METAR KATL 231052Z 31007KT 10SM CLR 09/04 A3014 RMK AO2 SLP206 T00890039=
201910230952 METAR KATL 230952Z 32007KT 10SM FEW250 09/04 A3012 RMK AO2 SLP198 T00890044 $=
201910230852 METAR KATL 230852Z 33008KT 10SM FEW250 10/04 A3012 RMK AO2 SLP196 T01000044 51008=
201910230752 METAR KATL 230752Z 31007KT 10SM FEW250 10/04 A3011 RMK AO2 SLP194 T01000044=
201910230652 METAR KATL 230652Z 30007KT 10SM FEW250 11/04 A3011 RMK AO2 SLP192 T01060044=
201910230552 METAR KATL 230552Z 31009KT 10SM FEW250 12/04 A3009 RMK AO2 SLP188 T01170044 10167 20111 51005=
201910230452 METAR KATL 230452Z 30008KT 10SM FEW250 12/04 A3009 RMK AO2 SLP187 T01220044 402280122=
201910230352 METAR KATL 230352Z 29007KT 10SM SCT250 12/04 A3009 RMK AO2 SLP187 T01220039=
201910230252 METAR KATL 230252Z 28010KT 10SM SCT250 13/03 A3008 RMK AO2 SLP183 T01330033 53020=
201910230152 METAR KATL 230152Z 28006KT 10SM BKN250 14/03 A3005 RMK AO2 SLP172 T01390028=
201910230052 METAR KATL 230052Z 28007KT 10SM SCT250 15/02 A3003 RMK AO2 SLP168 T01500022=
201910222352 METAR KATL 222352Z 28008KT 10SM SCT250 17/01 A3002 RMK AO2 SLP162 T01670011 10228 20167 53012=
201910222252 METAR KATL 222252Z 28007KT 10SM SCT250 18/02 A2999 RMK AO2 SLP152 T01830017=
201910222152 METAR KATL 222152Z 27010KT 10SM SCT250 21/02 A2997 RMK AO2 SLP143 T02060022=
201910222052 METAR KATL 222052Z 30014G20KT 10SM FEW250 22/03 A2998 RMK AO2 SLP145 T02170028 53004=
201910221952 METAR KATL 221952Z 30014KT 10SM SCT250 22/04 A2996 RMK AO2 SLP139 T02170039=
201910221852 METAR KATL 221852Z 30013KT 10SM FEW200 SCT250 22/06 A2996 RMK AO2 SLP138 T02220056=
201910221752 METAR KATL 221752Z 26009KT 10SM FEW250 22/07 A2997 RMK AO2 SLP140 60002 T02170067 10217 20144 58008=
201910221652 METAR KATL 221652Z 30014KT 10SM FEW040 FEW060 SCT250 20/09 A2999 RMK AO2 SLP150 T02000089=
201910221552 METAR KATL 221552Z 29010KT 10SM FEW015 FEW060 BKN250 18/13 A2999 RMK AO2 SLP149 T01780128=
201910221452 METAR KATL 221452Z 31011KT 10SM SCT012 BKN060 BKN250 17/13 A2999 RMK AO2 SLP151 60002 T01670133 50018=
201910221352 METAR KATL 221352Z 28008KT 10SM SCT010 BKN065 BKN250 16/14 A2999 RMK AO2 RAE06 SLP151 P0000 T01560139=
201910221252 METAR KATL 221252Z 30005KT 8SM -RA FEW007 OVC038 15/13 A2997 RMK AO2 RAE30B50 SLP142 P0002 T01500133=
201910221227 SPECI KATL 221227Z 31009KT 6SM -RA BR SCT007 OVC036 14/13 A2995 RMK AO2 P0002 T01440128=
201910221158 SPECI KATL 221158Z 30013KT 3SM -RA BR BKN007 BKN025 OVC034 15/13 A2995 RMK AO2 BKN007 V SCT CIG 006V009 P0001 T01500133=
201910221152 METAR KATL 221152Z 31012KT 2 1/2SM -RA BR SCT006 SCT025 OVC034 14/13 A2994 RMK AO2 PK WND 31030/1054 WSHFT 1048 SLP133 P0005 60010 70010 T01440128 10206 20144 53022=
201910221147 SPECI KATL 221147Z 31014KT 2 1/2SM RA BR SCT006 SCT025 OVC034 14/13 A2993 RMK AO2 PK WND 31030/1054 WSHFT 1048 P0004=
201910221134 SPECI KATL 221134Z 32016G24KT 4SM RA BR FEW006 SCT012 OVC034 15/13 A2992 RMK AO2 PK WND 31030/1054 WSHFT 1048 P0001 T01500128=
201910221106 SPECI KATL 221106Z 31018G29KT 5SM -RA BR SCT008 BKN012 OVC029 16/14 A2991 RMK AO2 PK WND 31030/1054 WSHFT 1048 P0000 T01610139=
201910221058 SPECI KATL 221058Z 31023G30KT 5SM -RA BR SCT006 BKN012 OVC039 17/15 A2991 RMK AO2 PK WND 31030/1054 PRESRR P0000 T01670150=
201910221054 SPECI KATL 221054Z 31025G30KT 2SM -RA BR SCT006 BKN012 OVC039 18/16 A2990 RMK AO2 PK WND 31030/1054 P0000 T01780161=
201910221052 METAR KATL 221052Z 30024G28KT 3SM RA BR BKN008 BKN018 OVC034 19/17 A2990 RMK AO2 PK WND 30029/1052 RAB0957E15B29 SLP117 P0005 T01890172=
201910221045 SPECI KATL 221045Z 22006KT 3SM -RA BR BKN008 BKN032 OVC041 20/18 A2988 RMK AO2 RAB0957E15B29 P0004 T02000183=
201910221016 SPECI KATL 221016Z 22006KT 10SM FEW009 BKN037 OVC070 20/18 A2987 RMK AO2 RAB0957E15 P0000 T02000178=
201910220952 METAR KATL 220952Z 21006KT 10SM FEW013 BKN034 OVC110 20/18 A2987 RMK AO2 SLP107 T02000178=
201910220904 SPECI KATL 220904Z 20008KT 10SM SCT013 BKN080 OVC120 20/17 A2987 RMK AO2 T02000172=
201910220856 SPECI KATL 220856Z 20007KT 10SM BKN014 BKN048 BKN110 OVC200 20/17 A2987 RMK AO2 T02000172=
201910220852 METAR KATL 220852Z 20008KT 10SM BKN016 BKN048 BKN110 OVC200 20/17 A2987 RMK AO2 SLP107 T02000172 56007=
201910220752 METAR KATL 220752Z 20007KT 10SM FEW060 SCT110 SCT150 OVC200 20/17 A2987 RMK AO2 SLP108 T02000167=
201910220652 METAR KATL 220652Z 16008KT 10SM FEW031 BKN075 BKN085 BKN150 OVC200 21/17 A2988 RMK AO2 SLP111 T02060167=
201910220552 METAR KATL 220552Z 12005KT 10SM FEW038 SCT050 BKN150 OVC200 20/17 A2989 RMK AO2 SLP115 60000 T02000167 10222 20200 58021=
201910220452 METAR KATL 220452Z 12007KT 10SM FEW035 SCT060 BKN150 OVC200 20/17 A2993 RMK AO2 SLP126 T02000172 402500150=
201910220352 METAR KATL 220352Z 00000KT 10SM SCT120 BKN150 OVC200 21/17 A2994 RMK AO2 SLP132 T02060172=
201910220252 METAR KATL 220252Z 13005KT 10SM FEW030 BKN130 OVC200 21/17 A2996 RMK AO2 RAE37 SLP138 P0000 60000 T02060167 58003=
201910220152 METAR KATL 220152Z 13006KT 10SM -RA FEW035 BKN050 BKN120 OVC200 22/17 A2997 RMK AO2 RAB51 SLP144 P0000 T02170167=
201910220052 METAR KATL 220052Z 14005KT 10SM FEW035 SCT060 BKN130 OVC250 22/17 A2997 RMK AO2 SLP143 T02170167=
201910212352 METAR KATL 212352Z 16005KT 10SM FEW035 BKN150 BKN200 OVC250 22/17 A2997 RMK AO2 SLP143 T02220167 10250 20222 55000=
201910212252 METAR KATL 212252Z 17005KT 10SM FEW035 SCT150 BKN200 OVC250 22/16 A2995 RMK AO2 SLP136 T02220161=
201910212152 METAR KATL 212152Z 18007KT 10SM FEW035 SCT150 BKN250 23/16 A2995 RMK AO2 SLP137 T02330161=
201910212052 METAR KATL 212052Z 18008KT 10SM FEW030 SCT170 OVC250 24/16 A2997 RMK AO2 SLP142 T02390161 55004=
201910211952 METAR KATL 211952Z 17006KT 10SM FEW030 BKN170 OVC250 24/17 A2996 RMK AO2 SLP140 VIRGA SW-NW-N T02440167=
201910211852 METAR KATL 211852Z 20008KT 10SM FEW030 BKN170 BKN250 24/16 A2997 RMK AO2 SLP143 T02440161=
201910211752 METAR KATL 211752Z 15010KT 10SM FEW025 BKN170 BKN250 24/17 A2998 RMK AO2 SLP146 T02440167 10244 20156 58017=
201910211652 METAR KATL 211652Z 16009G17KT 10SM SCT020 BKN150 BKN250 23/16 A3001 RMK AO2 SLP154 T02330161=
201910211552 METAR KATL 211552Z 14007KT 10SM FEW020 BKN150 BKN250 22/17 A3001 RMK AO2 SLP155 T02170167=
201910211452 METAR KATL 211452Z VRB04KT 10SM FEW015 BKN150 BKN250 21/17 A3003 RMK AO2 SLP163 T02110167 53013=
201910211352 METAR KATL 211352Z 13006KT 8SM FEW010 BKN150 BKN250 18/16 A3001 RMK AO2 SLP157 FG BANK N-NE T01830156=
201910211252 METAR KATL 211252Z 13004KT 10SM FEW007 SCT150 BKN220 17/15 A3000 RMK AO2 SLP154 VIS LWR NW-NE FG BANK NW-NE T01670150=
201910211152 METAR KATL 211152Z 11004KT 9SM FEW005 FEW150 SCT200 SCT250 16/14 A2999 RMK AO2 SLP152 T01560139 10161 20150 53012=
201910211052 METAR KATL 211052Z 12003KT 10SM FEW002 FEW200 15/14 A2997 RMK AO2 SLP145 T01500139=
201910211048 SPECI KATL 211048Z 12003KT 10SM FEW002 FEW200 15/14 A2997 RMK AO2=
201910210952 METAR KATL 210952Z 00000KT 10SM FEW180 FEW250 15/13 A2996 RMK AO2 SLP141 T01500133=
201910210852 METAR KATL 210852Z 00000KT 10SM FEW180 FEW250 15/13 A2996 RMK AO2 SLP138 T01500133 58010=
201910210752 METAR KATL 210752Z 00000KT 10SM SCT180 BKN250 16/14 A2997 RMK AO2 SLP142 T01560139 $=
201910210652 METAR KATL 210652Z 00000KT 10SM FEW180 SCT250 16/14 A2998 RMK AO2 SLP146 T01560139 $=
201910210552 METAR KATL 210552Z 00000KT 10SM FEW180 SCT250 16/14 A2999 RMK AO2 SLP148 T01610144 10194 20156 50000 $=
201910210452 METAR KATL 210452Z 00000KT 10SM BKN180 BKN250 17/14 A2999 RMK AO2 SLP148 T01670144 402280139 $=
201910210352 METAR KATL 210352Z 00000KT 10SM SCT180 SCT250 17/14 A2999 RMK AO2 SLP150 T01720144 $=
201910210252 METAR KATL 210252Z 33008KT 10SM FEW180 SCT250 18/15 A2999 RMK AO2 SLP149 T01830150 53011 $=
201910210152 METAR KATL 210152Z 31005KT 10SM FEW200 SCT250 19/15 A2997 RMK AO2 SLP145 T01890150 $=
201910210052 METAR KATL 210052Z 32006KT 10SM SCT200 SCT250 19/15 A2996 RMK AO2 SLP140 T01940150 $=
201910202352 METAR KATL 202352Z 31005KT 10SM FEW200 SCT250 19/15 A2995 RMK AO2 SLP138 T01940150 10228 20194 53004 $=
201910202252 METAR KATL 202252Z 33007KT 10SM FEW030 FEW200 SCT250 21/15 A2995 RMK AO2 SLP136 T02060150 $=
201910202152 METAR KATL 202152Z 29007KT 10SM FEW030 SCT250 22/16 A2994 RMK AO2 SLP134 T02220156 $=
201910202052 METAR KATL 202052Z 31008KT 10SM SCT030 SCT250 22/15 A2994 RMK AO2 SLP133 T02220150 53000 $=
201910201952 METAR KATL 201952Z 32007KT 10SM SCT025 22/15 A2992 RMK AO2 SLP128 T02170150 $=
201910201852 METAR KATL 201852Z 33010G16KT 10SM SCT020 21/15 A2993 RMK AO2 SLP129 T02060150 $=
201910201826 SPECI KATL 201826Z 32011KT 10SM SCT018 21/15 A2993 RMK AO2 T02110150 $=
201910201752 METAR KATL 201752Z 32010KT 10SM BKN016 21/15 A2994 RMK AO2 SLP133 60000 T02060150 10206 20144 50005 $=
201910201731 SPECI KATL 201731Z 31011KT 10SM BKN016 21/15 A2994 RMK AO2 T02060150 $=
201910201652 METAR KATL 201652Z 31009KT 10SM BKN013 19/14 A2995 RMK AO2 SLP137 T01940144 $=
201910201552 METAR KATL 201552Z 31010G19KT 10SM BKN012 OVC020 18/14 A2994 RMK AO2 SLP135 BINOVC T01830144 $=
201910201535 SPECI KATL 201535Z 31010KT 10SM BKN011 OVC018 17/14 A2993 RMK AO2 T01720139 $=
201910201452 METAR KATL 201452Z 33012KT 10SM BKN008 OVC018 17/14 A2992 RMK AO2 SLP130 60000 T01670139 51022 $=
201910201352 METAR KATL 201352Z 32009KT 6SM BR BKN007 OVC015 16/14 A2991 RMK AO2 DZE1256 SLP126 CIG 006V008 P0000 T01560139 $=
201910201346 SPECI KATL 201346Z 31010G18KT 6SM BR BKN006 OVC010 16/14 A2991 RMK AO2 DZE1256 P0000 $=
201910201311 SPECI KATL 201311Z 30010KT 4SM BR BKN004 OVC008 15/13 A2989 RMK AO2 DZE1256 P0000 T01500133 $=
201910201252 METAR KATL 201252Z 30009KT 1SM R09R/P6000FT -DZ BR OVC004 15/13 A2989 RMK AO2 SFC VIS 5 DZB43 SLP118 CIG 003V006 TWRINC PCPN VRY LGT P0000 T01500133=
201910201207 SPECI KATL 201207Z 30005KT 1SM R09R/P6000FT BR OVC003 14/13 A2986 RMK AO2 SFC VIS 6 CIG 002V004 TWRINC T01440133=
201910201152 METAR KATL 201152Z 30008KT 1/2SM R09R/P6000FT BR OVC003 14/13 A2986 RMK AO2 SFC VIS 4 DZB32E50 SLP108 TWRINC P0000 60000 70129 T01440133 10144 20139 51026=
201910201052 METAR KATL 201052Z 30007KT 1/2SM R09R/P6000FT BR OVC003 14/13 A2983 RMK AO2 SFC VIS 6 SLP101 TWRINC T01440133=
201910201019 SPECI KATL 201019Z 28007KT 1/2SM R09R/P6000FT BR OVC003 14/13 A2983 RMK AO2 SFC VIS 6 TWRINC T01440133=
201910200952 METAR KATL 200952Z 29007KT 8SM OVC004 14/13 A2981 RMK AO2 SLP091 T01440133=
201910200852 METAR KATL 200852Z 33007KT 8SM BKN004 OVC010 14/13 A2978 RMK AO2 DZE43 SLP081 CIG 003V005 P0000 60000 T01440128 51007=
201910200758 SPECI KATL 200758Z 31008KT 3SM -DZ BR OVC004 14/13 A2977 RMK AO2 CIG 003V005 P0000 T01390128=
201910200752 METAR KATL 200752Z 31007KT 2SM -DZ BR BKN004 OVC007 14/13 A2977 RMK AO2 DZB41 SLP080 CIG 003V005 P0000 T01390128=
201910200741 SPECI KATL 200741Z 31006KT 2SM -DZ BKN004 OVC007 14/13 A2977 RMK AO2 DZB41 CIG 003V005 P0000 T01390128=
201910200652 METAR KATL 200652Z 33007KT 9SM OVC006 14/12 A2976 RMK AO2 SLP077 T01390122=
201910200552 METAR KATL 200552Z 35008KT 9SM OVC007 14/12 A2975 RMK AO2 SLP073 60001 T01390122 10139 20128 55001=
201910200452 METAR KATL 200452Z 02010KT 9SM OVC007 14/12 A2974 RMK AO2 DZE25 SLP070 CIG 005V009 P0000 T01390117 401560117=
201910200352 METAR KATL 200352Z 04011KT 6SM -DZ BR OVC006 13/12 A2975 RMK AO2 RAE09DZB09 SLP072 CIG 005V008 P0000 T01330117=
201910200252 METAR KATL 200252Z 03013KT 3SM -RA BR OVC008 13/11 A2976 RMK AO2 RAB43 SLP075 CIG 007V010 P0000 60001 T01330111 58000=
201910200152 METAR KATL 200152Z 03012G20KT 10SM OVC008 13/11 A2976 RMK AO2 RAE09DZB09E26 SLP077 CIG 006V010 P0000 T01280106=
201910200052 METAR KATL 200052Z 04012G21KT 8SM -RA OVC008 13/11 A2976 RMK AO2 SLP076 CIG 007V010 P0001 T01280106=
201910192352 METAR KATL 192352Z 04017KT 8SM -RA BKN007 OVC012 13/11 A2976 RMK AO2 SLP076 CIG 006V009 P0004 60074 T01280106 10133 20122 56007=
201910192252 METAR KATL 192252Z 06013KT 2SM -RA BR BKN006 OVC012 13/11 A2977 RMK AO2 SFC VIS 6 LTG DSNT SE SLP079 CIG 005V008 CB DSNT SE P0009 T01280106=
201910192152 METAR KATL 192152Z 07018KT 2SM -RA BR BKN007 OVC012 13/11 A2976 RMK AO2 SFC VIS 4 SLP077 CIG 006V009 P0012 T01280111=
201910192052 METAR KATL 192052Z 07017KT 2SM RA BR BKN006 OVC012 13/11 A2978 RMK AO2 SFC VIS 4 SLP082 CIG 005V008 P0017 60049 T01330111 56027=
201910191952 METAR KATL 191952Z 07019G24KT 2SM -RA BR BKN007 OVC012 13/11 A2978 RMK AO2 SFC VIS 3 SLP082 P0004 T01330111=
201910191852 METAR KATL 191852Z 07016KT 1 1/2SM RA BR BKN006 OVC010 13/11 A2980 RMK AO2 PK WND 06026/1842 SLP087 P0028 T01280111=
201910191752 METAR KATL 191752Z 07018KT 1 1/2SM +RA BR BKN006 OVC010 12/11 A2986 RMK AO2 SFC VIS 2 SLP110 P0017 60054 T01220106 10122 20117 58031=
201910191652 METAR KATL 191652Z 07015KT 1 1/2SM -RA BR BKN006 OVC010 12/11 A2991 RMK AO2 PK WND 06026/1613 SFC VIS 2 SLP126 P0011 T01220106=
201910191552 METAR KATL 191552Z 07016KT 1 1/2SM R09R/6000VP6000FT +RA BR OVC005 12/11 A2994 RMK AO2 SLP137 P0008 T01220106=
201910191543 SPECI KATL 191543Z 07017KT 1 3/4SM RA BR BKN005 OVC010 12/11 A2995 RMK AO2 TWR VIS 2 P0004 T01220106=
201910191510 SPECI KATL 191510Z 07018KT 2SM R09R/6000VP6000FT RA BR BKN005 OVC010 12/10 A2995 RMK AO2 P0000 T01220100=
201910191452 METAR KATL 191452Z 07018G23KT 3SM -RA BR BKN006 OVC010 12/10 A2996 RMK AO2 SFC VIS 4 SLP142 P0001 60018 T01220100 50001=
201910191448 SPECI KATL 191448Z 07015KT 3SM -RA BR BKN006 OVC010 12/10 A2996 RMK AO2 SFC VIS 4 P0001=
201910191352 METAR KATL 191352Z 08015KT 2SM -RA BR BKN008 OVC015 12/10 A2996 RMK AO2 SLP143 P0008 T01170100=
201910191343 SPECI KATL 191343Z 08015KT 2SM -RA BR BKN008 OVC015 12/09 A2996 RMK AO2 SFC VIS 3 P0007 T01170094=
201910191306 SPECI KATL 191306Z 08016KT 2SM RA BR SCT008 OVC015 12/09 A2995 RMK AO2 P0005 T01170094=
201910191259 SPECI KATL 191259Z 08016KT 2SM RA BR FEW010 OVC015 12/09 A2995 RMK AO2 SFC VIS 2 1/2 P0003 T01170094=
201910191252 METAR KATL 191252Z 08014KT 3SM +RA BR FEW010 OVC015 12/09 A2995 RMK AO2 SFC VIS 4 SLP141 P0009 T01170094=
201910191214 SPECI KATL 191214Z 09009KT 3SM -RA FEW010 OVC017 12/09 A2995 RMK AO2 SFC VIS 6 P0003 T01220094=
201910191152 METAR KATL 191152Z 09011KT 9SM -RA BKN017 OVC029 12/09 A2995 RMK AO2 RAE07B11 SLP140 P0002 60002 70002 T01220094 10156 20122 53008=
201910191052 METAR KATL 191052Z 10009KT 10SM -RA FEW017 BKN029 OVC060 13/08 A2994 RMK AO2 RAE07B47 SLP136 P0000 T01330083=
201910191045 SPECI KATL 191045Z 09012KT 10SM SCT017 BKN033 OVC060 13/08 A2994 RMK AO2 RAE07 SCT017 V BKN P0000 T01330083=
201910191029 SPECI KATL 191029Z 10011KT 10SM BKN017 BKN039 OVC060 13/08 A2994 RMK AO2 RAE07 BKN017 V SCT P0000 T01330083=
201910191016 SPECI KATL 191016Z 09012KT 10SM SCT017 BKN039 OVC060 13/09 A2993 RMK AO2 RAE07 P0000 T01330089=
201910190958 SPECI KATL 190958Z 10010KT 10SM -RA BKN017 BKN039 BKN060 OVC130 13/09 A2993 RMK AO2 P0000 T01330089=
201910190952 METAR KATL 190952Z 09011KT 10SM -RA SCT018 BKN039 BKN060 OVC130 14/09 A2993 RMK AO2 SLP131 P0000 T01390089=
201910190933 SPECI KATL 190933Z 10009KT 10SM -RA SCT018 BKN041 BKN060 OVC130 14/09 A2993 RMK AO2 P0000 T01390089=
201910190932 SPECI KATL 190932Z 10009KT 10SM -RA SCT018 BKN041 14/09 A2993 RMK AO2 P0000 T01390089=
201910190852 METAR KATL 190852Z 08010KT 10SM -RA BKN019 BKN041 OVC070 14/08 A2993 RMK AO2 RAB32 SLP131 P0000 60000 T01440083 56013=
201910190847 SPECI KATL 190847Z 08009KT 10SM -RA BKN019 BKN041 OVC070 15/08 A2993 RMK AO2 RAB32 P0000=
201910190752 METAR KATL 190752Z 09008KT 10SM FEW022 BKN039 OVC070 16/07 A2994 RMK AO2 SLP133 T01560072=
201910190652 METAR KATL 190652Z 11008KT 10SM BKN049 BKN070 BKN200 OVC250 16/07 A2995 RMK AO2 SLP137 T01560067=
201910190552 METAR KATL 190552Z 11010KT 10SM FEW045 BKN065 BKN200 OVC250 16/06 A2997 RMK AO2 SLP144 T01560061 10172 20150 58000=
201910190452 METAR KATL 190452Z 10007KT 10SM FEW060 BKN200 OVC250 15/06 A2998 RMK AO2 SLP149 T01500061 401940083=
201910190352 METAR KATL 190352Z 10008KT 10SM CLR 16/07 A2997 RMK AO2 SLP147 T01560067=
201910190252 METAR KATL 190252Z 10009KT 10SM BKN200 OVC250 16/07 A2997 RMK AO2 SLP146 T01560067 53003=
201910190152 METAR KATL 190152Z 09008KT 10SM OVC200 16/07 A2996 RMK AO2 SLP144 T01560072=
201910190052 METAR KATL 190052Z 11008KT 10SM BKN180 OVC250 16/07 A2995 RMK AO2 SLP142 T01610067=
201910182352 METAR KATL 182352Z 08010KT 10SM BKN180 OVC250 17/07 A2996 RMK AO2 SLP144 T01720067 10194 20172 58007=
201910182252 METAR KATL 182252Z 09008KT 10SM BKN180 OVC250 18/07 A2996 RMK AO2 SLP143 VIRGA E-OHD-W T01780067=
201910182152 METAR KATL 182152Z 10007KT 10SM BKN180 OVC250 18/06 A2998 RMK AO2 SLP152 VIRGA SE-SW-NW T01830061=
201910182052 METAR KATL 182052Z 10007KT 10SM BKN180 OVC250 19/06 A2998 RMK AO2 SLP151 VIRGA ALQDS T01890061 56007=
201910181952 METAR KATL 181952Z 08008KT 10SM SCT180 OVC250 19/06 A2998 RMK AO2 SLP152 VIRGA OHD-SE-W BINOVC T01890061=
201910181852 METAR KATL 181852Z 12005KT 10SM SCT170 SCT220 OVC250 19/06 A2998 RMK AO2 SLP150 VIRGA S-SW BINOVC T01890056=
201910181752 METAR KATL 181752Z 13006KT 10SM SCT220 BKN250 19/06 A3000 RMK AO2 SLP158 VIRGA DSNT W T01890061 10189 20100 58013=
201910181652 METAR KATL 181652Z 10006KT 10SM BKN250 18/05 A3004 RMK AO2 SLP170 T01830050=
201910181552 METAR KATL 181552Z 11010KT 10SM BKN250 16/04 A3004 RMK AO2 SLP172 T01610044=
201910181452 METAR KATL 181452Z 09009KT 10SM FEW200 BKN250 14/04 A3004 RMK AO2 SLP172 T01440044 50020=
201910181352 METAR KATL 181352Z 08013KT 10SM BKN250 12/04 A3005 RMK AO2 SLP176 T01170039=
201910181252 METAR KATL 181252Z 07013KT 10SM BKN200 BKN250 11/03 A3002 RMK AO2 SLP164 T01060033=
201910181152 METAR KATL 181152Z 07009KT 10SM SCT200 BKN250 10/03 A2998 RMK AO2 SLP153 T01000033 10106 20083 51004=
201910181052 METAR KATL 181052Z 04008KT 10SM SCT200 BKN250 10/03 A2998 RMK AO2 SLP152 T01000033=
201910180952 METAR KATL 180952Z 00000KT 10SM SCT200 BKN250 09/04 A2998 RMK AO2 SLP152 T00940039=
201910180852 METAR KATL 180852Z 34004KT 10SM FEW200 SCT250 08/04 A2997 RMK AO2 SLP148 T00830039 55001=
201910180752 METAR KATL 180752Z 32007KT 10SM FEW200 BKN250 09/04 A2997 RMK AO2 SLP146 T00890039=
201910180652 METAR KATL 180652Z 32004KT 10SM SCT200 BKN250 09/04 A2997 RMK AO2 SLP148 T00940039=
201910180552 METAR KATL 180552Z 30008KT 10SM SCT200 BKN250 10/04 A2997 RMK AO2 SLP149 T01000039 10156 20100 53004=
201910180452 METAR KATL 180452Z 31007KT 10SM SCT200 BKN250 11/04 A2997 RMK AO2 SLP147 T01060044 401940078=
201910180352 METAR KATL 180352Z 27004KT 10SM SCT250 12/03 A2996 RMK AO2 SLP145 T01170033=
201910180252 METAR KATL 180252Z 32005KT 10SM FEW200 SCT250 13/02 A2996 RMK AO2 SLP145 T01330022 53006=
201910180152 METAR KATL 180152Z 32005KT 10SM SCT250 14/03 A2996 RMK AO2 SLP145 T01390028=
201910180052 METAR KATL 180052Z 33006KT 10SM SCT250 14/03 A2994 RMK AO2 SLP139 T01440033=
201910172352 METAR KATL 172352Z 32007KT 10SM SCT250 16/03 A2994 RMK AO2 SLP140 T01560033 10194 20156 50005=
201910172252 METAR KATL 172252Z 31009KT 10SM SCT250 17/03 A2994 RMK AO2 SLP140 T01670028=
201910172152 METAR KATL 172152Z 31010KT 10SM SCT250 18/03 A2994 RMK AO2 SLP136 T01830028=
201910172052 METAR KATL 172052Z 35014G20KT 10SM FEW250 19/02 A2993 RMK AO2 SLP133 T01890017 56016=
201910171952 METAR KATL 171952Z 33011G18KT 10SM SCT250 19/01 A2993 RMK AO2 SLP134 T01890011=
201910171852 METAR KATL 171852Z 35009KT 10SM SCT250 18/02 A2995 RMK AO2 SLP141 T01830022=
201910171752 METAR KATL 171752Z 32012KT 10SM FEW250 17/03 A2998 RMK AO2 SLP148 T01720028 10172 20078 58015=
201910171652 METAR KATL 171652Z 34013G21KT 10SM FEW250 16/03 A3000 RMK AO2 SLP157 T01560028=
201910171552 METAR KATL 171552Z 31014G22KT 10SM FEW250 14/04 A3001 RMK AO2 SLP161 T01440039=
201910171452 METAR KATL 171452Z 30009KT 10SM BKN250 12/04 A3002 RMK AO2 SLP166 T01220044 51016=
201910171352 METAR KATL 171352Z 33013G18KT 10SM BKN250 10/04 A3002 RMK AO2 SLP165 T01000039=
201910171252 METAR KATL 171252Z 32009KT 10SM SCT200 BKN250 08/03 A3000 RMK AO2 SLP160 T00830033=
201910171152 METAR KATL 171152Z 32011KT 10SM FEW200 SCT250 08/03 A2997 RMK AO2 SLP150 70001 T00780033 10111 20078 51011=
201910171052 METAR KATL 171052Z 33012KT 10SM FEW250 08/03 A2997 RMK AO2 SLP147 T00830033=
201910170952 METAR KATL 170952Z 31012KT 10SM SCT250 09/04 A2996 RMK AO2 SLP143 T00890039=
201910170852 METAR KATL 170852Z 31008KT 10SM FEW250 09/04 A2994 RMK AO2 SLP136 T00890039 58003=
201910170752 METAR KATL 170752Z 30011KT 260V320 10SM FEW250 10/04 A2994 RMK AO2 SLP137 T01000044 $=
201910170652 METAR KATL 170652Z 30006KT 10SM SCT250 10/04 A2996 RMK AO2 SLP143 T01000044 $=
201910170552 METAR KATL 170552Z 30008KT 10SM SCT250 11/04 A2995 RMK AO2 SLP139 T01110044 10172 20111 55000 $=
201910170452 METAR KATL 170452Z 31010KT 10SM FEW200 BKN250 12/04 A2995 RMK AO2 SLP137 T01170044 402280117 $=
201910170352 METAR KATL 170352Z 31008KT 10SM BKN250 13/05 A2996 RMK AO2 SLP141 T01280050 $=
201910170252 METAR KATL 170252Z 30007KT 10SM BKN250 13/05 A2995 RMK AO2 SLP138 T01330050 51017 $=
201910170152 METAR KATL 170152Z 30010KT 10SM SCT250 14/06 A2993 RMK AO2 SLP133 T01390061 $=
201910170052 METAR KATL 170052Z 28007KT 10SM FEW200 SCT250 14/07 A2992 RMK AO2 SLP127 T01440067 $=
201910162352 METAR KATL 162352Z 31012KT 10SM SCT200 BKN250 16/06 A2990 RMK AO2 SLP120 T01610061 10222 20161 53006=
201910162252 METAR KATL 162252Z 29008KT 10SM SCT200 BKN250 17/09 A2988 RMK AO2 SLP114 T01720094=
201910162152 METAR KATL 162152Z 28011G21KT 10SM SCT200 BKN250 18/10 A2988 RMK AO2 SLP113 T01830100=
201910162052 METAR KATL 162052Z 30010KT 10SM FEW030 FEW150 BKN250 19/11 A2988 RMK AO2 SLP113 T01940106 53006=
201910161952 METAR KATL 161952Z 32012G21KT 10SM FEW030 SCT150 BKN200 20/12 A2987 RMK AO2 PK WND 29028/1904 SLP110 VIRGA DSNT NE-SE-S T02000117=
201910161852 METAR KATL 161852Z 30016G27KT 10SM FEW030 BKN150 BKN200 21/14 A2986 RMK AO2 PK WND 34030/1805 SLP105 VIRGA OHD ALQDS T02110139=
201910161752 METAR KATL 161752Z 30016KT 10SM FEW025 SCT040 BKN200 22/15 A2986 RMK AO2 SLP106 60001 T02170150 10228 20183 50000=
201910161652 METAR KATL 161652Z 31016G22KT 10SM BKN025 BKN040 BKN250 22/16 A2987 RMK AO2 RAE01 SLP107 P0000 T02170156=
201910161605 SPECI KATL 161605Z 29017G22KT 10SM FEW025 BKN030 BKN080 20/16 A2986 RMK AO2 RAE01 P0000 T02000156=
201910161552 METAR KATL 161552Z 31014G24KT 10SM -RA FEW015 BKN025 BKN040 19/16 A2986 RMK AO2 PK WND 32026/1541 RAB42 SLP107 P0000 T01940161=
201910161547 SPECI KATL 161547Z 32017G26KT 10SM -RA FEW015 BKN025 BKN030 19/16 A2986 RMK AO2 PK WND 32026/1541 RAB42 P0000=
201910161528 SPECI KATL 161528Z 33014G19KT 10SM FEW010 SCT020 BKN030 21/17 A2986 RMK AO2 T02060167=
201910161452 METAR KATL 161452Z 30009KT 10SM BKN010 BKN020 BKN040 21/18 A2984 RMK AO2 SLP097 60001 T02060178 53010=
201910161430 SPECI KATL 161430Z 30010KT 8SM BKN010 BKN015 OVC040 20/18 A2983 RMK AO2 T02000178=
201910161416 SPECI KATL 161416Z 31011KT 8SM BKN008 BKN013 OVC040 20/18 A2983 RMK AO2 T02000178=
201910161352 METAR KATL 161352Z 32010KT 8SM BKN006 BKN027 BKN075 19/18 A2983 RMK AO2 RAE1258 SLP093 P0000 T01940178=
201910161330 SPECI KATL 161330Z 29011KT 7SM BKN006 BKN010 OVC075 19/18 A2982 RMK AO2 RAE1258 P0000 T01940183=
201910161324 SPECI KATL 161324Z 29010KT 7SM SCT006 BKN011 OVC075 19/18 A2981 RMK AO2 RAE1258 P0000 T01940178=
201910161252 METAR KATL 161252Z 27007KT 2SM -RA BR BKN004 BKN015 OVC021 19/18 A2981 RMK AO2 SFC VIS 3 RAE16B35DZB16E35 SLP088 CIG 003V006 P0001 T01940178=
201910161152 METAR KATL 161152Z 31004KT 2SM -RA BR OVC004 18/17 A2981 RMK AO2 SFC VIS 3 DZE41RAB41 SLP087 CIG 003V006 P0001 60031 70070 T01830172 10183 20178 56005=
201910161142 SPECI KATL 161142Z 00000KT 2SM -RA BR OVC004 18/17 A2981 RMK AO2 SFC VIS 3 DZE41RAB41 CIG 004V008 P0000 T01830172=
201910161103 SPECI KATL 161103Z 00000KT 3SM -DZ BR OVC006 18/17 A2981 RMK AO2 SFC VIS 6 CIG 004V008 P0000 T01830167=
201910161052 METAR KATL 161052Z 00000KT 2SM -DZ BR BKN005 OVC012 18/17 A2981 RMK AO2 SFC VIS 3 RAE23DZB23 SLP089 CIG 004V007 P0002 T01780167=
201910161024 SPECI KATL 161024Z 00000KT 2SM -DZ BKN004 OVC012 18/17 A2981 RMK AO2 SFC VIS 7 RAE23DZB23 CIG 003V005 P0002 T01780167=
201910160952 METAR KATL 160952Z 00000KT 1 1/2SM -RA BR BKN003 BKN007 OVC017 18/17 A2982 RMK AO2 SFC VIS 3 SLP090 CIG 002V004 P0010 T01780167=
201910160938 SPECI KATL 160938Z 10003KT 1 1/2SM -RA BR BKN004 BKN012 OVC022 18/17 A2981 RMK AO2 SFC VIS 3 CIG 003V006 P0009 T01780167=
201910160852 METAR KATL 160852Z 02003KT 1/2SM R09R/P6000FT -RA BR OVC003 18/17 A2982 RMK AO2 SFC VIS 4 SLP092 CIG 002V004 TWRINC P0013 60018 T01780167 56026=
201910160752 METAR KATL 160752Z 04006KT 1/2SM R09R/P6000FT -RA BR OVC003 18/17 A2985 RMK AO2 SFC VIS 3 SLP100 CIG 002V004 TWRINC P0001 T01780167=
201910160652 METAR KATL 160652Z 10007KT 1/2SM R09R/P6000FT -RA BR OVC003 18/17 A2985 RMK AO2 SFC VIS 5 SLP102 CIG 002V004 TWRINC P0004 T01780167=
201910160552 METAR KATL 160552Z 09006KT 1/2SM R09R/P6000FT -RA BR OVC002 18/17 A2990 RMK AO2 SFC VIS 1 1/2 RAE08B51DZB08E51 SLP119 CIG 001V003 TWRINC P0000 60003 T01780167 10194 20178 58013=
201910160452 METAR KATL 160452Z 11006KT 1/2SM R09R/P6000FT -RA BR OVC003 18/17 A2992 RMK AO2 SFC VIS 3 SLP126 CIG 002V005 TWRINC P0001 T01830172 402280167=
201910160352 METAR KATL 160352Z 09004KT 1/2SM R09R/P6000FT -RA BR BKN004 OVC015 18/17 A2995 RMK AO2 SFC VIS 3 SLP136 CIG 002V007 TWRINC P0001 T01830172=
201910160252 METAR KATL 160252Z 09009KT 1/2SM R09R/P6000FT -RA BR OVC004 18/17 A2994 RMK AO2 SFC VIS 2 SLP133 CIG 002V007 TWRINC P0001 60001 T01830172 58001=
201910160152 METAR KATL 160152Z 10006KT 1/2SM R09R/P6000FT -RA OVC004 19/17 A2996 RMK AO2 SFC VIS 9 SLP141 TWRINC P0000 T01890172=
201910160055 SPECI KATL 160055Z 12008KT 1/2SM R09R/P6000FT -RA BKN004 OVC020 19/18 A2994 RMK AO2 SFC VIS 9 TWRINC P0000 T01890178=
201910160052 METAR KATL 160052Z 12009KT 1 1/2SM -RA BKN005 OVC020 19/18 A2994 RMK AO2 SFC VIS 10 SLP134 CIG 003V006 P0000 T01890178=
201910152352 METAR KATL 152352Z 11009KT 1 1/2SM -RA BR BKN005 OVC025 19/18 A2994 RMK AO2 SFC VIS 5 SLP133 CIG 003V008 P0006 60013 T01940183 10228 20189 58017=
201910152334 SPECI KATL 152334Z 10008KT 3SM -RA BR BKN006 BKN012 OVC025 19/18 A2996 RMK AO2 SFC VIS 5 P0005 T01940178=
201910152252 METAR KATL 152252Z 08007KT 6SM RA BKN009 OVC100 19/17 A2999 RMK AO2 SLP148 P0006 T01940167=
201910152211 SPECI KATL 152211Z 08006KT 6SM -RA BKN012 OVC100 20/17 A2999 RMK AO2 P0001 T02000167=
201910152152 METAR KATL 152152Z 12004KT 7SM -RA BKN015 OVC110 21/17 A2999 RMK AO2 RAB11 SLP150 P0001 T02060172=
201910152119 SPECI KATL 152119Z 14008KT 8SM -RA BKN017 BKN080 OVC120 21/17 A2999 RMK AO2 RAB11 P0000 T02110167=
201910152052 METAR KATL 152052Z 14007KT 10SM SCT025 BKN080 OVC120 22/16 A3000 RMK AO2 SLP150 VIRGA OHD ALQDS T02170161 56022=
201910151952 METAR KATL 151952Z 15007KT 10SM FEW020 SCT040 OVC080 22/16 A3001 RMK AO2 SLP155 T02220156=
201910151852 METAR KATL 151852Z 13006KT 10SM BKN028 BKN040 OVC050 22/14 A3004 RMK AO2 SLP164 T02220144=
201910151752 METAR KATL 151752Z 13005KT 10SM FEW020 BKN030 OVC040 21/16 A3006 RMK AO2 RAB40E51 SLP175 P0000 60023 T02110156 10211 20167 58012=
201910151652 METAR KATL 151652Z 11005KT 10SM BKN030 BKN040 OVC050 20/16 A3009 RMK AO2 SLP184 T02000161=
201910151552 METAR KATL 151552Z 09005KT 10SM FEW010 BKN030 OVC050 19/17 A3010 RMK AO2 RAE1457 SLP186 P0000 T01890167=
201910151550 SPECI KATL 151550Z 09005KT 10SM FEW010 BKN030 OVC050 19/16 A3010 RMK AO2 RAE1457 P0000=
201910151515 SPECI KATL 151515Z 07007KT 10SM BKN028 BKN040 BKN050 18/16 A3010 RMK AO2 RAE1457 P0000 T01830156=
201910151452 METAR KATL 151452Z 08007KT 9SM -RA SCT030 BKN040 BKN050 18/16 A3010 RMK AO2 RAE07B28 SLP186 P0002 60023 T01830161 50000=
201910151406 SPECI KATL 151406Z 13003KT 10SM -RA BKN028 BKN035 OVC048 17/15 A3010 RMK AO2 P0000 T01720150=
201910151352 METAR KATL 151352Z 11005KT 6SM -RA BR FEW030 BKN040 OVC050 17/14 A3010 RMK AO2 RAB1259 SLP188 P0021 T01670144=
201910151334 SPECI KATL 151334Z 10006KT 4SM -RA BR FEW020 BKN030 OVC050 17/14 A3011 RMK AO2 RAB1259 P0019 T01670144=
201910151317 SPECI KATL 151317Z 10006KT 2SM R09R/5000VP6000FT -RA FEW020 BKN030 OVC040 17/13 A3011 RMK AO2 SFC VIS 4 RAB1259 P0008 T01720133=
201910151252 METAR KATL 151252Z 11004KT 10SM BKN033 OVC043 19/13 A3010 RMK AO2 RAB1153E02 SLP186 SHRA NE & SE-SW-W BINOVC P0000 T01890133=
201910151152 METAR KATL 151152Z 12003KT 10SM FEW035 BKN046 OVC120 19/14 A3010 RMK AO2 RAE09 SLP186 P0000 60000 T01890139 10206 20189 51004=
201910151052 METAR KATL 151052Z 09006KT 10SM -RA FEW035 BKN049 OVC100 19/14 A3010 RMK AO2 RAB43 SLP186 P0000 T01890139=
201910150952 METAR KATL 150952Z 17003KT 10SM FEW024 BKN034 OVC048 20/13 A3010 RMK AO2 SLP186 VIRGA OHD-ALQDS T02000133=
201910150852 METAR KATL 150852Z 00000KT 10SM OVC035 20/13 A3009 RMK AO2 SLP181 T02000128 58000 $=
201910150752 METAR KATL 150752Z 00000KT 10SM OVC050 19/13 A3009 RMK AO2 SLP183 T01940133 $=
201910150652 METAR KATL 150652Z 00000KT 10SM BKN055 BKN070 OVC220 20/13 A3010 RMK AO2 SLP183 T02000133 $=
201910150552 METAR KATL 150552Z 00000KT 10SM FEW055 SCT070 BKN200 OVC250 20/13 A3009 RMK AO2 SLP182 T02000128 10228 20200 58008 $=
201910150452 METAR KATL 150452Z 00000KT 10SM SCT055 BKN200 OVC250 21/12 A3010 RMK AO2 SLP186 T02060122 402610122 $=
201910150352 METAR KATL 150352Z 00000KT 10SM OVC060 21/12 A3012 RMK AO2 SLP193 T02060122 $=
201910150252 METAR KATL 150252Z 32006KT 10SM FEW150 BKN200 OVC250 22/12 A3012 RMK AO2 SLP193 T02170117 51007 $=
201910150152 METAR KATL 150152Z 32003KT 10SM FEW150 BKN200 OVC250 22/11 A3011 RMK AO2 SLP191 T02220106 $=
201910150052 METAR KATL 150052Z 33003KT 10SM FEW070 SCT180 BKN250 22/11 A3010 RMK AO2 SLP189 T02220111 $=
201910142352 METAR KATL 142352Z 34005KT 10SM BKN180 BKN250 23/11 A3009 RMK AO2 SLP187 T02280111 10261 20228 53003 $=
201910142252 METAR KATL 142252Z 35006KT 10SM BKN180 BKN250 24/11 A3009 RMK AO2 SLP184 T02390111 $=
201910142152 METAR KATL 142152Z 33006KT 10SM SCT180 BKN250 24/11 A3008 RMK AO2 SLP179 T02440111 $=
201910142106 SPECI KATL 142106Z 33007G17KT 10SM FEW080 BKN250 24/11 A3008 RMK AO2 T02440111 $=
201910142052 METAR KATL 142052Z 34006KT 10SM FEW080 BKN250 26/11 A3009 RMK AO2 SLP182 T02560111 56010 $=
201910141952 METAR KATL 141952Z VRB04KT 10SM FEW150 BKN250 26/10 A3009 RMK AO2 SLP183 T02560100 $=
201910141852 METAR KATL 141852Z 31007KT 10SM BKN250 25/09 A3010 RMK AO2 SLP187 T02500089 $=
201910141752 METAR KATL 141752Z VRB03KT 10SM BKN250 23/06 A3012 RMK AO2 SLP192 T02330056 10239 20122 58012 $=
201910141652 METAR KATL 141652Z 34006KT 10SM BKN250 22/07 A3013 RMK AO2 SLP198 T02170072 $=
201910141552 METAR KATL 141552Z 31007KT 10SM FEW060 FEW250 19/09 A3014 RMK AO2 SLP203 T01940094 $=
201910141452 METAR KATL 141452Z 30006KT 10SM BKN060 BKN250 16/10 A3015 RMK AO2 SLP208 T01610100 51016 $=
201910141352 METAR KATL 141352Z 31007KT 10SM BKN060 15/10 A3014 RMK AO2 SLP204 T01500100 $=
201910141252 METAR KATL 141252Z 30007KT 10SM SCT070 SCT250 13/08 A3012 RMK AO2 SLP198 T01330083 $=
201910141152 METAR KATL 141152Z 30005KT 10SM FEW070 12/09 A3010 RMK AO2 SLP192 70015 T01220089 10156 20122 51013 $=
201910141052 METAR KATL 141052Z 28005KT 10SM SCT065 13/09 A3010 RMK AO2 SLP190 T01280089 $=
201910140952 METAR KATL 140952Z 33007KT 10SM FEW005 BKN070 14/12 A3009 RMK AO2 SLP185 T01390117 $=
201910140852 METAR KATL 140852Z 32006KT 10SM FEW004 SCT065 14/13 A3006 RMK AO2 SLP177 T01440128 53004 $=
201910140827 SPECI KATL 140827Z 30003KT 9SM SCT003 SCT150 14/13 A3006 RMK AO2 T01440133 $=
201910140752 METAR KATL 140752Z 33005KT 7SM BKN003 15/13 A3005 RMK AO2 SLP174 BKN003 V SCT T01500133 $=
201910140748 SPECI KATL 140748Z 34006KT 7SM BKN003 15/13 A3005 RMK AO2 BKN003 V SCT $=
201910140728 SPECI KATL 140728Z 33004KT 10SM FEW004 15/13 A3005 RMK AO2 T01500133 $=
201910140652 METAR KATL 140652Z 32006KT 10SM FEW150 16/13 A3006 RMK AO2 SLP176 T01560133 $=
201910140552 METAR KATL 140552Z 00000KT 10SM FEW120 BKN150 BKN180 16/13 A3005 RMK AO2 SLP173 60002 T01560133 10183 20156 58009 $=
201910140452 METAR KATL 140452Z 26006KT 10SM BKN150 BKN200 16/14 A3008 RMK AO2 SLP181 T01560139 401890156 $=
201910140352 METAR KATL 140352Z 27006KT 10SM FEW110 BKN150 BKN200 16/14 A3008 RMK AO2 RAE21 SLP181 P0000 T01610139 $=
201910140252 METAR KATL 140252Z 31008KT 10SM -RA FEW014 OVC110 17/14 A3008 RMK AO2 RAB21 SLP183 P0000 60002 T01670139 51006 $=
201910140152 METAR KATL 140152Z 22005KT 10SM FEW024 BKN110 OVC140 17/14 A3007 RMK AO2 RAE48 SLP178 P0001 T01720139 $=
201910140138 SPECI KATL 140138Z 23006KT 10SM -RA SCT022 BKN090 OVC120 17/14 A3008 RMK AO2 PRESFR P0001 T01720139 $=
201910140119 SPECI KATL 140119Z 29011KT 10SM -RA FEW007 BKN022 OVC090 17/15 A3010 RMK AO2 P0001 T01720150 $=
201910140113 SPECI KATL 140113Z 30012KT 10SM -RA FEW007 SCT018 BKN080 OVC140 18/16 A3010 RMK AO2 P0001 T01780156 $=
201910140103 SPECI KATL 140103Z 30014G17KT 7SM -RA SCT006 BKN014 OVC080 18/16 A3011 RMK AO2 PRESRR P0001 T01780161 $=
201910140052 METAR KATL 140052Z 30009KT 10SM -RA SCT005 BKN075 OVC100 18/16 A3008 RMK AO2 SLP183 P0001 T01780161 $=
201910132352 METAR KATL 132352Z 23004KT 10SM -RA SCT007 BKN075 OVC100 18/17 A3006 RMK AO2 SLP175 P0001 60002 T01830167 10189 20172 53003 $=
201910132252 METAR KATL 132252Z 28004KT 10SM -RA FEW008 SCT075 OVC110 18/16 A3006 RMK AO2 RAB2159 SLP173 P0000 T01830161 $=
201910132152 METAR KATL 132152Z 30005KT 10SM FEW012 FEW018 OVC110 18/16 A3005 RMK AO2 SLP171 VIRGA NE DSNT SE-S T01830156 $=
201910132104 SPECI KATL 132104Z 22005KT 10SM SCT017 BKN100 OVC200 18/16 A3006 RMK AO2 T01830156 $=
201910132052 METAR KATL 132052Z 23003KT 10SM FEW010 BKN018 OVC100 18/16 A3005 RMK AO2 SLP171 60001 T01830161 58003 $=
201910131952 METAR KATL 131952Z 29007KT 10SM FEW007 OVC019 18/16 A3006 RMK AO2 SLP175 T01780161 $=
201910131913 SPECI KATL 131913Z 29004KT 7SM SCT006 BKN017 OVC034 18/16 A3006 RMK AO2 T01780156 $=
201910131852 METAR KATL 131852Z 27005KT 8SM BKN007 OVC035 18/16 A3006 RMK AO2 RAE29 SLP174 P0001 T01780161 $=
201910131752 METAR KATL 131752Z 30007KT 3SM -RA BR OVC005 17/16 A3006 RMK AO2 RAB35 SLP176 P0000 60011 T01720161 10183 20161 58009 $=
201910131740 SPECI KATL 131740Z 33006KT 2 1/2SM -RA BR BKN006 OVC012 17/16 A3006 RMK AO2 RAB35 P0000 T01720156 $=
201910131732 SPECI KATL 131732Z 31008KT 5SM BR BKN006 OVC016 17/16 A3007 RMK AO2 T01720156 $=
201910131716 SPECI KATL 131716Z 35007KT 8SM OVC004 18/16 A3007 RMK AO2 T01780161 $=
201910131652 METAR KATL 131652Z 31007KT 5SM BR OVC006 18/16 A3007 RMK AO2 RAB30E52 SLP178 P0000 T01780161 $=
201910131640 SPECI KATL 131640Z 30004KT 3SM -RA BR OVC005 18/16 A3007 RMK AO2 RAB30 P0000 T01830161 $=
201910131558 SPECI KATL 131558Z 34003KT 10SM BKN006 OVC025 18/16 A3008 RMK AO2 T01780156 $=
201910131552 METAR KATL 131552Z 34005KT 10SM SCT005 OVC027 18/16 A3008 RMK AO2 RAE34 SLP181 P0010 T01780156 $=
201910131539 SPECI KATL 131539Z 34003KT 7SM SCT005 BKN025 BKN250 17/15 A3008 RMK AO2 RAE34 P0010 T01720150 $=
201910131520 SPECI KATL 131520Z 27003KT 5SM -RA BR BKN005 BKN015 OVC027 17/15 A3009 RMK AO2 P0010 T01670150 $=
201910131459 SPECI KATL 131459Z 31003KT 2SM +RA BR BKN006 OVC013 17/14 A3009 RMK AO2 P0003 T01670144 $=
201910131452 METAR KATL 131452Z 31004KT 3SM RA BR FEW006 OVC013 17/14 A3009 RMK AO2 RAB19 SLP184 P0001 60001 T01670144 51016 $=
201910131437 SPECI KATL 131437Z 34005KT 5SM -RA BR FEW005 OVC013 17/14 A3009 RMK AO2 RAB19 P0001 T01670144 $=
201910131352 METAR KATL 131352Z 33008KT 10SM FEW008 BKN024 OVC060 17/14 A3008 RMK AO2 RAB17E47 SLP179 P0000 T01670144 $=
201910131316 SPECI KATL 131316Z 32007KT 10SM SCT016 OVC028 17/13 A3007 RMK AO2 T01720133 $=
201910131252 METAR KATL 131252Z 31006KT 10SM SCT016 BKN030 OVC055 17/13 A3006 RMK AO2 SLP173 T01720128 $=
201910131152 METAR KATL 131152Z 30004KT 10SM FEW035 SCT050 BKN070 BKN150 BKN200 17/14 A3004 RMK AO2 RAB19E30 SLP166 P0000 60002 70002 T01720139 10183 20172 51011 $=
201910131052 METAR KATL 131052Z 30004KT 10SM FEW050 SCT070 SCT110 BKN150 18/14 A3003 RMK AO2 SLP163 T01780139 $=
201910130952 METAR KATL 130952Z 00000KT 10SM FEW055 SCT080 BKN110 BKN160 18/14 A3002 RMK AO2 SLP158 T01780139 $=
201910130852 METAR KATL 130852Z 22003KT 10SM FEW055 OVC080 18/14 A3001 RMK AO2 SLP154 60002 T01780139 56006 $=
201910130752 METAR KATL 130752Z 00000KT 10SM BKN055 OVC070 18/13 A3001 RMK AO2 SLP155 BINOVC T01780133 $=
201910130652 METAR KATL 130652Z 00000KT 10SM FEW030 BKN050 OVC080 18/12 A3002 RMK AO2 RAE49 SLP156 P0002 T01780122 $=
201910130552 METAR KATL 130552Z 35003KT 10SM -RA FEW020 BKN055 OVC080 18/13 A3003 RMK AO2 RAE13B51 SLP160 P0000 60000 T01830133 10222 20183 58004 $=
201910130452 METAR KATL 130452Z 31006KT 8SM -RA FEW022 BKN048 OVC060 18/13 A3004 RMK AO2 RAB40 SLP165 P0000 T01830133 402780172 $=
201910130352 METAR KATL 130352Z 32006KT 10SM OVC048 19/12 A3004 RMK AO2 SLP166 BINOVC T01940122=
201910130252 METAR KATL 130252Z 32007KT 10SM BKN050 OVC080 20/13 A3004 RMK AO2 SLP164 BINOVC T02000128 50001=
201910130152 METAR KATL 130152Z 33007KT 10SM BKN045 BKN075 BKN200 21/13 A3004 RMK AO2 SLP167 T02060133=
201910130052 METAR KATL 130052Z 32008KT 10SM BKN060 BKN085 BKN200 22/14 A3005 RMK AO2 SLP168 T02170139=
201910122352 METAR KATL 122352Z 32007KT 250V340 10SM FEW060 BKN085 BKN200 22/14 A3004 RMK AO2 RAB03E16 SLP165 P0000 60000 T02220144 10267 20222 50003=
201910122252 METAR KATL 122252Z 29007KT 10SM SCT048 BKN060 BKN085 BKN200 23/15 A3004 RMK AO2 SLP166 VIRGA SE-SW ACC NE DSNT S W-NW T02280150=
201910122152 METAR KATL 122152Z 31010KT 10SM SCT050 BKN070 BKN085 BKN200 24/15 A3004 RMK AO2 SLP164 VIRGA SW-W ACC OHD-ALQDS T02390150=
201910122052 METAR KATL 122052Z 32010KT 10SM FEW060 BKN080 25/15 A3003 RMK AO2 SLP160 ACC OHD-ALQDS T02500150 56007=
201910121952 METAR KATL 121952Z VRB06KT 10SM BKN060 BKN095 26/15 A3003 RMK AO2 SLP161 T02560150=
201910121852 METAR KATL 121852Z 28010KT 10SM BKN055 BKN075 26/13 A3004 RMK AO2 SLP163 T02610133=
201910121752 METAR KATL 121752Z 30009KT 10SM BKN048 BKN070 27/13 A3005 RMK AO2 SLP167 T02670128 10278 20172 58007=
201910121652 METAR KATL 121652Z 26006KT 10SM SCT110 BKN200 27/12 A3007 RMK AO2 SLP172 T02670117=
201910121552 METAR KATL 121552Z 30007KT 10SM FEW110 SCT200 26/12 A3008 RMK AO2 SLP176 T02560117=
201910121452 METAR KATL 121452Z 26006KT 10SM FEW120 24/12 A3007 RMK AO2 SLP174 T02440117 51003=
201910121352 METAR KATL 121352Z 20004KT 10SM BKN120 22/11 A3007 RMK AO2 SLP176 T02170111=
201910121252 METAR KATL 121252Z 19003KT 10SM FEW110 FEW150 19/12 A3007 RMK AO2 SLP174 T01940117=
201910121152 METAR KATL 121152Z 00000KT 10SM FEW150 FEW200 17/11 A3006 RMK AO2 SLP174 T01720106 10200 20172 53009=
201910121052 METAR KATL 121052Z 00000KT 10SM FEW100 FEW180 18/11 A3006 RMK AO2 SLP171 T01780111=
201910120952 METAR KATL 120952Z 00000KT 10SM FEW180 18/12 A3004 RMK AO2 SLP163 T01830117=
201910120852 METAR KATL 120852Z 00000KT 10SM BKN180 19/11 A3003 RMK AO2 SLP161 T01940106 56007=
201910120752 METAR KATL 120752Z 00000KT 10SM BKN200 19/11 A3004 RMK AO2 SLP162 T01940111=
201910120652 METAR KATL 120652Z 00000KT 10SM BKN200 19/11 A3005 RMK AO2 SLP166 T01940111=
201910120552 METAR KATL 120552Z 18003KT 10SM SCT180 SCT220 20/11 A3005 RMK AO2 SLP169 T02000111 10233 20200 57006=
201910120452 METAR KATL 120452Z 15004KT 10SM SCT180 BKN250 20/11 A3005 RMK AO2 SLP170 T02000111 402720156=
201910120352 METAR KATL 120352Z 15003KT 10SM FEW200 BKN250 21/11 A3007 RMK AO2 SLP175 T02110111=
201910120252 METAR KATL 120252Z 13003KT 10SM SCT200 BKN250 22/11 A3007 RMK AO2 SLP176 T02170111 50001=
201910120152 METAR KATL 120152Z 15004KT 10SM FEW200 SCT250 22/11 A3008 RMK AO2 SLP179 T02170106=
201910120052 METAR KATL 120052Z 15004KT 10SM SCT200 BKN250 23/11 A3008 RMK AO2 SLP179 T02280111=
201910112352 METAR KATL 112352Z 17004KT 10SM BKN250 24/12 A3007 RMK AO2 SLP176 T02390117 10272 20233 53003=
201910112252 METAR KATL 112252Z 19005KT 10SM BKN250 24/12 A3006 RMK AO2 SLP174 T02440117=
201910112152 METAR KATL 112152Z 16003KT 10SM SCT250 26/11 A3006 RMK AO2 SLP171 T02610111=
201910112052 METAR KATL 112052Z 00000KT 10SM FEW250 27/11 A3006 RMK AO2 SLP170 T02670111 56023=
201910111952 METAR KATL 111952Z VRB05KT 10SM FEW055 SCT250 27/12 A3007 RMK AO2 SLP174 T02670117=
201910111852 METAR KATL 111852Z VRB03KT 10SM FEW050 BKN250 26/11 A3009 RMK AO2 SLP183 T02560111=
201910111752 METAR KATL 111752Z 00000KT 10SM FEW042 BKN250 24/12 A3013 RMK AO2 SLP195 T02390122 10250 20156 58018=
201910111652 METAR KATL 111652Z 00000KT 10SM SCT036 SCT250 23/13 A3016 RMK AO2 SLP206 T02280128=
201910111552 METAR KATL 111552Z VRB03KT 10SM SCT035 SCT250 24/13 A3017 RMK AO2 SLP210 T02390133=
201910111452 METAR KATL 111452Z VRB06KT 10SM FEW030 FEW080 FEW250 22/14 A3018 RMK AO2 SLP214 T02170139 51009=
201910111352 METAR KATL 111352Z 14004KT 10SM FEW080 19/14 A3018 RMK AO2 SLP214 T01940139=
201910111252 METAR KATL 111252Z 09004KT 10SM FEW250 17/12 A3017 RMK AO2 SLP212 T01670122=
201910111152 METAR KATL 111152Z 10005KT 10SM FEW100 FEW250 16/12 A3016 RMK AO2 SLP206 T01560122 10183 20156 53014=
201910111052 METAR KATL 111052Z 08005KT 10SM FEW250 16/12 A3014 RMK AO2 SLP201 T01560117=
201910110952 METAR KATL 110952Z 09005KT 10SM FEW200 SCT250 17/12 A3013 RMK AO2 SLP195 T01670122=
201910110852 METAR KATL 110852Z 11005KT 10SM FEW200 SCT250 17/12 A3012 RMK AO2 SLP191 T01720122 56006=
201910110752 METAR KATL 110752Z 11006KT 10SM FEW250 18/12 A3012 RMK AO2 SLP191 T01780122=
201910110652 METAR KATL 110652Z 11005KT 10SM FEW250 18/12 A3012 RMK AO2 SLP192 T01830122=
201910110552 METAR KATL 110552Z 09005KT 10SM CLR 18/13 A3013 RMK AO2 SLP198 T01780128 10239 20178 50001=
201910110452 METAR KATL 110452Z 09005KT 10SM CLR 19/13 A3014 RMK AO2 SLP201 T01890133 402610167=
201910110352 METAR KATL 110352Z 10005KT 10SM CLR 20/13 A3014 RMK AO2 SLP200 T02000133=
201910110252 METAR KATL 110252Z 10005KT 10SM CLR 21/13 A3013 RMK AO2 SLP197 T02110133 53012=
201910110152 METAR KATL 110152Z 09006KT 10SM CLR 22/14 A3012 RMK AO2 SLP194 T02170139=
201910110052 METAR KATL 110052Z 10004KT 10SM CLR 23/13 A3010 RMK AO2 SLP188 T02280133=
201910102352 METAR KATL 102352Z 10005KT 10SM CLR 24/13 A3010 RMK AO2 SLP185 T02390133 10261 20228 58004=
201910102252 METAR KATL 102252Z 10005KT 10SM FEW080 24/13 A3010 RMK AO2 SLP187 T02440133=
201910102152 METAR KATL 102152Z 07005KT 10SM FEW080 26/13 A3011 RMK AO2 SLP188 T02560133=
201910102052 METAR KATL 102052Z VRB03KT 10SM FEW050 FEW080 26/14 A3011 RMK AO2 SLP188 T02560139 56025=
201910101952 METAR KATL 101952Z 12006KT 10SM FEW045 FEW080 FEW250 25/14 A3013 RMK AO2 SLP195 T02500144=
201910101852 METAR KATL 101852Z 11007KT 070V140 10SM FEW040 FEW080 FEW250 25/14 A3015 RMK AO2 SLP203 T02500144=
201910101807 SPECI KATL 101807Z 07006KT 10SM FEW030 FEW080 SCT250 23/14 A3017 RMK AO2 T02330144=
201910101752 METAR KATL 101752Z 09008KT 10SM BKN030 BKN080 23/14 A3018 RMK AO2 SLP215 58007 T02330144 10233 20167=
201910101652 METAR KATL 101652Z 06009KT 10SM BKN020 BKN030 BKN080 22/14 A3020 RMK AO2 SLP222 T02170144=
201910101552 METAR KATL 101552Z 09009KT 10SM BKN018 BKN080 22/15 A3021 RMK AO2 SLP224 T02170150=
201910101452 METAR KATL 101452Z 08009KT 10SM SCT014 SCT080 20/15 A3021 RMK AO2 SLP224 T02000150 $=
201910101352 METAR KATL 101352Z 08010KT 10SM FEW015 FEW080 SCT150 19/14 A3021 RMK AO2 SLP223 T01890144=
201910101252 METAR KATL 101252Z 07008KT 10SM SCT080 SCT250 18/14 A3019 RMK AO2 SLP218 ACC SE NW T01780144=
201910101152 METAR KATL 101152Z 08010KT 10SM SCT075 17/14 A3017 RMK AO2 SLP212 ACC SW-NW T01670144 10178 20167 51008=
201910101052 METAR KATL 101052Z 08008KT 10SM SCT075 17/14 A3017 RMK AO2 SLP211 T01670139=
201910100952 METAR KATL 100952Z 09008KT 10SM FEW075 17/14 A3016 RMK AO2 SLP205 T01720139=
201910100852 METAR KATL 100852Z 09005KT 10SM BKN075 17/14 A3015 RMK AO2 SLP203 ACC NW-NE T01720144 53002=
201910100752 METAR KATL 100752Z 09006KT 10SM SCT070 17/14 A3014 RMK AO2 SLP200 T01720144=
201910100652 METAR KATL 100652Z 09008KT 10SM BKN070 18/14 A3015 RMK AO2 SLP203 T01780144=
201910100552 METAR KATL 100552Z 09005KT 10SM FEW070 18/14 A3014 RMK AO2 SLP201 T01780144 10222 20178 51001=
201910100452 METAR KATL 100452Z 08007KT 10SM FEW070 19/14 A3014 RMK AO2 SLP201 T01890144 402500183=
201910100352 METAR KATL 100352Z 08007KT 10SM FEW070 19/14 A3014 RMK AO2 SLP202 T01890144=
201910100252 METAR KATL 100252Z 08009KT 10SM FEW070 19/14 A3014 RMK AO2 SLP200 T01940144 51013=
201910100152 METAR KATL 100152Z 08009KT 10SM FEW070 20/15 A3013 RMK AO2 SLP197 T02000150=
201910100052 METAR KATL 100052Z 08010KT 10SM CLR 21/15 A3012 RMK AO2 SLP192 T02110150=
201910092352 METAR KATL 092352Z 07009KT 10SM FEW040 22/15 A3010 RMK AO2 SLP187 T02220150 10250 20217 53003=
201910092252 METAR KATL 092252Z 08009KT 10SM FEW040 23/15 A3009 RMK AO2 SLP183 T02280150=
201910092152 METAR KATL 092152Z 09008KT 10SM FEW040 24/15 A3009 RMK AO2 SLP181 T02440150=
201910092052 SPECI KATL 092052Z 06006KT 10SM FEW040 24/16 A3009 RMK AO2 SLP183 T02440156 56017=
201910092052 METAR KATL 092052Z 06006KT 10SM FEW040 24/16 A3009 RMK AO2 SLP183 T02440156 56017=
201910091952 METAR KATL 091952Z 08007KT 10SM FEW030 FEW050 24/16 A3011 RMK AO2 SLP187 T02440156=
201910091852 METAR KATL 091852Z 13007KT 10SM SCT030 SCT050 23/15 A3012 RMK AO2 SLP193 T02330150=
201910091752 METAR KATL 091752Z 11008G15KT 10SM FEW020 FEW040 SCT050 23/15 A3014 RMK AO2 SLP200 T02280150 10233 20183 56013=
201910091750 SPECI KATL 091750Z 07007G15KT 10SM FEW020 FEW040 SCT050 23/15 A3014 RMK AO2=
201910091652 METAR KATL 091652Z 05009KT 10SM BKN017 BKN040 OVC050 21/14 A3017 RMK AO2 SLP211 BINOVC SE T02060144=
201910091626 SPECI KATL 091626Z 06010KT 10SM OVC015 20/14 A3018 RMK AO2 T02000144=
201910091552 METAR KATL 091552Z 07010KT 10SM OVC013 19/14 A3018 RMK AO2 SLP214 T01940144=
201910091452 METAR KATL 091452Z 08012KT 10SM OVC012 19/14 A3017 RMK AO2 SLP212 T01890144 51015=
201910091352 METAR KATL 091352Z 08011KT 10SM OVC010 18/14 A3017 RMK AO2 SLP208 T01830144=
201910091252 METAR KATL 091252Z 09011KT 9SM OVC011 18/14 A3014 RMK AO2 SLP200 CIG 010V013 T01830144=
201910091152 METAR KATL 091152Z 08013KT 8SM OVC013 18/14 A3013 RMK AO2 SLP195 CIG 011V015 T01830144 10206 20183 51015=
201910091052 METAR KATL 091052Z 07009KT 10SM OVC014 19/14 A3012 RMK AO2 SLP190 CIG 012V016 T01890144=
201910090952 METAR KATL 090952Z 09009KT 10SM OVC014 19/14 A3010 RMK AO2 SLP183 CIG 012V016 T01890144=
201910090852 METAR KATL 090852Z 08011KT 10SM OVC013 19/15 A3008 RMK AO2 SLP178 CIG 011V015 T01890150 53003=
201910090752 METAR KATL 090752Z 07013KT 10SM OVC012 19/15 A3008 RMK AO2 SLP175 CIG 010V014 T01940150=
201910090652 METAR KATL 090652Z 09009KT 10SM OVC014 20/16 A3008 RMK AO2 SLP176 CIG 012V016 T02000161=
201910090552 METAR KATL 090552Z 08014KT 10SM OVC013 21/17 A3007 RMK AO2 SLP175 CIG 011V015 T02060167 10261 20206 51003=
201910090505 SPECI KATL 090505Z 10009KT 10SM BKN011 BKN040 BKN110 BKN200 21/17 A3007 RMK AO2 T02060172=
201910090452 METAR KATL 090452Z 08009KT 10SM SCT012 SCT040 SCT100 BKN200 21/17 A3007 RMK AO2 SLP173 T02060172 402830189=
201910090352 METAR KATL 090352Z 08012KT 10SM FEW012 FEW040 SCT100 SCT250 21/18 A3008 RMK AO2 SLP176 T02110178=
201910090252 METAR KATL 090252Z 08013KT 10SM FEW042 SCT090 SCT250 22/17 A3007 RMK AO2 SLP173 T02220172 53018=
201910090152 METAR KATL 090152Z 08010KT 10SM FEW090 FEW250 24/17 A3004 RMK AO2 SLP166 T02390167=
201910090052 METAR KATL 090052Z 06006KT 10SM FEW080 SCT120 SCT250 26/17 A3002 RMK AO2 SLP159 T02560167=
201910082352 METAR KATL 082352Z 35007KT 10SM FEW050 SCT090 SCT250 26/16 A3001 RMK AO2 SLP154 CB DSNT SE T02610156 10283 20256 53006=
201910082252 METAR KATL 082252Z 35006KT 10SM FEW050 SCT090 SCT120 BKN250 27/16 A3000 RMK AO2 SLP152 TCU DSNT SE T02670156=
201910082152 METAR KATL 082152Z 34007KT 10SM FEW050 SCT120 SCT250 27/16 A3000 RMK AO2 SLP148 TCU DSNT E-S T02720156=
201910082052 METAR KATL 082052Z 32008KT 10SM FEW050 FEW090 BKN110 27/15 A2999 RMK AO2 SLP147 MDT CU DSNT NE-SE T02720150 56014=
201910081952 METAR KATL 081952Z 30006KT 10SM FEW040 FEW080 SCT110 27/17 A3000 RMK AO2 SLP149 MDT CU NE-SE T02720172=
201910081852 METAR KATL 081852Z 32006KT 10SM FEW040 FEW080 BKN110 27/18 A3001 RMK AO2 SLP152 ACC OHD-W-NW-N MDT CU DSNT NE-SE T02670178=
201910081752 METAR KATL 081752Z 35007KT 10SM FEW035 BKN085 BKN100 26/17 A3003 RMK AO2 SLP161 TCU DSNT E-SE-S T02560172 10272 20189 58014=
201910081652 METAR KATL 081652Z 00000KT 10SM FEW030 SCT080 SCT090 26/17 A3006 RMK AO2 SLP168 TCU DSNT S MDT CU DSNT NE-SE T02560172=
201910081552 METAR KATL 081552Z 35005KT 10SM FEW030 BKN070 BKN080 BKN250 25/17 A3007 RMK AO2 SLP173 T02500172=
201910081452 METAR KATL 081452Z 01007KT 10SM FEW025 FEW060 SCT080 SCT250 23/17 A3008 RMK AO2 SLP177 SHRA DSNT NW-N T02280167 53012 $=
201910081352 METAR KATL 081352Z VRB03KT 10SM FEW020 BKN060 BKN080 20/16 A3006 RMK AO2 SLP173 SHRA DSNT NW T02000161=
201910081252 METAR KATL 081252Z 35007KT 10SM FEW015 SCT060 BKN075 BKN150 19/16 A3005 RMK AO2 SLP169 T01940161=
201910081152 METAR KATL 081152Z 33006KT 10SM BKN060 BKN150 19/16 A3004 RMK AO2 SLP165 T01890161 10206 20189 51011=
201910081052 METAR KATL 081052Z 34009KT 10SM SCT065 BKN150 19/16 A3004 RMK AO2 SLP163 T01890161=
201910080952 METAR KATL 080952Z 32005KT 10SM SCT065 BKN140 19/16 A3002 RMK AO2 SLP157 T01890161=
201910080852 METAR KATL 080852Z 35007KT 10SM BKN065 BKN140 BKN220 19/17 A3001 RMK AO2 SLP152 T01940167 56004 $=
201910080752 METAR KATL 080752Z 33006KT 10SM CLR 19/16 A3001 RMK AO2 SLP152 T01940161 $=
201910080652 METAR KATL 080652Z 34006KT 10SM SCT065 BKN150 19/16 A3002 RMK AO2 SLP157 T01940161 $=
201910080552 METAR KATL 080552Z 36006KT 10SM SCT060 SCT150 SCT250 21/16 A3002 RMK AO2 SLP157 T02060161 10244 20206 58010 $=
201910080452 METAR KATL 080452Z 33006KT 10SM FEW150 SCT250 21/16 A3003 RMK AO2 SLP161 T02060156 402720194 $=
201910080352 METAR KATL 080352Z 33004KT 10SM FEW150 SCT250 22/16 A3004 RMK AO2 SLP165 T02170156 $=
201910080252 METAR KATL 080252Z 32008KT 10SM FEW150 FEW250 22/16 A3005 RMK AO2 SLP167 T02220156 51009 $=
201910080152 METAR KATL 080152Z 32006KT 10SM FEW150 FEW250 23/15 A3005 RMK AO2 SLP167 T02280150 $=
201910080052 METAR KATL 080052Z 35008KT 10SM SCT110 BKN150 BKN250 24/16 A3004 RMK AO2 SLP163 T02390156 $=
201910072352 METAR KATL 072352Z 34007KT 10SM FEW035 BKN140 BKN250 24/17 A3002 RMK AO2 SLP159 T02440167 10272 20244 55000 $=
201910072252 METAR KATL 072252Z 34006KT 10SM FEW035 BKN150 BKN250 26/16 A3002 RMK AO2 SLP156 T02560161 $=
201910072152 METAR KATL 072152Z 35004KT 10SM FEW035 SCT150 BKN250 26/16 A3002 RMK AO2 SLP157 T02610161=
201910072052 METAR KATL 072052Z 00000KT 10SM FEW040 FEW070 FEW090 SCT250 27/17 A3003 RMK AO2 SLP158 T02720167 56021=
201910071952 METAR KATL 071952Z 02006KT 10SM SCT030 BKN070 BKN090 27/17 A3004 RMK AO2 SLP164 T02670172=
201910071852 METAR KATL 071852Z 02007KT 10SM FEW030 SCT040 BKN050 26/17 A3006 RMK AO2 SLP170 T02560172=
201910071752 METAR KATL 071752Z 35007KT 10SM FEW025 BKN040 BKN050 24/17 A3009 RMK AO2 SLP180 T02440172 10256 20194 56013=
201910071703 SPECI KATL 071703Z 05004KT 10SM BKN028 BKN050 BKN070 24/17 A3011 RMK AO2 T02440172=
201910071652 METAR KATL 071652Z VRB04KT 10SM FEW025 BKN050 BKN070 25/17 A3011 RMK AO2 SLP188 T02500172=
201910071625 SPECI KATL 071625Z 01003KT 10SM SCT023 BKN030 BKN040 24/17 A3012 RMK AO2 T02440172=
201910071552 METAR KATL 071552Z VRB04KT 10SM BKN023 BKN030 BKN070 24/18 A3013 RMK AO2 SLP194 T02440178=
201910071521 SPECI KATL 071521Z 10004KT 10SM BKN020 BKN030 BKN070 24/18 A3013 RMK AO2 T02440178=
201910071452 METAR KATL 071452Z 11008KT 10SM FEW020 SCT070 SCT090 BKN250 24/17 A3013 RMK AO2 SLP193 T02390172 50004=
201910071352 METAR KATL 071352Z 10005KT 10SM FEW020 FEW080 SCT120 SCT250 22/17 A3013 RMK AO2 SLP196 T02220172=
201910071252 METAR KATL 071252Z 07006KT 10SM BKN020 BKN080 BKN120 BKN220 20/17 A3013 RMK AO2 SLP195 T02000172=
201910071152 METAR KATL 071152Z 09008KT 10SM FEW035 SCT120 SCT220 19/17 A3011 RMK AO2 SLP189 T01940167 10217 20194 55004=
201910071052 METAR KATL 071052Z 09007KT 10SM FEW035 SCT120 SCT220 20/17 A3011 RMK AO2 SLP189 T02000172=
201910070952 METAR KATL 070952Z 09009KT 10SM FEW035 FEW100 SCT120 BKN220 21/17 A3011 RMK AO2 SLP188 T02060172=
201910070852 METAR KATL 070852Z 08009KT 10SM FEW018 SCT120 BKN200 21/17 A3013 RMK AO2 SLP192 T02110172 58006=
201910070752 METAR KATL 070752Z 10005KT 10SM SCT036 BKN180 OVC220 21/17 A3014 RMK AO2 SLP198 T02110172=
201910070652 METAR KATL 070652Z 10006KT 10SM CLR 21/17 A3015 RMK AO2 SLP201 T02110172=
201910070552 METAR KATL 070552Z 07007KT 10SM FEW036 BKN220 22/17 A3014 RMK AO2 SLP199 T02170167 10244 20217 56005=
201910070452 METAR KATL 070452Z 10006KT 10SM SCT036 BKN250 22/17 A3015 RMK AO2 SLP202 T02170167 402720167=
201910070352 METAR KATL 070352Z 09009KT 10SM BKN250 22/17 A3015 RMK AO2 SLP203 T02170167=
201910070252 METAR KATL 070252Z 08011KT 10SM SCT090 BKN250 22/17 A3016 RMK AO2 SLP206 T02220167 50003=
201910070152 METAR KATL 070152Z 07010KT 10SM SCT090 BKN200 23/17 A3016 RMK AO2 SLP208 T02280167=
201910070052 METAR KATL 070052Z 07010KT 10SM SCT080 BKN120 BKN250 24/17 A3016 RMK AO2 SLP207 T02390172=
201910062352 METAR KATL 062352Z 08009KT 10SM BKN140 BKN250 24/17 A3015 RMK AO2 SLP203 T02440167 10272 20239 55000=
201910062252 METAR KATL 062252Z 09009KT 10SM FEW032 SCT070 BKN140 BKN250 25/17 A3014 RMK AO2 SLP200 T02500172=
201910062152 METAR KATL 062152Z 07009KT 10SM SCT036 SCT140 BKN250 27/17 A3015 RMK AO2 SLP200 T02670172=
201910062052 METAR KATL 062052Z 11008KT 10SM SCT035 BKN170 BKN250 27/18 A3015 RMK AO2 SLP202 T02720178 56020=
201910061952 METAR KATL 061952Z 07008KT 10SM SCT025 BKN045 BKN180 BKN250 26/18 A3017 RMK AO2 SLP208 T02560178=
201910061852 METAR KATL 061852Z 07008KT 10SM BKN023 BKN029 BKN160 BKN250 24/17 A3018 RMK AO2 SLP213 T02440172=
201910061752 METAR KATL 061752Z VRB04KT 10SM BKN018 BKN200 BKN250 24/17 A3021 RMK AO2 SLP224 T02390167 10239 20167 58012=
201910061652 METAR KATL 061652Z 11007KT 10SM BKN015 BKN160 BKN250 22/16 A3023 RMK AO2 SLP232 T02170161=
201910061614 SPECI KATL 061614Z 08009KT 10SM BKN015 BKN200 BKN250 21/16 A3024 RMK AO2 T02110156=
201910061552 METAR KATL 061552Z 09008KT 10SM BKN014 OVC020 21/16 A3025 RMK AO2 SLP236 T02060156=
201910061458 SPECI KATL 061458Z 08010KT 10SM BKN011 OVC016 19/15 A3025 RMK AO2 T01940150=
201910061452 METAR KATL 061452Z 08011KT 10SM BKN009 OVC016 19/15 A3025 RMK AO2 SLP237 T01890150 51013=
201910061352 METAR KATL 061352Z 09011KT 10SM OVC009 18/14 A3024 RMK AO2 SLP236 T01780144=
201910061252 METAR KATL 061252Z 10008KT 8SM OVC007 17/14 A3023 RMK AO2 SLP231 T01720144=
201910061152 METAR KATL 061152Z 09013KT 8SM OVC006 17/14 A3021 RMK AO2 SLP225 T01670144 10183 20167 53002=
201910061052 METAR KATL 061052Z 09008KT 8SM OVC008 17/14 A3020 RMK AO2 SLP222 CIG 007V009 T01720144=
201910060952 METAR KATL 060952Z 08011KT 8SM OVC008 17/14 A3020 RMK AO2 SLP221 T01720139=
201910060852 METAR KATL 060852Z 07011KT 8SM OVC008 17/14 A3020 RMK AO2 SLP219 T01670139 51002=
201910060752 METAR KATL 060752Z 08012KT 8SM OVC008 17/14 A3020 RMK AO2 SLP218 T01720144=
201910060652 METAR KATL 060652Z 08011KT 9SM BKN009 18/14 A3020 RMK AO2 SLP219 CIG 008V011 T01780144=
201910060637 SPECI KATL 060637Z 07013KT 9SM BKN009 18/14 A3020 RMK AO2 CIG 008V011 T01780144=
201910060552 METAR KATL 060552Z 10009KT 9SM BKN010 18/14 A3019 RMK AO2 SLP217 CIG 008V012 T01830144 10206 20178 53006=
201910060452 METAR KATL 060452Z 08015KT 9SM OVC010 19/15 A3018 RMK AO2 SLP212 CIG 008V012 T01890150 402890189=
201910060352 METAR KATL 060352Z 08013G21KT 10SM OVC011 19/16 A3018 RMK AO2 SLP211 CIG 009V013 T01940156=
201910060252 METAR KATL 060252Z 10009KT 10SM OVC011 19/16 A3018 RMK AO2 SLP210 CIG 009V013 T01940156 51013=
201910060152 METAR KATL 060152Z 09012KT 10SM OVC012 20/16 A3017 RMK AO2 SLP208 CIG 010V014 T02000156=
201910060052 METAR KATL 060052Z 09013KT 9SM OVC013 21/16 A3017 RMK AO2 SLP207 T02060161=
201910052352 METAR KATL 052352Z 07019KT 10SM OVC014 21/16 A3014 RMK AO2 SLP198 T02060161 10289 20206 51021=
201910052252 METAR KATL 052252Z 08015KT 10SM OVC017 22/16 A3012 RMK AO2 PK WND 08028/2228 SLP192 T02170161=
201910052152 METAR KATL 052152Z 06021G25KT 10SM BKN024 BKN200 BKN250 24/17 A3010 RMK AO2 PK WND 09028/2137 SLP184 T02390167=
201910052148 SPECI KATL 052148Z 08019G26KT 10SM BKN024 BKN200 BKN250 24/17 A3010 RMK AO2 PK WND 09028/2137=
201910052052 METAR KATL 052052Z 07017G24KT 10SM SCT035 SCT200 SCT300 27/18 A3008 RMK AO2 SLP173 T02720183 56014=
201910051952 METAR KATL 051952Z 09016KT 10SM SCT028 SCT040 28/19 A3008 RMK AO2 SLP175 T02780189=
201910051852 METAR KATL 051852Z 08015G20KT 7SM SCT022 SCT250 28/19 A3009 RMK AO2 SLP178 HAZY T02780189=
201910051821 SPECI KATL 051821Z 07017KT 10SM SCT022 26/18 A3011 RMK AO2 T02610183=
201910051752 METAR KATL 051752Z 08017KT 10SM BKN022 BKN035 BKN250 26/19 A3012 RMK AO2 SLP188 T02610189 10283 20239 58003=
201910051652 METAR KATL 051652Z 09018G23KT 7SM BKN023 BKN050 BKN250 28/19 A3013 RMK AO2 SLP192 T02780194=
201910051552 METAR KATL 051552Z 10015G22KT 9SM SCT030 SCT050 BKN120 BKN250 27/19 A3014 RMK AO2 SLP194 SHRA VC NE-E T02720194=
201910051452 METAR KATL 051452Z 10012G21KT 10SM SCT050 SCT250 27/19 A3013 RMK AO2 SLP190 MDT CU E-SE T02720189 51019=
201910051352 METAR KATL 051352Z 08015KT 10SM SCT050 BKN090 BKN250 24/18 A3011 RMK AO2 SLP185 T02440183=
201910051252 METAR KATL 051252Z 08015KT 10SM CLR 24/17 A3010 RMK AO2 SLP179 T02440172=
201910051152 METAR KATL 051152Z 07012KT 10SM BKN085 BKN250 24/16 A3007 RMK AO2 SLP170 T02390161 10272 20239 53020=
201910051052 METAR KATL 051052Z 07012KT 10SM FEW250 24/16 A3004 RMK AO2 SLP161 T02390156=
201910050952 METAR KATL 050952Z 07010KT 10SM SCT250 25/16 A3002 RMK AO2 SLP153 T02500161=
201910050852 METAR KATL 050852Z 07009KT 10SM SCT250 26/16 A3001 RMK AO2 SLP148 T02560161 55001=
201910050752 METAR KATL 050752Z 06012KT 10SM SCT250 26/16 A3000 RMK AO2 SLP145 T02610161=
201910050652 METAR KATL 050652Z 06008KT 10SM SCT250 27/17 A3001 RMK AO2 SLP147 T02670167=
201910050552 METAR KATL 050552Z 33008KT 10SM SCT250 26/17 A3001 RMK AO2 SLP150 T02560172 10328 20256 58003=
201910050452 METAR KATL 050452Z 01007KT 10SM SCT250 28/17 A3002 RMK AO2 SLP150 T02780172 403610239=
201910050352 METAR KATL 050352Z 36004KT 10SM SCT250 28/17 A3002 RMK AO2 SLP154 T02780172=
201910050252 METAR KATL 050252Z 35008KT 10SM FEW250 29/17 A3002 RMK AO2 SLP153 T02940167 53011=
201910050152 METAR KATL 050152Z 34007KT 10SM FEW250 29/17 A3001 RMK AO2 SLP150 T02940167=
201910050052 METAR KATL 050052Z 33008KT 10SM FEW250 31/16 A2999 RMK AO2 SLP145 T03060161=
201910042352 METAR KATL 042352Z 32006KT 10SM FEW080 SCT250 33/16 A2999 RMK AO2 SLP143 T03280156 10361 20328 53002=
201910042252 METAR KATL 042252Z 33006KT 10SM FEW080 SCT250 34/15 A2998 RMK AO2 SLP141 T03390150=
201910042152 METAR KATL 042152Z 03005KT 10SM FEW080 FEW250 35/15 A2998 RMK AO2 SLP140 T03500150=
201910042052 METAR KATL 042052Z 04006KT 10SM SCT080 SCT250 34/13 A2998 RMK AO2 SLP140 T03440133 56017=
201910041952 METAR KATL 041952Z 01008KT 10SM FEW080 SCT250 36/14 A2999 RMK AO2 SLP142 T03610139=
201910041939 SPECI KATL 041939Z 05009KT 10SM FEW080 SCT250 36/13 A2999 RMK AO2 T03560133=
201910041852 METAR KATL 041852Z 32006G17KT 10SM FEW080 SCT250 36/14 A3001 RMK AO2 SLP148 T03560144=
201910041752 METAR KATL 041752Z 01006KT 10SM FEW075 FEW250 36/16 A3003 RMK AO2 SLP156 T03560156 10356 20239 58014=
201910041652 METAR KATL 041652Z 35007KT 10SM FEW080 FEW250 34/16 A3006 RMK AO2 SLP164 T03440156=
201910041552 METAR KATL 041552Z VRB03KT 10SM FEW250 33/17 A3007 RMK AO2 SLP169 T03280167=
201910041452 METAR KATL 041452Z 34008KT 10SM FEW250 31/17 A3008 RMK AO2 SLP171 T03060172 51007=
201910041352 METAR KATL 041352Z 33008KT 10SM FEW250 28/17 A3007 RMK AO2 SLP170 T02830172=
201910041252 METAR KATL 041252Z 33008KT 10SM FEW012 SCT250 25/17 A3007 RMK AO2 SLP169 FU FEW012 T02500172=
201910041152 METAR KATL 041152Z 33006KT 10SM FEW012 SCT250 24/17 A3005 RMK AO2 SLP165 FU FEW012 T02390172 10272 20239 53007=
201910041052 METAR KATL 041052Z 32005KT 10SM FEW250 24/18 A3005 RMK AO2 SLP161 T02390178=
201910040952 METAR KATL 040952Z 32005KT 10SM FEW250 24/18 A3004 RMK AO2 SLP158 T02390178=
201910040852 METAR KATL 040852Z 16003KT 10SM FEW010 FEW100 SCT250 24/17 A3003 RMK AO2 SLP156 FU FEW010 T02440172 55002=
201910040752 METAR KATL 040752Z 36004KT 10SM FEW100 SCT250 27/17 A3002 RMK AO2 SLP152 T02670167=
201910040652 METAR KATL 040652Z 33004KT 10SM FEW100 26/18 A3003 RMK AO2 SLP156 T02610178=
201910040552 METAR KATL 040552Z 00000KT 10SM FEW095 27/17 A3004 RMK AO2 SLP159 T02670172 10344 20267 58003=
201910040452 METAR KATL 040452Z 06003KT 10SM FEW090 28/17 A3004 RMK AO2 SLP159 T02830167 403670239=
201910040352 METAR KATL 040352Z VRB04KT 10SM FEW250 29/17 A3005 RMK AO2 SLP162 T02890167=
201910040252 METAR KATL 040252Z 03009KT 10SM FEW250 33/15 A3005 RMK AO2 SLP161 T03280150 53012=
201910040152 METAR KATL 040152Z 36008KT 10SM FEW250 33/16 A3004 RMK AO2 SLP157 T03280161=
201910040052 METAR KATL 040052Z 35007KT 10SM FEW250 33/16 A3002 RMK AO2 SLP153 T03330156=
201910032352 METAR KATL 032352Z 35007KT 10SM FEW250 34/16 A3001 RMK AO2 SLP150 T03390156 10367 20339 53002=
201910032252 METAR KATL 032252Z 35008KT 10SM FEW080 35/15 A3001 RMK AO2 SLP149 T03500150=
201910032152 METAR KATL 032152Z 01008KT 10SM FEW080 36/16 A3000 RMK AO2 SLP146 T03560156=
201910032052 METAR KATL 032052Z 35007KT 10SM FEW080 36/16 A3001 RMK AO2 SLP148 T03560156 56013=
201910031952 METAR KATL 031952Z 32008KT 10SM FEW075 36/16 A3002 RMK AO2 SLP151 T03560161=
201910031852 METAR KATL 031852Z 05004KT 10SM FEW080 36/17 A3003 RMK AO2 SLP155 T03560167=
201910031752 METAR KATL 031752Z VRB04KT 10SM SCT075 SCT250 34/17 A3005 RMK AO2 SLP162 T03440167 10361 20250 58013=
201910031652 METAR KATL 031652Z 35007KT 10SM FEW070 35/18 A3007 RMK AO2 SLP168 T03500178=
201910031552 METAR KATL 031552Z 29007KT 10SM FEW250 33/19 A3008 RMK AO2 SLP173 T03330194=
201910031452 METAR KATL 031452Z 33008KT 10SM FEW250 31/20 A3009 RMK AO2 SLP175 T03110200 50006=
201910031352 METAR KATL 031352Z 32008KT 10SM FEW250 29/19 A3009 RMK AO2 SLP175 T02940194=
201910031252 METAR KATL 031252Z 31006KT 9SM CLR 27/20 A3008 RMK AO2 SLP173 T02670200=
201910031152 METAR KATL 031152Z 31004KT 9SM FEW250 25/20 A3007 RMK AO2 SLP168 T02500200 10267 20239 51010=
201910031052 METAR KATL 031052Z 24004KT 10SM FEW250 24/20 A3006 RMK AO2 SLP167 T02440200=
201910030952 METAR KATL 030952Z 24004KT 10SM FEW250 24/20 A3005 RMK AO2 SLP162 T02440200=
201910030852 METAR KATL 030852Z 00000KT 10SM FEW250 25/20 A3003 RMK AO2 SLP157 T02500200 51006=
201910030752 METAR KATL 030752Z 00000KT 10SM FEW250 25/20 A3003 RMK AO2 SLP156 T02500200=
201910030652 METAR KATL 030652Z 21003KT 10SM FEW250 26/20 A3002 RMK AO2 SLP154 T02560200=
201910030552 METAR KATL 030552Z 00000KT 10SM FEW250 27/19 A3002 RMK AO2 SLP151 T02670194 10333 20267 58000=
201910030452 METAR KATL 030452Z 00000KT 10SM FEW250 28/19 A3002 RMK AO2 SLP152 T02780194 403560233=
201910030352 METAR KATL 030352Z 00000KT 10SM FEW250 28/20 A3002 RMK AO2 SLP152 T02830200=
201910030252 METAR KATL 030252Z 27003KT 10SM FEW250 29/19 A3002 RMK AO2 SLP152 T02940194 51010=
201910030152 METAR KATL 030152Z 00000KT 10SM FEW065 FEW250 31/19 A3001 RMK AO2 SLP151 T03060194=
201910030052 METAR KATL 030052Z 00000KT 10SM FEW065 FEW250 31/18 A3000 RMK AO2 SLP148 T03110183=
201910022352 METAR KATL 022352Z 30004KT 10SM FEW065 SCT100 33/17 A2999 RMK AO2 SLP143 T03330172 10356 20328 53003=
201910022252 METAR KATL 022252Z 27003KT 10SM FEW065 34/17 A2998 RMK AO2 SLP141 T03390172=
201910022152 METAR KATL 022152Z 33005KT 10SM FEW065 34/18 A2998 RMK AO2 SLP137 T03440178=
201910022052 METAR KATL 022052Z 33004KT 10SM FEW065 35/17 A2998 RMK AO2 SLP139 T03500172 56022=
201910021952 METAR KATL 021952Z 00000KT 10SM FEW055TCU 34/18 A3000 RMK AO2 SLP145 TCU NW T03440183=
201910021852 METAR KATL 021852Z 34003KT 10SM SCT055TCU SCT100 34/19 A3002 RMK AO2 SLP153 TCU E W-NW T03390194=
201910021752 METAR KATL 021752Z 18003KT 10SM FEW055 33/19 A3005 RMK AO2 SLP162 T03330194 10339 20233 58018=
201910021652 METAR KATL 021652Z 01005KT 10SM FEW050 32/19 A3008 RMK AO2 SLP172 T03220194=
201910021552 METAR KATL 021552Z VRB05KT 10SM FEW250 31/20 A3009 RMK AO2 SLP177 T03110200=
201910021452 METAR KATL 021452Z 26008KT 10SM CLR 29/19 A3010 RMK AO2 SLP182 T02890194 50004=
201910021352 METAR KATL 021352Z 28010KT 10SM CLR 27/19 A3011 RMK AO2 SLP184 T02720194=
201910021252 METAR KATL 021252Z 25007KT 10SM FEW200 FEW250 25/19 A3011 RMK AO2 SLP183 T02500194=
201910021152 METAR KATL 021152Z 22003KT 9SM FEW250 23/19 A3009 RMK AO2 SLP178 T02330194 10261 20233 53012=
201910021052 METAR KATL 021052Z 23003KT 10SM CLR 24/19 A3008 RMK AO2 SLP173 T02390189=
201910020952 METAR KATL 020952Z 23003KT 10SM CLR 24/19 A3006 RMK AO2 SLP168 T02390189=
201910020852 METAR KATL 020852Z 00000KT 10SM CLR 24/19 A3005 RMK AO2 SLP165 T02440189 55003=
201910020752 METAR KATL 020752Z 19003KT 10SM CLR 25/19 A3005 RMK AO2 SLP164 T02500189=
201910020652 METAR KATL 020652Z 20004KT 10SM CLR 26/19 A3006 RMK AO2 SLP166 T02560194=
201910020552 METAR KATL 020552Z 19004KT 10SM CLR 26/19 A3006 RMK AO2 SLP167 T02610189 10311 20261 55003=
201910020452 METAR KATL 020452Z 14005KT 9SM FEW250 27/19 A3006 RMK AO2 SLP168 T02670194 403390233=
201910020352 METAR KATL 020352Z 00000KT 10SM FEW250 28/19 A3006 RMK AO2 SLP167 T02830194=
201910020252 METAR KATL 020252Z 09004KT 10SM FEW250 29/19 A3007 RMK AO2 SLP171 T02890194 50004=
201910020152 METAR KATL 020152Z 19003KT 10SM FEW055 SCT250 29/19 A3007 RMK AO2 SLP172 T02940194=
201910020052 METAR KATL 020052Z 15003KT 10SM FEW055 SCT250 30/19 A3007 RMK AO2 SLP170 T03000194=
201910012352 METAR KATL 012352Z 20003KT 10SM FEW055 SCT250 31/19 A3006 RMK AO2 SLP169 TCU DSNT N T03060194 10339 20306 55000=
201910012252 METAR KATL 012252Z 06007KT 10SM FEW055 BKN250 33/18 A3006 RMK AO2 SLP167 TCU DSNT N-NE T03280183=
201910012152 METAR KATL 012152Z 06005KT 10SM FEW055 SCT250 33/18 A3006 RMK AO2 SLP167 MDT CU N T03330183=
201910012052 METAR KATL 012052Z 10SM FEW055 FEW250 33/18 A3006 RMK AO2 SLP167 MDT CU N E S T03330183 56022 $=
201910011952 METAR KATL 011952Z 00000KT 10SM FEW050 FEW250 33/19 A3008 RMK AO2 SLP175 MDT CU NW-N T03280189=
201910011852 METAR KATL 011852Z VRB05KT 10SM FEW050 34/20 A3010 RMK AO2 SLP181 T03390200=
201910011752 METAR KATL 011752Z VRB03KT 10SM FEW050 33/20 A3013 RMK AO2 SLP190 T03280200 10328 20233 58018=
201910011652 METAR KATL 011652Z VRB03KT 10SM FEW050 31/20 A3015 RMK AO2 SLP198 T03110200=
201910011552 METAR KATL 011552Z VRB03KT 10SM CLR 30/19 A3017 RMK AO2 SLP204 T03000194=
201910011452 METAR KATL 011452Z 12004KT 10SM CLR 28/19 A3018 RMK AO2 SLP209 T02780194 51013 $=
201910011352 METAR KATL 011352Z 08006KT 10SM CLR 26/20 A3017 RMK AO2 SLP206 T02610200=
201910011252 METAR KATL 011252Z 08008KT 10SM CLR 24/20 A3016 RMK AO2 SLP203 T02390200=
