##########################################################
# Query made at 04/20/2024 00:08:11 UTC
# Time interval: from 12/01/2019 12:00  to 12/31/2019 12:59  UTC
##########################################################

##########################################################
# KATL, Atlanta, Hartsfield - Jackson Atlanta International Airport (United States)
# WMO index: 72219. WIGOS ID: 0-20000-0-72219
# Latitude 33-38-59N. Longitude 084-25-00W. Altitude 312 m.
##########################################################

201912311252 METAR KATL 311252Z 27007KT 10SM CLR 03/M01 A3000 RMK AO2 SLP163 T00331006=
201912311152 METAR KATL 311152Z 27007KT 10SM CLR 04/M01 A2999 RMK AO2 SLP157 T00391006 10072 20039 53004=
201912311052 METAR KATL 311052Z 28008KT 10SM CLR 04/00 A2998 RMK AO2 SLP153 T00440000=
201912310952 METAR KATL 310952Z 28007KT 10SM CLR 04/00 A2998 RMK AO2 SLP152 T00440000=
201912310852 METAR KATL 310852Z 28007KT 10SM CLR 06/00 A2997 RMK AO2 SLP150 T00560000 53005=
201912310752 METAR KATL 310752Z 29011KT 10SM CLR 06/00 A2997 RMK AO2 SLP148 T00610000=
201912310652 METAR KATL 310652Z 29009KT 10SM CLR 07/01 A2996 RMK AO2 SLP145 T00670006=
201912310552 METAR KATL 310552Z 29009KT 10SM CLR 07/01 A2996 RMK AO2 SLP145 T00720011 10111 20072 50002=
201912310452 METAR KATL 310452Z 28011KT 10SM CLR 08/01 A2996 RMK AO2 SLP146 T00780011 402060078=
201912310352 METAR KATL 310352Z 27010KT 10SM CLR 08/01 A2996 RMK AO2 SLP146 T00830006=
201912310252 METAR KATL 310252Z 27010KT 10SM CLR 09/01 A2995 RMK AO2 SLP142 T00890006 51011=
201912310152 METAR KATL 310152Z 26007KT 10SM CLR 09/00 A2994 RMK AO2 SLP140 T00940000=
201912310052 METAR KATL 310052Z 27008KT 10SM CLR 11/00 A2993 RMK AO2 SLP136 T01060000=
201912302352 METAR KATL 302352Z 28011KT 10SM CLR 11/00 A2992 RMK AO2 SLP131 T01110000 10161 20111 53014=
201912302252 METAR KATL 302252Z 27009KT 10SM CLR 13/M01 A2990 RMK AO2 SLP124 T01281011=
201912302152 METAR KATL 302152Z 26013G19KT 10SM CLR 14/M02 A2988 RMK AO2 SLP116 T01441017=
201912302052 METAR KATL 302052Z 26008KT 10SM FEW250 16/01 A2987 RMK AO2 SLP114 T01560011 55006=
201912301952 METAR KATL 301952Z 27013G19KT 10SM FEW200 FEW250 16/01 A2987 RMK AO2 SLP112 T01610006=
201912301852 METAR KATL 301852Z 27009G18KT 10SM FEW040 FEW200 FEW250 16/03 A2988 RMK AO2 SLP111 T01610033=
201912301752 METAR KATL 301752Z 28013G22KT 10SM FEW035 FEW200 FEW250 15/03 A2989 RMK AO2 SLP118 T01500033 10156 20106 58009=
201912301652 METAR KATL 301652Z 27013G20KT 10SM FEW035 FEW200 FEW250 14/04 A2992 RMK AO2 SLP127 T01440039=
201912301552 METAR KATL 301552Z 27008G19KT 10SM FEW030 FEW200 FEW250 13/05 A2993 RMK AO2 SLP131 T01330050=
201912301452 METAR KATL 301452Z 26012KT 10SM FEW020 FEW200 FEW250 12/06 A2992 RMK AO2 SLP129 T01220056 51018=
201912301352 METAR KATL 301352Z 28008KT 10SM FEW020 FEW200 FEW250 11/05 A2991 RMK AO2 SLP125 T01110050=
201912301252 METAR KATL 301252Z 30015KT 10SM FEW055 SCT200 BKN250 11/04 A2988 RMK AO2 SLP117 VIRGA ALQDS T01110044=
201912301152 METAR KATL 301152Z 28013G19KT 10SM FEW025 BKN250 12/06 A2987 RMK AO2 SLP110 60007 70016 T01220056 10206 20122 53021=
201912301052 METAR KATL 301052Z 29011KT 10SM FEW023 SCT075 BKN220 14/08 A2984 RMK AO2 SLP101 T01390083=
201912300952 METAR KATL 300952Z 28015G22KT 10SM SCT055 BKN075 BKN220 15/08 A2981 RMK AO2 SLP090 T01500083 $=
201912300852 METAR KATL 300852Z 28010G19KT 10SM BKN047 OVC060 16/11 A2980 RMK AO2 SLP086 60007 T01560111 53019 $=
201912300752 METAR KATL 300752Z 28010KT 10SM FEW023 BKN042 OVC060 16/12 A2978 RMK AO2 PK WND 29033/0716 WSHFT 0659 RAE31 SLP081 FROPA P0007 T01560122 $=
201912300728 SPECI KATL 300728Z 29013KT 10SM -RA FEW012 SCT021CB OVC035 15/12 A2978 RMK AO2 PK WND 29033/0716 WSHFT 0659 CB VC NE & SE MOV NE P0007 T01500117 $=
201912300714 SPECI KATL 300714Z 29021G33KT 7SM RA SCT014 BKN021CB OVC027 17/13 A2978 RMK AO2 PK WND 28033/0709 WSHFT 0659 PRESRR CB OHD-SW-NW-N MOV NE P0000 T01670133 $=
201912300652 METAR KATL 300652Z 19013G22KT 10SM -RA SCT016 BKN024CB BKN030 BKN180 BKN250 20/17 A2974 RMK AO2 RAB52 SLP064 CB VC SW-NW MOV E P0000 T02000167 $=
201912300635 SPECI KATL 300635Z 19009G19KT 10SM BKN016 BKN026 BKN070 BKN180 BKN250 20/17 A2973 RMK AO2 T02000167 $=
201912300552 METAR KATL 300552Z 20010G22KT 10SM FEW016 SCT026 SCT070 BKN140 OVC200 21/17 A2975 RMK AO2 SLP066 T02060172 10206 20200 58020 $=
201912300525 SPECI KATL 300525Z 17017G23KT 10SM FEW016 SCT024 BKN055 OVC140 21/17 A2973 RMK AO2 PRESFR T02060172 $=
201912300452 METAR KATL 300452Z 20016G20KT 10SM SCT014 BKN022 OVC036 21/17 A2979 RMK AO2 SLP080 T02060172 402170167 $=
201912300352 METAR KATL 300352Z 19010G18KT 10SM BKN016 OVC024 21/17 A2980 RMK AO2 SLP084 CIG 014V018 T02060172 $=
201912300252 METAR KATL 300252Z 20013G19KT 10SM SCT016 BKN024 OVC032 21/17 A2981 RMK AO2 SLP087 T02060167 55007 $=
201912300204 SPECI KATL 300204Z 17011KT 10SM BKN018 BKN028 BKN060 OVC200 20/17 A2980 RMK AO2 T02000167 $=
201912300152 METAR KATL 300152Z 17011G20KT 10SM FEW016 SCT028 BKN070 OVC200 20/17 A2980 RMK AO2 SLP084 T02000167 $=
201912300052 METAR KATL 300052Z 16010G18KT 10SM SCT038 BKN080 OVC200 20/17 A2980 RMK AO2 SLP085 T02000167 $=
201912292352 METAR KATL 292352Z 16009KT 10SM FEW044 SCT080 BKN200 BKN250 20/17 A2983 RMK AO2 SLP094 60009 T02000172 10217 20200 56010 $=
201912292252 METAR KATL 292252Z 15005KT 10SM FEW026 BKN050 BKN200 BKN250 21/17 A2984 RMK AO2 SLP097 T02060172 $=
201912292152 METAR KATL 292152Z 17005KT 10SM FEW026 BKN042 BKN080 BKN200 BKN250 21/18 A2985 RMK AO2 SLP102 T02110178 $=
201912292145 SPECI KATL 292145Z 16006KT 10SM FEW023 BKN040 BKN080 BKN200 BKN250 21/18 A2986 RMK AO2 T02110178 $=
201912292052 METAR KATL 292052Z 16006KT 10SM FEW012 BKN018 BKN023 BKN200 BKN250 21/18 A2986 RMK AO2 RAE13 SLP105 P0006 60009 T02110183 56025 $=
201912292043 SPECI KATL 292043Z 16007KT 10SM FEW005 BKN018 BKN200 BKN250 21/18 A2986 RMK AO2 RAE13 P0006 T02110183 $=
201912292021 SPECI KATL 292021Z 16007KT 10SM FEW005 SCT015 BKN033 BKN200 BKN250 21/19 A2987 RMK AO2 RAE13 P0006 T02060189 $=
201912292010 SPECI KATL 292010Z 15006KT 3SM -RA BR SCT007 BKN015 OVC033 20/19 A2987 RMK AO2 P0006 T02000189 $=
201912291952 METAR KATL 291952Z 23006KT 1 1/4SM R09R/5500VP6000FT -RA BR BKN011 BKN015 OVC028 20/18 A2988 RMK AO2 SFC VIS 1 3/4 RAB14 SLP112 P0003 T02000183 $=
201912291945 SPECI KATL 291945Z 18009KT 1 1/4SM R09R/6000VP6000FT RA BR BKN013 BKN024 OVC040 20/18 A2989 RMK AO2 SFC VIS 1 3/4 RAB14 P0001 T02000183 $=
201912291903 SPECI KATL 291903Z 18008KT 10SM BKN013 BKN025 OVC040 21/17 A2990 RMK AO2 T02110172=
201912291852 METAR KATL 291852Z 18007KT 10SM SCT013 BKN040 BKN075 BKN200 OVC250 21/18 A2991 RMK AO2 RAB16E25 SLP121 SHRA SE-SW P0000 T02110178=
201912291832 SPECI KATL 291832Z 18008KT 10SM SCT013 BKN040 BKN070 BKN200 OVC250 21/18 A2991 RMK AO2 RAB16E25 BINOVC P0000 T02110178=
201912291752 METAR KATL 291752Z 18010KT 10SM BKN011 BKN022 BKN029 OVC250 21/18 A2994 RMK AO2 RAB25E50 SLP132 CIG 009V013 P0000 60000 T02060183 10206 20183 58030=
201912291725 SPECI KATL 291725Z 18007KT 6SM -RA BR BKN009 OVC020 21/18 A2996 RMK AO2 RAB25 CIG 007V012 P0000 T02060178=
201912291720 SPECI KATL 291720Z 18008KT 9SM BKN012 OVC030 21/18 A2996 RMK AO2 T02060178=
201912291652 METAR KATL 291652Z 18010KT 10SM BKN009 OVC030 21/18 A2997 RMK AO2 SLP145 T02060178=
201912291552 METAR KATL 291552Z 17007KT 10SM BKN008 OVC015 20/18 A3001 RMK AO2 SLP159 BINOVC T02000178 $=
201912291452 METAR KATL 291452Z 17009KT 3SM BKN005 OVC015 19/18 A3003 RMK AO2 SFC VIS 7 SLP164 60000 T01890178 53003 $=
201912291352 METAR KATL 291352Z 17008KT 1SM R09R/P6000FT BKN005 OVC023 19/17 A3001 RMK AO2 SFC VIS 7 DZB18E25 SLP159 CIG 003V008 TWRINC P0000 T01890172 $=
201912291327 SPECI KATL 291327Z 17008KT 1SM R09R/P6000FT OVC005 18/17 A3002 RMK AO2 SFC VIS 7 DZB18E25 CIG 004V008 TWRINC P0000 T01830172 $=
201912291252 METAR KATL 291252Z 14007KT 1/2SM R09R/P6000FT BR OVC004 18/17 A3000 RMK AO2 SFC VIS 6 DZE18 SLP156 CIG 003V006 TWRINC P0000 T01830172 $=
201912291152 METAR KATL 291152Z 15007KT 1/2SM R09R/P6000FT -DZ BR OVC003 18/17 A3002 RMK AO2 SFC VIS 2 RAB30E47DZB47 SLP161 TWRINC P0000 60005 70010 T01830172 10183 20172 55004 $=
201912291052 METAR KATL 291052Z 15004KT 1/2SM R09R/P6000FT BR OVC003 18/17 A3002 RMK AO2 SFC VIS 4 DZE43RAB43E52 SLP159 TWRINC P0001 T01830172 $=
201912290952 METAR KATL 290952Z 15007KT 1/2SM R09R/P6000FT -DZ BR OVC004 18/17 A3002 RMK AO2 SFC VIS 3 SLP160 TWRINC P0001 T01830172 $=
201912290852 METAR KATL 290852Z 17007KT 1/2SM R09R/P6000FT -DZ BR OVC003 18/17 A3003 RMK AO2 SFC VIS 6 SLP164 TWRINC P0000 60003 T01780167 55008 $=
201912290752 METAR KATL 290752Z 13008KT 1/2SM R09R/P6000FT -DZ BR OVC002 17/17 A3003 RMK AO2 SFC VIS 1 1/2 SLP163 TWRINC P0000 T01720167 $=
201912290652 METAR KATL 290652Z 12008KT 1/2SM R09R/P6000FT -DZ BR OVC002 17/16 A3003 RMK AO2 SFC VIS 1 RAE28DZB28 SLP165 TWRINC P0003 T01720161 $=
201912290552 METAR KATL 290552Z 13004KT 1/2SM R09R/P6000FT -RA BR VV002 17/16 A3006 RMK AO2 SFC VIS 3/4 DZE19RAB19 SLP173 P0000 60004 T01720161 10183 20167 58015 $=
201912290452 METAR KATL 290452Z 12006KT 1/2SM R09R/P6000FT -DZ BR OVC002 17/16 A3009 RMK AO2 SFC VIS 1 1/4 SLP184 CIG 001V003 TWRINC P0001 T01670161 402000133 $=
201912290449 SPECI KATL 290449Z 12005KT 1/2SM R09R/P6000FT -DZ BR OVC002 17/16 A3009 RMK AO2 SFC VIS 1 1/4 CIG 001V003 TWRINC P0001 $=
201912290352 METAR KATL 290352Z 12005KT 1SM R09R/P6000FT -DZ BR OVC002 17/16 A3010 RMK AO2 SFC VIS 1 1/2 SLP190 CIG 001V003 P0000 T01670156 $=
201912290252 METAR KATL 290252Z 11007KT 1SM R09R/P6000FT -DZ BR OVC003 17/16 A3009 RMK AO2 SFC VIS 2 RAE16DZB16 SLP187 CIG 002V004 P0001 60003 T01670156 58006 $=
201912290152 METAR KATL 290152Z 10007KT 1 1/4SM -RA BR OVC004 17/16 A3011 RMK AO2 SFC VIS 2 RAE10B30DZB10E30 SLP192 CIG 003V005 P0002 T01670156 $=
201912290126 SPECI KATL 290126Z 10008KT 1 1/4SM -DZ BR OVC004 17/15 A3010 RMK AO2 SFC VIS 2 RAE10DZB10 CIG 003V006 P0000 T01670150 $=
201912290110 SPECI KATL 290110Z 10006KT 2SM -DZ BR OVC004 17/16 A3011 RMK AO2 RAE10DZB10 CIG 003V006 P0000 T01670156 $=
201912290052 METAR KATL 290052Z 10007KT 3SM -RA BR OVC005 17/15 A3011 RMK AO2 DZE50RAB50 SLP195 CIG 004V007 P0000 T01670150 $=
201912290048 SPECI KATL 290048Z 10008KT 3SM -DZ BR OVC006 17/15 A3011 RMK AO2 CIG 005V008 P0000 $=
201912290013 SPECI KATL 290013Z 11007KT 6SM -DZ BKN008 BKN013 OVC022 18/15 A3011 RMK AO2 CIG 007V010 P0000 T01830150 $=
201912282352 METAR KATL 282352Z 12008KT 6SM -DZ BR FEW009 BKN014 OVC020 17/15 A3011 RMK AO2 RAE51DZB51 SLP193 P0000 60001 T01720150 10200 20172 50001 $=
201912282343 SPECI KATL 282343Z 12008KT 8SM -RA OVC014 18/14 A3011 RMK AO2 P0000 T01780144 $=
201912282308 SPECI KATL 282308Z 11008KT 8SM -RA BKN020 OVC032 18/14 A3011 RMK AO2 P0000 T01830144 $=
201912282252 METAR KATL 282252Z 11007KT 7SM -RA SCT020 OVC034 18/14 A3011 RMK AO2 SLP193 P0001 T01830144 $=
201912282240 SPECI KATL 282240Z 11007KT 10SM -RA SCT024 OVC036 18/14 A3011 RMK AO2 P0001 T01830144 $=
201912282152 METAR KATL 282152Z 11011KT 10SM -RA BKN025 BKN050 BKN180 OVC250 19/13 A3011 RMK AO2 SLP194 RAB45 P0000 T01940133 $=
201912282150 SPECI KATL 282150Z 11011KT 10SM -RA BKN025 BKN050 BKN180 OVC250 19/14 A3011 RMK AO2 RAB45 P0000 $=
201912282052 METAR KATL 282052Z 13007KT 10SM FEW020 SCT032 BKN040 BKN180 OVC250 19/13 A3011 RMK AO2 SLP192 RAB15E32 BINOVC P0000 60000 T01940133 56017 $=
201912281952 METAR KATL 281952Z 13010KT 10SM FEW028 BKN040 BKN070 BKN250 20/13 A3011 RMK AO2 SLP192 T02000133 $=
201912281852 METAR KATL 281852Z 12007KT 10SM SCT021 SCT028 BKN042 19/13 A3013 RMK AO2 SLP198 T01940133 $=
201912281752 METAR KATL 281752Z 09008KT 10SM SCT014 BKN050 BKN180 BKN250 19/14 A3016 RMK AO2 SLP208 T01890139 10189 20139 56022 $=
201912281746 SPECI KATL 281746Z 11008KT 10SM SCT014 BKN050 BKN180 BKN250 19/14 A3016 RMK AO2 $=
201912281717 SPECI KATL 281717Z 09009KT 10SM BKN012 BKN055 18/14 A3019 RMK AO2 T01780139 $=
201912281652 METAR KATL 281652Z 10009KT 10SM BKN009 BKN012 BKN050 17/14 A3020 RMK AO2 SLP223 T01720139 $=
201912281552 METAR KATL 281552Z 10008KT 6SM BR OVC006 16/13 A3023 RMK AO2 SLP234 CIG 005V007 T01560133 $=
201912281548 SPECI KATL 281548Z 11007KT 6SM BR OVC006 16/13 A3023 RMK AO2 CIG 005V007 $=
201912281534 SPECI KATL 281534Z 12009KT 2SM BR OVC005 15/13 A3022 RMK AO2 SFC VIS 5 CIG 004V006 T01500133 $=
201912281525 SPECI KATL 281525Z 11010KT 2SM BR OVC004 16/13 A3022 RMK AO2 SFC VIS 5 T01560133 $=
201912281452 METAR KATL 281452Z 11006KT 1/2SM R09R/P6000FT BR OVC002 14/13 A3023 RMK AO2 SFC VIS 2 1/2 SLP234 TWRINC T01440133 53007 $=
201912281352 METAR KATL 281352Z 09009KT 1/2SM R09R/5000VP6000FT BR OVC002 14/13 A3022 RMK AO2 SFC VIS 1 SLP230 TWRINC T01390128 $=
201912281252 METAR KATL 281252Z 10007KT 1/2SM R09R/P6000FT BR OVC003 14/13 A3020 RMK AO2 SFC VIS 2 SLP226 T01390128 $=
201912281241 SPECI KATL 281241Z 09007KT 1/2SM R09R/P6000FT BR OVC003 14/13 A3021 RMK AO2 SFC VIS 2 T01390128 $=
201912281152 METAR KATL 281152Z 09007KT 1 1/2SM BR OVC004 14/12 A3021 RMK AO2 SFC VIS 5 SLP226 CIG 003V006 TWRINC T01390122 10150 20133 53002 $=
201912281117 SPECI KATL 281117Z 08007KT 1 1/2SM BKN005 OVC012 14/12 A3020 RMK AO2 SFC VIS 7 CIG 004V006 TWRINC T01390122 $=
201912281052 METAR KATL 281052Z 08007KT 1 1/2SM BR BKN004 OVC012 14/12 A3020 RMK AO2 SFC VIS 6 SLP225 TWRINC T01390122 $=
201912281032 SPECI KATL 281032Z 08007KT 1 1/2SM OVC004 14/12 A3020 RMK AO2 SFC VIS 7 TWRINC T01390122 $=
201912280957 SPECI KATL 280957Z 09007KT 8SM BKN004 OVC015 14/12 A3020 RMK AO2 T01390122 $=
201912280952 METAR KATL 280952Z 09008KT 10SM SCT004 OVC016 14/12 A3021 RMK AO2 SLP225 T01390122 $=
201912280909 SPECI KATL 280909Z 08005KT 10SM FEW005 BKN019 BKN035 BKN150 14/12 A3020 RMK AO2 T01390122 $=
201912280852 METAR KATL 280852Z 07006KT 10SM FEW005 SCT038 BKN150 BKN200 14/12 A3020 RMK AO2 SLP224 T01390117 53002 $=
201912280752 METAR KATL 280752Z 04006KT 10SM FEW005 BKN033 BKN150 BKN250 14/12 A3019 RMK AO2 SLP222 T01390122 $=
201912280740 SPECI KATL 280740Z 07006KT 10SM SCT005 OVC150 14/12 A3020 RMK AO2 SCT005 V BKN T01390122 $=
201912280730 SPECI KATL 280730Z 08006KT 10SM BKN005 OVC150 14/12 A3020 RMK AO2 BKN005 V SCT T01390122 $=
201912280720 SPECI KATL 280720Z 07005KT 10SM SCT005 OVC150 14/12 A3019 RMK AO2 SCT005 V BKN T01390122 $=
201912280652 METAR KATL 280652Z 07007KT 10SM OVC007 14/12 A3019 RMK AO2 SLP221 T01440122 $=
201912280625 SPECI KATL 280625Z 07005KT 10SM BKN007 14/12 A3019 RMK AO2 T01390117 $=
201912280613 SPECI KATL 280613Z 09006KT 10SM FEW007 BKN150 BKN250 14/12 A3019 RMK AO2 T01390117 $=
201912280552 METAR KATL 280552Z 10006KT 10SM BKN150 BKN250 15/12 A3019 RMK AO2 SLP222 T01500122 10183 20150 56010 $=
201912280452 METAR KATL 280452Z 11006KT 10SM FEW060 BKN150 BKN250 16/12 A3020 RMK AO2 SLP225 T01560122 401830111 $=
201912280352 METAR KATL 280352Z 09006KT 10SM SCT060 BKN150 BKN250 16/12 A3021 RMK AO2 SLP228 T01560117 $=
201912280252 METAR KATL 280252Z 07008KT 10SM BKN060 BKN200 17/12 A3022 RMK AO2 SLP233 T01670117 50000 $=
201912280152 METAR KATL 280152Z 07007KT 10SM OVC055 17/12 A3023 RMK AO2 SLP235 T01720122 $=
201912280052 METAR KATL 280052Z VRB06KT 10SM BKN050 BKN200 17/12 A3022 RMK AO2 SLP233 T01720117 $=
201912272352 METAR KATL 272352Z 03007KT 10SM FEW025 BKN045 OVC060 18/11 A3022 RMK AO2 SLP233 T01780111 10178 20161 53005 $=
201912272252 METAR KATL 272252Z 06004KT 10SM SCT025 BKN050 OVC200 17/11 A3021 RMK AO2 SLP229 T01720111 $=
201912272152 METAR KATL 272152Z 05005KT 10SM FEW025 BKN055 BKN070 BKN250 18/11 A3022 RMK AO2 SLP230 VIRGA NW SHRA W T01780111 $=
201912272052 METAR KATL 272052Z 06006KT 10SM FEW015 BKN050 OVC070 18/11 A3021 RMK AO2 SLP227 SHRA SW-W T01780106 55004 $=
201912272047 SPECI KATL 272047Z 07006KT 10SM SCT015 BKN050 OVC060 18/11 A3021 RMK AO2=
201912271952 METAR KATL 271952Z 04005KT 10SM BKN016 BKN035 BKN045 OVC250 17/11 A3021 RMK AO2 SLP229 SHRA N & SW-NW BINOVC T01670106=
201912271923 SPECI KATL 271923Z 06006KT 10SM BKN016 BKN028 OVC033 17/11 A3021 RMK AO2 SHRA N & SW-W T01670106=
201912271852 METAR KATL 271852Z 06006KT 9SM SCT030 BKN040 OVC045 17/09 A3022 RMK AO2 SLP232 VIRGA N & S-NW T01670094=
201912271752 METAR KATL 271752Z 11005KT 10SM FEW028 BKN045 OVC060 16/09 A3024 RMK AO2 SLP239 VIRGA E & S-SW T01610089 10167 20117 58019=
201912271652 METAR KATL 271652Z 08004KT 10SM SCT028 BKN045 BKN060 BKN250 16/08 A3028 RMK AO2 SLP253 SHRA S-SW T01560078=
201912271552 METAR KATL 271552Z 09007KT 10SM FEW028 BKN048 BKN060 OVC250 15/08 A3030 RMK AO2 SLP261 BINOVC T01500078=
201912271452 METAR KATL 271452Z 09009KT 10SM FEW026 BKN055 13/07 A3030 RMK AO2 SLP259 T01330072 51016=
201912271352 METAR KATL 271352Z 08007KT 10SM FEW032 OVC060 13/07 A3028 RMK AO2 SLP253 BINOVC T01280067=
201912271252 METAR KATL 271252Z 06006KT 10SM FEW038 OVC060 13/06 A3027 RMK AO2 SLP250 BINOVC T01280061 $=
201912271152 METAR KATL 271152Z 07005KT 10SM BKN060 BKN200 OVC250 12/06 A3025 RMK AO2 SLP243 T01220061 10128 20111 51006=
201912271052 METAR KATL 271052Z 08003KT 10SM OVC060 12/07 A3025 RMK AO2 SLP240 BINOVC T01220067=
201912270952 METAR KATL 270952Z 05006KT 10SM OVC055 12/06 A3024 RMK AO2 SLP238 BINOVC T01220061=
201912270852 METAR KATL 270852Z 07006KT 10SM OVC055 12/07 A3023 RMK AO2 SLP236 BINOVC T01220067 58004=
201912270752 METAR KATL 270752Z 07005KT 10SM OVC055 12/07 A3024 RMK AO2 SLP238 BINOVC T01220067=
201912270652 METAR KATL 270652Z 08006KT 10SM OVC050 12/07 A3024 RMK AO2 SLP239 BINOVC T01220067=
201912270552 METAR KATL 270552Z 00000KT 10SM BKN055 BKN250 12/07 A3024 RMK AO2 SLP240 T01220067 10156 20117 58001=
201912270452 METAR KATL 270452Z 09005KT 10SM BKN050 BKN250 12/07 A3025 RMK AO2 SLP241 T01220072 401890056=
201912270352 METAR KATL 270352Z 09005KT 10SM FEW050 SCT200 BKN250 13/07 A3026 RMK AO2 SLP245 T01280072=
201912270252 METAR KATL 270252Z 10005KT 10SM SCT200 BKN250 13/08 A3025 RMK AO2 SLP242 T01330078 51012=
201912270152 METAR KATL 270152Z 10005KT 10SM SCT200 BKN250 13/08 A3024 RMK AO2 SLP240 T01330078=
201912270052 METAR KATL 270052Z 10003KT 10SM SCT200 BKN250 15/08 A3022 RMK AO2 SLP236 T01500078=
201912262352 METAR KATL 262352Z 09006KT 10SM FEW200 BKN250 14/08 A3021 RMK AO2 SLP231 T01440078 10189 20144 51012=
201912262252 METAR KATL 262252Z 10004KT 10SM FEW200 BKN250 16/08 A3020 RMK AO2 SLP228 T01610078=
201912262152 METAR KATL 262152Z 10003KT 10SM SCT200 BKN250 17/08 A3019 RMK AO2 SLP223 T01720083=
201912262052 METAR KATL 262052Z 11004KT 10SM FEW200 BKN250 18/08 A3017 RMK AO2 SLP217 T01780078 55007=
201912261952 METAR KATL 261952Z 00000KT 10SM FEW200 BKN250 18/07 A3017 RMK AO2 SLP215 T01780072=
201912261852 METAR KATL 261852Z 12003KT 10SM FEW200 BKN250 18/06 A3017 RMK AO2 SLP217 T01780061=
201912261752 METAR KATL 261752Z 12004KT 10SM FEW200 BKN250 17/04 A3020 RMK AO2 SLP225 T01670044 10167 20056 58016=
201912261652 METAR KATL 261652Z 14003KT 10SM BKN250 15/05 A3023 RMK AO2 SLP238 T01500050=
201912261552 METAR KATL 261552Z VRB04KT 10SM BKN250 13/04 A3025 RMK AO2 SLP243 T01330044=
201912261452 METAR KATL 261452Z 09005KT 10SM FEW200 BKN250 11/04 A3024 RMK AO2 SLP243 T01060039 53014=
201912261352 METAR KATL 261352Z 04006KT 10SM FEW200 BKN250 10/03 A3023 RMK AO2 SLP237 T01000033=
201912261252 METAR KATL 261252Z 11003KT 10SM FEW140 SCT200 BKN250 06/03 A3020 RMK AO2 SLP230 T00560028=
201912261152 METAR KATL 261152Z 11005KT 10SM BKN200 BKN250 07/03 A3020 RMK AO2 SLP228 T00670028 10094 20061 53012=
201912261052 METAR KATL 261052Z 00000KT 10SM SCT200 BKN250 06/02 A3018 RMK AO2 SLP222 T00610022=
201912260952 METAR KATL 260952Z 00000KT 10SM BKN200 BKN250 08/03 A3018 RMK AO2 SLP219 T00780028=
201912260852 METAR KATL 260852Z 12003KT 10SM BKN200 BKN250 08/03 A3017 RMK AO2 SLP214 T00780033 52005=
201912260752 METAR KATL 260752Z 00000KT 10SM SCT200 BKN250 07/03 A3016 RMK AO2 SLP214 T00720028=
201912260652 METAR KATL 260652Z 00000KT 10SM SCT200 BKN250 08/03 A3015 RMK AO2 SLP211 T00780033=
201912260552 METAR KATL 260552Z 00000KT 10SM BKN250 09/03 A3015 RMK AO2 SLP210 T00890033 10139 20089 58000=
201912260452 METAR KATL 260452Z 10003KT 10SM BKN250 11/03 A3016 RMK AO2 SLP212 T01060033 401830083=
201912260352 METAR KATL 260352Z 06006KT 10SM BKN250 11/03 A3016 RMK AO2 SLP211 T01060033=
201912260252 METAR KATL 260252Z 07005KT 10SM BKN250 11/04 A3015 RMK AO2 SLP211 T01060039 51010=
201912260152 METAR KATL 260152Z 04006KT 10SM BKN250 13/03 A3015 RMK AO2 SLP209 T01280033=
201912260052 METAR KATL 260052Z 08004KT 10SM BKN250 13/04 A3013 RMK AO2 SLP205 T01330039=
201912252352 METAR KATL 252352Z 10003KT 10SM BKN250 14/04 A3012 RMK AO2 SLP200 T01390039 10183 20139 53001=
201912252252 METAR KATL 252252Z 00000KT 10SM BKN250 15/04 A3011 RMK AO2 SLP198 T01500039=
201912252152 METAR KATL 252152Z 15006KT 10SM BKN250 17/04 A3012 RMK AO2 SLP197 T01670039=
201912252052 METAR KATL 252052Z 13004KT 10SM BKN250 18/03 A3012 RMK AO2 SLP196 T01830033 55007=
201912251952 METAR KATL 251952Z 11008KT 10SM BKN250 18/03 A3010 RMK AO2 SLP191 T01780028=
201912251852 METAR KATL 251852Z 08007KT 10SM BKN250 18/03 A3012 RMK AO2 SLP196 T01780033=
201912251752 METAR KATL 251752Z VRB04KT 10SM BKN250 17/03 A3014 RMK AO2 SLP204 T01670028 10167 20089 58007=
201912251652 METAR KATL 251652Z 10008KT 10SM FEW250 15/04 A3017 RMK AO2 SLP215 T01500039=
201912251552 METAR KATL 251552Z 10008KT 10SM FEW250 14/04 A3019 RMK AO2 SLP221 T01390039=
201912251452 METAR KATL 251452Z 09010KT 10SM FEW250 11/05 A3016 RMK AO2 SLP212 T01110050 51014=
201912251352 METAR KATL 251352Z 08009KT 10SM CLR 10/05 A3016 RMK AO2 SLP211 T01000050=
201912251252 METAR KATL 251252Z 06008KT 10SM FEW250 09/06 A3013 RMK AO2 SLP203 T00890056=
201912251152 METAR KATL 251152Z 06008KT 10SM FEW250 09/06 A3012 RMK AO2 SLP198 T00890061 10122 20083 53013=
201912251052 METAR KATL 251052Z 07006KT 10SM FEW250 08/06 A3010 RMK AO2 SLP191 T00830061=
201912250952 METAR KATL 250952Z 07005KT 10SM FEW250 09/07 A3009 RMK AO2 SLP187 T00940067=
201912250852 METAR KATL 250852Z 08006KT 10SM SCT250 10/07 A3008 RMK AO2 SLP184 T01000072 53005=
201912250752 METAR KATL 250752Z 08004KT 10SM FEW200 SCT250 11/08 A3008 RMK AO2 SLP182 T01110078=
201912250652 METAR KATL 250652Z 07007KT 10SM FEW200 BKN250 12/08 A3007 RMK AO2 SLP178 T01170078=
201912250552 METAR KATL 250552Z 08005KT 10SM FEW200 BKN250 12/08 A3007 RMK AO2 SLP178 T01170078 10183 20111 50002=
201912250452 METAR KATL 250452Z 08005KT 10SM SCT200 BKN250 12/08 A3007 RMK AO2 SLP180 T01220083 402170122=
201912250352 METAR KATL 250352Z 09004KT 10SM FEW200 BKN250 13/08 A3007 RMK AO2 SLP180 T01280083=
201912250252 METAR KATL 250252Z 03003KT 10SM BKN250 15/08 A3006 RMK AO2 SLP177 T01500083 53015=
201912250152 METAR KATL 250152Z 01004KT 10SM BKN250 16/08 A3005 RMK AO2 SLP172 T01610083=
201912250052 METAR KATL 250052Z 05007KT 10SM BKN250 17/09 A3002 RMK AO2 SLP165 T01670089=
201912242352 METAR KATL 242352Z 05008KT 10SM SCT250 18/09 A3001 RMK AO2 SLP160 T01830094 10217 20183 53005=
201912242252 METAR KATL 242252Z 06006KT 10SM SCT250 19/10 A3001 RMK AO2 SLP158 T01940100=
201912242152 METAR KATL 242152Z 03008KT 10SM FEW250 21/11 A3000 RMK AO2 SLP155 T02060106=
201912242052 METAR KATL 242052Z 05008KT 10SM SCT250 21/11 A3000 RMK AO2 SLP154 T02110106 55003=
201912241952 METAR KATL 241952Z 05007KT 10SM FEW040 SCT250 21/11 A2999 RMK AO2 SLP152 T02110111=
201912241852 METAR KATL 241852Z 03007KT 10SM FEW035 SCT250 21/12 A3000 RMK AO2 SLP153 T02060117=
201912241752 METAR KATL 241752Z 07005KT 10SM FEW033 FEW250 20/12 A3001 RMK AO2 SLP157 T02000117 10200 20133 58007=
201912241652 METAR KATL 241652Z 06008KT 10SM FEW026 FEW250 18/12 A3003 RMK AO2 SLP165 T01830117=
201912241552 METAR KATL 241552Z 04011KT 10SM FEW022 18/12 A3003 RMK AO2 SLP167 T01780117=
201912241452 METAR KATL 241452Z 02011KT 10SM FEW023 FEW250 16/11 A3003 RMK AO2 SLP166 T01560111 51022=
201912241443 SPECI KATL 241443Z 04010KT 10SM FEW023 SCT250 16/11 A3003 RMK AO2 T01560111=
201912241352 METAR KATL 241352Z 04009KT 10SM BKN024 14/11 A3001 RMK AO2 SLP162 T01440111=
201912241252 METAR KATL 241252Z 03008KT 10SM BKN020 14/11 A2998 RMK AO2 SLP152 T01390106=
201912241207 SPECI KATL 241207Z 02007KT 10SM SCT014 BKN024 13/11 A2997 RMK AO2 T01330106=
201912241152 METAR KATL 241152Z 05008KT 10SM BKN014 14/11 A2996 RMK AO2 SLP144 BKN014 V SCT 70016 T01390106 10144 20139 53005=
201912241111 SPECI KATL 241111Z 04011KT 10SM BKN014 14/11 A2996 RMK AO2 T01390111=
201912241052 METAR KATL 241052Z 02009KT 10SM BKN015 14/11 A2996 RMK AO2 SLP144 BKN015 V SCT T01390111=
201912241041 SPECI KATL 241041Z 03010KT 10SM BKN016 14/11 A2995 RMK AO2 BKN016 V SCT T01390111=
201912241020 SPECI KATL 241020Z 03010KT 10SM SCT025 14/11 A2994 RMK AO2 T01390111=
201912240952 METAR KATL 240952Z 04010KT 10SM FEW013 OVC024 14/11 A2994 RMK AO2 SLP136 BINOVC T01390111=
201912240852 METAR KATL 240852Z 04013KT 10SM SCT013 OVC023 14/12 A2994 RMK AO2 SLP138 SCT013 V BKN BINOVC T01390117 53004=
201912240840 SPECI KATL 240840Z 03010KT 10SM SCT013 OVC025 14/12 A2995 RMK AO2 SCT013 V BKN BINOVC T01390117=
201912240752 METAR KATL 240752Z 02013KT 10SM OVC012 14/12 A2994 RMK AO2 SLP136 BINOVC T01440117=
201912240652 METAR KATL 240652Z 03012KT 10SM OVC013 14/12 A2992 RMK AO2 SLP129 BINOVC T01390117=
201912240552 METAR KATL 240552Z 03014KT 10SM OVC013 14/12 A2993 RMK AO2 SLP134 BINOVC 60008 T01390117 10139 20128 56000=
201912240452 METAR KATL 240452Z 03013KT 10SM BKN015 BKN055 BKN200 14/11 A2993 RMK AO2 SLP136 T01390111 401390078=
201912240435 SPECI KATL 240435Z 03015KT 10SM BKN013 BKN055 OVC200 14/11 A2993 RMK AO2 T01390111=
201912240352 METAR KATL 240352Z 04013KT 10SM SCT014 BKN055 OVC200 14/11 A2992 RMK AO2 RAE17 SLP133 P0000 T01390111=
201912240252 METAR KATL 240252Z 03011KT 9SM -RA FEW008 BKN017 OVC070 14/12 A2993 RMK AO2 SLP135 P0001 60008 T01390117 51013=
201912240238 SPECI KATL 240238Z 03011KT 9SM -RA FEW008 BKN017 OVC070 14/12 A2994 RMK AO2 P0001 T01390117=
201912240152 METAR KATL 240152Z 04011KT 3SM -RA BR SCT007 BKN012 OVC025 13/12 A2993 RMK AO2 SLP135 P0003 T01330117=
201912240139 SPECI KATL 240139Z 04012KT 2 1/2SM -RA BR BKN008 BKN014 OVC025 13/12 A2993 RMK AO2 P0002 T01330117=
201912240052 METAR KATL 240052Z 03011KT 4SM -RA BR BKN007 OVC015 13/11 A2991 RMK AO2 SLP128 P0004 T01330111=
201912232352 METAR KATL 232352Z 02010KT 2SM -RA BR BKN007 OVC015 13/11 A2989 RMK AO2 SLP123 P0003 60006 T01280111 10128 20117 53014=
201912232338 SPECI KATL 232338Z 02010KT 2SM RA BR BKN006 OVC015 13/11 A2989 RMK AO2 P0001 T01280111=
201912232252 METAR KATL 232252Z 03010KT 3SM -RA BR BKN008 BKN014 OVC025 12/11 A2988 RMK AO2 SFC VIS 5 DZE22RAB22 SLP117 P0001 T01220106=
201912232159 SPECI KATL 232159Z 04014KT 3SM -DZ BR BKN008 OVC012 12/11 A2987 RMK AO2 P0000 T01220106=
201912232152 METAR KATL 232152Z 04011KT 2 1/2SM -DZ BR BKN008 OVC011 12/11 A2987 RMK AO2 TWR VIS 3 SLP113 P0000 T01220106=
201912232141 SPECI KATL 232141Z 04011KT 2 1/2SM -DZ BR OVC008 12/11 A2986 RMK AO2 TWR VIS 3 P0000 T01220106=
201912232112 SPECI KATL 232112Z 05011KT 3SM -DZ BR OVC008 12/11 A2985 RMK AO2 SFC VIS 4 P0000 T01220106=
201912232052 METAR KATL 232052Z 05010KT 2SM -DZ BR BKN005 OVC010 12/10 A2985 RMK AO2 SLP108 P0002 60002 T01220100 55003=
201912232014 SPECI KATL 232014Z 04015KT 1 1/2SM -DZ BR OVC007 12/11 A2984 RMK AO2 TWR VIS 2 P0001 T01170106=
201912232013 SPECI KATL 232013Z 04013KT 1 1/2SM -DZ BR OVC007 12/11 A2984 RMK AO2 TWR VIS 2 P0001 T01170106=
201912231959 SPECI KATL 231959Z 04012KT 2SM -DZ BR OVC006 12/11 A2984 RMK AO2 P0000 T01170106=
201912231952 METAR KATL 231952Z 05013KT 1 1/2SM -DZ BR BKN006 OVC010 12/10 A2984 RMK AO2 TWR VIS 2 SLP106 P0000 T01170100=
201912231933 SPECI KATL 231933Z 06011KT 1 3/4SM -DZ BR OVC008 12/10 A2984 RMK AO2 TWR VIS 2 P0000 T01170100=
201912231927 SPECI KATL 231927Z 06012KT 2SM -DZ BR OVC008 12/10 A2984 RMK AO2 P0000 T01170100=
201912231913 SPECI KATL 231913Z 05012KT 2 1/2SM -DZ BR BKN008 OVC012 12/10 A2985 RMK AO2 TWR VIS 3 P0000 T01220100=
201912231859 SPECI KATL 231859Z 06013KT 3SM -DZ BR BKN008 OVC013 12/10 A2985 RMK AO2 P0000 T01220100=
201912231852 METAR KATL 231852Z 06014KT 2 1/2SM -DZ BR OVC008 12/10 A2985 RMK AO2 TWR VIS 3 SLP108 P0000 T01220100=
201912231808 SPECI KATL 231808Z 06015G20KT 2SM -DZ BR OVC007 12/11 A2985 RMK AO2 TWR VIS 3 P0000 T01220106=
201912231802 SPECI KATL 231802Z 07015KT 2SM -DZ BR OVC010 12/10 A2986 RMK AO2 TWR VIS 3 P0000 T01220100=
201912231752 METAR KATL 231752Z 07016G26KT 5SM -DZ BR BKN010 BKN020 OVC030 12/10 A2986 RMK AO2 PK WND 06026/1749 DZE12B41 SLP113 P0000 60002 T01220100 10122 20100 58018=
201912231733 SPECI KATL 231733Z 06016KT 8SM BKN010 BKN020 OVC030 12/10 A2986 RMK AO2 DZE12 P0000 T01220100=
201912231652 METAR KATL 231652Z 07018KT 6SM -DZ BR BKN008 BKN012 OVC020 12/10 A2989 RMK AO2 SLP123 P0000 T01170100=
201912231615 SPECI KATL 231615Z 07020KT 3SM -DZ BR BKN008 BKN010 OVC030 12/10 A2991 RMK AO2 SFC VIS 4 P0000 T01170100=
201912231601 SPECI KATL 231601Z 06020KT 2 1/2SM -DZ BR BKN008 BKN012 OVC030 12/09 A2991 RMK AO2 TWR VIS 3 P0000 T01170094=
201912231552 METAR KATL 231552Z 07019G24KT 3SM -DZ BR BKN008 BKN012 OVC020 12/10 A2991 RMK AO2 PK WND 07026/1504 RAE39DZB44 SLP131 P0000 T01170100=
201912231550 SPECI KATL 231550Z 07020G24KT 3SM -DZ BR BKN008 BKN012 OVC020 12/10 A2991 RMK AO2 PK WND 07026/1504 RAE39DZB44 P0000=
201912231537 SPECI KATL 231537Z 07017G25KT 3SM -RA BR BKN010 BKN020 OVC030 11/09 A2991 RMK AO2 PK WND 07026/1504 P0000 T01110094=
201912231529 SPECI KATL 231529Z 06017G25KT 2 1/2SM -RA BR BKN010 BKN020 OVC030 11/09 A2991 RMK AO2 PK WND 07026/1504 TWR VIS 3 P0000 T01110094=
201912231452 METAR KATL 231452Z 07020G24KT 3SM -RA BR BKN009 BKN013 OVC020 11/09 A2991 RMK AO2 PK WND 07026/1412 SFC VIS 4 SLP131 CIG 007V011 P0001 60002 T01110094 52006=
201912231352 METAR KATL 231352Z 06015G23KT 2SM -RA BKN009 OVC013 12/09 A2991 RMK AO2 PK WND 08027/1321 TWR VIS 3 DZE46RAB46 SLP129 CIG 007V011 P0000 T01170089=
201912231348 SPECI KATL 231348Z 07017G23KT 2SM -RA BR OVC009 11/09 A2991 RMK AO2 PK WND 08027/1321 TWR VIS 3 DZE46RAB46 P0000=
201912231252 METAR KATL 231252Z 07017G29KT 3SM -DZ BR BKN009 OVC014 11/08 A2990 RMK AO2 PK WND 07030/1242 SFC VIS 4 RAE52DZB52 SLP127 CIG 007V011 P0001 T01060083=
201912231152 METAR KATL 231152Z 06016G25KT 3SM -RA BR BKN009 OVC014 10/08 A2990 RMK AO2 PK WND 07027/1058 SFC VIS 4 RAE1053B20 SLP126 CIG 007V011 P0001 60009 70159 T01000083 10100 20078 53003=
201912231052 METAR KATL 231052Z 07017KT 3SM -RA BR BKN007 OVC012 10/08 A2988 RMK AO2 PK WND 08029/1035 SFC VIS 4 SLP122 CIG 006V010 P0000 T01000078=
201912230952 METAR KATL 230952Z 07019G25KT 3SM -RA BR BKN007 OVC012 09/08 A2988 RMK AO2 PK WND 06029/0928 SLP120 CIG 006V009 P0001 T00940078=
201912230852 METAR KATL 230852Z 07018KT 3SM -RA BR BKN008 OVC011 09/07 A2989 RMK AO2 PK WND 06026/0803 SFC VIS 4 SLP124 P0003 60007 T00890072 56019=
201912230752 METAR KATL 230752Z 07019G25KT 3SM -RA BR OVC006 08/07 A2990 RMK AO2 PK WND 07027/0655 SLP129 CIG 005V008 P0002 T00830067=
201912230652 METAR KATL 230652Z 08020G32KT 3SM -RA BR BKN006 OVC015 08/06 A2992 RMK AO2 PK WND 08032/0649 SLP134 CIG 005V008 P0002 T00830061=
201912230552 METAR KATL 230552Z 07019KT 3SM -RA BR BKN007 OVC013 08/06 A2994 RMK AO2 PK WND 06028/0509 SFC VIS 4 SLP143 CIG 006V009 P0005 60060 T00780061 10078 20061 58021=
201912230452 METAR KATL 230452Z 07017KT 3SM RA BR BKN007 OVC014 08/06 A2998 RMK AO2 PK WND 08026/0409 SLP156 CIG 005V009 P0011 T00780056 400830056=
201912230352 METAR KATL 230352Z 07016KT 3SM -RA BR BKN007 BKN011 OVC018 07/06 A3000 RMK AO2 PK WND 07027/0301 SFC VIS 4 SLP162 CIG 005V009 P0013 T00720056=
201912230252 METAR KATL 230252Z 07018G23KT 2SM RA BR BKN007 OVC012 07/06 A3001 RMK AO2 PK WND 08026/0222 SFC VIS 3 SLP165 CIG 005V009 P0011 60031 T00720056 56015=
201912230152 METAR KATL 230152Z 07017G28KT 2SM -RA BR OVC007 07/04 A3002 RMK AO2 PK WND 07028/0143 SFC VIS 4 SLP169 CIG 005V009 P0010 T00670044=
201912230052 METAR KATL 230052Z 07019G27KT 2SM RA BR BKN007 OVC014 06/04 A3004 RMK AO2 PK WND 05029/0027 SFC VIS 2 1/2 SLP177 CIG 005V009 P0010 T00610044=
201912222352 METAR KATL 222352Z 07019G28KT 2SM -RA BKN008 BKN013 OVC020 06/03 A3005 RMK AO2 PK WND 08034/2255 SFC VIS 5 SLP181 CIG 007V010 P0003 60039 T00610033 10072 20056 56007=
201912222252 METAR KATL 222252Z 08023G29KT 2SM -RA BR BKN007 BKN012 OVC022 06/04 A3005 RMK AO2 PK WND 08032/2239 SFC VIS 3 SLP181 CIG 005V009 P0009 T00560039=
201912222152 METAR KATL 222152Z 07021G28KT 2SM RA BR OVC007 07/04 A3007 RMK AO2 PK WND 08029/2137 SFC VIS 2 1/2 SLP186 P0011 T00670044=
201912222106 SPECI KATL 222106Z 07019KT 2SM RA BR OVC008 07/05 A3007 RMK AO2 PK WND 07026/2055 SFC VIS 3 P0001 T00720050=
201912222052 METAR KATL 222052Z 08022G28KT 5SM -RA BR OVC009 07/05 A3007 RMK AO2 PK WND 07034/2022 SLP188 P0004 60016 T00670050 56033=
201912221952 METAR KATL 221952Z 08021KT 6SM -RA BR OVC007 07/05 A3009 RMK AO2 PK WND 07030/1902 SLP195 P0003 T00670050=
201912221852 METAR KATL 221852Z 08019G29KT 6SM -RA BR OVC008 07/05 A3012 RMK AO2 PK WND 08029/1848 SLP205 P0009 T00670050=
201912221752 METAR KATL 221752Z 07020G26KT 4SM RA BR OVC006 07/04 A3017 RMK AO2 PK WND 06028/1727 SLP221 P0010 60051 T00670044 10067 20056 58038=
201912221652 METAR KATL 221652Z 07016KT 4SM RA BR BKN007 OVC048 06/04 A3022 RMK AO2 SLP237 P0009 T00610044=
201912221552 METAR KATL 221552Z 08014KT 4SM -RA BR OVC006 06/04 A3026 RMK AO2 SLP251 P0009 T00610039=
201912221532 SPECI KATL 221532Z 07014G24KT 4SM -RA BR OVC008 06/04 A3026 RMK AO2 P0007 T00560039=
201912221500 SPECI KATL 221500Z 07013KT 3SM RA BR FEW008 BKN013 OVC026 06/03 A3029 RMK AO2 P0001 T00560033=
201912221452 METAR KATL 221452Z 08013KT 2 1/2SM RA BR FEW008 OVC013 06/03 A3029 RMK AO2 SLP260 P0009 60023 T00560033 53002=
201912221450 SPECI KATL 221450Z 07015KT 2 1/2SM RA BR FEW008 OVC013 06/04 A3029 RMK AO2 P0008=
201912221443 SPECI KATL 221443Z 07012KT 2 1/2SM RA BR FEW008 OVC015 06/03 A3029 RMK AO2 P0007 T00560033=
201912221424 SPECI KATL 221424Z 08010KT 5SM -RA BR BKN015 OVC034 06/03 A3029 RMK AO2 P0003 T00560033=
201912221352 METAR KATL 221352Z 07014KT 4SM -RA SCT017 BKN040 OVC065 06/03 A3028 RMK AO2 SLP257 SCT017 V BKN P0008 T00560028=
201912221252 METAR KATL 221252Z 07012KT 5SM -RA BKN015 BKN032 OVC050 06/03 A3028 RMK AO2 SLP258 BKN015 V SCT P0006 T00560028=
201912221152 METAR KATL 221152Z 06012KT 7SM -RA SCT018 SCT029 OVC080 06/02 A3028 RMK AO2 SLP257 P0005 60017 70017 T00560022 10083 20056 56003=
201912221120 SPECI KATL 221120Z 06012KT 8SM -RA SCT017 BKN050 OVC080 06/02 A3028 RMK AO2 P0003 T00560022=
201912221052 METAR KATL 221052Z 06010KT 7SM -RA BKN016 BKN022 OVC065 06/03 A3028 RMK AO2 SLP258 P0006 T00610028=
201912220952 METAR KATL 220952Z 05008KT 8SM -RA OVC015 06/03 A3028 RMK AO2 SLP257 P0001 T00610028=
201912220852 METAR KATL 220852Z 05012KT 9SM -RA BKN014 BKN019 OVC048 06/02 A3029 RMK AO2 SLP260 P0003 60005 T00610022 58014=
201912220752 METAR KATL 220752Z 06009KT 7SM -RA OVC013 07/02 A3031 RMK AO2 SLP266 P0002 T00670022=
201912220652 METAR KATL 220652Z 07010KT 10SM -RA BKN012 OVC047 08/01 A3033 RMK AO2 SLP273 P0000 T00780006=
201912220552 METAR KATL 220552Z 08009KT 10SM -RA BKN012 OVC055 08/M01 A3033 RMK AO2 RAE29B48 SLP273 PCPN VRY LGT P0000 60000 T00831011 10089 20083 58020=
201912220533 SPECI KATL 220533Z 08010KT 10SM BKN012 BKN055 OVC090 08/M01 A3033 RMK AO2 RAE29 VIRGA OHD-ALQDS P0000 T00831011=
201912220452 METAR KATL 220452Z 08010KT 10SM -RA SCT012 BKN070 OVC110 08/M02 A3035 RMK AO2 RAB50 SLP281 PCPN VRY LGT P0000 T00831017 401060067=
201912220352 METAR KATL 220352Z 09010KT 10SM FEW022 SCT045 OVC075 08/M01 A3037 RMK AO2 SLP289 VIRGA OHD-ALQDS T00831011=
201912220330 SPECI KATL 220330Z 09009KT 10SM SCT022 SCT040 OVC080 08/M01 A3039 RMK AO2 VIRGA OHD-ALQDS T00831006=
201912220302 SPECI KATL 220302Z 09009KT 10SM BKN020 BKN040 OVC070 08/M01 A3039 RMK AO2 VIRGA OHD-ALQDS T00831011=
201912220252 METAR KATL 220252Z 10007KT 10SM SCT020 SCT040 OVC070 08/M01 A3039 RMK AO2 SLP295 VIRGA OHD-ALQDS 60000 T00831006 55000=
201912220152 METAR KATL 220152Z 06013KT 10SM FEW026 SCT038 OVC070 09/M01 A3037 RMK AO2 RAE37 SLP289 VIRGA OHD-ALQDS P0000 T00891006=
201912220145 SPECI KATL 220145Z 06014KT 10SM SCT024 BKN034 OVC065 09/00 A3038 RMK AO2 RAE37 P0000 T00890000=
201912220055 SPECI KATL 220055Z 07009KT 10SM -RA BKN024 OVC031 08/01 A3039 RMK AO2 P0000 T00830011=
201912220052 METAR KATL 220052Z 08010KT 10SM -RA SCT024 BKN031 OVC048 08/01 A3039 RMK AO2 SLP296 PCPN VRY LGT P0000 T00830011=
201912212352 METAR KATL 212352Z 07011KT 10SM -RA FEW033 BKN042 OVC055 09/01 A3039 RMK AO2 RAE16B45 SLP295 PCPN VRY LGT P0000 60000 T00890006 10106 20089 51006=
201912212252 METAR KATL 212252Z 08011KT 10SM -RA BKN060 BKN080 OVC130 09/01 A3038 RMK AO2 RAB35 SLP290 P0000 T00890006=
201912212152 METAR KATL 212152Z 06009KT 10SM BKN070 BKN085 OVC180 10/00 A3039 RMK AO2 RAB07E13 SLP293 VIRGA W-N-NE P0000 T01000000=
201912212052 METAR KATL 212052Z 07010KT 10SM FEW060 OVC080 10/00 A3037 RMK AO2 SLP288 60000 T01000000 56017=
201912211952 METAR KATL 211952Z 08010KT 10SM OVC070 11/M01 A3038 RMK AO2 RAE06 SLP291 P0000 T01061006=
201912211852 METAR KATL 211852Z 07009KT 10SM -RA OVC070 11/M01 A3040 RMK AO2 RAB05E19B50 SLP299 P0000 T01061011=
201912211752 METAR KATL 211752Z 07010KT 10SM OVC060 11/M01 A3042 RMK AO2 SLP305 60000 T01061011 10106 20067 58020=
201912211652 METAR KATL 211652Z 07009KT 10SM FEW042 FEW065 OVC080 09/M01 A3046 RMK AO2 RAB1558E24 SLP317 P0000 T00891006=
201912211552 METAR KATL 211552Z 06008KT 10SM OVC055 08/M01 A3048 RMK AO2 RAB31E46 SLP325 P0000 T00831006=
201912211452 METAR KATL 211452Z 07010KT 10SM OVC065 08/M01 A3048 RMK AO2 RAE33 SLP327 P0000 60000 T00781006 53001=
201912211352 METAR KATL 211352Z 08009KT 10SM -RA SCT060 OVC075 07/M02 A3048 RMK AO2 RAB44 SLP324 P0000 T00721017=
201912211252 METAR KATL 211252Z 07007KT 10SM OVC050 08/M03 A3048 RMK AO2 SLP325 VIRGA SW-NW T00781033=
201912211152 METAR KATL 211152Z 07009KT 10SM BKN048 BKN060 OVC150 08/M03 A3048 RMK AO2 SLP325 T00781033 10078 20072 53008=
201912211052 METAR KATL 211052Z 09007KT 10SM SCT048 BKN060 OVC150 07/M03 A3046 RMK AO2 SLP320 T00721033=
201912210952 METAR KATL 210952Z 09008KT 10SM BKN048 OVC150 07/M03 A3046 RMK AO2 SLP316 T00721033=
201912210852 METAR KATL 210852Z 07009KT 10SM BKN046 OVC150 08/M03 A3046 RMK AO2 SLP315 T00781033 55003=
201912210752 METAR KATL 210752Z 09008KT 10SM FEW047 SCT085 BKN150 OVC250 07/M03 A3045 RMK AO2 SLP314 T00721028=
201912210652 METAR KATL 210652Z 08008KT 10SM FEW047 BKN180 OVC250 07/M03 A3046 RMK AO2 SLP319 T00721028=
201912210552 METAR KATL 210552Z 09008KT 10SM FEW050 OVC180 07/M03 A3046 RMK AO2 SLP319 T00721028 10100 20072 56007=
201912210452 METAR KATL 210452Z 08006KT 10SM BKN180 OVC250 07/M03 A3048 RMK AO2 SLP324 T00721033 401330011=
201912210352 METAR KATL 210352Z 10007KT 10SM BKN200 OVC250 08/M03 A3047 RMK AO2 SLP323 T00781033=
201912210252 METAR KATL 210252Z 09006KT 10SM BKN200 OVC250 08/M04 A3048 RMK AO2 SLP329 T00781039 53015=
201912210152 METAR KATL 210152Z 10007KT 10SM BKN200 OVC250 09/M06 A3047 RMK AO2 SLP322 T00941056=
201912210052 METAR KATL 210052Z 11006KT 10SM BKN200 OVC250 10/M06 A3045 RMK AO2 SLP316 T01001061=
201912202352 METAR KATL 202352Z 09007KT 10SM BKN200 OVC250 09/M05 A3044 RMK AO2 SLP313 T00941050 10133 20094 53007=
201912202252 METAR KATL 202252Z 10005KT 10SM SCT200 OVC250 10/M06 A3042 RMK AO2 SLP308 T01001061=
201912202152 METAR KATL 202152Z 10006KT 10SM FEW200 OVC250 12/M06 A3042 RMK AO2 SLP304 T01171061=
201912202052 METAR KATL 202052Z 09006KT 10SM FEW200 BKN250 13/M07 A3042 RMK AO2 SLP304 T01281072 56017=
201912201952 METAR KATL 201952Z 09004KT 10SM FEW200 BKN250 13/M08 A3042 RMK AO2 SLP306 T01281078=
201912201852 METAR KATL 201852Z 08006KT 10SM BKN250 13/M06 A3043 RMK AO2 SLP310 T01281056=
201912201752 METAR KATL 201752Z 10005KT 10SM BKN250 11/M06 A3047 RMK AO2 SLP321 T01111056 10117 20011 58013=
201912201652 METAR KATL 201652Z 08009KT 10SM BKN250 10/M04 A3048 RMK AO2 SLP325 T01001039=
201912201552 METAR KATL 201552Z 08008KT 10SM BKN250 08/M04 A3051 RMK AO2 SLP336 T00781039=
201912201452 METAR KATL 201452Z 09006KT 10SM BKN250 05/M04 A3050 RMK AO2 SLP335 T00501044 53009=
201912201352 METAR KATL 201352Z 08009KT 10SM SCT200 BKN250 03/M04 A3049 RMK AO2 SLP331 T00281044=
201912201252 METAR KATL 201252Z 08008KT 10SM SCT200 SCT250 02/M04 A3048 RMK AO2 SLP329 T00171044=
201912201152 METAR KATL 201152Z 07006KT 10SM FEW200 SCT250 01/M04 A3048 RMK AO2 SLP327 T00111044 10033 20011 51008=
201912201052 METAR KATL 201052Z 07006KT 10SM FEW250 01/M04 A3047 RMK AO2 SLP326 T00111044 $=
201912200952 METAR KATL 200952Z 09003KT 10SM FEW250 02/M04 A3046 RMK AO2 SLP320 T00221044 $=
201912200852 METAR KATL 200852Z 09005KT 10SM FEW012 FEW250 02/M04 A3045 RMK AO2 SLP318 FU FEW012 T00171039 50007 $=
201912200752 METAR KATL 200752Z 10003KT 10SM CLR 03/M04 A3046 RMK AO2 SLP319 T00281044 $=
201912200652 METAR KATL 200652Z 08004KT 10SM CLR 03/M04 A3045 RMK AO2 SLP317 T00281044 $=
201912200552 METAR KATL 200552Z 10004KT 10SM CLR 03/M04 A3043 RMK AO2 SLP311 T00331039 10083 20033 50001 $=
201912200452 METAR KATL 200452Z 00000KT 10SM CLR 04/M04 A3044 RMK AO2 SLP314 T00391039 401111017 $=
201912200352 METAR KATL 200352Z 12003KT 10SM CLR 05/M04 A3044 RMK AO2 SLP312 T00501039=
201912200252 METAR KATL 200252Z 00000KT 10SM CLR 06/M04 A3043 RMK AO2 SLP312 T00561039 51010=
201912200152 METAR KATL 200152Z 09004KT 10SM CLR 06/M04 A3043 RMK AO2 SLP313 T00611039=
201912200052 METAR KATL 200052Z 10003KT 10SM CLR 07/M04 A3042 RMK AO2 SLP308 T00721039=
201912192352 METAR KATL 192352Z 00000KT 10SM CLR 08/M04 A3040 RMK AO2 SLP302 T00781044 10111 20078 53011=
201912192252 METAR KATL 192252Z 14003KT 10SM CLR 08/M04 A3039 RMK AO2 SLP298 T00831044=
201912192152 METAR KATL 192152Z 15004KT 10SM FEW250 11/M06 A3038 RMK AO2 SLP294 T01061056=
201912192052 METAR KATL 192052Z 15003KT 10SM FEW250 11/M06 A3037 RMK AO2 SLP289 T01111061 55003=
201912191952 METAR KATL 191952Z 00000KT 10SM FEW250 11/M06 A3036 RMK AO2 SLP287 T01061056=
201912191852 METAR KATL 191852Z 00000KT 10SM CLR 10/M05 A3036 RMK AO2 SLP285 T01001050=
201912191752 METAR KATL 191752Z 08005KT 10SM CLR 09/M05 A3038 RMK AO2 SLP293 T00891050 10094 21017 58018=
201912191652 METAR KATL 191652Z VRB04KT 10SM CLR 08/M04 A3041 RMK AO2 SLP305 T00781044=
201912191552 METAR KATL 191552Z 09005KT 10SM CLR 06/M04 A3043 RMK AO2 SLP312 T00561044=
201912191452 METAR KATL 191452Z 05006KT 10SM CLR 03/M04 A3043 RMK AO2 SLP313 T00331044 53028=
201912191352 METAR KATL 191352Z 34006KT 10SM CLR 00/M04 A3040 RMK AO2 SLP304 T00001044=
201912191252 METAR KATL 191252Z 33006KT 10SM CLR M02/M05 A3038 RMK AO2 SLP295 T10171050=
201912191152 METAR KATL 191152Z 34006KT 10SM CLR M02/M05 A3035 RMK AO2 SLP285 T10171050 10011 21017 53015=
201912191052 METAR KATL 191052Z 33008KT 10SM CLR M01/M05 A3032 RMK AO2 SLP277 T10111050 $=
201912190952 METAR KATL 190952Z 33009KT 10SM CLR M01/M05 A3031 RMK AO2 SLP272 T10061050 $=
201912190852 METAR KATL 190852Z 32010KT 10SM CLR 00/M05 A3030 RMK AO2 SLP267 T00001050 53010 $=
201912190752 METAR KATL 190752Z 31007KT 10SM CLR 01/M06 A3029 RMK AO2 SLP264 T00061061 $=
201912190652 METAR KATL 190652Z 31006KT 10SM CLR 01/M07 A3028 RMK AO2 SLP259 T00061067 $=
201912190552 METAR KATL 190552Z 32005KT 10SM CLR 01/M07 A3027 RMK AO2 SLP257 T00111067 10050 20011 55003 $=
201912190452 METAR KATL 190452Z 33008KT 10SM CLR 02/M07 A3027 RMK AO2 SLP256 T00221072 400891006 $=
201912190352 METAR KATL 190352Z 32007KT 10SM CLR 02/M07 A3028 RMK AO2 SLP260 T00221072 $=
201912190252 METAR KATL 190252Z 32008KT 10SM CLR 03/M07 A3028 RMK AO2 SLP262 T00281067 53011 $=
201912190152 METAR KATL 190152Z 32007KT 10SM CLR 03/M07 A3027 RMK AO2 SLP258 T00331067 $=
201912190052 METAR KATL 190052Z 32006KT 10SM CLR 04/M06 A3026 RMK AO2 SLP255 T00391061 $=
201912182352 METAR KATL 182352Z 33007KT 10SM CLR 05/M07 A3025 RMK AO2 SLP251 T00501067 10089 20050 53014 $=
201912182252 METAR KATL 182252Z 33013KT 10SM CLR 06/M08 A3023 RMK AO2 SLP243 T00611078 $=
201912182152 METAR KATL 182152Z 33013KT 10SM CLR 08/M08 A3022 RMK AO2 SLP238 T00781078 $=
201912182052 METAR KATL 182052Z 34015G21KT 10SM CLR 08/M08 A3021 RMK AO2 SLP235 T00831078 55005 $=
201912181952 METAR KATL 181952Z 34012KT 10SM CLR 08/M07 A3019 RMK AO2 SLP230 T00831067=
201912181852 METAR KATL 181852Z 31015KT 10SM CLR 08/M06 A3020 RMK AO2 SLP234 T00831061=
201912181752 METAR KATL 181752Z 34010KT 10SM CLR 07/M07 A3022 RMK AO2 SLP240 T00721067 10072 21006 58008=
201912181652 METAR KATL 181652Z 36010G21KT 10SM CLR 06/M06 A3024 RMK AO2 SLP248 T00611061=
201912181552 METAR KATL 181552Z 01011KT 10SM CLR 04/M06 A3025 RMK AO2 SLP250 T00441061=
201912181452 METAR KATL 181452Z 35012KT 10SM CLR 03/M05 A3024 RMK AO2 SLP249 T00281050 51030=
201912181352 METAR KATL 181352Z 33010KT 10SM FEW200 01/M04 A3022 RMK AO2 SLP242 T00061044=
201912181252 METAR KATL 181252Z 33011KT 10SM FEW200 M01/M05 A3019 RMK AO2 SLP230 T10061050=
201912181152 METAR KATL 181152Z 33010KT 10SM CLR 00/M05 A3015 RMK AO2 SLP219 70014 T00001050 10022 20000 53027=
201912181052 METAR KATL 181052Z 32017G28KT 260V340 10SM CLR 00/M05 A3011 RMK AO2 PK WND 30028/1052 SLP205 T00001050=
201912180952 METAR KATL 180952Z 33014KT 10SM FEW250 01/M04 A3009 RMK AO2 SLP195 T00061044=
201912180852 METAR KATL 180852Z 33016KT 10SM FEW250 01/M04 A3007 RMK AO2 SLP190 T00061044 51014=
201912180752 METAR KATL 180752Z 33013KT 10SM FEW250 01/M04 A3006 RMK AO2 SLP184 T00111044=
201912180652 METAR KATL 180652Z 33016G22KT 10SM FEW250 01/M04 A3004 RMK AO2 PK WND 34026/0634 SLP180 T00111044=
201912180552 METAR KATL 180552Z 33017G26KT 10SM FEW025 FEW250 02/M04 A3003 RMK AO2 PK WND 33026/0549 SLP173 T00221039 10056 20022 53002=
201912180452 METAR KATL 180452Z 33012G23KT 10SM FEW025 SCT250 03/M02 A3002 RMK AO2 PK WND 32026/0409 SLP170 T00331022 401780033=
201912180352 METAR KATL 180352Z 33015G24KT 10SM BKN025 BKN250 04/M01 A3002 RMK AO2 PK WND 33028/0315 SLP168 T00441011=
201912180252 METAR KATL 180252Z 33015G26KT 10SM BKN025 BKN250 04/M01 A3002 RMK AO2 PK WND 31028/0155 SLP167 T00441011 51016=
201912180152 METAR KATL 180152Z 33013G31KT 10SM BKN025 05/M01 A3002 RMK AO2 PK WND 32031/0145 SLP165 T00501011=
201912180052 METAR KATL 180052Z 31016G28KT 10SM OVC022 05/00 A3000 RMK AO2 PK WND 32029/0030 SLP158 T00500000=
201912172352 METAR KATL 172352Z 32015G25KT 10SM OVC022 06/01 A2997 RMK AO2 SLP150 T00560006 10100 20056 51021=
201912172252 METAR KATL 172252Z 31015KT 10SM BKN017 OVC030 06/01 A2996 RMK AO2 PK WND 29027/2153 SLP145 T00560011=
201912172152 METAR KATL 172152Z 31016G22KT 10SM BKN014 BKN020 OVC030 06/02 A2993 RMK AO2 PK WND 31030/2125 SLP135 T00610022=
201912172052 METAR KATL 172052Z 32017G25KT 10SM BKN012 BKN020 OVC040 07/03 A2991 RMK AO2 PK WND 31026/2021 SLP127 T00670028 53015=
201912172003 SPECI KATL 172003Z 30019G26KT 10SM BKN010 BKN020 OVC030 08/04 A2989 RMK AO2 PK WND 30026/2003 T00780044=
201912171952 METAR KATL 171952Z 32016G27KT 10SM BKN009 BKN015 OVC030 08/05 A2989 RMK AO2 PK WND 32027/1948 SLP121 T00780050=
201912171852 METAR KATL 171852Z 30017G24KT 9SM BKN008 BKN010 OVC030 09/07 A2987 RMK AO2 SLP114 T00890067=
201912171756 SPECI KATL 171756Z 30015KT 8SM BKN008 BKN012 OVC030 10/08 A2987 RMK AO2 T01000078 $=
201912171752 METAR KATL 171752Z 31016KT 8SM FEW008 BKN012 OVC030 10/08 A2986 RMK AO2 DZE31 SLP111 P0000 60014 T01000078 10167 20100 50004 $=
201912171652 METAR KATL 171652Z 30013KT 3SM -DZ BR BKN006 BKN010 OVC020 12/10 A2987 RMK AO2 WSHFT 1545 SFC VIS 5 RAE40DZB46 SLP112 FROPA P0001 T01170100=
201912171601 SPECI KATL 171601Z 31016KT 2SM -RA BR BKN006 BKN010 OVC030 13/12 A2986 RMK AO2 WSHFT 1545 SFC VIS 3 FROPA P0000 T01330117=
201912171552 METAR KATL 171552Z 31018G24KT 2SM R09R/5000VP6000FT -RA BR BKN006 BKN012 OVC030 14/13 A2986 RMK AO2 SFC VIS 4 RAE02B47DZB33E47 SLP107 FROPA P0001 T01440128=
201912171548 SPECI KATL 171548Z 33015G23KT 2SM R09R/5000VP6000FT -RA BR BKN006 BKN010 OVC030 16/14 A2985 RMK AO2 SFC VIS 3 RAE02B47DZB33E47 FROPA P0001=
201912171533 SPECI KATL 171533Z 23006KT 3SM -DZ BR BKN006 BKN012 OVC030 17/15 A2985 RMK AO2 RAE02DZB33 P0000 T01670150=
201912171452 METAR KATL 171452Z 21006KT 9SM -RA BKN005 BKN010 OVC040 17/15 A2986 RMK AO2 SLP106 P0001 60012 T01670150 55004=
201912171352 METAR KATL 171352Z 21006KT 6SM -RA BR BKN006 BKN045 OVC060 16/15 A2985 RMK AO2 SLP106 BKN006 V SCT P0005 T01610150=
201912171336 SPECI KATL 171336Z 20006KT 6SM -RA BR BKN006 BKN065 OVC085 16/15 A2986 RMK AO2 BKN006 V SCT P0005 T01610150=
201912171252 METAR KATL 171252Z 19007KT 6SM -RA BR SCT006 BKN075 OVC090 16/15 A2985 RMK AO2 SLP106 SCT006 V BKN P0006 T01610150=
201912171152 METAR KATL 171152Z 20008KT 7SM -RA SCT008 BKN043 OVC100 16/15 A2987 RMK AO2 RAE1055B37 SLP110 P0000 60019 70019 T01610150 10178 20161 55006=
201912171139 SPECI KATL 171139Z 22009KT 7SM -RA SCT008 SCT016 BKN038 OVC130 16/15 A2987 RMK AO2 RAE1055B37 P0000 T01610150=
201912171117 SPECI KATL 171117Z 20010KT 7SM BKN008 BKN016 OVC110 16/15 A2987 RMK AO2 RAE1055 P0000 T01610150=
201912171052 METAR KATL 171052Z 19006KT 6SM -RA BR FEW005 SCT047 BKN110 OVC150 16/15 A2985 RMK AO2 RAE20B42 SLP105 P0002 T01610150=
201912170952 METAR KATL 170952Z 19008KT 6SM -RA BR SCT006 BKN047 OVC090 17/15 A2988 RMK AO2 RAB17 SLP112 CB DSIPTD P0007 T01670150 $=
201912170930 SPECI KATL 170930Z 20009KT 4SM RA BR SCT006 SCT015CB OVC070 17/15 A2990 RMK AO2 RAB17 CB SW-NW-N MOV NE P0002 T01670150 $=
201912170916 SPECI KATL 170916Z 22006KT 7SM SCT008 BKN015CB OVC080 17/15 A2989 RMK AO2 SCT008 V BKN CB VC SW-NW MOV NE SHRA SW-NW T01670150 $=
201912170852 METAR KATL 170852Z 21007KT 7SM BKN008 BKN015 OVC095 17/16 A2989 RMK AO2 RAE11B19E44 SLP115 CIG 006V010 BKN008 V SCT P0001 60010 T01720156 58004 $=
201912170845 SPECI KATL 170845Z 21008KT 7SM BKN008 BKN046 OVC095 17/16 A2989 RMK AO2 RAE11B19E44 CIG 007V011 BKN008 V SCT P0001 T01720156 $=
201912170828 SPECI KATL 170828Z 22006KT 8SM -RA BKN012 BKN042 OVC095 17/16 A2989 RMK AO2 RAE11B19 BKN012 V SCT P0001 T01720156 $=
201912170817 SPECI KATL 170817Z 22007KT 10SM SCT012 OVC095 17/16 A2990 RMK AO2 RAE11 SCT012 V BKN P0000 T01720156 $=
201912170805 SPECI KATL 170805Z 23007KT 10SM -RA BKN014 BKN055 OVC110 17/16 A2990 RMK AO2 P0000 T01720156 $=
201912170752 METAR KATL 170752Z 22008KT 9SM -RA FEW009 SCT016 OVC110 17/16 A2991 RMK AO2 SLP120 RAB01 TSB0659E20 OCNL LTGICCG DSNT NE TS MOV NE P0009 T01720156 $=
201912170743 SPECI KATL 170743Z 22009KT 9SM FEW009 BKN075 OVC110 17/16 A2991 RMK AO2 RAB01E42 TSB0659E20 OCNL LTGICCG DSNT NE TS MOV NE P0009 T01720156 $=
201912170722 SPECI KATL 170722Z 22009G16KT 4SM -RA BR SCT009 OVC016 18/16 A2992 RMK AO2 RAB01 TSB0659E20 OCNL LTGICCG DSNT N-NE TS MOV NE P0009 T01780156 $=
201912170710 SPECI KATL 170710Z 22012KT 3SM TSRA BR BKN011 BKN018CB OVC038 18/16 A2992 RMK AO2 RAB01 TSB0659 OCNL LTGICCG S-OHD-N TS S-OHD-N MOV E P0003 T01780156 $=
201912170702 SPECI KATL 170702Z 23009KT 6SM -TSRA BKN013CB BKN039 OVC090 18/15 A2991 RMK AO2 RAB01 TSB0659 FRQ LTGICCG SW-NW TS SW-NW MOV E P0000 T01780150 $=
201912170657 SPECI KATL 170657Z 18010KT 10SM VCTS BKN013 BKN039 18/15 A2989 RMK AO2 LTG DSNT S AND SW T01780150 $=
201912170652 METAR KATL 170652Z 18008KT 10SM SCT013 BKN038 BKN090 OVC150 18/15 A2989 RMK AO2 SLP116 SCT013 V BKN FRQ LTG DSNT SW-NW CB DSNT SW-NW T01780150 $=
201912170645 SPECI KATL 170645Z 18010KT 10SM SCT013 BKN038 BKN090 OVC150 17/15 A2989 RMK AO2 FRQ LTG DSNT SW-NW CB DSNT SW-NW T01720150 $=
201912170624 SPECI KATL 170624Z 17006KT 10SM BKN011 BKN050 BKN150 OVC200 17/15 A2989 RMK AO2 BKN011 V SCT T01720150 $=
201912170552 METAR KATL 170552Z 17005KT 10SM FEW012 SCT060 OVC150 17/14 A2990 RMK AO2 SLP119 VIRGA OHD-ALQDS 60000 T01670144 10178 20161 58027 $=
201912170531 SPECI KATL 170531Z 17006KT 10SM BKN012 BKN060 OVC200 17/14 A2992 RMK AO2 T01670144 $=
201912170452 METAR KATL 170452Z 17009KT 10SM FEW030 SCT060 BKN150 OVC200 17/14 A2993 RMK AO2 SLP131 T01720139 402110122 $=
201912170352 METAR KATL 170352Z 17008KT 10SM FEW030 BKN150 OVC200 16/14 A2995 RMK AO2 SLP138 T01610139 $=
201912170252 METAR KATL 170252Z 13003KT 10SM BKN035 OVC200 16/14 A2998 RMK AO2 SLP150 60000 T01610144 58011 $=
201912170152 METAR KATL 170152Z 00000KT 10SM FEW060 BKN200 OVC250 16/14 A3000 RMK AO2 RAE0057 SLP157 P0000 T01610144 $=
201912170052 METAR KATL 170052Z 16006KT 7SM -RA FEW018 BKN032 OVC060 17/14 A3001 RMK AO2 SLP159 P0000 T01720144 $=
201912162352 METAR KATL 162352Z 00000KT 10SM -RA FEW020 BKN045 OVC070 18/14 A3001 RMK AO2 RAB14 SLP161 P0000 60000 T01780139 10211 20178 50003 $=
201912162252 METAR KATL 162252Z 22004KT 10SM FEW032 BKN040 OVC070 19/13 A3002 RMK AO2 RAB01E11 SLP161 P0000 T01890128 $=
201912162152 METAR KATL 162152Z 19005KT 10SM BKN040 BKN050 OVC070 20/13 A3001 RMK AO2 RAB40E49 SLP157 P0000 T02000128 $=
201912162052 METAR KATL 162052Z 18007KT 10SM BKN040 BKN070 OVC250 21/12 A3001 RMK AO2 SLP157 T02060117 56022 $=
201912161952 METAR KATL 161952Z 18009KT 10SM FEW040 FEW070 BKN250 21/12 A3001 RMK AO2 SLP159 T02110117 $=
201912161852 METAR KATL 161852Z 19009KT 10SM FEW040 SCT070 BKN250 21/11 A3005 RMK AO2 SLP172 T02060111 $=
201912161752 METAR KATL 161752Z 18011G18KT 10SM BKN040 BKN070 BKN250 20/11 A3007 RMK AO2 SLP181 T02000106 10206 20122 58030 $=
201912161652 METAR KATL 161652Z 18014G21KT 10SM FEW040 BKN060 BKN250 19/11 A3011 RMK AO2 SLP192 T01890111=
201912161552 METAR KATL 161552Z 19006KT 10SM FEW040 SCT050 BKN070 BKN250 17/10 A3015 RMK AO2 SLP208 T01670100=
201912161452 METAR KATL 161452Z 19008KT 150V210 10SM FEW050 BKN070 BKN250 15/09 A3017 RMK AO2 SLP214 T01500089 53004=
201912161352 METAR KATL 161352Z 16008KT 10SM SCT033 BKN070 13/09 A3016 RMK AO2 SLP213 T01280089=
201912161252 METAR KATL 161252Z 14004KT 9SM BKN060 12/09 A3015 RMK AO2 SLP210 T01220089=
201912161152 METAR KATL 161152Z 00000KT 10SM FEW026 OVC055 13/09 A3015 RMK AO2 SLP211 BINOVC T01280094 10128 20122 53006=
201912161052 METAR KATL 161052Z 17005KT 10SM FEW012 SCT026 OVC055 13/10 A3014 RMK AO2 SLP206 BINOVC T01280100=
201912161043 SPECI KATL 161043Z 17005KT 10SM FEW012 BKN026 OVC050 13/10 A3014 RMK AO2 BINOVC T01280100=
201912160952 METAR KATL 160952Z 18006KT 10SM FEW015 FEW026 OVC049 12/10 A3012 RMK AO2 SLP201 BINOVC T01220100=
201912160933 SPECI KATL 160933Z 15008KT 10SM FEW015 SCT026 OVC049 12/09 A3012 RMK AO2 T01220094=
201912160852 METAR KATL 160852Z 17006KT 10SM BKN016 OVC025 12/09 A3014 RMK AO2 SLP204 T01220094 53008=
201912160752 METAR KATL 160752Z 17005KT 10SM OVC023 12/09 A3013 RMK AO2 SLP203 BINOVC T01220094=
201912160652 METAR KATL 160652Z 18007KT 10SM BKN027 BKN033 13/09 A3011 RMK AO2 SLP196 T01280089=
201912160552 METAR KATL 160552Z 17006KT 9SM OVC028 13/09 A3011 RMK AO2 SLP197 BINOVC T01280089 10128 20122 58003=
201912160452 METAR KATL 160452Z 15007KT 9SM OVC025 13/09 A3012 RMK AO2 SLP200 T01280089 401390061=
201912160352 METAR KATL 160352Z 16008KT 9SM BKN026 OVC032 12/08 A3012 RMK AO2 SLP200 T01220083=
201912160252 METAR KATL 160252Z 15005KT 9SM OVC028 12/08 A3012 RMK AO2 SLP201 T01220083 50001=
201912160152 METAR KATL 160152Z 15005KT 9SM OVC028 12/08 A3012 RMK AO2 SLP203 T01220083=
201912160123 SPECI KATL 160123Z 14006KT 10SM OVC028 12/08 A3012 RMK AO2 BINOVC T01220078=
201912160052 METAR KATL 160052Z 15006KT 10SM OVC030 12/08 A3012 RMK AO2 SLP200 BINOVC T01220078=
201912160029 SPECI KATL 160029Z 15006KT 9SM BKN030 BKN100 12/08 A3012 RMK AO2 T01220078=
201912152352 METAR KATL 152352Z 13003KT 9SM OVC028 12/08 A3012 RMK AO2 SLP200 BINOVC T01220078 10139 20117 51005=
201912152252 METAR KATL 152252Z 00000KT 9SM OVC028 12/08 A3011 RMK AO2 SLP197 BINOVC T01220078=
201912152159 SPECI KATL 152159Z 16004KT 10SM BKN030 BKN090 13/08 A3011 RMK AO2 T01330078=
201912152152 METAR KATL 152152Z 18005KT 10SM BKN029 BKN090 13/08 A3011 RMK AO2 SLP198 T01330078=
201912152132 SPECI KATL 152132Z 17005KT 10SM BKN025 BKN090 13/07 A3011 RMK AO2 T01330072=
201912152052 METAR KATL 152052Z 20007KT 10SM SCT020 SCT090 14/08 A3010 RMK AO2 SLP193 T01390078 56008=
201912151952 METAR KATL 151952Z 22007KT 10SM SCT012 BKN180 BKN250 13/08 A3010 RMK AO2 SLP194 T01280078=
201912151950 SPECI KATL 151950Z 21008KT 10SM SCT012 BKN180 BKN250 12/08 A3010 RMK AO2=
201912151852 METAR KATL 151852Z 21008KT 10SM BKN012 12/08 A3011 RMK AO2 SLP199 T01170078=
201912151752 METAR KATL 151752Z 20008KT 10SM BKN013 12/08 A3013 RMK AO2 SLP203 T01220078 10128 20061 58009=
201912151750 SPECI KATL 151750Z VRB06KT 10SM BKN013 12/08 A3013 RMK AO2=
201912151652 METAR KATL 151652Z VRB04KT 10SM SCT015 SCT120 12/07 A3015 RMK AO2 SLP211 T01170072=
201912151650 SPECI KATL 151650Z 20005KT 10SM SCT015 SCT120 12/08 A3015 RMK AO2=
201912151552 METAR KATL 151552Z 22004KT 10SM BKN015 10/07 A3016 RMK AO2 SLP214 CIG 013V017 T01000067=
201912151526 SPECI KATL 151526Z 21004KT 10SM BKN018 10/06 A3015 RMK AO2 T01000061=
201912151452 METAR KATL 151452Z 22004KT 10SM SCT020 09/06 A3015 RMK AO2 SLP214 T00890056 53017=
201912151352 METAR KATL 151352Z 00000KT 10SM FEW019 08/05 A3013 RMK AO2 SLP208 T00780050=
201912151325 SPECI KATL 151325Z 00000KT 9SM SCT019 SCT120 07/04 A3012 RMK AO2 T00670044=
201912151252 METAR KATL 151252Z 00000KT 10SM BKN019 BKN120 07/04 A3010 RMK AO2 SLP198 BKN019 V SCT T00670044=
201912151248 SPECI KATL 151248Z 00000KT 10SM BKN019 BKN120 07/04 A3010 RMK AO2 BKN019 V SCT=
201912151152 METAR KATL 151152Z 26003KT 10SM SCT019 BKN150 06/04 A3007 RMK AO2 SLP185 SCT019 V BKN T00610044 10078 20061 53020=
201912151104 SPECI KATL 151104Z 29004KT 10SM SCT019 BKN150 07/04 A3004 RMK AO2 SCT019 V BKN T00670044=
201912151052 METAR KATL 151052Z 30003KT 10SM BKN020 BKN150 07/04 A3003 RMK AO2 SLP173 BKN020 V SCT T00670044=
201912151050 SPECI KATL 151050Z 29003KT 10SM BKN020 BKN150 07/04 A3003 RMK AO2 BKN020 V SCT=
201912150952 METAR KATL 150952Z 00000KT 10SM FEW024 SCT028 BKN150 07/04 A3001 RMK AO2 SLP163 SCT028 V BKN T00670044=
201912150852 METAR KATL 150852Z 28004KT 10SM BKN023 BKN033 BKN150 07/04 A3000 RMK AO2 SLP162 BKN023 V SCT T00720044 53013=
201912150812 SPECI KATL 150812Z 29005KT 10SM BKN026 07/04 A2999 RMK AO2 T00670044=
201912150752 METAR KATL 150752Z 27003KT 10SM SCT026 BKN130 BKN180 07/04 A2999 RMK AO2 SLP157 T00670039=
201912150652 METAR KATL 150652Z 25004KT 10SM FEW029 SCT150 SCT180 07/04 A2997 RMK AO2 SLP150 T00720039=
201912150552 METAR KATL 150552Z 24003KT 10SM BKN040 BKN180 BKN250 07/04 A2996 RMK AO2 SLP149 T00720039 10089 20067 51013=
201912150452 METAR KATL 150452Z 23004KT 10SM FEW045 BKN180 BKN250 07/04 A2996 RMK AO2 SLP148 T00670039 401280067=
201912150352 METAR KATL 150352Z 25005KT 10SM BKN180 BKN250 08/04 A2995 RMK AO2 SLP143 T00830039=
201912150252 METAR KATL 150252Z 26003KT 10SM FEW038 BKN200 BKN250 08/03 A2993 RMK AO2 SLP136 T00780033 51016=
201912150152 METAR KATL 150152Z 26006KT 10SM SCT038 SCT200 BKN250 08/03 A2992 RMK AO2 SLP134 T00780033=
201912150052 METAR KATL 150052Z 28006KT 10SM FEW040 FEW250 08/03 A2990 RMK AO2 SLP127 T00830033=
201912142352 METAR KATL 142352Z 27005KT 10SM CLR 09/04 A2988 RMK AO2 SLP120 T00890039 10128 20089 52025=
201912142252 METAR KATL 142252Z 27007KT 10SM CLR 10/04 A2985 RMK AO2 SLP111 T01000039=
201912142152 METAR KATL 142152Z 28008KT 10SM FEW035 12/04 A2983 RMK AO2 SLP101 T01170039=
201912142052 METAR KATL 142052Z 26012G18KT 10SM SCT033 13/04 A2980 RMK AO2 SLP093 T01280044 53004=
201912141952 METAR KATL 141952Z 25009KT 10SM SCT025 13/04 A2978 RMK AO2 SLP086 T01280039=
201912141852 METAR KATL 141852Z 28010KT 10SM SCT025 12/05 A2978 RMK AO2 SLP085 T01220050=
201912141820 SPECI KATL 141820Z 30010KT 10SM SCT020 SCT025 10/04 A2978 RMK AO2 T01000039=
201912141752 METAR KATL 141752Z 30014KT 10SM BKN019 BKN024 09/04 A2979 RMK AO2 SLP089 T00940044 10100 20078 51008=
201912141652 METAR KATL 141652Z 28012KT 10SM BKN021 OVC026 09/04 A2979 RMK AO2 SLP090 BINOVC T00890044=
201912141552 METAR KATL 141552Z 30015G21KT 10SM FEW014 BKN021 OVC026 09/04 A2979 RMK AO2 SLP090 BINOVC T00890044=
201912141545 SPECI KATL 141545Z 31013G19KT 10SM FEW014 BKN021 OVC026 08/04 A2978 RMK AO2 BINOVC T00830044=
201912141452 METAR KATL 141452Z 29011KT 10SM BKN014 OVC021 08/05 A2976 RMK AO2 SLP082 T00830050 51019=
201912141352 METAR KATL 141352Z 30010KT 10SM FEW009 BKN014 OVC019 08/05 A2975 RMK AO2 SLP076 CIG 012V018 T00780050=
201912141252 METAR KATL 141252Z 29013G21KT 10SM FEW009 BKN012 OVC020 08/06 A2973 RMK AO2 SLP071 CIG 010V016 T00780056=
201912141151 METAR KATL 141151Z 29008KT 7SM FEW006 SCT010 BKN020 08/06 A2971 RMK AO2 SLP062 60001 70153 T00780061 10078 20067 55002=
201912141150 SPECI KATL 141150Z 29009KT 7SM FEW006 SCT010 BKN020 08/06 A2971 RMK AO2=
201912141127 SPECI KATL 141127Z 29009KT 2SM BKN006 BKN010 OVC020 08/06 A2971 RMK AO2 SFC VIS 7 CIG 005V008 T00780061=
201912141116 SPECI KATL 141116Z 30007KT 2SM BKN004 OVC010 08/06 A2970 RMK AO2 SFC VIS 7 CIG 003V007 T00780061=
201912141052 METAR KATL 141052Z 30010KT 1/2SM BR BKN004 OVC010 07/06 A2970 RMK AO2 SFC VIS 6 DZE13 SLP061 CIG 003V007 P0000 T00720061=
201912140952 METAR KATL 140952Z 27006KT 1/2SM -DZ BR BKN004 OVC012 07/06 A2971 RMK AO2 SFC VIS 4 SLP065 CIG 003V006 P0000 T00720061=
201912140852 METAR KATL 140852Z 28004KT 1/2SM R09R/P6000FT -DZ BR OVC002 07/06 A2971 RMK AO2 SFC VIS 3/4 SLP064 P0000 60001 T00670061 56002=
201912140752 METAR KATL 140752Z 27005KT 1/2SM -DZ BR OVC003 07/06 A2971 RMK AO2 SFC VIS 1 1/4 SLP064 TWRINC P0001 T00670056=
201912140652 METAR KATL 140652Z 28005KT 1/2SM R09R/P6000FT -DZ BR OVC002 07/06 A2970 RMK AO2 SFC VIS 3/4 DZB11 SLP062 TWRINC P0000 T00670056=
201912140552 METAR KATL 140552Z 29007KT 1/2SM BR OVC002 07/06 A2972 RMK AO2 SFC VIS 1 1/2 RAE0459 SLP066 TWRINC P0000 60099 T00670056 10072 20061 58024=
201912140542 SPECI KATL 140542Z 28006KT 1/2SM BR BKN003 OVC010 07/06 A2971 RMK AO2 SFC VIS 2 RAE0459 P0000 T00670056=
201912140452 METAR KATL 140452Z 00000KT 7SM -RA BKN003 BKN040 OVC080 07/06 A2972 RMK AO2 SLP068 TWRINC P0017 T00670061 400720028=
201912140436 SPECI KATL 140436Z 11007KT 090V160 4SM RA BR BKN003 BKN040 OVC080 07/05 A2972 RMK AO2 PRESFR TWRINC P0015 T00670050=
201912140424 SPECI KATL 140424Z 11005KT 4SM -RA BR SCT004 BKN050 OVC080 07/05 A2974 RMK AO2 PRESFR P0013 T00670050=
201912140352 METAR KATL 140352Z 10004KT 1/2SM +RA BR SCT004 BKN040 OVC070 07/05 A2979 RMK AO2 SFC VIS 2 1/2 SLP091 P0039 T00670050=
201912140252 METAR KATL 140252Z 03007KT 1/2SM +RA BR SCT004 BKN035 OVC080 07/05 A2979 RMK AO2 SFC VIS 2 SLP091 P0026 60043 T00670050 58016=
201912140240 SPECI KATL 140240Z 05006KT 1/2SM RA BR SCT004 BKN040 OVC080 07/05 A2979 RMK AO2 SFC VIS 3 P0021 T00670050=
201912140152 METAR KATL 140152Z 04003KT 1/2SM RA BR BKN005 OVC015 07/05 A2982 RMK AO2 SFC VIS 3 SLP102 CIG 003V008 TWRINC P0009 T00670050=
201912140131 SPECI KATL 140131Z 04003KT 1/2SM R09R/6000VP6000FT RA BR BKN005 OVC012 07/05 A2981 RMK AO2 SFC VIS 5 CIG 003V008 TWRINC P0002 T00670050=
201912140052 METAR KATL 140052Z 05007KT 1/2SM R09R/P6000FT RA BR OVC002 06/04 A2983 RMK AO2 SFC VIS 3 DZE33RAB33 SLP105 P0008 T00610044=
201912132352 METAR KATL 132352Z 08007KT 1/2SM R09R/P6000FT -DZ BR OVC003 06/04 A2984 RMK AO2 SFC VIS 1 1/2 RAE45DZB45 SLP109 TWRINC P0001 60002 T00610044 10061 20050 56023=
201912132252 METAR KATL 132252Z 07007KT 1/2SM R09R/P6000FT -RA BR OVC003 06/05 A2986 RMK AO2 SFC VIS 2 SLP118 TWRINC P0001 T00610050=
201912132152 METAR KATL 132152Z 09010KT 1/2SM R09R/P6000FT -RA BR OVC004 06/04 A2986 RMK AO2 SFC VIS 2 1/2 RAE2058B45DZB01E45 SLP117 CIG 003V006 P0000 T00610044=
201912132052 METAR KATL 132052Z 10006KT 1/2SM R09R/P6000FT -RA BR OVC004 06/04 A2991 RMK AO2 SFC VIS 1 1/2 DZE50RAB50 SLP133 P0000 60000 T00610044 56025=
201912131952 METAR KATL 131952Z 10008KT 1/2SM R09R/P6000FT -DZ BR OVC003 06/04 A2993 RMK AO2 SFC VIS 1 1/2 SLP140 P0000 T00560044=
201912131852 METAR KATL 131852Z 08010KT 1/2SM R09R/P6000FT -DZ BR OVC004 06/04 A2995 RMK AO2 SFC VIS 2 1/2 SLP146 P0000 T00560039=
201912131752 METAR KATL 131752Z 09012G20KT 1/2SM R09R/P6000FT -DZ BR BKN004 BKN020 OVC030 05/04 A2998 RMK AO2 SFC VIS 3 RAB09E39DZB49 SLP158 P0000 60051 T00500039 10050 20033 58040=
201912131733 SPECI KATL 131733Z 08010KT 1/2SM R09R/P6000FT -RA BR BKN004 BKN020 OVC040 05/03 A3000 RMK AO2 SFC VIS 3 RAB09 P0000 T00500033=
201912131652 METAR KATL 131652Z 07010KT 1 1/2SM BR BKN005 BKN030 OVC040 04/03 A3003 RMK AO2 SFC VIS 5 RAE24 SLP175 P0001 T00440028=
201912131552 METAR KATL 131552Z 07010G17KT 1 1/2SM -RA BR BKN005 BKN020 OVC040 04/02 A3007 RMK AO2 SFC VIS 5 SLP188 P0013 T00390022=
201912131452 METAR KATL 131452Z 07008KT 1 1/2SM R09R/6000VP6000FT +RA BR BKN005 BKN020 OVC030 04/02 A3010 RMK AO2 SLP200 P0012 60037 T00390022 58006=
201912131352 METAR KATL 131352Z 09011KT 1 1/2SM -RA BR BKN006 BKN018 OVC035 03/02 A3012 RMK AO2 SFC VIS 6 SLP204 CIG 004V008 P0010 T00330022=
201912131319 SPECI KATL 131319Z 08013KT 1 1/2SM RA BR BKN005 BKN012 OVC028 03/02 A3012 RMK AO2 SFC VIS 4 CIG 004V007 P0003 T00330022=
201912131255 SPECI KATL 131255Z 07010KT 2SM -RA BR OVC005 03/02 A3012 RMK AO2 SFC VIS 6 CIG 003V007 P0001 T00330022=
201912131252 METAR KATL 131252Z 07012KT 6SM RA BR OVC006 03/02 A3012 RMK AO2 SLP205 CIG 004V008 P0015 T00330022=
201912131152 METAR KATL 131152Z 10011KT 4SM RA BR OVC005 03/02 A3012 RMK AO2 LTG DSNT SE SLP205 CIG 004V007 CB DSNT SE P0012 60063 70085 T00330017 10039 20028 56037=
201912131052 METAR KATL 131052Z 09014KT 3SM +RA BR BKN006 BKN028 OVC065 03/02 A3014 RMK AO2 SLP211 TSB00E26 TS DSIPTD CIG 004V008 P0013 T00330017=
201912131028 SPECI KATL 131028Z 09011KT 5SM -RA BR OVC005 03/02 A3016 RMK AO2 TSB00E26 TS DSIPTD CIG 003V007 P0008 T00330017=
201912131001 SPECI KATL 131001Z 09010KT 5SM VCTS RA BR BKN006 OVC034CB 03/02 A3018 RMK AO2 TSB00 OCNL LTGICCA VC SE-SW TS VC SE-SW MOV NE P0001 T00330017=
201912130952 METAR KATL 130952Z 07014KT 5SM RA BR BKN006 BKN038 OVC060 03/02 A3016 RMK AO2 PRESFR SLP219 CIG 004V008 P0026 T00330017=
201912130938 SPECI KATL 130938Z 07012KT 5SM -RA BR BKN006 BKN030 OVC065 03/02 A3018 RMK AO2 CIG 004V008 P0025 T00330017=
201912130908 SPECI KATL 130908Z 08013KT 3SM +RA BR SCT006 BKN020 OVC042 03/02 A3021 RMK AO2 CIG 004V008 P0014 T00330017=
201912130906 SPECI KATL 130906Z 08013KT 2SM +RA BR SCT006 BKN026 OVC042 03/02 A3021 RMK AO2 CIG 004V008 P0013 T00330017=
201912130854 SPECI KATL 130854Z 05013KT 2SM R09R/4000VP6000FT +RA BR BKN006 OVC015 03/01 A3023 RMK AO2 CIG 004V008 P0003 T00280011=
201912130852 METAR KATL 130852Z 06011G16KT 3SM R09R/4000VP6000FT +RA BR BKN006 OVC012 03/02 A3023 RMK AO2 RAB33 SLP243 CIG 004V008 P0008 60012 T00330017 55013=
201912130752 METAR KATL 130752Z 08013KT 9SM BKN007 OVC012 03/01 A3023 RMK AO2 RAE50 SLP243 CIG 005V009 P0003 T00330011=
201912130652 METAR KATL 130652Z 08012KT 6SM -RA BR BKN007 BKN012 OVC028 03/02 A3026 RMK AO2 SLP251 CIG 005V009 P0001 T00330017=
201912130552 METAR KATL 130552Z 09013KT 6SM -RA BR BKN007 BKN012 OVC020 04/02 A3028 RMK AO2 LTG DSNT NE SLP256 CB DSNT NE P0008 60021 T00390022 10078 20039 58013=
201912130529 SPECI KATL 130529Z 08010KT 4SM RA BR BKN006 OVC020 04/02 A3030 RMK AO2 CB DSNT W P0006 T00390022=
201912130525 SPECI KATL 130525Z 08013KT 2SM +RA BR BKN006 OVC020 04/02 A3029 RMK AO2 CB DSNT W P0003 T00390022=
201912130452 METAR KATL 130452Z 08014G18KT 9SM -RA BKN007 BKN012 OVC020 04/02 A3030 RMK AO2 RAE18B45 SLP266 P0000 T00390022 401110006=
201912130446 SPECI KATL 130446Z 09013KT 9SM -RA BKN007 BKN012 OVC020 04/02 A3030 RMK AO2 RAE18B45 P0000=
201912130352 METAR KATL 130352Z 09018G23KT 10SM -RA FEW009 BKN014 OVC022 04/02 A3031 RMK AO2 SLP270 P0002 T00440017=
201912130252 METAR KATL 130252Z 09013KT 9SM -RA FEW010 SCT016 OVC022 05/02 A3034 RMK AO2 RAB06 SLP278 P0000 60011 T00500022 51002=
201912130152 METAR KATL 130152Z 08014KT 10SM OVC023 05/02 A3033 RMK AO2 RAE48 SLP277 P0004 T00500022=
201912130052 METAR KATL 130052Z 09012KT 9SM -RA BKN025 OVC040 06/02 A3035 RMK AO2 RAB2353 SLP283 P0007 T00560017=
201912122352 METAR KATL 122352Z 10008KT 10SM BKN025 OVC040 08/M01 A3033 RMK AO2 SLP277 60001 T00781006 10106 20078 56013=
201912122252 METAR KATL 122252Z 08013KT 10SM BKN028 BKN040 OVC080 08/01 A3034 RMK AO2 RAB06E44 SLP280 P0000 T00780006=
201912122152 METAR KATL 122152Z 07014KT 10SM BKN040 BKN050 OVC080 09/M01 A3035 RMK AO2 RAB30E45 SLP281 P0001 T00891006=
201912122052 METAR KATL 122052Z 10011KT 10SM BKN043 BKN080 OVC250 10/M04 A3037 RMK AO2 SLP290 BINOVC DSNT N T01001039 56022=
201912121952 METAR KATL 121952Z 09013KT 10SM BKN045 BKN085 BKN250 10/M04 A3038 RMK AO2 SLP293 T01001039=
201912121852 METAR KATL 121852Z 08014KT 10SM BKN050 BKN080 BKN250 11/M04 A3040 RMK AO2 SLP299 T01061039=
201912121752 METAR KATL 121752Z 09017KT 10SM FEW050 BKN080 BKN250 11/M04 A3044 RMK AO2 SLP311 T01061039 10111 20006 58028=
201912121652 METAR KATL 121652Z 08017G20KT 10SM FEW050 FEW250 10/M04 A3048 RMK AO2 SLP326 T01001044=
201912121552 METAR KATL 121552Z 09014G19KT 10SM FEW050 FEW250 08/M04 A3051 RMK AO2 SLP337 T00831044=
201912121452 METAR KATL 121452Z 10013KT 10SM FEW250 06/M05 A3052 RMK AO2 SLP342 T00611050 51010=
201912121352 METAR KATL 121352Z 10010KT 10SM FEW060 FEW250 03/M04 A3052 RMK AO2 SLP340 T00331044=
201912121252 METAR KATL 121252Z 09008KT 10SM FEW250 01/M05 A3051 RMK AO2 SLP338 T00061050=
201912121152 METAR KATL 121152Z 08008KT 10SM CLR 01/M05 A3049 RMK AO2 SLP333 T00111050 10039 20006 53003=
201912121052 METAR KATL 121052Z 08006KT 10SM CLR 01/M05 A3048 RMK AO2 SLP328 T00111050=
201912120952 METAR KATL 120952Z 08008KT 10SM CLR 02/M05 A3047 RMK AO2 SLP325 T00171050=
201912120852 METAR KATL 120852Z 07006KT 10SM CLR 02/M04 A3048 RMK AO2 SLP327 T00221044 50000=
201912120752 METAR KATL 120752Z 07008KT 10SM CLR 03/M05 A3049 RMK AO2 SLP331 T00281050=
201912120652 METAR KATL 120652Z 08005KT 10SM CLR 03/M04 A3049 RMK AO2 SLP329 T00281039=
201912120552 METAR KATL 120552Z 09004KT 10SM CLR 04/M03 A3048 RMK AO2 SLP327 T00391033 10067 20039 50000=
201912120452 METAR KATL 120452Z 07006KT 10SM CLR 04/M03 A3048 RMK AO2 SLP329 T00441028 401170017=
201912120352 METAR KATL 120352Z 08007KT 10SM CLR 06/M03 A3048 RMK AO2 SLP329 T00561028=
201912120252 METAR KATL 120252Z 02007KT 10SM CLR 06/M06 A3048 RMK AO2 SLP328 T00611056 51010=
201912120152 METAR KATL 120152Z 01008KT 10SM CLR 06/M05 A3047 RMK AO2 SLP324 T00611050=
201912120052 METAR KATL 120052Z 35007KT 10SM CLR 07/M05 A3047 RMK AO2 SLP325 T00671050=
201912112352 METAR KATL 112352Z 33008KT 10SM CLR 07/M05 A3045 RMK AO2 SLP317 T00671050 10117 20067 51013=
201912112252 METAR KATL 112252Z 33009KT 10SM FEW200 08/M05 A3044 RMK AO2 SLP312 T00831050=
201912112152 METAR KATL 112152Z 36012KT 10SM FEW150 FEW250 10/M06 A3043 RMK AO2 SLP308 T01001061=
201912112052 METAR KATL 112052Z 35010KT 10SM FEW150 FEW250 11/M07 A3041 RMK AO2 SLP302 T01111067 56006=
201912111952 METAR KATL 111952Z 36010G17KT 10SM FEW150 FEW250 10/M06 A3041 RMK AO2 SLP303 T01001056=
201912111852 METAR KATL 111852Z 35011KT 10SM FEW150 FEW250 09/M05 A3041 RMK AO2 SLP305 T00891050=
201912111752 METAR KATL 111752Z 36009KT 10SM FEW150 FEW250 07/M04 A3043 RMK AO2 SLP309 VIRGA DSNT SE-S T00671044 10067 20017 50000=
201912111652 METAR KATL 111652Z 33010KT 10SM FEW120 BKN150 BKN230 04/M03 A3045 RMK AO2 SLP318 VIRGA DSNT E-SE-S T00391033=
201912111552 METAR KATL 111552Z 33009KT 10SM FEW120 BKN150 BKN240 03/M03 A3045 RMK AO2 SLP320 VIRGA OHD ALQDS T00281033=
201912111452 METAR KATL 111452Z 33013KT 10SM FEW120 BKN150 BKN250 03/M03 A3043 RMK AO2 SLP311 VIRGA OHD-E-S-W T00281033 52033=
201912111352 METAR KATL 111352Z 33009KT 10SM SCT150 BKN250 02/M03 A3040 RMK AO2 SLP301 VIRGA OHD-S T00221028=
201912111252 METAR KATL 111252Z 32009KT 10SM FEW150 BKN250 02/M02 A3036 RMK AO2 SLP288 T00171017=
201912111152 METAR KATL 111152Z 33010KT 10SM SCT150 OVC250 02/M01 A3033 RMK AO2 SLP276 BINOVC 60001 70021 T00171011 10044 20017 51009=
201912111052 METAR KATL 111052Z 33010KT 10SM FEW140 OVC220 02/M01 A3033 RMK AO2 SLP276 T00221006=
201912110952 METAR KATL 110952Z 33010KT 10SM SCT085 OVC180 03/00 A3031 RMK AO2 SLP268 T00280000=
201912110852 METAR KATL 110852Z 32009G19KT 10SM SCT009 BKN070 03/01 A3030 RMK AO2 SLP266 60001 T00330006 53018=
201912110752 METAR KATL 110752Z 33011KT 10SM SCT007 SCT055 OVC100 03/01 A3028 RMK AO2 RAE36 SLP257 P0000 T00330011=
201912110746 SPECI KATL 110746Z 32011KT 10SM FEW007 SCT055 OVC100 03/01 A3028 RMK AO2 RAE36 P0000=
201912110652 METAR KATL 110652Z 32011KT 9SM -RA OVC075 03/01 A3026 RMK AO2 RAB18 SLP252 P0001 T00330011=
201912110552 METAR KATL 110552Z 32012KT 10SM OVC060 04/01 A3025 RMK AO2 RAB27E38 SLP245 P0000 60000 T00390006 10067 20039 53009=
201912110452 METAR KATL 110452Z 32012KT 10SM OVC055 04/01 A3024 RMK AO2 SLP242 T00440006 402000044=
201912110352 METAR KATL 110352Z 33012KT 10SM OVC050 05/01 A3022 RMK AO2 SLP235 T00500006=
201912110252 METAR KATL 110252Z 33012KT 10SM OVC050 05/01 A3022 RMK AO2 SLP233 T00500011 53020=
201912110152 METAR KATL 110152Z 33013KT 10SM BKN050 OVC200 06/02 A3019 RMK AO2 SLP224 T00560017=
201912110052 METAR KATL 110052Z 32015KT 10SM BKN050 OVC200 06/02 A3017 RMK AO2 PK WND 34028/0005 SLP216 T00610022=
201912102352 METAR KATL 102352Z 33018G24KT 10SM FEW012 BKN045 OVC100 07/03 A3016 RMK AO2 PK WND 32027/2253 SLP212 60001 T00670028 10128 20067 52026=
201912102252 METAR KATL 102252Z 33023G28KT 10SM FEW012 BKN040 OVC100 08/04 A3013 RMK AO2 PK WND 33028/2252 SLP203 T00780039=
201912102152 METAR KATL 102152Z 33016G24KT 10SM SCT012 BKN040 OVC050 09/06 A3010 RMK AO2 SLP193 T00890056=
201912102107 SPECI KATL 102107Z 34019G25KT 10SM SCT012 BKN030 OVC050 09/06 A3009 RMK AO2 T00940061=
201912102052 METAR KATL 102052Z 32015G22KT 10SM BKN012 BKN030 OVC050 10/07 A3008 RMK AO2 PK WND 32028/2019 RAE06 SLP184 P0000 60001 T01000072 51010=
201912102003 SPECI KATL 102003Z 34015G23KT 10SM -RA SCT010 BKN030 OVC050 10/08 A3007 RMK AO2 P0000 T01000078=
201912101952 METAR KATL 101952Z 34017G25KT 3SM -RA BR SCT010 BKN020 OVC030 10/08 A3007 RMK AO2 SFC VIS 5 SLP181 P0000 T01000078=
201912101949 SPECI KATL 101949Z 34018G25KT 6SM -RA BR SCT010 BKN020 OVC030 10/08 A3007 RMK AO2 P0000=
201912101932 SPECI KATL 101932Z 33015G23KT 2SM -RA BR BKN010 BKN020 OVC040 11/08 A3007 RMK AO2 SFC VIS 3 P0000 T01060083=
201912101929 SPECI KATL 101929Z 34013G23KT 2SM -RA BR SCT010 BKN015 OVC040 11/08 A3006 RMK AO2 SFC VIS 3 P0000 T01060083=
201912101917 SPECI KATL 101917Z 33014KT 8SM -RA FEW010 BKN015 OVC030 11/08 A3006 RMK AO2 P0000 T01110083=
201912101852 METAR KATL 101852Z 33020G27KT 10SM -RA FEW010 BKN030 OVC040 11/08 A3006 RMK AO2 PK WND 32027/1843 RAE01B21 SLP177 P0001 T01110083=
201912101849 SPECI KATL 101849Z 33017G27KT 10SM -RA FEW010 BKN030 OVC040 11/08 A3006 RMK AO2 PK WND 32027/1843 RAE01B21 P0001=
201912101756 SPECI KATL 101756Z 34014G25KT 10SM -RA FEW008 BKN013 OVC020 13/10 A3004 RMK AO2 P0000 T01280100=
201912101752 METAR KATL 101752Z 34015G25KT 8SM -RA BKN008 BKN013 OVC020 13/10 A3005 RMK AO2 SLP172 P0002 60019 T01280100 10200 20128 53004=
201912101702 SPECI KATL 101702Z 33013G19KT 6SM -RA BR FEW010 SCT020 OVC030 14/12 A3004 RMK AO2 P0000 T01440122=
201912101652 METAR KATL 101652Z 33012KT 9SM -RA FEW010 BKN020 OVC030 14/12 A3005 RMK AO2 SLP172 P0013 T01440122=
201912101623 SPECI KATL 101623Z 32015KT 8SM -RA FEW010 BKN020CB OVC040 16/13 A3004 RMK AO2 VIS LWR E-SE-S SHRA CB E-SE-S MOV NE P0011 T01560133=
201912101614 SPECI KATL 101614Z 33013KT 3SM R09R/6000VP6000FT -RA BR FEW009 BKN017CB OVC020 16/14 A3004 RMK AO2 CB NE-SE-SW MOV NE P0008 T01560139=
201912101552 METAR KATL 101552Z 31013G21KT 6SM R09R/5500VP6000FT -RA BR FEW005 BKN008 OVC012CB 16/14 A3003 RMK AO2 PK WND 22027/1520 RAB36 SLP167 CB OHD MOV NE FROPA P0004 T01610144=
201912101549 SPECI KATL 101549Z 29009G21KT 3SM R09R/5500VP6000FT RA FEW005 BKN012CB OVC030 17/14 A3003 RMK AO2 PK WND 22027/1520 RAB36 CB OHD-SW-NW-NE MOV NE FROPA P0001=
201912101537 SPECI KATL 101537Z 32009G25KT 6SM -RA BKN012CB BKN020 OVC040 18/15 A3001 RMK AO2 PK WND 22027/1520 RAB36 CB OHD-SW-NW-NE MOV NE FROPA P0000 T01780150=
201912101526 SPECI KATL 101526Z 22013G27KT 10SM BKN012CB BKN025 OVC040 20/17 A3000 RMK AO2 PK WND 22027/1520 VIS LWR SW-NW-NE SHRA CB OHD-SW-NW-NE MOV NE T02000167=
201912101452 METAR KATL 101452Z 21012G23KT 10SM BKN012 BKN020 OVC030 19/17 A3000 RMK AO2 RAE1359 SLP155 CB DSNT SW-NW-N SHRA DSNT SW-NW-N P0000 60000 T01940167 51006=
201912101448 SPECI KATL 101448Z 21014G23KT 10SM BKN012 BKN020 OVC030 19/17 A3000 RMK AO2 RAE1359 CB DSNT SW-NW-N SHRA DSNT SW-NW-N P0000=
201912101352 METAR KATL 101352Z 22015G20KT 7SM -RA BKN009 BKN015 OVC037 19/17 A2999 RMK AO2 RAE1256B27 SLP151 CIG 008V012 P0000 T01940167=
201912101336 SPECI KATL 101336Z 23011G19KT 6SM -RA OVC009 19/17 A2999 RMK AO2 RAE1256B27 CIG 008V012 P0000 T01940167=
201912101252 METAR KATL 101252Z 21013KT 8SM -RA BKN011 OVC018 19/17 A2998 RMK AO2 RAB48 SLP148 CIG 010V014 PCPN VRY LGT P0000 T01940167=
201912101152 METAR KATL 101152Z 22012G20KT 10SM OVC009 19/17 A2997 RMK AO2 SLP146 CIG 008V013 T01940167 10194 20167 53001=
201912101150 SPECI KATL 101150Z 22014G20KT 10SM OVC009 19/17 A2997 RMK AO2 CIG 008V013=
201912101052 METAR KATL 101052Z 21012G19KT 10SM OVC010 19/16 A2996 RMK AO2 SLP143 T01890161=
201912100952 METAR KATL 100952Z 21011KT 10SM OVC010 18/16 A2996 RMK AO2 SLP141 T01830156=
201912100852 METAR KATL 100852Z 21009KT 10SM OVC011 18/14 A2997 RMK AO2 SLP144 T01780144 55000=
201912100752 METAR KATL 100752Z 20010KT 10SM OVC014 17/14 A2997 RMK AO2 SLP145 T01720139=
201912100746 SPECI KATL 100746Z 20010KT 10SM OVC014 17/13 A2996 RMK AO2=
201912100652 METAR KATL 100652Z 20011G18KT 10SM BKN018 OVC050 17/13 A2997 RMK AO2 SLP146 T01720128=
201912100552 METAR KATL 100552Z 20008KT 10SM BKN023 BKN050 OVC250 17/13 A2998 RMK AO2 SLP149 T01670128 10167 20133 58009=
201912100452 METAR KATL 100452Z 19007KT 9SM BKN025 BKN050 OVC250 16/12 A3000 RMK AO2 SLP157 T01610122 401610089=
201912100429 SPECI KATL 100429Z 18006KT 9SM BKN025 BKN050 OVC250 16/12 A3000 RMK AO2 T01560122=
201912100352 METAR KATL 100352Z 19003KT 9SM FEW028 BKN035 OVC250 14/12 A3001 RMK AO2 SLP161 T01440117=
201912100252 METAR KATL 100252Z 14003KT 8SM SCT035 BKN050 OVC250 13/11 A3001 RMK AO2 SLP162 T01330106 50003=
201912100152 METAR KATL 100152Z 12003KT 8SM BKN037 BKN055 OVC250 14/11 A3001 RMK AO2 SLP162 T01390111=
201912100052 METAR KATL 100052Z 10004KT 7SM SCT035 BKN050 OVC200 14/11 A3001 RMK AO2 SLP162 T01390111=
201912092352 METAR KATL 092352Z 12005KT 7SM BKN035 BKN150 OVC250 13/11 A3000 RMK AO2 SLP159 60000 T01330106 10144 20117 53006=
201912092252 METAR KATL 092252Z 14004KT 8SM FEW010 BKN040 BKN150 OVC250 14/11 A2998 RMK AO2 SLP150 T01390106=
201912092152 METAR KATL 092152Z 13005KT 6SM HZ FEW010 SCT150 OVC250 14/11 A2997 RMK AO2 SLP148 T01440106=
201912092131 SPECI KATL 092131Z 13005KT 5SM HZ FEW007 SCT150 OVC250 14/11 A2996 RMK AO2 T01390106=
201912092052 METAR KATL 092052Z 13005KT 6SM HZ BKN007 BKN009 OVC012 14/10 A2998 RMK AO2 SLP151 T01390100 56007=
201912091952 METAR KATL 091952Z 11003KT 7SM OVC006 13/09 A2998 RMK AO2 SLP153 T01280094=
201912091852 METAR KATL 091852Z 14004KT 8SM BKN006 BKN008 OVC010 12/09 A2998 RMK AO2 SLP153 T01220089=
201912091752 METAR KATL 091752Z 14004KT 9SM OVC008 12/08 A3000 RMK AO2 SLP160 60000 T01170078 10117 20089 58027=
201912091652 METAR KATL 091652Z 15006KT 8SM OVC009 11/07 A3004 RMK AO2 DZE50 SLP173 P0000 T01060072=
201912091615 SPECI KATL 091615Z 13007KT 5SM -DZ OVC009 10/07 A3005 RMK AO2 P0000 T01000067=
201912091552 METAR KATL 091552Z 12006KT 8SM -DZ OVC010 10/06 A3006 RMK AO2 DZB49 SLP181 P0000 T01000056=
201912091452 METAR KATL 091452Z 11009KT 10SM OVC012 09/04 A3008 RMK AO2 SLP188 60000 T00940039 55004=
201912091352 METAR KATL 091352Z 12009KT 10SM OVC014 09/03 A3007 RMK AO2 RAB12E24 SLP185 P0000 T00890033=
201912091314 SPECI KATL 091314Z 10007KT 10SM -RA OVC014 09/03 A3008 RMK AO2 RAB12 P0000 T00940028=
201912091252 METAR KATL 091252Z 11008KT 10SM OVC015 09/03 A3008 RMK AO2 RAE00B17E44 SLP186 P0000 T00940028=
201912091152 METAR KATL 091152Z 10006KT 10SM -RA OVC016 09/02 A3010 RMK AO2 RAB24E33B51DZB33E40 PRESRR SLP192 P0000 60000 T00940017 10106 20094 55005=
201912091052 METAR KATL 091052Z 11006KT 10SM OVC016 10/02 A3008 RMK AO2 SLP187 T01000022=
201912090952 METAR KATL 090952Z 11008KT 10SM OVC016 10/01 A3008 RMK AO2 SLP185 T01000011 $=
201912090852 METAR KATL 090852Z 11009KT 10SM OVC018 10/01 A3011 RMK AO2 SLP196 T01000011 56014 $=
201912090752 METAR KATL 090752Z 11008KT 10SM OVC019 10/01 A3013 RMK AO2 SLP202 T01000006 $=
201912090652 METAR KATL 090652Z 11010KT 10SM OVC020 11/01 A3013 RMK AO2 SLP204 T01060006 $=
201912090552 METAR KATL 090552Z 12011KT 10SM OVC020 11/01 A3015 RMK AO2 RAB16E27 SLP211 P0000 60000 T01060006 10117 20106 56016 $=
201912090452 METAR KATL 090452Z 11010KT 10SM OVC020 11/01 A3017 RMK AO2 SLP217 T01060006 401390083 $=
201912090352 METAR KATL 090352Z 10011KT 10SM OVC020 11/01 A3018 RMK AO2 SLP220 T01060006 $=
201912090252 METAR KATL 090252Z 11011KT 10SM OVC024 11/01 A3020 RMK AO2 SLP229 T01110006 53001 $=
201912090152 METAR KATL 090152Z 10009KT 10SM BKN026 OVC040 11/01 A3020 RMK AO2 SLP229 T01110006 $=
201912090052 METAR KATL 090052Z 11011KT 10SM BKN028 BKN038 OVC075 11/01 A3020 RMK AO2 SLP228 BINOVC T01110011 $=
201912082352 METAR KATL 082352Z 10010KT 10SM BKN038 OVC075 12/02 A3020 RMK AO2 SLP227 T01170017 10139 20117 56003 $=
201912082252 METAR KATL 082252Z 11009KT 10SM BKN036 BKN055 OVC075 12/02 A3021 RMK AO2 SLP230 T01220017 $=
201912082152 METAR KATL 082152Z 11011KT 10SM FEW060 SCT075 SCT200 BKN250 13/02 A3019 RMK AO2 SLP223 T01280017 $=
201912082052 METAR KATL 082052Z 11010KT 10SM FEW070 SCT250 14/02 A3021 RMK AO2 SLP229 T01390022 55020 $=
201912081952 METAR KATL 081952Z 11011KT 10SM FEW070 SCT250 14/02 A3020 RMK AO2 SLP228 T01390022 $=
201912081852 METAR KATL 081852Z 14008KT 10SM FEW055 SCT075 BKN250 13/02 A3024 RMK AO2 SLP241 T01280022 $=
201912081752 METAR KATL 081752Z 12012G18KT 10SM FEW070 SCT250 13/02 A3027 RMK AO2 SLP250 T01280022 10133 20083 58028 $=
201912081652 METAR KATL 081652Z 10010KT 10SM SCT070 BKN250 12/03 A3033 RMK AO2 SLP271 T01220028 $=
201912081552 METAR KATL 081552Z 12012KT 10SM BKN070 BKN200 11/03 A3035 RMK AO2 SLP279 T01060028 $=
201912081452 METAR KATL 081452Z 12007G18KT 040V170 10SM FEW020 BKN065 09/03 A3036 RMK AO2 SLP280 T00890033 51016 $=
201912081352 METAR KATL 081352Z 09012KT 10SM SCT018 OVC065 08/04 A3034 RMK AO2 SLP277 SCT018 V BKN BINOVC T00830039 $=
201912081252 METAR KATL 081252Z 09016G19KT 10SM OVC065 09/04 A3033 RMK AO2 SLP271 BINOVC T00890044 $=
201912081152 METAR KATL 081152Z 10012KT 10SM OVC065 09/04 A3031 RMK AO2 SLP264 BINOVC T00890044 10117 20089 53009 $=
201912081052 METAR KATL 081052Z 10009KT 10SM BKN060 09/05 A3030 RMK AO2 SLP260 T00940050 $=
201912080952 METAR KATL 080952Z 11011KT 10SM BKN060 10/04 A3028 RMK AO2 SLP255 T01000044 $=
201912080852 METAR KATL 080852Z 11008KT 10SM BKN060 11/04 A3028 RMK AO2 SLP253 T01060044 50002 $=
201912080752 METAR KATL 080752Z 10010KT 10SM OVC060 11/04 A3029 RMK AO2 SLP255 T01110044 $=
201912080652 METAR KATL 080652Z 10009G17KT 10SM FEW042 BKN055 12/04 A3028 RMK AO2 SLP251 T01170044 $=
201912080552 METAR KATL 080552Z 09008KT 10SM FEW042 OVC060 11/05 A3027 RMK AO2 SLP251 BINOVC T01110050 10144 20106 53000 $=
201912080452 METAR KATL 080452Z 08006KT 10SM FEW042 OVC055 11/04 A3028 RMK AO2 SLP253 BINOVC T01110044 401720106 $=
201912080352 METAR KATL 080352Z 10006KT 10SM FEW040 SCT055 12/04 A3026 RMK AO2 SLP248 T01170044 $=
201912080252 METAR KATL 080252Z 10006KT 10SM FEW040 OVC060 13/04 A3027 RMK AO2 SLP251 BINOVC T01330044 50005 $=
201912080152 METAR KATL 080152Z 10005KT 10SM FEW038 OVC060 13/04 A3028 RMK AO2 SLP253 BINOVC T01280044 $=
201912080052 METAR KATL 080052Z 12003KT 10SM FEW040 BKN055 14/04 A3027 RMK AO2 SLP250 T01390039 $=
201912072352 METAR KATL 072352Z 11004KT 10SM FEW034 SCT042 BKN060 14/03 A3026 RMK AO2 SLP246 T01440033 10172 20144 53008 $=
201912072252 METAR KATL 072252Z 10004KT 10SM SCT044 BKN060 15/03 A3024 RMK AO2 SLP240 T01500033 $=
201912072152 METAR KATL 072152Z 09008KT 10SM BKN042 BKN060 16/04 A3024 RMK AO2 SLP240 T01560039=
201912072052 METAR KATL 072052Z 06009KT 10SM BKN042 BKN060 16/04 A3023 RMK AO2 SLP235 T01610039 55003=
201912071952 METAR KATL 071952Z VRB05KT 10SM SCT040 BKN060 16/04 A3023 RMK AO2 SLP235 T01610044=
201912071852 METAR KATL 071852Z 07005KT 10SM BKN060 17/05 A3023 RMK AO2 SLP234 T01670050=
201912071752 METAR KATL 071752Z 07009KT 10SM FEW042 BKN060 16/04 A3024 RMK AO2 SLP239 T01560044 10156 20111 58004=
201912071652 METAR KATL 071652Z 09008KT 10SM OVC060 14/04 A3026 RMK AO2 SLP246 T01440044=
201912071552 METAR KATL 071552Z 10004KT 10SM OVC049 13/06 A3027 RMK AO2 SLP248 T01330056=
201912071452 METAR KATL 071452Z 06005KT 10SM BKN047 13/05 A3025 RMK AO2 SLP245 T01280050 51018=
201912071352 METAR KATL 071352Z 05005KT 10SM BKN046 13/04 A3024 RMK AO2 SLP239 T01280039=
201912071252 METAR KATL 071252Z VRB03KT 10SM BKN042 12/03 A3022 RMK AO2 SLP234 T01220033=
201912071152 METAR KATL 071152Z 02007KT 10SM FEW037 SCT065 11/04 A3020 RMK AO2 SLP226 T01110039 10128 20111 53004=
201912071052 METAR KATL 071052Z 01003KT 10SM SCT036 BKN065 12/03 A3019 RMK AO2 SLP223 T01220033=
201912070952 METAR KATL 070952Z 00000KT 10SM OVC030 12/05 A3019 RMK AO2 SLP223 T01170050=
201912070948 SPECI KATL 070948Z 00000KT 10SM OVC030 12/04 A3019 RMK AO2=
201912070852 METAR KATL 070852Z 00000KT 10SM OVC029 12/04 A3019 RMK AO2 SLP221 T01220039 53002=
201912070752 METAR KATL 070752Z 15003KT 10SM BKN027 OVC050 12/04 A3019 RMK AO2 SLP221 T01170044=
201912070652 METAR KATL 070652Z 04004KT 10SM BKN028 OVC050 12/04 A3018 RMK AO2 SLP218 T01220039=
201912070552 METAR KATL 070552Z 04004KT 10SM BKN028 OVC050 13/04 A3018 RMK AO2 SLP219 T01280039 10133 20122 58003=
201912070513 SPECI KATL 070513Z 04005KT 10SM BKN028 OVC055 12/04 A3019 RMK AO2 T01220039=
201912070452 METAR KATL 070452Z 03005KT 10SM BKN031 OVC060 13/04 A3019 RMK AO2 SLP223 T01280044 401610078=
201912070352 METAR KATL 070352Z 00000KT 10SM BKN036 OVC065 13/04 A3019 RMK AO2 SLP224 T01280039=
201912070252 METAR KATL 070252Z 00000KT 10SM FEW036 SCT046 OVC070 13/04 A3019 RMK AO2 SLP223 T01280039 52009=
201912070152 METAR KATL 070152Z 00000KT 10SM BKN046 OVC075 12/04 A3019 RMK AO2 SLP223 VIRGA OHD-SW-NW T01220039=
201912070052 METAR KATL 070052Z 10004KT 10SM BKN050 OVC080 13/03 A3017 RMK AO2 SLP216 VIRGA NW-N T01330028=
201912062352 METAR KATL 062352Z 09004KT 10SM BKN055 BKN080 OVC150 13/04 A3016 RMK AO2 RAE05 SLP215 P0000 60000 T01280039 10161 20122 53009=
201912062252 METAR KATL 062252Z 10004KT 10SM -RA FEW050 BKN075 BKN150 BKN250 13/03 A3014 RMK AO2 RAB02E13B43 SLP206 P0000 T01330033=
201912062152 METAR KATL 062152Z 15004KT 10SM BKN085 BKN250 14/02 A3013 RMK AO2 SLP205 T01390022=
201912062052 METAR KATL 062052Z 19004KT 10SM SCT050 BKN075 OVC250 14/01 A3013 RMK AO2 SLP204 T01440011 56014=
201912061952 METAR KATL 061952Z 23007KT 10SM BKN090 OVC250 15/01 A3014 RMK AO2 SLP207 T01500006=
201912061852 METAR KATL 061852Z 20008KT 10SM FEW100 SCT140 BKN250 16/01 A3014 RMK AO2 SLP207 T01560006=
201912061752 METAR KATL 061752Z 20004KT 10SM FEW100 SCT120 SCT180 BKN250 15/01 A3018 RMK AO2 SLP219 VIRGA N-NE NW-N T01500006 10150 20089 55015=
201912061652 METAR KATL 061652Z 10004KT 10SM FEW080 BKN100 OVC120 13/01 A3017 RMK AO2 PRESFR SLP218 VIRGA OHD-NW-N-NE T01330006=
201912061552 METAR KATL 061552Z 16003KT 10SM BKN080 BKN100 OVC120 12/00 A3021 RMK AO2 SLP232 VIRGA OHD ALQDS T01170000=
201912061452 METAR KATL 061452Z 00000KT 10SM FEW090 BKN120 OVC150 11/M01 A3022 RMK AO2 SLP235 VIRGA S-W-N BINOVC DSNT SE T01111006 53011=
201912061352 METAR KATL 061352Z 00000KT 10SM FEW090 BKN120 BKN160 10/00 A3020 RMK AO2 SLP227 VIRGA OHD AND SE-SW T01000000=
201912061252 METAR KATL 061252Z 00000KT 10SM FEW080 BKN100 BKN150 09/00 A3019 RMK AO2 SLP224 VIRGA E AND NW T00940000=
201912061152 METAR KATL 061152Z 00000KT 10SM FEW030 SCT120 BKN170 09/00 A3019 RMK AO2 SLP223 T00890000 10106 20078 51008=
201912061052 METAR KATL 061052Z 00000KT 10SM FEW030 BKN120 BKN170 08/00 A3018 RMK AO2 SLP221 T00830000 $=
201912060952 METAR KATL 060952Z 00000KT 10SM FEW035 BKN120 09/M01 A3018 RMK AO2 SLP218 T00891011 $=
201912060852 METAR KATL 060852Z 00000KT 10SM FEW030 BKN110 09/M01 A3016 RMK AO2 SLP213 T00941006 58003 $=
201912060752 METAR KATL 060752Z 09003KT 10SM BKN130 09/M01 A3018 RMK AO2 SLP218 T00941006 $=
201912060652 METAR KATL 060652Z 00000KT 10SM BKN140 10/M02 A3018 RMK AO2 SLP218 T01001017 $=
201912060552 METAR KATL 060552Z 00000KT 10SM BKN150 11/M02 A3017 RMK AO2 SLP216 T01061022 10128 20100 53001 $=
201912060452 METAR KATL 060452Z 00000KT 10SM SCT150 11/M02 A3017 RMK AO2 SLP215 T01061022 401830044 $=
201912060352 METAR KATL 060352Z 14003KT 10SM BKN170 12/M02 A3017 RMK AO2 SLP216 T01171017 $=
201912060252 METAR KATL 060252Z 00000KT 10SM BKN170 11/M02 A3017 RMK AO2 SLP218 T01061017 53008 $=
201912060152 METAR KATL 060152Z 16004KT 10SM BKN180 11/M02 A3015 RMK AO2 SLP212 T01061022=
201912060052 METAR KATL 060052Z 00000KT 10SM SCT200 12/M03 A3015 RMK AO2 SLP213 T01171028=
201912052352 METAR KATL 052352Z 00000KT 10SM FEW150 FEW250 12/M03 A3014 RMK AO2 SLP211 T01221028 10183 20122 53009=
201912052252 METAR KATL 052252Z 32004KT 10SM FEW150 FEW250 15/M06 A3013 RMK AO2 SLP205 T01501056=
201912052152 METAR KATL 052152Z 32004KT 10SM FEW150 FEW250 17/M05 A3012 RMK AO2 SLP201 T01671050=
201912052052 METAR KATL 052052Z 36004KT 10SM FEW250 18/M06 A3012 RMK AO2 SLP198 T01781056 55008=
201912051952 METAR KATL 051952Z 36007KT 10SM FEW250 18/M05 A3011 RMK AO2 SLP197 T01781050=
201912051852 METAR KATL 051852Z 36007KT 10SM FEW250 17/M04 A3012 RMK AO2 SLP200 T01721044=
201912051752 METAR KATL 051752Z 35007KT 10SM FEW150 FEW250 17/M02 A3014 RMK AO2 SLP206 T01671022 10167 20044 58004=
201912051652 METAR KATL 051652Z 31006KT 10SM FEW150 FEW250 15/M02 A3016 RMK AO2 SLP215 T01501017=
201912051552 METAR KATL 051552Z 32005KT 10SM FEW150 FEW250 12/M01 A3017 RMK AO2 SLP216 T01221006=
201912051452 METAR KATL 051452Z 33008KT 10SM FEW150 10/00 A3015 RMK AO2 SLP213 T01000000 51029=
201912051352 METAR KATL 051352Z 30007KT 10SM SCT200 08/M01 A3012 RMK AO2 SLP204 T00781006=
201912051252 METAR KATL 051252Z 29008KT 10SM BKN200 06/M01 A3010 RMK AO2 SLP196 T00611006=
201912051152 METAR KATL 051152Z 28006KT 10SM SCT200 SCT250 05/M01 A3006 RMK AO2 SLP183 T00501006 10083 20050 53013=
201912051052 METAR KATL 051052Z 30005KT 10SM FEW200 SCT250 07/M01 A3004 RMK AO2 SLP174 T00671011=
201912050952 METAR KATL 050952Z 33006KT 10SM FEW200 SCT250 06/M01 A3002 RMK AO2 SLP168 T00561011=
201912050852 METAR KATL 050852Z 31009KT 10SM FEW200 SCT250 07/M01 A3003 RMK AO2 SLP168 T00671006 53009=
201912050752 METAR KATL 050752Z 31008KT 10SM SCT200 SCT250 07/M01 A3000 RMK AO2 SLP160 T00721006=
201912050652 METAR KATL 050652Z 30007KT 10SM SCT200 BKN250 08/M01 A3000 RMK AO2 SLP160 T00781006=
201912050552 METAR KATL 050552Z 30006KT 10SM BKN200 08/M01 A3000 RMK AO2 SLP158 T00781006 10111 20072 52010=
201912050452 METAR KATL 050452Z 28009KT 10SM BKN200 08/M01 A2999 RMK AO2 SLP156 T00831006 401560017=
201912050352 METAR KATL 050352Z 28007KT 10SM BKN200 08/M01 A2997 RMK AO2 SLP152 T00831006=
201912050252 METAR KATL 050252Z 29007KT 10SM FEW200 09/M01 A2997 RMK AO2 SLP151 T00891011 51010=
201912050152 METAR KATL 050152Z 28007KT 10SM SCT250 09/M01 A2996 RMK AO2 SLP149 T00941011=
201912050052 METAR KATL 050052Z 28008KT 10SM SCT250 10/M01 A2995 RMK AO2 SLP146 T01001011=
201912042352 METAR KATL 042352Z 29009KT 10SM SCT250 11/M01 A2994 RMK AO2 SLP141 T01111011 10156 20111 51018=
201912042252 METAR KATL 042252Z 28008KT 10SM SCT250 12/M01 A2992 RMK AO2 SLP135 T01171006=
201912042152 METAR KATL 042152Z 29012KT 10SM SCT250 14/M01 A2990 RMK AO2 SLP128 T01391011=
201912042052 METAR KATL 042052Z 31014KT 10SM SCT250 15/M02 A2988 RMK AO2 SLP120 T01501017 55005=
201912041952 METAR KATL 041952Z 31016G21KT 10SM SCT250 16/M02 A2988 RMK AO2 SLP119 T01561022=
201912041852 METAR KATL 041852Z 29013KT 10SM FEW250 15/M01 A2988 RMK AO2 SLP118 T01501011=
201912041752 METAR KATL 041752Z 32017G23KT 10SM CLR 14/M01 A2990 RMK AO2 SLP126 T01391011 10144 20017 58005=
201912041652 METAR KATL 041652Z 30013KT 10SM FEW250 12/01 A2991 RMK AO2 SLP133 T01220006=
201912041552 METAR KATL 041552Z 31009KT 10SM CLR 10/01 A2992 RMK AO2 SLP138 T01000006=
201912041452 METAR KATL 041452Z 30008KT 10SM CLR 07/00 A2991 RMK AO2 SLP134 T00670000 51016=
201912041352 METAR KATL 041352Z 30009KT 10SM CLR 05/M01 A2991 RMK AO2 SLP132 T00501011=
201912041252 METAR KATL 041252Z 29009KT 10SM CLR 03/M02 A2990 RMK AO2 SLP130 T00281022=
201912041152 METAR KATL 041152Z 29005KT 10SM CLR 02/M03 A2987 RMK AO2 SLP119 T00171028 10033 20017 53003=
201912041052 METAR KATL 041052Z 29005KT 10SM CLR 02/M03 A2986 RMK AO2 SLP115 T00221028=
201912040952 METAR KATL 040952Z 30008KT 10SM CLR 03/M02 A2986 RMK AO2 SLP114 T00281022=
201912040852 METAR KATL 040852Z 30011KT 10SM CLR 03/M02 A2985 RMK AO2 SLP114 T00331022 58002=
201912040752 METAR KATL 040752Z 29010KT 10SM CLR 03/M02 A2986 RMK AO2 SLP115 T00281022=
201912040652 METAR KATL 040652Z 28010KT 10SM CLR 03/M02 A2986 RMK AO2 SLP115 T00331017=
201912040552 METAR KATL 040552Z 29008KT 10SM FEW200 03/M02 A2986 RMK AO2 SLP116 T00331017 10056 20028 50001=
201912040452 METAR KATL 040452Z 29007KT 10SM FEW150 FEW250 03/M02 A2987 RMK AO2 SLP119 T00331017 400940017=
201912040352 METAR KATL 040352Z 28008KT 10SM FEW150 SCT250 03/M01 A2986 RMK AO2 SLP119 T00331011=
201912040252 METAR KATL 040252Z 28008KT 10SM FEW150 SCT250 04/M01 A2986 RMK AO2 SLP117 T00391011 55005=
201912040152 METAR KATL 040152Z 28006KT 10SM FEW150 SCT200 BKN250 04/M01 A2986 RMK AO2 SLP117 T00391011=
201912040052 METAR KATL 040052Z 29009KT 10SM FEW150 SCT200 BKN250 05/M01 A2987 RMK AO2 SLP120 T00501011=
201912032352 METAR KATL 032352Z 28008KT 10SM FEW150 BKN200 BKN250 06/M01 A2987 RMK AO2 SLP122 T00561011 10094 20056 53004=
201912032252 METAR KATL 032252Z 30008KT 10SM FEW150 BKN200 BKN250 07/M01 A2987 RMK AO2 SLP120 T00671011=
201912032152 METAR KATL 032152Z 31009KT 10SM FEW150 FEW180 BKN250 08/M01 A2986 RMK AO2 SLP116 T00781011=
201912032052 METAR KATL 032052Z 28007KT 10SM FEW150 SCT180 BKN250 08/M01 A2986 RMK AO2 SLP116 T00831011 55018=
201912031952 METAR KATL 031952Z 29010KT 10SM FEW150 SCT180 BKN250 08/M01 A2986 RMK AO2 SLP115 T00831011=
201912031852 METAR KATL 031852Z 31008KT 10SM BKN250 07/M01 A2988 RMK AO2 SLP123 T00721011=
201912031752 METAR KATL 031752Z 32010KT 10SM BKN250 07/M02 A2991 RMK AO2 SLP134 T00721017 10072 20017 58018=
201912031652 METAR KATL 031652Z 30010KT 10SM BKN250 06/M02 A2995 RMK AO2 SLP149 T00611017=
201912031552 METAR KATL 031552Z 34009KT 10SM FEW030 SCT200 BKN250 04/M02 A2996 RMK AO2 SLP152 T00441022=
201912031452 METAR KATL 031452Z 34009KT 10SM FEW025 SCT200 BKN250 04/M03 A2997 RMK AO2 SLP155 T00391028 58001=
201912031352 METAR KATL 031352Z 33015KT 10SM FEW020 SCT200 BKN250 03/M03 A2998 RMK AO2 SLP160 T00281033=
201912031252 METAR KATL 031252Z 32010KT 10SM FEW020 BKN200 BKN250 02/M03 A2998 RMK AO2 SLP159 T00171033=
201912031152 METAR KATL 031152Z 34013KT 10SM SCT022 BKN200 02/M04 A2997 RMK AO2 SLP157 SCT022 V BKN T00171039 10033 20017 55003=
201912031149 SPECI KATL 031149Z 33013KT 10SM SCT022 BKN200 02/M04 A2997 RMK AO2 SCT022 V BKN=
201912031052 METAR KATL 031052Z 33009KT 10SM BKN022 02/M04 A2996 RMK AO2 SLP153 T00221039=
201912030952 METAR KATL 030952Z 32010KT 10SM BKN023 02/M04 A2997 RMK AO2 SLP156 T00221039=
201912030852 METAR KATL 030852Z 35012KT 10SM BKN025 03/M03 A2998 RMK AO2 SLP158 T00281033 58003=
201912030752 METAR KATL 030752Z 33017G20KT 10SM BKN026 03/M03 A2998 RMK AO2 SLP160 T00281033=
201912030652 METAR KATL 030652Z 32012KT 10SM BKN026 03/M03 A2999 RMK AO2 SLP162 T00331033=
201912030552 METAR KATL 030552Z 33009KT 10SM BKN027 03/M03 A2999 RMK AO2 SLP161 T00331033 10039 20033 58002=
201912030452 METAR KATL 030452Z 33013G23KT 10SM BKN028 03/M03 A3000 RMK AO2 SLP163 T00331033 400890033=
201912030352 METAR KATL 030352Z 31016G21KT 10SM BKN028 03/M03 A3000 RMK AO2 SLP163 T00331033=
201912030252 METAR KATL 030252Z 33011KT 10SM BKN030 03/M04 A3000 RMK AO2 PK WND 33026/0157 SLP163 T00331039 58005=
201912030152 METAR KATL 030152Z 34017G27KT 10SM BKN032 03/M04 A3002 RMK AO2 PK WND 33027/0147 SLP170 T00331044=
201912030052 METAR KATL 030052Z 33012KT 10SM BKN032 04/M04 A3002 RMK AO2 SLP170 T00391044=
201912022352 METAR KATL 022352Z 32015KT 10SM BKN032 04/M04 A3001 RMK AO2 SLP168 T00391039 10067 20039 53003=
201912022252 METAR KATL 022252Z 33012KT 10SM FEW035 04/M04 A3000 RMK AO2 SLP165 T00391039=
201912022152 METAR KATL 022152Z 30011KT 10SM FEW036 05/M04 A3000 RMK AO2 SLP163 T00501039=
201912022052 METAR KATL 022052Z 31019G23KT 10SM BKN036 06/M04 A3000 RMK AO2 PK WND 32026/1959 SLP164 T00561039 51010=
201912021952 METAR KATL 021952Z 32018G25KT 10SM BKN035 05/M04 A3000 RMK AO2 PK WND 30026/1921 SLP163 T00501039=
201912021852 METAR KATL 021852Z 32020G27KT 10SM OVC038 06/M03 A2999 RMK AO2 PK WND 32027/1848 SLP158 BINOVC DSNT SE-S T00611033=
201912021752 METAR KATL 021752Z 31014KT 10SM BKN040 07/M03 A2997 RMK AO2 SLP152 T00671033 10072 20050 53007=
201912021652 METAR KATL 021652Z 29018G24KT 10SM BKN036 06/M03 A2996 RMK AO2 SLP150 T00611033=
201912021552 METAR KATL 021552Z 29013KT 10SM BKN035 BKN045 06/M03 A2995 RMK AO2 SLP146 T00611028=
201912021452 METAR KATL 021452Z 33018G23KT 10SM BKN035 06/M03 A2995 RMK AO2 SLP145 T00561033 51028=
201912021352 METAR KATL 021352Z 31011G19KT 10SM BKN036 05/M03 A2993 RMK AO2 SLP136 T00501028=
201912021252 METAR KATL 021252Z 30011KT 10SM BKN040 05/M02 A2989 RMK AO2 SLP125 T00501022=
201912021152 METAR KATL 021152Z 29017G20KT 10SM FEW028 BKN038 05/M02 A2987 RMK AO2 SLP114 60000 T00501022 10083 20050 53012=
201912021052 METAR KATL 021052Z 29013G19KT 10SM FEW030 BKN041 05/M03 A2982 RMK AO2 SLP099 T00501028=
201912020952 METAR KATL 020952Z 29014KT 10SM FEW034 BKN043 06/M03 A2982 RMK AO2 SLP099 T00561033=
201912020852 METAR KATL 020852Z 31014G25KT 10SM SCT042 BKN050 07/M03 A2983 RMK AO2 PK WND 28026/0832 SLP100 60000 T00671033 53020 $=
201912020752 METAR KATL 020752Z 30015KT 10SM BKN039 BKN050 07/M02 A2980 RMK AO2 SLP089 T00721022 $=
201912020652 METAR KATL 020652Z 31012G21KT 10SM SCT037 OVC055 08/M02 A2979 RMK AO2 PK WND 33028/0556 RAB09E20 SLP086 P0000 T00781022 $=
201912020552 METAR KATL 020552Z 30014G25KT 10SM SCT040 OVC055 08/M01 A2977 RMK AO2 PK WND 31028/0516 SLP078 T00831006 10144 20083 51009 $=
201912020452 METAR KATL 020452Z 30019G26KT 10SM SCT050 BKN065 09/M02 A2976 RMK AO2 PK WND 31026/0450 SLP075 T00891017 401940089 $=
201912020352 METAR KATL 020352Z 30018KT 10SM FEW060 FEW075 09/M01 A2975 RMK AO2 SLP074 T00941011 $=
201912020252 METAR KATL 020252Z 29017G24KT 10SM FEW070 10/M02 A2974 RMK AO2 PK WND 30032/0205 SLP070 T01001017 53017 $=
201912020152 METAR KATL 020152Z 30014G25KT 10SM FEW070 12/M01 A2972 RMK AO2 PK WND 30032/0128 SLP062 T01171011 $=
201912020052 METAR KATL 020052Z 27013KT 10SM CLR 13/M01 A2970 RMK AO2 PK WND 27026/0001 SLP054 T01281011 $=
201912012352 METAR KATL 012352Z 28013G22KT 10SM CLR 14/M01 A2969 RMK AO2 SLP050 T01441011 10194 20144 53020 $=
201912012252 METAR KATL 012252Z 27014G20KT 10SM CLR 16/M02 A2966 RMK AO2 SLP041 T01611022 $=
201912012152 METAR KATL 012152Z 26014G24KT 10SM CLR 18/M04 A2964 RMK AO2 PK WND 27035/2109 SLP033 T01781039 $=
201912012052 METAR KATL 012052Z 27019G29KT 10SM CLR 19/M04 A2963 RMK AO2 PK WND 25029/2049 SLP026 T01891044 56017 $=
201912011952 METAR KATL 011952Z 24014G30KT 10SM FEW250 19/M04 A2963 RMK AO2 PK WND 24033/1914 SLP027 T01891039 $=
201912011852 METAR KATL 011852Z 27014G27KT 10SM FEW250 19/M03 A2966 RMK AO2 PK WND 25027/1810 SLP036 T01891028 $=
201912011752 METAR KATL 011752Z 29018G31KT 10SM FEW070 FEW250 19/01 A2968 RMK AO2 PK WND 27031/1745 SLP044 T01890006 10189 20150 58023 $=
201912011652 METAR KATL 011652Z 26012G20KT 10SM CLR 18/03 A2971 RMK AO2 SLP056 T01780028 $=
201912011552 METAR KATL 011552Z 25016G20KT 10SM FEW035 SCT070 SCT250 17/03 A2974 RMK AO2 SLP066 T01670033 $=
201912011452 METAR KATL 011452Z 26011G20KT 10SM FEW020 BKN070 BKN090 BKN250 15/05 A2975 RMK AO2 SLP069 T01500050 52011 $=
201912011352 METAR KATL 011352Z 24011G23KT 10SM FEW012 BKN055 BKN100 16/10 A2974 RMK AO2 SLP068 T01560100 $=
201912011252 METAR KATL 011252Z 25011G15KT 10SM SCT048 BKN065 BKN085 16/11 A2972 RMK AO2 SLP058 T01560111 $=
