##########################################################
# Query made at 04/20/2024 00:03:30 UTC
# Time interval: from 02/01/2019 12:00  to 02/28/2019 12:59  UTC
##########################################################

##########################################################
# KATL, Atlanta, Hartsfield - Jackson Atlanta International Airport (United States)
# WMO index: 72219. WIGOS ID: 0-20000-0-72219
# Latitude 33-38-59N. Longitude 084-25-00W. Altitude 312 m.
##########################################################

201902281259 SPECI KATL 281259Z 28006KT 2 1/2SM TSRA BR BKN014 BKN038CB OVC060 14/13 A3005 RMK AO2 TSB58 OCNL LTGICCA SW-NW TS SW-NW MOV E P0003 T01440128=
201902281252 METAR KATL 281252Z 27005KT 3SM RA BR BKN014 BKN040 OVC060 14/13 A3005 RMK AO2 SLP173 P0007 T01440128=
201902281214 SPECI KATL 281214Z 33007KT 8SM -RA SCT015 OVC055 14/13 A3003 RMK AO2 P0000 T01440128=
201902281152 METAR KATL 281152Z 28004KT 8SM -RA BKN016 BKN050 BKN100 OVC200 14/13 A3004 RMK AO2 RAB42 SLP167 P0000 60000 70001 T01440128 10150 20139 53006=
201902281052 METAR KATL 281052Z 21003KT 10SM FEW060 SCT085 OVC130 14/13 A3002 RMK AO2 SLP161 ACC NE-SE W-NW T01390128=
201902280952 METAR KATL 280952Z 19003KT 10SM FEW028 BKN060 BKN085 OVC180 14/13 A3002 RMK AO2 SLP162 ACC OHD-ALQDS T01440128=
201902280852 METAR KATL 280852Z 24005KT 10SM FEW060 OVC180 14/13 A3002 RMK AO2 SLP160 T01440128 58007=
201902280752 METAR KATL 280752Z 26004KT 10SM SCT060 BKN180 BKN250 14/12 A3004 RMK AO2 SLP168 T01390122=
201902280652 METAR KATL 280652Z 24006KT 10SM BKN070 OVC200 14/13 A3005 RMK AO2 SLP172 T01440128=
201902280552 METAR KATL 280552Z 24003KT 10SM FEW070 BKN200 14/12 A3004 RMK AO2 SLP170 T01440122 10172 20139 58016=
201902280452 METAR KATL 280452Z 24006KT 10SM BKN250 14/12 A3007 RMK AO2 SLP180 T01440122 402060139=
201902280352 METAR KATL 280352Z 23004KT 10SM SCT250 14/12 A3007 RMK AO2 SLP179 T01440122=
201902280252 METAR KATL 280252Z 00000KT 10SM SCT250 15/12 A3009 RMK AO2 SLP186 T01500122 53007=
201902280152 METAR KATL 280152Z 26003KT 10SM FEW050 SCT250 15/13 A3008 RMK AO2 SLP183 T01500128=
201902280052 METAR KATL 280052Z 00000KT 10SM FEW050 FEW250 16/12 A3007 RMK AO2 SLP179 T01610122=
201902272352 METAR KATL 272352Z 23004KT 10SM FEW050 FEW250 17/12 A3006 RMK AO2 SLP178 T01720122 10206 20167 55007=
201902272252 METAR KATL 272252Z 24004KT 10SM FEW030 BKN050 BKN250 19/12 A3006 RMK AO2 SLP177 T01890122=
201902272152 METAR KATL 272152Z 23006KT 10SM BKN030 BKN040 BKN250 19/12 A3007 RMK AO2 SLP179 T01890122=
201902272052 METAR KATL 272052Z 27004KT 10SM FEW020 BKN035 BKN080 BKN250 19/13 A3008 RMK AO2 SLP183 T01940128 57015=
201902271952 METAR KATL 271952Z 23005KT 10SM FEW017 SCT030 BKN080 BKN250 18/13 A3010 RMK AO2 SLP191 T01830128=
201902271948 SPECI KATL 271948Z 21005KT 10SM FEW017 SCT030 BKN080 BKN250 18/13 A3011 RMK AO2=
201902271852 METAR KATL 271852Z 00000KT 10SM FEW015 BKN028 OVC040 17/13 A3013 RMK AO2 SLP199 T01670133=
201902271816 SPECI KATL 271816Z 00000KT 10SM FEW015 BKN030 OVC040 17/13 A3014 RMK AO2 T01670133=
201902271752 METAR KATL 271752Z 20003KT 10SM FEW015 BKN028 OVC038 16/13 A3016 RMK AO2 SLP211 60001 T01610133 10167 20139 58012=
201902271652 METAR KATL 271652Z 21003KT 9SM BKN030 BKN050 OVC070 16/13 A3019 RMK AO2 SLP221 T01610133=
201902271552 METAR KATL 271552Z 20003KT 7SM FEW030 BKN040 OVC070 15/14 A3020 RMK AO2 RAE15 SLP223 P0000 T01500139=
201902271542 SPECI KATL 271542Z 20004KT 6SM BR FEW020 BKN040 OVC060 15/13 A3020 RMK AO2 RAE15 P0000 T01500133=
201902271452 METAR KATL 271452Z 19003KT 6SM -RA BR FEW007 BKN025 OVC030 14/13 A3020 RMK AO2 SLP224 P0001 60001 T01440128 55000=
201902271450 SPECI KATL 271450Z 19003KT 4SM -RA BR FEW007 BKN025 OVC030 14/13 A3020 RMK AO2 P0001=
201902271424 SPECI KATL 271424Z 22003KT 1 1/2SM R09R/6000VP6000FT -RA BR SCT010 BKN017 OVC020 14/12 A3020 RMK AO2 SFC VIS 3 P0000 T01440122=
201902271418 SPECI KATL 271418Z 22003KT 3SM R09R/6000VP6000FT -RA BR FEW010 BKN015 OVC030 14/12 A3020 RMK AO2 P0000 T01440122=
201902271352 METAR KATL 271352Z 00000KT 7SM -RA BKN016 BKN032 OVC044 14/12 A3020 RMK AO2 RAB1257E07B52 SLP224 PCPN VRY LGT P0000 T01440117=
201902271252 METAR KATL 271252Z 20003KT 10SM BKN015 BKN024 OVC046 14/12 A3020 RMK AO2 SLP224 T01390117=
201902271218 SPECI KATL 271218Z 00000KT 10SM SCT012 BKN022 OVC045 14/11 A3019 RMK AO2 BINOVC T01440111=
201902271207 SPECI KATL 271207Z 00000KT 10SM BKN014 BKN024 OVC045 14/11 A3020 RMK AO2 BINOVC T01390111=
201902271152 METAR KATL 271152Z 20003KT 10SM SCT013 SCT038 BKN080 OVC130 14/11 A3019 RMK AO2 SLP223 BINOVC T01390111 10150 20139 53008=
201902271052 METAR KATL 271052Z 00000KT 10SM FEW018 SCT030 OVC048 14/11 A3019 RMK AO2 SLP219 BINOVC T01390111=
201902271039 SPECI KATL 271039Z 18003KT 10SM SCT016 SCT028 OVC048 14/11 A3018 RMK AO2 T01440111=
201902270952 METAR KATL 270952Z 20004KT 10SM SCT017 BKN027 OVC045 14/11 A3018 RMK AO2 SLP216 T01440111=
201902270900 SPECI KATL 270900Z 17005KT 10SM SCT018 BKN026 OVC040 14/11 A3016 RMK AO2 T01440111=
201902270852 METAR KATL 270852Z 18005KT 10SM SCT022 BKN032 OVC045 14/11 A3017 RMK AO2 SLP213 T01440106 58013=
201902270752 METAR KATL 270752Z 17006KT 10SM BKN032 OVC045 14/11 A3019 RMK AO2 SLP220 T01440106=
201902270708 SPECI KATL 270708Z 18005KT 10SM BKN028 OVC050 15/10 A3019 RMK AO2 T01500100=
201902270652 METAR KATL 270652Z 19004KT 10SM BKN030 BKN055 BKN250 15/10 A3020 RMK AO2 SLP223 T01500100=
201902270552 METAR KATL 270552Z 14005KT 10SM SCT032 BKN045 BKN060 15/09 A3021 RMK AO2 SLP227 T01500089 10172 20139 58013=
201902270452 METAR KATL 270452Z 12004KT 10SM BKN035 OVC060 14/08 A3022 RMK AO2 SLP232 T01390078 401890083=
201902270352 METAR KATL 270352Z 12004KT 10SM BKN040 BKN150 16/08 A3024 RMK AO2 SLP240 T01560078=
201902270252 METAR KATL 270252Z 12003KT 10SM BKN042 BKN140 BKN250 16/07 A3025 RMK AO2 SLP241 T01560072 53001=
201902270152 METAR KATL 270152Z 12004KT 10SM SCT048 BKN130 BKN250 16/08 A3024 RMK AO2 SLP240 T01610078=
201902270052 METAR KATL 270052Z 11005KT 10SM FEW060 BKN120 BKN250 17/08 A3025 RMK AO2 SLP241 T01670078=
201902262352 METAR KATL 262352Z 13005KT 10SM FEW060 BKN110 BKN250 17/08 A3024 RMK AO2 SLP241 T01720078 10189 20172 56010=
201902262252 METAR KATL 262252Z 13005KT 10SM FEW040 BKN060 BKN100 BKN150 18/08 A3025 RMK AO2 SLP243 T01780078=
201902262152 METAR KATL 262152Z 14003KT 10SM FEW050 BKN090 OVC150 18/08 A3026 RMK AO2 SLP247 T01830083=
201902262052 METAR KATL 262052Z 15004KT 10SM FEW050 BKN080 OVC110 18/08 A3027 RMK AO2 SLP251 T01780078 56016=
201902261952 METAR KATL 261952Z 18007KT 10SM BKN040 BKN080 OVC120 18/08 A3028 RMK AO2 SLP251 T01780078=
201902261852 METAR KATL 261852Z 18006KT 10SM BKN040 BKN050 BKN100 18/07 A3029 RMK AO2 SLP257 T01780067=
201902261752 METAR KATL 261752Z 20005KT 10SM BKN040 BKN090 BKN120 18/06 A3032 RMK AO2 SLP268 T01780056 10183 20089 58016=
201902261652 METAR KATL 261652Z 16008KT 10SM FEW040 BKN090 BKN110 16/02 A3035 RMK AO2 SLP277 T01610022=
201902261552 METAR KATL 261552Z 15005KT 10SM SCT040 BKN100 BKN120 14/M01 A3037 RMK AO2 SLP285 T01441011=
201902261452 METAR KATL 261452Z 12005KT 10SM BKN100 BKN120 13/M03 A3037 RMK AO2 SLP286 T01281028 56003=
201902261352 METAR KATL 261352Z 10005KT 10SM BKN120 11/M02 A3037 RMK AO2 SLP287 ACC NW-N T01061017=
201902261252 METAR KATL 261252Z 08005KT 10SM SCT110 BKN200 09/M03 A3037 RMK AO2 SLP284 T00941028=
201902261152 METAR KATL 261152Z 06005KT 10SM OVC120 09/M02 A3038 RMK AO2 SLP290 BINOVC T00891017 10100 20083 53010=
201902261052 METAR KATL 261052Z 09005KT 10SM BKN120 OVC150 09/M02 A3037 RMK AO2 SLP284 VIRGA ALQDS T00891022=
201902260952 METAR KATL 260952Z 06006KT 10SM SCT120 BKN150 OVC180 09/M03 A3035 RMK AO2 SLP277 T00941033=
201902260852 METAR KATL 260852Z 00000KT 10SM FEW130 BKN180 OVC250 09/M03 A3035 RMK AO2 SLP278 VIRGA OHD-W-N T00891028 51002=
201902260752 METAR KATL 260752Z 05004KT 10SM FEW130 FEW200 OVC250 09/M04 A3034 RMK AO2 SLP276 T00891039=
201902260652 METAR KATL 260652Z 03006KT 10SM FEW130 SCT200 OVC250 10/M04 A3035 RMK AO2 SLP279 T01001039=
201902260552 METAR KATL 260552Z 05005KT 10SM SCT130 BKN200 OVC250 10/M03 A3034 RMK AO2 SLP276 T01001033 10133 20100 58009=
201902260452 METAR KATL 260452Z 07003KT 10SM SCT140 BKN250 11/M04 A3036 RMK AO2 SLP281 T01061044 401720044=
201902260352 METAR KATL 260352Z 03005KT 10SM BKN140 BKN200 OVC250 12/M05 A3037 RMK AO2 SLP285 T01221050=
201902260252 METAR KATL 260252Z 01003KT 10SM BKN140 BKN200 BKN250 12/M05 A3037 RMK AO2 SLP286 T01221050 50002=
201902260152 METAR KATL 260152Z 34005KT 10SM BKN140 BKN200 BKN250 12/M04 A3037 RMK AO2 SLP288 T01221044=
201902260052 METAR KATL 260052Z 31005KT 10SM BKN140 BKN250 12/M04 A3038 RMK AO2 SLP292 T01221039=
201902252352 METAR KATL 252352Z 29004KT 10SM SCT150 BKN250 13/M02 A3037 RMK AO2 SLP287 T01331017 10172 20133 53001=
201902252252 METAR KATL 252252Z 00000KT 10SM FEW150 BKN250 16/M07 A3036 RMK AO2 SLP283 T01561067=
201902252152 METAR KATL 252152Z 01003KT 10SM FEW150 FEW200 BKN250 17/M06 A3037 RMK AO2 SLP284 T01721056=
201902252052 METAR KATL 252052Z 02006KT 10SM FEW150 BKN250 BKN300 17/M07 A3037 RMK AO2 SLP284 T01671067 56017=
201902251952 METAR KATL 251952Z 35007KT 10SM BKN250 BKN300 16/M06 A3038 RMK AO2 SLP289 T01611061=
201902251852 METAR KATL 251852Z 01009KT 10SM BKN250 BKN300 15/M07 A3040 RMK AO2 SLP295 T01501067=
201902251752 METAR KATL 251752Z 30007KT 10SM BKN250 14/M07 A3042 RMK AO2 SLP302 T01391067 10144 20044 50004=
201902251652 METAR KATL 251652Z 01009KT 10SM BKN250 12/M09 A3042 RMK AO2 SLP303 T01221089=
201902251552 METAR KATL 251552Z 01014G19KT 10SM BKN250 11/M09 A3041 RMK AO2 SLP300 T01061089=
201902251452 METAR KATL 251452Z 35008KT 10SM SCT250 09/M08 A3041 RMK AO2 SLP299 T00891083 51016=
201902251352 METAR KATL 251352Z 34014G19KT 10SM FEW200 07/M08 A3040 RMK AO2 SLP297 T00671083=
201902251252 METAR KATL 251252Z 34010KT 10SM FEW200 04/M06 A3038 RMK AO2 SLP291 T00441061=
201902251152 METAR KATL 251152Z 34011KT 10SM CLR 04/M07 A3036 RMK AO2 SLP283 T00441067 10078 20044 53022=
201902251052 METAR KATL 251052Z 34012KT 10SM CLR 05/M07 A3033 RMK AO2 SLP274 T00501067=
201902250952 METAR KATL 250952Z 33014KT 10SM CLR 05/M06 A3030 RMK AO2 SLP262 T00501061=
201902250852 METAR KATL 250852Z 33010KT 10SM CLR 05/M05 A3029 RMK AO2 SLP258 T00501050 53013 $=
201902250752 METAR KATL 250752Z 34010KT 10SM CLR 06/M05 A3027 RMK AO2 SLP251 T00561050 $=
201902250652 METAR KATL 250652Z 33008KT 10SM CLR 07/M05 A3027 RMK AO2 SLP250 T00671050 $=
201902250552 METAR KATL 250552Z 34009KT 10SM CLR 08/M06 A3025 RMK AO2 SLP244 T00781061 10128 20072 53010 $=
201902250452 METAR KATL 250452Z 32011KT 10SM CLR 08/M06 A3024 RMK AO2 SLP240 T00781056 401780072 $=
201902250352 METAR KATL 250352Z 32010KT 10SM CLR 09/M05 A3023 RMK AO2 SLP237 T00891050 $=
201902250252 METAR KATL 250252Z 31009KT 10SM FEW250 09/M04 A3022 RMK AO2 SLP233 T00941039 53025 $=
201902250152 METAR KATL 250152Z 31010KT 10SM FEW250 11/M04 A3019 RMK AO2 SLP224 T01061039 $=
201902250052 METAR KATL 250052Z 31011KT 10SM FEW250 12/M02 A3017 RMK AO2 SLP215 T01171022 $=
201902242352 METAR KATL 242352Z 30012KT 10SM FEW200 SCT250 13/M02 A3014 RMK AO2 PK WND 30027/2256 SLP206 T01281022 10172 20122 51028 $=
201902242252 METAR KATL 242252Z 31018G24KT 10SM FEW200 SCT250 14/M02 A3011 RMK AO2 PK WND 30027/2220 SLP196 T01391022 $=
201902242152 METAR KATL 242152Z 32019G26KT 10SM FEW150 SCT200 SCT250 16/M03 A3009 RMK AO2 PK WND 30030/2101 SLP187 T01561028 $=
201902242052 METAR KATL 242052Z 30014G26KT 10SM FEW150 SCT250 SCT300 16/01 A3006 RMK AO2 PK WND 30031/2004 SLP177 T01610011 53009 $=
201902241952 METAR KATL 241952Z 30017G25KT 10SM FEW120 SCT300 17/01 A3005 RMK AO2 PK WND 31029/1925 SLP174 T01670011 $=
201902241852 METAR KATL 241852Z 30018G26KT 10SM SCT250 BKN300 17/03 A3003 RMK AO2 PK WND 30033/1807 SLP168 T01720028 $=
201902241752 METAR KATL 241752Z 29020G29KT 10SM FEW045 BKN250 BKN300 17/04 A3003 RMK AO2 PK WND 30034/1737 SLP167 T01720044 10178 20133 53025 $=
201902241652 METAR KATL 241652Z 29022G28KT 10SM FEW040 SCT250 SCT300 17/06 A3001 RMK AO2 PK WND 30028/1652 SLP160 T01720056 $=
201902241552 METAR KATL 241552Z 28020G26KT 10SM SCT250 SCT300 17/06 A2997 RMK AO2 PK WND 27026/1500 SLP149 T01670056 $=
201902241452 METAR KATL 241452Z 27017G24KT 10SM FEW055 SCT250 SCT300 16/06 A2995 RMK AO2 SLP142 T01610061 53016 $=
201902241352 METAR KATL 241352Z 27010KT 10SM FEW055 SCT250 15/07 A2993 RMK AO2 SLP136 T01500067 $=
201902241252 METAR KATL 241252Z 26007KT 10SM FEW055 SCT075 SCT090 SCT200 13/08 A2992 RMK AO2 SLP132 ACC NE-E T01330083 $=
201902241152 METAR KATL 241152Z 27008KT 10SM FEW027 SCT055 BKN070 15/13 A2990 RMK AO2 SLP125 60031 70031 T01500128 10150 20089 53013 $=
201902241052 METAR KATL 241052Z 24004KT 10SM FEW019 BKN050 BKN200 13/12 A2988 RMK AO2 RAE20 SLP120 P0002 T01280117 $=
201902241039 SPECI KATL 241039Z 22003KT 10SM FEW019 BKN049 BKN065 12/12 A2988 RMK AO2 RAE20 P0002 T01220117 $=
201902241024 SPECI KATL 241024Z 00000KT 10SM FEW006 BKN019 BKN045 OVC130 13/12 A2987 RMK AO2 RAE20 P0002 T01280117 $=
201902241013 SPECI KATL 241013Z 32003KT 6SM -RA BR FEW004 SCT024 BKN045 BKN130 BKN200 12/12 A2987 RMK AO2 P0001 T01220117 $=
201902241000 SPECI KATL 241000Z 33006KT 1/4SM R09R/P6000FT RA BR FEW002 BKN007 OVC041 13/12 A2987 RMK AO2 SFC VIS 4 P0001 T01280117 $=
201902240952 METAR KATL 240952Z 26006KT 1/4SM R09R/P6000FT -RA BR OVC004CB 12/11 A2988 RMK AO2 SFC VIS 3 PRESRR SLP118 CIG 003V005 CB OHD-SE-S TWRINC P0026 T01220106 $=
201902240933 SPECI KATL 240933Z 12005KT 1/4SM R09R/P6000FT RA BR OVC004 11/10 A2984 RMK AO2 SFC VIS 3 CIG 003V005 TWRINC P0014 T01110100 $=
201902240923 SPECI KATL 240923Z 13005KT 1/4SM R09R/P6000FT +RA BR OVC004 11/10 A2984 RMK AO2 SFC VIS 2 CIG 003V005 TWRINC P0011 T01060100=
201902240852 METAR KATL 240852Z 13006KT 1/4SM R09R/3000V4000FT -RA BR OVC003 11/09 A2986 RMK AO2 SFC VIS 1 DZE26RAB26 SLP113 TWRINC P0003 60003 T01060094 56030=
201902240830 SPECI KATL 240830Z 13006KT 1/4SM R09R/2000V2400FT -RA FG OVC002 10/09 A2988 RMK AO2 SFC VIS 1/2 DZE26RAB26 P0002 T01000094=
201902240752 METAR KATL 240752Z 13005KT 1/4SM R09R/1800V2000FT -DZ FG VV002 10/09 A2988 RMK AO2 DZE23B27RAB23E27 SLP121 PCPN VRY LGT P0000 T01000094=
201902240723 SPECI KATL 240723Z 12007KT 1/4SM R09R/1800V2200FT -RA FG VV002 10/09 A2989 RMK AO2 DZE23RAB23 PRESFR P0000 T01000089=
201902240652 METAR KATL 240652Z 14007KT 1/4SM R09R/2200V2600FT -DZ FG VV002 09/09 A2992 RMK AO2 SLP133 PCPN VRY LGT P0000 T00940089=
201902240637 SPECI KATL 240637Z 13008KT 1/4SM R09R/2000V3500FT -DZ FG VV002 09/08 A2993 RMK AO2 P0000 T00940083=
201902240625 SPECI KATL 240625Z 12007KT 1/4SM R09R/2000V2200FT -DZ FG VV002 09/08 A2994 RMK AO2 P0000 T00940083=
201902240552 METAR KATL 240552Z 12008KT 1/4SM R09R/2000V2400FT -DZ FG VV002 09/08 A2995 RMK AO2 SLP145 PCPN VRY LGT P0000 60000 T00890083 10094 20089 58026=
201902240452 METAR KATL 240452Z 11010KT 1/4SM R09R/2800V4000FT -DZ FG VV002 09/08 A2999 RMK AO2 SLP155 PCPN VRY LGT P0000 T00890078 401060089=
201902240352 METAR KATL 240352Z 13007KT 1/4SM R09R/3500V4500FT -DZ FG VV002 09/08 A3002 RMK AO2 SFC VIS 1/2 SLP166 P0000 T00890078=
201902240252 METAR KATL 240252Z 11007KT 1/4SM R09R/4500V5500FT -DZ BR VV002 09/08 A3003 RMK AO2 SFC VIS 3/4 SLP173 P0000 60000 T00890083 58001=
201902240152 METAR KATL 240152Z 12011G16KT 1/2SM R09R/P6000FT -DZ BR OVC002 09/08 A3004 RMK AO2 SFC VIS 1 1/2 SLP173 CIG 001V003 TWRINC P0000 T00890078=
201902240052 METAR KATL 240052Z 11010KT 1/2SM R09R/P6000FT -DZ BR OVC002 09/08 A3005 RMK AO2 SFC VIS 1 1/2 SLP177 CIG 001V003 TWRINC P0000 T00890078=
201902232352 METAR KATL 232352Z 10011KT 1/2SM R09R/P6000FT -DZ BR OVC002 09/08 A3004 RMK AO2 SFC VIS 1 1/2 SLP173 CIG 001V003 TWRINC P0000 60000 T00890083 10100 20089 56016=
201902232252 METAR KATL 232252Z 09014KT 1/2SM R09R/P6000FT -DZ BR OVC003 09/08 A3005 RMK AO2 SFC VIS 2 SLP176 CIG 002V004 TWRINC P0000 T00940083=
201902232152 METAR KATL 232152Z 09012G17KT 1/2SM R09R/P6000FT -DZ BR OVC003 10/09 A3006 RMK AO2 SFC VIS 3 SLP179 CIG 002V004 TWRINC P0000 T01000089=
201902232052 METAR KATL 232052Z 10010KT 1/2SM R09R/P6000FT -DZ BR OVC003 10/09 A3008 RMK AO2 SFC VIS 2 1/2 SLP189 TWRINC P0000 60000 T01000089 56016=
201902231952 METAR KATL 231952Z 09012KT 1/2SM R09R/6000VP6000FT -DZ BR OVC003 10/09 A3009 RMK AO2 SFC VIS 1 1/2 SLP191 TWRINC P0000 T01000089=
201902231852 METAR KATL 231852Z 09009KT 1/2SM R09R/P6000FT -DZ BR OVC003 10/09 A3011 RMK AO2 SFC VIS 1 3/4 SLP199 TWRINC P0000 T01000089=
201902231752 METAR KATL 231752Z 10009KT 1/2SM R09R/5000VP6000FT -DZ BR OVC002 10/09 A3013 RMK AO2 SFC VIS 1 1/2 SLP206 P0000 60000 T01000089 10100 20089 58020=
201902231652 METAR KATL 231652Z 09008KT 1/2SM R09R/4500V6000FT -DZ BR OVC002 10/09 A3017 RMK AO2 SFC VIS 1 1/4 SLP216 TWRINC P0000 T01000089=
201902231552 METAR KATL 231552Z 10013G18KT 1/2SM R09R/P6000FT -DZ BR OVC002 09/08 A3017 RMK AO2 SFC VIS 1 1/2 SLP220 TWRINC P0000 T00940083=
201902231452 METAR KATL 231452Z 09011KT 1/2SM R09R/P6000FT -DZ BR OVC003 09/08 A3019 RMK AO2 SFC VIS 1 3/4 SLP227 TWRINC P0000 60000 T00890083 51010=
201902231352 METAR KATL 231352Z 10011KT 1/2SM R09R/P6000FT -DZ BR OVC003 09/08 A3019 RMK AO2 SFC VIS 1 1/2 SLP224 TWRINC P0000 T00940083=
201902231252 METAR KATL 231252Z 10009KT 1/2SM R09R/P6000FT -DZ BR OVC003 09/08 A3018 RMK AO2 SFC VIS 1 3/4 SLP222 TWRINC P0000 T00940083=
201902231152 METAR KATL 231152Z 09012KT 1/2SM R09R/P6000FT -DZ BR OVC003 09/08 A3016 RMK AO2 SFC VIS 2 SLP215 P0000 60000 T00940083 10100 20094 50001=
201902231052 METAR KATL 231052Z 09009KT 1/2SM R09R/P6000FT -DZ BR OVC004 10/09 A3017 RMK AO2 SFC VIS 2 SLP217 CIG 003V005 TWRINC P0000 T01000089=
201902230952 METAR KATL 230952Z 10009KT 1/2SM R09R/P6000FT -DZ BR OVC004 10/09 A3016 RMK AO2 SFC VIS 1 3/4 SLP214 CIG 003V005 TWRINC P0000 T01000089=
201902230852 METAR KATL 230852Z 09011G15KT 1/2SM R09R/P6000FT -DZ BR OVC003 10/09 A3016 RMK AO2 SFC VIS 1 3/4 SLP214 TWRINC P0000 60000 T01000089 58014=
201902230752 METAR KATL 230752Z 10010KT 1/2SM R09R/P6000FT -DZ BR OVC004 10/09 A3017 RMK AO2 SFC VIS 2 SLP217 CIG 003V005 TWRINC P0000 T01000089=
201902230652 METAR KATL 230652Z 10010KT 1/2SM R09R/P6000FT -DZ BR OVC003 10/09 A3020 RMK AO2 SFC VIS 2 SLP224 CIG 002V004 TWRINC P0000 T01000094=
201902230552 METAR KATL 230552Z 09012KT 1/2SM R09R/P6000FT -DZ BR OVC003 10/09 A3020 RMK AO2 SFC VIS 2 SLP226 TWRINC P0000 60000 T01000094 10111 20100 58007=
201902230452 METAR KATL 230452Z 11006KT 1/2SM R09R/P6000FT -DZ BR OVC003 11/09 A3022 RMK AO2 SFC VIS 3 SLP231 TWRINC P0000 T01060094 402170106=
201902230352 METAR KATL 230352Z 10012KT 1/2SM R09R/P6000FT -DZ BR OVC003 11/09 A3023 RMK AO2 SFC VIS 3 SLP236 TWRINC P0000 T01060094=
201902230252 METAR KATL 230252Z 10012KT 1/2SM R09R/P6000FT -DZ BR OVC002 11/09 A3023 RMK AO2 SFC VIS 2 SLP235 TWRINC P0000 60000 T01060094 51007=
201902230152 METAR KATL 230152Z 08014KT 1/2SM R09R/P6000FT -DZ BR OVC003 11/09 A3022 RMK AO2 SFC VIS 3 SLP232 TWRINC P0000 T01110094=
201902230052 METAR KATL 230052Z 07013KT 1/2SM R09R/P6000FT -DZ BR OVC003 11/10 A3021 RMK AO2 SFC VIS 3 SLP232 TWRINC P0000 T01110100=
201902222352 METAR KATL 222352Z 06014KT 1/2SM R09R/P6000FT -DZ BR OVC003 11/10 A3020 RMK AO2 SFC VIS 3 DZB50 SLP228 TWRINC P0000 60000 T01110100 10217 20111 53009=
201902222340 SPECI KATL 222340Z 07014G22KT 1/2SM R09R/P6000FT BR OVC004 11/09 A3020 RMK AO2 SFC VIS 6 CIG 003V005 T01110094=
201902222321 SPECI KATL 222321Z 06012KT 1 1/4SM OVC004 11/09 A3019 RMK AO2 SFC VIS 7 T01110094=
201902222256 SPECI KATL 222256Z 07014KT 2SM OVC005 12/10 A3019 RMK AO2 SFC VIS 8 CIG 004V006 T01170100=
201902222252 METAR KATL 222252Z 07012KT 3SM OVC005 12/10 A3018 RMK AO2 SFC VIS 8 SLP221 CIG 004V006 T01170100=
201902222226 SPECI KATL 222226Z 06013KT 3SM OVC005 12/10 A3017 RMK AO2 SFC VIS 10 CIG 004V006 T01170100=
201902222152 METAR KATL 222152Z 06012KT 7SM OVC006 12/10 A3018 RMK AO2 SLP220 T01220100=
201902222052 METAR KATL 222052Z 06014G21KT 7SM OVC006 13/11 A3018 RMK AO2 SLP217 T01330106 53002=
201902221952 METAR KATL 221952Z 04014KT 6SM HZ OVC007 14/11 A3017 RMK AO2 SLP215 T01390111=
201902221910 SPECI KATL 221910Z 05014KT 6SM BR BKN007 OVC016 15/13 A3016 RMK AO2 T01500128=
201902221852 METAR KATL 221852Z 06016KT 2SM HZ SCT007 BKN010 BKN030 18/15 A3016 RMK AO2 SFC VIS 6 SLP211 T01780150=
201902221800 SPECI KATL 221800Z 00000KT 2SM HZ SCT008 BKN010 BKN030 21/17 A3017 RMK AO2 SFC VIS 5 T02110172=
201902221752 METAR KATL 221752Z 00000KT 2SM HZ BKN008 BKN010 BKN030 21/17 A3017 RMK AO2 SFC VIS 5 SLP213 60000 T02110172 10211 20128 58001=
201902221707 SPECI KATL 221707Z 00000KT 2SM BR OVC006 18/16 A3018 RMK AO2 SFC VIS 5 T01830161=
201902221652 METAR KATL 221652Z 00000KT 1 1/4SM BR OVC005 18/16 A3018 RMK AO2 SFC VIS 4 SLP218 T01780161=
201902221637 SPECI KATL 221637Z 00000KT 1 1/4SM BR OVC005 17/16 A3019 RMK AO2 SFC VIS 4 T01720156=
201902221552 METAR KATL 221552Z 11003KT 1/8SM R09R/2400V3500FT BR OVC003 16/15 A3018 RMK AO2 SFC VIS 1 SLP217 TWRINC T01610150=
201902221452 METAR KATL 221452Z 30003KT 1/8SM R09R/P6000FT FG VV003 14/13 A3017 RMK AO2 SFC VIS 1/4 SLP216 TWRINC 60000 T01440128 53009=
201902221352 METAR KATL 221352Z 00000KT 1/8SM R09R/2600VP6000FT FG VV003 14/13 A3016 RMK AO2 SFC VIS 1/2 SLP210 T01390128=
201902221252 METAR KATL 221252Z 00000KT 1/8SM R09R/5500VP6000FT FG OVC002 13/12 A3015 RMK AO2 SFC VIS 1/2 RAE10DZB10E50 SLP207 CIG 001V003 P0000 T01280122=
201902221152 METAR KATL 221152Z 02003KT 1/8SM R09R/4500VP6000FT -RA FG VV002 13/12 A3015 RMK AO2 SFC VIS 1/2 RAB49 SLP206 P0000 60000 70002 T01280117 10144 20122 53015=
201902221052 METAR KATL 221052Z 33005KT 1/2SM R09R/P6000FT BR OVC002 12/12 A3012 RMK AO2 SFC VIS 3/4 SLP199 CIG 001V003 T01220117=
201902220952 METAR KATL 220952Z 32006KT 1/2SM R09R/P6000FT BR OVC003 13/12 A3011 RMK AO2 SFC VIS 3 SLP194 CIG 002V004 TWRINC T01280117=
201902220852 METAR KATL 220852Z 33007KT 1/2SM R09R/P6000FT BR OVC003 13/12 A3010 RMK AO2 SFC VIS 3 SLP191 CIG 002V004 TWRINC T01280117 53001=
201902220804 SPECI KATL 220804Z 32005KT 1/2SM R09R/P6000FT BR OVC004 13/12 A3009 RMK AO2 SFC VIS 5 CIG 003V005 TWRINC T01330122=
201902220752 METAR KATL 220752Z 31006KT 1/2SM R09R/P6000FT BR OVC005 13/12 A3009 RMK AO2 SFC VIS 6 SLP189 CIG 004V006 T01330122=
201902220652 METAR KATL 220652Z 31003KT 1/2SM R09R/P6000FT BR FEW004 OVC008 14/13 A3010 RMK AO2 SFC VIS 6 SLP190 CIG 007V009 T01390128=
201902220610 SPECI KATL 220610Z 34005KT 1/2SM R09R/P6000FT BR BKN009 OVC014 14/13 A3010 RMK AO2 SFC VIS 5 CIG 008V010 T01440133=
201902220552 METAR KATL 220552Z 07003KT 1/2SM R09R/P6000FT BR FEW002 BKN014 BKN090 BKN200 14/13 A3010 RMK AO2 SFC VIS 6 DZE13 SLP191 P0000 60001 T01440133 10172 20139 50006=
201902220524 SPECI KATL 220524Z 00000KT 1/2SM R09R/P6000FT BR SCT002 BKN008 BKN025 BKN200 14/13 A3011 RMK AO2 SFC VIS 5 DZE13 P0000 T01390133=
201902220452 METAR KATL 220452Z 31010G21KT 1/2SM R09R/4000VP6000FT -DZ BR OVC003 14/13 A3011 RMK AO2 SFC VIS 1 1/2 DZB09 SLP195 CIG 002V005 P0000 T01440133 401830061=
201902220410 SPECI KATL 220410Z 34009G17KT 1/2SM R09R/1200V4000FT -DZ BR VV002 16/14 A3010 RMK AO2 DZB09 P0000 T01560144=
201902220352 METAR KATL 220352Z 00000KT 1/2SM R09R/1200FT FG VV002 16/16 A3009 RMK AO2 SLP189 T01610156=
201902220331 SPECI KATL 220331Z 00000KT 1/2SM R09R/1400V1800FT FG VV002 17/16 A3010 RMK AO2 T01670156=
201902220318 SPECI KATL 220318Z 00000KT 1/2SM R09R/2600VP6000FT BR OVC002 17/16 A3010 RMK AO2 SFC VIS 1 T01670156=
201902220252 METAR KATL 220252Z 10004KT 1SM R09R/P6000FT BR OVC003 16/15 A3008 RMK AO2 SFC VIS 3 SLP185 CIG 002V005 60001 T01610150 53000=
201902220242 SPECI KATL 220242Z 08004KT 1SM R09R/P6000FT BR OVC004 16/14 A3007 RMK AO2 SFC VIS 3 CIG 002V006 T01610144=
201902220203 SPECI KATL 220203Z 10006KT 1 1/2SM BR BKN005 OVC090 16/14 A3008 RMK AO2 SFC VIS 4 CIG 003V008 T01610144=
201902220152 METAR KATL 220152Z 10006KT 3SM BR SCT005 BKN009 OVC090 16/14 A3008 RMK AO2 SFC VIS 4 SLP185 T01610144=
201902220052 METAR KATL 220052Z 07005KT 3SM BR BKN005 OVC040 17/15 A3007 RMK AO2 SFC VIS 6 RAE25 SLP183 P0001 T01670150=
201902220039 SPECI KATL 220039Z 11004KT 3SM BR BKN006 OVC040 17/15 A3009 RMK AO2 SFC VIS 6 RAE25 P0001 T01670150=
201902212352 METAR KATL 212352Z 09005KT 3SM -RA BR BKN006 BKN050 17/15 A3008 RMK AO2 SFC VIS 6 RAB51 SLP185 LTG DSNT SE P0000 60001 T01720150 10183 20128 53002=
201902212252 METAR KATL 212252Z 08005KT 3SM BR BKN008 BKN050 BKN090 17/15 A3007 RMK AO2 SFC VIS 5 SLP183 T01720150=
201902212152 METAR KATL 212152Z 08005KT 3SM BR SCT010 BKN050 BKN080 17/15 A3008 RMK AO2 SFC VIS 5 SLP184 T01720150=
201902212128 SPECI KATL 212128Z 09006KT 3SM BR FEW008 SCT010 BKN080 17/15 A3007 RMK AO2 SFC VIS 6 T01720150=
201902212113 SPECI KATL 212113Z 07005KT 2SM BR FEW005 BKN010 OVC080 17/15 A3007 RMK AO2 SFC VIS 5 T01720150=
201902212052 METAR KATL 212052Z 09004KT 2SM BR FEW005 BKN008 OVC070 17/14 A3007 RMK AO2 SFC VIS 5 RAB24E43 SLP184 P0001 60001 T01670144 56007=
201902212033 SPECI KATL 212033Z 10003KT 2SM R09R/6000VP6000FT -RA BR BKN005 OVC008 17/14 A3007 RMK AO2 SFC VIS 3 RAB24 P0000 T01670144=
201902211952 METAR KATL 211952Z 16004KT 2SM BR OVC006 17/14 A3008 RMK AO2 SFC VIS 5 SLP188 T01670144=
201902211950 SPECI KATL 211950Z 16004KT 2SM BR OVC006 17/14 A3008 RMK AO2 SFC VIS 5=
201902211852 METAR KATL 211852Z 00000KT 1 1/2SM BR OVC005 16/13 A3009 RMK AO2 SFC VIS 4 SLP192 T01560133=
201902211845 SPECI KATL 211845Z 00000KT 1 1/2SM BR OVC005 16/13 A3009 RMK AO2 SFC VIS 4 T01560133=
201902211824 SPECI KATL 211824Z 12004KT 1/2SM R09R/5500VP6000FT BR OVC004 14/12 A3010 RMK AO2 SFC VIS 3 T01390122 $=
201902211752 METAR KATL 211752Z VRB03KT 1/4SM R09R/2600VP6000FT BR BCFG OVC003 13/12 A3012 RMK AO2 SFC VIS 2 SLP200 TWRINC VIS LWR NE-SE BCFG 60000 T01280117 10128 20072 58008=
201902211719 SPECI KATL 211719Z 13004KT 1/4SM R09R/2800VP6000FT BR BCFG BKN003 OVC005 12/11 A3012 RMK AO2 SFC VIS 2 T01220106=
201902211652 METAR KATL 211652Z 00000KT 1/8SM R09R/2400V4500FT BR BCFG OVC003 12/10 A3013 RMK AO2 SFC VIS 1 SLP205 TWRINC VIS LWR NE-SE-S BCFG T01170100=
201902211552 METAR KATL 211552Z 10004KT 1/8SM R09R/P6000FT FG VV003 10/09 A3014 RMK AO2 SFC VIS 1/2 RAB1456E05 SLP208 P0000 T01000089=
201902211452 METAR KATL 211452Z 04005KT 1/8SM R09R/P6000FT BR BCFG VV003 09/08 A3014 RMK AO2 SFC VIS 1 SLP211 TWRINC 60000 T00890078 53015=
201902211352 METAR KATL 211352Z 35003KT 1/8SM R09R/2800VP6000FT FG OVC002 09/08 A3014 RMK AO2 SFC VIS 1/2 RAB22E34 SLP208 P0000 T00890078=
201902211252 METAR KATL 211252Z 00000KT 1/8SM R09R/1800V2400FT FG VV002 08/07 A3010 RMK AO2 SFC VIS 1/4 SLP196 T00780067=
201902211250 SPECI KATL 211250Z 00000KT 1/8SM R09R/1800V2000FT FG VV002 08/07 A3010 RMK AO2 SFC VIS 1/4=
201902211234 SPECI KATL 211234Z 00000KT 1/8SM R09R/2200V4500FT FG VV002 07/07 A3009 RMK AO2 SFC VIS 1/4 T00720067=
201902211206 SPECI KATL 211206Z 14004KT 1/8SM R09R/1800V2200FT FG VV002 07/06 A3007 RMK AO2 SFC VIS 1/4 T00720061=
201902211152 METAR KATL 211152Z 15005KT 1/8SM R09R/2200V3000FT FG VV002 07/06 A3007 RMK AO2 SFC VIS 1/4 DZE47 SLP186 P0000 60016 70142 T00720061 10072 20061 51010=
201902211149 SPECI KATL 211149Z 13005KT 1/8SM R09R/2600V3000FT FG VV002 07/06 A3007 RMK AO2 SFC VIS 1/2 DZE47 P0000=
201902211052 METAR KATL 211052Z 02005KT 1/2SM R09R/6000VP6000FT -DZ BR OVC002 07/06 A3009 RMK AO2 SFC VIS 3/4 RAE03DZB03 SLP192 CIG 001V003 P0001 T00720061=
201902210952 METAR KATL 210952Z 12003KT 1/2SM R09R/P6000FT -RA BR OVC004 07/06 A3004 RMK AO2 SFC VIS 4 LTG DSNT NW SLP176 CIG 003V005 CB DSNT NW TWRINC P0003 T00670056=
201902210921 SPECI KATL 210921Z 12006KT 1/2SM R09R/P6000FT -RA BR OVC004 07/06 A3004 RMK AO2 SFC VIS 3 LTG DSNT N AND NW CIG 003V005 CB DSNT N NW TWRINC P0000 T00670056=
201902210852 METAR KATL 210852Z 11008KT 1/2SM R09R/P6000FT -RA BR OVC005 06/05 A3003 RMK AO2 SFC VIS 4 SLP173 CIG 003V007 P0003 60012 T00610050 58018=
201902210830 SPECI KATL 210830Z 09008KT 1/2SM R09R/P6000FT -RA BR SCT004 OVC007 07/05 A3003 RMK AO2 SFC VIS 5 P0002 T00670050=
201902210752 METAR KATL 210752Z 04006KT 1/2SM R09R/P6000FT -RA BR BKN004 OVC008 07/06 A3006 RMK AO2 SFC VIS 6 LTG DSNT N AND NW SLP185 CIG 003V005 CB DSNT N NW TWRINC P0006 T00670056=
201902210652 METAR KATL 210652Z 08008KT 1/2SM R09R/P6000FT -RA BR OVC003 06/05 A3006 RMK AO2 SFC VIS 5 LTG DSNT E AND W TSE39 SLP183 TS MOV NE CIG 002V004 CB DSNT E W TWRINC P0003 T00610050=
201902210639 SPECI KATL 210639Z 10006KT 1/2SM R09R/P6000FT -RA OVC004 06/05 A3006 RMK AO2 SFC VIS 8 TSE39 TS MOV NE CIG 003V005 TWRINC P0002 T00610050=
201902210552 METAR KATL 210552Z 07009KT 1/2SM R09R/P6000FT -TSRA BR BKN004 OVC010CB 06/05 A3008 RMK AO2 SFC VIS 6 SLP191 FRQ LTGICCA SE-S TS SE-S MOV NE P0005 60096 T00610050 10072 20061 51001=
201902210452 METAR KATL 210452Z 09008KT 1/2SM R09R/P6000FT TSRA BR BKN004 BKN010CB OVC030 07/06 A3008 RMK AO2 SFC VIS 4 SLP190 OCNL LTGICCA OHD-SE TS OHD-SE MOV NE P0048 T00670056 400720039=
201902210352 METAR KATL 210352Z 05008KT 1/2SM R09R/P6000FT -TSRA BR BKN004 BKN008CB OVC020 07/06 A3009 RMK AO2 SFC VIS 4 SLP194 OCNL LTGICCA OHD-ALQDS TS OHD-ALQDS MOV NE P0020 T00670056=
201902210252 METAR KATL 210252Z 10008KT 1/2SM R09R/P6000FT -TSRA BR BKN002 OVC008CB 07/06 A3008 RMK AO2 SFC VIS 1 1/2 RAE0155B22 TSB48 SLP190 OCNL LTGICCG SW-W TS SW-W MOV NE P0001 60023 T00670056 53003=
201902210248 SPECI KATL 210248Z 09008KT 1/2SM R09R/P6000FT -TSRA BR BKN002 OVC008CB 07/06 A3007 RMK AO2 SFC VIS 1 1/2 RAE0155B22 TSB48 OCNL LTGICCG SW-W TS SW-W MOV NE P0001=
201902210152 METAR KATL 210152Z 09004KT 1/2SM R09R/P6000FT -RA BR OVC003 07/06 A3005 RMK AO2 SFC VIS 6 SLP182 CIG 002V005 LTG DSNT NW P0004 T00720061=
201902210052 METAR KATL 210052Z 10009KT 1/2SM R09R/P6000FT -RA BR BKN004 OVC020 07/06 A3005 RMK AO2 SFC VIS 6 TSE52 SLP181 CIG 003V006 OCNL LTG DSNT NE-SE TS MOV NE P0018 T00670056=
201902202352 METAR KATL 202352Z 09009KT 1/2SM R09R/P6000FT -TSRA BR BKN003 OVC010CB 07/06 A3007 RMK AO2 SFC VIS 3 TSE12B50 SLP187 OCNL LTGIC SW-NW TS SW-NW MOV NE P0015 60025 T00670056 10072 20061 50003=
201902202350 SPECI KATL 202350Z 09008KT 1/2SM R09R/P6000FT -TSRA BR BKN003 OVC010CB 07/06 A3007 RMK AO2 SFC VIS 3 TSE12B50 OCNL LTGIC SW-NW TS SW-NW MOV NE P0015=
201902202342 SPECI KATL 202342Z 10007KT 1/2SM R09R/P6000FT -RA BR BKN004 OVC030 07/06 A3007 RMK AO2 SFC VIS 5 TSE12 CIG 003V007 LTG DSNT SW-NW P0014 T00670056=
201902202327 SPECI KATL 202327Z 11009KT 2SM -RA SCT003 BKN007 OVC030 07/06 A3006 RMK AO2 SFC VIS 8 TSE12 LTG DSNT SW-NW P0014 T00670056=
201902202312 SPECI KATL 202312Z 11008KT 1/4SM R09R/P6000FT -RA BR BKN003 BKN010 OVC050 07/06 A3005 RMK AO2 SFC VIS 6 TSE12 LTG DSNT NE TS MOV NE P0014 T00670056=
201902202252 METAR KATL 202252Z 07008KT 1/4SM R09R/5000VP6000FT TSRA BR BKN002 OVC010CB 07/06 A3008 RMK AO2 SFC VIS 1 1/2 DZE33RAB33 TSB33 SLP190 OCNL LTGICCG OHD-ALQDS TS OHD-ALQDS MOV NE P0010 T00670061=
201902202233 SPECI KATL 202233Z 09009KT 1/4SM R09R/6000VP6000FT -TSRA BR BKN002 OVC010CB 07/06 A3007 RMK AO2 SFC VIS 1 DZE33RAB33 TSB33 OCNL LTGIC SW-NW TS SW-NW MOV NE P0000 T00720061=
201902202152 METAR KATL 202152Z 10007KT 1/4SM R09R/5000V6000FT -DZ BR OVC003 07/06 A3007 RMK AO2 SFC VIS 3/4 SLP187 P0000 T00720061=
201902202052 METAR KATL 202052Z 09011KT 1/4SM R09R/4000V5500FT -DZ BR OVC002 07/06 A3006 RMK AO2 SFC VIS 3/4 SLP184 TWRINC P0000 60000 T00720061 58021=
201902201952 METAR KATL 201952Z 10011KT 1/2SM R09R/6000VP6000FT -DZ BR OVC003 07/06 A3008 RMK AO2 SFC VIS 1 1/4 SLP192 P0000 T00670056=
201902201852 METAR KATL 201852Z 10009KT 1/2SM R09R/5500V6000FT -DZ BR OVC003 07/06 A3011 RMK AO2 SFC VIS 1 SLP199 TWRINC P0000 T00670056=
201902201752 METAR KATL 201752Z 09012KT 1/2SM R09R/P6000FT -DZ BR OVC004 06/05 A3013 RMK AO2 SFC VIS 2 1/2 SLP206 P0000 60005 T00610050 10067 20044 58009=
201902201652 METAR KATL 201652Z 09012KT 1/2SM R09R/5500VP6000FT -DZ BR OVC004 06/04 A3015 RMK AO2 SFC VIS 1 SLP214 P0000 T00560044=
201902201552 METAR KATL 201552Z 09013KT 1/2SM R09R/P6000FT -DZ BR OVC004 06/04 A3015 RMK AO2 SFC VIS 2 SLP215 P0000 T00560039=
201902201452 METAR KATL 201452Z 10013G20KT 1/2SM R09R/P6000FT -DZ BR OVC004 05/04 A3015 RMK AO2 SFC VIS 2 SLP217 P0000 60005 T00500039 58013=
201902201352 METAR KATL 201352Z 10014G21KT 3/4SM R09R/P6000FT -DZ BR OVC004 04/03 A3018 RMK AO2 SFC VIS 2 RAE43DZB43 SLP228 CIG 003V006 P0004 T00440033=
201902201330 SPECI KATL 201330Z 09012KT 3/4SM R09R/P6000FT -RA BR OVC004 04/03 A3018 RMK AO2 SFC VIS 1 1/2 CIG 003V005 P0004 T00440033=
201902201252 METAR KATL 201252Z 09014KT 1SM R09R/P6000FT -RA BR OVC004 04/03 A3020 RMK AO2 SFC VIS 3 DZE41RAB41 SLP233 CIG 003V006 P0001 T00440033=
201902201211 SPECI KATL 201211Z 09010KT 1SM R09R/P6000FT -DZ BR OVC004 04/03 A3019 RMK AO2 SFC VIS 2 1/2 CIG 003V006 P0000 T00440028=
201902201152 METAR KATL 201152Z 09013KT 1 1/2SM -DZ BR OVC004 04/03 A3019 RMK AO2 SFC VIS 2 SLP231 CIG 003V006 P0000 60002 70079 T00440028 10050 20039 55010=
201902201124 SPECI KATL 201124Z 08010KT 1 1/2SM -DZ BR OVC004 04/03 A3020 RMK AO2 SFC VIS 2 1/2 CIG 003V006 P0000 T00440028=
201902201052 METAR KATL 201052Z 10012KT 1 1/2SM -DZ BR OVC005 04/03 A3018 RMK AO2 SFC VIS 3 SLP225 CIG 003V007 P0000 T00390028=
201902200952 METAR KATL 200952Z 09010KT 1 1/2SM -DZ BR OVC005 04/03 A3021 RMK AO2 SFC VIS 2 1/2 DZE13B40RAB13E40 SLP235 CIG 003V007 P0001 T00440033=
201902200942 SPECI KATL 200942Z 09013KT 1 1/2SM -DZ BR OVC006 04/03 A3021 RMK AO2 SFC VIS 2 1/2 DZE13B40RAB13E40 CIG 004V008 P0001 T00440028=
201902200852 METAR KATL 200852Z 09013G18KT 3SM -DZ BR OVC006 04/03 A3022 RMK AO2 SLP241 CIG 005V008 P0000 60001 T00440033 58012=
201902200752 METAR KATL 200752Z 10015G19KT 3SM -DZ BR OVC005 05/03 A3024 RMK AO2 DZE06B52RAB06E52 SLP247 CIG 004V007 P0001 T00500033=
201902200652 METAR KATL 200652Z 11015G24KT 3SM -DZ BR OVC006 04/03 A3025 RMK AO2 RAE28DZB28 SLP249 CIG 004V008 P0000 T00440033=
201902200552 METAR KATL 200552Z 11014G22KT 8SM -RA BKN007 OVC015 05/03 A3026 RMK AO2 RAB31 SLP252 P0000 60007 T00500028 10050 20033 58015=
201902200452 METAR KATL 200452Z 11017G25KT 8SM BKN007 OVC020 04/03 A3028 RMK AO2 PK WND 10030/0430 SLP258 T00440028 400940033=
201902200352 METAR KATL 200352Z 11014G21KT 8SM BKN007 OVC020 04/03 A3029 RMK AO2 PK WND 10028/0328 RAE43 SLP264 P0000 T00440028=
201902200252 METAR KATL 200252Z 09019G24KT 8SM -RA BKN007 BKN015 OVC030 04/02 A3031 RMK AO2 SLP268 P0003 60007 T00390022 56007=
201902200213 SPECI KATL 200213Z 10012G21KT 5SM -RA BR SCT006 BKN012 OVC030 04/02 A3031 RMK AO2 P0003 T00390022=
201902200152 METAR KATL 200152Z 11012KT 2SM RA BR BKN007 OVC015 03/02 A3031 RMK AO2 PK WND 10029/0059 SLP270 P0003 T00330022=
201902200145 SPECI KATL 200145Z 10014G25KT 2SM RA BR BKN007 OVC015 03/02 A3031 RMK AO2 PK WND 10029/0059 P0001 T00330017=
201902200052 METAR KATL 200052Z 09019G29KT 5SM -RA BR BKN007 OVC015 03/02 A3030 RMK AO2 PK WND 08029/0046 SLP267 P0001 T00330017=
201902200043 SPECI KATL 200043Z 09016G27KT 5SM -RA BR BKN007 OVC015 03/02 A3031 RMK AO2 PK WND 08027/0039 P0001 T00330017=
201902192352 METAR KATL 192352Z 08018G26KT 1 1/2SM -RA BR BKN007 BKN012 OVC025 03/02 A3033 RMK AO2 PK WND 09026/2344 SFC VIS 2 SLP275 P0010 60055 T00330017 10067 20033 50007=
201902192252 METAR KATL 192252Z 08017KT 1 1/2SM RA BR BKN007 BKN013 OVC025 04/02 A3034 RMK AO2 SLP280 P0006 T00440022=
201902192243 SPECI KATL 192243Z 06016KT 1 1/2SM RA BR BKN007 BKN013 OVC025 04/03 A3036 RMK AO2 PRESRR P0005 T00440028=
201902192152 METAR KATL 192152Z 10009G24KT 2SM -RA BR BKN007 BKN025 OVC050 04/03 A3031 RMK AO2 SFC VIS 3 SLP270 P0006 T00440028=
201902192052 METAR KATL 192052Z 09017KT 2SM -RA BR BKN006 BKN030 OVC050 05/03 A3030 RMK AO2 SFC VIS 3 LTG DSNT NW-NE SLP267 P0001 60033 T00500033 58023=
201902192047 SPECI KATL 192047Z 08014KT 2SM -RA BR BKN006 BKN030 OVC050 05/03 A3030 RMK AO2 SFC VIS 2 1/2 LTG DSNT N AND NW P0001=
201902192012 SPECI KATL 192012Z 08016KT 5SM -RA BR FEW008 BKN040 OVC060 06/04 A3031 RMK AO2 P0000 T00560039=
201902191952 METAR KATL 191952Z 08018KT 5SM -RA BR FEW010 BKN040 OVC060 06/04 A3032 RMK AO2 WSHFT 1844 LTG DSNT NE TSE00 SLP271 TS MOV NE P0005 T00610039=
201902191926 SPECI KATL 191926Z 07018KT 5SM -RA BR FEW007 BKN040 OVC060 06/04 A3034 RMK AO2 WSHFT 1844 LTG DSNT N AND NW TSE00 TS MOV NE P0004 T00610039=
201902191900 SPECI KATL 191900Z 05016KT 3SM VCTS -RA BR FEW007 BKN030CB OVC050 06/04 A3038 RMK AO2 WSHFT 1844 LTG DSNT W-NE TSE00 OCNL LTGICCG NW-N-NE TS VC NW-N-NE MOV NE P0002 T00610039=
201902191852 METAR KATL 191852Z 06017G22KT 3SM -TSRA BR SCT007 BKN030CB OVC050 06/04 A3036 RMK AO2 WSHFT 1750 LTG DSNT ALQDS TSB06 SLP286 FRQ LTGICCG W-N-NE TS W-N-NE MOV NE P0027 T00610039=
201902191849 SPECI KATL 191849Z 05018G22KT 2SM -TSRA BR SCT007 BKN030CB OVC050 06/04 A3037 RMK AO2 WSHFT 1750 SFC VIS 3 LTG DSNT ALQDS TSB06 FRQ LTGICCG SW-NW-NE TS SW-NW-NE MOV NE P0027=
201902191827 SPECI KATL 191827Z 06012KT 2SM +TSRA BR BKN030CB OVC050 06/04 A3037 RMK AO2 WSHFT 1750 SFC VIS 3 LTG DSNT ALQDS TSB06 FRQ LTGICCG SW-NW-NE TS SW-NW-NE MOV NE P0025 T00610039=
201902191814 SPECI KATL 191814Z 04013KT 2SM R09R/5500VP6000FT +TSRA BR BKN030CB OVC050 06/04 A3038 RMK AO2 WSHFT 1750 LTG DSNT W-NE TSB06 FRQ LTGICCG OHD-SW-NW-NE TS OHD-SW-NW-NE MOV NE P0013 T00610039=
201902191806 SPECI KATL 191806Z 35011KT 2SM +TSRA BR BKN030CB OVC050 07/04 A3044 RMK AO2 WSHFT 1750 SFC VIS 3 LTG DSNT W-NE TSB06 PRESRR FRQ LTGICCG SW-NW TS SW-NW MOV NE P0004 T00670039=
201902191802 SPECI KATL 191802Z 36015KT 2SM VCTS RA BR OVC040CB 07/04 A3040 RMK AO2 SFC VIS 3 LTG DSNT W PRESRR OCNL LTGICCG NE W TS VC NE W MOV NE P0003 T00670044=
201902191752 METAR KATL 191752Z 06016KT 2SM VCTS RA BKN040CB OVC050 07/04 A3034 RMK AO2 SFC VIS 3 LTG DSNT NE AND W TSB15E32 PRESFR SLP280 OCNL LTGICCG NE-SE W TS VC NE-SE W MOV NE P0015 60015 T00670039 10094 20067 56021=
201902191750 SPECI KATL 191750Z 05017KT 2SM VCTS RA BKN040CB OVC050 07/04 A3035 RMK AO2 SFC VIS 3 LTG DSNT NE AND W TSB15E32 PRESFR OCNL LTGICCG NE-SE-SW TS VC NE-SE-SW MOV NE P0014=
201902191737 SPECI KATL 191737Z 07017KT 3SM VCTS RA OVC045CB 07/04 A3037 RMK AO2 SFC VIS 4 LTG DSNT NE AND SE TSB15E32 PRESFR OCNL LTGICCG NE SE-SW TS VC NE SE-SW MOV NE P0010 T00720039=
201902191733 SPECI KATL 191733Z 06013KT 3SM RA OVC045 07/03 A3038 RMK AO2 SFC VIS 4 LTG DSNT NE AND SE TSB15E32 PRESFR TS MOV NE P0009 T00720033=
201902191716 SPECI KATL 191716Z 07012KT 3SM TSRA BKN040CB OVC060 08/03 A3042 RMK AO2 SFC VIS 4 LTG DSNT SW TSB15 PRESRR OCNL LTGICCG SW-NW TS SW-NW MOV NE P0002 T00780028=
201902191708 SPECI KATL 191708Z 07011KT 10SM VCTS -RA BKN040CB OVC060 08/03 A3039 RMK AO2 LTG DSNT SW AND W OCNL LTGICCG SW-NW TS VC SW-NW MOV E P0000 T00780028=
201902191703 SPECI KATL 191703Z 08013G20KT 10SM VCTS -RA BKN050CB OVC060 08/03 A3037 RMK AO2 LTG DSNT SW AND W OCNL LTGICCG SW-W TS VC SW-W MOV E P0000 T00780028=
201902191652 METAR KATL 191652Z 08014KT 10SM -RA OVC050 08/02 A3038 RMK AO2 LTG DSNT SW AND W RAB48 SLP289 CB DSNT W P0000 T00830022=
201902191552 METAR KATL 191552Z 08018KT 10SM OVC060 09/02 A3041 RMK AO2 PK WND 08027/1520 SLP301 T00890022=
201902191452 METAR KATL 191452Z 08015KT 10SM OVC060 09/01 A3043 RMK AO2 SLP308 SHRA DSNT N-NE T00890011 50015=
201902191352 METAR KATL 191352Z 05010KT 10SM FEW025 OVC065 09/01 A3044 RMK AO2 SLP310 VIRGA NW-N T00890011=
201902191252 METAR KATL 191252Z 03012KT 10SM BKN065 OVC080 08/01 A3042 RMK AO2 SLP304 VIRGA NW-N T00780011=
201902191152 METAR KATL 191152Z 01008KT 10SM BKN065 OVC080 07/01 A3038 RMK AO2 SLP292 T00720006 10078 20067 51023=
201902191052 METAR KATL 191052Z 35010KT 10SM BKN070 OVC100 07/00 A3037 RMK AO2 SLP288 T00670000=
201902190952 METAR KATL 190952Z 33011KT 10SM BKN075 07/M01 A3035 RMK AO2 PRESRR SLP279 T00721006=
201902190852 METAR KATL 190852Z 01008KT 10SM BKN080 07/00 A3031 RMK AO2 SLP266 T00720000 58007=
201902190752 METAR KATL 190752Z 35008KT 10SM BKN085 07/00 A3032 RMK AO2 SLP270 T00720000=
201902190652 METAR KATL 190652Z 34008KT 10SM BKN090 08/M01 A3033 RMK AO2 SLP272 T00781006=
201902190552 METAR KATL 190552Z 34010KT 10SM OVC100 08/M01 A3034 RMK AO2 SLP274 T00781006 10106 20078 50001=
201902190452 METAR KATL 190452Z 32008KT 10SM BKN100 OVC150 08/00 A3034 RMK AO2 SLP276 T00830000 401560078=
201902190352 METAR KATL 190352Z 34012KT 10SM BKN110 OVC150 08/00 A3034 RMK AO2 SLP277 VIRGA SE-SW T00830000=
201902190252 METAR KATL 190252Z 33007KT 10SM BKN110 OVC150 09/01 A3033 RMK AO2 SLP274 VIRGA OHD-ALQDS T00890011 53022=
201902190152 METAR KATL 190152Z 33007KT 10SM BKN110 OVC150 09/01 A3031 RMK AO2 SLP267 VIRGA OHD-ALQDS T00940006=
201902190052 METAR KATL 190052Z 33010KT 10SM BKN120 BKN150 BKN250 10/M01 A3028 RMK AO2 SLP255 VIRGA NE-OHD-SW T01001006=
201902182352 METAR KATL 182352Z 32009KT 10SM SCT120 BKN150 BKN250 11/M02 A3026 RMK AO2 SLP250 VIRGA NE-OHD-SW T01061017 10156 20106 53023=
201902182252 METAR KATL 182252Z 33011KT 10SM FEW110 BKN150 BKN250 11/M03 A3022 RMK AO2 SLP235 VIRGA DSNT SE-SW & NW-NE T01111028=
201902182152 METAR KATL 182152Z 35014G20KT 10SM FEW100 BKN160 BKN250 14/M04 A3021 RMK AO2 SLP231 VIRGA DSNT NW-N T01391044=
201902182052 METAR KATL 182052Z 34013G20KT 10SM FEW100 BKN180 BKN250 15/M03 A3019 RMK AO2 SLP225 VIRGA DSNT NW T01501028 56008=
201902181952 METAR KATL 181952Z 33012G20KT 10SM FEW100 SCT180 BKN250 15/M02 A3020 RMK AO2 SLP225 T01501017=
201902181852 METAR KATL 181852Z 32011KT 10SM FEW100 SCT150 BKN250 13/01 A3020 RMK AO2 SLP229 T01330006=
201902181752 METAR KATL 181752Z 31010KT 10SM FEW100 FEW150 BKN250 13/03 A3022 RMK AO2 SLP234 T01330033 10133 20078 51013=
201902181652 METAR KATL 181652Z 32015KT 10SM FEW090 FEW150 SCT250 12/03 A3022 RMK AO2 SLP234 T01170028=
201902181552 METAR KATL 181552Z 32014KT 10SM FEW020 FEW090 BKN250 10/04 A3020 RMK AO2 SLP229 T01000039=
201902181452 METAR KATL 181452Z 33013G20KT 10SM FEW015 SCT080 SCT250 09/04 A3018 RMK AO2 SLP222 T00890044 51043=
201902181435 SPECI KATL 181435Z 33017G20KT 10SM FEW015 FEW080 SCT250 09/04 A3016 RMK AO2 T00890044=
201902181352 METAR KATL 181352Z 32013KT 10SM BKN014 BKN200 09/06 A3013 RMK AO2 SLP206 T00890056=
201902181252 METAR KATL 181252Z 31011KT 10SM BKN013 OVC070 08/06 A3010 RMK AO2 SLP195 BINOVC T00830056=
201902181152 METAR KATL 181152Z 31011KT 10SM BKN013 BKN065 BKN090 08/06 A3005 RMK AO2 SLP178 BKN013 V SCT 60006 70014 T00830056 10100 20083 53020=
201902181107 SPECI KATL 181107Z 29010KT 10SM FEW007 FEW011 OVC060 09/06 A3003 RMK AO2 T00890061=
201902181052 METAR KATL 181052Z 29009KT 10SM FEW007 SCT013 OVC055 09/07 A3000 RMK AO2 RAE44DZB0959E06 SLP162 P0001 T00940067=
201902181020 SPECI KATL 181020Z 32005KT 10SM -RA SCT006 OVC050 10/08 A2998 RMK AO2 DZB0959E06 P0001 T01000083=
201902180952 METAR KATL 180952Z 29008KT 6SM -RA BR BKN006 OVC045 10/08 A3000 RMK AO2 SLP160 RAE21B46DZB21E46 CIG 005V009 P0000 T01000083=
201902180852 METAR KATL 180852Z 30006KT 3SM RA BR BKN004 BKN036 OVC050 09/08 A2999 RMK AO2 DZB03E28RAB28E31B34 SLP156 BKN004 V SCT CIG 003V005 P0005 60005 T00940078 53014=
201902180847 SPECI KATL 180847Z 30007KT 3SM -RA BR BKN004 BKN036 OVC050 09/08 A2999 RMK AO2 DZB03E28RAB28E31B34 CIG 003V005 P0004=
201902180840 SPECI KATL 180840Z 30005KT 2SM RA BR BKN004 OVC033 09/08 A2999 RMK AO2 DZB03E28RAB28E31B34 VIS SE-SW 1 1/2 CIG 003V005 P0002 T00890078=
201902180831 SPECI KATL 180831Z 29006KT 3SM BR OVC004 09/08 A3000 RMK AO2 DZB03E28RAB28E31 VIS SE-SW 1 1/2 CIG 003V005 P0001 T00890078=
201902180821 SPECI KATL 180821Z 28005KT 2SM -DZ BR OVC004 09/08 A2999 RMK AO2 DZB03 CIG 003V005 P0000 T00890078=
201902180804 SPECI KATL 180804Z 31004KT 5SM -DZ BR OVC004 09/08 A2998 RMK AO2 DZB03 CIG 003V005 P0000 T00890078=
201902180752 METAR KATL 180752Z 32005KT 6SM BR OVC005 09/07 A2997 RMK AO2 SLP150 CIG 004V007 T00890072=
201902180652 METAR KATL 180652Z 32004KT 6SM BR BKN007 OVC013 09/07 A2995 RMK AO2 DZE10 SLP143 CIG 006V009 P0000 T00890072=
201902180610 SPECI KATL 180610Z 00000KT 10SM SCT004 BKN009 OVC036 09/07 A2994 RMK AO2 DZE10 CIG 008V011 P0000 T00890072=
201902180552 METAR KATL 180552Z 31004KT 8SM -DZ BKN004 OVC036 09/07 A2994 RMK AO2 DZB44 SLP142 P0000 60006 T00890072 10100 20083 51012=
201902180452 METAR KATL 180452Z 35005KT 10SM SCT005 OVC034 08/07 A2993 RMK AO2 RAE0359 SLP139 P0000 T00830072 401000083=
201902180413 SPECI KATL 180413Z 04005KT 10SM FEW006 SCT014 OVC030 08/07 A2992 RMK AO2 RAE0359 P0000 T00830072=
201902180352 METAR KATL 180352Z 04008KT 7SM -RA SCT006 BKN012 OVC020 09/08 A2992 RMK AO2 WSHFT 0252 DZE05RAB05 SLP134 CIG 010V014 P0006 T00890078=
201902180335 SPECI KATL 180335Z 01010KT 5SM RA BR BKN006 OVC014 09/08 A2992 RMK AO2 WSHFT 0252 DZE05RAB05 CIG 004V008 P0005 T00890078=
201902180326 SPECI KATL 180326Z 34012G18KT 1 1/2SM -RA BR OVC003 09/09 A2992 RMK AO2 WSHFT 0252 SFC VIS 2 1/2 DZE05RAB05 CIG 002V004 P0001 T00940089=
201902180308 SPECI KATL 180308Z 33010KT 1/4SM R09R/3000VP6000FT -RA BR OVC002 10/09 A2991 RMK AO2 WSHFT 0252 SFC VIS 1 DZE05RAB05 FROPA P0000 T01000089=
201902180252 METAR KATL 180252Z 35010KT 1/4SM R09R/2000VP6000FT -DZ FG VV002 10/09 A2991 RMK AO2 SFC VIS 1/2 DZE03B43RAB03E43 PRESRR SLP129 PCPN VRY LGT P0000 60000 T01000094 53015=
201902180249 SPECI KATL 180249Z 16004KT 1/4SM R09R/1800V3500FT -DZ FG VV002 10/09 A2989 RMK AO2 DZE03B43RAB03E43 PRESRR PCPN VRY LGT P0000=
201902180208 SPECI KATL 180208Z VRB04KT 1/4SM R09R/1600V2000FT -RA FG VV002 09/09 A2985 RMK AO2 DZE03RAB03 P0000 T00940089=
201902180152 METAR KATL 180152Z 14006KT 1/4SM R09R/1800V2400FT -DZ FG VV002 09/09 A2986 RMK AO2 SLP113 PCPN VRY LGT P0000 T00940089=
201902180052 METAR KATL 180052Z 10009KT 1/4SM R09R/1800V2600FT -DZ FG VV002 09/08 A2986 RMK AO2 SLP113 PCPN VRY LGT P0000 T00940083=
201902180047 SPECI KATL 180047Z 10008KT 1/4SM R09R/1800V2600FT -DZ FG VV002 09/08 A2986 RMK AO2 PCPN VRY LGT P0000=
201902180037 SPECI KATL 180037Z 10006KT 1/4SM R09R/1800V2200FT -DZ FG VV002 09/09 A2986 RMK AO2 PCPN VRY LGT P0000 T00940089=
201902172352 METAR KATL 172352Z 11010KT 1/4SM R09R/1800V2800FT -DZ FG VV002 09/08 A2987 RMK AO2 SLP117 PCPN VRY LGT P0000 60000 T00940083 10100 20089 55002=
201902172252 METAR KATL 172252Z 10009KT 1/4SM R09R/1800V2400FT -DZ FG VV002 09/08 A2986 RMK AO2 TWR VIS 1/4 RAE00DZB00 SLP113 PCPN VRY LGT P0000 T00940083=
201902172243 SPECI KATL 172243Z 12009KT 1/4SM R09R/1800V3000FT -DZ FG VV002 09/08 A2985 RMK AO2 TWR VIS 1/4 RAE00DZB00 P0000 T00940083=
201902172235 SPECI KATL 172235Z 11011KT 1/4SM R09R/1800V2200FT -DZ FG VV002 09/08 A2986 RMK AO2 TWR VIS 1/4 RAE00DZB00 P0000 T00940083=
201902172224 SPECI KATL 172224Z 10009KT 1/4SM R09R/1800V2600FT -DZ FG VV002 09/08 A2986 RMK AO2 TWR VIS 1/4 RAE00DZB00 P0000 T00940083=
201902172202 SPECI KATL 172202Z 08011KT 1/4SM R09R/1600V2200FT -DZ FG VV002 09/08 A2987 RMK AO2 RAE00DZB00 P0000 T00940083=
201902172152 METAR KATL 172152Z 11009KT 1/4SM R09R/1800V2400FT -RA FG VV002 09/09 A2987 RMK AO2 DZE35RAB35 SLP117 P0000 T00940089=
201902172052 METAR KATL 172052Z 10010KT 1/4SM R09R/2200V3000FT -DZ FG OVC002 09/08 A2988 RMK AO2 SFC VIS 1/2 RAB25E38 SLP120 P0000 60000 T00940083 56026=
201902171952 METAR KATL 171952Z 10010KT 1/4SM R09R/3500V4500FT -DZ BR OVC002 10/09 A2990 RMK AO2 SFC VIS 3/4 DZB47 SLP127 TWRINC P0000 T01000089=
201902171852 METAR KATL 171852Z 10008KT 1/4SM R09R/P6000FT BR OVC002 10/08 A2992 RMK AO2 SFC VIS 1 SLP132 TWRINC T01000083=
201902171816 SPECI KATL 171816Z 10007KT 1/4SM R09R/P6000FT BR OVC004 09/08 A2995 RMK AO2 SFC VIS 2 TWRINC T00940083=
201902171804 SPECI KATL 171804Z 10008KT 1/2SM R09R/P6000FT BR OVC004 10/08 A2996 RMK AO2 SFC VIS 3 T01000083=
201902171752 METAR KATL 171752Z 10010KT 1 1/4SM BR OVC004 09/08 A2996 RMK AO2 SFC VIS 3 RAE1653 SLP147 TWRINC P0001 60002 T00940078 10100 20094 50005=
201902171739 SPECI KATL 171739Z 09009KT 1 1/4SM BR OVC004 10/08 A2997 RMK AO2 SFC VIS 2 RAE1653 TWRINC P0001 T01000083=
201902171737 SPECI KATL 171737Z 10007KT 3/4SM R09R/P6000FT BR OVC004 09/08 A2996 RMK AO2 SFC VIS 1 1/2 RAE1653 TWRINC P0001 T00940083=
201902171652 METAR KATL 171652Z 10009KT 1/4SM R09R/P6000FT -RA BR OVC004 09/08 A2998 RMK AO2 SFC VIS 1 1/2 RAB25 SLP154 TWRINC P0000 T00940083=
201902171619 SPECI KATL 171619Z 12009KT 1/2SM R09R/P6000FT BR OVC004 09/08 A2997 RMK AO2 SFC VIS 4 TWRINC T00940078=
201902171552 METAR KATL 171552Z 10008KT 2SM BR OVC004 09/08 A2996 RMK AO2 SFC VIS 4 RAB06E46 SLP147 TWRINC P0001 T00940083=
201902171452 METAR KATL 171452Z 10011KT 2SM BR OVC004 09/08 A2995 RMK AO2 SFC VIS 5 SLP142 TWRINC 60000 T00940078 50011=
201902171352 METAR KATL 171352Z 10010KT 2SM BR OVC004 09/08 A2995 RMK AO2 SFC VIS 6 SLP145 T00940078=
201902171332 SPECI KATL 171332Z 10010KT 2SM BR OVC004 09/08 A2995 RMK AO2 SFC VIS 6 T00940078=
201902171321 SPECI KATL 171321Z 10009KT 2SM BR OVC005 09/08 A2994 RMK AO2 SFC VIS 6 T00940078=
201902171252 METAR KATL 171252Z 09010KT 6SM BR OVC005 09/08 A2994 RMK AO2 SLP140 RAB08E45 P0000 T00940078=
201902171152 METAR KATL 171152Z 11008KT 8SM OVC005 10/08 A2991 RMK AO2 DZE16RAB16E26 SLP130 P0000 60000 70011 T01000083 10100 20094 53014=
201902171052 METAR KATL 171052Z 10009KT 8SM -DZ OVC006 10/08 A2989 RMK AO2 RAB10E23B43E52DZB52 SLP122 CIG 005V007 P0000 T01000083=
201902170952 METAR KATL 170952Z 10009KT 8SM OVC006 10/08 A2988 RMK AO2 RAB01E44 SLP118 CIG 005V008 P0000 T01000083=
201902170852 METAR KATL 170852Z 09009KT 8SM OVC006 10/08 A2987 RMK AO2 RAB36E50 SLP114 P0000 60000 T01000078 56002=
201902170752 METAR KATL 170752Z 08007KT 10SM OVC007 10/07 A2987 RMK AO2 SLP115 T01000072=
201902170724 SPECI KATL 170724Z 08006KT 10SM BKN008 BKN031 OVC085 10/07 A2988 RMK AO2 T01000072=
201902170721 SPECI KATL 170721Z 08005KT 10SM SCT008 SCT031 SCT085 10/07 A2988 RMK AO2 T01000072=
201902170652 METAR KATL 170652Z 11006KT 10SM FEW010 FEW032 BKN140 BKN180 BKN250 10/07 A2987 RMK AO2 SLP114 T01000067=
201902170552 METAR KATL 170552Z 10007KT 10SM FEW032 BKN140 OVC200 09/07 A2988 RMK AO2 SLP116 T00940067 10117 20094 53001=
201902170452 METAR KATL 170452Z 06005KT 10SM FEW033 SCT140 BKN180 OVC250 10/07 A2987 RMK AO2 SLP114 T01000067 401720094=
201902170352 METAR KATL 170352Z 01004KT 10SM FEW033 BKN180 BKN250 09/07 A2987 RMK AO2 SLP113 T00940067=
201902170325 SPECI KATL 170325Z 36005KT 10SM FEW010 BKN033 OVC200 09/07 A2988 RMK AO2 T00940067=
201902170252 METAR KATL 170252Z 33005KT 10SM FEW010 BKN200 BKN250 09/07 A2988 RMK AO2 SLP117 T00940067 53017=
201902170152 METAR KATL 170152Z 35006KT 10SM FEW010 BKN180 BKN250 10/07 A2985 RMK AO2 SLP108 T01000067=
201902170052 METAR KATL 170052Z 33009KT 10SM SCT011 BKN180 BKN250 11/07 A2984 RMK AO2 SLP102 T01060072=
201902162352 METAR KATL 162352Z 33007KT 10SM FEW012 SCT022 SCT200 BKN250 12/08 A2982 RMK AO2 SLP098 T01170078 10172 20117 53015=
201902162252 METAR KATL 162252Z 34009KT 10SM FEW022 FEW150 BKN200 BKN250 13/08 A2981 RMK AO2 SLP092 T01330083=
201902162152 METAR KATL 162152Z 32008KT 10SM FEW024 SCT200 BKN250 16/09 A2979 RMK AO2 SLP085 T01560094=
201902162052 METAR KATL 162052Z 31009KT 10SM FEW025 BKN250 16/10 A2978 RMK AO2 SLP080 T01610100 55002=
201902161952 METAR KATL 161952Z 31012KT 10SM FEW026 BKN250 17/10 A2977 RMK AO2 SLP076 T01670100=
201902161852 METAR KATL 161852Z 31009KT 10SM FEW026 BKN250 17/11 A2977 RMK AO2 SLP079 T01720106=
201902161752 METAR KATL 161752Z 30012KT 10SM FEW022 BKN250 17/11 A2978 RMK AO2 SLP082 60011 T01670106 10172 20128 58002=
201902161652 METAR KATL 161652Z 31006KT 10SM FEW016 BKN044 BKN150 15/10 A2980 RMK AO2 SLP089 T01500100=
201902161552 METAR KATL 161552Z 30008KT 10SM FEW013 SCT044 BKN150 BKN250 15/11 A2980 RMK AO2 SLP088 T01500106=
201902161452 METAR KATL 161452Z 28009KT 10SM FEW014 SCT150 BKN250 14/10 A2979 RMK AO2 SLP085 60011 T01390100 51025=
201902161352 METAR KATL 161352Z 29008KT 10SM FEW007 FEW041 SCT070 BKN250 13/11 A2978 RMK AO2 SLP081 T01280106=
201902161252 METAR KATL 161252Z 31012KT 10SM FEW007 SCT043 BKN060 BKN250 13/11 A2976 RMK AO2 WSHFT 1208 RAE41 SLP074 FROPA P0011 T01330111=
201902161244 SPECI KATL 161244Z 31012KT 10SM SCT007 BKN036 BKN060 13/12 A2976 RMK AO2 WSHFT 1208 RAE41 FROPA P0011 T01330117=
201902161237 SPECI KATL 161237Z 31012KT 4SM -RA BR BKN008 BKN031 OVC055 13/12 A2975 RMK AO2 WSHFT 1208 FROPA BKN008 V SCT BINOVC NW P0011 T01330122=
201902161223 SPECI KATL 161223Z 32016G19KT 4SM -RA BR SCT008 SCT021 OVC039 14/12 A2975 RMK AO2 WSHFT 1208 VIS E-S-SW 2 1/2 P0009 T01390122=
201902161217 SPECI KATL 161217Z 33013G24KT 2 1/2SM R09R/3500VP6000FT +RA BR BKN008 BKN019 OVC029 14/13 A2974 RMK AO2 CIG 007V010 P0007 T01440128=
201902161209 SPECI KATL 161209Z 32018G22KT 1 1/2SM -RA BR BKN008 BKN013 OVC025 16/14 A2974 RMK AO2 PRESRR CIG 007V010 P0000 T01610144=
201902161152 METAR KATL 161152Z 24010G19KT 8SM -RA BKN008 OVC013 16/14 A2971 RMK AO2 RAE32B48DZB17E25 SLP058 CIG 007V010 P0000 60001 70027 T01610144 10161 20150 53002=
201902161052 METAR KATL 161052Z 24011KT 5SM -RA BR OVC007 16/14 A2971 RMK AO2 DZB0954E25RAB32 SLP056 CIG 006V009 P0001 T01610144=
201902160952 METAR KATL 160952Z 24011G23KT 8SM OVC008 16/14 A2970 RMK AO2 SLP054 CIG 007V009 T01610139=
201902160852 METAR KATL 160852Z 24012G21KT 10SM OVC007 16/14 A2971 RMK AO2 DZB04E14 SLP056 CIG 006V009 P0000 60000 T01610139 56018=
201902160752 METAR KATL 160752Z 24011G20KT 10SM OVC008 16/14 A2972 RMK AO2 SLP062 CIG 007V010 T01560139=
201902160652 METAR KATL 160652Z 23014G22KT 8SM BKN007 OVC011 16/14 A2974 RMK AO2 DZE38 SLP067 CIG 005V009 P0000 T01560139=
201902160650 SPECI KATL 160650Z 22014G22KT 7SM BKN007 OVC011 16/14 A2974 RMK AO2 DZE38 CIG 005V009 P0000=
201902160552 METAR KATL 160552Z 21010KT 2SM -DZ BR BKN006 OVC013 15/13 A2976 RMK AO2 SFC VIS 6 RAE05DZB05 SLP075 CIG 004V008 P0000 60026 T01500133 10150 20144 58020=
201902160452 METAR KATL 160452Z 20007KT 2SM -RA BR BKN006 OVC014 14/13 A2978 RMK AO2 SFC VIS 6 SLP082 CIG 004V008 P0001 T01440133 401560111=
201902160352 METAR KATL 160352Z 19009KT 2SM -RA BR BKN005 BKN015 OVC026 14/13 A2980 RMK AO2 SFC VIS 6 SLP091 CIG 003V007 P0002 T01440133=
201902160252 METAR KATL 160252Z 18007KT 2SM -RA BR BKN005 BKN018 OVC040 14/13 A2982 RMK AO2 SFC VIS 4 SLP097 CIG 003V007 P0009 60023 T01440133 58009=
201902160229 SPECI KATL 160229Z 19006KT 2SM -RA BR BKN005 BKN014 OVC030 14/13 A2983 RMK AO2 SFC VIS 4 CIG 003V007 P0006 T01440133=
201902160208 SPECI KATL 160208Z 18007KT 2SM -RA BR BKN004 OVC010 14/13 A2983 RMK AO2 SFC VIS 3 CIG 003V005 P0002 T01440133=
201902160152 METAR KATL 160152Z 18005KT 3SM -RA BR BKN004 OVC012 14/13 A2984 RMK AO2 SLP102 CIG 003V006 P0012 T01440133=
201902160115 SPECI KATL 160115Z 19004KT 2 1/2SM RA BR BKN008 BKN016 OVC045 14/13 A2984 RMK AO2 CIG 006V010 P0004 T01440133=
201902160109 SPECI KATL 160109Z 19005KT 3SM -RA BR BKN010 BKN038 OVC075 14/13 A2985 RMK AO2 CIG 008V012 P0002 T01440133=
201902160052 METAR KATL 160052Z 19005KT 6SM -RA BR SCT009 BKN044 OVC085 14/13 A2985 RMK AO2 DZE47RAB47 SLP107 P0002 T01440128=
201902152352 METAR KATL 152352Z 22003KT 6SM -DZ BR OVC008 14/13 A2985 RMK AO2 RAE48DZB48 SLP107 CIG 007V009 P0000 60000 T01440128 10156 20144 53004=
201902152252 METAR KATL 152252Z 21004KT 8SM -RA OVC009 15/12 A2985 RMK AO2 RAB46 SLP105 CIG 008V011 P0000 T01500122=
201902152227 SPECI KATL 152227Z 21006KT 10SM OVC010 15/12 A2984 RMK AO2 CIG 008V012 T01500122=
201902152152 METAR KATL 152152Z 24006KT 10SM BKN009 BKN030 OVC050 15/12 A2983 RMK AO2 SLP101 T01500122=
201902152052 METAR KATL 152052Z 20006KT 10SM BKN010 BKN030 OVC050 15/12 A2984 RMK AO2 SLP102 T01500122 56025=
201902151952 METAR KATL 151952Z 21006KT 10SM BKN012 BKN020 OVC050 16/12 A2987 RMK AO2 SLP112 T01560117=
201902151852 METAR KATL 151852Z 23007KT 10SM BKN012 BKN030 OVC050 15/12 A2988 RMK AO2 SLP116 T01500117=
201902151752 METAR KATL 151752Z 25007KT 10SM BKN010 BKN030 OVC050 16/12 A2991 RMK AO2 SLP128 60000 T01560117 10156 20111 58003=
201902151729 SPECI KATL 151729Z 24009KT 10SM BKN010 BKN020 OVC050 15/12 A2993 RMK AO2 T01500117=
201902151652 METAR KATL 151652Z 25008KT 9SM BKN009 BKN020 OVC050 14/11 A2994 RMK AO2 SLP137 T01390111=
201902151552 METAR KATL 151552Z 25008KT 9SM BKN008 BKN020 OVC050 13/10 A2995 RMK AO2 SLP143 T01330100=
201902151452 METAR KATL 151452Z 22007KT 10SM BKN008 BKN016 OVC050 12/09 A2992 RMK AO2 RAE46 SLP132 P0000 60000 T01170094 50006=
201902151352 METAR KATL 151352Z 22007KT 8SM -RA BKN010 BKN016 OVC050 11/09 A2994 RMK AO2 RAB41 SLP138 P0000 T01110089=
201902151337 SPECI KATL 151337Z 23008KT 10SM BKN012 BKN044 OVC060 11/09 A2994 RMK AO2 SHRA SE-SW T01110089=
201902151252 METAR KATL 151252Z 22009KT 10SM FEW014 SCT044 OVC075 11/08 A2992 RMK AO2 SLP131 SHRA S-SW T01110078=
201902151152 METAR KATL 151152Z 23008KT 10SM FEW014 SCT026 SCT055 OVC200 11/08 A2991 RMK AO2 SLP126 T01110078 10117 20111 56008=
201902151137 SPECI KATL 151137Z 23008KT 10SM SCT014 BKN026 BKN055 BKN200 11/08 A2991 RMK AO2 T01110078=
201902151052 METAR KATL 151052Z 23010KT 10SM FEW014 FEW050 BKN200 BKN250 11/08 A2991 RMK AO2 SLP127 T01110078=
201902150952 METAR KATL 150952Z 23008KT 10SM FEW016 FEW045 SCT180 BKN250 12/08 A2991 RMK AO2 SLP126 T01170078=
201902150852 METAR KATL 150852Z 23008KT 10SM FEW018 FEW038 BKN180 BKN200 12/07 A2993 RMK AO2 SLP133 T01170072 58013=
201902150752 METAR KATL 150752Z 22009KT 10SM FEW028 SCT036 SCT045 BKN200 11/04 A2994 RMK AO2 SLP136 T01110044=
201902150652 METAR KATL 150652Z 22006KT 10SM FEW028 BKN036 BKN200 11/02 A2998 RMK AO2 SLP150 T01110017=
201902150552 METAR KATL 150552Z 20005KT 10SM BKN035 BKN200 11/00 A2997 RMK AO2 SLP147 T01110000 10144 20111 58003=
201902150452 METAR KATL 150452Z 21006KT 10SM SCT100 BKN150 BKN250 12/00 A2999 RMK AO2 SLP155 T01170000 401780022=
201902150352 METAR KATL 150352Z 20007KT 10SM FEW100 SCT150 BKN200 OVC250 12/M01 A2998 RMK AO2 SLP154 T01221006=
201902150252 METAR KATL 150252Z 19010KT 10SM SCT110 BKN150 OVC200 13/M01 A2998 RMK AO2 SLP152 T01281011 56005=
201902150152 METAR KATL 150152Z 18010KT 10SM SCT095 BKN120 OVC200 13/M01 A2998 RMK AO2 SLP154 T01331011=
201902150052 METAR KATL 150052Z 17011KT 10SM SCT150 BKN200 OVC250 14/M02 A2997 RMK AO2 SLP150 T01391017=
201902142352 METAR KATL 142352Z 18005KT 10SM BKN150 BKN200 OVC250 14/M02 A3000 RMK AO2 SLP160 T01391022 10178 20139 55003=
201902142252 METAR KATL 142252Z 18009KT 10SM FEW150 BKN180 OVC250 16/M04 A2998 RMK AO2 SLP154 T01561044=
201902142152 METAR KATL 142152Z 19010KT 10SM FEW150 BKN180 BKN250 17/M04 A2999 RMK AO2 SLP157 T01671039=
201902142052 METAR KATL 142052Z 22009KT 10SM FEW150 SCT180 BKN250 18/M03 A3000 RMK AO2 SLP161 T01781033 56023=
201902141952 METAR KATL 141952Z 18009KT 10SM BKN150 BKN180 OVC250 16/M03 A3001 RMK AO2 SLP163 VIRGA OHD-N-E-S T01611028=
201902141852 METAR KATL 141852Z 17009KT 10SM FEW150 SCT180 BKN250 17/M03 A3004 RMK AO2 SLP171 T01671028=
201902141752 METAR KATL 141752Z 20009KT 10SM FEW150 BKN200 BKN250 16/M04 A3007 RMK AO2 SLP184 T01561039 10161 20022 56024=
201902141652 METAR KATL 141652Z 21009KT 10SM FEW150 SCT200 BKN250 14/M03 A3010 RMK AO2 SLP196 T01391028=
201902141552 METAR KATL 141552Z 18006KT 10SM FEW150 SCT200 BKN250 11/M03 A3011 RMK AO2 SLP200 T01111033=
201902141452 METAR KATL 141452Z 18006KT 10SM FEW150 BKN250 09/M02 A3015 RMK AO2 SLP211 T00941017 50005=
201902141352 METAR KATL 141352Z 00000KT 10SM SCT150 SCT180 BKN250 06/00 A3015 RMK AO2 SLP214 VIRGA DSNT SW-NW ACC DSNT S T00610000=
201902141252 METAR KATL 141252Z 00000KT 10SM SCT150 SCT200 BKN250 03/M02 A3013 RMK AO2 SLP208 T00331022=
201902141152 METAR KATL 141152Z 00000KT 10SM FEW150 SCT200 SCT250 03/M03 A3013 RMK AO2 SLP208 T00331033 10061 20028 55005=
201902141052 METAR KATL 141052Z 00000KT 10SM FEW150 SCT200 SCT250 03/M03 A3012 RMK AO2 SLP204 T00331028=
201902140952 METAR KATL 140952Z 00000KT 10SM SCT200 SCT250 03/M03 A3013 RMK AO2 SLP205 T00331028=
201902140852 METAR KATL 140852Z 33005KT 10SM SCT200 SCT250 04/M03 A3015 RMK AO2 SLP211 T00391033 55005=
201902140752 METAR KATL 140752Z 30004KT 10SM SCT200 BKN250 04/M03 A3014 RMK AO2 SLP210 T00441028=
201902140652 METAR KATL 140652Z 00000KT 10SM SCT200 BKN250 05/M04 A3014 RMK AO2 SLP208 T00501039=
201902140552 METAR KATL 140552Z 00000KT 10SM SCT200 BKN250 06/M04 A3016 RMK AO2 SLP216 T00611044 10094 20056 55009=
201902140452 METAR KATL 140452Z 31004KT 10SM BKN250 06/M04 A3016 RMK AO2 SLP217 T00611039 401330022=
201902140352 METAR KATL 140352Z 28004KT 10SM BKN250 07/M04 A3018 RMK AO2 SLP224 T00671044=
201902140252 METAR KATL 140252Z 28005KT 10SM SCT250 07/M04 A3019 RMK AO2 PRESRR SLP227 T00721039 51013=
201902140152 METAR KATL 140152Z 27006KT 10SM SCT250 08/M04 A3017 RMK AO2 SLP223 T00781039=
201902140052 METAR KATL 140052Z 28005KT 10SM FEW250 08/M03 A3017 RMK AO2 SLP220 T00831033=
201902132352 METAR KATL 132352Z 30007KT 10SM FEW250 09/M03 A3015 RMK AO2 SLP214 T00941033 10133 20094 51004=
201902132252 METAR KATL 132252Z AUTO 30009KT 10SM FEW250 12/M04 A3015 RMK AO2 SLP213 T01171044=
201902132152 METAR KATL 132152Z 28010KT 10SM FEW250 13/M04 A3014 RMK AO2 SLP209 T01281039=
201902132052 METAR KATL 132052Z 32013KT 10SM FEW250 13/M05 A3014 RMK AO2 SLP208 T01281050 55019=
201902131952 METAR KATL 131952Z 30011G21KT 10SM FEW250 13/M04 A3013 RMK AO2 SLP205 T01281044=
201902131852 METAR KATL 131852Z 33016G22KT 10SM FEW250 12/M06 A3015 RMK AO2 SLP212 T01171056=
201902131752 METAR KATL 131752Z 32012G21KT 10SM FEW250 11/M06 A3019 RMK AO2 SLP228 T01061056 10106 20022 58006=
201902131652 METAR KATL 131652Z 30013KT 10SM FEW250 09/M04 A3021 RMK AO2 SLP234 T00891044=
201902131552 METAR KATL 131552Z 32012KT 10SM FEW250 07/M04 A3022 RMK AO2 SLP238 T00721039=
201902131452 METAR KATL 131452Z 31012KT 10SM SCT250 06/M03 A3021 RMK AO2 SLP234 T00561033 51021=
201902131352 METAR KATL 131352Z 31009KT 10SM SCT200 SCT250 04/M03 A3020 RMK AO2 SLP228 T00391028=
201902131252 METAR KATL 131252Z 30010KT 10SM FEW150 SCT200 BKN250 03/M03 A3018 RMK AO2 SLP221 VIRGA DSNT SE-S T00281028=
201902131152 METAR KATL 131152Z 29008KT 10SM FEW200 SCT250 03/M03 A3015 RMK AO2 SLP213 70044 T00281028 10072 20028 51012=
201902131052 METAR KATL 131052Z 30009KT 10SM FEW250 03/M03 A3014 RMK AO2 SLP208 T00331028=
201902130952 METAR KATL 130952Z 31009KT 10SM FEW250 04/M03 A3013 RMK AO2 SLP205 T00391033=
201902130852 METAR KATL 130852Z 31011KT 10SM FEW200 SCT250 05/M03 A3011 RMK AO2 SLP199 T00501028 51014=
201902130752 METAR KATL 130752Z 32013KT 10SM FEW200 BKN250 06/M02 A3010 RMK AO2 SLP193 T00561022=
201902130652 METAR KATL 130652Z 30013KT 10SM SCT200 BKN250 07/M01 A3009 RMK AO2 SLP191 T00671011=
201902130552 METAR KATL 130552Z 32015G26KT 10SM BKN200 BKN250 07/M02 A3007 RMK AO2 PK WND 34026/0545 SLP181 60000 T00721022 10139 20072 51023=
201902130452 METAR KATL 130452Z 32018G22KT 10SM BKN200 BKN250 08/M01 A3005 RMK AO2 PK WND 31029/0408 SLP174 T00831011 402170083=
201902130352 METAR KATL 130352Z 31022G28KT 10SM FEW020 BKN200 OVC250 10/04 A3003 RMK AO2 PK WND 31028/0352 SLP168 T01000039=
201902130252 METAR KATL 130252Z 31016G25KT 10SM FEW015 SCT030 BKN150 OVC200 11/06 A3000 RMK AO2 PK WND 29026/0216 SLP157 60000 T01110061 53022=
201902130152 METAR KATL 130152Z 30015KT 10SM FEW012 SCT030 BKN140 OVC200 13/09 A2995 RMK AO2 SLP139 T01330094=
201902130052 METAR KATL 130052Z 27010KT 10SM SCT012 BKN100 OVC150 13/11 A2996 RMK AO2 RAE2355 SLP143 VIRGA NE-OHD-SW P0000 T01330111=
201902122352 METAR KATL 122352Z 26012KT 10SM -RA FEW008 SCT025 BKN080 OVC130 14/11 A2993 RMK AO2 SLP133 P0000 60044 T01390111 10217 20139 51019=
201902122252 METAR KATL 122252Z 24009KT 10SM -RA FEW008 BKN080 OVC120 14/12 A2992 RMK AO2 SLP129 P0000 T01440117=
201902122152 METAR KATL 122152Z 25010G17KT 10SM -RA FEW010 BKN070 OVC090 15/12 A2992 RMK AO2 RAB15 PRESRR SLP130 P0000 T01500122=
201902122052 METAR KATL 122052Z 23007KT 10SM FEW010 SCT080 OVC100 15/13 A2988 RMK AO2 RAE46 SLP114 P0001 60044 T01500128 50017=
201902121952 METAR KATL 121952Z 29006KT 10SM -RA FEW010 BKN070 OVC100 15/13 A2988 RMK AO2 SLP116 P0016 T01500133=
201902121949 SPECI KATL 121949Z 29007KT 10SM -RA FEW010 BKN070 OVC100 15/13 A2988 RMK AO2 P0016=
201902121904 SPECI KATL 121904Z 29012KT 2SM RA BR FEW007 BKN015 OVC030 15/13 A2988 RMK AO2 SFC VIS 3 P0003 T01500133=
201902121852 METAR KATL 121852Z 28012G20KT 2SM -RA BR BKN013CB BKN023 OVC030 15/13 A2987 RMK AO2 PK WND 31026/1834 WSHFT 1832 SFC VIS 4 RAB26 SLP112 CB NE-SE MOV E P0027 T01500133=
201902121849 SPECI KATL 121849Z 31015G20KT 2SM R09R/4500VP6000FT -RA BR BKN013CB BKN023 OVC030 15/13 A2986 RMK AO2 PK WND 31026/1834 WSHFT 1832 RAB26 CB NE-SE MOV E P0026=
201902121840 SPECI KATL 121840Z 30014G22KT 2SM R09R/2000VP6000FT +RA BR BKN015CB BKN025 OVC040 15/13 A2986 RMK AO2 PK WND 31026/1834 RAB26 CB OHD-NE-SE MOV E P0020 T01500133=
201902121838 SPECI KATL 121838Z 30018KT 1SM R09R/2000VP6000FT +RA BR BKN015CB BKN025 OVC040 15/13 A2986 RMK AO2 PK WND 31026/1834 RAB26 CB OHD-NE-SE MOV E P0017 T01500133=
201902121834 SPECI KATL 121834Z 27022KT 1SM R09R/2000VP6000FT RA BKN020CB BKN030 OVC040 18/14 A2986 RMK AO2 PK WND 31026/1834 TWR VIS 2 RAB26 PRESRR CB OHD-SW-NW-N SHRA VC SW-NW-N P0001 T01780144=
201902121831 SPECI KATL 121831Z 4SM -RA BKN020CB BKN030 OVC040 21/16 A2984 RMK AO2 RAB26 CB OHD-SW-NW-N SHRA VC SW-NW-N P0000 T02060161=
201902121826 SPECI KATL 121826Z 18010G22KT 10SM -RA FEW020CB BKN030 OVC050 21/16 A2982 RMK AO2 RAB26 CB OHD-SW-NW-N SHRA VC SW-NW-N P0000 T02110156=
201902121818 SPECI KATL 121818Z 19012G17KT 10SM SCT020 BKN030 BKN040 OVC250 21/16 A2981 RMK AO2 CB DSNT SW-NW SHRA DSNT SW-NW T02110161=
201902121752 METAR KATL 121752Z 19012KT 10SM FEW018 BKN025 BKN032 OVC200 22/17 A2982 RMK AO2 SLP095 CB DSNT SW-NW SHRA DSNT SW-NW T02170167 10217 20156 58028=
201902121718 SPECI KATL 121718Z 18010G19KT 10SM SCT014 BKN020 OVC030 20/16 A2985 RMK AO2 T02000161=
201902121652 METAR KATL 121652Z 18013G21KT 10SM BKN014 BKN020 OVC030 20/17 A2988 RMK AO2 SLP115 T02000167=
201902121600 SPECI KATL 121600Z 18010KT 8SM SCT006 BKN014 OVC020 19/17 A2989 RMK AO2 T01890167=
201902121552 METAR KATL 121552Z 18009KT 3SM BR BKN006 BKN012 OVC020 18/17 A2989 RMK AO2 SFC VIS 6 SLP120 T01830167=
201902121452 METAR KATL 121452Z 18010KT 3SM BR BKN005 BKN012 OVC020 18/16 A2991 RMK AO2 SFC VIS 5 SLP126 T01780161 56008=
201902121436 SPECI KATL 121436Z 17008KT 3SM BR BKN005 BKN010 OVC020 18/16 A2992 RMK AO2 SFC VIS 6 T01780161=
201902121352 METAR KATL 121352Z 17008KT 1 1/2SM BR BKN004 OVC010 17/16 A2992 RMK AO2 SFC VIS 6 SLP130 CIG 003V007 T01720161=
201902121252 METAR KATL 121252Z 18009KT 1 1/2SM BR BKN004 OVC010 17/16 A2992 RMK AO2 SFC VIS 5 SLP130 CIG 003V006 TWRINC T01670156=
201902121217 SPECI KATL 121217Z 18008KT 1/2SM R09R/P6000FT BR OVC004 16/15 A2993 RMK AO2 SFC VIS 5 CIG 003V005 TWRINC T01610150=
201902121152 METAR KATL 121152Z 17007KT 1/4SM R09R/P6000FT BR OVC002 16/15 A2994 RMK AO2 SFC VIS 1 1/4 DZB19E49 SLP135 VIS NE-E 1 1/4 CIG 001V003 TWRINC P0000 60003 70007 T01560150 10156 20111 56009=
201902121150 SPECI KATL 121150Z 17006KT 1/4SM R09R/P6000FT BR OVC002 16/15 A2994 RMK AO2 SFC VIS 1 1/4 DZB19E49 VIS SE 1 3/4 SW-NW 2 1/2 CIG 001V003 TWRINC P0000=
201902121120 SPECI KATL 121120Z 17008KT 1/16SM R09R/P6000FT -DZ BR OVC002 16/14 A2994 RMK AO2 SFC VIS 1 DZB19 CIG 001V003 PCPN VRY LGT TWRINC P0000 T01560144=
201902121052 METAR KATL 121052Z 18008KT 1/16SM R09R/P6000FT BR OVC002 15/14 A2994 RMK AO2 SFC VIS 3/4 RAB28E46 SLP136 CIG 001V003 TWRINC P0003 T01500144=
201902121048 SPECI KATL 121048Z 18009KT 1/16SM R09R/5000VP6000FT BR OVC002 15/14 A2994 RMK AO2 SFC VIS 3/4 RAB28E46 CIG 001V003 TWRINC P0003=
201902121031 SPECI KATL 121031Z 17006KT 1/16SM R09R/1800V2600FT -RA FG VV002 14/13 A2994 RMK AO2 SFC VIS 1/2 RAB28 TWRINC P0001 T01440133=
201902120952 METAR KATL 120952Z 14006KT 1/16SM R09R/1600V1800FT FG VV002 14/13 A2994 RMK AO2 SFC VIS 1/4 SLP137 T01390128=
201902120926 SPECI KATL 120926Z 14005KT 1/16SM R09R/1600FT FG VV002 13/13 A2995 RMK AO2 SFC VIS 1/4 T01330128 $=
201902120852 METAR KATL 120852Z 13006KT 1/8SM R09R/1600FT FG VV002 13/12 A2996 RMK AO2 SFC VIS 1/4 SLP145 T01330122 58016 $=
201902120752 METAR KATL 120752Z 10004KT 1/4SM R09R/2000V2200FT FG VV002 12/11 A2999 RMK AO2 TWR VIS 1/2 SLP155 T01220111 $=
201902120727 SPECI KATL 120727Z 12004KT 1/2SM R09R/2200V2400FT FG VV002 12/11 A3000 RMK AO2 T01220111 $=
201902120652 METAR KATL 120652Z 12004KT 1/4SM R09R/1800FT FG VV002 12/11 A3000 RMK AO2 TWR VIS 1/2 SLP160 T01170111 $=
201902120614 SPECI KATL 120614Z 12005KT 1/4SM R09R/1800V2000FT FG VV002 11/11 A3000 RMK AO2 TWR VIS 1/2 T01110106 $=
201902120552 METAR KATL 120552Z 13005KT 1/2SM R09R/2600V3500FT FG VV002 11/11 A3001 RMK AO2 RAB0458E30 SLP164 P0001 60004 T01110106 10117 20106 58013 $=
201902120452 METAR KATL 120452Z 14004KT 1/2SM R09R/4000VP6000FT BR OVC002 11/10 A3003 RMK AO2 SFC VIS 1 RAE0358 SLP170 P0000 T01110100 401330028 $=
201902120352 METAR KATL 120352Z 13005KT 1/2SM R09R/P6000FT -RA BR OVC002 11/10 A3004 RMK AO2 SFC VIS 1 1/2 RAB49 SLP176 P0000 T01110100 $=
201902120252 METAR KATL 120252Z 13005KT 1/2SM R09R/P6000FT BR OVC002 11/09 A3005 RMK AO2 SFC VIS 2 SLP178 60003 T01060094 58003 $=
201902120152 METAR KATL 120152Z 12008KT 1/2SM R09R/P6000FT BR OVC003 11/09 A3005 RMK AO2 SFC VIS 5 RAE19 SLP178 P0001 T01060094 $=
201902120052 METAR KATL 120052Z 13006KT 1/2SM R09R/P6000FT -RA BR OVC003 11/10 A3007 RMK AO2 SFC VIS 3 SLP185 P0002 T01110100 $=
201902120018 SPECI KATL 120018Z 13007KT 1/2SM R09R/P6000FT -RA BR OVC004 12/10 A3006 RMK AO2 SFC VIS 2 1/2 P0002 T01170100 $=
201902120003 SPECI KATL 120003Z 13005KT 1SM R09R/P6000FT -RA BR OVC004 12/10 A3006 RMK AO2 SFC VIS 5 P0000 T01170100 $=
201902112352 METAR KATL 112352Z 11004KT 3SM -RA BR OVC005 12/10 A3006 RMK AO2 SFC VIS 4 RAB02 SLP182 P0000 60000 T01170100 10133 20089 53006 $=
201902112315 SPECI KATL 112315Z 11005KT 3SM -RA BR OVC005 12/11 A3005 RMK AO2 SFC VIS 5 RAB02 P0000 T01170106 $=
201902112252 METAR KATL 112252Z 11004KT 6SM BR OVC006 12/11 A3005 RMK AO2 RAB09E23 SLP178 P0000 T01170106=
201902112152 METAR KATL 112152Z 11003KT 6SM BR BKN007 OVC010 13/11 A3005 RMK AO2 SLP177 T01280106=
201902112052 METAR KATL 112052Z 11004KT 6SM BR FEW006 BKN008 OVC010 13/10 A3004 RMK AO2 SLP175 T01280100 56026=
201902111952 METAR KATL 111952Z 11005KT 3SM BR BKN006 BKN008 OVC010 11/09 A3006 RMK AO2 SFC VIS 5 SLP182 T01110094=
201902111852 METAR KATL 111852Z 13004KT 1 1/2SM BR BKN005 BKN008 OVC010 10/08 A3009 RMK AO2 SFC VIS 4 SLP193 T01000083=
201902111850 SPECI KATL 111850Z 13003KT 1 1/2SM BR BKN005 BKN008 OVC010 10/08 A3009 RMK AO2 SFC VIS 4=
201902111752 METAR KATL 111752Z 00000KT 1/2SM R09R/P6000FT BR BKN004 BKN006 OVC010 09/08 A3012 RMK AO2 SFC VIS 4 SLP204 TWRINC 60000 T00890078 10089 20039 58020=
201902111652 METAR KATL 111652Z 00000KT 1/4SM R09R/5000VP6000FT BR BCFG BKN003 BKN006 OVC010 08/07 A3014 RMK AO2 SFC VIS 3 DZE10 SLP213 TWRINC P0000 T00780067=
201902111621 SPECI KATL 111621Z 14004KT 1/4SM R09R/2400V4000FT BR BKN003 OVC006 07/06 A3015 RMK AO2 SFC VIS 1 DZE10 TWRINC P0000 T00720061 $=
201902111611 SPECI KATL 111611Z 14004KT 1/4SM R09R/1800V2800FT BR BCFG BKN003 OVC006 07/06 A3015 RMK AO2 SFC VIS 3/4 DZE10 P0000 T00670061 $=
201902111552 METAR KATL 111552Z 14005KT 1/4SM R09R/1600V2000FT -DZ FG VV003 07/06 A3016 RMK AO2 SFC VIS 1/2 DZB48 SLP219 P0000 T00670056=
201902111452 METAR KATL 111452Z 12003KT 1/4SM R09R/1600V2200FT FG VV003 06/05 A3018 RMK AO2 SFC VIS 1/2 SLP226 60000 T00560050 56002=
201902111352 METAR KATL 111352Z 10003KT 1/4SM R09R/3500V5500FT BR OVC003 05/04 A3018 RMK AO2 SFC VIS 1 DZE52 SLP226 P0000 T00500039=
201902111252 METAR KATL 111252Z 12003KT 1/4SM R09R/4000FT -DZ BR OVC002 04/03 A3019 RMK AO2 SFC VIS 3/4 SLP229 PCPN VRY LGT P0000 T00390033=
201902111152 METAR KATL 111152Z 11006KT 1/4SM R09R/5500VP6000FT -DZ BR OVC002 04/03 A3019 RMK AO2 SFC VIS 3/4 DZB39 SLP229 PCPN VRY LGT P0000 60000 70009 T00390028 10039 20028 58017=
201902111052 METAR KATL 111052Z 08003KT 1/4SM R09R/6000VP6000FT BR OVC002 04/03 A3021 RMK AO2 SFC VIS 1 DZE18 SLP238 P0000 T00390028=
201902110952 METAR KATL 110952Z 11003KT 1/4SM R09R/5500VP6000FT -DZ BR OVC003 03/03 A3022 RMK AO2 SFC VIS 3/4 DZB19 SLP240 CIG 002V005 PCPN VRY LGT P0000 T00330028=
201902110929 SPECI KATL 110929Z 13004KT 1/4SM R09R/3500V4000FT -DZ FG VV002 03/03 A3023 RMK AO2 SFC VIS 1/2 DZB19 CIG 002V004 P0000 T00330028=
201902110919 SPECI KATL 110919Z 10004KT 3/4SM R09R/3500V4000FT -DZ BR VV002 03/03 A3023 RMK AO2 TWR VIS 1 DZB19 CIG 002V004 P0000 T00330028=
201902110852 METAR KATL 110852Z 10004KT 1SM R09R/5000VP6000FT BR OVC003 03/02 A3024 RMK AO2 DZE51 SLP247 CIG 002V004 P0000 60000 T00330022 56018=
201902110752 METAR KATL 110752Z 13003KT 1SM R09R/P6000FT -DZ BR OVC003 03/02 A3026 RMK AO2 SFC VIS 1 1/2 SLP253 CIG 002V004 P0000 T00330022=
201902110652 METAR KATL 110652Z 11006KT 1SM R09R/P6000FT -DZ BR OVC003 03/02 A3027 RMK AO2 SFC VIS 2 RAE31DZB31 SLP259 CIG 002V004 P0000 T00280022=
201902110558 SPECI KATL 110558Z 10006KT 1SM R09R/P6000FT -RA BR OVC003 03/02 A3029 RMK AO2 SFC VIS 6 CIG 002V004 P0000 T00330017=
201902110552 METAR KATL 110552Z 09009KT 2SM -RA BR OVC003 03/02 A3029 RMK AO2 SFC VIS 6 RAE00B48DZB00E48 SLP266 CIG 002V004 P0000 60008 T00280017 10039 20028 58018=
201902110452 METAR KATL 110452Z 09008KT 2SM -RA BR BKN004 OVC012 03/02 A3031 RMK AO2 SFC VIS 6 SLP272 CIG 003V007 P0002 T00280017 400670028=
201902110352 METAR KATL 110352Z 10007KT 2SM -RA BR OVC004 03/02 A3033 RMK AO2 SFC VIS 4 SLP279 CIG 003V006 P0003 T00330022=
201902110341 SPECI KATL 110341Z 08009KT 2SM -RA BR OVC004 03/02 A3033 RMK AO2 SFC VIS 4 CIG 003V006 P0003 T00330017=
201902110331 SPECI KATL 110331Z 07009KT 2SM -RA BR OVC005 03/02 A3033 RMK AO2 CIG 003V007 P0002 T00330017=
201902110252 METAR KATL 110252Z 08008KT 3SM -RA BR BKN005 OVC012 03/02 A3035 RMK AO2 DZE04RAB04 SLP284 CIG 004V007 P0003 60003 T00330017 58007=
201902110209 SPECI KATL 110209Z 08007KT 3SM -RA BR OVC007 03/02 A3037 RMK AO2 DZE04RAB04 CIG 005V009 P0000 T00330017=
201902110152 METAR KATL 110152Z 10006KT 8SM -DZ BKN008 OVC015 03/01 A3037 RMK AO2 DZB07 SLP291 CIG 006V010 P0000 T00330011=
201902110052 METAR KATL 110052Z 10008KT 8SM BKN008 OVC015 04/01 A3037 RMK AO2 SLP290 CIG 007V010 T00390011=
201902102352 METAR KATL 102352Z 09008KT 8SM BKN009 OVC016 03/01 A3037 RMK AO2 SLP290 CIG 008V010 T00330011 10050 20033 58008=
201902102334 SPECI KATL 102334Z 08010KT 10SM BKN009 OVC015 04/01 A3037 RMK AO2 T00390011=
201902102252 METAR KATL 102252Z 09009KT 10SM OVC010 04/01 A3038 RMK AO2 SLP295 T00390011=
201902102152 METAR KATL 102152Z 11008KT 10SM OVC011 04/01 A3038 RMK AO2 SLP296 T00390006=
201902102052 METAR KATL 102052Z 11007KT 10SM OVC013 04/01 A3039 RMK AO2 SLP299 T00440006 56023=
201902101952 METAR KATL 101952Z 11010KT 10SM OVC013 04/00 A3041 RMK AO2 SLP302 T00390000=
201902101940 SPECI KATL 101940Z 09009KT 10SM OVC013 04/00 A3041 RMK AO2 T00390000=
201902101852 METAR KATL 101852Z 09010KT 10SM OVC015 04/00 A3043 RMK AO2 SLP311 T00440000=
201902101752 METAR KATL 101752Z 09013KT 10SM OVC016 04/M01 A3046 RMK AO2 SLP322 60001 T00441006 10050 20028 58023=
201902101652 METAR KATL 101652Z 06010KT 10SM OVC017 04/M01 A3052 RMK AO2 SLP340 T00391006=
201902101552 METAR KATL 101552Z 11009KT 10SM FEW012 OVC017 03/00 A3051 RMK AO2 SLP338 RAB05E40DZB40E45 P0001 T00330000=
201902101539 SPECI KATL 101539Z 10013KT 3SM -RA OVC017 03/M01 A3051 RMK AO2 SFC VIS 4 RAB06 P0001 T00281006=
201902101520 SPECI KATL 101520Z 10012KT 2SM -RA OVC018 03/M01 A3052 RMK AO2 TWR VIS 3 RAB06 P0001 T00281006=
201902101452 METAR KATL 101452Z 08013KT 10SM OVC020 03/M01 A3053 RMK AO2 DZE23 SLP346 P0000 60000 T00331011 51009=
201902101352 METAR KATL 101352Z 08013KT 5SM -DZ OVC021 03/M01 A3053 RMK AO2 RAB29E48DZB48 SLP346 P0000 T00331011=
201902101252 METAR KATL 101252Z 08012G17KT 10SM OVC019 05/M06 A3052 RMK AO2 SLP339 T00501056=
201902101152 METAR KATL 101152Z 09014KT 10SM OVC020 05/M06 A3051 RMK AO2 SLP335 T00501061 10061 20050 58000=
201902101052 METAR KATL 101052Z 08018KT 10SM OVC022 06/M07 A3051 RMK AO2 SLP335 T00561067=
201902101006 SPECI KATL 101006Z 09013KT 10SM BKN023 OVC032 06/M07 A3052 RMK AO2 T00561067=
201902100952 METAR KATL 100952Z 09014KT 10SM FEW025 OVC035 06/M07 A3051 RMK AO2 SLP336 T00561067=
201902100927 SPECI KATL 100927Z 09013KT 10SM FEW027 BKN035 BKN150 06/M07 A3052 RMK AO2 T00561067=
201902100852 METAR KATL 100852Z 09012KT 10SM FEW110 BKN150 BKN200 06/M07 A3051 RMK AO2 SLP335 T00561072 58009=
201902100752 METAR KATL 100752Z 09013KT 10SM FEW110 SCT140 SCT200 SCT250 06/M07 A3052 RMK AO2 SLP339 T00561072=
201902100652 METAR KATL 100652Z 09013KT 10SM FEW120 FEW200 FEW250 06/M07 A3054 RMK AO2 SLP344 T00611072=
201902100552 METAR KATL 100552Z 09011KT 10SM FEW120 SCT200 SCT250 06/M06 A3054 RMK AO2 SLP344 T00611061 10106 20061 56003=
201902100452 METAR KATL 100452Z 09009KT 10SM FEW250 07/M06 A3054 RMK AO2 SLP345 T00671061 401220033=
201902100352 METAR KATL 100352Z 09011KT 10SM FEW110 FEW200 SCT250 07/M06 A3054 RMK AO2 SLP347 T00721061=
201902100252 METAR KATL 100252Z 08010KT 10SM SCT100 SCT200 SCT250 08/M04 A3055 RMK AO2 SLP350 T00781044 50007=
201902100152 METAR KATL 100152Z 08008KT 10SM FEW100 SCT200 SCT250 08/M04 A3055 RMK AO2 SLP350 T00831044=
201902100052 METAR KATL 100052Z 09009KT 10SM BKN100 BKN200 BKN250 09/M04 A3054 RMK AO2 SLP347 T00891039=
201902092352 METAR KATL 092352Z 07011KT 10SM BKN095 BKN200 BKN250 11/M06 A3053 RMK AO2 SLP342 T01061056 10122 20100 55001=
201902092252 METAR KATL 092252Z 09011KT 10SM BKN095 BKN200 BKN250 11/M06 A3052 RMK AO2 SLP339 T01111061=
201902092152 METAR KATL 092152Z 08012KT 10SM BKN095 BKN250 12/M07 A3052 RMK AO2 SLP339 T01171067=
201902092052 METAR KATL 092052Z 07010KT 10SM BKN100 BKN130 BKN250 12/M07 A3053 RMK AO2 SLP342 T01221067 56010=
201902091952 METAR KATL 091952Z 07009KT 10SM BKN100 BKN130 12/M07 A3053 RMK AO2 SLP343 T01171067=
201902091852 METAR KATL 091852Z 08005KT 10SM BKN095 BKN110 11/M05 A3054 RMK AO2 SLP348 T01061050=
201902091752 METAR KATL 091752Z 10008KT 10SM SCT075 BKN100 OVC150 10/M04 A3056 RMK AO2 RAE1656 SLP354 P0000 60000 T01001039 10100 20033 58011=
201902091652 METAR KATL 091652Z 08007KT 10SM -RA FEW060 SCT070 BKN100 OVC150 08/M03 A3059 RMK AO2 RAB46 SLP363 P0000 T00831033=
201902091552 METAR KATL 091552Z 36006KT 10SM SCT080 BKN110 OVC150 07/M03 A3060 RMK AO2 SLP369 VIRGA OHD & ALQDS T00671033=
201902091452 METAR KATL 091452Z 33005KT 10SM FEW090 BKN110 BKN150 BKN250 05/M04 A3059 RMK AO2 SLP366 VIRGA NE AND E-SW T00501039 53025=
201902091352 METAR KATL 091352Z 01009KT 10SM BKN110 BKN150 OVC200 04/M04 A3055 RMK AO2 SLP350 VIRGA OHD-SW BINOVC T00391044=
201902091252 METAR KATL 091252Z 36006KT 10SM OVC100 03/M05 A3054 RMK AO2 SLP348 VIRGA NE-SE BINOVC E T00331050=
201902091152 METAR KATL 091152Z 35006KT 10SM OVC110 04/M06 A3052 RMK AO2 SLP340 VIRGA OHD-W-N T00391056 10044 20033 51016=
201902091052 METAR KATL 091052Z 34008KT 10SM OVC120 04/M06 A3050 RMK AO2 SLP335 T00391056=
201902090952 METAR KATL 090952Z 34010KT 10SM OVC130 04/M06 A3048 RMK AO2 SLP328 T00391061=
201902090852 METAR KATL 090852Z 34009KT 10SM FEW120 OVC150 04/M06 A3047 RMK AO2 SLP322 T00391061 55002=
201902090752 METAR KATL 090752Z 33010KT 10SM CLR 04/M06 A3045 RMK AO2 SLP315 T00391061=
201902090652 METAR KATL 090652Z 34012KT 10SM SCT130 BKN180 OVC220 04/M06 A3046 RMK AO2 PK WND 35027/0625 SLP319 T00441061=
201902090552 METAR KATL 090552Z 33015KT 10SM SCT150 BKN200 OVC250 04/M06 A3047 RMK AO2 SLP323 T00441061 10072 20044 51015=
201902090452 METAR KATL 090452Z 33010KT 10SM SCT150 BKN200 OVC250 06/M06 A3047 RMK AO2 SLP321 T00561061 401940056=
201902090352 METAR KATL 090352Z 34012KT 10SM BKN150 BKN200 OVC250 06/M07 A3045 RMK AO2 SLP314 T00611067=
201902090252 METAR KATL 090252Z 33009G17KT 10SM SCT150 BKN200 OVC250 06/M07 A3043 RMK AO2 SLP308 T00611067 53010=
201902090152 METAR KATL 090152Z 35014G18KT 10SM BKN150 BKN200 OVC250 07/M07 A3041 RMK AO2 SLP301 T00671067=
201902090052 METAR KATL 090052Z 34016KT 10SM SCT150 BKN200 BKN250 07/M07 A3040 RMK AO2 SLP299 T00671067=
201902082352 METAR KATL 082352Z 33017KT 10SM FEW200 BKN250 07/M07 A3040 RMK AO2 SLP296 T00721072 10133 20072 53014=
201902082252 METAR KATL 082252Z 33016G25KT 10SM FEW200 BKN250 09/M07 A3037 RMK AO2 SLP287 T00891072=
201902082152 METAR KATL 082152Z 31010G19KT 10SM FEW200 BKN250 BKN300 11/M06 A3036 RMK AO2 SLP281 T01061061=
201902082052 METAR KATL 082052Z 32014KT 10SM FEW200 BKN250 BKN300 11/M05 A3035 RMK AO2 PK WND 31026/2006 SLP278 T01111050 53000=
201902081952 METAR KATL 081952Z 33018G23KT 10SM FEW200 BKN250 BKN300 13/M06 A3035 RMK AO2 PK WND 35028/1907 SLP275 T01281061=
201902081852 METAR KATL 081852Z 34017KT 10SM FEW200 BKN250 BKN300 13/M04 A3034 RMK AO2 PK WND 31028/1830 SLP272 T01281039=
201902081752 METAR KATL 081752Z 34011G25KT 10SM FEW200 BKN250 12/M02 A3035 RMK AO2 SLP277 60000 T01221017 10128 20100 50013=
201902081652 METAR KATL 081652Z 33016G22KT 10SM FEW200 BKN250 12/00 A3036 RMK AO2 SLP277 T01220000=
201902081552 METAR KATL 081552Z 32019G24KT 10SM FEW035 FEW110 SCT250 11/02 A3035 RMK AO2 SLP275 T01110022=
201902081452 METAR KATL 081452Z 32014G24KT 10SM FEW030 FEW060 SCT110 BKN250 11/04 A3031 RMK AO2 SLP263 60000 T01110039 51030=
201902081352 METAR KATL 081352Z 31017G23KT 10SM FEW022 SCT060 BKN110 BKN200 11/04 A3029 RMK AO2 RAE04 SLP256 P0000 T01060044=
201902081252 METAR KATL 081252Z 31016G24KT 8SM -RA SCT020 BKN050 OVC150 11/07 A3026 RMK AO2 RAB49 SLP245 P0000 T01110067=
201902081152 METAR KATL 081152Z 30016KT 10SM FEW018 BKN038 OVC055 12/08 A3022 RMK AO2 SLP230 60001 70001 T01220078 10194 20122 53028=
201902081052 METAR KATL 081052Z 29010KT 10SM FEW014 OVC040 13/11 A3018 RMK AO2 RAE23 SLP213 P0000 T01330106=
201902080952 METAR KATL 080952Z 29010KT 8SM -RA FEW008 SCT016 OVC036 15/13 A3016 RMK AO2 SLP208 RAE05B49DZB14E49 P0000 T01500133=
201902080909 SPECI KATL 080909Z 30011KT 10SM FEW008 SCT016 OVC036 15/13 A3014 RMK AO2 RAE05 P0000 T01500133=
201902080852 METAR KATL 080852Z 31011KT 10SM -RA SCT008 BKN015 OVC034 16/13 A3014 RMK AO2 RAB07 SLP198 P0000 60001 T01560133 53016=
201902080752 METAR KATL 080752Z 29011G22KT 10SM SCT006 BKN014 OVC028CB 17/15 A3012 RMK AO2 WSHFT 0722 RAB10E50 SLP193 FROPA CB E-S-SW MOV SE SHRA E-S-SW P0001 T01670150=
201902080740 SPECI KATL 080740Z 30016KT 4SM -RA BR SCT006 BKN016 OVC028CB 17/15 A3011 RMK AO2 WSHFT 0722 RAB10 PRESRR FROPA CB NE-SE-SW MOV SE P0001 T01720150=
201902080736 SPECI KATL 080736Z 29017G25KT 2 1/2SM +RA BR SCT008 OVC016CB 17/15 A3011 RMK AO2 WSHFT 0722 RAB10 FROPA CB NE-OHD-SW MOV SE P0001 T01720150=
201902080730 SPECI KATL 080730Z 30019G25KT 1 1/2SM +RA FEW008 OVC014CB 19/16 A3010 RMK AO2 RAB10 CB NE-OHD-SW MOV E P0000 T01940161=
201902080712 SPECI KATL 080712Z 24008KT 10SM -RA OVC014 19/16 A3009 RMK AO2 RAB10 P0000 T01940161=
201902080652 METAR KATL 080652Z 24012G15KT 10SM OVC015 19/16 A3009 RMK AO2 SLP181 T01940156=
201902080605 SPECI KATL 080605Z 22007KT 10SM BKN023 BKN200 19/14 A3008 RMK AO2 T01890144=
201902080552 METAR KATL 080552Z 23008KT 10SM SCT022 SCT200 19/14 A3009 RMK AO2 SLP182 T01890144 10228 20189 53002=
201902080543 SPECI KATL 080543Z 22008KT 10SM SCT022 SCT200 19/14 A3009 RMK AO2 T01890144=
201902080526 SPECI KATL 080526Z 22010KT 10SM BKN022 BKN200 19/14 A3009 RMK AO2 T01940144=
201902080452 METAR KATL 080452Z 22007KT 10SM FEW025 SCT200 19/14 A3009 RMK AO2 SLP181 T01940144 402670167=
201902080352 METAR KATL 080352Z 21010KT 10SM FEW150 20/14 A3008 RMK AO2 SLP180 T02000144=
201902080252 METAR KATL 080252Z 21013G19KT 10SM FEW045 SCT250 21/14 A3008 RMK AO2 SLP180 T02060139 51009=
201902080152 METAR KATL 080152Z 22009KT 10SM FEW045 SCT250 21/14 A3008 RMK AO2 SLP180 T02110139=
201902080052 METAR KATL 080052Z 24010KT 10SM FEW050 FEW250 22/13 A3008 RMK AO2 SLP179 T02220128=
201902072352 METAR KATL 072352Z 20006KT 10SM SCT250 23/13 A3005 RMK AO2 SLP171 T02280128 10267 20228 55001=
201902072252 METAR KATL 072252Z 20013G21KT 10SM FEW200 BKN250 24/13 A3004 RMK AO2 SLP166 T02440128=
201902072152 METAR KATL 072152Z 22015G20KT 10SM FEW055 FEW200 BKN250 26/13 A3005 RMK AO2 SLP166 T02560128=
201902072052 METAR KATL 072052Z 22013G21KT 10SM FEW055 SCT200 BKN250 26/13 A3006 RMK AO2 SLP169 T02610133 56018=
201902071952 METAR KATL 071952Z 23013G22KT 10SM FEW050 FEW180 BKN250 26/13 A3007 RMK AO2 SLP174 T02610128=
201902071852 METAR KATL 071852Z 22011G20KT 10SM FEW050 FEW180 SCT250 26/14 A3009 RMK AO2 SLP181 T02560139=
201902071752 METAR KATL 071752Z 20012KT 10SM FEW040 FEW180 SCT250 24/14 A3011 RMK AO2 SLP190 T02440139 10244 20167 58003=
201902071652 METAR KATL 071652Z 20015G22KT 10SM FEW035 FEW250 23/14 A3012 RMK AO2 SLP193 T02330144=
201902071552 METAR KATL 071552Z 21009KT 10SM FEW030 FEW250 22/15 A3012 RMK AO2 SLP193 T02170150=
201902071452 METAR KATL 071452Z 20007KT 10SM FEW020 FEW040 FEW250 20/14 A3012 RMK AO2 SLP194 T02000144 51004=
201902071352 METAR KATL 071352Z 19007KT 10SM FEW016 SCT250 18/15 A3012 RMK AO2 SLP194 T01780150=
201902071252 METAR KATL 071252Z 21007KT 8SM FEW006 SCT014 SCT120 SCT250 17/16 A3012 RMK AO2 SLP195 T01670156=
201902071237 SPECI KATL 071237Z 21006KT 7SM SCT005 SCT014 SCT110 BKN250 17/16 A3012 RMK AO2 T01670156=
201902071152 METAR KATL 071152Z 21006KT 7SM BKN008 BKN060 BKN120 BKN250 17/16 A3011 RMK AO2 SLP190 CIG 006V010 70004 T01720156 10183 20172 52002=
201902071052 METAR KATL 071052Z 20007KT 7SM OVC008 18/16 A3011 RMK AO2 SLP188 CIG 006V010 BINOVC T01780161=
201902071010 SPECI KATL 071010Z 22007KT 8SM BKN008 OVC020 18/16 A3011 RMK AO2 CIG 007V010 T01830161=
201902070952 METAR KATL 070952Z 22007KT 9SM FEW006 OVC018 18/17 A3010 RMK AO2 SLP188 T01830167=
201902070852 METAR KATL 070852Z 21009KT 10SM FEW006 OVC018 18/17 A3010 RMK AO2 SLP187 T01830167 56007=
201902070816 SPECI KATL 070816Z 22006KT 8SM FEW005 BKN024 BKN055 BKN250 18/16 A3010 RMK AO2 T01780161=
201902070752 METAR KATL 070752Z 21007KT 8SM FEW005 SCT055 SCT250 18/16 A3011 RMK AO2 SLP189 T01780161=
201902070736 SPECI KATL 070736Z 21008KT 8SM SCT006 SCT055 SCT250 18/16 A3011 RMK AO2 T01780161=
201902070723 SPECI KATL 070723Z 21008KT 7SM BKN007 BKN055 BKN250 18/16 A3011 RMK AO2 CIG 006V008 T01780161=
201902070652 METAR KATL 070652Z 20009KT 8SM FEW006 SCT050 SCT250 18/16 A3011 RMK AO2 SLP190 T01780161=
201902070552 METAR KATL 070552Z 19004KT 10SM SCT023 BKN040 BKN055 18/16 A3012 RMK AO2 SLP195 T01780161 10200 20178 52007=
201902070452 METAR KATL 070452Z 20007KT 10SM FEW018 SCT032 OVC045 18/16 A3011 RMK AO2 SLP192 BINOVC T01780161 402170150=
201902070352 METAR KATL 070352Z 21007KT 10SM FEW007 FEW030 SCT250 18/16 A3011 RMK AO2 SLP192 T01780161=
201902070252 METAR KATL 070252Z 20009KT 10SM FEW008 FEW030 SCT250 18/16 A3010 RMK AO2 SLP189 T01830161 51007=
201902070152 METAR KATL 070152Z 19009KT 10SM FEW030 SCT250 18/16 A3009 RMK AO2 SLP186 T01830161=
201902070052 METAR KATL 070052Z 19008KT 10SM FEW030 SCT250 19/16 A3009 RMK AO2 SLP185 T01890161=
201902062352 METAR KATL 062352Z 18006KT 10SM FEW040 SCT200 BKN250 20/16 A3008 RMK AO2 SLP182 T02000161 10217 20189 55002=
201902062252 METAR KATL 062252Z 20007KT 10SM FEW022 BKN040 BKN250 21/16 A3007 RMK AO2 SLP178 T02110161=
201902062152 METAR KATL 062152Z 21010KT 10SM FEW020 FEW040 BKN250 22/16 A3008 RMK AO2 SLP179 T02170161=
201902062111 SPECI KATL 062111Z 20006KT 10SM FEW020 BKN030 BKN040 BKN250 22/17 A3008 RMK AO2 T02170167=
201902062052 METAR KATL 062052Z 20007KT 10SM BKN020 BKN025 OVC035 21/17 A3009 RMK AO2 SLP183 T02110167 56014=
201902061952 METAR KATL 061952Z 19004KT 10SM BKN020 BKN030 OVC040 21/17 A3009 RMK AO2 SLP184 T02060172=
201902061911 SPECI KATL 061911Z 21010KT 10SM SCT010 BKN015 OVC020 21/17 A3010 RMK AO2 T02060167=
201902061852 METAR KATL 061852Z 22008KT 10SM FEW008 BKN010 OVC015 21/17 A3010 RMK AO2 SLP189 T02060172=
201902061752 METAR KATL 061752Z 21005KT 2SM BR BKN006 BKN008 OVC015 19/17 A3013 RMK AO2 SFC VIS 6 SLP199 60004 T01890172 10189 20156 50002=
201902061745 SPECI KATL 061745Z 20007KT 2SM BR BKN006 BKN008 OVC015 19/17 A3013 RMK AO2 SFC VIS 6 T01890172=
201902061652 METAR KATL 061652Z 21007KT 1SM R09R/P6000FT BR OVC005 18/17 A3014 RMK AO2 SFC VIS 5 SLP203 T01830167=
201902061612 SPECI KATL 061612Z 22007KT 1SM R09R/P6000FT BR OVC005 18/17 A3015 RMK AO2 SFC VIS 5 T01780167=
201902061552 METAR KATL 061552Z 22006KT 1/2SM R09R/P6000FT BR OVC004 18/17 A3014 RMK AO2 SFC VIS 5 SLP202 TWRINC T01780167=
201902061529 SPECI KATL 061529Z 22006KT 1/2SM R09R/P6000FT BR OVC004 18/17 A3013 RMK AO2 SFC VIS 5 TWRINC T01780167=
201902061452 METAR KATL 061452Z 22007KT 1/4SM R09R/P6000FT BR BCFG OVC003 17/16 A3013 RMK AO2 SFC VIS 3 DZE46 SLP197 TWRINC P0000 60004 T01720161 51008=
201902061418 SPECI KATL 061418Z 20007KT 1/4SM R09R/1800V3000FT -DZ FG VV002 17/16 A3012 RMK AO2 SFC VIS 1/2 P0000 T01670161=
201902061403 SPECI KATL 061403Z 19006KT 1/4SM R09R/1800V2000FT -DZ FG VV002 17/16 A3012 RMK AO2 TWR VIS 1/4 PCPN VRY LGT P0000 T01670156=
201902061352 METAR KATL 061352Z 20007KT 1/4SM R09R/2200V2600FT -DZ FG VV002 17/16 A3012 RMK AO2 SFC VIS 1/2 SLP197 RAE03DZB03 PCPN VRY LGT P0001 T01670156=
201902061252 METAR KATL 061252Z 21005KT 1/4SM R09R/P6000FT -RA BR BKN003 BKN014 OVC030 16/15 A3011 RMK AO2 SFC VIS 3 SLP193 CIG 002V004 TWRINC P0003 T01610150=
201902061223 SPECI KATL 061223Z 21007KT 1/4SM R09R/P6000FT -RA BR OVC003 16/15 A3011 RMK AO2 SFC VIS 3 CIG 002V004 TWRINC P0001 T01610150=
201902061152 METAR KATL 061152Z 18005KT 1SM R09R/P6000FT -RA BR BKN004 BKN014 OVC040 16/14 A3010 RMK AO2 SFC VIS 3 SLP189 CIG 003V006 P0001 60006 70006 T01560144 10161 20156 55000=
201902061121 SPECI KATL 061121Z 18005KT 1SM R09R/P6000FT -RA BR BKN004 BKN014 OVC100 16/14 A3010 RMK AO2 SFC VIS 6 CIG 003V006 P0000 T01610144=
201902061052 METAR KATL 061052Z 17004KT 6SM -RA BR FEW005 SCT065 OVC120 16/14 A3010 RMK AO2 SLP186 P0002 T01560144=
201902060952 METAR KATL 060952Z 20003KT 6SM -RA BR FEW021 BKN075 OVC110 16/14 A3010 RMK AO2 SLP187 P0002 T01560144=
201902060852 METAR KATL 060852Z 22007KT 7SM -RA FEW022 BKN095 OVC140 16/14 A3010 RMK AO2 RAB24 SLP188 P0001 60001 T01560144 55003=
201902060752 METAR KATL 060752Z 20006KT 8SM FEW100 BKN120 BKN250 16/14 A3010 RMK AO2 SLP185 T01560139=
201902060652 METAR KATL 060652Z 21005KT 8SM FEW100 BKN130 BKN250 16/14 A3010 RMK AO2 SLP189 T01560139=
201902060552 METAR KATL 060552Z 21006KT 9SM SCT120 16/14 A3011 RMK AO2 SLP193 T01560139 10189 20150 56003=
201902060452 METAR KATL 060452Z 00000KT 9SM FEW120 16/14 A3012 RMK AO2 SLP194 T01560139 402330128=
201902060352 METAR KATL 060352Z 21005KT 10SM BKN120 16/14 A3011 RMK AO2 SLP193 T01610144=
201902060252 METAR KATL 060252Z 21005KT 10SM BKN120 BKN250 17/14 A3012 RMK AO2 SLP197 T01670144 53012=
201902060152 METAR KATL 060152Z 16003KT 10SM FEW100 FEW250 17/14 A3010 RMK AO2 SLP189 T01670139=
201902060052 METAR KATL 060052Z 19004KT 10SM FEW100 FEW250 18/14 A3009 RMK AO2 SLP187 T01780144=
201902052352 METAR KATL 052352Z 18006KT 10SM FEW100 FEW250 19/14 A3009 RMK AO2 SLP185 T01890144 10233 20189 53008=
201902052252 METAR KATL 052252Z 20009KT 10SM FEW030 SCT045 BKN250 21/14 A3008 RMK AO2 SLP182 T02060144=
201902052152 METAR KATL 052152Z 15007KT 10SM BKN035 BKN045 BKN250 22/14 A3006 RMK AO2 SLP175 T02170144=
201902052052 METAR KATL 052052Z 12005KT 10SM FEW030 BKN050 BKN250 22/14 A3006 RMK AO2 SLP176 T02170144 56022=
201902051952 METAR KATL 051952Z 00000KT 10SM FEW030 SCT050 BKN250 23/14 A3009 RMK AO2 SLP183 T02330144=
201902051852 METAR KATL 051852Z 00000KT 10SM FEW030 BKN040 BKN250 21/14 A3010 RMK AO2 SLP189 T02110144=
201902051838 SPECI KATL 051838Z 00000KT 10SM SCT023 BKN030 BKN250 21/14 A3011 RMK AO2 T02060144=
201902051752 METAR KATL 051752Z 31004KT 10SM BKN020 BKN030 BKN250 20/14 A3013 RMK AO2 SLP198 T02000144 10206 20139 58005=
201902051708 SPECI KATL 051708Z 27004KT 10SM BKN017 BKN030 BKN250 20/14 A3014 RMK AO2 T02000144=
201902051652 METAR KATL 051652Z 34006KT 10SM SCT015 SCT030 BKN250 19/14 A3014 RMK AO2 SLP203 T01940144=
201902051624 SPECI KATL 051624Z VRB05KT 10SM SCT012 BKN200 BKN250 19/14 A3014 RMK AO2 T01890144=
201902051552 METAR KATL 051552Z 27004KT 8SM BKN008 BKN010 BKN250 18/14 A3015 RMK AO2 SLP205 T01830144=
201902051525 SPECI KATL 051525Z 32006KT 6SM BR BKN005 16/14 A3014 RMK AO2 T01610139=
201902051452 METAR KATL 051452Z 28006KT 2 1/2SM BCFG BR BKN005 16/14 A3014 RMK AO2 SFC VIS 4 SLP205 T01610139 51023=
201902051429 SPECI KATL 051429Z 29006KT 3/4SM R09R/P6000FT BR OVC004 15/13 A3014 RMK AO2 SFC VIS 4 T01500133=
201902051352 METAR KATL 051352Z 26003KT 1 1/4SM R09R/6000VP6000FT BR OVC004 15/13 A3012 RMK AO2 SFC VIS 4 SLP198 VIS SE-SW 1 1/2 CIG 003V005 TWRINC T01500133=
201902051319 SPECI KATL 051319Z 28004KT 1 1/2SM BR OVC004 14/13 A3011 RMK AO2 SFC VIS 4 CIG 003V005 TWRINC T01440128=
201902051305 SPECI KATL 051305Z 24003KT 3SM BR OVC005 14/12 A3010 RMK AO2 SFC VIS 6 T01440122=
201902051252 METAR KATL 051252Z 22003KT 6SM BR OVC006 14/12 A3010 RMK AO2 SLP190 T01390122=
201902051222 SPECI KATL 051222Z 25003KT 6SM BR BKN005 OVC070 14/12 A3008 RMK AO2 T01440122=
201902051152 METAR KATL 051152Z 24004KT 10SM FEW007 BKN070 14/12 A3007 RMK AO2 SLP182 T01390122 10139 20128 51010=
201902051109 SPECI KATL 051109Z 23004KT 10SM FEW007 BKN070 14/12 A3007 RMK AO2 T01390117=
201902051052 METAR KATL 051052Z 23005KT 10SM FEW014 FEW042 BKN070 14/12 A3007 RMK AO2 SLP178 T01390117=
201902051038 SPECI KATL 051038Z 24006KT 10SM FEW015 SCT042 BKN070 14/12 A3007 RMK AO2 T01390117=
201902051017 SPECI KATL 051017Z 24006KT 10SM BKN015 OVC065 14/12 A3007 RMK AO2 T01390117=
201902050952 METAR KATL 050952Z 23005KT 10SM FEW022 BKN065 14/12 A3006 RMK AO2 SLP175 T01390117=
201902050852 METAR KATL 050852Z 00000KT 10SM FEW016 BKN070 13/11 A3004 RMK AO2 SLP170 T01330111 56006=
201902050811 SPECI KATL 050811Z 23003KT 10SM FEW016 BKN075 13/11 A3004 RMK AO2 T01330111=
201902050752 METAR KATL 050752Z 24003KT 10SM BKN018 OVC075 14/12 A3005 RMK AO2 SLP172 T01390117=
201902050714 SPECI KATL 050714Z 22003KT 10SM FEW021 OVC075 14/11 A3005 RMK AO2 T01390111=
201902050652 METAR KATL 050652Z 20003KT 10SM BKN023 BKN038 OVC075 14/11 A3005 RMK AO2 SLP174 T01390111=
201902050638 SPECI KATL 050638Z 21003KT 10SM BKN023 OVC038 14/11 A3006 RMK AO2 T01390111=
201902050552 METAR KATL 050552Z 22004KT 10SM FEW025 SCT045 OVC075 14/11 A3006 RMK AO2 SLP178 T01390111 10167 20139 50003=
201902050452 METAR KATL 050452Z 25004KT 10SM SCT049 BKN075 14/11 A3007 RMK AO2 SLP179 T01440111 401940067=
201902050352 METAR KATL 050352Z 21004KT 10SM BKN040 BKN070 14/11 A3007 RMK AO2 SLP179 T01440111=
201902050252 METAR KATL 050252Z 23003KT 10SM SCT045 BKN070 14/11 A3005 RMK AO2 SLP175 T01440106 51006=
201902050152 METAR KATL 050152Z 21005KT 10SM SCT060 14/11 A3005 RMK AO2 SLP176 T01440106=
201902050052 METAR KATL 050052Z 24003KT 10SM FEW048 SCT065 16/11 A3004 RMK AO2 SLP173 T01560106=
201902042352 METAR KATL 042352Z 20003KT 10SM FEW032 SCT050 BKN110 17/11 A3003 RMK AO2 SLP171 60000 T01670106 10194 20161 53004=
201902042252 METAR KATL 042252Z 22005KT 10SM BKN033 BKN100 18/11 A3003 RMK AO2 SLP167 T01780106=
201902042152 METAR KATL 042152Z 19003KT 10SM SCT033 SCT100 18/11 A3002 RMK AO2 SLP165 T01830106=
201902042052 METAR KATL 042052Z 19006KT 10SM FEW030 BKN090 BKN120 BKN250 18/11 A3002 RMK AO2 SLP165 60000 T01830106 56018=
201902041952 METAR KATL 041952Z 20006KT 10SM SCT030 BKN100 BKN150 BKN250 18/11 A3003 RMK AO2 RAB30E45 SLP168 P0000 T01780106=
201902041852 METAR KATL 041852Z 23006KT 10SM FEW030 BKN100 BKN150 BKN250 18/11 A3005 RMK AO2 SLP175 T01780106=
201902041752 METAR KATL 041752Z 00000KT 10SM FEW030 BKN110 BKN150 BKN250 17/11 A3008 RMK AO2 SLP185 VIRGA DSNT SE-SW T01720106 10183 20067 58009=
201902041652 METAR KATL 041652Z 25004KT 10SM FEW025 SCT110 BKN150 BKN250 18/11 A3011 RMK AO2 SLP194 T01780106=
201902041552 METAR KATL 041552Z 20006KT 10SM BKN110 BKN150 BKN250 16/11 A3011 RMK AO2 SLP197 T01560106=
201902041452 METAR KATL 041452Z 20006KT 10SM FEW100 FEW150 BKN250 12/09 A3011 RMK AO2 SLP195 T01170094 53010=
201902041352 METAR KATL 041352Z 21003KT 10SM FEW004 FEW150 SCT200 BKN250 11/09 A3010 RMK AO2 SLP193 T01060094=
201902041252 METAR KATL 041252Z 00000KT 10SM FEW007 FEW040 SCT200 SCT250 09/07 A3008 RMK AO2 SLP188 CIG LWR DSNT S-W T00890072=
201902041250 SPECI KATL 041250Z 00000KT 10SM FEW007 FEW040 SCT200 SCT250 08/07 A3008 RMK AO2=
201902041152 METAR KATL 041152Z 00000KT 10SM FEW250 07/05 A3008 RMK AO2 SLP186 T00670050 10100 20067 53008=
201902041052 METAR KATL 041052Z 00000KT 10SM FEW250 08/07 A3007 RMK AO2 SLP181 T00830067=
201902040952 METAR KATL 040952Z 00000KT 10SM SCT250 08/06 A3006 RMK AO2 SLP178 T00780061=
201902040852 METAR KATL 040852Z 08005KT 10SM FEW250 08/06 A3005 RMK AO2 SLP176 T00830056 58006=
201902040752 METAR KATL 040752Z 12003KT 10SM FEW250 09/07 A3006 RMK AO2 SLP178 T00940067=
201902040652 METAR KATL 040652Z 00000KT 10SM FEW250 09/06 A3007 RMK AO2 SLP182 T00940056=
201902040552 METAR KATL 040552Z 10004KT 10SM FEW250 10/06 A3007 RMK AO2 SLP183 T01000056 10156 20100 50003=
201902040452 METAR KATL 040452Z 09004KT 10SM CLR 10/06 A3008 RMK AO2 SLP185 T01000061 401830100=
201902040352 METAR KATL 040352Z 00000KT 10SM CLR 12/06 A3007 RMK AO2 SLP183 T01170061=
201902040252 METAR KATL 040252Z 00000KT 10SM CLR 12/06 A3007 RMK AO2 SLP181 T01220061 50002=
201902040152 METAR KATL 040152Z 00000KT 10SM CLR 13/07 A3007 RMK AO2 SLP181 T01280067=
201902040052 METAR KATL 040052Z 00000KT 10SM FEW040 14/07 A3006 RMK AO2 SLP179 T01440067=
201902032352 METAR KATL 032352Z 12003KT 10SM FEW042 16/07 A3006 RMK AO2 SLP177 T01560067 10183 20150 53001=
201902032252 METAR KATL 032252Z 12004KT 10SM FEW043 17/07 A3005 RMK AO2 SLP172 T01670072=
201902032152 METAR KATL 032152Z 00000KT 10SM SCT043 18/07 A3006 RMK AO2 SLP175 T01780072=
201902032052 METAR KATL 032052Z 13006KT 10SM SCT044 BKN150 18/07 A3005 RMK AO2 SLP175 T01780067 56019=
201902031952 METAR KATL 031952Z 09005KT 10SM BKN044 BKN055 BKN150 17/07 A3006 RMK AO2 SLP178 T01720072=
201902031852 METAR KATL 031852Z 08005KT 10SM BKN034 BKN044 16/07 A3009 RMK AO2 SLP188 T01610067=
201902031752 METAR KATL 031752Z 09009G14KT 10SM SCT036 SCT046 BKN150 17/07 A3011 RMK AO2 SLP195 60000 T01670072 10167 20111 58009=
201902031652 METAR KATL 031652Z 09007KT 10SM BKN035 BKN150 14/08 A3014 RMK AO2 SLP204 T01440083=
201902031552 METAR KATL 031552Z 07005KT 10SM BKN033 13/09 A3015 RMK AO2 SLP209 T01330089=
201902031452 METAR KATL 031452Z 05006KT 10SM OVC030 13/08 A3014 RMK AO2 SLP205 60000 T01280083 53010=
201902031352 METAR KATL 031352Z 05007KT 10SM OVC030 12/08 A3013 RMK AO2 RAB02E23 SLP202 P0000 T01170083=
201902031329 SPECI KATL 031329Z 04006KT 10SM FEW012 OVC030 12/08 A3013 RMK AO2 RAB02E23 SHRA N P0000 T01170083=
201902031252 METAR KATL 031252Z 04005KT 9SM OVC029 12/08 A3012 RMK AO2 RAE17B29E43 SLP198 P0000 T01170083=
201902031222 SPECI KATL 031222Z 09004KT 10SM FEW012 OVC030 12/08 A3011 RMK AO2 RAE17 P0000 T01170083=
201902031152 METAR KATL 031152Z 05005KT 7SM -RA FEW012 BKN028 OVC050 12/08 A3011 RMK AO2 RAB10 SLP195 P0004 60004 70004 T01170083 10139 20117 53004=
201902031052 METAR KATL 031052Z 08006KT 10SM FEW018 BKN026 OVC046 12/07 A3009 RMK AO2 SLP188 T01220072=
201902031011 SPECI KATL 031011Z 00000KT 10SM BKN028 BKN032 OVC046 13/07 A3009 RMK AO2 T01330067=
201902030952 METAR KATL 030952Z 00000KT 10SM SCT028 OVC046 13/07 A3009 RMK AO2 SLP186 T01280067=
201902030940 SPECI KATL 030940Z 00000KT 10SM SCT028 BKN035 OVC045 13/07 A3009 RMK AO2 T01280067=
201902030852 METAR KATL 030852Z 14003KT 10SM BKN028 OVC045 13/07 A3010 RMK AO2 SLP190 T01280072 58010=
201902030759 SPECI KATL 030759Z 14003KT 10SM BKN027 BKN034 OVC085 13/07 A3011 RMK AO2 T01330072=
201902030752 METAR KATL 030752Z 14003KT 10SM SCT027 BKN043 OVC085 13/07 A3011 RMK AO2 SLP195 T01330067=
201902030652 METAR KATL 030652Z 10003KT 10SM FEW028 BKN037 OVC055 13/07 A3012 RMK AO2 SLP198 T01330072=
201902030618 SPECI KATL 030618Z 12003KT 10SM FEW022 BKN031 BKN055 BKN200 13/07 A3012 RMK AO2 T01330072=
201902030552 METAR KATL 030552Z 11006KT 10SM SCT022 BKN028 OVC050 14/07 A3013 RMK AO2 SLP201 BINOVC T01390072 10156 20133 58013=
201902030452 METAR KATL 030452Z 12003KT 10SM FEW020 BKN026 OVC045 13/08 A3015 RMK AO2 SLP207 T01330083 401890044=
201902030431 SPECI KATL 030431Z 00000KT 10SM FEW021 BKN026 OVC050 13/08 A3015 RMK AO2 T01330083=
201902030352 METAR KATL 030352Z 14003KT 10SM FEW024 SCT055 BKN095 BKN250 14/08 A3016 RMK AO2 SLP209 T01390083=
201902030344 SPECI KATL 030344Z 11005KT 10SM SCT024 BKN055 BKN095 OVC250 14/08 A3016 RMK AO2 T01390083=
201902030252 METAR KATL 030252Z 16003KT 10SM BKN024 OVC038 14/08 A3017 RMK AO2 SLP216 T01440083 50004=
201902030243 SPECI KATL 030243Z 16003KT 10SM BKN026 BKN038 OVC050 14/08 A3017 RMK AO2 T01440083=
201902030152 METAR KATL 030152Z 00000KT 10SM SCT032 BKN045 OVC085 14/08 A3017 RMK AO2 SLP217 BINOVC T01440083=
201902030052 METAR KATL 030052Z 15003KT 10SM FEW046 SCT055 BKN090 BKN250 14/09 A3016 RMK AO2 SLP215 T01440089=
201902022352 METAR KATL 022352Z 13004KT 10SM FEW050 BKN065 OVC090 16/09 A3016 RMK AO2 SLP213 BINOVC T01560089 10189 20156 56006=
201902022252 METAR KATL 022252Z 15004KT 10SM FEW001 SCT060 BKN090 16/09 A3017 RMK AO2 SLP216 FU FEW001 T01610089=
201902022152 METAR KATL 022152Z 13006KT 10SM FEW060 BKN090 17/09 A3017 RMK AO2 SLP216 T01670089=
201902022052 METAR KATL 022052Z 14007KT 10SM FEW038 BKN095 BKN150 18/08 A3018 RMK AO2 SLP219 T01780083 56023=
201902021952 METAR KATL 021952Z 15004KT 10SM FEW036 BKN090 BKN250 18/08 A3019 RMK AO2 SLP225 T01780078=
201902021852 METAR KATL 021852Z VRB05KT 10SM FEW065 BKN085 BKN150 BKN250 18/07 A3021 RMK AO2 SLP229 T01780072=
201902021752 METAR KATL 021752Z 13003KT 10SM BKN090 BKN150 16/07 A3025 RMK AO2 SLP243 T01610072 10167 20050 58014=
201902021652 METAR KATL 021652Z 15005KT 10SM BKN085 BKN150 15/05 A3028 RMK AO2 SLP254 T01500050=
201902021552 METAR KATL 021552Z 09008KT 10SM SCT075 SCT150 15/03 A3029 RMK AO2 SLP256 T01500028=
201902021452 METAR KATL 021452Z 08005KT 10SM FEW080 FEW150 11/01 A3029 RMK AO2 SLP258 T01110006 50008=
201902021352 METAR KATL 021352Z 05006KT 10SM SCT080 BKN150 08/M01 A3029 RMK AO2 SLP260 T00831006=
201902021252 METAR KATL 021252Z 04005KT 10SM FEW100 06/M01 A3028 RMK AO2 SLP257 T00561011=
201902021152 METAR KATL 021152Z 03006KT 10SM FEW100 06/00 A3026 RMK AO2 SLP250 T00560000 10083 20044 55000=
201902021052 METAR KATL 021052Z 02006KT 10SM FEW100 06/M01 A3026 RMK AO2 SLP248 T00561006=
201902020952 METAR KATL 020952Z 00000KT 10SM FEW110 05/M01 A3026 RMK AO2 SLP247 T00501006=
201902020852 METAR KATL 020852Z 11003KT 10SM FEW110 06/M01 A3026 RMK AO2 SLP249 T00611006 56009=
201902020752 METAR KATL 020752Z 00000KT 10SM FEW110 07/M01 A3027 RMK AO2 SLP251 T00721006=
201902020652 METAR KATL 020652Z 00000KT 10SM SCT110 08/M01 A3029 RMK AO2 SLP257 T00831006=
201902020552 METAR KATL 020552Z 16003KT 10SM FEW100 07/00 A3029 RMK AO2 SLP259 T00720000 10144 20072 56002=
201902020452 METAR KATL 020452Z 12003KT 10SM FEW100 09/M01 A3030 RMK AO2 SLP262 T00891006 401670011=
201902020352 METAR KATL 020352Z 15004KT 10SM CLR 09/M01 A3029 RMK AO2 SLP260 T00941006=
201902020252 METAR KATL 020252Z 00000KT 10SM FEW250 09/M01 A3030 RMK AO2 SLP263 T00941006 51005=
201902020152 METAR KATL 020152Z 14003KT 10SM FEW250 11/M01 A3030 RMK AO2 SLP264 T01111006=
201902020052 METAR KATL 020052Z 00000KT 10SM FEW250 13/M02 A3029 RMK AO2 SLP262 T01281017=
201902012352 METAR KATL 012352Z 34004KT 10SM FEW250 14/M02 A3028 RMK AO2 SLP258 T01391022 10167 20133 53005=
201902012252 METAR KATL 012252Z 32006KT 10SM FEW250 15/M02 A3027 RMK AO2 SLP254 T01501017=
201902012152 METAR KATL 012152Z 34003KT 10SM FEW250 17/M01 A3027 RMK AO2 SLP252 T01671006=
201902012052 METAR KATL 012052Z VRB05KT 10SM SCT250 17/M01 A3027 RMK AO2 SLP251 T01671011 55017=
201902011952 METAR KATL 011952Z VRB03KT 10SM BKN250 16/M03 A3027 RMK AO2 SLP251 T01561028=
201902011852 METAR KATL 011852Z 00000KT 10SM BKN250 14/M03 A3029 RMK AO2 SLP259 T01441028=
201902011752 METAR KATL 011752Z 00000KT 10SM BKN250 14/M02 A3032 RMK AO2 SLP270 T01391017 10139 20017 58011=
201902011652 METAR KATL 011652Z 13003KT 10SM BKN250 11/M03 A3033 RMK AO2 SLP275 T01111033=
201902011552 METAR KATL 011552Z 07004KT 10SM FEW200 BKN250 09/M03 A3035 RMK AO2 SLP281 T00891033=
201902011452 METAR KATL 011452Z 00000KT 10SM FEW120 FEW200 BKN250 07/M03 A3035 RMK AO2 SLP283 T00721033 53015=
201902011352 METAR KATL 011352Z 00000KT 10SM FEW110 SCT200 BKN250 04/M04 A3033 RMK AO2 SLP275 T00441039=
201902011252 METAR KATL 011252Z 14004KT 10SM FEW110 SCT200 BKN250 02/M05 A3031 RMK AO2 SLP270 T00171050=
