##########################################################
# Query made at 04/20/2024 00:03:57 UTC
# Time interval: from 03/01/2019 12:00  to 03/31/2019 12:59  UTC
##########################################################

##########################################################
# KATL, Atlanta, Hartsfield - Jackson Atlanta International Airport (United States)
# WMO index: 72219. WIGOS ID: 0-20000-0-72219
# Latitude 33-38-59N. Longitude 084-25-00W. Altitude 312 m.
##########################################################

201903311252 METAR KATL 311252Z 33016G23KT 10SM OVC008 07/04 A3004 RMK AO2 RAE25 SLP170 P0000 T00670044 $=
201903311152 METAR KATL 311152Z 33013G19KT 9SM -RA OVC008 08/06 A3000 RMK AO2 SLP157 CIG 007V010 P0000 60010 70010 T00780061 10200 20078 53023 $=
201903311052 METAR KATL 311052Z 31014KT 6SM -RA BR BKN008 OVC042 11/08 A2997 RMK AO2 SLP144 TSB26E43 CIG 007V010 TS DSIPTD P0009 T01060083 $=
201903311044 SPECI KATL 311044Z 31014G22KT 7SM -RA BKN009 BKN022 OVC042 11/09 A2995 RMK AO2 TSB26E43 TS DSIPTD P0008 T01060089 $=
201903311036 SPECI KATL 311036Z 33010KT 4SM TS BR FEW009 SCT014CB OVC046 11/09 A2994 RMK AO2 TSB26 OCNL LTGIC SE TS VC SE MOV NE P0007 T01110089 $=
201903311026 SPECI KATL 311026Z 31020G25KT 5SM VCTS RA BR SCT012 BKN022 OVC048 12/09 A2998 RMK AO2 P0002 T01170094=
201903310952 METAR KATL 310952Z 31012KT 8SM -RA FEW012 OVC046 13/11 A2992 RMK AO2 RAE20B45 SLP127 P0001 T01330106=
201903310905 SPECI KATL 310905Z 32014G21KT 6SM -RA FEW012 SCT019 OVC031 13/11 A2993 RMK AO2 P0000 T01330106=
201903310852 METAR KATL 310852Z 33014KT 7SM -RA SCT013 BKN019 OVC032 14/11 A2993 RMK AO2 PK WND 31030/0756 WSHFT 0743 RAB0755E19B22E32B50 SLP129 P0000 60000 T01390111 53014=
201903310846 SPECI KATL 310846Z 33016G22KT 10SM SCT013 BKN019 OVC032 14/12 A2993 RMK AO2 PK WND 31030/0756 WSHFT 0743 RAB0755E19B22E32 P0000=
201903310819 SPECI KATL 310819Z 32015KT 9SM BKN012 OVC019 16/13 A2991 RMK AO2 PK WND 31030/0756 WSHFT 0743 RAB0755E19 CIG 011V015 P0000 T01560128=
201903310758 SPECI KATL 310758Z 30019G30KT 8SM -RA OVC023 17/13 A2990 RMK AO2 PK WND 31030/0756 WSHFT 0743 RAB55 CIG 021V026 P0000 T01720128=
201903310752 METAR KATL 310752Z 29015G20KT 10SM BKN026 OVC046 19/13 A2989 RMK AO2 SLP113 T01890128=
201903310732 SPECI KATL 310732Z 25013G22KT 10SM BKN028 BKN046 BKN055 OVC180 19/12 A2988 RMK AO2 T01940122=
201903310652 METAR KATL 310652Z 23013G21KT 10SM SCT045 BKN065 OVC180 19/12 A2988 RMK AO2 PK WND 22026/0600 SLP110 T01940117=
201903310552 METAR KATL 310552Z 21018G25KT 9SM BKN060 OVC200 20/11 A2989 RMK AO2 SLP114 T02000111 10222 20194 58009=
201903310452 METAR KATL 310452Z 22015G22KT 10SM SCT065 BKN085 OVC200 20/09 A2991 RMK AO2 SLP121 ACC NW-NE T02000089 402500128=
201903310352 METAR KATL 310352Z 21010KT 10SM FEW075 BKN100 BKN200 BKN250 20/08 A2991 RMK AO2 SLP120 ACC N-NE T02000083=
201903310252 METAR KATL 310252Z 20009KT 10SM SCT075 BKN100 BKN200 BKN250 20/08 A2992 RMK AO2 SLP124 T02000078 58005=
201903310152 METAR KATL 310152Z 20008KT 10SM FEW075 BKN095 BKN200 BKN250 21/08 A2993 RMK AO2 SLP132 T02060078=
201903310052 METAR KATL 310052Z 19006KT 10SM SCT090 SCT200 BKN250 21/08 A2992 RMK AO2 SLP128 T02060083=
201903302352 METAR KATL 302352Z 21008KT 10SM SCT080 SCT200 BKN250 22/08 A2993 RMK AO2 SLP131 T02220083 10250 20222 56008=
201903302252 METAR KATL 302252Z 24011KT 10SM SCT080 SCT200 BKN250 23/08 A2994 RMK AO2 SLP134 T02330078=
201903302152 METAR KATL 302152Z 22010G18KT 10SM SCT075 SCT200 BKN250 24/07 A2994 RMK AO2 SLP134 T02390067=
201903302052 METAR KATL 302052Z 23014G21KT 10SM FEW070 SCT200 SCT250 24/06 A2996 RMK AO2 SLP137 T02440056 56028=
201903301952 METAR KATL 301952Z 20011G23KT 10SM FEW070 FEW250 SCT300 24/06 A2998 RMK AO2 SLP145 T02440056=
201903301852 METAR KATL 301852Z 19010G22KT 10SM FEW060 SCT200 SCT250 BKN300 23/07 A3001 RMK AO2 SLP156 T02330072=
201903301752 METAR KATL 301752Z 23010G20KT 10SM FEW055 SCT200 SCT250 22/08 A3004 RMK AO2 SLP168 T02220078 10228 20128 58017=
201903301652 METAR KATL 301652Z 22014G18KT 10SM FEW050 SCT200 SCT250 21/08 A3007 RMK AO2 SLP179 T02110083=
201903301552 METAR KATL 301552Z 19013KT 10SM SCT045 SCT140 BKN250 20/08 A3010 RMK AO2 SLP189 T02000083=
201903301452 METAR KATL 301452Z 20006KT 10SM SCT140 BKN250 19/09 A3009 RMK AO2 SLP185 T01890094 53007=
201903301352 METAR KATL 301352Z 00000KT 10SM SCT150 SCT200 BKN250 15/09 A3008 RMK AO2 SLP181 T01500094=
201903301252 METAR KATL 301252Z 00000KT 10SM FEW150 SCT200 BKN250 14/09 A3008 RMK AO2 SLP181 VIRGA OHD-W-N T01390089=
201903301152 METAR KATL 301152Z 00000KT 10SM FEW150 SCT200 BKN250 13/08 A3007 RMK AO2 SLP180 T01330078 10150 20128 50006=
201903301052 METAR KATL 301052Z 24003KT 10SM SCT150 BKN200 OVC250 13/08 A3007 RMK AO2 SLP179 T01330078=
201903300952 METAR KATL 300952Z 22004KT 10SM OVC180 13/08 A3006 RMK AO2 SLP175 VIRGA ALQDS T01330078=
201903300852 METAR KATL 300852Z 22005KT 10SM FEW060 BKN200 BKN250 14/08 A3005 RMK AO2 SLP171 T01390078 55010=
201903300752 METAR KATL 300752Z 20006KT 10SM FEW060 SCT200 BKN250 14/07 A3005 RMK AO2 SLP169 T01440072=
201903300652 METAR KATL 300652Z 18007KT 10SM FEW060 SCT200 BKN250 15/07 A3005 RMK AO2 SLP170 T01500072=
201903300552 METAR KATL 300552Z 00000KT 10SM FEW060 SCT200 BKN250 14/08 A3008 RMK AO2 SLP183 T01440078 10206 20144 58014=
201903300452 METAR KATL 300452Z 15004KT 10SM FEW060 SCT200 BKN250 15/08 A3010 RMK AO2 SLP190 T01500083 402280094=
201903300352 METAR KATL 300352Z 00000KT 10SM SCT200 BKN250 16/08 A3012 RMK AO2 SLP193 T01610083=
201903300252 METAR KATL 300252Z 23003KT 10SM FEW150 SCT200 BKN250 17/08 A3012 RMK AO2 SLP196 T01720078 51007=
201903300152 METAR KATL 300152Z 23004KT 10SM FEW150 BKN200 BKN250 18/08 A3012 RMK AO2 SLP197 T01830078=
201903300052 METAR KATL 300052Z 23003KT 10SM SCT150 BKN200 BKN250 19/08 A3011 RMK AO2 SLP195 T01940078=
201903292352 METAR KATL 292352Z 25003KT 10SM FEW150 SCT200 BKN250 20/07 A3010 RMK AO2 SLP192 T02000067 10228 20200 55002=
201903292252 METAR KATL 292252Z 22007KT 10SM FEW150 SCT200 BKN250 22/07 A3010 RMK AO2 SLP189 T02170067=
201903292152 METAR KATL 292152Z 22006KT 10SM FEW065 SCT200 BKN250 22/06 A3010 RMK AO2 SLP190 T02220061=
201903292052 METAR KATL 292052Z 18006KT 10SM FEW065 SCT170 BKN250 BKN300 23/06 A3011 RMK AO2 SLP191 VIRGA W T02280056 56029=
201903291952 METAR KATL 291952Z 29007KT 10SM FEW065 SCT170 BKN250 BKN300 22/06 A3013 RMK AO2 SLP200 T02220061=
201903291852 METAR KATL 291852Z 26009KT 10SM FEW065 SCT180 BKN250 BKN300 22/07 A3017 RMK AO2 SLP213 T02170067=
201903291752 METAR KATL 291752Z 21006KT 10SM FEW065 SCT180 BKN250 BKN300 21/06 A3020 RMK AO2 SLP222 T02110061 10222 20094 58015=
201903291652 METAR KATL 291652Z 29007KT 10SM FEW180 BKN250 BKN300 21/06 A3022 RMK AO2 SLP231 T02060061=
201903291552 METAR KATL 291552Z 25006KT 10SM FEW180 BKN250 BKN300 21/07 A3023 RMK AO2 SLP235 T02060067=
201903291452 METAR KATL 291452Z 24006KT 10SM FEW180 SCT250 BKN300 19/07 A3024 RMK AO2 SLP239 T01940067 53001 $=
201903291352 METAR KATL 291352Z 22003KT 10SM SCT250 16/07 A3024 RMK AO2 SLP238 T01560067 $=
201903291252 METAR KATL 291252Z 22003KT 9SM SCT200 BKN250 12/05 A3025 RMK AO2 SLP240 T01170050 $=
201903291152 METAR KATL 291152Z 16003KT 9SM SCT200 BKN250 09/04 A3024 RMK AO2 SLP240 T00940039 10128 20094 51007 $=
201903291052 METAR KATL 291052Z 27003KT 10SM SCT200 BKN250 10/03 A3024 RMK AO2 SLP238 T01000028=
201903290952 METAR KATL 290952Z 28003KT 10SM SCT200 BKN250 11/03 A3023 RMK AO2 SLP234 T01060028=
201903290852 METAR KATL 290852Z 28003KT 10SM BKN200 BKN250 11/03 A3022 RMK AO2 SLP232 T01110028 56014=
201903290752 METAR KATL 290752Z 00000KT 10SM BKN200 BKN250 11/01 A3022 RMK AO2 SLP232 T01110011=
201903290652 METAR KATL 290652Z 00000KT 10SM SCT200 BKN250 11/02 A3025 RMK AO2 SLP240 T01060017=
201903290552 METAR KATL 290552Z 00000KT 10SM SCT200 BKN250 13/M01 A3026 RMK AO2 SLP246 T01281011 10183 20117 56007=
201903290452 METAR KATL 290452Z 00000KT 10SM SCT250 12/M01 A3027 RMK AO2 SLP248 T01221006 402060050=
201903290352 METAR KATL 290352Z 00000KT 10SM SCT250 13/00 A3027 RMK AO2 SLP250 T01280000=
201903290252 METAR KATL 290252Z 15003KT 10SM BKN250 14/00 A3028 RMK AO2 SLP254 T01390000 50005=
201903290152 METAR KATL 290152Z 14003KT 10SM BKN250 15/M01 A3028 RMK AO2 SLP255 T01501011=
201903290052 METAR KATL 290052Z 17003KT 8SM BKN250 17/00 A3027 RMK AO2 SLP252 T01670000=
201903282352 METAR KATL 282352Z 17003KT 10SM BKN250 18/M02 A3027 RMK AO2 SLP250 T01831022 10206 20172 55002=
201903282252 METAR KATL 282252Z 18006KT 10SM SCT250 19/M03 A3026 RMK AO2 SLP248 T01941033=
201903282152 METAR KATL 282152Z 18005KT 10SM FEW250 20/M04 A3026 RMK AO2 SLP247 T02001039=
201903282052 METAR KATL 282052Z 14008KT 10SM FEW250 20/M03 A3027 RMK AO2 SLP251 T02001033 56028=
201903281952 METAR KATL 281952Z 13007KT 10SM FEW250 20/M03 A3030 RMK AO2 SLP258 T02001028=
201903281852 METAR KATL 281852Z 15004KT 10SM FEW250 18/M03 A3033 RMK AO2 SLP269 T01831033=
201903281752 METAR KATL 281752Z VRB03KT 10SM FEW250 17/M03 A3036 RMK AO2 SLP280 T01721033 10178 20056 58023=
201903281652 METAR KATL 281652Z 13004KT 10SM FEW250 16/M03 A3039 RMK AO2 SLP292 T01561033=
201903281552 METAR KATL 281552Z 16006KT 10SM FEW250 14/M03 A3043 RMK AO2 SLP304 T01441028=
201903281452 METAR KATL 281452Z 09007KT 10SM SCT250 13/M03 A3043 RMK AO2 SLP305 T01331033 51013=
201903281352 METAR KATL 281352Z 10007KT 10SM SCT250 11/M02 A3042 RMK AO2 SLP302 T01061022=
201903281252 METAR KATL 281252Z VRB06KT 10SM FEW200 SCT250 08/M01 A3041 RMK AO2 SLP299 T00831011=
201903281152 METAR KATL 281152Z 09005KT 10SM FEW200 SCT250 06/M01 A3039 RMK AO2 SLP292 T00561011 10089 20050 53013=
201903281052 METAR KATL 281052Z 09004KT 10SM FEW200 FEW250 06/M01 A3037 RMK AO2 SLP286 T00611011=
201903280952 METAR KATL 280952Z 09004KT 10SM FEW250 07/M01 A3036 RMK AO2 SLP281 T00671011=
201903280852 METAR KATL 280852Z 08005KT 10SM CLR 07/00 A3035 RMK AO2 SLP278 T00670000 55003=
201903280752 METAR KATL 280752Z 10004KT 10SM FEW250 07/00 A3034 RMK AO2 SLP277 T00670000=
201903280652 METAR KATL 280652Z 09003KT 10SM FEW250 08/00 A3036 RMK AO2 SLP281 T00830000=
201903280552 METAR KATL 280552Z 13003KT 10SM FEW250 09/00 A3036 RMK AO2 SLP282 T00890000 10150 20089 51003=
201903280452 METAR KATL 280452Z 13003KT 10SM FEW250 09/00 A3036 RMK AO2 SLP281 T00940000 401720083=
201903280352 METAR KATL 280352Z 13004KT 10SM FEW250 11/00 A3035 RMK AO2 SLP280 T01060000=
201903280252 METAR KATL 280252Z 11007KT 10SM FEW250 12/M01 A3035 RMK AO2 SLP279 T01221006 53012=
201903280152 METAR KATL 280152Z 11005KT 10SM FEW250 13/00 A3034 RMK AO2 SLP274 T01280000=
201903280052 METAR KATL 280052Z 10004KT 10SM FEW250 14/M01 A3033 RMK AO2 SLP270 T01391006=
201903272352 METAR KATL 272352Z 10007KT 10SM FEW250 15/M01 A3031 RMK AO2 SLP266 T01501006 10172 20139 53003=
201903272252 METAR KATL 272252Z 10004KT 10SM FEW250 16/M01 A3030 RMK AO2 SLP262 T01611006=
201903272152 METAR KATL 272152Z 12005KT 10SM FEW250 17/M01 A3030 RMK AO2 SLP259 T01671006=
201903272052 METAR KATL 272052Z 00000KT 10SM CLR 17/M01 A3030 RMK AO2 SLP261 T01671011 56025=
201903271952 METAR KATL 271952Z VRB06KT 10SM CLR 16/00 A3031 RMK AO2 SLP265 T01610000=
201903271852 METAR KATL 271852Z 08008KT 10SM CLR 15/M01 A3034 RMK AO2 SLP274 T01501011=
201903271752 METAR KATL 271752Z 09008G15KT 070V140 10SM CLR 14/M02 A3038 RMK AO2 SLP287 T01441017 10144 20083 58006=
201903271652 METAR KATL 271652Z 13010G15KT 10SM CLR 13/M03 A3039 RMK AO2 SLP291 T01281028=
201903271552 METAR KATL 271552Z 10010KT 10SM CLR 12/M01 A3040 RMK AO2 SLP296 T01171011=
201903271452 METAR KATL 271452Z 07016KT 10SM CLR 11/M01 A3040 RMK AO2 SLP296 T01061011 51022=
201903271352 METAR KATL 271352Z 09014KT 10SM FEW060 10/01 A3038 RMK AO2 SLP290 T01000011=
201903271252 METAR KATL 271252Z 08012G20KT 10SM FEW060 09/01 A3037 RMK AO2 SLP284 T00890011=
201903271152 METAR KATL 271152Z 08010KT 10SM FEW055 09/04 A3033 RMK AO2 SLP273 70004 T00890039 10122 20083 53027=
201903271052 METAR KATL 271052Z 08012KT 10SM FEW055 09/04 A3030 RMK AO2 SLP260 T00940039=
201903270952 METAR KATL 270952Z 09007KT 10SM FEW055 FEW070 09/04 A3027 RMK AO2 SLP251 T00940044=
201903270852 METAR KATL 270852Z 09008KT 10SM FEW032 SCT055 BKN070 11/06 A3025 RMK AO2 SLP243 T01060056 53003=
201903270752 METAR KATL 270752Z 09009KT 10SM FEW032 SCT055 BKN070 11/06 A3025 RMK AO2 SLP240 T01110056=
201903270652 METAR KATL 270652Z 10008KT 10SM FEW028 SCT065 BKN085 12/06 A3024 RMK AO2 SLP240 T01170061=
201903270552 METAR KATL 270552Z 10011KT 10SM FEW028 SCT050 BKN065 12/07 A3024 RMK AO2 SLP239 60000 T01220067 10144 20122 51010=
201903270452 METAR KATL 270452Z 10008KT 10SM FEW028 BKN045 BKN070 12/07 A3023 RMK AO2 SLP236 T01220072 401780100=
201903270352 METAR KATL 270352Z 07005KT 10SM FEW012 BKN045 OVC110 13/09 A3023 RMK AO2 SLP236 T01280094=
201903270252 METAR KATL 270252Z 05008KT 10SM FEW012 BKN040 OVC070 13/09 A3021 RMK AO2 RAB22E49 SLP230 P0000 60000 T01280094 53025=
201903270152 METAR KATL 270152Z 33008KT 10SM BKN030 BKN045 OVC070 13/09 A3019 RMK AO2 SLP222 T01330089=
201903270052 METAR KATL 270052Z 34008KT 10SM SCT030 BKN040 OVC070 14/10 A3015 RMK AO2 RAE04 SLP210 P0000 T01390100=
201903270038 SPECI KATL 270038Z 34008KT 10SM SCT030 BKN045 OVC070 14/10 A3015 RMK AO2 RAE04 P0000 T01390100=
201903262352 METAR KATL 262352Z 11004KT 9SM -RA BKN028 BKN050 OVC100 14/10 A3013 RMK AO2 RAB18 SLP204 P0002 60004 T01390100 10178 20133 53015=
201903262320 SPECI KATL 262320Z 05008KT 8SM -RA BKN026 BKN050 OVC090 14/09 A3012 RMK AO2 RAB18 P0000 T01390094=
201903262252 METAR KATL 262252Z 05008KT 10SM BKN030 BKN050 OVC090 14/10 A3011 RMK AO2 RAE51 SLP197 P0001 T01390100=
201903262152 METAR KATL 262152Z 09009KT 8SM -RA BKN032 BKN040 OVC090 14/09 A3010 RMK AO2 RAB38 SLP191 P0001 T01440094=
201903262052 METAR KATL 262052Z 34010KT 10SM BKN040 BKN050 BKN080 16/08 A3009 RMK AO2 SLP187 SHRA DSNT NE-E T01610078 55002=
201903261952 METAR KATL 261952Z 33012KT 10SM FEW040 SCT050 BKN080 18/09 A3007 RMK AO2 SLP182 T01780089=
201903261852 METAR KATL 261852Z 30012KT 10SM BKN035 BKN040 OVC050 16/08 A3009 RMK AO2 SLP188 BINOVC NW-N T01560083=
201903261752 METAR KATL 261752Z 36006KT 10SM BKN030 BKN040 BKN050 17/08 A3009 RMK AO2 SLP188 T01670083 10167 20100 58005=
201903261652 METAR KATL 261652Z VRB03KT 10SM BKN030 BKN050 15/08 A3010 RMK AO2 SLP191 T01500078=
201903261552 METAR KATL 261552Z VRB06KT 10SM FEW020 SCT050 13/07 A3011 RMK AO2 SLP196 T01280072=
201903261500 SPECI KATL 261500Z 31009KT 10SM SCT014 12/07 A3011 RMK AO2 T01170072=
201903261452 METAR KATL 261452Z 32009KT 10SM BKN014 12/07 A3011 RMK AO2 SLP195 T01170067 51019=
201903261352 METAR KATL 261352Z 36013G18KT 10SM OVC012 11/07 A3010 RMK AO2 SLP192 T01060067=
201903261252 METAR KATL 261252Z 33012KT 9SM OVC012 10/07 A3008 RMK AO2 SLP185 T01000072=
201903261152 METAR KATL 261152Z 34011KT 9SM BKN012 11/07 A3005 RMK AO2 SLP176 70034 T01060072 10128 20100 51010=
201903261052 METAR KATL 261052Z 33012KT 10SM FEW014 FEW040 11/07 A3004 RMK AO2 SLP171 T01060072=
201903260952 METAR KATL 260952Z 34011KT 10SM SCT039 11/08 A3003 RMK AO2 SLP167 T01110078=
201903260852 METAR KATL 260852Z 34012KT 10SM FEW030 11/08 A3002 RMK AO2 SLP163 T01110083 53003=
201903260752 METAR KATL 260752Z 34009KT 10SM FEW030 12/09 A3002 RMK AO2 SLP162 T01170089 $=
201903260652 METAR KATL 260652Z 32009KT 10SM FEW030 12/10 A3001 RMK AO2 SLP160 T01220100 $=
201903260552 METAR KATL 260552Z 33005KT 10SM FEW030 13/10 A3001 RMK AO2 SLP160 60001 T01280100 10150 20128 53004 $=
201903260452 METAR KATL 260452Z 31008KT 10SM CLR 13/11 A3000 RMK AO2 SLP157 T01330111 402170122 $=
201903260352 METAR KATL 260352Z 31006KT 10SM FEW035 FEW250 13/12 A3000 RMK AO2 SLP156 T01330117 $=
201903260252 METAR KATL 260252Z 28005KT 10SM FEW035 FEW200 13/12 A3000 RMK AO2 SLP156 60001 T01330117 53013 $=
201903260152 METAR KATL 260152Z 30007KT 10SM FEW020 SCT200 14/12 A2998 RMK AO2 SLP150 T01390117 $=
201903260052 METAR KATL 260052Z 31007KT 10SM FEW050 BKN110 BKN200 14/12 A2996 RMK AO2 RAE06 TSE15 SLP143 LTG DSNT SE P0001 T01440117 $=
201903260015 SPECI KATL 260015Z 27005KT 10SM FEW025 SCT050 SCT100 BKN200 15/12 A2995 RMK AO2 RAE06 TSE15 LTG DSNT E-SE TS MOV SE P0001 T01500122 $=
201903252352 METAR KATL 252352Z 33010KT 8SM -TSRA FEW025CB SCT045 BKN100 BKN200 15/12 A2996 RMK AO2 PK WND 31026/2340 SLP143 RAB09 TSB03 GRB18E20 OCNL LTGICCG NE-SE TS NE-SE MOV SE P0027 60033 T01500117 10217 20150 53011 $=
201903252346 SPECI KATL 252346Z 32011G26KT 7SM R09R/5500VP6000FT -TSRA SCT025CB BKN045 BKN100 OVC200 15/12 A2997 RMK AO2 PK WND 31026/2340 VIS LWR E-S RAB09 TSB03 GRB18E20 OCNL LTGICCG NE-SE-S TS NE-SE-S MOV SE P0024 $=
201903252340 SPECI KATL 252340Z 30016G26KT 2SM +TSRA SCT025CB BKN045 BKN100 OVC200 17/13 A2997 RMK AO2 PK WND 31026/2340 PRESRR RAB09 TSB03 GRB18E20 OCNL LTGICCG NE-OHD-SW TS NE-OHD-SW MOV SE P0003 T01670128 $=
201903252323 SPECI KATL 252323Z 30010KT 7SM -TSRA SCT030CB BKN050 BKN110 OVC200 18/13 A2994 RMK AO2 RAB09 TSB03 GRB18E20 OCNL LTGICCG NE-SE TS NE-SE MOV SE P0000 T01780128 $=
201903252320 SPECI KATL 252320Z VRB06KT 1 1/2SM +TSRAGR SCT030CB BKN050 BKN110 OVC200 18/13 A2994 RMK AO2 RAB09 TSB03 GRB18 OCNL LTGICCG NE-OHD-SW TS NE-OHD-SW MOV SE GR 3/4 P0000 T01830133 $=
201903252304 SPECI KATL 252304Z 35009KT 10SM TS FEW030CB SCT050 BKN110 BKN200 19/13 A2993 RMK AO2 OCNL LTGICCG W-N TS W-N MOV SE T01940133 $=
201903252252 METAR KATL 252252Z 34008KT 10SM FEW030TCU SCT050 BKN110 BKN200 19/13 A2993 RMK AO2 RAB2158E20 SLP132 CB DSNT N-NE & E-SE & NW TCU E-OHD-W P0003 T01940133 $=
201903252152 METAR KATL 252152Z 30009KT 10SM SCT035TCU SCT060 BKN110 21/12 A2992 RMK AO2 SLP128 TCU SE-SW-NW-N T02110122=
201903252052 METAR KATL 252052Z 26013G18KT 10SM FEW030 SCT070 BKN100 22/13 A2993 RMK AO2 SLP129 60003 T02170128 56026=
201903251952 METAR KATL 251952Z 24010KT 10SM FEW030 FEW070 SCT100 SCT200 20/14 A2994 RMK AO2 LTG DSNT NE RAB03E30 SLP135 SHRA DSNT N-NE-E P0003 T02000144=
201903251930 SPECI KATL 251930Z 19011G19KT 10SM FEW030 SCT070 SCT100 BKN200 18/14 A2995 RMK AO2 RAB03E30 VIS LWR NE-SE SHRA P0003 T01830139=
201903251917 SPECI KATL 251917Z 23006G15KT 4SM R09R/6000VP6000FT -RA SCT040 BKN070 OVC100 19/13 A2997 RMK AO2 RAB03 P0000 T01890128=
201903251852 METAR KATL 251852Z 21009KT 10SM FEW040 SCT080 BKN110 OVC150 19/12 A2997 RMK AO2 SLP146 T01940122=
201903251812 SPECI KATL 251812Z 23007KT 10SM FEW030 SCT080 BKN110 OVC150 19/12 A2999 RMK AO2 T01940117=
201903251752 METAR KATL 251752Z 25008KT 10SM SCT030 BKN070 OVC150 20/12 A3001 RMK AO2 SLP157 T02000122 10206 20133 58017=
201903251652 METAR KATL 251652Z 24008KT 10SM FEW050 SCT070 OVC220 19/12 A3003 RMK AO2 SLP164 T01940117=
201903251552 METAR KATL 251552Z 24007KT 10SM FEW050 SCT070 OVC200 19/11 A3005 RMK AO2 SLP172 ACC NE-SE-S T01940111=
201903251452 METAR KATL 251452Z 24009KT 10SM FEW065 BKN075 BKN200 18/11 A3006 RMK AO2 SLP175 ACC E-SE-S T01780106 55000=
201903251352 METAR KATL 251352Z 23004KT 10SM BKN065 BKN080 OVC200 16/09 A3006 RMK AO2 SLP175 ACC ALQDS T01560089=
201903251252 METAR KATL 251252Z 23006KT 10SM BKN065 BKN080 BKN200 14/08 A3006 RMK AO2 SLP175 ACC ALQDS T01390078=
201903251152 METAR KATL 251152Z 23005KT 10SM SCT075 SCT095 BKN200 BKN250 13/07 A3006 RMK AO2 SLP174 ACC ALQDS T01330067 10150 20122 55001=
201903251052 METAR KATL 251052Z 23004KT 10SM FEW110 BKN220 12/06 A3005 RMK AO2 SLP172 T01220061=
201903250952 METAR KATL 250952Z 19003KT 10SM FEW110 BKN220 13/06 A3005 RMK AO2 SLP171 T01280061=
201903250852 METAR KATL 250852Z 20004KT 10SM FEW110 BKN200 BKN250 13/06 A3006 RMK AO2 SLP175 T01280056 58012=
201903250752 METAR KATL 250752Z 21004KT 10SM FEW085 BKN110 BKN150 14/06 A3008 RMK AO2 SLP179 T01390061=
201903250652 METAR KATL 250652Z 17007KT 10SM OVC110 14/06 A3010 RMK AO2 SLP188 T01440061=
201903250552 METAR KATL 250552Z 22005KT 10SM SCT085 SCT110 BKN150 BKN200 BKN250 14/06 A3010 RMK AO2 SLP188 T01440056 10211 20144 58014=
201903250452 METAR KATL 250452Z 22005KT 10SM SCT150 BKN200 BKN250 16/05 A3011 RMK AO2 SLP193 T01560050 402440083=
201903250352 METAR KATL 250352Z 00000KT 10SM SCT150 BKN200 BKN250 16/06 A3013 RMK AO2 SLP200 T01610056=
201903250252 METAR KATL 250252Z 22003KT 10SM FEW150 BKN200 BKN250 17/04 A3014 RMK AO2 SLP204 T01670044 53006=
201903250152 METAR KATL 250152Z 00000KT 10SM FEW150 SCT200 SCT250 18/04 A3014 RMK AO2 SLP203 T01780039=
201903250052 METAR KATL 250052Z 00000KT 10SM FEW150 SCT200 SCT250 19/03 A3013 RMK AO2 SLP201 T01940033=
201903242352 METAR KATL 242352Z 20005KT 9SM FEW150 FEW200 SCT250 21/03 A3012 RMK AO2 SLP199 T02110028 10244 20211 56010=
201903242252 METAR KATL 242252Z 20005KT 10SM FEW200 SCT250 23/03 A3013 RMK AO2 SLP200 T02280028=
201903242152 METAR KATL 242152Z 19007G22KT 160V220 10SM SCT200 SCT250 23/02 A3014 RMK AO2 SLP202 T02330017=
201903242052 METAR KATL 242052Z 20007KT 10SM FEW150 BKN200 BKN250 23/01 A3015 RMK AO2 SLP208 T02330011 56030=
201903241952 METAR KATL 241952Z 21007KT 10SM FEW200 BKN250 BKN300 23/01 A3018 RMK AO2 SLP215 T02330006=
201903241852 METAR KATL 241852Z 17005KT 10SM FEW200 BKN250 BKN300 22/01 A3021 RMK AO2 SLP226 T02220006=
201903241752 METAR KATL 241752Z 18009KT 10SM BKN250 BKN300 22/01 A3025 RMK AO2 SLP237 T02220006 10222 20083 58016=
201903241652 METAR KATL 241652Z 17009G18KT 10SM SCT250 BKN300 21/01 A3027 RMK AO2 SLP246 T02110011=
201903241552 METAR KATL 241552Z 18008KT 10SM SCT250 BKN300 19/04 A3029 RMK AO2 SLP252 T01890039=
201903241452 METAR KATL 241452Z 16008KT 10SM SCT250 BKN300 17/04 A3029 RMK AO2 SLP256 T01670039 50009=
201903241352 METAR KATL 241352Z 18004KT 10SM FEW250 SCT300 13/04 A3030 RMK AO2 SLP258 T01330039=
201903241252 METAR KATL 241252Z 13003KT 10SM FEW200 FEW250 10/03 A3028 RMK AO2 SLP254 T01000033=
201903241152 METAR KATL 241152Z 00000KT 10SM FEW200 FEW250 08/02 A3027 RMK AO2 SLP249 T00830017 10139 20083 53010=
201903241052 METAR KATL 241052Z 13003KT 10SM FEW200 BKN250 09/01 A3025 RMK AO2 SLP242 T00940006=
201903240952 METAR KATL 240952Z 12003KT 10SM SCT200 BKN250 10/00 A3025 RMK AO2 SLP241 T01000000=
201903240852 METAR KATL 240852Z 08006KT 10SM FEW200 SCT250 09/01 A3023 RMK AO2 SLP236 T00940006 56005=
201903240752 METAR KATL 240752Z 10004KT 10SM FEW200 SCT250 12/M01 A3024 RMK AO2 SLP237 T01171006=
201903240652 METAR KATL 240652Z 08005KT 10SM SCT200 BKN250 12/M02 A3024 RMK AO2 SLP239 T01171022=
201903240552 METAR KATL 240552Z 09004KT 10SM SCT200 BKN250 14/M04 A3025 RMK AO2 SLP241 T01391039 10189 20133 58003=
201903240452 METAR KATL 240452Z 08003KT 10SM SCT200 BKN250 14/M04 A3026 RMK AO2 SLP244 T01441044 402280061=
201903240352 METAR KATL 240352Z 03005KT 10SM BKN200 BKN250 15/M05 A3026 RMK AO2 SLP244 T01501050=
201903240252 METAR KATL 240252Z 01005KT 10SM SCT200 BKN250 16/M06 A3026 RMK AO2 SLP245 T01611056 51016=
201903240152 METAR KATL 240152Z 02004KT 10SM BKN200 BKN250 18/M06 A3025 RMK AO2 SLP241 T01781061=
201903240052 METAR KATL 240052Z 00000KT 10SM BKN200 BKN250 17/M02 A3023 RMK AO2 SLP237 T01671017=
201903232352 METAR KATL 232352Z 00000KT 10SM BKN200 BKN250 19/M05 A3021 RMK AO2 SLP230 T01891050 10228 20189 53003=
201903232252 METAR KATL 232252Z 28004KT 10SM SCT200 BKN250 21/M04 A3020 RMK AO2 SLP224 T02111044=
201903232152 METAR KATL 232152Z 28005KT 10SM SCT200 BKN250 BKN300 22/M05 A3020 RMK AO2 SLP223 T02221050=
201903232052 METAR KATL 232052Z 30005KT 10SM SCT250 BKN300 22/M07 A3020 RMK AO2 SLP225 T02171067 56017=
201903231952 METAR KATL 231952Z VRB03KT 10SM SCT250 BKN300 21/M06 A3021 RMK AO2 SLP228 T02061056=
201903231852 METAR KATL 231852Z 22004KT 10SM SCT250 20/M05 A3023 RMK AO2 SLP237 T02001050=
201903231752 METAR KATL 231752Z 22003KT 10SM SCT250 19/M05 A3025 RMK AO2 SLP242 T01891050 10189 20067 58002=
201903231652 METAR KATL 231652Z 00000KT 10SM SCT250 18/M03 A3027 RMK AO2 SLP247 T01781028=
201903231552 METAR KATL 231552Z 34005KT 10SM SCT250 15/M03 A3027 RMK AO2 SLP250 T01501033 $=
201903231452 METAR KATL 231452Z VRB06KT 10SM SCT250 13/M01 A3026 RMK AO2 SLP245 T01281011 53021 $=
201903231352 METAR KATL 231352Z 34007KT 10SM FEW250 11/00 A3023 RMK AO2 SLP238 T01060000 $=
201903231252 METAR KATL 231252Z 34008KT 10SM FEW250 08/M01 A3021 RMK AO2 SLP232 T00831006 $=
201903231152 METAR KATL 231152Z 34007KT 10SM FEW200 FEW250 07/M01 A3019 RMK AO2 SLP225 T00671006 10106 20061 52022 $=
201903231052 METAR KATL 231052Z 31007KT 10SM CLR 07/M01 A3017 RMK AO2 SLP217 T00721006 $=
201903230952 METAR KATL 230952Z 31008KT 10SM CLR 08/M01 A3015 RMK AO2 SLP207 T00781006=
201903230852 METAR KATL 230852Z 31008KT 10SM CLR 08/M01 A3013 RMK AO2 SLP200 T00831006 50012=
201903230752 METAR KATL 230752Z 27005KT 10SM CLR 09/M01 A3013 RMK AO2 SLP201 T00891006=
201903230652 METAR KATL 230652Z 27004KT 10SM CLR 09/M01 A3011 RMK AO2 SLP195 T00941006=
201903230552 METAR KATL 230552Z 25004KT 10SM CLR 10/M01 A3009 RMK AO2 SLP189 T01001006 10161 20100 51003=
201903230452 METAR KATL 230452Z 28006KT 10SM CLR 11/M01 A3009 RMK AO2 SLP188 T01111006 401890044=
201903230352 METAR KATL 230352Z 28008KT 10SM CLR 12/M01 A3009 RMK AO2 SLP188 T01221006=
201903230252 METAR KATL 230252Z 28011KT 10SM CLR 13/M01 A3008 RMK AO2 SLP186 T01331006 53013=
201903230152 METAR KATL 230152Z 28008KT 10SM CLR 13/M01 A3006 RMK AO2 SLP181 T01331011=
201903230052 METAR KATL 230052Z 27005KT 10SM CLR 14/M01 A3005 RMK AO2 SLP176 T01441011=
201903222352 METAR KATL 222352Z 30010KT 10SM FEW250 16/M02 A3004 RMK AO2 SLP173 T01611017 10189 20156 53013=
201903222252 METAR KATL 222252Z 30010KT 10SM FEW250 18/M02 A3002 RMK AO2 SLP166 T01781022=
201903222152 METAR KATL 222152Z 30016G25KT 10SM FEW250 18/M03 A3001 RMK AO2 SLP161 T01831028=
201903222052 METAR KATL 222052Z 29015G21KT 10SM FEW250 19/M01 A3000 RMK AO2 SLP158 T01891006 56023=
201903221952 METAR KATL 221952Z 33013KT 10SM FEW250 18/M01 A3002 RMK AO2 SLP164 T01781011=
201903221852 METAR KATL 221852Z 31014KT 10SM CLR 17/M01 A3004 RMK AO2 SLP172 T01671011=
201903221752 METAR KATL 221752Z 28012KT 10SM CLR 16/M01 A3007 RMK AO2 SLP183 T01561011 10156 20044 50001=
201903221652 METAR KATL 221652Z 27012KT 10SM CLR 14/01 A3008 RMK AO2 SLP186 T01390006=
201903221552 METAR KATL 221552Z 32014KT 10SM CLR 12/M01 A3008 RMK AO2 SLP187 T01171006=
201903221452 METAR KATL 221452Z 33014G21KT 10SM CLR 10/M02 A3007 RMK AO2 SLP183 T01001017 53012=
201903221352 METAR KATL 221352Z 32011G24KT 10SM CLR 08/M01 A3005 RMK AO2 SLP179 T00781011=
201903221252 METAR KATL 221252Z 33015KT 10SM CLR 06/M01 A3003 RMK AO2 SLP172 T00611011=
201903221152 METAR KATL 221152Z 31010KT 10SM CLR 04/M02 A3003 RMK AO2 SLP171 T00441017 10083 20044 53009=
201903221052 METAR KATL 221052Z 32009KT 10SM CLR 05/M02 A3002 RMK AO2 SLP165 T00501022=
201903220952 METAR KATL 220952Z 31011KT 10SM CLR 05/M02 A3000 RMK AO2 SLP162 T00501022=
201903220852 METAR KATL 220852Z 31012KT 10SM CLR 06/M02 A3000 RMK AO2 SLP161 T00561022 58003 $=
201903220752 METAR KATL 220752Z 33013G20KT 10SM CLR 07/M02 A3001 RMK AO2 SLP164 T00671022 $=
201903220652 METAR KATL 220652Z 32016KT 10SM CLR 07/M01 A3002 RMK AO2 PK WND 33026/0553 SLP165 T00721011 $=
201903220552 METAR KATL 220552Z 33019G25KT 10SM CLR 08/00 A3001 RMK AO2 SLP164 T00830000 10144 20083 53024 $=
201903220452 METAR KATL 220452Z 33017G25KT 10SM CLR 11/02 A2998 RMK AO2 PK WND 32026/0438 SLP153 T01060017 401610078=
201903220352 METAR KATL 220352Z 32011KT 10SM CLR 12/01 A2996 RMK AO2 SLP144 T01170011=
201903220252 METAR KATL 220252Z 28013KT 10SM FEW070 12/01 A2994 RMK AO2 SLP138 T01220006 51006=
201903220152 METAR KATL 220152Z 27008KT 10SM FEW070 12/01 A2993 RMK AO2 SLP137 T01220006=
201903220052 METAR KATL 220052Z 28008KT 10SM FEW070 13/01 A2993 RMK AO2 SLP136 T01280006=
201903212352 METAR KATL 212352Z 29013G17KT 10SM FEW070 14/01 A2992 RMK AO2 SLP131 T01440006 10161 20139 53003=
201903212252 METAR KATL 212252Z 29018G22KT 10SM FEW060 SCT075 16/01 A2991 RMK AO2 PK WND 30028/2215 SLP128 T01560006=
201903212152 METAR KATL 212152Z 31014G22KT 10SM FEW050 BKN070 15/01 A2991 RMK AO2 PK WND 28027/2113 SLP129 T01500011=
201903212052 METAR KATL 212052Z 30017G22KT 10SM FEW050 SCT070 15/02 A2991 RMK AO2 PK WND 29029/2025 SLP128 T01500017 58004=
201903211952 METAR KATL 211952Z 32019G25KT 10SM FEW040 BKN050 BKN070 15/02 A2992 RMK AO2 PK WND 32026/1936 SLP131 T01500022=
201903211852 METAR KATL 211852Z 30012G20KT 10SM BKN045 BKN060 BKN120 14/04 A2992 RMK AO2 SLP133 T01390039=
201903211752 METAR KATL 211752Z 30017KT 10SM FEW050 SCT070 BKN120 14/03 A2992 RMK AO2 WSHFT 1733 SLP133 T01440033 10161 20094 58005=
201903211652 METAR KATL 211652Z 29016G24KT 10SM SCT045 BKN060 BKN120 15/02 A2993 RMK AO2 SLP136 T01500022=
201903211552 METAR KATL 211552Z 29017KT 10SM FEW040 FEW080 SCT120 14/03 A2994 RMK AO2 SLP138 T01440033=
201903211452 METAR KATL 211452Z 30010KT 10SM FEW080 13/04 A2994 RMK AO2 SLP139 T01280039 58004=
201903211352 METAR KATL 211352Z 29011KT 10SM FEW080 FEW120 11/03 A2995 RMK AO2 SLP141 ACC DSNT NE NW-N T01110028=
201903211252 METAR KATL 211252Z 27005KT 8SM SCT075 BKN120 BKN200 10/01 A2995 RMK AO2 SLP141 ACC N-NE SW-NW T01000011=
201903211152 METAR KATL 211152Z 00000KT 8SM BKN080 BKN150 09/01 A2995 RMK AO2 SLP142 VIRGA DSNT N-NE T00940006 10094 20078 56005=
201903211052 METAR KATL 211052Z 26007KT 8SM BKN100 OVC150 09/M01 A2996 RMK AO2 SLP143 VIRGA NW-NE T00891006=
201903210952 METAR KATL 210952Z 21004KT 9SM FEW120 BKN180 BKN250 08/M02 A2995 RMK AO2 SLP141 T00831022=
201903210852 METAR KATL 210852Z 23005KT 10SM FEW100 SCT140 BKN250 09/M02 A2997 RMK AO2 SLP147 T00891022 58026=
201903210752 METAR KATL 210752Z 00000KT 10SM SCT075 BKN100 BKN140 BKN200 09/M02 A2999 RMK AO2 SLP153 VIRGA NE-SE T00941022=
201903210652 METAR KATL 210652Z 22004KT 10SM SCT110 BKN140 OVC200 09/M03 A3004 RMK AO2 SLP171 VIRGA OHD-ALQDS T00891028=
201903210552 METAR KATL 210552Z 21003KT 10SM FEW120 BKN180 BKN250 09/M03 A3005 RMK AO2 SLP176 T00891028 10144 20083 58011=
201903210452 METAR KATL 210452Z 00000KT 10SM FEW120 BKN180 09/M03 A3007 RMK AO2 SLP183 T00941028 401720050=
201903210352 METAR KATL 210352Z 00000KT 10SM FEW120 SCT200 10/M04 A3008 RMK AO2 SLP185 T01001039=
201903210252 METAR KATL 210252Z 15003KT 10SM FEW250 11/M03 A3008 RMK AO2 SLP187 T01061028 50000=
201903210152 METAR KATL 210152Z 00000KT 10SM FEW250 12/M04 A3009 RMK AO2 SLP189 T01221039=
201903210052 METAR KATL 210052Z 13003KT 10SM FEW250 13/M03 A3008 RMK AO2 SLP187 T01331028=
201903202352 METAR KATL 202352Z 00000KT 10SM FEW250 14/M05 A3008 RMK AO2 SLP188 T01441050 10172 20144 56011=
201903202252 METAR KATL 202252Z 08004KT 10SM CLR 16/M07 A3009 RMK AO2 SLP189 T01611067=
201903202152 METAR KATL 202152Z 00000KT 10SM CLR 16/M07 A3009 RMK AO2 SLP192 T01611072=
201903202052 METAR KATL 202052Z 07006KT 10SM CLR 16/M06 A3011 RMK AO2 SLP198 T01611061 56031=
201903201952 METAR KATL 201952Z 25004KT 10SM CLR 17/M06 A3013 RMK AO2 SLP203 T01671061=
201903201852 METAR KATL 201852Z VRB03KT 10SM CLR 16/M06 A3017 RMK AO2 SLP216 T01561061=
201903201752 METAR KATL 201752Z VRB03KT 10SM CLR 14/M06 A3021 RMK AO2 SLP231 T01441056 10150 20056 58023=
201903201652 METAR KATL 201652Z VRB05KT 10SM CLR 13/M06 A3024 RMK AO2 SLP243 T01331056=
201903201552 METAR KATL 201552Z 06008KT 9SM CLR 12/M04 A3028 RMK AO2 SLP253 T01221044=
201903201452 METAR KATL 201452Z 07011KT 10SM CLR 11/M04 A3028 RMK AO2 SLP255 T01061039 50002=
201903201352 METAR KATL 201352Z 07008KT 10SM CLR 08/M04 A3030 RMK AO2 SLP261 T00831039=
201903201252 METAR KATL 201252Z 06009KT 10SM FEW200 07/M04 A3028 RMK AO2 SLP258 T00721039=
201903201152 METAR KATL 201152Z 05009KT 10SM FEW200 06/M04 A3027 RMK AO2 SLP255 T00561044 10067 20050 53010=
201903201052 METAR KATL 201052Z 06006KT 10SM CLR 05/M04 A3025 RMK AO2 SLP247 T00501039=
201903200952 METAR KATL 200952Z 05007KT 10SM CLR 06/M03 A3024 RMK AO2 SLP243 T00561033=
201903200852 METAR KATL 200852Z 06005KT 10SM CLR 06/M03 A3024 RMK AO2 SLP243 T00561033 58013=
201903200752 METAR KATL 200752Z 08005KT 10SM CLR 06/M03 A3026 RMK AO2 SLP248 T00561028=
201903200652 METAR KATL 200652Z 07005KT 10SM CLR 06/M03 A3027 RMK AO2 SLP253 T00611033=
201903200552 METAR KATL 200552Z 08006KT 10SM CLR 06/M02 A3028 RMK AO2 SLP257 T00611022 10128 20061 58002=
201903200452 METAR KATL 200452Z 09006KT 10SM CLR 07/M02 A3029 RMK AO2 SLP258 T00721022 401440044=
201903200352 METAR KATL 200352Z 07007KT 10SM CLR 09/M03 A3029 RMK AO2 SLP261 T00891033=
201903200252 METAR KATL 200252Z 06007KT 10SM CLR 10/M03 A3029 RMK AO2 SLP259 T01001033 52006=
201903200152 METAR KATL 200152Z 08009KT 10SM CLR 10/M03 A3028 RMK AO2 SLP257 T01001028=
201903200052 METAR KATL 200052Z 08007KT 10SM FEW250 11/M03 A3028 RMK AO2 SLP256 T01061028=
201903192352 METAR KATL 192352Z 07007KT 10SM FEW250 12/M03 A3027 RMK AO2 SLP253 T01221033 10144 20117 55003=
201903192252 METAR KATL 192252Z 10005KT 10SM FEW250 14/M04 A3027 RMK AO2 SLP251 T01391039=
201903192152 METAR KATL 192152Z 07004KT 10SM SCT250 14/M04 A3027 RMK AO2 SLP252 T01441044=
201903192052 METAR KATL 192052Z 09008KT 070V130 10SM BKN250 14/M04 A3028 RMK AO2 SLP255 T01391044 56025=
201903191952 METAR KATL 191952Z 02004KT 10SM BKN250 14/M04 A3029 RMK AO2 SLP260 T01391044=
201903191852 METAR KATL 191852Z 05010KT 10SM BKN250 13/M06 A3033 RMK AO2 SLP271 T01281056=
201903191752 METAR KATL 191752Z 09010G15KT 10SM BKN250 13/M06 A3035 RMK AO2 SLP280 T01281056 10128 20044 58014=
201903191652 METAR KATL 191652Z 09010G16KT 10SM BKN250 11/M06 A3039 RMK AO2 SLP292 T01111061 $=
201903191552 METAR KATL 191552Z 07013G21KT 10SM BKN250 09/M07 A3039 RMK AO2 SLP293 T00941072=
201903191452 METAR KATL 191452Z 10017KT 10SM FEW250 08/M07 A3040 RMK AO2 PK WND 09027/1420 SLP296 T00831072 51016=
201903191352 METAR KATL 191352Z 07017G22KT 10SM FEW250 07/M07 A3039 RMK AO2 SLP295 T00671072=
201903191252 METAR KATL 191252Z 08016KT 10SM FEW200 BKN250 05/M07 A3036 RMK AO2 SLP286 T00501072=
201903191152 METAR KATL 191152Z 07012KT 10SM BKN250 05/M08 A3035 RMK AO2 SLP280 T00501078 10078 20044 53021=
201903191052 METAR KATL 191052Z 07010KT 10SM BKN250 05/M08 A3032 RMK AO2 SLP270 T00501078=
201903190952 METAR KATL 190952Z 06010KT 10SM BKN250 06/M08 A3029 RMK AO2 SLP260 T00561083=
201903190852 METAR KATL 190852Z 05008KT 10SM CLR 06/M08 A3028 RMK AO2 SLP256 T00611078 56009=
201903190752 METAR KATL 190752Z 03006KT 10SM OVC250 06/M08 A3028 RMK AO2 SLP257 T00611078=
201903190652 METAR KATL 190652Z 01005KT 10SM OVC250 07/M08 A3030 RMK AO2 SLP263 T00721083=
201903190552 METAR KATL 190552Z 01008KT 10SM OVC250 08/M09 A3031 RMK AO2 SLP265 VIRGA ALQDS T00781089 10117 20078 52004=
201903190452 METAR KATL 190452Z 36009KT 10SM OVC250 08/M09 A3030 RMK AO2 SLP262 T00831094 401560050=
201903190352 METAR KATL 190352Z 36007KT 10SM FEW200 OVC250 09/M09 A3031 RMK AO2 SLP264 T00891094=
201903190252 METAR KATL 190252Z 01010KT 10SM FEW200 BKN250 09/M09 A3030 RMK AO2 SLP261 T00941094 53012=
201903190152 METAR KATL 190152Z 35006KT 10SM FEW200 BKN250 10/M09 A3029 RMK AO2 SLP258 T01001089=
201903190052 METAR KATL 190052Z 35010KT 10SM FEW200 BKN250 11/M09 A3027 RMK AO2 SLP253 T01061089=
201903182352 METAR KATL 182352Z 36012KT 10SM FEW200 BKN250 12/M08 A3026 RMK AO2 SLP250 T01171078 10156 20117 53016=
201903182252 METAR KATL 182252Z 35013KT 10SM FEW200 BKN250 13/M08 A3024 RMK AO2 SLP242 T01281078=
201903182152 METAR KATL 182152Z 34014KT 10SM FEW200 BKN250 13/M06 A3023 RMK AO2 SLP237 T01331056=
201903182052 METAR KATL 182052Z 34012G21KT 10SM FEW070 SCT180 BKN250 15/M03 A3021 RMK AO2 PK WND 36027/2029 SLP231 T01501028 55014=
201903181952 METAR KATL 181952Z 31012G24KT 10SM FEW080 FEW180 BKN250 15/M04 A3021 RMK AO2 PK WND 34026/1939 SLP231 T01501039=
201903181852 METAR KATL 181852Z 33014G21KT 10SM BKN250 15/M04 A3023 RMK AO2 SLP238 T01501044=
201903181752 METAR KATL 181752Z 33012G23KT 10SM BKN250 14/M06 A3025 RMK AO2 SLP246 T01441061 10150 20050 58009=
201903181652 METAR KATL 181652Z 31012G19KT 10SM BKN250 13/M08 A3027 RMK AO2 SLP253 T01331078=
201903181552 METAR KATL 181552Z 34011KT 10SM BKN250 13/M08 A3029 RMK AO2 SLP257 T01331083=
201903181452 METAR KATL 181452Z 35011KT 10SM SCT250 12/M06 A3028 RMK AO2 SLP256 T01171056 51019=
201903181352 METAR KATL 181352Z 32007KT 10SM FEW250 09/M03 A3026 RMK AO2 SLP249 T00891033=
201903181252 METAR KATL 181252Z 32006KT 10SM FEW250 07/M03 A3025 RMK AO2 SLP245 T00721028=
201903181152 METAR KATL 181152Z 32007KT 10SM CLR 06/M03 A3023 RMK AO2 SLP238 T00561028 10089 20050 53015=
201903181052 METAR KATL 181052Z 33007KT 10SM CLR 06/M03 A3021 RMK AO2 SLP230 T00611028=
201903180952 METAR KATL 180952Z 33011KT 10SM CLR 07/M03 A3019 RMK AO2 SLP223 T00721028=
201903180852 METAR KATL 180852Z 32008KT 10SM CLR 07/M02 A3018 RMK AO2 SLP221 T00671017 58003=
201903180752 METAR KATL 180752Z 31009KT 10SM CLR 07/M02 A3019 RMK AO2 SLP223 T00721017=
201903180652 METAR KATL 180652Z 27004KT 10SM FEW250 07/M02 A3019 RMK AO2 SLP225 T00721017=
201903180552 METAR KATL 180552Z 30004KT 10SM FEW250 08/M02 A3019 RMK AO2 SLP225 T00831017 10144 20083 58002=
201903180452 METAR KATL 180452Z 29005KT 10SM FEW250 09/M02 A3020 RMK AO2 SLP227 T00891017 401720056=
201903180352 METAR KATL 180352Z 31006KT 10SM SCT250 10/M02 A3020 RMK AO2 SLP228 T01001017=
201903180252 METAR KATL 180252Z 26003KT 10SM FEW200 SCT250 11/M03 A3020 RMK AO2 SLP227 T01111028 53010=
201903180152 METAR KATL 180152Z 29003KT 10SM SCT200 BKN250 12/M03 A3019 RMK AO2 SLP224 T01221033=
201903180052 METAR KATL 180052Z 29005KT 10SM SCT200 BKN250 13/M03 A3017 RMK AO2 SLP218 T01281033=
201903172352 METAR KATL 172352Z 32006KT 10SM SCT200 BKN250 14/M04 A3017 RMK AO2 SLP216 T01441044 10172 20144 53005=
201903172252 METAR KATL 172252Z 34009KT 10SM SCT200 BKN250 16/M06 A3015 RMK AO2 SLP211 T01611056=
201903172152 METAR KATL 172152Z 33011G18KT 10SM SCT200 BKN250 17/M06 A3015 RMK AO2 SLP210 T01671056=
201903172052 METAR KATL 172052Z 30009KT 10SM SCT200 BKN250 17/M06 A3015 RMK AO2 SLP211 T01721056 56029=
201903171952 METAR KATL 171952Z 33008KT 10SM SCT200 SCT250 17/M03 A3016 RMK AO2 SLP214 T01721033=
201903171930 SPECI KATL 171930Z 31008KT 10SM FEW200 SCT250 17/M03 A3017 RMK AO2 T01671033=
201903171852 METAR KATL 171852Z VRB04KT 10SM FEW200 SCT250 17/M04 A3020 RMK AO2 SLP227 T01671044=
201903171752 METAR KATL 171752Z 09005KT 10SM FEW200 SCT250 15/M04 A3024 RMK AO2 SLP241 T01501044 10156 20061 58018=
201903171652 METAR KATL 171652Z VRB05KT 10SM SCT200 SCT250 14/M04 A3027 RMK AO2 SLP253 T01441039=
201903171552 METAR KATL 171552Z 11005KT 10SM SCT200 SCT250 13/M04 A3029 RMK AO2 SLP260 T01331039=
201903171452 METAR KATL 171452Z 06008KT 10SM SCT200 BKN250 11/M06 A3029 RMK AO2 SLP261 T01061056 51018=
201903171352 METAR KATL 171352Z 02007KT 10SM SCT200 BKN250 08/M05 A3029 RMK AO2 SLP259 T00831050=
201903171252 METAR KATL 171252Z 33009KT 10SM BKN200 BKN250 07/M06 A3026 RMK AO2 SLP251 VIRGA ALQDS T00671056=
201903171152 METAR KATL 171152Z 36008KT 10SM BKN200 BKN250 06/M06 A3024 RMK AO2 SLP243 T00611061 10072 20056 53015=
201903171052 METAR KATL 171052Z 36009G16KT 10SM BKN200 BKN250 06/M05 A3022 RMK AO2 SLP237 T00611050=
201903170952 METAR KATL 170952Z 35007KT 340V070 10SM BKN200 OVC250 06/M04 A3021 RMK AO2 SLP232 T00561044=
201903170852 METAR KATL 170852Z 33005KT 10SM BKN200 OVC250 06/M04 A3020 RMK AO2 SLP228 T00611039 52001=
201903170752 METAR KATL 170752Z 34008KT 10SM BKN200 OVC250 07/M04 A3019 RMK AO2 SLP227 T00671039=
201903170652 METAR KATL 170652Z 34007KT 10SM BKN200 OVC250 07/M03 A3020 RMK AO2 SLP228 T00671033=
201903170552 METAR KATL 170552Z 34007KT 10SM BKN200 OVC250 07/M03 A3019 RMK AO2 SLP227 T00671028 10094 20067 58009=
201903170452 METAR KATL 170452Z 34005KT 10SM BKN200 OVC250 07/M03 A3021 RMK AO2 SLP232 T00721033 401110061=
201903170352 METAR KATL 170352Z 33009KT 10SM BKN200 BKN250 07/M03 A3021 RMK AO2 SLP234 T00721033=
201903170252 METAR KATL 170252Z 33009KT 10SM BKN200 BKN250 08/M03 A3022 RMK AO2 SLP237 T00781033 50001=
201903170152 METAR KATL 170152Z 33010KT 10SM BKN200 BKN250 08/M03 A3022 RMK AO2 SLP238 T00831033=
201903170052 METAR KATL 170052Z 33011KT 10SM SCT180 BKN250 09/M04 A3022 RMK AO2 SLP237 T00891039=
201903162352 METAR KATL 162352Z 32007KT 10SM SCT180 BKN250 10/M04 A3022 RMK AO2 SLP236 T01001039 10111 20100 55001=
201903162252 METAR KATL 162252Z 32011KT 10SM FEW130 BKN180 BKN250 11/M04 A3021 RMK AO2 SLP234 VIRGA DSNT SE-S T01061039=
201903162152 METAR KATL 162152Z 32011KT 10SM FEW120 BKN200 BKN250 11/M03 A3022 RMK AO2 SLP236 T01111033=
201903162052 METAR KATL 162052Z 33012KT 10SM FEW110 BKN200 BKN250 11/M03 A3022 RMK AO2 SLP235 T01111028 56014=
201903161952 METAR KATL 161952Z 33012G19KT 10SM FEW110 BKN200 BKN250 11/M03 A3023 RMK AO2 SLP238 VIRGA N & E & S-SW T01111028=
201903161852 METAR KATL 161852Z 32012KT 10SM FEW110 BKN200 OVC250 10/M02 A3024 RMK AO2 SLP243 VIRGA ALQDS T01001022=
201903161752 METAR KATL 161752Z 33010KT 10SM FEW110 BKN200 OVC250 10/M03 A3026 RMK AO2 SLP250 VIRGA NE & S-W T01001028 10100 20061 58008=
201903161652 METAR KATL 161652Z 35012KT 10SM FEW110 BKN200 OVC250 10/M03 A3028 RMK AO2 SLP255 T01001033=
201903161552 METAR KATL 161552Z 33012KT 10SM SCT110 BKN200 OVC250 08/M03 A3028 RMK AO2 SLP257 T00831033=
201903161452 METAR KATL 161452Z 32015KT 10SM SCT110 BKN200 BKN250 07/M03 A3029 RMK AO2 SLP258 VIRGA S & W & N T00721033 51018=
201903161352 METAR KATL 161352Z 34010KT 10SM SCT150 BKN200 BKN250 07/M03 A3028 RMK AO2 SLP257 T00671033=
201903161252 METAR KATL 161252Z 33009KT 10SM CLR 06/M04 A3025 RMK AO2 SLP247 T00611039=
201903161152 METAR KATL 161152Z 33009KT 10SM CLR 06/M04 A3023 RMK AO2 SLP238 70008 T00611039 10094 20061 51015=
201903161052 METAR KATL 161052Z 33010KT 10SM CLR 06/M03 A3022 RMK AO2 SLP233 T00611033=
201903160952 METAR KATL 160952Z 33011KT 10SM CLR 07/M03 A3021 RMK AO2 SLP230 T00671028=
201903160852 METAR KATL 160852Z 34011G21KT 10SM CLR 07/M02 A3019 RMK AO2 SLP222 T00721017 58001=
201903160752 METAR KATL 160752Z 33015G20KT 10SM CLR 08/M01 A3020 RMK AO2 SLP225 T00781011=
201903160653 METAR KATL 160653Z COR 34018KT 10SM BKN250 08/M01 A3020 RMK A02 SLP228 T00831006=
201903160652 METAR KATL 160652Z 34018KT 10SM CLR 08/M01 A3020 RMK AO2 SLP228 T00831006=
201903160552 METAR KATL 160552Z 34017G23KT 10SM CLR 09/00 A3019 RMK AO2 SLP223 T00940000 10150 20094 51013=
201903160452 METAR KATL 160452Z 33014KT 10SM BKN250 11/02 A3018 RMK AO2 SLP220 T01110022 402110111=
201903160352 METAR KATL 160352Z 31012KT 10SM FEW200 BKN250 12/03 A3017 RMK AO2 SLP215 T01170028=
201903160252 METAR KATL 160252Z 31011KT 10SM BKN200 12/02 A3015 RMK AO2 SLP208 T01220022 51018=
201903160152 METAR KATL 160152Z 31012KT 10SM BKN200 BKN250 13/03 A3014 RMK AO2 SLP204 T01330033=
201903160052 METAR KATL 160052Z 30009KT 10SM FEW200 BKN250 14/03 A3013 RMK AO2 SLP201 T01390033=
201903152352 METAR KATL 152352Z 32008KT 10SM FEW150 SCT200 BKN250 15/05 A3010 RMK AO2 SLP188 60000 T01500050 10172 20144 53006=
201903152252 METAR KATL 152252Z 29009KT 10SM FEW060 SCT150 BKN200 BKN250 16/05 A3008 RMK AO2 SLP183 T01610050=
201903152152 METAR KATL 152152Z 28010KT 10SM FEW060 SCT150 BKN200 BKN250 17/09 A3007 RMK AO2 SLP178 T01670094=
201903152052 METAR KATL 152052Z 25009KT 10SM FEW020 BKN060 BKN150 BKN250 17/11 A3008 RMK AO2 RAB11E21 SLP180 P0000 60000 T01670111 55006=
201903151952 METAR KATL 151952Z 27008KT 10SM FEW020 BKN040 BKN150 BKN250 16/10 A3007 RMK AO2 SLP179 T01610100=
201903151852 METAR KATL 151852Z 27009KT 10SM FEW020 BKN040 BKN150 OVC250 16/11 A3009 RMK AO2 SLP185 BINOVC DSNT NW-N T01560111=
201903151752 METAR KATL 151752Z 29008KT 10SM FEW015 FEW030 SCT060 OVC150 14/11 A3009 RMK AO2 RAE04 SLP187 P0000 60008 T01440111 10183 20128 50007=
201903151706 SPECI KATL 151706Z 29009KT 10SM FEW010 FEW020 OVC030 13/11 A3011 RMK AO2 RAE04 P0000 T01330106=
201903151652 METAR KATL 151652Z 28009KT 6SM -RA BR FEW010 SCT020 OVC030 13/11 A3012 RMK AO2 SLP195 P0002 T01330111=
201903151559 SPECI KATL 151559Z 31013KT 7SM -RA FEW010 BKN030 OVC040 14/11 A3010 RMK AO2 P0001 T01390111=
201903151552 METAR KATL 151552Z 30012KT 7SM -RA FEW010 BKN020 OVC040 14/11 A3010 RMK AO2 RAB13 SLP187 P0003 T01390111=
201903151522 SPECI KATL 151522Z 31010KT 2 1/2SM R09R/6000VP6000FT RA BR BKN007 BKN012 OVC020 15/13 A3009 RMK AO2 SFC VIS 4 RAB13 P0001 T01500128=
201903151514 SPECI KATL 151514Z 33010KT 10SM -RA BKN007 BKN010 OVC020 15/13 A3008 RMK AO2 RAB13 P0000 T01500128=
201903151452 METAR KATL 151452Z 29012KT 10SM FEW008 BKN015 OVC020 17/14 A3007 RMK AO2 RAB00E22B28E48 SLP177 P0003 60003 T01670144 53014=
201903151441 SPECI KATL 151441Z 29013KT 6SM -RA FEW008 BKN010 OVC020 17/14 A3007 RMK AO2 RAB00E22B28 P0003 T01720144=
201903151436 SPECI KATL 151436Z 28014KT 3SM RA BR SCT008 BKN015 OVC030 18/16 A3007 RMK AO2 RAB00E22B28 P0002 T01780156=
201903151425 SPECI KATL 151425Z 29009KT 10SM SCT008 SCT015 OVC030 18/16 A3005 RMK AO2 LTG DSNT NW RAB00E22 CB DSNT SW-NW P0000 T01830161=
201903151352 METAR KATL 151352Z 27009KT 10SM FEW010 BKN030 OVC050 18/17 A3005 RMK AO2 RAB40E49 SLP168 VIS LWR E-SE-S SHRA P0000 T01830167=
201903151319 SPECI KATL 151319Z 25006KT 10SM SCT015 BKN030 OVC040 18/17 A3003 RMK AO2 T01830167=
201903151252 METAR KATL 151252Z 23004KT 10SM FEW007 OVC015 18/17 A3003 RMK AO2 RAE25DZB25E46 SLP163 P0000 T01830167=
201903151211 SPECI KATL 151211Z 25003KT 8SM -RA FEW007 OVC015 18/17 A3003 RMK AO2 CIG 013V017 P0000 T01830167=
201903151204 SPECI KATL 151204Z 26005KT 3SM -RA SCT007 OVC013 18/17 A3003 RMK AO2 SFC VIS 7 P0000 T01830167=
201903151152 METAR KATL 151152Z 27007KT 3SM -RA BR OVC007 18/17 A3003 RMK AO2 SFC VIS 4 SLP163 CIG 005V009 P0000 60034 70040 T01830167 10194 20183 51018=
201903151052 METAR KATL 151052Z 21006KT 7SM -RA OVC008 19/18 A3001 RMK AO2 RAE22B33 TSE31 SLP155 TS MOV NE CIG 006V010 P0029 T01890178=
201903151035 SPECI KATL 151035Z 24005KT 6SM -RA BR BKN007 OVC015 19/18 A3001 RMK AO2 RAE22B33 TSE31 TS MOV NE CIG 005V009 P0029 T01890178=
201903151031 SPECI KATL 151031Z 25005KT 8SM SCT007 BKN012 OVC024 19/18 A3001 RMK AO2 RAE22 TSE31 TS MOV NE P0028 T01890178=
201903151022 SPECI KATL 151022Z 18007KT 6SM TS BR FEW005 BKN015 OVC024CB 19/18 A3000 RMK AO2 RAE22 OCNL LTGICCA NE-SE TS NE-SE MOV NE P0028 T01890178=
201903151013 SPECI KATL 151013Z 21007KT 2SM R09R/5500VP6000FT +TSRA BR SCT008 BKN015 OVC024CB 19/18 A3000 RMK AO2 OCNL LTGICCA SE-OHD-NW TS SE-OHD-NW MOV NE P0027 T01890178=
201903151010 SPECI KATL 151010Z 21007KT 1SM R09R/5500VP6000FT +TSRA BR SCT008 BKN015 OVC024CB 19/18 A3000 RMK AO2 OCNL LTGICCA SE-OHD-NW TS SE-OHD-NW MOV NE P0017 T01890178=
201903151008 SPECI KATL 151008Z 21009KT 2SM R09R/5500VP6000FT +TSRA BR SCT008 BKN015 OVC024CB 19/17 A3001 RMK AO2 OCNL LTGICCA SE-OHD-NW TS SE-OHD-NW MOV NE P0011 T01890172=
201903150952 METAR KATL 150952Z 20010KT 4SM -TSRA BR FEW008 BKN015 BKN026CB OVC130 19/17 A3000 RMK AO2 LTG DSNT SW RAB38 TSB40 SLP151 OCNL LTGICCA SE-OHD-NW TS SE-OHD-NW MOV NE CB DSNT SW P0000 T01940172=
201903150941 SPECI KATL 150941Z 21008KT 8SM -TSRA FEW008 BKN015 BKN028CB OVC130 19/17 A3000 RMK AO2 LTG DSNT SW RAB38 TSB40 FRQ LTGICCA SW-W TS SW-W MOV NE CB DSNT SW P0000 T01940172=
201903150852 METAR KATL 150852Z 18010KT 10SM SCT009 BKN015 OVC032 19/17 A2998 RMK AO2 LTG DSNT NE AND SW SLP144 CIG 013V017 CB DSNT NE SW 60005 T01890172 58016=
201903150840 SPECI KATL 150840Z 19008KT 10SM SCT008 OVC014 19/17 A2999 RMK AO2 FRQ LTGICCA DSNT NW CB DSNT NW T01890172=
201903150752 METAR KATL 150752Z 18010KT 10SM BKN018 BKN040 BKN100 OVC200 19/17 A3000 RMK AO2 LTG DSNT W RAE03 SLP152 TSE08 TS MOV NE FRQ LTGICCA DSNT W-NW CB DSNT W-NW P0001 T01890172=
201903150710 SPECI KATL 150710Z 18008KT 10SM FEW008 BKN020 OVC035 19/17 A3002 RMK AO2 RAE03 TSE08 TS MOV NE OCNL LTGICCA DSNT NE CB DSNT NE P0001 T01890172=
201903150652 METAR KATL 150652Z 19007KT 7SM VCTS -RA FEW010 BKN032CB OVC075 19/17 A3003 RMK AO2 RAB10 SLP161 TSE34B48 FRQ LTGICCA VC NW-N TS VC NW-N MOV NE P0004 T01890172=
201903150634 SPECI KATL 150634Z 20008KT 8SM -RA FEW010 SCT030 OVC075 19/17 A3002 RMK AO2 RAB10 TSE34 TS MOV NE P0004 T01890172=
201903150552 METAR KATL 150552Z 18010KT 10SM VCTS FEW010 SCT045 BKN090 OVC200 19/17 A3001 RMK AO2 RAE52 SLP154 FRQ LTGICCA DSNT SE-S CB DSNT SE-S P0005 60006 T01940172 10228 20194 58004=
201903150452 METAR KATL 150452Z 19014G23KT 9SM -RA FEW025 SCT050 BKN100 OVC150 21/16 A3002 RMK AO2 SLP159 P0001 T02110161 402440139=
201903150352 METAR KATL 150352Z 19013G20KT 10SM -RA FEW025 SCT040 BKN150 OVC200 22/16 A3003 RMK AO2 RAB52 SLP164 P0000 T02170156=
201903150252 METAR KATL 150252Z 18013KT 10SM FEW040 SCT150 BKN200 22/15 A3002 RMK AO2 RAE08 SLP159 P0000 60000 T02170150 50004=
201903150152 METAR KATL 150152Z 17011KT 10SM -RA SCT038 BKN070 BKN110 OVC200 22/15 A3004 RMK AO2 RAB50 SLP166 LTG DSNT N-NE P0000 T02220150=
201903150052 METAR KATL 150052Z 17006KT 10SM BKN038 BKN050 BKN200 22/15 A3003 RMK AO2 SLP164 LTG DSNT NW T02220150=
201903142352 METAR KATL 142352Z 16009KT 10SM SCT045 BKN080 BKN200 23/15 A3001 RMK AO2 SLP156 T02280150 10244 20217 58004=
201903142252 METAR KATL 142252Z 17010KT 10SM FEW038 SCT060 BKN100 BKN200 23/15 A3002 RMK AO2 SLP159 T02330150=
201903142152 METAR KATL 142152Z 17012G19KT 10SM BKN038 BKN060 OVC200 23/15 A3003 RMK AO2 SLP163 T02330150=
201903142052 METAR KATL 142052Z 16015G22KT 10SM BKN035 BKN045 BKN250 23/15 A3002 RMK AO2 PK WND 19027/1953 SLP160 T02280150 56023=
201903141952 METAR KATL 141952Z 18018G24KT 10SM SCT035 BKN045 BKN055 BKN250 23/15 A3003 RMK AO2 SLP165 T02330150=
201903141852 METAR KATL 141852Z 16014G21KT 10SM BKN030 BKN060 BKN250 23/14 A3006 RMK AO2 SLP175 T02280144=
201903141752 METAR KATL 141752Z 17016KT 10SM SCT030 SCT060 BKN250 22/14 A3009 RMK AO2 SLP184 T02220144 10222 20144 58017=
201903141652 METAR KATL 141652Z 17013G20KT 10SM FEW020 SCT040 BKN060 BKN250 21/14 A3012 RMK AO2 SLP194 T02060139 $=
201903141626 SPECI KATL 141626Z 18010KT 10SM SCT020 BKN040 OVC060 19/13 A3013 RMK AO2 T01890133 $=
201903141552 METAR KATL 141552Z 17016G19KT 10SM BKN020 BKN040 OVC060 19/13 A3013 RMK AO2 SLP200 T01890133 $=
201903141520 SPECI KATL 141520Z 16010KT 10SM BKN017 BKN040 OVC060 18/13 A3013 RMK AO2 T01830133 $=
201903141452 METAR KATL 141452Z 17010G19KT 10SM SCT015 BKN040 OVC060 17/13 A3014 RMK AO2 SLP203 T01720128 50001 $=
201903141354 SPECI KATL 141354Z 16012KT 10SM SCT015 BKN045 OVC065 16/12 A3015 RMK AO2 T01560122=
201903141352 METAR KATL 141352Z 15010KT 10SM BKN015 BKN043 OVC060 16/12 A3015 RMK AO2 SLP208 T01560122=
201903141335 SPECI KATL 141335Z 15010KT 10SM BKN015 BKN040 OVC060 15/12 A3017 RMK AO2 T01500122=
201903141252 METAR KATL 141252Z 15008KT 9SM FEW010 OVC014 14/12 A3017 RMK AO2 SLP213 CIG 012V016 T01440122=
201903141152 METAR KATL 141152Z 13007KT 9SM OVC012 14/12 A3014 RMK AO2 SLP202 CIG 010V014 T01440117 10144 20139 53004 $=
201903141052 METAR KATL 141052Z 12008KT 9SM FEW010 OVC014 14/12 A3013 RMK AO2 SLP200 CIG 012V016 T01440117 $=
201903141020 SPECI KATL 141020Z 13006KT 10SM OVC014 14/12 A3014 RMK AO2 CIG 012V016 BINOVC T01440117 $=
201903140952 METAR KATL 140952Z 12008KT 10SM OVC016 14/12 A3013 RMK AO2 SLP197 CIG 014V018 BINOVC T01390117 $=
201903140852 METAR KATL 140852Z 14005KT 9SM FEW010 BKN016 BKN200 BKN250 14/11 A3013 RMK AO2 SLP197 CIG 014V018 T01390111 58009 $=
201903140821 SPECI KATL 140821Z 13008KT 9SM FEW010 BKN016 BKN200 BKN250 14/11 A3013 RMK AO2 T01390111 $=
201903140752 METAR KATL 140752Z 12006KT 10SM FEW010 SCT200 BKN250 14/11 A3014 RMK AO2 SLP201 T01390106 $=
201903140652 METAR KATL 140652Z 12007KT 10SM FEW010 SCT200 BKN250 14/10 A3015 RMK AO2 SLP206 T01390100 $=
201903140552 METAR KATL 140552Z 12007KT 10SM SCT250 14/09 A3015 RMK AO2 SLP207 T01440094 10183 20144 53001 $=
201903140452 METAR KATL 140452Z 12009KT 10SM SCT250 15/08 A3015 RMK AO2 SLP204 T01500083 402110111 $=
201903140352 METAR KATL 140352Z 11007KT 10SM FEW045 BKN250 16/07 A3015 RMK AO2 SLP208 T01560072 $=
201903140252 METAR KATL 140252Z 11008KT 10SM BKN250 16/06 A3015 RMK AO2 SLP208 T01610061 53003 $=
201903140152 METAR KATL 140152Z 12007KT 10SM FEW200 SCT250 17/05 A3014 RMK AO2 SLP205 T01670050 $=
201903140052 METAR KATL 140052Z 10006KT 10SM FEW200 BKN250 17/06 A3014 RMK AO2 SLP205 T01720056 $=
201903132352 METAR KATL 132352Z 09005KT 10SM FEW200 BKN250 18/06 A3014 RMK AO2 SLP204 T01830061 10211 20183 55005 $=
201903132252 METAR KATL 132252Z 10010KT 9SM BKN200 BKN250 19/06 A3014 RMK AO2 SLP202 T01940056 $=
201903132152 METAR KATL 132152Z 10012KT 10SM BKN200 OVC250 20/06 A3015 RMK AO2 SLP206 T02000056 $=
201903132052 METAR KATL 132052Z 12014KT 10SM FEW150 BKN180 OVC250 21/04 A3015 RMK AO2 SLP208 T02060044 56019 $=
201903131952 METAR KATL 131952Z 14012KT 10SM FEW150 SCT180 BKN250 21/04 A3016 RMK AO2 SLP209 T02060039=
201903131852 METAR KATL 131852Z 14010G18KT 10SM FEW150 SCT180 BKN250 21/04 A3017 RMK AO2 SLP213 ACC N-NE E-SE T02110044=
201903131752 METAR KATL 131752Z 15013G17KT 10SM FEW150 FEW180 BKN250 19/04 A3021 RMK AO2 SLP227 T01940044 10200 20111 58004=
201903131652 METAR KATL 131652Z 13009KT 10SM FEW150 SCT180 BKN250 19/04 A3023 RMK AO2 SLP233 T01890044=
201903131552 METAR KATL 131552Z 15012G20KT 10SM FEW150 FEW180 BKN250 16/04 A3023 RMK AO2 SLP234 T01610044=
201903131452 METAR KATL 131452Z 13010G16KT 10SM FEW120 SCT150 BKN200 13/06 A3023 RMK AO2 SLP233 VIRGA NE-SE T01280056 50003=
201903131352 METAR KATL 131352Z 11010KT 10SM FEW130 BKN150 OVC200 12/05 A3023 RMK AO2 SLP235 VIRGA NE SW-NW-N T01220050=
201903131252 METAR KATL 131252Z 12011KT 10SM SCT140 BKN180 OVC250 12/05 A3023 RMK AO2 SLP234 VIRGA SW-NW-N T01170050=
201903131152 METAR KATL 131152Z 12005KT 10SM FEW140 SCT200 BKN250 11/05 A3022 RMK AO2 SLP230 T01110050 10150 20111 53012=
201903131052 METAR KATL 131052Z 12006KT 10SM FEW140 BKN180 BKN250 12/04 A3020 RMK AO2 SLP223 T01220044=
201903130952 METAR KATL 130952Z 12005KT 10SM FEW150 BKN200 BKN250 12/05 A3019 RMK AO2 SLP219 T01220050=
201903130852 METAR KATL 130852Z 15006KT 10SM FEW150 SCT200 BKN250 12/06 A3018 RMK AO2 SLP216 T01220056 58010=
201903130752 METAR KATL 130752Z 13007KT 10SM BKN150 BKN200 BKN250 13/06 A3019 RMK AO2 SLP220 T01330056=
201903130652 METAR KATL 130652Z 12006KT 10SM SCT140 BKN200 OVC250 14/05 A3020 RMK AO2 SLP224 T01440050=
201903130552 METAR KATL 130552Z 09008KT 10SM BKN140 BKN200 BKN250 14/06 A3021 RMK AO2 SLP226 T01440061 10200 20144 58009=
201903130452 METAR KATL 130452Z 11004KT 10SM BKN140 BKN200 OVC250 16/06 A3023 RMK AO2 SLP234 T01610056 402330078=
201903130352 METAR KATL 130352Z 12005KT 10SM BKN150 BKN200 OVC250 17/06 A3024 RMK AO2 SLP237 T01670056=
201903130252 METAR KATL 130252Z 05009KT 10SM FEW120 BKN200 BKN250 17/02 A3024 RMK AO2 SLP237 T01720017 53005=
201903130152 METAR KATL 130152Z 04008KT 10SM FEW120 SCT200 BKN250 18/01 A3021 RMK AO2 SLP229 T01830006=
201903130052 METAR KATL 130052Z 36008KT 10SM BKN130 BKN250 18/01 A3022 RMK AO2 SLP232 T01830011=
201903122352 METAR KATL 122352Z 32005KT 10SM FEW150 SCT250 20/02 A3022 RMK AO2 SLP233 T02000017 10233 20200 53005=
201903122252 METAR KATL 122252Z 29004KT 10SM SCT150 BKN250 22/03 A3019 RMK AO2 SLP223 T02170028=
201903122152 METAR KATL 122152Z VRB03KT 10SM FEW150 SCT200 BKN250 22/02 A3021 RMK AO2 SLP228 T02220022=
201903122052 METAR KATL 122052Z VRB03KT 10SM FEW150 SCT180 BKN250 23/02 A3021 RMK AO2 SLP226 T02280022 56019=
201903121952 METAR KATL 121952Z 20004KT 10SM FEW150 FEW180 BKN250 22/03 A3022 RMK AO2 SLP230 T02170033=
201903121852 METAR KATL 121852Z 32006KT 10SM FEW150 FEW180 SCT250 21/04 A3024 RMK AO2 SLP239 T02110044=
201903121752 METAR KATL 121752Z 32005KT 10SM FEW180 FEW200 SCT250 20/04 A3027 RMK AO2 SLP247 T02000044 10206 20078 58006=
201903121652 METAR KATL 121652Z 00000KT 10SM FEW180 SCT200 SCT250 19/04 A3028 RMK AO2 SLP253 T01890044=
201903121552 METAR KATL 121552Z 02007KT 10SM FEW180 FEW200 SCT250 18/04 A3028 RMK AO2 SLP253 T01780044=
201903121452 METAR KATL 121452Z 01004KT 10SM FEW180 FEW250 16/06 A3028 RMK AO2 SLP254 T01560056 51007=
201903121352 METAR KATL 121352Z 35006KT 10SM FEW180 FEW200 BKN250 12/06 A3028 RMK AO2 SLP254 T01220061=
201903121252 METAR KATL 121252Z 34007KT 10SM SCT200 BKN250 09/07 A3027 RMK AO2 SLP251 T00890067=
201903121152 METAR KATL 121152Z 33005KT 10SM FEW150 SCT200 BKN250 08/06 A3026 RMK AO2 SLP249 70006 T00780061 10100 20078 50006=
201903121052 METAR KATL 121052Z 31006KT 10SM FEW200 BKN250 08/07 A3027 RMK AO2 SLP253 T00830067=
201903120952 METAR KATL 120952Z 34005KT 10SM BKN250 09/07 A3025 RMK AO2 SLP245 T00890067=
201903120852 METAR KATL 120852Z 33008KT 10SM BKN250 09/07 A3024 RMK AO2 SLP243 T00890067 58004=
201903120752 METAR KATL 120752Z 29005KT 10SM BKN250 09/07 A3026 RMK AO2 SLP247 T00890072=
201903120652 METAR KATL 120652Z 29004KT 10SM SCT250 09/07 A3026 RMK AO2 SLP246 T00940072=
201903120552 METAR KATL 120552Z 31006KT 10SM SCT250 10/08 A3026 RMK AO2 SLP244 T01000078 10144 20100 58004=
201903120452 METAR KATL 120452Z 31007KT 10SM BKN250 10/08 A3027 RMK AO2 SLP247 T01000078 402060100=
201903120352 METAR KATL 120352Z 33006KT 10SM FEW200 BKN250 11/08 A3027 RMK AO2 SLP249 T01060083=
201903120252 METAR KATL 120252Z 32009KT 10SM FEW200 BKN250 11/09 A3027 RMK AO2 SLP248 T01110089 51015=
201903120152 METAR KATL 120152Z 31007KT 10SM FEW200 BKN250 12/09 A3026 RMK AO2 SLP247 T01170089=
201903120052 METAR KATL 120052Z 33005KT 10SM FEW200 BKN250 13/09 A3024 RMK AO2 SLP239 T01280089=
201903112352 METAR KATL 112352Z 01006KT 10SM FEW060 SCT200 BKN250 14/08 A3022 RMK AO2 SLP233 60006 T01440083 10189 20122 51007=
201903112252 METAR KATL 112252Z 02010KT 10SM FEW060 SCT150 BKN200 BKN250 14/09 A3021 RMK AO2 SLP229 T01440094=
201903112152 METAR KATL 112152Z 35007KT 10SM FEW060 SCT100 BKN150 OVC200 14/10 A3021 RMK AO2 RAE04 SLP230 P0000 T01440100=
201903112052 METAR KATL 112052Z 02005KT 10SM -RA FEW050 SCT080 OVC100 13/09 A3020 RMK AO2 SLP226 BINOVC DSNT NW P0006 60006 T01330089 58006=
201903112022 SPECI KATL 112022Z 33009KT 5SM -RA BKN070 BKN090 OVC110 13/09 A3024 RMK AO2 P0004 T01280089=
201903111952 METAR KATL 111952Z 31011KT 7SM -RA BKN070 BKN080 OVC100 14/08 A3024 RMK AO2 RAB1855 SLP239 P0000 T01390083=
201903111852 METAR KATL 111852Z 32012KT 10SM BKN070 BKN090 OVC110 17/07 A3026 RMK AO2 RAB26E47 SLP245 SHRA VC SE-SW-NW P0000 T01670072=
201903111752 METAR KATL 111752Z 35008KT 10SM BKN060 BKN080 OVC100 19/06 A3022 RMK AO2 RAB00E10 SLP231 SHRA DSNT SW-NW P0000 60000 T01890061 10206 20133 58006=
201903111652 METAR KATL 111652Z 03006KT 10SM BKN050 BKN070 OVC100 19/03 A3024 RMK AO2 SLP236 VIRGA DSNT NE SHRA DSNT S-SW T01940033=
201903111552 METAR KATL 111552Z 01005KT 10SM BKN075 BKN100 BKN150 18/05 A3025 RMK AO2 SLP239 T01830050=
201903111452 METAR KATL 111452Z 03004KT 10SM BKN080 BKN100 BKN150 17/07 A3024 RMK AO2 SLP236 T01670067 51009=
201903111352 METAR KATL 111352Z 00000KT 10SM BKN080 BKN100 BKN180 16/07 A3023 RMK AO2 SLP233 T01610067=
201903111252 METAR KATL 111252Z 31004KT 10SM BKN085 BKN100 OVC180 13/08 A3022 RMK AO2 SLP230 T01330078=
201903111152 METAR KATL 111152Z 31005KT 10SM BKN090 BKN110 OVC200 13/08 A3021 RMK AO2 SLP227 T01330083 10144 20133 53008=
201903111052 METAR KATL 111052Z 31005KT 10SM FEW090 BKN110 OVC200 13/09 A3020 RMK AO2 SLP223 T01330089=
201903110952 METAR KATL 110952Z 32008KT 10SM FEW080 SCT100 BKN200 BKN250 13/09 A3019 RMK AO2 SLP220 T01330094=
201903110852 METAR KATL 110852Z 32008KT 10SM SCT085 SCT150 OVC200 13/09 A3019 RMK AO2 SLP218 T01330094 58001=
201903110752 METAR KATL 110752Z 31007KT 10SM FEW150 BKN200 13/09 A3019 RMK AO2 SLP220 T01330094=
201903110652 METAR KATL 110652Z 31005KT 10SM FEW110 SCT150 BKN200 BKN250 14/09 A3018 RMK AO2 SLP217 T01390089=
201903110552 METAR KATL 110552Z 30006KT 10SM FEW085 SCT110 SCT200 BKN250 14/09 A3019 RMK AO2 SLP218 T01440089 10189 20144 56003=
201903110452 METAR KATL 110452Z 00000KT 10SM FEW085 BKN110 BKN200 BKN250 16/09 A3019 RMK AO2 SLP220 T01560089 402280139=
201903110352 METAR KATL 110352Z 00000KT 10SM FEW080 SCT120 BKN200 BKN250 16/08 A3018 RMK AO2 SLP217 T01610083=
201903110252 METAR KATL 110252Z 31006KT 10SM FEW085 SCT120 SCT200 BKN250 18/08 A3020 RMK AO2 SLP222 T01780078 51012=
201903110152 METAR KATL 110152Z 31006KT 10SM BKN080 BKN110 BKN200 BKN250 17/08 A3018 RMK AO2 SLP218 ACC E-OHD-W T01720078=
201903110052 METAR KATL 110052Z 32006KT 10SM BKN085 BKN120 OVC200 19/11 A3018 RMK AO2 SLP218 ACC OHD-ALQDS T01890111=
201903102352 METAR KATL 102352Z 27003KT 10SM FEW085 SCT120 BKN200 BKN250 19/11 A3016 RMK AO2 SLP210 ACC E-S-W DSNT NW T01890106 10228 20189 53008=
201903102252 METAR KATL 102252Z 28006KT 10SM FEW090 SCT120 BKN200 BKN250 21/11 A3015 RMK AO2 SLP203 ACC NE-SE-SW T02060106=
201903102152 METAR KATL 102152Z 28006KT 10SM SCT085 SCT110 BKN200 OVC250 21/11 A3014 RMK AO2 SLP201 ACC ALQDS T02060106=
201903102052 METAR KATL 102052Z 30009KT 10SM FEW090 BKN110 OVC250 21/10 A3014 RMK AO2 SLP199 T02110100 55008=
201903101952 METAR KATL 101952Z 22007KT 10SM BKN065 BKN250 21/10 A3012 RMK AO2 SLP194 T02110100=
201903101852 METAR KATL 101852Z 25006KT 10SM BKN065 20/10 A3015 RMK AO2 SLP206 T02000100=
201903101752 METAR KATL 101752Z 27006KT 10SM BKN046 BKN085 BKN120 19/09 A3016 RMK AO2 SLP208 T01940089 10206 20139 50000=
201903101652 METAR KATL 101652Z 19005KT 10SM OVC036 18/10 A3016 RMK AO2 SLP207 T01780100=
201903101552 METAR KATL 101552Z VRB05KT 10SM OVC033 16/11 A3017 RMK AO2 SLP212 T01610111=
201903101524 SPECI KATL 101524Z 31004KT 10SM OVC031 16/11 A3016 RMK AO2 T01610106=
201903101452 METAR KATL 101452Z 00000KT 10SM OVC028 16/11 A3016 RMK AO2 SLP209 T01560111 51017=
201903101433 SPECI KATL 101433Z 31004KT 10SM BKN028 OVC035 14/12 A3016 RMK AO2 T01440117=
201903101401 SPECI KATL 101401Z 33006KT 10SM SCT026 OVC033 14/12 A3016 RMK AO2 T01440117=
201903101352 METAR KATL 101352Z 32006KT 10SM BKN026 OVC031 14/12 A3016 RMK AO2 SLP209 T01440117=
201903101252 METAR KATL 101252Z 32005KT 10SM FEW006 SCT014 OVC022 14/12 A3014 RMK AO2 SLP201 T01390117=
201903101207 SPECI KATL 101207Z 35008KT 10SM SCT006 SCT014 OVC020 14/12 A3011 RMK AO2 T01390122=
201903101152 METAR KATL 101152Z 33009KT 6SM BR BKN006 BKN014 OVC021 14/13 A3011 RMK AO2 RAE37 SLP191 CIG 005V009 P0001 60001 70001 T01390128 10183 20139 53027=
201903101120 SPECI KATL 101120Z 33013KT 3SM -RA BR BKN006 OVC014 15/13 A3009 RMK AO2 CIG 005V009 P0001 T01500133=
201903101110 SPECI KATL 101110Z 31009KT 4SM -RA BR SCT006 OVC013 16/14 A3009 RMK AO2 P0000 T01610139=
201903101052 METAR KATL 101052Z 32007KT 6SM -RA BKN015 OVC021 17/13 A3008 RMK AO2 RAB33 SLP179 P0000 T01720133=
201903101000 SPECI KATL 101000Z 21006KT 10SM FEW015 BKN024 OVC032 17/13 A3004 RMK AO2 SHRA DSNT NW-NE T01720133=
201903100952 METAR KATL 100952Z 22006KT 10SM FEW015 BKN030 OVC055 17/13 A3004 RMK AO2 SLP165 SHRA DSNT NW-N T01720133=
201903100938 SPECI KATL 100938Z 21009KT 10SM BKN028 OVC055 17/13 A3003 RMK AO2 T01720133=
201903100852 METAR KATL 100852Z 22008KT 10SM SCT055 BKN110 BKN250 17/13 A3003 RMK AO2 SLP161 T01720128 53002=
201903100752 METAR KATL 100752Z 22007KT 10SM FEW075 SCT110 BKN220 18/12 A3002 RMK AO2 SLP159 T01780122=
201903100652 METAR KATL 100652Z 21008KT 10SM FEW075 FEW110 BKN220 18/12 A3002 RMK AO2 SLP161 T01780117=
201903100552 METAR KATL 100552Z 20009KT 10SM FEW075 SCT110 BKN200 BKN250 18/11 A3002 RMK AO2 SLP160 T01830106 10206 20183 53003=
201903100452 METAR KATL 100452Z 19008KT 10SM FEW100 SCT140 BKN200 BKN250 19/11 A3002 RMK AO2 SLP161 T01890106 402390100=
201903100352 METAR KATL 100352Z 17008KT 10SM FEW110 SCT140 OVC200 19/11 A3001 RMK AO2 SLP159 T01940106=
201903100252 METAR KATL 100252Z 17011G17KT 10SM FEW140 BKN180 OVC250 19/11 A3001 RMK AO2 SLP160 T01940106 55006=
201903100152 METAR KATL 100152Z 17013KT 10SM BKN150 BKN200 OVC250 20/11 A3001 RMK AO2 SLP159 T02000106=
201903100052 METAR KATL 100052Z 16012G18KT 10SM FEW120 BKN150 OVC200 20/11 A2999 RMK AO2 SLP153 VIRGA N T02000106=
201903092352 METAR KATL 092352Z 17005KT 9SM FEW055 SCT110 BKN160 OVC200 21/09 A3003 RMK AO2 SLP166 VIRGA DSNT W-N T02060094 10239 20178 53009=
201903092252 METAR KATL 092252Z 16012KT 8SM FEW060 SCT120 BKN180 OVC250 22/08 A2996 RMK AO2 SLP141 T02170083=
201903092152 METAR KATL 092152Z 16012G22KT 10SM FEW055 SCT140 BKN200 23/09 A2995 RMK AO2 SLP140 T02330089=
201903092052 METAR KATL 092052Z 18015G22KT 10SM FEW043 FEW060 SCT250 24/11 A3000 RMK AO2 SLP155 T02390106 56021=
201903091952 METAR KATL 091952Z 11009KT 10SM FEW035 BKN250 22/13 A3001 RMK AO2 SLP158 T02170128=
201903091852 METAR KATL 091852Z 11010KT 10SM FEW033 SCT080 BKN200 20/12 A3003 RMK AO2 SLP167 T02000122=
201903091752 METAR KATL 091752Z 12005KT 9SM BKN080 BKN250 18/11 A3006 RMK AO2 SLP178 60000 T01780111 10178 20100 56013=
201903091652 METAR KATL 091652Z 15005KT 7SM FEW010 SCT027 BKN250 16/10 A3008 RMK AO2 SLP184 T01560100=
201903091646 SPECI KATL 091646Z 10006KT 7SM SCT010 BKN027 15/10 A3008 RMK AO2=
201903091552 METAR KATL 091552Z 12006KT 3SM HZ OVC008 12/08 A3010 RMK AO2 SFC VIS 5 SLP193 T01170083=
201903091452 METAR KATL 091452Z 08008KT 3SM HZ OVC006 11/08 A3011 RMK AO2 SFC VIS 5 SLP195 60000 T01060078 50005=
201903091443 SPECI KATL 091443Z 10006KT 3SM HZ OVC007 11/08 A3011 RMK AO2 SFC VIS 5 T01060078=
201903091352 METAR KATL 091352Z 09006KT 7SM OVC007 10/08 A3012 RMK AO2 DZE48 SLP197 P0000 T01000078=
201903091252 METAR KATL 091252Z 10006KT 6SM -DZ OVC008 10/07 A3010 RMK AO2 DZB44 SLP191 PCPN VRY LGT P0000 T01000072=
201903091206 SPECI KATL 091206Z 08008KT 9SM OVC009 10/07 A3009 RMK AO2 T01000067=
201903091152 METAR KATL 091152Z 06007KT 9SM OVC010 10/07 A3009 RMK AO2 SLP189 70001 T01000067 10122 20100 53013=
201903091052 METAR KATL 091052Z 08009KT 9SM OVC012 10/07 A3008 RMK AO2 SLP183 T01000067=
201903090952 METAR KATL 090952Z 09008KT 9SM OVC014 10/07 A3007 RMK AO2 SLP179 T01000067=
201903090916 SPECI KATL 090916Z 09007KT 10SM OVC014 11/07 A3005 RMK AO2 T01060067=
201903090852 METAR KATL 090852Z 09005KT 10SM OVC016 11/07 A3005 RMK AO2 SLP175 T01060067 58002=
201903090752 METAR KATL 090752Z 07008KT 10SM BKN019 OVC045 11/07 A3007 RMK AO2 SLP182 T01110067=
201903090659 SPECI KATL 090659Z 06009KT 10SM BKN022 BKN045 BKN100 OVC200 12/07 A3007 RMK AO2 T01170067=
201903090652 METAR KATL 090652Z 07009KT 10SM FEW025 BKN045 BKN100 OVC200 11/07 A3007 RMK AO2 SLP182 T01110067=
201903090552 METAR KATL 090552Z 11005KT 10SM BKN032 BKN045 OVC200 12/07 A3006 RMK AO2 SLP178 T01170067 10183 20117 50009=
201903090452 METAR KATL 090452Z 07009KT 10SM BKN034 OVC100 13/06 A3007 RMK AO2 SLP182 T01330056 402060100=
201903090352 METAR KATL 090352Z 04012KT 10SM BKN040 OVC100 16/04 A3007 RMK AO2 SLP180 T01560044=
201903090252 METAR KATL 090252Z 14006KT 10SM BKN040 BKN100 BKN250 16/03 A3003 RMK AO2 LTG DSNT NE SLP169 T01610033 50002=
201903090152 METAR KATL 090152Z 14004KT 10SM BKN055 BKN100 BKN250 17/03 A3004 RMK AO2 LTG DSNT N AND NW SLP173 T01670033=
201903090052 METAR KATL 090052Z 15005KT 10SM FEW040 BKN100 BKN250 17/03 A3003 RMK AO2 SLP169 T01720033=
201903082352 METAR KATL 082352Z 18007KT 10SM FEW045 BKN090 BKN250 18/06 A3003 RMK AO2 SLP166 60000 T01830056 10206 20139 58007=
201903082252 METAR KATL 082252Z 19011KT 10SM SCT045 BKN090 BKN250 19/06 A3004 RMK AO2 SLP169 T01940056=
201903082152 METAR KATL 082152Z 20010KT 10SM BKN050 BKN080 OVC250 21/04 A3005 RMK AO2 SLP173 T02060039=
201903082052 METAR KATL 082052Z 21008KT 10SM SCT043 BKN085 BKN250 20/03 A3005 RMK AO2 SLP173 60000 T02000028 56034=
201903081952 METAR KATL 081952Z 20008KT 10SM FEW042 BKN085 OVC250 18/02 A3008 RMK AO2 SLP183 T01780017=
201903081852 METAR KATL 081852Z 20004KT 10SM BKN041 OVC250 16/04 A3011 RMK AO2 RAE1754B32E47 SLP195 P0000 T01560044=
201903081752 METAR KATL 081752Z 21005G14KT 10SM -RA BKN040 BKN050 OVC070 14/03 A3015 RMK AO2 RAE12B39 SLP209 P0001 60001 T01440028 10150 20100 56011=
201903081652 METAR KATL 081652Z 23007KT 10SM -RA BKN040 BKN060 OVC080 14/01 A3017 RMK AO2 RAB52 SLP215 VIRGA OHD-NE-SE VIS LWR S SHRA P0000 T01390011=
201903081552 METAR KATL 081552Z 21007KT 10SM BKN048 BKN060 BKN080 14/02 A3017 RMK AO2 LTG DSNT NW SLP215 CB DSNT NW T01390017=
201903081452 METAR KATL 081452Z 20006KT 10SM BKN040 BKN050 OVC070 12/01 A3018 RMK AO2 SLP222 T01170006 56002=
201903081352 METAR KATL 081352Z 16005KT 9SM BKN046 OVC075 11/M01 A3019 RMK AO2 SLP224 VIRGA NW-N T01111006=
201903081252 METAR KATL 081252Z 16003KT 9SM BKN048 OVC070 11/M01 A3017 RMK AO2 SLP219 T01061006=
201903081152 METAR KATL 081152Z 14003KT 9SM BKN055 OVC075 10/00 A3019 RMK AO2 SLP225 VIRGA SW-NW-NE T01000000 10111 20100 53002=
201903081052 METAR KATL 081052Z 15004KT 10SM BKN060 OVC075 10/M01 A3019 RMK AO2 SLP223 VIRGA NW-N T01001006=
201903080952 METAR KATL 080952Z 16003KT 10SM OVC055 11/M01 A3019 RMK AO2 SLP222 VIRGA W-NW T01061011=
201903080852 METAR KATL 080852Z 16003KT 10SM BKN055 OVC070 11/M01 A3019 RMK AO2 SLP221 VIRGA NW-NE T01061011 56011=
201903080752 METAR KATL 080752Z 19004KT 10SM OVC070 11/M02 A3019 RMK AO2 SLP221 VIRGA W-N T01111022=
201903080652 METAR KATL 080652Z 15006KT 10SM FEW048 OVC075 11/M02 A3020 RMK AO2 SLP225 T01111017=
201903080552 METAR KATL 080552Z 18005KT 10SM FEW050 OVC075 12/M03 A3022 RMK AO2 SLP233 T01171033 10133 20111 57002=
201903080452 METAR KATL 080452Z 17006KT 10SM SCT050 OVC070 12/M04 A3022 RMK AO2 SLP234 T01171039 401561006=
201903080352 METAR KATL 080352Z 15004KT 10SM FEW050 OVC070 12/M04 A3023 RMK AO2 SLP237 T01171039=
201903080252 METAR KATL 080252Z 15004KT 10SM FEW055 OVC070 12/M04 A3023 RMK AO2 SLP238 T01171039 50000=
201903080152 METAR KATL 080152Z 19003KT 10SM FEW060 OVC080 13/M07 A3022 RMK AO2 SLP239 T01281067=
201903080052 METAR KATL 080052Z 27004KT 10SM FEW060 OVC080 13/M06 A3024 RMK AO2 SLP243 T01281056=
201903072352 METAR KATL 072352Z 24003KT 10SM OVC075 13/M08 A3023 RMK AO2 SLP240 T01331078 10156 20122 55002=
201903072252 METAR KATL 072252Z 23007KT 10SM BKN080 BKN250 14/M10 A3022 RMK AO2 SLP240 T01391100=
201903072152 METAR KATL 072152Z 23006KT 10SM BKN090 BKN250 BKN300 14/M10 A3023 RMK AO2 SLP240 T01441100=
201903072052 METAR KATL 072052Z VRB05KT 10SM FEW085 BKN250 BKN300 15/M10 A3023 RMK AO2 SLP242 T01501100 56030=
201903071952 METAR KATL 071952Z 22004KT 10SM FEW080 BKN250 BKN300 16/M11 A3025 RMK AO2 SLP247 T01561106=
201903071852 METAR KATL 071852Z 23007KT 10SM FEW080 FEW250 BKN300 13/M12 A3028 RMK AO2 SLP259 T01331117=
201903071752 METAR KATL 071752Z VRB05KT 10SM BKN250 13/M11 A3033 RMK AO2 SLP273 T01281111 10128 21006 58022=
201903071652 METAR KATL 071652Z VRB03KT 10SM FEW150 SCT250 10/M10 A3035 RMK AO2 SLP284 T01001100=
201903071552 METAR KATL 071552Z 28003KT 10SM FEW150 FEW250 08/M08 A3038 RMK AO2 SLP292 T00781078=
201903071452 METAR KATL 071452Z VRB03KT 10SM BKN150 BKN250 04/M08 A3039 RMK AO2 SLP299 T00441078 51013=
201903071352 METAR KATL 071352Z 32007KT 10SM SCT150 BKN200 BKN250 02/M08 A3038 RMK AO2 SLP295 ACC DSNT N T00221083=
201903071252 METAR KATL 071252Z 31005KT 10SM SCT150 SCT200 BKN250 01/M08 A3037 RMK AO2 SLP293 T00111083=
201903071152 METAR KATL 071152Z 32005KT 10SM FEW150 SCT200 SCT250 M01/M07 A3035 RMK AO2 SLP287 T10061072 10017 21006 53011=
201903071052 METAR KATL 071052Z 32006KT 10SM FEW150 SCT200 SCT250 M01/M07 A3034 RMK AO2 SLP282 T10061072=
201903070952 METAR KATL 070952Z 30005KT 10SM SCT250 00/M07 A3032 RMK AO2 SLP275 T00001072=
201903070852 METAR KATL 070852Z 31006KT 10SM FEW250 00/M08 A3032 RMK AO2 SLP274 T00001078 57003=
201903070752 METAR KATL 070752Z 31006KT 10SM FEW250 01/M08 A3032 RMK AO2 SLP275 T00061078=
201903070652 METAR KATL 070652Z 30004KT 10SM FEW250 01/M08 A3033 RMK AO2 SLP277 T00061078=
201903070552 METAR KATL 070552Z 32004KT 10SM FEW250 02/M08 A3033 RMK AO2 SLP277 T00171083 10061 20017 55003=
201903070452 METAR KATL 070452Z 33005KT 10SM FEW250 02/M09 A3032 RMK AO2 SLP277 T00221089 400831028=
201903070352 METAR KATL 070352Z 34005KT 10SM SCT250 03/M09 A3033 RMK AO2 SLP280 T00281089=
201903070252 METAR KATL 070252Z 32006KT 10SM SCT250 03/M09 A3034 RMK AO2 SLP282 T00331094 57001=
201903070152 METAR KATL 070152Z 33006KT 10SM SCT250 04/M09 A3034 RMK AO2 SLP283 T00441094=
201903070052 METAR KATL 070052Z 32006KT 10SM FEW250 04/M09 A3033 RMK AO2 SLP281 T00441089=
201903062352 METAR KATL 062352Z 33007KT 10SM FEW250 06/M10 A3034 RMK AO2 SLP283 T00611100 10083 20044 50004=
201903062252 METAR KATL 062252Z 33008KT 300V360 10SM FEW250 07/M11 A3034 RMK AO2 SLP282 T00721106=
201903062152 METAR KATL 062152Z 34009KT 10SM FEW250 08/M12 A3033 RMK AO2 SLP278 T00781117=
201903062052 METAR KATL 062052Z 32014KT 10SM FEW250 07/M12 A3033 RMK AO2 SLP278 T00721122 56024=
201903061952 METAR KATL 061952Z 33013KT 10SM CLR 07/M12 A3033 RMK AO2 SLP278 T00721117=
201903061852 METAR KATL 061852Z 30008KT 10SM CLR 06/M11 A3036 RMK AO2 SLP290 T00611111=
201903061752 METAR KATL 061752Z 31009G16KT 10SM CLR 04/M11 A3040 RMK AO2 SLP303 T00441106 10050 21028 50001=
201903061652 METAR KATL 061652Z 30007KT 10SM CLR 03/M11 A3042 RMK AO2 SLP310 T00281111=
201903061552 METAR KATL 061552Z 32009KT 10SM CLR 01/M11 A3041 RMK AO2 SLP306 T00111111=
201903061452 METAR KATL 061452Z 33010KT 10SM CLR 00/M11 A3040 RMK AO2 SLP303 T00001111 51017=
201903061352 METAR KATL 061352Z 35013KT 10SM CLR M01/M11 A3038 RMK AO2 SLP299 T10111111=
201903061252 METAR KATL 061252Z 32012KT 10SM CLR M02/M12 A3036 RMK AO2 SLP291 T10221117=
201903061152 METAR KATL 061152Z 32009KT 10SM CLR M03/M12 A3034 RMK AO2 SLP285 T10281122 10000 21028 53019=
201903061052 METAR KATL 061052Z 32009KT 300V360 10SM CLR M02/M12 A3033 RMK AO2 SLP280 T10221122=
201903060952 METAR KATL 060952Z 33013G21KT 10SM CLR M02/M13 A3030 RMK AO2 SLP268 T10221128=
201903060852 METAR KATL 060852Z 34015G23KT 10SM CLR M02/M13 A3029 RMK AO2 SLP264 T10171133 51007=
201903060752 METAR KATL 060752Z 32016G22KT 10SM CLR M01/M12 A3029 RMK AO2 SLP264 T10111122=
201903060652 METAR KATL 060652Z 31012KT 10SM CLR M01/M12 A3028 RMK AO2 SLP263 T10061117=
201903060552 METAR KATL 060552Z 31011KT 10SM CLR 00/M11 A3026 RMK AO2 SLP257 T00001111 10033 20000 53006=
201903060452 METAR KATL 060452Z 31012KT 10SM CLR 01/M11 A3025 RMK AO2 SLP252 T00061106 400721028=
201903060352 METAR KATL 060352Z 31012KT 10SM CLR 01/M10 A3025 RMK AO2 SLP254 T00061100=
201903060252 METAR KATL 060252Z 31012KT 10SM CLR 01/M10 A3025 RMK AO2 SLP252 T00111100 51020=
201903060152 METAR KATL 060152Z 29012G19KT 10SM CLR 02/M10 A3024 RMK AO2 SLP248 T00171100=
201903060052 METAR KATL 060052Z 30014KT 10SM CLR 02/M10 A3022 RMK AO2 SLP243 T00221100=
201903052352 METAR KATL 052352Z 30017G21KT 10SM CLR 03/M11 A3019 RMK AO2 PK WND 32027/2309 SLP232 T00331111 10072 20033 53013=
201903052252 METAR KATL 052252Z 31020G27KT 10SM CLR 05/M12 A3016 RMK AO2 PK WND 32029/2206 SLP224 T00501122=
201903052152 METAR KATL 052152Z 30014G27KT 10SM CLR 06/M12 A3014 RMK AO2 PK WND 30027/2147 SLP215 T00611117=
201903052052 METAR KATL 052052Z 32015G19KT 10SM CLR 07/M09 A3015 RMK AO2 PK WND 33026/2029 SLP215 T00721094 56012=
201903051952 METAR KATL 051952Z 33012G19KT 10SM CLR 07/M09 A3015 RMK AO2 PK WND 33027/1919 SLP217 T00671094=
201903051852 METAR KATL 051852Z 32016G28KT 10SM CLR 06/M11 A3016 RMK AO2 PK WND 30028/1844 SLP218 T00611106=
201903051752 METAR KATL 051752Z 32016G21KT 10SM CLR 05/M11 A3018 RMK AO2 SLP228 T00501106 10050 21028 56001=
201903051652 METAR KATL 051652Z 32013G20KT 10SM FEW250 03/M11 A3019 RMK AO2 SLP231 T00331106=
201903051552 METAR KATL 051552Z 31012KT 10SM FEW250 01/M11 A3018 RMK AO2 SLP228 T00111106=
201903051452 METAR KATL 051452Z 32015KT 10SM FEW100 FEW250 00/M11 A3019 RMK AO2 SLP232 T00001111 53022=
201903051352 METAR KATL 051352Z 31014KT 10SM FEW100 M02/M11 A3016 RMK AO2 SLP223 T10171111=
201903051252 METAR KATL 051252Z 32019KT 10SM CLR M03/M11 A3013 RMK AO2 SLP214 T10281106=
201903051152 METAR KATL 051152Z 31015KT 10SM FEW100 M03/M11 A3012 RMK AO2 SLP210 T10281106 10011 21028 53010=
201903051052 METAR KATL 051052Z 31013KT 10SM CLR M02/M10 A3011 RMK AO2 SLP205 T10221100=
201903050952 METAR KATL 050952Z 30011KT 10SM FEW080 M02/M10 A3010 RMK AO2 SLP199 T10171100=
201903050852 METAR KATL 050852Z 31012KT 10SM FEW075 M01/M09 A3009 RMK AO2 SLP198 T10111089 50001=
201903050752 METAR KATL 050752Z 32010G19KT 10SM BKN070 00/M08 A3010 RMK AO2 SLP199 T00001083=
201903050652 METAR KATL 050652Z 32010KT 10SM FEW050 BKN070 01/M07 A3010 RMK AO2 SLP201 VIRGA NW-OHD-NE T00061072=
201903050552 METAR KATL 050552Z 33012KT 10SM BKN075 BKN200 01/M07 A3009 RMK AO2 SLP197 VIRGA NE-OHD-SW T00111067 10039 20011 55006=
201903050452 METAR KATL 050452Z 34015KT 10SM SCT075 BKN090 OVC200 01/M07 A3009 RMK AO2 SLP197 VIRGA OHD-ALQDS T00111067 400670011=
201903050352 METAR KATL 050352Z 33012G20KT 10SM BKN090 OVC200 02/M06 A3010 RMK AO2 SLP199 VIRGA OHD-ALQDS T00171061=
201903050252 METAR KATL 050252Z 31010KT 10SM BKN120 BKN200 BKN250 02/M06 A3011 RMK AO2 SLP203 T00221056 53007=
201903050152 METAR KATL 050152Z 33014KT 10SM SCT120 BKN200 BKN250 02/M05 A3010 RMK AO2 SLP199 T00221050=
201903050052 METAR KATL 050052Z 34012KT 10SM FEW100 SCT200 BKN250 03/M04 A3005 RMK AO2 SLP184 T00281044=
201903042352 METAR KATL 042352Z 34014KT 10SM BKN100 BKN250 04/M04 A3009 RMK AO2 SLP195 T00391039 10067 20039 50007=
201903042252 METAR KATL 042252Z 31013KT 10SM BKN090 BKN250 04/M04 A3010 RMK AO2 SLP199 T00441039=
201903042152 METAR KATL 042152Z 33015G21KT 10SM FEW040 FEW110 SCT250 06/M04 A3009 RMK AO2 SLP194 T00561039=
201903042052 METAR KATL 042052Z 31016KT 10SM FEW035 FEW200 SCT250 07/M03 A3007 RMK AO2 SLP186 T00671028 56006=
201903041952 METAR KATL 041952Z 33017KT 10SM FEW030 SCT200 SCT250 06/M03 A3007 RMK AO2 PK WND 31026/1902 SLP187 T00561028=
201903041852 METAR KATL 041852Z 32015G23KT 10SM FEW030 FEW200 SCT250 06/M02 A3006 RMK AO2 SLP184 T00611022=
201903041752 METAR KATL 041752Z 30014KT 10SM SCT028 SCT200 BKN250 04/M02 A3008 RMK AO2 SLP192 T00441022 10050 20017 53006=
201903041741 SPECI KATL 041741Z 33011G21KT 10SM SCT025 SCT200 BKN250 05/M02 A3008 RMK AO2 T00501022=
201903041652 METAR KATL 041652Z 33013G24KT 10SM OVC020 03/M03 A3008 RMK AO2 SLP192 T00281028=
201903041552 METAR KATL 041552Z 34013KT 10SM OVC016 02/M02 A3006 RMK AO2 SLP184 T00221022=
201903041452 METAR KATL 041452Z 33016G23KT 10SM OVC015 02/M02 A3006 RMK AO2 SLP185 T00171022 51025=
201903041352 METAR KATL 041352Z 32016G23KT 10SM OVC016 02/M02 A3004 RMK AO2 SLP176 CIG 015V019 T00221017=
201903041252 METAR KATL 041252Z 31012G19KT 10SM OVC019 03/M02 A3002 RMK AO2 SLP168 BINOVC T00281017=
201903041152 METAR KATL 041152Z 34014G26KT 10SM BKN015 OVC020 03/M02 A2999 RMK AO2 PK WND 32026/1144 SLP157 70113 T00281017 10056 20028 51023=
201903041123 SPECI KATL 041123Z 32014G23KT 10SM OVC014 03/M01 A2998 RMK AO2 T00281011=
201903041052 METAR KATL 041052Z 32015KT 10SM OVC016 03/M01 A2997 RMK AO2 PK WND 33030/1022 SLP151 T00281011=
201903040952 METAR KATL 040952Z 31017G22KT 10SM OVC018 03/M01 A2995 RMK AO2 SLP142 T00331011=
201903040852 METAR KATL 040852Z 32018G22KT 10SM OVC019 04/M01 A2992 RMK AO2 PK WND 32026/0800 SLP132 T00391011 50009=
201903040752 METAR KATL 040752Z 32015G24KT 10SM OVC018 04/00 A2993 RMK AO2 PK WND 31027/0733 SLP137 T00390000=
201903040652 METAR KATL 040652Z 33015KT 10SM OVC018 04/00 A2991 RMK AO2 PK WND 31026/0610 SLP129 T00440000=
201903040628 SPECI KATL 040628Z 32014G22KT 10SM OVC016 05/01 A2990 RMK AO2 PK WND 31026/0610 T00500011=
201903040552 METAR KATL 040552Z 31019G23KT 10SM OVC014 06/02 A2989 RMK AO2 DZE23 SLP121 P0000 60000 T00560017 10144 20056 51019=
201903040524 SPECI KATL 040524Z 32017G22KT 10SM BKN014 OVC022 06/03 A2989 RMK AO2 DZE23 CIG 012V016 P0000 T00610028=
201903040452 METAR KATL 040452Z 32016G21KT 8SM -DZ BKN015 OVC028 06/03 A2989 RMK AO2 PK WND 31026/0417 DZB50 SLP121 CIG 013V017 P0000 T00610028 401720061=
201903040419 SPECI KATL 040419Z 31018G26KT 10SM BKN016 OVC032 07/03 A2987 RMK AO2 PK WND 31026/0417 T00670028=
201903040352 METAR KATL 040352Z 31012G22KT 10SM BKN010 OVC030 07/04 A2986 RMK AO2 DZB32E49 SLP112 CIG 009V012 P0000 T00720044=
201903040252 METAR KATL 040252Z 33013KT 10SM BKN008 BKN014 OVC032 09/07 A2983 RMK AO2 DZE43 SLP101 CIG 007V010 P0000 60000 T00890067 53030=
201903040152 METAR KATL 040152Z 31012KT 5SM -DZ BR OVC006 11/09 A2980 RMK AO2 PK WND 31027/0122 DZB0056E28B47 SLP090 CIG 005V008 P0000 T01060089=
201903040052 METAR KATL 040052Z 31015G21KT 10SM OVC007 12/10 A2976 RMK AO2 SLP077 CIG 005V009 T01220100=
201903040022 SPECI KATL 040022Z 31015G24KT 10SM BKN008 BKN015 OVC110 13/11 A2974 RMK AO2 CIG 006V010 T01280106=
201903032352 METAR KATL 032352Z 32013KT 10SM SCT007 BKN018 BKN120 14/12 A2974 RMK AO2 SLP067 60113 T01440122 10172 20144 53008=
201903032252 METAR KATL 032252Z 33009KT 10SM BKN008 BKN015 BKN110 BKN200 16/14 A2970 RMK AO2 RAB2153E13 SLP054 CIG 006V010 P0001 T01610139=
201903032239 SPECI KATL 032239Z 32011KT 10SM BKN006 BKN014 OVC110 16/14 A2971 RMK AO2 RAB2153E13 BINOVC P0001 T01610139=
201903032220 SPECI KATL 032220Z 30008KT 10SM FEW006 BKN016 BKN100 BKN200 17/14 A2970 RMK AO2 RAB2153E13 P0001 T01670144=
201903032209 SPECI KATL 032209Z 28007KT 10SM -RA FEW006 SCT018 BKN110 BKN200 17/14 A2970 RMK AO2 RAB2153 P0001 T01670144=
201903032152 METAR KATL 032152Z 00000KT 9SM FEW020 SCT037 BKN100 17/14 A2970 RMK AO2 RAE38 SLP053 P0028 T01670144=
201903032125 SPECI KATL 032125Z 29004KT 10SM -RA FEW006 BKN040 OVC090 16/14 A2971 RMK AO2 P0028 T01610144=
201903032116 SPECI KATL 032116Z 33005KT 4SM -RA BR SCT006 BKN025 OVC075 16/14 A2972 RMK AO2 P0028 T01610144=
201903032110 SPECI KATL 032110Z 33012KT 3SM R09R/5500VP6000FT RA BR BKN006 BKN012 OVC020 16/15 A2971 RMK AO2 P0026 T01610150=
201903032106 SPECI KATL 032106Z 32014G21KT 1SM R09R/3000VP6000FT +RA BR BKN006 BKN012 OVC020 17/15 A2972 RMK AO2 P0024 T01670150=
201903032101 SPECI KATL 032101Z VRB04KT 1/2SM R09R/3000VP6000FT +RA FG BKN004 OVC012 17/15 A2973 RMK AO2 PRESRR P0012 T01670150=
201903032052 METAR KATL 032052Z 11004KT 1 1/2SM RA BR BKN006 BKN012 OVC025 16/15 A2971 RMK AO2 SLP058 P0049 60084 T01610150 56032=
201903032018 SPECI KATL 032018Z 12006KT 1 1/2SM +RA BR BKN006 BKN012 OVC025 16/15 A2971 RMK AO2 P0029 T01610150=
201903032016 SPECI KATL 032016Z 14005KT 1SM R09R/P6000FT +RA BR BKN006 BKN012 OVC025 16/14 A2971 RMK AO2 P0028 T01610144=
201903032010 SPECI KATL 032010Z 12004KT 1SM R09R/5000VP6000FT +RA BR FEW005 BKN011 OVC023 16/15 A2972 RMK AO2 P0023 T01610150=
201903032001 SPECI KATL 032001Z 00000KT 1SM R09R/4000VP6000FT +RA BR BKN005CB BKN011 OVC017 16/15 A2972 RMK AO2 OCNL LTGIC VC W-NW TS VC W-NW MOV NE CB DSNT NE & SW P0013 T01610150=
201903031952 METAR KATL 031952Z 14004KT 2SM VCTS RA BR BKN007 OVC015 16/15 A2972 RMK AO2 LTG DSNT NE AND SW TSE46 SLP062 CB DSNT NE & SW P0018 T01610150=
201903031949 SPECI KATL 031949Z 14003KT 2 1/2SM VCTS RA BR BKN007 OVC015 16/15 A2972 RMK AO2 LTG DSNT NE AND SW TSE46 CB DSNT NE & SW P0016=
201903031938 SPECI KATL 031938Z 00000KT 3SM RA BR BKN007 OVC015 16/14 A2972 RMK AO2 P0013 T01610144=
201903031926 SPECI KATL 031926Z 00000KT 2SM RA BR FEW006 SCT012 OVC020 16/15 A2973 RMK AO2 LTG DSNT SE CB DSNT SE P0009 T01610150=
201903031920 SPECI KATL 031920Z 16004KT 2SM +RA BR FEW010 SCT017 OVC025 16/15 A2974 RMK AO2 LTG DSNT SE CB DSNT SE P0005 T01610150=
201903031852 METAR KATL 031852Z 14008KT 3SM -RA BR FEW018 BKN050 OVC090 16/14 A2975 RMK AO2 LTG DSNT NE AND E AND SW RAE1755B09 TSE00B15E40 PRESFR SLP071 TS MOV NE CB DSNT NE-E & SW P0017 T01610144=
201903031841 SPECI KATL 031841Z 15007KT 5SM RA BR SCT018 OVC080 16/14 A2977 RMK AO2 LTG DSNT ALQDS RAE1755B09 TSE00B15E40 TS MOV NE CB DSNT NE-E P0014 T01610144=
201903031831 SPECI KATL 031831Z 14005KT 4SM -TSRA BR BKN014CB OVC090 16/14 A2978 RMK AO2 LTG DSNT N-SE RAE1755B09 TSE00B15 PRESFR OCNL LTGICCG N-SE TS N-SE MOV NE P0013 T01610144=
201903031817 SPECI KATL 031817Z 19005KT 2SM R09R/4500VP6000FT TSRA BR OVC014CB 16/14 A2981 RMK AO2 LTG DSNT N AND SE AND NW RAE1755B09 TSE00B15 OCNL LTGICCG ALQDS TS ALQDS MOV NE P0009 T01610139=
201903031811 SPECI KATL 031811Z 19005KT 2SM R09R/4500VP6000FT VCTS +RA OVC014CB 17/13 A2983 RMK AO2 LTG DSNT SW-NW RAE1755B09 TSE00 OCNL LTGIC VC SW-NW TS VC SW-NW MOV NE P0001 T01670133=
201903031806 SPECI KATL 031806Z 19008KT 10SM VCTS OVC016CB 17/13 A2982 RMK AO2 LTG DSNT S-NW RAE1755 TSE00 OCNL LTGIC VC S-W-NW TS VC S-W-NW MOV NE P0000 T01670133=
201903031752 METAR KATL 031752Z 13006KT 10SM -RA OVC017 17/13 A2981 RMK AO2 LTG DSNT S AND W RAB29 SLP091 CB DSNT S & W P0000 60000 T01670128 10167 20122 58044=
201903031652 METAR KATL 031652Z 15007KT 10SM OVC016 17/12 A2988 RMK AO2 SLP115 T01670117=
201903031552 METAR KATL 031552Z 20005KT 10SM OVC016 16/11 A2993 RMK AO2 SLP131 T01560111=
201903031452 METAR KATL 031452Z 20006KT 10SM BKN016 BKN150 BKN250 14/11 A2994 RMK AO2 SLP137 T01440106 58015=
201903031442 SPECI KATL 031442Z 13004KT 10SM OVC015 14/10 A2994 RMK AO2 T01440100=
201903031352 METAR KATL 031352Z 23004KT 10SM OVC012 13/10 A2996 RMK AO2 SLP144 BINOVC T01330100=
201903031252 METAR KATL 031252Z 00000KT 9SM OVC013 12/09 A2998 RMK AO2 SLP151 BINOVC T01220094=
201903031234 SPECI KATL 031234Z 00000KT 9SM OVC013 12/09 A2998 RMK AO2 BINOVC T01220089=
201903031152 METAR KATL 031152Z 31003KT 10SM OVC016 12/09 A2999 RMK AO2 SLP153 T01220089 10139 20122 56004=
201903031052 METAR KATL 031052Z 29005KT 10SM BKN015 BKN030 OVC140 12/09 A2999 RMK AO2 SLP153 T01220094=
201903031048 SPECI KATL 031048Z 28003KT 10SM BKN014 BKN030 OVC140 12/09 A2999 RMK AO2=
201903031004 SPECI KATL 031004Z 00000KT 10SM FEW016 BKN030 OVC140 12/09 A2998 RMK AO2 T01220089=
201903030952 METAR KATL 030952Z 00000KT 10SM SCT016 OVC028 13/09 A2998 RMK AO2 SLP151 T01280089=
201903030852 METAR KATL 030852Z 29006KT 10SM BKN015 OVC150 12/09 A3000 RMK AO2 SLP157 T01220089 58007=
201903030752 METAR KATL 030752Z 28004KT 10SM FEW018 OVC150 12/09 A3000 RMK AO2 SLP157 T01220089=
201903030652 METAR KATL 030652Z 30005KT 10SM SCT018 OVC150 13/09 A3003 RMK AO2 SLP165 T01330094=
201903030552 METAR KATL 030552Z 27003KT 10SM FEW014 FEW026 OVC150 14/09 A3002 RMK AO2 SLP164 T01390094 10172 20139 58011=
201903030514 SPECI KATL 030514Z 31003KT 10SM SCT026 SCT150 OVC200 14/09 A3004 RMK AO2 T01390094=
201903030452 METAR KATL 030452Z 31007KT 10SM BKN027 BKN150 OVC200 14/09 A3005 RMK AO2 SLP172 T01440094 401890106=
201903030427 SPECI KATL 030427Z 32008KT 10SM FEW016 OVC028 14/09 A3005 RMK AO2 BINOVC T01440094=
201903030352 METAR KATL 030352Z 29004KT 10SM FEW016 OVC031 15/11 A3005 RMK AO2 SLP173 BINOVC T01500111=
201903030314 SPECI KATL 030314Z 31006KT 10SM FEW014 BKN032 OVC200 16/11 A3005 RMK AO2 T01560106=
201903030252 METAR KATL 030252Z 30010KT 10SM FEW014 BKN028 BKN040 OVC200 16/11 A3006 RMK AO2 SLP177 T01560111 53002=
201903030152 METAR KATL 030152Z 22004KT 10SM FEW027 BKN038 BKN200 BKN250 16/12 A3005 RMK AO2 SLP174 T01560122=
201903030052 METAR KATL 030052Z 24003KT 10SM FEW030 SCT044 BKN200 BKN250 16/12 A3005 RMK AO2 SLP175 T01610117=
201903022352 METAR KATL 022352Z 26007KT 10SM SCT028 BKN045 BKN200 OVC250 17/12 A3005 RMK AO2 SLP173 T01720117 10189 20167 53004=
201903022252 METAR KATL 022252Z 24005KT 10SM SCT025 BKN047 BKN200 BKN250 18/12 A3004 RMK AO2 SLP169 T01780117=
201903022152 METAR KATL 022152Z 21006KT 10SM FEW028 SCT065 BKN200 BKN250 18/12 A3003 RMK AO2 SLP167 T01830117=
201903022052 METAR KATL 022052Z 22008KT 10SM SCT027 SCT075 OVC200 18/11 A3004 RMK AO2 SLP169 T01830111 56013=
201903021952 METAR KATL 021952Z 24006KT 10SM BKN050 OVC250 18/11 A3005 RMK AO2 SLP172 T01830111=
201903021852 METAR KATL 021852Z 22005KT 10SM SCT080 BKN110 OVC250 17/11 A3006 RMK AO2 SLP176 T01720106=
201903021752 METAR KATL 021752Z 26004KT 10SM BKN055 BKN070 OVC250 17/10 A3008 RMK AO2 SLP183 T01720100 10178 20106 58012=
201903021704 SPECI KATL 021704Z 29003KT 10SM SCT030 BKN250 16/10 A3010 RMK AO2 T01610100=
201903021652 METAR KATL 021652Z 27005KT 10SM BKN028 OVC130 17/10 A3010 RMK AO2 SLP191 T01670100=
201903021552 METAR KATL 021552Z 31004KT 10SM SCT026 OVC250 14/09 A3010 RMK AO2 SLP191 T01440094=
201903021452 METAR KATL 021452Z 32005KT 10SM SCT023 OVC029 12/08 A3011 RMK AO2 SLP194 T01170083 51010=
201903021352 METAR KATL 021352Z 32008KT 10SM FEW012 BKN020 OVC070 11/08 A3011 RMK AO2 SLP194 T01110078=
201903021344 SPECI KATL 021344Z 32008KT 10SM FEW012 BKN019 BKN070 BKN250 11/08 A3011 RMK AO2 T01110078=
201903021314 SPECI KATL 021314Z 32008KT 10SM FEW012 SCT018 BKN070 BKN250 11/08 A3010 RMK AO2 T01110078=
201903021302 SPECI KATL 021302Z 32010KT 10SM FEW009 BKN012 BKN070 11/08 A3010 RMK AO2 CIG 011V015 T01060078=
201903021252 METAR KATL 021252Z 32010KT 10SM BKN009 BKN060 BKN200 11/08 A3009 RMK AO2 SLP188 CIG 008V012 BKN009 V SCT T01110083=
201903021152 METAR KATL 021152Z 31007KT 10SM BKN009 BKN080 OVC200 11/09 A3008 RMK AO2 SLP184 CIG 008V011 T01110089 10139 20111 53009=
201903021148 SPECI KATL 021148Z 31008KT 10SM BKN009 BKN080 OVC200 11/09 A3008 RMK AO2 CIG 008V011=
201903021052 METAR KATL 021052Z 30008KT 10SM FEW009 FEW055 BKN080 BKN200 12/09 A3007 RMK AO2 SLP181 T01170089=
201903021034 SPECI KATL 021034Z 30006KT 10SM FEW009 SCT055 BKN075 BKN200 12/09 A3006 RMK AO2 T01170094=
201903021020 SPECI KATL 021020Z 32006KT 10SM BKN009 BKN055 BKN075 12/09 A3005 RMK AO2 T01170094=
201903020952 METAR KATL 020952Z 33009KT 10SM OVC009 12/09 A3006 RMK AO2 SLP176 T01220094=
201903020852 METAR KATL 020852Z 29005KT 10SM BKN008 BKN060 BKN200 13/11 A3005 RMK AO2 SLP172 BKN008 V SCT T01330111 58002=
201903020752 METAR KATL 020752Z 28008KT 10SM FEW009 SCT060 BKN150 BKN200 13/11 A3006 RMK AO2 SLP174 T01330111=
201903020652 METAR KATL 020652Z 25004KT 10SM FEW009 BKN055 BKN150 BKN200 14/12 A3006 RMK AO2 SLP175 T01390117=
201903020650 SPECI KATL 020650Z 25005KT 10SM FEW009 BKN055 BKN150 BKN200 14/12 A3006 RMK AO2=
201903020552 METAR KATL 020552Z 27006KT 10SM FEW050 BKN200 14/12 A3005 RMK AO2 SLP171 T01390117 10183 20139 55002=
201903020452 METAR KATL 020452Z 26006KT 10SM FEW015 BKN250 14/12 A3004 RMK AO2 SLP169 T01440117 402060144=
201903020406 SPECI KATL 020406Z 29010KT 10SM FEW020 SCT040 BKN250 16/12 A3005 RMK AO2 T01560117=
201903020352 METAR KATL 020352Z 27007KT 10SM BKN020 BKN035 OVC050 16/12 A3005 RMK AO2 SLP174 T01610122=
201903020342 SPECI KATL 020342Z 27008KT 10SM BKN020 BKN035 OVC050 16/12 A3006 RMK AO2 T01610122=
201903020252 METAR KATL 020252Z 26009KT 10SM FEW015 BKN032 BKN050 BKN250 17/12 A3005 RMK AO2 SLP173 T01670122 53015=
201903020152 METAR KATL 020152Z 27011KT 10SM FEW016 BKN035 BKN060 17/13 A3003 RMK AO2 SLP166 T01720133=
201903020052 METAR KATL 020052Z 25006KT 10SM FEW020 BKN045 BKN070 18/14 A3002 RMK AO2 SLP162 T01780139=
201903012352 METAR KATL 012352Z 24008KT 10SM SCT022TCU BKN035 BKN070 18/14 A3001 RMK AO2 SLP157 TCU E-S T01830139 10206 20178 53014=
201903012252 METAR KATL 012252Z 25010G18KT 10SM FEW025 SCT035 BKN070 19/14 A2999 RMK AO2 SLP151 CB DSNT NE T01890139=
201903012152 METAR KATL 012152Z 24010KT 10SM FEW025 BKN033 BKN055 20/14 A2998 RMK AO2 SLP147 T02000139=
201903012136 SPECI KATL 012136Z 24011G17KT 10SM FEW025 BKN030 BKN037 19/13 A2998 RMK AO2 T01940133=
201903012112 SPECI KATL 012112Z 24014G19KT 10SM FEW023 BKN028 BKN055 19/14 A2998 RMK AO2 T01940139=
201903012100 SPECI KATL 012100Z 26010KT 10SM SCT028 BKN075 BKN250 20/14 A2997 RMK AO2 T02000139=
201903012052 METAR KATL 012052Z 25014KT 10SM BKN028 BKN040 BKN250 21/14 A2997 RMK AO2 SLP142 T02060139 55013=
201903012026 SPECI KATL 012026Z 23009KT 10SM BKN026 BKN034 BKN040 19/14 A2997 RMK AO2 T01940139=
201903011952 METAR KATL 011952Z 23012G18KT 10SM SCT022 BKN033 BKN050 19/14 A2996 RMK AO2 SLP142 T01940139=
201903011852 METAR KATL 011852Z 26009KT 10SM FEW019 BKN026 OVC032 18/13 A2998 RMK AO2 SLP149 T01830133=
201903011752 METAR KATL 011752Z 23008KT 10SM BKN020 BKN070 OVC100 18/14 A3001 RMK AO2 SLP156 T01830139 10183 20161 56002=
201903011652 METAR KATL 011652Z 22008KT 10SM SCT012 BKN070 OVC100 17/14 A3001 RMK AO2 SLP158 T01720139=
201903011643 SPECI KATL 011643Z 22008KT 10SM BKN010 BKN070 OVC100 17/14 A3001 RMK AO2 T01670139=
201903011552 METAR KATL 011552Z 20007KT 10SM FEW010 BKN050 OVC100 17/14 A3001 RMK AO2 SLP159 T01670139=
201903011516 SPECI KATL 011516Z 22005KT 10SM BKN012 BKN110 17/14 A3001 RMK AO2 T01670144=
201903011452 METAR KATL 011452Z 23004KT 10SM FEW010 SCT080 OVC110 17/14 A3001 RMK AO2 SLP160 T01670144 50003=
201903011352 METAR KATL 011352Z 23008KT 10SM SCT015 BKN028 BKN080 OVC130 17/14 A3003 RMK AO2 SLP165 VIRGA SE-SW-W T01670144=
201903011252 METAR KATL 011252Z 23003KT 10SM BKN015 BKN075 OVC130 16/14 A3001 RMK AO2 SLP159 T01610144=
201903011249 SPECI KATL 011249Z 21003KT 10SM BKN015 BKN075 OVC130 16/14 A3001 RMK AO2=
