##########################################################
# Query made at 04/20/2024 00:06:12 UTC
# Time interval: from 08/01/2019 12:00  to 08/31/2019 12:59  UTC
##########################################################

##########################################################
# KATL, Atlanta, Hartsfield - Jackson Atlanta International Airport (United States)
# WMO index: 72219. WIGOS ID: 0-20000-0-72219
# Latitude 33-38-59N. Longitude 084-25-00W. Altitude 312 m.
##########################################################

201908311252 METAR KATL 311252Z 06007KT 10SM SCT060 22/17 A3017 RMK AO2 SLP206 T02220172=
201908311152 METAR KATL 311152Z 06006KT 10SM SCT060 22/16 A3016 RMK AO2 SLP204 T02170161 10233 20206 53014=
201908311052 METAR KATL 311052Z 05006KT 10SM FEW060 21/15 A3014 RMK AO2 SLP197 T02110150=
201908310952 METAR KATL 310952Z 08009KT 10SM FEW060 FEW250 21/15 A3012 RMK AO2 SLP190 T02110150=
201908310852 METAR KATL 310852Z 07006KT 10SM FEW060 FEW250 22/14 A3012 RMK AO2 SLP189 T02170144 55012=
201908310752 METAR KATL 310752Z 09008KT 10SM FEW060 FEW250 23/14 A3012 RMK AO2 SLP187 T02280144=
201908310652 METAR KATL 310652Z 10006KT 10SM FEW250 23/15 A3014 RMK AO2 SLP195 T02280150=
201908310552 METAR KATL 310552Z 04006KT 10SM FEW250 23/14 A3016 RMK AO2 SLP200 T02330144 10289 20233 53003=
201908310452 METAR KATL 310452Z 02004KT 10SM CLR 24/14 A3015 RMK AO2 SLP199 T02390144 403170194=
201908310352 METAR KATL 310352Z 08005KT 10SM CLR 23/15 A3014 RMK AO2 SLP197 T02330150=
201908310252 METAR KATL 310252Z 08007KT 10SM CLR 24/14 A3014 RMK AO2 SLP197 T02440139 51019=
201908310152 METAR KATL 310152Z 09007KT 10SM FEW250 26/14 A3013 RMK AO2 SLP191 T02610139=
201908310052 METAR KATL 310052Z 08009KT 10SM FEW250 27/14 A3011 RMK AO2 SLP185 T02720139=
201908302352 METAR KATL 302352Z 08010KT 10SM FEW250 29/13 A3009 RMK AO2 SLP178 T02890133 10317 20289 53006=
201908302252 METAR KATL 302252Z 05011KT 10SM CLR 31/13 A3008 RMK AO2 SLP175 T03060128=
201908302152 METAR KATL 302152Z 07009KT 10SM CLR 31/13 A3006 RMK AO2 SLP169 T03110133=
201908302052 METAR KATL 302052Z 08013G16KT 10SM FEW250 31/13 A3007 RMK AO2 SLP170 T03110128 56021=
201908301952 METAR KATL 301952Z 05008KT 360V080 10SM FEW250 31/14 A3008 RMK AO2 SLP174 T03110144=
201908301852 METAR KATL 301852Z 05009KT 10SM FEW250 31/13 A3010 RMK AO2 SLP182 T03110133=
201908301752 METAR KATL 301752Z 02007KT 350V060 10SM FEW250 30/13 A3013 RMK AO2 SLP192 T03000133 10306 20211 58012=
201908301652 METAR KATL 301652Z 10008KT 10SM FEW250 30/14 A3015 RMK AO2 SLP199 T03000144=
201908301552 METAR KATL 301552Z 07008KT 10SM FEW250 29/13 A3016 RMK AO2 SLP202 T02890133=
201908301452 METAR KATL 301452Z VRB05KT 10SM FEW250 27/13 A3016 RMK AO2 SLP204 T02720128 51011=
201908301352 METAR KATL 301352Z 08005KT 10SM FEW250 26/15 A3015 RMK AO2 SLP199 T02560150=
201908301252 METAR KATL 301252Z 08007KT 10SM FEW250 23/15 A3015 RMK AO2 SLP198 T02330150=
201908301152 METAR KATL 301152Z 10003KT 10SM FEW250 21/14 A3013 RMK AO2 SLP193 T02110144 10228 20194 53014=
201908301052 METAR KATL 301052Z 00000KT 10SM CLR 19/14 A3010 RMK AO2 SLP184 T01940144=
201908300952 METAR KATL 300952Z 08003KT 10SM CLR 21/14 A3009 RMK AO2 SLP177 T02060144=
201908300852 METAR KATL 300852Z 06004KT 10SM CLR 21/14 A3009 RMK AO2 SLP177 T02110144 55005=
201908300752 METAR KATL 300752Z 00000KT 10SM CLR 22/14 A3008 RMK AO2 SLP176 T02170139=
201908300652 METAR KATL 300652Z 33003KT 10SM CLR 22/14 A3009 RMK AO2 SLP180 T02170144=
201908300552 METAR KATL 300552Z 00000KT 10SM CLR 23/14 A3010 RMK AO2 SLP183 T02280139 10289 20222 50003=
201908300452 METAR KATL 300452Z 00000KT 10SM CLR 23/14 A3011 RMK AO2 SLP185 T02280139 403170189=
201908300352 METAR KATL 300352Z 01005KT 10SM CLR 25/13 A3010 RMK AO2 SLP181 T02500133=
201908300252 METAR KATL 300252Z 05004KT 10SM CLR 26/13 A3009 RMK AO2 SLP180 T02610133 53014=
201908300152 METAR KATL 300152Z 34008KT 10SM CLR 27/13 A3008 RMK AO2 SLP176 T02670128=
201908300052 METAR KATL 300052Z 01006KT 10SM CLR 28/12 A3006 RMK AO2 SLP169 T02830117=
201908292352 METAR KATL 292352Z 33007KT 10SM CLR 29/11 A3005 RMK AO2 SLP167 T02890106 10317 20289 53004=
201908292252 METAR KATL 292252Z 34008KT 10SM CLR 31/11 A3004 RMK AO2 SLP164 T03060106=
201908292152 METAR KATL 292152Z 00000KT 10SM CLR 31/10 A3004 RMK AO2 SLP162 T03110100=
201908292052 METAR KATL 292052Z VRB05KT 10SM FEW080 32/09 A3004 RMK AO2 SLP161 T03170094 56017=
201908291952 METAR KATL 291952Z 32007KT 270V360 10SM FEW075 32/12 A3005 RMK AO2 SLP165 T03170117=
201908291852 METAR KATL 291852Z 06005KT 10SM FEW070 31/12 A3007 RMK AO2 SLP172 T03110117=
201908291752 METAR KATL 291752Z 12005KT 10SM FEW070 30/11 A3009 RMK AO2 SLP179 T03000106 10306 20200 58009=
201908291652 METAR KATL 291652Z 05005KT 10SM CLR 29/12 A3010 RMK AO2 SLP183 T02940122=
201908291552 METAR KATL 291552Z 34005KT 10SM CLR 28/12 A3012 RMK AO2 SLP188 T02830122=
201908291452 METAR KATL 291452Z 00000KT 10SM CLR 27/14 A3012 RMK AO2 SLP188 T02670144 51013=
201908291352 METAR KATL 291352Z 34004KT 10SM CLR 24/16 A3011 RMK AO2 SLP187 T02440156=
201908291252 METAR KATL 291252Z 33005KT 10SM CLR 22/15 A3010 RMK AO2 SLP182 T02170150=
201908291152 METAR KATL 291152Z 33004KT 10SM CLR 20/15 A3008 RMK AO2 SLP176 T02000150 10233 20189 53019=
201908291052 METAR KATL 291052Z 31006KT 10SM CLR 19/15 A3006 RMK AO2 SLP169 T01890150=
201908290952 METAR KATL 290952Z 31005KT 10SM CLR 19/15 A3004 RMK AO2 SLP164 T01940150=
201908290852 METAR KATL 290852Z 32005KT 10SM CLR 21/15 A3002 RMK AO2 SLP156 T02060150 53001=
201908290752 METAR KATL 290752Z 33007KT 10SM CLR 21/15 A3001 RMK AO2 SLP151 T02110150=
201908290652 METAR KATL 290652Z 36010KT 10SM CLR 23/15 A3001 RMK AO2 SLP150 T02330150 $=
201908290552 METAR KATL 290552Z 35007KT 10SM CLR 23/14 A3002 RMK AO2 SLP155 T02330144 10294 20228 58003 $=
201908290452 METAR KATL 290452Z 33006KT 10SM CLR 23/15 A3003 RMK AO2 SLP157 T02330150 403220217=
201908290352 METAR KATL 290352Z 34006KT 10SM FEW250 24/16 A3003 RMK AO2 SLP158 T02440156=
201908290252 METAR KATL 290252Z 33007KT 10SM FEW250 25/16 A3003 RMK AO2 SLP158 T02500161 51016=
201908290152 METAR KATL 290152Z 33008KT 10SM FEW250 26/16 A3002 RMK AO2 SLP155 T02610161=
201908290052 METAR KATL 290052Z 35007KT 10SM FEW250 28/16 A3000 RMK AO2 SLP150 T02780156=
201908282352 METAR KATL 282352Z 35010KT 10SM FEW250 29/15 A2998 RMK AO2 SLP142 T02940150 10322 20294 53002=
201908282252 METAR KATL 282252Z 35011KT 10SM FEW060 FEW250 31/15 A2998 RMK AO2 SLP141 T03110150=
201908282152 METAR KATL 282152Z 34012G18KT 10SM FEW055 32/16 A2998 RMK AO2 SLP140 T03170156=
201908282052 METAR KATL 282052Z 32014G17KT 10SM FEW055 32/17 A2998 RMK AO2 SLP139 T03220172 57005=
201908281952 METAR KATL 281952Z 33008G17KT 10SM FEW050 FEW150 32/18 A2998 RMK AO2 SLP140 T03220178=
201908281852 METAR KATL 281852Z 34006G17KT 10SM FEW045 FEW250 32/19 A2999 RMK AO2 SLP144 T03170194=
201908281752 METAR KATL 281752Z 36010KT 10SM FEW040 FEW250 31/20 A2999 RMK AO2 SLP145 T03060200 10306 20222 58004=
201908281652 METAR KATL 281652Z 35009KT 10SM SCT030 29/20 A3000 RMK AO2 SLP148 T02940200=
201908281552 METAR KATL 281552Z 34010KT 10SM SCT023 29/21 A3001 RMK AO2 SLP151 T02890211=
201908281452 METAR KATL 281452Z 33006KT 10SM FEW020 27/21 A3001 RMK AO2 SLP150 T02670206 53005=
201908281352 METAR KATL 281352Z 33010KT 9SM SCT010 24/21 A3000 RMK AO2 SLP148 T02440206=
201908281316 SPECI KATL 281316Z 31007KT 8SM BKN010 BKN020 BKN250 23/21 A3000 RMK AO2 T02330206=
201908281300 SPECI KATL 281300Z 30008KT 8SM BKN008 BKN020 BKN250 24/21 A3000 RMK AO2 T02390206=
201908281252 METAR KATL 281252Z 29007KT 10SM SCT008 SCT024 SCT250 23/20 A2999 RMK AO2 SLP148 T02330200=
201908281152 METAR KATL 281152Z 30004KT 8SM FEW008 FEW024 FEW140 SCT250 22/20 A2999 RMK AO2 SLP147 T02220200 10228 20217 51013=
201908281052 METAR KATL 281052Z 32004KT 9SM FEW008 SCT016 SCT140 SCT200 22/20 A2998 RMK AO2 SLP143 T02220200=
201908281048 SPECI KATL 281048Z 32004KT 9SM FEW008 SCT016 SCT140 SCT200 22/20 A2998 RMK AO2=
201908281038 SPECI KATL 281038Z 32004KT 8SM SCT008 BKN016 BKN140 BKN200 22/20 A2998 RMK AO2 T02220200=
201908280952 METAR KATL 280952Z 34005KT 7SM OVC005 22/21 A2996 RMK AO2 SLP136 CIG 004V007 T02220206=
201908280903 SPECI KATL 280903Z 32004KT 7SM BKN006 OVC011 22/21 A2995 RMK AO2 CIG 005V008 T02220206=
201908280852 METAR KATL 280852Z 35004KT 8SM SCT006 OVC011 23/21 A2995 RMK AO2 SLP131 CIG 009V013 T02280206 56003=
201908280837 SPECI KATL 280837Z 36003KT 8SM SCT006 OVC011 23/21 A2995 RMK AO2 T02280206=
201908280752 METAR KATL 280752Z 03004KT 7SM BKN007 OVC014 23/21 A2996 RMK AO2 SLP134 CIG 005V009 T02280206=
201908280652 METAR KATL 280652Z 03006KT 7SM OVC006 22/20 A2995 RMK AO2 SLP131 CIG 004V008 T02220200=
201908280552 METAR KATL 280552Z 06004KT 7SM BKN007 OVC028 22/21 A2996 RMK AO2 SLP136 CIG 005V009 T02220206 10261 20222 58013=
201908280452 METAR KATL 280452Z 07006KT 10SM BKN007 OVC200 23/21 A2998 RMK AO2 SLP143 T02280206 403110222=
201908280432 SPECI KATL 280432Z 08005KT 10SM BKN007 OVC200 23/21 A2998 RMK AO2 T02280211=
201908280352 METAR KATL 280352Z 10007KT 10SM FEW008 FEW030 OVC200 23/21 A2999 RMK AO2 SLP145 T02280211=
201908280252 METAR KATL 280252Z 09006KT 10SM FEW010 BKN200 BKN250 24/21 A3000 RMK AO2 SLP150 T02390211 51018=
201908280152 METAR KATL 280152Z 10005KT 10SM FEW010 SCT200 BKN250 24/22 A2999 RMK AO2 SLP148 T02390217=
201908280052 METAR KATL 280052Z 08006KT 10SM FEW015 SCT150 BKN250 25/22 A2997 RMK AO2 SLP138 CB DSNT SE T02500217=
201908272352 METAR KATL 272352Z 05009KT 10SM SCT015CB BKN030 BKN100 BKN250 26/22 A2995 RMK AO2 RAE52 SLP131 CB S-SW MOV SE TCU SE-OHD-W P0000 60000 T02610222 10311 20261 53005=
201908272252 METAR KATL 272252Z 05005KT 8SM -RA SCT022TCU BKN030 BKN150 BKN250 27/22 A2994 RMK AO2 RAB37 SLP128 VIS LWR W-NW TCU OHD-ALQDS P0000 T02720222=
201908272152 METAR KATL 272152Z 09008KT 10SM FEW025 SCT150 BKN250 28/22 A2992 RMK AO2 SLP122 TCU DSNT SE NW T02780222=
201908272114 SPECI KATL 272114Z 08006KT 10SM SCT025 BKN150 BKN250 29/23 A2993 RMK AO2 TCU DSNT SE-S T02890228=
201908272108 SPECI KATL 272108Z 07004KT 10SM SCT027TCU BKN050 BKN250 29/22 A2993 RMK AO2 TCU OHD-E NW T02940217=
201908272052 METAR KATL 272052Z VRB03KT 10SM BKN027TCU BKN050 BKN250 30/22 A2993 RMK AO2 SLP124 TCU OHD-E NW T03000217 58013=
201908271952 METAR KATL 271952Z 29006KT 10SM FEW020 SCT030 BKN060 28/21 A2995 RMK AO2 SLP130 CB DSNT NW-N-NE TCU DSNT S T02830211=
201908271852 METAR KATL 271852Z 25005KT 10SM FEW020 SCT030 BKN050 28/22 A2996 RMK AO2 SLP134 T02780217=
201908271752 METAR KATL 271752Z 25007KT 10SM FEW015 BKN030 BKN050 28/22 A2997 RMK AO2 SLP138 MDT CU NE-SE SW-NW 60000 T02830222 10283 20228 58010=
201908271710 SPECI KATL 271710Z 23007KT 10SM FEW015 BKN030 OVC050 26/22 A2999 RMK AO2 T02560217=
201908271652 METAR KATL 271652Z 20005KT 9SM FEW010 BKN020 OVC040 25/22 A3000 RMK AO2 DZE32 SLP149 P0000 T02500222=
201908271636 SPECI KATL 271636Z 21007KT 10SM FEW008 BKN013 OVC029 26/22 A3000 RMK AO2 DZE32 P0000 T02560222=
201908271606 SPECI KATL 271606Z 21005KT 5SM -DZ BR FEW010 BKN020 OVC040 24/22 A3001 RMK AO2 P0000 T02440217=
201908271559 SPECI KATL 271559Z 20005KT 5SM -DZ BR SCT007 BKN014 OVC020 24/22 A3001 RMK AO2 P0000 T02440222=
201908271552 METAR KATL 271552Z 19005KT 6SM -DZ BR SCT010 BKN020 OVC040 24/22 A3001 RMK AO2 RAB02E32DZB42 SLP151 P0000 T02390217=
201908271543 SPECI KATL 271543Z 20006KT 6SM -DZ FEW010 BKN020 OVC040 24/22 A3001 RMK AO2 RAB02E32DZB42 P0000 T02440217=
201908271515 SPECI KATL 271515Z 22006KT 6SM -RA BR BKN010 BKN020 OVC040 24/22 A3000 RMK AO2 RAB02 P0000 T02390217=
201908271452 METAR KATL 271452Z 20005KT 10SM BKN009 BKN020 OVC040 24/22 A3000 RMK AO2 RAE1356B40E50 SLP150 P0000 60000 T02390217 51002=
201908271352 METAR KATL 271352Z 19005KT 6SM -RA BR BKN006 BKN040 OVC070 23/22 A3000 RMK AO2 RAB40 SLP149 P0000 T02330217=
201908271252 METAR KATL 271252Z 22004KT 10SM BKN006 BKN034 OVC075 23/21 A3000 RMK AO2 SLP150 BKN006 V SCT CIG 005V009 T02280211=
201908271152 METAR KATL 271152Z 22004KT 8SM BKN006 OVC032 23/21 A2999 RMK AO2 SLP148 CIG OO4V008 60002 70094 T02280211 10228 20228 51010=
201908271052 METAR KATL 271052Z 20006KT 8SM BKN006 BKN017 OVC080 23/21 A2998 RMK AO2 RAB01E27 SLP143 CIG 005V009 P0001 T02280211=
201908270952 METAR KATL 270952Z 20005KT 7SM FEW004 BKN007 OVC014 23/21 A2998 RMK AO2 RAB21E51 SLP143 P0001 T02280211=
201908270852 METAR KATL 270852Z 16004KT 7SM BKN006 BKN013 OVC025 23/21 A2996 RMK AO2 SLP138 CIG 004V008 60000 T02280211 55008=
201908270752 METAR KATL 270752Z 14007KT 7SM OVC005 23/21 A2995 RMK AO2 SLP132 T02280211=
201908270652 METAR KATL 270652Z 15006KT 7SM OVC005 23/21 A2997 RMK AO2 RAB0558E13 SLP139 P0000 T02280211=
201908270552 METAR KATL 270552Z 12006KT 7SM FEW005 BKN011 OVC018 23/21 A2999 RMK AO2 RAE11 SLP146 P0000 60077 T02280211 10239 20222 58013=
201908270526 SPECI KATL 270526Z 12005KT 8SM FEW007 BKN012 OVC024 23/21 A3000 RMK AO2 RAE11 P0000 T02280211=
201908270452 METAR KATL 270452Z 10008KT 6SM -RA BR FEW006 BKN015 OVC060 22/21 A3001 RMK AO2 SLP154 P0036 T02220211 402830206=
201908270438 SPECI KATL 270438Z 08010KT 4SM RA BR FEW008 BKN020 OVC070 22/21 A3002 RMK AO2 P0036 T02220211=
201908270352 METAR KATL 270352Z 11007KT 2 1/2SM +RA BR FEW010 SCT025 BKN040 OVC150 23/21 A3003 RMK AO2 SLP158 P0035 T02280211=
201908270339 SPECI KATL 270339Z 11009KT 4SM RA BR FEW012 SCT030 BKN045 OVC150 23/21 A3002 RMK AO2 P0027 T02280206=
201908270320 SPECI KATL 270320Z 12009KT 2 1/2SM +RA BR FEW012 SCT030 BKN050 OVC150 23/21 A3003 RMK AO2 P0013 T02280211=
201908270252 METAR KATL 270252Z 11006KT 5SM -RA BR SCT028 BKN050 BKN080 OVC150 23/21 A3003 RMK AO2 SLP160 P0005 60006 T02330211 53013=
201908270152 METAR KATL 270152Z 09006KT 6SM -RA BR BKN032 BKN070 OVC150 23/21 A3002 RMK AO2 RAB02 SLP156 P0001 T02330211=
201908270052 METAR KATL 270052Z 09006KT 10SM BKN035 BKN050 OVC070 23/21 A3000 RMK AO2 SLP150 T02330211=
201908262352 METAR KATL 262352Z 07006KT 10SM BKN030 OVC045 24/21 A2999 RMK AO2 SLP147 60015 T02390206 10283 20228 56004=
201908262252 METAR KATL 262252Z 06007KT 10SM BKN028 OVC045 24/21 A2999 RMK AO2 RAE42 SLP147 P0002 T02390206=
201908262152 METAR KATL 262152Z 09006KT 6SM -RA FEW015 BKN030 OVC045 23/21 A2999 RMK AO2 SLP149 P0008 T02330206=
201908262107 SPECI KATL 262107Z 10006KT 3SM RA FEW015 BKN030 OVC045 23/20 A2999 RMK AO2 P0004 T02280200=
201908262052 METAR KATL 262052Z 14004KT 6SM -RA FEW015 BKN030 OVC040 23/21 A3000 RMK AO2 RAB1957 SLP151 P0005 60005 T02330206 56015=
201908262002 SPECI KATL 262002Z 13007KT 4SM -RA BKN030 OVC040 24/19 A3001 RMK AO2 RAB1957 VIS LWR E SHRA P0001 T02440194=
201908261952 METAR KATL 261952Z 14010KT 10SM BKN030 BKN040 OVC050 26/18 A3000 RMK AO2 SLP151 SHRA VC E-S-SW T02560183=
201908261852 METAR KATL 261852Z 14008KT 10SM FEW027 BKN030 OVC040 27/18 A3002 RMK AO2 SLP158 T02670183=
201908261759 SPECI KATL 261759Z 12010KT 10SM SCT025 BKN030 OVC050 26/18 A3004 RMK AO2 T02610178=
201908261752 METAR KATL 261752Z 11010KT 10SM BKN025 BKN030 OVC050 26/18 A3005 RMK AO2 RAE02 SLP165 P0000 60000 T02560178 10256 20206 58012=
201908261652 METAR KATL 261652Z 10007KT 10SM -RA SCT023 BKN040 OVC050 23/18 A3006 RMK AO2 RAB49 SLP171 P0000 T02330178=
201908261552 METAR KATL 261552Z 09013G17KT 10SM FEW020 BKN030 OVC040 24/17 A3007 RMK AO2 SLP174 T02390167=
201908261452 METAR KATL 261452Z 11009KT 10SM FEW020 BKN030 OVC050 22/16 A3008 RMK AO2 SLP179 T02220161 50004=
201908261352 METAR KATL 261352Z 10010KT 10SM FEW020 BKN030 OVC040 21/16 A3009 RMK AO2 SLP180 T02110156=
201908261252 METAR KATL 261252Z 10010G18KT 10SM FEW014 OVC036 21/16 A3007 RMK AO2 SLP176 BINOVC T02110156=
201908261152 METAR KATL 261152Z 10011G19KT 10SM FEW012 OVC032 21/17 A3007 RMK AO2 SLP174 60000 T02060167 10217 20206 51006=
201908261135 SPECI KATL 261135Z 10013KT 10SM SCT012 OVC032 21/17 A3007 RMK AO2 T02060167=
201908261052 METAR KATL 261052Z 11012G17KT 10SM BKN011 BKN033 OVC070 21/17 A3007 RMK AO2 SLP173 BKN011 V SCT T02060172=
201908260952 METAR KATL 260952Z 10011G16KT 10SM SCT009 BKN012 OVC032 21/18 A3006 RMK AO2 SLP170 T02060178=
201908260904 SPECI KATL 260904Z 11010G17KT 10SM BKN009 BKN014 OVC034 21/18 A3005 RMK AO2 T02110183=
201908260852 METAR KATL 260852Z 11008KT 10SM BKN011 OVC031 21/18 A3005 RMK AO2 SLP168 CIG 009V013 60000 T02110183 55005=
201908260814 SPECI KATL 260814Z 10011KT 10SM BKN011 BKN031 OVC070 21/18 A3005 RMK AO2 CIG 009V013 T02110183=
201908260752 METAR KATL 260752Z 10007KT 10SM SCT012 BKN031 OVC070 21/18 A3004 RMK AO2 RAB22E48 SLP165 P0000 T02110183=
201908260652 METAR KATL 260652Z 10009KT 10SM OVC030 22/18 A3005 RMK AO2 RAB0553E09 SLP165 P0000 T02170183=
201908260646 SPECI KATL 260646Z 09011KT 10SM OVC030 22/18 A3004 RMK AO2 RAB0553E09 P0000=
201908260552 METAR KATL 260552Z 09008KT 10SM OVC027 22/18 A3007 RMK AO2 SLP173 T02170178 10250 20217 58007=
201908260452 METAR KATL 260452Z 09012KT 10SM OVC026 22/17 A3008 RMK AO2 SLP177 T02220172 402560194=
201908260436 SPECI KATL 260436Z 10011KT 10SM BKN026 BKN034 OVC046 23/17 A3008 RMK AO2 T02280172=
201908260423 SPECI KATL 260423Z 12009KT 10SM SCT027 BKN034 OVC046 23/17 A3008 RMK AO2 T02280172=
201908260352 METAR KATL 260352Z 11008KT 10SM OVC026 23/18 A3009 RMK AO2 SLP181 T02280178=
201908260252 METAR KATL 260252Z 10011KT 10SM FEW018 OVC023 23/18 A3009 RMK AO2 SLP182 T02330183 53015=
201908260152 METAR KATL 260152Z 09010KT 10SM BKN023 OVC046 24/18 A3007 RMK AO2 SLP174 T02390183=
201908260052 METAR KATL 260052Z 11009KT 10SM BKN026 OVC044 24/18 A3005 RMK AO2 SLP170 T02390183=
201908260003 SPECI KATL 260003Z 11007KT 10SM BKN026 BKN044 OVC100 24/18 A3005 RMK AO2 T02390178=
201908252352 METAR KATL 252352Z 12006KT 10SM SCT026 BKN044 BKN100 OVC150 24/18 A3004 RMK AO2 SLP167 T02390178 10256 20239 53001=
201908252342 SPECI KATL 252342Z 11010KT 10SM SCT026 BKN044 OVC100 24/18 A3004 RMK AO2 T02390178=
201908252252 METAR KATL 252252Z 11008KT 10SM BKN024 OVC100 24/18 A3004 RMK AO2 SLP165 T02440183=
201908252152 METAR KATL 252152Z 10009KT 10SM BKN022 BKN110 25/18 A3003 RMK AO2 SLP162 T02500183=
201908252052 METAR KATL 252052Z 13009G15KT 10SM BKN022 OVC030 24/18 A3004 RMK AO2 SLP164 BINOVC T02440178 58019=
201908251952 METAR KATL 251952Z 10008KT 10SM BKN022 OVC030 25/18 A3006 RMK AO2 SLP170 BINOVC T02500178=
201908251852 METAR KATL 251852Z 07010KT 10SM OVC021 25/18 A3008 RMK AO2 SLP179 T02500178=
201908251752 METAR KATL 251752Z 09007KT 10SM OVC019 23/17 A3010 RMK AO2 SLP184 T02330172 10239 20194 58010=
201908251652 METAR KATL 251652Z 10010G16KT 10SM OVC016 23/17 A3011 RMK AO2 SLP189 T02330172=
201908251634 SPECI KATL 251634Z 08008KT 10SM OVC015 23/17 A3012 RMK AO2 T02280172=
201908251552 METAR KATL 251552Z 09010KT 10SM OVC013 21/17 A3012 RMK AO2 SLP192 T02110167=
201908251452 METAR KATL 251452Z 06012KT 10SM OVC010 20/17 A3013 RMK AO2 SLP194 T02000167 53008=
201908251352 METAR KATL 251352Z 08010KT 10SM OVC010 20/17 A3012 RMK AO2 SLP191 T02000167=
201908251252 METAR KATL 251252Z 09014KT 8SM OVC010 19/17 A3011 RMK AO2 SLP187 CIG 009V013 T01940167=
201908251243 SPECI KATL 251243Z 08016G20KT 8SM OVC010 20/17 A3011 RMK AO2 T02000167=
201908251152 METAR KATL 251152Z 09012KT 9SM OVC009 19/17 A3010 RMK AO2 SLP185 70013 T01940167 10211 20194 53012 $=
201908251052 METAR KATL 251052Z 08015KT 10SM OVC009 19/17 A3009 RMK AO2 SLP179 T01940167 $=
201908250952 METAR KATL 250952Z 08010KT 10SM OVC008 19/17 A3007 RMK AO2 SLP175 CIG 007V009 T01940172 $=
201908250852 METAR KATL 250852Z 08011KT 10SM OVC008 20/17 A3007 RMK AO2 SLP172 T02000172 56010 $=
201908250752 METAR KATL 250752Z 08012KT 10SM OVC009 20/18 A3007 RMK AO2 SLP173 CIG 008V011 T02000178 $=
201908250652 METAR KATL 250652Z 07010KT 10SM OVC009 21/18 A3007 RMK AO2 SLP172 CIG 008V011 T02060183 $=
201908250552 METAR KATL 250552Z 09013KT 10SM OVC008 21/19 A3010 RMK AO2 RAE0453 SLP181 CIG 007V010 P0000 60000 T02110189 10261 20211 50004 $=
201908250452 METAR KATL 250452Z 08012KT 9SM -RA OVC008 22/19 A3010 RMK AO2 RAE00B43 SLP182 CIG 006V010 PCPN VRY LGT P0000 T02170194 403390217 $=
201908250352 METAR KATL 250352Z 07016KT 7SM -RA BKN008 OVC014 23/21 A3009 RMK AO2 RAB34 SLP178 CIG 006V010 P0000 T02280206 $=
201908250339 SPECI KATL 250339Z 07013KT 8SM -RA BKN008 OVC014 23/21 A3009 RMK AO2 RAB34 CIG 006V010 P0000 T02330211 $=
201908250328 SPECI KATL 250328Z 08014KT 10SM SCT007 BKN012 OVC022 24/21 A3009 RMK AO2 CIG 010V014 T02390211 $=
201908250318 SPECI KATL 250318Z 08014KT 8SM SCT008 BKN015 OVC024 25/22 A3009 RMK AO2 CIG 013V017 SHRA N-E T02500222 $=
201908250252 METAR KATL 250252Z 10005KT 10SM BKN014 BKN024 BKN050 OVC130 26/22 A3008 RMK AO2 SLP176 CIG 012V016 T02560222 51021 $=
201908250235 SPECI KATL 250235Z 07008KT 10SM BKN013 BKN022 BKN055 OVC130 26/22 A3008 RMK AO2 T02560222 $=
201908250152 METAR KATL 250152Z 12003KT 10SM FEW010 BKN022 BKN120 BKN200 26/22 A3007 RMK AO2 LTG DSNT SW SLP172 CB DSNT SW NW T02560222 $=
201908250148 SPECI KATL 250148Z 09004KT 10SM FEW010 BKN022 BKN120 BKN200 26/22 A3007 RMK AO2 LTG DSNT SW CB DSNT SW NW $=
201908250052 METAR KATL 250052Z 13004KT 10SM FEW075 SCT120 BKN200 BKN250 26/22 A3004 RMK AO2 SLP161 CB DSNT NW-N T02610217 $=
201908242352 METAR KATL 242352Z 12007KT 10SM FEW032 FEW075 SCT110 BKN200 26/22 A3002 RMK AO2 SLP155 CB DSNT NE SE-SW W TCU DSNT N 60013 T02610217 10339 20250 52004 $=
201908242252 METAR KATL 242252Z 13005KT 10SM FEW036 FEW075 SCT100 BKN200 27/22 A3002 RMK AO2 RAE13 SLP154 CB DSNT NE SE S W TCU DSNT N NE P0000 T02670217=
201908242152 METAR KATL 242152Z 07010KT 9SM -RA FEW038TCU SCT070 BKN095 BKN200 25/22 A3001 RMK AO2 WSHFT 2057 LTG DSNT NE RAB2057 TSB2056E36 SLP154 TS DSIPTD CB DSNT NE SE TCU NW DSNT NE ACC SE P0013 T02500217=
201908242136 SPECI KATL 242136Z 12008KT 8SM RA FEW012 SCT036TCU BKN090 BKN200 25/21 A3001 RMK AO2 WSHFT 2057 LTG DSNT NE RAB2057 TSB2056E36 TS DSIPTD CB DSNT NE SE TCU NW DSNT NE P0009 T02500211=
201908242127 SPECI KATL 242127Z 12008KT 6SM +TSRA SCT028CB BKN038TCU BKN100 BKN200 26/21 A3001 RMK AO2 WSHFT 2057 RAB2057 TSB2056 OCNL LTGICCA E-OHD-W TS E-OHD-W MOV SW TCU NW-N DSNT N-NE P0004 T02560211=
201908242114 SPECI KATL 242114Z 09011KT 3SM TSRA BKN028CB BKN055 BKN110 BKN200 27/21 A3001 RMK AO2 WSHFT 2057 RAB2057 TSB2056 VIS NW-NE 1 FRQ LTGICCGCA NE-OHD-W TS NE-OHD-W MOV SW P0000 T02670206=
201908242109 SPECI KATL 242109Z 08017KT 6SM -TSRA BKN028CB BKN055 BKN110 BKN200 27/21 A3002 RMK AO2 RAB2057 TSB2056 VIS NW-NE 3/4 FRQ LTGICCGCA NE-OHD-W TS NE-OHD-W MOV SW P0000 T02670206=
201908242057 SPECI KATL 242057Z 08013G18KT 7SM -TSRA FEW020 BKN034CB BKN080 BKN150 27/21 A3001 RMK AO2 RAB57 TSB56 PRESRR VIS LWR N-E FRQ LTGICCGCA NE-OHD-SW TS NE-OHD-SW MOV SW P0000 T02720211=
201908242052 METAR KATL 242052Z 19007KT 10SM VCTS FEW020 SCT030CB BKN070 BKN150 BKN250 28/21 A3001 RMK AO2 LTG DSNT ALQDS SLP150 OCNL LTGICCG VC N-NE-E & SW TS VC N-NE-E & SW MOV STNRY TCU ALQDS CB DSNT SE VIS LWR N-NE-E T02780211 55007=
201908242039 SPECI KATL 242039Z 18014KT 10SM VCTS SCT030CB SCT060 BKN070 BKN150 BKN250 28/22 A2999 RMK AO2 LTG DSNT ALQDS OCNL LTGICCG VC N-NE-E & SW TS VC N-NE-E & SW MOV STNRY TCU ALQDS CB DSNT SE T02780217=
201908242010 SPECI KATL 242010Z 14007KT 10SM VCTS SCT050CB SCT070 BKN100 BKN250 32/19 A2999 RMK AO2 LTG DSNT E-SW OCNL LTGIC VC SW TS VC SW MOV STNRY TCU ALQDS CB DSNT SE T03220194=
201908241952 METAR KATL 241952Z 13008KT 10SM BKN050TCU BKN070 BKN100 BKN250 32/19 A2999 RMK AO2 LTG DSNT E-S SLP142 CB DSNT SE TCU ALQDS T03220194=
201908241852 METAR KATL 241852Z 06006KT 10SM BKN044TCU BKN100 BKN250 34/20 A3000 RMK AO2 LTG DSNT S AND SW SLP146 TCU OHD-S & NE & E & SE MDT CU W-N SHRA E T03390200=
201908241752 METAR KATL 241752Z 06006KT 10SM BKN044TCU BKN100 BKN250 31/20 A3003 RMK AO2 SLP157 TCU OHD-S & NE & E & SE MDT CU W-N SHRA E T03110200 10328 20233 58015=
201908241652 METAR KATL 241652Z 08005KT 10SM BKN045TCU BKN055 BKN250 32/20 A3005 RMK AO2 SLP163 TCU E & SE & S-SW-W MDT CU ALQDS T03170200=
201908241552 METAR KATL 241552Z 00000KT 10SM BKN045 BKN250 32/21 A3006 RMK AO2 SLP167 MDT CU ALQDS T03170211=
201908241452 METAR KATL 241452Z 00000KT 10SM FEW150 SCT200 SCT250 28/21 A3007 RMK AO2 SLP172 T02830211 50006=
201908241352 METAR KATL 241352Z 04005KT 10SM FEW020 FEW150 SCT200 SCT250 28/21 A3008 RMK AO2 SLP173 T02830211=
201908241252 METAR KATL 241252Z 34004KT 10SM FEW007 FEW065 FEW150 SCT200 26/22 A3007 RMK AO2 SLP172 T02610217=
201908241205 SPECI KATL 241205Z 35004KT 10SM FEW003 SCT200 24/22 A3006 RMK AO2 VIS LWR SE-SW T02390217=
201908241201 SPECI KATL 241201Z 34004KT 1SM R09R/P6000FT SCT003 BKN200 23/22 A3005 RMK AO2 SFC VIS 10 VIS LWR SE-SW T02330222=
201908241152 METAR KATL 241152Z 35005KT 1/8SM R09R/2200VP6000FT BR BKN003 BKN200 23/22 A3006 RMK AO2 SFC VIS 1 SLP166 CIG 002V004 TWRINC T02330222 10256 20233 53013=
201908241141 SPECI KATL 241141Z 32006KT 1/8SM R09R/3500VP6000FT BR OVC003 24/22 A3006 RMK AO2 SFC VIS 1 CIG 002V004 TWRINC T02390222=
201908241114 SPECI KATL 241114Z 35005KT 2SM BKN005 BKN200 24/22 A3004 RMK AO2 SFC VIS 8 BKN005 V SCT T02390217=
201908241052 METAR KATL 241052Z 33003KT 10SM FEW009 FEW150 FEW200 24/21 A3004 RMK AO2 SLP161 T02390211=
201908240952 METAR KATL 240952Z 00000KT 10SM FEW200 24/21 A3002 RMK AO2 SLP155 T02390211=
201908240852 METAR KATL 240852Z 00000KT 10SM FEW055 FEW250 24/21 A3002 RMK AO2 SLP154 T02390211 56009=
201908240752 METAR KATL 240752Z 16003KT 10SM FEW055 FEW150 FEW250 24/21 A3002 RMK AO2 SLP155 T02390211=
201908240652 METAR KATL 240652Z 12003KT 10SM FEW055 FEW150 FEW250 25/21 A3003 RMK AO2 SLP157 T02500211=
201908240552 METAR KATL 240552Z 31003KT 10SM FEW055 SCT150 SCT250 26/22 A3004 RMK AO2 SLP161 60000 T02560217 10283 20256 55001=
201908240452 METAR KATL 240452Z 00000KT 10SM BKN150 BKN250 26/21 A3004 RMK AO2 SLP161 T02610206 403440244=
201908240352 METAR KATL 240352Z 11005KT 10SM FEW050 BKN150 BKN250 27/21 A3004 RMK AO2 SLP160 T02670211=
201908240252 METAR KATL 240252Z 00000KT 10SM FEW025 SCT050 BKN150 BKN250 27/22 A3005 RMK AO2 SLP162 60000 T02720222 53014=
201908240152 METAR KATL 240152Z 21004KT 10SM SCT065 BKN150 BKN250 27/22 A3004 RMK AO2 RAE0059 SLP159 P0000 T02720217=
201908240052 METAR KATL 240052Z 22006KT 10SM -RA FEW050 SCT090 BKN150 BKN250 28/22 A3001 RMK AO2 RAB47 SLP149 P0000 T02780222=
201908232352 METAR KATL 232352Z 31006KT 10SM FEW030 SCT110 BKN150 BKN250 28/22 A3000 RMK AO2 SLP149 CB DSNT SE 60000 T02830217 10344 20267 51006=
201908232252 METAR KATL 232252Z 29006KT 10SM FEW030 SCT110 BKN200 BKN250 29/21 A3000 RMK AO2 SLP147 TCU DSNT E-S T02890206=
201908232152 METAR KATL 232152Z 34006KT 10SM FEW030 SCT120 BKN150 BKN250 28/22 A3000 RMK AO2 LTG DSNT NE AND E RAE01 SLP149 CB DSNT NE E TCU DSNT E-S-SW P0000 T02830217=
201908232052 METAR KATL 232052Z 35010KT 10SM -RA FEW030 BKN060TCU BKN100 BKN250 27/22 A2999 RMK AO2 WSHFT 2018 RAB33 SLP143 TCU OHD-W & NE & SW P0000 60000 T02720217 56014=
201908232046 SPECI KATL 232046Z 29010KT 260V320 10SM -RA FEW030 BKN060TCU BKN100 BKN250 27/23 A2999 RMK AO2 WSHFT 2018 RAB33 TCU OHD-W & NE & SW P0000=
201908232038 SPECI KATL 232038Z 31016KT 10SM VCTS -RA FEW030 BKN060CB BKN100 BKN250 28/22 A2999 RMK AO2 WSHFT 2018 RAB33 OCNL LTGIC VC N-NE TS N-NE MOV E TCU OHD-W SHRA W P0000 T02780222=
201908231952 METAR KATL 231952Z 24005KT 10SM BKN060TCU BKN095 BKN250 33/19 A2999 RMK AO2 LTG DSNT N AND NW SLP144 CB DSNT W-NW TCU N-E & S T03330189=
201908231852 METAR KATL 231852Z 19007KT 10SM BKN060TCU BKN095 BKN250 33/19 A3001 RMK AO2 LTG DSNT W AND NW SLP149 CB DSNT W & NW TCU OHD & N & E MDT CU ALQDS T03280189=
201908231752 METAR KATL 231752Z 18009KT 10SM BKN055TCU BKN200 BKN250 34/19 A3003 RMK AO2 LTG DSNT NW SLP155 CB DSNT W & NW TCU OHD & N & E-SE-S T03390194 10344 20256 58019=
201908231652 METAR KATL 231652Z 21006KT 10SM BKN060TCU BKN250 31/19 A3005 RMK AO2 SLP163 CB DSNT NW-NE TCU E-SE-S-SW T03110194=
201908231552 METAR KATL 231552Z 18004KT 10SM SCT045 SCT250 31/19 A3007 RMK AO2 SLP170 T03110194=
201908231452 METAR KATL 231452Z 29007KT 10SM FEW040 FEW150 SCT250 31/20 A3008 RMK AO2 SLP174 CB DSNT N T03060200 50003=
201908231352 METAR KATL 231352Z 31008KT 10SM FEW035 FEW150 BKN250 29/21 A3009 RMK AO2 SLP176 CB DSNT N TCU DSNT NW-NE T02940206=
201908231252 METAR KATL 231252Z 31005KT 10SM FEW036 FEW150 SCT200 SCT250 28/21 A3008 RMK AO2 SLP173 CB DSNT NW TCU DSNT NW-NE T02780211=
201908231152 METAR KATL 231152Z 29005KT 10SM FEW038 FEW150 SCT200 SCT250 26/21 A3007 RMK AO2 SLP172 TCU DSNT NW T02560211 10267 20244 53012=
201908231052 METAR KATL 231052Z 28005KT 10SM FEW040 FEW140 SCT200 SCT250 24/21 A3006 RMK AO2 SLP168 T02440206=
201908230952 METAR KATL 230952Z 26004KT 10SM FEW038 FEW140 SCT180 SCT250 24/21 A3005 RMK AO2 SLP161 T02440206=
201908230852 METAR KATL 230852Z 21004KT 10SM FEW044 SCT140 BKN180 BKN250 25/21 A3004 RMK AO2 SLP159 MDT CU W-N-NE T02500206 56001=
201908230752 METAR KATL 230752Z 21005KT 10SM FEW140 BKN180 BKN250 25/20 A3004 RMK AO2 SLP159 T02500200=
201908230652 METAR KATL 230652Z 24005KT 10SM FEW120 BKN180 BKN250 26/20 A3003 RMK AO2 SLP158 T02610200=
201908230552 METAR KATL 230552Z 23006KT 10SM FEW110 BKN180 BKN250 26/20 A3004 RMK AO2 SLP160 T02610200 10311 20261 58001=
201908230452 METAR KATL 230452Z 21006KT 10SM FEW100 SCT150 SCT250 27/19 A3004 RMK AO2 SLP161 T02670194 403440233=
201908230352 METAR KATL 230352Z 20005KT 10SM SCT150 SCT250 28/19 A3005 RMK AO2 SLP163 T02780189=
201908230252 METAR KATL 230252Z 20006KT 10SM FEW150 SCT250 28/19 A3005 RMK AO2 SLP161 T02830189 51017=
201908230152 METAR KATL 230152Z 21004KT 10SM FEW200 29/19 A3003 RMK AO2 SLP158 CB DSNT N T02890189=
201908230052 METAR KATL 230052Z 20006KT 10SM FEW060 FEW200 30/18 A3001 RMK AO2 SLP150 CB DSNT N T03000183=
201908222352 METAR KATL 222352Z 21008KT 10SM FEW060 FEW200 31/18 A2999 RMK AO2 SLP145 CB DSNT NW-N T03110183 10344 20311 56003=
201908222252 METAR KATL 222252Z 22009KT 10SM FEW060 FEW200 32/17 A3000 RMK AO2 SLP145 CB DSNT NW-N T03220172=
201908222152 METAR KATL 222152Z 24007KT 10SM SCT060 SCT200 34/18 A3000 RMK AO2 SLP145 T03390178=
201908222052 METAR KATL 222052Z 25008G15KT 10SM SCT060 SCT150 34/18 A3000 RMK AO2 SLP148 T03390178 56022=
201908221952 METAR KATL 221952Z 20008G15KT 10SM FEW060 FEW150 34/18 A3002 RMK AO2 SLP151 T03390178=
201908221852 METAR KATL 221852Z 24009KT 10SM FEW055 SCT150 BKN250 33/19 A3005 RMK AO2 SLP164 T03330194=
201908221752 METAR KATL 221752Z 22009KT 10SM SCT055 SCT150 33/19 A3007 RMK AO2 SLP170 MDT CU ALQDS T03330194 10333 20250 58015=
201908221652 METAR KATL 221652Z 25007KT 10SM SCT045 SCT150 32/20 A3009 RMK AO2 SLP176 T03220200=
201908221552 METAR KATL 221552Z VRB04KT 10SM SCT038 SCT160 32/21 A3011 RMK AO2 SLP182 T03170206=
201908221452 METAR KATL 221452Z 27004KT 10SM SCT030 SCT160 30/21 A3012 RMK AO2 SLP186 T03000211 51006=
201908221352 METAR KATL 221352Z 31009KT 10SM BKN160 28/20 A3011 RMK AO2 SLP186 T02830200=
201908221252 METAR KATL 221252Z 28006KT 10SM FEW140 FEW250 27/20 A3012 RMK AO2 SLP187 T02670200=
201908221152 METAR KATL 221152Z 31003KT 10SM FEW140 FEW250 25/21 A3010 RMK AO2 SLP181 T02500206 10256 20233 51013=
201908221052 METAR KATL 221052Z 29005KT 10SM FEW055 FEW140 24/21 A3010 RMK AO2 SLP180 TCU DSNT NE T02390206=
201908220952 METAR KATL 220952Z 28006KT 10SM CLR 24/21 A3008 RMK AO2 SLP174 T02390206=
201908220852 METAR KATL 220852Z 22006KT 10SM FEW250 24/21 A3006 RMK AO2 SLP167 T02390206 56007=
201908220752 METAR KATL 220752Z 23007KT 10SM FEW250 24/21 A3006 RMK AO2 SLP167 T02440206=
201908220652 METAR KATL 220652Z 21007KT 10SM FEW250 25/21 A3005 RMK AO2 SLP164 T02500206=
201908220552 METAR KATL 220552Z 23006KT 10SM FEW075 FEW250 26/21 A3008 RMK AO2 SLP173 T02560206 10317 20256 58002=
201908220452 METAR KATL 220452Z 21006KT 10SM FEW250 27/20 A3009 RMK AO2 SLP179 T02670200 403440217=
201908220352 METAR KATL 220352Z 23004KT 10SM FEW250 27/20 A3009 RMK AO2 SLP177 T02720200=
201908220252 METAR KATL 220252Z 24005KT 10SM FEW250 28/20 A3009 RMK AO2 SLP177 T02830200 51014=
201908220152 METAR KATL 220152Z 20004KT 10SM FEW110 FEW250 29/19 A3008 RMK AO2 SLP174 T02890194=
201908220052 METAR KATL 220052Z 21006KT 10SM FEW060 FEW110 SCT250 30/19 A3007 RMK AO2 SLP170 TCU DSNT NE T03000189=
201908212352 METAR KATL 212352Z 21006KT 10SM FEW060CB FEW250 32/19 A3005 RMK AO2 SLP163 CB NE MOV STNRY T03170194 10344 20317 55003=
201908212252 METAR KATL 212252Z 21006KT 10SM SCT060TCU SCT250 32/19 A3004 RMK AO2 SLP163 TCU OHD-NE T03220194=
201908212152 METAR KATL 212152Z VRB03KT 10SM SCT060 BKN250 34/19 A3005 RMK AO2 SLP165 MDT CU OHD-ALQDS T03390194=
201908212052 METAR KATL 212052Z 26006KT 10SM SCT055 SCT250 33/18 A3006 RMK AO2 SLP165 MDT CU SW NW T03280183 56023=
201908211952 METAR KATL 211952Z 25007KT 10SM SCT055TCU SCT150 32/19 A3007 RMK AO2 SLP172 TCU SW-W T03220189=
201908211852 METAR KATL 211852Z 24007KT 10SM FEW050 FEW150 SCT250 33/20 A3010 RMK AO2 SLP182 T03330200=
201908211752 METAR KATL 211752Z 23008KT 10SM SCT043 SCT250 33/20 A3013 RMK AO2 SLP190 T03330200 10333 20222 58007=
201908211652 METAR KATL 211652Z 23008KT 10SM FEW040 FEW250 31/21 A3015 RMK AO2 SLP197 T03110206=
201908211552 METAR KATL 211552Z VRB06KT 10SM SCT030 SCT250 31/21 A3015 RMK AO2 SLP199 T03060206=
201908211452 METAR KATL 211452Z 26004KT 10SM FEW018 FEW140 FEW250 29/21 A3015 RMK AO2 SLP197 T02890211 51005=
201908211352 METAR KATL 211352Z 28004KT 10SM FEW010 FEW140 FEW250 26/21 A3014 RMK AO2 SLP195 T02610211=
201908211340 SPECI KATL 211340Z 25006KT 3SM FEW008 FEW140 FEW250 26/21 A3014 RMK AO2 SFC VIS 10 T02560211=
201908211252 METAR KATL 211252Z 25005KT 3SM BR OVC006 23/21 A3015 RMK AO2 SFC VIS 6 SLP198 CIG 005V008 BINOVC T02330211=
201908211218 SPECI KATL 211218Z 27008KT 3SM BR BKN005 BKN150 BKN200 BKN250 23/21 A3014 RMK AO2 SFC VIS 6 CIG 003V007 T02280211=
201908211152 METAR KATL 211152Z 26006KT 1SM R09R/P6000FT BR BKN003 BKN150 BKN200 BKN250 22/21 A3013 RMK AO2 SFC VIS 4 SLP192 CIG 002V005 T02220206 10239 20217 53015=
201908211148 SPECI KATL 211148Z 26005KT 1SM R09R/P6000FT BR BKN003 BKN150 BKN200 BKN250 22/21 A3013 RMK AO2 SFC VIS 3 CIG 002V005=
201908211123 SPECI KATL 211123Z 22004KT 1/2SM R09R/2400V5000FT BR VV002 22/21 A3012 RMK AO2 SFC VIS 1 CIG 001V003 BINOVC T02170206=
201908211059 SPECI KATL 211059Z 19006KT 1SM R09R/P6000FT BKN004 BKN150 BKN200 BKN250 22/21 A3012 RMK AO2 SFC VIS 8 T02220206=
201908211052 METAR KATL 211052Z 18005KT 10SM SCT004 SCT150 SCT200 BKN250 22/21 A3011 RMK AO2 SLP186 T02220206=
201908211049 SPECI KATL 211049Z 18005KT 10SM FEW004 FEW150 SCT200 SCT250 22/21 A3011 RMK AO2=
201908210952 METAR KATL 210952Z 00000KT 10SM FEW150 SCT200 SCT250 23/21 A3010 RMK AO2 SLP180 T02280206=
201908210852 METAR KATL 210852Z 20003KT 10SM FEW150 SCT200 SCT250 23/21 A3008 RMK AO2 SLP175 T02280206 56016=
201908210752 METAR KATL 210752Z 24005KT 10SM FEW150 FEW200 SCT250 23/21 A3010 RMK AO2 SLP181 T02280206=
201908210652 METAR KATL 210652Z 23005KT 10SM SCT200 SCT250 23/21 A3011 RMK AO2 SLP182 T02330206=
201908210552 METAR KATL 210552Z 23004KT 10SM SCT200 BKN250 24/21 A3013 RMK AO2 SLP192 T02390206 10306 20239 50003=
201908210452 METAR KATL 210452Z 24005KT 10SM FEW200 SCT250 24/21 A3014 RMK AO2 SLP195 T02440206 403440222=
201908210352 METAR KATL 210352Z 24007KT 10SM FEW200 25/20 A3013 RMK AO2 SLP193 T02500200=
201908210252 METAR KATL 210252Z 22007KT 10SM FEW060 FEW250 26/20 A3012 RMK AO2 SLP190 T02610200 51014=
201908210152 METAR KATL 210152Z 22008KT 10SM FEW060 FEW250 27/19 A3011 RMK AO2 SLP187 T02670194=
201908210052 METAR KATL 210052Z 20011KT 10SM SCT060TCU SCT250 28/21 A3010 RMK AO2 SLP183 TCU N-OHD-SE T02830211=
201908202352 METAR KATL 202352Z 17011KT 10SM FEW055 SCT250 31/21 A3008 RMK AO2 SLP176 TCU DSNT S-SW NW T03060206 10344 20306 53003=
201908202252 METAR KATL 202252Z 15007KT 10SM FEW055 SCT250 33/19 A3007 RMK AO2 SLP169 TCU DSNT S SW-W T03280189=
201908202152 METAR KATL 202152Z 15006KT 10SM FEW060 SCT250 33/18 A3006 RMK AO2 SLP168 CB DSNT SW TCU DSNT NW-N T03280183=
201908202052 METAR KATL 202052Z 18007KT 10SM FEW060TCU FEW250 34/18 A3007 RMK AO2 SLP171 CB DSNT NE S-SW TCU N-NE MDT CU NW T03390183 56022=
201908201952 METAR KATL 201952Z VRB04KT 10SM FEW050 FEW250 34/19 A3008 RMK AO2 SLP173 CB DSNT NE-SE-SW-NW T03390189=
201908201852 METAR KATL 201852Z 00000KT 10SM FEW050 FEW250 33/19 A3010 RMK AO2 SLP180 CB DSNT E-SE-S T03280189=
201908201752 METAR KATL 201752Z 14004KT 10SM FEW040 FEW250 32/19 A3014 RMK AO2 SLP194 CB DSNT S TCU DSNT NE S T03170194 10322 20228 50002=
201908201652 METAR KATL 201652Z 00000KT 10SM SCT030 31/21 A3016 RMK AO2 SLP203 T03060211=
201908201552 METAR KATL 201552Z 00000KT 10SM SCT020 29/22 A3015 RMK AO2 SLP199 T02940217=
201908201452 METAR KATL 201452Z 00000KT 10SM FEW010 27/22 A3013 RMK AO2 SLP194 T02670222 58005=
201908201442 SPECI KATL 201442Z VRB03KT 9SM FEW009 26/22 A3013 RMK AO2 T02610217 $=
201908201352 METAR KATL 201352Z 00000KT 8SM BKN007 OVC011 24/21 A3015 RMK AO2 SLP198 T02390211 $=
201908201252 METAR KATL 201252Z 12003KT 7SM FEW004 BKN007 OVC013 23/21 A3015 RMK AO2 SLP200 CIG 005V008 T02330211 $=
201908201152 METAR KATL 201152Z 00000KT 7SM BKN005 23/21 A3015 RMK AO2 SLP198 CIG 004V007 70008 T02280206 10233 20222 53017=
201908201052 METAR KATL 201052Z 08005KT 6SM BR BKN005 BKN008 BKN013 22/21 A3013 RMK AO2 SLP192 CIG 004V007 BINOVC T02220206=
201908201041 SPECI KATL 201041Z 08008KT 5SM BR OVC004 22/21 A3013 RMK AO2 T02220206=
201908200952 METAR KATL 200952Z 07004KT 10SM OVC006 22/21 A3011 RMK AO2 SLP185 CIG 005V007 T02220206=
201908200852 METAR KATL 200852Z 08008KT 10SM BKN009 22/20 A3010 RMK AO2 SLP180 T02220200 53001=
201908200752 METAR KATL 200752Z 08006KT 10SM SCT009 23/20 A3009 RMK AO2 SLP176 T02280200=
201908200748 SPECI KATL 200748Z 08006KT 10SM SCT009 23/20 A3009 RMK AO2=
201908200657 SPECI KATL 200657Z 10005KT 10SM BKN009 BKN065 23/20 A3009 RMK AO2 T02330200=
201908200652 METAR KATL 200652Z 10005KT 10SM SCT009 BKN065 BKN150 23/20 A3009 RMK AO2 SLP179 T02280200=
201908200552 METAR KATL 200552Z 09005KT 10SM FEW046 BKN065 BKN150 23/20 A3012 RMK AO2 SLP187 60008 T02330200 10306 20228 51007=
201908200452 METAR KATL 200452Z 10007KT 10SM SCT045 SCT150 BKN250 24/21 A3011 RMK AO2 SLP186 T02390206 403390228=
201908200352 METAR KATL 200352Z 08005KT 10SM FEW045 BKN150 BKN250 24/21 A3011 RMK AO2 RAE03 SLP186 P0000 T02440211=
201908200252 METAR KATL 200252Z 00000KT 10SM -RA FEW040 BKN100 BKN150 BKN250 23/19 A3010 RMK AO2 RAB17 TSB05E51 SLP180 LTG DSNT S-SW TS DSIPTD CB DSNT S-SW P0004 60008 T02330194 50015=
201908200205 SPECI KATL 200205Z 11008KT 10SM TS SCT040CB BKN110 BKN200 26/21 A3011 RMK AO2 TSB05 FRQ LTGICCG N-E DSNT SE-S TS N-E DSNT SE-S MOV W T02610206=
201908200152 METAR KATL 200152Z 05007KT 10SM FEW040 SCT110 BKN150 BKN250 27/20 A3010 RMK AO2 PK WND 08030/0055 LTG DSNT SE AND S RAE19 TSE16 SLP182 CB DSNT SE-S P0004 T02720200=
201908200116 SPECI KATL 200116Z 10007KT 10SM -RA FEW040 SCT110 BKN150 BKN250 25/20 A3009 RMK AO2 PK WND 08030/0055 TSE16 TS DSIPTD P0004 T02500200=
201908200102 SPECI KATL 200102Z 11012G28KT 4SM TSRA SCT040CB BKN110 OVC200 25/20 A3007 RMK AO2 PK WND 08030/0055 OCNL LTGICCG OHD-S TS OHD-S MOV SW P0001 T02500200=
201908200056 SPECI KATL 200056Z 08025KT 1 1/2SM +TSRA BKN045CB BKN110 BKN200 27/19 A3009 RMK AO2 PK WND 08030/0055 PRESRR OCNL LTGICCG OHD-E TS OHD-E MOV SW P0000 T02720189=
201908200052 METAR KATL 200052Z 07016G23KT 2 1/2SM +TSRA BKN045CB BKN110 BKN200 28/19 A3008 RMK AO2 RAB48 TSB46 SLP174 VIS LWR NE-SE OCNL LTGICCG NE-SE TS NE-SE MOV SW P0000 T02830194=
201908200046 SPECI KATL 200046Z 07016KT 10SM TS SCT045CB SCT110 BKN200 29/18 A3007 RMK AO2 TSB46 VIS LWR NE-SE OCNL LTGICCG NE-SE TS NE-SE MOV SW=
201908192352 METAR KATL 192352Z 05008KT 10SM FEW050 SCT150 BKN200 BKN250 31/21 A3005 RMK AO2 LTG DSNT E SLP163 CB DSNT NE-E SE T03060206 10339 20306 53005=
201908192252 METAR KATL 192252Z 08007KT 10SM FEW050 BKN150 BKN250 32/20 A3001 RMK AO2 SLP150 CB DSNT NE T03220200=
201908192152 METAR KATL 192152Z 06009KT 10SM FEW050 SCT150 BKN250 33/19 A3004 RMK AO2 LTG DSNT NE SLP159 CB DSNT NE T03330194=
201908192052 METAR KATL 192052Z 10006KT 10SM FEW050 FEW150 SCT250 34/21 A3003 RMK AO2 LTG DSNT NW-NE SLP158 CB DSNT NW-N-NE T03390211 56022=
201908191952 METAR KATL 191952Z VRB03KT 10SM FEW040 SCT150 SCT250 33/22 A3004 RMK AO2 SLP161 CB DSNT NW-N-NE T03280217=
201908191852 METAR KATL 191852Z 15007KT 10SM FEW040 SCT150 BKN250 32/22 A3007 RMK AO2 SLP169 CB DSNT NW-N-NE T03170222=
201908191752 METAR KATL 191752Z 10005KT 10SM FEW040 BKN150 BKN200 31/22 A3010 RMK AO2 SLP181 VIRGA OHD-N-E-SE W CB DSNT N-NE T03060217 10306 20250 58001=
201908191652 METAR KATL 191652Z 11005KT 10SM FEW030 BKN150 BKN200 30/23 A3012 RMK AO2 SLP187 VIRGA NE-SE T03000228=
201908191552 METAR KATL 191552Z 12004KT 10SM FEW025 BKN150 BKN200 29/22 A3011 RMK AO2 SLP186 VIRGA N-NE S-SW T02890222=
201908191452 METAR KATL 191452Z 10006KT 10SM FEW020 BKN150 BKN220 28/23 A3010 RMK AO2 SLP182 VIRGA NE W-NW-N T02830228 51006=
201908191352 METAR KATL 191352Z 06006KT 10SM FEW020 BKN150 BKN250 28/22 A3010 RMK AO2 SLP180 T02780222=
201908191252 METAR KATL 191252Z 09005KT 10SM FEW012 FEW110 SCT150 SCT200 SCT250 27/22 A3009 RMK AO2 SLP179 T02670222=
201908191152 METAR KATL 191152Z 10003KT 10SM FEW200 FEW250 25/22 A3008 RMK AO2 SLP176 70016 T02500222 10250 20239 51014=
201908191052 METAR KATL 191052Z 10003KT 10SM FEW120 FEW200 FEW250 24/22 A3007 RMK AO2 SLP171 T02390217=
201908190952 METAR KATL 190952Z 00000KT 10SM FEW025 FEW120 SCT250 24/22 A3006 RMK AO2 SLP168 T02390217=
201908190852 METAR KATL 190852Z 00000KT 10SM FEW120 FEW200 SCT250 24/22 A3004 RMK AO2 SLP160 T02390217 55001=
201908190752 METAR KATL 190752Z 00000KT 10SM FEW120 SCT200 BKN250 24/22 A3003 RMK AO2 SLP157 T02440217 $=
201908190652 METAR KATL 190652Z 21003KT 10SM FEW120 SCT200 SCT250 24/22 A3003 RMK AO2 SLP158 T02440217 $=
201908190552 METAR KATL 190552Z 18005KT 10SM SCT200 BKN250 25/22 A3005 RMK AO2 SLP162 T02500217 10300 20250 50003 $=
201908190452 METAR KATL 190452Z 19005KT 10SM SCT200 BKN250 26/22 A3005 RMK AO2 SLP162 T02610217 403500233 $=
201908190352 METAR KATL 190352Z 19005KT 10SM FEW140 SCT200 SCT250 27/22 A3004 RMK AO2 SLP160 T02670217 $=
201908190252 METAR KATL 190252Z 17007KT 10SM FEW120 FEW200 SCT250 28/21 A3004 RMK AO2 SLP159 T02780206 53006 $=
201908190152 METAR KATL 190152Z 12005KT 10SM FEW200 SCT250 28/19 A3003 RMK AO2 SLP156 T02830194 $=
201908190052 METAR KATL 190052Z 11005KT 10SM FEW046TCU FEW080 SCT200 BKN250 29/20 A3002 RMK AO2 SLP155 CONS LTGICCA DSNT N CB DSNT N TCU NW T02890200 $=
201908190023 SPECI KATL 190023Z 10007KT 10SM FEW048TCU FEW070 SCT110 BKN200 29/18 A3003 RMK AO2 CB DSNT N TCU NW-N T02940183 $=
201908182352 METAR KATL 182352Z 20007KT 10SM FEW048TCU SCT100 BKN200 BKN250 30/18 A3002 RMK AO2 SLP153 TSE27 TS DSIPTD CB DSNT NE-E TCU N-E SHRA DSNT NE-E 60016 T03000178 10350 20278 53012 $=
201908182328 SPECI KATL 182328Z 21010KT 10SM FEW055 SCT110 BKN200 BKN250 30/18 A3001 RMK AO2 LTG DSNT E TSE27 TS DSIPTD CB DSNT NE-E SW TCU DSNT NE T03000178 $=
201908182252 METAR KATL 182252Z 16009KT 10SM VCTS FEW055CB SCT110 BKN200 BKN250 33/19 A3000 RMK AO2 SLP146 TSB47 FRQ LTGICCGCA S-SW TS VC S-SW MOV W CB DSNT E TCU DSNT NE-SE T03280189 $=
201908182250 SPECI KATL 182250Z 16010KT 10SM VCTS FEW055CB SCT110 BKN200 BKN250 33/19 A3000 RMK AO2 LTG DSNT E-SW TSB47 FRQ LTGICCGCA S-SW TS VC S-SW MOV W CB DSNT E TCU DSNT NE-SE $=
201908182152 METAR KATL 182152Z 23008KT 10SM FEW055 SCT110 SCT200 BKN250 34/19 A2998 RMK AO2 SLP140 CB DSNT E SW TCU DSNT NE-E SE-SW T03390194 $=
201908182052 METAR KATL 182052Z VRB04KT 10SM FEW060TCU SCT120 BKN250 34/18 A2999 RMK AO2 LTG DSNT SE SLP143 TCU ALQDS SHRA VC SW 60016 T03440183 58020 $=
201908181952 METAR KATL 181952Z 09004KT 10SM SCT055TCU SCT070 SCT120 BKN250 33/17 A3001 RMK AO2 PK WND 01047/1912 RAB08E42 SLP151 TCU ALQDS P0016 T03280167 $=
201908181925 SPECI KATL 181925Z 02008KT 7SM R09R/5000VP6000FT -RA FEW028TCU BKN045 BKN100 28/18 A3003 RMK AO2 PK WND 01047/1912 RAB08 TCU ALQDS P0015 T02830178 $=
201908181917 SPECI KATL 181917Z 06017G47KT 4SM R09R/2000VP6000FT +RA SQ FEW020 BKN055 28/18 A3004 RMK AO2 PK WND 01047/1912 RAB08 P0005 T02780178 $=
201908181913 SPECI KATL 181913Z 01035G47KT 3SM R09R/2000VP6000FT RA SQ FEW023 OVC055 31/21 A3005 RMK AO2 PK WND 01047/1912 RAB08 P0000 T03060211 $=
201908181852 METAR KATL 181852Z 20004KT 10SM SCT055 33/19 A3004 RMK AO2 SLP160 MDT CU ALQDS T03330189 $=
201908181752 METAR KATL 181752Z VRB04KT 10SM FEW050 SCT250 33/20 A3005 RMK AO2 SLP164 TCU DSNT W T03280200 10344 20239 58007 $=
201908181652 METAR KATL 181652Z VRB04KT 10SM FEW045 SCT250 33/22 A3007 RMK AO2 SLP170 T03280217 $=
201908181552 METAR KATL 181552Z 00000KT 10SM FEW042 SCT250 32/21 A3008 RMK AO2 SLP172 T03170211 $=
201908181452 METAR KATL 181452Z 32005KT 10SM FEW030 FEW250 29/21 A3008 RMK AO2 SLP171 T02940211 51013 $=
201908181352 METAR KATL 181352Z 33004KT 10SM FEW020 FEW250 28/22 A3006 RMK AO2 SLP167 T02780217 $=
201908181306 SPECI KATL 181306Z 00000KT 10SM SCT009 25/22 A3006 RMK AO2 T02500217 $=
201908181252 METAR KATL 181252Z 27003KT 10SM BKN009 25/22 A3006 RMK AO2 SLP168 BKN009 V SCT T02500217 $=
201908181220 SPECI KATL 181220Z 29005KT 10SM BKN009 25/22 A3006 RMK AO2 BKN009 V SCT T02500217 $=
201908181152 METAR KATL 181152Z 00000KT 10SM FEW009 24/22 A3004 RMK AO2 SLP159 T02390217 10261 20233 53007 $=
201908181052 METAR KATL 181052Z 25003KT 10SM FEW009 23/21 A3003 RMK AO2 SLP154 T02330211 $=
201908181035 SPECI KATL 181035Z 23004KT 10SM FEW009 24/22 A3002 RMK AO2 T02390217 $=
201908180952 METAR KATL 180952Z 22005KT 10SM BKN009 24/22 A3002 RMK AO2 SLP154 T02390217 $=
201908180927 SPECI KATL 180927Z 22003KT 10SM BKN009 24/22 A3002 RMK AO2 T02390217 $=
201908180852 METAR KATL 180852Z 20005KT 10SM CLR 24/21 A3002 RMK AO2 SLP151 T02390211 55000 $=
201908180752 METAR KATL 180752Z 22006KT 10SM CLR 24/21 A3001 RMK AO2 SLP149 T02440211 $=
201908180652 METAR KATL 180652Z 23008KT 10SM CLR 25/21 A3001 RMK AO2 SLP151 T02500206 $=
201908180552 METAR KATL 180552Z 22005KT 10SM CLR 26/18 A3002 RMK AO2 SLP152 T02610178 10344 20261 53002 $=
201908180452 METAR KATL 180452Z 14003KT 10SM CLR 27/18 A3001 RMK AO2 SLP148 T02720178 403670222 $=
201908180352 METAR KATL 180352Z 16003KT 10SM CLR 28/17 A3001 RMK AO2 SLP150 T02830172 $=
201908180252 METAR KATL 180252Z 13003KT 10SM CLR 30/16 A3001 RMK AO2 SLP150 T03000161 53015=
201908180152 METAR KATL 180152Z 00000KT 10SM FEW250 31/16 A3000 RMK AO2 SLP145 T03110156=
201908180052 METAR KATL 180052Z 14003KT 10SM FEW250 32/15 A2998 RMK AO2 SLP138 T03220150=
201908172352 METAR KATL 172352Z VRB05KT 10SM FEW080 FEW250 34/15 A2997 RMK AO2 SLP135 CB DSNT NE TCU DSNT NE T03390150 10367 20339 55002=
201908172252 METAR KATL 172252Z 34006KT 10SM FEW085 FEW250 35/14 A2997 RMK AO2 SLP134 CB DSNT NE T03500144=
201908172152 METAR KATL 172152Z 36010KT 10SM FEW085 FEW250 37/13 A2997 RMK AO2 SLP134 CB DSNT NE TCU DSNT NE T03670133=
201908172052 METAR KATL 172052Z 35006KT 10SM FEW080 FEW250 36/14 A2997 RMK AO2 SLP136 CB DSNT NE TCU DSNT NE T03610144 56017=
201908171952 METAR KATL 171952Z 36009KT 10SM FEW080 FEW250 36/14 A2998 RMK AO2 SLP139 T03610144=
201908171852 METAR KATL 171852Z VRB05KT 10SM FEW070 FEW250 36/16 A3000 RMK AO2 SLP145 T03560156=
201908171752 METAR KATL 171752Z VRB05KT 10SM FEW070 FEW250 35/16 A3002 RMK AO2 SLP154 T03500161 10350 20239 58007=
201908171652 METAR KATL 171652Z VRB06KT 10SM FEW070 FEW250 34/16 A3004 RMK AO2 SLP157 T03440156=
201908171552 METAR KATL 171552Z 33006KT 10SM FEW060 FEW250 33/17 A3005 RMK AO2 SLP162 T03280167=
201908171452 METAR KATL 171452Z 33003KT 10SM FEW250 31/18 A3005 RMK AO2 SLP162 T03060183 53017 $=
201908171352 METAR KATL 171352Z 32004KT 10SM FEW250 28/19 A3003 RMK AO2 SLP155 T02830189 $=
201908171252 METAR KATL 171252Z 31004KT 10SM FEW250 26/18 A3001 RMK AO2 SLP150 T02610183 $=
201908171152 METAR KATL 171152Z 31004KT 10SM FEW250 24/19 A2999 RMK AO2 SLP145 T02390189 10261 20222 53008 $=
201908171052 METAR KATL 171052Z 00000KT 10SM CLR 23/18 A2998 RMK AO2 SLP141 T02330178 $=
201908170952 METAR KATL 170952Z 03003KT 10SM CLR 25/17 A2997 RMK AO2 SLP137 T02500172 $=
201908170852 METAR KATL 170852Z 00000KT 10SM CLR 24/18 A2997 RMK AO2 SLP136 T02390183 56008 $=
201908170752 METAR KATL 170752Z 00000KT 10SM CLR 24/18 A2997 RMK AO2 SLP137 T02440178 $=
201908170652 METAR KATL 170652Z 00000KT 10SM CLR 24/18 A2999 RMK AO2 SLP141 T02440178 $=
201908170552 METAR KATL 170552Z 33005KT 10SM CLR 26/18 A3000 RMK AO2 SLP144 T02610178 10322 20256 51002 $=
201908170452 METAR KATL 170452Z 32004KT 10SM CLR 27/17 A3000 RMK AO2 SLP144 T02720172 403560222 $=
201908170352 METAR KATL 170352Z 36004KT 10SM CLR 28/17 A3000 RMK AO2 SLP144 T02830172 $=
201908170252 METAR KATL 170252Z 31004KT 10SM CLR 28/18 A2999 RMK AO2 SLP142 T02830183 51011 $=
201908170152 METAR KATL 170152Z 32006KT 10SM CLR 30/17 A2998 RMK AO2 SLP140 T03000172 $=
201908170052 METAR KATL 170052Z 33006KT 10SM CLR 31/18 A2997 RMK AO2 SLP136 T03110178 $=
201908162352 METAR KATL 162352Z 29008KT 10SM CLR 32/16 A2996 RMK AO2 SLP132 T03220161 10356 20322 55002 $=
201908162252 METAR KATL 162252Z 32008KT 10SM CLR 34/16 A2995 RMK AO2 SLP130 T03390156 $=
201908162152 METAR KATL 162152Z 34010KT 10SM FEW070 34/15 A2996 RMK AO2 SLP133 T03440150 $=
201908162052 METAR KATL 162052Z 31009KT 10SM FEW070 35/16 A2996 RMK AO2 SLP135 T03500156 56016 $=
201908161952 METAR KATL 161952Z 33008KT 10SM FEW070 35/15 A2997 RMK AO2 SLP136 T03500150 $=
201908161852 METAR KATL 161852Z VRB03KT 10SM FEW065 34/17 A2999 RMK AO2 SLP143 T03440167 $=
201908161752 METAR KATL 161752Z 32006KT 10SM FEW060 33/16 A3001 RMK AO2 SLP150 T03330161 10344 20228 58001 $=
201908161652 METAR KATL 161652Z 00000KT 10SM FEW060 33/17 A3002 RMK AO2 SLP151 T03280167=
201908161552 METAR KATL 161552Z VRB04KT 10SM FEW060 FEW250 32/16 A3002 RMK AO2 SLP153 T03170161=
201908161452 METAR KATL 161452Z 01007KT 340V040 10SM FEW250 31/17 A3002 RMK AO2 SLP151 T03110172 51007=
201908161352 METAR KATL 161352Z 31004KT 10SM FEW250 28/18 A3002 RMK AO2 SLP152 T02830178=
201908161252 METAR KATL 161252Z VRB05KT 10SM FEW250 26/17 A3001 RMK AO2 SLP150 T02560172=
201908161152 METAR KATL 161152Z 33006KT 10SM FEW250 23/17 A3000 RMK AO2 SLP145 T02280167 10261 20222 53008=
201908161052 METAR KATL 161052Z 33004KT 10SM FEW250 23/17 A2998 RMK AO2 SLP141 T02280167=
201908160952 METAR KATL 160952Z 31003KT 10SM CLR 22/17 A2998 RMK AO2 SLP139 T02220172=
201908160852 METAR KATL 160852Z 31005KT 10SM CLR 23/17 A2997 RMK AO2 SLP137 T02280172 53001=
201908160752 METAR KATL 160752Z 33004KT 10SM CLR 24/17 A2996 RMK AO2 SLP130 T02390167 $=
201908160652 METAR KATL 160652Z 34006KT 10SM CLR 25/16 A2996 RMK AO2 SLP130 T02500161 $=
201908160552 METAR KATL 160552Z 33006KT 10SM FEW250 25/17 A2997 RMK AO2 SLP134 T02500167 10328 20250 58007 $=
201908160452 METAR KATL 160452Z 31007KT 10SM FEW250 27/16 A2998 RMK AO2 SLP138 T02670161 403500239=
201908160352 METAR KATL 160352Z 32005KT 10SM FEW250 27/16 A2998 RMK AO2 SLP140 T02720156=
201908160252 METAR KATL 160252Z 33006KT 10SM FEW250 28/16 A2999 RMK AO2 SLP143 T02830156 50017=
201908160152 METAR KATL 160152Z 33006KT 10SM FEW250 29/14 A2999 RMK AO2 SLP143 T02940144=
201908160052 METAR KATL 160052Z 35007KT 10SM FEW250 31/14 A2996 RMK AO2 SLP132 T03110139=
201908152352 METAR KATL 152352Z 36011G17KT 10SM FEW070 33/14 A2994 RMK AO2 SLP126 T03280144 10350 20328 53003=
201908152252 METAR KATL 152252Z 35010KT 10SM FEW070 33/17 A2992 RMK AO2 SLP120 T03330167=
201908152249 SPECI KATL 152249Z 34010KT 10SM FEW070 34/17 A2992 RMK AO2=
201908152245 SPECI KATL 152245Z 35011KT 1 3/4SM HZ FEW070 34/17 A2992 RMK AO2 T03390167=
201908152152 METAR KATL 152152Z 33013G18KT 10SM FEW070 34/16 A2992 RMK AO2 SLP117 T03440156=
201908152052 METAR KATL 152052Z 32011KT 10SM FEW070 34/16 A2993 RMK AO2 SLP122 T03440161 56015=
201908151952 METAR KATL 151952Z 36010G19KT 10SM FEW065 FEW250 35/18 A2994 RMK AO2 SLP127 CB DSNT E-SE-S T03500178=
201908151852 METAR KATL 151852Z 35007KT 10SM FEW060 FEW250 34/17 A2996 RMK AO2 SLP131 CB DSNT E T03440167=
201908151752 METAR KATL 151752Z 34007KT 10SM FEW060 FEW150 33/18 A2998 RMK AO2 SLP137 T03330178 10339 20239 58009=
201908151652 METAR KATL 151652Z VRB06KT 10SM FEW050 FEW150 SCT250 33/18 A2999 RMK AO2 SLP143 T03280183=
201908151552 METAR KATL 151552Z 31005KT 10SM FEW040 FEW150 SCT250 31/20 A3001 RMK AO2 SLP150 T03110200=
201908151452 METAR KATL 151452Z 32007KT 10SM FEW005 FEW200 BKN250 29/20 A3000 RMK AO2 SLP147 FU FEW005 T02890200 51005=
201908151352 METAR KATL 151352Z 32005KT 10SM FEW150 FEW200 SCT250 29/21 A2999 RMK AO2 SLP145 T02890206=
201908151252 METAR KATL 151252Z 35008KT 10SM FEW140 SCT200 SCT250 27/21 A2999 RMK AO2 SLP145 ACC DSNT NW-N T02720206=
201908151152 METAR KATL 151152Z 33005KT 10SM FEW140 SCT200 BKN250 24/21 A2999 RMK AO2 SLP144 ACC DSNT S NW T02390206 10256 20239 53016=
201908151052 METAR KATL 151052Z 33007KT 10SM FEW140 BKN200 BKN250 24/21 A2997 RMK AO2 SLP135 ACC OHD-SE-SW T02390206=
201908150952 METAR KATL 150952Z 32004KT 10SM SCT200 BKN250 24/21 A2994 RMK AO2 SLP127 T02390206=
201908150852 METAR KATL 150852Z 31004KT 10SM FEW150 BKN200 OVC250 24/21 A2994 RMK AO2 SLP124 T02440211 55005=
201908150752 METAR KATL 150752Z 31004KT 10SM FEW150 BKN200 OVC250 24/21 A2993 RMK AO2 SLP122 T02440211=
201908150652 METAR KATL 150652Z 32005KT 10SM FEW150 BKN200 BKN250 25/21 A2994 RMK AO2 SLP126 T02500211=
201908150552 METAR KATL 150552Z 30005KT 10SM SCT150 BKN200 BKN250 26/21 A2995 RMK AO2 SLP130 T02560211 10278 20250 58007=
201908150452 METAR KATL 150452Z 26003KT 10SM FEW075 SCT150 BKN250 26/21 A2997 RMK AO2 SLP135 T02560211 403500239=
201908150352 METAR KATL 150352Z 20003KT 10SM SCT070 BKN150 BKN250 26/21 A2998 RMK AO2 SLP140 T02610211=
201908150252 METAR KATL 150252Z 20003KT 10SM FEW080 SCT130 BKN250 26/21 A2997 RMK AO2 SLP138 T02610211 51018=
201908150152 METAR KATL 150152Z 10003KT 10SM SCT130 BKN250 26/21 A2996 RMK AO2 SLP135 T02610211=
201908150052 METAR KATL 150052Z 33005KT 10SM FEW050 SCT120 BKN150 BKN250 27/21 A2993 RMK AO2 SLP125 LTG DSNT SE CB DSNT SE T02720206=
201908142352 METAR KATL 142352Z 36013KT 10SM FEW050 SCT110 BKN150 BKN250 27/20 A2992 RMK AO2 PK WND 34030/2309 LTG DSNT NE AND W SLP120 CB DSNT NE SE S SW-W T02720200 10350 20272 53008=
201908142252 METAR KATL 142252Z 31008KT 10SM FEW055 BKN150 BKN250 34/20 A2991 RMK AO2 LTG DSNT N AND NW SLP114 CB DSNT NW-NE TCU DSNT SE-S T03390200=
201908142152 METAR KATL 142152Z 33008KT 10SM FEW060 FEW150 SCT250 34/20 A2988 RMK AO2 SLP104 CB DSNT NW-N TCU DSNT SE-S T03390200=
201908142052 METAR KATL 142052Z 34008KT 10SM FEW060 BKN150 BKN250 34/19 A2990 RMK AO2 SLP111 CB DSNT NE NW TCU DSNT SE-S T03390194 55017=
201908141952 METAR KATL 141952Z 32007KT 280V340 10SM SCT045 SCT250 34/20 A2989 RMK AO2 SLP108 CB DSNT NE TCU DSNT SE SW T03440200=
201908141852 METAR KATL 141852Z 31008KT 10SM SCT050 SCT150 BKN250 34/21 A2991 RMK AO2 SLP116 CB DSNT N S T03440211=
201908141752 METAR KATL 141752Z VRB05KT 10SM FEW050 BKN150 BKN250 34/21 A2995 RMK AO2 SLP128 T03390211 10339 20244 58003=
201908141652 METAR KATL 141652Z 27005KT 10SM FEW040 FEW150 SCT250 32/22 A2996 RMK AO2 SLP133 T03220222=
201908141552 METAR KATL 141552Z 30005KT 10SM FEW035 FEW140 FEW180 SCT250 31/22 A2997 RMK AO2 SLP136 T03060222=
201908141452 METAR KATL 141452Z 34007KT 10SM FEW140 SCT180 SCT250 29/22 A2996 RMK AO2 SLP131 T02890217 51008=
201908141352 METAR KATL 141352Z 30007KT 10SM SCT140 BKN180 BKN250 28/22 A2995 RMK AO2 SLP128 ACC OHD-SW-NW-N T02780222=
201908141252 METAR KATL 141252Z 31005KT 10SM FEW110 SCT150 BKN200 BKN250 26/22 A2994 RMK AO2 SLP126 ACC DSNT W T02560222=
201908141152 METAR KATL 141152Z 33006KT 10SM FEW120 SCT150 BKN200 BKN250 25/22 A2993 RMK AO2 SLP123 ACC DSNT W NW 60001 70013 T02500217 10250 20239 56015=
201908141052 METAR KATL 141052Z 32008KT 10SM FEW110 SCT150 BKN200 BKN250 24/22 A2993 RMK AO2 SLP124 ACC W T02440217=
201908140952 METAR KATL 140952Z 33003KT 10SM FEW007 FEW110 BKN150 OVC200 25/22 A2995 RMK AO2 SLP128 ACC NW-NE T02500217=
201908140852 METAR KATL 140852Z 31005KT 10SM FEW005 FEW110 BKN140 OVC200 24/22 A2998 RMK AO2 LTG DSNT S SLP137 CB DSNT S 60001 T02390222 53008=
201908140836 SPECI KATL 140836Z 28004KT 10SM FEW006 FEW075 SCT140 OVC200 24/22 A2998 RMK AO2 LTG DSNT S FRQ LTGICCA DSNT S CB DSNT S T02390222=
201908140752 METAR KATL 140752Z 31008KT 10SM FEW070 SCT120 BKN150 OVC200 24/22 A2996 RMK AO2 SLP131 CONS LTGICCGCA DSNT S-SW CB DSNT S-SW T02440222=
201908140652 METAR KATL 140652Z 00000KT 10SM FEW006 FEW110 BKN140 OVC200 24/22 A2993 RMK AO2 RAE24 SLP123 FRQ LTGICCA DSNT SE-SW CB DSNT SE-SW ACC N-E P0001 T02440222=
201908140637 SPECI KATL 140637Z 17006KT 10SM FEW008 FEW065 SCT110 OVC200 24/22 A2995 RMK AO2 RAE24 CONS LTGICCGCA DSNT SE-SW CB DSNT SE-SW P0001 T02440222=
201908140552 METAR KATL 140552Z 36007KT 10SM -RA FEW014 FEW080 BKN100 OVC200 24/22 A2995 RMK AO2 TSE48 SLP130 TS MOVD SE CONS LTGICCGCA DSNT SE-SW CB DSNT SE-SW P0012 60012 T02440217 10322 20244 50009=
201908140550 SPECI KATL 140550Z 01007KT 10SM -RA FEW016 FEW075 BKN110 OVC200 24/22 A2996 RMK AO2 TSE48 TS MOVD SE CONS LTGICCGCA DSNT SE-SW CB DSNT SE-SW P0012=
201908140452 METAR KATL 140452Z 33013G21KT 10SM -TSRA BKN030CB BKN050 BKN200 27/22 A2997 RMK AO2 PK WND 33028/0435 WSHFT 0418 RAB45 TSB32E51B52 SLP136 FRQ LTGICCG NE-OHD-SW TS NE-OHD-SW MOV SE P0000 T02670217 403780256=
201908140434 SPECI KATL 140434Z 33016G22KT 10SM TS BKN030CB BKN050 BKN200 29/22 A2996 RMK AO2 WSHFT 0418 TSB32 PRESRR FRQ LTGICCG W-N-NE TS W-N-NE MOV SE T02940222=
201908140352 METAR KATL 140352Z 21008KT 10SM FEW100 SCT200 BKN250 29/23 A2993 RMK AO2 LTG DSNT NW-NE SLP119 CB DSNT NW-NE T02890228=
201908140252 METAR KATL 140252Z 20006KT 10SM FEW150 SCT250 29/23 A2991 RMK AO2 SLP116 T02940228 53008=
201908140152 METAR KATL 140152Z 21006KT 10SM FEW250 31/22 A2989 RMK AO2 SLP109 T03060222=
201908140052 SPECI KATL 140052Z 20008KT 10SM FEW250 31/24 A2989 RMK AO2 SLP109 T03110239=
201908140052 METAR KATL 140052Z 20008KT 10SM FEW250 31/24 A2989 RMK AO2 SLP109 T03110239=
201908132352 METAR KATL 132352Z 21006KT 10SM FEW055TCU SCT080 SCT250 32/23 A2989 RMK AO2 SLP108 TCU N-E-SE DSNT SW T03220233 10378 20322 53006=
201908132252 METAR KATL 132252Z 18009KT 10SM SCT060TCU BKN080 33/23 A2988 RMK AO2 SLP105 TCU OHD-W SE-SW T03330233=
201908132216 SPECI KATL 132216Z 17013G18KT 10SM SCT060TCU BKN080 BKN250 34/23 A2986 RMK AO2 TCU OHD-SW T03390233=
201908132152 METAR KATL 132152Z 24006KT 10SM SCT060CB SCT250 36/21 A2986 RMK AO2 SLP098 CB SE-SW MOV SE TCU OHD-S T03560206=
201908132052 METAR KATL 132052Z 27003KT 10SM SCT060TCU SCT250 37/21 A2987 RMK AO2 LTG DSNT SE SLP101 CB DSNT SE S TCU NE SE-SW NW T03670206 56019=
201908131952 METAR KATL 131952Z 33008KT 10SM SCT060TCU SCT250 37/21 A2989 RMK AO2 LTG DSNT SE SLP108 CB DSNT SE TCU OHD-SE-S-SW DSNT N-NE NW T03720211=
201908131852 METAR KATL 131852Z 26006KT 10SM BKN060TCU BKN250 34/22 A2991 RMK AO2 SLP113 CB DSNT N-NE SE-S TCU NW-N-NE MDT CU ALQDS T03440217=
201908131752 METAR KATL 131752Z 00000KT 10SM SCT050TCU SCT250 34/22 A2993 RMK AO2 SLP120 CB DSNT SE-SW TCU NE-E W-NW T03390217 10356 20261 58015=
201908131652 METAR KATL 131652Z 29005KT 10SM FEW045TCU FEW150 SCT250 34/22 A2995 RMK AO2 SLP127 TCU NE NW T03390222=
201908131552 METAR KATL 131552Z 31008KT 10SM FEW040 SCT150 SCT250 34/22 A2997 RMK AO2 SLP134 T03390222=
201908131452 METAR KATL 131452Z 28007KT 10SM FEW040 FEW250 33/23 A2998 RMK AO2 SLP136 T03280233 53006=
201908131352 METAR KATL 131352Z 24005KT 10SM FEW250 31/23 A2997 RMK AO2 SLP134 T03060233=
201908131252 METAR KATL 131252Z 22004KT 10SM SCT250 28/23 A2997 RMK AO2 SLP134 T02830233=
201908131152 METAR KATL 131152Z 21003KT 10SM SCT250 26/23 A2996 RMK AO2 SLP132 T02610228 10278 20256 53003=
201908131052 METAR KATL 131052Z 00000KT 10SM FEW150 BKN250 26/23 A2995 RMK AO2 SLP130 T02560228=
201908130952 METAR KATL 130952Z 00000KT 10SM FEW150 SCT250 26/23 A2994 RMK AO2 SLP126 T02560228=
201908130852 METAR KATL 130852Z 19004KT 10SM FEW150 BKN250 26/23 A2995 RMK AO2 SLP127 T02610228 50001=
201908130752 METAR KATL 130752Z 19004KT 10SM SCT150 BKN250 27/23 A2995 RMK AO2 SLP128 T02670228=
201908130652 METAR KATL 130652Z 18007KT 10SM FEW150 FEW250 28/23 A2994 RMK AO2 SLP125 T02780228=
201908130552 METAR KATL 130552Z 14004KT 10SM FEW150 FEW250 28/23 A2994 RMK AO2 SLP125 T02780228 10322 20278 58007=
201908130452 METAR KATL 130452Z 15004KT 10SM FEW150 SCT250 28/23 A2996 RMK AO2 SLP133 T02830228 403560250=
201908130352 METAR KATL 130352Z 14003KT 10SM BKN250 29/23 A2997 RMK AO2 SLP134 T02890228=
201908130252 METAR KATL 130252Z 13004KT 10SM BKN250 29/22 A2996 RMK AO2 SLP133 T02940222 53008=
201908130152 METAR KATL 130152Z 15004KT 10SM BKN250 30/22 A2995 RMK AO2 SLP127 T03000222=
201908130052 METAR KATL 130052Z 14004KT 10SM FEW055 BKN250 31/22 A2993 RMK AO2 SLP124 T03060222=
201908122352 METAR KATL 122352Z 11007KT 10SM FEW055 BKN250 32/22 A2994 RMK AO2 SLP126 60000 T03170217 10356 20311 53001=
201908122252 METAR KATL 122252Z 11005KT 10SM FEW055TCU SCT100 BKN250 33/22 A2993 RMK AO2 SLP123 CB DSNT S TCU OHD-W T03280217=
201908122152 METAR KATL 122152Z 00000KT 10SM FEW060TCU FEW150 BKN250 33/21 A2994 RMK AO2 SLP124 TCU OHD-W DSNT S T03330206=
201908122052 METAR KATL 122052Z 00000KT 10SM FEW060 FEW120 BKN250 34/21 A2994 RMK AO2 SLP124 TCU DSNT SE MDT CU NW 60000 T03440211 56023=
201908121952 METAR KATL 121952Z VRB04KT 10SM SCT047TCU SCT090 BKN250 33/21 A2995 RMK AO2 SLP130 TCU OHD-SW-NW T03330211=
201908121852 METAR KATL 121852Z VRB04KT 10SM FEW050TCU SCT120 SCT250 34/22 A2999 RMK AO2 RAB14E21 SLP141 CB DSNT NE E SW NW TCU N P0000 T03440217=
201908121806 SPECI KATL 121806Z 09005KT 10SM FEW045CB SCT055TCU BKN250 33/22 A3000 RMK AO2 CB SW MOV SE TCU S W-NW SHRA VC SW T03280217=
201908121752 METAR KATL 121752Z 07004KT 10SM FEW040CB SCT050TCU SCT250 34/22 A3001 RMK AO2 SLP148 CB W MOV E TCU NW MDT CU DSNT NE-SE-S SHRA VC W T03390222 10339 20256 58007=
201908121652 METAR KATL 121652Z 13005KT 10SM BKN040TCU 33/22 A3001 RMK AO2 SLP151 TCU OHD-S-W MDT CU ALQDS T03280222=
201908121552 METAR KATL 121552Z 10SM SCT030 33/23 A3002 RMK AO2 SLP152 MDT CU S-W-N T03330228=
201908121452 METAR KATL 121452Z 15005KT 10SM FEW030 FEW250 31/23 A3003 RMK AO2 SLP155 T03110233 51007=
201908121352 METAR KATL 121352Z 10005KT 10SM FEW250 29/23 A3002 RMK AO2 SLP152 T02940228=
201908121252 METAR KATL 121252Z 10005KT 10SM FEW250 27/22 A3002 RMK AO2 SLP154 T02720222=
201908121152 METAR KATL 121152Z 07007KT 9SM FEW250 26/22 A3001 RMK AO2 SLP149 T02610217 10272 20250 51015=
201908121052 METAR KATL 121052Z 08007KT 10SM FEW250 26/22 A2999 RMK AO2 SLP143 T02560217=
201908120952 METAR KATL 120952Z 06008KT 10SM FEW250 26/22 A2998 RMK AO2 SLP139 T02560217=
201908120852 METAR KATL 120852Z 08006KT 10SM FEW250 26/22 A2996 RMK AO2 SLP133 T02610217 56004=
201908120752 METAR KATL 120752Z 07005KT 10SM FEW250 27/22 A2996 RMK AO2 SLP134 T02670222=
201908120652 METAR KATL 120652Z 11004KT 10SM FEW250 27/22 A2996 RMK AO2 SLP133 T02670217=
201908120552 METAR KATL 120552Z 10004KT 10SM FEW250 FEW300 27/22 A2998 RMK AO2 SLP137 T02720217 10317 20272 58009=
201908120452 METAR KATL 120452Z 10004KT 10SM SCT250 SCT300 28/22 A2999 RMK AO2 SLP141 T02780217 403560250=
201908120352 METAR KATL 120352Z 13005KT 10SM FEW060 BKN250 BKN300 28/22 A3000 RMK AO2 SLP144 T02830217=
201908120252 METAR KATL 120252Z 09006KT 10SM SCT060 BKN250 BKN300 29/21 A3000 RMK AO2 SLP146 T02940211 53013=
201908120152 METAR KATL 120152Z 14004KT 10SM FEW090 BKN250 BKN300 30/22 A2999 RMK AO2 SLP141 T03000217=
201908120052 METAR KATL 120052Z 13004KT 10SM FEW048 FEW090 SCT250 BKN300 31/22 A2997 RMK AO2 SLP136 CB DSNT SW TCU DSNT SW-W T03060217=
201908112352 METAR KATL 112352Z 10007KT 10SM FEW050 FEW090 BKN250 BKN300 32/22 A2996 RMK AO2 SLP134 TCU DSNT N SE-S SW T03170217 10356 20317 53001=
201908112252 METAR KATL 112252Z 08009KT 10SM FEW055TCU SCT250 BKN300 33/21 A2996 RMK AO2 SLP131 CB DSNT SE S TCU SW T03330211=
201908112152 METAR KATL 112152Z 03008KT 10SM FEW055TCU FEW095 BKN250 BKN300 34/21 A2995 RMK AO2 SLP130 TCU E SE-SW T03440211=
201908112052 METAR KATL 112052Z 01007KT 10SM FEW050TCU FEW100 BKN300 34/21 A2996 RMK AO2 SLP132 TCU N-E SW T03440211 56015=
201908111952 METAR KATL 111952Z 03010G16KT 10SM SCT047TCU BKN300 34/21 A2997 RMK AO2 SLP135 TCU SW-N T03390211=
201908111852 METAR KATL 111852Z 07006KT 10SM SCT047TCU BKN300 33/21 A2998 RMK AO2 SLP139 TCU N & DSNT E MDT CU SW T03280211=
201908111752 METAR KATL 111752Z VRB04KT 10SM SCT041TCU BKN300 33/21 A3000 RMK AO2 SLP147 TCU SW MDT CU ALQDS T03280211 10339 20256 58006=
201908111652 METAR KATL 111652Z 03006KT 10SM SCT038TCU BKN300 34/22 A3002 RMK AO2 SLP153 TCU ALQDS T03390222=
201908111552 METAR KATL 111552Z 06006KT 10SM SCT035 BKN300 33/23 A3003 RMK AO2 SLP157 MDT CU SW T03280233=
201908111452 METAR KATL 111452Z VRB03KT 10SM SCT021 SCT300 30/23 A3002 RMK AO2 SLP153 T03000228 51011=
201908111352 METAR KATL 111352Z 08007KT 10SM FEW025 SCT300 29/23 A3002 RMK AO2 SLP151 T02940228=
201908111252 METAR KATL 111252Z 06005KT 10SM FEW250 27/23 A3000 RMK AO2 SLP148 T02720228=
201908111152 METAR KATL 111152Z 35006KT 10SM FEW200 FEW250 26/22 A2999 RMK AO2 SLP143 T02560222 10261 20250 53018 $=
201908111052 METAR KATL 111052Z 32003KT 10SM SCT200 25/22 A2997 RMK AO2 SLP135 T02500222 $=
201908110952 METAR KATL 110952Z 31005KT 10SM FEW250 25/22 A2995 RMK AO2 SLP128 T02500222 $=
201908110852 METAR KATL 110852Z 32005KT 10SM FEW250 26/23 A2994 RMK AO2 SLP124 T02560228 56007 $=
201908110752 METAR KATL 110752Z 29004KT 10SM FEW250 26/22 A2994 RMK AO2 SLP125 T02560222 $=
201908110652 METAR KATL 110652Z 00000KT 10SM FEW250 26/22 A2995 RMK AO2 SLP128 T02560222 $=
201908110552 METAR KATL 110552Z 30004KT 10SM FEW250 26/22 A2996 RMK AO2 SLP131 T02610222 10317 20261 53002 $=
201908110452 METAR KATL 110452Z 00000KT 10SM FEW250 27/23 A2996 RMK AO2 SLP130 T02720228 403560256 $=
201908110352 METAR KATL 110352Z 29004KT 10SM SCT050 SCT200 SCT250 27/22 A2995 RMK AO2 SLP130 T02720222 $=
201908110252 METAR KATL 110252Z 33004KT 10SM FEW075 FEW110 SCT200 SCT250 29/22 A2995 RMK AO2 SLP130 T02940217 51015 $=
201908110152 METAR KATL 110152Z 25003KT 10SM FEW065 SCT100 BKN200 BKN250 29/22 A2995 RMK AO2 SLP128 ACC N SE-SW T02940222 $=
201908110052 METAR KATL 110052Z 31004KT 10SM FEW048TCU SCT100 BKN200 BKN250 31/21 A2994 RMK AO2 SLP125 LTG DSNT SE CB DSNT SE W TCU SW SHRA SW T03060211 $=
201908102352 METAR KATL 102352Z 35007KT 10SM FEW048TCU SCT130 BKN200 BKN250 32/22 A2991 RMK AO2 LTG DSNT E SLP116 CB DSNT E-SE TCU SE-S SW SHRA SW DSNT E-SE 60000 T03170217 10356 20306 53004 $=
201908102252 METAR KATL 102252Z 33007KT 10SM FEW055TCU SCT140 BKN200 BKN250 34/20 A2990 RMK AO2 LTG DSNT SE SLP113 CB DSNT SE TCU NE-SE SW SHRA DSNT SE T03390200 $=
201908102152 METAR KATL 102152Z 30007KT 10SM FEW050TCU SCT120 BKN200 BKN250 34/20 A2989 RMK AO2 SLP108 CB DSNT NE SE NW TCU NE SE-SW SHRA DSNT SE T03390200 $=
201908102052 METAR KATL 102052Z 33011KT 10SM SCT048TCU SCT150 BKN250 35/21 A2990 RMK AO2 SLP111 TCU N & NE & NW & DSNT S SHRA DSNT S & SW 60000 T03500206 56022 $=
201908101952 METAR KATL 101952Z 34008KT 10SM SCT040TCU SCT070 SCT150 BKN250 33/22 A2991 RMK AO2 RAE1857 SLP116 TCU W AND NW MDT CU SE CB DSNT E P0000 T03330217=
201908101855 SPECI KATL 101855Z 35010KT 10SM -RA SCT040TCU SCT047 BKN100 BKN150 BKN250 33/22 A2994 RMK AO2 TCU ALQDS CB DSNT E-SE P0000 T03330222 $=
201908101852 METAR KATL 101852Z 35010KT 10SM -RA SCT040TCU SCT047 BKN100 BKN150 BKN250 33/22 A2994 RMK AO2 RAB25 TSB07E38 SLP125 TCU ALQDS CB DSNT E-SE P0000 T03330222 $=
201908101844 SPECI KATL 101844Z 35010KT 10SM -RA SCT043 SCT055 BKN110 BKN150 BKN250 32/22 A2995 RMK AO2 LTG DSNT E RAB25 TSB07E38 TS MOV E TCU OHD AND ALQDS CB DSNT E P0000 T03220222 $=
201908101808 SPECI KATL 101808Z 36008KT 10SM TS SCT040CB SCT110 BKN150 BKN250 33/22 A2996 RMK AO2 LTG DSNT E AND SE TSB07 TSB07 OCNL LTGICCG NE-SE TS NE-SE MOV E CB DSNT E AND SE VIS LWR NE-SE T03280222 $=
201908101802 SPECI KATL 101802Z 27010KT 10SM VCTS SCT040CB SCT110 BKN150 BKN250 34/22 A2996 RMK AO2 LTG DSNT E AND SE RAB11E22 OCNL LTGIC VC NW-NE AND E TS VC NW-NE AND E MOV E CB DSNT E VIS LWR NE-SE T03390217 $=
201908101752 METAR KATL 101752Z 24008KT 10SM VCTS SCT040CB BKN110 BKN250 34/22 A2996 RMK AO2 LTG DSNT E SLP134 RAB11E22 OCNL LTGIC VC NW-NE TS VC NW-NE MOV E CB DSNT E P0000 60000 T03390222 10344 20256 58010 $=
201908101652 METAR KATL 101652Z 28011KT 10SM SCT040TCU SCT060 SCT110 BKN250 34/22 A2998 RMK AO2 SLP138 TCU ALQDS CB VC SW SHRA VC SW T03390217 $=
201908101552 METAR KATL 101552Z 32007KT 10SM SCT040 SCT180 SCT250 BKN300 33/22 A2999 RMK AO2 SLP142 T03330217 $=
201908101452 METAR KATL 101452Z VRB03KT 10SM FEW030 SCT180 BKN250 31/23 A3000 RMK AO2 SLP144 T03060228 51009 $=
201908101352 METAR KATL 101352Z 29008KT 10SM FEW120 SCT180 SCT250 29/23 A2999 RMK AO2 SLP143 T02940228 $=
201908101252 METAR KATL 101252Z 32005KT 10SM FEW050 SCT110 SCT180 SCT250 27/22 A2998 RMK AO2 SLP140 T02670222 $=
201908101152 METAR KATL 101152Z 30003KT 10SM FEW044 SCT080 SCT110 SCT150 BKN200 BKN250 26/22 A2997 RMK AO2 RAB01E17 SLP136 CB DSIPT SHRA NE & W P0000 60000 T02560222 10272 20256 53009 $=
201908101052 METAR KATL 101052Z 31007KT 10SM FEW035CB BKN050 BKN150 BKN220 26/22 A2996 RMK AO2 SLP131 CB VC NW-N MOV E SHRA NW-N T02610217 $=
201908100952 METAR KATL 100952Z 00000KT 10SM SCT065 SCT150 BKN220 26/22 A2995 RMK AO2 SLP128 T02610217 $=
201908100852 METAR KATL 100852Z 28004KT 10SM FEW150 BKN220 26/21 A2994 RMK AO2 SLP125 T02610211 55002 $=
201908100752 METAR KATL 100752Z 29004KT 10SM FEW150 BKN220 26/22 A2994 RMK AO2 SLP124 T02610217 $=
201908100652 METAR KATL 100652Z 29005KT 10SM FEW150 SCT250 27/22 A2994 RMK AO2 SLP125 T02670217 $=
201908100552 METAR KATL 100552Z 30004KT 10SM FEW150 SCT250 27/21 A2995 RMK AO2 SLP127 T02720211 10317 20267 56009 $=
201908100452 METAR KATL 100452Z 28005KT 10SM SCT150 BKN250 27/21 A2996 RMK AO2 SLP131 T02720211 403500239 $=
201908100352 METAR KATL 100352Z 27004KT 10SM FEW150 BKN250 29/21 A2996 RMK AO2 SLP132 T02890206 $=
201908100252 METAR KATL 100252Z 29004KT 10SM SCT150 BKN250 29/21 A2997 RMK AO2 SLP137 T02890206 53011 $=
201908100152 METAR KATL 100152Z 28004KT 10SM SCT150 BKN250 30/21 A2996 RMK AO2 SLP134 T03000206 $=
201908100052 METAR KATL 100052Z 30005KT 10SM SCT150 BKN250 31/20 A2994 RMK AO2 SLP127 T03110200 $=
201908092352 METAR KATL 092352Z 29009KT 10SM FEW060 SCT150 BKN250 32/19 A2994 RMK AO2 SLP127 CB DSNT NW-N T03170194 10350 20317 53005 $=
201908092252 METAR KATL 092252Z 30010KT 10SM FEW060 FEW150 BKN250 33/19 A2994 RMK AO2 SLP125 CB DSNT NW-N T03330189=
201908092152 METAR KATL 092152Z 31009KT 10SM FEW060 BKN250 34/18 A2993 RMK AO2 SLP121 T03440178=
201908092052 METAR KATL 092052Z VRB06KT 10SM FEW060 FEW180 BKN300 34/18 A2992 RMK AO2 SLP120 T03440183 58019=
201908091952 METAR KATL 091952Z 00000KT 10SM FEW050 SCT150 SCT180 34/21 A2994 RMK AO2 SLP127 T03440206=
201908091852 METAR KATL 091852Z 31007G15KT 10SM FEW050 BKN150 BKN250 33/19 A2996 RMK AO2 SLP134 T03280194=
201908091752 METAR KATL 091752Z 34007G15KT 10SM FEW050 SCT150 33/20 A2998 RMK AO2 SLP139 T03330200 10333 20250 58008=
201908091652 METAR KATL 091652Z 31011G17KT 10SM FEW050 FEW120 BKN150 32/19 A3000 RMK AO2 SLP145 T03220194=
201908091552 METAR KATL 091552Z 33010G17KT 10SM FEW045 FEW120 SCT150 32/20 A3000 RMK AO2 SLP147 T03170200=
201908091452 METAR KATL 091452Z 33010KT 10SM FEW040 FEW120 SCT150 30/21 A3001 RMK AO2 SLP149 T03000206 51012=
201908091352 METAR KATL 091352Z 31007KT 10SM FEW120 SCT150 SCT250 28/21 A3000 RMK AO2 SLP146 T02780211=
201908091252 METAR KATL 091252Z 30007KT 10SM FEW130 BKN200 BKN250 26/21 A2999 RMK AO2 SLP144 ACC DSNT NE NW T02560206=
201908091152 METAR KATL 091152Z 30005KT 10SM FEW140 BKN200 BKN250 24/21 A2997 RMK AO2 SLP136 T02440206 10261 20239 51013=
201908091052 METAR KATL 091052Z 31008KT 10SM SCT140 BKN200 BKN250 24/21 A2996 RMK AO2 SLP134 T02390206=
201908090952 METAR KATL 090952Z 30006KT 10SM FEW120 SCT250 24/21 A2994 RMK AO2 SLP126 T02390211 $=
201908090852 METAR KATL 090852Z 29006KT 10SM FEW250 24/21 A2993 RMK AO2 SLP123 T02390206 56007 $=
201908090752 METAR KATL 090752Z 29007KT 10SM FEW200 SCT250 24/21 A2993 RMK AO2 SLP123 T02440211 $=
201908090652 METAR KATL 090652Z 29007KT 10SM FEW150 SCT200 SCT250 25/21 A2994 RMK AO2 SLP126 T02500211 $=
201908090552 METAR KATL 090552Z 29006KT 10SM FEW150 SCT250 26/21 A2995 RMK AO2 SLP129 T02610211 10306 20261 58005 $=
201908090452 METAR KATL 090452Z 27004KT 10SM FEW150 SCT250 26/21 A2997 RMK AO2 SLP136 T02610211 403440233 $=
201908090352 METAR KATL 090352Z 31007KT 10SM FEW150 SCT250 28/22 A2996 RMK AO2 SLP133 T02780217 $=
201908090252 METAR KATL 090252Z 28005KT 10SM FEW150 BKN250 28/22 A2996 RMK AO2 SLP135 T02780217 51011 $=
201908090152 METAR KATL 090152Z 29007KT 10SM FEW150 SCT250 29/21 A2995 RMK AO2 SLP131 T02890211 $=
201908090052 METAR KATL 090052Z 30006KT 10SM FEW050 BKN250 29/21 A2995 RMK AO2 SLP130 TCU DSNT NE T02890206 $=
201908082352 METAR KATL 082352Z 29009KT 10SM FEW050 BKN250 31/20 A2993 RMK AO2 SLP124 TCU DSNT N-NE T03060200 10344 20306 51002=
201908082252 METAR KATL 082252Z 29009KT 10SM FEW050 BKN250 32/20 A2993 RMK AO2 SLP124 T03220200=
201908082152 METAR KATL 082152Z 33011KT 10SM FEW055 BKN250 33/19 A2993 RMK AO2 SLP121 TCU DSNT SE T03330194=
201908082052 METAR KATL 082052Z 34007KT 300V360 10SM FEW055 FEW200 BKN250 33/20 A2992 RMK AO2 SLP121 TCU DSNT S T03330200 58015=
201908081952 METAR KATL 081952Z 30007KT 10SM FEW060 FEW200 BKN250 33/19 A2994 RMK AO2 SLP125 CB DSNT S-SW T03330194=
201908081852 METAR KATL 081852Z 34010KT 10SM FEW060 BKN250 BKN300 34/19 A2996 RMK AO2 SLP132 T03390189=
201908081752 METAR KATL 081752Z 27013KT 10SM FEW060 FEW250 BKN300 34/19 A2997 RMK AO2 SLP135 CB DSNT SW T03390189 10339 20244 58003=
201908081652 METAR KATL 081652Z 31013G19KT 10SM FEW050 FEW250 33/19 A2997 RMK AO2 SLP136 T03280189=
201908081552 METAR KATL 081552Z 29013G19KT 10SM FEW150 FEW250 31/19 A2999 RMK AO2 SLP142 T03110189 $=
201908081452 METAR KATL 081452Z 30009KT 10SM SCT150 SCT250 29/19 A2998 RMK AO2 SLP139 T02940194 50007 $=
201908081352 METAR KATL 081352Z 31009KT 10SM BKN150 BKN250 27/19 A2998 RMK AO2 SLP139 T02720189=
201908081252 METAR KATL 081252Z 33008KT 10SM SCT140 SCT200 SCT250 26/19 A2998 RMK AO2 SLP140 T02610194=
201908081152 METAR KATL 081152Z 31007KT 10SM FEW140 SCT200 SCT250 24/19 A2996 RMK AO2 SLP132 T02440194 10256 20233 53010=
201908081052 METAR KATL 081052Z 32010KT 10SM SCT140 BKN200 BKN250 24/19 A2994 RMK AO2 SLP127 T02390194=
201908080952 METAR KATL 080952Z 28005KT 10SM BKN140 BKN200 BKN250 24/19 A2993 RMK AO2 SLP122 T02390194=
201908080852 METAR KATL 080852Z 29006KT 10SM SCT140 BKN200 BKN250 24/21 A2993 RMK AO2 SLP121 T02390206 56003=
201908080752 METAR KATL 080752Z 32004KT 10SM SCT200 BKN250 24/20 A2993 RMK AO2 SLP121 T02440200=
201908080652 METAR KATL 080652Z 32007KT 10SM BKN200 BKN250 26/19 A2993 RMK AO2 SLP120 T02560189=
201908080552 METAR KATL 080552Z 26003KT 10SM FEW140 BKN200 BKN250 25/21 A2994 RMK AO2 SLP124 T02500206 10306 20250 58002=
201908080452 METAR KATL 080452Z 28005KT 10SM FEW100 SCT200 BKN250 26/20 A2995 RMK AO2 SLP127 T02560200 403500239=
201908080352 METAR KATL 080352Z 21007KT 10SM SCT090 BKN120 BKN200 OVC250 26/21 A2996 RMK AO2 SLP132 T02610206=
201908080252 METAR KATL 080252Z 26005KT 10SM FEW040 SCT110 BKN200 BKN250 28/21 A2994 RMK AO2 LTG DSNT S AND SW SLP127 CB DSNT SE-SW T02780206 51014=
201908080152 METAR KATL 080152Z 22003KT 10SM BKN120 OVC200 29/21 A2993 RMK AO2 SLP123 T02890211=
201908080052 METAR KATL 080052Z 27005KT 10SM FEW050 BKN200 OVC250 29/21 A2993 RMK AO2 SLP121 T02940206=
201908072352 METAR KATL 072352Z 26009KT 10SM FEW050 BKN200 OVC250 31/21 A2990 RMK AO2 SLP112 CB DSNT NE T03060206 10350 20306 53002=
201908072252 METAR KATL 072252Z 27008KT 10SM FEW050 SCT200 BKN250 32/20 A2987 RMK AO2 SLP102 TCU DSNT NW-N T03170200=
201908072152 METAR KATL 072152Z 30008KT 260V330 10SM FEW055TCU FEW150 BKN250 34/19 A2988 RMK AO2 SLP104 CB DSNT SE-S TCU N MDT CU DSNT NE SE W-NW T03390194=
201908072052 METAR KATL 072052Z 29011G16KT 10SM SCT050TCU SCT250 34/21 A2989 RMK AO2 LTG DSNT S AND SW SLP109 CB DSNT S-SW TCU N E W NW T03390206 56018=
201908071952 METAR KATL 071952Z 26010KT 10SM SCT050TCU SCT250 34/21 A2991 RMK AO2 SLP114 TCU N SE-S-SW W T03390206=
201908071852 METAR KATL 071852Z 28009G15KT 10SM SCT055TCU SCT250 34/21 A2993 RMK AO2 SLP122 TCU E-SE W-NW T03440206=
201908071752 METAR KATL 071752Z 25010KT 230V290 10SM FEW050 SCT150 SCT250 34/20 A2995 RMK AO2 SLP128 TCU DSNT N W T03390200 10339 20244 58008=
201908071652 METAR KATL 071652Z 26009KT 10SM FEW050 FEW150 SCT250 33/21 A2996 RMK AO2 SLP133 T03280206=
201908071552 METAR KATL 071552Z 29007KT 10SM FEW050 FEW150 BKN250 32/19 A2997 RMK AO2 SLP137 T03170194=
201908071452 METAR KATL 071452Z 31006KT 10SM FEW150 FEW180 BKN250 30/20 A2997 RMK AO2 SLP137 T03000200 50004=
201908071352 METAR KATL 071352Z 32006KT 10SM FEW150 FEW250 28/21 A2997 RMK AO2 SLP138 T02830211=
201908071252 METAR KATL 071252Z 27004KT 10SM FEW065 FEW150 SCT200 BKN250 27/21 A2997 RMK AO2 SLP135 T02670211=
201908071152 METAR KATL 071152Z 29005KT 10SM FEW060 FEW150 SCT200 BKN250 24/22 A2996 RMK AO2 SLP134 T02440217 10256 20239 53015=
201908071052 METAR KATL 071052Z 24005KT 10SM SCT060 SCT150 SCT200 BKN250 24/22 A2994 RMK AO2 SLP126 T02440217=
201908070952 METAR KATL 070952Z 26007KT 10SM SCT060 BKN150 BKN200 BKN250 24/22 A2994 RMK AO2 SLP125 T02440217=
201908070852 METAR KATL 070852Z 22006KT 10SM FEW055 SCT200 SCT250 24/21 A2992 RMK AO2 SLP118 T02440206 58010=
201908070752 METAR KATL 070752Z 23006KT 10SM SCT055 SCT200 BKN250 24/20 A2993 RMK AO2 SLP122 T02440200=
201908070652 METAR KATL 070652Z 21004KT 10SM FEW200 BKN250 24/19 A2994 RMK AO2 SLP126 T02390189=
201908070552 METAR KATL 070552Z 30003KT 10SM FEW200 SCT250 26/18 A2995 RMK AO2 SLP129 T02560183 10306 20250 50002=
201908070452 METAR KATL 070452Z 23004KT 10SM CLR 25/19 A2995 RMK AO2 SLP130 T02500189 403390217=
201908070352 METAR KATL 070352Z 22003KT 10SM FEW250 26/18 A2995 RMK AO2 SLP130 T02610183=
201908070252 METAR KATL 070252Z 00000KT 10SM SCT250 27/18 A2994 RMK AO2 SLP127 T02720178 51011=
201908070152 METAR KATL 070152Z 00000KT 10SM FEW250 28/17 A2994 RMK AO2 SLP127 T02830172=
201908070052 METAR KATL 070052Z 29004KT 10SM SCT250 29/17 A2992 RMK AO2 SLP122 T02890172=
201908062352 METAR KATL 062352Z 28007KT 10SM FEW055 BKN250 31/16 A2991 RMK AO2 SLP117 T03110161 10339 20306 55004=
201908062252 METAR KATL 062252Z VRB06KT 10SM FEW055 SCT250 32/17 A2990 RMK AO2 SLP115 T03170167=
201908062152 METAR KATL 062152Z 30008KT 10SM FEW055 FEW250 33/17 A2991 RMK AO2 SLP117 T03280167=
201908062052 METAR KATL 062052Z 29010KT 10SM FEW065 FEW250 33/17 A2992 RMK AO2 SLP120 T03280172 56014=
201908061952 METAR KATL 061952Z 29008KT 10SM FEW060 FEW250 33/16 A2993 RMK AO2 SLP122 TCU DSNT SE-S T03330156=
201908061852 METAR KATL 061852Z 33009G14KT 10SM FEW050TCU FEW250 32/18 A2994 RMK AO2 SLP128 TCU SE-SW-W T03170178=
201908061752 METAR KATL 061752Z 10SM SCT045 SCT250 32/20 A2996 RMK AO2 SLP136 TCU DSNT NE SE MDT CU ALQDS T03170200 10322 20222 58011=
201908061652 METAR KATL 061652Z 34003KT 10SM SCT040 SCT250 31/21 A2998 RMK AO2 SLP142 MDT CU N-NE-E S-SW-W-NW T03110206=
201908061552 METAR KATL 061552Z 31006KT 10SM FEW030 FEW150 SCT250 30/21 A2999 RMK AO2 SLP145 T03000211=
201908061452 METAR KATL 061452Z 28005KT 10SM FEW025 FEW150 BKN250 28/22 A3000 RMK AO2 SLP148 T02780217 51008=
201908061352 METAR KATL 061352Z 00000KT 10SM FEW020 SCT150 BKN250 26/22 A2999 RMK AO2 SLP146 T02610217=
201908061252 METAR KATL 061252Z 30003KT 7SM FEW005 SCT150 SCT200 BKN250 24/21 A2999 RMK AO2 SLP146 T02390211=
201908061239 SPECI KATL 061239Z 00000KT 5SM BR FEW004 SCT150 SCT200 BKN250 23/22 A2999 RMK AO2 ACC SW T02330217=
201908061152 METAR KATL 061152Z 00000KT 2SM BR SCT003 SCT150 BKN200 BKN250 22/21 A2997 RMK AO2 SFC VIS 4 SLP139 VIS SE-S 1 1/2 SCT003 V BKN 70001 T02220206 10228 20217 53002=
201908061148 SPECI KATL 061148Z 00000KT 2SM BR SCT003 SCT150 BKN200 BKN250 22/21 A2997 RMK AO2 SFC VIS 4 VIS SE-S 1 1/2 SCT003 V BKN=
201908061102 SPECI KATL 061102Z 00000KT 2SM BR BKN003 BKN200 22/21 A2997 RMK AO2 SFC VIS 3 VIS NE-SE 1 1/2 BKN003 V SCT TWRINC T02220206=
201908061052 METAR KATL 061052Z 00000KT 2SM BR SCT004 BKN200 22/21 A2997 RMK AO2 SFC VIS 4 SLP138 SCT004 V BKN T02170206=
201908060952 METAR KATL 060952Z 00000KT 2SM BR BKN004 23/21 A2997 RMK AO2 SFC VIS 5 SLP135 CIG 003V006 BKN004 V SCT T02280206=
201908060950 SPECI KATL 060950Z 00000KT 2SM BR BKN004 23/21 A2997 RMK AO2 SFC VIS 5 CIG 003V006 BKN004 V SCT=
201908060852 METAR KATL 060852Z 32003KT 10SM FEW005 FEW250 23/21 A2996 RMK AO2 SLP134 T02280206 51001 $=
201908060752 METAR KATL 060752Z 00000KT 10SM FEW005 FEW250 23/21 A2996 RMK AO2 SLP135 T02280206 $=
201908060652 METAR KATL 060652Z 00000KT 7SM SCT005 23/21 A2997 RMK AO2 SLP136 T02280206 $=
201908060633 SPECI KATL 060633Z 00000KT 6SM BR BKN004 23/21 A2996 RMK AO2 T02280206 $=
201908060552 METAR KATL 060552Z 00000KT 10SM FEW110 FEW150 FEW250 23/21 A2996 RMK AO2 SLP135 60001 T02280206 10272 20222 58005 $=
201908060452 METAR KATL 060452Z 00000KT 10SM FEW110 FEW150 SCT250 23/21 A2997 RMK AO2 SLP137 T02280206 403280228 $=
201908060352 METAR KATL 060352Z 17003KT 10SM FEW085 FEW110 SCT150 SCT250 23/21 A2997 RMK AO2 SLP140 ACC N T02280206 $=
201908060252 METAR KATL 060252Z 18003KT 10SM FEW075 SCT110 BKN150 BKN200 23/21 A2998 RMK AO2 RAB14E37 SLP141 P0000 60001 T02330211 58000 $=
201908060152 METAR KATL 060152Z 07004KT 10SM FEW043 SCT060 BKN110 BKN200 23/20 A2999 RMK AO2 SLP148 RAE23 TSE48 TS DSIPTD SHRA NW-NE P0000 T02330200 $=
201908060134 SPECI KATL 060134Z 06007KT 10SM TS FEW033CB BKN060 BKN110 BKN200 23/20 A2999 RMK AO2 RAE23 OCNL LTGICCA NW-NE TS NW-NE MOV STNRY SHRA NW-NE P0000 T02330200 $=
201908060103 SPECI KATL 060103Z 07011KT 7SM -TSRA FEW008 SCT024CB BKN048 OVC130 24/21 A2998 RMK AO2 LTG DSNT NE VIS NE-SE-S 2 FRQ LTGICCGCA NE-SE-S TS NE-SE-S MOV S CB DSNT NE P0000 T02390211 $=
201908060052 METAR KATL 060052Z 09012G21KT 8SM TS SCT020CB BKN038TCU BKN100 BKN200 24/21 A2997 RMK AO2 LTG DSNT NE AND E SLP140 RAB09E29B48 TSB28 VIS LWR N-E OCNL LTGICCGCA N-E TS N-E MOV S CB DSNT E TCU SE-SW-W P0001 T02390206 $=
201908060046 SPECI KATL 060046Z 05016G21KT 10SM TS SCT020CB BKN038TCU BKN100 BKN200 25/22 A2998 RMK AO2 LTG DSNT E PRESRR RAB09E29 TSB28 VIS LWR N-E OCNL LTGICCGCA N-E TS N-E MOV S CB DSNT E TCU SE-OHD-NW SHRA N-E P0001=
201908060030 SPECI KATL 060030Z 11006KT 10SM VCTS SCT038CB BKN050TCU BKN100 BKN200 26/22 A2996 RMK AO2 LTG DSNT NE AND E RAB09E29 TSB28 OCNL LTGICCA N-E TS VC N-E MOV S CB DSNT NE-E TCU SE-OHD-NW SHRA VC N-E P0001 T02560222=
201908052352 METAR KATL 052352Z 21006KT 10SM FEW036CB SCT048TCU BKN100 BKN200 27/21 A2994 RMK AO2 LTG DSNT NE AND E SLP129 CB N-E MOV SW CB DSNT NE-E NW TCU SE SW-NW SHRA N-E T02720211 10328 20272 53001=
201908052252 METAR KATL 052252Z 17009KT 10SM SCT038TCU BKN065 BKN100 BKN200 29/21 A2993 RMK AO2 LTG DSNT NE SLP125 CB DSNT NE-E TCU ALQDS T02890206=
201908052238 SPECI KATL 052238Z 18006KT 10SM SCT038TCU BKN065 BKN100 BKN200 29/21 A2994 RMK AO2 LTG DSNT NE AND E CB DSNT NE E TCU ALQDS T02890206=
201908052152 METAR KATL 052152Z 35006KT 10SM SCT055TCU SCT100 SCT200 BKN250 33/19 A2994 RMK AO2 LTG DSNT SE SLP126 CB DSNT SE S TCU N-E-S-SW T03280189=
201908052052 METAR KATL 052052Z 35007KT 10SM SCT050TCU BKN250 32/19 A2994 RMK AO2 LTG DSNT S SLP127 CB DSNT S TCU ALQDS T03220189 56016=
201908051952 METAR KATL 051952Z VRB05KT 10SM SCT044TCU SCT070 32/20 A2995 RMK AO2 LTG DSNT E SLP129 CB DSNT E TCU ALQDS T03170200=
201908051852 METAR KATL 051852Z 29007KT 10SM SCT041TCU SCT055 32/21 A2997 RMK AO2 SLP136 TCU NE-SE S-SW T03170206=
201908051752 METAR KATL 051752Z VRB03KT 10SM SCT038TCU BKN060 31/20 A2999 RMK AO2 LTG DSNT SW SLP144 CB DSNT SW TCU ALQDS 60000 T03060200 10306 20233 56014=
201908051652 METAR KATL 051652Z 00000KT 10SM SCT028TCU SCT180 29/21 A3000 RMK AO2 SLP147 TCU SE-SW MDT CU SW-NW T02940206=
201908051552 METAR KATL 051552Z 08004KT 10SM FEW020 FEW120 SCT180 SCT250 28/22 A3002 RMK AO2 SLP154 T02780217=
201908051452 METAR KATL 051452Z 02003KT 10SM FEW015 FEW110 SCT140 BKN180 26/21 A3003 RMK AO2 SLP158 60000 T02610206 51013=
201908051352 METAR KATL 051352Z 35004KT 10SM FEW015 SCT040 BKN110 BKN150 24/21 A3002 RMK AO2 RAB14E42 SLP154 P0000 T02440211=
201908051252 METAR KATL 051252Z 33006KT 10SM SCT041 SCT095 BKN120 BKN150 BKN250 24/21 A3001 RMK AO2 RAB1157E28 SLP150 SHRA W-NW P0000 T02390206=
201908051152 METAR KATL 051152Z 32004KT 10SM BKN120 BKN180 BKN250 23/21 A2999 RMK AO2 SLP145 T02330206 10250 20228 53007=
201908051052 METAR KATL 051052Z 32004KT 10SM BKN120 BKN180 BKN250 24/21 A2997 RMK AO2 SLP138 T02390206=
201908050952 METAR KATL 050952Z 33005KT 10SM SCT120 BKN180 BKN250 23/21 A2997 RMK AO2 SLP136 T02330206=
201908050852 METAR KATL 050852Z 36006KT 10SM FEW033 SCT120 BKN200 BKN250 24/21 A2997 RMK AO2 SLP136 T02440206 55001 $=
201908050752 METAR KATL 050752Z 00000KT 10SM FEW033 SCT150 BKN200 BKN250 24/21 A2996 RMK AO2 SLP135 CB DSNT NW-N T02390211 $=
201908050652 METAR KATL 050652Z 00000KT 10SM FEW033 SCT150 BKN200 BKN250 24/21 A2997 RMK AO2 SLP138 T02390211 $=
201908050552 METAR KATL 050552Z 18004KT 10SM SCT033 SCT150 BKN200 BKN250 24/21 A2997 RMK AO2 SLP139 T02390211 10294 20239 58008 $=
201908050452 METAR KATL 050452Z 21003KT 10SM FEW046 BKN150 BKN200 BKN250 25/21 A2999 RMK AO2 SLP143 T02500206 403110222 $=
201908050352 METAR KATL 050352Z 00000KT 10SM FEW044 FEW075 BKN180 BKN250 26/21 A2999 RMK AO2 SLP145 T02610206 $=
201908050252 METAR KATL 050252Z 30003KT 10SM FEW042TCU FEW070 BKN180 BKN250 27/21 A3000 RMK AO2 SLP146 TCU S T02670206 51015 $=
201908050152 METAR KATL 050152Z 30004KT 10SM FEW040TCU SCT140 BKN180 BKN250 28/20 A2999 RMK AO2 SLP144 TCU SW T02780200 $=
201908050052 METAR KATL 050052Z 31004KT 10SM FEW040 FEW140 BKN200 BKN250 28/20 A2996 RMK AO2 SLP136 CB DSNT NW T02780200 $=
201908042352 METAR KATL 042352Z 31006KT 10SM FEW040TCU SCT070 SCT150 BKN200 29/19 A2995 RMK AO2 SLP131 CB DSNT N E NW TCU S-SW T02940194 10311 20267 58001 $=
201908042252 METAR KATL 042252Z 00000KT 10SM SCT044TCU SCT070 SCT150 BKN200 29/19 A2996 RMK AO2 SLP132 CB DSNT E NW TCU OHD-SW NW T02940189 $=
201908042152 METAR KATL 042152Z VRB04KT 10SM FEW044 FEW150 SCT200 BKN250 30/19 A2996 RMK AO2 SLP134 CB DSNT N E SW NW T03000194 $=
201908042052 METAR KATL 042052Z 00000KT 10SM FEW037 FEW160 SCT250 31/19 A2996 RMK AO2 SLP132 CB DSNT N MDT CU S-W T03060194 56028 $=
201908041952 METAR KATL 041952Z VRB03KT 10SM FEW036 SCT160 SCT250 30/21 A2996 RMK AO2 SLP134 T03000206 $=
201908041852 METAR KATL 041852Z 18003KT 10SM FEW032 BKN160 BKN200 28/20 A3000 RMK AO2 SLP148 T02780200 $=
201908041752 METAR KATL 041752Z 03007KT 10SM SCT024 BKN030 BKN080 BKN130 27/20 A3004 RMK AO2 SLP162 60000 T02670200 10278 20222 58003 $=
201908041742 SPECI KATL 041742Z 03007KT 10SM BKN024 BKN130 27/21 A3005 RMK AO2 T02670206 $=
201908041652 METAR KATL 041652Z 07006KT 10SM FEW030 BKN130 BKN250 27/19 A3005 RMK AO2 SLP165 T02670194 $=
201908041552 METAR KATL 041552Z 01005KT 10SM FEW028 BKN130 BKN250 27/20 A3005 RMK AO2 SLP165 T02670200 $=
201908041452 METAR KATL 041452Z 30008KT 10SM FEW024 FEW050 BKN150 BKN250 26/19 A3005 RMK AO2 SLP165 60000 T02610194 53006 $=
201908041352 METAR KATL 041352Z 30006KT 10SM FEW010 FEW040 BKN140 BKN200 24/20 A3003 RMK AO2 RAE1254 SLP159 P0000 T02390200 $=
201908041252 METAR KATL 041252Z 30010KT 10SM -RA FEW005 SCT040 OVC110 22/21 A3003 RMK AO2 RAE09B43 SLP161 BINOVC PCPN VRY LGT P0000 T02220206 $=
201908041152 METAR KATL 041152Z 29008KT 8SM -RA FEW006 SCT060 OVC110 22/21 A3003 RMK AO2 SLP160 OCNL LTG DSNT W & NW CB DSNT W-NW P0000 60009 70009 T02220206 10250 20222 53010 $=
201908041052 METAR KATL 041052Z 24004KT 10SM -RA FEW008 SCT070 BKN100 BKN150 BKN200 23/21 A3002 RMK AO2 SLP154 TSE16 FRQ LTG DSNT W-N TS DSIPTD CB DSNT W-N P0004 T02280206 $=
201908041016 SPECI KATL 041016Z 00000KT 8SM -RA FEW008 FEW027CB BKN070 OVC150 23/21 A3001 RMK AO2 OCNL LTG DSNT SW-NW TS DSIPTD CB VC NW-NE & DSNT SW-NW P0002 T02280211 $=
201908040952 METAR KATL 040952Z 00000KT 10SM VCTS -RA FEW027CB SCT050 BKN070 BKN150 BKN200 23/21 A3001 RMK AO2 RAB0855 SLP149 VIS LWR N-NE OCNL LTGICCG NE & DSNT SW-NW TS VC NE MOV N CB NW-NE MOV STNRY P0005 T02280211 $=
201908040930 SPECI KATL 040930Z 17006KT 10SM VCTS -RA FEW027CB BKN050 BKN100 BKN150 BKN200 23/21 A3001 RMK AO2 RAB0855 OCNL LTGICCG NE NW & DSNT ALQDS TS VC NE NW MOV N P0005 T02280211 $=
201908040852 METAR KATL 040852Z 16008KT 10SM VCTS FEW012 BKN038CB BKN075 BKN150 BKN200 24/21 A3000 RMK AO2 SLP147 TSB19 OCNL LTGICCG E-SE TS VC E-SE MOV NW SHRA VC SE T02390206 53000=
201908040820 SPECI KATL 040820Z 18008KT 10SM TS FEW015 SCT040CB BKN060 BKN150 BKN200 24/21 A3000 RMK AO2 TSB19 TSB19 OCNL LTGICCG SE-S TS VC SE-S MOV NW T02390206=
201908040752 METAR KATL 040752Z 35005KT 10SM BKN049 BKN065 BKN100 BKN150 25/21 A2999 RMK AO2 LTG DSNT E AND S SLP143 T02500206=
201908040652 METAR KATL 040652Z 34005KT 10SM FEW055 BKN070 BKN100 BKN150 25/20 A3000 RMK AO2 LTG DSNT S SLP146 T02500200=
201908040552 METAR KATL 040552Z 33004KT 10SM FEW015 FEW095 SCT150 SCT200 25/20 A3000 RMK AO2 SLP147 T02500200 10267 20244 52001=
201908040452 METAR KATL 040452Z 34005KT 10SM SCT095 BKN180 BKN250 24/20 A3000 RMK AO2 SLP148 T02440200 403220217=
201908040352 METAR KATL 040352Z 33004KT 10SM FEW075 SCT140 BKN180 BKN250 25/20 A3000 RMK AO2 SLP146 T02500200=
201908040252 METAR KATL 040252Z 00000KT 10SM FEW110 BKN140 BKN180 BKN250 26/20 A3000 RMK AO2 SLP147 T02560200 50009=
201908040152 METAR KATL 040152Z VRB03KT 10SM FEW046 SCT130 BKN180 BKN250 26/20 A3000 RMK AO2 SLP150 TSB23E40 TS DSIPTD T02560200=
201908040141 SPECI KATL 040141Z 00000KT 10SM FEW028 SCT048 BKN130 BKN200 26/20 A3000 RMK AO2 LTG DSNT E TSB23E40 TS DSIPTD CB DSNT E SHRA E-SE T02610200=
201908040127 SPECI KATL 040127Z 00000KT 10SM VCTS FEW028CB SCT048 BKN120 BKN200 26/20 A3000 RMK AO2 TSB23 FRQ LTGICCGCA E-SE TS VC E-SE MOV W SHRA VC NE-SE T02610200=
201908040052 METAR KATL 040052Z 20007KT 10SM FEW036TCU SCT110 BKN200 BKN250 26/20 A2997 RMK AO2 SLP140 FRQ LTGICCGCA DSNT NE-SE CB DSNT NE-SE TCU NE-SE SHRA DSNT NE-SE T02560200=
201908032352 METAR KATL 032352Z 31009KT 10SM FEW040 SCT110 BKN200 BKN250 27/21 A2997 RMK AO2 LTG DSNT ALQDS SLP139 TSB10E28 TS DSIPTD CB DSNT ALQDS TCU DSNT E SW SHRA DSNT NE-SE-SW-NW T02670206 10322 20267 53003=
201908032330 SPECI KATL 032330Z 31006KT 10SM FEW042 SCT110 BKN200 BKN250 29/21 A2996 RMK AO2 LTG DSNT ALQDS TSB10E28 TS DSIPTD CB DSNT ALQDS TCU DSNT NE-E SHRA DSNT S SW-NW T02890206=
201908032314 SPECI KATL 032314Z 32006KT 10SM VCTS FEW042CB SCT100 BKN200 BKN250 29/19 A2997 RMK AO2 TSB10 OCNL LTGICCG SW TS VC SW MOV STNRY CB DSNT NE S SW-W TCU DSNT NE-SE-S SHRA VC SW T02940194=
201908032252 METAR KATL 032252Z 32005KT 10SM FEW044TCU SCT100 BKN200 BKN250 29/20 A2996 RMK AO2 LTG DSNT ALQDS SLP135 CB DSNT NE S SW-W TCU SW NW DSNT NE-SE S SHRA NW T02890200=
201908032239 SPECI KATL 032239Z 31006KT 10SM FEW044TCU SCT100 BKN200 BKN250 28/20 A2996 RMK AO2 LTG DSNT NE AND W CB DSNT NE SW W-NW TCU N SE SW DSNT NE-SE-S T02830200=
201908032152 METAR KATL 032152Z 03005KT 10SM SCT046TCU BKN100 BKN200 BKN250 31/19 A2996 RMK AO2 LTG DSNT W AND NW SLP133 CB DSNT SW W-NW TCU ALQDS SHRA NW T03060189=
201908032052 METAR KATL 032052Z 10006KT 10SM SCT046TCU BKN070 BKN150 31/20 A2996 RMK AO2 LTG DSNT NW SLP134 CB DSNT NW TCU ALQDS T03110200 56018=
201908031952 METAR KATL 031952Z 08006KT 10SM SCT044TCU SCT070 BKN150 30/19 A2997 RMK AO2 SLP137 TCU N & SW T03000194=
201908031852 METAR KATL 031852Z 09005KT 10SM SCT042TCU BKN150 BKN250 30/19 A2999 RMK AO2 SLP143 TCU NE-SE T03000194=
201908031752 METAR KATL 031752Z 00000KT 10SM SCT038 BKN120 BKN250 29/20 A3001 RMK AO2 SLP152 MDT CU ALQDS T02940200 10306 20222 58014=
201908031652 METAR KATL 031652Z 10004KT 10SM SCT032 BKN050 BKN150 BKN250 29/21 A3005 RMK AO2 SLP164 MDT CU ALQDS T02940206=
201908031552 METAR KATL 031552Z VRB05KT 10SM SCT023 BKN150 28/21 A3006 RMK AO2 SLP167 T02780206=
201908031452 METAR KATL 031452Z 11004KT 10SM SCT015 BKN200 27/22 A3006 RMK AO2 SLP167 T02720217 51004=
201908031422 SPECI KATL 031422Z 13004KT 10SM SCT013 BKN200 26/21 A3005 RMK AO2 T02560211=
201908031352 METAR KATL 031352Z 00000KT 10SM FEW009 BKN014 24/21 A3006 RMK AO2 SLP167 T02440206=
201908031301 SPECI KATL 031301Z 10007KT 9SM SCT007 OVC012 23/21 A3006 RMK AO2 T02280206=
201908031252 METAR KATL 031252Z 08008KT 9SM BKN007 OVC013 23/21 A3006 RMK AO2 SLP168 CIG 006V008 T02280206=
201908031206 SPECI KATL 031206Z 07007KT 8SM BKN006 BKN013 OVC120 22/20 A3004 RMK AO2 T02220200=
201908031152 METAR KATL 031152Z 06006KT 10SM SCT005 SCT013 SCT120 SCT180 22/20 A3004 RMK AO2 SLP163 60000 70006 T02220200 10228 20217 53012=
201908031052 METAR KATL 031052Z 07008KT 10SM FEW006 FEW120 FEW180 22/20 A3002 RMK AO2 SLP157 T02170200=
201908030952 METAR KATL 030952Z 08007KT 10SM FEW006 FEW180 22/20 A3001 RMK AO2 SLP154 T02170200=
201908030945 SPECI KATL 030945Z 08007KT 10SM FEW006 FEW180 22/20 A3001 RMK AO2 T02170200=
201908030852 METAR KATL 030852Z 09008KT 10SM FEW120 FEW180 SCT250 22/20 A3001 RMK AO2 SLP151 60000 T02220200 56015=
201908030752 METAR KATL 030752Z 09006KT 10SM FEW050 FEW120 BKN180 BKN250 23/20 A3001 RMK AO2 SLP153 T02280200=
201908030652 METAR KATL 030652Z 08007KT 10SM FEW050 SCT120 BKN180 BKN250 23/21 A3003 RMK AO2 RAE12 SLP159 P0000 T02280206=
201908030552 METAR KATL 030552Z 09008KT 10SM -RA FEW055TCU BKN070 BKN120 OVC150 23/21 A3005 RMK AO2 RAB03 SLP166 VIS LWR W-NW TCU W-NW P0006 60006 T02280206 10278 20228 50007=
201908030452 METAR KATL 030452Z 11006KT 10SM SCT055TCU BKN075 BKN150 BKN200 24/19 A3006 RMK AO2 SLP168 TCU NE-E W SHRA NE-E T02440194 403060211=
201908030352 METAR KATL 030352Z 08010KT 10SM FEW110 BKN160 BKN200 BKN250 24/21 A3005 RMK AO2 SLP165 ACC NE-SE T02440206=
201908030252 METAR KATL 030252Z 10006KT 10SM FEW110 BKN140 BKN200 BKN250 26/21 A3003 RMK AO2 SLP160 ACC NE-OHD-W T02560206 51013=
201908030152 METAR KATL 030152Z 07007KT 10SM FEW075 SCT120 BKN150 BKN200 27/19 A3002 RMK AO2 SLP156 ACC NE-OHD-SW T02720189=
201908030052 METAR KATL 030052Z 06008KT 10SM FEW034 SCT110 BKN150 BKN200 27/19 A3001 RMK AO2 SLP151 CB DSNT E S ACC ALQDS T02720189=
201908022352 METAR KATL 022352Z 06006KT 10SM FEW038 SCT110 BKN150 BKN200 28/19 A2999 RMK AO2 SLP146 CB DSNT NE-SE-S ACC NE-SE T02780189 10306 20261 58002=
201908022252 METAR KATL 022252Z 09004KT 10SM FEW040 SCT110 BKN150 BKN200 28/18 A3000 RMK AO2 LTG DSNT SW TSE08 SLP147 TS DSIPTD CB DSNT NE-SE SW NW ACC NE SE-SW T02830183=
201908022208 SPECI KATL 022208Z 14006KT 10SM FEW042 SCT110 BKN150 BKN200 26/19 A3001 RMK AO2 LTG DSNT SW TSE08 TS DSIPTD CB DSNT NE-SE SW NW SHRA DSNT SW NW T02610194=
201908022152 METAR KATL 022152Z 14010KT 10SM TS FEW042CB SCT050TCU BKN120 BKN200 27/19 A3001 RMK AO2 LTG DSNT SW AND NW SLP153 TSB00 OCNL LTGICCGCA SE-S TS SE-S MOV W CB DSNT E-SE SW NW TCU SW-W SHRA SE-S DSNT NW T02720194=
201908022142 SPECI KATL 022142Z 12009KT 10SM TS FEW044CB SCT100 BKN150 BKN200 28/19 A3001 RMK AO2 LTG DSNT N AND NW TSB00 OCNL LTGICCGCA SE-S TS SE-S MOV W CB DSNT NW-N SHRA SE-S DSNT NW-N T02780194=
201908022132 SPECI KATL 022132Z 07013G21KT 10SM VCTS FEW044CB SCT100 BKN150 BKN200 28/20 A3001 RMK AO2 LTG DSNT N AND NW TSB00 OCNL LTGICCA SE-S TS VC SE-S MOV W CB DSNT NW-N SHRA VC SE-S DSNT NW-N T02830200=
201908022102 SPECI KATL 022102Z 09007KT 10SM VCTS SCT042CB SCT100 BKN150 BKN250 31/19 A3000 RMK AO2 LTG DSNT N AND SE TSB00 OCNL LTGICCGCA NW-NE TS VC NW-NE MOV W CB E-SE MOV W CB DSNT N TCU DSNT W-NW VCSH NW-NE E-SE T03060194=
201908022052 METAR KATL 022052Z 08006KT 10SM FEW040CB SCT050TCU BKN150 BKN250 30/19 A3000 RMK AO2 LTG DSNT N SLP147 CB NW-NE DSNT N-E-S MOV W TCU SE S NW SHRA VC NW-NE T03000189 56025=
201908021952 METAR KATL 021952Z 12005KT 10SM FEW040TCU BKN140 BKN250 29/19 A3002 RMK AO2 LTG DSNT NE SLP156 CB DSNT NE TCU NE S W NW T02890194=
201908021852 METAR KATL 021852Z 10007KT 10SM BKN040TCU BKN120 BKN250 30/20 A3004 RMK AO2 SLP162 TCU OHD-E-S-W T03000200=
201908021752 METAR KATL 021752Z 04007KT 10SM SCT035TCU SCT250 29/21 A3008 RMK AO2 SLP174 TCU N-NE E-SE T02890206 10294 20217 58009=
201908021652 METAR KATL 021652Z 13004KT 10SM SCT025 SCT250 28/21 A3009 RMK AO2 SLP181 T02780206=
201908021600 SPECI KATL 021600Z 10006KT 10SM FEW012 SCT150 SCT250 26/21 A3010 RMK AO2 T02560206=
201908021552 METAR KATL 021552Z VRB04KT 10SM BKN012 BKN150 26/21 A3010 RMK AO2 SLP183 T02560211=
201908021518 SPECI KATL 021518Z 12007KT 8SM BKN010 25/21 A3010 RMK AO2 T02500206=
201908021452 METAR KATL 021452Z 09005KT 6SM HZ BKN008 OVC012 24/21 A3010 RMK AO2 SLP184 T02390206 51012=
201908021352 METAR KATL 021352Z 09003KT 3SM HZ OVC006 23/20 A3010 RMK AO2 SFC VIS 5 SLP183 T02280200=
201908021252 METAR KATL 021252Z 07007KT 7SM OVC006 22/20 A3009 RMK AO2 SLP178 CIG 005V007 T02220200=
201908021152 METAR KATL 021152Z 06009KT 7SM OVC007 22/19 A3007 RMK AO2 SLP172 CIG 005V009 BINOVC 70029 T02170194 10217 20211 53003=
201908021137 SPECI KATL 021137Z 09009KT 6SM BR BKN006 BKN140 BKN200 BKN250 21/19 A3006 RMK AO2 CIG 005V008 T02110194=
201908021104 SPECI KATL 021104Z 07007KT 8SM SCT006 BKN140 BKN200 BKN250 22/19 A3006 RMK AO2 T02170194=
201908021052 METAR KATL 021052Z 06007KT 8SM BKN006 BKN140 BKN200 BKN250 22/19 A3006 RMK AO2 SLP170 CIG 005V008 T02170194=
201908020952 METAR KATL 020952Z 07008KT 8SM BKN005 BKN150 BKN200 BKN250 22/19 A3005 RMK AO2 SLP165 CIG 004V007 T02170194=
201908020852 METAR KATL 020852Z 09008KT 6SM BR OVC004 22/20 A3006 RMK AO2 SLP168 CIG 003V006 BINOVC T02170200 56007 $=
201908020843 SPECI KATL 020843Z 08008KT 7SM OVC004 22/20 A3006 RMK AO2 CIG 003V006 BINOVC T02170200 $=
201908020810 SPECI KATL 020810Z 08006KT 8SM BKN006 BKN110 BKN150 BKN200 22/20 A3006 RMK AO2 T02170200=
201908020752 METAR KATL 020752Z 10004KT 10SM FEW006 SCT110 BKN150 BKN200 22/19 A3006 RMK AO2 SLP168 T02170194=
201908020652 METAR KATL 020652Z 09004KT 10SM FEW006 SCT100 BKN150 OVC200 22/19 A3006 RMK AO2 SLP166 T02170189=
201908020552 METAR KATL 020552Z 11005KT 10SM FEW006 FEW050 BKN095 OVC200 21/19 A3008 RMK AO2 RAE36 SLP175 TSE14 TS DSIPTD ACC E-OHD-W P0001 60029 T02110194 10278 20211 58008=
201908020515 SPECI KATL 020515Z 07005KT 10SM -RA FEW010 FEW055 BKN100 OVC200 21/18 A3009 RMK AO2 TSE14 TS DSIPTD P0001 T02110183=
201908020452 METAR KATL 020452Z 06011KT 8SM VCTS -RA FEW009 SCT020CB BKN060 OVC150 22/18 A3011 RMK AO2 SLP185 TSB04 OCNL LTGIC NE-E TS VC NE-E MOV STNRY P0005 T02170183 403440217=
201908020406 SPECI KATL 020406Z 03014KT 6SM VCTS -RA BR FEW009 SCT020CB BKN060 OVC150 23/21 A3013 RMK AO2 TSB04 OCNL LTGIC N-NE TS VC N-NE MOV STNRY P0002 T02280206=
201908020352 METAR KATL 020352Z 02011KT 5SM RA BR SCT009 BKN015 BKN060 OVC150 23/21 A3013 RMK AO2 SLP193 LTG DSNT N-NE P0004 T02280206=
201908020331 SPECI KATL 020331Z 04011KT 7SM -RA SCT012 BKN020 BKN060 OVC150 24/21 A3013 RMK AO2 LTG DSNT NW-NE-E P0002 T02390211=
201908020252 METAR KATL 020252Z 02005KT 8SM -RA FEW015 SCT060 BKN100 OVC200 24/21 A3011 RMK AO2 SLP185 TSE29 LTG DSNT SW-NW-NE P0015 60019 T02390211 53021=
201908020233 SPECI KATL 020233Z 00000KT 7SM -RA FEW035 SCT060 BKN100 OVC200 23/21 A3009 RMK AO2 TSE29 LTG DSNT SW-NW-NE TS DSIPTD P0015 T02280211=
201908020152 METAR KATL 020152Z 20011KT 7SM TSRA SCT035CB BKN060 BKN100 OVC200 23/21 A3007 RMK AO2 SLP172 RAB39 VIS LWR SW-NW OCNL LTGICCG SW-NW DSNT NW-NE TS SW-NW DSNT NW-NE MOV STNRY P0004 T02330211=
201908020124 SPECI KATL 020124Z 13008G19KT 10SM TS SCT035CB BKN080 BKN150 BKN250 25/18 A3005 RMK AO2 TSB24 OCNL LTGICCG NE-SE-SW W DSNT NW-N TS NE-SE-SW W DSNT NW-N MOV STNRY T02500183=
201908020052 METAR KATL 020052Z 09011KT 9SM VCTS SCT035CB BKN090 BKN150 BKN250 27/19 A3004 RMK AO2 WSHFT 0033 SLP162 TSB31 OCNL LTGICCG NE-SE-SW TS VC NE-SE-SW MOV STNRY T02720189=
201908020033 SPECI KATL 020033Z 06010KT 10SM VCTS FEW040CB SCT090 BKN150 BKN250 28/19 A3004 RMK AO2 TSB31 OCNL LTGICCG NE-SE DSNT NW-N TS VC NE-SE DSNT NW-N MOV STNRY T02780194=
201908012352 METAR KATL 012352Z 34008KT 10SM FEW040 SCT140 BKN200 BKN250 28/19 A3004 RMK AO2 LTG DSNT E SLP161 CB DSNT NE-SE T02780194 10344 20278 53002=
201908012252 METAR KATL 012252Z 00000KT 10SM FEW040 SCT120 BKN200 BKN250 29/19 A3002 RMK AO2 TSE24 SLP155 CB DSNT NE-SE T02890194=
201908012225 SPECI KATL 012225Z 17008KT 10SM FEW040CB SCT100 BKN150 BKN250 29/19 A3001 RMK AO2 TSE24 TS DSIPTD CB SE-S MOV STNRY T02890194=
201908012152 METAR KATL 012152Z 34007KT 10SM TS FEW040CB SCT100 BKN150 BKN250 30/19 A3003 RMK AO2 SLP156 OCNL LTGIC NW DSNT N-NE TS NW DSNT N-NE MOV NE CB SE-S NW DSNT N-NE MOV NE T03000189=
201908012052 METAR KATL 012052Z 36012KT 10SM TS BKN045CB BKN060 BKN100 OVC200 31/19 A3003 RMK AO2 LTG DSNT ALQDS TSB18 SLP159 VIS LWR NW-NE SHRA FRQ LTGICCG NW-NE TS NW-NE MOV NE CB DSNT SE SW-NW-N T03060189 56015=
201908012035 SPECI KATL 012035Z 24006KT 10SM TS BKN045CB BKN070 BKN100 31/20 A3004 RMK AO2 LTG DSNT N AND W TSB18 FRQ LTGICCG NW-N TS NW-N MOV NE SHRA NW-N CB DSNT SE SW-NW-N T03060200=
201908012022 SPECI KATL 012022Z 21010KT 10SM TS BKN060CB BKN090 BKN250 31/20 A3003 RMK AO2 LTG DSNT N AND SE AND W TSB18 OCNL LTGICCG NW-N TS NW-N MOV NE SHRA NW-N CB DSNT SE SW-NW-N T03110200=
201908011952 METAR KATL 011952Z 16004KT 10SM BKN060TCU BKN080 BKN250 32/17 A3004 RMK AO2 SLP159 CB DSNT SE-S SW-NW TCU E-SE OHD-SW-NW SHRA VC SW T03220172=
201908011852 METAR KATL 011852Z 00000KT 10SM SCT060TCU SCT250 34/19 A3005 RMK AO2 LTG DSNT S-NW SLP163 CB DSNT SE-S-SW-W-NW-N TCU OHD-NW-N MDT CU ALQDS T03390189=
201908011752 METAR KATL 011752Z 00000KT 10SM FEW050TCU FEW150 SCT250 33/19 A3008 RMK AO2 LTG DSNT W SLP173 CB DSNT NE SE-SW W TCU S-SW NW-N T03280194 10333 20244 58017=
201908011652 METAR KATL 011652Z 07004KT 10SM FEW050 FEW120 SCT250 31/19 A3011 RMK AO2 SLP186 CB DSNT S T03110189=
201908011552 METAR KATL 011552Z VRB03KT 10SM FEW040 FEW120 SCT150 29/21 A3013 RMK AO2 SLP191 T02940206=
201908011452 METAR KATL 011452Z 10004KT 10SM FEW120 BKN160 BKN250 27/20 A3013 RMK AO2 SLP192 T02670200 51012=
201908011352 METAR KATL 011352Z 10006KT 10SM BKN110 BKN150 BKN250 26/19 A3013 RMK AO2 SLP191 T02560194=
201908011252 METAR KATL 011252Z 00000KT 9SM SCT110 BKN150 BKN250 25/19 A3012 RMK AO2 SLP187 ACC ALQDS T02500194=
