##########################################################
# Query made at 04/20/2024 00:02:58 UTC
# Time interval: from 01/01/2019 12:00  to 01/31/2019 12:59  UTC
##########################################################

##########################################################
# KATL, Atlanta, Hartsfield - Jackson Atlanta International Airport (United States)
# WMO index: 72219. WIGOS ID: 0-20000-0-72219
# Latitude 33-38-59N. Longitude 084-25-00W. Altitude 312 m.
##########################################################

201901311252 METAR KATL 311252Z 32003KT 10SM BKN085 M01/M08 A3036 RMK AO2 SLP291 T10111078=
201901311152 METAR KATL 311152Z 33004KT 10SM SCT095 M02/M08 A3034 RMK AO2 SLP284 T10221083 11006 21028 53010=
201901311052 METAR KATL 311052Z 00000KT 10SM FEW100 M02/M08 A3032 RMK AO2 SLP275 T10221078=
201901310952 METAR KATL 310952Z 27003KT 10SM FEW100 M02/M08 A3031 RMK AO2 SLP272 T10221083=
201901310852 METAR KATL 310852Z 27003KT 10SM FEW100 M02/M08 A3031 RMK AO2 SLP271 T10171083 57002=
201901310752 METAR KATL 310752Z 29004KT 10SM FEW100 M02/M08 A3031 RMK AO2 SLP273 T10171078=
201901310652 METAR KATL 310652Z 30003KT 10SM CLR M02/M08 A3031 RMK AO2 SLP272 T10171078=
201901310552 METAR KATL 310552Z 31006KT 10SM CLR M01/M07 A3031 RMK AO2 SLP274 T10111072 10033 21011 53015=
201901310452 METAR KATL 310452Z 32008KT 10SM CLR M01/M07 A3030 RMK AO2 SLP271 T10061072 400671044=
201901310352 METAR KATL 310352Z 30006KT 10SM CLR 00/M07 A3028 RMK AO2 SLP263 T00001067=
201901310252 METAR KATL 310252Z 29007KT 10SM FEW250 01/M07 A3027 RMK AO2 SLP260 T00111067 51014=
201901310152 METAR KATL 310152Z 29005KT 10SM FEW250 01/M07 A3025 RMK AO2 SLP256 T00111067=
201901310052 METAR KATL 310052Z 31005KT 10SM SCT250 02/M07 A3025 RMK AO2 SLP253 T00221072=
201901302352 METAR KATL 302352Z 32008KT 10SM SCT250 03/M07 A3023 RMK AO2 SLP247 T00281072 10067 20028 51003=
201901302252 METAR KATL 302252Z 29006KT 9SM BKN250 04/M07 A3022 RMK AO2 SLP244 T00441067=
201901302152 METAR KATL 302152Z 31012G21KT 10SM FEW055 BKN250 06/M07 A3023 RMK AO2 SLP245 T00561072=
201901302052 METAR KATL 302052Z 32015KT 10SM FEW060 FEW200 BKN250 06/M08 A3022 RMK AO2 PK WND 30027/2022 SLP242 T00611078 55007=
201901301952 METAR KATL 301952Z 29018G26KT 10SM FEW060 SCT200 BKN250 06/M08 A3021 RMK AO2 PK WND 30026/1952 SLP238 T00611078=
201901301852 METAR KATL 301852Z 27012G18KT 10SM FEW065 SCT200 BKN250 05/M08 A3022 RMK AO2 SLP242 T00501083=
201901301752 METAR KATL 301752Z 28013G17KT 10SM BKN250 04/M09 A3024 RMK AO2 SLP249 T00391089 10039 21044 50002=
201901301652 METAR KATL 301652Z 31013KT 10SM FEW150 BKN200 BKN250 03/M09 A3025 RMK AO2 SLP252 T00281094=
201901301552 METAR KATL 301552Z 29015G22KT 10SM SCT150 SCT200 BKN250 01/M11 A3025 RMK AO2 SLP254 T00111106=
201901301452 METAR KATL 301452Z 27010KT 10SM FEW180 BKN200 BKN250 00/M12 A3023 RMK AO2 SLP249 T00001117 51021=
201901301352 METAR KATL 301352Z 27007KT 10SM BKN200 BKN250 M02/M11 A3022 RMK AO2 SLP246 T10221111=
201901301252 METAR KATL 301252Z 20005KT 10SM SCT200 BKN250 M04/M11 A3020 RMK AO2 SLP239 T10441111=
201901301152 METAR KATL 301152Z 28006KT 10SM FEW200 SCT250 M04/M12 A3017 RMK AO2 SLP228 70017 T10441117 11022 21044 53007=
201901301052 METAR KATL 301052Z 27003KT 10SM FEW250 M04/M12 A3016 RMK AO2 SLP225 T10441117=
201901300952 METAR KATL 300952Z 27003KT 10SM FEW250 M04/M12 A3016 RMK AO2 SLP222 T10441122=
201901300852 METAR KATL 300852Z 27004KT 10SM FEW250 M04/M13 A3015 RMK AO2 SLP220 T10441128 53009=
201901300752 METAR KATL 300752Z 28004KT 10SM SCT250 M03/M12 A3014 RMK AO2 SLP217 T10331122=
201901300652 METAR KATL 300652Z 33005KT 10SM FEW250 M03/M13 A3012 RMK AO2 SLP210 T10331128=
201901300552 METAR KATL 300552Z 34009KT 10SM FEW250 M02/M13 A3012 RMK AO2 SLP210 T10221133 10011 21022 57001=
201901300452 METAR KATL 300452Z 33009G17KT 10SM FEW250 M02/M12 A3013 RMK AO2 SLP212 T10221122 401061022=
201901300352 METAR KATL 300352Z 33010KT 10SM FEW250 M02/M12 A3012 RMK AO2 SLP207 T10171122=
201901300252 METAR KATL 300252Z 32010KT 10SM FEW250 M01/M12 A3013 RMK AO2 SLP209 T10111117 51018=
201901300152 METAR KATL 300152Z 32010KT 10SM SCT250 M01/M10 A3011 RMK AO2 SLP202 T10061100=
201901300052 METAR KATL 300052Z 32010KT 10SM BKN250 00/M08 A3010 RMK AO2 SLP198 T00001078=
201901292352 METAR KATL 292352Z 31015G19KT 10SM SCT250 01/M07 A3007 RMK AO2 SLP188 T00111072 10044 20011 53022=
201901292252 METAR KATL 292252Z 30012G19KT 10SM FEW250 02/M07 A3004 RMK AO2 SLP177 T00171067=
201901292152 METAR KATL 292152Z 32012G21KT 10SM CLR 03/M06 A3001 RMK AO2 SLP168 T00331056=
201901292052 METAR KATL 292052Z 30013G21KT 10SM CLR 04/M06 A3000 RMK AO2 SLP163 T00391056 53000=
201901291952 METAR KATL 291952Z 29015KT 10SM FEW030 04/M04 A3000 RMK AO2 SLP163 T00391039=
201901291925 SPECI KATL 291925Z 30018G21KT 10SM FEW024 SCT028 03/M03 A2999 RMK AO2 T00331033=
201901291852 METAR KATL 291852Z 32014KT 10SM BKN020 BKN040 02/M02 A3000 RMK AO2 SLP162 T00221022=
201901291752 METAR KATL 291752Z 32017G24KT 9SM SCT010 BKN015 OVC020 03/M01 A3000 RMK AO2 SLP163 60017 T00281006 10089 20028 51016=
201901291659 SPECI KATL 291659Z 31011G23KT 8SM BKN008 BKN010 OVC030 03/01 A3000 RMK AO2 T00330011=
201901291652 METAR KATL 291652Z 31017G23KT 8SM FEW008 BKN010 OVC030 03/01 A3000 RMK AO2 RAE26 SLP163 P0001 T00330011=
201901291642 SPECI KATL 291642Z 31020G24KT 10SM FEW007 BKN010 OVC030 03/01 A3000 RMK AO2 RAE26 P0001 T00330011=
201901291552 METAR KATL 291552Z 33018G24KT 6SM -RA BR BKN007 BKN013 OVC030 06/03 A2998 RMK AO2 SLP155 P0004 T00560033=
201901291459 SPECI KATL 291459Z 29010KT 8SM -RA SCT007 BKN030 OVC040 06/04 A2995 RMK AO2 P0001 T00610044=
201901291452 METAR KATL 291452Z 31008KT 6SM -RA BR FEW010 BKN030 OVC050 06/04 A2995 RMK AO2 RAB1353 SLP145 P0006 60012 T00610044 53023=
201901291415 SPECI KATL 291415Z 31010KT 4SM -RA BR FEW010 SCT020 OVC040 06/04 A2995 RMK AO2 RAB1353 P0003 T00610039=
201901291352 METAR KATL 291352Z 31012G23KT 5SM HZ FEW008 BKN017 OVC025 07/04 A2993 RMK AO2 RAE52 SLP138 CIG 013V017 P0006 T00720044 $=
201901291348 SPECI KATL 291348Z 30015G23KT 3SM -RA FEW008 BKN015 OVC025 07/04 A2993 RMK AO2 CIG 013V017 P0005 $=
201901291334 SPECI KATL 291334Z 27008KT 3SM -RA BR BKN015 BKN023 OVC035 08/06 A2992 RMK AO2 CIG 013V017 P0003 T00780056=
201901291258 SPECI KATL 291258Z 24006KT 7SM -RA BKN021 OVC048 08/05 A2990 RMK AO2 P0000 T00830050=
201901291252 METAR KATL 291252Z 23007KT 7SM -RA SCT021 BKN060 OVC085 08/05 A2990 RMK AO2 RAB26 SLP125 P0000 T00830050=
201901291152 METAR KATL 291152Z 21005KT 10SM FEW047 SCT060 OVC085 09/04 A2988 RMK AO2 SLP120 60000 T00890039 10106 20089 56005=
201901291052 METAR KATL 291052Z 23007KT 10SM FEW050 BKN075 OVC150 09/04 A2989 RMK AO2 SLP120 T00890039=
201901290952 METAR KATL 290952Z 23007KT 10SM BKN070 OVC150 09/03 A2989 RMK AO2 RAB34E45 SLP122 P0000 T00940033=
201901290852 METAR KATL 290852Z 22007KT 10SM FEW060 BKN085 OVC140 10/03 A2990 RMK AO2 SLP124 T01000033 58008=
201901290752 METAR KATL 290752Z 22009KT 10SM SCT055 OVC070 11/03 A2991 RMK AO2 SLP126 T01060028=
201901290652 METAR KATL 290652Z 23007KT 10SM BKN055 OVC070 10/02 A2992 RMK AO2 SLP129 T01000022=
201901290552 METAR KATL 290552Z 21012KT 10SM BKN055 OVC080 10/02 A2992 RMK AO2 SLP133 T01000017 10111 20100 58009=
201901290452 METAR KATL 290452Z 21009KT 10SM BKN075 OVC200 10/02 A2994 RMK AO2 SLP138 T01000017 401500011=
201901290352 METAR KATL 290352Z 20007KT 10SM BKN075 OVC200 10/02 A2994 RMK AO2 SLP140 T01000017=
201901290252 METAR KATL 290252Z 19006KT 10SM BKN075 BKN150 BKN250 10/02 A2995 RMK AO2 SLP143 T01000017 50006=
201901290152 METAR KATL 290152Z 20006KT 10SM SCT075 BKN150 BKN250 11/02 A2995 RMK AO2 SLP145 T01060017=
201901290052 METAR KATL 290052Z 21005KT 10SM BKN065 BKN250 11/02 A2995 RMK AO2 SLP146 T01060017=
201901282352 METAR KATL 282352Z 21007KT 10SM BKN065 BKN250 11/02 A2993 RMK AO2 SLP140 T01110017 10150 20111 53007=
201901282252 METAR KATL 282252Z 21007KT 10SM FEW065 FEW250 12/02 A2991 RMK AO2 SLP131 T01220017=
201901282152 METAR KATL 282152Z 21010KT 10SM SCT065 SCT250 13/01 A2991 RMK AO2 SLP130 T01330011=
201901282052 METAR KATL 282052Z 23009KT 10SM SCT060 SCT080 13/01 A2991 RMK AO2 SLP132 T01330011 56024=
201901281952 METAR KATL 281952Z 24011KT 10SM SCT060 14/01 A2993 RMK AO2 SLP136 T01390011=
201901281852 METAR KATL 281852Z 23009KT 10SM BKN055 14/01 A2994 RMK AO2 SLP142 T01390006=
201901281752 METAR KATL 281752Z 25009G19KT 10SM SCT050 13/01 A2998 RMK AO2 SLP156 T01330011 10133 20011 58019=
201901281652 METAR KATL 281652Z 22008KT 10SM FEW045 FEW060 SCT080 12/02 A3002 RMK AO2 SLP167 T01220017=
201901281552 METAR KATL 281552Z 21007KT 10SM FEW060 SCT080 11/03 A3005 RMK AO2 SLP177 T01060028=
201901281452 METAR KATL 281452Z 22005KT 10SM SCT060 SCT080 09/03 A3004 RMK AO2 SLP177 T00890028 51019=
201901281352 METAR KATL 281352Z 22003KT 10SM SCT085 05/01 A3003 RMK AO2 SLP172 T00500011=
201901281252 METAR KATL 281252Z 21003KT 10SM FEW070 02/M01 A3001 RMK AO2 SLP167 T00171011=
201901281152 METAR KATL 281152Z 00000KT 10SM CLR 02/M02 A2998 RMK AO2 SLP158 T00171017 10039 20011 53005=
201901281052 METAR KATL 281052Z 25003KT 10SM CLR 02/M01 A2997 RMK AO2 SLP154 T00171011=
201901280952 METAR KATL 280952Z 29003KT 10SM FEW250 02/M01 A2997 RMK AO2 SLP152 T00171011=
201901280852 METAR KATL 280852Z 00000KT 10SM FEW250 01/M01 A2997 RMK AO2 SLP153 T00111011 56008=
201901280752 METAR KATL 280752Z 00000KT 10SM FEW250 02/M01 A2997 RMK AO2 SLP153 T00221006=
201901280652 METAR KATL 280652Z 00000KT 10SM FEW250 03/M01 A2999 RMK AO2 SLP158 T00281006=
201901280552 METAR KATL 280552Z 29005KT 10SM FEW200 FEW250 03/M01 A2999 RMK AO2 SLP161 T00331006 10083 20033 56003=
201901280452 METAR KATL 280452Z 00000KT 10SM FEW200 SCT250 04/00 A2999 RMK AO2 SLP161 T00390000 401060006=
201901280352 METAR KATL 280352Z 00000KT 10SM SCT200 BKN250 06/00 A2999 RMK AO2 SLP160 T00610000=
201901280252 METAR KATL 280252Z 00000KT 10SM SCT200 BKN250 06/01 A3000 RMK AO2 SLP164 T00610006 58012=
201901280152 METAR KATL 280152Z 00000KT 10SM BKN200 BKN250 07/01 A3003 RMK AO2 SLP175 T00720011=
201901280052 METAR KATL 280052Z 00000KT 10SM BKN200 BKN250 08/01 A3003 RMK AO2 SLP175 T00780006=
201901272352 METAR KATL 272352Z 22003KT 10SM BKN200 BKN250 09/01 A3004 RMK AO2 SLP176 T00890006 10106 20083 53000=
201901272252 METAR KATL 272252Z 00000KT 10SM BKN200 09/01 A3004 RMK AO2 SLP176 T00940011=
201901272152 METAR KATL 272152Z 00000KT 10SM BKN200 OVC250 10/00 A3003 RMK AO2 SLP175 T01000000=
201901272052 METAR KATL 272052Z VRB03KT 10SM BKN200 OVC250 10/01 A3004 RMK AO2 SLP175 T01000011 56021=
201901271952 METAR KATL 271952Z 31005KT 10SM FEW035 BKN200 OVC230 10/01 A3005 RMK AO2 SLP181 T01000006=
201901271852 METAR KATL 271852Z 33006KT 10SM FEW035 SCT160 BKN210 OVC240 10/01 A3008 RMK AO2 SLP191 T01000011=
201901271752 METAR KATL 271752Z 30006KT 10SM SCT170 BKN210 OVC250 10/01 A3010 RMK AO2 SLP197 T01000006 10100 20011 58016=
201901271652 METAR KATL 271652Z 27005KT 10SM SCT180 BKN210 OVC250 09/00 A3012 RMK AO2 SLP205 T00940000=
201901271552 METAR KATL 271552Z 29005KT 10SM SCT180 BKN220 BKN250 07/01 A3014 RMK AO2 SLP210 VIRGA E-SW T00720006=
201901271452 METAR KATL 271452Z 00000KT 10SM SCT180 BKN220 BKN250 06/01 A3015 RMK AO2 SLP215 VIRGA N AND S-SW T00610006 55000=
201901271352 METAR KATL 271352Z 00000KT 10SM FEW050 SCT180 BKN220 BKN250 03/M02 A3014 RMK AO2 SLP214 VIRGA E-S T00281017=
201901271252 METAR KATL 271252Z 32003KT 10SM FEW050 SCT180 OVC220 02/M02 A3013 RMK AO2 SLP210 T00171022=
201901271152 METAR KATL 271152Z 00000KT 10SM BKN250 02/M02 A3015 RMK AO2 SLP215 T00171022 10033 20006 58004=
201901271052 METAR KATL 271052Z 25003KT 10SM FEW050 OVC250 01/M03 A3016 RMK AO2 SLP217 T00111028=
201901270952 METAR KATL 270952Z 00000KT 10SM FEW050 SCT250 01/M02 A3016 RMK AO2 SLP218 T00111022=
201901270852 METAR KATL 270852Z 00000KT 10SM FEW050 FEW250 02/M02 A3016 RMK AO2 SLP219 T00171022 58007=
201901270752 METAR KATL 270752Z 00000KT 10SM FEW200 FEW250 02/M02 A3017 RMK AO2 SLP220 T00221022=
201901270652 METAR KATL 270652Z 00000KT 10SM SCT200 BKN250 03/M02 A3018 RMK AO2 SLP225 T00281017=
201901270552 METAR KATL 270552Z 00000KT 10SM BKN200 BKN250 03/M02 A3018 RMK AO2 SLP226 T00281022 10078 20028 58002=
201901270452 METAR KATL 270452Z 00000KT 10SM SCT200 BKN250 03/M02 A3019 RMK AO2 SLP231 T00331017 401111022=
201901270352 METAR KATL 270352Z 00000KT 10SM FEW200 SCT250 03/M02 A3019 RMK AO2 SLP229 T00331017=
201901270252 METAR KATL 270252Z 00000KT 10SM FEW200 04/M02 A3019 RMK AO2 SLP230 T00391017 50005=
201901270152 METAR KATL 270152Z 00000KT 10SM FEW200 05/M01 A3020 RMK AO2 SLP234 T00501011=
201901270052 METAR KATL 270052Z 00000KT 10SM FEW250 07/M02 A3019 RMK AO2 SLP230 T00671017=
201901262352 METAR KATL 262352Z 34004KT 10SM FEW250 08/M02 A3018 RMK AO2 SLP225 T00781022 10111 20078 55001=
201901262252 METAR KATL 262252Z 32006KT 10SM FEW044 FEW250 09/M02 A3017 RMK AO2 SLP224 T00891017=
201901262152 METAR KATL 262152Z 33007KT 10SM FEW045 FEW250 11/M02 A3018 RMK AO2 SLP224 T01061017=
201901262052 METAR KATL 262052Z VRB06KT 10SM FEW048 FEW250 11/M02 A3018 RMK AO2 SLP225 T01061022 56023=
201901261952 METAR KATL 261952Z 28009KT 10SM FEW048 FEW250 11/M01 A3020 RMK AO2 SLP231 T01061011=
201901261852 METAR KATL 261852Z 27008KT 10SM FEW045 SCT250 09/M02 A3022 RMK AO2 SLP239 T00941017=
201901261752 METAR KATL 261752Z 28011G16KT 10SM FEW250 08/M02 A3025 RMK AO2 SLP251 T00781022 10083 21022 58020=
201901261652 METAR KATL 261652Z 34010G17KT 10SM FEW250 07/M03 A3028 RMK AO2 SLP262 T00671033=
201901261552 METAR KATL 261552Z 31013KT 10SM FEW250 04/M06 A3030 RMK AO2 SLP267 T00441061=
201901261452 METAR KATL 261452Z 30010KT 10SM FEW080 SCT300 02/M07 A3031 RMK AO2 SLP273 T00221072 53016=
201901261352 METAR KATL 261352Z 30007KT 10SM FEW070 01/M08 A3028 RMK AO2 SLP264 T00061078=
201901261252 METAR KATL 261252Z 32006KT 10SM FEW070 FEW110 M02/M07 A3027 RMK AO2 SLP261 T10221072=
201901261152 METAR KATL 261152Z 31008KT 10SM CLR M02/M07 A3026 RMK AO2 SLP257 T10171067 10000 21022 53005=
201901261052 METAR KATL 261052Z 00000KT 10SM CLR M02/M07 A3025 RMK AO2 SLP251 T10221067=
201901260952 METAR KATL 260952Z 31004KT 10SM CLR M01/M08 A3025 RMK AO2 SLP250 T10111078=
201901260852 METAR KATL 260852Z 00000KT 10SM CLR M01/M07 A3025 RMK AO2 SLP250 T10111072 58008=
201901260752 METAR KATL 260752Z 30003KT 10SM CLR M01/M07 A3027 RMK AO2 SLP259 T10061072=
201901260652 METAR KATL 260652Z 30004KT 10SM CLR 00/M07 A3027 RMK AO2 SLP257 T00001072=
201901260552 METAR KATL 260552Z 31006KT 10SM CLR M01/M07 A3027 RMK AO2 SLP258 T10061072 10044 21006 50001=
201901260452 METAR KATL 260452Z 30004KT 10SM FEW250 01/M07 A3028 RMK AO2 SLP260 T00061072 400890000=
201901260352 METAR KATL 260352Z 30007KT 10SM FEW250 02/M07 A3027 RMK AO2 SLP260 T00171072=
201901260252 METAR KATL 260252Z 27004KT 10SM FEW250 02/M08 A3027 RMK AO2 SLP258 T00221078 53013=
201901260152 METAR KATL 260152Z 29007KT 10SM FEW200 SCT250 03/M08 A3025 RMK AO2 SLP252 T00281078=
201901260052 METAR KATL 260052Z 30007KT 10SM SCT200 SCT250 04/M08 A3024 RMK AO2 SLP249 T00391083=
201901252352 METAR KATL 252352Z 29006KT 10SM FEW200 SCT250 04/M08 A3023 RMK AO2 SLP245 T00441078 10089 20044 53004=
201901252252 METAR KATL 252252Z 30009KT 10SM FEW200 SCT250 06/M08 A3021 RMK AO2 SLP237 T00611078=
201901252152 METAR KATL 252152Z 28010KT 10SM SCT250 SCT300 08/M07 A3021 RMK AO2 SLP237 T00781067=
201901252052 METAR KATL 252052Z 32014KT 10SM SCT250 BKN300 08/M07 A3022 RMK AO2 SLP238 T00831067 56011=
201901251952 METAR KATL 251952Z 31013KT 10SM SCT250 BKN300 08/M05 A3022 RMK AO2 SLP238 T00831050=
201901251852 METAR KATL 251852Z 29009KT 10SM SCT250 BKN300 08/M04 A3023 RMK AO2 SLP242 T00781039=
201901251752 METAR KATL 251752Z 29008KT 10SM BKN250 07/M05 A3025 RMK AO2 SLP251 T00671050 10067 20000 58001=
201901251652 METAR KATL 251652Z 33009KT 10SM BKN250 06/M04 A3027 RMK AO2 SLP256 T00561039=
201901251552 METAR KATL 251552Z 33011KT 10SM BKN250 04/M04 A3027 RMK AO2 SLP258 T00391039=
201901251452 METAR KATL 251452Z 32012G24KT 10SM FEW250 02/M04 A3026 RMK AO2 SLP254 T00221039 53015=
201901251352 METAR KATL 251352Z 33009KT 10SM CLR 01/M04 A3024 RMK AO2 SLP246 T00111044=
201901251252 METAR KATL 251252Z 31007KT 10SM CLR 00/M04 A3022 RMK AO2 SLP244 T00001044=
201901251152 METAR KATL 251152Z 31009KT 10SM FEW034 00/M04 A3021 RMK AO2 SLP240 T00001044 10011 20000 53018=
201901251052 METAR KATL 251052Z 31009KT 10SM CLR 00/M04 A3018 RMK AO2 SLP228 T00001044=
201901250952 METAR KATL 250952Z 32010KT 10SM FEW250 01/M04 A3017 RMK AO2 SLP223 T00061039=
201901250852 METAR KATL 250852Z 31011KT 10SM FEW250 01/M03 A3016 RMK AO2 SLP219 T00061033 53016=
201901250752 METAR KATL 250752Z 31008KT 10SM FEW150 SCT250 01/M03 A3014 RMK AO2 SLP213 T00111033=
201901250652 METAR KATL 250652Z 32007KT 10SM BKN150 BKN250 01/M03 A3012 RMK AO2 SLP208 T00111033=
201901250552 METAR KATL 250552Z 32008KT 10SM SCT150 SCT250 01/M03 A3011 RMK AO2 SLP203 T00111033 10033 20011 53014=
201901250452 METAR KATL 250452Z 31009KT 10SM FEW250 01/M03 A3010 RMK AO2 SLP201 T00111033 401220011=
201901250352 METAR KATL 250352Z 32009KT 10SM FEW250 02/M03 A3007 RMK AO2 SLP190 T00171033=
201901250252 METAR KATL 250252Z 31012KT 10SM CLR 02/M03 A3007 RMK AO2 SLP188 T00221033 51008=
201901250152 METAR KATL 250152Z 31010KT 10SM CLR 03/M03 A3006 RMK AO2 SLP187 T00281033=
201901250052 METAR KATL 250052Z 29012KT 10SM CLR 03/M03 A3006 RMK AO2 SLP184 T00331028=
201901242352 METAR KATL 242352Z 27006KT 10SM CLR 03/M02 A3004 RMK AO2 SLP179 T00331022 10061 20028 53025=
201901242252 METAR KATL 242252Z 29010KT 10SM CLR 05/M03 A3000 RMK AO2 SLP164 T00501028=
201901242152 METAR KATL 242152Z 32012G17KT 10SM CLR 06/M03 A2998 RMK AO2 SLP154 T00611028=
201901242052 METAR KATL 242052Z 31013KT 10SM FEW030 06/M03 A2997 RMK AO2 SLP150 T00561028 53008=
201901241952 METAR KATL 241952Z 31015KT 10SM FEW024 05/M02 A2995 RMK AO2 SLP144 T00501017=
201901241928 SPECI KATL 241928Z 30013KT 10SM SCT023 04/M01 A2994 RMK AO2 T00441011=
201901241852 METAR KATL 241852Z 29014G22KT 10SM BKN020 04/M01 A2995 RMK AO2 SLP144 T00391011=
201901241752 METAR KATL 241752Z 30013G22KT 10SM BKN016 OVC020 03/M01 A2994 RMK AO2 PK WND 30028/1700 DZE33 SLP143 P0000 60000 T00281011 10067 20028 51020=
201901241652 METAR KATL 241652Z 30015G25KT 10SM -DZ OVC020 03/M01 A2993 RMK AO2 PK WND 30027/1642 SLP138 P0000 T00331006=
201901241552 METAR KATL 241552Z 30013KT 10SM -DZ OVC020 04/00 A2991 RMK AO2 PK WND 28026/1507 SLP130 P0000 T00390000=
201901241452 METAR KATL 241452Z 29016G23KT 10SM -DZ BKN015 BKN023 OVC030 04/01 A2988 RMK AO2 DZE29B47 SLP121 P0000 60000 T00390006 53031=
201901241431 SPECI KATL 241431Z 30011G20KT 10SM SCT012 BKN020 BKN030 04/02 A2987 RMK AO2 DZE29 P0000 T00440017=
201901241352 METAR KATL 241352Z 31014G18KT 7SM -DZ OVC011 05/02 A2985 RMK AO2 PK WND 30027/1303 DZB42 SLP108 P0000 T00500022=
201901241252 METAR KATL 241252Z 29013KT 10SM OVC011 06/03 A2982 RMK AO2 SLP097 T00560033=
201901241152 METAR KATL 241152Z 28012G18KT 9SM SCT008 BKN014 OVC030 07/05 A2979 RMK AO2 PK WND 30026/1056 DZB36E51 PRESRR SLP086 P0000 60006 70182 T00670050 10122 20067 53029=
201901241136 SPECI KATL 241136Z 29013G21KT 8SM -DZ FEW008 BKN012 OVC026 07/05 A2977 RMK AO2 PK WND 30026/1056 DZB36 P0000 T00720050=
201901241113 SPECI KATL 241113Z 29015G22KT 10SM SCT012 BKN026 OVC050 07/05 A2975 RMK AO2 PK WND 30026/1056 BINOVC T00720050=
201901241052 METAR KATL 241052Z 29020G28KT 9SM BKN012 BKN024 OVC055 08/05 A2975 RMK AO2 PK WND 29034/1001 RAE05 SLP073 CIG 010V014 P0000 T00780050=
201901241011 SPECI KATL 241011Z 29017G27KT 9SM FEW009 SCT015 OVC028 08/06 A2973 RMK AO2 PK WND 29034/1001 RAE05 P0000 T00830061=
201901240952 METAR KATL 240952Z 30023G35KT 6SM -RA BR BKN008 OVC016 09/07 A2973 RMK AO2 PK WND 31035/0946 RAB46 PRESRR SLP065 FROPA P0000 T00940072=
201901240924 SPECI KATL 240924Z 27010KT 10SM SCT007 OVC016 12/11 A2969 RMK AO2 T01170106=
201901240852 METAR KATL 240852Z 26007KT 10SM BKN006 OVC012 12/11 A2970 RMK AO2 RAE39 SLP054 CIG 004V008 BINOVC P0000 60006 T01170106 58004=
201901240813 SPECI KATL 240813Z 27007KT 8SM -RA BKN006 BKN055 OVC080 12/11 A2971 RMK AO2 CIG 004V008 P0000 T01170106=
201901240752 METAR KATL 240752Z 26008KT 6SM -RA BR SCT003 BKN045 OVC070 12/11 A2972 RMK AO2 SLP061 P0004 T01220111=
201901240652 METAR KATL 240652Z 19004KT 7SM -RA FEW002 OVC070 12/11 A2971 RMK AO2 SLP055 P0002 T01220111=
201901240552 METAR KATL 240552Z 00000KT 8SM -RA FEW003 SCT075 OVC100 12/11 A2971 RMK AO2 SLP059 P0006 60174 T01220111 10172 20122 56015=
201901240546 SPECI KATL 240546Z 00000KT 7SM -RA FEW003 SCT065 OVC100 12/11 A2972 RMK AO2 P0006=
201901240452 METAR KATL 240452Z 31014G22KT 1SM R09R/P6000FT RA BR FEW003 BKN030 OVC080 12/11 A2974 RMK AO2 PK WND 28028/0435 WSHFT 0432 SFC VIS 3 SLP067 P0018 T01220111 401940056=
201901240405 SPECI KATL 240405Z 18003KT 1SM R09R/P6000FT RA BR BKN004 BKN035 OVC100 14/14 A2972 RMK AO2 SFC VIS 4 P0002 T01440139=
201901240352 METAR KATL 240352Z 15004KT 4SM -RA BR SCT004 BKN035 OVC100 14/14 A2971 RMK AO2 SLP060 SCT004 V BKN P0020 T01440139=
201901240323 SPECI KATL 240323Z 00000KT 3SM -RA BR FEW003 SCT025 OVC100 14/14 A2972 RMK AO2 PRESFR P0014 T01440139=
201901240252 METAR KATL 240252Z 00000KT 2SM RA BR SCT003 BKN020 OVC070 15/14 A2976 RMK AO2 SLP076 CB DSNT NE-SE P0065 60130 T01500139 56004=
201901240152 METAR KATL 240152Z 27006KT 1 1/2SM R09R/5000VP6000FT +RA BR FEW007 BKN020CB OVC040 15/14 A2977 RMK AO2 SLP081 CB NE-OHD-SW MOV NE P0055 T01500139=
201901240143 SPECI KATL 240143Z 28010KT 1 1/2SM R09R/5500VP6000FT +RA BR FEW007 BKN020CB OVC040 15/14 A2977 RMK AO2 CB NE-OHD-SW MOV NE P0025 T01500139=
201901240136 SPECI KATL 240136Z 28013G18KT 2SM +RA BR FEW007 BKN020CB OVC040 16/14 A2977 RMK AO2 PRESRR CB NE-OHD-SW MOV NE P0014 T01560139=
201901240052 METAR KATL 240052Z 16011KT 6SM -RA BR FEW012 BKN035 OVC070 16/13 A2975 RMK AO2 SLP073 P0010 T01560133=
201901232352 METAR KATL 232352Z 16012G22KT 6SM -RA BKN035 OVC050 17/13 A2977 RMK AO2 PK WND 16031/2306 SLP082 P0002 60002 T01720128 10194 20172 56032=
201901232252 METAR KATL 232252Z 16015G28KT 10SM -RA BKN040 OVC100 19/11 A2980 RMK AO2 PK WND 15028/2220 RAB25 SLP089 P0000 T01940111=
201901232152 METAR KATL 232152Z 17017G25KT 10SM BKN040 BKN070 OVC100 19/11 A2984 RMK AO2 PK WND 18028/2116 SLP104 T01940106=
201901232052 METAR KATL 232052Z 17012G20KT 10SM BKN050 BKN070 OVC100 19/11 A2987 RMK AO2 SLP114 T01940106 56051=
201901231952 METAR KATL 231952Z 16013G26KT 10SM SCT040 BKN080 OVC100 19/11 A2991 RMK AO2 PK WND 17029/1941 SLP129 T01940106=
201901231852 METAR KATL 231852Z 16013G20KT 10SM SCT040 BKN080 OVC250 19/10 A2995 RMK AO2 PK WND 20026/1819 PRESFR SLP142 BINOVC DSNT E-SE T01940100=
201901231752 METAR KATL 231752Z 17013G22KT 10SM SCT040 SCT090 BKN250 19/10 A3002 RMK AO2 SLP167 T01890100 10189 20061 58049=
201901231652 METAR KATL 231652Z 15013KT 10SM FEW012 SCT085 BKN250 15/09 A3008 RMK AO2 SLP186 T01500094=
201901231615 SPECI KATL 231615Z 14010KT 10SM FEW009 BKN012 BKN015 13/09 A3013 RMK AO2 T01280094=
201901231552 METAR KATL 231552Z 14009KT 9SM OVC006 11/09 A3014 RMK AO2 SLP208 T01110089=
201901231452 METAR KATL 231452Z 12008KT 8SM OVC008 09/06 A3018 RMK AO2 SLP222 T00890056 56013=
201901231352 METAR KATL 231352Z 13009G18KT 10SM OVC008 07/03 A3018 RMK AO2 SLP224 T00720033=
201901231327 SPECI KATL 231327Z 11012KT 10SM OVC009 07/03 A3017 RMK AO2 PRESFR T00670028=
201901231252 METAR KATL 231252Z 11010KT 10SM FEW008 OVC011 07/03 A3021 RMK AO2 SLP233 CIG 010V014 T00670028=
201901231212 SPECI KATL 231212Z 11011G15KT 10SM SCT008 OVC011 06/02 A3022 RMK AO2 CIG 010V014 T00610017=
201901231152 METAR KATL 231152Z 11010KT 10SM OVC011 06/01 A3021 RMK AO2 SLP236 T00610011 10061 20056 56028=
201901231052 METAR KATL 231052Z 11011G17KT 10SM OVC012 06/01 A3023 RMK AO2 SLP242 CIG 010V014 T00610006=
201901230952 METAR KATL 230952Z 11009KT 10SM OVC012 06/M01 A3025 RMK AO2 SLP250 CIG 011V015 T00611006=
201901230948 SPECI KATL 230948Z 10011KT 10SM OVC011 06/M01 A3025 RMK AO2=
201901230852 METAR KATL 230852Z 09010KT 10SM OVC015 06/M01 A3030 RMK AO2 SLP266 CIG 013V018 T00561011 56019=
201901230810 SPECI KATL 230810Z 09010G19KT 10SM OVC015 06/M02 A3031 RMK AO2 CIG 013V018 T00561017=
201901230752 METAR KATL 230752Z 09011KT 10SM OVC014 06/M02 A3031 RMK AO2 SLP269 CIG 013V018 T00561017=
201901230741 SPECI KATL 230741Z 09014G19KT 10SM OVC014 06/M02 A3030 RMK AO2 CIG 013V018 T00561022=
201901230652 METAR KATL 230652Z 10011KT 10SM OVC017 06/M03 A3034 RMK AO2 SLP280 CIG 015V020 T00561028=
201901230552 METAR KATL 230552Z 10010KT 10SM OVC018 06/M03 A3036 RMK AO2 SLP285 T00611028 10061 20056 58014=
201901230452 METAR KATL 230452Z 10011G19KT 10SM BKN018 OVC060 06/M04 A3038 RMK AO2 SLP295 T00611039 400721011=
201901230352 METAR KATL 230352Z 10012KT 10SM BKN022 OVC060 06/M04 A3039 RMK AO2 SLP298 T00611044=
201901230335 SPECI KATL 230335Z 09012KT 10SM BKN023 OVC060 06/M05 A3039 RMK AO2 T00611050=
201901230252 METAR KATL 230252Z 09010KT 10SM FEW030 OVC060 06/M06 A3040 RMK AO2 SLP302 T00611056 58002=
201901230152 METAR KATL 230152Z 10010KT 10SM FEW030 OVC060 06/M06 A3041 RMK AO2 SLP307 T00611061=
201901230052 METAR KATL 230052Z 10013KT 10SM BKN065 06/M06 A3040 RMK AO2 SLP303 T00611056=
201901222352 METAR KATL 222352Z 10012KT 10SM FEW035 BKN065 06/M06 A3041 RMK AO2 SLP305 T00611056 10072 20050 55005=
201901222252 METAR KATL 222252Z 11010KT 10SM FEW035 OVC065 07/M06 A3040 RMK AO2 SLP301 T00671061=
201901222152 METAR KATL 222152Z 12010KT 10SM BKN040 BKN070 07/M06 A3040 RMK AO2 SLP302 T00721061=
201901222052 METAR KATL 222052Z 09012G17KT 10SM BKN040 BKN060 BKN070 07/M06 A3042 RMK AO2 SLP309 T00721061 56024=
201901221952 METAR KATL 221952Z 12009KT 10SM FEW040 FEW050 BKN060 07/M07 A3044 RMK AO2 SLP315 T00721067=
201901221852 METAR KATL 221852Z 10011KT 10SM FEW025 FEW040 SCT060 07/M09 A3046 RMK AO2 SLP321 T00671089=
201901221752 METAR KATL 221752Z 12010KT 10SM FEW025 BKN035 BKN060 05/M12 A3049 RMK AO2 SLP334 T00501122 10050 21011 58016=
201901221713 SPECI KATL 221713Z 11011KT 10SM FEW024 SCT030 OVC040 04/M13 A3051 RMK AO2 T00391133=
201901221652 METAR KATL 221652Z 09012KT 10SM BKN024 BKN030 OVC040 03/M12 A3052 RMK AO2 SLP345 T00331117=
201901221605 SPECI KATL 221605Z 09010KT 10SM BKN026 BKN037 BKN060 02/M11 A3054 RMK AO2 T00221111=
201901221552 METAR KATL 221552Z 08014KT 10SM FEW025 BKN035 BKN060 02/M12 A3054 RMK AO2 SLP352 T00221122=
201901221507 SPECI KATL 221507Z 11012KT 10SM BKN030 BKN060 01/M14 A3055 RMK AO2 T00111139=
201901221452 METAR KATL 221452Z 09014KT 10SM BKN026 BKN060 01/M13 A3054 RMK AO2 SLP352 T00111133 51012=
201901221418 SPECI KATL 221418Z 09011KT 10SM BKN026 01/M13 A3055 RMK AO2 T00061128=
201901221352 METAR KATL 221352Z 10011KT 10SM FEW025 FEW250 00/M13 A3054 RMK AO2 SLP353 T00001128=
201901221252 METAR KATL 221252Z 09013KT 10SM FEW250 M01/M11 A3052 RMK AO2 SLP346 T10111111=
201901221152 METAR KATL 221152Z 11011KT 10SM SCT250 M01/M12 A3051 RMK AO2 SLP341 T10111117 10011 21011 53014=
201901221052 METAR KATL 221052Z 10009KT 10SM SCT250 M01/M11 A3049 RMK AO2 SLP333 T10061111=
201901220952 METAR KATL 220952Z 11010KT 10SM BKN250 M01/M12 A3047 RMK AO2 SLP328 T10061117 $=
201901220852 METAR KATL 220852Z 12009KT 10SM SCT250 00/M12 A3047 RMK AO2 SLP325 T00001117 51014 $=
201901220752 METAR KATL 220752Z 13007KT 10SM SCT250 00/M11 A3046 RMK AO2 SLP322 T00001111 $=
201901220652 METAR KATL 220652Z 12008KT 10SM BKN250 01/M12 A3044 RMK AO2 SLP316 T00061117 $=
201901220552 METAR KATL 220552Z 11009KT 10SM BKN250 01/M11 A3043 RMK AO2 SLP312 T00111111 10044 20011 51007 $=
201901220452 METAR KATL 220452Z 12006KT 10SM BKN250 02/M11 A3042 RMK AO2 SLP312 T00171106 400671056 $=
201901220352 METAR KATL 220352Z 11007KT 10SM BKN250 02/M10 A3041 RMK AO2 SLP309 T00221100 $=
201901220252 METAR KATL 220252Z 12005KT 10SM BKN250 03/M08 A3040 RMK AO2 SLP306 T00281083 53003 $=
201901220152 METAR KATL 220152Z 11006KT 10SM BKN250 03/M09 A3040 RMK AO2 SLP307 T00331094 $=
201901220052 METAR KATL 220052Z 11005KT 10SM BKN250 04/M10 A3039 RMK AO2 SLP304 T00391100 $=
201901212352 METAR KATL 212352Z 00000KT 10SM SCT250 04/M09 A3040 RMK AO2 SLP304 T00441089 10067 20017 53007 $=
201901212252 METAR KATL 212252Z 00000KT 10SM FEW250 06/M12 A3039 RMK AO2 SLP300 T00561117 $=
201901212152 METAR KATL 212152Z 00000KT 10SM FEW250 06/M12 A3038 RMK AO2 SLP296 T00611122 $=
201901212052 METAR KATL 212052Z 00000KT 10SM FEW250 06/M13 A3038 RMK AO2 SLP295 T00611128 56006 $=
201901211952 METAR KATL 211952Z 07005KT 10SM FEW250 05/M11 A3038 RMK AO2 SLP296 T00501111 $=
201901211852 METAR KATL 211852Z 03007KT 10SM BKN250 04/M12 A3038 RMK AO2 SLP298 T00391117 $=
201901211752 METAR KATL 211752Z 01008KT 10SM SCT250 02/M13 A3039 RMK AO2 SLP302 T00171128 10022 21056 50002 $=
201901211652 METAR KATL 211652Z 33007KT 10SM BKN250 01/M13 A3042 RMK AO2 SLP311 T00061128 $=
201901211552 METAR KATL 211552Z 34007KT 310V010 10SM FEW250 M01/M13 A3041 RMK AO2 SLP309 T10111133 $=
201901211452 METAR KATL 211452Z 34010KT 10SM FEW250 M03/M13 A3039 RMK AO2 SLP303 T10331133 53029 $=
201901211352 METAR KATL 211352Z 32011KT 10SM CLR M04/M13 A3035 RMK AO2 SLP290 T10441128 $=
201901211252 METAR KATL 211252Z 31009KT 10SM CLR M06/M12 A3032 RMK AO2 SLP280 T10561122 $=
201901211152 METAR KATL 211152Z 31009KT 10SM CLR M05/M12 A3030 RMK AO2 SLP272 T10501122 11022 21050 53023 $=
201901211052 METAR KATL 211052Z 33010KT 10SM CLR M04/M13 A3026 RMK AO2 SLP257 T10441128 $=
201901210952 METAR KATL 210952Z 34011KT 10SM CLR M04/M12 A3024 RMK AO2 SLP253 T10441122 $=
201901210852 METAR KATL 210852Z 33011G21KT 10SM CLR M04/M12 A3023 RMK AO2 SLP246 T10391122 53010 $=
201901210752 METAR KATL 210752Z 32013KT 10SM CLR M03/M12 A3021 RMK AO2 SLP241 T10331117 $=
201901210652 METAR KATL 210652Z 33014KT 10SM CLR M03/M11 A3021 RMK AO2 SLP240 T10281111 $=
201901210552 METAR KATL 210552Z 33015KT 10SM CLR M02/M10 A3020 RMK AO2 SLP236 T10221100 10011 21022 51011 $=
201901210452 METAR KATL 210452Z 32012KT 10SM CLR M02/M08 A3019 RMK AO2 SLP232 T10171083 401171017 $=
201901210352 METAR KATL 210352Z 32016G21KT 10SM CLR M01/M08 A3018 RMK AO2 SLP231 T10111083 $=
201901210252 METAR KATL 210252Z 32015KT 10SM CLR M01/M08 A3017 RMK AO2 SLP225 T10111078 51017 $=
201901210152 METAR KATL 210152Z 31015G22KT 10SM CLR 00/M07 A3016 RMK AO2 PK WND 30026/0124 SLP223 T00001072 $=
201901210052 METAR KATL 210052Z 30011KT 10SM CLR 01/M07 A3014 RMK AO2 SLP215 T00061072 $=
201901202352 METAR KATL 202352Z 31015G22KT 10SM CLR 01/M08 A3011 RMK AO2 SLP206 T00111078 10039 20011 53025 $=
201901202252 METAR KATL 202252Z 31013KT 10SM CLR 02/M08 A3007 RMK AO2 SLP191 T00221078 $=
201901202152 METAR KATL 202152Z 30018KT 10SM FEW045 03/M07 A3005 RMK AO2 PK WND 31026/2114 SLP182 T00331072 $=
201901202052 METAR KATL 202052Z 32016G24KT 10SM FEW033 04/M05 A3004 RMK AO2 PK WND 32029/2011 SLP178 T00391050 53010 $=
201901201952 METAR KATL 201952Z 32017G24KT 10SM FEW030 03/M06 A3001 RMK AO2 PK WND 31026/1910 SLP169 T00331056 $=
201901201925 SPECI KATL 201925Z 33020G25KT 10SM SCT028 02/M05 A3000 RMK AO2 PK WND 31026/1910 T00221050 $=
201901201852 METAR KATL 201852Z 31020G26KT 10SM BKN028 02/M05 A3000 RMK AO2 PK WND 34027/1754 SLP166 T00171050 $=
201901201752 METAR KATL 201752Z 33022G31KT 10SM BKN024 02/M04 A3000 RMK AO2 PK WND 32033/1719 SLP165 T00171044 10017 20006 51026 $=
201901201652 METAR KATL 201652Z 32017G27KT 10SM OVC023 01/M04 A3000 RMK AO2 PK WND 31034/1642 SLP162 T00111044 $=
201901201552 METAR KATL 201552Z 31021G29KT 10SM OVC022 01/M04 A2998 RMK AO2 PK WND 32029/1549 SLP155 T00061044 $=
201901201452 METAR KATL 201452Z 32021G30KT 10SM OVC021 01/M05 A2993 RMK AO2 PK WND 32033/1427 SLP137 T00061050 51037 $=
201901201352 METAR KATL 201352Z 31016G29KT 10SM OVC019 01/M04 A2989 RMK AO2 PK WND 32032/1312 SLP124 T00061044 $=
201901201252 METAR KATL 201252Z 31025G37KT 10SM OVC018 01/M04 A2986 RMK AO2 PK WND 31037/1251 SLP115 T00061039 $=
201901201152 METAR KATL 201152Z 31021G31KT 10SM OVC017 01/M03 A2981 RMK AO2 PK WND 30031/1143 SLP098 60000 70122 T00061033 10094 20006 53024 $=
201901201052 METAR KATL 201052Z 31020G31KT 10SM OVC019 02/M03 A2977 RMK AO2 PK WND 31031/1043 SLP084 T00171033 $=
201901200952 METAR KATL 200952Z 30020G29KT 10SM BKN019 OVC027 02/M02 A2976 RMK AO2 PK WND 29030/0928 SLP079 T00221022 $=
201901200916 SPECI KATL 200916Z 29017G23KT 10SM SCT022 BKN027 OVC034 03/M01 A2975 RMK AO2 PK WND 28029/0905 T00281011 $=
201901200852 METAR KATL 200852Z 29017G24KT 10SM FEW022 FEW027 OVC034 03/M01 A2974 RMK AO2 PK WND 30028/0755 SLP071 RAE0756B16E31 P0000 60000 T00281011 51036 $=
201901200752 METAR KATL 200752Z 30018G29KT 10SM -RA FEW010 BKN022 OVC037 04/01 A2971 RMK AO2 PK WND 31029/0744 DZE20RAB34 SLP062 P0000 T00390011 $=
201901200727 SPECI KATL 200727Z 29015KT 10SM FEW010 BKN016 OVC026 06/02 A2969 RMK AO2 PK WND 30026/0653 DZE20 P0000 T00560022 $=
201901200652 METAR KATL 200652Z 29021G28KT 6SM -DZ FEW008 BKN012 OVC017 06/03 A2967 RMK AO2 PK WND 31029/0642 RAE19DZB19 SLP046 CIG 010V015 P0000 T00610033 $=
201901200650 SPECI KATL 200650Z 30022G29KT 6SM -DZ FEW008 BKN012 OVC017 06/03 A2967 RMK AO2 PK WND 31029/0642 RAE19DZB19 CIG 012V016 P0000 $=
201901200552 METAR KATL 200552Z 29017G27KT 10SM -RA BKN013 BKN026 OVC035 09/07 A2963 RMK AO2 PK WND 31027/0544 RAB52 SLP032 P0000 60007 T00940067 10156 20094 53016 $=
201901200542 SPECI KATL 200542Z 30018G26KT 10SM SCT015 BKN026 OVC040 10/07 A2963 RMK AO2 PK WND 29026/0539 BINOVC T01000072 $=
201901200452 METAR KATL 200452Z 27012KT 10SM SCT018 SCT030 OVC065 12/09 A2960 RMK AO2 SLP022 T01170094 401720106 $=
201901200352 METAR KATL 200352Z 27011KT 10SM FEW010 BKN060 BKN140 BKN200 12/10 A2960 RMK AO2 RAB0258E15 SLP021 P0000 T01220100 $=
201901200325 SPECI KATL 200325Z 26011KT 10SM FEW010 SCT026 OVC038 13/11 A2959 RMK AO2 RAB0258E15 P0000 T01280106 $=
201901200252 METAR KATL 200252Z 24008KT 10SM FEW014 BKN026 OVC038 13/11 A2958 RMK AO2 SLP015 BINOVC 60007 T01330111 53004 $=
201901200205 SPECI KATL 200205Z 26009KT 10SM SCT014 BKN027 BKN140 BKN200 14/12 A2958 RMK AO2 T01390117 $=
201901200152 METAR KATL 200152Z 25009KT 10SM SCT012 BKN095 BKN140 BKN200 14/12 A2957 RMK AO2 SLP011 T01390117 $=
201901200052 METAR KATL 200052Z 24009G20KT 10SM FEW010 SCT024 OVC090 15/13 A2957 RMK AO2 RAE48 SLP011 P0007 T01500128 $=
201901200002 SPECI KATL 200002Z 18006KT 6SM RA BR FEW008 SCT024 OVC050 15/13 A2955 RMK AO2 LTG DSNT SE PRESFR CB DSNT SE P0005 T01500133 $=
201901192352 METAR KATL 192352Z 20005KT 1 1/2SM +RA BR FEW006 SCT016 OVC024CB 14/13 A2957 RMK AO2 SFC VIS 2 1/2 SLP011 CB NE-SE MOV NE P0043 60108 T01440133 10172 20144 55010 $=
201901192332 SPECI KATL 192332Z 20007KT 1SM R09R/4000VP6000FT +RA BR FEW006 SCT011 OVC028CB 14/13 A2958 RMK AO2 TWR VIS 1 1/2 PRESRR CB NE-OHD-SW MOV NE P0014 T01440128 $=
201901192252 METAR KATL 192252Z 15007G15KT 2SM RA BR SCT009 BKN028 OVC060 14/13 A2956 RMK AO2 SFC VIS 5 LTG DSNT SE SLP010 CB DSNT SE P0037 T01440128 $=
201901192220 SPECI KATL 192220Z 16012G16KT 2SM RA BR SCT009 BKN018 OVC033 15/13 A2959 RMK AO2 SFC VIS 3 P0018 T01500133 $=
201901192152 METAR KATL 192152Z 17010KT 2SM +RA BR FEW009 BKN034 OVC050 16/14 A2961 RMK AO2 SLP023 P0023 T01560139 $=
201901192146 SPECI KATL 192146Z 16009G18KT 2SM +RA BR FEW036 OVC046 16/14 A2960 RMK AO2 P0020 $=
201901192052 METAR KATL 192052Z 16009KT 4SM RA BR FEW055 BKN070 OVC090 16/14 A2963 RMK AO2 SLP032 P0005 60005 T01610139 56027 $=
201901192034 SPECI KATL 192034Z 16010KT 6SM -RA FEW025 BKN075 OVC090 17/14 A2965 RMK AO2 P0002 T01670139 $=
201901192017 SPECI KATL 192017Z 17012G21KT 6SM -RA BKN025 BKN038 OVC080 17/14 A2966 RMK AO2 P0001 T01720139 $=
201901191952 METAR KATL 191952Z 17014G21KT 10SM -RA SCT023 SCT041 BKN075 17/14 A2967 RMK AO2 RAB52 SLP045 P0000 T01720139 $=
201901191950 SPECI KATL 191950Z 18011G22KT 10SM SCT023 SCT041 BKN075 17/14 A2967 RMK AO2 $=
201901191852 METAR KATL 191852Z 17015G24KT 10SM SCT012 BKN017 OVC030 17/14 A2972 RMK AO2 RAE1754 PRESFR SLP060 P0000 T01670144 $=
201901191812 SPECI KATL 191812Z 17013G19KT 10SM SCT008 BKN015 OVC023 16/14 A2976 RMK AO2 RAE1754 PRESFR P0000 T01610144 $=
201901191752 METAR KATL 191752Z 17010G16KT 6SM -RA BR BKN010 OVC013 16/14 A2979 RMK AO2 RAB15 PRESFR SLP086 P0004 60007 T01610144 10161 20117 58033 $=
201901191652 METAR KATL 191652Z 18009KT 2SM BR OVC006 16/14 A2984 RMK AO2 SFC VIS 4 RAE1554 SLP104 P0000 T01560144 $=
201901191643 SPECI KATL 191643Z 18010KT 1/2SM R09R/P6000FT BR OVC005 16/14 A2985 RMK AO2 SFC VIS 3 RAE1554 P0000 T01560139 $=
201901191552 METAR KATL 191552Z 18010KT 1/2SM R09R/P6000FT -RA BR OVC003 14/13 A2989 RMK AO2 SFC VIS 2 RAB44 SLP120 TWRINC P0000 T01440133 $=
201901191452 METAR KATL 191452Z 16009KT 1SM R09R/4000V4500FT BR OVC002 13/12 A2989 RMK AO2 RAB1356E21 SLP121 P0003 60003 T01280122 58009 $=
201901191352 METAR KATL 191352Z 13010KT 1SM R09R/P6000FT BR OVC002 12/12 A2989 RMK AO2 SLP123 T01220117 $=
201901191350 SPECI KATL 191350Z 14008KT 1SM R09R/6000VP6000FT BR OVC002 12/12 A2989 RMK AO2 $=
201901191259 SPECI KATL 191259Z 13005KT 1/2SM R09R/2400V4000FT FG VV002 12/11 A2992 RMK AO2 T01170111 $=
201901191252 METAR KATL 191252Z 12008KT 1/4SM R09R/2200V3000FT FG VV002 12/11 A2992 RMK AO2 SLP131 T01170111 $=
201901191241 SPECI KATL 191241Z 11006KT 1/4SM R09R/2000V2600FT FG VV002 12/11 A2991 RMK AO2 T01170111 $=
201901191232 SPECI KATL 191232Z 11006KT 1/4SM R09R/2000V2200FT FG VV002 12/11 A2991 RMK AO2 T01170111 $=
201901191152 METAR KATL 191152Z 14005KT 1/4SM R09R/2200V2400FT FG VV002 12/11 A2992 RMK AO2 SLP130 T01170106 10117 20106 55029 $=
201901191138 SPECI KATL 191138Z 14006KT 1/4SM R09R/2000V2400FT FG VV002 12/11 A2992 RMK AO2 T01170106 $=
201901191130 SPECI KATL 191130Z 13008KT 1/4SM R09R/2000V2200FT FG VV002 12/11 A2991 RMK AO2 T01170106 $=
201901191111 SPECI KATL 191111Z 13007KT 1/4SM R09R/2200V2600FT FG VV002 12/11 A2992 RMK AO2 T01170106 $=
201901191104 SPECI KATL 191104Z 13007KT 1/4SM R09R/2000V2200FT FG VV002 11/11 A2992 RMK AO2 T01110106 $=
201901191052 METAR KATL 191052Z 13009KT 1/4SM R09R/2200V2600FT FG VV002 11/11 A2992 RMK AO2 SLP130 T01110106 $=
201901191049 SPECI KATL 191049Z 14008KT 1/4SM R09R/2200V2400FT FG VV002 11/11 A2992 RMK AO2 $=
201901191034 SPECI KATL 191034Z 12006KT 1/2SM R09R/2400V3000FT FG VV002 11/11 A2993 RMK AO2 T01110106 $=
201901191011 SPECI KATL 191011Z 10006KT 1/4SM R09R/2000V2400FT FG VV002 11/11 A2994 RMK AO2 T01110106 $=
201901190952 METAR KATL 190952Z 11005KT 1/4SM R09R/1600V1800FT FG VV002 11/10 A2997 RMK AO2 TWR VIS 1/4 SLP146 T01110100 $=
201901190852 METAR KATL 190852Z 15005KT 1/4SM R09R/2000V2200FT FG VV002 11/10 A3001 RMK AO2 SLP161 T01110100 55005 $=
201901190847 SPECI KATL 190847Z 16005KT 1/4SM R09R/2000V2200FT FG VV002 11/10 A3001 RMK AO2 $=
201901190839 SPECI KATL 190839Z 13004KT 1/4SM R09R/2000V2400FT FG VV002 11/10 A3001 RMK AO2 TWR VIS 3/4 T01110100 $=
201901190802 SPECI KATL 190802Z 13006KT 1/2SM R09R/1800V2200FT FG VV002 11/10 A3000 RMK AO2 TWR VIS 3/4 VIS 1/4V3/4 T01110100 $=
201901190752 METAR KATL 190752Z 12005KT 1/2SM R09R/1800V3000FT FG VV002 11/10 A3001 RMK AO2 TWR VIS 3/4 SLP161 VIS 1/4V3/4 T01110100 $=
201901190730 SPECI KATL 190730Z 11007KT 3/4SM R09R/4000V5000FT BR OVC002 11/10 A3000 RMK AO2 T01110100 $=
201901190654 SPECI KATL 190654Z 15003KT 1SM R09R/P6000FT BR OVC004 11/09 A3002 RMK AO2 SFC VIS 4 CIG 003V005 TWRINC T01060094 $=
201901190652 METAR KATL 190652Z 14003KT 4SM BR BKN004 OVC009 11/09 A3002 RMK AO2 SLP166 T01060094 $=
201901190650 SPECI KATL 190650Z 14003KT 4SM BR BKN004 OVC009 11/09 A3003 RMK AO2 $=
201901190621 SPECI KATL 190621Z 14004KT 5SM BR FEW005 BKN008 OVC012 11/09 A3003 RMK AO2 T01060094 $=
201901190552 METAR KATL 190552Z 12005KT 5SM BR FEW005 OVC012 11/09 A3003 RMK AO2 SLP170 BINOVC T01060094 10122 20100 58009 $=
201901190507 SPECI KATL 190507Z 13003KT 6SM BR SCT005 BKN012 BKN250 11/09 A3005 RMK AO2 T01060089 $=
201901190452 METAR KATL 190452Z 10004KT 7SM FEW004 SCT035 BKN250 11/09 A3005 RMK AO2 SLP176 T01060089 401440083 $=
201901190352 METAR KATL 190352Z 00000KT 8SM FEW015 BKN035 BKN250 11/09 A3006 RMK AO2 SLP181 T01060089 $=
201901190341 SPECI KATL 190341Z 14003KT 9SM SCT015 BKN035 BKN250 11/09 A3006 RMK AO2 T01060089 $=
201901190252 METAR KATL 190252Z 00000KT 10SM BKN015 BKN035 BKN250 11/09 A3006 RMK AO2 SLP180 T01110089 58001 $=
201901190230 SPECI KATL 190230Z 12003KT 9SM BKN015 BKN035 BKN250 11/09 A3006 RMK AO2 T01060089 $=
201901190152 METAR KATL 190152Z 00000KT 10SM BKN250 11/09 A3006 RMK AO2 SLP181 T01110089 $=
201901190052 METAR KATL 190052Z 13003KT 10SM BKN250 12/08 A3007 RMK AO2 SLP182 T01170083 $=
201901182352 METAR KATL 182352Z 00000KT 10SM FEW020 BKN250 12/08 A3006 RMK AO2 SLP181 T01220083 10144 20122 56001=
201901182252 METAR KATL 182252Z 17003KT 10SM FEW020 OVC040 13/09 A3007 RMK AO2 SLP182 BINOVC T01330089=
201901182152 METAR KATL 182152Z 20005KT 10SM FEW020 FEW029 BKN040 14/09 A3006 RMK AO2 SLP180 T01390089=
201901182052 METAR KATL 182052Z 00000KT 10SM FEW019 BKN041 14/09 A3007 RMK AO2 SLP183 T01390089 56009=
201901181952 METAR KATL 181952Z 12003KT 10SM SCT015 OVC040 14/09 A3007 RMK AO2 SLP183 T01390094=
201901181902 SPECI KATL 181902Z 00000KT 10SM SCT015 OVC040 14/10 A3007 RMK AO2 T01390100=
201901181852 METAR KATL 181852Z 00000KT 8SM BKN013 OVC040 13/09 A3008 RMK AO2 SLP187 T01330094=
201901181752 METAR KATL 181752Z 00000KT 7SM FEW007 SCT010 BKN040 13/09 A3010 RMK AO2 SLP192 T01280094 10128 20089 58017=
201901181748 SPECI KATL 181748Z 00000KT 7SM FEW007 SCT010 BKN040 13/10 A3010 RMK AO2=
201901181652 METAR KATL 181652Z 19004KT 2 1/2SM BR BKN005 BKN010 OVC040 11/09 A3012 RMK AO2 SFC VIS 5 SLP203 T01060089=
201901181650 SPECI KATL 181650Z 18004KT 2 1/2SM BR BKN005 BKN010 OVC040 11/09 A3013 RMK AO2 SFC VIS 5=
201901181552 METAR KATL 181552Z 20005KT 1 1/2SM BR BKN005 BKN008 OVC040 10/09 A3015 RMK AO2 SFC VIS 4 SLP212 T01000089=
201901181543 SPECI KATL 181543Z 21006KT 1 1/2SM BR BKN005 BKN008 OVC040 10/09 A3015 RMK AO2 SFC VIS 4 T01000089=
201901181511 SPECI KATL 181511Z 00000KT 1/2SM R09R/P6000FT BR BKN003 BKN005 OVC010 09/08 A3015 RMK AO2 SFC VIS 3 TWRINC T00940083=
201901181452 METAR KATL 181452Z 19004KT 1/2SM R09R/P6000FT BR OVC002 09/08 A3014 RMK AO2 SFC VIS 2 SLP209 VIS LWR E-SE-S BCFG TWRINC T00940083 51012=
201901181352 METAR KATL 181352Z 22005KT 1/2SM R09R/P6000FT BR OVC002 09/08 A3014 RMK AO2 SFC VIS 1 1/4 SLP209 CIG 001V003 TWRINC T00940078=
201901181252 METAR KATL 181252Z 22004KT 1/2SM R09R/P6000FT BR OVC002 09/08 A3012 RMK AO2 SFC VIS 3 SLP203 CIG 001V003 TWRINC T00890078=
201901181152 METAR KATL 181152Z 26003KT 1/2SM R09R/P6000FT BR BKN003 OVC008 09/08 A3010 RMK AO2 SFC VIS 2 1/2 SLP197 CIG 002V004 TWRINC 60000 70010 T00890078 10089 20083 55003=
201901181052 METAR KATL 181052Z 29003KT 1/2SM R09R/4000VP6000FT BR OVC002 09/08 A3010 RMK AO2 SFC VIS 3/4 DZE50 SLP194 CIG 001V003 P0000 T00890078=
201901180952 METAR KATL 180952Z 00000KT 1/2SM R09R/4500V5500FT -DZ BR VV002 08/08 A3011 RMK AO2 SFC VIS 3/4 SLP199 PCPN VRY LGT P0000 T00830078=
201901180852 METAR KATL 180852Z 21003KT 1/2SM R09R/2600V4000FT -DZ FG VV002 08/07 A3011 RMK AO2 SLP200 PCPN VRY LGT P0000 60000 T00830072 58006 $=
201901180752 METAR KATL 180752Z 22003KT 1/2SM R09R/4000V4500FT -DZ FG VV002 08/07 A3012 RMK AO2 SLP204 PCPN VRY LGT P0000 T00830072 $=
201901180652 METAR KATL 180652Z 22003KT 1/2SM R09R/6000VP6000FT -DZ BR OVC002 08/07 A3012 RMK AO2 SFC VIS 3/4 SLP203 CIG 001V003 P0000 T00830072 $=
201901180552 METAR KATL 180552Z 21003KT 1 1/4SM -DZ BR OVC003 08/07 A3013 RMK AO2 SLP206 P0000 60000 T00830072 10083 20072 58003 $=
201901180452 METAR KATL 180452Z 22004KT 1 1/2SM -DZ BR OVC004 08/07 A3015 RMK AO2 SFC VIS 2 1/2 DZB45 SLP212 P0000 T00830072 401000017 $=
201901180352 METAR KATL 180352Z 22005KT 2SM BR BKN005 OVC020 08/07 A3015 RMK AO2 SFC VIS 4 SLP212 CIG 003V007 T00780067 $=
201901180252 METAR KATL 180252Z 19005KT 2SM BR BKN005 OVC020 08/07 A3014 RMK AO2 SFC VIS 5 SLP211 CIG 003V007 60000 T00780067 58006 $=
201901180152 METAR KATL 180152Z 18008KT 2SM BR BKN005 BKN012 OVC030 08/06 A3015 RMK AO2 SFC VIS 4 SLP215 T00780061 $=
201901180052 METAR KATL 180052Z VRB03KT 2SM BR SCT004 BKN020 OVC050 08/06 A3016 RMK AO2 SFC VIS 4 RAE05 SLP219 SCT004 V BKN P0000 T00780061 $=
201901180046 SPECI KATL 180046Z 15003KT 2SM BR SCT004 BKN025 OVC050 08/06 A3016 RMK AO2 SFC VIS 4 RAE05 SCT004 V BKN P0000 $=
201901180027 SPECI KATL 180027Z 17005KT 5SM BR FEW004 BKN025 OVC070 08/06 A3016 RMK AO2 RAE05 P0000 T00780061 $=
201901172352 METAR KATL 172352Z 00000KT 2SM -RA BR SCT005 BKN028 OVC070 07/06 A3016 RMK AO2 SFC VIS 5 SLP218 P0002 60008 T00720061 10089 20072 51001 $=
201901172252 METAR KATL 172252Z 14005KT 2SM -RA BR SCT005 BKN025 BKN050 OVC150 08/06 A3016 RMK AO2 SFC VIS 3 SLP218 TSB04E30 P0004 T00780061 $=
201901172232 SPECI KATL 172232Z 00000KT 1 1/2SM R09R/3500VP6000FT RA BR SCT007 BKN015 OVC040 08/06 A3016 RMK AO2 SFC VIS 2 1/2 PRESFR TSB04E30 TS DSIPTD P0004 T00780061 $=
201901172205 SPECI KATL 172205Z 35004KT 1 1/2SM VCTS -RA FEW008 BKN020CB OVC080 08/06 A3018 RMK AO2 SFC VIS 2 1/2 TSB04 OCNL LTGIC NW TS VC NW MOV E P0001 T00830056 $=
201901172152 METAR KATL 172152Z 34004KT 1 1/2SM -RA BKN020 BKN040 OVC080 08/05 A3019 RMK AO2 SFC VIS 4 RAB44 SLP227 P0000 T00830050 $=
201901172052 METAR KATL 172052Z 00000KT 6SM BR FEW013 BKN025 OVC040 08/05 A3015 RMK AO2 RAE1956DZB23E48 SLP217 P0000 60002 T00830050 56015 $=
201901172024 SPECI KATL 172024Z 20005KT 6SM -DZ BR FEW013 BKN025 OVC050 08/05 A3016 RMK AO2 RAE1956DZB23 P0000 T00830050 $=
201901172014 SPECI KATL 172014Z 19004KT 8SM BKN015 BKN025 OVC050 08/06 A3016 RMK AO2 RAE1956 P0000 T00830056=
201901172000 SPECI KATL 172000Z 27004KT 2SM SCT015 BKN025 OVC050 08/05 A3017 RMK AO2 SFC VIS 7 RAE1956 P0000 T00830050=
201901171952 METAR KATL 171952Z 24005KT 2SM -RA SCT015 BKN030 OVC050 08/06 A3017 RMK AO2 SFC VIS 4 SLP221 P0001 T00830056=
201901171852 METAR KATL 171852Z 25005KT 8SM -RA FEW015 BKN040 OVC080 08/04 A3019 RMK AO2 SLP227 P0001 T00830044=
201901171821 SPECI KATL 171821Z 24003KT 3SM -RA FEW040 BKN050 OVC080 09/05 A3019 RMK AO2 SFC VIS 4 P0001 T00890050=
201901171752 METAR KATL 171752Z 19005KT 8SM -RA BKN060 BKN080 OVC110 09/04 A3020 RMK AO2 RAB13 SLP231 P0002 60002 T00890039 10100 20017 58018=
201901171652 METAR KATL 171652Z 23004KT 10SM BKN085 BKN110 BKN250 09/02 A3024 RMK AO2 SLP246 VIRGA NW-N T00940017=
201901171552 METAR KATL 171552Z 13005KT 9SM FEW065 BKN110 BKN250 08/02 A3024 RMK AO2 SLP246 VIRGA DSNT NW-N T00830017=
201901171452 METAR KATL 171452Z 00000KT 9SM FEW065 FEW120 SCT180 BKN250 06/02 A3025 RMK AO2 SLP250 VIRGA DSNT E-SE-S T00560017 53013=
201901171352 METAR KATL 171352Z 13004KT 10SM FEW065 SCT120 BKN180 BKN250 03/01 A3019 RMK AO2 SLP230 VIRGA NW-NE T00330006=
201901171252 METAR KATL 171252Z 00000KT 9SM FEW140 BKN180 BKN250 03/00 A3022 RMK AO2 SLP241 T00280000=
201901171152 METAR KATL 171152Z 30004KT 10SM FEW180 BKN250 02/M01 A3021 RMK AO2 SLP237 T00171006 10039 20017 55009=
201901171052 METAR KATL 171052Z 29003KT 10SM SCT180 BKN250 02/M01 A3021 RMK AO2 SLP234 T00171006=
201901170952 METAR KATL 170952Z 00000KT 10SM BKN180 BKN250 02/00 A3022 RMK AO2 SLP237 T00220000=
201901170852 METAR KATL 170852Z 31004KT 10SM SCT180 BKN250 02/M01 A3024 RMK AO2 SLP245 T00171006 56001=
201901170752 METAR KATL 170752Z 29004KT 10SM SCT180 SCT250 02/M01 A3025 RMK AO2 SLP248 T00171006=
201901170652 METAR KATL 170652Z 30004KT 10SM SCT180 SCT250 02/M01 A3023 RMK AO2 SLP242 T00221006=
201901170552 METAR KATL 170552Z 32004KT 10SM BKN200 04/00 A3024 RMK AO2 SLP246 T00390000 10083 20028 58001=
201901170452 METAR KATL 170452Z 31004KT 10SM FEW250 03/M01 A3025 RMK AO2 SLP250 T00281006 401171011=
201901170352 METAR KATL 170352Z 33004KT 10SM FEW250 04/M01 A3025 RMK AO2 SLP251 T00391006=
201901170252 METAR KATL 170252Z 33006KT 10SM FEW250 05/00 A3024 RMK AO2 SLP249 T00500000 58001=
201901170152 METAR KATL 170152Z 33007KT 10SM FEW250 06/M01 A3025 RMK AO2 SLP250 T00611006=
201901170052 METAR KATL 170052Z 33003KT 10SM FEW250 07/M01 A3025 RMK AO2 SLP251 T00721006=
201901162352 METAR KATL 162352Z 34005KT 10SM FEW250 08/M01 A3025 RMK AO2 SLP250 T00831011 10117 20083 53007=
201901162252 METAR KATL 162252Z 32007KT 10SM FEW250 09/M01 A3024 RMK AO2 SLP245 T00941011=
201901162152 METAR KATL 162152Z 33007KT 10SM FEW250 12/M02 A3023 RMK AO2 SLP241 T01171017=
201901162052 METAR KATL 162052Z 30005KT 10SM FEW250 12/01 A3023 RMK AO2 SLP240 T01170006 56011=
201901161952 METAR KATL 161952Z 32007KT 10SM FEW250 11/01 A3023 RMK AO2 SLP242 T01110011=
201901161852 METAR KATL 161852Z 31007KT 10SM CLR 11/02 A3023 RMK AO2 SLP244 T01060022=
201901161752 METAR KATL 161752Z 30005KT 9SM CLR 09/02 A3026 RMK AO2 SLP252 T00890017 10089 21011 58009=
201901161652 METAR KATL 161652Z 32009KT 9SM CLR 07/01 A3029 RMK AO2 SLP264 T00670006=
201901161552 METAR KATL 161552Z 31007KT 6SM HZ FEW015 04/00 A3030 RMK AO2 SLP267 T00440000=
201901161452 METAR KATL 161452Z 32007KT 4SM BR FEW010 02/M01 A3029 RMK AO2 SLP265 T00171011 53009=
201901161352 METAR KATL 161352Z 32010KT 4SM BR SCT005 00/M02 A3027 RMK AO2 SLP259 SCT005 V BKN T00001022=
201901161344 SPECI KATL 161344Z 31007KT 4SM BR SCT005 00/M02 A3026 RMK AO2 SCT005 V BKN T00001022=
201901161252 METAR KATL 161252Z 33008KT 4SM BR BKN005 BKN250 M01/M03 A3026 RMK AO2 SLP255 BKN005 V SCT T10061028=
201901161249 SPECI KATL 161249Z 32009KT 4SM BR BKN005 BKN250 M01/M03 A3026 RMK AO2 BKN005 V SCT=
201901161152 METAR KATL 161152Z 31005KT 5SM BR SCT006 SCT250 M01/M03 A3025 RMK AO2 SLP251 SCT006 V BKN T10111028 10000 21011 53003=
201901161052 METAR KATL 161052Z 31007KT 6SM BR FEW008 FEW250 M01/M03 A3023 RMK AO2 SLP244 T10111028=
201901160952 METAR KATL 160952Z 31007KT 6SM BR FEW009 SCT250 M01/M03 A3023 RMK AO2 SLP245 T10061028=
201901160852 METAR KATL 160852Z 32008KT 8SM FEW009 BKN250 M01/M03 A3024 RMK AO2 SLP246 T10061028 53003=
201901160752 METAR KATL 160752Z 32009KT 10SM BKN250 M01/M03 A3023 RMK AO2 SLP245 T10061028=
201901160652 METAR KATL 160652Z 31008KT 10SM BKN250 M01/M03 A3022 RMK AO2 SLP241 T10061028=
201901160552 METAR KATL 160552Z 31006KT 10SM BKN250 00/M03 A3023 RMK AO2 SLP243 T00001028 10028 20000 58007=
201901160452 METAR KATL 160452Z 32008KT 10SM BKN250 00/M03 A3024 RMK AO2 SLP248 T00001028 400780000=
201901160352 METAR KATL 160352Z 31008KT 10SM BKN250 01/M02 A3025 RMK AO2 SLP251 T00061022=
201901160252 METAR KATL 160252Z 31007KT 10SM FEW200 BKN250 01/M02 A3025 RMK AO2 SLP252 T00111022 51003=
201901160152 METAR KATL 160152Z 31008KT 10SM BKN250 02/M02 A3025 RMK AO2 SLP250 T00171022=
201901160052 METAR KATL 160052Z 30007KT 10SM BKN250 02/M02 A3024 RMK AO2 SLP249 T00221017=
201901152352 METAR KATL 152352Z 29007KT 10SM SCT250 03/M02 A3024 RMK AO2 SLP248 T00281017 10078 20028 53001=
201901152252 METAR KATL 152252Z 30009KT 10SM FEW250 04/M02 A3023 RMK AO2 SLP243 T00391017=
201901152152 METAR KATL 152152Z 32011KT 10SM FEW025 06/M01 A3022 RMK AO2 SLP240 T00561006=
201901152052 METAR KATL 152052Z 30010KT 10SM FEW025 07/M01 A3024 RMK AO2 SLP245 T00671006 55003=
201901151952 METAR KATL 151952Z 27010KT 10SM FEW030 07/00 A3023 RMK AO2 SLP241 T00720000=
201901151852 METAR KATL 151852Z 28009KT 10SM FEW030 FEW250 07/M01 A3023 RMK AO2 SLP241 T00721006=
201901151752 METAR KATL 151752Z 30010KT 10SM FEW025 FEW250 06/M01 A3024 RMK AO2 SLP248 T00611006 10061 20017 58017=
201901151652 METAR KATL 151652Z 31009KT 10SM SCT020 SCT250 04/M01 A3029 RMK AO2 SLP262 T00441011=
201901151552 METAR KATL 151552Z 33010KT 10SM BKN018 03/M02 A3030 RMK AO2 SLP266 T00331022=
201901151452 METAR KATL 151452Z 35011KT 10SM OVC017 02/M03 A3029 RMK AO2 SLP264 T00221028 53014=
201901151352 METAR KATL 151352Z 31010KT 10SM OVC016 02/M02 A3027 RMK AO2 SLP258 BINOVC T00221022=
201901151252 METAR KATL 151252Z 32009KT 10SM OVC017 02/M03 A3026 RMK AO2 SLP252 BINOVC T00171028=
201901151152 METAR KATL 151152Z 32009KT 10SM OVC017 02/M02 A3025 RMK AO2 SLP249 BINOVC T00221022 10039 20022 53006=
201901151052 METAR KATL 151052Z 34012KT 10SM OVC017 02/M02 A3023 RMK AO2 SLP241 BINOVC T00221022=
201901150952 METAR KATL 150952Z 31011KT 10SM OVC016 03/M01 A3023 RMK AO2 SLP242 T00281011=
201901150948 SPECI KATL 150948Z 32011KT 10SM OVC016 03/M02 A3023 RMK AO2=
201901150916 SPECI KATL 150916Z 31011KT 10SM OVC014 03/M01 A3023 RMK AO2 T00331011=
201901150852 METAR KATL 150852Z 31009KT 10SM OVC016 03/M01 A3023 RMK AO2 SLP242 T00331011 54000=
201901150752 METAR KATL 150752Z 32012KT 10SM OVC017 03/M01 A3023 RMK AO2 SLP243 T00331011=
201901150652 METAR KATL 150652Z 32009KT 10SM OVC018 04/M01 A3023 RMK AO2 SLP240 T00391011=
201901150552 METAR KATL 150552Z 34010KT 10SM BKN020 04/M01 A3023 RMK AO2 SLP242 T00391006 10061 20039 50000=
201901150452 METAR KATL 150452Z 33012KT 10SM BKN020 04/M01 A3023 RMK AO2 SLP243 T00391006 400830039=
201901150352 METAR KATL 150352Z 32013KT 10SM OVC020 04/M01 A3024 RMK AO2 SLP246 T00441006=
201901150252 METAR KATL 150252Z 34008KT 10SM BKN018 05/01 A3023 RMK AO2 SLP241 T00500006 55000=
201901150152 METAR KATL 150152Z 35011KT 10SM BKN020 06/01 A3023 RMK AO2 SLP241 T00560006=
201901150052 METAR KATL 150052Z 35013G20KT 10SM BKN024 OVC030 06/01 A3023 RMK AO2 SLP242 T00610006=
201901142352 METAR KATL 142352Z 35010KT 10SM SCT023 OVC028 06/01 A3023 RMK AO2 SLP241 T00610011 10078 20061 53004=
201901142252 METAR KATL 142252Z 34009KT 10SM OVC025 07/01 A3022 RMK AO2 SLP239 T00670011=
201901142152 METAR KATL 142152Z 30008KT 10SM BKN025 OVC030 07/02 A3021 RMK AO2 SLP236 T00670017=
201901142119 SPECI KATL 142119Z 31013KT 10SM FEW018 SCT020 OVC030 07/02 A3021 RMK AO2 T00720022=
201901142052 METAR KATL 142052Z 31010KT 10SM BKN020 BKN027 OVC030 07/02 A3022 RMK AO2 SLP236 T00720022 55007=
201901141952 METAR KATL 141952Z 32011KT 10SM BKN020 BKN025 OVC030 07/02 A3021 RMK AO2 SLP236 T00720022=
201901141852 METAR KATL 141852Z 33010KT 10SM FEW017 BKN023 OVC030 07/02 A3022 RMK AO2 SLP237 T00720022=
201901141752 METAR KATL 141752Z 33008KT 10SM BKN017 BKN023 OVC030 07/03 A3024 RMK AO2 SLP243 T00720028 10083 20061 58012=
201901141652 METAR KATL 141652Z 33012KT 10SM BKN017 BKN030 08/03 A3026 RMK AO2 SLP251 T00780028=
201901141609 SPECI KATL 141609Z 32008KT 10SM BKN015 BKN030 07/03 A3028 RMK AO2 T00720028=
201901141552 METAR KATL 141552Z 32012KT 10SM BKN014 OVC030 07/03 A3028 RMK AO2 SLP259 T00670028=
201901141452 METAR KATL 141452Z 32011KT 10SM BKN011 OVC025 06/03 A3027 RMK AO2 SLP255 T00610028 53012=
201901141352 METAR KATL 141352Z 33011KT 10SM OVC013 06/03 A3025 RMK AO2 SLP247 T00610028=
201901141252 METAR KATL 141252Z 31012G19KT 10SM OVC014 06/02 A3025 RMK AO2 SLP247 T00610022=
201901141152 METAR KATL 141152Z 31008KT 10SM OVC013 06/03 A3023 RMK AO2 SLP242 T00610028 10067 20061 53007=
201901141052 METAR KATL 141052Z 32010KT 10SM OVC010 06/03 A3021 RMK AO2 SLP235 T00610033=
201901140952 METAR KATL 140952Z 32013KT 10SM OVC011 06/03 A3021 RMK AO2 SLP233 T00610033=
201901140852 METAR KATL 140852Z 31009KT 10SM OVC012 07/04 A3021 RMK AO2 SLP235 T00670039 51004 $=
201901140752 METAR KATL 140752Z 31008KT 10SM BKN011 OVC027 07/04 A3021 RMK AO2 SLP233 CIG 009V014 T00670039 $=
201901140749 SPECI KATL 140749Z 31008KT 10SM BKN011 OVC027 07/04 A3021 RMK AO2 CIG 009V014 $=
201901140652 METAR KATL 140652Z 31007KT 8SM OVC007 07/04 A3020 RMK AO2 SLP231 T00670044 $=
201901140552 METAR KATL 140552Z 30007KT 10SM BKN009 OVC016 07/04 A3019 RMK AO2 SLP228 T00670044 10083 20067 58003 $=
201901140535 SPECI KATL 140535Z 30008KT 10SM SCT009 BKN013 OVC018 07/04 A3019 RMK AO2 T00670044 $=
201901140452 METAR KATL 140452Z 30009KT 10SM BKN017 OVC025 07/04 A3020 RMK AO2 SLP230 BINOVC T00720044 400890017 $=
201901140352 METAR KATL 140352Z 31007KT 10SM BKN015 OVC025 07/04 A3020 RMK AO2 SLP234 BINOVC T00720044 $=
201901140252 METAR KATL 140252Z 32009KT 10SM BKN016 BKN025 08/04 A3020 RMK AO2 SLP231 T00780044 51009 $=
201901140152 METAR KATL 140152Z 32008KT 10SM BKN021 BKN026 OVC045 08/05 A3019 RMK AO2 SLP231 T00780050 $=
201901140133 SPECI KATL 140133Z 32009KT 10SM BKN026 OVC045 08/05 A3019 RMK AO2 BKN026VSCT BINOVC T00830050 $=
201901140052 METAR KATL 140052Z 31005KT 10SM SCT017 SCT022 BKN045 08/05 A3018 RMK AO2 SLP227 T00830050 $=
201901140033 SPECI KATL 140033Z 31006KT 10SM SCT017 SCT022 BKN042 08/06 A3018 RMK AO2 T00830056 $=
201901132352 METAR KATL 132352Z 32005KT 10SM FEW011 BKN017 OVC025 08/06 A3017 RMK AO2 SLP221 T00830056 10089 20044 53015 $=
201901132252 METAR KATL 132252Z 28005KT 10SM BKN019 OVC027 08/06 A3014 RMK AO2 SLP212 T00830056 $=
201901132219 SPECI KATL 132219Z 27006KT 10SM BKN018 OVC023 09/06 A3013 RMK AO2 BINOVC T00890056 $=
201901132152 METAR KATL 132152Z 28004KT 10SM FEW018 SCT026 OVC036 09/05 A3013 RMK AO2 SLP206 BINOVC T00890050 $=
201901132127 SPECI KATL 132127Z 27004KT 10SM FEW017 SCT024 OVC036 09/05 A3012 RMK AO2 BINOVC T00890050 $=
201901132052 METAR KATL 132052Z 27007KT 10SM FEW014 BKN024 OVC031 09/05 A3012 RMK AO2 SLP205 T00890050 55002 $=
201901132042 SPECI KATL 132042Z 26006KT 10SM SCT014 BKN026 OVC034 08/05 A3012 RMK AO2 T00830050 $=
201901132030 SPECI KATL 132030Z 27007KT 8SM SCT014 OVC033 09/05 A3012 RMK AO2 BINOVC T00890050 $=
201901131952 METAR KATL 131952Z 27004KT 7SM BKN012 OVC033 08/05 A3012 RMK AO2 SLP204 CIG 010V014 BINOVC T00830050 $=
201901131929 SPECI KATL 131929Z 28005KT 3SM BKN010 BKN018 OVC033 08/04 A3012 RMK AO2 SFC VIS 8 CIG 009V012 BINOVC T00780044 $=
201901131852 METAR KATL 131852Z 28005KT 3SM OVC006 07/04 A3012 RMK AO2 SFC VIS 7 SLP206 CIG 004V008 BINOVC T00670039 $=
201901131842 SPECI KATL 131842Z 24005KT 3SM OVC005 06/04 A3012 RMK AO2 SFC VIS 7 CIG 003V007 T00610039=
201901131752 METAR KATL 131752Z 27004KT 1/2SM R09R/P6000FT BR OVC003 04/03 A3013 RMK AO2 SFC VIS 2 SLP209 CIG 002V004 TWRINC 60000 T00440033 10044 20017 58005=
201901131652 METAR KATL 131652Z 26003KT 1/4SM R09R/P6000FT BR OVC002 04/03 A3015 RMK AO2 SFC VIS 1 3/4 SLP218 CIG 001V003 TWRINC T00390028=
201901131552 METAR KATL 131552Z 19003KT 1/2SM R09R/4000V6000FT BR OVC002 03/02 A3016 RMK AO2 SFC VIS 1 SLP221 CIG 001V003 T00280022=
201901131452 METAR KATL 131452Z 10006KT 1/2SM R09R/P6000FT BR OVC003 02/02 A3015 RMK AO2 SFC VIS 1 1/2 SLP216 CIG 002V004 60000 T00220017 53009=
201901131352 METAR KATL 131352Z 09005KT 1/2SM R09R/4500VP6000FT BR OVC002 02/01 A3013 RMK AO2 SFC VIS 1 DZE52 SLP212 P0000 T00220011=
201901131255 SPECI KATL 131255Z 09007KT 1/2SM R09R/5500VP6000FT -DZ BR OVC003 02/01 A3012 RMK AO2 SFC VIS 1 1/4 P0000 T00170011=
201901131252 METAR KATL 131252Z 09006KT 1SM R09R/P6000FT -DZ BR OVC003 02/01 A3012 RMK AO2 SFC VIS 1 1/4 SLP208 CIG 002V004 P0000 T00170011=
201901131216 SPECI KATL 131216Z 08010KT 1SM R09R/P6000FT -DZ BR OVC003 02/01 A3011 RMK AO2 SFC VIS 2 CIG 002V004 P0000 T00220006=
201901131152 METAR KATL 131152Z 08011KT 4SM -DZ BR OVC004 02/01 A3012 RMK AO2 DZB01 SLP206 PCPN VRY LGT P0000 60010 70062 T00220006 10033 20022 53000=
201901131101 SPECI KATL 131101Z 07010KT 6SM -DZ BR OVC004 02/01 A3012 RMK AO2 DZB01 P0000 T00220006=
201901131052 METAR KATL 131052Z 07010KT 6SM BR OVC005 02/01 A3011 RMK AO2 SLP203 CIG 004V007 T00220006=
201901130952 METAR KATL 130952Z 07012KT 6SM BR OVC005 02/01 A3010 RMK AO2 SLP200 CIG 004V007 T00220006=
201901130852 METAR KATL 130852Z 08012KT 6SM BR OVC005 03/01 A3012 RMK AO2 DZE20 SLP204 CIG 004V007 P0000 60010 T00280011 55002=
201901130752 METAR KATL 130752Z 07011KT 6SM -DZ BR BKN005 OVC018 03/02 A3011 RMK AO2 SLP200 RAE35DZB35 CIG 004V008 P0004 T00280017=
201901130717 SPECI KATL 130717Z 07011KT 3SM -RA BR BKN005 OVC018 03/02 A3012 RMK AO2 CIG 004V008 P0003 T00280017=
201901130701 SPECI KATL 130701Z 08013KT 2 1/2SM -RA BR BKN005 BKN018 OVC034 03/02 A3012 RMK AO2 CIG 004V008 P0002 T00280017=
201901130652 METAR KATL 130652Z 06011KT 3SM -RA BR BKN006 OVC018 03/02 A3012 RMK AO2 SLP206 CIG 005V008 P0006 T00330017=
201901130552 METAR KATL 130552Z 01008KT 4SM -RA BR OVC006 03/02 A3012 RMK AO2 SLP207 CIG 004V008 P0018 60049 T00330022 10039 20028 53003=
201901130528 SPECI KATL 130528Z 03006KT 4SM -RA BR OVC005 03/02 A3012 RMK AO2 P0016 T00330022=
201901130507 SPECI KATL 130507Z 02010KT 2SM R09R/5500VP6000FT +RA BR OVC005 03/02 A3011 RMK AO2 P0009 T00330022=
201901130504 SPECI KATL 130504Z 02010KT 1 3/4SM R09R/5500VP6000FT +RA BR OVC004 03/02 A3011 RMK AO2 P0008 T00330022=
201901130452 METAR KATL 130452Z 06010KT 5SM -RA BR BKN004 OVC008 03/02 A3012 RMK AO2 SLP205 P0006 T00330022 400670028=
201901130406 SPECI KATL 130406Z 10010G20KT 3SM -RA BR BKN004 OVC008 03/02 A3011 RMK AO2 P0003 T00330022=
201901130352 METAR KATL 130352Z 10011KT 4SM -RA BR OVC005 03/02 A3012 RMK AO2 SLP205 P0007 T00330022=
201901130349 SPECI KATL 130349Z 10009G18KT 4SM -RA BR OVC005 03/02 A3012 RMK AO2 P0007=
201901130339 SPECI KATL 130339Z 10010G18KT 2 1/2SM RA BR OVC005 03/02 A3012 RMK AO2 P0006 T00330017=
201901130252 METAR KATL 130252Z 10010KT 4SM -RA BR BKN007 OVC010 03/02 A3014 RMK AO2 SLP211 P0012 60018 T00330017 56013=
201901130247 SPECI KATL 130247Z 09012KT 3SM RA BR BKN007 OVC012 03/02 A3014 RMK AO2 P0011=
201901130213 SPECI KATL 130213Z 10010KT 3SM RA BR SCT007 OVC012 03/01 A3014 RMK AO2 P0004 T00280011=
201901130211 SPECI KATL 130211Z 10010KT 4SM RA BR OVC013 03/01 A3014 RMK AO2 P0003 T00280011=
201901130152 METAR KATL 130152Z 10014G19KT 6SM -RA BR OVC015 03/01 A3014 RMK AO2 SLP212 P0006 T00330011=
201901130052 METAR KATL 130052Z 09015G18KT 7SM -RA OVC018 03/01 A3016 RMK AO2 SLP220 P0000 T00330011=
201901122352 METAR KATL 122352Z 10011KT 7SM -RA OVC019 04/01 A3017 RMK AO2 SLP224 P0003 60003 T00390011 10067 20039 58006=
201901122252 METAR KATL 122252Z 09010KT 9SM -RA OVC020 06/M01 A3019 RMK AO2 RAE05B49 SLP229 P0000 T00561006=
201901122152 METAR KATL 122152Z 10011G20KT 10SM -RA OVC021 06/M01 A3018 RMK AO2 RAB28 SLP226 PCPN VRY LGT P0000 T00561011=
201901122052 METAR KATL 122052Z 11009KT 10SM SCT020 OVC026 07/M01 A3019 RMK AO2 SLP229 60000 T00671006 56024=
201901122007 SPECI KATL 122007Z 10009KT 10SM BKN028 BKN070 OVC120 06/M01 A3019 RMK AO2 VIRGA NE-OHD-SW T00611011=
201901121952 METAR KATL 121952Z 10012G19KT 10SM BKN030 BKN065 OVC120 06/M01 A3020 RMK AO2 RAB05E16 SLP230 P0000 T00611011=
201901121900 SPECI KATL 121900Z 09012KT 10SM FEW022 BKN028 OVC055 06/M01 A3023 RMK AO2 T00611011=
201901121852 METAR KATL 121852Z 09011KT 10SM FEW022 BKN030 OVC060 06/M01 A3023 RMK AO2 SLP243 T00611011=
201901121752 METAR KATL 121752Z 09014KT 10SM FEW020 BKN031 OVC060 06/M02 A3027 RMK AO2 SLP254 60000 T00611017 10061 20044 58021=
201901121652 METAR KATL 121652Z 10012KT 10SM FEW023 BKN033 OVC050 06/M02 A3030 RMK AO2 RAE06B41E51 SLP266 P0000 T00561022=
201901121552 METAR KATL 121552Z 09013KT 9SM -RA FEW026 BKN035 OVC050 05/M03 A3031 RMK AO2 RAB46 SLP270 P0000 T00501033=
201901121452 METAR KATL 121452Z 07015KT 10SM BKN030 OVC040 05/M05 A3033 RMK AO2 SLP276 T00501050 53011=
201901121352 METAR KATL 121352Z 09012G20KT 10SM BKN030 BKN100 OVC200 05/M05 A3030 RMK AO2 SLP266 T00501050=
201901121252 METAR KATL 121252Z 10012KT 10SM OVC027 05/M06 A3030 RMK AO2 SLP265 T00501056=
201901121152 METAR KATL 121152Z 11013KT 10SM OVC025 05/M06 A3030 RMK AO2 SLP263 T00501061 10056 20050 53001=
201901121052 METAR KATL 121052Z 10012KT 10SM BKN024 OVC035 05/M06 A3029 RMK AO2 SLP262 T00501056=
201901121035 SPECI KATL 121035Z 10010KT 10SM BKN029 BKN035 OVC047 05/M06 A3029 RMK AO2 T00501056=
201901120952 METAR KATL 120952Z 10012KT 10SM BKN035 OVC045 05/M05 A3028 RMK AO2 SLP257 T00501050=
201901120852 METAR KATL 120852Z 11008KT 10SM OVC037 06/M06 A3029 RMK AO2 SLP261 T00561056 50005=
201901120752 METAR KATL 120752Z 10008KT 10SM OVC035 06/M06 A3030 RMK AO2 SLP262 T00561056=
201901120652 METAR KATL 120652Z 10006KT 10SM BKN036 OVC140 06/M05 A3029 RMK AO2 SLP261 T00561050=
201901120552 METAR KATL 120552Z 12010KT 10SM FEW100 BKN140 BKN250 06/M05 A3028 RMK AO2 SLP257 T00561050 10089 20056 50001=
201901120452 METAR KATL 120452Z 11007KT 10SM FEW100 SCT140 BKN250 06/M05 A3029 RMK AO2 SLP260 T00611050 401221011=
201901120352 METAR KATL 120352Z 12006KT 10SM FEW100 BKN250 06/M04 A3028 RMK AO2 SLP258 T00611039=
201901120252 METAR KATL 120252Z 12006KT 10SM BKN250 07/M04 A3027 RMK AO2 SLP257 T00721044 51012=
201901120152 METAR KATL 120152Z 11007KT 10SM FEW110 BKN250 08/M04 A3026 RMK AO2 SLP253 T00781044=
201901120052 METAR KATL 120052Z 11006KT 10SM FEW110 BKN250 08/M04 A3026 RMK AO2 SLP252 T00831039=
201901112352 METAR KATL 112352Z 11006KT 10SM FEW110 SCT250 09/M04 A3024 RMK AO2 SLP245 T00891044 10122 20089 53004=
201901112252 METAR KATL 112252Z 14005KT 10SM FEW150 SCT250 09/M04 A3023 RMK AO2 SLP242 T00941039=
201901112152 METAR KATL 112152Z 15004KT 10SM FEW180 FEW250 SCT300 12/M05 A3023 RMK AO2 SLP240 T01171050=
201901112052 METAR KATL 112052Z 11005KT 10SM FEW250 SCT300 12/M05 A3022 RMK AO2 SLP240 T01221050 55013=
201901111952 METAR KATL 111952Z 13006KT 10SM FEW200 SCT300 12/M05 A3022 RMK AO2 SLP238 T01221050=
201901111852 METAR KATL 111852Z 14006KT 10SM FEW150 FEW200 SCT300 11/M05 A3025 RMK AO2 SLP247 T01111050=
201901111752 METAR KATL 111752Z 13007KT 10SM FEW100 FEW250 10/M05 A3026 RMK AO2 SLP253 T01001050 10100 21006 58017=
201901111652 METAR KATL 111652Z 15006KT 10SM FEW100 FEW250 08/M06 A3031 RMK AO2 SLP268 T00831056=
201901111552 METAR KATL 111552Z VRB05KT 10SM FEW250 07/M06 A3032 RMK AO2 SLP273 T00671061=
201901111452 METAR KATL 111452Z 10008KT 10SM FEW250 04/M07 A3031 RMK AO2 SLP272 T00391072 53020=
201901111352 METAR KATL 111352Z 09008KT 10SM FEW250 02/M06 A3028 RMK AO2 SLP262 T00171061=
201901111252 METAR KATL 111252Z 08007KT 10SM FEW250 01/M06 A3026 RMK AO2 SLP256 T00061061=
201901111152 METAR KATL 111152Z 03004KT 10SM FEW250 M01/M07 A3025 RMK AO2 SLP253 T10061067 10006 21011 52009=
201901111052 METAR KATL 111052Z 02006KT 10SM CLR M01/M07 A3025 RMK AO2 SLP250 T10061067=
201901110952 METAR KATL 110952Z 33005KT 10SM CLR M01/M07 A3023 RMK AO2 SLP245 T10111072=
201901110852 METAR KATL 110852Z 33006KT 10SM CLR M01/M07 A3023 RMK AO2 SLP243 T10061072 51014=
201901110752 METAR KATL 110752Z 33006KT 10SM FEW250 00/M07 A3022 RMK AO2 SLP241 T00001072=
201901110652 METAR KATL 110652Z 32007KT 10SM FEW250 00/M07 A3021 RMK AO2 SLP236 T00001067=
201901110552 METAR KATL 110552Z 33005KT 10SM FEW250 01/M07 A3018 RMK AO2 SLP229 T00061072 10044 20006 50002=
201901110452 METAR KATL 110452Z 31005KT 10SM FEW250 01/M07 A3019 RMK AO2 SLP230 T00111067 400721011=
201901110352 METAR KATL 110352Z 34005KT 10SM FEW250 02/M07 A3018 RMK AO2 SLP229 T00171072=
201901110252 METAR KATL 110252Z 33009KT 10SM FEW250 02/M07 A3018 RMK AO2 SLP227 T00221072 58002=
201901110152 METAR KATL 110152Z 32011KT 10SM FEW250 03/M07 A3018 RMK AO2 SLP228 T00281067=
201901110052 METAR KATL 110052Z 33010KT 10SM FEW250 03/M06 A3018 RMK AO2 SLP229 T00331061=
201901102352 METAR KATL 102352Z 32010KT 10SM FEW250 04/M07 A3018 RMK AO2 SLP229 T00441067 10072 20044 51005=
201901102252 METAR KATL 102252Z 33011KT 10SM FEW250 06/M07 A3018 RMK AO2 SLP227 T00561067=
201901102152 METAR KATL 102152Z 34012KT 10SM FEW250 07/M07 A3017 RMK AO2 SLP225 T00721067=
201901102052 METAR KATL 102052Z 33012KT 10SM FEW250 07/M07 A3016 RMK AO2 SLP221 T00721067 55005=
201901101952 METAR KATL 101952Z 32012KT 10SM FEW250 07/M06 A3016 RMK AO2 SLP219 T00671061=
201901101852 METAR KATL 101852Z 34011KT 10SM FEW250 07/M06 A3016 RMK AO2 SLP219 T00671056=
201901101752 METAR KATL 101752Z 31016KT 10SM FEW150 FEW250 BKN300 04/M06 A3018 RMK AO2 SLP227 T00441061 10044 21011 58008=
201901101652 METAR KATL 101652Z 30012KT 10SM BKN250 03/M06 A3021 RMK AO2 SLP237 T00281061=
201901101552 METAR KATL 101552Z 34013KT 10SM BKN250 01/M08 A3022 RMK AO2 SLP240 T00111078=
201901101452 METAR KATL 101452Z 33015G20KT 10SM FEW150 BKN250 BKN300 00/M08 A3021 RMK AO2 SLP236 T00001078 53016=
201901101352 METAR KATL 101352Z 32012G19KT 10SM BKN200 BKN250 M01/M08 A3019 RMK AO2 SLP231 T10061078=
201901101252 METAR KATL 101252Z 32013G17KT 10SM SCT200 BKN250 M01/M08 A3017 RMK AO2 SLP224 T10111083=
201901101152 METAR KATL 101152Z 32010KT 10SM FEW200 SCT250 M01/M08 A3016 RMK AO2 SLP218 T10111083 10033 21011 53006=
201901101052 METAR KATL 101052Z 32012G19KT 10SM FEW250 M01/M08 A3014 RMK AO2 PK WND 32028/0955 SLP214 T10061078=
201901100952 METAR KATL 100952Z 32013G21KT 10SM FEW250 00/M08 A3014 RMK AO2 SLP212 T00001078=
201901100852 METAR KATL 100852Z 32012G18KT 10SM SCT250 01/M07 A3014 RMK AO2 SLP210 T00111072 50009=
201901100752 METAR KATL 100752Z 32014G23KT 10SM FEW250 02/M07 A3014 RMK AO2 SLP211 T00171072=
201901100652 METAR KATL 100652Z 32011G18KT 10SM CLR 02/M07 A3013 RMK AO2 SLP206 T00221072=
201901100552 METAR KATL 100552Z 33013G23KT 10SM FEW250 03/M08 A3011 RMK AO2 PK WND 32029/0507 SLP200 T00331078 10072 20033 50001=
201901100452 METAR KATL 100452Z 33017G25KT 10SM FEW250 04/M08 A3011 RMK AO2 PK WND 32030/0436 SLP201 T00391078 401330039=
201901100352 METAR KATL 100352Z 32015G23KT 10SM CLR 04/M07 A3011 RMK AO2 SLP202 T00441072=
201901100252 METAR KATL 100252Z 32014G22KT 10SM CLR 06/M07 A3011 RMK AO2 SLP199 T00561067 56002=
201901100152 METAR KATL 100152Z 32014KT 10SM CLR 06/M06 A3011 RMK AO2 SLP200 T00611061=
201901100052 METAR KATL 100052Z 30015G21KT 10SM CLR 07/M05 A3010 RMK AO2 SLP199 T00671050=
201901092352 METAR KATL 092352Z 30013KT 10SM CLR 07/M05 A3011 RMK AO2 SLP201 T00721050 10111 20072 50004=
201901092252 METAR KATL 092252Z 31016KT 10SM CLR 08/M07 A3011 RMK AO2 SLP201 T00831067=
201901092152 METAR KATL 092152Z 30018G24KT 10SM CLR 10/M06 A3011 RMK AO2 PK WND 31027/2107 SLP199 T01001061=
201901092052 METAR KATL 092052Z 28015G21KT 10SM CLR 11/M06 A3010 RMK AO2 PK WND 31026/1957 SLP195 T01061056 56010=
201901091952 METAR KATL 091952Z 32017G22KT 10SM CLR 11/M07 A3010 RMK AO2 PK WND 31026/1932 SLP195 T01111067=
201901091852 METAR KATL 091852Z 33017G23KT 10SM CLR 11/M07 A3011 RMK AO2 SLP197 T01061072=
201901091752 METAR KATL 091752Z 32018KT 10SM CLR 10/M07 A3013 RMK AO2 PK WND 32030/1713 SLP204 T01001072 10100 20056 58019=
201901091652 METAR KATL 091652Z 32018G26KT 10SM CLR 09/M06 A3016 RMK AO2 PK WND 33030/1630 SLP215 T00941061=
201901091552 METAR KATL 091552Z 31019KT 10SM CLR 08/M06 A3019 RMK AO2 PK WND 30030/1530 SLP223 T00831056=
201901091452 METAR KATL 091452Z 32011G23KT 10SM CLR 07/M04 A3019 RMK AO2 SLP223 T00721039 51014=
201901091352 METAR KATL 091352Z 31011KT 10SM CLR 06/M03 A3018 RMK AO2 SLP220 T00611033=
201901091252 METAR KATL 091252Z 31010KT 10SM CLR 06/M03 A3016 RMK AO2 SLP215 T00561033=
201901091152 METAR KATL 091152Z 33016G23KT 10SM CLR 06/M04 A3015 RMK AO2 SLP209 T00611039 10122 20061 53005=
201901091052 METAR KATL 091052Z 32010G22KT 10SM CLR 07/M04 A3014 RMK AO2 SLP207 T00671039=
201901090952 METAR KATL 090952Z 32015G20KT 10SM FEW250 07/M04 A3013 RMK AO2 SLP202 T00721039=
201901090852 METAR KATL 090852Z 33015G21KT 10SM FEW250 08/M04 A3013 RMK AO2 PK WND 33029/0808 SLP202 T00831039 51015=
201901090752 METAR KATL 090752Z 32017KT 10SM FEW250 09/M01 A3013 RMK AO2 PK WND 33029/0739 SLP201 T00941011=
201901090652 METAR KATL 090652Z 33016KT 10SM FEW250 11/M01 A3011 RMK AO2 PK WND 31029/0559 SLP195 T01111006=
201901090552 METAR KATL 090552Z 31017G26KT 10SM SCT250 12/02 A3009 RMK AO2 PK WND 32026/0533 SLP186 T01220017 10150 20122 53004=
201901090452 METAR KATL 090452Z 29013KT 10SM SCT250 13/08 A3008 RMK AO2 SLP182 T01330083 401830100=
201901090352 METAR KATL 090352Z 27010KT 10SM BKN250 14/09 A3007 RMK AO2 SLP180 T01390089=
201901090252 METAR KATL 090252Z 26008KT 10SM BKN250 13/09 A3007 RMK AO2 SLP182 T01330094 55003=
201901090152 METAR KATL 090152Z 25007KT 10SM BKN250 14/09 A3007 RMK AO2 SLP182 T01390094=
201901090052 METAR KATL 090052Z 24007KT 10SM BKN250 14/10 A3008 RMK AO2 SLP185 T01440100=
201901082352 METAR KATL 082352Z 26006KT 10SM BKN250 15/10 A3008 RMK AO2 SLP187 T01500100 10183 20150 51002=
201901082252 METAR KATL 082252Z 27010KT 10SM FEW040 BKN250 17/10 A3008 RMK AO2 SLP186 T01670100=
201901082152 METAR KATL 082152Z 27010KT 10SM FEW040 SCT050 BKN250 18/11 A3008 RMK AO2 SLP183 T01780106=
201901082052 METAR KATL 082052Z 26007KT 10SM FEW025 FEW035 BKN250 18/12 A3008 RMK AO2 SLP183 T01780117 58004=
201901081952 METAR KATL 081952Z 25011KT 10SM FEW020 SCT030 SCT040 BKN250 18/12 A3009 RMK AO2 SLP186 T01780117=
201901081950 SPECI KATL 081950Z 25008KT 10SM FEW020 SCT030 SCT040 BKN250 18/12 A3009 RMK AO2=
201901081852 METAR KATL 081852Z 26011KT 10SM BKN018 BKN023 BKN040 17/12 A3009 RMK AO2 SLP187 T01720117=
201901081752 METAR KATL 081752Z 26010KT 10SM BKN015 BKN020 OVC040 16/12 A3011 RMK AO2 SLP193 60000 T01610117 10161 20100 58020=
201901081652 METAR KATL 081652Z 27007KT 10SM BKN012 BKN020 OVC040 16/12 A3013 RMK AO2 SLP202 T01610117=
201901081602 SPECI KATL 081602Z 25010KT 10SM SCT012 BKN018 BKN040 16/12 A3016 RMK AO2 T01560117=
201901081552 METAR KATL 081552Z 24007KT 10SM FEW012 BKN030 BKN050 15/12 A3017 RMK AO2 RAE06 SLP213 P0000 T01500117=
201901081511 SPECI KATL 081511Z 24009KT 10SM BKN020 BKN030 OVC040 14/11 A3017 RMK AO2 RAE06 P0000 T01390111=
201901081452 METAR KATL 081452Z 24007KT 7SM -RA FEW030 BKN040 OVC050 13/10 A3017 RMK AO2 RAB49 SLP214 P0000 60000 T01330100 53007=
201901081352 METAR KATL 081352Z 24006KT 10SM FEW026 SCT036 BKN047 BKN250 12/08 A3016 RMK AO2 SLP213 SHRA N-NE & W-N T01220083=
201901081316 SPECI KATL 081316Z 25003KT 10SM SCT026 BKN032 BKN048 OVC250 11/07 A3016 RMK AO2 T01110072=
201901081252 METAR KATL 081252Z 21004KT 10SM BKN024 BKN033 BKN250 11/07 A3015 RMK AO2 SLP208 T01060072=
201901081222 SPECI KATL 081222Z 21004KT 10SM BKN026 BKN250 11/07 A3015 RMK AO2 T01060067=
201901081152 METAR KATL 081152Z 23004KT 10SM FEW060 SCT200 SCT250 10/07 A3015 RMK AO2 SLP208 T01000067 10128 20100 55005=
201901081052 METAR KATL 081052Z 20005KT 10SM FEW060 SCT200 BKN250 11/07 A3014 RMK AO2 SLP206 T01060067=
201901080952 METAR KATL 080952Z 22003KT 10SM FEW120 SCT200 OVC250 11/07 A3015 RMK AO2 SLP208 T01110067=
201901080852 METAR KATL 080852Z 21004KT 10SM FEW120 SCT200 OVC250 12/07 A3016 RMK AO2 SLP211 T01170067 50002=
201901080752 METAR KATL 080752Z 23004KT 10SM FEW120 SCT200 OVC250 12/07 A3018 RMK AO2 SLP216 T01220067=
201901080652 METAR KATL 080652Z 22004KT 10SM SCT120 SCT200 OVC250 12/07 A3017 RMK AO2 SLP213 T01220067=
201901080552 METAR KATL 080552Z 20005KT 10SM SCT140 BKN200 BKN250 13/07 A3016 RMK AO2 SLP209 T01280067 10161 20128 50002=
201901080452 METAR KATL 080452Z 20003KT 10SM FEW130 BKN200 BKN250 13/07 A3016 RMK AO2 SLP213 T01330067 402060072=
201901080352 METAR KATL 080352Z 18009KT 10SM BKN130 BKN200 OVC250 14/06 A3015 RMK AO2 SLP207 T01440061=
201901080252 METAR KATL 080252Z 16008KT 10SM FEW150 SCT200 BKN250 14/06 A3015 RMK AO2 SLP209 T01440056 58007=
201901080152 METAR KATL 080152Z 16006KT 10SM FEW200 BKN250 14/06 A3018 RMK AO2 SLP218 T01440056=
201901080052 METAR KATL 080052Z 17005KT 10SM SCT200 BKN250 16/06 A3019 RMK AO2 SLP223 T01560061=
201901072352 METAR KATL 072352Z 16006KT 10SM FEW200 BKN250 16/06 A3017 RMK AO2 SLP218 T01560061 10206 20156 50001=
201901072252 METAR KATL 072252Z 16004KT 10SM FEW150 SCT250 17/06 A3018 RMK AO2 SLP219 T01670061=
201901072152 METAR KATL 072152Z 18010KT 10SM FEW150 SCT200 BKN250 19/05 A3018 RMK AO2 SLP218 T01890050=
201901072052 METAR KATL 072052Z 18008KT 10SM FEW150 SCT200 BKN250 20/04 A3017 RMK AO2 SLP214 T02000044 56014=
201901071952 METAR KATL 071952Z 16007KT 10SM BKN200 BKN250 20/05 A3017 RMK AO2 SLP215 T02000050=
201901071852 METAR KATL 071852Z 17007KT 10SM FEW150 SCT200 BKN250 19/05 A3018 RMK AO2 SLP217 T01940050=
201901071752 METAR KATL 071752Z 19010KT 10SM FEW150 SCT200 BKN250 19/06 A3021 RMK AO2 SLP228 T01890056 10189 20072 58023=
201901071652 METAR KATL 071652Z 18010KT 10SM FEW150 SCT200 BKN250 18/06 A3025 RMK AO2 SLP241 T01780061=
201901071552 METAR KATL 071552Z 13004KT 10SM FEW150 SCT200 BKN250 15/07 A3028 RMK AO2 SLP253 T01500067=
201901071452 METAR KATL 071452Z 12004KT 10SM FEW150 FEW200 BKN250 12/07 A3028 RMK AO2 SLP255 T01220067 51020=
201901071352 METAR KATL 071352Z 10004KT 10SM FEW150 SCT200 SCT250 10/06 A3027 RMK AO2 SLP252 T01000056=
201901071252 METAR KATL 071252Z 13003KT 10SM FEW150 SCT200 SCT250 07/04 A3025 RMK AO2 SLP245 T00720039=
201901071152 METAR KATL 071152Z 00000KT 10SM FEW200 SCT250 07/04 A3022 RMK AO2 SLP234 T00720039 10100 20072 53007=
201901071052 METAR KATL 071052Z 00000KT 10SM FEW200 BKN250 08/04 A3022 RMK AO2 SLP232 T00780039=
201901070952 METAR KATL 070952Z 00000KT 10SM FEW200 SCT250 08/04 A3020 RMK AO2 SLP226 T00830039=
201901070852 METAR KATL 070852Z 00000KT 10SM FEW200 SCT250 09/04 A3020 RMK AO2 SLP225 T00890044 58002=
201901070752 METAR KATL 070752Z 00000KT 10SM FEW150 BKN220 08/04 A3022 RMK AO2 SLP230 T00830044=
201901070652 METAR KATL 070652Z 00000KT 10SM FEW150 BKN250 09/04 A3022 RMK AO2 SLP231 T00890039=
201901070552 METAR KATL 070552Z 00000KT 10SM FEW150 SCT250 09/04 A3021 RMK AO2 SLP228 T00940044 10172 20094 55000=
201901070452 METAR KATL 070452Z 00000KT 10SM FEW150 FEW250 11/04 A3020 RMK AO2 SLP226 T01060039 402060061=
201901070352 METAR KATL 070352Z 25003KT 10SM FEW150 SCT250 11/04 A3021 RMK AO2 SLP231 T01060039=
201901070252 METAR KATL 070252Z 30003KT 10SM FEW150 FEW250 12/04 A3021 RMK AO2 SLP229 T01220044 51010=
201901070152 METAR KATL 070152Z 33003KT 10SM FEW001 FEW150 SCT200 SCT250 13/04 A3020 RMK AO2 SLP228 FU FEW001 T01280039=
201901070052 METAR KATL 070052Z 30003KT 10SM FEW150 SCT200 SCT250 13/05 A3019 RMK AO2 SLP225 T01330050=
201901062352 METAR KATL 062352Z 34004KT 10SM FEW200 SCT250 17/03 A3018 RMK AO2 SLP219 T01720033 10206 20167 53007=
201901062252 METAR KATL 062252Z 33003KT 10SM FEW150 FEW200 SCT250 18/03 A3017 RMK AO2 SLP215 T01780033=
201901062152 METAR KATL 062152Z 31005KT 10SM FEW250 19/04 A3017 RMK AO2 SLP214 T01940039=
201901062052 METAR KATL 062052Z 31007KT 10SM FEW250 20/03 A3016 RMK AO2 SLP211 T02000033 55004=
201901061952 METAR KATL 061952Z 00000KT 10SM FEW250 21/04 A3015 RMK AO2 SLP206 T02060039=
201901061852 METAR KATL 061852Z 31005KT 10SM CLR 20/04 A3016 RMK AO2 SLP210 T02000039=
201901061752 METAR KATL 061752Z 30008KT 10SM FEW250 18/04 A3017 RMK AO2 SLP215 T01830044 10183 20061 58013=
201901061652 METAR KATL 061652Z 32007KT 10SM FEW200 17/04 A3020 RMK AO2 SLP227 T01670044=
201901061552 METAR KATL 061552Z 32006KT 10SM FEW200 14/04 A3022 RMK AO2 SLP234 T01440039=
201901061452 METAR KATL 061452Z 32007KT 10SM FEW200 12/03 A3021 RMK AO2 SLP231 T01170033 53016=
201901061352 METAR KATL 061352Z 31007KT 10SM FEW200 08/03 A3019 RMK AO2 SLP225 T00830033=
201901061252 METAR KATL 061252Z 31007KT 10SM FEW200 06/03 A3017 RMK AO2 SLP220 T00610028=
201901061152 METAR KATL 061152Z 31008KT 10SM CLR 07/03 A3016 RMK AO2 SLP215 T00670028 10089 20067 53006=
201901061052 METAR KATL 061052Z 32009KT 10SM CLR 07/03 A3015 RMK AO2 SLP211 T00720028=
201901060952 METAR KATL 060952Z 31008KT 10SM CLR 07/03 A3014 RMK AO2 SLP208 T00720028=
201901060852 METAR KATL 060852Z 31008KT 10SM CLR 07/03 A3014 RMK AO2 SLP208 T00720028 50005=
201901060752 METAR KATL 060752Z 31007KT 10SM CLR 08/03 A3014 RMK AO2 SLP208 T00780028=
201901060652 METAR KATL 060652Z 32009KT 10SM CLR 08/03 A3014 RMK AO2 SLP207 T00830028=
201901060552 METAR KATL 060552Z 32008KT 10SM CLR 08/03 A3013 RMK AO2 SLP203 T00830028 10117 20083 53004=
201901060452 METAR KATL 060452Z 31005KT 10SM CLR 08/02 A3010 RMK AO2 SLP195 T00830022 401500067=
201901060352 METAR KATL 060352Z 32010KT 10SM CLR 09/02 A3012 RMK AO2 SLP200 T00940022=
201901060252 METAR KATL 060252Z 31010KT 10SM CLR 09/03 A3011 RMK AO2 SLP200 T00940028 51008=
201901060152 METAR KATL 060152Z 30007KT 10SM CLR 10/03 A3011 RMK AO2 SLP200 T01000028=
201901060052 METAR KATL 060052Z 29006KT 10SM CLR 11/03 A3010 RMK AO2 SLP197 T01060028=
201901052352 METAR KATL 052352Z 29006G17KT 10SM CLR 12/03 A3009 RMK AO2 SLP191 T01170028 10150 20117 53018=
201901052252 METAR KATL 052252Z 32012KT 10SM CLR 13/02 A3007 RMK AO2 PK WND 33029/2201 SLP184 T01280022=
201901052152 METAR KATL 052152Z 32011G25KT 10SM CLR 14/02 A3005 RMK AO2 SLP176 T01440022=
201901052052 METAR KATL 052052Z 31012KT 10SM CLR 15/02 A3004 RMK AO2 SLP171 T01500022 53007=
201901051952 METAR KATL 051952Z 32015KT 10SM CLR 14/01 A3002 RMK AO2 SLP165 T01440011=
201901051852 METAR KATL 051852Z 31018G24KT 10SM CLR 14/02 A3000 RMK AO2 SLP160 T01390017=
201901051752 METAR KATL 051752Z 29015KT 10SM CLR 13/02 A3001 RMK AO2 SLP165 T01280017 10128 20067 58007=
201901051652 METAR KATL 051652Z 30016G21KT 10SM CLR 11/02 A3003 RMK AO2 SLP171 T01060017=
201901051552 METAR KATL 051552Z 28012KT 10SM CLR 09/02 A3004 RMK AO2 SLP176 T00940022=
201901051452 METAR KATL 051452Z 30012G20KT 10SM FEW020 08/02 A3004 RMK AO2 SLP175 T00780022 53033=
201901051352 METAR KATL 051352Z 29010KT 10SM SCT020 07/03 A3000 RMK AO2 SLP163 SCT020 V BKN T00720028=
201901051349 SPECI KATL 051349Z 29012KT 10SM SCT020 07/03 A3000 RMK AO2 SCT020 V BKN=
201901051252 METAR KATL 051252Z 29011KT 10SM BKN018 BKN025 07/03 A2996 RMK AO2 SLP149 T00670033=
201901051152 METAR KATL 051152Z 28011KT 10SM BKN016 07/03 A2994 RMK AO2 SLP140 70056 T00670028 10072 20067 53017=
201901051052 METAR KATL 051052Z 28012KT 10SM BKN018 07/02 A2991 RMK AO2 SLP130 T00670022=
201901050952 METAR KATL 050952Z 28011G21KT 10SM OVC017 07/03 A2990 RMK AO2 PK WND 29026/0913 SLP125 T00670028=
201901050852 METAR KATL 050852Z 29016G20KT 10SM OVC019 07/02 A2989 RMK AO2 SLP119 T00720022 53015=
201901050752 METAR KATL 050752Z 29018G22KT 10SM OVC020 07/02 A2986 RMK AO2 PK WND 27026/0721 SLP110 T00720022=
201901050652 METAR KATL 050652Z 28015G24KT 10SM BKN019 BKN027 07/02 A2986 RMK AO2 SLP109 T00720022=
201901050615 SPECI KATL 050615Z 27012KT 10SM SCT018 BKN027 07/03 A2984 RMK AO2 T00720028=
201901050552 METAR KATL 050552Z 28011KT 10SM SCT018 BKN030 BKN040 07/03 A2984 RMK AO2 SLP105 T00720028 10106 20072 53006=
201901050452 METAR KATL 050452Z 27017G21KT 10SM FEW020 BKN032 OVC040 08/03 A2983 RMK AO2 SLP100 BINOVC T00780028 401890072=
201901050407 SPECI KATL 050407Z 26010KT 10SM SCT020 BKN032 BKN040 08/03 A2982 RMK AO2 T00780033=
201901050352 METAR KATL 050352Z 26012KT 10SM BKN022 BKN040 08/03 A2982 RMK AO2 SLP097 T00780033=
201901050252 METAR KATL 050252Z 26010KT 10SM SCT028 07/03 A2982 RMK AO2 SLP099 T00720028 51024=
201901050152 METAR KATL 050152Z 27015G21KT 10SM FEW028 SCT035 08/03 A2980 RMK AO2 SLP092 T00830028=
201901050052 METAR KATL 050052Z 26015G27KT 10SM FEW032 BKN045 09/03 A2978 RMK AO2 PK WND 26027/0047 SLP083 T00940033=
201901042352 METAR KATL 042352Z 27010G24KT 10SM SCT035 11/04 A2975 RMK AO2 SLP074 T01060044 10189 20106 51036=
201901042252 METAR KATL 042252Z 25011G22KT 10SM FEW032 12/04 A2971 RMK AO2 PK WND 24028/2154 SLP060 T01170039=
201901042152 METAR KATL 042152Z 26022G29KT 10SM SCT034 SCT250 14/07 A2968 RMK AO2 PK WND 26030/2134 SLP049 CB DSNT NE SHRA DSNT NE T01440072=
201901042052 METAR KATL 042052Z 24010KT 10SM BKN040TCU BKN070 BKN100 18/09 A2964 RMK AO2 PK WND 20027/2018 SLP034 CB DSNT N TCU OHD-NE-SE-S SHRA DSNT N VC NE-SE-S T01780094 55018=
201901041952 METAR KATL 041952Z 19013G24KT 10SM FEW030CB FEW150 BKN250 19/11 A2963 RMK AO2 SLP028 CB SW-NW MOV NE SHRA VC SW-NW T01890106=
201901041852 METAR KATL 041852Z 20015G21KT 10SM FEW021 SCT027 BKN040 BKN150 18/13 A2966 RMK AO2 SLP041 T01830133=
201901041830 SPECI KATL 041830Z 20010KT 10SM FEW008 SCT013 BKN150 BKN250 18/14 A2966 RMK AO2 T01780144=
201901041809 SPECI KATL 041809Z 19008KT 7SM BR SCT008 BKN013 BKN150 17/14 A2968 RMK AO2 T01670144=
201901041752 METAR KATL 041752Z 18008KT 6SM BR FEW004 BKN007 OVC012 16/14 A2970 RMK AO2 SLP053 60056 T01610144 10161 20128 58030=
201901041738 SPECI KATL 041738Z 19005KT 6SM FEW004 BKN007 OVC010 16/14 A2970 RMK AO2 T01560144=
201901041652 METAR KATL 041652Z 17004KT 1/2SM R09R/P6000FT BR BCFG OVC003 14/13 A2974 RMK AO2 SFC VIS 4 DZE48 SLP070 TWRINC P0000 T01440133=
201901041552 METAR KATL 041552Z 11008KT 1/2SM R09R/P6000FT -DZ BR OVC003 14/13 A2977 RMK AO2 SFC VIS 6 SLP080 CIG 002V004 TWRINC P0000 T01390128=
201901041541 SPECI KATL 041541Z 11008KT 1/2SM R09R/P6000FT -DZ OVC003 14/12 A2978 RMK AO2 SFC VIS 8 CIG 002V004 TWRINC P0000 T01390122=
201901041533 SPECI KATL 041533Z 10007KT 2SM -DZ OVC004 14/12 A2979 RMK AO2 SFC VIS 8 CIG 003V005 P0000 T01390122=
201901041452 METAR KATL 041452Z 09004KT 2SM -DZ BR BKN005 OVC012 13/12 A2979 RMK AO2 SFC VIS 4 RAE17DZB17 SLP085 CIG 004V007 P0000 60056 T01330122 56012=
201901041352 METAR KATL 041352Z 10009KT 2SM -RA OVC006 13/12 A2980 RMK AO2 SFC VIS 8 SLP088 CIG 004V007 PCPN VRY LGT P0025 T01330117=
201901041330 SPECI KATL 041330Z 10008G16KT 2SM -RA BKN005 BKN018 OVC033 13/12 A2980 RMK AO2 SFC VIS 8 CIG 004V007 P0024 T01280117=
201901041318 SPECI KATL 041318Z 10008G18KT 2SM -RA BKN004 BKN015 OVC045 13/12 A2979 RMK AO2 SFC VIS 7 CIG 003V006 P0024 T01330117=
201901041252 METAR KATL 041252Z 10008KT 1/2SM R09R/P6000FT +RA BR BKN004 BKN011 OVC020 13/12 A2980 RMK AO2 SFC VIS 1 1/2 SLP091 CIG 003V006 P0031 T01280117=
201901041152 METAR KATL 041152Z 09011KT 1/2SM R09R/P6000FT RA BR OVC003 13/12 A2982 RMK AO2 SFC VIS 4 SLP098 CIG 002V005 TWRINC P0009 60088 70100 T01280117 10128 20122 58026=
201901041137 SPECI KATL 041137Z 08012KT 1/2SM R09R/P6000FT -RA BR BKN003 OVC010 12/11 A2982 RMK AO2 SFC VIS 4 CIG 002V005 TWRINC P0007 T01220111=
201901041052 METAR KATL 041052Z 09014KT 1 1/4SM -RA BR BKN004 BKN018 OVC055 12/11 A2985 RMK AO2 SFC VIS 6 SLP106 CIG 003V006 P0021 T01220111=
201901040952 METAR KATL 040952Z 09008KT 1 1/4SM RA BR BKN004 BKN016 OVC040 13/12 A2988 RMK AO2 SFC VIS 3 SLP119 CIG 003V006 P0032 T01280117=
201901040852 METAR KATL 040852Z 09010KT 1 1/4SM RA BR OVC004 13/12 A2990 RMK AO2 SFC VIS 3 SLP125 CIG 003V005 P0014 60026 T01280117 56022 $=
201901040752 METAR KATL 040752Z 10007KT 1 1/4SM -RA BR OVC004 13/12 A2992 RMK AO2 SFC VIS 4 SLPNO CIG 003V005 P0007 T01280117 $=
201901040652 METAR KATL 040652Z 10007KT 3SM -RA BR BKN004 OVC028 12/11 A2995 RMK AO2 SFC VIS 4 SLP140 CIG 003V005 P0005 T01220111 $=
201901040558 SPECI KATL 040558Z 09007KT 3SM -RA BR BKN004 OVC009 12/11 A2996 RMK AO2 SFC VIS 4 CIG 003V005 P0000 T01220111 $=
201901040552 METAR KATL 040552Z 10005KT 3SM -RA BR BKN007 BKN040 OVC110 12/12 A2997 RMK AO2 SFC VIS 4 SLP148 P0000 60006 T01220117 10128 20122 56013 $=
201901040452 METAR KATL 040452Z 08003KT 3SM -RA BR BKN007 BKN080 OVC110 12/11 A2998 RMK AO2 SFC VIS 4 SLP153 BKN007 V SCT P0002 T01220111 401280106 $=
201901040352 METAR KATL 040352Z 08005KT 3SM -RA BR BKN007 BKN030 OVC110 13/11 A2998 RMK AO2 SFC VIS 5 SLP152 P0001 T01280111 $=
201901040337 SPECI KATL 040337Z 09005KT 3SM -RA BR SCT007 BKN030 OVC110 13/11 A3000 RMK AO2 SFC VIS 5 SCT007 V BKN P0001 T01280111 $=
201901040252 METAR KATL 040252Z 11003KT 1 1/2SM -RA BKN005 OVC110 13/12 A3001 RMK AO2 SFC VIS 7 SLP162 CIG 003V008 P0000 60003 T01280117 55004 $=
201901040152 METAR KATL 040152Z 02007KT 1 1/2SM -RA BR BKN004 OVC110 13/11 A3000 RMK AO2 SFC VIS 6 SLP159 CIG 003V007 P0001 T01280111 $=
201901040137 SPECI KATL 040137Z 02006KT 1 1/2SM -RA BR BKN004 BKN040 OVC110 13/11 A3000 RMK AO2 SFC VIS 6 CIG 003V007 P0001 T01280111 $=
201901040106 SPECI KATL 040106Z 35005KT 3SM -RA BR BKN005 BKN040 OVC110 12/11 A3001 RMK AO2 SFC VIS 6 CIG 003V008 P0001 T01220111 $=
201901040052 METAR KATL 040052Z 33003KT 6SM -RA BR BKN005 BKN050 OVC110 12/11 A3001 RMK AO2 SLP164 P0002 T01220111 $=
201901032352 METAR KATL 032352Z 30005KT 6SM -RA BR BKN005 BKN050 OVC110 12/11 A3002 RMK AO2 SLP167 P0000 60000 T01220111 10128 20117 53003 $=
201901032306 SPECI KATL 032306Z 00000KT 6SM -RA BR BKN005 BKN050 OVC110 12/11 A3001 RMK AO2 CIG 003V006 P0000 T01220111 $=
201901032252 METAR KATL 032252Z 18005KT 6SM -RA BR FEW004 BKN050 BKN110 OVC150 12/11 A3000 RMK AO2 RAB07 SLP159 P0000 T01220111 $=
201901032152 METAR KATL 032152Z 00000KT 9SM FEW005 BKN040 OVC100 12/11 A3001 RMK AO2 RAB08E18 SLP163 P0000 T01220106 $=
201901032115 SPECI KATL 032115Z 35003KT 6SM -RA BR BKN005 BKN040 OVC090 12/11 A3000 RMK AO2 RAB08 P0000 T01220106 $=
201901032052 METAR KATL 032052Z 32010KT 8SM FEW007 BKN040 OVC100 13/11 A3001 RMK AO2 RAB17E45 SLP164 P0000 60000 T01280106 $=
201901031958 SPECI KATL 031958Z 00000KT 8SM BKN007 BKN040 OVC080 12/11 A3002 RMK AO2 T01220106 $=
201901031952 METAR KATL 031952Z COR 00000KT 8SM BKN007 BKN040 OVC080 12/11 A3002 RMK AO2 T01220106 $=
201901031945 SPECI KATL 031945Z 30004KT 8SM BKN007 BKN020 OVC050 12/11 A3001 RMK AO2 T01220106=
201901031852 METAR KATL 031852Z 34009KT 1SM R09R/P6000FT BR BKN005 BKN040 OVC100 12/11 A3001 RMK AO2 SFC VIS 4 SLP162 T01220106=
201901031752 METAR KATL 031752Z 33012KT 1/2SM R09R/P6000FT BR BKN004 BKN050 OVC090 12/11 A3000 RMK AO2 SFC VIS 3 SLP158 TWRINC 60006 T01220111 10128 20111 56026=
201901031708 SPECI KATL 031708Z 01008KT 1/2SM R09R/P6000FT BR BKN004 BKN050 OVC100 12/11 A2999 RMK AO2 SFC VIS 3 PRESFR TWRINC T01220111 $=
201901031705 SPECI KATL 031705Z 36007KT 1 1/2SM BR BKN005 BKN050 OVC100 12/11 A3000 RMK AO2 SFC VIS 3 PRESFR T01220111 $=
201901031652 METAR KATL 031652Z 34007KT 1 1/2SM BR BKN005 BKN040 OVC100 13/11 A3001 RMK AO2 SFC VIS 4 RAE1555B12E27 SLP164 P0000 T01280111 $=
201901031643 SPECI KATL 031643Z 33007KT 1 1/2SM BR BKN005 BKN050 OVC100 13/11 A3003 RMK AO2 SFC VIS 4 RAE1555B12E27 TWRINC P0000 T01280106=
201901031625 SPECI KATL 031625Z 19005KT 1/2SM R09R/P6000FT -RA BR BKN004 BKN050 OVC090 12/11 A3003 RMK AO2 SFC VIS 4 RAE1555B12 TWRINC P0000 T01220111=
201901031557 SPECI KATL 031557Z 12004KT 1SM R09R/P6000FT BR FEW004 SCT040 OVC090 12/11 A3003 RMK AO2 SFC VIS 4 RAE55 P0000 T01170106=
201901031552 METAR KATL 031552Z 14006KT 1/2SM R09R/P6000FT -RA BR SCT004 BKN090 OVC110 12/11 A3003 RMK AO2 SFC VIS 3 SLP170 P0002 T01170106=
201901031510 SPECI KATL 031510Z 00000KT 3SM -RA BR BKN005 BKN050 OVC090 12/11 A3008 RMK AO2 SFC VIS 4 P0000 T01170106=
201901031452 METAR KATL 031452Z 00000KT 3SM -RA BR FEW004 SCT050 OVC100 12/10 A3008 RMK AO2 SFC VIS 5 RAE35B42 SLP185 P0002 60004 T01170100 51018=
201901031437 SPECI KATL 031437Z 16003KT 3SM BR FEW004 SCT050 OVC090 12/10 A3006 RMK AO2 SFC VIS 6 RAE35 P0002 T01170100=
201901031412 SPECI KATL 031412Z 00000KT 1 1/2SM -RA BR FEW004 BKN030 OVC050 11/10 A3006 RMK AO2 SFC VIS 3 P0001 T01110100=
201901031352 METAR KATL 031352Z 19003KT 1 1/4SM R09R/6000VP6000FT -RA BR BKN004 BKN015 OVC024 11/10 A3006 RMK AO2 TWR VIS 1 1/2 RAB28 SLP180 CIG 003V006 P0002 T01110100=
201901031348 SPECI KATL 031348Z 17003KT 1 1/4SM R09R/6000VP6000FT -RA BR BKN004 BKN015 OVC024 11/10 A3006 RMK AO2 TWR VIS 1 1/2 RAB28 CIG 003V006 P0001=
201901031343 SPECI KATL 031343Z 00000KT 1 1/2SM -RA BR SCT006 OVC022 11/10 A3006 RMK AO2 RAB28 P0000 T01110100=
201901031252 METAR KATL 031252Z 00000KT 4SM BR SCT004 BKN022 OVC065 11/10 A3004 RMK AO2 SLP172 T01110100=
201901031249 SPECI KATL 031249Z 12003KT 4SM BR SCT004 BKN022 OVC065 11/10 A3003 RMK AO2=
201901031213 SPECI KATL 031213Z 00000KT 1 1/4SM BR BKN005 OVC012 11/10 A3003 RMK AO2 SFC VIS 6 CIG 003V007 T01110100=
201901031152 METAR KATL 031152Z 00000KT 1/2SM R09R/P6000FT BR BKN003 OVC010 11/09 A3002 RMK AO2 SFC VIS 5 DZB11E48 SLP166 CIG 002V004 TWRINC P0000 60002 70060 T01110094 10111 20106 56006=
201901031139 SPECI KATL 031139Z 00000KT 1/2SM R09R/P6000FT -DZ BR OVC003 11/09 A3002 RMK AO2 SFC VIS 4 DZB11 CIG 002V004 TWRINC P0000 T01110094=
201901031052 METAR KATL 031052Z 01006KT 1 1/2SM BR BKN004 OVC012 11/09 A3002 RMK AO2 SFC VIS 6 DZE49 SLP167 CIG 003V006 P0000 T01110094=
201901031033 SPECI KATL 031033Z 04004KT 1 1/2SM -DZ BR BKN004 OVC012 11/09 A3002 RMK AO2 SFC VIS 5 CIG 003V006 P0000 T01110094=
201901031008 SPECI KATL 031008Z 04004KT 1/2SM R09R/P6000FT -DZ BR BKN004 OVC012 11/09 A3002 RMK AO2 SFC VIS 4 CIG 003V005 TWRINC P0000 T01110094=
201901030952 METAR KATL 030952Z 01004KT 1 1/2SM -DZ BR BKN004 OVC012 11/09 A3003 RMK AO2 SFC VIS 3 SLP170 CIG 003V006 P0000 T01060094=
201901030937 SPECI KATL 030937Z 04004KT 1 1/2SM -DZ BR BKN005 OVC012 11/09 A3003 RMK AO2 SFC VIS 5 CIG 004V007 P0000 T01060094=
201901030852 METAR KATL 030852Z 01006KT 1/2SM R09R/P6000FT -DZ BR BKN004 OVC010 11/09 A3004 RMK AO2 SFC VIS 3 SLP173 CIG 003V005 TWRINC P0000 60002 T01060094 50001=
201901030752 METAR KATL 030752Z 34005KT 1/2SM R09R/P6000FT -DZ BR BKN003 OVC010 11/09 A3004 RMK AO2 SFC VIS 2 DZE09B32RAB09E32 SLP173 CIG 002V004 TWRINC P0002 T01060094=
201901030652 METAR KATL 030652Z 34009KT 1/2SM R09R/P6000FT -DZ BR OVC003 11/09 A3005 RMK AO2 SFC VIS 1 1/2 DZE00B34RAB00E34 SLP176 CIG 002V004 TWRINC P0000 T01060094=
201901030552 METAR KATL 030552Z 16003KT 1/2SM R09R/P6000FT -DZ BR OVC003 11/09 A3004 RMK AO2 SFC VIS 5 RAE10B26E47DZB47 SLP170 CIG 002V004 TWRINC P0003 60039 T01060094 10106 20100 55012=
201901030452 METAR KATL 030452Z 09004KT 1/2SM R09R/P6000FT RA BR BKN004 BKN015 OVC030 10/09 A3003 RMK AO2 SFC VIS 2 SLP169 P0009 T01000094 401500094=
201901030352 METAR KATL 030352Z 10004KT 1/2SM R09R/P6000FT -RA BR BKN004 BKN015 OVC030 10/09 A3005 RMK AO2 SFC VIS 3 SLP175 P0008 T01000089=
201901030252 METAR KATL 030252Z 08007KT 1/2SM R09R/P6000FT -RA BR BKN004 BKN010 OVC030 10/09 A3007 RMK AO2 SFC VIS 3 RAE12B39 SLP182 P0001 60019 T01000089 58014=
201901030152 METAR KATL 030152Z 05005KT 1/2SM R09R/P6000FT -RA BR BKN004 BKN015 OVC050 11/09 A3010 RMK AO2 SFC VIS 4 SLP194 P0010 T01060089=
201901030052 METAR KATL 030052Z 03005KT 1/2SM R09R/P6000FT -RA BR BKN004 BKN010 OVC040 10/08 A3012 RMK AO2 SFC VIS 3 SLP200 P0008 T01000083=
201901030040 SPECI KATL 030040Z 04006KT 1/2SM R09R/P6000FT -RA BR BKN004 OVC030 10/08 A3012 RMK AO2 SFC VIS 3 P0008 T01000083=
201901022358 SPECI KATL 022358Z 04008KT 1SM R09R/P6000FT -RA BR BKN004 OVC040 10/08 A3012 RMK AO2 SFC VIS 3 P0002 T01000083=
201901022352 METAR KATL 022352Z 06008KT 2SM RA BR SCT005 BKN035 OVC050 10/08 A3011 RMK AO2 SFC VIS 3 RAB01 SLP198 SCT005 V BKN P0005 60019 T01000078 10144 20094 56008=
201901022326 SPECI KATL 022326Z 08006KT 2SM RA FEW010 BKN028 OVC040 10/07 A3012 RMK AO2 RAB01 P0003 T01000072=
201901022321 SPECI KATL 022321Z 06006KT 4SM RA FEW010 BKN028 OVC040 10/07 A3012 RMK AO2 RAB01 P0002 T01000072=
201901022252 METAR KATL 022252Z 08006KT 9SM FEW010 BKN038 OVC080 09/07 A3012 RMK AO2 RAB2158E19 SLP200 P0000 T00940067=
201901022152 METAR KATL 022152Z 11007KT 9SM FEW010 BKN040 OVC080 10/07 A3012 RMK AO2 RAE48 SLP202 P0003 T01000072=
201901022052 METAR KATL 022052Z 11006KT 6SM -RA BKN030 BKN040 OVC080 11/07 A3014 RMK AO2 RAB10 SLP206 P0004 60011 T01110072 55009=
201901022016 SPECI KATL 022016Z 35008KT 3SM -RA BKN030 BKN050 OVC080 12/07 A3014 RMK AO2 SFC VIS 4 RAB10 P0002 T01220072=
201901021952 METAR KATL 021952Z 01008KT 10SM BKN033 BKN050 OVC080 13/10 A3013 RMK AO2 RAE32 SLP202 P0002 T01330100=
201901021852 METAR KATL 021852Z 00000KT 5SM R09R/5500VP6000FT -RA BR FEW010 SCT040 OVC060 13/11 A3014 RMK AO2 RAB18 SLP206 P0005 T01330111=
201901021823 SPECI KATL 021823Z 34005KT 4SM RA SCT020 BKN040 OVC080 14/11 A3015 RMK AO2 RAB18 P0001 T01390106=
201901021815 SPECI KATL 021815Z 32004KT 10SM SCT020 BKN040 OVC080 14/11 A3016 RMK AO2 T01440106=
201901021752 METAR KATL 021752Z 36007KT 10SM BKN019 BKN030 OVC080 14/11 A3017 RMK AO2 RAB1659E15 SLP213 P0000 60000 T01440106 10150 20111 58017=
201901021659 SPECI KATL 021659Z 00000KT 10SM -RA BKN020 BKN030 OVC080 14/11 A3019 RMK AO2 RAB59 PRESFR P0000 T01390106=
201901021652 METAR KATL 021652Z 31004KT 10SM SCT020 BKN030 OVC080 14/11 A3020 RMK AO2 RAB42E52 SLP226 P0000 T01390111=
201901021625 SPECI KATL 021625Z 31005KT 10SM BKN029 BKN080 OVC100 14/11 A3022 RMK AO2 T01440106=
201901021552 METAR KATL 021552Z 01004KT 10SM SCT030 BKN070 OVC090 15/09 A3023 RMK AO2 SLP234 T01500094=
201901021452 METAR KATL 021452Z 00000KT 10SM FEW030 BKN080 BKN120 OVC200 14/11 A3022 RMK AO2 SLP230 T01390106 51019=
201901021352 METAR KATL 021352Z 32005KT 9SM BKN075 BKN120 BKN150 BKN220 12/10 A3022 RMK AO2 SLP231 T01220100=
201901021252 METAR KATL 021252Z 00000KT 8SM FEW100 SCT150 SCT220 11/09 A3017 RMK AO2 SLP217 T01110094=
201901021152 METAR KATL 021152Z 33003KT 9SM FEW100 BKN150 BKN220 11/09 A3016 RMK AO2 SLP211 T01110094 10139 20111 56001=
201901021052 METAR KATL 021052Z 33004KT 9SM FEW100 BKN150 12/10 A3016 RMK AO2 SLP212 T01170100=
201901020952 METAR KATL 020952Z 33004KT 10SM FEW100 BKN150 BKN220 12/11 A3015 RMK AO2 SLP207 T01220106=
201901020852 METAR KATL 020852Z 32004KT 10SM FEW100 BKN180 BKN220 12/11 A3016 RMK AO2 SLP211 T01220106 58002=
201901020752 METAR KATL 020752Z 29003KT 10SM SCT180 BKN220 13/11 A3018 RMK AO2 SLP217 T01280111=
201901020652 METAR KATL 020652Z 31003KT 10SM FEW080 BKN150 BKN220 13/11 A3017 RMK AO2 SLP215 T01330111=
201901020552 METAR KATL 020552Z 32003KT 10SM FEW080 BKN150 BKN200 14/11 A3017 RMK AO2 SLP213 T01390111 10167 20139 50001=
201901020452 METAR KATL 020452Z 30005KT 10SM BKN080 BKN150 BKN200 14/12 A3017 RMK AO2 SLP213 T01440117 401890144=
201901020352 METAR KATL 020352Z 34005KT 10SM BKN090 BKN150 BKN200 14/12 A3016 RMK AO2 SLP211 T01440117=
201901020252 METAR KATL 020252Z 33005KT 10SM BKN150 BKN200 15/12 A3016 RMK AO2 SLP211 T01500122 50001=
201901020152 METAR KATL 020152Z 33006KT 10SM FEW065 BKN150 OVC200 16/12 A3017 RMK AO2 SLP213 T01560122=
201901020052 METAR KATL 020052Z 28004KT 10SM SCT065 BKN150 OVC200 16/13 A3017 RMK AO2 SLP213 T01610133=
201901012352 METAR KATL 012352Z 29005KT 10SM BKN150 BKN200 BKN250 16/14 A3016 RMK AO2 SLP210 60000 T01610139 10189 20161 53013=
201901012252 METAR KATL 012252Z 28004KT 10SM BKN150 BKN200 BKN250 17/14 A3014 RMK AO2 SLP203 T01720139=
201901012152 METAR KATL 012152Z 31005KT 10SM SCT140 BKN200 18/13 A3013 RMK AO2 SLP198 T01780128=
201901012052 METAR KATL 012052Z 28004KT 10SM SCT075 BKN100 BKN170 BKN250 18/13 A3012 RMK AO2 SLP194 60000 T01830133 55004=
201901011952 METAR KATL 011952Z 32004KT 10SM FEW014 SCT090 BKN130 BKN250 18/13 A3011 RMK AO2 SLP190 T01780128=
201901011852 METAR KATL 011852Z 33005KT 10SM FEW012 BKN040 OVC095 17/13 A3013 RMK AO2 RAE04B30E41 SLP197 P0000 T01720133=
201901011752 METAR KATL 011752Z 31003KT 9SM -RA FEW012 OVC039 17/14 A3013 RMK AO2 RAB36 SLP198 P0000 60000 T01720139 10178 20156 58006=
201901011652 METAR KATL 011652Z 34004KT 10SM FEW010 SCT040 BKN070 17/14 A3014 RMK AO2 RAB32E46 SLP200 P0000 T01720139=
201901011620 SPECI KATL 011620Z 33004KT 10SM FEW010 SCT025 OVC055 17/14 A3015 RMK AO2 T01720139=
201901011552 METAR KATL 011552Z 32005KT 10SM FEW009 BKN024 OVC050 17/14 A3016 RMK AO2 SLP208 T01720144=
201901011505 SPECI KATL 011505Z 31004KT 10SM FEW007 BKN026 OVC050 17/14 A3015 RMK AO2 T01720144=
201901011452 METAR KATL 011452Z 31004KT 10SM FEW007 BKN050 OVC200 17/14 A3015 RMK AO2 SLP205 T01720144 53023=
201901011352 METAR KATL 011352Z 32004KT 8SM FEW006 SCT055 BKN095 BKN250 17/15 A3012 RMK AO2 SLP196 T01670150=
201901011328 SPECI KATL 011328Z 32003KT 6SM BR SCT006 SCT020 BKN250 16/15 A3012 RMK AO2 T01610150=
201901011252 METAR KATL 011252Z 00000KT 7SM SCT008 SCT020 BKN055 16/14 A3010 RMK AO2 SLP189 T01610144=
