##########################################################
# Query made at 04/20/2024 00:06:42 UTC
# Time interval: from 09/01/2019 12:00  to 09/30/2019 12:59  UTC
##########################################################

##########################################################
# KATL, Atlanta, Hartsfield - Jackson Atlanta International Airport (United States)
# WMO index: 72219. WIGOS ID: 0-20000-0-72219
# Latitude 33-38-59N. Longitude 084-25-00W. Altitude 312 m.
##########################################################

201909301252 METAR KATL 301252Z 30005KT 10SM FEW250 26/18 A3020 RMK AO2 SLP216 T02610183=
201909301152 METAR KATL 301152Z 32005KT 10SM CLR 25/18 A3019 RMK AO2 SLP212 T02500183 10261 20233 52008=
201909301052 METAR KATL 301052Z 30003KT 10SM CLR 24/18 A3018 RMK AO2 SLP209 T02390183=
201909300952 METAR KATL 300952Z 00000KT 10SM CLR 24/19 A3018 RMK AO2 SLP206 T02390194=
201909300852 METAR KATL 300852Z 00000KT 10SM CLR 24/20 A3017 RMK AO2 SLP203 T02390200 55005=
201909300752 METAR KATL 300752Z 00000KT 10SM CLR 24/19 A3016 RMK AO2 SLP203 T02440194 $=
201909300652 METAR KATL 300652Z 00000KT 10SM CLR 26/20 A3018 RMK AO2 SLP207 T02560200 $=
201909300552 METAR KATL 300552Z 00000KT 9SM CLR 26/19 A3018 RMK AO2 SLP209 T02560194 10300 20256 58003 $=
201909300452 METAR KATL 300452Z 00000KT 10SM CLR 26/20 A3019 RMK AO2 SLP210 T02610200 403390228 $=
201909300352 METAR KATL 300352Z 00000KT 10SM FEW250 27/19 A3019 RMK AO2 SLP212 T02720194 $=
201909300252 METAR KATL 300252Z 00000KT 10SM FEW250 28/19 A3019 RMK AO2 SLP213 T02780189 51011 $=
201909300152 METAR KATL 300152Z 00000KT 10SM FEW250 29/19 A3018 RMK AO2 SLP210 T02890189 $=
201909300052 METAR KATL 300052Z 00000KT 10SM FEW200 SCT250 29/18 A3017 RMK AO2 SLP205 T02940183 $=
201909292352 METAR KATL 292352Z 20004KT 10SM FEW200 SCT250 30/19 A3016 RMK AO2 SLP201 T03000189 10339 20300 56001 $=
201909292252 METAR KATL 292252Z 20005KT 10SM FEW060 FEW200 SCT250 SCT300 32/18 A3016 RMK AO2 SLP202 T03170183 $=
201909292152 METAR KATL 292152Z 17005KT 10SM FEW055 SCT200 SCT250 BKN300 32/18 A3016 RMK AO2 SLP200 T03220183 $=
201909292052 METAR KATL 292052Z 00000KT 10SM FEW050 SCT150 BKN250 33/19 A3016 RMK AO2 SLP201 T03330189 56016 $=
201909291952 METAR KATL 291952Z 16005KT 10SM FEW050 SCT250 33/19 A3017 RMK AO2 SLP205 T03280194 $=
201909291852 METAR KATL 291852Z VRB04KT 10SM FEW046 SCT250 32/19 A3019 RMK AO2 SLP210 T03220194=
201909291752 METAR KATL 291752Z 13007KT 10SM FEW040 SCT250 32/19 A3021 RMK AO2 SLP217 T03170194 10322 20228 58018=
201909291652 METAR KATL 291652Z 16003KT 10SM FEW040 FEW250 31/21 A3023 RMK AO2 SLP226 T03060206=
201909291552 METAR KATL 291552Z 00000KT 10SM FEW250 29/21 A3025 RMK AO2 SLP234 T02940211=
201909291452 METAR KATL 291452Z VRB03KT 10SM FEW250 27/21 A3026 RMK AO2 SLP237 T02670206 51009=
201909291352 METAR KATL 291352Z 19007KT 10SM FEW250 24/20 A3026 RMK AO2 SLP238 T02440200=
201909291252 METAR KATL 291252Z 12005KT 10SM FEW049 FEW200 23/20 A3025 RMK AO2 SLP234 T02330200=
201909291152 METAR KATL 291152Z 14004KT 10SM FEW049 FEW200 23/20 A3023 RMK AO2 SLP230 70055 T02280200 10250 20228 53017=
201909291052 METAR KATL 291052Z 11004KT 10SM FEW250 23/20 A3022 RMK AO2 SLP221 T02280200=
201909290952 METAR KATL 290952Z 12003KT 10SM FEW250 23/21 A3020 RMK AO2 SLP213 T02280206=
201909290852 METAR KATL 290852Z 00000KT 10SM CLR 23/21 A3018 RMK AO2 SLP209 T02330206 53004=
201909290752 METAR KATL 290752Z 13005KT 10SM FEW250 24/21 A3017 RMK AO2 SLP206 T02390211=
201909290652 METAR KATL 290652Z 10005KT 10SM FEW250 24/21 A3018 RMK AO2 SLP207 T02440211=
201909290552 METAR KATL 290552Z 06007KT 10SM FEW250 25/21 A3017 RMK AO2 SLP205 60017 T02500211 10261 20228 52007=
201909290452 METAR KATL 290452Z 07003KT 10SM FEW250 24/22 A3016 RMK AO2 SLP203 T02440217 403330217=
201909290352 METAR KATL 290352Z 05006KT 10SM FEW120 FEW250 25/22 A3016 RMK AO2 SLP202 T02500217=
201909290252 METAR KATL 290252Z 00000KT 10SM FEW048 FEW120 SCT200 SCT250 25/21 A3015 RMK AO2 SLP199 60017 T02500211 55010=
201909290152 METAR KATL 290152Z 00000KT 10SM FEW075 FEW120 SCT200 BKN250 24/22 A3014 RMK AO2 RAE18 SLP198 P0000 T02440217=
201909290052 METAR KATL 290052Z 11005KT 10SM -RA FEW065 BKN100 BKN200 BKN250 24/21 A3014 RMK AO2 LTG DSNT NW-NE RAE38B51 SLP197 TSE39 TS DSIPTD CB DSNT NW-NE P0017 T02440206=
201909290038 SPECI KATL 290038Z 11007KT 10SM BKN050CB BKN075 OVC110 24/20 A3014 RMK AO2 LTG DSNT NW-E RAE38 PRESFR OCNL LTGICCA NE-E TS NE-E MOV N CB DSNT NW-NE-SE P0017 T02440200=
201909290023 SPECI KATL 290023Z 09007KT 5SM -TSRA SCT022 BKN044CB OVC070 23/19 A3016 RMK AO2 LTG DSNT N-SE OCNL LTGICCA NE-E TS NE-E MOV N CB DSNT NW-NE-SE P0017 T02330194=
201909282352 METAR KATL 282352Z COR 16013G24KT 2SM R09R/5000VP6000FT +TSRA SCT012 BKN028CB OVC050 23/19 A3018 RMK AO2 PK WND 19036/2336 WSHFT 2259 RAB20 SLP211 VIS SE-SW 1 CONS LTGICCGCA OHD-ALQDS TS OHD-ALQDS MOV NW P0038 60038 T02280194 10333=
201909282345 SPECI KATL 282345Z 18015G36KT 2SM R09R/5000VP6000FT +TSRA BR FEW010 BKN034CB OVC080 22/20 A3018 RMK AO2 PK WND 19036/2336 WSHFT 2259 RAB20 VIS SE-SW-W 1 CONS LTGICCGCA SE-OHD-W TS SE-OHD-W MOV NW P0020 T02220200=
201909282331 SPECI KATL 282331Z 20022G34KT 8SM TSRA FEW014 BKN036CB BKN080 BKN200 22/19 A3017 RMK AO2 PK WND 19034/2326 WSHFT 2259 RAB20 VIS LWR SE-SW CONS LTGICCGCA SE-SW TS SE-SW MOV NW CB DSNT N P0002 T02220194=
201909282316 SPECI KATL 282316Z 20018G24KT 10SM TS FEW022 BKN038CB BKN080 BKN200 27/20 A3015 RMK AO2 WSHFT 2259 CONS LTGICCGCA SE-SW TS SE-SW MOV NW CB DSNT N SE-SW SHRA SE-SW T02670200=
201909282312 SPECI KATL 282312Z 20013G21KT 10SM TS FEW022 SCT038CB BKN080 BKN200 27/20 A3015 RMK AO2 LTG DSNT ALQDS CONS LTGICCGCA SE-SW TS SE-SW MOV NW CB DSNT N SE-SW SHRA SE-SW T02720200=
201909282252 METAR KATL 282252Z 05006KT 10SM TS SCT045CB BKN075 BKN200 BKN250 32/21 A3012 RMK AO2 TSB39 SLP188 FRQ LTGICCGCA SE-S TS SE-S MOV NW CB DSNT N SE-SW TCU DSNT NE T03220206=
201909282240 SPECI KATL 282240Z 05008KT 10SM TS SCT045CB SCT075 SCT200 SCT250 32/21 A3011 RMK AO2 LTG DSNT SE-SW TSB39 FRQ LTGICCGCA SE-SW TS SE-SW MOV NW CB DSNT SE-SW T03220206=
201909282152 METAR KATL 282152Z 05008KT 10SM FEW045TCU SCT075 SCT200 SCT250 33/21 A3011 RMK AO2 LTG DSNT SE-SW SLP183 CB DSNT SE-SW TCU SE DSNT NE-SE T03280206=
201909282052 METAR KATL 282052Z VRB05KT 10SM FEW045 FEW250 33/21 A3010 RMK AO2 LTG DSNT SE SLP182 CB DSNT SE MDT CU SE-SW T03280206 56013=
201909281952 METAR KATL 281952Z 04006KT 10SM FEW045 32/21 A3011 RMK AO2 SLP184 T03220206=
201909281852 METAR KATL 281852Z 07007KT 10SM SCT040 32/21 A3013 RMK AO2 SLP189 T03220206=
201909281752 METAR KATL 281752Z VRB05KT 10SM SCT036 31/21 A3014 RMK AO2 SLP195 T03110206 10317 20233 58007=
201909281652 METAR KATL 281652Z 00000KT 10SM FEW030 BKN065 31/21 A3016 RMK AO2 SLP200 T03060206=
201909281552 METAR KATL 281552Z 09006KT 10SM FEW034 29/21 A3017 RMK AO2 SLP204 T02940206=
201909281452 METAR KATL 281452Z VRB03KT 10SM CLR 28/21 A3016 RMK AO2 SLP203 T02780206 51017=
201909281352 METAR KATL 281352Z VRB06KT 10SM FEW018 SCT150 26/20 A3015 RMK AO2 SLP198 T02560200=
201909281252 METAR KATL 281252Z VRB05KT 10SM FEW014 24/20 A3014 RMK AO2 SLP194 T02440200=
201909281152 METAR KATL 281152Z 09007KT 10SM FEW070 FEW120 23/20 A3011 RMK AO2 SLP185 T02330200 10267 20233 53022=
201909281052 METAR KATL 281052Z 10006KT 10SM FEW120 24/21 A3008 RMK AO2 SLP175 T02390206=
201909280952 METAR KATL 280952Z 12005KT 10SM FEW120 24/20 A3006 RMK AO2 SLP168 T02440200=
201909280852 METAR KATL 280852Z 12004KT 10SM FEW075 FEW120 SCT220 25/20 A3005 RMK AO2 SLP161 T02500200 51004=
201909280752 METAR KATL 280752Z 15003KT 10SM FEW075 FEW120 SCT220 26/20 A3004 RMK AO2 SLP159 T02560200=
201909280652 METAR KATL 280652Z 00000KT 10SM FEW075 SCT120 SCT150 SCT220 26/19 A3005 RMK AO2 SLP162 T02610194=
201909280552 METAR KATL 280552Z 13004KT 10SM FEW080 BKN110 BKN150 OVC220 27/19 A3004 RMK AO2 SLP158 OCNL LTG DSNT NW CB DSNT NW T02670189 10317 20267 51007=
201909280452 METAR KATL 280452Z 15007KT 10SM FEW080 SCT110 BKN150 OVC200 28/19 A3003 RMK AO2 SLP155 T02780189 403610244=
201909280352 METAR KATL 280352Z 16007KT 10SM FEW080 BKN200 28/19 A3002 RMK AO2 SLP153 LTG DSNT NW T02830189=
201909280252 METAR KATL 280252Z 16003KT 10SM SCT080 SCT110 BKN250 29/19 A3001 RMK AO2 SLP151 T02890189 53013=
201909280152 METAR KATL 280152Z 11004KT 10SM BKN080 BKN110 BKN250 31/18 A3000 RMK AO2 SLP145 T03060183=
201909280052 METAR KATL 280052Z 00000KT 10SM FEW100 FEW250 30/18 A2999 RMK AO2 SLP143 T03000183=
201909272352 METAR KATL 272352Z 18004KT 10SM FEW070 SCT110 SCT250 32/18 A2997 RMK AO2 SLP138 ACC E-SE T03170178 10361 20317 53007=
201909272252 METAR KATL 272252Z 18004KT 10SM FEW070TCU SCT100 BKN150 BKN250 33/17 A2996 RMK AO2 SLP133 TCU OHD-E T03330172=
201909272152 METAR KATL 272152Z 20010KT 10SM FEW070 SCT110 BKN150 BKN250 34/17 A2995 RMK AO2 SLP129 MDT CU NW-NE T03440167=
201909272052 METAR KATL 272052Z 10SM FEW070 BKN120 BKN250 34/16 A2995 RMK AO2 SLP130 MDT CU NE-SE & W-NW T03440161 56021 $=
201909271952 METAR KATL 271952Z 00000KT 10SM FEW070 SCT090 BKN130 BKN250 35/17 A2996 RMK AO2 SLP133 T03500167=
201909271852 METAR KATL 271852Z 14005KT 10SM FEW065 SCT120 BKN250 35/17 A2998 RMK AO2 SLP140 MDT CU W-NW T03500167=
201909271752 METAR KATL 271752Z 00000KT 10SM FEW060 FEW120 SCT250 34/17 A3002 RMK AO2 SLP151 T03390172 10344 20250 58011=
201909271652 METAR KATL 271652Z VRB04KT 10SM SCT120 SCT250 33/18 A3003 RMK AO2 SLP157 T03280183=
201909271552 METAR KATL 271552Z 04003KT 10SM SCT120 31/19 A3004 RMK AO2 SLP161 T03110189=
201909271452 METAR KATL 271452Z 08006KT 10SM SCT120 29/19 A3005 RMK AO2 SLP163 T02890189 51013=
201909271352 METAR KATL 271352Z 08007KT 10SM SCT120 SCT250 27/18 A3004 RMK AO2 SLP160 T02720183=
201909271252 METAR KATL 271252Z 07008KT 10SM FEW120 FEW250 26/18 A3002 RMK AO2 SLP154 T02610183=
201909271152 METAR KATL 271152Z 05005KT 10SM FEW120 SCT250 25/18 A3001 RMK AO2 SLP150 T02500178 10261 20244 53016=
201909271052 METAR KATL 271052Z 07005KT 10SM FEW120 FEW200 24/18 A2999 RMK AO2 SLP143 T02440178=
201909270952 METAR KATL 270952Z 06005KT 10SM FEW120 25/18 A2997 RMK AO2 SLP138 T02500178=
201909270852 METAR KATL 270852Z 03007KT 10SM CLR 26/18 A2996 RMK AO2 SLP133 T02560178 53002=
201909270752 METAR KATL 270752Z 03006KT 10SM CLR 26/18 A2995 RMK AO2 SLP130 T02610178=
201909270652 METAR KATL 270652Z 34004KT 10SM FEW250 24/18 A2996 RMK AO2 SLP131 T02440183=
201909270552 METAR KATL 270552Z 33005KT 10SM FEW250 25/18 A2996 RMK AO2 SLP130 T02500183 10317 20250 51001=
201909270452 METAR KATL 270452Z 04006KT 10SM FEW250 28/18 A2995 RMK AO2 SLP130 T02780178 403500228=
201909270352 METAR KATL 270352Z 02007KT 10SM FEW250 28/18 A2996 RMK AO2 SLP132 T02830183=
201909270252 METAR KATL 270252Z 34007KT 10SM FEW250 28/18 A2995 RMK AO2 SLP130 T02830183 52014=
201909270152 METAR KATL 270152Z 34005KT 10SM FEW250 29/18 A2994 RMK AO2 SLP126 T02940178=
201909270052 METAR KATL 270052Z 33005KT 10SM FEW060 FEW250 31/17 A2992 RMK AO2 SLP120 T03110167=
201909262352 METAR KATL 262352Z 34004KT 10SM FEW060 FEW250 31/17 A2991 RMK AO2 SLP117 T03110167 10350 20311 53003=
201909262252 METAR KATL 262252Z 36006KT 10SM FEW060 FEW250 32/17 A2990 RMK AO2 SLP113 T03220167=
201909262152 METAR KATL 262152Z 35007KT 10SM FEW060 SCT120 SCT250 33/17 A2990 RMK AO2 WSHFT 2053 SLP113 T03280172=
201909262113 SPECI KATL 262113Z 36011KT 10SM FEW065 SCT100 BKN200 33/18 A2990 RMK AO2 WSHFT 2053 TCU DSNT N-NE SHRA DSNT N-NE T03280178=
201909262052 METAR KATL 262052Z 28009KT 10SM FEW065 FEW100 SCT250 34/16 A2990 RMK AO2 SLP112 CB DSNT N TCU DSNT SE SHRA DSNT N T03440161 56014=
201909261952 METAR KATL 261952Z 29008G16KT 10SM FEW060 FEW100 BKN250 34/18 A2991 RMK AO2 SLP116 TCU DSNT W MDT CU DSNT N S T03390178=
201909261852 METAR KATL 261852Z 29008G16KT 10SM FEW065 BKN100 BKN250 34/18 A2992 RMK AO2 SLP119 TCU DSNT SE-SW-NW T03440178=
201909261752 METAR KATL 261752Z 34011G17KT 9SM SCT055 SCT250 33/18 A2994 RMK AO2 SLP127 MDT CU N W T03330183 10333 20244 58013=
201909261652 METAR KATL 261652Z 33011G17KT 10SM FEW050 FEW200 SCT250 32/19 A2996 RMK AO2 SLP134 T03220189=
201909261552 METAR KATL 261552Z 36011G16KT 10SM FEW050 FEW070 SCT120 32/19 A2998 RMK AO2 SLP139 T03170189=
201909261452 METAR KATL 261452Z 32008KT 10SM FEW065 SCT120 SCT250 31/18 A2998 RMK AO2 SLP141 ACC NE-E-S-SW T03060183 51010=
201909261352 METAR KATL 261352Z 32005KT 10SM FEW065 FEW120 BKN250 29/18 A2998 RMK AO2 SLP138 T02890183=
201909261252 METAR KATL 261252Z 32005KT 10SM FEW055 FEW075 SCT120 SCT250 26/17 A2996 RMK AO2 SLP135 TCU DSNT NW-N ACC NW T02560172=
201909261152 METAR KATL 261152Z 00000KT 10SM FEW065 FEW075 SCT120 SCT250 24/17 A2995 RMK AO2 SLP130 ACC N-NE W-NW T02440172 10256 20228 52014=
201909261052 METAR KATL 261052Z 30004KT 10SM FEW070 BKN110 BKN250 24/17 A2994 RMK AO2 SLP126 ACC N NE-E W-NW T02440172=
201909260952 METAR KATL 260952Z 00000KT 10SM FEW065 BKN100 BKN250 23/18 A2992 RMK AO2 SLP119 T02330178=
201909260852 METAR KATL 260852Z 27004KT 10SM FEW065 FEW200 SCT250 24/17 A2991 RMK AO2 SLP116 T02390172 55003=
201909260752 METAR KATL 260752Z 27003KT 10SM FEW200 FEW250 24/17 A2990 RMK AO2 SLP111 T02390172 $=
201909260652 METAR KATL 260652Z 00000KT 10SM FEW250 24/17 A2991 RMK AO2 SLP115 T02440172 $=
201909260552 METAR KATL 260552Z 21003KT 10SM FEW250 25/17 A2992 RMK AO2 SLP119 T02500167 10311 20250 $=
201909260452 METAR KATL 260452Z 21003KT 10SM FEW250 26/17 A2993 RMK AO2 SLP122 T02560167 403390183 $=
201909260352 METAR KATL 260352Z 21003KT 10SM FEW250 26/17 A2994 RMK AO2 SLP125 T02610172=
201909260252 METAR KATL 260252Z 00000KT 10SM FEW250 27/17 A2993 RMK AO2 SLP124 T02670167 51012=
201909260152 METAR KATL 260152Z 00000KT 10SM SCT250 29/16 A2993 RMK AO2 SLP123 T02890161=
201909260052 METAR KATL 260052Z 32004KT 10SM SCT250 31/16 A2991 RMK AO2 SLP119 T03060156=
201909252352 METAR KATL 252352Z 33004KT 10SM FEW150 SCT250 31/16 A2989 RMK AO2 SLP112 T03110161 10339 20306 55001=
201909252252 METAR KATL 252252Z 29005KT 10SM FEW200 BKN250 32/16 A2989 RMK AO2 SLP111 T03170161=
201909252152 METAR KATL 252152Z 28006KT 10SM FEW200 BKN250 32/16 A2989 RMK AO2 SLP111 T03220161=
201909252052 METAR KATL 252052Z 28006KT 10SM FEW070 FEW200 SCT250 33/15 A2990 RMK AO2 SLP112 T03280150 56014=
201909251952 METAR KATL 251952Z 30006KT 10SM FEW070 SCT200 SCT250 33/15 A2990 RMK AO2 SLP113 T03280150=
201909251852 METAR KATL 251852Z 27006G16KT 10SM FEW065 FEW250 32/15 A2991 RMK AO2 SLP118 T03220150=
201909251752 METAR KATL 251752Z 31010KT 10SM FEW070 FEW250 31/15 A2994 RMK AO2 SLP126 T03110150 10311 20183 58014=
201909251652 METAR KATL 251652Z 32006KT 10SM FEW070 FEW250 31/11 A2996 RMK AO2 SLP135 T03060111=
201909251552 METAR KATL 251552Z 32006KT 10SM FEW250 29/13 A2998 RMK AO2 SLP139 T02890133=
201909251452 METAR KATL 251452Z VRB03KT 10SM FEW200 27/14 A2998 RMK AO2 SLP141 T02670144 51013=
201909251352 METAR KATL 251352Z 32006KT 10SM FEW200 23/14 A2997 RMK AO2 SLP139 T02330144=
201909251252 METAR KATL 251252Z 31006KT 10SM FEW200 FEW250 20/13 A2997 RMK AO2 SLP138 T02000128=
201909251152 METAR KATL 251152Z 31004KT 10SM FEW200 FEW250 18/12 A2994 RMK AO2 SLP130 T01830122 10228 20183 51016=
201909251052 METAR KATL 251052Z 31007KT 10SM FEW200 FEW250 18/12 A2993 RMK AO2 SLP125 T01830122=
201909250952 METAR KATL 250952Z 31004KT 10SM FEW250 20/12 A2991 RMK AO2 SLP116 T02000117=
201909250852 METAR KATL 250852Z 33004KT 10SM FEW250 21/11 A2989 RMK AO2 SLP111 T02060111 55000=
201909250752 METAR KATL 250752Z 31005KT 10SM CLR 21/11 A2989 RMK AO2 SLP109 T02110111=
201909250652 METAR KATL 250652Z 31004KT 10SM CLR 22/11 A2989 RMK AO2 SLP109 T02220106=
201909250552 METAR KATL 250552Z 31004KT 10SM CLR 23/11 A2989 RMK AO2 SLP111 T02280111 10300 20228 55005=
201909250452 METAR KATL 250452Z 00000KT 10SM CLR 23/11 A2989 RMK AO2 SLP110 T02330111 403330228=
201909250352 METAR KATL 250352Z 33006KT 10SM CLR 26/10 A2990 RMK AO2 SLP111 T02560100=
201909250252 METAR KATL 250252Z 31007KT 10SM CLR 26/13 A2991 RMK AO2 SLP117 T02560133 51008=
201909250152 METAR KATL 250152Z 30008KT 10SM CLR 27/13 A2990 RMK AO2 SLP115 T02720133=
201909250052 METAR KATL 250052Z 30006KT 10SM CLR 28/14 A2989 RMK AO2 SLP111 T02830139=
201909242352 METAR KATL 242352Z 31007KT 10SM FEW070 30/14 A2988 RMK AO2 SLP108 T03000144 10333 20300 50001=
201909242252 METAR KATL 242252Z 30008KT 10SM FEW070 31/14 A2989 RMK AO2 SLP109 T03110144=
201909242152 METAR KATL 242152Z 30009KT 10SM SCT070 32/16 A2988 RMK AO2 SLP107 T03220156=
201909242052 METAR KATL 242052Z 27009KT 10SM FEW070 33/15 A2988 RMK AO2 SLP107 T03330150 56017=
201909241952 METAR KATL 241952Z 30009G15KT 10SM FEW060 33/16 A2989 RMK AO2 SLP108 T03330156=
201909241852 METAR KATL 241852Z 31011KT 10SM SCT055 32/17 A2991 RMK AO2 SLP116 T03170172=
201909241752 METAR KATL 241752Z 31008G15KT 10SM SCT055 32/17 A2993 RMK AO2 SLP124 T03170172 10322 20233 58018 $=
201909241652 METAR KATL 241652Z 34004KT 10SM BKN050 30/18 A2996 RMK AO2 SLP134 MDT CU SW T03000183=
201909241552 METAR KATL 241552Z 36005KT 10SM FEW040 29/18 A2999 RMK AO2 SLP142 T02940183=
201909241452 METAR KATL 241452Z 34008KT 10SM FEW030 28/19 A2999 RMK AO2 SLP143 T02830194 50005=
201909241352 METAR KATL 241352Z 34006KT 10SM CLR 26/19 A2999 RMK AO2 SLP145 T02610189=
201909241252 METAR KATL 241252Z 32008KT 10SM CLR 24/18 A2998 RMK AO2 SLP142 T02440178=
201909241152 METAR KATL 241152Z 30006KT 10SM FEW060 FEW085 23/17 A2997 RMK AO2 SLP139 T02330172 10256 20228 53009=
201909241052 METAR KATL 241052Z 30006KT 10SM FEW060 FEW085 23/17 A2996 RMK AO2 SLP134 T02330172=
201909240952 METAR KATL 240952Z 31005KT 10SM FEW080 24/17 A2995 RMK AO2 SLP131 T02390167=
201909240852 METAR KATL 240852Z 31006KT 10SM FEW085 24/17 A2995 RMK AO2 SLP129 T02390167 56011=
201909240752 METAR KATL 240752Z 31005KT 10SM FEW070 BKN085 25/16 A2995 RMK AO2 SLP129 T02500161 $=
201909240652 METAR KATL 240652Z 28005KT 10SM FEW070 BKN085 25/16 A2997 RMK AO2 SLP135 T02500161 $=
201909240552 METAR KATL 240552Z 29004KT 10SM BKN075 BKN090 25/16 A2998 RMK AO2 SLP140 T02500156 10300 20250 57008 $=
201909240452 METAR KATL 240452Z 30005KT 10SM BKN090 25/16 A2999 RMK AO2 SLP142 T02500161 403280178 $=
201909240352 METAR KATL 240352Z 31006KT 10SM FEW080 26/16 A3000 RMK AO2 SLP148 T02560156 $=
201909240252 METAR KATL 240252Z 29006KT 10SM FEW080 27/14 A3001 RMK AO2 SLP150 T02670144 53000=
201909240152 METAR KATL 240152Z 00000KT 10SM FEW080 27/15 A3001 RMK AO2 SLP150 T02720150=
201909240052 METAR KATL 240052Z 27003KT 10SM FEW080 28/14 A3000 RMK AO2 SLP149 T02830144=
201909232352 METAR KATL 232352Z 32004KT 10SM FEW070 30/14 A3001 RMK AO2 SLP151 T03000139 10328 20300 56005=
201909232252 METAR KATL 232252Z 33007KT 10SM FEW070 32/13 A3001 RMK AO2 SLP151 T03170133=
201909232152 METAR KATL 232152Z 34007KT 10SM FEW070 32/13 A3001 RMK AO2 SLP151 T03220133=
201909232052 METAR KATL 232052Z 32006KT 10SM FEW070 32/13 A3002 RMK AO2 SLP155 T03220133 56022=
201909231952 METAR KATL 231952Z 32007KT 10SM FEW070 32/13 A3003 RMK AO2 SLP159 T03220128=
201909231852 METAR KATL 231852Z 01006KT 10SM FEW070 31/12 A3006 RMK AO2 SLP168 T03110122=
201909231752 METAR KATL 231752Z VRB04KT 10SM FEW075 31/12 A3009 RMK AO2 SLP178 T03060122 10317 20183 58019=
201909231652 METAR KATL 231652Z VRB05KT 10SM FEW070 31/12 A3012 RMK AO2 SLP187 T03060122=
201909231552 METAR KATL 231552Z VRB03KT 10SM CLR 29/12 A3013 RMK AO2 SLP193 T02890122=
201909231452 METAR KATL 231452Z 30005KT 10SM CLR 27/13 A3015 RMK AO2 SLP198 T02720133 51003=
201909231352 METAR KATL 231352Z 30007KT 10SM FEW250 26/12 A3014 RMK AO2 SLP198 T02610122=
201909231252 METAR KATL 231252Z 00000KT 10SM CLR 23/13 A3014 RMK AO2 SLP196 T02280133=
201909231152 METAR KATL 231152Z 00000KT 10SM CLR 18/13 A3013 RMK AO2 SLP196 T01830128 10217 20178 53007=
201909231052 METAR KATL 231052Z 32006KT 10SM CLR 20/13 A3012 RMK AO2 SLP190 T02000128=
201909230952 METAR KATL 230952Z 00000KT 10SM CLR 19/12 A3011 RMK AO2 SLP185 T01940122=
201909230852 METAR KATL 230852Z 28004KT 10SM CLR 20/12 A3011 RMK AO2 SLP187 T02000122 56005 $=
201909230752 METAR KATL 230752Z 00000KT 10SM CLR 20/12 A3011 RMK AO2 SLP187 T02000122 $=
201909230652 METAR KATL 230652Z 00000KT 10SM CLR 21/12 A3012 RMK AO2 SLP191 T02060122 $=
201909230552 METAR KATL 230552Z 29005KT 10SM CLR 22/12 A3013 RMK AO2 SLP192 T02170122 10272 20211 58007 $=
201909230452 METAR KATL 230452Z 00000KT 10SM CLR 22/12 A3014 RMK AO2 SLP195 T02220122 403110178 $=
201909230352 METAR KATL 230352Z 21003KT 10SM CLR 22/13 A3014 RMK AO2 SLP197 T02220128=
201909230252 METAR KATL 230252Z 15003KT 10SM CLR 24/13 A3015 RMK AO2 SLP200 T02390128 50007=
201909230152 METAR KATL 230152Z 17003KT 10SM CLR 25/12 A3015 RMK AO2 SLP202 T02500122=
201909230052 METAR KATL 230052Z 15003KT 10SM CLR 27/12 A3014 RMK AO2 SLP197 T02670117=
201909222352 METAR KATL 222352Z 15004KT 10SM CLR 27/11 A3013 RMK AO2 SLP194 T02720111 10311 20272 55002=
201909222252 METAR KATL 222252Z 15006KT 10SM CLR 29/11 A3012 RMK AO2 SLP191 T02940111=
201909222152 METAR KATL 222152Z 15005KT 10SM CLR 31/10 A3012 RMK AO2 SLP191 T03060100=
201909222052 METAR KATL 222052Z 14007KT 10SM FEW250 31/11 A3013 RMK AO2 SLP194 T03060106 56018=
201909221952 METAR KATL 221952Z VRB05KT 10SM FEW075 FEW250 31/11 A3015 RMK AO2 SLP198 T03110106=
201909221852 METAR KATL 221852Z 07003KT 10SM FEW070 FEW250 29/12 A3017 RMK AO2 SLP206 T02940117=
201909221752 METAR KATL 221752Z 00000KT 10SM FEW065 SCT250 29/12 A3019 RMK AO2 SLP213 T02890122 10300 20178 58025=
201909221652 METAR KATL 221652Z 14005KT 10SM SCT050 SCT250 28/12 A3022 RMK AO2 SLP225 T02830122=
201909221552 METAR KATL 221552Z 26006KT 10SM FEW045 SCT250 27/14 A3025 RMK AO2 SLP234 T02720144=
201909221452 METAR KATL 221452Z 25005KT 10SM FEW250 26/15 A3027 RMK AO2 SLP239 T02560150 50010=
201909221352 METAR KATL 221352Z 20004KT 10SM FEW250 23/15 A3027 RMK AO2 SLP243 T02280150=
201909221252 METAR KATL 221252Z 00000KT 10SM CLR 21/14 A3026 RMK AO2 SLP238 T02060144=
201909221152 METAR KATL 221152Z 00000KT 10SM CLR 18/13 A3024 RMK AO2 SLP231 T01780133 10211 20178 51007=
201909221052 METAR KATL 221052Z 00000KT 10SM CLR 18/13 A3023 RMK AO2 SLP229 T01830133=
201909220952 METAR KATL 220952Z 00000KT 10SM CLR 19/13 A3022 RMK AO2 SLP225 T01890133=
201909220852 METAR KATL 220852Z 14003KT 10SM CLR 19/13 A3021 RMK AO2 SLP221 T01890133 58001=
201909220752 METAR KATL 220752Z 14003KT 10SM CLR 20/13 A3022 RMK AO2 SLP224 T02000128=
201909220652 METAR KATL 220652Z 15003KT 10SM CLR 21/13 A3022 RMK AO2 SLP225 T02110128=
201909220552 METAR KATL 220552Z 14003KT 10SM CLR 21/13 A3022 RMK AO2 SLP223 T02110133 10278 20211 58008=
201909220452 METAR KATL 220452Z 14004KT 10SM CLR 22/13 A3023 RMK AO2 SLP227 T02220128 403060178=
201909220352 METAR KATL 220352Z 00000KT 10SM CLR 23/13 A3024 RMK AO2 SLP232 T02330133=
201909220252 METAR KATL 220252Z 11004KT 10SM CLR 24/13 A3024 RMK AO2 SLP231 T02440128 51014=
201909220152 METAR KATL 220152Z 08007KT 10SM CLR 26/13 A3023 RMK AO2 SLP229 T02560128=
201909220052 METAR KATL 220052Z 12003KT 10SM CLR 26/12 A3022 RMK AO2 SLP223 T02610122=
201909212352 METAR KATL 212352Z 10005KT 10SM FEW250 27/12 A3020 RMK AO2 SLP219 T02720122 10306 20272 55004=
201909212252 METAR KATL 212252Z 13006KT 10SM FEW250 29/12 A3020 RMK AO2 SLP217 T02940122=
201909212152 METAR KATL 212152Z 08007KT 10SM FEW070 FEW250 30/12 A3020 RMK AO2 SLP219 T03000122=
201909212052 METAR KATL 212052Z VRB03KT 10SM FEW070 SCT250 31/12 A3021 RMK AO2 SLP221 T03060122 56022=
201909211952 METAR KATL 211952Z 13005KT 10SM SCT070 30/12 A3023 RMK AO2 SLP229 T03000122=
201909211852 METAR KATL 211852Z 05006KT 10SM SCT055 SCT250 29/13 A3026 RMK AO2 SLP238 T02890128=
201909211752 METAR KATL 211752Z 08006KT 10SM SCT055 SCT250 29/13 A3028 RMK AO2 SLP244 T02940128 10300 20183 58021=
201909211652 METAR KATL 211652Z 16005KT 10SM SCT033 SCT250 28/14 A3031 RMK AO2 SLP254 T02780144=
201909211552 METAR KATL 211552Z 26005KT 10SM BKN030 28/17 A3033 RMK AO2 SLP260 BKN030 V SCT T02780172=
201909211452 METAR KATL 211452Z 16006KT 10SM FEW030 FEW250 25/17 A3034 RMK AO2 SLP267 T02500172 50006=
201909211352 METAR KATL 211352Z 08006KT 10SM CLR 23/16 A3035 RMK AO2 SLP268 T02280156=
201909211252 METAR KATL 211252Z 08005KT 10SM CLR 21/14 A3034 RMK AO2 SLP267 T02110144=
201909211152 METAR KATL 211152Z 09003KT 10SM CLR 18/12 A3032 RMK AO2 SLP261 T01830122 10200 20178 53015=
201909211052 METAR KATL 211052Z 08004KT 10SM CLR 18/11 A3031 RMK AO2 SLP256 T01830111=
201909210952 METAR KATL 210952Z 08005KT 10SM CLR 18/11 A3028 RMK AO2 SLP247 T01830106=
201909210852 METAR KATL 210852Z 08004KT 10SM CLR 19/11 A3028 RMK AO2 SLP244 T01890106 56003=
201909210752 METAR KATL 210752Z 09004KT 10SM CLR 19/11 A3028 RMK AO2 SLP245 T01890106=
201909210652 METAR KATL 210652Z 10005KT 10SM CLR 19/11 A3028 RMK AO2 SLP246 T01940106=
201909210552 METAR KATL 210552Z 09004KT 10SM CLR 20/11 A3029 RMK AO2 SLP248 T02000111 10256 20200 51006=
201909210452 METAR KATL 210452Z 08006KT 10SM CLR 21/12 A3028 RMK AO2 SLP246 T02060117 402830167=
201909210352 METAR KATL 210352Z 07008KT 10SM CLR 22/11 A3028 RMK AO2 SLP244 T02220111=
201909210252 METAR KATL 210252Z 07009KT 10SM CLR 23/11 A3027 RMK AO2 SLP243 T02330106 53010=
201909210152 METAR KATL 210152Z 08008KT 10SM CLR 24/09 A3025 RMK AO2 SLP237 T02390094=
201909210052 METAR KATL 210052Z 10008KT 10SM CLR 24/08 A3025 RMK AO2 SLP236 T02440083=
201909202352 METAR KATL 202352Z 10008KT 10SM FEW250 26/09 A3024 RMK AO2 SLP233 T02560089 10283 20256 53002=
201909202252 METAR KATL 202252Z 09007KT 10SM FEW250 27/09 A3023 RMK AO2 SLP228 T02720089=
201909202152 METAR KATL 202152Z 14006KT 10SM CLR 28/09 A3023 RMK AO2 SLP229 T02780094=
201909202052 METAR KATL 202052Z 13011G15KT 10SM FEW250 28/11 A3023 RMK AO2 SLP229 T02830106 56018=
201909201952 METAR KATL 201952Z 11007KT 10SM CLR 28/11 A3024 RMK AO2 SLP231 T02830106=
201909201852 METAR KATL 201852Z 11009KT 10SM FEW300 27/10 A3026 RMK AO2 SLP239 T02720100=
201909201752 METAR KATL 201752Z VRB03KT 10SM CLR 26/11 A3029 RMK AO2 SLP248 T02610106 10267 20167 58015=
201909201652 METAR KATL 201652Z 12008KT 10SM CLR 26/10 A3031 RMK AO2 SLP258 T02560100=
201909201552 METAR KATL 201552Z 09007G14KT 10SM CLR 24/10 A3033 RMK AO2 SLP263 T02390100=
201909201452 METAR KATL 201452Z 10010KT 10SM FEW250 22/10 A3033 RMK AO2 SLP263 T02220100 51011=
201909201352 METAR KATL 201352Z 11006KT 10SM FEW250 21/11 A3032 RMK AO2 SLP261 T02060111=
201909201252 METAR KATL 201252Z 09009KT 10SM FEW250 18/12 A3031 RMK AO2 SLP258 T01780117=
201909201152 METAR KATL 201152Z 08008KT 10SM FEW070 FEW250 17/12 A3030 RMK AO2 SLP253 T01670117 10194 20167 53015=
201909201052 METAR KATL 201052Z 09006KT 10SM FEW250 17/12 A3028 RMK AO2 SLP246 T01670117=
201909200952 METAR KATL 200952Z 08007KT 10SM FEW250 17/12 A3026 RMK AO2 SLP239 T01720122=
201909200852 METAR KATL 200852Z 08009KT 10SM FEW250 18/12 A3025 RMK AO2 SLP236 T01780122 55000=
201909200752 METAR KATL 200752Z 08012KT 10SM FEW250 18/12 A3024 RMK AO2 SLP233 T01830122=
201909200652 METAR KATL 200652Z 08012KT 10SM FEW250 19/12 A3025 RMK AO2 SLP233 T01890122=
201909200552 METAR KATL 200552Z 08009KT 10SM FEW065 FEW250 19/12 A3025 RMK AO2 SLP235 T01940122 10244 20194 53009=
201909200452 METAR KATL 200452Z 08011KT 10SM FEW065 FEW250 20/12 A3024 RMK AO2 SLP232 T02000122 402780200=
201909200352 METAR KATL 200352Z 08010KT 10SM FEW065 FEW250 21/12 A3023 RMK AO2 SLP230 T02110122=
201909200252 METAR KATL 200252Z 08011KT 10SM SCT250 22/12 A3022 RMK AO2 SLP226 T02170122 51017=
201909200152 METAR KATL 200152Z 08013KT 10SM SCT250 23/12 A3021 RMK AO2 SLP221 T02280122=
201909200052 METAR KATL 200052Z 08013KT 10SM FEW060 FEW250 23/12 A3019 RMK AO2 SLP214 T02330122=
201909192352 METAR KATL 192352Z 09010KT 10SM FEW060 FEW250 24/12 A3017 RMK AO2 SLP209 T02440122 10278 20244 53001=
201909192252 METAR KATL 192252Z 09011KT 10SM FEW055 FEW250 26/13 A3016 RMK AO2 SLP204 T02610128=
201909192152 METAR KATL 192152Z 10008KT 10SM FEW055 FEW250 27/13 A3017 RMK AO2 SLP206 T02720133=
201909192052 METAR KATL 192052Z 08005KT 10SM FEW055 FEW250 27/13 A3017 RMK AO2 SLP207 T02720128 56013=
201909191952 METAR KATL 191952Z 13009KT 10SM FEW060 FEW250 28/13 A3018 RMK AO2 SLP210 T02780128=
201909191852 METAR KATL 191852Z 13007KT 10SM FEW060 FEW250 28/12 A3019 RMK AO2 SLP214 T02780122=
201909191752 METAR KATL 191752Z 09007KT 10SM FEW060 FEW250 27/13 A3021 RMK AO2 SLP221 T02670128 10272 20206 58007=
201909191652 METAR KATL 191652Z 10009G19KT 10SM FEW055 FEW085 SCT250 26/13 A3022 RMK AO2 SLP226 T02560128=
201909191552 METAR KATL 191552Z 10011KT 10SM FEW055 FEW085 24/12 A3023 RMK AO2 SLP229 T02440122=
201909191452 METAR KATL 191452Z 10014KT 10SM FEW055 SCT085 23/13 A3023 RMK AO2 SLP229 T02280128 51013=
201909191352 METAR KATL 191352Z 12007KT 10SM OVC050 22/14 A3023 RMK AO2 SLP228 BINOVC DSNT W-N T02170139=
201909191252 METAR KATL 191252Z 12010KT 10SM OVC048 21/14 A3021 RMK AO2 SLP220 BINOVC T02110144=
201909191152 METAR KATL 191152Z 10008KT 10SM SCT045 BKN060 BKN085 21/14 A3019 RMK AO2 SLP215 ACC NE W-NW T02060144 10222 20206 53014=
201909191052 METAR KATL 191052Z 10007KT 10SM FEW045 SCT060 BKN085 21/14 A3017 RMK AO2 SLP207 ACC NE-SE T02110139=
201909190952 METAR KATL 190952Z 10007KT 10SM BKN045 BKN060 21/14 A3016 RMK AO2 SLP202 T02110144=
201909190852 METAR KATL 190852Z 09007KT 10SM BKN044 BKN055 21/14 A3015 RMK AO2 SLP199 T02110144 53003=
201909190752 METAR KATL 190752Z 09007KT 10SM SCT050 21/14 A3014 RMK AO2 SLP196 T02110139=
201909190652 METAR KATL 190652Z 09010KT 10SM OVC042 22/14 A3014 RMK AO2 SLP195 BINOVC T02220139=
201909190552 METAR KATL 190552Z 12009KT 10SM OVC037 22/14 A3014 RMK AO2 SLP195 T02220144 10256 20217 51003=
201909190452 METAR KATL 190452Z 11009KT 10SM BKN032 22/15 A3014 RMK AO2 SLP194 T02220150 403170217=
201909190352 METAR KATL 190352Z 09010KT 10SM FEW035 22/15 A3014 RMK AO2 SLP195 T02170150=
201909190252 METAR KATL 190252Z 09011KT 10SM CLR 23/16 A3013 RMK AO2 SLP193 T02280156 51021=
201909190152 METAR KATL 190152Z 09014KT 10SM CLR 23/17 A3011 RMK AO2 SLP188 T02330167=
201909190052 METAR KATL 190052Z 08015KT 10SM CLR 25/18 A3009 RMK AO2 SLP179 T02500178=
201909182352 METAR KATL 182352Z 08014KT 10SM CLR 26/18 A3007 RMK AO2 SLP172 T02560183 10317 20256 53008=
201909182252 METAR KATL 182252Z 06016KT 10SM FEW035 27/19 A3005 RMK AO2 SLP167 T02720189=
201909182152 METAR KATL 182152Z 07014KT 10SM FEW038 29/19 A3004 RMK AO2 SLP163 T02890189=
201909182052 METAR KATL 182052Z 07016KT 10SM FEW040 FEW050 29/19 A3004 RMK AO2 SLP161 T02940194 56006=
201909181952 METAR KATL 181952Z 07015KT 10SM SCT040 29/19 A3005 RMK AO2 SLP162 T02940194=
201909181852 METAR KATL 181852Z 07012KT 10SM SCT037 31/20 A3005 RMK AO2 SLP164 T03110200=
201909181752 METAR KATL 181752Z 08011G18KT 10SM SCT035 31/20 A3006 RMK AO2 SLP167 T03060200 10311 20233 58001=
201909181652 METAR KATL 181652Z 11009KT 10SM BKN037 30/19 A3006 RMK AO2 SLP168 T03000194=
201909181552 METAR KATL 181552Z 11010KT 10SM FEW030 28/17 A3006 RMK AO2 SLP169 T02830172=
201909181452 METAR KATL 181452Z 09010KT 10SM FEW030 27/18 A3006 RMK AO2 SLP169 T02670178 51012=
201909181352 METAR KATL 181352Z 08012KT 10SM FEW020 25/18 A3005 RMK AO2 SLP166 T02500178=
201909181252 METAR KATL 181252Z 08014KT 10SM CLR 23/18 A3005 RMK AO2 SLP162 T02330183=
201909181152 METAR KATL 181152Z 07013KT 10SM FEW250 23/19 A3003 RMK AO2 SLP156 70021 T02330189 10272 20233 53017=
201909181052 METAR KATL 181052Z 06009KT 10SM CLR 24/19 A3000 RMK AO2 SLP146 T02390194=
201909180952 METAR KATL 180952Z 06009KT 10SM FEW250 25/19 A2998 RMK AO2 SLP140 T02500189=
201909180852 METAR KATL 180852Z 03009KT 9SM FEW250 26/19 A2997 RMK AO2 SLP136 T02610189 56002=
201909180752 METAR KATL 180752Z 01006KT 10SM FEW250 26/18 A2998 RMK AO2 SLP137 T02610183=
201909180652 METAR KATL 180652Z 34006KT 10SM FEW250 26/19 A2997 RMK AO2 SLP136 T02610189=
201909180552 METAR KATL 180552Z 34007KT 10SM FEW085 SCT120 SCT250 26/20 A2998 RMK AO2 SLP139 60021 T02610200 10328 20261 58001=
201909180452 METAR KATL 180452Z 31006KT 10SM SCT070 BKN120 BKN200 27/20 A2998 RMK AO2 SLP139 T02670200 403670233=
201909180352 METAR KATL 180352Z 33004KT 10SM FEW045 SCT070 BKN120 BKN200 28/21 A2999 RMK AO2 SLP141 T02780206=
201909180252 METAR KATL 180252Z 00000KT 10SM FEW045 SCT070 SCT110 BKN200 28/22 A2998 RMK AO2 RAE01 SLP140 P0000 60021 T02780217 51010=
201909180152 METAR KATL 180152Z 11008KT 8SM -RA FEW045 SCT070 BKN100 BKN200 29/18 A2998 RMK AO2 PK WND 02026/0106 WSHFT 0058 SLP139 TSB14E45 P0021 T02890183=
201909180147 SPECI KATL 180147Z 11009KT 7SM -RA SCT045 BKN070 BKN100 BKN200 28/19 A2998 RMK AO2 PK WND 02026/0106 WSHFT 0058 TSB14E45 TS DSIPTD P0021=
201909180117 SPECI KATL 180117Z 06021G25KT 3SM TSRA BKN065CB BKN100 BKN250 28/20 A2999 RMK AO2 PK WND 02026/0106 WSHFT 0058 TSB14 OCNL LTGIC NE TS OHD-NE MOV SE P0003 T02780200=
201909180112 SPECI KATL 180112Z 04015G26KT 2 1/2SM +RA BKN065CB BKN100 BKN250 28/21 A2999 RMK AO2 PK WND 02026/0106 WSHFT 0058 PRESRR CB OHD-N MOV SE P0000 T02830206=
201909180052 METAR KATL 180052Z 32007KT 10SM -RA FEW070CB BKN100 BKN250 32/17 A2997 RMK AO2 RAB52 SLP136 CB NW-NE MOV SE P0000 T03220172=
201909172352 METAR KATL 172352Z 30008KT 10SM FEW070 SCT130 SCT250 33/17 A2995 RMK AO2 SLP130 CB DSNT NW TCU DSNT SE T03280172 10367 20328 55002=
201909172252 METAR KATL 172252Z 31008KT 10SM FEW070TCU SCT120 BKN200 34/16 A2995 RMK AO2 SLP129 CB DSNT N TCU OHD-E T03440161=
201909172152 METAR KATL 172152Z 32007KT 10SM FEW070TCU SCT120 SCT250 36/17 A2995 RMK AO2 SLP129 TCU N NE T03560167=
201909172052 METAR KATL 172052Z 30010KT 10SM FEW075 FEW120 SCT250 36/16 A2996 RMK AO2 SLP131 TCU DSNT N-NE T03560161 56019=
201909171952 METAR KATL 171952Z 31008KT 10SM FEW070 FEW120 SCT250 36/17 A2997 RMK AO2 SLP136 CB DSNT N MDT CU SE T03560167=
201909171852 METAR KATL 171852Z 33009KT 10SM FEW070 36/17 A2999 RMK AO2 SLP143 T03560167=
201909171752 METAR KATL 171752Z 30007KT 10SM FEW070 35/16 A3001 RMK AO2 SLP150 T03500161 10356 20239 58013=
201909171652 METAR KATL 171652Z 35007KT 10SM FEW070 FEW150 34/16 A3003 RMK AO2 SLP156 T03390161=
201909171552 METAR KATL 171552Z VRB06KT 10SM FEW120 FEW150 SCT250 33/17 A3005 RMK AO2 SLP162 T03330167=
201909171452 METAR KATL 171452Z 29005KT 10SM FEW150 FEW250 31/18 A3005 RMK AO2 SLP164 T03110178 53008=
201909171352 METAR KATL 171352Z 31007KT 10SM FEW120 28/17 A3004 RMK AO2 SLP160 T02830172=
201909171252 METAR KATL 171252Z 30003KT 10SM FEW120 26/17 A3004 RMK AO2 SLP158 T02560167=
201909171152 METAR KATL 171152Z 30004KT 10SM CLR 24/17 A3003 RMK AO2 SLP156 T02390172 10261 20233 53011=
201909171052 METAR KATL 171052Z 32004KT 10SM CLR 23/17 A3001 RMK AO2 SLP151 T02330172=
201909170952 METAR KATL 170952Z 29003KT 10SM CLR 24/17 A3000 RMK AO2 SLP144 T02390167=
201909170852 METAR KATL 170852Z 32004KT 10SM CLR 24/17 A2999 RMK AO2 SLP143 T02440172 56008=
201909170752 METAR KATL 170752Z 32005KT 10SM CLR 25/16 A3000 RMK AO2 SLP144 T02500161=
201909170652 METAR KATL 170652Z 31003KT 10SM CLR 26/17 A3000 RMK AO2 SLP147 T02560167=
201909170552 METAR KATL 170552Z 00000KT 10SM CLR 26/16 A3002 RMK AO2 SLP151 T02610161 10333 20261 58003=
201909170452 METAR KATL 170452Z 00000KT 10SM CLR 27/16 A3002 RMK AO2 SLP154 T02720161 403560239=
201909170352 METAR KATL 170352Z 00000KT 10SM CLR 29/15 A3003 RMK AO2 SLP156 T02890150=
201909170252 METAR KATL 170252Z 00000KT 10SM CLR 29/16 A3003 RMK AO2 SLP155 T02890156 51007=
201909170152 METAR KATL 170152Z 00000KT 10SM CLR 30/16 A3002 RMK AO2 SLP154 T03000156=
201909170052 METAR KATL 170052Z VRB05KT 10SM FEW075 33/15 A3001 RMK AO2 SLP149 T03280150=
201909162352 METAR KATL 162352Z 35006KT 10SM FEW075 33/14 A3000 RMK AO2 SLP148 T03330144 10356 20333 56004=
201909162252 METAR KATL 162252Z 33007KT 10SM FEW075 34/14 A3001 RMK AO2 SLP148 T03440144=
201909162152 METAR KATL 162152Z 32009KT 10SM FEW075 FEW250 35/14 A3001 RMK AO2 SLP149 T03500144=
201909162052 METAR KATL 162052Z 33009G16KT 10SM FEW080 FEW250 36/14 A3002 RMK AO2 SLP151 T03560144 56022=
201909161952 METAR KATL 161952Z 32005KT 10SM FEW080 35/14 A3003 RMK AO2 SLP156 T03500139=
201909161852 METAR KATL 161852Z 34008G17KT 320V020 10SM FEW070 FEW250 35/13 A3006 RMK AO2 SLP165 T03500133=
201909161752 METAR KATL 161752Z 35008KT 10SM FEW060 FEW250 34/17 A3008 RMK AO2 SLP174 T03390167 10339 20244 58018=
201909161652 METAR KATL 161652Z 34008KT 10SM FEW055 FEW250 33/18 A3010 RMK AO2 SLP181 T03280183=
201909161552 METAR KATL 161552Z VRB03KT 10SM FEW050 31/19 A3012 RMK AO2 SLP188 T03110194=
201909161452 METAR KATL 161452Z 03005KT 10SM CLR 31/19 A3014 RMK AO2 SLP194 T03060189 50007=
201909161352 METAR KATL 161352Z 03005KT 10SM CLR 28/19 A3014 RMK AO2 SLP196 T02830194=
201909161252 METAR KATL 161252Z 06005KT 10SM CLR 27/19 A3013 RMK AO2 SLP192 T02670194=
201909161152 METAR KATL 161152Z 07004KT 10SM CLR 24/19 A3012 RMK AO2 SLP187 T02440189 10256 20239 53009=
201909161052 METAR KATL 161052Z 03003KT 10SM FEW250 24/19 A3011 RMK AO2 SLP183 T02390189=
201909160952 METAR KATL 160952Z 03004KT 10SM FEW250 24/19 A3009 RMK AO2 SLP179 T02440189=
201909160852 METAR KATL 160852Z 02005KT 10SM FEW250 25/18 A3009 RMK AO2 SLP176 T02500183 55004=
201909160752 METAR KATL 160752Z 09004KT 10SM FEW250 24/18 A3009 RMK AO2 SLP177 T02440183=
201909160652 METAR KATL 160652Z 07004KT 10SM FEW250 25/19 A3010 RMK AO2 SLP180 T02500189=
201909160552 METAR KATL 160552Z 08005KT 10SM FEW250 26/19 A3010 RMK AO2 SLP181 T02560189 10306 20256 51002=
201909160452 METAR KATL 160452Z 05006KT 10SM FEW250 27/19 A3010 RMK AO2 SLP181 T02670189 403330228=
201909160352 METAR KATL 160352Z 08005KT 10SM FEW250 27/18 A3010 RMK AO2 SLP180 T02670183=
201909160252 METAR KATL 160252Z 09006KT 10SM FEW200 SCT250 27/18 A3010 RMK AO2 SLP180 T02720183 51010=
201909160152 METAR KATL 160152Z 10005KT 10SM SCT200 SCT250 28/18 A3009 RMK AO2 SLP178 T02780183=
201909160052 METAR KATL 160052Z 10006KT 10SM BKN200 BKN250 29/18 A3008 RMK AO2 SLP175 T02890178=
201909152352 METAR KATL 152352Z 10008KT 10SM SCT200 BKN250 30/18 A3007 RMK AO2 SLP170 T03000178 10333 20300 56002=
201909152252 METAR KATL 152252Z 10007KT 080V140 10SM BKN200 BKN250 32/18 A3007 RMK AO2 SLP171 T03170183=
201909152152 METAR KATL 152152Z 09009KT 10SM FEW050 SCT200 BKN250 32/18 A3007 RMK AO2 SLP169 T03220178=
201909152052 METAR KATL 152052Z 06009KT 10SM SCT050 BKN250 BKN300 33/18 A3007 RMK AO2 SLP171 T03330183 56025=
201909151952 METAR KATL 151952Z 09008KT 10SM SCT047 BKN250 BKN300 33/19 A3009 RMK AO2 SLP176 T03280194=
201909151852 METAR KATL 151852Z 04013G17KT 10SM BKN045 BKN250 32/19 A3011 RMK AO2 SLP186 T03170189=
201909151752 METAR KATL 151752Z 02010KT 10SM BKN037 BKN250 31/20 A3015 RMK AO2 SLP198 T03060200 10311 20228 58013=
201909151652 METAR KATL 151652Z 06011KT 10SM BKN032 BKN250 29/19 A3017 RMK AO2 SLP205 T02940194=
201909151552 METAR KATL 151552Z 11007KT 10SM SCT030 BKN250 BKN300 29/20 A3018 RMK AO2 SLP208 T02890200=
201909151452 METAR KATL 151452Z 07006KT 10SM FEW025 BKN250 BKN300 27/20 A3019 RMK AO2 SLP212 T02720200 51005=
201909151352 METAR KATL 151352Z 07006KT 10SM BKN250 BKN300 25/20 A3018 RMK AO2 SLP210 T02500200=
201909151252 METAR KATL 151252Z 06008KT 10SM FEW150 BKN250 24/19 A3018 RMK AO2 SLP210 T02390194=
201909151152 METAR KATL 151152Z 04008KT 10SM FEW150 BKN250 23/19 A3017 RMK AO2 SLP207 T02280189 10239 20228 53006=
201909151052 METAR KATL 151052Z 06005KT 10SM SCT250 23/19 A3017 RMK AO2 SLP204 T02280189=
201909150952 METAR KATL 150952Z 03005KT 10SM SCT250 23/19 A3016 RMK AO2 SLP201 T02280189=
201909150852 METAR KATL 150852Z 05007KT 10SM FEW250 23/19 A3015 RMK AO2 SLP200 T02280189 57010=
201909150752 METAR KATL 150752Z 05008KT 10SM FEW250 23/19 A3016 RMK AO2 SLP202 T02280189=
201909150652 METAR KATL 150652Z 06007KT 10SM FEW250 23/19 A3018 RMK AO2 SLP208 T02330189=
201909150552 METAR KATL 150552Z 07006KT 10SM SCT250 24/19 A3018 RMK AO2 SLP210 T02390189 10278 20239 50000=
201909150452 METAR KATL 150452Z 06010KT 10SM FEW250 24/19 A3018 RMK AO2 SLP210 T02440189 403060228=
201909150352 METAR KATL 150352Z 05009KT 10SM FEW250 26/19 A3019 RMK AO2 SLP211 T02560194=
201909150252 METAR KATL 150252Z 07009KT 10SM FEW120 SCT250 27/21 A3018 RMK AO2 SLP210 T02670206 50003=
201909150152 METAR KATL 150152Z 07009KT 10SM FEW060 SCT250 27/20 A3020 RMK AO2 SLP215 T02720200=
201909150052 METAR KATL 150052Z 08008KT 10SM FEW065 FEW200 SCT250 28/20 A3018 RMK AO2 SLP209 OCNL LTGICCA DSNT NE CB DSNT NE T02780200=
201909142352 METAR KATL 142352Z 10007KT 10SM FEW042 FEW070 SCT200 SCT250 28/19 A3017 RMK AO2 SLP208 TCU DSNT NE T02780194 10306 20278 56004=
201909142252 METAR KATL 142252Z 11009KT 10SM FEW040 SCT250 SCT300 29/19 A3018 RMK AO2 SLP208 TCU DSNT NE T02890194=
201909142152 METAR KATL 142152Z 07008KT 10SM FEW038 SCT250 BKN300 30/19 A3018 RMK AO2 SLP208 CB DSNT NW-NE T03000194=
201909142052 METAR KATL 142052Z 08007KT 10SM SCT037 SCT250 BKN300 30/20 A3019 RMK AO2 SLP211 T03000200 56018=
201909141952 METAR KATL 141952Z 09008KT 10SM BKN032 BKN040 BKN250 30/19 A3019 RMK AO2 SLP213 T03000194=
201909141852 METAR KATL 141852Z 10009KT 10SM BKN034 BKN250 29/19 A3023 RMK AO2 SLP225 T02940194=
201909141752 METAR KATL 141752Z 05009KT 10SM BKN037 BKN200 BKN250 30/20 A3024 RMK AO2 SLP229 T03000200 10300 20228 58009=
201909141710 SPECI KATL 141710Z 05008KT 10SM SCT028 BKN037 BKN250 29/20 A3025 RMK AO2 SCT028 V BKN T02890200=
201909141652 METAR KATL 141652Z 04009KT 10SM BKN028 BKN035 BKN250 28/20 A3026 RMK AO2 SLP236 T02780200=
201909141552 METAR KATL 141552Z 08009KT 10SM BKN025 BKN250 28/20 A3026 RMK AO2 SLP237 T02830200=
201909141538 SPECI KATL 141538Z 10007G14KT 10SM BKN022 BKN028 BKN250 28/21 A3026 RMK AO2 T02830206=
201909141452 METAR KATL 141452Z 08008KT 10SM SCT018 BKN250 26/20 A3027 RMK AO2 SLP239 SCT017 V BKN T02610200 50011=
201909141430 SPECI KATL 141430Z 08007KT 10SM SCT014 BKN250 26/20 A3027 RMK AO2 T02610200=
201909141352 METAR KATL 141352Z 06008KT 10SM BKN011 BKN020 BKN250 25/20 A3027 RMK AO2 SLP240 T02500200=
201909141252 METAR KATL 141252Z 09007KT 10SM BKN010 BKN200 24/20 A3025 RMK AO2 SLP234 BKN010 V SCT CIG 009V012 T02390200=
201909141152 METAR KATL 141152Z 09008KT 9SM BKN009 BKN200 23/20 A3024 RMK AO2 SLP228 T02280200 10239 20228 51010=
201909141052 METAR KATL 141052Z 08008KT 10SM BKN009 23/20 A3023 RMK AO2 SLP225 T02280200=
201909140952 METAR KATL 140952Z 08010KT 10SM BKN008 23/20 A3021 RMK AO2 SLP220 CIG 007V010 T02280200=
201909140935 SPECI KATL 140935Z 08009KT 10SM BKN009 23/20 A3021 RMK AO2 T02280200=
201909140903 SPECI KATL 140903Z 08008KT 10SM SCT010 23/20 A3021 RMK AO2 T02280200=
201909140852 METAR KATL 140852Z 08009KT 10SM BKN010 23/20 A3021 RMK AO2 SLP217 BKN010 V SCT T02330200 56007=
201909140752 METAR KATL 140752Z 02008KT 10SM BKN011 23/20 A3022 RMK AO2 SLP220 T02330200=
201909140737 SPECI KATL 140737Z 01007KT 10SM BKN010 23/20 A3022 RMK AO2 T02330200=
201909140652 METAR KATL 140652Z 10010KT 10SM FEW005 FEW110 SCT200 23/19 A3021 RMK AO2 SLP217 T02330194=
201909140552 METAR KATL 140552Z 07010KT 10SM FEW110 SCT150 SCT200 SCT250 24/19 A3023 RMK AO2 SLP223 60000 T02390194 10317 20239 58001=
201909140452 METAR KATL 140452Z 06011KT 10SM FEW100 BKN150 BKN250 25/20 A3024 RMK AO2 RAE17 SLP227 P0000 T02500200 403670233=
201909140352 METAR KATL 140352Z 05012KT 10SM -RA FEW020 SCT040 BKN100 BKN200 26/19 A3024 RMK AO2 PK WND 08026/0306 SLP228 RAB49 TSE52 LTG DSNT SW-NW TS MOVD SW P0000 T02560194=
201909140252 METAR KATL 140252Z 10014G25KT 10SM VCTS BKN040CB BKN065 BKN150 OVC200 28/20 A3023 RMK AO2 PRESRR SLP224 TSB49 FRQ LTGICCG VC NW-NE TS VC NW-NE MOV SW T02780200 53030=
201909140247 SPECI KATL 140247Z 09021G25KT 1 3/4SM VCTS HZ SCT047 BKN065 29/19 A3022 RMK AO2 LTG DSNT ALQDS PRESRR=
201909140152 METAR KATL 140152Z 15005KT 10SM FEW060 SCT100 BKN150 BKN250 29/19 A3019 RMK AO2 LTG DSNT N AND NW SLP209 CB DSNT NE-E NW-N T02940189=
201909140052 METAR KATL 140052Z 15006KT 10SM FEW060 SCT100 BKN250 31/19 A3016 RMK AO2 LTG DSNT N AND NE SLP202 CB DSNT NW-NE T03060194=
201909132352 METAR KATL 132352Z 13005KT 10SM FEW060 SCT150 BKN250 32/19 A3014 RMK AO2 LTG DSNT N SLP194 CB DSNT NW-NE T03170189 10367 20317 53005=
201909132252 METAR KATL 132252Z 11006KT 10SM FEW060 BKN200 BKN250 33/18 A3012 RMK AO2 SLP189 CB DSNT NE T03330183=
201909132152 METAR KATL 132152Z 14005KT 10SM FEW065TCU SCT200 BKN250 35/18 A3011 RMK AO2 SLP184 TCU E-SE T03500178=
201909132052 METAR KATL 132052Z 14009KT 10SM FEW065 FEW150 BKN250 34/18 A3012 RMK AO2 SLP188 CB DSNT E TCU DSNT NW-N T03440178 56017=
201909131952 METAR KATL 131952Z 12007KT 10SM SCT070TCU SCT150 BKN200 BKN250 35/17 A3013 RMK AO2 LTG DSNT S SLP191 CB DSNT SE & S TCU ALQDS T03500167=
201909131943 SPECI KATL 131943Z 09010KT 10SM VCTS SCT070CB SCT150 BKN250 35/17 A3013 RMK AO2 OCNL LTGICCG VC S TS VC S MOV W T03500172=
201909131857 SPECI KATL 131857Z 08010KT 10SM SCT070TCU SCT250 36/17 A3015 RMK AO2 TCU ALQDS T03560172=
201909131852 METAR KATL 131852Z 08010KT 10SM SCT070TCU SCT250 36/17 A3015 RMK AO2 SLP197 TCU ALQDS T03560172=
201909131752 METAR KATL 131752Z VRB06KT 10SM FEW250 35/18 A3018 RMK AO2 SLP205 T03500178 10361 20239 58008=
201909131652 METAR KATL 131652Z 05004KT 10SM FEW250 35/18 A3019 RMK AO2 SLP209 T03500178=
201909131552 METAR KATL 131552Z VRB03KT 10SM FEW250 33/18 A3019 RMK AO2 SLP212 T03280183=
201909131452 METAR KATL 131452Z 29006KT 10SM FEW250 31/18 A3020 RMK AO2 SLP214 T03110183 51010=
201909131352 METAR KATL 131352Z 21004KT 10SM FEW250 29/18 A3020 RMK AO2 SLP213 T02940183=
201909131252 METAR KATL 131252Z 00000KT 9SM FEW250 26/18 A3018 RMK AO2 SLP209 T02610178=
201909131152 METAR KATL 131152Z 00000KT 9SM FEW002 FEW250 24/18 A3017 RMK AO2 SLP205 FU FEW002 T02390178 10272 20233 53012=
201909131052 METAR KATL 131052Z 21003KT 10SM FEW250 24/17 A3015 RMK AO2 SLP198 T02440172=
201909130952 METAR KATL 130952Z 00000KT 10SM FEW250 25/17 A3014 RMK AO2 SLP194 T02500172=
201909130852 METAR KATL 130852Z 23005KT 10SM FEW250 26/17 A3013 RMK AO2 SLP190 T02560172 58001=
201909130752 METAR KATL 130752Z 00000KT 10SM FEW110 FEW250 26/17 A3014 RMK AO2 SLP191 T02560167 $=
201909130652 METAR KATL 130652Z 20003KT 10SM FEW110 SCT250 26/17 A3014 RMK AO2 SLP192 T02610167 $=
201909130552 METAR KATL 130552Z 00000KT 10SM FEW250 27/17 A3014 RMK AO2 SLP191 T02670167 10328 20267 51002 $=
201909130452 METAR KATL 130452Z 00000KT 10SM FEW250 28/16 A3014 RMK AO2 SLP191 T02780161 403720233 $=
201909130352 METAR KATL 130352Z 15003KT 10SM FEW250 28/16 A3013 RMK AO2 SLP190 T02830161 $=
201909130252 METAR KATL 130252Z 00000KT 10SM FEW250 28/16 A3013 RMK AO2 SLP189 T02830161 51011 $=
201909130152 METAR KATL 130152Z 00000KT 10SM CLR 31/16 A3012 RMK AO2 SLP187 T03060156 $=
201909130052 METAR KATL 130052Z 19003KT 10SM FEW080 FEW250 31/15 A3011 RMK AO2 SLP183 T03110150 $=
201909122352 METAR KATL 122352Z 18004KT 10SM FEW080 33/14 A3009 RMK AO2 SLP179 T03280144 10372 20328 55001 $=
201909122252 METAR KATL 122252Z 12005KT 10SM FEW080 35/13 A3009 RMK AO2 SLP177 T03500128 $=
201909122152 METAR KATL 122152Z 12004KT 10SM FEW080 34/14 A3009 RMK AO2 SLP175 MDT CU W T03440139 $=
201909122052 METAR KATL 122052Z 09006KT 10SM FEW080 36/14 A3010 RMK AO2 SLP179 T03610144 56020 $=
201909121952 METAR KATL 121952Z 09009KT 10SM FEW080 37/16 A3011 RMK AO2 SLP183 TCU DSNT N MDT CU E T03670156 $=
201909121852 METAR KATL 121852Z 06009KT 10SM FEW070 36/16 A3013 RMK AO2 SLP190 T03610156=
201909121752 METAR KATL 121752Z VRB05KT 10SM SCT065 35/17 A3016 RMK AO2 SLP200 MDT CU E S T03500172 10350 20244 58014=
201909121652 METAR KATL 121652Z 03009KT 10SM FEW060 35/17 A3018 RMK AO2 SLP206 T03500172=
201909121552 METAR KATL 121552Z 04008KT 10SM CLR 33/18 A3019 RMK AO2 SLP210 T03330183=
201909121452 METAR KATL 121452Z 34004KT 9SM CLR 32/19 A3020 RMK AO2 SLP215 T03170189 51007=
201909121352 METAR KATL 121352Z 29004KT 8SM CLR 29/20 A3020 RMK AO2 SLP214 T02890200=
201909121252 METAR KATL 121252Z 00000KT 8SM CLR 28/20 A3019 RMK AO2 SLP211 T02780200=
201909121152 METAR KATL 121152Z 32005KT 9SM CLR 25/19 A3018 RMK AO2 SLP209 T02500189 10267 20233 53014=
201909121052 METAR KATL 121052Z 32005KT 10SM CLR 25/19 A3016 RMK AO2 SLP201 T02500189=
201909120952 METAR KATL 120952Z 00000KT 10SM CLR 24/19 A3015 RMK AO2 SLP196 T02390189=
201909120852 METAR KATL 120852Z 31004KT 10SM CLR 24/18 A3014 RMK AO2 SLP194 T02440183 56007=
201909120752 METAR KATL 120752Z 30005KT 10SM CLR 25/18 A3014 RMK AO2 SLP194 T02500183 $=
201909120652 METAR KATL 120652Z 29004KT 10SM CLR 26/18 A3015 RMK AO2 SLP196 T02560183 $=
201909120552 METAR KATL 120552Z 24003KT 10SM CLR 26/18 A3016 RMK AO2 SLP201 T02560183 10311 20250 58004 $=
201909120452 METAR KATL 120452Z 17004KT 10SM FEW065 27/19 A3017 RMK AO2 SLP203 T02670189 403560228 $=
201909120352 METAR KATL 120352Z 32003KT 10SM FEW200 29/18 A3018 RMK AO2 SLP207 T02890178 $=
201909120252 METAR KATL 120252Z 28003KT 10SM FEW070 29/18 A3017 RMK AO2 SLP205 T02890178 51006 $=
201909120152 METAR KATL 120152Z 30005KT 10SM FEW070 29/18 A3017 RMK AO2 SLP206 T02940178 $=
201909120052 METAR KATL 120052Z 00000KT 10SM FEW250 31/18 A3016 RMK AO2 SLP201 T03060183 $=
201909112352 METAR KATL 112352Z 20005KT 10SM FEW070 FEW250 31/18 A3015 RMK AO2 SLP200 T03110178 10356 20311 56009 $=
201909112252 METAR KATL 112252Z 21004KT 10SM FEW070 FEW250 33/16 A3016 RMK AO2 SLP201 T03330161 $=
201909112152 METAR KATL 112152Z 00000KT 10SM FEW070 FEW250 34/16 A3017 RMK AO2 SLP204 T03440161 $=
201909112052 METAR KATL 112052Z 00000KT 10SM FEW070 34/16 A3018 RMK AO2 SLP208 MDT CU NW T03440161 56025 $=
201909111952 METAR KATL 111952Z 12004KT 10SM FEW065 34/17 A3020 RMK AO2 SLP214 T03440172 $=
201909111852 METAR KATL 111852Z VRB03KT 10SM SCT060 33/17 A3023 RMK AO2 SLP226 MDT CU N SE W T03280172=
201909111752 METAR KATL 111752Z VRB05KT 10SM SCT050 33/19 A3026 RMK AO2 SLP234 TCU DSNT W MDT CU SE-SW-NW T03330189 10344 20233 58018=
201909111652 METAR KATL 111652Z 00000KT 10SM SCT055 34/20 A3028 RMK AO2 SLP241 T03390200=
201909111552 METAR KATL 111552Z 17006KT 10SM FEW050 31/19 A3030 RMK AO2 SLP248 T03110189=
201909111452 METAR KATL 111452Z 00000KT 10SM CLR 29/20 A3031 RMK AO2 SLP254 T02940200 51008=
201909111352 METAR KATL 111352Z 18004KT 10SM FEW250 27/21 A3031 RMK AO2 SLP253 T02720211=
201909111252 METAR KATL 111252Z 10004KT 9SM FEW250 25/19 A3031 RMK AO2 SLP254 T02500194=
201909111152 METAR KATL 111152Z 10004KT 9SM FEW250 23/18 A3029 RMK AO2 SLP248 T02330183 10256 20228 51014=
201909111052 METAR KATL 111052Z 10004KT 10SM FEW250 23/18 A3028 RMK AO2 SLP242 T02330183=
201909110952 METAR KATL 110952Z 09005KT 10SM FEW250 23/18 A3026 RMK AO2 SLP236 T02330183=
201909110852 METAR KATL 110852Z 09005KT 10SM FEW250 24/18 A3024 RMK AO2 SLP229 T02390178 55003=
201909110752 METAR KATL 110752Z 09005KT 10SM SCT250 24/18 A3024 RMK AO2 SLP228 T02390183 $=
201909110652 METAR KATL 110652Z 09007KT 10SM FEW200 SCT250 24/19 A3025 RMK AO2 SLP230 T02440189 $=
201909110552 METAR KATL 110552Z 09003KT 10SM FEW150 SCT200 BKN250 25/19 A3026 RMK AO2 SLP234 T02500194 10278 20244 56003 $=
201909110452 METAR KATL 110452Z 09005KT 10SM FEW150 SCT200 BKN250 26/19 A3026 RMK AO2 SLP233 T02610194 403670239 $=
201909110352 METAR KATL 110352Z 06005KT 10SM SCT150 BKN200 OVC250 27/18 A3026 RMK AO2 SLP233 T02720183 $=
201909110252 METAR KATL 110252Z 32004KT 10SM FEW070 SCT150 BKN200 OVC250 27/19 A3026 RMK AO2 SLP235 T02720189 50009 $=
201909110152 METAR KATL 110152Z 33005KT 10SM SCT065 BKN150 OVC200 26/19 A3028 RMK AO2 SLP242 T02560194 $=
201909110052 METAR KATL 110052Z 00000KT 10SM SCT120 BKN150 OVC250 26/19 A3024 RMK AO2 SLP230 LTG DSNT NE SW-NW CB DSNT NE SW-NW T02560194 $=
201909102352 METAR KATL 102352Z 18007KT 10SM FEW040 SCT120 BKN150 BKN250 25/19 A3023 RMK AO2 WSHFT 2303 RAE48 SLP228 RAE47 TSE09 LTG DSNT S-W-NW CB DSNT S-W-NW P0000 60000 T02500194 10367 20250 51015 $=
201909102323 SPECI KATL 102323Z 16007G18KT 10SM -RA FEW045 SCT120 BKN150 BKN250 26/19 A3022 RMK AO2 WSHFT 2303 TSE09 LTG DSNT SE-SW-NW CB DSNT SE-SW-NW P0000 T02610194 $=
201909102310 SPECI KATL 102310Z 16014G21KT 9SM -RA FEW045 SCT120 BKN150 OVC250 28/20 A3024 RMK AO2 TSE09 LTG DSNT SE-SW-NW CB DSNT SE-SW-NW TS MOV W P0000 T02780200 $=
201909102252 METAR KATL 102252Z VRB03KT 10SM VCTS -RA FEW055CB SCT120 BKN150 OVC250 30/18 A3023 RMK AO2 SLP225 RAB51 OCNL LTGICCG VC SE-SW DSNT SW-NW TS VC SE-SW DSNT SW-NW MOV W P0000 T03000183 $=
201909102229 SPECI KATL 102229Z 07015KT 10SM TS SCT055CB BKN120 BKN200 OVC250 31/18 A3021 RMK AO2 OCNL LTGICCG NW-N DSNT SE-SW TS NW-N DSNT SE-SW MOV W T03060183 $=
201909102152 METAR KATL 102152Z 25011G32KT 10SM TS BKN065CB BKN110 BKN250 28/19 A3021 RMK AO2 PK WND 25032/2148 SLP220 RAB17E27 TSB35 OCNL LTGICCG SW-NW DSNT N E-SE TS SW-NW DSNT N E-SE MOV W TCU OHD-ALQDS P0000 T02780194 $=
201909102136 SPECI KATL 102136Z 16009KT 10SM TS SCT065CB BKN120 BKN250 33/18 A3020 RMK AO2 RAB17E27 TSB35 OCNL LTGICCG SW-NW TS SW-NW MOV W CB ALQDS MOV W P0000 T03330178 $=
201909102052 METAR KATL 102052Z VRB03KT 10SM SCT065TCU SCT090 BKN250 36/18 A3019 RMK AO2 LTG DSNT ALQDS SLP210 CB DSNT ALQDS TCU N-NE SE-SW-W SHRA VC SE T03560183 56021 $=
201909101952 METAR KATL 101952Z 09003KT 10SM FEW060TCU FEW080 SCT250 36/19 A3020 RMK AO2 LTG DSNT N SLP215 CB DSNT NW-N TCU SE T03560189 $=
201909101852 METAR KATL 101852Z 10007KT 10SM FEW055TCU SCT075 34/19 A3023 RMK AO2 SLP224 TCU SW-W T03440194 $=
201909101752 METAR KATL 101752Z 19003KT 10SM BKN055TCU 33/19 A3025 RMK AO2 SLP232 TCU OHD ALQDS T03280194 10350 20244 58009=
201909101652 METAR KATL 101652Z VRB03KT 10SM FEW050 33/20 A3027 RMK AO2 SLP236 T03280200=
201909101552 METAR KATL 101552Z 00000KT 9SM FEW050 33/20 A3028 RMK AO2 SLP240 T03280200=
201909101452 METAR KATL 101452Z VRB04KT 9SM FEW250 31/20 A3028 RMK AO2 SLP241 T03110200 51019=
201909101352 METAR KATL 101352Z VRB03KT 9SM FEW250 30/19 A3027 RMK AO2 SLP237 T03000194=
201909101252 METAR KATL 101252Z 00000KT 9SM FEW250 28/19 A3026 RMK AO2 SLP233 T02780189=
201909101152 METAR KATL 101152Z 00000KT 10SM FEW250 24/19 A3022 RMK AO2 SLP221 T02440194 10267 20239 53007=
201909101052 METAR KATL 101052Z 16003KT 10SM FEW070 24/19 A3021 RMK AO2 SLP218 T02440194=
201909100952 METAR KATL 100952Z 00000KT 10SM FEW070 FEW250 25/19 A3020 RMK AO2 SLP214 T02500194=
201909100852 METAR KATL 100852Z 00000KT 10SM FEW070 FEW250 25/19 A3020 RMK AO2 SLP214 T02500194 53003=
201909100752 METAR KATL 100752Z 00000KT 10SM FEW070 FEW250 26/20 A3018 RMK AO2 SLP206 T02560200=
201909100652 METAR KATL 100652Z 00000KT 10SM CLR 27/20 A3019 RMK AO2 SLP209 T02670200=
201909100552 METAR KATL 100552Z 19003KT 10SM FEW070 FEW250 26/20 A3019 RMK AO2 SLP210 TCU DSNT SE T02610200 10344 20261 53013=
201909100452 METAR KATL 100452Z 20003KT 10SM FEW250 26/20 A3017 RMK AO2 SLP203 T02610200 403720250=
201909100352 METAR KATL 100352Z 19006KT 10SM FEW250 27/20 A3017 RMK AO2 SLP202 T02720200=
201909100252 METAR KATL 100252Z 14006KT 10SM SCT250 28/20 A3015 RMK AO2 SLP198 T02830200 53015=
201909100152 METAR KATL 100152Z 25005KT 10SM SCT250 29/20 A3013 RMK AO2 SLP189 T02890200=
201909100052 METAR KATL 100052Z 19006KT 10SM FEW090 SCT250 31/18 A3011 RMK AO2 SLP183 T03110183=
201909092352 METAR KATL 092352Z 07006KT 10SM FEW090 SCT250 34/14 A3011 RMK AO2 SLP182 T03440144 10372 20344 53003=
201909092252 METAR KATL 092252Z 00000KT 10SM FEW090 FEW250 36/13 A3009 RMK AO2 SLP177 CB DSNT E-SE T03560133=
201909092152 METAR KATL 092152Z 00000KT 10SM FEW090 FEW250 36/14 A3010 RMK AO2 SLP180 CB DSNT SE T03610144=
201909092052 METAR KATL 092052Z 00000KT 10SM FEW090 FEW250 36/13 A3010 RMK AO2 SLP178 CB DSNT SE-SW T03610133 55015=
201909091952 METAR KATL 091952Z 34005KT 10SM FEW090 FEW250 37/15 A3009 RMK AO2 SLP176 CB DSNT SE-SW T03670150=
201909091852 METAR KATL 091852Z 12006KT 10SM FEW085 FEW250 36/16 A3011 RMK AO2 SLP183 CB DSNT SE-SW T03610161=
201909091752 METAR KATL 091752Z 00000KT 10SM FEW080 FEW250 36/16 A3014 RMK AO2 SLP193 CB DSNT SE-SW T03560161 10361 20256 58009=
201909091652 METAR KATL 091652Z VRB05KT 10SM FEW070 FEW250 36/17 A3016 RMK AO2 SLP199 T03560167=
201909091552 METAR KATL 091552Z 13003KT 10SM FEW250 34/17 A3016 RMK AO2 SLP201 T03390172=
201909091452 METAR KATL 091452Z 08005KT 10SM FEW250 32/17 A3017 RMK AO2 SLP202 T03170167 51013=
201909091352 METAR KATL 091352Z VRB05KT 10SM FEW250 30/17 A3017 RMK AO2 SLP202 T03000172=
201909091252 METAR KATL 091252Z 06004KT 10SM FEW070 FEW250 27/17 A3015 RMK AO2 SLP198 T02720167=
201909091152 METAR KATL 091152Z 04004KT 10SM FEW070 FEW250 26/16 A3013 RMK AO2 SLP190 T02610156 10267 20250 53018=
201909091052 METAR KATL 091052Z 02005KT 10SM FEW070 25/15 A3011 RMK AO2 SLP183 T02500150=
201909090952 METAR KATL 090952Z 03005KT 10SM CLR 25/15 A3009 RMK AO2 SLP176 T02500150=
201909090852 METAR KATL 090852Z 04004KT 10SM CLR 26/15 A3007 RMK AO2 SLP171 T02560150 51000=
201909090752 METAR KATL 090752Z 06004KT 10SM CLR 26/15 A3007 RMK AO2 SLP171 T02560150=
201909090652 METAR KATL 090652Z 06004KT 10SM CLR 26/15 A3007 RMK AO2 SLP171 T02610150=
201909090552 METAR KATL 090552Z 07004KT 10SM FEW250 27/16 A3007 RMK AO2 SLP170 T02670156 10328 20267 53002=
201909090452 METAR KATL 090452Z 09005KT 10SM CLR 27/15 A3007 RMK AO2 SLP169 T02720150 403560217=
201909090352 METAR KATL 090352Z 00000KT 10SM CLR 28/14 A3006 RMK AO2 SLP167 T02830144=
201909090252 METAR KATL 090252Z 04007KT 10SM FEW250 30/13 A3006 RMK AO2 SLP168 T03000133 51013=
201909090152 METAR KATL 090152Z 04008KT 10SM FEW250 32/13 A3005 RMK AO2 SLP164 T03170133=
201909090052 METAR KATL 090052Z 36008KT 10SM FEW250 31/13 A3004 RMK AO2 SLP160 T03110133=
201909082352 METAR KATL 082352Z 36008KT 10SM FEW250 33/13 A3002 RMK AO2 SLP155 T03280133 10356 20328 53005=
201909082252 METAR KATL 082252Z 30006KT 10SM FEW075 FEW250 34/14 A3001 RMK AO2 SLP151 T03390139=
201909082152 METAR KATL 082152Z 27005KT 10SM FEW075 35/16 A3000 RMK AO2 SLP146 T03500161=
201909082052 METAR KATL 082052Z 28009KT 10SM FEW070 36/16 A3001 RMK AO2 SLP149 T03560161 58008=
201909081952 METAR KATL 081952Z 28008KT 10SM FEW070 FEW250 36/16 A3002 RMK AO2 SLP153 T03560156=
201909081852 METAR KATL 081852Z VRB06KT 10SM FEW060 FEW150 34/17 A3003 RMK AO2 SLP155 T03440167=
201909081752 METAR KATL 081752Z VRB06KT 10SM FEW060 34/17 A3004 RMK AO2 SLP158 T03390167 10339 20228 56011 $=
201909081652 METAR KATL 081652Z VRB03KT 10SM CLR 33/16 A3004 RMK AO2 SLP160 T03280161 $=
201909081552 METAR KATL 081552Z 09003KT 10SM CLR 31/16 A3006 RMK AO2 SLP164 T03110156 $=
201909081452 METAR KATL 081452Z 09005KT 10SM CLR 29/15 A3007 RMK AO2 SLP169 T02940150 51011 $=
201909081352 METAR KATL 081352Z 08006KT 10SM CLR 28/14 A3007 RMK AO2 SLP170 T02780144 $=
201909081252 METAR KATL 081252Z 31004KT 8SM FEW060 26/15 A3006 RMK AO2 SLP167 T02560150 $=
201909081152 METAR KATL 081152Z 35003KT 10SM FEW060 23/14 A3004 RMK AO2 SLP159 T02280144 10261 20217 53017 $=
201909081052 METAR KATL 081052Z 34003KT 10SM FEW055 22/14 A3001 RMK AO2 SLP151 T02220144 $=
201909080952 METAR KATL 080952Z 32004KT 10SM CLR 23/14 A3000 RMK AO2 SLP144 T02330144 $=
201909080852 METAR KATL 080852Z 31003KT 10SM FEW055 23/16 A2998 RMK AO2 SLP140 T02330161 55002 $=
201909080752 METAR KATL 080752Z 33003KT 10SM FEW055 24/15 A2998 RMK AO2 SLP139 T02440150 $=
201909080652 METAR KATL 080652Z 01005KT 10SM FEW055 25/15 A2998 RMK AO2 SLP140 T02500150 $=
201909080552 METAR KATL 080552Z 33005KT 10SM FEW055 26/17 A2999 RMK AO2 SLP143 T02560167 10322 20256 53005 $=
201909080452 METAR KATL 080452Z 33006KT 10SM FEW055 27/17 A2998 RMK AO2 SLP140 T02670172 403560228 $=
201909080352 METAR KATL 080352Z 33005KT 10SM FEW055 28/18 A2998 RMK AO2 SLP139 T02780183 $=
201909080252 METAR KATL 080252Z 33008KT 10SM FEW055 29/18 A2998 RMK AO2 SLP137 T02890183 53014 $=
201909080152 METAR KATL 080152Z 33008KT 10SM FEW048 30/18 A2996 RMK AO2 SLP134 T03000183 $=
201909080052 METAR KATL 080052Z 33006KT 10SM FEW050 31/19 A2995 RMK AO2 SLP128 T03110194=
201909072352 METAR KATL 072352Z 34005KT 10SM FEW055 32/19 A2993 RMK AO2 SLP124 TCU DSNT S MDT CU DSNT SE-SW T03220194 10356 20322 53007=
201909072252 METAR KATL 072252Z 33008KT 10SM FEW060 34/19 A2992 RMK AO2 SLP119 MDT CU SE T03390194=
201909072152 METAR KATL 072152Z 30010KT 10SM FEW065 SCT080 35/18 A2991 RMK AO2 SLP117 T03500183=
201909072052 METAR KATL 072052Z 32010G17KT 10SM SCT060 SCT075 36/18 A2991 RMK AO2 SLP116 T03560183 56018=
201909071952 METAR KATL 071952Z 29008KT 10SM SCT055 SCT075 35/20 A2993 RMK AO2 SLP121 T03500200=
201909071852 METAR KATL 071852Z 32012G18KT 10SM SCT055 34/19 A2995 RMK AO2 SLP129 T03440194=
201909071752 METAR KATL 071752Z 34010KT 10SM SCT046 SCT055 33/19 A2997 RMK AO2 SLP136 T03330194 10339 20233 58014=
201909071652 METAR KATL 071652Z 28011KT 10SM SCT042 SCT050 32/21 A2998 RMK AO2 SLP141 T03220206=
201909071552 METAR KATL 071552Z 34010KT 10SM CLR 32/21 A3000 RMK AO2 SLP148 T03170211=
201909071452 METAR KATL 071452Z 33006KT 10SM CLR 29/21 A3001 RMK AO2 SLP150 T02940206 51006=
201909071352 METAR KATL 071352Z 32009KT 10SM CLR 27/19 A3001 RMK AO2 SLP149 T02720194=
201909071252 METAR KATL 071252Z 32010KT 10SM CLR 25/18 A3000 RMK AO2 SLP149 T02500183=
201909071152 METAR KATL 071152Z 31008KT 10SM CLR 23/17 A2999 RMK AO2 SLP145 T02330172 10244 20228 53012=
201909071052 METAR KATL 071052Z 31008KT 10SM CLR 23/17 A2997 RMK AO2 SLP136 T02280167=
201909070952 METAR KATL 070952Z 32008KT 10SM CLR 23/17 A2996 RMK AO2 SLP133 T02280167=
201909070852 METAR KATL 070852Z 31006KT 10SM CLR 23/17 A2996 RMK AO2 SLP132 T02280167 56006=
201909070752 METAR KATL 070752Z 31008KT 10SM CLR 23/16 A2996 RMK AO2 SLP132 T02280161=
201909070652 METAR KATL 070652Z 32007KT 10SM CLR 24/16 A2997 RMK AO2 SLP136 T02390161=
201909070552 METAR KATL 070552Z 30007KT 10SM CLR 24/16 A2997 RMK AO2 SLP138 T02390156 10306 20239 52007=
201909070452 METAR KATL 070452Z 30006KT 10SM CLR 24/16 A2997 RMK AO2 SLP135 T02440156 403500206=
201909070352 METAR KATL 070352Z 31008KT 10SM CLR 26/15 A2996 RMK AO2 SLP133 T02560150=
201909070252 METAR KATL 070252Z 31008KT 10SM CLR 27/15 A2995 RMK AO2 SLP131 T02720150 51010=
201909070152 METAR KATL 070152Z 31006KT 10SM CLR 28/14 A2995 RMK AO2 SLP130 T02780144=
201909070052 METAR KATL 070052Z 32006KT 10SM CLR 29/14 A2993 RMK AO2 SLP126 T02890144=
201909062352 METAR KATL 062352Z 32008KT 10SM CLR 31/14 A2992 RMK AO2 SLP122 T03060139 10350 20306 53006=
201909062252 METAR KATL 062252Z 34012KT 10SM CLR 32/13 A2991 RMK AO2 SLP118 T03220133=
201909062152 METAR KATL 062152Z 33013G22KT 10SM CLR 34/09 A2991 RMK AO2 SLP114 T03390094=
201909062052 METAR KATL 062052Z 32011G19KT 10SM CLR 34/06 A2990 RMK AO2 SLP113 T03440056 56013=
201909061952 METAR KATL 061952Z 32011KT 280V350 10SM CLR 33/11 A2991 RMK AO2 SLP116 T03330106=
201909061852 METAR KATL 061852Z 31012G16KT 10SM CLR 33/11 A2992 RMK AO2 SLP121 T03280111=
201909061752 METAR KATL 061752Z 33009G15KT 10SM CLR 32/14 A2994 RMK AO2 SLP126 T03170144 10322 20206 57009=
201909061652 METAR KATL 061652Z 30010KT 10SM CLR 31/17 A2995 RMK AO2 SLP129 T03060167=
201909061552 METAR KATL 061552Z 27007KT 10SM CLR 30/17 A2996 RMK AO2 SLP133 T03000172=
201909061452 METAR KATL 061452Z VRB05KT 10SM CLR 27/17 A2997 RMK AO2 SLP137 T02670167 51008=
201909061352 METAR KATL 061352Z 31008KT 10SM CLR 24/16 A2997 RMK AO2 SLP137 T02390161=
201909061252 METAR KATL 061252Z 31010KT 10SM CLR 22/16 A2996 RMK AO2 SLP134 T02170156=
201909061152 METAR KATL 061152Z 32007KT 10SM CLR 21/16 A2994 RMK AO2 SLP130 T02060156 10239 20206 51014=
201909061052 METAR KATL 061052Z 33006KT 10SM CLR 21/15 A2993 RMK AO2 SLP125 T02060150=
201909060952 METAR KATL 060952Z 32010KT 10SM CLR 21/15 A2992 RMK AO2 SLP119 T02110150=
201909060852 METAR KATL 060852Z 32009KT 10SM CLR 22/16 A2990 RMK AO2 SLP113 T02170156 55002=
201909060752 METAR KATL 060752Z 32009KT 10SM CLR 22/16 A2990 RMK AO2 SLP111 T02220156=
201909060652 METAR KATL 060652Z 31008KT 10SM CLR 23/16 A2990 RMK AO2 SLP114 T02280156=
201909060552 METAR KATL 060552Z 32007KT 10SM CLR 24/16 A2991 RMK AO2 SLP115 T02390156 10306 20239 58002=
201909060452 METAR KATL 060452Z 32009KT 10SM CLR 25/16 A2991 RMK AO2 SLP116 T02500156 403500244=
201909060352 METAR KATL 060352Z 32010KT 10SM CLR 26/16 A2991 RMK AO2 SLP117 T02610156=
201909060252 METAR KATL 060252Z 33009KT 10SM CLR 27/15 A2991 RMK AO2 SLP118 T02670150 51008=
201909060152 METAR KATL 060152Z 32011KT 10SM CLR 28/14 A2991 RMK AO2 SLP118 T02830144=
201909060052 METAR KATL 060052Z 31011KT 10SM FEW070 29/14 A2990 RMK AO2 SLP112 T02940144=
201909052352 METAR KATL 052352Z 32013G20KT 10SM FEW070 31/14 A2989 RMK AO2 SLP110 T03060139 10350 20306 53004=
201909052252 METAR KATL 052252Z 33014G21KT 10SM FEW070 FEW250 32/14 A2988 RMK AO2 SLP107 T03220139=
201909052152 METAR KATL 052152Z 32014G23KT 10SM FEW070 FEW250 33/15 A2987 RMK AO2 SLP103 T03330150=
201909052052 METAR KATL 052052Z 34013G22KT 10SM FEW075 FEW250 34/14 A2988 RMK AO2 SLP104 T03440144 56013=
201909051952 METAR KATL 051952Z 32017G22KT 10SM FEW070 FEW250 34/16 A2988 RMK AO2 SLP104 T03440156=
201909051852 METAR KATL 051852Z 32011G21KT 10SM FEW070 FEW250 34/16 A2989 RMK AO2 SLP109 T03390161=
201909051752 METAR KATL 051752Z 32014G22KT 10SM FEW065 FEW250 33/17 A2992 RMK AO2 SLP117 T03330167 10333 20244 56011=
201909051652 METAR KATL 051652Z 33014G21KT 10SM FEW060 FEW250 33/16 A2993 RMK AO2 PK WND 32026/1613 SLP121 T03280161=
201909051552 METAR KATL 051552Z 34010KT 10SM FEW050 FEW150 SCT250 31/19 A2994 RMK AO2 SLP126 T03110194=
201909051452 METAR KATL 051452Z 33011KT 9SM FEW150 FEW200 SCT250 29/21 A2995 RMK AO2 SLP129 T02890206 50001=
201909051352 METAR KATL 051352Z 31010KT 9SM FEW150 FEW200 BKN250 26/21 A2996 RMK AO2 SLP134 T02560206=
201909051252 METAR KATL 051252Z 32011KT 9SM SCT200 BKN250 24/20 A2997 RMK AO2 SLP136 T02440200=
201909051152 METAR KATL 051152Z 31012KT 9SM SCT200 BKN250 24/19 A2995 RMK AO2 SLP129 T02440189 10272 20244 53011=
201909051052 METAR KATL 051052Z 32011KT 10SM SCT200 BKN250 24/18 A2994 RMK AO2 SLP125 T02440183=
201909050952 METAR KATL 050952Z 32009KT 10SM SCT200 BKN250 25/18 A2992 RMK AO2 SLP119 T02500183=
201909050852 METAR KATL 050852Z 32009KT 10SM BKN200 BKN250 25/18 A2992 RMK AO2 SLP117 T02500178 56007=
201909050752 METAR KATL 050752Z 32005KT 10SM SCT200 BKN250 24/17 A2992 RMK AO2 SLP118 T02440172 $=
201909050652 METAR KATL 050652Z 34006KT 10SM SCT200 BKN250 26/17 A2993 RMK AO2 SLP122 T02610172 $=
201909050552 METAR KATL 050552Z 36010KT 10SM BKN250 27/17 A2994 RMK AO2 SLP124 T02720172 10333 20272 58002 $=
201909050452 METAR KATL 050452Z 01010KT 10SM BKN250 28/17 A2994 RMK AO2 SLP126 T02780172 403610239 $=
201909050352 METAR KATL 050352Z 34005KT 10SM SCT250 27/18 A2994 RMK AO2 SLP126 T02720178 $=
201909050252 METAR KATL 050252Z 35007KT 10SM SCT250 29/18 A2994 RMK AO2 SLP126 T02940178 50002 $=
201909050152 METAR KATL 050152Z 34007KT 10SM SCT250 30/17 A2994 RMK AO2 SLP127 T03000172 $=
201909050052 METAR KATL 050052Z 35010KT 10SM SCT250 32/16 A2994 RMK AO2 SLP124 T03220161 $=
201909042352 METAR KATL 042352Z 36010KT 10SM FEW200 SCT250 33/17 A2994 RMK AO2 SLP124 T03330172 10361 20333 58004 $=
201909042252 METAR KATL 042252Z 35012KT 10SM FEW250 34/17 A2994 RMK AO2 SLP126 T03440172 $=
201909042152 METAR KATL 042152Z 01011KT 10SM FEW250 36/16 A2995 RMK AO2 SLP127 T03560161 $=
201909042052 METAR KATL 042052Z 36012G17KT 10SM FEW070 FEW250 36/17 A2995 RMK AO2 SLP128 T03560167 56020=
201909041952 METAR KATL 041952Z 02007KT 9SM FEW070 FEW250 36/16 A2996 RMK AO2 SLP132 T03560161=
201909041852 METAR KATL 041852Z VRB05G18KT 10SM FEW065 FEW250 34/18 A2999 RMK AO2 SLP142 T03440178=
201909041752 METAR KATL 041752Z 36007KT 10SM FEW060 FEW250 34/18 A3001 RMK AO2 SLP148 T03390183 10344 20256 58014=
201909041652 METAR KATL 041652Z 04009KT 10SM FEW055 FEW250 33/18 A3003 RMK AO2 SLP155 T03330183=
201909041552 METAR KATL 041552Z 04010KT 010V070 10SM FEW050 FEW250 32/19 A3004 RMK AO2 SLP160 T03170194=
201909041452 METAR KATL 041452Z 05009KT 10SM FEW250 31/20 A3005 RMK AO2 SLP163 T03060200 50000=
201909041352 METAR KATL 041352Z 04006KT 10SM FEW250 29/19 A3005 RMK AO2 SLP165 T02890194=
201909041252 METAR KATL 041252Z 01009KT 10SM FEW250 27/19 A3005 RMK AO2 SLP163 T02670189=
201909041152 METAR KATL 041152Z 04008KT 10SM FEW250 26/19 A3005 RMK AO2 SLP163 T02560189 10272 20239 53020=
201909041052 METAR KATL 041052Z 02004KT 10SM FEW250 25/19 A3002 RMK AO2 SLP153 T02500189=
201909040952 METAR KATL 040952Z 03006KT 10SM FEW250 25/19 A3000 RMK AO2 SLP147 T02500189=
201909040852 METAR KATL 040852Z 00000KT 10SM FEW250 25/18 A2999 RMK AO2 SLP141 T02500183 58003=
201909040752 METAR KATL 040752Z 03003KT 10SM CLR 26/18 A2999 RMK AO2 SLP143 T02560183=
201909040652 METAR KATL 040652Z 01004KT 10SM CLR 26/18 A3000 RMK AO2 SLP144 T02610183=
201909040552 METAR KATL 040552Z 04003KT 10SM CLR 27/18 A3000 RMK AO2 SLP145 T02720183 10317 20267 58005=
201909040452 METAR KATL 040452Z 07003KT 10SM CLR 27/18 A3000 RMK AO2 SLP147 T02720178 403500228=
201909040352 METAR KATL 040352Z 08005KT 10SM CLR 27/18 A3002 RMK AO2 SLP151 T02720178=
201909040252 METAR KATL 040252Z 09007KT 10SM CLR 28/17 A3001 RMK AO2 SLP151 T02830172 51012=
201909040152 METAR KATL 040152Z 09008KT 10SM CLR 29/17 A3000 RMK AO2 SLP148 T02890172=
201909040052 METAR KATL 040052Z 10006KT 10SM CLR 30/17 A2999 RMK AO2 SLP143 T03000167=
201909032352 METAR KATL 032352Z 08010KT 10SM FEW070 32/16 A2998 RMK AO2 SLP139 T03170161 10350 20317 53002=
201909032252 METAR KATL 032252Z 07010KT 10SM FEW070 33/16 A2997 RMK AO2 SLP138 T03280161=
201909032152 METAR KATL 032152Z 05009KT 10SM FEW070 34/16 A2997 RMK AO2 SLP136 T03390161=
201909032052 METAR KATL 032052Z 08011KT 10SM FEW070 34/16 A2997 RMK AO2 SLP136 T03440156 56018=
201909031952 METAR KATL 031952Z 08007KT 10SM FEW070 34/16 A2999 RMK AO2 SLP142 T03390161=
201909031852 METAR KATL 031852Z 06008KT 10SM SCT065 34/17 A3000 RMK AO2 SLP147 T03390172=
201909031752 METAR KATL 031752Z VRB03KT 10SM SCT055 33/18 A3003 RMK AO2 SLP154 T03280178 10333 20239 58011=
201909031652 METAR KATL 031652Z VRB05KT 10SM FEW050 32/18 A3004 RMK AO2 SLP160 T03220183=
201909031552 METAR KATL 031552Z 03010KT 10SM CLR 31/19 A3006 RMK AO2 SLP165 T03110189=
201909031452 METAR KATL 031452Z VRB03KT 10SM CLR 29/20 A3006 RMK AO2 SLP167 T02940200 51008=
201909031352 METAR KATL 031352Z 07005KT 10SM CLR 28/19 A3005 RMK AO2 SLP164 T02780194=
201909031252 METAR KATL 031252Z 07004KT 10SM CLR 26/19 A3005 RMK AO2 SLP162 T02610189=
201909031152 METAR KATL 031152Z 09003KT 10SM FEW055 24/18 A3004 RMK AO2 SLP160 T02390183 10261 20228 51013=
201909031052 METAR KATL 031052Z 08005KT 10SM FEW050 23/18 A3002 RMK AO2 SLP155 T02280178=
201909030952 METAR KATL 030952Z 08005KT 10SM CLR 23/18 A3001 RMK AO2 SLP150 T02330178 $=
201909030852 METAR KATL 030852Z 09003KT 10SM CLR 24/18 A3000 RMK AO2 SLP145 T02440178 55005 $=
201909030752 METAR KATL 030752Z 00000KT 10SM CLR 24/18 A2999 RMK AO2 SLP145 T02390178 $=
201909030652 METAR KATL 030652Z 00000KT 10SM CLR 24/18 A2999 RMK AO2 SLP143 T02440183 $=
201909030552 METAR KATL 030552Z 00000KT 10SM CLR 26/18 A3001 RMK AO2 SLP149 T02610183 10306 20261 58005 $=
201909030452 METAR KATL 030452Z 05003KT 10SM CLR 27/18 A3002 RMK AO2 SLP153 T02720178 403390222 $=
201909030352 METAR KATL 030352Z 00000KT 10SM CLR 27/18 A3002 RMK AO2 SLP154 T02720178 $=
201909030252 METAR KATL 030252Z 00000KT 10SM CLR 28/17 A3003 RMK AO2 SLP156 T02830167 53007 $=
201909030152 METAR KATL 030152Z 09005KT 10SM CLR 28/17 A3002 RMK AO2 SLP154 T02830167 $=
201909030052 METAR KATL 030052Z 09004KT 10SM CLR 29/17 A3001 RMK AO2 SLP151 T02940167 $=
201909022352 METAR KATL 022352Z 08008KT 10SM FEW065 31/16 A3000 RMK AO2 SLP149 T03060156 10339 20306 55002 $=
201909022252 METAR KATL 022252Z 04007KT 10SM FEW065 32/16 A3000 RMK AO2 SLP148 T03220161 $=
201909022152 METAR KATL 022152Z 08009KT 10SM FEW065 33/17 A3000 RMK AO2 SLP148 T03330172=
201909022052 METAR KATL 022052Z 07008KT 10SM FEW060 FEW090 32/17 A3001 RMK AO2 SLP150 MDT CU SE-SW T03220167 56021=
201909021952 METAR KATL 021952Z 04007KT 010V080 10SM SCT060 33/17 A3002 RMK AO2 SLP155 MDT CU ALQDS T03330172=
201909021852 METAR KATL 021852Z 08007KT 040V120 10SM SCT055 33/17 A3005 RMK AO2 SLP163 T03280172=
201909021752 METAR KATL 021752Z 06011KT 10SM FEW052 32/17 A3007 RMK AO2 SLP172 T03220172 10322 20222 58014=
201909021652 METAR KATL 021652Z 03008KT 10SM FEW050 31/18 A3009 RMK AO2 SLP178 T03060178=
201909021552 METAR KATL 021552Z 05009KT 10SM FEW040 29/18 A3011 RMK AO2 SLP185 T02890183=
201909021452 METAR KATL 021452Z AUTO 05010KT 10SM CLR 28/18 A3011 RMK AO2 SLP187 T02780178 51003=
201909021352 METAR KATL 021352Z 06008KT 10SM CLR 26/19 A3011 RMK AO2 SLP187 T02610189=
201909021252 METAR KATL 021252Z 06009KT 10SM CLR 24/18 A3012 RMK AO2 SLP187 T02440183=
201909021152 METAR KATL 021152Z 07007KT 10SM CLR 22/18 A3011 RMK AO2 SLP185 T02220183 10244 20222 53010=
201909021052 METAR KATL 021052Z 05007KT 10SM CLR 22/18 A3010 RMK AO2 SLP180 T02220183=
201909020952 METAR KATL 020952Z 07008KT 10SM FEW250 22/18 A3008 RMK AO2 SLP176 T02220183=
201909020852 METAR KATL 020852Z 06008KT 10SM FEW150 FEW200 SCT250 23/18 A3007 RMK AO2 SLP173 T02280183 55006=
201909020752 METAR KATL 020752Z 07007KT 10SM FEW150 FEW200 FEW250 23/18 A3007 RMK AO2 SLP172 T02280183=
201909020652 METAR KATL 020652Z 07007KT 10SM FEW150 FEW200 FEW250 23/18 A3008 RMK AO2 SLP176 T02330183=
201909020552 METAR KATL 020552Z 06006KT 10SM FEW150 FEW200 FEW250 24/18 A3009 RMK AO2 SLP179 T02440183 10283 20239 56009=
201909020452 METAR KATL 020452Z 09006KT 10SM FEW150 FEW200 SCT250 24/18 A3010 RMK AO2 SLP180 T02440183 403060222=
201909020352 METAR KATL 020352Z 09008KT 10SM FEW150 SCT200 BKN250 26/18 A3011 RMK AO2 SLP185 T02560178=
201909020252 METAR KATL 020252Z 09007KT 10SM FEW100 SCT150 BKN200 BKN250 26/18 A3012 RMK AO2 SLP189 T02610183 53013=
201909020152 METAR KATL 020152Z 09008KT 10SM SCT150 BKN200 BKN250 27/18 A3010 RMK AO2 SLP183 T02720183=
201909020052 METAR KATL 020052Z 09009KT 10SM SCT150 BKN200 BKN250 28/19 A3009 RMK AO2 SLP178 T02830189=
201909012352 METAR KATL 012352Z 09008KT 10SM FEW080 SCT140 BKN200 BKN250 29/18 A3008 RMK AO2 SLP177 ACC NE T02890183 10306 20289 56001=
201909012252 METAR KATL 012252Z 08008KT 10SM FEW044 SCT080 SCT140 BKN200 29/19 A3009 RMK AO2 SLP178 CB DSNT SE TCU DSNT NW-N ACC NW-NE T02940189=
201909012152 METAR KATL 012152Z 06007KT 10SM FEW044 BKN080 BKN140 BKN200 29/18 A3008 RMK AO2 SLP175 TCU DSNT SE-S NW T02940183=
201909012052 METAR KATL 012052Z 07008KT 10SM FEW044 BKN075 BKN200 29/18 A3009 RMK AO2 LTG DSNT S SLP177 CB DSNT S TCU DSNT NE T02940183 56018=
201909011952 METAR KATL 011952Z 09009KT 10SM SCT038 SCT070 BKN200 29/19 A3010 RMK AO2 SLP181 T02940189=
201909011852 METAR KATL 011852Z 07009KT 10SM SCT038TCU BKN050 BKN075 BKN250 31/20 A3012 RMK AO2 SLP187 TCU ALQDS T03060200=
201909011752 METAR KATL 011752Z 10007KT 10SM SCT035TCU BKN075 BKN200 30/20 A3014 RMK AO2 SLP196 TCU SW-NW T03000200 10306 20222 58014=
201909011652 METAR KATL 011652Z 08007KT 10SM BKN031 BKN055 BKN150 29/20 A3016 RMK AO2 SLP203 MDT CU ALQDS T02940200=
201909011552 METAR KATL 011552Z 10007KT 080V140 10SM SCT022 BKN050 BKN200 28/21 A3018 RMK AO2 SLP208 MDT CU E T02830206=
201909011524 SPECI KATL 011524Z 09009KT 10SM SCT022 BKN044 BKN060 27/21 A3018 RMK AO2 T02720206=
201909011459 SPECI KATL 011459Z 08009KT 10SM BKN022 BKN040 27/21 A3019 RMK AO2 T02670206=
201909011452 METAR KATL 011452Z 09009KT 10SM SCT022 BKN150 27/21 A3018 RMK AO2 SLP211 SCT022 V BKN T02670206 51009=
201909011407 SPECI KATL 011407Z 08009KT 10SM FEW015 BKN040 BKN200 26/21 A3018 RMK AO2 T02610206=
201909011352 METAR KATL 011352Z 08010KT 10SM BKN015 BKN035 BKN200 25/20 A3018 RMK AO2 SLP211 T02500200=
201909011312 SPECI KATL 011312Z 08009KT 10SM FEW015 SCT027 BKN033 BKN200 24/20 A3018 RMK AO2 T02390200=
201909011252 METAR KATL 011252Z 08007KT 10SM BKN020 BKN095 BKN250 23/20 A3018 RMK AO2 SLP208 BKN020 V SCT T02330200=
201909011201 SPECI KATL 011201Z 09007KT 10SM BKN020 BKN095 BKN250 22/19 A3016 RMK AO2 T02220194=
