##########################################################
# Query made at 04/20/2024 00:04:26 UTC
# Time interval: from 04/01/2019 12:00  to 04/30/2019 12:59  UTC
##########################################################

##########################################################
# KATL, Atlanta, Hartsfield - Jackson Atlanta International Airport (United States)
# WMO index: 72219. WIGOS ID: 0-20000-0-72219
# Latitude 33-38-59N. Longitude 084-25-00W. Altitude 312 m.
##########################################################

201904301252 METAR KATL 301252Z 19005KT 10SM FEW250 20/14 A3025 RMK AO2 SLP237 T02000144=
201904301152 METAR KATL 301152Z 15005KT 10SM FEW250 18/14 A3025 RMK AO2 SLP236 T01780139 10211 20178 51010=
201904301052 METAR KATL 301052Z 12003KT 10SM FEW150 FEW250 18/13 A3024 RMK AO2 SLP234 T01780133=
201904300952 METAR KATL 300952Z 15003KT 10SM FEW250 18/13 A3023 RMK AO2 SLP229 T01830133=
201904300852 METAR KATL 300852Z 00000KT 8SM SCT250 18/13 A3022 RMK AO2 SLP225 T01830133 53006=
201904300752 METAR KATL 300752Z 17004KT 10SM SCT250 19/13 A3020 RMK AO2 SLP218 T01940133=
201904300652 METAR KATL 300652Z 00000KT 10SM SCT250 20/13 A3019 RMK AO2 SLP216 T02000133=
201904300552 METAR KATL 300552Z 00000KT 10SM SCT250 21/13 A3020 RMK AO2 SLP218 T02110133 10272 20206 58000=
201904300452 METAR KATL 300452Z 19003KT 10SM SCT250 22/13 A3021 RMK AO2 SLP222 T02170133 402940172=
201904300352 METAR KATL 300352Z 16004KT 10SM BKN250 22/13 A3020 RMK AO2 SLP219 T02220128=
201904300252 METAR KATL 300252Z 16005KT 10SM BKN250 23/13 A3020 RMK AO2 SLP219 T02280133 51012=
201904300152 METAR KATL 300152Z 15004KT 10SM SCT250 24/13 A3019 RMK AO2 SLP216 T02440128=
201904300052 METAR KATL 300052Z 15005KT 10SM FEW250 25/13 A3018 RMK AO2 SLP211 T02500133=
201904292352 METAR KATL 292352Z 16008KT 10SM FEW010 SCT250 27/14 A3017 RMK AO2 SLP207 FEW010 FU T02720139 10294 20272 50004=
201904292252 METAR KATL 292252Z 17006KT 10SM FEW060 BKN250 28/14 A3017 RMK AO2 SLP209 T02780139=
201904292152 METAR KATL 292152Z 16007KT 10SM FEW060 BKN250 28/14 A3016 RMK AO2 SLP203 T02830139=
201904292052 METAR KATL 292052Z 19006G17KT 10SM FEW060 FEW200 BKN250 29/14 A3016 RMK AO2 SLP203 T02890139 56009=
201904291952 METAR KATL 291952Z 19009G16KT 10SM FEW060 SCT200 BKN250 29/14 A3016 RMK AO2 SLP206 T02890144=
201904291852 METAR KATL 291852Z 21010KT 10SM FEW060 FEW200 BKN250 28/14 A3017 RMK AO2 SLP208 T02830139=
201904291752 METAR KATL 291752Z 18013G18KT 10SM FEW050 SCT200 BKN250 28/14 A3019 RMK AO2 SLP213 T02830139 10283 20189 58007=
201904291652 METAR KATL 291652Z 19010G16KT 10SM FEW050 SCT200 BKN250 27/14 A3020 RMK AO2 SLP219 T02720139=
201904291552 METAR KATL 291552Z VRB03KT 10SM FEW048 FEW200 BKN250 26/14 A3022 RMK AO2 SLP224 T02610139=
201904291452 METAR KATL 291452Z 13004KT 10SM BKN250 25/14 A3021 RMK AO2 SLP220 T02500139 53009=
201904291352 METAR KATL 291352Z 15004KT 10SM BKN250 23/14 A3019 RMK AO2 SLP215 T02330144=
201904291252 METAR KATL 291252Z 12003KT 10SM FEW045 BKN200 21/16 A3018 RMK AO2 SLP212 T02110161=
201904291152 METAR KATL 291152Z 00000KT 9SM FEW042 FEW150 BKN200 19/16 A3018 RMK AO2 SLP212 T01890156 10200 20172 53022=
201904291052 METAR KATL 291052Z 21005KT 9SM FEW042 SCT150 BKN200 17/15 A3015 RMK AO2 SLP202 T01720150=
201904290952 METAR KATL 290952Z 19005KT 10SM FEW050 SCT150 BKN200 18/15 A3013 RMK AO2 SLP194 T01830150=
201904290852 METAR KATL 290852Z 00000KT 10SM FEW050 BKN200 19/15 A3011 RMK AO2 SLP188 T01940150 55000=
201904290752 METAR KATL 290752Z 28003KT 10SM FEW050 BKN060 BKN200 19/15 A3011 RMK AO2 SLP188 T01890150=
201904290652 METAR KATL 290652Z 00000KT 10SM FEW050 FEW200 19/15 A3011 RMK AO2 SLP188 T01890150=
201904290552 METAR KATL 290552Z 00000KT 10SM FEW050 SCT200 SCT250 20/16 A3011 RMK AO2 SLP189 T02000156 10250 20200 51009=
201904290452 METAR KATL 290452Z 00000KT 10SM FEW050 SCT200 SCT250 21/16 A3011 RMK AO2 SLP188 T02060156 402780144=
201904290352 METAR KATL 290352Z 00000KT 10SM SCT050 SCT200 BKN250 21/16 A3010 RMK AO2 SLP184 T02110156=
201904290252 METAR KATL 290252Z 24005KT 10SM SCT050 BKN200 BKN250 22/16 A3009 RMK AO2 SLP180 T02220156 53018=
201904290152 METAR KATL 290152Z 22003KT 10SM FEW050 BKN200 BKN250 23/16 A3007 RMK AO2 SLP175 T02280156=
201904290052 METAR KATL 290052Z 24004KT 10SM FEW048 BKN200 BKN250 24/15 A3005 RMK AO2 SLP168 T02390150=
201904282352 METAR KATL 282352Z 23007KT 10SM FEW046 BKN200 BKN250 25/15 A3003 RMK AO2 SLP163 T02500150 10278 20250 53002=
201904282252 METAR KATL 282252Z 26007KT 10SM FEW047 SCT200 BKN250 26/16 A3003 RMK AO2 SLP161 T02610156=
201904282152 METAR KATL 282152Z 26007KT 10SM FEW048 SCT200 BKN250 27/16 A3003 RMK AO2 SLP160 T02670156=
201904282052 METAR KATL 282052Z VRB03KT 10SM SCT048 BKN250 27/16 A3002 RMK AO2 SLP160 T02720156 56008=
201904281952 METAR KATL 281952Z 25010G17KT 10SM SCT048 BKN060 BKN250 27/16 A3003 RMK AO2 SLP163 T02670156=
201904281852 METAR KATL 281852Z 00000KT 10SM FEW045 SCT055 BKN160 BKN250 27/16 A3004 RMK AO2 SLP165 T02670156=
201904281752 METAR KATL 281752Z 29006KT 10SM SCT048 SCT130 BKN250 26/15 A3005 RMK AO2 SLP168 T02610150 10261 20156 58005=
201904281652 METAR KATL 281652Z 27006KT 10SM FEW045 SCT140 SCT250 25/14 A3006 RMK AO2 SLP172 T02500144=
201904281552 METAR KATL 281552Z 28012G16KT 10SM FEW065 SCT140 SCT250 24/14 A3007 RMK AO2 SLP174 T02440139=
201904281452 METAR KATL 281452Z 29010KT 10SM FEW065 SCT120 22/12 A3006 RMK AO2 SLP174 T02220122 53010=
201904281352 METAR KATL 281352Z 26012KT 10SM FEW060 SCT120 SCT250 21/11 A3005 RMK AO2 SLP170 T02060111=
201904281252 METAR KATL 281252Z 24006KT 10SM BKN050 BKN120 17/10 A3004 RMK AO2 SLP167 T01720100=
201904281152 METAR KATL 281152Z 23006KT 10SM SCT060 BKN120 BKN150 BKN200 16/09 A3003 RMK AO2 SLP164 VIRGA NE-OHD-SE T01560089 10178 20144 53011=
201904281052 METAR KATL 281052Z 23006KT 10SM FEW050 SCT120 SCT150 15/08 A3001 RMK AO2 SLP156 T01500083=
201904280952 METAR KATL 280952Z 24005KT 10SM SCT120 SCT150 BKN200 16/08 A3000 RMK AO2 SLP154 T01560078=
201904280852 METAR KATL 280852Z 25005KT 10SM FEW120 SCT200 SCT250 16/08 A3000 RMK AO2 SLP152 T01560078 51018=
201904280752 METAR KATL 280752Z 25008KT 10SM FEW120 SCT200 BKN250 17/08 A2998 RMK AO2 SLP146 T01670078=
201904280652 METAR KATL 280652Z 25007KT 10SM FEW120 BKN180 BKN250 17/08 A2997 RMK AO2 SLP142 T01720078=
201904280552 METAR KATL 280552Z 23007KT 10SM FEW120 BKN180 BKN250 17/07 A2995 RMK AO2 SLP134 T01720072 10228 20167 56008=
201904280452 METAR KATL 280452Z 21008KT 10SM FEW120 BKN200 BKN250 17/07 A2995 RMK AO2 SLP134 T01720067 402560094=
201904280352 METAR KATL 280352Z 22005KT 10SM FEW085 FEW120 SCT200 BKN250 17/07 A2996 RMK AO2 SLP140 T01720067=
201904280252 METAR KATL 280252Z 22006KT 10SM FEW085 SCT120 BKN200 BKN250 18/06 A2997 RMK AO2 SLP143 ACC N-NE T01830061 51009=
201904280152 METAR KATL 280152Z 22007KT 10SM FEW080 SCT120 SCT200 SCT250 19/06 A2997 RMK AO2 SLP144 T01940056=
201904280052 METAR KATL 280052Z 20005KT 10SM FEW085 SCT200 SCT250 21/05 A2995 RMK AO2 SLP138 ACC DSNT W-N T02110050=
201904272352 METAR KATL 272352Z 22008KT 10SM FEW080 FEW200 SCT250 23/04 A2994 RMK AO2 SLP135 ACC DSNT NW-N T02280044 10256 20228 55001=
201904272252 METAR KATL 272252Z 24009KT 10SM FEW200 SCT250 24/02 A2994 RMK AO2 SLP134 T02440022=
201904272152 METAR KATL 272152Z 22012G16KT 10SM SCT250 25/04 A2994 RMK AO2 SLP133 T02500039=
201904272052 METAR KATL 272052Z 22008KT 10SM FEW250 25/04 A2995 RMK AO2 SLP135 T02500039 56023=
201904271952 METAR KATL 271952Z 21010KT 10SM FEW250 25/04 A2996 RMK AO2 SLP141 T02500039=
201904271852 METAR KATL 271852Z 20006KT 10SM FEW250 24/03 A2999 RMK AO2 SLP151 T02390028=
201904271752 METAR KATL 271752Z VRB04KT 10SM FEW250 23/03 A3002 RMK AO2 SLP159 T02280033 10233 20111 58020=
201904271652 METAR KATL 271652Z 30006KT 10SM FEW250 22/02 A3004 RMK AO2 SLP167 T02170017=
201904271552 METAR KATL 271552Z 30004KT 10SM FEW250 21/02 A3007 RMK AO2 SLP178 T02060022=
201904271452 METAR KATL 271452Z 33005G15KT 10SM FEW250 18/02 A3008 RMK AO2 SLP181 T01780017 51005=
201904271352 METAR KATL 271352Z VRB06KT 10SM R09R/4000VP6000FT FEW250 16/02 A3007 RMK AO2 SLP179 T01610017=
201904271252 METAR KATL 271252Z 33007KT 10SM FEW250 13/03 A3008 RMK AO2 SLP182 T01330033=
201904271152 METAR KATL 271152Z 31006KT 10SM CLR 11/03 A3006 RMK AO2 SLP177 T01110033 10139 20094 53016=
201904271052 METAR KATL 271052Z 31008KT 10SM CLR 10/04 A3004 RMK AO2 SLP168 T01000039=
201904270952 METAR KATL 270952Z 29006KT 10SM CLR 11/03 A3002 RMK AO2 SLP163 T01060033=
201904270852 METAR KATL 270852Z 31007KT 10SM CLR 12/03 A3001 RMK AO2 SLP159 T01170033 53004=
201904270752 METAR KATL 270752Z 30006KT 10SM CLR 12/03 A3000 RMK AO2 SLP155 T01220033=
201904270652 METAR KATL 270652Z 31009KT 10SM CLR 13/03 A3000 RMK AO2 SLP153 T01330033=
201904270552 METAR KATL 270552Z 30007KT 10SM CLR 13/04 A3000 RMK AO2 SLP155 T01330039 10211 20133 51006=
201904270452 METAR KATL 270452Z 31009KT 10SM CLR 15/03 A3000 RMK AO2 SLP153 T01500033 402330150=
201904270352 METAR KATL 270352Z 29006KT 10SM CLR 15/03 A2999 RMK AO2 SLP152 T01500033=
201904270252 METAR KATL 270252Z 29008KT 10SM CLR 17/03 A2998 RMK AO2 SLP149 T01670033 51025=
201904270152 METAR KATL 270152Z 27008KT 10SM CLR 17/03 A2996 RMK AO2 SLP142 T01720033=
201904270052 METAR KATL 270052Z 29010KT 10SM CLR 19/03 A2993 RMK AO2 SLP131 T01890033=
201904262352 METAR KATL 262352Z 30011G20KT 10SM CLR 21/02 A2991 RMK AO2 SLP122 T02110017 10233 20211 53010=
201904262252 METAR KATL 262252Z 31015G21KT 10SM CLR 22/01 A2990 RMK AO2 PK WND 30027/2229 SLP119 T02220011=
201904262152 METAR KATL 262152Z 34016G23KT 10SM CLR 23/02 A2989 RMK AO2 PK WND 31027/2058 SLP114 T02280022=
201904262052 METAR KATL 262052Z 33017G24KT 10SM FEW065 23/02 A2988 RMK AO2 PK WND 32029/2036 SLP112 T02280022 50002=
201904261952 METAR KATL 261952Z 32019G32KT 10SM FEW065 23/03 A2988 RMK AO2 PK WND 32032/1948 SLP112 T02280028=
201904261852 METAR KATL 261852Z 34018G32KT 10SM FEW065 22/04 A2988 RMK AO2 PK WND 33033/1757 SLP113 T02220039=
201904261752 METAR KATL 261752Z 32020G30KT 10SM SCT050 22/08 A2987 RMK AO2 PK WND 30031/1717 SLP108 60000 T02220078 10222 20161 50008=
201904261652 METAR KATL 261652Z 30016G21KT 10SM SCT040 21/11 A2987 RMK AO2 PK WND 31028/1601 SLP110 T02110106=
201904261552 METAR KATL 261552Z 31020G25KT 10SM SCT035 SCT045 20/11 A2986 RMK AO2 PK WND 31032/1521 SLP106 T02000106=
201904261452 METAR KATL 261452Z 30017G24KT 10SM BKN030 BKN040 18/12 A2984 RMK AO2 SLP101 60000 T01830117 53018=
201904261352 METAR KATL 261352Z 28018G23KT 10SM BKN020 18/13 A2981 RMK AO2 SLP091 T01830133=
201904261252 METAR KATL 261252Z 28014G20KT 10SM FEW014 FEW026 SCT050 17/14 A2980 RMK AO2 RAE02 SLP086 P0000 T01720144=
201904261232 SPECI KATL 261232Z 28012G17KT 10SM FEW012 SCT020 SCT050 17/14 A2979 RMK AO2 RAE02 P0000 T01720144=
201904261220 SPECI KATL 261220Z 27010KT 10SM SCT008 BKN019 BKN050 17/14 A2979 RMK AO2 RAE02 P0000 T01670144=
201904261152 METAR KATL 261152Z 26009KT 8SM -RA BKN008 BKN016 OVC046 16/14 A2979 RMK AO2 RAB46 SLP082 CIG 007V010 BINOVC P0000 60002 70011 T01610144 10161 20150 53006=
201904261052 METAR KATL 261052Z 25006KT 7SM BKN008 OVC016 16/14 A2977 RMK AO2 SLP075 CIG 006V010 T01560144=
201904260952 METAR KATL 260952Z 22006KT 8SM BKN008 OVC014 16/14 A2977 RMK AO2 RAE20DZB20E36 SLP075 CIG 006V010 P0002 T01560139=
201904260937 SPECI KATL 260937Z 23006KT 10SM BKN008 BKN013 OVC024 15/14 A2977 RMK AO2 RAE20DZB20E36 CIG 006V010 P0002 T01500139=
201904260857 SPECI KATL 260857Z 22006KT 5SM -RA BR FEW008 BKN022 OVC060 15/13 A2977 RMK AO2 P0001 T01500133=
201904260852 METAR KATL 260852Z 23005KT 4SM -RA BR FEW008 BKN030 OVC075 15/13 A2977 RMK AO2 RAB40 SLP076 P0000 60000 T01500133 56014=
201904260752 METAR KATL 260752Z 21005KT 10SM BKN037 BKN075 BKN110 BKN200 16/13 A2978 RMK AO2 SLP076 T01560133=
201904260652 METAR KATL 260652Z 21006KT 10SM FEW070 SCT095 BKN120 BKN200 16/13 A2980 RMK AO2 SLP084 T01560128=
201904260552 METAR KATL 260552Z 20008KT 10SM FEW075 BKN100 OVC200 16/13 A2981 RMK AO2 SLP089 60009 T01610128 10200 20161 58012=
201904260452 METAR KATL 260452Z 17006KT 10SM FEW075 BKN120 OVC200 17/13 A2984 RMK AO2 SLP097 T01670133 402330161=
201904260352 METAR KATL 260352Z 00000KT 10SM BKN075 BKN110 OVC200 17/14 A2983 RMK AO2 RAB02E44 SLP096 P0000 T01670139=
201904260252 METAR KATL 260252Z 22005KT 10SM FEW080 BKN110 OVC150 17/13 A2985 RMK AO2 SLP102 VIRGA E-OHD-W 60009 T01670133 58007=
201904260152 METAR KATL 260152Z 00000KT 10SM FEW080 BKN120 OVC150 17/14 A2987 RMK AO2 RAE08 SLP109 P0000 T01670139=
201904260052 METAR KATL 260052Z 14006KT 10SM -RA FEW050 SCT080 BKN110 OVC200 17/14 A2986 RMK AO2 WSHFT 2347 PRESFR SLP105 P0009 T01720139=
201904260007 SPECI KATL 260007Z 26011G21KT 5SM RA FEW030 SCT050 BKN070 OVC150 17/14 A2989 RMK AO2 WSHFT 2347 PRESRR P0000 T01720139=
201904252352 METAR KATL 252352Z 28014G20KT 10SM -RA SCT030CB BKN080 BKN150 OVC200 21/13 A2987 RMK AO2 RAB50 SLP111 VIS LWR NW-N CB OHD-N MOV NE P0000 60000 T02060133 10233 20206 55007=
201904252252 METAR KATL 252252Z 20008KT 10SM FEW040 SCT080 BKN150 OVC200 23/14 A2987 RMK AO2 SLP108 CB DSNT SW & NW T02280144=
201904252152 METAR KATL 252152Z 21011G18KT 10SM SCT040 BKN120 OVC250 23/14 A2989 RMK AO2 SLP115 MDT CU OHD-ALQDS T02280139=
201904252052 METAR KATL 252052Z 22011KT 10SM FEW040 BKN060 BKN120 OVC250 23/14 A2990 RMK AO2 SLP117 T02280139 58006=
201904251952 METAR KATL 251952Z 22011KT 10SM FEW030 FEW120 BKN150 BKN250 23/14 A2991 RMK AO2 SLP123 VIRGA DSNT S-SW T02330144=
201904251852 METAR KATL 251852Z 20009KT 10SM FEW030 SCT085 BKN120 OVC150 23/14 A2991 RMK AO2 SLP123 VIRGA OHD ALQDS T02280144=
201904251752 METAR KATL 251752Z 20012G19KT 10SM FEW035 FEW120 BKN150 BKN250 23/14 A2991 RMK AO2 SLP123 VIRGA DSNT SW T02280139 10233 20167 56016=
201904251652 METAR KATL 251652Z 19007KT 10SM FEW030 SCT120 BKN150 BKN250 23/16 A2993 RMK AO2 SLP129 VIRGA N-NE-E ACC DSNT W T02280156=
201904251552 METAR KATL 251552Z 18009KT 10SM FEW130 BKN150 BKN250 22/15 A2994 RMK AO2 SLP130 VIRGA NW-N ACC NE-E T02220150=
201904251452 METAR KATL 251452Z VRB06KT 10SM FEW120 FEW150 BKN250 22/16 A2996 RMK AO2 SLP138 ACC DSNT S T02170156 50000=
201904251352 METAR KATL 251352Z 23007KT 10SM FEW120 BKN140 BKN200 OVC250 19/15 A2997 RMK AO2 SLP143 VIRGA NW T01940150=
201904251252 METAR KATL 251252Z 23006KT 10SM FEW095 SCT120 BKN180 BKN250 18/15 A2996 RMK AO2 SLP140 VIRGA SW-NW ACC SW NW DSNT S W T01780150=
201904251152 METAR KATL 251152Z 19005KT 10SM FEW095 SCT120 BKN180 BKN250 17/14 A2996 RMK AO2 SLP138 VIRGA DSNT NW ACC W-NW DSNT SE NW T01670139 10178 20161 53005=
201904251052 METAR KATL 251052Z 23004KT 10SM FEW160 SCT200 SCT250 17/13 A2995 RMK AO2 SLP136 VIRGA DSNT NE T01670133=
201904250952 METAR KATL 250952Z 24007KT 10SM SCT160 BKN200 BKN250 17/13 A2994 RMK AO2 SLP132 T01670133=
201904250852 METAR KATL 250852Z 24005KT 10SM BKN180 BKN250 17/13 A2994 RMK AO2 SLP131 T01670128 56007=
201904250752 METAR KATL 250752Z 23004KT 10SM FEW140 BKN180 BKN250 17/13 A2995 RMK AO2 SLP133 T01670128=
201904250652 METAR KATL 250652Z 22006KT 10SM FEW150 BKN200 BKN250 17/12 A2995 RMK AO2 SLP135 T01720122=
201904250552 METAR KATL 250552Z 22006KT 10SM FEW150 SCT250 18/12 A2996 RMK AO2 SLP138 T01780122 10256 20178 50000=
201904250452 METAR KATL 250452Z 24008KT 10SM FEW150 SCT250 19/12 A2997 RMK AO2 SLP139 T01940122 402780172=
201904250352 METAR KATL 250352Z 23006KT 10SM SCT150 BKN250 19/11 A2997 RMK AO2 SLP140 T01940111=
201904250252 METAR KATL 250252Z 21006KT 10SM FEW150 SCT250 21/10 A2996 RMK AO2 SLP138 T02060100 51007=
201904250152 METAR KATL 250152Z 22006KT 10SM SCT150 SCT250 22/09 A2996 RMK AO2 SLP137 T02170094=
201904250052 METAR KATL 250052Z 21007KT 10SM FEW150 SCT250 23/09 A2995 RMK AO2 SLP135 T02330089=
201904242352 METAR KATL 242352Z 22007KT 10SM FEW150 SCT250 26/08 A2994 RMK AO2 SLP131 T02560078 10278 20256 55002=
201904242252 METAR KATL 242252Z 25011KT 10SM FEW150 SCT250 27/08 A2994 RMK AO2 SLP129 T02670083=
201904242152 METAR KATL 242152Z 24012KT 10SM FEW150 SCT250 28/08 A2994 RMK AO2 SLP131 ACSL DSNT N-NE T02780083=
201904242052 METAR KATL 242052Z 20009KT 10SM FEW150 FEW250 SCT300 28/08 A2995 RMK AO2 SLP132 ACSL DSNT N-NE-E T02780083 56021=
201904241952 METAR KATL 241952Z 22012G17KT 10SM FEW170 FEW250 SCT300 27/09 A2996 RMK AO2 SLP138 T02720089=
201904241852 METAR KATL 241852Z 20013G19KT 10SM FEW170 FEW250 BKN300 27/08 A2999 RMK AO2 SLP145 T02720083=
201904241752 METAR KATL 241752Z 25008G16KT 10SM FEW170 FEW200 SCT250 27/11 A3001 RMK AO2 SLP154 T02720111 10272 20178 58015=
201904241652 METAR KATL 241652Z 26011G16KT 230V290 10SM FEW170 SCT200 SCT250 26/12 A3004 RMK AO2 SLP163 T02610117=
201904241552 METAR KATL 241552Z 28010KT 10SM FEW170 FEW200 SCT250 25/12 A3005 RMK AO2 SLP168 T02500122=
201904241452 METAR KATL 241452Z 29007KT 10SM FEW170 SCT200 BKN250 23/12 A3006 RMK AO2 SLP170 T02330122 50002=
201904241352 METAR KATL 241352Z 27006KT 10SM SCT170 SCT200 BKN250 22/13 A3006 RMK AO2 SLP171 T02220128=
201904241252 METAR KATL 241252Z 28006KT 10SM SCT160 BKN200 BKN250 19/12 A3006 RMK AO2 SLP171 VIRGA E-SE T01890122=
201904241152 METAR KATL 241152Z 27005KT 10SM BKN170 BKN200 BKN250 18/12 A3005 RMK AO2 SLP169 VIRGA W-NW DSNT NE T01830117 10200 20172 53013=
201904241052 METAR KATL 241052Z 33004KT 10SM BKN180 BKN250 18/11 A3002 RMK AO2 SLP158 VIRGA S-SW T01780111=
201904240952 METAR KATL 240952Z 29006KT 10SM BKN180 OVC250 18/11 A3002 RMK AO2 SLP159 T01780111=
201904240852 METAR KATL 240852Z 30006KT 10SM BKN180 BKN250 18/11 A3001 RMK AO2 SLP155 T01830111 56007=
201904240752 METAR KATL 240752Z 28006KT 10SM SCT180 BKN250 18/11 A3001 RMK AO2 SLP154 T01830111=
201904240652 METAR KATL 240652Z 26004KT 10SM FEW160 BKN200 OVC250 19/11 A3002 RMK AO2 SLP155 T01940111=
201904240552 METAR KATL 240552Z 27006KT 10SM FEW150 BKN180 OVC250 20/11 A3003 RMK AO2 SLP161 T02000111 10244 20200 57010=
201904240452 METAR KATL 240452Z 24006KT 10SM FEW150 BKN200 OVC250 21/11 A3004 RMK AO2 SLP164 T02110111 402780139=
201904240352 METAR KATL 240352Z 25007KT 10SM FEW150 SCT200 OVC250 21/11 A3006 RMK AO2 SLP170 T02110106=
201904240252 METAR KATL 240252Z 26007KT 10SM FEW150 OVC250 22/11 A3006 RMK AO2 SLP172 T02170106 50006=
201904240152 METAR KATL 240152Z 24006KT 10SM FEW200 BKN250 22/11 A3007 RMK AO2 SLP174 T02220106=
201904240052 METAR KATL 240052Z 23005KT 10SM FEW200 BKN250 23/11 A3006 RMK AO2 SLP170 T02280111=
201904232352 METAR KATL 232352Z 24008KT 10SM BKN250 24/11 A3004 RMK AO2 SLP168 T02440106 10278 20244 55005=
201904232252 METAR KATL 232252Z 22008KT 10SM BKN250 26/11 A3004 RMK AO2 SLP167 T02610106=
201904232152 METAR KATL 232152Z 26007KT 10SM BKN250 27/11 A3005 RMK AO2 SLP170 T02670111=
201904232052 METAR KATL 232052Z 28009KT 10SM BKN250 27/11 A3006 RMK AO2 SLP173 T02720106 56020=
201904231952 METAR KATL 231952Z 28007G16KT 10SM BKN250 28/12 A3008 RMK AO2 SLP177 T02780122=
201904231852 METAR KATL 231852Z 22010KT 10SM BKN250 27/09 A3010 RMK AO2 SLP185 T02720089=
201904231752 METAR KATL 231752Z VRB03G15KT 10SM BKN250 27/11 A3012 RMK AO2 SLP192 T02670106 10272 20156 58012=
201904231652 METAR KATL 231652Z 28007KT 10SM SCT250 26/12 A3014 RMK AO2 SLP198 T02610117=
201904231552 METAR KATL 231552Z VRB05KT 10SM FEW250 24/11 A3016 RMK AO2 SLP205 T02440106=
201904231452 METAR KATL 231452Z 31007KT 10SM BKN250 23/12 A3016 RMK AO2 SLP205 T02280117 53006=
201904231352 METAR KATL 231352Z 31006KT 10SM SCT250 21/10 A3015 RMK AO2 SLP202 T02110100=
201904231252 METAR KATL 231252Z 29004KT 10SM FEW250 19/11 A3014 RMK AO2 SLP200 T01890106=
201904231152 METAR KATL 231152Z 29003KT 10SM FEW250 16/10 A3014 RMK AO2 SLP200 T01560100 10178 20139 53007=
201904231052 METAR KATL 231052Z 00000KT 10SM SCT250 14/09 A3012 RMK AO2 SLP193 T01440094=
201904230952 METAR KATL 230952Z 00000KT 10SM FEW250 14/09 A3011 RMK AO2 SLP192 T01390094=
201904230852 METAR KATL 230852Z 28004KT 10SM FEW250 14/10 A3012 RMK AO2 SLP192 T01390100 55008=
201904230752 METAR KATL 230752Z 00000KT 10SM FEW250 16/10 A3011 RMK AO2 SLP190 T01610100=
201904230652 METAR KATL 230652Z 00000KT 10SM FEW250 17/09 A3012 RMK AO2 SLP193 T01670094=
201904230552 METAR KATL 230552Z 30004KT 10SM FEW250 17/10 A3014 RMK AO2 SLP199 T01720100 10256 20167 58003=
201904230452 METAR KATL 230452Z 27004KT 10SM SCT250 18/09 A3015 RMK AO2 SLP202 T01830089 402780094=
201904230352 METAR KATL 230352Z 25004KT 10SM SCT250 18/09 A3016 RMK AO2 SLP206 T01830094=
201904230252 METAR KATL 230252Z 00000KT 10SM FEW250 20/10 A3015 RMK AO2 SLP203 T02000100 53009=
201904230152 METAR KATL 230152Z 21003KT 10SM FEW250 21/10 A3014 RMK AO2 SLP200 T02110100=
201904230052 METAR KATL 230052Z 00000KT 10SM FEW250 23/08 A3013 RMK AO2 SLP197 T02280083=
201904222352 METAR KATL 222352Z 26003KT 10SM FEW250 26/06 A3012 RMK AO2 SLP195 T02560061 10278 20250 58004=
201904222252 METAR KATL 222252Z 25004KT 10SM FEW250 26/06 A3013 RMK AO2 SLP197 T02610061=
201904222152 METAR KATL 222152Z 00000KT 10SM FEW250 27/06 A3013 RMK AO2 SLP198 T02670056=
201904222052 METAR KATL 222052Z 28004KT 10SM FEW250 27/06 A3013 RMK AO2 SLP199 T02720056 56019=
201904221952 METAR KATL 221952Z VRB04KT 10SM FEW250 27/04 A3014 RMK AO2 SLP203 T02670044=
201904221852 METAR KATL 221852Z 00000KT 10SM FEW250 26/04 A3017 RMK AO2 SLP210 T02610044=
201904221752 METAR KATL 221752Z VRB03KT 10SM FEW250 26/05 A3019 RMK AO2 SLP217 T02560050 10256 20122 58012=
201904221652 METAR KATL 221652Z 31009KT 10SM FEW250 24/05 A3021 RMK AO2 SLP225 T02390050=
201904221552 METAR KATL 221552Z 32010KT 10SM FEW250 22/03 A3022 RMK AO2 SLP229 T02220033=
201904221452 METAR KATL 221452Z 29006KT 10SM FEW250 20/05 A3023 RMK AO2 SLP231 T02000050 51007=
201904221352 METAR KATL 221352Z 30005KT 10SM CLR 17/07 A3022 RMK AO2 SLP232 T01720067=
201904221252 METAR KATL 221252Z 33004KT 10SM CLR 14/05 A3022 RMK AO2 SLP230 T01440050=
201904221152 METAR KATL 221152Z 31005KT 10SM CLR 12/04 A3020 RMK AO2 SLP225 T01220039 10128 20094 53013=
201904221052 METAR KATL 221052Z 27003KT 10SM CLR 11/04 A3018 RMK AO2 SLP217 T01060039=
201904220952 METAR KATL 220952Z 30003KT 10SM CLR 10/04 A3017 RMK AO2 SLP215 T01000044=
201904220852 METAR KATL 220852Z 27005KT 10SM CLR 11/04 A3016 RMK AO2 SLP212 T01060044 55001=
201904220752 METAR KATL 220752Z 30003KT 10SM CLR 11/04 A3015 RMK AO2 SLP208 T01060044=
201904220652 METAR KATL 220652Z 00000KT 10SM CLR 12/04 A3016 RMK AO2 SLP210 T01220039=
201904220552 METAR KATL 220552Z 29004KT 10SM CLR 13/04 A3017 RMK AO2 SLP212 T01280044 10206 20122 52001=
201904220452 METAR KATL 220452Z 32005KT 10SM CLR 14/04 A3017 RMK AO2 SLP212 T01390039 402220067=
201904220352 METAR KATL 220352Z 30004KT 10SM CLR 14/06 A3016 RMK AO2 SLP212 T01390056=
201904220252 METAR KATL 220252Z VRB04KT 10SM CLR 16/03 A3016 RMK AO2 SLP212 T01610033 51017=
201904220152 METAR KATL 220152Z 27004KT 10SM CLR 16/03 A3015 RMK AO2 SLP208 T01610028=
201904220052 METAR KATL 220052Z 29005KT 10SM CLR 18/03 A3013 RMK AO2 SLP202 T01780028=
201904212352 METAR KATL 212352Z 33008KT 10SM FEW200 20/01 A3011 RMK AO2 SLP194 T02000006 10222 20194 53008=
201904212252 METAR KATL 212252Z 33011KT 10SM CLR 22/00 A3010 RMK AO2 SLP191 T02170000=
201904212152 METAR KATL 212152Z 34012G15KT 10SM CLR 22/00 A3009 RMK AO2 SLP187 T02220000=
201904212052 METAR KATL 212052Z 30013G18KT 10SM CLR 22/01 A3009 RMK AO2 SLP186 T02170006 58008=
201904211952 METAR KATL 211952Z 31014KT 10SM CLR 22/01 A3009 RMK AO2 SLP189 T02170006=
201904211852 METAR KATL 211852Z 34016KT 10SM CLR 21/M01 A3011 RMK AO2 SLP193 T02111006=
201904211752 METAR KATL 211752Z 31016KT 10SM CLR 19/M01 A3011 RMK AO2 SLP195 T01941006 10194 20083 58004=
201904211652 METAR KATL 211652Z 33011G24KT 10SM CLR 18/00 A3013 RMK AO2 SLP200 T01830000=
201904211552 METAR KATL 211552Z 34016G22KT 10SM CLR 17/M01 A3013 RMK AO2 SLP200 T01721006=
201904211452 METAR KATL 211452Z 30008KT 10SM CLR 15/04 A3012 RMK AO2 SLP200 T01500039 51018=
201904211352 METAR KATL 211352Z 31010KT 10SM CLR 12/04 A3010 RMK AO2 SLP195 T01220039=
201904211252 METAR KATL 211252Z 29010KT 10SM CLR 10/03 A3009 RMK AO2 SLP189 T01000033=
201904211152 METAR KATL 211152Z 30007KT 10SM CLR 08/03 A3007 RMK AO2 SLP183 70003 T00830028 10089 20067 52026=
201904211052 METAR KATL 211052Z 30007KT 10SM FEW080 07/03 A3004 RMK AO2 SLP176 T00670033=
201904210952 METAR KATL 210952Z 29008KT 10SM CLR 08/03 A3001 RMK AO2 SLP165 T00830028=
201904210852 METAR KATL 210852Z 27008KT 10SM CLR 09/03 A2999 RMK AO2 SLP157 T00890033 53009=
201904210752 METAR KATL 210752Z 26006KT 10SM CLR 09/05 A2997 RMK AO2 SLP151 T00890050=
201904210652 METAR KATL 210652Z 25004KT 10SM FEW080 08/06 A2996 RMK AO2 SLP148 T00830061=
201904210552 METAR KATL 210552Z 00000KT 10SM FEW080 08/06 A2996 RMK AO2 SLP148 T00830061 10111 20083 50003=
201904210452 METAR KATL 210452Z 00000KT 10SM BKN080 09/07 A2996 RMK AO2 SLP148 T00890067 401110061=
201904210352 METAR KATL 210352Z 00000KT 10SM FEW070 BKN085 09/07 A2996 RMK AO2 SLP148 T00940067=
201904210252 METAR KATL 210252Z 00000KT 10SM OVC065 11/07 A2995 RMK AO2 SLP144 BINOVC T01060067 53021=
201904210152 METAR KATL 210152Z 00000KT 10SM FEW038 SCT048 OVC065 11/07 A2993 RMK AO2 SLP137 BINOVC T01060067=
201904210052 METAR KATL 210052Z 00000KT 10SM FEW034 SCT048 OVC060 11/07 A2991 RMK AO2 SLP130 T01060067=
201904202352 METAR KATL 202352Z 28003KT 10SM FEW020 SCT034 BKN055 11/07 A2989 RMK AO2 SLP124 60001 T01060067 10106 20083 51014=
201904202252 METAR KATL 202252Z 28006KT 10SM FEW026 BKN033 OVC042 11/06 A2988 RMK AO2 SLP119 VCSH NW-NE BINOVC T01060061=
201904202152 METAR KATL 202152Z 29009KT 10SM SCT026 OVC032 11/06 A2986 RMK AO2 SLP115 T01060056=
201904202052 METAR KATL 202052Z 26009G18KT 10SM FEW018 BKN023 OVC032 10/06 A2985 RMK AO2 SLP109 60001 T01000056 53016=
201904201952 METAR KATL 201952Z 27012G19KT 10SM OVC020 09/04 A2983 RMK AO2 PK WND 27028/1911 SLP104 T00890044=
201904201852 METAR KATL 201852Z 25012G19KT 10SM FEW012 BKN022 BKN080 09/06 A2981 RMK AO2 RAE22 SLP096 P0001 T00890056=
201904201752 METAR KATL 201752Z 27010KT 7SM -RA FEW010 BKN017 OVC037 09/07 A2980 RMK AO2 RAB1658 SLP093 P0001 60002 T00940067 10100 20067 51018=
201904201713 SPECI KATL 201713Z 26009KT 8SM -RA BKN021 BKN032 OVC039 09/06 A2979 RMK AO2 RAB1658 P0001 T00890056=
201904201652 METAR KATL 201652Z 28008KT 10SM SCT023 BKN040 OVC050 09/05 A2978 RMK AO2 RAE09 SLP088 P0000 T00940050=
201904201612 SPECI KATL 201612Z 27012KT 10SM FEW014 SCT025 OVC045 08/06 A2977 RMK AO2 RAE09 P0000 T00830061=
201904201552 METAR KATL 201552Z 29012G18KT 4SM RA FEW009 BKN015 OVC026 08/06 A2977 RMK AO2 RAB45 SLP083 P0001 T00830056=
201904201452 METAR KATL 201452Z 24008KT 10SM FEW011 BKN016 OVC026 08/05 A2974 RMK AO2 RAB1357E10 SLP074 P0000 60000 T00830050 51019=
201904201352 METAR KATL 201352Z 24010KT 200V270 10SM FEW013 BKN017 OVC034 08/05 A2972 RMK AO2 RAE51 SLP067 P0000 T00780050=
201904201335 SPECI KATL 201335Z 24011KT 10SM -RA SCT012 BKN019 OVC028 07/05 A2972 RMK AO2 P0000 T00720050=
201904201313 SPECI KATL 201313Z 24009KT 10SM -RA FEW009 BKN013 OVC019 07/04 A2971 RMK AO2 P0000 T00720044=
201904201252 METAR KATL 201252Z 25008KT 10SM -RA FEW009 BKN015 OVC021 07/04 A2971 RMK AO2 SLP062 CIG 012V018 P0000 T00720044=
201904201239 SPECI KATL 201239Z 25010KT 10SM -RA FEW009 SCT014 OVC021 07/04 A2970 RMK AO2 P0000 T00670044=
201904201152 METAR KATL 201152Z 24008KT 10SM -RA BKN012 OVC019 07/04 A2969 RMK AO2 SLP053 CIG 010V015 P0001 60005 70118 T00670044 10083 20061 53007=
201904201136 SPECI KATL 201136Z 25008KT 7SM -RA BKN010 BKN021 OVC037 07/04 A2968 RMK AO2 CIG 009V013 P0001 T00670044=
201904201118 SPECI KATL 201118Z 25011KT 7SM -RA FEW009 SCT014 OVC035 06/04 A2968 RMK AO2 P0001 T00610039=
201904201105 SPECI KATL 201105Z 25012G19KT 8SM -RA SCT012 BKN018 OVC031 07/04 A2967 RMK AO2 P0000 T00670039=
201904201052 METAR KATL 201052Z 24008G18KT 8SM -RA BKN011 BKN019 OVC027 07/04 A2967 RMK AO2 RAB09 SLP045 CIG 009V014 P0001 T00670044=
201904201030 SPECI KATL 201030Z 24013KT 7SM -RA FEW008 BKN012 OVC019 07/04 A2966 RMK AO2 RAB09 P0000 T00670044=
201904200952 METAR KATL 200952Z 23008G16KT 10SM FEW009 BKN016 OVC029 07/04 A2965 RMK AO2 RAE25 SLP041 P0001 T00670044=
201904200857 SPECI KATL 200857Z 23008KT 7SM -RA SCT009 BKN017 OVC021 07/04 A2966 RMK AO2 P0000 T00670044=
201904200852 METAR KATL 200852Z 23008KT 6SM -RA BR SCT014 OVC021 07/04 A2967 RMK AO2 RAB32 SLP045 P0001 60002 T00670044 58007=
201904200815 SPECI KATL 200815Z 23008KT 10SM FEW012 BKN026 BKN060 07/04 A2967 RMK AO2 T00670044=
201904200752 METAR KATL 200752Z 24008KT 10SM FEW012 SCT034 SCT060 07/04 A2967 RMK AO2 RAE22 SLP047 P0001 T00670039=
201904200652 METAR KATL 200652Z 24009KT 10SM -RA FEW022 SCT032 OVC047 07/04 A2968 RMK AO2 RAE10B48 SLP051 BINOVC P0000 T00720044=
201904200648 SPECI KATL 200648Z 23008KT 10SM -RA FEW022 SCT032 OVC047 08/04 A2968 RMK AO2 RAE10B48 BINOVC P0000=
201904200552 METAR KATL 200552Z 24009KT 10SM -RA FEW007 BKN018 OVC033 08/04 A2969 RMK AO2 RAE27B50 SLP049 CIG 015V022 P0000 60001 T00830044 10122 20078 53010=
201904200527 SPECI KATL 200527Z 25012G18KT 10SM FEW007 BKN017 OVC033 08/04 A2968 RMK AO2 RAE27 P0000 T00830044=
201904200452 METAR KATL 200452Z 27008KT 9SM -RA BKN015 BKN022 OVC030 08/06 A2968 RMK AO2 RAB36 SLP047 BINOVC P0000 T00780056 402170078=
201904200436 SPECI KATL 200436Z 27008KT 10SM -RA SCT014 BKN020 OVC030 08/06 A2967 RMK AO2 RAB36 BINOVC P0000 T00830056=
201904200352 METAR KATL 200352Z 26010G19KT 10SM SCT018 BKN030 08/05 A2966 RMK AO2 SLP043 T00830050=
201904200252 METAR KATL 200252Z 27012G24KT 10SM FEW020 FEW040 08/04 A2966 RMK AO2 SLP040 60001 T00830039 51025=
201904200152 METAR KATL 200152Z 26015G25KT 10SM FEW020 BKN035 BKN090 10/04 A2964 RMK AO2 PK WND 27026/0128 SLP036 T01000044=
201904200052 METAR KATL 200052Z 26014G20KT 10SM FEW020 BKN040 BKN090 11/07 A2962 RMK AO2 RAB05E28 SLP026 P0001 T01060072=
201904192352 METAR KATL 192352Z 24010G19KT 10SM FEW020 SCT040 BKN080 12/08 A2958 RMK AO2 RAE10 SLP013 P0000 60005 T01220078 10217 20122 53028=
201904192252 METAR KATL 192252Z 24014G25KT 10SM -RA SCT022TCU BKN030 BKN070 14/08 A2955 RMK AO2 RAB52 SLP002 TCU OHD-SW & NW-N P0000 T01390083=
201904192152 METAR KATL 192152Z 24016G23KT 10SM SCT020TCU BKN040 BKN060 15/09 A2952 RMK AO2 PK WND 23026/2117 SLP991 TCU SE-S T01500094=
201904192127 SPECI KATL 192127Z 24015G25KT 10SM SCT018TCU BKN040 BKN060 15/10 A2951 RMK AO2 PK WND 23026/2117 TCU NE-SE T01500100=
201904192052 METAR KATL 192052Z 24021G26KT 10SM FEW010 BKN015TCU BKN050 16/12 A2949 RMK AO2 PK WND 25026/2052 RAE23 SLP982 TCU SE-SW-NW MDT CU NE-SE P0000 60005 T01610117 51003=
201904191959 SPECI KATL 191959Z 23008G18KT 10SM -RA BKN012 BKN025 OVC050 16/13 A2949 RMK AO2 P0000 T01610133=
201904191952 METAR KATL 191952Z 24013G20KT 10SM -RA BKN015 BKN040 OVC070 16/13 A2949 RMK AO2 RAE05B34 SLP982 P0000 T01610133=
201904191902 SPECI KATL 191902Z 25014G22KT 10SM -RA SCT010 BKN025 BKN050 BKN250 17/14 A2949 RMK AO2 CB DSNT NE-SE SHRA DSNT NE-SE P0000 T01720144=
201904191852 METAR KATL 191852Z 24012G19KT 6SM -RA BR SCT015CB BKN050 BKN070 BKN250 17/16 A2948 RMK AO2 PK WND 24027/1832 WSHFT 1826 RAB34 SLP978 VIS LWR NE-SE SHRA CB NE-SE MOV NE P0005 T01720156=
201904191848 SPECI KATL 191848Z 26010G21KT 6SM -RA BR FEW015CB BKN050 OVC070 17/15 A2948 RMK AO2 PK WND 24027/1832 WSHFT 1826 RAB34 VIS LWR NE-SE SHRA CB NE-SE MOV NE P0005=
201904191842 SPECI KATL 191842Z 26013G24KT 3SM R09R/6000VP6000FT RA FEW015CB BKN030 BKN050 OVC250 17/14 A2947 RMK AO2 PK WND 24027/1832 WSHFT 1826 SFC VIS 4 RAB34 VIS LWR NE-SE SHRA CB NE-SE MOV NE P0005 T01720144=
201904191836 SPECI KATL 191836Z 26020G27KT 1SM R09R/6000VP6000FT +RA BKN030CB BKN050 BKN250 18/14 A2948 RMK AO2 PK WND 24027/1832 SFC VIS 3 RAB34 PRESRR CB OHD MOV NE P0000 T01830139=
201904191828 SPECI KATL 191828Z 21014G22KT 10SM BKN030CB BKN050 BKN250 21/13 A2945 RMK AO2 CB SW-NW MOV NE SHRA VC SW-NW T02110128=
201904191752 METAR KATL 191752Z 22014G17KT 10SM FEW025 SCT040 BKN250 22/15 A2947 RMK AO2 SLP971 CB DSNT SW-NW SHRA DSNT SW-NW 60107 T02170150 10217 20178 56013=
201904191705 SPECI KATL 191705Z 24011KT 10SM FEW015 BKN030 BKN050 BKN250 19/16 A2947 RMK AO2 T01940156=
201904191652 METAR KATL 191652Z 26013G19KT 10SM SCT015 BKN020 BKN050 BKN250 20/17 A2947 RMK AO2 RAE03 SLP972 P0000 T02000167=
201904191552 METAR KATL 191552Z 24010KT 10SM -RA FEW010 SCT030 OVC050 19/17 A2949 RMK AO2 RAE28B52 SLP978 P0004 T01890167=
201904191511 SPECI KATL 191511Z 24010KT 8SM -RA SCT006 BKN040 OVC050 18/17 A2950 RMK AO2 P0003 T01830167=
201904191452 METAR KATL 191452Z 22007KT 1 1/2SM R09R/4500VP6000FT RA BR SCT006 BKN015 OVC030 18/17 A2951 RMK AO2 SFC VIS 3 RAE04B07 SLP984 P0018 60103 T01830167 57007=
201904191410 SPECI KATL 191410Z 14007KT 1SM R09R/P6000FT -RA BR FEW006 SCT020 OVC040 18/17 A2951 RMK AO2 SFC VIS 3 LTG DSNT SE RAE04B07 P0002 T01830167=
201904191404 SPECI KATL 191404Z AUTO 14004KT 3SM BR FEW006 FEW015 OVC040 18/17 A2951 RMK AO2 SFC VIS 6 LTG DSNT SE RAE04 P0001 T01830167=
201904191352 METAR KATL 191352Z 12004KT 1SM R09R/P6000FT RA BR SCT010 SCT020 OVC040 18/17 A2951 RMK AO2 SFC VIS 3 LTG DSNT SE TSE23 SLP984 TS MOV NE CB DSNT SE P0043 T01780167=
201904191323 SPECI KATL 191323Z 19005KT 1SM R09R/P6000FT -RA BR FEW004 SCT015 OVC020 18/17 A2952 RMK AO2 SFC VIS 3 TSE23 TS MOV NE P0029 T01780167=
201904191252 METAR KATL 191252Z 14007KT 1SM R09R/5500VP6000FT +TSRA BR SCT004 BKN016CB OVC032 18/17 A2953 RMK AO2 SFC VIS 1 1/2 TSE20B41 SLP992 OCNL LTGICCA OHD-ALQDS TS OHD-ALQDS MOV NE P0042 T01780167=
201904191241 SPECI KATL 191241Z 13006KT 1SM R09R/4500VP6000FT +TSRA BR SCT004 BKN018CB OVC032 18/17 A2951 RMK AO2 TSE20B41 OCNL LTGICCA E-S TS E-S MOV NE P0027 T01780167=
201904191221 SPECI KATL 191221Z 13004KT 2SM -RA BR SCT004 BKN024 OVC038 18/17 A2952 RMK AO2 SFC VIS 3 LTG DSNT NE-SE TSE20 TS MOV NE CB DSNT NE-SE P0008 T01780167=
201904191152 METAR KATL 191152Z 13006KT 2SM +TSRA BR FEW004 BKN032CB OVC050 18/17 A2953 RMK AO2 SLP991 TSE16B32 OCNL LTGICCA E-S TS E-S MOV NE P0032 60210 70233 T01780167 10200 20167 56036=
201904191133 SPECI KATL 191133Z 15006KT 2SM +TSRA BR SCT004 BKN032CB OVC050 18/17 A2954 RMK AO2 SFC VIS 2 1/2 LTG DSNT E AND S TSE16B32 OCNL LTGICCA SE-S TS SE-S MOV NE CB DSNT NE-SE P0017 T01780167=
201904191116 SPECI KATL 191116Z 13005KT 2SM RA BR FEW004 BKN034 OVC060 18/17 A2953 RMK AO2 SFC VIS 4 LTG DSNT NE-S TSE16 TS MOV NE CB DSNT NE-SE-S P0008 T01780167=
201904191056 SPECI KATL 191056Z 15005KT 2SM TSRA BR SCT003 BKN034CB OVC065 17/16 A2954 RMK AO2 PRESFR OCNL LTGICCA OHD-ALQDS TS OHD-ALQDS MOV NE P0002 T01720161=
201904191052 METAR KATL 191052Z 14005KT 1SM R09R/P6000FT +TSRA BR SCT005 BKN030CB OVC060 17/16 A2955 RMK AO2 SFC VIS 2 SLP998 OCNL LTGICCA OHD-ALQDS TS OHD-ALQDS MOV NE P0043 T01720161=
201904190952 METAR KATL 190952Z 16011KT 1SM R09R/P6000FT +TSRA BR FEW006 SCT018CB OVC033 17/16 A2957 RMK AO2 WSHFT 0839 SFC VIS 2 1/2 SLP006 FRQ LTGICCGCA OHD-ALQDS TS OHD-ALQDS MOV NE P0103 T01720156=
201904190940 SPECI KATL 190940Z 16010KT 1SM R09R/P6000FT +TSRA BR FEW006 BKN016CB OVC036 17/16 A2958 RMK AO2 WSHFT 0839 SFC VIS 1 1/2 FRQ LTGICCGCA OHD-ALQDS TS OHD-ALQDS MOV NE P0091 T01720156=
201904190916 SPECI KATL 190916Z 17009KT 2 1/2SM +TSRA BR FEW006 BKN020CB OVC050 17/16 A2960 RMK AO2 WSHFT 0839 FRQ LTGICCGCA OHD-ALQDS TS OHD-ALQDS MOV NE P0069 T01720156=
201904190908 SPECI KATL 190908Z 20006KT 1SM R09R/4500VP6000FT +TSRA BR SCT006 OVC018CB 17/16 A2958 RMK AO2 WSHFT 0839 FRQ LTGICCACC OHD-ALQDS TS OHD-ALQDS MOV NE P0063 T01720156=
201904190857 SPECI KATL 190857Z 25018G35KT 3/4SM R09R/4000VP6000FT +TSRA BR SCT008 OVC018CB 17/16 A2962 RMK AO2 WSHFT 0839 FRQ LTGICCACC OHD-ALQDS TS OHD-ALQDS MOV NE P0019 T01720156=
201904190852 METAR KATL 190852Z 27019G35KT 3/4SM R09R/4000VP6000FT +TSRA BR SCT008 OVC018CB 19/17 A2964 RMK AO2 PK WND 27035/0850 WSHFT 0838 PRESRR SLP027 FRQ LTGICCACC OHD-ALQDS TS OHD-ALQDS MOV NE P0027 60032 T01890167 55013=
201904190825 SPECI KATL 190825Z 15012G19KT 2 1/2SM +TSRA BR OVC018CB 19/18 A2956 RMK AO2 OCNL LTGICCACC OHD-ALQDS TS OHD-ALQDS MOV NE P0014 T01940178=
201904190752 METAR KATL 190752Z 14011G17KT 7SM -TSRA BKN018CB OVC038 19/17 A2958 RMK AO2 RAB38 TSB49 SLP006 OCNL LTGICCA SW-NW-N TS SW-NW-N MOV NE P0001 T01890167=
201904190652 METAR KATL 190652Z 13008G17KT 10SM BKN022 OVC055 19/17 A2961 RMK AO2 RAE06 TSE06 SLP017 TS DSIPTD P0004 T01890167=
201904190606 SPECI KATL 190606Z 12010KT 10SM FEW004 SCT034 BKN085 OVC140 18/16 A2967 RMK AO2 RAE06 TSE06 TS DSIPTD P0004 T01780161=
201904190552 METAR KATL 190552Z 11011KT 5SM -TSRA BR FEW004 SCT028CB BKN070 OVC130 18/16 A2968 RMK AO2 SLP041 OCNL LTGICCA NE-SE TS NE-SE MOV NE P0014 60023 T01780161 10239 20172 58033=
201904190452 METAR KATL 190452Z 26004KT 5SM -TSRA BR FEW020CB BKN035 OVC080 18/16 A2979 RMK AO2 PK WND 18026/0359 WSHFT 0405 RAB09 TSB51 SLP082 OCNL LTGICCA OHD-N TS OHD-N MOV NE P0009 T01780161 402670161=
201904190425 SPECI KATL 190425Z 27014KT 6SM -RA FEW030 BKN045 OVC110 20/14 A2981 RMK AO2 PK WND 18026/0359 WSHFT 0405 RAB09 P0000 T02000144=
201904190352 METAR KATL 190352Z 17016G23KT 10SM FEW030 BKN110 OVC200 22/13 A2976 RMK AO2 SLP068 CB DSNT SW-NW T02170133=
201904190252 METAR KATL 190252Z 17011G18KT 10SM BKN120 BKN250 22/14 A2978 RMK AO2 SLP075 T02170139 58008=
201904190152 METAR KATL 190152Z 16011KT 10SM FEW050 SCT200 BKN250 22/14 A2980 RMK AO2 SLP083 T02220139=
201904190052 METAR KATL 190052Z 14009KT 10SM SCT050 BKN070 BKN200 OVC250 23/13 A2979 RMK AO2 SLP082 T02330133=
201904182352 METAR KATL 182352Z 15008KT 10SM SCT055 BKN200 OVC250 24/14 A2980 RMK AO2 SLP085 T02390139 10267 20239 56014=
201904182252 METAR KATL 182252Z 18012KT 10SM SCT050 BKN200 BKN250 25/13 A2981 RMK AO2 SLP088 T02500133=
201904182152 METAR KATL 182152Z 16012G20KT 10SM FEW050 SCT065 BKN250 26/13 A2981 RMK AO2 SLP087 T02560133=
201904182052 METAR KATL 182052Z 17011G19KT 10SM SCT050 SCT075 BKN250 27/13 A2984 RMK AO2 SLP097 MDT CU ALQDS T02670133 56037=
201904181952 METAR KATL 181952Z 18014G22KT 10SM SCT048 SCT060 BKN250 26/13 A2987 RMK AO2 SLP106 TCU ALQDS T02560133=
201904181852 METAR KATL 181852Z 17013G20KT 10SM SCT046TCU SCT055 BKN250 25/14 A2991 RMK AO2 SLP121 TCU S-SW MDT CU ALQDS T02500144=
201904181752 METAR KATL 181752Z 18014G18KT 10SM SCT039TCU BKN250 24/14 A2996 RMK AO2 SLP135 TCU SE-SW MDT CU ALQDS T02440144 10244 20167 58019=
201904181652 METAR KATL 181652Z 17014G19KT 10SM BKN030TCU BKN170 BKN250 23/16 A2999 RMK AO2 SLP149 TCU NE-SE-S-SW MDT CU ALQDS T02330156=
201904181552 METAR KATL 181552Z 17009KT 10SM FEW025 BKN050 BKN170 BKN250 22/16 A3002 RMK AO2 SLP158 T02220161=
201904181452 METAR KATL 181452Z 14009KT 10SM FEW020 FEW040 BKN170 BKN250 21/16 A3001 RMK AO2 SLP157 ACC NE-SE T02060156 50012=
201904181352 METAR KATL 181352Z 16006KT 10SM FEW015 BKN170 BKN250 19/15 A3001 RMK AO2 SLP158 VIRGA OHD-SW-W T01890150=
201904181252 METAR KATL 181252Z 15007KT 9SM FEW012 SCT170 BKN200 BKN250 18/15 A2999 RMK AO2 SLP151 T01780150=
201904181152 METAR KATL 181152Z 14007KT 10SM FEW012 SCT170 BKN200 BKN250 17/14 A2997 RMK AO2 SLP144 VIRGA SW DSNT NE T01670139 10194 20161 53008=
201904181052 METAR KATL 181052Z 15007KT 10SM SCT170 BKN200 BKN250 17/13 A2996 RMK AO2 SLP137 VIRGA NE-OHD-SW T01670133=
201904180952 METAR KATL 180952Z 17004KT 10SM SCT160 BKN200 OVC250 17/13 A2996 RMK AO2 SLP138 VIRGA SW-NW T01720128=
201904180852 METAR KATL 180852Z 18008KT 10SM BKN200 BKN250 18/12 A2995 RMK AO2 SLP134 T01780122 55019=
201904180752 METAR KATL 180752Z 17007KT 10SM FEW160 BKN200 BKN250 18/13 A2994 RMK AO2 SLP131 VIRGA SW-NW-N T01830128=
201904180652 METAR KATL 180652Z 18008KT 10SM BKN200 BKN250 19/12 A2998 RMK AO2 SLP142 T01890122=
201904180552 METAR KATL 180552Z 17007KT 10SM BKN200 BKN250 19/12 A3001 RMK AO2 SLP154 T01940122 10244 20189 58020=
201904180452 METAR KATL 180452Z 17005KT 10SM BKN200 BKN250 19/12 A3004 RMK AO2 SLP165 T01940122 402670122=
201904180352 METAR KATL 180352Z 18008KT 10SM BKN200 BKN250 20/12 A3006 RMK AO2 SLP171 T02000122=
201904180252 METAR KATL 180252Z 19006KT 10SM FEW200 BKN250 20/13 A3007 RMK AO2 SLP176 T02000128 53010=
201904180152 METAR KATL 180152Z 17007KT 10SM SCT200 BKN250 22/12 A3007 RMK AO2 SLP175 T02170122=
201904180052 METAR KATL 180052Z 17007KT 10SM SCT200 BKN250 23/12 A3004 RMK AO2 SLP165 T02280122=
201904172352 METAR KATL 172352Z 19007KT 10SM FEW150 SCT200 BKN250 24/11 A3004 RMK AO2 SLP167 T02440111 10267 20244 56004=
201904172252 METAR KATL 172252Z 18007KT 10SM FEW150 SCT200 BKN250 26/11 A3004 RMK AO2 SLP167 T02610111=
201904172152 METAR KATL 172152Z 18007KT 10SM FEW150 SCT200 BKN250 27/11 A3004 RMK AO2 SLP166 T02670106=
201904172052 METAR KATL 172052Z 21006KT 10SM FEW150 FEW180 BKN250 27/11 A3005 RMK AO2 SLP170 T02670106 58028=
201904171952 METAR KATL 171952Z 17009KT 10SM FEW200 BKN250 26/11 A3008 RMK AO2 SLP179 T02610106=
201904171852 METAR KATL 171852Z 20007KT 10SM FEW150 FEW180 BKN250 26/09 A3012 RMK AO2 SLP192 T02560094=
201904171752 METAR KATL 171752Z VRB05KT 10SM FEW150 FEW180 BKN250 24/09 A3014 RMK AO2 SLP200 T02440094 10250 20122 58014=
201904171652 METAR KATL 171652Z 25006KT 10SM FEW180 FEW200 BKN250 24/10 A3016 RMK AO2 SLP207 T02390100=
201904171552 METAR KATL 171552Z 00000KT 10SM FEW200 BKN250 22/10 A3017 RMK AO2 SLP212 T02220100=
201904171452 METAR KATL 171452Z 21005KT 10SM BKN250 20/09 A3018 RMK AO2 SLP215 T02000094 51009=
201904171352 METAR KATL 171352Z 22005KT 10SM BKN250 18/09 A3017 RMK AO2 SLP213 T01780089=
201904171252 METAR KATL 171252Z 00000KT 9SM FEW150 BKN200 BKN250 16/08 A3017 RMK AO2 SLP212 T01610083=
201904171152 METAR KATL 171152Z 13003KT 9SM FEW150 BKN200 BKN250 12/08 A3015 RMK AO2 SLP207 T01220078 10156 20122 53013=
201904171052 METAR KATL 171052Z 00000KT 10SM FEW150 BKN200 BKN250 14/07 A3013 RMK AO2 SLP198 T01390067=
201904170952 METAR KATL 170952Z 28003KT 10SM FEW150 BKN200 BKN250 13/07 A3012 RMK AO2 SLP194 T01330067=
201904170852 METAR KATL 170852Z 23003KT 10SM FEW150 SCT200 BKN250 13/07 A3012 RMK AO2 SLP193 T01330067 58012=
201904170752 METAR KATL 170752Z 00000KT 10SM SCT200 BKN250 14/07 A3013 RMK AO2 SLP199 T01440072=
201904170652 METAR KATL 170652Z 00000KT 10SM FEW200 BKN250 14/07 A3014 RMK AO2 SLP203 T01440072=
201904170552 METAR KATL 170552Z 00000KT 10SM FEW200 BKN250 16/07 A3015 RMK AO2 SLP205 T01560072 10222 20156 58008=
201904170452 METAR KATL 170452Z 00000KT 10SM BKN250 16/08 A3017 RMK AO2 SLP211 T01610078 402440089=
201904170352 METAR KATL 170352Z 00000KT 10SM BKN250 17/07 A3018 RMK AO2 SLP214 T01720072=
201904170252 METAR KATL 170252Z 14003KT 10SM BKN250 18/08 A3018 RMK AO2 SLP215 T01780078 53007=
201904170152 METAR KATL 170152Z 14003KT 10SM BKN250 19/08 A3017 RMK AO2 SLP213 T01890078=
201904170052 METAR KATL 170052Z 18004KT 10SM SCT250 21/07 A3016 RMK AO2 SLP210 T02060072=
201904162352 METAR KATL 162352Z 19006KT 10SM SCT250 22/07 A3016 RMK AO2 SLP208 T02220067 10244 20211 55008=
201904162252 METAR KATL 162252Z VRB05KT 10SM FEW250 23/06 A3015 RMK AO2 SLP207 T02330061=
201904162152 METAR KATL 162152Z 22004KT 10SM FEW250 24/06 A3016 RMK AO2 SLP210 T02390056=
201904162052 METAR KATL 162052Z VRB03KT 10SM FEW250 24/06 A3018 RMK AO2 SLP217 T02390061 58019=
201904161952 METAR KATL 161952Z 10004KT 10SM FEW250 23/06 A3020 RMK AO2 SLP223 T02330056=
201904161852 METAR KATL 161852Z VRB05KT 10SM FEW250 23/05 A3023 RMK AO2 SLP232 T02280050=
201904161752 METAR KATL 161752Z 00000KT 10SM FEW250 22/04 A3024 RMK AO2 SLP237 T02170044 10217 20111 58010=
201904161652 METAR KATL 161652Z 14006KT 10SM FEW250 20/04 A3026 RMK AO2 SLP244 T02000044=
201904161552 METAR KATL 161552Z 15005KT 10SM FEW250 18/03 A3028 RMK AO2 SLP250 T01830028=
201904161452 METAR KATL 161452Z 14007KT 10SM FEW250 17/02 A3027 RMK AO2 SLP249 T01670017 51014=
201904161352 METAR KATL 161352Z 11008KT 10SM FEW250 15/02 A3026 RMK AO2 SLP245 T01500017=
201904161252 METAR KATL 161252Z 08008KT 10SM FEW250 13/02 A3025 RMK AO2 SLP241 T01330022=
201904161152 METAR KATL 161152Z 07006KT 10SM FEW250 11/03 A3023 RMK AO2 SLP235 T01110028 10111 20089 53015=
201904161052 METAR KATL 161052Z 03006KT 10SM CLR 11/02 A3020 RMK AO2 SLP226 T01060017=
201904160952 METAR KATL 160952Z 01008KT 10SM CLR 11/01 A3019 RMK AO2 SLP221 T01110011=
201904160852 METAR KATL 160852Z 33005KT 10SM CLR 09/04 A3018 RMK AO2 SLP220 T00890039 53003=
201904160752 METAR KATL 160752Z 33004KT 10SM CLR 11/03 A3017 RMK AO2 SLP213 T01060028=
201904160652 METAR KATL 160652Z 33004KT 10SM CLR 11/04 A3018 RMK AO2 SLP219 T01060039=
201904160552 METAR KATL 160552Z 34003KT 10SM CLR 11/04 A3017 RMK AO2 SLP216 T01110039 10172 20106 53005=
201904160452 METAR KATL 160452Z 31008KT 10SM CLR 12/04 A3017 RMK AO2 SLP215 T01170044 401940072=
201904160352 METAR KATL 160352Z 30005KT 10SM CLR 12/04 A3016 RMK AO2 SLP212 T01220044=
201904160252 METAR KATL 160252Z 31006KT 10SM CLR 13/04 A3016 RMK AO2 SLP212 T01330039 53019=
201904160152 METAR KATL 160152Z 28005KT 10SM CLR 14/03 A3014 RMK AO2 SLP207 T01390033=
201904160052 METAR KATL 160052Z 31007KT 10SM CLR 16/00 A3011 RMK AO2 SLP197 T01610000=
201904152352 METAR KATL 152352Z 32008KT 10SM CLR 17/01 A3010 RMK AO2 SLP192 T01720011 10194 20161 51012=
201904152252 METAR KATL 152252Z 31010KT 10SM CLR 19/01 A3009 RMK AO2 SLP188 T01890006=
201904152152 METAR KATL 152152Z 32009KT 290V350 10SM CLR 19/01 A3008 RMK AO2 SLP186 T01890011=
201904152052 METAR KATL 152052Z 33016G22KT 10SM CLR 18/01 A3006 RMK AO2 SLP178 T01830011 58006=
201904151952 METAR KATL 151952Z 30011G21KT 10SM CLR 18/02 A3007 RMK AO2 SLP180 T01780017=
201904151852 METAR KATL 151852Z 32018KT 10SM CLR 17/02 A3008 RMK AO2 PK WND 31031/1754 SLP185 T01720022=
201904151752 METAR KATL 151752Z 33013G25KT 10SM CLR 16/02 A3008 RMK AO2 SLP186 T01610017 10161 20078 50001=
201904151652 METAR KATL 151652Z 31017G25KT 10SM FEW050 15/01 A3009 RMK AO2 PK WND 33027/1611 SLP187 T01500011=
201904151552 METAR KATL 151552Z 31016G21KT 10SM FEW045 13/01 A3010 RMK AO2 PK WND 33026/1536 SLP193 T01330011=
201904151452 METAR KATL 151452Z 31015G22KT 10SM FEW250 12/02 A3008 RMK AO2 PK WND 33027/1358 SLP185 T01170017 51021=
201904151352 METAR KATL 151352Z 32015G22KT 10SM FEW250 10/02 A3007 RMK AO2 SLP181 T01000017=
201904151252 METAR KATL 151252Z 30011G19KT 10SM CLR 09/02 A3005 RMK AO2 SLP176 T00890017=
201904151152 METAR KATL 151152Z 31011KT 10SM CLR 08/02 A3002 RMK AO2 SLP162 70128 T00780017 10111 20072 51040=
201904151052 METAR KATL 151052Z 30007G17KT 10SM FEW030 08/02 A2998 RMK AO2 SLP147 T00780017=
201904150952 METAR KATL 150952Z 31011G24KT 10SM SCT030 08/02 A2994 RMK AO2 PK WND 31027/0932 SLP136 T00830017=
201904150941 SPECI KATL 150941Z 32016G27KT 10SM SCT029 09/01 A2994 RMK AO2 PK WND 31027/0932 T00890011=
201904150852 METAR KATL 150852Z 30011KT 10SM OVC029 10/04 A2989 RMK AO2 PK WND 33027/0822 SLP118 T01000039 53007=
201904150759 SPECI KATL 150759Z 31015G22KT 10SM OVC029 10/04 A2986 RMK AO2 T01000039 $=
201904150752 METAR KATL 150752Z 31015G22KT 10SM OVC031 10/04 A2987 RMK AO2 PK WND 30029/0656 SLP109 T01000039 $=
201904150652 METAR KATL 150652Z 31023G29KT 10SM BKN026 OVC040 11/04 A2987 RMK AO2 PK WND 32029/0644 SLP111 T01060044 $=
201904150608 SPECI KATL 150608Z 28014G23KT 10SM BKN026 OVC040 11/06 A2987 RMK AO2 T01060056 $=
201904150552 METAR KATL 150552Z 29017G24KT 10SM FEW022 BKN036 OVC043 11/06 A2987 RMK AO2 RAB06E17 SLP111 P0000 60000 T01110056 10206 20111 51027 $=
201904150517 SPECI KATL 150517Z 29018G23KT 10SM SCT022 BKN033 OVC048 11/06 A2987 RMK AO2 RAB06E17 P0000 T01110061 $=
201904150507 SPECI KATL 150507Z 29017G25KT 10SM -RA BKN022 OVC048 12/07 A2986 RMK AO2 RAB06 P0000 T01170067 $=
201904150452 METAR KATL 150452Z 28014G25KT 10SM FEW014 SCT028 OVC046 12/06 A2985 RMK AO2 RAE05 SLP105 VCSH NW-NE P0000 T01220061 402500117 $=
201904150414 SPECI KATL 150414Z 29013KT 10SM FEW017 OVC034 12/08 A2984 RMK AO2 RAE05 P0000 T01220078 $=
201904150352 METAR KATL 150352Z 30014KT 8SM -RA SCT017 BKN024 OVC038 12/09 A2983 RMK AO2 PK WND 29029/0302 RAB39 SLP097 P0000 T01220089 $=
201904150321 SPECI KATL 150321Z 29015G24KT 10SM BKN028 OVC048 13/08 A2980 RMK AO2 PK WND 29029/0302 BINOVC T01330078 $=
201904150252 METAR KATL 150252Z 28016G27KT 10SM BKN032 BKN055 BKN075 14/08 A2979 RMK AO2 PK WND 28027/0243 SLP083 T01440078 51052 $=
201904150152 METAR KATL 150152Z 29020G26KT 10SM FEW038 BKN055 16/08 A2975 RMK AO2 PK WND 30028/0127 SLP069 T01610078 $=
201904150052 METAR KATL 150052Z 27017G25KT 10SM BKN042 BKN250 17/09 A2969 RMK AO2 PK WND 28031/0020 WSHFT 2339 SLP046 T01720094 $=
201904150006 SPECI KATL 150006Z 29017G28KT 10SM FEW036 SCT046 BKN140 BKN200 19/13 A2965 RMK AO2 PK WND 29029/2354 WSHFT 2339 CB DSNT SE T01940128 $=
201904142352 METAR KATL 142352Z 27017G25KT 10SM SCT030 BKN044 BKN140 BKN200 21/14 A2963 RMK AO2 PK WND 21038/2321 WSHFT 2330 LTG DSNT SE SLP026 FROPA RAB22E35 TSE38 TS MOV NE CB DSNT NE SE P0000 60000 T02110139 10250 20200 53018 $=
201904142350 SPECI KATL 142350Z 28018G25KT 10SM SCT030 BKN044 BKN140 BKN200 21/14 A2963 RMK AO2 PK WND 21038/2321 WSHFT 2330 LTG DSNT SE FROPA RAB22E35 TSE38 TS MOV NE CB DSNT NE SE P0000 $=
201904142341 SPECI KATL 142341Z 26010G25KT 10SM FEW030TCU BKN044 BKN140 BKN200 21/15 A2962 RMK AO2 PK WND 21038/2321 WSHFT 2316 LTG DSNT NE RAB22E35 TSE38 TS MOV NE CB DSNT NE TCU SE-SW P0000 T02110150 $=
201904142333 SPECI KATL 142333Z 22014KT 10SM VCTS -RA FEW025 BKN044CB BKN140 BKN200 21/14 A2962 RMK AO2 PK WND 21038/2321 WSHFT 2316 LTG DSNT NE RAB22 OCNL LTGICCA VC NE TS VC NE MOV NE CB DSNT NE-E P0000 T02060144 $=
201904142326 SPECI KATL 142326Z 20013G38KT 10SM -TSRA FEW025 BKN044CB BKN140 BKN200 21/14 A2961 RMK AO2 PK WND 21038/2321 WSHFT 2255 RAB22 OCNL LTGICCA E-S TS E-S MOV NE CB NE-SE-SW MOV NE SHELF CLOUD NE-SE-S P0000 T02060144 $=
201904142315 SPECI KATL 142315Z 27009KT 10SM VCTS FEW014 SCT044CB BKN140 BKN200 22/16 A2958 RMK AO2 WSHFT 2255 FROPA OCNL LTGICCA VC SE-SW TS VC SE-SW MOV NE CB ALQDS MOV NE VCSH ALQDS T02170161 $=
201904142252 METAR KATL 142252Z 22012G19KT 10SM VCTS FEW018 SCT044CB BKN140 BKN200 24/15 A2957 RMK AO2 SLP005 TSB17 OCNL LTGICCA VC SW-NW-N TS VC SW-NW-N MOV NE CB DSNT S-SW SHELF CLOUD VC NW-N VCSH SW-NW-N T02390150 $=
201904142219 SPECI KATL 142219Z 20014G23KT 10SM VCTS SCT046CB SCT200 SCT250 24/16 A2957 RMK AO2 TSB17 OCNL LTGICCG VC SW-NW TS VC SW-NW MOV NE T02390156 $=
201904142152 METAR KATL 142152Z 19019G25KT 10SM SCT046 SCT200 SCT250 25/15 A2958 RMK AO2 PK WND 20028/2106 LTG DSNT N SLP006 CB DSNT SW T02500150 $=
201904142052 METAR KATL 142052Z 18021G29KT 10SM SCT035 SCT250 25/15 A2958 RMK AO2 PK WND 20032/2026 SLP008 MDT CU DSNT NE & W-NW T02500150 56028 $=
201904141952 METAR KATL 141952Z 19021G29KT 10SM SCT033 BKN042 BKN250 24/17 A2961 RMK AO2 PK WND 20030/1900 SLP018 MDT CU NE-E T02440172 $=
201904141852 METAR KATL 141852Z 18015G26KT 10SM SCT020 SCT028 BKN040 BKN250 25/19 A2963 RMK AO2 PK WND 18027/1823 SLP022 MDT CU SW & W T02500194 $=
201904141752 METAR KATL 141752Z 19011G23KT 10SM FEW015 BKN020TCU BKN028 BKN250 BKN300 23/19 A2967 RMK AO2 PK WND 22028/1703 RAE1659 SLP038 TCU NE & SE-SW P0000 60128 T02280194 10228 20194 58010 $=
201904141652 METAR KATL 141652Z 20014G21KT 7SM -RA SCT009 SCT023 OVC029 21/19 A2970 RMK AO2 PK WND 23038/1609 SLP048 BINOVC P0056 T02110189 $=
201904141640 SPECI KATL 141640Z 22011G21KT 4SM -RA BR SCT009 BKN020 OVC070 21/19 A2970 RMK AO2 PK WND 23038/1609 BINOVC P0056 T02110189 $=
201904141627 SPECI KATL 141627Z 21018G30KT 2SM R09R/2200VP6000FT RA BR SCT009 BKN020 OVC045 21/18 A2970 RMK AO2 PK WND 23038/1609 TS VC DSIPTD P0049 T02060183 $=
201904141622 SPECI KATL 141622Z 19013G22KT 2SM R09R/5000VP6000FT VCTS RA BR SCT009 BKN014 OVC030 20/18 A2971 RMK AO2 PK WND 23038/1609 OCNL LTGICCG VC S TS VC S MOV NE P0037 T02000183 $=
201904141613 SPECI KATL 141613Z 23016G38KT 1 1/4SM R09R/5500VP6000FT VCTS +RA SCT004 BKN007 OVC020 20/17 A2972 RMK AO2 PK WND 23038/1609 OCNL LTGICCG VC W TS VC W MOV NE P0026 T02000172 $=
201904141555 SPECI KATL 141555Z 18019G28KT 1SM R09R/3500VP6000FT VCTS +RA BR SCT005 BKN007 OVC020 21/19 A2971 RMK AO2 PK WND 19028/1553 LTG DSNT SW P0008 T02060189 $=
201904141552 METAR KATL 141552Z 17015G27KT 3/4SM R09R/3500VP6000FT RA BR BKN005 BKN008 OVC019 21/19 A2970 RMK AO2 PK WND 17027/1548 LTG DSNT SW SLP047 CB DSNT SW P0027 T02060189 $=
201904141548 SPECI KATL 141548Z 17017G27KT 3SM RA BR BKN008 BKN013 OVC019 21/19 A2970 RMK AO2 PK WND 17027/1548 LTG DSNT SW CB DSNT SW P0025 $=
201904141541 SPECI KATL 141541Z 18013G18KT 2 1/2SM RA BR SCT008 BKN013 OVC020 21/19 A2968 RMK AO2 VIS 1 1/4V5 LTG DSNT SW PRESFR CB DSNT SW P0022 T02060189 $=
201904141528 SPECI KATL 141528Z 17010G20KT 3SM RA BR SCT008 BKN013 OVC037 21/19 A2971 RMK AO2 P0017 T02060189 $=
201904141514 SPECI KATL 141514Z 16014G22KT 2SM RA BR BKN008 BKN015 OVC022 21/19 A2972 RMK AO2 P0009 T02110189 $=
201904141452 METAR KATL 141452Z 17012G21KT 3SM RA BR BKN010 BKN014 OVC042 21/19 A2973 RMK AO2 SLP058 LTG DSNT NW CB DSNT NW P0027 60045 T02110189 58000 $=
201904141435 SPECI KATL 141435Z 15010G20KT 4SM RA BR SCT008 BKN012 OVC048 21/19 A2974 RMK AO2 LTG DSNT W CB DSNT W P0021 T02110189 $=
201904141426 SPECI KATL 141426Z 19011G25KT 2 1/2SM RA BR SCT005 BKN012 OVC045 21/18 A2974 RMK AO2 LTG DSNT W CB DSNT W P0017 T02060183 $=
201904141418 SPECI KATL 141418Z 16011G19KT 110V190 3/4SM R09R/5500VP6000FT +RA BR BKN009 BKN015 OVC075 21/19 A2974 RMK AO2 LTG DSNT W P0010 T02060189 $=
201904141416 SPECI KATL 141416Z 18011KT 2SM R09R/5500VP6000FT RA BR FEW006 BKN012 OVC075 21/19 A2975 RMK AO2 P0009 T02110189 $=
201904141352 METAR KATL 141352Z 18015G25KT 4SM RA BR FEW009 BKN050 OVC085 21/19 A2974 RMK AO2 PK WND 17028/1325 SLP063 SCT009 V BKN P0017 T02110189 $=
201904141349 SPECI KATL 141349Z 18016G25KT 3SM RA BR FEW009 BKN050 OVC070 21/19 A2975 RMK AO2 PK WND 17028/1325 SCT011 V BKN P0016 $=
201904141333 SPECI KATL 141333Z 18016G28KT 2 1/2SM RA BR BKN014 BKN055 OVC075 21/19 A2974 RMK AO2 PK WND 17028/1325 P0008 T02110189 $=
201904141252 METAR KATL 141252Z 16014G31KT 8SM -RA BKN014 BKN045 OVC130 21/18 A2973 RMK AO2 PK WND 15031/1246 RAB23 SLP057 BKN014 V SCT CIG 010V015 P0001 T02110183 $=
201904141152 METAR KATL 141152Z 17015G23KT 10SM BKN012 OVC150 21/18 A2973 RMK AO2 PRESFR SLP057 CIG 010V015 60001 70001 T02110183 10222 20206 56024 $=
201904141111 SPECI KATL 141111Z 16013KT 10SM BKN012 BKN120 OVC200 21/18 A2975 RMK AO2 T02110183 $=
201904141052 METAR KATL 141052Z 16013KT 10SM SCT012 SCT120 OVC200 21/18 A2976 RMK AO2 SLP066 T02110183 $=
201904140952 METAR KATL 140952Z 16011G16KT 10SM FEW026 FEW047 SCT200 OVC250 21/18 A2977 RMK AO2 SLP072 T02060178 $=
201904140917 SPECI KATL 140917Z 14009KT 10SM FEW026 SCT047 BKN200 OVC250 21/18 A2978 RMK AO2 T02060183 $=
201904140852 METAR KATL 140852Z 15008KT 10SM BKN024 BKN044 OVC095 21/18 A2980 RMK AO2 RAE24 SLP082 P0000 60001 T02110183 56018 $=
201904140820 SPECI KATL 140820Z 17006KT 10SM -RA BKN023 BKN033 OVC047 21/18 A2981 RMK AO2 P0000 T02110183 $=
201904140752 METAR KATL 140752Z 16007KT 8SM -RA BKN037 BKN047 BKN100 OVC200 22/18 A2981 RMK AO2 RAB45 SLP086 P0001 T02170183 $=
201904140652 METAR KATL 140652Z 16009G17KT 10SM SCT055 BKN100 OVC200 22/18 A2983 RMK AO2 SLP092 T02170178 $=
201904140552 METAR KATL 140552Z 15010KT 10SM BKN048 BKN100 OVC200 22/18 A2986 RMK AO2 SLP100 T02220178 10256 20222 55004 $=
201904140452 METAR KATL 140452Z 15011G20KT 10SM FEW100 SCT150 OVC200 23/18 A2985 RMK AO2 SLP098 T02280178 402830167 $=
201904140352 METAR KATL 140352Z 15011G17KT 10SM SCT075 SCT150 BKN200 BKN250 23/17 A2988 RMK AO2 SLP108 ACC SE-OHD-NW T02330172 $=
201904140252 METAR KATL 140252Z 13009G20KT 10SM FEW048 SCT075 SCT150 OVC200 23/16 A2987 RMK AO2 SLP106 MDT CU SW-NW T02330161 58006 $=
201904140152 METAR KATL 140152Z 13008KT 10SM FEW048 SCT065 SCT150 OVC200 24/15 A2989 RMK AO2 SLP112 T02440150 $=
201904140052 METAR KATL 140052Z 13008KT 10SM SCT060 BKN150 BKN200 BKN250 25/14 A2989 RMK AO2 SLP114 T02500144 $=
201904132352 METAR KATL 132352Z 13005KT 10SM SCT070 SCT150 BKN200 BKN250 26/14 A2989 RMK AO2 SLP112 T02560139 10283 20239 56014 $=
201904132252 METAR KATL 132252Z 17008KT 10SM FEW065 FEW150 SCT200 BKN250 27/13 A2990 RMK AO2 SLP114 T02720133 $=
201904132152 METAR KATL 132152Z 19007G15KT 150V220 10SM FEW065 SCT150 SCT200 BKN250 28/13 A2991 RMK AO2 SLP119 T02780133 $=
201904132052 METAR KATL 132052Z 18010G19KT 10SM FEW060 SCT140 BKN180 BKN250 28/13 A2993 RMK AO2 SLP126 T02780128 56024 $=
201904131952 METAR KATL 131952Z 18014KT 10SM SCT055 SCT140 BKN180 BKN250 27/14 A2994 RMK AO2 SLP131 T02720139 $=
201904131852 METAR KATL 131852Z 18010KT 10SM FEW045 SCT140 BKN180 BKN250 25/14 A2997 RMK AO2 SLP140 VIRGA N & SW-W T02500139 $=
201904131752 METAR KATL 131752Z 16009KT 10SM FEW028 SCT140 BKN180 BKN250 24/16 A3000 RMK AO2 SLP153 VIRGA OHD & SW-NW T02390156 10239 20189 58019 $=
201904131652 METAR KATL 131652Z 15007KT 10SM SCT020 BKN180 OVC210 23/17 A3004 RMK AO2 SLP166 BINOVC T02280172 $=
201904131552 METAR KATL 131552Z 14005KT 9SM SCT009 SCT015 BKN180 OVC220 21/17 A3006 RMK AO2 SLP172 BINOVC T02110172 $=
201904131452 METAR KATL 131452Z 12005KT 10SM FEW008 SCT026 SCT040 BKN180 OVC250 21/17 A3006 RMK AO2 SLP173 BINOVC T02110172 51014 $=
201904131447 SPECI KATL 131447Z 14005KT 10SM FEW008 SCT026 SCT040 BKN180 OVC250 22/18 A3006 RMK AO2 BINOVC $=
201904131425 SPECI KATL 131425Z 10004KT 8SM SCT007 BKN028 BKN039 OVC250 21/17 A3006 RMK AO2 BINOVC T02060172 $=
201904131352 METAR KATL 131352Z 11007KT 10SM SCT006 SCT050 SCT070 BKN180 BKN250 21/16 A3005 RMK AO2 SLP169 MDT CW W & NE-E T02060161 $=
201904131341 SPECI KATL 131341Z 09009KT 10SM SCT006 SCT042 BKN180 BKN250 20/16 A3005 RMK AO2 MDT CW W-NW T02000156 $=
201904131252 METAR KATL 131252Z 06007KT 10SM BKN043 BKN130 BKN180 BKN250 20/13 A3004 RMK AO2 SLP165 MDT CU SW-NW-N T02000133=
201904131152 METAR KATL 131152Z 03005KT 10SM FEW055 SCT130 BKN180 OVC250 19/13 A3002 RMK AO2 SLP157 70004 T01890133 10189 20167 50007=
201904131052 METAR KATL 131052Z 01004KT 10SM FEW055 FEW080 BKN130 OVC180 19/13 A3002 RMK AO2 SLP158 T01890133=
201904130952 METAR KATL 130952Z 05004KT 10SM SCT050 SCT080 BKN130 OVC180 18/13 A3001 RMK AO2 SLP156 T01780133=
201904130852 METAR KATL 130852Z 00000KT 10SM FEW048 SCT080 BKN180 BKN250 19/13 A3000 RMK AO2 SLP149 T01890133 56015=
201904130752 METAR KATL 130752Z 00000KT 10SM SCT050 BKN180 BKN250 18/13 A3001 RMK AO2 SLP154 T01780133=
201904130652 METAR KATL 130652Z 00000KT 10SM BKN180 BKN250 18/13 A3000 RMK AO2 SLP151 T01780133=
201904130552 METAR KATL 130552Z 00000KT 10SM BKN180 BKN250 18/14 A3004 RMK AO2 SLP166 T01780139 10228 20178 51004=
201904130452 METAR KATL 130452Z 18003KT 10SM BKN200 BKN250 19/13 A3004 RMK AO2 SLP165 T01890133 402560189=
201904130352 METAR KATL 130352Z 00000KT 10SM BKN200 BKN250 19/14 A3003 RMK AO2 SLP163 T01940139=
201904130252 METAR KATL 130252Z 13004KT 10SM BKN200 BKN250 20/13 A3003 RMK AO2 SLP161 T02000133 51010=
201904130152 METAR KATL 130152Z 27004KT 10SM BKN200 BKN250 21/13 A3002 RMK AO2 SLP158 T02110128=
201904130052 METAR KATL 130052Z 28005KT 10SM BKN200 BKN250 21/13 A3001 RMK AO2 SLP155 T02110133=
201904122352 METAR KATL 122352Z 21003KT 10SM BKN200 BKN250 23/12 A3000 RMK AO2 SLP150 T02280122 10256 20228 56003=
201904122252 METAR KATL 122252Z 19006KT 10SM FEW050 BKN200 BKN250 24/12 A3000 RMK AO2 SLP153 T02390117=
201904122152 METAR KATL 122152Z 20006KT 10SM FEW050 BKN200 OVC250 24/13 A3000 RMK AO2 SLP149 T02440133=
201904122052 METAR KATL 122052Z 19010KT 10SM SCT050 SCT060 SCT150 BKN200 OVC250 25/14 A3001 RMK AO2 SLP152 VIRGA OHD & N & W BINOVC T02500139 56006=
201904121952 METAR KATL 121952Z 24008KT 10SM SCT055 SCT100 SCT150 BKN220 OVC250 26/13 A3001 RMK AO2 SLP152 BINOVC T02560133=
201904121852 METAR KATL 121852Z 21007KT 10SM SCT045 SCT150 BKN200 BKN250 26/14 A3001 RMK AO2 SLP153 T02560139=
201904121752 METAR KATL 121752Z 22007KT 170V260 10SM SCT033 BKN250 25/16 A3002 RMK AO2 SLP159 MDT CU ALQDS 60004 T02500156 10256 20194 58002=
201904121652 METAR KATL 121652Z 23006KT 10SM BKN030TCU BKN060 BKN250 23/17 A3003 RMK AO2 SLP161 TCU E S SW-NW T02330172=
201904121626 SPECI KATL 121626Z 22007KT 10SM BKN030TCU BKN060 BKN250 23/17 A3004 RMK AO2 TCU OHD-SW-NW-N MDT CU NE-SE T02330172=
201904121552 METAR KATL 121552Z 20008KT 10SM FEW030TCU FEW060 SCT150 BKN250 23/18 A3004 RMK AO2 SLP166 TCU SE MDT CU SW-NW T02280178=
201904121452 METAR KATL 121452Z 20010KT 10SM FEW015 BKN035TCU OVC150 22/18 A3003 RMK AO2 RAE1358 SLP162 TCU OHD & ALQDS P0000 60004 T02170178 53004=
201904121359 SPECI KATL 121359Z 17006KT 10SM SCT009 BKN020 BKN025 21/18 A3002 RMK AO2 RAE58 VIS LWR NE SHRA CB NE MOV NE P0000 T02060183=
201904121355 SPECI KATL 121355Z 18006KT 8SM -RA BKN009CB BKN020 OVC030 21/18 A3002 RMK AO2 VIS LWR N SHRA CB N MOV NE P0000 T02060183=
201904121352 METAR KATL 121352Z 17006KT 4SM RA BR BKN007CB BKN012 OVC020 21/18 A3002 RMK AO2 RAB37 SLP159 CB OHD MOV NE P0004 T02060183=
201904121348 SPECI KATL 121348Z 18008KT 4SM RA BR BKN007CB BKN012 OVC030 20/18 A3002 RMK AO2 RAB37 CB OHD-S MOV NE P0004=
201904121252 METAR KATL 121252Z 17004KT 8SM BKN008 BKN016 BKN070 OVC250 20/18 A3002 RMK AO2 RAB01E14 SLP157 CIG 007V010 P0000 T02000183=
201904121233 SPECI KATL 121233Z 16005KT 10SM SCT008 BKN014 OVC040 20/18 A3001 RMK AO2 RAB01E14 CIG 012V016 BINOVC P0000 T02000183=
201904121152 METAR KATL 121152Z 15004KT 8SM OVC012 19/18 A2999 RMK AO2 DZE18 SLP148 CIG 010V014 BINOVC P0000 60001 70002 T01940178 10206 20194 53017=
201904121052 METAR KATL 121052Z 15004KT 8SM -DZ FEW006 BKN012 OVC024 19/18 A2996 RMK AO2 RAE34DZB50 SLP138 CIG 010V014 P0000 T01940178=
201904120952 METAR KATL 120952Z 16007KT 6SM -RA BR BKN012 OVC022 20/18 A2995 RMK AO2 RAB00 SLP133 CIG 010V014 P0001 T02000178=
201904120922 SPECI KATL 120922Z 15006KT 7SM -RA BKN014 OVC028 20/17 A2995 RMK AO2 RAB00 CIG 012V016 P0000 T02000172=
201904120852 METAR KATL 120852Z 14007KT 9SM BKN015 OVC030 21/17 A2994 RMK AO2 SLP129 CIG 013V017 60000 T02060172 51000=
201904120752 METAR KATL 120752Z 14011G16KT 10SM SCT016 BKN026 OVC038 21/17 A2994 RMK AO2 RAB38E48 SLP128 P0000 T02060172=
201904120652 METAR KATL 120652Z 15011G19KT 10SM BKN018 OVC046 21/17 A2995 RMK AO2 SLP132 T02060167=
201904120552 METAR KATL 120552Z 15015G22KT 10SM BKN018 BKN048 BKN075 21/17 A2994 RMK AO2 SLP129 60001 T02060167 10250 20206 58003=
201904120541 SPECI KATL 120541Z 14012G20KT 10SM BKN018 BKN048 BKN075 21/17 A2994 RMK AO2 T02060172=
201904120452 METAR KATL 120452Z 14010KT 10SM FEW022 SCT048 BKN080 21/17 A2995 RMK AO2 RAB14E33 SLP131 P0000 T02060167 402780172=
201904120352 METAR KATL 120352Z 14007KT 10SM FEW025 SCT050 BKN090 21/17 A2995 RMK AO2 RAE10B32E52 SLP135 P0000 T02060172=
201904120252 METAR KATL 120252Z 14010KT 9SM -RA FEW025 SCT040 BKN080 BKN200 21/17 A2995 RMK AO2 RAB35 SLP133 P0001 60001 T02110167 53009=
201904120152 METAR KATL 120152Z 11005KT 10SM FEW060 BKN090 BKN250 23/14 A2994 RMK AO2 SLP129 T02330144=
201904120052 METAR KATL 120052Z 14004KT 10SM SCT060 BKN250 24/14 A2993 RMK AO2 SLP128 T02390139=
201904112352 METAR KATL 112352Z 16007KT 10SM SCT065 BKN250 25/13 A2992 RMK AO2 SLP124 T02500133 10278 20250 53007=
201904112252 METAR KATL 112252Z 16009G19KT 10SM FEW065 BKN250 26/12 A2991 RMK AO2 SLP121 T02610122=
201904112152 METAR KATL 112152Z 16011G24KT 10SM FEW065 BKN250 27/11 A2990 RMK AO2 SLP117 T02670111=
201904112052 METAR KATL 112052Z 15012KT 10SM FEW065 SCT200 BKN250 27/12 A2990 RMK AO2 SLP116 T02720117 56016=
201904111952 METAR KATL 111952Z 15014G21KT 10SM FEW070 SCT200 BKN250 27/10 A2990 RMK AO2 SLP116 T02720100=
201904111852 METAR KATL 111852Z 14015G22KT 10SM FEW070 FEW200 BKN250 27/08 A2993 RMK AO2 SLP125 T02720083=
201904111752 METAR KATL 111752Z 14008G18KT 10SM FEW060 FEW200 BKN250 26/11 A2995 RMK AO2 SLP132 T02610106 10267 20172 58005=
201904111652 METAR KATL 111652Z 13010G17KT 10SM FEW050 FEW200 BKN250 26/12 A2996 RMK AO2 SLP138 T02560122=
201904111552 METAR KATL 111552Z 15014G17KT 10SM FEW005 FEW040 SCT200 BKN250 24/14 A2997 RMK AO2 SLP142 FU FEW005 T02440139 $=
201904111452 METAR KATL 111452Z 15013G19KT 10SM FEW030 FEW200 SCT250 23/16 A2997 RMK AO2 SLP139 T02330156 51007=
201904111352 METAR KATL 111352Z 16007KT 10SM BKN250 21/16 A2996 RMK AO2 SLP138 T02110156=
201904111252 METAR KATL 111252Z 14005KT 10SM BKN250 18/15 A2996 RMK AO2 SLP137 T01830150=
201904111152 METAR KATL 111152Z 14005KT 10SM BKN250 17/14 A2994 RMK AO2 SLP132 T01720144 10206 20172 53022=
201904111052 METAR KATL 111052Z 17006KT 10SM FEW250 17/14 A2991 RMK AO2 SLP121 T01720144=
201904110952 METAR KATL 110952Z 17008KT 10SM FEW250 18/14 A2989 RMK AO2 SLP113 T01780139=
201904110852 METAR KATL 110852Z 15007KT 10SM SCT250 18/13 A2988 RMK AO2 SLP108 T01830133 53001=
201904110752 METAR KATL 110752Z 16007KT 10SM FEW250 19/12 A2986 RMK AO2 SLP103 T01890122=
201904110652 METAR KATL 110652Z 16007KT 10SM FEW250 20/12 A2987 RMK AO2 SLP104 T02000117=
201904110552 METAR KATL 110552Z 16006KT 10SM FEW250 20/12 A2987 RMK AO2 SLP106 T02000122 10256 20189 52000=
201904110452 METAR KATL 110452Z 13003KT 10SM SCT250 20/12 A2987 RMK AO2 SLP106 T02000122 402780150=
201904110352 METAR KATL 110352Z 14004KT 10SM SCT250 21/12 A2987 RMK AO2 SLP107 T02060122=
201904110252 METAR KATL 110252Z 14003KT 10SM SCT250 22/12 A2987 RMK AO2 SLP107 T02170117 53015=
201904110152 METAR KATL 110152Z 13003KT 10SM FEW250 23/12 A2986 RMK AO2 SLP103 T02280117=
201904110052 METAR KATL 110052Z 17004KT 10SM FEW250 24/12 A2983 RMK AO2 SLP095 T02390117=
201904102352 METAR KATL 102352Z 16004KT 10SM FEW250 26/11 A2983 RMK AO2 SLP092 T02560111 10278 20256 53006=
201904102252 METAR KATL 102252Z 13005KT 10SM CLR 27/11 A2981 RMK AO2 SLP087 T02720106=
201904102152 METAR KATL 102152Z 20003KT 10SM FEW070 FEW250 28/11 A2981 RMK AO2 SLP087 T02780111=
201904102052 METAR KATL 102052Z 25004KT 10SM FEW070 FEW250 27/11 A2981 RMK AO2 SLP086 T02720111 56015=
201904101952 METAR KATL 101952Z 18005KT 10SM FEW070 FEW250 27/11 A2982 RMK AO2 SLP089 T02720111=
201904101852 METAR KATL 101852Z 00000KT 10SM FEW065 27/11 A2984 RMK AO2 SLP096 T02670106=
201904101752 METAR KATL 101752Z 11006KT 10SM FEW060 27/12 A2985 RMK AO2 SLP101 T02670122 10267 20167 58011=
201904101652 METAR KATL 101652Z 11007KT 10SM FEW055 25/12 A2987 RMK AO2 SLP109 T02500117=
201904101552 METAR KATL 101552Z VRB04KT 10SM CLR 24/12 A2989 RMK AO2 SLP115 T02440122=
201904101452 METAR KATL 101452Z 32005KT 10SM FEW250 22/15 A2989 RMK AO2 SLP113 T02220150 53015=
201904101352 METAR KATL 101352Z 00000KT 10SM FEW250 21/14 A2987 RMK AO2 SLP108 T02060139=
201904101252 METAR KATL 101252Z 34005KT 10SM FEW250 18/13 A2986 RMK AO2 SLP105 T01830128=
201904101152 METAR KATL 101152Z 35006KT 10SM SCT250 17/12 A2984 RMK AO2 SLP100 70004 T01670117 10172 20150 53018=
201904101052 METAR KATL 101052Z 34008KT 10SM FEW250 15/12 A2982 RMK AO2 SLP093 T01500122=
201904100952 METAR KATL 100952Z 34009KT 10SM FEW250 16/12 A2980 RMK AO2 SLP085 T01610122=
201904100852 METAR KATL 100852Z 34007KT 10SM FEW250 16/13 A2979 RMK AO2 SLP081 T01610128 55001=
201904100752 METAR KATL 100752Z 34005KT 10SM FEW250 16/14 A2978 RMK AO2 SLP080 T01560139 $=
201904100652 METAR KATL 100652Z 33007KT 10SM FEW250 16/14 A2979 RMK AO2 SLP081 T01610144 $=
201904100552 METAR KATL 100552Z 33006KT 10SM FEW250 16/14 A2979 RMK AO2 SLP082 60000 T01610144 10200 20161 53003 $=
201904100452 METAR KATL 100452Z 33005KT 10SM FEW250 16/14 A2979 RMK AO2 SLP080 T01610144 402440161 $=
201904100352 METAR KATL 100352Z VRB03KT 10SM SCT250 17/14 A2978 RMK AO2 SLP078 T01720144 $=
201904100252 METAR KATL 100252Z 36007KT 10SM FEW200 SCT250 19/15 A2978 RMK AO2 SLP079 60000 T01940150 51014 $=
201904100152 METAR KATL 100152Z 00000KT 10SM SCT035 BKN200 BKN250 19/14 A2978 RMK AO2 SLP078 T01940139 $=
201904100052 METAR KATL 100052Z 32006KT 10SM FEW100 SCT150 BKN200 BKN250 18/14 A2976 RMK AO2 RAE29 SLP071 P0000 T01780144=
201904092352 METAR KATL 092352Z 34006KT 10SM -RA FEW020 SCT100 BKN150 BKN250 20/14 A2974 RMK AO2 TSE10 SLP065 P0002 60004 T02000144 10244 20178 50004=
201904092310 SPECI KATL 092310Z 33004KT 9SM -RA FEW020 SCT070 BKN110 BKN200 18/15 A2975 RMK AO2 TSE10 TS DSIPTD P0002 T01780150=
201904092252 METAR KATL 092252Z 32012KT 6SM TSRA FEW020CB SCT035 BKN070 BKN200 19/14 A2975 RMK AO2 PK WND 33028/2241 SLP067 VIS LWR NW-NE RAB38 OCNL LTGICCG W-NW & DSNT NE TS W-NW & DSNT NE MOV S P0000 T01940139=
201904092225 SPECI KATL 092225Z 29006KT 10SM TS FEW020CB SCT080 BKN150 BKN200 22/17 A2974 RMK AO2 OCNL LTGICCG NW-N & DSNT NE TS NW-N & DSNT NE MOV S T02170167=
201904092152 METAR KATL 092152Z 25004KT 10SM VCTS FEW020CB SCT100 BKN150 BKN200 22/17 A2973 RMK AO2 SLP061 RAB2053E03 TSB50 OCNL LTGICCG N-NE TS VC N-NE MOV S P0000 T02170172=
201904092052 METAR KATL 092052Z 33003KT 10SM FEW015 SCT030 SCT120 BKN250 21/16 A2973 RMK AO2 LTG DSNT S AND W RAE42 SLP059 CB DSNT S W TCU DSNT NW-N SHRA VC E-SE P0002 60002 T02110161 56016=
201904092004 SPECI KATL 092004Z 29008KT 10SM -RA FEW020 FEW060 BKN110 BKN250 21/16 A2972 RMK AO2 LTG DSNT S CB DSNT S W VIS LWR SW SHRA P0001 T02110161=
201904091952 METAR KATL 091952Z 21004KT 10SM VCTS -RA FEW020CB FEW030TCU BKN110 BKN250 22/16 A2973 RMK AO2 LTG DSNT S AND SW SLP060 OCNL LTGICCG NW TS VC NW MOV SE SHRA VC SW-NW-N TCU NE NW P0000 T02220156=
201904091918 SPECI KATL 091918Z 16005KT 10SM VCTS FEW030CB SCT060 BKN090 BKN250 23/16 A2974 RMK AO2 LTG DSNT SW AND NW FRQ LTGICCG NW TS VC NW MOV SE SHRA VC NW TCU DSNT NE NW T02280161=
201904091852 METAR KATL 091852Z 13007KT 10SM FEW030TCU BKN060 BKN080 BKN250 24/16 A2975 RMK AO2 LTG DSNT SW-NW SLP065 CB DSNT SW NW TCU NW-N SHRA DSNT SW-NW-N T02390161=
201904091752 METAR KATL 091752Z 14008KT 10SM FEW025 SCT040 SCT080 BKN250 24/16 A2978 RMK AO2 SLP075 CB DSNT SW-NW SHRA DSNT SW-NW T02390161 10239 20178 58018=
201904091652 METAR KATL 091652Z 15006KT 10SM FEW025TCU SCT050 SCT080 BKN250 22/17 A2980 RMK AO2 SLP083 CB DSNT NE SW-NW-N TCU SE SW MDT CU NW T02220167=
201904091642 SPECI KATL 091642Z 14007KT 10SM FEW020 SCT050 SCT080 BKN250 23/17 A2980 RMK AO2 LTG DSNT NE CB DSNT NE SW-NW T02280172=
201904091552 METAR KATL 091552Z 12005KT 10SM BKN015 BKN050 OVC080 21/17 A2983 RMK AO2 SLP094 MDT CU ALQDS T02060172=
201904091549 SPECI KATL 091549Z 11005KT 10SM BKN015 BKN050 OVC080 21/17 A2983 RMK AO2 MDT CU ALQDS=
201904091515 SPECI KATL 091515Z 15007KT 10SM BKN013 BKN055 BKN080 21/17 A2982 RMK AO2 T02060167=
201904091452 METAR KATL 091452Z 12006KT 10SM BKN015 BKN060 BKN080 21/17 A2981 RMK AO2 SLP089 T02060167 58005=
201904091404 SPECI KATL 091404Z 16003KT 10SM FEW009 BKN015 BKN080 19/17 A2982 RMK AO2 T01940167=
201904091352 METAR KATL 091352Z 12004KT 10SM FEW010 BKN020 BKN080 19/17 A2982 RMK AO2 SLP091 T01940167=
201904091252 METAR KATL 091252Z 18004KT 7SM FEW007 BKN011 OVC080 18/17 A2984 RMK AO2 SLP097 CIG 010V015 BINOVC E T01830167=
201904091152 METAR KATL 091152Z 16004KT 6SM BR BKN007 BKN018 OVC080 18/17 A2983 RMK AO2 RAE28 TSE17 SLP095 CIG 005V009 TS DSIPTD P0003 60004 70004 T01780167 10189 20178 53003=
201904091147 SPECI KATL 091147Z 17004KT 6SM BR BKN007 BKN020 OVC080 18/17 A2983 RMK AO2 RAE28 TSE17 CIG 005V009 TS DSIPTD P0003=
201904091127 SPECI KATL 091127Z 18007KT 8SM -RA FEW005 SCT015 BKN065 BKN130 BKN250 18/16 A2982 RMK AO2 TSE17 TS DSIPTD CB DSNT E-SE P0003 T01780161=
201904091117 SPECI KATL 091117Z 11004KT 6SM -RA BR BKN015 BKN049 BKN080 OVC150 18/16 A2982 RMK AO2 TSE17 TS DSIPTD CB DSNT E-S P0003 T01780161=
201904091052 METAR KATL 091052Z 00000KT 7SM -TSRA SCT009 BKN015CB OVC120 18/17 A2982 RMK AO2 RAB38 TSB25 SLP091 OCNL LTGICCG SW & DSNT SE-S TS SW MOV NE CB DSNT SE-S P0001 T01830167=
201904091050 SPECI KATL 091050Z 00000KT 7SM -TSRA SCT009 BKN015CB OVC120 18/17 A2982 RMK AO2 RAB38 TSB25 OCNL LTGICCG SW & DSNT SE-S TS SW MOV NE CB DSNT SE-S P0001=
201904091025 SPECI KATL 091025Z 00000KT 10SM TS BKN009CB OVC120 18/16 A2981 RMK AO2 TSB25 OCNL LTGICCG SW TS VC SW MOV NE CB DSNT SE-SW T01830161=
201904090952 METAR KATL 090952Z 17003KT 10SM BKN008 OVC120 18/17 A2980 RMK AO2 LTG DSNT SW SLP085 CB DSNT SE-SW T01830167=
201904090852 METAR KATL 090852Z 21008KT 8SM BKN008 BKN041 OVC075 18/17 A2982 RMK AO2 SLP092 BKN008 V SCT T01830167 55010=
201904090838 SPECI KATL 090838Z 20007KT 8SM BKN008 BKN041 BKN075 OVC130 18/17 A2983 RMK AO2 BKN008 V SCT T01830167=
201904090828 SPECI KATL 090828Z 21005KT 10SM SCT005 BKN041 BKN075 OVC130 18/17 A2982 RMK AO2 T01830167=
201904090757 SPECI KATL 090757Z 21003KT 7SM BKN004 BKN080 OVC130 18/17 A2981 RMK AO2 T01830167=
201904090752 METAR KATL 090752Z 21003KT 7SM BKN005 BKN080 OVC130 18/17 A2981 RMK AO2 SLP088 T01830172=
201904090652 METAR KATL 090652Z 21007KT 10SM BKN006 BKN013 18/17 A2983 RMK AO2 SLP096 T01830172=
201904090552 METAR KATL 090552Z 20006KT 10SM BKN010 BKN060 BKN200 BKN250 18/17 A2985 RMK AO2 SLP102 BKN010 V SCT T01830167 10217 20183 58010=
201904090452 METAR KATL 090452Z 21006KT 10SM FEW060 SCT200 BKN250 19/17 A2986 RMK AO2 SLP105 T01890167 402390183=
201904090352 METAR KATL 090352Z 19003KT 10SM FEW120 SCT200 BKN250 19/17 A2988 RMK AO2 SLP111 T01890167=
201904090252 METAR KATL 090252Z 19004KT 10SM FEW080 SCT120 BKN250 20/17 A2989 RMK AO2 SLP113 T02000172 50006=
201904090152 METAR KATL 090152Z 17005KT 10SM SCT120 BKN250 21/18 A2989 RMK AO2 SLP113 T02060183=
201904090052 METAR KATL 090052Z 19003KT 10SM FEW015 BKN120 BKN200 21/18 A2987 RMK AO2 SLP109 T02110183=
201904082352 METAR KATL 082352Z 21004KT 10SM FEW015 SCT022 BKN200 22/18 A2987 RMK AO2 SLP108 60000 T02170183 10233 20211 55007=
201904082252 METAR KATL 082252Z 21007KT 10SM SCT015 BKN022 BKN120 BKN200 22/18 A2986 RMK AO2 SLP105 T02220183=
201904082152 METAR KATL 082152Z 19006KT 10SM SCT016 BKN025 BKN150 OVC200 22/18 A2987 RMK AO2 SLP108 T02170178=
201904082104 SPECI KATL 082104Z 20008KT 10SM BKN015 BKN100 OVC150 21/17 A2989 RMK AO2 T02110172=
201904082052 METAR KATL 082052Z 21009KT 10SM FEW015 SCT020 SCT100 OVC150 21/17 A2989 RMK AO2 RAB09E21 SLP115 P0000 60000 T02110172 56015=
201904081952 METAR KATL 081952Z 21010G25KT 10SM BKN025 BKN050 OVC100 22/16 A2991 RMK AO2 RAB07E13 SLP121 SHRA DSNT N VC E-SE P0000 T02220161=
201904081852 METAR KATL 081852Z 20012G18KT 10SM FEW025 SCT040 BKN100 OVC150 23/17 A2994 RMK AO2 SLP130 SHRA VC SW-NW T02280167=
201904081752 METAR KATL 081752Z 21012KT 10SM SCT020 BKN030 OVC120 23/17 A2995 RMK AO2 SLP135 CB DSNT NE-SE SW-NW T02330172 10239 20189 58019=
201904081733 SPECI KATL 081733Z 22008G17KT 10SM SCT025 BKN030 BKN050 BKN150 OVC250 24/18 A2995 RMK AO2 CB DSNT NE-SE SW NW T02390178=
201904081652 METAR KATL 081652Z 17012G19KT 10SM BKN025 BKN050 BKN120 OVC150 23/18 A2998 RMK AO2 SLP144 CB DSNT NE-SE T02280178=
201904081559 SPECI KATL 081559Z 18011KT 10SM BKN020 BKN040 OVC120 22/18 A3001 RMK AO2 CB DSNT NE E T02220178=
201904081552 METAR KATL 081552Z 19010KT 10SM SCT020 BKN040 OVC120 22/18 A3001 RMK AO2 SLP156 CB DSNT NE E T02220178=
201904081452 METAR KATL 081452Z 18007KT 10SM BKN030 BKN050 OVC100 22/18 A3001 RMK AO2 SLP155 T02170178 58001=
201904081352 METAR KATL 081352Z 18008KT 10SM FEW010 SCT040 BKN150 BKN180 BKN250 21/18 A3001 RMK AO2 SLP156 T02110178=
201904081252 METAR KATL 081252Z 17007KT 6SM BR SCT006 BKN042 BKN055 BKN180 OVC250 20/18 A3001 RMK AO2 SLP156 T02000178=
201904081152 METAR KATL 081152Z 15007KT 7SM FEW008 SCT060 SCT150 BKN200 BKN250 19/17 A3001 RMK AO2 SLP156 T01890172 10200 20183 55009=
201904081052 METAR KATL 081052Z 14005KT 10SM FEW055 SCT150 BKN200 BKN250 19/17 A3001 RMK AO2 SLP154 T01890172=
201904080952 METAR KATL 080952Z 12004KT 10SM FEW055 FEW150 SCT200 BKN250 19/17 A3002 RMK AO2 SLP157 T01890172=
201904080852 METAR KATL 080852Z 16005KT 10SM FEW055 BKN250 19/17 A3004 RMK AO2 SLP164 T01940172 58016=
201904080752 METAR KATL 080752Z 18006KT 10SM SCT055 SCT150 BKN250 19/17 A3006 RMK AO2 SLP171 T01940172 $=
201904080652 METAR KATL 080652Z 18007KT 10SM FEW085 SCT150 SCT180 BKN250 20/17 A3007 RMK AO2 SLP175 T02000172 $=
201904080552 METAR KATL 080552Z 18006KT 10SM FEW080 SCT150 SCT180 BKN250 20/17 A3009 RMK AO2 SLP181 T02000172 10244 20200 58008 $=
201904080452 METAR KATL 080452Z 19003KT 10SM FEW080 FEW150 SCT200 SCT250 20/17 A3010 RMK AO2 SLP186 T02000172 402670167 $=
201904080352 METAR KATL 080352Z 19005KT 10SM FEW080 FEW150 SCT200 SCT250 21/17 A3011 RMK AO2 SLP188 T02110172 $=
201904080252 METAR KATL 080252Z 18005KT 10SM FEW075 SCT150 BKN200 BKN250 22/17 A3011 RMK AO2 SLP190 ACC W-NW T02170172 50010 $=
201904080152 METAR KATL 080152Z 20004KT 10SM FEW075 SCT150 BKN200 BKN250 22/17 A3012 RMK AO2 SLP194 T02220172 $=
201904080052 METAR KATL 080052Z 20005KT 10SM SCT150 BKN200 BKN250 23/17 A3010 RMK AO2 SLP188 T02280172 $=
201904072352 METAR KATL 072352Z 19003KT 10SM FEW042 SCT150 BKN200 BKN250 24/17 A3008 RMK AO2 SLP181 MDT CU SE NW T02440167 10267 20244 55009 $=
201904072252 METAR KATL 072252Z 18008KT 10SM FEW050 SCT150 BKN200 BKN250 26/16 A3008 RMK AO2 SLP179 MDT CU SW-NW T02560161 $=
201904072152 METAR KATL 072152Z 18010KT 10SM FEW050 SCT150 BKN200 BKN250 26/16 A3009 RMK AO2 SLP184 TCU DSNT E T02610161 $=
201904072052 METAR KATL 072052Z 19008KT 10SM SCT040 BKN160 BKN250 26/17 A3011 RMK AO2 SLP190 MDT CU S-W T02560167 55016 $=
201904071952 METAR KATL 071952Z 17010KT 10SM SCT040 BKN170 BKN250 26/16 A3011 RMK AO2 SLP189 MDT CU S-SW T02560161 $=
201904071852 METAR KATL 071852Z 18007KT 10SM FEW036 BKN170 BKN250 26/16 A3014 RMK AO2 SLP200 T02560161 $=
201904071752 METAR KATL 071752Z 17009KT 10SM FEW035 BKN160 BKN250 25/17 A3016 RMK AO2 SLP207 T02500167 10250 20167 56008 $=
201904071652 METAR KATL 071652Z 14008KT 10SM BKN160 BKN250 24/16 A3017 RMK AO2 SLP210 T02390156 $=
201904071552 METAR KATL 071552Z 13007KT 10SM FEW250 22/16 A3018 RMK AO2 SLP213 T02220161 $=
201904071452 METAR KATL 071452Z 16006KT 10SM BKN250 21/17 A3019 RMK AO2 SLP216 T02060167 51003 $=
201904071352 METAR KATL 071352Z 17004KT 10SM FEW009 BKN250 18/16 A3018 RMK AO2 SLP215 T01780161 $=
201904071252 METAR KATL 071252Z 00000KT 10SM FEW110 SCT180 BKN220 BKN250 17/16 A3020 RMK AO2 SLP220 T01720156 $=
201904071152 METAR KATL 071152Z 11003KT 10SM FEW080 SCT110 BKN180 OVC220 17/15 A3018 RMK AO2 SLP214 BINOVC 60075 70108 T01670150 10178 20167 56010 $=
201904071052 METAR KATL 071052Z 00000KT 10SM FEW100 SCT180 BKN220 17/15 A3019 RMK AO2 SLP216 T01670150 $=
201904070952 METAR KATL 070952Z 00000KT 10SM FEW080 SCT100 OVC150 17/16 A3020 RMK AO2 RAE34 SLP220 P0001 T01670156 $=
201904070852 METAR KATL 070852Z 20003KT 6SM -RA BR FEW005 SCT080 OVC100 17/16 A3021 RMK AO2 SLP224 P0020 60074 T01670156 55007 $=
201904070752 METAR KATL 070752Z 16003KT 3SM RA BR FEW007 BKN070 OVC085 17/16 A3020 RMK AO2 SLP221 TSE0655 OCNL LTG DSNT S TS MOV E P0024 T01670156 $=
201904070657 SPECI KATL 070657Z 18003KT 4SM -RA BR SCT007 BKN070 OVC080 17/16 A3022 RMK AO2 TSE55 OCNL LTG DSNT NE-SE TS MOV E P0003 T01720161 $=
201904070652 METAR KATL 070652Z 18003KT 3SM -TSRA BR SCT007 OVC075CB 17/16 A3022 RMK AO2 LTG DSNT ALQDS SLP230 OCNL LTGICCC OHD-NE-SE TS OHD-NE-SE MOV NE P0030 T01720161 $=
201904070608 SPECI KATL 070608Z 22004KT 4SM TSRA BR FEW007 SCT024CB OVC075 18/16 A3022 RMK AO2 LTG DSNT ALQDS OCNL LTGICCG N-NE & S TS N-NE & S MOV NE P0014 T01780161=
201904070552 METAR KATL 070552Z 24003KT 2SM R09R/5500VP6000FT +TSRA BR FEW004 BKN024CB OVC039 18/17 A3023 RMK AO2 SLP232 TSB17 OCNL LTGICCG OHD-ALQDS TS OHD-ALQDS MOV NE P0033 60033 T01780167 10206 20178 53025=
201904070540 SPECI KATL 070540Z 30009G23KT 1SM R09R/5500VP6000FT +TSRA BR BKN004 BKN010CB OVC024 18/16 A3023 RMK AO2 TSB17 OCNL LTGICCG OHD-SW-NW-N TS OHD-SW-NW-N MOV NE P0007 T01780161=
201904070517 SPECI KATL 070517Z 17006KT 5SM TS BR OVC004CB 18/16 A3018 RMK AO2 OCNL LTGICCG SW-NW TS VC SW-NW MOV NE T01780161=
201904070505 SPECI KATL 070505Z 16007KT 7SM OVC004 18/16 A3018 RMK AO2 LTG DSNT S-W-NW T01780161=
201904070452 METAR KATL 070452Z 15007KT 7SM OVC005 18/16 A3018 RMK AO2 LTG DSNT NW SLP214 CB DSNT SW-NW T01780161 402280150=
201904070424 SPECI KATL 070424Z 15006KT 8SM BKN006 BKN055 OVC120 18/16 A3018 RMK AO2 T01830161=
201904070415 SPECI KATL 070415Z 15005KT 9SM FEW006 BKN055 BKN070 OVC130 18/16 A3018 RMK AO2 T01830161=
201904070352 METAR KATL 070352Z 17005KT 9SM FEW012 BKN060 BKN120 OVC200 18/16 A3018 RMK AO2 SLP216 T01830161=
201904070252 METAR KATL 070252Z 13004KT 10SM FEW075 SCT120 OVC200 18/16 A3015 RMK AO2 SLP207 T01830161 50004=
201904070152 METAR KATL 070152Z 16005KT 10SM FEW018 FEW050 SCT080 BKN200 19/16 A3017 RMK AO2 SLP212 T01940161=
201904070052 METAR KATL 070052Z 15006KT 10SM SCT018 BKN048 BKN075 BKN200 20/16 A3015 RMK AO2 SLP205 T02000156=
201904062352 METAR KATL 062352Z 17006KT 10SM SCT020 BKN036 BKN050 OVC200 21/16 A3014 RMK AO2 SLP203 T02060161 10228 20200 53009=
201904062347 SPECI KATL 062347Z 18010KT 10SM SCT020 BKN036 BKN050 OVC200 21/16 A3014 RMK AO2=
201904062324 SPECI KATL 062324Z 18010KT 10SM BKN024 BKN038 BKN200 OVC250 22/16 A3014 RMK AO2 T02170161=
201904062252 METAR KATL 062252Z 15005KT 10SM SCT026 BKN040 BKN200 22/16 A3013 RMK AO2 SLP198 T02170156=
201904062152 METAR KATL 062152Z 14004KT 9SM SCT026 BKN042 BKN200 22/16 A3011 RMK AO2 SLP190 T02170156=
201904062052 METAR KATL 062052Z 13006KT 9SM FEW024 BKN040 BKN200 22/16 A3011 RMK AO2 SLP192 T02170156 58021=
201904062033 SPECI KATL 062033Z 14006KT 10SM SCT024 OVC040 22/15 A3012 RMK AO2 T02170150=
201904061952 METAR KATL 061952Z 15007KT 130V190 10SM BKN026 22/15 A3014 RMK AO2 SLP203 T02170150=
201904061938 SPECI KATL 061938Z 11005KT 10SM BKN028 BKN050 22/15 A3015 RMK AO2 T02220150=
201904061852 METAR KATL 061852Z 12005KT 10SM FEW022 BKN037 BKN048 21/14 A3016 RMK AO2 SLP208 T02060144=
201904061827 SPECI KATL 061827Z 12007KT 10SM SCT020 BKN035 21/14 A3017 RMK AO2 T02060144=
201904061752 METAR KATL 061752Z 09006KT 10SM OVC019 20/14 A3018 RMK AO2 SLP214 T02000144 10200 20150 58004=
201904061652 METAR KATL 061652Z 12006KT 10SM BKN017 OVC022 19/14 A3019 RMK AO2 SLP220 T01940139=
201904061630 SPECI KATL 061630Z 09006KT 10SM BKN016 OVC022 19/14 A3020 RMK AO2 T01890139=
201904061552 METAR KATL 061552Z 12008KT 10SM OVC013 18/14 A3019 RMK AO2 SLP220 T01830139=
201904061452 METAR KATL 061452Z 09008KT 10SM OVC012 17/13 A3019 RMK AO2 SLP219 T01720133 51014=
201904061410 SPECI KATL 061410Z 10008KT 10SM BKN010 OVC015 16/13 A3018 RMK AO2 T01610128=
201904061352 METAR KATL 061352Z 09008KT 10SM BKN009 OVC015 16/13 A3018 RMK AO2 SLP214 T01610128=
201904061252 METAR KATL 061252Z 09006KT 10SM BKN008 OVC015 16/13 A3017 RMK AO2 SLP210 T01560128=
201904061152 METAR KATL 061152Z 09009KT 8SM OVC007 15/13 A3015 RMK AO2 SLP203 CIG 006V008 T01500128 10167 20150 53010=
201904061052 METAR KATL 061052Z 08009KT 8SM OVC006 15/13 A3013 RMK AO2 SLP196 T01500133=
201904060952 METAR KATL 060952Z 08011KT 7SM OVC005 15/13 A3012 RMK AO2 SLP192 T01500133=
201904060852 METAR KATL 060852Z 08010KT 6SM BR BKN005 BKN049 OVC065 15/13 A3012 RMK AO2 SLP193 BKN005 V SCT T01500133 56004=
201904060818 SPECI KATL 060818Z 08008KT 7SM BKN005 BKN049 BKN065 15/13 A3012 RMK AO2 T01500133=
201904060752 METAR KATL 060752Z 08008KT 7SM FEW006 BKN065 15/13 A3012 RMK AO2 SLP192 T01500133=
201904060740 SPECI KATL 060740Z 08007KT 6SM BR SCT007 BKN065 15/13 A3012 RMK AO2 T01500133=
201904060718 SPECI KATL 060718Z 09006KT 7SM BKN006 BKN055 15/13 A3012 RMK AO2 BKN006 V SCT T01500133=
201904060652 METAR KATL 060652Z 07009KT 10SM SCT050 SCT065 16/13 A3011 RMK AO2 SLP192 T01560133=
201904060552 METAR KATL 060552Z 11007KT 10SM BKN055 17/14 A3013 RMK AO2 SLP197 T01670139 10217 20167 53007=
201904060452 METAR KATL 060452Z 11004KT 10SM BKN055 17/14 A3012 RMK AO2 SLP193 T01720139 402440133=
201904060352 METAR KATL 060352Z 11005KT 10SM BKN055 BKN250 18/14 A3011 RMK AO2 SLP192 T01780139=
201904060252 METAR KATL 060252Z 12003KT 10SM FEW045 SCT250 18/14 A3011 RMK AO2 SLP192 T01830139 53015=
201904060152 METAR KATL 060152Z 00000KT 10SM FEW045 SCT250 19/13 A3009 RMK AO2 SLP184 T01940128=
201904060052 METAR KATL 060052Z 33003KT 10SM FEW045 BKN250 21/12 A3007 RMK AO2 SLP178 T02060122=
201904052352 METAR KATL 052352Z 26004KT 10SM FEW045 SCT250 22/13 A3006 RMK AO2 SLP175 T02170128 10244 20217 53007=
201904052252 METAR KATL 052252Z 27007KT 10SM FEW045 FEW250 23/12 A3005 RMK AO2 SLP171 T02330122=
201904052152 METAR KATL 052152Z 32007KT 10SM SCT045 BKN070 24/13 A3005 RMK AO2 SLP170 MDT CU OHD-ALQDS T02390128=
201904052052 METAR KATL 052052Z 29009KT 10SM BKN040 BKN075 23/13 A3004 RMK AO2 SLP168 MDT CU ALQDS T02280128 56009=
201904051952 METAR KATL 051952Z 26010KT 10SM SCT041 SCT070 24/14 A3005 RMK AO2 SLP169 MDT CU ALQDS T02440139=
201904051852 METAR KATL 051852Z 28008KT 10SM BKN032 BKN070 22/14 A3007 RMK AO2 SLP176 T02220144=
201904051752 METAR KATL 051752Z VRB06KT 10SM SCT023 BKN030 22/15 A3007 RMK AO2 SLP179 60000 T02170150 10222 20150 58008=
201904051652 METAR KATL 051652Z 26008KT 10SM FEW015 SCT020 BKN040 20/15 A3009 RMK AO2 SLP187 T02000150=
201904051552 METAR KATL 051552Z 24009KT 10SM FEW010 BKN015 OVC030 18/15 A3010 RMK AO2 RAE1453 SLP189 BINOVC E-SE P0000 T01830150=
201904051516 SPECI KATL 051516Z 24006KT 10SM OVC010 18/15 A3009 RMK AO2 RAE1453 P0000 T01780150=
201904051452 METAR KATL 051452Z 24006KT 7SM -RA OVC008 17/14 A3008 RMK AO2 RAB49 SLP184 P0000 60000 T01720144 53003=
201904051352 METAR KATL 051352Z 21007KT 9SM OVC007 16/14 A3007 RMK AO2 SLP180 T01610139=
201904051252 METAR KATL 051252Z 21008KT 8SM OVC006 15/13 A3008 RMK AO2 SLP183 CIG 004V008 T01500133=
201904051152 METAR KATL 051152Z 17004KT 7SM BKN008 OVC020 15/13 A3007 RMK AO2 SLP180 CIG 006V010 60001 70018 T01500133 10150 20133 53001=
201904051052 METAR KATL 051052Z 16005KT 10SM SCT005 BKN013 OVC032 15/13 A3006 RMK AO2 DZE16RAB16E51 SLP175 P0000 T01500133=
201904051021 SPECI KATL 051021Z 16005KT 7SM -RA SCT006 BKN011 OVC020 15/13 A3006 RMK AO2 DZE16RAB16 P0000 T01500133=
201904050952 METAR KATL 050952Z 19004KT 6SM -DZ BR OVC008 15/13 A3007 RMK AO2 RAB16E40DZB40 SLP178 CIG 006V010 P0000 T01500133=
201904050852 METAR KATL 050852Z 17005KT 7SM OVC008 15/13 A3007 RMK AO2 SLP177 CIG 006V010 60001 T01500128 58005=
201904050752 METAR KATL 050752Z 17007KT 10SM OVC006 15/13 A3007 RMK AO2 SLP178 CIG 005V008 T01500128=
201904050652 METAR KATL 050652Z 16006KT 10SM OVC006 14/13 A3009 RMK AO2 RAE31 SLP184 CIG 004V008 P0001 T01440128=
201904050552 METAR KATL 050552Z 13011KT 4SM -RA BR BKN006 OVC012 13/12 A3009 RMK AO2 PRESFR SLP184 CIG 004V008 P0007 60017 T01330122 10194 20133 58030=
201904050515 SPECI KATL 050515Z 13007KT 3SM -RA BR BKN007 BKN015 OVC034 13/12 A3015 RMK AO2 CIG 005V009 P0004 T01330122=
201904050452 METAR KATL 050452Z 13008KT 6SM -RA BR SCT007 BKN015 OVC040 13/12 A3014 RMK AO2 SLP204 P0003 T01330117 402110094=
201904050352 METAR KATL 050352Z 13007KT 5SM -RA BR BKN022 BKN035 OVC050 14/12 A3017 RMK AO2 SLP213 P0004 T01390117=
201904050252 METAR KATL 050252Z 17006KT 6SM -RA BKN035 BKN050 OVC090 15/12 A3018 RMK AO2 SLP215 P0002 60003 T01500122 55002=
201904050152 METAR KATL 050152Z 12006KT 10SM -RA SCT042 BKN060 OVC100 16/10 A3017 RMK AO2 SLP213 P0000 T01610100=
201904050052 METAR KATL 050052Z 14005KT 10SM -RA BKN055 OVC070 17/11 A3019 RMK AO2 SLP220 P0001 T01720106=
201904042352 METAR KATL 042352Z 13005KT 10SM -RA SCT065 BKN090 OVC150 20/07 A3018 RMK AO2 RAB51 SLP218 P0000 60000 T02000072 10211 20200 56010=
201904042252 METAR KATL 042252Z 13007KT 10SM FEW060 BKN150 OVC200 21/07 A3018 RMK AO2 SLP219 VIRGA OHD-ALQDS T02060067=
201904042152 METAR KATL 042152Z 16008KT 10SM FEW060 BKN150 OVC200 21/06 A3020 RMK AO2 SLP223 VIRGA OHD-ALQDS T02060061=
201904042052 METAR KATL 042052Z 16008KT 10SM FEW120 BKN150 OVC180 21/05 A3021 RMK AO2 SLP227 VIRGA OHD ALQDS T02110050 56024=
201904041952 METAR KATL 041952Z 17011KT 10SM FEW120 FEW150 BKN180 OVC250 21/04 A3022 RMK AO2 SLP231 VIRGA N-NE-E DSNT S-SW T02110044=
201904041852 METAR KATL 041852Z 16011G17KT 10SM SCT120 SCT150 OVC200 21/05 A3027 RMK AO2 SLP245 VIRGA DSNT S-SW-W ACC N-NE-E T02060050=
201904041752 METAR KATL 041752Z 13007KT 100V160 10SM FEW120 SCT150 OVC200 20/06 A3029 RMK AO2 SLP252 VIRGA DSNT SE-S-SW T02000056 10211 20100 58017=
201904041652 METAR KATL 041652Z 15013KT 10SM FEW150 FEW180 BKN240 20/05 A3031 RMK AO2 SLP260 T02000050=
201904041552 METAR KATL 041552Z 16011KT 10SM FEW150 SCT180 BKN250 19/05 A3033 RMK AO2 SLP267 T01940050=
201904041452 METAR KATL 041452Z 15010G14KT 10SM FEW150 FEW180 BKN250 18/06 A3034 RMK AO2 SLP269 T01830061 51003=
201904041352 METAR KATL 041352Z 15004KT 10SM SCT250 16/07 A3033 RMK AO2 SLP269 T01560072=
201904041252 METAR KATL 041252Z 14006KT 10SM FEW200 SCT250 12/06 A3033 RMK AO2 SLP270 T01220061=
201904041152 METAR KATL 041152Z 00000KT 9SM FEW150 FEW200 SCT250 10/04 A3033 RMK AO2 SLP268 T01000044 10144 20094 51004=
201904041052 METAR KATL 041052Z 00000KT 10SM FEW150 FEW200 SCT250 10/03 A3033 RMK AO2 SLP267 T01000033=
201904040952 METAR KATL 040952Z 00000KT 10SM FEW150 FEW200 SCT250 10/04 A3032 RMK AO2 SLP264 T01000039=
201904040852 METAR KATL 040852Z 10003KT 10SM FEW150 SCT200 SCT250 11/03 A3031 RMK AO2 SLP262 T01110033 56005=
201904040752 METAR KATL 040752Z 00000KT 10SM FEW150 SCT200 BKN250 13/03 A3031 RMK AO2 SLP261 T01280028=
201904040652 METAR KATL 040652Z 00000KT 10SM FEW150 BKN200 BKN250 13/02 A3032 RMK AO2 SLP263 T01330022=
201904040552 METAR KATL 040552Z 00000KT 10SM BKN200 BKN250 14/02 A3033 RMK AO2 SLP267 T01440017 10200 20139 51005=
201904040452 METAR KATL 040452Z 15003KT 10SM BKN200 BKN250 14/02 A3033 RMK AO2 SLP267 T01440017 402280067=
201904040352 METAR KATL 040352Z 19004KT 10SM SCT200 BKN250 16/01 A3032 RMK AO2 SLP265 T01560011=
201904040252 METAR KATL 040252Z 17006KT 10SM SCT200 BKN250 17/00 A3032 RMK AO2 SLP262 T01720000 53011=
201904040152 METAR KATL 040152Z 00000KT 10SM BKN200 OVC250 18/01 A3031 RMK AO2 SLP262 T01780006=
201904040052 METAR KATL 040052Z 18003KT 10SM BKN250 19/00 A3028 RMK AO2 SLP253 T01890000=
201904032352 METAR KATL 032352Z 18003KT 10SM BKN250 20/M01 A3028 RMK AO2 SLP253 T02001011 10228 20200 55003=
201904032252 METAR KATL 032252Z 16005KT 10SM BKN250 22/M03 A3028 RMK AO2 SLP251 T02171028=
201904032152 METAR KATL 032152Z 15003KT 10SM BKN250 22/M04 A3028 RMK AO2 SLP252 T02171039=
201904032052 METAR KATL 032052Z 12005KT 10SM BKN250 22/M02 A3029 RMK AO2 SLP255 T02221017 56021=
201904031952 METAR KATL 031952Z 11006KT 10SM SCT250 22/M01 A3030 RMK AO2 SLP260 T02221006=
201904031852 METAR KATL 031852Z 20004KT 10SM SCT250 21/M01 A3033 RMK AO2 SLP268 T02111006=
201904031752 METAR KATL 031752Z VRB03KT 10SM BKN250 21/M01 A3035 RMK AO2 SLP277 T02061006 10211 20072 58005=
201904031652 METAR KATL 031652Z VRB03KT 10SM BKN250 19/M02 A3037 RMK AO2 SLP282 T01941017=
201904031552 METAR KATL 031552Z VRB03KT 10SM BKN250 18/M01 A3038 RMK AO2 SLP285 T01781006=
201904031452 METAR KATL 031452Z 00000KT 10SM BKN250 17/M02 A3037 RMK AO2 SLP282 T01671017 51020=
201904031352 METAR KATL 031352Z 31003KT 10SM SCT250 13/02 A3035 RMK AO2 SLP278 T01330017=
201904031252 METAR KATL 031252Z 33006KT 10SM SCT250 11/01 A3033 RMK AO2 SLP271 T01110011 $=
201904031152 METAR KATL 031152Z 33004KT 10SM FEW200 SCT250 07/01 A3031 RMK AO2 SLP264 T00720006 10089 20067 51024=
201904031052 METAR KATL 031052Z 31004KT 10SM FEW200 SCT250 08/01 A3028 RMK AO2 SLP255 T00780006=
201904030952 METAR KATL 030952Z 30005KT 10SM FEW250 07/01 A3026 RMK AO2 SLP247 T00720011=
201904030852 METAR KATL 030852Z 31003KT 10SM FEW250 07/01 A3023 RMK AO2 SLP238 T00720011 53004=
201904030752 METAR KATL 030752Z 30005KT 10SM FEW250 08/02 A3022 RMK AO2 SLP235 T00780017=
201904030652 METAR KATL 030652Z 28004KT 10SM FEW250 08/02 A3023 RMK AO2 SLP237 T00780022=
201904030552 METAR KATL 030552Z 00000KT 10SM CLR 09/02 A3022 RMK AO2 SLP235 T00890022 10150 20089 53008=
201904030452 METAR KATL 030452Z 00000KT 10SM CLR 10/02 A3021 RMK AO2 SLP231 T01000022 401780078=
201904030352 METAR KATL 030352Z 28003KT 10SM CLR 11/02 A3020 RMK AO2 SLP228 T01110017=
201904030252 METAR KATL 030252Z 29006KT 10SM CLR 12/02 A3020 RMK AO2 SLP227 T01170017 53023=
201904030152 METAR KATL 030152Z 29004KT 10SM CLR 12/01 A3018 RMK AO2 SLP220 T01220011=
201904030052 METAR KATL 030052Z 33007KT 10SM FEW250 13/01 A3015 RMK AO2 SLP210 T01330006=
201904022352 METAR KATL 022352Z 33009KT 10SM FEW250 15/01 A3013 RMK AO2 SLP204 T01500006 10178 20144 53010=
201904022252 METAR KATL 022252Z 32011KT 10SM FEW065 16/01 A3011 RMK AO2 SLP196 T01610006=
201904022152 METAR KATL 022152Z 29011G19KT 10SM FEW065 17/01 A3010 RMK AO2 SLP194 T01720006=
201904022052 METAR KATL 022052Z 32010KT 10SM SCT070 17/00 A3010 RMK AO2 SLP191 T01720000 56011=
201904021952 METAR KATL 021952Z 33007G16KT 10SM SCT070 17/M01 A3010 RMK AO2 SLP192 T01671006=
201904021852 METAR KATL 021852Z 35011KT 10SM FEW070 17/M01 A3012 RMK AO2 SLP199 T01671006=
201904021752 METAR KATL 021752Z VRB03KT 10SM FEW060 14/M01 A3013 RMK AO2 SLP203 T01441006 10150 20078 58010=
201904021652 METAR KATL 021652Z 35005KT 10SM BKN050 14/M02 A3015 RMK AO2 SLP208 T01391022=
201904021552 METAR KATL 021552Z 07006KT 10SM SCT050 12/M02 A3016 RMK AO2 SLP214 T01221022=
201904021452 METAR KATL 021452Z 08010KT 10SM SCT050 SCT070 10/M02 A3016 RMK AO2 SLP215 T01001022 50003=
201904021352 METAR KATL 021352Z 06010KT 10SM BKN050 BKN070 BKN080 08/M02 A3018 RMK AO2 SLP222 T00831022=
201904021252 METAR KATL 021252Z 07010KT 10SM SCT055 BKN065 BKN080 08/M03 A3017 RMK AO2 SLP218 ACC DSNT NE T00781033=
201904021152 METAR KATL 021152Z 07010KT 10SM SCT050 BKN075 BKN100 08/M03 A3015 RMK AO2 SLP212 T00781033 10100 20078 53012=
201904021052 METAR KATL 021052Z 07008KT 10SM BKN100 BKN120 08/M03 A3013 RMK AO2 SLP203 T00781028=
201904020952 METAR KATL 020952Z 09009KT 10SM BKN095 OVC120 08/M03 A3012 RMK AO2 SLP201 T00831028=
201904020852 METAR KATL 020852Z 08009KT 10SM BKN100 09/M03 A3012 RMK AO2 SLP198 T00891033 56014=
201904020752 METAR KATL 020752Z 09006KT 10SM BKN120 OVC150 09/M03 A3013 RMK AO2 SLP202 T00941033=
201904020652 METAR KATL 020652Z 08008KT 10SM FEW060 BKN110 OVC150 10/M04 A3014 RMK AO2 SLP207 T01001039=
201904020552 METAR KATL 020552Z 09010KT 10SM BKN060 BKN150 OVC200 10/M04 A3016 RMK AO2 SLP213 T01001039 10139 20100 58002=
201904020452 METAR KATL 020452Z 09008KT 10SM BKN060 BKN150 BKN200 11/M05 A3017 RMK AO2 SLP217 T01061050 401610033=
201904020352 METAR KATL 020352Z 11010KT 10SM FEW110 BKN150 BKN200 11/M05 A3017 RMK AO2 SLP217 T01111050=
201904020252 METAR KATL 020252Z 09007KT 10SM BKN150 BKN200 11/M03 A3016 RMK AO2 SLP216 T01111033 53011=
201904020152 METAR KATL 020152Z 09009KT 10SM FEW150 SCT250 12/M04 A3015 RMK AO2 SLP210 T01171039=
201904020052 METAR KATL 020052Z 10007KT 10SM FEW200 13/M05 A3015 RMK AO2 SLP211 T01281050=
201904012352 METAR KATL 012352Z 10007KT 10SM FEW200 14/M06 A3013 RMK AO2 SLP206 T01391056 10161 20139 56007=
201904012252 METAR KATL 012252Z 12007KT 10SM FEW200 15/M06 A3013 RMK AO2 SLP206 T01501056=
201904012152 METAR KATL 012152Z 13008KT 10SM SCT250 16/M06 A3014 RMK AO2 SLP209 T01561056=
201904012052 METAR KATL 012052Z 13007KT 10SM FEW250 16/M05 A3015 RMK AO2 SLP211 T01611050 56020=
201904011952 METAR KATL 011952Z VRB04KT 10SM FEW250 16/M06 A3016 RMK AO2 SLP215 T01561061=
201904011852 METAR KATL 011852Z 09012KT 10SM FEW250 16/M06 A3019 RMK AO2 SLP224 T01561056=
201904011752 METAR KATL 011752Z 10007G18KT 070V130 10SM FEW250 13/M06 A3021 RMK AO2 SLP233 T01331056 10139 20033 58018=
201904011652 METAR KATL 011652Z VRB06G17KT 10SM FEW250 12/M06 A3025 RMK AO2 SLP244 T01171056=
201904011552 METAR KATL 011552Z 09010KT 10SM FEW250 11/M06 A3027 RMK AO2 SLP254 T01061056=
201904011452 METAR KATL 011452Z 07013KT 10SM FEW250 09/M05 A3027 RMK AO2 SLP253 T00891050 51014=
201904011352 METAR KATL 011352Z 08015G19KT 10SM BKN250 07/M05 A3026 RMK AO2 SLP251 T00671050=
201904011252 METAR KATL 011252Z 05006KT 10SM FEW200 BKN250 05/M05 A3024 RMK AO2 SLP245 T00501050=
