##########################################################
# Query made at 04/20/2024 00:04:54 UTC
# Time interval: from 05/01/2019 12:00  to 05/31/2019 12:59  UTC
##########################################################

##########################################################
# KATL, Atlanta, Hartsfield - Jackson Atlanta International Airport (United States)
# WMO index: 72219. WIGOS ID: 0-20000-0-72219
# Latitude 33-38-59N. Longitude 084-25-00W. Altitude 312 m.
##########################################################

201905311252 METAR KATL 311252Z 29008KT 10SM FEW080 SCT200 BKN250 26/19 A2996 RMK AO2 SLP136 T02560189=
201905311152 METAR KATL 311152Z 27006KT 10SM FEW070 FEW085 BKN200 BKN250 23/18 A2996 RMK AO2 SLP133 T02330178 10244 20217 51013=
201905311052 METAR KATL 311052Z 27006KT 10SM SCT075 BKN200 BKN250 23/17 A2995 RMK AO2 SLP130 ACC N-NE T02280172=
201905310952 METAR KATL 310952Z 24004KT 10SM SCT085 BKN200 BKN250 22/17 A2994 RMK AO2 SLP126 T02220172=
201905310852 METAR KATL 310852Z 23004KT 10SM SCT090 BKN200 BKN250 22/17 A2992 RMK AO2 SLP120 T02220172 53001=
201905310752 METAR KATL 310752Z 22004KT 10SM BKN200 BKN250 23/17 A2990 RMK AO2 SLP113 T02280167=
201905310652 METAR KATL 310652Z 25003KT 10SM FEW095 SCT200 BKN250 24/16 A2991 RMK AO2 SLP115 T02390161=
201905310552 METAR KATL 310552Z 22003KT 10SM FEW100 BKN200 BKN250 24/16 A2992 RMK AO2 SLP118 T02390161 10300 20239 58002=
201905310452 METAR KATL 310452Z 26006KT 10SM FEW200 SCT250 26/16 A2992 RMK AO2 SLP118 T02560156 403280233=
201905310352 METAR KATL 310352Z 26005KT 10SM FEW200 26/17 A2993 RMK AO2 SLP122 T02610172=
201905310252 METAR KATL 310252Z 25005KT 10SM FEW200 27/18 A2992 RMK AO2 SLP120 T02670183 53009=
201905310152 METAR KATL 310152Z 23004KT 10SM FEW250 27/18 A2991 RMK AO2 SLP115 T02720183=
201905310052 METAR KATL 310052Z 24007KT 10SM FEW250 29/18 A2990 RMK AO2 SLP112 T02890178=
201905302352 METAR KATL 302352Z 23009KT 10SM FEW060 SCT250 30/18 A2989 RMK AO2 SLP112 MDT CU S T03000178 10328 20300 56004=
201905302252 METAR KATL 302252Z 22009G17KT 10SM SCT060 BKN250 31/18 A2989 RMK AO2 SLP112 TCU DSNT NW-N T03060178=
201905302152 METAR KATL 302152Z 24011G18KT 10SM SCT060 SCT250 32/17 A2990 RMK AO2 SLP111 MDT CU OHD-NE NW T03170172=
201905302052 METAR KATL 302052Z 26010G20KT 10SM FEW060 SCT150 SCT250 32/17 A2991 RMK AO2 SLP115 T03220172 57013=
201905301952 METAR KATL 301952Z 27009G22KT 10SM FEW070 FEW150 SCT250 32/16 A2992 RMK AO2 SLP120 T03220161=
201905301852 METAR KATL 301852Z 23009G18KT 10SM FEW080 SCT150 SCT250 33/12 A2993 RMK AO2 SLP123 T03280122=
201905301752 METAR KATL 301752Z 23009G19KT 10SM FEW080 SCT150 BKN250 32/12 A2995 RMK AO2 SLP129 T03170117 10322 20244 58008=
201905301652 METAR KATL 301652Z 22013G23KT 10SM FEW080 FEW150 FEW250 31/12 A2996 RMK AO2 SLP135 T03110117=
201905301552 METAR KATL 301552Z 21013G18KT 10SM FEW070 FEW150 SCT250 31/14 A2997 RMK AO2 SLP136 T03060139=
201905301452 METAR KATL 301452Z 22009KT 10SM FEW050 FEW250 29/18 A2997 RMK AO2 SLP137 T02890178 58002=
201905301352 METAR KATL 301352Z 27011KT 10SM FEW250 28/19 A2998 RMK AO2 SLP138 T02830189=
201905301252 METAR KATL 301252Z 26011KT 10SM FEW070 FEW200 SCT250 26/18 A2998 RMK AO2 SLP141 T02610183=
201905301152 METAR KATL 301152Z 27006KT 10SM FEW070 SCT200 SCT250 24/18 A2998 RMK AO2 SLP139 ACC E W-NW T02440178 10261 20233 53009=
201905301052 METAR KATL 301052Z 26005KT 10SM FEW060 FEW075 SCT200 SCT250 24/18 A2997 RMK AO2 SLP135 T02390178=
201905300952 METAR KATL 300952Z 24005KT 10SM FEW055 SCT075 SCT200 SCT250 24/18 A2995 RMK AO2 SLP130 ACC NE T02390183=
201905300852 METAR KATL 300852Z 22004KT 10SM SCT070 SCT200 BKN250 24/18 A2995 RMK AO2 SLP130 ACC NE-OHD-SW T02390183 53005=
201905300752 METAR KATL 300752Z 27003KT 10SM FEW070 SCT200 BKN250 25/18 A2994 RMK AO2 SLP124 T02500183=
201905300652 METAR KATL 300652Z 27004KT 10SM BKN070 BKN200 BKN250 26/18 A2993 RMK AO2 SLP123 ACC NE-SE-SW T02560178=
201905300552 METAR KATL 300552Z 00000KT 10SM FEW070 SCT200 SCT250 26/18 A2994 RMK AO2 SLP124 ACC E-S T02610178 10306 20261 58003=
201905300452 METAR KATL 300452Z 27003KT 10SM FEW070 BKN250 27/18 A2995 RMK AO2 SLP128 T02670178 403440228=
201905300352 METAR KATL 300352Z 00000KT 10SM SCT250 27/18 A2995 RMK AO2 SLP129 T02720178=
201905300252 METAR KATL 300252Z 23003KT 10SM FEW250 28/17 A2994 RMK AO2 SLP127 T02830172 53011=
201905300152 METAR KATL 300152Z 26005KT 10SM FEW250 28/17 A2993 RMK AO2 SLP124 T02830172=
201905300052 METAR KATL 300052Z 27005KT 10SM FEW250 29/18 A2992 RMK AO2 SLP118 T02890178=
201905292352 METAR KATL 292352Z 28008KT 10SM FEW075 31/17 A2991 RMK AO2 SLP117 T03060172 10344 20306 55002=
201905292252 METAR KATL 292252Z 22009KT 10SM FEW075 32/16 A2991 RMK AO2 SLP116 T03220161=
201905292152 METAR KATL 292152Z 21010KT 10SM FEW075 33/16 A2991 RMK AO2 SLP116 T03330156=
201905292052 METAR KATL 292052Z 25009KT 10SM FEW075 34/15 A2992 RMK AO2 SLP119 T03390150 56016=
201905291952 METAR KATL 291952Z 29008KT 10SM FEW075 34/16 A2993 RMK AO2 SLP122 T03440156=
201905291852 METAR KATL 291852Z 27011G18KT 10SM FEW075 34/16 A2994 RMK AO2 SLP125 T03390156=
201905291752 METAR KATL 291752Z 28010G16KT 10SM FEW070 FEW150 33/16 A2997 RMK AO2 SLP135 T03330156 10333 20250 58012=
201905291652 METAR KATL 291652Z 25008KT 10SM FEW150 33/16 A2999 RMK AO2 SLP144 ACSL DSNT NE-SE T03280156=
201905291552 METAR KATL 291552Z 30009KT 10SM FEW250 32/14 A3001 RMK AO2 SLP148 T03170144=
201905291452 METAR KATL 291452Z 23005KT 10SM FEW250 31/17 A3000 RMK AO2 SLP147 T03060172 51005=
201905291352 METAR KATL 291352Z 26009KT 10SM FEW250 29/19 A3000 RMK AO2 SLP147 T02890189=
201905291252 METAR KATL 291252Z 27006KT 10SM FEW250 27/19 A3000 RMK AO2 SLP145 T02670189=
201905291152 METAR KATL 291152Z 29005KT 5SM HZ CLR 25/18 A2999 RMK AO2 SLP142 T02500178 10250 20228 53012=
201905291052 METAR KATL 291052Z 25003KT 10SM FEW180 FEW250 23/17 A2996 RMK AO2 SLP133 T02280172=
201905290952 METAR KATL 290952Z 00000KT 10SM FEW200 SCT250 24/17 A2995 RMK AO2 SLP130 T02390172=
201905290852 METAR KATL 290852Z 25003KT 10SM FEW250 23/17 A2995 RMK AO2 SLP130 T02330172 57001=
201905290752 METAR KATL 290752Z 27003KT 10SM FEW250 24/17 A2995 RMK AO2 SLP129 T02390172=
201905290652 METAR KATL 290652Z 00000KT 10SM SCT250 24/17 A2995 RMK AO2 SLP131 T02440167=
201905290552 METAR KATL 290552Z 23004KT 10SM FEW250 24/16 A2995 RMK AO2 SLP131 T02440161 10311 20244 50001=
201905290452 METAR KATL 290452Z 22005KT 10SM CLR 25/16 A2996 RMK AO2 SLP131 T02500161 403440239=
201905290352 METAR KATL 290352Z 22005KT 10SM CLR 26/16 A2996 RMK AO2 SLP133 T02610156=
201905290252 METAR KATL 290252Z 23005KT 10SM CLR 27/16 A2995 RMK AO2 SLP130 T02720156 53011=
201905290152 METAR KATL 290152Z 24005KT 10SM CLR 28/14 A2994 RMK AO2 SLP126 T02780144=
201905290052 METAR KATL 290052Z 23007KT 10SM CLR 29/14 A2993 RMK AO2 SLP122 T02940139=
201905282352 METAR KATL 282352Z 23007KT 10SM CLR 31/14 A2992 RMK AO2 SLP119 T03110139 10344 20311 56007=
201905282252 METAR KATL 282252Z 24010KT 10SM CLR 32/14 A2992 RMK AO2 SLP120 T03220139=
201905282152 METAR KATL 282152Z 24008G16KT 10SM FEW085 FEW250 33/12 A2993 RMK AO2 SLP123 T03330122=
201905282052 METAR KATL 282052Z 24010G18KT 10SM FEW090 FEW250 33/12 A2994 RMK AO2 SLP126 T03330122 58015=
201905281952 METAR KATL 281952Z 28010KT 10SM FEW085 FEW250 34/13 A2995 RMK AO2 SLP130 T03440128=
201905281852 METAR KATL 281852Z 24007KT 190V290 10SM FEW080 FEW250 33/13 A2997 RMK AO2 SLP136 T03330128=
201905281752 METAR KATL 281752Z 25008KT 10SM FEW075 FEW250 33/14 A2998 RMK AO2 SLP140 T03330139 10333 20256 58012=
201905281652 METAR KATL 281652Z 22009KT 10SM FEW070 FEW250 32/14 A3000 RMK AO2 SLP146 T03170144=
201905281552 METAR KATL 281552Z 26008G17KT 10SM FEW060 FEW250 31/16 A3001 RMK AO2 SLP150 T03110156=
201905281452 METAR KATL 281452Z 25009KT 10SM FEW040 FEW250 29/19 A3002 RMK AO2 SLP154 T02940194 50000=
201905281352 METAR KATL 281352Z 28005KT 10SM FEW250 28/20 A3003 RMK AO2 SLP158 T02830200=
201905281252 METAR KATL 281252Z 28008KT 10SM FEW200 FEW250 27/19 A3004 RMK AO2 SLP159 T02670194=
201905281152 METAR KATL 281152Z 27007KT 10SM FEW180 SCT250 26/19 A3002 RMK AO2 SLP153 T02560194 10261 20239 53012=
201905281052 METAR KATL 281052Z 25004KT 10SM FEW180 SCT250 24/19 A3000 RMK AO2 SLP147 T02390194=
201905280952 METAR KATL 280952Z 25005KT 10SM FEW150 FEW200 SCT250 24/19 A2999 RMK AO2 SLP144 T02440189=
201905280852 METAR KATL 280852Z 00000KT 10SM FEW200 BKN250 24/19 A2998 RMK AO2 SLP141 T02440194 55000=
201905280752 METAR KATL 280752Z 21004KT 10SM FEW200 BKN250 24/19 A2998 RMK AO2 SLP138 T02440194=
201905280652 METAR KATL 280652Z 23004KT 10SM SCT200 BKN250 26/19 A2998 RMK AO2 SLP139 T02560194=
201905280552 METAR KATL 280552Z 23005KT 10SM SCT200 BKN250 26/20 A2998 RMK AO2 SLP140 T02610200 10306 20261 58008=
201905280452 METAR KATL 280452Z 23007KT 10SM SCT180 BKN250 27/20 A2999 RMK AO2 SLP142 T02670200 403440228=
201905280352 METAR KATL 280352Z 23006KT 10SM FEW200 BKN250 28/20 A3000 RMK AO2 SLP146 T02780200=
201905280252 METAR KATL 280252Z 25007KT 10SM FEW060 SCT200 BKN250 28/20 A3001 RMK AO2 SLP148 T02830200 53003=
201905280152 METAR KATL 280152Z 24007KT 10SM FEW060 SCT090 BKN250 29/20 A3000 RMK AO2 SLP146 T02890200=
201905280052 METAR KATL 280052Z 24005KT 10SM FEW065 SCT200 BKN250 29/19 A2999 RMK AO2 SLP145 T02940189=
201905272352 METAR KATL 272352Z 26006KT 10SM FEW065 SCT200 BKN250 31/19 A3000 RMK AO2 SLP146 T03060189 10344 20306 55006=
201905272252 METAR KATL 272252Z 27008KT 10SM FEW065 BKN200 OVC250 32/18 A3000 RMK AO2 SLP146 T03170178=
201905272152 METAR KATL 272152Z 27009KT 10SM FEW070 BKN200 BKN250 33/18 A3000 RMK AO2 SLP148 T03280178=
201905272052 METAR KATL 272052Z 26012G17KT 10SM FEW070 BKN200 BKN250 BKN300 33/17 A3002 RMK AO2 SLP152 T03330167 56018=
201905271952 METAR KATL 271952Z 29011KT 10SM FEW070 BKN200 BKN250 BKN300 34/17 A3003 RMK AO2 SLP156 T03440167=
201905271852 METAR KATL 271852Z 29009G15KT 10SM FEW070 SCT200 BKN250 BKN300 34/17 A3005 RMK AO2 SLP162 T03390167=
201905271752 METAR KATL 271752Z 31011G15KT 10SM FEW065 SCT200 SCT250 SCT300 33/16 A3007 RMK AO2 SLP170 T03330161 10339 20250 58013=
201905271652 METAR KATL 271652Z 31008KT 10SM FEW065 SCT200 SCT250 BKN300 33/17 A3010 RMK AO2 SLP178 T03330172=
201905271552 METAR KATL 271552Z 31007KT 10SM FEW060 SCT200 SCT250 BKN300 32/16 A3011 RMK AO2 SLP183 T03170161=
201905271452 METAR KATL 271452Z 31008KT 10SM SCT200 BKN250 BKN300 31/17 A3011 RMK AO2 SLP183 T03060172 50002=
201905271352 METAR KATL 271352Z 33008KT 10SM SCT200 BKN250 29/18 A3012 RMK AO2 SLP187 T02890183=
201905271252 METAR KATL 271252Z 32007KT 10SM BKN250 27/18 A3011 RMK AO2 SLP185 T02670178=
201905271152 METAR KATL 271152Z 29004KT 10SM BKN250 25/18 A3010 RMK AO2 SLP181 T02500183 10267 20228 53012=
201905271052 METAR KATL 271052Z 30005KT 10SM BKN250 23/18 A3008 RMK AO2 SLP176 T02280178=
201905270952 METAR KATL 270952Z 31004KT 10SM SCT250 23/17 A3007 RMK AO2 SLP170 T02330172=
201905270852 METAR KATL 270852Z 29004KT 10SM FEW250 24/17 A3007 RMK AO2 SLP169 T02390167 56009=
201905270752 METAR KATL 270752Z 28003KT 10SM FEW250 25/17 A3007 RMK AO2 SLP170 T02500167=
201905270652 METAR KATL 270652Z 27004KT 10SM FEW250 25/17 A3008 RMK AO2 SLP173 T02500167=
201905270552 METAR KATL 270552Z 30005KT 10SM CLR 26/17 A3009 RMK AO2 SLP178 T02610172 10317 20256 58001=
201905270452 METAR KATL 270452Z 30003KT 10SM CLR 27/17 A3010 RMK AO2 SLP180 T02670172 403500233=
201905270352 METAR KATL 270352Z 32005KT 10SM CLR 27/17 A3010 RMK AO2 SLP179 T02720172=
201905270252 METAR KATL 270252Z 31005KT 10SM CLR 28/17 A3010 RMK AO2 SLP179 T02830172 53000=
201905270152 METAR KATL 270152Z 29006KT 10SM FEW250 29/17 A3010 RMK AO2 SLP179 T02890172=
201905270052 METAR KATL 270052Z 27005KT 10SM FEW250 30/17 A3010 RMK AO2 SLP179 T03000167=
201905262352 METAR KATL 262352Z 27006KT 10SM FEW065 FEW250 32/16 A3010 RMK AO2 SLP180 T03170161 10350 20317 56007=
201905262252 METAR KATL 262252Z 29009KT 10SM FEW070 SCT250 33/15 A3010 RMK AO2 SLP180 T03330150=
201905262152 METAR KATL 262152Z 28008KT 10SM FEW075 SCT250 34/14 A3011 RMK AO2 SLP183 T03390139=
201905262052 METAR KATL 262052Z 24006KT 10SM FEW070 FEW250 34/17 A3012 RMK AO2 SLP188 T03390167 56017=
201905261952 METAR KATL 261952Z 30009KT 10SM FEW070 34/16 A3014 RMK AO2 SLP192 T03390156=
201905261852 METAR KATL 261852Z 30012KT 10SM FEW070 34/16 A3015 RMK AO2 SLP198 T03440161=
201905261752 METAR KATL 261752Z 30009G17KT 10SM FEW065 33/17 A3017 RMK AO2 SLP204 T03330172 10339 20261 58008=
201905261652 METAR KATL 261652Z 26008G18KT 10SM FEW060 33/17 A3018 RMK AO2 SLP208 T03280172=
201905261552 METAR KATL 261552Z 24006KT 10SM FEW055 FEW250 32/19 A3019 RMK AO2 SLP211 T03170189=
201905261452 METAR KATL 261452Z 29007KT 10SM FEW250 31/18 A3020 RMK AO2 SLP213 T03110183 50004=
201905261352 METAR KATL 261352Z 29007KT 10SM FEW250 30/19 A3020 RMK AO2 SLP215 T03000189=
201905261252 METAR KATL 261252Z 31006KT 10SM FEW250 27/18 A3020 RMK AO2 SLP215 T02720183=
201905261152 METAR KATL 261152Z 29004KT 10SM FEW250 26/19 A3019 RMK AO2 SLP210 T02610189 10267 20233 53015=
201905261052 METAR KATL 261052Z 31004KT 10SM FEW250 24/18 A3017 RMK AO2 SLP205 T02390183=
201905260952 METAR KATL 260952Z 27003KT 10SM CLR 23/18 A3015 RMK AO2 SLP199 T02330183=
201905260852 METAR KATL 260852Z 27003KT 10SM CLR 24/18 A3014 RMK AO2 SLP195 T02390183 55002=
201905260752 METAR KATL 260752Z 32005KT 10SM CLR 24/18 A3014 RMK AO2 SLP194 T02440183=
201905260652 METAR KATL 260652Z 31006KT 10SM CLR 26/19 A3014 RMK AO2 SLP192 T02560189=
201905260552 METAR KATL 260552Z 30005KT 10SM CLR 26/18 A3015 RMK AO2 SLP196 T02610183 10311 20261 55002=
201905260452 METAR KATL 260452Z 30004KT 10SM CLR 26/18 A3015 RMK AO2 SLP196 T02610183 403440233=
201905260352 METAR KATL 260352Z 28005KT 10SM CLR 28/18 A3015 RMK AO2 SLP197 T02780183=
201905260252 METAR KATL 260252Z 27003KT 10SM FEW050 FEW250 28/18 A3016 RMK AO2 SLP199 T02830178 53006=
201905260152 METAR KATL 260152Z 00000KT 10SM FEW250 29/18 A3015 RMK AO2 SLP196 T02890183=
201905260052 METAR KATL 260052Z 28005KT 10SM FEW055 SCT250 30/18 A3014 RMK AO2 SLP194 T03000178=
201905252352 METAR KATL 252352Z 27007KT 10SM FEW060 FEW300 31/17 A3014 RMK AO2 SLP193 T03110172 10344 20311 55002=
201905252252 METAR KATL 252252Z 28006KT 10SM FEW060 33/18 A3014 RMK AO2 SLP193 T03280178=
201905252152 METAR KATL 252152Z 30007KT 10SM FEW060 33/18 A3014 RMK AO2 SLP194 T03330178=
201905252052 METAR KATL 252052Z 29006KT 10SM SCT060 34/17 A3014 RMK AO2 SLP195 T03390172 56014=
201905251952 METAR KATL 251952Z 28006KT 10SM SCT060 33/19 A3015 RMK AO2 SLP199 T03330189=
201905251852 METAR KATL 251852Z 28007KT 10SM SCT055 33/18 A3017 RMK AO2 SLP203 T03330183=
201905251752 METAR KATL 251752Z 30008KT 10SM SCT050 33/19 A3018 RMK AO2 SLP208 T03280189 10333 20250 58009=
201905251652 METAR KATL 251652Z 32010KT 10SM SCT050 33/19 A3020 RMK AO2 SLP215 T03280189=
201905251552 METAR KATL 251552Z 31007KT 10SM FEW050 31/19 A3021 RMK AO2 SLP216 T03110189=
201905251452 METAR KATL 251452Z 30008KT 10SM CLR 30/19 A3021 RMK AO2 SLP217 T03000194 51008=
201905251352 METAR KATL 251352Z 33007KT 10SM CLR 29/19 A3021 RMK AO2 SLP217 T02890194=
201905251252 METAR KATL 251252Z 32008KT 10SM CLR 27/19 A3019 RMK AO2 SLP213 T02720194=
201905251152 METAR KATL 251152Z 32007KT 10SM CLR 25/19 A3018 RMK AO2 SLP210 T02500194 10261 20233 51017=
201905251052 METAR KATL 251052Z 30003KT 10SM CLR 23/19 A3018 RMK AO2 SLP206 T02330194 $=
201905250952 METAR KATL 250952Z 31006KT 10SM CLR 23/19 A3015 RMK AO2 SLP199 T02330189 $=
201905250852 METAR KATL 250852Z 30005KT 10SM CLR 24/19 A3013 RMK AO2 SLP192 T02390194 53004=
201905250752 METAR KATL 250752Z 29003KT 10SM CLR 24/19 A3011 RMK AO2 SLP185 T02440189=
201905250652 METAR KATL 250652Z 28004KT 10SM CLR 26/19 A3011 RMK AO2 SLP184 T02560189=
201905250552 METAR KATL 250552Z 28004KT 10SM CLR 26/19 A3012 RMK AO2 SLP186 T02610189 10311 20256 58004=
201905250452 METAR KATL 250452Z 00000KT 10SM CLR 26/19 A3012 RMK AO2 SLP188 T02610189 403440217=
201905250352 METAR KATL 250352Z 25003KT 10SM CLR 28/18 A3013 RMK AO2 SLP190 T02780183=
201905250252 METAR KATL 250252Z 24003KT 10SM CLR 28/18 A3013 RMK AO2 SLP192 T02830183 53002=
201905250152 METAR KATL 250152Z 24003KT 10SM CLR 29/18 A3013 RMK AO2 SLP190 T02890178=
201905250052 METAR KATL 250052Z 27005KT 10SM FEW055 29/18 A3013 RMK AO2 SLP192 T02940178=
201905242352 METAR KATL 242352Z 27007KT 10SM FEW060 31/17 A3013 RMK AO2 SLP191 T03110172 10344 20311 56004=
201905242252 METAR KATL 242252Z 28006KT 10SM FEW065 32/18 A3013 RMK AO2 SLP192 T03220178=
201905242152 METAR KATL 242152Z 28010KT 10SM FEW065 33/17 A3013 RMK AO2 SLP192 T03330167=
201905242052 METAR KATL 242052Z VRB04KT 10SM FEW070 33/17 A3014 RMK AO2 SLP194 MDT CU DSNT N-NE T03330172 58017=
201905241952 METAR KATL 241952Z 23006KT 10SM FEW065 32/16 A3016 RMK AO2 SLP201 MDT CU DSNT SW-NW-N T03220156=
201905241852 METAR KATL 241852Z 10SM SCT060TCU 34/18 A3017 RMK AO2 SLP205 TCU SE W NW MDT CU ALQDS T03390178=
201905241752 METAR KATL 241752Z 32010KT 10SM SCT055TCU 33/19 A3019 RMK AO2 SLP211 TCU W MDT CU ALQDS T03280194 10328 20228 58010=
201905241652 METAR KATL 241652Z 32007KT 290V350 10SM SCT050 31/18 A3021 RMK AO2 SLP218 MDT CU ALQDS T03110178=
201905241552 METAR KATL 241552Z 28008KT 10SM FEW050 31/18 A3022 RMK AO2 SLP221 T03110183=
201905241452 METAR KATL 241452Z 26007KT 10SM FEW100 29/19 A3022 RMK AO2 SLP222 T02940194 51008=
201905241352 METAR KATL 241352Z 24006KT 10SM FEW100 27/19 A3022 RMK AO2 SLP222 T02720194=
201905241252 METAR KATL 241252Z 23005KT 10SM FEW095 24/19 A3021 RMK AO2 SLP219 T02440189=
201905241152 METAR KATL 241152Z 22007KT 10SM FEW090 23/18 A3020 RMK AO2 SLP215 T02280183 10250 20217 53014=
201905241052 METAR KATL 241052Z 22005KT 10SM FEW020 FEW090 FEW250 22/18 A3018 RMK AO2 SLP209 FU FEW020 T02170178=
201905240952 METAR KATL 240952Z 21005KT 10SM FEW090 FEW250 23/18 A3016 RMK AO2 SLP203 T02280178=
201905240852 METAR KATL 240852Z 00000KT 10SM FEW085 23/18 A3016 RMK AO2 SLP201 T02280183 55005=
201905240752 METAR KATL 240752Z 00000KT 10SM FEW090 24/18 A3015 RMK AO2 SLP199 T02440178 $=
201905240652 METAR KATL 240652Z 24003KT 10SM FEW100 24/18 A3016 RMK AO2 SLP202 T02440178 $=
201905240552 METAR KATL 240552Z 00000KT 10SM FEW100 FEW250 25/18 A3017 RMK AO2 SLP205 T02500183 10300 20250 58002 $=
201905240452 METAR KATL 240452Z 22003KT 10SM FEW100 SCT250 26/18 A3018 RMK AO2 SLP207 T02560183 403280222 $=
201905240352 METAR KATL 240352Z 20003KT 10SM FEW250 26/19 A3018 RMK AO2 SLP208 T02610189 $=
201905240252 METAR KATL 240252Z 22003KT 10SM FEW250 27/19 A3018 RMK AO2 SLP208 T02670189 53005 $=
201905240152 METAR KATL 240152Z 20004KT 10SM FEW050 SCT250 28/19 A3017 RMK AO2 SLP204 T02830189 $=
201905240052 METAR KATL 240052Z 19005KT 10SM FEW050TCU SCT070 SCT250 29/19 A3016 RMK AO2 SLP203 TCU NW-N T02940189 $=
201905232352 METAR KATL 232352Z 22006KT 10SM SCT050TCU SCT250 30/19 A3016 RMK AO2 SLP202 TCU OHD-N T03000189 10328 20300 56010 $=
201905232252 METAR KATL 232252Z 21006KT 10SM FEW050TCU SCT250 31/18 A3016 RMK AO2 SLP203 TCU OHD T03110183 $=
201905232152 METAR KATL 232152Z 24005KT 10SM SCT050TCU BKN070 BKN250 31/19 A3018 RMK AO2 SLP209 TCU OHD-N T03110189 $=
201905232052 METAR KATL 232052Z 00000KT 10SM BKN050TCU BKN250 31/19 A3019 RMK AO2 SLP213 TCU OHD ALQDS T03110189 56020 $=
201905231952 METAR KATL 231952Z 21007KT 10SM SCT050TCU SCT250 32/20 A3021 RMK AO2 SLP217 TCU OHD-N MDT CU ALQDS T03170200 $=
201905231852 METAR KATL 231852Z VRB04KT 10SM BKN050TCU BKN250 30/19 A3023 RMK AO2 SLP226 TCU OHD ALQDS T03000194 $=
201905231752 METAR KATL 231752Z 19007KT 160V220 10SM FEW040 SCT250 SCT300 31/20 A3025 RMK AO2 SLP233 T03060200 10306 20228 58010=
201905231652 METAR KATL 231652Z 23006KT 10SM FEW040 FEW250 SCT300 29/19 A3027 RMK AO2 SLP240 T02940194=
201905231552 METAR KATL 231552Z 17006KT 10SM SCT250 28/19 A3028 RMK AO2 SLP242 T02830189=
201905231452 METAR KATL 231452Z 19007KT 10SM FEW100 SCT250 SCT300 27/18 A3028 RMK AO2 SLP244 T02670178 51009=
201905231352 METAR KATL 231352Z 21007KT 10SM FEW100 FEW250 SCT300 26/18 A3028 RMK AO2 SLP243 ACC DSNT NW T02560178=
201905231252 METAR KATL 231252Z 18006KT 10SM FEW070 FEW100 SCT250 SCT300 24/18 A3027 RMK AO2 SLP240 T02390183=
201905231152 METAR KATL 231152Z 14005KT 9SM FEW065 FEW100 SCT250 23/18 A3026 RMK AO2 SLP235 ACC SE-S SW T02280178 10239 20222 51021=
201905231052 METAR KATL 231052Z 14003KT 10SM FEW070 SCT250 22/17 A3024 RMK AO2 SLP229 ACC N-E-SE T02220172=
201905230952 METAR KATL 230952Z 15004KT 10SM FEW075 SCT250 23/17 A3021 RMK AO2 SLP219 T02280172=
201905230852 METAR KATL 230852Z 16006KT 10SM FEW075 23/17 A3019 RMK AO2 SLP213 T02330172 53006=
201905230752 METAR KATL 230752Z 13006KT 10SM CLR 23/19 A3017 RMK AO2 SLP205 T02330194=
201905230652 METAR KATL 230652Z 12008KT 10SM FEW070 24/20 A3017 RMK AO2 SLP205 T02390200=
201905230552 METAR KATL 230552Z 09008KT 10SM FEW075 FEW100 24/20 A3018 RMK AO2 SLP206 T02390200 10306 20239 50001=
201905230452 METAR KATL 230452Z 09009KT 10SM FEW070 SCT100 25/20 A3018 RMK AO2 SLP209 T02500200 403280228=
201905230352 METAR KATL 230352Z 09007KT 10SM FEW070 26/20 A3018 RMK AO2 SLP208 T02560200=
201905230252 METAR KATL 230252Z 00000KT 10SM FEW070 28/17 A3017 RMK AO2 SLP205 T02780172 53017=
201905230152 METAR KATL 230152Z 29004KT 10SM FEW070 28/17 A3015 RMK AO2 SLP197 T02830167=
201905230052 METAR KATL 230052Z 24004KT 10SM FEW070 29/17 A3013 RMK AO2 SLP191 T02890167=
201905222352 METAR KATL 222352Z 22006KT 10SM FEW070 31/16 A3012 RMK AO2 SLP187 T03060161 10328 20306 53002=
201905222252 METAR KATL 222252Z 21006KT 10SM FEW070 FEW250 31/16 A3011 RMK AO2 SLP186 T03110161=
201905222152 METAR KATL 222152Z 18007KT 10SM FEW070 FEW250 32/16 A3011 RMK AO2 SLP183 T03220161=
201905222052 METAR KATL 222052Z 17008KT 10SM FEW070 FEW250 32/15 A3011 RMK AO2 SLP184 CB DSNT E MDT CU SW-NW T03220150 56003=
201905221952 METAR KATL 221952Z 20006KT 10SM SCT070 33/16 A3011 RMK AO2 SLP185 MDT CU N-NE-E T03280161=
201905221852 METAR KATL 221852Z 19008KT 160V220 10SM FEW070 32/16 A3012 RMK AO2 SLP186 T03220156=
201905221752 METAR KATL 221752Z 22007KT 140V280 10SM FEW065 32/16 A3012 RMK AO2 SLP187 T03170161 10317 20244 51003=
201905221652 METAR KATL 221652Z 20009G14KT 10SM FEW060 31/16 A3012 RMK AO2 SLP187 T03110161=
201905221552 METAR KATL 221552Z 22008KT 10SM FEW060 FEW250 30/16 A3011 RMK AO2 SLP186 T03000156=
201905221452 METAR KATL 221452Z 22006KT 10SM FEW060 29/15 A3011 RMK AO2 SLP184 T02890150 53007=
201905221352 METAR KATL 221352Z 23003KT 10SM FEW060 FEW090 28/13 A3010 RMK AO2 SLP180 T02830128=
201905221252 METAR KATL 221252Z 30003KT 10SM FEW065 SCT090 27/15 A3010 RMK AO2 SLP179 T02720150=
201905221152 METAR KATL 221152Z 00000KT 10SM FEW065 24/16 A3009 RMK AO2 SLP177 T02440161 10256 20228 53014=
201905221052 METAR KATL 221052Z 00000KT 10SM SCT065 SCT090 SCT250 23/16 A3007 RMK AO2 SLP171 T02330161=
201905220952 METAR KATL 220952Z 00000KT 10SM SCT060 SCT085 23/16 A3006 RMK AO2 SLP167 T02330161=
201905220852 METAR KATL 220852Z 00000KT 10SM FEW060 FEW085 23/17 A3004 RMK AO2 SLP163 T02330172 53012=
201905220752 METAR KATL 220752Z 21003KT 10SM FEW060 FEW085 24/18 A3002 RMK AO2 SLP153 T02390178=
201905220652 METAR KATL 220652Z 16003KT 10SM SCT060 SCT085 24/18 A3000 RMK AO2 SLP148 T02440178=
201905220552 METAR KATL 220552Z 00000KT 10SM BKN065 25/18 A3001 RMK AO2 SLP149 T02500178 10300 20250 51008=
201905220452 METAR KATL 220452Z 13003KT 10SM SCT065 26/18 A3000 RMK AO2 SLP148 T02560178 403170200=
201905220352 METAR KATL 220352Z 14004KT 10SM SCT065 26/18 A2999 RMK AO2 SLP144 T02610178=
201905220252 METAR KATL 220252Z 21003KT 10SM SCT060 BKN085 27/18 A2998 RMK AO2 SLP140 T02720178 53013=
201905220152 METAR KATL 220152Z 15003KT 10SM SCT065 28/17 A2996 RMK AO2 SLP136 T02780172=
201905220052 METAR KATL 220052Z 18003KT 10SM FEW065 28/17 A2995 RMK AO2 SLP132 T02830172=
201905212352 METAR KATL 212352Z 20004KT 10SM FEW065 30/16 A2994 RMK AO2 SLP128 T03000161 10317 20294 55002=
201905212252 METAR KATL 212252Z 21007KT 10SM FEW065 31/16 A2994 RMK AO2 SLP128 T03060161=
201905212152 METAR KATL 212152Z 25005KT 10SM SCT065 31/16 A2994 RMK AO2 SLP129 T03110156=
201905212052 METAR KATL 212052Z 20007KT 140V230 10SM SCT065 31/16 A2995 RMK AO2 SLP129 T03110161 56011=
201905211952 METAR KATL 211952Z 23005KT 10SM SCT065 31/17 A2996 RMK AO2 SLP133 T03110167=
201905211852 METAR KATL 211852Z 22010KT 10SM BKN065 31/16 A2996 RMK AO2 SLP135 T03060156=
201905211752 METAR KATL 211752Z 23010G14KT 10SM SCT060 31/17 A2998 RMK AO2 SLP141 T03110167 10311 20222 58010=
201905211652 METAR KATL 211652Z 00000KT 10SM FEW055 30/17 A2999 RMK AO2 SLP144 T03000167=
201905211552 METAR KATL 211552Z 17008KT 10SM FEW050 29/17 A3000 RMK AO2 SLP149 T02890167=
201905211452 METAR KATL 211452Z VRB06KT 10SM FEW050 FEW250 28/15 A3001 RMK AO2 SLP151 T02780150 51005=
201905211352 METAR KATL 211352Z 15003KT 10SM FEW250 27/17 A3001 RMK AO2 SLP151 T02670172=
201905211252 METAR KATL 211252Z 00000KT 10SM FEW250 24/17 A3000 RMK AO2 SLP149 T02440172=
201905211152 METAR KATL 211152Z 00000KT 10SM FEW250 22/17 A2999 RMK AO2 SLP146 T02220172 10228 20200 53010=
201905211052 METAR KATL 211052Z 00000KT 10SM FEW250 21/16 A2998 RMK AO2 SLP140 T02060161=
201905210952 METAR KATL 210952Z 00000KT 10SM FEW250 21/16 A2997 RMK AO2 SLP138 T02060161=
201905210852 METAR KATL 210852Z 00000KT 10SM FEW250 21/16 A2996 RMK AO2 SLP136 T02060161 55003=
201905210752 METAR KATL 210752Z 00000KT 10SM FEW250 21/17 A2996 RMK AO2 SLP133 T02110167=
201905210652 METAR KATL 210652Z 28004KT 10SM FEW250 21/16 A2997 RMK AO2 SLP137 T02110161=
201905210552 METAR KATL 210552Z 31005KT 10SM FEW250 23/16 A2997 RMK AO2 SLP138 T02280161 10283 20222 57007=
201905210452 METAR KATL 210452Z 28003KT 10SM FEW250 23/16 A2998 RMK AO2 SLP141 T02330161 403060217=
201905210352 METAR KATL 210352Z 00000KT 10SM CLR 24/16 A2999 RMK AO2 SLP145 T02390161=
201905210252 METAR KATL 210252Z 31004KT 10SM CLR 26/16 A2999 RMK AO2 SLP146 T02560156 53001=
201905210152 METAR KATL 210152Z 30005KT 10SM FEW055 26/16 A2999 RMK AO2 SLP145 T02560161=
201905210052 METAR KATL 210052Z 30006KT 10SM FEW055 27/15 A2999 RMK AO2 SLP145 T02720150=
201905202352 METAR KATL 202352Z 32007KT 10SM FEW055 28/15 A2999 RMK AO2 SLP145 T02830150 10306 20283 56005=
201905202252 METAR KATL 202252Z 28008KT 10SM SCT055 29/16 A2999 RMK AO2 SLP146 T02890156=
201905202152 METAR KATL 202152Z 28008KT 10SM SCT055 29/16 A3000 RMK AO2 SLP147 T02940156=
201905202052 METAR KATL 202052Z 28009KT 10SM FEW060 30/15 A3000 RMK AO2 SLP149 MDT CU DSNT SE T03000150 56017=
201905201952 METAR KATL 201952Z 30012KT 10SM SCT050 31/14 A3002 RMK AO2 SLP154 MDT CU NE-SE-SW T03060144=
201905201852 METAR KATL 201852Z 26008KT 10SM SCT045TCU 29/18 A3004 RMK AO2 SLP161 TCU NE SE-SW NW T02940183=
201905201752 METAR KATL 201752Z 27006KT 10SM SCT040TCU 29/18 A3006 RMK AO2 SLP166 TCU N E SE-SW T02940183 10294 20222 58008=
201905201652 METAR KATL 201652Z 30009KT 10SM SCT035TCU SCT055 28/18 A3007 RMK AO2 SLP172 TCU SE-S T02780178=
201905201552 METAR KATL 201552Z 28010KT 10SM SCT030 SCT050 27/18 A3008 RMK AO2 SLP175 T02670183=
201905201452 METAR KATL 201452Z 31012KT 10SM FEW030 SCT050 SCT160 26/18 A3008 RMK AO2 SLP176 T02560178 51007=
201905201352 METAR KATL 201352Z 30009KT 10SM FEW015 FEW090 SCT250 25/18 A3008 RMK AO2 SLP176 T02500178=
201905201252 METAR KATL 201252Z 28007KT 10SM FEW085 SCT110 23/17 A3007 RMK AO2 SLP174 ACC N & S T02280172=
201905201152 METAR KATL 201152Z 26004KT 10SM SCT080 SCT110 22/17 A3006 RMK AO2 SLP168 T02220172 10228 20217 53013=
201905201052 METAR KATL 201052Z 19003KT 10SM FEW055 SCT070 BKN100 22/17 A3004 RMK AO2 SLP161 T02170172=
201905200952 METAR KATL 200952Z 00000KT 10SM FEW055 BKN070 BKN085 22/17 A3003 RMK AO2 SLP158 T02170172=
201905200852 METAR KATL 200852Z 00000KT 10SM BKN055 BKN080 22/17 A3002 RMK AO2 SLP154 T02170172 50000=
201905200752 METAR KATL 200752Z 00000KT 10SM FEW055 BKN080 BKN140 BKN200 22/17 A3002 RMK AO2 SLP156 T02170172=
201905200652 METAR KATL 200652Z 21004KT 10SM SCT085 SCT140 BKN200 22/17 A3002 RMK AO2 SLP153 T02220167=
201905200552 METAR KATL 200552Z 24003KT 10SM SCT100 SCT140 BKN200 23/17 A3002 RMK AO2 SLP153 T02280167 10278 20222 55002=
201905200452 METAR KATL 200452Z 00000KT 10SM FEW140 SCT200 BKN250 23/17 A3002 RMK AO2 SLP153 T02330167 403060200=
201905200352 METAR KATL 200352Z 21003KT 10SM BKN200 BKN250 23/16 A3002 RMK AO2 SLP155 T02330161=
201905200252 METAR KATL 200252Z 23003KT 10SM SCT200 BKN250 24/16 A3002 RMK AO2 SLP155 T02440161 53009=
201905200152 METAR KATL 200152Z 23004KT 10SM SCT200 BKN250 26/16 A3001 RMK AO2 SLP152 T02560156=
201905200052 METAR KATL 200052Z 22004KT 10SM FEW070 SCT200 BKN250 26/16 A3000 RMK AO2 SLP150 T02610156=
201905192352 METAR KATL 192352Z 20007KT 10SM FEW070 SCT200 BKN250 28/15 A2999 RMK AO2 SLP148 T02780150 10306 20278 56004=
201905192252 METAR KATL 192252Z 22006KT 10SM FEW065 FEW080 BKN200 BKN250 29/14 A3000 RMK AO2 SLP149 T02890144=
201905192152 METAR KATL 192152Z 22009KT 10SM SCT065 BKN250 29/13 A3000 RMK AO2 SLP148 T02890133=
201905192052 METAR KATL 192052Z 20012KT 10SM SCT060 SCT250 31/15 A3001 RMK AO2 SLP150 MDT CU ALQDS T03060150 56012=
201905191952 METAR KATL 191952Z 23008KT 10SM SCT060 30/16 A3001 RMK AO2 SLP152 T03000156=
201905191852 METAR KATL 191852Z 20010KT 10SM FEW055 SCT250 30/16 A3002 RMK AO2 SLP155 T03000161=
201905191752 METAR KATL 191752Z 19010G16KT 10SM FEW055 SCT250 29/15 A3004 RMK AO2 SLP162 T02940150 10300 20206 58005=
201905191652 METAR KATL 191652Z 20010KT 10SM FEW055 BKN250 29/14 A3006 RMK AO2 SLP167 T02890139=
201905191552 METAR KATL 191552Z 21010G17KT 10SM FEW055 SCT250 28/13 A3007 RMK AO2 SLP170 T02830133=
201905191452 METAR KATL 191452Z 24009KT 10SM FEW250 28/15 A3006 RMK AO2 SLP167 T02780150 53004=
201905191352 METAR KATL 191352Z 22007KT 10SM FEW080 FEW200 26/15 A3005 RMK AO2 SLP163 T02560150=
201905191252 METAR KATL 191252Z 22003KT 10SM SCT080 24/16 A3005 RMK AO2 SLP166 T02440156=
201905191152 METAR KATL 191152Z 00000KT 10SM SCT080 SCT250 21/18 A3005 RMK AO2 SLP165 T02060178 10228 20200 53007=
201905191052 METAR KATL 191052Z 00000KT 10SM FEW080 FEW250 20/17 A3003 RMK AO2 SLP160 T02000172=
201905190952 METAR KATL 190952Z 00000KT 10SM FEW250 21/17 A3003 RMK AO2 SLP157 T02060172=
201905190852 METAR KATL 190852Z 16004KT 10SM FEW250 21/17 A3002 RMK AO2 SLP157 T02110172 53003=
201905190752 METAR KATL 190752Z 23003KT 10SM CLR 22/18 A3001 RMK AO2 SLP151 T02170178=
201905190652 METAR KATL 190652Z 19003KT 10SM CLR 22/18 A3001 RMK AO2 SLP150 T02220178=
201905190552 METAR KATL 190552Z 00000KT 10SM CLR 23/18 A3002 RMK AO2 SLP153 T02280178 10283 20228 58002=
201905190452 METAR KATL 190452Z 20003KT 10SM CLR 23/18 A3002 RMK AO2 SLP154 T02330178 403060189=
201905190352 METAR KATL 190352Z 00000KT 10SM FEW250 24/18 A3003 RMK AO2 SLP156 T02440178=
201905190252 METAR KATL 190252Z 00000KT 10SM FEW100 FEW250 25/18 A3002 RMK AO2 SLP155 T02500178 53012=
201905190152 METAR KATL 190152Z 00000KT 10SM FEW095 FEW250 26/17 A3001 RMK AO2 SLP150 T02610172=
201905190052 METAR KATL 190052Z 22004KT 10SM FEW050 FEW090 SCT250 27/17 A3000 RMK AO2 SLP147 T02720172=
201905182352 METAR KATL 182352Z 21004KT 10SM FEW050TCU FEW080 SCT250 28/17 A2999 RMK AO2 SLP144 TCU S SW DSNT SE T02830167 10306 20283 55003=
201905182252 METAR KATL 182252Z 21006KT 10SM FEW055 FEW080 SCT250 29/17 A2998 RMK AO2 SLP142 CB DSNT N SE T02940167=
201905182152 METAR KATL 182152Z 22008KT 10SM FEW050TCU FEW080 SCT250 29/17 A2999 RMK AO2 SLP145 CB DSNT N NE-SE TCU N SE T02940167=
201905182052 METAR KATL 182052Z 20005KT 10SM FEW050 30/17 A2999 RMK AO2 SLP146 MDT CU W-N T03000172 56018=
201905181952 METAR KATL 181952Z 25006KT 10SM SCT050 31/18 A3001 RMK AO2 SLP151 MDT CU SW-NW T03060183=
201905181852 METAR KATL 181852Z 17007KT 140V220 10SM SCT050 30/17 A3003 RMK AO2 SLP158 MDT CU ALQDS T03000172=
201905181752 METAR KATL 181752Z 24004KT 10SM SCT046 29/17 A3005 RMK AO2 SLP165 MDT CU ALQDS T02940167 10300 20206 58010=
201905181652 METAR KATL 181652Z VRB04KT 10SM SCT044 29/19 A3006 RMK AO2 SLP170 T02890189=
201905181552 METAR KATL 181552Z 23003KT 10SM FEW034 28/19 A3008 RMK AO2 SLP174 T02780189=
201905181452 METAR KATL 181452Z 28003KT 10SM CLR 27/19 A3008 RMK AO2 SLP175 T02720189 51008=
201905181352 METAR KATL 181352Z 00000KT 10SM CLR 26/19 A3007 RMK AO2 SLP175 T02560189=
201905181252 METAR KATL 181252Z 23004KT 10SM FEW250 24/18 A3006 RMK AO2 SLP170 T02390183=
201905181152 METAR KATL 181152Z 00000KT 10SM FEW250 21/18 A3005 RMK AO2 SLP169 T02060178 10211 20189 53013=
201905181052 METAR KATL 181052Z 00000KT 10SM CLR 19/17 A3004 RMK AO2 SLP164 T01940167=
201905180952 METAR KATL 180952Z 00000KT 10SM CLR 20/17 A3002 RMK AO2 SLP157 T02000172=
201905180852 METAR KATL 180852Z 00000KT 10SM CLR 20/17 A3001 RMK AO2 SLP155 T02000172 55001=
201905180752 METAR KATL 180752Z 29004KT 10SM FEW140 FEW250 20/17 A3001 RMK AO2 SLP152 T02000172=
201905180652 METAR KATL 180652Z 24003KT 10SM FEW140 FEW250 21/17 A3000 RMK AO2 SLP150 T02060167=
201905180552 METAR KATL 180552Z 32005KT 10SM FEW140 SCT250 21/17 A3002 RMK AO2 SLP154 T02110167 10239 20211 50001=
201905180452 METAR KATL 180452Z 30005KT 10SM FEW140 BKN250 22/16 A3003 RMK AO2 SLP158 T02170161 403110189=
201905180352 METAR KATL 180352Z 00000KT 10SM SCT140 BKN250 22/16 A3002 RMK AO2 SLP157 T02220161=
201905180252 METAR KATL 180252Z 24003KT 10SM BKN140 BKN250 22/16 A3001 RMK AO2 SLP155 T02220161 52009=
201905180152 METAR KATL 180152Z 28005KT 10SM SCT140 BKN200 BKN250 23/16 A3000 RMK AO2 SLP151 T02280156=
201905180052 METAR KATL 180052Z 28005KT 10SM FEW120 SCT200 BKN250 24/16 A3000 RMK AO2 SLP149 T02390156=
201905172352 METAR KATL 172352Z 26004KT 10SM SCT110 BKN200 BKN250 23/16 A2999 RMK AO2 SLP147 T02330156 10311 20233 58000=
201905172252 METAR KATL 172252Z 23008KT 10SM FEW040 SCT100 BKN150 BKN250 24/17 A3000 RMK AO2 SLP151 LTG DSNT SE-S CB DSNT N SE S T02440172=
201905172152 METAR KATL 172152Z 16006KT 10SM FEW045CB SCT100 BKN150 BKN250 27/17 A2998 RMK AO2 TSE22 SLP142 LTG DSNT SW CB S DSNT SW-W MOV STNRY TCU DSNT N SE T02670172=
201905172122 SPECI KATL 172122Z 12008KT 10SM FEW050TCU SCT100 BKN150 BKN250 27/17 A2998 RMK AO2 TSE22 LTG DSNT SW-W TS DSIPTD CB DSNT SW-W TCU SE T02670167=
201905172052 METAR KATL 172052Z 14008KT 10SM TS SCT050CB BKN150 BKN250 28/16 A2999 RMK AO2 LTG DSNT W TSB23 SLP145 OCNL LTGICCG E-SE TS E-SE MOV SE CB DSNT NE W SHRA E-SE T02780156 56009=
201905172023 SPECI KATL 172023Z 31011KT 10SM TS FEW040CB SCT050TCU BKN250 31/17 A2998 RMK AO2 LTG DSNT W TSB23 OCNL LTGICCG E DSNT W TS E DSNT W MOV E TCU S-SW CB E & DSNT W MOV E SHRA VC E T03060172=
201905172017 SPECI KATL 172017Z 28006KT 10SM VCTS FEW040CB SCT050TCU BKN250 31/18 A2998 RMK AO2 OCNL LTGICCG VC E TS VC E MOV E SHRA VC E T03060178=
201905171952 METAR KATL 171952Z 31007KT 10SM BKN055TCU BKN080 BKN250 31/17 A2999 RMK AO2 SLP145 TCU OHD-NE-SE SW-NW T03060167=
201905171852 METAR KATL 171852Z VRB04KT 10SM SCT055TCU SCT250 BKN300 30/17 A3000 RMK AO2 SLP150 TCU ALQDS T03000167=
201905171752 METAR KATL 171752Z 29006KT 10SM SCT050TCU SCT080 BKN250 29/17 A3001 RMK AO2 SLP153 TCU ALQDS T02890167 10306 20200 58014=
201905171652 METAR KATL 171652Z 17003KT 10SM FEW043 BKN250 29/17 A3003 RMK AO2 SLP159 T02890172=
201905171552 METAR KATL 171552Z 28005KT 10SM FEW040 FEW100 BKN250 28/18 A3005 RMK AO2 SLP167 T02780178=
201905171452 METAR KATL 171452Z 32009KT 10SM FEW050 FEW100 BKN250 27/18 A3005 RMK AO2 SLP167 CB DSNT S-SW T02670178 51009=
201905171352 METAR KATL 171352Z 28004KT 10SM FEW050 FEW070 SCT250 25/18 A3005 RMK AO2 SLP167 CB DSNT S-SW T02500178=
201905171252 METAR KATL 171252Z 29008KT 10SM FEW050 FEW070 SCT250 23/17 A3004 RMK AO2 SLP163 CB DSNT SW T02280167=
201905171152 METAR KATL 171152Z 28006KT 10SM FEW050 FEW070 SCT250 20/16 A3003 RMK AO2 SLP159 TCU DSNT SW T02000161 10206 20189 51017=
201905171052 METAR KATL 171052Z 28006KT 10SM FEW050 SCT250 BKN300 19/16 A3002 RMK AO2 SLP155 T01890161=
201905170952 METAR KATL 170952Z 29006KT 10SM SCT050 BKN300 19/16 A3000 RMK AO2 SLP149 T01940161=
201905170852 METAR KATL 170852Z 28005KT 10SM BKN300 19/17 A2998 RMK AO2 SLP141 T01940167 55002=
201905170752 METAR KATL 170752Z 22004KT 10SM SCT300 19/17 A2997 RMK AO2 SLP141 T01940172=
201905170652 METAR KATL 170652Z 24003KT 10SM FEW250 21/17 A2998 RMK AO2 SLP142 T02060172=
201905170552 METAR KATL 170552Z 23003KT 10SM FEW250 21/18 A2998 RMK AO2 SLP144 T02060178 10278 20206 58008=
201905170452 METAR KATL 170452Z 22004KT 10SM FEW250 21/18 A3000 RMK AO2 SLP148 T02110178 403000172=
201905170352 METAR KATL 170352Z 22005KT 10SM FEW250 22/18 A3000 RMK AO2 SLP150 T02220178=
201905170252 METAR KATL 170252Z 23007KT 10SM FEW250 23/18 A3001 RMK AO2 SLP152 T02280178 53019=
201905170152 METAR KATL 170152Z 22006KT 10SM FEW250 23/18 A2998 RMK AO2 SLP145 T02330178=
201905170052 METAR KATL 170052Z 21006KT 10SM FEW250 24/17 A2996 RMK AO2 SLP139 T02440172=
201905162352 METAR KATL 162352Z 29007KT 10SM FEW055 SCT250 28/14 A2995 RMK AO2 SLP134 T02780144 10300 20272 58008=
201905162252 METAR KATL 162252Z 30009KT 10SM FEW055 SCT250 28/14 A2996 RMK AO2 SLP136 T02830144=
201905162152 METAR KATL 162152Z 27009KT 10SM FEW055 SCT070 BKN250 29/15 A2997 RMK AO2 LTG DSNT S SLP140 CB DSNT SE-SW T02940150=
201905162052 METAR KATL 162052Z 25004KT 10SM FEW055TCU SCT250 BKN300 29/16 A2998 RMK AO2 SLP142 CB DSNT S TCU NE DSNT SW-NW T02940161 57014=
201905161952 METAR KATL 161952Z VRB04KT 10SM SCT050TCU SCT250 28/17 A2999 RMK AO2 SLP147 TCU N-NE SW-NW T02830172=
201905161852 METAR KATL 161852Z VRB04KT 10SM SCT050TCU SCT250 28/17 A3001 RMK AO2 SLP152 TCU NW-N MDT CU ALQDS T02830172=
201905161752 METAR KATL 161752Z 27007KT 10SM SCT040TCU 28/18 A3002 RMK AO2 SLP157 TCU OHD-NW MDT CU NE-SE T02780178 10278 20178 58019=
201905161652 METAR KATL 161652Z 36004KT 10SM FEW040 FEW250 27/17 A3004 RMK AO2 SLP163 T02670172=
201905161552 METAR KATL 161552Z 00000KT 10SM FEW030 25/17 A3007 RMK AO2 SLP174 T02500172=
201905161452 METAR KATL 161452Z 23008KT 10SM FEW030 FEW050 23/17 A3008 RMK AO2 SLP177 T02330167 50004=
201905161352 METAR KATL 161352Z 20005KT 10SM FEW050 22/15 A3008 RMK AO2 SLP180 MDT CU DSNT SE-SW T02170150=
201905161252 METAR KATL 161252Z 19003KT 10SM BKN035 BKN050 BKN085 BKN250 19/13 A3008 RMK AO2 SLP179 SHRA SE T01890133=
201905161152 METAR KATL 161152Z 21004KT 10SM BKN039 BKN049 BKN085 BKN250 18/12 A3006 RMK AO2 SLP174 MDT CU S T01780122 10200 20172 53011=
201905161052 METAR KATL 161052Z 21003KT 10SM BKN045 BKN250 18/12 A3005 RMK AO2 SLP169 T01830122=
201905160952 METAR KATL 160952Z 00000KT 10SM BKN042 BKN080 BKN250 18/13 A3003 RMK AO2 SLP163 T01830128=
201905160852 METAR KATL 160852Z 00000KT 10SM BKN046 BKN060 18/13 A3003 RMK AO2 SLP163 T01780128 55003=
201905160752 METAR KATL 160752Z 00000KT 10SM BKN050 BKN070 18/12 A3002 RMK AO2 SLP160 T01830122=
201905160652 METAR KATL 160652Z 00000KT 10SM SCT050 SCT075 20/12 A3003 RMK AO2 SLP162 T02000117=
201905160552 METAR KATL 160552Z 00000KT 10SM BKN060 BKN090 19/12 A3004 RMK AO2 SLP165 T01940117 10228 20194 58003=
201905160452 METAR KATL 160452Z 03004KT 10SM FEW055 SCT090 BKN250 20/11 A3005 RMK AO2 SLP169 T02000111 402500111=
201905160352 METAR KATL 160352Z 33006KT 10SM FEW060 SCT080 BKN250 20/11 A3006 RMK AO2 SLP172 T02000111=
201905160252 METAR KATL 160252Z 32005KT 10SM BKN060 BKN080 21/11 A3005 RMK AO2 SLP169 T02060111 53013=
201905160152 METAR KATL 160152Z 29004KT 10SM SCT065 BKN085 21/11 A3003 RMK AO2 SLP163 T02060106=
201905160052 METAR KATL 160052Z 30004KT 10SM BKN080 BKN150 BKN250 22/09 A3002 RMK AO2 SLP161 T02170094=
201905152352 METAR KATL 152352Z 31006KT 10SM FEW150 BKN250 23/10 A3001 RMK AO2 SLP156 T02280100 10250 20222 55006=
201905152252 METAR KATL 152252Z 31005KT 10SM FEW100 BKN250 24/09 A3000 RMK AO2 SLP155 T02390094=
201905152152 METAR KATL 152152Z 28004KT 10SM FEW060 SCT150 BKN250 23/10 A2999 RMK AO2 SLP152 VIRGA DSNT NE-E T02330100=
201905152052 METAR KATL 152052Z 33003KT 10SM FEW060 SCT150 BKN250 23/08 A3003 RMK AO2 SLP164 VIRGA DSNT NW-N T02330083 58009=
201905151952 METAR KATL 151952Z 30007KT 10SM FEW065 SCT150 BKN250 24/09 A3004 RMK AO2 SLP168 ACC NW-N T02440089=
201905151852 METAR KATL 151852Z 32004KT 10SM FEW060 FEW150 SCT200 BKN250 23/08 A3004 RMK AO2 SLP168 VIRGA DSNT NW-N T02330083=
201905151752 METAR KATL 151752Z 18004KT 10SM FEW050 SCT200 BKN300 23/11 A3006 RMK AO2 SLP172 T02280106 10233 20144 58008=
201905151652 METAR KATL 151652Z VRB03KT 10SM FEW050 SCT250 BKN300 22/09 A3007 RMK AO2 SLP177 T02170094=
201905151552 METAR KATL 151552Z 10SM FEW045 FEW250 SCT300 21/11 A3009 RMK AO2 SLP183 T02110106=
201905151452 METAR KATL 151452Z 17005KT 10SM FEW250 19/10 A3008 RMK AO2 SLP181 T01940100 51011 $=
201905151352 METAR KATL 151352Z VRB04KT 10SM FEW250 18/10 A3007 RMK AO2 SLP179 T01780100 $=
201905151252 METAR KATL 151252Z 08006KT 10SM FEW250 15/08 A3006 RMK AO2 SLP176 T01500083=
201905151152 METAR KATL 151152Z 05006KT 10SM FEW250 14/08 A3005 RMK AO2 SLP170 T01440078 10144 20111 53013=
201905151052 METAR KATL 151052Z 32005KT 10SM FEW250 11/08 A3003 RMK AO2 SLP165 T01110078=
201905150952 METAR KATL 150952Z 31006KT 10SM CLR 12/08 A3001 RMK AO2 SLP160 T01170078=
201905150852 METAR KATL 150852Z 31003KT 10SM CLR 12/08 A3001 RMK AO2 SLP157 T01220078 55001=
201905150752 METAR KATL 150752Z 33004KT 10SM CLR 13/08 A3000 RMK AO2 SLP154 T01330078=
201905150652 METAR KATL 150652Z 31005KT 10SM CLR 13/08 A3000 RMK AO2 SLP155 T01330083=
201905150552 METAR KATL 150552Z 32005KT 10SM CLR 14/08 A3001 RMK AO2 SLP159 T01390083 10206 20139 58006=
201905150452 METAR KATL 150452Z 31006KT 10SM CLR 15/08 A3002 RMK AO2 SLP163 T01500078 402280106=
201905150352 METAR KATL 150352Z 32005KT 10SM CLR 16/08 A3002 RMK AO2 SLP162 T01610078=
201905150252 METAR KATL 150252Z 33006KT 10SM CLR 17/07 A3003 RMK AO2 SLP165 T01670072 51012=
201905150152 METAR KATL 150152Z 32006KT 10SM CLR 17/07 A3002 RMK AO2 SLP163 T01720072=
201905150052 METAR KATL 150052Z 32007KT 10SM CLR 19/07 A3001 RMK AO2 SLP160 T01890072=
201905142352 METAR KATL 142352Z 31009KT 10SM CLR 21/06 A2999 RMK AO2 SLP153 T02060061 10228 20200 53008=
201905142252 METAR KATL 142252Z 30011KT 10SM CLR 22/07 A2997 RMK AO2 SLP146 T02170072=
201905142152 METAR KATL 142152Z 31008KT 10SM FEW060 22/07 A2996 RMK AO2 SLP143 T02170067=
201905142052 METAR KATL 142052Z 29007KT 10SM FEW060 22/07 A2997 RMK AO2 SLP144 T02220072 58014=
201905141952 METAR KATL 141952Z 29010G17KT 10SM FEW055 22/07 A2998 RMK AO2 SLP149 T02170072=
201905141852 METAR KATL 141852Z 35008KT 10SM FEW050 21/08 A3000 RMK AO2 SLP154 T02110078=
201905141752 METAR KATL 141752Z 01009KT 10SM FEW050 20/07 A3001 RMK AO2 SLP159 T02000067 10206 20117 58007=
201905141652 METAR KATL 141652Z 34010G17KT 10SM FEW045 19/07 A3003 RMK AO2 SLP164 T01890072=
201905141552 METAR KATL 141552Z 33010KT 10SM FEW045 18/07 A3004 RMK AO2 SLP166 T01830072=
201905141452 METAR KATL 141452Z 32011KT 10SM FEW040 17/08 A3004 RMK AO2 SLP166 T01720078 51007=
201905141352 METAR KATL 141352Z 31007KT 10SM FEW030 16/08 A3003 RMK AO2 SLP164 T01560078=
201905141252 METAR KATL 141252Z 28005KT 10SM CLR 13/08 A3002 RMK AO2 SLP164 T01330083=
201905141152 METAR KATL 141152Z 29006KT 10SM CLR 12/08 A3001 RMK AO2 SLP160 T01170083 10139 20106 53018=
201905141052 METAR KATL 141052Z 28006KT 10SM CLR 11/08 A2999 RMK AO2 SLP152 T01060078=
201905140952 METAR KATL 140952Z 31007KT 10SM CLR 12/08 A2997 RMK AO2 SLP144 T01170078=
201905140852 METAR KATL 140852Z 31006KT 10SM CLR 12/08 A2996 RMK AO2 SLP140 T01220083 53002=
201905140752 METAR KATL 140752Z 32005KT 10SM CLR 13/08 A2995 RMK AO2 SLP136 T01280083=
201905140652 METAR KATL 140652Z 32005KT 10SM CLR 13/08 A2995 RMK AO2 SLP135 T01330083=
201905140552 METAR KATL 140552Z 32003KT 10SM CLR 14/08 A2995 RMK AO2 SLP138 T01390083 10206 20139 58003=
201905140452 METAR KATL 140452Z 33007KT 10SM CLR 15/09 A2996 RMK AO2 SLP139 T01500089 402330150=
201905140352 METAR KATL 140352Z 34008KT 10SM CLR 16/09 A2996 RMK AO2 SLP140 T01610089=
201905140252 METAR KATL 140252Z 34006KT 10SM CLR 17/08 A2996 RMK AO2 SLP141 T01670083 51019=
201905140152 METAR KATL 140152Z 33006KT 10SM FEW055 18/09 A2995 RMK AO2 SLP135 T01780089=
201905140052 METAR KATL 140052Z 31007KT 10SM FEW055 19/09 A2993 RMK AO2 SLP129 T01890089=
201905132352 METAR KATL 132352Z 31010KT 10SM FEW055 21/08 A2990 RMK AO2 SLP121 T02060083 10233 20206 53011=
201905132252 METAR KATL 132252Z 30013KT 10SM FEW055 22/08 A2989 RMK AO2 SLP115 T02170083=
201905132152 METAR KATL 132152Z 30013KT 10SM SCT055 22/08 A2988 RMK AO2 SLP111 T02170083=
201905132052 METAR KATL 132052Z 33013G19KT 10SM FEW055 23/09 A2987 RMK AO2 SLP109 T02280089 56009=
201905131952 METAR KATL 131952Z 32013G22KT 10SM FEW050 23/09 A2987 RMK AO2 SLP108 T02280094=
201905131852 METAR KATL 131852Z 33011G18KT 10SM FEW050 23/10 A2988 RMK AO2 SLP112 T02280100=
201905131752 METAR KATL 131752Z 29013G20KT 10SM FEW050 22/10 A2990 RMK AO2 SLP117 T02220100 10222 20172 58002=
201905131652 METAR KATL 131652Z 32005KT 10SM FEW045 21/11 A2990 RMK AO2 SLP118 T02110106=
201905131552 METAR KATL 131552Z 31011KT 270V350 10SM FEW040 21/10 A2990 RMK AO2 SLP120 T02060100=
201905131452 METAR KATL 131452Z 33010KT 10SM FEW030 19/11 A2991 RMK AO2 SLP120 T01940111 53009=
201905131352 METAR KATL 131352Z 32011KT 10SM FEW025 19/13 A2990 RMK AO2 SLP117 T01890128=
201905131252 METAR KATL 131252Z VRB06KT 10SM SCT013 SCT065 18/14 A2989 RMK AO2 SLP114 T01780139=
201905131152 METAR KATL 131152Z 31010KT 10SM SCT012 BKN065 BKN100 17/14 A2988 RMK AO2 SLP111 70021 T01720139 10200 20172 53022=
201905131052 METAR KATL 131052Z 31010KT 10SM FEW012 SCT048 SCT070 17/14 A2985 RMK AO2 SLP101 T01720139=
201905130952 METAR KATL 130952Z 30007KT 10SM FEW012 SCT038 BKN080 18/16 A2983 RMK AO2 SLP093 T01780156=
201905130852 METAR KATL 130852Z 30008KT 10SM FEW015 BKN035 BKN080 18/16 A2981 RMK AO2 SLP087 T01830156 55001=
201905130752 METAR KATL 130752Z 29007KT 10SM SCT031 BKN041 BKN070 19/16 A2981 RMK AO2 SLP086 T01890161=
201905130652 METAR KATL 130652Z 31008KT 10SM FEW008 SCT028 BKN055 19/16 A2980 RMK AO2 SLP083 T01940161=
201905130631 SPECI KATL 130631Z 30010KT 10SM FEW008 SCT025 BKN075 19/17 A2981 RMK AO2 T01940172=
201905130552 METAR KATL 130552Z 26004KT 10SM FEW041 BKN075 BKN110 19/17 A2981 RMK AO2 SLP089 T01940172 10228 20194 51003=
201905130452 METAR KATL 130452Z 24003KT 10SM FEW038 BKN070 BKN110 20/18 A2981 RMK AO2 SLP089 ACC OHD-ALQDS T02000178 402390189=
201905130352 METAR KATL 130352Z 27006KT 10SM FEW012 BKN034 BKN080 BKN200 20/18 A2981 RMK AO2 SLP088 T02000183=
201905130252 METAR KATL 130252Z 31008KT 10SM FEW006 SCT014TCU BKN036 BKN130 20/18 A2981 RMK AO2 SLP086 TCU NE-OHD-W T02000183 53017=
201905130152 METAR KATL 130152Z 22005KT 10SM FEW014TCU FEW065 SCT110 SCT200 21/19 A2978 RMK AO2 SLP078 TCU NW-NE SHRA NW-NE T02060189=
201905130052 METAR KATL 130052Z 26004KT 10SM FEW016TCU FEW065 SCT110 SCT200 21/19 A2977 RMK AO2 SLP074 CB DSNT NE-E TCU SE SW DSNT NW-NE T02110189=
201905122352 METAR KATL 122352Z 24005KT 10SM FEW018TCU SCT065 SCT110 SCT200 23/18 A2975 RMK AO2 SLP068 CB DSNT NE E S-SW NW TCU SE 60001 T02280183 10239 20206 55005=
201905122252 METAR KATL 122252Z 24007KT 10SM SCT016 SCT065 SCT110 BKN200 23/19 A2975 RMK AO2 RAE04B21E30 SLP066 CB DSNT N E-S-SW NW SHRA DSNT E-S-SW P0000 T02280189=
201905122152 METAR KATL 122152Z 28008KT 10SM -RA SCT022CB BKN070 BKN110 BKN200 22/19 A2976 RMK AO2 LTG DSNT SW RAE2054B12 SLP072 CB NE-SE-SW MOV NE CB DSNT SW NW P0001 T02220194=
201905122052 METAR KATL 122052Z 25009G17KT 10SM -RA BKN025 BKN035 BKN050 23/18 A2977 RMK AO2 RAB44 SLP073 P0000 60000 T02330178 56018=
201905121952 METAR KATL 121952Z 22010KT 10SM BKN022 BKN028 BKN040 BKN180 23/18 A2978 RMK AO2 SLP077 SHRA W-N T02330178=
201905121852 METAR KATL 121852Z 23010G18KT 10SM BKN021 BKN035 23/17 A2980 RMK AO2 SLP082 T02280172=
201905121752 METAR KATL 121752Z 21004KT 10SM SCT010 SCT050 BKN065 BKN150 OVC200 21/17 A2982 RMK AO2 SLP093 60020 T02060172 10206 20189 58016 $=
201905121719 SPECI KATL 121719Z 19006KT 10SM SCT009 SCT045 BKN090 BKN150 OVC200 20/18 A2984 RMK AO2 BINOVC T02000178 $=
201905121652 METAR KATL 121652Z 21006KT 10SM BKN007 BKN012 BKN100 OVC200 20/18 A2985 RMK AO2 RAE32 SLP103 BKN007 V SCT P0001 T02000178 $=
201905121557 SPECI KATL 121557Z 19011KT 10SM -RA BKN007 BKN012 OVC095 19/18 A2987 RMK AO2 BKN007 V SCT P0000 T01940178 $=
201905121552 METAR KATL 121552Z 19008KT 7SM -RA SCT007 BKN010 OVC090 19/18 A2988 RMK AO2 SLP111 P0012 T01940178 $=
201905121544 SPECI KATL 121544Z 19008KT 6SM -RA BR SCT007 BKN012 OVC100 19/18 A2988 RMK AO2 LTG DSNT E CB DSNT E-SE P0012 T01940178 $=
201905121452 METAR KATL 121452Z 20008KT 7SM -RA SCT006 BKN009 BKN035 OVC250 19/18 A2987 RMK AO2 SLP109 P0006 60007 T01940178 53005 $=
201905121432 SPECI KATL 121432Z 21008KT 3SM -RA BR BKN008 BKN018 OVC030 19/18 A2988 RMK AO2 P0005 T01940178 $=
201905121427 SPECI KATL 121427Z 20008KT 2 1/2SM -RA BR SCT005 BKN008 OVC045 19/18 A2988 RMK AO2 TWR VIS 3 P0005 T01940178 $=
201905121352 METAR KATL 121352Z 25008KT 10SM -RA BKN007 BKN011 BKN045 OVC250 19/18 A2987 RMK AO2 SLP106 RAE11B45 BINOVC P0000 T01940178 $=
201905121302 SPECI KATL 121302Z 24006KT 7SM -RA BKN007 BKN046 OVC095 19/18 A2986 RMK AO2 P0000 T01940178 $=
201905121252 METAR KATL 121252Z 22006KT 8SM -RA SCT006 BKN050 BKN095 OVC130 19/18 A2983 RMK AO2 RAE11B31 SLP095 SCT006 V BKN P0001 T01890178 $=
201905121152 METAR KATL 121152Z 21009KT 8SM -RA BKN008 BKN080 BKN110 OVC150 19/17 A2986 RMK AO2 RAE20B39 SLP103 P0002 60010 70038 T01890172 10194 20189 53013 $=
201905121145 SPECI KATL 121145Z 22011KT 8SM -RA BKN008 BKN080 BKN110 OVC150 19/17 A2985 RMK AO2 RAE20B39 P0002 T01890172 $=
201905121052 METAR KATL 121052Z 24007KT 7SM -RA FEW006 SCT055 OVC090 19/17 A2985 RMK AO2 RAB00 SLP101 P0004 T01890172 $=
201905120952 METAR KATL 120952Z 19008KT 10SM SCT004 BKN085 BKN110 OVC140 19/17 A2982 RMK AO2 SLP087 T01890172 $=
201905120852 METAR KATL 120852Z 19007KT 10SM SCT007 BKN095 OVC150 19/18 A2982 RMK AO2 SLP088 60004 T01940178 55025 $=
201905120752 METAR KATL 120752Z 16006KT 10SM FEW007 SCT100 OVC150 19/18 A2981 RMK AO2 RAE15 SLP084 P0000 T01940178 $=
201905120652 METAR KATL 120652Z 18004KT 10SM -RA FEW065 BKN085 OVC110 19/18 A2983 RMK AO2 PRESFR SLP094 P0004 T01940178 $=
201905120552 METAR KATL 120552Z 24008G16KT 5SM -RA BR FEW065 BKN085 OVC110 19/18 A2989 RMK AO2 LTG DSNT SE SLP114 CB DSNT SE P0023 60028 T01940178 10244 20194 53004 $=
201905120452 METAR KATL 120452Z 22010G16KT 6SM RA BR SCT085 OVC110 20/18 A2990 RMK AO2 LTG DSNT SW RAB02 SLP117 CB DSNT SW P0005 T02000178 402780200 $=
201905120352 METAR KATL 120352Z 21012KT 10SM FEW055 FEW110 BKN150 OVC200 22/18 A2987 RMK AO2 RAB13E27 SLP107 VIRGA NW-NE P0000 T02170183 $=
201905120252 METAR KATL 120252Z 22006KT 10SM FEW055 FEW100 BKN150 OVC200 22/19 A2988 RMK AO2 RAB17E30 SLP110 P0000 60000 T02170189 50004 $=
201905120152 METAR KATL 120152Z 21007KT 10SM FEW020 SCT055 BKN110 OVC200 22/18 A2989 RMK AO2 SLP112 T02220183 $=
201905120052 METAR KATL 120052Z 21008KT 10SM FEW024 SCT075 BKN110 OVC200 23/18 A2989 RMK AO2 SLP112 ACC OHD-ALQDS T02280178 $=
201905112352 METAR KATL 112352Z 18009KT 10SM FEW026 SCT070 BKN110 OVC200 24/19 A2987 RMK AO2 SLP106 ACC ALQDS SHRA DSNT N-NE E T02440194 10278 20244 53001 $=
201905112252 METAR KATL 112252Z 19009KT 10SM FEW032 SCT055 SCT100 BKN200 25/20 A2987 RMK AO2 SLP106 CB DSNT NE-SE ACC E SE T02500200 $=
201905112152 METAR KATL 112152Z 22011KT 10SM FEW038TCU SCT065 BKN200 BKN250 27/18 A2985 RMK AO2 SLP097 CB DSNT NE-SE TCU NE SE-S SHRA SE T02720183 $=
201905112052 METAR KATL 112052Z 21008KT 10SM FEW038CB SCT065 BKN200 OVC250 27/19 A2987 RMK AO2 SLP104 CB NW MOV NE CB DSNT N E-S TCU N NE DSNT SW SHRA NW T02720189 56029 $=
201905111952 METAR KATL 111952Z 24009KT 10SM SCT027 BKN065 BKN150 BKN200 BKN250 27/19 A2989 RMK AO2 SLP112 CB DSNT E-SE T02720194 $=
201905111852 METAR KATL 111852Z 21009KT 10SM BKN032 BKN045 BKN150 BKN200 BKN250 26/19 A2992 RMK AO2 SLP124 T02560189 $=
201905111752 METAR KATL 111752Z 21011KT 10SM SCT024 SCT032 BKN150 BKN200 BKN250 26/19 A2995 RMK AO2 LTG DSNT E SLP134 CB DSNT E BINOVC T02610194 10261 20206 58017 $=
201905111737 SPECI KATL 111737Z 24008KT 10SM SCT024 SCT032 BKN150 BKN200 OVC250 26/20 A2996 RMK AO2 BINOVC T02560200 $=
201905111652 METAR KATL 111652Z 23008KT 10SM SCT015 BKN024 BKN200 OVC250 26/20 A2998 RMK AO2 SLP143 T02560200 $=
201905111616 SPECI KATL 111616Z VRB06KT 10SM SCT010 SCT015 BKN021 BKN200 BKN250 24/21 A2998 RMK AO2 T02440211 $=
201905111552 METAR KATL 111552Z 20008KT 10SM BKN012 OVC017 23/21 A2999 RMK AO2 SLP147 T02330206 $=
201905111534 SPECI KATL 111534Z 22008KT 10SM BKN010 OVC020 23/20 A2999 RMK AO2 T02280200 $=
201905111452 METAR KATL 111452Z 21009KT 9SM BKN007 OVC020 22/20 A3001 RMK AO2 SLP152 T02220200 51008 $=
201905111352 METAR KATL 111352Z 22006KT 7SM BKN006 OVC010 22/19 A3000 RMK AO2 SLP148 T02170194 $=
201905111252 METAR KATL 111252Z 19007KT 7SM BKN006 BKN150 OVC200 21/19 A2999 RMK AO2 SLP147 CIG 005V008 T02110194 $=
201905111243 SPECI KATL 111243Z 20006KT 7SM BKN006 OVC150 21/19 A2999 RMK AO2 CIG 005V008 BINOVC T02110189 $=
201905111152 METAR KATL 111152Z 18007KT 8SM FEW005 BKN150 BKN200 21/19 A2998 RMK AO2 SLP143 70088 T02060189 10211 20200 53000 $=
201905111137 SPECI KATL 111137Z 20005KT 7SM SCT005 BKN150 OVC200 21/19 A2998 RMK AO2 T02060189 $=
201905111111 SPECI KATL 111111Z 19004KT 7SM BKN005 BKN150 OVC200 20/19 A2998 RMK AO2 CIG 004V007 BKN005 V SCT T02000189 $=
201905111052 METAR KATL 111052Z 20006KT 8SM SCT004 BKN150 OVC200 20/19 A2997 RMK AO2 SLP139 T02000189 $=
201905111047 SPECI KATL 111047Z 20007KT 8SM SCT004 BKN150 OVC200 20/19 A2997 RMK AO2 $=
201905110952 METAR KATL 110952Z 18006KT 10SM FEW150 SCT200 BKN250 21/19 A2996 RMK AO2 SLP137 T02060189 $=
201905110852 METAR KATL 110852Z 17003KT 10SM FEW100 SCT150 BKN200 21/19 A2998 RMK AO2 SLP142 T02060189 56015 $=
201905110752 METAR KATL 110752Z 15005KT 10SM FEW100 BKN150 BKN250 21/19 A2999 RMK AO2 SLP146 T02060194 $=
201905110652 METAR KATL 110652Z 13004KT 10SM FEW100 BKN150 BKN250 21/19 A3000 RMK AO2 SLP150 T02110194 $=
201905110552 METAR KATL 110552Z 08006KT 10SM FEW029 BKN100 OVC150 21/19 A3003 RMK AO2 RAE29 TSE29 SLP158 OCNL LTG DSNT NE-E TS MOV NE P0002 60088 T02110194 10261 20206 58003 $=
201905110529 SPECI KATL 110529Z 08005KT 10SM FEW029 SCT055 BKN100 OVC150 21/19 A3005 RMK AO2 RAE29 TSE29 FRQ LTGICCG DSNT NE-E TS MOV NE P0002 T02110189 $=
201905110452 METAR KATL 110452Z 06005KT 8SM -TSRA FEW025CB SCT050 BKN070 OVC150 21/19 A3005 RMK AO2 SLP167 RAB0356 FRQ LTGICCG NE-SE TS NE-SE MOV NE P0086 T02110189 402890183 $=
201905110428 SPECI KATL 110428Z 17008KT 5SM R09R/3000VP6000FT TSRA BR SCT025CB BKN040 OVC100 21/19 A3005 RMK AO2 RAB0356 VIS LWR NE-SE FRQ LTGICCG NE-SE-S TS NE-SE-S MOV NE P0083 T02060189 $=
201905110413 SPECI KATL 110413Z 28019G22KT 1 1/2SM R09R/3500VP6000FT +TSRA BKN025CB BKN050 OVC100 22/19 A3007 RMK AO2 PRESRR RAB0356 FRQ LTGICCG OHD-ALQDS TS OHD-ALQDS MOV NE P0025 T02220194 $=
201905110407 SPECI KATL 110407Z 28006KT 2SM R09R/5500VP6000FT +TSRA BKN035CB BKN060 OVC120 23/19 A3005 RMK AO2 RAB0356 FRQ LTGICCG NE-OHD-SW TS NE-OHD-SW MOV NE P0007 T02280194 $=
201905110352 METAR KATL 110352Z 00000KT 10SM VCTS SCT045CB BKN090 BKN120 BKN200 24/18 A3003 RMK AO2 SLP161 TSB46 OCNL LTGIC SW-NW TS VC SW-NW MOV NE T02440183=
201905110348 SPECI KATL 110348Z 00000KT 10SM VCTS SCT045CB BKN090 BKN120 BKN200 24/18 A3003 RMK AO2 TSB46 OCNL LTGIC SW-NW TS VC SW-NW MOV NE=
201905110252 METAR KATL 110252Z 18003KT 10SM FEW045 SCT150 BKN250 24/18 A3004 RMK AO2 SLP162 T02440183 51002=
201905110152 METAR KATL 110152Z 14003KT 10SM FEW120 SCT150 BKN250 25/18 A3003 RMK AO2 SLP161 T02500178=
201905110052 METAR KATL 110052Z 00000KT 10SM FEW040 BKN130 BKN200 BKN250 26/18 A3003 RMK AO2 SLP162 T02560178=
201905102352 METAR KATL 102352Z 28005KT 10SM FEW040 SCT150 SCT250 26/18 A3003 RMK AO2 SLP159 T02610178 10289 20256 55004=
201905102252 METAR KATL 102252Z 28006KT 10SM FEW045 SCT250 27/18 A3003 RMK AO2 SLP159 T02720183=
201905102152 METAR KATL 102152Z 26007KT 10SM FEW045 SCT200 BKN250 28/18 A3003 RMK AO2 SLP161 T02780178=
201905102052 METAR KATL 102052Z 30011KT 10SM SCT047 SCT060 SCT200 BKN250 BKN300 28/18 A3004 RMK AO2 SLP163 T02780178 58013=
201905101952 METAR KATL 101952Z 21007KT 10SM SCT036 BKN055 BKN200 BKN250 28/18 A3006 RMK AO2 SLP170 T02780178=
201905101852 METAR KATL 101852Z 26006KT 10SM SCT035 SCT250 BKN300 28/19 A3008 RMK AO2 SLP177 T02780189=
201905101752 METAR KATL 101752Z 19005KT 10SM FEW030 SCT200 BKN250 26/18 A3008 RMK AO2 SLP177 T02560183 10261 20200 58002=
201905101652 METAR KATL 101652Z VRB04KT 10SM FEW025 SCT200 BKN250 24/17 A3008 RMK AO2 SLP180 T02390172=
201905101552 METAR KATL 101552Z VRB03KT 10SM SCT018 SCT020 BKN250 23/18 A3009 RMK AO2 SLP181 T02330178=
201905101548 SPECI KATL 101548Z VRB04KT 10SM FEW017 SCT020 BKN250 23/18 A3009 RMK AO2=
201905101452 METAR KATL 101452Z 17004KT 10SM BKN015 BKN020 BKN250 22/18 A3009 RMK AO2 SLP182 T02220178 51011=
201905101409 SPECI KATL 101409Z 17004KT 10SM FEW010 BKN015 BKN020 21/17 A3009 RMK AO2 T02110172=
201905101352 METAR KATL 101352Z 18004KT 10SM BKN013 BKN015 21/17 A3009 RMK AO2 SLP182 T02110172=
201905101330 SPECI KATL 101330Z 17004KT 10SM BKN008 BKN015 BKN020 21/18 A3008 RMK AO2 T02060178=
201905101252 METAR KATL 101252Z 18006KT 7SM SCT008 OVC012 20/18 A3007 RMK AO2 SLP175 CIG 010V014 BINOVC T02000178=
201905101241 SPECI KATL 101241Z 18005KT 7SM SCT008 OVC013 20/18 A3006 RMK AO2 BINOVC T02000178=
201905101217 SPECI KATL 101217Z 11003KT 2SM SCT006 OVC011 20/18 A3005 RMK AO2 SFC VIS 7 CIG 009V013 BINOVC T02000178=
201905101152 METAR KATL 101152Z 15004KT 2SM BR BKN006 OVC011 20/18 A3005 RMK AO2 SFC VIS 6 SLP171 CIG 005V008 70058 T02000178 10200 20183 51017=
201905101057 SPECI KATL 101057Z 11004KT 2SM BR BKN006 OVC014 19/18 A3004 RMK AO2 SFC VIS 6 CIG 004V008 T01940178=
201905101052 METAR KATL 101052Z 13003KT 2SM BR BKN004 OVC012 19/18 A3004 RMK AO2 SFC VIS 4 SLP165 CIG 003V007 T01940178=
201905101049 SPECI KATL 101049Z 13003KT 2SM BR BKN004 OVC012 19/18 A3004 RMK AO2 SFC VIS 4 CIG 003V007 TWRINC=
201905100952 METAR KATL 100952Z 13004KT 1/2SM R09R/P6000FT BR OVC003 19/18 A3002 RMK AO2 SFC VIS 3 SLP160 CIG 002V004 TWRINC T01940178=
201905100933 SPECI KATL 100933Z 11006KT 1/2SM R09R/P6000FT BR OVC003 19/18 A3002 RMK AO2 SFC VIS 3 CIG 002V004 TWRINC T01890178=
201905100852 METAR KATL 100852Z 08004KT 6SM BR OVC004 19/17 A3000 RMK AO2 SLP151 CIG 003V005 T01890172 55014=
201905100809 SPECI KATL 100809Z 08006KT 7SM OVC008 18/17 A2999 RMK AO2 CIG 007V010 T01830172=
201905100752 METAR KATL 100752Z 09007KT 8SM FEW003 OVC012 18/17 A3000 RMK AO2 SLP151 CIG 010V014 BINOVC T01830167=
201905100744 SPECI KATL 100744Z 08006KT 9SM FEW003 BKN012 BKN200 BKN250 18/17 A3000 RMK AO2 T01830172=
201905100652 METAR KATL 100652Z 08006KT 10SM FEW003 FEW034 SCT200 BKN250 18/17 A3001 RMK AO2 SLP155 T01830172=
201905100552 METAR KATL 100552Z 00000KT 10SM FEW004 BKN035 BKN200 BKN250 18/17 A3004 RMK AO2 SLP165 60007 T01830172 10194 20183 58003=
201905100452 METAR KATL 100452Z 00000KT 10SM SCT200 BKN250 19/17 A3005 RMK AO2 SLP167 T01890167 402670189=
201905100352 METAR KATL 100352Z 09003KT 10SM FEW060 SCT150 BKN200 OVC250 19/17 A3005 RMK AO2 SLP168 T01940167=
201905100252 METAR KATL 100252Z 31005KT 10SM FEW006 SCT070 BKN150 OVC200 19/17 A3005 RMK AO2 PK WND 29026/0226 WSHFT 0221 RAE40 SLP169 P0001 60007 T01890172 55001=
201905100241 SPECI KATL 100241Z 32009KT 10SM FEW006 SCT070 BKN150 OVC200 19/17 A3006 RMK AO2 PK WND 29026/0226 WSHFT 0221 RAE40 P0001 T01940172=
201905100234 SPECI KATL 100234Z 32013G26KT 10SM -RA FEW006 SCT015 BKN070 OVC150 19/17 A3006 RMK AO2 PK WND 29026/0226 P0001 T01890172=
201905100226 SPECI KATL 100226Z 29016G26KT 10SM -RA BKN008 BKN110 OVC150 19/17 A3006 RMK AO2 PK WND 29026/0226 PRESRR P0001 T01890172=
201905100152 METAR KATL 100152Z 14005KT 7SM -RA FEW080 BKN110 OVC150 19/17 A3003 RMK AO2 SLP163 P0004 T01890172=
201905100052 METAR KATL 100052Z 17006KT 8SM -RA FEW080 OVC110 19/17 A3006 RMK AO2 SLP172 P0002 T01940172=
201905092352 METAR KATL 092352Z 18005KT 9SM -RA SCT080 BKN110 OVC150 19/17 A3006 RMK AO2 SLP171 P0002 60051 T01940172 10267 20189 51017=
201905092252 METAR KATL 092252Z 19007KT 7SM -RA FEW015 BKN070 BKN100 OVC150 19/17 A3005 RMK AO2 SLP169 P0023 T01890172=
201905092240 SPECI KATL 092240Z 19007KT 8SM -RA FEW015 SCT070 BKN100 OVC150 19/17 A3005 RMK AO2 P0022 T01890172=
201905092152 METAR KATL 092152Z 29010KT 2SM +RA BR FEW025CB BKN050 BKN100 OVC150 19/17 A3004 RMK AO2 PK WND 29028/2129 WSHFT 2127 RAB28 SLP167 CB NE-SE MOV E P0026 T01940172=
201905092143 SPECI KATL 092143Z 29013KT 6SM RA FEW025CB BKN050 BKN110 OVC200 20/17 A3004 RMK AO2 PK WND 29028/2129 WSHFT 2127 RAB28 VIS LWR NE-SE CB NE-SE MOV E P0023 T02000172=
201905092052 METAR KATL 092052Z 15008KT 10SM FEW040 BKN060 BKN110 OVC250 26/17 A3000 RMK AO2 SLP151 CB DSNT SW-NW SHRA DSNT SW-NW T02610167 58009=
201905091952 METAR KATL 091952Z 15008KT 110V180 10SM FEW040 FEW060 BKN110 BKN250 26/17 A3002 RMK AO2 SLP158 CB DSNT SW-NW SHRA DSNT SW-NW T02610167=
201905091852 METAR KATL 091852Z 13008G15KT 10SM FEW040 BKN060 BKN120 BKN250 26/17 A3004 RMK AO2 SLP163 T02610167=
201905091752 METAR KATL 091752Z 16010G18KT 10SM FEW040 FEW060 SCT170 BKN250 26/16 A3003 RMK AO2 SLP161 T02610161 10267 20194 58015=
201905091652 METAR KATL 091652Z 17010KT 10SM FEW040 FEW120 SCT170 BKN250 25/16 A3006 RMK AO2 SLP169 T02500156=
201905091552 METAR KATL 091552Z 19014KT 10SM FEW040 FEW120 BKN170 BKN250 24/14 A3008 RMK AO2 SLP176 VIRGA DSNT N T02390139=
201905091452 METAR KATL 091452Z 18007KT 10SM FEW005 FEW030 SCT120 BKN180 BKN250 23/17 A3008 RMK AO2 SLP177 FU FEW005 T02330167 53004=
201905091352 METAR KATL 091352Z 16010KT 10SM FEW015 SCT120 SCT200 22/18 A3007 RMK AO2 SLP173 T02220178=
201905091308 SPECI KATL 091308Z 16011KT 10SM SCT012 SCT050 BKN200 21/17 A3007 RMK AO2 T02060172=
201905091252 METAR KATL 091252Z 15009KT 9SM BKN012 BKN055 BKN120 BKN200 21/17 A3007 RMK AO2 SLP176 CIG 010V014 T02060172=
201905091152 METAR KATL 091152Z 15009KT 9SM BKN010 BKN048 BKN120 OVC200 19/17 A3007 RMK AO2 SLP173 70003 T01940167 10217 20194 56003=
201905091052 METAR KATL 091052Z 13007KT 10SM FEW012 FEW038 SCT120 BKN200 19/17 A3007 RMK AO2 SLP173 TCU DSNT NE MDT CU DSNT NE-E T01940167=
201905090952 METAR KATL 090952Z 14005KT 10SM BKN120 BKN200 BKN250 19/17 A3007 RMK AO2 SLP173 T01940167=
201905090852 METAR KATL 090852Z 15007KT 10SM FEW065 FEW120 SCT200 BKN250 20/17 A3008 RMK AO2 SLP176 T02000167 55000=
201905090752 METAR KATL 090752Z 15006KT 10SM FEW060 FEW110 SCT200 BKN250 21/16 A3007 RMK AO2 SLP171 T02060161=
201905090652 METAR KATL 090652Z 15009KT 10SM SCT250 BKN300 21/16 A3007 RMK AO2 SLP172 T02110161=
201905090552 METAR KATL 090552Z 15008KT 10SM SCT250 BKN300 22/17 A3008 RMK AO2 SLP175 T02170167 10261 20217 53010=
201905090452 METAR KATL 090452Z 15011KT 10SM SCT250 22/17 A3007 RMK AO2 SLP172 T02220167 403000183=
201905090352 METAR KATL 090352Z 14007KT 10SM BKN250 23/17 A3005 RMK AO2 SLP167 T02280172=
201905090252 METAR KATL 090252Z 13005KT 10SM FEW040 BKN250 24/17 A3005 RMK AO2 SLP166 T02390172 51014=
201905090152 METAR KATL 090152Z 12006KT 10SM BKN250 24/18 A3004 RMK AO2 SLP164 T02440178=
201905090052 METAR KATL 090052Z 00000KT 10SM FEW200 BKN250 24/18 A3003 RMK AO2 SLP160 T02440178=
201905082352 METAR KATL 082352Z 14007KT 10SM BKN250 26/17 A3000 RMK AO2 SLP152 60003 T02610172 10300 20250 56007=
201905082252 METAR KATL 082252Z 13009KT 10SM FEW045 SCT150 BKN250 27/17 A3001 RMK AO2 SLP154 T02670172=
201905082152 METAR KATL 082152Z 12010KT 10SM SCT050TCU BKN070 BKN250 25/19 A3002 RMK AO2 RAB37E52 SLP156 TCU OHD-W-NW & DSNT NE-E P0003 T02500189=
201905082052 METAR KATL 082052Z 13009KT 10SM FEW050TCU SCT070 SCT250 28/16 A3003 RMK AO2 SLP159 TCU SW-NW DSNT E-SE-S T02780161 56017=
201905081952 METAR KATL 081952Z 13009G15KT 10SM SCT055 SCT250 30/16 A3004 RMK AO2 SLP162 MDT CU E-SE-S SW-NW T03000156=
201905081852 METAR KATL 081852Z 13008KT 10SM SCT045 SCT250 28/17 A3005 RMK AO2 SLP168 MDT CU ALQDS T02830172=
201905081752 METAR KATL 081752Z 14007G16KT 10SM BKN045TCU BKN250 28/18 A3008 RMK AO2 SLP176 TCU OHD-SE-SW-NW T02780178 10278 20189 58016=
201905081652 METAR KATL 081652Z 14008KT 10SM SCT035 SCT250 27/18 A3010 RMK AO2 SLP182 T02670183=
201905081552 METAR KATL 081552Z 14008KT 10SM FEW030 FEW250 25/18 A3011 RMK AO2 SLP188 T02500178=
201905081526 SPECI KATL 081526Z 11007KT 10SM FEW020 FEW250 24/18 A3012 RMK AO2 T02440183=
201905081452 METAR KATL 081452Z 14008KT 10SM BKN017 BKN250 23/18 A3013 RMK AO2 SLP193 T02330183 50004=
201905081440 SPECI KATL 081440Z 13008KT 10SM SCT014 SCT250 24/18 A3012 RMK AO2 T02390178=
201905081352 METAR KATL 081352Z 13007KT 10SM BKN012 BKN015 BKN250 23/18 A3013 RMK AO2 SLP194 T02280183=
201905081252 METAR KATL 081252Z 14006KT 7SM BKN007 20/18 A3012 RMK AO2 SLP192 T02000178=
201905081152 METAR KATL 081152Z 12005KT 7SM BKN007 BKN250 19/17 A3011 RMK AO2 SLP190 BKN007 V SCT T01940172 10206 20183 51013=
201905081150 SPECI KATL 081150Z 12004KT 7SM BKN007 BKN250 19/17 A3011 RMK AO2 BKN007 V SCT=
201905081052 METAR KATL 081052Z 14003KT 10SM FEW005 FEW250 18/17 A3011 RMK AO2 SLP186 T01830167=
201905080952 METAR KATL 080952Z 12004KT 10SM FEW250 19/17 A3009 RMK AO2 SLP180 T01890167=
201905080852 METAR KATL 080852Z 10004KT 10SM FEW250 19/16 A3008 RMK AO2 SLP175 T01940161 55007=
201905080752 METAR KATL 080752Z 13004KT 10SM FEW250 20/16 A3007 RMK AO2 SLP173 T02000161=
201905080652 METAR KATL 080652Z 09006KT 10SM FEW250 20/16 A3009 RMK AO2 SLP180 T02000161=
201905080552 METAR KATL 080552Z 08004KT 10SM FEW250 21/16 A3010 RMK AO2 SLP182 T02060161 10261 20206 58006=
201905080452 METAR KATL 080452Z 10004KT 10SM SCT250 22/16 A3011 RMK AO2 SLP187 T02170161 402890172=
201905080352 METAR KATL 080352Z 10004KT 10SM SCT250 22/16 A3012 RMK AO2 SLP191 T02170161=
201905080252 METAR KATL 080252Z 10005KT 10SM SCT150 BKN250 23/15 A3012 RMK AO2 SLP188 T02330150 51013=
201905080152 METAR KATL 080152Z 10005KT 10SM BKN200 BKN250 24/16 A3011 RMK AO2 SLP186 T02440156=
201905080052 METAR KATL 080052Z 09006KT 10SM FEW050 BKN250 24/16 A3009 RMK AO2 SLP181 T02440156=
201905072352 METAR KATL 072352Z 10009KT 050V120 10SM FEW055 BKN250 26/14 A3008 RMK AO2 SLP175 T02610144 10289 20261 58004=
201905072252 METAR KATL 072252Z 09009KT 10SM FEW055 BKN250 27/16 A3008 RMK AO2 SLP177 T02670156=
201905072152 METAR KATL 072152Z 10008KT 10SM FEW050TCU SCT070 BKN250 27/15 A3009 RMK AO2 SLP180 TCU SW-W T02670150=
201905072052 METAR KATL 072052Z 09009KT 10SM BKN050TCU BKN080 BKN250 27/16 A3009 RMK AO2 SLP180 TCU OHD-SW-NW-N T02720156 56019=
201905071952 METAR KATL 071952Z 14008KT 10SM BKN050TCU BKN090 BKN250 28/16 A3010 RMK AO2 SLP184 TCU OHD-NW T02830161=
201905071852 METAR KATL 071852Z 09010KT 10SM BKN055 BKN250 BKN300 28/14 A3012 RMK AO2 SLP191 MDT CU ALQDS T02780144=
201905071752 METAR KATL 071752Z 00000KT 10SM SCT055 BKN250 BKN300 27/14 A3014 RMK AO2 SLP199 MDT CU NE-SE-S-SW-W T02720139 10278 20211 58005=
201905071652 METAR KATL 071652Z VRB06KT 10SM BKN050 BKN250 28/16 A3015 RMK AO2 SLP201 T02780161=
201905071552 METAR KATL 071552Z 10006KT 10SM SCT045 SCT250 26/16 A3016 RMK AO2 SLP203 T02560161=
201905071452 METAR KATL 071452Z 00000KT 10SM FEW040 FEW250 SCT300 26/17 A3016 RMK AO2 SLP204 T02610167 53009=
201905071352 METAR KATL 071352Z VRB03KT 10SM FEW250 24/16 A3015 RMK AO2 SLP199 T02390161=
201905071252 METAR KATL 071252Z 09005KT 10SM FEW250 22/14 A3014 RMK AO2 SLP199 T02170144=
201905071152 METAR KATL 071152Z 05006KT 10SM FEW250 21/13 A3013 RMK AO2 SLP195 T02110133 10211 20172 53021=
201905071052 METAR KATL 071052Z 00000KT 10SM CLR 19/13 A3009 RMK AO2 SLP180 T01890133=
201905070952 METAR KATL 070952Z 00000KT 10SM CLR 19/13 A3007 RMK AO2 SLP175 T01890128=
201905070852 METAR KATL 070852Z 33003KT 10SM FEW250 18/13 A3007 RMK AO2 SLP174 T01780133 53000=
201905070752 METAR KATL 070752Z 00000KT 10SM FEW250 18/13 A3006 RMK AO2 SLP172 T01830128=
201905070652 METAR KATL 070652Z 00000KT 10SM FEW250 19/13 A3007 RMK AO2 SLP173 T01890128=
201905070552 METAR KATL 070552Z 00000KT 10SM FEW250 20/13 A3007 RMK AO2 SLP174 T02000128 10256 20194 58007=
201905070452 METAR KATL 070452Z 32004KT 10SM FEW012 FEW200 SCT250 21/12 A3008 RMK AO2 SLP177 FU FEW012 T02060122 402780144=
201905070352 METAR KATL 070352Z 33004KT 10SM FEW200 SCT250 22/13 A3009 RMK AO2 SLP180 T02170128=
201905070252 METAR KATL 070252Z 33006KT 10SM SCT200 BKN250 23/12 A3009 RMK AO2 SLP181 T02330122 52020=
201905070152 METAR KATL 070152Z 28005KT 10SM SCT200 BKN250 23/13 A3007 RMK AO2 SLP176 T02280128=
201905070052 METAR KATL 070052Z 29006KT 10SM FEW060 SCT200 BKN250 24/13 A3005 RMK AO2 SLP169 T02390128=
201905062352 METAR KATL 062352Z 16003KT 10SM FEW065 SCT250 BKN300 26/11 A3003 RMK AO2 SLP163 T02560111 10278 20250 53004=
201905062252 METAR KATL 062252Z 07005KT 10SM FEW060 BKN250 BKN300 27/12 A3002 RMK AO2 SLP161 T02670117=
201905062152 METAR KATL 062152Z 10005KT 10SM FEW065 SCT250 BKN300 27/12 A3001 RMK AO2 SLP157 T02670122=
201905062052 METAR KATL 062052Z 03003KT 10SM FEW065 SCT250 BKN300 28/12 A3002 RMK AO2 SLP158 T02780122 58003=
201905061952 METAR KATL 061952Z 00000KT 10SM SCT060 BKN250 BKN300 27/12 A3002 RMK AO2 SLP160 T02670122=
201905061852 METAR KATL 061852Z 00000KT 10SM SCT055 SCT250 BKN300 26/12 A3002 RMK AO2 SLP160 T02610122=
201905061752 METAR KATL 061752Z VRB04KT 10SM SCT050 25/12 A3003 RMK AO2 SLP161 T02500122 10256 20150 50004=
201905061652 METAR KATL 061652Z 36005KT 10SM SCT040 25/14 A3004 RMK AO2 SLP166 T02500139=
201905061552 METAR KATL 061552Z 02008KT 10SM SCT030 SCT250 23/14 A3003 RMK AO2 SLP162 T02330139=
201905061452 METAR KATL 061452Z 32006KT 10SM FEW030 FEW250 21/14 A3002 RMK AO2 SLP158 T02110139 51007=
201905061352 METAR KATL 061352Z 35007KT 10SM FEW020 SCT250 SCT300 19/14 A3002 RMK AO2 SLP158 T01890139=
201905061252 METAR KATL 061252Z 33006KT 10SM FEW008 SCT200 SCT250 17/13 A3001 RMK AO2 SLP155 T01670133=
201905061152 METAR KATL 061152Z 33008KT 10SM SCT004 SCT200 SCT250 15/13 A3000 RMK AO2 SLP151 70002 T01500128 10167 20144 53014=
201905061052 METAR KATL 061052Z 31011KT 10SM FEW006 FEW200 FEW250 14/13 A2997 RMK AO2 SLP141 T01440128=
201905061050 SPECI KATL 061050Z 31011KT 10SM FEW006 FEW200 FEW250 14/13 A2997 RMK AO2=
201905060952 METAR KATL 060952Z 30010KT 10SM FEW200 FEW250 14/13 A2997 RMK AO2 SLP141 T01440128=
201905060852 METAR KATL 060852Z 30010KT 10SM FEW200 FEW250 15/13 A2995 RMK AO2 SLP137 T01500128 53020=
201905060752 METAR KATL 060752Z 30009KT 10SM SCT200 SCT250 16/13 A2992 RMK AO2 SLP127 T01560128=
201905060652 METAR KATL 060652Z 30007KT 10SM SCT200 SCT250 16/13 A2991 RMK AO2 SLP119 T01610128=
201905060552 METAR KATL 060552Z 31007KT 10SM SCT200 SCT250 17/13 A2989 RMK AO2 SLP115 T01670128 10228 20167 58002=
201905060452 METAR KATL 060452Z 32004KT 10SM SCT200 SCT250 18/13 A2991 RMK AO2 SLP121 T01780128 402610178=
201905060352 METAR KATL 060352Z 32005KT 10SM FEW200 BKN250 18/13 A2991 RMK AO2 SLP123 T01830133=
201905060252 METAR KATL 060252Z 32008KT 10SM SCT250 19/13 A2990 RMK AO2 SLP118 T01940133 51022=
201905060152 METAR KATL 060152Z 32009KT 10SM FEW036 SCT250 21/14 A2989 RMK AO2 SLP114 T02060139=
201905060052 METAR KATL 060052Z 31011KT 10SM FEW038 SCT250 22/13 A2986 RMK AO2 SLP104 T02170133=
201905052352 METAR KATL 052352Z 31015KT 10SM FEW040 SCT250 23/13 A2983 RMK AO2 SLP094 T02330133 10261 20233 52011=
201905052252 METAR KATL 052252Z 29016G21KT 10SM FEW038 SCT250 24/14 A2982 RMK AO2 SLP090 MDT CU N-E T02440144=
201905052152 METAR KATL 052152Z 32013KT 10SM SCT040 SCT250 25/14 A2981 RMK AO2 SLP085 MDT CU N-E-SE T02500144=
201905052052 METAR KATL 052052Z 28012G19KT 10SM SCT037 26/16 A2980 RMK AO2 SLP082 MDT CU ALQDS T02610156 56008=
201905051952 METAR KATL 051952Z 32012KT 10SM SCT037 SCT046 25/16 A2981 RMK AO2 SLP085 MDT CU ALQDS T02500156=
201905051852 METAR KATL 051852Z 29011KT 10SM SCT034 BKN048 26/17 A2981 RMK AO2 SLP085 MDT CU ALQDS T02560167=
201905051752 METAR KATL 051752Z 28011G16KT 10SM BKN031 BKN060 25/17 A2982 RMK AO2 SLP091 MDT CU ALQDS 60002 T02500172 10250 20189 58001=
201905051652 METAR KATL 051652Z 29009KT 10SM SCT020 BKN050 23/17 A2983 RMK AO2 SLP094 MDT CU ALQDS T02330172=
201905051600 SPECI KATL 051600Z 27008KT 10SM FEW007 SCT027 BKN055 21/18 A2984 RMK AO2 T02110183=
201905051552 METAR KATL 051552Z 27006KT 10SM FEW007 BKN027 BKN055 20/17 A2984 RMK AO2 RAB15E40 SLP098 P0002 T02000172=
201905051542 SPECI KATL 051542Z 28007KT 10SM FEW007 BKN023 BKN032 19/17 A2984 RMK AO2 RAB15E40 VSBY LWR S P0002 T01940167=
201905051525 SPECI KATL 051525Z 31011KT 2SM R09R/5500VP6000FT RA BR FEW007 BKN016 OVC030 19/17 A2984 RMK AO2 SFC VIS 2 1/2 RAB15 P0000 T01940172=
201905051521 SPECI KATL 051521Z 29011KT 2SM R09R/5500VP6000FT -RA BKN016 BKN024 OVC043 20/17 A2983 RMK AO2 SFC VIS 3 RAB15 P0000 T02000172=
201905051514 SPECI KATL 051514Z 29006KT 7SM BKN016 BKN037 OVC045 21/17 A2983 RMK AO2 T02060167=
201905051452 METAR KATL 051452Z 31008KT 10SM FEW014 SCT027 BKN047 BKN200 21/17 A2983 RMK AO2 SLP093 T02060167 51017=
201905051352 METAR KATL 051352Z 26008KT 10SM FEW011 BKN017 BKN036 20/16 A2982 RMK AO2 SLP090 T02000161=
201905051303 SPECI KATL 051303Z 28007KT 10SM FEW011 OVC017 19/17 A2981 RMK AO2 T01940167=
201905051252 METAR KATL 051252Z 28010KT 10SM FEW009 OVC014 19/16 A2981 RMK AO2 SLP087 CIG 012V017 BINOVC T01890161=
201905051152 METAR KATL 051152Z 26011KT 10SM FEW009 BKN012 OVC018 19/17 A2978 RMK AO2 SLP075 CIG 010V015 60002 70018 T01890167 10200 20189 53016=
201905051052 METAR KATL 051052Z 24012G21KT 10SM FEW009 BKN012 OVC019 19/17 A2975 RMK AO2 SLP065 CIG 011V015 T01940167=
201905050952 METAR KATL 050952Z 22010G18KT 10SM BKN008 BKN013 OVC018 19/17 A2972 RMK AO2 RAB05E31 SLP057 P0001 T01940172=
201905050852 METAR KATL 050852Z 21011G18KT 10SM BKN008 OVC015 19/17 A2973 RMK AO2 RAE35 SLP057 P0001 60001 T01940172 56013=
201905050752 METAR KATL 050752Z 19009KT 6SM -RA BR BKN009 OVC015 19/17 A2973 RMK AO2 RAB48 SLP058 P0000 T01940172=
201905050652 METAR KATL 050652Z 20010KT 10SM BKN008 OVC013 19/18 A2975 RMK AO2 SLP065 CIG 006V010 T01940178=
201905050552 METAR KATL 050552Z 19010KT 7SM BKN008 BKN013 BKN055 20/18 A2977 RMK AO2 RAB30E46 SLP070 BKN008 V SCT P0001 60016 T02000183 10244 20200 58002=
201905050452 METAR KATL 050452Z 17009KT 10SM BKN005 OVC011 21/19 A2978 RMK AO2 SLP075 CIG 004V007 T02060189 402830200=
201905050429 SPECI KATL 050429Z 18007KT 9SM BKN007 OVC032 20/19 A2978 RMK AO2 CIG 005V009 T02000189=
201905050352 METAR KATL 050352Z 19005KT 9SM FEW006 BKN038 BKN110 OVC200 21/19 A2978 RMK AO2 SLP076 T02060189=
201905050252 METAR KATL 050252Z 11007KT 10SM FEW008 BKN110 OVC200 21/18 A2977 RMK AO2 RAE52 SLP072 P0000 60015 T02060183 58012=
201905050152 METAR KATL 050152Z 21003KT 9SM -RA FEW060 SCT085 BKN120 OVC200 21/18 A2980 RMK AO2 SLP082 P0012 T02060183=
201905050052 METAR KATL 050052Z 23004KT 5SM RA FEW018 SCT050 OVC085 22/19 A2981 RMK AO2 SLP087 P0003 T02220194=
201905042352 METAR KATL 042352Z 19007KT 10SM -RA FEW032 BKN080 BKN110 OVC200 24/19 A2981 RMK AO2 RAB39 SLP084 CB DSNT S NW ACC E-OHD-W P0000 60000 T02440189 10283 20244 55003=
201905042252 METAR KATL 042252Z 23004KT 10SM FEW030 FEW060 SCT110 OVC200 26/18 A2979 RMK AO2 SLP079 CB DSNT NE-E NW TCU DSNT NE NW ACC S-W T02560183=
201905042152 METAR KATL 042152Z 22008KT 10SM FEW030 FEW065 SCT110 BKN200 26/19 A2980 RMK AO2 RAE2056 SLP081 CB DSNT N NE TCU DSNT NW P0000 T02610189=
201905042052 METAR KATL 042052Z 22005KT 10SM -RA FEW020TCU SCT040 BKN070 BKN250 26/20 A2982 RMK AO2 RAB36 SLP087 TCU NE P0000 60000 T02610200 57021=
201905041952 METAR KATL 041952Z 26011KT 10SM SCT040TCU BKN250 28/17 A2983 RMK AO2 SLP090 TCU W T02780172=
201905041852 METAR KATL 041852Z 26012KT 10SM SCT032 BKN050 BKN070 BKN200 27/18 A2987 RMK AO2 LTG DSNT E RAB16E28 SLP103 CB DSNT E MDT CU ALQDS P0000 T02670183=
201905041752 METAR KATL 041752Z 23013G25KT 10SM SCT035 BKN044 27/18 A2988 RMK AO2 LTG DSNT NE SLP108 CB DSNT N-E T02670178 10272 20222 58012=
201905041709 SPECI KATL 041709Z 22013G23KT 10SM SCT030TCU SCT048 BKN080 BKN250 27/18 A2989 RMK AO2 LTG DSNT N AND NE CB DSNT N-NE TCU ALQDS T02720183=
201905041652 METAR KATL 041652Z 23016G23KT 10SM VCTS FEW027CB SCT034 BKN041 BKN200 26/18 A2990 RMK AO2 LTG DSNT N AND NW TSE44 SLP114 OCNL LTGCG VC SE TS VC SE MOV NE CB DSNT N & NW T02610178=
201905041650 SPECI KATL 041650Z 22016G23KT 10SM VCTS FEW027CB SCT034 BKN041 BKN200 26/18 A2990 RMK AO2 LTG DSNT N AND NW TSE44 OCNL LTGCG VC SE TS VC SE MOV NE CB DSNT N & NW=
201905041552 METAR KATL 041552Z 23011KT 10SM SCT030 BKN080 BKN200 26/19 A2991 RMK AO2 LTG DSNT ALQDS SLP120 CB DSNT ALQDS T02610189=
201905041452 METAR KATL 041452Z 22008KT 190V250 10SM FEW024TCU SCT065 BKN160 25/19 A2993 RMK AO2 SLP123 TCU E & NW T02500189 53002=
201905041352 METAR KATL 041352Z 19007KT 10SM FEW024 SCT050 BKN180 24/19 A2992 RMK AO2 SLP124 T02440189=
201905041252 METAR KATL 041252Z 15003KT 10SM FEW020 SCT150 BKN200 BKN250 23/18 A2992 RMK AO2 SLP122 T02330178=
201905041152 METAR KATL 041152Z 00000KT 10SM FEW050 SCT150 BKN220 BKN250 22/18 A2992 RMK AO2 SLP123 T02220183 10233 20217 53005=
201905041052 METAR KATL 041052Z 31005KT 10SM FEW050 SCT150 BKN220 BKN250 22/18 A2991 RMK AO2 SLP119 T02170178=
201905040952 METAR KATL 040952Z 00000KT 10SM SCT050 BKN150 BKN220 22/18 A2990 RMK AO2 SLP115 T02170178=
201905040852 METAR KATL 040852Z 00000KT 10SM SCT050 BKN150 OVC220 22/18 A2991 RMK AO2 SLP116 T02170178 55016=
201905040752 METAR KATL 040752Z 00000KT 10SM SCT050 23/18 A2990 RMK AO2 SLP115 T02280178=
201905040652 METAR KATL 040652Z 28003KT 10SM FEW047 SCT070 BKN180 OVC250 23/18 A2992 RMK AO2 SLP123 T02280178=
201905040552 METAR KATL 040552Z 30003KT 10SM FEW040 BKN150 BKN250 23/18 A2995 RMK AO2 SLP133 T02330183 10267 20228 58006=
201905040452 METAR KATL 040452Z 00000KT 10SM BKN150 BKN250 23/19 A2997 RMK AO2 SLP138 T02330189 402890189=
201905040352 METAR KATL 040352Z 00000KT 10SM FEW035 SCT150 SCT250 24/18 A2997 RMK AO2 SLP138 T02390183=
201905040252 METAR KATL 040252Z 26003KT 10SM FEW040 BKN150 BKN250 25/18 A2997 RMK AO2 SLP140 T02500183 53006=
201905040152 METAR KATL 040152Z 23004KT 10SM SCT040 SCT200 24/18 A2996 RMK AO2 SLP137 T02440178=
201905040052 METAR KATL 040052Z 20003KT 10SM FEW040 FEW250 26/18 A2995 RMK AO2 LTG DSNT NE SLP132 CB DSNT NE T02560178=
201905032352 METAR KATL 032352Z 20005KT 10SM FEW040 FEW080 SCT250 27/18 A2995 RMK AO2 SLP133 CB DSNT NE TCU DSNT NW-N T02670178 10289 20267 56004=
201905032252 METAR KATL 032252Z 20006KT 10SM FEW040 FEW080 SCT250 27/17 A2996 RMK AO2 SLP135 TCU DSNT SW-W T02720172=
201905032152 METAR KATL 032152Z 23008KT 10SM SCT045TCU BKN080 BKN250 28/17 A2996 RMK AO2 SLP136 TCU NE & SE-S T02780167=
201905032052 METAR KATL 032052Z 26005KT 10SM SCT050TCU BKN070 BKN250 28/18 A2997 RMK AO2 SLP138 TCU SE CB DSNT SW T02830178 56018=
201905031952 METAR KATL 031952Z VRB03KT 10SM BKN050 BKN250 28/17 A2998 RMK AO2 SLP141 CB DSNT SW & NW T02830172=
201905031852 METAR KATL 031852Z 22007KT 10SM SCT043 SCT070 28/17 A2999 RMK AO2 LTG DSNT N AND W SLP146 CB DSNT N & W T02780167=
201905031752 METAR KATL 031752Z VRB04KT 10SM SCT037 SCT250 27/17 A3002 RMK AO2 SLP156 CB DSNT NW-N T02720172 10278 20194 58019=
201905031652 METAR KATL 031652Z 23005KT 10SM SCT030 SCT250 26/17 A3005 RMK AO2 SLP165 CB DSNT NW-N T02560172=
201905031552 METAR KATL 031552Z 00000KT 10SM SCT025 SCT250 26/18 A3007 RMK AO2 LTG DSNT NW SLP174 CB DSNT NW MDT CU ALQDS T02560183=
201905031538 SPECI KATL 031538Z 20007KT 10SM BKN020 BKN050 25/18 A3008 RMK AO2 T02500183=
201905031452 METAR KATL 031452Z 19003KT 10SM FEW015 SCT020 SCT050 24/19 A3008 RMK AO2 SLP176 T02390189 50001=
201905031444 SPECI KATL 031444Z VRB04KT 10SM BKN015 BKN020 BKN050 23/19 A3008 RMK AO2 T02330189=
201905031352 METAR KATL 031352Z 20005KT 10SM BKN012 BKN020 OVC050 22/18 A3008 RMK AO2 SLP179 T02170178=
201905031346 SPECI KATL 031346Z 23007KT 10SM BKN012 BKN020 OVC050 22/18 A3008 RMK AO2=
201905031252 METAR KATL 031252Z 18005KT 9SM FEW012 SCT020 SCT048 SCT250 21/18 A3008 RMK AO2 SLP175 T02110178=
201905031152 METAR KATL 031152Z 15004KT 9SM SCT048 SCT200 SCT250 19/17 A3007 RMK AO2 SLP173 CB DSNT NW MDT CU N-E T01940172 10222 20189 53005=
201905031052 METAR KATL 031052Z 00000KT 10SM FEW046 FEW080 SCT200 SCT250 19/17 A3005 RMK AO2 SLP167 CB DSNT SW-NW T01940167=
201905030952 METAR KATL 030952Z 00000KT 10SM FEW250 19/17 A3004 RMK AO2 SLP164 T01940167=
201905030852 METAR KATL 030852Z 16003KT 10SM FEW080 SCT250 20/17 A3005 RMK AO2 SLP168 T02000167 56009=
201905030752 METAR KATL 030752Z 19005KT 10SM SCT250 21/17 A3006 RMK AO2 SLP171 T02060167=
201905030652 METAR KATL 030652Z 15006KT 10SM FEW075 SCT250 21/16 A3006 RMK AO2 SLP170 T02110156=
201905030552 METAR KATL 030552Z 13005KT 10SM FEW048 BKN080 BKN250 22/14 A3008 RMK AO2 SLP177 ACC W-N T02220139 10267 20222 51002=
201905030452 METAR KATL 030452Z 12005KT 10SM FEW055 SCT250 23/13 A3008 RMK AO2 SLP176 T02280133 402830183=
201905030352 METAR KATL 030352Z 12005KT 10SM FEW250 23/14 A3008 RMK AO2 SLP178 T02330139=
201905030252 METAR KATL 030252Z 10007KT 10SM FEW250 24/14 A3008 RMK AO2 SLP175 T02390139 58004=
201905030152 METAR KATL 030152Z 15004KT 10SM SCT250 24/14 A3009 RMK AO2 SLP182 T02390139=
201905030052 METAR KATL 030052Z 12005KT 10SM SCT250 26/13 A3009 RMK AO2 SLP181 T02560133=
201905022352 METAR KATL 022352Z 15004KT 10SM BKN300 27/13 A3009 RMK AO2 SLP180 T02670133 10283 20261 56008=
201905022252 METAR KATL 022252Z 17007KT 10SM FEW055 SCT300 27/13 A3009 RMK AO2 SLP182 T02720133=
201905022152 METAR KATL 022152Z 16006KT 10SM FEW060 SCT300 28/14 A3010 RMK AO2 SLP184 T02780139=
201905022052 METAR KATL 022052Z 14007KT 100V170 10SM FEW060 FEW250 BKN300 28/13 A3011 RMK AO2 SLP188 T02780133 58027=
201905021952 METAR KATL 021952Z 21008KT 10SM FEW060 FEW250 BKN300 28/13 A3015 RMK AO2 SLP199 T02780133=
201905021852 METAR KATL 021852Z 14007KT 10SM FEW055 FEW250 BKN300 27/14 A3017 RMK AO2 SLP207 T02720139=
201905021752 METAR KATL 021752Z 12010KT 10SM FEW050 FEW250 BKN300 27/14 A3020 RMK AO2 SLP216 T02670139 10267 20194 58009=
201905021652 METAR KATL 021652Z 16004KT 10SM FEW040 FEW250 BKN300 26/16 A3022 RMK AO2 SLP224 T02560156=
201905021552 METAR KATL 021552Z 11007KT 10SM FEW005 FEW035 FEW250 BKN300 24/16 A3023 RMK AO2 SLP228 FU FEW005 T02440161=
201905021452 METAR KATL 021452Z VRB04KT 10SM FEW030 FEW200 BKN300 24/16 A3022 RMK AO2 SLP226 T02390161 53002=
201905021352 METAR KATL 021352Z 15006KT 10SM FEW020 FEW040 BKN250 22/16 A3022 RMK AO2 SLP225 T02170161=
201905021252 METAR KATL 021252Z 16007KT 9SM SCT012 SCT200 SCT250 21/17 A3022 RMK AO2 SLP225 T02060167=
201905021152 METAR KATL 021152Z 14005KT 8SM FEW010 FEW150 SCT200 SCT250 19/17 A3022 RMK AO2 SLP226 T01940167 10217 20183 53009=
201905021052 METAR KATL 021052Z 13004KT 9SM FEW150 SCT200 SCT250 19/16 A3021 RMK AO2 SLP222 T01890161=
201905020952 METAR KATL 020952Z 14004KT 10SM FEW140 SCT200 SCT250 19/16 A3020 RMK AO2 SLP217 T01890161=
201905020852 METAR KATL 020852Z 14005KT 10SM FEW140 SCT200 BKN250 19/16 A3019 RMK AO2 SLP215 T01940161 55001=
201905020752 METAR KATL 020752Z 16008KT 10SM SCT130 SCT200 BKN250 20/16 A3018 RMK AO2 SLP212 T02000161=
201905020652 METAR KATL 020652Z 16007KT 10SM SCT085 SCT120 BKN200 BKN250 21/16 A3020 RMK AO2 SLP217 T02110161=
201905020552 METAR KATL 020552Z 14006KT 10SM FEW110 SCT200 BKN250 22/17 A3020 RMK AO2 SLP216 T02170167 10261 20217 56006=
201905020452 METAR KATL 020452Z 11004KT 10SM FEW100 BKN200 OVC250 23/17 A3020 RMK AO2 SLP217 T02280167 402890189=
201905020352 METAR KATL 020352Z 14003KT 10SM FEW150 BKN200 OVC250 23/17 A3021 RMK AO2 SLP220 T02280167=
201905020252 METAR KATL 020252Z 12005KT 10SM FEW150 BKN200 OVC250 24/17 A3021 RMK AO2 SLP223 T02440167 53009=
201905020152 METAR KATL 020152Z 12003KT 10SM FEW150 BKN200 OVC250 25/17 A3021 RMK AO2 SLP220 T02500167=
201905020052 METAR KATL 020052Z 15005KT 10SM FEW150 BKN200 BKN250 25/17 A3019 RMK AO2 SLP216 T02500167=
201905012352 METAR KATL 012352Z 15006KT 10SM FEW040 SCT200 BKN250 26/17 A3019 RMK AO2 SLP214 T02610167 10289 20261 53000=
201905012252 METAR KATL 012252Z 15007KT 10SM FEW040 SCT180 BKN250 27/17 A3018 RMK AO2 SLP213 TCU DSNT SW & W T02670172=
201905012152 METAR KATL 012152Z 13007KT 10SM FEW045 SCT200 BKN250 27/17 A3019 RMK AO2 LTG DSNT SW SLP213 CB DSNT SW-W T02720167=
201905012052 METAR KATL 012052Z 15008KT 110V200 10SM FEW045 SCT200 BKN250 28/17 A3019 RMK AO2 LTG DSNT NW SLP213 CB DSNT SW NW T02780172 58022=
201905011952 METAR KATL 011952Z 15008G15KT 10SM FEW040 FEW050 BKN250 28/18 A3021 RMK AO2 SLP220 TCU DSNT SW-NW T02830178=
201905011852 METAR KATL 011852Z 15010KT 10SM FEW040TCU FEW050 BKN250 28/18 A3023 RMK AO2 SLP229 TCU SW MDT CU DSNT SE SW-NW T02780178=
201905011752 METAR KATL 011752Z 16010G15KT 10SM BKN035TCU BKN045 BKN250 27/18 A3025 RMK AO2 SLP236 TCU OHD-NE SE SW-NW T02720183 10278 20189 58010=
201905011652 METAR KATL 011652Z 18008KT 10SM SCT025TCU SCT200 BKN250 26/18 A3027 RMK AO2 SLP241 TCU E SE-SW-NW T02610183=
201905011631 SPECI KATL 011631Z 19007KT 10SM FEW025 SCT030 BKN250 26/19 A3027 RMK AO2 T02560189=
201905011552 METAR KATL 011552Z 15004KT 10SM BKN020 BKN030 BKN250 25/19 A3029 RMK AO2 SLP247 T02500189=
201905011452 METAR KATL 011452Z 17008KT 10SM BKN015 BKN030 BKN250 24/19 A3028 RMK AO2 SLP246 T02390189 51008=
201905011352 METAR KATL 011352Z 18008KT 10SM SCT012 SCT030 BKN250 22/18 A3028 RMK AO2 SLP245 T02220183=
201905011302 SPECI KATL 011302Z 17008KT 10SM BKN010 BKN150 BKN200 BKN250 21/18 A3028 RMK AO2 CIG 008V012 T02110178=
201905011252 METAR KATL 011252Z 16006KT 7SM BKN008 BKN150 BKN200 BKN250 21/18 A3028 RMK AO2 SLP244 CIG 007V010 T02060178=
201905011235 SPECI KATL 011235Z 16006KT 7SM BKN008 BKN150 BKN200 BKN250 20/17 A3028 RMK AO2 T02000172=
