##########################################################
# Query made at 04/20/2024 00:05:47 UTC
# Time interval: from 07/01/2019 12:00  to 07/31/2019 12:59  UTC
##########################################################

##########################################################
# KATL, Atlanta, Hartsfield - Jackson Atlanta International Airport (United States)
# WMO index: 72219. WIGOS ID: 0-20000-0-72219
# Latitude 33-38-59N. Longitude 084-25-00W. Altitude 312 m.
##########################################################

201907311252 METAR KATL 311252Z 31005KT 10SM FEW080 BKN110 BKN150 BKN200 23/20 A3012 RMK AO2 RAE1156B39E52 SLP189 P0000 T02330200=
201907311152 METAR KATL 311152Z 25003KT 10SM -RA FEW065 BKN100 BKN140 BKN200 23/21 A3009 RMK AO2 RAB44 SLP181 PCPN VRY LGT P0000 60000 70012 T02330206 10233 20228 53012=
201907311052 METAR KATL 311052Z 00000KT 10SM FEW075 BKN100 BKN140 23/20 A3007 RMK AO2 SLP173 T02280200=
201907310952 METAR KATL 310952Z 00000KT 10SM FEW085 BKN110 BKN150 23/21 A3006 RMK AO2 SLP169 T02280206=
201907310852 METAR KATL 310852Z 00000KT 10SM FEW060 OVC100 23/21 A3005 RMK AO2 RAB15E39 SLP165 P0000 60000 T02330206 58007=
201907310752 METAR KATL 310752Z 24003KT 10SM FEW050 OVC100 23/21 A3006 RMK AO2 SLP168 T02280206=
201907310652 METAR KATL 310652Z 00000KT 10SM FEW050 BKN090 BKN140 OVC200 23/20 A3007 RMK AO2 RAB25E36 SLP172 P0000 T02280200=
201907310552 METAR KATL 310552Z 00000KT 10SM FEW060 SCT095 BKN130 BKN180 OVC250 23/19 A3008 RMK AO2 SLP174 60012 T02330194 10261 20222 58004=
201907310452 METAR KATL 310452Z 24005KT 10SM SCT060 BKN150 OVC250 23/20 A3009 RMK AO2 SLP176 T02280200 403330222=
201907310352 METAR KATL 310352Z 09005KT 10SM FEW100 BKN150 OVC200 23/19 A3008 RMK AO2 SLP175 T02330194=
201907310252 METAR KATL 310252Z 09004KT 10SM FEW035 BKN100 BKN150 OVC200 24/19 A3009 RMK AO2 RAE31 SLP177 CB DSNT E-SE P0000 60012 T02390194 51016=
201907310152 METAR KATL 310152Z 35008KT 10SM -RA FEW040 BKN100 BKN150 OVC250 23/19 A3008 RMK AO2 TSE03 SLP174 P0010 T02330194=
201907310103 SPECI KATL 310103Z 31012KT 7SM -RA SCT040CB BKN070 BKN150 BKN250 23/19 A3007 RMK AO2 TSE03 VIS LWR NW TS DSIPTD CB NW-N MOV N P0007 T02280194=
201907310052 METAR KATL 310052Z 31009KT 7SM TSRA SCT040CB BKN070 BKN150 BKN250 23/19 A3008 RMK AO2 RAB43 TSB41 SLP175 VIS LWR S-W OCNL LTGIC SW-W DSNT NW TS SW-W DSNT NW MOV NE P0002 T02330189=
201907310042 SPECI KATL 310042Z 29012KT 10SM TS SCT040CB BKN070 BKN150 BKN250 25/18 A3007 RMK AO2 TSB41 OCNL LTGIC SW TS SW MOV NE T02500178=
201907302352 METAR KATL 302352Z 01015KT 10SM FEW040TCU SCT100 BKN150 BKN250 26/18 A3004 RMK AO2 SLP162 LTG DSNT N-NE SW CB DSNT N-NE SW TCU S-SW 60000 T02560178 10333 20256 53008=
201907302252 METAR KATL 302252Z 34010KT 10SM FEW045 SCT090 BKN140 BKN250 29/18 A3003 RMK AO2 WSHFT 2208 SLP158 TSB06E26 LTG DSNT N-NE CB DSNT N-NE E-SE S-W T02890178=
201907302226 SPECI KATL 302226Z 30013KT 10SM FEW045 SCT090 BKN140 BKN250 30/18 A3001 RMK AO2 WSHFT 2208 TSB06E26 LTG DSNT NW-NE TS MOV NE T03000183=
201907302207 SPECI KATL 302207Z 26008KT 10SM VCTS FEW045CB SCT090 BKN140 BKN250 31/18 A3001 RMK AO2 TSB06 OCNL LTGICCG VC NW DSNT N-NE TS VC NW DSNT N-NE MOV NE T03060178=
201907302152 METAR KATL 302152Z 26008KT 10SM FEW045 SCT090 BKN140 BKN250 31/18 A3001 RMK AO2 SLP152 TSE51 LTG DSNT NW-N TS MOV NE CB DSNT NW-N TCU DSNT SE T03060178=
201907302052 METAR KATL 302052Z 22007KT 10SM VCTS FEW050CB SCT060TCU BKN120 BKN250 32/17 A3001 RMK AO2 LTG DSNT SW AND W SLP151 OCNL LTGICCG SW-W TS VC SW-W MOV E CB SW-W MOV E TCU OHD-N-NE DSNT SE SHRA VC SW-W 60000 T03170172 56012=
201907302047 SPECI KATL 302047Z 23005KT 10SM VCTS FEW050CB SCT060TCU BKN120 BKN250 32/17 A3001 RMK AO2 LTG DSNT W AND NW OCNL LTGICCG SW TS VC SW MOV E CB SW MOV E TCU OHD-N-NE DSNT SE SHRA VC SW=
201907301952 METAR KATL 301952Z VRB03KT 10SM SCT065TCU SCT120 32/16 A3002 RMK AO2 SLP155 TCU E-SE-S-SW DSNT NW T03220161=
201907301852 METAR KATL 301852Z VRB04KT 10SM FEW060 SCT110 SCT250 32/17 A3005 RMK AO2 RAE1758 SLP163 CB DSNT NE W TCU DSNT SE-S-SW MDT CU DSNT NE-E DSNT NW P0000 T03170167=
201907301752 METAR KATL 301752Z 30004KT 10SM -RA SCT050TCU SCT090 BKN120 31/17 A3007 RMK AO2 RAB48 SLP171 TCU NE-SE-SW-W P0000 60000 T03060172 10322 20244 58009=
201907301652 METAR KATL 301652Z 21005KT 10SM FEW050TCU FEW120 SCT250 32/19 A3008 RMK AO2 SLP176 TCU NE W MDT CU E-SE T03220189=
201907301552 METAR KATL 301552Z VRB06KT 10SM SCT120 SCT150 30/19 A3010 RMK AO2 SLP180 T03000194=
201907301452 METAR KATL 301452Z 15003KT 10SM FEW100 BKN120 BKN150 28/18 A3010 RMK AO2 SLP182 T02780183 51007=
201907301352 METAR KATL 301352Z 00000KT 10SM FEW060 BKN100 BKN150 27/19 A3010 RMK AO2 SLP180 T02720189=
201907301252 METAR KATL 301252Z 15004KT 10SM BKN065 BKN085 BKN130 25/18 A3010 RMK AO2 SLP181 T02500183=
201907301152 METAR KATL 301152Z 18003KT 10SM FEW060 SCT095 SCT130 24/18 A3008 RMK AO2 SLP174 T02440178 10250 20222 53009=
201907301052 METAR KATL 301052Z 00000KT 10SM FEW060 SCT130 23/19 A3007 RMK AO2 SLP170 T02280189=
201907300952 METAR KATL 300952Z 14003KT 10SM SCT130 23/18 A3005 RMK AO2 SLP166 T02330183=
201907300852 METAR KATL 300852Z 00000KT 10SM FEW130 23/19 A3005 RMK AO2 SLP165 T02330189 55004=
201907300752 METAR KATL 300752Z 00000KT 10SM FEW130 FEW250 23/19 A3005 RMK AO2 SLP165 T02330189=
201907300652 METAR KATL 300652Z 00000KT 10SM FEW090 FEW130 SCT250 24/18 A3006 RMK AO2 SLP167 T02440183=
201907300552 METAR KATL 300552Z 00000KT 10SM FEW090 SCT130 SCT250 25/18 A3006 RMK AO2 SLP169 T02500183 10278 20250 58001=
201907300452 METAR KATL 300452Z 00000KT 10SM FEW090 BKN130 BKN250 26/18 A3007 RMK AO2 SLP172 T02560183 403280233=
201907300352 METAR KATL 300352Z 22003KT 10SM SCT090 BKN120 BKN250 26/18 A3008 RMK AO2 SLP173 T02610183=
201907300252 METAR KATL 300252Z 00000KT 10SM BKN120 BKN250 27/18 A3007 RMK AO2 SLP169 T02670178 53009=
201907300152 METAR KATL 300152Z 00000KT 10SM SCT120 SCT250 27/18 A3005 RMK AO2 SLP164 T02720178=
201907300052 METAR KATL 300052Z 00000KT 10SM SCT110 28/17 A3004 RMK AO2 SLP160 T02780172=
201907292352 METAR KATL 292352Z 32007KT 10SM FEW055 SCT110 27/17 A3004 RMK AO2 SLP160 T02720172 10328 20272 55008=
201907292252 METAR KATL 292252Z 23008KT 10SM FEW055 SCT110 SCT250 29/17 A3003 RMK AO2 SLP159 CB DSNT NW T02940172=
201907292152 METAR KATL 292152Z 17010KT 10SM FEW055 SCT110 SCT250 31/18 A3004 RMK AO2 SLP163 CB DSNT NW T03060178=
201907292052 METAR KATL 292052Z 22006KT 10SM FEW055TCU SCT070 BKN100 31/17 A3006 RMK AO2 SLP168 CB DSNT N TCU NE S W T03060172 56018=
201907291952 METAR KATL 291952Z 15003KT 10SM FEW050 FEW070 BKN100 31/17 A3008 RMK AO2 SLP173 CB DSNT NE SE-S W T03060172=
201907291852 METAR KATL 291852Z 19004KT 10SM FEW050 SCT070 BKN100 29/18 A3010 RMK AO2 SLP181 CB DSNT SE-SW T02940178=
201907291752 METAR KATL 291752Z 19006KT 10SM FEW050TCU BKN070 BKN100 29/17 A3012 RMK AO2 SLP186 TCU NE W NW T02940167 10306 20244 58008=
201907291652 METAR KATL 291652Z 21004KT 10SM FEW050TCU BKN080 BKN100 29/17 A3013 RMK AO2 SLP190 TCU E-SE-S SHRA VC E-SE-S T02890167=
201907291552 METAR KATL 291552Z 27004KT 10SM FEW050 BKN070 BKN250 29/17 A3014 RMK AO2 SLP195 TCU DSNT N-NE ACC OHD-SW-NW T02940172=
201907291452 METAR KATL 291452Z 33005KT 10SM FEW060 FEW120 SCT250 29/17 A3014 RMK AO2 SLP195 T02940172 53002=
201907291352 METAR KATL 291352Z 29003KT 8SM FEW060 FEW120 28/17 A3014 RMK AO2 SLP193 T02780172=
201907291252 METAR KATL 291252Z 14005KT 10SM FEW065 SCT130 25/18 A3014 RMK AO2 SLP196 T02500178=
201907291152 METAR KATL 291152Z 00000KT 9SM FEW065 BKN130 24/18 A3014 RMK AO2 SLP193 T02440183 10256 20233 53006=
201907291052 METAR KATL 291052Z 00000KT 10SM FEW065 BKN120 24/17 A3012 RMK AO2 SLP188 T02440172=
201907290952 METAR KATL 290952Z 00000KT 10SM SCT065 BKN120 24/18 A3012 RMK AO2 SLP187 T02390178=
201907290852 METAR KATL 290852Z 00000KT 10SM FEW065 FEW140 24/18 A3012 RMK AO2 SLP186 T02390178 58009 $=
201907290752 METAR KATL 290752Z 00000KT 10SM FEW140 24/18 A3013 RMK AO2 SLP190 T02440178 $=
201907290652 METAR KATL 290652Z 00000KT 10SM FEW110 SCT140 24/18 A3013 RMK AO2 SLP192 T02440178 $=
201907290552 METAR KATL 290552Z 00000KT 10SM FEW110 SCT140 SCT250 26/18 A3014 RMK AO2 SLP196 T02560178 10306 20256 58003 $=
201907290452 METAR KATL 290452Z 14003KT 10SM FEW110 BKN140 BKN250 27/18 A3016 RMK AO2 SLP200 T02670178 403220211 $=
201907290352 METAR KATL 290352Z 15003KT 10SM SCT110 BKN200 BKN250 27/18 A3015 RMK AO2 SLP197 T02720178 $=
201907290252 METAR KATL 290252Z 10006KT 10SM BKN110 BKN200 BKN250 28/17 A3016 RMK AO2 SLP200 ACC E-OHD-W T02830172 53005 $=
201907290152 METAR KATL 290152Z 00000KT 10SM BKN120 BKN200 BKN250 29/17 A3015 RMK AO2 SLP198 ACC E-OHD-W T02890167 $=
201907290052 METAR KATL 290052Z 02006KT 10SM BKN120 BKN200 BKN250 29/16 A3014 RMK AO2 SLP196 ACC E-OHD-W T02940161 $=
201907282352 METAR KATL 282352Z 32005KT 10SM FEW070 BKN130 BKN200 BKN250 31/15 A3014 RMK AO2 SLP195 ACC NE-SE T03060150 10322 20283 56010 $=
201907282252 METAR KATL 282252Z 32007KT 10SM FEW070 BKN120 BKN200 BKN250 31/15 A3014 RMK AO2 SLP195 T03060150 $=
201907282152 METAR KATL 282152Z 15004KT 10SM FEW080 BKN110 BKN200 BKN250 31/16 A3015 RMK AO2 SLP198 T03060156 $=
201907282052 METAR KATL 282052Z 28004KT 10SM SCT065 BKN130 BKN160 BKN250 31/16 A3017 RMK AO2 SLP205 TCU DSNT N T03110156 58020 $=
201907281952 METAR KATL 281952Z VRB03KT 10SM SCT060 BKN120 BKN250 31/16 A3019 RMK AO2 SLP212 MDT CU NW T03060156 $=
201907281852 METAR KATL 281852Z 30005KT 10SM SCT060 SCT120 SCT200 BKN250 BKN300 31/16 A3021 RMK AO2 SLP218 MDT CU NE & NW T03060161 $=
201907281752 METAR KATL 281752Z 00000KT 10SM SCT060 BKN080 BKN200 BKN250 29/16 A3023 RMK AO2 SLP225 T02940156 10317 20222 56012 $=
201907281652 METAR KATL 281652Z 00000KT 10SM FEW060 SCT080 BKN095 BKN200 BKN250 30/15 A3024 RMK AO2 SLP228 T03000150 $=
201907281552 METAR KATL 281552Z 00000KT 10SM FEW080 SCT120 SCT200 BKN250 BKN300 29/16 A3025 RMK AO2 SLP233 T02940161 $=
201907281452 METAR KATL 281452Z 27006KT 10SM SCT075 SCT085 SCT200 BKN250 28/17 A3026 RMK AO2 SLP237 T02830172 50003 $=
201907281352 METAR KATL 281352Z 25007KT 10SM BKN075 BKN085 BKN250 BKN300 26/16 A3027 RMK AO2 SLP238 T02560161 $=
201907281252 METAR KATL 281252Z 26004KT 10SM FEW070 SCT120 BKN200 BKN250 24/17 A3027 RMK AO2 SLP239 T02440172 $=
201907281152 METAR KATL 281152Z 00000KT 10SM FEW120 BKN200 BKN250 22/16 A3025 RMK AO2 SLP235 T02220161 10239 20211 51013 $=
201907281052 METAR KATL 281052Z 00000KT 10SM SCT120 SCT200 BKN250 21/16 A3024 RMK AO2 SLP231 T02110161 $=
201907280952 METAR KATL 280952Z 22003KT 10SM SCT120 SCT200 SCT250 22/16 A3023 RMK AO2 SLP227 T02170161 $=
201907280852 METAR KATL 280852Z 00000KT 10SM FEW110 FEW200 FEW250 22/17 A3022 RMK AO2 SLP221 T02220167 56007 $=
201907280752 METAR KATL 280752Z 32003KT 10SM FEW110 FEW200 FEW250 23/17 A3022 RMK AO2 SLP222 T02330167 $=
201907280652 METAR KATL 280652Z 00000KT 10SM SCT110 SCT150 SCT200 SCT250 23/17 A3023 RMK AO2 SLP225 T02330172 $=
201907280552 METAR KATL 280552Z 00000KT 10SM SCT100 SCT150 SCT200 SCT250 23/17 A3024 RMK AO2 SLP228 T02330167 10289 20233 58000 $=
201907280452 METAR KATL 280452Z 00000KT 10SM FEW150 SCT200 SCT250 24/17 A3024 RMK AO2 SLP229 T02440167 403170211 $=
201907280352 METAR KATL 280352Z 00000KT 10SM FEW150 SCT200 SCT250 26/16 A3024 RMK AO2 SLP229 T02560161 $=
201907280252 METAR KATL 280252Z 00000KT 10SM FEW200 SCT250 26/17 A3024 RMK AO2 SLP229 T02560167 53005 $=
201907280152 METAR KATL 280152Z 00000KT 10SM FEW200 SCT250 27/16 A3023 RMK AO2 SLP226 T02720161 $=
201907280052 METAR KATL 280052Z 15004KT 10SM FEW060 SCT200 SCT250 28/16 A3022 RMK AO2 SLP224 T02780161 $=
201907272352 METAR KATL 272352Z 15006KT 10SM FEW065 FEW110 SCT200 BKN250 29/16 A3022 RMK AO2 SLP224 T02890161 10317 20289 55004 $=
201907272252 METAR KATL 272252Z 07006KT 10SM FEW070 FEW110 BKN200 BKN250 30/15 A3022 RMK AO2 SLP224 T03000150 $=
201907272152 METAR KATL 272152Z 10008KT 10SM FEW070 SCT110 BKN200 BKN250 30/15 A3023 RMK AO2 SLP226 T03000150 $=
201907272052 METAR KATL 272052Z 13006KT 10SM FEW065 SCT110 BKN200 BKN250 31/16 A3024 RMK AO2 SLP228 MDT CU SW & W & NW T03060161 58015 $=
201907271952 METAR KATL 271952Z 11007KT 080V150 10SM SCT060 SCT110 BKN250 BKN300 30/15 A3025 RMK AO2 SLP233 MDT CU SE & SW & NW T03000150 $=
201907271852 METAR KATL 271852Z 11006KT 10SM SCT065 SCT180 BKN250 BKN300 31/16 A3027 RMK AO2 SLP239 MDT CU ALQDS T03060156 $=
201907271752 METAR KATL 271752Z 03007KT 360V100 10SM SCT060 SCT200 SCT250 SCT300 30/16 A3028 RMK AO2 SLP243 MDT CU S & SW & NW T03000156 10311 20233 58013 $=
201907271652 METAR KATL 271652Z 05007KT 10SM SCT055 SCT200 SCT250 SCT300 30/16 A3030 RMK AO2 SLP251 T03000156 $=
201907271552 METAR KATL 271552Z VRB04KT 10SM FEW055 SCT200 SCT250 SCT300 29/15 A3032 RMK AO2 SLP256 T02940150 $=
201907271452 METAR KATL 271452Z 00000KT 10SM FEW200 SCT250 BKN300 29/16 A3032 RMK AO2 SLP256 T02890156 50005 $=
201907271352 METAR KATL 271352Z 00000KT 10SM FEW200 SCT250 26/17 A3032 RMK AO2 SLP258 T02610167=
201907271252 METAR KATL 271252Z VRB03KT 10SM SCT250 25/17 A3032 RMK AO2 SLP257 T02500167=
201907271152 METAR KATL 271152Z 03004KT 10SM FEW180 FEW250 23/16 A3030 RMK AO2 SLP251 T02330161 10239 20211 53019=
201907271052 METAR KATL 271052Z 08006KT 10SM FEW250 21/16 A3028 RMK AO2 SLP245 T02110161=
201907270952 METAR KATL 270952Z 10005KT 10SM FEW250 22/17 A3026 RMK AO2 SLP237 T02170167=
201907270852 METAR KATL 270852Z 08007KT 10SM FEW250 22/17 A3025 RMK AO2 SLP232 T02220167 55003=
201907270752 METAR KATL 270752Z 10004KT 10SM FEW070 FEW250 23/16 A3025 RMK AO2 SLP231 T02280161=
201907270652 METAR KATL 270652Z 10006KT 10SM FEW070 FEW250 23/17 A3025 RMK AO2 SLP233 T02280167=
201907270552 METAR KATL 270552Z 08007KT 10SM FEW070 FEW250 24/17 A3026 RMK AO2 SLP236 T02390172 10289 20233 50003=
201907270452 METAR KATL 270452Z 10004KT 10SM FEW070 FEW250 24/17 A3026 RMK AO2 SLP237 T02440167 403170200=
201907270352 METAR KATL 270352Z 12004KT 10SM FEW250 25/16 A3026 RMK AO2 SLP235 T02500161=
201907270252 METAR KATL 270252Z 12006KT 10SM CLR 26/16 A3025 RMK AO2 SLP232 T02610161 51013=
201907270152 METAR KATL 270152Z 10007KT 10SM FEW070 26/16 A3024 RMK AO2 SLP228 T02610156=
201907270052 METAR KATL 270052Z 11006KT 10SM FEW070 28/13 A3022 RMK AO2 SLP224 T02830133=
201907262352 METAR KATL 262352Z 10006KT 10SM FEW070 29/13 A3021 RMK AO2 SLP220 T02890133 10317 20289 55003=
201907262252 METAR KATL 262252Z VRB04KT 10SM FEW070 31/12 A3020 RMK AO2 SLP216 T03060122=
201907262152 METAR KATL 262152Z 04005KT 10SM FEW070 FEW250 31/13 A3020 RMK AO2 SLP217 T03110128=
201907262052 METAR KATL 262052Z 03008G15KT 10SM SCT070 SCT110 SCT250 31/13 A3022 RMK AO2 SLP222 MDT CU SE & SW & NW T03110133 58012=
201907261952 METAR KATL 261952Z 09005KT 10SM SCT065 SCT100 31/14 A3023 RMK AO2 SLP227 MDT CU ALQDS T03110144=
201907261852 METAR KATL 261852Z 00000KT 10SM SCT070 SCT100 31/14 A3024 RMK AO2 SLP231 MDT CU N-NE & SW-NW T03110139=
201907261752 METAR KATL 261752Z VRB06KT 10SM SCT065 SCT075 BKN100 30/15 A3026 RMK AO2 SLP235 MDT CU N-NE & SW-NW T03000150 10306 20217 58004=
201907261652 METAR KATL 261652Z 09007KT 10SM FEW060 SCT080 SCT100 29/16 A3027 RMK AO2 SLP239 MDT CU DSNT SE W T02940156=
201907261552 METAR KATL 261552Z VRB03KT 10SM FEW050 SCT080 SCT100 29/16 A3028 RMK AO2 SLP242 ACC DSNT SE-S T02890156=
201907261452 METAR KATL 261452Z VRB04KT 10SM FEW080 FEW100 27/16 A3027 RMK AO2 SLP239 ACC DSNT E SE-S T02720156 51012=
201907261352 METAR KATL 261352Z VRB04KT 10SM FEW080 FEW100 SCT250 26/16 A3026 RMK AO2 SLP236 ACC NE-SE T02610156=
201907261252 METAR KATL 261252Z VRB06KT 9SM FEW080 SCT095 SCT250 24/16 A3025 RMK AO2 SLP233 ACC DSNT E SE W T02390156=
201907261152 METAR KATL 261152Z 06006KT 9SM FEW075 SCT095 SCT250 22/14 A3023 RMK AO2 SLP228 ACC SE S T02220144 10228 20200 53017=
201907261052 METAR KATL 261052Z 08005KT 10SM FEW075 SCT095 SCT250 21/14 A3021 RMK AO2 SLP222 ACC S SW T02060144=
201907260952 METAR KATL 260952Z 09006KT 10SM FEW075 SCT090 SCT250 21/14 A3020 RMK AO2 SLP216 T02060144=
201907260852 METAR KATL 260852Z 09005KT 10SM FEW075 SCT090 SCT250 21/14 A3018 RMK AO2 SLP210 T02110139 55000=
201907260752 METAR KATL 260752Z 06006KT 10SM FEW090 FEW250 22/14 A3017 RMK AO2 SLP208 T02220139=
201907260652 METAR KATL 260652Z 07007KT 10SM FEW085 SCT100 SCT250 23/14 A3018 RMK AO2 SLP208 T02280139=
201907260552 METAR KATL 260552Z 09004KT 10SM FEW085 FEW250 23/14 A3018 RMK AO2 SLP209 T02280144 10278 20228 50003=
201907260452 METAR KATL 260452Z 09005KT 10SM FEW250 23/14 A3018 RMK AO2 SLP210 T02330139 403060194=
201907260352 METAR KATL 260352Z 08008KT 10SM FEW250 24/14 A3018 RMK AO2 SLP208 T02440139=
201907260252 METAR KATL 260252Z 07007KT 10SM FEW250 26/14 A3017 RMK AO2 SLP207 T02560139 53014=
201907260152 METAR KATL 260152Z 09005KT 10SM FEW250 26/14 A3015 RMK AO2 SLP201 T02560139=
201907260052 METAR KATL 260052Z 10004KT 10SM FEW250 27/13 A3014 RMK AO2 SLP195 T02670133=
201907252352 METAR KATL 252352Z 10007KT 10SM FEW070 SCT250 28/12 A3013 RMK AO2 SLP194 T02780122 10306 20278 55001=
201907252252 METAR KATL 252252Z 11006KT 10SM FEW070 FEW250 28/13 A3012 RMK AO2 SLP190 T02830128=
201907252152 METAR KATL 252152Z 08006KT 10SM FEW070 FEW250 30/13 A3013 RMK AO2 SLP192 T03000128=
201907252052 METAR KATL 252052Z VRB04KT 10SM SCT070 30/13 A3013 RMK AO2 SLP193 T03000128 56008=
201907251952 METAR KATL 251952Z 06010KT 10SM SCT070 29/12 A3014 RMK AO2 SLP196 T02890122=
201907251852 METAR KATL 251852Z 05012G15KT 10SM SCT070 29/12 A3015 RMK AO2 SLP197 T02940122=
201907251752 METAR KATL 251752Z VRB06KT 10SM SCT065 SCT075 29/13 A3016 RMK AO2 SLP202 T02890133 10294 20211 58002=
201907251652 METAR KATL 251652Z 08008KT 040V110 10SM SCT065 28/14 A3017 RMK AO2 SLP205 T02830139=
201907251552 METAR KATL 251552Z VRB06KT 10SM FEW050 FEW070 27/14 A3017 RMK AO2 SLP206 T02720144=
201907251452 METAR KATL 251452Z 06006KT 10SM FEW065 26/14 A3016 RMK AO2 SLP203 T02610144 51014=
201907251352 METAR KATL 251352Z 09008KT 10SM FEW065 FEW250 24/14 A3016 RMK AO2 SLP202 T02390139=
201907251252 METAR KATL 251252Z 09007KT 10SM FEW065 FEW200 23/14 A3014 RMK AO2 SLP197 T02280139=
201907251152 METAR KATL 251152Z 08009KT 10SM FEW065 FEW200 21/14 A3012 RMK AO2 SLP190 T02110139 10222 20194 53020=
201907251052 METAR KATL 251052Z 09005KT 10SM FEW060 FEW250 19/14 A3010 RMK AO2 SLP185 T01940139=
201907250952 METAR KATL 250952Z 07007KT 10SM CLR 21/14 A3008 RMK AO2 SLP175 T02060144=
201907250852 METAR KATL 250852Z 05009KT 10SM FEW065 22/14 A3006 RMK AO2 SLP168 T02170144 53002=
201907250752 METAR KATL 250752Z 04005KT 10SM FEW070 22/14 A3005 RMK AO2 SLP167 T02170144=
201907250652 METAR KATL 250652Z 04005KT 10SM CLR 22/14 A3006 RMK AO2 SLP168 T02220144=
201907250552 METAR KATL 250552Z 33004KT 10SM CLR 22/14 A3006 RMK AO2 SLP167 T02170139 10283 20217 50001=
201907250452 METAR KATL 250452Z 33004KT 10SM CLR 23/14 A3006 RMK AO2 SLP168 T02280139 403000200=
201907250352 METAR KATL 250352Z 36006KT 10SM FEW070 24/13 A3006 RMK AO2 SLP167 T02440133=
201907250252 METAR KATL 250252Z 01009KT 10SM SCT060 SCT075 26/13 A3005 RMK AO2 SLP166 T02610133 51011=
201907250152 METAR KATL 250152Z 05004KT 10SM SCT060 BKN075 27/14 A3004 RMK AO2 SLP162 T02720144=
201907250052 METAR KATL 250052Z 36008KT 10SM SCT065 BKN080 28/12 A3003 RMK AO2 SLP160 MDT CU E-OHD-SW T02780117=
201907242352 METAR KATL 242352Z 35009KT 10SM SCT065 28/10 A3002 RMK AO2 SLP155 T02830100 10300 20283 53008=
201907242252 METAR KATL 242252Z 32010KT 10SM FEW065 29/11 A3000 RMK AO2 SLP150 T02940106=
201907242152 METAR KATL 242152Z 36009KT 10SM SCT065 30/12 A3000 RMK AO2 SLP147 T03000117=
201907242052 METAR KATL 242052Z 32006G14KT 10SM FEW065 30/13 A2999 RMK AO2 SLP146 T03000133 56010=
201907241952 METAR KATL 241952Z 30009KT 10SM SCT060 29/14 A3000 RMK AO2 SLP148 T02940144=
201907241852 METAR KATL 241852Z 32011KT 10SM SCT060 29/15 A3001 RMK AO2 SLP151 T02890150=
201907241752 METAR KATL 241752Z VRB06KT 10SM SCT060 29/15 A3002 RMK AO2 SLP157 T02890150 10294 20217 58012=
201907241652 METAR KATL 241652Z 35006KT 10SM BKN050 28/14 A3004 RMK AO2 SLP162 T02780144=
201907241552 METAR KATL 241552Z 03003KT 10SM SCT045 SCT065 27/14 A3005 RMK AO2 SLP167 T02720144=
201907241452 METAR KATL 241452Z 00000KT 10SM FEW040 FEW150 26/16 A3006 RMK AO2 SLP170 T02610156 51010=
201907241352 METAR KATL 241352Z 05008KT 10SM FEW030 FEW060 24/17 A3006 RMK AO2 SLP169 T02440167=
201907241252 METAR KATL 241252Z 02007KT 10SM FEW022 FEW060 FEW250 23/18 A3005 RMK AO2 SLP167 T02330178=
201907241152 METAR KATL 241152Z 35007KT 10SM FEW060 FEW200 22/17 A3003 RMK AO2 SLP160 70012 T02170172 10217 20200 53016=
201907241052 METAR KATL 241052Z 33006KT 10SM FEW060 FEW200 20/18 A3001 RMK AO2 SLP153 T02000178=
201907240952 METAR KATL 240952Z 01006KT 10SM FEW065 FEW250 21/18 A3000 RMK AO2 SLP148 T02110178=
201907240852 METAR KATL 240852Z 05007KT 10SM FEW018 FEW065 SCT250 21/17 A2998 RMK AO2 SLP144 T02110167 56002=
201907240752 METAR KATL 240752Z 03006KT 10SM FEW012 FEW060 SCT250 21/18 A2998 RMK AO2 SLP144 T02110178=
201907240652 METAR KATL 240652Z 08006KT 10SM FEW012 SCT065 SCT200 SCT250 21/18 A2999 RMK AO2 SLP145 T02110183=
201907240552 METAR KATL 240552Z 07007KT 10SM FEW016 SCT060 BKN200 BKN250 22/18 A2999 RMK AO2 SLP146 T02170183 10261 20217 50004=
201907240546 SPECI KATL 240546Z 07005KT 10SM SCT016 BKN060 BKN250 22/18 A2999 RMK AO2=
201907240452 METAR KATL 240452Z 09006KT 10SM BKN014 BKN055 BKN250 23/19 A2999 RMK AO2 SLP147 T02280189 402890172=
201907240444 SPECI KATL 240444Z 08009KT 10SM BKN014 BKN055 BKN250 23/19 A2999 RMK AO2 T02280189=
201907240352 METAR KATL 240352Z 09009KT 10SM FEW025 SCT050 SCT250 23/18 A2999 RMK AO2 SLP144 T02330183=
201907240252 METAR KATL 240252Z 05012KT 10SM BKN040 BKN250 24/16 A2998 RMK AO2 SLP141 T02440161 53019=
201907240152 METAR KATL 240152Z 36012KT 10SM FEW040 BKN055 BKN250 25/16 A2995 RMK AO2 SLP132 T02500156=
201907240052 METAR KATL 240052Z 35013G19KT 10SM FEW035 FEW200 26/16 A2993 RMK AO2 SLP125 CB DSNT NE-E SE T02560156=
201907232352 METAR KATL 232352Z 34013KT 10SM FEW035 SCT200 26/17 A2992 RMK AO2 SLP121 CB DSNT SE TCU DSNT NE-SE 60012 T02610167 10289 20250 51014=
201907232252 METAR KATL 232252Z 35014KT 10SM FEW030 SCT200 27/18 A2990 RMK AO2 SLP115 CB DSNT NE-E TCU DSNT E-SE T02720178=
201907232152 METAR KATL 232152Z 33012G19KT 10SM BKN032 BKN250 27/19 A2989 RMK AO2 SLP113 CB DSNT NE E T02670189=
201907232052 METAR KATL 232052Z 33013G22KT 10SM BKN030 BKN150 BKN250 28/19 A2988 RMK AO2 PK WND 32026/2023 SLP106 CB DSNT SE-S 60012 T02780194 55005=
201907231952 METAR KATL 231952Z 32015KT 10SM FEW025 BKN040 BKN150 BKN250 28/21 A2987 RMK AO2 RAE1859 SLP104 CB DSNT SE-S-SW P0000 T02780206=
201907231852 METAR KATL 231852Z 33012KT 9SM R09R/3000VP6000FT -RA FEW012CB BKN030 BKN040 BKN150 BKN250 26/22 A2989 RMK AO2 RAB43 SLP111 VIS LWR E-SE-S SHRA CB E-SE-S MOV E FROPA P0012 T02560217=
201907231846 SPECI KATL 231846Z 33011G24KT 9SM R09R/3000VP6000FT -RA BKN030CB BKN040 OVC150 26/22 A2989 RMK AO2 RAB43 VIS LWR E-S-SW SHRA CB OHD-E-S-SW MOV E P0009=
201907231844 SPECI KATL 231844Z 34017G24KT 1 1/2SM R09R/3000VP6000FT RA BKN030CB BKN040 OVC150 27/21 A2989 RMK AO2 RAB43 CB OHD MOV E P0000 T02670211=
201907231752 METAR KATL 231752Z 30010KT 10SM SCT030 BKN050 BKN150 BKN250 27/20 A2990 RMK AO2 SLP112 CB DSNT E-SE-S T02720200 10278 20239 56011=
201907231715 SPECI KATL 231715Z 30008KT 10SM FEW020 BKN025 BKN040 BKN150 BKN250 27/21 A2990 RMK AO2 LTG DSNT SE CB DSNT E-SE-S T02670211=
201907231652 METAR KATL 231652Z 32011KT 10SM FEW020 BKN040 BKN150 BKN250 26/21 A2990 RMK AO2 LTG DSNT SE AND S SLP114 CB DSNT E-SE-S T02610206=
201907231552 METAR KATL 231552Z 33011KT 10SM FEW015CB BKN020 BKN030 BKN150 26/21 A2992 RMK AO2 LTG DSNT E-SW SLP121 TS DSIPT CB E-SE-S-SW MOV NE SHRA VC E-SE-S-SW T02610206=
201907231531 SPECI KATL 231531Z 31010KT 10SM SCT015CB BKN020 BKN030 BKN150 26/22 A2993 RMK AO2 LTG DSNT E-SW TSE13 TS DSIPT CB E-SE-S-SW MOV NE SHRA VC E-SE-S-SW T02610217=
201907231513 SPECI KATL 231513Z 29011KT 10SM VCTS FEW015CB BKN025TCU BKN045 OVC150 27/22 A2992 RMK AO2 TSE13 CB NE SE SW MOV NE TCU NE-SE OHD-W SHRA VC NE SE SW T02670217=
201907231452 METAR KATL 231452Z 28007KT 10SM SCT018TCU BKN025 BKN045 OVC150 27/22 A2993 RMK AO2 SLP124 CB DSNT S SW SHRA DSNT S SW DSNT W-N TCU E-SE-S-SW-W T02670217 51002=
201907231413 SPECI KATL 231413Z 27005KT 10SM FEW015 BKN025 BKN045 BKN150 BKN250 27/22 A2993 RMK AO2 T02670222=
201907231352 METAR KATL 231352Z 25006KT 10SM FEW012 BKN150 BKN180 BKN250 27/22 A2993 RMK AO2 SLP124 T02670222=
201907231252 METAR KATL 231252Z 27006KT 8SM SCT009 BKN110 BKN180 BKN250 25/22 A2993 RMK AO2 SLP122 SCT009 V BKN T02500222=
201907231241 SPECI KATL 231241Z 26004KT 10SM SCT009 BKN110 BKN180 BKN250 24/22 A2993 RMK AO2 T02440222=
201907231224 SPECI KATL 231224Z 24005KT 10SM BKN008 BKN100 BKN180 BKN250 24/22 A2993 RMK AO2 BKN008 V SCT T02440222=
201907231152 METAR KATL 231152Z 23003KT 10SM FEW006 SCT100 BKN150 BKN200 BKN250 24/22 A2992 RMK AO2 SLP121 60004 70004 T02390217 10250 20233 51002=
201907231052 METAR KATL 231052Z 26004KT 10SM FEW009 SCT035 BKN095 BKN180 BKN250 24/22 A2992 RMK AO2 SLP121 T02390217=
201907231024 SPECI KATL 231024Z 26004KT 10SM SCT009 SCT016 BKN050 BKN130 BKN180 23/22 A2992 RMK AO2 CB DSNT NE T02330217=
201907230952 METAR KATL 230952Z 22004KT 10SM SCT009 BKN022 BKN035 OVC180 24/22 A2993 RMK AO2 SLP121 CB DSNT W-N T02390217=
201907230934 SPECI KATL 230934Z 23004KT 10SM FEW009 BKN022 BKN030 BKN180 BKN250 23/22 A2992 RMK AO2 LTG DSNT W CB DSNT W-W T02330217=
201907230914 SPECI KATL 230914Z 22004KT 10SM FEW013 SCT022 SCT035 BKN130 BKN180 BKN250 23/22 A2992 RMK AO2 CB DSNT W-W T02330217=
201907230852 METAR KATL 230852Z 25005KT 10SM FEW045 SCT090 BKN180 BKN250 23/22 A2992 RMK AO2 SLP119 CB DSNT W-N 60004 T02330217 55006=
201907230752 METAR KATL 230752Z 22005KT 10SM FEW045 SCT065 BKN090 OVC250 24/22 A2992 RMK AO2 RAE20 SLP118 P0004 T02390217=
201907230652 METAR KATL 230652Z 22010KT 10SM -RA SCT070 BKN100 BKN250 25/21 A2992 RMK AO2 RAB52 SLP121 P0000 T02500211=
201907230552 METAR KATL 230552Z 21007KT 10SM FEW040 SCT060 BKN250 25/21 A2994 RMK AO2 SLP125 T02500211 10300 20250 58009=
201907230452 METAR KATL 230452Z 21007KT 10SM FEW038TCU SCT055 BKN250 26/21 A2995 RMK AO2 SLP131 TCU W T02610211 403280228=
201907230352 METAR KATL 230352Z 21005KT 10SM SCT045 BKN250 27/21 A2996 RMK AO2 SLP134 T02670206=
201907230252 METAR KATL 230252Z 19003KT 10SM SCT250 27/21 A2996 RMK AO2 SLP134 T02720206 53006=
201907230152 METAR KATL 230152Z 21005KT 10SM FEW050 SCT250 27/21 A2995 RMK AO2 SLP132 T02670206=
201907230052 METAR KATL 230052Z 20006KT 10SM FEW050 SCT250 29/20 A2995 RMK AO2 SLP129 TCU DSNT NE SE T02890200=
201907222352 METAR KATL 222352Z 20008KT 10SM FEW050TCU SCT250 30/20 A2994 RMK AO2 SLP128 TCU N DSNT E-SE T03000200 10328 20300 55004=
201907222252 METAR KATL 222252Z 20007KT 10SM FEW050 SCT250 31/19 A2994 RMK AO2 SLP126 CB DSNT E TCU DSNT SE-S T03060194=
201907222152 METAR KATL 222152Z 20009KT 10SM FEW050 BKN250 32/20 A2995 RMK AO2 SLP129 TCU DSNT E-S T03170200=
201907222052 METAR KATL 222052Z 22008KT 180V250 10SM FEW050TCU BKN250 32/21 A2996 RMK AO2 SLP132 TCU E & W T03220206 58020=
201907221952 METAR KATL 221952Z 27007KT 10SM FEW048TCU SCT150 BKN250 32/20 A2997 RMK AO2 SLP138 TCU E-SE T03220200=
201907221852 METAR KATL 221852Z 22010KT 10SM SCT044TCU SCT150 BKN250 32/20 A3001 RMK AO2 SLP148 TCU SE T03170200=
201907221752 METAR KATL 221752Z 24007KT 10SM FEW040TCU SCT150 BKN250 32/21 A3002 RMK AO2 SLP153 TCU NW-N T03170211 10317 20228 58015=
201907221652 METAR KATL 221652Z 27010KT 10SM SCT040TCU SCT060 BKN250 31/21 A3004 RMK AO2 SLP161 TCU E-SE SW-NW T03060211=
201907221552 METAR KATL 221552Z 25009KT 10SM FEW030TCU SCT100 SCT250 30/21 A3005 RMK AO2 SLP163 TCU E-SE-S T03000206=
201907221452 METAR KATL 221452Z 24008KT 10SM SCT030 SCT100 BKN250 29/21 A3006 RMK AO2 SLP168 MDT CU NE-SE-S NW T02890211 51001=
201907221352 METAR KATL 221352Z 23005KT 10SM FEW020 SCT100 BKN250 27/22 A3006 RMK AO2 SLP169 T02720217=
201907221252 METAR KATL 221252Z 22005KT 10SM FEW040 FEW150 SCT200 SCT250 25/22 A3007 RMK AO2 SLP171 T02500217=
201907221152 METAR KATL 221152Z 21006KT 10SM FEW040 SCT150 BKN200 BKN250 23/21 A3006 RMK AO2 SLP168 T02280211 10250 20228 53015=
201907221052 METAR KATL 221052Z 18004KT 10SM FEW041 FEW150 SCT200 BKN250 23/21 A3005 RMK AO2 SLP164 T02280206=
201907220952 METAR KATL 220952Z 19003KT 10SM FEW045 FEW200 BKN250 23/21 A3002 RMK AO2 SLP156 T02330211 $=
201907220852 METAR KATL 220852Z 19003KT 10SM FEW045 SCT200 BKN250 24/21 A3001 RMK AO2 SLP152 T02390211 55006 $=
201907220752 METAR KATL 220752Z 23004KT 10SM FEW045 FEW200 24/21 A3001 RMK AO2 SLP149 T02440206 $=
201907220652 METAR KATL 220652Z 21005KT 10SM FEW045 FEW200 FEW250 24/21 A3002 RMK AO2 SLP155 T02440206 $=
201907220552 METAR KATL 220552Z 23005KT 10SM FEW045 FEW200 FEW250 25/20 A3003 RMK AO2 SLP159 T02500200 10300 20250 58006 $=
201907220452 METAR KATL 220452Z 20006KT 10SM FEW050 FEW200 SCT250 26/20 A3005 RMK AO2 SLP163 T02560200 403170222 $=
201907220352 METAR KATL 220352Z 20004KT 10SM SCT050 SCT200 SCT250 27/20 A3005 RMK AO2 SLP164 T02670200 $=
201907220252 METAR KATL 220252Z 19005KT 10SM FEW200 SCT250 27/21 A3005 RMK AO2 SLP165 T02670206 53009 $=
201907220152 METAR KATL 220152Z 19005KT 10SM FEW140 SCT200 SCT250 28/21 A3003 RMK AO2 SLP159 T02780206 $=
201907220052 METAR KATL 220052Z 19005KT 10SM FEW028 FEW055 SCT200 SCT250 29/20 A3003 RMK AO2 SLP158 TCU DSNT W NW T02890200 $=
201907212352 METAR KATL 212352Z 21006KT 10SM FEW048 FEW060 SCT250 30/19 A3002 RMK AO2 SLP156 CB DSNT S TCU DSNT NE T03000194 10317 20294 55003 $=
201907212252 METAR KATL 212252Z 19008KT 10SM FEW046 FEW065 SCT250 31/19 A3002 RMK AO2 SLP155 CB DSNT N NE MDT CU SE-S T03110194 $=
201907212152 METAR KATL 212152Z 19007KT 10SM FEW046 SCT065 SCT250 31/19 A3002 RMK AO2 SLP155 T03110189 $=
201907212052 METAR KATL 212052Z 21004KT 10SM FEW045 FEW060 31/19 A3003 RMK AO2 SLP158 T03110194 58022 $=
201907211952 METAR KATL 211952Z 21007KT 10SM SCT044 31/21 A3006 RMK AO2 SLP167 T03110206 $=
201907211852 METAR KATL 211852Z 22007KT 10SM FEW040 FEW055 30/20 A3008 RMK AO2 SLP175 T03000200 $=
201907211752 METAR KATL 211752Z VRB06KT 10SM FEW038TCU SCT050 29/20 A3010 RMK AO2 SLP181 TCU W T02940200 10300 20222 58004 $=
201907211652 METAR KATL 211652Z VRB04KT 10SM SCT031TCU SCT046 28/21 A3011 RMK AO2 SLP186 TCU W T02780206 $=
201907211636 SPECI KATL 211636Z 26007KT 10SM SCT029 27/21 A3012 RMK AO2 T02720206 $=
201907211552 METAR KATL 211552Z 21006KT 10SM BKN027 BKN038 27/21 A3012 RMK AO2 SLP189 T02720206 $=
201907211452 METAR KATL 211452Z 24005KT 10SM SCT019 SCT200 27/21 A3011 RMK AO2 SLP185 T02720211 51006 $=
201907211352 METAR KATL 211352Z 26007KT 10SM SCT013 SCT150 25/21 A3011 RMK AO2 SLP185 T02500206 $=
201907211301 SPECI KATL 211301Z 24008KT 10SM FEW009 BKN011 23/21 A3011 RMK AO2 T02280206 $=
201907211252 METAR KATL 211252Z 25007KT 8SM BKN009 23/21 A3011 RMK AO2 SLP188 T02280206 $=
201907211239 SPECI KATL 211239Z 27008KT 7SM BKN009 BKN012 23/21 A3011 RMK AO2 T02280206 $=
201907211152 METAR KATL 211152Z 24005KT 2SM BR OVC005 23/21 A3009 RMK AO2 SFC VIS 6 SLP180 CIG 004V007 T02280211 10228 20222 50015 $=
201907211121 SPECI KATL 211121Z 27005KT 2SM BR OVC005 22/21 A3010 RMK AO2 SFC VIS 6 CIG 004V006 T02220206 $=
201907211052 METAR KATL 211052Z 25006KT 7SM OVC005 22/21 A3010 RMK AO2 SLP181 CIG 004V006 T02220206 $=
201907210952 METAR KATL 210952Z 24003KT 7SM BKN004 BKN200 22/21 A3007 RMK AO2 SLP171 BKN004 V SCT T02220206 $=
201907210852 METAR KATL 210852Z 28005KT 10SM SCT005 SCT120 BKN200 22/21 A3005 RMK AO2 SLP163 T02220206 55001 $=
201907210752 METAR KATL 210752Z 27004KT 10SM FEW005 SCT120 SCT200 23/21 A3003 RMK AO2 SLP158 T02280206 $=
201907210652 METAR KATL 210652Z 21004KT 10SM FEW005 FEW130 SCT200 23/21 A3004 RMK AO2 SLP162 T02280211 $=
201907210552 METAR KATL 210552Z 20005KT 10SM FEW005 FEW130 FEW200 SCT250 23/22 A3005 RMK AO2 SLP164 T02280217 10272 20228 58009 $=
201907210544 SPECI KATL 210544Z 21006KT 10SM FEW005 FEW130 FEW200 SCT250 23/22 A3005 RMK AO2 T02280217 $=
201907210452 METAR KATL 210452Z 24003KT 10SM FEW120 SCT200 SCT250 23/22 A3008 RMK AO2 SLP174 T02330217 403220222 $=
201907210352 METAR KATL 210352Z 00000KT 10SM FEW110 SCT200 BKN250 24/21 A3008 RMK AO2 SLP174 T02390211 $=
201907210252 METAR KATL 210252Z 00000KT 10SM FEW100 SCT200 BKN250 24/21 A3008 RMK AO2 SLP175 T02440211 51013 $=
201907210152 METAR KATL 210152Z 29008KT 10SM FEW020 SCT038 SCT085 BKN200 25/21 A3007 RMK AO2 LTG DSNT NE AND E SLP173 CB DSNT NE E T02500211 $=
201907210052 METAR KATL 210052Z 28008KT 10SM SCT038TCU BKN090 BKN200 BKN250 26/21 A3005 RMK AO2 LTG DSNT W SLP167 CB DSNT E W TCU NE-SE-SW SHRA E-S T02560211 $=
201907202352 METAR KATL 202352Z 29011KT 10SM FEW016 SCT038TCU SCT090 BKN200 27/22 A3004 RMK AO2 LTG DSNT NW-NE SLP161 CB DSNT NW-NE TCU SE-SW SHRA S SW T02720217 10322 20272 53005 $=
201907202252 METAR KATL 202252Z 20008KT 10SM FEW040TCU SCT085 BKN200 BKN250 29/22 A3001 RMK AO2 LTG DSNT W AND NW SLP152 TSB19E48 TS MOVD N CB DSNT SW-NW-NE TCU N-NE DSNT S SHRA DSNT NW-NE T02940217 $=
201907202250 SPECI KATL 202250Z 20007KT 10SM FEW040TCU SCT085 BKN200 BKN250 29/22 A3002 RMK AO2 LTG DSNT W AND NW TSB19E48 TS MOVD N CB DSNT SW-NW-NE TCU N-NE SHRA DSNT NW-NE $=
201907202222 SPECI KATL 202222Z 21009KT 10SM TS SCT040CB BKN080 BKN200 BKN250 29/21 A3002 RMK AO2 LTG DSNT NE AND NW TSB19 OCNL LTGICCG W TS W MOV N CB E W-NW MOV N CB DSNT ALQDS T02940211 $=
201907202152 METAR KATL 202152Z 20009KT 10SM SCT040TCU BKN080 BKN200 BKN250 30/21 A3002 RMK AO2 LTG DSNT NE SLP155 CB DSNT NE SW TCU ALQDS SHRA N-NE T03000211 $=
201907202052 METAR KATL 202052Z 23009KT 10SM SCT038TCU BKN045 BKN250 32/21 A3003 RMK AO2 SLP159 TCU ALQDS T03170211 55016 $=
201907201952 METAR KATL 201952Z 18008KT 10SM SCT034TCU SCT110 BKN250 31/22 A3002 RMK AO2 SLP156 TCU S MDT CU NW-N T03060217 $=
201907201852 METAR KATL 201852Z 29006KT 10SM SCT029TCU SCT070 BKN100 BKN250 31/22 A3006 RMK AO2 SLP169 TCU E-SW & DSNT NW T03110222 $=
201907201752 METAR KATL 201752Z 24005KT 10SM SCT028TCU SCT095 BKN130 BKN160 31/23 A3008 RMK AO2 SLP175 TCU ALQDS T03060228 10306 20228 58009 $=
201907201652 METAR KATL 201652Z 26005KT 10SM SCT025TCU SCT095 BKN110 29/22 A3010 RMK AO2 SLP182 TCU E-S AND DSNT N & NW T02890222 $=
201907201602 SPECI KATL 201602Z 00000KT 10SM SCT016 SCT040 SCT120 BKN250 27/22 A3011 RMK AO2 T02720222 $=
201907201552 METAR KATL 201552Z 27004KT 10SM BKN016 BKN040 BKN130 BKN250 27/22 A3011 RMK AO2 SLP186 T02720222 $=
201907201549 SPECI KATL 201549Z 00000KT 10SM BKN016 BKN040 BKN130 BKN250 27/22 A3011 RMK AO2 $=
201907201452 METAR KATL 201452Z 23005KT 10SM BKN011 BKN040 26/22 A3010 RMK AO2 SLP185 T02560217 58002 $=
201907201352 METAR KATL 201352Z 28007KT 10SM SCT007 BKN011 OVC033 26/22 A3012 RMK AO2 SLP188 BINOVC T02560217 $=
201907201304 SPECI KATL 201304Z 29006KT 8SM FEW007 BKN011CB BKN055 BKN220 24/22 A3011 RMK AO2 CB VC SW MOV SE T02440217 $=
201907201252 METAR KATL 201252Z 28006KT 7SM SCT006 SCT012 BKN055 BKN150 BKN220 24/21 A3011 RMK AO2 SLP188 TCU DSNT E & W T02390211 $=
201907201248 SPECI KATL 201248Z 29005KT 3SM SCT006 SCT012 BKN055 BKN150 BKN220 24/21 A3011 RMK AO2 SFC VIS 7 TCU DSNT E & W $=
201907201224 SPECI KATL 201224Z 28006KT 3SM BR BKN005 BKN034 OVC055 23/21 A3012 RMK AO2 SFC VIS 6 BKN005 V SCT CIG 004V006 TWRINC T02280211 $=
201907201152 METAR KATL 201152Z 26005KT 3SM SCT004 SCT034 BKN055 BKN220 23/21 A3011 RMK AO2 SFC VIS 7 SLP187 SCT004 V BKN CB DSNT NW TWRINC 70097 T02280211 10228 20222 53012 $=
201907201128 SPECI KATL 201128Z 24006KT 3SM SCT004 SCT034 BKN055 BKN220 22/21 A3010 RMK AO2 SFC VIS 7 SCT004 V BKN TWRINC T02220211 $=
201907201052 METAR KATL 201052Z 23006KT 1/2SM R09R/P6000FT BR BKN003 BKN034 BKN200 22/21 A3009 RMK AO2 SFC VIS 5 SLP180 VIS SE-SW 1 CIG 002V005 BKN003 V SCT TWRINC T02220206 $=
201907201045 SPECI KATL 201045Z 23005KT 1/2SM R09R/P6000FT BR BKN002 BKN034 BKN200 22/21 A3009 RMK AO2 SFC VIS 5 VIS SE-SW 1 BKN002 V SCT TWRINC T02220206 $=
201907201042 SPECI KATL 201042Z 24005KT 6SM BR BKN002 BKN034 BKN200 22/21 A3009 RMK AO2 VIS SE-SW 1 1/2 BKN002 V SCT T02220206 $=
201907200952 METAR KATL 200952Z 21005KT 10SM FEW003 SCT055 BKN200 22/21 A3007 RMK AO2 SLP173 VIS LWR SE-SW T02220206 $=
201907200935 SPECI KATL 200935Z 23003KT 7SM SCT003 BKN055 BKN200 22/21 A3007 RMK AO2 VIS SE-SW 1 SCT003 V BKN T02220206 $=
201907200852 METAR KATL 200852Z 20004KT 8SM FEW005 SCT055 BKN200 22/21 A3007 RMK AO2 SLP174 T02220206 53008 $=
201907200752 METAR KATL 200752Z 00000KT 8SM FEW005 SCT200 23/21 A3007 RMK AO2 SLP172 T02280211 $=
201907200748 SPECI KATL 200748Z 00000KT 8SM FEW004 SCT200 23/21 A3007 RMK AO2 $=
201907200652 METAR KATL 200652Z 26004KT 7SM BKN004 23/21 A3005 RMK AO2 SLP166 CIG 003V005 BKN004 V SCT T02280211 $=
201907200552 METAR KATL 200552Z 28007KT 10SM SCT007 SCT200 23/21 A3005 RMK AO2 SLP165 60000 T02280211 10250 20228 58024 $=
201907200545 SPECI KATL 200545Z 28008KT 10SM SCT008 SCT200 23/21 A3005 RMK AO2 T02280211 $=
201907200452 METAR KATL 200452Z 24006KT 10SM BKN008 BKN200 23/21 A3008 RMK AO2 SLP174 T02330211 403220233 $=
201907200352 METAR KATL 200352Z 23005KT 10SM BKN008 BKN080 BKN200 23/22 A3011 RMK AO2 SLP184 T02330217 $=
201907200252 METAR KATL 200252Z COR 19006KT 10SM BKN006 BKN070 BKN200 23/22 A3012 RMK AO2 SLP190 60000 T02330217 53017 $=
201907200152 METAR KATL 200152Z 23005KT 10SM FEW007 SCT110 BKN200 BKN250 24/22 A3010 RMK AO2 RAE33 SLP183 P0000 T02390217 $=
201907200120 SPECI KATL 200120Z 21009KT 10SM -RA SCT007 BKN070 BKN110 BKN200 24/22 A3008 RMK AO2 SCT007 V BKN P0000 T02390222 $=
201907200108 SPECI KATL 200108Z 10SM -RA BKN007 BKN110 BKN200 24/22 A3009 RMK AO2 P0000 T02440222=
201907200052 METAR KATL 200052Z 21007KT 10SM -RA FEW008 SCT110 BKN150 BKN250 24/22 A3009 RMK AO2 RAB47 SLP179 P0000 T02440222=
201907192352 METAR KATL 192352Z 21005KT 10SM FEW100 SCT140 BKN200 BKN250 25/22 A3007 RMK AO2 SLP173 SHRA NE-SE 60097 T02500217 10311 20239 55007=
201907192252 METAR KATL 192252Z 23003KT 10SM FEW010 SCT140 BKN200 BKN250 26/22 A3007 RMK AO2 SLP171 T02610222=
201907192152 METAR KATL 192152Z 28007KT 10SM FEW110 SCT150 BKN200 BKN250 25/22 A3006 RMK AO2 SLP169 T02500217=
201907192052 METAR KATL 192052Z 27006KT 10SM FEW007 SCT110 BKN150 BKN250 24/22 A3009 RMK AO2 RAE01 SLP182 VIRGA E-S-SW CB DSNT NE P0000 60097 T02390217 50003=
201907191952 METAR KATL 191952Z 28006KT 10SM -RA FEW010 SCT060 BKN080 BKN150 BKN250 24/22 A3010 RMK AO2 LTG DSNT NE-SE TSE28 SLP185 TS MOV E CB DSNT NE-SE P0027 T02390217=
201907191944 SPECI KATL 191944Z 28008KT 10SM RA FEW010 BKN060 BKN080 BKN150 BKN250 24/22 A3011 RMK AO2 LTG DSNT NE-SE TSE28 TS MOV E CB DSNT NE-SE P0027 T02390222=
201907191930 SPECI KATL 191930Z 29007KT 2SM VCTS RA BR FEW010CB BKN050 OVC070 24/22 A3012 RMK AO2 SFC VIS 4 LTG DSNT NE-SE TSE28 OCNL LTGICCG VC E TS VC E MOV E CB E MOV E P0025 T02440222=
201907191913 SPECI KATL 191913Z 29006KT 2SM R09R/4500VP6000FT TSRA BR FEW010CB BKN040 OVC070 24/22 A3013 RMK AO2 SFC VIS 4 LTG DSNT E OCNL LTGICCG OHD-E TS OHD-E MOV E CB OHD-E MOV E P0013 T02440222=
201907191857 SPECI KATL 191857Z 29007KT 1SM R09R/4500VP6000FT +TSRA FEW010CB BKN030 OVC040 24/22 A3013 RMK AO2 SFC VIS 3 LTG DSNT E FRQ LTGICCG OHD-N-E-SW TS OHD-N-E-SW MOV E CB OHD-N-E-SW MOV E P0005 T02440217=
201907191852 METAR KATL 191852Z 27006KT 1SM R09R/4500VP6000FT +TSRA SCT015CB BKN020 OVC030 24/22 A3014 RMK AO2 SFC VIS 3 RAB21 TSB22 SLP196 FRQ LTGICCG OHD-N-E TS OHD-N-E MOV E CB OHD-N-E MOV E P0070 T02440217=
201907191833 SPECI KATL 191833Z 23012G19KT 1SM R09R/4500VP6000FT +TSRA BKN016CB BKN020TCU OVC030 25/21 A3012 RMK AO2 LTG DSNT SE AND SW RAB21 TSB22 FRQ LTGICCG OHD ALQDS TS OHD ALQDS MOV E CB OHD ALQDS MOV E TCU OHD ALQDS P0022 T02500211=
201907191828 SPECI KATL 191828Z 23013G24KT 1SM R09R/4500VP6000FT +TSRA BKN016CB BKN030TCU BKN150 BKN250 26/22 A3012 RMK AO2 SFC VIS 2 LTG DSNT SE-SW RAB21 TSB22 PRESRR FRQ LTGICCG OHD TS OHD MOV E CB OHD MOV E TCU OHD ALQDS P0007 T02560217=
201907191809 SPECI KATL 191809Z 27011KT 10SM VCTS SCT030CB BKN040TCU BKN150 BKN250 29/23 A3009 RMK AO2 LTG DSNT ALQDS OCNL LTGICCG NE SW NW TS VC NE SW NW MOV E CB NE SW NW DSNT SE MOV E TCU OHD ALQDS SHRA VC NE SW NW T02890228=
201907191803 SPECI KATL 191803Z 26011KT 10SM VCTS FEW030CB BKN040TCU BKN150 BKN250 31/22 A3009 RMK AO2 LTG DSNT ALQDS OCNL LTGICCG NW TS VC NW MOV E CB DSNT NW DSNT SE-SW-NW MOV E TCU OHD ALQDS SHRA VC NE NW T03060222=
201907191752 METAR KATL 191752Z 00000KT 10SM BKN030TCU BKN140 BKN250 31/22 A3009 RMK AO2 LTG DSNT ALQDS SLP176 CB DSNT SE-SW-NW TCU OHD ALQDS SHRA DSNT SE-SW-NW 60000 T03110222 10322 20244 58017=
201907191652 METAR KATL 191652Z VRB04KT 10SM FEW030TCU FEW050 SCT140 SCT250 31/23 A3011 RMK AO2 LTG DSNT SE-W SLP183 CB DSNT SE-S-SW-W-NW TCU NE DSNT N T03110233=
201907191552 METAR KATL 191552Z 31004KT 10SM FEW020 BKN050 BKN140 BKN250 28/23 A3013 RMK AO2 SLP193 TCU DSNT S ACC N E T02830228=
201907191452 METAR KATL 191452Z 31005KT 10SM FEW050 SCT100 BKN130 BKN200 27/23 A3014 RMK AO2 SLP194 60000 T02720228 50014=
201907191352 METAR KATL 191352Z 27005KT 10SM FEW040 SCT060 BKN100 BKN150 BKN200 27/23 A3014 RMK AO2 RAB10E47 SLP195 ACC N P0000 T02670228=
201907191252 METAR KATL 191252Z 00000KT 10SM FEW075 SCT120 BKN150 OVC200 26/22 A3012 RMK AO2 SLP188 ACC OHD-ALQDS T02560217=
201907191152 METAR KATL 191152Z 27005KT 10SM FEW070 FEW110 BKN150 BKN200 25/22 A3010 RMK AO2 SLP180 ACC SE SW NW 70007 T02500217 10256 20244 53016=
201907191052 METAR KATL 191052Z 28005KT 10SM FEW110 BKN150 BKN200 BKN250 24/22 A3007 RMK AO2 SLP173 ACC N S DSNT NE T02440217=
201907190952 METAR KATL 190952Z 28007KT 10SM BKN150 BKN200 BKN250 24/22 A3006 RMK AO2 SLP168 T02440217=
201907190852 METAR KATL 190852Z 25006KT 10SM BKN160 BKN200 BKN250 24/22 A3005 RMK AO2 SLP165 T02440217 56006=
201907190752 METAR KATL 190752Z 28005KT 10SM FEW004 SCT150 BKN200 BKN250 24/22 A3005 RMK AO2 SLP166 T02440222=
201907190652 METAR KATL 190652Z 23007KT 10SM BKN150 BKN200 BKN250 25/23 A3005 RMK AO2 SLP165 T02500228=
201907190552 METAR KATL 190552Z 00000KT 10SM BKN150 BKN200 BKN250 25/23 A3007 RMK AO2 SLP169 T02500228 10272 20250 58005=
201907190452 METAR KATL 190452Z 00000KT 10SM BKN140 BKN200 OVC250 26/23 A3008 RMK AO2 SLP173 T02560228 403280233=
201907190352 METAR KATL 190352Z 23003KT 10SM SCT140 BKN200 OVC250 26/23 A3008 RMK AO2 SLP174 T02560233=
201907190252 METAR KATL 190252Z 23004KT 10SM BKN130 BKN200 OVC250 26/23 A3008 RMK AO2 SLP175 T02560233 51011=
201907190152 METAR KATL 190152Z 22004KT 10SM BKN120 BKN200 OVC250 26/23 A3008 RMK AO2 SLP174 T02610233=
201907190052 METAR KATL 190052Z 20004KT 10SM SCT140 BKN200 OVC250 27/23 A3006 RMK AO2 SLP167 T02670228=
201907182352 METAR KATL 182352Z 26003KT 10SM FEW110 SCT150 BKN200 BKN250 27/22 A3005 RMK AO2 SLP166 60007 T02670222 10311 20244 55008=
201907182252 METAR KATL 182252Z 30008KT 10SM FEW110 BKN150 BKN200 28/22 A3005 RMK AO2 SLP163 T02780222=
201907182152 METAR KATL 182152Z 24007KT 10SM FEW110 BKN150 OVC200 27/22 A3006 RMK AO2 RAB02E30 SLP169 P0000 T02670222=
201907182052 METAR KATL 182052Z 00000KT 10SM FEW080 SCT110 BKN140 OVC250 26/23 A3007 RMK AO2 RAE27 SLP174 CB DSNT N SHRA DSNT NW-N P0001 60007 T02560228 58002=
201907181952 METAR KATL 181952Z 31006KT 10SM -RA FEW020 SCT080 BKN110 BKN250 25/21 A3007 RMK AO2 LTG DSNT ALQDS RAB01E23B39 TSE21 SLP175 CB DSNT E NW P0002 T02500211=
201907181936 SPECI KATL 181936Z 31011KT 10SM FEW015CB SCT080 BKN110 OVC250 24/21 A3007 RMK AO2 LTG DSNT NW-E RAB01E23 TSE21 TS DSIPT CB NE-E NW DSNT NW MOV SE SHRA VC NE-E NW P0002 T02440211=
201907181933 SPECI KATL 181933Z 31012KT 10SM VCTS FEW015CB SCT080 BKN110 OVC250 24/21 A3008 RMK AO2 LTG DSNT NW-E RAB01E23 TSE21 OCNL LTGICCG NE-E W-NW TS VC NE-E W-NW MOV SE SHRA VC NE-E W-NW P0002 T02440211=
201907181921 SPECI KATL 181921Z 33012KT 6SM VCTS -RA FEW015CB SCT080 OVC110 24/21 A3009 RMK AO2 LTG DSNT NW-E RAB01 TSE21 OCNL LTGICCG NE NW TS VC NE NW MOV SE P0002 T02440211=
201907181912 SPECI KATL 181912Z 31013KT 6SM -TSRA FEW015CB BKN080 OVC110 24/21 A3009 RMK AO2 LTG DSNT ALQDS RAB01 OCNL LTGICCG OHD-NW-N-NE TS OHD-NW-N-NE P0002 T02440211=
201907181905 SPECI KATL 181905Z 30012KT 3SM TSRA SCT020CB BKN080 OVC120 24/21 A3009 RMK AO2 LTG DSNT ALQDS RAB01 FRQ LTGICCG OHD-N-NE SW-NW TS OHD-N-NE SW-NW P0001 T02440211=
201907181852 METAR KATL 181852Z 27011G17KT 8SM TS FEW020CB SCT070 BKN100 BKN250 27/22 A3009 RMK AO2 PK WND 22028/1836 LTG DSNT E AND W AND NW RAB01E17 TSB1757E20B21E36B49 SLP180 FRQ LTGICCG N-NE SW-NW TS N-NE SW-NW MOV SE P0004 T02670217=
201907181842 SPECI KATL 181842Z 24016G28KT 9SM VCTS FEW040CB SCT070 BKN100 BKN250 27/22 A3010 RMK AO2 PK WND 22028/1836 LTG DSNT E AND W RAB01E17 TSB1757E20B21E36 OCNL LTGICCG ALQDS TS VC ALQDS MOV SE SHRA VC ALQDS P0004 T02670222=
201907181836 SPECI KATL 181836Z 22018G28KT 9SM VCTS FEW040CB SCT070 BKN100 BKN250 27/23 A3009 RMK AO2 PK WND 22028/1836 LTG DSNT E AND S AND W RAB01E17 TSB1757E20B21E36 OCNL LTGICCG N-NE SE-SW-W TS VC N-NE SE-SW-W MOV SE SHRA VC N-NE SE-SW-W P=
201907181818 SPECI KATL 181818Z 23008KT 9SM TS FEW040CB SCT050TCU BKN070 BKN250 26/21 A3009 RMK AO2 LTG DSNT SE-W RAB01E17 TSB1757 VIS LWR S SHRA OCNL LTGICCG S TS S MOV SE CB S DSNT NE SE SW-W MOV SE TCU N-NE-E P0004 T02610206=
201907181810 SPECI KATL 181810Z 23010G20KT 9SM -TSRA SCT040CB BKN050 BKN070 BKN250 26/22 A3009 RMK AO2 LTG DSNT SE-W RAB01 TSB1757 VIS LWR SE SW-W SHRA OCNL LTGICCG SE SW-W TS SE SW-W MOV SE CB SE SW-W DSNT NE MOV SE P0004 T02560217=
201907181800 SPECI KATL 181800Z 25014G22KT 5SM TS HZ SCT040CB BKN050 BKN080 BKN250 28/22 A3009 RMK AO2 LTG DSNT SE-W TSB1757 OCNL LTGICCG SE-S W TS SE-S W MOV SE CB SE-S W DSNT NE MOV SE SHRA SE-S W DSNT NE T02830222=
201907181752 METAR KATL 181752Z 25010G16KT 10SM VCTS FEW040CB SCT050TCU SCT080 BKN250 31/22 A3008 RMK AO2 LTG DSNT SE-SW SLP174 OCNL LTGICCG SE-S W TS VC SE-S W MOV SE CB SE-S-SW-W MOV SE TCU NE SHRA VC SE-S-SW-W T03110217 10328 20239 58008=
201907181729 SPECI KATL 181729Z 27007KT 10SM VCTS FEW035CB SCT045TCU SCT080 BKN250 31/23 A3008 RMK AO2 LTG DSNT SE-SW OCNL LTGICCG SE-SW TS VC SE-SW MOV SE TCU N-NE W-NW SHRA VC SE-SW T03060228=
201907181652 METAR KATL 181652Z 31009G14KT 250V350 10SM FEW030CB BKN040TCU BKN080 BKN250 32/23 A3009 RMK AO2 LTG DSNT SW SLP179 CB W DSNT SE-SW-NW MOV SE TCU N-NE OHD-W SHRA VC W DSNT SE-SW-NW T03220228=
201907181552 METAR KATL 181552Z 28010KT 10SM FEW035 FEW150 SCT250 31/23 A3010 RMK AO2 SLP182 TCU DSNT SW-NW T03110228=
201907181452 METAR KATL 181452Z 29008KT 10SM FEW030 FEW150 BKN250 29/23 A3011 RMK AO2 SLP184 T02940228 51006=
201907181352 METAR KATL 181352Z 29009KT 10SM FEW150 FEW200 BKN250 28/23 A3011 RMK AO2 SLP184 T02780228=
201907181252 METAR KATL 181252Z 27004KT 10SM FEW150 BKN200 BKN250 27/22 A3009 RMK AO2 SLP178 T02670222=
201907181152 METAR KATL 181152Z 20003KT 10SM FEW150 BKN200 BKN250 24/22 A3009 RMK AO2 SLP179 70024 T02390217 10244 20233 53008=
201907181052 METAR KATL 181052Z 23005KT 10SM FEW150 SCT200 BKN250 24/21 A3007 RMK AO2 SLP174 T02390211=
201907180952 METAR KATL 180952Z 28004KT 10SM FEW150 SCT200 SCT250 23/21 A3006 RMK AO2 SLP171 T02330211=
201907180852 METAR KATL 180852Z 28005KT 10SM FEW150 FEW250 24/21 A3006 RMK AO2 SLP170 T02390206 56012=
201907180752 METAR KATL 180752Z 30007KT 10SM FEW150 FEW200 SCT250 24/21 A3007 RMK AO2 SLP173 T02390206 $=
201907180652 METAR KATL 180652Z 27004KT 10SM FEW150 FEW200 SCT250 24/21 A3007 RMK AO2 SLP172 T02390211=
201907180552 METAR KATL 180552Z 27004KT 10SM FEW150 SCT200 SCT250 24/21 A3010 RMK AO2 SLP179 T02440211 10261 20239 58003=
201907180452 METAR KATL 180452Z 28004KT 10SM FEW200 SCT250 24/22 A3010 RMK AO2 SLP182 T02390217 403440239=
201907180352 METAR KATL 180352Z 28004KT 10SM FEW200 SCT250 24/21 A3012 RMK AO2 SLP186 T02440211=
201907180252 METAR KATL 180252Z 28005KT 10SM SCT200 BKN250 25/21 A3011 RMK AO2 SLP183 T02500211 53010=
201907180152 METAR KATL 180152Z 00000KT 10SM FEW150 SCT200 BKN250 26/22 A3009 RMK AO2 SLP179 T02560217=
201907180052 METAR KATL 180052Z 21005KT 10SM FEW150 SCT200 BKN250 26/22 A3009 RMK AO2 SLP177 T02560217=
201907172352 METAR KATL 172352Z 24006KT 10SM FEW150 BKN200 BKN250 26/21 A3008 RMK AO2 SLP174 60024 T02610211 10344 20239 56012=
201907172252 METAR KATL 172252Z 26005KT 10SM FEW150 BKN200 BKN250 26/22 A3009 RMK AO2 SLP178 T02610222=
201907172152 METAR KATL 172152Z 30008KT 10SM FEW110 SCT150 BKN200 BKN250 26/22 A3010 RMK AO2 RAE2053 SLP182 P0000 T02610217=
201907172052 METAR KATL 172052Z 32009KT 10SM -RA FEW015 FEW050 SCT110 BKN150CB BKN200 26/22 A3011 RMK AO2 LTG DSNT NE AND E RAE31B43 TSE19 SLP188 TS MOV NE CBMAM OHD-S CB DSNT NE SE SW P0000 60024 T02610222 56003=
201907172031 SPECI KATL 172031Z 29006KT 10SM FEW015 FEW080 SCT110 BKN150CB BKN250 25/22 A3013 RMK AO2 LTG DSNT NE AND E RAE31 TSE19 TS MOV NE CBMAM OHD-S CB DSNT NE-E TCU DSNT S P0000 T02500222=
201907172019 SPECI KATL 172019Z 31003KT 10SM VCTS -RA FEW025CB SCT080 BKN110 OVC150 26/22 A3013 RMK AO2 LTG DSNT NE AND E AND W TSE19 OCNL LTGICCG NE-E TS VC NE-E MOV NE P0000 T02560222=
201907172010 SPECI KATL 172010Z 33003KT 10SM -TSRA FEW025CB SCT085 BKN110 OVC150 25/22 A3013 RMK AO2 LTG DSNT NE AND E OCNL LTGICCG NE-SE TS NE-SE MOV NE P0000 T02500217=
201907171956 SPECI KATL 171956Z 30006KT 6SM R09R/4500VP6000FT -TSRA SCT020CB BKN030 OVC050 24/22 A3014 RMK AO2 LTG DSNT N-E FRQ LTGICCG OHD-NE-SE-S TS OHD-NE-SE-S MOV NE P0000 T02440217=
201907171952 METAR KATL 171952Z 27009KT 2SM R09R/4000VP6000FT +TSRA BKN020CB BKN030 OVC050 24/21 A3014 RMK AO2 PK WND 28041/1927 LTG DSNT N-E RAB25 TSB25 SLP195 FRQ LTGICCG OHD ALQDS TS OHD ALQDS MOV NE P0024 T02440211=
201907171949 SPECI KATL 171949Z 28008KT 1SM R09R/4000VP6000FT +TSRA SCT020CB BKN030 OVC050 24/21 A3015 RMK AO2 PK WND 28041/1927 LTG DSNT ALQDS RAB25 TSB25 FRQ LTGICCG OHD ALQDS TS OHD ALQDS MOV NE P0023=
201907171939 SPECI KATL 171939Z VRB05G20KT 6SM R09R/4000VP6000FT -TSRA SCT030CB BKN050 OVC150 24/21 A3013 RMK AO2 PK WND 28041/1927 LTG DSNT SW-N RAB25 TSB25 FRQ LTGICCG OHD ALQDS TS OHD ALQDS MOV NE P0018 T02440206=
201907171934 SPECI KATL 171934Z 20013G41KT 1SM R09R/4000VP6000FT +TSRA BKN030CB BKN050 OVC150 24/21 A3013 RMK AO2 PK WND 28041/1927 LTG DSNT SW-N RAB25 TSB25 PRESRR OCNL LTGICCG OHD TS OHD MOV NE P0012 T02390206=
201907171932 SPECI KATL 171932Z 22011G41KT 4SM R09R/4000VP6000FT TSRA BKN030CB BKN050 OVC150 24/20 A3011 RMK AO2 PK WND 28041/1927 LTG DSNT SW-N RAB25 TSB25 PRESRR OCNL LTGICCG OHD TS OHD MOV NE P0007 T02440200=
201907171927 SPECI KATL 171927Z 27030G41KT 6SM R09R/6000VP6000FT -TSRA BKN050CB BKN150 BKN250 29/21 A3009 RMK AO2 PK WND 28041/1927 LTG DSNT SW-N RAB25 TSB25 VIS LWR SW-NW SHRA OCNL LTGICCG OHD-SW-NW TC OHD-SW-NW MOV NE P0000 T02890206=
201907171911 SPECI KATL 171911Z 22008KT 10SM VCTS BKN055CB BKN150 BKN250 33/19 A3009 RMK AO2 LTG DSNT SW-N OCNL LTGICCG SW-NW TC VC SW-NW MOV NE SHRA VC SW-NW T03330194=
201907171852 METAR KATL 171852Z 23008KT 10SM SCT050 SCT150 BKN250 34/19 A3010 RMK AO2 LTG DSNT W-N SLP180 CB DSNT W-NW-N T03390194=
201907171752 METAR KATL 171752Z 26011KT 10SM SCT050 SCT200 BKN250 34/19 A3012 RMK AO2 SLP187 CB DSNT W-NW-N T03390194 10344 20256 58010=
201907171652 METAR KATL 171652Z 28012G18KT 10SM FEW045 FEW200 BKN250 33/21 A3014 RMK AO2 SLP193 CB DSNT NW-N T03330206=
201907171552 METAR KATL 171552Z 24008KT 10SM FEW040 FEW200 BKN250 32/21 A3015 RMK AO2 SLP198 T03170206=
201907171452 METAR KATL 171452Z 28011G18KT 10SM FEW040 FEW200 SCT250 31/21 A3015 RMK AO2 SLP198 T03060211 51011=
201907171352 METAR KATL 171352Z 27011KT 10SM FEW030 FEW150 SCT250 29/22 A3015 RMK AO2 SLP198 T02940217=
201907171252 METAR KATL 171252Z 27007KT 10SM FEW250 28/22 A3014 RMK AO2 SLP193 T02830222=
201907171152 METAR KATL 171152Z 25007KT 10SM FEW250 26/21 A3012 RMK AO2 SLP188 T02560211 10261 20244 53005=
201907171052 METAR KATL 171052Z 25004KT 10SM FEW250 24/21 A3011 RMK AO2 SLP184 T02440211=
201907170952 METAR KATL 170952Z 23006KT 10SM FEW250 24/21 A3011 RMK AO2 SLP183 T02440211=
201907170852 METAR KATL 170852Z 23005KT 10SM FEW250 25/21 A3011 RMK AO2 SLP182 T02500211 55004=
201907170752 METAR KATL 170752Z 23005KT 10SM FEW250 25/21 A3010 RMK AO2 SLP181 T02500211=
201907170652 METAR KATL 170652Z 22005KT 10SM FEW250 26/21 A3011 RMK AO2 SLP184 T02560211=
201907170552 METAR KATL 170552Z 20008KT 10SM FEW250 26/21 A3012 RMK AO2 SLP186 T02610211 10317 20261 58007=
201907170452 METAR KATL 170452Z 22004KT 10SM FEW250 27/21 A3012 RMK AO2 SLP187 T02720211 403440250=
201907170352 METAR KATL 170352Z 22004KT 10SM FEW250 28/21 A3014 RMK AO2 SLP193 T02780206=
201907170252 METAR KATL 170252Z 21004KT 10SM FEW200 SCT250 29/21 A3014 RMK AO2 SLP193 T02890206 53014=
201907170152 METAR KATL 170152Z 22003KT 10SM SCT250 29/21 A3012 RMK AO2 SLP186 T02940206=
201907170052 METAR KATL 170052Z 22004KT 10SM SCT250 31/19 A3011 RMK AO2 SLP183 T03060194=
201907162352 METAR KATL 162352Z 23006KT 10SM FEW060 SCT250 32/19 A3010 RMK AO2 SLP179 MDT CU SE T03220194 10344 20322 55008=
201907162252 METAR KATL 162252Z 19010KT 10SM FEW060 SCT250 33/19 A3009 RMK AO2 SLP179 TCU DSNT S T03280189=
201907162152 METAR KATL 162152Z 21009KT 10SM FEW060 SCT250 34/18 A3011 RMK AO2 SLP182 TCU DSNT SW T03390183=
201907162052 METAR KATL 162052Z 23012G19KT 10SM FEW060 SCT250 34/19 A3012 RMK AO2 SLP187 MDT CU N SE T03390189 56016=
201907161952 METAR KATL 161952Z 21010G21KT 170V240 10SM FEW055 FEW250 34/19 A3014 RMK AO2 SLP192 T03440194=
201907161852 METAR KATL 161852Z 22010G15KT 10SM SCT060 SCT250 34/19 A3015 RMK AO2 SLP197 T03390189=
201907161752 METAR KATL 161752Z 21011KT 10SM FEW060 FEW250 34/18 A3017 RMK AO2 SLP203 T03390183 10339 20256 58005=
201907161652 METAR KATL 161652Z 24006KT 10SM FEW050 FEW250 33/19 A3018 RMK AO2 SLP206 T03280194 $=
201907161552 METAR KATL 161552Z 20009KT 10SM FEW040 FEW150 FEW250 32/21 A3018 RMK AO2 SLP208 T03170206 $=
201907161452 METAR KATL 161452Z 00000KT 10SM FEW030 FEW150 SCT250 31/21 A3018 RMK AO2 SLP208 T03060211 51006 $=
201907161352 METAR KATL 161352Z 25005KT 10SM FEW150 FEW250 29/22 A3018 RMK AO2 SLP207 T02890217 $=
201907161252 METAR KATL 161252Z 26005KT 10SM FEW150 SCT250 27/22 A3018 RMK AO2 SLP209 T02720217 $=
201907161152 METAR KATL 161152Z 24004KT 10SM FEW150 SCT250 26/21 A3017 RMK AO2 SLP203 T02560211 10267 20250 51012 $=
201907161052 METAR KATL 161052Z VRB04KT 10SM FEW150 SCT250 25/20 A3016 RMK AO2 SLP200 T02500200=
201907160952 METAR KATL 160952Z 00000KT 10SM SCT150 SCT250 25/20 A3014 RMK AO2 SLP194 T02500200=
201907160852 METAR KATL 160852Z 24003KT 10SM FEW150 BKN250 25/20 A3013 RMK AO2 SLP189 T02500200 55001=
201907160752 METAR KATL 160752Z 00000KT 10SM SCT150 BKN250 26/20 A3012 RMK AO2 SLP187 T02610200=
201907160652 METAR KATL 160652Z 23003KT 10SM SCT150 BKN250 27/20 A3013 RMK AO2 SLP189 T02670200=
201907160552 METAR KATL 160552Z 22003KT 10SM FEW150 BKN250 26/21 A3013 RMK AO2 SLP191 T02610211 10317 20261 58002=
201907160452 METAR KATL 160452Z 22004KT 10SM FEW150 BKN250 26/21 A3014 RMK AO2 SLP192 T02610211 403440239=
201907160352 METAR KATL 160352Z 21004KT 10SM FEW150 BKN200 BKN250 27/21 A3015 RMK AO2 SLP196 T02720211=
201907160252 METAR KATL 160252Z 20003KT 10SM SCT150 BKN250 28/20 A3014 RMK AO2 SLP193 T02780200 51008=
201907160152 METAR KATL 160152Z 24006KT 10SM FEW150 BKN250 30/19 A3013 RMK AO2 SLP191 T03000194=
201907160052 METAR KATL 160052Z 22005KT 10SM FEW060 FEW150 SCT250 31/18 A3013 RMK AO2 SLP191 TCU DSNT NW T03060183=
201907152352 METAR KATL 152352Z 21007KT 10SM FEW060 FEW150 BKN250 32/19 A3012 RMK AO2 SLP186 TCU DSNT NE SW T03170189 10344 20317 55003=
201907152252 METAR KATL 152252Z 24007KT 10SM FEW065 FEW200 BKN250 33/18 A3010 RMK AO2 SLP181 T03280183=
201907152152 METAR KATL 152152Z 24008KT 10SM FEW065 SCT200 BKN250 33/18 A3011 RMK AO2 SLP183 T03330178=
201907152052 METAR KATL 152052Z 22008G17KT 10SM SCT060 SCT150 BKN250 34/19 A3012 RMK AO2 SLP188 MDT CU OHD-ALQDS T03390194 56014=
201907151952 METAR KATL 151952Z 21008KT 180V270 10SM FEW060 FEW150 BKN250 33/19 A3014 RMK AO2 SLP193 T03330189=
201907151852 METAR KATL 151852Z 20008G16KT 10SM FEW060 SCT150 BKN250 33/19 A3015 RMK AO2 SLP196 T03330189=
201907151752 METAR KATL 151752Z 22011KT 10SM FEW060 FEW150 BKN250 33/18 A3017 RMK AO2 SLP202 T03330183 10339 20244 58003=
201907151652 METAR KATL 151652Z 22008KT 10SM FEW065 FEW150 BKN250 33/17 A3017 RMK AO2 SLP204 T03330167=
201907151552 METAR KATL 151552Z 20008KT 10SM FEW060 FEW150 SCT250 32/17 A3018 RMK AO2 SLP207 T03220167=
201907151452 METAR KATL 151452Z 24006KT 10SM FEW150 FEW200 SCT250 31/18 A3018 RMK AO2 SLP206 T03110178 53008=
201907151352 METAR KATL 151352Z 24004KT 10SM BKN150 BKN200 BKN250 30/18 A3017 RMK AO2 SLP203 T03000178=
201907151252 METAR KATL 151252Z 00000KT 10SM FEW150 SCT200 BKN250 27/21 A3016 RMK AO2 SLP201 T02720206=
201907151152 METAR KATL 151152Z 31003KT 10SM FEW150 SCT200 BKN250 25/20 A3015 RMK AO2 SLP199 T02500200 10256 20239 53003=
201907151052 METAR KATL 151052Z VRB04KT 10SM FEW150 BKN200 BKN250 24/19 A3015 RMK AO2 SLP197 T02390194=
201907150952 METAR KATL 150952Z 00000KT 10SM FEW150 BKN200 BKN250 24/19 A3014 RMK AO2 SLP196 T02390194=
201907150852 METAR KATL 150852Z 33005KT 10SM FEW150 FEW250 24/19 A3014 RMK AO2 SLP195 T02440194 55004=
201907150752 METAR KATL 150752Z 29005KT 10SM FEW150 SCT200 SCT250 24/19 A3013 RMK AO2 SLP191 T02440194=
201907150652 METAR KATL 150652Z 33004KT 10SM FEW150 BKN200 BKN250 25/20 A3014 RMK AO2 SLP195 T02500200=
201907150552 METAR KATL 150552Z 29004KT 10SM FEW150 BKN200 BKN250 25/20 A3016 RMK AO2 SLP200 T02500200 10294 20250 58003=
201907150452 METAR KATL 150452Z 31004KT 10SM BKN200 OVC250 26/20 A3016 RMK AO2 SLP203 T02560200 403390233=
201907150352 METAR KATL 150352Z 00000KT 10SM FEW140 BKN200 OVC250 27/19 A3016 RMK AO2 SLP202 T02670194=
201907150252 METAR KATL 150252Z 34006KT 10SM BKN200 OVC250 28/19 A3016 RMK AO2 SLP203 T02780189 50001=
201907150152 METAR KATL 150152Z 33005KT 10SM FEW140 BKN200 OVC250 27/19 A3016 RMK AO2 SLP204 T02670194=
201907150052 METAR KATL 150052Z 32004KT 10SM FEW140 BKN200 OVC250 29/19 A3016 RMK AO2 SLP202 T02890194=
201907142352 METAR KATL 142352Z 31005KT 10SM FEW110 BKN180 OVC250 29/19 A3016 RMK AO2 SLP202 T02940194 10322 20272 55002=
201907142252 METAR KATL 142252Z 33005KT 10SM FEW042 FEW100 BKN180 OVC250 31/18 A3016 RMK AO2 SLP202 T03060183=
201907142152 METAR KATL 142152Z 34006KT 10SM FEW042 FEW080 BKN160 OVC200 31/19 A3015 RMK AO2 SLP200 VIRGA SE-SW T03060189=
201907142052 METAR KATL 142052Z 33009KT 10SM FEW038 FEW070 BKN180 BKN250 31/18 A3017 RMK AO2 SLP204 T03110183 58006=
201907141952 METAR KATL 141952Z 31009KT 10SM FEW034 SCT060 BKN140 BKN250 31/19 A3017 RMK AO2 SLP206 T03060194=
201907141852 METAR KATL 141852Z 35008KT 10SM SCT032 BKN080 BKN250 31/19 A3019 RMK AO2 PK WND 36026/1755 WSHFT 1750 LTG DSNT E AND SE TSE28 SLP211 CB DSNT E-SE SHRA NW T03060189=
201907141849 SPECI KATL 141849Z 33007KT 10SM SCT032 BKN080 BKN250 31/19 A3019 RMK AO2 PK WND 36026/1755 WSHFT 1750 LTG DSNT E AND SE AND W TSE28 CB DSNT E-SE AND W SHRA NW=
201907141834 SPECI KATL 141834Z 33008KT 10SM VCTS SCT042CB BKN070 BKN250 31/18 A3019 RMK AO2 PK WND 36026/1755 WSHFT 1750 LTG DSNT E AND SE AND W TSE28 OCNL LTGCG E-SE AND W TS VC E-SE AND W MOV SE T03060178=
201907141810 SPECI KATL 141810Z 36014KT 10SM BKN042 BKN070 BKN250 31/17 A3020 RMK AO2 PK WND 36026/1755 WSHFT 1750 LTG DSNT E AND W CB DSNT E & W SHRA N T03060167=
201907141752 METAR KATL 141752Z 36021G26KT 10SM BKN042CB BKN100 BKN250 33/19 A3020 RMK AO2 PK WND 35026/1751 LTG DSNT E SLP216 CB NW-N T03280194 10339 20239 58006=
201907141652 METAR KATL 141652Z 33008KT 10SM FEW046TCU SCT200 BKN250 32/21 A3022 RMK AO2 SLP221 TCU N-NE T03220206=
201907141552 METAR KATL 141552Z 31008KT 280V340 10SM FEW035 SCT140 BKN200 BKN250 31/22 A3023 RMK AO2 SLP225 T03110217=
201907141452 METAR KATL 141452Z 30005KT 10SM FEW140 SCT200 BKN250 29/21 A3022 RMK AO2 SLP223 T02940211 51014=
201907141352 METAR KATL 141352Z 32005KT 10SM SCT120 BKN250 28/21 A3021 RMK AO2 SLP219 T02780206=
201907141252 METAR KATL 141252Z 30003KT 10SM FEW150 SCT200 BKN250 26/21 A3020 RMK AO2 SLP218 T02610211=
201907141152 METAR KATL 141152Z 29003KT 10SM FEW150 BKN200 OVC250 24/21 A3018 RMK AO2 SLP210 VIRGA OHD-ALQDS T02390211 10250 20233 51015=
201907141052 METAR KATL 141052Z 00000KT 10SM SCT150 BKN200 BKN250 23/21 A3017 RMK AO2 SLP205 T02330211=
201907140952 METAR KATL 140952Z 00000KT 10SM FEW110 SCT150 BKN200 OVC250 23/21 A3015 RMK AO2 SLP201 T02330211=
201907140852 METAR KATL 140852Z 24003KT 10SM FEW110 SCT150 BKN200 BKN250 23/21 A3013 RMK AO2 SLP193 T02330211 56012=
201907140752 METAR KATL 140752Z 26004KT 10SM FEW110 BKN150 BKN200 23/21 A3014 RMK AO2 SLP195 T02330211=
201907140652 METAR KATL 140652Z 28003KT 10SM FEW110 BKN150 OVC200 24/21 A3015 RMK AO2 SLP201 T02390211=
201907140552 METAR KATL 140552Z 01003KT 10SM FEW110 BKN150 OVC200 25/21 A3017 RMK AO2 RAE25 SLP205 P0000 60000 T02500206 10256 20244 50004=
201907140452 METAR KATL 140452Z 36005KT 10SM -RA FEW085 OVC110 25/21 A3019 RMK AO2 RAB52 SLP211 PCPN VRY LGT P0000 T02500206 403170233=
201907140352 METAR KATL 140352Z 00000KT 10SM BKN130 OVC200 24/21 A3018 RMK AO2 SLP209 T02440206=
201907140252 METAR KATL 140252Z 33004KT 10SM BKN140 BKN200 OVC250 25/20 A3016 RMK AO2 SLP201 T02500200 51004=
201907140152 METAR KATL 140152Z 28003KT 10SM FEW085 SCT130 BKN200 OVC250 24/20 A3016 RMK AO2 SLP201 ACC OHD T02440200=
201907140052 METAR KATL 140052Z 28003KT 10SM FEW024 FEW080 BKN120 OVC200 25/20 A3016 RMK AO2 SLP202 ACC ALQDS T02500200=
201907132352 METAR KATL 132352Z 32005KT 10SM FEW024TCU SCT080 BKN120 OVC200 26/21 A3015 RMK AO2 LTG DSNT NE SLP198 CB DSNT NE TCU SE-SW ACC N-E 60000 T02560206 10306 20250 51019=
201907132252 METAR KATL 132252Z 29007KT 10SM FEW025 SCT080 BKN120 OVC200 26/20 A3014 RMK AO2 LTG DSNT NE RAE24 TSE17 SLP195 TS DSIPTD CB DSNT N-NE ACC W-NW MDT CU SE-S P0000 T02610200=
201907132217 SPECI KATL 132217Z 27007KT 10SM -RA FEW030 SCT080 BKN110 OVC200 25/19 A3011 RMK AO2 LTG DSNT SE TSE17 TS DSIPTD CB DSNT SE NW-N P0000 T02500194=
201907132152 METAR KATL 132152Z 29008KT 6SM -TSRA SCT034CB BKN075 BKN110 OVC200 26/19 A3012 RMK AO2 PK WND 27027/2132 LTG DSNT N AND NW RAB43 TSB43 SLP190 VIS LWR NW-NE OCNL LTGICCGCA NW-NE TS NW-NE MOV NE CB DSNT N-NW P0000 T02560194=
201907132144 SPECI KATL 132144Z 24015G26KT 6SM TSRA SCT034CB BKN100 OVC200 27/19 A3011 RMK AO2 PK WND 27027/2132 LTG DSNT N AND NW RAB43 TSB43 PRESRR OCNL LTGICCGCA OHD-SW-NW TS OHD-SW-NW MOV NE CB DSNT N-NW P0000 T02720189=
201907132135 SPECI KATL 132135Z 24019G27KT 10SM SCT034CB BKN100 OVC200 28/20 A3010 RMK AO2 PK WND 27027/2132 LTG DSNT W-N CB SW-W MOV NE CB DSNT W-N SHRA SW-W T02830200=
201907132052 METAR KATL 132052Z 21011KT 10SM FEW035 SCT095 SCT150 BKN190 BKN250 30/21 A3009 RMK AO2 SLP177 CB DSNT SW & NW 60000 T03000206 58007=
201907131952 METAR KATL 131952Z 22008KT 10SM FEW030 BKN095 BKN150 BKN210 BKN250 29/22 A3010 RMK AO2 LTG DSNT NE AND E DZE03 SLP181 CB DSNT NE P0000 T02890217=
201907131852 METAR KATL 131852Z 22008KT 10SM -DZ FEW030 BKN050 BKN090 BKN130 BKN250 27/21 A3011 RMK AO2 PK WND 21030/1756 SLP185 RAB06E25DZB48 P0000 T02670206=
201907131752 METAR KATL 131752Z 22010KT 10SM SCT033 SCT041 SCT130 SCT200 BKN250 31/22 A3011 RMK AO2 LTG DSNT N SLP184 CB VC SE-SW CB DSNT NW T03060222 10317 20239 58008=
201907131652 METAR KATL 131652Z 21011KT 10SM SCT035TCU BKN130 BKN200 BKN250 31/21 A3013 RMK AO2 LTG DSNT SE AND NW SLP189 TCU OHD & N-NE CB DSNT SE & SW & NW T03110211=
201907131552 METAR KATL 131552Z 26009KT 10SM SCT032 BKN130 BKN200 BKN250 29/21 A3014 RMK AO2 SLP194 T02940211=
201907131452 METAR KATL 131452Z 24007KT 10SM FEW030 BKN130 BKN200 29/21 A3014 RMK AO2 SLP193 T02940211 51017=
201907131352 METAR KATL 131352Z 24004KT 10SM FEW025 SCT200 SCT250 28/22 A3013 RMK AO2 SLP190 T02780217=
201907131252 METAR KATL 131252Z 25008KT 10SM FEW015 FEW060 SCT200 SCT250 25/21 A3011 RMK AO2 SLP186 T02500206=
201907131152 METAR KATL 131152Z 23006KT 10SM FEW060 FEW150 SCT200 SCT250 24/21 A3008 RMK AO2 SLP175 T02390206 10250 20233 53022=
201907131052 METAR KATL 131052Z 27007KT 10SM FEW060 SCT200 SCT250 23/21 A3006 RMK AO2 SLP167 T02330206=
201907130952 METAR KATL 130952Z 24005KT 10SM FEW009 FEW060 SCT150 SCT220 23/21 A3003 RMK AO2 SLP158 T02330211=
201907130852 METAR KATL 130852Z 22004KT 10SM FEW065 FEW150 SCT220 24/22 A3002 RMK AO2 SLP153 T02390217 56001=
201907130752 METAR KATL 130752Z 22005KT 10SM FEW065 FEW150 SCT220 24/22 A3002 RMK AO2 SLP154 T02440217=
201907130652 METAR KATL 130652Z 22008KT 10SM FEW065 SCT150 SCT220 24/22 A3002 RMK AO2 SLP153 T02440217=
201907130552 METAR KATL 130552Z 20007KT 10SM FEW065 SCT150 SCT220 25/22 A3002 RMK AO2 SLP154 T02500217 10317 20250 53003=
201907130452 METAR KATL 130452Z 21010KT 10SM FEW065 SCT150 BKN200 26/22 A3002 RMK AO2 SLP152 T02560217 403330239=
201907130352 METAR KATL 130352Z 20006KT 10SM FEW040 SCT110 BKN150 BKN200 26/22 A3001 RMK AO2 SLP150 T02610217=
201907130252 METAR KATL 130252Z 21007KT 10SM FEW040 BKN070 BKN200 26/21 A3001 RMK AO2 LTG DSNT N SLP150 CB DSNT NW-NE T02610211 53019=
201907130152 METAR KATL 130152Z 22006KT 10SM FEW070 BKN200 BKN250 27/21 A3000 RMK AO2 SLP146 CB DSNT NW-NE T02720206=
201907130052 METAR KATL 130052Z 20008KT 10SM FEW040 SCT200 BKN250 28/21 A2996 RMK AO2 LTG DSNT NW SLP133 CB DSNT NW T02780211=
201907122352 METAR KATL 122352Z 18009KT 10SM FEW040TCU SCT080 BKN200 BKN250 32/21 A2995 RMK AO2 LTG DSNT N SLP131 CB DSNT NE SE-SW NW TCU SE-S T03170206 10333 20311 53007=
201907122252 METAR KATL 122252Z 22007KT 10SM FEW045 SCT200 BKN250 32/21 A2993 RMK AO2 LTG DSNT N AND S SLP124 CB DSNT N SE S-SW W T03220206=
201907122152 METAR KATL 122152Z 21005KT 10SM FEW045TCU BKN250 32/21 A2993 RMK AO2 SLP121 CB DSNT SE-S TCU OHD-NE DSNT S-W-NW T03220206=
201907122052 METAR KATL 122052Z VRB05KT 10SM CLR 33/21 A2993 RMK AO2 SLP124 T03330206 58015=
201907121952 METAR KATL 121952Z VRB06KT 10SM SCT048TCU SCT080 BKN250 32/20 A2995 RMK AO2 SLP130 CB DSNT NW TCU OHD & N & SW T03220200=
201907121852 METAR KATL 121852Z VRB06KT 10SM SCT045 SCT150 SCT250 32/21 A2996 RMK AO2 SLP132 CB DSNT NW MDT CU OHD & N & SE T03220206=
201907121752 METAR KATL 121752Z 20007KT 160V250 10SM BKN042 BKN250 32/21 A2998 RMK AO2 SLP138 CB DSNT NE MDT CU ALQDS T03220206 10322 20244 58008=
201907121652 METAR KATL 121652Z 24007KT 190V270 10SM SCT040 SCT080 SCT250 31/21 A3000 RMK AO2 SLP145 CB DSNT NE SW NW T03110206=
201907121552 METAR KATL 121552Z 22009KT 10SM SCT030 SCT250 29/21 A3000 RMK AO2 SLP147 T02940206=
201907121452 METAR KATL 121452Z 23009KT 10SM FEW030 SCT080 SCT250 29/21 A3000 RMK AO2 SLP147 MDT CU NE NW T02890211 51010=
201907121352 METAR KATL 121352Z 22010KT 10SM FEW020 SCT080 SCT250 28/22 A2999 RMK AO2 SLP144 T02780217=
201907121252 METAR KATL 121252Z 22005KT 10SM FEW014 SCT070 SCT200 BKN250 26/21 A2998 RMK AO2 SLP141 ACC DSNT N T02610211=
201907121208 SPECI KATL 121208Z 24008KT 10SM SCT009 SCT060 BKN200 BKN250 25/22 A2997 RMK AO2 T02500217=
201907121152 METAR KATL 121152Z 22007KT 9SM BKN008 BKN055 BKN200 BKN250 24/22 A2997 RMK AO2 SLP137 CIG 007V010 T02440217 10261 20239 51016=
201907121119 SPECI KATL 121119Z 21004KT 8SM BKN008 BKN055 BKN200 BKN250 24/22 A2996 RMK AO2 CIG 007V010 T02390217=
201907121052 METAR KATL 121052Z 21006KT 8SM FEW009 SCT055 SCT200 BKN250 24/22 A2995 RMK AO2 SLP132 TCU DSNT N T02390217=
201907121005 SPECI KATL 121005Z 22006KT 10SM SCT012 SCT055 BKN200 BKN250 24/22 A2995 RMK AO2 T02440217=
201907120952 METAR KATL 120952Z 22005KT 10SM BKN012 BKN065 BKN250 24/22 A2995 RMK AO2 SLP130 CIG 010V014 T02440222=
201907120852 METAR KATL 120852Z 21006KT 10SM FEW016 SCT180 SCT250 24/22 A2992 RMK AO2 SLP120 T02440222 56013=
201907120752 METAR KATL 120752Z 20006KT 10SM SCT020 SCT100 BKN180 BKN250 25/22 A2992 RMK AO2 SLP121 T02500222=
201907120652 METAR KATL 120652Z 19003KT 10SM FEW022 FEW085 BKN180 BKN250 26/22 A2994 RMK AO2 SLP125 T02560217=
201907120552 METAR KATL 120552Z 00000KT 10SM FEW040TCU SCT080 BKN150 OVC200 26/22 A2996 RMK AO2 LTG DSNT NE SLP133 CB DSNT NE TCU NW-N T02610217 10300 20261 50008=
201907120452 METAR KATL 120452Z 24003KT 10SM FEW016 BKN038 BKN080 OVC150 26/22 A2997 RMK AO2 LTG DSNT N AND NE SLP135 CB DSNT N-NE T02610217 403280244=
201907120352 METAR KATL 120352Z 20005KT 10SM SCT080 BKN150 OVC200 27/22 A2995 RMK AO2 LTG DSNT N AND NE SLP129 CB DSNT N-NE T02670217=
201907120252 METAR KATL 120252Z 20009KT 10SM FEW035 SCT085 BKN200 OVC250 27/22 A2994 RMK AO2 LTG DSNT NE SLP125 CB DSNT NW-NE T02720217 50011=
201907120152 METAR KATL 120152Z 21013KT 10SM SCT040TCU SCT080 BKN200 BKN250 28/22 A2994 RMK AO2 LTG DSNT NW SLP126 LTG DSNT N-NE NW CB DSNT NW-NE TCU NE E W-NW T02830222=
201907120052 METAR KATL 120052Z 20005KT 10SM SCT040 BKN080 OVC200 29/22 A2991 RMK AO2 SLP117 T02940222=
201907112352 METAR KATL 112352Z 18005KT 10SM FEW035 BKN200 OVC250 30/22 A2990 RMK AO2 SLP113 TCU DSNT N SW T03000222 10328 20300 53001=
201907112252 METAR KATL 112252Z 20007KT 10SM FEW035 BKN200 BKN250 31/22 A2989 RMK AO2 SLP109 TCU DSNT N-NE SE S SW T03060217=
201907112152 METAR KATL 112152Z 18010KT 10SM FEW040TCU SCT060 BKN200 BKN250 32/22 A2990 RMK AO2 SLP113 TCU NW-NE DSNT SE-S T03170222=
201907112052 METAR KATL 112052Z 17009KT 10SM SCT040 SCT060 BKN250 32/22 A2990 RMK AO2 SLP112 CB DSNT SE-S NW-N MDT CU NE T03220222 56023=
201907111952 METAR KATL 111952Z 18005KT 10SM SCT040TCU SCT060 BKN250 32/22 A2992 RMK AO2 SLP121 TCU N-NE DSNT E S W NW SHRA VC NE T03220217=
201907111852 METAR KATL 111852Z 18007KT 140V230 10SM SCT030TCU SCT050 BKN250 31/22 A2994 RMK AO2 SLP126 TCU N-NE NW T03110222=
201907111752 METAR KATL 111752Z 19008KT 10SM FEW030 FEW050 BKN250 30/23 A2997 RMK AO2 SLP136 CB DSNT NW TCU DSNT N E 60000 T03000228 10306 20250 58014=
201907111652 METAR KATL 111652Z 20005KT 10SM FEW030TCU BKN050 BKN250 29/22 A3000 RMK AO2 SLP145 CB DSNT N TCU SE S DSNT W-N T02890222=
201907111552 METAR KATL 111552Z 18006KT 10SM FEW015TCU BKN045 BKN250 28/23 A3001 RMK AO2 RAB10E21 SLP150 CB DSNT S SHRA DSNT S TCU NW-N-NE P0000 T02780228=
201907111452 METAR KATL 111452Z 19004KT 10SM FEW015 BKN023 BKN040 BKN250 28/23 A3001 RMK AO2 SLP151 TCU DSNT NW-N MDT CU OHD-NE-SE-S T02780228 53002=
201907111422 SPECI KATL 111422Z 25005KT 10SM BKN015 BKN023 BKN035 BKN250 27/23 A3001 RMK AO2 T02720228=
201907111352 METAR KATL 111352Z 20005KT 10SM BKN012 BKN020 BKN250 27/23 A3001 RMK AO2 SLP149 MDT CU ALQDS T02670228=
201907111252 METAR KATL 111252Z 20004KT 8SM SCT008 BKN012 BKN022 BKN250 26/23 A3001 RMK AO2 SLP150 CIG 010V014 T02560228=
201907111247 SPECI KATL 111247Z 19004KT 8SM FEW007 BKN012 BKN022 BKN250 26/23 A3001 RMK AO2 CIG 010V014=
201907111152 METAR KATL 111152Z 17005KT 7SM OVC011 25/23 A3001 RMK AO2 SLP149 CIG 009V013 T02500228 10267 20244 53014=
201907111137 SPECI KATL 111137Z 16004KT 7SM OVC011 25/23 A3000 RMK AO2 CIG 009V013 T02500228=
201907111052 METAR KATL 111052Z 14003KT 7SM BKN008 OVC013 24/22 A2999 RMK AO2 SLP144 CIG 006V010 BINOVC T02440222=
201907111031 SPECI KATL 111031Z 13004KT 10SM SCT007 BKN014 BKN250 24/22 A2999 RMK AO2 T02440222=
201907110952 METAR KATL 110952Z 09005KT 10SM FEW008 SCT015 SCT250 24/22 A2998 RMK AO2 SLP138 T02440222=
201907110852 METAR KATL 110852Z 00000KT 10SM FEW250 25/22 A2996 RMK AO2 SLP134 T02500222 55011=
201907110752 METAR KATL 110752Z 15003KT 10SM CLR 25/22 A2996 RMK AO2 SLP134 T02500222=
201907110652 METAR KATL 110652Z 12006KT 10SM CLR 26/22 A2999 RMK AO2 SLP143 T02560222=
201907110552 METAR KATL 110552Z 00000KT 10SM FEW250 27/22 A3000 RMK AO2 SLP145 T02670222 10311 20267 58002=
201907110452 METAR KATL 110452Z 00000KT 10SM FEW035 FEW200 27/22 A3001 RMK AO2 SLP149 T02720222 403330244=
201907110352 METAR KATL 110352Z 14006KT 10SM FEW035 FEW200 28/22 A3000 RMK AO2 SLP147 T02780222=
201907110252 METAR KATL 110252Z 14006KT 10SM FEW040 FEW200 29/22 A3000 RMK AO2 SLP147 T02890222 51007=
201907110152 METAR KATL 110152Z 12004KT 10SM FEW200 29/22 A3000 RMK AO2 SLP146 T02940217=
201907110052 METAR KATL 110052Z 12005KT 10SM FEW040 FEW250 30/22 A2999 RMK AO2 SLP142 CB DSNT NW T03000217=
201907102352 METAR KATL 102352Z 11007KT 10SM FEW040 FEW200 31/21 A2998 RMK AO2 SLP140 TCU DSNT E SE NW T03110211 10333 20311 55001=
201907102252 METAR KATL 102252Z 13009KT 10SM FEW045 SCT060 SCT250 32/21 A2997 RMK AO2 SLP137 TCU DSNT NW-NE-SE-S T03170206=
201907102152 METAR KATL 102152Z 10010KT 10SM FEW045 FEW250 32/21 A2997 RMK AO2 SLP136 MDT CU N-NE SW T03220211=
201907102052 METAR KATL 102052Z 07008KT 10SM FEW050 FEW250 33/21 A2998 RMK AO2 SLP141 CB DSNT SE-S MDT CU NE S T03280206 58023=
201907101952 METAR KATL 101952Z 08010KT 10SM FEW050 FEW250 33/21 A3001 RMK AO2 SLP152 CB DSNT E TCU DSNT S SW NW T03280206=
201907101852 METAR KATL 101852Z 08008KT 10SM BKN045TCU 31/21 A3005 RMK AO2 SLP164 TCU OHD ALQDS T03110211=
201907101752 METAR KATL 101752Z VRB05KT 10SM SCT040 32/21 A3005 RMK AO2 SLP165 MDT CU NE SW-NW T03170211 10317 20250 58005=
201907101652 METAR KATL 101652Z 06009KT 10SM BKN035 30/21 A3006 RMK AO2 SLP167 T03000211=
201907101552 METAR KATL 101552Z 10009KT 10SM SCT025 30/22 A3007 RMK AO2 SLP169 T03000217=
201907101452 METAR KATL 101452Z 08008KT 10SM SCT025 28/22 A3007 RMK AO2 SLP170 T02830217 58003=
201907101352 METAR KATL 101352Z 11010KT 10SM BKN020 BKN030 28/22 A3008 RMK AO2 SLP174 T02780217=
201907101350 SPECI KATL 101350Z 11009KT 10SM BKN020 BKN030 28/22 A3008 RMK AO2=
201907101313 SPECI KATL 101313Z 09007KT 10SM BKN010 BKN020 BKN030 26/22 A3008 RMK AO2 T02610217=
201907101252 METAR KATL 101252Z 11009KT 10SM FEW009 SCT012 BKN022 26/22 A3008 RMK AO2 SLP173 T02610217=
201907101245 SPECI KATL 101245Z 12007KT 10SM FEW009 SCT012 BKN020 26/22 A3008 RMK AO2 T02560217=
201907101220 SPECI KATL 101220Z 12006KT 10SM FEW009 BKN014 BKN020 26/22 A3007 RMK AO2 T02560217=
201907101152 METAR KATL 101152Z 11007KT 8SM BKN009 BKN014 OVC032 25/22 A3008 RMK AO2 SLP173 T02500217 10261 20244 51015=
201907101052 METAR KATL 101052Z 12007KT 8SM BKN009 BKN015 OVC032 24/22 A3006 RMK AO2 SLP167 BINOVC T02440222=
201907100952 METAR KATL 100952Z 13006KT 8SM BKN008 BKN022 OVC085 24/22 A3005 RMK AO2 SLP164 T02440217=
201907100924 SPECI KATL 100924Z 09008KT 10SM BKN009 BKN022 BKN085 24/22 A3004 RMK AO2 T02440217=
201907100852 METAR KATL 100852Z 08009KT 10SM FEW012 SCT020 SCT085 BKN200 24/22 A3003 RMK AO2 SLP157 T02440217 53009=
201907100845 SPECI KATL 100845Z 08008KT 10SM FEW012 SCT020 BKN095 BKN200 24/22 A3003 RMK AO2 T02440217=
201907100825 SPECI KATL 100825Z 09007KT 10SM FEW012 BKN020 BKN095 BKN200 24/22 A3002 RMK AO2 T02440217=
201907100752 METAR KATL 100752Z 08009KT 10SM SCT022 BKN095 BKN250 25/22 A3002 RMK AO2 SLP154 T02500217=
201907100652 METAR KATL 100652Z 09008KT 10SM FEW100 FEW200 BKN250 26/22 A3001 RMK AO2 SLP150 T02560217=
201907100552 METAR KATL 100552Z 07013KT 10SM FEW100 SCT200 BKN250 26/22 A3000 RMK AO2 SLP147 T02610217 10306 20261 58009=
201907100452 METAR KATL 100452Z 09010KT 10SM FEW100 BKN200 BKN250 27/22 A3004 RMK AO2 SLP158 T02670217 403330244=
201907100352 METAR KATL 100352Z 11008KT 10SM FEW030 SCT200 BKN250 27/22 A3004 RMK AO2 SLP158 CB DSNT N-NE T02720217=
201907100252 METAR KATL 100252Z 11008KT 10SM FEW030 FEW110 BKN250 28/23 A3003 RMK AO2 SLP158 T02780228 51013=
201907100152 METAR KATL 100152Z 10008KT 10SM SCT120 BKN250 28/22 A3003 RMK AO2 SLP155 T02830222=
201907100052 METAR KATL 100052Z 11008KT 10SM FEW035 SCT120 BKN250 29/22 A3002 RMK AO2 SLP153 TCU DSNT NW T02940217=
201907092352 METAR KATL 092352Z 09012KT 10SM FEW035 SCT110 BKN250 31/22 A2999 RMK AO2 SLP145 TCU DSNT SW-W T03060217 10333 20294 53009=
201907092252 METAR KATL 092252Z 08012G17KT 10SM FEW035 FEW050 BKN250 32/22 A2997 RMK AO2 SLP138 TCU DSNT NE SW NW T03170222=
201907092152 METAR KATL 092152Z 10007KT 070V140 10SM FEW035TCU SCT050 BKN250 32/23 A2995 RMK AO2 SLP131 TCU NW-N T03170233=
201907092052 METAR KATL 092052Z 17007KT 10SM SCT035 BKN250 31/23 A2997 RMK AO2 LTG DSNT SW SLP135 CB DSNT SW TCU DSNT E SW-W T03110233 58007=
201907091952 METAR KATL 091952Z 08009G17KT 040V100 10SM SCT035 SCT250 33/23 A2998 RMK AO2 LTG DSNT S SLP138 CB DSNT S TCU DSNT SW-W T03280228=
201907091852 METAR KATL 091852Z 07015G20KT 10SM SCT040 SCT250 32/23 A2998 RMK AO2 LTG DSNT SE AND S SLP140 CB DSNT SE-S-SW MDT CU NW T03220233=
201907091752 METAR KATL 091752Z 08009G16KT 10SM SCT030 SCT250 32/24 A2999 RMK AO2 LTG DSNT S AND SW SLP141 CB DSNT SE-SW SHRA DSNT SE-SW T03220239 10322 20256 58008=
201907091652 METAR KATL 091652Z 05011KT 10SM SCT027TCU SCT250 32/23 A3001 RMK AO2 SLP148 TCU SE-SW-NW-N T03170233=
201907091552 METAR KATL 091552Z 09009KT 10SM BKN025TCU BKN150 BKN250 31/24 A3001 RMK AO2 SLP150 TCU NE-SE MDT CU ALQDS T03110239=
201907091452 METAR KATL 091452Z 10008KT 10SM FEW025 FEW150 SCT250 30/23 A3001 RMK AO2 SLP149 T03000233 51012=
201907091352 METAR KATL 091352Z VRB06KT 10SM FEW020 FEW200 SCT250 28/23 A3001 RMK AO2 SLP149 T02830228=
201907091252 METAR KATL 091252Z 06006KT 10SM FEW200 FEW250 27/22 A3000 RMK AO2 SLP145 T02720217=
201907091152 METAR KATL 091152Z 08009KT 10SM FEW031 FEW200 26/22 A2998 RMK AO2 SLP138 70009 T02560217 10272 20244 53014=
201907091052 METAR KATL 091052Z 08005KT 10SM FEW050 FEW150 FEW200 24/22 A2996 RMK AO2 SLP132 T02440217=
201907090952 METAR KATL 090952Z 09008KT 10SM FEW045 FEW150 SCT200 SCT250 24/22 A2995 RMK AO2 SLP129 T02440217=
201907090852 METAR KATL 090852Z 07006KT 10SM FEW045 SCT250 25/22 A2993 RMK AO2 SLP125 T02500222 53001=
201907090752 METAR KATL 090752Z 00000KT 10SM FEW045 FEW100 SCT250 26/23 A2992 RMK AO2 SLP119 T02610228=
201907090652 METAR KATL 090652Z 05003KT 10SM FEW045 FEW100 SCT250 27/23 A2992 RMK AO2 SLP118 T02670228=
201907090552 METAR KATL 090552Z 00000KT 10SM SCT040 SCT100 SCT250 27/24 A2993 RMK AO2 SLP123 T02670239 10311 20261 50002=
201907090452 METAR KATL 090452Z 28003KT 10SM FEW050 SCT250 27/24 A2993 RMK AO2 LTG DSNT NE AND E SLP124 T02670239 403390233=
201907090352 METAR KATL 090352Z 00000KT 10SM FEW050 FEW090 SCT250 27/23 A2993 RMK AO2 SLP123 LTG DSNT NE T02720233=
201907090252 METAR KATL 090252Z 00000KT 10SM FEW100 BKN250 28/22 A2993 RMK AO2 SLP121 LTG DSNT NE T02830222 51019=
201907090152 METAR KATL 090152Z 06005KT 10SM FEW100 BKN250 30/22 A2990 RMK AO2 SLP114 T03000217=
201907090052 METAR KATL 090052Z 05004KT 10SM FEW100 BKN250 31/21 A2989 RMK AO2 SLP110 CB DSNT NE T03110211=
201907082352 METAR KATL 082352Z 36006KT 10SM FEW100 SCT200 BKN250 31/22 A2987 RMK AO2 SLP102 60009 T03110217 10339 20256 55006=
201907082252 METAR KATL 082252Z 36005KT 10SM FEW030 SCT200 BKN250 31/22 A2987 RMK AO2 SLP102 LTG DSNT SE CB DSNT SE T03110217=
201907082152 METAR KATL 082152Z 00000KT 10SM FEW030 SCT200 BKN250 29/23 A2987 RMK AO2 SLP103 CB DSNT E SE T02940228=
201907082052 METAR KATL 082052Z 21005KT 10SM FEW030TCU SCT160 BKN250 27/23 A2989 RMK AO2 LTG DSNT SW RAE14 TSE08B12E14 SLP110 TS MOV SW CB DSNT SW & SE TCU DSNT E AND SW-W P0008 60009 T02670233 56008=
201907082044 SPECI KATL 082044Z 21006KT 10SM FEW030TCU BKN160 BKN250 27/23 A2989 RMK AO2 LTG DSNT SW RAE14 TSE08B12E14 TS MOV SW CB DSNT SW & SE TCU E P0008 T02720233=
201907082015 SPECI KATL 082015Z 27007KT 10SM VCTS BKN042CB BKN070 BKN250 26/23 A2990 RMK AO2 RAE14 TSE08B12E14 OCNL LTGICCG VC SW TS VC SW MOV SW P0008 T02560228=
201907082003 SPECI KATL 082003Z 33013KT 7SM R09R/5000VP6000FT +TSRA FEW009 BKN042CB BKN070 BKN250 26/23 A2989 RMK AO2 OCNL LTGICCG SW TS SW MOV SW P0007 T02560228=
201907081954 SPECI KATL 081954Z 31016G29KT 3SM R09R/3500VP6000FT +TSRA FEW008 BKN025CB OVC070 26/23 A2990 RMK AO2 P0001 T02610228=
201907081952 METAR KATL 081952Z 35022G29KT 1SM R09R/3500VP6000FT +TSRA BR FEW008 BKN025CB BKN070 OVC250 27/23 A2990 RMK AO2 PK WND 36029/1951 RAB43 TSB34 SLP114 FRQ LTGICCG OHD TS OHD MOV S P0001 T02670228=
201907081943 SPECI KATL 081943Z 34021G28KT 1SM R09R/P6000FT +TSRA BR BKN035CB BKN070 OVC250 31/21 A2990 RMK AO2 PK WND 34028/1941 RAB43 TSB34 OCNL LTGICCG OHD TS OHD MOV S P0000 T03110211=
201907081938 SPECI KATL 081938Z 34014G21KT 8SM TS SCT045CB BKN070 BKN250 32/22 A2989 RMK AO2 TSB34 OCNL LTGICCG NW-N TS NW-N MOV S T03220217=
201907081852 METAR KATL 081852Z 31007KT 10SM SCT040TCU BKN080 BKN250 32/22 A2990 RMK AO2 SLP112 TCU SW-NW T03220217=
201907081752 METAR KATL 081752Z VRB03KT 10SM SCT035TCU BKN080 31/22 A2991 RMK AO2 SLP117 TCU SW T03110217 10322 20244 58008=
201907081652 METAR KATL 081652Z VRB03KT 10SM SCT030 SCT250 31/22 A2993 RMK AO2 SLP122 T03060222=
201907081552 METAR KATL 081552Z VRB05KT 10SM FEW023 FEW150 SCT250 29/22 A2993 RMK AO2 SLP124 T02940222=
201907081452 METAR KATL 081452Z 32006KT 10SM SCT017 SCT150 28/22 A2994 RMK AO2 SLP126 T02780217 51012=
201907081352 METAR KATL 081352Z 34009KT 10SM SCT013 SCT250 27/22 A2994 RMK AO2 SLP125 T02720217=
201907081326 SPECI KATL 081326Z 00000KT 10SM FEW250 26/22 A2993 RMK AO2 T02610217=
201907081252 METAR KATL 081252Z 34009KT 10SM BKN010 BKN250 25/22 A2993 RMK AO2 SLP124 BKN010 V SCT T02500217=
201907081239 SPECI KATL 081239Z 32009KT 10SM BKN008 BKN250 25/22 A2992 RMK AO2 BKN008 V SCT T02500217=
201907081152 METAR KATL 081152Z 33008KT 8SM SCT007 SCT080 SCT250 24/22 A2990 RMK AO2 SLP114 T02440217 10250 20233 53006=
201907081126 SPECI KATL 081126Z 31008KT 10SM FEW007 24/22 A2990 RMK AO2 T02390217=
201907081052 METAR KATL 081052Z 31004KT 8SM FEW080 SCT250 23/22 A2989 RMK AO2 SLP109 T02330217=
201907080952 METAR KATL 080952Z 26003KT 9SM FEW080 SCT250 23/22 A2989 RMK AO2 SLP110 T02330217=
201907080852 METAR KATL 080852Z 28007KT 9SM FEW080 FEW250 24/22 A2988 RMK AO2 SLP107 T02390217 55000=
201907080752 METAR KATL 080752Z 31009KT 10SM FEW080 FEW250 24/22 A2988 RMK AO2 SLP105 T02440217=
201907080652 METAR KATL 080652Z 31007KT 10SM FEW080 FEW250 24/22 A2988 RMK AO2 SLP105 T02440217=
201907080552 METAR KATL 080552Z 31009KT 10SM FEW080 FEW250 25/22 A2988 RMK AO2 SLP107 T02500217 10294 20244 58010=
201907080452 METAR KATL 080452Z 29005KT 10SM CLR 25/22 A2990 RMK AO2 SLP113 T02500217 403170239=
201907080352 METAR KATL 080352Z 26005KT 10SM FEW080 BKN200 26/22 A2991 RMK AO2 SLP118 T02560217=
201907080252 METAR KATL 080252Z 28007KT 10SM FEW080 27/22 A2991 RMK AO2 SLP117 T02670217 50005=
201907080152 METAR KATL 080152Z 30010KT 10SM FEW045 BKN070 BKN250 28/22 A2992 RMK AO2 SLP118 T02780217=
201907080052 METAR KATL 080052Z 28006KT 10SM FEW032 FEW060 SCT110 BKN250 28/22 A2990 RMK AO2 SLP112 TCU DSNT N T02830217=
201907072352 METAR KATL 072352Z 25005KT 10SM FEW032TCU SCT110 BKN250 29/22 A2990 RMK AO2 LTG DSNT N SLP113 TCU S CB DSNT N & S 60000 T02940222 10317 20294 53002=
201907072252 METAR KATL 072252Z 25006KT 10SM FEW038TCU SCT060 BKN120 BKN250 30/22 A2989 RMK AO2 LTG DSNT NE SLP111 TCU SW-NW CB DSNT SW T03000217=
201907072152 METAR KATL 072152Z 27004KT 10SM FEW036CB SCT060 BKN250 31/22 A2988 RMK AO2 LTG DSNT E SLP108 OCNL LTGCG VC E TS VC E MOV E TCU SW T03060217=
201907072126 SPECI KATL 072126Z 29008KT 10SM VCTS SCT036CB BKN110 BKN250 31/22 A2989 RMK AO2 LTG DSNT SE OCNL LTGCG VC NE-SE TS VC NE-SE MOV E TCU W T03060217=
201907072052 METAR KATL 072052Z 30009KT 10SM SCT036CB BKN110 BKN200 BKN250 31/22 A2989 RMK AO2 RAB23E34 SLP111 CB NE-SE MOV E CB DSNT N SE-S SHRA NE-SE P0000 60000 T03110222 56023=
201907072035 SPECI KATL 072035Z 27012G17KT 10SM SCT036CB BKN100 BKN140 BKN250 32/22 A2990 RMK AO2 RAB23E34 CB NE-SE MOV E SHRA NE-SE P0000 T03170222=
201907071952 METAR KATL 071952Z 10006KT 10SM BKN036TCU BKN100 BKN140 BKN250 29/22 A2992 RMK AO2 SLP119 TCU OHD-ALQDS SHRA SW-NW T02940222 $=
201907071852 METAR KATL 071852Z 00000KT 10SM SCT035TCU BKN090 BKN140 BKN250 31/22 A2994 RMK AO2 LTG DSNT E SLP125 CB DSNT E SW-W TCU SE-SW-W ACC N-NE T03060217 $=
201907071752 METAR KATL 071752Z 32007KT 10SM SCT032CB BKN080 BKN140 BKN250 31/22 A2997 RMK AO2 LTG DSNT NE RAE1655 SLP135 CB NE MOV E CB DSNT NE-SE TCU SE SW NW SHRA NE SE P0000 60000 T03060222 10317 20244 58012 $=
201907071652 METAR KATL 071652Z 22005KT 10SM -RA SCT032CB BKN075 BKN120 BKN250 28/23 A2999 RMK AO2 RAB35 SLP143 CB NE-E S MOV E TCU SW-NW-N P0000 T02780228 $=
201907071627 SPECI KATL 071627Z 26007KT 10SM SCT032CB BKN100 BKN150 BKN250 30/22 A2999 RMK AO2 CB SW-NW-N MOV E TCU DSNT N-NE SHRA SW-NW-N T03000217 $=
201907071552 METAR KATL 071552Z 25008KT 10SM SCT032TCU SCT080 SCT250 31/22 A3000 RMK AO2 SLP147 TCU W-N-NE T03060222 $=
201907071452 METAR KATL 071452Z 26006KT 10SM SCT028 SCT250 29/22 A3000 RMK AO2 SLP147 T02940222 51006 $=
201907071352 METAR KATL 071352Z 29009KT 10SM FEW022 SCT250 28/22 A3000 RMK AO2 SLP147 T02780222=
201907071252 METAR KATL 071252Z 28007KT 10SM FEW150 SCT250 27/22 A2999 RMK AO2 SLP144 T02720217=
201907071152 METAR KATL 071152Z 24006KT 10SM FEW150 BKN250 24/22 A2998 RMK AO2 SLP141 T02440222 10261 20239 51004=
201907071052 METAR KATL 071052Z 00000KT 9SM FEW150 BKN250 24/22 A2998 RMK AO2 SLP140 T02390222=
201907070952 METAR KATL 070952Z 23004KT 10SM FEW050 BKN250 24/22 A2998 RMK AO2 SLP140 T02390222=
201907070852 METAR KATL 070852Z 22004KT 10SM FEW050 BKN250 24/22 A2997 RMK AO2 SLP137 T02440222 57009=
201907070752 METAR KATL 070752Z 19003KT 10SM FEW050 BKN250 25/22 A2998 RMK AO2 SLP137 T02500217=
201907070652 METAR KATL 070652Z 25003KT 10SM SCT050 SCT085 BKN250 26/22 A3000 RMK AO2 SLP144 T02560217=
201907070552 METAR KATL 070552Z 22005KT 10SM FEW050 SCT250 26/21 A3000 RMK AO2 SLP147 T02610211 10317 20256 56008=
201907070452 METAR KATL 070452Z 22004KT 10SM FEW250 26/22 A3001 RMK AO2 SLP149 T02610217 403390228=
201907070352 METAR KATL 070352Z 22005KT 10SM FEW250 27/21 A3002 RMK AO2 SLP153 T02720211=
201907070252 METAR KATL 070252Z 23006KT 10SM SCT250 28/21 A3003 RMK AO2 SLP155 T02780211 53012=
201907070152 METAR KATL 070152Z 20005KT 10SM CLR 28/21 A3001 RMK AO2 SLP151 T02830211=
201907070052 METAR KATL 070052Z 22005KT 10SM FEW048 SCT250 30/21 A3000 RMK AO2 LTG DSNT E SLP146 CB DSNT E T03000211=
201907062352 METAR KATL 062352Z 28006KT 10SM FEW050TCU FEW250 32/21 A2999 RMK AO2 LTG DSNT SE SLP144 TCU N CB DSNT SE T03170206 10339 20306 58008=
201907062252 METAR KATL 062252Z 29007KT 10SM FEW050TCU 33/20 A3000 RMK AO2 SLP147 TCU NE-SE T03280200=
201907062152 METAR KATL 062152Z 24004KT 10SM FEW050 FEW080 33/22 A3001 RMK AO2 SLP151 MDT CU N-E T03330217=
201907062052 METAR KATL 062052Z VRB04KT 10SM SCT048 33/22 A3002 RMK AO2 SLP152 T03330217 56025=
201907061952 METAR KATL 061952Z 26006KT 10SM SCT044 SCT085 SCT250 33/22 A3003 RMK AO2 SLP158 TCU DSNT NE SE T03330222=
201907061852 METAR KATL 061852Z 32008KT 10SM SCT042TCU SCT075 SCT250 33/21 A3006 RMK AO2 SLP166 TCU NE-SE-S T03280211=
201907061752 METAR KATL 061752Z 33007KT 10SM SCT038TCU SCT060 SCT110 BKN250 31/22 A3009 RMK AO2 SLP178 TCU NE-E S-SW DSNT NW-N T03110222 10322 20244 58015=
201907061652 METAR KATL 061652Z 30007KT 10SM SCT028TCU SCT110 SCT200 BKN250 30/23 A3012 RMK AO2 SLP187 TCU SW-NW T03000228=
201907061552 METAR KATL 061552Z 31004KT 10SM FEW026 SCT110 SCT250 29/23 A3013 RMK AO2 SLP193 TCU DSNT SW-NW T02940228=
201907061452 METAR KATL 061452Z 35005KT 10SM FEW024 SCT100 BKN150 BKN250 27/22 A3013 RMK AO2 SLP194 ACC OHD-ALQDS T02720217 50006=
201907061352 METAR KATL 061352Z 25003KT 10SM FEW016 BKN100 BKN200 BKN250 26/22 A3014 RMK AO2 SLP196 ACC ALQDS T02610222=
201907061252 METAR KATL 061252Z 00000KT 8SM FEW008 SCT180 SCT250 25/22 A3013 RMK AO2 SLP193 T02500222=
201907061152 METAR KATL 061152Z 00000KT 9SM FEW008 FEW130 BKN250 24/22 A3012 RMK AO2 SLP188 70041 T02440222 10244 20228 53021=
201907061132 SPECI KATL 061132Z 00000KT 9SM FEW005 FEW130 BKN250 24/22 A3011 RMK AO2 T02390217=
201907061052 METAR KATL 061052Z 00000KT 2SM BR SCT005 SCT012 SCT130 BKN250 23/21 A3009 RMK AO2 SFC VIS 6 SLP180 SCT005 V BKN T02330211=
201907060952 METAR KATL 060952Z 08005KT 2SM BR BKN005 BKN012 BKN070 BKN130 23/22 A3006 RMK AO2 SFC VIS 6 SLP170 BKN005 V SCT T02330217=
201907060930 SPECI KATL 060930Z 00000KT 2SM BKN005 BKN070 BKN130 23/21 A3006 RMK AO2 SFC VIS 7 T02330211=
201907060852 METAR KATL 060852Z 00000KT 10SM FEW005 FEW070 BKN130 23/21 A3005 RMK AO2 SLP164 T02330211 56019=
201907060752 METAR KATL 060752Z 00000KT 10SM FEW004 FEW070 BKN130 23/21 A3006 RMK AO2 SLP167 T02280211=
201907060652 METAR KATL 060652Z 00000KT 10SM FEW006 FEW070 BKN130 OVC150 23/21 A3008 RMK AO2 SLP174 T02280211=
201907060552 METAR KATL 060552Z 00000KT 10SM FEW006 SCT070 BKN130 OVC180 23/22 A3011 RMK AO2 RAE11 SLP184 P0000 60012 T02330217 10261 20233 58006=
201907060452 METAR KATL 060452Z 13003KT 10SM -RA FEW006 SCT050 BKN070 OVC150 23/22 A3013 RMK AO2 RAB47 SLP192 P0000 T02330217 403440233=
201907060352 METAR KATL 060352Z 10008KT 10SM SCT006 BKN070 BKN110 OVC200 23/21 A3014 RMK AO2 RAE17 SLP195 LTG DSNT NE-SE P0000 T02330211=
201907060340 SPECI KATL 060340Z 11008G16KT 10SM SCT006 BKN070 BKN110 OVC200 24/22 A3014 RMK AO2 RAE17 LTG DSNT NE-SE SCT006 V BKN P0000 T02390217=
201907060252 METAR KATL 060252Z 03006KT 10SM -RA FEW050 BKN110 OVC150 25/22 A3013 RMK AO2 SLP192 TSE12 LTG DSNT NE-E P0002 60012 T02500217 51017=
201907060212 SPECI KATL 060212Z 35005KT 9SM -RA FEW025 SCT060 BKN100 OVC150 24/22 A3011 RMK AO2 LTG DSNT NE-SE NW-N TS DSIPTD P0001 T02440217=
201907060152 METAR KATL 060152Z 35004KT 6SM VCTS -RA FEW025CB BKN060 OVC100 24/21 A3012 RMK AO2 SLP190 OCNL LTGICCA N-NE DSNT NE-SE TS VC N-NE DSNT NE-SE MOV SE P0010 T02390211=
201907060052 METAR KATL 060052Z 21013KT 8SM VCTS -RA FEW025CB BKN050 BKN100 OVC200 24/22 A3013 RMK AO2 RAB42 SLP193 FRQ LTGICCGCA SE-SW DSNT NW TS VC SE-SW DSNT NW MOV SE P0000 T02440217=
201907052352 METAR KATL 052352Z 29007KT 10SM VCTS FEW030CB SCT060 BKN120 OVC200 26/22 A3008 RMK AO2 SLP175 TSB09 OCNL LTGICCG W-NW DSNT S TS VC W-NW DSNT S MOV SE 60029 T02610222 10344 20250 53007=
201907052310 SPECI KATL 052310Z 00000KT 10SM VCTS FEW030CB SCT080 BKN150 OVC200 27/23 A3006 RMK AO2 TSB09 OCNL LTGICCG SW-NW TS VC SW-NW MOV SE T02720233=
201907052252 METAR KATL 052252Z 17005KT 10SM FEW035TCU SCT080 BKN150 BKN200 28/23 A3006 RMK AO2 SLP168 RAE50 TSE39 LTG DSNT SW NW CB DSNT SE SW-W NW TCU SW-W P0029 T02780228=
201907052241 SPECI KATL 052241Z 18004KT 10SM -RA FEW035TCU SCT070 BKN150 BKN250 27/22 A3005 RMK AO2 TSE39 TS DSIPTD CB DSNT SE SW NW TCU S-W P0029 T02720222=
201907052152 METAR KATL 052152Z 03016G20KT 7SM -TSRA BKN045CB BKN070 BKN250 28/21 A3007 RMK AO2 WSHFT 2135 SLP171 VIS LWR N-E RAB31 TSB05 OCNL LTGICCG OHD-NE TS OHD-NE MOV SE TCU ALQDS P0000 T02830211=
201907052107 SPECI KATL 052107Z 20009KT 10SM TS SCT045CB BKN070 BKN250 32/22 A3006 RMK AO2 TSB05 OCNL LTGICCG NE TS NE MOV SE TCU OHD-ALQDS T03170222=
201907052052 METAR KATL 052052Z 16008KT 10SM VCTS BKN050CB BKN070 BKN250 32/22 A3006 RMK AO2 LTG DSNT ALQDS SLP166 OCNL LTGCG VC NE TS VC NE MOV SE T03170222 57018=
201907051952 METAR KATL 051952Z 00000KT 10SM BKN048 BKN080 33/21 A3008 RMK AO2 LTG DSNT N AND NE SLP173 CB DSNT N-NE T03280206=
201907051852 METAR KATL 051852Z 21004KT 10SM SCT048 SCT070 32/21 A3009 RMK AO2 LTG DSNT W SLP178 CB DSNT W T03220211=
201907051752 METAR KATL 051752Z 00000KT 10SM SCT042 BKN070 BKN120 33/22 A3011 RMK AO2 SLP183 MDT CU ALQDS T03330217 10333 20250 58010=
201907051652 METAR KATL 051652Z VRB04KT 9SM SCT040 SCT200 33/23 A3014 RMK AO2 SLP193 T03280228=
201907051552 METAR KATL 051552Z VRB03KT 9SM FEW030 SCT150 BKN250 31/22 A3014 RMK AO2 SLP195 T03110222=
201907051452 METAR KATL 051452Z VRB03KT 9SM FEW150 BKN250 29/22 A3014 RMK AO2 SLP195 T02940222 50006=
201907051352 METAR KATL 051352Z 06003KT 10SM FEW080 BKN250 28/22 A3014 RMK AO2 SLP195 T02780217=
201907051252 METAR KATL 051252Z 13004KT 10SM FEW014 SCT250 SCT300 26/21 A3014 RMK AO2 SLP194 T02560211=
201907051152 METAR KATL 051152Z 09006KT 7SM FEW250 SCT300 26/22 A3012 RMK AO2 SLP188 T02610217 10261 20239 53022=
201907051052 METAR KATL 051052Z 27004KT 7SM FEW180 SCT250 BKN300 24/22 A3010 RMK AO2 SLP180 T02440217=
201907050952 METAR KATL 050952Z 00000KT 8SM FEW200 SCT250 24/22 A3008 RMK AO2 SLP172 T02440217=
201907050852 METAR KATL 050852Z 00000KT 9SM FEW200 SCT250 25/22 A3006 RMK AO2 SLP165 T02500217 55005=
201907050752 METAR KATL 050752Z 28005KT 9SM SCT200 BKN250 25/21 A3005 RMK AO2 SLP164 T02500211=
201907050652 METAR KATL 050652Z 20003KT 8SM FEW140 BKN200 BKN250 25/21 A3006 RMK AO2 SLP167 T02500211=
201907050552 METAR KATL 050552Z 00000KT 8SM FEW140 SCT200 BKN250 26/21 A3007 RMK AO2 SLP170 T02560211 10294 20250 58003=
201907050452 METAR KATL 050452Z 18006KT 8SM FEW060 BKN250 26/22 A3008 RMK AO2 SLP171 T02610217 403500250=
201907050352 METAR KATL 050352Z 17005KT 8SM BKN060 BKN250 27/22 A3009 RMK AO2 SLP178 T02720217=
201907050252 METAR KATL 050252Z 00000KT 10SM FEW050 SCT070 BKN250 28/22 A3008 RMK AO2 LTG DSNT SE SLP174 CB DSNT SE T02780217 53023=
201907050152 METAR KATL 050152Z 25005KT 10SM FEW050 BKN250 28/21 A3005 RMK AO2 LTG DSNT E SLP165 CB DSNT E-SE T02780211=
201907050052 METAR KATL 050052Z 24008KT 10SM FEW050 BKN250 28/21 A3004 RMK AO2 SLP160 CB DSNT NE-SE T02830206=
201907042352 METAR KATL 042352Z 24008KT 10SM FEW055 BKN250 30/21 A3001 RMK AO2 SLP151 CB DSNT NE T03000206 10350 20300 53005=
201907042252 METAR KATL 042252Z 26008KT 10SM FEW055 SCT250 32/22 A2999 RMK AO2 SLP145 CB DSNT E T03170217=
201907042152 METAR KATL 042152Z 23009G18KT 10SM SCT060TCU BKN250 32/22 A3000 RMK AO2 WSHFT 2128 SLP145 TCU NE-SE T03170222=
201907042148 SPECI KATL 042148Z 23010G18KT 10SM SCT060TCU BKN250 32/22 A3000 RMK AO2 WSHFT 2128 TCU NE-SE=
201907042052 METAR KATL 042052Z 21004KT 10SM FEW060 SCT160 SCT250 34/18 A3000 RMK AO2 SLP146 MDT CU S-SW CB DSNT SW T03440178 56019=
201907041952 METAR KATL 041952Z 28006KT 10SM FEW060 FEW160 SCT250 35/19 A3001 RMK AO2 SLP150 CB DSNT SE MDT CU SE-SW T03500194=
201907041852 METAR KATL 041852Z 02007KT 340V060 10SM FEW055TCU SCT160 BKN200 BKN250 33/19 A3003 RMK AO2 SLP157 TCU N-E-SE T03330194=
201907041752 METAR KATL 041752Z 28006KT 10SM FEW055 SCT160 BKN250 33/19 A3006 RMK AO2 SLP166 CB DSNT S-SW T03330189 10333 20250 58003=
201907041652 METAR KATL 041652Z 32008KT 10SM FEW050 BKN160 BKN250 33/21 A3007 RMK AO2 SLP169 CB DSNT SW T03280206=
201907041552 METAR KATL 041552Z 35008KT 10SM BKN180 32/21 A3007 RMK AO2 SLP170 T03170206=
201907041452 METAR KATL 041452Z 30005KT 10SM FEW040 FEW080 BKN150 BKN200 31/20 A3007 RMK AO2 SLP169 T03060200 51009=
201907041352 METAR KATL 041352Z 34005KT 10SM FEW032 SCT100 BKN200 29/21 A3007 RMK AO2 SLP169 T02890211=
201907041252 METAR KATL 041252Z 32005KT 10SM FEW100 SCT200 BKN250 27/21 A3006 RMK AO2 SLP168 ACC SW NW T02720211=
201907041152 METAR KATL 041152Z 29004KT 10SM SCT200 BKN250 25/21 A3004 RMK AO2 SLP160 T02500211 10272 20250 53013=
201907041052 METAR KATL 041052Z 31006KT 10SM SCT110 BKN200 BKN250 25/21 A3002 RMK AO2 SLP152 T02500211=
201907040952 METAR KATL 040952Z 33007KT 10SM SCT100 BKN180 BKN250 25/21 A3000 RMK AO2 SLP148 T02500211=
201907040852 METAR KATL 040852Z 31007KT 10SM SCT110 BKN180 BKN250 26/21 A3000 RMK AO2 SLP147 T02560211 55002=
201907040752 METAR KATL 040752Z 31008KT 10SM FEW140 BKN180 BKN250 26/21 A3000 RMK AO2 SLP146 T02610211=
201907040652 METAR KATL 040652Z 29006KT 10SM SCT140 BKN200 BKN250 26/21 A3000 RMK AO2 SLP147 T02610211=
201907040552 METAR KATL 040552Z 31006KT 10SM FEW110 BKN140 BKN200 BKN250 27/21 A3001 RMK AO2 SLP148 T02720211 10300 20272 58006=
201907040452 METAR KATL 040452Z 30008KT 10SM SCT120 BKN150 OVC200 28/21 A3002 RMK AO2 SLP152 T02780211 403330244=
201907040352 METAR KATL 040352Z 31007KT 10SM BKN120 OVC200 28/21 A3003 RMK AO2 SLP156 T02830206=
201907040252 METAR KATL 040252Z 28007KT 10SM BKN120 OVC200 28/21 A3003 RMK AO2 SLP156 T02830206 53020=
201907040152 METAR KATL 040152Z 28006KT 10SM BKN130 BKN200 BKN250 28/21 A3000 RMK AO2 SLP147 T02830206=
201907040052 METAR KATL 040052Z 28006KT 10SM SCT130 BKN200 BKN250 29/21 A2997 RMK AO2 SLP138 T02890206=
201907032352 METAR KATL 032352Z 27008KT 10SM FEW150 SCT200 BKN250 30/19 A2997 RMK AO2 SLP135 T03000194 10333 20300 53001=
201907032252 METAR KATL 032252Z 27007KT 10SM FEW055 SCT200 BKN250 31/18 A2994 RMK AO2 SLP127 MDT CU SE T03060183=
201907032152 METAR KATL 032152Z 31010KT 10SM FEW055 FEW150 SCT250 33/18 A2995 RMK AO2 SLP131 MDT CU E-S T03280178=
201907032052 METAR KATL 032052Z 32007KT 10SM FEW050 FEW250 32/20 A2996 RMK AO2 SLP134 CB DSNT N E MDT CU NE T03220200 56022=
201907031952 METAR KATL 031952Z 32006KT 10SM FEW050 FEW150 SCT250 32/20 A2998 RMK AO2 SLP139 CB DSNT E MDT CU NE T03170200=
201907031852 METAR KATL 031852Z 31006KT 10SM FEW045 SCT150 BKN180 BKN250 31/20 A3002 RMK AO2 SLP152 VIRGA NE-SE T03060200=
201907031752 METAR KATL 031752Z 30006KT 10SM FEW045 BKN150 BKN180 BKN250 31/21 A3003 RMK AO2 SLP156 VIRGA NW T03110206 10322 20256 58005=
201907031652 METAR KATL 031652Z 30006KT 10SM FEW040 BKN150 BKN180 BKN250 31/21 A3004 RMK AO2 SLP160 VIRGA DSNT NW T03060211=
201907031552 METAR KATL 031552Z 29005KT 10SM BKN150 BKN180 BKN250 30/22 A3005 RMK AO2 SLP161 T03000217=
201907031452 METAR KATL 031452Z 32007KT 10SM BKN150 BKN200 BKN240 29/22 A3005 RMK AO2 SLP163 VIRGA DSNT NE SE SW NW T02890217 51015=
201907031352 METAR KATL 031352Z 34007KT 10SM BKN150 BKN200 BKN250 28/21 A3004 RMK AO2 SLP160 VIRGA ALQDS T02780211=
201907031252 METAR KATL 031252Z 33006KT 10SM FEW090 SCT140 BKN200 BKN250 27/21 A3002 RMK AO2 SLP154 VIRGA DSNT SW-W ACC S-W T02720211=
201907031152 METAR KATL 031152Z 31007KT 10SM SCT150 BKN200 BKN250 26/21 A3000 RMK AO2 SLP147 T02560206 10278 20244 53009=
201907031052 METAR KATL 031052Z 31005KT 10SM SCT150 BKN200 BKN250 24/21 A2999 RMK AO2 SLP141 T02440206=
201907030952 METAR KATL 030952Z 31007KT 10SM SCT200 BKN250 BKN300 25/21 A2998 RMK AO2 SLP139 T02500211=
201907030852 METAR KATL 030852Z 31005KT 10SM BKN180 BKN250 BKN300 26/21 A2998 RMK AO2 SLP137 T02560211 55003=
201907030752 METAR KATL 030752Z 31007KT 10SM SCT180 BKN250 BKN300 26/21 A2997 RMK AO2 SLP134 T02610211=
201907030652 METAR KATL 030652Z 32009KT 10SM FEW150 SCT200 SCT250 27/21 A2997 RMK AO2 SLP136 T02670211=
201907030552 METAR KATL 030552Z 31006KT 10SM FEW200 SCT250 BKN300 28/21 A2999 RMK AO2 SLP140 T02780211 10322 20272 58001=
201907030452 METAR KATL 030452Z 30008KT 10SM SCT250 BKN300 28/21 A3000 RMK AO2 SLP144 T02830211 403500244=
201907030352 METAR KATL 030352Z 29007KT 10SM BKN250 28/21 A3000 RMK AO2 SLP146 T02830211=
201907030252 METAR KATL 030252Z 28008KT 10SM SCT250 29/21 A2999 RMK AO2 SLP142 T02890206 53014=
201907030152 METAR KATL 030152Z 25004KT 10SM FEW060 FEW250 30/21 A2997 RMK AO2 SLP134 T03000206=
201907030052 METAR KATL 030052Z 23004KT 10SM FEW060 FEW250 31/19 A2996 RMK AO2 SLP130 T03060194=
201907022352 METAR KATL 022352Z 27007KT 10SM FEW060 FEW250 32/19 A2995 RMK AO2 SLP128 T03220194 10350 20322 55008=
201907022252 METAR KATL 022252Z 28008KT 10SM FEW060 FEW250 34/19 A2994 RMK AO2 SLP125 T03390194=
201907022152 METAR KATL 022152Z 28008KT 10SM FEW060 SCT250 34/19 A2995 RMK AO2 SLP130 T03390194=
201907022052 METAR KATL 022052Z 31005G16KT 10SM FEW060 FEW250 34/18 A2997 RMK AO2 SLP136 T03440183 56020=
201907021952 METAR KATL 021952Z VRB05G15KT 10SM FEW065 FEW250 34/18 A2999 RMK AO2 SLP142 MDT CU DSNT E S T03440183=
201907021852 METAR KATL 021852Z 31008G16KT 10SM FEW060 FEW250 34/18 A3001 RMK AO2 SLP149 MDT CU NE-SE T03440183=
201907021752 METAR KATL 021752Z 31009KT 280V360 10SM SCT055 SCT250 34/19 A3003 RMK AO2 SLP156 MDT CU W NW T03390194 10339 20256 58011=
201907021652 METAR KATL 021652Z 32004KT 10SM SCT050 SCT250 33/21 A3004 RMK AO2 SLP161 MDT CU NE SE T03280206=
201907021552 METAR KATL 021552Z 34008KT 10SM FEW045 FEW250 32/21 A3006 RMK AO2 SLP165 T03170211=
201907021452 METAR KATL 021452Z 34009KT 10SM FEW040 FEW250 31/21 A3006 RMK AO2 SLP168 T03060211 50005 $=
201907021352 METAR KATL 021352Z 30006KT 10SM CLR 29/22 A3007 RMK AO2 SLP168 T02940217=
201907021252 METAR KATL 021252Z 31008KT 10SM CLR 28/21 A3006 RMK AO2 SLP167 T02780211=
201907021152 METAR KATL 021152Z 32006KT 10SM CLR 26/21 A3005 RMK AO2 SLP164 T02560211 10261 20244 53016=
201907021052 METAR KATL 021052Z 32007KT 9SM FEW250 24/21 A3003 RMK AO2 SLP158 T02440211=
201907020952 METAR KATL 020952Z 31007KT 10SM CLR 26/21 A3001 RMK AO2 SLP150 T02560206=
201907020852 METAR KATL 020852Z 27005KT 10SM CLR 24/21 A3000 RMK AO2 SLP147 T02440211 56007=
201907020752 METAR KATL 020752Z 29006KT 10SM CLR 26/21 A3000 RMK AO2 SLP148 T02560211=
201907020652 METAR KATL 020652Z 30006KT 10SM FEW250 26/21 A3001 RMK AO2 SLP150 T02610211=
201907020552 METAR KATL 020552Z 28005KT 10SM FEW150 FEW250 26/21 A3002 RMK AO2 SLP154 T02610211 10311 20261 58004=
201907020452 METAR KATL 020452Z 28007KT 10SM FEW150 SCT250 27/21 A3003 RMK AO2 SLP157 T02720211 403390228=
201907020352 METAR KATL 020352Z 26005KT 10SM FEW150 BKN250 28/21 A3004 RMK AO2 SLP160 T02780211=
201907020252 METAR KATL 020252Z 26006KT 10SM FEW150 BKN250 28/21 A3004 RMK AO2 SLP158 T02830206 51013=
201907020152 METAR KATL 020152Z 26003KT 10SM FEW200 SCT250 29/21 A3003 RMK AO2 SLP156 T02940206=
201907020052 METAR KATL 020052Z 26005KT 10SM FEW200 SCT250 29/19 A3001 RMK AO2 SLP151 T02940194=
201907012352 METAR KATL 012352Z 26006KT 10SM FEW250 31/19 A3000 RMK AO2 SLP146 60000 T03110194 10339 20306 56008=
201907012252 METAR KATL 012252Z 28007KT 10SM FEW045 BKN250 32/19 A3000 RMK AO2 SLP146 T03220194=
201907012152 METAR KATL 012152Z 29007KT 10SM FEW040 BKN250 33/19 A3000 RMK AO2 SLP148 CB DSNT SE T03280194=
201907012052 METAR KATL 012052Z 30011KT 10SM FEW040 FEW100 SCT180 BKN250 33/21 A3002 RMK AO2 LTG DSNT S AND SW RAB1959E27 SLP154 CB DSNT SE-SW P0000 60000 T03280206 56013=
201907012021 SPECI KATL 012021Z 30011KT 10SM -RA FEW045 SCT090 BKN180 BKN250 31/21 A3003 RMK AO2 LTG DSNT SE-SW RAB1959 TS MOV SE CB DSNT SE-SW P0000 T03110206=
201907011955 SPECI KATL 011955Z 30011KT 10SM VCTS FEW055CB SCT100 BKN180 BKN250 32/19 A3004 RMK AO2 LTG DSNT SW OCNL LTGICCG VC SW-W TS VC SW-W MOV SE TCU DSNT NE-SE SHRA VC NE SE SW-W T03220194=
201907011952 METAR KATL 011952Z 31008KT 10SM VCTS FEW055CB SCT100 BKN180 BKN250 32/19 A3004 RMK AO2 SLP159 OCNL LTGICCG VC SW-W TS VC SW-W MOV SE TCU DSNT NE-SE SHRA VC SW-W T03220189=
201907011935 SPECI KATL 011935Z 33008KT 10SM VCTS FEW060CB SCT100 SCT250 33/20 A3004 RMK AO2 OCNL LTGICCG VC W TS VC W MOV SE TCU DSNT NE-SE-S SHRA VC W T03330200=
201907011852 METAR KATL 011852Z 35014G18KT 10SM FEW050TCU SCT200 SCT250 33/20 A3004 RMK AO2 LTG DSNT N AND NW SLP162 CB DSNT NW-N TCU E SE-SW T03330200=
201907011752 METAR KATL 011752Z 32011G15KT 10SM SCT050 SCT250 33/19 A3006 RMK AO2 SLP167 CB DSNT NW MDT CU N-NE-E W-NW T03280189 10333 20244 58005=
201907011652 METAR KATL 011652Z 34011KT 10SM SCT045TCU 33/21 A3007 RMK AO2 LTG DSNT NW SLP168 CB DSNT NW TCU NE SE S W T03280206=
201907011552 METAR KATL 011552Z 30009KT 10SM SCT040 32/21 A3008 RMK AO2 SLP173 MDT CU NE SW T03170211=
201907011452 METAR KATL 011452Z 28009KT 10SM FEW030 FEW250 30/22 A3008 RMK AO2 SLP173 T03000217 50007=
201907011352 METAR KATL 011352Z 32009KT 10SM FEW250 28/21 A3009 RMK AO2 SLP176 T02830211=
201907011252 METAR KATL 011252Z 29010KT 10SM FEW200 27/21 A3007 RMK AO2 SLP169 T02670206=
