##########################################################
# Query made at 04/20/2024 00:09:12 UTC
# Time interval: from 02/01/2020 12:00  to 02/29/2020 12:59  UTC
##########################################################

##########################################################
# KATL, Atlanta, Hartsfield - Jackson Atlanta International Airport (United States)
# WMO index: 72219. WIGOS ID: 0-20000-0-72219
# Latitude 33-38-59N. Longitude 084-25-00W. Altitude 312 m.
##########################################################

202002291252 METAR KATL 291252Z 28009KT 10SM CLR 03/M01 A3018 RMK AO2 SLP224 T00331011=
202002291152 METAR KATL 291152Z 29007KT 10SM FEW027 02/M02 A3016 RMK AO2 SLP219 T00221017 10050 20022 53013=
202002291052 METAR KATL 291052Z 27006KT 10SM FEW070 02/M02 A3015 RMK AO2 SLP215 T00221017=
202002290952 METAR KATL 290952Z 27007KT 10SM FEW070 03/M02 A3014 RMK AO2 SLP209 T00331022=
202002290852 METAR KATL 290852Z 27008KT 10SM FEW070 FEW090 03/M03 A3012 RMK AO2 SLP205 T00331028 58007=
202002290752 METAR KATL 290752Z 27009KT 10SM BKN070 BKN090 05/M03 A3013 RMK AO2 SLP207 T00501028=
202002290652 METAR KATL 290652Z 27008KT 10SM FEW060 BKN075 04/M03 A3014 RMK AO2 SLP211 T00441028=
202002290552 METAR KATL 290552Z 27008KT 10SM SCT085 04/M03 A3015 RMK AO2 SLP212 T00441028 10089 20039 58003=
202002290452 METAR KATL 290452Z 27007KT 10SM CLR 04/M02 A3015 RMK AO2 SLP214 T00391017 401220000=
202002290352 METAR KATL 290352Z 28006KT 10SM CLR 04/M02 A3016 RMK AO2 SLP218 T00441017=
202002290252 METAR KATL 290252Z 30005KT 10SM FEW080 06/M01 A3016 RMK AO2 SLP217 T00561011 51016=
202002290152 METAR KATL 290152Z 30007KT 10SM FEW080 06/M01 A3014 RMK AO2 SLP213 T00611006=
202002290052 METAR KATL 290052Z 31009KT 10SM FEW060 SCT080 08/M01 A3013 RMK AO2 SLP208 T00781006=
202002282352 METAR KATL 282352Z 31012G19KT 10SM FEW060 BKN075 BKN100 09/M01 A3011 RMK AO2 PK WND 32027/2316 SLP201 T00891006 10122 20089 53014=
202002282252 METAR KATL 282252Z 29012G21KT 10SM FEW060 BKN090 10/M03 A3008 RMK AO2 PK WND 31026/2215 SLP191 VIRGA DSNT NW-NE-E T01001028=
202002282152 METAR KATL 282152Z 32012G21KT 10SM SCT060 BKN090 11/M02 A3008 RMK AO2 PK WND 29030/2056 SLP189 VIRGA DSNT ALQDS T01061017=
202002282052 METAR KATL 282052Z 28016G31KT 10SM SCT048 BKN065 OVC090 11/M02 A3007 RMK AO2 PK WND 30031/2044 SLP186 VIRGA OHD-ALQDS BINOVC T01111022 55016=
202002281952 METAR KATL 281952Z 26019G23KT 10SM SCT070 BKN090 12/M02 A3006 RMK AO2 PK WND 29030/1917 SLP183 VIRGA NW-NE DSNT ALQDS T01171022=
202002281852 METAR KATL 281852Z 29011G21KT 10SM SCT060 OVC085 11/M02 A3009 RMK AO2 SLP193 VIRGA DSNT ALQDS BINOVC T01111022=
202002281752 METAR KATL 281752Z 26009G20KT 200V280 10SM BKN060 BKN090 11/M03 A3011 RMK AO2 SLP202 VIRGA NW-NE-E T01061033 10117 20000 58019=
202002281652 METAR KATL 281652Z 25014G21KT 10SM SCT060 BKN085 10/M04 A3015 RMK AO2 SLP215 VIRGA DSNT NW-NE T01001039=
202002281552 METAR KATL 281552Z 26012G18KT 10SM SCT060 BKN085 09/M03 A3016 RMK AO2 SLP220 ACC W-N T00891033=
202002281452 METAR KATL 281452Z 27012KT 10SM FEW055 FEW075 07/M04 A3017 RMK AO2 SLP223 T00721039 53007=
202002281352 METAR KATL 281352Z 25007KT 10SM FEW055 FEW080 04/M04 A3016 RMK AO2 SLP220 T00441044=
202002281252 METAR KATL 281252Z 24007KT 10SM FEW080 01/M05 A3016 RMK AO2 SLP219 T00111050=
202002281152 METAR KATL 281152Z 23004KT 10SM SCT080 00/M06 A3015 RMK AO2 SLP218 T00001056 10022 20000 58002=
202002281052 METAR KATL 281052Z 23005KT 10SM SCT080 01/M06 A3016 RMK AO2 SLP218 T00111056=
202002280952 METAR KATL 280952Z 26007KT 10SM BKN085 02/M06 A3016 RMK AO2 SLP219 T00171061=
202002280852 METAR KATL 280852Z 27009KT 10SM FEW090 02/M06 A3016 RMK AO2 SLP219 T00171061 58004=
202002280752 METAR KATL 280752Z 26007KT 10SM FEW090 02/M06 A3017 RMK AO2 SLP222 T00171061=
202002280652 METAR KATL 280652Z 24005KT 10SM CLR 02/M06 A3017 RMK AO2 SLP222 T00171061=
202002280552 METAR KATL 280552Z 27006KT 10SM CLR 02/M06 A3017 RMK AO2 SLP223 T00221056 10067 20022 58007=
202002280452 METAR KATL 280452Z 27005KT 10SM CLR 03/M06 A3018 RMK AO2 SLP228 T00281061 400940006=
202002280352 METAR KATL 280352Z 27006KT 10SM CLR 03/M06 A3019 RMK AO2 SLP231 T00281056=
202002280252 METAR KATL 280252Z 28005KT 10SM CLR 03/M06 A3019 RMK AO2 SLP231 T00331056 51010=
202002280152 METAR KATL 280152Z 29006KT 10SM CLR 04/M06 A3019 RMK AO2 SLP231 T00441056=
202002280052 METAR KATL 280052Z 31007KT 10SM CLR 06/M07 A3017 RMK AO2 SLP224 T00611067=
202002272352 METAR KATL 272352Z 30008KT 10SM CLR 07/M07 A3016 RMK AO2 SLP220 T00671067 10094 20067 53003=
202002272252 METAR KATL 272252Z 29007KT 10SM CLR 08/M06 A3016 RMK AO2 SLP219 T00831061=
202002272152 METAR KATL 272152Z 28010KT 10SM CLR 09/M07 A3015 RMK AO2 SLP216 T00891067=
202002272052 METAR KATL 272052Z 31010G16KT 10SM CLR 08/M07 A3015 RMK AO2 SLP215 T00831072 56015=
202002271952 METAR KATL 271952Z 32011G20KT 10SM CLR 08/M07 A3017 RMK AO2 SLP220 T00831067=
202002271852 METAR KATL 271852Z 30015G18KT 10SM CLR 08/M06 A3018 RMK AO2 SLP225 T00781056=
202002271752 METAR KATL 271752Z 29012KT 10SM CLR 07/M06 A3020 RMK AO2 SLP231 T00671061 10067 20006 50000=
202002271652 METAR KATL 271652Z 30011G18KT 10SM CLR 05/M07 A3020 RMK AO2 SLP232 T00501067=
202002271552 METAR KATL 271552Z 29011G17KT 10SM FEW042 04/M06 A3021 RMK AO2 SLP235 T00441056=
202002271452 METAR KATL 271452Z 30012KT 10SM FEW040 03/M06 A3020 RMK AO2 SLP232 T00281061 53021=
202002271352 METAR KATL 271352Z 32014G21KT 10SM SCT035 02/M07 A3017 RMK AO2 SLP224 T00171067=
202002271252 METAR KATL 271252Z 31013KT 10SM SCT035 01/M08 A3015 RMK AO2 PK WND 32026/1204 SLP215 T00111078=
202002271152 METAR KATL 271152Z 33020G24KT 10SM BKN035 BKN045 02/M07 A3013 RMK AO2 SLP209 T00171067 10039 20017 51018=
202002271052 METAR KATL 271052Z 33010KT 10SM BKN036 BKN045 02/M06 A3012 RMK AO2 PK WND 30027/1014 SLP203 T00171061=
202002270952 METAR KATL 270952Z 31019G25KT 10SM BKN035 OVC045 02/M05 A3010 RMK AO2 PK WND 31027/0935 SLP196 T00221050=
202002270852 METAR KATL 270852Z 31016G24KT 10SM FEW025 BKN034 OVC045 03/M04 A3008 RMK AO2 PK WND 32031/0819 SLP190 BINOVC T00281044 53006 $=
202002270752 METAR KATL 270752Z 32018G25KT 10SM FEW025 BKN033 OVC045 03/M04 A3007 RMK AO2 PK WND 31027/0742 SLP187 BINOVC T00331039 $=
202002270652 METAR KATL 270652Z 31016G22KT 10SM FEW025 SCT037 OVC045 03/M04 A3006 RMK AO2 SLP184 BINOVC T00331039 $=
202002270552 METAR KATL 270552Z 30012KT 10SM FEW025 BKN042 03/M02 A3006 RMK AO2 SLP183 T00331022 10078 20033 51012 $=
202002270452 METAR KATL 270452Z 31015G24KT 10SM FEW022 SCT030 BKN045 04/M02 A3005 RMK AO2 SLP179 T00391017 401280039 $=
202002270352 METAR KATL 270352Z 31016G21KT 10SM SCT028 BKN050 04/M01 A3004 RMK AO2 SLP174 T00441011 $=
202002270252 METAR KATL 270252Z 31013KT 10SM BKN050 05/M01 A3002 RMK AO2 SLP171 T00501006 51017 $=
202002270152 METAR KATL 270152Z 31013KT 10SM FEW022 05/M01 A3001 RMK AO2 SLP165 T00501011 $=
202002270052 METAR KATL 270052Z 32015KT 10SM FEW022 06/01 A3000 RMK AO2 PK WND 29032/2354 SLP162 T00560006 $=
202002262352 METAR KATL 262352Z 31019G28KT 10SM SCT028 BKN040 BKN200 08/01 A2997 RMK AO2 PK WND 30030/2321 SLP153 60000 T00780011 10128 20078 53027=
202002262252 METAR KATL 262252Z 28015G21KT 10SM SCT028 BKN035 BKN080 BKN200 09/03 A2994 RMK AO2 PK WND 28026/2214 SLP140 T00890028=
202002262152 METAR KATL 262152Z 28010G19KT 10SM SCT028 BKN037 BKN047 BKN200 10/04 A2990 RMK AO2 SLP128 SHRA NE-E SW T01000039=
202002262052 METAR KATL 262052Z 28010G19KT 10SM SCT028 OVC070 11/03 A2989 RMK AO2 RAE00 SLP121 P0000 60000 T01060033 55012=
202002261952 METAR KATL 261952Z 30011KT 10SM -RA SCT032 SCT044 OVC070 11/04 A2988 RMK AO2 RAB23 SLP117 P0000 T01110039=
202002261852 METAR KATL 261852Z 28011KT 10SM FEW032 OVC060 12/06 A2988 RMK AO2 SLP119 T01220056=
202002261752 METAR KATL 261752Z 26009KT 10SM FEW030 FEW060 BKN100 OVC250 12/06 A2992 RMK AO2 SLP133 T01220056 10122 20078 50005=
202002261652 METAR KATL 261652Z 28012G19KT 10SM BKN030 BKN120 12/06 A2996 RMK AO2 SLP146 T01170056=
202002261552 METAR KATL 261552Z 27008KT 10SM BKN029 OVC150 12/07 A2993 RMK AO2 SLP136 T01170072=
202002261452 METAR KATL 261452Z 00000KT 10SM SCT150 BKN250 10/07 A2991 RMK AO2 SLP128 VIRGA SE T01000072 51011=
202002261352 METAR KATL 261352Z 29004KT 10SM SCT200 SCT250 09/07 A2990 RMK AO2 PRESRR SLP126 VIRGA SE T00940067=
202002261252 METAR KATL 261252Z 32007KT 10SM FEW200 FEW250 08/06 A2988 RMK AO2 SLP118 T00830061=
202002261152 METAR KATL 261152Z 31007KT 10SM FEW200 SCT250 08/06 A2987 RMK AO2 SLP116 T00780061 10111 20078 50003=
202002261052 METAR KATL 261052Z 30005KT 10SM FEW200 SCT250 09/07 A2988 RMK AO2 SLP116 T00890067=
202002260952 METAR KATL 260952Z 29006KT 10SM BKN200 BKN250 09/07 A2988 RMK AO2 SLP114 VIRGA OHD-ALQDS T00940072=
202002260852 METAR KATL 260852Z 30006KT 10SM SCT200 BKN250 10/07 A2987 RMK AO2 SLP110 VIRGA OHD-W-N T01000072 58010=
202002260752 METAR KATL 260752Z 26003KT 10SM SCT200 BKN250 10/07 A2987 RMK AO2 SLP112 VIRGA OHD-W-N T01000072=
202002260652 METAR KATL 260652Z 00000KT 10SM SCT200 BKN250 11/08 A2990 RMK AO2 SLP121 VIRGA OHD-SW-NW T01060078=
202002260552 METAR KATL 260552Z 00000KT 10SM BKN200 OVC250 11/08 A2990 RMK AO2 SLP121 T01110078 10161 20111 58001=
202002260452 METAR KATL 260452Z 31004KT 10SM BKN200 OVC250 12/08 A2990 RMK AO2 SLP122 T01170078 402060094=
202002260352 METAR KATL 260352Z 32007KT 10SM OVC200 12/08 A2990 RMK AO2 SLP124 T01220083=
202002260252 METAR KATL 260252Z 32006KT 10SM OVC200 13/09 A2990 RMK AO2 SLP124 T01280089 53018=
202002260152 METAR KATL 260152Z 33006KT 10SM BKN180 OVC250 14/08 A2987 RMK AO2 SLP114 T01440083=
202002260052 METAR KATL 260052Z 31008KT 10SM BKN180 BKN250 15/08 A2987 RMK AO2 SLP112 T01500083=
202002252352 METAR KATL 252352Z 27005KT 10SM BKN180 BKN250 16/09 A2985 RMK AO2 SLP105 T01610089 10206 20161 53011=
202002252252 METAR KATL 252252Z 29007KT 10SM BKN180 BKN250 17/09 A2983 RMK AO2 SLP101 VIRGA SW-NW T01720094=
202002252152 METAR KATL 252152Z 29006KT 10SM FEW042 BKN180 BKN250 19/11 A2982 RMK AO2 SLP096 VIRGA SE-SW-NW T01890106=
202002252052 METAR KATL 252052Z 24007KT 10SM FEW040 BKN200 19/10 A2981 RMK AO2 SLP092 T01940100 56010=
202002251952 METAR KATL 251952Z 27006KT 10SM SCT038 BKN200 BKN250 20/11 A2981 RMK AO2 SLP093 T02000111=
202002251852 METAR KATL 251852Z 25008KT 10SM SCT034 BKN180 BKN250 20/11 A2982 RMK AO2 SLP095 T02000111=
202002251813 SPECI KATL 251813Z VRB04KT 10SM SCT026 BKN034 BKN180 OVC250 18/12 A2983 RMK AO2 T01830117=
202002251752 METAR KATL 251752Z 29005KT 10SM SCT020 BKN028 BKN180 OVC250 18/12 A2984 RMK AO2 SLP103 T01780122 10183 20106 58004=
202002251652 METAR KATL 251652Z 24003KT 8SM FEW008 BKN016 BKN030 OVC200 17/13 A2986 RMK AO2 SLP111 T01720133=
202002251642 SPECI KATL 251642Z 21005KT 8SM SCT008 BKN015 BKN030 OVC200 16/13 A2987 RMK AO2 T01610133=
202002251559 SPECI KATL 251559Z 24006KT 1 1/2SM BR OVC005 14/13 A2987 RMK AO2 SFC VIS 5 CIG 003V007 T01390128=
202002251552 METAR KATL 251552Z 24006KT 1/2SM R09R/P6000FT BR OVC003 14/13 A2987 RMK AO2 SFC VIS 2 SLP114 CIG 002V004 TWRINC T01390128=
202002251524 SPECI KATL 251524Z 00000KT 1/2SM R09R/1400V4500FT FG VV002 13/12 A2986 RMK AO2 VIS NW-N 2 T01330122=
202002251510 SPECI KATL 251510Z 00000KT 1/2SM R09R/1400V2200FT FG VV002 13/12 A2986 RMK AO2 VIS NW-N 1 T01280117=
202002251452 METAR KATL 251452Z 00000KT 1/2SM R09R/2200V4500FT FG VV002 12/11 A2985 RMK AO2 SLP109 T01220111 51014=
202002251352 METAR KATL 251352Z 10004KT 1/2SM R09R/5000VP6000FT FG VV002 12/11 A2985 RMK AO2 SLP107 T01170106=
202002251329 SPECI KATL 251329Z 07004KT 1/2SM R09R/6000VP6000FT BR VV003 12/11 A2983 RMK AO2 SFC VIS 3/4 T01170106=
202002251311 SPECI KATL 251311Z 09004KT 1/4SM R09R/1600V2600FT FG VV003 11/10 A2983 RMK AO2 TWR VIS 1/2 T01110100=
202002251306 SPECI KATL 251306Z 09005KT 1/4SM R09R/1600V2200FT FG VV003 11/10 A2982 RMK AO2 TWR VIS 1/2 T01060100=
202002251252 METAR KATL 251252Z 10003KT 1/4SM R09R/2000V3000FT FG VV003 11/10 A2982 RMK AO2 TWR VIS 1/2 SLP100 T01060100=
202002251232 SPECI KATL 251232Z 06004KT 1/4SM R09R/2000V4000FT FG VV002 11/09 A2982 RMK AO2 TWR VIS 1/2 T01060094=
202002251152 METAR KATL 251152Z 05004KT 1/2SM R09R/2400V3500FT FG VV002 11/09 A2981 RMK AO2 SLP096 60001 70111 T01060094 10106 20094 53012=
202002251052 METAR KATL 251052Z 07004KT 1/2SM R09R/3000VP6000FT FG OVC003 10/09 A2979 RMK AO2 SLP090 T01000094=
202002250952 METAR KATL 250952Z 02004KT 1/2SM R09R/2600V3000FT FG VV003 10/09 A2978 RMK AO2 RAE00 SLP086 P0000 T01000094=
202002250852 METAR KATL 250852Z 08004KT 1/2SM R09R/1600V2600FT -RA FG VV002 10/09 A2978 RMK AO2 RAB44 SLP084 P0001 60001 T01000089 56013=
202002250834 SPECI KATL 250834Z 09005KT 1/4SM R09R/2000V2200FT FG VV002 10/09 A2979 RMK AO2 TWR VIS 1/2 T01000089=
202002250752 METAR KATL 250752Z 00000KT 1/2SM R09R/6000VP6000FT BR OVC002 10/09 A2979 RMK AO2 SFC VIS 1 RAB10E19 SLP089 P0000 T01000089=
202002250652 METAR KATL 250652Z 11004KT 1/2SM R09R/P6000FT BR OVC003 09/08 A2980 RMK AO2 SFC VIS 1 RAE20 SLP094 CIG 002V004 TWRINC P0000 T00940083=
202002250617 SPECI KATL 250617Z 10006KT 1/2SM R09R/P6000FT -RA BR OVC002 09/08 A2980 RMK AO2 SFC VIS 1 TWRINC P0000 T00940083=
202002250552 METAR KATL 250552Z 06006KT 1/2SM R09R/P6000FT -RA BR OVC002 09/08 A2982 RMK AO2 SFC VIS 4 SLP099 TWRINC P0002 60023 T00940083 10100 20089 56017=
202002250452 METAR KATL 250452Z 34006KT 1/2SM R09R/P6000FT -RA OVC003 10/08 A2985 RMK AO2 SFC VIS 8 RAE01B51 SLP110 TWRINC P0000 T01000083 401000072=
202002250352 METAR KATL 250352Z 12010KT 1SM R09R/P6000FT -RA OVC004 09/08 A2980 RMK AO2 SFC VIS 7 PRESFR SLP095 CIG 003V005 P0001 T00890078=
202002250252 METAR KATL 250252Z 13009G16KT 1SM R09R/P6000FT -RA BKN004 OVC015 09/07 A2987 RMK AO2 SFC VIS 7 SLP116 CIG 003V006 P0004 60020 T00890072 58011=
202002250222 SPECI KATL 250222Z 12012KT 1SM R09R/P6000FT -RA BR BKN004 OVC015 09/07 A2987 RMK AO2 SFC VIS 6 P0003 T00890072=
202002250152 METAR KATL 250152Z 11009KT 2SM -RA BR BKN004 OVC015 09/07 A2989 RMK AO2 SFC VIS 6 SLP122 P0004 T00890072=
202002250052 METAR KATL 250052Z 09008KT 2SM -RA BKN004 OVC030 09/07 A2990 RMK AO2 SFC VIS 7 SLP127 CIG 003V006 P0012 T00890072=
202002242352 METAR KATL 242352Z 10007KT 1SM R09R/P6000FT RA BR BKN004 OVC035 09/07 A2990 RMK AO2 SFC VIS 2 1/2 SLP127 CIG 003V006 P0023 60051 T00890072 10089 20078 57012=
202002242252 METAR KATL 242252Z 11007KT 1SM R09R/P6000FT RA BR OVC004 09/07 A2992 RMK AO2 SFC VIS 2 1/2 SLP133 CIG 003V005 P0009 T00890072=
202002242152 METAR KATL 242152Z 10008KT 1SM R09R/P6000FT -RA BR OVC004 08/07 A2992 RMK AO2 SFC VIS 4 DZE13RAB13 SLP135 CIG 003V005 TWRINC P0002 T00830072=
202002242052 METAR KATL 242052Z 08010KT 1SM R09R/P6000FT -DZ BR BKN004 OVC017 08/07 A2994 RMK AO2 SFC VIS 5 RAE52DZB52 SLP140 CIG 003V005 TWRINC P0008 60017 T00830072 56029=
202002242017 SPECI KATL 242017Z 10006KT 1SM R09R/5000VP6000FT RA BR BKN004 OVC015 08/07 A2996 RMK AO2 CIG 003V006 P0003 T00830067=
202002241952 METAR KATL 241952Z 10007KT 2SM -RA BR BKN004 OVC014 08/07 A2996 RMK AO2 SLP148 CIG 003V006 P0004 T00830067=
202002241852 METAR KATL 241852Z 13006KT 2SM -RA BR BKN005 BKN012 OVC032 08/06 A2998 RMK AO2 SFC VIS 5 SLP155 CIG 004V007 P0005 T00780061=
202002241832 SPECI KATL 241832Z 12008KT 2SM -RA BR BKN006 OVC011 08/06 A2999 RMK AO2 CIG 005V008 P0003 T00780061=
202002241829 SPECI KATL 241829Z 13006KT 3SM -RA BR BKN006 OVC011 08/06 A3000 RMK AO2 CIG 005V008 P0003 T00780061=
202002241752 METAR KATL 241752Z 13007KT 4SM -RA BR BKN006 BKN012 OVC017 08/06 A3002 RMK AO2 SLP170 CIG 005V008 P0006 60036 T00780061 10078 20072 58017=
202002241713 SPECI KATL 241713Z 12009KT 4SM -RA BR BKN005 OVC017 08/06 A3004 RMK AO2 CIG 004V007 P0001 T00780061=
202002241652 METAR KATL 241652Z 11007KT 4SM -RA BR SCT005 BKN019 OVC055 08/06 A3005 RMK AO2 SLP178 P0010 T00780056=
202002241603 SPECI KATL 241603Z 09007KT 4SM -RA BR FEW006 OVC022 07/06 A3008 RMK AO2 P0002 T00720056=
202002241552 METAR KATL 241552Z 09009KT 4SM -RA BR BKN022 OVC027 07/06 A3007 RMK AO2 SLP186 P0011 T00720056=
202002241546 SPECI KATL 241546Z 09008KT 5SM -RA BR FEW006 OVC022 07/06 A3008 RMK AO2 P0011=
202002241452 METAR KATL 241452Z 09007KT 6SM -RA BKN024 OVC034 08/04 A3008 RMK AO2 SLP189 P0003 60009 T00780044 53009=
202002241438 SPECI KATL 241438Z 08009KT 8SM -RA BKN024 BKN032 OVC044 07/04 A3008 RMK AO2 P0003 T00720044=
202002241413 SPECI KATL 241413Z 08009KT 7SM -RA SCT030 BKN038 OVC050 08/05 A3008 RMK AO2 P0001 T00780050=
202002241352 METAR KATL 241352Z 08008KT 7SM -RA FEW014 BKN028 OVC050 08/04 A3008 RMK AO2 SLP187 P0003 T00780044=
202002241325 SPECI KATL 241325Z 09006KT 7SM -RA BKN028 OVC039 08/04 A3007 RMK AO2 P0001 T00780044=
202002241311 SPECI KATL 241311Z 07006KT 8SM -RA SCT032 BKN042 OVC080 08/04 A3007 RMK AO2 P0000 T00780044=
202002241252 METAR KATL 241252Z 12005KT 7SM -RA FEW065 BKN080 OVC100 08/04 A3005 RMK AO2 SLP179 P0003 T00780044=
202002241152 METAR KATL 241152Z 13006KT 9SM -RA FEW055 SCT065 OVC085 08/04 A3005 RMK AO2 SLP179 P0002 60002 70002 T00780044 10100 20078 58006=
202002241052 METAR KATL 241052Z 10004KT 10SM -RA BKN060 OVC080 08/03 A3007 RMK AO2 SLP183 P0000 T00830033=
202002240952 METAR KATL 240952Z 09003KT 10SM -RA BKN055 OVC080 09/03 A3008 RMK AO2 RAB0854 SLP186 P0000 T00890033=
202002240852 METAR KATL 240852Z 11003KT 10SM BKN055 OVC070 09/03 A3007 RMK AO2 RAE07 SLP185 P0000 60000 T00940028 58015=
202002240752 METAR KATL 240752Z 22004KT 10SM -RA BKN060 OVC070 09/01 A3009 RMK AO2 RAB48 SLP191 PCPN VRY LGT P0000 T00940011=
202002240652 METAR KATL 240652Z 00000KT 10SM FEW055 OVC070 10/01 A3010 RMK AO2 SLP195 T01000006=
202002240552 METAR KATL 240552Z 00000KT 10SM FEW050 OVC070 10/01 A3012 RMK AO2 RAB0458E07 SLP200 VIRGA OH AND ALQDS P0000 60000 T01000011 10117 20100 58022=
202002240452 METAR KATL 240452Z 22003KT 10SM FEW050 OVC070 11/M01 A3015 RMK AO2 SLP212 VIRGA OHD AND ALQDS T01061006 401390028=
202002240352 METAR KATL 240352Z 00000KT 10SM OVC070 11/M01 A3018 RMK AO2 SLP220 T01111006=
202002240252 METAR KATL 240252Z 00000KT 10SM BKN070 OVC100 11/M01 A3018 RMK AO2 SLP222 T01111011 53001=
202002240152 METAR KATL 240152Z 00000KT 10SM BKN080 OVC110 12/M02 A3018 RMK AO2 SLP221 T01171022=
202002240052 METAR KATL 240052Z 00000KT 10SM BKN085 BKN110 BKN160 11/M01 A3018 RMK AO2 SLP224 T01111006=
202002232352 METAR KATL 232352Z 22003KT 10SM SCT070 BKN090 BKN110 OVC250 12/M01 A3018 RMK AO2 SLP224 T01171006 10139 20117 56004=
202002232252 METAR KATL 232252Z 00000KT 10SM FEW070 BKN100 BKN130 OVC250 13/M04 A3018 RMK AO2 SLP223 VIRGA ALQDS T01281044=
202002232152 METAR KATL 232152Z 25004KT 10SM FEW070 BKN090 BKN130 OVC250 13/M03 A3019 RMK AO2 SLP226 VIRGA OHD AND ALQDS T01281028=
202002232052 METAR KATL 232052Z 00000KT 10SM SCT065 BKN110 BKN150 13/M03 A3019 RMK AO2 SLP227 T01331033 56014=
202002231952 METAR KATL 231952Z 00000KT 10SM SCT065 BKN110 BKN150 13/M04 A3021 RMK AO2 SLP232 T01331044=
202002231852 METAR KATL 231852Z 21005KT 10SM SCT060 BKN100 BKN150 13/M04 A3022 RMK AO2 SLP235 T01331039=
202002231752 METAR KATL 231752Z 00000KT 10SM SCT065 BKN110 BKN170 13/M03 A3024 RMK AO2 SLP242 T01281033 10128 20028 58022=
202002231652 METAR KATL 231652Z VRB04KT 10SM SCT080 SCT110 BKN180 12/M03 A3028 RMK AO2 SLP258 T01221033=
202002231552 METAR KATL 231552Z 26007KT 10SM SCT080 SCT110 BKN200 11/M03 A3031 RMK AO2 SLP267 T01111028=
202002231452 METAR KATL 231452Z 27003KT 10SM SCT080 SCT110 BKN200 09/M03 A3030 RMK AO2 SLP265 T00941033 50008=
202002231352 METAR KATL 231352Z 26005KT 10SM FEW110 SCT200 SCT250 08/M02 A3031 RMK AO2 SLP266 T00831022=
202002231252 METAR KATL 231252Z 25003KT 10SM FEW110 SCT200 BKN250 03/M03 A3029 RMK AO2 SLP264 T00331033=
202002231152 METAR KATL 231152Z 28003KT 10SM FEW150 BKN250 04/M04 A3028 RMK AO2 SLP258 T00391044 10044 20028 55001=
202002231052 METAR KATL 231052Z 25003KT 10SM SCT250 04/M04 A3028 RMK AO2 SLP257 T00391039=
202002230952 METAR KATL 230952Z 23003KT 10SM CLR 03/M03 A3028 RMK AO2 SLP258 T00281028=
202002230852 METAR KATL 230852Z 00000KT 10SM BKN250 04/M03 A3028 RMK AO2 SLP258 T00391033 55012=
202002230752 METAR KATL 230752Z 00000KT 10SM SCT250 04/M03 A3028 RMK AO2 SLP257 T00391033=
202002230652 METAR KATL 230652Z 21003KT 10SM SCT250 04/M03 A3030 RMK AO2 SLP263 T00391028=
202002230552 METAR KATL 230552Z 00000KT 10SM BKN250 04/M02 A3032 RMK AO2 SLP271 T00441017 10100 20039 58009=
202002230452 METAR KATL 230452Z 21003KT 10SM SCT250 06/M04 A3033 RMK AO2 SLP274 T00611039 401331011=
202002230352 METAR KATL 230352Z 23003KT 10SM SCT250 07/M04 A3035 RMK AO2 SLP281 T00671039=
202002230252 METAR KATL 230252Z 00000KT 10SM SCT250 07/M04 A3035 RMK AO2 SLP281 T00721044 53004=
202002230152 METAR KATL 230152Z 00000KT 10SM FEW200 SCT250 08/M03 A3034 RMK AO2 SLP280 T00781033=
202002230052 METAR KATL 230052Z 23003KT 10SM FEW200 SCT250 09/M03 A3033 RMK AO2 SLP278 T00891028=
202002222352 METAR KATL 222352Z 19004KT 10SM FEW200 SCT250 10/M03 A3033 RMK AO2 SLP278 T01001028 10133 20100 56009=
202002222252 METAR KATL 222252Z 20003KT 10SM FEW200 SCT250 12/M05 A3034 RMK AO2 SLP278 T01171050=
202002222152 METAR KATL 222152Z VRB04KT 10SM FEW150 SCT250 13/M04 A3034 RMK AO2 SLP280 T01281044=
202002222052 METAR KATL 222052Z 00000KT 10SM FEW150 SCT250 13/M04 A3036 RMK AO2 SLP286 T01281039 56029=
202002221952 METAR KATL 221952Z 00000KT 10SM SCT250 13/M03 A3038 RMK AO2 SLP293 T01281028=
202002221852 METAR KATL 221852Z VRB03KT 10SM SCT250 11/M03 A3041 RMK AO2 SLP303 T01111033=
202002221752 METAR KATL 221752Z 00000KT 10SM SCT250 09/M04 A3045 RMK AO2 SLP317 T00941039 10106 21011 58012=
202002221652 METAR KATL 221652Z 26004KT 10SM SCT250 09/M03 A3048 RMK AO2 SLP325 T00891028=
202002221552 METAR KATL 221552Z VRB03KT 10SM SCT250 08/M03 A3049 RMK AO2 SLP330 T00781033=
202002221452 METAR KATL 221452Z 00000KT 10SM FEW250 05/M04 A3049 RMK AO2 SLP330 T00501039 50013=
202002221352 METAR KATL 221352Z 31004KT 10SM CLR 02/M03 A3049 RMK AO2 SLP333 T00221033=
202002221252 METAR KATL 221252Z 32003KT 10SM CLR M01/M04 A3046 RMK AO2 SLP324 T10061044=
202002221152 METAR KATL 221152Z 31003KT 10SM CLR M01/M05 A3045 RMK AO2 SLP318 T10061050 10028 21011 53011=
202002221052 METAR KATL 221052Z 33005KT 10SM CLR M01/M05 A3043 RMK AO2 SLP313 T10061050=
202002220952 METAR KATL 220952Z 32004KT 10SM CLR M01/M04 A3041 RMK AO2 SLP305 T10061044=
202002220852 METAR KATL 220852Z 31003KT 10SM CLR 00/M04 A3041 RMK AO2 SLP305 T00001044 56009=
202002220752 METAR KATL 220752Z 00000KT 10SM CLR 01/M04 A3042 RMK AO2 SLP307 T00061039=
202002220652 METAR KATL 220652Z 00000KT 10SM CLR 01/M04 A3043 RMK AO2 SLP313 T00111044=
202002220552 METAR KATL 220552Z 00000KT 10SM CLR 02/M04 A3044 RMK AO2 SLP315 T00221044 10067 20017 56009=
202002220452 METAR KATL 220452Z 32003KT 10SM CLR 03/M05 A3045 RMK AO2 SLP318 T00281050 400890011=
202002220352 METAR KATL 220352Z 34005KT 10SM CLR 04/M05 A3045 RMK AO2 SLP319 T00391050=
202002220252 METAR KATL 220252Z 34007KT 10SM CLR 04/M03 A3047 RMK AO2 SLP326 T00441033 51010=
202002220152 METAR KATL 220152Z 33007KT 10SM CLR 05/M03 A3046 RMK AO2 SLP322 T00501028=
202002220052 METAR KATL 220052Z 32008KT 10SM CLR 06/M02 A3045 RMK AO2 SLP319 T00561022=
202002212352 METAR KATL 212352Z 31008KT 10SM CLR 07/M02 A3044 RMK AO2 SLP314 T00671022 10089 20061 53009=
202002212252 METAR KATL 212252Z 30007KT 10SM FEW045 08/M02 A3042 RMK AO2 SLP308 T00831022=
202002212152 METAR KATL 212152Z 36004KT 10SM FEW048 09/M03 A3041 RMK AO2 SLP303 T00891028=
202002212052 METAR KATL 212052Z 35009KT 10SM SCT047 08/M03 A3041 RMK AO2 SLP303 T00831028 56019=
202002211952 METAR KATL 211952Z 10SM FEW038 BKN044 07/M03 A3042 RMK AO2 SLP308 T00721033=
202002211852 METAR KATL 211852Z 01007KT 340V040 10SM SCT038 BKN046 07/M02 A3044 RMK AO2 SLP315 T00671022=
202002211752 METAR KATL 211752Z 02006KT 10SM BKN034 06/M02 A3047 RMK AO2 SLP323 T00611022 10061 20011 50001=
202002211652 METAR KATL 211652Z 02007KT 10SM FEW026 BKN030 06/M02 A3048 RMK AO2 SLP327 T00561022=
202002211552 METAR KATL 211552Z 35005KT 10SM FEW032 SCT042 04/M03 A3047 RMK AO2 SLP326 T00391028=
202002211452 METAR KATL 211452Z 34010KT 10SM FEW034 SCT046 03/M03 A3046 RMK AO2 SLP323 T00281028 53017=
202002211352 METAR KATL 211352Z 34008KT 10SM FEW035 SCT046 01/M03 A3044 RMK AO2 SLP316 T00111028=
202002211252 METAR KATL 211252Z 33010KT 10SM FEW015 BKN035 BKN050 01/M02 A3041 RMK AO2 SLP306 T00111022=
202002211249 SPECI KATL 211249Z 34009KT 10SM BKN032 BKN050 01/M02 A3041 RMK AO2=
202002211152 METAR KATL 211152Z 34010KT 10SM BKN029 OVC035 02/M02 A3038 RMK AO2 SLP296 60001 70080 T00171017 10039 20017 53017=
202002211052 METAR KATL 211052Z 34009KT 10SM FEW015 BKN029 OVC045 02/M02 A3036 RMK AO2 SLP289 T00171017=
202002210952 METAR KATL 210952Z 33008KT 10SM SCT012 BKN027 OVC045 02/M01 A3034 RMK AO2 SLP282 T00221011=
202002210938 SPECI KATL 210938Z 33011KT 10SM SCT013 BKN027 OVC045 02/M01 A3034 RMK AO2 T00221006=
202002210852 METAR KATL 210852Z 33007KT 10SM SCT009 SCT035 OVC049 02/01 A3033 RMK AO2 SLP278 DZE33 P0001 60001 T00220006 57001=
202002210845 SPECI KATL 210845Z 34007KT 10SM SCT009 SCT035 OVC049 02/01 A3033 RMK AO2 DZE33 P0001 T00220006=
202002210752 METAR KATL 210752Z 35011KT 5SM -DZ BR BKN007 BKN012 OVC020 03/01 A3033 RMK AO2 SLP279 P0000 T00280011=
202002210652 METAR KATL 210652Z 33007KT 4SM -DZ BR BKN005 OVC012 03/02 A3033 RMK AO2 SLP278 RAE40DZB40 P0000 T00330017=
202002210614 SPECI KATL 210614Z 34007KT 4SM -RA BR BKN005 OVC010 03/02 A3033 RMK AO2 P0000 T00330017=
202002210552 METAR KATL 210552Z 34006KT 8SM -RA FEW005 OVC010 04/02 A3033 RMK AO2 SLP279 PCPN VRY LGT P0000 60000 T00390017 10050 20039 50005=
202002210452 METAR KATL 210452Z 33007KT 6SM -RA BR BKN008 OVC015 04/02 A3034 RMK AO2 RAB50 SLP280 P0000 T00390017 401000039=
202002210426 SPECI KATL 210426Z 34008KT 8SM BKN008 OVC015 04/02 A3034 RMK AO2 T00390017=
202002210352 METAR KATL 210352Z 03007KT 7SM FEW007 BKN012 OVC020 04/02 A3033 RMK AO2 RAE14 SLP277 P0000 T00440017=
202002210252 METAR KATL 210252Z 05009KT 2SM -RA SCT006 BKN014 OVC025 04/02 A3032 RMK AO2 SFC VIS 3 RAB27 SLP272 P0000 60000 T00440017 51021=
202002210228 SPECI KATL 210228Z 04007KT 4SM -RA SCT009 BKN014 OVC025 04/02 A3031 RMK AO2 RAB27 P0000 T00440017=
202002210152 METAR KATL 210152Z 02011KT 10SM BKN017 OVC023 04/02 A3030 RMK AO2 SLP267 T00440017=
202002210052 METAR KATL 210052Z 02011KT 10SM BKN012 OVC020 04/02 A3028 RMK AO2 RAE19 SLP259 P0000 T00440017=
202002202352 METAR KATL 202352Z 03010KT 10SM -RA BKN012 BKN023 OVC035 05/02 A3025 RMK AO2 SLP249 P0000 60027 T00500022 10056 20039 53013=
202002202252 METAR KATL 202252Z 03017KT 8SM -RA SCT008 BKN013 OVC020 05/02 A3021 RMK AO2 SLP236 P0001 T00500022=
202002202152 METAR KATL 202152Z 04011G18KT 6SM -RA BKN008 BKN014 OVC065 06/03 A3021 RMK AO2 SLP234 CIG 007V010 P0003 T00560028=
202002202128 SPECI KATL 202128Z 05011KT 6SM -RA BR BKN008 BKN014 OVC060 06/03 A3020 RMK AO2 CIG 007V010 P0002 T00560033=
202002202102 SPECI KATL 202102Z 07014KT 6SM -RA SCT011 BKN038 OVC070 06/03 A3020 RMK AO2 PRESFR P0001 T00560028=
202002202052 METAR KATL 202052Z 06014KT 4SM -RA SCT010 BKN015 OVC065 06/03 A3021 RMK AO2 SLP235 P0008 60023 T00560028 56012=
202002201952 METAR KATL 201952Z 03011KT 6SM -RA BR BKN010 OVC020 05/03 A3023 RMK AO2 SLP240 CIG 009V012 P0005 T00500028=
202002201852 METAR KATL 201852Z 05012KT 5SM -RA BR FEW008 BKN012 OVC030 04/02 A3023 RMK AO2 SLP241 CIG 010V014 P0010 T00440022=
202002201814 SPECI KATL 201814Z 04012KT 5SM -RA BR FEW008 BKN012 OVC036 04/02 A3025 RMK AO2 P0004 T00390022=
202002201752 METAR KATL 201752Z 07014KT 5SM RA BR SCT012 BKN034 OVC060 04/02 A3025 RMK AO2 PRESFR SLP248 P0010 60052 T00390017 10067 20039 58005=
202002201710 SPECI KATL 201710Z 07014KT 7SM -RA SCT028 BKN038 OVC050 04/01 A3029 RMK AO2 P0003 T00390011=
202002201652 METAR KATL 201652Z 07014KT 4SM RA FEW015 OVC028 04/01 A3030 RMK AO2 SLP265 P0011 T00390011=
202002201552 METAR KATL 201552Z 05017G21KT 7SM -RA FEW012 BKN022 OVC032 04/01 A3028 RMK AO2 PK WND 04027/1456 SLP259 P0009 T00390011=
202002201509 SPECI KATL 201509Z 05014G25KT 5SM -RA BR SCT009 BKN015 OVC022 05/03 A3029 RMK AO2 PK WND 04027/1456 PRESRR P0003 T00500028=
202002201452 METAR KATL 201452Z 05014G23KT 3SM RA BR BKN008 OVC016 06/03 A3026 RMK AO2 SLP252 CIG 007V010 P0007 60022 T00560033 53002=
202002201414 SPECI KATL 201414Z 06015KT 7SM -RA BKN009 OVC017 06/04 A3024 RMK AO2 CIG 008V011 P0001 T00610039=
202002201352 METAR KATL 201352Z 06016KT 8SM -RA BKN010 BKN017 OVC029 06/04 A3023 RMK AO2 SLP240 P0005 T00610039=
202002201349 SPECI KATL 201349Z 07016KT 7SM -RA BKN010 BKN017 OVC029 06/04 A3023 RMK AO2 P0005=
202002201252 METAR KATL 201252Z 07014KT 7SM -RA SCT008 BKN015 OVC025 07/04 A3026 RMK AO2 SLP249 P0010 T00670044=
202002201250 SPECI KATL 201250Z 07014KT 7SM -RA SCT008 BKN015 OVC025 07/04 A3026 RMK AO2 P0010=
202002201152 METAR KATL 201152Z 06012KT 5SM RA BR BKN006 OVC015 07/05 A3026 RMK AO2 SLP250 P0010 60015 70015 T00670050 10089 20067 55000=
202002201052 METAR KATL 201052Z 08011KT 7SM -RA OVC008 07/06 A3025 RMK AO2 SLP244 CIG 006V010 P0003 T00720056=
202002200952 METAR KATL 200952Z 10009KT 5SM -RA BR OVC007 07/06 A3025 RMK AO2 DZE29RAB29 SLP245 P0002 T00720056=
202002200852 METAR KATL 200852Z 09011KT 5SM -DZ BR BKN006 OVC010 08/06 A3026 RMK AO2 SLP250 P0000 60000 T00780056 58011 $=
202002200752 METAR KATL 200752Z 09012KT 3SM -DZ BR OVC008 08/07 A3027 RMK AO2 SLP252 CIG 006V010 P0000 T00830067 $=
202002200652 METAR KATL 200652Z 08014KT 4SM -DZ BR OVC007 09/07 A3029 RMK AO2 RAE13DZB13 SLP260 CIG 005V009 P0000 T00890067 $=
202002200612 SPECI KATL 200612Z 09011KT 4SM -RA BR OVC009 09/07 A3029 RMK AO2 CIG 007V011 P0000 T00890072=
202002200552 METAR KATL 200552Z 09012KT 8SM -RA SCT008 OVC013 09/07 A3030 RMK AO2 RAB38 SLP261 P0000 60000 T00890067 10117 20089 56010=
202002200452 METAR KATL 200452Z 08011G17KT 10SM OVC012 10/07 A3031 RMK AO2 SLP264 T01000067 401560100=
202002200352 METAR KATL 200352Z 11008KT 10SM BKN014 OVC020 10/07 A3031 RMK AO2 SLP265 T01000072=
202002200252 METAR KATL 200252Z 08011KT 9SM FEW007 OVC020 10/07 A3033 RMK AO2 DZE38 SLP271 P0000 60000 T01000072 51009=
202002200239 SPECI KATL 200239Z 10009KT 9SM SCT007 OVC020 10/08 A3032 RMK AO2 DZE38 P0000 T01000078=
202002200152 METAR KATL 200152Z 10008KT 7SM -DZ BKN007 OVC015 10/08 A3031 RMK AO2 DZB30 SLP268 P0000 T01000083=
202002200052 METAR KATL 200052Z 08008KT 8SM SCT006 BKN010 OVC020 11/09 A3031 RMK AO2 DZE49 SLP266 P0000 T01060089=
202002200038 SPECI KATL 200038Z 08011KT 1 1/2SM -DZ BR BKN006 OVC015 11/09 A3031 RMK AO2 SFC VIS 4 CIG 004V009 P0000 T01060089=
202002200025 SPECI KATL 200025Z 08014KT 3/4SM R09R/P6000FT -DZ BR OVC004 11/09 A3031 RMK AO2 SFC VIS 1 1/2 P0000 T01060089=
202002192352 METAR KATL 192352Z 02007KT 2 1/2SM -DZ OVC009 12/09 A3030 RMK AO2 DZB41 SLP261 P0000 60000 T01170089 10117 20111 53014=
202002192342 SPECI KATL 192342Z 02007KT 2 1/2SM -DZ OVC009 12/08 A3029 RMK AO2 DZB41 P0000 T01170083=
202002192252 METAR KATL 192252Z 01005KT 9SM OVC011 12/08 A3028 RMK AO2 SLP256 CIG 008V013 T01170083=
202002192152 METAR KATL 192152Z 03005KT 9SM OVC013 12/08 A3026 RMK AO2 SLP247 VIRGA SE-SW T01170078=
202002192052 METAR KATL 192052Z 36006KT 9SM OVC014 12/07 A3025 RMK AO2 SLP245 VIRGA NE-SE-SW T01170072 58009=
202002192028 SPECI KATL 192028Z 34006KT 10SM BKN014 BKN048 BKN080 OVC140 11/07 A3027 RMK AO2 VIRGA OHD-ALQDS T01110072=
202002191952 METAR KATL 191952Z 34008KT 10SM FEW014 SCT045 BKN150 OVC200 11/07 A3027 RMK AO2 SLP249 VIRGA SE-SW-W T01110072=
202002191852 METAR KATL 191852Z 36007KT 10SM SCT012 BKN045 BKN140 OVC200 11/07 A3027 RMK AO2 SLP250 T01110072=
202002191752 METAR KATL 191752Z 33009KT 10SM SCT011 BKN042 OVC140 11/08 A3028 RMK AO2 SLP254 VIRGA NW-NE-SE T01110078 10111 20100 50004=
202002191702 SPECI KATL 191702Z 31008KT 10SM SCT010 BKN032 OVC140 11/07 A3029 RMK AO2 VIRGA NE-SE-S T01060072=
202002191652 METAR KATL 191652Z 31010KT 10SM BKN010 BKN033 OVC140 11/08 A3029 RMK AO2 SLP258 VIRGA NE-SE-SW T01060078=
202002191552 METAR KATL 191552Z 32006KT 8SM SCT008 BKN030 OVC140 10/07 A3028 RMK AO2 SLP253 VIRGA OHD-ALQDS T01000072=
202002191452 METAR KATL 191452Z 31013G17KT 6SM BR BKN006 BKN030 OVC140 10/08 A3027 RMK AO2 SLP251 CIG 005V007 T01000078 51029=
202002191410 SPECI KATL 191410Z 31009KT 1 1/2SM BKN005 BKN033 BKN120 OVC200 10/08 A3025 RMK AO2 SFC VIS 9 CIG 004V006 T01000083=
202002191352 METAR KATL 191352Z 30008KT 1 1/2SM OVC004 10/08 A3024 RMK AO2 SFC VIS 7 SLP239 CIG 003V005 TWRINC T01000083=
202002191305 SPECI KATL 191305Z 31008KT 1 1/2SM BR OVC004 10/08 A3023 RMK AO2 SFC VIS 5 CIG 003V005 TWRINC T01000083=
202002191252 METAR KATL 191252Z 30009KT 1 1/2SM BKN005 OVC018 10/08 A3022 RMK AO2 SFC VIS 8 SLP234 CIG 004V007 TWRINC T01000083=
202002191246 SPECI KATL 191246Z 31008KT 1 1/2SM BKN005 OVC018 10/08 A3021 RMK AO2 SFC VIS 8 CIG 004V007 TWRINC=
202002191232 SPECI KATL 191232Z 31013KT 2SM BKN005 OVC018 10/08 A3021 RMK AO2 SFC VIS 8 CIG 004V007 TWRINC T01000083=
202002191152 METAR KATL 191152Z 32010KT 2SM BR BKN005 OVC017 11/09 A3018 RMK AO2 SFC VIS 6 RAE01 SLP220 CIG 004V007 TWRINC P0000 60004 70237 T01060089 10156 20106 53018=
202002191150 SPECI KATL 191150Z 32007KT 2SM BR BKN005 OVC017 11/09 A3018 RMK AO2 SFC VIS 6 RAE01 CIG 004V007 TWRINC P0000=
202002191126 SPECI KATL 191126Z 32017KT 2SM BR OVC004 11/09 A3018 RMK AO2 SFC VIS 6 RAE01 PRESRR CIG 003V006 P0000 T01060089=
202002191118 SPECI KATL 191118Z 31009KT 1SM R09R/P6000FT BR OVC004 11/09 A3017 RMK AO2 SFC VIS 6 RAE01 CIG 003V006 P0000 T01110094=
202002191102 SPECI KATL 191102Z 30008KT 8SM BKN004 OVC100 11/09 A3016 RMK AO2 RAE01 CIG 003V006 P0000 T01110094=
202002191052 METAR KATL 191052Z 31011G22KT 8SM -RA BKN005 BKN014 OVC090 11/09 A3015 RMK AO2 RAE04B11 SLP210 CIG 004V008 P0000 T01110094=
202002191045 SPECI KATL 191045Z 31018G22KT 6SM -RA BR BKN005 BKN014 OVC090 12/10 A3017 RMK AO2 RAE04B11 PRESRR CIG 004V008 P0000 T01170100=
202002191009 SPECI KATL 191009Z 28005KT 6SM BR BKN004 BKN010 OVC090 12/11 A3014 RMK AO2 RAE04 P0000 T01220111=
202002190952 METAR KATL 190952Z 31006KT 6SM -RA BR BKN005 OVC010 13/11 A3013 RMK AO2 SLP200 P0001 T01280111=
202002190949 SPECI KATL 190949Z 32006KT 6SM -RA BR BKN005 OVC010 13/11 A3013 RMK AO2 P0001=
202002190852 METAR KATL 190852Z 31010KT 2SM -RA BR OVC004 14/13 A3014 RMK AO2 SFC VIS 6 RAB0759 SLP203 CIG 003V007 TWRINC P0002 60003 T01390128 53003=
202002190752 METAR KATL 190752Z 27004KT 2SM BR BKN003 OVC012 15/14 A3012 RMK AO2 SFC VIS 4 RAB04E18 SLP197 CIG 002V004 TWRINC P0000 T01500139=
202002190652 METAR KATL 190652Z 25003KT 2SM BR BKN003 OVC010 15/14 A3012 RMK AO2 SFC VIS 6 RAE30 SLP197 CIG 002V005 TWRINC P0001 T01500139=
202002190552 METAR KATL 190552Z 26003KT 2SM -RA BR BKN003 BKN012 OVC100 16/14 A3013 RMK AO2 SFC VIS 5 SLP200 P0005 60107 T01560139 10156 20150 53008=
202002190452 METAR KATL 190452Z 30004KT 2SM -RA BR BKN004 BKN060 OVC100 16/14 A3011 RMK AO2 SFC VIS 5 SLP194 CIG 003V006 P0005 T01560139 401670106=
202002190439 SPECI KATL 190439Z 30004KT 2SM -RA BR BKN004 BKN060 OVC100 15/14 A3012 RMK AO2 SFC VIS 5 P0004 T01500139=
202002190352 METAR KATL 190352Z 23003KT 4SM -RA BR SCT003 BKN070 OVC100 16/14 A3012 RMK AO2 SLP196 P0009 T01560144=
202002190342 SPECI KATL 190342Z 00000KT 1 1/2SM -RA BR SCT003 BKN008 OVC100 16/14 A3011 RMK AO2 SFC VIS 4 P0007 T01560144=
202002190314 SPECI KATL 190314Z 16005KT 1/2SM R09R/P6000FT -RA BR BKN003 BKN060 OVC100 16/14 A3009 RMK AO2 SFC VIS 5 TWRINC P0004 T01560139=
202002190257 SPECI KATL 190257Z 15004KT 1SM R09R/P6000FT RA BR SCT004 BKN060 OVC100 16/14 A3010 RMK AO2 SFC VIS 4 SCT004 V BKN P0001 T01560144=
202002190252 METAR KATL 190252Z 17004KT 2SM -RA BR SCT004 BKN060 OVC100 16/14 A3010 RMK AO2 SFC VIS 4 SLP192 SCT004 V BKN P0015 60088 T01560144 53009=
202002190152 METAR KATL 190152Z 12005KT 2SM -RA BR FEW004 BKN050 OVC100 16/14 A3009 RMK AO2 SFC VIS 4 SLP187 P0017 T01560139=
202002190112 SPECI KATL 190112Z 09006KT 2SM -RA BR SCT004 BKN055 OVC110 16/14 A3009 RMK AO2 SFC VIS 6 P0006 T01560144=
202002190052 METAR KATL 190052Z 04008KT 2SM RA BR FEW003 BKN024 OVC040 16/14 A3009 RMK AO2 SLP187 LTG DSNT SW CB DSNT SE-SW P0056 T01560139=
202002182355 SPECI KATL 182355Z 04008KT 2SM RA BR FEW003 BKN020 OVC040 16/14 A3008 RMK AO2 P0001 T01560139=
202002182352 METAR KATL 182352Z 03007KT 1 1/2SM +RA BR FEW003 BKN020 OVC040 15/14 A3008 RMK AO2 SLP183 P0048 60065 T01500139 10167 20150 53007=
202002182335 SPECI KATL 182335Z 03009KT 1 1/2SM +RA BR FEW003 BKN020 OVC035 16/14 A3008 RMK AO2 P0008 T01560139=
202002182311 SPECI KATL 182311Z 03011KT 4SM -RA BR FEW003 BKN015 OVC030 16/13 A3008 RMK AO2 P0004 T01560133=
202002182252 METAR KATL 182252Z 35009KT 2 1/2SM -RA BR FEW003 BKN009 OVC030 16/14 A3007 RMK AO2 SLP183 P0015 T01610139=
202002182244 SPECI KATL 182244Z 33012G17KT 1SM R09R/P6000FT +RA BR SCT003 BKN007 OVC015 16/14 A3008 RMK AO2 CIG 004V006 P0010 T01610144=
202002182215 SPECI KATL 182215Z VRB04KT 2 1/2SM -RA OVC005 17/15 A3006 RMK AO2 SFC VIS 7 CIG 004V006 P0000 T01670150=
202002182152 METAR KATL 182152Z 18005KT 1 1/4SM -RA BR OVC004 17/15 A3005 RMK AO2 SFC VIS 4 SLP175 RAB02 TSB27E42 TS MOVD E CIG 003V005 CB DSNT E W NW P0002 T01670150=
202002182143 SPECI KATL 182143Z 19006KT 1 1/4SM -RA BR OVC003 17/15 A3005 RMK AO2 SFC VIS 6 LTG DSNT E AND W AND NW RAB02 TSB27E42 TS MOVD E CIG 002V004 CB DSNT E W NW P0001 T01670150=
202002182129 SPECI KATL 182129Z 19005KT 1 1/4SM VCTS -RA BR OVC003CB 17/15 A3005 RMK AO2 SFC VIS 6 RAB02 TSB27 OCNL LTGICCA VC NE NW-N TS VC NE NW-N MOV E P0001 T01670150=
202002182052 METAR KATL 182052Z 20006KT 1 1/4SM BR OVC004 17/15 A3005 RMK AO2 SFC VIS 6 LTG DSNT SW RAE01DZB12E50 SLP176 CIG 003V005 CB DSNT SW P0000 60000 T01670150 56021=
202002181952 METAR KATL 181952Z 18007KT 1 1/4SM -RA OVC004 17/15 A3007 RMK AO2 SFC VIS 7 RAB50 SLP181 CIG 003V005 P0000 T01670150=
202002181852 METAR KATL 181852Z 19005KT 1 1/4SM OVC004 16/14 A3009 RMK AO2 SFC VIS 8 SLP189 CIG 003V005 T01610144=
202002181752 METAR KATL 181752Z 17007KT 1 1/4SM OVC003 16/14 A3012 RMK AO2 SFC VIS 8 RAE24DZB24E50 SLP197 CIG 002V004 P0014 60061 T01560139 10156 20117 58016=
202002181724 SPECI KATL 181724Z 17004KT 1 1/4SM -DZ BKN003 OVC015 14/13 A3014 RMK AO2 SFC VIS 7 RAE24DZB24 CIG 002V004 P0013 T01440133=
202002181652 METAR KATL 181652Z 17004KT 1/2SM R09R/5500VP6000FT +RA BR BKN003 OVC020 14/13 A3015 RMK AO2 SFC VIS 2 LTG DSNT SE SLP210 CIG 002V004 CB DSNT SE TWRINC P0012 T01390128=
202002181552 METAR KATL 181552Z 15003KT 1 1/4SM -RA OVC003 13/12 A3016 RMK AO2 SFC VIS 8 SLP214 CIG 002V004 P0012 T01330122=
202002181517 SPECI KATL 181517Z 13005KT 1 1/4SM -RA BR BKN003 OVC024 13/12 A3016 RMK AO2 SFC VIS 3 CIG 002V004 P0010 T01330122=
202002181452 METAR KATL 181452Z 11005KT 1/2SM R09R/P6000FT +RA BR BKN004 BKN016 OVC030 13/12 A3017 RMK AO2 SFC VIS 2 SLP216 CIG 003V005 TWRINC P0018 60023 T01280117 53010=
202002181352 METAR KATL 181352Z 12004KT 1/2SM R09R/P6000FT RA BR OVC003 13/12 A3016 RMK AO2 SFC VIS 2 1/2 RAB03 SLP213 CIG 002V004 TWRINC P0005 T01280117=
202002181252 METAR KATL 181252Z 14006KT 1/2SM R09R/P6000FT BR OVC003 12/11 A3014 RMK AO2 SFC VIS 5 RAE1155B34E51 SLP207 CIG 002V004 TWRINC P0000 T01220111=
202002181229 SPECI KATL 181229Z 13006KT 1/2SM R09R/P6000FT BR OVC003 12/11 A3013 RMK AO2 SFC VIS 5 RAE1155 CIG 002V004 TWRINC P0000 T01170111=
202002181152 METAR KATL 181152Z 14005KT 1 1/2SM -RA BR BKN003 OVC018 12/11 A3014 RMK AO2 SFC VIS 6 RAB1053 SLP206 TWRINC P0004 60013 70013 T01170106 10117 20106 50005=
202002181052 METAR KATL 181052Z 00000KT 1 1/2SM BR BKN004 OVC018 12/11 A3016 RMK AO2 SFC VIS 6 RAE33 SLP214 CIG 003V006 TWRINC P0007 T01170106 $=
202002181045 SPECI KATL 181045Z 15003KT 1 1/2SM BR BKN004 OVC018 12/11 A3016 RMK AO2 SFC VIS 6 RAE33 CIG 003V006 TWRINC P0007 T01170106 $=
202002181029 SPECI KATL 181029Z 00000KT 1/2SM R09R/P6000FT -RA BR BKN003 OVC018 12/11 A3014 RMK AO2 SFC VIS 4 LTG DSNT SE CB DSNT SE TWRINC P0007 T01170106 $=
202002181014 SPECI KATL 181014Z 12003KT 1/2SM R09R/P6000FT -RA BR OVC003 12/11 A3013 RMK AO2 SFC VIS 1 1/2 P0005 T01170106 $=
202002180952 METAR KATL 180952Z 08008KT 1/2SM R09R/2800V3500FT -RA BR OVC003 11/10 A3012 RMK AO2 SFC VIS 3/4 LTG DSNT S RAB20 SLP201 CIG 002V004 CB DSNT S P0002 T01110100 $=
202002180927 SPECI KATL 180927Z 14003KT 1/2SM R09R/2200V2400FT -RA FG VV002 11/10 A3014 RMK AO2 RAB20 OCNL LTG DSNT SW CB DSNT SW P0001 T01110100 $=
202002180852 METAR KATL 180852Z 11005KT 1/4SM R09R/2200V2400FT FG VV002 11/11 A3012 RMK AO2 TWR VIS 1/2 LTG DSNT SW DZE49 SLP201 CB DSNT S-SW P0000 60000 T01110106 58013 $=
202002180752 METAR KATL 180752Z 10006KT 1/2SM R09R/2200V2400FT -DZ FG VV002 11/10 A3014 RMK AO2 SLP207 P0000 T01110100 $=
202002180729 SPECI KATL 180729Z 10004KT 1/2SM R09R/2000V2600FT -DZ FG VV002 11/10 A3014 RMK AO2 P0000 T01110100 $=
202002180652 METAR KATL 180652Z 12005KT 1/4SM R09R/2000V2200FT -DZ FG VV002 11/10 A3015 RMK AO2 TWR VIS 1/2 DZE32B51 SLP211 P0000 T01110100 $=
202002180552 METAR KATL 180552Z 12006KT 1/2SM R09R/3500V5500FT -DZ FG VV002 11/09 A3016 RMK AO2 SLP214 P0000 60000 T01060094 10106 20100 55002 $=
202002180452 METAR KATL 180452Z 12006KT 1/2SM R09R/P6000FT -DZ BR OVC002 11/09 A3016 RMK AO2 SFC VIS 1 1/4 SLP214 P0000 T01060094 401170067 $=
202002180352 METAR KATL 180352Z 12007KT 1/2SM R09R/6000VP6000FT -DZ BR OVC002 11/09 A3016 RMK AO2 SFC VIS 1 SLP215 P0000 T01060094 $=
202002180252 METAR KATL 180252Z 12006KT 1/2SM R09R/P6000FT -DZ BR OVC003 10/09 A3016 RMK AO2 SFC VIS 1 1/2 SLP217 TWRINC P0000 60000 T01000089 51012 $=
202002180152 METAR KATL 180152Z 11006KT 1/2SM R09R/P6000FT -DZ BR OVC004 10/09 A3016 RMK AO2 SFC VIS 2 SLP216 CIG 002V005 TWRINC P0000 T01000089 $=
202002180138 SPECI KATL 180138Z 12005KT 1/2SM R09R/P6000FT -DZ BR OVC004 10/09 A3016 RMK AO2 SFC VIS 2 TWRINC P0000 T01000089 $=
202002180052 METAR KATL 180052Z 10007KT 3SM -DZ BR OVC005 11/08 A3014 RMK AO2 SFC VIS 5 SLP210 P0000 T01060083 $=
202002172352 METAR KATL 172352Z 11008KT 3SM -DZ BR OVC005 11/08 A3013 RMK AO2 SFC VIS 5 SLP205 P0000 60000 T01060083 10117 20094 53004 $=
202002172252 METAR KATL 172252Z 13007KT 6SM -DZ BR OVC007 11/09 A3012 RMK AO2 DZB47 SLP203 P0000 T01060089 $=
202002172152 METAR KATL 172152Z 09008KT 10SM OVC009 11/08 A3012 RMK AO2 SLP201 T01110083 $=
202002172145 SPECI KATL 172145Z 09007KT 10SM OVC009 11/08 A3012 RMK AO2 T01110083 $=
202002172052 METAR KATL 172052Z 09007KT 10SM OVC011 12/08 A3012 RMK AO2 SLP200 T01170078 55005 $=
202002171952 METAR KATL 171952Z 10007KT 10SM BKN010 OVC015 11/08 A3011 RMK AO2 SLP198 T01110078 $=
202002171932 SPECI KATL 171932Z 13006KT 10SM OVC011 12/08 A3011 RMK AO2 T01170078 $=
202002171852 METAR KATL 171852Z 13007KT 10SM BKN007 OVC025 11/08 A3011 RMK AO2 SLP198 T01060078 $=
202002171818 SPECI KATL 171818Z 09007KT 8SM OVC005 10/08 A3012 RMK AO2 T01000078 $=
202002171752 METAR KATL 171752Z 08008KT 1 1/2SM BR OVC005 09/07 A3013 RMK AO2 SFC VIS 6 SLP207 T00940072 10100 20067 58003 $=
202002171741 SPECI KATL 171741Z 11007KT 1SM R09R/P6000FT BR OVC005 09/07 A3014 RMK AO2 SFC VIS 6 T00940072 $=
202002171652 METAR KATL 171652Z 09007KT 1/4SM R09R/P6000FT BR OVC003 08/07 A3016 RMK AO2 SFC VIS 6 SLP215 TWRINC T00830072 $=
202002171552 METAR KATL 171552Z 10008KT 1/4SM R09R/P6000FT BR OVC002 08/07 A3015 RMK AO2 SFC VIS 2 SLP214 TWRINC T00780067 $=
202002171452 METAR KATL 171452Z 11006KT 1/4SM R09R/2400VP6000FT BR OVC002 08/07 A3014 RMK AO2 SFC VIS 3/4 SLP211 T00780067 53017 $=
202002171408 SPECI KATL 171408Z 10006KT 1/4SM R09R/1800V5500FT FG VV002 07/07 A3013 RMK AO2 T00720067 $=
202002171352 METAR KATL 171352Z 13006KT 1/4SM R09R/1400V1800FT FG VV002 07/06 A3013 RMK AO2 SFC VIS 1/2 SLP205 T00720061 $=
202002171328 SPECI KATL 171328Z 14004KT 1/4SM R09R/1400V2200FT FG VV002 07/06 A3011 RMK AO2 T00720061 $=
202002171322 SPECI KATL 171322Z 13006KT 1/4SM R09R/1400V4000FT FG VV002 07/06 A3011 RMK AO2 T00720061 $=
202002171309 SPECI KATL 171309Z 14005KT 1/4SM R09R/1400V1800FT FG VV002 07/06 A3010 RMK AO2 T00720061 $=
202002171257 SPECI KATL 171257Z 14005KT 1/4SM R09R/1200V2400FT FG VV002 07/06 A3010 RMK AO2 T00720061 $=
202002171252 METAR KATL 171252Z 14004KT 1/4SM R09R/1200V1600FT FG VV002 07/06 A3010 RMK AO2 SLP197 T00670061 $=
202002171243 SPECI KATL 171243Z 14005KT 1/8SM R09R/1200V1400FT FG VV002 07/06 A3010 RMK AO2 TWR VIS 1/4 T00720061 $=
202002171156 SPECI KATL 171156Z 10004KT 1/4SM R09R/1400V2000FT FG VV002 07/06 A3010 RMK AO2 TWR VIS 1/4 T00720061 $=
202002171152 METAR KATL 171152Z 10003KT 1/4SM R09R/1400V2400FT FG VV002 07/06 A3009 RMK AO2 TWR VIS 1/4 SLP194 70029 T00720061 10083 20072 51010 $=
202002171052 METAR KATL 171052Z 05003KT 1/4SM R09R/1400V1800FT FG VV002 07/06 A3009 RMK AO2 SLP192 T00720056 $=
202002171046 SPECI KATL 171046Z 05003KT 1/4SM R09R/1400V1800FT FG VV002 07/06 A3008 RMK AO2 $=
202002171037 SPECI KATL 171037Z 00000KT 1/4SM R09R/1400V4000FT FG VV002 07/07 A3008 RMK AO2 T00720067 $=
202002171005 SPECI KATL 171005Z 04006KT 1/8SM R09R/1000V1400FT FG VV001 07/06 A3006 RMK AO2 TWR VIS 1/4 T00720061 $=
202002170952 METAR KATL 170952Z 05006KT 1/4SM R09R/1000V1200FT FG VV002 07/06 A3006 RMK AO2 TWR VIS 1/4 SLP183 T00720061 $=
202002170852 METAR KATL 170852Z 03005KT 1/4SM R09R/1000V1200FT FG VV002 08/07 A3008 RMK AO2 TWR VIS 1/4 SLP189 T00780067 56006 $=
202002170821 SPECI KATL 170821Z 01004KT 1/4SM R09R/1200V2000FT FG VV002 08/07 A3008 RMK AO2 T00780067 $=
202002170752 METAR KATL 170752Z 00000KT 1/4SM R09R/P6000FT BR BKN003 BKN020 08/06 A3008 RMK AO2 SFC VIS 3/4 SLP191 CIG 002V004 TWRINC T00780061 $=
202002170744 SPECI KATL 170744Z 00000KT 2 1/2SM BR BKN003 BKN020 08/06 A3009 RMK AO2 BKN003 V SCT T00780061 $=
202002170708 SPECI KATL 170708Z 00000KT 5SM BR FEW003 OVC020 08/07 A3009 RMK AO2 T00830067 $=
202002170652 METAR KATL 170652Z 00000KT 1/2SM R09R/P6000FT BR BKN003 OVC020 08/07 A3009 RMK AO2 SFC VIS 2 1/2 SLP192 CIG 002V004 BKN003 V SCT TWRINC T00830067 $=
202002170552 METAR KATL 170552Z 09004KT 1/2SM R09R/P6000FT BR BKN003 OVC022 08/07 A3010 RMK AO2 SFC VIS 2 SLP195 CIG 002V004 TWRINC 60000 T00830067 10083 20083 58001 $=
202002170452 METAR KATL 170452Z VRB03KT 1/2SM R09R/P6000FT BR OVC003 08/07 A3011 RMK AO2 SFC VIS 1 1/2 SLP201 CIG 002V004 TWRINC T00830067 400830056 $=
202002170424 SPECI KATL 170424Z 10004KT 1/2SM R09R/P6000FT BR OVC003 08/07 A3011 RMK AO2 SFC VIS 3 CIG 002V004 TWRINC T00830067 $=
202002170352 METAR KATL 170352Z 09004KT 1SM R09R/P6000FT BR OVC004 08/07 A3011 RMK AO2 SFC VIS 5 SLP200 CIG 003V005 TWRINC T00830067 $=
202002170252 METAR KATL 170252Z 11004KT 1SM R09R/P6000FT BR OVC003 08/07 A3010 RMK AO2 SFC VIS 3 SLP197 CIG 002V004 TWRINC 60000 T00830067 55008 $=
202002170152 METAR KATL 170152Z 15004KT 1SM R09R/P6000FT BR OVC003 08/07 A3009 RMK AO2 SFC VIS 3 SLP194 CIG 002V004 TWRINC T00830067 $=
202002170052 METAR KATL 170052Z 15005KT 1SM R09R/P6000FT BR BKN003 BKN016 OVC036 08/07 A3011 RMK AO2 SFC VIS 2 DZE45 SLP198 CIG 002V005 BINOVC P0000 T00830067 $=
202002170004 SPECI KATL 170004Z 12004KT 1SM R09R/P6000FT -DZ BR BKN004 BKN012 OVC022 08/07 A3012 RMK AO2 SFC VIS 2 CIG 003V006 P0000 T00830067 $=
202002162352 METAR KATL 162352Z 13003KT 2SM -DZ BR BKN004 BKN012 OVC022 08/07 A3012 RMK AO2 SFC VIS 2 1/2 SLP205 CIG 003V006 P0000 60000 T00830067 10083 20072 53003 $=
202002162252 METAR KATL 162252Z 10004KT 2SM -DZ BR OVC005 08/06 A3011 RMK AO2 SFC VIS 5 DZB50 SLP199 P0000 T00830061 $=
202002162152 METAR KATL 162152Z 07005KT 2SM BR BKN005 OVC010 08/07 A3011 RMK AO2 SFC VIS 5 SLP199 T00830067 $=
202002162143 SPECI KATL 162143Z 09005KT 2SM BR BKN005 OVC010 08/06 A3011 RMK AO2 SFC VIS 5 T00830061 $=
202002162055 SPECI KATL 162055Z 09004KT 2SM BR OVC004 08/07 A3011 RMK AO2 SFC VIS 4 T00830067 $=
202002162052 METAR KATL 162052Z 11004KT 1SM R09R/P6000FT BR OVC004 08/06 A3012 RMK AO2 SFC VIS 3 SLP202 TWRINC T00830061 56019 $=
202002162024 SPECI KATL 162024Z 11004KT 1SM R09R/P6000FT BR BKN004 OVC010 08/06 A3011 RMK AO2 SFC VIS 3 TWRINC T00830061 $=
202002161952 METAR KATL 161952Z 10005KT 2SM BR BKN005 OVC012 08/06 A3012 RMK AO2 SFC VIS 4 SLP203 T00780061 $=
202002161852 METAR KATL 161852Z VRB03KT 3SM BR BKN005 OVC012 08/06 A3015 RMK AO2 SFC VIS 4 SLP213 T00780061 $=
202002161824 SPECI KATL 161824Z 11003KT 2SM BR BKN005 OVC012 08/06 A3016 RMK AO2 SFC VIS 4 T00780056 $=
202002161823 SPECI KATL 161823Z 13003KT 4SM BR BKN005 OVC012 08/06 A3016 RMK AO2 T00780056 $=
202002161752 METAR KATL 161752Z 09006KT 6SM BR FEW006 BKN012 OVC085 08/06 A3018 RMK AO2 PRESFR SLP223 BKN012 V SCT 60029 T00780056 10083 20056 58025 $=
202002161652 METAR KATL 161652Z 00000KT 6SM BR SCT005 BKN012 OVC085 07/05 A3022 RMK AO2 RAE35 SLP237 P0001 T00720050 $=
202002161645 SPECI KATL 161645Z 00000KT 5SM BR SCT005 BKN020 OVC055 07/04 A3023 RMK AO2 RAE35 P0001 T00670044 $=
202002161631 SPECI KATL 161631Z 13005KT 7SM -RA SCT019 BKN030 OVC075 07/05 A3022 RMK AO2 P0001 T00720050 $=
202002161552 METAR KATL 161552Z 04006KT 7SM -RA FEW017 BKN027 OVC070 07/04 A3023 RMK AO2 SLP242 SCT017 V BKN P0006 T00670044 $=
202002161452 METAR KATL 161452Z 10005KT 5SM -RA BR BKN070 OVC085 06/04 A3025 RMK AO2 SLP248 P0009 60022 T00560039 50010 $=
202002161352 METAR KATL 161352Z 10005KT 5SM RA BR BKN060 OVC075 06/03 A3028 RMK AO2 SLP259 P0010 T00560033 $=
202002161307 SPECI KATL 161307Z 11003KT 7SM -RA SCT015 SCT046 OVC085 06/03 A3027 RMK AO2 P0001 T00560033=
202002161252 METAR KATL 161252Z 00000KT 4SM -RA BKN015 BKN029 OVC041 06/02 A3027 RMK AO2 RAB03 SLP256 P0003 T00610022=
202002161224 SPECI KATL 161224Z 01004KT 8SM -RA BKN017 OVC080 06/02 A3026 RMK AO2 RAB03 PRESRR P0000 T00610017=
202002161203 SPECI KATL 161203Z 06007KT 10SM -RA BKN017 OVC085 06/01 A3022 RMK AO2 RAB03 PCPN VRY LGT P0000 T00610011=
202002161152 METAR KATL 161152Z 08007KT 10SM FEW017 BKN080 BKN110 OVC250 06/01 A3022 RMK AO2 SLP236 T00610011 10067 20056 55007=
202002161052 METAR KATL 161052Z 08005KT 10SM BKN085 BKN110 OVC250 06/01 A3021 RMK AO2 SLP233 T00610011=
202002160952 METAR KATL 160952Z 08006KT 10SM BKN085 OVC110 06/01 A3022 RMK AO2 SLP235 T00610006=
202002160852 METAR KATL 160852Z 08009KT 10SM BKN085 OVC250 06/01 A3024 RMK AO2 SLP242 T00610006 58014=
202002160752 METAR KATL 160752Z 07008KT 10SM BKN090 BKN250 07/00 A3027 RMK AO2 SLP252 T00670000=
202002160652 METAR KATL 160652Z 07005KT 10SM SCT110 BKN250 06/00 A3028 RMK AO2 SLP256 T00560000=
202002160552 METAR KATL 160552Z 08006KT 10SM FEW090 BKN250 06/00 A3028 RMK AO2 SLP259 T00560000 10111 20056 55010=
202002160452 METAR KATL 160452Z 10006KT 10SM FEW090 BKN250 07/00 A3028 RMK AO2 SLP256 T00670000 401330000=
202002160428 SPECI KATL 160428Z 09007KT 10SM SCT090 BKN250 07/00 A3028 RMK AO2 T00670000=
202002160352 METAR KATL 160352Z 09006KT 10SM SCT250 07/00 A3032 RMK AO2 SLP272 T00720000=
202002160252 METAR KATL 160252Z 11004KT 10SM FEW200 SCT250 08/M01 A3032 RMK AO2 SLP271 T00831006 53004=
202002160152 METAR KATL 160152Z 12005KT 10SM FEW200 SCT250 09/M01 A3031 RMK AO2 SLP267 T00941006=
202002160052 METAR KATL 160052Z 10005KT 10SM SCT200 BKN250 09/M01 A3031 RMK AO2 SLP268 T00941006=
202002152352 METAR KATL 152352Z 12005KT 10SM SCT200 BKN250 11/M01 A3030 RMK AO2 SLP267 T01111011 10133 20100 56013=
202002152252 METAR KATL 152252Z 13005KT 10SM SCT200 BKN250 12/M01 A3031 RMK AO2 SLP271 T01221011=
202002152152 METAR KATL 152152Z 14006KT 10SM SCT250 BKN300 13/M01 A3032 RMK AO2 SLP274 T01281011=
202002152052 METAR KATL 152052Z 18005KT 10SM SCT250 BKN300 13/M02 A3034 RMK AO2 SLP280 T01281017 56025=
202002151952 METAR KATL 151952Z 12009KT 10SM SCT250 BKN300 12/M02 A3036 RMK AO2 SLP285 T01171022=
202002151852 METAR KATL 151852Z 13008KT 10SM SCT250 BKN300 11/M03 A3038 RMK AO2 SLP292 T01111028=
202002151752 METAR KATL 151752Z VRB04KT 10SM FEW250 SCT300 10/M03 A3042 RMK AO2 SLP306 T01001033 10100 20006 58021=
202002151652 METAR KATL 151652Z 08006KT 10SM FEW250 08/M04 A3046 RMK AO2 SLP320 T00831039=
202002151552 METAR KATL 151552Z 08012KT 10SM SCT250 06/M05 A3047 RMK AO2 SLP324 T00611050=
202002151452 METAR KATL 151452Z 10008KT 10SM SCT250 05/M06 A3048 RMK AO2 SLP328 T00501061 53019=
202002151352 METAR KATL 151352Z 08014KT 10SM SCT200 03/M07 A3046 RMK AO2 SLP321 T00281067=
202002151252 METAR KATL 151252Z 07012KT 10SM FEW200 01/M07 A3043 RMK AO2 SLP313 T00111067=
202002151152 METAR KATL 151152Z 08011KT 10SM CLR 01/M07 A3042 RMK AO2 SLP308 T00111067 10017 20000 51009=
202002151052 METAR KATL 151052Z 04008KT 10SM CLR 01/M07 A3042 RMK AO2 SLP307 T00111072=
202002150952 METAR KATL 150952Z 03005KT 10SM CLR 01/M07 A3040 RMK AO2 SLP301 T00061072=
202002150852 METAR KATL 150852Z 01005KT 10SM CLR 01/M07 A3040 RMK AO2 SLP298 T00061072 50002=
202002150752 METAR KATL 150752Z 03006KT 10SM CLR 01/M08 A3040 RMK AO2 SLP299 T00111078=
202002150652 METAR KATL 150652Z 31006KT 10SM CLR 01/M07 A3039 RMK AO2 SLP298 T00061072=
202002150552 METAR KATL 150552Z 33005KT 10SM CLR 02/M07 A3039 RMK AO2 SLP296 T00171072 10072 20017 58006=
202002150452 METAR KATL 150452Z 33006KT 10SM CLR 02/M07 A3041 RMK AO2 SLP303 T00221072 401110011=
202002150352 METAR KATL 150352Z 33007KT 10SM CLR 03/M07 A3041 RMK AO2 SLP304 T00331067=
202002150252 METAR KATL 150252Z 33008KT 10SM CLR 04/M06 A3041 RMK AO2 SLP303 T00391061 53014=
202002150152 METAR KATL 150152Z 33011KT 10SM CLR 05/M06 A3039 RMK AO2 SLP299 T00501061=
202002150052 METAR KATL 150052Z 34008KT 10SM CLR 06/M06 A3038 RMK AO2 SLP293 T00611061=
202002142352 METAR KATL 142352Z 33012KT 10SM CLR 07/M07 A3036 RMK AO2 SLP289 T00721067 10111 20072 53015=
202002142252 METAR KATL 142252Z 33011KT 10SM CLR 09/M07 A3034 RMK AO2 SLP280 T00891072=
202002142152 METAR KATL 142152Z 32013KT 10SM CLR 11/M06 A3033 RMK AO2 SLP275 T01061061=
202002142052 METAR KATL 142052Z 34012KT 10SM CLR 11/M07 A3032 RMK AO2 SLP271 T01061072 55009=
202002141952 METAR KATL 141952Z 34013G19KT 10SM CLR 11/M06 A3032 RMK AO2 SLP271 T01111061=
202002141852 METAR KATL 141852Z 32011KT 10SM CLR 11/M06 A3033 RMK AO2 SLP273 T01111056=
202002141752 METAR KATL 141752Z 34008KT 10SM FEW200 10/M06 A3035 RMK AO2 SLP281 T01001056 10100 20011 50003=
202002141652 METAR KATL 141652Z 33010KT 10SM FEW200 09/M04 A3036 RMK AO2 SLP286 T00891044=
202002141552 METAR KATL 141552Z 33007KT 10SM FEW200 07/M03 A3036 RMK AO2 SLP285 T00671033=
202002141452 METAR KATL 141452Z 32010KT 10SM FEW200 04/M02 A3034 RMK AO2 SLP279 T00441022 53025=
202002141352 METAR KATL 141352Z 33011KT 10SM FEW200 03/M02 A3031 RMK AO2 SLP271 T00281022=
202002141252 METAR KATL 141252Z 33012KT 10SM FEW200 02/M03 A3028 RMK AO2 SLP260 T00171028=
202002141152 METAR KATL 141152Z 33011KT 10SM SCT200 SCT250 02/M03 A3026 RMK AO2 SLP254 70083 T00171028 10044 20017 53014=
202002141052 METAR KATL 141052Z 33010KT 10SM FEW150 SCT200 BKN250 03/M03 A3025 RMK AO2 SLP246 T00281028=
202002140952 METAR KATL 140952Z 33012KT 10SM FEW150 BKN200 BKN250 03/M02 A3022 RMK AO2 SLP239 T00281022=
202002140852 METAR KATL 140852Z 33009KT 10SM SCT150 BKN200 BKN250 03/M02 A3022 RMK AO2 SLP237 T00331022 51012=
202002140752 METAR KATL 140752Z 34012G19KT 10SM FEW150 BKN200 BKN250 04/M02 A3021 RMK AO2 SLP233 T00391022=
202002140652 METAR KATL 140652Z 33012G21KT 10SM SCT200 BKN250 04/M02 A3020 RMK AO2 SLP229 T00441017=
202002140552 METAR KATL 140552Z 33015G20KT 10SM SCT200 BKN250 04/M01 A3019 RMK AO2 SLP223 T00441011 10100 20044 50012=
202002140452 METAR KATL 140452Z 33009KT 10SM OVC200 06/M01 A3019 RMK AO2 SLP224 T00561006 402110056=
202002140352 METAR KATL 140352Z 33013G20KT 10SM FEW025 BKN150 OVC200 06/00 A3018 RMK AO2 SLP221 T00610000=
202002140252 METAR KATL 140252Z 34016G22KT 10SM FEW025 BKN150 BKN200 07/00 A3015 RMK AO2 SLP211 T00670000 51026=
202002140152 METAR KATL 140152Z 33014G25KT 10SM FEW025 BKN150 BKN200 07/01 A3014 RMK AO2 SLP208 T00720006=
202002140052 METAR KATL 140052Z 32016G22KT 10SM SCT025 BKN150 BKN200 09/02 A3011 RMK AO2 SLP196 T00890022=
202002132352 METAR KATL 132352Z 33015G24KT 10SM FEW024 SCT032 BKN150 BKN200 10/03 A3007 RMK AO2 SLP181 T01000033 10178 20100 51034=
202002132252 METAR KATL 132252Z 32014KT 10SM FEW022 BKN030 BKN200 11/05 A3004 RMK AO2 SLP169 T01110050=
202002132152 METAR KATL 132152Z 31014KT 10SM FEW017 BKN025 BKN200 BKN250 12/07 A3000 RMK AO2 PK WND 31027/2123 SLP156 T01170067=
202002132052 METAR KATL 132052Z 32018G23KT 10SM OVC023 13/08 A2997 RMK AO2 SLP144 BINOVC T01330078 53020=
202002131952 METAR KATL 131952Z 30020G25KT 10SM BKN025 BKN250 15/09 A2994 RMK AO2 SLP135 T01500089=
202002131852 METAR KATL 131852Z 32016KT 10SM BKN024 BKN110 BKN250 16/09 A2992 RMK AO2 SLP127 T01560094=
202002131806 SPECI KATL 131806Z 31015G21KT 10SM SCT014 BKN024 BKN110 BKN250 16/12 A2992 RMK AO2 T01610117=
202002131752 METAR KATL 131752Z 29012KT 10SM BKN014 BKN065 BKN110 17/12 A2991 RMK AO2 PK WND 32026/1741 SLP122 60083 T01670122 10200 20150 50009=
202002131708 SPECI KATL 131708Z 28009KT 10SM BKN014 BKN110 17/13 A2991 RMK AO2 T01670133=
202002131652 METAR KATL 131652Z 27011KT 10SM SCT012 BKN065 BKN110 16/13 A2991 RMK AO2 SLP122 T01610133=
202002131552 METAR KATL 131552Z 26008KT 10SM SCT012 BKN065 BKN100 BKN150 16/13 A2993 RMK AO2 RAE22 SLP129 P0002 T01560128=
202002131452 METAR KATL 131452Z 24005KT 5SM -RA BR FEW009 SCT040 OVC100 15/13 A2988 RMK AO2 SLP113 P0006 60081 T01500133 50027=
202002131430 SPECI KATL 131430Z 27006KT 9SM -RA SCT009 SCT028 OVC095 15/13 A2988 RMK AO2 P0004 T01500133=
202002131413 SPECI KATL 131413Z 26005KT 8SM -RA SCT007 BKN028 OVC050 15/14 A2989 RMK AO2 P0003 T01500139=
202002131352 METAR KATL 131352Z 27004KT 2 1/2SM RA BR SCT007 BKN012 OVC040 15/13 A2989 RMK AO2 SLP117 P0022 T01500133=
202002131320 SPECI KATL 131320Z 32008KT 2 1/2SM RA BR FEW007 BKN032 OVC070 15/13 A2985 RMK AO2 SFC VIS 4 P0010 T01500133=
202002131252 METAR KATL 131252Z 32012KT 2 1/2SM RA BR FEW008 BKN015 OVC028 16/14 A2986 RMK AO2 PK WND 30037/1153 WSHFT 1151 TSE25 SLP104 TS MOVD NE CIG 013V017 P0053 T01560139=
202002131241 SPECI KATL 131241Z 31013G20KT 3SM RA BR BKN016 BKN034 OVC060 16/14 A2986 RMK AO2 PK WND 30037/1153 WSHFT 1151 SFC VIS 4 TSE25 TS MOVD NE CIG 014V018 P0048 T01610139 $=
202002131226 SPECI KATL 131226Z 31014G21KT 3SM RA BR SCT007 BKN014 OVC034 17/15 A2984 RMK AO2 PK WND 30037/1153 WSHFT 1151 SFC VIS 4 TSE25 TS MOVD NE P0045 T01670150 $=
202002131209 SPECI KATL 131209Z 29011KT 3SM TSRA BR SCT008 BKN014 OVC030CB 17/15 A2983 RMK AO2 PK WND 30037/1153 WSHFT 1151 FROPA OCNL LTGICCGCA NE-SE-SW TS NE-SE-SW MOV NE P0039 T01720150 $=
202002131203 SPECI KATL 131203Z 30015G32KT 3SM R09R/2200VP6000FT TSRA BR SCT008 BKN014 OVC030CB 17/15 A2981 RMK AO2 PK WND 30037/1153 OCNL LTGICCGCA NE-SE-SW TS NE-SE-SW MOV NE P0037 T01720150 $=
202002131157 SPECI KATL 131157Z 31022G37KT 3/4SM R09R/2200VP6000FT +TSRA BR SQ BKN012 OVC018CB 18/16 A2982 RMK AO2 PK WND 30037/1153 PRESRR OCNL LTGICCGCA NE-OHD-SW TS NE-OHD-SW MOV NE P0002 T01780156 $=
202002131155 SPECI KATL 131155Z 30025G37KT 3/4SM R09R/2200VP6000FT +TSRA BR SQ BKN012 OVC018CB 19/17 A2983 RMK AO2 PK WND 30037/1153 TWR VIS 3 PRESRR OCNL LTGICCGCA NE-OHD-SW TS NE-OHD-SW MOV NE P0001 T01890172 $=
202002131152 METAR KATL 131152Z 28021G36KT 3SM +TSRA BR BKN012 OVC020CB 21/18 A2980 RMK AO2 PK WND 29036/1152 SFC VIS 4 TSB36 SLP082 OCNL LTGICCGCA NE-OHD-SW TS NE-OHD-SW MOV NE P0008 60008 70008 T02060183 10211 20194 53006=
202002131137 SPECI KATL 131137Z 21010G18KT 3SM -TSRA BR BKN014 OVC024CB 21/18 A2978 RMK AO2 SFC VIS 5 TSB36 OCNL LTGICCGCA SW-NW-N TS SW-NW-N MOV NE P0003 T02060183=
202002131128 SPECI KATL 131128Z 20012G19KT 3SM +RA BR OVC014 21/18 A2978 RMK AO2 SFC VIS 4 LTG DSNT W CB DSNT SW-NW-N P0001 T02060183=
202002131052 METAR KATL 131052Z 20012KT 9SM -RA BKN014 OVC022 21/18 A2978 RMK AO2 RAB51 SLP076 CIG 012V016 P0000 T02110178=
202002130952 METAR KATL 130952Z 21012KT 9SM BKN015 BKN022 OVC034 21/18 A2978 RMK AO2 SLP076 CIG 013V017 T02110178=
202002130852 METAR KATL 130852Z 22014G23KT 10SM BKN016 BKN024 OVC034 21/18 A2980 RMK AO2 SLP084 CIG 014V018 60000 T02110178 58018=
202002130752 METAR KATL 130752Z 20014G20KT 10SM BKN016 OVC026 21/17 A2983 RMK AO2 DZE02RAB02E27 SLP093 CIG 014V018 P0000 T02060172=
202002130652 METAR KATL 130652Z 20011KT 8SM -DZ BKN017 BKN024 OVC036 20/17 A2984 RMK AO2 RAE0557B13E29DZB48 SLP099 CIG 015V019 P0000 T02000172=
202002130552 METAR KATL 130552Z 19011G18KT 8SM -RA BKN015 OVC030 20/17 A2986 RMK AO2 RAB40 SLP104 P0000 60000 T02000167 10222 20200 58013=
202002130452 METAR KATL 130452Z 19013G18KT 10SM BKN017 BKN030 OVC200 20/17 A2987 RMK AO2 SLP111 T02000167 402280111=
202002130352 METAR KATL 130352Z 19011G23KT 10SM BKN018 BKN200 OVC250 20/17 A2989 RMK AO2 SLP116 T02000167=
202002130252 METAR KATL 130252Z 18013G20KT 10SM SCT020 BKN200 OVC250 20/16 A2990 RMK AO2 SLP119 T02000161 58008=
202002130152 METAR KATL 130152Z 17008KT 10SM BKN250 20/17 A2991 RMK AO2 SLP124 T02000167=
202002130052 METAR KATL 130052Z 16009KT 10SM FEW035 BKN250 21/17 A2992 RMK AO2 SLP129 T02060167=
202002122352 METAR KATL 122352Z 15007KT 10SM SCT035 BKN060 BKN250 22/17 A2992 RMK AO2 SLP128 T02220167 10228 20189 56010=
202002122252 METAR KATL 122252Z 16007KT 10SM SCT030 BKN250 22/16 A2993 RMK AO2 SLP131 T02170161=
202002122152 METAR KATL 122152Z 18010KT 10SM SCT030 BKN060 BKN250 22/17 A2993 RMK AO2 SLP131 T02220167=
202002122052 METAR KATL 122052Z 20013G23KT 10SM FEW022 SCT030 BKN050 22/16 A2995 RMK AO2 SLP138 T02220161 58016=
202002121952 METAR KATL 121952Z 18009KT 10SM SCT023 BKN035 BKN042 22/17 A2997 RMK AO2 SLP145 T02220167=
202002121936 SPECI KATL 121936Z 19009KT 10SM SCT021 BKN033 BKN055 22/17 A2998 RMK AO2 T02220167=
202002121852 METAR KATL 121852Z 19007KT 10SM BKN017 BKN024 21/17 A3000 RMK AO2 SLP155 T02110167=
202002121849 SPECI KATL 121849Z 20007KT 10SM BKN017 BKN024 21/16 A3000 RMK AO2=
202002121752 METAR KATL 121752Z 18007KT 10SM OVC010 19/16 A3004 RMK AO2 SLP169 T01890156 10189 20117 58010=
202002121741 SPECI KATL 121741Z 18012KT 10SM OVC010 19/16 A3004 RMK AO2 T01890156=
202002121652 METAR KATL 121652Z 16009KT 10SM OVC009 17/14 A3006 RMK AO2 SLP177 T01720144=
202002121552 METAR KATL 121552Z 13006KT 10SM OVC008 16/13 A3007 RMK AO2 SLP181 T01560128=
202002121543 SPECI KATL 121543Z 13006KT 10SM OVC008 16/13 A3007 RMK AO2 T01560128=
202002121452 METAR KATL 121452Z 09003KT 7SM BKN011 OVC031 14/12 A3007 RMK AO2 SLP181 T01390122 51006=
202002121447 SPECI KATL 121447Z 09004KT 7SM BKN011 OVC031 14/12 A3007 RMK AO2=
202002121413 SPECI KATL 121413Z 00000KT 6SM BR SCT003 OVC032 13/11 A3007 RMK AO2 T01330111=
202002121400 SPECI KATL 121400Z 00000KT 1 1/2SM BR SCT003 OVC032 13/11 A3007 RMK AO2 SFC VIS 4 T01280111=
202002121352 METAR KATL 121352Z 00000KT 1/2SM R09R/P6000FT BR BKN003 BKN034 OVC250 13/11 A3007 RMK AO2 SFC VIS 4 SLP179 VIS E-SE 2 SE-SW 1 CIG 002V006 TWRINC T01280111=
202002121321 SPECI KATL 121321Z 17003KT 1/2SM R09R/3500VP6000FT BR BKN003 BKN055 BKN100 OVC250 12/11 A3006 RMK AO2 SFC VIS 4 VIS S-W 1 BKN003 V SCT TWRINC T01220111=
202002121258 SPECI KATL 121258Z 14006KT 7SM FEW003 FEW055 BKN100 BKN250 12/11 A3005 RMK AO2 T01170106=
202002121252 METAR KATL 121252Z 13003KT 7SM SCT055 BKN095 BKN250 12/10 A3005 RMK AO2 SLP174 T01170100=
202002121152 METAR KATL 121152Z 24003KT 7SM FEW005 BKN055 12/10 A3006 RMK AO2 SLP177 FOG BANK W-NW 70022 T01170100 10139 20111 56006=
202002121052 METAR KATL 121052Z 00000KT 7SM FEW003 BKN075 OVC250 12/10 A3006 RMK AO2 SLP177 T01170100=
202002121005 SPECI KATL 121005Z 00000KT 2SM BR SCT003 BKN065 11/10 A3006 RMK AO2 SFC VIS 6 TWRINC T01110100=
202002120952 METAR KATL 120952Z 00000KT 2SM BR BKN003 BKN065 11/10 A3006 RMK AO2 SFC VIS 4 SLP177 CIG 002V005 TWRINC T01110100=
202002120852 METAR KATL 120852Z 33007KT 1/2SM R09R/P6000FT BR OVC003 12/11 A3008 RMK AO2 SFC VIS 1 1/2 SLP183 CIG 002V004 TWRINC T01220111 51003=
202002120752 METAR KATL 120752Z 31008KT 1/2SM R09R/P6000FT BR OVC003 13/12 A3008 RMK AO2 SFC VIS 5 SLP182 TWRINC T01280117=
202002120721 SPECI KATL 120721Z 33006KT 3SM OVC004 13/12 A3008 RMK AO2 SFC VIS 8 TWRINC T01280117=
202002120652 METAR KATL 120652Z 34008KT 3SM OVC005 13/12 A3009 RMK AO2 SFC VIS 8 SLP184 CIG 004V006 TWRINC T01330117=
202002120622 SPECI KATL 120622Z 31005KT 3SM BKN005 OVC010 14/12 A3007 RMK AO2 SFC VIS 8 CIG 004V006 TWRINC T01390117=
202002120552 METAR KATL 120552Z 31005KT 10SM SCT005 BKN010 BKN080 OVC250 14/12 A3007 RMK AO2 SLP178 60002 T01390122 10172 20139 58012=
202002120452 METAR KATL 120452Z 27004KT 10SM SCT006 BKN012 BKN070 OVC200 14/12 A3009 RMK AO2 SLP186 T01390122 402110122=
202002120412 SPECI KATL 120412Z 29005KT 10SM BKN006 BKN070 OVC200 14/13 A3009 RMK AO2 T01440128=
202002120352 METAR KATL 120352Z 30006KT 10SM SCT006 BKN070 OVC200 14/13 A3009 RMK AO2 SLP186 T01440128=
202002120252 METAR KATL 120252Z 29007KT 10SM OVC080 15/13 A3011 RMK AO2 SLP191 60002 T01500128 50010=
202002120152 METAR KATL 120152Z 29008KT 10SM FEW005 OVC090 16/13 A3011 RMK AO2 RAE34 SLP192 P0000 T01560133=
202002120052 METAR KATL 120052Z 30011KT 9SM -RA FEW005 SCT014 BKN080 OVC150 17/14 A3010 RMK AO2 RAE03B16 SLP189 SCT014 V BKN P0002 T01670144=
202002120005 SPECI KATL 120005Z 31007KT 10SM FEW006 SCT012 BKN080 OVC150 17/15 A3008 RMK AO2 RAE03 P0000 T01720150=
202002112352 METAR KATL 112352Z 31010KT 8SM -RA SCT006 BKN012 OVC080 17/15 A3007 RMK AO2 WSHFT 2252 SLP180 P0014 60016 T01670150 10211 20167 53027=
202002112336 SPECI KATL 112336Z 31012KT 5SM -RA BR SCT006 BKN014CB OVC080 18/16 A3007 RMK AO2 WSHFT 2252 CB SE-SW MOV SE P0014 T01780156=
202002112309 SPECI KATL 112309Z 32012KT 2SM RA BR FEW007 BKN014CB BKN080 OVC150 18/16 A3006 RMK AO2 WSHFT 2252 SFC VIS 4 PRESRR CB SW-W MOV E P0005 T01830161=
202002112254 SPECI KATL 112254Z 32011KT 2SM RA BR SCT009CB BKN030 BKN080 OVC150 19/17 A3004 RMK AO2 SFC VIS 3 CB N-NE MOV E P0001 T01890172=
202002112252 METAR KATL 112252Z 30010KT 3SM RA BR SCT009CB BKN030 BKN080 OVC150 19/17 A3004 RMK AO2 RAB27 SLP167 CB NW-NE MOV E P0002 T01890172=
202002112152 METAR KATL 112152Z 22009KT 10SM FEW012 SCT070 BKN120 OVC200 20/17 A2999 RMK AO2 SLP151 T02000172=
202002112052 METAR KATL 112052Z 24009KT 10SM FEW015 SCT038 OVC049 21/18 A2999 RMK AO2 SLP153 60000 T02060178 55012=
202002112021 SPECI KATL 112021Z 24008KT 10SM FEW012 BKN044 OVC065 21/18 A3000 RMK AO2 T02060178=
202002112003 SPECI KATL 112003Z 24009KT 10SM FEW012 BKN016 OVC070 21/18 A3000 RMK AO2 T02060178=
202002111952 METAR KATL 111952Z 23009KT 10SM BKN012 BKN030 OVC045 21/18 A2999 RMK AO2 RAE10 SLP152 P0000 T02060178=
202002111852 METAR KATL 111852Z 22011KT 7SM -RA OVC012 21/18 A3001 RMK AO2 RAB33 SLP159 P0000 T02060178=
202002111835 SPECI KATL 111835Z 25008G17KT 10SM -RA BKN013 OVC020 21/17 A3002 RMK AO2 RAB33 P0000 T02060172=
202002111752 METAR KATL 111752Z 23013G22KT 10SM BKN019 OVC040 21/17 A3003 RMK AO2 SLP165 60004 T02110172 10211 20189 50005=
202002111652 METAR KATL 111652Z 20010KT 10SM FEW014 BKN021 OVC050 21/17 A3005 RMK AO2 PK WND 18028/1601 SLP172 P0001 T02060172 $=
202002111633 SPECI KATL 111633Z 22009G20KT 10SM SCT014 BKN021 OVC110 21/17 A3005 RMK AO2 PK WND 18028/1601 P0001 T02060172=
202002111552 METAR KATL 111552Z 23014G27KT 10SM OVC014 21/18 A3003 RMK AO2 PK WND 21030/1507 RAB19E27 SLP167 P0000 T02060178=
202002111452 METAR KATL 111452Z 21018G28KT 7SM FEW014 OVC100 20/17 A3001 RMK AO2 PK WND 20029/1438 RAB07E51 SLP159 P0003 60003 T02000172 58002=
202002111446 SPECI KATL 111446Z 22018G29KT 6SM -RA BR FEW014 SCT023 OVC100 19/17 A3001 RMK AO2 PK WND 20029/1438 RAB07 P0002=
202002111434 SPECI KATL 111434Z 21019G27KT 5SM -RA BR BKN014 BKN026 OVC100 19/17 A3001 RMK AO2 PK WND 21027/1429 RAB07 P0002 T01940172=
202002111405 SPECI KATL 111405Z 22015G20KT 10SM BKN016 BKN020 OVC030 19/17 A3003 RMK AO2 T01940172=
202002111352 METAR KATL 111352Z 21013G22KT 10SM BKN012 OVC034 19/17 A3003 RMK AO2 SLP166 T01940172=
202002111252 METAR KATL 111252Z 21012G18KT 8SM BKN012 BKN020 OVC120 19/17 A3002 RMK AO2 SLP162 T01940167=
202002111152 METAR KATL 111152Z 21012G23KT 8SM BKN012 BKN023 19/17 A3001 RMK AO2 RAE21 SLP159 P0001 60008 70160 T01890167 10189 20122 50003=
202002111121 SPECI KATL 111121Z 21014G20KT 8SM SCT008 BKN012 OVC023 18/17 A3001 RMK AO2 RAE21 P0000 T01830167=
202002111052 METAR KATL 111052Z 21010KT 6SM -RA BR BKN008 OVC014 18/17 A3001 RMK AO2 RAB16 SLP160 CIG 006V010 P0001 T01780167=
202002111023 SPECI KATL 111023Z 20013KT 3SM -RA OVC005 17/16 A3000 RMK AO2 SFC VIS 8 RAB16 CIG 004V008 TWRINC P0000 T01720161=
202002110952 METAR KATL 110952Z 21011G18KT 1/2SM R09R/P6000FT BR OVC003 16/15 A3000 RMK AO2 SFC VIS 5 RAE02B26E42 SLP157 TWRINC P0001 T01610150=
202002110949 SPECI KATL 110949Z 20013G19KT 1/2SM R09R/P6000FT BR OVC003 16/15 A3000 RMK AO2 SFC VIS 5 RAE02B26E42 TWRINC P0001=
202002110936 SPECI KATL 110936Z 20011KT 1/2SM R09R/5500VP6000FT -RA BR OVC002 16/14 A3000 RMK AO2 SFC VIS 1 1/4 RAE02B26 P0000 T01560144=
202002110852 METAR KATL 110852Z 15003KT 1/2SM R09R/2600V3500FT -RA FG VV002 12/12 A3000 RMK AO2 RAE05B27 SLP159 P0002 60005 T01220117 58023=
202002110752 METAR KATL 110752Z 11003KT 1/2SM R09R/2400V2600FT -RA FG VV003 12/11 A3003 RMK AO2 RAE29B49 SLP169 P0002 T01220111=
202002110652 METAR KATL 110652Z 11005KT 1/2SM R09R/2200V2400FT -RA FG VV002 12/11 A3005 RMK AO2 RAE31B45 SLP176 P0001 T01220111=
202002110637 SPECI KATL 110637Z 13004KT 1/2SM R09R/2800V4000FT FG VV002 12/11 A3007 RMK AO2 RAE31 P0001 T01220111=
202002110552 METAR KATL 110552Z 12005KT 1/2SM R09R/P6000FT -RA BR BKN003 OVC016 12/11 A3007 RMK AO2 SFC VIS 2 SLP183 CIG 002V004 TWRINC P0004 60064 T01220111 10128 20111 58014=
202002110452 METAR KATL 110452Z 12004KT 1/2SM R09R/P6000FT -RA BR BKN003 OVC030 12/11 A3009 RMK AO2 SFC VIS 4 SLP191 TWRINC P0003 T01220111 401280039=
202002110421 SPECI KATL 110421Z 13003KT 1/2SM R09R/P6000FT -RA BR BKN003 BKN030 OVC110 12/11 A3011 RMK AO2 SFC VIS 5 TWRINC P0001 T01220111=
202002110352 METAR KATL 110352Z 11006KT 1 1/2SM -RA BR BKN004 BKN075 OVC120 12/11 A3011 RMK AO2 SFC VIS 4 SLP198 P0003 T01220111=
202002110252 METAR KATL 110252Z 10006KT 8SM -RA FEW004 BKN090 OVC150 12/11 A3011 RMK AO2 SLP199 P0002 60054 T01220106 50003=
202002110152 METAR KATL 110152Z 09006KT 8SM -RA FEW004 SCT050 BKN090 OVC150 12/11 A3014 RMK AO2 SLP208 P0006 T01220106=
202002110133 SPECI KATL 110133Z 08006KT 7SM -RA FEW004 SCT020 OVC090 12/11 A3014 RMK AO2 P0005 T01220106=
202002110052 METAR KATL 110052Z 06006KT 7SM -RA FEW004 BKN020 OVC040 12/11 A3014 RMK AO2 SLP209 P0046 T01220106=
202002110049 SPECI KATL 110049Z 03007KT 6SM -RA BR FEW004 BKN020 OVC040 12/11 A3014 RMK AO2 P0046=
202002102352 METAR KATL 102352Z 11007KT 2SM RA BR FEW004 BKN024 OVC040 11/09 A3010 RMK AO2 SLP196 P0026 60083 T01110094 10111 20089 56012=
202002102252 METAR KATL 102252Z 11008KT 2SM RA BR FEW004 BKN045 OVC070 11/09 A3011 RMK AO2 SLP199 P0024 T01060089=
202002102232 SPECI KATL 102232Z 13006KT 2SM RA BR SCT005 BKN028 OVC070 10/09 A3012 RMK AO2 SFC VIS 3 P0014 T01000089=
202002102152 METAR KATL 102152Z 10007KT 2SM RA BR SCT005 BKN028 OVC075 10/08 A3011 RMK AO2 SFC VIS 3 SLP201 SCT005 V BKN P0028 T01000083=
202002102106 SPECI KATL 102106Z 11003KT 2SM R09R/5000VP6000FT -RA BR SCT005 OVC024 10/08 A3014 RMK AO2 SFC VIS 2 1/2 SCT005 V BKN P0004 T01000083=
202002102052 METAR KATL 102052Z 11005KT 3SM RA BR SCT004 BKN024 OVC065 10/08 A3014 RMK AO2 SLP210 SCT004 V BKN P0004 60005 T01000083 56030=
202002102041 SPECI KATL 102041Z 10005KT 3SM -RA BR SCT005 BKN027 OVC070 10/08 A3014 RMK AO2 SFC VIS 5 SCT005 V BKN P0001 T01000083=
202002102017 SPECI KATL 102017Z 11006KT 8SM -RA SCT005 BKN029 OVC090 10/08 A3015 RMK AO2 P0000 T01000083=
202002101952 METAR KATL 101952Z 11006KT 7SM -RA SCT006 BKN035 OVC095 10/08 A3015 RMK AO2 RAE12B39 SLP213 P0000 T01000078=
202002101852 METAR KATL 101852Z 10004KT 7SM -RA SCT006 BKN032 OVC090 09/08 A3019 RMK AO2 RAE1756B30 SLP228 P0001 T00940078=
202002101752 METAR KATL 101752Z 08007KT 7SM -RA FEW010 SCT024 OVC065 09/07 A3023 RMK AO2 SLP242 SCT024 V BKN P0005 60005 T00890067 10094 20050 58010=
202002101652 METAR KATL 101652Z 08004KT 7SM -RA FEW015 BKN027 OVC040 09/06 A3027 RMK AO2 RAB32 SLP253 P0000 T00940061=
202002101552 METAR KATL 101552Z 13004KT 10SM FEW015 BKN035 OVC110 08/05 A3027 RMK AO2 SLP253 T00830050=
202002101452 METAR KATL 101452Z 12005KT 10SM FEW015 SCT040 BKN120 OVC250 08/04 A3026 RMK AO2 SLP251 T00780044 58008=
202002101352 METAR KATL 101352Z 11008KT 8SM FEW013 SCT040 BKN100 OVC250 07/03 A3028 RMK AO2 SLP257 T00670028=
202002101252 METAR KATL 101252Z 09008KT 10SM FEW013 BKN043 OVC100 06/02 A3028 RMK AO2 SLP259 T00560022=
202002101152 METAR KATL 101152Z 05006KT 10SM FEW013 SCT044 SCT095 BKN250 05/02 A3028 RMK AO2 SLP259 T00500022 10061 20039 56003=
202002101142 SPECI KATL 101142Z 06011KT 10SM SCT013 SCT044 SCT130 OVC250 06/02 A3028 RMK AO2 T00560022=
202002101052 METAR KATL 101052Z 01009KT 8SM BKN013 OVC090 05/02 A3030 RMK AO2 SLP264 T00500022=
202002101009 SPECI KATL 101009Z 08007KT 8SM BKN010 BKN100 BKN150 04/02 A3027 RMK AO2 BKN010 V SCT T00390017 $=
202002100952 METAR KATL 100952Z 09008KT 8SM SCT010 BKN100 BKN150 BKN250 04/02 A3027 RMK AO2 SLP252 T00390017 $=
202002100852 METAR KATL 100852Z 11005KT 9SM FEW120 BKN200 BKN250 04/02 A3029 RMK AO2 SLP261 T00390017 56019 $=
202002100752 METAR KATL 100752Z 09008KT 9SM FEW110 SCT200 SCT250 04/02 A3030 RMK AO2 SLP265 T00390017 $=
202002100652 METAR KATL 100652Z 10007KT 9SM SCT110 SCT150 BKN200 OVC250 04/02 A3034 RMK AO2 SLP277 T00440017 $=
202002100552 METAR KATL 100552Z 09007KT 7SM BKN200 OVC250 04/02 A3035 RMK AO2 SLP283 T00440022 10106 20044 56013 $=
202002100452 METAR KATL 100452Z 10006KT 10SM BKN200 OVC250 06/02 A3037 RMK AO2 SLP289 T00560022 401330011 $=
202002100352 METAR KATL 100352Z 10010KT 10SM BKN200 BKN250 06/03 A3037 RMK AO2 SLP291 T00610028 $=
202002100252 METAR KATL 100252Z 10006KT 10SM BKN200 BKN250 07/03 A3039 RMK AO2 SLP298 T00720028 50001 $=
202002100152 METAR KATL 100152Z 10009KT 10SM BKN200 BKN250 09/02 A3039 RMK AO2 SLP299 T00890022 $=
202002100052 METAR KATL 100052Z 10007KT 10SM BKN200 BKN250 10/02 A3039 RMK AO2 SLP297 T01000022 $=
202002092352 METAR KATL 092352Z 11006KT 10SM BKN200 BKN250 11/02 A3039 RMK AO2 SLP296 T01060022 10133 20100 53002 $=
202002092252 METAR KATL 092252Z 12004KT 10SM SCT200 BKN250 12/02 A3038 RMK AO2 SLP292 T01170017 $=
202002092152 METAR KATL 092152Z 14008KT 10SM BKN250 13/01 A3037 RMK AO2 SLP289 T01280011 $=
202002092052 METAR KATL 092052Z 15010KT 10SM BKN250 13/02 A3038 RMK AO2 SLP292 T01330022 56027 $=
202002091952 METAR KATL 091952Z 13010KT 10SM BKN250 12/02 A3039 RMK AO2 SLP295 T01220022 $=
202002091852 METAR KATL 091852Z 15009KT 10SM BKN250 12/02 A3041 RMK AO2 SLP303 T01170022 $=
202002091752 METAR KATL 091752Z 12009KT 10SM BKN250 10/03 A3046 RMK AO2 SLP321 T01000028 10100 20011 58005 $=
202002091652 METAR KATL 091652Z 13006KT 10SM FEW014 SCT250 07/02 A3049 RMK AO2 SLP330 T00720022 $=
202002091552 METAR KATL 091552Z 09007KT 7SM SCT007 04/02 A3049 RMK AO2 SLP334 T00390017 $=
202002091526 SPECI KATL 091526Z VRB05KT 2SM BR BKN005 03/02 A3049 RMK AO2 SFC VIS 5 T00330022 $=
202002091452 METAR KATL 091452Z 12006KT 1/4SM R09R/P6000FT BR OVC003 02/01 A3048 RMK AO2 SFC VIS 2 SLP329 TWRINC T00220011 51015 $=
202002091401 SPECI KATL 091401Z 12005KT 1/4SM R09R/1400VP6000FT FG VV002 01/01 A3048 RMK AO2 SFC VIS 1/2 T00110006 $=
202002091352 METAR KATL 091352Z 14003KT 1/4SM R09R/1400V2000FT FG VV002 01/01 A3048 RMK AO2 TWR VIS 1/4 SLP329 T00110006 $=
202002091258 SPECI KATL 091258Z 09004KT 1/4SM R09R/1600V2600FT FG VV002 01/00 A3046 RMK AO2 TWR VIS 1/4 T00110000 $=
202002091252 METAR KATL 091252Z 06005KT 1/4SM R09R/1600V2200FT FG VV002 01/00 A3046 RMK AO2 SLP321 T00110000 $=
202002091240 SPECI KATL 091240Z 07004KT 1/4SM R09R/1800V2000FT FG VV002 02/01 A3045 RMK AO2 T00170006 $=
202002091152 METAR KATL 091152Z 11003KT 1/4SM R09R/2400V2800FT FG VV002 01/01 A3043 RMK AO2 SFC VIS 1/2 SLP313 70012 T00110006 10028 20011 53019 $=
202002091127 SPECI KATL 091127Z 07006KT 1/4SM R09R/1600V2600FT FG VV002 02/01 A3042 RMK AO2 T00170006 $=
202002091052 METAR KATL 091052Z 11003KT 1/4SM R09R/1600FT FG VV002 02/01 A3041 RMK AO2 SLP304 T00170006 $=
202002090952 METAR KATL 090952Z 08005KT 1/4SM R09R/1400V1600FT FG VV002 02/01 A3039 RMK AO2 TWR VIS 1/4 SLP298 T00170006 $=
202002090852 METAR KATL 090852Z 12005KT 1/4SM R09R/1200V1600FT FG VV002 02/01 A3038 RMK AO2 TWR VIS 1/4 SLP292 T00220011 58003 $=
202002090754 SPECI KATL 090754Z 10005KT 1/4SM R09R/1400V2200FT FG VV002 02/01 A3038 RMK AO2 T00220011 $=
202002090752 METAR KATL 090752Z 09004KT 1/4SM R09R/1400V2400FT FG VV002 02/01 A3038 RMK AO2 TWR VIS 1/4 SLP295 T00220011 $=
202002090744 SPECI KATL 090744Z 11003KT 1/4SM R09R/1400V2400FT FG VV002 02/02 A3038 RMK AO2 T00220017 $=
202002090707 SPECI KATL 090707Z 09003KT 1/4SM R09R/1600V2000FT FG VV002 03/02 A3038 RMK AO2 T00280017 $=
202002090652 METAR KATL 090652Z 11003KT 1/4SM R09R/1800V3000FT FG VV002 02/01 A3038 RMK AO2 SLP297 T00220011 $=
202002090649 SPECI KATL 090649Z 10005KT 1/4SM R09R/1800V2800FT FG VV002 03/01 A3038 RMK AO2 $=
202002090619 SPECI KATL 090619Z 07003KT 1/4SM R09R/1600V2200FT FG VV002 03/02 A3039 RMK AO2 T00280017 $=
202002090558 SPECI KATL 090558Z 11005KT 1/4SM R09R/2000V3500FT FG VV002 03/02 A3039 RMK AO2 T00280017 $=
202002090552 METAR KATL 090552Z 13003KT 1/4SM R09R/2000V2200FT FG VV002 03/02 A3039 RMK AO2 SLP297 T00280017 10056 20022 51011 $=
202002090452 METAR KATL 090452Z 11003KT 1/4SM R09R/1600V2000FT FG VV002 03/02 A3038 RMK AO2 SLP295 T00280017 400721006 $=
202002090439 SPECI KATL 090439Z 12003KT 1/4SM R09R/1600FT FG VV002 03/02 A3038 RMK AO2 T00280022 $=
202002090352 METAR KATL 090352Z 13006KT 1/4SM R09R/1600FT FG VV001 03/02 A3037 RMK AO2 SLP291 T00280017 $=
202002090252 METAR KATL 090252Z 12005KT 1/4SM R09R/1200V1400FT FG VV001 02/02 A3035 RMK AO2 SLP287 T00220017 51015 $=
202002090156 SPECI KATL 090156Z 07005KT 1/4SM R09R/1200V1800FT FG VV001 03/02 A3034 RMK AO2 TWR VIS 1/4 T00280022 $=
202002090152 METAR KATL 090152Z 09005KT 1/4SM R09R/1400V4000FT FG VV001 03/02 A3034 RMK AO2 SLP283 T00280022 $=
202002090142 SPECI KATL 090142Z 08007KT 1/4SM R09R/P6000FT FG BKN001 OVC008 03/02 A3034 RMK AO2 SFC VIS 1/2 BINOVC T00330017 $=
202002090135 SPECI KATL 090135Z 09005KT 1SM R09R/P6000FT BR BKN001 BKN008 BKN250 03/01 A3034 RMK AO2 VIS NW-NE-E 1/2 T00330011 $=
202002090129 SPECI KATL 090129Z 08007KT 3SM BR SCT003 BKN010 BKN250 03/02 A3034 RMK AO2 VIS NW-NE-E 3/4 T00330017 $=
202002090052 METAR KATL 090052Z 10003KT 7SM FEW012 FEW250 05/02 A3033 RMK AO2 SLP278 T00500017 $=
202002082352 METAR KATL 082352Z 17003KT 10SM FEW018 FEW250 06/02 A3031 RMK AO2 SLP271 T00560022 10072 20033 53013 $=
202002082252 METAR KATL 082252Z 00000KT 10SM FEW018 FEW250 07/02 A3029 RMK AO2 SLP264 T00720022 $=
202002082206 SPECI KATL 082206Z 30005KT 10SM SCT018 07/03 A3027 RMK AO2 T00670028 $=
202002082152 METAR KATL 082152Z 30005KT 10SM BKN017 07/03 A3027 RMK AO2 SLP256 T00670028 $=
202002082137 SPECI KATL 082137Z 28007KT 10SM BKN017 07/03 A3027 RMK AO2 T00670028 $=
202002082127 SPECI KATL 082127Z 25004KT 10SM SCT025 BKN250 07/03 A3027 RMK AO2 T00720033 $=
202002082104 SPECI KATL 082104Z 29006KT 10SM FEW009 OVC016 06/03 A3027 RMK AO2 T00610033 $=
202002082052 METAR KATL 082052Z 28007KT 8SM FEW008 OVC014 06/03 A3027 RMK AO2 SLP257 T00610033 53007 $=
202002082032 SPECI KATL 082032Z 26006KT 7SM FEW008 BKN012 OVC016 06/03 A3026 RMK AO2 T00560033 $=
202002082019 SPECI KATL 082019Z 26007KT 7SM SCT009 OVC016 06/03 A3026 RMK AO2 T00610033 $=
202002082010 SPECI KATL 082010Z 23005KT 3SM BR SCT009 OVC016 06/03 A3025 RMK AO2 SFC VIS 6 T00560033 $=
202002081952 METAR KATL 081952Z 24006KT 3SM HZ BKN009 OVC017 06/03 A3025 RMK AO2 SFC VIS 6 SLP250 T00560028 $=
202002081916 SPECI KATL 081916Z 21003KT 3SM BR OVC008 04/02 A3024 RMK AO2 SFC VIS 6 T00440022 $=
202002081902 SPECI KATL 081902Z 00000KT 3SM BR SCT008 OVC012 04/02 A3024 RMK AO2 SFC VIS 6 T00440022 $=
202002081852 METAR KATL 081852Z 00000KT 3SM BR SCT008 OVC020 04/02 A3023 RMK AO2 SFC VIS 6 SLP247 T00390022 $=
202002081752 METAR KATL 081752Z 13004KT 3SM BR FEW008 OVC019 03/02 A3025 RMK AO2 SFC VIS 6 RAE1657 SLP251 P0000 60012 T00330017 10033 20006 50001 $=
202002081730 SPECI KATL 081730Z 11006KT 3SM BR FEW006 OVC020 03/01 A3025 RMK AO2 SFC VIS 6 RAE1657 P0000 T00330011 $=
202002081652 METAR KATL 081652Z 11005KT 3SM -RA BR OVC029 03/01 A3026 RMK AO2 SFC VIS 6 SLP255 P0002 T00330011 $=
202002081622 SPECI KATL 081622Z 09005KT 3SM -RA BR OVC030 03/01 A3025 RMK AO2 SFC VIS 6 P0002 T00330011 $=
202002081552 METAR KATL 081552Z 09003KT 3SM -RA BKN028 OVC033 03/01 A3026 RMK AO2 SFC VIS 7 UPB50UPEMMSNB25E42 SLP253 P0006 T00280006 $=
202002081526 SPECI KATL 081526Z 16004KT 3SM -RASN BR BKN024 OVC032 03/01 A3026 RMK AO2 SFC VIS 5 SNB25 P0005 T00280006=
202002081516 SPECI KATL 081516Z 17006KT 3SM -RA BR BKN020 OVC032 03/01 A3026 RMK AO2 SFC VIS 4 P0004 T00280006=
202002081452 METAR KATL 081452Z 17005KT 4SM -RA OVC022 03/00 A3024 RMK AO2 UPB07E10RAB10SNB25E50 SLP249 P0004 60004 T00280000 53014=
202002081425 SPECI KATL 081425Z 20005KT 6SM -RASN OVC020 03/M01 A3024 RMK AO2 UPB07E10RAB10SNB25 P0001 T00281011=
202002081418 SPECI KATL 081418Z VRB04KT 7SM -RA OVC025 03/M01 A3023 RMK AO2 UPB07E10RAB10 P0000 T00281011=
202002081352 METAR KATL 081352Z 18006KT 10SM FEW045 BKN060 BKN080 02/M02 A3022 RMK AO2 SLP242 VIRGA ALQDS T00221017=
202002081252 METAR KATL 081252Z 00000KT 10SM BKN070 BKN110 01/M02 A3021 RMK AO2 SLP236 VIRGA SW-NW T00111017=
202002081152 METAR KATL 081152Z 16004KT 10SM BKN080 BKN100 01/M02 A3020 RMK AO2 SLP235 T00111022 10017 21006 53001=
202002081052 METAR KATL 081052Z 12003KT 10SM FEW085 BKN100 01/M03 A3019 RMK AO2 SLP229 T00061028=
202002080952 METAR KATL 080952Z 00000KT 10SM SCT120 00/M04 A3020 RMK AO2 SLP234 T00001039=
202002080852 METAR KATL 080852Z 00000KT 10SM FEW120 00/M04 A3020 RMK AO2 SLP233 T00001039 51016=
202002080752 METAR KATL 080752Z 22003KT 10SM FEW130 00/M04 A3018 RMK AO2 SLP229 T00001039=
202002080652 METAR KATL 080652Z 00000KT 10SM FEW130 M01/M04 A3017 RMK AO2 SLP223 T10061039=
202002080552 METAR KATL 080552Z 00000KT 10SM FEW130 02/M04 A3015 RMK AO2 SLP216 T00171039 10033 20011 51012=
202002080452 METAR KATL 080452Z 30003KT 10SM FEW130 01/M03 A3015 RMK AO2 SLP217 T00111033 401000011=
202002080352 METAR KATL 080352Z 00000KT 10SM FEW130 02/M04 A3012 RMK AO2 SLP207 T00221039=
202002080252 METAR KATL 080252Z 00000KT 10SM FEW130 02/M04 A3011 RMK AO2 SLP205 T00221039 51028=
202002080152 METAR KATL 080152Z 28004KT 10SM FEW140 02/M04 A3009 RMK AO2 SLP197 T00221039=
202002080052 METAR KATL 080052Z 30006KT 10SM FEW150 03/M04 A3006 RMK AO2 SLP186 T00281039=
202002072352 METAR KATL 072352Z 29006KT 10SM FEW045 FEW200 03/M04 A3003 RMK AO2 SLP175 T00331039 10061 20033 53030=
202002072252 METAR KATL 072252Z 31008KT 10SM FEW045 FEW200 05/M04 A2999 RMK AO2 SLP160 T00501044=
202002072152 METAR KATL 072152Z 29012G18KT 10SM SCT045 SCT250 06/M04 A2995 RMK AO2 SLP148 T00561044=
202002072052 METAR KATL 072052Z 29012G22KT 10SM FEW047 06/M04 A2994 RMK AO2 SLP141 T00561044 53016=
202002071952 METAR KATL 071952Z 30011G18KT 10SM BKN043 05/M04 A2992 RMK AO2 SLP135 T00501044=
202002071852 METAR KATL 071852Z 29014G20KT 10SM BKN041 05/M04 A2990 RMK AO2 SLP131 T00501039=
202002071752 METAR KATL 071752Z 27016G24KT 10SM OVC047 04/M05 A2989 RMK AO2 SLP124 BINOVC 60000 T00441050 10050 20028 51022=
202002071652 METAR KATL 071652Z 30019G25KT 10SM BKN038 04/M05 A2987 RMK AO2 PK WND 29028/1611 SLP118 T00391050=
202002071552 METAR KATL 071552Z 28013G25KT 10SM BKN037 OVC043 03/M04 A2985 RMK AO2 PK WND 28031/1533 SLP110 BINOVC T00331039=
202002071452 METAR KATL 071452Z 28011G18KT 10SM BKN034 OVC040 03/M03 A2982 RMK AO2 PK WND 28031/1401 SLP101 BINOVC 60000 T00331033 53048=
202002071352 METAR KATL 071352Z 27014G20KT 10SM SCT033 OVC045 03/M03 A2977 RMK AO2 SNB1257E07B40E52 SLP082 BINOVC P0000 T00331028=
202002071252 METAR KATL 071252Z 27016G26KT 10SM SCT026 BKN038 BKN050 03/M03 A2972 RMK AO2 PK WND 28028/1226 PRESRR SLP066 SHSN NW-NE T00331028=
202002071152 METAR KATL 071152Z 28015G23KT 10SM SCT018 BKN030 BKN050 03/M01 A2967 RMK AO2 RAB19E32SNB21E32 SLP049 P0000 60000 70178 T00331011 10094 20033 51044=
202002071052 METAR KATL 071052Z 28012KT 10SM SCT023 BKN035 BKN055 04/00 A2962 RMK AO2 PK WND 26029/1014 SLP031 SHRASN NW-NE T00390000=
202002070952 METAR KATL 070952Z 27017G24KT 10SM FEW018 SCT026 SCT050 04/00 A2960 RMK AO2 PK WND 29028/0909 SLP022 T00440000=
202002070910 SPECI KATL 070910Z 29022G28KT 10SM FEW018 BKN026 BKN050 06/02 A2955 RMK AO2 PK WND 29028/0909 T00560017=
202002070852 METAR KATL 070852Z 28018G24KT 10SM FEW018 SCT024 BKN045 06/02 A2954 RMK AO2 PK WND 27030/0805 RAB38E48 SLP003 P0000 60000 T00560017 51041=
202002070752 METAR KATL 070752Z 26017G28KT 10SM SCT016 BKN030 BKN042 06/02 A2951 RMK AO2 PK WND 26034/0728 RAB12E28 SLP993 P0000 T00610022=
202002070652 METAR KATL 070652Z 26015G24KT 10SM SCT016 BKN030 BKN050 08/05 A2945 RMK AO2 PK WND 27027/0635 RAE0556B28E37 PRESRR SLP972 P0000 T00830050=
202002070650 SPECI KATL 070650Z 26015G25KT 10SM SCT016 BKN030 BKN050 08/05 A2945 RMK AO2 PK WND 27027/0635 RAE0556B28E37 PRESRR P0000=
202002070552 METAR KATL 070552Z 26014G22KT 8SM -RA SCT008 BKN012 OVC020 09/07 A2942 RMK AO2 RAB35 SLP959 P0000 60002 T00940072 10156 20094 53001=
202002070452 METAR KATL 070452Z 27008KT 9SM FEW005 BKN010 OVC020 11/08 A2940 RMK AO2 SLP952 T01060083 402220106=
202002070352 METAR KATL 070352Z 27011KT 2SM OVC006 11/09 A2939 RMK AO2 SFC VIS 9 RAE11 SLP949 CIG 004V008 P0000 T01110094=
202002070252 METAR KATL 070252Z 29016KT 2SM -RA BR FEW004 BKN008 OVC030 12/10 A2941 RMK AO2 SFC VIS 4 SLP954 P0000 60002 T01170100 53006=
202002070228 SPECI KATL 070228Z 28014G20KT 2SM -RA BR SCT004 BKN008 OVC030 13/12 A2942 RMK AO2 SFC VIS 3 P0000 T01330122=
202002070152 METAR KATL 070152Z 27009KT 7SM -RA SCT007 BKN013 OVC030 14/13 A2939 RMK AO2 RAE0056B52 SLP947 P0000 T01440128=
202002070052 METAR KATL 070052Z 26005KT 7SM -RA SCT006 BKN012 BKN025 OVC150 15/13 A2937 RMK AO2 RAE18B35 SLP940 P0002 T01500133=
202002062352 METAR KATL 062352Z 23008KT 9SM -RA BKN008 BKN025 BKN100 OVC150 16/14 A2939 RMK AO2 RAE00B36 SLP948 P0000 60069 T01560139 10172 20156 58001=
202002062315 SPECI KATL 062315Z 24007KT 10SM FEW003 BKN008 BKN090 OVC150 16/14 A2940 RMK AO2 RAE00 PRESRR P0000 T01610144=
202002062301 SPECI KATL 062301Z 17006KT 1SM R09R/P6000FT SCT003 BKN008 BKN090 OVC150 16/14 A2938 RMK AO2 SFC VIS 9 RAE00 P0000 T01610144=
202002062252 METAR KATL 062252Z 16006KT 3SM -RA FEW005 SCT040 BKN090 OVC150 16/14 A2937 RMK AO2 SFC VIS 7 SLP941 P0009 T01560144=
202002062235 SPECI KATL 062235Z 13005KT 3SM -RA BR FEW008 BKN040 OVC080 16/14 A2938 RMK AO2 PRESFR P0008 T01610144=
202002062218 SPECI KATL 062218Z 22005KT 2SM RA BR SCT008 BKN013 OVC070 16/14 A2942 RMK AO2 P0005 T01610144=
202002062152 METAR KATL 062152Z 19008KT 3SM -RA BR SCT007 BKN017 OVC034 16/14 A2942 RMK AO2 SFC VIS 5 SLP956 P0012 T01610144=
202002062136 SPECI KATL 062136Z 23008KT 3SM -RA BR SCT006 BKN012 OVC017 16/14 A2942 RMK AO2 SFC VIS 5 P0006 T01610144=
202002062120 SPECI KATL 062120Z 18007KT 3SM -RA BR BKN006 OVC055 16/14 A2940 RMK AO2 SFC VIS 5 P0004 T01610144=
202002062052 METAR KATL 062052Z 21007KT 3SM -RA BR FEW006 BKN012 OVC085 16/14 A2940 RMK AO2 SFC VIS 5 SLP949 P0013 60048 T01610144 56026=
202002062043 SPECI KATL 062043Z 19009KT 3SM -RA BR SCT006 BKN012 OVC085 16/14 A2939 RMK AO2 SFC VIS 4 P0012 T01610144=
202002062035 SPECI KATL 062035Z 20009KT 3SM RA BR BKN006 OVC039 16/14 A2939 RMK AO2 SFC VIS 4 P0010 T01610144=
202002062023 SPECI KATL 062023Z 20005KT 3SM RA BR SCT006 SCT018 OVC085 17/15 A2941 RMK AO2 SFC VIS 4 P0006 T01670150=
202002061952 METAR KATL 061952Z 22005KT 3SM -RA BR FEW020 SCT060 OVC100 17/15 A2941 RMK AO2 SFC VIS 4 SLP953 P0019 T01670150=
202002061852 METAR KATL 061852Z 22007KT 3SM -RA BR FEW060 BKN080 OVC095 17/15 A2945 RMK AO2 SFC VIS 4 SLP967 P0016 T01720150=
202002061752 METAR KATL 061752Z 26009KT 3SM RA BR FEW016 SCT050 OVC075 17/16 A2948 RMK AO2 LTG DSNT ALQDS TSE12B18E43 SLP976 CB DSNT ALQDS P0015 60107 T01720156 10222 20172 58006=
202002061744 SPECI KATL 061744Z 26007KT 3SM RA BR FEW021 BKN070 OVC080 17/16 A2948 RMK AO2 SFC VIS 4 LTG DSNT ALQDS TSE12B18E43 CB DSNT ALQDS P0012 T01720156=
202002061702 SPECI KATL 061702Z 27011KT 3SM -TSRA FEW009 BKN044CB OVC100 18/16 A2949 RMK AO2 SFC VIS 8 LTG DSNT SW AND W OCNL LTGICCG S-SW TS S-SW MOV NE P0003 T01780156=
202002061652 METAR KATL 061652Z 27012G17KT 3SM -TSRA BR FEW015 BKN044CB OVC055 18/16 A2949 RMK AO2 SFC VIS 4 LTG DSNT SE-SW TSB50 SLP980 TSB41 OCNL LTGICCG ALQDS TS ALQDS MOV NE P0015 T01780156=
202002061645 SPECI KATL 061645Z 25011KT 3SM VCTS -RA BR FEW015 BKN044CB OVC055 18/16 A2950 RMK AO2 SFC VIS 6 LTG DSNT ALQDS OCNL LTGICCG VC SW-NW TS VC SW-NW MOV NE P0015 T01780156=
202002061638 SPECI KATL 061638Z 26009KT 3SM -RA BR FEW009 BKN044 OVC055 18/16 A2949 RMK AO2 SFC VIS 6 LTG DSNT ALQDS CB DSNT SW-NW-N P0015 T01780156=
202002061627 SPECI KATL 061627Z 24008G16KT 2SM RA BR FEW017 OVC028 18/16 A2951 RMK AO2 LTG DSNT ALQDS CB DSNT ALQDS P0013 T01780156=
202002061621 SPECI KATL 061621Z 26009G19KT 2SM -RA BR FEW014 OVC046 18/16 A2951 RMK AO2 SFC VIS 5 LTG DSNT SE AND W AND NW CB DSNT SE AND W-NW P0008 T01780156=
202002061552 METAR KATL 061552Z 25012KT 2SM R09R/3000VP6000FT +RA BR FEW007 OVC016 18/16 A2951 RMK AO2 PK WND 27037/1508 WSHFT 1456 LTG DSNT W RAB1457 SLP988 TSB33E48 TS MOVD NE CB DSNT W P0068 T01780161=
202002061539 SPECI KATL 061539Z 23011G20KT 1SM R09R/4500VP6000FT VCTS +RA BR FEW007 OVC016CB 18/16 A2951 RMK AO2 PK WND 27037/1508 WSHFT 1456 RAB1457 TSB33 OCNL LTGICCG NE TS VC NE MOV NE P0044 T01780161=
202002061519 SPECI KATL 061519Z 26013G28KT 1SM R09R/4500VP6000FT +RA FEW007 OVC016 18/16 A2951 RMK AO2 PK WND 27037/1508 WSHFT 1456 LTG DSNT N RAB1457 CB DSNT N P0020 T01830156=
202002061510 SPECI KATL 061510Z 27022G37KT 2SM RA FEW007 OVC016 20/17 A2951 RMK AO2 PK WND 27037/1508 WSHFT 1456 LTG DSNT N AND NW RAB1457 CB DSNT NW-N VSBY LWR N P0006 T02000167=
202002061501 SPECI KATL 061501Z 23017G29KT 3SM -RA SCT022 BKN029 OVC070 22/18 A2951 RMK AO2 PK WND 22026/1455 LTG DSNT N AND NW RAB1457 CB DSNT NW-N P0001 T02220183=
202002061452 METAR KATL 061452Z 22023G29KT 10SM SCT017 OVC022 22/18 A2950 RMK AO2 PK WND 25035/1434 LTG DSNT NW-NE RAE1355 TSE25 SLP981 TS MOVD NE CB DSNT N-E AND NW P0000 60009 T02220183 53001=
202002061445 SPECI KATL 061445Z 22019G26KT 10SM SCT017 OVC022 22/18 A2950 RMK AO2 PK WND 25035/1434 LTG DSNT NW-E RAE1355 TSE25 TS MOVD NE CB DSNT ALQDS P0000 T02220183=
202002061431 SPECI KATL 061431Z 23019G25KT 10SM VCTS SCT017CB OVC022 22/18 A2949 RMK AO2 PK WND 20027/1401 LTG DSNT ALQDS RAE1355 TSE25 PRESRR OCNL LTGICCGC ALQDS TS VC ALQDS MOV NE P0000 T02170183=
202002061422 SPECI KATL 061422Z 22016G24KT 10SM FEW017 OVC026 22/18 A2948 RMK AO2 PK WND 20027/1401 LTG DSNT W AND NW RAE1355 CB DSNT W-NW P0000 T02170183=
202002061352 METAR KATL 061352Z 21013G28KT 9SM -RA SCT020 BKN040 BKN085 OVC140 21/19 A2947 RMK AO2 PK WND 22028/1343 RAE07B23 TSE07 SLP973 TS MOVD NE CB DSNT NE-SE-S P0003 T02110189=
202002061335 SPECI KATL 061335Z 22015G24KT 2SM -RA SCT014 BKN026 OVC050 22/18 A2949 RMK AO2 PK WND 23027/1253 SFC VIS 4 LTG DSNT N AND SE RAE07B23 TSE07 TS MOVD NE CB DSNT N SE P0000 T02170183=
202002061307 SPECI KATL 061307Z 23010G20KT 10SM SCT011 BKN016 OVC036 21/18 A2950 RMK AO2 PK WND 23027/1253 RAE07 TSE07 TS MOVD NE CB DSNT NE P0000 T02110183=
202002061252 METAR KATL 061252Z 20017G25KT 8SM -TSRA SCT012 BKN018CB OVC038 21/18 A2946 RMK AO2 LTG DSNT NW-NE TSB41 SLP967 OCNL LTGICCA SW-NW-NE TS SW-NW-NE MOV NE CB DSNT NW-NE P0006 T02060183=
202002061242 SPECI KATL 061242Z 19015G22KT 2SM TSRA BR SCT014 BKN018CB OVC038 21/18 A2947 RMK AO2 SFC VIS 4 LTG DSNT NW-NE TSB41 OCNL LTGICCA SW-NW-N TS SW-NW-N MOV NE CB DSNT NW-NE P0003 T02060183=
202002061235 SPECI KATL 061235Z 20014G20KT 2SM -RA BR SCT012 BKN018CB OVC040 21/18 A2947 RMK AO2 SFC VIS 4 LTG DSNT N AND NW CB SW-NW MOV NE CB DSNT N NW P0002 T02060183=
202002061152 METAR KATL 061152Z 17007KT 10SM -RA SCT007 BKN015 OVC023 20/18 A2949 RMK AO2 LTG DSNT N RAE1058B43 SLP979 CB DSNT N P0001 60048 70106 T02000178 10200 20172 58035=
202002061131 SPECI KATL 061131Z 19006KT 10SM FEW008 BKN015 OVC027 19/18 A2950 RMK AO2 LTG DSNT ALQDS RAE1058 CB DSNT ALQDS P0001 T01940178=
202002061052 METAR KATL 061052Z 20008KT 8SM -RA SCT008 OVC014 19/18 A2953 RMK AO2 LTG DSNT S SLP994 CB DSNT S P0001 T01940178=
202002061022 SPECI KATL 061022Z 19011G16KT 7SM -RA SCT005 BKN014 OVC038 19/17 A2955 RMK AO2 LTG DSNT N AND NW CB DSNT N NW P0001 T01890172 $=
202002060952 METAR KATL 060952Z 16006KT 5SM -RA BR BKN005 OVC012CB 18/16 A2957 RMK AO2 LTG DSNT W AND NW TSE09 SLP005 TS MOVD NE CB N-NE MOV NE CB DSNT W NW P0029 T01780161=
202002060910 SPECI KATL 060910Z 17005KT 5SM -RA BR BKN005 OVC015 18/17 A2959 RMK AO2 LTG DSNT NE AND E TSE09 TS MOVD NE CB DSNT NE-E P0004 T01780167=
202002060852 METAR KATL 060852Z 16005KT 3SM TSRA BR OVC005CB 18/16 A2960 RMK AO2 TSB46 SLP017 OCNL LTGICCA SE-SW TS SE-SW MOV NE P0010 60017 T01780161 56025=
202002060847 SPECI KATL 060847Z 17008KT 3SM -TSRA BR OVC005CB 18/16 A2960 RMK AO2 TSB46 OCNL LTGICCA SE-SW TS SE-SW MOV NE P0005=
202002060752 METAR KATL 060752Z 16008KT 6SM -RA BR BKN006 OVC012 17/16 A2963 RMK AO2 RAE0656B33 SLP029 CIG 005V008 P0004 T01720161=
202002060652 METAR KATL 060652Z 15010KT 8SM -RA BKN008 BKN016 OVC034 17/16 A2968 RMK AO2 SLP043 CIG 006V010 P0003 T01720156=
202002060552 METAR KATL 060552Z 17012KT 8SM -RA BKN007 BKN012 OVC032 17/16 A2971 RMK AO2 TSE28 SLP054 TS DSIPTD CIG 005V009 P0009 60056 T01720156 10183 20167 58018=
202002060529 SPECI KATL 060529Z 17013KT 8SM -RA BKN006 BKN015 OVC060 17/16 A2972 RMK AO2 TSE28 TS DSIPTD P0008 T01720156=
202002060452 METAR KATL 060452Z 19012KT 5SM -TSRA BR SCT006 BKN015CB OVC060 17/16 A2972 RMK AO2 TSB38 SLP060 OCNL LTGIC S-W-NW TS S-W-NW MOV NE P0016 T01720156 401940161=
202002060438 SPECI KATL 060438Z 16010KT 4SM TSRA BR BKN006 BKN015CB OVC040 17/16 A2972 RMK AO2 TSB38 OCNL LTGIC SE-SW TS SE-SW MOV NE P0013 T01720156=
202002060352 METAR KATL 060352Z 17010G17KT 4SM -RA BR BKN006 BKN012 OVC040 17/15 A2975 RMK AO2 SLP069 P0021 T01670150=
202002060252 METAR KATL 060252Z 18015G20KT 5SM RA BR SCT007 BKN012 OVC110 17/15 A2976 RMK AO2 SLP073 P0008 60010 T01670150 53006=
202002060225 SPECI KATL 060225Z 18013G22KT 8SM -RA BKN010 BKN050 OVC110 17/15 A2974 RMK AO2 P0003 T01670150=
202002060152 METAR KATL 060152Z 17015G21KT 7SM -RA FEW009 BKN100 OVC150 17/15 A2974 RMK AO2 RAB07 PRESFR SLP066 P0002 T01720150=
202002060052 METAR KATL 060052Z 18013G18KT 10SM FEW009 BKN140 OVC200 18/16 A2975 RMK AO2 SLP068 SHRA SE-SW T01780156=
202002060034 SPECI KATL 060034Z 17010KT 10SM SCT009 BKN140 OVC200 18/16 A2974 RMK AO2 SCT009 V BKN T01780156=
202002052352 METAR KATL 052352Z 16012G17KT 10SM BKN008 BKN013 OVC030 18/16 A2974 RMK AO2 RAE35 SLP067 P0001 60002 T01830161 10194 20178 58024=
202002052340 SPECI KATL 052340Z 16007KT 10SM BKN008 BKN013 OVC030 18/16 A2976 RMK AO2 LTG DSNT NE RAE35 CB DSNT N-NE P0001 T01780161=
202002052252 METAR KATL 052252Z 17008KT 5SM -RA BR SCT018CB BKN025 OVC050 18/16 A2982 RMK AO2 RAB42 SLP093 VIS LWR SE-SW CB SE-SW DSNT NW MOV NE P0001 T01830161=
202002052152 METAR KATL 052152Z 18003KT 10SM FEW014 BKN021 OVC027 19/16 A2983 RMK AO2 LTG DSNT E AND SE SLP096 CB DSNT E & SE T01890156=
202002052052 METAR KATL 052052Z 20009KT 10SM SCT016 BKN022 OVC028 19/16 A2982 RMK AO2 SLP091 T01940156 56028=
202002051952 METAR KATL 051952Z 19012KT 10SM SCT015 BKN027 OVC035 19/16 A2983 RMK AO2 SLP096 T01940156=
202002051918 SPECI KATL 051918Z 20011KT 10SM BKN015 BKN033 BKN040 19/16 A2985 RMK AO2 T01940156=
202002051852 METAR KATL 051852Z 19012KT 10SM BKN014 BKN019 OVC030 19/16 A2986 RMK AO2 SLP105 T01940156=
202002051752 METAR KATL 051752Z 19010G16KT 10SM BKN012 OVC018 19/16 A2990 RMK AO2 SLP120 T01890156 10189 20172 58019=
202002051722 SPECI KATL 051722Z 19010KT 10SM OVC010 18/16 A2992 RMK AO2 T01830156=
202002051659 SPECI KATL 051659Z 19008KT 10SM OVC007 18/16 A2994 RMK AO2 T01830156=
202002051652 METAR KATL 051652Z 19009KT 3SM OVC007 18/16 A2994 RMK AO2 SFC VIS 7 SLP135 T01780156=
202002051552 METAR KATL 051552Z 20012G17KT 3SM OVC006 17/15 A2997 RMK AO2 SFC VIS 7 SLP145 T01720150=
202002051452 METAR KATL 051452Z 20010KT 3SM BR OVC005 17/15 A2996 RMK AO2 SFC VIS 6 SLP140 T01720150 50002=
202002051410 SPECI KATL 051410Z 21011KT 3SM OVC005 17/16 A2996 RMK AO2 SFC VIS 7 T01720156=
202002051352 METAR KATL 051352Z 20009KT 7SM OVC006 17/16 A2996 RMK AO2 SLP140 T01720156=
202002051252 METAR KATL 051252Z 22009KT 7SM OVC006 17/15 A2996 RMK AO2 SLP142 T01720150=
202002051152 METAR KATL 051152Z 21010KT 8SM OVC007 17/15 A2995 RMK AO2 SLP138 CIG 006V008 60001 70002 T01720150 10172 20161 53003=
202002051052 METAR KATL 051052Z 21008KT 8SM OVC006 17/15 A2994 RMK AO2 SLP133 T01720150=
202002050952 METAR KATL 050952Z 22008KT 8SM OVC005 17/15 A2994 RMK AO2 SLP134 T01670150=
202002050852 METAR KATL 050852Z 21007KT 8SM BKN007 OVC012 17/14 A2994 RMK AO2 RAE0758 SLP134 P0000 60001 T01670144 56005 $=
202002050807 SPECI KATL 050807Z 22005KT 10SM OVC009 16/14 A2995 RMK AO2 RAE0758 P0000 T01610144 $=
202002050752 METAR KATL 050752Z 21007KT 9SM -RA BKN010 OVC016 16/14 A2994 RMK AO2 RAE0658B45 SLP134 P0000 T01610144=
202002050659 SPECI KATL 050659Z 24006KT 10SM BKN014 BKN075 OVC110 17/14 A2995 RMK AO2 RAE58 P0000 T01670139=
202002050652 METAR KATL 050652Z 19007KT 8SM -RA SCT016 BKN075 OVC100 17/14 A2994 RMK AO2 RAE0553B31 SLP134 P0001 T01670139=
202002050640 SPECI KATL 050640Z 17008KT 10SM SCT016 SCT040 OVC100 17/14 A2993 RMK AO2 RAE0553B31E40 PRESFR P0000 T01670139=
202002050629 SPECI KATL 050629Z 19007KT 10SM BKN016 BKN025 OVC040 17/14 A2995 RMK AO2 RAE0553 P0000 T01670139=
202002050552 METAR KATL 050552Z 19009KT 8SM -RA SCT025 BKN040 OVC150 17/14 A2996 RMK AO2 RAB41 SLP140 P0001 60001 T01670139 10189 20167 58010=
202002050452 METAR KATL 050452Z 20009KT 10SM FEW035 SCT050 BKN150 OVC250 17/13 A2997 RMK AO2 SLP145 T01720133 402060139=
202002050352 METAR KATL 050352Z 20010KT 10SM FEW040 BKN100 BKN250 17/13 A2999 RMK AO2 SLP151 T01720128=
202002050252 METAR KATL 050252Z 19009KT 10SM SCT060 BKN100 BKN250 17/13 A2999 RMK AO2 SLP152 T01720128 58002=
202002050152 METAR KATL 050152Z 20006KT 10SM SCT100 BKN140 BKN250 18/13 A3000 RMK AO2 SLP155 T01780128=
202002050052 METAR KATL 050052Z 20005KT 10SM FEW090 BKN140 OVC200 18/12 A3000 RMK AO2 SLP156 T01830122=
202002042352 METAR KATL 042352Z 21006KT 10SM FEW100 BKN150 BKN250 18/12 A3000 RMK AO2 RAE42 SLP154 P0000 60000 T01830122 10206 20183 51011=
202002042252 METAR KATL 042252Z 21010KT 10SM -RA FEW035 SCT085 BKN110 OVC150 19/12 A2999 RMK AO2 RAB50 SLP150 P0000 T01940122=
202002042152 METAR KATL 042152Z 21008G16KT 10SM BKN036 BKN110 BKN140 OVC200 20/12 A2998 RMK AO2 SLP147 VIRGA NW-NE T02000122=
202002042052 METAR KATL 042052Z 20008KT 10SM SCT035 SCT110 BKN140 OVC200 20/12 A2996 RMK AO2 SLP142 T02000122 56026=
202002041952 METAR KATL 041952Z 20008KT 10SM SCT034 SCT100 BKN140 OVC200 20/12 A2998 RMK AO2 SLP147 T02000122=
202002041852 METAR KATL 041852Z 23009KT 10SM SCT024 BKN034 BKN100 OVC200 19/12 A3001 RMK AO2 SLP159 T01890122=
202002041819 SPECI KATL 041819Z 24009KT 10SM BKN024 BKN034 BKN100 OVC200 18/12 A3002 RMK AO2 T01830122=
202002041752 METAR KATL 041752Z 24009KT 10SM FEW020 SCT032 BKN100 OVC200 18/12 A3004 RMK AO2 SLP170 T01830122 10183 20139 58014=
202002041652 METAR KATL 041652Z 23004KT 10SM FEW014 SCT026 BKN090 OVC200 17/13 A3007 RMK AO2 SLP180 T01670128=
202002041645 SPECI KATL 041645Z 23007KT 10SM FEW013 SCT026 BKN085 OVC200 16/13 A3008 RMK AO2 T01610128=
202002041552 METAR KATL 041552Z 23008KT 10SM BKN011 BKN018 OVC085 16/12 A3007 RMK AO2 SLP180 T01560122=
202002041452 METAR KATL 041452Z 23008G19KT 10SM BKN010 OVC020 16/12 A3008 RMK AO2 SLP184 T01560122 51005 $=
202002041352 METAR KATL 041352Z 23007KT 10SM BKN012 OVC020 14/11 A3008 RMK AO2 SLP184 T01440111=
202002041349 SPECI KATL 041349Z 24008KT 10SM BKN011 OVC018 14/11 A3008 RMK AO2=
202002041300 SPECI KATL 041300Z 23008KT 10SM BKN018 BKN090 BKN110 14/11 A3008 RMK AO2 T01390106=
202002041252 METAR KATL 041252Z 24008KT 10SM FEW019 BKN100 BKN150 14/11 A3008 RMK AO2 SLP182 T01390106=
202002041152 METAR KATL 041152Z 22004KT 10SM FEW024 BKN120 BKN150 14/10 A3007 RMK AO2 SLP178 T01390100 10150 20139 58001=
202002041052 METAR KATL 041052Z 25009G18KT 10SM FEW021 SCT150 BKN180 BKN250 14/10 A3008 RMK AO2 SLP181 T01390100=
202002041030 SPECI KATL 041030Z 25006KT 10SM SCT021 SCT150 BKN200 14/10 A3008 RMK AO2 T01390100=
202002040952 METAR KATL 040952Z 25008KT 10SM BKN021 BKN150 BKN220 14/09 A3007 RMK AO2 SLP179 T01440094=
202002040948 SPECI KATL 040948Z 26008KT 10SM BKN021 BKN150 BKN220 14/09 A3007 RMK AO2=
202002040852 METAR KATL 040852Z 24010KT 10SM FEW150 BKN180 BKN220 14/09 A3007 RMK AO2 SLP177 T01440089 53005=
202002040752 METAR KATL 040752Z 24011KT 10SM CLR 14/08 A3006 RMK AO2 SLP174 T01440083=
202002040652 METAR KATL 040652Z 24010KT 10SM FEW180 BKN220 BKN250 14/07 A3006 RMK AO2 SLP174 T01440067=
202002040552 METAR KATL 040552Z 22010KT 10SM BKN180 BKN250 15/06 A3006 RMK AO2 SLP172 T01500056 10206 20150 56005=
202002040452 METAR KATL 040452Z 21008KT 10SM SCT180 BKN250 16/05 A3006 RMK AO2 SLP174 T01560050 402440056=
202002040352 METAR KATL 040352Z 20009KT 10SM SCT150 BKN250 17/04 A3006 RMK AO2 SLP178 T01670044=
202002040252 METAR KATL 040252Z 21010KT 10SM FEW150 BKN250 18/04 A3007 RMK AO2 SLP180 T01780039 51012=
202002040152 METAR KATL 040152Z 21009KT 10SM FEW150 SCT180 BKN250 18/03 A3006 RMK AO2 SLP179 T01830033=
202002040052 METAR KATL 040052Z 20009KT 10SM FEW150 BKN180 BKN250 19/03 A3005 RMK AO2 SLP174 T01940028=
202002032352 METAR KATL 032352Z 21008KT 10SM BKN150 BKN250 21/02 A3003 RMK AO2 SLP169 T02060022 10244 20200 51003=
202002032252 METAR KATL 032252Z 20008KT 10SM FEW150 SCT200 BKN250 22/02 A3003 RMK AO2 SLP167 T02170017=
202002032152 METAR KATL 032152Z 21011G18KT 10SM FEW150 SCT210 BKN300 23/01 A3003 RMK AO2 SLP166 T02330011=
202002032052 METAR KATL 032052Z 23014G20KT 10SM FEW150 FEW200 BKN300 24/01 A3002 RMK AO2 SLP164 T02440011 56022=
202002031952 METAR KATL 031952Z 22010KT 10SM FEW150 SCT200 BKN250 24/02 A3004 RMK AO2 SLP167 T02390022=
202002031852 METAR KATL 031852Z 24009KT 10SM FEW150 FEW200 BKN250 23/02 A3006 RMK AO2 SLP177 T02330022=
202002031752 METAR KATL 031752Z 23010KT 10SM SCT150 SCT200 BKN250 22/03 A3009 RMK AO2 SLP186 T02220028 10222 20061 58007=
202002031652 METAR KATL 031652Z 29006KT 10SM FEW150 FEW200 BKN250 19/04 A3012 RMK AO2 SLP197 T01940039=
202002031552 METAR KATL 031552Z 23004KT 10SM FEW150 FEW200 BKN250 16/05 A3012 RMK AO2 SLP200 T01560050=
202002031452 METAR KATL 031452Z 24006KT 10SM FEW150 SCT200 BKN250 12/04 A3011 RMK AO2 SLP197 T01220039 53016=
202002031352 METAR KATL 031352Z 00000KT 10SM FEW150 SCT200 BKN250 08/03 A3009 RMK AO2 SLP191 T00830033=
202002031252 METAR KATL 031252Z 23003KT 10SM FEW150 SCT200 BKN250 07/02 A3009 RMK AO2 SLP190 T00670017=
202002031152 METAR KATL 031152Z 23003KT 10SM FEW200 SCT250 06/01 A3007 RMK AO2 SLP182 T00610011 10111 20056 53003=
202002031052 METAR KATL 031052Z 00000KT 10SM FEW200 FEW250 07/01 A3004 RMK AO2 SLP173 T00670011=
202002030952 METAR KATL 030952Z 28005KT 10SM FEW250 07/01 A3006 RMK AO2 SLP177 T00670011=
202002030852 METAR KATL 030852Z 27005KT 10SM CLR 07/02 A3006 RMK AO2 SLP177 T00720017 53007=
202002030752 METAR KATL 030752Z 25004KT 10SM CLR 10/02 A3004 RMK AO2 SLP171 T01000017=
202002030652 METAR KATL 030652Z 25005KT 10SM CLR 11/01 A3002 RMK AO2 SLP166 T01110011=
202002030552 METAR KATL 030552Z 24006KT 10SM CLR 12/01 A3004 RMK AO2 SLP170 T01170011 10150 20111 51006=
202002030452 METAR KATL 030452Z 25006KT 10SM CLR 12/01 A3004 RMK AO2 SLP171 T01170011 401890017=
202002030352 METAR KATL 030352Z 24006KT 10SM FEW250 11/01 A3003 RMK AO2 SLP170 T01110006=
202002030252 METAR KATL 030252Z 23006KT 10SM FEW250 12/01 A3002 RMK AO2 SLP166 T01220011 51009=
202002030152 METAR KATL 030152Z 23006KT 10SM FEW250 12/01 A3001 RMK AO2 SLP165 T01220011=
202002030052 METAR KATL 030052Z 23005KT 10SM SCT250 13/01 A3001 RMK AO2 SLP165 T01330006=
202002022352 METAR KATL 022352Z 25006KT 10SM FEW200 SCT250 15/00 A2999 RMK AO2 SLP158 T01500000 10189 20150 53007=
202002022252 METAR KATL 022252Z 24012KT 10SM FEW200 SCT250 17/M01 A2997 RMK AO2 SLP149 T01721011=
202002022152 METAR KATL 022152Z 27011G18KT 10SM SCT250 18/M01 A2996 RMK AO2 SLP145 T01831011=
202002022052 METAR KATL 022052Z 26008G21KT 10SM BKN250 19/M01 A2997 RMK AO2 SLP149 T01891006 56019=
202002021952 METAR KATL 021952Z 24012G20KT 10SM SCT250 18/M02 A2998 RMK AO2 SLP152 T01781022=
202002021852 METAR KATL 021852Z 28012KT 10SM FEW250 17/M01 A3000 RMK AO2 SLP159 T01671011=
202002021752 METAR KATL 021752Z 26009KT 10SM FEW250 16/01 A3003 RMK AO2 SLP168 T01560006 10156 20017 58020=
202002021652 METAR KATL 021652Z 25012G18KT 10SM CLR 14/01 A3007 RMK AO2 SLP183 T01390006=
202002021552 METAR KATL 021552Z 26007KT 10SM CLR 11/01 A3009 RMK AO2 SLP190 T01110011=
202002021452 METAR KATL 021452Z 26010KT 10SM CLR 09/02 A3009 RMK AO2 SLP191 T00890017 53010=
202002021352 METAR KATL 021352Z 25004KT 10SM FEW250 05/01 A3006 RMK AO2 SLP185 T00500011=
202002021252 METAR KATL 021252Z 28003KT 10SM FEW200 FEW250 02/M01 A3006 RMK AO2 SLP185 T00221006=
202002021152 METAR KATL 021152Z 27005KT 10SM CLR 02/00 A3006 RMK AO2 SLP184 T00220000 10056 20022 53005=
202002021052 METAR KATL 021052Z 27005KT 10SM CLR 03/00 A3004 RMK AO2 SLP178 T00280000=
202002020952 METAR KATL 020952Z 26007KT 10SM CLR 03/00 A3004 RMK AO2 SLP176 T00330000=
202002020852 METAR KATL 020852Z 27005KT 10SM CLR 04/00 A3004 RMK AO2 SLP177 T00390000 55000=
202002020752 METAR KATL 020752Z 27009KT 10SM CLR 04/00 A3003 RMK AO2 SLP174 T00440000=
202002020652 METAR KATL 020652Z 28009KT 10SM CLR 05/00 A3003 RMK AO2 SLP174 T00500000=
202002020552 METAR KATL 020552Z 27008KT 10SM FEW044 06/00 A3004 RMK AO2 SLP176 T00560000 10083 20056 50001=
202002020452 METAR KATL 020452Z 29012KT 10SM FEW046 07/01 A3005 RMK AO2 SLP179 T00670006 401110044=
202002020352 METAR KATL 020352Z 29012KT 10SM BKN043 07/01 A3003 RMK AO2 SLP174 T00720011=
202002020252 METAR KATL 020252Z 29011KT 10SM BKN045 08/02 A3004 RMK AO2 SLP175 T00780017 53013=
202002020052 METAR KATL 020052Z 29011KT 10SM FEW032 SCT055 08/04 A3001 RMK AO2 SLP166 T00830039=
202002012352 METAR KATL 012352Z 29007KT 10SM FEW024 BKN060 08/04 A3000 RMK AO2 SLP162 T00780039 10111 20078 53010=
202002012252 METAR KATL 012252Z 29007KT 10SM FEW022 BKN055 09/04 A2997 RMK AO2 SLP152 T00890039=
202002012152 METAR KATL 012152Z 30008KT 10SM FEW020 SCT040 BKN060 09/04 A2997 RMK AO2 SLP152 T00940044=
202002012136 SPECI KATL 012136Z 30010KT 10SM FEW020 SCT027 OVC040 09/04 A2997 RMK AO2 T00890044=
202002012052 METAR KATL 012052Z 31012KT 10SM BKN018 OVC025 09/05 A2997 RMK AO2 SLP151 T00940050 55011=
202002011952 METAR KATL 011952Z 32010KT 10SM BKN017 BKN035 10/05 A2996 RMK AO2 SLP148 T01000050=
202002011852 METAR KATL 011852Z 32011KT 10SM OVC017 10/05 A2997 RMK AO2 SLP150 T01000050=
202002011802 SPECI KATL 011802Z 30011KT 10SM OVC016 09/05 A2999 RMK AO2 T00940050=
202002011752 METAR KATL 011752Z 29012KT 10SM FEW015 SCT022 BKN065 09/05 A3000 RMK AO2 SLP162 T00940050 10100 20050 57008=
202002011747 SPECI KATL 011747Z 30008KT 10SM SCT015 BKN065 10/05 A3000 RMK AO2=
202002011652 METAR KATL 011652Z 30009KT 7SM BKN010 OVC018 08/04 A3002 RMK AO2 SLP171 T00830044=
202002011606 SPECI KATL 011606Z 30005KT 7SM OVC013 08/04 A3003 RMK AO2 T00830044=
202002011552 METAR KATL 011552Z VRB03KT 7SM FEW009 BKN015 08/04 A3002 RMK AO2 SLP171 T00780039=
202002011506 SPECI KATL 011506Z 30003KT 6SM BR SCT008 BKN018 06/03 A3003 RMK AO2 T00610033=
202002011452 METAR KATL 011452Z 31005KT 6SM BR BKN008 BKN035 06/03 A3004 RMK AO2 SLP176 T00610033 53003=
202002011431 SPECI KATL 011431Z 31004KT 5SM BR BKN009 OVC035 06/03 A3004 RMK AO2 T00560028=
202002011416 SPECI KATL 011416Z 00000KT 5SM BR SCT009 OVC035 06/03 A3003 RMK AO2 T00560033=
202002011405 SPECI KATL 011405Z 33006KT 5SM BR OVC011 06/03 A3003 RMK AO2 T00560028=
202002011352 METAR KATL 011352Z 29005KT 5SM BR BKN006 OVC011 06/03 A3003 RMK AO2 SLP175 T00560028=
202002011252 METAR KATL 011252Z 00000KT 4SM BR BKN006 OVC012 05/03 A3003 RMK AO2 SLP175 T00500028=
