##########################################################
# Query made at 04/20/2024 00:10:08 UTC
# Time interval: from 04/01/2020 12:00  to 04/30/2020 12:59  UTC
##########################################################

##########################################################
# KATL, Atlanta, Hartsfield - Jackson Atlanta International Airport (United States)
# WMO index: 72219. WIGOS ID: 0-20000-0-72219
# Latitude 33-38-59N. Longitude 084-25-00W. Altitude 312 m.
##########################################################

202004301252 METAR KATL 301252Z 29011KT 10SM SCT012 SCT035 SCT200 13/09 A2985 RMK AO2 SLP104 T01280094=
202004301152 METAR KATL 301152Z 27006KT 10SM FEW010 FEW065 12/09 A2982 RMK AO2 SLP096 60000 70034 T01170094 10150 20117 53010=
202004301052 METAR KATL 301052Z 27007KT 10SM FEW012 FEW065 FEW250 12/09 A2980 RMK AO2 SLP088 T01170094=
202004300952 METAR KATL 300952Z 29007KT 10SM FEW060 12/11 A2979 RMK AO2 SLP085 T01220106=
202004300852 METAR KATL 300852Z 29009KT 10SM FEW010 FEW060 13/11 A2979 RMK AO2 SLP085 60000 T01330111 56010=
202004300752 METAR KATL 300752Z 28006KT 10SM SCT020 SCT050 SCT065 14/13 A2980 RMK AO2 SLP085 T01440128 $=
202004300735 SPECI KATL 300735Z 29007KT 10SM FEW008 SCT020 SCT060 15/13 A2980 RMK AO2 T01500128 $=
202004300652 METAR KATL 300652Z 20003KT 10SM SCT004 BKN017 BKN025 15/14 A2979 RMK AO2 RAE0553 SLP085 SCT004 V BKN P0000 T01500139 $=
202004300642 SPECI KATL 300642Z 22003KT 10SM SCT004 BKN017 BKN025 15/14 A2980 RMK AO2 RAE0553 SCT004 V BKN P0000 T01500139 $=
202004300611 SPECI KATL 300611Z 18004KT 10SM BKN004 BKN019 OVC065 15/14 A2981 RMK AO2 RAE0553 BKN004 V SCT P0000 T01500139 $=
202004300552 METAR KATL 300552Z 19003KT 9SM -RA SCT004 BKN013 OVC065 15/14 A2982 RMK AO2 RAE26B41 SLP094 P0000 60019 T01500139 10206 20150 53001 $=
202004300548 SPECI KATL 300548Z 20004KT 8SM -RA SCT004 BKN013 OVC065 15/14 A2982 RMK AO2 RAE26B41 P0000 $=
202004300526 SPECI KATL 300526Z 20003KT 10SM SCT004 SCT010 OVC065 15/14 A2982 RMK AO2 RAE26 P0000 T01500139 $=
202004300452 METAR KATL 300452Z 17005KT 10SM -RA SCT010 BKN080 OVC100 15/13 A2983 RMK AO2 PRESRR SLP096 P0001 T01500133 402170139 $=
202004300352 METAR KATL 300352Z 34005KT 10SM -RA FEW009 BKN080 OVC150 15/13 A2979 RMK AO2 RAB09 SLP083 P0000 T01500133 $=
202004300252 METAR KATL 300252Z 27005KT 10SM FEW009 BKN080 OVC150 15/13 A2982 RMK AO2 RAE50 SLP093 P0002 60018 T01500128 51021 $=
202004300152 METAR KATL 300152Z 29007KT 7SM -RA FEW009 BKN060 OVC100 15/13 A2982 RMK AO2 SLP092 P0005 T01500133 $=
202004300112 SPECI KATL 300112Z 31011KT 7SM -RA FEW009 SCT025 BKN060 OVC150 16/14 A2981 RMK AO2 P0003 T01610139 $=
202004300052 METAR KATL 300052Z 28014G22KT 4SM RA BR FEW009 BKN025CB BKN055 OVC150 16/14 A2981 RMK AO2 PK WND 28030/0010 WSHFT 2356 RAB09 SLP090 CB OHD-S MOV NE P0011 T01610139 $=
202004300014 SPECI KATL 300014Z 27020G30KT 3SM RA SCT012 BKN020CB BKN060 BKN200 18/14 A2980 RMK AO2 PK WND 28030/0010 WSHFT 2356 LTG DSNT N RAB09 PRESRR VIS SW-W LWR CB NE-OHD-SW MOV NE P0000 T01780144=
202004292352 METAR KATL 292352Z 21009KT 10SM SCT013 BKN025 BKN050 BKN200 20/17 A2975 RMK AO2 LTG DSNT N SLP070 CB DSNT E-SE SW-NW-N 60014 T02000172 10217 20194 56010=
202004292252 METAR KATL 292252Z 18012KT 10SM SCT013 BKN025 BKN050 BKN200 21/17 A2976 RMK AO2 LTG DSNT NW SLP073 CB DSNT SW-NW T02060172=
202004292214 SPECI KATL 292214Z 19009KT 10SM SCT012 BKN020 BKN060 OVC200 21/18 A2976 RMK AO2 T02060178=
202004292152 METAR KATL 292152Z 18009KT 10SM FEW012 SCT060 BKN140 OVC200 21/18 A2976 RMK AO2 RAB2058E08 SLP073 TCU DSNT NW-N P0000 T02060178=
202004292052 METAR KATL 292052Z 20011G17KT 10SM FEW026TCU SCT038 BKN070 OVC140 19/17 A2979 RMK AO2 RAE33 SLP082 TCU E-SE SW P0009 60014 T01940172 56019=
202004292013 SPECI KATL 292013Z 18011KT 4SM RA BR SCT020TCU BKN045 OVC085 20/18 A2979 RMK AO2 TCU NW P0003 T02000178=
202004291952 METAR KATL 291952Z 21013G20KT 3SM R09R/5500VP6000FT RA FEW017 BKN023CB OVC036 20/17 A2980 RMK AO2 RAB1854 SLP087 CB NE-OHD-SW MOV NE P0005 T02000172=
202004291942 SPECI KATL 291942Z 21010KT 6SM -RA BKN023 BKN033 OVC050 21/17 A2981 RMK AO2 RAB1854 P0000 T02060172=
202004291907 SPECI KATL 291907Z 19013G20KT 10SM -RA SCT022 BKN036 OVC055 21/17 A2982 RMK AO2 RAB1854 P0000 T02060167=
202004291852 METAR KATL 291852Z 20012KT 10SM SCT018 BKN028 OVC050 21/17 A2983 RMK AO2 SLP095 RAB16E46 P0000 T02060167=
202004291832 SPECI KATL 291832Z 20010G20KT 10SM SCT018 BKN026 OVC034 21/17 A2984 RMK AO2 RAB16E32 P0000 T02060167=
202004291752 METAR KATL 291752Z 18014G20KT 10SM SCT016 BKN036 OVC090 20/16 A2984 RMK AO2 RAE25 SLP100 BINOVC P0001 60001 T02000161 10211 20144 58025=
202004291723 SPECI KATL 291723Z 18016G21KT 10SM -RA SCT018 BKN033 OVC055 19/16 A2985 RMK AO2 P0001 T01940161=
202004291652 METAR KATL 291652Z 17015G25KT 5SM -RA BKN026 BKN036 OVC055 19/15 A2987 RMK AO2 PK WND 18030/1610 RAB42 SLP107 P0000 T01940150=
202004291632 SPECI KATL 291632Z 17016G23KT 140V210 10SM BKN028 BKN036 OVC060 21/14 A2988 RMK AO2 PK WND 18030/1610 T02110139=
202004291552 METAR KATL 291552Z 16011G23KT 10SM FEW040 BKN065 BKN140 BKN250 21/13 A2990 RMK AO2 SLP118 ACC OHD-ALQDS T02060128=
202004291452 METAR KATL 291452Z 16010G16KT 10SM FEW044 FEW065 BKN140 BKN250 19/11 A2992 RMK AO2 SLP125 ACC N-OHD-S T01940106 56022=
202004291352 METAR KATL 291352Z 16008KT 120V210 10SM FEW046 SCT150 SCT250 BKN300 19/10 A2993 RMK AO2 SLP127 TCU DSNT NW ACC DSNT NW T01890100=
202004291252 METAR KATL 291252Z 15011G16KT 10SM SCT150 SCT250 17/10 A2995 RMK AO2 SLP136 ACC SE SW T01720100=
202004291152 METAR KATL 291152Z 14005KT 10SM FEW120 SCT180 BKN220 14/10 A2999 RMK AO2 SLP149 ACC W-N T01440100 10178 20139 56004=
202004291052 METAR KATL 291052Z 14007KT 10SM FEW120 SCT250 14/10 A2999 RMK AO2 SLP149 T01390100=
202004290952 METAR KATL 290952Z 15007KT 10SM BKN250 14/10 A2997 RMK AO2 SLP143 T01440100=
202004290852 METAR KATL 290852Z 16006KT 10SM BKN250 14/09 A3000 RMK AO2 SLP152 T01440094 56004=
202004290752 METAR KATL 290752Z 22003KT 10SM BKN250 16/09 A3001 RMK AO2 SLP157 T01560094=
202004290652 METAR KATL 290652Z 19007KT 10SM FEW200 BKN250 17/08 A2999 RMK AO2 SLP150 T01720083=
202004290552 METAR KATL 290552Z 16008KT 10SM FEW200 SCT250 17/07 A3001 RMK AO2 SLP155 T01720072 10228 20172 56009=
202004290452 METAR KATL 290452Z 18007KT 10SM BKN250 18/08 A3002 RMK AO2 SLP158 T01780078 402610117=
202004290352 METAR KATL 290352Z 18007KT 10SM FEW200 BKN250 18/08 A3002 RMK AO2 SLP160 T01780083=
202004290252 METAR KATL 290252Z 18008KT 10SM FEW200 BKN250 19/09 A3004 RMK AO2 SLP166 T01940089 58010=
202004290152 METAR KATL 290152Z 15005KT 10SM FEW150 BKN250 19/08 A3007 RMK AO2 SLP176 T01940083=
202004290052 METAR KATL 290052Z 17006KT 10SM FEW150 SCT200 BKN250 22/07 A3007 RMK AO2 SLP179 T02170072=
202004282352 METAR KATL 282352Z 17006KT 10SM SCT150 BKN200 BKN250 23/07 A3007 RMK AO2 SLP178 T02280072 10261 20228 55011=
202004282252 METAR KATL 282252Z 17007KT 10SM FEW150 SCT200 SCT250 24/08 A3007 RMK AO2 SLP177 T02390078=
202004282152 METAR KATL 282152Z 15008KT 120V180 10SM FEW120 SCT150 BKN200 BKN250 25/07 A3009 RMK AO2 SLP182 VIRGA S-SW T02500072=
202004282052 METAR KATL 282052Z 16009KT 10SM FEW120 SCT160 BKN200 BKN250 25/07 A3011 RMK AO2 SLP189 VIRGA ALQDS ACC N-NE SE-SW-W T02500067 56017=
202004281952 METAR KATL 281952Z 19009G14KT 10SM FEW140 FEW180 SCT250 26/08 A3012 RMK AO2 SLP195 VIRGA SW-W ACC SW-W T02560083=
202004281852 METAR KATL 281852Z 20008KT 10SM FEW180 SCT250 24/07 A3014 RMK AO2 SLP201 T02440067=
202004281814 SPECI KATL 281814Z 17008KT 10SM FEW130 FEW180 SCT250 24/07 A3015 RMK AO2 T02440067=
202004281752 METAR KATL 281752Z 26005KT 10SM FEW130 FEW180 SCT250 24/07 A3016 RMK AO2 SLP207 ACC N T02440072 10244 20139 58020=
202004281652 METAR KATL 281652Z 21006KT 10SM FEW120 FEW180 SCT250 23/07 A3018 RMK AO2 SLP216 VIRGA W NW T02330067=
202004281552 METAR KATL 281552Z 22006KT 10SM FEW130 FEW180 SCT250 22/06 A3021 RMK AO2 SLP225 VIRGA NW T02220061=
202004281452 METAR KATL 281452Z 18005KT 10SM FEW085 SCT120 SCT200 BKN250 20/06 A3022 RMK AO2 SLP229 ACC DSNT W NW T02000056 51009=
202004281352 METAR KATL 281352Z 18004KT 10SM FEW085 SCT130 BKN200 BKN250 18/05 A3022 RMK AO2 SLP229 ACC W-N T01830050=
202004281252 METAR KATL 281252Z 00000KT 10SM FEW090 SCT120 SCT150 BKN250 16/08 A3021 RMK AO2 SLP226 VIRGA E ACC OHD-E T01560078=
202004281152 METAR KATL 281152Z 00000KT 10SM FEW075 SCT100 BKN140 14/07 A3019 RMK AO2 SLP219 VIRGA OHD-ALQDS ACC OHD-ALQDS T01390067 10144 20117 51010=
202004281052 METAR KATL 281052Z 30004KT 10SM FEW075 SCT100 BKN120 13/07 A3019 RMK AO2 SLP219 T01330067=
202004280952 METAR KATL 280952Z 00000KT 10SM FEW120 BKN150 BKN180 13/07 A3017 RMK AO2 SLP211 T01330067=
202004280852 METAR KATL 280852Z 00000KT 10SM BKN150 13/06 A3016 RMK AO2 SLP208 T01330056 55006=
202004280752 METAR KATL 280752Z 00000KT 10SM BKN150 12/06 A3016 RMK AO2 SLP208 T01220061=
202004280652 METAR KATL 280652Z 22003KT 10SM FEW150 12/06 A3015 RMK AO2 SLP206 T01220056=
202004280552 METAR KATL 280552Z 28004KT 10SM FEW150 FEW250 13/04 A3017 RMK AO2 SLP215 T01280044 10200 20128 50000=
202004280452 METAR KATL 280452Z 26003KT 10SM FEW250 13/06 A3018 RMK AO2 SLP216 T01280056 402280078=
202004280352 METAR KATL 280352Z 31004KT 10SM FEW250 14/04 A3018 RMK AO2 SLP216 T01440044=
202004280252 METAR KATL 280252Z 00000KT 10SM FEW250 15/05 A3017 RMK AO2 SLP216 T01500050 51007=
202004280152 METAR KATL 280152Z 00000KT 10SM SCT250 16/04 A3017 RMK AO2 SLP214 T01610039=
202004280052 METAR KATL 280052Z 34004KT 10SM SCT250 18/02 A3016 RMK AO2 SLP212 T01830017=
202004272352 METAR KATL 272352Z 31008KT 10SM BKN250 20/02 A3015 RMK AO2 SLP209 T02000017 10228 20200 55002=
202004272252 METAR KATL 272252Z 32008KT 10SM BKN250 22/01 A3015 RMK AO2 SLP208 T02170006=
202004272152 METAR KATL 272152Z 31012KT 10SM SCT250 22/02 A3015 RMK AO2 SLP208 T02220022=
202004272052 METAR KATL 272052Z 33013KT 10SM FEW200 22/03 A3016 RMK AO2 SLP211 T02220028 58012=
202004271952 METAR KATL 271952Z 30013G17KT 10SM FEW200 22/04 A3018 RMK AO2 SLP216 T02220039=
202004271852 METAR KATL 271852Z VRB05KT 10SM FEW200 22/04 A3019 RMK AO2 SLP221 T02170044=
202004271752 METAR KATL 271752Z 32007KT 10SM FEW200 21/04 A3020 RMK AO2 SLP223 T02060044 10206 20089 58003=
202004271652 METAR KATL 271652Z 33009KT 10SM FEW200 FEW250 19/04 A3020 RMK AO2 SLP226 T01890044=
202004271552 METAR KATL 271552Z 34008KT 10SM FEW250 18/04 A3021 RMK AO2 SLP228 T01780039=
202004271452 METAR KATL 271452Z 34009KT 10SM FEW250 16/04 A3020 RMK AO2 SLP226 T01610039 51009=
202004271352 METAR KATL 271352Z 33013G19KT 10SM FEW200 14/04 A3020 RMK AO2 SLP225 T01390044=
202004271252 METAR KATL 271252Z 33012KT 10SM FEW200 11/04 A3020 RMK AO2 SLP227 T01110044=
202004271152 METAR KATL 271152Z 32010KT 10SM CLR 09/04 A3018 RMK AO2 SLP220 T00890039 10100 20078 53016=
202004271052 METAR KATL 271052Z 33009KT 10SM CLR 08/03 A3015 RMK AO2 SLP212 T00780033=
202004270952 METAR KATL 270952Z 32009KT 10SM CLR 08/03 A3014 RMK AO2 SLP205 T00780033=
202004270852 METAR KATL 270852Z 32011KT 10SM CLR 08/04 A3013 RMK AO2 SLP202 T00780039 57004=
202004270752 METAR KATL 270752Z 30010KT 10SM CLR 08/04 A3014 RMK AO2 SLP204 T00830039=
202004270652 METAR KATL 270652Z 30009KT 10SM FEW040 09/04 A3013 RMK AO2 SLP201 T00890039=
202004270552 METAR KATL 270552Z 31009KT 10SM FEW040 10/04 A3014 RMK AO2 SLP204 T01000039 10139 20100 53001=
202004270452 METAR KATL 270452Z 33013KT 10SM SCT031 BKN045 11/04 A3014 RMK AO2 SLP203 T01060044 402060106=
202004270352 METAR KATL 270352Z 32007G21KT 10SM BKN034 BKN050 12/04 A3013 RMK AO2 SLP201 T01170044=
202004270252 METAR KATL 270252Z 33010KT 10SM BKN033 BKN045 12/04 A3014 RMK AO2 SLP203 T01220044 51023=
202004270152 METAR KATL 270152Z 31015G27KT 10SM BKN037 BKN046 13/04 A3012 RMK AO2 PK WND 33030/0115 SLP199 T01280044=
202004270052 METAR KATL 270052Z 32023G31KT 10SM BKN043 BKN065 13/04 A3009 RMK AO2 PK WND 31031/0050 SLP189 T01330044=
202004262352 METAR KATL 262352Z 31019G28KT 10SM BKN050 BKN065 14/04 A3006 RMK AO2 PK WND 29032/2320 SLP179 T01390044 10206 20139 51021=
202004262252 METAR KATL 262252Z 31021G32KT 10SM BKN050 BKN065 14/05 A3005 RMK AO2 PK WND 29032/2243 SLP176 T01440050=
202004262152 METAR KATL 262152Z 31021G28KT 10SM BKN055 BKN065 16/06 A3003 RMK AO2 PK WND 30033/2117 SLP168 T01610056=
202004262052 METAR KATL 262052Z 30018G31KT 10SM BKN050 18/06 A3000 RMK AO2 PK WND 30031/2044 SLP157 T01780061 53010=
202004261952 METAR KATL 261952Z 31013G26KT 10SM SCT055 19/07 A2997 RMK AO2 PK WND 31027/1931 SLP146 T01940072=
202004261852 METAR KATL 261852Z 30015G22KT 10SM SCT050 20/07 A2997 RMK AO2 SLP143 T02000072=
202004261752 METAR KATL 261752Z 28011G22KT 10SM FEW048 19/08 A2997 RMK AO2 SLP145 T01890078 10194 20122 58004=
202004261652 METAR KATL 261652Z 29014G22KT 10SM FEW040 18/07 A2998 RMK AO2 SLP147 T01780072=
202004261552 METAR KATL 261552Z 28012KT 10SM FEW038 17/07 A2999 RMK AO2 SLP152 T01670072=
202004261452 METAR KATL 261452Z 28015G22KT 10SM SCT031 16/08 A2998 RMK AO2 SLP149 T01610078 51018=
202004261352 METAR KATL 261352Z 29013KT 10SM SCT022 14/07 A2996 RMK AO2 SLP141 T01390072 $=
202004261252 METAR KATL 261252Z 27010KT 10SM BKN018 13/08 A2995 RMK AO2 SLP139 BKN018 V SCT T01280078 $=
202004261241 SPECI KATL 261241Z 28008KT 10SM BKN018 BKN040 13/08 A2995 RMK AO2 BKN018 V SCT T01330083 $=
202004261152 METAR KATL 261152Z 30007G16KT 10SM FEW012 SCT040 12/08 A2993 RMK AO2 SLP130 T01220078 10161 20111 50004=
202004261052 METAR KATL 261052Z 28007KT 10SM FEW040 SCT200 SCT250 12/07 A2994 RMK AO2 SLP132 T01170072=
202004260952 METAR KATL 260952Z 30008KT 10SM SCT200 BKN250 12/07 A2993 RMK AO2 SLP127 T01220072=
202004260852 METAR KATL 260852Z 31009G19KT 10SM FEW040 FEW250 13/07 A2992 RMK AO2 SLP124 T01330067 58002=
202004260752 METAR KATL 260752Z 29010KT 10SM FEW038 FEW250 14/07 A2993 RMK AO2 SLP128 T01390072=
202004260652 METAR KATL 260652Z 29007KT 10SM FEW038 SCT250 15/08 A2992 RMK AO2 SLP126 T01500078=
202004260552 METAR KATL 260552Z 28011G20KT 10SM FEW041 SCT250 16/08 A2992 RMK AO2 SLP127 T01610078 10239 20161 53007=
202004260452 METAR KATL 260452Z 28010KT 10SM FEW050 SCT070 SCT250 17/08 A2991 RMK AO2 SLP123 T01720083 402670128=
202004260352 METAR KATL 260352Z 27015G19KT 10SM SCT050 SCT250 18/08 A2991 RMK AO2 SLP122 T01830078=
202004260252 METAR KATL 260252Z 28011G22KT 10SM FEW050 FEW250 19/09 A2990 RMK AO2 PK WND 28028/0229 SLP119 T01890094 53034=
202004260152 METAR KATL 260152Z 27011G19KT 10SM SCT050 SCT250 21/11 A2986 RMK AO2 SLP105 T02110111=
202004260052 METAR KATL 260052Z 26011KT 10SM SCT055 SCT250 23/13 A2982 RMK AO2 SLP093 MDT CU NE-E T02280128=
202004252352 METAR KATL 252352Z 23011G18KT 10SM SCT065 24/12 A2980 RMK AO2 SLP085 MDT CU SW-W T02390122 10267 20233 55001=
202004252252 METAR KATL 252252Z 22015G20KT 10SM SCT070 26/12 A2980 RMK AO2 SLP083 T02560117=
202004252152 METAR KATL 252152Z 23013G22KT 10SM SCT065 26/12 A2979 RMK AO2 SLP082 T02610117=
202004252052 METAR KATL 252052Z 20012G21KT 10SM SCT060 SCT085 26/12 A2980 RMK AO2 SLP084 MDT CU ALQDS T02560122 58018=
202004251952 METAR KATL 251952Z 21014G18KT 10SM BKN060 25/12 A2982 RMK AO2 SLP092 MDT CU ALQDS T02500122=
202004251852 METAR KATL 251852Z 19014KT 10SM SCT050 SCT065 25/14 A2984 RMK AO2 SLP097 T02500139=
202004251752 METAR KATL 251752Z 21011G18KT 10SM SCT048 BKN100 23/13 A2985 RMK AO2 SLP104 T02330128 10239 20139 58014=
202004251652 METAR KATL 251652Z 19006KT 10SM FEW040 BKN100 23/13 A2987 RMK AO2 SLP108 T02330128=
202004251552 METAR KATL 251552Z 19007G16KT 150V210 10SM FEW032 BKN110 BKN200 22/13 A2989 RMK AO2 SLP117 ACC S-SW T02170133=
202004251452 METAR KATL 251452Z 18011KT 10SM BKN120 BKN250 20/12 A2990 RMK AO2 SLP119 ACC S-SW T02000122 56003=
202004251352 METAR KATL 251352Z 16005KT 10SM BKN130 18/13 A2990 RMK AO2 SLP121 ACC S-SW T01780128=
202004251252 METAR KATL 251252Z 12004KT 10SM FEW070 SCT085 BKN110 BKN250 16/12 A2989 RMK AO2 SLP116 ACC SE-SW-NW T01560122=
202004251152 METAR KATL 251152Z 00000KT 10SM FEW070 BKN100 BKN120 14/12 A2990 RMK AO2 RAB1055E11 SLP122 P0000 60000 T01390117 10144 20128 50010=
202004251052 METAR KATL 251052Z 00000KT 10SM FEW040 SCT070 BKN095 14/11 A2993 RMK AO2 SLP130 T01390111=
202004250952 METAR KATL 250952Z 00000KT 10SM BKN110 BKN250 13/11 A2989 RMK AO2 SLP119 T01330111=
202004250852 METAR KATL 250852Z 00000KT 10SM BKN120 13/11 A2987 RMK AO2 SLP111 T01330106 53004=
202004250752 METAR KATL 250752Z 30003KT 10SM SCT140 14/11 A2986 RMK AO2 SLP105 T01390106=
202004250652 METAR KATL 250652Z 31003KT 10SM FEW150 14/11 A2986 RMK AO2 SLP106 T01390106=
202004250552 METAR KATL 250552Z 00000KT 10SM CLR 14/11 A2986 RMK AO2 SLP107 T01390111 10200 20139 56003=
202004250452 METAR KATL 250452Z 29004KT 10SM CLR 14/11 A2986 RMK AO2 SLP107 T01440111 402220144=
202004250352 METAR KATL 250352Z 29005KT 10SM CLR 14/11 A2985 RMK AO2 SLP105 T01440111=
202004250252 METAR KATL 250252Z 28004KT 10SM CLR 16/12 A2987 RMK AO2 SLP110 T01560117 51014=
202004250152 METAR KATL 250152Z 32004KT 10SM FEW050 17/11 A2986 RMK AO2 SLP107 T01720111=
202004250052 METAR KATL 250052Z 30006KT 10SM BKN050 18/12 A2984 RMK AO2 SLP101 T01830117=
202004242352 METAR KATL 242352Z 31006KT 10SM FEW038 BKN050 20/12 A2983 RMK AO2 SLP096 T02000117 10222 20200 53005=
202004242252 METAR KATL 242252Z 34008KT 10SM SCT038 BKN050 21/12 A2982 RMK AO2 SLP094 T02060117=
202004242152 METAR KATL 242152Z 34009KT 10SM FEW038 BKN050 21/11 A2981 RMK AO2 SLP087 T02110106=
202004242052 METAR KATL 242052Z 33012G16KT 10SM FEW040 BKN050 22/12 A2981 RMK AO2 SLP089 T02170117 56007=
202004241952 METAR KATL 241952Z 30010KT 10SM SCT038 BKN050 22/12 A2982 RMK AO2 SLP091 T02220122=
202004241852 METAR KATL 241852Z 30009G17KT 10SM SCT034 BKN050 21/12 A2981 RMK AO2 SLP089 T02110122=
202004241752 METAR KATL 241752Z 29010KT 10SM FEW030 SCT046 BKN055 21/13 A2983 RMK AO2 SLP097 T02110128 10211 20156 50009=
202004241652 METAR KATL 241652Z 30009KT 10SM FEW028 SCT038 OVC050 20/13 A2985 RMK AO2 SLP103 BINOVC T02000128=
202004241552 METAR KATL 241552Z 28008KT 10SM SCT025 BKN038 OVC050 19/12 A2983 RMK AO2 SLP096 BINOVC T01890122=
202004241512 SPECI KATL 241512Z 27009KT 10SM SCT024 BKN035 BKN250 19/13 A2982 RMK AO2 T01890128=
202004241452 METAR KATL 241452Z 31007KT 10SM BKN021 BKN033 BKN250 18/13 A2980 RMK AO2 SLP088 T01830128 53010=
202004241352 METAR KATL 241352Z 31011KT 10SM BKN015 BKN024 BKN250 18/13 A2979 RMK AO2 SLP081 CIG 013V017 T01780128=
202004241301 SPECI KATL 241301Z 28010KT 10SM BKN014 BKN020 BKN250 17/13 A2978 RMK AO2 T01670133=
202004241252 METAR KATL 241252Z 28011KT 10SM FEW012 SCT018 16/13 A2978 RMK AO2 SLP079 T01610133=
202004241224 SPECI KATL 241224Z 26011KT 10SM FEW008 SCT018 16/13 A2978 RMK AO2 T01610128=
202004241152 METAR KATL 241152Z 26010KT 10SM FEW008 BKN018 16/13 A2977 RMK AO2 SLP078 70063 T01560133 10172 20144 53013=
202004241052 METAR KATL 241052Z 24006KT 10SM FEW008 FEW050 15/13 A2975 RMK AO2 SLP069 T01500133=
202004240952 METAR KATL 240952Z 24006KT 10SM SCT008 SCT050 16/14 A2974 RMK AO2 SLP067 T01560139=
202004240942 SPECI KATL 240942Z 25004KT 10SM SCT008 BKN050 16/14 A2974 RMK AO2 SCT008 V BKN T01560139=
202004240852 METAR KATL 240852Z 24005KT 10SM SCT007 BKN011 BKN050 17/14 A2973 RMK AO2 SLP064 T01670144 55000=
202004240832 SPECI KATL 240832Z 25005KT 10SM SCT009 BKN012 OVC055 17/15 A2973 RMK AO2 T01670150=
202004240752 METAR KATL 240752Z 23006KT 10SM SCT009 BKN055 17/15 A2973 RMK AO2 SLP063 SCT009 V BKN T01670150=
202004240714 SPECI KATL 240714Z 24007KT 10SM SCT005 BKN033 BKN050 17/15 A2973 RMK AO2 T01670150=
202004240652 METAR KATL 240652Z 23007KT 10SM BKN005 BKN011 OVC035 17/15 A2974 RMK AO2 SLP065 T01670150=
202004240552 METAR KATL 240552Z 22007KT 10SM OVC007 17/15 A2974 RMK AO2 SLP064 CIG 006V009 60002 T01670150 10167 20156 50006=
202004240452 METAR KATL 240452Z 20010KT 10SM BKN006 OVC012 17/15 A2974 RMK AO2 SLP067 T01670150 401890122=
202004240352 METAR KATL 240352Z 20013KT 10SM BKN005 BKN060 16/14 A2973 RMK AO2 SLP063 CIG 004V007 T01610144=
202004240333 SPECI KATL 240333Z 20009KT 10SM BKN006 BKN060 16/14 A2971 RMK AO2 T01560139=
202004240252 METAR KATL 240252Z 23005KT 10SM FEW007 SCT060 SCT250 16/14 A2972 RMK AO2 SLP060 60002 T01560139 55002=
202004240152 METAR KATL 240152Z 19011KT 10SM FEW007 SCT110 BKN250 17/14 A2967 RMK AO2 PK WND 17031/0059 RAB0056E07 SLP045 P0000 T01670144=
202004240052 METAR KATL 240052Z 18020G27KT 10SM FEW007 BKN090 OVC150 17/15 A2968 RMK AO2 PK WND 18027/0052 RAE51 SLP048 P0002 T01670150=
202004240034 SPECI KATL 240034Z 18017G24KT 9SM -RA FEW007 BKN090 OVC120 17/15 A2970 RMK AO2 P0001 T01670150=
202004232352 METAR KATL 232352Z 20012G18KT 9SM -RA BKN007 BKN015 OVC050 17/15 A2972 RMK AO2 LTG DSNT NE SLP062 CB DSNT NE P0002 60002 T01670150 10189 20161 55007=
202004232252 METAR KATL 232252Z 16014G22KT 10SM -RA OVC009 17/14 A2969 RMK AO2 SLP050 RAB47 LTG DSNT SE-SW CB DSNT SE-SW P0000 T01670144=
202004232152 METAR KATL 232152Z 18014G22KT 10SM BKN013 OVC045 17/14 A2972 RMK AO2 SLP060 T01720139=
202004232052 METAR KATL 232052Z 18011G20KT 10SM BKN018 OVC046 18/14 A2975 RMK AO2 SLP070 CIG 016V020 T01780139 55012=
202004231952 METAR KATL 231952Z 14010KT 10SM BKN016 BKN040 BKN110 OVC180 19/14 A2974 RMK AO2 SLP066 CIG 014V018 T01890144=
202004231852 METAR KATL 231852Z 17009KT 10SM BKN015 BKN024 BKN046 OVC180 18/14 A2977 RMK AO2 SLP080 CIG 013V017 T01780139=
202004231752 METAR KATL 231752Z 13006KT 10SM BKN010 OVC018 17/13 A2978 RMK AO2 SLP082 CIG 009V012 BINOVC 60059 T01720133 10172 20122 58029 $=
202004231652 METAR KATL 231652Z 12008KT 8SM BKN007 OVC015 15/13 A2981 RMK AO2 SLP091 CIG 006V009 T01500128 $=
202004231609 SPECI KATL 231609Z 12007KT 9SM BKN008 OVC014 14/12 A2984 RMK AO2 CIG 007V010 T01390117 $=
202004231552 METAR KATL 231552Z 13009KT 10SM BKN010 BKN018 OVC120 14/12 A2986 RMK AO2 SLP109 VIRGA NE-SE-SW CIG 008V012 T01390117=
202004231539 SPECI KATL 231539Z 12008G17KT 10SM SCT008 BKN012 BKN110 OVC180 13/11 A2984 RMK AO2 VIRGA OHD-ALQDS CBMAM DSNT NE-SE-S T01330111=
202004231452 METAR KATL 231452Z 13009G18KT 10SM SCT007 SCT075 BKN160CB OVC200 13/11 A2987 RMK AO2 PK WND 11027/1353 RAE18 SLP113 VIRGA OHD-ALQDS CBMAM NE-OHD-SW MOV E P0003 60059 T01330111 56066=
202004231442 SPECI KATL 231442Z 11013G20KT 3SM SCT007 SCT070 BKN160CB OVC200 13/11 A2986 RMK AO2 PK WND 11027/1353 SFC VIS 10 RAE18 VIRGA NE-SE-SW CBMAM NE-SE-SW MOV E P0003 T01280111=
202004231352 METAR KATL 231352Z 11021G28KT 3SM RA BR FEW006 SCT040 BKN065 OVC140 12/11 A2990 RMK AO2 PK WND 12028/1351 SFC VIS 4 TSB08E48 PRESFR SLP123 TS MOVD E P0035 T01220106=
202004231349 SPECI KATL 231349Z 12015G19KT 3SM RA BR FEW006 SCT040 BKN065 OVC140 12/11 A2996 RMK AO2 SFC VIS 4 TSB08E48 PRESFR TS MOVD E P0035=
202004231337 SPECI KATL 231337Z 12008KT 3SM +TSRA BR FEW007 BKN038CB OVC055 12/11 A3002 RMK AO2 TSB08 PRESFR OCNL LTGICCA E-S-SW TS E-S-SW MOV E P0031 T01220106=
202004231314 SPECI KATL 231314Z 07008KT 3SM TSRA BR FEW010 BKN036CB OVC048 12/11 A3006 RMK AO2 TSB08 OCNL LTGICCA NE-OHD-SW TS NE-OHD-SW MOV E P0018 T01220106=
202004231308 SPECI KATL 231308Z 15005KT 2SM +TSRA BR FEW010 BKN036CB OVC048 12/11 A3007 RMK AO2 TWR VIS 3 TSB08 OCNL LTGICCA NE-OHD-SW TS NE-OHD-SW MOV E P0013 T01220111=
202004231252 METAR KATL 231252Z 05007KT 3SM +RA BR FEW010 SCT035 OVC065 13/11 A3007 RMK AO2 SFC VIS 3 LTG DSNT SE-W SLP182 P0021 T01280106=
202004231152 METAR KATL 231152Z 04006KT 10SM -RA FEW012 BKN065 OVC095 13/10 A3002 RMK AO2 RAB1053 PRESRR SLP165 P0001 60007 70015 T01280100 10139 20122 51041=
202004231052 METAR KATL 231052Z 09008KT 10SM SCT065 BKN090 OVC110 12/10 A2996 RMK AO2 RAE15 SLP142 P0001 T01220100=
202004230952 METAR KATL 230952Z 09007KT 10SM -RA SCT065 BKN090 BKN110 12/09 A2998 RMK AO2 RAB09E25B50 SLP149 P0000 T01220094=
202004230852 METAR KATL 230852Z 10007KT 10SM SCT075 OVC110 12/09 A2990 RMK AO2 RAE06 SLP121 BINOVC P0000 60005 T01220094 56051=
202004230752 METAR KATL 230752Z 09012KT 8SM -RA SCT050 BKN075 OVC110 13/10 A2991 RMK AO2 RAE18B43 PRESFR SLP124 P0002 T01280100=
202004230652 METAR KATL 230652Z 09011KT 9SM -RA SCT060 OVC085 13/11 A2998 RMK AO2 RAB01 SLP147 P0003 T01280106=
202004230552 METAR KATL 230552Z 05006KT 10SM SCT060 OVC080 14/11 A3006 RMK AO2 RAE44 SLP173 P0005 60008 T01390106 10183 20139 58004=
202004230452 METAR KATL 230452Z 31006KT 6SM -RA BKN060 OVC080 14/11 A3013 RMK AO2 SLP197 P0003 T01440106 402220094=
202004230352 METAR KATL 230352Z 00000KT 10SM -RA BKN080 BKN110 OVC150 17/09 A3009 RMK AO2 RAB50 SLP183 P0000 T01720089=
202004230252 METAR KATL 230252Z 00000KT 10SM SCT090 BKN120 BKN150 OVC200 18/07 A3007 RMK AO2 SLP177 T01780072 53012=
202004230152 METAR KATL 230152Z 21005KT 10SM FEW080 BKN110 BKN150 OVC200 17/07 A3005 RMK AO2 PRESRR SLP173 T01720067=
202004230052 METAR KATL 230052Z 00000KT 10SM SCT080 BKN110 BKN150 OVC200 18/05 A3001 RMK AO2 SLP160 VIRGA OHD-ALQDS T01830050=
202004222352 METAR KATL 222352Z 18005KT 10SM FEW070 SCT120 BKN150 OVC200 18/06 A3003 RMK AO2 SLP168 T01830056 10222 20183 50006=
202004222252 METAR KATL 222252Z 20008KT 10SM SCT120 BKN150 OVC250 20/05 A3004 RMK AO2 SLP169 VIRGA E-OHD-W T02000050=
202004222152 METAR KATL 222152Z 16004KT 10SM FEW100 BKN130 OVC250 21/04 A3001 RMK AO2 SLP161 T02110044=
202004222052 METAR KATL 222052Z VRB03KT 10SM BKN120 OVC250 22/05 A3002 RMK AO2 SLP161 T02220050 58028=
202004221952 METAR KATL 221952Z 21005KT 10SM BKN120 OVC250 21/04 A3005 RMK AO2 SLP173 T02060039=
202004221852 METAR KATL 221852Z 21005KT 10SM SCT120 OVC250 21/02 A3009 RMK AO2 SLP185 T02110022=
202004221752 METAR KATL 221752Z 00000KT 10SM SCT150 BKN250 22/02 A3010 RMK AO2 SLP189 T02220022 10222 20106 58009=
202004221652 METAR KATL 221652Z 16006KT 10SM BKN170 BKN250 21/02 A3012 RMK AO2 SLP197 T02060017=
202004221552 METAR KATL 221552Z 00000KT 10SM SCT150 BKN250 20/01 A3014 RMK AO2 SLP204 T02000011=
202004221452 METAR KATL 221452Z 36007KT 10SM BKN250 18/01 A3013 RMK AO2 SLP199 T01830011 53013=
202004221352 METAR KATL 221352Z 01008KT 10SM BKN250 16/01 A3012 RMK AO2 SLP195 T01610006=
202004221252 METAR KATL 221252Z 33007KT 10SM FEW200 SCT250 13/03 A3010 RMK AO2 SLP191 T01330028=
202004221152 METAR KATL 221152Z 32008KT 10SM FEW200 SCT250 11/03 A3009 RMK AO2 SLP187 T01060033 10133 20094 53022=
202004221052 METAR KATL 221052Z 31008KT 10SM FEW250 09/03 A3007 RMK AO2 SLP178 T00940033=
202004220952 METAR KATL 220952Z 32008KT 10SM CLR 10/04 A3005 RMK AO2 SLP174 T01000039=
202004220852 METAR KATL 220852Z 31007KT 10SM CLR 11/03 A3003 RMK AO2 SLP165 T01110033 55000=
202004220752 METAR KATL 220752Z 31009KT 10SM CLR 12/04 A3002 RMK AO2 SLP163 T01220044=
202004220652 METAR KATL 220652Z 31009KT 10SM CLR 13/05 A3002 RMK AO2 SLP160 T01280050=
202004220552 METAR KATL 220552Z 32007KT 10SM CLR 13/06 A3003 RMK AO2 SLP164 T01330056 10211 20133 53008=
202004220452 METAR KATL 220452Z 28007KT 10SM CLR 13/06 A3001 RMK AO2 SLP160 T01330061 402390117=
202004220352 METAR KATL 220352Z 33006KT 10SM CLR 16/07 A3000 RMK AO2 SLP155 T01560067=
202004220252 METAR KATL 220252Z 28005KT 10SM CLR 16/06 A3000 RMK AO2 SLP156 T01610061 51022=
202004220152 METAR KATL 220152Z 29006KT 10SM CLR 17/07 A2998 RMK AO2 SLP148 T01720067=
202004220052 METAR KATL 220052Z 29009KT 10SM CLR 19/06 A2996 RMK AO2 SLP141 T01890061=
202004212352 METAR KATL 212352Z 29012KT 10SM FEW070 21/05 A2994 RMK AO2 SLP133 T02110050 10239 20211 53010=
202004212252 METAR KATL 212252Z 31015G24KT 10SM FEW070 22/06 A2992 RMK AO2 SLP128 T02220056=
202004212152 METAR KATL 212152Z 29014G28KT 10SM SCT065 BKN090 23/06 A2991 RMK AO2 PK WND 32028/2149 SLP125 T02330056=
202004212052 METAR KATL 212052Z 30016G26KT 10SM SCT065 SCT080 22/07 A2991 RMK AO2 PK WND 29026/2027 SLP123 T02220072 56003 $=
202004211952 METAR KATL 211952Z 32020G23KT 10SM SCT060 SCT080 23/08 A2991 RMK AO2 SLP123 T02280083 $=
202004211852 METAR KATL 211852Z 28014KT 10SM SCT060 BKN075 23/09 A2991 RMK AO2 SLP122 T02280094 $=
202004211752 METAR KATL 211752Z 31017KT 10SM SCT055 BKN080 22/09 A2992 RMK AO2 SLP126 MDT CU NW-NE-E T02220089 10228 20128 58002=
202004211652 METAR KATL 211652Z 29014G22KT 10SM FEW046 SCT060 SCT100 22/11 A2993 RMK AO2 SLP129 T02220106=
202004211552 METAR KATL 211552Z 28015G21KT 10SM FEW040 FEW110 22/11 A2993 RMK AO2 SLP129 T02170111=
202004211452 METAR KATL 211452Z 29010KT 10SM CLR 19/10 A2992 RMK AO2 SLP128 T01940100 50007=
202004211352 METAR KATL 211352Z 28009KT 10SM CLR 18/09 A2993 RMK AO2 SLP129 T01780094=
202004211252 METAR KATL 211252Z 28007KT 10SM CLR 16/08 A2992 RMK AO2 SLP130 T01560083=
202004211152 METAR KATL 211152Z 27003KT 10SM FEW100 13/07 A2990 RMK AO2 SLP122 T01280072 10133 20117 51009=
202004211052 METAR KATL 211052Z 28008KT 10SM FEW100 12/07 A2990 RMK AO2 SLP120 T01220067=
202004210952 METAR KATL 210952Z 28007KT 10SM CLR 12/06 A2989 RMK AO2 SLP117 T01170061=
202004210852 METAR KATL 210852Z 26004KT 10SM CLR 13/06 A2987 RMK AO2 SLP112 T01280061 56008=
202004210752 METAR KATL 210752Z 29005KT 10SM CLR 12/07 A2988 RMK AO2 SLP113 T01220067=
202004210652 METAR KATL 210652Z 28007KT 10SM CLR 13/07 A2989 RMK AO2 SLP119 T01280067=
202004210552 METAR KATL 210552Z 28004KT 10SM CLR 13/07 A2990 RMK AO2 SLP122 T01330067 10194 20133 51005=
202004210452 METAR KATL 210452Z 28007KT 10SM CLR 14/07 A2990 RMK AO2 SLP122 T01440072 402170122=
202004210352 METAR KATL 210352Z 28007KT 10SM FEW250 15/07 A2989 RMK AO2 SLP118 T01500072=
202004210252 METAR KATL 210252Z 28007KT 10SM FEW250 15/08 A2988 RMK AO2 SLP117 T01500078 53018=
202004210152 METAR KATL 210152Z 27004KT 10SM SCT250 16/08 A2986 RMK AO2 SLP110 T01610078=
202004210052 METAR KATL 210052Z 00000KT 10SM SCT250 18/07 A2984 RMK AO2 SLP099 T01780072=
202004202352 METAR KATL 202352Z 29005KT 10SM FEW250 19/07 A2983 RMK AO2 SLP096 T01940067 10217 20178 53010=
202004202252 METAR KATL 202252Z 29010KT 10SM FEW250 21/07 A2981 RMK AO2 SLP090 T02060067=
202004202152 METAR KATL 202152Z 31009KT 10SM FEW200 21/07 A2980 RMK AO2 SLP087 T02110072=
202004202052 METAR KATL 202052Z 34015G19KT 10SM FEW055 FEW200 22/07 A2980 RMK AO2 SLP086 T02170067 53000=
202004201952 METAR KATL 201952Z 34012KT 10SM FEW050 FEW200 21/07 A2979 RMK AO2 SLP084 T02060072=
202004201852 METAR KATL 201852Z 31012KT 10SM FEW030 FEW200 20/09 A2979 RMK AO2 SLP085 T02000094=
202004201752 METAR KATL 201752Z 33015KT 10SM FEW027 SCT200 18/10 A2980 RMK AO2 SLP087 60000 T01780100 10183 20144 51025=
202004201709 SPECI KATL 201709Z 30013G18KT 10SM SCT021 17/11 A2979 RMK AO2 T01670106=
202004201652 METAR KATL 201652Z 32016G23KT 10SM BKN017 BKN024 17/11 A2980 RMK AO2 SLP087 T01670106=
202004201552 METAR KATL 201552Z 32016KT 10SM BKN017 OVC024 16/11 A2976 RMK AO2 PK WND 31028/1535 SLP075 CIG 015V019 BINOVC T01610111=
202004201506 SPECI KATL 201506Z 31015G22KT 10SM BKN017 BKN023 16/12 A2972 RMK AO2 CIG 015V019 T01610117=
202004201452 METAR KATL 201452Z 31015KT 10SM FEW010 BKN014 OVC022 16/12 A2972 RMK AO2 SLP062 CIG 012V016 BINOVC 60000 T01560117 53024=
202004201352 METAR KATL 201352Z 32016G22KT 10SM SCT010 BKN013 OVC022 15/12 A2968 RMK AO2 SLP048 CIG 011V015 BINOVC T01500122 $=
202004201322 SPECI KATL 201322Z 33010KT 10SM BKN011 OVC020 15/13 A2966 RMK AO2 CIG 009V013 BINOVC T01500128=
202004201252 METAR KATL 201252Z 31011KT 10SM BKN008 OVC015 15/13 A2966 RMK AO2 DZE1159RAB11E22 SLP042 P0000 T01500128=
202004201213 SPECI KATL 201213Z 31011KT 6SM -RA BR SCT005 BKN008 OVC021 14/13 A2964 RMK AO2 DZE1159RAB11 P0000 T01440128=
202004201152 METAR KATL 201152Z 30011KT 1 1/2SM -DZ BR BKN006 OVC022 14/13 A2965 RMK AO2 SFC VIS 4 RAB22E52DZB52 SLP038 CIG 004V008 P0001 60035 70296 T01440128 10144 20122 53024=
202004201125 SPECI KATL 201125Z 28011KT 1 1/2SM R09R/6000VP6000FT -RA BR BKN006 OVC011 14/13 A2963 RMK AO2 SFC VIS 2 RAB22 P0000 T01440133=
202004201052 METAR KATL 201052Z 27011KT 8SM BKN007 OVC016 14/13 A2961 RMK AO2 RAE14 SLP023 CIG 005V009 P0002 T01440128=
202004201015 SPECI KATL 201015Z 25008KT 6SM BR BKN005 OVC014 14/13 A2958 RMK AO2 RAE14 CIG 004V007 P0002 T01440128=
202004200952 METAR KATL 200952Z 26010KT 1/4SM R09R/P6000FT -RA BR BKN004 BKN010 OVC025 14/13 A2958 RMK AO2 SFC VIS 3 RAB23 SLP015 CIG 003V005 TWRINC P0006 T01440128=
202004200852 METAR KATL 200852Z 25005KT 1/4SM R09R/P6000FT BR OVC003 14/13 A2958 RMK AO2 SFC VIS 6 SLP013 TWRINC 60026 T01390128 55057=
202004200752 METAR KATL 200752Z 18005KT 1/4SM R09R/P6000FT BR OVC002 14/13 A2954 RMK AO2 SFC VIS 6 RAE04 SLP003 TWRINC P0001 T01390128=
202004200712 SPECI KATL 200712Z 16008KT 1/4SM R09R/P6000FT BR BKN003 OVC011 13/12 A2953 RMK AO2 SFC VIS 6 RAE04 PRESFR TWRINC P0001 T01330122=
202004200652 METAR KATL 200652Z 15014G20KT 1/4SM R09R/3000VP6000FT -RA BR BKN003 OVC011 12/11 A2955 RMK AO2 SFC VIS 1 TSE23 SLP008 CIG 002V004 TS DSIPTD CB DSNT NE-SE TWRINC P0025 T01220111=
202004200650 SPECI KATL 200650Z 14014G20KT 1SM R09R/3000VP6000FT RA BR BKN003 OVC011 12/11 A2954 RMK AO2 TWR VIS 1 1/2 TSE23 PRESFR CIG 002V004 TS DSIPTD CB DSNT NE-SE TWRINC P0025=
202004200639 SPECI KATL 200639Z 15007KT 100V180 1 1/2SM -RA BR BKN003 OVC028 12/11 A2963 RMK AO2 SFC VIS 4 LTG DSNT NE AND E TSE23 CIG 002V004 TS DSIPTD CB DSNT NE-SE TWRINC P0022 T01220111=
202004200624 SPECI KATL 200624Z 13006KT 1 1/2SM -RA BR BKN004 BKN023CB OVC042 12/11 A2967 RMK AO2 SFC VIS 4 LTG DSNT NE AND E TSE23 PRESFR CIG 003V005 TS DSIPTD CB ALQDS MOV NE TWRINC P0018 T01220111=
202004200552 METAR KATL 200552Z 26005KT 1 1/2SM TSRA BR FEW006 BKN017CB OVC049 12/11 A2975 RMK AO2 SFC VIS 2 1/2 SLP074 OCNL LTGIC SW TS VC SW MOV NE CB ALQDS MOV NE P0017 60120 T01220111 10122 20122 55005=
202004200545 SPECI KATL 200545Z 23004KT 1 1/2SM TSRA BR FEW004 BKN018CB OVC055 12/11 A2975 RMK AO2 SFC VIS 4 OCNL LTGIC SW TS VC SW MOV NE CB ALQDS MOV NE P0014 T01220111=
202004200452 METAR KATL 200452Z 00000KT 1 1/2SM -TSRA BR BKN004 OVC015CB 12/11 A2973 RMK AO2 SFC VIS 6 LTG DSNT W TSB51 SLP066 OCNL LTGIC S-SW TS S-SW MOV NE CIG 003V005 TWRINC P0008 T01220111 401220083=
202004200352 METAR KATL 200352Z 17005KT 2SM -RA BKN004 OVC020 12/11 A2975 RMK AO2 SFC VIS 7 SLP076 CIG 003V006 TWRINC P0023 T01220111=
202004200252 METAR KATL 200252Z 12004KT 2SM RA BR OVC004 12/11 A2976 RMK AO2 SFC VIS 4 SLP079 CIG 003V006 TWRINC P0026 60072 T01220111 55014=
202004200152 METAR KATL 200152Z 08007KT 2SM RA BR BKN003 BKN017 OVC080 12/11 A2972 RMK AO2 SFC VIS 4 LTG DSNT W-N SLP065 TWRINC P0016 T01220111=
202004200129 SPECI KATL 200129Z 06007KT 2SM -RA BR BKN003 BKN009 OVC048 12/11 A2974 RMK AO2 SFC VIS 4 TWRINC P0008 T01220111=
202004200059 SPECI KATL 200059Z 07006KT 2SM RA BR SCT003 BKN009 OVC019 12/11 A2977 RMK AO2 SFC VIS 4 P0002 T01220111=
202004200052 METAR KATL 200052Z 07006KT 2SM RA BR SCT003 BKN009 OVC019 12/11 A2978 RMK AO2 SFC VIS 3 SLP083 TSE45 CIG 007V011 TS MOV NE P0030 T01220111=
202004200048 SPECI KATL 200048Z 07005KT 3SM RA BR SCT005 BKN017 OVC040 12/11 A2978 RMK AO2 SFC VIS 5 TSE45 TS MOV NE P0029=
202004200017 SPECI KATL 200017Z 00000KT 3SM -TSRA BR BKN005 OVC040CB 12/11 A2981 RMK AO2 TSB15 OCNL LTGICCC OHD-SE-SW TS OHD-SE-SW MOV NE P0011 T01220111=
202004200012 SPECI KATL 200012Z 00000KT 3SM VCTS RA BR BKN005 OVC040CB 12/11 A2981 RMK AO2 OCNL LTGICCG VC SE-S TS VC SE-S MOV NE P0008 T01220111=
202004192352 METAR KATL 192352Z 19003KT 1 1/4SM RA BR BKN003 OVC040 12/11 A2981 RMK AO2 SFC VIS 4 PRESRR SLP093 P0020 60025 T01220106 10122 20100 55011=
202004192340 SPECI KATL 192340Z VRB03KT 1 1/4SM RA BR BKN003 OVC040 12/11 A2979 RMK AO2 SFC VIS 4 P0014 T01220111=
202004192252 METAR KATL 192252Z 09006KT 1/4SM R09R/P6000FT -RA BR OVC002 12/11 A2978 RMK AO2 SFC VIS 1 1/4 SLP083 DZE22RAB22 TWRINC P0004 T01220111=
202004192204 SPECI KATL 192204Z 13005KT 1/4SM R09R/3000VP6000FT -DZ BR OVC002 12/11 A2982 RMK AO2 SFC VIS 3/4 TWRINC P0000 T01220111=
202004192152 METAR KATL 192152Z 11006KT 1 1/4SM R09R/4500VP6000FT -DZ BR OVC003 12/11 A2982 RMK AO2 SFC VIS 2 RAE28DZB49 SLP096 TWRINC P0001 T01220106=
202004192052 METAR KATL 192052Z 09007KT 1 1/4SM -RA BR OVC004 12/11 A2984 RMK AO2 SFC VIS 6 RAE1953B50 SLP105 TWRINC P0000 60000 T01220106 55021=
202004192019 SPECI KATL 192019Z VRB03KT 10SM OVC004 12/11 A2985 RMK AO2 RAE1953 P0000 T01220106=
202004191952 METAR KATL 191952Z 11004KT 7SM -RA OVC005 12/10 A2984 RMK AO2 RAB25 SLP104 P0000 T01170100=
202004191908 SPECI KATL 191908Z 10006KT 7SM OVC005 11/09 A2985 RMK AO2 T01110089=
202004191852 METAR KATL 191852Z 07006KT 1 1/2SM BR OVC004 11/09 A2985 RMK AO2 SFC VIS 6 SLP108 TWRINC T01060089=
202004191752 METAR KATL 191752Z 06006KT 1 1/2SM BR OVC004 10/08 A2991 RMK AO2 SFC VIS 6 SLP127 TWRINC 60116 T01000078 10122 20083 58030=
202004191731 SPECI KATL 191731Z 06006KT 1 1/2SM OVC004 09/08 A2993 RMK AO2 SFC VIS 10 TWRINC T00940078=
202004191726 SPECI KATL 191726Z 06007KT 10SM OVC004 09/08 A2993 RMK AO2 T00940078=
202004191652 METAR KATL 191652Z 05006KT 7SM OVC006 09/08 A2995 RMK AO2 RAE46 SLP142 P0007 T00940078=
202004191635 SPECI KATL 191635Z 10007KT 6SM -RA BR OVC005 09/07 A2995 RMK AO2 PRESRR P0006 T00890072=
202004191552 METAR KATL 191552Z 09009KT 4SM RA BR FEW006 BKN049 OVC080 09/07 A2999 RMK AO2 SLP155 P0030 T00890072=
202004191544 SPECI KATL 191544Z 06008KT 3SM RA BR FEW010 BKN044 OVC065 09/07 A3001 RMK AO2 CB DSNT NE P0028 T00890072=
202004191535 SPECI KATL 191535Z 04008KT 2SM RA BR FEW006 BKN032 OVC050 09/07 A3002 RMK AO2 LTG DSNT NE CB DSNT NE P0025 T00890072=
202004191522 SPECI KATL 191522Z 35006KT 1 1/2SM +RA BR FEW006 BKN022 OVC031 09/07 A3004 RMK AO2 P0014 T00890072=
202004191513 SPECI KATL 191513Z 33009KT 2 1/2SM +RA BR FEW009 BKN025 OVC031 09/07 A3003 RMK AO2 P0007 T00890072=
202004191452 METAR KATL 191452Z 03008KT 3SM RA BR FEW006 SCT026 OVC055 09/07 A3000 RMK AO2 LTG DSNT S PRESRR SLP159 TSB08E23 DSPTD CB DSNT S P0031 60079 T00890072 51026=
202004191427 SPECI KATL 191427Z 13006KT 3SM +RA BR BKN050 OVC070 09/07 A2998 RMK AO2 LTG DSNT E-SW TSB08E23 DSPTD CB DSNT E-SW P0017 T00890072=
202004191414 SPECI KATL 191414Z 17005KT 3SM VCTS RA BR OVC065CB 09/07 A2998 RMK AO2 LTG DSNT SE AND S TSB08 OCNL LTGIC SW TS SW MOV E CB DSNT SE P0010 T00890072=
202004191352 METAR KATL 191352Z 11008KT 4SM RA BR BKN065 OVC080 09/07 A2994 RMK AO2 LTG DSNT SE-SW TSE08E13 SLP138 TS MOV NE CB DSNT SE-SW P0026 T00890067=
202004191310 SPECI KATL 191310Z 07004KT 3SM RA OVC041 09/07 A3001 RMK AO2 LTG DSNT ALQDS TSE08 TS MOV NE CB DSNT ALQDS P0007 T00940067=
202004191252 METAR KATL 191252Z 05003KT 3SM TSRA FEW015CB SCT028 OVC041 09/07 A2999 RMK AO2 PK WND 23034/1236 SLP156 TSB13 RAB18 CONS LTGICCG OHD-SE-S TS OHD-SE-S MOV NE P0022 T00940067 $=
202004191242 SPECI KATL 191242Z 20005G34KT 1 1/2SM R09R/2800VP6000FT +TSRA SCT015CB BKN033 OVC041 09/07 A3002 RMK AO2 PK WND 23034/1236 TSB13 RAB18 FRQ LTGICCG OHD-SE-S TS OHD-SE-S MOV NE P0013 T00940067 $=
202004191214 SPECI KATL 191214Z 10007KT 10SM TS FEW015CB BKN040 OVC150 12/04 A2994 RMK AO2 OCNL LTGICCG SW-W TS VC SW-W MOV NE T01170039 $=
202004191152 METAR KATL 191152Z 06008KT 10SM BKN039 BKN180 OVC220 12/03 A2992 RMK AO2 LTG DSNT SW AND W SLP129 CB DSNT SW-W BINOVC E T01170033 10122 20106 55004 $=
202004191052 METAR KATL 191052Z 08005KT 10SM FEW035 BKN180 BKN220 11/03 A2991 RMK AO2 SLP127 T01110033 $=
202004190952 METAR KATL 190952Z 10004KT 10SM FEW180 BKN220 11/03 A2991 RMK AO2 SLP126 T01060033 $=
202004190852 METAR KATL 190852Z 06006KT 10SM FEW180 BKN220 11/03 A2993 RMK AO2 SLP131 T01110033 56022 $=
202004190752 METAR KATL 190752Z 03006KT 10SM SCT180 SCT220 12/03 A2994 RMK AO2 SLP135 T01220028 $=
202004190652 METAR KATL 190652Z 01003KT 10SM SCT180 BKN250 12/04 A2997 RMK AO2 SLP145 T01220039 $=
202004190552 METAR KATL 190552Z 34004KT 10SM FEW150 SCT180 BKN250 12/04 A3000 RMK AO2 SLP155 T01220044 10183 20111 58004 $=
202004190452 METAR KATL 190452Z 31005KT 10SM FEW150 BKN250 12/04 A3001 RMK AO2 SLP161 T01170044 402110117 $=
202004190352 METAR KATL 190352Z 35005KT 10SM FEW150 SCT200 BKN250 14/03 A3000 RMK AO2 SLP156 T01440028 $=
202004190252 METAR KATL 190252Z 32005KT 10SM FEW150 BKN250 14/03 A3001 RMK AO2 SLP160 T01390033 53009 $=
202004190152 METAR KATL 190152Z 33005KT 10SM FEW200 BKN250 15/03 A3001 RMK AO2 SLP159 T01500028 $=
202004190052 METAR KATL 190052Z 32005KT 10SM SCT200 BKN250 17/02 A2998 RMK AO2 SLP150 T01670022 $=
202004182352 METAR KATL 182352Z 29008KT 10SM FEW250 BKN300 18/02 A2998 RMK AO2 SLP149 T01830022 10211 20183 53005 $=
202004182252 METAR KATL 182252Z 28007KT 10SM FEW200 SCT250 19/04 A2997 RMK AO2 SLP145 T01940039 $=
202004182152 METAR KATL 182152Z 33010KT 10SM FEW200 SCT250 21/01 A2997 RMK AO2 SLP142 T02060011 $=
202004182052 METAR KATL 182052Z 31008G14KT 10SM FEW200 SCT250 21/03 A2997 RMK AO2 SLP143 T02060033 58016 $=
202004181952 METAR KATL 181952Z 33010G15KT 10SM FEW250 20/03 A2999 RMK AO2 SLP152 T02000028 $=
202004181852 METAR KATL 181852Z 35014G22KT 10SM FEW250 19/03 A3001 RMK AO2 SLP159 T01890028 $=
202004181752 METAR KATL 181752Z 32014G21KT 10SM BKN250 19/05 A3002 RMK AO2 SLP160 T01940050 10194 20150 58003 $=
202004181652 METAR KATL 181652Z 31012KT 10SM FEW040 BKN250 18/08 A3003 RMK AO2 SLP166 T01830078 $=
202004181552 METAR KATL 181552Z 33016KT 10SM FEW030 BKN250 18/09 A3004 RMK AO2 SLP169 T01780089 $=
202004181505 SPECI KATL 181505Z 33013KT 10SM SCT022 BKN250 17/10 A3003 RMK AO2 T01670100 $=
202004181452 METAR KATL 181452Z 30011KT 10SM BKN018 16/10 A3003 RMK AO2 SLP164 T01610100 51026 $=
202004181352 METAR KATL 181352Z 32016KT 10SM FEW015 BKN021 BKN060 16/11 A3001 RMK AO2 SLP160 T01560106 $=
202004181327 SPECI KATL 181327Z 33013G19KT 10SM SCT010 SCT036 BKN075 BKN250 16/12 A3000 RMK AO2 T01560117 $=
202004181252 METAR KATL 181252Z 32015G21KT 10SM FEW007 SCT014 OVC022 16/13 A2999 RMK AO2 SLP151 BINOVC T01560128 $=
202004181250 SPECI KATL 181250Z 32013G21KT 10SM FEW007 SCT014 OVC022 16/13 A2999 RMK AO2 BINOVC $=
202004181243 SPECI KATL 181243Z 32012G19KT 10SM SCT007 BKN014 OVC022 16/13 A2998 RMK AO2 CIG 012V017 T01610133 $=
202004181227 SPECI KATL 181227Z 28011KT 10SM FEW007 OVC014 16/14 A2997 RMK AO2 CIG 012V017 T01610144 $=
202004181152 METAR KATL 181152Z 26008KT 7SM BKN018 BKN036 BKN095 BKN130 BKN250 16/14 A2995 RMK AO2 SLP135 RAB1047E38 TSE47 TS DSIPTD P0012 60018 70018 T01610144 10172 20150 51012 $=
202004181148 SPECI KATL 181148Z 26008KT 7SM FEW006 SCT023 BKN033 BKN130 BKN250 16/14 A2995 RMK AO2 RAB1047E38 TSE47 TS DSIPTD P0012 $=
202004181138 SPECI KATL 181138Z 26005KT 6SM TS BR SCT006 BKN031CB BKN090 BKN150 BKN250 16/14 A2994 RMK AO2 RAB1047 OCNL LTGICCG NE-SE TS VC NE-SE MOV E P0012 T01560144 $=
202004181135 SPECI KATL 181135Z 25007KT 5SM -TSRA BR SCT006 BKN014CB BKN025 BKN150 BKN250 16/14 A2994 RMK AO2 RAB1047 OCNL LTGICCG NE-SE TS VC NE-SE MOV E P0012 T01560144 $=
202004181113 SPECI KATL 181113Z 28008KT 2SM +TSRA BR FEW007 SCT016CB OVC025 16/14 A2994 RMK AO2 RAB1057 TSB13 OCNL LTG DSNT NE AND W CB DSNT NE AND W-NW P0006 T01560139 $=
202004181106 SPECI KATL 181106Z 27007KT 5SM RA BR SCT016 OVC025 16/14 A2993 RMK AO2 RAB1057 OCNL LTG DSNT N AND W CB DSNT N AND W P0001 T01610144 $=
202004181052 METAR KATL 181052Z 25006KT 10SM BKN025 BKN036 OVC050 16/14 A2991 RMK AO2 SLP124 T01610139 $=
202004181050 SPECI KATL 181050Z 26007KT 10SM BKN027 BKN036 OVC050 16/14 A2991 RMK AO2 $=
202004180952 METAR KATL 180952Z 26009KT 10SM FEW050 SCT070 SCT085 BKN150 BKN220 16/14 A2991 RMK AO2 RAE08 SLP122 P0001 T01610139 $=
202004180852 METAR KATL 180852Z 27011KT 7SM -RA FEW050 SCT065 BKN085 OVC150 16/13 A2994 RMK AO2 RAB17 SLP131 P0005 60005 T01610133 55011 $=
202004180752 METAR KATL 180752Z 23009KT 10SM FEW040 SCT100 BKN150 BKN200 16/10 A2992 RMK AO2 SLP126 T01610100 $=
202004180652 METAR KATL 180652Z 22009KT 10SM FEW040 SCT100 BKN200 16/09 A2993 RMK AO2 SLP130 T01560094 $=
202004180552 METAR KATL 180552Z 21005KT 10SM FEW040 SCT100 SCT200 BKN250 15/09 A2997 RMK AO2 SLP143 T01500089 10206 20150 57025 $=
202004180452 METAR KATL 180452Z 19005KT 10SM SCT200 BKN250 16/08 A3000 RMK AO2 SLP153 T01560078 402330083=
202004180352 METAR KATL 180352Z 20004KT 10SM FEW200 BKN250 17/07 A3002 RMK AO2 SLP162 T01670072=
202004180252 METAR KATL 180252Z 22005KT 10SM FEW200 BKN250 18/07 A3005 RMK AO2 SLP171 T01780067 56004=
202004180152 METAR KATL 180152Z 21005KT 10SM FEW200 BKN250 18/07 A3005 RMK AO2 SLP173 T01780067=
202004180052 METAR KATL 180052Z 21004KT 10SM FEW200 BKN250 19/06 A3005 RMK AO2 SLP174 T01890061=
202004172352 METAR KATL 172352Z 19006KT 10SM FEW200 BKN250 21/06 A3006 RMK AO2 SLP176 T02110056 10233 20206 56012=
202004172252 METAR KATL 172252Z 20011KT 10SM FEW200 SCT250 23/04 A3007 RMK AO2 SLP180 T02280044=
202004172152 METAR KATL 172152Z 19011G18KT 10SM FEW200 SCT250 23/05 A3007 RMK AO2 SLP181 T02280050=
202004172052 METAR KATL 172052Z 19009KT 10SM FEW200 SCT250 SCT300 23/04 A3010 RMK AO2 SLP188 T02280044 56036=
202004171952 METAR KATL 171952Z 18010KT 10SM SCT200 BKN250 BKN300 23/07 A3013 RMK AO2 SLP199 T02280067=
202004171852 METAR KATL 171852Z 18011G16KT 10SM SCT200 BKN250 BKN300 22/06 A3017 RMK AO2 SLP213 T02220061=
202004171752 METAR KATL 171752Z 16009G18KT 10SM FEW060 SCT200 SCT250 BKN300 21/07 A3020 RMK AO2 SLP226 T02110067 10211 20100 58019=
202004171652 METAR KATL 171652Z 18012G18KT 10SM FEW050 SCT200 SCT250 BKN300 20/06 A3023 RMK AO2 SLP235 T02000061=
202004171552 METAR KATL 171552Z 16012G15KT 10SM FEW045 SCT200 BKN250 19/07 A3025 RMK AO2 SLP243 T01890072=
202004171452 METAR KATL 171452Z 18013G19KT 10SM SCT200 BKN250 18/07 A3026 RMK AO2 SLP245 T01780072 51004=
202004171352 METAR KATL 171352Z 18008KT 10SM SCT200 BKN250 15/07 A3026 RMK AO2 SLP245 T01500072=
202004171252 METAR KATL 171252Z 19008KT 10SM SCT250 SCT300 12/06 A3026 RMK AO2 SLP248 T01220061=
202004171152 METAR KATL 171152Z 18004KT 10SM SCT250 10/04 A3025 RMK AO2 SLP243 T01000039 10111 20083 53008=
202004171052 METAR KATL 171052Z 00000KT 10SM FEW250 09/02 A3024 RMK AO2 SLP237 T00890022=
202004170952 METAR KATL 170952Z 00000KT 10SM CLR 09/02 A3023 RMK AO2 SLP235 T00940022=
202004170852 METAR KATL 170852Z 00000KT 10SM CLR 09/03 A3023 RMK AO2 SLP234 T00940033 56012=
202004170752 METAR KATL 170752Z 00000KT 10SM CLR 09/03 A3023 RMK AO2 SLP236 T00940033=
202004170652 METAR KATL 170652Z 00000KT 10SM CLR 10/03 A3025 RMK AO2 SLP242 T01000033=
202004170552 METAR KATL 170552Z 00000KT 10SM CLR 10/03 A3026 RMK AO2 SLP246 T01000033 10178 20100 50002=
202004170452 METAR KATL 170452Z 00000KT 10SM CLR 11/04 A3027 RMK AO2 SLP248 T01110039 402060056=
202004170352 METAR KATL 170352Z 00000KT 10SM CLR 12/02 A3026 RMK AO2 SLP245 T01220022=
202004170252 METAR KATL 170252Z 30003KT 10SM CLR 14/02 A3026 RMK AO2 SLP244 T01390017 51016=
202004170152 METAR KATL 170152Z 28004KT 10SM CLR 15/00 A3025 RMK AO2 SLP240 T01500000=
202004170052 METAR KATL 170052Z 27003KT 10SM CLR 16/01 A3022 RMK AO2 SLP233 T01560006=
202004162352 METAR KATL 162352Z 28005KT 10SM CLR 18/M01 A3021 RMK AO2 SLP228 T01781006 10206 20178 56003=
202004162252 METAR KATL 162252Z VRB04KT 10SM CLR 19/M01 A3021 RMK AO2 SLP230 T01941006=
202004162152 METAR KATL 162152Z 08003KT 10SM CLR 20/M02 A3021 RMK AO2 SLP230 T02001022=
202004162052 METAR KATL 162052Z 35006KT 10SM CLR 21/M01 A3021 RMK AO2 SLP230 T02061011 56020=
202004161952 METAR KATL 161952Z 33007KT 10SM CLR 19/M01 A3023 RMK AO2 SLP236 T01941011=
202004161852 METAR KATL 161852Z 35006KT 10SM CLR 19/00 A3025 RMK AO2 SLP243 T01890000=
202004161752 METAR KATL 161752Z 31009G17KT 10SM CLR 18/00 A3027 RMK AO2 SLP251 T01830000 10183 20083 58006=
202004161652 METAR KATL 161652Z 01008KT 10SM CLR 18/M01 A3029 RMK AO2 SLP258 T01781006=
202004161552 METAR KATL 161552Z 02008KT 10SM CLR 17/M01 A3030 RMK AO2 SLP260 T01671011=
202004161452 METAR KATL 161452Z 01009KT 10SM CLR 16/M03 A3029 RMK AO2 SLP257 T01561028 51013=
202004161352 METAR KATL 161352Z 02007KT 10SM CLR 14/M04 A3028 RMK AO2 SLP255 T01441039=
202004161252 METAR KATL 161252Z 36007KT 10SM CLR 12/M04 A3028 RMK AO2 SLP253 T01221039=
202004161152 METAR KATL 161152Z 35005KT 10SM FEW250 08/M03 A3025 RMK AO2 SLP246 T00831033 10094 20056 53025=
202004161052 METAR KATL 161052Z 35007KT 10SM FEW250 06/M03 A3021 RMK AO2 SLP233 T00611033=
202004160952 METAR KATL 160952Z 33007KT 10SM CLR 06/M03 A3019 RMK AO2 SLP225 T00561028=
202004160852 METAR KATL 160852Z 33008KT 10SM CLR 06/M03 A3018 RMK AO2 SLP220 T00561028 53004=
202004160752 METAR KATL 160752Z 33008KT 10SM CLR 07/M03 A3017 RMK AO2 SLP216 T00721033=
202004160652 METAR KATL 160652Z 34006KT 10SM FEW250 07/M04 A3016 RMK AO2 SLP215 T00721039=
202004160552 METAR KATL 160552Z 36006KT 10SM FEW250 09/M05 A3017 RMK AO2 SLP215 T00941050 10139 20089 51011=
202004160452 METAR KATL 160452Z 34007KT 10SM SCT250 09/M04 A3016 RMK AO2 SLP215 T00891044 401670050=
202004160352 METAR KATL 160352Z 34007KT 10SM SCT250 11/M06 A3014 RMK AO2 SLP207 T01061056=
202004160252 METAR KATL 160252Z 34008KT 10SM BKN250 11/M06 A3013 RMK AO2 SLP204 T01111061 51026=
202004160152 METAR KATL 160152Z 33010KT 10SM SCT250 11/M06 A3011 RMK AO2 SLP197 T01111056=
202004160052 METAR KATL 160052Z 32010KT 10SM FEW250 12/M06 A3008 RMK AO2 SLP188 T01221061=
202004152352 METAR KATL 152352Z 34013KT 10SM FEW250 14/M06 A3005 RMK AO2 SLP178 T01391061 10167 20139 53015=
202004152252 METAR KATL 152252Z 32011G17KT 10SM FEW250 16/M06 A3004 RMK AO2 SLP172 T01561061=
202004152152 METAR KATL 152152Z 31011KT 10SM FEW250 16/M06 A3002 RMK AO2 SLP165 T01611056=
202004152052 METAR KATL 152052Z 31011KT 10SM FEW200 FEW250 16/M04 A3001 RMK AO2 SLP162 T01611044 58008=
202004151952 METAR KATL 151952Z 32015G19KT 10SM FEW200 SCT250 16/M04 A3002 RMK AO2 SLP164 T01611044=
202004151852 METAR KATL 151852Z 30011KT 10SM FEW070 FEW200 SCT250 16/M04 A3003 RMK AO2 SLP168 T01561039=
202004151752 METAR KATL 151752Z 32009G17KT 10SM FEW060 SCT200 SCT250 15/M02 A3003 RMK AO2 SLP170 T01501022 10156 20050 58004=
202004151652 METAR KATL 151652Z 35012G19KT 10SM SCT200 SCT250 14/M03 A3005 RMK AO2 SLP175 T01391033=
202004151552 METAR KATL 151552Z 33012KT 10SM SCT200 BKN250 13/M01 A3005 RMK AO2 SLP177 T01281011=
202004151452 METAR KATL 151452Z 34011KT 10SM SCT200 SCT250 11/M02 A3005 RMK AO2 SLP174 T01111022 51007=
202004151352 METAR KATL 151352Z 36014G18KT 10SM FEW200 SCT250 09/M03 A3004 RMK AO2 SLP172 T00891028=
202004151252 METAR KATL 151252Z 33011KT 10SM FEW180 SCT250 07/M02 A3003 RMK AO2 SLP171 T00671022=
202004151152 METAR KATL 151152Z 33009KT 10SM FEW120 SCT200 SCT250 05/M03 A3002 RMK AO2 SLP167 T00501028 10089 20050 53017=
202004151052 METAR KATL 151052Z 32013KT 10SM SCT120 BKN200 05/M02 A3000 RMK AO2 SLP159 T00501017=
202004150952 METAR KATL 150952Z 32013G21KT 10SM SCT120 SCT180 06/M01 A2998 RMK AO2 SLP149 T00561011=
202004150852 METAR KATL 150852Z 32011KT 10SM SCT120 BKN180 07/M01 A2997 RMK AO2 SLP147 T00721006 55011=
202004150752 METAR KATL 150752Z 32015KT 10SM BKN100 BKN180 08/M01 A2997 RMK AO2 SLP147 T00831006=
202004150652 METAR KATL 150652Z 33011G17KT 10SM BKN110 08/M01 A2999 RMK AO2 SLP153 T00831006=
202004150552 METAR KATL 150552Z 33011KT 10SM BKN130 09/01 A3001 RMK AO2 SLP158 T00890006 10172 20089 52002=
202004150452 METAR KATL 150452Z 32012KT 10SM BKN140 10/01 A3000 RMK AO2 SLP159 T01000006 402220083=
202004150352 METAR KATL 150352Z 33012KT 10SM SCT130 11/02 A3000 RMK AO2 SLP157 T01110017=
202004150252 METAR KATL 150252Z 33013KT 10SM FEW120 13/03 A3000 RMK AO2 SLP157 T01330033 53009=
202004150152 METAR KATL 150152Z 33008KT 10SM FEW250 14/04 A2999 RMK AO2 SLP153 T01440044=
202004150052 METAR KATL 150052Z 33008KT 10SM FEW250 16/04 A2998 RMK AO2 SLP150 T01560044=
202004142352 METAR KATL 142352Z 35012KT 10SM FEW250 17/05 A2997 RMK AO2 SLP149 T01720050 10222 20172 56006=
202004142252 METAR KATL 142252Z 33011KT 10SM FEW050 FEW250 19/07 A2998 RMK AO2 SLP150 T01940067=
202004142152 METAR KATL 142152Z 29009KT 10SM FEW050 21/08 A2998 RMK AO2 SLP149 T02060078=
202004142052 METAR KATL 142052Z 29010G17KT 10SM FEW048 22/08 A2999 RMK AO2 SLP153 T02170083 56018=
202004141952 METAR KATL 141952Z 30010KT 10SM FEW042 22/09 A3000 RMK AO2 SLP155 T02170089=
202004141852 METAR KATL 141852Z 28010KT 10SM FEW038 FEW250 21/10 A3002 RMK AO2 SLP163 T02110100=
202004141752 METAR KATL 141752Z 28008KT 10SM FEW036 20/09 A3004 RMK AO2 SLP170 T02000094 10200 20083 58006=
202004141652 METAR KATL 141652Z 28005KT 10SM FEW032 FEW050 18/08 A3006 RMK AO2 SLP179 T01780078=
202004141552 METAR KATL 141552Z 25004KT 10SM FEW050 16/07 A3006 RMK AO2 SLP178 T01610072=
202004141452 METAR KATL 141452Z 31007KT 10SM CLR 14/06 A3006 RMK AO2 SLP177 T01390061 51001=
202004141352 METAR KATL 141352Z 30006KT 10SM CLR 12/06 A3005 RMK AO2 SLP174 T01170056=
202004141252 METAR KATL 141252Z 30005KT 10SM CLR 10/05 A3007 RMK AO2 SLP181 T01000050=
202004141152 METAR KATL 141152Z 32008KT 10SM CLR 08/05 A3006 RMK AO2 SLP177 T00830050 10117 20083 51002=
202004141052 METAR KATL 141052Z 32008KT 10SM CLR 08/05 A3005 RMK AO2 SLP173 T00830050=
202004140952 METAR KATL 140952Z 31007KT 10SM CLR 09/06 A3006 RMK AO2 SLP177 T00890056=
202004140852 METAR KATL 140852Z 33007KT 10SM CLR 09/06 A3005 RMK AO2 SLP172 T00940056 56004=
202004140752 METAR KATL 140752Z 32006KT 10SM CLR 10/07 A3005 RMK AO2 SLP173 T01000067=
202004140652 METAR KATL 140652Z 33008KT 10SM CLR 11/07 A3005 RMK AO2 SLP172 T01110072=
202004140552 METAR KATL 140552Z 33007KT 10SM FEW025 12/08 A3006 RMK AO2 SLP175 T01170083 10194 20117 58002=
202004140452 METAR KATL 140452Z 33007KT 10SM FEW025 13/09 A3006 RMK AO2 SLP176 T01280089 402330128=
202004140352 METAR KATL 140352Z 32010KT 10SM FEW030 14/09 A3007 RMK AO2 SLP179 T01390094=
202004140252 METAR KATL 140252Z 33013KT 10SM FEW040 15/09 A3007 RMK AO2 SLP177 T01500094 53021=
202004140152 METAR KATL 140152Z 32011KT 10SM FEW040 17/11 A3004 RMK AO2 SLP170 T01670106=
202004140052 METAR KATL 140052Z 31008KT 10SM FEW040 FEW250 18/11 A3002 RMK AO2 SLP162 T01780111=
202004132352 METAR KATL 132352Z 29008KT 10SM SCT040 SCT250 19/11 A3000 RMK AO2 SLP156 T01940111 10233 20194 53012=
202004132252 METAR KATL 132252Z 29011KT 10SM SCT045 SCT250 21/11 A2998 RMK AO2 SLP148 T02110106=
202004132152 METAR KATL 132152Z 30013G18KT 10SM SCT045 SCT200 22/11 A2997 RMK AO2 SLP143 T02220111=
202004132052 METAR KATL 132052Z 25010KT 10SM SCT044 BKN055 BKN200 22/12 A2997 RMK AO2 SLP141 T02220117 51009=
202004131952 METAR KATL 131952Z 27014G19KT 10SM BKN048 BKN200 23/12 A2996 RMK AO2 SLP138 T02280117=
202004131852 METAR KATL 131852Z 28012G16KT 10SM SCT043 22/12 A2995 RMK AO2 SLP134 T02220122=
202004131752 METAR KATL 131752Z 30014G19KT 10SM SCT038 23/13 A2994 RMK AO2 SLP130 T02280128 10228 20156 51012=
202004131652 METAR KATL 131652Z 29010G18KT 10SM SCT036 21/12 A2994 RMK AO2 SLP131 T02110122=
202004131552 METAR KATL 131552Z 28011G19KT 10SM SCT032 21/12 A2994 RMK AO2 SLP131 T02060122=
202004131452 METAR KATL 131452Z 29014G21KT 10SM SCT030 19/12 A2990 RMK AO2 SLP119 T01940117 51037=
202004131352 METAR KATL 131352Z 28013G21KT 10SM FEW030 18/11 A2986 RMK AO2 SLP106 T01780111=
202004131252 METAR KATL 131252Z 28015G23KT 10SM FEW030 17/11 A2984 RMK AO2 SLP097 T01670111=
202004131152 METAR KATL 131152Z 28013KT 10SM FEW030 FEW080 16/10 A2979 RMK AO2 SLP083 60054 70090 T01560100 10217 20156 53033=
202004131052 METAR KATL 131052Z 24011KT 10SM FEW030 FEW080 FEW250 17/10 A2974 RMK AO2 PK WND 25031/1031 SLP065 T01670100=
202004130952 METAR KATL 130952Z 24010KT 10SM FEW130 FEW250 18/14 A2970 RMK AO2 SLP049 T01830144=
202004130852 METAR KATL 130852Z 24007KT 10SM FEW013 FEW021 SCT075 SCT130 SCT250 19/17 A2969 RMK AO2 PK WND 27034/0822 RAB10E37 SLP047 CB DSNT NE-E P0002 60054 T01890167 53017=
202004130833 SPECI KATL 130833Z 27008G20KT 10SM -RA FEW008 SCT014CB OVC075 19/17 A2968 RMK AO2 PK WND 27034/0822 RAB10 CB VC NE-SE-S MOV NE P0002 T01940172=
202004130828 SPECI KATL 130828Z 27013G34KT 8SM -RA SCT008 BKN014CB OVC043 19/17 A2969 RMK AO2 PK WND 27034/0822 RAB10 CB N-OHD-S-SW MOV NE P0002 T01940172=
202004130817 SPECI KATL 130817Z 24012G21KT 6SM -RA BR BKN008 BKN014CB BKN045 OVC130 19/18 A2966 RMK AO2 RAB10 PRESRR CIG 006V010 CB NW AND DSNT SW MOV NE P0000 T01940178=
202004130809 SPECI KATL 130809Z 24008KT 8SM BKN012 BKN035CB OVC130 19/18 A2965 RMK AO2 CB VC SW-NW MOV NE T01940178=
202004130752 METAR KATL 130752Z 23006KT 10SM FEW009 SCT022 BKN130 OVC250 19/17 A2962 RMK AO2 RAE07 TSE07 SLP026 TS MOV E CB DSNT NE-SE AND SW-NW P0000 T01890172=
202004130707 SPECI KATL 130707Z 23013KT 10SM FEW009 SCT038 BKN120 OVC200 19/16 A2965 RMK AO2 LTG DSNT N-SE RAE07 TSE07 TS MOV E CB DSNT N-E-S P0000 T01890161=
202004130652 METAR KATL 130652Z 23012G30KT 6SM -TSRA FEW009 BKN030CB OVC080 19/16 A2962 RMK AO2 PK WND 18043/0616 LTG DSNT ALQDS SLP025 OCNL LTGICCACG N-E-SE TS N-E-SE MOV NE P0052 T01940161=
202004130647 SPECI KATL 130647Z 22017G36KT 1 1/2SM R09R/2000VP6000FT +TSRA BR FEW008 BKN022CB OVC040 20/17 A2962 RMK AO2 PK WND 18043/0616 LTG DSNT ALQDS FRQ LTGICCACG OHD-N-E-SE TS OHD-N-E-SE MOV NE P0048=
202004130641 SPECI KATL 130641Z 22025G36KT 1/2SM R09R/2000VP6000FT +TSRA BR SCT009 BKN035CB OVC070 21/19 A2964 RMK AO2 PK WND 18043/0616 LTG DSNT ALQDS PRESRR FRQ LTGICCACG OHD-SW-W TS OHD-SW-W MOV NE P0023 T02110194=
202004130639 SPECI KATL 130639Z 20020G36KT 1SM R09R/2000VP6000FT +TSRA BR SCT009 BKN044CB OVC070 21/19 A2964 RMK AO2 PK WND 18043/0616 LTG DSNT ALQDS PRESRR FRQ LTGICCACG OHD-SW-W TS OHD-SW-W MOV NE P0019 T02110194=
202004130619 SPECI KATL 130619Z 18025G43KT 3SM -TSRA BR FEW009 BKN044CB OVC070 22/19 A2959 RMK AO2 PK WND 18043/0616 OCNL LTGICCA ALQDS TS ALQDS MOV NE P0011 T02170189=
202004130602 SPECI KATL 130602Z 17016G29KT 2SM TSRA BR FEW009 SCT023CB OVC040 22/19 A2962 RMK AO2 PK WND 18029/0553 PRESFR OCNL LTGICCA ALQDS TS ALQDS MOV NE P0005 T02170194=
202004130552 METAR KATL 130552Z 18015G23KT 3SM -TSRA BR FEW009 SCT024CB OVC040 22/19 A2964 RMK AO2 LTG DSNT ALQDS SLP031 TSB16 OCNL LTGICCA S-W TS S-W MOV NE CB ALQDS MOV NE P0018 60025 T02170194 10239 20217 58015=
202004130516 SPECI KATL 130516Z 18007KT 2 1/2SM TS BR FEW025CB BKN034 OVC042 22/19 A2967 RMK AO2 LTG DSNT ALQDS RAE16 TSB16 OCNL LTGICCA N TS N MOV NE CB ALQDS MOV NE P0004 T02170194=
202004130452 METAR KATL 130452Z 19009G17KT 6SM -RA BR SCT028 BKN035 OVC044 22/19 A2968 RMK AO2 PK WND 19026/0357 SLP043 TS DSIPT P0007 T02220194 402390100=
202004130436 SPECI KATL 130436Z 18012G17KT 6SM -RA BR SCT028 BKN035 OVC044 23/19 A2967 RMK AO2 PK WND 19026/0357 RAB0357 TSB00E35 TS DSIPT P0004 T02280189=
202004130401 SPECI KATL 130401Z 19011G26KT 7SM -TSRA BKN028CB BKN035 24/18 A2967 RMK AO2 PK WND 19026/0357 LTG DSNT W RAB0357 TSB00 OCNL LTGIC S-W TS S-W MOV NE P0000 T02390183=
202004130352 METAR KATL 130352Z 19014G27KT 10SM BKN028 BKN033 24/18 A2967 RMK AO2 PK WND 17034/0303 RAB42E51 TSB03E18 SLP041 P0000 T02390183=
202004130320 SPECI KATL 130320Z 18019G27KT 10SM BKN025 BKN030 24/18 A2967 RMK AO2 PK WND 17034/0303 TSB03E18 TS DSIPT T02390183=
202004130305 SPECI KATL 130305Z 18018G34KT 8SM TS BKN025CB BKN030 24/18 A2968 RMK AO2 PK WND 17034/0303 TSB03 OCNL LTGICCG SW-W TS SW-W MOV NE T02390183=
202004130252 METAR KATL 130252Z 17018G30KT 8SM BKN026 BKN032 24/19 A2969 RMK AO2 PK WND 17030/0218 SLP045 T02390189 58011=
202004130152 METAR KATL 130152Z 17016G24KT 8SM BKN026 BKN048 23/19 A2969 RMK AO2 PK WND 18027/0142 SLP049 T02330189=
202004130052 METAR KATL 130052Z 17015G27KT 7SM SCT015 BKN020 BKN030 23/19 A2971 RMK AO2 PK WND 17027/0038 SLP057 T02280194=
202004130041 SPECI KATL 130041Z 16016G27KT 7SM SCT015 BKN020 OVC030 23/19 A2972 RMK AO2 PK WND 17027/0038 T02280194=
202004122352 METAR KATL 122352Z 16016G26KT 6SM BR BKN012 OVC020 22/19 A2972 RMK AO2 PK WND 15026/2351 SLP059 60006 T02170194 10217 20161 56033=
202004122346 SPECI KATL 122346Z 16012G22KT 3SM BR BKN012 OVC020 22/19 A2972 RMK AO2 SFC VIS 6=
202004122259 SPECI KATL 122259Z 15013G20KT 3SM BKN009 OVC017 21/19 A2974 RMK AO2 SFC VIS 7 T02110189=
202004122252 METAR KATL 122252Z 16012KT 2SM BKN009 OVC017 21/19 A2974 RMK AO2 PK WND 14028/2203 SFC VIS 7 SLP067 P0001 T02110189=
202004122152 METAR KATL 122152Z 15013G17KT 2SM BR BKN007 OVC012 21/18 A2979 RMK AO2 SFC VIS 4 SLP083 RAE31 P0000 T02060183=
202004122129 SPECI KATL 122129Z 15009G19KT 2SM -RA BR OVC007 20/18 A2978 RMK AO2 SFC VIS 3 PRESFR CIC 005V009 P0000 T02000183=
202004122052 METAR KATL 122052Z 13010G16KT 1/2SM R09R/P6000FT -RA BR OVC003 19/18 A2982 RMK AO2 SFC VIS 1 1/4 RAB09 SLP094 TWRINC P0001 60005 T01940178 58029=
202004122019 SPECI KATL 122019Z 13010G17KT 1/2SM R09R/P6000FT -RA BR OVC002 18/17 A2982 RMK AO2 SFC VIS 3/4 RAB09 PRESFR P0000 T01830172=
202004122002 SPECI KATL 122002Z 13009KT 1/2SM R09R/P6000FT BR OVC001 18/17 A2986 RMK AO2 SFC VIS 3/4 T01830167=
202004121952 METAR KATL 121952Z 12009G15KT 1/2SM R09R/4500VP6000FT BR OVC002 18/17 A2986 RMK AO2 SFC VIS 3/4 RAB1853E49 SLP110 P0000 T01780167=
202004121852 METAR KATL 121852Z 14007KT 1/2SM R09R/P6000FT BR OVC003 17/16 A2994 RMK AO2 SFC VIS 1 1/4 LTG DSNT N-E DZE09RAB09E52 TSB07E33 SLP135 CB DSNT N-E TS DSPTD TWRINC P0004 T01720161=
202004121834 SPECI KATL 121834Z 13007KT 1/2SM R09R/P6000FT -RA BR OVC002 17/16 A2993 RMK AO2 SFC VIS 1 1/4 LTG DSNT N AND SE AND NW DZE09RAB09 TSB07E33 CB DSNT N AND SE AND NW TS DSPTD P0003 T01670156=
202004121807 SPECI KATL 121807Z 15009KT 1/2SM R09R/4500V5500FT -TSDZ BR OVC002 17/15 A2992 RMK AO2 SFC VIS 3/4 LTG DSNT S-W TSB07 CB DSNT S-W P0000 T01670150=
202004121752 METAR KATL 121752Z 14008KT 1/2SM R09R/4000V5500FT -DZ BR OVC002 16/15 A2991 RMK AO2 SFC VIS 3/4 DZB22 SLP124 P0000 60005 T01610150 10161 20111 58028=
202004121652 METAR KATL 121652Z 12009G16KT 1/2SM R09R/6000VP6000FT BR OVC002 16/14 A2995 RMK AO2 SFC VIS 1 1/2 RAB1558E28 TSE04 SLP139 P0003 T01560144=
202004121612 SPECI KATL 121612Z 12008KT 1/2SM R09R/P6000FT -RA BR OVC004 15/13 A2997 RMK AO2 SFC VIS 2 LTG DSNT NE RAB1558 TSE04 CB DSNT NE P0001 T01500133=
202004121605 SPECI KATL 121605Z 13007G16KT 2 1/2SM -RA BR OVC004 15/13 A2999 RMK AO2 RAB1558 TSE04 P0001 T01500133=
202004121552 METAR KATL 121552Z 12009KT 4SM BR BKN006 OVC017 15/13 A2999 RMK AO2 SLP152 T01500128=
202004121452 METAR KATL 121452Z 10009KT 5SM BR BKN007 BKN044 OVC060 15/13 A2999 RMK AO2 LTG DSNT E RAE10 SLP154 CB DSNT E P0001 60002 T01500128 58011=
202004121352 METAR KATL 121352Z 12010KT 4SM -RA SCT008 BKN050 OVC065 14/10 A3000 RMK AO2 LTG DSNT SW RAB16E26B47 SLP158 CB DSNT SW P0001 T01390100=
202004121337 SPECI KATL 121337Z 14004KT 7SM SCT008 SCT050 BKN070 BKN130 14/09 A3003 RMK AO2 RAB16E26 PRESRR P0000 T01440089=
202004121252 METAR KATL 121252Z 08006KT 10SM FEW060 SCT120 SCT180 BKN220 BKN250 13/05 A3003 RMK AO2 SLP168 T01280050=
202004121152 METAR KATL 121152Z 07008KT 10SM FEW060 SCT120 BKN180 BKN220 BKN250 12/04 A3003 RMK AO2 SLP164 VIRGA OHD-W T01220039 10139 20100 51017=
202004121052 METAR KATL 121052Z 04004KT 10SM SCT060 BKN180 BKN220 BKN250 11/03 A3002 RMK AO2 PRESRR SLP163 T01110033=
202004120952 METAR KATL 120952Z 06006KT 10SM FEW180 BKN220 BKN250 11/03 A3000 RMK AO2 SLP155 T01110033=
202004120852 METAR KATL 120852Z 10006KT 10SM SCT180 SCT220 BKN250 11/03 A2998 RMK AO2 SLP147 T01110033 56009=
202004120752 METAR KATL 120752Z 09006KT 10SM FEW250 11/03 A2998 RMK AO2 SLP147 T01110033=
202004120652 METAR KATL 120652Z 11004KT 10SM FEW250 13/03 A2999 RMK AO2 SLP151 T01280028=
202004120552 METAR KATL 120552Z 00000KT 10SM FEW250 13/02 A3000 RMK AO2 SLP157 T01330022 10194 20133 58004=
202004120452 METAR KATL 120452Z 00000KT 10SM FEW250 14/02 A3001 RMK AO2 SLP160 T01390017 402170044=
202004120352 METAR KATL 120352Z 18006KT 10SM FEW250 15/01 A3003 RMK AO2 SLP166 T01500011=
202004120252 METAR KATL 120252Z 16005KT 10SM FEW250 16/00 A3002 RMK AO2 SLP162 T01610000 53003=
202004120152 METAR KATL 120152Z 17006KT 10SM FEW200 FEW250 17/02 A3001 RMK AO2 SLP161 T01670017=
202004120052 METAR KATL 120052Z 15005KT 10SM FEW200 SCT250 18/01 A3000 RMK AO2 SLP158 T01780011=
202004112352 METAR KATL 112352Z 17007KT 10SM FEW200 SCT250 19/01 A3001 RMK AO2 SLP160 T01940006 10217 20183 57002=
202004112252 METAR KATL 112252Z 18008KT 10SM FEW200 SCT250 21/M01 A3001 RMK AO2 SLP162 T02111006=
202004112152 METAR KATL 112152Z VRB04KT 10SM FEW250 22/M01 A3001 RMK AO2 SLP159 T02171006=
202004112052 METAR KATL 112052Z 19007KT 140V210 10SM FEW250 22/M01 A3001 RMK AO2 SLP162 T02171006 57020=
202004111952 METAR KATL 111952Z 11007KT 10SM SCT250 21/M01 A3003 RMK AO2 SLP168 T02111006=
202004111852 METAR KATL 111852Z 13007KT 10SM SCT250 21/M01 A3006 RMK AO2 SLP177 T02061006=
202004111752 METAR KATL 111752Z 07004KT 10SM SCT250 18/M02 A3008 RMK AO2 SLP184 T01831017 10194 20067 58014=
202004111652 METAR KATL 111652Z VRB06KT 10SM SCT250 17/M01 A3010 RMK AO2 SLP193 T01721011=
202004111552 METAR KATL 111552Z 11004KT 10SM SCT250 16/M02 A3013 RMK AO2 SLP202 T01611017=
202004111452 METAR KATL 111452Z 11008KT 10SM SCT250 14/M02 A3012 RMK AO2 SLP197 T01441017 51007=
202004111352 METAR KATL 111352Z 10010KT 10SM SCT250 12/M02 A3011 RMK AO2 SLP196 T01221017=
202004111252 METAR KATL 111252Z 07004KT 10SM FEW250 10/M02 A3011 RMK AO2 SLP197 T01001017=
202004111152 METAR KATL 111152Z 01003KT 10SM FEW250 07/M02 A3009 RMK AO2 SLP191 T00671017 10078 20044 53011=
202004111052 METAR KATL 111052Z 32004KT 10SM FEW250 05/M01 A3007 RMK AO2 SLP182 T00501011=
202004110952 METAR KATL 110952Z 33006KT 10SM SCT250 06/M02 A3005 RMK AO2 SLP177 T00561017=
202004110852 METAR KATL 110852Z 32006KT 10SM FEW250 06/M02 A3006 RMK AO2 SLP180 T00561017 53006=
202004110752 METAR KATL 110752Z 31006KT 10SM CLR 06/M02 A3004 RMK AO2 SLP173 T00611017=
202004110652 METAR KATL 110652Z 33007KT 10SM CLR 07/M01 A3003 RMK AO2 SLP170 T00671006=
202004110552 METAR KATL 110552Z 31007KT 10SM CLR 07/M01 A3004 RMK AO2 SLP174 T00721006 10139 20072 53009=
202004110452 METAR KATL 110452Z 31007KT 10SM FEW250 08/M01 A3003 RMK AO2 SLP170 T00781011 401670072=
202004110352 METAR KATL 110352Z 32007KT 10SM FEW250 09/M02 A3002 RMK AO2 SLP166 T00891022=
202004110252 METAR KATL 110252Z 35008KT 10SM FEW250 12/M04 A3001 RMK AO2 SLP164 T01171044 51011=
202004110152 METAR KATL 110152Z 36007KT 10SM FEW250 12/M04 A3001 RMK AO2 SLP162 T01221039=
202004110052 METAR KATL 110052Z 36008KT 10SM FEW250 13/M04 A2999 RMK AO2 SLP154 T01281044=
202004102352 METAR KATL 102352Z 34008KT 10SM SCT250 14/M04 A2998 RMK AO2 SLP150 T01441044 10167 20144 51002=
202004102252 METAR KATL 102252Z 33013G20KT 10SM SCT250 16/M06 A2998 RMK AO2 SLP149 T01561056=
202004102152 METAR KATL 102152Z 31013KT 10SM FEW250 16/M06 A2998 RMK AO2 WSHFT 2122 SLP148 T01611061=
202004102142 SPECI KATL 102142Z 30015G21KT 10SM FEW250 16/M06 A2997 RMK AO2 WSHFT 2122 T01611061=
202004102052 METAR KATL 102052Z 34011G24KT 10SM SCT200 SCT250 16/M08 A2997 RMK AO2 SLP147 T01611078 55007=
202004101952 METAR KATL 101952Z 35015G23KT 10SM FEW200 SCT250 16/M07 A2997 RMK AO2 SLP146 T01611067=
202004101852 METAR KATL 101852Z 33016G21KT 10SM FEW200 SCT250 16/M06 A2998 RMK AO2 SLP148 T01561061=
202004101752 METAR KATL 101752Z 32017G25KT 10SM FEW200 SCT250 15/M06 A3000 RMK AO2 SLP154 T01501056 10150 20106 52002=
202004101652 METAR KATL 101652Z 34012G20KT 10SM FEW200 SCT250 14/M04 A3000 RMK AO2 SLP156 T01391044=
202004101552 METAR KATL 101552Z 34014G21KT 10SM FEW200 SCT250 13/M06 A2999 RMK AO2 PK WND 35029/1510 SLP152 T01331056=
202004101452 METAR KATL 101452Z 31015G21KT 10SM SCT250 12/M04 A2999 RMK AO2 PK WND 32028/1422 SLP153 T01171039 51023=
202004101352 METAR KATL 101352Z 34019G25KT 10SM SCT200 BKN250 11/M03 A2998 RMK AO2 PK WND 33029/1311 SLP148 T01061033=
202004101252 METAR KATL 101252Z 32016G23KT 10SM FEW190 BKN220 BKN250 11/M04 A2996 RMK AO2 PK WND 32029/1200 SLP141 T01111039=
202004101152 METAR KATL 101152Z 32016G31KT 10SM SCT210 BKN250 BKN300 12/M05 A2992 RMK AO2 PK WND 32031/1148 SLP129 T01171050 10167 20117 51042=
202004101052 METAR KATL 101052Z 33020G27KT 10SM SCT080 BKN210 BKN250 13/M02 A2988 RMK AO2 PK WND 33029/1018 SLP113 T01281017=
202004100952 METAR KATL 100952Z 29012KT 10SM SCT080 BKN170 BKN250 14/01 A2983 RMK AO2 SLP097 T01390006=
202004100852 METAR KATL 100852Z 31013KT 10SM SCT170 BKN200 OVC250 15/M01 A2979 RMK AO2 SLP082 T01501006 55007=
202004100752 METAR KATL 100752Z 32010KT 10SM FEW060 BKN170 OVC250 16/01 A2979 RMK AO2 SLP080 T01560011=
202004100652 METAR KATL 100652Z 32011KT 10SM SCT170 OVC250 16/02 A2981 RMK AO2 SLP086 T01610022=
202004100552 METAR KATL 100552Z 31014G20KT 10SM FEW055 BKN170 OVC250 17/02 A2981 RMK AO2 SLP089 T01670022 10217 20167 58004=
202004100452 METAR KATL 100452Z 30012KT 10SM BKN200 OVC250 17/03 A2983 RMK AO2 SLP095 T01720028 402560167=
202004100352 METAR KATL 100352Z 30010KT 10SM FEW200 BKN250 17/03 A2983 RMK AO2 SLP093 T01720033=
202004100252 METAR KATL 100252Z 30009KT 10SM SCT200 BKN250 18/04 A2983 RMK AO2 SLP093 T01780039 53019=
202004100152 METAR KATL 100152Z 31010KT 10SM FEW200 BKN250 19/05 A2981 RMK AO2 SLP088 T01890050=
202004100052 METAR KATL 100052Z 31009KT 10SM SCT200 BKN250 20/04 A2978 RMK AO2 SLP080 T02000039=
202004092352 METAR KATL 092352Z 31008KT 10SM BKN200 BKN250 22/02 A2977 RMK AO2 SLP073 T02170022 10256 20217 56001=
202004092252 METAR KATL 092252Z 30012KT 10SM BKN200 BKN250 23/06 A2977 RMK AO2 SLP073 T02330056=
202004092152 METAR KATL 092152Z 28013KT 10SM SCT200 BKN250 24/05 A2976 RMK AO2 SLP072 T02390050=
202004092052 METAR KATL 092052Z 30015G21KT 10SM FEW060 SCT200 SCT250 26/06 A2977 RMK AO2 SLP072 T02560061 56010=
202004091952 METAR KATL 091952Z 32015G21KT 10SM FEW048 FEW200 SCT250 25/11 A2978 RMK AO2 SLP075 T02500111=
202004091852 METAR KATL 091852Z 32013G20KT 10SM FEW042 SCT250 25/14 A2979 RMK AO2 SLP078 T02500144=
202004091752 METAR KATL 091752Z 32014KT 10SM FEW036 SCT250 24/14 A2980 RMK AO2 SLP082 T02440144 10244 20167 58003=
202004091652 METAR KATL 091652Z 30015G22KT 10SM SCT030 SCT250 23/14 A2982 RMK AO2 SLP089 T02280144=
202004091552 METAR KATL 091552Z 32011KT 10SM SCT024 SCT200 SCT250 22/15 A2981 RMK AO2 SLP088 T02220150=
202004091452 METAR KATL 091452Z 30013KT 10SM FEW014 SCT200 BKN250 21/15 A2981 RMK AO2 SLP086 T02060150 51022=
202004091352 METAR KATL 091352Z 29009KT 10SM FEW012 FEW110 BKN200 BKN250 18/14 A2979 RMK AO2 SLP080 ACC DSNT S SW T01830144=
202004091252 METAR KATL 091252Z 26010KT 10SM FEW120 SCT170 BKN210 BKN250 18/15 A2979 RMK AO2 SLP081 VIRGA OHD AND S T01780150=
202004091152 METAR KATL 091152Z 23004KT 10SM FEW007 SCT120 BKN160 BKN210 BKN250 17/15 A2974 RMK AO2 SLP065 60019 70020 T01670150 10200 20167 50000=
202004091052 METAR KATL 091052Z 22004KT 10SM FEW090 BKN110 BKN130 17/15 A2976 RMK AO2 SLP071 RAB14E37 TSE0957 P0001 T01670150=
202004091000 SPECI KATL 091000Z 33004KT 10SM FEW007 SCT019 BKN090 OVC250 17/14 A2977 RMK AO2 LTG DSNT SE AND SW TSE57 TS MOV SE CB DSNT SE AND SW T01670144=
202004090952 METAR KATL 090952Z 35004KT 10SM TS FEW007 BKN019CB BKN034 OVC250 17/15 A2976 RMK AO2 PK WND 34027/0925 SLP071 RAB10E21B25 TSB25 OCNL LTGIC E-SE AND DSNT SW TS E-SE AND DSNT SW MOV SE P0018 T01670150=
202004090944 SPECI KATL 090944Z 32005KT 6SM -TSRA BR SCT007 BKN017CB OVC035 17/15 A2977 RMK AO2 PK WND 34027/0925 RAB10E21B25 TSB25 OCNL LTGIC OHD-E-S AND SW TS OHD-E-S AND SW MOV SE VIS LWR S P0018 T01670150=
202004090939 SPECI KATL 090939Z 34005KT 3SM -TSRA BR SCT007 BKN021CB OVC030 17/15 A2976 RMK AO2 PK WND 34027/0925 RAB10E21B25 TSB25 OCNL LTGIC OHD-E AND SW TS OHD-E AND SW MOV SE VIS LWR SW P0018 T01720150=
202004090931 SPECI KATL 090931Z 34019G27KT 2 1/2SM R09R/5000VP6000FT -TSRA BR FEW009 BKN028CB OVC050 17/14 A2978 RMK AO2 PK WND 34027/0925 RAB10E21B25 TSB25 OCNL LTGIC OHD-N AND W TS OHD-N AND W MOV SE P0008 T01720144=
202004090929 SPECI KATL 090929Z 34019G27KT 4SM R09R/5000VP6000FT -TSRA BR FEW006 BKN026CB OVC038 18/14 A2978 RMK AO2 PK WND 34027/0925 RAB10E21B25 TSB25 OCNL LTGIC OHD-N AND W TS OHD-N AND W MOV SE P0002 T01780144=
202004090923 SPECI KATL 090923Z 33015G24KT 10SM VCTS FEW006 SCT017 BKN028CB BKN140 19/15 A2978 RMK AO2 RAB10E21 TSE17 PRESRR OCNL LTGIC VC N AND W-NW TS VC N AND W-NW MOV SE P0000 T01890150=
202004090917 SPECI KATL 090917Z 34012G25KT 10SM VCTS -RA FEW006 SCT022 BKN028 BKN140 BKN250 19/16 A2976 RMK AO2 RAB10 TSE17 OCNL LTGIC DSNT W-NW CB DSNT W-NW P0000 T01940156=
202004090852 METAR KATL 090852Z 27008KT 8SM FEW007 SCT120 BKN140 BKN250 20/18 A2974 RMK AO2 SLP061 OCNL LTGIC DSNT N AND W-NW CB DSNT N AND W-NW T02000178 55001=
202004090752 METAR KATL 090752Z 27008KT 8SM SCT007 SCT011 BKN110 BKN250 20/18 A2973 RMK AO2 SLP058 T02000178=
202004090652 METAR KATL 090652Z 28010KT 8SM OVC005 20/18 A2974 RMK AO2 SLP063 BINOVC T02000183=
202004090634 SPECI KATL 090634Z 26011KT 8SM OVC006 20/18 A2974 RMK AO2 BINOVC T02000183=
202004090552 METAR KATL 090552Z 26009KT 10SM SCT008 SCT250 20/18 A2975 RMK AO2 SLP064 T02000183 10239 20200 58012=
202004090529 SPECI KATL 090529Z 26008KT 10SM SCT008 SCT250 20/18 A2975 RMK AO2 T02000183=
202004090452 METAR KATL 090452Z 26008KT 10SM SCT010 SCT250 21/18 A2976 RMK AO2 SLP070 SCT010 V BKN T02060183 402720167=
202004090352 METAR KATL 090352Z 27008KT 10SM FEW010 SCT250 21/18 A2978 RMK AO2 SLP076 T02110183=
202004090252 METAR KATL 090252Z 25008KT 10SM SCT010 BKN250 22/19 A2978 RMK AO2 SLP077 SCT010 V BKN T02170189 56007=
202004090152 METAR KATL 090152Z 25009KT 10SM FEW010 SCT150 BKN250 22/19 A2979 RMK AO2 SLP080 T02170189=
202004090148 SPECI KATL 090148Z 24008KT 10SM FEW010 SCT150 BKN250 22/19 A2979 RMK AO2=
202004090133 SPECI KATL 090133Z 24009KT 10SM BKN011 BKN150 BKN250 22/19 A2979 RMK AO2 T02220189=
202004090052 METAR KATL 090052Z 22007KT 10SM FEW150 SCT250 22/18 A2978 RMK AO2 SLP078 T02220183=
202004082352 METAR KATL 082352Z 23005KT 10SM SCT150 BKN200 BKN250 24/18 A2980 RMK AO2 SLP084 T02390178 10272 20239 56002=
202004082252 METAR KATL 082252Z 25009KT 10SM FEW035 BKN180 BKN250 25/18 A2980 RMK AO2 SLP085 T02500178=
202004082152 METAR KATL 082152Z 25008KT 10SM FEW035 BKN200 OVC250 26/18 A2981 RMK AO2 SLP086 T02560178=
202004082052 METAR KATL 082052Z 27008KT 10SM SCT035 OVC250 26/18 A2981 RMK AO2 SLP085 MDT CU S-SW T02610178 58025=
202004081952 METAR KATL 081952Z 27008KT 10SM SCT031 BKN250 27/18 A2983 RMK AO2 SLP094 MDT CU SW T02670183=
202004081852 METAR KATL 081852Z 29009KT 10SM SCT030 BKN200 26/18 A2987 RMK AO2 SLP107 T02560183=
202004081752 METAR KATL 081752Z 31009KT 10SM SCT018 BKN043 BKN250 24/18 A2988 RMK AO2 RAB15E25 SLP113 P0000 60001 T02390183 10244 20183 58011=
202004081710 SPECI KATL 081710Z 32010KT 10SM FEW015 SCT020 BKN037 23/18 A2990 RMK AO2 T02330183=
202004081652 METAR KATL 081652Z 30009KT 10SM FEW016 SCT022 BKN029 24/19 A2991 RMK AO2 SLP121 T02390194=
202004081605 SPECI KATL 081605Z 28007KT 10SM FEW012 BKN027 OVC032 22/19 A2991 RMK AO2 T02220189=
202004081552 METAR KATL 081552Z 29006KT 10SM FEW012 SCT018 OVC032 23/19 A2992 RMK AO2 RAB20E44 SLP124 BINOVC P0001 T02280194=
202004081538 SPECI KATL 081538Z 29007KT 10SM -RA FEW013 BKN019 BKN027 22/19 A2992 RMK AO2 RAB20 P0000 T02220194=
202004081452 METAR KATL 081452Z 29009KT 8SM OVC011 22/18 A2992 RMK AO2 SLP125 T02170183 51009=
202004081436 SPECI KATL 081436Z 28007KT 8SM BKN011 OVC017 22/18 A2992 RMK AO2 T02170183=
202004081352 METAR KATL 081352Z 26008KT 7SM BKN008 BKN012 OVC022 21/18 A2991 RMK AO2 SLP124 T02060178=
202004081252 METAR KATL 081252Z 26009KT 3SM BR BKN005 OVC012 19/18 A2990 RMK AO2 SFC VIS 6 SLP120 CIG 004V007 BINOVC T01940178=
202004081250 SPECI KATL 081250Z 26010KT 3SM BR BKN004 OVC012 19/18 A2990 RMK AO2 SFC VIS 6 CIG 004V007 BINOVC=
202004081152 METAR KATL 081152Z 27008KT 1SM R09R/P6000FT BR OVC003 18/17 A2989 RMK AO2 SFC VIS 4 DZE06 SLP117 P0000 60000 T01830172 10183 20167 53006=
202004081052 METAR KATL 081052Z 25006KT 1SM R09R/P6000FT -DZ BR OVC003 18/17 A2987 RMK AO2 SFC VIS 5 SLP112 TWRINC P0000 T01780167=
202004080955 SPECI KATL 080955Z 26008KT 6SM -DZ BR OVC004 17/16 A2987 RMK AO2 P0000 T01720156=
202004080952 METAR KATL 080952Z 27007KT 6SM -DZ BR OVC005 17/16 A2987 RMK AO2 DZB49 SLP109 CIG 004V006 PCPN VRY LGT P0000 T01720156=
202004080852 METAR KATL 080852Z 27007KT 10SM BKN007 OVC015 18/15 A2987 RMK AO2 SLP109 T01780150 56023=
202004080835 SPECI KATL 080835Z 25006KT 10SM BKN008 OVC015 17/15 A2987 RMK AO2 T01720150=
202004080804 SPECI KATL 080804Z 28006KT 10SM SCT008 OVC015 17/14 A2988 RMK AO2 T01720144=
202004080752 METAR KATL 080752Z 26005KT 10SM BKN011 OVC022 17/14 A2989 RMK AO2 SLP114 T01720144=
202004080743 SPECI KATL 080743Z 26006KT 10SM BKN013 OVC022 17/14 A2989 RMK AO2 T01720144=
202004080700 SPECI KATL 080700Z 25004KT 10SM SCT012 BKN020 OVC150 17/14 A2991 RMK AO2 T01670144=
202004080652 METAR KATL 080652Z 26004KT 10SM BKN012 BKN025 OVC150 17/14 A2992 RMK AO2 SLP125 T01670144=
202004080620 SPECI KATL 080620Z 32005KT 10SM BKN016 BKN028 OVC150 17/14 A2994 RMK AO2 T01670139=
202004080552 METAR KATL 080552Z 34003KT 10SM FEW025 BKN150 BKN200 BKN250 17/14 A2994 RMK AO2 SLP132 T01670139 10178 20167 56015=
202004080452 METAR KATL 080452Z 28003KT 10SM BKN150 BKN200 BKN250 17/14 A2995 RMK AO2 SLP136 T01670139 402560167=
202004080352 METAR KATL 080352Z 24003KT 10SM SCT150 BKN200 BKN250 17/14 A2997 RMK AO2 SLP143 T01670139=
202004080252 METAR KATL 080252Z 26004KT 10SM FEW110 BKN150 BKN250 17/14 A2999 RMK AO2 SLP148 T01720139 58003=
202004080152 METAR KATL 080152Z 28004KT 10SM FEW070 SCT110 BKN200 BKN250 17/14 A3000 RMK AO2 SLP153 SHRA SW-W T01720144=
202004080052 METAR KATL 080052Z 27004KT 10SM FEW080 BKN150 BKN200 BKN250 17/14 A3001 RMK AO2 SLP158 T01720144=
202004072352 METAR KATL 072352Z 28005KT 10SM FEW080 SCT120 BKN150 BKN200 18/14 A3000 RMK AO2 SLP152 VIRGA SE-SW 60000 T01780144 10250 20178 55010=
202004072252 METAR KATL 072252Z 25003KT 10SM FEW050 SCT080 BKN110 OVC150 18/14 A2999 RMK AO2 RAE09 SLP151 P0000 T01780144=
202004072152 METAR KATL 072152Z 22011KT 10SM -RA BKN090 OVC150 19/15 A3002 RMK AO2 PRESFR SLP160 PCPN VRY LGT P0000 T01940150=
202004072052 METAR KATL 072052Z 23013G20KT 10SM -RA FEW038 BKN080 BKN120 OVC150 22/13 A3003 RMK AO2 RAB28 SLP162 PCPN VRY LGT P0000 60000 T02220133 56007=
202004071952 METAR KATL 071952Z 24011G17KT 10SM FEW036 SCT085 BKN110 OVC160 24/13 A3003 RMK AO2 SLP162 VIRGA OHD-ALQDS CB DSNT NE ACC OHD-SE-SW-W T02390133=
202004071852 METAR KATL 071852Z 23011KT 10SM FEW036 BKN130 OVC180 24/14 A3004 RMK AO2 SLP166 VIRGA OHD-ALQDS CB DSNT N NE ACC NE T02390144=
202004071752 METAR KATL 071752Z 24009KT 10SM FEW036TCU SCT120 BKN180 BKN250 25/16 A3005 RMK AO2 SLP167 VIRGA NW-N TCU NW-NE T02500161 10256 20189 58014=
202004071652 METAR KATL 071652Z 27009KT 10SM FEW036 SCT120 BKN180 BKN250 24/16 A3007 RMK AO2 SLP175 MDT CU DSNT NW-NE T02440156=
202004071552 METAR KATL 071552Z 24008KT 9SM FEW038 FEW085 BKN200 BKN250 24/16 A3010 RMK AO2 SLP183 ACC NE T02440156=
202004071452 METAR KATL 071452Z 28008KT 10SM SCT070 BKN120 BKN200 BKN250 23/15 A3009 RMK AO2 SLP182 ACC S-W-NW T02330150 50005=
202004071352 METAR KATL 071352Z 27009KT 10SM FEW065 SCT120 BKN200 BKN250 22/14 A3010 RMK AO2 SLP184 ACC DSNT SW-NW T02220144=
202004071252 METAR KATL 071252Z 24006KT 10SM FEW060 SCT120 BKN180 BKN250 19/13 A3010 RMK AO2 SLP184 T01940133=
202004071152 METAR KATL 071152Z 00000KT 10SM FEW060 SCT120 BKN180 BKN220 19/13 A3008 RMK AO2 SLP178 T01890128 10200 20178 53009=
202004071052 METAR KATL 071052Z 00000KT 10SM FEW050 BKN150 BKN200 BKN250 18/13 A3006 RMK AO2 SLP172 T01830128=
202004070952 METAR KATL 070952Z 00000KT 10SM FEW050 SCT150 BKN200 BKN250 18/13 A3006 RMK AO2 SLP171 T01830128=
202004070852 METAR KATL 070852Z 27004KT 10SM FEW050 BKN150 BKN200 BKN250 19/12 A3005 RMK AO2 SLP166 T01890122 56006=
202004070752 METAR KATL 070752Z 27005KT 10SM FEW050 SCT200 BKN250 19/12 A3005 RMK AO2 SLP168 T01890122=
202004070652 METAR KATL 070652Z 23003KT 10SM SCT200 BKN250 19/12 A3006 RMK AO2 SLP169 T01940122=
202004070552 METAR KATL 070552Z 25004KT 10SM FEW200 SCT250 20/12 A3007 RMK AO2 SLP173 T02000122 10239 20194 57002=
202004070452 METAR KATL 070452Z 25004KT 10SM SCT200 BKN250 20/13 A3007 RMK AO2 SLP174 T02000128 402830144=
202004070352 METAR KATL 070352Z 23006KT 10SM FEW070 SCT200 BKN250 21/12 A3007 RMK AO2 SLP175 T02060122=
202004070252 METAR KATL 070252Z 23005KT 10SM SCT070 BKN200 BKN250 21/12 A3008 RMK AO2 SLP176 T02110122 53009=
202004070152 METAR KATL 070152Z 23004KT 10SM FEW060 BKN200 BKN250 22/12 A3007 RMK AO2 SLP175 T02170117=
202004070052 METAR KATL 070052Z 22004KT 10SM FEW060 BKN200 OVC250 22/11 A3004 RMK AO2 SLP168 T02220111=
202004062352 METAR KATL 062352Z 25003KT 10SM FEW060 SCT110 BKN200 OVC250 24/11 A3005 RMK AO2 SLP168 TCU DSNT NW T02390106 10283 20233 50002=
202004062252 METAR KATL 062252Z 21004KT 10SM FEW060 SCT110 BKN200 BKN250 24/11 A3005 RMK AO2 SLP170 TCU DSNT SE T02440106=
202004062152 METAR KATL 062152Z 25011G21KT 10SM FEW060 BKN110CB BKN200 BKN250 24/09 A3005 RMK AO2 SLP169 CB DSNT S-SW CBMAM OHD-SW T02390094=
202004062052 METAR KATL 062052Z 26007KT 10SM FEW075 SCT120 BKN200 BKN250 28/11 A3004 RMK AO2 SLP165 CB DSNT SW SHRA DSNT SW T02780106 56018=
202004061952 METAR KATL 061952Z 26010G15KT 10SM FEW080 SCT130 BKN200 BKN250 27/09 A3006 RMK AO2 SLP172 T02670094=
202004061852 METAR KATL 061852Z 29007KT 260V320 10SM SCT075 SCT110 BKN200 BKN250 27/10 A3007 RMK AO2 SLP174 MDT CU DSNT ALQDS T02720100=
202004061752 METAR KATL 061752Z 19006KT 10SM SCT070 SCT100 BKN200 BKN250 27/10 A3010 RMK AO2 SLP183 MDT CU ALQDS T02720100 10272 20144 58014=
202004061652 METAR KATL 061652Z 28006KT 10SM FEW050 SCT250 SCT300 27/12 A3012 RMK AO2 SLP190 TCU DSNT N MDT CU SW-NW-N T02670117=
202004061552 METAR KATL 061552Z 28007KT 10SM FEW250 SCT300 25/13 A3013 RMK AO2 SLP194 T02500128=
202004061452 METAR KATL 061452Z 24004KT 10SM FEW200 FEW250 23/14 A3014 RMK AO2 SLP199 T02330144 51011=
202004061352 METAR KATL 061352Z 23006KT 10SM FEW150 SCT250 21/14 A3013 RMK AO2 SLP198 T02060139=
202004061252 METAR KATL 061252Z 23006KT 10SM FEW250 18/13 A3013 RMK AO2 SLP197 T01780133=
202004061152 METAR KATL 061152Z 21003KT 9SM FEW250 14/12 A3010 RMK AO2 SLP189 T01440122 10167 20144 53012=
202004061052 METAR KATL 061052Z 22003KT 10SM CLR 15/12 A3009 RMK AO2 SLP182 T01500122=
202004060952 METAR KATL 060952Z 27004KT 10SM CLR 15/12 A3008 RMK AO2 SLP178 T01500117=
202004060852 METAR KATL 060852Z 21004KT 10SM CLR 16/12 A3007 RMK AO2 SLP176 T01560122 56004=
202004060752 METAR KATL 060752Z 20006KT 10SM CLR 16/12 A3007 RMK AO2 SLP176 T01610117 $=
202004060652 METAR KATL 060652Z 19004KT 10SM FEW090 17/12 A3008 RMK AO2 SLP177 T01670117 $=
202004060552 METAR KATL 060552Z 19005KT 10SM FEW090 FEW250 17/11 A3008 RMK AO2 SLP180 T01670111 10233 20167 51006 $=
202004060452 METAR KATL 060452Z 00000KT 10SM FEW250 17/11 A3008 RMK AO2 SLP179 T01720111 402670150 $=
202004060352 METAR KATL 060352Z 00000KT 10SM FEW300 19/11 A3007 RMK AO2 SLP175 T01890111 $=
202004060252 METAR KATL 060252Z 21006KT 10SM FEW090 SCT300 20/11 A3006 RMK AO2 SLP175 T02000106 53015 $=
202004060152 METAR KATL 060152Z 17004KT 10SM FEW075 SCT090 SCT250 21/09 A3005 RMK AO2 SLP170 T02060094 $=
202004060052 METAR KATL 060052Z 14003KT 10SM FEW075 SCT090 SCT250 22/09 A3003 RMK AO2 SLP162 T02170094 $=
202004052352 METAR KATL 052352Z 16004KT 10SM FEW075 SCT085 SCT250 23/09 A3002 RMK AO2 SLP158 T02330089 10267 20233 53004 $=
202004052252 METAR KATL 052252Z 11004KT 10SM SCT075 SCT085 BKN250 25/08 A3001 RMK AO2 SLP156 MDT CU S T02500078 $=
202004052152 METAR KATL 052152Z 12005KT 10SM SCT070 SCT085 BKN250 26/09 A3000 RMK AO2 SLP153 T02610089 $=
202004052052 METAR KATL 052052Z 29003KT 10SM SCT070 BKN250 25/08 A3001 RMK AO2 SLP154 T02500083 56017 $=
202004051952 METAR KATL 051952Z 11004KT 10SM SCT060 26/10 A3001 RMK AO2 SLP156 T02610100 $=
202004051852 METAR KATL 051852Z VRB04KT 10SM SCT060 25/09 A3003 RMK AO2 SLP162 T02500089 $=
202004051752 METAR KATL 051752Z 00000KT 10SM SCT050 SCT110 SCT150 24/11 A3006 RMK AO2 SLP172 T02390111 10239 20150 58003 $=
202004051652 METAR KATL 051652Z 00000KT 10SM SCT080 SCT110 BKN150 22/12 A3007 RMK AO2 SLP177 T02170117=
202004051552 METAR KATL 051552Z 06003KT 10SM SCT085 BKN110 OVC150 19/11 A3008 RMK AO2 SLP180 T01940106=
202004051452 METAR KATL 051452Z 08005KT 10SM BKN085 BKN110 OVC150 18/09 A3007 RMK AO2 SLP176 T01780094 51017=
202004051352 METAR KATL 051352Z 09005KT 10SM BKN085 BKN110 OVC150 17/09 A3005 RMK AO2 SLP171 T01670089=
202004051252 METAR KATL 051252Z 08003KT 10SM SCT095 BKN150 BKN200 BKN250 17/09 A3004 RMK AO2 SLP168 T01670089=
202004051152 METAR KATL 051152Z 07004KT 10SM SCT150 BKN200 BKN250 16/08 A3001 RMK AO2 SLP158 T01560078 10172 20156 53018=
202004051052 METAR KATL 051052Z 08003KT 10SM BKN150 BKN200 16/08 A2998 RMK AO2 SLP147 T01610078=
202004050952 METAR KATL 050952Z 00000KT 10SM SCT150 BKN200 17/06 A2997 RMK AO2 SLP143 T01670061=
202004050852 METAR KATL 050852Z 00000KT 10SM BKN150 17/07 A2996 RMK AO2 SLP138 T01670067 55005=
202004050752 METAR KATL 050752Z 07005KT 10SM BKN200 17/07 A2995 RMK AO2 SLP136 T01670067=
202004050652 METAR KATL 050652Z 00000KT 10SM SCT180 BKN250 17/07 A2996 RMK AO2 SLP140 T01720072=
202004050552 METAR KATL 050552Z 31003KT 10SM BKN180 BKN250 17/07 A2997 RMK AO2 SLP144 T01720067 10222 20167 55001=
202004050452 METAR KATL 050452Z 10004KT 10SM FEW180 BKN250 19/05 A2997 RMK AO2 SLP141 T01940050 402560133=
202004050352 METAR KATL 050352Z 00000KT 10SM OVC250 19/04 A2996 RMK AO2 SLP140 T01940044=
202004050252 METAR KATL 050252Z 00000KT 10SM BKN250 OVC300 19/06 A2998 RMK AO2 SLP144 T01940056 51010=
202004050152 METAR KATL 050152Z 18003KT 10SM FEW200 BKN250 BKN300 19/06 A2997 RMK AO2 SLP145 T01940061=
202004050052 METAR KATL 050052Z 17004KT 10SM SCT200 BKN250 21/04 A2996 RMK AO2 SLP139 T02110044=
202004042352 METAR KATL 042352Z 15004KT 10SM FEW080 SCT200 BKN250 22/05 A2994 RMK AO2 SLP135 T02220050 10256 20222 53005=
202004042252 METAR KATL 042252Z 18003KT 10SM FEW080 SCT200 SCT300 24/04 A2993 RMK AO2 SLP130 T02390039=
202004042152 METAR KATL 042152Z 21003KT 10SM FEW100 SCT200 SCT250 24/04 A2993 RMK AO2 SLP130 T02440044=
202004042052 METAR KATL 042052Z 07004KT 10SM FEW100 SCT180 SCT250 24/05 A2993 RMK AO2 SLP129 T02440050 56018=
202004041952 METAR KATL 041952Z 02007KT 10SM FEW100 SCT180 SCT250 24/03 A2994 RMK AO2 SLP132 T02440033=
202004041852 METAR KATL 041852Z 04005KT 10SM SCT100 BKN180 BKN250 23/05 A2995 RMK AO2 SLP137 T02330050=
202004041752 METAR KATL 041752Z VRB06KT 10SM SCT100 BKN180 BKN250 23/06 A2998 RMK AO2 SLP148 T02280056 10228 20144 58014=
202004041652 METAR KATL 041652Z 07007KT 10SM SCT100 BKN180 BKN250 22/04 A3000 RMK AO2 SLP155 T02170044=
202004041552 METAR KATL 041552Z 07010KT 10SM SCT110 BKN200 22/04 A3002 RMK AO2 SLP160 T02170044=
202004041452 METAR KATL 041452Z 06008KT 10SM SCT110 BKN200 21/05 A3003 RMK AO2 SLP162 T02060050 51015 $=
202004041352 METAR KATL 041352Z 34005KT 10SM BKN100 BKN200 16/06 A3001 RMK AO2 SLP158 T01610061 $=
202004041252 METAR KATL 041252Z 30003KT 10SM OVC095 15/06 A3001 RMK AO2 SLP156 T01500061 $=
202004041152 METAR KATL 041152Z 34003KT 10SM BKN090 BKN120 BKN150 BKN200 BKN250 15/06 A2998 RMK AO2 SLP147 T01500056 10167 20133 53011 $=
202004041052 METAR KATL 041052Z 28008KT 10SM FEW085 SCT120 SCT150 BKN200 BKN250 13/06 A2996 RMK AO2 SLP141 T01330061 $=
202004040952 METAR KATL 040952Z 30007KT 10SM FEW120 BKN150 OVC200 16/06 A2995 RMK AO2 SLP134 T01560056 $=
202004040852 METAR KATL 040852Z 29006KT 10SM BKN120 BKN150 BKN200 OVC250 16/06 A2995 RMK AO2 SLP134 T01560061 55003 $=
202004040752 METAR KATL 040752Z 31004KT 10SM SCT110 BKN150 BKN200 BKN250 16/06 A2994 RMK AO2 SLP134 T01560056 $=
202004040652 METAR KATL 040652Z 31006KT 10SM FEW120 BKN200 BKN250 15/04 A2996 RMK AO2 SLP137 T01500044 $=
202004040552 METAR KATL 040552Z 29004KT 10SM FEW120 SCT200 15/04 A2996 RMK AO2 SLP139 T01500044 10222 20144 58004 $=
202004040452 METAR KATL 040452Z 30006KT 10SM SCT200 16/04 A2997 RMK AO2 SLP143 T01560044 402560089 $=
202004040352 METAR KATL 040352Z 29004KT 10SM BKN200 BKN250 16/04 A2997 RMK AO2 SLP144 T01610044 $=
202004040252 METAR KATL 040252Z 30004KT 10SM FEW150 SCT200 BKN250 18/03 A2997 RMK AO2 SLP144 T01780028 51006 $=
202004040152 METAR KATL 040152Z 33005KT 10SM SCT150 BKN250 19/02 A2996 RMK AO2 SLP142 T01940022 $=
202004040052 METAR KATL 040052Z 30004KT 10SM BKN140 BKN250 21/03 A2996 RMK AO2 SLP141 T02110033 $=
202004032352 METAR KATL 032352Z 32005KT 10SM SCT150 SCT250 22/02 A2995 RMK AO2 SLP138 T02220017 10256 20222 55003 $=
202004032252 METAR KATL 032252Z 32008KT 10SM FEW150 SCT250 24/01 A2994 RMK AO2 SLP135 T02440011=
202004032152 METAR KATL 032152Z 28006KT 10SM FEW150 SCT250 25/02 A2995 RMK AO2 SLP136 T02500017=
202004032052 METAR KATL 032052Z 33009G14KT 10SM FEW150 SCT200 SCT250 26/01 A2996 RMK AO2 SLP141 VIRGA NW ACC NW T02560011 56018=
202004031952 METAR KATL 031952Z 31008KT 10SM SCT150 SCT200 24/M01 A2997 RMK AO2 SLP144 VIRGA SW-NW ACC NW T02441011=
202004031852 METAR KATL 031852Z 27009KT 10SM FEW150 FEW200 24/02 A2999 RMK AO2 SLP152 ACC DSNT W-NW T02440017=
202004031752 METAR KATL 031752Z 29008KT 10SM FEW180 23/04 A3002 RMK AO2 SLP160 ACC DSNT W T02280039 10228 20100 58015=
202004031652 METAR KATL 031652Z 27007KT 10SM FEW200 22/05 A3004 RMK AO2 SLP167 T02170050 $=
202004031552 METAR KATL 031552Z 00000KT 10SM FEW200 19/04 A3005 RMK AO2 SLP173 T01890039=
202004031452 METAR KATL 031452Z 02004KT 10SM FEW200 18/04 A3006 RMK AO2 SLP176 T01780039 50008=
202004031352 METAR KATL 031352Z 30005KT 10SM FEW200 SCT250 15/05 A3006 RMK AO2 SLP177 T01500050=
202004031252 METAR KATL 031252Z 33005KT 10SM FEW200 SCT250 12/03 A3005 RMK AO2 SLP174 T01220033=
202004031152 METAR KATL 031152Z 01003KT 10SM BKN250 11/03 A3004 RMK AO2 SLP169 T01060028 10117 20089 51014=
202004031052 METAR KATL 031052Z 02007KT 10SM BKN250 11/02 A3002 RMK AO2 SLP163 T01060022=
202004030952 METAR KATL 030952Z 32006KT 10SM BKN250 09/02 A3001 RMK AO2 SLP161 T00890022=
202004030852 METAR KATL 030852Z 34007KT 10SM FEW250 09/02 A2999 RMK AO2 SLP154 T00940022 58005=
202004030752 METAR KATL 030752Z 34004KT 10SM CLR 10/02 A3000 RMK AO2 SLP156 T01000022=
202004030652 METAR KATL 030652Z 31007KT 10SM FEW250 10/02 A3001 RMK AO2 SLP160 T01000022=
202004030552 METAR KATL 030552Z 34005KT 10SM FEW250 12/02 A3001 RMK AO2 SLP160 T01170022 10178 20111 58008=
202004030452 METAR KATL 030452Z 31008KT 10SM SCT250 13/02 A3002 RMK AO2 SLP164 T01280017 402060044=
202004030352 METAR KATL 030352Z 32008KT 10SM SCT250 13/02 A3003 RMK AO2 SLP167 T01280017=
202004030252 METAR KATL 030252Z 31009KT 10SM FEW250 14/02 A3003 RMK AO2 SLP169 T01390022 51009=
202004030152 METAR KATL 030152Z 32007KT 10SM FEW250 14/02 A3003 RMK AO2 SLP169 T01440022=
202004030052 METAR KATL 030052Z 33006KT 10SM FEW250 16/02 A3001 RMK AO2 SLP163 T01610022=
202004022352 METAR KATL 022352Z 32007KT 10SM FEW250 18/02 A3001 RMK AO2 SLP162 T01780017 10206 20172 55000=
202004022252 METAR KATL 022252Z 31010KT 10SM FEW250 19/02 A3000 RMK AO2 SLP159 T01940017=
202004022152 METAR KATL 022152Z 31009KT 10SM FEW200 20/03 A3000 RMK AO2 SLP160 T02000028=
202004022052 METAR KATL 022052Z 32009KT 10SM FEW200 21/03 A3001 RMK AO2 SLP160 T02060033 56020=
202004021952 METAR KATL 021952Z 33008KT 10SM FEW200 19/03 A3002 RMK AO2 SLP166 T01940033=
202004021852 METAR KATL 021852Z VRB04KT 10SM FEW200 18/04 A3005 RMK AO2 SLP175 T01830039=
202004021752 METAR KATL 021752Z 27004KT 10SM FEW200 17/04 A3007 RMK AO2 SLP182 T01720039 10172 20056 58016=
202004021652 METAR KATL 021652Z 00000KT 10SM FEW200 16/03 A3010 RMK AO2 SLP192 T01560028=
202004021552 METAR KATL 021552Z 07004KT 10SM FEW200 14/02 A3011 RMK AO2 SLP197 T01390022=
202004021452 METAR KATL 021452Z 00000KT 10SM FEW200 13/01 A3012 RMK AO2 SLP200 T01280011 51006=
202004021352 METAR KATL 021352Z 03005KT 10SM FEW200 11/03 A3012 RMK AO2 SLP199 T01110028=
202004021252 METAR KATL 021252Z 36004KT 10SM FEW250 08/03 A3011 RMK AO2 SLP199 T00830028=
202004021152 METAR KATL 021152Z 33005KT 10SM FEW250 05/02 A3010 RMK AO2 SLP194 T00500022 10072 20044 53018=
202004021052 METAR KATL 021052Z 32005KT 10SM FEW250 05/02 A3007 RMK AO2 SLP186 T00500017=
202004020952 METAR KATL 020952Z 33007KT 10SM FEW250 06/02 A3005 RMK AO2 SLP176 T00560017=
202004020852 METAR KATL 020852Z 32005KT 10SM FEW250 06/02 A3004 RMK AO2 SLP175 T00560017 52006=
202004020752 METAR KATL 020752Z 34004KT 10SM FEW250 06/02 A3003 RMK AO2 SLP170 T00610017=
202004020652 METAR KATL 020652Z 31004KT 10SM SCT250 07/02 A3004 RMK AO2 SLP173 T00670017=
202004020552 METAR KATL 020552Z 34005KT 10SM FEW200 BKN250 07/02 A3003 RMK AO2 SLP168 T00720017 10128 20072 50000=
202004020452 METAR KATL 020452Z 32006KT 10SM SCT200 BKN250 08/02 A3004 RMK AO2 SLP175 T00830017 401610056=
202004020352 METAR KATL 020352Z 33005KT 10SM SCT200 09/02 A3004 RMK AO2 SLP174 T00890017=
202004020252 METAR KATL 020252Z 35007KT 10SM SCT250 10/02 A3003 RMK AO2 SLP168 T01000017 51020=
202004020152 METAR KATL 020152Z 33006KT 10SM SCT250 11/02 A3002 RMK AO2 SLP168 T01060017=
202004020052 METAR KATL 020052Z 35011KT 10SM SCT250 12/02 A2999 RMK AO2 SLP157 T01170017=
202004012352 METAR KATL 012352Z 34011KT 10SM SCT250 13/02 A2997 RMK AO2 SLP149 T01330017 10161 20133 53011=
202004012252 METAR KATL 012252Z 33014KT 10SM SCT250 14/02 A2996 RMK AO2 SLP144 T01440017=
202004012152 METAR KATL 012152Z 33012KT 10SM FEW200 BKN250 15/02 A2993 RMK AO2 SLP137 T01500017=
202004012052 METAR KATL 012052Z 34013G21KT 10SM FEW050 FEW200 SCT250 16/02 A2993 RMK AO2 SLP137 T01560022 55005=
202004011952 METAR KATL 011952Z 32012G21KT 10SM FEW048 FEW200 SCT250 15/03 A2993 RMK AO2 SLP136 T01500028=
202004011852 METAR KATL 011852Z 33015G22KT 10SM FEW042 SCT200 14/02 A2994 RMK AO2 SLP137 T01390022=
202004011752 METAR KATL 011752Z 32013KT 10SM FEW040 SCT200 13/02 A2995 RMK AO2 SLP142 T01330022 10133 20056 58002=
202004011652 METAR KATL 011652Z 34012G18KT 10SM FEW036 BKN200 12/02 A2996 RMK AO2 SLP147 T01170017=
202004011552 METAR KATL 011552Z 35014G23KT 10SM FEW034 SCT200 12/02 A2997 RMK AO2 SLP148 T01170017=
202004011452 METAR KATL 011452Z 32019G25KT 10SM SCT034 SCT200 11/02 A2995 RMK AO2 PK WND 34029/1416 SLP143 T01060017 51020=
202004011352 METAR KATL 011352Z 31018G24KT 10SM BKN030 08/01 A2994 RMK AO2 SLP139 T00830011=
202004011252 METAR KATL 011252Z 32013KT 10SM SCT028 07/01 A2992 RMK AO2 SLP134 T00720011=
