##########################################################
# Query made at 04/20/2024 00:10:38 UTC
# Time interval: from 05/01/2020 12:00  to 05/31/2020 12:59  UTC
##########################################################

##########################################################
# KATL, Atlanta, Hartsfield - Jackson Atlanta International Airport (United States)
# WMO index: 72219. WIGOS ID: 0-20000-0-72219
# Latitude 33-38-59N. Longitude 084-25-00W. Altitude 312 m.
##########################################################

202005311252 METAR KATL 311252Z 35006KT 10SM CLR 21/14 A3010 RMK AO2 SLP183 T02110139=
202005311152 METAR KATL 311152Z 32009KT 10SM CLR 18/13 A3008 RMK AO2 SLP178 T01830128 10206 20172 53015=
202005311052 METAR KATL 311052Z 30009KT 10SM FEW250 17/13 A3006 RMK AO2 SLP172 T01720128=
202005310952 METAR KATL 310952Z 31005KT 10SM FEW250 18/13 A3005 RMK AO2 SLP166 T01780128=
202005310852 METAR KATL 310852Z 31008KT 10SM FEW250 18/13 A3004 RMK AO2 SLP163 T01830133 55002=
202005310752 METAR KATL 310752Z 31007KT 10SM CLR 19/14 A3004 RMK AO2 SLP162 T01890139=
202005310652 METAR KATL 310652Z 31008KT 10SM CLR 20/14 A3004 RMK AO2 SLP161 T02000139=
202005310552 METAR KATL 310552Z 31008KT 10SM FEW250 21/14 A3005 RMK AO2 SLP164 T02060144 10278 20206 58001=
202005310452 METAR KATL 310452Z 30007KT 10SM FEW250 22/15 A3005 RMK AO2 SLP166 T02170150 403000194=
202005310352 METAR KATL 310352Z 31007KT 10SM FEW250 22/15 A3005 RMK AO2 SLP167 T02220150=
202005310252 METAR KATL 310252Z 32006KT 10SM FEW250 23/14 A3005 RMK AO2 SLP165 T02330144 52012=
202005310152 METAR KATL 310152Z 33008KT 10SM FEW055 FEW250 25/14 A3003 RMK AO2 SLP160 T02500144=
202005310052 METAR KATL 310052Z 33007KT 10SM FEW055 FEW250 26/16 A3003 RMK AO2 SLP158 MDT CU S T02610156=
202005302352 METAR KATL 302352Z 33010KT 10SM SCT055 SCT250 28/16 A3001 RMK AO2 SLP154 T02780156 10300 20278 53002=
202005302252 METAR KATL 302252Z 32010KT 10SM SCT055 SCT250 29/16 A2999 RMK AO2 SLP148 T02890156=
202005302152 METAR KATL 302152Z 29010KT 10SM SCT060 SCT070 SCT250 29/16 A3000 RMK AO2 SLP148 T02940156=
202005302052 METAR KATL 302052Z 29011G18KT 10SM SCT060 30/16 A3001 RMK AO2 SLP151 T03000161 56013=
202005301952 METAR KATL 301952Z 30010KT 10SM SCT060 30/16 A3002 RMK AO2 SLP155 T03000161=
202005301852 METAR KATL 301852Z 32008G17KT 10SM SCT060 29/15 A3003 RMK AO2 SLP160 T02940150=
202005301752 METAR KATL 301752Z 30009G16KT 10SM SCT047 29/17 A3005 RMK AO2 SLP165 T02940167 10294 20211 58009=
202005301652 METAR KATL 301652Z 30007KT 10SM SCT043 28/17 A3006 RMK AO2 SLP170 T02830172=
202005301552 METAR KATL 301552Z 31006KT 10SM SCT041 28/17 A3007 RMK AO2 SLP171 T02780167=
202005301452 METAR KATL 301452Z 33009KT 10SM FEW037 27/17 A3007 RMK AO2 SLP174 T02670172 51002=
202005301352 METAR KATL 301352Z 33008KT 10SM CLR 26/18 A3007 RMK AO2 SLP174 T02560183=
202005301252 METAR KATL 301252Z 34006KT 10SM CLR 23/18 A3007 RMK AO2 SLP175 T02330183=
202005301152 METAR KATL 301152Z 32008KT 10SM CLR 21/18 A3007 RMK AO2 SLP173 70005 T02110178 10211 20194 53010=
202005301052 METAR KATL 301052Z 31006KT 10SM FEW250 20/18 A3006 RMK AO2 SLP170 T02000178=
202005300952 METAR KATL 300952Z 30003KT 10SM FEW250 20/18 A3003 RMK AO2 SLP162 T02000183=
202005300852 METAR KATL 300852Z 00000KT 10SM FEW250 21/19 A3004 RMK AO2 SLP162 T02060189 56006=
202005300752 METAR KATL 300752Z 29003KT 10SM FEW050 FEW250 21/19 A3004 RMK AO2 SLP163 T02060189=
202005300652 METAR KATL 300652Z 27003KT 10SM FEW040 FEW250 21/19 A3005 RMK AO2 SLP166 T02060194=
202005300552 METAR KATL 300552Z 00000KT 10SM FEW040 FEW250 21/19 A3006 RMK AO2 SLP169 T02110194 10250 20211 58001=
202005300452 METAR KATL 300452Z 24004KT 10SM FEW040 SCT250 22/19 A3006 RMK AO2 SLP171 CB DSNT S T02220194 402830217=
202005300352 METAR KATL 300352Z 22003KT 10SM FEW040 BKN250 23/20 A3006 RMK AO2 SLP171 T02280200=
202005300252 METAR KATL 300252Z 20003KT 10SM FEW200 BKN250 23/20 A3006 RMK AO2 SLP170 T02280200 53012=
202005300152 METAR KATL 300152Z 00000KT 10SM FEW200 SCT250 23/21 A3005 RMK AO2 SLP167 T02330206=
202005300052 METAR KATL 300052Z 00000KT 10SM FEW035 SCT200 BKN250 24/21 A3002 RMK AO2 SLP157 CB DSNT E-SE S T02390206=
202005292352 METAR KATL 292352Z 20006KT 10SM FEW035 SCT110 BKN250 25/19 A3002 RMK AO2 SLP157 CB DSNT SE TCU DSNT NW-NE 60000 T02500194 10283 20239 53003=
202005292252 METAR KATL 292252Z 15006KT 10SM FEW035 SCT070 BKN110 BKN250 24/20 A3002 RMK AO2 RAE2155 SLP156 TCU DSNT NE-SE-S P0000 T02440200=
202005292152 METAR KATL 292152Z 24005KT 9SM -RA FEW035CB SCT070 BKN110 BKN250 25/19 A3001 RMK AO2 RAB41 SLP155 CB E-SE DSNT S MOV NE P0000 T02500194=
202005292052 METAR KATL 292052Z 20005KT 10SM SCT040TCU BKN070 BKN180 BKN250 27/19 A3001 RMK AO2 RAB37E48 SLP154 TCU ALQDS P0000 60000 T02670189 56012=
202005291952 METAR KATL 291952Z 27008KT 10SM FEW036TCU SCT075 BKN180 BKN250 28/19 A3002 RMK AO2 RAE04 SLP156 CB DSNT NE-SE TCU SW DSNT NE SE-S P0000 T02830189=
202005291852 METAR KATL 291852Z VRB03KT 10SM -RA SCT032TCU SCT070 BKN180 BKN250 27/19 A3003 RMK AO2 LTG DSNT S RAB50 SLP159 CB DSNT NE E S TCU SE-S P0000 T02720194=
202005291752 METAR KATL 291752Z 33006KT 10SM FEW038TCU SCT080 BKN200 BKN250 27/21 A3005 RMK AO2 LTG DSNT NE SLP165 RAE05 TSE12 TS MOVD NE CB DSNT NE NW TCU SE S-SW DSNT E P0001 60005 T02720206 10272 20222 58010=
202005291714 SPECI KATL 291714Z 27005KT 10SM FEW023 SCT042TCU SCT100 BKN200 26/21 A3006 RMK AO2 RAE05 TSE12 TS MOVD NE CB DSNT NE TCU N SW-W NW P0001 T02560211=
202005291701 SPECI KATL 291701Z 29006KT 10SM -TSRA FEW020 BKN040CB BKN090 BKN200 24/20 A3006 RMK AO2 LTG DSNT NE OCNL LTGICCGCA N-NE TS N-NE MOV NE CB DSNT NE P0001 T02390200=
202005291652 METAR KATL 291652Z 28010KT 7SM R09R/5500VP6000FT RA FEW020 SCT040CB BKN100 BKN200 23/20 A3006 RMK AO2 RAB38 SLP171 TSB27 VIS LWR W-NW OCNL LTGICCA VC N-NE TS VC N-NE MOV NE CB W-NW MOV NE CB DSNT N NE TCU N P0004 T02330200=
202005291630 SPECI KATL 291630Z 18008KT 10SM VCTS FEW022 SCT040CB SCT120 BKN200 26/21 A3007 RMK AO2 LTG DSNT N TSB27 OCNL LTGICCA VC NW TS VC NW MOV NE CB SW MOV NE CB DSNT N E T02610206=
202005291552 METAR KATL 291552Z 19009KT 10SM FEW020 SCT038TCU BKN110 BKN200 26/20 A3009 RMK AO2 LTG DSNT N AND NW SLP179 CB DSNT NW-N TCU SW-NW DSNT NE-E T02560200=
202005291452 METAR KATL 291452Z 18006KT 10SM FEW008 SCT050 BKN100 BKN200 23/21 A3008 RMK AO2 RAB09E24 SLP177 CB DSNT NE NW TCU DSNT W P0000 60000 T02330206 50003=
202005291409 SPECI KATL 291409Z 19007KT 10SM -RA FEW008 SCT050CB BKN100 BKN200 23/20 A3008 RMK AO2 RAB09 CB NE-SE MOV NE P0000 T02280200=
202005291352 METAR KATL 291352Z 18005KT 10SM FEW014 SCT055CB BKN120 BKN200 23/20 A3008 RMK AO2 SLP178 CB S MOV NE SHRA S ACC E SW-W T02330200=
202005291252 METAR KATL 291252Z 21004KT 10SM FEW010 FEW075 BKN110 BKN250 23/21 A3008 RMK AO2 SLP175 TCU DSNT SE ACC SW-NW-N DSNT NE S T02280206=
202005291152 METAR KATL 291152Z 00000KT 10SM FEW050 FEW075 BKN110 BKN150 BKN250 22/20 A3007 RMK AO2 RAE1058 SLP174 P0000 60000 70001 T02220200 10228 20217 51013=
202005291052 METAR KATL 291052Z 00000KT 9SM -RA FEW050 SCT080 BKN110 BKN150 22/20 A3006 RMK AO2 RAB40 SLP171 P0000 T02220200=
202005290952 METAR KATL 290952Z 00000KT 10SM BKN100 BKN120 22/20 A3005 RMK AO2 SLP166 T02220200=
202005290852 METAR KATL 290852Z 00000KT 10SM OVC100 22/20 A3003 RMK AO2 SLP159 BINOVC T02170200 55002=
202005290752 METAR KATL 290752Z 14003KT 10SM SCT120 BKN150 BKN170 22/19 A3002 RMK AO2 SLP156 T02170194=
202005290652 METAR KATL 290652Z 00000KT 10SM FEW100 BKN150 BKN170 22/19 A3003 RMK AO2 SLP157 T02220194=
202005290552 METAR KATL 290552Z 00000KT 10SM FEW100 SCT200 BKN250 22/19 A3004 RMK AO2 SLP161 T02220194 10267 20222 58007=
202005290452 METAR KATL 290452Z 18003KT 10SM SCT200 BKN250 23/19 A3005 RMK AO2 SLP168 T02280194 402890194=
202005290352 METAR KATL 290352Z 23004KT 10SM FEW045 BKN250 23/19 A3005 RMK AO2 SLP167 T02330194=
202005290252 METAR KATL 290252Z 19004KT 10SM SCT045 BKN250 24/19 A3006 RMK AO2 SLP170 T02390194 53014=
202005290152 METAR KATL 290152Z 00000KT 10SM FEW050 SCT200 BKN250 24/19 A3004 RMK AO2 SLP162 T02440189=
202005290052 METAR KATL 290052Z 18003KT 10SM FEW050 SCT200 BKN250 25/19 A3002 RMK AO2 SLP158 T02500189=
202005282352 METAR KATL 282352Z 20004KT 10SM BKN200 27/18 A3002 RMK AO2 SLP155 T02670178 10289 20267 53009=
202005282252 METAR KATL 282252Z 22007KT 10SM FEW050 SCT200 BKN250 28/17 A3000 RMK AO2 SLP148 MDT CU NW T02830172=
202005282152 METAR KATL 282152Z 25008KT 10SM SCT045 SCT200 BKN250 29/17 A2999 RMK AO2 SLP145 TCU DSNT NW MDT CU E-S T02890167=
202005282052 METAR KATL 282052Z 22008G17KT 10SM FEW042 SCT110 SCT200 BKN250 28/17 A2999 RMK AO2 SLP146 CB DSNT NE E TCU DSNT N NW T02830172 58018=
202005281952 METAR KATL 281952Z 23014G20KT 10SM SCT036 SCT110 SCT200 SCT250 29/18 A3001 RMK AO2 SLP154 CB DSNT NE-SE TCU DSNT W NW T02890178=
202005281852 METAR KATL 281852Z 20011G18KT 10SM FEW034 SCT110 SCT200 SCT250 28/19 A3003 RMK AO2 SLP158 CB DSNT NE-E S T02830189=
202005281752 METAR KATL 281752Z 25008KT 10SM FEW028 SCT100 SCT180 SCT250 27/19 A3004 RMK AO2 LTG DSNT E SLP164 CB DSNT NE-SE TCU DSNT E SE-S 60001 T02720194 10272 20211 58009=
202005281652 METAR KATL 281652Z 16006KT 10SM SCT024TCU SCT080 BKN140 BKN200 26/22 A3006 RMK AO2 LTG DSNT E SLP172 RAB08E37 TSB09E51 TS MOVD NE CB DSNT NE-SE TCU NE DSNT SE-S P0001 T02560222=
202005281639 SPECI KATL 281639Z 19005KT 10SM VCTS FEW014 SCT032CB BKN080 BKN180 25/21 A3006 RMK AO2 RAB08E37 TSB09 OCNL LTGICCA VC E-SE TS VC E-SE MOV NE P0001 T02500211=
202005281623 SPECI KATL 281623Z 21003KT 5SM -TSRA FEW012 SCT028CB BKN065 BKN150 24/21 A3006 RMK AO2 RAB08 TSB09 OCNL LTGICCA SE-S TS SE-S MOV NE TCU NE P0001 T02390211=
202005281619 SPECI KATL 281619Z 23005KT 6SM VCTS -RA FEW012 SCT028CB BKN065 BKN150 24/21 A3006 RMK AO2 RAB08 TSB09 OCNL LTGICCA VC SE-S TS VC SE-S MOV NE TCU NE P0001 T02390206=
202005281612 SPECI KATL 281612Z 22005KT 6SM VCTS -RA SCT014 BKN028CB BKN065 BKN140 24/21 A3007 RMK AO2 LTG DSNT S AND SW RAB08 TSB09 OCNL LTGICCA VC S-SW TS VC S-SW MOV NE CB SW-NW MOV NE P0000 T02390206 $=
202005281552 METAR KATL 281552Z 22005KT 10SM SCT012 BKN018TCU BKN046 BKN180 24/21 A3006 RMK AO2 LTG DSNT SW RAB21E31 SLP173 CB DSNT SW-NW TCU E-SE P0000 T02440206 $=
202005281522 SPECI KATL 281522Z 00000KT 10SM -RA SCT008 BKN018CB OVC048 23/21 A3007 RMK AO2 LTG DSNT SW AND W RAB21 CB W-NW MOV NE CB DSNT SW-NW P0000 T02330206 $=
202005281515 SPECI KATL 281515Z VRB03KT 9SM SCT006 BKN014CB OVC024 23/21 A3006 RMK AO2 LTG DSNT SW AND W CB W MOV NE CB DSNT SW-NW SHRA W BINOVC T02330211=
202005281456 SPECI KATL 281456Z 13004KT 6SM BR BKN006 OVC014CB 23/21 A3007 RMK AO2 LTG DSNT SW CB SW DSNT SW-NW MOV NE T02330211=
202005281452 METAR KATL 281452Z 14003KT 1 3/4SM BKN006 OVC014CB 23/21 A3007 RMK AO2 SFC VIS 7 LTG DSNT SW DZE50 SLP175 CIG 004V008 CB SW DSNT SW-NW MOV NE P0000 60000 T02280211 51013=
202005281352 METAR KATL 281352Z 14004KT 1 3/4SM -DZ BR OVC004 22/21 A3006 RMK AO2 SFC VIS 3 DZB49 SLP173 CIG 003V006 PCPN VRY LGT P0000 T02220206=
202005281343 SPECI KATL 281343Z 14004KT 1 3/4SM BR OVC004 22/21 A3006 RMK AO2 SFC VIS 3 CIG 003V006 T02220206=
202005281252 METAR KATL 281252Z 13004KT 1/4SM R09R/P6000FT BR BKN002 OVC006 22/20 A3004 RMK AO2 SFC VIS 3 SLP164 TWRINC T02170200=
202005281152 METAR KATL 281152Z 09006KT 1/4SM R09R/P6000FT BR BKN002 OVC006 21/20 A3003 RMK AO2 SFC VIS 3 SLP162 60001 70142 T02110200 10211 20200 53013=
202005281052 METAR KATL 281052Z 09004KT 1/4SM R09R/4000VP6000FT BR VV002 21/19 A3002 RMK AO2 SFC VIS 1 1/4 RAE06 SLP157 P0001 T02060194=
202005280952 METAR KATL 280952Z 08005KT 1SM R09R/6000VP6000FT -RA BR VV004 21/19 A3000 RMK AO2 SFC VIS 1 1/2 RAB40 SLP153 P0000 T02060194=
202005280916 SPECI KATL 280916Z 08004KT 1SM R09R/P6000FT BR BKN003 OVC009 21/19 A3001 RMK AO2 SFC VIS 4 TWRINC T02060194=
202005280852 METAR KATL 280852Z 07006KT 2SM BR SCT002 OVC009 20/19 A2999 RMK AO2 SFC VIS 4 SLP149 T02000189 53002=
202005280837 SPECI KATL 280837Z 08004KT 2SM BR SCT002 OVC009 20/19 A3000 RMK AO2 SFC VIS 5 T02000189=
202005280752 METAR KATL 280752Z 09004KT 2SM BR OVC003 20/19 A2999 RMK AO2 SFC VIS 4 SLP147 TWRINC T02000189=
202005280713 SPECI KATL 280713Z 00000KT 2SM OVC004 20/19 A2999 RMK AO2 SFC VIS 7 TWRINC T02000189=
202005280652 METAR KATL 280652Z 00000KT 7SM OVC006 20/18 A2999 RMK AO2 SLP148 CIG 005V007 T02000183=
202005280552 METAR KATL 280552Z 05004KT 10SM SCT005 OVC009 20/18 A2999 RMK AO2 SLP148 60010 T02000183 10222 20189 56016=
202005280530 SPECI KATL 280530Z 05004KT 10SM SCT006 OVC012 20/18 A2999 RMK AO2 T02000178=
202005280452 METAR KATL 280452Z 05004KT 10SM FEW006 OVC015 19/18 A3001 RMK AO2 RAE27 SLP157 P0001 T01940178 402330189=
202005280352 METAR KATL 280352Z 36007KT 5SM RA BR SCT007 OVC020 19/17 A3000 RMK AO2 PRESFR SLP152 LTG DSNT SE-S CB DSNT SE-S P0006 T01890172=
202005280252 METAR KATL 280252Z 33007KT 6SM -RA BR FEW006 BKN015 OVC030 19/18 A3004 RMK AO2 RAB07 SLP164 P0003 60003 T01890178 53018=
202005280152 METAR KATL 280152Z 00000KT 10SM SCT008 BKN017 BKN030 BKN200 22/19 A2999 RMK AO2 RAE0057 SLP150 P0000 T02170194=
202005280052 METAR KATL 280052Z 11005KT 10SM -RA BKN011 BKN017 OVC025 22/19 A2999 RMK AO2 LTG DSNT NW RAB48 SLP148 CB DSNT NW P0000 T02220189=
202005272352 METAR KATL 272352Z 12005KT 10SM SCT010 BKN014 OVC025 22/19 A2998 RMK AO2 SLP145 60007 T02220189 10233 20211 53004=
202005272252 METAR KATL 272252Z 10009KT 10SM BKN012 OVC025 22/19 A2996 RMK AO2 SLP138 T02220194=
202005272152 METAR KATL 272152Z 10009KT 10SM BKN012 BKN018 OVC030 23/19 A2995 RMK AO2 RAE21 SLP136 P0000 T02280194=
202005272052 METAR KATL 272052Z 11008KT 8SM -RA BKN014 OVC022 23/19 A2997 RMK AO2 RAB25 SLP141 CIG 012V016 PCPN VRY LGT P0000 60007 T02280194 56008 $=
202005271952 METAR KATL 271952Z 10011KT 10SM BKN012 OVC020 23/19 A2997 RMK AO2 SLP143 CIG 010V014 BINOVC T02280194 $=
202005271852 METAR KATL 271852Z 09014G20KT 7SM BKN007 OVC017 22/19 A2998 RMK AO2 RAE51 SLP146 CIG 006V009 P0007 T02220194 $=
202005271802 SPECI KATL 271802Z 10009KT 3SM -RA BR BKN007 BKN022CB OVC038 21/19 A2999 RMK AO2 CIG 006V009 CB N-NE MOV N P0005 T02110194 $=
202005271752 METAR KATL 271752Z 09010KT 2SM R09R/2600VP6000FT +RA BR SCT008 BKN018CB OVC045 21/19 A2999 RMK AO2 SLP150 VIS 1V3 CB N-OHD-S MOV N P0034 60124 T02110194 10211 20200 58008=
202005271741 SPECI KATL 271741Z 10009KT 2SM R09R/4500VP6000FT +RA BR SCT008 BKN014CB OVC050 21/19 A3001 RMK AO2 CB NE-OHD-SW MOV N P0020 T02110194=
202005271727 SPECI KATL 271727Z 11008KT 2SM +RA BR BKN008 OVC013CB 21/19 A3001 RMK AO2 CB NE-OHD-SW MOV N P0006 T02110194=
202005271710 SPECI KATL 271710Z 09009KT 3SM RA BR SCT008 OVC013CB 21/19 A3001 RMK AO2 CB N-OHD-S MOV N P0003 T02110194=
202005271652 METAR KATL 271652Z 10011KT 4SM RA BR BKN008 OVC014CB 21/19 A3001 RMK AO2 SLP156 VIS LWR S-SW CIG 006V010 CB SE-SW MOV N P0020 T02110194=
202005271610 SPECI KATL 271610Z 10008KT 3SM R09R/5000VP6000FT RA BR BKN007 OVC014CB 21/19 A3002 RMK AO2 VIS S-W 1 1/2 CIG 006V009 CB SE-SW MOV NW P0010 T02110194=
202005271552 METAR KATL 271552Z 09009KT 4SM RA BR BKN008 BKN014 OVC045 21/19 A3002 RMK AO2 SLP159 CIG 006V010 P0007 T02060189=
202005271528 SPECI KATL 271528Z 09008KT 6SM -RA BR BKN007 BKN015 OVC050 20/19 A3002 RMK AO2 CIG 005V009 P0005 T02000189=
202005271511 SPECI KATL 271511Z 08010KT 5SM -RA BR SCT005 BKN024 OVC065 20/18 A3002 RMK AO2 P0003 T02000183=
202005271504 SPECI KATL 271504Z 08011KT 4SM -RA BR SCT005 BKN014 OVC030 20/18 A3002 RMK AO2 P0002 T02000183=
202005271452 METAR KATL 271452Z 09009KT 4SM -RA BR SCT007 BKN023CB OVC070 20/18 A3002 RMK AO2 SLP159 VIS NW-NE 2 CB NW-NE-E MOV N P0061 60063 T02000183 50001=
202005271446 SPECI KATL 271446Z 08011KT 2SM RA BR BKN007 OVC016CB 20/18 A3002 RMK AO2 CB NW-NE-SE MOV N P0061=
202005271443 SPECI KATL 271443Z 08012KT 1 1/2SM R09R/5500VP6000FT +RA BR BKN007 OVC016CB 20/18 A3002 RMK AO2 CB SE-OHD-NW MOV N P0059 T02000183=
202005271428 SPECI KATL 271428Z 08012KT 3/4SM R09R/3000VP6000FT +RA BR BKN007 OVC016CB 20/18 A3003 RMK AO2 CB SE-OHD-NW MOV N P0031 T02000183=
202005271421 SPECI KATL 271421Z 10010KT 1 1/2SM R09R/3500VP6000FT +RA BR OVC007CB 20/18 A3003 RMK AO2 CB SE-SW MOV N CB DSNT S P0002 T02000183=
202005271352 METAR KATL 271352Z 07010KT 3SM -RA BR BKN007 OVC013 21/18 A3003 RMK AO2 DZE22RAB22 SLP162 VIS 2V4 CIG 005V009 P0002 T02060183=
202005271252 METAR KATL 271252Z 07011KT 8SM -DZ OVC007 20/18 A3002 RMK AO2 DZE30B46 SLP160 P0000 T02000178=
202005271152 METAR KATL 271152Z 07010KT 5SM -DZ BR OVC009 20/18 A3002 RMK AO2 RAE24B45E51DZB24 SLP158 P0000 60000 70007 T02000178 10206 20200 50012=
202005271052 METAR KATL 271052Z 08009KT 8SM -RA OVC009 20/17 A3002 RMK AO2 RAB49 SLP159 P0000 T02000172=
202005271021 SPECI KATL 271021Z 10008KT 10SM BKN009 OVC013 20/17 A3001 RMK AO2 T02000172=
202005270952 METAR KATL 270952Z 09009KT 10SM BKN011 OVC025 20/17 A3000 RMK AO2 SLP151 T02000167=
202005270946 SPECI KATL 270946Z 09009KT 10SM BKN011 OVC025 20/17 A2999 RMK AO2=
202005270852 METAR KATL 270852Z 08011KT 10SM FEW012 BKN018 OVC028 20/17 A2998 RMK AO2 SLP145 T02000167 58010=
202005270827 SPECI KATL 270827Z 09010KT 10SM SCT012 OVC022 20/17 A2999 RMK AO2 T02000167=
202005270752 METAR KATL 270752Z 09009KT 10SM BKN013 OVC024 20/17 A2999 RMK AO2 SLP149 T02000167=
202005270730 SPECI KATL 270730Z 09012KT 10SM BKN013 OVC024 21/17 A3000 RMK AO2 T02060167=
202005270652 METAR KATL 270652Z 09010KT 10SM BKN017 OVC024 21/17 A3001 RMK AO2 SLP157 T02060167=
202005270552 METAR KATL 270552Z 09010KT 10SM BKN024 BKN032 BKN042 21/17 A3001 RMK AO2 SLP155 60000 T02060167 10211 20200 58008=
202005270530 SPECI KATL 270530Z 09009KT 10SM BKN024 BKN035 OVC047 21/17 A3002 RMK AO2 T02060167=
202005270452 METAR KATL 270452Z 08010KT 10SM BKN030 OVC055 21/17 A3003 RMK AO2 RAE18 SLP161 P0000 T02060172 402390200=
202005270352 METAR KATL 270352Z 09009KT 9SM -RA FEW010 SCT035 OVC055 21/18 A3004 RMK AO2 RAB49 SLP164 P0000 T02060178=
202005270252 METAR KATL 270252Z 08007KT 10SM FEW055 BKN080 OVC110 21/18 A3003 RMK AO2 RAE15 SLP163 P0000 60000 T02060178 51002=
202005270152 METAR KATL 270152Z 10006KT 10SM -RA FEW030 BKN055 OVC080 21/17 A3003 RMK AO2 RAE01B50 SLP163 P0000 T02060172=
202005270052 METAR KATL 270052Z 12006KT 9SM -RA SCT040 BKN055 OVC080 21/17 A3004 RMK AO2 RAB48 SLP164 P0000 T02060172=
202005262352 METAR KATL 262352Z 09009KT 10SM FEW013 BKN050 OVC080 21/17 A3003 RMK AO2 SLP161 60006 T02110167 10228 20211 53002=
202005262252 METAR KATL 262252Z 10009KT 10SM FEW012 BKN035 OVC070 22/17 A3002 RMK AO2 RAE37 SLP158 P0000 T02170172=
202005262152 METAR KATL 262152Z 11010KT 10SM -RA FEW016 OVC050 22/18 A3002 RMK AO2 RAB11 SLP160 P0000 T02220183=
202005262052 METAR KATL 262052Z 10014KT 10SM FEW015 SCT033 OVC060 22/18 A3002 RMK AO2 RAE00B31E41 SLP159 TCU DSNT SE-S P0000 60006 T02220183 58014=
202005262044 SPECI KATL 262044Z 09010KT 10SM FEW015 SCT033 OVC060 22/18 A3002 RMK AO2 RAE00B31E41 P0000 T02170183=
202005261952 METAR KATL 261952Z 11012KT 10SM -RA SCT010 BKN016 OVC036 22/19 A3003 RMK AO2 SLP163 CIG 014V018 BINOVC P0003 T02170189=
202005261935 SPECI KATL 261935Z 09012G17KT 6SM -RA BR SCT007 BKN014 OVC030 21/19 A3004 RMK AO2 CIG 012V016 MDT CU NW-NE P0002 T02110194=
202005261852 METAR KATL 261852Z 12011G19KT 7SM -RA SCT012 BKN022 OVC038 22/19 A3006 RMK AO2 RAE30B46 SLP170 CIG 019V026 P0003 T02220189=
202005261820 SPECI KATL 261820Z 09011KT 5SM R09R/5500VP6000FT -RA BR SCT010 BKN020CB OVC036 21/19 A3006 RMK AO2 VIS S-W-NW 2 CB S-W-NW MOV W P0003 T02110194=
202005261808 SPECI KATL 261808Z 08017KT 2 1/2SM R09R/6000VP6000FT RA BR SCT014 OVC020CB 21/19 A3007 RMK AO2 CB SE-OHD-NW MOV W P0001 T02110189=
202005261802 SPECI KATL 261802Z 07017KT 1 1/2SM +RA SCT014 OVC020CB 22/19 A3007 RMK AO2 CB SE-OHD-NW MOV W P0001 T02170189=
202005261752 METAR KATL 261752Z 10012G19KT 4SM R09R/5500VP6000FT RA BKN020 OVC034 22/18 A3006 RMK AO2 RAB1656E07B46 SLP173 VIS NW-NE 1 1/2 CIG 018V022 P0001 60001 T02220183 10239 20206 58007=
202005261652 METAR KATL 261652Z 11015G22KT 10SM BKN020 BKN032 OVC060 23/17 A3008 RMK AO2 SLP176 CIG 018V022 T02280172=
202005261552 METAR KATL 261552Z 11011KT 10SM BKN015 BKN026 OVC060 23/18 A3008 RMK AO2 SLP179 CIG 013V017 T02280178=
202005261542 SPECI KATL 261542Z 10011KT 10SM BKN015 BKN027 BKN060 OVC150 22/17 A3008 RMK AO2 CIG 013V017 T02220172=
202005261501 SPECI KATL 261501Z 11012G18KT 10SM OVC014 21/17 A3008 RMK AO2 T02110172=
202005261452 METAR KATL 261452Z 10010KT 10SM OVC016 21/17 A3009 RMK AO2 SLP181 T02110172 52006=
202005261426 SPECI KATL 261426Z 10009KT 10SM BKN017 BKN025 BKN055 OVC150 22/17 A3008 RMK AO2 CIG 015V019 T02170172=
202005261352 METAR KATL 261352Z 09011KT 10SM FEW015 SCT023 BKN055 OVC150 22/17 A3008 RMK AO2 SLP179 T02170172=
202005261252 METAR KATL 261252Z 09010KT 9SM FEW009 SCT026 BKN046 BKN150 OVC250 21/18 A3007 RMK AO2 SLP176 T02110178=
202005261152 METAR KATL 261152Z 09010KT 8SM FEW009 BKN033 BKN046 OVC150 21/18 A3007 RMK AO2 SLP175 T02060178 10211 20206 53011=
202005261052 METAR KATL 261052Z 10007KT 10SM FEW009 BKN036 BKN047 OVC150 21/18 A3006 RMK AO2 SLP171 BINOVC T02060178=
202005260952 METAR KATL 260952Z 09011KT 10SM SCT009 SCT017 BKN044 OVC140 21/18 A3004 RMK AO2 SLP162 T02110178=
202005260947 SPECI KATL 260947Z 10007KT 10SM SCT008 SCT017 BKN044 OVC140 21/18 A3004 RMK AO2=
202005260939 SPECI KATL 260939Z 10010KT 10SM SCT008 BKN017 OVC042 21/18 A3004 RMK AO2 T02110183=
202005260852 METAR KATL 260852Z 10008KT 10SM BKN007 OVC012 21/19 A3003 RMK AO2 SLP160 T02110189 56009 $=
202005260752 METAR KATL 260752Z 10007KT 10SM OVC007 21/19 A3004 RMK AO2 SLP161 T02110189 $=
202005260652 METAR KATL 260652Z 10006KT 8SM BKN007 OVC011 21/19 A3005 RMK AO2 SLP165 T02110189 $=
202005260603 SPECI KATL 260603Z 09008KT 8SM BKN008 BKN050 OVC180 21/19 A3006 RMK AO2 BKN008 V SCT T02060189 $=
202005260552 METAR KATL 260552Z 10006KT 8SM SCT006 SCT050 BKN180 21/19 A3006 RMK AO2 SLP171 60000 T02060189 10222 20206 58009 $=
202005260452 METAR KATL 260452Z 08010KT 8SM FEW006 BKN150 BKN200 21/19 A3007 RMK AO2 SLP174 T02110189 402940200 $=
202005260352 METAR KATL 260352Z 09009KT 8SM SCT150 BKN200 21/19 A3009 RMK AO2 SLP179 T02110189 $=
202005260252 METAR KATL 260252Z 09007KT 10SM BKN130 BKN200 21/18 A3009 RMK AO2 SLP180 60000 T02110183 53009 $=
202005260152 METAR KATL 260152Z 09006KT 10SM FEW080 BKN120 BKN200 21/18 A3007 RMK AO2 RAE01 SLP173 P0000 T02110183 $=
202005260052 METAR KATL 260052Z 11008KT 10SM -RA FEW070 BKN110 OVC200 21/18 A3006 RMK AO2 RAB05 SLP172 P0000 T02060183 $=
202005252352 METAR KATL 252352Z 09018G24KT 10SM FEW020CB BKN040 BKN150 OVC200 22/18 A3006 RMK AO2 SLP173 CB NW-NE DSNT S MOV NW TCU OHD-ALQDS 60000 T02220178 10294 20222 53016 $=
202005252252 METAR KATL 252252Z 17005KT 10SM FEW040 SCT070 BKN150 BKN250 23/19 A3003 RMK AO2 PK WND 10030/2159 RAB2154E18 SLP162 CB DSNT NE-SE W-NW P0000 T02330194 $=
202005252152 METAR KATL 252152Z 09011KT 10SM SCT048CB BKN080 BKN250 29/18 A3002 RMK AO2 SLP154 CB N-E-SE DSNT S-SW MOV W TCU OHD-ALQDS T02890183 $=
202005252052 METAR KATL 252052Z 11009G16KT 10SM SCT048TCU SCT080 SCT200 BKN250 29/17 A3002 RMK AO2 SLP154 CB DSNT SE NW TCU NW DSNT NE-SE SHRA DSNT NW T02890172 58023 $=
202005251952 METAR KATL 251952Z 11009KT 10SM SCT044TCU SCT065 BKN200 BKN250 29/18 A3004 RMK AO2 SLP162 TCU N-NE W-NW DSNT SW MDT CU ALQDS SHRA NE T02890178 $=
202005251852 METAR KATL 251852Z 13007KT 10SM SCT040TCU BKN060 BKN250 28/18 A3007 RMK AO2 SLP171 TCU NE NW MDT CU ALQDS T02830183=
202005251752 METAR KATL 251752Z 12009KT 10SM SCT034 BKN048 BKN140 BKN250 28/18 A3009 RMK AO2 SLP178 MDT CU ALQDS T02780183 10283 20206 58009=
202005251652 METAR KATL 251652Z 10008G17KT 10SM SCT030 BKN042 BKN140 BKN250 27/19 A3012 RMK AO2 SLP188 MDT CU NE-SE T02720189=
202005251552 METAR KATL 251552Z 08007KT 10SM SCT025 BKN035 BKN200 BKN250 26/19 A3012 RMK AO2 SLP190 T02610189=
202005251452 METAR KATL 251452Z 11007KT 10SM BKN017 BKN180 BKN250 25/19 A3011 RMK AO2 SLP188 CIG 015V019 T02500194 51008=
202005251400 SPECI KATL 251400Z 09009KT 10SM BKN015 BKN110 BKN180 BKN250 23/19 A3011 RMK AO2 T02330189=
202005251352 METAR KATL 251352Z 08009KT 10SM SCT013 SCT110 BKN180 BKN250 23/19 A3011 RMK AO2 SLP187 T02330189=
202005251252 METAR KATL 251252Z 09009KT 10SM FEW010 FEW100 SCT140 SCT200 SCT250 22/19 A3010 RMK AO2 SLP186 T02220189=
202005251152 METAR KATL 251152Z 10005KT 10SM FEW120 SCT150 SCT200 21/18 A3009 RMK AO2 SLP182 60066 70068 T02060178 10222 20200 53023=
202005251052 METAR KATL 251052Z 10005KT 10SM FEW070 SCT120 SCT200 SCT250 20/18 A3006 RMK AO2 SLP173 T02000178=
202005250952 METAR KATL 250952Z 09008KT 10SM FEW070 SCT120 SCT200 21/18 A3004 RMK AO2 SLP161 T02060183=
202005250852 METAR KATL 250852Z 09004KT 10SM FEW080 FEW120 BKN220 21/19 A3002 RMK AO2 SLP155 60066 T02060189 56017=
202005250752 METAR KATL 250752Z 09006KT 10SM FEW120 BKN220 21/19 A3003 RMK AO2 RAE0657 SLP156 P0000 T02110189=
202005250652 METAR KATL 250652Z 10004KT 10SM -RA FEW044 SCT080 BKN110 BKN220 22/19 A3005 RMK AO2 TSB10E25 SLP167 TS DSPTD P0066 T02170189=
202005250626 SPECI KATL 250626Z 00000KT 8SM -RA FEW029 SCT037 BKN070 BKN130 BKN200 22/19 A3007 RMK AO2 TSB10E25 TS DSIPT P0053 T02170194=
202005250610 SPECI KATL 250610Z 19008KT 3SM R09R/4000VP6000FT +TSRA BR BKN029CB BKN041 OVC100 22/19 A3007 RMK AO2 TSB10 OCNL LTGIC OHD-W TS OHD-W MOV NW P0045 T02170194=
202005250552 METAR KATL 250552Z 13007KT 4SM +RA SCT045TCU BKN070 BKN100 BKN220 22/18 A3007 RMK AO2 RAB47 SLP172 TCU OHD-E-S P0002 60002 T02220183 10239 20217 51005=
202005250452 METAR KATL 250452Z 10004KT 10SM SCT050 SCT120 BKN180 BKN210 23/17 A3007 RMK AO2 SLP171 T02280172 403110206=
202005250352 METAR KATL 250352Z 07007KT 10SM SCT047 BKN055 BKN250 23/17 A3008 RMK AO2 SLP173 T02280172=
202005250252 METAR KATL 250252Z 31003KT 10SM FEW045 SCT120 SCT180 BKN250 22/17 A3005 RMK AO2 SLP168 LTG DSNT E CB DSNT E T02170172 53013=
202005250152 METAR KATL 250152Z 27003KT 10SM FEW045 BKN120 BKN180 BKN250 23/17 A3003 RMK AO2 SLP160 LTG DSNT NE AND E CB DSNT NE AND E T02330167=
202005250052 METAR KATL 250052Z 11005KT 10SM SCT045 BKN100 BKN120 BKN180 BKN250 23/17 A3002 RMK AO2 SLP156 SHRA SE T02330167=
202005242352 METAR KATL 242352Z 18003KT 10SM SCT045 SCT120 BKN180 BKN250 23/17 A3002 RMK AO2 LTG DSNT E AND NW SLP156 CB DSNT NE AND NW T02280167 10311 20228 58007=
202005242252 METAR KATL 242252Z 25009G24KT 10SM SCT120 23/17 A3004 RMK AO2 LTG DSNT ALQDS SLP163 T02330167=
202005242152 METAR KATL 242152Z 22004KT 10SM SCT045 SCT140 BKN170 BKN250 29/18 A3003 RMK AO2 LTG DSNT S AND SW SLP160 CB DSNT NE AND S-W TCU DSNT NE T02890178=
202005242052 METAR KATL 242052Z 06003KT 10SM SCT045TCU BKN170 BKN250 31/19 A3004 RMK AO2 LTG DSNT NE AND S AND SW SLP160 CB DSNT NE & S-SW TCU NE & W-NW T03060189 56019=
202005241952 METAR KATL 241952Z 00000KT 10SM SCT046TCU BKN200 31/19 A3005 RMK AO2 LTG DSNT N TSB09E23 SLP165 TS DSPTD CB DSNT N TCU ALQDS T03060189=
202005241928 SPECI KATL 241928Z 00000KT 10SM SCT044TCU BKN250 31/19 A3005 RMK AO2 LTG DSNT N AND NE TSB09E23 TS DSPTD CB DSNT N-NE TCU ALQDS T03060194=
202005241912 SPECI KATL 241912Z 00000KT 10SM TS SCT044CB BKN250 30/19 A3007 RMK AO2 LTG DSNT N TSB09 OCNL LTGCG N TS N MOV N T03000194=
202005241852 METAR KATL 241852Z 20005KT 10SM BKN044TCU BKN250 29/19 A3007 RMK AO2 LTG DSNT N AND S SLP173 CB DSNT N & S TCU SE-S T02940189=
202005241752 METAR KATL 241752Z 25007KT 10SM SCT044TCU BKN250 30/20 A3009 RMK AO2 SLP180 TCU SE T03000200 10300 20211 58005=
202005241652 METAR KATL 241652Z VRB06KT 10SM FEW040 SCT150 BKN250 29/19 A3010 RMK AO2 SLP182 T02940189=
202005241552 METAR KATL 241552Z VRB03KT 10SM FEW150 BKN250 29/19 A3011 RMK AO2 SLP185 T02890189=
202005241452 METAR KATL 241452Z 12003KT 10SM FEW200 BKN250 27/18 A3011 RMK AO2 SLP185 T02670183 50002=
202005241352 METAR KATL 241352Z 00000KT 10SM FEW200 BKN250 25/17 A3011 RMK AO2 SLP186 T02500167=
202005241252 METAR KATL 241252Z 00000KT 10SM FEW200 BKN250 23/18 A3011 RMK AO2 SLP186 T02280178=
202005241152 METAR KATL 241152Z 00000KT 10SM FEW150 BKN220 21/17 A3010 RMK AO2 SLP184 VIRGA ALQDS T02110172 10222 20206 53013=
202005241052 METAR KATL 241052Z 02004KT 10SM FEW110 SCT150 BKN200 BKN250 21/17 A3008 RMK AO2 SLP176 T02110167=
202005240952 METAR KATL 240952Z 00000KT 10SM CLR 21/17 A3007 RMK AO2 SLP171 T02110167=
202005240852 METAR KATL 240852Z 08003KT 10SM FEW150 BKN200 21/17 A3006 RMK AO2 SLP170 T02110167 58015=
202005240752 METAR KATL 240752Z 33005KT 10SM FEW055 SCT150 BKN200 21/17 A3008 RMK AO2 SLP177 T02060167=
202005240652 METAR KATL 240652Z 32009KT 10SM SCT036 SCT080 BKN130 BKN200 22/17 A3010 RMK AO2 SLP181 T02170167=
202005240552 METAR KATL 240552Z 30012KT 10SM SCT044 BKN150 BKN200 BKN250 22/17 A3011 RMK AO2 SLP186 OCNL LTG DSNT N AND S-SW CB DSNT N AND S-SW T02220172 10283 20222 51006=
202005240452 METAR KATL 240452Z 26010KT 10SM SCT045 SCT070 SCT120 BKN250 24/19 A3010 RMK AO2 LTG DSNT SW AND W SLP184 CB DSNT SW-W T02390189 403000183=
202005240352 METAR KATL 240352Z 00000KT 10SM SCT043 SCT250 25/20 A3010 RMK AO2 LTG DSNT SW SLP181 CB DSNT SW T02500200=
202005240252 METAR KATL 240252Z 00000KT 10SM SCT045TCU BKN250 26/20 A3009 RMK AO2 LTG DSNT NE AND SW SLP178 TCU S CB DSNT NE AND SW T02610200 53019=
202005240152 METAR KATL 240152Z 25003KT 10SM FEW045TCU SCT250 26/19 A3007 RMK AO2 SLP172 TCU NE AND CB DSNT W T02610194=
202005240116 SPECI KATL 240116Z 22004KT 10SM SCT045 SCT070 BKN250 26/19 A3006 RMK AO2 TS DSIPTD CB DSNT W T02610194=
202005240052 METAR KATL 240052Z 20003KT 10SM VCTS SCT045CB SCT070 BKN250 27/19 A3005 RMK AO2 SLP166 OCNL LTGIC VC E TS VC E MOV N CB DSNT W T02670194=
202005240044 SPECI KATL 240044Z 20004KT 10SM VCTS SCT040CB SCT070 SCT250 27/19 A3004 RMK AO2 OCNL LTGIC VC E TS VC E MOV N CB DSNT W T02670194=
202005232352 METAR KATL 232352Z 21005KT 10SM SCT042TCU SCT070 SCT250 28/19 A3003 RMK AO2 LTG DSNT NW SLP161 TCU N-NE CB DSNT W-NW T02830189 10300 20283 55009=
202005232252 METAR KATL 232252Z 21005KT 10SM SCT042TCU SCT065 BKN250 29/18 A3002 RMK AO2 SLP156 TCU W AND DSNT S CB DSNT NW T02940183=
202005232152 METAR KATL 232152Z 27003KT 10SM SCT040TCU SCT065 SCT250 29/19 A3004 RMK AO2 LTG DSNT N SLP162 TCU W MDT CU S SHRA NW T02890189=
202005232052 METAR KATL 232052Z 00000KT 10SM SCT041TCU SCT250 29/19 A3006 RMK AO2 SLP170 TCU S-W T02890194 58017=
202005231952 METAR KATL 231952Z 00000KT 10SM SCT040TCU SCT055 SCT250 28/19 A3008 RMK AO2 SLP176 TCU SW-W T02830189=
202005231852 METAR KATL 231852Z 27007KT 10SM SCT036 29/19 A3010 RMK AO2 SLP184 T02890194=
202005231752 METAR KATL 231752Z 31009KT 10SM SCT032 28/20 A3011 RMK AO2 SLP188 T02830200 10283 20194 58010=
202005231652 METAR KATL 231652Z 27009KT 10SM SCT033 BKN040 27/21 A3014 RMK AO2 SLP197 T02720206=
202005231640 SPECI KATL 231640Z 29009KT 10SM FEW023 BKN030 27/21 A3014 RMK AO2 T02720206=
202005231552 METAR KATL 231552Z 27009KT 10SM BKN025 27/20 A3015 RMK AO2 SLP199 T02670200=
202005231452 METAR KATL 231452Z 29009KT 10SM FEW030 FEW150 SCT250 26/19 A3014 RMK AO2 SLP200 T02560189 50008=
202005231352 METAR KATL 231352Z 29010KT 10SM FEW150 BKN250 24/18 A3015 RMK AO2 SLP202 T02390178=
202005231252 METAR KATL 231252Z 24005KT 10SM FEW065 BKN200 BKN250 22/18 A3014 RMK AO2 SLP198 T02170178=
202005231152 METAR KATL 231152Z 18003KT 10SM FEW050 FEW150 SCT200 SCT250 19/17 A3012 RMK AO2 SLP192 70028 T01940172 10200 20183 51018=
202005231052 METAR KATL 231052Z 00000KT 10SM FEW100 SCT180 SCT250 18/17 A3010 RMK AO2 SLP184 T01830167=
202005230952 METAR KATL 230952Z 23003KT 10SM FEW050 SCT100 SCT180 18/17 A3008 RMK AO2 SLP179 T01830167=
202005230852 METAR KATL 230852Z 24003KT 10SM FEW004 FEW050 SCT180 19/17 A3006 RMK AO2 SLP172 T01890172 53002=
202005230752 METAR KATL 230752Z 18006KT 10SM FEW007 SCT050 SCT180 19/18 A3005 RMK AO2 SLP168 T01940178=
202005230652 METAR KATL 230652Z 21003KT 10SM FEW050 FEW100 BKN150 BKN200 20/18 A3005 RMK AO2 SLP165 T02000178=
202005230552 METAR KATL 230552Z 03008KT 10SM FEW120 BKN180 BKN250 20/18 A3006 RMK AO2 SLP170 60028 T02000183 10239 20194 58021=
202005230452 METAR KATL 230452Z 13003KT 10SM FEW120 BKN200 BKN250 20/18 A3008 RMK AO2 PRESFR SLP176 T02000178 403000178=
202005230352 METAR KATL 230352Z 27008KT 10SM FEW100 SCT200 BKN250 21/18 A3012 RMK AO2 RAB08E22 SLP189 P0000 T02060178=
202005230252 METAR KATL 230252Z 19006KT 10SM FEW050 BKN090 BKN120 OVC200 20/18 A3012 RMK AO2 SLP192 TSE20 P0001 60028 T02000183 51027=
202005230220 SPECI KATL 230220Z 22004KT 8SM -RA FEW050 SCT080 BKN110 OVC150 20/18 A3011 RMK AO2 TSE20 TS DSIPTD P0001 T02000178=
202005230152 METAR KATL 230152Z 00000KT 7SM -TSRA FEW025CB SCT050 BKN110 OVC150 20/17 A3010 RMK AO2 RAB18 TSB13 SLP185 OCNL LTGICCG E-SE TS E-SE MOV E P0027 T02000172=
202005230116 SPECI KATL 230116Z 26016G22KT 10SM TS SCT025CB BKN050 BKN150 OVC200 23/16 A3011 RMK AO2 TSB13 PRESRR OCNL LTGICCG SW-NW TS SW-NW MOV E T02330161=
202005230052 METAR KATL 230052Z 22004KT 10SM FEW025 SCT140 BKN200 OVC250 23/16 A3007 RMK AO2 LTG DSNT SW AND W SLP176 CB DSNT SW-NW T02280161=
202005222352 METAR KATL 222352Z 19009KT 10SM FEW025 SCT140 BKN200 BKN250 24/17 A3004 RMK AO2 LTG DSNT NW RAB26E35 SLP165 VIRGA E-S-SW CB DSNT E-SE W-NW P0000 60000 T02390167 10300 20239 55000=
202005222252 METAR KATL 222252Z 00000KT 10SM FEW015 BKN045 BKN250 27/19 A3002 RMK AO2 LTG DSNT S SLP157 CB DSNT SE-S W T02670189=
202005222152 METAR KATL 222152Z VRB03KT 10SM FEW045 SCT200 BKN250 27/19 A3003 RMK AO2 LTG DSNT SW RAB25E40 SLP162 CB DSNT SW P0000 T02670189=
202005222052 METAR KATL 222052Z VRB03KT 10SM FEW042 SCT075 BKN180 BKN250 27/20 A3004 RMK AO2 RAE40 SLP164 VIRGA DSNT N-E-S CB DSNT SW SHRA DSNT S-SW P0000 60000 T02670200 58007=
202005221952 METAR KATL 221952Z 34008KT 9SM -RA SCT048TCU SCT075 BKN180 BKN250 27/19 A3007 RMK AO2 LTG DSNT NW RAB50 SLP173 CB DSNT NW TCU E-SE P0000 T02720194=
202005221852 METAR KATL 221852Z 25010G18KT 10SM SCT050 SCT080 SCT180 BKN250 29/18 A3007 RMK AO2 SLP173 CB DSNT SW-W MDT CU SW-NW-NE T02940178=
202005221752 METAR KATL 221752Z 23007KT 10SM FEW040 FEW060 SCT200 BKN250 29/18 A3006 RMK AO2 SLP171 CB DSNT NE TCU DSNT N-NE MDT CU DSNT NW-N T02890183 10294 20183 58005=
202005221652 METAR KATL 221652Z 25011KT 10SM FEW032 SCT090 SCT200 BKN250 28/18 A3008 RMK AO2 SLP176 CB DSNT N-NE T02780178=
202005221552 METAR KATL 221552Z 22008KT 10SM FEW024 SCT050 SCT075 BKN250 27/18 A3008 RMK AO2 SLP176 TCU DSNT S SW ACC S T02720183=
202005221452 METAR KATL 221452Z 23008KT 10SM FEW022 SCT048 SCT075 BKN250 26/19 A3008 RMK AO2 SLP178 ACC SW-W T02560194 51000=
202005221352 METAR KATL 221352Z 22008KT 10SM FEW014 FEW070 SCT180 SCT250 23/19 A3008 RMK AO2 SLP179 T02330194=
202005221252 METAR KATL 221252Z 16003KT 10SM FEW012 SCT060 BKN075 BKN180 21/17 A3008 RMK AO2 SLP180 TCU DSNT W T02060172=
202005221152 METAR KATL 221152Z 11004KT 10SM SCT011 BKN048 BKN080 BKN250 18/16 A3008 RMK AO2 SLP179 RAE24 ACC NE AND SE P0000 60001 70001 T01830161 10189 20178 51010=
202005221109 SPECI KATL 221109Z 11004KT 10SM -RA FEW011 SCT031 BKN120 BKN250 18/16 A3006 RMK AO2 TS DSIPTD P0000 T01830156=
202005221052 METAR KATL 221052Z 11004KT 10SM VCTS -RA SCT029CB BKN044 18/16 A3007 RMK AO2 RAE0953B31 SLP174 OCNL LTGIC VC S-SW TS VC S-SW MOV E P0001 T01830156=
202005220952 METAR KATL 220952Z 11004KT 10SM -RA BKN050 BKN060 19/15 A3005 RMK AO2 RAB44 SLP168 P0000 T01890150=
202005220852 METAR KATL 220852Z 12004KT 10SM BKN055 BKN070 19/14 A3005 RMK AO2 LTG DSNT SW SLP169 T01890144 56006=
202005220752 METAR KATL 220752Z 10006KT 10SM BKN070 BKN090 19/14 A3006 RMK AO2 SLP172 T01890144=
202005220652 METAR KATL 220652Z 10005KT 10SM SCT075 BKN090 BKN100 18/14 A3006 RMK AO2 SLP172 T01830144=
202005220552 METAR KATL 220552Z 09005KT 10SM FEW050 SCT080 SCT250 18/15 A3007 RMK AO2 SLP177 T01830150 10228 20183 58000=
202005220452 METAR KATL 220452Z 08005KT 10SM FEW080 FEW250 18/15 A3007 RMK AO2 SLP176 T01830150 402390122=
202005220352 METAR KATL 220352Z 12006KT 10SM SCT080 SCT250 19/15 A3008 RMK AO2 SLP180 T01940150=
202005220252 METAR KATL 220252Z 10005KT 10SM SCT080 SCT250 19/15 A3007 RMK AO2 SLP178 T01940150 53017=
202005220152 METAR KATL 220152Z 09006KT 10SM FEW070 20/15 A3004 RMK AO2 SLP169 T02000150=
202005220052 METAR KATL 220052Z 10006KT 10SM FEW060 SCT085 21/15 A3004 RMK AO2 SLP167 T02110150=
202005212352 METAR KATL 212352Z 13003KT 10SM FEW035 SCT070 SCT090 23/14 A3002 RMK AO2 SLP161 MDT CU NE T02280144 10239 20211 53001=
202005212252 METAR KATL 212252Z 20004KT 10SM FEW035 BKN070 BKN250 23/14 A3002 RMK AO2 SLP159 TCU DSNT SE T02330144=
202005212152 METAR KATL 212152Z 21004KT 10SM FEW035 SCT060 SCT250 23/14 A3002 RMK AO2 SLP159 MDT CU NW-N T02330144=
202005212052 METAR KATL 212052Z 19007KT 10SM BKN036 BKN060 BKN250 23/15 A3002 RMK AO2 SLP160 MDT CU OHD-ALQDS T02330150 56014=
202005211952 METAR KATL 211952Z 17005KT 10SM BKN034 BKN046 BKN250 22/14 A3002 RMK AO2 SLP162 MDT CU SE-SW-NW T02220139=
202005211852 METAR KATL 211852Z 18005KT 10SM BKN033 BKN120 BKN250 23/15 A3004 RMK AO2 SLP168 T02330150=
202005211752 METAR KATL 211752Z VRB03KT 10SM SCT028 SCT120 SCT250 21/13 A3006 RMK AO2 SLP175 T02110133 10217 20133 51003=
202005211652 METAR KATL 211652Z 00000KT 10SM SCT025 SCT200 21/13 A3006 RMK AO2 SLP175 T02060133=
202005211552 METAR KATL 211552Z 07005KT 10SM BKN018 BKN200 19/13 A3007 RMK AO2 SLP178 T01890128=
202005211519 SPECI KATL 211519Z 08004KT 10SM BKN015 BKN200 18/12 A3006 RMK AO2 T01780122=
202005211452 METAR KATL 211452Z 07005KT 10SM OVC011 17/12 A3005 RMK AO2 SLP174 BINOVC T01670122 50010=
202005211352 METAR KATL 211352Z 09004KT 10SM OVC010 15/12 A3005 RMK AO2 SLP174 CIG 009V012 T01500117=
202005211252 METAR KATL 211252Z VRB03KT 10SM BKN008 OVC012 14/12 A3004 RMK AO2 PRESRR SLP172 CIG 007V010 T01440117=
202005211152 METAR KATL 211152Z 10004KT 10SM BKN007 OVC010 13/11 A3002 RMK AO2 SLP164 DZE12 P0000 60000 T01330111 10133 20122 53018=
202005211052 METAR KATL 211052Z 04004KT 7SM -DZ BKN005 OVC010 13/11 A3000 RMK AO2 SLP156 PCPN VRY LGT P0000 T01280111=
202005210952 METAR KATL 210952Z 02004KT 6SM -DZ BR OVC006 13/11 A2998 RMK AO2 SLP150 CIG 004V008 PCPN VRY LGT P0000 T01280111=
202005210852 METAR KATL 210852Z 03005KT 3SM -DZ BR BKN005 OVC010 12/11 A2996 RMK AO2 SLP145 CIG 004V006 P0000 60000 T01220111 56008=
202005210752 METAR KATL 210752Z 07006KT 6SM -DZ BR OVC005 12/11 A2997 RMK AO2 SLP146 DZB45 PCPN VRY LGT P0000 T01220106=
202005210652 METAR KATL 210652Z 06008KT 10SM OVC007 12/10 A2997 RMK AO2 SLP145 CIG 006V008 T01220100=
202005210552 METAR KATL 210552Z 06007KT 10SM BKN008 OVC024 12/11 A2999 RMK AO2 SLP152 DZE20 CIG 006V010 BINOVC P0000 60000 T01220106 10144 20122 58002=
202005210452 METAR KATL 210452Z 09006KT 4SM -DZ BR OVC006 12/11 A3000 RMK AO2 SLP156 P0000 T01220106 401830122=
202005210352 METAR KATL 210352Z 10007KT 9SM -DZ OVC008 13/10 A3000 RMK AO2 DZB50 SLP156 P0000 T01280100=
202005210252 METAR KATL 210252Z 07008KT 10SM BKN009 OVC015 13/10 A2999 RMK AO2 SLP154 60000 T01330100 53007=
202005210152 METAR KATL 210152Z 07009KT 10SM SCT008 BKN012 BKN020 BKN200 13/10 A2998 RMK AO2 DZE19 SLP149 P0000 T01330100=
202005210052 METAR KATL 210052Z 07012KT 6SM -DZ BR SCT006 BKN010 OVC018 13/12 A2998 RMK AO2 DZB23 SLP149 P0000 T01330117=
202005210024 SPECI KATL 210024Z 06010KT 7SM -DZ BKN009 OVC015 14/11 A2998 RMK AO2 DZB23 P0000 T01390111=
202005202352 METAR KATL 202352Z 07009KT 10SM BKN011 OVC018 14/11 A2997 RMK AO2 SLP147 T01440106 10167 20144 53008=
202005202252 METAR KATL 202252Z 06008KT 10SM OVC011 15/11 A2996 RMK AO2 SLP143 T01500111=
202005202152 METAR KATL 202152Z 06011KT 10SM BKN012 OVC018 16/11 A2995 RMK AO2 SLP139 T01560111=
202005202052 METAR KATL 202052Z 08011KT 10SM BKN012 OVC018 16/12 A2995 RMK AO2 SLP139 T01560117 55000=
202005201952 METAR KATL 201952Z 07011KT 10SM OVC014 16/12 A2994 RMK AO2 SLP136 T01610117=
202005201852 METAR KATL 201852Z 06009KT 10SM OVC013 17/12 A2995 RMK AO2 SLP137 T01670122=
202005201752 METAR KATL 201752Z 06009KT 10SM OVC012 16/12 A2995 RMK AO2 SLP138 60000 T01610122 10161 20144 51003=
202005201652 METAR KATL 201652Z 08015G18KT 10SM OVC013 16/12 A2995 RMK AO2 SLP136 T01610117=
202005201552 METAR KATL 201552Z 08011KT 10SM OVC012 16/12 A2995 RMK AO2 SLP138 T01560117=
202005201513 SPECI KATL 201513Z 08014G19KT 10SM OVC012 16/12 A2994 RMK AO2 T01560117=
202005201452 METAR KATL 201452Z 07012KT 10SM OVC009 15/12 A2994 RMK AO2 SLP134 60000 T01500117 51018=
202005201352 METAR KATL 201352Z 08014KT 10SM OVC008 15/12 A2992 RMK AO2 DZE04 SLP127 P0000 T01500122=
202005201252 METAR KATL 201252Z 06014KT 8SM -DZ OVC007 15/12 A2991 RMK AO2 DZB45 SLP124 CIG 006V008 P0000 T01500122=
202005201152 METAR KATL 201152Z 07012KT 10SM OVC007 15/12 A2988 RMK AO2 SLP114 CIG 006V009 60001 70022 T01500122 10167 20144 53015=
202005201052 METAR KATL 201052Z 05010KT 10SM OVC007 15/12 A2986 RMK AO2 SLP106 T01500122=
202005200952 METAR KATL 200952Z 07011KT 10SM OVC007 15/13 A2985 RMK AO2 SLP101 CIG 006V009 T01500128=
202005200852 METAR KATL 200852Z 04010KT 10SM OVC007 15/13 A2984 RMK AO2 SLP097 60001 T01500133 55002=
202005200752 METAR KATL 200752Z 05012KT 10SM BKN007 OVC012 16/13 A2984 RMK AO2 SLP096 CIG 006V009 T01560133=
202005200652 METAR KATL 200652Z 05013KT 7SM BKN005 OVC025TCU 17/15 A2983 RMK AO2 LTG DSNT E RAB12E52 SLP096 CIG 004V007 TCU SE-S P0001 T01670150 $=
202005200606 SPECI KATL 200606Z 09010KT 10SM BKN005 BKN023CB BKN055 17/15 A2984 RMK AO2 BKN005 V SCT CB VC SW MOV NE T01670150 $=
202005200552 METAR KATL 200552Z 08010KT 10SM SCT009 SCT023 BKN060 17/15 A2984 RMK AO2 SLP099 TSB02E48 OCNL LTGIC DSNT NE-E TS MOV NE-E P0021 60021 T01670150 10217 20167 55003 $=
202005200550 SPECI KATL 200550Z 08011KT 10SM FEW009 BKN023 OVC060 17/15 A2984 RMK AO2 TSB02E48 OCNL LTGIC DSNT NE-E TS MOV NE-E P0021 $=
202005200529 SPECI KATL 200529Z 07007KT 5SM TSRA BR FEW009 SCT028CB OVC037 17/15 A2986 RMK AO2 OCNL LTGIC NE-E TS NE-E MOV NE P0012 T01720150=
202005200519 SPECI KATL 200519Z 02008KT 3SM +RA BR FEW025CB BKN040 OVC050 17/15 A2986 RMK AO2 TSB02E17 FRQ LTGICCG SW TS SW MOV NE P0006 T01720150=
202005200504 SPECI KATL 200504Z 02008KT 7SM -TSRA FEW025CB BKN040 OVC050 18/15 A2985 RMK AO2 TSB02 FRQ LTGICCG SW TS SW MOV NE P0001 T01780150=
202005200452 METAR KATL 200452Z 07009KT 9SM -RA FEW025 BKN040 BKN100 OVC200 18/14 A2984 RMK AO2 RAB51 SLP097 CB DSNT S-W P0000 T01780144 402440172=
202005200352 METAR KATL 200352Z 05007KT 10SM FEW025 BKN055 BKN110 BKN250 19/14 A2985 RMK AO2 LTG DSNT N SLP101 CB DSNT N NE-E T01940144=
202005200252 METAR KATL 200252Z 34008KT 10SM FEW028TCU BKN045 BKN090 BKN250 20/14 A2985 RMK AO2 RAB12E51 SLP101 TCU N-NE P0000 60000 T02000139 53010=
202005200152 METAR KATL 200152Z 36005KT 10SM SCT055 BKN090 BKN250 22/12 A2983 RMK AO2 SLP094 T02170122=
202005200052 METAR KATL 200052Z 30005KT 10SM SCT050 BKN065 BKN080 22/12 A2983 RMK AO2 SLP096 T02170122=
202005192352 METAR KATL 192352Z 29007KT 10SM FEW045 SCT070 22/12 A2982 RMK AO2 SLP091 T02170122 10244 20217 53005=
202005192252 METAR KATL 192252Z 25007KT 10SM FEW040 SCT060 SCT250 23/12 A2981 RMK AO2 SLP086 T02280117=
202005192152 METAR KATL 192152Z 28012KT 10SM FEW040 SCT065 SCT200 23/12 A2981 RMK AO2 SLP088 T02280122=
202005192052 METAR KATL 192052Z 27010G17KT 10SM FEW042 SCT060 23/13 A2980 RMK AO2 SLP085 T02330128 58002=
202005191952 METAR KATL 191952Z 28009G21KT 10SM FEW042 BKN055 23/13 A2981 RMK AO2 SLP086 T02330128=
202005191852 METAR KATL 191852Z 26012G17KT 10SM BKN055 24/13 A2981 RMK AO2 SLP087 T02390128=
202005191752 METAR KATL 191752Z 27014KT 10SM BKN045 23/12 A2981 RMK AO2 SLP087 T02280122 10233 20172 50004=
202005191652 METAR KATL 191652Z 28012KT 10SM SCT038 23/13 A2981 RMK AO2 SLP088 T02280133=
202005191552 METAR KATL 191552Z 29011KT 10SM SCT034 22/13 A2981 RMK AO2 SLP088 T02220133=
202005191452 METAR KATL 191452Z 28011KT 10SM SCT023 21/14 A2980 RMK AO2 SLP083 T02110144 51007=
202005191434 SPECI KATL 191434Z 27010KT 10SM SCT020 BKN030 21/14 A2980 RMK AO2 T02060144=
202005191352 METAR KATL 191352Z 27008KT 10SM BKN016 BKN024 BKN033 19/15 A2980 RMK AO2 SLP084 T01890150=
202005191331 SPECI KATL 191331Z 29008KT 10SM SCT016 BKN024 19/14 A2979 RMK AO2 T01940144=
202005191252 METAR KATL 191252Z 29006KT 10SM SCT012 SCT018 18/15 A2979 RMK AO2 SLP080 T01830150=
202005191247 SPECI KATL 191247Z 28006KT 10SM SCT012 SCT018 18/15 A2979 RMK AO2=
202005191152 METAR KATL 191152Z 27005KT 10SM SCT009 OVC012 17/16 A2978 RMK AO2 SLP076 CIG 010V014 BINOVC 60013 70038 T01720156 10200 20172 53013=
202005191146 SPECI KATL 191146Z 27005KT 10SM SCT009 OVC012 17/15 A2977 RMK AO2 CIG 010V014=
202005191052 METAR KATL 191052Z 29011KT 10SM BKN007 BKN012 OVC080 17/16 A2975 RMK AO2 SLP069 CIG 005V009 T01720156=
202005191011 SPECI KATL 191011Z 29008KT 10SM BKN007 BKN011 OVC080 18/16 A2974 RMK AO2 T01780161=
202005190952 METAR KATL 190952Z 31008KT 10SM SCT007 BKN065 BKN080 18/16 A2974 RMK AO2 SLP064 SCT007 V BKN T01780161=
202005190852 METAR KATL 190852Z 30011KT 10SM BKN006 OVC020 18/17 A2974 RMK AO2 RAE16B45E52 SLP061 P0003 60013 T01830167 55006 $=
202005190831 SPECI KATL 190831Z 28008KT 8SM BKN007 BKN014 BKN050 18/17 A2973 RMK AO2 RAE16 P0003 T01830167 $=
202005190809 SPECI KATL 190809Z 30007KT 4SM -RA BR SCT005 BKN012 OVC016 19/17 A2973 RMK AO2 P0003 T01890172 $=
202005190759 SPECI KATL 190759Z 30011G17KT 4SM -RA BR BKN004 OVC011 19/17 A2973 RMK AO2 P0003 T01940172 $=
202005190752 METAR KATL 190752Z 25007KT 4SM R09R/6000VP6000FT -RA BR BKN004 OVC010 20/19 A2973 RMK AO2 RAB42 SLP057 CIG 003V006 P0004 T02000189=
202005190746 SPECI KATL 190746Z 00000KT 2SM R09R/5000VP6000FT +RA BR OVC006 20/19 A2973 RMK AO2 RAB42 P0003=
202005190652 METAR KATL 190652Z 17003KT 8SM OVC004 20/18 A2974 RMK AO2 RAB0553E13 SLP061 CIG 003V006 P0006 T02000183=
202005190619 SPECI KATL 190619Z 15003KT 8SM BKN004 OVC014 20/18 A2974 RMK AO2 RAB0553E13 P0006 T02000183=
202005190612 SPECI KATL 190612Z 13003KT 5SM -RA BR BKN006 OVC015 19/18 A2975 RMK AO2 RAB0553 P0006 T01940183=
202005190559 SPECI KATL 190559Z 13003KT 2SM RA BR BKN006TCU OVC015 19/18 A2975 RMK AO2 RAB53 TCU OHD-N P0005 T01940183=
202005190552 METAR KATL 190552Z 14005KT 5SM BR OVC006 20/18 A2975 RMK AO2 SLP067 CIG 005V007 SHRA W-NW 60000 T02000183 10217 20194 58013=
202005190452 METAR KATL 190452Z 14005KT 10SM BKN007 OVC020 20/18 A2978 RMK AO2 RAB02E23 SLP074 P0000 T02000178 402610194=
202005190352 METAR KATL 190352Z 13006KT 10SM SCT007 BKN011 OVC030 20/18 A2978 RMK AO2 SLP077 T02000178=
202005190344 SPECI KATL 190344Z 14004KT 10SM SCT007 BKN012 OVC030 20/18 A2978 RMK AO2 T02000178=
202005190252 METAR KATL 190252Z 15005KT 10SM FEW005 SCT018 BKN025 OVC200 21/18 A2979 RMK AO2 SLP081 T02060178 50005=
202005190152 METAR KATL 190152Z 15006KT 10SM FEW005 SCT020 BKN032 BKN200 21/18 A2980 RMK AO2 SLP082 T02060183=
202005190052 METAR KATL 190052Z 16005KT 10SM FEW006 BKN090 BKN150 BKN250 21/18 A2978 RMK AO2 SLP078 T02110178=
202005182352 METAR KATL 182352Z 15005KT 10SM FEW006 SCT110 SCT150 BKN250 22/18 A2978 RMK AO2 SLP076 60025 T02170178 10261 20200 51002=
202005182252 METAR KATL 182252Z VRB04KT 10SM FEW007 SCT110 BKN150 BKN250 22/18 A2977 RMK AO2 SLP075 CB DSNT N-E T02170183=
202005182152 METAR KATL 182152Z 21010KT 10SM FEW005 SCT060 BKN150 BKN200 21/18 A2978 RMK AO2 PK WND 20030/2059 RAB00E38 TSB04E38 SLP078 CB DSNT NW-NE-E P0025 T02110183=
202005182138 SPECI KATL 182138Z 20006KT 10SM FEW006 SCT060 BKN150 OVC200 21/18 A2979 RMK AO2 PK WND 20030/2059 RAB00E38 TSB04E38 TS MOV NE P0025 T02060183=
202005182118 SPECI KATL 182118Z 17011KT 4SM TSRA BR SCT020CB BKN032 BKN150 OVC200 20/18 A2980 RMK AO2 PK WND 20030/2059 RAB00 TSB04 VIS LWR NW-NE-E OCNL LTGICCG NW-NE-E TS NW-NE-E MOV NE P0024 T02000183=
202005182106 SPECI KATL 182106Z 19011G30KT 2SM R09R/3500VP6000FT +TSRA SCT025CB BKN035 BKN200 21/18 A2980 RMK AO2 PK WND 20030/2059 RAB00 TSB04 PRESRR OCNL LTGICCG SE-OHD-NW TS SE-OHD-NW MOV NE P0005 T02060178=
202005182052 METAR KATL 182052Z 19009KT 10SM VCTS BKN030 BKN200 26/19 A2977 RMK AO2 LTG DSNT SE AND S SLP073 CB DSNT SE-S T02560189 58019=
202005181952 METAR KATL 181952Z 15007KT 10SM SCT028 BKN040 OVC250 26/19 A2980 RMK AO2 SLP083 T02560189=
202005181852 METAR KATL 181852Z 16009KT 10SM SCT026 BKN040 OVC200 24/18 A2982 RMK AO2 SLP088 T02440183=
202005181752 METAR KATL 181752Z 18010KT 10SM SCT024 BKN090 OVC200 25/18 A2983 RMK AO2 SLP093 T02500178 10250 20206 58016=
202005181714 SPECI KATL 181714Z 18011KT 10SM SCT015 BKN120 BKN250 24/19 A2985 RMK AO2 T02440194=
202005181652 METAR KATL 181652Z 17008KT 10SM BKN015 BKN160 BKN250 24/19 A2986 RMK AO2 LTG DSNT N SLP102 T02440194=
202005181552 METAR KATL 181552Z 18008KT 10SM SCT011 BKN017 OVC035 23/19 A2989 RMK AO2 SLP113 T02330194=
202005181539 SPECI KATL 181539Z 17007KT 10SM FEW011 BKN017 OVC023 23/19 A2989 RMK AO2 T02330194=
202005181519 SPECI KATL 181519Z 16008KT 10SM FEW009 SCT019 BKN034 23/19 A2989 RMK AO2 T02330194=
202005181452 METAR KATL 181452Z 20005KT 10SM FEW011 BKN016 OVC095 23/19 A2988 RMK AO2 SLP110 BINOVC T02280194 56003=
202005181449 SPECI KATL 181449Z 20007KT 10SM FEW010 BKN016 OVC095 23/19 A2988 RMK AO2 BINOVC=
202005181418 SPECI KATL 181418Z 19007KT 10SM BKN010 OVC100 23/19 A2988 RMK AO2 BINOVC T02280194=
202005181352 METAR KATL 181352Z 15004KT 10SM SCT008 BKN200 BKN250 22/19 A2988 RMK AO2 SLP112 T02220194=
202005181321 SPECI KATL 181321Z 13004KT 10SM FEW009 SCT015 BKN200 22/19 A2988 RMK AO2 T02170189=
202005181301 SPECI KATL 181301Z 14006KT 10SM SCT008 SCT013 OVC017 21/19 A2989 RMK AO2 T02110189=
202005181252 METAR KATL 181252Z 16003KT 8SM BKN008 BKN019 BKN035 OVC130 21/18 A2989 RMK AO2 SLP114 T02060183=
202005181236 SPECI KATL 181236Z 15005KT 8SM FEW007 BKN019 OVC035 21/18 A2989 RMK AO2 T02060183=
202005181152 METAR KATL 181152Z 10006KT 10SM FEW002 SCT019 BKN044 BKN130 BKN200 BKN250 21/18 A2987 RMK AO2 SLP107 70104 T02060183 10206 20194 55003=
202005181052 METAR KATL 181052Z 10004KT 8SM FEW002 FEW030 SCT080 SCT150 BKN200 BKN250 20/18 A2987 RMK AO2 SLP106 T02000183=
202005180952 METAR KATL 180952Z 14003KT 5SM BR FEW001 FEW030 SCT150 SCT200 19/18 A2988 RMK AO2 SLP107 VIS SW-W 2 FG BANK SW-W T01940183=
202005180852 METAR KATL 180852Z 11004KT 6SM BR FEW003 SCT200 SCT250 20/18 A2988 RMK AO2 SLP110 T02000183 56013 $=
202005180752 METAR KATL 180752Z 00000KT 8SM FEW003 SCT055 SCT070 20/18 A2988 RMK AO2 SLP109 VIS NW-NE 2 T02000183 $=
202005180652 METAR KATL 180652Z 08005KT 7SM FEW003 SCT065 20/19 A2989 RMK AO2 SLP113 VIS LWR NW-NE SW T02000189 $=
202005180552 METAR KATL 180552Z 13004KT 10SM SCT004 SCT035 SCT100 SCT150 21/19 A2993 RMK AO2 SLP124 VIS LWR SW 60104 T02060189 10272 20206 58003 $=
202005180524 SPECI KATL 180524Z 12003KT 10SM FEW008 SCT043 SCT100 SCT150 21/19 A2993 RMK AO2 VIS LWR SE T02110189 $=
202005180452 METAR KATL 180452Z 07004KT 10SM SCT030 BKN045 BKN055 22/19 A2994 RMK AO2 RAE28 SLP128 P0005 T02170189 402940183 $=
202005180358 SPECI KATL 180358Z 02007KT 3SM RA BR FEW012 BKN032 OVC045 21/18 A2995 RMK AO2 P0003 T02060183 $=
202005180352 METAR KATL 180352Z 35005KT 1SM R09R/3000VP6000FT +RA BR SCT012 OVC030 21/19 A2995 RMK AO2 SLP131 TSE41 TS DSIPTD P0074 T02060189 $=
202005180342 SPECI KATL 180342Z 19004KT 1 3/4SM RA BR BKN035 BKN045 OVC060 21/19 A2996 RMK AO2 VIS 1V2 1/2 TSE41 TS DSIPTD P0055 T02060189 $=
202005180337 SPECI KATL 180337Z 22006KT 2SM TSRA BR BKN029CB OVC040 21/18 A2995 RMK AO2 VIS 1 1/2V3 TSB22 OCNL LTGIC OHD-N TS OHD-N MOV N P0050 T02060183 $=
202005180325 SPECI KATL 180325Z 21010G18KT 170V230 1 3/4SM R09R/3000VP6000FT -TSRA BR BKN026CB OVC040 21/18 A2994 RMK AO2 TSB22 OCNL LTGIC OHD-SW TS OHD-SW MOV N P0035 T02110183 $=
202005180311 SPECI KATL 180311Z 00000KT 2 1/2SM VCTS RA BR BKN037CB OVC070 21/19 A2994 RMK AO2 OCNL LTGIC VC S TS VC S MOV N P0007 T02060189 $=
202005180252 METAR KATL 180252Z 28005KT 3SM RA BR BKN040 BKN070 OVC120 21/19 A2993 RMK AO2 SLP127 P0009 60025 T02060189 50005 $=
202005180152 METAR KATL 180152Z 00000KT 5SM RA BR BKN060 OVC075 21/19 A2994 RMK AO2 TSE03 SLP132 TS DSIPTD P0013 T02110194 $=
202005180104 SPECI KATL 180104Z 21009KT 8SM -RA BR FEW042 BKN055 BKN095 OVC250 21/19 A2995 RMK AO2 TSE03 TS DSIPTD P0003 T02110189 $=
202005180052 METAR KATL 180052Z 21008KT 7SM TSRA SCT042CB BKN060 BKN100 OVC250 22/19 A2995 RMK AO2 RAB22 TSB47 SLP134 OCNL LTGIC OHD-S TS OHD-S MOV N P0003 T02170189 $=
202005180048 SPECI KATL 180048Z 20009KT 10SM -TSRA BKN044CB BKN055 BKN150 OVC250 22/19 A2995 RMK AO2 RAB22 TSB47 OCNL LTGIC OHD-S TS OHD-S MOV N P0002 $=
202005180036 SPECI KATL 180036Z 22007KT 6SM VCTS -RA BKN044CB BKN055 BKN150 OVC250 22/18 A2995 RMK AO2 LTG DSNT S RAB22 OCNL LTGIC VC S TS VC S MOV N P0001 T02220183 $=
202005172352 METAR KATL 172352Z 16007KT 10SM FEW040 SCT055 SCT100 BKN200 BKN250 27/17 A2992 RMK AO2 SLP122 CB DSNT SW T02720167 10294 20261 55001 $=
202005172252 METAR KATL 172252Z 15009KT 10SM SCT055TCU SCT100 BKN200 BKN250 28/16 A2991 RMK AO2 LTG DSNT SW SLP121 TCU E AND W MDT CU NW CB DSNT SW T02780161 $=
202005172152 METAR KATL 172152Z 15009KT 10SM SCT055 SCT100 BKN180 BKN250 29/16 A2991 RMK AO2 SLP120 MDT CU E T02890161 $=
202005172052 METAR KATL 172052Z 10009KT 10SM SCT048 SCT060 BKN100 BKN180 BKN250 29/17 A2992 RMK AO2 SLP123 MDT CU ALQDS T02890167 56024 $=
202005171952 METAR KATL 171952Z 14012KT 10SM SCT047 BKN095 BKN180 BKN250 29/17 A2995 RMK AO2 SLP130 T02940167 $=
202005171852 METAR KATL 171852Z 13009KT 100V160 10SM SCT047 SCT090 BKN180 BKN250 28/16 A2996 RMK AO2 SLP136 T02830161 $=
202005171752 METAR KATL 171752Z 14009KT 10SM SCT047 SCT085 BKN180 BKN250 28/17 A2999 RMK AO2 SLP147 T02830167 10283 20194 58015 $=
202005171652 METAR KATL 171652Z 15004KT 10SM SCT039 SCT065 BKN180 BKN250 27/16 A3003 RMK AO2 SLP159 T02720161 $=
202005171552 METAR KATL 171552Z VRB06KT 10SM SCT036 SCT060 BKN250 26/16 A3004 RMK AO2 SLP164 T02610161 $=
202005171452 METAR KATL 171452Z 12006KT 10SM FEW034 SCT065 BKN250 26/17 A3004 RMK AO2 SLP162 T02560167 51008 $=
202005171352 METAR KATL 171352Z 13006KT 10SM SCT060 BKN250 24/16 A3003 RMK AO2 SLP161 T02390161 $=
202005171252 METAR KATL 171252Z 15006KT 10SM FEW060 BKN250 22/16 A3003 RMK AO2 SLP159 T02170161 $=
202005171152 METAR KATL 171152Z 12005KT 10SM SCT250 19/16 A3002 RMK AO2 SLP155 T01940156 10222 20183 53012 $=
202005171052 METAR KATL 171052Z 12004KT 10SM FEW250 18/15 A3000 RMK AO2 SLP149 T01830150 $=
202005170952 METAR KATL 170952Z 00000KT 10SM SCT250 19/15 A2998 RMK AO2 SLP141 T01890150 $=
202005170852 METAR KATL 170852Z 13003KT 10SM FEW060 SCT250 19/14 A2998 RMK AO2 SLP142 T01940144 58008 $=
202005170752 METAR KATL 170752Z 12004KT 10SM FEW060 SCT250 20/14 A2998 RMK AO2 SLP144 T02000144 $=
202005170652 METAR KATL 170652Z 12004KT 10SM BKN250 22/14 A3000 RMK AO2 SLP148 T02170144 $=
202005170552 METAR KATL 170552Z 12005KT 10SM BKN250 22/14 A3000 RMK AO2 SLP149 T02220144 10267 20211 58008 $=
202005170452 METAR KATL 170452Z 10004KT 10SM BKN250 22/15 A3002 RMK AO2 SLP157 T02170150 402940172 $=
202005170352 METAR KATL 170352Z 12003KT 10SM BKN300 23/15 A3003 RMK AO2 SLP161 T02330150 $=
202005170252 METAR KATL 170252Z 12005KT 10SM FEW070 BKN300 24/15 A3002 RMK AO2 SLP158 T02390150 51017 $=
202005170152 METAR KATL 170152Z 12004KT 10SM FEW065 BKN300 24/14 A3001 RMK AO2 SLP154 T02440144 $=
202005170052 METAR KATL 170052Z 12006KT 10SM FEW065 BKN300 26/14 A2999 RMK AO2 SLP146 T02560139 $=
202005162352 METAR KATL 162352Z 12010KT 10SM FEW060 BKN300 27/13 A2997 RMK AO2 SLP142 T02670133 10294 20267 58006 $=
202005162252 METAR KATL 162252Z 12007KT 10SM SCT060 BKN300 28/13 A2999 RMK AO2 SLP147 T02780133 $=
202005162152 METAR KATL 162152Z 12006KT 10SM SCT060 BKN300 28/13 A2999 RMK AO2 SLP148 T02780128 $=
202005162052 METAR KATL 162052Z 11009KT 10SM SCT060 SCT250 28/13 A2999 RMK AO2 SLP147 T02830128 56019 $=
202005161952 METAR KATL 161952Z 11008KT 060V130 10SM SCT060 SCT250 29/14 A3001 RMK AO2 SLP153 T02890139 $=
202005161852 METAR KATL 161852Z 10010KT 10SM SCT055 BKN250 28/14 A3002 RMK AO2 SLP158 T02830139 $=
202005161752 METAR KATL 161752Z 14008KT 10SM SCT055 BKN250 28/14 A3005 RMK AO2 SLP167 T02830144 10283 20183 58008 $=
202005161652 METAR KATL 161652Z 06009KT 10SM SCT043 SCT060 BKN120 26/14 A3007 RMK AO2 SLP173 T02610144 $=
202005161552 METAR KATL 161552Z 12006KT 10SM SCT041 SCT060 BKN120 26/15 A3007 RMK AO2 SLP175 T02560150 $=
202005161452 METAR KATL 161452Z VRB04KT 10SM SCT050 SCT120 SCT250 24/16 A3007 RMK AO2 SLP176 T02440161 58004 $=
202005161352 METAR KATL 161352Z 15008KT 10SM SCT050 SCT250 22/16 A3009 RMK AO2 SLP180 T02220161 $=
202005161252 METAR KATL 161252Z 16004KT 10SM FEW050 FEW250 21/17 A3008 RMK AO2 SLP177 T02060167 $=
202005161152 METAR KATL 161152Z 13003KT 9SM FEW006 SCT049 BKN250 18/16 A3009 RMK AO2 SLP180 T01830156 10200 20172 53010 $=
202005161143 SPECI KATL 161143Z 00000KT 10SM FEW006 SCT049 SCT250 18/16 A3009 RMK AO2 T01830156 $=
202005161052 METAR KATL 161052Z 09003KT 10SM FEW012 FEW200 SCT250 17/14 A3006 RMK AO2 SLP171 T01720144 $=
202005160952 METAR KATL 160952Z 00000KT 10SM FEW200 SCT250 18/14 A3006 RMK AO2 SLP169 T01780144 $=
202005160852 METAR KATL 160852Z 14003KT 10SM SCT250 18/14 A3005 RMK AO2 SLP169 T01780139 53001=
202005160752 METAR KATL 160752Z 12004KT 10SM SCT250 19/14 A3004 RMK AO2 SLP164 T01890139=
202005160652 METAR KATL 160652Z 00000KT 10SM SCT250 19/13 A3004 RMK AO2 SLP163 T01940133=
202005160552 METAR KATL 160552Z 11004KT 10SM SCT250 20/13 A3005 RMK AO2 SLP168 T02000133 10256 20194 58008=
202005160452 METAR KATL 160452Z 14003KT 10SM SCT250 19/14 A3006 RMK AO2 SLP172 T01940139 402720161=
202005160352 METAR KATL 160352Z 14004KT 10SM FEW250 21/13 A3007 RMK AO2 SLP176 T02060133=
202005160252 METAR KATL 160252Z 13003KT 10SM FEW250 21/13 A3007 RMK AO2 SLP177 T02110133 51010=
202005160152 METAR KATL 160152Z 13003KT 10SM FEW055 SCT250 23/13 A3007 RMK AO2 SLP176 T02280133=
202005160052 METAR KATL 160052Z 14004KT 10SM FEW002 FEW055 SCT250 24/13 A3006 RMK AO2 SLP172 FU FEW002 T02390128=
202005152352 METAR KATL 152352Z 15005KT 10SM FEW055 SCT250 26/13 A3004 RMK AO2 SLP167 T02560128 10272 20244 56009=
202005152252 METAR KATL 152252Z 13005KT 10SM SCT055 SCT200 27/13 A3005 RMK AO2 SLP168 T02670128=
202005152152 METAR KATL 152152Z 16006KT 10SM SCT055 SCT200 26/13 A3005 RMK AO2 SLP170 T02610133=
202005152052 METAR KATL 152052Z 16006KT 10SM FEW050 SCT180 SCT250 26/13 A3007 RMK AO2 SLP176 T02610133 56023=
202005151952 METAR KATL 151952Z 15009KT 10SM FEW046 SCT200 SCT250 27/14 A3009 RMK AO2 SLP181 T02670139=
202005151852 METAR KATL 151852Z 13008G14KT 10SM FEW044 SCT200 SCT250 25/13 A3011 RMK AO2 SLP187 T02500133=
202005151752 METAR KATL 151752Z 12007KT 10SM FEW036 SCT200 BKN250 24/14 A3014 RMK AO2 SLP200 T02390144 10244 20172 58011=
202005151652 METAR KATL 151652Z 16009KT 10SM SCT034 BKN200 BKN250 23/14 A3016 RMK AO2 SLP205 T02330144=
202005151552 METAR KATL 151552Z 16009KT 10SM SCT030 BKN180 BKN250 23/14 A3018 RMK AO2 SLP210 T02280144=
202005151452 METAR KATL 151452Z 16009KT 10SM FEW023 BKN180 BKN250 22/15 A3018 RMK AO2 SLP210 T02220150 58002=
202005151352 METAR KATL 151352Z 18007KT 10SM SCT016 BKN180 BKN250 21/15 A3019 RMK AO2 SLP217 T02060150=
202005151252 METAR KATL 151252Z 15006KT 10SM FEW015 FEW160 BKN200 BKN250 18/14 A3018 RMK AO2 SLP214 VIRGA OHD & NE-E T01780144=
202005151152 METAR KATL 151152Z 14004KT 10SM FEW015 FEW150 BKN200 BKN250 17/14 A3018 RMK AO2 SLP213 VIRGA W-N T01720139 10194 20161 53017=
202005151052 METAR KATL 151052Z 14003KT 10SM FEW015 FEW150 BKN200 BKN250 16/13 A3016 RMK AO2 SLP205 VIRGA S & W-N T01610133=
202005150952 METAR KATL 150952Z 13004KT 10SM SCT200 BKN250 17/13 A3014 RMK AO2 SLP197 T01670133 $=
202005150852 METAR KATL 150852Z 15007KT 10SM FEW200 BKN250 17/13 A3013 RMK AO2 SLP194 T01720133 56018 $=
202005150752 METAR KATL 150752Z 14005KT 10SM FEW200 BKN250 18/13 A3014 RMK AO2 SLP198 T01780133 $=
202005150652 METAR KATL 150652Z 15007KT 10SM FEW200 BKN250 19/13 A3016 RMK AO2 SLP205 T01890133 $=
202005150552 METAR KATL 150552Z 15007KT 10SM FEW050 BKN250 19/13 A3018 RMK AO2 SLP212 T01940133 10256 20194 55001 $=
202005150452 METAR KATL 150452Z 14007KT 10SM FEW050 BKN250 21/13 A3018 RMK AO2 SLP211 T02060133 402830161=
202005150352 METAR KATL 150352Z 13005KT 10SM BKN050 BKN250 22/13 A3018 RMK AO2 SLP213 T02170128=
202005150252 METAR KATL 150252Z 12004KT 10SM FEW055 BKN250 22/13 A3019 RMK AO2 SLP215 T02220128 51013=
202005150152 METAR KATL 150152Z 14004KT 10SM FEW150 BKN250 23/12 A3017 RMK AO2 SLP211 T02280122=
202005150052 METAR KATL 150052Z 15005KT 10SM FEW060 BKN250 24/12 A3017 RMK AO2 SLP210 T02390122=
202005142352 METAR KATL 142352Z 15008KT 10SM FEW060 BKN250 26/12 A3015 RMK AO2 SLP201 T02560117 10283 20256 56009=
202005142252 METAR KATL 142252Z 16010KT 10SM FEW060 SCT250 26/11 A3015 RMK AO2 SLP202 T02610106=
202005142152 METAR KATL 142152Z 14007KT 10SM SCT060 SCT250 27/12 A3016 RMK AO2 SLP204 T02720117=
202005142052 METAR KATL 142052Z 14010G16KT 10SM FEW060 SCT180 SCT250 28/13 A3018 RMK AO2 SLP210 T02780128 58024=
202005141952 METAR KATL 141952Z 16008KT 10SM FEW050 SCT180 SCT250 28/13 A3020 RMK AO2 SLP218 T02780133=
202005141852 METAR KATL 141852Z 15008KT 110V190 10SM SCT044 SCT180 SCT250 27/14 A3023 RMK AO2 SLP228 T02670139=
202005141752 METAR KATL 141752Z 15009KT 10SM SCT038 SCT180 BKN250 26/15 A3025 RMK AO2 SLP236 T02560150 10256 20167 58017=
202005141652 METAR KATL 141652Z 15007KT 10SM SCT034 SCT180 BKN250 24/15 A3028 RMK AO2 SLP246 T02440150=
202005141552 METAR KATL 141552Z 15004KT 10SM SCT026 BKN180 BKN250 22/15 A3029 RMK AO2 SLP253 T02220150=
202005141545 SPECI KATL 141545Z 13005KT 10SM SCT026 BKN180 BKN250 22/15 A3030 RMK AO2 T02220150=
202005141452 METAR KATL 141452Z 16008KT 130V190 10SM BKN017 BKN180 BKN250 21/15 A3030 RMK AO2 SLP255 CIG 015V019 T02060150 50002=
202005141419 SPECI KATL 141419Z 16008KT 10SM OVC015 20/15 A3031 RMK AO2 CIG 013V017 BINOVC T02000150=
202005141352 METAR KATL 141352Z VRB04KT 10SM OVC013 19/15 A3031 RMK AO2 SLP259 CIG 011V015 BINOVC T01890150=
202005141322 SPECI KATL 141322Z 16005KT 10SM OVC011 18/15 A3031 RMK AO2 T01830150=
202005141252 METAR KATL 141252Z 13005KT 10SM BKN009 OVC015 18/15 A3031 RMK AO2 SLP257 T01780150=
202005141152 METAR KATL 141152Z 10005KT 10SM BKN008 OVC012 17/14 A3029 RMK AO2 SLP252 T01670139 10178 20161 53024=
202005141052 METAR KATL 141052Z 10004KT 10SM BKN013 BKN180 BKN210 17/14 A3026 RMK AO2 SLP241 T01670139=
202005141049 SPECI KATL 141049Z 10005KT 10SM BKN013 BKN180 BKN210 16/14 A3026 RMK AO2=
202005140952 METAR KATL 140952Z 12005KT 10SM SCT170 SCT200 BKN250 17/14 A3023 RMK AO2 SLP231 T01670139=
202005140852 METAR KATL 140852Z 12006KT 10SM SCT180 BKN250 17/14 A3022 RMK AO2 SLP227 T01670139 55004=
202005140752 METAR KATL 140752Z 11006KT 10SM SCT200 SCT250 17/13 A3022 RMK AO2 SLP226 T01670133 $=
202005140652 METAR KATL 140652Z 10006KT 10SM SCT150 SCT250 17/13 A3022 RMK AO2 SLP228 T01670128 $=
202005140552 METAR KATL 140552Z 11007KT 10SM FEW200 18/13 A3023 RMK AO2 SLP231 T01780128 10250 20178 58005 $=
202005140452 METAR KATL 140452Z 10005KT 10SM FEW200 18/13 A3025 RMK AO2 SLP237 T01830128 402670133 $=
202005140352 METAR KATL 140352Z 10008KT 10SM SCT200 19/13 A3025 RMK AO2 SLP239 T01890133 $=
202005140252 METAR KATL 140252Z 09010KT 10SM SCT200 BKN250 20/14 A3025 RMK AO2 SLP237 T02000139 51016 $=
202005140152 METAR KATL 140152Z 08011KT 10SM FEW150 BKN200 BKN250 21/14 A3023 RMK AO2 SLP232 T02060139=
202005140052 METAR KATL 140052Z 08010KT 10SM FEW150 SCT200 BKN250 23/11 A3022 RMK AO2 SLP226 T02330111=
202005132352 METAR KATL 132352Z 17005KT 10SM FEW065 SCT200 BKN250 25/11 A3020 RMK AO2 SLP220 T02500111 10267 20239 53001=
202005132252 METAR KATL 132252Z 15008KT 10SM FEW065 SCT200 BKN250 26/10 A3020 RMK AO2 SLP219 T02560100=
202005132152 METAR KATL 132152Z 16007KT 10SM SCT065 BKN180 BKN250 26/11 A3020 RMK AO2 SLP220 T02610111=
202005132052 METAR KATL 132052Z 19009G14KT 10SM FEW065 BKN180 BKN250 26/10 A3020 RMK AO2 SLP219 VIRGA NW-NE T02610100 58018=
202005131952 METAR KATL 131952Z 15009KT 10SM FEW055 FEW150 BKN180 BKN200 26/12 A3022 RMK AO2 SLP227 VIRGA DSNT NW-NE T02610117=
202005131852 METAR KATL 131852Z 14005KT 10SM FEW050 FEW150 BKN180 BKN250 25/12 A3024 RMK AO2 SLP233 VIRGA DSNT NW-NE T02500122=
202005131752 METAR KATL 131752Z 20011KT 10SM FEW150 BKN180 BKN250 24/11 A3025 RMK AO2 SLP237 VIRGA NW-NE-E ACC E T02390111 10239 20144 57013=
202005131652 METAR KATL 131652Z 19010KT 10SM FEW150 BKN180 BKN250 23/11 A3026 RMK AO2 SLP242 VIRGA NW-NE-E T02280111=
202005131552 METAR KATL 131552Z 15004KT 10SM FEW150 BKN180 BKN250 21/13 A3027 RMK AO2 SLP247 VIRGA N-E T02110128=
202005131452 METAR KATL 131452Z 12004KT 10SM SCT150 BKN200 BKN250 19/12 A3029 RMK AO2 SLP252 VIRGA NW-NE-E T01890117 51007=
202005131352 METAR KATL 131352Z 13005KT 10SM FEW110 BKN140 BKN200 BKN250 17/11 A3029 RMK AO2 SLP252 VIRGA W-N-NE T01720111=
202005131252 METAR KATL 131252Z 14004KT 10SM BKN150 BKN200 16/10 A3028 RMK AO2 SLP248 VIRGA ALQDS T01560100=
202005131152 METAR KATL 131152Z 00000KT 10SM BKN150 BKN200 14/09 A3027 RMK AO2 SLP245 VIRGA ALQDS T01440089 10156 20133 53013=
202005131052 METAR KATL 131052Z 13003KT 10SM BKN150 BKN200 14/08 A3024 RMK AO2 SLP237 VIRGA ALQDS T01440078=
202005130952 METAR KATL 130952Z 12003KT 10SM BKN150 14/07 A3023 RMK AO2 SLP231 T01440067=
202005130852 METAR KATL 130852Z 08005KT 10SM SCT180 13/07 A3023 RMK AO2 SLP231 T01330072 53002=
202005130752 METAR KATL 130752Z 08005KT 10SM FEW150 BKN200 14/07 A3022 RMK AO2 SLP229 T01390072=
202005130652 METAR KATL 130652Z 09005KT 10SM FEW150 SCT200 SCT250 15/07 A3022 RMK AO2 SLP229 T01500067=
202005130552 METAR KATL 130552Z 08005KT 10SM FEW150 BKN200 BKN250 15/07 A3022 RMK AO2 SLP230 T01500072 10211 20144 51003=
202005130452 METAR KATL 130452Z 09005KT 10SM FEW150 SCT200 BKN250 16/07 A3022 RMK AO2 SLP230 T01560067 402330094=
202005130352 METAR KATL 130352Z 08006KT 10SM SCT200 BKN250 16/07 A3022 RMK AO2 SLP230 T01610067=
202005130252 METAR KATL 130252Z 07008KT 10SM FEW200 BKN250 18/07 A3021 RMK AO2 SLP227 T01780067 51007=
202005130152 METAR KATL 130152Z 05010KT 10SM FEW200 BKN250 19/06 A3021 RMK AO2 SLP225 T01940061=
202005130052 METAR KATL 130052Z 32003KT 10SM FEW180 SCT250 21/06 A3020 RMK AO2 SLP222 T02060061=
202005122352 METAR KATL 122352Z 28004KT 10SM FEW180 SCT250 21/06 A3019 RMK AO2 SLP220 T02110061 10233 20194 56004=
202005122252 METAR KATL 122252Z 31007KT 10SM FEW150 SCT250 23/06 A3019 RMK AO2 SLP220 T02280056=
202005122152 METAR KATL 122152Z 29007KT 10SM FEW150 FEW250 23/06 A3020 RMK AO2 SLP222 T02280056=
202005122052 METAR KATL 122052Z VRB03KT 10SM FEW140 SCT200 SCT250 22/06 A3020 RMK AO2 SLP226 T02170056 56018=
202005121952 METAR KATL 121952Z 20005KT 10SM FEW130 SCT200 SCT250 22/06 A3022 RMK AO2 SLP230 T02170056=
202005121852 METAR KATL 121852Z 22004KT 10SM FEW130 SCT200 SCT250 21/04 A3024 RMK AO2 SLP239 ACC DSNT NW-NE T02060044=
202005121752 METAR KATL 121752Z 12004KT 10SM FEW140 SCT200 SCT250 19/04 A3026 RMK AO2 SLP244 T01940039 10194 20122 58010=
202005121652 METAR KATL 121652Z 10006KT 10SM FEW140 SCT200 BKN250 18/03 A3028 RMK AO2 SLP250 T01830033=
202005121552 METAR KATL 121552Z 03005KT 10SM FEW140 SCT200 BKN250 18/02 A3029 RMK AO2 SLP256 T01780022=
202005121452 METAR KATL 121452Z 10007KT 10SM FEW001 FEW140 SCT200 SCT250 17/02 A3029 RMK AO2 SLP255 FU FEW001 T01670022 50003=
202005121352 METAR KATL 121352Z 08008KT 10SM FEW095 SCT150 SCT200 BKN250 14/03 A3031 RMK AO2 SLP262 ACC DSNT NW-N T01440028=
202005121252 METAR KATL 121252Z 05008KT 10SM FEW090 BKN150 BKN200 BKN250 13/02 A3030 RMK AO2 SLP259 ACC ALQDS T01330022=
202005121152 METAR KATL 121152Z 01004KT 10SM BKN130 BKN180 BKN220 12/02 A3028 RMK AO2 PRESRR SLP252 VIRGA NE-E T01220017 10122 20094 53017=
202005121052 METAR KATL 121052Z 00000KT 10SM SCT100 BKN150 BKN200 BKN250 10/02 A3024 RMK AO2 SLP240 T01000022=
202005120952 METAR KATL 120952Z 32005KT 10SM SCT090 SCT200 BKN250 10/03 A3024 RMK AO2 SLP238 T01000028=
202005120852 METAR KATL 120852Z 33004KT 10SM BKN250 09/02 A3023 RMK AO2 SLP234 T00940022 53015=
202005120752 METAR KATL 120752Z 25003KT 10SM FEW250 09/03 A3020 RMK AO2 SLP226 T00940028=
202005120652 METAR KATL 120652Z 34003KT 10SM CLR 11/02 A3018 RMK AO2 SLP219 T01060017=
202005120552 METAR KATL 120552Z 32005KT 10SM CLR 11/02 A3018 RMK AO2 SLP219 T01110022 10178 20111 58000=
202005120452 METAR KATL 120452Z 31005KT 10SM CLR 12/02 A3019 RMK AO2 SLP220 T01170022 402060106=
202005120352 METAR KATL 120352Z 32006KT 10SM CLR 13/02 A3018 RMK AO2 SLP219 T01280017=
202005120252 METAR KATL 120252Z 31005KT 10SM CLR 14/02 A3018 RMK AO2 SLP219 T01390017 52009=
202005120152 METAR KATL 120152Z 30005KT 10SM CLR 14/02 A3018 RMK AO2 SLP216 T01440017=
202005120052 METAR KATL 120052Z 30008KT 10SM CLR 16/M01 A3016 RMK AO2 SLP212 T01611006=
202005112352 METAR KATL 112352Z 30011KT 10SM CLR 18/00 A3016 RMK AO2 SLP210 T01780000 10206 20178 53002=
202005112252 METAR KATL 112252Z 30012KT 10SM CLR 19/00 A3015 RMK AO2 SLP207 T01890000=
202005112152 METAR KATL 112152Z 30014G21KT 10SM FEW200 19/01 A3015 RMK AO2 SLP207 T01940006=
202005112052 METAR KATL 112052Z 31009KT 10SM FEW200 19/01 A3015 RMK AO2 SLP206 T01940006 56012=
202005111952 METAR KATL 111952Z 32013G20KT 10SM FEW200 20/01 A3016 RMK AO2 SLP209 T02000011=
202005111852 METAR KATL 111852Z 32014G19KT 10SM FEW075 19/01 A3017 RMK AO2 SLP213 T01890006=
202005111752 METAR KATL 111752Z 29016G24KT 10SM FEW070 19/01 A3018 RMK AO2 WSHFT 1729 SLP218 T01890006 10189 20111 58014=
202005111744 SPECI KATL 111744Z 28014G20KT 10SM FEW070 18/01 A3019 RMK AO2 WSHFT 1729 T01830011=
202005111652 METAR KATL 111652Z 33015KT 10SM FEW065 17/01 A3021 RMK AO2 SLP228 T01720006=
202005111552 METAR KATL 111552Z 32014G22KT 10SM CLR 17/M01 A3022 RMK AO2 SLP231 T01721011=
202005111452 METAR KATL 111452Z 34014G21KT 10SM CLR 16/M02 A3023 RMK AO2 SLP234 T01561017 51012=
202005111352 METAR KATL 111352Z 32012KT 10SM CLR 14/M01 A3022 RMK AO2 SLP231 T01441006=
202005111252 METAR KATL 111252Z 33012KT 10SM CLR 13/01 A3021 RMK AO2 SLP227 T01280006=
202005111152 METAR KATL 111152Z 33012KT 10SM CLR 11/02 A3019 RMK AO2 SLP221 T01110017 10139 20106 53020=
202005111052 METAR KATL 111052Z 33011KT 10SM FEW055 11/03 A3016 RMK AO2 SLP212 T01060028=
202005110952 METAR KATL 110952Z 33012KT 10SM FEW250 11/04 A3014 RMK AO2 SLP202 T01110044=
202005110852 METAR KATL 110852Z 31013KT 10SM CLR 13/03 A3013 RMK AO2 SLP198 T01280033 55000=
202005110752 METAR KATL 110752Z 27007KT 10SM CLR 13/03 A3010 RMK AO2 SLP190 T01330028=
202005110652 METAR KATL 110652Z 28008KT 10SM CLR 13/03 A3012 RMK AO2 SLP193 T01330028=
202005110552 METAR KATL 110552Z 28005KT 10SM CLR 13/03 A3013 RMK AO2 SLP199 T01330028 10206 20133 58004=
202005110452 METAR KATL 110452Z 29006KT 10SM CLR 14/03 A3013 RMK AO2 SLP199 T01390033 402330056=
202005110352 METAR KATL 110352Z 29006KT 10SM CLR 16/03 A3015 RMK AO2 SLP204 T01560028=
202005110252 METAR KATL 110252Z 30005KT 10SM CLR 16/04 A3014 RMK AO2 SLP204 T01560039 53012=
202005110152 METAR KATL 110152Z 31005KT 10SM CLR 17/03 A3012 RMK AO2 SLP198 T01720028=
202005110052 METAR KATL 110052Z 31008KT 10SM CLR 19/02 A3012 RMK AO2 SLP197 T01890017=
202005102352 METAR KATL 102352Z 27006KT 10SM CLR 21/02 A3010 RMK AO2 SLP192 T02060022 10233 20206 56009=
202005102252 METAR KATL 102252Z 28008KT 10SM CLR 22/01 A3011 RMK AO2 SLP194 T02220006=
202005102152 METAR KATL 102152Z 25006G16KT 10SM CLR 23/02 A3012 RMK AO2 SLP198 T02280022=
202005102052 METAR KATL 102052Z 30008KT 10SM CLR 23/03 A3013 RMK AO2 SLP201 T02330028 56021=
202005101952 METAR KATL 101952Z VRB04KT 10SM CLR 22/03 A3015 RMK AO2 SLP209 T02170028=
202005101852 METAR KATL 101852Z 28008KT 10SM CLR 23/04 A3017 RMK AO2 SLP214 T02280039=
202005101752 METAR KATL 101752Z 28007KT 10SM CLR 22/04 A3020 RMK AO2 SLP223 T02170039 10217 20083 58020=
202005101652 METAR KATL 101652Z 10SM FEW250 20/03 A3022 RMK AO2 SLP232 T02000028=
202005101552 METAR KATL 101552Z VRB03KT 10SM FEW250 18/03 A3024 RMK AO2 SLP240 T01830028=
202005101452 METAR KATL 101452Z 00000KT 10SM SCT250 16/02 A3026 RMK AO2 SLP246 T01610022 50005=
202005101352 METAR KATL 101352Z 04003KT 10SM SCT250 14/02 A3026 RMK AO2 SLP248 T01390017=
202005101252 METAR KATL 101252Z 07005KT 10SM FEW250 12/02 A3025 RMK AO2 SLP244 T01220017=
202005101152 METAR KATL 101152Z 32004KT 10SM FEW200 SCT250 08/02 A3024 RMK AO2 SLP242 T00830022 10106 20056 53016=
202005101052 METAR KATL 101052Z 31003KT 10SM SCT250 07/02 A3022 RMK AO2 SLP234 T00670017=
202005100952 METAR KATL 100952Z 31004KT 10SM SCT250 07/02 A3020 RMK AO2 SLP229 T00670017=
202005100852 METAR KATL 100852Z 00000KT 10SM BKN250 08/01 A3020 RMK AO2 SLP224 T00830011 58002=
202005100752 METAR KATL 100752Z 27003KT 10SM BKN250 08/02 A3021 RMK AO2 SLP228 T00830017=
202005100652 METAR KATL 100652Z 02004KT 10SM BKN250 11/00 A3019 RMK AO2 SLP223 T01060000=
202005100552 METAR KATL 100552Z 00000KT 10SM SCT250 09/01 A3020 RMK AO2 SLP226 T00940006 10156 20094 55007=
202005100452 METAR KATL 100452Z 35009KT 10SM FEW250 SCT300 11/00 A3019 RMK AO2 SLP223 T01110000 401890067=
202005100352 METAR KATL 100352Z 32004KT 10SM BKN300 11/01 A3021 RMK AO2 SLP231 T01060006=
202005100252 METAR KATL 100252Z 32005KT 10SM FEW250 BKN300 11/01 A3022 RMK AO2 SLP234 T01110006 51019=
202005100152 METAR KATL 100152Z 32006KT 10SM FEW150 SCT250 BKN300 12/01 A3022 RMK AO2 SLP233 T01220006=
202005100052 METAR KATL 100052Z 32006KT 10SM FEW200 SCT250 BKN300 13/M01 A3020 RMK AO2 SLP227 T01331011=
202005092352 METAR KATL 092352Z 34008KT 10SM FEW200 SCT250 BKN300 16/M02 A3017 RMK AO2 SLP216 T01561022 10189 20156 51001=
202005092252 METAR KATL 092252Z 34008KT 10SM FEW150 FEW200 BKN250 16/M03 A3016 RMK AO2 SLP215 T01611033=
202005092152 METAR KATL 092152Z 31011KT 10SM SCT200 BKN250 17/M04 A3017 RMK AO2 SLP215 T01671039=
202005092052 METAR KATL 092052Z 34012KT 10SM SCT150 BKN250 18/M03 A3016 RMK AO2 SLP213 T01781033 58013=
202005091952 METAR KATL 091952Z 32009KT 10SM SCT150 SCT250 18/M04 A3018 RMK AO2 SLP217 T01781039=
202005091852 METAR KATL 091852Z 29011G17KT 10SM FEW150 SCT250 17/M02 A3019 RMK AO2 SLP224 T01721017=
202005091752 METAR KATL 091752Z 32009KT 10SM FEW150 SCT250 17/M02 A3020 RMK AO2 SLP226 T01671022 10167 20078 58004=
202005091652 METAR KATL 091652Z 36014G22KT 10SM SCT250 15/M06 A3020 RMK AO2 SLP227 T01501056=
202005091552 METAR KATL 091552Z 34008KT 10SM SCT250 13/00 A3022 RMK AO2 SLP232 T01330000=
202005091452 METAR KATL 091452Z 01011G14KT 10SM FEW250 13/01 A3021 RMK AO2 SLP230 T01280006 51016=
202005091352 METAR KATL 091352Z 03010KT 10SM FEW036 FEW250 11/01 A3019 RMK AO2 SLP224 T01110011=
202005091252 METAR KATL 091252Z 35009KT 10SM FEW250 09/03 A3018 RMK AO2 SLP222 T00890028=
202005091152 METAR KATL 091152Z 34006KT 10SM FEW250 08/03 A3016 RMK AO2 SLP215 70003 T00780033 10094 20067 53030=
202005091052 METAR KATL 091052Z 32007KT 10SM FEW250 07/03 A3013 RMK AO2 SLP202 T00670028=
202005090952 METAR KATL 090952Z 33008KT 10SM FEW250 07/03 A3009 RMK AO2 SLP191 T00720028=
202005090852 METAR KATL 090852Z 34007KT 10SM SCT250 08/04 A3007 RMK AO2 SLP182 T00830039 53013=
202005090752 METAR KATL 090752Z 33007KT 10SM FEW200 SCT250 08/04 A3004 RMK AO2 SLP174 T00830039=
202005090652 METAR KATL 090652Z 33007KT 10SM FEW200 BKN250 08/04 A3003 RMK AO2 SLP170 T00830039=
202005090552 METAR KATL 090552Z 33008KT 10SM SCT200 BKN250 09/04 A3003 RMK AO2 SLP169 60000 T00940039 10144 20094 51016=
202005090452 METAR KATL 090452Z 33016G22KT 10SM BKN200 BKN250 11/04 A3003 RMK AO2 SLP167 T01060044 401780100=
202005090352 METAR KATL 090352Z 33013G22KT 10SM FEW012 BKN200 BKN250 12/08 A3001 RMK AO2 PK WND 33027/0258 SLP159 T01220083=
202005090252 METAR KATL 090252Z 33019G26KT 10SM FEW008 SCT015 BKN035 OVC250 14/11 A2998 RMK AO2 PK WND 33026/0251 SLP151 60000 T01390106 53031=
202005090152 METAR KATL 090152Z 31013KT 10SM FEW007 BKN013 BKN030 OVC200 14/12 A2995 RMK AO2 RAE29 SLP138 P0000 T01440122=
202005090052 METAR KATL 090052Z 32009KT 3SM -RA BR BKN006 BKN020 OVC040 14/12 A2992 RMK AO2 SLP128 P0000 T01440122=
202005090007 SPECI KATL 090007Z 34008KT 3SM -RA BR BKN006 BKN015 OVC040 14/13 A2989 RMK AO2 SFC VIS 4 P0000 T01440128=
202005082352 METAR KATL 082352Z 32009KT 2SM -RA BR FEW007 BKN015 OVC040 14/13 A2989 RMK AO2 SFC VIS 3 SLP119 P0002 60002 T01440128 10172 20144 53008=
202005082252 METAR KATL 082252Z 25008KT 2SM -RA BKN028 OVC050 17/11 A2986 RMK AO2 SFC VIS 4 RAB45 SLP108 P0000 T01670106=
202005082152 METAR KATL 082152Z 20006KT 10SM BKN040 OVC100 17/09 A2985 RMK AO2 SLP106 VIRGA NW-NE T01720089=
202005082052 METAR KATL 082052Z 22007KT 10SM BKN065 BKN100 OVC140 17/08 A2986 RMK AO2 SLP110 VIRGA SW-NW-NE 60000 T01720083 55038=
202005081952 METAR KATL 081952Z 18009KT 10SM BKN100 BKN140 OVC200 17/08 A2986 RMK AO2 SLP110 ACC OHD-ALQDS T01720078=
202005081941 SPECI KATL 081941Z 18009KT 10SM BKN100 BKN140 OVC200 17/08 A2986 RMK AO2 PRESFR T01670078=
202005081852 METAR KATL 081852Z 18009KT 10SM SCT050 BKN095 BKN120 OVC180 16/08 A2992 RMK AO2 RAE23 SLP129 VIRGA NW-NE ACC DSNT SW P0000 T01610078=
202005081824 SPECI KATL 081824Z 18007KT 10SM FEW048 BKN090 OVC150 16/08 A2994 RMK AO2 RAE23 PRESFR P0000 T01560083=
202005081752 METAR KATL 081752Z 19004KT 10SM -RA SCT040 BKN080 OVC110 14/08 A2998 RMK AO2 RAB00 SLP150 P0001 60001 T01440083 10178 20122 58001=
202005081716 SPECI KATL 081716Z VRB04KT 9SM -RA BKN055 OVC090 14/08 A3002 RMK AO2 RAB00 PRESFR P0000 T01440078=
202005081652 METAR KATL 081652Z 27009KT 10SM FEW046 BKN085 BKN110 OVC200 16/07 A3006 RMK AO2 RAE01 SLP177 VIRGA OHD-ALQDS P0000 T01560072=
202005081552 METAR KATL 081552Z 29008KT 10SM -RA SCT050 BKN085 OVC150 16/07 A3008 RMK AO2 RAB39 SLP184 P0000 T01610072=
202005081507 SPECI KATL 081507Z 23010G17KT 10SM BKN085 BKN150 OVC200 17/04 A3002 RMK AO2 PRESRR VIRGA SW-NW-N ACC N-OHD-S T01720044=
202005081452 METAR KATL 081452Z 20010KT 10SM BKN095 BKN150 OVC200 17/05 A2998 RMK AO2 SLP149 VIRGA SW-NW ACC SW-NW-N T01720050 56016=
202005081352 METAR KATL 081352Z 21006KT 10SM SCT110 BKN150 BKN200 BKN250 17/07 A2998 RMK AO2 SLP150 ACC SW-NW T01670067=
202005081252 METAR KATL 081252Z 19007KT 10SM SCT110 BKN150 BKN250 14/06 A3001 RMK AO2 SLP159 ACC S & SW-NW T01390056=
202005081152 METAR KATL 081152Z 19003KT 10SM SCT120 BKN150 BKN250 12/06 A3003 RMK AO2 SLP166 T01220061 10133 20100 56014=
202005081052 METAR KATL 081052Z 21003KT 10SM SCT130 BKN190 BKN250 12/04 A3003 RMK AO2 SLP166 T01170044=
202005080952 METAR KATL 080952Z 23004KT 10SM SCT120 SCT160 BKN190 BKN250 12/05 A3004 RMK AO2 SLP170 VIRGA NW-NE T01220050=
202005080852 METAR KATL 080852Z 00000KT 10SM SCT100 BKN160 BKN180 13/03 A3007 RMK AO2 SLP180 T01330033 55000=
202005080752 METAR KATL 080752Z 00000KT 10SM SCT120 BKN150 BKN180 13/05 A3007 RMK AO2 SLP180 T01280050=
202005080652 METAR KATL 080652Z 00000KT 10SM SCT150 SCT250 11/05 A3006 RMK AO2 SLP175 T01060050=
202005080552 METAR KATL 080552Z 00000KT 10SM SCT100 12/05 A3007 RMK AO2 SLP181 T01170050 10183 20111 55012=
202005080452 METAR KATL 080452Z 00000KT 10SM FEW250 12/04 A3005 RMK AO2 SLP174 T01170044 402060072=
202005080352 METAR KATL 080352Z 23003KT 10SM SCT250 13/04 A3009 RMK AO2 SLP188 T01330039=
202005080252 METAR KATL 080252Z 28003KT 10SM SCT250 14/03 A3011 RMK AO2 SLP193 T01440033 53011=
202005080152 METAR KATL 080152Z 24003KT 10SM FEW250 15/04 A3009 RMK AO2 SLP189 T01500039=
202005080052 METAR KATL 080052Z 32004KT 10SM FEW250 17/02 A3008 RMK AO2 SLP185 T01670017=
202005072352 METAR KATL 072352Z 33007KT 10SM CLR 18/01 A3007 RMK AO2 SLP183 T01830011 10206 20183 56008=
202005072252 METAR KATL 072252Z 29010KT 10SM CLR 19/02 A3008 RMK AO2 SLP183 T01940017=
202005072152 METAR KATL 072152Z 34013G19KT 10SM FEW250 21/01 A3008 RMK AO2 SLP186 T02060011=
202005072052 METAR KATL 072052Z 32011G21KT 10SM FEW080 FEW250 20/02 A3010 RMK AO2 WSHFT 1943 SLP191 T02000017 58014=
202005072004 SPECI KATL 072004Z 30005G19KT 10SM FEW080 19/02 A3010 RMK AO2 WSHFT 1943 T01940022=
202005071952 METAR KATL 071952Z 28010KT 10SM FEW080 19/02 A3011 RMK AO2 SLP196 T01940017=
202005071852 METAR KATL 071852Z 32008G18KT 10SM FEW075 19/01 A3013 RMK AO2 SLP200 T01890011=
202005071752 METAR KATL 071752Z 34010KT 10SM FEW070 19/02 A3014 RMK AO2 SLP205 T01890022 10189 20089 58010=
202005071652 METAR KATL 071652Z 33010KT 10SM FEW065 18/02 A3015 RMK AO2 SLP209 T01830017=
202005071552 METAR KATL 071552Z 33011G18KT 300V010 10SM FEW060 17/01 A3017 RMK AO2 SLP214 T01670011=
202005071452 METAR KATL 071452Z 32012G19KT 10SM FEW050 16/03 A3017 RMK AO2 SLP215 T01560028 51014=
202005071352 METAR KATL 071352Z 30009KT 10SM CLR 13/04 A3016 RMK AO2 SLP214 T01280039=
202005071252 METAR KATL 071252Z 31010KT 10SM CLR 11/04 A3014 RMK AO2 SLP208 T01110039=
202005071152 METAR KATL 071152Z 31009KT 10SM CLR 09/03 A3013 RMK AO2 SLP203 T00890033 10089 20072 53017=
202005071052 METAR KATL 071052Z 31010KT 10SM CLR 07/03 A3010 RMK AO2 SLP194 T00720033=
202005070952 METAR KATL 070952Z 31009KT 10SM CLR 07/03 A3008 RMK AO2 SLP186 T00720033=
202005070852 METAR KATL 070852Z 32010KT 10SM CLR 08/03 A3008 RMK AO2 SLP182 T00780033 56013=
202005070752 METAR KATL 070752Z 30011KT 10SM CLR 08/04 A3009 RMK AO2 SLP186 T00780039=
202005070652 METAR KATL 070652Z 30011KT 10SM CLR 08/04 A3010 RMK AO2 SLP189 T00830039=
202005070552 METAR KATL 070552Z 30009KT 10SM CLR 09/03 A3012 RMK AO2 SLP195 T00890033 10144 20089 53006=
202005070452 METAR KATL 070452Z 33009KT 10SM CLR 09/03 A3011 RMK AO2 SLP193 T00940033 402330094=
202005070352 METAR KATL 070352Z 32008KT 10SM CLR 10/03 A3010 RMK AO2 SLP190 T01000033=
202005070252 METAR KATL 070252Z 33010KT 10SM FEW038 11/03 A3010 RMK AO2 SLP189 T01060028 51030=
202005070152 METAR KATL 070152Z 34018G24KT 10SM FEW038 SCT050 12/03 A3008 RMK AO2 PK WND 34028/0058 SLP183 T01170028=
202005070052 METAR KATL 070052Z 33015G22KT 10SM SCT038 BKN050 13/03 A3005 RMK AO2 PK WND 31029/0023 SLP173 T01280033=
202005062352 METAR KATL 062352Z 31013G25KT 10SM SCT040 SCT060 14/04 A3001 RMK AO2 PK WND 33030/2305 SLP158 T01440039 10233 20144 51023=
202005062252 METAR KATL 062252Z 29019G29KT 10SM SCT040 BKN060 16/06 A3000 RMK AO2 PK WND 31033/2229 SLP156 MDT CU OHD-NE T01610056=
202005062152 METAR KATL 062152Z 33019G30KT 10SM SCT045 BKN060 18/06 A2997 RMK AO2 PK WND 34036/2121 SLP146 MDT CU OHD T01780061=
202005062052 METAR KATL 062052Z 29021G31KT 10SM SCT065 SCT080 21/03 A2993 RMK AO2 PK WND 30036/2027 SLP132 T02060033 53006=
202005061952 METAR KATL 061952Z 31021G34KT 10SM FEW065 FEW080 22/06 A2993 RMK AO2 PK WND 32036/1932 SLP129 T02170061=
202005061852 METAR KATL 061852Z 31021G28KT 10SM FEW065 22/06 A2992 RMK AO2 PK WND 34031/1837 SLP125 T02220061=
202005061752 METAR KATL 061752Z 29019G28KT 10SM FEW060 23/04 A2992 RMK AO2 PK WND 28030/1656 SLP124 T02280044 10228 20139 58006=
202005061652 METAR KATL 061652Z 28022G27KT 10SM FEW060 22/03 A2992 RMK AO2 PK WND 31030/1614 SLP125 T02220033=
202005061552 METAR KATL 061552Z 28017G25KT 10SM FEW055 22/07 A2993 RMK AO2 PK WND 30031/1503 SLP129 T02170067=
202005061452 METAR KATL 061452Z 29017G24KT 10SM FEW045 21/08 A2993 RMK AO2 SLP129 T02060083 58006=
202005061352 METAR KATL 061352Z 28012KT 10SM CLR 19/09 A2994 RMK AO2 SLP132 T01890094=
202005061252 METAR KATL 061252Z 25006KT 10SM CLR 16/07 A2995 RMK AO2 SLP134 T01610072=
202005061152 METAR KATL 061152Z 29007KT 10SM FEW200 14/07 A2995 RMK AO2 SLP136 T01390067 10178 20122 53004=
202005061052 METAR KATL 061052Z 28007KT 10SM FEW200 12/06 A2994 RMK AO2 SLP133 T01220061=
202005060952 METAR KATL 060952Z 30006KT 10SM FEW200 SCT250 14/06 A2994 RMK AO2 SLP132 T01390056=
202005060852 METAR KATL 060852Z 32007KT 10SM FEW150 SCT200 BKN250 15/06 A2994 RMK AO2 SLP131 T01500056 58001=
202005060752 METAR KATL 060752Z 34009KT 10SM FEW030 BKN250 16/05 A2994 RMK AO2 SLP132 T01610050=
202005060652 METAR KATL 060652Z 34013G21KT 10SM FEW025 17/06 A2995 RMK AO2 PK WND 32030/0558 SLP133 T01670056=
202005060552 METAR KATL 060552Z 33021G27KT 10SM FEW025 FEW250 18/10 A2994 RMK AO2 PK WND 33027/0551 SLP131 T01780100 10256 20178 51019=
202005060452 METAR KATL 060452Z 32016KT 10SM FEW020 BKN035 BKN250 19/14 A2993 RMK AO2 PK WND 31026/0407 SLP125 T01940139 402890189=
202005060352 METAR KATL 060352Z 31017G23KT 10SM SCT020 BKN032 BKN250 21/16 A2990 RMK AO2 SLP116 T02110161=
202005060252 METAR KATL 060252Z 29010G19KT 10SM SCT022 SCT050 BKN250 23/17 A2989 RMK AO2 SLP111 T02280172 51019=
202005060152 METAR KATL 060152Z 28011KT 10SM SCT035 BKN050 BKN150 BKN250 24/17 A2987 RMK AO2 SLP105 T02390172=
202005060052 METAR KATL 060052Z 26007KT 10SM SCT038 BKN070 BKN150 BKN250 24/17 A2985 RMK AO2 SLP097 MDT CU NE-SE-SW T02440167=
202005052352 METAR KATL 052352Z 27007KT 10SM FEW035 SCT060 BKN170 BKN250 26/17 A2983 RMK AO2 SLP091 CB DSNT NW-NE T02560167 10289 20244 56009=
202005052252 METAR KATL 052252Z 26012KT 10SM FEW040 SCT180 BKN250 26/16 A2983 RMK AO2 SLP094 T02610161=
202005052152 METAR KATL 052152Z 23011G17KT 10SM FEW040 BKN200 BKN250 27/17 A2983 RMK AO2 SLP093 T02670167=
202005052052 METAR KATL 052052Z 24010G19KT 10SM FEW040 SCT060 BKN200 BKN250 27/17 A2985 RMK AO2 SLP100 MDT CU NE-SE-SW T02720172 58013=
202005051952 METAR KATL 051952Z 25010G18KT 10SM SCT038 BKN060 BKN200 BKN250 27/18 A2987 RMK AO2 SLP107 MDT CU S-SW NW-N T02670178=
202005051852 METAR KATL 051852Z 26012G17KT 10SM FEW040 FEW065 BKN200 BKN250 29/18 A2988 RMK AO2 SLP107 T02890183=
202005051752 METAR KATL 051752Z 30008KT 10SM FEW038 SCT140 BKN180 BKN250 27/18 A2989 RMK AO2 SLP113 T02720178 10272 20194 50003=
202005051652 METAR KATL 051652Z 25009KT 10SM SCT036 SCT060 BKN200 BKN250 27/18 A2991 RMK AO2 SLP119 T02670183=
202005051552 METAR KATL 051552Z 27013G18KT 10SM FEW034 SCT150 BKN200 BKN250 26/17 A2992 RMK AO2 SLP121 T02610172=
202005051452 METAR KATL 051452Z 22008KT 10SM FEW030 SCT140 BKN180 BKN250 24/17 A2988 RMK AO2 SLP110 T02440172 56014=
202005051352 METAR KATL 051352Z 23009KT 10SM FEW028 SCT150 BKN200 BKN250 23/17 A2989 RMK AO2 SLP113 T02330172=
202005051252 METAR KATL 051252Z COR 24008KT 10SM FEW035 SCT150 BKN200 BKN250 22/17 A2990 RMK A02 SLP115 ACC W T02170167=
202005051152 METAR KATL 051152Z 26008KT 10SM FEW035 SCT150 BKN200 19/16 A2992 RMK AO2 SLP124 T01940161 10217 20189 53007=
202005051052 METAR KATL 051052Z 23006KT 10SM FEW150 SCT200 SCT250 19/16 A2987 RMK AO2 SLP106 T01890161=
202005050952 METAR KATL 050952Z 21007KT 10SM FEW180 19/17 A2988 RMK AO2 SLP109 T01890167=
202005050852 METAR KATL 050852Z 00000KT 10SM FEW150 SCT180 21/17 A2990 RMK AO2 SLP115 T02060167 55015=
202005050752 METAR KATL 050752Z 00000KT 10SM SCT150 BKN200 21/17 A2990 RMK AO2 SLP115 T02110167 $=
202005050652 METAR KATL 050652Z 00000KT 10SM FEW045 SCT200 BKN250 21/17 A2991 RMK AO2 SLP117 T02110167 $=
202005050552 METAR KATL 050552Z 29007KT 10SM FEW045 SCT180 BKN250 22/17 A2995 RMK AO2 SLP131 T02170167 10272 20217 50008 $=
202005050452 METAR KATL 050452Z 26005KT 10SM FEW150 BKN200 BKN250 22/17 A2995 RMK AO2 SLP133 T02220167 403000161 $=
202005050352 METAR KATL 050352Z 27007KT 10SM FEW150 BKN250 22/17 A2995 RMK AO2 SLP132 T02220167 $=
202005050252 METAR KATL 050252Z 20006KT 10SM FEW200 BKN250 23/17 A2992 RMK AO2 SLP123 T02330172 55000 $=
202005050152 METAR KATL 050152Z 21005KT 10SM FEW045 BKN250 24/17 A2991 RMK AO2 SLP120 T02440172 $=
202005050052 METAR KATL 050052Z 21005KT 10SM FEW045 BKN250 26/18 A2992 RMK AO2 SLP122 T02560178 $=
202005042352 METAR KATL 042352Z 27006KT 10SM SCT045 BKN070 BKN250 27/18 A2992 RMK AO2 SLP124 MDT CU OHD-ALQDS T02670178 10300 20267 53003=
202005042252 METAR KATL 042252Z 28007KT 10SM SCT042 SCT070 BKN250 28/18 A2992 RMK AO2 SLP122 MDT CU E-S-W T02780178=
202005042152 METAR KATL 042152Z 28006KT 10SM SCT045 BKN070 BKN250 29/18 A2991 RMK AO2 SLP118 MDT CU NW-NE-E T02890178=
202005042052 METAR KATL 042052Z 29007KT 10SM SCT048 BKN065 BKN250 29/18 A2991 RMK AO2 SLP120 MDT CU W-NW T02890178 56015=
202005041952 METAR KATL 041952Z 24007KT 200V270 10SM SCT046 BKN060 BKN250 29/18 A2992 RMK AO2 SLP123 T02890178=
202005041852 METAR KATL 041852Z 29005KT 10SM SCT046 SCT200 BKN250 28/17 A2993 RMK AO2 SLP127 T02830172=
202005041752 METAR KATL 041752Z 26008KT 10SM FEW043 SCT200 SCT250 BKN300 28/17 A2996 RMK AO2 SLP136 T02830172 10283 20183 58016=
202005041652 METAR KATL 041652Z 30006KT 10SM FEW042 SCT200 SCT300 27/17 A2999 RMK AO2 SLP146 T02720167=
202005041552 METAR KATL 041552Z 32007KT 10SM FEW040 SCT250 SCT300 26/16 A3001 RMK AO2 SLP154 T02610156=
202005041452 METAR KATL 041452Z 29005KT 10SM FEW250 25/15 A3001 RMK AO2 SLP152 T02500150 50001=
202005041352 METAR KATL 041352Z 24005KT 10SM FEW250 23/14 A3001 RMK AO2 SLP154 T02330144=
202005041252 METAR KATL 041252Z 24004KT 10SM FEW250 21/13 A3001 RMK AO2 SLP154 T02060133=
202005041152 METAR KATL 041152Z 23004KT 10SM FEW100 18/13 A3001 RMK AO2 SLP152 T01830128 10206 20161 53014 $=
202005041052 METAR KATL 041052Z 23004KT 10SM CLR 16/12 A2999 RMK AO2 SLP147 T01610122=
202005040952 METAR KATL 040952Z 00000KT 10SM CLR 18/12 A2997 RMK AO2 SLP139 T01780122=
202005040852 METAR KATL 040852Z 32004KT 10SM CLR 19/12 A2996 RMK AO2 SLP137 T01890117 55002 $=
202005040752 METAR KATL 040752Z 30006KT 10SM FEW110 19/12 A2996 RMK AO2 SLP137 T01940117 $=
202005040652 METAR KATL 040652Z 31006KT 10SM FEW110 FEW200 19/12 A2997 RMK AO2 SLP138 T01940117 $=
202005040552 METAR KATL 040552Z 30006KT 10SM FEW200 21/12 A2997 RMK AO2 SLP139 T02060122 10267 20206 55006 $=
202005040452 METAR KATL 040452Z 29007KT 10SM FEW180 SCT220 SCT250 22/12 A2994 RMK AO2 PRESRR SLP130 T02170122 402940144 $=
202005040352 METAR KATL 040352Z 22007KT 10SM FEW160 BKN190 BKN250 22/12 A2991 RMK AO2 SLP120 T02220117 $=
202005040252 METAR KATL 040252Z 25006KT 10SM SCT210 SCT250 23/11 A2999 RMK AO2 SLP145 T02330111 50007 $=
202005040152 METAR KATL 040152Z 24005KT 10SM FEW075 SCT200 BKN250 24/11 A2999 RMK AO2 SLP148 T02440111 $=
202005040052 METAR KATL 040052Z 26008KT 10SM FEW055 SCT170 BKN250 BKN300 25/10 A3002 RMK AO2 SLP158 T02500100 $=
202005032352 METAR KATL 032352Z 25008KT 10SM FEW050 FEW100 SCT160 SCT250 27/11 A2997 RMK AO2 SLP139 VIRGA DSNT W-N T02670106 10294 20267 55004 $=
202005032252 METAR KATL 032252Z 21010KT 10SM FEW160 FEW200 FEW250 28/11 A2994 RMK AO2 SLP132 ACC DSNT NW-N T02780106 $=
202005032152 METAR KATL 032152Z 22007G20KT 180V240 10SM FEW170 FEW250 28/11 A2995 RMK AO2 SLP133 T02830111 $=
202005032052 METAR KATL 032052Z 25009KT 10SM FEW150 SCT250 29/11 A2998 RMK AO2 SLP144 T02890111 56020 $=
202005031952 METAR KATL 031952Z 23009G14KT 10SM FEW150 29/11 A2999 RMK AO2 SLP147 T02890106 $=
202005031852 METAR KATL 031852Z 23011G17KT 10SM FEW060 28/12 A3002 RMK AO2 SLP156 T02830122 $=
202005031752 METAR KATL 031752Z 20010KT 10SM FEW055 FEW150 27/12 A3004 RMK AO2 SLP165 T02720122 10272 20172 58027 $=
202005031652 METAR KATL 031652Z 24011KT 200V260 10SM FEW050 FEW150 26/12 A3008 RMK AO2 SLP179 T02610122 $=
202005031552 METAR KATL 031552Z 26009KT 10SM FEW045 25/13 A3011 RMK AO2 SLP187 T02500133 $=
202005031452 METAR KATL 031452Z 26010KT 10SM FEW040 23/13 A3012 RMK AO2 SLP193 T02330128 58002 $=
202005031352 METAR KATL 031352Z 27009KT 10SM FEW150 22/13 A3013 RMK AO2 SLP197 T02170128 $=
202005031252 METAR KATL 031252Z 28006KT 10SM FEW150 20/12 A3013 RMK AO2 SLP196 T02000122 $=
202005031152 METAR KATL 031152Z 28007KT 10SM FEW250 17/12 A3013 RMK AO2 SLP196 T01720117 10183 20144 53015=
202005031052 METAR KATL 031052Z 26003KT 10SM FEW250 15/10 A3011 RMK AO2 SLP188 T01500100=
202005030952 METAR KATL 030952Z 25003KT 10SM CLR 15/11 A3009 RMK AO2 SLP184 T01500106=
202005030852 METAR KATL 030852Z 00000KT 10SM CLR 17/10 A3009 RMK AO2 SLP180 T01670100 55004=
202005030752 METAR KATL 030752Z 00000KT 10SM CLR 17/10 A3008 RMK AO2 SLP177 T01720100=
202005030652 METAR KATL 030652Z 24003KT 10SM CLR 18/10 A3008 RMK AO2 SLP179 T01780100=
202005030552 METAR KATL 030552Z 22006KT 10SM CLR 18/10 A3010 RMK AO2 SLP184 T01780100 10244 20178 58010=
202005030452 METAR KATL 030452Z 22005KT 10SM CLR 19/10 A3011 RMK AO2 SLP188 T01890100 402780111=
202005030352 METAR KATL 030352Z 25003KT 10SM SCT250 19/09 A3012 RMK AO2 SLP193 T01940094=
202005030252 METAR KATL 030252Z 22004KT 10SM CLR 21/09 A3013 RMK AO2 SLP196 T02060094 53010=
202005030152 METAR KATL 030152Z 23004KT 10SM CLR 22/09 A3012 RMK AO2 SLP192 T02170094=
202005030052 METAR KATL 030052Z 22004KT 10SM CLR 23/08 A3011 RMK AO2 SLP189 T02280083=
202005022352 METAR KATL 022352Z 22005KT 10SM CLR 25/07 A3010 RMK AO2 SLP188 T02500067 10278 20250 58003=
202005022252 METAR KATL 022252Z 21009KT 10SM CLR 27/07 A3010 RMK AO2 SLP188 T02670067=
202005022152 METAR KATL 022152Z 23007KT 10SM CLR 27/06 A3011 RMK AO2 SLP189 T02720061=
202005022052 METAR KATL 022052Z 21008KT 10SM CLR 27/06 A3011 RMK AO2 SLP189 T02720061 58023=
202005021952 METAR KATL 021952Z VRB03KT 10SM CLR 28/07 A3013 RMK AO2 SLP198 T02780067=
202005021852 METAR KATL 021852Z 23008KT 180V260 10SM CLR 27/08 A3016 RMK AO2 SLP206 T02670078=
202005021752 METAR KATL 021752Z 21005KT 10SM CLR 26/07 A3018 RMK AO2 SLP214 T02610072 10267 20128 58009=
202005021652 METAR KATL 021652Z 00000KT 10SM CLR 25/07 A3020 RMK AO2 SLP219 T02500067=
202005021552 METAR KATL 021552Z 00000KT 10SM CLR 24/07 A3021 RMK AO2 SLP225 T02440067=
202005021452 METAR KATL 021452Z 00000KT 10SM FEW150 22/05 A3021 RMK AO2 SLP223 T02220050 51012=
202005021352 METAR KATL 021352Z 00000KT 10SM FEW150 21/04 A3021 RMK AO2 SLP223 T02110044 $=
202005021252 METAR KATL 021252Z 33003KT 10SM FEW150 FEW250 18/08 A3020 RMK AO2 SLP220 T01830083 $=
202005021152 METAR KATL 021152Z 00000KT 10SM FEW150 FEW250 13/08 A3017 RMK AO2 SLP213 T01280078 10139 20111 53017 $=
202005021052 METAR KATL 021052Z 00000KT 10SM FEW150 FEW250 12/06 A3015 RMK AO2 SLP205 T01170056 $=
202005020952 METAR KATL 020952Z 27003KT 10SM FEW200 11/06 A3012 RMK AO2 SLP196 T01110056 $=
202005020852 METAR KATL 020852Z 29006KT 10SM FEW250 12/06 A3012 RMK AO2 SLP196 T01170061 53001 $=
202005020752 METAR KATL 020752Z 29004KT 10SM CLR 13/06 A3011 RMK AO2 SLP193 T01280061 $=
202005020652 METAR KATL 020652Z 29005KT 10SM CLR 13/06 A3011 RMK AO2 SLP194 T01330061 $=
202005020552 METAR KATL 020552Z 30007KT 10SM CLR 14/07 A3012 RMK AO2 SLP195 T01390067 10211 20133 53007 $=
202005020452 METAR KATL 020452Z 29004KT 10SM FEW250 14/06 A3011 RMK AO2 SLP192 T01440061 402390089 $=
202005020352 METAR KATL 020352Z 30006KT 10SM FEW250 16/06 A3010 RMK AO2 SLP190 T01560061 $=
202005020252 METAR KATL 020252Z 29007KT 10SM SCT250 16/06 A3010 RMK AO2 SLP188 T01610061 53013 $=
202005020152 METAR KATL 020152Z 28005KT 10SM BKN250 18/06 A3008 RMK AO2 SLP183 T01780056 $=
202005020052 METAR KATL 020052Z 30007KT 10SM BKN250 19/06 A3007 RMK AO2 SLP178 T01940056=
202005012352 METAR KATL 012352Z 27008KT 10SM BKN250 21/06 A3006 RMK AO2 SLP175 T02110056 10239 20211 53005=
202005012252 METAR KATL 012252Z 29011KT 10SM SCT250 23/06 A3005 RMK AO2 SLP171 T02280056=
202005012152 METAR KATL 012152Z 31010G19KT 10SM SCT250 23/05 A3004 RMK AO2 SLP169 T02330050=
202005012052 METAR KATL 012052Z 28014G19KT 10SM FEW250 23/06 A3004 RMK AO2 SLP169 T02330056 58006=
202005011952 METAR KATL 011952Z 27013G19KT 10SM FEW250 23/06 A3005 RMK AO2 SLP173 T02330061=
202005011852 METAR KATL 011852Z 28009G24KT 250V320 10SM FEW250 22/06 A3006 RMK AO2 SLP178 T02220056=
202005011752 METAR KATL 011752Z 28014G20KT 10SM FEW250 21/05 A3006 RMK AO2 SLP176 T02110050 10217 20106 58007=
202005011652 METAR KATL 011652Z 31014KT 10SM FEW250 21/03 A3008 RMK AO2 SLP181 T02060033=
202005011552 METAR KATL 011552Z 32015G24KT 10SM FEW200 19/04 A3008 RMK AO2 PK WND 30026/1511 SLP183 T01940039=
202005011452 METAR KATL 011452Z 29013G20KT 10SM FEW200 17/06 A3008 RMK AO2 SLP184 T01720061 51016=
202005011352 METAR KATL 011352Z 28012G16KT 10SM FEW200 15/06 A3007 RMK AO2 SLP180 T01500061=
202005011252 METAR KATL 011252Z 29010KT 10SM CLR 13/06 A3005 RMK AO2 SLP175 T01280061=
