##########################################################
# Query made at 04/20/2024 00:12:06 UTC
# Time interval: from 08/01/2020 12:00  to 08/31/2020 12:59  UTC
##########################################################

##########################################################
# KATL, Atlanta, Hartsfield - Jackson Atlanta International Airport (United States)
# WMO index: 72219. WIGOS ID: 0-20000-0-72219
# Latitude 33-38-59N. Longitude 084-25-00W. Altitude 312 m.
##########################################################

202008311252 METAR KATL 311252Z 27003KT 7SM BKN008 BKN012 BKN032 24/23 A2995 RMK AO2 DZE21 SLP132 BINOVC P0000 T02440228=
202008311234 SPECI KATL 311234Z 27003KT 7SM SCT004 BKN008 OVC032 24/22 A2994 RMK AO2 DZE21 BINOVC P0000 T02390222=
202008311152 METAR KATL 311152Z 00000KT 2SM -DZ BR BKN004 OVC020 23/22 A2993 RMK AO2 SFC VIS 6 SLP128 CIG 003V005 TWRINC P0001 60001 70271 T02330222 10233 20228 53016=
202008311128 SPECI KATL 311128Z 00000KT 2SM -DZ BR BKN004 OVC020 23/22 A2992 RMK AO2 SFC VIS 4 CIG 003V005 TWRINC P0000 T02330222=
202008311052 METAR KATL 311052Z 19003KT 5SM -DZ BR BKN004 OVC015 23/22 A2992 RMK AO2 DZB43 SLP121 P0000 T02330222=
202008311031 SPECI KATL 311031Z 00000KT 7SM BKN004 OVC015 23/22 A2991 RMK AO2 T02330217=
202008310952 METAR KATL 310952Z 00000KT 7SM BKN007 OVC015 23/22 A2989 RMK AO2 DZE08 SLP112 CIG 005V008 P0000 T02330217=
202008310909 SPECI KATL 310909Z 24003KT 7SM OVC005 23/22 A2989 RMK AO2 DZE08 CIG 004V007 P0000 T02280217=
202008310852 METAR KATL 310852Z 23005KT 6SM -DZ BR BKN004 OVC008 23/22 A2988 RMK AO2 DZB52 SLP108 CIG 003V005 P0000 60000 T02280217 53001=
202008310847 SPECI KATL 310847Z 24006KT 7SM BKN004 OVC008 23/22 A2988 RMK AO2 CIG 003V005=
202008310752 METAR KATL 310752Z 23003KT 8SM FEW004 BKN007 OVC012 23/22 A2987 RMK AO2 SLP104 CIG 005V009 T02280217 $=
202008310725 SPECI KATL 310725Z 22005KT 8SM FEW003 BKN006 OVC012 23/22 A2987 RMK AO2 CIG 004V008 T02280217 $=
202008310652 METAR KATL 310652Z 26004KT 1/2SM R09R/P6000FT BR BKN003 OVC008 23/22 A2988 RMK AO2 SFC VIS 5 SLP107 CIG 002V004 TWRINC T02280217 $=
202008310552 METAR KATL 310552Z 19003KT 1/2SM R09R/3000VP6000FT BR BKN003 OVC150 23/22 A2988 RMK AO2 SFC VIS 2 SLP107 CIG 002V005 TWRINC 60107 T02280217 10233 20222 55004 $=
202008310549 SPECI KATL 310549Z 18004KT 2SM R09R/5500VP6000FT BR BKN003 BKN150 23/22 A2988 RMK AO2 CIG 002V005 $=
202008310452 METAR KATL 310452Z 15003KT 10SM FEW007 SCT160 SCT190 BKN250 23/21 A2988 RMK AO2 SLP105 T02280211 403280222 $=
202008310352 METAR KATL 310352Z 11003KT 10SM FEW007 SCT150 BKN180 BKN250 23/21 A2988 RMK AO2 SLP107 T02280211 $=
202008310252 METAR KATL 310252Z 00000KT 10SM FEW007 SCT110 BKN150 BKN180 BKN250 23/21 A2989 RMK AO2 RAE05 SLP112 P0000 60107 T02280211 50004 $=
202008310152 METAR KATL 310152Z 04003KT 10SM -RA SCT008 SCT050 OVC110 23/22 A2991 RMK AO2 TSE0058 SLP117 P0006 T02330217 $=
202008310059 SPECI KATL 310059Z 00000KT 6SM -RA BR SCT020 OVC042 23/22 A2987 RMK AO2 TSE58 LTG DSNT N-E AND W CB DSNT N-E AND W P0001 T02330217 $=
202008310052 METAR KATL 310052Z 00000KT 6SM -TSRA BR SCT020CB OVC035 23/22 A2987 RMK AO2 PK WND 17039/0003 LTG DSNT N AND NE SLP106 OCNL LTGICCG SE-S & W-NW TS SE-S & W-NW MOV N CB DSNT N-E P0101 T02280217=
202008310035 SPECI KATL 310035Z 15008G17KT 3SM TSRA BR BKN020CB OVC030 23/22 A2988 RMK AO2 PK WND 17039/0003 LTG DSNT ALQDS OCNL LTGICCG SE-S TS SE-S MOV N CB DSNT ALQDS P0092 T02280217=
202008310032 SPECI KATL 310032Z 15010KT 2 1/2SM +TSRA BR BKN017CB OVC030 23/22 A2988 RMK AO2 PK WND 17039/0003 LTG DSNT ALQDS OCNL LTGICCG SE-S TS SE-S MOV N CB DSNT ALQDS P0090 T02280217 $=
202008302352 METAR KATL 302352Z 16012G22KT 1 1/2SM R09R/6000VP6000FT +TSRA BR FEW010 BKN025CB OVC040 22/21 A2988 RMK AO2 SLP108 LTG DSNT N CONS LTGICCG OHD & ALQDS TS OHD & ALQDS DRFTG N CB DSNT N P0120 60163 T02220211 10328 20222 53024 $=
202008302339 SPECI KATL 302339Z 14009KT 2SM R09R/5500VP6000FT +TSRA BR FEW010 BKN022CB OVC030 22/21 A2988 RMK AO2 LTG DSNT N FRQ LTGICCG OHD & ALQDS TS OHD & ALQDS DRFTG N CB DSNT N P0100 T02220211 $=
202008302332 SPECI KATL 302332Z 16010KT 1 3/4SM R09R/5500VP6000FT +TSRA BR FEW010 BKN024CB OVC038 23/22 A2987 RMK AO2 LTG DSNT N FRQ LTGICCG ALQDS TS ALQDS DRFTG N CB DSNT N P0085 T02280217 $=
202008302317 SPECI KATL 302317Z 25008KT 1SM R09R/4000V6000FT +TSRA BR FEW010 BKN026CB OVC042 23/22 A2988 RMK AO2 CONS LTGICCG ALQDS TS ALQDS DRFTG N P0043 T02330222 $=
202008302306 SPECI KATL 302306Z 30008G15KT 1 1/2SM R09R/5500VP6000FT -TSRA BR SCT020CB BKN028 OVC045 24/22 A2987 RMK AO2 FRQ LTGICCG ALQDS TS ALQDS DRFTG N P0014 T02390222 $=
202008302303 SPECI KATL 302303Z 20006KT 2SM +TSRA BR SCT020CB BKN028 OVC045 24/22 A2987 RMK AO2 FRQ LTGICCG ALQDS TS ALQDS DRFTG N P0011 T02440222=
202008302252 METAR KATL 302252Z 35012KT 3SM -TSRA BR SCT022CB BKN027 OVC050 24/23 A2986 RMK AO2 RAB14 SLP101 OCNL LTGICCG ALQDS TS ALQDS DRFTG N P0043 T02440228=
202008302243 SPECI KATL 302243Z 33012KT 3/4SM R09R/3000VP6000FT TSRA BR BKN022CB BKN028 OVC060 25/22 A2985 RMK AO2 RAB14 FRQ LTGICCG ALQDS TS ALQDS DRFTG N P0042 T02500217=
202008302239 SPECI KATL 302239Z 03009G21KT 1SM R09R/3000VP6000FT +TSRA BR BKN022CB BKN028 OVC085 25/19 A2985 RMK AO2 LTG DSNT SE AND S RAB14 FRQ LTGICCG ALQDS TS ALQDS DRFTG N P0040 T02500189=
202008302235 SPECI KATL 302235Z 16016G24KT 3/4SM R09R/3000V6000FT +TSRA BR SCT026CB BKN048 OVC060 26/20 A2985 RMK AO2 LTG DSNT SE AND S RAB14 OCNL LTGICCG OHD-SE-W-N TS OHD-SE-W-N DRFTG N P0028 T02560200=
202008302226 SPECI KATL 302226Z 19012G20KT 2 1/2SM R09R/5000VP6000FT +TSRA SCT040CB BKN060 BKN080 BKN150 BKN250 26/23 A2984 RMK AO2 LTG DSNT N RAB14 PRESRR OCNL LTGICCG OHD-S-W-N TS OHD-S-W-N MOV STNRY P0007 T02610233=
202008302152 METAR KATL 302152Z 16008KT 10SM TS SCT035CB SCT060 SCT110 BKN250 31/22 A2980 RMK AO2 SLP077 TSB40 OCNL LTGICCG W-NW TS W-NW DRFTG NE TCU DSNT NE & SE-S SHRA DSNT SE & S T03110217=
202008302146 SPECI KATL 302146Z 15008KT 10SM TS SCT035CB SCT060 SCT110 BKN250 31/22 A2980 RMK AO2 TSB40 OCNL LTGICCG W-NW TS W-NW DRFTG NE TCU DSNT NE & S SHRA DSNT S=
202008302052 METAR KATL 302052Z 16006KT 10SM SCT044 SCT060 BKN150 BKN250 32/22 A2981 RMK AO2 SLP081 MDT CU DSNT S-SW AND NW T03170222 56023=
202008301952 METAR KATL 301952Z VRB03KT 10SM SCT048 BKN120 BKN250 32/21 A2982 RMK AO2 SLP086 MDT CU NE-SW AND DSNT NW T03170211=
202008301852 METAR KATL 301852Z 00000KT 10SM SCT044 BKN110 BKN250 31/21 A2985 RMK AO2 SLP096 MDT CU E AND DSNT W-NW T03110211=
202008301752 METAR KATL 301752Z 35004KT 10SM SCT033 BKN050 BKN075 BKN130 31/22 A2987 RMK AO2 SLP104 MDT CU SW-NW T03060222 10317 20239 58008=
202008301652 METAR KATL 301652Z VRB04KT 10SM SCT029 BKN043 BKN070 BKN250 32/22 A2989 RMK AO2 SLP109 MDT CU NW-NE T03170222=
202008301552 METAR KATL 301552Z VRB04KT 10SM SCT023 BKN032 BKN250 31/23 A2990 RMK AO2 SLP112 T03060233=
202008301525 SPECI KATL 301525Z 32006KT 10SM SCT016 SCT026 BKN250 29/23 A2990 RMK AO2 T02940228=
202008301452 METAR KATL 301452Z 31004KT 10SM SCT012 BKN022 BKN250 28/23 A2990 RMK AO2 SLP113 T02830233 58003=
202008301409 SPECI KATL 301409Z 33006KT 7SM SCT009 BKN015 BKN250 27/23 A2991 RMK AO2 T02670233=
202008301352 METAR KATL 301352Z 28006KT 7SM BKN007 BKN013 BKN250 26/23 A2991 RMK AO2 SLP115 T02610233=
202008301252 METAR KATL 301252Z 28006KT 5SM BR BKN006 BKN010 OVC250 25/23 A2991 RMK AO2 SLP117 BINOVC T02500228=
202008301248 SPECI KATL 301248Z 28007KT 5SM BR BKN006 BKN010 OVC250 25/23 A2991 RMK AO2 BINOVC=
202008301152 METAR KATL 301152Z 28007KT 6SM BR BKN004 24/23 A2991 RMK AO2 SLP117 BKN004 V SCT T02390228 10250 20239 53006=
202008301052 METAR KATL 301052Z 27006KT 6SM BR BKN004 BKN034 24/23 A2990 RMK AO2 SLP115 BKN004 V SCT T02390228=
202008300952 METAR KATL 300952Z 26004KT 6SM BR BKN004 OVC013 24/23 A2989 RMK AO2 SLP110 T02390228=
202008300948 SPECI KATL 300948Z 28007KT 6SM BR BKN004 OVC013 24/23 A2989 RMK AO2=
202008300852 METAR KATL 300852Z 27004KT 6SM BR BKN005 BKN013 OVC027 24/23 A2988 RMK AO2 SLP107 BKN005 V SCT T02390228 53008=
202008300752 METAR KATL 300752Z 26004KT 6SM BR BKN004 BKN250 24/23 A2987 RMK AO2 SLP102 BKN004 V SCT T02390228=
202008300731 SPECI KATL 300731Z 29006KT 10SM BKN004 BKN250 24/23 A2987 RMK AO2 T02390228=
202008300652 METAR KATL 300652Z 25005KT 10SM SCT250 24/23 A2986 RMK AO2 SLP100 T02440228=
202008300552 METAR KATL 300552Z 23006KT 10SM SCT250 25/23 A2986 RMK AO2 SLP098 T02500228 10289 20250 56015=
202008300452 METAR KATL 300452Z 27004KT 10SM SCT250 BKN300 25/23 A2987 RMK AO2 SLP103 T02500233 403170244=
202008300352 METAR KATL 300352Z 24007KT 10SM SCT250 BKN300 26/23 A2989 RMK AO2 SLP109 T02610233=
202008300252 METAR KATL 300252Z 26007KT 10SM FEW032 BKN250 27/23 A2990 RMK AO2 SLP115 T02670233 51014=
202008300152 METAR KATL 300152Z 24007KT 10SM SCT032 SCT055 BKN250 27/23 A2990 RMK AO2 SLP113 T02720233=
202008300052 METAR KATL 300052Z 24007KT 10SM FEW037 SCT150 BKN250 28/23 A2988 RMK AO2 SLP107 T02830233=
202008292352 METAR KATL 292352Z 27005KT 10SM FEW037 BKN250 29/22 A2986 RMK AO2 SLP101 T02890222 10317 20289 55001=
202008292252 METAR KATL 292252Z 30007KT 10SM FEW037 BKN250 31/21 A2985 RMK AO2 SLP097 T03060211=
202008292152 METAR KATL 292152Z 29008G15KT 250V320 10SM SCT040 BKN250 32/22 A2987 RMK AO2 SLP101 MDT CU S-W T03170217 $=
202008292052 METAR KATL 292052Z 27009KT 10SM SCT040 BKN050 BKN150 32/22 A2987 RMK AO2 SLP101 MDT CU S-W TCU DSNT NW T03170222 56013 $=
202008291952 METAR KATL 291952Z 29008KT 10SM SCT045 SCT055 BKN150 31/22 A2988 RMK AO2 SLP105 T03060217 $=
202008291852 METAR KATL 291852Z 29012G18KT 10SM SCT036 BKN049 BKN150 31/22 A2989 RMK AO2 SLP109 T03110222 $=
202008291752 METAR KATL 291752Z 28009G18KT 10SM SCT028 BKN036 BKN050 30/22 A2991 RMK AO2 SLP115 T03000217 10300 20250 58008 $=
202008291652 METAR KATL 291652Z 27012G20KT 10SM SCT024 BKN032 BKN045 28/22 A2991 RMK AO2 SLP118 T02780222 $=
202008291635 SPECI KATL 291635Z 29013G20KT 10SM SCT024 BKN031 BKN047 28/22 A2992 RMK AO2 T02780217 $=
202008291552 METAR KATL 291552Z 28012KT 10SM SCT017 BKN027 BKN047 27/22 A2992 RMK AO2 SLP122 T02720222 $=
202008291452 METAR KATL 291452Z 27011KT 10SM SCT017 BKN023 OVC030 26/22 A2993 RMK AO2 SLP125 T02560222 51006 $=
202008291352 METAR KATL 291352Z 25008G21KT 10SM SCT014 BKN023 OVC032 26/22 A2993 RMK AO2 SLP123 T02560222 $=
202008291312 SPECI KATL 291312Z 24013G24KT 10SM SCT016 BKN021 OVC031 26/22 A2992 RMK AO2 CIG 012V017 T02560222 $=
202008291252 METAR KATL 291252Z 24010G20KT 10SM BKN014 OVC021 25/22 A2992 RMK AO2 SLP121 CIG 012V017 T02500222 $=
202008291152 METAR KATL 291152Z 24013G21KT 10SM BKN014 BKN023 BKN150 BKN200 25/22 A2991 RMK AO2 SLP119 BKN014 V SCT 70012 T02500217 10250 20244 53006 $=
202008291140 SPECI KATL 291140Z 24011G17KT 10SM BKN014 BKN030 BKN150 BKN200 24/22 A2991 RMK AO2 BKN014 V SCT T02440217 $=
202008291052 METAR KATL 291052Z 24012G23KT 10SM SCT014 BKN030 BKN150 25/22 A2990 RMK AO2 SLP114 T02500217 $=
202008290952 METAR KATL 290952Z 24011G21KT 10SM FEW012 BKN030 BKN150 24/22 A2989 RMK AO2 SLP111 T02440217=
202008290852 METAR KATL 290852Z 24011G20KT 10SM BKN014 BKN025 25/22 A2989 RMK AO2 SLP112 T02500217 56010=
202008290752 METAR KATL 290752Z 25010G18KT 10SM FEW009 BKN014 25/22 A2990 RMK AO2 SLP114 T02500217=
202008290652 METAR KATL 290652Z 24010G19KT 10SM FEW009 BKN012 BKN200 24/22 A2991 RMK AO2 SLP117 T02440222=
202008290552 METAR KATL 290552Z 22013G21KT 10SM FEW009 BKN012 BKN150 BKN200 24/22 A2992 RMK AO2 SLP122 60000 T02440222 10261 20244 58008=
202008290539 SPECI KATL 290539Z 21011G20KT 10SM FEW009 BKN012 BKN150 BKN200 24/22 A2993 RMK AO2 T02440222=
202008290452 METAR KATL 290452Z 22008G17KT 10SM SCT014 BKN028 BKN150 BKN250 24/22 A2995 RMK AO2 SLP130 T02440222 403060239=
202008290352 METAR KATL 290352Z 23006KT 10SM FEW030 BKN150 BKN250 24/22 A2995 RMK AO2 SLP130 T02440222=
202008290252 METAR KATL 290252Z 21004KT 10SM FEW009 BKN150 BKN250 24/23 A2995 RMK AO2 SLP131 60000 T02440228 51002=
202008290152 METAR KATL 290152Z 22009KT 10SM BKN140 BKN200 BKN250 25/22 A2994 RMK AO2 SLP128 T02500222=
202008290052 METAR KATL 290052Z 22011G20KT 10SM FEW025 BKN130 BKN200 OVC250 26/22 A2996 RMK AO2 RAE09 SLP135 P0000 T02560222=
202008282352 METAR KATL 282352Z 24004KT 10SM -RA FEW025 SCT090 BKN140 BKN250 26/23 A2994 RMK AO2 RAB40 SLP129 P0000 60012 T02610228 10306 20261 55003=
202008282252 METAR KATL 282252Z 20008KT 10SM FEW025 SCT100 BKN150 BKN250 28/23 A2993 RMK AO2 RAB24E40 SLP124 TCU DSNT S-SW P0000 T02780233=
202008282152 METAR KATL 282152Z 22006G15KT 10SM FEW025 SCT150 BKN200 BKN250 28/23 A2994 RMK AO2 SLP127 CB DSNT SW T02830228=
202008282052 METAR KATL 282052Z 22005KT 8SM FEW017 SCT030TCU BKN050 BKN200 28/24 A2995 RMK AO2 RAB30E49 SLP131 TCU SE-SW VCSH NE P0012 60012 T02780239 56020=
202008281952 METAR KATL 281952Z 23010G17KT 10SM SCT032TCU BKN060 BKN200 BKN250 30/22 A2996 RMK AO2 SLP134 TCU N-E-SE T03000222=
202008281852 METAR KATL 281852Z 19009KT 10SM SCT034TCU BKN200 29/22 A3000 RMK AO2 SLP145 TCU N-E & W T02940222=
202008281752 METAR KATL 281752Z 23008KT 10SM SCT030 BKN200 29/23 A3001 RMK AO2 SLP151 T02940228 10294 20244 58017=
202008281717 SPECI KATL 281717Z 20008KT 10SM SCT025 SCT033 BKN048 BKN200 29/23 A3003 RMK AO2 T02890228=
202008281652 METAR KATL 281652Z 24010KT 10SM BKN023TCU BKN200 28/22 A3004 RMK AO2 SLP160 TCU SW T02830222=
202008281615 SPECI KATL 281615Z 23007KT 10SM BKN022 BKN035 BKN200 28/23 A3005 RMK AO2 T02780228=
202008281552 METAR KATL 281552Z 21005KT 10SM SCT022 SCT029 BKN038 BKN200 28/23 A3006 RMK AO2 SLP166 T02780228=
202008281452 METAR KATL 281452Z 20009KT 10SM FEW014 BKN022 BKN200 27/23 A3006 RMK AO2 SLP169 T02720228 53002=
202008281422 SPECI KATL 281422Z 20007KT 10SM FEW013 BKN022 BKN200 26/23 A3006 RMK AO2 T02610228=
202008281352 METAR KATL 281352Z 22006KT 10SM BKN014 OVC250 26/23 A3006 RMK AO2 SLP168 T02560228=
202008281319 SPECI KATL 281319Z 19005KT 10SM BKN011 26/23 A3005 RMK AO2 T02560228=
202008281252 METAR KATL 281252Z 21005KT 10SM SCT008 SCT017 BKN150 BKN200 BKN250 25/23 A3006 RMK AO2 SLP167 SCT017 V BKN T02500228=
202008281246 SPECI KATL 281246Z 21006KT 10SM SCT008 BKN017 BKN150 BKN200 BKN250 25/23 A3006 RMK AO2 BKN017 V SCT=
202008281202 SPECI KATL 281202Z 22006KT 10SM SCT006 SCT015 BKN150 BKN200 BKN250 24/23 A3005 RMK AO2 T02440228=
202008281159 SPECI KATL 281159Z 22006KT 10SM FEW006 BKN015 24/23 A3005 RMK AO2 T02440228=
202008281152 METAR KATL 281152Z 22005KT 10SM BKN006 BKN014 OVC250 24/23 A3006 RMK AO2 SLP167 BINOVC T02440228 10261 20239 53010=
202008281106 SPECI KATL 281106Z 23006KT 10SM BKN008 BKN070 OVC250 24/23 A3005 RMK AO2 BINOVC T02440228=
202008281052 METAR KATL 281052Z 22005KT 10SM SCT008 BKN070 BKN230 BKN250 24/23 A3004 RMK AO2 SLP163 T02390228=
202008280952 METAR KATL 280952Z 20005KT 10SM FEW008 SCT090 BKN230 BKN250 24/22 A3004 RMK AO2 SLP159 T02440222=
202008280852 METAR KATL 280852Z 20004KT 10SM FEW030 SCT080 BKN220 BKN250 24/23 A3003 RMK AO2 SLP156 T02440228 58006=
202008280752 METAR KATL 280752Z 20004KT 10SM FEW050 SCT080 BKN220 BKN250 25/23 A3004 RMK AO2 SLP159 T02500228=
202008280652 METAR KATL 280652Z 18003KT 10SM SCT040 BKN180 BKN250 26/23 A3004 RMK AO2 SLP160 T02560228=
202008280552 METAR KATL 280552Z 00000KT 10SM FEW038 BKN180 BKN250 26/23 A3005 RMK AO2 SLP162 60000 T02610233 10294 20256 58000=
202008280452 METAR KATL 280452Z 16004KT 10SM BKN038 BKN150 OVC200 27/23 A3005 RMK AO2 SLP164 T02670233 403220228=
202008280352 METAR KATL 280352Z 17005KT 10SM FEW038 BKN150 OVC200 27/23 A3005 RMK AO2 RAE16 SLP164 P0000 T02670233=
202008280252 METAR KATL 280252Z 18006KT 9SM -RA FEW038 SCT060 BKN130 OVC200 27/23 A3005 RMK AO2 RAB39 SLP163 P0000 60000 T02720228 53006=
202008280152 METAR KATL 280152Z 16005KT 10SM FEW038 BKN200 OVC250 28/22 A3004 RMK AO2 SLP161 T02830222=
202008280052 METAR KATL 280052Z 14004KT 10SM BKN200 OVC250 29/22 A3003 RMK AO2 SLP158 T02890222=
202008272352 METAR KATL 272352Z 17005KT 10SM FEW038 BKN200 BKN250 29/22 A3003 RMK AO2 SLP158 T02940217 10322 20294 53001=
202008272252 METAR KATL 272252Z 19006KT 10SM FEW042 BKN200 BKN250 31/22 A3002 RMK AO2 SLP153 TCU DSNT SW T03060217=
202008272152 METAR KATL 272152Z 19006KT 10SM FEW045 SCT200 BKN250 31/22 A3001 RMK AO2 SLP151 TCU DSNT W-NW MDT CU N-NE T03110217=
202008272052 METAR KATL 272052Z 21007KT 10SM FEW044TCU SCT200 BKN250 32/21 A3003 RMK AO2 SLP156 TCU S-W T03170211 57016=
202008271952 METAR KATL 271952Z 19009KT 10SM FEW040TCU BKN250 31/22 A3004 RMK AO2 SLP162 TCU S-SW T03110217=
202008271852 METAR KATL 271852Z 20008KT 10SM FEW040 BKN200 31/22 A3006 RMK AO2 SLP168 T03110217=
202008271752 METAR KATL 271752Z 15008KT 10SM FEW038 BKN250 32/22 A3008 RMK AO2 SLP172 T03170222 10317 20233 58013=
202008271652 METAR KATL 271652Z 15007KT 10SM FEW032 BKN250 31/22 A3009 RMK AO2 SLP178 T03060217=
202008271552 METAR KATL 271552Z 13006KT 10SM FEW028 FEW200 BKN250 30/22 A3011 RMK AO2 SLP184 T03000222=
202008271452 METAR KATL 271452Z 17006KT 10SM FEW017 SCT200 BKN250 28/23 A3011 RMK AO2 SLP187 T02830233 51005=
202008271352 METAR KATL 271352Z 17006KT 10SM FEW011 SCT250 27/23 A3011 RMK AO2 SLP186 T02670233=
202008271252 METAR KATL 271252Z 11004KT 10SM FEW006 SCT250 25/23 A3012 RMK AO2 SLP188 T02500228=
202008271250 SPECI KATL 271250Z 11004KT 10SM FEW006 SCT250 25/23 A3012 RMK AO2=
202008271152 METAR KATL 271152Z 08006KT 10SM FEW010 BKN250 23/22 A3010 RMK AO2 SLP182 70002 T02330217 10239 20228 53008=
202008271052 METAR KATL 271052Z 00000KT 10SM BKN250 23/22 A3008 RMK AO2 SLP176 T02330217=
202008270952 METAR KATL 270952Z 00000KT 10SM FEW250 23/21 A3007 RMK AO2 SLP173 T02330211=
202008270852 METAR KATL 270852Z 08003KT 10SM SCT250 23/21 A3007 RMK AO2 SLP173 T02330211 55002=
202008270752 METAR KATL 270752Z 00000KT 10SM SCT250 23/21 A3007 RMK AO2 SLP172 T02330211=
202008270652 METAR KATL 270652Z 08004KT 10SM BKN250 23/21 A3008 RMK AO2 SLP174 T02330211=
202008270552 METAR KATL 270552Z 00000KT 10SM BKN250 24/22 A3008 RMK AO2 SLP175 T02390217 10278 20239 58007=
202008270452 METAR KATL 270452Z 13004KT 10SM BKN250 24/22 A3010 RMK AO2 SLP182 T02440217 403170233=
202008270352 METAR KATL 270352Z 12004KT 10SM BKN250 24/22 A3010 RMK AO2 SLP182 T02440217=
202008270252 METAR KATL 270252Z 08004KT 10SM FEW150 BKN250 25/22 A3010 RMK AO2 SLP184 T02500217 50006=
202008270152 METAR KATL 270152Z 12005KT 10SM FEW025 SCT150 BKN250 26/22 A3011 RMK AO2 SLP184 T02560217=
202008270052 METAR KATL 270052Z 10004KT 10SM FEW025 SCT150 BKN250 26/23 A3010 RMK AO2 SLP182 T02610228=
202008262352 METAR KATL 262352Z 09006KT 10SM FEW020 SCT120 BKN250 28/23 A3009 RMK AO2 SLP177 60002 T02780233 10317 20267 53002=
202008262252 METAR KATL 262252Z 09003KT 10SM FEW025 SCT120 BKN150 BKN250 28/21 A3007 RMK AO2 RAB07E50 TSE44 SLP173 TCU DSNT SW P0002 T02780211=
202008262244 SPECI KATL 262244Z 00000KT 10SM -RA FEW025 SCT120 BKN150 BKN250 28/21 A3007 RMK AO2 RAB07 TSE44 TS DSIPTD TCU DSNT SW P0002 T02780206=
202008262218 SPECI KATL 262218Z 05014KT 6SM -TSRA SCT025CB BKN050 BKN120 BKN250 27/23 A3008 RMK AO2 RAB07 OCNL LTGICCG OHD-ALQDS TS OHD-ALQDS MOV STNRY P0000 T02720228=
202008262211 SPECI KATL 262211Z 11009KT 2SM +TSRA SCT025CB BKN050 BKN150 BKN250 28/22 A3009 RMK AO2 RAB07 FRQ LTGICCG OHD-ALQDS TS OHD-ALQDS MOV STNRY P0000 T02780222=
202008262208 SPECI KATL 262208Z 12009KT 5SM TSRA SCT025CB BKN050 BKN150 BKN250 28/22 A3008 RMK AO2 RAB07 FRQ LTGICCG OHD-SE TS OHD-SE MOV STNRY P0000 T02780217=
202008262152 METAR KATL 262152Z 07015G22KT 10SM TS SCT025CB BKN050 BKN150 BKN250 29/23 A3007 RMK AO2 SLP173 TSB51 OCNL LTGICCG SE-S TS SE-S MOV E CB OHD-ALQDS MOV E T02940228=
202008262052 METAR KATL 262052Z 00000KT 10SM SCT026TCU BKN055 BKN150 31/23 A3008 RMK AO2 LTG DSNT NE AND E SLP173 TCU NW-NE CB DSNT NE-E T03110233 56015=
202008261952 METAR KATL 261952Z VRB03KT 10SM SCT028TCU BKN150 BKN250 31/24 A3008 RMK AO2 LTG DSNT NE SLP173 TCU S-SW CB DSNT NE T03110239=
202008261852 METAR KATL 261852Z VRB04KT 10SM SCT022TCU BKN150 BKN250 30/24 A3010 RMK AO2 SLP181 TCU ALQDS T03000244=
202008261752 METAR KATL 261752Z VRB03KT 10SM SCT019 BKN150 BKN250 29/24 A3012 RMK AO2 LTG DSNT N SLP189 CB DSNT N MDT CU N-E-S T02940244 10300 20239 58008=
202008261652 METAR KATL 261652Z 00000KT 10SM SCT014 BKN140 29/24 A3014 RMK AO2 SLP194 T02890239=
202008261552 METAR KATL 261552Z 21004KT 10SM BKN014 BKN120 27/24 A3014 RMK AO2 SLP198 T02720239=
202008261452 METAR KATL 261452Z 16003KT 10SM BKN011 BKN120 26/23 A3015 RMK AO2 SLP199 T02610233 51010=
202008261352 METAR KATL 261352Z 14003KT 10SM BKN013 BKN035 OVC120 25/22 A3014 RMK AO2 SLP198 T02500222=
202008261320 SPECI KATL 261320Z 08005KT 10SM FEW005 BKN013 OVC035 25/22 A3014 RMK AO2 T02500222 $=
202008261252 METAR KATL 261252Z 04006KT 10SM SCT005 BKN015 OVC028 25/22 A3013 RMK AO2 SLP193 T02500222=
202008261232 SPECI KATL 261232Z 06005KT 10SM SCT005 BKN015 BKN025 OVC150 24/22 A3013 RMK AO2 T02440222=
202008261152 METAR KATL 261152Z 09004KT 5SM BR FEW003 SCT010 BKN160 BKN210 24/22 A3012 RMK AO2 SLP189 60000 70111 T02390222 10239 20233 53004 $=
202008261052 METAR KATL 261052Z 10003KT 6SM BR FEW003 SCT014 BKN110 BKN150 24/22 A3010 RMK AO2 SLP185 RAB08E22 P0000 T02390222 $=
202008261020 SPECI KATL 261020Z 00000KT 7SM -RA FEW003 SCT014 BKN110 24/22 A3011 RMK AO2 RAB08 P0000 T02390222 $=
202008260952 METAR KATL 260952Z 08003KT 7SM FEW003 BKN014 OVC110 24/22 A3010 RMK AO2 SLP185 T02390222=
202008260931 SPECI KATL 260931Z 07004KT 6SM BR SCT003 BKN014 OVC120 24/22 A3010 RMK AO2 T02390222=
202008260852 METAR KATL 260852Z 05003KT 4SM BR BKN003 BKN014 OVC130 24/22 A3010 RMK AO2 SLP185 T02390222 56008=
202008260850 SPECI KATL 260850Z 04004KT 4SM BR BKN003 BKN014 OVC130 24/22 A3010 RMK AO2=
202008260835 SPECI KATL 260835Z 11003KT 5SM BR SCT003 OVC130 24/22 A3010 RMK AO2 SCT003 V BKN T02390222=
202008260752 METAR KATL 260752Z 00000KT 4SM BR BKN003 BKN110 BKN140 24/22 A3011 RMK AO2 SLP186 BKN003 V SCT T02390222=
202008260741 SPECI KATL 260741Z 00000KT 5SM BR SCT003 BKN110 BKN140 BKN250 23/22 A3011 RMK AO2 T02330222=
202008260710 SPECI KATL 260710Z 00000KT 2SM BR BKN003 OVC008 23/22 A3012 RMK AO2 SFC VIS 5 T02330222=
202008260652 METAR KATL 260652Z 14003KT 1SM R09R/P6000FT BR BKN002 OVC007 24/22 A3012 RMK AO2 SFC VIS 3 SLP189 T02390222=
202008260637 SPECI KATL 260637Z 13003KT 1SM R09R/P6000FT BR OVC003 23/23 A3012 RMK AO2 SFC VIS 3 CIG 002V005 T02330228=
202008260552 METAR KATL 260552Z 08005KT 0SM R09R/2200V3500FT FG VV001 24/22 A3013 RMK AO2 SFC VIS 1/2 SLP194 60000 T02390222 10244 20233 50003=
202008260538 SPECI KATL 260538Z 07005KT 1/2SM R09R/2800V5500FT BR OVC002 24/22 A3014 RMK AO2 SFC VIS 1 T02390222=
202008260532 SPECI KATL 260532Z 08005KT 2 1/2SM R09R/3000VP6000FT BR OVC002 24/22 A3014 RMK AO2 TWR VIS 3 VIS 1 1/4V5 CIG 003V007 T02390222=
202008260452 METAR KATL 260452Z 09007KT 3SM SCT003 BKN008 OVC015 24/22 A3013 RMK AO2 SFC VIS 9 SLP195 T02390222 402440228=
202008260443 SPECI KATL 260443Z 08006KT 3SM SCT003 BKN008 OVC015 24/22 A3013 RMK AO2 SFC VIS 9 T02390222=
202008260352 METAR KATL 260352Z 07008KT 1/2SM R09R/2800VP6000FT BR OVC002 24/22 A3013 RMK AO2 SFC VIS 1 1/2 SLP195 T02390222=
202008260252 METAR KATL 260252Z 07006KT 1SM R09R/P6000FT BR OVC003 24/22 A3012 RMK AO2 SFC VIS 6 SLP190 CIG 002V005 60000 T02390222 53005=
202008260236 SPECI KATL 260236Z 10005KT 1SM R09R/P6000FT BR OVC003 24/22 A3011 RMK AO2 SFC VIS 6 T02390222=
202008260152 METAR KATL 260152Z 08005KT 2SM OVC004 24/22 A3010 RMK AO2 SFC VIS 10 SLP185 T02390222=
202008260052 METAR KATL 260052Z 08005KT 2SM OVC005 24/22 A3010 RMK AO2 SFC VIS 10 RAE39 SLP184 CIG 003V007 P0000 T02390222=
202008252352 METAR KATL 252352Z 06005KT 2SM -RA OVC006 24/23 A3010 RMK AO2 SFC VIS 9 SLP182 CIG 004V008 P0000 60004 T02440228 10244 20233 58006=
202008252252 METAR KATL 252252Z 04005KT 2SM -RA OVC005 24/22 A3011 RMK AO2 SFC VIS 10 SLP187 CIG 004V007 P0000 T02440222=
202008252152 METAR KATL 252152Z 08004KT 3SM -RA OVC006 24/22 A3012 RMK AO2 SFC VIS 10 SLP191 CIG 004V008 PCPN VRY LGT P0000 T02440222=
202008252052 METAR KATL 252052Z 08007KT 3SM -RA OVC006 24/22 A3012 RMK AO2 SFC VIS 8 RAE18B47 SLP189 CIG 005V008 PCPN VRY LGT P0000 60004 T02440222 56012=
202008251952 METAR KATL 251952Z 06008KT 3SM -RA BKN008 OVC014 24/22 A3012 RMK AO2 SFC VIS 8 RAB02 SLP191 CIG 006V010 PCPN VRY LGT P0000 T02390222=
202008251852 METAR KATL 251852Z 07007KT 3SM BKN007 BKN016 OVC038 24/22 A3014 RMK AO2 SFC VIS 8 RAE40 SLP197 CIG 005V009 P0004 T02390217=
202008251847 SPECI KATL 251847Z 08008KT 2SM BKN007 BKN016 OVC038 24/22 A3014 RMK AO2 SFC VIS 8 RAE40 CIG 005V009 P0004=
202008251752 METAR KATL 251752Z 06005KT 2SM -RA SCT007 BKN016 OVC038 24/22 A3015 RMK AO2 SFC VIS 7 SLP201 CIG 012V020 P0007 60107 T02390217 10239 20228 50000=
202008251737 SPECI KATL 251737Z 07006KT 2SM -RA SCT007 BKN016 OVC040 23/21 A3015 RMK AO2 SFC VIS 7 CIG 014V018 P0006 T02330211=
202008251700 SPECI KATL 251700Z 07006KT 2SM RA BR SCT007 BKN013 OVC060 23/22 A3016 RMK AO2 SFC VIS 6 CIG 011V015 P0001 T02330217=
202008251652 METAR KATL 251652Z 06006KT 1 1/2SM -RA BR SCT007 BKN013 OVC055 24/22 A3016 RMK AO2 SFC VIS 6 SLP205 CIG 011V015 P0008 T02390217=
202008251552 METAR KATL 251552Z 07007KT 1 1/2SM -RA BR SCT006 BKN014 OVC060 23/22 A3016 RMK AO2 SFC VIS 3 SLP203 CIG 012V016 P0019 T02330217=
202008251452 METAR KATL 251452Z 09010KT 1 1/2SM RA BR FEW005 SCT015 OVC045 23/21 A3015 RMK AO2 SFC VIS 3 SLP203 P0036 60073 T02280211 51008 $=
202008251418 SPECI KATL 251418Z 07011KT 1 1/2SM R09R/5000VP6000FT +RA BR SCT006 BKN016 OVC038 23/22 A3015 RMK AO2 SFC VIS 2 1/2 P0018 T02330217 $=
202008251352 METAR KATL 251352Z 08006KT 1 1/2SM +RA BR BKN005 BKN015 OVC037 23/22 A3015 RMK AO2 SFC VIS 3 SLP202 CIG 004V007 CB DSNT NE-SE P0032 T02280217 $=
202008251321 SPECI KATL 251321Z 08005KT 1 1/2SM RA BR BKN005 BKN010CB OVC027 23/22 A3014 RMK AO2 SFC VIS 3 LTG DSNT E CIG 004V007 CB E-SE MOV N P0017 T02330217 $=
202008251252 METAR KATL 251252Z 09006KT 4SM +RA BR OVC005CB 23/22 A3014 RMK AO2 RAB1153 SLP199 CIG 004V007 CB VC SE-SW MOV N P0005 T02330217 $=
202008251152 METAR KATL 251152Z 06008KT 7SM SCT005 BKN009 BKN025CB OVC130 23/22 A3013 RMK AO2 RAE19 SLP193 CB VC S MOV N CB DSNT SW P0002 60008 70016 T02330217 10233 20228 53004 $=
202008251147 SPECI KATL 251147Z 04007KT 7SM SCT005 BKN009 BKN035CB OVC130 23/22 A3012 RMK AO2 RAE19 CB VC S MOV N CB DSNT SW P0002 $=
202008251127 SPECI KATL 251127Z 08005KT 7SM SCT005 BKN065 BKN095 OVC130 23/22 A3012 RMK AO2 RAE19 CB DSNT SE-SW P0002 T02330217 $=
202008251116 SPECI KATL 251116Z 07007KT 6SM -RA BR BKN005 BKN017 OVC070 23/22 A3011 RMK AO2 BKN005 V SCT P0002 T02330217 $=
202008251052 METAR KATL 251052Z 07005KT 8SM -RA SCT007 BKN039 OVC070 23/22 A3011 RMK AO2 RAE0953B33 SLP185 P0005 T02330217 $=
202008251049 SPECI KATL 251049Z 08005KT 8SM -RA SCT007 BKN049 OVC070 23/22 A3011 RMK AO2 RAE0953B33 P0005 $=
202008250952 METAR KATL 250952Z 11004KT 8SM -RA BKN007 OVC013 23/22 A3010 RMK AO2 RAB09 SLP184 CIG 006V009 P0001 T02330217 $=
202008250852 METAR KATL 250852Z 12004KT 1 1/2SM BR BKN005 OVC013 23/22 A3011 RMK AO2 SFC VIS 6 SLP186 CIG 004V007 BKN005 V SCT TWRINC 60000 T02330217 58002=
202008250757 SPECI KATL 250757Z 09005KT 1 1/2SM BR SCT004 BKN009 OVC085 23/22 A3012 RMK AO2 SFC VIS 6 TWRINC T02330217=
202008250752 METAR KATL 250752Z 09005KT 1 1/2SM BR BKN004 BKN012 OVC060 23/22 A3012 RMK AO2 SFC VIS 6 RAE51 SLP187 BKN004 V SCT TWRINC P0000 T02330217=
202008250652 METAR KATL 250652Z 13004KT 1SM R09R/4000V6000FT -RA BR OVC003 23/22 A3013 RMK AO2 TWR VIS 1 1/2 SLP191 CIG 002V005 P0000 T02280217=
202008250629 SPECI KATL 250629Z 14004KT 1 1/2SM R09R/5500VP6000FT -RA BR OVC004 23/22 A3012 RMK AO2 SFC VIS 2 1/2 CIG 003V006 P0000 T02330217=
202008250555 SPECI KATL 250555Z 12006KT 10SM -RA OVC004 23/22 A3012 RMK AO2 CIG 003V006 P0000 T02330217=
202008250552 METAR KATL 250552Z 12007KT 10SM -RA BKN005 BKN060 OVC150 23/22 A3012 RMK AO2 SLP189 CIG 004V007 P0000 60003 T02330217 10244 20228 55001=
202008250452 METAR KATL 250452Z 10009KT 10SM -RA BKN005 BKN060 OVC150 23/22 A3011 RMK AO2 SLP186 P0000 T02330217 402940228=
202008250352 METAR KATL 250352Z 12009KT 9SM -RA BKN007 BKN060 BKN110 OVC150 23/21 A3012 RMK AO2 SLP189 P0000 T02330211=
202008250252 METAR KATL 250252Z 13008KT 10SM -RA FEW006 BKN110 BKN140 OVC200 23/21 A3012 RMK AO2 RAB52 SLP192 P0000 60003 T02280211 50003=
202008250210 SPECI KATL 250210Z 12010KT 10SM SCT006 BKN100 BKN140 OVC200 23/21 A3013 RMK AO2 SCT006 V BKN T02280211=
202008250152 METAR KATL 250152Z 13007KT 10SM SCT006 BKN010 BKN130 OVC200 23/21 A3013 RMK AO2 RAE33 SLP194 P0000 T02280211=
202008250133 SPECI KATL 250133Z 13008KT 10SM BKN006 BKN120 OVC200 23/21 A3013 RMK AO2 RAE33 P0000 T02280211=
202008250052 METAR KATL 250052Z 09009KT 8SM -RA SCT008 SCT045 BKN110 OVC150 23/21 A3012 RMK AO2 SLP190 P0003 T02330211=
202008242352 METAR KATL 242352Z 11008KT 8SM -RA FEW009 SCT015 BKN050 OVC150 25/22 A3011 RMK AO2 SLP188 P0003 60005 T02500222 10294 20250 51004=
202008242338 SPECI KATL 242338Z 08012KT 8SM -RA SCT011 BKN020 BKN070 OVC150 26/23 A3011 RMK AO2 P0002 T02560228=
202008242252 METAR KATL 242252Z 08007KT 10SM -RA FEW020 SCT070 BKN100 OVC200 26/23 A3010 RMK AO2 RAE28B51 SLP184 TCU DSNT NE-SE P0000 T02610228=
202008242152 METAR KATL 242152Z 10008KT 8SM -RA SCT025 BKN070 BKN140 OVC200 27/23 A3012 RMK AO2 RAB24 SLP191 CB DSNT E-SE P0002 T02670228=
202008242052 METAR KATL 242052Z 10009KT 10SM SCT028TCU SCT110 BKN150 BKN200 29/22 A3010 RMK AO2 SLP183 CB DSNT E-S TCU N-NE SE-SW DSNT S W T02890222 56012=
202008241952 METAR KATL 241952Z 08008KT 10SM SCT026TCU SCT110 BKN150 BKN200 29/22 A3010 RMK AO2 SLP183 TCU E-S DSNT NE-SE-S W-NW T02890217=
202008241852 METAR KATL 241852Z 04006KT 10SM SCT026 BKN110 BKN160 BKN200 28/22 A3013 RMK AO2 SLP190 T02830217=
202008241752 METAR KATL 241752Z 06009KT 10SM OVC024 27/22 A3014 RMK AO2 SLP196 BINOVC 60000 T02720217 10278 20233 58013=
202008241652 METAR KATL 241652Z 07009KT 10SM BKN016 OVC028 27/22 A3016 RMK AO2 SLP204 CIG 014V018 BINOVC T02670217=
202008241617 SPECI KATL 241617Z 08008KT 10SM BKN015 BKN024 BKN050 OVC140 26/22 A3017 RMK AO2 CIG 013V017 T02610217=
202008241552 METAR KATL 241552Z 08008KT 9SM BKN013 BKN022 OVC050 26/22 A3018 RMK AO2 RAB26E37 SLP211 CIG 011V015 P0000 T02560217=
202008241542 SPECI KATL 241542Z 07009KT 3SM BKN012 BKN022 OVC050 26/22 A3018 RMK AO2 SFC VIS 10 RAB26E37 CIG 010V014 P0000 T02560217=
202008241452 METAR KATL 241452Z 09009KT 3SM BKN007 OVC012 24/22 A3018 RMK AO2 SFC VIS 9 RAE48 SLP209 CIG 005V009 P0000 60000 T02440222 53008=
202008241352 METAR KATL 241352Z 09010KT 3SM -RA BKN006 OVC012 24/22 A3017 RMK AO2 SFC VIS 7 DZE49RAB49 SLP207 CIG 005V008 P0000 T02440222=
202008241252 METAR KATL 241252Z 06008KT 2SM -DZ BR BKN004 OVC010 24/22 A3015 RMK AO2 SFC VIS 6 RAE13DZB48 SLP199 CIG 003V005 TWRINC P0000 T02390217=
202008241203 SPECI KATL 241203Z 07008KT 2SM -RA BR BKN004 BKN010 BKN120 23/22 A3015 RMK AO2 SFC VIS 6 CIG 003V005 TWRINC P0000 T02330217=
202008241152 METAR KATL 241152Z 08008KT 7SM -RA BKN007 BKN047 OVC110 23/22 A3015 RMK AO2 SLP200 P0003 60007 70007 T02330217 10239 20233 50005=
202008241052 METAR KATL 241052Z 08006KT 8SM -RA BKN008 BKN060 OVC090 23/22 A3015 RMK AO2 SLP200 BKN008 V SCT P0004 T02330217=
202008241044 SPECI KATL 241044Z 08004KT 8SM -RA SCT009 BKN075 OVC090 23/22 A3016 RMK AO2 SCT009 V BKN P0004 T02330217=
202008240952 METAR KATL 240952Z 10004KT 10SM -RA BKN009 BKN014 BKN110 OVC150 23/22 A3014 RMK AO2 RAB38 SLP196 P0000 T02330217=
202008240946 SPECI KATL 240946Z 08005KT 10SM -RA BKN009 BKN014 BKN110 OVC150 23/21 A3014 RMK AO2 RAB38 P0000=
202008240852 METAR KATL 240852Z 09006KT 10SM FEW007 BKN014 BKN110 23/21 A3013 RMK AO2 SLP191 T02330211 53004=
202008240756 SPECI KATL 240756Z 12006KT 10SM FEW007 BKN013 BKN120 24/21 A3012 RMK AO2 T02390211=
202008240752 METAR KATL 240752Z 11006KT 10SM SCT007 BKN120 BKN250 24/21 A3012 RMK AO2 SLP188 T02390211=
202008240652 METAR KATL 240652Z 09007KT 10SM SCT007 BKN120 BKN250 24/22 A3011 RMK AO2 SLP185 T02390217=
202008240552 METAR KATL 240552Z 09006KT 8SM SCT009 BKN120 BKN250 24/22 A3011 RMK AO2 SLP186 SCT009 V BKN T02390217 10272 20239 58009=
202008240548 SPECI KATL 240548Z 12003KT 8SM SCT009 BKN120 BKN250 24/22 A3012 RMK AO2 SCT009 V BKN=
202008240452 METAR KATL 240452Z 14004KT 10SM SCT010 SCT015 BKN120 BKN250 24/22 A3013 RMK AO2 SLP191 T02440217 403000222=
202008240431 SPECI KATL 240431Z 12003KT 10SM SCT010 BKN120 BKN250 24/22 A3013 RMK AO2 T02440217=
202008240352 METAR KATL 240352Z 15005KT 10SM BKN013 BKN110 24/22 A3014 RMK AO2 SLP195 T02440217=
202008240350 SPECI KATL 240350Z 15005KT 10SM BKN013 BKN110 24/22 A3014 RMK AO2=
202008240325 SPECI KATL 240325Z 15005KT 10SM SCT013 BKN110 BKN250 24/22 A3013 RMK AO2 T02440217=
202008240252 METAR KATL 240252Z 16004KT 10SM BKN013 BKN120 25/22 A3014 RMK AO2 SLP196 BKN013 V SCT T02500217 53012=
202008240250 SPECI KATL 240250Z 16004KT 10SM BKN013 BKN120 25/22 A3014 RMK AO2 BKN013 V SCT=
202008240152 METAR KATL 240152Z 15007KT 10SM FEW020 BKN140 BKN200 BKN250 26/21 A3013 RMK AO2 SLP192 T02560211=
202008240052 METAR KATL 240052Z 16006KT 10SM FEW025 SCT130 BKN200 BKN250 26/21 A3011 RMK AO2 SLP188 MDT CU DSNT S & W-NW T02610211=
202008232352 METAR KATL 232352Z 15006KT 10SM FEW035 SCT070 SCT150 BKN200 BKN250 27/21 A3010 RMK AO2 SLP184 MDT CU DSNT W T02720211 10300 20272 51003=
202008232252 METAR KATL 232252Z 13006KT 10SM FEW035 SCT070 SCT100 BKN200 BKN250 28/21 A3010 RMK AO2 SLP183 TCU DSNT W MDT CU DSNT NE & SW & NW T02830211=
202008232152 METAR KATL 232152Z 14010G21KT 10SM BKN035TCU BKN045 BKN150 BKN200 BKN250 28/21 A3010 RMK AO2 SLP182 TCU OHD & N-NE SHRA N-NE T02780206=
202008232052 METAR KATL 232052Z VRB03KT 10SM SCT038TCU BKN055 BKN200 29/20 A3009 RMK AO2 SLP181 TCU ALQDS T02890200 56006=
202008231952 METAR KATL 231952Z 14003KT 10SM BKN034TCU BKN200 BKN250 30/20 A3010 RMK AO2 SLP180 TCU ALQDS T03000200=
202008231852 METAR KATL 231852Z 19005KT 10SM SCT036TCU BKN200 BKN250 29/21 A3011 RMK AO2 SLP184 TCU SE-SW T02890206=
202008231752 METAR KATL 231752Z 00000KT 10SM SCT032TCU BKN200 BKN250 28/20 A3011 RMK AO2 SLP187 TCU N T02830200 10289 20222 58009=
202008231652 METAR KATL 231652Z 00000KT 10SM SCT028 SCT150 BKN200 BKN250 28/21 A3013 RMK AO2 SLP193 T02830211=
202008231552 METAR KATL 231552Z VRB03KT 10SM SCT022 SCT150 BKN250 27/21 A3014 RMK AO2 SLP197 T02670206=
202008231452 METAR KATL 231452Z 00000KT 10SM SCT016 BKN250 24/19 A3014 RMK AO2 SLP198 T02440194 51008=
202008231352 METAR KATL 231352Z 00000KT 10SM OVC013 23/19 A3013 RMK AO2 SLP195 T02280194=
202008231252 METAR KATL 231252Z 16003KT 10SM FEW009 OVC013 23/19 A3013 RMK AO2 SLP193 T02280194=
202008231152 METAR KATL 231152Z 21003KT 10SM FEW009 OVC014 22/20 A3012 RMK AO2 SLP188 BINOVC 70006 T02220200 10228 20222 53013=
202008231103 SPECI KATL 231103Z 20003KT 10SM SCT009 BKN014 22/21 A3011 RMK AO2 T02220206=
202008231052 METAR KATL 231052Z 00000KT 10SM BKN014 22/20 A3010 RMK AO2 SLP183 T02220200=
202008231032 SPECI KATL 231032Z 00000KT 10SM BKN014 22/20 A3009 RMK AO2 T02220200=
202008230952 METAR KATL 230952Z 00000KT 10SM FEW012 BKN016 22/21 A3008 RMK AO2 SLP176 T02220206=
202008230927 SPECI KATL 230927Z 21004KT 10SM OVC016 22/21 A3008 RMK AO2 T02220206=
202008230852 METAR KATL 230852Z 18005KT 10SM SCT007 OVC012 22/21 A3008 RMK AO2 SLP175 T02220206 53005=
202008230849 SPECI KATL 230849Z 19004KT 10SM SCT007 OVC012 22/21 A3007 RMK AO2=
202008230752 METAR KATL 230752Z 18007KT 10SM BKN005 BKN012 23/21 A3007 RMK AO2 SLP170 T02280206=
202008230652 METAR KATL 230652Z 19005KT 10SM BKN005 BKN018 23/21 A3006 RMK AO2 SLP171 T02280206=
202008230631 SPECI KATL 230631Z 16005KT 10SM BKN006 BKN018 23/21 A3006 RMK AO2 T02280206=
202008230552 METAR KATL 230552Z 17006KT 10SM FEW008 SCT020 SCT090 SCT180 SCT250 23/21 A3006 RMK AO2 SLP169 60006 T02280206 10278 20228 53003=
202008230548 SPECI KATL 230548Z 17006KT 10SM FEW008 SCT020 SCT090 SCT180 SCT250 23/21 A3006 RMK AO2=
202008230452 METAR KATL 230452Z 18004KT 10SM FEW015 FEW090 SCT180 SCT250 23/21 A3006 RMK AO2 SLP168 T02280206 402940211=
202008230352 METAR KATL 230352Z 16006KT 10SM FEW055 BKN140 BKN180 BKN250 24/21 A3005 RMK AO2 SLP166 T02390211=
202008230252 METAR KATL 230252Z 15005KT 10SM FEW032 SCT055 BKN250 24/21 A3005 RMK AO2 SLP166 CB DSNT NW 60006 T02390211 51020=
202008230152 METAR KATL 230152Z 16006KT 10SM SCT032 BKN047 BKN055 BKN200 BKN250 24/21 A3003 RMK AO2 SLP160 TCU DSNT NE & NW T02440211=
202008230052 METAR KATL 230052Z 15004KT 10SM FEW021 SCT039TCU SCT065 BKN150 BKN250 24/22 A3002 RMK AO2 RAB24E47 SLP156 TCU W-NE SHRA W-NE P0006 T02390217=
202008222352 METAR KATL 222352Z 14006KT 10SM SCT035 SCT150 SCT200 BKN250 28/20 A2999 RMK AO2 SLP147 TCU DSNT NW MDT CU ALQDS T02780200 10294 20272 50002=
202008222252 METAR KATL 222252Z 14008KT 10SM FEW037 FEW150 BKN200 BKN250 29/20 A2999 RMK AO2 SLP146 MDT CU ALQDS T02890200=
202008222152 METAR KATL 222152Z 16006KT 10SM FEW045 SCT150 BKN200 BKN250 29/19 A2999 RMK AO2 SLP144 TCU DSNT W MDT CU ALQDS T02890189=
202008222052 METAR KATL 222052Z 17007KT 10SM FEW041TCU BKN200 BKN250 29/19 A2999 RMK AO2 SLP144 TCU W-N CB DSNT W T02890194 58006=
202008221952 METAR KATL 221952Z 19009KT 10SM SCT040TCU BKN080 BKN250 29/18 A3000 RMK AO2 SLP150 TCU NE-SE & W T02940183=
202008221852 METAR KATL 221852Z 18007KT 10SM SCT042 BKN200 BKN250 28/18 A3000 RMK AO2 SLP150 MDT CU ALQDS T02830183=
202008221752 METAR KATL 221752Z VRB06KT 10SM FEW040TCU SCT055 BKN250 28/18 A3001 RMK AO2 SLP151 TCU NW-N T02830183 10283 20211 57006=
202008221652 METAR KATL 221652Z 20007G16KT 160V240 10SM BKN031TCU BKN250 27/19 A3001 RMK AO2 SLP154 TCU N T02720194=
202008221638 SPECI KATL 221638Z 18008KT 10SM BKN030 BKN250 27/19 A3002 RMK AO2 MDT CU ALQDS T02720194=
202008221613 SPECI KATL 221613Z 17004KT 10SM BKN028 BKN250 27/20 A3002 RMK AO2 MDT CU ALQDS T02720200=
202008221552 METAR KATL 221552Z 22004KT 10SM SCT028 BKN250 27/19 A3002 RMK AO2 SLP156 MDT CU ALQDS T02670194=
202008221452 METAR KATL 221452Z VRB04KT 10SM SCT020 BKN250 26/20 A3002 RMK AO2 SLP158 T02560200 51012=
202008221352 METAR KATL 221352Z 00000KT 10SM FEW007 BKN250 24/20 A3002 RMK AO2 SLP156 T02390200=
202008221335 SPECI KATL 221335Z 00000KT 7SM SCT004 BKN250 23/21 A3002 RMK AO2 T02280206=
202008221252 METAR KATL 221252Z 18004KT 1/8SM R09R/P6000FT BR BKN003 BKN180 BKN250 22/21 A3000 RMK AO2 SFC VIS 4 SLP152 VIS E-S1 1/2 BKN003 V SCT TWRINC T02170206=
202008221221 SPECI KATL 221221Z 00000KT 1/8SM R09R/1600V5000FT BR BKN003 BKN120 BKN180 22/20 A3000 RMK AO2 SFC VIS 3 BKN003 V SCT TWRINC T02170200=
202008221213 SPECI KATL 221213Z 16003KT 1/8SM R09R/1400V2000FT BR BKN003 BKN120 BKN180 21/20 A3000 RMK AO2 SFC VIS 1 1/2 T02110200=
202008221152 METAR KATL 221152Z 15003KT 2SM R09R/2400VP6000FT BR SCT003 SCT120 BKN180 BKN250 21/20 A2999 RMK AO2 SFC VIS 5 SLP146 VIS SE-SW1 1/2 70009 T02110200 10222 20211 53011=
202008221058 SPECI KATL 221058Z 00000KT 2SM BR BKN004 BKN200 BKN250 21/19 A2997 RMK AO2 SFC VIS 6 BKN004 V SCT TWRINC T02110194=
202008221052 METAR KATL 221052Z 00000KT 7SM SCT004 BKN200 BKN250 21/19 A2997 RMK AO2 SLP140 T02110194=
202008221050 SPECI KATL 221050Z 00000KT 7SM SCT004 BKN200 BKN250 21/19 A2997 RMK AO2=
202008221027 SPECI KATL 221027Z 00000KT 7SM BKN004 BKN200 BKN250 21/19 A2997 RMK AO2 BKN004 V SCT T02110194=
202008220952 METAR KATL 220952Z 14003KT 10SM BKN005 BKN200 BKN250 21/19 A2995 RMK AO2 SLP134 BKN005 V SCT T02110194=
202008220949 SPECI KATL 220949Z 14003KT 10SM BKN005 BKN200 BKN250 21/19 A2995 RMK AO2 BKN005 V SCT=
202008220852 METAR KATL 220852Z 20003KT 10SM FEW008 SCT047 BKN200 BKN250 22/20 A2995 RMK AO2 SLP133 T02170200 58000=
202008220850 SPECI KATL 220850Z 20003KT 10SM FEW008 SCT047 BKN200 BKN250 22/20 A2995 RMK AO2=
202008220752 METAR KATL 220752Z 24007KT 10SM FEW030 FEW047 BKN200 BKN250 22/20 A2996 RMK AO2 SLP136 T02170200=
202008220652 METAR KATL 220652Z 20003KT 10SM FEW029 FEW047 SCT200 SCT250 22/20 A2996 RMK AO2 LTG DSNT W SLP136 CB DSNT W T02170200=
202008220552 METAR KATL 220552Z 00000KT 10SM FEW002 SCT029 SCT150 BKN250 22/19 A2996 RMK AO2 SLP134 T02170194 10244 20211 55000=
202008220452 METAR KATL 220452Z 13003KT 10SM FEW002 SCT250 21/19 A2995 RMK AO2 SLP134 T02110194 402780211=
202008220352 METAR KATL 220352Z 12004KT 10SM FEW003 FEW250 22/19 A2995 RMK AO2 SLP134 VIS LWR NE-E T02170194=
202008220252 METAR KATL 220252Z 15003KT 10SM FEW025 SCT250 22/20 A2996 RMK AO2 SLP135 T02170200 53012=
202008220152 METAR KATL 220152Z 00000KT 10SM FEW025 SCT200 BKN250 22/20 A2995 RMK AO2 SLP132 T02170200=
202008220052 METAR KATL 220052Z 09004KT 10SM FEW025 BKN200 BKN250 23/20 A2992 RMK AO2 SLP122 TCU DSNT E-S-SW T02280200=
202008212352 METAR KATL 212352Z 00000KT 10SM FEW025TCU SCT060 BKN200 BKN250 24/20 A2992 RMK AO2 RAE02 SLP122 CB DSNT NE TCU E-S-SW P0002 60009 T02440200 10278 20228 53008=
202008212252 METAR KATL 212252Z 30016KT 5SM -RA BR FEW025CB BKN045 BKN090 BKN200 23/21 A2990 RMK AO2 WSHFT 2205 RAB26 SLP117 TSE51 TS MOV NE CB NE-OHD-SW TCU ALQDS P0007 T02280206=
202008212225 SPECI KATL 212225Z 31011KT 10SM VCTS SCT025CB BKN040 BKN110 BKN200 24/20 A2991 RMK AO2 WSHFT 2205 OCNL LTGICCG VC NW-NE TS VC NW-NE MOV NE TCU OHD-ALQDS T02390200=
202008212152 METAR KATL 212152Z 21005KT 10SM VCTS SCT028CB BKN060 BKN120 BKN200 27/20 A2989 RMK AO2 SLP114 OCNL LTGICCG VC W-N TS VC W-N MOV NE TCU DSNT ALQDS T02720200=
202008212052 METAR KATL 212052Z 17007KT 10SM SCT032 SCT065 BKN110 BKN200 28/20 A2989 RMK AO2 LTG DSNT NW SLP112 CB DSNT SW-NW TCU DSNT ALQDS T02780200 56014=
202008211952 METAR KATL 211952Z 13005KT 10SM SCT028TCU BKN060 BKN120 BKN200 27/20 A2989 RMK AO2 SLP113 TCU NE E SE DSNT ALQDS SHRA NE T02720200=
202008211852 METAR KATL 211852Z 12008KT 10SM SCT028TCU BKN050 BKN110 BKN200 27/20 A2991 RMK AO2 SLP119 TCU N E SW DSNT ALQDS T02720200=
202008211752 METAR KATL 211752Z 10007KT 10SM BKN024TCU BKN060 BKN110 BKN250 26/21 A2994 RMK AO2 SLP128 TCU ALQDS DSNT ALQDS 60000 T02610206 10272 20217 58013=
202008211652 METAR KATL 211652Z 11005KT 10SM BKN018TCU BKN036 OVC100 26/21 A2996 RMK AO2 SLP137 TCU ALQDS SHRA SW BINOVC T02560206=
202008211552 METAR KATL 211552Z 10005KT 10SM SCT010 BKN016TCU OVC034 24/20 A2997 RMK AO2 DZE26 SLP139 TCU E SW BINOVC P0000 T02390200 $=
202008211535 SPECI KATL 211535Z 10006KT 10SM SCT008 BKN014 OVC034 23/21 A2998 RMK AO2 DZE26 BINOVC P0000 T02330206 $=
202008211452 METAR KATL 211452Z 10004KT 6SM -DZ BR BKN008 BKN015 OVC032 23/21 A2998 RMK AO2 RAE14DZB14 SLP142 CIG 006V010 P0000 60000 T02280206 50010 $=
202008211450 SPECI KATL 211450Z 10005KT 6SM -DZ BR BKN008 BKN015 OVC032 23/21 A2998 RMK AO2 RAE14DZB14 CIG 006V010 P0000 $=
202008211441 SPECI KATL 211441Z 10004KT 2SM -DZ BR SCT006 BKN018 OVC030 23/21 A2998 RMK AO2 SFC VIS 6 RAE14DZB14 P0000 T02280206 $=
202008211425 SPECI KATL 211425Z 11006KT 2SM -DZ BR SCT007 BKN014 OVC028 23/21 A2997 RMK AO2 SFC VIS 6 RAE14DZB14 P0000 T02280206 $=
202008211352 METAR KATL 211352Z 11007KT 2SM -RA BR BKN007 BKN012 OVC020 22/21 A2998 RMK AO2 SFC VIS 4 RAB47 SLP143 CIG 005V009 P0000 T02220206=
202008211252 METAR KATL 211252Z 07007KT 6SM BR BKN005 OVC011 22/20 A2995 RMK AO2 RAE02 SLP134 P0000 T02170200=
202008211152 METAR KATL 211152Z 09005KT 2SM -RA BR BKN005 BKN014 OVC020 22/20 A2995 RMK AO2 SFC VIS 5 RAB20 SLP132 P0003 60012 70044 T02170200 10217 20211 53006=
202008211130 SPECI KATL 211130Z 09005KT 3SM -RA BKN005 BKN017 OVC025 22/20 A2994 RMK AO2 SFC VIS 10 RAB20 P0000 T02170200=
202008211120 SPECI KATL 211120Z 09005KT 10SM -RA BKN006 BKN017 OVC025 22/20 A2994 RMK AO2 RAB20 P0000 T02170200=
202008211052 METAR KATL 211052Z 09006KT 10SM SCT005 BKN018 OVC030 22/19 A2994 RMK AO2 SLP131 SCT005 V BKN T02170194=
202008210952 METAR KATL 210952Z 06005KT 10SM BKN005 BKN015 BKN025 22/20 A2993 RMK AO2 RAB15E51 SLP125 P0000 T02170200=
202008210852 METAR KATL 210852Z 07004KT 7SM BKN005 BKN015 OVC022 22/19 A2993 RMK AO2 RAE11B16E49 SLP124 P0009 60009 T02170194 56007 $=
202008210815 SPECI KATL 210815Z 11003KT 10SM BKN005 BKN015 BKN023 22/19 A2993 RMK AO2 RAE11 P0000 T02170194 $=
202008210805 SPECI KATL 210805Z 09003KT 10SM -RA SCT005 BKN015 BKN042 22/20 A2993 RMK AO2 SCT005 V BKN P0000 T02170200 $=
202008210752 METAR KATL 210752Z 10004KT 10SM -RA SCT005 BKN040 OVC080 22/19 A2993 RMK AO2 RAB31 SLP124 SCT005 V BKN BINOVC P0000 T02170194 $=
202008210652 METAR KATL 210652Z 09007KT 10SM FEW008 SCT025 OVC120 22/19 A2994 RMK AO2 SLP129 T02170194 $=
202008210552 METAR KATL 210552Z 09005KT 10SM FEW008 FEW020 OVC110 22/19 A2995 RMK AO2 SLP131 BINOVC 60000 T02170194 10228 20217 58000 $=
202008210452 METAR KATL 210452Z 05008KT 10SM FEW006 BKN120 OVC200 22/19 A2995 RMK AO2 SLP133 T02170189 402890206 $=
202008210352 METAR KATL 210352Z 05006KT 10SM OVC100 22/19 A2995 RMK AO2 SLP134 T02220189 $=
202008210252 METAR KATL 210252Z 07006KT 10SM SCT090 BKN120 OVC200 22/19 A2995 RMK AO2 SLP132 60000 T02220194 51004 $=
202008210152 METAR KATL 210152Z 07007KT 10SM FEW007 BKN110 BKN200 22/19 A2994 RMK AO2 SLP132 T02170194=
202008210052 METAR KATL 210052Z 10008KT 10SM FEW020 SCT060 BKN100 BKN200 22/19 A2994 RMK AO2 RAE13 SLP131 P0000 T02220194=
202008202352 METAR KATL 202352Z 00000KT 10SM -RA FEW020 SCT070 BKN110 OVC150 22/19 A2993 RMK AO2 TSE09 SLP129 LTG DSNT NW-NE TCU DSNT SE-S P0005 60032 T02220189 10289 20211 50010=
202008202309 SPECI KATL 202309Z 15004KT 7SM RA FEW007 SCT050 BKN070 OVC150 21/19 A2993 RMK AO2 TSE09 LTG DSNT NW-NE TS MOVD NW P0003 T02110194=
202008202252 METAR KATL 202252Z 10004KT 5SM -TSRA BR FEW007 FEW020CB BKN050 OVC150 21/19 A2994 RMK AO2 SLP132 OCNL LTGICCA W-N-NE TS W-N-NE MOV NW P0023 T02110194=
202008202152 METAR KATL 202152Z 21003KT 9SM -TSRA FEW025CB SCT060 BKN090 OVC200 24/21 A2992 RMK AO2 RAB24 TSB19 SLP122 FRQ LTGICCG SW-NW DSNT E-S TS SW-NW DSNT E-S MOV NW P0004 T02440211=
202008202119 SPECI KATL 202119Z 08009KT 10SM TS SCT028CB BKN090 BKN140 OVC200 27/21 A2992 RMK AO2 TSB19 OCNL LTGICCG S-SW DSNT NE NW TS S-SW DSNT NE NW MOV NW T02720211=
202008202052 METAR KATL 202052Z 06009KT 10SM FEW028TCU SCT075 SCT130 OVC200 27/21 A2990 RMK AO2 LTG DSNT S-NW TSE03B10E47 SLP117 TS DSIPTD CB DSNT ALQDS TCU NE SE SW-W T02720211 55016=
202008202047 SPECI KATL 202047Z 06009KT 10SM FEW028TCU SCT070 SCT140 OVC200 28/21 A2990 RMK AO2 LTG DSNT S-NW TSE03B10E47 TS DSIPTD CB DSNT ALQDS TCU NE SE SW-W=
202008202010 SPECI KATL 202010Z 11007KT 10SM TS SCT027CB BKN075 BKN140 BKN200 28/21 A2991 RMK AO2 LTG DSNT S TSE03B10 OCNL LTGICCG NW TS NW MOV NW CB DSNT NE S NW TCU NW-NE DSNT SE-SW T02780206=
202008202003 SPECI KATL 202003Z 11010KT 10SM SCT030TCU BKN070 BKN130 OVC200 28/21 A2990 RMK AO2 TSE03 TS DSIPTD CB DSNT NE S NW TCU N-NE W DSNT SE-SW T02780206=
202008201952 METAR KATL 201952Z 10008KT 10SM TS SCT030CB BKN070 BKN130 BKN200 28/21 A2990 RMK AO2 TSB02 SLP115 OCNL LTGICCG SW-W TS SW-W MOV STNRY CB DSNT NE S NW TCU NE SW-W T02780206=
202008201904 SPECI KATL 201904Z 11009KT 10SM TS SCT034CB BKN140 BKN200 BKN250 28/21 A2991 RMK AO2 LTG DSNT N AND NE TSB02 OCNL LTGICCG NW TS NW MOV NW CB DSNT N-NE TCU DSNT ALQDS T02780211=
202008201852 METAR KATL 201852Z 10008KT 10SM SCT038TCU SCT140 BKN200 BKN250 28/21 A2992 RMK AO2 LTG DSNT N AND NE SLP121 CB DSNT N-NE TCU OHD-SE-SW-NW DSNT ALQDS T02830206=
202008201752 METAR KATL 201752Z 10008KT 10SM SCT030TCU BKN130 BKN200 BKN250 28/21 A2995 RMK AO2 LTG DSNT N AND NE SLP133 CB DSNT NE TCU SE-S DSNT NE-E NW T02830211 10289 20211 58017=
202008201652 METAR KATL 201652Z 17006KT 10SM SCT018 BKN130 BKN180 BKN250 28/21 A2998 RMK AO2 SLP143 T02780211=
202008201640 SPECI KATL 201640Z 07007KT 10SM SCT018 BKN130 BKN180 BKN250 27/21 A2999 RMK AO2 T02670206=
202008201552 METAR KATL 201552Z 10008KT 10SM BKN016 BKN130 BKN180 BKN250 26/21 A3000 RMK AO2 SLP149 T02610206=
202008201549 SPECI KATL 201549Z 10006KT 10SM BKN016 BKN140 BKN200 BKN250 26/21 A3000 RMK AO2=
202008201452 METAR KATL 201452Z 10008KT 10SM FEW012 BKN130 BKN200 BKN250 25/20 A3000 RMK AO2 SLP151 ACC SE W-NW T02500200 51010=
202008201352 METAR KATL 201352Z 09007KT 10SM SCT009 SCT120 BKN200 BKN250 23/19 A3000 RMK AO2 SLP150 ACC E-S T02330194=
202008201252 METAR KATL 201252Z 10006KT 10SM SCT007 SCT140 BKN180 BKN250 22/19 A2998 RMK AO2 SLP145 T02170194=
202008201152 METAR KATL 201152Z 08006KT 10SM SCT005 BKN130 BKN250 21/19 A2997 RMK AO2 SLP142 70064 T02110189 10217 20206 53013=
202008201123 SPECI KATL 201123Z 08008KT 10SM SCT005 BKN180 BKN250 21/19 A2996 RMK AO2 SCT005 V BKN T02060189=
202008201113 SPECI KATL 201113Z 08007KT 3SM BKN005 BKN180 BKN250 21/19 A2995 RMK AO2 SFC VIS 10 T02060189=
202008201052 METAR KATL 201052Z 09010KT 3SM BKN004 BKN150 21/19 A2995 RMK AO2 SFC VIS 10 SLP132 T02060189=
202008201012 SPECI KATL 201012Z 09010KT 3SM BKN004 BKN250 21/19 A2994 RMK AO2 SFC VIS 10 SCT004 V BKN T02060189=
202008200952 METAR KATL 200952Z 08009KT 10SM SCT006 BKN250 21/19 A2993 RMK AO2 SLP126 SCT006 V BKN T02110189=
202008200927 SPECI KATL 200927Z 06008KT 10SM BKN006 21/19 A2994 RMK AO2 T02110189=
202008200852 METAR KATL 200852Z 06007KT 10SM FEW120 BKN250 21/18 A2993 RMK AO2 SLP124 T02110183 56008=
202008200752 METAR KATL 200752Z VRB05KT 10SM FEW120 BKN250 21/18 A2994 RMK AO2 SLP126 T02110183=
202008200652 METAR KATL 200652Z 08007KT 10SM SCT120 BKN250 21/19 A2994 RMK AO2 SLP128 T02110189 $=
202008200552 METAR KATL 200552Z 10007KT 10SM FEW090 SCT120 BKN250 21/19 A2996 RMK AO2 SLP134 60063 T02110189 10222 20211 53007 $=
202008200452 METAR KATL 200452Z 11006KT 10SM FEW090 BKN120 OVC250 22/18 A2996 RMK AO2 RAE07 SLP133 P0000 T02170183 403110211 $=
202008200352 METAR KATL 200352Z 07006KT 10SM -RA SCT090 BKN120 OVC150 22/18 A2993 RMK AO2 SLP125 P0003 T02220183 $=
202008200252 METAR KATL 200252Z 13005KT 10SM -RA BKN100 OVC150 22/19 A2994 RMK AO2 SLP127 P0006 60060 T02170189 58002 $=
202008200152 METAR KATL 200152Z 10005KT 7SM -RA FEW009 BKN090 OVC150 22/18 A2995 RMK AO2 TSE35 SLP134 P0015 T02170183 $=
202008200135 SPECI KATL 200135Z 07003KT 7SM -RA FEW009 BKN080 OVC150 22/18 A2996 RMK AO2 TSE35 TS DSIPTD P0011 T02170183 $=
202008200052 METAR KATL 200052Z 03013KT 6SM -TSRA FEW009 SCT030CB BKN070 OVC150 22/19 A2995 RMK AO2 TSB46 SLP133 OCNL LTGIC OHD-N TS OHD-N MOV NE P0039 T02170189 $=
202008200046 SPECI KATL 200046Z 03015KT 6SM -TSRA FEW009 SCT030CB BKN070 OVC150 22/19 A2995 RMK AO2 TSB46 OCNL LTGIC OHD-N TS OHD-N MOV NE P0038 $=
202008192352 METAR KATL 192352Z 02018KT 5SM RA FEW010 BKN035CB BKN055 OVC150 22/18 A2994 RMK AO2 PK WND 02026/2339 RAB34 TSE21 SLP131 VIS LWR ALQDS LTG DSNT NE SW CB OHD-ALQDS P0001 60001 T02220183 10311 20222 53027=
202008192321 SPECI KATL 192321Z 35015G22KT 10SM FEW010 BKN035 BKN090 OVC200 23/18 A2992 RMK AO2 PK WND 35026/2253 TSE21 LTG DSNT NE SW TS DSIPTD CB DSNT NE E SW T02330183=
202008192252 METAR KATL 192252Z 35016G28KT 10SM TS SCT015 BKN035CB BKN090 BKN200 23/18 A2992 RMK AO2 PK WND 28034/2221 WSHFT 2220 TSB36 SLP122 OCNL LTGICCG N-NE DSNT SW TS N-NE DSNT SW MOV E T02330178=
202008192236 SPECI KATL 192236Z 32019G32KT 10SM TS FEW015 BKN035CB BKN100 BKN250 24/17 A2990 RMK AO2 PK WND 28034/2221 WSHFT 2220 TSB36 OCNL LTGICCG NW-N DSNT SW-NW TS NW-N DSNT SW-NW MOV E T02440172=
202008192152 METAR KATL 192152Z 15008G15KT 10SM FEW040 SCT150 BKN200 BKN250 30/19 A2986 RMK AO2 LTG DSNT W-N SLP100 CB DSNT SW-NW-N TCU DSNT NE T03000194=
202008192052 METAR KATL 192052Z 13010KT 10SM FEW040TCU SCT070 BKN200 BKN250 31/19 A2986 RMK AO2 LTG DSNT W AND NW SLP100 CB DSNT W-N-NE TCU W-NW T03060194 56017=
202008191952 METAR KATL 191952Z 11005KT 10SM FEW038 FEW075 SCT200 BKN250 31/19 A2986 RMK AO2 SLP101 CB DSNT NW-NE TCU DSNT N T03060194=
202008191852 METAR KATL 191852Z 15009KT 10SM FEW036TCU SCT075 SCT200 BKN250 31/20 A2989 RMK AO2 SLP111 CB DSNT N NE NW TCU W DSNT NW-N T03060200=
202008191752 METAR KATL 191752Z 13006KT 10SM SCT035TCU SCT120 BKN200 BKN250 30/21 A2991 RMK AO2 SLP117 CB DSNT N NW TCU SW-W DSNT NE W-NW T03000206 10300 20222 58009=
202008191652 METAR KATL 191652Z 13008KT 10SM SCT030TCU SCT110 BKN200 BKN250 29/21 A2993 RMK AO2 SLP124 TCU W-N-NE T02940211=
202008191552 METAR KATL 191552Z 15005KT 10SM SCT028TCU BKN110 BKN200 BKN250 28/21 A2994 RMK AO2 SLP130 TCU N W MDT CU ALQDS T02780206=
202008191452 METAR KATL 191452Z 36005KT 10SM FEW022 FEW110 SCT200 BKN250 27/21 A2994 RMK AO2 SLP128 ACC N NE-E T02720211 51007=
202008191352 METAR KATL 191352Z 00000KT 10SM FEW110 SCT200 BKN250 26/21 A2993 RMK AO2 SLP125 ACC NW-NE DSNT W T02610206=
202008191252 METAR KATL 191252Z VRB03KT 10SM FEW110 SCT200 SCT250 24/20 A2993 RMK AO2 SLP124 ACC NW-N T02390200=
202008191152 METAR KATL 191152Z 10SM FEW110 FEW200 SCT250 22/20 A2992 RMK AO2 SLP120 T02220200 10228 20217 53011=
202008191052 METAR KATL 191052Z 00000KT 10SM FEW110 SCT250 22/19 A2991 RMK AO2 SLP116 T02220194=
202008190952 METAR KATL 190952Z 00000KT 10SM FEW110 SCT250 22/19 A2989 RMK AO2 SLP111 T02170194=
202008190852 METAR KATL 190852Z 00000KT 10SM FEW110 FEW250 22/19 A2988 RMK AO2 SLP108 T02170194 58007=
202008190752 METAR KATL 190752Z 14003KT 10SM SCT110 SCT250 22/19 A2989 RMK AO2 SLP111 T02220194=
202008190652 METAR KATL 190652Z 00000KT 10SM BKN110 BKN250 23/20 A2990 RMK AO2 SLP114 T02280200=
202008190552 METAR KATL 190552Z 16004KT 10SM FEW110 FEW250 23/19 A2991 RMK AO2 SLP115 60000 T02280194 10294 20217 56011=
202008190452 METAR KATL 190452Z 07003KT 10SM FEW110 FEW250 23/19 A2991 RMK AO2 SLP116 T02330194 403330211=
202008190352 METAR KATL 190352Z 00000KT 10SM FEW080 SCT110 SCT250 22/19 A2991 RMK AO2 RAE35 SLP118 P0000 T02220189=
202008190252 METAR KATL 190252Z 27003KT 9SM -RA FEW050 SCT080 BKN110 BKN250 22/17 A2994 RMK AO2 RAB03 TSE52 SLP128 LTG DSNT SW TS MOVD S P0000 60000 T02220172 50016=
202008190152 METAR KATL 190152Z 31019G25KT 10SM TS SCT050CB BKN110 BKN250 26/18 A2994 RMK AO2 PRESRR SLP129 TSB05 CONS LTGICCGCA SW-NW TS SW-NW MOV S T02560178=
202008190118 SPECI KATL 190118Z 12006KT 10SM TS SCT050CB BKN110 BKN250 28/19 A2991 RMK AO2 TSB05 FRQ LTGICCG W-NW TS W-NW MOV SE T02830189=
202008190106 SPECI KATL 190106Z 12005KT 10SM VCTS SCT055CB BKN110 BKN250 29/19 A2991 RMK AO2 TSB05 FRQ LTGICCG VC NW TS VC NW MOV SE T02890189=
202008190052 METAR KATL 190052Z 12006KT 10SM BKN055 BKN120 BKN250 29/19 A2991 RMK AO2 LTG DSNT NW SLP116 CB DSNT NW T02890189=
202008182352 METAR KATL 182352Z 10006KT 10SM FEW055 FEW120 FEW250 29/18 A2989 RMK AO2 SLP110 TCU DSNT W-NW T02940183 10333 20294 55000=
202008182252 METAR KATL 182252Z 14006KT 10SM FEW055TCU SCT120 SCT250 31/18 A2988 RMK AO2 SLP107 TCU OHD-SW N T03110183=
202008182152 METAR KATL 182152Z 06004KT 10SM SCT060TCU SCT200 SCT250 32/18 A2989 RMK AO2 SLP109 TCU OHD-ALQDS T03220178=
202008182052 METAR KATL 182052Z 36007KT 10SM SCT060 SCT200 SCT250 32/17 A2989 RMK AO2 SLP110 MDT CU N-NE NW T03220172 56025=
202008181952 METAR KATL 181952Z 06008KT 10SM FEW060 FEW200 SCT250 32/18 A2991 RMK AO2 SLP118 T03170178=
202008181852 METAR KATL 181852Z 05008KT 10SM FEW055 FEW200 SCT250 32/18 A2994 RMK AO2 SLP126 CB DSNT SE TCU DSNT NE T03170178=
202008181752 METAR KATL 181752Z 06006KT 10SM FEW050 SCT200 SCT250 31/18 A2997 RMK AO2 SLP137 TCU DSNT NE T03060178 10306 20228 58010=
202008181652 METAR KATL 181652Z 01007KT 10SM SCT046 SCT200 31/17 A2999 RMK AO2 SLP145 T03060172=
202008181552 METAR KATL 181552Z 02005KT 10SM FEW044 FEW200 29/18 A3000 RMK AO2 SLP148 T02890178=
202008181452 METAR KATL 181452Z 08009KT 10SM FEW200 FEW250 28/17 A3000 RMK AO2 SLP147 T02780172 53010=
202008181352 METAR KATL 181352Z 06011KT 10SM FEW200 27/17 A2999 RMK AO2 SLP144 T02670167=
202008181252 METAR KATL 181252Z 04009KT 10SM FEW200 FEW250 25/18 A2998 RMK AO2 SLP140 T02500178=
202008181152 METAR KATL 181152Z 04008KT 10SM FEW200 FEW250 23/18 A2997 RMK AO2 SLP137 T02280178 10233 20211 53003=
202008181052 METAR KATL 181052Z 02006KT 10SM FEW200 22/17 A2996 RMK AO2 SLP134 T02170167=
202008180952 METAR KATL 180952Z 35005KT 10SM FEW200 22/16 A2996 RMK AO2 SLP132 T02170161=
202008180852 METAR KATL 180852Z 33007KT 10SM FEW250 22/17 A2996 RMK AO2 SLP134 T02170167 56007=
202008180752 METAR KATL 180752Z 33006KT 10SM FEW250 22/17 A2996 RMK AO2 SLP134 T02170167=
202008180652 METAR KATL 180652Z 00000KT 10SM FEW250 22/17 A2998 RMK AO2 SLP140 T02170167=
202008180552 METAR KATL 180552Z 32003KT 10SM FEW250 23/17 A2998 RMK AO2 SLP141 T02280167 10300 20222 55003=
202008180452 METAR KATL 180452Z 31005KT 10SM SCT250 24/16 A2998 RMK AO2 SLP140 T02390161 403220228=
202008180352 METAR KATL 180352Z 32005KT 10SM SCT250 25/16 A2999 RMK AO2 SLP142 T02500156=
202008180252 METAR KATL 180252Z 32005KT 10SM SCT250 26/16 A2999 RMK AO2 SLP144 T02610156 50005=
202008180152 METAR KATL 180152Z 34006KT 10SM BKN250 28/16 A3000 RMK AO2 SLP146 T02780161=
202008180052 METAR KATL 180052Z 34009KT 10SM FEW045 BKN250 29/16 A2998 RMK AO2 SLP142 T02890161=
202008172352 METAR KATL 172352Z 31004KT 10SM FEW045 SCT200 BKN250 30/19 A2998 RMK AO2 SLP139 T03000189 10322 20300 53002=
202008172252 METAR KATL 172252Z 31010KT 10SM FEW045 SCT200 BKN250 31/19 A2995 RMK AO2 SLP130 CB DSNT SE S T03060189=
202008172152 METAR KATL 172152Z 33011KT 10SM FEW045TCU SCT200 BKN250 32/19 A2996 RMK AO2 LTG DSNT S SLP134 CB DSNT SE S SW TCU NW-NE-E T03220194=
202008172052 METAR KATL 172052Z 31008G14KT 10SM FEW044TCU FEW120 SCT200 BKN250 32/20 A2997 RMK AO2 LTG DSNT E AND SE SLP136 CB DSNT E-SE TCU NE SE-SW DSNT ALQDS T03170200 58015=
202008171952 METAR KATL 171952Z 28010KT 10SM FEW044TCU FEW120 SCT200 BKN250 32/21 A2998 RMK AO2 SLP139 CB DSNT NE TCU N-E-SE S DSNT ALQDS T03170211=
202008171852 METAR KATL 171852Z 33005KT 10SM FEW042TCU FEW110 SCT200 BKN250 31/21 A3000 RMK AO2 LTG DSNT SE SLP148 CB DSNT E-SE TCU N-NE W NW T03110211=
202008171752 METAR KATL 171752Z 30009KT 10SM FEW040TCU FEW100 BKN200 BKN250 30/20 A3001 RMK AO2 LTG DSNT E AND SE SLP151 CB DSNT E-SE TCU SE S DSNT NW-NE T03000200 10311 20239 58008=
202008171652 METAR KATL 171652Z 33011KT 10SM FEW034TCU SCT050 BKN110 BKN200 30/21 A3003 RMK AO2 LTG DSNT NE AND E SLP156 TSB30E50 TS MOVD SE CB DSNT NE-E TCU NE-SE-SW T03000211=
202008171633 SPECI KATL 171633Z 30009KT 260V320 10SM VCTS FEW034 SCT050CB BKN110 BKN200 31/22 A3002 RMK AO2 LTG DSNT NE TSB30 OCNL LTGICCG VC NE TS VC NE MOV SE TCU E-S-SW T03060217=
202008171552 METAR KATL 171552Z 28006KT 10SM FEW030 SCT050TCU SCT100 BKN200 31/21 A3003 RMK AO2 SLP158 TCU NW-NE T03060206=
202008171452 METAR KATL 171452Z 18006KT 10SM FEW075 SCT140 BKN200 BKN250 28/21 A3004 RMK AO2 SLP159 ACC NW-N T02830206 53008=
202008171352 METAR KATL 171352Z 15004KT 10SM FEW085 SCT140 SCT200 BKN250 27/21 A3003 RMK AO2 SLP156 ACC NW-N T02670206=
202008171252 METAR KATL 171252Z 10003KT 10SM FEW110 FEW150 SCT200 BKN250 26/21 A3002 RMK AO2 SLP154 ACC N-E T02560206=
202008171152 METAR KATL 171152Z 00000KT 9SM FEW150 SCT250 24/20 A3001 RMK AO2 SLP151 T02390200 10256 20228 51008=
202008171052 METAR KATL 171052Z 32004KT 10SM FEW150 FEW250 23/20 A3001 RMK AO2 SLP149 ACC NE-SE T02330200=
202008170952 METAR KATL 170952Z 33006KT 10SM FEW250 23/20 A2999 RMK AO2 SLP144 T02330200=
202008170852 METAR KATL 170852Z 33004KT 10SM FEW250 24/20 A2999 RMK AO2 SLP142 T02390200 53002=
202008170752 METAR KATL 170752Z 00000KT 10SM FEW250 24/20 A2998 RMK AO2 SLP139 T02440200=
202008170652 METAR KATL 170652Z 32003KT 10SM FEW250 25/20 A2998 RMK AO2 SLP138 T02500200=
202008170552 METAR KATL 170552Z 31005KT 10SM FEW250 26/20 A2998 RMK AO2 SLP140 T02560200 10306 20250 55001=
202008170452 METAR KATL 170452Z 30004KT 10SM FEW250 26/20 A2998 RMK AO2 SLP139 T02560200 403330222=
202008170352 METAR KATL 170352Z 31004KT 10SM FEW250 26/20 A2998 RMK AO2 SLP139 T02610200=
202008170252 METAR KATL 170252Z 31005KT 10SM FEW250 27/20 A2998 RMK AO2 SLP141 T02720200 51016=
202008170152 METAR KATL 170152Z 29004KT 10SM FEW250 27/19 A2998 RMK AO2 SLP140 T02720194=
202008170052 METAR KATL 170052Z 32004KT 10SM FEW055 FEW250 29/18 A2995 RMK AO2 SLP132 T02940178=
202008162352 METAR KATL 162352Z 32006KT 10SM FEW055 FEW250 31/18 A2993 RMK AO2 SLP125 T03060178 10333 20306 56002=
202008162252 METAR KATL 162252Z 32009KT 10SM SCT055 SCT250 32/17 A2994 RMK AO2 SLP126 T03170172=
202008162152 METAR KATL 162152Z 33011KT 10SM SCT055 SCT250 32/18 A2993 RMK AO2 SLP125 T03220183=
202008162052 METAR KATL 162052Z 31010G14KT 10SM SCT055 SCT250 33/19 A2994 RMK AO2 SLP126 T03280189 56012=
202008161952 METAR KATL 161952Z 35006G14KT 10SM SCT055 SCT200 32/18 A2995 RMK AO2 SLP129 T03220183=
202008161852 METAR KATL 161852Z 35007KT 10SM SCT055 SCT200 32/18 A2996 RMK AO2 SLP135 T03170183=
202008161752 METAR KATL 161752Z VRB04KT 10SM SCT049 SCT200 31/18 A2998 RMK AO2 SLP139 T03110178 10317 20228 58002=
202008161652 METAR KATL 161652Z 32007KT 10SM SCT046 SCT200 31/18 A2998 RMK AO2 SLP141 T03060183=
202008161552 METAR KATL 161552Z 02013KT 10SM SCT035 30/18 A2998 RMK AO2 SLP142 T03000183=
202008161452 METAR KATL 161452Z 33007KT 10SM FEW033 FEW200 28/20 A2998 RMK AO2 SLP141 T02830200 51011=
202008161352 METAR KATL 161352Z 33008KT 10SM FEW200 26/21 A2998 RMK AO2 SLP142 T02610206=
202008161252 METAR KATL 161252Z 32009KT 10SM FEW200 24/21 A2997 RMK AO2 SLP139 T02390206=
202008161152 METAR KATL 161152Z 32006KT 10SM FEW200 23/21 A2995 RMK AO2 SLP131 70032 T02280206 10233 20222 53011=
202008161052 METAR KATL 161052Z 32005KT 10SM CLR 22/20 A2993 RMK AO2 SLP124 T02220200=
202008160952 METAR KATL 160952Z 31006KT 10SM FEW250 22/20 A2991 RMK AO2 SLP118 T02220200=
202008160852 METAR KATL 160852Z 31007KT 10SM FEW250 23/21 A2991 RMK AO2 SLP119 T02280206 58003=
202008160752 METAR KATL 160752Z 31008KT 10SM FEW250 23/21 A2991 RMK AO2 SLP120 T02280206=
202008160652 METAR KATL 160652Z 31009KT 10SM FEW250 23/21 A2993 RMK AO2 SLP122 T02280206=
202008160552 METAR KATL 160552Z 31008KT 10SM FEW250 23/21 A2992 RMK AO2 SLP121 60000 T02330206 10256 20233 57001=
202008160452 METAR KATL 160452Z 31008KT 10SM FEW250 23/21 A2992 RMK AO2 SLP121 T02330206 403170228=
202008160352 METAR KATL 160352Z 30008KT 10SM FEW110 FEW250 24/21 A2992 RMK AO2 SLP121 T02390206=
202008160252 METAR KATL 160252Z 27004KT 10SM FEW090 SCT110 SCT250 23/21 A2992 RMK AO2 SLP122 60000 T02330206 51011=
202008160152 METAR KATL 160152Z 00000KT 10SM FEW028 SCT090 BKN180 BKN250 24/21 A2992 RMK AO2 SLP121 T02390211=
202008160052 METAR KATL 160052Z 25004KT 10SM FEW028 SCT070 SCT090 BKN180 BKN250 24/21 A2991 RMK AO2 RAE03 SLP120 CB DSNT SE P0000 T02440211=
202008152352 METAR KATL 152352Z 24005KT 10SM -RA FEW012 SCT028 SCT070 BKN150 BKN250 26/22 A2989 RMK AO2 LTG DSNT E SLP112 RAB40 CB DSNT NE-E TCU DSNT NW P0001 60032 T02560217 10317 20228 53012=
202008152335 SPECI KATL 152335Z 24005KT 10SM SCT028 SCT070 SCT110 BKN250 26/23 A2988 RMK AO2 TS VC DSIPT CB DSNT NE T02560228=
202008152309 SPECI KATL 152309Z 20005KT 10SM VCTS SCT030CB SCT100 SCT150 BKN250 27/23 A2987 RMK AO2 LTG DSNT NE AND NW OCNL LTGICCC VC W-N TS VC W-N MOV SE CB DSNT NE & SW T02670233=
202008152252 METAR KATL 152252Z 19004KT 10SM FEW014 SCT030 SCT040TCU SCT150 BKN250 28/23 A2987 RMK AO2 LTG DSNT NE AND NW SLP104 TCU N CB DSNT NW-NE & SW T02780233=
202008152152 METAR KATL 152152Z 26003KT 10SM FEW030 FEW150 BKN210 BKN250 28/22 A2987 RMK AO2 SLP105 CB DSNT SE-SW TCU DSNT W & NW T02780222=
202008152052 METAR KATL 152052Z 29005KT 8SM SCT041 BKN070 BKN090 27/22 A2985 RMK AO2 LTG DSNT S AND SW RAE33 SLP099 CB DSNT S-SW P0002 60031 T02670222 58016=
202008151952 METAR KATL 151952Z 24005KT 4SM R09R/5500VP6000FT -RA BR SCT038 BKN050 BKN075 23/21 A2989 RMK AO2 PK WND 01026/1901 RAB05 TSE49 SLP112 TS DSPTD CB DSNT SE-SW VSBY SE-SW 2 P0029 T02330211 $=
202008151939 SPECI KATL 151939Z 27010KT 3SM R09R/5500VP6000FT -TSRA BR SCT029 SCT040 BKN050CB 23/21 A2990 RMK AO2 PK WND 01026/1901 RAB05 ONCL LTGICCG E-S TS E-S MOV SE CB DSNT SW P0014 T02330211 $=
202008151922 SPECI KATL 151922Z 34013G21KT 1 1/2SM R09R/5000VP6000FT -TSRA SCT029 BKN040 OVC050CB 24/21 A2990 RMK AO2 PK WND 01026/1901 RAB05 ONCL LTGICCG OHD-NE-E TS OHD-NE-E MOV SE CB DSNT SW P0001 T02440211 $=
202008151852 METAR KATL 151852Z 28009G14KT 10SM TS SCT033 SCT050CB BKN150 31/21 A2989 RMK AO2 TSB44 SLP111 ONCL LTGICCG N TS N MOV SE CB DSNT NW VSBY NW-NE 5 T03110206 $=
202008151845 SPECI KATL 151845Z VRB04KT 10SM TS SCT033 SCT050CB BKN150 31/21 A2989 RMK AO2 TSB44 ONCL LTGICCG N TS N MOV SE CB DSNT NW T03110211 $=
202008151752 METAR KATL 151752Z 25009KT 10SM SCT029 SCT047 BKN150 BKN250 31/22 A2990 RMK AO2 SLP115 CB DSNT W AND N T03060217 10306 20233 58008=
202008151652 METAR KATL 151652Z 31007KT 10SM SCT024 SCT036 BKN065 BKN250 29/21 A2993 RMK AO2 SLP122 CB DSNT N T02890211=
202008151618 SPECI KATL 151618Z 28009KT 10SM SCT022 BKN032 BKN065 BKN250 28/22 A2993 RMK AO2 T02830217=
202008151552 METAR KATL 151552Z 30009G17KT 10SM SCT017 BKN026 BKN065 28/21 A2994 RMK AO2 SLP126 T02830211=
202008151452 METAR KATL 151452Z 29005KT 10SM SCT012 BKN023 BKN065 27/22 A2993 RMK AO2 SLP124 T02670217 50004=
202008151445 SPECI KATL 151445Z 28005KT 10SM SCT012 BKN024 BKN065 27/22 A2993 RMK AO2 T02670217=
202008151352 METAR KATL 151352Z 27004KT 7SM BKN012 OVC024 25/22 A2993 RMK AO2 SLP127 T02500222=
202008151332 SPECI KATL 151332Z 27006KT 6SM BR BKN009 OVC024 24/22 A2993 RMK AO2 T02440217=
202008151252 METAR KATL 151252Z 29008KT 8SM FEW007 BKN011 OVC055 24/22 A2993 RMK AO2 SLP127 BINOVC T02390217=
202008151203 SPECI KATL 151203Z 27004KT 8SM SCT006 BKN012 OVC110 24/22 A2992 RMK AO2 T02390217=
202008151152 METAR KATL 151152Z 00000KT 10SM SCT006 SCT012 BKN100 23/22 A2992 RMK AO2 SLP121 SCT012 V BKN 70010 T02330217 10233 20228 53003=
202008151052 METAR KATL 151052Z 00000KT 8SM FEW006 SCT012 BKN090 23/22 A2991 RMK AO2 SLP117 SCT012 V BKN T02330217=
202008151048 SPECI KATL 151048Z 23003KT 8SM FEW006 SCT012 BKN090 23/22 A2991 RMK AO2=
202008150952 METAR KATL 150952Z 22004KT 7SM BKN005 BKN012 23/22 A2990 RMK AO2 SLP115 BKN005 V SCT T02330217=
202008150947 SPECI KATL 150947Z 22005KT 7SM BKN005 BKN012 23/22 A2990 RMK AO2 BKN005 V SCT=
202008150852 METAR KATL 150852Z 22004KT 6SM BR BKN004 BKN013 23/22 A2991 RMK AO2 SLP117 CIG 003V005 T02330217 55002=
202008150752 METAR KATL 150752Z 21005KT 6SM BR OVC003 23/22 A2991 RMK AO2 SLP116 CIG 002V004 T02280217=
202008150652 METAR KATL 150652Z 20005KT 7SM BKN004 OVC016 23/21 A2991 RMK AO2 SLP118 CIG 003V005 T02280211=
202008150650 SPECI KATL 150650Z 20004KT 7SM BKN004 OVC016 23/21 A2991 RMK AO2=
202008150602 SPECI KATL 150602Z 20005KT 10SM FEW005 SCT014 SCT040 BKN130 23/21 A2992 RMK AO2 T02280211=
202008150552 METAR KATL 150552Z 19004KT 10SM SCT005 BKN013 BKN040 23/21 A2993 RMK AO2 SLP124 BKN013 V SCT 60002 T02280211 10244 20228 58008=
202008150543 SPECI KATL 150543Z 20004KT 10SM SCT005 SCT016 BKN032 BKN130 23/21 A2993 RMK AO2 T02280211=
202008150452 METAR KATL 150452Z 15003KT 10SM FEW025 SCT120 23/21 A2994 RMK AO2 SLP128 T02280211 403060222=
202008150352 METAR KATL 150352Z 14005KT 10SM FEW007 SCT025 23/21 A2995 RMK AO2 SLP133 T02330211=
202008150252 METAR KATL 150252Z 15006KT 10SM FEW005 SCT030 BKN050 23/22 A2995 RMK AO2 SLP134 60002 T02330217 53006 $=
202008150245 SPECI KATL 150245Z 16006KT 10SM FEW005 SCT048 BKN060 23/22 A2995 RMK AO2 T02330217 $=
202008150152 METAR KATL 150152Z 14005KT 10SM BKN060 BKN120 24/22 A2994 RMK AO2 LTG DSNT E SLP130 CB DSNT E-SE T02390217=
202008150052 METAR KATL 150052Z 19003KT 10SM FEW040 SCT120 BKN160 BKN200 24/22 A2993 RMK AO2 LTG DSNT E-S RAE19 SLP127 CB DSNT E-S P0002 T02440217=
202008150003 SPECI KATL 150003Z 13006KT 7SM -RA SCT035 BKN050 BKN100 BKN200 24/22 A2993 RMK AO2 LTG DSNT S AND W CB DSNT S-SW VIS LWR NE-E P0002 T02390222=
202008142354 SPECI KATL 142354Z 17007G16KT 2 1/2SM R09R/6000VP6000FT RA BR FEW012 BKN035 BKN060 BKN200 24/22 A2994 RMK AO2 LTG DSNT S AND SW CB DSNT SW P0001 T02390222=
202008142352 METAR KATL 142352Z 18008G16KT 7SM R09R/6000VP6000FT +RA FEW020 SCT035 BKN060 BKN200 24/22 A2994 RMK AO2 LTG DSNT S AND SW RAB28 SLP128 TSB20E45 TS DSPTD VSBY S-SW 2 CB DSNT SW P0008 60008 T02390222 10306 20239 52011=
202008142326 SPECI KATL 142326Z 23006KT 10SM VCTS FEW020 SCT035CB BKN080 BKN200 26/22 A2993 RMK AO2 LTG DSNT S AND SW TSB20 OCNL LTGICCG SW VCTS SW MOV NE T02610217=
202008142252 METAR KATL 142252Z 15004KT 10SM FEW015 FEW035CB SCT120 BKN200 27/22 A2990 RMK AO2 LTG DSNT S AND SW SLP116 CB S-SW T02670217=
202008142152 METAR KATL 142152Z 15005KT 10SM FEW028TCU FEW055 BKN120 BKN200 28/21 A2990 RMK AO2 LTG DSNT SW AND W RAB08E18 TSE37 SLP115 TS MOV E TCU S CB DSNT SW-W P0000 T02780211=
202008142139 SPECI KATL 142139Z 14005KT 10SM FEW028TCU FEW055 BKN120 BKN200 27/22 A2991 RMK AO2 LTG DSNT W RAB08E18 TSE37 TS MOV E TCU S CB DSNT W P0000 T02670217=
202008142052 METAR KATL 142052Z 19005KT 10SM TS FEW014 FEW036CB SCT110 BKN200 28/22 A2994 RMK AO2 RAB06E24 SLP128 OCNL LTGICCGCA NE VC SE-S TS NE VC SE-S MOV NE CB DSNT S W-NW P0000 60000 T02780217 55018=
202008142025 SPECI KATL 142025Z 20008KT 10SM TS FEW034CB SCT055 BKN120 BKN200 27/22 A2994 RMK AO2 LTG DSNT S RAB06E24 OCNL LTGICCA NW-NE VC SE-S TS NW-NE VC SE-S MOV NE P0000 T02670217=
202008141952 METAR KATL 141952Z 22008KT 10SM TS SCT034CB BKN055 BKN140 BKN200 29/21 A2994 RMK AO2 TSB40 SLP127 OCNL LTGICCA S-SW TS S-SW MOV NE TCU OHD-SW-NW SHRA S-SW W T02890211=
202008141941 SPECI KATL 141941Z 23005KT 10SM TS SCT032CB BKN046 BKN140 BKN200 29/21 A2994 RMK AO2 TSB40 OCNL LTGICCG S-SW TS S-SW MOV NE TCU SW-NW SHRA S-SW T02940211=
202008141852 METAR KATL 141852Z 24006KT 10SM SCT028 BKN038 BKN150 BKN200 29/22 A2996 RMK AO2 SLP134 CB DSNT SE S SW TCU DSNT S SW W T02940217=
202008141752 METAR KATL 141752Z 17007KT 10SM SCT024 BKN140 BKN200 28/22 A3000 RMK AO2 SLP147 MDT CU SW-NW 60000 T02780217 10278 20222 58008=
202008141714 SPECI KATL 141714Z 22004KT 10SM SCT018 BKN024 BKN150 BKN200 27/22 A3002 RMK AO2 T02670217=
202008141652 METAR KATL 141652Z 20004KT 10SM SCT018 SCT024 BKN140 BKN200 26/22 A3002 RMK AO2 SLP156 T02610217=
202008141552 METAR KATL 141552Z 20005KT 10SM SCT012 BKN020 BKN100 OVC140 26/22 A3003 RMK AO2 SLP158 T02560217=
202008141452 METAR KATL 141452Z 10004KT 10SM SCT011 BKN015 BKN110 OVC150 25/22 A3002 RMK AO2 RAE04 SLP156 CIG 009V013 P0000 60000 T02500217 51010=
202008141352 METAR KATL 141352Z 18004KT 8SM -RA OVC006 24/22 A3001 RMK AO2 RAB38 SLP152 CIG 005V008 P0000 T02390217=
202008141342 SPECI KATL 141342Z 00000KT 8SM -RA OVC006 23/21 A3000 RMK AO2 RAB38 CIG 005V008 P0000 T02330211=
202008141312 SPECI KATL 141312Z VRB03KT 10SM OVC004 23/21 A3001 RMK AO2 T02330211=
202008141252 METAR KATL 141252Z 22003KT 10SM BKN005 OVC010 23/21 A3001 RMK AO2 SLP150 T02280211=
202008141225 SPECI KATL 141225Z 23003KT 10SM BKN008 BKN014 BKN180 23/21 A3001 RMK AO2 T02280206=
202008141152 METAR KATL 141152Z 17003KT 10SM FEW006 SCT014 BKN120 BKN180 BKN250 22/21 A2999 RMK AO2 SLP144 TCU DSNT SW 70071 T02220206 10228 20222 52001=
202008141052 METAR KATL 141052Z 00000KT 10SM FEW008 SCT080 SCT150 BKN250 22/20 A2999 RMK AO2 SLP143 T02220200=
202008140952 METAR KATL 140952Z 00000KT 10SM FEW150 SCT250 22/20 A2998 RMK AO2 SLP141 T02220200=
202008140937 SPECI KATL 140937Z 09004KT 10SM SCT006 22/20 A2999 RMK AO2 T02220200=
202008140852 METAR KATL 140852Z 07005KT 10SM BKN006 BKN100 23/21 A2999 RMK AO2 SLP142 T02280206 58003=
202008140752 METAR KATL 140752Z 05008KT 10SM FEW006 BKN100 BKN150 BKN180 23/21 A3000 RMK AO2 SLP147 T02280206=
202008140652 METAR KATL 140652Z 00000KT 10SM FEW120 SCT150 SCT180 23/21 A2999 RMK AO2 SLP143 T02280206=
202008140552 METAR KATL 140552Z 19005KT 10SM FEW006 SCT120 BKN150 BKN180 23/21 A3000 RMK AO2 SLP146 RAE05 P0000 60071 T02280211 10311 20228 58016=
202008140452 METAR KATL 140452Z 15004KT 10SM -RA FEW005 BKN070 OVC110 23/21 A3002 RMK AO2 SLP154 LTG DSNT SE-SW P0007 T02280211 403440228=
202008140416 SPECI KATL 140416Z 13006KT 10SM -RA SCT005 BKN060 OVC110 23/22 A3003 RMK AO2 LTG DSNT SE-SW P0006 T02330217=
202008140352 METAR KATL 140352Z 14004KT 6SM -RA BKN005 BKN080 OVC150 23/22 A3003 RMK AO2 TSE51 SLP158 LTG DSNT N E-S-SW TS DSIPTD P0012 T02330217=
202008140252 METAR KATL 140252Z 10006KT 7SM -TSRA FEW006 SCT035CB BKN080 OVC150 23/21 A3004 RMK AO2 SLP163 OCNL LTGICCA ALQDS TS ALQDS MOV E P0013 60052 T02280211 53032=
202008140152 METAR KATL 140152Z 26008KT 4SM TSRA BR FEW007 SCT015 BKN030CB OVC150 23/21 A3002 RMK AO2 WSHFT 0111 RAB29 TSB04 SLP154 VIS LWR NW-NE FRQ LTGICCGCA OHD-ALQDS TS OHD-ALQDS MOV E P0039 T02330211=
202008140140 SPECI KATL 140140Z 29015G21KT 1SM R09R/P6000FT +TSRA SCT020 BKN035CB BKN100 OVC200 24/21 A3001 RMK AO2 WSHFT 0111 RAB29 TSB04 CONS LTGICCG OHD-ALQDS TS OHD-ALQDS MOV NE P0011 T02390211=
202008140138 SPECI KATL 140138Z 26011G23KT 2SM +TSRA SCT020 BKN035CB BKN100 OVC200 24/21 A3001 RMK AO2 WSHFT 0111 RAB29 TSB04 CONS LTGICCG OHD-ALQDS TS OHD-ALQDS MOV NE P0003 T02440211=
202008140129 SPECI KATL 140129Z 28017KT 9SM -TSRA SCT025 BKN045CB BKN150 BKN250 26/21 A3000 RMK AO2 WSHFT 0111 RAB29 TSB04 CONS LTGICCG N-OHD-SW TS N-OHD-SW MOV NE P0000 T02610211=
202008140104 SPECI KATL 140104Z 20006KT 10SM TS SCT050CB BKN150 BKN250 29/21 A2997 RMK AO2 TSB04 FRQ LTGICCG SW-NW DSNT ALQDS TS SW-NW DSNT ALQDS MOV NE T02940211=
202008140052 METAR KATL 140052Z 19005KT 10SM SCT050 BKN150 BKN250 30/21 A2997 RMK AO2 LTG DSNT ALQDS SLP135 CB DSNT ALQDS T03000206=
202008132352 METAR KATL 132352Z 20005KT 10SM FEW050TCU SCT150 SCT250 31/21 A2994 RMK AO2 LTG DSNT ALQDS SLP128 TCU NE CB DSNT ALQDS T03110206 10344 20311 53003=
202008132252 METAR KATL 132252Z 20006KT 10SM SCT050CB SCT250 33/20 A2994 RMK AO2 LTG DSNT NE AND NW SLP127 CB SE DSNT N NE SW NW MOV NE TCU OHD-NE T03280200=
202008132152 METAR KATL 132152Z 24005KT 10SM SCT050TCU SCT250 33/21 A2993 RMK AO2 SLP124 TCU OHD-ALQDS T03280206=
202008132052 METAR KATL 132052Z 29007G14KT 10SM FEW055 FEW100 SCT200 SCT250 34/21 A2994 RMK AO2 SLP124 TCU DSNT N NE E SE NW T03440206 56033=
202008131952 METAR KATL 131952Z 26007KT 10SM FEW050 FEW100 SCT200 SCT250 34/21 A2995 RMK AO2 SLP131 CB DSNT N TCU DSNT N E SE T03390206=
202008131852 METAR KATL 131852Z 26009KT 10SM FEW048TCU FEW100 SCT200 SCT250 33/21 A2999 RMK AO2 SLP145 CB DSNT SW NW TCU N NW DSNT N T03330206=
202008131752 METAR KATL 131752Z 29007KT 10SM FEW040TCU FEW100 SCT200 SCT250 32/21 A3004 RMK AO2 SLP159 CB DSNT W TCU N SE NW T03170211 10322 20239 58014=
202008131652 METAR KATL 131652Z 26005KT 10SM FEW033TCU FEW075 SCT100 SCT200 31/21 A3006 RMK AO2 SLP169 TCU N MDT CU OHD NW-N T03060211=
202008131552 METAR KATL 131552Z 17005KT 10SM FEW030 FEW200 SCT250 30/22 A3007 RMK AO2 SLP170 T03000222=
202008131452 METAR KATL 131452Z 16004KT 10SM FEW024 SCT140 SCT200 SCT250 28/22 A3008 RMK AO2 SLP175 T02780217 51004=
202008131352 METAR KATL 131352Z 14006KT 10SM FEW085 SCT140 SCT200 BKN250 27/22 A3008 RMK AO2 SLP174 CB DSNT SW ACC SW W T02670217=
202008131252 METAR KATL 131252Z 19003KT 10SM FEW060 SCT140 BKN180 BKN250 26/22 A3008 RMK AO2 SLP177 TCU DSNT SW ACC DSNT W T02560217=
202008131152 METAR KATL 131152Z 30004KT 10SM FEW012 FEW060 SCT140 SCT250 24/21 A3007 RMK AO2 SLP172 MDT CU DSNT SW 70009 T02390211 10244 20233 53016=
202008131052 METAR KATL 131052Z 34005KT 10SM BKN140 BKN180 BKN250 24/21 A3005 RMK AO2 SLP165 T02390211=
202008130952 METAR KATL 130952Z 33005KT 10SM SCT140 BKN180 BKN250 24/21 A3003 RMK AO2 SLP159 T02390211=
202008130852 METAR KATL 130852Z 30003KT 10SM SCT210 BKN250 24/22 A3002 RMK AO2 SLP155 T02390217 58002=
202008130752 METAR KATL 130752Z 00000KT 10SM FEW060 BKN200 BKN220 24/22 A3002 RMK AO2 SLP156 T02390217=
202008130652 METAR KATL 130652Z 32003KT 10SM FEW012 SCT060 BKN220 24/22 A3003 RMK AO2 SLP158 CB DSNT SE T02440217=
202008130552 METAR KATL 130552Z 28007KT 10SM FEW060 SCT180 BKN220 24/22 A3002 RMK AO2 LTG DSNT SE SLP155 T02390217 10256 20239 58004=
202008130452 METAR KATL 130452Z 27006KT 10SM SCT060 BKN150 BKN200 24/22 A3004 RMK AO2 SLP160 T02390217 403440233=
202008130352 METAR KATL 130352Z 26003KT 10SM SCT140 BKN200 BKN250 24/21 A3004 RMK AO2 SLP161 T02390211=
202008130252 METAR KATL 130252Z 27006KT 10SM BKN150 BKN200 BKN250 24/21 A3004 RMK AO2 SLP159 T02440211 53007=
202008130152 METAR KATL 130152Z 24004KT 10SM BKN150 BKN200 BKN250 25/21 A3002 RMK AO2 SLP154 T02500211=
202008130052 METAR KATL 130052Z 00000KT 10SM BKN150 BKN200 OVC250 25/22 A3002 RMK AO2 SLP153 T02500222=
202008122352 METAR KATL 122352Z 24004KT 10SM BKN150 BKN200 OVC250 24/22 A3001 RMK AO2 SLP154 60009 T02440217 10344 20233 53004=
202008122252 METAR KATL 122252Z 19007KT 10SM SCT140 BKN200 OVC250 26/22 A3000 RMK AO2 SLP148 T02560217=
202008122152 METAR KATL 122152Z 28003KT 10SM SCT140 BKN200 OVC250 25/21 A3000 RMK AO2 LTG DSNT SE RAB2059E36 SLP150 P0000 T02500211=
202008122052 METAR KATL 122052Z 28006KT 10SM FEW040 SCT080 BKN120 BKN250 24/20 A3000 RMK AO2 LTG DSNT E-S RAE1957 TSE05 SLP151 TS MOV SE CB DSNT E-S TCU DSNT NE P0000 60009 T02440200 55006=
202008122020 SPECI KATL 122020Z 27005KT 10SM FEW040TCU BKN120 BKN250 24/19 A3000 RMK AO2 LTG DSNT ALQDS RAE1957 TSE05 TS MOV SE CB DSNT E-S-SW TCU N-NE P0000 T02440194=
202008122006 SPECI KATL 122006Z 33004KT 10SM VCTS FEW040CB BKN120 BKN250 25/19 A3000 RMK AO2 LTG DSNT ALQDS RAE1957 TSE05 OCNL LTGIC SE-S VCTS SE-S STNRY TCU N-NE P0000 T02500194=
202008121952 METAR KATL 121952Z 26007KT 10SM -TSRA FEW040CB BKN100 BKN250 23/19 A3000 RMK AO2 LTG DSNT E-SW RAB10 TSB1853E40B41 SLP149 OCNL LTGICCG S-SW TS S-SW STNRY CB DSNT NE & SE P0009 T02330189=
202008121908 SPECI KATL 121908Z 27013G23KT 10SM TS SCT055CB BKN090 BKN250 28/18 A3002 RMK AO2 LTG DSNT SE AND W AND NW TSB1853 FRQ LTGICCG S-W-NW TS S-W-NW STNRY TCU ALQDS T02830183=
202008121857 SPECI KATL 121857Z VRB06KT 10SM TS SCT055CB BKN090 BKN250 28/19 A3001 RMK AO2 LTG DSNT W AND NW TSB53 TSB05E20B45 OCNL LTGICCG S & NW TS S & NW STNRY TCU ALQDS T02830194=
202008121852 METAR KATL 121852Z 15006KT 10SM VCTS SCT055CB BKN090 BKN250 29/21 A3001 RMK AO2 LTG DSNT W AND NW SLP150 TSB05E20B45 OCNL LTGICCG NW VCTS NW STNRY TCU ALQDS VCSH S VSBY LWR S T02940206=
202008121826 SPECI KATL 121826Z 00000KT 10SM SCT050TCU BKN075 BKN250 33/19 A3000 RMK AO2 LTG DSNT W AND NW TSB05E20 DSPTD TCU ALQDS CB DSNT W-N T03330194=
202008121811 SPECI KATL 121811Z 32006KT 10SM VCTS SCT050CB BKN100 BKN250 34/20 A3002 RMK AO2 LTG DSNT N AND W TSB05 OCNL LTGICCG W-N VCTS W-N STNRY T03390200=
202008121752 METAR KATL 121752Z VRB04KT 10SM SCT050TCU SCT250 33/20 A3002 RMK AO2 LTG DSNT N AND W SLP153 TCU ALQDS CB DSNT N & W T03330200 10344 20244 58012=
202008121652 METAR KATL 121652Z 00000KT 10SM SCT045TCU SCT200 SCT250 33/21 A3004 RMK AO2 SLP159 TCU ALQDS T03330211=
202008121552 METAR KATL 121552Z 00000KT 10SM FEW034 FEW200 31/21 A3006 RMK AO2 SLP165 T03110211=
202008121452 METAR KATL 121452Z VRB03KT 10SM FEW200 32/22 A3006 RMK AO2 SLP166 T03170222 51006=
202008121352 METAR KATL 121352Z 01004KT 10SM FEW200 FEW250 29/22 A3005 RMK AO2 SLP165 T02940222=
202008121252 METAR KATL 121252Z 32005KT 10SM FEW200 FEW250 27/22 A3006 RMK AO2 SLP167 T02670217=
202008121152 METAR KATL 121152Z 29005KT 10SM FEW200 SCT250 24/22 A3004 RMK AO2 SLP161 T02440217 10256 20239 53012=
202008121052 METAR KATL 121052Z 31003KT 10SM SCT200 SCT250 24/22 A3002 RMK AO2 SLP153 T02440217=
202008120952 METAR KATL 120952Z 31004KT 10SM BKN250 24/22 A3002 RMK AO2 SLP152 T02440217=
202008120852 METAR KATL 120852Z 30007KT 10SM BKN250 24/22 A3000 RMK AO2 SLP147 T02440217 56007=
202008120752 METAR KATL 120752Z 28007KT 10SM SCT050 SCT075 BKN250 24/22 A3001 RMK AO2 SLP151 T02390222=
202008120652 METAR KATL 120652Z 28008KT 10SM FEW048 BKN250 24/22 A3002 RMK AO2 SLP152 T02440217=
202008120552 METAR KATL 120552Z 24005KT 10SM FEW048 SCT250 26/22 A3003 RMK AO2 SLP156 T02560217 10317 20256 58000=
202008120452 METAR KATL 120452Z 22004KT 10SM SCT050 BKN250 26/22 A3003 RMK AO2 SLP158 T02610217 403440222=
202008120352 METAR KATL 120352Z 24005KT 10SM SCT048TCU SCT090 BKN250 27/22 A3003 RMK AO2 SLP158 TCU NE-E DSNT SE T02670217=
202008120252 METAR KATL 120252Z 25003KT 10SM FEW050 FEW150 SCT250 27/22 A3003 RMK AO2 SLP157 T02670217 53020=
202008120152 METAR KATL 120152Z 27005KT 10SM FEW050 SCT200 BKN250 28/22 A3000 RMK AO2 SLP148 T02830222=
202008120052 METAR KATL 120052Z 27004KT 10SM FEW050 SCT200 BKN250 29/22 A2998 RMK AO2 SLP142 T02940217=
202008112352 METAR KATL 112352Z 33007KT 10SM FEW048 SCT200 BKN250 32/21 A2997 RMK AO2 SLP137 TCU DSNT N T03170206 10344 20306 58002=
202008112252 METAR KATL 112252Z 33005KT 10SM FEW048 SCT200 BKN250 32/21 A2998 RMK AO2 SLP140 T03220211=
202008112152 METAR KATL 112152Z 35009KT 10SM FEW048TCU SCT200 SCT250 33/20 A2997 RMK AO2 SLP137 CB DSNT SW TCU SE-S T03330200=
202008112052 METAR KATL 112052Z 33008KT 290V360 10SM FEW048TCU SCT200 SCT250 34/20 A2998 RMK AO2 LTG DSNT SW SLP139 CB DSNT N SW TCU N-NE DSNT NE T03440200 56027=
202008111952 METAR KATL 111952Z 30007KT 10SM FEW044 FEW150 SCT200 SCT250 33/22 A2999 RMK AO2 SLP145 CB DSNT W T03330217=
202008111852 METAR KATL 111852Z 29007KT 10SM FEW040 FEW140 SCT200 SCT250 32/22 A3002 RMK AO2 SLP154 CB DSNT NE E T03220222=
202008111752 METAR KATL 111752Z 30006KT 10SM FEW036 SCT140 SCT200 BKN250 31/22 A3006 RMK AO2 SLP167 60000 T03060217 10306 20228 58002=
202008111652 METAR KATL 111652Z 28006KT 10SM FEW110 BKN140 BKN200 BKN250 29/22 A3007 RMK AO2 RAE00 SLP172 ACC N-NE SE-SW P0000 T02890222=
202008111552 METAR KATL 111552Z 28006KT 10SM -RA FEW110 BKN140 BKN200 BKN250 27/22 A3007 RMK AO2 RAB49 SLP171 ACC N-NE SE-SW P0000 T02720222=
202008111452 METAR KATL 111452Z 29008KT 10SM FEW120 BKN140 BKN200 27/21 A3006 RMK AO2 SLP170 ACC SW-NW-NE 60000 T02720211 55002=
202008111352 METAR KATL 111352Z 33007KT 10SM FEW110 SCT140 BKN200 25/21 A3006 RMK AO2 SLP169 ACC W NW-N T02500211=
202008111252 METAR KATL 111252Z 33010KT 10SM FEW012 SCT045CB SCT065 BKN150 BKN200 24/21 A3007 RMK AO2 RAB32E41 SLP172 CB N-NE & DSNT SW MOV SE SHRA N-NE P0000 T02440211=
202008111152 METAR KATL 111152Z 30007KT 10SM FEW045TCU SCT075 BKN150 BKN200 23/21 A3007 RMK AO2 SLP174 TCU W ACC E-SE W CB DSNT NW 70018 T02280206 10228 20222 53018=
202008111052 METAR KATL 111052Z 28003KT 10SM SCT090 SCT150 SCT200 22/20 A3004 RMK AO2 SLP162 T02220200=
202008110952 METAR KATL 110952Z 28004KT 10SM SCT150 22/20 A3003 RMK AO2 SLP159 T02220200=
202008110852 METAR KATL 110852Z 27005KT 10SM FEW120 BKN150 23/21 A3002 RMK AO2 SLP155 T02280206 56011=
202008110752 METAR KATL 110752Z 29005KT 10SM FEW005 SCT140 BKN200 22/20 A3002 RMK AO2 SLP156 T02220200=
202008110652 METAR KATL 110652Z 29005KT 10SM FEW005 SCT130 BKN200 23/21 A3004 RMK AO2 SLP162 T02280206=
202008110552 METAR KATL 110552Z 29008KT 10SM FEW005 SCT150 SCT200 BKN250 23/21 A3005 RMK AO2 SLP164 T02280206 10244 20222 58001=
202008110452 METAR KATL 110452Z 32005KT 10SM FEW006 SCT200 BKN250 23/21 A3007 RMK AO2 SLP171 T02280206 403500228=
202008110352 METAR KATL 110352Z 29004KT 10SM FEW150 SCT200 BKN250 23/21 A3006 RMK AO2 SLP167 T02330206=
202008110252 METAR KATL 110252Z 27004KT 10SM FEW150 SCT200 BKN250 23/21 A3005 RMK AO2 SLP166 T02280206 58002=
202008110152 METAR KATL 110152Z 00000KT 10SM SCT150 BKN200 BKN250 23/20 A3006 RMK AO2 SLP168 T02330200=
202008110052 METAR KATL 110052Z 19006KT 10SM SCT150 BKN200 BKN250 23/21 A3008 RMK AO2 SLP175 T02330206=
202008102352 METAR KATL 102352Z 16005KT 10SM SCT150 BKN200 BKN250 24/19 A3006 RMK AO2 SLP170 60018 T02390194 10339 20239 55012=
202008102252 METAR KATL 102252Z 10005KT 10SM FEW080 SCT140 BKN200 OVC250 24/19 A3005 RMK AO2 SLP166 T02440194=
202008102152 METAR KATL 102152Z 13004KT 10SM FEW045 FEW080 BKN140 OVC200 24/20 A3006 RMK AO2 SLP170 LTG DSNT SW CB DSNT SW T02440200=
202008102052 METAR KATL 102052Z 09008KT 10SM FEW045 FEW075 SCT130 OVC200 24/21 A3010 RMK AO2 LTG DSNT S-NW RAE25 TSE44 SLP182 TS MOVD SE CB DSNT SE-SW-NW CBMAM DSNT SE SW P0001 60018 T02440206 53004=
202008102045 SPECI KATL 102045Z 08009KT 10SM FEW045 FEW075 SCT130 OVC200 24/21 A3010 RMK AO2 LTG DSNT ALQDS RAE25 TSE44 TS MOVD SE OCNL LTGICCA DSNT SE-SW CB DSNT ALQDS P0001 T02440206=
202008101952 METAR KATL 101952Z 36009KT 7SM TSRA SCT036CB SCT065 BKN110 BKN200 26/22 A3007 RMK AO2 WSHFT 1923 LTG DSNT ALQDS RAE1855B22 TSB1858 SLP173 VIS LWR SW FRQ LTGICCA NE-OHD-SW TS NE-OHD-SW MOV SE CB DSNT ALQDS P0002 T02560222=
202008101940 SPECI KATL 101940Z 35014G22KT 7SM -TSRA SCT036CB SCT065 BKN110 BKN200 27/21 A3009 RMK AO2 WSHFT 1923 LTG DSNT ALQDS RAE1855B22 TSB1858 VIS LWR NW FRQ LTGICCGCA NE-OHD-SW TS NE-OHD-SW MOV SE CB DSNT ALQDS P0000 T02720206=
202008101934 SPECI KATL 101934Z 35017G22KT 10SM -TSRA SCT036CB SCT065 BKN110 BKN200 29/21 A3009 RMK AO2 LTG DSNT ALQDS RAE1855B22 TSB1858 FRQ LTGICCGCA NW-NE TS NW-NE MOV SE CB DSNT ALQDS P0000 T02890206=
202008101859 SPECI KATL 101859Z 20006KT 10SM TS SCT036CB SCT065 BKN110 BKN200 29/23 A3007 RMK AO2 LTG DSNT ALQDS RAE55 TSB58 FRQ LTGICCGCA NW-NE TS NW-NE MOV SE CB DSNT ALQDS P0000 T02940228=
202008101852 METAR KATL 101852Z 19004KT 10SM -RA FEW040CB SCT085 BKN200 BKN250 29/22 A3007 RMK AO2 LTG DSNT ALQDS RAB14 TSB12E39 SLP172 TS DSIPTD CB NE NW MOV SE CB DSNT ALQDS TCU NW-NE P0015 T02940222=
202008101840 SPECI KATL 101840Z 22007KT 10SM R09R/6000VP6000FT -RA SCT050TCU SCT100 BKN200 BKN250 27/22 A3007 RMK AO2 LTG DSNT ALQDS RAB14 TSB12E39 TS DSIPTD CB DSNT ALQDS TCU N-NE E P0014 T02720217=
202008101814 SPECI KATL 101814Z 25012G24KT 9SM -TSRA SCT050CB SCT100 BKN200 BKN250 30/21 A3008 RMK AO2 LTG DSNT N AND NW RAB14 TSB12 OCNL LTGICCGCA SW-W TS SW-W MOV SE CB DSNT N S NW TCU ALQDS SHRA SW-W P0000 T03000206=
202008101752 METAR KATL 101752Z 31006KT 10SM SCT046TCU SCT100 BKN200 BKN250 34/21 A3008 RMK AO2 LTG DSNT S-NW RAB12E22 SLP175 CB DSNT NE S-W NW TCU N NE SE-SW NW P0000 60000 T03390206 10350 20244 58017=
202008101652 METAR KATL 101652Z 29004KT 10SM SCT042TCU SCT080 SCT180 BKN250 33/22 A3012 RMK AO2 LTG DSNT SW SLP187 CB DSNT NE SW TCU SE-SW-NW-NE T03330217=
202008101552 METAR KATL 101552Z 27008KT 10SM FEW038 SCT180 SCT250 33/22 A3014 RMK AO2 SLP194 T03280217=
202008101452 METAR KATL 101452Z 33008KT 10SM SCT180 SCT250 31/22 A3014 RMK AO2 SLP193 T03060217 51007=
202008101352 METAR KATL 101352Z 28008KT 10SM FEW140 SCT250 29/21 A3013 RMK AO2 SLP190 T02890211=
202008101252 METAR KATL 101252Z 25004KT 10SM FEW100 SCT140 26/21 A3013 RMK AO2 SLP190 T02560211=
202008101152 METAR KATL 101152Z 27007KT 10SM FEW100 BKN130 24/21 A3011 RMK AO2 SLP186 T02440206 10244 20233 53005=
202008101052 METAR KATL 101052Z 28006KT 10SM BKN130 24/20 A3011 RMK AO2 SLP184 T02390200=
202008100952 METAR KATL 100952Z 29007KT 10SM FEW060 BKN140 BKN180 24/20 A3010 RMK AO2 SLP181 T02390200=
202008100852 METAR KATL 100852Z 26005KT 10SM FEW060 FEW150 SCT180 23/20 A3010 RMK AO2 SLP180 T02330200 58013=
202008100752 METAR KATL 100752Z 24005KT 10SM FEW060 FEW150 SCT180 23/20 A3012 RMK AO2 SLP187 T02330200=
202008100652 METAR KATL 100652Z 20005KT 10SM FEW060 BKN150 BKN250 23/20 A3013 RMK AO2 SLP190 TCU DSNT NW T02330200=
202008100552 METAR KATL 100552Z 17004KT 10SM FEW110 BKN150 BKN250 24/19 A3014 RMK AO2 SLP193 T02390194 10333 20239 58003=
202008100452 METAR KATL 100452Z 15005KT 10SM FEW060 SCT110 SCT250 24/18 A3015 RMK AO2 SLP198 T02440183 403560228=
202008100352 METAR KATL 100352Z 13004KT 10SM FEW060 SCT100 SCT250 25/19 A3015 RMK AO2 SLP197 LTG DSNT SE CB DSNT SE T02500189 $=
202008100252 METAR KATL 100252Z 20006KT 10SM SCT060 SCT100 SCT200 SCT250 27/18 A3015 RMK AO2 SLP197 LTG DSNT E-S CB DSNT E-S T02670183 53017 $=
202008100152 METAR KATL 100152Z 00000KT 10SM FEW065 SCT150 SCT200 SCT250 30/17 A3012 RMK AO2 SLP187 CONS LTG DSNT E-SE & S CB DSNT E-SW T03000172 $=
202008100052 METAR KATL 100052Z 03008KT 10SM SCT065 SCT080 SCT150 SCT200 SCT250 30/18 A3011 RMK AO2 SLP183 LTG DSNT NE & S & SW CB DSNT NE-E & S & SW T03000178 $=
202008100018 SPECI KATL 100018Z 04012KT 10SM SCT065CB SCT080 SCT150 SCT200 SCT250 32/19 A3010 RMK AO2 TS VC DSIPT CB NE DRFTG SE CB DSNT S & W T03170189 $=
202008092352 METAR KATL 092352Z 32006KT 10SM VCTS SCT065CB SCT150 SCT200 SCT250 33/18 A3009 RMK AO2 LTG DSNT E SLP179 OCNL LTGICCG VC NE TS VC NE MOV STNRY TCU DSNT N & S-W T03330183 10356 20328 53003 $=
202008092346 SPECI KATL 092346Z 32007KT 10SM VCTS SCT065CB SCT150 SCT200 SCT250 33/19 A3009 RMK AO2 OCNL LTGICCG VC NE TS VC NE MOV STNRY TCU DSNT NW-E & S-SW $=
202008092337 SPECI KATL 092337Z 29007KT 10SM SCT065 SCT150 SCT250 33/19 A3008 RMK AO2 TSE35 TS DSIPT TCU DSNT NW-E & DSNT S-SW T03280194=
202008092252 METAR KATL 092252Z 26006KT 10SM TS SCT055CB SCT150 SCT250 34/19 A3008 RMK AO2 SLP174 TSB39 OCNL LTGICCG SE TS SE MOV STNRY TCU DSNT NW-E T03390194=
202008092242 SPECI KATL 092242Z 25006KT 10SM TS SCT055CB SCT150 SCT250 34/19 A3008 RMK AO2 TSB39 OCNL LTGICCG SE TS SE MOV STNRY CB DSNT NW TCU DSNT N-NE & S T03390194=
202008092239 SPECI KATL 092239Z 26006KT 10SM VCTS SCT055CB SCT150 SCT250 34/19 A3008 RMK AO2 OCNL LTGICCG VC SE TS VC SE MOV STNRY CB DSNT NW TCU DSNT N-NE & S T03390189=
202008092152 METAR KATL 092152Z 26007KT 10SM CLR 34/20 A3009 RMK AO2 SLP176 T03390200=
202008092052 METAR KATL 092052Z 29005KT 10SM FEW065TCU FEW200 34/19 A3009 RMK AO2 SLP176 TCU S-W-N CB DSNT SE T03440189 56022=
202008091952 METAR KATL 091952Z 00000KT 10SM FEW060TCU FEW200 34/18 A3011 RMK AO2 SLP182 TCU N-NE T03440183=
202008091852 METAR KATL 091852Z VRB05G15KT 10SM FEW050TCU SCT090 34/19 A3013 RMK AO2 SLP190 TCU ALQDS T03390194=
202008091752 METAR KATL 091752Z 23008KT 10SM FEW055TCU SCT250 34/18 A3016 RMK AO2 SLP199 TCU SE-SW-NW CB DSNT SW T03390183 10344 20239 58010=
202008091652 METAR KATL 091652Z 30005KT 10SM FEW050 FEW070 32/18 A3018 RMK AO2 SLP207 MDT CU ALQDS T03220183=
202008091552 METAR KATL 091552Z VRB04KT 10SM FEW042 FEW150 32/19 A3019 RMK AO2 SLP209 T03220194=
202008091452 METAR KATL 091452Z 32005KT 10SM FEW200 31/22 A3019 RMK AO2 SLP210 T03060217 50001=
202008091352 METAR KATL 091352Z 26004KT 10SM FEW200 28/22 A3019 RMK AO2 SLP211 T02780217=
202008091252 METAR KATL 091252Z 30004KT 10SM CLR 26/21 A3019 RMK AO2 SLP212 T02560211=
202008091152 METAR KATL 091152Z 33004KT 10SM FEW080 24/21 A3018 RMK AO2 SLP210 T02390206 10250 20228 53007=
202008091052 METAR KATL 091052Z 00000KT 10SM FEW080 23/21 A3017 RMK AO2 SLP203 T02280206=
202008090952 METAR KATL 090952Z 22004KT 10SM FEW080 23/21 A3015 RMK AO2 SLP199 T02330206=
202008090852 METAR KATL 090852Z 20004KT 10SM FEW080 FEW110 24/21 A3016 RMK AO2 SLP200 T02390206 55003=
202008090752 METAR KATL 090752Z 17004KT 10SM FEW080 FEW110 24/21 A3015 RMK AO2 SLP199 T02440206=
202008090652 METAR KATL 090652Z 00000KT 10SM FEW110 25/21 A3016 RMK AO2 SLP199 T02500211=
202008090552 METAR KATL 090552Z 00000KT 10SM FEW110 FEW200 25/21 A3017 RMK AO2 SLP205 T02500211 10306 20250 50004=
202008090452 METAR KATL 090452Z 00000KT 10SM FEW110 FEW250 26/21 A3017 RMK AO2 SLP205 T02560211 403440228=
202008090352 METAR KATL 090352Z 17003KT 10SM FEW110 FEW250 26/21 A3017 RMK AO2 SLP204 T02610211=
202008090252 METAR KATL 090252Z 19003KT 10SM FEW065 SCT120 SCT250 27/21 A3016 RMK AO2 SLP201 T02720211 53010=
202008090152 METAR KATL 090152Z 17005KT 10SM FEW065 SCT150 SCT250 28/21 A3014 RMK AO2 SLP196 TCU DSNT NE T02780211=
202008090052 METAR KATL 090052Z 19005KT 10SM FEW065 FEW100 SCT150 SCT250 29/21 A3013 RMK AO2 SLP192 TCU DSNT NE & SE MDT CU DSNT S T02890206=
202008082352 METAR KATL 082352Z 18010G16KT 10SM SCT060TCU SCT100 SCT250 31/21 A3013 RMK AO2 SLP190 TCU E CB DSNT E & NW MDT CU NE T03060211 10344 20306 53003=
202008082252 METAR KATL 082252Z 23005KT 10SM FEW065TCU SCT250 32/18 A3012 RMK AO2 SLP187 TCU E CB DSNT E-SE TCU DSNT S & NW T03220178=
202008082152 METAR KATL 082152Z 29006KT 10SM SCT065TCU SCT250 34/17 A3012 RMK AO2 SLP186 TCU E TCU DSNT S MDT CU DSNT N T03390172=
202008082052 METAR KATL 082052Z 31007G17KT 10SM FEW060TCU 34/18 A3012 RMK AO2 SLP186 TCU SE-SW T03440178 56016=
202008081952 METAR KATL 081952Z 26006KT 10SM SCT055 33/18 A3012 RMK AO2 SLP188 MDT CU ALQDS T03280183=
202008081852 METAR KATL 081852Z 29006KT 10SM SCT055 34/19 A3015 RMK AO2 SLP196 MDT CU ALQDS T03390194=
202008081752 METAR KATL 081752Z 21007KT 170V240 10SM SCT052 SCT065 33/19 A3016 RMK AO2 SLP203 MDT CU ALQDS T03280194 10333 20244 58006 $=
202008081652 METAR KATL 081652Z 10SM FEW043 33/21 A3018 RMK AO2 SLP207 T03330211 $=
202008081552 METAR KATL 081552Z 23004KT 10SM FEW040 SCT250 32/21 A3019 RMK AO2 SLP210 T03170211=
202008081452 METAR KATL 081452Z VRB03KT 10SM FEW150 SCT250 29/21 A3018 RMK AO2 SLP209 T02940206 51007=
202008081352 METAR KATL 081352Z 00000KT 10SM FEW150 SCT250 28/20 A3018 RMK AO2 SLP208 T02780200=
202008081252 METAR KATL 081252Z 07005KT 10SM FEW150 26/20 A3018 RMK AO2 SLP207 T02610200=
202008081152 METAR KATL 081152Z 07003KT 10SM CLR 24/20 A3016 RMK AO2 SLP202 T02440200 10244 20228 53014=
202008081052 METAR KATL 081052Z 00000KT 10SM FEW050 FEW150 23/20 A3015 RMK AO2 SLP198 T02330200 $=
202008080952 METAR KATL 080952Z 00000KT 10SM FEW045 FEW150 23/20 A3013 RMK AO2 SLP192 T02330200=
202008080852 METAR KATL 080852Z 00000KT 10SM FEW045 FEW150 FEW200 23/21 A3012 RMK AO2 SLP188 T02330206 53002=
202008080752 METAR KATL 080752Z 00000KT 10SM FEW045 FEW150 FEW200 23/21 A3012 RMK AO2 SLP187 T02330206=
202008080652 METAR KATL 080652Z 00000KT 10SM FEW045 FEW150 FEW200 23/20 A3012 RMK AO2 SLP186 T02330200=
202008080552 METAR KATL 080552Z 00000KT 10SM FEW045 SCT150 SCT200 24/20 A3012 RMK AO2 SLP186 60000 T02390200 10306 20233 58005=
202008080452 METAR KATL 080452Z 00000KT 10SM FEW045 SCT150 BKN200 24/19 A3012 RMK AO2 LTG DSNT SE TSE12 SLP188 CB DSNT SE T02390194 403280233=
202008080412 SPECI KATL 080412Z 22005KT 10SM FEW045 SCT080 BKN200 23/19 A3012 RMK AO2 TSE12 TS DSIPTD CB DSNT SE T02330189=
202008080352 METAR KATL 080352Z 18007G17KT 10SM TS SCT045CB SCT070 BKN200 24/19 A3014 RMK AO2 SLP194 OCNL LTGICCG SE-S TS SE-S MOV E T02390189=
202008080252 METAR KATL 080252Z 04008KT 10SM TS FEW045CB SCT080 BKN200 26/19 A3013 RMK AO2 RAE11 TSB0158 SLP192 OCNL LTGICCG NE-E TS NE-E MOV E CB NE-E SW MOV E P0000 60000 T02560194 53019=
202008080158 SPECI KATL 080158Z 34008KT 10SM -TSRA FEW025 SCT050CB BKN080 BKN200 27/21 A3011 RMK AO2 TSB58 OCNL LTGICCG NW-NE DSNT NE TS NW-NE DSNT NE MOV E P0000 T02720211=
202008080152 METAR KATL 080152Z 22005KT 10SM -RA FEW025 BKN050CB BKN090 BKN200 28/20 A3011 RMK AO2 RAB46 TSB16E52 SLP185 TS DSIPTD FRQ LTG DSNT NE CB N-OHD-E SW DSNT NE MOV E P0000 T02780200=
202008080116 SPECI KATL 080116Z 20004KT 10SM TS SCT055CB BKN090 BKN200 29/21 A3008 RMK AO2 TSB16 OCNL LTGIC SW-W FRQ LTGICCG DSNT N-NE TS SW-W DSNT N-NE MOV E T02890211=
202008080052 METAR KATL 080052Z 22003KT 10SM SCT055TCU BKN200 29/20 A3008 RMK AO2 LTG DSNT NW-NE SLP176 CB DSNT NE SW-W NW-N TCU OHD-W T02940200=
202008072352 METAR KATL 072352Z 24003KT 10SM FEW050 SCT200 31/19 A3007 RMK AO2 LTG DSNT NW SLP172 CB DSNT NE E-SE NW TCU DSNT SW-W T03060189 10328 20294 53004=
202008072252 METAR KATL 072252Z 28005KT 10SM FEW050 FEW200 32/18 A3006 RMK AO2 SLP166 LTG DSNT NE SE CB DSNT NE SE TCU DSNT N-NE T03220178=
202008072152 METAR KATL 072152Z 21005KT 10SM FEW050 FEW200 32/18 A3006 RMK AO2 TSE17 SLP168 CB DSNT NE TCU DSNT N SE-S T03220183=
202008072117 SPECI KATL 072117Z 00000KT 10SM FEW050CB SCT110 SCT200 32/19 A3006 RMK AO2 TSE17 TS DSIPTD CB E-SE MOV E TCU N-NE DSNT SE-S T03170194=
202008072052 METAR KATL 072052Z 22006KT 10SM TS SCT050CB SCT080 BKN110 BKN200 32/19 A3006 RMK AO2 SLP167 OCNL LTGICCA E-SE TS E-SE MOV E TCU DSNT N-NE SE-SW SHRA E-SE T03170194 58015=
202008072028 SPECI KATL 072028Z 27010KT 10SM TS BKN050CB BKN080 BKN110 BKN200 29/20 A3007 RMK AO2 OCNL LTGICCGCA E-SE TS E-SE MOV E TCU NW-NE SHRA E-SE SW-W T02940200=
202008071952 METAR KATL 071952Z 27005KT 10SM TS SCT048CB BKN080 BKN110 BKN200 32/19 A3007 RMK AO2 LTG DSNT SE TSB51 SLP172 OCNL LTGICCA SW-W TS SW-W MOV E CB DSNT SE NW TCU NE-SE-OHD-W DSNT ALQDS SHRA SW-W T03170194=
202008071852 METAR KATL 071852Z 10008KT 10SM SCT044TCU BKN075 BKN200 BKN250 32/21 A3009 RMK AO2 SLP178 TCU NE SE-SW DSNT ALQDS T03170206=
202008071752 METAR KATL 071752Z 01009KT 10SM SCT042TCU BKN080 BKN200 BKN250 31/21 A3010 RMK AO2 SLP182 TCU ALQDS DSNT ALQDS T03110206 10317 20233 58002=
202008071652 METAR KATL 071652Z 12006KT 10SM FEW032TCU SCT080 SCT200 BKN250 30/21 A3011 RMK AO2 SLP183 TCU W DSNT N SW ACC DSNT SE-SW T03000211=
202008071552 METAR KATL 071552Z 07004KT 10SM FEW024 SCT080 SCT200 BKN250 30/22 A3011 RMK AO2 SLP184 ACC N SE-SW T03000217=
202008071452 METAR KATL 071452Z 06005KT 10SM FEW022 SCT080 SCT140 BKN250 27/21 A3011 RMK AO2 SLP185 ACC NE-OHD-SW-NW T02720211 51009=
202008071352 METAR KATL 071352Z 07006KT 9SM FEW016 SCT120 BKN250 26/21 A3011 RMK AO2 SLP184 T02610211=
202008071252 METAR KATL 071252Z 08008KT 10SM FEW010 SCT120 BKN250 24/21 A3010 RMK AO2 SLP180 T02440211=
202008071152 METAR KATL 071152Z 09006KT 10SM SCT095 SCT120 BKN250 23/21 A3008 RMK AO2 SLP175 T02330206 10256 20233 53012=
202008071052 METAR KATL 071052Z 09006KT 10SM BKN095 BKN120 BKN250 23/21 A3007 RMK AO2 SLP171 T02330206=
202008070952 METAR KATL 070952Z 00000KT 10SM SCT100 SCT120 24/21 A3005 RMK AO2 SLP164 T02390206=
202008070852 METAR KATL 070852Z 32005KT 10SM BKN110 24/21 A3005 RMK AO2 SLP162 T02440206 51002=
202008070752 METAR KATL 070752Z 29004KT 10SM FEW060 BKN100 25/20 A3004 RMK AO2 SLP161 T02500200=
202008070652 METAR KATL 070652Z 00000KT 10SM FEW060 SCT120 24/21 A3005 RMK AO2 SLP162 T02440206=
202008070552 METAR KATL 070552Z 17003KT 10SM SCT065 SCT100 25/20 A3004 RMK AO2 SLP160 T02500200 10306 20250 50004=
202008070452 METAR KATL 070452Z 10004KT 10SM SCT065 BKN100 27/21 A3004 RMK AO2 SLP162 T02670206 403280228=
202008070352 METAR KATL 070352Z 32005KT 10SM SCT065 BKN110 27/20 A3003 RMK AO2 SLP157 T02670200=
202008070252 METAR KATL 070252Z 28005KT 10SM FEW070 BKN120 27/19 A3003 RMK AO2 SLP157 T02670194 51010=
202008070152 METAR KATL 070152Z 28006KT 10SM FEW050 SCT070 BKN120 BKN250 28/19 A3002 RMK AO2 SLP156 CB DSNT NE NW T02780194=
202008070052 METAR KATL 070052Z 17004KT 10SM FEW055 SCT070 SCT250 30/20 A3000 RMK AO2 SLP147 CB DSNT NE TCU DSNT W NW T03000200=
202008062352 METAR KATL 062352Z 15004KT 10SM FEW050 FEW150 SCT200 BKN250 31/19 A3000 RMK AO2 SLP146 CB DSNT E TCU DSNT W-NW T03060189 10328 20306 53002=
202008062252 METAR KATL 062252Z 06005KT 10SM SCT050TCU SCT200 BKN250 31/20 A2999 RMK AO2 LTG DSNT SE SLP144 CB DSNT N E-SE TCU OHD-W T03110200=
202008062152 METAR KATL 062152Z 20006KT 10SM SCT050TCU SCT250 33/19 A2998 RMK AO2 LTG DSNT NE SLP141 CB DSNT N NE TCU E-S NW T03280189=
202008062102 SPECI KATL 062102Z 24006G15KT 10SM SCT046CB BKN100 BKN200 BKN250 32/19 A2999 RMK AO2 CB NE MOV NE CB DSNT NE TCU NW-NE DSNT ALQDS T03170194=
202008062052 METAR KATL 062052Z 22008KT 10SM VCTS SCT046TCU BKN100 BKN200 BKN250 32/20 A2999 RMK AO2 TSB16E40E52 SLP143 TS MOVD NE CB DSNT NE TCU NE-OHD-W DSNT ALQDS T03170200 56013=
202008062040 SPECI KATL 062040Z 21007G19KT 10SM SCT046TCU BKN100 BKN200 BKN250 31/20 A2999 RMK AO2 TSB16E40 TS MOVD NE CB DSNT NE NW TCU OHD-SW NE DSNT ALQDS SHRA DSNT NE T03110200=
202008062016 SPECI KATL 062016Z 19007KT 10SM TS SCT046CB BKN090 BKN200 BKN250 32/19 A2999 RMK AO2 TSB16 OCNL LTGICCG N TS N MOV NE CB DSNT NW TCU ALQDS SHRA N T03170189=
202008061952 METAR KATL 061952Z 14008KT 10SM SCT046TCU BKN080 BKN200 BKN250 31/20 A2999 RMK AO2 SLP145 CB DSNT NW TCU SW-NW-NE DSNT ALQDS T03110200=
202008061852 METAR KATL 061852Z 20007KT 10SM SCT043TCU BKN070 BKN200 BKN250 32/21 A3001 RMK AO2 SLP150 TCU SE-SW-NW DSNT ALQDS T03170206=
202008061752 METAR KATL 061752Z 16005KT 10SM SCT034TCU SCT055 BKN140 BKN250 31/21 A3003 RMK AO2 SLP156 TCU SW-NW MDT CU ALQDS T03110211 10317 20228 58013=
202008061652 METAR KATL 061652Z 16007KT 10SM SCT030TCU SCT050 BKN140 BKN250 30/22 A3005 RMK AO2 SLP162 TCU SW-NW T03000217=
202008061552 METAR KATL 061552Z 15008KT 10SM FEW022 SCT120 SCT250 29/22 A3006 RMK AO2 SLP168 T02890222=
202008061452 METAR KATL 061452Z 11006KT 10SM SCT018 SCT110 BKN180 BKN250 27/22 A3007 RMK AO2 SLP170 T02720217 51006=
202008061352 METAR KATL 061352Z 13005KT 10SM SCT012 SCT140 BKN180 BKN250 26/21 A3006 RMK AO2 SLP169 T02610211=
202008061252 METAR KATL 061252Z 09006KT 10SM SCT008 BKN075 BKN180 BKN250 24/21 A3006 RMK AO2 SLP167 T02390211 $=
202008061245 SPECI KATL 061245Z 09007KT 10SM SCT006 BKN075 BKN180 BKN250 24/21 A3006 RMK AO2 T02390206 $=
202008061234 SPECI KATL 061234Z 10006KT 10SM BKN006 BKN250 23/21 A3006 RMK AO2 BKN006 V SCT T02330206 $=
202008061152 METAR KATL 061152Z 10006KT 10SM SCT008 SCT100 BKN250 23/21 A3005 RMK AO2 SLP163 70009 T02280206 10250 20228 53010 $=
202008061052 METAR KATL 061052Z 08007KT 10SM FEW100 SCT180 SCT250 23/21 A3003 RMK AO2 SLP159 T02280206 $=
202008060952 METAR KATL 060952Z 08008KT 10SM BKN095 BKN110 23/21 A3002 RMK AO2 SLP155 T02280206 $=
202008060852 METAR KATL 060852Z 12004KT 10SM CLR 24/21 A3001 RMK AO2 SLP151 T02390206 55002 $=
202008060752 METAR KATL 060752Z 00000KT 10SM FEW085 SCT110 24/21 A3000 RMK AO2 SLP149 T02390206 $=
202008060652 METAR KATL 060652Z 12003KT 10SM FEW085 FEW110 24/21 A3001 RMK AO2 SLP151 T02390211 $=
202008060552 METAR KATL 060552Z 12006KT 10SM FEW110 25/21 A3002 RMK AO2 SLP153 T02500206 10300 20250 53001 $=
202008060452 METAR KATL 060452Z 11004KT 10SM FEW110 26/21 A3002 RMK AO2 SLP152 T02560206 403280233 $=
202008060352 METAR KATL 060352Z 13006KT 10SM SCT110 27/21 A3001 RMK AO2 SLP150 T02670206 $=
202008060252 METAR KATL 060252Z 10005KT 10SM SCT110 SCT250 27/21 A3002 RMK AO2 SLP152 T02670211 53014 $=
202008060152 METAR KATL 060152Z 14003KT 10SM FEW150 SCT250 28/21 A3000 RMK AO2 SLP147 T02780211 $=
202008060052 METAR KATL 060052Z 09004KT 10SM FEW150 SCT250 28/21 A2998 RMK AO2 SLP142 T02830211 $=
202008052352 METAR KATL 052352Z 17004KT 10SM FEW150 BKN250 30/19 A2998 RMK AO2 SLP139 60009 T03000189 10328 20239 56008 $=
202008052252 METAR KATL 052252Z 24004KT 10SM FEW050 SCT200 30/19 A2998 RMK AO2 SLP141 CB DSNT E-SE S-SW T03000194 $=
202008052152 METAR KATL 052152Z 21004KT 10SM FEW050 FEW120 FEW250 31/18 A2999 RMK AO2 SLP142 CB DSNT E W T03110183 $=
202008052052 METAR KATL 052052Z 07005KT 10SM FEW050 SCT120 SCT250 32/19 A3000 RMK AO2 TSE13 SLP146 CB DSNT NE SE W-NW TCU DSNT S 60009 T03170194 58011 $=
202008052013 SPECI KATL 052013Z 05010KT 10SM FEW050 FEW080 SCT120 BKN200 28/20 A3002 RMK AO2 TSE13 TS MOVD NE CB DSNT ALQDS T02830200 $=
202008051952 METAR KATL 051952Z 06016KT 10SM TS FEW050CB SCT070 BKN120 BKN200 28/19 A3002 RMK AO2 RAB09E42 SLP155 OCNL LTGICCGCA NE VC N TS NE VC N MOV NE CB DSNT NE SE SW P0009 T02830194 $=
202008051927 SPECI KATL 051927Z 20007KT 8SM -TSRA FEW048CB SCT075 BKN120 BKN200 24/19 A3002 RMK AO2 RAB09 VIS LWR N-E FRQ LTGICCGCA N-E TS N-E MOV NE CB DSNT N NE W P0007 T02440194 $=
202008051919 SPECI KATL 051919Z 22011G25KT 4SM +TSRA SCT050CB BKN075 BKN140 BKN200 25/18 A3003 RMK AO2 RAB09 VIS LWR NW-NE FRQ LTGICCGCA NE-OHD-SW TS NE-OHD-SW MOV NE CB DSNT N NE W P0004 T02500183 $=
202008051852 METAR KATL 051852Z 21008KT 10SM TS SCT050CB BKN075 BKN140 BKN200 31/18 A3002 RMK AO2 LTG DSNT S AND SW SLP153 TSB48 OCNL LTGICCA S-SW TS S-SW MOV NE CB DSNT S SW NW TCU NE-OHD-SW T03110183 $=
202008051848 SPECI KATL 051848Z 19007KT 10SM TS SCT050CB BKN075 BKN140 BKN200 31/18 A3002 RMK AO2 LTG DSNT S AND SW TSE47B48 CB NE SW MOV NE SHRA NE SW CB DSNT SW NW $=
202008051752 METAR KATL 051752Z 17008KT 10SM SCT048TCU BKN070 BKN120 32/18 A3003 RMK AO2 SLP158 TCU ALQDS DSNT ALQDS T03220183 10328 20244 58003=
202008051652 METAR KATL 051652Z 20008KT 10SM SCT046TCU SCT080 BKN110 32/20 A3004 RMK AO2 SLP159 TCU ALQDS T03220200=
202008051552 METAR KATL 051552Z 13008KT 10SM FEW036 FEW075 31/21 A3005 RMK AO2 SLP163 T03110206=
202008051452 METAR KATL 051452Z 13005KT 10SM FEW070 29/21 A3004 RMK AO2 SLP161 T02940206 53005=
202008051352 METAR KATL 051352Z 08005KT 10SM FEW065 27/20 A3004 RMK AO2 SLP159 T02720200=
202008051252 METAR KATL 051252Z 06004KT 10SM FEW060 26/19 A3003 RMK AO2 SLP158 T02560194=
202008051152 METAR KATL 051152Z 05004KT 10SM FEW055 FEW120 24/19 A3002 RMK AO2 SLP156 T02440194 10256 20233 53006=
202008051052 METAR KATL 051052Z 05003KT 10SM CLR 23/19 A3002 RMK AO2 SLP154 T02330189=
202008050952 METAR KATL 050952Z 03005KT 10SM FEW055 SCT120 24/19 A3001 RMK AO2 SLP150 T02390194=
202008050852 METAR KATL 050852Z 06004KT 10SM FEW055 SCT120 24/19 A3001 RMK AO2 SLP149 T02390194 55006=
202008050752 METAR KATL 050752Z 02005KT 10SM FEW060 SCT120 25/19 A3000 RMK AO2 SLP146 T02500189=
202008050652 METAR KATL 050652Z 06006KT 10SM FEW065 SCT120 25/19 A3000 RMK AO2 SLP148 T02500189=
202008050552 METAR KATL 050552Z 00000KT 10SM BKN065 BKN120 24/19 A3002 RMK AO2 SLP155 OCNL LTG DSNT SE CB DSNT SE T02440194 10300 20244 53005=
202008050452 METAR KATL 050452Z 10004KT 10SM FEW050 FEW120 26/19 A3002 RMK AO2 SLP153 CB DSNT SE-S T02610189 403280200=
202008050352 METAR KATL 050352Z 12004KT 10SM SCT120 26/19 A3001 RMK AO2 SLP151 T02610194=
202008050252 METAR KATL 050252Z 10004KT 10SM FEW080 SCT110 27/20 A3001 RMK AO2 SLP151 T02720200 51016=
202008050152 METAR KATL 050152Z 36004KT 10SM FEW055TCU SCT080 BKN110 28/20 A3000 RMK AO2 SLP148 TCU N-NE VCSH N-NE T02780200=
202008050052 METAR KATL 050052Z 21004KT 10SM FEW055 SCT110 28/19 A2998 RMK AO2 SLP140 T02830194=
202008042352 METAR KATL 042352Z 31004KT 10SM FEW055 FEW110 30/18 A2996 RMK AO2 SLP136 TCU DSNT SW NW T03000183 10328 20300 53003=
202008042252 METAR KATL 042252Z 28007KT 10SM FEW055 BKN110 31/18 A2995 RMK AO2 SLP131 TCU DSNT NW-NE T03060183=
202008042152 METAR KATL 042152Z 28007KT 10SM FEW055TCU BKN100 BKN200 30/18 A2995 RMK AO2 SLP131 CB DSNT N TCU NE DSNT NW-N T03000178=
202008042052 METAR KATL 042052Z 28007G15KT 10SM FEW060 SCT090 SCT200 32/18 A2995 RMK AO2 SLP132 CB DSNT N-NE TCU DSNT NE E T03220178 58016=
202008041952 METAR KATL 041952Z 28008KT 10SM FEW060 SCT090 SCT200 32/18 A2997 RMK AO2 SLP138 CB DSNT NW-NE TCU DSNT N-E T03220178=
202008041852 METAR KATL 041852Z 24008KT 10SM SCT055 SCT090 SCT200 32/17 A2998 RMK AO2 SLP142 CB DSNT NW-NE TCU DSNT ALQDS T03170172=
202008041752 METAR KATL 041752Z 24007G15KT 10SM FEW050 SCT085 SCT200 31/17 A3000 RMK AO2 SLP148 TCU DSNT W-N-NE T03110172 10311 20211 58006=
202008041652 METAR KATL 041652Z 28005KT 10SM SCT042 SCT200 31/18 A3001 RMK AO2 SLP150 CB DSNT NE NW TCU DSNT ALQDS MDT CU ALQDS T03060178=
202008041552 METAR KATL 041552Z 33007KT 10SM FEW034 29/19 A3002 RMK AO2 SLP153 TCU DSNT S-SW NW T02940189=
202008041452 METAR KATL 041452Z 30005KT 10SM FEW026 27/21 A3002 RMK AO2 SLP155 T02720206 51008=
202008041352 METAR KATL 041352Z 22004KT 10SM FEW016 25/20 A3001 RMK AO2 SLP153 T02500200=
202008041252 METAR KATL 041252Z 20005KT 10SM FEW005 23/19 A3000 RMK AO2 SLP151 T02280194=
202008041152 METAR KATL 041152Z 28003KT 10SM FEW005 FEW250 21/19 A2999 RMK AO2 SLP147 70013 T02110189 10217 20200 53014=
202008041052 METAR KATL 041052Z 31003KT 10SM FEW003 FEW250 20/18 A2998 RMK AO2 SLP142 T02000183=
202008040952 METAR KATL 040952Z 29005KT 10SM FEW003 FEW250 21/19 A2996 RMK AO2 SLP137 T02060189=
202008040852 METAR KATL 040852Z 00000KT 10SM FEW003 FEW250 21/19 A2995 RMK AO2 SLP133 T02060189 56007=
202008040752 METAR KATL 040752Z 00000KT 10SM SCT003 21/19 A2995 RMK AO2 SLP132 T02060194=
202008040659 SPECI KATL 040659Z 19003KT 10SM FEW008 SCT020 21/19 A2995 RMK AO2 T02110189=
202008040652 METAR KATL 040652Z 00000KT 10SM FEW008 BKN020 21/19 A2995 RMK AO2 SLP134 T02110189=
202008040552 METAR KATL 040552Z 15003KT 10SM FEW008 BKN020 22/19 A2997 RMK AO2 SLP139 BKN020 V SCT T02170194 10272 20217 58000=
202008040542 SPECI KATL 040542Z 09003KT 10SM FEW008 BKN020 22/19 A2997 RMK AO2 T02170194=
202008040452 METAR KATL 040452Z 00000KT 10SM FEW007 FEW025 22/19 A2997 RMK AO2 SLP139 T02170194 403170217=
202008040352 METAR KATL 040352Z 09005KT 10SM SCT009 SCT250 22/19 A2997 RMK AO2 SLP139 T02220194=
202008040252 METAR KATL 040252Z 10007KT 10SM FEW010 FEW200 23/19 A2997 RMK AO2 SLP138 T02280189 51013=
202008040152 METAR KATL 040152Z 09009KT 10SM SCT010 SCT025 BKN200 24/21 A2996 RMK AO2 SLP135 T02390206=
202008040131 SPECI KATL 040131Z 12008KT 10SM SCT012 BKN025 BKN200 24/21 A2996 RMK AO2 T02390206=
202008040052 METAR KATL 040052Z 10007KT 10SM FEW022 SCT150 SCT200 26/20 A2995 RMK AO2 SLP132 T02560200=
202008032352 METAR KATL 032352Z 06006KT 10SM FEW025 SCT250 27/21 A2993 RMK AO2 SLP125 CB DSNT SW 60008 T02720211 10283 20222 55006=
202008032252 METAR KATL 032252Z VRB05KT 10SM FEW025 FEW120 FEW250 28/21 A2992 RMK AO2 SLP120 CB DSNT SW T02830206=
202008032152 METAR KATL 032152Z 07005KT 10SM FEW024 FEW120 SCT200 SCT250 27/21 A2995 RMK AO2 SLP131 CB DSNT S T02720211=
202008032052 METAR KATL 032052Z 07004KT 10SM FEW022 SCT120 BKN200 BKN250 27/21 A2995 RMK AO2 SLP132 60008 T02670206 50002 $=
202008031952 METAR KATL 031952Z 04005KT 10SM FEW014 FEW060 SCT120 BKN200 26/21 A2997 RMK AO2 LTG DSNT NE-S RAE06 TSE29 SLP138 TS MOVD NE CB DSNT NE-SE-S CBMAM DSNT E-SE P0000 T02610206 $=
202008031930 SPECI KATL 031930Z 15005G16KT 10SM FEW012 FEW035 SCT080 SCT130 BKN200 23/20 A2998 RMK AO2 LTG DSNT ALQDS RAE06 TSE29 TS MOVD NE CB DSNT NE-SE-SW TCU DSNT NE-SE P0000 T02330200 $=
202008031852 METAR KATL 031852Z 31013G24KT 10SM -TSRA FEW012 SCT032CB SCT075 OVC140 23/20 A2996 RMK AO2 PK WND 29033/1822 WSHFT 1820 LTG DSNT ALQDS SLP136 FRQ LTGICCGCA E-SE VC NW-NE TS E-SE VC NW-NE MOV NE CB DSNT ALQDS P0008 T02280200=
202008031838 SPECI KATL 031838Z 30025G33KT 6SM -TSRA BR FEW010 BKN035CB BKN070 OVC140 22/20 A2995 RMK AO2 PK WND 29033/1822 WSHFT 1820 LTG DSNT ALQDS VIS LWR NW-NE CONS LTGICCGCA NW-NE TS NW-NE MOV NE CB DSNT ALQDS P0007 T02220200=
202008031824 SPECI KATL 031824Z 28024G33KT 8SM -TSRA BKN035CB BKN070 BKN140 OVC200 27/23 A2998 RMK AO2 PK WND 29033/1822 LTG DSNT ALQDS PRESRR FRQ LTGICCGCA SW-NW-NE TS SW-NW-NE MOV NE CB DSNT ALQDS SHELF CLOUD SW-NW MOV E P0001 T02670228=
202008031752 METAR KATL 031752Z 08005KT 6SM -TSRA SCT035CB BKN080 BKN140 OVC200 28/23 A2995 RMK AO2 LTG DSNT ALQDS RAB11 TSB02 SLP128 OCNL LTGIC NE-OHD-SW TS NE-OHD-SW MOV NE CB DSNT ALQDS TCU NE-SE-S P0005 60005 T02830228 10317 20244 58021=
202008031703 SPECI KATL 031703Z 00000KT 10SM TS SCT030CB BKN090 BKN140 BKN200 30/21 A2997 RMK AO2 LTG DSNT SW AND W TSB02 OCNL LTGICCA NE TS NE MOV NE CB DSNT ALQDS TCU NE-SE-SW SHRA NE T03000211=
202008031652 METAR KATL 031652Z 00000KT 10SM SCT030TCU BKN085 BKN140 BKN200 30/22 A2997 RMK AO2 LTG DSNT SW SLP138 CB DSNT ALQDS TCU NE-OHD-SW E-S SHRA NE T03000217=
202008031552 METAR KATL 031552Z 22005KT 10SM FEW024 SCT140 BKN200 BKN250 30/22 A3000 RMK AO2 SLP146 TCU DSNT NE-SE ACC NE MDT CU W NW T03000217=
202008031452 METAR KATL 031452Z 25005KT 9SM FEW024 FEW055 BKN140 BKN200 29/22 A3001 RMK AO2 SLP150 ACC N-NE W-NW T02890217 50003=
202008031352 METAR KATL 031352Z 00000KT 10SM FEW022 SCT050 BKN140 BKN200 28/22 A3002 RMK AO2 SLP153 CB DSNT N TCU DSNT NW-N T02780217=
202008031252 METAR KATL 031252Z 11004KT 10SM FEW050 SCT110 BKN150 BKN200 BKN250 26/21 A3001 RMK AO2 SLP150 ACC ALQDS T02560211=
202008031152 METAR KATL 031152Z 13003KT 10SM FEW025 FEW050 SCT110 BKN150 BKN200 BKN250 24/21 A3000 RMK AO2 SLP147 ACC ALQDS T02440206 10272 20244 53005=
202008031052 METAR KATL 031052Z 09003KT 10SM FEW050 BKN150 BKN200 24/20 A2999 RMK AO2 LTG DSNT W AND NW SLP143 CB DSNT W NW T02440200=
202008030952 METAR KATL 030952Z 09004KT 10SM FEW055 BKN150 BKN200 24/19 A2998 RMK AO2 SLP141 T02440194 $=
202008030852 METAR KATL 030852Z 09007KT 10SM FEW055 SCT070 BKN150 BKN200 24/19 A2998 RMK AO2 SLP141 T02440189 56002 $=
202008030752 METAR KATL 030752Z 08008KT 10SM SCT055 SCT070 SCT250 26/19 A2998 RMK AO2 SLP140 T02610189 $=
202008030652 METAR KATL 030652Z 02003KT 10SM CLR 27/19 A2998 RMK AO2 SLP140 T02670189=
202008030552 METAR KATL 030552Z 05003KT 10SM SCT055 SCT250 27/19 A2999 RMK AO2 SLP142 T02670194 10306 20256 58000=
202008030452 METAR KATL 030452Z 09006KT 10SM SCT060 SCT240 26/19 A2999 RMK AO2 SLP144 T02610194 403330233=
202008030352 METAR KATL 030352Z 03006KT 10SM FEW110 SCT180 SCT250 28/20 A2999 RMK AO2 SLP144 T02830200=
202008030252 METAR KATL 030252Z 33004KT 10SM FEW110 FEW180 SCT250 28/21 A2999 RMK AO2 SLP143 T02830206 53008=
202008030152 METAR KATL 030152Z 35004KT 10SM FEW050 FEW110 SCT250 29/20 A2998 RMK AO2 SLP139 CB DSNT E T02940200=
202008030052 METAR KATL 030052Z 29003KT 10SM FEW050 FEW110 FEW150 SCT250 29/20 A2997 RMK AO2 SLP137 CB DSNT NE T02940200=
202008022352 METAR KATL 022352Z 28005KT 10SM FEW050 SCT110 SCT150 SCT250 31/19 A2996 RMK AO2 SLP134 TCU DSNT N & NE 60000 T03060189 10333 20300 55002=
202008022252 METAR KATL 022252Z 29004KT 10SM FEW050 SCT110 SCT150 SCT250 32/19 A2996 RMK AO2 SLP132 RAE20 TCU DSNT ALQDS P0000 T03220189=
202008022152 METAR KATL 022152Z 26005KT 10SM -RA SCT050TCU SCT110 BKN250 31/19 A2996 RMK AO2 LTG DSNT E SLP135 RAB47 TCU OHD-W & NW-N CB DSNT E P0000 T03110189=
202008022052 METAR KATL 022052Z 19005KT 10SM SCT050 SCT065 32/19 A2997 RMK AO2 SLP136 MDT CU N-S AND DSNT NW T03220194 56016=
202008021952 METAR KATL 021952Z VRB03KT 10SM SCT050 SCT065 32/19 A2998 RMK AO2 SLP140 MDT CU ALQDS T03220189=
202008021852 METAR KATL 021852Z VRB04KT 10SM SCT048TCU SCT065 32/21 A3000 RMK AO2 SLP148 TCU OHD MDT CU ALQDS T03220206=
202008021752 METAR KATL 021752Z VRB05KT 10SM SCT039 SCT050TCU 32/21 A3002 RMK AO2 SLP153 TCU N MDT CU ALQDS T03170206 10322 20244 58005=
202008021652 METAR KATL 021652Z 28007KT 10SM SCT034 SCT046 31/22 A3002 RMK AO2 SLP154 MDT CU DSNT NE-SE T03060217=
202008021552 METAR KATL 021552Z 20004KT 10SM SCT028 BKN040 BKN150 29/21 A3003 RMK AO2 SLP158 T02940211=
202008021452 METAR KATL 021452Z 06004KT 10SM SCT038 SCT150 SCT250 29/21 A3003 RMK AO2 SLP158 T02890211 53007=
202008021352 METAR KATL 021352Z 35004KT 10SM FEW035 FEW150 SCT250 28/21 A3002 RMK AO2 SLP155 T02780211=
202008021252 METAR KATL 021252Z 32004KT 10SM FEW035 SCT250 27/21 A3002 RMK AO2 SLP152 T02670206=
202008021152 METAR KATL 021152Z 00000KT 10SM SCT035 SCT250 25/22 A3001 RMK AO2 SLP150 T02500217 10250 20233 53010=
202008021052 METAR KATL 021052Z 29005KT 10SM SCT035 SCT250 23/21 A2999 RMK AO2 SLP144 T02330206=
202008020952 METAR KATL 020952Z 00000KT 10SM FEW050 23/21 A2998 RMK AO2 SLP142 T02330206=
202008020852 METAR KATL 020852Z 21003KT 10SM FEW065 23/21 A2998 RMK AO2 SLP139 T02330206 56007=
202008020752 METAR KATL 020752Z 00000KT 10SM FEW065 24/21 A2998 RMK AO2 SLP139 T02440206=
202008020652 METAR KATL 020652Z 21003KT 10SM FEW065 FEW250 24/21 A2999 RMK AO2 SLP143 T02440206=
202008020552 METAR KATL 020552Z 20003KT 10SM FEW065 FEW250 24/21 A3000 RMK AO2 SLP146 T02440206 10300 20244 55001=
202008020452 METAR KATL 020452Z 22004KT 10SM FEW065 FEW250 26/21 A3000 RMK AO2 SLP146 T02560206 403220228=
202008020352 METAR KATL 020352Z 25005KT 10SM FEW055 FEW250 27/21 A3000 RMK AO2 SLP145 T02670206=
202008020252 METAR KATL 020252Z 23006KT 10SM FEW045 FEW055 SCT250 28/21 A3000 RMK AO2 SLP148 T02780206 53012=
202008020152 METAR KATL 020152Z 26005KT 10SM SCT045 SCT055 SCT250 28/21 A2999 RMK AO2 SLP145 CB DSNT S T02780206=
202008020052 METAR KATL 020052Z 25004KT 10SM FEW045 SCT055 SCT250 29/20 A2997 RMK AO2 SLP138 CB DSNT S TCU DSNT NW T02890200=
202008012352 METAR KATL 012352Z 25009KT 10SM FEW044 SCT055 SCT150 SCT250 30/20 A2997 RMK AO2 SLP137 TCU DSNT NE-SE CB DSNT S T03000200 10322 20300 53007=
202008012252 METAR KATL 012252Z 22007G18KT 10SM SCT047 SCT055 BKN250 32/20 A2995 RMK AO2 SLP132 MDT CU OHD & NW-E-S T03170200=
202008012152 METAR KATL 012152Z 21008KT 10SM SCT045 BKN065 BKN250 31/20 A2994 RMK AO2 SLP129 MDT CU DSNT SE-S T03110200=
202008012052 METAR KATL 012052Z 23008G21KT 10SM SCT045 SCT060 BKN150 32/19 A2995 RMK AO2 PK WND 21026/1953 SLP129 MDT CU DSNT SE-S T03170194 56016=
202008011952 METAR KATL 011952Z 21014G21KT 10SM SCT045 SCT060 BKN150 BKN250 32/19 A2996 RMK AO2 SLP134 MDT CU DSNT SE T03170194=
202008011852 METAR KATL 011852Z 23009G18KT 10SM SCT045 SCT060 BKN150 BKN250 31/20 A2998 RMK AO2 SLP139 MDT CU DSNT E-SE AND NW T03110200=
202008011752 METAR KATL 011752Z 22010G19KT 10SM SCT041 SCT060 BKN150 BKN250 31/20 A3000 RMK AO2 SLP145 MDT CU DSNT SE T03110200 10317 20233 50000=
202008011652 METAR KATL 011652Z 22007KT 10SM SCT034 SCT048 BKN150 BKN250 30/21 A3000 RMK AO2 SLP146 MDT CU DSNT E T03000211=
202008011552 METAR KATL 011552Z 25011KT 10SM SCT029 SCT047 BKN150 BKN250 29/22 A3000 RMK AO2 SLP146 T02890217=
202008011452 METAR KATL 011452Z 22010G16KT 10SM SCT031 SCT150 SCT250 29/22 A3000 RMK AO2 SLP145 T02890217 50003=
202008011352 METAR KATL 011352Z 23008KT 10SM FEW026 SCT200 SCT250 27/22 A3000 RMK AO2 SLP145 T02720217=
202008011252 METAR KATL 011252Z 24006KT 10SM FEW200 FEW250 26/22 A2999 RMK AO2 SLP143 T02560217=
