##########################################################
# Query made at 04/20/2024 00:14:02 UTC
# Time interval: from 12/01/2020 12:00  to 12/31/2020 12:59  UTC
##########################################################

##########################################################
# KATL, Atlanta, Hartsfield - Jackson Atlanta International Airport (United States)
# WMO index: 72219. WIGOS ID: 0-20000-0-72219
# Latitude 33-38-59N. Longitude 084-25-00W. Altitude 312 m.
##########################################################

202012311252 METAR KATL 311252Z 05006KT 1/4SM R09R/1800V2600FT FG VV002 08/07 A3012 RMK AO2 SFC VIS 1/2 SLP203 T00780072=
202012311152 METAR KATL 311152Z 07005KT 1/4SM R09R/2400V2800FT FG VV002 08/07 A3011 RMK AO2 SFC VIS 1/2 SLP197 60000 T00780067 10078 20072 55003=
202012311052 METAR KATL 311052Z 11004KT 1/4SM R09R/3500FT BR VV002 07/07 A3010 RMK AO2 SFC VIS 3/4 SLP197 DZE28 P0000 T00720067=
202012311045 SPECI KATL 311045Z 09004KT 1/4SM R09R/3500V4000FT BR VV002 07/07 A3011 RMK AO2 SFC VIS 3/4 DZE28 P0000 T00720067=
202012310952 METAR KATL 310952Z 10005KT 1SM R09R/6000VP6000FT -DZ BR OVC003 07/06 A3011 RMK AO2 SFC VIS 1 1/2 DZB39 SLP198 P0000 T00720061=
202012310938 SPECI KATL 310938Z 10003KT 1SM R09R/P6000FT BR OVC004 07/06 A3011 RMK AO2 SFC VIS 2 1/2 T00720061=
202012310852 METAR KATL 310852Z 10004KT 8SM OVC006 08/06 A3011 RMK AO2 SLP200 T00780056 56011=
202012310752 METAR KATL 310752Z 09006KT 10SM OVC007 08/05 A3013 RMK AO2 SLP203 T00780050=
202012310652 METAR KATL 310652Z 09007KT 10SM OVC009 08/04 A3013 RMK AO2 SLP205 T00780044=
202012310552 METAR KATL 310552Z 10007KT 10SM OVC009 08/04 A3015 RMK AO2 SLP212 T00780044 10100 20067 58015=
202012310513 SPECI KATL 310513Z 09007KT 10SM BKN013 BKN060 07/04 A3017 RMK AO2 T00720039=
202012310452 METAR KATL 310452Z 10007KT 10SM SCT015 BKN060 07/04 A3017 RMK AO2 SLP219 SCT015 V BKN T00670039 401220067=
202012310352 METAR KATL 310352Z 09008KT 10SM FEW014 SCT020 BKN055 07/04 A3019 RMK AO2 SLP225 T00720044=
202012310252 METAR KATL 310252Z 09009KT 10SM FEW015 SCT027 BKN055 08/05 A3020 RMK AO2 SLP228 T00830050 58000=
202012310152 METAR KATL 310152Z 08008KT 10SM BKN015 BKN027 BKN055 08/06 A3021 RMK AO2 SLP233 T00830056=
202012310145 SPECI KATL 310145Z 08008KT 10SM SCT013 BKN026 BKN055 08/06 A3021 RMK AO2 T00830056=
202012310057 SPECI KATL 310057Z 10008KT 10SM SCT012 BKN055 09/06 A3020 RMK AO2 T00890056=
202012310052 METAR KATL 310052Z 08011KT 10SM BKN012 BKN055 09/06 A3020 RMK AO2 SLP228 T00890061=
202012302352 METAR KATL 302352Z 11008KT 10SM BKN011 OVC055 10/06 A3020 RMK AO2 SLP227 T01000061 10122 20100 55002=
202012302252 METAR KATL 302252Z 11008KT 9SM BKN013 BKN055 11/07 A3019 RMK AO2 SLP224 T01060072=
202012302152 METAR KATL 302152Z 11008KT 10SM SCT015 BKN060 11/07 A3020 RMK AO2 SLP226 T01110072=
202012302123 SPECI KATL 302123Z 10009KT 10SM SCT015 BKN060 12/07 A3020 RMK AO2 T01170072=
202012302052 METAR KATL 302052Z 09008KT 10SM BKN014 OVC060 12/08 A3020 RMK AO2 SLP229 BINOVC T01170078 56024=
202012301952 METAR KATL 301952Z 11008KT 9SM OVC012 11/07 A3022 RMK AO2 SLP235 T01110072=
202012301852 METAR KATL 301852Z 11009KT 9SM OVC011 11/07 A3023 RMK AO2 SLP240 T01060072=
202012301752 METAR KATL 301752Z 11007KT 8SM OVC010 10/07 A3028 RMK AO2 SLP255 T01000067 10106 20094 58024=
202012301652 METAR KATL 301652Z 10008KT 9SM OVC011 10/07 A3032 RMK AO2 SLP269 T01000067=
202012301552 METAR KATL 301552Z 11010KT 10SM OVC011 10/07 A3035 RMK AO2 SLP279 T01000067=
202012301452 METAR KATL 301452Z 11011KT 9SM OVC012 09/06 A3035 RMK AO2 SLP279 T00940061 53008=
202012301352 METAR KATL 301352Z 12009KT 8SM OVC012 09/06 A3034 RMK AO2 SLP276 BINOVC T00940056=
202012301252 METAR KATL 301252Z 12013KT 9SM OVC012 09/06 A3033 RMK AO2 SLP271 T00940056=
202012301152 METAR KATL 301152Z 11010G19KT 10SM BKN012 OVC030 09/06 A3033 RMK AO2 SLP270 T00940061 10106 20094 57005=
202012301052 METAR KATL 301052Z 10011KT 10SM BKN011 BKN030 OVC055 10/07 A3033 RMK AO2 SLP271 CIG 009V013 T01000067=
202012301034 SPECI KATL 301034Z 09009KT 10SM BKN010 OVC030 10/07 A3033 RMK AO2 CIG 009V013 T01000072=
202012300952 METAR KATL 300952Z 11006KT 10SM BKN009 OVC030 10/08 A3034 RMK AO2 SLP272 T01000078=
202012300852 METAR KATL 300852Z 12007KT 8SM BKN005 OVC030 09/08 A3034 RMK AO2 SLP273 T00940078 50002 $=
202012300826 SPECI KATL 300826Z 13009KT 10SM BKN009 BKN031 09/07 A3035 RMK AO2 T00940072 $=
202012300803 SPECI KATL 300803Z 13009G17KT 10SM FEW009 BKN032 10/06 A3035 RMK AO2 T01000061 $=
202012300752 METAR KATL 300752Z 13008KT 10SM BKN034 10/06 A3035 RMK AO2 SLP276 T01000061 $=
202012300652 METAR KATL 300652Z 12008KT 10SM BKN034 11/05 A3034 RMK AO2 SLP273 T01060050 $=
202012300552 METAR KATL 300552Z 11008KT 10SM BKN035 BKN250 10/04 A3033 RMK AO2 SLP271 T01000044 10133 20083 58002 $=
202012300452 METAR KATL 300452Z 10006KT 10SM SCT200 09/04 A3034 RMK AO2 SLP273 T00940039 401890039 $=
202012300352 METAR KATL 300352Z 10006KT 10SM FEW200 11/04 A3034 RMK AO2 SLP276 T01060039 $=
202012300252 METAR KATL 300252Z 11007KT 10SM FEW200 12/04 A3034 RMK AO2 SLP276 T01170039 53006 $=
202012300152 METAR KATL 300152Z 12005KT 10SM FEW200 12/03 A3033 RMK AO2 SLP274 T01170033 $=
202012300052 METAR KATL 300052Z 12005KT 10SM FEW200 12/03 A3032 RMK AO2 SLP272 T01220033 $=
202012292352 METAR KATL 292352Z 11006KT 10SM FEW180 FEW250 13/03 A3032 RMK AO2 SLP270 T01330028 10189 20133 53004 $=
202012292252 METAR KATL 292252Z 10006KT 10SM FEW180 SCT250 16/02 A3032 RMK AO2 SLP267 VIRGA DSNT NW-N T01560022 $=
202012292152 METAR KATL 292152Z 11007KT 10SM FEW180 SCT250 17/00 A3031 RMK AO2 SLP264 VIRGA DSNT NW-NE ACC DSNT NW T01720000 $=
202012292052 METAR KATL 292052Z 14007KT 10SM FEW180 SCT250 18/00 A3031 RMK AO2 SLP265 VIRGA DSNT NW-NE ACC DSNT NW T01780000 55017 $=
202012291952 METAR KATL 291952Z 15005KT 10SM FEW180 SCT250 18/00 A3030 RMK AO2 SLP262 VIRGA DSNT NW-NE ACC DSNT NW T01830000 $=
202012291852 METAR KATL 291852Z 12005KT 10SM FEW180 FEW250 17/00 A3033 RMK AO2 SLP270 VIRGA DSNT NE NW ACC DSNT N W NW T01720000 $=
202012291752 METAR KATL 291752Z 04006KT 10SM FEW180 FEW250 17/01 A3036 RMK AO2 SLP282 ACC DSNT W NW T01670011 10167 20039 58017 $=
202012291652 METAR KATL 291652Z 00000KT 10SM FEW200 14/03 A3040 RMK AO2 SLP295 T01440033=
202012291552 METAR KATL 291552Z 35005KT 10SM FEW180 FEW250 12/04 A3042 RMK AO2 SLP302 T01170044=
202012291452 METAR KATL 291452Z 32006KT 10SM FEW180 FEW250 08/06 A3042 RMK AO2 SLP301 T00830056 53016=
202012291352 METAR KATL 291352Z 32004KT 10SM FEW150 SCT200 SCT250 07/06 A3040 RMK AO2 SLP296 VIRGA SE-SW T00670056=
202012291339 SPECI KATL 291339Z 31004KT 10SM FEW150 SCT200 SCT250 06/05 A3039 RMK AO2 T00560050=
202012291252 METAR KATL 291252Z 32004KT 6SM BR CLR 04/03 A3038 RMK AO2 SLP291 T00390033=
202012291152 METAR KATL 291152Z 32004KT 8SM FEW180 FEW250 05/04 A3037 RMK AO2 SLP285 VIS LWR NW T00500044 10094 20050 53006=
202012291052 METAR KATL 291052Z 34006KT 9SM FEW250 06/05 A3035 RMK AO2 SLP281 T00610050=
202012290952 METAR KATL 290952Z 33006KT 9SM FEW250 06/06 A3035 RMK AO2 SLP277 T00610056=
202012290852 METAR KATL 290852Z 32005KT 9SM FEW030 FEW250 07/06 A3035 RMK AO2 SLP278 T00670061 56004=
202012290752 METAR KATL 290752Z 29004KT 10SM FEW180 FEW250 07/06 A3035 RMK AO2 SLP278 T00720056=
202012290652 METAR KATL 290652Z 22003KT 10SM FEW030 FEW180 SCT250 08/06 A3035 RMK AO2 SLP277 T00780056=
202012290552 METAR KATL 290552Z 32004KT 10SM FEW030 BKN210 BKN250 09/07 A3036 RMK AO2 SLP283 T00890067 10133 20089 50002=
202012290452 METAR KATL 290452Z 32004KT 10SM FEW029 BKN220 BKN250 10/07 A3037 RMK AO2 SLP284 T01000072 401610006=
202012290352 METAR KATL 290352Z 32004KT 10SM SCT029 SCT180 BKN250 11/07 A3036 RMK AO2 SLP282 T01110072=
202012290342 SPECI KATL 290342Z 33004KT 10SM SCT029 SCT180 BKN250 11/07 A3036 RMK AO2 T01060072=
202012290252 METAR KATL 290252Z 35004KT 10SM FEW017 BKN029 BKN045 12/09 A3036 RMK AO2 SLP282 T01220089 51010=
202012290152 METAR KATL 290152Z 30005KT 10SM BKN019 OVC024 13/09 A3035 RMK AO2 SLP282 T01280089=
202012290052 METAR KATL 290052Z 32005KT 10SM OVC023 13/08 A3034 RMK AO2 SLP279 T01280083=
202012282352 METAR KATL 282352Z 29004KT 10SM BKN026 BKN045 BKN250 13/08 A3033 RMK AO2 SLP272 T01330078 10161 20133 51013=
202012282252 METAR KATL 282252Z 28003KT 10SM BKN028 BKN035 BKN250 14/08 A3031 RMK AO2 SLP268 T01390078=
202012282152 METAR KATL 282152Z 27004KT 10SM BKN028 BKN060 BKN250 14/08 A3030 RMK AO2 SLP264 T01440078=
202012282131 SPECI KATL 282131Z 28006KT 10SM BKN028 BKN060 BKN200 BKN250 14/08 A3030 RMK AO2 T01440078=
202012282052 METAR KATL 282052Z 23006KT 10SM FEW027 SCT055 BKN180 BKN250 15/07 A3029 RMK AO2 SLP259 T01500072 55004=
202012282020 SPECI KATL 282020Z 27006KT 10SM SCT026 BKN055 BKN180 BKN250 15/07 A3028 RMK AO2 T01500067=
202012281952 METAR KATL 281952Z 24005KT 10SM BKN024 BKN055 BKN180 BKN250 15/06 A3029 RMK AO2 SLP258 T01500061=
202012281852 METAR KATL 281852Z 25006KT 10SM BKN022 OVC042 14/06 A3029 RMK AO2 SLP260 BINOVC T01390061=
202012281752 METAR KATL 281752Z 27009KT 10SM BKN025 OVC040 13/06 A3030 RMK AO2 SLP264 BINOVC T01330061 10139 20011 58006=
202012281738 SPECI KATL 281738Z 28009KT 10SM BKN024 OVC038 13/06 A3030 RMK AO2 BINOVC T01330061=
202012281652 METAR KATL 281652Z 22008KT 10SM BKN036 BKN050 BKN250 13/03 A3031 RMK AO2 SLP267 MDT CU DSNT W-NW T01330033=
202012281552 METAR KATL 281552Z 22006KT 10SM FEW034 SCT050 SCT250 11/00 A3033 RMK AO2 SLP274 T01060000=
202012281452 METAR KATL 281452Z VRB03KT 10SM FEW032 FEW050 FEW250 07/M01 A3032 RMK AO2 SLP271 T00721006 53016=
202012281352 METAR KATL 281352Z 20003KT 10SM FEW045 FEW200 FEW250 05/M01 A3030 RMK AO2 SLP267 T00501011=
202012281252 METAR KATL 281252Z 17003KT 10SM FEW050 FEW200 FEW250 02/M02 A3028 RMK AO2 SLP258 T00171022=
202012281152 METAR KATL 281152Z 00000KT 10SM FEW250 03/M02 A3027 RMK AO2 SLP255 T00281022 10056 20006 53005=
202012281052 METAR KATL 281052Z 00000KT 10SM FEW250 01/M02 A3025 RMK AO2 SLP248 T00111022=
202012280952 METAR KATL 280952Z 20003KT 10SM FEW250 03/M02 A3025 RMK AO2 SLP246 T00281022=
202012280852 METAR KATL 280852Z 00000KT 10SM FEW250 03/M02 A3025 RMK AO2 SLP248 T00281022 51004=
202012280752 METAR KATL 280752Z 00000KT 10SM FEW250 04/M02 A3025 RMK AO2 SLP247 T00391022=
202012280652 METAR KATL 280652Z 00000KT 10SM FEW250 04/M03 A3025 RMK AO2 SLP246 T00441028=
202012280552 METAR KATL 280552Z 16003KT 10SM SCT250 04/M02 A3024 RMK AO2 SLP244 T00391022 10100 20039 50006=
202012280452 METAR KATL 280452Z 18004KT 10SM SCT250 05/M03 A3026 RMK AO2 SLP249 T00501028 401441017=
202012280352 METAR KATL 280352Z 28003KT 10SM FEW250 06/M03 A3026 RMK AO2 SLP251 T00561028=
202012280252 METAR KATL 280252Z 15005KT 10SM FEW250 07/M03 A3022 RMK AO2 SLP239 T00721028 51012=
202012280152 METAR KATL 280152Z 17006KT 10SM FEW250 08/M03 A3022 RMK AO2 SLP237 T00831033=
202012280052 METAR KATL 280052Z 16004KT 10SM FEW250 09/M03 A3020 RMK AO2 SLP232 T00891033=
202012272352 METAR KATL 272352Z 15003KT 10SM FEW200 FEW250 09/M03 A3019 RMK AO2 SLP228 T00941028 10144 20094 53005=
202012272252 METAR KATL 272252Z 16003KT 10SM FEW200 FEW250 11/M03 A3017 RMK AO2 SLP221 T01111033=
202012272152 METAR KATL 272152Z 17008KT 10SM SCT250 13/M04 A3016 RMK AO2 SLP220 T01331039=
202012272052 METAR KATL 272052Z 14006G16KT 10SM FEW200 SCT250 14/M04 A3017 RMK AO2 SLP222 T01391039 58015=
202012271952 METAR KATL 271952Z 19005KT 10SM FEW200 SCT250 14/M04 A3019 RMK AO2 SLP227 T01391039=
202012271852 METAR KATL 271852Z 21005KT 10SM SCT250 13/M04 A3020 RMK AO2 SLP232 T01331044=
202012271752 METAR KATL 271752Z 10SM FEW250 12/M05 A3022 RMK AO2 SLP237 T01221050 10122 21017 58012=
202012271652 METAR KATL 271652Z 25006KT 10SM FEW250 11/M05 A3025 RMK AO2 SLP248 T01111050=
202012271552 METAR KATL 271552Z 23006KT 10SM FEW250 09/M06 A3025 RMK AO2 SLP251 T00891061=
202012271452 METAR KATL 271452Z 25004KT 10SM FEW250 07/M06 A3025 RMK AO2 SLP250 T00671056 51016=
202012271352 METAR KATL 271352Z 00000KT 10SM FEW200 03/M04 A3024 RMK AO2 SLP247 T00281044=
202012271252 METAR KATL 271252Z 24004KT 10SM FEW200 M02/M06 A3022 RMK AO2 SLP242 T10171061=
202012271152 METAR KATL 271152Z 00000KT 10SM CLR M01/M07 A3020 RMK AO2 SLP236 T10061067 10006 21011 53014=
202012271052 METAR KATL 271052Z 31004KT 10SM CLR M01/M07 A3018 RMK AO2 SLP228 T10061067=
202012270952 METAR KATL 270952Z 31006KT 10SM CLR 00/M07 A3016 RMK AO2 SLP220 T00001067=
202012270852 METAR KATL 270852Z 28004KT 10SM CLR M01/M06 A3016 RMK AO2 SLP219 T10061061 53005=
202012270752 METAR KATL 270752Z 30003KT 10SM CLR 00/M06 A3015 RMK AO2 SLP216 T00001061=
202012270652 METAR KATL 270652Z 28004KT 10SM CLR 00/M06 A3014 RMK AO2 SLP213 T00001056=
202012270552 METAR KATL 270552Z 26003KT 10SM FEW015 00/M06 A3015 RMK AO2 SLP216 T00001056 10044 21006 58001=
202012270452 METAR KATL 270452Z 00000KT 10SM CLR 01/M07 A3015 RMK AO2 SLP220 T00061067 400891056=
202012270352 METAR KATL 270352Z 21003KT 10SM CLR 01/M07 A3016 RMK AO2 SLP221 T00111067=
202012270252 METAR KATL 270252Z 29004KT 10SM CLR 02/M07 A3015 RMK AO2 SLP220 T00221072 51005=
202012270152 METAR KATL 270152Z 27003KT 10SM CLR 03/M07 A3015 RMK AO2 SLP220 T00281072=
202012270052 METAR KATL 270052Z 00000KT 10SM CLR 04/M08 A3014 RMK AO2 SLP218 T00391083=
202012262352 METAR KATL 262352Z 21003KT 10SM FEW250 04/M09 A3013 RMK AO2 SLP215 T00441089 10089 20044 53001=
202012262252 METAR KATL 262252Z 00000KT 10SM FEW250 06/M09 A3012 RMK AO2 SLP210 T00611094=
202012262152 METAR KATL 262152Z 25004KT 10SM FEW250 08/M11 A3013 RMK AO2 SLP210 T00831111=
202012262052 METAR KATL 262052Z 30006KT 10SM FEW250 09/M12 A3013 RMK AO2 SLP211 T00891117 56023=
202012261952 METAR KATL 261952Z 27003KT 10SM FEW250 08/M13 A3014 RMK AO2 SLP215 T00831133=
202012261852 METAR KATL 261852Z 31009KT 10SM FEW250 07/M15 A3017 RMK AO2 SLP224 T00671150=
202012261752 METAR KATL 261752Z 30007KT 10SM CLR 04/M14 A3020 RMK AO2 SLP237 T00441144 10050 21056 58009=
202012261652 METAR KATL 261652Z 30009KT 10SM CLR 03/M12 A3023 RMK AO2 SLP247 T00281122=
202012261552 METAR KATL 261552Z 30007KT 10SM CLR 01/M12 A3024 RMK AO2 SLP252 T00111122=
202012261452 METAR KATL 261452Z 31009KT 10SM CLR M02/M13 A3023 RMK AO2 SLP248 T10171128 53018=
202012261352 METAR KATL 261352Z 30010KT 10SM CLR M04/M12 A3021 RMK AO2 SLP242 T10391122=
202012261252 METAR KATL 261252Z 30008KT 10SM CLR M06/M13 A3019 RMK AO2 SLP235 T10561128=
202012261152 METAR KATL 261152Z 29008KT 10SM CLR M06/M12 A3017 RMK AO2 SLP230 T10561122 11033 21056 53004=
202012261052 METAR KATL 261052Z 31008KT 10SM CLR M05/M13 A3017 RMK AO2 SLP228 T10501128=
202012260952 METAR KATL 260952Z 31006KT 10SM CLR M05/M13 A3014 RMK AO2 SLP218 T10501128=
202012260852 METAR KATL 260852Z 31007KT 10SM CLR M04/M12 A3016 RMK AO2 SLP224 T10441122 55002=
202012260752 METAR KATL 260752Z 31007KT 10SM CLR M04/M12 A3016 RMK AO2 SLP223 T10441122=
202012260652 METAR KATL 260652Z 31007KT 10SM CLR M04/M12 A3016 RMK AO2 SLP223 T10391122=
202012260552 METAR KATL 260552Z 30006KT 10SM CLR M04/M12 A3017 RMK AO2 SLP226 T10391122 11006 21039 50002=
202012260452 METAR KATL 260452Z 27006KT 10SM CLR M03/M13 A3018 RMK AO2 SLP231 T10331128 400171044=
202012260352 METAR KATL 260352Z 29007KT 10SM CLR M03/M13 A3017 RMK AO2 SLP230 T10281133=
202012260252 METAR KATL 260252Z 31008KT 10SM CLR M03/M13 A3016 RMK AO2 SLP224 T10281133 51017=
202012260152 METAR KATL 260152Z 31011KT 10SM CLR M02/M13 A3014 RMK AO2 SLP220 T10171133=
202012260052 METAR KATL 260052Z 33007KT 10SM CLR M01/M14 A3013 RMK AO2 SLP215 T10111139=
202012252352 METAR KATL 252352Z 31011G20KT 10SM CLR M01/M14 A3011 RMK AO2 SLP207 T10061139 10017 21006 51026=
202012252252 METAR KATL 252252Z 29012KT 10SM FEW070 M01/M14 A3009 RMK AO2 SLP200 T10061144=
202012252152 METAR KATL 252152Z 26011G19KT 10SM BKN075 01/M14 A3006 RMK AO2 PK WND 26027/2102 SLP190 T00111139=
202012252052 METAR KATL 252052Z 25016G27KT 10SM SCT085 02/M15 A3003 RMK AO2 PK WND 29027/1955 SLP178 T00171150 55001=
202012251952 METAR KATL 251952Z 28016G24KT 10SM FEW065 BKN085 BKN100 02/M15 A3002 RMK AO2 PK WND 28026/1909 SLP177 T00171150=
202012251852 METAR KATL 251852Z 28015G23KT 10SM FEW055 FEW070 FEW100 01/M14 A3002 RMK AO2 SLP176 T00111144=
202012251752 METAR KATL 251752Z 27012G22KT 10SM FEW055 FEW075 01/M14 A3003 RMK AO2 SLP178 T00061139 10006 21044 58002=
202012251652 METAR KATL 251652Z 28015G22KT 10SM FEW050 FEW075 00/M14 A3005 RMK AO2 PK WND 27026/1614 SLP186 T00001139=
202012251552 METAR KATL 251552Z 29018G25KT 10SM FEW048 M01/M14 A3005 RMK AO2 SLP187 T10111139=
202012251452 METAR KATL 251452Z 29017G26KT 10SM FEW040 M02/M12 A3003 RMK AO2 PK WND 29026/1452 SLP181 T10221122 53025=
202012251352 METAR KATL 251352Z 28011G20KT 10SM FEW030 M03/M11 A3000 RMK AO2 SLP172 T10331106=
202012251252 METAR KATL 251252Z 27010KT 10SM FEW025 M04/M11 A2998 RMK AO2 SLP164 T10391106=
202012251152 METAR KATL 251152Z 27010KT 10SM FEW025 M04/M11 A2996 RMK AO2 SLP155 70126 T10391106 11011 21039 53013=
202012251052 METAR KATL 251052Z 26010KT 10SM FEW035 M04/M10 A2993 RMK AO2 SLP146 T10391100=
202012250952 METAR KATL 250952Z 26009KT 10SM FEW035 M03/M10 A2992 RMK AO2 SLP142 T10331100=
202012250852 METAR KATL 250852Z 27008KT 10SM FEW035 M03/M11 A2992 RMK AO2 SLP141 T10331106 58002=
202012250752 METAR KATL 250752Z 27009KT 10SM FEW035 M03/M10 A2993 RMK AO2 SLP141 T10281100=
202012250652 METAR KATL 250652Z 29015G22KT 10SM FEW032 FEW045 M02/M10 A2993 RMK AO2 SLP139 T10221100=
202012250552 METAR KATL 250552Z 30012G20KT 10SM SCT038 BKN055 M01/M08 A2993 RMK AO2 PK WND 28028/0500 SLP138 60000 T10111083 10011 21011 51011=
202012250452 METAR KATL 250452Z 28022G32KT 10SM FEW035 SCT050 SCT065 M01/M10 A2992 RMK AO2 PK WND 28034/0402 SNB08E46 SLP136 P0000 T10061100 401331006=
202012250352 METAR KATL 250352Z 29012KT 10SM SCT038 BKN050 BKN065 00/M06 A2991 RMK AO2 SLP131 T00001061=
202012250252 METAR KATL 250252Z 28013G24KT 10SM BKN055 01/M06 A2989 RMK AO2 SLP127 T00061061 51034=
202012250152 METAR KATL 250152Z 29010G18KT 10SM FEW045 FEW200 00/M04 A2986 RMK AO2 SLP117 T00001044=
202012250052 METAR KATL 250052Z 28017G24KT 10SM SCT028 SCT200 01/M04 A2987 RMK AO2 PK WND 31030/2353 SLP118 T00061044=
202012242352 METAR KATL 242352Z 30018G27KT 10SM FEW015 BKN180 BKN250 01/M02 A2979 RMK AO2 PK WND 30031/2308 SLP092 60016 T00111022 10133 20011 50023=
202012242252 METAR KATL 242252Z 29011G24KT 10SM FEW014 SCT050 BKN150 BKN250 02/00 A2980 RMK AO2 PK WND 29028/2224 RAB11E21SNB11E37 SLP095 P0000 T00170000=
202012242237 SPECI KATL 242237Z 30016G24KT 10SM FEW014 SCT030 BKN050 BKN250 02/00 A2979 RMK AO2 PK WND 29028/2224 RAB11E21SNB11E37 P0000 T00220000=
202012242152 METAR KATL 242152Z 28014G22KT 9SM SCT012 BKN017 OVC040 02/01 A2979 RMK AO2 PK WND 29031/2132 RAE49SNB32E49PLB32E44 PRESRR SLP091 P0004 T00220006=
202012242144 SPECI KATL 242144Z 28017G25KT 5SM -SNRA BR SCT008 BKN015 OVC028 02/00 A2977 RMK AO2 PK WND 29031/2132 SNB32PLB32E44 PRESRR P0004 T00220000=
202012242132 SPECI KATL 242132Z 29023G31KT 5SM -RAPLSN BR SCT008 BKN015 OVC028 03/01 A2975 RMK AO2 PK WND 29031/2132 SNB32PLB32 P0004 T00280011=
202012242052 METAR KATL 242052Z 27016G24KT 6SM -RA BR SCT008 BKN018 OVC038 04/03 A2972 RMK AO2 PK WND 30031/2030 SLP067 P0007 60012 T00440033 53022=
202012242018 SPECI KATL 242018Z 29018G27KT 2SM -RA BR SCT008 BKN014 OVC033 07/05 A2968 RMK AO2 PK WND 29030/2001 SFC VIS 3 P0002 T00670050=
202012242009 SPECI KATL 242009Z 28018G30KT 2SM RA BR BKN008 OVC014 08/06 A2970 RMK AO2 PK WND 29030/2001 CIG 007V010 P0000 T00780061=
202012242008 SPECI KATL 242008Z 27019G30KT 3SM RA BR BKN008 OVC014 08/06 A2970 RMK AO2 PK WND 29030/2001 CIG 007V010 P0000 T00780061=
202012241952 METAR KATL 241952Z 31015G20KT 6SM -RA BR BKN006 BKN012 OVC028 09/07 A2965 RMK AO2 PK WND 31029/1933 WSHFT 1921 SLP040 CIG 005V008 P0005 T00890072=
202012241950 SPECI KATL 241950Z 31012G21KT 4SM -RA BR BKN006 BKN012 OVC028 09/07 A2965 RMK AO2 PK WND 31029/1933 WSHFT 1921 CIG 005V008 P0005=
202012241937 SPECI KATL 241937Z 32017G29KT 1SM R09R/P6000FT -RA BR OVC006 09/08 A2966 RMK AO2 PK WND 31029/1933 WSHFT 1921 SFC VIS 1 3/4 CIG 004V008 FROPA P0004 T00940078=
202012241925 SPECI KATL 241925Z 28017G27KT 1SM R09R/4500VP6000FT -RA BR BKN006 OVC010 12/11 A2966 RMK AO2 PK WND 30027/1923 SFC VIS 1 1/2 FROPA P0003 T01170106=
202012241920 SPECI KATL 241920Z 23008KT 1SM R09R/4500VP6000FT -RA BR BKN006 OVC010 13/12 A2965 RMK AO2 P0001 T01280117=
202012241852 METAR KATL 241852Z VRB06KT 8SM -RA BKN008 BKN012 OVC045 13/12 A2965 RMK AO2 RAB49 SLP040 CIG 007V010 P0000 T01330117=
202012241837 SPECI KATL 241837Z 25006KT 10SM BKN008 OVC045 13/12 A2966 RMK AO2 T01330117=
202012241752 METAR KATL 241752Z 23004KT 10SM SCT008 SCT014 BKN055 OVC140 13/12 A2966 RMK AO2 RAE1654 SLP043 VIRGA NE-SE-SW P0000 60110 T01330117 10133 20122 55054=
202012241737 SPECI KATL 241737Z VRB03KT 10SM FEW008 SCT012 BKN060 OVC130 13/12 A2967 RMK AO2 RAE1654 PRESRR VIRGA OHD-ALQDS P0000 T01330117=
202012241720 SPECI KATL 241720Z 14006G18KT 10SM FEW004 SCT032 BKN120 OVC180 13/12 A2963 RMK AO2 RAE1654 VIRGA OHD-ALQDS P0000 T01280117=
202012241652 METAR KATL 241652Z 13012G21KT 10SM -RA FEW003 SCT075 BKN110 OVC200 13/12 A2966 RMK AO2 SLP042 PCPN VRY LGT P0005 T01280117=
202012241647 SPECI KATL 241647Z 12011G22KT 8SM -RA SCT002 BKN065 BKN090 OVC200 13/12 A2966 RMK AO2 PRESFR P0005=
202012241612 SPECI KATL 241612Z 14007KT 1/4SM R09R/P6000FT -RA BR BKN002 BKN007 OVC050 13/12 A2976 RMK AO2 SFC VIS 4 CIG 001V003 TWRINC P0003 T01280117=
202012241605 SPECI KATL 241605Z 16006KT 1SM R09R/P6000FT -RA BR BKN004 BKN010 OVC055 13/12 A2976 RMK AO2 SFC VIS 5 PRESFR CIG 002V006 P0002 T01280117=
202012241552 METAR KATL 241552Z 12005KT 4SM -RA BR BKN006 BKN011 OVC060 13/12 A2979 RMK AO2 PRESFR SLP086 CIG 004V008 P0011 T01280117=
202012241535 SPECI KATL 241535Z 00000KT 3SM -RA BR BKN007 BKN012 OVC055 13/12 A2982 RMK AO2 CIG 005V009 P0007 T01280117 $=
202012241452 METAR KATL 241452Z 18003KT 5SM -RA BR SCT006 BKN050 OVC070 13/12 A2982 RMK AO2 SLP099 P0021 60094 T01280117 53010 $=
202012241352 METAR KATL 241352Z 00000KT 3SM -RA BR FEW006 BKN043 OVC070 13/12 A2981 RMK AO2 SLP094 P0054 T01280117 $=
202012241345 SPECI KATL 241345Z 24004KT 3SM RA BR SCT006 BKN030 OVC045 13/12 A2981 RMK AO2 P0050 T01280122=
202012241340 SPECI KATL 241340Z 24005KT 2SM R09R/5000VP6000FT RA BR SCT006 BKN030 OVC043 13/12 A2982 RMK AO2 P0049 T01280122=
202012241327 SPECI KATL 241327Z 28009G19KT 2SM R09R/5500VP6000FT +RA BR BKN006 BKN012 OVC028 13/12 A2982 RMK AO2 PRESRR CIG 005V008 P0018 T01280117=
202012241252 METAR KATL 241252Z 17013G22KT 5SM RA BR BKN008 OVC040 13/11 A2979 RMK AO2 SLP085 CIG 006V010 P0019 T01280111=
202012241225 SPECI KATL 241225Z 16011KT 5SM RA BR BKN009 BKN025 OVC042 12/11 A2977 RMK AO2 P0010 T01220111=
202012241152 METAR KATL 241152Z 15010G15KT 9SM -RA FEW007 BKN028 OVC034 12/11 A2979 RMK AO2 SLP088 P0001 60005 70005 T01220106 10122 20106 56035=
202012241132 SPECI KATL 241132Z 16008KT 10SM -RA FEW007 BKN028 OVC080 12/11 A2980 RMK AO2 P0000 T01220106=
202012241052 METAR KATL 241052Z 14013G20KT 10SM -RA FEW007 BKN032 OVC090 12/10 A2981 RMK AO2 RAB03 PRESFR SLP093 P0002 T01170100=
202012240952 METAR KATL 240952Z 15007G15KT 10SM SCT034 SCT045 BKN060 12/09 A2986 RMK AO2 RAE15 SLP111 P0001 T01220094=
202012240852 METAR KATL 240852Z 16009G23KT 10SM -RA FEW065 SCT080 OVC095 11/07 A2990 RMK AO2 DZE22RAB22 SLP123 P0000 60001 T01110067 57036=
202012240752 METAR KATL 240752Z 17007KT 10SM -DZ FEW075 BKN100 BKN110 12/06 A2994 RMK AO2 SLP138 RAE08 DZB45 P0000 T01220056=
202012240652 METAR KATL 240652Z 16009KT 10SM -RA FEW075 BKN090 OVC110 12/06 A2997 RMK AO2 RAB32 SLP146 P0001 T01170061=
202012240552 METAR KATL 240552Z 12006KT 10SM FEW070 BKN090 OVC150 12/07 A3001 RMK AO2 SLP161 VIRGA OHD-ALQDS T01220067 10139 20122 58020=
202012240452 METAR KATL 240452Z 12007KT 10SM SCT090 BKN110 OVC150 12/07 A3003 RMK AO2 PRESFR SLP167 VIRGA OHD-ALQDS T01220067 401560028=
202012240352 METAR KATL 240352Z 15008KT 10SM BKN085 BKN110 OVC150 13/06 A3006 RMK AO2 SLP179 T01280056=
202012240252 METAR KATL 240252Z 10010KT 10SM SCT110 BKN150 OVC200 12/06 A3007 RMK AO2 PRESFR SLP183 T01220056 58019=
202012240152 METAR KATL 240152Z 09007KT 10SM BKN110 BKN150 OVC200 12/06 A3014 RMK AO2 SLP208 VIRGA OHD-SW T01220061=
202012240052 METAR KATL 240052Z 08003KT 10SM SCT120 BKN150 BKN200 OVC250 13/06 A3015 RMK AO2 SLP212 T01330061=
202012232352 METAR KATL 232352Z 10005KT 10SM SCT110 BKN150 BKN200 OVC250 13/06 A3013 RMK AO2 SLP205 VIRGA NW-NE T01330061 10156 20133 55001=
202012232252 METAR KATL 232252Z 11007KT 10SM SCT120 BKN150 BKN200 BKN250 14/05 A3012 RMK AO2 SLP204 VIRGA OHD-ALQDS ACC S-OHD-NW T01390050=
202012232152 METAR KATL 232152Z 14007KT 10SM FEW070 SCT140 BKN180 BKN250 15/02 A3013 RMK AO2 SLP204 VIRGA OHD NE SW-NW ACC SE-SW W-NW T01500022=
202012232052 METAR KATL 232052Z 14011G17KT 10SM FEW045 FEW140 BKN180 BKN250 16/01 A3013 RMK AO2 SLP204 VIRGA DSNT W-NW T01560011 56033=
202012231952 METAR KATL 231952Z 13010KT 10SM FEW045 BKN200 BKN250 16/01 A3016 RMK AO2 SLP214 T01560011=
202012231852 METAR KATL 231852Z 14008KT 10SM FEW045 BKN200 BKN250 14/01 A3019 RMK AO2 SLP226 T01440011=
202012231752 METAR KATL 231752Z 12010KT 10SM FEW045 SCT200 BKN250 15/01 A3023 RMK AO2 SLP238 T01500011 10150 20028 58027=
202012231652 METAR KATL 231652Z 14011KT 10SM SCT200 BKN250 13/01 A3025 RMK AO2 SLP247 T01280006=
202012231552 METAR KATL 231552Z 13010KT 10SM SCT200 SCT250 11/00 A3030 RMK AO2 SLP263 T01110000=
202012231452 METAR KATL 231452Z 13007KT 10SM FEW150 FEW200 SCT250 09/M01 A3031 RMK AO2 SLP268 T00941011 53021=
202012231352 METAR KATL 231352Z 09010KT 10SM FEW150 FEW200 SCT250 06/M02 A3029 RMK AO2 SLP261 T00561017=
202012231252 METAR KATL 231252Z 09007KT 10SM SCT220 03/M03 A3027 RMK AO2 SLP256 T00331028=
202012231152 METAR KATL 231152Z 09006KT 10SM SCT220 03/M03 A3025 RMK AO2 SLP248 T00281028 10067 20028 58004=
202012231052 METAR KATL 231052Z 09006KT 10SM SCT220 03/M03 A3026 RMK AO2 SLP250 T00331033=
202012230952 METAR KATL 230952Z 09005KT 10SM SCT250 03/M03 A3026 RMK AO2 SLP248 T00331033=
202012230852 METAR KATL 230852Z 09003KT 10SM SCT250 06/M03 A3026 RMK AO2 SLP249 T00561033 53007=
202012230752 METAR KATL 230752Z 00000KT 10SM SCT250 06/M03 A3025 RMK AO2 SLP244 T00561033=
202012230652 METAR KATL 230652Z 00000KT 10SM SCT250 06/M03 A3024 RMK AO2 SLP241 T00561028=
202012230552 METAR KATL 230552Z 00000KT 10SM BKN250 06/M03 A3024 RMK AO2 SLP241 T00561028 10111 20056 58000=
202012230452 METAR KATL 230452Z 00000KT 10SM BKN250 06/M03 A3024 RMK AO2 SLP243 T00611033 401670050=
202012230352 METAR KATL 230352Z 00000KT 10SM SCT250 07/M03 A3024 RMK AO2 SLP244 T00671033=
202012230252 METAR KATL 230252Z 00000KT 10SM FEW250 08/M04 A3024 RMK AO2 SLP243 T00781044 53001=
202012230152 METAR KATL 230152Z 31004KT 10SM FEW250 08/M04 A3023 RMK AO2 SLP242 T00781044=
202012230052 METAR KATL 230052Z 34003KT 10SM FEW250 10/M06 A3024 RMK AO2 SLP245 T01001061=
202012222352 METAR KATL 222352Z 34005KT 10SM FEW250 11/M07 A3024 RMK AO2 SLP242 T01111067 10167 20106 53008=
202012222252 METAR KATL 222252Z 33006KT 10SM FEW250 12/M06 A3022 RMK AO2 SLP237 T01171061=
202012222152 METAR KATL 222152Z 34007KT 10SM FEW250 15/M08 A3022 RMK AO2 SLP235 T01501083=
202012222052 METAR KATL 222052Z 32011KT 10SM FEW250 16/M07 A3021 RMK AO2 SLP231 T01611072 55005=
202012221952 METAR KATL 221952Z 32010KT 10SM FEW250 16/M07 A3021 RMK AO2 SLP231 T01611067=
202012221852 METAR KATL 221852Z 32015G20KT 10SM CLR 16/M08 A3021 RMK AO2 SLP232 T01561078=
202012221752 METAR KATL 221752Z 33010G20KT 10SM CLR 16/M07 A3023 RMK AO2 SLP236 T01561072 10156 20050 58002=
202012221652 METAR KATL 221652Z 34018KT 10SM CLR 14/M07 A3024 RMK AO2 SLP243 T01391072=
202012221552 METAR KATL 221552Z 32009G18KT 10SM CLR 13/M03 A3025 RMK AO2 SLP244 T01281028=
202012221452 METAR KATL 221452Z 30010KT 10SM CLR 10/01 A3024 RMK AO2 SLP241 T01000011 53021=
202012221352 METAR KATL 221352Z 28008KT 10SM CLR 08/02 A3021 RMK AO2 SLP233 T00780022=
202012221252 METAR KATL 221252Z 27008KT 10SM CLR 06/02 A3019 RMK AO2 SLP225 T00560017=
202012221152 METAR KATL 221152Z 28006KT 10SM CLR 06/02 A3017 RMK AO2 SLP220 T00560017 10083 20056 53016=
202012221052 METAR KATL 221052Z 28007KT 10SM CLR 06/02 A3015 RMK AO2 SLP211 T00610022=
202012220952 METAR KATL 220952Z 28009KT 10SM CLR 07/02 A3013 RMK AO2 SLP204 T00720022=
202012220852 METAR KATL 220852Z 29010KT 10SM CLR 08/02 A3012 RMK AO2 SLP201 T00780022 53001=
202012220752 METAR KATL 220752Z 29009KT 10SM CLR 08/02 A3012 RMK AO2 SLP200 T00780022=
202012220652 METAR KATL 220652Z 27008KT 10SM CLR 08/03 A3011 RMK AO2 SLP198 T00780028=
202012220552 METAR KATL 220552Z 27009KT 10SM CLR 08/03 A3012 RMK AO2 SLP200 T00830028 10117 20083 50006=
202012220452 METAR KATL 220452Z 27009KT 10SM CLR 09/03 A3012 RMK AO2 SLP200 T00890033 401560050=
202012220352 METAR KATL 220352Z 28009KT 10SM CLR 09/03 A3012 RMK AO2 SLP200 T00890033=
202012220252 METAR KATL 220252Z 26013KT 10SM CLR 10/03 A3010 RMK AO2 SLP194 T01000033 51011=
202012220152 METAR KATL 220152Z 25009G16KT 10SM CLR 11/03 A3008 RMK AO2 SLP189 T01060028=
202012220052 METAR KATL 220052Z 25007KT 10SM CLR 11/02 A3008 RMK AO2 SLP189 T01110022=
202012212352 METAR KATL 212352Z 25006KT 10SM CLR 12/02 A3006 RMK AO2 SLP183 T01170017 10156 20111 51016=
202012212252 METAR KATL 212252Z 26008KT 10SM CLR 13/01 A3005 RMK AO2 SLP176 T01280006=
202012212152 METAR KATL 212152Z 26009G18KT 10SM CLR 14/01 A3004 RMK AO2 SLP173 T01440011=
202012212052 METAR KATL 212052Z 24007G16KT 10SM FEW250 15/02 A3002 RMK AO2 SLP165 T01500022 56014=
202012211952 METAR KATL 211952Z 27010KT 10SM CLR 16/03 A3003 RMK AO2 SLP169 T01560033=
202012211852 METAR KATL 211852Z 28008KT 10SM FEW036 14/04 A3004 RMK AO2 SLP173 T01440039=
202012211752 METAR KATL 211752Z 24010KT 10SM FEW028 13/04 A3006 RMK AO2 SLP180 T01280044 10128 20067 58010=
202012211652 METAR KATL 211652Z 27009KT 10SM SCT020 12/06 A3008 RMK AO2 SLP187 T01220056=
202012211552 METAR KATL 211552Z 29005KT 10SM OVC015 09/06 A3010 RMK AO2 SLP194 CIG 013V017 BINOVC T00940061=
202012211452 METAR KATL 211452Z 28008KT 10SM OVC015 09/06 A3009 RMK AO2 SLP190 T00890056 53021=
202012211352 METAR KATL 211352Z 29009KT 8SM BKN013 08/06 A3006 RMK AO2 SLP180 T00830056=
202012211331 SPECI KATL 211331Z 29012KT 9SM BKN014 08/06 A3005 RMK AO2 T00830056=
202012211302 SPECI KATL 211302Z 29006KT 9SM FEW012 BKN017 07/06 A3004 RMK AO2 BKN017 V SCT T00720056=
202012211252 METAR KATL 211252Z 27005KT 9SM FEW011 SCT021 07/05 A3003 RMK AO2 SLP173 SCT021 V BKN T00670050=
202012211246 SPECI KATL 211246Z 27005KT 9SM FEW011 SCT021 07/05 A3003 RMK AO2 SCT021 V BKN=
202012211218 SPECI KATL 211218Z 30006KT 10SM FEW007 SCT011 BKN021 07/06 A3003 RMK AO2 T00720056=
202012211152 METAR KATL 211152Z 30007KT 9SM FEW007 BKN011 08/06 A3002 RMK AO2 SLP168 T00780056 10078 20050 53009=
202012211052 METAR KATL 211052Z 31005KT 7SM FEW007 BKN013 07/06 A3000 RMK AO2 SLP159 T00720056=
202012210952 METAR KATL 210952Z 31008KT 7SM FEW005 BKN012 07/06 A2999 RMK AO2 SLP155 T00670056=
202012210852 METAR KATL 210852Z 31009KT 9SM FEW012 06/05 A3000 RMK AO2 SLP159 T00610050 51008=
202012210752 METAR KATL 210752Z 30005KT 10SM CLR 06/04 A3000 RMK AO2 SLP159 T00560044=
202012210652 METAR KATL 210652Z 31006KT 10SM FEW035 FEW090 06/05 A2999 RMK AO2 SLP156 T00610050=
202012210552 METAR KATL 210552Z 30006KT 10SM FEW090 07/05 A2997 RMK AO2 SLP151 T00670050 10122 20067 50002=
202012210452 METAR KATL 210452Z 30004KT 10SM FEW095 07/05 A2998 RMK AO2 SLP154 T00720050 401330061=
202012210352 METAR KATL 210352Z 00000KT 10SM FEW095 FEW250 08/05 A2997 RMK AO2 SLP153 T00780050=
202012210252 METAR KATL 210252Z 34003KT 10SM FEW050 SCT095 10/06 A2997 RMK AO2 SLP150 T01000056 50000=
202012210152 METAR KATL 210152Z 01007KT 10SM FEW048 BKN095 11/06 A2998 RMK AO2 SLP153 T01060061=
202012210052 METAR KATL 210052Z 35007KT 10SM FEW050 BKN090 11/06 A2998 RMK AO2 SLP153 T01110061=
202012202352 METAR KATL 202352Z 33004KT 10SM FEW070 BKN090 12/07 A2997 RMK AO2 SLP149 T01220067 10133 20117 53000=
202012202252 METAR KATL 202252Z 35004KT 10SM FEW025 SCT075 BKN090 12/07 A2995 RMK AO2 SLP143 T01220067=
202012202152 METAR KATL 202152Z 01007KT 10SM FEW025 SCT075 BKN090 13/07 A2996 RMK AO2 SLP147 T01280067=
202012202052 METAR KATL 202052Z 32004KT 10SM FEW024 BKN095 13/07 A2996 RMK AO2 SLP147 T01330072 56015=
202012201952 METAR KATL 201952Z 34004KT 10SM FEW022 SCT030 BKN090 13/07 A2997 RMK AO2 SLP149 T01330067=
202012201937 SPECI KATL 201937Z 28003KT 10SM FEW020 SCT030 OVC090 13/07 A2997 RMK AO2 BINOVC T01330072=
202012201908 SPECI KATL 201908Z 00000KT 10SM FEW020 OVC029 13/07 A2998 RMK AO2 BINOVC T01330072=
202012201852 METAR KATL 201852Z 00000KT 10SM FEW020 OVC030 13/07 A2999 RMK AO2 SLP157 T01280072=
202012201752 METAR KATL 201752Z 00000KT 10SM FEW022 OVC031 12/07 A3001 RMK AO2 SLP164 BINOVC T01220067 10133 20061 58023=
202012201652 METAR KATL 201652Z 15004KT 10SM FEW022 SCT032 SCT250 12/06 A3005 RMK AO2 SLP178 T01170061=
202012201608 SPECI KATL 201608Z VRB04KT 10SM SCT014 BKN034 10/05 A3008 RMK AO2 T01000050=
202012201552 METAR KATL 201552Z VRB03KT 10SM BKN014 BKN034 09/05 A3008 RMK AO2 SLP189 T00940050=
202012201452 METAR KATL 201452Z 07006KT 10SM BKN036 08/04 A3008 RMK AO2 SLP191 T00780044 58002=
202012201352 METAR KATL 201352Z 07005KT 10SM FEW030 BKN042 OVC070 07/03 A3010 RMK AO2 SLP195 BINOVC T00670033=
202012201252 METAR KATL 201252Z 10005KT 10SM FEW040 BKN070 OVC140 06/03 A3010 RMK AO2 SLP195 T00610028=
202012201152 METAR KATL 201152Z 06007KT 10SM BKN047 BKN060 OVC070 06/03 A3009 RMK AO2 RAB03E25 SLP193 P0000 60000 T00610028 10072 20061 55005=
202012201052 METAR KATL 201052Z 09005KT 10SM FEW050 BKN070 OVC090 06/03 A3009 RMK AO2 RAB0959E35 SLP192 P0000 T00610033=
202012200952 METAR KATL 200952Z 02004KT 10SM SCT026 BKN041 OVC050 07/02 A3010 RMK AO2 SLP197 T00720017=
202012200852 METAR KATL 200852Z 03003KT 10SM FEW032 FEW047 OVC070 07/02 A3011 RMK AO2 SLP196 60000 T00720017 56021=
202012200752 METAR KATL 200752Z 12005KT 10SM SCT039 BKN055 BKN075 OVC140 07/01 A3011 RMK AO2 RAE0659 SLP200 P0000 T00670011=
202012200652 METAR KATL 200652Z 11009KT 10SM -RA BKN044 BKN070 BKN100 OVC250 07/01 A3011 RMK AO2 RAB29 PRESFR SLP198 P0000 T00670011=
202012200552 METAR KATL 200552Z 12005KT 10SM SCT040 BKN090 OVC250 07/00 A3017 RMK AO2 SLP219 T00720000 10083 20072 58007=
202012200452 METAR KATL 200452Z 12006KT 10SM OVC031 08/00 A3019 RMK AO2 SLP225 T00780000 401171011=
202012200352 METAR KATL 200352Z 13005KT 10SM OVC032 08/M01 A3020 RMK AO2 SLP230 T00781006=
202012200252 METAR KATL 200252Z 12005KT 10SM FEW130 BKN150 BKN250 08/M01 A3019 RMK AO2 SLP228 T00781011 58005=
202012200152 METAR KATL 200152Z 10006KT 10SM SCT130 BKN180 OVC250 08/M01 A3018 RMK AO2 SLP227 BINOVC T00781006=
202012200052 METAR KATL 200052Z 13003KT 10SM FEW100 BKN130 BKN180 BKN250 08/M01 A3022 RMK AO2 SLP239 T00831006=
202012192352 METAR KATL 192352Z 11004KT 10SM FEW030 FEW100 SCT130 BKN230 08/M01 A3020 RMK AO2 SLP235 T00781006 10117 20078 58005=
202012192252 METAR KATL 192252Z 12003KT 10SM FEW100 BKN130 BKN170 BKN250 09/M01 A3021 RMK AO2 SLP236 VIRGA ALQDS T00941011=
202012192152 METAR KATL 192152Z 13006KT 10SM FEW010 SCT150 SCT250 10/M01 A3022 RMK AO2 SLP237 FU FEW 010 VIRGA NW T01001011=
202012192052 METAR KATL 192052Z 14007KT 10SM SCT150 SCT250 11/M02 A3022 RMK AO2 SLP238 T01111017 56025=
202012191952 METAR KATL 191952Z 13007KT 10SM FEW150 FEW250 11/M02 A3023 RMK AO2 SLP243 T01111017=
202012191852 METAR KATL 191852Z 13008G18KT 10SM FEW200 FEW250 10/M02 A3025 RMK AO2 SLP248 T01001017=
202012191752 METAR KATL 191752Z 15009KT 10SM FEW200 SCT250 09/M01 A3030 RMK AO2 SLP265 T00941011 10094 21011 58026=
202012191652 METAR KATL 191652Z 14008KT 10SM FEW200 08/M01 A3036 RMK AO2 SLP285 T00831006=
202012191552 METAR KATL 191552Z 13007KT 10SM FEW200 06/00 A3038 RMK AO2 SLP292 T00610000=
202012191452 METAR KATL 191452Z 14008KT 10SM FEW200 04/00 A3038 RMK AO2 SLP293 T00440000 50005=
202012191352 METAR KATL 191352Z 09006KT 10SM FEW200 02/M02 A3038 RMK AO2 SLP294 T00171017=
202012191252 METAR KATL 191252Z 08005KT 10SM FEW200 00/M03 A3038 RMK AO2 SLP295 T00001028=
202012191152 METAR KATL 191152Z 08006KT 10SM FEW200 M01/M03 A3036 RMK AO2 SLP290 T10111033 10033 21011 53000=
202012191052 METAR KATL 191052Z 09006KT 10SM FEW250 00/M03 A3036 RMK AO2 SLP288 T00001028=
202012190952 METAR KATL 190952Z 07005KT 10SM FEW250 01/M03 A3035 RMK AO2 SLP283 T00061028=
202012190852 METAR KATL 190852Z 08006KT 10SM SCT250 01/M03 A3036 RMK AO2 SLP286 T00111028 56004=
202012190752 METAR KATL 190752Z 04005KT 10SM SCT250 02/M02 A3036 RMK AO2 SLP287 T00171022=
202012190652 METAR KATL 190652Z 09003KT 10SM SCT250 02/M02 A3036 RMK AO2 SLP287 T00171022=
202012190552 METAR KATL 190552Z 08005KT 10SM SCT250 02/M02 A3037 RMK AO2 SLP290 T00221022 10067 20022 51004=
202012190452 METAR KATL 190452Z 00000KT 10SM BKN250 04/M03 A3037 RMK AO2 SLP289 T00391028 401171011=
202012190352 METAR KATL 190352Z 08004KT 10SM BKN250 04/M03 A3037 RMK AO2 SLP291 T00441028=
202012190252 METAR KATL 190252Z 00000KT 10SM FEW250 04/M03 A3036 RMK AO2 SLP288 T00391033 53002=
202012190152 METAR KATL 190152Z 32003KT 10SM FEW250 05/M03 A3035 RMK AO2 SLP286 T00501033=
202012190052 METAR KATL 190052Z 33005KT 10SM SCT250 05/M03 A3035 RMK AO2 SLP287 T00501028=
202012182352 METAR KATL 182352Z 33005KT 10SM BKN250 06/M03 A3035 RMK AO2 SLP287 T00611028 10117 20061 53006=
202012182252 METAR KATL 182252Z 31006KT 10SM FEW200 BKN250 07/M03 A3035 RMK AO2 SLP283 T00721028=
202012182152 METAR KATL 182152Z 31005KT 10SM FEW012 SCT200 SCT250 10/M04 A3034 RMK AO2 SLP280 FU FEW012 T01001039=
202012182052 METAR KATL 182052Z 32007KT 10SM FEW200 SCT250 11/M04 A3033 RMK AO2 SLP277 T01111039 55006=
202012181952 METAR KATL 181952Z 34005KT 10SM FEW200 SCT250 11/M04 A3033 RMK AO2 SLP276 T01111039=
202012181852 METAR KATL 181852Z 01007KT 10SM FEW200 FEW250 11/M04 A3034 RMK AO2 SLP281 T01061044=
202012181752 METAR KATL 181752Z 02007KT 10SM FEW200 09/M04 A3035 RMK AO2 SLP285 T00941044 10094 21011 58008=
202012181652 METAR KATL 181652Z 01007KT 10SM FEW200 08/M04 A3038 RMK AO2 SLP296 T00781044=
202012181552 METAR KATL 181552Z 00000KT 10SM FEW200 05/M04 A3040 RMK AO2 SLP302 T00501044=
202012181452 METAR KATL 181452Z 35008KT 10SM CLR 03/M05 A3038 RMK AO2 SLP296 T00281050 51017=
202012181352 METAR KATL 181352Z 34010KT 10SM FEW250 01/M06 A3036 RMK AO2 SLP292 T00061056=
202012181252 METAR KATL 181252Z 34008KT 10SM CLR M01/M06 A3034 RMK AO2 SLP285 T10061056=
202012181152 METAR KATL 181152Z 32008KT 10SM CLR M01/M06 A3033 RMK AO2 SLP280 T10111056 10000 21011 53013=
202012181052 METAR KATL 181052Z 33007KT 10SM CLR M01/M06 A3030 RMK AO2 SLP270 T10111056=
202012180952 METAR KATL 180952Z 33009KT 10SM CLR M01/M06 A3028 RMK AO2 SLP264 T10061056=
202012180852 METAR KATL 180852Z 32011KT 10SM CLR M01/M05 A3029 RMK AO2 SLP266 T10061050 53012=
202012180752 METAR KATL 180752Z 32011KT 10SM CLR M01/M05 A3028 RMK AO2 SLP264 T10061050=
202012180652 METAR KATL 180652Z 33011KT 10SM CLR M01/M05 A3025 RMK AO2 SLP254 T10061050=
202012180552 METAR KATL 180552Z 31006KT 10SM CLR M01/M05 A3025 RMK AO2 SLP253 T10061050 10022 21006 50010=
202012180452 METAR KATL 180452Z 32011KT 10SM CLR 00/M04 A3025 RMK AO2 SLP254 T00001044 400560000=
202012180352 METAR KATL 180352Z 32011KT 10SM CLR 01/M04 A3024 RMK AO2 SLP248 T00061044=
202012180252 METAR KATL 180252Z 31007KT 10SM CLR 01/M04 A3022 RMK AO2 SLP243 T00061039 50009=
202012180152 METAR KATL 180152Z 31007KT 10SM CLR 01/M04 A3023 RMK AO2 SLP245 T00111039=
202012180052 METAR KATL 180052Z 29008KT 10SM CLR 01/M04 A3022 RMK AO2 SLP242 T00111039=
202012172352 METAR KATL 172352Z 28008KT 10SM CLR 02/M03 A3019 RMK AO2 SLP232 T00171033 10039 20017 53021=
202012172252 METAR KATL 172252Z 29008KT 10SM CLR 03/M03 A3016 RMK AO2 SLP219 T00281033=
202012172152 METAR KATL 172152Z 32011KT 10SM FEW030 04/M04 A3014 RMK AO2 SLP213 T00391039=
202012172052 METAR KATL 172052Z 30012KT 9SM SCT025 03/M03 A3013 RMK AO2 SLP209 T00331028 53004=
202012172044 SPECI KATL 172044Z 30010KT 9SM SCT023 03/M02 A3012 RMK AO2 T00331022=
202012171952 METAR KATL 171952Z 30010KT 10SM OVC018 03/M02 A3011 RMK AO2 SLP203 T00281022=
202012171852 METAR KATL 171852Z 30012KT 10SM OVC016 03/M02 A3011 RMK AO2 SLP204 T00281017=
202012171752 METAR KATL 171752Z 32014G20KT 10SM OVC016 02/M02 A3012 RMK AO2 SLP205 T00221017 10028 20017 58001=
202012171652 METAR KATL 171652Z 31013KT 10SM OVC015 02/M02 A3013 RMK AO2 SLP210 T00221017=
202012171632 SPECI KATL 171632Z 30012KT 10SM OVC015 03/M01 A3013 RMK AO2 T00281011=
202012171552 METAR KATL 171552Z 30011KT 10SM OVC014 02/M01 A3012 RMK AO2 SLP207 T00221011=
202012171452 METAR KATL 171452Z 30012KT 10SM OVC016 02/M02 A3012 RMK AO2 SLP205 T00221017 53025=
202012171352 METAR KATL 171352Z 28008KT 10SM FEW015 BKN020 OVC025 02/M01 A3009 RMK AO2 SLP196 T00221011=
202012171252 METAR KATL 171252Z 30011KT 10SM FEW010 BKN015 OVC020 02/M01 A3007 RMK AO2 SLP187 T00171011=
202012171152 METAR KATL 171152Z 30010KT 10SM SCT009 BKN015 OVC018 02/M01 A3004 RMK AO2 SLP179 70027 T00221006 10050 20022 53017=
202012171109 SPECI KATL 171109Z 31010KT 10SM SCT009 OVC015 02/M01 A3003 RMK AO2 T00221006=
202012171052 METAR KATL 171052Z 32012KT 10SM BKN009 OVC012 02/M01 A3003 RMK AO2 SLP173 T00221006=
202012171016 SPECI KATL 171016Z 30010KT 10SM BKN009 OVC012 02/00 A3000 RMK AO2 T00220000=
202012170952 METAR KATL 170952Z 30009KT 10SM OVC010 03/00 A2999 RMK AO2 SLP161 T00280000=
202012170852 METAR KATL 170852Z 31013G19KT 10SM OVC012 03/00 A2999 RMK AO2 SLP162 T00280000 53006=
202012170752 METAR KATL 170752Z 30013KT 10SM BKN013 OVC020 03/01 A2998 RMK AO2 SLP159 T00330006=
202012170652 METAR KATL 170652Z 30010KT 10SM OVC014 04/02 A2997 RMK AO2 SLP155 T00440017=
202012170552 METAR KATL 170552Z 29009G19KT 10SM OVC014 05/02 A2997 RMK AO2 SLP155 60001 T00500022 10067 20050 52009=
202012170452 METAR KATL 170452Z 29009KT 10SM FEW005 BKN013 BKN018 06/03 A2997 RMK AO2 SLP151 T00560033 400670044=
202012170352 METAR KATL 170352Z 31011KT 10SM FEW004 BKN010 BKN016 07/04 A2995 RMK AO2 RAE00 SLP147 P0001 T00670044=
202012170252 METAR KATL 170252Z 31005KT 6SM -RA SCT004 BKN010 OVC035 07/06 A2994 RMK AO2 RAB44 SLP144 SCT004 V BKN P0000 60000 T00670056 51009=
202012170210 SPECI KATL 170210Z 29004KT 9SM SCT004 BKN016 BKN038 07/06 A2993 RMK AO2 T00670056=
202012170152 METAR KATL 170152Z 28003KT 10SM BKN004 OVC035 07/06 A2994 RMK AO2 SLP142 BINOVC T00670056=
202012170052 METAR KATL 170052Z 26003KT 10SM BKN006 OVC030 07/05 A2993 RMK AO2 SLP139 T00670050=
202012162352 METAR KATL 162352Z 00000KT 10SM BKN006 OVC030 06/05 A2992 RMK AO2 DZB25E48 SLP135 P0000 60013 T00610050 10067 20050 51014=
202012162330 SPECI KATL 162330Z 00000KT 4SM -DZ BR OVC006 06/05 A2992 RMK AO2 DZB25 P0000 T00610050=
202012162325 SPECI KATL 162325Z 30003KT 2 1/2SM -DZ BR OVC006 06/05 A2991 RMK AO2 DZB25 P0000 T00610050=
202012162252 METAR KATL 162252Z 31004KT 10SM OVC008 07/04 A2991 RMK AO2 SLP133 T00670044=
202012162152 METAR KATL 162152Z 32003KT 10SM OVC008 07/04 A2990 RMK AO2 SLP128 T00670044=
202012162052 METAR KATL 162052Z 00000KT 3SM BKN006 OVC012 06/04 A2987 RMK AO2 SFC VIS 7 SLP120 60013 T00610044 53001=
202012162032 SPECI KATL 162032Z 00000KT 3SM BR BKN006 OVC023 06/04 A2987 RMK AO2 SFC VIS 5 T00610044=
202012161952 METAR KATL 161952Z 36004KT 3SM SCT006 OVC013 06/04 A2986 RMK AO2 SFC VIS 7 RAE51 SLP117 P0007 T00610039=
202012161935 SPECI KATL 161935Z 33004KT 3SM -RA BR SCT006 OVC012 06/04 A2987 RMK AO2 SFC VIS 6 P0007 T00560039=
202012161915 SPECI KATL 161915Z 00000KT 1 1/2SM RA BR SCT005 OVC010 06/04 A2986 RMK AO2 SFC VIS 2 P0004 T00560039=
202012161908 SPECI KATL 161908Z 00000KT 3/4SM R09R/P6000FT -RA BR BKN005 OVC010 06/04 A2987 RMK AO2 SFC VIS 3 P0001 T00560039=
202012161852 METAR KATL 161852Z 00000KT 3/4SM R09R/6000VP6000FT -RA BR OVC003 05/04 A2986 RMK AO2 SFC VIS 2 RAE1757B28 SLP116 TWRINC P0006 T00500039=
202012161819 SPECI KATL 161819Z 09006KT 3/4SM R09R/P6000FT BR OVC003 05/04 A2986 RMK AO2 SFC VIS 3 RAE1757 TWRINC P0000 T00500039=
202012161752 METAR KATL 161752Z 09007KT 1 1/2SM -RA BR OVC004 05/04 A2987 RMK AO2 SFC VIS 6 RAB43 SLP120 TWRINC P0000 60013 T00500039 10056 20044 58021=
202012161721 SPECI KATL 161721Z 11003KT 1 1/2SM OVC004 06/04 A2989 RMK AO2 SFC VIS 7 TWRINC T00560039=
202012161652 METAR KATL 161652Z 10009KT 3SM OVC005 05/04 A2990 RMK AO2 SFC VIS 7 SLP129 TWRINC T00500039=
202012161552 METAR KATL 161552Z 10010KT 3SM OVC005 05/03 A2992 RMK AO2 SFC VIS 7 RAE1454 SLP138 TWRINC P0000 T00500033=
202012161452 METAR KATL 161452Z 10010G18KT 3SM -RA BR OVC006 04/03 A2994 RMK AO2 SFC VIS 6 SLP141 P0004 60013 T00440033 58007=
202012161352 METAR KATL 161352Z 09012KT 3SM -RA BR OVC005 04/03 A2996 RMK AO2 SFC VIS 4 SLP148 P0007 T00440033=
202012161252 METAR KATL 161252Z 10008KT 3SM -RA BR OVC006 04/03 A2998 RMK AO2 RAB14 SLP155 P0002 T00440033=
202012161240 SPECI KATL 161240Z 10010KT 3SM -RA BR OVC006 04/03 A2997 RMK AO2 SFC VIS 4 RAB14 P0000 T00440033=
202012161152 METAR KATL 161152Z 09012KT 8SM OVC006 05/03 A2996 RMK AO2 SLP149 60005 70005 T00500033 10061 20050 56016=
202012161052 METAR KATL 161052Z 09011KT 8SM OVC005 05/03 A2996 RMK AO2 SLP150 T00500033=
202012160952 METAR KATL 160952Z 09016G22KT 10SM OVC007 05/03 A2997 RMK AO2 SLP153 T00500033=
202012160852 METAR KATL 160852Z 09010KT 10SM OVC008 06/03 A3001 RMK AO2 RAE19 SLP165 CIG 007V010 P0001 60005 T00560033 56018=
202012160752 METAR KATL 160752Z 10013G18KT 6SM -RA BR OVC009 06/04 A3002 RMK AO2 PRESFR SLP169 P0002 T00560039=
202012160734 SPECI KATL 160734Z 11007KT 090V160 7SM -RA BKN009 OVC015 06/04 A3007 RMK AO2 PRESRR P0001 T00560039=
202012160652 METAR KATL 160652Z 10010KT 5SM -RA BR OVC016 06/04 A3002 RMK AO2 SLP169 P0002 T00560039=
202012160552 METAR KATL 160552Z 08010KT 7SM -RA OVC017 06/03 A3006 RMK AO2 SLP183 P0000 60000 T00610033 10078 20061 55006=
202012160452 METAR KATL 160452Z 11013G19KT 10SM -RA OVC019 07/03 A3005 RMK AO2 RAB39 PRESFR SLP180 P0000 T00670028 401060017=
202012160352 METAR KATL 160352Z 12009G19KT 10SM OVC020 07/02 A3007 RMK AO2 PK WND 09027/0325 SLP187 T00720017=
202012160252 METAR KATL 160252Z 10010KT 10SM OVC021 07/02 A3008 RMK AO2 SLP190 T00720017 58003=
202012160152 METAR KATL 160152Z 11009KT 10SM OVC020 07/02 A3010 RMK AO2 SLP197 T00720017=
202012160052 METAR KATL 160052Z 10010G17KT 10SM OVC023 08/01 A3009 RMK AO2 SLP196 T00780011=
202012152352 METAR KATL 152352Z 11010KT 10SM OVC023 08/01 A3009 RMK AO2 SLP192 T00830006 10106 20083 53007=
202012152252 METAR KATL 152252Z 09011KT 10SM BKN022 OVC030 08/01 A3007 RMK AO2 SLP188 T00830006=
202012152152 METAR KATL 152152Z 11009KT 10SM BKN024 OVC032 09/01 A3007 RMK AO2 SLP186 BINOVC T00940011=
202012152145 SPECI KATL 152145Z 10009KT 10SM BKN024 OVC032 09/01 A3007 RMK AO2 BINOVC T00940011=
202012152124 SPECI KATL 152124Z 10008KT 10SM BKN032 BKN200 BKN250 09/01 A3007 RMK AO2 T00940011=
202012152052 METAR KATL 152052Z 08009KT 10SM BKN027 BKN200 BKN250 10/01 A3006 RMK AO2 SLP185 T01000011 56023=
202012151952 METAR KATL 151952Z 08011KT 10SM BKN027 BKN200 BKN250 10/01 A3008 RMK AO2 SLP189 T01000011=
202012151939 SPECI KATL 151939Z 12007KT 10SM BKN028 BKN200 BKN250 10/01 A3008 RMK AO2 T01000006=
202012151852 METAR KATL 151852Z 10011KT 10SM FEW034 SCT200 BKN250 11/M01 A3009 RMK AO2 SLP194 T01061006=
202012151752 METAR KATL 151752Z 07011KT 10SM FEW032 SCT200 BKN250 09/M01 A3013 RMK AO2 SLP208 T00941011 10094 20017 58027=
202012151652 METAR KATL 151652Z 06013KT 10SM FEW200 SCT250 08/M01 A3018 RMK AO2 SLP225 T00831011=
202012151552 METAR KATL 151552Z 09011G20KT 10SM FEW040 FEW200 SCT250 07/M01 A3022 RMK AO2 SLP239 T00721006=
202012151452 METAR KATL 151452Z 09015G22KT 10SM FEW200 FEW250 06/M01 A3021 RMK AO2 SLP236 T00611006 53017=
202012151352 METAR KATL 151352Z 09014KT 10SM FEW025 FEW200 FEW250 04/00 A3020 RMK AO2 SLP232 T00390000=
202012151252 METAR KATL 151252Z 09011KT 10SM FEW023 FEW200 SCT250 02/M01 A3017 RMK AO2 SLP225 T00221006=
202012151152 METAR KATL 151152Z 09007KT 10SM FEW200 02/M01 A3016 RMK AO2 SLP220 T00221006 10033 20017 53015=
202012151052 METAR KATL 151052Z 09006KT 10SM SCT250 02/M01 A3014 RMK AO2 SLP211 T00221006=
202012150952 METAR KATL 150952Z 06008KT 10SM SCT250 03/00 A3012 RMK AO2 SLP205 T00330000=
202012150852 METAR KATL 150852Z VRB05KT 10SM SCT250 03/00 A3012 RMK AO2 SLP203 T00330000 55001=
202012150752 METAR KATL 150752Z 03005KT 10SM SCT250 03/00 A3011 RMK AO2 SLP200 T00280000=
202012150652 METAR KATL 150652Z 34006KT 10SM SCT250 03/00 A3011 RMK AO2 SLP199 T00330000=
202012150552 METAR KATL 150552Z 35004KT 10SM SCT250 03/00 A3012 RMK AO2 SLP204 T00330000 10061 20033 55004=
202012150452 METAR KATL 150452Z 34008KT 10SM SCT250 04/01 A3011 RMK AO2 SLP201 T00390006 401890039=
202012150352 METAR KATL 150352Z 34008KT 10SM FEW250 04/01 A3013 RMK AO2 SLP205 T00440006=
202012150252 METAR KATL 150252Z 34009KT 10SM FEW250 05/01 A3013 RMK AO2 SLP208 T00500006 51009=
202012150152 METAR KATL 150152Z 34012KT 10SM FEW250 05/01 A3013 RMK AO2 SLP207 T00500006=
202012150052 METAR KATL 150052Z 33011KT 10SM FEW025 SCT250 06/01 A3013 RMK AO2 SLP208 T00560006=
202012142352 METAR KATL 142352Z 33014G26KT 10SM FEW025 SCT250 06/01 A3011 RMK AO2 PK WND 33028/2311 SLP197 T00610011 10117 20061 51023=
202012142252 METAR KATL 142252Z 33014G25KT 10SM FEW025 SCT250 07/01 A3009 RMK AO2 PK WND 32027/2154 SLP189 T00670011=
202012142152 METAR KATL 142152Z 33018G24KT 10SM FEW026 SCT250 08/02 A3007 RMK AO2 PK WND 32027/2127 SLP181 T00830022=
202012142052 METAR KATL 142052Z 32021G28KT 10SM FEW028 FEW250 10/03 A3004 RMK AO2 PK WND 32028/2051 SLP170 T01000028 53009=
202012141952 METAR KATL 141952Z 34017G28KT 10SM FEW028 FEW250 11/03 A3003 RMK AO2 PK WND 34028/1949 SLP166 T01060028=
202012141852 METAR KATL 141852Z 34016G25KT 10SM FEW030 FEW250 11/03 A3001 RMK AO2 PK WND 31029/1836 SLP159 T01110033=
202012141752 METAR KATL 141752Z 34020G27KT 10SM FEW025 FEW250 11/03 A3001 RMK AO2 PK WND 31036/1700 SLP160 60000 T01060033 10128 20089 51015=
202012141741 SPECI KATL 141741Z 32019G26KT 10SM SCT023 SCT250 11/04 A3001 RMK AO2 PK WND 31036/1700 T01060039=
202012141652 METAR KATL 141652Z 31022G32KT 10SM BKN027 BKN250 11/04 A3000 RMK AO2 PK WND 32032/1652 SLP158 T01110044=
202012141552 METAR KATL 141552Z 33022G29KT 10SM SCT022 11/05 A2998 RMK AO2 PK WND 32035/1509 SLP153 T01060050=
202012141534 SPECI KATL 141534Z 33019G31KT 10SM SCT022 10/05 A2997 RMK AO2 PK WND 32035/1509 T01000050=
202012141452 METAR KATL 141452Z 32017G26KT 10SM OVC018 09/06 A2996 RMK AO2 PK WND 32036/1435 SLP145 BINOVC 60000 T00940061 51068=
202012141443 SPECI KATL 141443Z 32019G36KT 10SM OVC016 09/06 A2996 RMK AO2 PK WND 32036/1435 T00940061=
202012141352 METAR KATL 141352Z 32022G31KT 10SM OVC014 09/07 A2990 RMK AO2 PK WND 30034/1313 PRESRR SLP123 CIG 012V016 T00940067=
202012141259 SPECI KATL 141259Z 30020G33KT 8SM FEW008 BKN012 OVC018 09/07 A2985 RMK AO2 PK WND 31033/1253 CIG 010V015 T00890072=
202012141252 METAR KATL 141252Z 30021G40KT 6SM BR BKN008 OVC022 09/07 A2985 RMK AO2 PK WND 31041/1228 RAB28E44 SLP108 BKN008 V SCT P0000 T00940072=
202012141242 SPECI KATL 141242Z 30024G36KT 4SM -RA BR BKN007 OVC013 09/08 A2984 RMK AO2 PK WND 31041/1228 RAB28 BKN007 V SCT P0000 T00940078=
202012141234 SPECI KATL 141234Z 30027G41KT 2 1/2SM -RA BR BKN006 OVC013 10/08 A2983 RMK AO2 PK WND 31041/1228 RAB28 PRESRR BKN006 V SCT P0000 T01000083=
202012141214 SPECI KATL 141214Z 31014KT 8SM BKN006 BKN025 OVC075 12/10 A2979 RMK AO2 PRESRR BKN006 V SCT T01170100=
202012141152 METAR KATL 141152Z 29011KT 10SM SCT007 SCT032 BKN075 BKN140 13/12 A2975 RMK AO2 SLP074 RAE11 P0005 60043 70045 T01280117 10189 20128 53014=
202012141135 SPECI KATL 141135Z 31010KT 8SM SCT005 SCT016 BKN070 BKN130 13/12 A2973 RMK AO2 RAE11 P0005 T01330122=
202012141118 SPECI KATL 141118Z 32013KT 8SM BKN007 BKN016 OVC065 15/13 A2974 RMK AO2 RAEMM P0005 T01500133 $=
202012141109 SPECI KATL 141109Z 28012KT 8SM -RA FEW007 SCT024 BKN065 OVC130 16/14 A2972 RMK AO2 P0005 T01610139=
202012141052 METAR KATL 141052Z 27013G24KT 8SM -RA FEW009 BKN017 OVC055 17/15 A2972 RMK AO2 PK WND 20048/1013 WSHFT 1006 SLP060 FROPA P0037 T01720150=
202012141046 SPECI KATL 141046Z 27013G24KT 8SM -RA FEW007 BKN017 OVC055 17/15 A2972 RMK AO2 PK WND 20048/1013 WSHFT 1006 FROPA P0037=
202012141037 SPECI KATL 141037Z 26016G35KT 3SM RA BR FEW007 BKN013 OVC024 17/16 A2971 RMK AO2 PK WND 20048/1013 WSHFT 1006 FROPA P0036 T01720156=
202012141020 SPECI KATL 141020Z 25014G48KT 2 1/2SM +RA BR SCT007 BKN016 OVC024 18/16 A2971 RMK AO2 PK WND 20048/1013 WSHFT 1006 PRESRR P0023 T01780161=
202012141008 SPECI KATL 141008Z 20020G34KT 1 1/2SM R09R/5000VP6000FT +RA BR BKN016 BKN022 OVC030 18/16 A2967 RMK AO2 PK WND 21034/1008 PRESRR P0007 T01780161=
202012140952 METAR KATL 140952Z 19014G26KT 10SM -RA OVC016 18/15 A2965 RMK AO2 PK WND 19026/0945 RAB22 SLP033 CIG 014V019 P0001 T01780150=
202012140852 METAR KATL 140852Z 19014G22KT 10SM OVC017 18/14 A2971 RMK AO2 PK WND 18031/0823 SLP055 CIG 015V019 60000 T01780144 56043=
202012140752 METAR KATL 140752Z 18010G20KT 10SM FEW012 BKN023 BKN050 OVC130 17/14 A2975 RMK AO2 SLP068 T01720144=
202012140744 SPECI KATL 140744Z 18014G22KT 10SM FEW012 BKN025 BKN070 OVC130 17/14 A2975 RMK AO2 T01720139=
202012140652 METAR KATL 140652Z 18011G21KT 10SM SCT009 BKN050 BKN075 OVC130 17/16 A2979 RMK AO2 RAE12 SLP081 P0000 T01720156=
202012140650 SPECI KATL 140650Z 18015G23KT 10SM SCT009 BKN050 BKN090 OVC130 17/16 A2979 RMK AO2 RAE12 P0000=
202012140635 SPECI KATL 140635Z 17012G21KT 10SM SCT007 BKN013 OVC050 17/16 A2981 RMK AO2 RAE12 BKN013 V SCT P0000 T01720156=
202012140552 METAR KATL 140552Z 19010G16KT 10SM -RA OVC005 17/16 A2984 RMK AO2 SLP101 RAB02E32B45 CIG 004V006 BINOVC P0000 60002 T01720156 10172 20144 58031=
202012140452 METAR KATL 140452Z 18009KT 8SM OVC005 16/15 A2989 RMK AO2 SLP118 CIG 004V006 T01610150 402000117=
202012140412 SPECI KATL 140412Z 16004KT 8SM BKN005 OVC010 15/14 A2990 RMK AO2 T01500139=
202012140352 METAR KATL 140352Z 16004KT 9SM SCT009 OVC013 15/14 A2991 RMK AO2 RAE30 SLP128 P0001 T01500139=
202012140337 SPECI KATL 140337Z 16004KT 8SM SCT007 BKN013 OVC019 15/13 A2992 RMK AO2 RAE30 P0001 T01500133=
202012140323 SPECI KATL 140323Z 14005KT 4SM -RA BR SCT009 BKN015 OVC020 15/13 A2992 RMK AO2 P0001 T01500133=
202012140259 SPECI KATL 140259Z 15005KT 10SM -RA SCT020 BKN026 OVC036 15/13 A2993 RMK AO2 P0000 T01500128=
202012140252 METAR KATL 140252Z 16004KT 9SM -RA SCT026 OVC036 15/13 A2994 RMK AO2 SLP136 RAB45 P0001 60001 T01500128 56018=
202012140152 METAR KATL 140152Z 15004KT 10SM FEW025 OVC070 15/12 A2995 RMK AO2 SLP139 T01500117=
202012140052 METAR KATL 140052Z 14005KT 10SM SCT024 BKN200 BKN250 14/10 A2997 RMK AO2 SLP149 T01440100=
202012132352 METAR KATL 132352Z 13004KT 10SM FEW110 BKN250 15/09 A2999 RMK AO2 SLP155 T01500089 10200 20150 58014=
202012132252 METAR KATL 132252Z 13003KT 10SM FEW110 SCT200 BKN250 17/09 A3001 RMK AO2 SLP159 T01670089=
202012132152 METAR KATL 132152Z 16004KT 10SM FEW120 SCT200 BKN250 18/08 A3002 RMK AO2 SLP163 T01830078=
202012132052 METAR KATL 132052Z 18007KT 10SM FEW048 FEW250 19/07 A3003 RMK AO2 SLP166 T01890067 56021=
202012131952 METAR KATL 131952Z 00000KT 10SM FEW040 FEW250 19/08 A3005 RMK AO2 SLP171 T01940083=
202012131852 METAR KATL 131852Z 00000KT 10SM FEW036 19/10 A3006 RMK AO2 SLP174 T01890100=
202012131752 METAR KATL 131752Z 00000KT 10SM FEW026 17/10 A3010 RMK AO2 SLP188 T01720100 10172 20117 58019=
202012131652 METAR KATL 131652Z 28003KT 9SM CLR 16/11 A3013 RMK AO2 SLP199 T01610111=
202012131604 SPECI KATL 131604Z 30003KT 8SM SCT011 14/10 A3016 RMK AO2 T01390100=
202012131552 METAR KATL 131552Z 29003KT 7SM BKN010 13/10 A3016 RMK AO2 SLP211 T01280100=
202012131452 METAR KATL 131452Z 36005KT 6SM BR OVC007 12/10 A3016 RMK AO2 SLP209 T01220100 53019=
202012131352 METAR KATL 131352Z 33005KT 6SM BR OVC007 12/10 A3013 RMK AO2 SLP202 BINOVC T01220100=
202012131252 METAR KATL 131252Z 30004KT 6SM BR OVC006 12/11 A3011 RMK AO2 SLP193 T01220106=
202012131152 METAR KATL 131152Z 00000KT 6SM BR BKN009 12/10 A3010 RMK AO2 SLP189 CIG 008V012 70002 T01170100 10156 20117 53012=
202012131132 SPECI KATL 131132Z 29004KT 7SM BKN008 12/11 A3009 RMK AO2 BKN008 V SCT T01170106=
202012131052 METAR KATL 131052Z 32003KT 10SM FEW006 FEW011 13/12 A3007 RMK AO2 SLP181 T01280117=
202012130952 METAR KATL 130952Z 34006KT 10SM FEW006 SCT011 14/13 A3006 RMK AO2 SLP176 T01440128=
202012130852 METAR KATL 130852Z 31005KT 10SM FEW008 OVC014 15/13 A3006 RMK AO2 SLP175 T01500128 51008=
202012130818 SPECI KATL 130818Z 29005KT 10SM FEW008 OVC014 15/13 A3006 RMK AO2 T01500133=
202012130752 METAR KATL 130752Z 30006KT 10SM BKN009 OVC014 16/14 A3005 RMK AO2 SLP173 CIG 005V009 T01560139=
202012130652 METAR KATL 130652Z 24005KT 10SM BKN006 OVC014 16/14 A3005 RMK AO2 SLP170 CIG 005V009 T01560144=
202012130552 METAR KATL 130552Z 23004KT 10SM BKN008 BKN014 OVC020 16/14 A3003 RMK AO2 SLP166 DZE04 CIG 006V010 P0000 60002 T01560144 10172 20156 50001=
202012130526 SPECI KATL 130526Z 22004KT 7SM SCT006 BKN012 OVC040 16/14 A3004 RMK AO2 DZE04 P0000 T01560144=
202012130506 SPECI KATL 130506Z 21005KT 10SM SCT006 SCT015 BKN040 16/14 A3004 RMK AO2 DZE04 P0000 T01560144=
202012130452 METAR KATL 130452Z 19007KT 5SM -DZ BR SCT006 BKN014 OVC035 16/14 A3004 RMK AO2 SLP168 RAE18DZB18 P0001 T01560144 401940106=
202012130449 SPECI KATL 130449Z 19006KT 5SM -DZ BR SCT006 BKN014 OVC036 16/14 A3004 RMK AO2 RAE18DZB18 P0001=
202012130352 METAR KATL 130352Z 22007KT 3SM BR SCT009 BKN017 OVC029 16/14 A3005 RMK AO2 RAB0258E52 SLP174 P0000 T01560139=
202012130252 METAR KATL 130252Z 22007KT 10SM BKN034 OVC045 17/12 A3003 RMK AO2 SLP167 60001 T01720122 53008=
202012130152 METAR KATL 130152Z 16004KT 10SM BKN037 OVC050 17/13 A3002 RMK AO2 RAB0053E23 SLP162 P0000 T01670128=
202012130052 METAR KATL 130052Z 17005KT 10SM BKN040 OVC050 17/13 A3001 RMK AO2 RAE46 SLP162 P0001 T01720128=
202012122352 METAR KATL 122352Z 17004KT 10SM -RA BKN038 BKN050 17/13 A3001 RMK AO2 RAB20 SLP160 P0000 60000 T01720128 10194 20172 53001=
202012122252 METAR KATL 122252Z 16005KT 10SM SCT030 BKN050 BKN060 OVC250 18/12 A2999 RMK AO2 SLP154 BINOVC T01830117=
202012122152 METAR KATL 122152Z 18005KT 10SM SCT030 BKN043 OVC070 18/12 A3000 RMK AO2 SLP157 T01830117=
202012122052 METAR KATL 122052Z 21007KT 10SM SCT033 BKN047 BKN075 OVC130 19/11 A3000 RMK AO2 SLP158 T01890111 55007=
202012121952 METAR KATL 121952Z 19008KT 10SM SCT035 BKN050 BKN090 BKN150 19/11 A3000 RMK AO2 SLP156 T01890106=
202012121852 METAR KATL 121852Z 19008G17KT 10SM SCT043 SCT055 BKN090 BKN150 19/11 A3000 RMK AO2 SLP157 T01940106=
202012121752 METAR KATL 121752Z 18010KT 10SM FEW041 SCT060 SCT090 BKN150 BKN250 19/10 A3003 RMK AO2 SLP166 T01890100 10189 20106 58024=
202012121652 METAR KATL 121652Z 18012G17KT 10SM FEW038 SCT090 BKN140 BKN250 18/10 A3006 RMK AO2 SLP177 T01830100=
202012121552 METAR KATL 121552Z 20009G19KT 10SM SCT060 SCT120 BKN180 BKN250 17/10 A3009 RMK AO2 SLP188 T01720100=
202012121452 METAR KATL 121452Z 19008KT 10SM SCT060 SCT120 BKN180 BKN250 14/09 A3010 RMK AO2 SLP192 T01440089 51008=
202012121352 METAR KATL 121352Z 19007KT 10SM FEW020 SCT060 BKN110 BKN180 BKN250 13/09 A3010 RMK AO2 SLP191 T01280089=
202012121252 METAR KATL 121252Z 18006KT 10SM FEW070 BKN120 BKN180 BKN250 11/09 A3009 RMK AO2 SLP189 T01110089=
202012121152 METAR KATL 121152Z 16003KT 10SM FEW070 SCT120 BKN180 BKN250 11/08 A3008 RMK AO2 SLP185 T01060083 10122 20106 56009=
202012121052 METAR KATL 121052Z 16004KT 10SM FEW045 SCT150 SCT200 BKN250 11/07 A3008 RMK AO2 SLP184 T01060072=
202012120952 METAR KATL 120952Z 00000KT 10SM FEW045 SCT150 BKN200 BKN250 11/07 A3009 RMK AO2 SLP186 T01060072=
202012120852 METAR KATL 120852Z 17005KT 10SM FEW045 BKN150 BKN200 11/06 A3011 RMK AO2 SLP192 T01110061 50004=
202012120752 METAR KATL 120752Z 20004KT 10SM FEW045 BKN150 BKN200 12/06 A3011 RMK AO2 SLP195 T01170056=
202012120652 METAR KATL 120652Z 18004KT 10SM FEW150 BKN200 12/06 A3010 RMK AO2 SLP192 T01170056=
202012120552 METAR KATL 120552Z 15004KT 10SM SCT140 BKN200 OVC250 12/06 A3009 RMK AO2 SLP188 T01220056 10150 20111 56005=
202012120452 METAR KATL 120452Z 14003KT 10SM FEW150 BKN200 OVC250 12/06 A3010 RMK AO2 SLP189 T01170056 401940050=
202012120352 METAR KATL 120352Z 15003KT 10SM FEW150 BKN200 OVC250 12/06 A3010 RMK AO2 SLP193 T01170056=
202012120252 METAR KATL 120252Z 18004KT 10SM BKN200 BKN250 13/05 A3011 RMK AO2 SLP195 T01280050 53006=
202012120152 METAR KATL 120152Z 17006KT 10SM SCT200 BKN250 13/05 A3010 RMK AO2 SLP195 T01330050=
202012120052 METAR KATL 120052Z 14004KT 10SM BKN200 BKN250 14/06 A3009 RMK AO2 SLP190 T01390056=
202012112352 METAR KATL 112352Z 13004KT 10SM SCT200 BKN250 15/04 A3009 RMK AO2 SLP190 T01500044 10194 20150 55000=
202012112252 METAR KATL 112252Z 14005KT 10SM SCT200 BKN250 16/04 A3008 RMK AO2 SLP187 T01610044=
202012112152 METAR KATL 112152Z 16006KT 10SM BKN200 BKN250 18/04 A3009 RMK AO2 SLP188 T01830044=
202012112052 METAR KATL 112052Z 20005KT 10SM FEW150 BKN200 BKN250 19/04 A3009 RMK AO2 SLP188 T01890044 56017=
202012111952 METAR KATL 111952Z 20005KT 10SM FEW003 BKN200 BKN250 19/04 A3010 RMK AO2 SLP192 FU FEW003 FU PLUME NE T01890039=
202012111949 SPECI KATL 111949Z 22006KT 10SM FEW003 BKN200 BKN250 19/04 A3010 RMK AO2 FU FEW003 FU PLUME NE=
202012111852 METAR KATL 111852Z 20005KT 10SM BKN200 BKN250 19/04 A3011 RMK AO2 SLP193 T01890044=
202012111752 METAR KATL 111752Z 15006KT 10SM FEW150 SCT200 BKN250 18/06 A3014 RMK AO2 SLP206 T01830056 10183 20067 58014=
202012111652 METAR KATL 111652Z 00000KT 10SM SCT200 BKN250 17/06 A3018 RMK AO2 SLP217 T01670061=
202012111552 METAR KATL 111552Z 00000KT 10SM FEW200 BKN250 14/06 A3019 RMK AO2 SLP225 T01390061=
202012111452 METAR KATL 111452Z 10003KT 10SM SCT250 12/06 A3019 RMK AO2 SLP223 T01170056 50005=
202012111352 METAR KATL 111352Z 08005KT 10SM FEW250 09/04 A3019 RMK AO2 SLP223 T00890044=
202012111252 METAR KATL 111252Z 08005KT 10SM FEW250 07/03 A3018 RMK AO2 SLP221 T00670033=
202012111152 METAR KATL 111152Z 09003KT 10SM FEW250 06/03 A3017 RMK AO2 SLP217 T00610028 10100 20050 53007=
202012111052 METAR KATL 111052Z 00000KT 10SM FEW250 06/03 A3016 RMK AO2 SLP213 T00610033=
202012110952 METAR KATL 110952Z 06003KT 10SM FEW250 07/04 A3015 RMK AO2 SLP210 T00720039=
202012110852 METAR KATL 110852Z 05003KT 10SM CLR 08/04 A3015 RMK AO2 SLP207 T00830039 53002=
202012110752 METAR KATL 110752Z 07003KT 10SM CLR 09/04 A3013 RMK AO2 SLP202 T00890039=
202012110652 METAR KATL 110652Z 07003KT 10SM CLR 10/04 A3014 RMK AO2 SLP203 T01000039=
202012110552 METAR KATL 110552Z 10003KT 10SM CLR 09/04 A3014 RMK AO2 SLP205 T00940039 10150 20089 58001=
202012110452 METAR KATL 110452Z 08004KT 10SM CLR 11/04 A3015 RMK AO2 SLP207 T01060039 402060044=
202012110352 METAR KATL 110352Z 00000KT 10SM CLR 12/04 A3015 RMK AO2 SLP209 T01170039=
202012110252 METAR KATL 110252Z 00000KT 10SM CLR 12/03 A3014 RMK AO2 SLP209 T01170028 50007=
202012110152 METAR KATL 110152Z 00000KT 10SM CLR 12/03 A3015 RMK AO2 SLP209 T01220033=
202012110052 METAR KATL 110052Z 00000KT 10SM CLR 13/03 A3014 RMK AO2 SLP209 T01280028=
202012102352 METAR KATL 102352Z 00000KT 10SM CLR 15/02 A3012 RMK AO2 SLP202 T01500022 10206 20139 51008=
202012102252 METAR KATL 102252Z 00000KT 10SM CLR 16/01 A3011 RMK AO2 SLP198 T01610011=
202012102152 METAR KATL 102152Z 00000KT 10SM CLR 19/01 A3011 RMK AO2 SLP196 T01890006=
202012102052 METAR KATL 102052Z 00000KT 10SM CLR 20/02 A3010 RMK AO2 SLP191 T02000022 55007=
202012101952 METAR KATL 101952Z 29003KT 10SM FEW200 20/02 A3009 RMK AO2 SLP189 T02000022=
202012101852 METAR KATL 101852Z 00000KT 10SM FEW200 19/02 A3010 RMK AO2 SLP192 T01940022=
202012101752 METAR KATL 101752Z 00000KT 10SM FEW250 19/03 A3012 RMK AO2 SLP199 T01890028 10189 20044 58006=
202012101652 METAR KATL 101652Z 00000KT 10SM FEW250 17/06 A3014 RMK AO2 SLP208 T01670056=
202012101552 METAR KATL 101552Z 34004KT 10SM FEW200 14/05 A3015 RMK AO2 SLP211 T01390050=
202012101452 METAR KATL 101452Z 32004KT 10SM FEW200 11/05 A3014 RMK AO2 SLP208 T01110050 51018=
202012101352 METAR KATL 101352Z 00000KT 10SM FEW250 09/04 A3013 RMK AO2 SLP204 T00890044=
202012101252 METAR KATL 101252Z 00000KT 10SM FEW250 05/03 A3010 RMK AO2 SLP198 T00500028=
202012101152 METAR KATL 101152Z 28003KT 10SM CLR 04/02 A3009 RMK AO2 SLP191 T00440022 10089 20044 53002=
202012101052 METAR KATL 101052Z 28003KT 10SM CLR 05/02 A3007 RMK AO2 SLP186 T00500022=
202012100952 METAR KATL 100952Z 27003KT 10SM CLR 06/03 A3008 RMK AO2 SLP186 T00610028=
202012100852 METAR KATL 100852Z 31004KT 10SM CLR 07/03 A3008 RMK AO2 SLP186 T00720028 50004=
202012100752 METAR KATL 100752Z 29004KT 10SM CLR 07/03 A3008 RMK AO2 SLP188 T00720028=
202012100652 METAR KATL 100652Z 25003KT 10SM CLR 08/03 A3008 RMK AO2 SLP185 T00780028=
202012100552 METAR KATL 100552Z 27004KT 10SM CLR 08/03 A3007 RMK AO2 SLP183 T00830028 10122 20072 56001=
202012100452 METAR KATL 100452Z 26004KT 10SM CLR 08/03 A3007 RMK AO2 SLP184 T00830028 401671011=
202012100352 METAR KATL 100352Z 00000KT 10SM CLR 08/03 A3007 RMK AO2 SLP184 T00830028=
202012100252 METAR KATL 100252Z 24004KT 10SM CLR 09/03 A3007 RMK AO2 SLP187 T00890028 50009=
202012100152 METAR KATL 100152Z 29003KT 10SM FEW250 10/03 A3007 RMK AO2 SLP189 T01000028=
202012100052 METAR KATL 100052Z 28005KT 10SM FEW250 11/02 A3006 RMK AO2 SLP185 T01060022=
202012092352 METAR KATL 092352Z 24005KT 10SM FEW250 12/02 A3004 RMK AO2 SLP178 T01220022 10167 20122 53007=
202012092252 METAR KATL 092252Z 24004KT 10SM FEW250 13/02 A3004 RMK AO2 SLP176 T01330022=
202012092152 METAR KATL 092152Z 27006KT 10SM FEW200 FEW250 15/02 A3003 RMK AO2 SLP172 T01500022=
202012092052 METAR KATL 092052Z 29009KT 10SM FEW200 SCT250 17/01 A3002 RMK AO2 SLP169 T01670011 56019=
202012091952 METAR KATL 091952Z 29008KT 10SM FEW200 SCT250 16/03 A3003 RMK AO2 SLP172 T01610028=
202012091852 METAR KATL 091852Z 29006KT 10SM FEW200 SCT250 15/03 A3005 RMK AO2 SLP180 T01500033=
202012091752 METAR KATL 091752Z 32010KT 10SM FEW150 SCT200 BKN250 13/03 A3008 RMK AO2 SLP190 T01330028 10133 20000 58017=
202012091652 METAR KATL 091652Z 30008KT 10SM FEW150 SCT200 BKN250 11/03 A3011 RMK AO2 SLP202 T01110028=
202012091552 METAR KATL 091552Z 28006KT 10SM FEW150 SCT200 BKN250 09/02 A3011 RMK AO2 SLP202 T00890017=
202012091452 METAR KATL 091452Z 31007KT 10SM FEW150 SCT200 BKN250 06/00 A3013 RMK AO2 SLP210 T00560000 51006=
202012091352 METAR KATL 091352Z 30006KT 10SM FEW150 BKN200 BKN250 03/M01 A3013 RMK AO2 SLP210 T00331011=
202012091252 METAR KATL 091252Z 30007KT 10SM SCT200 SCT250 01/M03 A3012 RMK AO2 SLP206 T00061028=
202012091152 METAR KATL 091152Z 31008KT 10SM FEW250 00/M03 A3011 RMK AO2 SLP205 T00001033 10011 21011 53004=
202012091052 METAR KATL 091052Z 30011KT 10SM FEW250 00/M03 A3011 RMK AO2 SLP203 T00001033=
202012090952 METAR KATL 090952Z 28006KT 10SM FEW250 M01/M04 A3010 RMK AO2 SLP200 T10111039=
202012090852 METAR KATL 090852Z 29007KT 10SM FEW250 M01/M04 A3010 RMK AO2 SLP199 T10061039 56006=
202012090752 METAR KATL 090752Z AUTO 30007KT 10SM FEW250 01/M04 A3010 RMK AO2 SLP199 T00061039=
202012090652 METAR KATL 090652Z 30008KT 10SM FEW250 01/M03 A3011 RMK AO2 SLP203 T00061033=
202012090552 METAR KATL 090552Z 30007KT 10SM SCT250 01/M03 A3012 RMK AO2 SLP205 T00111033 10050 20006 50002=
202012090452 METAR KATL 090452Z 30007KT 10SM FEW250 01/M03 A3012 RMK AO2 SLP207 T00111033 400941006=
202012090352 METAR KATL 090352Z 30006KT 10SM FEW250 02/M03 A3012 RMK AO2 SLP208 T00171028=
202012090252 METAR KATL 090252Z 30007KT 10SM FEW250 02/M03 A3011 RMK AO2 SLP205 T00221028 50005=
202012090152 METAR KATL 090152Z 31009KT 10SM FEW250 03/M03 A3012 RMK AO2 SLP206 T00331028=
202012090052 METAR KATL 090052Z 30004KT 10SM CLR 04/M03 A3012 RMK AO2 SLP208 T00391028=
202012082352 METAR KATL 082352Z 31007KT 10SM CLR 04/M03 A3010 RMK AO2 SLP199 T00441028 10094 20044 53010=
202012082252 METAR KATL 082252Z 33004KT 10SM CLR 06/M03 A3006 RMK AO2 SLP188 T00561033=
202012082152 METAR KATL 082152Z 33014KT 10SM CLR 08/M03 A3006 RMK AO2 SLP186 T00781033=
202012082052 METAR KATL 082052Z 31012G21KT 10SM CLR 09/M03 A3006 RMK AO2 SLP186 T00891033 53001=
202012081952 METAR KATL 081952Z 32011KT 10SM CLR 09/M03 A3005 RMK AO2 SLP181 T00891033=
202012081852 METAR KATL 081852Z 30014KT 10SM CLR 09/M04 A3005 RMK AO2 SLP180 T00891039=
202012081752 METAR KATL 081752Z 30013KT 10SM CLR 08/M04 A3006 RMK AO2 SLP186 T00781044 10078 21006 58014=
202012081652 METAR KATL 081652Z 32010KT 10SM CLR 06/M04 A3008 RMK AO2 SLP194 T00611044=
202012081552 METAR KATL 081552Z 33012KT 10SM CLR 04/M05 A3010 RMK AO2 SLP199 T00441050=
202012081452 METAR KATL 081452Z 33016G21KT 10SM CLR 03/M06 A3010 RMK AO2 SLP202 T00281056 53013=
202012081352 METAR KATL 081352Z 32017G22KT 10SM CLR 01/M06 A3009 RMK AO2 PK WND 33026/1336 SLP197 T00111056=
202012081252 METAR KATL 081252Z 33014KT 10SM CLR 00/M06 A3008 RMK AO2 SLP193 T00001056=
202012081152 METAR KATL 081152Z 32009G16KT 10SM CLR M01/M06 A3006 RMK AO2 SLP189 T10061056 10011 21006 53007=
202012081052 METAR KATL 081052Z 32010KT 10SM CLR M01/M06 A3005 RMK AO2 SLP183 T10061056=
202012080952 METAR KATL 080952Z 32012KT 10SM CLR 00/M06 A3004 RMK AO2 SLP181 T00001056=
202012080852 METAR KATL 080852Z 32011KT 10SM CLR 00/M05 A3004 RMK AO2 SLP180 T00001050 53004=
202012080752 METAR KATL 080752Z 33012KT 10SM CLR 01/M05 A3003 RMK AO2 SLP175 T00061050=
202012080652 METAR KATL 080652Z 32011KT 10SM CLR 01/M05 A3003 RMK AO2 SLP175 T00061050=
202012080452 METAR KATL 080452Z 32013KT 10SM FEW030 01/M05 A3002 RMK AO2 SLP171 T00111050 400940011=
202012080352 METAR KATL 080352Z 32011KT 10SM FEW030 02/M04 A3002 RMK AO2 SLP171 T00171044=
202012080252 METAR KATL 080252Z 33015KT 10SM FEW030 02/M04 A3000 RMK AO2 SLP163 T00221044 51010=
202012080152 METAR KATL 080152Z 34014G21KT 10SM SCT030 03/M04 A2999 RMK AO2 PK WND 33030/0108 SLP161 T00281039=
202012080052 METAR KATL 080052Z 33015G22KT 10SM BKN030 03/M03 A2998 RMK AO2 PK WND 33029/0013 SLP158 T00281033=
202012080016 SPECI KATL 080016Z 33013G29KT 10SM BKN030 03/M04 A2997 RMK AO2 PK WND 33029/0013 T00331039=
202012072352 METAR KATL 072352Z 32016G25KT 10SM BKN028 03/M03 A2997 RMK AO2 PK WND 33030/2304 SLP153 T00331033 10083 20033 51032=
202012072252 METAR KATL 072252Z 34019G29KT 10SM BKN030 03/M03 A2994 RMK AO2 PK WND 32032/2155 SLP145 T00331033=
202012072152 METAR KATL 072152Z 31021G28KT 10SM BKN032 04/M03 A2991 RMK AO2 PK WND 34030/2139 SLP134 T00441028=
202012072052 METAR KATL 072052Z 32015G24KT 10SM FEW029 BKN036 07/M01 A2987 RMK AO2 PK WND 30029/2017 SLP119 T00671011 53012=
202012072022 SPECI KATL 072022Z 31014G29KT 10SM SCT028 OVC036 07/M01 A2986 RMK AO2 PK WND 30029/2017 BINOVC T00671006=
202012071952 METAR KATL 071952Z 31017G24KT 10SM BKN028 OVC036 07/00 A2984 RMK AO2 PK WND 29026/1905 SLP109 BINOVC T00670000=
202012071931 SPECI KATL 071931Z 32018G26KT 9SM BKN026 OVC034 07/01 A2984 RMK AO2 PK WND 29026/1905 BINOVC T00720006=
202012071852 METAR KATL 071852Z 30018G22KT 9SM SCT029 OVC036 07/01 A2983 RMK AO2 SLP105 BINOVC T00720011=
202012071752 METAR KATL 071752Z 32012G22KT 9SM SCT028 OVC036 08/02 A2983 RMK AO2 SLP104 BINOVC T00780017 10089 20050 58002=
202012071727 SPECI KATL 071727Z 32015G22KT 9SM BKN030 OVC038 08/02 A2983 RMK AO2 BINOVC T00830017=
202012071652 METAR KATL 071652Z 33015G22KT 9SM BKN025 OVC033 08/02 A2984 RMK AO2 SLP107 BINOVC T00830022=
202012071552 METAR KATL 071552Z 32016G22KT 9SM BKN018 OVC024 08/03 A2984 RMK AO2 SLP108 BINOVC T00780033=
202012071452 METAR KATL 071452Z 30010KT 8SM BKN016 BKN024 BKN250 08/05 A2984 RMK AO2 SLP107 CIG 014V018 T00830050 51008=
202012071443 SPECI KATL 071443Z 30009KT 7SM BKN014 BKN022 BKN250 08/06 A2984 RMK AO2 CIG 012V016 T00830056=
202012071352 METAR KATL 071352Z 29009KT 6SM BR FEW007 FEW017 FEW200 07/05 A2983 RMK AO2 SLP104 T00670050=
202012071334 SPECI KATL 071334Z 28008KT 6SM BR FEW007 SCT017 06/04 A2983 RMK AO2 T00610044=
202012071252 METAR KATL 071252Z 29009KT 6SM BR FEW005 BKN018 BKN045 06/04 A2983 RMK AO2 SLP105 T00560044=
202012071152 METAR KATL 071152Z 29007KT 9SM FEW015 BKN045 05/04 A2981 RMK AO2 SLP098 70005 T00500039 10089 20050 53002=
202012071052 METAR KATL 071052Z 27006KT 10SM FEW060 SCT080 SCT200 06/04 A2981 RMK AO2 SLP095 T00560039=
202012070952 METAR KATL 070952Z 27006KT 10SM FEW060 FEW200 06/04 A2981 RMK AO2 SLP094 T00610044=
202012070852 METAR KATL 070852Z 25005KT 10SM FEW070 FEW200 07/04 A2981 RMK AO2 SLP095 T00670044 56014=
202012070752 METAR KATL 070752Z 24005KT 10SM FEW070 FEW150 FEW200 07/06 A2982 RMK AO2 SLP097 T00720056=
202012070652 METAR KATL 070652Z 25005KT 10SM FEW070 FEW150 FEW200 08/06 A2984 RMK AO2 SLP104 T00780061=
202012070552 METAR KATL 070552Z 24005KT 10SM SCT070 SCT080 BKN200 08/06 A2985 RMK AO2 SLP110 RAE33 P0000 60005 T00830061 10111 20083 58020=
202012070452 METAR KATL 070452Z 25005KT 10SM -RA BKN070 OVC080 09/07 A2989 RMK AO2 SLP122 PCPN VRY LGT P0000 T00940067 401440028=
202012070352 METAR KATL 070352Z 24005KT 10SM -RA BKN070 OVC080 09/07 A2990 RMK AO2 SLP126 RAB44 P0000 T00940072=
202012070252 METAR KATL 070252Z 27003KT 10SM BKN065 BKN085 BKN110 09/08 A2991 RMK AO2 RAE0153 SLP132 P0000 60005 T00940078 56002=
202012070152 METAR KATL 070152Z 30006KT 10SM -RA BKN070 BKN085 OVC110 10/08 A2991 RMK AO2 RAE18B41 SLP133 P0001 T01000078=
202012070052 METAR KATL 070052Z 00000KT 7SM -RA BKN075 OVC095 10/08 A2992 RMK AO2 SLP135 P0004 T01000078=
202012062352 METAR KATL 062352Z 00000KT 10SM -RA SCT055 BKN080 OVC110 11/06 A2992 RMK AO2 RAB27 SLP135 P0000 60000 T01110056 10144 20111 56007=
202012062252 METAR KATL 062252Z 00000KT 10SM SCT050 SCT090 BKN130 OVC250 12/05 A2992 RMK AO2 SLP135 BINOVC T01170050=
202012062152 METAR KATL 062152Z 27003KT 10SM SCT060 SCT095 BKN130 BKN180 12/05 A2993 RMK AO2 SLP138 T01220050=
202012062052 METAR KATL 062052Z 30007KT 10SM SCT060 SCT090 BKN140 BKN200 13/05 A2994 RMK AO2 SLP140 T01330050 55006=
202012061952 METAR KATL 061952Z 29005KT 10SM FEW060 SCT090 BKN150 BKN210 13/04 A2993 RMK AO2 SLP137 T01330039=
202012061852 METAR KATL 061852Z VRB03KT 10SM SCT090 BKN150 BKN210 13/04 A2993 RMK AO2 SLP139 T01280039=
202012061752 METAR KATL 061752Z 18004KT 10SM SCT090 BKN160 BKN250 12/03 A2996 RMK AO2 SLP147 T01170028 10117 20028 58021=
202012061652 METAR KATL 061652Z 19003KT 10SM SCT100 BKN180 BKN250 11/03 A3000 RMK AO2 SLP161 T01110033=
202012061552 METAR KATL 061552Z 31003KT 10SM SCT100 SCT180 BKN250 10/03 A3001 RMK AO2 SLP165 T01000033=
202012061452 METAR KATL 061452Z 00000KT 10SM SCT120 SCT200 BKN250 08/02 A3002 RMK AO2 SLP170 T00830022 58000=
202012061352 METAR KATL 061352Z 00000KT 10SM FEW120 SCT200 BKN250 06/03 A3002 RMK AO2 SLP172 T00560028=
202012061252 METAR KATL 061252Z 32006KT 10SM SCT200 BKN250 03/01 A3002 RMK AO2 SLP170 T00330011=
202012061152 METAR KATL 061152Z 29003KT 10SM FEW200 BKN250 03/01 A3002 RMK AO2 SLP171 T00330011 10056 20028 55004=
202012061052 METAR KATL 061052Z 31004KT 10SM SCT250 04/01 A3000 RMK AO2 SLP164 T00440011=
202012060952 METAR KATL 060952Z 28003KT 10SM BKN250 04/01 A3002 RMK AO2 SLP169 T00440011=
202012060852 METAR KATL 060852Z 30004KT 10SM BKN250 05/02 A3003 RMK AO2 SLP172 T00500017 56007=
202012060752 METAR KATL 060752Z 31004KT 10SM BKN250 05/02 A3004 RMK AO2 SLP173 T00500017=
202012060652 METAR KATL 060652Z 30006KT 10SM BKN250 04/02 A3004 RMK AO2 SLP176 T00440017=
202012060552 METAR KATL 060552Z 29006KT 10SM BKN250 06/02 A3006 RMK AO2 SLP181 T00560017 10094 20056 58007=
202012060452 METAR KATL 060452Z 30005KT 10SM FEW200 SCT250 06/02 A3006 RMK AO2 SLP183 T00560017 401390028=
202012060352 METAR KATL 060352Z 30005KT 10SM FEW200 SCT250 06/02 A3007 RMK AO2 SLP187 T00610022=
202012060252 METAR KATL 060252Z 27005KT 10SM FEW250 07/02 A3008 RMK AO2 SLP189 T00720022 53001=
202012060152 METAR KATL 060152Z 27005KT 10SM FEW250 07/02 A3007 RMK AO2 SLP186 T00720022=
202012060052 METAR KATL 060052Z 29004KT 10SM FEW250 08/02 A3007 RMK AO2 SLP188 T00830022=
202012052352 METAR KATL 052352Z 28004KT 10SM FEW250 09/02 A3007 RMK AO2 SLP189 T00890022 10139 20089 51009=
202012052252 METAR KATL 052252Z 28005KT 10SM FEW250 10/02 A3006 RMK AO2 SLP184 T01000022=
202012052152 METAR KATL 052152Z 31008KT 10SM FEW250 12/01 A3006 RMK AO2 SLP184 T01220011=
202012052052 METAR KATL 052052Z 33010KT 10SM CLR 13/02 A3005 RMK AO2 SLP178 T01330017 56019=
202012051952 METAR KATL 051952Z 32012KT 10SM CLR 14/01 A3006 RMK AO2 SLP183 T01390006=
202012051852 METAR KATL 051852Z 31014G19KT 10SM CLR 13/01 A3008 RMK AO2 SLP188 T01330006=
202012051752 METAR KATL 051752Z 32013G20KT 270V330 10SM CLR 12/01 A3010 RMK AO2 SLP197 T01220011 10122 20033 58014=
202012051652 METAR KATL 051652Z 30011G18KT 10SM CLR 11/02 A3014 RMK AO2 SLP210 T01060017=
202012051552 METAR KATL 051552Z 32011G18KT 10SM CLR 08/02 A3015 RMK AO2 SLP212 T00830022=
202012051452 METAR KATL 051452Z 32011G18KT 10SM FEW012 07/02 A3015 RMK AO2 SLP213 T00670022 53014=
202012051423 SPECI KATL 051423Z 29008KT 10SM FEW007 06/02 A3013 RMK AO2 T00560022=
202012051352 METAR KATL 051352Z 29008KT 10SM CLR 05/02 A3012 RMK AO2 SLP203 T00500017=
202012051252 METAR KATL 051252Z 31009KT 10SM CLR 03/01 A3010 RMK AO2 SLP199 T00330011=
202012051152 METAR KATL 051152Z 31006KT 10SM CLR 03/01 A3010 RMK AO2 SLP198 70012 T00330006 10050 20028 51007=
202012051052 METAR KATL 051052Z 30010KT 10SM CLR 04/01 A3010 RMK AO2 SLP195 T00390011=
202012050952 METAR KATL 050952Z 29008KT 10SM FEW025 03/01 A3009 RMK AO2 SLP191 T00330006 $=
202012050852 METAR KATL 050852Z 31010KT 10SM FEW025 04/01 A3008 RMK AO2 SLP189 T00390011 53002 $=
202012050752 METAR KATL 050752Z 31010KT 10SM FEW025 04/02 A3007 RMK AO2 SLP185 T00390017 $=
202012050652 METAR KATL 050652Z 32012KT 10SM FEW025 04/02 A3007 RMK AO2 SLP183 T00440017=
202012050552 METAR KATL 050552Z 32011KT 10SM CLR 05/02 A3008 RMK AO2 SLP186 T00500017 10094 20050 53002=
202012050452 METAR KATL 050452Z 31011KT 10SM FEW025 05/02 A3008 RMK AO2 SLP187 T00500017 401560050=
202012050352 METAR KATL 050352Z 30019G27KT 10SM FEW025 06/02 A3007 RMK AO2 PK WND 29027/0350 SLP184 T00560017=
202012050252 METAR KATL 050252Z 30014KT 10SM FEW025 06/02 A3007 RMK AO2 SLP185 T00610017 51025=
202012050152 METAR KATL 050152Z 30012G26KT 10SM FEW024 FEW030 07/02 A3005 RMK AO2 PK WND 30031/0101 SLP177 T00670017=
202012050052 METAR KATL 050052Z 30018G33KT 10SM FEW018 SCT025 BKN032 08/03 A3002 RMK AO2 PK WND 30036/0038 SLP169 T00780028=
202012042352 METAR KATL 042352Z 27014G28KT 10SM FEW008 SCT020 SCT035 09/06 A2999 RMK AO2 PK WND 31028/2333 SLP159 60012 T00940061 10156 20094 53021=
202012042252 METAR KATL 042252Z 28012KT 9SM SCT007 BKN015 BKN040 OVC150 12/11 A2996 RMK AO2 RAE51DZB2155E01 SLP145 SCT007 V BKN P0002 T01220106=
202012042152 METAR KATL 042152Z 27010KT 1 1/2SM -RA BR BKN005 OVC014 13/12 A2993 RMK AO2 SFC VIS 2 RAE01B37DZB01E37 SLP137 CIG 004V007 P0002 T01330122=
202012042137 SPECI KATL 042137Z 25008G17KT 1 1/2SM R09R/6000VP6000FT -RA BR BKN006 OVC012 13/12 A2993 RMK AO2 RAE01B37DZB01E37 CIG 005V008 P0000 T01330117 $=
202012042125 SPECI KATL 042125Z 24008KT 3SM -DZ BR BKN008 OVC015 13/12 A2992 RMK AO2 SFC VIS 4 RAE01DZB01 CIG 006V010 P0000 T01330117 $=
202012042052 METAR KATL 042052Z 28007KT 7SM -RA BKN007 OVC013 13/12 A2993 RMK AO2 SLP135 CIG 005V009 P0007 60008 T01330122 55021 $=
202012042003 SPECI KATL 042003Z 27009KT 4SM -RA BR BKN007 OVC012CB 14/13 A2993 RMK AO2 CB N MOV NE P0002 T01440128=
202012041952 METAR KATL 041952Z 27008KT 5SM -RA BR FEW007 OVC012CB 14/13 A2993 RMK AO2 RAB08 SLP135 CB E-S DSNT NE E MOV NE P0001 T01440128=
202012041942 SPECI KATL 041942Z 27009KT 6SM -RA BR OVC014CB 14/12 A2993 RMK AO2 RAB08 CB E-SE DSNT NE MOV NE P0001 T01440122=
202012041852 METAR KATL 041852Z 17011G16KT 10SM BKN014 BKN024 OVC036 16/11 A2993 RMK AO2 RAE11 SLP137 CIG 012V016 P0000 T01560111=
202012041820 SPECI KATL 041820Z 15006KT 10SM BKN014 BKN025 OVC036 14/11 A2996 RMK AO2 RAE11 CIG 012V016 P0000 T01390106=
202012041752 METAR KATL 041752Z 14007KT 9SM -RA OVC015 13/10 A2999 RMK AO2 RAB52 SLP157 PCPN VRY LGT P0000 60000 T01330100 10133 20083 58039=
202012041652 METAR KATL 041652Z 13007KT 10SM BKN018 BKN040 OVC070 13/09 A3005 RMK AO2 RAE1558 SLP176 P0000 T01280089=
202012041640 SPECI KATL 041640Z 12008KT 10SM BKN015 BKN021 OVC026 12/09 A3006 RMK AO2 RAE1558 P0000 T01220089=
202012041556 SPECI KATL 041556Z 13008KT 10SM -RA BKN012 OVC025 11/08 A3008 RMK AO2 P0000 T01110083=
202012041552 METAR KATL 041552Z 13008KT 8SM -RA SCT012 BKN025 OVC060 11/08 A3009 RMK AO2 RAB30 SLP189 P0000 T01110083=
202012041540 SPECI KATL 041540Z 13006KT 10SM -RA SCT013 BKN027 BKN070 OVC130 11/08 A3010 RMK AO2 RAB30 P0000 T01110083=
202012041512 SPECI KATL 041512Z 14007KT 10SM BKN014 BKN029 OVC100 11/07 A3011 RMK AO2 T01060072=
202012041452 METAR KATL 041452Z 13006KT 10SM FEW016 BKN028 OVC100 10/07 A3011 RMK AO2 RAB21E49 SLP198 P0000 60000 T01000067 58009=
202012041352 METAR KATL 041352Z 12007KT 10SM FEW012 BKN032 BKN110 OVC150 09/06 A3012 RMK AO2 SLP203 T00940056=
202012041312 SPECI KATL 041312Z 11007KT 10SM SCT015 BKN035 BKN095 OVC150 09/05 A3013 RMK AO2 T00890050=
202012041252 METAR KATL 041252Z 12006KT 10SM BKN015 BKN030 OVC100 08/04 A3013 RMK AO2 SLP206 T00830044=
202012041217 SPECI KATL 041217Z 12007KT 10SM SCT008 BKN015 OVC030 08/04 A3014 RMK AO2 T00830044=
202012041152 METAR KATL 041152Z 12007KT 10SM OVC008 08/04 A3014 RMK AO2 SLP208 BINOVC T00830044 10089 20067 55007=
202012041109 SPECI KATL 041109Z 11006KT 10SM OVC008 08/04 A3013 RMK AO2 T00830039=
202012041052 METAR KATL 041052Z 12004KT 10SM OVC010 08/04 A3014 RMK AO2 SLP207 BINOVC T00830039=
202012041050 SPECI KATL 041050Z 12005KT 10SM OVC010 08/04 A3014 RMK AO2=
202012040952 METAR KATL 040952Z 13006KT 10SM SCT027 BKN100 BKN250 07/03 A3014 RMK AO2 SLP209 T00720028=
202012040923 SPECI KATL 040923Z 12005KT 10SM SCT027 SCT110 BKN250 08/03 A3015 RMK AO2 T00780028=
202012040852 METAR KATL 040852Z 13005KT 10SM BKN027 BKN110 BKN250 07/03 A3016 RMK AO2 SLP215 T00720028 58015=
202012040833 SPECI KATL 040833Z 12005KT 10SM BKN027 BKN250 08/03 A3017 RMK AO2 T00780028=
202012040752 METAR KATL 040752Z 14004KT 10SM FEW025 SCT120 BKN250 07/02 A3018 RMK AO2 SLP222 T00720022=
202012040652 METAR KATL 040652Z 12004KT 10SM FEW025 SCT120 BKN250 08/02 A3019 RMK AO2 SLP224 T00780017=
202012040552 METAR KATL 040552Z 12004KT 10SM FEW025 BKN120 BKN250 09/02 A3021 RMK AO2 SLP230 T00890017 10106 20089 56012=
202012040452 METAR KATL 040452Z 14005KT 10SM FEW025 BKN110 BKN150 BKN250 09/01 A3022 RMK AO2 SLP233 T00940011 401390000=
202012040352 METAR KATL 040352Z 11006KT 10SM FEW025 BKN100 BKN130 OVC200 10/M01 A3023 RMK AO2 SLP240 T01001006=
202012040252 METAR KATL 040252Z 11005KT 10SM FEW095 BKN120 OVC150 11/M01 A3024 RMK AO2 SLP245 T01061011 55001=
202012040152 METAR KATL 040152Z 12005KT 10SM BKN100 BKN150 BKN250 11/00 A3024 RMK AO2 SLP245 T01060000=
202012040052 METAR KATL 040052Z 13003KT 10SM BKN110 BKN150 BKN250 11/M01 A3025 RMK AO2 SLP247 T01061011=
202012032352 METAR KATL 032352Z 15005KT 10SM BKN110 BKN150 BKN250 10/M02 A3025 RMK AO2 SLP248 T01001017 10139 20100 50002=
202012032252 METAR KATL 032252Z 14004KT 10SM SCT120 BKN150 BKN250 11/M02 A3025 RMK AO2 SLP248 T01061022=
202012032152 METAR KATL 032152Z 13006KT 10SM BKN110 BKN200 BKN250 12/M04 A3025 RMK AO2 SLP249 ACC DSNT NW T01221039=
202012032052 METAR KATL 032052Z 11006KT 10SM SCT110 BKN200 BKN250 13/M04 A3024 RMK AO2 SLP245 ACC DSNT NW T01281039 56021=
202012031952 METAR KATL 031952Z 14006KT 10SM SCT110 BKN200 BKN250 13/M05 A3025 RMK AO2 SLP248 ACC W-NW T01281050=
202012031852 METAR KATL 031852Z 14009KT 10SM FEW110 SCT200 SCT250 13/M06 A3028 RMK AO2 SLP256 ACC DSNT N NW T01281056=
202012031752 METAR KATL 031752Z 13004KT 10SM FEW100 SCT200 SCT250 13/M03 A3030 RMK AO2 SLP266 ACC DSNT NW-N T01281028 10128 20011 58016=
202012031652 METAR KATL 031652Z 12008KT 10SM SCT200 SCT250 12/M03 A3033 RMK AO2 SLP273 T01171028=
202012031552 METAR KATL 031552Z 14006KT 10SM SCT200 BKN250 09/M02 A3034 RMK AO2 SLP279 T00941017=
202012031452 METAR KATL 031452Z 13004KT 10SM FEW110 SCT200 BKN250 07/M01 A3035 RMK AO2 SLP283 T00671011 53010=
202012031352 METAR KATL 031352Z 11003KT 10SM FEW100 BKN250 04/M01 A3033 RMK AO2 SLP278 T00391011=
202012031252 METAR KATL 031252Z 09004KT 10SM FEW200 BKN250 02/M03 A3033 RMK AO2 SLP277 T00171028=
202012031152 METAR KATL 031152Z 08004KT 10SM SCT250 02/M03 A3032 RMK AO2 SLP275 T00171033 10028 20000 53007=
202012031052 METAR KATL 031052Z 10004KT 10SM SCT250 02/M03 A3031 RMK AO2 SLP269 T00221033=
202012030952 METAR KATL 030952Z 08004KT 10SM SCT250 01/M03 A3030 RMK AO2 SLP264 T00111033=
202012030852 METAR KATL 030852Z 00000KT 10SM SCT250 01/M04 A3030 RMK AO2 SLP265 T00061039 53004=
202012030752 METAR KATL 030752Z 03003KT 10SM SCT250 01/M03 A3029 RMK AO2 SLP261 T00061033=
202012030652 METAR KATL 030652Z 06003KT 10SM SCT250 03/M04 A3028 RMK AO2 SLP258 T00281039=
202012030552 METAR KATL 030552Z 00000KT 10SM SCT250 01/M04 A3029 RMK AO2 SLP261 T00111039 10072 20006 55010=
202012030452 METAR KATL 030452Z 00000KT 10SM FEW250 03/M04 A3028 RMK AO2 SLP257 T00281044 401221022=
202012030352 METAR KATL 030352Z 00000KT 10SM FEW250 04/M05 A3030 RMK AO2 SLP267 T00441050=
202012030252 METAR KATL 030252Z 34003KT 10SM FEW250 06/M06 A3032 RMK AO2 SLP272 T00561056 50004=
202012030152 METAR KATL 030152Z 33004KT 10SM FEW250 05/M05 A3032 RMK AO2 SLP273 T00501050=
202012030052 METAR KATL 030052Z 31005KT 10SM FEW250 06/M04 A3032 RMK AO2 SLP274 T00561044=
202012022352 METAR KATL 022352Z 30004KT 10SM FEW250 06/M04 A3030 RMK AO2 SLP269 T00611044 10122 20061 53004=
202012022252 METAR KATL 022252Z 34004KT 10SM FEW250 09/M06 A3029 RMK AO2 SLP265 T00891056=
202012022152 METAR KATL 022152Z 31005KT 10SM FEW200 11/M06 A3028 RMK AO2 SLP261 T01111061=
202012022052 METAR KATL 022052Z 33006KT 10SM FEW250 12/M07 A3029 RMK AO2 SLP262 T01221067 56008=
202012021952 METAR KATL 021952Z 31006KT 10SM FEW250 12/M07 A3029 RMK AO2 SLP263 T01221072=
202012021852 METAR KATL 021852Z 33007KT 10SM FEW250 12/M08 A3030 RMK AO2 SLP265 T01171083=
202012021752 METAR KATL 021752Z 34012KT 10SM FEW250 10/M09 A3032 RMK AO2 SLP272 T01001089 10106 21017 58011=
202012021652 METAR KATL 021652Z 33010KT 10SM SCT250 09/M08 A3034 RMK AO2 SLP280 T00891083=
202012021552 METAR KATL 021552Z 32009KT 10SM SCT250 06/M08 A3035 RMK AO2 SLP285 T00611078=
202012021452 METAR KATL 021452Z 32010KT 10SM SCT250 04/M06 A3035 RMK AO2 SLP285 T00391061 51020=
202012021352 METAR KATL 021352Z 32009KT 10SM FEW200 01/M06 A3034 RMK AO2 SLP283 T00111061=
202012021252 METAR KATL 021252Z 31009KT 10SM CLR M01/M06 A3032 RMK AO2 SLP277 T10111061=
202012021152 METAR KATL 021152Z 30009KT 10SM CLR M02/M06 A3029 RMK AO2 SLP267 T10171061 11006 21022 53023=
202012021052 METAR KATL 021052Z 28006KT 10SM CLR M02/M06 A3027 RMK AO2 SLP259 T10221061=
202012020952 METAR KATL 020952Z 33006KT 10SM CLR M02/M06 A3024 RMK AO2 SLP249 T10171061=
202012020852 METAR KATL 020852Z 35006KT 10SM CLR M01/M06 A3022 RMK AO2 SLP241 T10061061 56003=
202012020752 METAR KATL 020752Z 30006KT 10SM CLR M01/M06 A3023 RMK AO2 SLP245 T10111056=
202012020652 METAR KATL 020652Z 33007KT 10SM CLR M01/M06 A3022 RMK AO2 SLP240 T10061056=
202012020552 METAR KATL 020552Z 30006KT 10SM CLR M01/M06 A3023 RMK AO2 SLP244 T10061056 10028 21011 51007=
202012020452 METAR KATL 020452Z 33005KT 10SM CLR M01/M06 A3022 RMK AO2 SLP242 T10061056 400671017=
202012020352 METAR KATL 020352Z 29005KT 10SM CLR 00/M06 A3022 RMK AO2 SLP243 T00001056=
202012020252 METAR KATL 020252Z 29008KT 10SM CLR 01/M06 A3021 RMK AO2 SLP238 T00061056 51014=
202012020152 METAR KATL 020152Z 29008KT 10SM CLR 02/M06 A3020 RMK AO2 SLP235 T00171056=
202012020052 METAR KATL 020052Z 30008KT 10SM CLR 02/M06 A3018 RMK AO2 SLP231 T00221056=
202012012352 METAR KATL 012352Z 30009KT 10SM CLR 03/M06 A3016 RMK AO2 SLP224 T00281061 10067 20028 53016=
202012012252 METAR KATL 012252Z 29009KT 10SM CLR 04/M07 A3014 RMK AO2 SLP216 T00391067=
202012012152 METAR KATL 012152Z 28011KT 10SM CLR 05/M07 A3012 RMK AO2 SLP208 T00501067=
202012012052 METAR KATL 012052Z 30010KT 10SM FEW055 06/M07 A3012 RMK AO2 SLP206 T00611067 55003=
202012011952 METAR KATL 011952Z 28011G19KT 10SM FEW055 06/M06 A3010 RMK AO2 SLP201 T00611061=
202012011852 METAR KATL 011852Z 27011KT 10SM FEW050 06/M06 A3011 RMK AO2 SLP204 T00561061=
202012011752 METAR KATL 011752Z 31008G18KT 10SM FEW048 04/M07 A3013 RMK AO2 SLP209 T00441067 10044 21017 58006=
202012011652 METAR KATL 011652Z 29010KT 10SM FEW042 03/M07 A3015 RMK AO2 SLP216 T00331067=
202012011552 METAR KATL 011552Z 32015G26KT 10SM FEW034 02/M07 A3016 RMK AO2 PK WND 28027/1458 SLP220 T00221072=
202012011452 METAR KATL 011452Z 29014G24KT 10SM FEW032 SCT040 01/M06 A3014 RMK AO2 PK WND 31026/1441 SLP216 T00111061 51020=
202012011352 METAR KATL 011352Z 29013G18KT 10SM FEW015 FEW040 M01/M05 A3013 RMK AO2 SLP211 T10061050=
202012011252 METAR KATL 011252Z 28009KT 10SM FEW040 M02/M06 A3011 RMK AO2 SLP205 T10171056=
