##########################################################
# Query made at 04/20/2024 00:11:08 UTC
# Time interval: from 06/01/2020 12:00  to 06/30/2020 12:59  UTC
##########################################################

##########################################################
# KATL, Atlanta, Hartsfield - Jackson Atlanta International Airport (United States)
# WMO index: 72219. WIGOS ID: 0-20000-0-72219
# Latitude 33-38-59N. Longitude 084-25-00W. Altitude 312 m.
##########################################################

202006301252 METAR KATL 301252Z 30004KT 10SM BKN160 BKN200 24/19 A3003 RMK AO2 SLP158 T02390194=
202006301152 METAR KATL 301152Z 30006KT 10SM SCT150 SCT200 SCT250 24/19 A3002 RMK AO2 SLP154 T02390189 10244 20222 53010=
202006301052 METAR KATL 301052Z 30006KT 10SM FEW150 SCT200 SCT250 22/19 A3001 RMK AO2 SLP150 T02220189=
202006300952 METAR KATL 300952Z 26005KT 10SM SCT180 22/19 A2999 RMK AO2 SLP144 T02220189=
202006300852 METAR KATL 300852Z 30005KT 10SM BKN180 23/19 A2999 RMK AO2 SLP143 T02330189 55004=
202006300752 METAR KATL 300752Z 28006KT 10SM BKN180 23/19 A2998 RMK AO2 SLP141 T02330189=
202006300652 METAR KATL 300652Z 27005KT 10SM BKN150 BKN220 24/19 A2999 RMK AO2 SLP143 T02390189=
202006300552 METAR KATL 300552Z 31007KT 10SM BKN180 BKN220 24/19 A3000 RMK AO2 SLP148 T02440189 10311 20239 56012=
202006300452 METAR KATL 300452Z 31005KT 10SM SCT150 BKN200 BKN250 24/18 A3001 RMK AO2 SLP148 T02440183 403390228=
202006300352 METAR KATL 300352Z 29006KT 10SM FEW150 SCT200 BKN250 25/18 A3002 RMK AO2 SLP152 T02500183=
202006300252 METAR KATL 300252Z 26004KT 10SM FEW100 SCT150 BKN200 OVC250 26/18 A3004 RMK AO2 SLP159 T02560183 51016=
202006300152 METAR KATL 300152Z 30008KT 10SM FEW040 SCT150 BKN200 OVC250 26/19 A3002 RMK AO2 SLP155 LTG DSNT SE CB DSNT SE T02610189=
202006300052 METAR KATL 300052Z 32010KT 10SM FEW040TCU BKN150 BKN200 OVC250 28/19 A3001 RMK AO2 SLP150 LTG DSNT S-SW CB DSNT SE S-SW TCU SE-S T02780194=
202006292352 METAR KATL 292352Z 31009KT 10SM FEW045TCU SCT150 BKN200 BKN250 31/21 A2999 RMK AO2 LTG DSNT SW SLP143 CB DSNT E SW-W NW TCU S W-NW T03110206 10339 20306 50002=
202006292252 METAR KATL 292252Z 27007KT 10SM FEW050 SCT200 BKN250 32/21 A2999 RMK AO2 LTG DSNT NW SLP144 CB DSNT NW TCU NE-E T03170206=
202006292152 METAR KATL 292152Z 28006KT 10SM FEW055TCU SCT200 BKN250 33/21 A2999 RMK AO2 SLP144 TCU E DSNT NE S-SW T03330211=
202006292052 METAR KATL 292052Z 26003KT 10SM FEW055 FEW080 SCT200 BKN250 33/21 A2998 RMK AO2 SLP141 CB DSNT NW-NE T03330206 58021=
202006291952 METAR KATL 291952Z 32006KT 10SM FEW050 SCT075 SCT200 BKN250 33/19 A3000 RMK AO2 SLP148 CB DSNT SW NW TCU DSNT N SW W T03330189=
202006291852 METAR KATL 291852Z 27007KT 10SM FEW048 SCT070 SCT200 BKN250 33/20 A3003 RMK AO2 SLP157 CB DSNT NW-N TCU DSNT S W T03280200=
202006291752 METAR KATL 291752Z 32007KT 290V360 10SM FEW042 SCT065 SCT200 SCT250 33/21 A3005 RMK AO2 SLP162 TCU DSNT SW-NW-N MDT CU ALQDS T03280206 10328 20239 58008=
202006291652 METAR KATL 291652Z 31008G15KT 10SM SCT036 SCT055 SCT200 BKN250 32/21 A3006 RMK AO2 SLP166 TCU DSNT SE-S MDT CU ALQDS T03170206=
202006291552 METAR KATL 291552Z 30011G18KT 10SM SCT034TCU SCT055 SCT200 BKN250 31/21 A3007 RMK AO2 SLP170 TCU NE S-W-NW MDT CU ALQDS T03110211=
202006291452 METAR KATL 291452Z 30010G15KT 10SM SCT024 BKN032 BKN200 BKN250 29/22 A3007 RMK AO2 SLP171 MDT CU ALQDS T02940222 50005=
202006291352 METAR KATL 291352Z 32009KT 10SM FEW026 FEW200 SCT250 28/22 A3008 RMK AO2 SLP174 MDT CU NW-N T02780217=
202006291252 METAR KATL 291252Z 30010KT 10SM FEW034 FEW200 SCT250 26/21 A3007 RMK AO2 SLP172 MDT CU W T02610211=
202006291152 METAR KATL 291152Z 28007KT 10SM FEW038 FEW200 SCT250 24/21 A3006 RMK AO2 SLP167 T02390206 10244 20228 53017=
202006291052 METAR KATL 291052Z 27006KT 10SM FEW038 FEW150 SCT250 23/19 A3003 RMK AO2 SLP158 T02280194=
202006290952 METAR KATL 290952Z 27007KT 10SM SCT038 SCT150 23/19 A3002 RMK AO2 SLP153 T02330194=
202006290936 SPECI KATL 290936Z 26007KT 10SM SCT038 23/19 A3001 RMK AO2 T02330194=
202006290852 METAR KATL 290852Z 24005KT 10SM FEW150 23/19 A3000 RMK AO2 SLP148 T02330194 53001=
202006290752 METAR KATL 290752Z 24005KT 10SM FEW150 FEW200 23/19 A2999 RMK AO2 SLP143 T02330194=
202006290652 METAR KATL 290652Z 22004KT 10SM FEW200 FEW250 23/19 A2999 RMK AO2 SLP142 T02330194=
202006290552 METAR KATL 290552Z 24004KT 10SM FEW150 FEW200 24/19 A3000 RMK AO2 SLP148 T02440194 10300 20244 53012=
202006290452 METAR KATL 290452Z 27008KT 10SM FEW200 SCT250 26/19 A3001 RMK AO2 SLP149 T02560194 403220233=
202006290352 METAR KATL 290352Z 23009KT 10SM SCT200 BKN250 BKN300 27/20 A2995 RMK AO2 SLP130 T02670200=
202006290252 METAR KATL 290252Z 24011KT 10SM FEW040 SCT200 BKN250 28/20 A2996 RMK AO2 SLP134 T02780200 58001=
202006290152 METAR KATL 290152Z 25008KT 10SM FEW040 SCT200 BKN250 28/21 A2998 RMK AO2 SLP141 CB DSNT N AND S T02780206=
202006290052 METAR KATL 290052Z 26006KT 10SM FEW040 SCT200 BKN250 28/20 A2997 RMK AO2 SLP136 CB DSNT SW AND NW TCU DSNT E AND NW T02830200=
202006282352 METAR KATL 282352Z 26010KT 10SM SCT040 SCT070 SCT200 BKN250 30/20 A2997 RMK AO2 SLP137 CB DSNT N AND SW TCU DSNT N AND NE AND E T03000200 10322 20294 55001=
202006282252 METAR KATL 282252Z 26008G17KT 10SM SCT045 SCT200 BKN250 31/20 A2996 RMK AO2 SLP134 T03110200=
202006282152 METAR KATL 282152Z 26010KT 10SM SCT045TCU BKN250 31/21 A2997 RMK AO2 SLP135 TCU E AND S-SW AND DSNT W-NW T03110206=
202006282052 METAR KATL 282052Z 25009KT 10SM SCT046TCU BKN250 32/20 A2997 RMK AO2 SLP137 TCU ALQDS T03170200 58015 $=
202006281952 METAR KATL 281952Z 26010KT 10SM SCT047TCU BKN250 32/21 A2999 RMK AO2 SLP143 TCU SE-SW T03170206 $=
202006281852 METAR KATL 281852Z 27012G17KT 10SM SCT038TCU BKN250 32/21 A3001 RMK AO2 SLP150 TCU ALQDS T03170211 $=
202006281752 METAR KATL 281752Z 29011KT 10SM SCT038TCU BKN250 30/22 A3002 RMK AO2 SLP154 TCU ALQDS T03000217 10311 20244 58009 $=
202006281652 METAR KATL 281652Z 28009KT 10SM SCT030TCU BKN250 31/22 A3003 RMK AO2 SLP159 TCU ALQDS T03060222 $=
202006281552 METAR KATL 281552Z 26011G18KT 10SM SCT028TCU BKN250 29/22 A3005 RMK AO2 SLP164 TCU ALQDS T02890217 $=
202006281519 SPECI KATL 281519Z 28012G17KT 10SM SCT026 BKN250 28/23 A3004 RMK AO2 MDT CU ALQDS T02830228 $=
202006281452 METAR KATL 281452Z 28010KT 10SM BKN023 27/22 A3005 RMK AO2 SLP164 T02720222 50000 $=
202006281419 SPECI KATL 281419Z 28009KT 10SM BKN015 27/22 A3005 RMK AO2 T02670222 $=
202006281352 METAR KATL 281352Z 26012KT 10SM BKN013 26/22 A3005 RMK AO2 SLP166 T02610222 $=
202006281301 SPECI KATL 281301Z 27013KT 10SM BKN012 26/22 A3005 RMK AO2 T02560217 $=
202006281252 METAR KATL 281252Z 27013G18KT 10SM SCT013 SCT200 SCT250 26/22 A3004 RMK AO2 SLP164 T02560217 $=
202006281152 METAR KATL 281152Z 25006KT 10SM FEW130 FEW200 FEW250 24/22 A3004 RMK AO2 SLP165 ACC DSNT N 70017 T02440217 10244 20233 51006 $=
202006281052 METAR KATL 281052Z 26005KT 10SM FEW028 FEW200 SCT250 23/21 A3004 RMK AO2 SLP164 T02330211=
202006280952 METAR KATL 280952Z 26006KT 10SM FEW028 FEW130 BKN250 24/22 A3003 RMK AO2 SLP162 T02390217=
202006280852 METAR KATL 280852Z 24006KT 10SM FEW028 FEW130 BKN250 24/22 A3003 RMK AO2 SLP157 T02390217 55003=
202006280752 METAR KATL 280752Z 23003KT 10SM FEW028 SCT120 SCT200 23/22 A3002 RMK AO2 SLP154 T02330217=
202006280652 METAR KATL 280652Z 23004KT 10SM SCT150 BKN200 24/22 A3002 RMK AO2 SLP153 T02390217=
202006280552 METAR KATL 280552Z 23005KT 10SM BKN150 24/21 A3004 RMK AO2 SLP160 T02390211 10239 20228 58002=
202006280452 METAR KATL 280452Z 22005KT 10SM BKN140 BKN250 24/21 A3005 RMK AO2 SLP164 T02390211 403110200=
202006280352 METAR KATL 280352Z 24003KT 10SM BKN150 BKN250 23/21 A3005 RMK AO2 SLP166 T02330206=
202006280252 METAR KATL 280252Z 20004KT 10SM BKN150 BKN200 BKN250 23/20 A3004 RMK AO2 SLP164 T02280200 55005=
202006280152 METAR KATL 280152Z 20004KT 10SM BKN140 BKN200 BKN250 23/19 A3004 RMK AO2 SLP163 T02280194=
202006280052 METAR KATL 280052Z 19004KT 10SM BKN130 BKN200 BKN250 23/19 A3005 RMK AO2 SLP165 T02330189=
202006272352 METAR KATL 272352Z 26003KT 10SM FEW050 FEW080 BKN140 BKN200 BKN250 23/19 A3006 RMK AO2 SLP170 60017 T02280189 10311 20211 58007=
202006272252 METAR KATL 272252Z 29004KT 10SM FEW030 SCT060 SCT150 BKN180 BKN250 23/19 A3007 RMK AO2 RAE2158 SLP173 P0000 T02280194=
202006272152 METAR KATL 272152Z 34006KT 10SM -RA SCT030 SCT100 BKN140 BKN250 22/19 A3008 RMK AO2 PK WND 33035/2054 WSHFT 2043 LTG DSNT E SLP178 RAB2053 TSE38 CB DSNT NE-E TCU DSNT SE P0017 T02170194=
202006272149 SPECI KATL 272149Z 34008KT 10SM -RA SCT032 SCT100 BKN140 BKN250 22/19 A3008 RMK AO2 PK WND 33035/2054 WSHFT 2043 LTG DSNT NE AND E RAB2053 TSE38 CB DSNT NE-E P0017=
202006272141 SPECI KATL 272141Z 33011KT 7SM -RA SCT011 BKN026CB BKN100 BKN250 22/19 A3009 RMK AO2 PK WND 33035/2054 WSHFT 2043 LTG DSNT NE AND E RAB2053 TSE35 OCNL LTGIC VC E TS VC E MOV E CB DSNT NE-E P0017 T02170194=
202006272127 SPECI KATL 272127Z 32011KT 2SM R09R/5500VP6000FT TSRA BR SCT011 BKN030CB OVC100 21/19 A3009 RMK AO2 PK WND 33035/2054 WSHFT 2043 LTG DSNT NE AND E RAB2053 TSE26B27 OCNL LTGICCC OHD AND ALQDS TS OHD AND ALQDS MOV E P0017 T02110194=
202006272115 SPECI KATL 272115Z 32019G27KT 2 1/2SM R09R/5500VP6000FT +TSRA BR FEW011 BKN023CB BKN030 OVC250 22/19 A3011 RMK AO2 PK WND 33035/2054 WSHFT 2043 LTG DSNT N-E RAB2053 OCNL LTGICCC OHD AND ALQDS TS OHD AND ALQDS MOV E P0009 T02170194=
202006272101 SPECI KATL 272101Z 35021G35KT 5SM -TSRA BR SCT011 BKN030CB BKN040 OVC250 23/19 A3010 RMK AO2 PK WND 33035/2054 WSHFT 2043 LTG DSNT W-NE RAB2053 OCNL LTGICCG W-NE TS W-NE MOV E P0000 T02280189=
202006272052 METAR KATL 272052Z 33030G36KT 10SM TS SCT038CB BKN130 BKN250 27/19 A3010 RMK AO2 PK WND 32036/2049 LTG DSNT W-NE TSE33B46 SLP184 OCNL LTGICCG N-NE AND W-N TS N-NE & W-N MOV E T02670194 55010=
202006272037 SPECI KATL 272037Z 25010KT 230V290 10SM VCTS FEW038CB BKN130 BKN250 30/21 A3007 RMK AO2 LTG DSNT W-NE TSE33 OCNL LTGICCG W-N VCTS W-N MOV E T03000206=
202006271952 METAR KATL 271952Z 23009KT 10SM FEW035 BKN150 BKN250 30/21 A3007 RMK AO2 SLP173 T03000206=
202006271852 METAR KATL 271852Z 23010KT 10SM SCT033TCU BKN150 BKN250 29/21 A3009 RMK AO2 SLP181 TCU N T02940211=
202006271752 METAR KATL 271752Z 25010G17KT 7SM SCT028 BKN150 OVC200 28/21 A3013 RMK AO2 SLP193 BINOVC T02830211 10289 20217 56010=
202006271652 METAR KATL 271652Z 24009KT 7SM FEW150 OVC250 28/21 A3014 RMK AO2 SLP197 T02830206=
202006271552 METAR KATL 271552Z 24008KT 7SM OVC250 27/19 A3015 RMK AO2 SLP198 T02720194=
202006271452 METAR KATL 271452Z 25008KT 6SM DU FEW150 OVC250 26/18 A3016 RMK AO2 SLP204 BINOVC T02610178 58004=
202006271352 METAR KATL 271352Z 28005KT 6SM DU FEW150 BKN250 24/18 A3017 RMK AO2 SLP209 T02440178=
202006271252 METAR KATL 271252Z 28005KT 6SM HZ SCT150 BKN200 OVC250 23/17 A3017 RMK AO2 SLP208 BINOVC T02330172=
202006271152 METAR KATL 271152Z 28005KT 7SM FEW090 SCT150 OVC180 22/17 A3017 RMK AO2 SLP209 BINOVC T02170172 10217 20200 53010=
202006271052 METAR KATL 271052Z 30005KT 7SM FEW110 SCT150 OVC180 21/16 A3017 RMK AO2 SLP207 VIRGA OHD-NE T02110161=
202006270952 METAR KATL 270952Z 29005KT 7SM FEW110 SCT140 OVC180 21/16 A3015 RMK AO2 SLP200 T02060161=
202006270852 METAR KATL 270852Z 28004KT 7SM FEW110 BKN140 BKN180 20/17 A3014 RMK AO2 SLP199 T02000167 55005=
202006270752 METAR KATL 270752Z 31006KT 7SM FEW110 SCT150 BKN200 21/16 A3013 RMK AO2 SLP193 T02110161=
202006270652 METAR KATL 270652Z 26010KT 7SM CLR 22/16 A3014 RMK AO2 SLP198 T02170161=
202006270552 METAR KATL 270552Z 25006KT 7SM FEW140 SCT180 SCT250 21/16 A3016 RMK AO2 SLP203 T02110161 10244 20211 58010=
202006270452 METAR KATL 270452Z 26004KT 7SM FEW140 SCT180 BKN250 22/16 A3017 RMK AO2 SLP206 T02170161 403000200=
202006270352 METAR KATL 270352Z 24006KT 7SM SCT140 BKN180 BKN250 22/16 A3019 RMK AO2 SLP213 T02220161=
202006270252 METAR KATL 270252Z 23005KT 7SM SCT140 BKN180 BKN250 23/16 A3019 RMK AO2 SLP215 T02280156 55000=
202006270152 METAR KATL 270152Z 27008KT 7SM SCT140 BKN180 BKN250 23/16 A3018 RMK AO2 SLP212 T02280161=
202006270052 METAR KATL 270052Z 28007KT 7SM FEW032 FEW055 SCT140 BKN180 24/18 A3019 RMK AO2 SLP216 T02390183=
202006262352 METAR KATL 262352Z 28015G20KT 8SM FEW034 FEW050 SCT140 BKN200 24/18 A3019 RMK AO2 SLP216 T02440178 10300 20244 58002=
202006262252 METAR KATL 262252Z 28015G24KT 8SM FEW038 FEW055 SCT140 BKN200 27/18 A3020 RMK AO2 SLP217 T02670178=
202006262152 METAR KATL 262152Z 30012KT 8SM FEW040 SCT055 BKN140 BKN200 28/18 A3019 RMK AO2 SLP215 T02780183=
202006262052 METAR KATL 262052Z 29010KT 9SM FEW036 SCT055 BKN140 OVC200 28/19 A3020 RMK AO2 SLP217 T02830189 58005=
202006261952 METAR KATL 261952Z 31013KT 10SM SCT037 OVC200 28/19 A3022 RMK AO2 SLP223 T02830189=
202006261852 METAR KATL 261852Z 31012KT 10SM SCT038 SCT160 OVC200 28/19 A3022 RMK AO2 SLP224 T02830194=
202006261752 METAR KATL 261752Z 32012KT 10SM FEW036 FEW170 OVC250 29/19 A3021 RMK AO2 SLP221 T02940194 10294 20211 57005=
202006261652 METAR KATL 261652Z 30008KT 10SM FEW038 FEW150 OVC250 29/19 A3022 RMK AO2 SLP223 T02890189=
202006261552 METAR KATL 261552Z 31009KT 10SM FEW035 OVC250 27/18 A3022 RMK AO2 SLP224 T02720183=
202006261452 METAR KATL 261452Z 29006KT 10SM FEW250 OVC300 26/18 A3023 RMK AO2 SLP227 T02560183 50002=
202006261352 METAR KATL 261352Z 29007KT 10SM FEW200 OVC300 24/18 A3024 RMK AO2 SLP231 T02440178=
202006261252 METAR KATL 261252Z 28008KT 10SM FEW020 FEW180 BKN300 23/18 A3024 RMK AO2 SLP233 T02280178=
202006261152 METAR KATL 261152Z 27005KT 10SM FEW110 FEW180 BKN300 21/18 A3022 RMK AO2 SLP225 70024 T02110178 10217 20200 53015=
202006261052 METAR KATL 261052Z 00000KT 10SM SCT110 BKN180 BKN300 21/18 A3021 RMK AO2 SLP220 T02060178=
202006260952 METAR KATL 260952Z 25003KT 10SM FEW070 BKN170 BKN250 21/18 A3018 RMK AO2 SLP212 T02060178=
202006260852 METAR KATL 260852Z 22006KT 10SM SCT070 SCT250 21/18 A3018 RMK AO2 SLP211 T02060178 55004=
202006260752 METAR KATL 260752Z 29007KT 10SM FEW070 SCT250 21/18 A3016 RMK AO2 SLP203 T02060183=
202006260652 METAR KATL 260652Z 25007KT 10SM SCT070 SCT130 BKN250 21/18 A3017 RMK AO2 SLP206 T02110183=
202006260552 METAR KATL 260552Z 24008KT 10SM FEW060 BKN120 BKN250 21/18 A3019 RMK AO2 PK WND 29033/0501 RAB0457E17 SLP214 P0004 60004 T02110183 10250 20211 50012=
202006260452 METAR KATL 260452Z 25010G16KT 10SM FEW007 SCT015CB BKN060 OVC200 24/22 A3019 RMK AO2 SLP214 CB SW-NW MOV E T02390217 402830206=
202006260352 METAR KATL 260352Z 24006KT 10SM FEW007 SCT015 BKN200 BKN250 23/22 A3016 RMK AO2 SLP205 T02330217=
202006260252 METAR KATL 260252Z 23003KT 10SM FEW090 SCT200 BKN250 23/21 A3015 RMK AO2 SLP202 T02330211 51013=
202006260152 METAR KATL 260152Z 22006KT 10SM FEW090 SCT200 BKN250 24/22 A3014 RMK AO2 SLP197 T02390217=
202006260052 METAR KATL 260052Z 22005KT 10SM FEW020 FEW090 SCT200 BKN250 24/21 A3013 RMK AO2 SLP193 T02440211=
202006252352 METAR KATL 252352Z 23006KT 10SM FEW020 SCT100 BKN200 BKN250 25/21 A3011 RMK AO2 SLP188 60019 T02500211 10283 20239 55002=
202006252252 METAR KATL 252252Z 22005KT 10SM FEW025TCU SCT090 BKN200 BKN250 26/21 A3011 RMK AO2 SLP187 TCU SW T02610211=
202006252152 METAR KATL 252152Z VRB05KT 10SM FEW030 SCT060 BKN140 BKN200 26/21 A3010 RMK AO2 SLP185 TCU DSNT NE T02610211=
202006252052 METAR KATL 252052Z 20004KT 10SM SCT033 BKN075 BKN110 OVC200 25/22 A3012 RMK AO2 RAB02E50 TSB1956E18 SLP190 TS DSIPTD CB DSNT E-SE SW P0018 60019 T02500222 55005=
202006252018 SPECI KATL 252018Z 21005KT 6SM R09R/4500VP6000FT -RA SCT026CB BKN060 BKN100 BKN200 24/21 A3012 RMK AO2 LTG DSNT E AND SE RAB02 TSB1956E18 TS DSIPTD CB SE-OHD-NW MOV SE CB DSNT E-SE SW P0008 T02440211=
202006252012 SPECI KATL 252012Z 23006KT 4SM R09R/4000VP6000FT +TSRA SCT028CB BKN070 BKN110 BKN200 24/21 A3012 RMK AO2 LTG DSNT SE RAB02 TSB1956 OCNL LTGICCA SE-OHD-NW TS SE-OHD-NW MOV SE CB DSNT SE P0007 T02440206=
202006251958 SPECI KATL 251958Z 25005KT 10SM TS SCT028CB BKN070 BKN110 BKN200 27/21 A3012 RMK AO2 LTG DSNT SE TSB56 OCNL LTGICCGCA SE-S TS SE-S MOV SE TCU SW-W SHRA SE-SW T02720206=
202006251952 METAR KATL 251952Z 26006KT 10SM SCT030CB BKN065 BKN100 BKN200 27/21 A3011 RMK AO2 LTG DSNT SE RAB03E38 SLP188 CB SE-S MOV SE CB DSNT SE-SW TCU SW-W SHRA SE-SW P0001 T02720211=
202006251852 METAR KATL 251852Z 33005KT 10SM SCT028TCU BKN048 BKN110 BKN200 27/20 A3011 RMK AO2 LTG DSNT S AND SW SLP188 CB DSNT SE-SW TCU W NW-N T02720200=
202006251752 METAR KATL 251752Z 28006KT 10SM SCT027TCU SCT050 BKN140 BKN200 27/19 A3013 RMK AO2 SLP195 TCU N S DSNT ALQDS SHRA N 60001 T02670194 10278 20217 50001=
202006251652 METAR KATL 251652Z 26006KT 10SM SCT024 BKN040 BKN140 BKN200 26/20 A3014 RMK AO2 SLP198 T02610200=
202006251634 SPECI KATL 251634Z 27007KT 10SM SCT022 BKN036 BKN140 BKN200 26/19 A3014 RMK AO2 T02560194=
202006251552 METAR KATL 251552Z 30006KT 10SM BKN018 OVC032 25/20 A3014 RMK AO2 RAE03 SLP197 CIG 016V020 BINOVC P0000 T02500200=
202006251452 METAR KATL 251452Z 29009KT 8SM -RA SCT010 BKN016 OVC032 23/21 A3013 RMK AO2 RAE1357B38DZB09E20 SLP195 CIG 014V018 P0000 60001 T02330206 51021=
202006251415 SPECI KATL 251415Z 30007KT 8SM -DZ FEW008 BKN016 OVC026 23/21 A3012 RMK AO2 RAE1357DZB09 CIG 014V018 BINOVC P0000 T02330206=
202006251352 METAR KATL 251352Z 29008KT 6SM -RA BR SCT008 BKN012 OVC022 22/21 A3011 RMK AO2 DZB20E30RAB30 SLP189 CIG 010V014 P0001 T02220206=
202006251252 METAR KATL 251252Z 27007KT 10SM SCT008 BKN020 BKN030 OVC250 22/20 A3009 RMK AO2 SLP182 T02220200=
202006251152 METAR KATL 251152Z 27006KT 10SM FEW007 BKN024 BKN250 22/20 A3007 RMK AO2 SLP173 60002 70023 T02170200 10217 20211 51023=
202006251052 METAR KATL 251052Z 28006KT 10SM SCT007 BKN024 BKN030 BKN250 21/19 A3005 RMK AO2 SLP167 T02110194=
202006250952 METAR KATL 250952Z 27006KT 10SM BKN008 BKN030 BKN250 21/19 A3002 RMK AO2 SLP156 CIG 006V010 T02110194=
202006250852 METAR KATL 250852Z 27007KT 7SM OVC007 21/19 A3000 RMK AO2 RAE0756 SLP148 CIG 004V010 P0000 60002 T02110194 55003=
202006250752 METAR KATL 250752Z 23006KT 3SM -RA BR BKN008 BKN015 OVC030 21/19 A2999 RMK AO2 RAB24 SLP146 P0002 T02110194=
202006250652 METAR KATL 250652Z 22009KT 10SM OVC008 21/19 A3000 RMK AO2 RAE07DZB07E45 SLP149 CIG 006V010 P0000 T02110194=
202006250552 METAR KATL 250552Z 15004KT 5SM -RA BR BKN007 BKN012 OVC025 21/19 A3001 RMK AO2 SLP151 CIG 005V009 P0001 60019 T02110194 10233 20206 50003=
202006250550 SPECI KATL 250550Z 15004KT 5SM -RA BR BKN007 BKN012 OVC025 21/19 A3001 RMK AO2 CIG 005V009 P0001=
202006250511 SPECI KATL 250511Z 16006KT 10SM -RA SCT008 BKN028 OVC060 21/19 A3001 RMK AO2 CIG 005V011 SCT008 V BKN P0000 T02110189=
202006250452 METAR KATL 250452Z 18006KT 8SM -RA SCT006 BKN030 OVC060 21/19 A3002 RMK AO2 SLP155 SCT006 V BKN P0013 T02110194 402830206=
202006250422 SPECI KATL 250422Z 17004KT 4SM -RA BR SCT004 BKN030 OVC060 21/19 A3002 RMK AO2 P0012 T02110189=
202006250411 SPECI KATL 250411Z 17010G15KT 2 1/2SM RA BR SCT004 BKN025 OVC060 22/20 A3002 RMK AO2 P0004 T02170200=
202006250352 METAR KATL 250352Z 13003KT 9SM -RA BKN050 BKN070 OVC110 22/20 A3000 RMK AO2 SLP151 P0002 T02170200=
202006250252 METAR KATL 250252Z 00000KT 10SM -RA FEW070 BKN100 OVC150 22/19 A3000 RMK AO2 RAE07B50 SLP148 P0000 60003 T02220194 58008=
202006250152 METAR KATL 250152Z 00000KT 10SM -RA SCT075 BKN110 OVC150 22/19 A3000 RMK AO2 SLP149 P0002 T02220189=
202006250052 METAR KATL 250052Z 25005KT 9SM -RA FEW015 SCT070 BKN100 OVC150 23/19 A3003 RMK AO2 SLP161 P0001 T02280194=
202006242352 METAR KATL 242352Z 25005KT 7SM -RA FEW020 BKN080 OVC150 23/21 A3002 RMK AO2 SLP158 P0001 60002 T02330206 10283 20233 53009=
202006242252 METAR KATL 242252Z 26007KT 10SM -RA FEW020 BKN100 OVC150 24/20 A3001 RMK AO2 SLP154 TCU DSNT NW-NE P0000 T02440200=
202006242152 METAR KATL 242152Z 27010KT 10SM -RA FEW020 BKN120 OVC200 25/20 A3000 RMK AO2 RAB2054 SLP150 CB DSNT NW-N TCU DSNT E P0001 T02500200=
202006242052 METAR KATL 242052Z 27009KT 10SM FEW028TCU SCT065 BKN120 OVC200 27/20 A2999 RMK AO2 SLP148 VIRGA S-W-NW CB DSNT E TCU W T02670200 58001=
202006241952 METAR KATL 241952Z 23008KT 10SM FEW032TCU SCT050 SCT120 OVC200 28/19 A3000 RMK AO2 SLP148 TCU NE SHRA NE T02780194=
202006241852 METAR KATL 241852Z 28010KT 10SM SCT034TCU SCT100 BKN140 BKN200 28/19 A3000 RMK AO2 SLP149 CB DSNT N-NE NW TCU NW-NE DSNT NE-SE T02780194=
202006241752 METAR KATL 241752Z 29006KT 10SM SCT032 SCT100 BKN140 BKN200 28/19 A3000 RMK AO2 LTG DSNT N AND NW SLP147 CB DSNT NW-N T02830194 10283 20222 50001=
202006241652 METAR KATL 241652Z 26009G15KT 10SM FEW034 SCT090 BKN140 BKN200 27/19 A3001 RMK AO2 SLP150 CB DSNT NW TCU DSNT W T02720194=
202006241552 METAR KATL 241552Z 27007KT 10SM FEW026 FEW075 BKN120 BKN200 27/20 A3001 RMK AO2 SLP150 ACC NE-E SE-SW T02670200=
202006241452 METAR KATL 241452Z 28007KT 10SM FEW024 FEW075 BKN140 BKN200 25/19 A3000 RMK AO2 SLP148 ACC SW-NW-N T02500189 50006=
202006241352 METAR KATL 241352Z 26008KT 10SM FEW024 SCT070 BKN130 BKN200 24/19 A3000 RMK AO2 SLP149 ACC W-N-NE T02390189=
202006241252 METAR KATL 241252Z 26010KT 10SM FEW022 FEW065 SCT090 BKN200 BKN250 24/18 A3000 RMK AO2 SLP147 T02390183=
202006241152 METAR KATL 241152Z 30008KT 10SM FEW015 SCT090 SCT180 BKN230 22/18 A2998 RMK AO2 SLP141 70002 T02220183 10233 20206 53011=
202006241052 METAR KATL 241052Z 32009KT 10SM FEW012 BKN200 BKN250 21/18 A2996 RMK AO2 SLP134 T02110183=
202006240952 METAR KATL 240952Z 30009KT 10SM FEW040 SCT180 BKN220 BKN250 21/18 A2995 RMK AO2 SLP131 T02060183=
202006240852 METAR KATL 240852Z 27007KT 10SM SCT180 BKN220 BKN250 21/18 A2995 RMK AO2 SLP130 T02110183 58004=
202006240752 METAR KATL 240752Z 27008KT 10SM FEW140 BKN180 BKN220 22/18 A2995 RMK AO2 SLP133 T02170183=
202006240652 METAR KATL 240652Z 26010KT 10SM FEW140 SCT170 BKN220 22/18 A2996 RMK AO2 SLP134 T02220183=
202006240552 METAR KATL 240552Z 26010KT 10SM SCT140 BKN180 BKN250 23/19 A2996 RMK AO2 SLP134 T02330189 10283 20233 51008=
202006240452 METAR KATL 240452Z 27009KT 10SM FEW130 BKN200 OVC250 24/19 A2995 RMK AO2 SLP133 T02390194 403000211=
202006240352 METAR KATL 240352Z 27009KT 10SM SCT150 BKN200 OVC250 25/20 A2995 RMK AO2 SLP131 T02500200=
202006240252 METAR KATL 240252Z 28008KT 10SM SCT150 BKN200 BKN250 26/20 A2993 RMK AO2 SLP126 T02560200 53014=
202006240152 METAR KATL 240152Z 24005KT 10SM FEW040 SCT150 BKN200 BKN250 27/20 A2991 RMK AO2 SLP118 T02670200=
202006240052 METAR KATL 240052Z 24008KT 10SM FEW040 SCT200 BKN250 27/20 A2991 RMK AO2 SLP117 T02720200=
202006232352 METAR KATL 232352Z 26010KT 10SM FEW040 SCT250 28/20 A2989 RMK AO2 SLP111 60002 T02830200 10300 20250 53004=
202006232252 METAR KATL 232252Z 25012KT 10SM SCT040 SCT250 29/20 A2987 RMK AO2 SLP105 MDT CU OHD-NE T02890200=
202006232152 METAR KATL 232152Z 26009KT 10SM SCT035 BKN250 29/20 A2988 RMK AO2 SLP107 T02890200=
202006232052 METAR KATL 232052Z 27013KT 10SM FEW034TCU SCT046 SCT100 BKN250 29/21 A2988 RMK AO2 SLP106 TCU NE NW DSNT N-E SE 60002 T02940206 55016=
202006231952 METAR KATL 231952Z 27011G17KT 10SM FEW032TCU SCT042 SCT100 BKN200 29/21 A2988 RMK AO2 SLP106 CB DSNT SE TCU N-NE NW SHRA N T02890211=
202006231852 METAR KATL 231852Z 27012G20KT 10SM SCT020TCU SCT038 BKN100 BKN200 28/21 A2990 RMK AO2 RAB1753E10 SLP116 TCU NE SE-SW P0002 T02780211=
202006231752 METAR KATL 231752Z 25012G21KT 7SM SCT024TCU BKN045 BKN120 BKN200 27/21 A2993 RMK AO2 SLP124 TCU SW-NW DSNT SE SHRA SW-NW 60000 T02670206 10272 20228 58012=
202006231652 METAR KATL 231652Z 25013G18KT 10SM SCT024 BKN032 BKN070 OVC140 27/20 A2995 RMK AO2 SLP133 MDT CU OHD-ALQDS T02670200=
202006231552 METAR KATL 231552Z 24013G16KT 10SM SCT024 BKN038 BKN140 BKN200 26/20 A2996 RMK AO2 RAB15E25 SLP136 TCU DSNT S-SW NW P0000 T02560200=
202006231546 SPECI KATL 231546Z 24010KT 10SM SCT024 BKN040 BKN140 BKN200 26/20 A2996 RMK AO2 RAB15E25 TCU DSNT S-SW NW P0000=
202006231452 METAR KATL 231452Z 23009G18KT 10SM BKN018 OVC032 25/20 A2996 RMK AO2 SLP136 CIG 016V020 60000 T02500200 58002=
202006231352 METAR KATL 231352Z 22010KT 10SM BKN016 OVC032 24/20 A2997 RMK AO2 RAB19E31 SLP138 CIG 014V018 BINOVC P0000 T02390200=
202006231252 METAR KATL 231252Z 21008KT 10SM FEW009 OVC012 23/20 A2996 RMK AO2 SLP138 CIG 011V015 T02280200=
202006231152 METAR KATL 231152Z 22007KT 10SM SCT009 BKN012 OVC019 23/20 A2997 RMK AO2 SLP139 CIG 011V015 70010 T02280200 10228 20217 51005=
202006231106 SPECI KATL 231106Z 23008KT 10SM SCT009 BKN012 OVC017 23/20 A2997 RMK AO2 T02280200=
202006231052 METAR KATL 231052Z 24009KT 10SM BKN009 BKN012 OVC017 22/20 A2996 RMK AO2 SLP139 BKN009 V SCT T02220200=
202006231025 SPECI KATL 231025Z 23008KT 10SM BKN009 OVC012 22/20 A2996 RMK AO2 T02220200=
202006231013 SPECI KATL 231013Z 23006KT 10SM FEW009 OVC012 22/20 A2996 RMK AO2 T02220200=
202006230952 METAR KATL 230952Z 22006KT 10SM BKN008 OVC013 22/20 A2995 RMK AO2 SLP133 CIG 007V010 T02220200=
202006230852 METAR KATL 230852Z 23008KT 10SM BKN007 OVC012 22/20 A2995 RMK AO2 SLP132 CIG 006V009 T02220200 56013=
202006230752 METAR KATL 230752Z 22005KT 10SM BKN006 OVC012 22/20 A2996 RMK AO2 SLP135 CIG 005V009 T02170200=
202006230652 METAR KATL 230652Z 22008KT 10SM BKN009 OVC013 22/19 A2998 RMK AO2 SLP141 T02170194=
202006230604 METAR KATL 230604Z 21006KT 10SM BKN009 OVC090 22/19 A2999 RMK AO2 SLP145 CIG 007V010 60000 T02170194 10228 20211 55006=
202006230548 SPECI KATL 230548Z 21006KT 10SM BKN009 OVC090 21/19 A2999 RMK AO2=
202006230452 METAR KATL 230452Z 21006KT 10SM FEW090 BKN130 OVC250 22/19 A3001 RMK AO2 SLP151 T02170194 403060206=
202006230352 METAR KATL 230352Z 21005KT 10SM FEW090 BKN120 OVC200 22/19 A3003 RMK AO2 SLP158 T02170194=
202006230255 SPECI KATL 230255Z 20005KT 10SM BKN130 BKN200 BKN250 22/19 A3003 RMK AO2 T02170194=
202006230252 METAR KATL 230252Z 20004KT 10SM BKN013 BKN200 BKN250 22/19 A3003 RMK AO2 SLP157 60000 T02170194 55006=
202006230152 METAR KATL 230152Z 22005KT 10SM BKN140 BKN200 BKN250 22/20 A3002 RMK AO2 SLP156 T02220200=
202006230052 METAR KATL 230052Z 18004KT 10SM SCT110 BKN150 BKN200 23/20 A3002 RMK AO2 RAB41E51 SLP159 P0000 T02280200=
202006222352 METAR KATL 222352Z 15003KT 10SM FEW014 SCT120 BKN150 OVC200 23/19 A3004 RMK AO2 SLP165 60010 T02280194 10306 20228 53011=
202006222252 METAR KATL 222252Z 25007KT 10SM FEW030 SCT100 BKN150CB OVC200 23/19 A3002 RMK AO2 PK WND 23030/2154 SLP158 RAB2156E26 TSB2155E51 LTG DSNT NW-NE E-SE TS MOVD NE CBMAM SW-W P0007 T02280194=
202006222157 SPECI KATL 222157Z 23016G30KT 9SM -TSRA SCT035CB BKN050 BKN150 BKN250 26/18 A3001 RMK AO2 PK WND 23030/2154 RAB56 TSB55 OCNL LTGICCG SW-NW TS SW-NW MOV NE P0000 T02610183=
202006222152 METAR KATL 222152Z 23014G25KT 10SM SCT040CB BKN150 BKN200 BKN250 29/20 A3000 RMK AO2 LTG DSNT ALQDS SLP149 CB S-SW DSNT SE SW-NW MOV NE T02890200=
202006222052 METAR KATL 222052Z 00000KT 10SM FEW038 SCT140 BKN190 BKN250 29/22 A3001 RMK AO2 LTG DSNT N AND NE AND SW SLP152 CB DSNT NE AND SW 60003 T02890217 56010=
202006222025 SPECI KATL 222025Z 30007KT 10SM FEW038 SCT120 BKN150 BKN250 27/20 A3002 RMK AO2 LTG DSNT NE AND S AND SW CB DSNT NE AND S AND NW T02670200=
202006221952 METAR KATL 221952Z 24007KT 10SM VCTS FEW020 SCT038CB BKN060 BKN150 BKN250 26/21 A3002 RMK AO2 PK WND 17034/1924 LTG DSNT NE AND E RAB24E44 TSB46E48 SLP157 P0003 T02610211=
202006221852 METAR KATL 221852Z 19009KT 10SM SCT040TCU BKN110 BKN160 BKN250 29/19 A3002 RMK AO2 LTG DSNT NE AND S SLP155 TCU OHD AND ALQDS CB DSNT S-SW T02940194=
202006221752 METAR KATL 221752Z 20009KT 10SM SCT042TCU BKN100 BKN150 BKN250 29/19 A3004 RMK AO2 LTG DSNT N AND S SLP162 TCU ALQDS SHRA SE AND DSNT N CB DSNT N AND S T02940194 10306 20217 58012=
202006221652 METAR KATL 221652Z 24008KT 10SM SCT038TCU SCT100 BKN250 31/20 A3007 RMK AO2 LTG DSNT W SLP170 TCU ALQDS CB DSNT W T03060200=
202006221552 METAR KATL 221552Z VRB06KT 10SM FEW030TCU SCT250 29/21 A3008 RMK AO2 SLP176 TCU OHD-NE T02890206=
202006221452 METAR KATL 221452Z 26003KT 10SM SCT250 28/21 A3008 RMK AO2 SLP174 T02780211 51005=
202006221352 METAR KATL 221352Z 00000KT 10SM FEW020 SCT250 26/21 A3007 RMK AO2 SLP175 T02560206=
202006221252 METAR KATL 221252Z 20004KT 9SM FEW120 FEW250 23/19 A3007 RMK AO2 SLP175 T02280194=
202006221152 METAR KATL 221152Z 00000KT 10SM FEW120 SCT250 22/19 A3006 RMK AO2 SLP172 70002 T02170189 10217 20206 53002=
202006221052 METAR KATL 221052Z 00000KT 10SM FEW120 SCT250 21/18 A3006 RMK AO2 SLP171 T02110183=
202006220952 METAR KATL 220952Z 00000KT 10SM FEW040 FEW120 FEW250 21/18 A3005 RMK AO2 SLP166 T02110183=
202006220852 METAR KATL 220852Z 23003KT 9SM FEW040 FEW120 BKN250 21/18 A3005 RMK AO2 SLP166 T02060183 53003=
202006220752 METAR KATL 220752Z 00000KT 9SM FEW150 BKN250 21/19 A3004 RMK AO2 SLP162 T02060189 $=
202006220652 METAR KATL 220652Z 00000KT 9SM FEW150 SCT250 21/19 A3003 RMK AO2 SLP159 T02060189 $=
202006220552 METAR KATL 220552Z 00000KT 9SM FEW070 FEW250 21/19 A3004 RMK AO2 SLP163 T02110189 10217 20206 50004 $=
202006220452 METAR KATL 220452Z 00000KT 9SM FEW040 SCT070 BKN250 21/19 A3006 RMK AO2 SLP168 T02110189 403220211 $=
202006220352 METAR KATL 220352Z 18005KT 10SM FEW150 SCT200 BKN250 21/19 A3004 RMK AO2 SLP164 T02110189 $=
202006220252 METAR KATL 220252Z 00000KT 10SM FEW150 SCT200 BKN250 22/19 A3003 RMK AO2 SLP158 T02170189 50005 $=
202006220152 METAR KATL 220152Z 00000KT 10SM FEW150 BKN200 BKN250 21/19 A3004 RMK AO2 SLP162 T02110189 $=
202006220052 METAR KATL 220052Z 21005KT 10SM CLR 21/19 A3003 RMK AO2 SLP160 T02110189 $=
202006212352 METAR KATL 212352Z 21004KT 10SM FEW070 SCT120 BKN150 OVC200 22/20 A3001 RMK AO2 LTG DSNT SE RAE16 SLP155 P0000 60002 T02170200 10322 20217 57003 $=
202006212252 METAR KATL 212252Z 26004KT 9SM -RA FEW040 SCT070 BKN110 OVC200 22/19 A3001 RMK AO2 PK WND 28033/2153 RAB00 TSB06E52 PRESFR SLP153 LTG DSNT SE TS DSIPTD P0002 T02170189 $=
202006212206 SPECI KATL 212206Z 28020G31KT 10SM -TSRA SCT040CB BKN090 BKN120 OVC200 24/18 A3003 RMK AO2 PK WND 28033/2153 RAB00 TSB06 OCNL LTGICCG SW-NW TS SW-NW MOV NE P0000 T02390178 $=
202006212152 METAR KATL 212152Z 27027G37KT 10SM FEW045 SCT090 BKN120 BKN200 27/19 A3003 RMK AO2 PK WND 27037/2150 WSHFT 2129 LTG DSNT SW AND W PRESRR SLP160 CB DSNT SW-NW T02720189 $=
202006212149 SPECI KATL 212149Z 27017G22KT 10SM FEW050 SCT090 BKN120 BKN200 28/19 A3002 RMK AO2 WSHFT 2129 LTG DSNT SW-NW CB DSNT SW-NW $=
202006212052 METAR KATL 212052Z 21009KT 10SM SCT060 SCT085 BKN120 BKN250 31/16 A3000 RMK AO2 LTG DSNT N AND W SLP146 CB DSNT W-N MDT CU DSNT N-NE T03110156 56014 $=
202006211952 METAR KATL 211952Z 17009KT 10SM SCT060 SCT080 BKN120 BKN250 32/18 A3000 RMK AO2 LTG DSNT W SLP146 CB DSNT W MDT CU DSNT N-NE T03170178 $=
202006211852 METAR KATL 211852Z 14004KT 10SM SCT060TCU SCT080 BKN120 BKN250 31/18 A3001 RMK AO2 SLP153 TCU OHD-W-NW AND NE T03110178 $=
202006211752 METAR KATL 211752Z 16010KT 10SM SCT055 SCT070 BKN120 BKN250 32/18 A3004 RMK AO2 SLP160 MDT CU DSNT W-N T03170183 10322 20239 58009=
202006211652 METAR KATL 211652Z 33003KT 10SM SCT050 SCT120 BKN250 31/18 A3005 RMK AO2 SLP165 T03110178=
202006211552 METAR KATL 211552Z VRB05KT 10SM SCT047 SCT120 BKN250 30/19 A3007 RMK AO2 SLP169 T03000194=
202006211452 METAR KATL 211452Z 30008KT 10SM FEW044 SCT120 BKN250 30/20 A3007 RMK AO2 SLP169 T03000200 50006=
202006211352 METAR KATL 211352Z 24006KT 10SM FEW041 SCT110 BKN250 27/19 A3007 RMK AO2 SLP170 T02720194=
202006211252 METAR KATL 211252Z 27003KT 10SM FEW110 SCT250 25/19 A3006 RMK AO2 SLP169 ACC DSNT SE T02500189=
202006211152 METAR KATL 211152Z 00000KT 10SM SCT110 BKN250 23/19 A3005 RMK AO2 SLP164 ACC DSNT W T02330189 10244 20217 53014=
202006211052 METAR KATL 211052Z 00000KT 10SM FEW110 SCT250 23/18 A3003 RMK AO2 SLP156 T02280183=
202006210952 METAR KATL 210952Z 00000KT 10SM FEW110 SCT250 22/18 A3001 RMK AO2 SLP152 T02170178=
202006210852 METAR KATL 210852Z 00000KT 10SM FEW110 FEW200 22/18 A3001 RMK AO2 SLP149 T02220178 56009=
202006210752 METAR KATL 210752Z 00000KT 10SM FEW110 23/18 A3001 RMK AO2 SLP151 T02330178=
202006210652 METAR KATL 210652Z 00000KT 10SM CLR 23/18 A3002 RMK AO2 SLP156 T02330178=
202006210552 METAR KATL 210552Z 00000KT 10SM CLR 24/18 A3003 RMK AO2 SLP159 T02440178 10311 20239 50000=
202006210452 METAR KATL 210452Z 00000KT 10SM CLR 24/17 A3004 RMK AO2 SLP162 T02440172 403220194=
202006210352 METAR KATL 210352Z 00000KT 10SM FEW300 25/17 A3004 RMK AO2 SLP161 T02500172=
202006210252 METAR KATL 210252Z 00000KT 10SM FEW250 SCT300 27/17 A3003 RMK AO2 SLP158 T02720167 53008=
202006210152 METAR KATL 210152Z 27003KT 10SM FEW065 SCT250 SCT300 28/16 A3002 RMK AO2 SLP155 T02780161=
202006210052 METAR KATL 210052Z 27006KT 10SM FEW065 SCT250 SCT300 28/16 A3001 RMK AO2 SLP151 T02780161=
202006202352 METAR KATL 202352Z 30005KT 10SM FEW065 SCT250 31/16 A3001 RMK AO2 SLP150 T03110156 10322 20300 55010=
202006202252 METAR KATL 202252Z VRB03KT 10SM FEW065 SCT250 31/16 A3001 RMK AO2 SLP151 MDT CU DSNT S T03110156=
202006202152 METAR KATL 202152Z 27006KT 10SM SCT065TCU SCT100 SCT250 32/16 A3002 RMK AO2 SLP155 TCU NE T03170161=
202006202052 METAR KATL 202052Z 29007KT 250V310 10SM SCT065 SCT100 SCT250 32/16 A3004 RMK AO2 SLP160 MDT CU ALQDS T03170156 56018=
202006201952 METAR KATL 201952Z 36007KT 10SM SCT060 SCT100 SCT250 31/16 A3005 RMK AO2 SLP165 T03110161=
202006201852 METAR KATL 201852Z VRB06KT 10SM SCT060 SCT100 SCT250 31/16 A3007 RMK AO2 SLP172 T03110156=
202006201752 METAR KATL 201752Z 36006KT 10SM SCT055 SCT100 BKN250 30/17 A3009 RMK AO2 SLP179 T03000167 10311 20217 58008=
202006201652 METAR KATL 201652Z 28006KT 10SM SCT049 SCT100 SCT250 30/18 A3011 RMK AO2 SLP184 T03000178=
202006201552 METAR KATL 201552Z 29008KT 10SM FEW042 SCT250 29/17 A3011 RMK AO2 SLP186 T02940172=
202006201452 METAR KATL 201452Z 32007KT 280V340 10SM FEW100 FEW250 28/18 A3012 RMK AO2 SLP188 T02780178 50004=
202006201352 METAR KATL 201352Z VRB03KT 10SM FEW100 SCT250 26/17 A3012 RMK AO2 SLP189 T02610172=
202006201252 METAR KATL 201252Z 32004KT 10SM FEW100 FEW250 23/17 A3012 RMK AO2 SLP188 T02330172=
202006201152 METAR KATL 201152Z 30003KT 10SM FEW100 FEW250 22/17 A3010 RMK AO2 SLP185 T02170172 10233 20194 51010=
202006201052 METAR KATL 201052Z 00000KT 10SM FEW100 FEW250 20/17 A3010 RMK AO2 SLP183 T02000167=
202006200952 METAR KATL 200952Z 13004KT 10SM FEW250 19/17 A3009 RMK AO2 SLP179 T01940167=
202006200852 METAR KATL 200852Z 09003KT 10SM CLR 21/17 A3007 RMK AO2 SLP174 T02110167 55004=
202006200752 METAR KATL 200752Z 00000KT 10SM FEW250 21/17 A3007 RMK AO2 SLP171 T02110167=
202006200652 METAR KATL 200652Z 00000KT 10SM FEW100 21/17 A3007 RMK AO2 SLP173 T02110167=
202006200552 METAR KATL 200552Z 00000KT 10SM FEW150 23/16 A3009 RMK AO2 SLP179 T02330161 10278 20222 58005=
202006200452 METAR KATL 200452Z 03003KT 10SM FEW150 24/16 A3010 RMK AO2 SLP183 T02440156 403060200=
202006200352 METAR KATL 200352Z 00000KT 10SM SCT120 BKN150 24/16 A3011 RMK AO2 SLP186 T02390161=
202006200252 METAR KATL 200252Z 00000KT 10SM SCT120 SCT150 24/17 A3010 RMK AO2 SLP184 T02390167 53011=
202006200152 METAR KATL 200152Z 07007KT 10SM FEW120 SCT150 25/16 A3009 RMK AO2 SLP179 T02500161=
202006200052 METAR KATL 200052Z 04009KT 10SM FEW120 BKN150 BKN250 27/16 A3008 RMK AO2 SLP177 T02670161=
202006192352 METAR KATL 192352Z 32007KT 10SM FEW050 SCT120 BKN150 BKN250 27/16 A3007 RMK AO2 SLP173 CB DSNT NE-E T02720161 10306 20272 53003=
202006192252 METAR KATL 192252Z 31008KT 10SM FEW050 BKN140 BKN250 28/14 A3006 RMK AO2 LTG DSNT NE SLP171 CB DSNT NE T02780144=
202006192152 METAR KATL 192152Z 28008KT 10SM FEW050TCU BKN140 BKN250 29/17 A3006 RMK AO2 SLP170 CB DSNT NW-N TCU SE DSNT NE-E T02890167=
202006192052 METAR KATL 192052Z 29009KT 10SM FEW050TCU BKN130 BKN250 29/16 A3006 RMK AO2 SLP171 TCU N & SW-W T02890161 56015=
202006191952 METAR KATL 191952Z 31006KT 10SM SCT055TCU BKN120 BKN250 29/16 A3007 RMK AO2 LTG DSNT S SLP174 CB DSNT S TCU ALQDS T02940156=
202006191852 METAR KATL 191852Z 23006KT 10SM SCT055TCU BKN140 29/16 A3009 RMK AO2 SLP179 TCU ALQDS T02940156=
202006191752 METAR KATL 191752Z 28007KT 10SM SCT055TCU SCT080 28/16 A3011 RMK AO2 SLP186 TCU ALQDS T02780161 10294 20222 58010=
202006191652 METAR KATL 191652Z 22008KT 10SM BKN055TCU BKN150 28/17 A3013 RMK AO2 SLP192 TCU N & SE-SW T02830167=
202006191552 METAR KATL 191552Z VRB04KT 10SM SCT046 SCT150 27/17 A3013 RMK AO2 SLP194 MDT CU ALQDS T02720167=
202006191452 METAR KATL 191452Z VRB03KT 10SM FEW036 FEW150 27/16 A3014 RMK AO2 SLP196 T02670161 50005=
202006191352 METAR KATL 191352Z 00000KT 10SM FEW035 FEW080 SCT150 26/17 A3014 RMK AO2 SLP197 ACC DSNT SE-S T02560167=
202006191252 METAR KATL 191252Z 00000KT 10SM BKN100 BKN120 BKN180 23/17 A3014 RMK AO2 SLP198 ACC DSNT SE-S T02330172=
202006191152 METAR KATL 191152Z 00000KT 10SM BKN100 BKN120 22/17 A3012 RMK AO2 SLP192 ACC DSNT SE T02220167 10222 20200 51014=
202006191052 METAR KATL 191052Z 03003KT 10SM BKN100 BKN120 21/16 A3011 RMK AO2 SLP188 ACC DSNT S T02110161=
202006190952 METAR KATL 190952Z 30004KT 10SM BKN100 21/16 A3009 RMK AO2 SLP182 T02060161=
202006190852 METAR KATL 190852Z 30003KT 10SM FEW100 20/16 A3008 RMK AO2 SLP177 T02000161 55002=
202006190752 METAR KATL 190752Z 00000KT 10SM FEW100 21/16 A3007 RMK AO2 SLP174 T02060161=
202006190652 METAR KATL 190652Z 00000KT 10SM FEW100 21/16 A3007 RMK AO2 SLP175 T02110161=
202006190552 METAR KATL 190552Z 00000KT 10SM FEW100 22/17 A3009 RMK AO2 SLP179 T02170167 10261 20217 52002=
202006190452 METAR KATL 190452Z 00000KT 10SM FEW100 22/17 A3008 RMK AO2 SLP177 T02220167 402830161=
202006190352 METAR KATL 190352Z 00000KT 10SM FEW090 SCT110 23/17 A3009 RMK AO2 SLP179 T02330167=
202006190252 METAR KATL 190252Z 00000KT 10SM SCT090 SCT110 24/16 A3008 RMK AO2 SLP177 T02390161 53012=
202006190152 METAR KATL 190152Z 31004KT 10SM SCT100 25/15 A3006 RMK AO2 SLP171 T02500150=
202006190052 METAR KATL 190052Z 29004KT 10SM SCT100 25/16 A3005 RMK AO2 SLP167 T02500156=
202006182352 METAR KATL 182352Z 27005KT 10SM FEW045 SCT100 SCT250 26/15 A3004 RMK AO2 SLP165 T02560150 10283 20256 55002=
202006182252 METAR KATL 182252Z VRB04KT 10SM FEW045 BKN100 BKN250 27/14 A3004 RMK AO2 SLP163 TCU DSNT N-NE T02670144=
202006182152 METAR KATL 182152Z 31007KT 10SM FEW045TCU BKN100 BKN250 28/15 A3004 RMK AO2 SLP164 TCU E-SE DSNT N S T02830150=
202006182052 METAR KATL 182052Z 32010KT 10SM SCT046TCU BKN075 BKN200 27/16 A3005 RMK AO2 SLP167 TCU N NE DSNT ALQDS T02720156 57012=
202006181952 METAR KATL 181952Z 01005KT 10SM SCT045 SCT080 BKN200 27/15 A3006 RMK AO2 SLP171 TCU DSNT ALQDS T02720150=
202006181852 METAR KATL 181852Z 30009KT 10SM SCT043 BKN080 BKN200 26/16 A3007 RMK AO2 SLP175 TCU DSNT ALQDS T02610156=
202006181752 METAR KATL 181752Z 34007KT 10SM SCT045 BKN070 BKN110 BKN200 27/15 A3008 RMK AO2 SLP179 TCU DSNT W-N-NE T02670150 10272 20194 58009=
202006181652 METAR KATL 181652Z 31006KT 10SM SCT040 SCT065 SCT120 BKN200 26/14 A3010 RMK AO2 SLP183 TCU DSNT W-N-NE MDT CU ALQDS T02610144 $=
202006181552 METAR KATL 181552Z 29006KT 10SM SCT033 SCT085 SCT120 BKN200 25/16 A3011 RMK AO2 SLP188 TCU DSNT ALQDS T02500156 $=
202006181452 METAR KATL 181452Z 31006KT 10SM FEW028 SCT080 SCT110 SCT200 24/15 A3011 RMK AO2 SLP189 TCU DSNT N SW T02440150 50010=
202006181352 METAR KATL 181352Z 31004KT 10SM FEW030 SCT080 SCT110 SCT200 23/15 A3011 RMK AO2 SLP189 ACC DSNT N SW NW T02280150=
202006181252 METAR KATL 181252Z 31005KT 10SM SCT070 SCT085 SCT250 21/15 A3010 RMK AO2 SLP185 ACC DSNT N-NE S T02110150=
202006181152 METAR KATL 181152Z 00000KT 10SM FEW060 SCT070 SCT250 19/15 A3008 RMK AO2 SLP179 ACC S T01940150 10194 20161 53011=
202006181052 METAR KATL 181052Z 00000KT 10SM FEW045 SCT060 SCT250 17/14 A3007 RMK AO2 SLP175 T01720139=
202006180952 METAR KATL 180952Z 00000KT 10SM SCT045 SCT060 SCT250 17/14 A3005 RMK AO2 SLP171 T01670139=
202006180852 METAR KATL 180852Z 00000KT 10SM SCT060 SCT250 18/14 A3005 RMK AO2 SLP168 T01780139 55007=
202006180752 METAR KATL 180752Z 00000KT 10SM SCT060 SCT250 17/14 A3005 RMK AO2 SLP168 T01720144=
202006180652 METAR KATL 180652Z 30005KT 10SM SCT060 SCT250 18/14 A3006 RMK AO2 SLP172 T01780144=
202006180552 METAR KATL 180552Z 00000KT 10SM FEW060 SCT250 18/14 A3007 RMK AO2 SLP177 T01780144 10239 20172 50000=
202006180452 METAR KATL 180452Z 00000KT 10SM FEW060 FEW250 18/14 A3008 RMK AO2 SLP179 T01830144 402440150=
202006180352 METAR KATL 180352Z 30003KT 10SM FEW065 FEW250 19/14 A3008 RMK AO2 SLP181 T01940144=
202006180252 METAR KATL 180252Z 31005KT 10SM FEW065 FEW250 20/14 A3007 RMK AO2 SLP177 T02000144 53005=
202006180152 METAR KATL 180152Z 31004KT 10SM FEW070 FEW250 21/14 A3006 RMK AO2 SLP173 T02110144=
202006180052 METAR KATL 180052Z 33004KT 10SM FEW040 FEW080 SCT250 22/14 A3005 RMK AO2 SLP171 T02220144=
202006172352 METAR KATL 172352Z 34005KT 10SM FEW040 FEW080 SCT250 24/14 A3005 RMK AO2 SLP171 TCU DSNT SW MDT CU E-S T02390144 10244 20217 56008=
202006172252 METAR KATL 172252Z 31005KT 10SM FEW040 SCT070 BKN200 23/14 A3006 RMK AO2 SLP172 MDT CU N-NE T02330144=
202006172152 METAR KATL 172152Z 33006KT 10SM FEW035 BKN060 23/14 A3007 RMK AO2 SLP177 T02280144=
202006172052 METAR KATL 172052Z 30009KT 10SM SCT035 BKN055 24/14 A3008 RMK AO2 SLP180 MDT CU NW T02390144 56014=
202006171952 METAR KATL 171952Z 31008KT 10SM SCT033 BKN050 23/14 A3009 RMK AO2 SLP184 T02280139=
202006171852 METAR KATL 171852Z 29006KT 10SM BKN031 OVC050 23/14 A3010 RMK AO2 SLP188 T02280144=
202006171806 SPECI KATL 171806Z 30007KT 10SM SCT027 SCT033 BKN050 23/14 A3012 RMK AO2 T02280144=
202006171752 METAR KATL 171752Z 26009KT 10SM BKN027 BKN033 BKN050 22/14 A3012 RMK AO2 SLP195 T02170144 10222 20156 58013=
202006171702 SPECI KATL 171702Z 28006KT 10SM BKN029 BKN036 BKN050 21/14 A3014 RMK AO2 T02110139=
202006171652 METAR KATL 171652Z 29005KT 10SM FEW031 BKN035 OVC050 21/13 A3014 RMK AO2 SLP202 T02060133=
202006171552 METAR KATL 171552Z VRB04KT 10SM BKN032 BKN044 OVC050 20/14 A3016 RMK AO2 SLP207 T02000139=
202006171452 METAR KATL 171452Z 00000KT 10SM FEW018 BKN042 OVC050 18/13 A3016 RMK AO2 SLP209 T01830128 50004=
202006171352 METAR KATL 171352Z 00000KT 10SM BKN031 OVC047 18/12 A3016 RMK AO2 SLP209 T01780122=
202006171252 METAR KATL 171252Z 00000KT 10SM FEW034 BKN046 17/12 A3016 RMK AO2 SLP208 T01670122=
202006171152 METAR KATL 171152Z 00000KT 10SM BKN035 16/12 A3015 RMK AO2 SLP205 T01560117 10167 20150 51008=
202006171052 METAR KATL 171052Z 00000KT 10SM BKN035 BKN060 16/12 A3015 RMK AO2 SLP202 T01560117=
202006170952 METAR KATL 170952Z 00000KT 10SM FEW060 15/12 A3014 RMK AO2 SLP200 T01500117=
202006170852 METAR KATL 170852Z 00000KT 10SM FEW018 BKN060 16/12 A3012 RMK AO2 SLP195 T01560117 56014=
202006170752 METAR KATL 170752Z 11005KT 10SM FEW018 SCT060 16/11 A3014 RMK AO2 SLP199 T01560111=
202006170652 METAR KATL 170652Z 10007KT 10SM FEW016 SCT055 BKN090 16/11 A3015 RMK AO2 SLP204 T01610111=
202006170552 METAR KATL 170552Z 08011KT 10SM FEW016 BKN043 BKN060 17/12 A3017 RMK AO2 SLP210 T01670117 10217 20167 50002=
202006170452 METAR KATL 170452Z 08009KT 10SM FEW018 BKN045 BKN070 17/12 A3017 RMK AO2 SLP212 T01720122 402390161=
202006170352 METAR KATL 170352Z 10009KT 10SM SCT018 BKN060 BKN080 17/13 A3017 RMK AO2 SLP213 T01720128=
202006170252 METAR KATL 170252Z 09010KT 10SM FEW038 SCT060 BKN080 19/13 A3016 RMK AO2 SLP208 T01890133 53010=
202006170152 METAR KATL 170152Z 09011KT 10SM FEW038 BKN055 19/13 A3015 RMK AO2 SLP203 T01890133=
202006170052 METAR KATL 170052Z 09010KT 10SM SCT038 BKN050 BKN250 21/13 A3014 RMK AO2 SLP200 T02060133=
202006162352 METAR KATL 162352Z 10006KT 10SM FEW038 SCT050 SCT250 22/13 A3013 RMK AO2 SLP197 T02170133 10239 20200 55008=
202006162252 METAR KATL 162252Z 08007KT 10SM SCT038 BKN050 BKN250 23/13 A3013 RMK AO2 SLP197 T02280133=
202006162152 METAR KATL 162152Z 08007KT 10SM SCT038 BKN050 BKN250 23/13 A3014 RMK AO2 SLP201 T02280133=
202006162052 METAR KATL 162052Z 07009G15KT 10SM FEW038 SCT050 SCT200 BKN250 23/13 A3016 RMK AO2 SLP206 T02280133 58017=
202006161952 METAR KATL 161952Z 06012G18KT 030V090 10SM SCT038 BKN048 BKN180 BKN250 23/14 A3018 RMK AO2 SLP212 T02330139=
202006161852 METAR KATL 161852Z 05013KT 10SM SCT032 BKN042 BKN120 BKN200 22/13 A3019 RMK AO2 SLP220 T02170128=
202006161752 METAR KATL 161752Z 06011G15KT 10SM SCT030 BKN040 BKN120 BKN200 20/12 A3021 RMK AO2 SLP224 T02000122 10211 20167 58005=
202006161652 METAR KATL 161652Z 06008KT 10SM SCT028 OVC036 19/13 A3023 RMK AO2 SLP230 BINOVC T01940128=
202006161552 METAR KATL 161552Z 04012G16KT 10SM BKN026 OVC032 19/12 A3023 RMK AO2 SLP233 T01940117=
202006161452 METAR KATL 161452Z 05008KT 10SM BKN021 BKN032 19/12 A3022 RMK AO2 SLP228 T01940122 58002=
202006161352 METAR KATL 161352Z 05011KT 10SM BKN022 OVC034 18/12 A3023 RMK AO2 SLP232 BINOVC T01780122=
202006161252 METAR KATL 161252Z 05009KT 10SM SCT018 BKN029 18/12 A3023 RMK AO2 SLP232 T01830122=
202006161152 METAR KATL 161152Z 05009KT 10SM BKN018 17/12 A3023 RMK AO2 SLP231 T01670117 10172 20161 53005=
202006161052 METAR KATL 161052Z 06008KT 10SM FEW016 BKN024 17/12 A3022 RMK AO2 SLP228 T01670117=
202006160952 METAR KATL 160952Z 07008KT 10SM BKN020 17/12 A3021 RMK AO2 SLP226 T01670117=
202006160852 METAR KATL 160852Z 08011KT 10SM BKN016 16/12 A3021 RMK AO2 SLP224 T01610117 55000=
202006160752 METAR KATL 160752Z 09012KT 10SM BKN018 16/12 A3021 RMK AO2 SLP222 T01610117=
202006160725 SPECI KATL 160725Z 08010KT 10SM BKN018 16/12 A3020 RMK AO2 T01610117=
202006160652 METAR KATL 160652Z 06011KT 10SM FEW025 FEW100 16/12 A3021 RMK AO2 SLP223 T01610122=
202006160552 METAR KATL 160552Z 07010KT 10SM FEW025 17/13 A3021 RMK AO2 SLP224 T01720128 10206 20172 51006=
202006160452 METAR KATL 160452Z 08010KT 10SM FEW120 17/13 A3021 RMK AO2 SLP223 T01720133 402670172=
202006160352 METAR KATL 160352Z 09014KT 10SM FEW025 SCT100 BKN130 19/13 A3020 RMK AO2 SLP221 T01890133=
202006160252 METAR KATL 160252Z 08008KT 10SM FEW025 BKN100 BKN130 20/16 A3019 RMK AO2 SLP219 T02000161 53008=
202006160152 METAR KATL 160152Z 06009KT 10SM BKN130 20/16 A3018 RMK AO2 SLP215 T02000161=
202006160052 METAR KATL 160052Z 06011KT 10SM FEW030 BKN130 21/16 A3018 RMK AO2 SLP212 T02060156=
202006152352 METAR KATL 152352Z 06010KT 10SM FEW030 SCT070 SCT120 21/15 A3017 RMK AO2 SLP210 TCU DSNT SE-S 60000 T02060150 10267 20183 51015=
202006152252 METAR KATL 152252Z 09015KT 10SM FEW030 SCT060 BKN150 BKN250 21/15 A3016 RMK AO2 SLP206 TCU DSNT SE-S NW T02060150=
202006152152 METAR KATL 152152Z 08017G25KT 10SM SCT040TCU BKN070 BKN150 BKN200 20/15 A3016 RMK AO2 PK WND 04038/2106 WSHFT 2100 RAB03E42 TSE45 SLP209 LTG DSNT SE CB DSNT SE TCU NE-SE-S P0000 T02000150=
202006152145 SPECI KATL 152145Z 07019G25KT 10SM SCT040TCU BKN070 BKN150 BKN200 19/15 A3016 RMK AO2 PK WND 04038/2106 WSHFT 2100 RAB03E42 TSE45 LTG DSNT SE TS MOVD SE TCU OHD-ALQDS P0000 T01890150=
202006152117 SPECI KATL 152117Z 06019G34KT 6SM -TSRA FEW016 BKN042CB BKN075 BKN130 BKN200 19/16 A3016 RMK AO2 PK WND 04038/2106 WSHFT 2100 RAB03 VIS LWR N-E FRQ LTGICCGCA N-E-SE TS N-E-SE MOV SE CB DSNT E-SE P0000 T01890156=
202006152109 SPECI KATL 152109Z 03028G38KT 6SM -TSRA FEW016 BKN042CB BKN075 BKN130 BKN200 21/14 A3017 RMK AO2 PK WND 04038/2106 LTG DSNT E AND SE RAB03 PRESRR VIS LWR N-E FRQ LTGICCGCA N-E-SE TS N-E-SE MOV SE CB DSNT E-SE P0000 T02060139=
202006152052 METAR KATL 152052Z 13007KT 10SM TS FEW018 SCT042CB BKN075 BKN130 BKN200 26/17 A3012 RMK AO2 LTG DSNT N-E TSB50 SLP193 OCNL LTGICCGCA N-NE VC E TS N-NE VC E MOV SE CB DSNT NW-NE-E TCU N-E SE S-SW T02610167 56018=
202006151952 METAR KATL 151952Z 07006KT 10SM SCT040TCU SCT065 BKN110 BKN200 26/16 A3014 RMK AO2 LTG DSNT NE SLP197 CB DSNT N-NE TCU N-NE SE NW DSNT ALQDS T02610156=
202006151852 METAR KATL 151852Z 23003KT 10SM SCT038CB SCT048TCU BKN095 BKN130 25/16 A3016 RMK AO2 SLP204 CB SE MOV SE TCU ALQDS SHRA SE T02500156=
202006151752 METAR KATL 151752Z 15005KT 10SM SCT036TCU BKN050 BKN085 BKN130 25/16 A3018 RMK AO2 SLP211 TCU SE-OHD-NW T02500161 10250 20183 58017=
202006151715 SPECI KATL 151715Z 15003KT 10SM BKN032TCU BKN045 BKN075 BKN130 23/15 A3019 RMK AO2 TCU OHD-NW DSNT NE-SE T02330150=
202006151652 METAR KATL 151652Z 16007KT 10SM BKN026TCU BKN048 BKN110 24/17 A3020 RMK AO2 SLP220 TCU W-NW MDT CU OHD-ALQDS T02390167=
202006151552 METAR KATL 151552Z 14005KT 10SM BKN018TCU BKN070 BKN110 23/17 A3022 RMK AO2 SLP227 TCU S DSNT SW-W MDT CU ALQDS T02280167=
202006151452 METAR KATL 151452Z 10005KT 10SM BKN015TCU BKN075 BKN110 21/17 A3023 RMK AO2 SLP231 TCU N-NE SW NW ACC ALQDS T02060167 51013=
202006151352 METAR KATL 151352Z 09006KT 10SM SCT014 SCT085 BKN110 20/16 A3023 RMK AO2 SLP230 ACC OHD-ALQDS T02000161=
202006151252 METAR KATL 151252Z 06006KT 10SM FEW100 19/16 A3021 RMK AO2 SLP225 ACC NW-NE T01940156=
202006151152 METAR KATL 151152Z 06007KT 10SM FEW100 18/14 A3019 RMK AO2 SLP217 ACC NW-NE 70040 T01830144 10189 20172 51012=
202006151052 METAR KATL 151052Z 05007KT 10SM SCT100 18/14 A3018 RMK AO2 SLP212 ACC ALQDS T01780139=
202006150952 METAR KATL 150952Z 03007KT 10SM FEW110 18/13 A3017 RMK AO2 SLP208 T01780133 $=
202006150852 METAR KATL 150852Z 08006KT 10SM CLR 17/14 A3016 RMK AO2 SLP205 T01720144 57005 $=
202006150752 METAR KATL 150752Z 07004KT 10SM FEW080 FEW095 18/15 A3016 RMK AO2 SLP206 T01780150 $=
202006150652 METAR KATL 150652Z 04005KT 10SM FEW095 18/16 A3017 RMK AO2 SLP211 T01830161 $=
202006150552 METAR KATL 150552Z 02004KT 10SM FEW060 19/16 A3017 RMK AO2 SLP209 60002 T01890156 10228 20183 58008 $=
202006150452 METAR KATL 150452Z 04003KT 10SM FEW250 19/16 A3018 RMK AO2 SLP212 T01890156 402720183 $=
202006150352 METAR KATL 150352Z 09003KT 10SM FEW150 FEW250 19/16 A3019 RMK AO2 SLP216 T01890156 $=
202006150252 METAR KATL 150252Z 07005KT 10SM FEW070 SCT140 SCT250 19/16 A3020 RMK AO2 SLP217 60002 T01890161 50005 $=
202006150152 METAR KATL 150152Z 08006KT 10SM SCT070 BKN140 BKN250 19/16 A3020 RMK AO2 LTG DSNT SE AND S RAE19 SLP218 CB DSNT SE-SW P0001 T01890161 $=
202006150052 METAR KATL 150052Z 13005KT 10SM -RA SCT030 SCT070 BKN100 BKN250 19/14 A3018 RMK AO2 PK WND 03039/2353 LTG DSNT ALQDS SLP215 TSB2358E45 RAB2358 TS MOV SE CB DSNT SW P0001 T01890144 $=
202006150043 SPECI KATL 150043Z 18008KT 10SM VCTS -RA SCT030CB SCT060 BKN090 BKN250 19/14 A3018 RMK AO2 PK WND 03039/2353 LTG DSNT ALQDS TSB2358 RAB2358 ONCL LTGICCACG VC SE-S TS VC SE-S MOV SE CB DSNT SW VIS LWR SW P0001 T01890144 $=
202006150028 SPECI KATL 150028Z 14007KT 6SM -TSRA SCT028CB BKN060 BKN090 BKN250 19/14 A3018 RMK AO2 PK WND 03039/2353 LTG DSNT W TSB2358 RAB2358 ONCL LTGICCACG E-S TS E-S MOV SE CB DSNT SW-W VIS LWR E-S AND SW-W P0001 T01940139 $=
202006150010 SPECI KATL 150010Z 03019G27KT 7SM -TSRA FEW015 BKN028CB BKN040 BKN250 21/15 A3018 RMK AO2 PK WND 03039/2353 LTG DSNT W-NE TSB2358 RAB2358 CONS LTGICCACG NE-SE TS NE-SE MOV SE CB DSNT W-NW VIS LWR SE-S AND NW-N P0000 T02060150 $=
202006150001 SPECI KATL 150001Z 02023G39KT 7SM -TSRA FEW015 SCT030CB BKN040 BKN250 22/15 A3017 RMK AO2 PK WND 03039/2353 LTG DSNT W-NE TSB2358 RAB2358 OCNL LTGICCG NE-E TS NE-E MOV SE CB DSNT W-NW VIS LWR NE P0000 T02170150 $=
202006142352 METAR KATL 142352Z 03032G40KT 10SM VCTS FEW015 SCT030CB BKN040 BKN250 23/15 A3018 RMK AO2 PK WND 03040/2351 LTG DSNT W-NE SLP212 OCNL LTGICCG VC N-NE TS VC N-NE MOV SE 60038 T02330150 10267 20206 53010 $=
202006142252 METAR KATL 142252Z 00000KT 10SM SCT040 SCT130 SCT150 BKN250 27/16 A3015 RMK AO2 LTG DSNT N SLP200 CB DSNT NW-E TCU DST W-NW T02670161 $=
202006142152 METAR KATL 142152Z 17005KT 10SM FEW035 SCT130 BKN150 BKN250 26/16 A3016 RMK AO2 LTG DSNT NE SLP204 CB DSNT NE-E TCU DSNT NW T02610161 $=
202006142052 METAR KATL 142052Z VRB03KT 10SM FEW032 BKN120 BKN250 25/18 A3015 RMK AO2 LTG DSNT ALQDS SLP201 TSE07 DSPTD CB DSNT ALQDS 60038 T02500183 56010=
202006142012 SPECI KATL 142012Z 17004KT 10SM FEW030TCU SCT120 BKN250 23/17 A3016 RMK AO2 LTG DSNT SW TSE07 DSPTD CB DSNT SW TCU S T02280167=
202006141952 METAR KATL 141952Z 15003KT 10SM VCTS FEW032 BKN120 BKN250 23/17 A3016 RMK AO2 LTG DSNT SE-SW RAE15 SLP206 TSB1854E19B27E41 DSPTD CB DSNT SE-SW P0012 T02280172=
202006141948 SPECI KATL 141948Z 00000KT 10SM FEW032 BKN120 BKN250 22/18 A3016 RMK AO2 LTG DSNT SE-SW RAE15 TSB1854E19B27E41 DSPTD CB DSNT SE-S P0012=
202006141933 SPECI KATL 141933Z 13005KT 10SM VCTS FEW016 SCT032CB BKN120 BKN250 22/17 A3017 RMK AO2 LTG DSNT SE AND W RAE15 TSB1854E19 DSPTD TSB27 OCNL LTGCG VCTS W MOV SE P0012 T02170167=
202006141925 SPECI KATL 141925Z 12005KT 10SM FEW016 SCT032TCU BKN120 BKN250 22/17 A3017 RMK AO2 LTG DSNT W RAE15 TSB54E19 DSPTD TCU ALQDS P0012 T02170167=
202006141900 SPECI KATL 141900Z 16010KT 7SM VCTS -RA SCT017 BKN040CB BKN100 21/17 A3018 RMK AO2 LTG DSNT N TSB54 OCNL LTGCG N VCTS N MOV S SHRA SE-SW P0011 T02060167=
202006141852 METAR KATL 141852Z 16012G20KT 7SM R09R/6000VP6000FT +RA FEW015 BKN040TCU BKN120 21/17 A3018 RMK AO2 LTG DSNT N RAB29 SLP214 TCU N VSBY LWR SE-SW P0026 T02060167=
202006141835 SPECI KATL 141835Z 07015G22KT 5SM -RA BKN040 BKN120 24/17 A3018 RMK AO2 RAB29 VSBY LWR E P0000 T02390172=
202006141830 SPECI KATL 141830Z 07010G17KT 3SM RA BKN043 26/16 A3019 RMK AO2 RAB29 P0000 T02610161=
202006141752 METAR KATL 141752Z 12006KT 10SM BKN042TCU 26/16 A3019 RMK AO2 SLP214 TCU SE & NW T02610161 10272 20206 58012=
202006141652 METAR KATL 141652Z 13003KT 10SM BKN038 26/17 A3020 RMK AO2 SLP219 MDT CU ALQDS T02560167=
202006141552 METAR KATL 141552Z VRB03KT 10SM SCT034 26/17 A3022 RMK AO2 SLP223 T02560167=
202006141452 METAR KATL 141452Z 13005KT 10SM FEW030 25/17 A3022 RMK AO2 SLP225 T02500172 50009=
202006141352 METAR KATL 141352Z 07005KT 10SM CLR 24/17 A3023 RMK AO2 SLP226 T02390167=
202006141252 METAR KATL 141252Z 09007KT 10SM FEW110 22/16 A3021 RMK AO2 SLP222 T02220161=
202006141152 METAR KATL 141152Z 08007KT 10SM FEW110 21/15 A3019 RMK AO2 SLP216 ACC SW-NW T02060150 10222 20194 53021=
202006141052 METAR KATL 141052Z 08006KT 10SM FEW110 19/15 A3017 RMK AO2 SLP209 T01940150=
202006140952 METAR KATL 140952Z 04006KT 10SM FEW110 21/14 A3015 RMK AO2 SLP199 T02060144=
202006140852 METAR KATL 140852Z 10003KT 10SM FEW110 21/14 A3013 RMK AO2 SLP193 T02110144 53000=
202006140752 METAR KATL 140752Z 08004KT 10SM FEW100 21/14 A3012 RMK AO2 SLP189 T02110139=
202006140652 METAR KATL 140652Z 08005KT 10SM FEW080 21/14 A3013 RMK AO2 SLP192 T02110139=
202006140552 METAR KATL 140552Z 10004KT 10SM FEW080 22/14 A3013 RMK AO2 SLP192 T02220139 10272 20222 50002=
202006140452 METAR KATL 140452Z 09005KT 10SM FEW080 FEW100 23/13 A3013 RMK AO2 SLP193 T02330133 403060206=
202006140352 METAR KATL 140352Z 06005KT 10SM FEW080 FEW110 25/13 A3013 RMK AO2 SLP192 T02500128=
202006140252 METAR KATL 140252Z 02005KT 10SM FEW080 FEW110 26/12 A3012 RMK AO2 SLP190 T02560122 53014=
202006140152 METAR KATL 140152Z 07006KT 10SM FEW080 SCT110 26/13 A3011 RMK AO2 SLP185 T02560128=
202006140052 METAR KATL 140052Z 10004KT 10SM FEW080 SCT120 26/12 A3009 RMK AO2 SLP178 T02610122=
202006132352 METAR KATL 132352Z 09006KT 10SM SCT080 SCT110 27/12 A3008 RMK AO2 SLP176 T02720117 10306 20272 55002=
202006132252 METAR KATL 132252Z 09009KT 10SM SCT080 SCT110 28/12 A3007 RMK AO2 SLP173 T02830117=
202006132152 METAR KATL 132152Z 04006KT 10SM SCT070 SCT100 SCT250 31/12 A3008 RMK AO2 SLP174 MDT CU ALQDS T03060117=
202006132052 METAR KATL 132052Z 06008KT 10SM FEW070 29/12 A3009 RMK AO2 SLP178 MDT CU ALQDS T02940117 56010=
202006131952 METAR KATL 131952Z 36009G18KT 10SM SCT070 30/12 A3010 RMK AO2 SLP180 T03000117=
202006131852 METAR KATL 131852Z 02010KT 10SM SCT070 30/12 A3011 RMK AO2 SLP184 T03000122=
202006131752 METAR KATL 131752Z VRB04KT 10SM SCT065 28/13 A3012 RMK AO2 SLP188 T02830133 10300 20222 58008=
202006131652 METAR KATL 131652Z 05011G17KT 10SM SCT055 29/14 A3013 RMK AO2 SLP193 T02890139=
202006131552 METAR KATL 131552Z 02009KT 10SM FEW045 28/15 A3015 RMK AO2 SLP197 T02780150=
202006131452 METAR KATL 131452Z 07006KT 10SM FEW100 26/16 A3014 RMK AO2 SLP197 T02610161 50001=
202006131352 METAR KATL 131352Z 08007KT 10SM BKN100 24/16 A3015 RMK AO2 SLP199 T02440156=
202006131252 METAR KATL 131252Z 05007KT 10SM FEW085 SCT100 23/14 A3015 RMK AO2 SLP199 T02330139=
202006131152 METAR KATL 131152Z 04005KT 10SM FEW080 SCT095 22/15 A3014 RMK AO2 SLP196 70001 T02220150 10239 20206 53013=
202006131052 METAR KATL 131052Z 04004KT 10SM FEW080 21/16 A3012 RMK AO2 SLP190 T02110161=
202006130952 METAR KATL 130952Z 07004KT 10SM FEW085 FEW200 21/16 A3011 RMK AO2 SLP186 T02060161=
202006130852 METAR KATL 130852Z 00000KT 10SM FEW085 FEW200 22/16 A3010 RMK AO2 SLP182 T02170161 51001=
202006130752 METAR KATL 130752Z 11003KT 10SM FEW095 FEW200 22/17 A3010 RMK AO2 SLP181 T02220167=
202006130652 METAR KATL 130652Z 06007KT 10SM SCT080 BKN095 23/16 A3011 RMK AO2 SLP184 T02330161=
202006130552 METAR KATL 130552Z 07006KT 10SM BKN080 BKN200 24/17 A3010 RMK AO2 SLP181 60001 T02390167 10283 20228 56004=
202006130452 METAR KATL 130452Z 06007KT 10SM FEW070 BKN085 BKN200 24/17 A3010 RMK AO2 SLP182 T02440167 403110189=
202006130352 METAR KATL 130352Z 03007KT 10SM SCT070 BKN090 BKN200 25/17 A3010 RMK AO2 SLP182 T02500172=
202006130252 METAR KATL 130252Z 02004KT 10SM SCT055 BKN080 BKN200 25/18 A3011 RMK AO2 SLP185 60001 T02500183 51010=
202006130152 METAR KATL 130152Z 06008KT 10SM BKN045TCU BKN090 BKN200 25/18 A3011 RMK AO2 RAE52 SLP184 CB DSNT SW TCU OHD-ALQDS P0001 T02500178=
202006130052 METAR KATL 130052Z 01013G19KT 330V030 10SM -RA BKN045CB BKN090 BKN200 26/17 A3010 RMK AO2 RAB27 SLP183 CB N-E MOV S P0000 T02610167=
202006122352 METAR KATL 122352Z 01012KT 10SM BKN050TCU BKN200 28/17 A3008 RMK AO2 SLP177 TCU NE-OHD-SW T02830167 10311 20283 55001=
202006122252 METAR KATL 122252Z 07007KT 10SM SCT050TCU SCT070 29/16 A3007 RMK AO2 SLP172 CB DSNT N SW TCU SW-NW-N T02890161=
202006122152 METAR KATL 122152Z 05008KT 10SM SCT050 SCT070 29/16 A3007 RMK AO2 SLP175 MDT CU SW-NW-NE T02940161=
202006122052 METAR KATL 122052Z 07009KT 10SM SCT050 BKN070 31/16 A3008 RMK AO2 SLP177 MDT CU W-N-NE T03060161 58018=
202006121952 METAR KATL 121952Z 07011G16KT 10SM SCT050 BKN075 29/16 A3011 RMK AO2 SLP186 MDT CU NE-SE-SW T02940161=
202006121852 METAR KATL 121852Z 06007G14KT 10SM SCT048 BKN065 29/17 A3012 RMK AO2 SLP190 T02940167=
202006121752 METAR KATL 121752Z 06008KT 10SM SCT046 BKN060 28/17 A3014 RMK AO2 SLP197 MDT CU ALQDS T02830167 10294 20206 58009=
202006121652 METAR KATL 121652Z 07007KT 10SM FEW050 SCT065 28/18 A3016 RMK AO2 SLP203 MDT CU SW-NW-N T02830178=
202006121552 METAR KATL 121552Z 09008KT 10SM FEW055 28/18 A3017 RMK AO2 SLP206 T02780178=
202006121452 METAR KATL 121452Z 08015KT 10SM FEW055 27/17 A3017 RMK AO2 SLP206 T02670172 50003=
202006121352 METAR KATL 121352Z 07016KT 10SM FEW055 FEW250 26/16 A3017 RMK AO2 SLP207 T02560161=
202006121252 METAR KATL 121252Z 07009KT 10SM SCT050 SCT060 24/16 A3017 RMK AO2 SLP205 T02390161=
202006121152 METAR KATL 121152Z 34005KT 10SM FEW048 21/15 A3016 RMK AO2 SLP203 T02060150 10206 20189 52011=
202006121052 METAR KATL 121052Z 32003KT 10SM FEW048 19/14 A3015 RMK AO2 SLP200 T01890144=
202006120952 METAR KATL 120952Z 36006KT 10SM FEW048 19/14 A3013 RMK AO2 SLP195 T01940144=
202006120852 METAR KATL 120852Z 34005KT 10SM FEW040 19/14 A3012 RMK AO2 SLP192 T01940139 55001=
202006120752 METAR KATL 120752Z 33008KT 10SM FEW040 19/14 A3012 RMK AO2 SLP191 T01940139=
202006120652 METAR KATL 120652Z 33004KT 10SM FEW250 20/14 A3013 RMK AO2 SLP192 T02000139=
202006120552 METAR KATL 120552Z 32009KT 10SM CLR 21/14 A3013 RMK AO2 SLP193 T02060144 10267 20206 58007=
202006120452 METAR KATL 120452Z 32007KT 10SM CLR 21/14 A3014 RMK AO2 SLP197 T02110139 402890200=
202006120352 METAR KATL 120352Z 32007KT 10SM CLR 22/14 A3014 RMK AO2 SLP198 T02220144=
202006120252 METAR KATL 120252Z 32006KT 10SM CLR 23/15 A3015 RMK AO2 SLP201 T02280150 51008=
202006120152 METAR KATL 120152Z 33007KT 10SM FEW040 24/15 A3014 RMK AO2 SLP198 T02390150=
202006120052 METAR KATL 120052Z 33010KT 10SM FEW042 26/15 A3013 RMK AO2 SLP195 T02560150=
202006112352 METAR KATL 112352Z 33013KT 10SM FEW042 27/16 A3012 RMK AO2 SLP192 T02670156 10289 20267 53006=
202006112252 METAR KATL 112252Z 32012KT 10SM FEW042 27/17 A3011 RMK AO2 SLP188 T02720167=
202006112152 METAR KATL 112152Z 35011KT 10SM SCT042 28/17 A3011 RMK AO2 SLP186 T02780172=
202006112052 METAR KATL 112052Z 33011G19KT 10SM FEW050 29/17 A3011 RMK AO2 SLP185 T02890172 56010=
202006111952 METAR KATL 111952Z 33010KT 10SM FEW050 29/17 A3011 RMK AO2 SLP186 T02890172=
202006111852 METAR KATL 111852Z 32011G17KT 10SM FEW048 28/16 A3012 RMK AO2 SLP190 T02830161=
202006111752 METAR KATL 111752Z 34011KT 10SM FEW044 FEW250 27/16 A3013 RMK AO2 SLP195 T02720161 10272 20206 50001=
202006111652 METAR KATL 111652Z 30009KT 10SM FEW040 FEW250 27/18 A3014 RMK AO2 SLP197 T02670178=
202006111552 METAR KATL 111552Z 33009KT 10SM FEW036 FEW250 26/17 A3014 RMK AO2 SLP196 T02560167=
202006111452 METAR KATL 111452Z 31006KT 10SM FEW030 FEW250 24/17 A3013 RMK AO2 SLP195 T02390167 51008=
202006111352 METAR KATL 111352Z 31008KT 10SM FEW250 23/16 A3013 RMK AO2 SLP194 T02280161=
202006111252 METAR KATL 111252Z 33009KT 10SM FEW250 22/16 A3012 RMK AO2 SLP191 T02170156=
202006111152 METAR KATL 111152Z 33007KT 10SM FEW065 FEW250 21/16 A3011 RMK AO2 SLP186 60000 70071 T02060161 10244 20200 53017=
202006111052 METAR KATL 111052Z 31009KT 10SM FEW065 FEW085 20/17 A3009 RMK AO2 SLP179 T02000167=
202006110952 METAR KATL 110952Z 32010KT 10SM SCT065 SCT085 21/17 A3006 RMK AO2 SLP171 T02060172=
202006110852 METAR KATL 110852Z 31011KT 10SM FEW014 SCT035 BKN070 22/18 A3006 RMK AO2 SLP167 60000 T02170183 51007=
202006110752 METAR KATL 110752Z 30007KT 10SM FEW012 BKN034 BKN070 22/18 A3006 RMK AO2 RAB27E47 SLP168 P0000 T02170183=
202006110723 SPECI KATL 110723Z 33008KT 10SM SCT025 BKN037 BKN075 22/18 A3005 RMK AO2 T02220183=
202006110652 METAR KATL 110652Z 33013KT 10SM SCT009 BKN024 BKN050 23/18 A3004 RMK AO2 WSHFT 0630 SLP161 FROPA T02280183=
202006110650 SPECI KATL 110650Z 33014KT 10SM SCT009 BKN024 BKN050 23/18 A3004 RMK AO2 WSHFT 0630 FROPA=
202006110642 SPECI KATL 110642Z 32015KT 10SM SCT009 BKN016 OVC022 23/18 A3003 RMK AO2 T02330183=
202006110552 METAR KATL 110552Z 23007KT 10SM BKN005 OVC010 24/22 A3003 RMK AO2 SLP159 T02390222 10267 20233 51006=
202006110452 METAR KATL 110452Z 21010KT 10SM BKN005 OVC010 24/22 A3002 RMK AO2 SLP157 T02390222 402890228=
202006110352 METAR KATL 110352Z 20007KT 10SM BKN009 BKN250 23/22 A3002 RMK AO2 SLP155 T02330217=
202006110252 METAR KATL 110252Z 20007KT 10SM FEW010 FEW250 23/22 A3001 RMK AO2 SLP153 T02330217 53015=
202006110152 METAR KATL 110152Z 21007KT 10SM FEW012 SCT250 24/22 A2999 RMK AO2 SLP146 T02390217=
202006110052 METAR KATL 110052Z 21007KT 10SM SCT013 BKN200 BKN250 24/22 A2998 RMK AO2 SLP143 SCT013 V BKN T02440217=
202006110031 SPECI KATL 110031Z 20009KT 10SM SCT013 BKN020 BKN200 BKN250 25/22 A2997 RMK AO2 T02500217=
202006102352 METAR KATL 102352Z 18010KT 10SM FEW020 FEW150 SCT200 BKN250 27/23 A2997 RMK AO2 SLP137 60004 T02670228 10289 20239 55003=
202006102252 METAR KATL 102252Z 21013G17KT 10SM FEW020 SCT150 BKN200 BKN250 27/22 A2996 RMK AO2 RAE04 SLP134 CB DSNT NE SE P0002 T02670217 $=
202006102152 METAR KATL 102152Z 22008G20KT 6SM -RA SCT022CB BKN050 BKN090 OVC200 26/22 A2997 RMK AO2 RAB2054E10B40 TSE51 SLP141 LTG DSNT NE TS MOVD NE CB OHD-NW MOV NE P0002 T02560222 $=
202006102052 METAR KATL 102052Z 21007KT 10SM TS FEW024CB SCT034TCU BKN085 BKN200 28/23 A2998 RMK AO2 RAB32E43 TSB32 SLP140 OCNL LTGICCGCA NW-N TS NW-N MOV NE CB DSNT N NE SE SW TCU SE SW DSNT NE P0000 60000 T02780228 55011 $=
202006102033 SPECI KATL 102033Z 20009KT 8SM -TSRA SCT024CB SCT034TCU BKN090 BKN200 28/23 A2997 RMK AO2 LTG DSNT W RAB32 TSB32 OCNL LTGICCGCA W-NW TS W-NW MOV NE CB DSNT SE W TCU NW-N P0000 T02830228 $=
202006101952 METAR KATL 101952Z 19010KT 10SM SCT024TCU BKN032 BKN085 BKN200 28/23 A2997 RMK AO2 LTG DSNT W SLP138 CB DSNT E-S-W TCU W-N T02830233 $=
202006101920 SPECI KATL 101920Z 17006KT 10SM BKN020TCU BKN034 BKN075 BKN200 28/23 A2998 RMK AO2 LTG DSNT SE CB DSNT ALQDS TCU W-NW T02780233 $=
202006101852 METAR KATL 101852Z 21008KT 10SM SCT016 BKN030TCU BKN075 BKN200 27/23 A2999 RMK AO2 LTG DSNT S RAE1755 SLP145 CB DSNT ALQDS TCU W DSNT SW P0000 T02720228 $=
202006101752 METAR KATL 101752Z 21008KT 10SM -RA FEW008 FEW024 SCT070 BKN140 BKN200 24/21 A3001 RMK AO2 LTG DSNT NE AND SE TSE37 SLP152 TS MOVD NE CB DSNT NE-SE-S NW TCU DSNT SW NW P0052 60067 T02390211 10267 20233 55001 $=
202006101737 SPECI KATL 101737Z 21008KT 10SM -RA FEW007 FEW022 SCT060 BKN140 BKN200 23/21 A3000 RMK AO2 LTG DSNT SE AND S TSE37 TS MOVD NE CB DSNT NE-SE-S NW P0052 T02330211 $=
202006101718 SPECI KATL 101718Z 21008KT 6SM -TSRA BR FEW008 SCT024CB SCT050 BKN130 BKN200 23/22 A3000 RMK AO2 OCNL LTGICCGCA NE-SE TS NE-SE MOV NE P0051 T02330217 $=
202006101714 SPECI KATL 101714Z 22007KT 4SM R09R/5000VP6000FT -TSRA BR FEW008 BKN024CB OVC038 23/22 A3000 RMK AO2 OCNL LTGICCGCA NE-SE-S TS NE-SE-S MOV NE P0050 T02330217 $=
202006101711 SPECI KATL 101711Z 23008KT 2 1/2SM R09R/3500VP6000FT TSRA BR SCT008 BKN022CB OVC038 23/22 A3001 RMK AO2 OCNL LTGICCGCA N-OHD-S TS N-OHD-S MOV NE P0050 T02330217 $=
202006101708 SPECI KATL 101708Z 22009KT 1SM R09R/3000VP6000FT +TSRA BR SCT008 BKN022CB OVC038 23/22 A3001 RMK AO2 OCNL LTGICCGCA N-OHD-S TS N-OHD-S MOV NE P0047 T02330217 $=
202006101700 SPECI KATL 101700Z 23013G21KT 1/2SM R09R/2600VP6000FT +TSRA FG SCT008 OVC022CB 24/22 A3002 RMK AO2 LTG DSNT N AND SW OCNL LTGICCGCA N-OHD-S TS N-OHD-S MOV NE CB DSNT SW P0014 T02390217 $=
202006101658 SPECI KATL 101658Z 24014G21KT 1SM R09R/2600VP6000FT +TSRA BR FEW008 BKN022CB OVC040 24/22 A3001 RMK AO2 LTG DSNT SW OCNL LTGICCGCA N-OHD-S TS N-OHD-S MOV NE CB DSNT SW P0007 T02440222=
202006101654 SPECI KATL 101654Z 24012G16KT 2 1/2SM -TSRA BR FEW008 BKN022CB OVC040 26/23 A3000 RMK AO2 LTG DSNT SW OCNL LTGICCGCA N-OHD-S TS N-OHD-S MOV NE CB DSNT SW P0000 T02560233=
202006101652 METAR KATL 101652Z 24007KT 3SM -TSRA BR FEW007 BKN018CB OVC042 26/23 A3000 RMK AO2 LTG DSNT SW SLP148 RAB10 TSB08 OCNL LTGICCGCA SW-NW-N TS SW-NW-N MOV NE CB DSNT SW P0015 T02560233=
202006101610 SPECI KATL 101610Z 19007KT 6SM -TSRA BKN016CB OVC030 26/22 A3000 RMK AO2 TSB07 OCNL LTGICCGCA SW-NW TS SW-NW MOV NE P0000 T02610222=
202006101552 METAR KATL 101552Z 18009KT 10SM BKN015TCU OVC030 27/22 A3000 RMK AO2 DZE36 SLP150 CIG 013V017 TCU SW-NW BINOVC P0000 T02670222=
202006101452 METAR KATL 101452Z 18006KT 8SM -DZ OVC012 25/22 A3001 RMK AO2 DZB49 SLP153 CIG 010V014 P0000 60000 T02500222 58002=
202006101352 METAR KATL 101352Z 20008KT 9SM OVC010 24/22 A3002 RMK AO2 SLP156 CIG 009V011 T02440217=
202006101345 SPECI KATL 101345Z 20007KT 9SM OVC010 24/22 A3002 RMK AO2 CIG 009V011 T02440222=
202006101252 METAR KATL 101252Z 21007KT 10SM OVC007 24/22 A3002 RMK AO2 SLP155 CIG 006V010 T02390217=
202006101152 METAR KATL 101152Z 20005KT 8SM OVC008 23/22 A3002 RMK AO2 DZE14 SLP157 CIG 007V011 BINOVC E P0000 60000 70032 T02330217 10233 20228 50012=
202006101052 METAR KATL 101052Z 20005KT 4SM -DZ BR OVC006 23/22 A3002 RMK AO2 SLP157 CIG 005V008 P0000 T02330217=
202006100952 METAR KATL 100952Z 20005KT 4SM -DZ BR BKN006 OVC012 23/21 A3000 RMK AO2 DZE08B49 SLP149 P0000 T02330211 $=
202006100852 METAR KATL 100852Z 23006KT 5SM -DZ BR OVC005 23/21 A2998 RMK AO2 DZB47 SLP144 P0000 60000 T02280211 55003 $=
202006100811 SPECI KATL 100811Z 21006KT 10SM BKN008 OVC021 23/21 A2998 RMK AO2 T02280211 $=
202006100752 METAR KATL 100752Z 22006KT 10SM SCT008 SCT021 BKN150 BKN200 23/21 A2998 RMK AO2 SLP141 T02280211 $=
202006100652 METAR KATL 100652Z 23005KT 10SM FEW007 FEW140 BKN180 BKN250 23/21 A2998 RMK AO2 SLP143 T02330211 $=
202006100604 SPECI KATL 100604Z 21005KT 10SM SCT008 BKN200 BKN250 23/21 A2999 RMK AO2 SCT008 V BKN T02330211 $=
202006100552 METAR KATL 100552Z 21007KT 10SM BKN008 BKN012 BKN200 23/21 A2999 RMK AO2 SLP145 CIG 007V010 BKN008 V SCT 60000 T02330211 10256 20233 58009 $=
202006100537 SPECI KATL 100537Z 22006KT 10SM BKN008 BKN012 BKN200 24/22 A3000 RMK AO2 CIG 007V010 BKN008 V SCT T02390217 $=
202006100452 METAR KATL 100452Z 19005KT 10SM SCT007 BKN012 BKN200 24/22 A3001 RMK AO2 SLP150 T02390222 403000228 $=
202006100352 METAR KATL 100352Z 17005KT 10SM SCT007 BKN015 BKN140 OVC200 24/22 A3002 RMK AO2 SLP154 T02390222 $=
202006100252 METAR KATL 100252Z 19006KT 10SM FEW015 SCT100 BKN140 OVC200 24/22 A3002 RMK AO2 RAE0156 SLP155 P0000 60000 T02440222 53007 $=
202006100152 METAR KATL 100152Z 15005KT 10SM -RA SCT023 BKN110 OVC200 25/22 A3001 RMK AO2 RAB46 SLP151 P0000 T02500222 $=
202006100052 METAR KATL 100052Z 17003KT 10SM FEW020 SCT110 BKN150 BKN200 25/22 A3000 RMK AO2 SLP151 T02500217 $=
202006092352 METAR KATL 092352Z 19006KT 10SM FEW015 SCT100 BKN150 BKN200 26/22 A3000 RMK AO2 SLP149 CB DSNT N-NE 60032 T02560217 10300 20228 53007 $=
202006092252 METAR KATL 092252Z 21008KT 10SM FEW015 SCT080 BKN150 BKN200 26/21 A2998 RMK AO2 LTG DSNT N AND NW SLP143 CB DSNT NW-N T02610211 $=
202006092152 METAR KATL 092152Z 19011KT 10SM FEW015 FEW060 BKN150 BKN200 26/22 A2998 RMK AO2 RAE08 TSE08 SLP143 CB DSNT NE NW P0000 T02610217 $=
202006092108 SPECI KATL 092108Z 18014KT 10SM FEW012 SCT024CB BKN060 BKN140 BKN200 25/21 A2997 RMK AO2 RAE08 TSE08 TS DSIPTD CB NE-SE MOV NE TCU W-N-NE P0000 T02500211 $=
202006092036 SPECI KATL 092036Z 17006KT 10SM TS FEW026CB SCT038TCU BKN120 BKN200 29/23 A2996 RMK AO2 LTG DSNT NE-S TSB35 FRQ LTGICCGCA SE-S TS SE-S MOV NE CB DSNT ALQDS SHELF CLOUD SE-SW MOV NE T02890228 $=
202006091952 METAR KATL 091952Z 20008KT 10SM FEW020 FEW060 SCT120 BKN200 28/23 A2996 RMK AO2 LTG DSNT ALQDS RAE05 TSE04 SLP133 TS DSIPTD CB DSNT ALQDS P0006 T02830233 $=
202006091906 SPECI KATL 091906Z 22004KT 10SM FEW026TCU SCT055 BKN120 BKN200 24/21 A2996 RMK AO2 LTG DSNT SE-W RAE05 TSE04 TS DSIPTD CB DSNT ALQDS TCU NW-NE P0006 T02390211 $=
202006091852 METAR KATL 091852Z 23006KT 4SM R09R/2000VP6000FT +TSRA SCT028CB BKN055 BKN120 BKN200 23/20 A2998 RMK AO2 PK WND 20034/1836 SLP143 TSB30 VIS W-NW 2 FRQ LTGICCGCA SE-OHD-NW TS SE-OHD-NW MOV NE CB DSNT ALQDS TCU N-NE P0026 T02330200 $=
202006091849 SPECI KATL 091849Z 22009G28KT 3SM R09R/1600VP6000FT +TSRA BKN028CB BKN055 OVC120 23/19 A2998 RMK AO2 PK WND 20034/1836 TSB30 VIS W-NW 1 FRQ LTGICCGCA SE-OHD-NW TS SE-OHD-NW MOV NE CB DSNT ALQDS P0021 $=
202006091846 SPECI KATL 091846Z 19012G29KT 1SM R09R/1600VP6000FT +TSRA BKN028CB OVC055 23/19 A2998 RMK AO2 PK WND 20034/1836 TSB30 VIS NW-NE-E 3 FRQ LTGICCGCA SE-OHD-NW TS SE-OHD-NW MOV NE CB DSNT ALQDS P0006 $=
202006091831 SPECI KATL 091831Z 20011KT 10SM TS SCT030CB BKN055 BKN120 BKN200 30/22 A2997 RMK AO2 LTG DSNT NE AND W TSB30 OCNL LTGICCGCA S-SW TS S-SW MOV NE CB DSNT NE-E S W-NW T03000217=
202006091752 METAR KATL 091752Z 18008KT 9SM SCT028TCU SCT042 BKN120 BKN200 29/22 A2998 RMK AO2 SLP142 CB DSNT NE-E S-W TCU NE NW T02890222 10294 20233 58010=
202006091652 METAR KATL 091652Z 20012G18KT 10SM SCT024CB SCT036TCU BKN120 BKN200 29/22 A3000 RMK AO2 SLP149 CB SE MOV NE TCU E-SE W-NW DSNT SW SHRA SE T02890222 $=
202006091640 SPECI KATL 091640Z 20007KT 10SM SCT024CB BKN035TCU BKN050 BKN140 28/22 A3000 RMK AO2 CB SE MOV NE TCU NE-SE-SW SHRA SE T02830217 $=
202006091552 METAR KATL 091552Z 22007KT 10SM SCT018 BKN026 OVC038 27/22 A3001 RMK AO2 SLP151 BINOVC T02720217 $=
202006091452 METAR KATL 091452Z 23008KT 10SM SCT015 BKN027 BKN042 BKN140 27/22 A3002 RMK AO2 SLP153 T02670217 50006=
202006091352 METAR KATL 091352Z 19007KT 10SM SCT012 BKN018 OVC040 25/21 A3002 RMK AO2 SLP155 BINOVC T02500211=
202006091331 SPECI KATL 091331Z VRB05KT 10SM SCT010 BKN022 BKN120 BKN200 24/22 A3002 RMK AO2 CIG 006V009 T02440217=
202006091252 METAR KATL 091252Z 19009KT 7SM BKN007 OVC020 24/21 A3002 RMK AO2 SLP153 CIG 006V009 BINOVC T02390211=
202006091152 METAR KATL 091152Z 18005KT 7SM FEW004 OVC008 23/21 A3000 RMK AO2 SLP147 CIG 007V009 BINOVC T02330211 10244 20228 53012=
202006091128 SPECI KATL 091128Z 15005KT 7SM FEW004 BKN008 OVC045 23/21 A2999 RMK AO2 CIG 007V009 BINOVC T02280211=
202006091052 METAR KATL 091052Z 14005KT 8SM FEW004 BKN011 BKN046 23/21 A2999 RMK AO2 SLP143 T02280206=
202006090952 METAR KATL 090952Z 14004KT 10SM FEW005 BKN014 23/21 A2997 RMK AO2 SLP139 BKN014 V SCT T02280211=
202006090852 METAR KATL 090852Z 16004KT 10SM FEW008 BKN016 23/21 A2996 RMK AO2 SLP135 BKN018 V SCT T02330211 53001=
202006090849 SPECI KATL 090849Z 16005KT 10SM FEW008 BKN018 23/21 A2996 RMK AO2 BKN018 V SCT=
202006090752 METAR KATL 090752Z 15005KT 10SM FEW008 SCT019 23/21 A2995 RMK AO2 SLP132 T02330211=
202006090652 METAR KATL 090652Z 12005KT 10SM FEW008 24/22 A2996 RMK AO2 SLP135 T02390217=
202006090552 METAR KATL 090552Z 15004KT 10SM FEW008 24/22 A2996 RMK AO2 SLP134 60000 T02440217 10283 20244 50001=
202006090452 METAR KATL 090452Z 17004KT 10SM FEW008 25/23 A2996 RMK AO2 SLP135 T02500228 402940072=
202006090352 METAR KATL 090352Z 14006KT 10SM FEW025 FEW200 25/23 A2996 RMK AO2 SLP135 T02500228=
202006090252 METAR KATL 090252Z 13006KT 10SM FEW060 FEW200 26/23 A2996 RMK AO2 SLP133 TSE12 60000 T02610228 51010=
202006090212 SPECI KATL 090212Z 12007KT 10SM FEW030 SCT055 SCT250 27/23 A2996 RMK AO2 TSE12 LTG DSNT N TS MOVD N T02670228=
202006090152 METAR KATL 090152Z 13006KT 10SM VCTS FEW030CB SCT055 SCT250 27/23 A2995 RMK AO2 SLP132 RAB26E37 TSB50 OCNL LTGIC N-NE TS VC N-NE MOV N P0000 T02670228=
202006090052 METAR KATL 090052Z 11007KT 10SM SCT032TCU SCT055 BKN150 BKN250 28/22 A2994 RMK AO2 SLP128 TCU SW-NW DSNT SE T02780217=
202006082352 METAR KATL 082352Z 11009KT 10SM FEW030TCU SCT060 BKN150 BKN250 28/21 A2993 RMK AO2 SLP122 TCU SE-S SW-W 60000 T02830211 10294 20272 55002=
202006082252 METAR KATL 082252Z 12008KT 10SM FEW035 SCT150 BKN200 29/21 A2992 RMK AO2 SLP120 TCU DSNT S-SW T02940211=
202006082152 METAR KATL 082152Z 13010KT 10SM FEW030 SCT070 BKN130 BKN200 29/22 A2993 RMK AO2 SLP122 TCU DSNT NE-E T02940217=
202006082052 METAR KATL 082052Z 14010G17KT 10SM FEW030 FEW065 SCT120 BKN200 28/21 A2993 RMK AO2 SLP124 TCU DSNT NE-E 60000 T02830211 58018=
202006081952 METAR KATL 081952Z 12009KT 10SM FEW026 SCT060 BKN120 BKN200 28/21 A2995 RMK AO2 SLP130 T02830211=
202006081852 METAR KATL 081852Z 16008KT 10SM SCT024 BKN040 BKN100 OVC200 27/21 A2997 RMK AO2 RAB02E15 SLP139 VIRGA SE-SW-NW P0000 T02720211 $=
202006081752 METAR KATL 081752Z 12008KT 10SM SCT022 BKN050 BKN120 OVC200 27/21 A2999 RMK AO2 SLP143 VIRGA SE-SW-NW 60000 T02720206 10278 20233 50005=
202006081739 SPECI KATL 081739Z 13009G17KT 10SM SCT024 BKN048 BKN110 OVC200 28/21 A2999 RMK AO2 VIRGA SE-SW-NW T02780206=
202006081652 METAR KATL 081652Z 12008KT 10SM BKN022 BKN046 BKN110 OVC200 27/21 A2999 RMK AO2 SLP145 VIRGA OHD-ALQDS T02670211=
202006081622 SPECI KATL 081622Z 14007KT 10SM SCT020 BKN110 BKN180 OVC250 27/21 A2999 RMK AO2 VIRGA OHD-ALQDS T02670211=
202006081552 METAR KATL 081552Z 13009KT 10SM BKN017 BKN026 BKN110 OVC200 26/21 A2999 RMK AO2 SLP145 VIRGA SE-SW-NW T02610211=
202006081452 METAR KATL 081452Z 14008KT 10SM SCT013 SCT022 BKN120 BKN180 26/21 A2997 RMK AO2 SLP139 VIRGA SE-SW-W 60000 T02560211 50002=
202006081427 SPECI KATL 081427Z 12008KT 10SM SCT010 BKN018 BKN110 OVC200 26/22 A2997 RMK AO2 T02560217=
202006081352 METAR KATL 081352Z 12008KT 9SM BKN007 BKN012 OVC018 24/22 A2998 RMK AO2 DZB38E50 SLP141 CIG 006V009 P0000 T02440217=
202006081252 METAR KATL 081252Z 13008KT 8SM OVC006 24/22 A2997 RMK AO2 SLP138 T02390217=
202006081152 METAR KATL 081152Z 15008KT 10SM BKN006 OVC012 23/21 A2996 RMK AO2 SLP137 T02330211 10244 20228 52014=
202006081052 METAR KATL 081052Z 11005KT 10SM BKN006 BKN080 OVC180 23/21 A2995 RMK AO2 SLP131 BKN006 V SCT BINOVC T02330211=
202006081048 SPECI KATL 081048Z 12005KT 10SM BKN006 BKN080 OVC180 23/21 A2995 RMK AO2 BKN006 V SCT BINOVC=
202006080952 METAR KATL 080952Z 12005KT 10SM SCT006 BKN150 OVC200 23/21 A2993 RMK AO2 SLP125 BINOVC T02330211 $=
202006080924 SPECI KATL 080924Z 11005KT 10SM SCT006 BKN200 OVC250 23/21 A2993 RMK AO2 T02330211 $=
202006080852 METAR KATL 080852Z 13004KT 10SM BKN006 BKN200 OVC250 23/21 A2992 RMK AO2 SLP122 BKN006 V SCT T02330211 58007 $=
202006080752 METAR KATL 080752Z 15005KT 10SM SCT008 BKN200 OVC250 23/21 A2993 RMK AO2 SLP123 T02330211 $=
202006080749 SPECI KATL 080749Z 15005KT 10SM SCT008 BKN200 OVC250 23/21 A2993 RMK AO2 $=
202006080652 METAR KATL 080652Z 14005KT 10SM FEW010 SCT200 OVC250 24/21 A2994 RMK AO2 SLP127 T02390211 $=
202006080552 METAR KATL 080552Z 15006KT 10SM SCT010 OVC200 24/22 A2994 RMK AO2 SLP128 T02440217 10278 20244 58003 $=
202006080550 SPECI KATL 080550Z 15007KT 10SM SCT010 OVC200 24/22 A2994 RMK AO2 $=
202006080520 SPECI KATL 080520Z 14006KT 10SM BKN011 OVC036 24/22 A2995 RMK AO2 T02440217 $=
202006080452 METAR KATL 080452Z 12005KT 10SM FEW014 SCT036 SCT200 BKN250 24/22 A2995 RMK AO2 SLP132 T02440217 402940217 $=
202006080352 METAR KATL 080352Z 12006KT 10SM FEW019 SCT036 SCT200 BKN250 25/21 A2995 RMK AO2 SLP132 T02500211 $=
202006080252 METAR KATL 080252Z 15005KT 10SM FEW019 SCT033 SCT180 BKN250 25/21 A2995 RMK AO2 SLP133 T02500211 53011 $=
202006080152 METAR KATL 080152Z 13005KT 10SM FEW030 SCT055 SCT180 BKN250 26/21 A2993 RMK AO2 SLP125 T02610211 $=
202006080052 METAR KATL 080052Z 15006KT 10SM FEW028 SCT050 BKN180 BKN250 26/21 A2992 RMK AO2 SLP122 T02610211 $=
202006072352 METAR KATL 072352Z 15007KT 10SM SCT035 BKN180 BKN250 28/21 A2992 RMK AO2 SLP121 60000 T02780206 10294 20267 55008 $=
202006072252 METAR KATL 072252Z 12006KT 10SM SCT034 BKN180 BKN250 29/20 A2992 RMK AO2 SLP120 T02890200 $=
202006072152 METAR KATL 072152Z 16009KT 10SM SCT035 SCT050 BKN250 28/21 A2993 RMK AO2 SLP124 TCU DSNT E-SW AND NW T02830211 $=
202006072052 METAR KATL 072052Z 14003KT 10SM SCT032TCU SCT048 BKN250 28/21 A2994 RMK AO2 RAB36E50 SLP129 TCU ALQDS P0000 60000 T02780211 58007 $=
202006071952 METAR KATL 071952Z 12007KT 10SM SCT033TCU BKN250 29/21 A2995 RMK AO2 SLP133 TCU SE-SW T02890206 $=
202006071852 METAR KATL 071852Z 12008KT 10SM BKN032 BKN250 29/21 A2996 RMK AO2 SLP135 T02890206 $=
202006071752 METAR KATL 071752Z 14010KT 10SM FEW033 BKN250 29/20 A2996 RMK AO2 SLP136 T02940200 10294 20217 58010 $=
202006071652 METAR KATL 071652Z 15008KT 10SM FEW028 BKN250 28/20 A2998 RMK AO2 SLP140 T02780200 $=
202006071552 METAR KATL 071552Z 15008KT 10SM SCT024 SCT180 BKN250 27/21 A2999 RMK AO2 SLP146 T02720206 $=
202006071452 METAR KATL 071452Z 09005KT 10SM SCT016 BKN180 BKN250 26/21 A3000 RMK AO2 SLP148 T02610206 58000 $=
202006071352 METAR KATL 071352Z 12004KT 10SM FEW012 BKN150 BKN250 23/20 A3001 RMK AO2 SLP154 T02330200 $=
202006071252 METAR KATL 071252Z 11006KT 10SM FEW009 FEW150 SCT200 BKN250 23/19 A3001 RMK AO2 SLP153 VIRGA NW T02280194 $=
202006071152 METAR KATL 071152Z 10005KT 10SM FEW008 SCT150 BKN200 BKN250 22/19 A3000 RMK AO2 SLP149 VIRGA OHD-SW-NW 70012 T02170194 10228 20217 51014 $=
202006071052 METAR KATL 071052Z 06005KT 10SM FEW008 FEW150 BKN200 22/19 A2999 RMK AO2 SLP145 T02170194 $=
202006070952 METAR KATL 070952Z 08004KT 10SM BKN200 22/19 A2997 RMK AO2 SLP138 T02170194 $=
202006070852 METAR KATL 070852Z 15003KT 10SM BKN200 OVC250 22/19 A2995 RMK AO2 SLP134 T02170194 57023 $=
202006070752 METAR KATL 070752Z 00000KT 10SM FEW011 BKN200 OVC250 22/20 A2998 RMK AO2 SLP142 T02170200 $=
202006070652 METAR KATL 070652Z 00000KT 10SM FEW011 BKN200 OVC250 22/19 A3000 RMK AO2 SLP146 T02220194 $=
202006070552 METAR KATL 070552Z 18004KT 10SM FEW011 SCT032 BKN200 OVC250 22/19 A3002 RMK AO2 SLP155 T02220194 10267 20222 50010 $=
202006070452 METAR KATL 070452Z 19003KT 10SM SCT032 SCT046 BKN150 OVC250 23/19 A3002 RMK AO2 SLP156 T02280194 403060206 $=
202006070352 METAR KATL 070352Z 00000KT 10SM SCT032 SCT047 BKN150 OVC250 23/20 A3001 RMK AO2 SLP153 T02330200 $=
202006070252 METAR KATL 070252Z 20003KT 10SM SCT032 SCT044 BKN140 BKN200 24/21 A2999 RMK AO2 SLP145 T02440206 53005 $=
202006070152 METAR KATL 070152Z 19008KT 10SM SCT031 BKN046 OVC150 26/22 A2998 RMK AO2 SLP140 T02560217 $=
202006070052 METAR KATL 070052Z 18004KT 10SM FEW020 SCT037 SCT070 BKN150 OVC200 26/22 A2997 RMK AO2 SLP139 T02610217 $=
202006062352 METAR KATL 062352Z 00000KT 7SM FEW019 SCT036 SCT070 BKN150 OVC200 27/22 A2998 RMK AO2 SLP141 MDT CU DSNT NE AND SW 60012 T02670222 10306 20256 58005 $=
202006062252 METAR KATL 062252Z 18005KT 7SM FEW017 SCT037 SCT070 BKN140 OVC200 27/22 A2998 RMK AO2 SLP143 MDT CU DSNT S-SW T02720217 $=
202006062152 METAR KATL 062152Z 19003KT 7SM FEW011 SCT037 BKN055 BKN200 28/23 A2999 RMK AO2 RAE07 SLP146 MDT CU DSNT S-SW P0004 T02780228 $=
202006062100 SPECI KATL 062100Z 20010KT 5SM -RA BR SCT009 OVC034 26/21 A2999 RMK AO2 P0004 T02560206 $=
202006062052 METAR KATL 062052Z 19018G23KT 8SM +RA BKN034 BKN080 BKN200 26/21 A2999 RMK AO2 RAB46 SLP147 VSBY LWR S TCU DSNT NW P0008 60008 T02610211 56015 $=
202006061952 METAR KATL 061952Z 20003KT 10SM SCT038 BKN200 29/20 A3001 RMK AO2 SLP151 T02940200 $=
202006061852 METAR KATL 061852Z 24004KT 10SM SCT035 BKN250 29/21 A3002 RMK AO2 SLP155 T02940206 $=
202006061752 METAR KATL 061752Z 25003KT 10SM SCT032 BKN250 29/21 A3004 RMK AO2 SLP161 T02940211 10294 20211 58006 $=
202006061652 METAR KATL 061652Z 26003KT 10SM BKN031 BKN150 BKN250 29/20 A3006 RMK AO2 SLP168 T02890200=
202006061552 METAR KATL 061552Z 26003KT 10SM FEW028 SCT200 BKN250 28/21 A3006 RMK AO2 SLP169 T02780206=
202006061452 METAR KATL 061452Z 29004KT 10SM SCT200 BKN250 27/21 A3006 RMK AO2 SLP168 T02720206 51008=
202006061352 METAR KATL 061352Z 00000KT 10SM SCT200 BKN250 24/19 A3005 RMK AO2 SLP167 T02440194=
202006061252 METAR KATL 061252Z 34003KT 10SM FEW034 SCT150 BKN200 BKN250 23/19 A3004 RMK AO2 SLP165 T02330189=
202006061152 METAR KATL 061152Z 21004KT 10SM FEW150 BKN200 BKN250 21/19 A3003 RMK AO2 SLP161 VIRGA ALQDS 70026 T02110189 10211 20206 53012=
202006061052 METAR KATL 061052Z 00000KT 10SM FEW100 SCT200 BKN250 21/19 A3001 RMK AO2 SLP156 T02110189=
202006060952 METAR KATL 060952Z 23004KT 10SM BKN200 BKN250 21/18 A3001 RMK AO2 SLP153 VIRGA SE-SW-NW T02060183=
202006060852 METAR KATL 060852Z 32005KT 10SM FEW150 BKN250 21/19 A2999 RMK AO2 SLP149 VIRGA SE-SW T02110189 55004=
202006060752 METAR KATL 060752Z 30005KT 10SM FEW150 SCT250 21/19 A2999 RMK AO2 SLP147 T02110189=
202006060652 METAR KATL 060652Z 27006KT 10SM FEW150 FEW250 21/19 A2999 RMK AO2 SLP148 T02110189=
202006060552 METAR KATL 060552Z 27004KT 10SM FEW150 SCT200 BKN250 21/19 A3001 RMK AO2 SLP153 T02110189 10244 20211 55002=
202006060452 METAR KATL 060452Z 00000KT 10SM FEW150 SCT200 BKN250 22/19 A3000 RMK AO2 SLP150 T02170189 402830217=
202006060352 METAR KATL 060352Z 00000KT 10SM FEW150 SCT200 BKN250 22/19 A3001 RMK AO2 SLP153 T02170194=
202006060252 METAR KATL 060252Z 21005KT 10SM FEW150 SCT200 BKN250 22/19 A3001 RMK AO2 SLP153 T02220194 53013=
202006060152 METAR KATL 060152Z 21005KT 10SM FEW150 SCT200 BKN250 23/20 A2999 RMK AO2 SLP145 T02280200=
202006060052 METAR KATL 060052Z 00000KT 10SM FEW055 FEW150 SCT250 24/20 A2998 RMK AO2 SLP143 T02390200=
202006052352 METAR KATL 052352Z 27004KT 10SM FEW055TCU SCT200 24/20 A2997 RMK AO2 SLP141 TCU SE-S DSNT SW 60017 T02440200 10261 20239 53004=
202006052252 METAR KATL 052252Z 27007KT 10SM FEW030 BKN140 BKN200 BKN250 24/20 A2997 RMK AO2 SLP140 TCU DSNT N-NE SW T02390200=
202006052152 METAR KATL 052152Z 21006KT 10SM FEW080 BKN150CB BKN200 24/20 A2995 RMK AO2 SLP133 VIRGA W-NW CBMAM SW-NW T02440200=
202006052052 METAR KATL 052052Z 21007KT 10SM FEW026 FEW075 SCT110 BKN180CB 24/20 A2996 RMK AO2 SLP137 VIRGA E-S CBMAM SW-NW MOV E CB DSNT SE-SW-W TCU DSNT N NE 60017 T02390200 56014=
202006051952 METAR KATL 051952Z 25006KT 10SM FEW022 SCT075 SCT120 BKN200 24/21 A2997 RMK AO2 LTG DSNT S AND SW RAE17 TSE14 SLP140 TS DSIPTD VIRGA SE-SW CB DSNT SE-SW-W TCU DSNT NE NW ACC SE-S P0016 T02440211=
202006051916 SPECI KATL 051916Z 26006KT 8SM -RA FEW022 SCT070 SCT110 BKN200 24/22 A2999 RMK AO2 LTG DSNT SW AND NW TSE14 TS DSIPTD CB DSNT SE-SW NW P0016 T02440217 $=
202006051900 SPECI KATL 051900Z 27010KT 4SM +TSRA SCT030CB SCT075 BKN110 BKN200 25/22 A3000 RMK AO2 LTG DSNT SW AND W OCNL LTGICCA OHD-SW-NW TS OHD-SW-NW MOV SE CB DSNT SE-SW-NW P0004 T02500217 $=
202006051852 METAR KATL 051852Z 25009KT 10SM -TSRA SCT030CB SCT075 BKN120 BKN200 26/22 A2999 RMK AO2 LTG DSNT SW-NW SLP146 RAE06B51 TSB26 OCNL LTGICCA W-NW TS W-NW MOV SE CB DSNT SE-SW-NW P0001 T02610217=
202006051829 SPECI KATL 051829Z 21006KT 10SM TS FEW028CB SCT075 SCT110 BKN200 26/22 A2999 RMK AO2 RAE06 TSB26 OCNL LTGICCGCA NW-N TS NW-N MOV SE CB DSNT SE-SW-NW P0001 T02610217=
202006051752 METAR KATL 051752Z 21005KT 6SM -RA FEW030 FEW075 SCT110 BKN200 24/22 A3001 RMK AO2 LTG DSNT SE-W RAB02E19B49 TSE07 SLP152 TS DSIPTD CB DSNT SE-SW-NW P0000 60009 T02440217 10283 20222 58004=
202006051707 SPECI KATL 051707Z 26004KT 7SM -RA FEW028TCU SCT080 SCT110 BKN200 26/22 A3002 RMK AO2 LTG DSNT SE-SW RAB02 TSE07 TS DSIPTD CB DSNT N E-SE-SW TCU W P0000 T02610217=
202006051652 METAR KATL 051652Z 29005KT 10SM TS FEW028CB SCT080 SCT110 BKN200 26/21 A3001 RMK AO2 LTG DSNT E-SW RAB1557E10 TSB49 SLP153 OCNL LTGICCGCA S-W TS S-W MOV E CB DSNT NE-SE-SW TCU W-NW SHRA S-W P0009 T02610211=
202006051552 METAR KATL 051552Z 34009KT 10SM FEW024 SCT038TCU BKN085 BKN200 26/20 A3003 RMK AO2 WSHFT 1502 LTG DSNT E RAB29E48 TSE48 SLP159 TS MOVD E CB DSNT NE-SE SW TCU SE-SW SHRA DSNT NE-SE SW P0000 T02560200=
202006051535 SPECI KATL 051535Z 35012KT 10SM -TSRA SCT024CB BKN036TCU BKN085 BKN200 26/19 A3004 RMK AO2 WSHFT 1502 RAB29 OCNL LTGICCGCA N-NE TS N-NE MOV E CB DSNT NE-E SW TCU OHD-ALQDS P0000 T02560194=
202006051517 SPECI KATL 051517Z 34011G20KT 10SM TS BKN024CB BKN055 BKN100 OVC200 26/19 A3004 RMK AO2 WSHFT 1502 FRQ LTGICCGCA NW-NE TS NW-NE MOV E CB DSNT NW-NE SHELF CLOUD NW-NE-E MOV E T02610194=
202006051508 SPECI KATL 051508Z 29011G18KT 10SM TS BKN026CB BKN050 BKN100 BKN200 28/21 A3003 RMK AO2 FRQ LTGICCGCA NW-NE TS NW-NE MOV E CB DSNT SW NW-NE SHELF CLOUD NW-NE-E MOV E T02780206=
202006051452 METAR KATL 051452Z 27010KT 240V300 10SM TS FEW028CB SCT045TCU BKN100 BKN200 28/21 A3002 RMK AO2 LTG DSNT N AND NW TSB51 SLP154 OCNL LTGICCGCA NW TS NW MOV E CB DSNT SW-NW-NE TCU E S T02830206 50008=
202006051352 METAR KATL 051352Z 26008KT 10SM FEW022 FEW040 SCT100 SCT200 27/21 A3002 RMK AO2 SLP154 CB DSNT W-N T02670206=
202006051252 METAR KATL 051252Z 25007KT 230V290 10SM FEW100 FEW200 25/21 A3001 RMK AO2 SLP152 TCU DSNT NW T02500206=
202006051152 METAR KATL 051152Z 22007KT 10SM FEW090 FEW250 22/19 A2999 RMK AO2 SLP146 CB DSNT NW-NE T02220189 10233 20217 51011=
202006051052 METAR KATL 051052Z 23005KT 10SM FEW090 FEW250 22/18 A2999 RMK AO2 SLP145 CB DSNT NW T02170183=
202006050952 METAR KATL 050952Z 23005KT 10SM FEW040 FEW080 22/18 A2997 RMK AO2 SLP137 T02170183=
202006050852 METAR KATL 050852Z 25005KT 10SM FEW080 22/18 A2996 RMK AO2 SLP134 T02220183 55002 $=
202006050752 METAR KATL 050752Z 21004KT 10SM FEW080 BKN095 23/18 A2996 RMK AO2 SLP134 T02280183 $=
202006050652 METAR KATL 050652Z 22006KT 10SM FEW036 BKN090 23/19 A2996 RMK AO2 SLP135 T02330189 $=
202006050552 METAR KATL 050552Z 20005KT 10SM FEW060 BKN085 BKN250 23/19 A2997 RMK AO2 SLP136 T02330189 10278 20228 50000 $=
202006050452 METAR KATL 050452Z 19005KT 10SM SCT050 SCT250 23/19 A2997 RMK AO2 SLP138 T02330194 403170211 $=
202006050352 METAR KATL 050352Z 19004KT 10SM FEW150 FEW250 24/19 A2996 RMK AO2 SLP135 T02440194 $=
202006050252 METAR KATL 050252Z 20005KT 10SM FEW070 SCT140 SCT250 25/19 A2996 RMK AO2 SLP136 T02500194 51015 $=
202006050152 METAR KATL 050152Z 20007KT 10SM SCT045 SCT140 BKN250 26/19 A2995 RMK AO2 SLP132 CB DSNT N T02610189 $=
202006050052 METAR KATL 050052Z 19005KT 10SM FEW040 SCT070 BKN130 BKN250 27/19 A2993 RMK AO2 SLP126 TSE00 CB DSNT NE TCU DSNT N T02670189 $=
202006050001 SPECI KATL 050001Z 20008KT 10SM SCT045 BKN070 BKN110 BKN250 28/19 A2992 RMK AO2 TSE00 LTG DSNT NE TS MOVD NE T02780189 $=
202006042352 METAR KATL 042352Z 20008KT 10SM VCTS FEW045CB SCT070 BKN110 BKN250 28/19 A2992 RMK AO2 SLP121 TSB42 OCNL LTGICCG NE TS NE MOV NE T02780189 10317 20272 55001=
202006042343 SPECI KATL 042343Z 21009KT 10SM VCTS SCT055CB BKN110 BKN250 28/19 A2992 RMK AO2 TSB42 OCNL LTGICCG NE TS NE MOV NE T02780194=
202006042252 METAR KATL 042252Z 19008KT 10SM SCT055CB BKN110 BKN250 29/18 A2990 RMK AO2 SLP116 CB W DSNT NE MOV NE TCU OHD-ALQDS T02940183=
202006042152 METAR KATL 042152Z 20008KT 10SM FEW055 SCT100 SCT250 31/17 A2990 RMK AO2 SLP114 CB DSNT NE-E TCU DSNT N-NE T03110172=
202006042052 METAR KATL 042052Z 20009KT 10SM FEW055TCU SCT100 SCT200 SCT250 31/18 A2992 RMK AO2 SLP121 CB DSNT NE-E SW NW TCU NE SW-NW DSNT NE-SE T03110178 56018=
202006041952 METAR KATL 041952Z 24006KT 10SM SCT050 SCT100 SCT200 BKN250 31/17 A2993 RMK AO2 SLP125 CB DSNT E-SE SW NW MDT CU ALQDS T03110172=
202006041852 METAR KATL 041852Z 21007KT 10SM FEW048 SCT090 SCT200 SCT250 30/17 A2995 RMK AO2 SLP129 CB DSNT SE-S TCU DSNT E-S MDT CU SW-NW-NE T03000172=
202006041752 METAR KATL 041752Z 32008KT 10SM SCT045 SCT075 SCT200 BKN250 31/19 A2998 RMK AO2 SLP140 CB DSNT E SE-S MDT CU ALQDS T03060189 10306 20228 58009=
202006041652 METAR KATL 041652Z 27008KT 10SM SCT041TCU SCT070 BKN180 BKN250 28/18 A3000 RMK AO2 SLP148 TCU SE-SW-NW MDT CU ALQDS T02830183=
202006041552 METAR KATL 041552Z 28009KT 10SM SCT032 SCT180 SCT250 28/19 A3001 RMK AO2 SLP153 MDT CU ALQDS T02830189=
202006041452 METAR KATL 041452Z 28008KT 10SM FEW026 FEW180 SCT250 28/19 A3001 RMK AO2 SLP150 T02780194 58001=
202006041352 METAR KATL 041352Z 30010KT 10SM FEW020 SCT180 BKN250 26/19 A3000 RMK AO2 SLP149 T02610194=
202006041252 METAR KATL 041252Z 29008KT 10SM FEW008 BKN180 BKN250 24/21 A3001 RMK AO2 SLP153 T02440206=
202006041152 METAR KATL 041152Z 27006KT 8SM SCT006 SCT028 BKN180 BKN250 22/21 A3001 RMK AO2 SLP151 T02220206 10228 20211 51018=
202006041136 SPECI KATL 041136Z 27009KT 9SM BKN006 BKN028 BKN180 BKN250 22/20 A3001 RMK AO2 T02220200=
202006041052 METAR KATL 041052Z 27008KT 10SM FEW003 FEW110 BKN180 BKN250 22/20 A3000 RMK AO2 SLP149 T02170200=
202006041037 SPECI KATL 041037Z 26005KT 7SM SCT003 SCT050 BKN190 BKN250 22/20 A2999 RMK AO2 T02170200=
202006041012 SPECI KATL 041012Z 23005KT 1 1/2SM BKN003 OVC006 22/20 A2998 RMK AO2 SFC VIS 7 TWRINC T02170200=
202006040952 METAR KATL 040952Z 22005KT 7SM SCT003 BKN005 22/20 A2998 RMK AO2 SLP140 T02170200=
202006040943 SPECI KATL 040943Z 22005KT 8SM FEW003 BKN005 BKN160 BKN250 22/19 A2998 RMK AO2 T02170194=
202006040941 SPECI KATL 040941Z 22006KT 8SM FEW003 22/19 A2998 RMK AO2 T02170194=
202006040852 METAR KATL 040852Z 20004KT 10SM FEW010 SCT180 SCT250 22/19 A2996 RMK AO2 SLP132 T02170194 56008=
202006040752 METAR KATL 040752Z 23004KT 10SM FEW150 SCT250 22/19 A2996 RMK AO2 SLP135 T02220194=
202006040652 METAR KATL 040652Z 24005KT 10SM FEW150 SCT250 22/20 A2996 RMK AO2 SLP134 T02220200=
202006040552 METAR KATL 040552Z 21005KT 10SM FEW060 SCT150 SCT250 23/19 A2998 RMK AO2 SLP141 T02280194 10283 20228 58001=
202006040452 METAR KATL 040452Z 20005KT 10SM FEW150 SCT250 23/19 A3000 RMK AO2 SLP147 T02330194 403060206=
202006040352 METAR KATL 040352Z 22005KT 10SM FEW150 SCT200 BKN250 24/20 A2998 RMK AO2 SLP141 T02390200=
202006040252 METAR KATL 040252Z 19006KT 10SM FEW150 BKN200 BKN250 26/19 A2998 RMK AO2 SLP141 T02560194 53004=
202006040152 METAR KATL 040152Z 23004KT 10SM FEW150 BKN200 BKN250 26/18 A2997 RMK AO2 SLP139 T02560183=
202006040052 METAR KATL 040052Z 22005KT 10SM FEW150 BKN200 BKN250 27/19 A2997 RMK AO2 SLP137 T02670189=
202006032352 METAR KATL 032352Z 22004KT 10SM FEW045 BKN200 BKN250 28/18 A2997 RMK AO2 SLP139 TCU DSNT SE T02830183 10306 20283 55001=
202006032252 METAR KATL 032252Z 19006KT 10SM FEW045 SCT200 BKN250 29/18 A2996 RMK AO2 SLP134 TCU DSNT N NW T02890183=
202006032152 METAR KATL 032152Z 20006KT 10SM FEW045 SCT200 BKN250 30/18 A2997 RMK AO2 SLP138 CB DSNT N NW T03000183=
202006032052 METAR KATL 032052Z VRB05KT 10SM FEW048 BKN200 30/19 A2997 RMK AO2 SLP139 TCU DSNT W T03000189 56017=
202006031952 METAR KATL 031952Z 24005KT 10SM FEW046TCU BKN200 29/18 A2998 RMK AO2 SLP141 TCU W-NW T02890183=
202006031852 METAR KATL 031852Z 28005KT 10SM SCT048 BKN200 29/18 A3000 RMK AO2 SLP148 MDT CU ALQDS T02940183=
202006031752 METAR KATL 031752Z VRB03KT 10SM SCT046TCU BKN250 30/19 A3003 RMK AO2 SLP157 TCU SE-SW T03000189 10306 20228 58021=
202006031652 METAR KATL 031652Z 00000KT 10SM SCT038TCU BKN250 28/18 A3006 RMK AO2 SLP168 TCU ALQDS T02830183=
202006031552 METAR KATL 031552Z 29006KT 10SM FEW035 SCT250 28/19 A3008 RMK AO2 SLP175 T02830194=
202006031452 METAR KATL 031452Z 27008KT 10SM FEW032 FEW200 SCT250 27/19 A3009 RMK AO2 SLP178 T02720189 58005=
202006031352 METAR KATL 031352Z 29009KT 10SM FEW180 SCT250 26/19 A3010 RMK AO2 SLP183 T02610189=
202006031252 METAR KATL 031252Z 27006KT 10SM FEW055 SCT180 BKN250 BKN300 25/18 A3010 RMK AO2 SLP184 T02500183=
202006031152 METAR KATL 031152Z 27007KT 10SM FEW180 BKN250 BKN300 23/18 A3010 RMK AO2 SLP184 T02280183 10228 20206 53004=
202006031052 METAR KATL 031052Z 29006KT 10SM FEW180 BKN250 BKN300 21/18 A3010 RMK AO2 SLP183 T02110178=
202006030952 METAR KATL 030952Z 28006KT 10SM FEW200 BKN250 21/18 A3009 RMK AO2 SLP180 T02110178=
202006030852 METAR KATL 030852Z 28005KT 10SM BKN250 22/17 A3009 RMK AO2 SLP180 T02170172 56007=
202006030752 METAR KATL 030752Z 24003KT 10SM BKN250 22/18 A3009 RMK AO2 SLP181 T02170178=
202006030652 METAR KATL 030652Z 24004KT 10SM BKN250 22/18 A3010 RMK AO2 SLP182 T02170178=
202006030552 METAR KATL 030552Z 22005KT 10SM BKN250 22/17 A3011 RMK AO2 SLP187 T02220172 10278 20222 58008=
202006030452 METAR KATL 030452Z 23004KT 10SM BKN250 23/17 A3012 RMK AO2 SLP190 T02280172 402940189=
202006030352 METAR KATL 030352Z 23004KT 10SM BKN250 23/17 A3013 RMK AO2 SLP193 T02330172=
202006030252 METAR KATL 030252Z 21003KT 10SM BKN250 24/17 A3014 RMK AO2 SLP195 T02440167 53009=
202006030152 METAR KATL 030152Z 21004KT 10SM BKN250 25/17 A3012 RMK AO2 SLP192 T02500167=
202006030052 METAR KATL 030052Z 20004KT 10SM FEW055 BKN250 26/16 A3012 RMK AO2 SLP189 T02610161=
202006022352 METAR KATL 022352Z 20005KT 10SM FEW055 BKN250 28/16 A3011 RMK AO2 SLP187 T02780156 10294 20272 55006=
202006022252 METAR KATL 022252Z 20004KT 10SM FEW055 BKN250 29/15 A3011 RMK AO2 SLP185 T02890150=
202006022152 METAR KATL 022152Z 21005KT 10SM SCT055 BKN250 29/16 A3011 RMK AO2 SLP188 T02940156=
202006022052 METAR KATL 022052Z 20006KT 10SM SCT050 SCT070 BKN200 BKN250 28/16 A3013 RMK AO2 SLP193 T02830156 56023=
202006021952 METAR KATL 021952Z 17006KT 10SM SCT050 SCT200 BKN250 29/17 A3015 RMK AO2 SLP201 T02890167=
202006021852 METAR KATL 021852Z 22005KT 10SM SCT048 SCT200 BKN250 28/16 A3017 RMK AO2 SLP208 T02830161=
202006021752 METAR KATL 021752Z 24004KT 10SM SCT046 SCT200 BKN250 28/16 A3020 RMK AO2 SLP216 T02780161 10283 20200 58014=
202006021652 METAR KATL 021652Z 19006KT 10SM FEW044 SCT200 SCT250 27/17 A3022 RMK AO2 SLP222 T02720167=
202006021552 METAR KATL 021552Z 21006KT 10SM FEW045 FEW200 SCT250 26/16 A3023 RMK AO2 SLP229 T02610156=
202006021452 METAR KATL 021452Z 18007KT 10SM FEW200 SCT250 25/16 A3024 RMK AO2 SLP231 T02500161 50005=
202006021352 METAR KATL 021352Z 18008KT 10SM FEW150 FEW200 SCT250 23/16 A3025 RMK AO2 SLP234 T02330156=
202006021252 METAR KATL 021252Z 19006KT 10SM FEW200 SCT250 22/16 A3024 RMK AO2 SLP233 T02220161=
202006021152 METAR KATL 021152Z 18003KT 10SM FEW150 FEW200 BKN250 20/16 A3022 RMK AO2 SLP226 T02000156 10211 20189 53007=
202006021052 METAR KATL 021052Z 16003KT 10SM FEW200 SCT250 19/14 A3021 RMK AO2 SLP223 T01890144=
202006020952 METAR KATL 020952Z 17004KT 10SM BKN250 19/14 A3021 RMK AO2 SLP220 T01890144=
202006020852 METAR KATL 020852Z 16005KT 10SM BKN250 19/14 A3020 RMK AO2 SLP218 T01940144 55002=
202006020752 METAR KATL 020752Z 18005KT 10SM BKN250 20/14 A3020 RMK AO2 SLP216 T02000144=
202006020652 METAR KATL 020652Z 17006KT 10SM SCT250 21/15 A3020 RMK AO2 SLP217 T02060150=
202006020552 METAR KATL 020552Z 13005KT 10SM BKN250 21/16 A3021 RMK AO2 SLP220 T02110156 10261 20211 58004=
202006020452 METAR KATL 020452Z 12005KT 10SM BKN250 22/16 A3021 RMK AO2 SLP223 T02220156 402780189=
202006020352 METAR KATL 020352Z 12005KT 10SM BKN250 23/16 A3023 RMK AO2 SLP226 T02280156=
202006020252 METAR KATL 020252Z 09006KT 10SM BKN250 23/16 A3022 RMK AO2 SLP224 T02280156 53012=
202006020152 METAR KATL 020152Z 09008KT 10SM BKN250 23/16 A3020 RMK AO2 SLP220 T02330161=
202006020052 METAR KATL 020052Z 11006KT 10SM BKN250 25/16 A3019 RMK AO2 SLP215 T02500156=
202006012352 METAR KATL 012352Z 09007KT 10SM FEW045 BKN250 26/16 A3018 RMK AO2 SLP212 T02560156 10278 20256 55004=
202006012252 METAR KATL 012252Z 09009KT 10SM FEW045 SCT250 27/16 A3018 RMK AO2 SLP210 MDT CU SW W T02670161=
202006012152 METAR KATL 012152Z 12010KT 10SM SCT045 SCT250 27/16 A3018 RMK AO2 SLP212 MDT CU ALQDS T02720156=
202006012052 METAR KATL 012052Z 11006KT 10SM FEW046 SCT060 SCT250 27/16 A3019 RMK AO2 SLP216 MDT CU DSNT NE-SE T02720156 56015=
202006011952 METAR KATL 011952Z 11011KT 10SM FEW046 SCT055 SCT250 27/16 A3021 RMK AO2 SLP220 T02720161=
202006011852 METAR KATL 011852Z 11005KT 10SM SCT042 BKN055 BKN250 26/16 A3022 RMK AO2 SLP224 T02610156=
202006011752 METAR KATL 011752Z 13010KT 10SM SCT040 BKN060 26/16 A3024 RMK AO2 SLP231 T02610156 10261 20206 58004=
202006011652 METAR KATL 011652Z 13007G17KT 10SM BKN036 BKN055 26/16 A3025 RMK AO2 SLP234 T02560156=
202006011552 METAR KATL 011552Z 10013G17KT 10SM SCT030 BKN060 24/16 A3025 RMK AO2 SLP234 T02440161=
202006011452 METAR KATL 011452Z 10009KT 10SM SCT022 BKN055 BKN250 23/17 A3025 RMK AO2 SLP235 T02330172 50016=
202006011425 SPECI KATL 011425Z 11007KT 10SM SCT018 BKN055 BKN250 23/17 A3025 RMK AO2 T02280172=
202006011352 METAR KATL 011352Z 08011KT 10SM BKN015 OVC050 22/17 A3025 RMK AO2 SLP235 BINOVC T02170172=
202006011324 SPECI KATL 011324Z 10012KT 10SM BKN015 BKN050 BKN250 22/17 A3024 RMK AO2 T02170172=
202006011252 METAR KATL 011252Z 07013KT 10SM FEW015 SCT048 SCT060 SCT250 22/17 A3023 RMK AO2 SLP228 T02170167=
