##########################################################
# Query made at 04/20/2024 00:11:35 UTC
# Time interval: from 07/01/2020 12:00  to 07/31/2020 12:59  UTC
##########################################################

##########################################################
# KATL, Atlanta, Hartsfield - Jackson Atlanta International Airport (United States)
# WMO index: 72219. WIGOS ID: 0-20000-0-72219
# Latitude 33-38-59N. Longitude 084-25-00W. Altitude 312 m.
##########################################################

202007311252 METAR KATL 311252Z 24008KT 9SM FEW050 27/22 A2998 RMK AO2 SLP140 T02670222=
202007311152 METAR KATL 311152Z 24009KT 10SM FEW050 25/22 A2997 RMK AO2 SLP138 70001 T02500217 10256 20239 53006=
202007311052 METAR KATL 311052Z 24005KT 10SM SCT050 24/22 A2996 RMK AO2 SLP133 T02390217=
202007310952 METAR KATL 310952Z 24007KT 10SM FEW045 24/21 A2995 RMK AO2 SLP132 T02440211=
202007310852 METAR KATL 310852Z 24007KT 10SM FEW045 24/21 A2995 RMK AO2 SLP131 T02440211 53001=
202007310752 METAR KATL 310752Z 25008KT 10SM FEW250 25/21 A2994 RMK AO2 SLP127 T02500211=
202007310652 METAR KATL 310652Z 25007KT 10SM FEW250 26/21 A2994 RMK AO2 SLP126 T02560211=
202007310552 METAR KATL 310552Z 25007KT 10SM FEW250 26/21 A2995 RMK AO2 SLP130 T02560211 10283 20250 58007=
202007310452 METAR KATL 310452Z 22005KT 10SM FEW250 25/22 A2996 RMK AO2 SLP134 T02500217 403110239=
202007310352 METAR KATL 310352Z 23007KT 10SM FEW150 FEW250 26/22 A2997 RMK AO2 SLP136 T02560217=
202007310252 METAR KATL 310252Z 23006KT 10SM FEW150 FEW250 26/22 A2997 RMK AO2 SLP137 T02610217 51005=
202007310152 METAR KATL 310152Z 26006KT 10SM BKN150 BKN250 26/21 A2997 RMK AO2 SLP137 T02610211=
202007310052 METAR KATL 310052Z 24009KT 10SM FEW030 SCT150 BKN200 BKN250 27/22 A2996 RMK AO2 SLP135 T02720217=
202007302352 METAR KATL 302352Z 25011G18KT 10SM FEW030 SCT200 BKN250 28/21 A2995 RMK AO2 SLP132 TCU DSNT W-NW 60001 T02830211 10311 20267 51005=
202007302252 METAR KATL 302252Z 26011G20KT 10SM SCT030TCU SCT150 BKN200 BKN250 30/22 A2995 RMK AO2 SLP129 TCU N-NE T03000222=
202007302152 METAR KATL 302152Z 27006KT 10SM FEW030 SCT090 BKN150 BKN250 29/23 A2995 RMK AO2 PK WND 24026/2104 RAB2056E05 TSB02E21 SLP130 CB DSNT NE E-SE P0001 T02940228=
202007302121 SPECI KATL 302121Z 24007KT 10SM FEW030CB SCT040TCU BKN090 BKN250 27/22 A2995 RMK AO2 PK WND 24026/2104 RAB2056E05 TSB02E21 TS DSIPTD CB E-SE DSNT N-NE MOV E TCU NE-E P0001 T02670222=
202007302104 SPECI KATL 302104Z 24016G26KT 10SM -TSRA SCT032CB SCT040TCU BKN100 BKN200 28/23 A2994 RMK AO2 PK WND 24026/2104 RAB2056 TSB02 OCNL LTGICCG S-SW TS S-SW MOV E CB DSNT ALQDS TCU OHD-SW P0001 T02830228=
202007302052 METAR KATL 302052Z 24011G18KT 10SM SCT030CB SCT040TCU BKN100 BKN200 29/22 A2994 RMK AO2 TSE1958 SLP127 TS DSIPTD CB SW MOV E CB DSNT ALQDS TCU OHD-S-SW SHRA SW 60000 T02940222 57011=
202007301959 SPECI KATL 301959Z 23009G17KT 10SM SCT030TCU BKN075 BKN110 BKN200 30/23 A2995 RMK AO2 TSE58 TS DSIPTD CB DSNT ALQDS TCU OHD-W-NW T03000228=
202007301952 METAR KATL 301952Z 24009G16KT 10SM TS SCT028CB BKN070 BKN100 BKN200 29/22 A2996 RMK AO2 RAB43E52 TSB48 SLP133 OCNL LTGICCG NE-E TS NE-E MOV NE CB DSNT SE SW NW TCU W-NW P0000 T02890222=
202007301950 SPECI KATL 301950Z 24008KT 10SM -TSRA SCT028CB BKN070 BKN100 BKN200 29/22 A2996 RMK AO2 RAB43 TSB48 OCNL LTGICCG NE-E TS NE-E MOV NE CB DSNT SE SW NW TCU W-NW P0000=
202007301852 METAR KATL 301852Z 24009KT 10SM SCT028CB SCT070 BKN110 BKN200 30/23 A2997 RMK AO2 RAE1756 SLP139 CB E-SE MOV E CB DSNT NE TCU N-NE SE SW SHRA E-SE P0000 T03000233=
202007301752 METAR KATL 301752Z 27010KT 10SM -RA SCT028TCU BKN070 BKN110 BKN200 29/24 A2999 RMK AO2 RAB46 SLP145 CB DSNT SW NW TCU N-NE DSNT NE SE-SW PCPN VRY LGT P0000 60000 T02890239 10294 20244 58014=
202007301652 SPECI KATL 301652Z 25010KT 10SM SCT022 BKN030TCU BKN090 BKN200 29/22 A3002 RMK AO2 SLP153 CB DSNT N S TCU SW-NW-NE-E SHRA NE T02890222=
202007301652 METAR KATL 301652Z 25010KT 10SM SCT022 BKN030TCU BKN090 BKN200 29/22 A3002 RMK AO2 SLP153 CB DSNT N S TCU SW-NW-NE-E SHRA NE T02890222=
202007301552 METAR KATL 301552Z 27011KT 10SM BKN018 BKN028TCU BKN085 27/22 A3004 RMK AO2 SLP161 CIG 016V020 CB DSNT S TCU SW T02720222=
202007301452 METAR KATL 301452Z 25010KT 10SM BKN016 BKN060 OVC085 26/22 A3004 RMK AO2 SLP161 CIG 014V018 T02610217 51008=
202007301352 METAR KATL 301352Z 27008KT 10SM SCT010 BKN015 OVC060 26/22 A3003 RMK AO2 SLP158 T02560222=
202007301252 METAR KATL 301252Z 24008KT 10SM SCT008 OVC012 25/22 A3002 RMK AO2 SLP157 BINOVC T02500222=
202007301239 SPECI KATL 301239Z 24007KT 10SM SCT007 SCT012 BKN150 BKN250 24/22 A3002 RMK AO2 SCT012 V BKN T02440222=
202007301207 SPECI KATL 301207Z 25007KT 10SM BKN007 BKN012 OVC065 24/22 A3002 RMK AO2 BINOVC T02440222=
202007301152 METAR KATL 301152Z 24005KT 10SM SCT007 BKN012 BKN065 BKN250 24/22 A3001 RMK AO2 SLP152 60000 70058 T02440222 10244 20239 53010=
202007301149 SPECI KATL 301149Z 25006KT 10SM SCT007 BKN012 BKN065 BKN250 24/22 A3001 RMK AO2=
202007301052 METAR KATL 301052Z 25004KT 10SM SCT006 BKN035 BKN070 BKN250 24/22 A3000 RMK AO2 RAE01 SLP148 TCU DSNT S P0000 T02390222=
202007300952 METAR KATL 300952Z 25005KT 10SM -RA BKN006 BKN035 OVC070 24/22 A2999 RMK AO2 RAB40 SLP145 BKN007 V BKN P0000 T02440222=
202007300852 METAR KATL 300852Z 26009KT 10SM BKN006 BKN015 OVC065 24/22 A2998 RMK AO2 SLP142 T02390222 56010=
202007300752 METAR KATL 300752Z 26005KT 10SM BKN006 BKN010 OVC015 24/22 A2999 RMK AO2 SLP144 T02390222=
202007300652 METAR KATL 300652Z 25005KT 10SM BKN008 OVC018 24/22 A3000 RMK AO2 SLP149 CIG 006V010 T02440222=
202007300552 METAR KATL 300552Z 23004KT 10SM BKN007 OVC013 24/23 A3001 RMK AO2 SLP153 60045 T02390228 10272 20239 58009=
202007300550 SPECI KATL 300550Z 23005KT 10SM BKN007 OVC012 24/22 A3001 RMK AO2=
202007300513 SPECI KATL 300513Z 24007KT 10SM SCT007 BKN012 BKN060 OVC200 24/22 A3002 RMK AO2 SCT007 V BKN T02390222=
202007300452 METAR KATL 300452Z 24008KT 10SM SCT007 BKN025 BKN060 OVC200 24/22 A3003 RMK AO2 RAE10 TSB0357E27 SLP160 SCT007 V BKN CB DSNT NE P0000 T02390222 403000239=
202007300427 SPECI KATL 300427Z 24006KT 10SM SCT007 BKN020 OVC050 24/22 A3004 RMK AO2 RAE10 TSB0357E27 TS DSIPTD CB DSNT N-NE P0000 T02390222=
202007300357 SPECI KATL 300357Z 23004KT 9SM -TSRA FEW008 BKN030CB OVC100 24/22 A3004 RMK AO2 TSB57 OCNL LTGICCA N-NE TS N-NE MOV NE P0000 T02390222=
202007300352 METAR KATL 300352Z 23004KT 8SM -RA FEW009 BKN030CB OVC100 24/22 A3004 RMK AO2 TSE30 SLP163 CB N-NE MOV E P0045 T02390222=
202007300330 SPECI KATL 300330Z 22008KT 3SM RA BR FEW009 BKN025CB OVC100 24/22 A3004 RMK AO2 TSE30 TS DSIPTD CB OHD-ALQDS MOV E P0042 T02390222=
202007300315 SPECI KATL 300315Z 21009KT 1 1/2SM R09R/5000VP6000FT +TSRA BR SCT009 BKN025CB OVC120 24/23 A3005 RMK AO2 OCNL LTGIC OHD-ALQDS TS OHD-ALQDS MOV E P0014 T02440228=
202007300312 SPECI KATL 300312Z 22011KT 2SM R09R/5000VP6000FT +TSRA BR SCT009 BKN025CB OVC120 24/22 A3005 RMK AO2 OCNL LTGIC OHD-ALQDS TS OHD-ALQDS MOV E P0006 T02440222=
202007300252 METAR KATL 300252Z 20008KT 9SM -TSRA FEW010 BKN025CB BKN120 OVC200 25/22 A3004 RMK AO2 RAB48 TSB24 SLP161 OCNL LTGICCG S-SW TS S-SW MOV E P0000 60000 T02500222 53017=
202007300224 SPECI KATL 300224Z 19008KT 10SM TS SCT022 BKN030CB BKN120 OVC200 26/22 A3004 RMK AO2 TSB24 OCNL LTGICCG SW TS SW MOV E T02560217=
202007300152 METAR KATL 300152Z 20004KT 10SM SCT030 BKN080 BKN140 BKN250 26/21 A3002 RMK AO2 SLP155 T02560211=
202007300052 METAR KATL 300052Z 22005KT 10SM FEW025 BKN080 BKN150 BKN250 26/22 A3001 RMK AO2 SLP150 CB DSNT SE-S T02610217=
202007292352 METAR KATL 292352Z 24005KT 10SM FEW025 SCT090 BKN150 BKN250 27/21 A2999 RMK AO2 SLP144 CB DSNT SE-S TCU DSNT SE 60007 T02720211 10300 20239 53002=
202007292252 METAR KATL 292252Z 23006KT 10SM FEW025 SCT075 BKN140 BKN250 28/21 A2998 RMK AO2 SLP141 CB DSNT S-SW TCU DSNT SE-S T02780211=
202007292152 METAR KATL 292152Z 18004KT 10SM FEW030 SCT060 BKN140 BKN250 28/23 A2999 RMK AO2 RAB40E52 SLP143 TCU DSNT ALQDS P0000 T02830228=
202007292052 METAR KATL 292052Z 28006KT 10SM FEW030TCU BKN060 BKN090 BKN250 29/22 A2998 RMK AO2 SLP142 CB DSNT NW TCU SW 60007 T02890222 56023=
202007291952 METAR KATL 291952Z 26005KT 10SM SCT020TCU BKN065 BKN150 28/22 A3000 RMK AO2 RAE05 SLP148 TCU ALQDS P0000 T02830222=
202007291852 METAR KATL 291852Z 24004KT 10SM -RA FEW028TCU BKN040 BKN150 BKN250 26/23 A3003 RMK AO2 RAB17 SLP157 TCU ALQDS P0007 T02560233=
202007291835 SPECI KATL 291835Z 24006KT 5SM RA SCT019TCU BKN035 BKN055 24/22 A3004 RMK AO2 RAB17 TCU N-NE VSBY LWR SW P0002 T02440217=
202007291819 SPECI KATL 291819Z 23009G16KT 7SM -RA BKN017TCU BKN023 BKN055 25/22 A3005 RMK AO2 RAB17 TCU NW-NE P0000 T02500217=
202007291752 METAR KATL 291752Z VRB03KT 10SM FEW011 SCT023TCU BKN070 27/23 A3005 RMK AO2 RAE05B21E33 SLP166 TCU ALQDS P0001 60006 T02720228 10278 20244 58010=
202007291736 SPECI KATL 291736Z VRB03KT 10SM SCT019TCU BKN060 BKN150 26/22 A3006 RMK AO2 RAE05B21E33 TCU N-NE & SE-SW P0001 T02610222=
202007291705 SPECI KATL 291705Z 23004KT 10SM FEW008 BKN021 BKN060 26/23 A3006 RMK AO2 RAE05 P0001 T02610228=
202007291652 METAR KATL 291652Z 22004KT 8SM -RA FEW010 BKN018 BKN065 25/23 A3007 RMK AO2 RAE09B37 SLP172 P0004 T02500233=
202007291642 SPECI KATL 291642Z 20005KT 9SM -RA BKN011 25/23 A3007 RMK AO2 RAE09B37 TCU SW P0004 T02500228=
202007291613 SPECI KATL 291613Z 28004KT 7SM FEW020TCU BKN040 BKN055 26/22 A3008 RMK AO2 RAE09 TCU SW P0004 T02560222=
202007291552 METAR KATL 291552Z 28006KT 2SM R09R/6000VP6000FT RA BR FEW009 BKN045 OVC055 25/23 A3008 RMK AO2 RAB37 SLP176 P0001 T02500228=
202007291550 SPECI KATL 291550Z 28007KT 2SM -RA BR FEW010 BKN028 OVC055 25/23 A3008 RMK AO2 RAB37 P0000=
202007291519 SPECI KATL 291519Z 22007KT 10SM SCT016 BKN032 BKN060 27/21 A3008 RMK AO2 T02720211=
202007291452 METAR KATL 291452Z 19007KT 10SM BKN018 BKN031 OVC170 27/22 A3008 RMK AO2 SLP176 BINOVC T02670217 50005=
202007291352 METAR KATL 291352Z 21006KT 10SM FEW013 BKN017 BKN043 BKN150 26/22 A3008 RMK AO2 SLP177 T02610217=
202007291304 SPECI KATL 291304Z 00000KT 10SM BKN013 BKN022 BKN040 26/21 A3008 RMK AO2 T02560211=
202007291252 METAR KATL 291252Z 31003KT 10SM SCT015 BKN032 BKN150 BKN250 26/21 A3008 RMK AO2 SLP174 SCT015 V BKN T02560211=
202007291224 SPECI KATL 291224Z 28004KT 10SM FEW010 SCT015 BKN160 BKN250 25/21 A3007 RMK AO2 T02500211=
202007291152 METAR KATL 291152Z 26005KT 10SM SCT010 BKN014 BKN250 24/21 A3007 RMK AO2 SLP170 T02440211 10250 20239 53010=
202007291052 METAR KATL 291052Z 24004KT 10SM BKN010 24/21 A3005 RMK AO2 SLP165 T02390211=
202007290952 METAR KATL 290952Z 25007KT 10SM SCT010 OVC017 24/21 A3004 RMK AO2 SLP162 SCT010 V BKN BINOVC T02390211=
202007290852 METAR KATL 290852Z 27009KT 10SM FEW010 BKN015 BKN250 24/21 A3004 RMK AO2 SLP160 T02390211 53001=
202007290850 SPECI KATL 290850Z 26008KT 10SM FEW010 BKN015 BKN250 24/21 A3004 RMK AO2=
202007290816 SPECI KATL 290816Z 25007KT 10SM FEW010 SCT015 BKN160 BKN250 24/21 A3003 RMK AO2 T02440211=
202007290752 METAR KATL 290752Z 27008KT 10SM SCT010 BKN015 BKN250 24/21 A3003 RMK AO2 SLP157 BKN015 V SCT T02440211=
202007290652 METAR KATL 290652Z 24009KT 10SM BKN012 24/21 A3003 RMK AO2 SLP159 T02440211=
202007290552 METAR KATL 290552Z 25009KT 10SM OVC010 25/22 A3004 RMK AO2 SLP163 BINOVC T02500217 10289 20244 58004=
202007290519 SPECI KATL 290519Z 23005KT 10SM BKN011 BKN150 BKN250 24/22 A3004 RMK AO2 T02440217=
202007290452 METAR KATL 290452Z 23006KT 10SM FEW012 BKN150 BKN250 24/22 A3005 RMK AO2 SLP163 T02440217 403170239=
202007290352 METAR KATL 290352Z 22007KT 10SM FEW016 BKN150 BKN250 25/21 A3005 RMK AO2 SLP165 T02500211=
202007290252 METAR KATL 290252Z 22008KT 10SM FEW018 BKN150 BKN200 BKN250 26/21 A3006 RMK AO2 SLP165 T02560211 53017=
202007290152 METAR KATL 290152Z 27006KT 10SM FEW020 BKN140 BKN250 27/22 A3004 RMK AO2 SLP159 T02670222=
202007290052 METAR KATL 290052Z 21006KT 10SM FEW025 SCT150 BKN200 BKN250 28/22 A3002 RMK AO2 SLP153 TCU DSNT SE-S T02780217=
202007282352 METAR KATL 282352Z 23008KT 10SM FEW030TCU SCT150 BKN200 BKN250 29/21 A3000 RMK AO2 SLP149 CB DSNT SE-S SW TCU NE 60000 T02890211 10311 20261 55002=
202007282252 METAR KATL 282252Z 19006KT 10SM FEW030 SCT150 BKN200 BKN250 31/22 A2999 RMK AO2 SLP144 RAE16 TSB20E35 CB DSNT S SW P0000 T03060217=
202007282237 SPECI KATL 282237Z 20005KT 10SM FEW030 SCT150 BKN200 BKN250 29/22 A2999 RMK AO2 RAE16 TSB20E35 TS DSIPTD CB DSNT NE S SW P0000 T02940217=
202007282221 SPECI KATL 282221Z 18007KT 10SM TS FEW030CB SCT050 BKN150 BKN250 29/22 A2999 RMK AO2 RAE16 TSB20 OCNL LTGIC NE TS NE MOV NE P0000 T02940217=
202007282152 METAR KATL 282152Z 21006G16KT 9SM -RA SCT032CB BKN150 BKN200 BKN250 29/22 A3000 RMK AO2 RAB45 SLP147 VIS LWR E-SE CB NE-OHD-SW MOV NE TCU SE-S P0000 T02940217=
202007282052 METAR KATL 282052Z 21008KT 10SM FEW038 SCT075 BKN180 BKN250 31/20 A3001 RMK AO2 LTG DSNT E AND SW SLP150 CB DSNT ALQDS TCU DSNT N NE SE-SW 60000 T03060200 56015=
202007281952 METAR KATL 281952Z 25009KT 10SM FEW040 FEW075 SCT200 BKN250 31/21 A3001 RMK AO2 LTG DSNT E AND SE SLP151 CB DSNT NE-SE-SW-W TCU DSNT N-NE ACC DSNT NE T03110206=
202007281852 METAR KATL 281852Z 27004KT 10SM FEW036 FEW065 SCT140 BKN200 28/21 A3004 RMK AO2 LTG DSNT S RAB30E43 SLP162 VIRGA NW-NE CB DSNT ALQDS TCU DSNT S-SW W P0000 T02780211=
202007281752 METAR KATL 281752Z 30010KT 10SM FEW038 SCT075 BKN140 BKN200 28/20 A3005 RMK AO2 LTG DSNT E AND SE AND NW TSE50 SLP166 TS MOVD NE VIRGA SW-NW-N CB DSNT ALQDS TCU S SHRA DSNT N-NE T02780200 10317 20250 56004=
202007281652 METAR KATL 281652Z 24008KT 10SM TS SCT038CB BKN140 BKN200 BKN250 31/21 A3006 RMK AO2 LTG DSNT SE AND NW SLP167 TSB47 OCNL LTGICCGCA SE VC W-NW TS SE VC W-NW MOV NE CB DSNT ALQDS TCU NE SW-NW T03110211=
202007281649 SPECI KATL 281649Z VRB06KT 10SM TS SCT038CB BKN140 BKN200 BKN250 32/21 A3006 RMK AO2 LTG DSNT SE AND W TSB47 OCNL LTGICCGCA SE VC W-NW TS SE VC W-NW MOV NE CB DSNT ALQDS TCU NE SW-NW=
202007281552 METAR KATL 281552Z 29005KT 10SM SCT036TCU BKN140 BKN200 BKN250 31/21 A3007 RMK AO2 LTG DSNT SE-W SLP169 CB DSNT SE SW-W NW TCU ALQDS T03060211=
202007281452 METAR KATL 281452Z 32008KT 10SM FEW040TCU SCT140 BKN180 BKN250 31/22 A3008 RMK AO2 SLP173 TCU NW DSNT N E MDT CU ALQDS T03110217 51008=
202007281352 METAR KATL 281352Z 28007KT 10SM FEW040 SCT140 SCT200 BKN250 29/22 A3008 RMK AO2 SLP173 TCU DSNT W T02940217=
202007281252 METAR KATL 281252Z 28006KT 10SM FEW120 FEW150 SCT250 27/22 A3007 RMK AO2 SLP171 ACC SW T02720217=
202007281152 METAR KATL 281152Z 29005KT 10SM FEW070 FEW150 FEW200 SCT250 25/21 A3006 RMK AO2 SLP165 ACC DSNT S T02500211 10256 20239 51012=
202007281052 METAR KATL 281052Z 27004KT 10SM FEW150 FEW200 SCT250 24/21 A3005 RMK AO2 SLP163 T02390206=
202007280952 METAR KATL 280952Z 27003KT 10SM FEW200 FEW250 24/21 A3003 RMK AO2 SLP157 T02440206=
202007280852 METAR KATL 280852Z 00000KT 10SM FEW150 FEW250 24/20 A3002 RMK AO2 SLP153 T02440200 58005=
202007280752 METAR KATL 280752Z 00000KT 10SM FEW150 SCT250 24/20 A3002 RMK AO2 SLP154 T02440200=
202007280652 METAR KATL 280652Z 25003KT 10SM FEW150 FEW200 25/20 A3003 RMK AO2 SLP157 T02500200=
202007280552 METAR KATL 280552Z 29003KT 10SM FEW150 FEW200 26/21 A3003 RMK AO2 SLP157 T02560206 10311 20256 58004=
202007280452 METAR KATL 280452Z 24003KT 10SM FEW150 SCT250 26/21 A3004 RMK AO2 SLP162 T02560206 403390233=
202007280352 METAR KATL 280352Z 28004KT 10SM FEW150 SCT250 26/20 A3005 RMK AO2 SLP163 T02610200=
202007280252 METAR KATL 280252Z 26004KT 10SM FEW150 SCT200 BKN250 27/21 A3005 RMK AO2 SLP163 T02670206 51008=
202007280152 METAR KATL 280152Z 33005KT 10SM FEW150 SCT200 BKN250 28/21 A3004 RMK AO2 SLP161 T02780206=
202007280052 METAR KATL 280052Z 35006KT 10SM FEW050 FEW150 SCT200 BKN250 28/21 A3003 RMK AO2 WSHFT 2350 SLP157 TCU DSNT SE-S T02830206=
202007280010 SPECI KATL 280010Z 35012KT 10SM FEW050 SCT150 BKN200 BKN250 29/21 A3003 RMK AO2 WSHFT 2350 T02940206=
202007272352 METAR KATL 272352Z 34015KT 10SM FEW050 FEW150 BKN200 BKN250 31/20 A3002 RMK AO2 SLP155 CB DSNT SE T03110200 10339 20311 53002=
202007272252 METAR KATL 272252Z 28010KT 10SM FEW055TCU SCT200 BKN250 32/19 A3002 RMK AO2 SLP152 CB DSNT NW TCU NE DSNT SW-W T03220194=
202007272152 METAR KATL 272152Z 24012G19KT 10SM SCT055TCU SCT100 BKN250 33/19 A3001 RMK AO2 SLP150 TCU NW-NE-E T03280189=
202007272052 METAR KATL 272052Z 28008KT 10SM FEW055TCU SCT100 SCT200 BKN250 33/20 A3002 RMK AO2 SLP153 CB DSNT N-NE SE-S NW TCU NE DSNT NE S SW T03330200 56024=
202007271952 METAR KATL 271952Z 19006KT 10SM FEW055TCU SCT100 SCT200 BKN250 34/20 A3004 RMK AO2 LTG DSNT NW SLP159 CB DSNT ALQDS TCU N DSNT NW-NE T03390200=
202007271852 METAR KATL 271852Z 24007KT 10SM SCT048CB SCT100 BKN200 BKN250 33/19 A3007 RMK AO2 SLP170 CB NE MOV NE CB DSNT W-NW TCU NW-NE DSNT S-SW SHRA NE T03280189=
202007271752 METAR KATL 271752Z 23008KT 10SM SCT048TCU SCT075 BKN200 BKN250 33/21 A3009 RMK AO2 SLP177 CB DSNT S W TCU N NE-SE W-NW T03330206 10333 20256 58011=
202007271652 METAR KATL 271652Z 26007KT 10SM SCT044TCU SCT065 SCT200 BKN250 32/21 A3011 RMK AO2 SLP184 TCU N SE DSNT SW W-NW MDT CU ALQDS T03170206=
202007271552 METAR KATL 271552Z 29007KT 10SM SCT042TCU SCT200 SCT250 31/21 A3012 RMK AO2 SLP186 TCU NW DSNT W-NW MDT CU ALQDS T03110211=
202007271452 METAR KATL 271452Z 29005KT 10SM FEW040 SCT200 SCT250 31/21 A3012 RMK AO2 SLP188 MDT CU DSNT ALQDS T03110211 57003=
202007271352 METAR KATL 271352Z 35004KT 10SM FEW200 SCT250 29/22 A3013 RMK AO2 SLP190 T02940217=
202007271252 METAR KATL 271252Z 31004KT 10SM FEW200 FEW250 27/21 A3013 RMK AO2 SLP191 T02720211=
202007271152 METAR KATL 271152Z 00000KT 10SM FEW060 FEW200 FEW250 26/21 A3013 RMK AO2 SLP192 T02560211 10256 20233 53010=
202007271052 METAR KATL 271052Z 00000KT 10SM FEW050 FEW200 SCT250 24/21 A3012 RMK AO2 SLP189 T02390211=
202007270952 METAR KATL 270952Z 00000KT 10SM FEW250 24/21 A3011 RMK AO2 SLP185 T02440211=
202007270852 METAR KATL 270852Z 29004KT 10SM FEW250 24/21 A3010 RMK AO2 SLP182 T02390211 55002=
202007270752 METAR KATL 270752Z 25003KT 10SM FEW250 24/21 A3010 RMK AO2 SLP180 T02440211=
202007270652 METAR KATL 270652Z 27003KT 10SM FEW250 24/21 A3010 RMK AO2 SLP181 T02440211=
202007270552 METAR KATL 270552Z 00000KT 10SM FEW250 25/21 A3011 RMK AO2 SLP184 T02500211 10300 20250 56008=
202007270452 METAR KATL 270452Z 00000KT 10SM FEW250 26/21 A3012 RMK AO2 SLP187 T02610206 403280217=
202007270352 METAR KATL 270352Z 00000KT 10SM FEW055 SCT250 27/21 A3012 RMK AO2 SLP188 T02670206=
202007270252 METAR KATL 270252Z 00000KT 10SM FEW055 FEW150 SCT250 27/19 A3013 RMK AO2 SLP193 T02720194 53003=
202007270152 METAR KATL 270152Z 00000KT 10SM FEW047 SCT055 SCT140 SCT250 28/19 A3013 RMK AO2 SLP191 TSB05E45 TS DSIPT T02780194=
202007270148 SPECI KATL 270148Z 28004KT 10SM FEW047 SCT055 SCT140 SCT250 28/19 A3012 RMK AO2 TSB05E45 TS DSIPT=
202007270108 SPECI KATL 270108Z 01009KT 10SM TS SCT047CB SCT055 SCT140 BKN250 28/19 A3013 RMK AO2 OCNL LTGICCC NW-N TS NW-N DRFTG NE T02830189=
202007270052 METAR KATL 270052Z 02006KT 10SM SCT055 SCT150 BKN250 29/20 A3012 RMK AO2 SLP190 SHRA NW-N T02940200=
202007262352 METAR KATL 262352Z 21005KT 10SM SCT050 SCT150 SCT180 BKN250 30/21 A3011 RMK AO2 LTG DSNT N SLP186 CB DSNT N TCU DSNT NE-SE & NW T03000206 10328 20300 55003=
202007262252 METAR KATL 262252Z 23005KT 10SM SCT055TCU SCT140 SCT250 31/19 A3010 RMK AO2 LTG DSNT NE SLP181 TCU ALQDS CB DSNT NE & SW T03060194=
202007262152 METAR KATL 262152Z 00000KT 10SM SCT055TCU SCT150 SCT250 31/19 A3011 RMK AO2 SLP185 TCU ALQDS CB DSNT NE & S T03110189=
202007262052 METAR KATL 262052Z 12003KT 10SM SCT050TCU SCT250 31/19 A3012 RMK AO2 SLP189 TCU SE-SW-W T03110194 56019=
202007261952 METAR KATL 261952Z 00000KT 10SM SCT050TCU SCT090 SCT250 31/19 A3014 RMK AO2 SLP194 TCU ALQDS T03060189=
202007261852 METAR KATL 261852Z 21003KT 10SM BKN045TCU BKN100 32/21 A3016 RMK AO2 SLP201 TCU ALQDS T03170206=
202007261752 METAR KATL 261752Z VRB05KT 10SM BKN037TCU BKN250 31/21 A3018 RMK AO2 SLP209 TCU N & W T03060211 10306 20239 58010=
202007261652 METAR KATL 261652Z VRB04KT 10SM SCT036 SCT150 BKN250 29/21 A3020 RMK AO2 SLP217 T02940211=
202007261552 METAR KATL 261552Z VRB03KT 10SM FEW032 BKN150 BKN250 29/20 A3021 RMK AO2 SLP219 T02890200=
202007261452 METAR KATL 261452Z 00000KT 10SM FEW030 BKN150 BKN250 27/20 A3021 RMK AO2 SLP221 T02720200 50006=
202007261352 METAR KATL 261352Z 12004KT 10SM FEW150 SCT200 SCT250 27/20 A3021 RMK AO2 SLP221 T02670200=
202007261252 METAR KATL 261252Z 07006KT 10SM FEW120 FEW150 FEW250 25/21 A3021 RMK AO2 SLP221 T02500206=
202007261152 METAR KATL 261152Z 06003KT 10SM FEW180 FEW250 24/20 A3019 RMK AO2 SLP216 70006 T02390200 10239 20217 53011=
202007261052 METAR KATL 261052Z 33005KT 10SM SCT180 SCT250 22/19 A3017 RMK AO2 SLP209 T02220194=
202007260952 METAR KATL 260952Z 01003KT 10SM FEW110 FEW180 23/19 A3016 RMK AO2 SLP205 T02280194=
202007260852 METAR KATL 260852Z 31003KT 10SM FEW180 22/19 A3016 RMK AO2 SLP205 T02170194 58006=
202007260752 METAR KATL 260752Z 00000KT 10SM FEW110 FEW180 22/20 A3017 RMK AO2 SLP206 T02220200=
202007260652 METAR KATL 260652Z 36004KT 10SM FEW005 FEW100 SCT180 23/21 A3018 RMK AO2 SLP208 VIS NE-E 2 1/2 FG BANK NE-E T02280206=
202007260552 METAR KATL 260552Z 04004KT 10SM FEW006 SCT110 SCT250 23/21 A3018 RMK AO2 SLP209 60000 T02280206 10233 20222 58006=
202007260548 SPECI KATL 260548Z 04004KT 10SM FEW006 SCT110 SCT250 23/21 A3018 RMK AO2=
202007260452 METAR KATL 260452Z 00000KT 10SM FEW010 SCT110 BKN250 23/21 A3019 RMK AO2 SLP210 T02280206 403280222=
202007260352 METAR KATL 260352Z 00000KT 10SM SCT110 BKN150 BKN250 22/21 A3021 RMK AO2 SLP218 T02220206=
202007260252 METAR KATL 260252Z 28003KT 10SM FEW070 SCT110 BKN150 BKN250 23/20 A3020 RMK AO2 SLP215 60000 T02280200 51013=
202007260152 METAR KATL 260152Z 36004KT 10SM FEW050 FEW070 BKN110 BKN140 BKN250 23/21 A3019 RMK AO2 RAE27 SLP213 P0000 T02280206=
202007260052 METAR KATL 260052Z 00000KT 10SM -RA FEW012 SCT050 SCT100 BKN150 BKN250 23/20 A3017 RMK AO2 RAE2354B18E32B52 SLP207 PCPN VRY LGT P0000 T02280200=
202007252352 METAR KATL 252352Z 00000KT 10SM -RA FEW010 FEW070 BKN110 BKN150 BKN250 23/20 A3016 RMK AO2 SLP204 CB DSNT SW & NW P0001 60006 T02280200 10306 20222 53005=
202007252252 METAR KATL 252252Z 21004KT 10SM -RA FEW030 SCT070 BKN095 BKN150 BKN250 22/20 A3013 RMK AO2 LTG DSNT S SLP195 CB DSNT NW & NE P0003 T02220200=
202007252152 METAR KATL 252152Z 19006KT 10SM -RA FEW030 SCT060 SCT100 BKN150 BKN250 23/21 A3016 RMK AO2 LTG DSNT SE AND SW SLP204 CB DSNT NW & N TCU DSNT N & NE P0002 T02280206=
202007252052 METAR KATL 252052Z 12007KT 10SM -RA FEW030TCU BKN120 BKN250 24/20 A3014 RMK AO2 LTG DSNT ALQDS RAE16B39 TSE11 SLP198 TS DSPTD CB DSNT SE-SW TCU NW-N P0000 60000 T02390200 55004 $=
202007252014 SPECI KATL 252014Z 17006KT 10SM -RA FEW032 BKN120 BKN250 25/20 A3013 RMK AO2 LTG DSNT SE-W TSE11 DSPTD CB DSNT SE-SW TCU DSNT W-N-NE P0000 T02500200 $=
202007251952 METAR KATL 251952Z 15010KT 10SM -TSRA FEW032CB SCT050 BKN150 BKN250 26/20 A3013 RMK AO2 LTG DSNT ALQDS RAB47 TSE13B16 SLP194 TSB1850 CB SE-S & DSNT E & W OCNL LTGICCG SE-S T SE-S STNRY P0000 T02610200=
202007251859 SPECI KATL 251859Z 36010KT 10SM TS SCT032CB BKN120 BKN250 29/19 A3012 RMK AO2 LTG DSNT ALQDS TSB50 CB ALQDS OCNL LTGCG SE STNRY T02890189=
202007251852 METAR KATL 251852Z 03011KT 10SM SCT032TCU BKN120 BKN250 29/20 A3012 RMK AO2 LTG DSNT ALQDS RAB10E31 TSB50E51 SLP190 TSB01E30 DSPTD CB DSNT E & W-NW TCU ALQDS P0000 T02940200=
202007251836 SPECI KATL 251836Z 02012KT 10SM FEW022 SCT035TCU BKN100 BKN250 30/22 A3014 RMK AO2 LTG DSNT NW-E RAB10E31 TSB01E30 DSPTD CB DSNT NW & NE-E TCU ALQDS P0000 T03000217=
202007251807 SPECI KATL 251807Z 33006KT 10SM VCTS SCT040CB BKN080 BKN250 31/21 A3014 RMK AO2 LTG DSNT ALQDS TSB01 OCNL LTGCG N-NE VCTS NE STNRY TCU ALQDS T03060206=
202007251752 METAR KATL 251752Z 35010KT 10SM SCT040TCU BKN080 BKN150 BKN250 30/21 A3016 RMK AO2 LTG DSNT N AND NE TSB01E16 SLP200 TS DSPTD TCU ALQDS CB DSNT N-NE T03000206 10328 20244 58012=
202007251721 SPECI KATL 251721Z 04004KT 10SM SCT042TCU BKN150 BKN250 31/20 A3017 RMK AO2 LTG DSNT NE TSB01E16 TS DSPTD TCU ALQDS CB DSNT NE T03110200=
202007251707 SPECI KATL 251707Z 20005KT 10SM TS SCT042CB BKN150 BKN250 31/21 A3017 RMK AO2 LTG DSNT NE TSB01 OCNL LTGCG N-NE TS N-NE STNRY TCU ALQDS T03110206=
202007251652 METAR KATL 251652Z 00000KT 10SM VCTS SCT039CB BKN150 BKN250 33/21 A3018 RMK AO2 LTG DSNT NE SLP206 TSB41 OCNL LTGCG N-NE VCTS N-NE STNRY TCU ALQDS T03280211=
202007251552 METAR KATL 251552Z 32003KT 10SM FEW040TCU BKN150 BKN250 31/20 A3020 RMK AO2 SLP213 TCU SW T03110200=
202007251452 METAR KATL 251452Z 04003KT 10SM SCT150 BKN200 BKN250 30/21 A3019 RMK AO2 SLP211 T03000211 50004=
202007251352 METAR KATL 251352Z 15004KT 10SM FEW200 FEW250 27/21 A3020 RMK AO2 SLP213 T02720211=
202007251252 METAR KATL 251252Z 08004KT 10SM FEW150 FEW200 FEW250 26/21 A3019 RMK AO2 SLP211 T02610206=
202007251152 METAR KATL 251152Z 08005KT 10SM FEW050 FEW150 FEW200 24/21 A3018 RMK AO2 SLP208 T02440206 10256 20233 53013=
202007251052 METAR KATL 251052Z 09004KT 10SM FEW048 FEW150 FEW200 23/21 A3016 RMK AO2 SLP202 T02330206=
202007250952 METAR KATL 250952Z 11003KT 10SM FEW045 SCT150 23/21 A3015 RMK AO2 SLP198 T02330206=
202007250852 METAR KATL 250852Z 13004KT 10SM FEW150 24/20 A3014 RMK AO2 SLP195 T02390200 56008=
202007250752 METAR KATL 250752Z 12004KT 10SM FEW150 24/20 A3014 RMK AO2 SLP196 T02440200=
202007250652 METAR KATL 250652Z 09007KT 10SM FEW070 FEW150 24/20 A3015 RMK AO2 SLP198 T02440200=
202007250552 METAR KATL 250552Z 09005KT 10SM FEW070 SCT150 26/20 A3016 RMK AO2 SLP202 T02560200 10294 20256 58004=
202007250452 METAR KATL 250452Z 11005KT 10SM FEW070 BKN150 26/20 A3019 RMK AO2 SLP211 T02610200 403110233=
202007250352 METAR KATL 250352Z 09012KT 10SM FEW070 BKN150 BKN250 27/21 A3019 RMK AO2 SLP211 T02670206=
202007250252 METAR KATL 250252Z 00000KT 10SM BKN150 BKN250 28/21 A3017 RMK AO2 SLP207 T02830206 53012=
202007250152 METAR KATL 250152Z 00000KT 10SM BKN150 BKN250 29/20 A3016 RMK AO2 SLP202 T02890200=
202007250052 METAR KATL 250052Z 32004KT 10SM BKN150 BKN250 29/20 A3015 RMK AO2 SLP200 T02890200=
202007242352 METAR KATL 242352Z 28004KT 10SM FEW040 BKN150 BKN250 29/19 A3014 RMK AO2 SLP195 T02940189 10311 20283 55004=
202007242252 METAR KATL 242252Z 22004KT 10SM FEW040 BKN180 BKN250 30/17 A3014 RMK AO2 SLP194 TCU DSNT NE T03000172=
202007242152 METAR KATL 242152Z 20006KT 10SM FEW035 BKN180 BKN250 31/19 A3014 RMK AO2 SLP196 CB DSNT N SE T03060189=
202007242052 METAR KATL 242052Z 21006KT 10SM SCT034 BKN180 BKN250 30/21 A3015 RMK AO2 SLP200 CB DSNT NE E SE TCU DSNT NE SW NW-N T03000206 56019=
202007241952 METAR KATL 241952Z 19008KT 10SM SCT036TCU BKN180 BKN250 30/20 A3016 RMK AO2 SLP202 CB DSNT NE TCU W NW DSNT NE SE MDT CU ALQDS T03000200=
202007241852 METAR KATL 241852Z 18008KT 10SM SCT034TCU BKN180 BKN250 31/21 A3018 RMK AO2 SLP208 TCU S MDT CU ALQDS T03060211=
202007241752 METAR KATL 241752Z 18006KT 10SM SCT028 SCT120 BKN160 BKN200 29/22 A3021 RMK AO2 SLP219 ACC SW-NW-NE MDT CU DSNT ALQDS T02940217 10294 20239 58006=
202007241652 METAR KATL 241652Z 15005KT 10SM SCT024 BKN160 BKN200 BKN250 28/21 A3023 RMK AO2 SLP224 ACC N-NE SW T02780211=
202007241552 METAR KATL 241552Z 13005KT 10SM SCT020 BKN150 BKN200 BKN250 27/22 A3023 RMK AO2 SLP227 ACC NW-NE T02670217=
202007241452 METAR KATL 241452Z 16005KT 10SM FEW015 FEW120 BKN150 BKN200 25/21 A3023 RMK AO2 SLP227 VIRGA E-S ACC SW-NW T02500211 51012 $=
202007241352 METAR KATL 241352Z 19005KT 10SM SCT012 SCT110 BKN150 BKN200 25/21 A3022 RMK AO2 SLP224 ACC DSNT N T02500211 $=
202007241252 METAR KATL 241252Z 14003KT 10SM BKN010 BKN180 BKN250 24/21 A3021 RMK AO2 SLP219 BKN010 V SCT T02440206=
202007241152 METAR KATL 241152Z 15003KT 10SM FEW011 BKN190 BKN250 24/20 A3019 RMK AO2 SLP212 VIRGA DSNT E T02390200 10239 20233 53013=
202007241052 METAR KATL 241052Z 00000KT 10SM FEW015 BKN190 BKN250 24/19 A3017 RMK AO2 SLP204 VIRGA W-NW T02390194=
202007240952 METAR KATL 240952Z 00000KT 10SM BKN190 BKN250 23/20 A3016 RMK AO2 SLP200 T02330200=
202007240852 METAR KATL 240852Z 00000KT 10SM FEW100 BKN180 BKN220 23/21 A3015 RMK AO2 SLP199 T02330206 55002=
202007240752 METAR KATL 240752Z 21003KT 10SM FEW170 SCT220 BKN240 23/21 A3015 RMK AO2 SLP198 T02330206=
202007240652 METAR KATL 240652Z 18004KT 10SM FEW170 BKN240 23/21 A3015 RMK AO2 SLP197 T02330206=
202007240552 METAR KATL 240552Z 19005KT 10SM FEW200 BKN250 24/20 A3016 RMK AO2 SLP200 T02390200 10322 20239 58006=
202007240452 METAR KATL 240452Z 20003KT 10SM FEW150 FEW250 24/21 A3017 RMK AO2 SLP204 T02440206 403390233=
202007240352 METAR KATL 240352Z 19003KT 10SM FEW150 FEW250 26/20 A3017 RMK AO2 SLP206 T02560200=
202007240252 METAR KATL 240252Z 21005KT 10SM SCT140 SCT250 26/20 A3018 RMK AO2 SLP207 T02610200 51024=
202007240152 METAR KATL 240152Z 18005KT 10SM FEW060 SCT110 SCT250 27/19 A3015 RMK AO2 SLP197 T02670194=
202007240052 METAR KATL 240052Z 19014G27KT 10SM SCT042TCU BKN060 BKN200 29/20 A3014 RMK AO2 PK WND 18029/0040 SLP196 CB DSNT E-SE S SW-W TCU E-OHD-W T02890200=
202007232352 METAR KATL 232352Z 11004KT 10SM FEW060 FEW250 32/19 A3010 RMK AO2 LTG DSNT SE SLP181 CB DSNT SE-SW T03220189 10339 20306 53002=
202007232252 METAR KATL 232252Z 12006KT 10SM FEW055TCU FEW250 33/19 A3010 RMK AO2 SLP182 CB DSNT SE-SW TCU OHD-NW T03330189=
202007232152 METAR KATL 232152Z 15008KT 10SM SCT060 SCT250 33/19 A3010 RMK AO2 SLP179 TCU DSNT N MDT CU E NW T03330189=
202007232052 METAR KATL 232052Z 21006KT 10SM FEW060 SCT075 SCT200 SCT250 33/19 A3010 RMK AO2 SLP179 CB DSNT N-NE SE-SW TCU DSNT N E T03280194 56023=
202007231952 METAR KATL 231952Z 19007KT 10SM FEW055 SCT070 SCT200 SCT250 33/19 A3011 RMK AO2 SLP183 MDT CU ALQDS T03280194=
202007231852 METAR KATL 231852Z 13008G14KT 10SM SCT050 SCT065 SCT200 BKN250 33/19 A3013 RMK AO2 SLP192 CB DSNT N NE MDT CU ALQDS T03280194=
202007231752 METAR KATL 231752Z 16006KT 10SM SCT044 SCT060 SCT250 31/20 A3017 RMK AO2 SLP203 MDT CU E DSNT NW-NE T03110200 10322 20267 58013=
202007231718 SPECI KATL 231718Z VRB04KT 10SM BKN040 BKN250 30/20 A3018 RMK AO2 T03000200=
202007231652 METAR KATL 231652Z 13007KT 10SM BKN040 BKN250 32/21 A3019 RMK AO2 SLP211 T03170206=
202007231552 METAR KATL 231552Z 15007KT 10SM SCT036 SCT250 30/21 A3020 RMK AO2 SLP216 CB DSNT NE T03000211=
202007231452 METAR KATL 231452Z 14009KT 10SM FEW030 FEW140 SCT250 29/20 A3020 RMK AO2 SLP216 T02940200 50008=
202007231352 METAR KATL 231352Z 13005KT 10SM FEW028 FEW140 SCT250 28/21 A3021 RMK AO2 SLP218 T02830206=
202007231252 METAR KATL 231252Z 00000KT 10SM FEW150 SCT250 27/19 A3019 RMK AO2 SLP212 T02720194=
202007231152 METAR KATL 231152Z 00000KT 10SM FEW055 FEW150 SCT250 27/19 A3018 RMK AO2 SLP207 T02670194 10267 20233 53016=
202007231052 METAR KATL 231052Z 00000KT 10SM FEW050 FEW150 SCT250 24/20 A3016 RMK AO2 SLP200 T02390200=
202007230952 METAR KATL 230952Z 00000KT 10SM FEW070 FEW250 24/21 A3014 RMK AO2 SLP195 T02390206 $=
202007230852 METAR KATL 230852Z 00000KT 10SM FEW250 24/21 A3013 RMK AO2 SLP192 T02440206 58004=
202007230752 METAR KATL 230752Z 21004KT 10SM FEW250 24/20 A3014 RMK AO2 SLP193 T02440200=
202007230652 METAR KATL 230652Z 21004KT 10SM FEW055 SCT250 25/21 A3014 RMK AO2 SLP194 T02500211=
202007230552 METAR KATL 230552Z 00000KT 10SM FEW055 SCT200 SCT250 26/21 A3014 RMK AO2 SLP195 T02610211 10317 20261 50001=
202007230452 METAR KATL 230452Z 31004KT 10SM FEW055 SCT200 BKN250 27/21 A3015 RMK AO2 SLP198 T02670211 403390228=
202007230352 METAR KATL 230352Z 22003KT 10SM FEW055 SCT150 BKN200 BKN250 27/22 A3016 RMK AO2 SLP199 T02720217=
202007230252 METAR KATL 230252Z 00000KT 10SM FEW055 SCT150 BKN200 BKN250 28/22 A3014 RMK AO2 SLP194 CB DSNT N NW T02780222 53013=
202007230152 METAR KATL 230152Z 00000KT 10SM SCT055 BKN150 BKN250 29/21 A3012 RMK AO2 LTG DSNT N AND NE SLP187 CB DSNT W NW-NE T02940206=
202007230052 METAR KATL 230052Z 13003KT 10SM SCT055TCU SCT110 BKN200 BKN250 31/20 A3011 RMK AO2 SLP184 CB DSNT NE TCU N-NE T03060200=
202007222352 METAR KATL 222352Z 00000KT 10SM FEW050 SCT110 BKN200 BKN250 32/20 A3010 RMK AO2 LTG DSNT NE SLP181 CB DSNT NE W TCU DSNT SE T03170200 10339 20306 53007=
202007222252 METAR KATL 222252Z 00000KT 10SM FEW050 SCT110 BKN200 BKN250 31/21 A3008 RMK AO2 SLP173 CB DSNT E TCU DSNT E-SE SW-W T03110211=
202007222152 METAR KATL 222152Z 22004KT 10SM SCT050TCU SCT100 BKN200 BKN250 31/21 A3007 RMK AO2 SLP172 CB DSNT NE TCU NW-N DSNT NE-SE-SW-W T03110211=
202007222052 METAR KATL 222052Z 17006KT 10SM SCT050CB SCT100 BKN200 BKN250 32/20 A3008 RMK AO2 LTG DSNT N SLP174 CB N SW MOV NW TCU SW-NW DSNT ALQDS SHRA N SW T03220200 56016=
202007221952 METAR KATL 221952Z 15007KT 10SM SCT050TCU SCT110 BKN200 BKN250 32/20 A3009 RMK AO2 SLP178 TCU S SW-NW DSNT ALQDS T03170200=
202007221852 METAR KATL 221852Z 21005KT 10SM SCT050TCU SCT100 BKN200 BKN250 33/19 A3011 RMK AO2 LTG DSNT NW SLP184 CB DSNT NE NW TCU E-S-SW DSNT ALQDS T03330194=
202007221752 METAR KATL 221752Z VRB03KT 10SM SCT046TCU SCT100 SCT200 BKN250 33/21 A3013 RMK AO2 LTG DSNT SE AND NW SLP190 CB DSNT SE NW TCU N S SW DSNT ALQDS T03330206 10333 20239 58014=
202007221652 METAR KATL 221652Z 32007KT 10SM SCT038TCU SCT100 SCT200 BKN250 31/21 A3016 RMK AO2 SLP202 CB DSNT W NW TCU ALQDS T03110206=
202007221552 METAR KATL 221552Z 33005KT 10SM FEW036 SCT180 BKN250 32/22 A3017 RMK AO2 SLP203 TCU DSNT S-SW NW T03170217=
202007221452 METAR KATL 221452Z 27005KT 10SM FEW032 FEW110 SCT180 BKN250 30/22 A3017 RMK AO2 SLP204 TCU DSNT NW ACC NE T03000217 50009=
202007221352 METAR KATL 221352Z 00000KT 9SM FEW014 FEW110 SCT180 BKN250 27/22 A3017 RMK AO2 SLP206 ACC N T02670222=
202007221252 METAR KATL 221252Z 12003KT 7SM FEW009 SCT110 BKN180 BKN250 24/22 A3016 RMK AO2 SLP202 T02440217=
202007221152 METAR KATL 221152Z 08004KT 8SM FEW008 SCT150 BKN200 BKN250 24/21 A3014 RMK AO2 SLP197 70004 T02390211 10239 20228 53009=
202007221052 METAR KATL 221052Z 09003KT 8SM FEW006 BKN150 BKN250 23/21 A3013 RMK AO2 SLP194 T02330211=
202007220952 METAR KATL 220952Z 09004KT 10SM FEW007 SCT150 SCT250 23/21 A3012 RMK AO2 SLP189 T02280211=
202007220852 METAR KATL 220852Z 10004KT 10SM FEW007 SCT150 SCT250 23/21 A3012 RMK AO2 SLP188 T02330211 53001=
202007220752 METAR KATL 220752Z 08003KT 10SM FEW007 SCT250 23/21 A3011 RMK AO2 SLP183 T02330211=
202007220652 METAR KATL 220652Z 08007KT 10SM FEW007 FEW200 BKN250 24/21 A3011 RMK AO2 SLP183 T02390211=
202007220552 METAR KATL 220552Z 11006KT 10SM FEW007 SCT200 BKN250 24/21 A3011 RMK AO2 SLP186 60000 T02390211 10267 20239 58000=
202007220452 METAR KATL 220452Z 10004KT 10SM FEW008 SCT200 BKN250 24/22 A3013 RMK AO2 SLP189 T02390217 403500239=
202007220352 METAR KATL 220352Z 07004KT 10SM FEW150 SCT200 BKN250 25/22 A3012 RMK AO2 SLP189 T02500217=
202007220252 METAR KATL 220252Z 12004KT 10SM SCT150 BKN200 OVC250 25/22 A3012 RMK AO2 SLP186 60000 T02500217 53006=
202007220152 METAR KATL 220152Z 09007KT 10SM FEW110 BKN150 OVC200 25/22 A3010 RMK AO2 SLP182 T02500217=
202007220052 METAR KATL 220052Z 09008KT 10SM FEW110 BKN150 OVC200 26/21 A3010 RMK AO2 RAE20 SLP183 P0000 T02560206=
202007212352 METAR KATL 212352Z 06009KT 10SM -RA FEW055 SCT110 BKN140 OVC200 27/21 A3010 RMK AO2 RAB48 SLP180 P0000 60004 T02670206 10350 20256 50005=
202007212252 METAR KATL 212252Z 03005KT 10SM FEW110 BKN150 OVC200 28/21 A3010 RMK AO2 SLP180 T02780206 $=
202007212152 METAR KATL 212152Z 00000KT 10SM FEW045 SCT120 BKN150 OVC200 27/21 A3009 RMK AO2 RAE10 SLP179 LTG DSNT NW CB DSNT N NW P0000 T02720211=
202007212052 METAR KATL 212052Z 20004KT 10SM -RA SCT046 SCT080 BKN140 BKN200 26/22 A3008 RMK AO2 PK WND 11034/2004 WSHFT 1959 LTG DSNT ALQDS RAB1959 TSE51 SLP176 TS DSIPTD CB DSNT ALQDS P0004 60004 T02610217 53003=
202007212042 SPECI KATL 212042Z 14005KT 10SM -TSRA SCT044CB BKN075 BKN110 BKN200 26/21 A3008 RMK AO2 PK WND 11034/2004 WSHFT 1959 LTG DSNT ALQDS RAB1959 VIS LWR NW-NE-E FRQ LTGICCGCA NW-NE-E TS NW-NE-E MOV NW CB DSNT ALQDS P0003 T02610211=
202007212015 SPECI KATL 212015Z 13016G31KT 3SM TSRA BKN050CB BKN075 BKN110 OVC200 27/20 A3011 RMK AO2 PK WND 11034/2004 WSHFT 1959 RAB1959 VIS NW-NE-E 1/2 CONS LTGICCGCA SE-OHD-NW TS SE-OHD-NW MOV NW CB DSNT ALQDS P0000 T02670200=
202007212004 SPECI KATL 212004Z 11022G34KT 6SM -TSRA BKN050CB BKN075 BKN110 BKN200 32/21 A3011 RMK AO2 PK WND 11034/2004 LTG DSNT ALQDS RAB1959 PRESRR VIS NE-SE 1 CONS LTGICCGCA NE-SE TS NE-SE MOV NW CB DSNT ALQDS P0000 T03170206=
202007211958 SPECI KATL 211958Z 16009G15KT 140V200 1 3/4SM TS HZ SCT050CB SCT075 BKN110 BKN200 34/20 A3008 RMK AO2 LTG DSNT ALQDS FRQ LTGICCGCA NE-SE TS NE-SE MOV NW CB DSNT ALQDS T03390200=
202007211952 METAR KATL 211952Z 25007KT 10SM TS SCT050CB BKN110 BKN200 BKN250 35/21 A3006 RMK AO2 LTG DSNT NE AND E AND SW TSB47 SLP165 OCNL LTGICCGCA NE-SE TS NE-SE MOV NW CB DSNT ALQDS TCU DSNT ALQDS T03500206=
202007211948 SPECI KATL 211948Z 25005KT 10SM TS SCT050CB SCT110 BKN200 BKN250 34/21 A3005 RMK AO2 LTG DSNT NE AND E AND SW TSB47 OCNL LTGICCGCA NE-SE TS NE-SE MOV NW CB DSNT ALQDS TCU DSNT ALQDS=
202007211852 METAR KATL 211852Z 26006KT 10SM SCT048TCU SCT100 BKN200 BKN250 34/22 A3007 RMK AO2 LTG DSNT ALQDS SLP169 TSB28E43 TS DSIPTD CB DSNT ALQDS TCU N-NE S-SW DSNT ALQDS T03390222=
202007211844 SPECI KATL 211844Z 25008KT 10SM SCT048TCU SCT075 BKN120 BKN200 33/21 A3008 RMK AO2 LTG DSNT ALQDS TSB28E43 TS DSIPTD CB DSNT ALQDS TCU OHD-E S-SW T03330211=
202007211832 SPECI KATL 211832Z 25007KT 10SM VCTS SCT046CB SCT075 SCT200 BKN250 33/22 A3009 RMK AO2 LTG DSNT NE AND SE TSB28 OCNL LTGICCA VC W TS VC W MOV W CB DSNT ALQDS TCU OHD-E S-SW T03280217=
202007211752 METAR KATL 211752Z 34005KT 10SM SCT046TCU SCT075 SCT200 BKN250 33/21 A3009 RMK AO2 LTG DSNT NE AND SE AND W SLP176 CB DSNT ALQDS TCU N NE SW SHRA SW T03280206 10339 20250 58017=
202007211652 METAR KATL 211652Z 35005KT 10SM FEW038 SCT150 SCT200 BKN250 33/22 A3013 RMK AO2 SLP189 CB DSNT E-SE S-SW W TCU DSNT NE T03330222=
202007211552 METAR KATL 211552Z 31005KT 10SM FEW110 SCT150 SCT200 BKN250 31/22 A3014 RMK AO2 SLP193 ACC S DSNT W-NW T03110222=
202007211452 METAR KATL 211452Z 31006KT 10SM FEW150 SCT200 BKN250 30/22 A3014 RMK AO2 SLP194 ACC N SE SW T03000222 51013=
202007211352 METAR KATL 211352Z 30005KT 9SM SCT150 BKN200 BKN250 29/22 A3014 RMK AO2 SLP193 T02890217=
202007211252 METAR KATL 211252Z 28006KT 10SM FEW070 FEW150 SCT200 BKN250 27/21 A3013 RMK AO2 SLP190 ACC SW T02720211=
202007211152 METAR KATL 211152Z 28005KT 9SM FEW150 SCT200 SCT250 25/22 A3010 RMK AO2 SLP182 70007 T02500217 10267 20239 53027=
202007211052 METAR KATL 211052Z 28006KT 10SM FEW120 FEW200 SCT250 24/22 A3007 RMK AO2 SLP172 T02440217=
202007210952 METAR KATL 210952Z 23003KT 10SM FEW200 SCT250 24/22 A3004 RMK AO2 SLP160 T02440217=
202007210852 METAR KATL 210852Z 00000KT 10SM FEW200 25/22 A3002 RMK AO2 SLP152 T02500217 57013=
202007210752 METAR KATL 210752Z 22003KT 10SM FEW120 SCT200 SCT250 25/21 A3003 RMK AO2 SLP156 T02500211=
202007210652 METAR KATL 210652Z 00000KT 10SM FEW120 SCT200 SCT250 26/22 A3005 RMK AO2 SLP161 T02560217=
202007210552 METAR KATL 210552Z 00000KT 10SM SCT200 BKN250 27/22 A3006 RMK AO2 SLP165 T02670217 10306 20267 58005=
202007210452 METAR KATL 210452Z 00000KT 10SM FEW080 SCT200 BKN250 27/21 A3007 RMK AO2 SLP169 T02720211 403500250=
202007210352 METAR KATL 210352Z 00000KT 10SM FEW080 SCT150 BKN250 28/21 A3007 RMK AO2 SLP170 T02830206=
202007210252 METAR KATL 210252Z 24003KT 10SM SCT080 BKN150 BKN200 BKN250 28/21 A3007 RMK AO2 SLP170 ACC NE-E T02830206 53018=
202007210152 METAR KATL 210152Z 23003KT 10SM FEW055 SCT080 BKN140 BKN250 29/20 A3004 RMK AO2 SLP161 CB DSNT N NW T02890200=
202007210052 METAR KATL 210052Z 20003KT 10SM FEW055 SCT110 BKN150 BKN250 29/19 A3004 RMK AO2 SLP160 CB DSNT N NE T02940194=
202007202352 METAR KATL 202352Z 15009KT 10SM FEW055 SCT100 BKN200 BKN250 29/20 A3002 RMK AO2 PK WND 05036/2255 SLP153 TSE26 CB DSNT SE TCU DSNT NE P0000 60007 T02940200 10350 20272 53005=
202007202326 SPECI KATL 202326Z 02009KT 10SM -RA SCT055CB BKN110 BKN200 BKN250 30/20 A3001 RMK AO2 PK WND 05036/2255 TSE26 TS DSIPTD CB NW-N DSNT SE MOV NW P0000 T03000200=
202007202252 METAR KATL 202252Z 02019G29KT 5SM TSRA BKN060CB BKN150 BKN250 28/21 A3003 RMK AO2 PK WND 01029/2246 WSHFT 2233 RAB14 TSB28 SLP159 VIS LWR NW-NE-SE OCNL LTGICCG NW-NE-SE TS NW-NE-SE MOV SLOWY N P0007 T02780206=
202007202249 SPECI KATL 202249Z 03019G29KT 5SM TSRA BKN060CB BKN150 BKN250 28/21 A3003 RMK AO2 PK WND 01029/2246 WSHFT 2233 RAB14 TSB28 VIS LWR N-E-SE SW-NW OCNL LTGICCG SE-OHD-NW TS SE-OHD-NW MOV STNRY P0007=
202007202245 SPECI KATL 202245Z 01017G27KT 2SM R09R/6000VP6000FT +TSRA BKN060CB BKN150 BKN250 27/21 A3003 RMK AO2 PK WND 36027/2241 RAB14 TSB28 VIS LWR E-SE SW-NW FRQ LTGICCG SE-OHD-NW TS SE-OHD-NW MOV STNRY P0007 T02720211=
202007202232 SPECI KATL 202232Z 20011G20KT 6SM -TSRA BKN060CB BKN150 BKN250 29/21 A3002 RMK AO2 RAB14 TSB28 PRESRR VIS LWR SE-SW-NW OCNL LTGICCG SE-SW-NW TS SE-SW-NW MOV SLOWY N P0005 T02890206=
202007202152 METAR KATL 202152Z 21005KT 10SM SCT060CB SCT150 BKN250 34/19 A2998 RMK AO2 SLP140 CB SW DSNT N MOV N TCU SE-OHD-NW T03390194=
202007202052 METAR KATL 202052Z 20006KT 10SM FEW065TCU SCT200 SCT250 35/20 A3000 RMK AO2 SLP146 TCU N-NE SE SW T03500200 56020=
202007201952 METAR KATL 201952Z 25006KT 10SM FEW065TCU SCT200 SCT250 35/20 A3002 RMK AO2 SLP152 TCU N-NE DSNT W NW T03500200=
202007201852 METAR KATL 201852Z 24006KT 10SM FEW060TCU SCT110 SCT200 SCT250 33/19 A3004 RMK AO2 SLP159 TCU SE SW MDT CU ALQDS T03280189=
202007201752 METAR KATL 201752Z 24006KT 10SM SCT060TCU SCT110 SCT250 34/21 A3006 RMK AO2 SLP167 CB DSNT W TCU N S-SW T03390206 10350 20267 58008=
202007201652 METAR KATL 201652Z 21004KT 10SM FEW055TCU SCT100 SCT250 33/19 A3007 RMK AO2 SLP171 CB DSNT W TCU S-SW DSNT W T03280194=
202007201552 METAR KATL 201552Z 36005KT 10SM FEW042TCU FEW200 SCT250 34/20 A3008 RMK AO2 SLP172 TCU N-NE S-SW DSNT NE W T03390200=
202007201452 METAR KATL 201452Z VRB04KT 10SM FEW036 FEW200 SCT250 32/22 A3009 RMK AO2 SLP175 T03220217 58001=
202007201352 METAR KATL 201352Z 30004KT 10SM FEW200 SCT250 31/22 A3009 RMK AO2 SLP177 T03060217=
202007201252 METAR KATL 201252Z 29004KT 10SM FEW200 SCT250 29/22 A3009 RMK AO2 SLP178 T02890217=
202007201152 METAR KATL 201152Z 00000KT 10SM FEW200 SCT250 27/22 A3009 RMK AO2 SLP176 T02670222 10272 20250 53007=
202007201052 METAR KATL 201052Z 33003KT 10SM FEW070 SCT250 26/22 A3008 RMK AO2 SLP173 T02610217=
202007200952 METAR KATL 200952Z 00000KT 10SM FEW065 26/22 A3007 RMK AO2 SLP171 T02560217=
202007200852 METAR KATL 200852Z 30005KT 10SM FEW065 26/21 A3007 RMK AO2 SLP169 T02560211 53002=
202007200752 METAR KATL 200752Z 28004KT 10SM FEW065 26/21 A3006 RMK AO2 SLP167 T02610206=
202007200652 METAR KATL 200652Z 23004KT 10SM FEW065 26/21 A3006 RMK AO2 SLP164 T02610206=
202007200552 METAR KATL 200552Z 20003KT 10SM FEW060 FEW250 27/20 A3006 RMK AO2 SLP166 T02720200 10328 20267 58003=
202007200452 METAR KATL 200452Z 21003KT 10SM FEW060 SCT250 27/20 A3006 RMK AO2 SLP167 T02720200 403500239=
202007200352 METAR KATL 200352Z 22003KT 10SM FEW065 FEW085 SCT250 29/19 A3007 RMK AO2 SLP169 T02940194=
202007200252 METAR KATL 200252Z 26004KT 10SM SCT060 BKN080 BKN250 29/21 A3007 RMK AO2 SLP170 T02890206 53011=
202007200152 METAR KATL 200152Z 20003KT 10SM FEW060 FEW100 SCT150 SCT250 30/20 A3006 RMK AO2 SLP166 CB DSNT N AND S T03000200=
202007200052 METAR KATL 200052Z 19004KT 10SM FEW060 FEW100 SCT150 SCT250 31/20 A3005 RMK AO2 SLP162 CB DSNT S & NW TCU DSNT W T03110200=
202007192352 METAR KATL 192352Z 20005KT 10SM FEW060 SCT100 SCT250 33/19 A3004 RMK AO2 SLP159 T03280194 10350 20317 55003=
202007192252 METAR KATL 192252Z 22004KT 10SM FEW060 SCT090 SCT250 33/19 A3003 RMK AO2 LTG DSNT N SLP156 CB DSNT N & NE TCU DSNT NE & W & NW T03330189=
202007192152 METAR KATL 192152Z 21005KT 10SM SCT060 SCT080 34/19 A3004 RMK AO2 SLP160 CB DSNT NW-N T03390189=
202007192052 METAR KATL 192052Z 26008KT 10SM SCT060 SCT080 35/20 A3005 RMK AO2 SLP162 MDT CU OHD-NW-NE T03500200 56018=
202007191952 METAR KATL 191952Z VRB03KT 10SM SCT050TCU SCT075 34/21 A3007 RMK AO2 SLP168 TCU OHD-NW-N MDT CU NE-SE AND W-NW T03390211=
202007191852 METAR KATL 191852Z 18008KT 10SM SCT049 SCT075 33/21 A3008 RMK AO2 SLP172 MDT CU E-SE AND W-N T03280211=
202007191752 METAR KATL 191752Z 00000KT 10SM SCT046 SCT060 33/21 A3010 RMK AO2 SLP180 MDT CU S-NW T03280211 10339 20250 56013=
202007191652 METAR KATL 191652Z 34003KT 10SM SCT042 SCT055 32/22 A3011 RMK AO2 SLP185 T03220217=
202007191552 METAR KATL 191552Z 27004KT 10SM FEW040 SCT150 SCT250 32/22 A3013 RMK AO2 SLP189 T03170217=
202007191452 METAR KATL 191452Z 26006KT 10SM FEW038 SCT150 SCT250 31/22 A3014 RMK AO2 SLP195 T03060217 51006=
202007191352 METAR KATL 191352Z 21003KT 10SM FEW150 SCT250 29/21 A3014 RMK AO2 SLP194 T02890211=
202007191252 METAR KATL 191252Z 16003KT 10SM FEW250 27/22 A3013 RMK AO2 SLP192 T02720217=
202007191152 METAR KATL 191152Z 00000KT 10SM FEW250 25/21 A3012 RMK AO2 SLP188 T02500211 10267 20239 51014=
202007191052 METAR KATL 191052Z 00000KT 10SM FEW100 FEW250 24/21 A3011 RMK AO2 SLP184 T02390211=
202007190952 METAR KATL 190952Z 14004KT 10SM FEW100 FEW200 24/21 A3010 RMK AO2 SLP181 T02390211=
202007190852 METAR KATL 190852Z 00000KT 10SM FEW150 FEW250 26/21 A3008 RMK AO2 SLP172 T02560206 55007=
202007190752 METAR KATL 190752Z 00000KT 10SM FEW150 FEW250 26/21 A3007 RMK AO2 SLP170 T02560206=
202007190652 METAR KATL 190652Z 00000KT 10SM FEW150 SCT250 26/21 A3008 RMK AO2 SLP174 T02560206=
202007190552 METAR KATL 190552Z 00000KT 10SM FEW150 SCT250 26/20 A3010 RMK AO2 SLP180 T02610200 10306 20256 58010=
202007190452 METAR KATL 190452Z 20004KT 10SM SCT140 BKN250 26/20 A3011 RMK AO2 SLP184 T02560200 403500250=
202007190352 METAR KATL 190352Z 15006KT 10SM FEW050 FEW090 SCT150 BKN250 27/21 A3013 RMK AO2 SLP189 T02670206=
202007190252 METAR KATL 190252Z 27004KT 10SM FEW050 SCT090 SCT140 BKN250 27/22 A3013 RMK AO2 SLP190 CB DSNT E-SE T02720217 53008=
202007190152 METAR KATL 190152Z 00000KT 10SM FEW050 BKN090 BKN120 BKN250 29/20 A3013 RMK AO2 SLP188 CB DSNT NE T02890200=
202007190052 METAR KATL 190052Z 12003KT 10SM FEW050 SCT100 BKN150 BKN250 29/19 A3010 RMK AO2 SLP182 CB DSNT S-SW T02940194=
202007182352 METAR KATL 182352Z VRB04KT 10SM FEW050 SCT100 SCT140 BKN250 31/20 A3011 RMK AO2 LTG DSNT E SLP183 CB DSNT E-SE & SW TCU DSNT NE T03060200 10350 20278 53009=
202007182252 METAR KATL 182252Z 36011KT 10SM FEW050 FEW075 SCT140 BKN250 30/19 A3009 RMK AO2 LTG DSNT E-SW SLP177 CB OHD-E-SE & N & SW T03000194=
202007182211 SPECI KATL 182211Z 32011KT 10SM SCT050 SCT075 SCT100 BKN150 BKN250 30/20 A3009 RMK AO2 TSE09 TS DSIPTD CB OHD-W-NW & N & DSNT E TCU DSNT SE-SW T03000200=
202007182152 METAR KATL 182152Z 33014G25KT 10SM TS SCT050CB SCT085 BKN150 BKN250 28/21 A3008 RMK AO2 LTG DSNT N-SE TSB35 SLP176 OCNL LTGICCCCG OHD-W-NW TS OHD-W-NW MOV STNRY CB DSNT W-NE TCU DSNT E-S T02780206=
202007182141 SPECI KATL 182141Z 17007KT 10SM TS SCT050CB SCT085 BKN150 BKN250 29/21 A3010 RMK AO2 LTG DSNT ALQDS TSB35 OCNL LTGICCCCG W-NW TS W-NW MOV STNRY CB DSNT W-NE TCU OHD & DSNT E AND S T02940211=
202007182108 SPECI KATL 182108Z 19009KT 10SM VCTS SCT050CB SCT085 BKN150 BKN250 34/21 A3007 RMK AO2 LTG DSNT NW-NE OCNL LTGICCG VC NW TS VC NW MOV STNRY CB DSNT W-NE TCU OHD & DSNT E AND S T03390206=
202007182052 METAR KATL 182052Z 19009KT 10SM TS SCT050CB SCT085 BKN150 34/21 A3008 RMK AO2 LTG DSNT W-NE TSB48 SLP173 OCNL LTGICCG NW-N TS NW-N MOV W CB DSNT W-NE TCU DSNT E AND S T03390211 58023=
202007181952 METAR KATL 181952Z 19006KT 10SM SCT055TCU BKN075 BKN150 34/21 A3011 RMK AO2 SLP183 TCU OHD-NE MDT CU ALQDS TCU DSNT W-NW T03390211=
202007181852 METAR KATL 181852Z 14004KT 10SM SCT055TCU SCT075 BKN150 34/21 A3012 RMK AO2 LTG DSNT SE SLP187 TCU S MDT CU ALQDS CB DSNT SE T03390206=
202007181752 METAR KATL 181752Z 17006KT 10SM SCT047 SCT070 BKN150 33/22 A3015 RMK AO2 SLP197 MDT CU ALQDS TCU DSNT S AND W T03330217 10339 20261 58012=
202007181652 METAR KATL 181652Z 00000KT 10SM SCT044 SCT150 32/21 A3017 RMK AO2 SLP203 T03170206=
202007181552 METAR KATL 181552Z VRB05KT 10SM FEW039 SCT150 SCT250 32/21 A3019 RMK AO2 SLP210 T03220211=
202007181452 METAR KATL 181452Z 28004KT 10SM FEW036 SCT150 SCT250 31/22 A3019 RMK AO2 SLP209 T03110217 51012=
202007181352 METAR KATL 181352Z VRB04KT 10SM FEW150 FEW200 SCT250 30/22 A3018 RMK AO2 SLP209 T03000217=
202007181252 METAR KATL 181252Z 27004KT 10SM FEW150 FEW200 SCT250 28/22 A3017 RMK AO2 SLP204 T02780217=
202007181152 METAR KATL 181152Z 30005KT 10SM FEW050 FEW200 FEW250 26/22 A3015 RMK AO2 SLP196 T02610217 10272 20250 53006=
202007181052 METAR KATL 181052Z 23003KT 10SM SCT100 SCT200 26/21 A3014 RMK AO2 SLP194 T02560206=
202007180952 METAR KATL 180952Z 00000KT 10SM FEW080 FEW200 26/21 A3013 RMK AO2 SLP190 T02560206=
202007180852 METAR KATL 180852Z 21003KT 10SM CLR 26/21 A3013 RMK AO2 SLP190 T02560211 56005=
202007180752 METAR KATL 180752Z 00000KT 10SM FEW100 FEW200 26/21 A3013 RMK AO2 SLP191 T02560211=
202007180652 METAR KATL 180652Z 18003KT 10SM FEW100 FEW250 27/21 A3014 RMK AO2 SLP193 T02670211=
202007180552 METAR KATL 180552Z 27003KT 10SM FEW080 FEW250 27/21 A3015 RMK AO2 SLP195 T02720206 10322 20272 58009=
202007180452 METAR KATL 180452Z 22004KT 10SM FEW080 FEW250 28/21 A3016 RMK AO2 SLP202 T02780206 403390244=
202007180352 METAR KATL 180352Z 00000KT 10SM FEW045 FEW250 29/21 A3018 RMK AO2 SLP206 T02890211=
202007180252 METAR KATL 180252Z 21004KT 10SM FEW045 FEW250 29/21 A3017 RMK AO2 SLP204 LTG DSNT NW T02940211 53019=
202007180152 METAR KATL 180152Z 26003KT 10SM FEW050 FEW250 30/21 A3016 RMK AO2 SLP199 TCU DSNT NW-N T03000206=
202007180052 METAR KATL 180052Z 20005KT 10SM FEW050 FEW250 31/21 A3012 RMK AO2 SLP189 CB DSNT NW-N T03060206=
202007172352 METAR KATL 172352Z 20005KT 10SM FEW050 FEW250 32/21 A3011 RMK AO2 LTG DSNT N AND NE SLP185 CB DSNT N-NE TCU DSNT NW T03220206 10339 20322 55006=
202007172252 METAR KATL 172252Z 22005KT 10SM FEW050 FEW250 33/21 A3011 RMK AO2 SLP185 TCU DSNT N-NE T03280211=
202007172152 METAR KATL 172152Z 18007KT 10SM SCT055TCU 34/21 A3012 RMK AO2 SLP187 TCU OHD MDT CU SE-S NW T03390211=
202007172052 METAR KATL 172052Z 22005KT 10SM FEW001 FEW055 FEW250 34/19 A3013 RMK AO2 SLP191 FU FEW001 FU PLUME W T03390194 56025=
202007172029 SPECI KATL 172029Z 20005KT 10SM FEW001 FEW055 FEW080 SCT250 33/19 A3014 RMK AO2 FU FEW001 FU PLUME W T03330194=
202007171952 METAR KATL 171952Z 15005KT 10SM FEW055 FEW080 SCT250 34/20 A3016 RMK AO2 SLP199 TCU DSNT SE T03390200=
202007171852 METAR KATL 171852Z 19006KT 10SM FEW055TCU SCT075 SCT250 34/21 A3018 RMK AO2 SLP206 TCU W NW T03390211=
202007171752 METAR KATL 171752Z 19006KT 10SM FEW055 SCT070 SCT250 32/20 A3021 RMK AO2 SLP218 TCU DSNT ALQDS T03220200 10333 20256 58009=
202007171652 METAR KATL 171652Z 13007KT 10SM SCT046TCU SCT060 SCT250 33/21 A3023 RMK AO2 SLP224 TCU N S DSNT ALQDS T03280211=
202007171552 METAR KATL 171552Z 06006KT 10SM FEW034 SCT250 32/21 A3024 RMK AO2 SLP226 TCU DSNT W-N-NE T03220206=
202007171452 METAR KATL 171452Z 19005KT 10SM FEW026 FEW250 30/22 A3024 RMK AO2 SLP227 T03000222 50005=
202007171352 METAR KATL 171352Z 19006KT 10SM FEW110 SCT250 28/22 A3024 RMK AO2 SLP229 T02830217=
202007171252 METAR KATL 171252Z 22006KT 10SM FEW250 27/21 A3024 RMK AO2 SLP228 T02670211=
202007171152 METAR KATL 171152Z 20003KT 10SM CLR 26/21 A3022 RMK AO2 SLP223 T02560211 10261 20244 51019=
202007171052 METAR KATL 171052Z 00000KT 10SM FEW250 24/21 A3021 RMK AO2 SLP220 T02440211=
202007170952 METAR KATL 170952Z 12003KT 10SM FEW250 25/22 A3018 RMK AO2 SLP208 T02500217=
202007170852 METAR KATL 170852Z 09005KT 10SM FEW250 25/22 A3017 RMK AO2 SLP203 T02500217 53001=
202007170752 METAR KATL 170752Z 00000KT 10SM FEW250 25/21 A3015 RMK AO2 SLP198 T02500211=
202007170652 METAR KATL 170652Z 00000KT 10SM FEW250 25/21 A3015 RMK AO2 SLP198 T02500211=
202007170552 METAR KATL 170552Z 14003KT 10SM FEW250 26/21 A3016 RMK AO2 SLP202 T02560211 10294 20256 58003=
202007170452 METAR KATL 170452Z 00000KT 10SM SCT250 27/21 A3017 RMK AO2 SLP206 T02670211 403330228=
202007170352 METAR KATL 170352Z 16004KT 10SM FEW150 SCT250 27/21 A3017 RMK AO2 SLP204 T02720211=
202007170252 METAR KATL 170252Z 00000KT 10SM FEW140 SCT250 28/21 A3017 RMK AO2 SLP205 T02830211 53009=
202007170152 METAR KATL 170152Z 00000KT 10SM SCT130 SCT250 28/21 A3016 RMK AO2 SLP201 T02830211=
202007170052 METAR KATL 170052Z 15003KT 10SM FEW120 FEW200 BKN250 29/21 A3015 RMK AO2 SLP199 T02890206=
202007162352 METAR KATL 162352Z 13005KT 10SM FEW040 FEW120 SCT200 BKN250 29/21 A3014 RMK AO2 SLP196 CB DSNT N SW T02940211 10333 20294 53004=
202007162252 METAR KATL 162252Z 09010KT 10SM FEW045CB SCT070 BKN150 BKN250 30/22 A3014 RMK AO2 LTG DSNT N AND SE SLP194 CB NW DSNT N SE MOV NW TCU OHD-NW T03000217=
202007162152 METAR KATL 162152Z 21008KT 10SM FEW045TCU SCT120 SCT200 SCT250 33/21 A3012 RMK AO2 LTG DSNT E AND SE SLP188 CB DSNT NE-SE TCU OHD-SE T03280206=
202007162052 METAR KATL 162052Z 19005KT 10SM FEW050TCU SCT120 SCT200 SCT250 33/21 A3013 RMK AO2 SLP191 CB DSNT E-SE SW TCU E-SE DSNT NE-SE-SW T03280206 56019=
202007161952 METAR KATL 161952Z 18008KT 10SM FEW048 FEW120 SCT200 SCT250 33/21 A3015 RMK AO2 SLP197 CB DSNT NE-SE TCU DSNT N-E-SE T03280206=
202007161852 METAR KATL 161852Z 19007KT 10SM FEW044 FEW120 SCT200 SCT250 32/21 A3016 RMK AO2 SLP202 CB DSNT NE-E SE TCU DSNT NE T03220211=
202007161752 METAR KATL 161752Z 20008KT 10SM SCT038TCU SCT110 SCT200 SCT250 31/21 A3019 RMK AO2 SLP212 CB DSNT NE TCU SW DSNT SE NW MDT CU ALQDS T03110211 10317 20239 50001=
202007161652 METAR KATL 161652Z 21006KT 10SM SCT032 SCT100 SCT200 SCT250 30/21 A3020 RMK AO2 SLP215 CB DSNT NE TCU DSNT N W NW T03000211=
202007161552 METAR KATL 161552Z 19005KT 10SM FEW024 FEW200 SCT250 29/22 A3020 RMK AO2 SLP214 TCU DSNT N T02940217=
202007161452 METAR KATL 161452Z 20005KT 10SM FEW020 SCT250 28/22 A3019 RMK AO2 SLP211 T02780222 51017=
202007161352 METAR KATL 161352Z 00000KT 10SM SCT016 SCT250 27/22 A3018 RMK AO2 SLP209 T02670222=
202007161252 METAR KATL 161252Z 00000KT 10SM FEW010 SCT250 26/22 A3015 RMK AO2 SLP199 T02560217=
202007161152 METAR KATL 161152Z 33004KT 9SM FEW004 SCT250 24/21 A3014 RMK AO2 SLP194 70021 T02390211 10239 20228 53010=
202007161052 METAR KATL 161052Z 29003KT 6SM BR FEW006 SCT250 23/21 A3012 RMK AO2 SLP187 T02280211=
202007160952 METAR KATL 160952Z 00000KT 7SM FEW005 FEW250 23/21 A3010 RMK AO2 SLP182 VIS LWR S-SW T02280211=
202007160852 METAR KATL 160852Z 14004KT 10SM SCT250 23/21 A3010 RMK AO2 SLP183 T02280211 55003=
202007160752 METAR KATL 160752Z 23003KT 10SM SCT250 23/21 A3010 RMK AO2 SLP182 T02280211 $=
202007160652 METAR KATL 160652Z 00000KT 10SM SCT100 BKN250 23/21 A3010 RMK AO2 SLP183 T02330211 $=
202007160552 METAR KATL 160552Z 17005KT 9SM SCT100 BKN250 23/22 A3011 RMK AO2 SLP185 60020 T02330217 10289 20233 51006 $=
202007160452 METAR KATL 160452Z 00000KT 10SM FEW200 SCT250 24/22 A3011 RMK AO2 SLP183 T02390217 403280239 $=
202007160352 METAR KATL 160352Z 00000KT 10SM FEW150 SCT200 BKN250 24/22 A3011 RMK AO2 SLP183 T02390222 $=
202007160252 METAR KATL 160252Z 00000KT 10SM SCT150 SCT200 BKN250 24/22 A3009 RMK AO2 SLP178 60020 T02390217 53003 $=
202007160152 METAR KATL 160152Z 34003KT 10SM FEW100 BKN200 BKN250 24/22 A3007 RMK AO2 RAE02 TSE07 SLP172 P0000 T02440222 $=
202007160107 SPECI KATL 160107Z 00000KT 10SM FEW025 SCT080 BKN150 BKN200 24/22 A3008 RMK AO2 RAE02 TSE07 LTG DSNT NW TS DSIPTD P0000 T02440217 $=
202007160052 METAR KATL 160052Z 31005KT 9SM -TSRA FEW025CB SCT050 BKN080 BKN200 25/22 A3007 RMK AO2 RAB05 SLP172 OCNL LTGICCG NW-NE TS NW-NE MOV NW P0020 T02500217 $=
202007160028 SPECI KATL 160028Z VRB03KT 4SM TSRA FEW010 SCT030CB BKN050 OVC200 24/20 A3009 RMK AO2 RAB05 OCNL LTGICCG OHD-ALQDS TS OHD-ALQDS MOV NW P0009 T02390200 $=
202007160024 SPECI KATL 160024Z 15007KT 2 1/2SM +TSRA FEW010 SCT030CB BKN050 OVC200 24/21 A3010 RMK AO2 RAB05 OCNL LTGICCG OHD-ALQDS TS OHD-ALQDS MOV NW P0004 T02440206 $=
202007152352 METAR KATL 152352Z 12008KT 10SM TS FEW030CB SCT050 BKN080 BKN200 29/22 A3008 RMK AO2 SLP175 FRQ LTGICCGCA NW-NE-SE-SW TS NW-NE-SE-SW MOV NW 60001 T02890222 10322 20278 53011 $=
202007152252 METAR KATL 152252Z 19005KT 10SM TS FEW035CB SCT100 BKN200 BKN250 32/21 A3005 RMK AO2 TSB52 SLP162 OCNL LTGICCG NE-SE TS SE-NE MOV NW CB DSNT S T03170211=
202007152152 METAR KATL 152152Z 19004KT 10SM FEW035 SCT150 BKN200 BKN250 30/22 A3004 RMK AO2 SLP160 TSE26 LTG DSNT SW CB DSNT NE SW TCU DSNT E T03000222=
202007152127 SPECI KATL 152127Z 20004KT 10SM FEW035CB SCT100 BKN200 BKN250 28/23 A3005 RMK AO2 TSE26 LTG DSNT NW-N TS DSIPTD CB SE DSNT NE NW-N T02780228=
202007152052 METAR KATL 152052Z 17006KT 10SM VCTS FEW035CB SCT080 BKN250 29/22 A3005 RMK AO2 LTG DSNT NE-S RAE1958 SLP163 CB DSNT ALQDS TSB25 OCNL LTGCG S-SW VCTS S-SW MOV NW P0000 60001 T02940222 58015=
202007152031 SPECI KATL 152031Z 17007KT 10SM VCTS SCT040CB BKN080 BKN250 31/22 A3005 RMK AO2 LTG DSNT ALQDS RAE1958 CB DSNT ALQDS TSB25 OCNL LTGCG SE-SW VCTS SE-SW MOV NW P0000 T03060217=
202007151952 METAR KATL 151952Z 12006KT 10SM -RA SCT036TCU BKN080 BKN250 30/23 A3006 RMK AO2 LTG DSNT N AND SE RAE06B40 SLP168 CB DSNT N & SE-S TCU ALQDS P0000 T03000228=
202007151852 METAR KATL 151852Z 09006KT 7SM -RA SCT028TCU BKN047 BKN100 28/22 A3008 RMK AO2 LTG DSNT N RAB31 SLP176 CB DSNT N TCU ALQDS VSBY LWR SW P0001 T02830222=
202007151752 METAR KATL 151752Z 32006KT 10SM BKN044TCU BKN120 32/21 A3009 RMK AO2 SLP178 TSB01E23 DSPTD TCU ALQDS VCSH NW-N T03170211 10328 20272 58006=
202007151730 SPECI KATL 151730Z 28005KT 10SM BKN042CB BKN110 30/21 A3009 RMK AO2 TSB01E23 DSPTD CB E & W-NW T03000211=
202007151707 SPECI KATL 151707Z VRB04KT 10SM VCTS BKN045CB 32/21 A3010 RMK AO2 TSB01 OCNL LTGCG SE VCTS SE MOV N T03220211=
202007151652 METAR KATL 151652Z VRB03KT 10SM BKN045TCU 32/22 A3010 RMK AO2 SLP179 TCU ALQDS VCSH N & SE & W T03220217=
202007151552 METAR KATL 151552Z 16004KT 10SM FEW036 SCT060 BKN090 BKN250 32/21 A3011 RMK AO2 SLP184 T03170211=
202007151452 METAR KATL 151452Z 07006KT 10SM SCT090 SCT250 31/21 A3011 RMK AO2 SLP184 T03110206 51013=
202007151352 METAR KATL 151352Z 08006KT 10SM FEW060 BKN090 29/20 A3011 RMK AO2 SLP183 T02940200=
202007151252 METAR KATL 151252Z 00000KT 10SM SCT060 SCT070 BKN180 BKN250 28/21 A3010 RMK AO2 SLP178 MDT CU DSNT S-SW T02830206=
202007151152 METAR KATL 151152Z 05003KT 10SM SCT060 BKN080 BKN100 BKN250 27/20 A3007 RMK AO2 SLP171 TCU DSNT SW AND NW SHRA DSNT W-NW T02720200 10272 20250 53014=
202007151052 METAR KATL 151052Z 00000KT 10SM BKN060 BKN080 26/21 A3006 RMK AO2 SLP166 T02610206=
202007150952 METAR KATL 150952Z 00000KT 10SM SCT060 BKN080 26/21 A3004 RMK AO2 SLP161 T02560206=
202007150852 METAR KATL 150852Z 00000KT 10SM SCT080 26/20 A3003 RMK AO2 SLP156 T02560200 55003=
202007150752 METAR KATL 150752Z 00000KT 10SM CLR 25/21 A3002 RMK AO2 SLP155 T02500206=
202007150652 METAR KATL 150652Z 00000KT 10SM SCT080 26/20 A3003 RMK AO2 SLP157 T02560200=
202007150552 METAR KATL 150552Z 00000KT 10SM FEW075 26/20 A3004 RMK AO2 SLP160 T02610200 10311 20261 58005=
202007150452 METAR KATL 150452Z 18003KT 10SM SCT085 27/20 A3005 RMK AO2 SLP163 T02670200 403390222=
202007150352 METAR KATL 150352Z 00000KT 10SM FEW085 28/19 A3006 RMK AO2 SLP165 T02780194=
202007150252 METAR KATL 150252Z 24004KT 10SM FEW060 SCT085 28/19 A3006 RMK AO2 SLP165 T02830194 53013=
202007150152 METAR KATL 150152Z 22003KT 10SM FEW060 28/19 A3004 RMK AO2 SLP159 T02830194=
202007150052 METAR KATL 150052Z 26003KT 10SM FEW060 30/18 A3003 RMK AO2 SLP156 T03000183=
202007142352 METAR KATL 142352Z 27005KT 10SM FEW060 31/18 A3002 RMK AO2 SLP153 T03110183 10339 20311 53004=
202007142252 METAR KATL 142252Z AUTO 28007KT 10SM FEW060TCU FEW090 32/19 A3000 RMK AO2 SLP149 TCU NE-E T03220189=
202007142152 METAR KATL 142152Z 25009KT 10SM SCT060TCU SCT090 33/18 A3001 RMK AO2 SLP150 TCU OHD-NE T03280183=
202007142052 SPECI KATL 142052Z 19007KT 10SM SCT060 SCT100 SCT200 33/18 A3001 RMK AO2 SLP148 TCU DSNT SW NW-N T03280183 56007=
202007142052 METAR KATL 142052Z 19007KT 10SM SCT060 SCT100 SCT200 33/18 A3001 RMK AO2 SLP148 TCU DSNT SW NW-N T03280183 56007=
202007141952 METAR KATL 141952Z 30005KT 10SM FEW060 SCT200 32/18 A3001 RMK AO2 SLP149 T03220183 $=
202007141852 METAR KATL 141852Z 25006KT 10SM SCT060 SCT200 33/18 A3002 RMK AO2 SLP153 TCU DSNT W NW T03280183=
202007141752 METAR KATL 141752Z 24008KT 10SM FEW055 SCT200 32/17 A3003 RMK AO2 SLP156 TCU DSNT W NW T03220172 10333 20244 58005=
202007141652 METAR KATL 141652Z 30007KT 10SM FEW046TCU SCT075 SCT120 SCT200 32/17 A3005 RMK AO2 SLP162 TCU S-SW DSNT W-NW T03220172=
202007141552 METAR KATL 141552Z 31008KT 10SM FEW038 FEW070 SCT110 SCT200 31/19 A3005 RMK AO2 SLP164 TCU DSNT N-NE E S W ACC DSNT SE T03110189=
202007141452 METAR KATL 141452Z 26006KT 10SM FEW036 FEW070 FEW110 SCT200 30/20 A3004 RMK AO2 SLP161 ACC DSNT SE-S T03000200 50009 $=
202007141352 METAR KATL 141352Z 27005KT 10SM FEW070 FEW110 SCT200 29/21 A3004 RMK AO2 SLP162 ACC SE-SW T02890206 $=
202007141252 METAR KATL 141252Z 31004KT 10SM FEW075 FEW200 27/20 A3004 RMK AO2 SLP159 ACC SE-S DSNT N T02670200=
202007141152 METAR KATL 141152Z 31003KT 10SM FEW070 FEW200 24/19 A3001 RMK AO2 SLP151 T02440194 10250 20222 53018=
202007141052 METAR KATL 141052Z 00000KT 10SM FEW070 FEW200 22/19 A2999 RMK AO2 SLP144 T02220194=
202007140952 METAR KATL 140952Z 27003KT 10SM CLR 22/19 A2998 RMK AO2 SLP140 T02220194=
202007140852 METAR KATL 140852Z 00000KT 10SM FEW250 24/19 A2996 RMK AO2 SLP133 T02390194 56005=
202007140752 METAR KATL 140752Z 00000KT 10SM CLR 24/19 A2996 RMK AO2 SLP132 T02390194=
202007140652 METAR KATL 140652Z 29005KT 10SM CLR 24/19 A2997 RMK AO2 SLP136 T02440194=
202007140552 METAR KATL 140552Z 30005KT 10SM CLR 25/20 A2997 RMK AO2 SLP138 T02500200 10306 20244 50004=
202007140452 METAR KATL 140452Z 25003KT 10SM FEW250 25/20 A2998 RMK AO2 SLP139 T02500200 403220200=
202007140352 METAR KATL 140352Z 30005KT 10SM FEW250 26/20 A2997 RMK AO2 SLP138 T02560200=
202007140252 METAR KATL 140252Z 29007KT 10SM FEW050 SCT250 26/19 A2996 RMK AO2 SLP135 T02610194 53013=
202007140152 METAR KATL 140152Z 28007KT 10SM FEW045 SCT250 27/19 A2994 RMK AO2 SLP128 T02720194=
202007140052 METAR KATL 140052Z 26005KT 10SM FEW045 SCT250 28/19 A2993 RMK AO2 SLP125 T02830189=
202007132352 METAR KATL 132352Z 29009KT 10SM FEW045 FEW250 31/18 A2992 RMK AO2 SLP121 T03060183 10322 20294 55004=
202007132252 METAR KATL 132252Z 29007KT 10SM FEW045 FEW250 31/19 A2992 RMK AO2 SLP122 T03110194=
202007132152 METAR KATL 132152Z 27009KT 10SM FEW045 31/20 A2992 RMK AO2 SLP122 MDT CU N-NE T03110200=
202007132052 METAR KATL 132052Z 27012KT 10SM FEW045 31/19 A2993 RMK AO2 SLP125 MDT CU N-NE T03110194 58004=
202007131952 METAR KATL 131952Z 30011G16KT 10SM FEW037 SCT055 32/19 A2995 RMK AO2 SLP129 TCU DSNT NW-NE-E T03170194=
202007131852 METAR KATL 131852Z 32014G19KT 10SM SCT036 31/21 A2995 RMK AO2 SLP131 MDT CU NW-NE T03110206=
202007131752 METAR KATL 131752Z 30010KT 10SM SCT034 31/21 A2995 RMK AO2 SLP129 T03060211 10306 20206 50005=
202007131652 METAR KATL 131652Z 29011KT 10SM BKN032 30/21 A2995 RMK AO2 SLP132 T03000211=
202007131552 METAR KATL 131552Z 30007KT 10SM SCT020 28/21 A2995 RMK AO2 SLP131 T02780211=
202007131452 METAR KATL 131452Z 31007KT 10SM FEW014 26/21 A2993 RMK AO2 SLP126 T02610206 50009=
202007131352 METAR KATL 131352Z 27008KT 10SM FEW008 24/21 A2993 RMK AO2 SLP126 T02440206=
202007131311 SPECI KATL 131311Z 27007KT 9SM SCT006 22/20 A2993 RMK AO2 T02220200=
202007131252 METAR KATL 131252Z 29007KT 3SM BKN004 22/19 A2993 RMK AO2 SFC VIS 7 SLP126 CIG 003V006 BKN004 V SCT TWRINC T02170194=
202007131243 SPECI KATL 131243Z 30006KT 3SM BR BKN004 22/19 A2993 RMK AO2 SFC VIS 6 CIG 003V006 TWRINC T02170194=
202007131225 SPECI KATL 131225Z 31006KT 2SM BR BKN004 21/19 A2992 RMK AO2 SFC VIS 6 CIG 003V005 TWRINC T02110194=
202007131152 METAR KATL 131152Z 31005KT 1/2SM R09R/P6000FT BR OVC003 21/19 A2991 RMK AO2 SFC VIS 4 SLP117 VIS SW-NW2 TWRINC T02110194 10217 20200 53009=
202007131052 METAR KATL 131052Z 27005KT 1/2SM R09R/P6000FT BR OVC002 20/19 A2989 RMK AO2 SFC VIS 2 1/2 SLP112 VIS SW-NW1 1/2 TWRINC T02000189=
202007131032 SPECI KATL 131032Z 27004KT 1/2SM R09R/P6000FT BR BKN003 20/19 A2988 RMK AO2 SFC VIS 5 VIS SW-NW2 TWRINC T02000189=
202007130952 METAR KATL 130952Z 28005KT 10SM SCT004 SCT200 20/18 A2988 RMK AO2 SLP108 T02000183=
202007130948 SPECI KATL 130948Z 28005KT 10SM FEW004 20/18 A2988 RMK AO2=
202007130852 METAR KATL 130852Z 24004KT 10SM FEW150 SCT200 SCT250 21/19 A2987 RMK AO2 SLP103 T02060189 58003=
202007130752 METAR KATL 130752Z 28003KT 10SM BKN150 BKN200 BKN250 21/19 A2987 RMK AO2 SLP104 T02110189=
202007130652 METAR KATL 130652Z 27005KT 10SM SCT200 SCT250 21/19 A2988 RMK AO2 SLP106 T02110189=
202007130552 METAR KATL 130552Z 28004KT 10SM FEW200 SCT250 22/19 A2988 RMK AO2 SLP106 T02170189 10267 20217 50001=
202007130452 METAR KATL 130452Z 30006KT 10SM FEW200 SCT250 23/19 A2988 RMK AO2 SLP108 T02280194 403170206=
202007130352 METAR KATL 130352Z 30008KT 10SM FEW200 SCT250 23/19 A2988 RMK AO2 SLP106 T02330194=
202007130252 METAR KATL 130252Z 30004KT 10SM FEW070 SCT200 BKN250 24/21 A2987 RMK AO2 SLP105 T02390211 51018=
202007130152 METAR KATL 130152Z 31004KT 10SM SCT070 BKN200 BKN250 25/21 A2987 RMK AO2 SLP104 T02500211=
202007130052 METAR KATL 130052Z 32007KT 10SM FEW040 FEW100 BKN200 BKN250 26/22 A2985 RMK AO2 SLP097 T02610217=
202007122352 METAR KATL 122352Z 27004KT 10SM FEW050 FEW100 BKN200 BKN240 27/21 A2982 RMK AO2 SLP089 60000 T02670211 10317 20267 55013=
202007122252 METAR KATL 122252Z 25004KT 10SM FEW050 FEW070 SCT100 BKN140 BKN200 27/21 A2980 RMK AO2 RAE04 SLP081 P0000 T02670211=
202007122152 METAR KATL 122152Z 19008KT 10SM -RA FEW050 SCT070 BKN130 BKN250 27/21 A2981 RMK AO2 RAB48 PRESFR SLP084 P0000 T02720206=
202007122052 METAR KATL 122052Z 29008KT 10SM FEW042 SCT090 BKN200 29/20 A2986 RMK AO2 SLP100 T02940200 56016=
202007121952 METAR KATL 121952Z 33006KT 10SM FEW043 SCT160 BKN250 31/20 A2987 RMK AO2 SLP104 T03060200=
202007121852 METAR KATL 121852Z 31009KT 10SM FEW044 BKN170 BKN250 31/19 A2989 RMK AO2 SLP109 T03110194=
202007121752 METAR KATL 121752Z 34010KT 10SM FEW045 BKN180 BKN250 32/19 A2991 RMK AO2 SLP115 T03170194 10317 20217 58008=
202007121652 METAR KATL 121652Z 32008KT 10SM FEW042 FEW150 BKN250 31/19 A2993 RMK AO2 SLP123 T03110189=
202007121552 METAR KATL 121552Z 34008KT 10SM FEW150 FEW200 BKN250 30/19 A2993 RMK AO2 SLP124 T03000189=
202007121452 METAR KATL 121452Z 33007KT 10SM FEW200 BKN250 28/19 A2993 RMK AO2 SLP124 T02830189 51003=
202007121352 METAR KATL 121352Z 30005KT 10SM FEW200 BKN250 26/18 A2993 RMK AO2 SLP124 T02560178=
202007121252 METAR KATL 121252Z 31007KT 10SM FEW200 BKN250 24/17 A2994 RMK AO2 SLP128 T02390172=
202007121152 METAR KATL 121152Z 29005KT 10SM FEW200 BKN250 22/17 A2993 RMK AO2 SLP122 T02170172 10239 20206 53005=
202007121052 METAR KATL 121052Z 00000KT 10SM FEW200 SCT250 21/17 A2991 RMK AO2 SLP118 T02110167=
202007120952 METAR KATL 120952Z 31004KT 10SM SCT250 22/17 A2991 RMK AO2 SLP119 T02170167=
202007120852 METAR KATL 120852Z 31006KT 10SM CLR 22/17 A2991 RMK AO2 SLP117 T02220167 55008=
202007120752 METAR KATL 120752Z 31007KT 10SM CLR 23/17 A2991 RMK AO2 SLP116 T02280167=
202007120652 METAR KATL 120652Z VRB04KT 10SM CLR 24/17 A2991 RMK AO2 SLP117 T02390167=
202007120552 METAR KATL 120552Z 32005KT 10SM CLR 24/17 A2994 RMK AO2 SLP125 T02390167 10306 20239 58003=
202007120452 METAR KATL 120452Z 31006KT 10SM CLR 24/17 A2995 RMK AO2 SLP128 T02440167 403330228=
202007120352 METAR KATL 120352Z 32006KT 10SM CLR 26/17 A2995 RMK AO2 SLP129 T02560167=
202007120252 METAR KATL 120252Z 32007KT 290V360 10SM CLR 27/17 A2995 RMK AO2 SLP128 T02670167 53010=
202007120152 METAR KATL 120152Z 32006KT 10SM CLR 28/17 A2994 RMK AO2 SLP125 T02780167=
202007120052 METAR KATL 120052Z 30008KT 10SM FEW250 29/16 A2992 RMK AO2 SLP120 T02890161=
202007112352 METAR KATL 112352Z 32010KT 10SM FEW065 31/16 A2992 RMK AO2 SLP118 T03110156 10333 20311 53002=
202007112252 METAR KATL 112252Z 32010G20KT 10SM CLR 32/16 A2990 RMK AO2 SLP115 T03170161=
202007112152 METAR KATL 112152Z 34011G21KT 10SM CLR 32/16 A2991 RMK AO2 SLP116 T03220156=
202007112052 METAR KATL 112052Z 33016G20KT 10SM CLR 33/16 A2991 RMK AO2 SLP116 T03280161 56013=
202007111952 METAR KATL 111952Z 35015G21KT 10SM CLR 33/16 A2991 RMK AO2 SLP117 T03280156=
202007111852 METAR KATL 111852Z 32015G23KT 10SM FEW250 32/15 A2993 RMK AO2 SLP122 T03220150=
202007111752 METAR KATL 111752Z 32010KT 10SM FEW250 32/18 A2995 RMK AO2 SLP129 T03170178 10317 20239 58007=
202007111652 METAR KATL 111652Z 34012G22KT 10SM FEW250 31/17 A2996 RMK AO2 SLP133 T03060172=
202007111552 METAR KATL 111552Z 32012KT 10SM FEW042 FEW250 29/17 A2997 RMK AO2 SLP138 T02940172=
202007111452 METAR KATL 111452Z 33013G23KT 10SM FEW035 FEW250 29/18 A2997 RMK AO2 SLP137 T02890178 50003=
202007111352 METAR KATL 111352Z 33011KT 10SM FEW250 27/19 A2997 RMK AO2 SLP138 T02720189=
202007111252 METAR KATL 111252Z 32008KT 10SM FEW250 26/19 A2997 RMK AO2 SLP136 T02560189=
202007111152 METAR KATL 111152Z 31011KT 10SM FEW250 24/19 A2996 RMK AO2 SLP133 70001 T02390194 10261 20228 52018=
202007111052 METAR KATL 111052Z 31012KT 10SM FEW250 23/19 A2994 RMK AO2 SLP128 T02280194=
202007110952 METAR KATL 110952Z 31009KT 10SM CLR 23/19 A2992 RMK AO2 SLP121 T02330194=
202007110852 METAR KATL 110852Z 33009KT 10SM CLR 24/20 A2991 RMK AO2 SLP115 T02440200 58008=
202007110752 METAR KATL 110752Z 32009KT 10SM CLR 25/21 A2992 RMK AO2 SLP118 T02500211=
202007110652 METAR KATL 110652Z 31010KT 10SM CLR 26/22 A2993 RMK AO2 SLP121 T02560217=
202007110552 METAR KATL 110552Z 30010KT 10SM FEW250 26/22 A2993 RMK AO2 SLP122 T02610217 10317 20261 50000=
202007110452 METAR KATL 110452Z 30009KT 10SM FEW250 26/22 A2994 RMK AO2 SLP125 T02610217 403330222=
202007110352 METAR KATL 110352Z 30007KT 10SM FEW250 27/22 A2993 RMK AO2 SLP124 T02720217=
202007110252 METAR KATL 110252Z 30007KT 10SM FEW250 28/22 A2993 RMK AO2 SLP123 T02830217 53004=
202007110152 METAR KATL 110152Z 29007KT 10SM FEW045 FEW250 28/22 A2993 RMK AO2 SLP121 T02830222=
202007110052 METAR KATL 110052Z 29007KT 10SM FEW045 FEW250 29/22 A2992 RMK AO2 SLP118 T02940217=
202007102352 METAR KATL 102352Z 30011KT 10SM FEW045 FEW250 32/22 A2992 RMK AO2 SLP119 TCU DSNT E-SE 60001 T03170217 10333 20317 53001=
202007102252 METAR KATL 102252Z 30013KT 10SM SCT045 SCT200 33/22 A2991 RMK AO2 LTG DSNT E SLP114 CB DSNT E-SE MDT CU E-SE NW-N T03280217=
202007102152 METAR KATL 102152Z 28008KT 10SM SCT042TCU SCT080 BKN200 33/22 A2992 RMK AO2 LTG DSNT E SLP119 CB DSNT NE-SE TCU NE-SE-S DSNT SW T03330217=
202007102052 METAR KATL 102052Z 31007KT 10SM SCT042TCU SCT080 SCT120 BKN200 32/23 A2992 RMK AO2 LTG DSNT SE AND S RAB33E51 SLP119 TSE02 TS MOVD SE CB DSNT N-NE SE-S TCU N-E-SE S-SW P0001 60001 T03220233 56007=
202007102004 SPECI KATL 102004Z 26008KT 10SM SCT040TCU SCT080 SCT120 BKN200 33/23 A2992 RMK AO2 TSE02 TS MOVD SE CB DSNT SE-S NW TCU S-W-NW T03330233=
202007101952 METAR KATL 101952Z 28007KT 10SM VCTS SCT040CB SCT075 SCT120 BKN200 33/23 A2992 RMK AO2 SLP121 TSE14B46 OCNL LTGICCG VC S TS VC S MOV SE CB DSNT SE NW TCU NE-E S-W-NW T03280233=
202007101950 SPECI KATL 101950Z 28009G19KT 10SM VCTS SCT040CB SCT075 BKN120 BKN200 33/23 A2992 RMK AO2 TSE14B46 OCNL LTGICCG VC S TS VC S MOV SE CB DSNT SE NW TCU NE-E S-W-NW=
202007101922 SPECI KATL 101922Z 27008KT 10SM SCT040TCU SCT080 SCT110 BKN200 33/22 A2993 RMK AO2 TSE14 TS MOVD SE CB DSNT NE SE NW TCU ALQDS T03280217=
202007101852 METAR KATL 101852Z VRB04KT 10SM TS SCT040CB SCT075 SCT110 BKN200 33/23 A2994 RMK AO2 LTG DSNT S TSB50 SLP126 OCNL LTGICCG SE-S TS SE-S MOV SE CB DSNT S TCU SE DSNT ALQDS T03280228=
202007101752 METAR KATL 101752Z 26006KT 10SM SCT038TCU SCT080 BKN200 32/22 A2995 RMK AO2 SLP131 TCU NE-SE SW-NW T03220222 10328 20239 58008=
202007101652 METAR KATL 101652Z 26006KT 10SM BKN035TCU BKN075 BKN200 31/22 A2998 RMK AO2 SLP139 TCU SE S W MDT CU ALQDS T03060222=
202007101552 METAR KATL 101552Z 34006KT 10SM BKN030 BKN065 31/23 A2998 RMK AO2 SLP139 T03060228=
202007101452 METAR KATL 101452Z 32006KT 10SM FEW024 FEW065 29/23 A2998 RMK AO2 SLP141 T02940233 56004=
202007101352 METAR KATL 101352Z 34006KT 10SM FEW020 FEW055 28/23 A2998 RMK AO2 SLP142 T02780228=
202007101252 METAR KATL 101252Z 32005KT 10SM FEW045 FEW180 26/22 A2999 RMK AO2 SLP145 T02560222=
202007101152 METAR KATL 101152Z 27004KT 10SM FEW005 FEW040 SCT180 SCT250 24/22 A2999 RMK AO2 SLP147 70020 T02390222 10239 20222 53011=
202007101052 METAR KATL 101052Z 27003KT 10SM FEW032 FEW100 SCT250 23/21 A2998 RMK AO2 SLP142 CB DSNT NW T02280211=
202007100952 METAR KATL 100952Z 00000KT 9SM FEW003 SCT040 SCT250 23/21 A2997 RMK AO2 SLP137 T02280211=
202007100910 SPECI KATL 100910Z 27003KT 3SM BR SCT002 BKN035 22/21 A2997 RMK AO2 T02220211=
202007100852 METAR KATL 100852Z 00000KT 2SM BR SCT002 22/21 A2996 RMK AO2 SLP134 T02220211 51003=
202007100850 SPECI KATL 100850Z 00000KT 2SM BR SCT002 22/21 A2996 RMK AO2=
202007100752 METAR KATL 100752Z 26003KT 3/4SM R09R/2400VP6000FT BR OVC002 23/22 A2996 RMK AO2 SLP133 VIS S 1 1/4 T02280217=
202007100750 SPECI KATL 100750Z 00000KT 3/4SM R09R/2400VP6000FT BR OVC002 23/22 A2996 RMK AO2 VIS S 1 1/4=
202007100722 SPECI KATL 100722Z 30003KT 1 1/2SM R09R/4000VP6000FT BR OVC002 23/22 A2996 RMK AO2 T02280217=
202007100652 METAR KATL 100652Z 00000KT 2SM R09R/2800V4500FT BR BKN002 23/22 A2995 RMK AO2 SLP132 T02280217=
202007100607 SPECI KATL 100607Z 00000KT 2 1/2SM R09R/3500VP6000FT BR BKN002 23/22 A2995 RMK AO2 T02280217=
202007100552 METAR KATL 100552Z 33004KT 5SM BR BKN003 23/22 A2995 RMK AO2 SLP131 60006 T02280217 10250 20228 55008=
202007100549 SPECI KATL 100549Z 34005KT 5SM BR BKN003 23/22 A2995 RMK AO2=
202007100452 METAR KATL 100452Z 00000KT 8SM SCT003 SCT250 23/22 A2995 RMK AO2 SLP130 T02280217 403170228=
202007100441 SPECI KATL 100441Z 23003KT 1SM R09R/P6000FT BKN003 BKN250 23/21 A2996 RMK AO2 SFC VIS 8 T02280211=
202007100431 SPECI KATL 100431Z 23004KT 10SM FEW002 SCT250 23/21 A2995 RMK AO2 T02280211=
202007100352 METAR KATL 100352Z VRB03KT 10SM FEW150 SCT250 23/22 A2995 RMK AO2 SLP132 T02330217=
202007100252 METAR KATL 100252Z 25003KT 10SM FEW055 SCT090 BKN150 BKN250 23/22 A2997 RMK AO2 RAE34 SLP140 P0001 60006 T02330217 53005=
202007100152 METAR KATL 100152Z 25004KT 7SM -RA FEW060 BKN090 BKN120 BKN200 23/21 A2997 RMK AO2 TSE17 SLP139 LTG DSNT S-SW P0005 T02330211=
202007100117 SPECI KATL 100117Z 22004KT 9SM -RA FEW025 SCT060 BKN090 BKN200 23/21 A2995 RMK AO2 TSE17 LTG DSNT S-SW TS DSIPTD CB DSNT S-W-NW P0002 T02330211=
202007100052 METAR KATL 100052Z 27003KT 9SM -TSRA FEW025CB SCT060 BKN090 BKN200 23/21 A2996 RMK AO2 PK WND 05027/2355 SLP135 OCNL LTGICCA SE SW-NW TS SE SW-NW MOV SE P0000 T02330206=
202007092352 METAR KATL 092352Z 05013G17KT 10SM -TSRA FEW012 SCT030CB BKN060 BKN200 25/21 A2996 RMK AO2 PRESRR SLP135 FRQ LTGICCG NE-SE W-NW TS NE-SE W-NW MOV SE SHELF CLOUD N-E-SE P0001 60014 T02500211 10317 20239 53017=
202007092252 METAR KATL 092252Z 19010G16KT 8SM -TSRA SCT035CB BKN060 BKN150 BKN250 24/21 A2992 RMK AO2 WSHFT 2159 SLP123 OCNL LTGICCGCA SE-SW NW-N TS SE-SW NW-N MOV SE P0013 T02390206=
202007092216 SPECI KATL 092216Z VRB05KT 6SM -TSRA SCT040CB BKN060 BKN150 BKN250 27/23 A2990 RMK AO2 WSHFT 2159 VIS LWR SW-NW OCNL LTGICCG S NW-N TS S NW-N MOV SE P0003 T02720228=
202007092152 METAR KATL 092152Z 09008KT 10SM -TSRA SCT040CB BKN070 BKN150 BKN250 31/21 A2990 RMK AO2 RAB49 TSB04E29B52 SLP113 OCNL LTGICCG NW-N S TS NW-N S MOV SE CB DSNT N NE E S TCU DSNT ALQDS P0000 T03060211=
202007092129 SPECI KATL 092129Z 12006KT 10SM SCT042TCU BKN070 BKN200 BKN250 31/21 A2990 RMK AO2 TSB04E29 LTG DSNT N E TS DSIPTD CB DSNT N E SE TCU OHD DSNT ALQDS T03060211=
202007092105 SPECI KATL 092105Z 13005KT 10SM TS SCT042CB BKN070 BKN200 BKN250 31/21 A2990 RMK AO2 TSB04 OCNL LTGICCG NW TS NW MOV SE CB DSNT N NE TCU DSNT ALQDS T03060211=
202007092052 METAR KATL 092052Z 12005KT 10SM SCT042TCU BKN070 BKN200 BKN250 32/22 A2991 RMK AO2 LTG DSNT N SLP115 CB DSNT N-NE TCU E-S-SW NW DSNT N-E SHRA DSNT N T03170222 56018=
202007091952 METAR KATL 091952Z 12007KT 10SM BKN039TCU BKN070 BKN200 BKN250 31/21 A2992 RMK AO2 SLP120 CB DSNT N-NE SE NW TCU OHD-ALQDS SHRA DSNT N-NE SE T03060211=
202007091852 METAR KATL 091852Z 23006KT 10SM BKN040TCU BKN065 BKN250 31/21 A2994 RMK AO2 SLP126 TCU OHD & ALQDS T03060211=
202007091752 METAR KATL 091752Z 17006KT 10SM BKN036TCU BKN250 30/21 A2996 RMK AO2 SLP134 TCU ALQDS T03000211 10317 20233 58003=
202007091652 METAR KATL 091652Z VRB04KT 10SM SCT033 BKN180 BKN250 31/22 A2997 RMK AO2 SLP135 TCU DSNT SW-NW T03060217=
202007091552 METAR KATL 091552Z 00000KT 10SM SCT026 SCT180 SCT250 28/22 A2996 RMK AO2 SLP135 T02830217=
202007091452 METAR KATL 091452Z 04006KT 10SM FEW001 FEW024 SCT150 SCT200 28/21 A2997 RMK AO2 SLP137 FU FEW001 T02780211 50001=
202007091352 METAR KATL 091352Z 02006KT 10SM FEW020 SCT140 BKN180 26/21 A2997 RMK AO2 SLP139 T02560206=
202007091252 METAR KATL 091252Z 34005KT 10SM FEW015 FEW055 BKN160 BKN190 BKN230 24/21 A2998 RMK AO2 SLP142 T02440206=
202007091152 METAR KATL 091152Z 34006KT 10SM FEW055 FEW100 BKN160 BKN190 BKN250 23/20 A2997 RMK AO2 SLP137 TCU DSNT NW T02330200 10244 20228 53015=
202007091052 METAR KATL 091052Z 31005KT 10SM FEW060 BKN160 BKN190 BKN250 23/20 A2995 RMK AO2 SLP131 T02330200=
202007090952 METAR KATL 090952Z 32003KT 10SM FEW012 FEW080 BKN180 BKN250 23/21 A2993 RMK AO2 SLP125 T02330206=
202007090852 METAR KATL 090852Z 28004KT 10SM FEW010 BKN190 BKN250 23/21 A2992 RMK AO2 SLP121 T02280211 55001=
202007090752 METAR KATL 090752Z 32005KT 10SM FEW010 FEW150 SCT220 24/22 A2992 RMK AO2 SLP119 T02390217=
202007090652 METAR KATL 090652Z 33005KT 10SM SCT150 SCT200 BKN250 24/22 A2992 RMK AO2 SLP120 T02390217=
202007090552 METAR KATL 090552Z 34005KT 10SM FEW080 SCT180 BKN250 24/22 A2992 RMK AO2 SLP121 T02440217 10278 20239 56014=
202007090452 METAR KATL 090452Z 30006KT 10SM FEW080 SCT150 BKN200 BKN250 24/22 A2993 RMK AO2 SLP125 T02440217 403000233=
202007090352 METAR KATL 090352Z 30007KT 10SM FEW070 SCT140 BKN200 OVC250 25/21 A2994 RMK AO2 SLP129 T02500206=
202007090252 METAR KATL 090252Z 28006KT 10SM SCT070 BKN140 BKN200 25/21 A2996 RMK AO2 SLP135 T02500211 53013=
202007090152 METAR KATL 090152Z 26003KT 10SM SCT070 BKN120 BKN250 26/21 A2994 RMK AO2 SLP129 T02560211=
202007090052 METAR KATL 090052Z 31008KT 10SM FEW020TCU SCT050 BKN150 BKN250 26/21 A2993 RMK AO2 SLP125 CB DSNT NE TCU E-SE DSNT NW T02610211=
202007082352 METAR KATL 082352Z 28007KT 10SM FEW025 BKN065 BKN150 BKN250 28/22 A2992 RMK AO2 SLP122 LTG DSNT NW CB DSNT N-NE NW 60000 T02780222 10300 20272 55001=
202007082252 METAR KATL 082252Z 27005KT 10SM FEW025 SCT070 BKN140 BKN250 28/22 A2992 RMK AO2 SLP119 LTG DSNT SE NW-N CB DSNT NW-NE SE T02830222=
202007082152 METAR KATL 082152Z 24006KT 10SM FEW025 BKN140 BKN200 28/22 A2991 RMK AO2 LTG DSNT N SLP118 TCU DSNT NE SE T02830222=
202007082052 METAR KATL 082052Z 29007KT 10SM FEW028TCU SCT065 BKN140 BKN200 28/23 A2993 RMK AO2 LTG DSNT SW RAB13E23 SLP123 CB DSNT SW TCU N SE-SW SHRA DSNT SW P0000 60000 T02830233 56017=
202007081952 METAR KATL 081952Z 24005KT 10SM SCT038TCU SCT070 BKN160 BKN200 29/21 A2993 RMK AO2 LTG DSNT SW SLP125 CB DSNT SW-NW TCU N-NE SE-SW NW SHRA S W T02890206=
202007081852 METAR KATL 081852Z 20005KT 10SM SCT036TCU BKN060 BKN180 BKN250 28/21 A2995 RMK AO2 SLP131 CB DSNT SW-W NW TCU NE S-SW NW T02830206=
202007081752 METAR KATL 081752Z 19006KT 10SM SCT036TCU SCT065 BKN180 BKN250 28/21 A2998 RMK AO2 LTG DSNT W SLP141 CB DSNT W-NW TCU NW-NE DSNT SE-SW-NW T02830211 10294 20244 58011=
202007081652 METAR KATL 081652Z 03005KT 10SM SCT034TCU SCT060 BKN140 BKN200 29/21 A3000 RMK AO2 SLP147 TCU E DSNT SE W-NW T02890211=
202007081552 METAR KATL 081552Z 05007KT 10SM BKN032TCU BKN055 BKN140 BKN200 29/21 A3002 RMK AO2 SLP152 TCU SW-NW-NE DSNT S-W MDT CU OHD-ALQDS T02940206 $=
202007081452 METAR KATL 081452Z 04007KT 10SM BKN024 BKN035 BKN055 BKN250 28/21 A3001 RMK AO2 SLP152 T02830211 53002=
202007081357 SPECI KATL 081357Z 07008KT 10SM BKN020 BKN055 BKN250 27/21 A3001 RMK AO2 CIG 018V022 T02670206=
202007081352 METAR KATL 081352Z 09007KT 10SM SCT018 BKN055 BKN250 27/21 A3001 RMK AO2 SLP152 T02670211=
202007081252 METAR KATL 081252Z 06004KT 10SM FEW012 SCT055 SCT250 25/21 A3000 RMK AO2 SLP147 T02500211=
202007081152 METAR KATL 081152Z 03003KT 10SM OVC055 24/21 A3001 RMK AO2 SLP150 T02440211 10244 20233 52009=
202007081052 METAR KATL 081052Z 06005KT 10SM FEW009 FEW033 BKN055 24/21 A2999 RMK AO2 SLP146 T02390206=
202007080952 METAR KATL 080952Z 00000KT 10SM FEW009 BKN032 24/21 A2999 RMK AO2 SLP144 T02390206=
202007080949 SPECI KATL 080949Z 00000KT 10SM FEW009 BKN032 24/21 A2999 RMK AO2=
202007080852 METAR KATL 080852Z 08006KT 10SM OVC008 23/21 A2998 RMK AO2 SLP140 T02330211 55003=
202007080752 METAR KATL 080752Z 07004KT 10SM BKN008 BKN200 24/21 A2996 RMK AO2 SLP134 T02390211=
202007080730 SPECI KATL 080730Z 06006KT 10SM BKN008 BKN250 24/21 A2996 RMK AO2 T02390211=
202007080720 SPECI KATL 080720Z 07007KT 10SM SCT008 BKN250 24/21 A2996 RMK AO2 T02390211=
202007080652 METAR KATL 080652Z 07006KT 10SM FEW012 FEW110 BKN250 24/21 A2996 RMK AO2 SLP135 T02390211=
202007080552 METAR KATL 080552Z 06006KT 10SM FEW022 SCT110 BKN250 24/21 A2999 RMK AO2 SLP143 T02440211 10283 20244 58000=
202007080452 METAR KATL 080452Z 00000KT 10SM FEW014 SCT110 BKN250 26/21 A3000 RMK AO2 SLP148 T02560211 403060228=
202007080352 METAR KATL 080352Z 06005KT 10SM FEW055 BKN200 BKN250 26/22 A3001 RMK AO2 SLP151 CB DSNT S-SW T02560217=
202007080252 METAR KATL 080252Z 07007KT 10SM FEW025 SCT110 BKN200 BKN250 26/22 A2999 RMK AO2 LTG DSNT SW AND W SLP143 CB DSNT SW-W T02610217 53012=
202007080152 METAR KATL 080152Z 08009KT 10SM SCT028 BKN100 BKN250 27/22 A2997 RMK AO2 LTG DSNT SW SLP137 CB DSNT SW-W TCU DSNT SE-S T02670217=
202007080052 METAR KATL 080052Z 10007KT 10SM SCT030TCU BKN120 BKN250 27/21 A2997 RMK AO2 SLP137 CB DSNT SW TCU OHD SW-NW T02720211=
202007072352 METAR KATL 072352Z 09008KT 10SM FEW030TCU SCT200 BKN250 28/21 A2995 RMK AO2 SLP131 TCU NW-N DSNT ALQDS T02830211 10306 20267 53001=
202007072252 METAR KATL 072252Z 05005KT 10SM FEW030TCU SCT200 BKN250 31/22 A2994 RMK AO2 SLP129 TCU NW DSNT N-NE E-SE S T03060217=
202007072152 METAR KATL 072152Z 06008KT 10SM SCT030TCU SCT070 BKN200 BKN250 30/21 A2995 RMK AO2 SLP130 TCU OHD-S DSNT ALQDS T03000211=
202007072052 METAR KATL 072052Z 01005KT 10SM SCT028TCU SCT070 BKN200 29/21 A2995 RMK AO2 SLP130 TCU ALQDS T02940211 56023=
202007071952 METAR KATL 071952Z 06005KT 10SM SCT028TCU BKN070 BKN200 28/21 A2997 RMK AO2 SLP137 TCU ALQDS T02830211=
202007071852 METAR KATL 071852Z 04008KT 10SM FEW020 SCT036TCU BKN060 BKN200 28/21 A2999 RMK AO2 SLP146 TCU SW-NW-N DSNT E-S MDT CU ALQDS T02830211=
202007071752 METAR KATL 071752Z 02007KT 10SM SCT017 BKN034TCU BKN060 BKN250 27/22 A3002 RMK AO2 RAB06E17B40E50 SLP155 TCU ALQDS P0000 60000 T02720217 10278 20233 58005 $=
202007071652 METAR KATL 071652Z 03006KT 10SM SCT016 BKN032TCU BKN055 BKN200 28/21 A3003 RMK AO2 SLP159 TCU ALQDS SHRA NW-N T02780211 $=
202007071552 METAR KATL 071552Z 36006KT 10SM SCT015 BKN022 OVC036 26/21 A3004 RMK AO2 SLP163 T02560211 $=
202007071452 METAR KATL 071452Z 04006KT 10SM OVC017 26/21 A3003 RMK AO2 SLP161 CIG 015V019 60000 T02560206 51009 $=
202007071352 METAR KATL 071352Z 05008KT 10SM SCT012 OVC016 25/21 A3002 RMK AO2 DZE14 SLP158 CIG 014V018 BINOVC P0000 T02500206 $=
202007071252 METAR KATL 071252Z 04008KT 7SM -DZ SCT009 OVC012 24/21 A3002 RMK AO2 DZB50 SLP158 CIG 010V014 CB DSNT SE P0000 T02390211 $=
202007071214 SPECI KATL 071214Z 03008KT 10SM SCT009 OVC012 23/21 A3001 RMK AO2 CB DSNT E T02330206=
202007071152 METAR KATL 071152Z 02007KT 10SM BKN008 OVC012 23/21 A3001 RMK AO2 SLP151 TCU DSNT E 60000 70121 T02330206 10233 20233 53009=
202007071052 METAR KATL 071052Z 04006KT 10SM BKN007 BKN011TCU BKN020 23/21 A2999 RMK AO2 SLP148 TCU E T02330206=
202007070952 METAR KATL 070952Z 02007KT 10SM BKN008 OVC011 23/21 A2999 RMK AO2 DZE47 SLP143 P0000 T02330211=
202007070852 METAR KATL 070852Z 01007KT 8SM -DZ OVC006 23/21 A2998 RMK AO2 DZB50 SLP140 P0000 60000 T02330211 56005=
202007070752 METAR KATL 070752Z 03007KT 10SM BKN006 BKN015 BKN022 23/21 A2998 RMK AO2 SLP140 T02330211=
202007070750 SPECI KATL 070750Z 03007KT 10SM BKN006 BKN015 BKN022 23/21 A2998 RMK AO2=
202007070652 METAR KATL 070652Z 06007KT 10SM SCT005 OVC019 23/21 A2999 RMK AO2 SLP143 BINOVC T02330211=
202007070645 SPECI KATL 070645Z 04007KT 10SM SCT005 OVC019 23/21 A2999 RMK AO2 BINOVC T02330211=
202007070552 METAR KATL 070552Z 05007KT 10SM BKN005 OVC010 23/21 A3000 RMK AO2 SLP147 CIG 004V007 60017 T02330211 10233 20228 58006=
202007070519 SPECI KATL 070519Z 06006KT 10SM BKN006 OVC025 23/21 A3000 RMK AO2 T02330211=
202007070501 SPECI KATL 070501Z 09004KT 10SM FEW006 SCT070 23/21 A3000 RMK AO2 T02280211=
202007070452 METAR KATL 070452Z 10006KT 10SM FEW025 SCT070 23/21 A3000 RMK AO2 SLP149 T02330211 403060228=
202007070420 SPECI KATL 070420Z 10007KT 10SM FEW008 SCT025 BKN065 23/21 A3001 RMK AO2 T02330211=
202007070352 METAR KATL 070352Z 10008KT 10SM FEW007 BKN015 23/22 A3001 RMK AO2 SLP153 T02330217=
202007070342 SPECI KATL 070342Z 08009KT 10SM SCT007 BKN015 BKN022 23/22 A3001 RMK AO2 T02330217=
202007070252 METAR KATL 070252Z 07006KT 10SM OVC005 23/22 A3001 RMK AO2 SLP154 60017 T02330217 53007=
202007070152 METAR KATL 070152Z 09007KT 7SM OVC007 23/22 A3001 RMK AO2 RAE49 SLP152 P0008 T02330217=
202007070101 SPECI KATL 070101Z 08010KT 7SM -RA OVC008 23/22 A3000 RMK AO2 P0002 T02330217=
202007070052 METAR KATL 070052Z 09011KT 5SM -RA BR FEW006 BKN010 OVC060 23/22 A3000 RMK AO2 SLP149 P0009 T02330217=
202007070015 SPECI KATL 070015Z 10008KT 5SM -RA BR FEW006 BKN010 OVC110 23/22 A3000 RMK AO2 LTG DSNT SW CB DSNT SW P0000 T02330217=
202007062352 METAR KATL 062352Z 09009KT 7SM -RA BKN008 BKN060 OVC085 23/22 A2999 RMK AO2 LTG DSNT SW TSE05 SLP147 TSE23 DSPTD CB DSNT SW P0022 60104 T02330217 10306 20228 51009=
202007062328 SPECI KATL 062328Z 10006KT 5SM -RA BR SCT008 BKN032 OVC070 23/22 A3000 RMK AO2 LTG DSNT SW TSE05 TSE23 CB DSNT SW P0020 T02330217=
202007062319 SPECI KATL 062319Z 09009KT 1 1/2SM VCTS RA BR BKN008 OVC026CB 23/22 A2999 RMK AO2 SFC VIS 2 LTG DSNT SW TSE05 OCNL LTGCG NW VCTS NW MOV NW CB DSNT SW P0018 T02330217=
202007062307 SPECI KATL 062307Z 07008KT 020V110 1 1/2SM VCTS +RA BR FEW008 SCT026 OVC034CB 23/22 A3000 RMK AO2 LTG DSNT SW TSE05 OCNL LTGCG NW VCTS NW MOV NW CB DSNT SW P0011 T02330217=
202007062302 SPECI KATL 062302Z 11007G14KT 1 1/2SM TSRA BR OVC028CB 23/22 A2999 RMK AO2 LTG DSNT SW P0009 T02280217=
202007062252 METAR KATL 062252Z 09010KT 1SM R09R/5500VP6000FT +TSRA BR FEW007 OVC026CB 23/22 A2999 RMK AO2 PK WND 11026/2225 WSHFT 2146 TWR VIS 1 1/2 LTG DSNT SW AND W TSE29B31 SLP145 OCNL LTGIC NW TS NW MOV NW CB DSNT SW-W P0082 T02330217=
202007062231 SPECI KATL 062231Z 11013G26KT 1SM R09R/3500V5500FT +TSRA BR FEW007 OVC022CB 23/22 A2998 RMK AO2 PK WND 11026/2225 WSHFT 2146 TWR VIS 1 1/2 LTG DSNT E AND SW TSE29B31 OCNL LTGIC OHD TS OHD MOV NW P0042 T02330217=
202007062220 SPECI KATL 062220Z 11017G24KT 1SM R09R/3500VP6000FT +RA BR FEW007 OVC028 24/22 A2998 RMK AO2 WSHFT 2146 LTG DSNT E CB DSNT E P0011 T02390222=
202007062217 SPECI KATL 062217Z 11015G22KT 2SM R09R/3500VP6000FT RA BR FEW007 OVC028 24/22 A2998 RMK AO2 WSHFT 2146 LTG DSNT E CB DSNT E P0004 T02390222=
202007062211 SPECI KATL 062211Z 11011G20KT 4SM -RA BR FEW007 OVC028 24/22 A2998 RMK AO2 WSHFT 2146 LTG DSNT E CB DSNT E P0003 T02440222=
202007062201 SPECI KATL 062201Z 11014G23KT 4SM RA BKN026 OVC070 26/22 A2998 RMK AO2 WSHFT 2146 LTG DSNT E CB DSNT E P0000 T02560217=
202007062152 METAR KATL 062152Z 11010G17KT 070V150 8SM -RA BKN036TCU BKN070 29/21 A2997 RMK AO2 LTG DSNT E RAB51 SLP139 CB DSNT E-SE TCU W-NW VSBY LWR S P0000 T02940211=
202007062052 METAR KATL 062052Z 08006KT 10SM FEW036TCU SCT075 SCT140 BKN200 30/21 A2997 RMK AO2 LTG DSNT NE SLP136 CB DSNT NE-SE W TCU SE-SW-W DSNT NE-SE T03000206 58016=
202007061952 METAR KATL 061952Z 07008KT 10SM FEW034 SCT075 SCT140 BKN250 30/21 A2999 RMK AO2 SLP143 CB DSNT NE NW TCU DSNT E-S SW T03000206=
202007061852 METAR KATL 061852Z 07007KT 10SM SCT032TCU BKN070 BKN140 BKN250 29/21 A3000 RMK AO2 SLP146 CB DSNT E TCU NW-NE SHRA NW-NE T02940206=
202007061752 METAR KATL 061752Z 09010KT 10SM SCT030TCU BKN042 BKN070 OVC140 28/20 A3001 RMK AO2 SLP152 TCU N E-S NW SHRA E-SE 60000 T02780200 10300 20233 58012=
202007061652 METAR KATL 061652Z 09007KT 10SM SCT025TCU BKN038 OVC050 28/21 A3003 RMK AO2 SLP159 TCU ALQDS BINOVC T02780206 $=
202007061552 METAR KATL 061552Z 07010KT 10SM SCT022TCU BKN036 BKN050 BKN250 27/21 A3004 RMK AO2 SLP162 TCU NW-NE MDT CU ALQDS T02720206 $=
202007061534 SPECI KATL 061534Z 08008KT 10SM SCT018 BKN036 OVC045 27/21 A3004 RMK AO2 MDT CU N-NE S-SW BINOVC T02670206 $=
202007061452 METAR KATL 061452Z 08006KT 10SM SCT018 BKN026 OVC045 26/20 A3005 RMK AO2 SLP164 BINOVC 60000 T02560200 51008 $=
202007061352 METAR KATL 061352Z 08007KT 10SM SCT013 BKN020 OVC050 25/21 A3005 RMK AO2 SLP163 BINOVC T02500206 $=
202007061332 SPECI KATL 061332Z 09007KT 8SM SCT013 BKN018 OVC050 24/21 A3004 RMK AO2 BINOVC T02440206 $=
202007061252 METAR KATL 061252Z 10007KT 8SM BKN008 BKN020 OVC049 24/21 A3003 RMK AO2 RAB27E36 SLP158 BKN008 V SCT P0000 T02390211 $=
202007061152 METAR KATL 061152Z 10005KT 7SM BKN008 OVC014 23/21 A3003 RMK AO2 SLP156 T02330211 10250 20228 53016=
202007061052 METAR KATL 061052Z 12005KT 7SM OVC005 23/21 A3000 RMK AO2 SLP149 T02280206=
202007061027 SPECI KATL 061027Z 10007KT 7SM BKN006 OVC022 23/21 A2999 RMK AO2 T02280206=
202007060952 METAR KATL 060952Z 10006KT 10SM FEW008 BKN022 BKN085 23/21 A2998 RMK AO2 SLP141 BKN022 V SCT T02330206=
202007060945 SPECI KATL 060945Z 11006KT 10SM FEW008 BKN022 BKN085 23/21 A2998 RMK AO2 T02330206=
202007060852 METAR KATL 060852Z 11007KT 10SM SCT018 BKN085 23/20 A2998 RMK AO2 SLP139 SCT018 V BKN T02330200 55003=
202007060752 METAR KATL 060752Z 11005KT 10SM SCT055 SCT120 SCT200 24/20 A2997 RMK AO2 SLP136 T02390200=
202007060652 METAR KATL 060652Z 12006KT 10SM FEW200 BKN250 24/20 A2997 RMK AO2 SLP137 T02440200=
202007060552 METAR KATL 060552Z 10005KT 10SM SCT200 OVC250 25/19 A2999 RMK AO2 SLP142 VIRGA OHD-NW-NE T02500194 10306 20250 50003=
202007060452 METAR KATL 060452Z 14004KT 10SM FEW200 BKN250 25/19 A2999 RMK AO2 SLP145 T02500194 403330233=
202007060352 METAR KATL 060352Z 17005KT 10SM BKN250 26/19 A2998 RMK AO2 SLP140 T02610189=
202007060252 METAR KATL 060252Z 09008KT 10SM FEW060 SCT200 BKN250 27/18 A2998 RMK AO2 SLP139 T02720178 53014=
202007060152 METAR KATL 060152Z 09006KT 10SM FEW060 FEW150 BKN250 28/18 A2996 RMK AO2 SLP133 T02780183=
202007060052 METAR KATL 060052Z 10005KT 10SM FEW060 FEW150 SCT200 BKN250 29/18 A2995 RMK AO2 SLP129 T02940178=
202007052352 METAR KATL 052352Z 12007KT 10SM FEW060 FEW150 BKN250 31/17 A2994 RMK AO2 SLP125 CB DSNT NW T03060172 10333 20306 53004=
202007052252 METAR KATL 052252Z 11009KT 10SM FEW065 FEW150 BKN250 32/18 A2993 RMK AO2 SLP121 CB DSNT N & S TCU DSNT NE & SW T03170178 $=
202007052152 METAR KATL 052152Z 08014G19KT 10SM SCT065 SCT200 BKN250 33/17 A2991 RMK AO2 SLP117 MDT CU SE-S T03280167 $=
202007052052 METAR KATL 052052Z 13007G14KT 10SM SCT065 BKN150 BKN250 32/18 A2992 RMK AO2 SLP121 MDT CU SE AND W T03220178 56022 $=
202007051952 METAR KATL 051952Z 10007KT 10SM SCT060 SCT150 BKN250 33/17 A2994 RMK AO2 SLP127 TCU DSNT E MDT CU SE AND W T03280167 $=
202007051852 METAR KATL 051852Z 12009KT 10SM SCT055 SCT140 BKN250 32/17 A2997 RMK AO2 SLP136 MDT CU E-SE AND W T03220172 $=
202007051752 METAR KATL 051752Z 10007KT 10SM SCT055 SCT120 BKN250 32/18 A2999 RMK AO2 SLP143 MDT CU W-NW T03170178 10322 20244 58004 $=
202007051652 METAR KATL 051652Z 10007KT 10SM SCT044 SCT120 BKN250 31/19 A3000 RMK AO2 SLP146 MDT CU W-NW T03110189 $=
202007051552 METAR KATL 051552Z 15006KT 10SM SCT042 SCT110 SCT250 30/19 A3000 RMK AO2 SLP148 T03000189 $=
202007051452 METAR KATL 051452Z 15005KT 8SM FEW036 SCT110 SCT250 29/19 A3000 RMK AO2 SLP148 T02890194 51008 $=
202007051352 METAR KATL 051352Z VRB03KT 6SM HZ SCT110 SCT250 27/22 A3000 RMK AO2 SLP147 T02720217 $=
202007051252 METAR KATL 051252Z 11004KT 5SM HZ FEW100 FEW200 SCT250 26/22 A2999 RMK AO2 SLP146 T02560217 $=
202007051238 SPECI KATL 051238Z 09004KT 4SM HZ FEW100 FEW200 SCT250 26/22 A2999 RMK AO2 T02560217 $=
202007051206 SPECI KATL 051206Z 08006KT 2 1/2SM HZ FEW100 FEW200 SCT250 24/22 A2998 RMK AO2 T02440217 $=
202007051152 METAR KATL 051152Z 09005KT 4SM HZ FEW100 FEW200 SCT250 24/22 A2998 RMK AO2 SLP140 VIS N-E2 1/2 70001 T02440217 10256 20233 52014 $=
202007051052 METAR KATL 051052Z 15003KT 4SM HZ BR FEW100 SCT200 23/21 A2996 RMK AO2 SLP135 T02330211=
202007050952 METAR KATL 050952Z 15004KT 3SM FU FEW000 FEW060 BKN090 24/21 A2995 RMK AO2 SLP131 FU FEW000 T02390211=
202007050852 METAR KATL 050852Z 10004KT 3SM FU FEW000 SCT060 BKN095 24/22 A2994 RMK AO2 SLP127 FU FEW000 T02440217 55003=
202007050845 SPECI KATL 050845Z 09004KT 3SM FU FEW000 SCT060 BKN095 24/22 A2994 RMK AO2 FU FEW000 T02440217=
202007050752 METAR KATL 050752Z 08003KT 2 1/2SM FU SCT000 SCT060 25/22 A2993 RMK AO2 SLP125 FU SCT000 T02500217=
202007050652 METAR KATL 050652Z 08004KT 2 1/2SM FU SCT000 SCT070 26/22 A2994 RMK AO2 SLP126 FU SCT000 T02560222=
202007050552 METAR KATL 050552Z 33004KT 3SM FU SCT000 SCT070 SCT100 26/22 A2995 RMK AO2 SLP128 FU SCT000 T02560222 10289 20250 50000=
202007050452 METAR KATL 050452Z 36004KT 4SM FU SCT000 BKN075 BKN100 26/22 A2995 RMK AO2 SLP130 FU SCT000 T02610222 403280228=
202007050352 METAR KATL 050352Z 33004KT 3SM FU SCT000 SCT120 SCT180 SCT250 26/22 A2996 RMK AO2 SLP132 T02560222=
202007050252 METAR KATL 050252Z 32004KT 5SM FU SCT000 SCT120 SCT180 SCT250 27/22 A2995 RMK AO2 SLP128 FU SCT000 T02670217 51010=
202007050205 SPECI KATL 050205Z 33004KT 7SM SCT000 SCT100 SCT120 SCT180 BKN250 27/22 A2994 RMK AO2 FU SCT000 T02720222=
202007050152 METAR KATL 050152Z 33004KT 10SM FEW100 SCT120 SCT180 BKN250 27/22 A2994 RMK AO2 SLP126 T02720222=
202007050052 METAR KATL 050052Z 00000KT 10SM BKN110 BKN180 BKN250 28/21 A2993 RMK AO2 SLP122 T02780211=
202007042352 METAR KATL 042352Z 15003KT 10SM FEW050 SCT120 SCT150 SCT180 BKN250 29/21 A2991 RMK AO2 SLP118 CB DSNT S 60001 T02890211 10322 20250 55006=
202007042252 METAR KATL 042252Z 14004KT 10SM FEW055 FEW080 SCT110 SCT150 SCT180 BKN250 31/20 A2991 RMK AO2 LTG DSNT SE SLP116 CB DSNT SE T03060200=
202007042152 METAR KATL 042152Z 06004KT 10SM FEW055 SCT110 BKN200 BKN250 31/20 A2991 RMK AO2 RAE04 TSE04 SLP116 CB DSNT W-NW TCU DSNT N & SE-S P0000 T03060200=
202007042104 SPECI KATL 042104Z 00000KT 10SM FEW055 SCT080 SCT110 BKN250 27/21 A2993 RMK AO2 RAE04 TSE04 TS DSIPT CB DSNT NE & NW TCU DSNT SE-W P0000 T02720206=
202007042052 METAR KATL 042052Z 00000KT 10SM -TSRA SCT055CB BKN080 BKN110 27/21 A2993 RMK AO2 RAE06B26 SLP126 CB DSNT SE AND NW OCNL LTGICCG SW TS SW MOV SW P0000 60001 T02670211 58009=
202007041952 METAR KATL 041952Z VRB04KT 8SM -TSRA SCT055CB BKN080 BKN095 26/21 A2996 RMK AO2 WSHFT 1841 RAB00 TSB1857 SLP134 LTG DSNT SE CB DSNT SE OCNL LTGICCG S-SW TS S-SW MOV S P0001 T02560206=
202007041857 SPECI KATL 041857Z 35014KT 10SM TS SCT050CB BKN070 BKN120 30/18 A2995 RMK AO2 WSHFT 1841 TSB57 OCNL LTGICCG NW TS NW MOV SE T03000183 $=
202007041852 METAR KATL 041852Z 01013KT 10SM SCT055 SCT075 BKN120 31/19 A2995 RMK AO2 SLP131 TB03E23 TS MOV SE T03060189 $=
202007041832 SPECI KATL 041832Z 15005KT 10SM SCT050 SCT065 BKN120 32/19 A2996 RMK AO2 TB03E23 TS MOV SE T03170189 $=
202007041815 SPECI KATL 041815Z VRB05KT 10SM VCTS SCT049CB SCT065 BKN120 32/19 A2996 RMK AO2 ONCL LTGIC N TS VC N MOV SE T03170194=
202007041752 METAR KATL 041752Z 00000KT 10SM SCT049 SCT065 BKN120 32/19 A2996 RMK AO2 LTG DSNT N SLP134 CB DSNT N T03220194 10328 20244 58010=
202007041652 METAR KATL 041652Z 07004KT 10SM SCT046 SCT060 BKN120 32/20 A2998 RMK AO2 SLP139 T03220200=
202007041552 METAR KATL 041552Z 00000KT 10SM SCT043 SCT120 31/22 A2999 RMK AO2 SLP142 T03110217=
202007041452 METAR KATL 041452Z 00000KT 10SM SCT110 SCT250 29/21 A2999 RMK AO2 SLP143 T02940211 51009=
202007041352 METAR KATL 041352Z 10006KT 10SM SCT110 SCT250 28/21 A2999 RMK AO2 SLP143 T02780206=
202007041252 METAR KATL 041252Z 09003KT 8SM FEW110 SCT250 26/21 A2998 RMK AO2 SLP140 T02560211=
202007041152 METAR KATL 041152Z 00000KT 8SM FEW050 SCT250 24/22 A2997 RMK AO2 SLP135 T02440217 10261 20228 51011=
202007041052 METAR KATL 041052Z 32004KT 8SM FEW120 SCT250 24/22 A2996 RMK AO2 SLP132 T02390217=
202007040952 METAR KATL 040952Z 00000KT 10SM FEW055 SCT120 SCT200 SCT250 24/22 A2994 RMK AO2 SLP127 T02390217=
202007040852 METAR KATL 040852Z 24003KT 10SM FEW055 FEW120 FEW200 24/22 A2993 RMK AO2 SLP124 T02390217 58008=
202007040752 METAR KATL 040752Z 28006KT 10SM FEW055 FEW120 24/21 A2995 RMK AO2 SLP129 T02440211=
202007040652 METAR KATL 040652Z 00000KT 10SM FEW055 FEW120 SCT200 SCT250 24/19 A2996 RMK AO2 SLP132 T02440194=
202007040552 METAR KATL 040552Z 00000KT 10SM FEW055 FEW120 SCT250 26/19 A2996 RMK AO2 SLP132 T02560189 10317 20256 51000=
202007040452 METAR KATL 040452Z 00000KT 10SM FEW120 SCT200 BKN250 28/19 A2996 RMK AO2 SLP131 T02780189 403390233=
202007040352 METAR KATL 040352Z 09005KT 10SM FEW120 SCT250 27/19 A2996 RMK AO2 SLP134 T02720189=
202007040252 METAR KATL 040252Z 12003KT 10SM FEW120 FEW250 29/19 A2996 RMK AO2 SLP132 T02890194 51012=
202007040152 METAR KATL 040152Z 14003KT 10SM FEW055 SCT120 SCT250 29/19 A2995 RMK AO2 LTG DSNT NW SLP131 CB DSNT NW T02890194=
202007040052 METAR KATL 040052Z 15004KT 10SM FEW055 FEW250 29/19 A2994 RMK AO2 SLP125 CB DSNT NW T02940194=
202007032352 METAR KATL 032352Z 11005KT 10SM FEW055 SCT250 32/19 A2992 RMK AO2 SLP120 TCU DSNT NW N T03170189 10339 20306 55002=
202007032252 METAR KATL 032252Z 12005KT 10SM FEW060 FEW250 32/18 A2991 RMK AO2 SLP115 TCU DSNT NW-N T03220183=
202007032152 METAR KATL 032152Z 08007KT 10SM FEW060 FEW250 32/19 A2992 RMK AO2 SLP118 TCU DSNT N NE T03220189=
202007032052 METAR KATL 032052Z 10006KT 10SM FEW060 FEW120 SCT250 33/19 A2993 RMK AO2 SLP122 CB DSNT N T03280189 56019=
202007031952 METAR KATL 031952Z 13006KT 10SM FEW055 FEW110 SCT250 32/18 A2994 RMK AO2 SLP128 T03220183=
202007031852 METAR KATL 031852Z 15008KT 10SM FEW048TCU SCT070 SCT120 BKN250 32/19 A2996 RMK AO2 SLP135 CB DSNT W-NW TCU N-NE SE T03220194=
202007031752 METAR KATL 031752Z 08006KT 10SM FEW044TCU SCT065 SCT110 BKN250 31/18 A2999 RMK AO2 SLP142 CB DSNT W TCU NW-NE T03060183 10328 20250 58006=
202007031652 METAR KATL 031652Z 10007KT 10SM FEW040 FEW110 SCT250 32/20 A2999 RMK AO2 SLP144 ACC SE T03170200=
202007031552 METAR KATL 031552Z 09005KT 9SM FEW034 FEW095 SCT120 SCT250 29/21 A3001 RMK AO2 SLP150 TCU DSNT W-NW ACC NE-SE T02940206=
202007031452 METAR KATL 031452Z 10005KT 9SM FEW100 SCT120 BKN250 29/21 A3001 RMK AO2 SLP149 ACC ALQDS T02890206 50008=
202007031352 METAR KATL 031352Z 00000KT 10SM SCT110 BKN250 27/21 A3001 RMK AO2 SLP151 ACC N-E W-NW T02720206=
202007031252 METAR KATL 031252Z 08004KT 10SM BKN110 BKN250 27/21 A3000 RMK AO2 SLP146 BKN110 V SCT ACC DSNT W & NW T02670206=
202007031152 METAR KATL 031152Z 07005KT 10SM BKN110 BKN250 26/20 A2998 RMK AO2 SLP142 ACC DSNT N & W & NW 70016 T02560200 10256 20233 53008=
202007031052 METAR KATL 031052Z 03004KT 10SM BKN110 BKN120 BKN250 24/21 A2997 RMK AO2 SLP137 T02390211=
202007030952 METAR KATL 030952Z 03004KT 10SM BKN120 25/21 A2996 RMK AO2 SLP136 T02500211=
202007030852 METAR KATL 030852Z 00000KT 10SM FEW100 BKN120 24/21 A2996 RMK AO2 SLP135 T02390211 50002=
202007030752 METAR KATL 030752Z 31004KT 10SM SCT090 SCT110 SCT250 24/22 A2996 RMK AO2 SLP133 T02390217 $=
202007030652 METAR KATL 030652Z 36003KT 10SM SCT110 24/22 A2996 RMK AO2 SLP134 T02440217=
202007030552 METAR KATL 030552Z 34004KT 10SM SCT120 24/22 A2995 RMK AO2 SLP131 T02440217 10283 20244 50000=
202007030452 METAR KATL 030452Z 23003KT 10SM FEW120 24/22 A2996 RMK AO2 SLP132 T02440217 403170217=
202007030352 METAR KATL 030352Z 00000KT 10SM FEW120 25/22 A2996 RMK AO2 SLP133 T02500222=
202007030252 METAR KATL 030252Z 06005KT 10SM FEW120 FEW250 27/22 A2995 RMK AO2 SLP130 T02670217 53008=
202007030152 METAR KATL 030152Z 05005KT 10SM FEW120 SCT250 27/21 A2993 RMK AO2 SLP123 T02720211=
202007030052 METAR KATL 030052Z 32006KT 10SM SCT120 BKN250 27/22 A2993 RMK AO2 SLP123 T02720217=
202007022352 METAR KATL 022352Z 30004KT 10SM FEW035 FEW120 SCT200 BKN250 28/21 A2993 RMK AO2 SLP124 CB DSNT NW 60016 T02830211 10317 20250 55007=
202007022252 METAR KATL 022252Z 35009KT 10SM FEW035 SCT110 BKN200 BKN250 29/22 A2991 RMK AO2 SLP119 CB DSNT NW T02890222=
202007022152 METAR KATL 022152Z 32004KT 10SM FEW035 SCT100 BKN150 BKN200 28/22 A2992 RMK AO2 RAE37 TSE27 SLP121 LTG DSNT N NW CB DSNT N SE NW TCU DSNT S-W-NW P0012 T02830222 $=
202007022127 SPECI KATL 022127Z 01003KT 10SM -RA FEW035TCU SCT070 BKN100 BKN200 27/21 A2992 RMK AO2 TSE27 LTG DSNT NW-N TS DSIPTD CB DSNT NW-N TCU SW-NW P0012 T02670211 $=
202007022100 SPECI KATL 022100Z 04013KT 6SM TSRA SCT036CB SCT055 BKN085 BKN200 26/22 A2994 RMK AO2 LTG DSNT N AND SE VIS W-NW 1 1/2 OCNL LTGICCA N-OHD-S TS N-OHD-S MOV SW P0009 T02560217=
202007022052 METAR KATL 022052Z 05014KT 3SM +TSRA BKN036CB BKN060 BKN090 BKN200 26/22 A2995 RMK AO2 PK WND 05027/2019 WSHFT 2016 RAB18 SLP132 VIS W-NW 3/4 FRQ LTGICCGCA N-OHD-S TS N-OHD-S MOV SW P0004 60004 T02560217 55003=
202007022045 SPECI KATL 022045Z 06019KT 2SM +TSRA BKN038CB BKN055 OVC090 26/22 A2994 RMK AO2 PK WND 05027/2019 WSHFT 2016 RAB18 VIS NW-NE 3/4 FRQ LTGICCGCA N-OHD-S TS N-OHD-S MOV SW P0000 T02610217=
202007022040 SPECI KATL 022040Z 06019KT 3SM +TSRA BKN038CB BKN055 OVC090 27/21 A2994 RMK AO2 PK WND 05027/2019 WSHFT 2016 RAB18 VIS NW-NE 3/4 FRQ LTGICCGCA N-OHD-S TS N-OHD-S MOV SW P0000 T02720211=
202007022033 SPECI KATL 022033Z 06018G24KT 5SM TSRA BKN040CB BKN065 BKN090 BKN200 27/21 A2994 RMK AO2 PK WND 05027/2019 WSHFT 2016 RAB18 VIS N-E 1 FRQ LTGICCGCA N-OHD-SE TS N-OHD-SE MOV SW P0000 T02670211=
202007022019 SPECI KATL 022019Z 05020G27KT 6SM -TSRA BKN040CB BKN065 BKN090 BKN200 29/20 A2994 RMK AO2 PK WND 05027/2019 RAB18 VIS N-E 1 1/2 FRQ LTGICCGCA N-OHD-SE TS N-OHD-SE MOV SW P0000 T02940200=
202007021952 METAR KATL 021952Z 26008KT 10SM TS SCT042CB BKN085 BKN250 32/21 A2993 RMK AO2 TSB38 SLP123 FRQ LTGICCGCA NE-E TS NE-E MOV SW CB DSNT N-NE SHRA NE-E T03170206=
202007021938 SPECI KATL 021938Z 26009KT 10SM TS SCT042CB BKN085 BKN250 31/21 A2993 RMK AO2 TSB38 OCNL LTGICCGCA NE TS NE MOV SW CB DSNT N-NE T03060206=
202007021852 METAR KATL 021852Z 25007KT 10SM SCT040TCU BKN080 BKN250 30/20 A2994 RMK AO2 SLP126 CB DSNT NE TCU ALQDS T03000200=
202007021752 METAR KATL 021752Z 31008KT 10SM SCT041TCU SCT060 SCT250 BKN300 30/20 A2996 RMK AO2 SLP133 TCU N-NE S NW MDT CU ALQDS T03000200 10317 20228 52001=
202007021652 METAR KATL 021652Z 32006KT 10SM FEW036 SCT250 BKN300 31/21 A2996 RMK AO2 SLP134 T03110211=
202007021552 METAR KATL 021552Z 33006KT 10SM FEW036 SCT250 BKN300 29/21 A2995 RMK AO2 SLP131 T02940206=
202007021452 METAR KATL 021452Z 34006KT 10SM FEW034 FEW120 BKN250 BKN300 28/20 A2995 RMK AO2 SLP132 T02830200 50003=
202007021352 METAR KATL 021352Z 34007KT 10SM FEW120 SCT250 BKN300 27/20 A2996 RMK AO2 SLP134 T02720200=
202007021252 METAR KATL 021252Z 34009KT 10SM FEW110 BKN300 25/20 A2996 RMK AO2 SLP135 T02500200=
202007021152 METAR KATL 021152Z 32008KT 10SM FEW110 BKN300 23/20 A2994 RMK AO2 SLP130 70004 T02280200 10228 20217 53011=
202007021052 METAR KATL 021052Z 32007KT 10SM FEW110 BKN300 22/20 A2993 RMK AO2 SLP126 T02220200=
202007020952 METAR KATL 020952Z 32008KT 10SM FEW250 22/20 A2992 RMK AO2 SLP121 T02170200=
202007020852 METAR KATL 020852Z 30007KT 10SM FEW250 22/19 A2991 RMK AO2 SLP119 T02170194 55003=
202007020752 METAR KATL 020752Z 29006KT 10SM FEW250 22/19 A2991 RMK AO2 SLP117 T02170194=
202007020652 METAR KATL 020652Z 27003KT 10SM SCT250 22/19 A2992 RMK AO2 SLP121 T02170194=
202007020552 METAR KATL 020552Z 30005KT 10SM SCT250 22/19 A2992 RMK AO2 SLP122 T02220194 10267 20222 58003=
202007020452 METAR KATL 020452Z 28005KT 10SM SCT250 22/19 A2993 RMK AO2 SLP126 T02220194 402940206=
202007020352 METAR KATL 020352Z 28007KT 10SM FEW200 BKN250 23/20 A2993 RMK AO2 SLP127 T02280200=
202007020252 METAR KATL 020252Z 29007KT 10SM FEW100 SCT200 BKN250 24/20 A2993 RMK AO2 SLP125 T02390200 53000=
202007020152 METAR KATL 020152Z 29009KT 10SM FEW100 SCT150 BKN250 24/20 A2992 RMK AO2 SLP123 T02440200=
202007020052 METAR KATL 020052Z 29010KT 10SM FEW025 SCT140 BKN200 BKN250 25/20 A2993 RMK AO2 SLP126 T02500200=
202007012352 METAR KATL 012352Z 29011KT 10SM SCT030 SCT150 BKN250 27/20 A2993 RMK AO2 SLP125 TCU DSNT SE 60003 T02670200 10294 20233 53003=
202007012252 METAR KATL 012252Z 30013KT 10SM FEW028 SCT120 SCT200 BKN250 27/20 A2991 RMK AO2 SLP117 CB DSNT NE T02720200=
202007012152 METAR KATL 012152Z 29009KT 10SM FEW025TCU SCT120 BKN250 27/20 A2991 RMK AO2 SLP119 TCU E-SE DSNT S-SW T02670200=
202007012052 METAR KATL 012052Z 31005KT 10SM FEW032CB SCT060 BKN100 BKN200 25/20 A2992 RMK AO2 RAB1956E39 SLP122 CB SE MOV SE TCU DSNT NW SHRA SE P0003 60003 T02500200 56016=
202007012030 SPECI KATL 012030Z 32007KT 10SM -RA SCT031CB BKN060 BKN140 BKN200 23/19 A2992 RMK AO2 RAB1956 CB NE-SE-SW MOV SE TCU DSNT NW P0003 T02330194=
202007012010 SPECI KATL 012010Z 34019G24KT 4SM +RA SCT033CB BKN060 BKN140 BKN200 26/19 A2993 RMK AO2 RAB1956 CB NE-OHD-SW MOV SE CB DSNT NW P0000 T02610189=
202007011952 METAR KATL 011952Z 32013KT 10SM SCT036CB BKN060 BKN140 BKN200 28/19 A2992 RMK AO2 SLP123 CB NW-NE MOV SE TCU NE SE SW SHRA NW-NE T02780189=
202007011852 METAR KATL 011852Z 32009KT 10SM SCT026 BKN055 BKN130 BKN200 27/19 A2995 RMK AO2 SLP132 MDT CU ALQDS T02720194=
202007011752 METAR KATL 011752Z 31008KT 10SM SCT024 BKN033 OVC070 26/20 A2997 RMK AO2 SLP138 BINOVC 60001 T02560200 10256 20222 58006=
202007011652 METAR KATL 011652Z 26006KT 10SM FEW018 BKN026 BKN075 OVC130 26/21 A2999 RMK AO2 RAE1554 SLP147 P0000 T02560206=
202007011552 METAR KATL 011552Z 27007KT 9SM -RA FEW014 BKN075 BKN120 OVC200 23/21 A3000 RMK AO2 RAB1459 SLP151 ACC OHD-ALQDS P0001 T02280206=
202007011452 METAR KATL 011452Z 28011KT 10SM FEW018 BKN080 OVC120 23/20 A2999 RMK AO2 SLP146 ACC OHD-ALQDS SHRA NE-E W-NW T02330200 51016=
202007011352 METAR KATL 011352Z 27008KT 10SM FEW020 SCT080 BKN120 OVC200 24/20 A2998 RMK AO2 SLP142 ACC OHD-ALQDS T02390200=
202007011252 METAR KATL 011252Z 26009KT 10SM FEW035 SCT085 BKN150 BKN220 BKN250 23/19 A2996 RMK AO2 SLP136 MDT CU NW T02330194=
