##########################################################
# Query made at 04/20/2024 00:12:39 UTC
# Time interval: from 09/01/2020 12:00  to 09/30/2020 12:59  UTC
##########################################################

##########################################################
# KATL, Atlanta, Hartsfield - Jackson Atlanta International Airport (United States)
# WMO index: 72219. WIGOS ID: 0-20000-0-72219
# Latitude 33-38-59N. Longitude 084-25-00W. Altitude 312 m.
##########################################################

202009301252 METAR KATL 301252Z 29006KT 10SM CLR 13/09 A3007 RMK AO2 SLP181 T01280094=
202009301152 METAR KATL 301152Z 28006KT 10SM CLR 10/08 A3005 RMK AO2 SLP176 70027 T01000083 10117 20100 53013=
202009301052 METAR KATL 301052Z 27005KT 10SM CLR 10/08 A3004 RMK AO2 SLP170 T01000083=
202009300952 METAR KATL 300952Z 29006KT 10SM CLR 11/08 A3002 RMK AO2 SLP165 T01060083=
202009300852 METAR KATL 300852Z 29006KT 10SM CLR 11/08 A3001 RMK AO2 SLP162 T01060083 51009=
202009300752 METAR KATL 300752Z 27005KT 10SM CLR 11/09 A3001 RMK AO2 SLP159 T01110089=
202009300652 METAR KATL 300652Z 28006KT 10SM CLR 11/09 A3000 RMK AO2 SLP156 T01110094=
202009300552 METAR KATL 300552Z 28006KT 10SM FEW200 12/09 A2999 RMK AO2 SLP152 T01170094 10144 20117 51009=
202009300452 METAR KATL 300452Z 28007KT 10SM FEW200 12/10 A2998 RMK AO2 SLP150 T01220100 402060122=
202009300352 METAR KATL 300352Z 26004KT 10SM FEW200 12/11 A2998 RMK AO2 SLP150 T01220106=
202009300252 METAR KATL 300252Z 27004KT 10SM FEW200 13/11 A2996 RMK AO2 SLP142 T01330111 51017=
202009300152 METAR KATL 300152Z 27003KT 10SM FEW200 13/11 A2995 RMK AO2 SLP139 T01330111=
202009300052 METAR KATL 300052Z 29005KT 10SM FEW055 SCT200 13/11 A2993 RMK AO2 SLP132 T01330111=
202009292352 METAR KATL 292352Z 28008KT 10SM FEW030 BKN200 14/12 A2991 RMK AO2 SLP125 60002 T01440117 10161 20144 52014=
202009292252 METAR KATL 292252Z 30009KT 10SM FEW025 FEW140 BKN200 16/12 A2989 RMK AO2 SLP120 T01610117=
202009292152 METAR KATL 292152Z 30013KT 10SM FEW012 FEW025 BKN140 BKN200 16/12 A2988 RMK AO2 SLP114 T01560122=
202009292116 SPECI KATL 292116Z 29011KT 10SM SCT010 BKN022 BKN130 OVC200 16/13 A2987 RMK AO2 T01610133=
202009292104 SPECI KATL 292104Z 30010KT 10SM FEW009 SCT017 BKN130 OVC200 16/13 A2987 RMK AO2 T01610133=
202009292052 METAR KATL 292052Z 29009KT 10SM SCT008 BKN015 BKN120 OVC200 16/13 A2986 RMK AO2 RAE1959B32E46 SLP110 P0000 60002 T01560133 55016=
202009292032 SPECI KATL 292032Z 31009KT 8SM -RA SCT010 BKN016 BKN100 OVC140 16/13 A2986 RMK AO2 RAE1959B32 P0000 T01560133=
202009291952 METAR KATL 291952Z 34008KT 10SM -RA SCT014 SCT050 BKN100 BKN140 16/13 A2985 RMK AO2 RAE26B43 PRESFR SLP103 P0001 T01560133=
202009291852 METAR KATL 291852Z 31005KT 8SM -RA FEW010 SCT033 BKN095 OVC140 16/13 A2991 RMK AO2 SLP126 P0001 T01560128=
202009291837 SPECI KATL 291837Z 29006KT 10SM -RA FEW008 SCT016 BKN075 OVC130 15/13 A2991 RMK AO2 P0001 T01500128=
202009291752 METAR KATL 291752Z 32009KT 6SM -RA BR SCT008 BKN016 OVC075 15/13 A2991 RMK AO2 SLP125 P0004 60025 T01500133 10156 20144 58005=
202009291652 METAR KATL 291652Z 33010KT 8SM -RA SCT010 BKN016 OVC070 15/13 A2993 RMK AO2 SLP130 P0004 T01500133=
202009291619 SPECI KATL 291619Z 32008KT 8SM -RA BKN009 BKN014 OVC035 15/13 A2994 RMK AO2 P0003 T01500133=
202009291552 METAR KATL 291552Z 30010KT 4SM -RA BR SCT008 BKN013 OVC060 15/13 A2996 RMK AO2 SLP139 P0006 T01500133=
202009291538 SPECI KATL 291538Z 33008KT 5SM -RA BR FEW008 SCT013 OVC055 15/13 A2995 RMK AO2 P0005 T01500133=
202009291522 SPECI KATL 291522Z 27009KT 6SM -RA BR BKN008 BKN013 OVC050 15/13 A2998 RMK AO2 PRESRR P0001 T01500133=
202009291452 METAR KATL 291452Z 32008KT 6SM RA BR SCT008 BKN042 OVC060 15/13 A2993 RMK AO2 RAB16 SLP127 P0011 60011 T01500133 51010=
202009291448 SPECI KATL 291448Z 33008KT 3SM R09R/4500VP6000FT +RA BR SCT010 BKN042 OVC060 15/13 A2992 RMK AO2 RAB16 P0010=
202009291435 SPECI KATL 291435Z 31012G20KT 6SM -RA BR BKN010 BKN038 OVC060 16/13 A2992 RMK AO2 RAB16 CIG 009V012 P0000 T01560133=
202009291352 METAR KATL 291352Z 33009G17KT 10SM OVC008 16/13 A2991 RMK AO2 LTG DSNT W SLP123 CB DSNT W T01560133=
202009291252 METAR KATL 291252Z 32012KT 10SM BKN009 OVC040 16/13 A2990 RMK AO2 LTG DSNT NW SLP117 BKN009 V SCT T01560128=
202009291250 SPECI KATL 291250Z 32012KT 10SM BKN009 OVC040 16/13 A2990 RMK AO2 LTG DSNT NW BKN009 V SCT=
202009291231 SPECI KATL 291231Z 32007KT 10SM SCT010 OVC040 16/13 A2989 RMK AO2 SCT010 V BKN T01560128=
202009291152 METAR KATL 291152Z 32008KT 10SM BKN011 OVC025 16/13 A2989 RMK AO2 SLP115 70007 T01560128 10194 20150 53004=
202009291052 METAR KATL 291052Z 31009KT 10SM BKN010 OVC026 16/13 A2988 RMK AO2 SLP111 BKN010 V SCT T01560128=
202009291032 SPECI KATL 291032Z 29008KT 10SM BKN010 OVC026 16/13 A2988 RMK AO2 T01560128=
202009290952 METAR KATL 290952Z 31007KT 10SM FEW009 OVC025 16/13 A2987 RMK AO2 SLP108 T01560128 $=
202009290852 METAR KATL 290852Z 31008KT 10SM SCT009 OVC028 16/13 A2988 RMK AO2 SLP109 T01560128 56003 $=
202009290752 METAR KATL 290752Z 33011KT 10SM OVC009 16/14 A2988 RMK AO2 SLP109 T01610139 $=
202009290652 METAR KATL 290652Z 33014KT 10SM BKN005 OVC008 17/16 A2988 RMK AO2 SLP108 CIG 004V006 T01720156 $=
202009290635 SPECI KATL 290635Z 33012KT 10SM FEW005 BKN008 OVC015 17/16 A2988 RMK AO2 T01720156 $=
202009290622 SPECI KATL 290622Z 33014G21KT 10SM FEW005 SCT009 OVC015 18/16 A2989 RMK AO2 T01780156 $=
202009290552 METAR KATL 290552Z 32015G22KT 10SM BKN005 OVC009 19/18 A2988 RMK AO2 SLP110 CIG 004V007 60007 T01940178 10250 20194 56002 $=
202009290549 SPECI KATL 290549Z 31014G22KT 10SM BKN005 OVC009 19/18 A2988 RMK AO2 CIG 004V007 $=
202009290522 SPECI KATL 290522Z 31012KT 10SM BKN004 BKN024 OVC070 21/19 A2988 RMK AO2 T02060189 $=
202009290452 METAR KATL 290452Z 31010KT 10SM BKN008 BKN035 OVC070 21/19 A2989 RMK AO2 RAE02 SLP111 P0000 T02060189 402890206 $=
202009290435 SPECI KATL 290435Z 31007KT 10SM BKN008 BKN035 OVC070 21/19 A2988 RMK AO2 RAE02 P0000 T02110194 $=
202009290352 METAR KATL 290352Z 31004KT 9SM -RA FEW008 BKN038 BKN070 OVC150 22/19 A2989 RMK AO2 SLP112 P0000 T02170194 $=
202009290252 METAR KATL 290252Z 29009KT 9SM -RA SCT025CB BKN045 BKN070 OVC150 23/19 A2991 RMK AO2 RAE17B38 SLP117 LTG DSNT N-NE CB NW-N DSNT N-NE MOV NE P0000 60007 T02330194 53021 $=
202009290152 METAR KATL 290152Z 17006KT 8SM -RA FEW025 BKN070 BKN110 OVC200 23/19 A2987 RMK AO2 LTG DSNT W-N RAB29 SLP107 CB DSNT W-N P0007 T02330194 $=
202009290052 METAR KATL 290052Z 15005KT 10SM SCT075 BKN100 BKN200 BKN250 24/19 A2987 RMK AO2 SLP105 T02440189 $=
202009282352 METAR KATL 282352Z 17004KT 10SM FEW070 SCT200 BKN250 24/18 A2984 RMK AO2 SLP097 T02440183 10289 20244 53002 $=
202009282252 METAR KATL 282252Z 19006KT 10SM FEW045 SCT200 BKN250 26/18 A2983 RMK AO2 SLP092 T02610183 $=
202009282152 METAR KATL 282152Z 21007KT 10SM FEW045 SCT250 28/17 A2983 RMK AO2 SLP093 T02780172 $=
202009282052 METAR KATL 282052Z 21008KT 10SM FEW050 SCT065 SCT200 BKN250 28/17 A2984 RMK AO2 SLP094 T02780172 56018 $=
202009281952 METAR KATL 281952Z 22008KT 10SM FEW045 SCT060 SCT250 28/18 A2985 RMK AO2 SLP098 T02830178=
202009281852 METAR KATL 281852Z 28005KT 10SM FEW040 SCT055 SCT250 27/17 A2986 RMK AO2 SLP103 MDT CU DSNT N-E T02720172=
202009281752 METAR KATL 281752Z 24009KT 10SM SCT032 BKN060 27/17 A2989 RMK AO2 SLP113 MDT CU ALQDS T02670172 10272 20211 58018=
202009281652 METAR KATL 281652Z 25009KT 10SM SCT026 SCT038 BKN050 27/19 A2991 RMK AO2 SLP119 MDT CU ALQDS T02670189=
202009281552 METAR KATL 281552Z VRB05KT 10SM SCT020 BKN032 BKN044 25/20 A2993 RMK AO2 SLP127 MDT CU SW-NW-NE T02500200=
202009281525 SPECI KATL 281525Z 22005KT 10SM SCT015 SCT026 OVC036 24/19 A2994 RMK AO2 BINOVC T02390194=
202009281452 METAR KATL 281452Z 24008KT 10SM SCT012 BKN026 OVC034 23/20 A2995 RMK AO2 SLP132 BINOVC T02330200 51006=
202009281352 METAR KATL 281352Z 22008KT 9SM SCT009 BKN015 OVC022 22/20 A2995 RMK AO2 SLP132 T02220200=
202009281335 SPECI KATL 281335Z 23006KT 8SM SCT007 OVC016 22/20 A2994 RMK AO2 T02220200=
202009281252 METAR KATL 281252Z 23005KT 7SM BKN007 OVC011 21/20 A2994 RMK AO2 SLP130 CIG 005V009 BINOVC T02110200=
202009281152 METAR KATL 281152Z 20004KT 6SM BR BKN005 OVC010 21/20 A2993 RMK AO2 DZE11 SLP126 CIG 004V007 P0000 60001 70001 T02110200 10211 20206 50003=
202009281052 METAR KATL 281052Z 20004KT 5SM -DZ BR OVC004 21/20 A2993 RMK AO2 SLP126 CIG 003V006 P0000 T02060200=
202009281010 SPECI KATL 281010Z 19004KT 3SM -DZ BR OVC004 21/19 A2992 RMK AO2 P0000 T02060194=
202009280952 METAR KATL 280952Z 20004KT 3SM -DZ BR BKN005 OVC013 21/19 A2992 RMK AO2 DZB26RAB36E47 SLP125 P0001 T02060194=
202009280852 METAR KATL 280852Z 21006KT 10SM OVC006 21/19 A2992 RMK AO2 SLP121 CIG 005V008 T02110194 56008 $=
202009280752 METAR KATL 280752Z 19005KT 10SM OVC006 21/19 A2992 RMK AO2 SLP122 BKN007 V SCT T02110194 $=
202009280727 SPECI KATL 280727Z 19006KT 10SM BKN007 OVC014 21/19 A2992 RMK AO2 BKN007 V SCT T02110194=
202009280652 METAR KATL 280652Z 17005KT 10SM SCT007 BKN014 OVC022 21/19 A2993 RMK AO2 SLP124 SCT007 V BKN T02110194=
202009280628 SPECI KATL 280628Z 17005KT 10SM SCT007 BKN014 OVC024 21/19 A2993 RMK AO2 SCT007 V BKN T02110194=
202009280552 METAR KATL 280552Z 19005KT 10SM FEW006 OVC024 21/19 A2994 RMK AO2 SLP129 BINOVC T02110194 10228 20211 58004=
202009280537 SPECI KATL 280537Z 20003KT 10SM SCT006 OVC021 21/19 A2994 RMK AO2 SCT006 V BKN T02110194=
202009280452 METAR KATL 280452Z 19007KT 10SM BKN006 BKN024 OVC033 21/19 A2995 RMK AO2 SLP131 T02110194 402830194=
202009280352 METAR KATL 280352Z 19008KT 10SM OVC008 21/20 A2995 RMK AO2 SLP134 CIG 006V010 T02110200=
202009280311 SPECI KATL 280311Z 18006KT 10SM BKN006 OVC012 21/20 A2996 RMK AO2 T02110200=
202009280252 METAR KATL 280252Z 17006KT 10SM FEW006 BKN013 21/20 A2995 RMK AO2 SLP134 T02110200 51007=
202009280224 SPECI KATL 280224Z 18007KT 10SM FEW007 BKN014 22/20 A2995 RMK AO2 T02170200=
202009280210 SPECI KATL 280210Z 19007KT 10SM FEW006 SCT016 22/20 A2995 RMK AO2 T02170200=
202009280152 METAR KATL 280152Z 18006KT 10SM BKN008 22/20 A2994 RMK AO2 SLP132 T02170200=
202009280148 SPECI KATL 280148Z 18007KT 10SM BKN008 22/20 A2994 RMK AO2=
202009280129 SPECI KATL 280129Z 18010KT 10SM FEW009 SCT016 22/20 A2994 RMK AO2 T02220200=
202009280052 METAR KATL 280052Z 18008KT 10SM BKN020 22/20 A2993 RMK AO2 SLP128 T02220200=
202009272352 METAR KATL 272352Z 15006KT 10SM FEW009 SCT018 SCT027 23/21 A2992 RMK AO2 SLP125 60000 T02280211 10283 20222 51003=
202009272325 SPECI KATL 272325Z 16008KT 10SM FEW009 BKN022 23/21 A2992 RMK AO2 T02280211=
202009272252 METAR KATL 272252Z 15007KT 10SM FEW009 SCT027 BKN032 24/21 A2992 RMK AO2 SLP123 T02390211=
202009272210 SPECI KATL 272210Z 15008KT 10SM SCT009 BKN017 BKN075 24/22 A2992 RMK AO2 T02390217=
202009272159 SPECI KATL 272159Z 16008KT 10SM SCT009 BKN014 BKN020 24/22 A2992 RMK AO2 T02390217=
202009272152 METAR KATL 272152Z 16007KT 10SM FEW009 SCT030 BKN075 BKN250 24/21 A2992 RMK AO2 RAE12 TSE17 SLP124 TS MOV NE CB DSNT NE P0000 T02390211=
202009272119 SPECI KATL 272119Z 16006KT 10SM FEW009 SCT030CB BKN050 BKN250 24/21 A2992 RMK AO2 LTG DSNT NE AND S RAE12 TSE17 TS MOV NE CB N-E & DSNT S P0000 T02390206=
202009272052 METAR KATL 272052Z 17008KT 7SM -TSRA SCT032CB BKN070 BKN090 BKN150 26/22 A2991 RMK AO2 RAB36 TSB29 SLP121 OCNL LTGICCG OHD-SW-N TS OHD-SW-N MOV NE CB DSNT NE P0000 60000 T02560217 55016=
202009272030 SPECI KATL 272030Z 17010KT 10SM TS SCT024 SCT038CB BKN090 BKN150 25/21 A2990 RMK AO2 TSB29 OCNL LTGICCG NW-N TS OHD-NW-N MOV NE CB DSNT S-SW T02500211=
202009271952 METAR KATL 271952Z 21005KT 10SM SCT030 SCT044 BKN090 BKN150 27/20 A2991 RMK AO2 LTG DSNT S SLP119 CB DSNT SE AND S AND SW TCU DSNT NW-NE T02720200=
202009271852 METAR KATL 271852Z 19007KT 10SM SCT028 SCT035 BKN095 BKN150 28/20 A2994 RMK AO2 SLP128 CB DSNT NE AND SE MDT CU DSNT N-NE AND SE-SW T02780200=
202009271752 METAR KATL 271752Z VRB06KT 10SM SCT035 SCT050CB BKN090 BKN150 27/20 A2996 RMK AO2 SLP137 CB N MDT CU DSNT N-NE T02670200 10272 20200 58017=
202009271652 METAR KATL 271652Z 21005KT 10SM SCT024 SCT042 BKN070 BKN150 26/20 A3000 RMK AO2 SLP148 MDT CU DSNT N-NE T02610200=
202009271552 METAR KATL 271552Z 00000KT 10SM SCT021 SCT043 SCT085 BKN180 BKN250 26/19 A3000 RMK AO2 SLP150 T02560194=
202009271452 METAR KATL 271452Z 13004KT 10SM SCT031 SCT045 BKN085 BKN250 23/19 A3002 RMK AO2 SLP156 T02330189 58001=
202009271352 METAR KATL 271352Z 14003KT 10SM SCT035 SCT085 BKN250 21/18 A3002 RMK AO2 SLP158 T02110183=
202009271252 METAR KATL 271252Z 15003KT 9SM FEW034 SCT085 BKN250 21/18 A3002 RMK AO2 SLP159 T02060183=
202009271152 METAR KATL 271152Z 00000KT 10SM BKN037 BKN047 BKN085 BKN250 20/18 A3002 RMK AO2 SLP157 SHRA NW-NE T02000183 10206 20194 53009=
202009271052 METAR KATL 271052Z 14003KT 10SM BKN048 BKN060 BKN080 BKN250 20/18 A3001 RMK AO2 SLP152 T02000183=
202009270952 METAR KATL 270952Z 13005KT 10SM FEW060 SCT080 BKN250 20/18 A2999 RMK AO2 SLP148 T02000178=
202009270852 METAR KATL 270852Z 16003KT 10SM FEW043 BKN060 BKN075 BKN250 20/18 A2999 RMK AO2 SLP146 T02000178 58004=
202009270752 METAR KATL 270752Z 14003KT 10SM BKN040 BKN250 20/18 A3000 RMK AO2 SLP149 T02000183 $=
202009270652 METAR KATL 270652Z 13003KT 10SM BKN040 BKN250 21/18 A3000 RMK AO2 SLP150 T02060183 $=
202009270552 METAR KATL 270552Z 15004KT 10SM SCT043 BKN250 21/18 A3000 RMK AO2 SLP150 T02060183 10239 20206 58005 $=
202009270452 METAR KATL 270452Z 00000KT 10SM BKN043 BKN250 21/18 A3002 RMK AO2 SLP156 T02060183 402720200 $=
202009270352 METAR KATL 270352Z 14004KT 10SM BKN048 21/18 A3002 RMK AO2 SLP157 T02110183 $=
202009270252 METAR KATL 270252Z 00000KT 10SM FEW050 BKN250 22/18 A3001 RMK AO2 SLP156 T02170183 50006 $=
202009270152 METAR KATL 270152Z 22003KT 10SM SCT035 22/18 A3002 RMK AO2 SLP157 T02220178 $=
202009270052 METAR KATL 270052Z 00000KT 10SM BKN045 23/18 A3001 RMK AO2 SLP155 T02280178 $=
202009262352 METAR KATL 262352Z 24003KT 10SM FEW040 SCT250 24/17 A3000 RMK AO2 SLP150 T02390172 10272 20239 53002 $=
202009262252 METAR KATL 262252Z 22004KT 10SM FEW040 BKN250 26/16 A2999 RMK AO2 SLP147 T02560161=
202009262152 METAR KATL 262152Z 20006KT 10SM SCT045 BKN250 26/16 A2999 RMK AO2 SLP146 T02560156=
202009262052 METAR KATL 262052Z 20005KT 10SM SCT036 SCT049 BKN250 27/16 A2999 RMK AO2 SLP146 T02670161 56017=
202009261952 METAR KATL 261952Z 27005KT 10SM SCT034 SCT046 BKN250 26/16 A3000 RMK AO2 SLP149 T02560156=
202009261852 METAR KATL 261852Z 27006KT 10SM SCT031 BKN045 BKN250 26/16 A3002 RMK AO2 SLP155 MDT CU DSNT NE T02610161=
202009261752 METAR KATL 261752Z 28005KT 10SM SCT030 BKN046 BKN250 26/16 A3004 RMK AO2 SLP164 T02560161 10267 20200 58013=
202009261652 METAR KATL 261652Z 29005KT 10SM SCT027 BKN042 BKN250 24/17 A3006 RMK AO2 SLP170 T02440167=
202009261552 METAR KATL 261552Z 00000KT 10SM BKN025 BKN040 BKN250 24/17 A3007 RMK AO2 SLP174 T02440167=
202009261452 METAR KATL 261452Z 00000KT 8SM SCT013 BKN022 BKN038 23/19 A3008 RMK AO2 SLP178 T02280189 51013=
202009261435 SPECI KATL 261435Z 00000KT 7SM SCT011 BKN020 BKN037 22/19 A3008 RMK AO2 T02220189=
202009261405 SPECI KATL 261405Z 00000KT 7SM BKN011 BKN018 BKN034 22/19 A3007 RMK AO2 T02170189=
202009261352 METAR KATL 261352Z 00000KT 6SM HZ BKN008 BKN015 BKN034 22/19 A3007 RMK AO2 SLP175 T02170189=
202009261327 SPECI KATL 261327Z 00000KT 6SM BR BKN007 BKN014 OVC035 21/19 A3006 RMK AO2 T02110189=
202009261252 METAR KATL 261252Z 15003KT 7SM SCT006 BKN015 BKN036 21/19 A3006 RMK AO2 SLP170 T02060189=
202009261152 METAR KATL 261152Z 00000KT 5SM BR BKN005 BKN016 OVC036 20/19 A3004 RMK AO2 SLP165 T02000189 10217 20200 53010=
202009261139 SPECI KATL 261139Z 00000KT 5SM BR BKN005 BKN016 BKN036 20/18 A3004 RMK AO2 BKN005 V SCT T02000183=
202009261106 SPECI KATL 261106Z 00000KT 8SM FEW005 SCT016 BKN036 21/19 A3003 RMK AO2 VIS LWR W T02060189=
202009261052 METAR KATL 261052Z 00000KT 1/2SM R09R/P6000FT BR BKN005 BKN017 BKN036 21/19 A3002 RMK AO2 SFC VIS 6 SLP156 BKN005 V SCT TWRINC T02060189=
202009260952 METAR KATL 260952Z 00000KT 1/2SM R09R/P6000FT BR BKN003 BKN007 BKN038 20/19 A3001 RMK AO2 SFC VIS 4 SLP152 VIS N-E2 TWRINC T02000189=
202009260927 SPECI KATL 260927Z 00000KT 1/2SM R09R/P6000FT BR BKN003 BKN018 BKN038 20/19 A3001 RMK AO2 SFC VIS 4 TWRINC T02000189=
202009260852 METAR KATL 260852Z 00000KT 1/2SM R09R/P6000FT BR BKN005 BKN016 BKN038 21/19 A3001 RMK AO2 SFC VIS 4 SLP153 VIS N-E1 1/2 CIG 004V006 TWRINC T02060194 55003=
202009260833 SPECI KATL 260833Z 00000KT 1/2SM R09R/P6000FT BR FEW003 BKN008 OVC012 21/19 A3001 RMK AO2 SFC VIS 2 VIS NW-NE-E1 T02060194=
202009260813 SPECI KATL 260813Z 00000KT 5SM BR FEW003 BKN012 BKN039 21/19 A3000 RMK AO2 VIS NE-E NW-N 2 T02060189=
202009260752 METAR KATL 260752Z 00000KT 10SM FEW003 BKN039 21/19 A3001 RMK AO2 SLP153 T02110194=
202009260652 METAR KATL 260652Z 00000KT 10SM FEW003 SCT039 21/19 A3001 RMK AO2 SLP154 T02110189=
202009260552 METAR KATL 260552Z 00000KT 10SM FEW003 BKN039 22/19 A3002 RMK AO2 SLP156 T02170194 10228 20217 58004=
202009260544 SPECI KATL 260544Z 32003KT 10SM FEW003 BKN039 22/19 A3002 RMK AO2 T02170194=
202009260452 METAR KATL 260452Z 33003KT 10SM FEW028 BKN040 22/19 A3003 RMK AO2 SLP161 T02170194 402500211=
202009260352 METAR KATL 260352Z 31003KT 10SM FEW028 BKN040 22/19 A3003 RMK AO2 SLP161 T02170194=
202009260252 METAR KATL 260252Z 27004KT 10SM FEW030 BKN042 22/19 A3003 RMK AO2 SLP161 T02170194 51014=
202009260152 METAR KATL 260152Z 27003KT 10SM FEW022 SCT030 BKN042 22/19 A3002 RMK AO2 SLP158 T02170194=
202009260052 METAR KATL 260052Z 28004KT 10SM SCT025 BKN045 22/19 A3000 RMK AO2 SLP152 T02220194=
202009260036 SPECI KATL 260036Z 27005KT 10SM SCT025 BKN045 22/19 A3000 RMK AO2 T02220194=
202009252352 METAR KATL 252352Z 26004KT 10SM SCT022 BKN028 BKN240 23/19 A2999 RMK AO2 SLP147 T02280189 10250 20228 53006=
202009252252 METAR KATL 252252Z 24006KT 10SM FEW022 BKN045 23/19 A2998 RMK AO2 SLP143 T02330189=
202009252152 METAR KATL 252152Z 24007KT 10SM FEW020 SCT032 BKN045 24/18 A2998 RMK AO2 SLP142 T02390183=
202009252052 METAR KATL 252052Z 25005KT 10SM FEW021 SCT028 BKN042 24/19 A2997 RMK AO2 SLP139 T02440189 55009=
202009251952 METAR KATL 251952Z 23006KT 10SM FEW020 SCT028 BKN038 24/18 A2997 RMK AO2 SLP140 T02440183=
202009251852 METAR KATL 251852Z 24006KT 10SM FEW018 SCT022 OVC030 23/18 A2999 RMK AO2 SLP147 BINOVC T02330183=
202009251824 SPECI KATL 251824Z 26006KT 10SM FEW018 BKN023 OVC032 23/18 A2999 RMK AO2 T02280183=
202009251752 METAR KATL 251752Z 23007KT 10SM SCT027 OVC032 23/18 A3000 RMK AO2 SLP149 BINOVC 60000 T02330183 10239 20211 58003=
202009251741 SPECI KATL 251741Z 23007KT 10SM SCT026 OVC032 24/18 A3000 RMK AO2 BINOVC T02390183=
202009251652 METAR KATL 251652Z 23009KT 10SM SCT016 OVC026 23/18 A3000 RMK AO2 SLP152 T02280183=
202009251552 METAR KATL 251552Z 23007KT 190V250 10SM BKN016 OVC032 23/19 A3000 RMK AO2 SLP153 CIG 014V018 T02280189=
202009251452 METAR KATL 251452Z 22005KT 10SM SCT012 BKN026 OVC038 22/19 A3000 RMK AO2 RAB08E18 SLP153 BINOVC P0000 60000 T02220194 51017=
202009251352 METAR KATL 251352Z 24008KT 10SM FEW008 SCT014 OVC026 21/19 A2999 RMK AO2 RAB14E49 SLP150 BINOVC P0000 T02110189=
202009251252 METAR KATL 251252Z 23005KT 10SM BKN009 BKN014 OVC040 22/20 A2998 RMK AO2 SLP144 BINOVC T02170200=
202009251250 SPECI KATL 251250Z 22005KT 10SM BKN009 BKN014 OVC040 21/20 A2998 RMK AO2 BINOVC=
202009251152 METAR KATL 251152Z 00000KT 7SM SCT007 BKN012 BKN040 21/20 A2995 RMK AO2 DZE03 SLP137 P0000 60001 70099 T02110200 10217 20211 53014=
202009251149 SPECI KATL 251149Z 00000KT 7SM SCT007 BKN012 BKN040 21/20 A2995 RMK AO2 DZE03 P0000=
202009251052 METAR KATL 251052Z 23004KT 7SM -DZ FEW005 BKN008 BKN012 21/20 A2994 RMK AO2 SLP131 RAE0954DZB0954 P0001 T02110200=
202009250952 METAR KATL 250952Z 19006KT 7SM -RA BKN005 OVC014 22/21 A2992 RMK AO2 RAB44 SLP125 CIG 004V007 P0000 T02170206=
202009250852 METAR KATL 250852Z 20006KT 10SM BKN007 OVC012 22/20 A2991 RMK AO2 SLP122 60000 T02170200 53001=
202009250752 METAR KATL 250752Z 19009KT 7SM BKN005 BKN010 21/20 A2990 RMK AO2 SLP119 DZE15 P0000 T02110200=
202009250652 METAR KATL 250652Z 18009KT 2SM -DZ BR BKN005 OVC010 21/20 A2990 RMK AO2 SFC VIS 4 SLP119 DZB35 CIG 004V006 P0000 T02110200=
202009250552 METAR KATL 250552Z 16011G18KT 2SM BKN005 OVC010 21/20 A2991 RMK AO2 SFC VIS 7 RAE31 SLP121 CIG 004V006 P0000 60009 T02110200 10211 20194 58005=
202009250526 SPECI KATL 250526Z 15008KT 2SM -RA BR OVC004 21/20 A2991 RMK AO2 SFC VIS 6 P0000 T02110200=
202009250452 METAR KATL 250452Z 15009G19KT 2SM -RA BR OVC005 21/19 A2991 RMK AO2 SFC VIS 6 SLP123 CIG 004V007 P0001 T02060194 402060178=
202009250352 METAR KATL 250352Z 13010KT 2SM -RA BKN006 OVC015 21/19 A2993 RMK AO2 SFC VIS 8 SLP128 P0002 T02060194=
202009250252 METAR KATL 250252Z 13009G19KT 2SM -RA BKN005 OVC015 20/19 A2992 RMK AO2 SFC VIS 8 SLP126 P0000 60006 T02000189 56002=
202009250152 METAR KATL 250152Z 12010G18KT 2SM -RA BKN006 OVC018 20/19 A2993 RMK AO2 SFC VIS 8 SLP128 P0002 T02000189=
202009250052 METAR KATL 250052Z 11010KT 2SM -RA BR BKN006 OVC012 20/18 A2992 RMK AO2 SFC VIS 6 SLP126 P0004 T02000183=
202009242352 METAR KATL 242352Z 13010KT 2SM -RA BKN007 OVC018 19/18 A2993 RMK AO2 SFC VIS 8 SLP130 P0004 60053 T01940183 10194 20183 56007=
202009242252 METAR KATL 242252Z 10009KT 2SM RA BR BKN006 OVC015 19/18 A2993 RMK AO2 SFC VIS 3 SLP130 VIS LWR NW-NE P0018 T01940183=
202009242152 METAR KATL 242152Z 11010G19KT 2SM RA BR BKN006 OVC015 19/18 A2994 RMK AO2 SFC VIS 4 RAE2058B16 SLP133 P0014 T01940183=
202009242052 METAR KATL 242052Z 11011KT 2SM -RA BKN008 BKN017 OVC032 19/18 A2995 RMK AO2 SFC VIS 7 DZE41RAB41 SLP136 CIG 006V010 P0000 60017 T01940178 56020=
202009241952 METAR KATL 241952Z 11011KT 2SM -DZ BR BKN006 BKN018 OVC034 19/18 A2996 RMK AO2 SFC VIS 6 RAE10DZB10 SLP140 CIG 004V008 P0001 T01940178=
202009241852 METAR KATL 241852Z 09011KT 2SM R09R/5500VP6000FT RA BR BKN006 BKN018 OVC036 19/18 A2997 RMK AO2 SFC VIS 3 SLP143 CIG 004V008 P0016 T01940183=
202009241752 METAR KATL 241752Z 11005KT 2SM R09R/4000VP6000FT +RA BR BKN007 BKN014 OVC034 18/17 A3001 RMK AO2 SLP158 CIG 005V009 P0015 60036 T01830172 10194 20178 58004 $=
202009241737 SPECI KATL 241737Z 09007KT 040V110 2SM R09R/6000VP6000FT RA BR BKN008 BKN015 OVC032 19/17 A3001 RMK AO2 SFC VIS 3 CIG 007V010 P0007 T01890172 $=
202009241708 SPECI KATL 241708Z 11008KT 3SM -RA BR BKN008 OVC014 19/17 A3002 RMK AO2 SFC VIS 5 CIG 007V010 P0002 T01890172=
202009241652 METAR KATL 241652Z 09010KT 3SM RA BR FEW007 BKN016 OVC024 19/17 A3002 RMK AO2 SFC VIS 4 SLP158 P0010 T01890172=
202009241552 METAR KATL 241552Z 12006KT 3SM RA BR BKN021 BKN048 OVC070 18/17 A3005 RMK AO2 RAE19B36 SLP169 P0007 T01830167=
202009241508 SPECI KATL 241508Z 10006KT 7SM -RA BKN024 BKN045 OVC060 19/17 A3004 RMK AO2 P0003 T01890167=
202009241452 METAR KATL 241452Z 10007KT 5SM -RA BR FEW028 SCT055 OVC085 18/16 A3002 RMK AO2 RAB28 SLP160 P0004 60004 T01830161 50002=
202009241352 METAR KATL 241352Z 12006KT 10SM FEW001 FEW048 BKN075 OVC130 19/15 A3004 RMK AO2 SLP165 FU FEW001 T01940150=
202009241252 METAR KATL 241252Z 12007KT 10SM FEW055 BKN075 BKN090 OVC250 18/15 A3003 RMK AO2 SLP163 T01830150=
202009241152 METAR KATL 241152Z 14005KT 10SM FEW043 BKN080 BKN110 OVC250 18/15 A3002 RMK AO2 SLP159 BINOVC T01780150 10194 20178 53002=
202009241052 METAR KATL 241052Z 12007KT 10SM FEW110 SCT130 BKN200 BKN250 18/15 A2999 RMK AO2 SLP150 T01780150=
202009240952 METAR KATL 240952Z 11007KT 10SM SCT120 BKN180 BKN250 18/16 A3000 RMK AO2 SLP153 T01830156=
202009240852 METAR KATL 240852Z 07005KT 10SM BKN120 BKN160 BKN200 19/16 A3001 RMK AO2 SLP156 T01890156 56004=
202009240752 METAR KATL 240752Z 00000KT 10SM SCT120 BKN180 OVC250 18/16 A3001 RMK AO2 SLP156 T01830156=
202009240652 METAR KATL 240652Z 13003KT 10SM SCT110 BKN160 OVC250 19/16 A3002 RMK AO2 SLP158 T01890156=
202009240552 METAR KATL 240552Z VRB03KT 10SM BKN110 BKN150 OVC200 19/16 A3002 RMK AO2 SLP160 T01940156 10222 20194 58007=
202009240452 METAR KATL 240452Z 09004KT 10SM SCT110 BKN150 OVC200 20/16 A3003 RMK AO2 SLP162 T02000156 402500161=
202009240352 METAR KATL 240352Z 15003KT 10SM BKN150 BKN200 OVC250 19/15 A3005 RMK AO2 SLP168 T01940150=
202009240252 METAR KATL 240252Z 12004KT 10SM SCT150 BKN200 BKN250 20/14 A3005 RMK AO2 SLP168 T02000144 55000=
202009240152 METAR KATL 240152Z 13003KT 10SM FEW110 BKN150 BKN200 BKN250 21/13 A3004 RMK AO2 SLP167 T02110133=
202009240052 METAR KATL 240052Z 06006KT 10SM FEW110 BKN150 BKN200 BKN250 22/11 A3004 RMK AO2 SLP165 T02220106=
202009232352 METAR KATL 232352Z 32005KT 10SM SCT110 BKN150 BKN200 BKN250 22/11 A3005 RMK AO2 SLP168 T02220111 10250 20217 51005=
202009232252 METAR KATL 232252Z 31004KT 10SM FEW090 BKN150 BKN200 BKN250 22/10 A3004 RMK AO2 SLP168 ACC DSNT W-NW T02220100=
202009232152 METAR KATL 232152Z 32008KT 10SM FEW090 SCT150 BKN200 BKN250 23/12 A3004 RMK AO2 SLP167 T02330117=
202009232052 METAR KATL 232052Z 29004KT 10SM FEW050 SCT150 BKN250 24/11 A3003 RMK AO2 SLP163 T02440111 56015=
202009231952 METAR KATL 231952Z 21007KT 10SM FEW040 SCT150 BKN250 24/12 A3004 RMK AO2 SLP165 T02390122=
202009231852 METAR KATL 231852Z VRB06KT 10SM FEW040 FEW120 BKN150 BKN250 23/13 A3006 RMK AO2 SLP172 T02330133=
202009231752 METAR KATL 231752Z 22005KT 10SM FEW044 SCT130 BKN170 22/11 A3008 RMK AO2 SLP179 T02220111 10233 20161 58013=
202009231652 METAR KATL 231652Z 30004KT 10SM FEW044 BKN150 23/12 A3010 RMK AO2 SLP188 T02280117=
202009231552 METAR KATL 231552Z 25006KT 10SM FEW040 BKN160 22/11 A3012 RMK AO2 SLP192 T02170111=
202009231452 METAR KATL 231452Z 25005KT 10SM BKN100 21/11 A3012 RMK AO2 SLP192 T02060111 51002=
202009231352 METAR KATL 231352Z 00000KT 10SM BKN100 21/11 A3012 RMK AO2 SLP192 T02060111=
202009231252 METAR KATL 231252Z 00000KT 10SM SCT110 BKN150 BKN200 BKN250 18/13 A3012 RMK A02 SLP193 ACC NE T01830128=
202009231152 METAR KATL 231152Z 00000KT 10SM SCT110 SCT200 BKN250 16/13 A3011 RMK A02 SLP192 ACC NE T01610128 10172 20161 51008=
202009231052 METAR KATL 231052Z 32003KT 10SM SCT100 BKN180 BKN250 17/13 A3011 RMK A02 SLP190 T01670128=
202009230952 METAR KATL 230952Z 00000KT 10SM FEW085 SCT120 SCT150 BKN200 BKN250 17/13 A3010 RMK A02 SLP187 T01670133=
202009230852 METAR KATL 230852Z 29003KT 10SM FEW120 SCT150 BKN200 BKN250 16/13 A3008 RMK A02 SLP182 T01610133 56006=
202009230752 METAR KATL 230752Z 32004KT 10SM SCT120 SCT150 SCT200 BKN250 17/13 A3009 RMK AO2 SLP183 T01670128=
202009230652 METAR KATL 230652Z 27003KT 10SM SCT110 BKN150 BKN200 17/13 A3010 RMK AO2 SLP188 T01670133=
202009230552 METAR KATL 230552Z 00000KT 10SM SCT120 BKN150 BKN200 17/13 A3010 RMK AO2 SLP189 T01720133 10194 20172 58012=
202009230452 METAR KATL 230452Z 00000KT 10SM FEW100 BKN150 OVC200 18/13 A3012 RMK AO2 SLP195 T01780128 402170106=
202009230352 METAR KATL 230352Z 00000KT 10SM BKN095 BKN150 OVC200 18/12 A3013 RMK AO2 SLP198 T01830122=
202009230252 METAR KATL 230252Z 30003KT 10SM FEW100 BKN150 BKN200 18/13 A3014 RMK AO2 SLP203 T01780128 50000=
202009230152 METAR KATL 230152Z 30004KT 10SM BKN150 BKN200 BKN250 18/11 A3015 RMK AO2 SLP205 T01830111=
202009230052 METAR KATL 230052Z 00000KT 10SM BKN150 BKN200 BKN250 18/11 A3014 RMK AO2 SLP204 T01830106=
202009222352 METAR KATL 222352Z 27004KT 10SM BKN140 BKN180 BKN250 19/11 A3014 RMK AO2 SLP204 VIRGA E-OHD-NW T01890106 10217 20189 56008=
202009222252 METAR KATL 222252Z 26004KT 10SM BKN150 BKN180 BKN250 19/11 A3014 RMK AO2 SLP206 VIRGA SE-SW-W T01940106=
202009222152 METAR KATL 222152Z 29005KT 10SM FEW050 SCT150 BKN180 BKN250 21/10 A3016 RMK AO2 SLP208 VIRGA S-W T02060100=
202009222052 METAR KATL 222052Z 29006KT 10SM FEW050 FEW150 BKN180 BKN250 21/11 A3016 RMK AO2 SLP211 ACC S-W T02110106 56025=
202009221952 METAR KATL 221952Z 00000KT 10SM FEW046 FEW150 BKN180 BKN250 21/10 A3017 RMK AO2 SLP214 VIRGA DSNT S-SW ACC DSNT SW-W T02060100=
202009221852 METAR KATL 221852Z 10003KT 10SM FEW044 FEW150 BKN200 BKN250 21/11 A3020 RMK AO2 SLP225 ACC DSNT SW-W T02060111=
202009221752 METAR KATL 221752Z 31005KT 10SM FEW042 FEW150 SCT180 BKN250 19/09 A3024 RMK AO2 SLP237 ACC DSNT S-W T01890094 10194 20111 58023=
202009221652 METAR KATL 221652Z 07006KT 10SM FEW038 SCT180 BKN250 18/09 A3027 RMK AO2 SLP248 T01830094=
202009221552 METAR KATL 221552Z 09008KT 10SM FEW036 SCT200 BKN250 18/09 A3030 RMK AO2 SLP257 T01780094=
202009221452 METAR KATL 221452Z 10011KT 10SM FEW030 SCT200 BKN250 16/08 A3031 RMK AO2 SLP262 T01560083 51005=
202009221352 METAR KATL 221352Z 09008KT 10SM SCT200 BKN250 15/09 A3031 RMK AO2 SLP261 T01500089=
202009221252 METAR KATL 221252Z 08010KT 10SM FEW200 SCT250 13/09 A3031 RMK AO2 SLP261 T01280089=
202009221152 METAR KATL 221152Z 08007KT 10SM FEW200 SCT250 11/09 A3029 RMK AO2 SLP257 T01110089 10133 20106 53009=
202009221052 METAR KATL 221052Z 08009KT 10SM FEW200 11/09 A3028 RMK AO2 SLP253 T01110089=
202009220952 METAR KATL 220952Z 08009KT 10SM FEW200 11/09 A3027 RMK AO2 SLP248 T01110089=
202009220852 METAR KATL 220852Z 09008KT 10SM FEW200 12/09 A3027 RMK AO2 SLP246 T01170089 58010=
202009220752 METAR KATL 220752Z 08009KT 10SM FEW200 13/09 A3028 RMK AO2 SLP250 T01280089=
202009220652 METAR KATL 220652Z 08008KT 10SM FEW200 13/09 A3029 RMK AO2 SLP253 T01280089=
202009220552 METAR KATL 220552Z 08008KT 10SM FEW250 13/09 A3030 RMK AO2 SLP256 T01330089 10172 20128 58004=
202009220452 METAR KATL 220452Z 08007KT 10SM FEW250 14/08 A3031 RMK AO2 SLP260 T01390083 402220117=
202009220352 METAR KATL 220352Z 08007KT 10SM SCT250 14/08 A3030 RMK AO2 SLP259 T01440083=
202009220252 METAR KATL 220252Z 09008KT 10SM FEW250 14/08 A3031 RMK AO2 SLP262 T01440083 50003=
202009220152 METAR KATL 220152Z 09009KT 10SM FEW250 16/08 A3032 RMK AO2 SLP266 T01560083=
202009220052 METAR KATL 220052Z 08011KT 10SM FEW200 SCT250 17/08 A3031 RMK AO2 SLP263 T01670078=
202009212352 METAR KATL 212352Z 09009KT 10SM FEW200 SCT250 17/08 A3030 RMK AO2 SLP260 T01720078 10222 20172 53004=
202009212252 METAR KATL 212252Z 08013KT 10SM FEW200 SCT250 19/07 A3030 RMK AO2 SLP256 T01940067=
202009212152 METAR KATL 212152Z 08013KT 10SM SCT200 SCT250 21/06 A3029 RMK AO2 SLP253 T02110061=
202009212052 METAR KATL 212052Z 08014G19KT 10SM SCT200 SCT250 22/06 A3029 RMK AO2 SLP254 T02170061 56022=
202009211952 METAR KATL 211952Z 08016G20KT 10SM SCT200 SCT250 22/06 A3030 RMK AO2 SLP257 T02170056=
202009211852 METAR KATL 211852Z 08013KT 10SM SCT200 SCT250 21/05 A3032 RMK AO2 SLP265 T02110050=
202009211752 METAR KATL 211752Z 10011KT 10SM SCT200 SCT250 21/07 A3036 RMK AO2 SLP277 T02060067 10206 20122 58013=
202009211652 METAR KATL 211652Z 06014G23KT 10SM SCT200 19/06 A3038 RMK AO2 PK WND 06027/1604 SLP284 T01890061=
202009211552 METAR KATL 211552Z 09013G22KT 10SM SCT200 SCT250 18/07 A3040 RMK AO2 PK WND 10033/1459 SLP289 T01830067=
202009211452 METAR KATL 211452Z 08020G28KT 10SM FEW032 SCT200 SCT250 17/07 A3040 RMK AO2 PK WND 07029/1415 SLP291 T01720072 50006=
202009211352 METAR KATL 211352Z 09016G26KT 10SM FEW020 SCT200 SCT250 15/08 A3040 RMK AO2 PK WND 08026/1344 SLP292 T01500083=
202009211252 METAR KATL 211252Z 07017G23KT 10SM FEW200 SCT250 13/08 A3039 RMK AO2 SLP290 T01330083=
202009211152 METAR KATL 211152Z 08012KT 10SM FEW038 FEW200 SCT250 12/08 A3038 RMK AO2 SLP285 T01220083 10150 20117 52015=
202009211052 METAR KATL 211052Z 07009KT 10SM FEW038 FEW250 12/08 A3036 RMK AO2 SLP278 T01220083=
202009210952 METAR KATL 210952Z 08011KT 10SM FEW250 13/08 A3035 RMK AO2 SLP274 T01280083=
202009210852 METAR KATL 210852Z 08013KT 10SM FEW250 13/08 A3033 RMK AO2 SLP268 T01330083 51001=
202009210752 METAR KATL 210752Z 08013KT 10SM FEW250 14/08 A3033 RMK AO2 PK WND 08027/0734 SLP267 T01390083=
202009210652 METAR KATL 210652Z 08016KT 10SM FEW250 14/08 A3033 RMK AO2 PK WND 07026/0553 SLP268 T01440083 $=
202009210552 METAR KATL 210552Z 08016KT 10SM FEW250 15/08 A3033 RMK AO2 SLP267 T01500083 10189 20150 50005 $=
202009210452 METAR KATL 210452Z 08015G23KT 10SM FEW250 16/09 A3033 RMK AO2 SLP268 T01560094 402220128 $=
202009210352 METAR KATL 210352Z 09015KT 10SM FEW250 16/10 A3033 RMK AO2 SLP268 T01610100 $=
202009210252 METAR KATL 210252Z 08015KT 10SM FEW250 16/10 A3031 RMK AO2 SLP262 T01610100 51014 $=
202009210152 METAR KATL 210152Z 07011KT 10SM FEW250 17/11 A3031 RMK AO2 SLP263 T01670106 $=
202009210052 METAR KATL 210052Z 07010KT 10SM FEW200 FEW250 18/10 A3029 RMK AO2 SLP256 T01780100 $=
202009202352 METAR KATL 202352Z 08010KT 10SM FEW200 FEW250 19/09 A3027 RMK AO2 SLP248 T01890089 10222 20189 53008 $=
202009202252 METAR KATL 202252Z 08013KT 10SM FEW250 20/08 A3026 RMK AO2 SLP245 T02000083 $=
202009202152 METAR KATL 202152Z 09011KT 10SM FEW250 22/09 A3025 RMK AO2 SLP240 T02170089 $=
202009202052 METAR KATL 202052Z 05013KT 10SM FEW200 22/08 A3025 RMK AO2 SLP237 T02170083 56013 $=
202009201952 METAR KATL 201952Z 07014KT 10SM FEW250 22/08 A3025 RMK AO2 SLP239 T02170078 $=
202009201852 METAR KATL 201852Z 07014G18KT 10SM FEW250 21/09 A3027 RMK AO2 SLP244 T02110089 $=
202009201752 METAR KATL 201752Z 06013G21KT 10SM FEW250 20/09 A3028 RMK AO2 SLP251 T02000089 10206 20128 58007 $=
202009201652 METAR KATL 201652Z 09013KT 10SM FEW250 19/09 A3030 RMK AO2 SLP256 T01940094 $=
202009201552 METAR KATL 201552Z 08014G22KT 10SM SCT250 18/08 A3032 RMK AO2 PK WND 08026/1459 SLP262 T01780083 $=
202009201452 METAR KATL 201452Z 08017G23KT 10SM BKN250 17/08 A3031 RMK AO2 SLP259 T01670083 51012 $=
202009201352 METAR KATL 201352Z 07016KT 10SM SCT150 BKN250 14/08 A3030 RMK AO2 SLP257 T01440078 $=
202009201252 METAR KATL 201252Z 07015KT 10SM FEW180 SCT250 14/08 A3029 RMK AO2 SLP254 T01390078=
202009201152 METAR KATL 201152Z 07013KT 10SM BKN250 13/07 A3027 RMK AO2 SLP248 T01280072 10161 20128 53012=
202009201052 METAR KATL 201052Z 07016KT 10SM BKN250 13/07 A3026 RMK AO2 SLP243 T01330072=
202009200952 METAR KATL 200952Z 08016KT 10SM FEW040 BKN250 14/07 A3024 RMK AO2 SLP237 T01390072=
202009200852 METAR KATL 200852Z 08017KT 10SM FEW040 BKN250 14/08 A3023 RMK AO2 SLP234 T01440078 58003=
202009200752 METAR KATL 200752Z 08012KT 10SM FEW040 BKN250 15/09 A3024 RMK AO2 SLP234 T01500094=
202009200652 METAR KATL 200652Z 09010KT 10SM FEW040 BKN250 16/11 A3025 RMK AO2 SLP238 T01560106=
202009200552 METAR KATL 200552Z 09012KT 10SM FEW040 BKN250 16/11 A3024 RMK AO2 SLP236 T01610111 10189 20161 50004=
202009200452 METAR KATL 200452Z 09012KT 10SM FEW040 OVC250 17/11 A3025 RMK AO2 SLP238 T01670111 402170167=
202009200352 METAR KATL 200352Z 10011G21KT 10SM OVC250 17/12 A3024 RMK AO2 SLP234 T01720117=
202009200252 METAR KATL 200252Z 09009KT 10SM SCT200 BKN230 OVC250 17/13 A3023 RMK AO2 SLP232 T01720128 51014=
202009200152 METAR KATL 200152Z 09009KT 10SM SCT200 BKN230 OVC250 18/13 A3022 RMK AO2 SLP229 T01830128=
202009200052 METAR KATL 200052Z 08008KT 10SM FEW160 BKN200 OVC250 19/13 A3020 RMK AO2 SLP222 T01890133=
202009192352 METAR KATL 192352Z 09009KT 10SM FEW160 BKN200 OVC250 19/13 A3019 RMK AO2 SLP216 T01890133 10211 20189 53013=
202009192252 METAR KATL 192252Z 07010KT 10SM FEW028 SCT180 BKN210 OVC250 20/13 A3017 RMK AO2 SLP210 T02000133=
202009192152 METAR KATL 192152Z 08010KT 10SM FEW028 BKN220 OVC250 21/13 A3016 RMK AO2 SLP206 T02060133=
202009192052 METAR KATL 192052Z 08011KT 10SM FEW030 OVC200 21/14 A3015 RMK AO2 SLP203 T02060139 56016=
202009191952 METAR KATL 191952Z 08011KT 10SM FEW031 OVC200 21/13 A3016 RMK AO2 SLP204 T02110133=
202009191852 METAR KATL 191852Z 09011KT 10SM FEW030 OVC200 21/13 A3017 RMK AO2 SLP211 T02060133=
202009191752 METAR KATL 191752Z 08010KT 10SM OVC180 21/13 A3020 RMK AO2 SLP218 T02060128 10211 20189 53001=
202009191652 METAR KATL 191652Z 07014KT 10SM OVC200 21/13 A3019 RMK AO2 SLP217 T02060128=
202009191552 METAR KATL 191552Z 07014KT 10SM FEW029 OVC200 21/13 A3019 RMK AO2 PK WND 08027/1526 SLP217 T02060133 $=
202009191452 METAR KATL 191452Z 09014KT 10SM OVC200 19/13 A3019 RMK AO2 SLP217 T01940133 51018=
202009191352 METAR KATL 191352Z 09013G21KT 10SM OVC200 19/13 A3018 RMK AO2 SLP212 T01940133=
202009191252 METAR KATL 191252Z 08013KT 10SM SCT060 SCT150 OVC200 19/13 A3016 RMK AO2 SLP205 T01940133=
202009191152 METAR KATL 191152Z 08013G20KT 10SM SCT050 SCT150 OVC200 19/14 A3014 RMK AO2 SLP199 T01940139 10217 20194 53023=
202009191052 METAR KATL 191052Z 08011KT 10SM FEW030 SCT150 OVC200 19/14 A3011 RMK AO2 SLP188 T01940139=
202009190952 METAR KATL 190952Z 08014KT 10SM FEW030 BKN044 OVC150 20/14 A3008 RMK AO2 SLP177 T02000144=
202009190852 METAR KATL 190852Z 09011KT 10SM SCT030 BKN044 BKN060 OVC150 21/14 A3007 RMK AO2 SLP173 T02060144 53003=
202009190752 METAR KATL 190752Z 10009KT 10SM FEW023 BKN032 OVC038 21/16 A3006 RMK AO2 SLP171 T02110156=
202009190735 SPECI KATL 190735Z 09010G18KT 10SM FEW016 SCT025 BKN032 OVC200 22/17 A3006 RMK AO2 T02170172=
202009190718 SPECI KATL 190718Z 07009KT 10SM FEW016 BKN024 OVC032 22/18 A3006 RMK AO2 T02170178=
202009190652 METAR KATL 190652Z 05005KT 10SM FEW016 BKN032 OVC200 22/17 A3006 RMK AO2 SLP169 T02170172=
202009190552 METAR KATL 190552Z 02004KT 10SM FEW042 BKN060 OVC200 21/16 A3006 RMK AO2 SLP169 T02110161 10239 20206 51002=
202009190452 METAR KATL 190452Z 01006KT 10SM SCT045 BKN060 OVC200 21/16 A3006 RMK AO2 SLP169 T02110161 402830194=
202009190352 METAR KATL 190352Z 35006KT 10SM SCT060 BKN180 OVC250 22/16 A3006 RMK AO2 SLP170 T02170161=
202009190252 METAR KATL 190252Z 35007KT 10SM BKN180 OVC250 22/17 A3005 RMK AO2 SLP168 T02220167 51014=
202009190152 METAR KATL 190152Z 34006KT 10SM FEW038 BKN200 OVC250 22/18 A3004 RMK AO2 SLP165 T02220178=
202009190052 METAR KATL 190052Z 34007KT 10SM BKN038 BKN200 OVC250 23/18 A3002 RMK AO2 SLP159 T02280178=
202009182352 METAR KATL 182352Z 34007KT 10SM BKN040 BKN200 OVC250 24/17 A3001 RMK AO2 SLP154 T02390172 10283 20239 53019=
202009182252 METAR KATL 182252Z 32010KT 10SM SCT040TCU BKN055 BKN200 OVC250 25/18 A2998 RMK AO2 SLP145 TCU NE-OHD-S T02500183=
202009182152 METAR KATL 182152Z 33008KT 10SM SCT040TCU BKN055 BKN200 OVC250 26/19 A2996 RMK AO2 SLP138 TCU NE-OHD-SW T02610189=
202009182052 METAR KATL 182052Z 32008KT 10SM SCT040 BKN200 OVC250 27/18 A2995 RMK AO2 SLP132 MDT CU SE T02720178 56006=
202009181952 METAR KATL 181952Z 33009KT 10SM SCT036 BKN200 BKN250 27/18 A2995 RMK AO2 SLP133 MDT CU N-E-S-SW T02720178=
202009181852 METAR KATL 181852Z 32010KT 10SM SCT033 BKN200 BKN250 27/19 A2996 RMK AO2 SLP135 MDT CU ALQDS T02720189=
202009181752 METAR KATL 181752Z 36005KT 10SM SCT026 BKN200 BKN250 27/19 A2997 RMK AO2 SLP139 MDT CU ALQDS T02670189 10267 20194 50000=
202009181652 METAR KATL 181652Z 33006KT 10SM SCT020 BKN200 BKN250 26/19 A2998 RMK AO2 SLP142 MDT CU E-S T02560194=
202009181552 METAR KATL 181552Z 33007KT 10SM SCT018 SCT110 BKN200 BKN250 24/19 A2998 RMK AO2 SLP144 T02390194=
202009181452 METAR KATL 181452Z 36007KT 10SM FEW014 FEW100 BKN200 OVC250 23/19 A2997 RMK AO2 SLP140 T02330194 51021=
202009181352 METAR KATL 181352Z 32006KT 10SM FEW008 FEW075 BKN200 OVC250 21/19 A2995 RMK AO2 SLP134 T02110189=
202009181252 METAR KATL 181252Z 32004KT 10SM FEW007 FEW070 SCT200 OVC250 20/18 A2993 RMK AO2 SLP127 T02000183=
202009181152 METAR KATL 181152Z 34005KT 10SM FEW005 SCT070 BKN250 19/18 A2991 RMK AO2 SLP119 70010 T01940183 10206 20194 53018=
202009181052 METAR KATL 181052Z 35007KT 10SM FEW005 SCT070 BKN250 19/18 A2988 RMK AO2 SLP111 T01940183=
202009180952 METAR KATL 180952Z 34005KT 10SM FEW006 SCT070 BKN240 19/18 A2987 RMK AO2 SLP106 T01940183=
202009180852 METAR KATL 180852Z 32007KT 10SM SCT060 SCT200 BKN240 20/19 A2985 RMK AO2 SLP101 T02000189 53004=
202009180752 METAR KATL 180752Z 32010KT 10SM BKN060 BKN250 20/19 A2985 RMK AO2 SLP099 T02000189=
202009180652 METAR KATL 180652Z 33008KT 10SM BKN200 BKN250 21/19 A2984 RMK AO2 SLP096 T02060189=
202009180552 METAR KATL 180552Z 31005KT 10SM FEW070 SCT180 BKN250 21/19 A2984 RMK AO2 SLP097 60000 T02060189 10222 20206 51004=
202009180452 METAR KATL 180452Z 31006KT 10SM FEW070 SCT180 BKN250 21/19 A2984 RMK AO2 SLP096 T02060194 402390194=
202009180352 METAR KATL 180352Z 28004KT 10SM BKN070 21/19 A2984 RMK AO2 SLP096 T02060194=
202009180252 METAR KATL 180252Z VRB03KT 10SM BKN070 21/20 A2983 RMK AO2 SLP093 60000 T02110200 50009=
202009180152 METAR KATL 180152Z 27004KT 10SM FEW003 SCT040 BKN065 22/21 A2983 RMK AO2 SLP094 T02170206=
202009180052 METAR KATL 180052Z 33004KT 10SM SCT024 BKN030 BKN050 22/20 A2982 RMK AO2 RAE52 SLP089 P0000 T02220200=
202009172352 METAR KATL 172352Z 36006KT 5SM -RA BR FEW013 BKN032 OVC050 22/21 A2980 RMK AO2 RAE2259B22 SLP084 VIS LWR NW-NE P0002 60007 T02220206 10239 20217 53011=
202009172343 SPECI KATL 172343Z 35006KT 4SM -RA BR FEW013 BKN032 OVC050 22/21 A2980 RMK AO2 RAE2259B22 P0001 T02220206=
202009172336 SPECI KATL 172336Z 36007KT 2 1/2SM -RA BR FEW013 BKN032 OVC050 22/21 A2980 RMK AO2 RAE2259B22 P0001 T02220206=
202009172252 METAR KATL 172252Z 35007KT 9SM -RA FEW013 BKN055 OVC200 23/21 A2979 RMK AO2 RAB47 SLP079 P0000 T02280206=
202009172215 SPECI KATL 172215Z 02011G17KT 10SM FEW013 SCT025 BKN050 BKN200 24/20 A2978 RMK AO2 T02390200=
202009172152 METAR KATL 172152Z 35009KT 10SM SCT013 BKN025 BKN050 BKN200 23/20 A2977 RMK AO2 RAE16 SLP075 P0000 T02330200=
202009172052 METAR KATL 172052Z 02013G19KT 8SM -RA SCT011 BKN018 BKN036 23/21 A2977 RMK AO2 SLP072 PCPN VRY LGT P0001 60005 T02330206 56001=
202009172049 SPECI KATL 172049Z 02009G19KT 8SM -RA SCT011 BKN018 BKN036 24/21 A2977 RMK AO2 PCPN VRY LGT P0001=
202009171952 METAR KATL 171952Z 01009KT 2SM -RA BR BKN011 BKN020 OVC032 22/21 A2977 RMK AO2 SFC VIS 3 DZE18RAB18 SLP073 CIG 009V013 P0002 T02220206=
202009171852 METAR KATL 171852Z 03009G21KT 2SM -DZ BR BKN008 BKN014 OVC044 22/21 A2976 RMK AO2 SFC VIS 5 RAE37DZB37 SLP071 CIG 006V010 P0002 T02220206=
202009171752 METAR KATL 171752Z 03011KT 2SM -RA BR BKN008 OVC013 22/20 A2977 RMK AO2 SFC VIS 3 RAB30 SLP074 CIG 007V010 P0000 60003 T02170200 10222 20200 50001=
202009171748 SPECI KATL 171748Z 03013KT 2SM -RA BR SCT008 BKN012 OVC020 22/19 A2977 RMK AO2 SFC VIS 3 RAB30 CIG 010V014 P0000=
202009171735 SPECI KATL 171735Z 03012KT 3SM -RA BR OVC012 22/19 A2977 RMK AO2 SFC VIS 4 RAB30 CIG 010V014 P0000 T02170194=
202009171652 METAR KATL 171652Z 05015G28KT 10SM OVC014 22/19 A2977 RMK AO2 PK WND 04028/1644 RAE49 SLP073 CIG 012V016 P0000 T02220189=
202009171552 METAR KATL 171552Z 04018G25KT 7SM -RA OVC011 22/19 A2977 RMK AO2 PK WND 06030/1517 DZE49RAB49 SLP072 CIG 009V013 P0000 T02170194=
202009171452 METAR KATL 171452Z 05021G27KT 8SM -DZ BKN010 BKN016 OVC024 21/19 A2977 RMK AO2 PK WND 05030/1412 SLP074 CIG 009V012 P0000 60003 T02110189 53009=
202009171352 METAR KATL 171352Z 05018G26KT 5SM -DZ BR BKN008 BKN016 OVC022 21/19 A2975 RMK AO2 PK WND 06028/1328 SLP069 DZB42 CIG 006V010 P0000 T02060189=
202009171252 METAR KATL 171252Z 05016G28KT 6SM -RA BR BKN009 OVC013 20/18 A2975 RMK AO2 PK WND 04034/1215 SLP069 P0003 T02000183=
202009171152 METAR KATL 171152Z 05020G27KT 5SM -RA BR BKN009 BKN013 OVC022 20/18 A2974 RMK AO2 PK WND 05034/1107 SLP065 P0006 60237 70389 T02000183 10200 20194 55011=
202009171052 METAR KATL 171052Z 05020G28KT 3SM +RA BR BKN008 BKN012 OVC023 20/18 A2974 RMK AO2 PK WND 05029/1003 SLP062 P0029 T02000183=
202009170952 METAR KATL 170952Z 04019G28KT 3SM +RA BR BKN008 BKN013 OVC030 19/18 A2974 RMK AO2 PK WND 06031/0927 SLP065 P0027 T01940183=
202009170852 METAR KATL 170852Z 05016G25KT 5SM RA BR BKN008 BKN014 OVC026 20/18 A2978 RMK AO2 PK WND 05026/0753 SLP076 P0055 60175 T02000183 56025=
202009170837 SPECI KATL 170837Z 05018G24KT 3SM RA BR BKN008 BKN014 OVC026 20/18 A2978 RMK AO2 PK WND 05026/0753 PRESFR P0050 T02000183=
202009170752 METAR KATL 170752Z 05019G28KT 2SM +RA BR BKN007 OVC014 19/18 A2980 RMK AO2 PK WND 06030/0656 SLP085 P0070 T01940183=
202009170709 SPECI KATL 170709Z 05019G30KT 2 1/2SM R09R/5000VP6000FT +RA BR BKN007 OVC012 19/18 A2980 RMK AO2 PK WND 06030/0656 PRESFR P0019 T01940183=
202009170652 METAR KATL 170652Z 05017G29KT 3SM +RA BR BKN007 BKN011 OVC025 19/18 A2981 RMK AO2 PK WND 07034/0608 SLP090 P0050 T01940183=
202009170552 METAR KATL 170552Z 06018G30KT 3SM +RA BR BKN006 OVC011 19/18 A2985 RMK AO2 PK WND 06030/0545 SLP103 P0034 60098 T01940183 10200 20194 58031=
202009170452 METAR KATL 170452Z 06018G25KT 4SM RA BR OVC008 20/18 A2989 RMK AO2 PK WND 06033/0436 SLP117 CIG 006V010 P0027 T02000183 402060172=
202009170352 METAR KATL 170352Z 07017G27KT 5SM RA BR OVC007 20/18 A2993 RMK AO2 PK WND 07029/0312 SLP129 CIG 005V009 P0019 T02000183=
202009170252 METAR KATL 170252Z 07018KT 7SM -RA OVC006 20/18 A2995 RMK AO2 PK WND 06031/0231 SLP135 P0003 60018 T02000183 58006=
202009170152 METAR KATL 170152Z 08018KT 7SM -RA OVC006 19/18 A2996 RMK AO2 PK WND 08026/0102 SLP139 P0006 T01940183=
202009170052 METAR KATL 170052Z 08018G27KT 7SM -RA OVC008 19/18 A2997 RMK AO2 PK WND 08027/0011 SLP142 CIG 006V010 P0009 T01940178=
202009162352 METAR KATL 162352Z 07017KT 7SM RA OVC008 19/18 A2997 RMK AO2 SLP141 CIG 006V010 P0007 60037 T01940178 10194 20183 57012=
202009162252 METAR KATL 162252Z 07017KT 6SM -RA BR OVC007 19/18 A2998 RMK AO2 SLP145 CIG 005V009 P0007 T01890178=
202009162152 METAR KATL 162152Z 08013KT 7SM -RA OVC007 19/18 A2999 RMK AO2 SLP148 CIG 005V009 P0002 T01890178=
202009162052 METAR KATL 162052Z 08011KT 6SM -RA BR BKN007 OVC011 19/18 A3000 RMK AO2 SLP152 CIG 005V009 P0003 60021 T01890178 58014=
202009161952 METAR KATL 161952Z 09012KT 6SM -RA BR BKN007 OVC012 18/17 A3002 RMK AO2 SLP161 CIG 005V009 P0018 T01830172=
202009161852 METAR KATL 161852Z 09012KT 4SM RA BR BKN006 OVC012 18/17 A3004 RMK AO2 DZB35E50 SLP166 CIG 004V008 P0000 T01830172=
202009161752 METAR KATL 161752Z 08012KT 6SM -RA BR BKN007 OVC012 18/17 A3004 RMK AO2 SLP167 CIG 005V009 P0000 60017 T01830167 10189 20172 58013=
202009161652 METAR KATL 161652Z 07013KT 6SM -RA BR BKN008 OVC016 18/16 A3006 RMK AO2 SLP174 CIG 006V010 P0003 T01780161=
202009161640 SPECI KATL 161640Z 07012KT 6SM -RA BR BKN008 OVC014 18/16 A3007 RMK AO2 CIG 006V010 P0003 T01780161=
202009161552 METAR KATL 161552Z 07013KT 4SM -RA BR SCT006 OVC018 18/16 A3008 RMK AO2 SLP181 P0013 T01780161=
202009161527 SPECI KATL 161527Z 07014KT 6SM -RA BR FEW008 BKN018 OVC040 18/16 A3009 RMK AO2 P0011 T01780161=
202009161503 SPECI KATL 161503Z 07013KT 2SM +RA BR FEW006 OVC018 17/16 A3008 RMK AO2 P0005 T01720156=
202009161452 METAR KATL 161452Z 08012KT 3SM -RA BR FEW007 BKN018 OVC044 17/16 A3008 RMK AO2 PK WND 07027/1400 SLP181 P0001 60001 T01720156 53001=
202009161352 METAR KATL 161352Z 07017G25KT 10SM -RA OVC023 18/14 A3007 RMK AO2 PK WND 08028/1307 RAB1253E28B48 SLP175 P0000 T01830144=
202009161252 METAR KATL 161252Z 07017KT 10SM OVC025 19/13 A3008 RMK AO2 RAB37E51 SLP179 P0000 T01890133=
202009161152 METAR KATL 161152Z 08014G22KT 10SM OVC024 19/14 A3008 RMK AO2 PK WND 06026/1123 SLP179 70019 T01890139 10206 20189 53001=
202009161052 METAR KATL 161052Z 07015G23KT 10SM OVC025 19/14 A3007 RMK AO2 PK WND 07026/1013 SLP177 T01940144=
202009160952 METAR KATL 160952Z 07016G23KT 10SM BKN028 OVC055 19/14 A3006 RMK AO2 SLP172 T01940144=
202009160930 SPECI KATL 160930Z 08014KT 10SM BKN029 OVC055 19/15 A3007 RMK AO2 T01940150=
202009160852 METAR KATL 160852Z 07014G24KT 10SM SCT055 SCT070 BKN150 OVC200 19/15 A3007 RMK AO2 SLP177 T01940150 58014=
202009160752 METAR KATL 160752Z 08015KT 10SM SCT065 BKN150 OVC200 20/16 A3009 RMK AO2 SLP182 T02000156=
202009160652 METAR KATL 160652Z 08014KT 10SM FEW070 BKN150 OVC200 20/16 A3011 RMK AO2 SLP189 T02000156=
202009160552 METAR KATL 160552Z 08016G24KT 10SM FEW070 BKN150 OVC200 21/16 A3012 RMK AO2 SLP191 T02060156 10217 20206 58006=
202009160452 METAR KATL 160452Z 09016KT 10SM BKN075 BKN200 21/16 A3012 RMK AO2 SLP194 T02110161 402500206=
202009160352 METAR KATL 160352Z 08013KT 10SM BKN080 21/16 A3013 RMK AO2 SLP197 T02110161=
202009160252 METAR KATL 160252Z 08013KT 10SM FEW100 BKN250 21/17 A3013 RMK AO2 SLP197 T02110167 50005=
202009160152 METAR KATL 160152Z 08011KT 10SM SCT140 BKN250 21/18 A3014 RMK AO2 SLP199 T02110178=
202009160052 METAR KATL 160052Z 07012KT 10SM SCT050 BKN200 21/17 A3013 RMK AO2 SLP196 T02110172=
202009152352 METAR KATL 152352Z 08012KT 10SM SCT050 OVC200 22/17 A3012 RMK AO2 SLP191 T02170167 10228 20206 55003=
202009152252 METAR KATL 152252Z 08011KT 10SM FEW026 FEW120 OVC200 22/17 A3012 RMK AO2 SLP191 T02170167=
202009152212 SPECI KATL 152212Z 08015KT 10SM SCT026 BKN150 OVC250 22/16 A3011 RMK AO2 T02220161=
202009152152 METAR KATL 152152Z 08013KT 10SM BKN025 OVC032 22/16 A3012 RMK AO2 SLP190 T02220161=
202009152052 METAR KATL 152052Z 06012KT 10SM OVC023 22/17 A3013 RMK AO2 SLP193 T02220167 58020=
202009151952 METAR KATL 151952Z 08014KT 10SM OVC020 22/16 A3015 RMK AO2 SLP202 T02170161=
202009151852 METAR KATL 151852Z 09013KT 10SM SCT016 OVC022 21/17 A3017 RMK AO2 SLP209 T02110167=
202009151752 METAR KATL 151752Z 09012G21KT 10SM OVC015 21/17 A3019 RMK AO2 PK WND 08026/1725 SLP215 60019 T02110172 10228 20206 50001=
202009151652 METAR KATL 151652Z 09017G25KT 10SM BKN015 OVC022 21/17 A3020 RMK AO2 PK WND 07027/1602 SLP218 CIG 013V017 T02060172=
202009151552 METAR KATL 151552Z 08019G26KT 10SM OVC011 21/18 A3020 RMK AO2 PK WND 08027/1511 SLP218 CIG 010V013 T02060178=
202009151540 SPECI KATL 151540Z 08015G27KT 10SM OVC010 21/18 A3020 RMK AO2 PK WND 08027/1511 CIG 009V012 T02060178=
202009151452 METAR KATL 151452Z 08018G26KT 10SM OVC008 21/18 A3019 RMK AO2 PK WND 07026/1450 DZB04E21 SLP213 CIG 007V010 P0000 60019 T02060183 51012=
202009151352 METAR KATL 151352Z 07016KT 8SM BKN008 OVC013 21/19 A3018 RMK AO2 RAE50 SLP210 CIG 007V010 P0005 T02110194=
202009151252 METAR KATL 151252Z 07017G22KT 4SM R09R/5500VP6000FT RA BR BKN006 OVC013 22/21 A3017 RMK AO2 SLP205 P0014 T02170206=
202009151221 SPECI KATL 151221Z 09014KT 3SM -RA BR BKN007 BKN012 OVC023 23/21 A3016 RMK AO2 CIG 006V009 P0002 T02280211=
202009151152 METAR KATL 151152Z 08018KT 6SM -RA BR SCT009 OVC012 23/21 A3015 RMK AO2 RAB30 SLP200 P0000 60000 T02280211 10244 20228 53008=
202009151052 METAR KATL 151052Z 08016KT 10SM FEW009 BKN012 OVC016 23/21 A3013 RMK AO2 RAB40E49 SLP191 P0000 T02330206=
202009151046 SPECI KATL 151046Z 08015KT 10SM -RA FEW009 BKN012 OVC016 23/21 A3013 RMK AO2 RAB40 P0000=
202009150952 METAR KATL 150952Z 08015KT 10SM OVC009 23/21 A3012 RMK AO2 SLP190 T02330211=
202009150949 SPECI KATL 150949Z 09014KT 10SM OVC009 23/21 A3012 RMK AO2=
202009150852 METAR KATL 150852Z 08018G24KT 10SM OVC010 24/21 A3011 RMK AO2 SLP186 T02390211 58006=
202009150752 METAR KATL 150752Z 09010KT 10SM OVC011 24/21 A3012 RMK AO2 SLP190 T02390211=
202009150726 SPECI KATL 150726Z 08012KT 10SM BKN014 BKN040 BKN065 BKN250 24/21 A3012 RMK AO2 T02390211=
202009150652 METAR KATL 150652Z 08010KT 10SM FEW014 BKN040 BKN065 BKN250 24/21 A3012 RMK AO2 SLP190 T02390206=
202009150552 METAR KATL 150552Z 08011KT 10SM SCT013 SCT039 BKN065 BKN250 24/21 A3013 RMK AO2 SLP193 T02440211 10278 20244 51005=
202009150452 METAR KATL 150452Z 07012KT 10SM SCT047 SCT080 BKN250 25/21 A3013 RMK AO2 SLP192 T02500211 403060233=
202009150352 METAR KATL 150352Z 05010KT 10SM FEW040 FEW060 SCT200 BKN250 26/22 A3013 RMK AO2 SLP190 T02560222=
202009150252 METAR KATL 150252Z 05008KT 10SM FEW060 SCT090 SCT110 BKN250 27/21 A3012 RMK AO2 SLP188 T02670211 51013=
202009150152 METAR KATL 150152Z 04008KT 10SM FEW030 SCT085 BKN110 BKN180 BKN250 28/21 A3011 RMK AO2 SLP186 T02780211=
202009150052 METAR KATL 150052Z 08006KT 10SM FEW030 SCT080 BKN110 BKN180 BKN250 28/21 A3009 RMK AO2 SLP180 T02780211=
202009142352 METAR KATL 142352Z 08008KT 10SM FEW030 SCT080 BKN110 BKN180 OVC250 28/21 A3008 RMK AO2 SLP175 MDT CU DSNT NW-N BINOVC T02780211 10306 20272 53004=
202009142252 METAR KATL 142252Z 05007KT 10SM FEW030 FEW060 SCT110 BKN170 OVC250 28/22 A3007 RMK AO2 SLP171 TCU DSNT N-NE & S T02830222=
202009142152 METAR KATL 142152Z 05008KT 10SM SCT030 SCT070 SCT110 BKN170 BKN250 29/21 A3006 RMK AO2 WSHFT 2115 SLP168 CB DSNT W & NW T02890211=
202009142052 METAR KATL 142052Z 10007KT 10SM SCT030CB SCT070 SCT110 BKN200 29/21 A3007 RMK AO2 SLP170 VIS LWR NW-NE CB NW-NE MOV W TCU DSNT E S SW SHRA NW-NE T02940211 56016=
202009141952 METAR KATL 141952Z 07008KT 10SM SCT030TCU SCT070 SCT110 BKN200 29/21 A3007 RMK AO2 LTG DSNT N SLP172 CB DSNT N TCU NW-NE DSNT E-SE T02940211=
202009141852 METAR KATL 141852Z 12006KT 10SM FEW028 SCT060 BKN100 BKN200 28/21 A3009 RMK AO2 PRESFR SLP178 CB DSNT NW-NE TCU DSNT NE-SE T02830211=
202009141752 METAR KATL 141752Z 14008KT 10SM FEW026TCU SCT048 BKN095 BKN200 27/22 A3011 RMK AO2 SLP187 TCU N-NE DSNT ALQDS SHRA DSNT ALQDS T02720222 10289 20233 58006=
202009141652 METAR KATL 141652Z 13007KT 10SM SCT026TCU BKN055 BKN110 BKN200 28/21 A3013 RMK AO2 SLP191 TCU ALQDS SHRA SE-S T02830211=
202009141552 METAR KATL 141552Z 08007KT 10SM SCT026TCU BKN035 BKN100 BKN250 28/21 A3014 RMK AO2 SLP197 TCU ALQDS T02830211=
202009141452 METAR KATL 141452Z 10007KT 10SM SCT018 SCT026 BKN100 BKN250 28/22 A3013 RMK AO2 SLP193 MDT CU ALQDS T02780217 51007=
202009141352 METAR KATL 141352Z 09010KT 10SM FEW014 SCT026 BKN100 BKN200 26/22 A3013 RMK AO2 SLP191 T02610217=
202009141252 METAR KATL 141252Z 10008KT 10SM FEW015 SCT070 BKN090 BKN200 25/21 A3012 RMK AO2 SLP190 T02500211=
202009141152 METAR KATL 141152Z 05009KT 10SM FEW025 SCT090 BKN200 23/21 A3011 RMK AO2 SLP187 ACC NW-NE T02330211 10239 20233 53008=
202009141052 METAR KATL 141052Z 05009KT 10SM FEW025 SCT070 BKN090 23/21 A3010 RMK AO2 SLP182 T02330211=
202009140952 METAR KATL 140952Z 05007KT 10SM SCT026 SCT070 BKN090 23/21 A3009 RMK AO2 SLP180 T02330211=
202009140852 METAR KATL 140852Z 05007KT 10SM BKN085 23/21 A3009 RMK AO2 SLP177 T02330211 51005=
202009140752 METAR KATL 140752Z 07005KT 10SM SCT070 SCT150 23/21 A3008 RMK AO2 SLP176 T02330211=
202009140652 METAR KATL 140652Z 06007KT 10SM FEW060 FEW150 24/21 A3009 RMK AO2 SLP177 T02390211=
202009140552 METAR KATL 140552Z 05006KT 10SM FEW060 FEW150 24/21 A3007 RMK AO2 SLP172 T02390211 10272 20239 56005=
202009140452 METAR KATL 140452Z 06006KT 10SM CLR 24/21 A3007 RMK AO2 SLP174 T02390211 403110228=
202009140352 METAR KATL 140352Z 12004KT 10SM FEW150 24/21 A3007 RMK AO2 SLP174 T02440211=
202009140252 METAR KATL 140252Z 15005KT 10SM FEW026 24/21 A3009 RMK AO2 SLP178 T02440211 51014=
202009140152 METAR KATL 140152Z 11006KT 10SM FEW150 26/21 A3008 RMK AO2 SLP176 T02560206=
202009140052 METAR KATL 140052Z 08010KT 10SM SCT150 27/21 A3006 RMK AO2 SLP170 T02670206=
202009132352 METAR KATL 132352Z 09010KT 10SM FEW034 FEW150 SCT250 27/21 A3005 RMK AO2 SLP164 T02720206 10311 20272 51008=
202009132252 METAR KATL 132252Z 09010KT 10SM FEW035 FEW060 SCT200 29/20 A3004 RMK AO2 SLP161 TCU DSNT SE & W T02890200=
202009132152 METAR KATL 132152Z 10010KT 10SM SCT036TCU SCT060 SCT200 29/20 A3003 RMK AO2 SLP157 TCU N-NE & W-N T02890200=
202009132052 METAR KATL 132052Z 08012KT 10SM SCT037 SCT060 BKN150 29/19 A3002 RMK AO2 SLP155 MDT CU DSNT E-SE AND SW T02940194 55013=
202009131952 METAR KATL 131952Z 06010KT 10SM SCT035 SCT055 BKN150 30/20 A3002 RMK AO2 SLP154 MDT CU DSNT E-SE AND W T03000200=
202009131852 METAR KATL 131852Z 11006KT 10SM SCT035 SCT046 BKN150 29/21 A3004 RMK AO2 SLP161 MDT CU DSNT NW AND N T02940206=
202009131752 METAR KATL 131752Z 10008KT 10SM SCT025 SCT035 BKN043 28/21 A3006 RMK AO2 SLP168 T02830206 10283 20228 58010=
202009131652 METAR KATL 131652Z 12007KT 10SM BKN027 OVC035 27/21 A3008 RMK AO2 SLP176 T02670206=
202009131552 METAR KATL 131552Z 13009KT 10SM SCT022 BKN028 OVC034 26/20 A3009 RMK AO2 SLP178 T02560200=
202009131452 METAR KATL 131452Z 13006KT 10SM SCT018 BKN027 BKN150 26/20 A3009 RMK AO2 SLP180 T02560200 51008=
202009131352 METAR KATL 131352Z 12010KT 10SM SCT014 BKN026 BKN150 25/20 A3009 RMK AO2 SLP179 T02500200=
202009131317 SPECI KATL 131317Z 12010KT 10SM SCT009 BKN016 BKN026 24/21 A3009 RMK AO2 T02390211=
202009131252 METAR KATL 131252Z 12005KT 10SM BKN009 24/21 A3008 RMK AO2 SLP176 CIG 008V012 BKN009 V SCT T02390211=
202009131152 METAR KATL 131152Z 11005KT 10SM BKN007 23/21 A3007 RMK AO2 SLP172 BKN007 V SCT 70002 T02280211 10239 20228 53008=
202009131150 SPECI KATL 131150Z 11007KT 10SM BKN007 23/21 A3007 RMK AO2 BKN007 V SCT=
202009131052 METAR KATL 131052Z 11005KT 10SM SCT009 SCT025 SCT033 23/21 A3005 RMK AO2 SLP164 SCT009 V BKN T02330211=
202009131039 SPECI KATL 131039Z 11006KT 10SM SCT009 SCT027 SCT033 24/21 A3005 RMK AO2 SCT009 V BKN T02390211=
202009130952 METAR KATL 130952Z 12006KT 10SM BKN008 BKN014 BKN019 24/22 A3005 RMK AO2 SLP163 T02390217=
202009130937 SPECI KATL 130937Z 13008KT 10SM BKN008 BKN016 BKN023 24/22 A3004 RMK AO2 BKN008 V SCT T02390217=
202009130916 SPECI KATL 130916Z 12006KT 10SM SCT008 BKN013 BKN023 24/22 A3004 RMK AO2 T02390217=
202009130852 METAR KATL 130852Z 10008KT 10SM SCT009 BKN016 BKN023 24/22 A3004 RMK AO2 SLP162 T02390217 56005=
202009130848 SPECI KATL 130848Z 11007KT 10SM SCT009 BKN016 BKN023 24/22 A3004 RMK AO2=
202009130752 METAR KATL 130752Z 12008KT 10SM BKN007 24/22 A3004 RMK AO2 SLP162 T02390217=
202009130652 METAR KATL 130652Z 10008KT 10SM BKN008 24/22 A3005 RMK AO2 SLP165 T02390217=
202009130552 METAR KATL 130552Z 10007KT 10SM BKN006 24/22 A3006 RMK AO2 SLP168 T02390222 10267 20233 58001=
202009130452 METAR KATL 130452Z 08009KT 10SM BKN007 24/22 A3006 RMK AO2 SLP169 T02390217 403060233=
202009130352 METAR KATL 130352Z 07008KT 10SM BKN008 24/22 A3006 RMK AO2 SLP169 T02390217=
202009130347 SPECI KATL 130347Z 08008KT 10SM BKN008 23/22 A3006 RMK AO2=
202009130321 SPECI KATL 130321Z 10006KT 10SM FEW009 24/22 A3006 RMK AO2 T02390217=
202009130252 METAR KATL 130252Z 09008KT 10SM FEW032 24/22 A3005 RMK AO2 SLP167 T02390217 52012=
202009130152 METAR KATL 130152Z 09010KT 10SM SCT250 24/22 A3005 RMK AO2 LTG DSNT SW SLP165 CB DSNT SW T02440217=
202009130052 METAR KATL 130052Z 09010KT 10SM FEW030 BKN250 26/22 A3002 RMK AO2 LTG DSNT SE AND S SLP157 CB DSNT SE-S T02560217=
202009122352 METAR KATL 122352Z 09008KT 10SM FEW030TCU SCT150 BKN250 27/22 A3002 RMK AO2 SLP154 TCU SE 60002 T02670217 10306 20267 53010=
202009122252 METAR KATL 122252Z 09009KT 10SM FEW035 FEW150 SCT250 29/22 A2999 RMK AO2 SLP145 TCU DSNT N T02890222=
202009122152 METAR KATL 122152Z 09010KT 10SM FEW034 SCT250 29/22 A2998 RMK AO2 LTG DSNT N AND NW TSE01 SLP141 TS DSPTD CB DSNT NW-N T02940217=
202009122102 SPECI KATL 122102Z 08011KT 10SM FEW034TCU SCT080 BKN150 BKN250 29/22 A2999 RMK AO2 LTG DSNT NE TSE01 TS DSPTD CB DSNT NE TCU NW-NE T02940222=
202009122052 METAR KATL 122052Z 09010KT 10SM TS SCT034 SCT045CB BKN065 BKN150 29/23 A2999 RMK AO2 LTG DSNT NE AND E RAB27E39 TSB32 SLP143 OCNL LTGICCG N TS N MOV NW CB DSNT NE AND E TCU DSNT NW-N P0000 60002 T02890228 56019=
202009122033 SPECI KATL 122033Z 09013G16KT 10SM -TSRA SCT029 BKN043CB BKN065 BKN150 30/23 A2998 RMK AO2 RAB27 TSB32 OCNL LTGICCG NE TS NE MOV NW TCU DSNT NW-N P0000 T03000228=
202009121952 METAR KATL 121952Z 05003KT 10SM SCT026 BKN037 BKN060 BKN150 31/22 A2999 RMK AO2 RAB03E18 SLP144 LTG DSNT S CB DSNT S TCU DSNT SE-SW AND NW P0002 T03060222=
202009121852 METAR KATL 121852Z 17006KT 10SM SCT030 BKN038TCU BKN060 BKN150 29/22 A3002 RMK AO2 SLP153 TCU OHD-NW-N TCU DSNT SE-SW T02890217=
202009121752 METAR KATL 121752Z 11010G15KT 10SM SCT026 BKN034TCU BKN055 BKN150 29/22 A3004 RMK AO2 SLP163 TCU OHD-NW-N MDT CU SE AND SW-W 60000 T02890217 10300 20239 58011 $=
202009121652 METAR KATL 121652Z 09010KT 10SM SCT024 BKN033TCU BKN060 28/22 A3007 RMK AO2 SLP170 TCU OHD-NE MDT CU E-SE AND SW-W T02830222 $=
202009121552 METAR KATL 121552Z 14007KT 10SM SCT017 BKN026 BKN033 28/22 A3007 RMK AO2 SLP173 T02780222 $=
202009121452 METAR KATL 121452Z 13009KT 8SM BR SCT012 BKN018 BKN027 27/22 A3008 RMK AO2 SLP174 60000 T02720222 51007 $=
202009121414 SPECI KATL 121414Z 13007KT 7SM BR SCT008 BKN015 BKN027 26/22 A3007 RMK AO2 T02560222 $=
202009121352 METAR KATL 121352Z 11007KT 6SM BR BKN008 BKN014 BKN021 25/22 A3007 RMK AO2 DZE14 SLP172 P0000 T02500222 $=
202009121252 METAR KATL 121252Z 13005KT 3SM -DZ BR BKN006 OVC010 24/22 A3007 RMK AO2 SFC VIS 5 DZB50 SLP170 CIG 005V008 P0000 T02390222 $=
202009121246 SPECI KATL 121246Z 14006KT 3SM BR BKN006 OVC010 24/22 A3006 RMK AO2 SFC VIS 6 CIG 005V008 $=
202009121240 SPECI KATL 121240Z 12007KT 1SM R09R/P6000FT BR FEW004 BKN006 OVC010 24/22 A3006 RMK AO2 SFC VIS 6 CIG 005V008 T02390222=
202009121152 METAR KATL 121152Z 11007KT 1SM R09R/P6000FT BR OVC004 24/23 A3005 RMK AO2 SFC VIS 6 SLP166 CIG 003V006 TWRINC T02390228 10250 20239 51010=
202009121052 METAR KATL 121052Z 09008KT 1SM R09R/P6000FT BR OVC004 24/23 A3004 RMK AO2 SFC VIS 6 SLP162 CIG 003V005 TWRINC T02390228=
202009121040 SPECI KATL 121040Z 11005KT 1SM R09R/P6000FT BR OVC004 24/22 A3004 RMK AO2 SFC VIS 6 CIG 003V005 TWRINC T02390222=
202009120952 METAR KATL 120952Z 11006KT 10SM BKN008 OVC016 24/22 A3004 RMK AO2 SLP159 T02440222=
202009120852 METAR KATL 120852Z 12008KT 10SM BKN009 24/22 A3002 RMK AO2 SLP155 T02440222 55004=
202009120849 SPECI KATL 120849Z 10007KT 10SM BKN009 24/22 A3002 RMK AO2 BKN010 V SCT=
202009120801 SPECI KATL 120801Z 12004KT 10SM BKN010 24/22 A3002 RMK AO2 BKN010 V SCT T02440222=
202009120752 METAR KATL 120752Z 11006KT 10SM FEW010 FEW040 SCT250 24/22 A3002 RMK AO2 SLP152 T02440222=
202009120652 METAR KATL 120652Z 11005KT 10SM FEW041 SCT250 25/22 A3003 RMK AO2 SLP155 T02500222=
202009120552 METAR KATL 120552Z 09005KT 10SM FEW040 FEW250 25/22 A3004 RMK AO2 SLP159 T02500222 10294 20250 58005=
202009120452 METAR KATL 120452Z 11007KT 10SM FEW040 FEW250 26/22 A3005 RMK AO2 SLP163 T02610217 403280233=
202009120352 METAR KATL 120352Z 09007KT 10SM FEW040 SCT250 27/22 A3005 RMK AO2 SLP164 T02670222=
202009120252 METAR KATL 120252Z 09006KT 10SM FEW040 FEW250 27/22 A3005 RMK AO2 SLP166 T02720217 50009=
202009120152 METAR KATL 120152Z 09006KT 10SM FEW040 FEW250 28/22 A3006 RMK AO2 SLP167 T02780217=
202009120052 METAR KATL 120052Z 09005KT 10SM FEW040 FEW250 28/22 A3004 RMK AO2 SLP160 T02830217=
202009112352 METAR KATL 112352Z 10006KT 10SM CLR 29/21 A3003 RMK AO2 SLP157 T02940211 10328 20294 53003=
202009112252 METAR KATL 112252Z 12008KT 10SM FEW040 FEW250 31/21 A3002 RMK AO2 SLP154 TCU DSNT SE-S T03060211=
202009112152 METAR KATL 112152Z 10006KT 10SM FEW042 FEW200 SCT250 32/20 A3001 RMK AO2 SLP151 TCU DSNT SE-S T03170200=
202009112052 METAR KATL 112052Z 06007KT 10SM FEW042TCU SCT085 SCT250 32/20 A3002 RMK AO2 SLP153 TCU N SW-NW DSNT ALQDS T03220200 56031=
202009111952 METAR KATL 111952Z 08009KT 10SM SCT038TCU SCT055 BKN090 BKN250 31/21 A3004 RMK AO2 SLP161 TCU NE SW DSNT ALQDS T03110206=
202009111852 METAR KATL 111852Z 09008KT 10SM SCT038TCU BKN085 BKN250 31/21 A3008 RMK AO2 SLP173 TCU SE-SW DSNT ALQDS T03110211=
202009111752 METAR KATL 111752Z 07009KT 10SM SCT033TCU SCT050 BKN085 BKN250 31/21 A3011 RMK AO2 SLP185 TCU SW DSNT ALQDS T03060211 10311 20239 58012=
202009111652 METAR KATL 111652Z 05005G14KT 10SM SCT028TCU SCT045 BKN080 BKN250 29/21 A3013 RMK AO2 SLP190 TCU NE-SE-SW T02940211=
202009111552 METAR KATL 111552Z 10007KT 10SM SCT024TCU BKN032 BKN050 BKN250 29/22 A3015 RMK AO2 SLP198 TCU ALQDS T02890222=
202009111531 SPECI KATL 111531Z 08006KT 10SM SCT022 BKN030 BKN250 28/22 A3015 RMK AO2 MDT CU ALQDS T02830222=
202009111452 METAR KATL 111452Z 10009KT 10SM BKN018 BKN250 27/22 A3015 RMK AO2 SLP198 CIG 016V020 T02720222 50004=
202009111435 SPECI KATL 111435Z 09009KT 10SM BKN016 BKN250 27/22 A3015 RMK AO2 CIG 014V018 T02720222=
202009111411 SPECI KATL 111411Z 11007KT 10SM BKN014 BKN250 27/23 A3015 RMK AO2 T02670228=
202009111352 METAR KATL 111352Z 12008KT 10SM SCT014 SCT250 27/23 A3015 RMK AO2 SLP199 T02670228=
202009111252 METAR KATL 111252Z 08007KT 10SM FEW012 FEW250 25/22 A3014 RMK AO2 SLP196 T02500222=
202009111152 METAR KATL 111152Z 05007KT 10SM FEW030 FEW100 FEW250 24/22 A3014 RMK AO2 SLP195 T02390217 10250 20233 53007=
202009111052 METAR KATL 111052Z 05006KT 10SM FEW032 SCT250 23/22 A3012 RMK AO2 SLP189 T02330217=
202009110952 METAR KATL 110952Z 05006KT 10SM SCT032 24/22 A3011 RMK AO2 SLP187 T02390217=
202009110852 METAR KATL 110852Z 06005KT 10SM FEW020 FEW250 24/22 A3011 RMK AO2 SLP187 T02390217 56006 $=
202009110752 METAR KATL 110752Z 07004KT 10SM FEW020 FEW250 24/22 A3012 RMK AO2 SLP189 T02390217 $=
202009110652 METAR KATL 110652Z 05005KT 10SM FEW200 SCT250 24/22 A3012 RMK AO2 SLP190 T02440217 $=
202009110552 METAR KATL 110552Z 07005KT 10SM FEW200 SCT250 25/22 A3013 RMK AO2 SLP193 T02500222 10278 20250 58009 $=
202009110452 METAR KATL 110452Z 07004KT 10SM FEW200 SCT250 26/22 A3015 RMK AO2 SLP198 T02560217 403060239 $=
202009110352 METAR KATL 110352Z 13003KT 10SM SCT250 26/22 A3016 RMK AO2 SLP202 T02560222 $=
202009110252 METAR KATL 110252Z 13004KT 10SM BKN250 26/22 A3016 RMK AO2 SLP203 T02610222 51009 $=
202009110152 METAR KATL 110152Z 10006KT 10SM BKN250 27/22 A3016 RMK AO2 SLP202 T02670217 $=
202009110052 METAR KATL 110052Z 08005KT 10SM FEW030 BKN250 27/22 A3014 RMK AO2 SLP197 T02720222=
202009102352 METAR KATL 102352Z 09006KT 10SM FEW030 SCT200 BKN250 27/22 A3013 RMK AO2 SLP194 TCU DSNT N 60000 T02720217 10306 20272 53001=
202009102252 METAR KATL 102252Z 08007KT 10SM FEW030 SCT200 BKN250 29/21 A3013 RMK AO2 SLP191 TCU DSNT W T02890211=
202009102152 METAR KATL 102152Z 10009KT 10SM FEW030 SCT080 BKN250 29/22 A3012 RMK AO2 RAE31 SLP189 TCU DSNT N SW-NW P0000 T02890217=
202009102052 METAR KATL 102052Z 08013KT 10SM -RA SCT032TCU BKN075 BKN200 BKN250 29/21 A3013 RMK AO2 RAB49 SLP192 CB DSNT N TCU NE E-OHD-W NW P0000 60000 T02890211 56019=
202009101952 METAR KATL 101952Z 08006KT 10SM SCT032TCU BKN070 BKN200 BKN250 29/22 A3014 RMK AO2 SLP196 TCU NE-SE SW DSNT ALQDS T02890217=
202009101852 METAR KATL 101852Z 07006KT 10SM SCT028TCU SCT046 BKN075 BKN250 29/21 A3017 RMK AO2 SLP205 TCU N-NE DSNT ALQDS T02890211=
202009101752 METAR KATL 101752Z 07007KT 10SM SCT023TCU BKN032 BKN046 28/22 A3019 RMK AO2 SLP212 TCU NW-NE T02830217 10283 20239 58005=
202009101652 METAR KATL 101652Z 07005KT 10SM SCT017 BKN026 OVC035 27/22 A3019 RMK AO2 SLP214 BINOVC T02670217=
202009101600 SPECI KATL 101600Z 08006KT 10SM BKN015 OVC026 26/22 A3020 RMK AO2 CIG 013V017 T02610222=
202009101552 METAR KATL 101552Z 09005KT 10SM BKN013 OVC022 26/22 A3020 RMK AO2 SLP217 CIG 011V015 T02560217=
202009101452 METAR KATL 101452Z 04007KT 10SM OVC010 25/22 A3020 RMK AO2 SLP217 CIG 008V012 T02500217 51005 $=
202009101352 METAR KATL 101352Z 08010KT 8SM OVC007 24/22 A3020 RMK AO2 SLP216 CIG 006V008 T02390217=
202009101252 METAR KATL 101252Z 09010KT 10SM OVC008 24/21 A3019 RMK AO2 SLP214 T02390211=
202009101152 METAR KATL 101152Z 08008KT 10SM BKN008 OVC012 24/21 A3019 RMK AO2 SLP211 T02390211 10244 20239 53009=
202009101147 SPECI KATL 101147Z 07011KT 10SM BKN008 OVC012 24/21 A3019 RMK AO2=
202009101052 METAR KATL 101052Z 08010KT 10SM BKN010 OVC014 24/21 A3017 RMK AO2 SLP204 T02390211=
202009100952 METAR KATL 100952Z 08010KT 10SM BKN011 OVC020 24/21 A3016 RMK AO2 SLP202 CIG 010V012 T02390211=
202009100852 METAR KATL 100852Z 08010KT 10SM BKN012 OVC020 24/21 A3016 RMK AO2 SLP201 CIG 010V014 T02390211 55005=
202009100752 METAR KATL 100752Z 09011KT 10SM BKN013 OVC040 24/21 A3016 RMK AO2 SLP201 T02440211=
202009100722 SPECI KATL 100722Z 07012KT 10SM BKN013 BKN040 24/21 A3016 RMK AO2 T02390211=
202009100652 METAR KATL 100652Z 07011KT 10SM BKN016 BKN080 24/21 A3016 RMK AO2 SLP203 T02440211=
202009100604 SPECI KATL 100604Z 07009KT 10SM BKN016 BKN080 24/21 A3017 RMK AO2 T02440211=
202009100552 METAR KATL 100552Z 07009KT 10SM SCT016 SCT060 BKN080 24/21 A3017 RMK AO2 SLP207 T02440211 10278 20244 50002=
202009100452 METAR KATL 100452Z 08010KT 10SM FEW025 SCT060 BKN080 25/21 A3018 RMK AO2 SLP210 T02500211 402940211=
202009100352 METAR KATL 100352Z 06008KT 10SM FEW032 SCT055 BKN080 BKN250 26/21 A3017 RMK AO2 SLP207 T02560211=
202009100252 METAR KATL 100252Z 08009KT 10SM FEW032 SCT055 BKN080 BKN250 26/21 A3017 RMK AO2 SLP205 T02560206 53017=
202009100152 METAR KATL 100152Z 06008KT 10SM FEW032 SCT080 SCT250 27/21 A3015 RMK AO2 SLP199 T02670206=
202009100052 METAR KATL 100052Z 09006KT 10SM FEW032 SCT070 SCT250 26/21 A3013 RMK AO2 SLP194 T02610206=
202009092352 METAR KATL 092352Z 06009KT 10SM FEW035 FEW070 SCT250 28/19 A3012 RMK AO2 SLP189 T02780194 10294 20272 53004=
202009092252 METAR KATL 092252Z 07007KT 10SM FEW035 FEW070 28/19 A3011 RMK AO2 SLP185 TCU DSNT W T02830194=
202009092152 METAR KATL 092152Z 04007KT 10SM FEW035TCU SCT070 29/20 A3011 RMK AO2 SLP185 TCU W-NW T02890200=
202009092052 METAR KATL 092052Z 03004KT 10SM FEW032 BKN070 28/20 A3010 RMK AO2 SLP184 T02830200 56013=
202009091952 METAR KATL 091952Z 09008KT 10SM FEW030 SCT055 BKN070 28/20 A3012 RMK AO2 SLP188 T02830200=
202009091852 METAR KATL 091852Z 08009KT 10SM SCT021 BKN048 28/19 A3013 RMK AO2 SLP191 T02780194=
202009091752 METAR KATL 091752Z 07011KT 10SM BKN030 28/20 A3014 RMK AO2 SLP197 T02830200 10283 20211 58002=
202009091652 METAR KATL 091652Z 08012KT 10SM FEW028 BKN034 BKN043 27/19 A3015 RMK AO2 SLP201 T02670194=
202009091552 METAR KATL 091552Z 07013KT 10SM BKN023 BKN032 27/19 A3015 RMK AO2 SLP200 T02670194=
202009091452 METAR KATL 091452Z 08012KT 10SM BKN019 26/20 A3015 RMK AO2 SLP200 T02610200 53010=
202009091425 SPECI KATL 091425Z 07013KT 10SM BKN017 25/19 A3014 RMK AO2 T02500194=
202009091352 METAR KATL 091352Z 07014G21KT 10SM SCT018 24/19 A3013 RMK AO2 SLP194 T02390194=
202009091320 SPECI KATL 091320Z 07010KT 10SM FEW017 23/19 A3013 RMK AO2 T02330189=
202009091252 METAR KATL 091252Z 07011KT 10SM BKN015 BKN040 22/18 A3013 RMK AO2 SLP194 BKN015 V SCT T02220183=
202009091225 SPECI KATL 091225Z 07013KT 10SM BKN010 BKN040 22/18 A3012 RMK AO2 BKN010 V SCT T02170178=
202009091152 METAR KATL 091152Z 05011KT 10SM FEW040 21/17 A3012 RMK AO2 SLP190 T02110172 10222 20211 53014=
202009091052 METAR KATL 091052Z 05008KT 10SM FEW040 21/17 A3010 RMK AO2 SLP184 T02110167=
202009090952 METAR KATL 090952Z 05007KT 10SM FEW040 21/16 A3009 RMK AO2 SLP178 T02110161=
202009090852 METAR KATL 090852Z 05007KT 10SM FEW040 21/16 A3008 RMK AO2 SLP175 T02110161 55004=
202009090752 METAR KATL 090752Z 05008KT 10SM FEW040 21/16 A3007 RMK AO2 SLP174 T02110161=
202009090652 METAR KATL 090652Z 07010KT 10SM CLR 22/16 A3008 RMK AO2 SLP177 T02170161=
202009090552 METAR KATL 090552Z 07009KT 10SM CLR 22/16 A3009 RMK AO2 SLP180 T02220161 10261 20222 50000=
202009090452 METAR KATL 090452Z 07009KT 10SM FEW250 22/16 A3010 RMK AO2 SLP183 T02220156 403000194=
202009090352 METAR KATL 090352Z 08009KT 10SM FEW250 23/16 A3010 RMK AO2 SLP182 T02280156=
202009090252 METAR KATL 090252Z 07009KT 10SM FEW250 24/16 A3009 RMK AO2 SLP181 T02390161 51021=
202009090152 METAR KATL 090152Z 07009KT 10SM FEW250 25/16 A3008 RMK AO2 SLP178 T02500161=
202009090052 METAR KATL 090052Z 07010KT 10SM FEW250 26/16 A3006 RMK AO2 SLP169 T02610156=
202009082352 METAR KATL 082352Z 09006KT 10SM SCT250 26/16 A3003 RMK AO2 SLP160 T02610156 10300 20261 53002=
202009082252 METAR KATL 082252Z 10008KT 10SM FEW250 28/14 A3002 RMK AO2 SLP158 T02780144=
202009082152 METAR KATL 082152Z 12006KT 10SM FEW055 FEW250 28/15 A3002 RMK AO2 SLP156 T02830150=
202009082052 METAR KATL 082052Z 05005G17KT 10SM FEW055 SCT250 29/14 A3002 RMK AO2 SLP156 T02940144 56016=
202009081952 METAR KATL 081952Z 10008KT 10SM FEW055 SCT200 SCT250 29/15 A3004 RMK AO2 SLP161 T02940150=
202009081852 METAR KATL 081852Z 07011KT 10SM FEW044 FEW200 SCT250 29/16 A3005 RMK AO2 SLP167 T02940156=
202009081752 METAR KATL 081752Z 07006KT 10SM FEW034 SCT046 SCT250 28/17 A3007 RMK AO2 SLP172 T02780167 10283 20194 58010=
202009081652 METAR KATL 081652Z 08008KT 10SM SCT028 SCT040 SCT250 27/18 A3009 RMK AO2 SLP178 T02670183=
202009081552 METAR KATL 081552Z 07009KT 10SM SCT022 BKN034 BKN250 27/19 A3010 RMK AO2 SLP185 MDT CU SW-NW T02670194=
202009081452 METAR KATL 081452Z VRB05KT 10SM SCT014 SCT020 BKN040 25/19 A3010 RMK AO2 SLP184 T02500194 53013=
202009081436 SPECI KATL 081436Z 06006KT 10SM SCT014 SCT020 BKN044 25/19 A3010 RMK AO2 T02500194=
202009081352 METAR KATL 081352Z 06006KT 10SM BKN013 BKN018 BKN042 22/18 A3009 RMK AO2 SLP180 MDT CU N-OHD-S T02220178=
202009081328 SPECI KATL 081328Z 06005KT 10SM BKN012 BKN017 BKN030 22/17 A3008 RMK AO2 T02170172=
202009081309 SPECI KATL 081309Z 09003KT 10SM BKN017 BKN024 BKN040 22/17 A3008 RMK AO2 MDT CU OHD-ALQDS T02170172=
202009081252 METAR KATL 081252Z 08007KT 10SM SCT016 SCT025 BKN040 22/17 A3007 RMK AO2 SLP174 MDT CU SW T02170172=
202009081152 METAR KATL 081152Z 08007KT 10SM FEW012 SCT040 19/16 A3006 RMK AO2 SLP172 T01940156 10222 20194 53016=
202009081052 METAR KATL 081052Z 09006KT 10SM FEW045 19/15 A3005 RMK AO2 SLP165 T01940150=
202009080952 METAR KATL 080952Z 06007KT 10SM CLR 21/14 A3002 RMK AO2 SLP158 T02060144=
202009080852 METAR KATL 080852Z 09006KT 10SM CLR 20/15 A3001 RMK AO2 SLP153 T02000150 55002 $=
202009080752 METAR KATL 080752Z 07007KT 10SM CLR 21/15 A3000 RMK AO2 SLP149 T02110150 $=
202009080652 METAR KATL 080652Z 09006KT 10SM CLR 21/15 A3000 RMK AO2 SLP149 T02110150 $=
202009080552 METAR KATL 080552Z 08005KT 10SM CLR 22/15 A3002 RMK AO2 SLP155 T02220150 10261 20222 58005 $=
202009080452 METAR KATL 080452Z 08006KT 10SM CLR 23/15 A3003 RMK AO2 SLP159 T02280150 402940189 $=
202009080352 METAR KATL 080352Z 08007KT 10SM CLR 22/16 A3004 RMK AO2 SLP163 T02220156 $=
202009080252 METAR KATL 080252Z 08008KT 10SM CLR 24/15 A3004 RMK AO2 SLP162 T02390150 53018 $=
202009080152 METAR KATL 080152Z 08006KT 10SM CLR 24/15 A3001 RMK AO2 SLP155 T02390150 $=
202009080052 METAR KATL 080052Z 09006KT 10SM CLR 25/14 A2999 RMK AO2 SLP147 T02500144 $=
202009072352 METAR KATL 072352Z 09006KT 10SM CLR 26/13 A2998 RMK AO2 SLP143 T02610133 10294 20261 56003 $=
202009072252 METAR KATL 072252Z 10005KT 10SM CLR 28/13 A2998 RMK AO2 SLP143 T02780133 $=
202009072152 METAR KATL 072152Z 11006KT 10SM CLR 28/13 A2998 RMK AO2 SLP144 T02830133 $=
202009072052 METAR KATL 072052Z 07008KT 10SM CLR 29/13 A2999 RMK AO2 SLP145 T02940128 56021 $=
202009071952 METAR KATL 071952Z 08009KT 10SM CLR 29/13 A3000 RMK AO2 SLP151 T02890133 $=
202009071852 METAR KATL 071852Z 08006KT 10SM CLR 29/14 A3003 RMK AO2 SLP159 T02890144 $=
202009071752 METAR KATL 071752Z 09008KT 10SM CLR 28/14 A3005 RMK AO2 SLP167 T02780139 10278 20194 58014 $=
202009071652 METAR KATL 071652Z 10009KT 10SM CLR 27/14 A3007 RMK AO2 SLP174 T02720139=
202009071552 METAR KATL 071552Z 09008KT 10SM CLR 27/14 A3009 RMK AO2 SLP179 T02670139=
202009071452 METAR KATL 071452Z 10008KT 10SM CLR 24/14 A3009 RMK AO2 SLP182 T02440139 53006=
202009071352 METAR KATL 071352Z 09007KT 10SM CLR 23/14 A3008 RMK AO2 SLP178 T02280139=
202009071252 METAR KATL 071252Z 07007KT 10SM CLR 21/14 A3008 RMK AO2 SLP178 T02110139=
202009071152 METAR KATL 071152Z 06006KT 10SM FEW200 19/14 A3008 RMK AO2 SLP176 T01940139 10211 20189 53005=
202009071052 METAR KATL 071052Z 06008KT 10SM CLR 19/13 A3007 RMK AO2 SLP172 T01940133=
202009070952 METAR KATL 070952Z 06006KT 10SM CLR 19/14 A3006 RMK AO2 SLP170 T01940139=
202009070852 METAR KATL 070852Z 07005KT 10SM CLR 19/14 A3006 RMK AO2 SLP170 T01890139 56014=
202009070752 METAR KATL 070752Z 07006KT 10SM CLR 19/14 A3007 RMK AO2 SLP175 T01940139=
202009070652 METAR KATL 070652Z 09005KT 10SM CLR 21/14 A3008 RMK AO2 SLP176 T02060139=
202009070552 METAR KATL 070552Z 10003KT 10SM CLR 21/14 A3010 RMK AO2 SLP185 T02060144 10256 20200 58008=
202009070452 METAR KATL 070452Z 07006KT 10SM CLR 22/14 A3013 RMK AO2 SLP192 T02170144 402940200=
202009070352 METAR KATL 070352Z 09005KT 10SM CLR 22/14 A3012 RMK AO2 SLP190 T02170144=
202009070252 METAR KATL 070252Z 10005KT 10SM CLR 23/14 A3013 RMK AO2 SLP193 T02280139 50001=
202009070152 METAR KATL 070152Z 09007KT 10SM CLR 23/14 A3013 RMK AO2 SLP194 T02330139=
202009070052 METAR KATL 070052Z 09007KT 10SM FEW250 24/13 A3012 RMK AO2 SLP192 T02440133=
202009062352 METAR KATL 062352Z 09006KT 10SM FEW001 SCT250 26/13 A3012 RMK AO2 SLP193 FU FEW001 T02560133 10294 20256 55003=
202009062252 METAR KATL 062252Z 07010KT 10SM FEW250 28/13 A3012 RMK AO2 SLP190 T02780128=
202009062152 METAR KATL 062152Z 09005KT 10SM FEW055 FEW250 28/14 A3012 RMK AO2 SLP191 T02780139=
202009062052 METAR KATL 062052Z 06007KT 10SM CLR 29/13 A3013 RMK AO2 SLP195 T02890133 56020=
202009061952 METAR KATL 061952Z 05007KT 10SM FEW055 29/13 A3015 RMK AO2 SLP199 T02890133=
202009061852 METAR KATL 061852Z 06008G16KT 10SM FEW055 FEW250 28/14 A3017 RMK AO2 SLP206 T02830144=
202009061752 METAR KATL 061752Z 13008G17KT 10SM FEW048 28/15 A3019 RMK AO2 SLP215 T02780150 10283 20200 58007=
202009061652 METAR KATL 061652Z 10010G15KT 10SM FEW045 FEW200 27/16 A3020 RMK AO2 SLP217 T02720161=
202009061552 METAR KATL 061552Z 07010KT 10SM FEW200 27/15 A3021 RMK AO2 SLP222 T02670150=
202009061452 METAR KATL 061452Z 10008KT 10SM FEW200 25/16 A3022 RMK AO2 SLP222 T02500161 53009=
202009061352 METAR KATL 061352Z 08009KT 10SM FEW200 24/16 A3020 RMK AO2 SLP217 T02390161=
202009061252 METAR KATL 061252Z 07009KT 10SM FEW150 FEW200 FEW250 22/15 A3019 RMK AO2 SLP216 T02170150=
202009061152 METAR KATL 061152Z 08009KT 10SM FEW045 FEW180 SCT250 20/14 A3019 RMK AO2 SLP213 T02000144 10228 20200 55000=
202009061052 METAR KATL 061052Z 06006KT 10SM FEW043 FEW180 FEW250 20/14 A3018 RMK AO2 SLP210 T02000144=
202009060952 METAR KATL 060952Z 06008KT 10SM FEW043 FEW180 SCT220 21/14 A3019 RMK AO2 SLP211 T02060139=
202009060852 METAR KATL 060852Z 06007KT 10SM FEW043 FEW180 SCT220 21/14 A3019 RMK AO2 SLP213 T02110139 58009=
202009060752 METAR KATL 060752Z 06009KT 10SM FEW180 SCT220 22/14 A3020 RMK AO2 SLP217 T02220139=
202009060652 METAR KATL 060652Z 06006KT 10SM FEW180 SCT220 23/16 A3021 RMK AO2 SLP219 T02280156=
202009060552 METAR KATL 060552Z 06006KT 10SM FEW180 SCT250 23/15 A3021 RMK AO2 SLP221 T02280150 10278 20217 50000=
202009060452 METAR KATL 060452Z 02003KT 10SM FEW180 SCT250 23/14 A3022 RMK AO2 SLP223 T02330139 403170200=
202009060352 METAR KATL 060352Z 36003KT 10SM FEW180 SCT250 23/14 A3022 RMK AO2 SLP224 T02330139=
202009060252 METAR KATL 060252Z 36007KT 10SM FEW180 SCT250 24/13 A3021 RMK AO2 SLP221 T02440133 51015=
202009060152 METAR KATL 060152Z 35005KT 10SM FEW065 FEW180 SCT250 24/14 A3021 RMK AO2 SLP220 T02440144=
202009060052 METAR KATL 060052Z 33009KT 10SM FEW065 FEW180 FEW250 26/14 A3018 RMK AO2 SLP212 T02610139=
202009052352 METAR KATL 052352Z 34007KT 10SM FEW065 SCT180 SCT250 28/13 A3017 RMK AO2 SLP206 T02830133 10317 20283 57002=
202009052252 METAR KATL 052252Z 36011KT 10SM FEW065 FEW180 SCT250 30/08 A3017 RMK AO2 SLP205 T03000083=
202009052152 METAR KATL 052152Z 33011KT 10SM FEW060 SCT180 SCT250 31/11 A3017 RMK AO2 SLP207 T03110111=
202009052052 SPECI KATL 052052Z 31011KT 10SM FEW055 BKN150 BKN250 30/13 A3017 RMK AO2 SLP207 T03000133 56014=
202009052052 METAR KATL 052052Z 31011KT 10SM FEW055 BKN150 BKN250 30/13 A3017 RMK AO2 SLP207 T03000133 56014=
202009051952 METAR KATL 051952Z 30008KT 10SM FEW048 SCT150 BKN250 30/17 A3018 RMK AO2 SLP210 T03000167 $=
202009051852 METAR KATL 051852Z 32008G14KT 10SM SCT045 SCT150 SCT250 31/18 A3020 RMK AO2 SLP215 T03060178 $=
202009051752 METAR KATL 051752Z 34007KT 10SM FEW043 FEW150 SCT250 29/18 A3022 RMK AO2 SLP221 T02940183 10300 20206 58006 $=
202009051652 METAR KATL 051652Z VRB03KT 10SM FEW042 FEW150 BKN250 29/18 A3023 RMK AO2 SLP226 T02890183 $=
202009051552 METAR KATL 051552Z 02009KT 10SM SCT150 BKN250 28/17 A3024 RMK AO2 SLP229 T02780172 $=
202009051452 METAR KATL 051452Z 01008KT 10SM FEW200 SCT250 26/17 A3023 RMK AO2 SLP227 T02610167 53012 $=
202009051352 METAR KATL 051352Z 34005KT 10SM FEW200 FEW250 24/16 A3022 RMK AO2 SLP223 T02390161 $=
202009051252 METAR KATL 051252Z 34006KT 10SM FEW150 FEW200 SCT250 22/16 A3020 RMK AO2 SLP218 T02220161 $=
202009051152 METAR KATL 051152Z 32009KT 10SM FEW150 FEW200 SCT250 21/17 A3020 RMK AO2 SLP217 ACC S T02060167 10250 20200 53013 $=
202009051052 METAR KATL 051052Z 32008KT 10SM FEW200 FEW250 21/18 A3018 RMK AO2 SLP210 T02110178 $=
202009050952 METAR KATL 050952Z 31007KT 10SM FEW250 22/19 A3017 RMK AO2 SLP204 T02170189=
202009050852 METAR KATL 050852Z 33011KT 10SM FEW250 23/19 A3016 RMK AO2 SLP201 T02280194 58000=
202009050752 METAR KATL 050752Z 33009KT 10SM FEW250 23/19 A3016 RMK AO2 SLP201 T02330194=
202009050652 METAR KATL 050652Z 32007KT 10SM FEW250 24/20 A3016 RMK AO2 SLP201 T02440200=
202009050552 METAR KATL 050552Z 32009KT 10SM FEW250 25/20 A3016 RMK AO2 SLP201 T02500200 10300 20250 51007=
202009050452 METAR KATL 050452Z 32007KT 10SM FEW250 26/21 A3016 RMK AO2 SLP201 T02610206 403330233=
202009050352 METAR KATL 050352Z 32007KT 10SM SCT250 27/22 A3015 RMK AO2 SLP199 T02670217=
202009050252 METAR KATL 050252Z 30006KT 10SM FEW050 SCT250 27/22 A3014 RMK AO2 SLP193 T02720217 53018=
202009050152 METAR KATL 050152Z 28005KT 10SM FEW200 SCT250 28/22 A3012 RMK AO2 SLP188 T02780217=
202009050052 METAR KATL 050052Z 28005KT 10SM FEW200 SCT250 28/21 A3009 RMK AO2 SLP180 T02830211=
202009042352 METAR KATL 042352Z 30006KT 10SM FEW200 SCT250 30/21 A3008 RMK AO2 SLP176 T03000211 10333 20294 53001=
202009042252 METAR KATL 042252Z 31008KT 10SM FEW050 SCT250 32/21 A3008 RMK AO2 SLP174 T03170206=
202009042152 METAR KATL 042152Z 29011KT 10SM FEW050 SCT250 32/20 A3007 RMK AO2 SLP172 T03170200=
202009042052 METAR KATL 042052Z 28012KT 10SM FEW050 SCT180 SCT250 33/21 A3008 RMK AO2 SLP174 T03280206 58010=
202009041952 METAR KATL 041952Z 31009KT 10SM FEW050 SCT065 SCT250 33/21 A3009 RMK AO2 SLP178 MDT CU N-NE SE-SW T03280206 $=
202009041852 METAR KATL 041852Z 30010KT 10SM SCT047 SCT250 33/21 A3010 RMK AO2 SLP180 T03280206 $=
202009041752 METAR KATL 041752Z 32011KT 10SM SCT043 SCT250 32/21 A3011 RMK AO2 SLP185 T03170206 10322 20239 58007 $=
202009041652 SPECI KATL 041652Z 31009KT 10SM SCT037 SCT250 31/22 A3012 RMK AO2 SLP186 T03110217 $=
202009041652 METAR KATL 041652Z 31009KT 10SM SCT037 SCT250 31/22 A3012 RMK AO2 SLP186 T03110217 $=
202009041552 METAR KATL 041552Z 29009KT 9SM FEW024 FEW250 31/22 A3013 RMK AO2 SLP192 T03060222 $=
202009041452 METAR KATL 041452Z 32009KT 10SM FEW020 FEW250 29/21 A3013 RMK AO2 SLP192 T02940211 51010 $=
202009041352 METAR KATL 041352Z 31008KT 10SM CLR 27/22 A3012 RMK AO2 SLP188 T02720217 $=
202009041252 METAR KATL 041252Z 31008KT 10SM CLR 26/21 A3012 RMK AO2 SLP187 T02560211 $=
202009041152 METAR KATL 041152Z 30006KT 10SM CLR 24/21 A3010 RMK AO2 SLP183 T02390211 10250 20233 53014=
202009041052 METAR KATL 041052Z 29006KT 10SM CLR 23/21 A3009 RMK AO2 SLP177 T02330206=
202009040952 METAR KATL 040952Z 29007KT 10SM CLR 24/21 A3007 RMK AO2 SLP172 T02390206=
202009040852 METAR KATL 040852Z 27007KT 10SM CLR 24/21 A3006 RMK AO2 SLP168 T02390206 53002=
202009040752 METAR KATL 040752Z 27007KT 10SM CLR 24/21 A3006 RMK AO2 SLP166 T02440206=
202009040652 METAR KATL 040652Z 27006KT 10SM CLR 24/21 A3006 RMK AO2 SLP166 T02440206=
202009040552 METAR KATL 040552Z 28007KT 10SM CLR 25/21 A3005 RMK AO2 SLP165 T02500206 10289 20250 51007=
202009040452 METAR KATL 040452Z 25004KT 10SM CLR 26/21 A3005 RMK AO2 SLP164 T02560211 403280228=
202009040352 METAR KATL 040352Z 24006KT 10SM CLR 26/21 A3004 RMK AO2 SLP162 T02610211=
202009040252 METAR KATL 040252Z 25005KT 10SM CLR 27/21 A3003 RMK AO2 SLP157 T02720211 51015=
202009040152 METAR KATL 040152Z 25006KT 10SM CLR 28/22 A3002 RMK AO2 SLP153 T02780222=
202009040052 METAR KATL 040052Z 26004KT 10SM CLR 28/21 A3000 RMK AO2 SLP147 T02830211=
202009032352 METAR KATL 032352Z 27006KT 10SM FEW250 29/20 A2998 RMK AO2 SLP142 T02890200 10328 20289 53001=
202009032252 METAR KATL 032252Z 28008KT 10SM FEW250 31/20 A2998 RMK AO2 SLP142 T03110200=
202009032152 METAR KATL 032152Z 24010KT 10SM FEW250 32/19 A2998 RMK AO2 SLP140 T03220189=
202009032052 METAR KATL 032052Z 26011KT 10SM FEW050 FEW250 33/19 A2998 RMK AO2 SLP140 T03280194 56017=
202009031952 METAR KATL 031952Z 26012G18KT 10SM FEW046 FEW250 33/21 A2999 RMK AO2 SLP144 T03280206=
202009031852 METAR KATL 031852Z 24007KT 10SM FEW042 FEW250 32/22 A3002 RMK AO2 SLP152 T03220217=
202009031752 METAR KATL 031752Z 28010KT 10SM FEW038 32/22 A3003 RMK AO2 SLP158 T03170217 10317 20233 58006=
202009031652 METAR KATL 031652Z 31008KT 10SM SCT031 31/22 A3005 RMK AO2 SLP163 T03060222=
202009031552 METAR KATL 031552Z 26008KT 10SM SCT024 30/23 A3005 RMK AO2 SLP165 T03000228=
202009031452 METAR KATL 031452Z 28010KT 10SM FEW018 29/23 A3005 RMK AO2 SLP165 T02890228 51009=
202009031352 METAR KATL 031352Z 27009KT 10SM CLR 27/22 A3004 RMK AO2 SLP162 T02720222=
202009031252 METAR KATL 031252Z 28007KT 10SM FEW250 26/22 A3004 RMK AO2 SLP160 T02560217=
202009031152 METAR KATL 031152Z 00000KT 10SM FEW250 23/21 A3002 RMK AO2 SLP156 T02330211 10250 20228 53008=
202009031052 METAR KATL 031052Z 00000KT 10SM FEW250 23/21 A3001 RMK AO2 SLP152 T02330211=
202009030952 METAR KATL 030952Z 22003KT 10SM CLR 23/21 A3001 RMK AO2 SLP150 T02280211=
202009030852 METAR KATL 030852Z 19004KT 10SM CLR 23/21 A3000 RMK AO2 SLP147 T02330211 56005=
202009030752 METAR KATL 030752Z 27004KT 10SM CLR 24/21 A3000 RMK AO2 SLP146 T02390211=
202009030652 METAR KATL 030652Z 28006KT 10SM CLR 24/21 A3001 RMK AO2 SLP149 T02440211=
202009030552 METAR KATL 030552Z 24005KT 10SM CLR 25/21 A3001 RMK AO2 SLP152 T02500211 10283 20250 55000=
202009030452 METAR KATL 030452Z 24006KT 10SM CLR 26/22 A3001 RMK AO2 SLP151 T02560217 403170233=
202009030352 METAR KATL 030352Z 24005KT 10SM CLR 26/22 A3002 RMK AO2 SLP152 T02560217=
202009030252 METAR KATL 030252Z 22005KT 10SM CLR 26/22 A3002 RMK AO2 SLP153 T02560222 53009=
202009030152 METAR KATL 030152Z 23005KT 10SM FEW040 27/22 A3001 RMK AO2 SLP150 T02670222=
202009030052 METAR KATL 030052Z 22005KT 10SM CLR 27/22 A2999 RMK AO2 SLP145 T02720217=
202009022352 METAR KATL 022352Z 22004KT 10SM FEW040 FEW250 28/21 A2999 RMK AO2 SLP143 T02830211 10317 20283 55001=
202009022252 METAR KATL 022252Z 23006KT 10SM FEW040 FEW250 30/21 A2998 RMK AO2 SLP141 T03000206=
202009022152 METAR KATL 022152Z 25009G17KT 10SM FEW042 FEW250 31/20 A2998 RMK AO2 SLP142 T03060200=
202009022052 METAR KATL 022052Z 26008G16KT 10SM FEW042 FEW250 31/21 A2999 RMK AO2 SLP143 T03110206 56011=
202009021952 METAR KATL 021952Z 26009KT 10SM FEW040 SCT250 31/21 A3000 RMK AO2 SLP146 T03110206=
202009021852 METAR KATL 021852Z 28009KT 10SM SCT035 SCT250 31/22 A3001 RMK AO2 SLP150 T03060222=
202009021752 METAR KATL 021752Z 25008KT 10SM FEW032 SCT042 SCT250 30/22 A3002 RMK AO2 SLP155 MDT CU SW-NW-NE T03000222 10311 20239 58010=
202009021652 METAR KATL 021652Z 24010KT 10SM SCT030TCU SCT250 31/23 A3004 RMK AO2 SLP160 TCU N-NE DSNT NE MDT CU ALQDS T03060228=
202009021552 METAR KATL 021552Z 27008KT 10SM SCT028 SCT250 31/23 A3005 RMK AO2 SLP165 TCU DSNT W-NW T03060228=
202009021452 METAR KATL 021452Z 28007KT 10SM FEW016 SCT250 29/23 A3005 RMK AO2 SLP165 T02890233 51005=
202009021352 METAR KATL 021352Z 29007KT 10SM FEW010 FEW250 27/23 A3005 RMK AO2 SLP165 T02720233=
202009021252 METAR KATL 021252Z 27005KT 10SM SCT005 26/23 A3005 RMK AO2 SLP164 T02560233=
202009021152 METAR KATL 021152Z 27005KT 10SM FEW004 FEW250 24/23 A3004 RMK AO2 SLP161 70013 T02390228 10244 20233 53013=
202009021052 METAR KATL 021052Z 27004KT 7SM FEW003 FEW200 23/23 A3002 RMK AO2 SLP154 VIS LWR NW-N T02330228=
202009021018 SPECI KATL 021018Z 27005KT 6SM BR SCT003 SCT200 24/23 A3001 RMK AO2 VIS NW2 1/2 T02390228=
202009020952 METAR KATL 020952Z 27006KT 4SM BR BKN003 BKN200 24/23 A3001 RMK AO2 SLP150 VIS SW-NW2 1/2 BKN003 V SCT T02390228=
202009020936 SPECI KATL 020936Z 26005KT 8SM SCT004 SCT200 24/23 A3000 RMK AO2 T02390228=
202009020852 METAR KATL 020852Z 27005KT 10SM FEW200 SCT250 24/23 A3000 RMK AO2 SLP146 T02390228 55001=
202009020752 METAR KATL 020752Z 23005KT 10SM FEW200 SCT250 24/23 A2999 RMK AO2 SLP143 T02440228=
202009020652 METAR KATL 020652Z 23004KT 10SM FEW200 SCT250 24/23 A2998 RMK AO2 SLP139 T02440228=
202009020552 METAR KATL 020552Z 24005KT 10SM FEW200 SCT250 24/23 A3000 RMK AO2 SLP148 T02440228 10283 20244 56014=
202009020452 METAR KATL 020452Z 20003KT 10SM FEW200 BKN250 25/23 A3001 RMK AO2 SLP151 T02500228 403170233=
202009020352 METAR KATL 020352Z 21004KT 10SM FEW200 BKN250 26/23 A3002 RMK AO2 SLP155 T02560228=
202009020252 METAR KATL 020252Z 00000KT 10SM SCT200 BKN250 26/23 A3004 RMK AO2 SLP161 T02610228 50012=
202009020152 METAR KATL 020152Z 00000KT 10SM SCT200 BKN250 27/23 A3004 RMK AO2 SLP163 T02670233=
202009020052 METAR KATL 020052Z 26003KT 10SM FEW150 SCT200 BKN250 27/23 A3002 RMK AO2 SLP154 T02720233=
202009012352 METAR KATL 012352Z 25005KT 10SM FEW030 FEW150 SCT200 BKN250 28/23 A3001 RMK AO2 LTG DSNT SE AND S SLP150 CB DSNT SE S 60013 T02830233 10317 20261 53008=
202009012252 METAR KATL 012252Z 27005KT 10SM FEW030 SCT140 BKN200 BKN250 29/23 A3000 RMK AO2 LTG DSNT S SLP146 CB DSNT SE-SW T02940228=
202009012152 METAR KATL 012152Z 28006KT 10SM FEW030 SCT140 BKN200 31/23 A2999 RMK AO2 LTG DSNT E AND SE SLP143 CB DSNT NE E-SE TCU DSNT SE-S T03060228=
202009012052 METAR KATL 012052Z 27005KT 10SM FEW032 SCT075 SCT140 BKN200 BKN250 31/24 A2998 RMK AO2 SLP141 CB DSNT NE NW TCU DSNT N NE-SE 60013 T03110244 55011=
202009011952 METAR KATL 011952Z 27007KT 10SM FEW032 SCT070 BKN130 BKN200 31/23 A2998 RMK AO2 SLP142 CB DSNT E NW TCU DSNT NE-SE-SW T03060228 $=
202009011852 METAR KATL 011852Z 27003KT 10SM FEW032TCU SCT070 BKN110 BKN200 31/22 A3000 RMK AO2 RAB06E35 SLP148 CB DSNT SW-NW TCU SE-S DSNT N-E P0013 T03060222 $=
202009011827 SPECI KATL 011827Z 27003KT 8SM -RA SCT032CB BKN070 BKN120 BKN200 27/23 A3001 RMK AO2 RAB06 CB SW MOV E TCU NE SE DSNT ALQDS P0012 T02670233 $=
202009011809 SPECI KATL 011809Z 27011KT 6SM +RA SCT032CB BKN070 BKN150 BKN200 27/24 A3002 RMK AO2 RAB06 VIS LWR SW-W CB OHD-SW MOV E TCU DSNT ALQDS P0003 T02720244=
202009011752 METAR KATL 011752Z 00000KT 10SM SCT032CB BKN065 BKN150 BKN200 30/23 A3002 RMK AO2 SLP152 CB SW-W MOV E TCU SE-SW DSNT ALQDS SHRA SW-W T03000228 10317 20244 57009=
202009011652 METAR KATL 011652Z 32006KT 10SM BKN032TCU BKN200 BKN250 31/23 A3002 RMK AO2 SLP155 TCU ALQDS T03060228=
202009011552 METAR KATL 011552Z 29007KT 10SM SCT024TCU SCT200 BKN250 BKN300 30/23 A3004 RMK AO2 SLP159 TCU N-E-S DSNT SW-W T03000233=
202009011452 METAR KATL 011452Z 27005KT 10SM FEW020 SCT200 SCT250 BKN300 29/23 A3004 RMK AO2 SLP162 T02890233 51009=
202009011352 METAR KATL 011352Z 00000KT 10SM FEW018 FEW050 SCT140 SCT200 BKN250 27/22 A3004 RMK AO2 SLP161 T02720222=
202009011252 METAR KATL 011252Z 24003KT 10SM FEW090 SCT150 SCT200 BKN250 26/22 A3004 RMK AO2 SLP161 ACC SW T02560222=
