##########################################################
# Query made at 04/20/2024 00:13:34 UTC
# Time interval: from 11/01/2020 12:00  to 11/30/2020 12:59  UTC
##########################################################

##########################################################
# KATL, Atlanta, Hartsfield - Jackson Atlanta International Airport (United States)
# WMO index: 72219. WIGOS ID: 0-20000-0-72219
# Latitude 33-38-59N. Longitude 084-25-00W. Altitude 312 m.
##########################################################

202011301252 METAR KATL 301252Z 30016KT 10SM OVC012 07/04 A2977 RMK AO2 PK WND 28032/1249 SLP082 T00720039 $=
202011301152 METAR KATL 301152Z 28017G28KT 10SM BKN011 OVC022 08/05 A2974 RMK AO2 PK WND 31030/1111 SLP070 60013 70154 T00780050 10133 20078 51046 $=
202011301052 METAR KATL 301052Z 28019G39KT 10SM OVC011 09/06 A2970 RMK AO2 PK WND 29039/1046 SLP057 CIG 009V013 T00890061=
202011301041 SPECI KATL 301041Z 30019G25KT 10SM BKN010 OVC015 09/07 A2969 RMK AO2 PK WND 30033/1026 CIG 009V013 T00890067=
202011301029 SPECI KATL 301029Z 29017G33KT 10SM BKN009 OVC015 09/07 A2968 RMK AO2 PK WND 30033/1026 PRESRR CIG 008V012 T00890067=
202011300952 METAR KATL 300952Z 29014G24KT 10SM BKN009 OVC024 09/08 A2965 RMK AO2 PK WND 29036/0906 DZB0856E28 SLP039 CIG 008V012 P0000 T00940078=
202011300940 SPECI KATL 300940Z 29018G28KT 10SM BKN008 BKN012 OVC024 10/08 A2964 RMK AO2 PK WND 29036/0906 DZB0856E28 P0000 T01000078=
202011300906 SPECI KATL 300906Z 28025G36KT 2SM -DZ BR BKN005 OVC011 12/11 A2961 RMK AO2 PK WND 29036/0906 SFC VIS 5 DZB0856 P0000 T01220106 $=
202011300852 METAR KATL 300852Z 26012KT 2SM BR BKN005 OVC009 13/12 A2960 RMK AO2 SFC VIS 4 RAE08 SLP020 P0001 60013 T01330122 56016 $=
202011300752 METAR KATL 300752Z 27005KT 2SM -RA BR BKN005 OVC013 13/12 A2961 RMK AO2 SFC VIS 5 SLP024 CIG 004V007 P0005 T01330122 $=
202011300717 SPECI KATL 300717Z 00000KT 2SM -RA BR BKN005 OVC012 13/12 A2960 RMK AO2 SFC VIS 6 P0001 T01280117 $=
202011300652 METAR KATL 300652Z 08008KT 2SM -RA BR BKN004 OVC012 13/12 A2959 RMK AO2 SFC VIS 6 SLP019 CIG 003V005 P0007 T01280117 $=
202011300609 SPECI KATL 300609Z 10008KT 2SM -RA BR BKN004 OVC014 13/12 A2963 RMK AO2 SFC VIS 4 P0000 T01280117 $=
202011300552 METAR KATL 300552Z 10007KT 2SM RA BR BKN005 OVC013 12/12 A2965 RMK AO2 SLP038 P0013 60098 T01220117 10133 20122 56053 $=
202011300452 METAR KATL 300452Z 10009G15KT 3SM -RA BR OVC004 13/12 A2970 RMK AO2 SFC VIS 5 RAB02 SLP054 CIG 004V006 P0006 T01280117 401330111 $=
202011300352 METAR KATL 300352Z 10008KT 3SM BR BKN005 OVC035 13/12 A2974 RMK AO2 SFC VIS 6 RAE51 SLP070 CIG 004V006 P0011 T01280117 $=
202011300252 METAR KATL 300252Z 08008KT 3SM RA BR BKN006 BKN010 OVC027 13/12 A2981 RMK AO2 SLP092 P0029 60068 T01280117 55017 $=
202011300250 SPECI KATL 300250Z 09005KT 3SM RA BR BKN006 BKN010 OVC027 13/12 A2981 RMK AO2 P0028 $=
202011300237 SPECI KATL 300237Z 09008KT 3SM RA BR SCT006 BKN010 OVC027 13/12 A2980 RMK AO2 SFC VIS 4 P0026 T01280117 $=
202011300152 METAR KATL 300152Z 06008KT 020V090 3SM -RA BR BKN006 OVC020 13/12 A2982 RMK AO2 SFC VIS 4 SLP098 CIG 005V008 P0020 T01280117=
202011300052 METAR KATL 300052Z 10010KT 2SM RA BR BKN006 OVC020 13/12 A2986 RMK AO2 SFC VIS 4 PRESFR SLP111 CIG 004V008 P0019 T01330122=
202011292352 METAR KATL 292352Z 11008KT 2SM RA BR OVC006 13/12 A2992 RMK AO2 SFC VIS 4 SLP132 CIG 004V008 P0015 60043 T01330122 10133 20133 55009=
202011292252 METAR KATL 292252Z 09007KT 2SM RA BR FEW003 BKN006 OVC010 13/12 A2991 RMK AO2 SFC VIS 4 SLP127 P0014 T01330122=
202011292152 METAR KATL 292152Z 10006KT 3SM -RA BR OVC006 13/12 A2995 RMK AO2 SFC VIS 5 SLP141 CIG 004V008 P0009 T01330122=
202011292052 METAR KATL 292052Z 09009KT 3SM -RA BR OVC005 13/12 A2995 RMK AO2 SFC VIS 5 SLP142 P0005 60005 T01330122 56033=
202011291952 METAR KATL 291952Z 12007KT 3SM -RA BR OVC005 13/12 A2997 RMK AO2 SFC VIS 6 RAE02B22 SLP147 TWRINC P0000 T01330117=
202011291923 SPECI KATL 291923Z 12009KT 3SM -RA OVC004 13/12 A2998 RMK AO2 SFC VIS 7 RAE02B22 TWRINC P0000 T01330117=
202011291852 METAR KATL 291852Z 12008KT 7SM -RA OVC006 13/12 A2999 RMK AO2 RAB49 PRESFR SLP156 P0000 T01330117=
202011291752 METAR KATL 291752Z 12008KT 7SM OVC008 13/11 A3005 RMK AO2 SLP176 T01330111 10133 20122 58022=
202011291713 SPECI KATL 291713Z 12007KT 10SM OVC009 13/11 A3008 RMK AO2 T01330111=
202011291652 METAR KATL 291652Z 12008KT 10SM OVC011 13/11 A3011 RMK AO2 SLP195 T01330106=
202011291615 SPECI KATL 291615Z 12008KT 7SM OVC012 13/11 A3012 RMK AO2 T01330106=
202011291552 METAR KATL 291552Z 12008KT 1 1/4SM BR BKN009 OVC014 13/11 A3012 RMK AO2 SFC VIS 5 SLP198 T01330111=
202011291541 SPECI KATL 291541Z 10008KT 1 1/4SM BR OVC006 13/11 A3011 RMK AO2 SFC VIS 5 T01330111=
202011291511 SPECI KATL 291511Z 11009KT 1/4SM R09R/P6000FT BR OVC004 13/11 A3011 RMK AO2 SFC VIS 1 TWRINC T01330111=
202011291452 METAR KATL 291452Z 12008KT 1SM R09R/P6000FT BR OVC004 13/11 A3012 RMK AO2 SLP198 T01330111 53011=
202011291352 METAR KATL 291352Z 12009KT 1SM R09R/P6000FT BR OVC004 12/12 A3010 RMK AO2 SLP193 CIG 002V005 T01220117=
202011291304 SPECI KATL 291304Z 10011KT 1 1/4SM BR OVC003 12/12 A3009 RMK AO2 CIG 002V004 T01220117=
202011291252 METAR KATL 291252Z 09008KT 1/2SM R09R/4000V5500FT FG OVC002 12/12 A3009 RMK AO2 SLP189 T01220117=
202011291249 SPECI KATL 291249Z 09009KT 3/4SM R09R/4000V5500FT BR OVC002 12/12 A3009 RMK AO2=
202011291152 METAR KATL 291152Z 08006KT 1SM R09R/5000V6000FT BR OVC002 12/12 A3009 RMK AO2 SLP187 T01220117 10122 20111 50004=
202011291052 METAR KATL 291052Z 11008KT 1 1/4SM R09R/5000VP6000FT BR VV002 12/11 A3009 RMK AO2 SLP188 T01170111=
202011291048 SPECI KATL 291048Z 11006KT 1 1/4SM R09R/4500VP6000FT BR VV002 12/11 A3009 RMK AO2=
202011291010 SPECI KATL 291010Z 08005KT 1/2SM R09R/2000V2400FT FG VV002 12/11 A3008 RMK AO2 T01170111=
202011290952 METAR KATL 290952Z 11003KT 1/4SM R09R/1400V1800FT FG VV002 12/11 A3008 RMK AO2 SLP183 T01170111=
202011290920 SPECI KATL 290920Z 08007KT 1/4SM R09R/1400V1800FT FG VV002 11/11 A3007 RMK AO2 T01110106=
202011290901 SPECI KATL 290901Z 09005KT 1/2SM R09R/1400V2000FT FG VV002 11/11 A3007 RMK AO2 T01110106=
202011290852 METAR KATL 290852Z 09004KT 1/2SM R09R/2000V6000FT FG VV002 11/11 A3007 RMK AO2 SLP182 T01110106 58007=
202011290847 SPECI KATL 290847Z 08004KT 3/4SM R09R/3000VP6000FT BR VV002 12/11 A3008 RMK AO2=
202011290829 SPECI KATL 290829Z 10005KT 7SM BKN003 OVC250 12/09 A3008 RMK AO2 BKN003 V SCT T01170094=
202011290752 METAR KATL 290752Z 08003KT 10SM SCT008 BKN200 OVC250 12/09 A3009 RMK AO2 SLP185 SCT008 V BKN T01220089=
202011290744 SPECI KATL 290744Z 07003KT 10SM BKN008 BKN200 OVC250 12/09 A3009 RMK AO2 T01170089=
202011290730 SPECI KATL 290730Z 00000KT 10SM SCT007 SCT200 OVC250 12/08 A3009 RMK AO2 T01170083=
202011290652 METAR KATL 290652Z 10005KT 10SM SCT200 OVC250 12/08 A3008 RMK AO2 SLP185 T01170078=
202011290552 METAR KATL 290552Z 06004KT 10SM SCT200 OVC240 12/07 A3010 RMK AO2 SLP189 T01220067 10150 20122 58003=
202011290452 METAR KATL 290452Z 03004KT 10SM SCT200 OVC250 13/06 A3010 RMK AO2 SLP192 T01330061 402000106=
202011290352 METAR KATL 290352Z 34004KT 10SM SCT200 OVC250 13/06 A3011 RMK AO2 SLP192 T01280061=
202011290252 METAR KATL 290252Z 35004KT 10SM FEW200 OVC250 13/07 A3011 RMK AO2 SLP193 T01330067 53003=
202011290152 METAR KATL 290152Z 33003KT 10SM SCT200 OVC250 14/07 A3010 RMK AO2 SLP194 T01390067=
202011290052 METAR KATL 290052Z 32005KT 10SM SCT200 OVC250 14/07 A3009 RMK AO2 SLP188 T01390072=
202011282352 METAR KATL 282352Z 33006KT 10SM SCT200 OVC250 15/08 A3010 RMK AO2 SLP191 T01500078 10200 20150 53014=
202011282252 METAR KATL 282252Z 32007KT 10SM BKN200 OVC250 16/08 A3006 RMK AO2 SLP179 T01560078=
202011282152 METAR KATL 282152Z 33007KT 10SM FEW200 BKN250 17/07 A3006 RMK AO2 SLP178 T01720072=
202011282052 METAR KATL 282052Z 32008KT 10SM SCT200 BKN250 18/07 A3005 RMK AO2 SLP175 T01830072 55011=
202011281952 METAR KATL 281952Z 01007KT 10SM BKN200 20/07 A3005 RMK AO2 SLP173 T02000072=
202011281852 METAR KATL 281852Z 36006KT 10SM BKN200 19/07 A3006 RMK AO2 SLP175 T01940072=
202011281752 METAR KATL 281752Z 00000KT 10SM SCT150 BKN250 19/07 A3009 RMK AO2 SLP186 T01890072 10200 20106 56008=
202011281652 METAR KATL 281652Z 32006KT 10SM FEW150 FEW250 18/09 A3009 RMK AO2 SLP187 T01780089=
202011281552 METAR KATL 281552Z 34010KT 10SM FEW150 SCT250 16/09 A3011 RMK AO2 SLP193 T01560094=
202011281452 METAR KATL 281452Z 33006KT 10SM FEW150 BKN250 13/09 A3011 RMK AO2 SLP195 T01330094 53019=
202011281352 METAR KATL 281352Z 32007KT 10SM FEW100 FEW200 FEW250 12/09 A3009 RMK AO2 SLP188 T01170094=
202011281252 METAR KATL 281252Z 32007KT 10SM FEW055 FEW080 SCT200 SCT250 11/09 A3007 RMK AO2 SLP181 T01060089=
202011281152 METAR KATL 281152Z 31006KT 10SM FEW055 FEW080 SCT250 11/09 A3005 RMK AO2 SLP176 60006 70012 T01110089 10133 20106 53007=
202011281052 METAR KATL 281052Z 29003KT 10SM FEW040 SCT055 SCT250 11/09 A3004 RMK AO2 SLP170 T01110094=
202011280952 METAR KATL 280952Z 34004KT 10SM FEW025 BKN042 12/09 A3004 RMK AO2 SLP168 T01220094=
202011280852 METAR KATL 280852Z 35007KT 10SM FEW025 OVC048 12/10 A3003 RMK AO2 RAE23 SLP167 P0002 60006 T01170100 56009=
202011280752 METAR KATL 280752Z 33011KT 6SM -RA BR FEW026 SCT034 OVC044 13/11 A3005 RMK AO2 RAE07B49 SLP172 P0001 T01280106=
202011280652 METAR KATL 280652Z 31004KT 8SM -RA FEW017 SCT035 OVC070 13/11 A3003 RMK AO2 SLP166 P0003 T01330111=
202011280552 METAR KATL 280552Z 33005KT 6SM -RA FEW015 BKN075 OVC100 13/11 A3006 RMK AO2 RAB00 SLP175 P0006 60006 T01330106 10172 20133 50000=
202011280452 METAR KATL 280452Z 25004KT 10SM SCT024 BKN030 OVC150 16/08 A3006 RMK AO2 SLP176 T01560083 402220078=
202011280352 METAR KATL 280352Z 00000KT 10SM SCT044 BKN060 BKN100 OVC150 15/08 A3006 RMK AO2 SLP176 T01500083=
202011280252 METAR KATL 280252Z 00000KT 10SM FEW035 BKN150 OVC200 16/06 A3006 RMK AO2 SLP177 T01560056 50006=
202011280152 METAR KATL 280152Z 00000KT 10SM FEW030 BKN150 OVC200 16/06 A3007 RMK AO2 SLP181 T01560061=
202011280052 METAR KATL 280052Z 30005KT 10SM SCT150 BKN200 OVC250 16/06 A3006 RMK AO2 SLP180 T01560061=
202011272352 METAR KATL 272352Z 13003KT 10SM FEW150 BKN200 OVC250 17/06 A3004 RMK AO2 SLP172 T01670056 10222 20167 58015=
202011272252 METAR KATL 272252Z 00000KT 10SM FEW150 BKN200 OVC250 18/03 A3007 RMK AO2 SLP181 T01830033=
202011272152 METAR KATL 272152Z 03003KT 10SM FEW070 FEW140 BKN200 OVC250 20/02 A3007 RMK AO2 SLP179 T02000022=
202011272052 METAR KATL 272052Z 31006KT 10SM FEW040 FEW070 SCT140 OVC200 21/04 A3009 RMK AO2 SLP186 ACC DSNT S T02060039 55006=
202011271952 METAR KATL 271952Z 29005KT 10SM FEW065 FEW140 BKN200 BKN250 22/03 A3008 RMK AO2 SLP182 T02170028=
202011271852 METAR KATL 271852Z 30005KT 10SM FEW070 FEW150 BKN200 BKN250 22/03 A3009 RMK AO2 SLP187 T02170033=
202011271752 METAR KATL 271752Z 33005KT 10SM FEW150 SCT200 SCT250 21/03 A3010 RMK AO2 SLP191 T02110028 10211 20078 58019=
202011271652 METAR KATL 271652Z 31006KT 10SM FEW200 SCT250 19/04 A3013 RMK AO2 SLP201 T01940044=
202011271552 METAR KATL 271552Z 36008KT 10SM FEW250 18/05 A3015 RMK AO2 SLP208 T01780050=
202011271452 METAR KATL 271452Z 33006KT 10SM FEW075 FEW250 14/08 A3016 RMK AO2 SLP212 T01390083 51014=
202011271352 METAR KATL 271352Z 32005KT 10SM FEW090 FEW150 SCT250 11/07 A3015 RMK AO2 SLP210 T01110072=
202011271252 METAR KATL 271252Z 00000KT 10SM FEW150 FEW250 08/07 A3014 RMK AO2 SLP205 T00830067=
202011271152 METAR KATL 271152Z 00000KT 10SM FEW150 08/06 A3012 RMK AO2 SLP199 T00780056 10117 20078 53003=
202011271052 METAR KATL 271052Z 31003KT 10SM FEW250 08/06 A3011 RMK AO2 SLP194 T00830061=
202011270952 METAR KATL 270952Z 32004KT 10SM FEW180 SCT250 09/07 A3010 RMK AO2 SLP192 T00940067=
202011270852 METAR KATL 270852Z 32004KT 10SM SCT180 SCT250 10/07 A3011 RMK AO2 SLP193 T01000067 53001=
202011270752 METAR KATL 270752Z 28004KT 10SM FEW200 09/06 A3011 RMK AO2 SLP191 T00940061=
202011270652 METAR KATL 270652Z 25003KT 10SM SCT200 11/07 A3010 RMK AO2 SLP191 T01060067=
202011270552 METAR KATL 270552Z 28003KT 10SM FEW200 11/07 A3011 RMK AO2 SLP191 T01060072 10178 20106 53003=
202011270452 METAR KATL 270452Z 00000KT 10SM FEW200 12/08 A3010 RMK AO2 SLP189 T01170078 402330117=
202011270352 METAR KATL 270352Z 30004KT 10SM FEW250 14/08 A3010 RMK AO2 SLP189 T01440078=
202011270252 METAR KATL 270252Z 29003KT 10SM FEW250 14/07 A3010 RMK AO2 SLP189 T01440072 51010=
202011270152 METAR KATL 270152Z 29004KT 10SM FEW042 FEW250 15/08 A3010 RMK AO2 SLP188 T01500083=
202011270052 METAR KATL 270052Z 27003KT 10SM FEW042 17/09 A3009 RMK AO2 SLP184 T01670094=
202011262352 METAR KATL 262352Z 25003KT 10SM FEW042 17/13 A3007 RMK AO2 SLP177 T01720128 10233 20172 53004=
202011262252 METAR KATL 262252Z 00000KT 10SM FEW042 19/13 A3006 RMK AO2 SLP174 T01890128=
202011262152 METAR KATL 262152Z 25006KT 10SM FEW042 FEW250 22/13 A3006 RMK AO2 SLP172 T02170128=
202011262052 METAR KATL 262052Z 24008KT 10SM FEW044 FEW085 23/12 A3005 RMK AO2 SLP171 T02280117 56014=
202011261952 METAR KATL 261952Z 21008KT 10SM FEW042 FEW080 SCT250 23/13 A3006 RMK AO2 SLP174 T02280128=
202011261852 METAR KATL 261852Z 25008KT 10SM FEW040 FEW080 SCT200 SCT250 23/12 A3008 RMK AO2 SLP179 T02280122=
202011261752 METAR KATL 261752Z 24009KT 10SM FEW032 SCT085 SCT200 SCT250 21/14 A3010 RMK AO2 SLP186 T02110144 10222 20172 58013=
202011261652 METAR KATL 261652Z 27006KT 10SM SCT020 SCT085 BKN200 BKN250 21/16 A3012 RMK AO2 SLP196 T02060156=
202011261629 SPECI KATL 261629Z 26006KT 10SM SCT018 SCT075 BKN100 BKN200 21/17 A3013 RMK AO2 T02060167=
202011261552 METAR KATL 261552Z 00000KT 10SM BKN015 BKN070 BKN100 BKN200 20/17 A3014 RMK AO2 SLP200 ACC NW-NE-SE CIG 013V017 T02000167=
202011261516 SPECI KATL 261516Z 00000KT 10SM SCT014 BKN065 BKN100 BKN200 19/17 A3014 RMK AO2 ACC ALQDS T01940167=
202011261452 METAR KATL 261452Z 00000KT 10SM SCT008 BKN014 BKN065 BKN200 19/16 A3013 RMK AO2 SLP200 CIG 012V016 T01890161 51015=
202011261438 SPECI KATL 261438Z 32003KT 10SM SCT008 BKN012 BKN065 BKN200 19/16 A3013 RMK AO2 T01890161=
202011261352 METAR KATL 261352Z 00000KT 10SM FEW008 SCT028 BKN040 18/17 A3013 RMK AO2 SLP198 T01830167=
202011261336 SPECI KATL 261336Z 00000KT 10SM FEW008 SCT028 BKN040 18/17 A3012 RMK AO2 T01780167=
202011261252 METAR KATL 261252Z 00000KT 10SM SCT006 BKN028 BKN042 18/17 A3010 RMK AO2 SLP189 T01780167 $=
202011261243 SPECI KATL 261243Z 00000KT 10SM SCT006 BKN028 OVC042 18/17 A3010 RMK AO2 T01780167 $=
202011261152 METAR KATL 261152Z 28006KT 10SM BKN006 OVC010 18/17 A3009 RMK AO2 SLP185 60069 70098 T01780167 10183 20167 53015 $=
202011261052 METAR KATL 261052Z 26005KT 7SM BKN005 BKN035 OVC050 18/17 A3006 RMK AO2 RAE29 SLP177 P0002 T01780172 $=
202011260952 METAR KATL 260952Z 23004KT 3SM -RA BR BKN005 BKN025 OVC037 18/17 A3005 RMK AO2 SLP171 P0034 T01780172 $=
202011260949 SPECI KATL 260949Z 24005KT 4SM -RA BR SCT005 BKN025 OVC037 18/17 A3005 RMK AO2 P0034 $=
202011260946 SPECI KATL 260946Z 23006KT 1 1/2SM +RA BR BKN005 BKN022 OVC034 18/17 A3004 RMK AO2 LTG DSNT E AND SW CB DSNT E & SW P0034 $=
202011260942 SPECI KATL 260942Z 23006KT 1 1/2SM R09R/5500VP6000FT -RA BR BKN005 BKN022 OVC034 18/17 A3004 RMK AO2 LTG DSNT E AND SW CB DSNT E & SW P0030 T01780172 $=
202011260936 SPECI KATL 260936Z 22008KT 2SM R09R/5500VP6000FT -RA BR BKN005 BKN010 OVC025 18/17 A3004 RMK AO2 VIS 1V5 LTG DSNT E AND SW CB DSNT E & SW P0018 T01780172=
202011260920 SPECI KATL 260920Z 22007KT 2 1/2SM VCTS -RA BR BKN005 OVC020CB 18/17 A3004 RMK AO2 VIS 1 1/2V5 LTG DSNT NE AND E OCNL VC LTGICCC SE-SW TS VC SE-SW MOV NE CB DSNT NE-E P0011 T01780167=
202011260904 SPECI KATL 260904Z 20006KT 3SM VCTS RA BR BKN006 BKN014CB OVC029 18/17 A3003 RMK AO2 LTG DSNT E AND SW OCNL VC LTGICCC S-SW TS VC S-SW MOV NE CB DSNT NE-E & SW P0005 T01780167=
202011260852 METAR KATL 260852Z 18005KT 3SM -RA BR BKN006 BKN013 OVC030 18/17 A3003 RMK AO2 LTG DSNT SW SLP164 CB DSNT S-SW P0018 60033 T01780167 56018=
202011260752 METAR KATL 260752Z 21007KT 6SM -RA BR OVC006 18/17 A3005 RMK AO2 SLP168 CIG 004V008 P0011 T01780167=
202011260702 SPECI KATL 260702Z 20012G19KT 6SM -RA BR OVC007 17/16 A3006 RMK AO2 CIG 005V009 P0003 T01720161=
202011260652 METAR KATL 260652Z 20009KT 5SM RA BR OVC004 17/16 A3006 RMK AO2 LTG DSNT W RAB01 SLP174 CIG 003V005 CB DSNT W P0004 T01720161=
202011260552 METAR KATL 260552Z 19008KT 2SM OVC004 17/16 A3009 RMK AO2 SFC VIS 10 RAE0459 SLP183 CIG 003V005 P0000 60000 T01670156 10167 20161 58006=
202011260452 METAR KATL 260452Z 18008KT 2SM -RA BKN004 OVC010 16/15 A3010 RMK AO2 SFC VIS 10 RAB50 SLP187 P0000 T01610150 402220089=
202011260352 METAR KATL 260352Z 17004KT 1SM R09R/P6000FT OVC004 16/15 A3010 RMK AO2 SFC VIS 9 SLP191 CIG 003V005 T01610150=
202011260252 METAR KATL 260252Z 16005KT 2SM BKN004 OVC150 16/15 A3010 RMK AO2 SFC VIS 10 SLP192 60000 T01610150 51017=
202011260219 SPECI KATL 260219Z 20004KT 2SM BKN004 BKN130 OVC200 16/15 A3011 RMK AO2 SFC VIS 9 T01610150=
202011260152 METAR KATL 260152Z 20006KT 10SM BKN006 BKN130 OVC200 16/14 A3009 RMK AO2 SLP189 T01610144=
202011260113 SPECI KATL 260113Z 18003KT 10SM BKN007 BKN120 OVC150 16/15 A3009 RMK AO2 T01610150=
202011260052 METAR KATL 260052Z 17005KT 10SM FEW006 SCT090 BKN120 OVC150 16/15 A3008 RMK AO2 RAE05 SLP186 P0000 T01610150=
202011260033 SPECI KATL 260033Z 17006KT 10SM FEW008 SCT080 BKN110 OVC150 17/14 A3009 RMK AO2 RAE05 P0000 T01670144=
202011252352 METAR KATL 252352Z 15012G20KT 6SM -RA BR FEW010 BKN080 OVC100 17/15 A3005 RMK AO2 PRESFR SLP174 P0004 60029 T01670150 10222 20167 58009=
202011252252 METAR KATL 252252Z 16005KT 8SM -RA FEW040 SCT070 BKN100 OVC150 17/15 A3010 RMK AO2 WSHFT 2143 SLP192 P0024 T01720150=
202011252206 SPECI KATL 252206Z 22006KT 5SM RA BR FEW023 SCT037CB BKN060 OVC150 17/16 A3011 RMK AO2 WSHFT 2143 VIS LWR NE-SE CB NE-SE-S MOV E P0021 T01670156=
202011252200 SPECI KATL 252200Z 24007G27KT 1 1/2SM R09R/6000VP6000FT +RA BR FEW023 BKN037CB OVC060 17/15 A3012 RMK AO2 WSHFT 2143 CB NE-OHD-SW MOV E P0016 T01720150=
202011252155 SPECI KATL 252155Z 28016G28KT 1SM R09R/6000VP6000FT +RA BR FEW023 BKN037CB OVC060 17/15 A3012 RMK AO2 CB NE-OHD-SW MOV E P0007 T01720150=
202011252152 METAR KATL 252152Z 28017G29KT 2SM +RA FEW020 SCT040CB OVC065 18/14 A3013 RMK AO2 PK WND 30029/2145 RAB47 PRESRR SLP199 CB NE-OHD-SW MOV E SHELF CLOUD NE-SE-SW MOV E P0001 T01780144=
202011252147 SPECI KATL 252147Z 30022G29KT 8SM -RA FEW020 SCT040CB OVC065 19/14 A3011 RMK AO2 PK WND 30029/2145 RAB47 PRESRR CB SW-NW MOV E SHELF CLOUD SW-NW-NE MOV E P0000=
202011252052 METAR KATL 252052Z 17006KT 10SM SCT038 BKN050 OVC075 20/14 A3008 RMK AO2 RAB02E42 SLP184 CB DSNT SW-NW BINOVC P0000 60000 T02000144 56017=
202011251952 METAR KATL 251952Z 18010KT 10SM FEW036 BKN055 OVC075 21/13 A3009 RMK AO2 SLP185 SHRA SW-NW-N T02110128=
202011251852 METAR KATL 251852Z 17011G21KT 10SM SCT036 BKN055 BKN200 BKN250 22/12 A3011 RMK AO2 SLP191 T02170122=
202011251752 METAR KATL 251752Z 18011G21KT 10SM FEW040 SCT055 SCT200 BKN250 21/12 A3013 RMK AO2 SLP201 T02110122 10217 20117 58028=
202011251652 METAR KATL 251652Z 18012G19KT 10SM FEW038 SCT055 SCT110 SCT200 20/12 A3018 RMK AO2 SLP216 T02000117=
202011251552 METAR KATL 251552Z 14006KT 10SM FEW014 FEW110 SCT250 17/12 A3021 RMK AO2 SLP228 T01670117=
202011251508 SPECI KATL 251508Z 13007KT 10SM SCT009 SCT100 SCT250 14/10 A3022 RMK AO2 T01390100=
202011251452 METAR KATL 251452Z 14009KT 7SM BKN008 BKN250 13/10 A3022 RMK AO2 SLP234 CIG 006V010 T01330100 58001=
202011251352 METAR KATL 251352Z 13012G17KT 8SM BKN007 OVC050 12/09 A3023 RMK AO2 SLP239 BINOVC T01170089=
202011251252 METAR KATL 251252Z 11007G16KT 10SM OVC008 12/09 A3025 RMK AO2 SLP246 T01170089=
202011251152 METAR KATL 251152Z 10008KT 10SM BKN009 BKN013 OVC055 12/09 A3022 RMK AO2 SLP234 T01170089 10117 20094 56001=
202011251117 SPECI KATL 251117Z 11011KT 10SM BKN009 BKN013 OVC055 12/09 A3022 RMK AO2 T01170089=
202011251052 METAR KATL 251052Z 11009KT 10SM SCT012 OVC055 12/08 A3022 RMK AO2 SLP235 T01170083=
202011251046 SPECI KATL 251046Z 11008KT 10SM SCT012 OVC055 12/08 A3022 RMK AO2=
202011250952 METAR KATL 250952Z 11007KT 10SM BKN011 OVC050 12/08 A3022 RMK AO2 SLP232 T01170078=
202011250852 METAR KATL 250852Z 12006KT 10SM BKN011 OVC042 11/07 A3023 RMK AO2 SLP234 T01110072 55005=
202011250752 METAR KATL 250752Z 12007KT 10SM BKN011 OVC042 11/06 A3021 RMK AO2 SLP230 T01060061=
202011250652 METAR KATL 250652Z 12009G18KT 10SM BKN012 OVC042 11/05 A3023 RMK AO2 SLP235 T01060050=
202011250618 SPECI KATL 250618Z 12007KT 10SM BKN012 BKN042 BKN250 10/03 A3023 RMK AO2 T01000033=
202011250552 METAR KATL 250552Z 11008KT 10SM SCT042 BKN250 09/03 A3024 RMK AO2 SLP241 T00940028 10122 20089 58011=
202011250452 METAR KATL 250452Z 09010KT 10SM FEW040 BKN250 09/02 A3025 RMK AO2 SLP246 T00940017 401610044=
202011250352 METAR KATL 250352Z 10009KT 10SM FEW042 BKN250 10/02 A3027 RMK AO2 SLP250 T01000017=
202011250252 METAR KATL 250252Z 10010KT 10SM SCT043 BKN250 10/02 A3028 RMK AO2 SLP255 T01000017 50007=
202011250152 METAR KATL 250152Z 10008KT 10SM BKN044 BKN250 11/02 A3029 RMK AO2 SLP258 T01060022=
202011250052 METAR KATL 250052Z 10009KT 10SM BKN040 BKN250 12/02 A3028 RMK AO2 SLP255 T01170022=
202011242352 METAR KATL 242352Z 12007KT 10SM FEW200 SCT250 12/02 A3026 RMK AO2 SLP249 T01220022 10161 20122 51008=
202011242252 METAR KATL 242252Z 11005KT 10SM FEW200 BKN250 13/02 A3025 RMK AO2 SLP246 T01330022=
202011242152 METAR KATL 242152Z 11009KT 10SM SCT200 BKN250 15/02 A3025 RMK AO2 SLP244 T01500017=
202011242052 METAR KATL 242052Z 14009KT 10SM SCT200 BKN250 16/01 A3023 RMK AO2 SLP239 T01560011 57020=
202011241952 METAR KATL 241952Z 12009KT 10SM SCT200 BKN250 16/01 A3026 RMK AO2 SLP246 T01560006=
202011241852 METAR KATL 241852Z 11010KT 10SM SCT200 BKN250 16/00 A3027 RMK AO2 SLP252 T01560000=
202011241752 METAR KATL 241752Z 11007KT 10SM SCT200 BKN250 14/00 A3029 RMK AO2 SLP259 T01440000 10150 20044 58022=
202011241652 METAR KATL 241652Z 11008KT 10SM SCT200 SCT250 13/00 A3033 RMK AO2 SLP272 T01330000=
202011241552 METAR KATL 241552Z 12010G17KT 10SM FEW200 SCT250 12/M01 A3035 RMK AO2 SLP281 T01171006=
202011241452 METAR KATL 241452Z 12011KT 10SM SCT200 SCT250 10/M01 A3036 RMK AO2 SLP284 T01001011 51015=
202011241352 METAR KATL 241352Z 10010KT 10SM FEW200 SCT250 08/00 A3035 RMK AO2 SLP279 T00780000=
202011241252 METAR KATL 241252Z 09008KT 10SM FEW250 05/00 A3033 RMK AO2 SLP274 T00500000=
202011241152 METAR KATL 241152Z 09009KT 10SM FEW250 04/M01 A3031 RMK AO2 SLP269 T00441006 10072 20044 53017=
202011241052 METAR KATL 241052Z 09008KT 10SM FEW250 05/00 A3029 RMK AO2 SLP261 T00500000=
202011240952 METAR KATL 240952Z 09008KT 10SM FEW250 05/M01 A3028 RMK AO2 SLP256 T00501006=
202011240852 METAR KATL 240852Z 10006KT 10SM FEW250 05/00 A3026 RMK AO2 SLP249 T00500000 53008=
202011240752 METAR KATL 240752Z 08008KT 10SM FEW250 06/01 A3025 RMK AO2 SLP243 T00610006=
202011240652 METAR KATL 240652Z 04003KT 10SM FEW250 07/01 A3024 RMK AO2 SLP241 T00720006=
202011240552 METAR KATL 240552Z 03005KT 10SM FEW250 07/00 A3024 RMK AO2 SLP240 T00670000 10106 20061 53004=
202011240452 METAR KATL 240452Z 33006KT 10SM FEW250 07/00 A3023 RMK AO2 SLP237 T00670000 401670061=
202011240352 METAR KATL 240352Z 33004KT 10SM FEW250 07/00 A3023 RMK AO2 SLP238 T00670000=
202011240252 METAR KATL 240252Z 31003KT 10SM FEW250 08/M01 A3023 RMK AO2 SLP239 T00781006 53002=
202011240152 METAR KATL 240152Z 34004KT 10SM FEW250 09/M01 A3022 RMK AO2 SLP235 T00891006=
202011240052 METAR KATL 240052Z 32004KT 10SM FEW250 09/M01 A3023 RMK AO2 SLP238 T00941006=
202011232352 METAR KATL 232352Z 33006KT 10SM FEW250 11/M01 A3022 RMK AO2 SLP236 T01061006 10167 20106 53013=
202011232252 METAR KATL 232252Z 32007KT 10SM FEW250 12/01 A3021 RMK AO2 SLP230 T01170006=
202011232152 METAR KATL 232152Z 33010KT 10SM CLR 14/00 A3019 RMK AO2 SLP222 T01440000=
202011232052 METAR KATL 232052Z 33009KT 10SM CLR 16/00 A3018 RMK AO2 SLP219 T01560000 55006=
202011231952 METAR KATL 231952Z 36012KT 10SM CLR 16/M01 A3018 RMK AO2 SLP219 T01611006=
202011231852 METAR KATL 231852Z 33013KT 10SM CLR 16/01 A3019 RMK AO2 SLP221 T01560006=
202011231752 METAR KATL 231752Z 32010KT 10SM CLR 15/01 A3020 RMK AO2 SLP226 T01500011 10150 20072 58014=
202011231652 METAR KATL 231652Z 34010KT 10SM CLR 14/02 A3023 RMK AO2 SLP234 T01390017=
202011231552 METAR KATL 231552Z 31010KT 10SM CLR 12/02 A3025 RMK AO2 SLP242 T01170022=
202011231452 METAR KATL 231452Z 32011G17KT 10SM CLR 10/03 A3025 RMK AO2 SLP243 T01000028 51014=
202011231352 METAR KATL 231352Z 33014G21KT 10SM FEW020 08/03 A3024 RMK AO2 SLP241 T00830028=
202011231252 METAR KATL 231252Z 33011KT 10SM FEW018 07/03 A3022 RMK AO2 SLP234 T00720033=
202011231152 METAR KATL 231152Z 33009KT 10SM FEW018 08/04 A3020 RMK AO2 SLP228 T00780039 10144 20078 53019=
202011231052 METAR KATL 231052Z 33015G23KT 10SM SCT018 09/04 A3018 RMK AO2 PK WND 33026/1026 SLP220 T00890044=
202011230952 METAR KATL 230952Z 33017G24KT 10SM SCT018 11/07 A3016 RMK AO2 SLP211 T01110067=
202011230926 SPECI KATL 230926Z 32014G21KT 10SM FEW020 12/07 A3015 RMK AO2 T01170072=
202011230852 METAR KATL 230852Z 34014G23KT 10SM BKN016 BKN024 13/09 A3015 RMK AO2 SLP205 BKN016 V SCT T01330089 55000=
202011230803 SPECI KATL 230803Z 32010KT 10SM BKN016 BKN024 14/11 A3014 RMK AO2 BKN016 V SCT T01390106=
202011230752 METAR KATL 230752Z 32012KT 10SM FEW017 SCT024 14/11 A3014 RMK AO2 SLP202 SCT024 V BKN T01390106=
202011230748 SPECI KATL 230748Z 32012KT 10SM FEW017 SCT024 14/11 A3014 RMK AO2 SCT024 V BKN=
202011230734 SPECI KATL 230734Z 32010KT 10SM FEW017 BKN024 14/11 A3014 RMK AO2 BKN024 V SCT T01390111=
202011230719 SPECI KATL 230719Z 32010KT 10SM SCT019 14/11 A3014 RMK AO2 T01390111=
202011230700 SPECI KATL 230700Z 31008KT 10SM BKN017 BKN047 14/11 A3014 RMK AO2 T01390111=
202011230652 METAR KATL 230652Z 30008KT 10SM SCT017 SCT047 14/11 A3014 RMK AO2 SLP204 T01390106=
202011230552 METAR KATL 230552Z 29010KT 10SM SCT047 SCT250 14/11 A3015 RMK AO2 SLP204 T01440106 10178 20139 50003=
202011230452 METAR KATL 230452Z 29008KT 10SM BKN047 BKN250 15/11 A3015 RMK AO2 SLP207 T01500111 402170106=
202011230352 METAR KATL 230352Z 31006KT 10SM BKN049 BKN250 14/12 A3016 RMK AO2 SLP210 T01440117=
202011230252 METAR KATL 230252Z 22003KT 10SM FEW200 SCT250 14/12 A3014 RMK AO2 SLP203 T01440117 58006=
202011230152 METAR KATL 230152Z 18004KT 10SM FEW050 BKN220 BKN250 15/12 A3014 RMK AO2 SLP207 T01500122=
202011230052 METAR KATL 230052Z 32004KT 10SM FEW050 BKN200 BKN250 16/12 A3016 RMK AO2 SLP212 T01610122=
202011222352 METAR KATL 222352Z 24004KT 10SM SCT049 SCT200 BKN250 18/12 A3015 RMK AO2 SLP209 T01780122 10217 20178 53004=
202011222252 METAR KATL 222252Z 00000KT 10SM SCT038 BKN060 BKN170 BKN220 18/12 A3015 RMK AO2 SLP207 T01780122=
202011222152 METAR KATL 222152Z 23003KT 10SM SCT041 BKN070 BKN200 19/12 A3014 RMK AO2 SLP206 T01940117=
202011222052 METAR KATL 222052Z 26005KT 10SM BKN038 BKN060 20/12 A3014 RMK AO2 SLP204 T02000117 56013=
202011221952 METAR KATL 221952Z 22004KT 10SM SCT038 BKN055 BKN200 21/11 A3015 RMK AO2 SLP205 T02060111=
202011221852 METAR KATL 221852Z 18006KT 10SM SCT037 BKN060 BKN250 21/12 A3016 RMK AO2 SLP209 T02060117=
202011221752 METAR KATL 221752Z 00000KT 10SM SCT044 SCT060 BKN250 19/12 A3018 RMK AO2 SLP217 T01940117 10200 20111 58023=
202011221652 METAR KATL 221652Z VRB05KT 10SM SCT046 SCT060 BKN250 20/12 A3022 RMK AO2 SLP230 T02000117=
202011221552 METAR KATL 221552Z 15004KT 10SM SCT046 SCT060 BKN250 17/11 A3025 RMK AO2 SLP241 T01720111=
202011221452 METAR KATL 221452Z 09004KT 10SM SCT060 BKN250 14/11 A3025 RMK AO2 SLP243 T01440111 50002=
202011221352 METAR KATL 221352Z 09005KT 9SM SCT055 BKN250 13/10 A3026 RMK AO2 SLP247 T01280100=
202011221252 METAR KATL 221252Z 08006KT 9SM BKN055 BKN250 12/09 A3026 RMK AO2 SLP244 T01170094=
202011221152 METAR KATL 221152Z VRB04KT 10SM BKN050 BKN250 12/09 A3025 RMK AO2 SLP240 T01220094 10122 20106 53002=
202011221052 METAR KATL 221052Z 08003KT 10SM FEW050 BKN250 11/09 A3023 RMK AO2 SLP236 T01110089=
202011220952 METAR KATL 220952Z 08004KT 10SM FEW050 BKN250 12/09 A3023 RMK AO2 SLP234 T01170094=
202011220852 METAR KATL 220852Z 05003KT 10SM FEW045 BKN250 12/09 A3024 RMK AO2 SLP236 T01170089 58007=
202011220752 METAR KATL 220752Z 00000KT 9SM BKN250 12/09 A3025 RMK AO2 SLP240 T01220094=
202011220652 METAR KATL 220652Z 07003KT 9SM BKN250 12/09 A3025 RMK AO2 SLP242 T01170089=
202011220552 METAR KATL 220552Z 00000KT 9SM BKN250 12/09 A3026 RMK AO2 SLP244 T01220094 10161 20122 58010=
202011220452 METAR KATL 220452Z 00000KT 9SM BKN250 12/09 A3027 RMK AO2 SLP248 T01220094 402220083=
202011220352 METAR KATL 220352Z 00000KT 10SM BKN250 13/09 A3028 RMK AO2 SLP252 T01280094=
202011220252 METAR KATL 220252Z 00000KT 9SM FEW015 BKN250 13/09 A3029 RMK AO2 SLP255 FU FEW015 T01280094 55001=
202011220152 METAR KATL 220152Z 00000KT 10SM SCT250 14/11 A3029 RMK AO2 SLP254 T01440106=
202011220052 METAR KATL 220052Z 00000KT 10SM FEW015 BKN250 16/10 A3029 RMK AO2 SLP258 FU FEW015 T01560100=
202011212352 METAR KATL 212352Z 00000KT 10SM FEW150 BKN250 16/10 A3029 RMK AO2 SLP258 T01610100 10222 20156 53002=
202011212252 METAR KATL 212252Z 33003KT 10SM FEW150 BKN250 19/09 A3029 RMK AO2 SLP254 T01890089=
202011212152 METAR KATL 212152Z 30004KT 10SM FEW150 BKN250 20/10 A3029 RMK AO2 SLP255 T02000100=
202011212052 METAR KATL 212052Z 02004KT 10SM FEW040 SCT150 SCT250 22/09 A3029 RMK AO2 SLP254 T02170094 56022=
202011211952 METAR KATL 211952Z 00000KT 10SM SCT041 SCT150 SCT250 21/09 A3030 RMK AO2 SLP258 T02060094=
202011211852 METAR KATL 211852Z 35005KT 10SM SCT041 SCT150 SCT250 22/09 A3032 RMK AO2 SLP265 T02170089=
202011211752 METAR KATL 211752Z 31005KT 10SM SCT040 SCT150 BKN250 21/10 A3036 RMK AO2 SLP277 T02060100 10211 20083 58022=
202011211652 METAR KATL 211652Z 33004KT 10SM SCT044 SCT200 20/10 A3039 RMK AO2 SLP288 T02000100=
202011211552 METAR KATL 211552Z 33003KT 10SM SCT200 19/10 A3042 RMK AO2 SLP298 T01940100=
202011211452 METAR KATL 211452Z 00000KT 10SM FEW045 SCT200 18/10 A3042 RMK AO2 SLP301 T01780100 50001=
202011211352 METAR KATL 211352Z 00000KT 10SM FEW045 FEW200 14/11 A3043 RMK AO2 SLP303 T01440106=
202011211252 METAR KATL 211252Z 00000KT 10SM FEW045 FEW200 09/08 A3043 RMK AO2 SLP305 T00940078=
202011211152 METAR KATL 211152Z 00000KT 10SM FEW045 09/07 A3042 RMK AO2 SLP301 T00940072 10122 20089 53004=
202011211052 METAR KATL 211052Z 31004KT 10SM CLR 09/07 A3041 RMK AO2 SLP299 T00940072=
202011210952 METAR KATL 210952Z 00000KT 10SM CLR 10/08 A3041 RMK AO2 SLP296 T01000078=
202011210852 METAR KATL 210852Z 31003KT 10SM CLR 10/08 A3041 RMK AO2 SLP295 T01000083 58003=
202011210752 METAR KATL 210752Z 33003KT 10SM CLR 11/08 A3041 RMK AO2 SLP296 T01060083=
202011210652 METAR KATL 210652Z 00000KT 10SM CLR 12/08 A3041 RMK AO2 SLP297 T01170083=
202011210552 METAR KATL 210552Z 00000KT 10SM CLR 12/08 A3042 RMK AO2 SLP298 T01170083 10161 20111 56005=
202011210452 METAR KATL 210452Z 08003KT 10SM CLR 14/09 A3042 RMK AO2 SLP299 T01390094 402110056=
202011210352 METAR KATL 210352Z 00000KT 10SM CLR 13/09 A3042 RMK AO2 SLP302 T01280089=
202011210252 METAR KATL 210252Z 00000KT 10SM CLR 13/09 A3043 RMK AO2 SLP306 T01330089 55001=
202011210152 METAR KATL 210152Z 15003KT 10SM CLR 14/09 A3043 RMK AO2 SLP306 T01390094=
202011210052 METAR KATL 210052Z 15003KT 10SM FEW045 16/09 A3043 RMK AO2 SLP307 T01560094=
202011202352 METAR KATL 202352Z 16003KT 10SM FEW045 16/09 A3044 RMK AO2 SLP308 T01560094 10211 20156 53002=
202011202252 METAR KATL 202252Z 00000KT 10SM FEW045 18/09 A3043 RMK AO2 SLP305 T01780089=
202011202152 METAR KATL 202152Z 00000KT 10SM FEW046 20/09 A3043 RMK AO2 SLP304 T02000089=
202011202052 METAR KATL 202052Z 00000KT 10SM FEW044 21/09 A3043 RMK AO2 SLP304 T02110094 56020=
202011201952 METAR KATL 201952Z 15005KT 10SM FEW044 20/09 A3044 RMK AO2 SLP306 T02000089=
202011201852 METAR KATL 201852Z 09005KT 10SM FEW042 20/09 A3046 RMK AO2 SLP313 T02000094=
202011201752 METAR KATL 201752Z 10SM FEW038 FEW055 19/09 A3049 RMK AO2 SLP324 T01890089 10189 20061 58019=
202011201652 METAR KATL 201652Z 09004KT 10SM FEW055 18/07 A3053 RMK AO2 SLP337 T01780072=
202011201552 METAR KATL 201552Z 08005KT 10SM FEW050 15/04 A3054 RMK AO2 SLP343 T01500039=
202011201452 METAR KATL 201452Z 08005KT 10SM FEW050 12/02 A3055 RMK AO2 SLP346 T01220022 53012=
202011201352 METAR KATL 201352Z 08008KT 10SM CLR 10/01 A3054 RMK AO2 SLP342 T01000011=
202011201252 METAR KATL 201252Z 07006KT 10SM CLR 08/00 A3052 RMK AO2 SLP339 T00780000=
202011201152 METAR KATL 201152Z 07004KT 10SM CLR 06/00 A3051 RMK AO2 SLP337 T00610000 10078 20056 53006=
202011201052 METAR KATL 201052Z 06005KT 10SM CLR 06/M01 A3050 RMK AO2 SLP332 T00611006=
202011200952 METAR KATL 200952Z 09006KT 10SM CLR 06/M01 A3050 RMK AO2 SLP329 T00611006=
202011200852 METAR KATL 200852Z 08007KT 10SM CLR 07/M01 A3050 RMK AO2 SLP329 T00671006 50001=
202011200752 METAR KATL 200752Z 08007KT 10SM CLR 07/M01 A3050 RMK AO2 SLP330 T00671006=
202011200652 METAR KATL 200652Z 08005KT 10SM CLR 07/M01 A3050 RMK AO2 SLP329 T00721006=
202011200552 METAR KATL 200552Z 09005KT 10SM CLR 08/M01 A3049 RMK AO2 SLP328 T00781011 10122 20072 58002=
202011200452 METAR KATL 200452Z 08006KT 10SM CLR 08/M02 A3050 RMK AO2 SLP331 T00831017 401670028=
202011200352 METAR KATL 200352Z 11006KT 10SM CLR 10/M02 A3050 RMK AO2 SLP331 T01001022=
202011200252 METAR KATL 200252Z 12006KT 10SM CLR 10/M03 A3050 RMK AO2 SLP331 T01001028 50001=
202011200152 METAR KATL 200152Z 12007KT 10SM CLR 11/M03 A3051 RMK AO2 SLP334 T01111033=
202011200052 METAR KATL 200052Z 10006KT 10SM CLR 12/M04 A3051 RMK AO2 SLP335 T01171039=
202011192352 METAR KATL 192352Z 10006KT 10SM FEW250 12/M04 A3050 RMK AO2 SLP332 T01171039 10167 20117 53003=
202011192252 METAR KATL 192252Z 10007KT 10SM FEW250 12/M04 A3048 RMK AO2 SLP326 T01221044=
202011192152 METAR KATL 192152Z 09010KT 10SM FEW250 14/M06 A3048 RMK AO2 SLP325 T01441061=
202011192052 METAR KATL 192052Z 12008KT 10SM FEW250 16/M08 A3049 RMK AO2 SLP326 T01611078 56021=
202011191952 METAR KATL 191952Z 09009KT 10SM FEW020 FEW250 16/M07 A3050 RMK AO2 SLP329 FU FEW020 T01611067=
202011191852 METAR KATL 191852Z 11006G16KT 10SM FEW200 16/M04 A3052 RMK AO2 SLP335 T01561044=
202011191752 METAR KATL 191752Z 07006KT 10SM CLR 15/M04 A3055 RMK AO2 SLP348 T01501039 10156 20028 58019=
202011191652 METAR KATL 191652Z 09011KT 10SM CLR 13/M05 A3059 RMK AO2 SLP360 T01331050=
202011191552 METAR KATL 191552Z 11010KT 10SM CLR 12/M03 A3061 RMK AO2 SLP368 T01171033=
202011191452 METAR KATL 191452Z 09010KT 10SM CLR 09/M02 A3061 RMK AO2 SLP369 T00941017 51012=
202011191352 METAR KATL 191352Z 08011KT 10SM CLR 07/M01 A3060 RMK AO2 SLP367 T00671011=
202011191252 METAR KATL 191252Z 09007KT 10SM CLR 04/M01 A3059 RMK AO2 SLP362 T00391006=
202011191152 METAR KATL 191152Z 08007KT 10SM CLR 03/M01 A3058 RMK AO2 SLP359 T00281011 10078 20028 52007=
202011191052 METAR KATL 191052Z 08005KT 10SM CLR 04/M01 A3057 RMK AO2 SLP355 T00391011=
202011190952 METAR KATL 190952Z 08005KT 10SM CLR 05/M01 A3056 RMK AO2 SLP350 T00501011=
202011190852 METAR KATL 190852Z 12004KT 10SM CLR 06/M02 A3055 RMK AO2 SLP348 T00561017 53008=
202011190752 METAR KATL 190752Z 00000KT 10SM CLR 05/M01 A3054 RMK AO2 SLP345 T00501011=
202011190652 METAR KATL 190652Z 09003KT 10SM CLR 07/M01 A3053 RMK AO2 SLP341 T00671011=
202011190552 METAR KATL 190552Z 10004KT 10SM CLR 07/M02 A3053 RMK AO2 SLP340 T00721017 10128 20067 51008=
202011190452 METAR KATL 190452Z 10003KT 10SM CLR 08/M02 A3052 RMK AO2 SLP338 T00831017 401780033=
202011190352 METAR KATL 190352Z 11006KT 10SM CLR 09/M02 A3052 RMK AO2 SLP335 T00941022=
202011190252 METAR KATL 190252Z 11004KT 10SM CLR 10/M02 A3050 RMK AO2 SLP332 T01001017 51013=
202011190152 METAR KATL 190152Z 00000KT 10SM CLR 11/M02 A3049 RMK AO2 SLP329 T01061017=
202011190052 METAR KATL 190052Z 14003KT 10SM CLR 12/M02 A3048 RMK AO2 SLP325 T01171022=
202011182352 METAR KATL 182352Z 15003KT 10SM CLR 13/M03 A3047 RMK AO2 SLP320 T01281028 10178 20122 51000=
202011182252 METAR KATL 182252Z 10003KT 10SM CLR 16/M07 A3047 RMK AO2 SLP318 T01561067=
202011182152 METAR KATL 182152Z 05004KT 10SM CLR 17/M07 A3047 RMK AO2 SLP319 T01721072=
202011182052 METAR KATL 182052Z 05005KT 10SM CLR 18/M07 A3046 RMK AO2 SLP318 T01781072 56016=
202011181952 METAR KATL 181952Z 03006KT 10SM CLR 17/M08 A3047 RMK AO2 SLP318 T01721078=
202011181852 METAR KATL 181852Z 00000KT 10SM CLR 17/M06 A3048 RMK AO2 SLP324 T01671061=
202011181752 METAR KATL 181752Z 00000KT 10SM CLR 16/M05 A3051 RMK AO2 SLP334 T01611050 10161 20033 58013=
202011181652 METAR KATL 181652Z 10SM CLR 14/M05 A3054 RMK AO2 SLP343 T01441050=
202011181552 METAR KATL 181552Z VRB04KT 10SM CLR 12/M04 A3056 RMK AO2 SLP349 T01221039=
202011181452 METAR KATL 181452Z VRB04KT 10SM CLR 10/M04 A3055 RMK AO2 SLP349 T01001044 52022=
202011181352 METAR KATL 181352Z 34006KT 10SM CLR 07/M03 A3053 RMK AO2 SLP342 T00721033=
202011181252 METAR KATL 181252Z 36006KT 10SM CLR 05/M04 A3051 RMK AO2 SLP334 T00501039=
202011181152 METAR KATL 181152Z 32004KT 10SM CLR 03/M04 A3048 RMK AO2 SLP327 T00331039 10067 20033 51012=
202011181052 METAR KATL 181052Z 01007KT 10SM CLR 05/M05 A3047 RMK AO2 SLP321 T00501050=
202011180952 METAR KATL 180952Z 36007KT 10SM CLR 05/M04 A3046 RMK AO2 SLP317 T00501044=
202011180852 METAR KATL 180852Z 34004KT 10SM CLR 06/M05 A3045 RMK AO2 SLP312 T00561050 53004=
202011180752 METAR KATL 180752Z 34010KT 10SM CLR 06/M06 A3044 RMK AO2 SLP310 T00561056=
202011180652 METAR KATL 180652Z 33008KT 10SM CLR 06/M06 A3044 RMK AO2 SLP307 T00611056=
202011180552 METAR KATL 180552Z 32008KT 10SM CLR 07/M06 A3044 RMK AO2 SLP308 T00671056 10122 20067 53010=
202011180452 METAR KATL 180452Z 31010KT 10SM CLR 07/M06 A3042 RMK AO2 SLP303 T00721056 401780050=
202011180352 METAR KATL 180352Z 32008KT 10SM CLR 08/M06 A3041 RMK AO2 SLP301 T00831061=
202011180252 METAR KATL 180252Z 33009KT 10SM CLR 09/M06 A3040 RMK AO2 SLP297 T00891061 51013=
202011180152 METAR KATL 180152Z 34011KT 10SM CLR 11/M07 A3039 RMK AO2 SLP293 T01061067=
202011180052 METAR KATL 180052Z 35007KT 10SM CLR 11/M06 A3038 RMK AO2 SLP291 T01111056=
202011172352 METAR KATL 172352Z 34009KT 10SM CLR 12/M06 A3036 RMK AO2 SLP285 T01221056 10178 20122 53016=
202011172252 METAR KATL 172252Z 34008KT 10SM CLR 13/M06 A3035 RMK AO2 SLP278 T01331056=
202011172152 METAR KATL 172152Z 34019G24KT 10SM CLR 16/M08 A3033 RMK AO2 PK WND 36026/2053 SLP271 T01561078=
202011172052 METAR KATL 172052Z 34019G28KT 10SM CLR 17/M07 A3032 RMK AO2 PK WND 32028/2050 SLP267 T01721072 55006=
202011171952 METAR KATL 171952Z 32018G23KT 10SM CLR 18/M07 A3031 RMK AO2 PK WND 32028/1859 SLP263 T01781072=
202011171852 METAR KATL 171852Z 33015G30KT 10SM CLR 18/M07 A3032 RMK AO2 PK WND 31030/1846 SLP266 T01781072=
202011171752 METAR KATL 171752Z 31013KT 10SM CLR 17/M03 A3033 RMK AO2 PK WND 34027/1655 SLP272 T01671033 10167 20050 58003=
202011171652 METAR KATL 171652Z 34020G27KT 10SM CLR 16/M05 A3035 RMK AO2 PK WND 32029/1630 SLP280 T01561050=
202011171552 METAR KATL 171552Z 35017G31KT 10SM CLR 14/M05 A3035 RMK AO2 PK WND 33031/1547 SLP280 T01441050=
202011171452 METAR KATL 171452Z 34013G21KT 10SM CLR 13/M02 A3034 RMK AO2 SLP276 T01281017 51020=
202011171352 METAR KATL 171352Z 32015KT 10SM CLR 11/M02 A3033 RMK AO2 SLP272 T01061022=
202011171252 METAR KATL 171252Z 30008KT 10SM CLR 07/M02 A3030 RMK AO2 SLP262 T00721022=
202011171152 METAR KATL 171152Z 31006KT 10SM CLR 05/M02 A3028 RMK AO2 SLP257 T00501022 10078 20050 55004=
202011171052 METAR KATL 171052Z 29006KT 10SM CLR 06/M03 A3028 RMK AO2 SLP255 T00611028=
202011170952 METAR KATL 170952Z 30007KT 10SM CLR 07/M02 A3028 RMK AO2 SLP256 T00671022=
202011170852 METAR KATL 170852Z 31008KT 10SM CLR 06/M01 A3029 RMK AO2 SLP259 T00611011 53000=
202011170752 METAR KATL 170752Z 31006KT 10SM CLR 06/M01 A3029 RMK AO2 SLP257 T00611011=
202011170652 METAR KATL 170652Z 31007KT 10SM CLR 07/M02 A3029 RMK AO2 SLP258 T00671017=
202011170552 METAR KATL 170552Z 30009KT 10SM CLR 07/M01 A3029 RMK AO2 SLP258 T00721006 10122 20061 53006=
202011170452 METAR KATL 170452Z 28003KT 10SM CLR 08/M01 A3028 RMK AO2 SLP254 T00781011 401720061=
202011170352 METAR KATL 170352Z 26004KT 10SM CLR 08/00 A3027 RMK AO2 SLP253 T00780000=
202011170252 METAR KATL 170252Z 26003KT 10SM CLR 09/M02 A3027 RMK AO2 SLP252 T00941017 51008=
202011170152 METAR KATL 170152Z 32004KT 10SM CLR 09/M01 A3026 RMK AO2 SLP250 T00941006=
202011170052 METAR KATL 170052Z 31004KT 10SM CLR 11/M02 A3026 RMK AO2 SLP248 T01111017=
202011162352 METAR KATL 162352Z 31005KT 10SM CLR 12/M04 A3025 RMK AO2 SLP244 T01221039 10172 20117 51006=
202011162252 METAR KATL 162252Z 33006KT 10SM CLR 13/M04 A3024 RMK AO2 SLP244 T01281039=
202011162152 METAR KATL 162152Z 32009KT 10SM CLR 16/M05 A3024 RMK AO2 SLP240 T01561050=
202011162052 METAR KATL 162052Z 35011G21KT 10SM CLR 17/M06 A3023 RMK AO2 SLP236 T01671061 56009=
202011161952 METAR KATL 161952Z 32013KT 10SM CLR 17/M05 A3023 RMK AO2 SLP238 T01671050=
202011161852 METAR KATL 161852Z 33017G24KT 10SM CLR 17/M06 A3023 RMK AO2 SLP238 T01671061=
202011161752 METAR KATL 161752Z 33009G18KT 10SM CLR 17/M03 A3025 RMK AO2 SLP245 T01671033 10167 20061 58009=
202011161652 METAR KATL 161652Z 33012KT 10SM CLR 15/M03 A3028 RMK AO2 SLP255 T01501028=
202011161552 METAR KATL 161552Z 35007KT 10SM CLR 13/M02 A3029 RMK AO2 SLP256 T01331017=
202011161452 METAR KATL 161452Z 35008KT 10SM CLR 11/M01 A3028 RMK AO2 SLP256 T01111011 51026=
202011161352 METAR KATL 161352Z 34008KT 10SM CLR 09/M01 A3026 RMK AO2 SLP249 T00941006=
202011161252 METAR KATL 161252Z 31008KT 10SM CLR 07/M01 A3023 RMK AO2 SLP240 T00721006=
202011161152 METAR KATL 161152Z 32007KT 10SM CLR 06/M01 A3021 RMK AO2 SLP231 T00611006 10094 20061 53010=
202011161052 METAR KATL 161052Z 31007KT 10SM CLR 07/M01 A3019 RMK AO2 SLP223 T00671011=
202011160952 METAR KATL 160952Z 32008KT 10SM CLR 07/M01 A3018 RMK AO2 SLP220 T00721011=
202011160852 METAR KATL 160852Z 32008KT 10SM CLR 08/M02 A3018 RMK AO2 SLP217 T00831017 53005=
202011160752 METAR KATL 160752Z 33007KT 10SM CLR 08/M02 A3017 RMK AO2 SLP214 T00831022=
202011160652 METAR KATL 160652Z 32007KT 10SM CLR 09/M02 A3017 RMK AO2 SLP213 T00891022=
202011160552 METAR KATL 160552Z 32008KT 10SM CLR 09/M02 A3016 RMK AO2 SLP211 T00891017 10139 20089 51006=
202011160452 METAR KATL 160452Z 32006KT 10SM CLR 09/M01 A3016 RMK AO2 SLP211 T00891006 402220089=
202011160352 METAR KATL 160352Z 30007KT 10SM FEW250 11/00 A3015 RMK AO2 SLP208 T01060000=
202011160252 METAR KATL 160252Z 30008KT 10SM FEW250 12/00 A3014 RMK AO2 SLP205 T01170000 53015=
202011160152 METAR KATL 160152Z 30007KT 10SM FEW250 12/03 A3013 RMK AO2 SLP201 T01220028=
202011160052 METAR KATL 160052Z 27006KT 10SM FEW100 SCT250 12/05 A3011 RMK AO2 SLP196 T01220050=
202011152352 METAR KATL 152352Z 27003KT 10SM FEW050 FEW100 SCT200 14/04 A3010 RMK AO2 SLP191 60000 T01390044 10211 20139 53015=
202011152252 METAR KATL 152252Z 29006KT 10SM FEW048 FEW100 SCT250 15/07 A3008 RMK AO2 SLP184 T01500072=
202011152152 METAR KATL 152152Z 29008KT 10SM FEW048 SCT100 BKN200 18/09 A3006 RMK AO2 SLP177 T01830094=
202011152052 METAR KATL 152052Z 29008KT 10SM BKN036 BKN060 18/09 A3005 RMK AO2 SLP174 60000 T01830094 53004=
202011151952 METAR KATL 151952Z 31012KT 10SM SCT020 BKN043 BKN200 19/10 A3005 RMK AO2 PK WND 31026/1921 WSHFT 1918 RAB24E33 SLP173 FROPA P0000 T01890100=
202011151934 SPECI KATL 151934Z 31012G26KT 10SM OVC019 18/10 A3006 RMK AO2 PK WND 31026/1921 WSHFT 1918 RAB24E33 FROPA P0000 T01830100=
202011151852 METAR KATL 151852Z 25007KT 10SM BKN019 OVC025 21/17 A3004 RMK AO2 SLP167 T02060167=
202011151752 METAR KATL 151752Z 25009KT 10SM FEW018 OVC024 21/16 A3004 RMK AO2 PK WND 27027/1701 SLP168 T02110161 10222 20122 56016=
202011151652 METAR KATL 151652Z 23019G28KT 10SM BKN025 22/16 A3005 RMK AO2 PK WND 22028/1651 SLP172 T02170156=
202011151624 SPECI KATL 151624Z 23012G19KT 200V260 10SM BKN026 22/16 A3006 RMK AO2 T02220156=
202011151552 METAR KATL 151552Z 20009G17KT 10SM FEW022 FEW250 21/16 A3007 RMK AO2 SLP177 T02110156=
202011151459 SPECI KATL 151459Z 22009KT 10SM FEW012 SCT034 18/14 A3009 RMK AO2 T01830144=
202011151452 METAR KATL 151452Z 23009KT 10SM BKN012 BKN034 17/14 A3009 RMK AO2 SLP186 T01720139 51016=
202011151413 SPECI KATL 151413Z 22005KT 9SM OVC009 15/13 A3010 RMK AO2 T01500133=
202011151403 SPECI KATL 151403Z 21006KT 8SM OVC010 15/13 A3009 RMK AO2 T01500128=
202011151352 METAR KATL 151352Z 20005KT 9SM SCT010 BKN015 BKN023 BKN250 14/13 A3009 RMK AO2 SLP186 T01440128=
202011151252 METAR KATL 151252Z 17004KT 8SM FEW006 BKN023 BKN250 13/12 A3006 RMK AO2 SLP178 T01280117=
202011151242 SPECI KATL 151242Z 00000KT 8SM FEW006 BKN023 BKN250 13/12 A3006 RMK AO2 T01280117=
202011151152 METAR KATL 151152Z 15004KT 7SM FEW006 SCT027 SCT250 12/11 A3004 RMK AO2 SLP170 T01220111 10139 20117 58009=
202011151052 METAR KATL 151052Z 12004KT 10SM FEW006 FEW250 12/11 A3005 RMK AO2 SLP175 T01170106=
202011150952 METAR KATL 150952Z 00000KT 10SM FEW006 FEW250 12/11 A3006 RMK AO2 SLP177 T01220106=
202011150852 METAR KATL 150852Z 08005KT 10SM FEW250 12/10 A3007 RMK AO2 SLP179 T01170100 56006=
202011150752 METAR KATL 150752Z 11005KT 10SM FEW250 13/11 A3008 RMK AO2 SLP180 T01330111=
202011150652 METAR KATL 150652Z 11005KT 10SM FEW250 13/11 A3007 RMK AO2 SLP179 T01330111=
202011150552 METAR KATL 150552Z 11005KT 10SM SCT250 14/11 A3009 RMK AO2 SLP185 T01390111 10172 20133 58010=
202011150452 METAR KATL 150452Z 10006KT 10SM FEW250 13/11 A3011 RMK AO2 SLP193 T01330106 402170083=
202011150352 METAR KATL 150352Z 12006KT 10SM BKN250 15/11 A3012 RMK AO2 SLP196 T01500106=
202011150252 METAR KATL 150252Z 12007KT 10SM BKN250 16/10 A3012 RMK AO2 SLP197 T01560100 51009=
202011150152 METAR KATL 150152Z 11006KT 10SM CLR 16/09 A3011 RMK AO2 SLP194 T01610094=
202011150052 METAR KATL 150052Z 11004KT 10SM BKN250 17/08 A3011 RMK AO2 SLP194 T01670083=
202011142352 METAR KATL 142352Z 13003KT 10SM BKN250 17/08 A3009 RMK AO2 SLP190 T01670083 10217 20167 55003=
202011142252 METAR KATL 142252Z 13003KT 10SM BKN250 18/07 A3009 RMK AO2 SLP187 T01830067=
202011142152 METAR KATL 142152Z 13005KT 10SM BKN250 21/05 A3009 RMK AO2 SLP187 T02110050 $=
202011142052 METAR KATL 142052Z 14005KT 10SM BKN250 22/04 A3010 RMK AO2 SLP190 T02170044 56016 $=
202011141952 METAR KATL 141952Z VRB03KT 10SM FEW250 22/04 A3010 RMK AO2 SLP191 T02170044 $=
202011141852 METAR KATL 141852Z 08005KT 10SM FEW250 21/06 A3012 RMK AO2 SLP195 T02110056 $=
202011141752 METAR KATL 141752Z 10007KT 10SM FEW250 20/04 A3015 RMK AO2 SLP207 T02000044 10206 20089 58016=
202011141652 METAR KATL 141652Z 10007KT 10SM FEW250 19/06 A3017 RMK AO2 SLP216 T01890061=
202011141552 METAR KATL 141552Z 10009KT 10SM FEW250 18/06 A3020 RMK AO2 SLP223 T01780056=
202011141452 METAR KATL 141452Z 10008KT 10SM SCT250 16/05 A3020 RMK AO2 SLP223 T01560050 50012=
202011141352 METAR KATL 141352Z 08008KT 10SM FEW250 13/05 A3020 RMK AO2 SLP225 T01280050=
202011141252 METAR KATL 141252Z 00000KT 10SM FEW250 09/05 A3018 RMK AO2 SLP220 T00940050=
202011141152 METAR KATL 141152Z 32003KT 10SM CLR 09/04 A3016 RMK AO2 SLP211 T00890044 10111 20083 51006=
202011141052 METAR KATL 141052Z 31004KT 10SM CLR 08/05 A3015 RMK AO2 SLP209 T00830050=
202011140952 METAR KATL 140952Z 32004KT 10SM CLR 09/05 A3015 RMK AO2 SLP207 T00890050=
202011140852 METAR KATL 140852Z 32004KT 10SM CLR 10/06 A3014 RMK AO2 SLP203 T01000056 50000=
202011140752 METAR KATL 140752Z 33004KT 10SM CLR 10/05 A3014 RMK AO2 SLP204 T01000050=
202011140652 METAR KATL 140652Z 31006KT 10SM CLR 11/06 A3014 RMK AO2 SLP203 T01060056=
202011140552 METAR KATL 140552Z 29005KT 10SM CLR 11/06 A3014 RMK AO2 SLP203 T01110056 10178 20111 57001=
202011140452 METAR KATL 140452Z 28004KT 10SM CLR 12/06 A3014 RMK AO2 SLP202 T01170061 402280117=
202011140352 METAR KATL 140352Z 30005KT 10SM CLR 13/06 A3014 RMK AO2 SLP205 T01330061=
202011140252 METAR KATL 140252Z 31005KT 10SM CLR 14/07 A3014 RMK AO2 SLP205 T01390067 51010=
202011140152 METAR KATL 140152Z 31007KT 10SM CLR 15/07 A3014 RMK AO2 SLP203 T01500067=
202011140052 METAR KATL 140052Z 28005KT 10SM CLR 16/07 A3012 RMK AO2 SLP197 T01610067=
202011132352 METAR KATL 132352Z 31007KT 10SM CLR 18/07 A3011 RMK AO2 SLP194 T01780067 10228 20178 53008=
202011132252 METAR KATL 132252Z 29007KT 10SM CLR 19/07 A3010 RMK AO2 SLP188 T01890072=
202011132152 METAR KATL 132152Z 30006KT 10SM CLR 22/06 A3009 RMK AO2 SLP185 T02170061=
202011132052 METAR KATL 132052Z 31007KT 10SM CLR 23/06 A3008 RMK AO2 SLP182 T02280056 58009=
202011131952 METAR KATL 131952Z 32008KT 10SM CLR 23/05 A3009 RMK AO2 SLP185 T02280050=
202011131852 METAR KATL 131852Z 31012KT 10SM CLR 22/04 A3011 RMK AO2 SLP190 T02220039=
202011131752 METAR KATL 131752Z 32010KT 10SM CLR 22/03 A3011 RMK AO2 SLP192 T02170033 10217 20128 58007=
202011131652 METAR KATL 131652Z 31010KT 10SM CLR 21/06 A3013 RMK AO2 SLP197 T02110056=
202011131552 METAR KATL 131552Z 32014KT 10SM CLR 19/07 A3014 RMK AO2 SLP201 T01890072=
202011131452 METAR KATL 131452Z 31011KT 10SM CLR 17/12 A3013 RMK AO2 SLP200 T01720117 51020=
202011131352 METAR KATL 131352Z 31008KT 10SM FEW005 14/12 A3012 RMK AO2 SLP196 T01440122 $=
202011131333 SPECI KATL 131333Z 32011KT 3SM SCT005 14/12 A3012 RMK AO2 SFC VIS 9 T01390122 $=
202011131320 SPECI KATL 131320Z 32008KT 3SM BKN005 13/12 A3012 RMK AO2 SFC VIS 7 CIG 004V006 T01330117 $=
202011131252 METAR KATL 131252Z 31010KT 1 1/2SM BKN004 13/12 A3010 RMK AO2 SFC VIS 8 SLP192 TWRINC T01280117 $=
202011131206 SPECI KATL 131206Z 30009KT 1 1/2SM BKN004 13/12 A3008 RMK AO2 SFC VIS 7 T01280117=
202011131152 METAR KATL 131152Z 31008KT 10SM SCT005 13/12 A3007 RMK AO2 SLP180 T01280117 10150 20122 53014=
202011131142 SPECI KATL 131142Z 31006KT 8SM SCT005 12/11 A3007 RMK AO2 T01220111=
202011131052 METAR KATL 131052Z 33007KT 9SM BKN005 13/12 A3006 RMK AO2 SLP175 T01330117=
202011131049 SPECI KATL 131049Z 33007KT 9SM BKN005 13/12 A3006 RMK AO2=
202011130952 METAR KATL 130952Z 31011KT 10SM SCT005 14/12 A3004 RMK AO2 SLP167 T01390122=
202011130852 METAR KATL 130852Z 34010KT 10SM SCT007 14/13 A3003 RMK AO2 SLP164 T01390128 51009=
202011130752 METAR KATL 130752Z 33010KT 10SM BKN007 14/13 A3003 RMK AO2 SLP163 T01390128=
202011130750 SPECI KATL 130750Z 33009KT 10SM BKN007 14/13 A3003 RMK AO2=
202011130652 METAR KATL 130652Z 32009KT 10SM FEW006 14/13 A3001 RMK AO2 SLP159 FU FEW006 T01440128=
202011130552 METAR KATL 130552Z 31007KT 10SM CLR 15/13 A3000 RMK AO2 SLP156 T01500128 10189 20150 53001=
202011130452 METAR KATL 130452Z 31009KT 10SM FEW012 16/13 A3000 RMK AO2 SLP155 T01560133 402330156=
202011130352 METAR KATL 130352Z 33010KT 10SM SCT013 16/13 A3000 RMK AO2 SLP155 T01610133=
202011130252 METAR KATL 130252Z 33013KT 10SM BKN012 17/13 A3000 RMK AO2 SLP155 T01670133 51018=
202011130152 METAR KATL 130152Z 32014G19KT 10SM BKN011 17/14 A2999 RMK AO2 SLP152 T01720144=
202011130119 SPECI KATL 130119Z 32007KT 10SM BKN012 17/14 A2997 RMK AO2 T01720144=
202011130052 METAR KATL 130052Z 31010KT 10SM FEW015 18/15 A2996 RMK AO2 SLP141 T01780150=
202011122352 METAR KATL 122352Z 31010KT 10SM CLR 19/15 A2995 RMK AO2 SLP135 T01890150 10233 20189 53017=
202011122252 METAR KATL 122252Z 31007KT 10SM CLR 20/16 A2992 RMK AO2 SLP127 T02000156=
202011122152 METAR KATL 122152Z 31010KT 10SM FEW032 22/16 A2991 RMK AO2 SLP120 TCU DSNT NE T02220156=
202011122052 METAR KATL 122052Z 32011KT 10SM FEW032 23/16 A2989 RMK AO2 SLP115 T02330156 56006=
202011121952 METAR KATL 121952Z 31013KT 10SM FEW026 23/16 A2989 RMK AO2 SLP116 TCU DSNT NE T02280161=
202011121852 METAR KATL 121852Z 31012KT 10SM FEW014 20/16 A2990 RMK AO2 SLP118 TCU DSNT NE T02000156=
202011121808 SPECI KATL 121808Z 32008KT 10SM SCT012 21/16 A2991 RMK AO2 T02060161=
202011121752 METAR KATL 121752Z 31011KT 10SM BKN012 19/16 A2991 RMK AO2 SLP123 T01940156 10194 20172 58007=
202011121750 SPECI KATL 121750Z 31011KT 10SM BKN010 19/16 A2991 RMK AO2=
202011121652 METAR KATL 121652Z 32010KT 8SM OVC008 18/16 A2992 RMK AO2 SLP127 CIG 007V009 T01830156=
202011121552 METAR KATL 121552Z 34009KT 2 1/2SM OVC006 18/16 A2993 RMK AO2 SFC VIS 7 SLP130 CIG 004V007 T01830156=
202011121549 SPECI KATL 121549Z 33008KT 2 1/2SM OVC006 18/16 A2993 RMK AO2 SFC VIS 7 CIG 004V007=
202011121532 SPECI KATL 121532Z 33013KT 1 1/4SM BR OVC005 18/16 A2994 RMK AO2 SFC VIS 6 CIG 004V006 T01780156=
202011121506 SPECI KATL 121506Z 31012KT 1 1/4SM BR OVC004 17/16 A2994 RMK AO2 SFC VIS 6 CIG 003V005 T01720161=
202011121452 METAR KATL 121452Z 34010KT 1/2SM R09R/P6000FT BR OVC003 18/16 A2993 RMK AO2 SFC VIS 4 SLP130 CIG 002V004 TWRINC T01780161 53016=
202011121352 METAR KATL 121352Z 34009KT 1/2SM R09R/P6000FT BR OVC002 18/17 A2991 RMK AO2 SFC VIS 1 1/2 SLP121 TWRINC T01780167=
202011121252 METAR KATL 121252Z 32010KT 1/2SM R09R/P6000FT BR OVC002 18/17 A2990 RMK AO2 SFC VIS 1 1/2 SLP119 TWRINC T01780172=
202011121152 METAR KATL 121152Z 32007KT 1/2SM R09R/P6000FT BR OVC003 19/18 A2989 RMK AO2 SFC VIS 4 SLP112 TWRINC 70007 T01890178 10211 20189 53007=
202011121052 METAR KATL 121052Z 33008KT 1/2SM R09R/P6000FT BR OVC002 19/18 A2987 RMK AO2 SFC VIS 2 SLP107 TWRINC T01940183=
202011120952 METAR KATL 120952Z 31008KT 1/2SM R09R/4000VP6000FT BR VV002 20/19 A2987 RMK AO2 SFC VIS 1 SLP106 T02000189=
202011120852 METAR KATL 120852Z 33008KT 1/2SM R09R/2200V3500FT FG VV002 20/19 A2986 RMK AO2 SLP104 T02000194 58010=
202011120752 METAR KATL 120752Z 33005KT 1/2SM R09R/P6000FT BR OVC003 21/19 A2989 RMK AO2 SFC VIS 5 SLP113 TWRINC T02060194=
202011120711 SPECI KATL 120711Z 35003KT 1 1/2SM OVC004 21/19 A2989 RMK AO2 SFC VIS 7 CIG 003V005 T02110194=
202011120652 METAR KATL 120652Z 01003KT 2SM OVC004 21/20 A2989 RMK AO2 SFC VIS 10 SLP113 CIG 003V005 T02110200=
202011120639 SPECI KATL 120639Z 35004KT 2SM OVC003 21/20 A2989 RMK AO2 SFC VIS 10 T02110200=
202011120552 METAR KATL 120552Z 32007KT 10SM BKN004 BKN018 BKN100 21/20 A2990 RMK AO2 SLP115 60000 T02110200 10239 20211 58008=
202011120452 METAR KATL 120452Z 33006KT 10SM BKN005 BKN015 BKN150 22/21 A2991 RMK AO2 SLP120 T02170206 402560211=
202011120352 METAR KATL 120352Z 29006KT 10SM FEW008 BKN015 BKN040 BKN150 22/21 A2992 RMK AO2 RAB0256E06 SLP121 P0000 T02220206=
202011120311 SPECI KATL 120311Z 29006KT 10SM FEW008 BKN015 BKN040 BKN150 22/20 A2992 RMK AO2 RAB0256E06 P0000 T02220200=
202011120252 METAR KATL 120252Z 30005KT 10SM SCT008 BKN012CB OVC030 23/21 A2992 RMK AO2 SLP122 LTG DSNT NE CB DSNT NE T02280206 51009=
202011120152 METAR KATL 120152Z 22003KT 10SM BKN006 BKN015CB OVC025 23/22 A2991 RMK AO2 SLP121 CB N-NE MOV NE T02280217=
202011120052 METAR KATL 120052Z 09004KT 10SM FEW008 SCT014 BKN025 OVC150 23/22 A2991 RMK AO2 SLP120 T02330217=
202011120032 SPECI KATL 120032Z 10006KT 10SM FEW008 SCT014 BKN025 OVC150 23/22 A2991 RMK AO2 T02330217=
202011112352 METAR KATL 112352Z 08004KT 10SM SCT028 BKN035 BKN110 OVC200 24/22 A2989 RMK AO2 RAB17E26 SLP114 P0000 60000 T02390217 10256 20239 51003=
202011112252 METAR KATL 112252Z 00000KT 10SM SCT032 BKN045 BKN120 BKN200 24/21 A2989 RMK AO2 SLP112 T02390211=
202011112152 METAR KATL 112152Z 00000KT 10SM FEW026 FEW065 SCT110 BKN180 BKN250 24/21 A2989 RMK AO2 SLP112 CB DSNT NE-SE T02440211=
202011112052 METAR KATL 112052Z 31004KT 10SM FEW026 SCT060 BKN130 BKN180 24/22 A2988 RMK AO2 SLP110 CB DSNT E-SE T02440217 56015=
202011112044 SPECI KATL 112044Z 31005KT 10SM FEW014 SCT026 BKN055 BKN140 24/22 A2988 RMK AO2 CB DSNT E-SE T02440217=
202011111952 METAR KATL 111952Z 00000KT 10SM FEW016 BKN024 BKN060 BKN130 25/21 A2990 RMK AO2 SLP115 MDT CU OHD-ALQDS T02500211=
202011111852 METAR KATL 111852Z 21004KT 10SM FEW014 SCT036 BKN060 BKN130 26/22 A2991 RMK AO2 SLP119 T02560217=
202011111752 METAR KATL 111752Z 21004KT 10SM FEW008 SCT027 BKN065 OVC130 24/22 A2993 RMK AO2 RAE24 SLP126 BINOVC P0007 60007 T02440217 10256 20217 58018=
202011111733 SPECI KATL 111733Z 18004KT 10SM FEW007 SCT034 BKN070 OVC130 24/22 A2994 RMK AO2 RAE24 P0007 T02390217=
202011111713 SPECI KATL 111713Z 15006KT 6SM -RA BR FEW018 SCT030 OVC070 23/22 A2995 RMK AO2 BINOVC P0007 T02330217=
202011111652 METAR KATL 111652Z 18006KT 4SM -RA BR SCT018 BKN028 OVC045 24/22 A2996 RMK AO2 RAB41 SLP138 P0000 T02390217=
202011111552 METAR KATL 111552Z 19007KT 10SM SCT012 BKN024TCU BKN036 25/22 A2998 RMK AO2 SLP143 TCU SW-NW MDT CU ALQDS T02500217=
202011111518 SPECI KATL 111518Z 16005KT 10SM FEW008 BKN016 BKN036 24/21 A2998 RMK AO2 T02390211=
202011111452 METAR KATL 111452Z 16003KT 10SM SCT008 BKN013 BKN036 23/22 A2998 RMK AO2 SLP145 T02330217 51012=
202011111450 SPECI KATL 111450Z 17004KT 10SM SCT008 BKN013 BKN036 23/22 A2998 RMK AO2=
202011111406 SPECI KATL 111406Z VRB04KT 6SM BR BKN007 BKN013 BKN030 23/22 A2998 RMK AO2 CIG 005V009 T02280217=
202011111352 METAR KATL 111352Z 00000KT 1 1/2SM BR BKN005 BKN028 23/22 A2997 RMK AO2 SFC VIS 6 SLP142 CIG 003V007 T02280217=
202011111345 SPECI KATL 111345Z VRB04KT 1 1/2SM BR BKN005 BKN028 23/22 A2997 RMK AO2 SFC VIS 6 CIG 003V007 T02280217=
202011111252 METAR KATL 111252Z 18005KT 1/2SM R09R/P6000FT BR OVC003 22/21 A2997 RMK AO2 SFC VIS 5 SLP140 CIG 002V005 TWRINC T02170211=
202011111152 METAR KATL 111152Z 11006KT 1/2SM R09R/P6000FT BR OVC003 22/21 A2995 RMK AO2 SFC VIS 1 1/2 SLP134 BINOVC TWRINC 60001 70011 T02170211 10217 20211 51001=
202011111052 METAR KATL 111052Z 11006KT 1/2SM R09R/2200VP6000FT BR VV002 22/21 A2995 RMK AO2 SFC VIS 1 DZE50 SLP134 TWRINC P0000 T02170211=
202011110952 METAR KATL 110952Z 00000KT 1/2SM R09R/3000V4500FT -DZ FG VV002 22/21 A2995 RMK AO2 SLP135 P0000 T02170206=
202011110852 METAR KATL 110852Z 14003KT 1/2SM R09R/3000V5500FT -DZ FG VV002 22/21 A2995 RMK AO2 SLP133 P0000 60001 T02170206 57004=
202011110752 METAR KATL 110752Z 15003KT 1/2SM R09R/P6000FT -DZ BR OVC003 22/21 A2995 RMK AO2 SFC VIS 5 RAE50DZB50 SLP135 TWRINC P0000 T02170206=
202011110652 METAR KATL 110652Z 13004KT 1/2SM R09R/P6000FT -RA BR BKN003 OVC012 21/21 A2995 RMK AO2 SFC VIS 2 1/2 SLP135 TWRINC P0001 T02110206=
202011110552 METAR KATL 110552Z 10004KT 1/2SM R09R/P6000FT -RA BR BKN003 OVC015 21/21 A2996 RMK AO2 SFC VIS 4 SLP137 TWRINC P0001 60005 T02110206 10211 20206 58012=
202011110520 SPECI KATL 110520Z 10005KT 1/2SM R09R/P6000FT -RA BR OVC003 21/20 A2997 RMK AO2 SFC VIS 3 TWRINC P0000 T02110200=
202011110452 METAR KATL 110452Z 09006KT 1 1/4SM -RA BR OVC004 21/20 A2997 RMK AO2 SFC VIS 3 SLP143 CIG 003V005 P0001 T02110200 402170194=
202011110352 METAR KATL 110352Z 10007KT 1 1/4SM -RA BR OVC005 21/20 A2999 RMK AO2 SFC VIS 2 1/2 SLP148 CIG 003V006 P0000 T02110200=
202011110252 METAR KATL 110252Z 10008KT 1 1/4SM -RA BR OVC005 21/20 A2999 RMK AO2 SFC VIS 2 1/2 DZE0156RAB0156 SLP151 CIG 003V005 P0001 60003 T02110200 50000=
202011110152 METAR KATL 110152Z 09006KT 1 1/4SM -DZ BR OVC005 21/20 A3000 RMK AO2 SFC VIS 4 RAE33DZB33 SLP152 CIG 003V007 P0001 T02110200=
202011110133 SPECI KATL 110133Z 08008KT 1 1/4SM -DZ BR BKN005 OVC012 21/20 A3000 RMK AO2 SFC VIS 2 RAE33DZB33 P0000 T02060200=
202011110052 METAR KATL 110052Z 09008KT 3SM -RA BR BKN005 BKN010 OVC040 21/19 A3000 RMK AO2 SLP153 P0001 T02060194=
202011102352 METAR KATL 102352Z 10011KT 4SM -RA BR SCT007 BKN012 OVC050 21/19 A2999 RMK AO2 RAB2259 SLP150 P0005 60005 T02110194 10217 20206 53001=
202011102332 SPECI KATL 102332Z 09011KT 2 1/2SM -RA BR BKN008 OVC020 21/19 A2999 RMK AO2 RAB2259 P0001 T02110194=
202011102252 METAR KATL 102252Z 08009KT 10SM FEW007 BKN013 OVC030 22/19 A2999 RMK AO2 SLP147 T02170194=
202011102204 SPECI KATL 102204Z 08010KT 10SM SCT007 BKN020 OVC032 21/19 A2998 RMK AO2 T02110194=
202011102152 METAR KATL 102152Z 09010KT 9SM SCT007 SCT015 OVC030 21/19 A2999 RMK AO2 RAE07DZB07E34 SLP147 P0000 T02110194=
202011102148 SPECI KATL 102148Z 08010KT 9SM SCT007 SCT015 OVC030 21/19 A2998 RMK AO2 RAE07DZB07E34 P0000=
202011102141 SPECI KATL 102141Z 09010KT 8SM SCT007 BKN014 OVC026 21/19 A2998 RMK AO2 RAE07DZB07E34 P0000 T02110194=
202011102052 METAR KATL 102052Z 09010KT 2SM -RA BR OVC006 21/19 A2999 RMK AO2 SFC VIS 4 DZE50RAB50 SLP149 CIG 004V008 P0000 60000 T02110194 56020=
202011101952 METAR KATL 101952Z 09011KT 2SM -DZ BR OVC007 21/19 A3000 RMK AO2 SFC VIS 4 SLP153 CIG 005V009 P0000 T02110194=
202011101852 METAR KATL 101852Z 09010KT 2SM -DZ BR OVC006 21/19 A3002 RMK AO2 SFC VIS 5 RAE42DZB42 SLP160 CIG 004V008 P0000 T02110194=
202011101826 SPECI KATL 101826Z 09010KT 2SM -RA BR OVC007 21/19 A3003 RMK AO2 CIG 006V008 P0000 T02110194=
202011101752 METAR KATL 101752Z 09009KT 3SM -RA BR OVC008 21/19 A3005 RMK AO2 SFC VIS 6 DZE49RAB49 SLP170 CIG 007V009 P0000 60000 T02110189 10211 20194 58016=
202011101652 METAR KATL 101652Z 09012KT 3SM -DZ BR OVC006 21/19 A3008 RMK AO2 SFC VIS 6 SLP179 CIG 005V007 P0000 T02060189=
202011101552 METAR KATL 101552Z 09011KT 3SM -DZ BR OVC006 20/18 A3009 RMK AO2 SFC VIS 6 DZE05B48 SLP184 CIG 004V008 P0000 T02000183=
202011101452 METAR KATL 101452Z 10009KT 3SM -DZ BR OVC005 20/18 A3010 RMK AO2 SFC VIS 6 RAE02DZB02 SLP187 CIG 004V008 PCPN VRY LGT P0000 60000 T02000183 53002=
202011101352 METAR KATL 101352Z 09011KT 3SM -RA BR OVC006 19/18 A3010 RMK AO2 SLP186 RAB48 P0000 T01940183=
202011101252 METAR KATL 101252Z 09012KT 10SM OVC007 20/18 A3009 RMK AO2 SLP184 T02000178=
202011101152 METAR KATL 101152Z 09011KT 10SM OVC006 19/18 A3009 RMK AO2 SLP185 60000 T01940178 10200 20194 58003=
202011101052 METAR KATL 101052Z 10013KT 10SM OVC007 19/18 A3010 RMK AO2 SLP186 T01940178=
202011100952 METAR KATL 100952Z 09013KT 10SM OVC008 19/18 A3010 RMK AO2 DZE06 SLP186 P0000 T01940178=
202011100852 METAR KATL 100852Z 09015KT 7SM -DZ OVC008 19/18 A3010 RMK AO2 RAE0759DZB01E16B52 SLP187 P0000 60000 T01940178 58010=
202011100802 SPECI KATL 100802Z 08011KT 4SM -DZ BR BKN008 OVC013 19/18 A3011 RMK AO2 RAE0759DZB01 P0000 T01940178=
202011100752 METAR KATL 100752Z 08013KT 4SM -RA BR OVC011 19/18 A3012 RMK AO2 DZE0658RAB14E25B49 SLP190 P0000 T01940178=
202011100652 METAR KATL 100652Z 08011KT 8SM -DZ BKN013 BKN018 BKN025 19/18 A3013 RMK AO2 DZB48 SLP194 P0000 T01940178=
202011100649 SPECI KATL 100649Z 08012KT 7SM -DZ BKN013 BKN018 BKN025 19/18 A3013 RMK AO2 DZB48 P0000=
202011100552 METAR KATL 100552Z 08011KT 10SM SCT013 BKN045 20/17 A3013 RMK AO2 SLP196 SCT013 V BKN T02000172 10211 20189 56007=
202011100452 METAR KATL 100452Z 09011KT 10SM SCT015 BKN045 19/17 A3014 RMK AO2 SLP199 T01940167 402560183=
202011100352 METAR KATL 100352Z 09013KT 10SM FEW015 SCT032 19/17 A3014 RMK AO2 SLP202 T01940167=
202011100252 METAR KATL 100252Z 09014KT 10SM SCT040 20/16 A3015 RMK AO2 SLP205 T02000161 53002=
202011100152 METAR KATL 100152Z 09013KT 10SM FEW050 21/16 A3015 RMK AO2 SLP203 T02060161=
202011100052 METAR KATL 100052Z 10013KT 10SM BKN055 21/16 A3014 RMK AO2 SLP202 T02110161=
202011092352 METAR KATL 092352Z 09009KT 10SM FEW040 21/16 A3015 RMK AO2 SLP203 T02110161 10256 20211 53001=
202011092252 METAR KATL 092252Z 08010KT 10SM FEW040 22/16 A3014 RMK AO2 SLP202 T02220161=
202011092152 METAR KATL 092152Z 08014KT 10SM FEW042 SCT060 24/16 A3014 RMK AO2 SLP201 T02390161=
202011092052 METAR KATL 092052Z 09014G21KT 10SM SCT043 BKN055 24/16 A3015 RMK AO2 SLP202 T02390161 56013=
202011091952 METAR KATL 091952Z 09016KT 10SM SCT035 BKN050 24/16 A3016 RMK AO2 SLP204 MDT CU NW-NE T02440161=
202011091852 METAR KATL 091852Z 09015G22KT 10SM SCT033 BKN048 26/16 A3017 RMK AO2 SLP208 T02560161=
202011091752 METAR KATL 091752Z 08016G23KT 10SM BKN033 BKN044 25/17 A3018 RMK AO2 SLP213 60000 T02500167 10250 20189 58021=
202011091652 METAR KATL 091652Z 09012G22KT 10SM SCT026 BKN036 23/17 A3021 RMK AO2 SLP225 T02280167=
202011091646 SPECI KATL 091646Z 08015KT 10SM SCT026 BKN036 23/17 A3022 RMK AO2=
202011091552 METAR KATL 091552Z 09014G20KT 10SM BKN018 BKN026 22/17 A3024 RMK AO2 SLP233 T02170167=
202011091452 METAR KATL 091452Z 08015G21KT 10SM OVC015 21/17 A3025 RMK AO2 SLP238 CIG 013V017 BINOVC 60000 T02060167 51009=
202011091352 METAR KATL 091352Z 08014G20KT 10SM BKN011 BKN040 20/17 A3025 RMK AO2 DZB32E47 SLP237 P0000 T02000167=
202011091252 METAR KATL 091252Z 09013G21KT 10SM BKN011 OVC017 19/17 A3024 RMK AO2 SLP234 T01890167=
202011091152 METAR KATL 091152Z 08011KT 10SM BKN012 BKN022 19/17 A3022 RMK AO2 SLP228 T01890167 10194 20183 53005=
202011091052 METAR KATL 091052Z 08013KT 10SM BKN013 BKN029 19/17 A3022 RMK AO2 SLP226 T01890167=
202011090952 METAR KATL 090952Z 07012KT 10SM BKN011 19/17 A3020 RMK AO2 SLP221 T01890167=
202011090852 METAR KATL 090852Z 08012KT 10SM BKN014 BKN036 19/16 A3021 RMK AO2 SLP222 T01890161 56007=
202011090845 SPECI KATL 090845Z 08014KT 10SM BKN014 BKN036 19/16 A3020 RMK AO2 T01940161=
202011090756 SPECI KATL 090756Z 08011KT 10SM BKN016 BKN038 OVC048 19/16 A3021 RMK AO2 T01890161=
202011090752 METAR KATL 090752Z 09011KT 10SM SCT018 BKN038 BKN048 19/16 A3021 RMK AO2 SLP223 T01890161=
202011090652 METAR KATL 090652Z 08012KT 10SM FEW029 BKN037 BKN070 19/16 A3021 RMK AO2 SLP224 T01890156=
202011090552 METAR KATL 090552Z 08012KT 10SM FEW035 BKN065 19/16 A3023 RMK AO2 SLP230 60000 T01890161 10211 20189 58005=
202011090452 METAR KATL 090452Z 08012KT 10SM FEW040 FEW060 19/16 A3023 RMK AO2 SLP232 T01890161 402440172=
202011090352 METAR KATL 090352Z 08013KT 10SM FEW040 SCT060 SCT075 20/17 A3024 RMK AO2 SLP235 T02000167=
202011090252 METAR KATL 090252Z 08012KT 10SM FEW040 SCT060 21/17 A3024 RMK AO2 SLP236 60000 T02060167 53003=
202011090152 METAR KATL 090152Z 07013KT 10SM SCT038 BKN048 21/17 A3023 RMK AO2 SLP233 T02110172=
202011090052 METAR KATL 090052Z 09007KT 10SM SCT035 BKN048 BKN055 21/18 A3024 RMK AO2 RAE00 SLP234 P0000 T02060178=
202011082352 METAR KATL 082352Z 09010KT 10SM -RA SCT025 BKN031 OVC041 21/18 A3023 RMK AO2 RAE2259B39 SLP233 P0000 60000 T02060178 10244 20206 53005=
202011082252 METAR KATL 082252Z 10011KT 6SM -RA BR FEW029 BKN034 OVC046 21/18 A3023 RMK AO2 DZB05E08RAB08E10B49 SLP229 P0000 T02110178=
202011082152 METAR KATL 082152Z 08015KT 10SM SCT028 BKN065 23/17 A3022 RMK AO2 SLP229 T02280172=
202011082052 METAR KATL 082052Z 07016G21KT 10SM BKN030 BKN060 BKN250 23/17 A3022 RMK AO2 PK WND 08026/1959 SLP227 T02330172 55005=
202011081952 METAR KATL 081952Z 09015G25KT 10SM BKN030 BKN050 24/17 A3022 RMK AO2 SLP225 T02390172=
202011081852 METAR KATL 081852Z 08011KT 10SM BKN030 BKN055 BKN250 23/17 A3022 RMK AO2 SLP227 T02330172=
202011081752 METAR KATL 081752Z 09013G21KT 10SM SCT022 BKN030 BKN037 22/17 A3024 RMK AO2 SLP233 T02220172 10228 20172 58009=
202011081734 SPECI KATL 081734Z 09014G25KT 10SM SCT022 BKN030 BKN037 23/17 A3024 RMK AO2 T02280167=
202011081652 METAR KATL 081652Z 09015KT 10SM BKN023 BKN029 22/17 A3025 RMK AO2 SLP237 T02220172=
202011081552 METAR KATL 081552Z 08014KT 10SM OVC015 21/17 A3026 RMK AO2 SLP242 BINOVC T02060167=
202011081452 METAR KATL 081452Z 08016KT 10SM OVC012 20/17 A3026 RMK AO2 SLP242 BINOVC T02000167 50010=
202011081352 METAR KATL 081352Z 09015KT 10SM BKN011 19/16 A3027 RMK AO2 SLP244 T01890161=
202011081323 SPECI KATL 081323Z 08018G25KT 10SM OVC010 18/16 A3026 RMK AO2 T01830156=
202011081302 SPECI KATL 081302Z 08014KT 10SM BKN009 18/16 A3025 RMK AO2 T01780156=
202011081252 METAR KATL 081252Z 08013G23KT 10SM BKN014 BKN250 18/16 A3025 RMK AO2 SLP237 T01780156=
202011081247 SPECI KATL 081247Z 08017G23KT 10SM BKN014 BKN250 18/16 A3025 RMK AO2=
202011081152 METAR KATL 081152Z 08010KT 10SM FEW018 SCT200 SCT250 17/15 A3023 RMK AO2 SLP232 70011 T01720150 10183 20172 53006=
202011081052 METAR KATL 081052Z 07010KT 10SM FEW021 SCT200 BKN250 18/15 A3022 RMK AO2 SLP228 T01780150=
202011080952 METAR KATL 080952Z 08010KT 10SM FEW021 SCT200 BKN250 17/15 A3021 RMK AO2 SLP225 T01720150=
202011080852 METAR KATL 080852Z 07010KT 10SM FEW021 BKN250 17/15 A3021 RMK AO2 SLP225 T01720150 58002=
202011080752 METAR KATL 080752Z 08009KT 10SM SCT032 BKN250 18/15 A3022 RMK AO2 SLP229 T01780150=
202011080652 METAR KATL 080652Z 07012KT 10SM SCT030 BKN250 18/16 A3022 RMK AO2 SLP227 T01830156=
202011080552 METAR KATL 080552Z 08011KT 10SM FEW030 SCT048 SCT250 19/16 A3022 RMK AO2 SLP227 T01890156 10206 20189 58001=
202011080452 METAR KATL 080452Z 09011KT 10SM FEW030 BKN048 BKN250 19/16 A3022 RMK AO2 SLP229 T01940156 402280161=
202011080352 METAR KATL 080352Z 09011KT 10SM SCT042 BKN050 19/16 A3023 RMK AO2 SLP231 T01940156=
202011080252 METAR KATL 080252Z 08012KT 10SM BKN045 BKN250 19/16 A3022 RMK AO2 SLP229 T01940161 53008=
202011080152 METAR KATL 080152Z 07014KT 10SM CLR 20/16 A3020 RMK AO2 SLP222 T02000161=
202011080052 METAR KATL 080052Z 08012KT 10SM FEW030 SCT200 BKN250 21/16 A3020 RMK AO2 SLP221 T02060161=
202011072352 METAR KATL 072352Z 08009KT 10SM FEW030 SCT200 BKN250 21/16 A3020 RMK AO2 SLP221 T02060161 10228 20206 53001=
202011072252 METAR KATL 072252Z 08009KT 10SM FEW025 FEW030 SCT200 BKN250 22/17 A3019 RMK AO2 SLP216 VIRGA S-SW T02170167=
202011072152 METAR KATL 072152Z 09009KT 10SM SCT030 BKN250 22/17 A3019 RMK AO2 SLP219 T02220167=
202011072052 METAR KATL 072052Z 13005KT 10SM BKN038 BKN250 22/17 A3020 RMK AO2 SLP219 T02220167 55010=
202011071952 METAR KATL 071952Z 10012KT 10SM FEW029 BKN035 22/16 A3019 RMK AO2 SLP219 T02220161=
202011071930 SPECI KATL 071930Z 08012G16KT 10SM BKN029 BKN034 23/17 A3020 RMK AO2 T02280167=
202011071852 METAR KATL 071852Z 10011KT 10SM FEW023 BKN030 OVC043 22/17 A3020 RMK AO2 SLP222 T02220167=
202011071823 SPECI KATL 071823Z 10012KT 10SM SCT026 BKN037 BKN055 22/17 A3021 RMK AO2 T02220172=
202011071752 METAR KATL 071752Z 11011G16KT 10SM BKN015 BKN021 OVC040 21/17 A3023 RMK AO2 SLP230 60011 T02110172 10211 20172 58014=
202011071735 SPECI KATL 071735Z 10008KT 10SM FEW008 SCT011 BKN016 BKN250 21/18 A3023 RMK AO2 T02060178=
202011071715 SPECI KATL 071715Z 09012KT 10SM SCT008 BKN013 BKN032 BKN250 20/18 A3024 RMK AO2 T02000178=
202011071700 SPECI KATL 071700Z 08011KT 10SM FEW007 SCT016 BKN034 20/18 A3025 RMK AO2 T02000183=
202011071652 METAR KATL 071652Z 08009KT 7SM R09R/6000VP6000FT FEW013 SCT021 OVC034 19/18 A3025 RMK AO2 RAB00E43 SLP239 BINOVC P0006 T01940178=
202011071636 SPECI KATL 071636Z 08008KT 040V100 4SM -RA BR FEW006 BKN015 OVC034 19/17 A3026 RMK AO2 RAB00 P0006 T01890172=
202011071624 SPECI KATL 071624Z 08009KT 2SM R09R/6000VP6000FT -RA BR FEW006 BKN015 OVC021 18/17 A3027 RMK AO2 RAB00 P0006 T01830172=
202011071613 SPECI KATL 071613Z 09008KT 2SM R09R/5500VP6000FT RA BR SCT008 BKN013 OVC019 18/17 A3027 RMK AO2 RAB00 P0004 T01830172=
202011071604 SPECI KATL 071604Z 09008KT 2SM R09R/5000VP6000FT RA BR BKN008 BKN014 OVC021 18/17 A3027 RMK AO2 RAB00 P0001 T01830167=
202011071552 METAR KATL 071552Z 08009KT 7SM BKN008 OVC032 18/17 A3027 RMK AO2 DZE15RAB15E44 SLP246 P0002 T01830167=
202011071527 SPECI KATL 071527Z 07011KT 3SM R09R/6000VP6000FT -RA BR BKN006 BKN010 OVC027 18/17 A3027 RMK AO2 DZE15RAB15 P0002 T01780167=
202011071516 SPECI KATL 071516Z 08011KT 1 1/2SM R09R/5500VP6000FT -RA BR BKN008 OVC022 18/16 A3027 RMK AO2 DZE15RAB15 P0000 T01780161=
202011071511 SPECI KATL 071511Z 08012KT 2 1/2SM -DZ BR BKN008 OVC024 18/16 A3027 RMK AO2 P0000 T01780161=
202011071452 METAR KATL 071452Z 07010KT 3SM -DZ BR SCT008 BKN012 OVC022 18/16 A3027 RMK AO2 RAE46DZB49 SLP245 P0002 60003 T01780161 51012=
202011071410 SPECI KATL 071410Z 07011KT 3SM -RA BR FEW008 SCT019 OVC025 17/16 A3026 RMK AO2 P0001 T01720156=
202011071358 SPECI KATL 071358Z 08013KT 2SM R09R/5500VP6000FT -RA BR SCT009 BKN018 OVC028 17/16 A3026 RMK AO2 P0001 T01720156=
202011071352 METAR KATL 071352Z 08011KT 3SM R09R/5500VP6000FT -RA BR SCT009 BKN016 OVC025 17/16 A3026 RMK AO2 RAB12E22B44DZB36E44 SLP243 P0001 T01720156=
202011071344 SPECI KATL 071344Z 09011KT 3SM -RA BR FEW009 BKN016 OVC029 17/16 A3026 RMK AO2 RAB12E22B44DZB36E44 P0000 T01720156=
202011071319 SPECI KATL 071319Z 07012KT 5SM -RA BR FEW017 BKN028 OVC036 18/16 A3025 RMK AO2 RAB12 P0000 T01780156=
202011071252 METAR KATL 071252Z 07010KT 10SM FEW009 SCT019 BKN035 17/15 A3024 RMK AO2 SLP236 T01720150=
202011071152 METAR KATL 071152Z 08011KT 10SM FEW009 BKN041 17/15 A3023 RMK AO2 SLP232 T01720150 10172 20161 53006=
202011071052 METAR KATL 071052Z 07010KT 10SM FEW009 SCT024 BKN048 17/14 A3022 RMK AO2 SLP228 T01670144=
202011071029 SPECI KATL 071029Z 07010KT 10SM FEW009 SCT036 BKN048 17/14 A3022 RMK AO2 T01670144=
202011071018 SPECI KATL 071018Z 07010KT 10SM FEW010 BKN036 17/14 A3022 RMK AO2 T01670139=
202011070952 METAR KATL 070952Z 08009KT 10SM BKN010 BKN036 OVC045 17/14 A3022 RMK AO2 SLP227 BKN010 V SCT T01670139=
202011070852 METAR KATL 070852Z 09009KT 10SM BKN042 BKN250 17/13 A3021 RMK AO2 SLP224 T01670133 58003=
202011070752 METAR KATL 070752Z 07010KT 10SM FEW043 16/12 A3021 RMK AO2 SLP226 T01610122=
202011070652 METAR KATL 070652Z 08010KT 10SM FEW030 SCT258 17/12 A3022 RMK AO2 SLP226 T01670122=
202011070552 METAR KATL 070552Z 07009KT 10SM FEW040 SCT250 17/12 A3022 RMK AO2 SLP227 T01670122 10200 20161 58006=
202011070452 METAR KATL 070452Z 08009KT 10SM BKN250 17/12 A3023 RMK AO2 SLP231 T01670122 402390139=
202011070352 METAR KATL 070352Z 08011KT 10SM BKN250 17/12 A3024 RMK AO2 SLP234 T01720122=
202011070252 METAR KATL 070252Z 08008KT 10SM BKN250 18/12 A3024 RMK AO2 SLP235 T01780117 53004=
202011070152 METAR KATL 070152Z 08008KT 10SM BKN250 18/12 A3023 RMK AO2 SLP235 T01780117=
202011070052 METAR KATL 070052Z 08009KT 10SM BKN250 19/12 A3023 RMK AO2 SLP233 T01890117=
202011062352 METAR KATL 062352Z 08009KT 10SM FEW080 SCT250 20/12 A3023 RMK AO2 SLP232 T02000117 10239 20200 52005=
202011062252 METAR KATL 062252Z 09007KT 10SM FEW080 SCT250 20/11 A3022 RMK AO2 SLP230 T02000111=
202011062152 METAR KATL 062152Z 09010KT 10SM FEW080 SCT200 SCT250 22/11 A3022 RMK AO2 SLP227 T02220111=
202011062052 METAR KATL 062052Z 08009KT 10SM FEW055 FEW080 SCT200 SCT250 23/11 A3021 RMK AO2 SLP225 T02330111 56015=
202011061952 METAR KATL 061952Z 07009G16KT 10SM FEW050 FEW080 SCT200 SCT250 24/11 A3021 RMK AO2 SLP225 T02390111=
202011061852 METAR KATL 061852Z 09008KT 10SM FEW048 FEW080 SCT200 SCT250 24/12 A3023 RMK AO2 SLP232 T02390117=
202011061752 METAR KATL 061752Z 07010KT 10SM FEW042 FEW075 SCT200 SCT250 23/12 A3026 RMK AO2 SLP241 T02280117 10228 20139 58017=
202011061652 METAR KATL 061652Z 10009KT 10SM FEW075 SCT200 SCT250 22/12 A3029 RMK AO2 SLP251 T02170117=
202011061552 METAR KATL 061552Z 08011KT 10SM FEW032 SCT075 SCT200 BKN250 20/11 A3030 RMK AO2 SLP257 T02000111=
202011061452 METAR KATL 061452Z 07011KT 10SM FEW080 SCT200 SCT250 19/10 A3031 RMK AO2 SLP259 T01890100 51008=
202011061352 METAR KATL 061352Z 07012KT 10SM FEW070 SCT200 SCT250 16/09 A3031 RMK AO2 SLP260 T01610089=
202011061252 METAR KATL 061252Z 06011KT 10SM FEW070 BKN200 BKN250 14/08 A3029 RMK AO2 SLP255 T01390083=
202011061152 METAR KATL 061152Z 07007KT 10SM SCT075 BKN200 BKN250 14/08 A3028 RMK AO2 SLP251 T01390083 10144 20139 53003=
202011061052 METAR KATL 061052Z 06008KT 10SM SCT070 BKN250 14/08 A3027 RMK AO2 SLP248 T01390083=
202011060952 METAR KATL 060952Z 06007KT 10SM BKN070 BKN250 14/09 A3027 RMK AO2 SLP247 T01440089=
202011060852 METAR KATL 060852Z 05008KT 10SM BKN070 BKN250 14/09 A3027 RMK AO2 SLP247 T01440094 58007=
202011060752 METAR KATL 060752Z 05008KT 10SM BKN070 BKN250 14/09 A3028 RMK AO2 SLP251 T01440094=
202011060652 METAR KATL 060652Z 06007KT 10SM SCT070 BKN250 14/09 A3029 RMK AO2 SLP253 T01390094=
202011060552 METAR KATL 060552Z 05008KT 10SM FEW150 BKN250 14/09 A3029 RMK AO2 SLP254 T01390094 10178 20139 58006=
202011060452 METAR KATL 060452Z 06006KT 10SM FEW150 BKN250 14/10 A3031 RMK AO2 SLP259 T01440100 402170083=
202011060352 METAR KATL 060352Z 08005KT 10SM FEW150 BKN250 14/10 A3031 RMK AO2 SLP262 T01440100=
202011060252 METAR KATL 060252Z 05007KT 10SM FEW150 BKN250 16/10 A3031 RMK AO2 SLP262 T01560100 55001=
202011060152 METAR KATL 060152Z 06006KT 10SM FEW150 BKN250 16/10 A3030 RMK AO2 SLP260 T01610100=
202011060052 METAR KATL 060052Z 05006KT 10SM FEW150 SCT200 BKN250 17/10 A3031 RMK AO2 SLP262 T01720100=
202011052352 METAR KATL 052352Z 06005KT 10SM SCT200 BKN250 18/09 A3031 RMK AO2 SLP264 T01780094 10217 20172 53001=
202011052252 METAR KATL 052252Z 08005KT 10SM FEW150 BKN200 BKN250 19/09 A3030 RMK AO2 SLP260 T01890089=
202011052152 METAR KATL 052152Z 09007KT 10SM FEW150 BKN200 BKN250 19/09 A3030 RMK AO2 SLP259 T01940089=
202011052052 METAR KATL 052052Z 08006KT 10SM BKN200 BKN250 21/08 A3031 RMK AO2 SLP262 T02060083 56017=
202011051952 METAR KATL 051952Z 03006KT 10SM BKN200 BKN250 21/08 A3032 RMK AO2 SLP265 T02110083=
202011051852 METAR KATL 051852Z 10005KT 10SM BKN200 BKN250 21/08 A3033 RMK AO2 SLP270 T02060083=
202011051752 METAR KATL 051752Z 11006KT 10SM BKN200 BKN250 20/08 A3036 RMK AO2 SLP278 T02000083 10200 20094 58021=
202011051652 METAR KATL 051652Z 10006KT 10SM SCT200 BKN250 19/08 A3040 RMK AO2 SLP291 T01940083=
202011051552 METAR KATL 051552Z 08008KT 10SM SCT250 18/09 A3042 RMK AO2 SLP298 T01830089=
202011051452 METAR KATL 051452Z 08007KT 10SM SCT250 16/08 A3042 RMK AO2 SLP301 T01560083 50009=
202011051352 METAR KATL 051352Z 08007KT 10SM FEW250 SCT300 13/07 A3043 RMK AO2 SLP304 T01280067=
202011051252 METAR KATL 051252Z 06007KT 10SM FEW250 SCT300 11/05 A3042 RMK AO2 SLP301 T01060050=
202011051152 METAR KATL 051152Z 06006KT 10SM FEW250 09/04 A3040 RMK AO2 SLP294 T00940044 10122 20083 51010=
202011051052 METAR KATL 051052Z 09005KT 10SM FEW250 09/04 A3039 RMK AO2 SLP290 T00890039=
202011050952 METAR KATL 050952Z 06006KT 10SM FEW250 09/04 A3038 RMK AO2 SLP287 T00940039=
202011050852 METAR KATL 050852Z 08005KT 10SM FEW250 09/04 A3037 RMK AO2 SLP281 T00890039 56008=
202011050752 METAR KATL 050752Z 08006KT 10SM FEW250 09/04 A3037 RMK AO2 SLP284 T00890039=
202011050652 METAR KATL 050652Z 08006KT 10SM FEW250 10/04 A3038 RMK AO2 SLP287 T01000044=
202011050552 METAR KATL 050552Z 10SM FEW250 12/04 A3039 RMK AO2 SLP289 T01170044 10161 20111 58004=
202011050452 METAR KATL 050452Z 08005KT 10SM FEW250 11/05 A3040 RMK AO2 SLP291 T01110050 402060067=
202011050352 METAR KATL 050352Z 09006KT 10SM FEW250 12/06 A3040 RMK AO2 SLP293 T01170056=
202011050252 METAR KATL 050252Z 09005KT 10SM FEW250 13/05 A3040 RMK AO2 SLP294 T01280050 51003=
202011050152 METAR KATL 050152Z 10004KT 10SM FEW250 14/05 A3040 RMK AO2 SLP295 T01390050=
202011050052 METAR KATL 050052Z 09005KT 10SM FEW250 14/06 A3040 RMK AO2 SLP296 T01390056=
202011042352 METAR KATL 042352Z 00000KT 10SM FEW250 16/05 A3039 RMK AO2 SLP292 T01610050 10206 20161 53008=
202011042252 METAR KATL 042252Z 12005KT 10SM FEW250 18/04 A3037 RMK AO2 SLP285 T01830039=
202011042152 METAR KATL 042152Z 12003KT 10SM FEW001 19/04 A3037 RMK AO2 SLP283 FU FEW001 T01940039=
202011042052 METAR KATL 042052Z 11007KT 10SM CLR 20/03 A3037 RMK AO2 SLP282 T02000033 55006=
202011041952 METAR KATL 041952Z 16006KT 10SM CLR 21/03 A3037 RMK AO2 SLP282 T02060033=
202011041852 METAR KATL 041852Z VRB04KT 10SM CLR 20/03 A3038 RMK AO2 SLP285 T02000033=
202011041752 METAR KATL 041752Z 13008G17KT 10SM CLR 19/03 A3039 RMK AO2 SLP289 T01940033 10194 20083 58009=
202011041652 METAR KATL 041652Z 13007KT 10SM CLR 18/03 A3041 RMK AO2 SLP296 T01830028=
202011041552 METAR KATL 041552Z 11005KT 10SM CLR 17/03 A3042 RMK AO2 SLP300 T01720028=
202011041452 METAR KATL 041452Z 09004KT 10SM CLR 14/04 A3042 RMK AO2 SLP300 T01390044 51019=
202011041352 METAR KATL 041352Z 07008KT 10SM CLR 11/04 A3041 RMK AO2 SLP299 T01110039=
202011041252 METAR KATL 041252Z 06004KT 10SM CLR 10/03 A3038 RMK AO2 SLP289 T01000033=
202011041152 METAR KATL 041152Z 03005KT 10SM CLR 09/02 A3036 RMK AO2 SLP281 T00890017 10094 20067 51009=
202011041052 METAR KATL 041052Z 00000KT 10SM CLR 08/02 A3036 RMK AO2 SLP281 T00780022=
202011040952 METAR KATL 040952Z 33004KT 10SM CLR 08/03 A3034 RMK AO2 SLP274 T00780028=
202011040852 METAR KATL 040852Z 32003KT 10SM CLR 08/02 A3033 RMK AO2 SLP269 T00830022 53004=
202011040752 METAR KATL 040752Z 30003KT 10SM CLR 08/03 A3032 RMK AO2 SLP268 T00830028=
202011040652 METAR KATL 040652Z 33005KT 10SM CLR 09/02 A3032 RMK AO2 SLP266 T00890022=
202011040552 METAR KATL 040552Z 33005KT 10SM CLR 09/03 A3032 RMK AO2 SLP265 T00940028 10133 20089 51001=
202011040452 METAR KATL 040452Z 31004KT 10SM CLR 09/03 A3031 RMK AO2 SLP265 T00890028 401890028=
202011040352 METAR KATL 040352Z 28003KT 10SM CLR 09/03 A3032 RMK AO2 SLP267 T00940028=
202011040252 METAR KATL 040252Z 30003KT 10SM CLR 11/02 A3031 RMK AO2 SLP266 T01060017 53007=
202011040152 METAR KATL 040152Z 30004KT 10SM CLR 11/02 A3030 RMK AO2 SLP262 T01110017=
202011040052 METAR KATL 040052Z 00000KT 10SM CLR 12/01 A3030 RMK AO2 SLP262 T01220011=
202011032352 METAR KATL 032352Z 32005KT 10SM CLR 13/01 A3029 RMK AO2 SLP260 T01330006 10189 20133 53004=
202011032252 METAR KATL 032252Z 33006KT 10SM CLR 15/M01 A3028 RMK AO2 SLP256 T01501006=
202011032152 METAR KATL 032152Z 31007KT 10SM CLR 17/M02 A3028 RMK AO2 SLP255 T01721017=
202011032052 METAR KATL 032052Z 30007KT 10SM CLR 18/M02 A3028 RMK AO2 SLP254 T01831022 56012=
202011031952 METAR KATL 031952Z 31010KT 10SM CLR 18/M02 A3028 RMK AO2 SLP255 T01831017=
202011031852 METAR KATL 031852Z 32008KT 10SM CLR 18/M04 A3030 RMK AO2 SLP260 T01781039=
202011031752 METAR KATL 031752Z 34010KT 10SM CLR 17/M07 A3031 RMK AO2 SLP266 T01721067 10172 20033 58012=
202011031652 METAR KATL 031652Z 34008KT 10SM CLR 16/M04 A3033 RMK AO2 SLP273 T01561039=
202011031552 METAR KATL 031552Z 32006KT 10SM FEW250 14/M03 A3034 RMK AO2 SLP276 T01391028=
202011031452 METAR KATL 031452Z 34010KT 10SM FEW250 11/M03 A3035 RMK AO2 SLP281 T01111033 51012=
202011031352 METAR KATL 031352Z 32009KT 10SM CLR 08/M02 A3034 RMK AO2 SLP280 T00781022=
202011031252 METAR KATL 031252Z 32007KT 10SM CLR 04/M01 A3033 RMK AO2 SLP276 T00441011=
202011031152 METAR KATL 031152Z 31006KT 10SM CLR 04/M02 A3032 RMK AO2 SLP271 T00391022 10050 20028 51006=
202011031052 METAR KATL 031052Z 00000KT 10SM CLR 04/M02 A3032 RMK AO2 SLP270 T00391022=
202011030952 METAR KATL 030952Z 31004KT 10SM CLR 03/M02 A3030 RMK AO2 SLP265 T00331017=
202011030852 METAR KATL 030852Z 32006KT 10SM CLR 04/M02 A3030 RMK AO2 SLP262 T00391022 56010=
202011030752 METAR KATL 030752Z 31006KT 10SM CLR 04/M02 A3030 RMK AO2 SLP263 T00391022=
202011030652 METAR KATL 030652Z 31007KT 10SM CLR 04/M02 A3032 RMK AO2 SLP270 T00391017=
202011030552 METAR KATL 030552Z 32005KT 10SM FEW250 04/M02 A3033 RMK AO2 SLP273 T00441017 10094 20044 50000=
202011030452 METAR KATL 030452Z 31007KT 10SM FEW250 05/M02 A3033 RMK AO2 SLP274 T00501017 401500033=
202011030352 METAR KATL 030352Z 30004KT 10SM FEW250 06/M02 A3033 RMK AO2 SLP275 T00561022=
202011030252 METAR KATL 030252Z 00000KT 10SM FEW250 06/M03 A3033 RMK AO2 SLP274 T00611028 51003=
202011030152 METAR KATL 030152Z 00000KT 10SM FEW250 08/M04 A3032 RMK AO2 SLP273 T00781044=
202011030052 METAR KATL 030052Z 31004KT 10SM FEW250 08/M05 A3033 RMK AO2 SLP275 T00831050=
202011022352 METAR KATL 022352Z 32006KT 10SM FEW250 09/M06 A3032 RMK AO2 SLP272 T00941061 10150 20094 53001=
202011022252 METAR KATL 022252Z 33008KT 10SM FEW250 11/M08 A3031 RMK AO2 SLP267 T01061078=
202011022152 METAR KATL 022152Z 33010KT 10SM CLR 13/M09 A3031 RMK AO2 SLP268 T01331094=
202011022052 METAR KATL 022052Z 31011KT 10SM CLR 14/M07 A3031 RMK AO2 SLP268 T01391072 56016 $=
202011021952 METAR KATL 021952Z 32013KT 10SM CLR 14/M06 A3032 RMK AO2 SLP268 T01441061=
202011021852 METAR KATL 021852Z 32007KT 10SM CLR 14/M06 A3033 RMK AO2 SLP272 T01391061=
202011021752 METAR KATL 021752Z 34009KT 10SM CLR 13/M06 A3036 RMK AO2 SLP284 T01331061 10133 20033 58010=
202011021652 METAR KATL 021652Z 32012KT 10SM CLR 12/M06 A3039 RMK AO2 SLP291 T01221061=
202011021552 METAR KATL 021552Z 35006KT 10SM CLR 11/M06 A3039 RMK AO2 SLP293 T01061061=
202011021452 METAR KATL 021452Z 33008KT 10SM CLR 08/M05 A3040 RMK AO2 SLP294 T00831050 51016=
202011021352 METAR KATL 021352Z 33010KT 10SM CLR 06/M06 A3038 RMK AO2 SLP290 T00611056=
202011021252 METAR KATL 021252Z 33009KT 10SM CLR 04/M06 A3036 RMK AO2 SLP284 T00391056=
202011021152 METAR KATL 021152Z 33009KT 10SM CLR 03/M06 A3035 RMK AO2 SLP279 T00331061 10089 20033 53022=
202011021052 METAR KATL 021052Z 31010KT 10SM CLR 04/M07 A3033 RMK AO2 SLP271 T00391067=
202011020952 METAR KATL 020952Z 32010KT 10SM CLR 04/M07 A3030 RMK AO2 SLP260 T00441072=
202011020852 METAR KATL 020852Z 34011KT 10SM CLR 06/M08 A3028 RMK AO2 SLP252 T00561078 51009=
202011020752 METAR KATL 020752Z 34011G27KT 10SM CLR 07/M09 A3028 RMK AO2 PK WND 36028/0713 SLP252 T00671089=
202011020652 METAR KATL 020652Z 34014G25KT 10SM CLR 08/M09 A3027 RMK AO2 PK WND 35036/0604 SLP247 T00781089=
202011020552 METAR KATL 020552Z 35020G30KT 10SM CLR 09/M08 A3025 RMK AO2 PK WND 35034/0527 SLP242 T00891083 10167 20089 51014=
202011020452 METAR KATL 020452Z 34021G30KT 10SM CLR 10/M07 A3025 RMK AO2 PK WND 35030/0452 SLP243 T01001067 402170100=
202011020352 METAR KATL 020352Z 35020G37KT 10SM CLR 12/M07 A3024 RMK AO2 PK WND 35037/0347 SLP238 T01171067 $=
202011020252 METAR KATL 020252Z 34014G25KT 10SM CLR 13/M04 A3021 RMK AO2 PK WND 32034/0212 SLP228 T01281039 51022 $=
202011020152 METAR KATL 020152Z 33016G29KT 10SM CLR 14/02 A3018 RMK AO2 PK WND 31029/0143 SLP220 T01440017 $=
202011020052 METAR KATL 020052Z 32013KT 10SM CLR 16/03 A3017 RMK AO2 PK WND 32027/0012 SLP214 T01610033 $=
202011012352 METAR KATL 012352Z 31012G21KT 10SM FEW200 FEW250 17/06 A3014 RMK AO2 SLP204 T01670061 10217 20167 53008 $=
202011012252 METAR KATL 012252Z 29012G19KT 10SM FEW200 FEW250 18/07 A3012 RMK AO2 SLP198 T01780067=
202011012152 METAR KATL 012152Z 30011G22KT 10SM CLR 19/07 A3011 RMK AO2 SLP194 T01940072=
202011012052 METAR KATL 012052Z 31016G25KT 10SM FEW055 21/07 A3011 RMK AO2 SLP194 T02060072 55009=
202011011952 METAR KATL 011952Z 29016G24KT 10SM CLR 21/08 A3010 RMK AO2 PK WND 29026/1912 SLP191 T02110083=
202011011852 METAR KATL 011852Z 30012G23KT 10SM FEW042 21/09 A3013 RMK AO2 SLP198 T02110094=
202011011752 METAR KATL 011752Z 29013G18KT 10SM FEW030 20/11 A3014 RMK AO2 SLP204 60000 T02000111 10200 20122 58025=
202011011712 SPECI KATL 011712Z 28009KT 10SM SCT024 19/12 A3017 RMK AO2 T01890122=
202011011652 METAR KATL 011652Z 30009KT 10SM BKN021 17/12 A3019 RMK AO2 SLP220 T01720122=
202011011629 SPECI KATL 011629Z 27006KT 10SM BKN016 BKN021 17/12 A3018 RMK AO2 T01720122=
202011011552 METAR KATL 011552Z 29009KT 10SM FEW009 OVC013 16/13 A3019 RMK AO2 SLP223 BINOVC T01560128=
202011011521 SPECI KATL 011521Z 24005KT 7SM OVC006 14/13 A3020 RMK AO2 T01440128=
202011011452 METAR KATL 011452Z 29004KT 1SM R09R/P6000FT BR OVC003 13/12 A3022 RMK AO2 SFC VIS 3 SLP233 60000 T01330122 58002=
202011011352 METAR KATL 011352Z 00000KT 1SM R09R/P6000FT BR OVC004 13/12 A3023 RMK AO2 SFC VIS 5 SLP236 T01280117=
202011011252 METAR KATL 011252Z 00000KT 1SM R09R/P6000FT BR OVC004 13/11 A3022 RMK AO2 SFC VIS 6 DZE29 SLP233 CIG 003V005 P0000 T01280111=
202011011249 SPECI KATL 011249Z 00000KT 1SM R09R/P6000FT BR OVC004 13/11 A3022 RMK AO2 SFC VIS 6 DZE29 CIG 003V005 P0000=
