##########################################################
# Query made at 04/20/2024 00:13:04 UTC
# Time interval: from 10/01/2020 12:00  to 10/31/2020 12:59  UTC
##########################################################

##########################################################
# KATL, Atlanta, Hartsfield - Jackson Atlanta International Airport (United States)
# WMO index: 72219. WIGOS ID: 0-20000-0-72219
# Latitude 33-38-59N. Longitude 084-25-00W. Altitude 312 m.
##########################################################

202010311252 METAR KATL 311252Z 08012KT 10SM FEW050 FEW200 09/03 A3034 RMK AO2 SLP277 T00890033=
202010311152 METAR KATL 311152Z 08011KT 10SM FEW040 08/04 A3033 RMK AO2 SLP272 T00830039 10106 20083 53026=
202010311052 METAR KATL 311052Z 09009KT 10SM CLR 08/04 A3029 RMK AO2 SLP260 T00830039=
202010310952 METAR KATL 310952Z 09010KT 10SM CLR 09/04 A3028 RMK AO2 SLP253 T00890039=
202010310852 METAR KATL 310852Z 09008KT 10SM CLR 09/04 A3025 RMK AO2 SLP245 T00890044 51009=
202010310752 METAR KATL 310752Z 08007KT 10SM CLR 10/05 A3025 RMK AO2 SLP242 T01000050 $=
202010310652 METAR KATL 310652Z 07008KT 10SM CLR 10/05 A3024 RMK AO2 SLP238 T01000050 $=
202010310552 METAR KATL 310552Z 04005KT 10SM CLR 09/05 A3023 RMK AO2 SLP236 T00940050 10122 20089 51008 $=
202010310452 METAR KATL 310452Z 34005KT 10SM CLR 09/05 A3022 RMK AO2 SLP235 T00890050 401720089 $=
202010310352 METAR KATL 310352Z 35007KT 10SM CLR 09/05 A3021 RMK AO2 SLP230 T00940050 $=
202010310252 METAR KATL 310252Z 35007KT 10SM CLR 10/05 A3020 RMK AO2 SLP228 T01000050 53013 $=
202010310152 METAR KATL 310152Z 33006KT 10SM CLR 11/04 A3018 RMK AO2 SLP222 T01060044 $=
202010310052 METAR KATL 310052Z 34012KT 10SM CLR 12/04 A3018 RMK AO2 SLP219 T01170044 $=
202010302352 METAR KATL 302352Z 33008KT 10SM CLR 12/05 A3016 RMK AO2 SLP215 T01220050 10172 20122 53016 $=
202010302252 METAR KATL 302252Z 33010KT 10SM CLR 14/04 A3015 RMK AO2 SLP208 T01390044 $=
202010302152 METAR KATL 302152Z 33012KT 10SM CLR 16/04 A3013 RMK AO2 SLP201 T01560044 $=
202010302052 METAR KATL 302052Z 33012KT 10SM CLR 17/05 A3012 RMK AO2 SLP197 T01670050 55001=
202010301952 METAR KATL 301952Z 34012KT 10SM CLR 17/05 A3010 RMK AO2 SLP192 T01670050=
202010301852 METAR KATL 301852Z 34014G19KT 10SM CLR 17/06 A3011 RMK AO2 SLP194 T01670056=
202010301752 METAR KATL 301752Z 34014G23KT 10SM FEW046 16/05 A3012 RMK AO2 SLP198 T01610050 10161 20111 50001=
202010301652 METAR KATL 301652Z 32013G23KT 10SM FEW038 16/06 A3014 RMK AO2 SLP205 T01560056=
202010301552 METAR KATL 301552Z 33020G26KT 10SM FEW028 14/06 A3013 RMK AO2 PK WND 32029/1524 SLP204 T01440061=
202010301452 METAR KATL 301452Z 34020G28KT 10SM SCT024 13/06 A3012 RMK AO2 PK WND 34028/1451 SLP198 T01330061 51028=
202010301449 SPECI KATL 301449Z 34021G28KT 10SM SCT024 13/06 A3012 RMK AO2 PK WND 32028/1448=
202010301352 METAR KATL 301352Z 33014G21KT 10SM FEW018 BKN024 12/07 A3011 RMK AO2 SLP194 T01220067=
202010301252 METAR KATL 301252Z 31012G21KT 10SM FEW015 BKN020 12/07 A3006 RMK AO2 SLP178 T01170072=
202010301152 METAR KATL 301152Z 29011KT 10SM FEW015 BKN021 11/07 A3003 RMK AO2 SLP166 T01110072 10111 20100 53031=
202010301052 METAR KATL 301052Z 29011KT 10SM FEW015 OVC020 11/07 A3000 RMK AO2 SLP155 T01060072=
202010300952 METAR KATL 300952Z 27009G17KT 10SM FEW015 BKN020 OVC027 11/07 A2996 RMK AO2 SLP140 T01060067=
202010300852 METAR KATL 300852Z 29013KT 10SM BKN020 OVC025 11/07 A2994 RMK AO2 SLP131 T01060067 51013=
202010300752 METAR KATL 300752Z 28014KT 10SM BKN022 OVC030 11/06 A2992 RMK AO2 SLP127 T01060061=
202010300652 METAR KATL 300652Z 29013G25KT 10SM FEW015 OVC020 10/06 A2992 RMK AO2 PK WND 31028/0623 SLP125 T01000061=
202010300552 METAR KATL 300552Z 29017G23KT 10SM FEW015 OVC020 10/06 A2990 RMK AO2 SLP118 BINOVC T01000056 10211 20100 51019=
202010300452 METAR KATL 300452Z 28016G24KT 10SM BKN025 10/04 A2990 RMK AO2 PK WND 29028/0354 SLP119 T01000044 402780100=
202010300446 SPECI KATL 300446Z 29015G24KT 10SM BKN025 10/04 A2989 RMK AO2 PK WND 29028/0354=
202010300352 METAR KATL 300352Z 28021G30KT 10SM BKN030 11/04 A2989 RMK AO2 PK WND 29030/0349 SLP116 T01060039=
202010300252 METAR KATL 300252Z 28017G27KT 10SM SCT040 12/04 A2984 RMK AO2 PK WND 28030/0153 SLP099 T01170039 51051=
202010300152 METAR KATL 300152Z 27022G37KT 10SM SCT045 BKN055 14/03 A2980 RMK AO2 PK WND 28039/0113 SLP085 T01390033=
202010300052 METAR KATL 300052Z 26018G31KT 10SM FEW055 SCT070 17/07 A2974 RMK AO2 PK WND 27036/0017 SLP063 T01720072=
202010292352 METAR KATL 292352Z 24010G25KT 10SM SCT055 21/09 A2968 RMK AO2 PK WND 28029/2326 SLP043 T02110089 10278 20211 53018=
202010292252 METAR KATL 292252Z 25011G19KT 10SM SCT055 SCT250 23/12 A2965 RMK AO2 PK WND 22026/2200 SLP031 T02280122=
202010292152 METAR KATL 292152Z 25013G26KT 10SM FEW055 FEW250 25/11 A2963 RMK AO2 PK WND 24029/2127 SLP024 T02500106=
202010292052 METAR KATL 292052Z 26015G25KT 10SM FEW050 FEW070 SCT250 27/13 A2963 RMK AO2 PK WND 22035/2010 SLP023 TCU DSNT NE-E T02720133 55019=
202010291952 METAR KATL 291952Z 23015G24KT 10SM FEW034 FEW070 SCT250 28/18 A2963 RMK AO2 SLP021 TCU DSNT NE-SE T02780178=
202010291852 METAR KATL 291852Z 22013G23KT 10SM FEW028TCU SCT040 SCT060 27/19 A2965 RMK AO2 SLP030 TCU N S W-NW DSNT NE E-SE T02720194=
202010291752 METAR KATL 291752Z 24009G21KT 10SM SCT024TCU BKN038 BKN055 27/20 A2969 RMK AO2 PK WND 22027/1721 SLP042 TCU N-NE MDT CU ALQDS T02670200 10267 20233 58020=
202010291728 SPECI KATL 291728Z 23016G27KT 10SM SCT023 BKN032 BKN050 27/20 A2970 RMK AO2 PK WND 22027/1721 MDT CU W-N-NE T02670200=
202010291652 METAR KATL 291652Z 22015G23KT 10SM BKN022 BKN030 BKN050 26/20 A2972 RMK AO2 SLP056 MDT CU SW-NW-NE T02560200=
202010291552 METAR KATL 291552Z 23009G19KT 10SM SCT020 BKN028 BKN045 25/20 A2974 RMK AO2 PK WND 23026/1531 SLP061 T02500200=
202010291452 METAR KATL 291452Z 24009G20KT 10SM BKN021 OVC040 25/21 A2975 RMK AO2 SLP063 BINOVC T02500206 50019=
202010291352 METAR KATL 291352Z 24014G25KT 10SM BKN016 BKN032 BKN200 BKN250 24/21 A2975 RMK AO2 PK WND 21032/1311 SLP065 T02390206=
202010291330 SPECI KATL 291330Z 24011G22KT 10SM BKN018 BKN034 BKN200 BKN250 24/21 A2974 RMK AO2 PK WND 21032/1311 T02390206=
202010291311 SPECI KATL 291311Z 24015G32KT 10SM SCT018 SCT034 BKN200 BKN250 24/21 A2973 RMK AO2 PK WND 21032/1311 T02390206=
202010291252 METAR KATL 291252Z 23015G27KT 10SM BKN020 BKN027 BKN250 24/21 A2973 RMK AO2 PK WND 22031/1234 SLP057 T02390206=
202010291152 METAR KATL 291152Z 23013G26KT 10SM FEW012 BKN023 OVC028 23/21 A2969 RMK AO2 PK WND 24032/1058 RAB1055E41 SLP044 P0001 60089 70089 T02330211 10239 20222 51049=
202010291052 METAR KATL 291052Z 22017G32KT 10SM FEW012 BKN024 OVC034 24/21 A2965 RMK AO2 PK WND 21044/1022 RAE47 PRESRR SLP029 P0001 T02390211=
202010291019 SPECI KATL 291019Z 22020G44KT 8SM -RA FEW011 BKN016 OVC031 24/22 A2961 RMK AO2 PK WND 21044/1011 P0000 T02390217=
202010290952 METAR KATL 290952Z 21019G35KT 5SM -RA BR BKN011 BKN016 OVC028 23/22 A2959 RMK AO2 PK WND 17045/0907 SLP009 P0010 T02330217=
202010290944 SPECI KATL 290944Z 20024G43KT 4SM -RA BR FEW007 BKN013 OVC024 23/21 A2958 RMK AO2 PK WND 17045/0907 P0008 T02330211=
202010290942 SPECI KATL 290942Z 20026G43KT 5SM -RA BR BKN010 BKN015 OVC024 23/21 A2958 RMK AO2 PK WND 17045/0907 PRESRR P0008 T02280211=
202010290918 SPECI KATL 290918Z 19028G43KT 6SM -RA BR SCT010 OVC015 23/21 A2954 RMK AO2 PK WND 17045/0907 P0006 T02280211=
202010290901 SPECI KATL 290901Z 18022G36KT 5SM RA BR BKN010 OVC015 22/21 A2955 RMK AO2 PK WND 18036/0853 P0003 T02220211=
202010290852 METAR KATL 290852Z 18026G43KT 3SM +RA BR FEW010 BKN015 OVC028 22/21 A2954 RMK AO2 PK WND 16044/0803 SLP993 P0033 60077 T02220206 58080=
202010290846 SPECI KATL 290846Z 17024G40KT 2 1/2SM +RA BR BKN015 BKN022 OVC028 22/21 A2954 RMK AO2 PK WND 16044/0803 VIS 1 3/4V3 P0030=
202010290820 SPECI KATL 290820Z 16023G41KT 4SM RA BR SCT011 SCT017 OVC026 22/21 A2956 RMK AO2 PK WND 16044/0803 PRESFR P0022 T02220206=
202010290752 METAR KATL 290752Z 16023G43KT 2 1/2SM +RA BR FEW010 BKN023 OVC030 23/21 A2962 RMK AO2 PK WND 14043/0750 PRESFR SLP020 P0040 T02280211=
202010290714 SPECI KATL 290714Z 15011G25KT 3SM +RA BR FEW007 SCT015 OVC025 23/21 A2968 RMK AO2 PRESFR P0013 T02280211=
202010290652 METAR KATL 290652Z 13015G27KT 6SM RA BR FEW007 BKN012 OVC030 23/21 A2971 RMK AO2 PK WND 14027/0651 RAB12 PRESFR SLP052 P0004 T02280211=
202010290552 METAR KATL 290552Z 14013G21KT 10SM BKN010 OVC015 23/21 A2978 RMK AO2 SLP075 60000 T02330211 10239 20228 58041=
202010290452 METAR KATL 290452Z 14010KT 8SM BKN013 OVC026 23/21 A2983 RMK AO2 RAE31 SLP092 CIG 011V015 P0000 T02330211 402500206=
202010290440 SPECI KATL 290440Z 14010G19KT 9SM BKN013 OVC026 23/21 A2984 RMK AO2 RAE31 CIG 011V015 P0000 T02330211=
202010290424 SPECI KATL 290424Z 15011G20KT 8SM -RA SCT014 BKN026 OVC055 23/21 A2986 RMK AO2 P0000 T02330211=
202010290352 METAR KATL 290352Z 15009KT 9SM -RA FEW008 SCT032 BKN065 OVC140 23/21 A2988 RMK AO2 RAB48 SLP109 PCPN VRY LGT P0000 T02330211=
202010290252 METAR KATL 290252Z 14006KT 9SM FEW006 SCT026 BKN110 OVC200 23/22 A2991 RMK AO2 SLP119 60000 T02280217 58014=
202010290152 METAR KATL 290152Z 12006KT 10SM FEW007 SCT028 BKN100 OVC200 23/22 A2992 RMK AO2 SLP123 T02280217=
202010290052 METAR KATL 290052Z 12006KT 10SM FEW007 BKN028 BKN100 OVC200 23/22 A2994 RMK AO2 RAB06E16 SLP131 P0000 T02330217=
202010282352 METAR KATL 282352Z 12007KT 10SM SCT008 BKN015 BKN090 OVC200 24/22 A2995 RMK AO2 RAB33E43 SLP133 P0000 60000 T02390217 10250 20233 56013=
202010282252 METAR KATL 282252Z 11005KT 10SM SCT013 BKN020 BKN080 OVC200 24/22 A2995 RMK AO2 SLP135 T02390217=
202010282152 METAR KATL 282152Z 12005KT 10SM FEW014 BKN080 BKN130 OVC200 24/22 A2997 RMK AO2 SLP142 T02440217=
202010282052 METAR KATL 282052Z 12006KT 9SM SCT015 BKN028 BKN100 OVC200 24/22 A2999 RMK AO2 SLP147 T02440217 56022=
202010282032 SPECI KATL 282032Z 16004KT 10SM BKN015 BKN028 BKN100 OVC200 24/21 A3000 RMK AO2 T02440211=
202010281952 METAR KATL 281952Z 15006KT 10SM FEW015 SCT032 BKN100 OVC200 24/21 A3000 RMK AO2 SLP150 T02440211=
202010281949 SPECI KATL 281949Z 15005KT 10SM SCT015 BKN030 BKN140 OVC200 24/21 A3000 RMK AO2=
202010281852 METAR KATL 281852Z 15006KT 9SM FEW013 BKN016 OVC028 24/21 A3002 RMK AO2 SLP158 T02390211=
202010281817 SPECI KATL 281817Z 18008KT 8SM SCT012 BKN020 OVC030 24/21 A3004 RMK AO2 T02440211=
202010281752 METAR KATL 281752Z 19006KT 10SM OVC012 24/21 A3005 RMK AO2 SLP169 CIG 010V014 60000 T02390211 10239 20211 58014=
202010281652 METAR KATL 281652Z 18005KT 7SM OVC010 24/21 A3007 RMK AO2 SLP175 CIG 009V012 T02390211=
202010281609 SPECI KATL 281609Z 18007KT 7SM OVC010 23/21 A3008 RMK AO2 CIG 008V012 T02330211=
202010281552 METAR KATL 281552Z 17008KT 7SM OVC008 23/21 A3008 RMK AO2 SLP179 CIG 006V009 T02280206=
202010281455 SPECI KATL 281455Z 19007KT 6SM BR OVC007 22/21 A3010 RMK AO2 CIG 005V009 T02220206=
202010281452 METAR KATL 281452Z 17005KT 2SM BR OVC006 22/21 A3010 RMK AO2 SFC VIS 6 SLP184 CIG 005V008 60000 T02220206 53002=
202010281352 METAR KATL 281352Z 17008KT 2SM BR OVC006 22/21 A3010 RMK AO2 SFC VIS 6 SLP185 CIG 004V008 T02220206=
202010281308 SPECI KATL 281308Z 16006KT 2SM BR OVC007 22/21 A3009 RMK AO2 SFC VIS 6 CIG 005V009 T02170206=
202010281252 METAR KATL 281252Z 16006KT 2SM BR BKN004 OVC010 22/21 A3009 RMK AO2 SFC VIS 6 DZE16RAB16E20 SLP181 CIG 003V006 TWRINC P0000 T02170206=
202010281152 METAR KATL 281152Z 18006KT 1/2SM R09R/P6000FT -DZ BR OVC002 21/21 A3009 RMK AO2 SFC VIS 1 1/4 SLP182 TWRINC P0000 60004 70011 T02110206 10211 20206 53002=
202010281052 METAR KATL 281052Z 16006KT 1/2SM R09R/P6000FT -DZ BR OVC003 21/20 A3008 RMK AO2 SFC VIS 1 1/2 DZB52 SLP180 CIG 002V004 TWRINC P0000 T02110200=
202010280952 METAR KATL 280952Z 16010KT 1/2SM R09R/P6000FT BR OVC003 21/20 A3007 RMK AO2 SFC VIS 5 RAE25 SLP176 CIG 002V004 TWRINC P0001 T02110200=
202010280947 SPECI KATL 280947Z 15007KT 1/2SM R09R/P6000FT BR OVC003 21/20 A3007 RMK AO2 SFC VIS 5 RAE25 CIG 002V004 P0001=
202010280852 METAR KATL 280852Z 15008KT 3SM -RA BR OVC003 21/20 A3008 RMK AO2 RAB0757 SLP178 P0003 60003 T02110200 56016=
202010280807 SPECI KATL 280807Z 14010KT 6SM -RA BR OVC004 21/20 A3009 RMK AO2 RAB0757 P0000 T02110200=
202010280800 SPECI KATL 280800Z 13008KT 7SM -RA OVC005 21/20 A3009 RMK AO2 RAB0757 P0000 T02110200=
202010280752 METAR KATL 280752Z 14006KT 7SM OVC004 21/20 A3009 RMK AO2 SLP182 CIG 003V006 T02110200=
202010280652 METAR KATL 280652Z 13007KT 7SM OVC004 21/20 A3011 RMK AO2 RAE23 SLP190 CIG 003V007 P0000 T02110200=
202010280552 METAR KATL 280552Z 10003KT 5SM -RA BR OVC004 21/19 A3013 RMK AO2 RAE04B25 SLP196 P0002 60007 T02060194 10211 20206 56007=
202010280550 SPECI KATL 280550Z 00000KT 5SM -RA BR OVC004 21/19 A3013 RMK AO2 RAE04B25 P0002=
202010280452 METAR KATL 280452Z 12005KT 5SM -RA BR BKN006 BKN013 OVC080 21/19 A3013 RMK AO2 RAB33 SLP195 P0005 T02060189 402390178=
202010280438 SPECI KATL 280438Z 12005KT 4SM RA BR BKN008 BKN013 OVC080 21/19 A3014 RMK AO2 RAB33 P0002 T02060189=
202010280352 METAR KATL 280352Z 13004KT 9SM BKN014 OVC085 21/19 A3014 RMK AO2 SLP202 T02110189=
202010280330 SPECI KATL 280330Z 13005KT 9SM BKN020 OVC085 21/19 A3014 RMK AO2 T02110189=
202010280252 METAR KATL 280252Z 12005KT 9SM SCT020 BKN030 BKN085 21/19 A3015 RMK AO2 SLP204 T02060189 51010=
202010280230 SPECI KATL 280230Z 10006KT 10SM BKN025 BKN090 21/19 A3015 RMK AO2 T02060189=
202010280152 METAR KATL 280152Z 08007KT 8SM FEW025 BKN090 21/19 A3014 RMK AO2 SLP199 T02060189=
202010280052 METAR KATL 280052Z 09006KT 10SM FEW025 SCT080 21/19 A3014 RMK AO2 SLP200 T02060189=
202010272352 METAR KATL 272352Z 08004KT 10SM FEW025 21/18 A3012 RMK AO2 SLP193 T02110183 10239 20211 55001=
202010272346 SPECI KATL 272346Z 07005KT 10SM SCT024 21/18 A3012 RMK AO2=
202010272252 METAR KATL 272252Z 10005KT 10SM BKN020 BKN080 22/18 A3011 RMK AO2 SLP192 T02220183=
202010272237 SPECI KATL 272237Z 11006KT 10SM BKN017 BKN080 22/18 A3012 RMK AO2 T02220183=
202010272152 METAR KATL 272152Z 10007KT 10SM FEW016 SCT022 BKN080 22/18 A3012 RMK AO2 SLP195 T02220183=
202010272104 SPECI KATL 272104Z 13004KT 10SM FEW016 SCT022 23/19 A3013 RMK AO2 T02330189=
202010272052 METAR KATL 272052Z 12005KT 9SM SCT016 BKN022 23/19 A3013 RMK AO2 SLP198 T02330189 56010=
202010271952 METAR KATL 271952Z 14008KT 8SM BKN016 OVC022 23/19 A3014 RMK AO2 SLP199 CIG 014V018 BINOVC T02280189=
202010271852 METAR KATL 271852Z 09007KT 8SM OVC012 22/19 A3014 RMK AO2 SLP201 T02220189=
202010271752 METAR KATL 271752Z 15004KT 8SM OVC011 22/18 A3016 RMK AO2 SLP208 T02220183 10222 20178 58016=
202010271719 SPECI KATL 271719Z 10004KT 8SM OVC010 22/18 A3017 RMK AO2 BINOVC T02170183=
202010271652 METAR KATL 271652Z 09004KT 7SM OVC009 22/18 A3018 RMK AO2 SLP215 CIG 008V010 T02170183=
202010271552 METAR KATL 271552Z 12005KT 6SM BR OVC007 20/18 A3020 RMK AO2 SLP221 CIG 006V008 T02000178=
202010271536 SPECI KATL 271536Z 10005KT 6SM BR OVC006 20/18 A3020 RMK AO2 CIG 005V007 T02000178=
202010271452 METAR KATL 271452Z VRB03KT 1 1/2SM BR OVC005 19/18 A3021 RMK AO2 SFC VIS 5 SLP225 CIG 004V006 T01940178 51009=
202010271450 SPECI KATL 271450Z 14004KT 1 1/2SM BR OVC005 19/18 A3021 RMK AO2 SFC VIS 5 CIG 004V006=
202010271352 METAR KATL 271352Z 11006KT 1/4SM R09R/P6000FT BR OVC002 18/17 A3021 RMK AO2 SFC VIS 2 SLP224 CIG 001V003 TWRINC T01830172=
202010271252 METAR KATL 271252Z 10005KT 1/4SM R09R/P6000FT BR OVC003 18/17 A3020 RMK AO2 SFC VIS 1 1/2 SLP221 TWRINC T01830172=
202010271152 METAR KATL 271152Z 09006KT 1/4SM R09R/P6000FT BR OVC003 18/17 A3019 RMK AO2 SFC VIS 1 1/2 SLP217 TWRINC T01780172 10178 20178 53009=
202010271052 METAR KATL 271052Z 07006KT 1/4SM R09R/P6000FT BR OVC003 18/17 A3017 RMK AO2 SFC VIS 2 1/2 SLP213 T01780172=
202010270952 METAR KATL 270952Z 07005KT 1/4SM R09R/P6000FT BR OVC002 18/17 A3017 RMK AO2 SFC VIS 1 SLP210 T01780172=
202010270916 SPECI KATL 270916Z 10004KT 1/4SM R09R/2800V3500FT FG VV002 18/17 A3016 RMK AO2 SFC VIS 1/2 T01780172=
202010270852 METAR KATL 270852Z 12005KT 1SM R09R/2400V5500FT BR OVC002 18/17 A3016 RMK AO2 SLP206 T01780172 58001=
202010270752 METAR KATL 270752Z 11004KT 1SM R09R/3500VP6000FT BR OVC002 18/17 A3016 RMK AO2 SFC VIS 1 1/2 SLP207 T01780172=
202010270652 METAR KATL 270652Z 10004KT 1SM R09R/P6000FT OVC002 18/17 A3016 RMK AO2 SFC VIS 7 SLP208 T01780167=
202010270552 METAR KATL 270552Z 11005KT 1SM R09R/P6000FT OVC003 18/17 A3016 RMK AO2 SFC VIS 7 SLP208 T01780167 10194 20178 50001=
202010270452 METAR KATL 270452Z 14005KT 1SM R09R/P6000FT OVC003 18/17 A3017 RMK AO2 SFC VIS 9 SLP210 T01830172 402060178=
202010270352 METAR KATL 270352Z 14004KT 10SM BKN005 OVC055 18/17 A3017 RMK AO2 SLP211 T01830172=
202010270252 METAR KATL 270252Z 10007KT 10SM BKN006 OVC055 19/17 A3016 RMK AO2 SLP207 T01890172 51013=
202010270152 METAR KATL 270152Z 09006KT 10SM BKN006 OVC055 19/17 A3015 RMK AO2 SLP204 T01890172=
202010270052 METAR KATL 270052Z 09010KT 10SM BKN007 OVC050 19/17 A3013 RMK AO2 SLP197 BINOVC T01890172=
202010262352 METAR KATL 262352Z 07006KT 10SM BKN009 OVC050 19/17 A3012 RMK AO2 SLP192 T01940172 10206 20194 53010=
202010262252 METAR KATL 262252Z 11005KT 10SM OVC010 19/17 A3010 RMK AO2 SLP187 T01940172=
202010262152 METAR KATL 262152Z 10008KT 10SM OVC010 20/17 A3009 RMK AO2 SLP184 T02000172=
202010262052 METAR KATL 262052Z 10007KT 10SM OVC010 21/17 A3009 RMK AO2 SLP182 T02060172 56008=
202010261952 METAR KATL 261952Z 08006KT 10SM OVC012 21/17 A3009 RMK AO2 SLP184 T02060172=
202010261852 METAR KATL 261852Z 07004KT 9SM OVC011 21/17 A3009 RMK AO2 SLP185 T02060172=
202010261815 SPECI KATL 261815Z 14003KT 9SM OVC011 20/17 A3011 RMK AO2 CIG 009V013 T02000172=
202010261752 METAR KATL 261752Z 11004KT 9SM OVC009 20/17 A3011 RMK AO2 SLP191 CIG 008V010 T02000172 10206 20178 58011=
202010261652 METAR KATL 261652Z 11006KT 8SM OVC008 20/17 A3013 RMK AO2 SLP197 CIG 007V010 T02000172=
202010261552 METAR KATL 261552Z 08007KT 7SM OVC006 19/17 A3014 RMK AO2 SLP201 CIG 005V007 T01890172=
202010261452 METAR KATL 261452Z 09006KT 1 1/4SM BR OVC003 18/17 A3015 RMK AO2 SFC VIS 5 SLP202 CIG 002V004 TWRINC T01830172 51019=
202010261412 SPECI KATL 261412Z 07007KT 1 1/4SM BR OVC004 18/17 A3013 RMK AO2 SFC VIS 6 CIG 003V005 TWRINC T01830172=
202010261352 METAR KATL 261352Z 06006KT 2SM OVC005 18/17 A3013 RMK AO2 SFC VIS 7 SLP198 CIG 004V006 T01830172=
202010261345 SPECI KATL 261345Z 09005KT 2SM BR OVC005 18/17 A3013 RMK AO2 SFC VIS 6 CIG 004V006 T01830172=
202010261252 METAR KATL 261252Z 08008KT 1/2SM R09R/5500VP6000FT BR OVC002 18/17 A3010 RMK AO2 SFC VIS 1 1/2 SLP188 TWRINC T01830172=
202010261232 SPECI KATL 261232Z 08009KT 1/2SM R09R/P6000FT BR OVC002 18/18 A3010 RMK AO2 SFC VIS 1 1/2 TWRINC T01830178=
202010261221 SPECI KATL 261221Z 09008KT 1/2SM R09R/P6000FT BR OVC002 18/18 A3010 RMK AO2 SFC VIS 2 TWRINC T01830178=
202010261152 METAR KATL 261152Z 09008KT 1/2SM R09R/P6000FT BR OVC003 19/18 A3009 RMK AO2 SFC VIS 5 DZB00E11 SLP182 VIS LWR NE-SE TWRINC P0000 60002 70002 T01890178 10206 20189 53014 $=
202010261100 SPECI KATL 261100Z 07010KT 2SM -DZ BR BKN003 OVC009 19/18 A3008 RMK AO2 SFC VIS 6 DZB00 CIG 002V005 TWRINC P0000 T01940183=
202010261052 METAR KATL 261052Z 10008KT 2SM BKN005 OVC009 20/19 A3007 RMK AO2 SFC VIS 8 SLP177 CIG 004V007 T02000189=
202010261049 SPECI KATL 261049Z 12006KT 2SM BKN005 OVC009 20/19 A3007 RMK AO2 SFC VIS 8 CIG 004V007=
202010260952 METAR KATL 260952Z 13003KT 10SM BKN007 OVC015 20/19 A3005 RMK AO2 RAE37 SLP169 P0002 T02000189=
202010260941 SPECI KATL 260941Z 12003KT 10SM BKN005 OVC014 20/19 A3005 RMK AO2 RAE37 P0002 T02000189=
202010260852 METAR KATL 260852Z 08005KT 10SM -RA OVC004 20/19 A3005 RMK AO2 RAB44 SLP166 P0000 60000 T02000189 53001=
202010260752 METAR KATL 260752Z 11003KT 10SM OVC004 20/19 A3005 RMK AO2 SLP167 T02000189=
202010260726 SPECI KATL 260726Z 11004KT 10SM OVC004 20/19 A3004 RMK AO2 T02000189=
202010260715 SPECI KATL 260715Z 13005KT 10SM OVC005 20/19 A3004 RMK AO2 T02000189=
202010260652 METAR KATL 260652Z 12004KT 10SM OVC004 20/19 A3004 RMK AO2 SLP165 T02000189=
202010260608 SPECI KATL 260608Z 11005KT 10SM BKN004 OVC012 20/19 A3004 RMK AO2 T02000189=
202010260552 METAR KATL 260552Z 11005KT 10SM BKN005 OVC013 20/19 A3004 RMK AO2 SLP166 CIG 004V007 T02000189 10222 20200 50008=
202010260534 SPECI KATL 260534Z 08006KT 10SM BKN006 OVC013 20/19 A3005 RMK AO2 T02000189=
202010260452 METAR KATL 260452Z 08005KT 10SM SCT006 BKN013 OVC025 20/19 A3004 RMK AO2 SLP166 BINOVC T02000189 402390189=
202010260443 SPECI KATL 260443Z 09004KT 10SM FEW006 SCT015 BKN025 20/18 A3004 RMK AO2 SCT015 V BKN T02000183=
202010260352 METAR KATL 260352Z 10005KT 10SM FEW015 BKN023 BKN040 20/18 A3003 RMK AO2 SLP161 BKN023 V SCT T02000183=
202010260345 SPECI KATL 260345Z 09005KT 10SM FEW015 BKN023 BKN040 21/18 A3003 RMK AO2 BKN023 V SCT T02060183=
202010260252 METAR KATL 260252Z 09005KT 10SM SCT023 BKN045 21/18 A3002 RMK AO2 SLP157 T02060183 53009=
202010260152 METAR KATL 260152Z 10004KT 10SM SCT020 BKN047 21/18 A3000 RMK AO2 SLP152 T02110183=
202010260052 METAR KATL 260052Z 11003KT 10SM FEW022 SCT027 BKN047 22/18 A2999 RMK AO2 SLP150 T02170178=
202010252352 METAR KATL 252352Z 35004KT 10SM SCT020 BKN025 BKN045 22/18 A2999 RMK AO2 SLP147 T02220178 10239 20222 53014=
202010252330 SPECI KATL 252330Z 33003KT 10SM FEW018 BKN025 BKN045 22/18 A2998 RMK AO2 T02220178=
202010252252 METAR KATL 252252Z 32005KT 10SM SCT028 BKN044 23/17 A2997 RMK AO2 SLP140 T02280172=
202010252152 METAR KATL 252152Z 32005KT 10SM SCT023 BKN044 23/18 A2995 RMK AO2 SLP136 MDT CU NE T02330178=
202010252052 METAR KATL 252052Z VRB04KT 10SM SCT023 BKN045 24/17 A2995 RMK AO2 SLP133 T02390172 55009=
202010251952 METAR KATL 251952Z 34005KT 10SM FEW020 OVC040 23/17 A2994 RMK AO2 SLP131 BINOVC T02280172=
202010251852 METAR KATL 251852Z 32005KT 10SM FEW021 SCT026 OVC037 23/18 A2995 RMK AO2 SLP134 T02330178=
202010251752 METAR KATL 251752Z 34004KT 10SM OVC035 23/17 A2997 RMK AO2 SLP142 BINOVC T02280172 10228 20194 58007=
202010251652 METAR KATL 251652Z 31006KT 10SM SCT016 BKN031 23/18 A2999 RMK AO2 SLP147 T02280178=
202010251642 SPECI KATL 251642Z 34005KT 10SM FEW016 BKN032 23/18 A2999 RMK AO2 T02280178=
202010251552 METAR KATL 251552Z 32005KT 10SM BKN016 BKN026 22/17 A2999 RMK AO2 SLP150 T02170172=
202010251543 SPECI KATL 251543Z 30006KT 10SM BKN015 22/18 A2999 RMK AO2 T02170178=
202010251530 SPECI KATL 251530Z 30004KT 10SM FEW014 SCT020 22/18 A2999 RMK AO2 T02220178=
202010251452 METAR KATL 251452Z 35006KT 10SM FEW009 BKN016 BKN037 22/17 A2999 RMK AO2 SLP150 T02170172 51013=
202010251428 SPECI KATL 251428Z 33006KT 10SM FEW009 BKN015 BKN037 21/18 A2999 RMK AO2 T02110178=
202010251410 SPECI KATL 251410Z 33008KT 10SM FEW008 BKN013 21/18 A2999 RMK AO2 T02060178=
202010251352 METAR KATL 251352Z 35005KT 10SM FEW008 SCT014 BKN040 20/18 A2999 RMK AO2 SLP148 T02000178=
202010251338 SPECI KATL 251338Z 34007KT 10SM FEW006 BKN013 20/18 A2999 RMK AO2 T02000178=
202010251304 SPECI KATL 251304Z 31004KT 10SM SCT005 BKN016 BKN034 19/18 A2997 RMK AO2 T01940183=
202010251252 METAR KATL 251252Z 30004KT 8SM SCT004 SCT016 BKN034 19/18 A2997 RMK AO2 SLP141 T01940183=
202010251250 SPECI KATL 251250Z 30004KT 8SM SCT004 SCT016 BKN034 19/18 A2997 RMK AO2=
202010251238 SPECI KATL 251238Z 32005KT 7SM SCT004 BKN016 BKN034 19/18 A2996 RMK AO2 SCT004 V BKN T01940183=
202010251152 METAR KATL 251152Z 33005KT 6SM BR BKN004 OVC016 19/18 A2995 RMK AO2 RAB28E38 SLP137 P0000 60000 70248 T01940183 10200 20189 53010=
202010251112 SPECI KATL 251112Z 31005KT 10SM BKN004 OVC016 19/18 A2994 RMK AO2 BKN004 V SCT BINOVC T01940183=
202010251052 METAR KATL 251052Z 27003KT 10SM BKN005 BKN012 OVC019 19/18 A2994 RMK AO2 DZB08E22 SLP131 P0000 T01890183=
202010250952 METAR KATL 250952Z 23003KT 10SM BKN005 BKN010 OVC025 19/18 A2992 RMK AO2 SLP126 CIG 004V006 BKN005 V SCT BINOVC T01940183=
202010250949 SPECI KATL 250949Z 22003KT 10SM BKN005 BKN010 OVC025 19/18 A2992 RMK AO2 CIG 004V006 BKN005 V SCT BINOVC=
202010250914 SPECI KATL 250914Z 00000KT 10SM BKN004 OVC025 19/18 A2992 RMK AO2 CIG 003V006 BKN004 V SCT BINOVC T01940183=
202010250852 METAR KATL 250852Z 00000KT 9SM FEW006 OVC025 19/18 A2991 RMK AO2 SLP123 BINOVC T01940183 57004=
202010250752 METAR KATL 250752Z 00000KT 10SM SCT004 BKN017 OVC028 19/18 A2992 RMK AO2 SLP124 BINOVC T01940183=
202010250727 SPECI KATL 250727Z 00000KT 10SM SCT005 OVC019 19/18 A2993 RMK AO2 T01940183=
202010250652 METAR KATL 250652Z 00000KT 10SM BKN004 BKN023 OVC080 19/18 A2992 RMK AO2 SLP123 CIG 003V006 BKN004 V SCT T01940183=
202010250552 METAR KATL 250552Z 09003KT 10SM BKN004 OVC025 19/18 A2993 RMK AO2 SLP125 CIG 003V006 BKN004 V SCT 60041 T01940183 10200 20194 58010=
202010250522 SPECI KATL 250522Z 00000KT 10SM BKN004 BKN019 OVC027 19/18 A2993 RMK AO2 BKN004 V SCT T01940183=
202010250515 SPECI KATL 250515Z 00000KT 10SM SCT004 BKN019 OVC025 19/18 A2994 RMK AO2 T01940183=
202010250452 METAR KATL 250452Z 07004KT 10SM BKN007 OVC019 19/18 A2994 RMK AO2 RAB33E50 SLP131 CIG 005V009 P0001 T01940183 402670183=
202010250352 METAR KATL 250352Z 04006KT 10SM BKN005 OVC015 19/18 A2996 RMK AO2 RAE09 SLP136 P0001 T01940183=
202010250252 METAR KATL 250252Z 03007KT 7SM -RA BKN005 BKN027 OVC035 19/18 A2996 RMK AO2 RAB08 SLP136 BKN005 V SCT P0008 60039 T01940183 53001=
202010250238 SPECI KATL 250238Z 04006KT 5SM -RA BR BKN005 BKN027 OVC038 20/18 A2995 RMK AO2 RAB08 P0008 T02000183=
202010250217 SPECI KATL 250217Z 07005KT 2 1/2SM +RA BR BKN005 BKN023 OVC031 20/19 A2996 RMK AO2 RAB08 P0004 T02000189=
202010250152 METAR KATL 250152Z 02007KT 10SM SCT005 BKN027 OVC035 20/18 A2995 RMK AO2 RAE49 SLP135 P0013 T02000183=
202010250150 SPECI KATL 250150Z 01007KT 10SM SCT005 BKN027 OVC035 20/18 A2995 RMK AO2 RAE49 P0013=
202010250052 METAR KATL 250052Z 36005KT 4SM RA BR BKN007 OVC020 20/18 A2995 RMK AO2 SLP136 P0018 T02000183=
202010250034 SPECI KATL 250034Z 02007KT 7SM -RA SCT007 BKN020 OVC036 20/18 A2995 RMK AO2 SCT007 V BKN P0013 T02000183=
202010250005 SPECI KATL 250005Z 31007KT 6SM RA BR FEW005 BKN037 OVC048 19/18 A2995 RMK AO2 P0011 T01940183=
202010242352 METAR KATL 242352Z 34007KT 2SM +RA BR FEW005 SCT026 OVC033 19/18 A2995 RMK AO2 SLP136 CB DSNT NE P0035 60207 T01940183 10256 20194 51008=
202010242350 SPECI KATL 242350Z 34004KT 2SM +RA BR FEW005 SCT026 OVC033 19/18 A2995 RMK AO2 CB DSNT NE P0033=
202010242343 SPECI KATL 242343Z 31003KT 5SM RA BR SCT005 BKN028 OVC038 19/18 A2995 RMK AO2 LTG DSNT NE CB DSNT NE P0028 T01940183=
202010242311 SPECI KATL 242311Z 32007KT 4SM +RA BR FEW010 BKN015 OVC028 19/18 A2994 RMK AO2 P0022 T01940183 $=
202010242259 SPECI KATL 242259Z 31010KT 2 1/2SM +RA BR SCT004 SCT010 OVC015 19/18 A2995 RMK AO2 P0009 T01940183 $=
202010242252 METAR KATL 242252Z 32009KT 2 1/2SM R09R/3500VP6000FT +RA BR SCT004 BKN009 OVC015 20/18 A2995 RMK AO2 SLP134 P0138 T02000183 $=
202010242235 SPECI KATL 242235Z 30011KT 1 1/4SM R09R/2800V5500FT +RA BR SCT004 BKN009 OVC015 20/18 A2995 RMK AO2 P0102 T02000183 $=
202010242226 SPECI KATL 242226Z 16011G18KT 3/4SM R09R/2200VP6000FT VCTS +RA BR SCT004 OVC009CB 20/18 A2996 RMK AO2 OCNL LTGIC VC SE TS VC SE MOV N LTG DSNT NE CB DSNT NE P0059 T02000183=
202010242221 SPECI KATL 242221Z 16011G18KT 1 1/2SM R09R/2600VP6000FT VCTS +RA BR BKN006 BKN011CB OVC018 20/19 A2996 RMK AO2 PRESRR OCNL LTGIC VC SE TS VC SE MOV N LTG DSNT NE CB DSNT NE P0021 T02000189=
202010242217 SPECI KATL 242217Z 22009KT 2SM +RA BR BKN006 OVC018 20/19 A2995 RMK AO2 LTG DSNT NE CB DSNT NE P0011 T02000189=
202010242211 SPECI KATL 242211Z 30010KT 7SM RA SCT014 BKN020 OVC030 20/19 A2994 RMK AO2 LTG DSNT NE CB DSNT NE P0007 T02000189=
202010242159 SPECI KATL 242159Z 34010G16KT 5SM RA BR FEW007 BKN014 OVC035 20/18 A2993 RMK AO2 LTG DSNT NE & NW CB DSNT NE & NW P0003 T02000183=
202010242152 METAR KATL 242152Z 31008KT 2 1/2SM +RA BR SCT007 BKN014 OVC020 21/19 A2994 RMK AO2 SLP131 LTG DSNT NE AND NW CB DSNT NE & NW P0023 T02060194=
202010242148 SPECI KATL 242148Z 29007KT 2 1/2SM +RA BR SCT007 BKN014 OVC020 21/19 A2993 RMK AO2 P0018=
202010242136 SPECI KATL 242136Z 33004KT 5SM VCTS RA BR SCT007 BKN013CB OVC020 21/19 A2993 RMK AO2 OCNL LTGIC VC NW TS VC NW MOV N VIS LWR W P0007 T02110194=
202010242129 SPECI KATL 242129Z 32008KT 6SM RA BR SCT007 BKN013 OVC024 21/19 A2993 RMK AO2 LTG DSNT N CB DSNT N VIS LWR W P0003 T02110194=
202010242052 METAR KATL 242052Z 32007KT 4SM -RA BR FEW006 BKN024 OVC080 22/20 A2992 RMK AO2 RAB13 TSE42 SLP126 TS DSPTD VSBY LWR NW P0011 60011 T02170200 55015=
202010242050 SPECI KATL 242050Z 33008KT 4SM VCTS -RA BR FEW006 BKN024 OVC080 22/20 A2992 RMK AO2 RAB13 TSE42 TSB27 TS DSPTD VSBY LWR NW P0010=
202010242046 SPECI KATL 242046Z 30006KT 4SM RA BR FEW012 BKN024 OVC080 22/20 A2992 RMK AO2 RAB13 TSE42 TSB27 OCNL LTGICCG NW TS NW MOV NE P0010=
202010242040 SPECI KATL 242040Z 28003KT 2SM +TSRA BR BKN026CB BKN039 OVC110 22/20 A2992 RMK AO2 RAB13 TSB27 OCNL LTGICCG NW TS NW MOV NE P0005 T02220200=
202010242029 SPECI KATL 242029Z 21006KT 6SM -TSRA BKN026CB BKN039 OVC110 22/19 A2992 RMK AO2 LTG DSNT NW RAB13 P0002 T02220194=
202010241952 METAR KATL 241952Z 15005KT 10SM BKN030TCU BKN080 OVC200 25/18 A2992 RMK AO2 LTG DSNT W-N SLP122 CB DSNT W-N TCU W-NW T02500183=
202010241852 METAR KATL 241852Z 13007KT 10SM FEW030 SCT120 OVC200 25/18 A2994 RMK AO2 LTG DSNT N AND NW SLP131 CB DSNT NW-N T02500178=
202010241752 METAR KATL 241752Z 14009KT 10SM SCT028 BKN120 OVC200 25/18 A2997 RMK AO2 SLP141 T02500183 10267 20183 58025=
202010241652 METAR KATL 241652Z 17006KT 10SM SCT028TCU BKN120 BKN250 26/18 A3000 RMK AO2 SLP151 TCU NW-N T02560183=
202010241552 METAR KATL 241552Z VRB04KT 10SM SCT022 BKN250 24/19 A3002 RMK AO2 SLP159 T02440189=
202010241452 METAR KATL 241452Z 18005KT 10SM FEW013 SCT055 BKN250 23/19 A3005 RMK AO2 SLP167 T02330194 50005=
202010241352 METAR KATL 241352Z 00000KT 10SM FEW008 SCT085 BKN200 22/19 A3005 RMK AO2 SLP168 T02220189=
202010241252 METAR KATL 241252Z 00000KT 10SM FEW010 FEW040 SCT080 BKN250 19/18 A3004 RMK AO2 SLP164 T01940178=
202010241152 METAR KATL 241152Z 14003KT 10SM FEW010 FEW040 SCT070 19/17 A3003 RMK AO2 SLP162 T01890172 10200 20189 58003=
202010241052 METAR KATL 241052Z 00000KT 10SM FEW010 FEW040 BKN070 19/17 A3004 RMK AO2 SLP164 T01940172=
202010240952 METAR KATL 240952Z 00000KT 10SM FEW045 BKN065 19/17 A3004 RMK AO2 SLP164 T01890172=
202010240852 METAR KATL 240852Z 00000KT 10SM BKN044 20/17 A3004 RMK AO2 SLP163 T02000172 58002=
202010240752 METAR KATL 240752Z 00000KT 10SM BKN043 BKN250 19/17 A3005 RMK AO2 SLP165 T01890167=
202010240652 METAR KATL 240652Z 00000KT 10SM FEW200 19/17 A3004 RMK AO2 SLP164 T01940172=
202010240552 METAR KATL 240552Z 00000KT 10SM FEW200 20/17 A3005 RMK AO2 SLP166 T02000172 10233 20200 58010=
202010240452 METAR KATL 240452Z 14003KT 10SM FEW200 20/17 A3006 RMK AO2 SLP170 T02000172 402780178=
202010240352 METAR KATL 240352Z 00000KT 10SM FEW200 21/17 A3007 RMK AO2 SLP173 T02060172=
202010240252 METAR KATL 240252Z 15003KT 10SM FEW250 22/18 A3008 RMK AO2 SLP177 T02170178 53009=
202010240152 METAR KATL 240152Z 15003KT 10SM FEW250 23/17 A3006 RMK AO2 SLP172 T02280172=
202010240052 METAR KATL 240052Z 15004KT 10SM FEW250 22/17 A3006 RMK AO2 SLP171 T02220172=
202010232352 METAR KATL 232352Z 16004KT 10SM FEW250 23/17 A3005 RMK AO2 SLP169 T02330172 10278 20233 55004=
202010232252 METAR KATL 232252Z 15004KT 10SM FEW250 24/17 A3004 RMK AO2 SLP166 T02440172=
202010232152 METAR KATL 232152Z 14005KT 10SM FEW042 FEW250 27/16 A3006 RMK AO2 SLP169 T02670161=
202010232052 METAR KATL 232052Z 19007KT 10SM SCT042TCU SCT070 SCT250 27/16 A3006 RMK AO2 SLP172 TCU W NW DSNT NW-NE MDT CU DSNT ALQDS T02670161 56019=
202010231952 METAR KATL 231952Z 16006KT 10SM SCT040TCU SCT065 SCT250 27/17 A3007 RMK AO2 SLP173 TCU W DSNT NW-N MDT CU DSNT ALQDS T02720172=
202010231852 METAR KATL 231852Z 15005KT 10SM SCT038 SCT055 SCT250 27/17 A3008 RMK AO2 SLP178 TCU DSNT SE MDT CU ALQDS T02670172=
202010231752 METAR KATL 231752Z 13005KT 10SM SCT034 BKN055 BKN250 27/17 A3012 RMK AO2 SLP191 MDT CU ALQDS T02670172 10272 20183 58015=
202010231652 METAR KATL 231652Z 13006KT 10SM SCT028 SCT200 BKN250 26/17 A3015 RMK AO2 SLP200 T02610172=
202010231552 METAR KATL 231552Z 14007KT 10SM SCT022 SCT200 SCT250 24/18 A3016 RMK AO2 SLP203 T02440183=
202010231452 METAR KATL 231452Z 13006KT 10SM SCT010 SCT180 SCT250 23/19 A3017 RMK AO2 SLP207 T02330194 53003=
202010231352 METAR KATL 231352Z 12007KT 10SM SCT008 SCT095 BKN150 21/18 A3016 RMK AO2 SLP207 T02110183=
202010231252 METAR KATL 231252Z 10005KT 10SM FEW006 SCT012 SCT090 BKN160 19/18 A3016 RMK AO2 SLP205 T01940178=
202010231250 SPECI KATL 231250Z 10006KT 10SM FEW006 SCT012 SCT090 BKN160 19/18 A3016 RMK AO2=
202010231207 SPECI KATL 231207Z 08005KT 10SM SCT015 SCT060 SCT090 SCT250 18/17 A3015 RMK AO2 T01830172=
202010231159 SPECI KATL 231159Z 08006KT 10SM BKN015 BKN060 BKN090 18/17 A3015 RMK AO2 T01830172=
202010231152 METAR KATL 231152Z 08005KT 10SM CLR 18/17 A3015 RMK AO2 SLP203 T01830172 10200 20178 53009=
202010231052 METAR KATL 231052Z 06005KT 10SM FEW005 SCT060 18/17 A3014 RMK AO2 SLP200 T01830172=
202010230952 METAR KATL 230952Z 08006KT 10SM FEW005 FEW015 18/17 A3013 RMK AO2 SLP196 T01830167=
202010230852 METAR KATL 230852Z 12003KT 10SM FEW035 19/17 A3013 RMK AO2 SLP193 T01890172 56005=
202010230752 METAR KATL 230752Z 12006KT 10SM FEW035 19/18 A3013 RMK AO2 SLP193 T01940178=
202010230652 METAR KATL 230652Z 11006KT 10SM SCT034 20/18 A3013 RMK AO2 SLP195 T02000178=
202010230638 SPECI KATL 230638Z 12006KT 10SM FEW027 SCT034 20/18 A3013 RMK AO2 T02000178=
202010230552 METAR KATL 230552Z 12005KT 10SM BKN029 BKN035 20/18 A3014 RMK AO2 SLP198 T02000178 10233 20200 58004=
202010230550 SPECI KATL 230550Z 13006KT 10SM BKN029 BKN035 20/18 A3014 RMK AO2=
202010230452 METAR KATL 230452Z 12006KT 10SM FEW090 21/18 A3015 RMK AO2 SLP201 T02060178 402720183=
202010230352 METAR KATL 230352Z 12005KT 10SM FEW090 22/18 A3015 RMK AO2 SLP202 T02170178=
202010230252 METAR KATL 230252Z 09006KT 10SM SCT090 22/18 A3015 RMK AO2 SLP203 T02170178 51006=
202010230152 METAR KATL 230152Z 09006KT 10SM FEW060 BKN090 22/18 A3015 RMK AO2 SLP203 T02170183=
202010230052 METAR KATL 230052Z 10007KT 10SM SCT110 23/18 A3014 RMK AO2 SLP201 T02280178=
202010222352 METAR KATL 222352Z 10006KT 10SM BKN100 23/18 A3013 RMK AO2 SLP197 T02330178 10272 20233 55000=
202010222252 METAR KATL 222252Z 10008KT 10SM FEW032 SCT100 24/18 A3013 RMK AO2 SLP194 VIRGA DSNT S T02440178=
202010222152 METAR KATL 222152Z 11009KT 10SM FEW035 FEW100 26/17 A3013 RMK AO2 SLP195 T02560172=
202010222052 METAR KATL 222052Z 14007KT 10SM SCT035TCU SCT055 SCT100 27/17 A3014 RMK AO2 SLP197 TCU N-NE SE DSNT E T02670172 56015=
202010221952 METAR KATL 221952Z 10006KT 10SM SCT036TCU SCT055 BKN100 26/18 A3014 RMK AO2 SLP198 TCU NE E SE SW MDT CU DSNT ALQDS T02610178=
202010221852 METAR KATL 221852Z 09007KT 10SM SCT032 BKN048 BKN090 24/18 A3016 RMK AO2 SLP205 MDT CU ALQDS T02440178=
202010221752 METAR KATL 221752Z 10010KT 10SM SCT028 BKN038 24/17 A3018 RMK AO2 SLP212 MDT CU ALQDS T02440172 10250 20189 58015=
202010221742 SPECI KATL 221742Z 10011KT 10SM SCT026 BKN034 25/18 A3019 RMK AO2 MDT CU ALQDS T02500178=
202010221652 METAR KATL 221652Z 11012KT 10SM BKN026 24/18 A3021 RMK AO2 SLP223 T02440178=
202010221552 METAR KATL 221552Z 09009KT 10SM BKN022 23/18 A3023 RMK AO2 SLP229 T02280178=
202010221452 METAR KATL 221452Z 09011KT 10SM SCT013 23/18 A3023 RMK AO2 SLP229 T02280183 51011=
202010221352 METAR KATL 221352Z 09007KT 10SM SCT008 21/18 A3022 RMK AO2 SLP227 T02060183=
202010221336 SPECI KATL 221336Z 08010KT 10SM SCT007 20/18 A3022 RMK AO2 T02000178=
202010221252 METAR KATL 221252Z 08008KT 10SM BKN005 OVC013 19/18 A3021 RMK AO2 SLP224 BINOVC T01940178=
202010221203 SPECI KATL 221203Z 07007KT 10SM BKN006 OVC013 19/17 A3020 RMK AO2 BINOVC T01890172=
202010221152 METAR KATL 221152Z 06007KT 10SM SCT006 SCT013 SCT250 19/17 A3020 RMK AO2 SLP218 T01890172 10194 20183 53010=
202010221119 SPECI KATL 221119Z 08006KT 10SM SCT009 SCT013 SCT250 18/17 A3019 RMK AO2 T01830167=
202010221111 SPECI KATL 221111Z 08006KT 10SM BKN009 BKN013 19/17 A3019 RMK AO2 T01890172=
202010221052 METAR KATL 221052Z 08005KT 10SM FEW008 SCT014 18/17 A3018 RMK AO2 SLP215 T01830167=
202010221050 SPECI KATL 221050Z 08004KT 10SM FEW008 SCT014 18/17 A3018 RMK AO2=
202010220952 METAR KATL 220952Z 07007KT 10SM SCT014 SCT250 18/17 A3017 RMK AO2 SLP209 T01830167=
202010220852 METAR KATL 220852Z 09007KT 10SM FEW250 18/17 A3017 RMK AO2 SLP207 T01830167 56004=
202010220752 METAR KATL 220752Z 08005KT 10SM FEW250 18/17 A3017 RMK AO2 SLP207 T01830167=
202010220652 METAR KATL 220652Z 09006KT 10SM FEW250 19/17 A3017 RMK AO2 SLP209 T01890172=
202010220552 METAR KATL 220552Z 09007KT 10SM FEW250 19/17 A3018 RMK AO2 SLP210 T01940172 10239 20194 58006=
202010220452 METAR KATL 220452Z 09005KT 10SM FEW250 19/17 A3019 RMK AO2 SLP214 T01940172 402720167=
202010220352 METAR KATL 220352Z 09007KT 10SM FEW250 20/18 A3019 RMK AO2 SLP216 T02000178=
202010220252 METAR KATL 220252Z 09006KT 10SM FEW250 21/18 A3020 RMK AO2 SLP219 T02060178 53003=
202010220152 METAR KATL 220152Z 09007KT 10SM FEW250 21/18 A3019 RMK AO2 SLP217 T02110183=
202010220052 METAR KATL 220052Z 08008KT 10SM FEW070 FEW250 22/19 A3019 RMK AO2 SLP217 T02220189=
202010212352 METAR KATL 212352Z 11004KT 10SM SCT075 SCT250 24/19 A3019 RMK AO2 SLP215 T02390189 10272 20239 52006=
202010212252 METAR KATL 212252Z 09006KT 10SM FEW032 BKN080 BKN250 25/18 A3018 RMK AO2 SLP214 T02500183=
202010212152 METAR KATL 212152Z 12006KT 10SM FEW032TCU SCT150 SCT250 26/18 A3017 RMK AO2 SLP210 TCU W DSNT N-NE T02560183=
202010212052 METAR KATL 212052Z 09008KT 10SM FEW035 FEW150 27/18 A3017 RMK AO2 SLP208 T02670183 56016=
202010211952 METAR KATL 211952Z 09009KT 10SM FEW035TCU FEW150 26/18 A3017 RMK AO2 SLP211 TCU SE-SW T02560183=
202010211852 METAR KATL 211852Z 10007KT 070V140 10SM SCT030 SCT150 27/18 A3019 RMK AO2 SLP218 MDT CU S T02670183=
202010211752 METAR KATL 211752Z 06007KT 10SM SCT030 BKN150 27/19 A3022 RMK AO2 SLP224 T02670189 10267 20183 58014=
202010211652 METAR KATL 211652Z 10007KT 10SM SCT023 SCT150 26/19 A3024 RMK AO2 SLP234 T02560189=
202010211624 SPECI KATL 211624Z 07008KT 10SM BKN020 24/18 A3025 RMK AO2 T02440183=
202010211552 METAR KATL 211552Z 08009KT 10SM FEW022 SCT150 24/18 A3026 RMK AO2 SLP239 T02390183=
202010211532 SPECI KATL 211532Z 07011KT 10SM FEW015 FEW150 23/18 A3026 RMK AO2 T02330178=
202010211505 SPECI KATL 211505Z 07010KT 10SM BKN012 BKN017 22/17 A3027 RMK AO2 T02170172=
202010211452 METAR KATL 211452Z 09010KT 10SM BKN017 21/17 A3027 RMK AO2 SLP243 T02110167 51010=
202010211408 SPECI KATL 211408Z 06011KT 10SM FEW009 OVC015 21/17 A3027 RMK AO2 T02060167=
202010211352 METAR KATL 211352Z 06009KT 10SM FEW009 SCT015 21/17 A3026 RMK AO2 SLP243 T02110167=
202010211252 METAR KATL 211252Z 06008KT 10SM BKN007 BKN015 19/16 A3025 RMK AO2 SLP238 T01890161=
202010211152 METAR KATL 211152Z 07007KT 10SM OVC007 18/16 A3023 RMK AO2 DZE06 SLP232 P0000 60000 T01830161 10183 20167 51017=
202010211052 METAR KATL 211052Z 06008KT 7SM -DZ OVC006 18/16 A3022 RMK AO2 DZB51 SLP225 P0000 T01830161=
202010210952 METAR KATL 210952Z 07008KT 10SM BKN009 18/15 A3020 RMK AO2 SLP220 T01780150=
202010210929 SPECI KATL 210929Z 06010KT 10SM BKN009 18/15 A3019 RMK AO2 T01780150=
202010210852 METAR KATL 210852Z 05006KT 10SM BKN013 17/15 A3018 RMK AO2 SLP213 CIG 011V016 T01720150 53002=
202010210849 SPECI KATL 210849Z 06006KT 10SM BKN013 17/15 A3018 RMK AO2 CIG 011V016=
202010210839 SPECI KATL 210839Z 06005KT 10SM BKN015 17/15 A3018 RMK AO2 T01720150=
202010210752 METAR KATL 210752Z 06006KT 10SM FEW013 FEW200 17/15 A3017 RMK AO2 SLP211 T01720150=
202010210652 METAR KATL 210652Z 08005KT 10SM FEW055 FEW200 17/15 A3018 RMK AO2 SLP211 T01670150=
202010210552 METAR KATL 210552Z 10004KT 10SM FEW200 17/15 A3017 RMK AO2 SLP211 T01720150 10222 20172 58005=
202010210452 METAR KATL 210452Z 08007KT 10SM FEW250 18/15 A3018 RMK AO2 SLP214 T01780150 402610139=
202010210352 METAR KATL 210352Z 10005KT 10SM SCT250 19/15 A3019 RMK AO2 SLP218 T01940150=
202010210252 METAR KATL 210252Z 11005KT 10SM FEW200 20/15 A3019 RMK AO2 SLP218 T02000150 51006=
202010210152 METAR KATL 210152Z 09007KT 10SM FEW200 20/15 A3019 RMK AO2 SLP218 T02000150=
202010210052 METAR KATL 210052Z 11005KT 10SM FEW200 22/16 A3019 RMK AO2 SLP217 T02170156=
202010202352 METAR KATL 202352Z 10005KT 10SM FEW200 22/16 A3017 RMK AO2 SLP212 T02220156 10261 20222 53005=
202010202252 METAR KATL 202252Z 10006KT 10SM SCT200 23/15 A3016 RMK AO2 SLP209 T02330150=
202010202152 METAR KATL 202152Z 10007KT 10SM FEW045 SCT180 SCT250 25/15 A3016 RMK AO2 SLP206 T02500150=
202010202052 METAR KATL 202052Z 09006KT 10SM FEW044 FEW180 SCT250 26/15 A3016 RMK AO2 SLP206 T02610150 56016=
202010201952 METAR KATL 201952Z 11009KT 10SM FEW042 FEW180 SCT250 26/15 A3017 RMK AO2 SLP208 T02610150=
202010201852 METAR KATL 201852Z 09008KT 10SM FEW040 FEW200 SCT250 25/15 A3018 RMK AO2 SLP214 T02500150=
202010201752 METAR KATL 201752Z 08008KT 10SM FEW036 FEW200 SCT250 24/15 A3021 RMK AO2 SLP223 T02440150 10250 20144 58017=
202010201652 METAR KATL 201652Z 08007KT 10SM FEW034 FEW180 SCT250 24/16 A3024 RMK AO2 SLP233 T02390156=
202010201552 METAR KATL 201552Z 08007KT 10SM FEW180 FEW250 23/16 A3026 RMK AO2 SLP240 T02280156=
202010201452 METAR KATL 201452Z 05008KT 10SM FEW038 FEW250 21/14 A3026 RMK AO2 SLP240 T02060144 51014=
202010201352 METAR KATL 201352Z 08008KT 10SM FEW036 FEW250 18/13 A3025 RMK AO2 SLP239 T01780133=
202010201252 METAR KATL 201252Z 08007KT 10SM FEW035 FEW250 16/13 A3023 RMK AO2 SLP233 T01560128=
202010201152 METAR KATL 201152Z 07006KT 10SM FEW035 FEW250 14/12 A3021 RMK AO2 SLP228 T01440122 10161 20139 51010=
202010201052 METAR KATL 201052Z 09006KT 10SM CLR 14/12 A3020 RMK AO2 SLP223 T01440122=
202010200952 METAR KATL 200952Z 08006KT 10SM FEW040 15/12 A3020 RMK AO2 SLP220 T01500122=
202010200852 METAR KATL 200852Z 07005KT 10SM FEW040 15/13 A3018 RMK AO2 SLP215 T01500128 58004=
202010200752 METAR KATL 200752Z 07007KT 10SM CLR 16/13 A3019 RMK AO2 SLP217 T01560128=
202010200652 METAR KATL 200652Z 11004KT 10SM CLR 16/13 A3019 RMK AO2 SLP218 T01610128=
202010200552 METAR KATL 200552Z 08005KT 10SM CLR 16/13 A3020 RMK AO2 SLP219 T01560128 10206 20156 58005=
202010200452 METAR KATL 200452Z 08005KT 10SM CLR 17/13 A3020 RMK AO2 SLP221 T01670133 402440122=
202010200352 METAR KATL 200352Z 11004KT 10SM FEW250 17/13 A3021 RMK AO2 SLP225 T01720133=
202010200252 METAR KATL 200252Z 10005KT 10SM FEW250 18/13 A3021 RMK AO2 SLP225 T01780133 50005=
202010200152 METAR KATL 200152Z 10005KT 10SM FEW250 18/13 A3021 RMK AO2 SLP226 T01830133=
202010200052 METAR KATL 200052Z 10006KT 10SM FEW250 19/13 A3020 RMK AO2 SLP224 T01940133=
202010192352 METAR KATL 192352Z 09008KT 10SM FEW250 21/14 A3020 RMK AO2 SLP222 T02060139 10244 20200 53006=
202010192252 METAR KATL 192252Z 10006KT 10SM FEW250 22/13 A3019 RMK AO2 SLP218 T02170133=
202010192152 METAR KATL 192152Z 09006KT 10SM FEW040 SCT250 24/13 A3018 RMK AO2 SLP215 T02390133=
202010192052 METAR KATL 192052Z 08005KT 10SM FEW040 SCT200 SCT250 24/14 A3018 RMK AO2 SLP214 T02440139 56014=
202010191952 METAR KATL 191952Z 07007KT 10SM FEW038 SCT200 SCT250 24/14 A3018 RMK AO2 SLP214 T02390139=
202010191852 METAR KATL 191852Z 12006KT 10SM FEW040 SCT200 SCT250 24/14 A3019 RMK AO2 SLP220 T02390144=
202010191752 METAR KATL 191752Z 09006KT 10SM FEW040 SCT200 SCT250 23/14 A3022 RMK AO2 SLP229 T02280139 10233 20122 58016=
202010191652 METAR KATL 191652Z 11006KT 10SM FEW200 SCT250 22/13 A3025 RMK AO2 SLP239 T02170133=
202010191552 METAR KATL 191552Z 10006KT 10SM FEW250 20/13 A3026 RMK AO2 SLP244 T02000128=
202010191452 METAR KATL 191452Z 09007KT 10SM FEW250 18/12 A3027 RMK AO2 SLP246 T01830117 50005=
202010191352 METAR KATL 191352Z 09009KT 10SM FEW036 FEW250 16/11 A3027 RMK AO2 SLP249 T01560106=
202010191252 METAR KATL 191252Z 09007KT 10SM FEW028 14/11 A3026 RMK AO2 SLP246 T01390106=
202010191152 METAR KATL 191152Z 08008KT 10SM FEW028 12/10 A3025 RMK AO2 SLP243 T01220100 10139 20122 50003=
202010191052 METAR KATL 191052Z 07005KT 10SM SCT028 13/11 A3026 RMK AO2 SLP242 T01280106=
202010191026 SPECI KATL 191026Z 06005KT 10SM SCT027 13/11 A3025 RMK AO2 T01330106=
202010190752 METAR KATL 190752Z 09006KT 10SM CLR 13/11 A3024 RMK AO2 SLP238 T01280106=
202010190652 METAR KATL 190652Z 10006KT 10SM CLR 13/11 A3025 RMK AO2 SLP240 T01330106=
202010190552 METAR KATL 190552Z 09006KT 10SM CLR 14/11 A3026 RMK AO2 SLP243 T01390111 10183 20139 56003=
202010190452 METAR KATL 190452Z 09006KT 10SM CLR 14/11 A3026 RMK AO2 SLP244 T01390111 402220094=
202010190352 METAR KATL 190352Z 09007KT 10SM CLR 14/12 A3026 RMK AO2 SLP245 T01440117=
202010190252 METAR KATL 190252Z 08009KT 10SM CLR 16/12 A3027 RMK AO2 SLP248 T01560117 53008=
202010190152 METAR KATL 190152Z 09007KT 10SM CLR 16/12 A3026 RMK AO2 SLP245 T01610122=
202010190052 METAR KATL 190052Z 10007KT 10SM FEW250 17/12 A3025 RMK AO2 SLP242 T01670122=
202010182352 METAR KATL 182352Z 10008KT 10SM FEW250 18/13 A3024 RMK AO2 SLP240 T01830128 10222 20183 51009=
202010182252 METAR KATL 182252Z 10009KT 10SM FEW035 FEW250 19/12 A3023 RMK AO2 SLP235 T01940122=
202010182152 METAR KATL 182152Z 09006KT 10SM SCT035 SCT250 21/12 A3023 RMK AO2 SLP234 T02110122=
202010182052 METAR KATL 182052Z 12006KT 10SM FEW038 SCT250 22/13 A3022 RMK AO2 SLP229 T02170128 56022=
202010181952 METAR KATL 181952Z 09007KT 10SM FEW250 22/13 A3022 RMK AO2 SLP229 T02170128=
202010181852 METAR KATL 181852Z 10007KT 10SM FEW036 SCT250 21/12 A3024 RMK AO2 SLP238 T02060122=
202010181752 METAR KATL 181752Z 08008KT 10SM SCT025 SCT040 BKN250 20/12 A3028 RMK AO2 SLP253 T02000117 10200 20094 58007=
202010181652 METAR KATL 181652Z 09008KT 10SM BKN023 BKN039 BKN250 18/11 A3031 RMK AO2 SLP261 T01830106=
202010181648 SPECI KATL 181648Z 11006KT 10SM BKN023 BKN039 BKN250 18/11 A3031 RMK AO2=
202010181552 METAR KATL 181552Z 12013KT 10SM SCT250 17/08 A3030 RMK AO2 SLP260 T01720083=
202010181452 METAR KATL 181452Z 11009KT 10SM FEW027 FEW040 SCT250 16/07 A3033 RMK AO2 SLP270 T01560067 50005=
202010181352 METAR KATL 181352Z 09009KT 10SM FEW027 SCT040 SCT250 13/06 A3034 RMK AO2 SLP274 T01280061=
202010181252 METAR KATL 181252Z 08008KT 10SM FEW024 FEW038 11/06 A3033 RMK AO2 SLP270 T01060061=
202010181152 METAR KATL 181152Z 09007KT 10SM FEW038 09/06 A3032 RMK AO2 SLP268 T00940056 10111 20094 51012=
202010181052 METAR KATL 181052Z 08008KT 10SM FEW037 09/06 A3031 RMK AO2 SLP264 T00940061=
202010180952 METAR KATL 180952Z 07007KT 10SM SCT037 10/06 A3030 RMK AO2 SLP259 T01000061=
202010180852 METAR KATL 180852Z 08008KT 10SM FEW037 10/06 A3028 RMK AO2 SLP253 T01000061 51003=
202010180752 METAR KATL 180752Z 08007KT 10SM SCT037 11/06 A3028 RMK AO2 SLP252 T01060061=
202010180652 METAR KATL 180652Z 08008KT 10SM FEW039 11/06 A3028 RMK AO2 SLP251 T01060056=
202010180552 METAR KATL 180552Z 08009KT 10SM FEW040 11/06 A3027 RMK AO2 SLP249 T01110056 10150 20111 56003=
202010180452 METAR KATL 180452Z 09009KT 10SM CLR 12/05 A3027 RMK AO2 SLP249 T01170050 401940072=
202010180352 METAR KATL 180352Z 09009KT 10SM CLR 12/05 A3027 RMK AO2 SLP249 T01170050=
202010180252 METAR KATL 180252Z 10010KT 10SM FEW250 13/05 A3028 RMK AO2 SLP253 T01280050 53008=
202010180152 METAR KATL 180152Z 10008KT 10SM FEW250 13/06 A3027 RMK AO2 SLP251 T01330056=
202010180052 METAR KATL 180052Z 10008KT 10SM FEW250 14/06 A3026 RMK AO2 SLP248 T01390056=
202010172352 METAR KATL 172352Z 09009KT 10SM FEW250 15/06 A3026 RMK AO2 SLP247 T01500056 10194 20150 53002=
202010172252 METAR KATL 172252Z 10008KT 10SM FEW250 17/05 A3024 RMK AO2 SLP241 T01670050=
202010172152 METAR KATL 172152Z 12008KT 10SM FEW250 18/04 A3025 RMK AO2 SLP244 T01830044=
202010172052 METAR KATL 172052Z VRB04KT 10SM FEW250 19/05 A3025 RMK AO2 SLP242 T01890050 56016=
202010171952 METAR KATL 171952Z 14007KT 10SM FEW250 19/04 A3026 RMK AO2 SLP245 T01890044=
202010171852 METAR KATL 171852Z 13008G14KT 10SM FEW250 18/04 A3027 RMK AO2 SLP249 T01830044=
202010171752 METAR KATL 171752Z 08010KT 10SM FEW250 18/04 A3030 RMK AO2 SLP258 T01830044 10183 20083 58012=
202010171652 METAR KATL 171652Z 09010G18KT 060V130 10SM CLR 17/03 A3032 RMK AO2 SLP264 T01720033=
202010171552 METAR KATL 171552Z 10011G20KT 10SM CLR 17/03 A3033 RMK AO2 SLP270 T01670033=
202010171452 METAR KATL 171452Z 08014KT 10SM CLR 14/03 A3033 RMK AO2 SLP271 T01440028 51012=
202010171352 METAR KATL 171352Z 09009KT 10SM CLR 12/02 A3033 RMK AO2 SLP272 T01220017=
202010171252 METAR KATL 171252Z 04008KT 10SM FEW050 11/01 A3032 RMK AO2 SLP268 T01060011=
202010171152 METAR KATL 171152Z 03004KT 10SM FEW050 08/01 A3030 RMK AO2 SLP261 T00830006 10106 20072 51015=
202010171052 METAR KATL 171052Z 34006KT 10SM CLR 07/02 A3029 RMK AO2 SLP258 T00720017=
202010170952 METAR KATL 170952Z 34006KT 10SM CLR 08/02 A3028 RMK AO2 SLP251 T00780017=
202010170852 METAR KATL 170852Z 33007KT 10SM CLR 09/01 A3025 RMK AO2 SLP243 T00890011 53013=
202010170752 METAR KATL 170752Z 34009KT 10SM CLR 09/02 A3023 RMK AO2 SLP235 T00890017=
202010170652 METAR KATL 170652Z 36010KT 10SM CLR 11/01 A3023 RMK AO2 SLP235 T01060006=
202010170552 METAR KATL 170552Z 34007KT 10SM CLR 10/02 A3021 RMK AO2 SLP229 T01000017 10156 20100 58002=
202010170452 METAR KATL 170452Z 35009KT 10SM CLR 11/02 A3023 RMK AO2 SLP234 T01110022 402060111=
202010170352 METAR KATL 170352Z 34009KT 10SM CLR 11/03 A3023 RMK AO2 SLP235 T01110033=
202010170252 METAR KATL 170252Z 34008KT 10SM CLR 12/04 A3022 RMK AO2 SLP231 T01220044 51017=
202010170152 METAR KATL 170152Z 33009KT 10SM CLR 13/06 A3020 RMK AO2 SLP225 T01280056=
202010170052 METAR KATL 170052Z 33008KT 10SM CLR 14/06 A3019 RMK AO2 SLP222 T01440056=
202010162352 METAR KATL 162352Z 33009KT 10SM CLR 16/07 A3017 RMK AO2 SLP214 T01560067 10206 20156 53008=
202010162252 METAR KATL 162252Z 34008KT 10SM CLR 18/07 A3014 RMK AO2 SLP204 T01780067=
202010162152 METAR KATL 162152Z 33011G18KT 10SM FEW110 19/07 A3013 RMK AO2 SLP200 T01940072=
202010162052 METAR KATL 162052Z 32012G23KT 10SM SCT110 19/08 A3014 RMK AO2 SLP203 T01940078 53003=
202010161952 METAR KATL 161952Z 32015G25KT 10SM FEW120 21/07 A3013 RMK AO2 SLP197 T02060072=
202010161852 METAR KATL 161852Z 32015KT 10SM FEW110 19/08 A3012 RMK AO2 SLP195 T01940078=
202010161752 METAR KATL 161752Z 32011KT 10SM FEW085 SCT110 19/08 A3013 RMK AO2 SLP199 ACC DSNT N-NE T01890078 10189 20133 58009=
202010161652 METAR KATL 161652Z 30012KT 10SM FEW085 BKN110 18/08 A3015 RMK AO2 SLP206 T01780083=
202010161552 METAR KATL 161552Z 31012KT 10SM FEW055 BKN090 17/09 A3016 RMK AO2 SLP208 T01720089=
202010161452 METAR KATL 161452Z 31013G18KT 10SM SCT050 BKN080 16/09 A3016 RMK AO2 SLP209 T01610089 53015=
202010161352 METAR KATL 161352Z 33006KT 10SM BKN048 16/08 A3014 RMK AO2 SLP201 T01610083=
202010161252 METAR KATL 161252Z 33009KT 10SM SCT050 14/08 A3013 RMK AO2 SLP199 T01440083=
202010161152 METAR KATL 161152Z 33013G22KT 10SM SCT050 13/08 A3012 RMK AO2 SLP193 T01330083 10178 20133 51026=
202010161052 METAR KATL 161052Z 33014G21KT 10SM FEW050 14/09 A3010 RMK AO2 PK WND 32028/1027 SLP187 T01390089=
202010160952 METAR KATL 160952Z 32016G25KT 10SM CLR 14/11 A3007 RMK AO2 SLP175 T01440106=
202010160852 METAR KATL 160852Z 32012KT 10SM FEW045 16/13 A3004 RMK AO2 SLP164 T01560133 53004=
202010160752 METAR KATL 160752Z 31009KT 10SM FEW045 17/15 A3002 RMK AO2 SLP160 T01720150=
202010160652 METAR KATL 160652Z 29004KT 10SM FEW045 17/14 A3002 RMK AO2 SLP160 T01720144=
202010160552 METAR KATL 160552Z 00000KT 10SM CLR 18/15 A3003 RMK AO2 SLP160 T01780150 10228 20178 58001=
202010160452 METAR KATL 160452Z 28005KT 10SM CLR 18/15 A3003 RMK AO2 SLP163 T01780150 402720172=
202010160352 METAR KATL 160352Z 29004KT 10SM CLR 19/16 A3003 RMK AO2 SLP163 T01890156=
202010160252 METAR KATL 160252Z 29007KT 10SM CLR 19/16 A3003 RMK AO2 SLP162 T01940161 53014=
202010160152 METAR KATL 160152Z 27006KT 10SM CLR 21/16 A3001 RMK AO2 SLP156 T02060161=
202010160052 METAR KATL 160052Z 25003KT 10SM FEW042 22/17 A3000 RMK AO2 SLP151 T02170167=
202010152352 METAR KATL 152352Z 00000KT 10SM CLR 23/17 A2999 RMK AO2 SLP147 T02280167 10272 20228 53002=
202010152252 METAR KATL 152252Z 23004KT 10SM FEW042 24/17 A2998 RMK AO2 SLP143 T02390167=
202010152152 METAR KATL 152152Z 21006KT 10SM FEW042 FEW055 26/16 A2997 RMK AO2 SLP141 T02610161=
202010152052 METAR KATL 152052Z 21009KT 10SM FEW042 FEW055 SCT065 26/16 A2998 RMK AO2 SLP143 MDT CU DSNT NE-E T02610156 56010=
202010151952 METAR KATL 151952Z 25008KT 10SM FEW040 SCT050 SCT060 26/17 A2998 RMK AO2 SLP145 MDT CU NE-SE-S W T02560167=
202010151852 METAR KATL 151852Z 21006KT 10SM FEW030 SCT040 BKN050 26/18 A2998 RMK AO2 SLP144 T02610178=
202010151752 METAR KATL 151752Z 21006KT 10SM SCT024 BKN036 BKN050 24/18 A3001 RMK AO2 SLP154 60000 T02440183 10244 20189 58016=
202010151652 METAR KATL 151652Z 21007KT 10SM BKN018 OVC025 23/18 A3003 RMK AO2 SLP161 CIG 016V020 BINOVC T02330183=
202010151552 METAR KATL 151552Z 18008KT 9SM BKN016 OVC022 23/18 A3005 RMK AO2 SLP167 CIG 014V018 BINOVC T02280183=
202010151452 METAR KATL 151452Z 18009KT 8SM OVC012 22/18 A3006 RMK AO2 SLP171 CIG 010V014 BINOVC 60000 T02170183 51007=
202010151424 SPECI KATL 151424Z 17006KT 8SM BKN010 OVC016 21/18 A3006 RMK AO2 CIG 009V012 BINOVC T02110183=
202010151415 SPECI KATL 151415Z 16006KT 7SM BKN009 OVC014 21/18 A3006 RMK AO2 CIG 008V011 BINOVC T02110183=
202010151352 METAR KATL 151352Z 18005KT 2SM BR BKN007 OVC012 20/18 A3006 RMK AO2 SFC VIS 6 SLP172 CIG 006V009 T02000183=
202010151332 SPECI KATL 151332Z 17005KT 1 1/2SM BR BKN005 OVC011 20/19 A3005 RMK AO2 SFC VIS 5 CIG 004V007 T02000189=
202010151252 METAR KATL 151252Z 15004KT 1/2SM R09R/P6000FT BR BKN003 OVC009 19/19 A3004 RMK AO2 SFC VIS 1 3/4 SLP167 DZB28E47 TWRINC P0000 T01940189=
202010151152 METAR KATL 151152Z 08004KT 1/2SM R09R/3000V4000FT BR VV002 19/18 A3004 RMK AO2 SFC VIS 3/4 DZB25E51 SLP164 TWRINC P0000 60000 T01890178 10189 20172 51009=
202010151114 SPECI KATL 151114Z VRB03KT 1/2SM R09R/P6000FT BR OVC002 19/18 A3004 RMK AO2 SFC VIS 1 1/4 T01890178=
202010151052 METAR KATL 151052Z 13003KT 1 1/2SM BR OVC003 19/18 A3003 RMK AO2 SFC VIS 3 SLP162 TWRINC T01890178=
202010151021 SPECI KATL 151021Z 13003KT 3SM OVC004 18/17 A3002 RMK AO2 SFC VIS 7 T01830172=
202010150952 METAR KATL 150952Z 12004KT 10SM OVC005 18/17 A3002 RMK AO2 SLP156 T01830167=
202010150852 METAR KATL 150852Z 08005KT 10SM BKN009 BKN050 18/14 A3001 RMK AO2 SLP154 T01780144 55004=
202010150752 METAR KATL 150752Z 08005KT 10SM SCT015 BKN050 17/14 A3001 RMK AO2 SLP155 T01720139=
202010150652 METAR KATL 150652Z 10005KT 10SM FEW050 18/14 A3002 RMK AO2 SLP156 T01830139=
202010150552 METAR KATL 150552Z 12006KT 10SM SCT050 19/14 A3002 RMK AO2 SLP158 T01890144 10228 20189 58008=
202010150452 METAR KATL 150452Z 12007KT 10SM BKN050 19/14 A3003 RMK AO2 SLP163 T01940144 402670128=
202010150352 METAR KATL 150352Z 09006KT 10SM BKN048 19/16 A3004 RMK AO2 SLP166 T01940156=
202010150252 METAR KATL 150252Z 09008KT 10SM BKN045 21/16 A3005 RMK AO2 SLP168 T02060156 53008=
202010150152 METAR KATL 150152Z 12005KT 10SM SCT045 21/16 A3004 RMK AO2 SLP166 T02110156=
202010150052 METAR KATL 150052Z 12003KT 9SM CLR 21/16 A3003 RMK AO2 SLP163 T02110161=
202010142352 METAR KATL 142352Z 12005KT 10SM FEW060 23/16 A3002 RMK AO2 SLP162 T02280156 10267 20228 53002=
202010142252 METAR KATL 142252Z 13005KT 10SM FEW060 24/15 A3002 RMK AO2 SLP158 T02440150=
202010142152 METAR KATL 142152Z 17006KT 10SM FEW060 26/14 A3001 RMK AO2 SLP157 T02610144=
202010142052 METAR KATL 142052Z 11007KT 10SM FEW060 27/14 A3002 RMK AO2 SLP159 T02670139 56021=
202010141952 METAR KATL 141952Z 13007KT 10SM FEW055 26/14 A3002 RMK AO2 SLP161 T02610144=
202010141852 METAR KATL 141852Z 12006KT 10SM FEW050 26/14 A3004 RMK AO2 SLP167 T02610144=
202010141752 METAR KATL 141752Z 09006KT 10SM CLR 25/13 A3008 RMK AO2 SLP180 T02500133 10256 20139 58013=
202010141652 METAR KATL 141652Z 11009KT 10SM CLR 24/12 A3011 RMK AO2 SLP189 T02390117=
202010141552 METAR KATL 141552Z 10009KT 10SM CLR 23/11 A3012 RMK AO2 SLP193 T02280106=
202010141452 METAR KATL 141452Z 12009KT 10SM CLR 22/08 A3012 RMK AO2 SLP194 T02170083 50012=
202010141352 METAR KATL 141352Z 10009KT 10SM CLR 19/10 A3012 RMK AO2 SLP196 T01890100=
202010141252 METAR KATL 141252Z 09008KT 10SM CLR 16/09 A3011 RMK AO2 SLP192 T01610094=
202010141152 METAR KATL 141152Z 08006KT 10SM FEW250 14/09 A3009 RMK AO2 SLP185 T01390094 10144 20128 51014=
202010141052 METAR KATL 141052Z 02005KT 10SM CLR 14/09 A3009 RMK AO2 SLP184 T01390094=
202010140952 METAR KATL 140952Z 34006KT 10SM CLR 13/09 A3006 RMK AO2 SLP174 T01330094 $=
202010140852 METAR KATL 140852Z 00000KT 10SM CLR 13/09 A3005 RMK AO2 SLP168 T01330094 51001 $=
202010140752 METAR KATL 140752Z 35006KT 10SM CLR 14/10 A3004 RMK AO2 SLP168 T01390100 $=
202010140652 METAR KATL 140652Z 35007KT 10SM CLR 14/10 A3005 RMK AO2 SLP169 T01390100=
202010140552 METAR KATL 140552Z 34006KT 10SM CLR 14/10 A3004 RMK AO2 SLP167 T01440100 10194 20144 50002=
202010140452 METAR KATL 140452Z 34008KT 10SM CLR 16/10 A3005 RMK AO2 SLP168 T01560100 402670156=
202010140352 METAR KATL 140352Z 33009KT 10SM CLR 16/10 A3005 RMK AO2 SLP169 T01610100=
202010140252 METAR KATL 140252Z 32013KT 10SM FEW250 17/11 A3004 RMK AO2 SLP166 T01670106 53003=
202010140152 METAR KATL 140152Z 33012KT 10SM FEW250 17/11 A3003 RMK AO2 SLP165 T01720106=
202010140052 METAR KATL 140052Z 32010KT 10SM FEW250 18/11 A3003 RMK AO2 SLP162 T01830106=
202010132352 METAR KATL 132352Z 33009KT 10SM CLR 19/10 A3003 RMK AO2 SLP162 T01940100 10267 20194 53005=
202010132252 METAR KATL 132252Z 33011KT 10SM CLR 22/11 A3002 RMK AO2 SLP159 T02170106=
202010132152 METAR KATL 132152Z 32011KT 10SM CLR 24/12 A3001 RMK AO2 SLP155 T02390122=
202010132052 METAR KATL 132052Z 33012KT 10SM CLR 25/12 A3001 RMK AO2 SLP153 T02500117 55013=
202010131952 METAR KATL 131952Z 34013KT 10SM CLR 26/12 A3001 RMK AO2 SLP152 T02610122=
202010131852 METAR KATL 131852Z 32011KT 10SM CLR 26/13 A3003 RMK AO2 SLP158 T02560128=
202010131752 METAR KATL 131752Z 31010KT 10SM CLR 26/14 A3005 RMK AO2 SLP167 T02560139 10261 20200 58003=
202010131652 METAR KATL 131652Z 32008KT 10SM CLR 25/14 A3006 RMK AO2 SLP170 T02500144=
202010131552 METAR KATL 131552Z 31007KT 10SM CLR 24/17 A3006 RMK AO2 SLP173 T02390167=
202010131452 METAR KATL 131452Z 35008KT 10SM FEW016 22/17 A3006 RMK AO2 SLP172 T02220167 51019=
202010131352 METAR KATL 131352Z 33010KT 8SM SCT008 SCT055 21/18 A3005 RMK AO2 SLP169 T02060178=
202010131326 SPECI KATL 131326Z 32011KT 10SM SCT007 SCT055 20/18 A3005 RMK AO2 T02000178=
202010131252 METAR KATL 131252Z 32014KT 6SM BR BKN006 BKN055 20/18 A3003 RMK AO2 SLP162 BKN006 V SCT T02000183=
202010131229 SPECI KATL 131229Z 33011KT 5SM BR BKN006 BKN055 20/19 A3002 RMK AO2 BKN006 V SCT T02000189=
202010131152 METAR KATL 131152Z 31008KT 5SM BR SCT008 SCT050 20/19 A3000 RMK AO2 SLP153 T02000189 10217 20200 51019=
202010131146 SPECI KATL 131146Z 31009KT 5SM BR FEW009 20/19 A3000 RMK AO2=
202010131119 SPECI KATL 131119Z 29006KT 5SM BR BKN009 20/19 A3000 RMK AO2 T02000189=
202010131052 METAR KATL 131052Z 28005KT 7SM FEW025 20/19 A2999 RMK AO2 SLP146 T02000189 $=
202010130952 METAR KATL 130952Z 28008KT 10SM FEW025 20/19 A2997 RMK AO2 SLP139 T02000189=
202010130852 METAR KATL 130852Z 27007KT 10SM SCT025 21/19 A2995 RMK AO2 SLP131 T02110194 56004=
202010130752 METAR KATL 130752Z 28006KT 10SM SCT025 BKN035 BKN050 21/19 A2995 RMK AO2 SLP132 T02110189=
202010130652 METAR KATL 130652Z 24004KT 10SM FEW030 SCT050 21/19 A2995 RMK AO2 SLP132 T02110189=
202010130552 METAR KATL 130552Z 25004KT 10SM FEW040 SCT060 21/19 A2996 RMK AO2 SLP135 T02110189 10233 20211 58002=
202010130452 METAR KATL 130452Z 24004KT 10SM FEW040 SCT055 21/19 A2996 RMK AO2 SLP139 T02110189 402720211=
202010130352 METAR KATL 130352Z 25004KT 10SM BKN055 22/19 A2997 RMK AO2 SLP141 T02170189=
202010130252 METAR KATL 130252Z 26004KT 10SM FEW032 BKN050 22/19 A2996 RMK AO2 SLP137 T02220189 51017=
202010130152 METAR KATL 130152Z 27006KT 10SM FEW030 22/18 A2996 RMK AO2 SLP137 T02170183=
202010130052 METAR KATL 130052Z 24003KT 10SM CLR 23/19 A2994 RMK AO2 SLP129 T02280189=
202010122352 METAR KATL 122352Z 23003KT 10SM CLR 23/19 A2991 RMK AO2 SLP121 T02330189 10272 20233 53001=
202010122252 METAR KATL 122252Z 00000KT 10SM CLR 25/18 A2990 RMK AO2 SLP114 T02500183 $=
202010122152 METAR KATL 122152Z 29005KT 10SM FEW030 26/18 A2990 RMK AO2 SLP117 T02610183 $=
202010122052 METAR KATL 122052Z 28008KT 10SM FEW031 SCT048 27/19 A2991 RMK AO2 SLP119 T02720189 56007 $=
202010121952 METAR KATL 121952Z 32007KT 10SM SCT029 BKN037 BKN050 27/19 A2991 RMK AO2 SLP120 T02670194 $=
202010121852 METAR KATL 121852Z 31009KT 10SM SCT028 BKN038 26/19 A2991 RMK AO2 SLP120 T02610189 $=
202010121752 METAR KATL 121752Z 30008KT 10SM SCT021 BKN038 25/19 A2993 RMK AO2 SLP126 T02500189 10256 20211 58007 $=
202010121652 METAR KATL 121652Z 28008KT 10SM FEW015 SCT028 OVC040 23/19 A2995 RMK AO2 SLP133 BINOVC T02330194 $=
202010121649 SPECI KATL 121649Z 28008KT 10SM FEW015 SCT028 OVC040 23/19 A2995 RMK AO2 BINOVC $=
202010121552 METAR KATL 121552Z 27007KT 10SM SCT014 BKN020 OVC043 23/20 A2996 RMK AO2 SLP136 T02330200 $=
202010121452 METAR KATL 121452Z 28007KT 10SM SCT012 BKN015 OVC048 24/20 A2995 RMK AO2 SLP135 BINOVC T02390200 51014 $=
202010121450 SPECI KATL 121450Z 27007KT 10SM SCT012 BKN015 OVC048 23/20 A2995 RMK AO2 BINOVC $=
202010121352 METAR KATL 121352Z 27007KT 10SM SCT008 BKN014 OVC045 22/20 A2995 RMK AO2 SLP134 T02220200 $=
202010121252 METAR KATL 121252Z 25006KT 10SM FEW005 BKN012 OVC045 21/19 A2993 RMK AO2 SLP126 T02110194 $=
202010121244 SPECI KATL 121244Z 24004KT 10SM FEW005 BKN012 OVC045 21/20 A2992 RMK AO2 T02110200 $=
202010121228 SPECI KATL 121228Z 26005KT 9SM FEW005 SCT014 OVC043 21/20 A2992 RMK AO2 BINOVC T02110200 $=
202010121211 SPECI KATL 121211Z 27005KT 8SM SCT006 BKN021 OVC043 21/19 A2991 RMK AO2 BINOVC T02110194 $=
202010121152 METAR KATL 121152Z 28004KT 8SM BKN006 BKN018 OVC043 21/19 A2991 RMK AO2 SLP121 CIG 005V008 BKN006 V SCT 70005 T02110194 10211 20211 52015 $=
202010121052 METAR KATL 121052Z 27006KT 10SM BKN007 OVC013 21/19 A2989 RMK AO2 SLP114 CIG 006V009 T02110194 $=
202010120952 METAR KATL 120952Z 27005KT 10SM OVC007 21/20 A2989 RMK AO2 SLP111 CIG 005V009 T02110200 $=
202010120852 METAR KATL 120852Z 28004KT 10SM OVC007 21/20 A2987 RMK AO2 SLP105 T02110200 55001 $=
202010120752 METAR KATL 120752Z 25003KT 10SM OVC007 21/20 A2986 RMK AO2 SLP104 T02110200 $=
202010120652 METAR KATL 120652Z 25005KT 10SM BKN007 OVC046 21/20 A2987 RMK AO2 SLP105 T02110200 $=
202010120552 METAR KATL 120552Z 24005KT 10SM BKN005 OVC048 21/20 A2987 RMK AO2 SLP106 T02110200 10222 20211 53000 $=
202010120539 SPECI KATL 120539Z 25006KT 10SM BKN005 OVC048 21/20 A2987 RMK AO2 T02110200 $=
202010120514 SPECI KATL 120514Z 24004KT 10SM SCT004 OVC048 21/20 A2987 RMK AO2 SCT004 V BKN BINOVC T02110200 $=
202010120452 METAR KATL 120452Z 25006KT 10SM BKN007 OVC048 21/20 A2987 RMK AO2 SLP105 CIG 005V010 BINOVC T02110200 402390211 $=
202010120444 SPECI KATL 120444Z 25004KT 10SM BKN007 OVC048 21/20 A2987 RMK AO2 CIG 005V010 BINOVC T02110200 $=
202010120352 METAR KATL 120352Z 23005KT 10SM SCT005 SCT023 BKN048 21/19 A2986 RMK AO2 SLP105 T02110194 $=
202010120252 METAR KATL 120252Z 22004KT 10SM FEW005 SCT025 BKN049 21/20 A2987 RMK AO2 SLP107 T02110200 51009 $=
202010120152 METAR KATL 120152Z 24004KT 10SM FEW006 SCT038 BKN050 21/20 A2986 RMK AO2 SLP105 T02110200 $=
202010120052 METAR KATL 120052Z 23003KT 10SM FEW012 SCT038 BKN055 21/20 A2985 RMK AO2 SLP102 T02110200 $=
202010112352 METAR KATL 112352Z 24004KT 10SM FEW012 BKN041 BKN060 22/20 A2984 RMK AO2 RAB01E19 SLP097 P0002 60002 T02170200 10239 20217 53014 $=
202010112324 SPECI KATL 112324Z 25005KT 10SM FEW012 BKN036 BKN045 22/20 A2983 RMK AO2 RAB01E19 P0002 T02170200 $=
202010112309 SPECI KATL 112309Z 26006G14KT 3SM -RA BR FEW011 BKN026 BKN050 22/20 A2983 RMK AO2 RAB01 P0002 T02170200 $=
202010112252 METAR KATL 112252Z 25005KT 10SM SCT025 BKN045 BKN075 23/19 A2982 RMK AO2 SLP090 T02280194 $=
202010112152 METAR KATL 112152Z 24006KT 10SM FEW024 SCT060 BKN075 23/19 A2981 RMK AO2 SLP084 TCU DSNT SE & NW T02330194 $=
202010112138 SPECI KATL 112138Z 23008KT 10SM FEW024 SCT045 BKN075 23/19 A2980 RMK AO2 T02330189 $=
202010112052 METAR KATL 112052Z 25008KT 10SM BKN024 BKN045 BKN070 23/19 A2980 RMK AO2 SLP082 T02330189 55002 $=
202010111952 METAR KATL 111952Z 26011G16KT 10SM SCT018 BKN060 BKN080 24/19 A2979 RMK AO2 SLP078 T02390189 $=
202010111941 SPECI KATL 111941Z 24007KT 10SM BKN018 BKN055 BKN080 24/19 A2979 RMK AO2 T02390194 $=
202010111929 SPECI KATL 111929Z 23006KT 10SM SCT019 BKN055 OVC080 23/19 A2979 RMK AO2 T02330194 $=
202010111852 METAR KATL 111852Z 25011G20KT 10SM BKN022 BKN035 BKN080 24/19 A2979 RMK AO2 SLP079 T02390194 $=
202010111822 SPECI KATL 111822Z 22011G17KT 10SM FEW015 SCT035 BKN070 23/19 A2979 RMK AO2 T02330194 $=
202010111752 METAR KATL 111752Z 23013G18KT 10SM FEW012 BKN017 BKN050 23/20 A2981 RMK AO2 RAB17E35 SLP084 P0002 60003 T02280200 10228 20211 58004 $=
202010111652 METAR KATL 111652Z 22010G19KT 10SM SCT013 BKN022 BKN048 23/19 A2982 RMK AO2 SLP088 T02280194 $=
202010111640 SPECI KATL 111640Z 22011KT 10SM SCT013 BKN019 OVC060 22/19 A2982 RMK AO2 T02220194 $=
202010111552 METAR KATL 111552Z 22007KT 180V240 10SM FEW008 BKN012 OVC019 22/19 A2982 RMK AO2 RAB07E17 SLP091 P0000 T02220194 $=
202010111452 METAR KATL 111452Z 20007KT 7SM SCT008 BKN014 OVC030 22/21 A2982 RMK AO2 RAB16E42 SLP089 P0001 60001 T02220206 51008 $=
202010111425 SPECI KATL 111425Z 19011KT 2 1/2SM -RA BR SCT008 BKN013 OVC027 22/20 A2982 RMK AO2 SFC VIS 3 RAB16 P0000 T02170200 $=
202010111403 SPECI KATL 111403Z 18010KT 7SM FEW009 BKN016 OVC038 22/20 A2981 RMK AO2 T02220200 $=
202010111352 METAR KATL 111352Z 17010KT 7SM SCT007 BKN014 OVC020 22/20 A2981 RMK AO2 RAB21E45 SLP086 P0000 T02170200 $=
202010111300 SPECI KATL 111300Z 17008KT 10SM SCT008 OVC014 22/20 A2981 RMK AO2 T02170200 $=
202010111252 METAR KATL 111252Z 17008KT 10SM BKN008 BKN014 OVC055 22/20 A2980 RMK AO2 SLP084 T02170200 $=
202010111204 SPECI KATL 111204Z 16005KT 10SM BKN007 BKN085 21/20 A2979 RMK AO2 CIG 005V009 T02110200 $=
202010111152 METAR KATL 111152Z 14005KT 10SM SCT006 BKN060 BKN085 21/20 A2979 RMK AO2 SLP080 70404 T02110200 10228 20211 53002 $=
202010111130 SPECI KATL 111130Z 17008KT 10SM FEW006 BKN065 BKN080 21/20 A2979 RMK AO2 T02110200 $=
202010111052 METAR KATL 111052Z 17007KT 10SM BKN006 BKN012 OVC019 21/20 A2979 RMK AO2 SLP079 CIG 005V008 T02110200 $=
202010110952 METAR KATL 110952Z 14005KT 10SM BKN006 21/20 A2978 RMK AO2 SLP075 CIG 005V008 T02110200 $=
202010110931 SPECI KATL 110931Z 16004KT 10SM BKN008 BKN040 21/20 A2978 RMK AO2 BKN008 V SCT T02110200 $=
202010110909 SPECI KATL 110909Z 18007KT 10SM SCT008 BKN040 22/20 A2979 RMK AO2 T02170200 $=
202010110857 SPECI KATL 110857Z 18007KT 10SM BKN008 BKN014 BKN037 22/20 A2979 RMK AO2 CIG 007V010 BKN008 V SCT T02170200 $=
202010110852 METAR KATL 110852Z 18006KT 10SM SCT010 BKN017 BKN033 22/20 A2979 RMK AO2 SLP077 BKN017 V SCT T02170200 58008 $=
202010110752 METAR KATL 110752Z 19008G16KT 10SM SCT011 BKN022 BKN033 23/21 A2980 RMK AO2 SLP081 T02280206 $=
202010110722 SPECI KATL 110722Z 22005KT 10SM SCT009 BKN028 BKN050 23/21 A2980 RMK AO2 SCT009 V SCT T02280206 $=
202010110652 METAR KATL 110652Z 18008KT 10SM BKN007 BKN013 BKN017 23/21 A2981 RMK AO2 SLP085 BKN007 V SCT T02280211 $=
202010110552 METAR KATL 110552Z 17007G15KT 10SM BKN007 BKN011 BKN049 OVC180 23/22 A2981 RMK AO2 SLP085 CIG 005V009 60288 T02280217 10233 20222 58005 $=
202010110531 SPECI KATL 110531Z 16008KT 10SM BKN007 BKN060 OVC180 23/22 A2982 RMK AO2 CIG 005V009 T02280217 $=
202010110452 METAR KATL 110452Z 18009KT 10SM BKN010 BKN018 OVC030 23/22 A2983 RMK AO2 SLP092 CIG 008V013 T02280217 402500183=
202010110352 METAR KATL 110352Z 17010G17KT 10SM BKN009 BKN014 OVC030 23/22 A2983 RMK AO2 RAE03B19E32 SLP090 CIG 007V011 P0003 T02330217=
202010110350 SPECI KATL 110350Z 16011G17KT 10SM BKN009 BKN014 OVC030 23/22 A2983 RMK AO2 RAE03B19E32 CIG 007V011 P0003=
202010110257 SPECI KATL 110257Z 19010KT 6SM -RA BR FEW009 BKN013 OVC039 23/22 A2982 RMK AO2 P0001 T02280217=
202010110252 METAR KATL 110252Z 20009G19KT 4SM RA BR SCT012 BKN029 OVC039 23/22 A2982 RMK AO2 SLP091 P0030 60285 T02280217 58005=
202010110245 SPECI KATL 110245Z 21009G22KT 2 1/2SM +RA BR SCT010 BKN027 OVC035 23/22 A2982 RMK AO2 P0025 T02280217=
202010110228 SPECI KATL 110228Z 22006KT 6SM -RA BR SCT010 BKN027 OVC035 23/22 A2982 RMK AO2 P0013 T02280217=
202010110202 SPECI KATL 110202Z 16006KT 2SM -RA BR SCT008 BKN020 OVC036 23/22 A2983 RMK AO2 SFC VIS 3 P0002 T02280217=
202010110152 METAR KATL 110152Z 22005KT 1 1/2SM R09R/5500VP6000FT RA BR SCT006 OVC014 23/22 A2983 RMK AO2 SFC VIS 2 SLP092 P0134 T02280217=
202010110100 SPECI KATL 110100Z 00000KT 1 1/4SM R09R/3500VP6000FT +RA BR SCT005 OVC012 23/22 A2983 RMK AO2 TWR VIS 1 1/2 P0027 T02280217=
202010110052 METAR KATL 110052Z 19005KT 3/4SM R09R/3500VP6000FT +RA BR FEW005 BKN010 OVC015 23/22 A2984 RMK AO2 SLP098 P0121 T02280217=
202010110049 SPECI KATL 110049Z 19005KT 3/4SM R09R/3500VP6000FT +RA BR FEW005 BKN010 OVC015 23/22 A2984 RMK AO2 P0110=
202010110044 SPECI KATL 110044Z 27009KT 3/4SM R09R/3000VP6000FT +RA BR FEW010 OVC015 23/22 A2984 RMK AO2 P0088 T02280217=
202010110034 SPECI KATL 110034Z 28009KT 1 1/4SM R09R/5000VP6000FT +RA BR SCT012 BKN020 OVC027 23/22 A2982 RMK AO2 P0051 T02280217=
202010110009 SPECI KATL 110009Z VRB04KT 2SM RA BR FEW009 BKN015 OVC030 23/22 A2984 RMK AO2 P0014 T02330217=
202010102359 SPECI KATL 102359Z VRB04KT 1 3/4SM +RA BR SCT006 BKN015 OVC021 23/22 A2984 RMK AO2 P0007 T02330217=
202010102352 METAR KATL 102352Z 20010G18KT 1SM R09R/5500VP6000FT +RA BR BKN008 BKN015 OVC021 23/22 A2984 RMK AO2 SLP097 P0098 60115 T02330217 10250 20233 55008=
202010102337 SPECI KATL 102337Z 20014G22KT 160V230 1/2SM R09R/2800VP6000FT +RA FG BKN006 OVC012 23/22 A2984 RMK AO2 P0050 T02330217=
202010102327 SPECI KATL 102327Z 21009G23KT 180V240 1SM R09R/5500VP6000FT +RA BR BKN006 BKN010 OVC030 23/22 A2983 RMK AO2 LTG DSNT NW PRESRR P0022 T02330222=
202010102321 SPECI KATL 102321Z 14013G23KT 2 1/2SM +RA BR SCT006 BKN010 OVC031 23/22 A2981 RMK AO2 SFC VIS 3 P0015 T02330222=
202010102259 SPECI KATL 102259Z 10014G20KT 2 1/2SM +RA BR SCT007 BKN026 OVC033 23/22 A2980 RMK AO2 SFC VIS 3 PRESFR P0005 T02330222=
202010102252 METAR KATL 102252Z 09012KT 2 1/2SM RA BR SCT009 BKN035 OVC055 23/22 A2981 RMK AO2 SFC VIS 3 RAB02 SLP088 P0017 T02330222=
202010102244 SPECI KATL 102244Z 10014G19KT 2 1/2SM RA BR FEW005 SCT012 OVC035 23/22 A2983 RMK AO2 RAB02 P0012 T02330222=
202010102205 SPECI KATL 102205Z 10009G18KT 8SM -RA SCT008 BKN055 BKN080 BKN150 OVC250 24/22 A2983 RMK AO2 RAB02 P0001 T02390222=
202010102152 METAR KATL 102152Z 10010KT 10SM SCT012 BKN065 BKN080 BKN150 OVC250 24/22 A2984 RMK AO2 RAB25E40 SLP098 P0000 T02390217=
202010102150 SPECI KATL 102150Z 11011KT 10SM SCT012 BKN065 BKN080 BKN150 OVC250 24/22 A2985 RMK AO2 RAB25E40 P0000=
202010102052 METAR KATL 102052Z 11011KT 10SM SCT012 BKN018 OVC150 24/22 A2986 RMK AO2 SLP105 T02440217 56026=
202010102011 SPECI KATL 102011Z 11007KT 10SM BKN013 BKN200 24/22 A2988 RMK AO2 T02440217=
202010101952 METAR KATL 101952Z 12011KT 10SM SCT013 BKN200 24/22 A2989 RMK AO2 SLP113 T02440217=
202010101852 METAR KATL 101852Z 13009KT 10SM SCT012 BKN018 OVC040 24/21 A2991 RMK AO2 SLP121 T02390211=
202010101752 METAR KATL 101752Z 13008KT 10SM OVC018 23/21 A2994 RMK AO2 RAB29E50 SLP132 P0000 60001 T02330211 10244 20200 58021=
202010101719 SPECI KATL 101719Z 13009G19KT 10SM SCT014 BKN019 OVC025 24/21 A2996 RMK AO2 T02390206=
202010101704 SPECI KATL 101704Z 13010KT 10SM BKN013 BKN028 BKN034 24/21 A2997 RMK AO2 T02390206=
202010101652 METAR KATL 101652Z 12010KT 10SM FEW014 SCT032 BKN200 24/21 A2998 RMK AO2 SLP143 T02440211=
202010101642 SPECI KATL 101642Z 12010KT 10SM FEW013 SCT027 BKN032 BKN200 24/21 A2998 RMK AO2 T02390211=
202010101605 SPECI KATL 101605Z 14008KT 10SM FEW012 BKN023 OVC028 23/21 A3000 RMK AO2 T02330206=
202010101552 METAR KATL 101552Z 14008KT 10SM BKN014 OVC023 23/21 A3000 RMK AO2 SLP152 T02280206=
202010101535 SPECI KATL 101535Z 15005G17KT 10SM FEW009 BKN014 OVC023 23/21 A3000 RMK AO2 T02280206=
202010101452 METAR KATL 101452Z 14006KT 7SM OVC007 23/21 A3001 RMK AO2 SLP155 60001 T02280211 50000=
202010101406 SPECI KATL 101406Z 14007KT 3SM BR OVC006 22/21 A3002 RMK AO2 SFC VIS 6 T02170206=
202010101352 METAR KATL 101352Z 13007KT 3SM BR OVC004 22/21 A3001 RMK AO2 SFC VIS 5 DZE11 SLP156 P0001 T02170206=
202010101252 METAR KATL 101252Z 12007KT 1/2SM R09R/P6000FT -DZ BR OVC003 21/20 A3001 RMK AO2 SFC VIS 2 SLP155 TWRINC P0000 T02060200=
202010101152 METAR KATL 101152Z 10006KT 1/2SM R09R/P6000FT -DZ BR OVC003 20/19 A3001 RMK AO2 SFC VIS 3 RAE47DZB47 SLP155 CIG 002V004 TWRINC P0003 60050 70064 T02000194 10200 20183 56009=
202010101135 SPECI KATL 101135Z 11005KT 1/2SM R09R/P6000FT -RA BR OVC003 20/19 A3002 RMK AO2 SFC VIS 4 CIG 002V004 TWRINC P0002 T02000189=
202010101052 METAR KATL 101052Z 09005KT 2SM R09R/6000VP6000FT +RA BR BKN004 BKN009 OVC019 19/18 A3001 RMK AO2 SLP157 BKN004 V SCT P0010 T01940183=
202010101049 SPECI KATL 101049Z 09006KT 2SM R09R/6000VP6000FT -RA BR BKN004 BKN009 OVC019 19/18 A3001 RMK AO2 SFC VIS 2 1/2 BKN004 V SCT P0007=
202010100952 METAR KATL 100952Z 08009KT 1SM R09R/P6000FT RA BR BKN003 BKN009TCU OVC015 19/18 A3001 RMK AO2 SFC VIS 2 1/2 SLP156 BKN003 V SCT TCU NE TWRINC P0014 T01890183=
202010100942 SPECI KATL 100942Z 08009KT 2 1/2SM RA BR BKN003 BKN009TCU OVC015 19/18 A3001 RMK AO2 BKN003 V SCT TCU NE-SE P0011 T01890183=
202010100927 SPECI KATL 100927Z 08009KT 1 1/2SM +RA BR BKN003 BKN009TCU OVC018 19/18 A3002 RMK AO2 BKN003 V SCT TCU ALQDS P0007 T01890183=
202010100918 SPECI KATL 100918Z 08009KT 2SM RA BR SCT004 BKN009 OVC016 19/18 A3002 RMK AO2 P0002 T01890183=
202010100905 SPECI KATL 100905Z 08009KT 4SM -RA BR SCT004 OVC012 19/18 A3003 RMK AO2 VIS SE-SW2 SCT004 V BKN P0000 T01890183=
202010100852 METAR KATL 100852Z 07008KT 3SM -RA BR BKN004 BKN013 OVC027 19/18 A3004 RMK AO2 SLP165 P0008 60023 T01890183 58015=
202010100844 SPECI KATL 100844Z 07010KT 1 1/2SM +RA BR BKN004 OVC013 19/18 A3004 RMK AO2 P0003 T01890183=
202010100752 METAR KATL 100752Z 08006KT 3SM -RA BR OVC004 19/18 A3005 RMK AO2 SLP171 CIG 003V005 P0005 T01890178=
202010100710 SPECI KATL 100710Z 08009KT 3SM -RA BR OVC004 18/18 A3006 RMK AO2 CIG 003V005 P0002 T01830178=
202010100652 METAR KATL 100652Z 08009KT 2SM RA BR BKN004 OVC015 18/18 A3006 RMK AO2 SLP174 CIG 003V005 P0010 T01830178=
202010100650 SPECI KATL 100650Z 08008KT 2SM RA BR BKN004 OVC015 18/18 A3006 RMK AO2 CIG 003V005 P0009=
202010100622 SPECI KATL 100622Z 09009KT 2SM RA BR BKN005 BKN015 OVC045 18/17 A3007 RMK AO2 CIG 004V006 P0003 T01830172=
202010100552 METAR KATL 100552Z 08009KT 5SM -RA BR BKN005 BKN015 OVC045 18/17 A3008 RMK AO2 SLP180 CIG 004V006 P0001 60005 T01830172 10194 20183 58013=
202010100452 METAR KATL 100452Z 09011KT 4SM -RA BR BKN005 OVC050 18/17 A3010 RMK AO2 SLP186 CIG 004V007 P0001 T01830172 402390183=
202010100352 METAR KATL 100352Z 09009KT 4SM -RA BR BKN005 OVC015 18/17 A3012 RMK AO2 SLP192 CIG 004V007 P0002 T01830172=
202010100252 METAR KATL 100252Z 08010KT 6SM -RA BR BKN006 BKN055 OVC070 18/17 A3012 RMK AO2 SLP192 P0000 60001 T01830172 58003=
202010100152 METAR KATL 100152Z 06010KT 5SM -RA BR SCT005 BKN035 OVC060 18/17 A3013 RMK AO2 RAB20 SLP195 SCT005 V BKN P0001 T01830172=
202010100120 SPECI KATL 100120Z 08009KT 6SM -RA BR BKN006 BKN032 OVC060 19/17 A3013 RMK AO2 RAB20 P0000 T01890172=
202010100052 METAR KATL 100052Z 08011KT 10SM SCT007 BKN060 OVC100 19/17 A3012 RMK AO2 RAE03 SLP194 P0000 T01890172=
202010092352 METAR KATL 092352Z 06012KT 9SM -RA FEW008 BKN075 OVC110 19/17 A3013 RMK AO2 RAE2258B31 SLP196 PCPN VRY LGT P0000 60008 T01940172 10222 20194 53009=
202010092252 METAR KATL 092252Z 07010KT 7SM -RA FEW008 BKN085 OVC120 19/17 A3012 RMK AO2 SLP193 P0001 T01940172=
202010092152 METAR KATL 092152Z 06012KT 7SM -RA FEW008 BKN090 OVC130 20/18 A3010 RMK AO2 RAB11 SLP188 P0001 T02000183=
202010092052 METAR KATL 092052Z 05009KT 7SM OVC080 21/19 A3010 RMK AO2 SLP186 60006 T02110189 56020=
202010091952 METAR KATL 091952Z 07012KT 8SM OVC110 21/19 A3011 RMK AO2 RAE41 SLP189 P0001 T02110189=
202010091852 METAR KATL 091852Z 06011KT 7SM -RA FEW075 OVC110 21/19 A3013 RMK AO2 SLP195 P0005 T02110189=
202010091752 METAR KATL 091752Z 08009KT 7SM -RA FEW015 SCT050 OVC100 22/19 A3016 RMK AO2 RAB06 SLP206 P0001 60001 T02220189 10239 20200 58002=
202010091718 SPECI KATL 091718Z 08009KT 10SM -RA FEW016 BKN033 BKN110 OVC250 23/19 A3017 RMK AO2 RAB06 P0000 T02280189=
202010091652 METAR KATL 091652Z 09007KT 10SM BKN023 BKN150 OVC250 23/18 A3018 RMK AO2 SLP211 T02330178=
202010091552 METAR KATL 091552Z 10008KT 10SM BKN140 BKN250 24/17 A3017 RMK AO2 SLP208 T02390172=
202010091452 METAR KATL 091452Z 09010KT 10SM FEW040 SCT150 BKN250 23/17 A3017 RMK AO2 SLP206 T02330167 51011=
202010091352 METAR KATL 091352Z 09008KT 10SM FEW045 SCT150 OVC250 21/16 A3017 RMK AO2 SLP208 T02110161=
202010091252 METAR KATL 091252Z 08006KT 10SM FEW035 FEW045 SCT150 BKN170 BKN250 21/16 A3015 RMK AO2 SLP202 T02060161=
202010091152 METAR KATL 091152Z 08009KT 10SM FEW035 SCT150 BKN170 BKN240 20/16 A3013 RMK AO2 SLP196 T02000161 10217 20200 53009=
202010091052 METAR KATL 091052Z 06008KT 10SM BKN150 BKN170 21/16 A3012 RMK AO2 SLP190 T02060161=
202010090952 METAR KATL 090952Z 11004KT 10SM BKN160 BKN200 21/16 A3011 RMK AO2 SLP186 T02060161=
202010090852 METAR KATL 090852Z 09005KT 10SM FEW150 SCT170 BKN210 21/16 A3010 RMK AO2 SLP185 T02060161 50003=
202010090752 METAR KATL 090752Z 09003KT 10SM BKN160 OVC250 21/16 A3011 RMK AO2 SLP185 T02110161=
202010090652 METAR KATL 090652Z 08004KT 10SM BKN180 OVC250 22/16 A3010 RMK AO2 SLP184 T02170161=
202010090552 METAR KATL 090552Z 11003KT 10SM BKN180 OVC250 22/17 A3009 RMK AO2 SLP180 T02170167 10239 20217 58006=
202010090452 METAR KATL 090452Z 12003KT 10SM BKN180 OVC250 22/17 A3010 RMK AO2 SLP185 T02220167 402940150=
202010090352 METAR KATL 090352Z 08005KT 10SM BKN180 BKN250 22/17 A3011 RMK AO2 SLP186 T02220172=
202010090252 METAR KATL 090252Z 00000KT 10SM BKN150 BKN200 BKN250 23/16 A3011 RMK AO2 SLP189 T02280161 51008=
202010090152 METAR KATL 090152Z 00000KT 10SM FEW150 BKN200 BKN250 22/17 A3011 RMK AO2 SLP190 T02220167=
202010090052 METAR KATL 090052Z 00000KT 10SM FEW150 BKN200 BKN250 23/16 A3011 RMK AO2 SLP188 T02330161=
202010082352 METAR KATL 082352Z 19003KT 10SM FEW150 BKN200 BKN250 24/16 A3009 RMK AO2 SLP182 T02390156 10294 20239 53006=
202010082252 METAR KATL 082252Z 00000KT 10SM FEW150 BKN200 BKN250 26/15 A3008 RMK AO2 SLP181 T02610150=
202010082152 METAR KATL 082152Z 01005KT 10SM FEW150 BKN200 BKN250 27/15 A3007 RMK AO2 SLP175 T02670150=
202010082052 METAR KATL 082052Z 35003KT 10SM FEW150 BKN200 BKN250 28/13 A3007 RMK AO2 SLP174 T02830128 56013=
202010081952 METAR KATL 081952Z 02006KT 10SM FEW150 BKN200 BKN250 29/13 A3007 RMK AO2 SLP174 T02890133=
202010081852 METAR KATL 081852Z 13004KT 10SM BKN200 BKN250 28/14 A3009 RMK AO2 SLP181 T02780139=
202010081752 METAR KATL 081752Z 00000KT 10SM BKN200 BKN250 28/13 A3011 RMK AO2 SLP186 T02830133 10283 20150 58009=
202010081652 METAR KATL 081652Z 12004KT 10SM BKN200 BKN250 26/14 A3013 RMK AO2 SLP193 T02610139=
202010081552 METAR KATL 081552Z 00000KT 10SM BKN200 BKN250 26/13 A3013 RMK AO2 SLP197 T02560133=
202010081452 METAR KATL 081452Z 34006KT 10SM FEW001 SCT200 BKN250 23/14 A3014 RMK AO2 SLP198 FU FEW001 FU PLUME S T02280139 51015=
202010081447 SPECI KATL 081447Z 35005KT 10SM FEW001 SCT200 BKN250 23/14 A3014 RMK AO2 FU FEW001 FU PLUME S=
202010081352 METAR KATL 081352Z 33006KT 10SM SCT200 BKN250 19/14 A3012 RMK AO2 SLP195 T01890144=
202010081252 METAR KATL 081252Z 31005KT 10SM FEW200 SCT250 SCT300 17/13 A3011 RMK AO2 SLP189 T01720133=
202010081152 METAR KATL 081152Z 30006KT 10SM FEW250 SCT300 15/12 A3009 RMK AO2 SLP185 T01500122 10183 20150 53006=
202010081052 METAR KATL 081052Z 30004KT 10SM FEW250 15/12 A3009 RMK AO2 SLP182 T01500122=
202010080952 METAR KATL 080952Z 30004KT 10SM FEW250 16/13 A3008 RMK AO2 SLP177 T01560128=
202010080852 METAR KATL 080852Z 28006KT 10SM CLR 16/13 A3007 RMK AO2 SLP176 T01560128 58001=
202010080752 METAR KATL 080752Z 29005KT 10SM CLR 17/13 A3007 RMK AO2 SLP175 T01670133=
202010080652 METAR KATL 080652Z 29003KT 10SM CLR 18/14 A3008 RMK AO2 SLP178 T01780139=
202010080552 METAR KATL 080552Z 31005KT 10SM FEW250 18/14 A3008 RMK AO2 SLP177 T01780144 10228 20178 58002=
202010080452 METAR KATL 080452Z 32004KT 10SM FEW250 18/14 A3009 RMK AO2 SLP180 T01830139 402830167=
202010080352 METAR KATL 080352Z 31004KT 10SM FEW250 19/14 A3009 RMK AO2 SLP182 T01890144=
202010080252 METAR KATL 080252Z 33004KT 10SM FEW250 20/14 A3008 RMK AO2 SLP180 T02000144 51008=
202010080152 METAR KATL 080152Z 31003KT 10SM FEW250 21/14 A3008 RMK AO2 SLP178 T02110144=
202010080052 METAR KATL 080052Z 32004KT 10SM FEW250 22/14 A3007 RMK AO2 SLP176 T02220144=
202010072352 METAR KATL 072352Z 33005KT 10SM FEW250 23/14 A3006 RMK AO2 SLP173 T02280144 10283 20228 53005=
202010072252 METAR KATL 072252Z 33005KT 10SM FEW250 25/15 A3006 RMK AO2 SLP171 T02500150=
202010072152 METAR KATL 072152Z 33007KT 10SM SCT250 27/16 A3005 RMK AO2 SLP167 T02670161=
202010072052 METAR KATL 072052Z 30008KT 10SM BKN250 28/16 A3005 RMK AO2 SLP166 T02780161 56017=
202010071952 METAR KATL 071952Z 26005KT 10SM FEW045 FEW150 BKN250 28/17 A3005 RMK AO2 SLP168 T02780167=
202010071852 METAR KATL 071852Z 28009KT 10SM FEW038 BKN250 28/16 A3007 RMK AO2 SLP174 T02780161=
202010071752 METAR KATL 071752Z 28005KT 10SM FEW034 27/17 A3010 RMK AO2 SLP184 T02670167 10272 20172 58009=
202010071652 METAR KATL 071652Z 31007KT 10SM SCT028 26/18 A3012 RMK AO2 SLP191 T02610183=
202010071552 METAR KATL 071552Z 27006KT 10SM SCT028 25/18 A3013 RMK AO2 SLP194 T02500183=
202010071452 METAR KATL 071452Z 29003KT 10SM FEW030 FEW250 23/18 A3013 RMK AO2 SLP194 T02280178 51009=
202010071352 METAR KATL 071352Z 31003KT 10SM FEW030 SCT250 21/17 A3012 RMK AO2 SLP193 T02110172=
202010071343 SPECI KATL 071343Z 32004KT 10SM SCT029 BKN250 21/17 A3013 RMK AO2 T02110172=
202010071325 SPECI KATL 071325Z 33005KT 10SM BKN028 BKN250 21/17 A3013 RMK AO2 T02060172=
202010071252 METAR KATL 071252Z 33004KT 10SM FEW012 FEW100 SCT200 SCT250 19/17 A3012 RMK AO2 SLP195 T01940167=
202010071152 METAR KATL 071152Z 00000KT 10SM FEW005 FEW010 FEW150 SCT250 17/16 A3010 RMK AO2 SLP186 T01720156 10194 20167 53012=
202010071052 METAR KATL 071052Z 32003KT 10SM FEW010 FEW200 SCT250 18/16 A3008 RMK AO2 SLP180 T01780156=
202010070952 METAR KATL 070952Z 32003KT 10SM FEW010 SCT250 18/16 A3007 RMK AO2 SLP176 T01780161 $=
202010070852 METAR KATL 070852Z 00000KT 10SM FEW010 SCT250 17/16 A3006 RMK AO2 SLP172 T01720156 56011 $=
202010070752 METAR KATL 070752Z 31003KT 10SM FEW200 SCT250 18/16 A3007 RMK AO2 SLP175 T01830161=
202010070652 METAR KATL 070652Z 30003KT 10SM FEW200 BKN250 19/17 A3008 RMK AO2 SLP180 T01890167=
202010070552 METAR KATL 070552Z 32003KT 10SM FEW200 SCT250 19/17 A3009 RMK AO2 SLP184 T01890167 10228 20189 58003=
202010070452 METAR KATL 070452Z 00000KT 10SM FEW200 SCT250 19/17 A3010 RMK AO2 SLP184 T01940167 402610139=
202010070352 METAR KATL 070352Z 00000KT 10SM SCT200 BKN250 20/17 A3010 RMK AO2 SLP187 T02000172=
202010070252 METAR KATL 070252Z 00000KT 10SM SCT200 BKN250 21/17 A3010 RMK AO2 SLP188 T02060172 50004=
202010070152 METAR KATL 070152Z 18003KT 10SM SCT200 BKN250 21/17 A3011 RMK AO2 SLP188 T02060172=
202010070052 METAR KATL 070052Z 23003KT 10SM FEW080 SCT200 BKN250 22/17 A3010 RMK AO2 SLP188 T02170172=
202010062352 METAR KATL 062352Z 18004KT 10SM FEW070 SCT200 BKN250 23/17 A3009 RMK AO2 SLP184 T02280172 10261 20228 53005=
202010062252 METAR KATL 062252Z 18003KT 10SM FEW038 SCT070 BKN250 24/17 A3008 RMK AO2 SLP181 T02390172=
202010062152 METAR KATL 062152Z 00000KT 10SM FEW042 FEW100 SCT250 26/15 A3007 RMK AO2 SLP178 T02560150=
202010062052 METAR KATL 062052Z 00000KT 10SM FEW002 FEW048 FEW100 SCT250 26/15 A3008 RMK AO2 SLP178 FU FEW002 FU PLUME SE T02610150 56018=
202010062048 SPECI KATL 062048Z 00000KT 10SM FEW002 FEW048 FEW100 SCT250 26/15 A3008 RMK AO2 FU FEW002 FU PLUME SE=
202010061952 METAR KATL 061952Z 16006KT 10SM FEW040 FEW055 SCT100 SCT250 26/14 A3009 RMK AO2 SLP183 T02560144=
202010061852 METAR KATL 061852Z 15006KT 10SM FEW050 SCT100 SCT250 24/14 A3011 RMK AO2 SLP189 T02440139=
202010061752 METAR KATL 061752Z 13007KT 10SM FEW060 FEW110 SCT250 24/12 A3013 RMK AO2 SLP196 T02440122 10244 20144 58016=
202010061652 METAR KATL 061652Z 11006KT 10SM FEW100 FEW250 23/12 A3015 RMK AO2 SLP205 ACC DSNT E SE T02330117=
202010061552 METAR KATL 061552Z 08009KT 10SM FEW110 FEW250 22/12 A3017 RMK AO2 SLP210 ACC DSNT SE S T02220122=
202010061452 METAR KATL 061452Z 11007KT 10SM FEW100 20/13 A3018 RMK AO2 SLP214 ACC DSNT S-SW T02000128 51007=
202010061352 METAR KATL 061352Z 08009KT 10SM FEW060 SCT085 SCT250 18/13 A3017 RMK AO2 SLP213 ACC DSNT S SW T01780128=
202010061252 METAR KATL 061252Z 09007KT 10SM FEW075 16/13 A3017 RMK AO2 SLP213 T01560128=
202010061152 METAR KATL 061152Z 06007KT 10SM FEW075 FEW250 14/12 A3016 RMK AO2 SLP207 ACC SE-SW T01440122 10161 20139 53007=
202010061052 METAR KATL 061052Z 06006KT 10SM FEW075 FEW250 14/12 A3015 RMK AO2 SLP205 T01390122=
202010060952 METAR KATL 060952Z 08006KT 10SM FEW250 15/13 A3014 RMK AO2 SLP199 T01500128=
202010060852 METAR KATL 060852Z 07005KT 10SM FEW250 15/12 A3013 RMK AO2 SLP198 T01500122 58006=
202010060752 METAR KATL 060752Z 11004KT 10SM FEW250 16/13 A3014 RMK AO2 SLP200 T01560128=
202010060652 METAR KATL 060652Z 10004KT 10SM FEW250 16/13 A3015 RMK AO2 SLP202 T01610128=
202010060552 METAR KATL 060552Z 09004KT 10SM FEW250 16/13 A3015 RMK AO2 SLP204 T01610133 10206 20161 51003=
202010060452 METAR KATL 060452Z 08004KT 10SM FEW250 17/13 A3015 RMK AO2 SLP204 T01720133 402500122=
202010060352 METAR KATL 060352Z 12004KT 10SM FEW250 17/14 A3015 RMK AO2 SLP205 T01720139=
202010060252 METAR KATL 060252Z 00000KT 10SM FEW250 17/14 A3014 RMK AO2 SLP202 T01720139 51007=
202010060152 METAR KATL 060152Z 13004KT 10SM FEW250 19/14 A3014 RMK AO2 SLP200 T01890139=
202010060052 METAR KATL 060052Z 12003KT 10SM FEW250 20/13 A3013 RMK AO2 SLP198 T02000133=
202010052352 METAR KATL 052352Z 12003KT 10SM FEW250 21/13 A3012 RMK AO2 SLP197 T02060133 10250 20206 53003=
202010052252 METAR KATL 052252Z 10005KT 10SM FEW250 23/12 A3011 RMK AO2 SLP193 T02280117=
202010052152 METAR KATL 052152Z 13004KT 10SM FEW250 24/12 A3011 RMK AO2 SLP191 T02390117=
202010052052 METAR KATL 052052Z 14005KT 10SM FEW250 24/11 A3011 RMK AO2 SLP191 T02440106 56016=
202010051952 METAR KATL 051952Z 06007KT 10SM FEW060 FEW250 25/11 A3012 RMK AO2 SLP193 T02500111=
202010051852 METAR KATL 051852Z 05006KT 10SM FEW200 FEW250 24/11 A3014 RMK AO2 SLP201 T02440111=
202010051752 METAR KATL 051752Z 07006KT 10SM FEW200 FEW250 23/11 A3016 RMK AO2 SLP209 T02330106 10239 20122 58016=
202010051652 METAR KATL 051652Z 07008KT 10SM FEW200 SCT250 23/11 A3019 RMK AO2 SLP217 T02280106=
202010051552 METAR KATL 051552Z 08008KT 10SM FEW200 SCT250 21/12 A3020 RMK AO2 SLP222 T02110117=
202010051452 METAR KATL 051452Z 07007KT 10SM FEW200 SCT250 19/12 A3021 RMK AO2 SLP226 T01940122 51016=
202010051352 METAR KATL 051352Z 05004KT 10SM SCT200 SCT250 17/12 A3020 RMK AO2 SLP223 T01720117=
202010051252 METAR KATL 051252Z 34006KT 10SM FEW200 SCT250 14/11 A3018 RMK AO2 SLP215 T01440111=
202010051152 METAR KATL 051152Z 33005KT 10SM FEW200 SCT250 12/11 A3016 RMK AO2 SLP211 T01220106 10144 20122 53010=
202010051052 METAR KATL 051052Z 33004KT 10SM FEW200 SCT250 12/11 A3015 RMK AO2 SLP206 T01220106=
202010050952 METAR KATL 050952Z 36004KT 10SM SCT250 14/11 A3014 RMK AO2 SLP202 T01390111=
202010050852 METAR KATL 050852Z 33007KT 10SM BKN250 14/12 A3013 RMK AO2 SLP199 T01390117 55001 $=
202010050752 METAR KATL 050752Z 31003KT 10SM BKN250 14/12 A3013 RMK AO2 SLP198 T01390117 $=
202010050652 METAR KATL 050652Z 00000KT 10SM BKN250 14/11 A3014 RMK AO2 SLP201 T01390111 $=
202010050552 METAR KATL 050552Z 00000KT 10SM BKN250 14/12 A3014 RMK AO2 SLP201 T01440117 10194 20139 55005 $=
202010050452 METAR KATL 050452Z 00000KT 10SM BKN250 14/12 A3013 RMK AO2 SLP200 T01440117 402390122 $=
202010050352 METAR KATL 050352Z 00000KT 10SM FEW200 BKN250 16/12 A3015 RMK AO2 SLP204 T01560117 $=
202010050252 METAR KATL 050252Z 00000KT 10SM FEW200 BKN250 16/12 A3015 RMK AO2 SLP207 T01610117 51006 $=
202010050152 METAR KATL 050152Z 00000KT 10SM FEW200 BKN250 17/12 A3014 RMK AO2 SLP205 T01670117=
202010050052 METAR KATL 050052Z 32003KT 10SM FEW200 BKN250 19/11 A3014 RMK AO2 SLP203 T01890106=
202010042352 METAR KATL 042352Z 32005KT 10SM FEW200 BKN250 19/10 A3013 RMK AO2 SLP201 T01940100 10222 20194 53009=
202010042252 METAR KATL 042252Z 34004KT 10SM SCT200 BKN250 21/09 A3011 RMK AO2 SLP192 T02060094=
202010042152 METAR KATL 042152Z 33006KT 10SM SCT200 BKN250 21/09 A3010 RMK AO2 SLP190 T02110094=
202010042052 METAR KATL 042052Z 23005KT 10SM FEW200 BKN250 22/10 A3011 RMK AO2 SLP191 T02170100 56023=
202010041952 METAR KATL 041952Z 00000KT 10SM BKN250 22/10 A3011 RMK AO2 SLP193 T02170100=
202010041852 METAR KATL 041852Z VRB03KT 10SM BKN250 21/09 A3014 RMK AO2 SLP201 T02110089=
202010041752 METAR KATL 041752Z 00000KT 10SM BKN250 21/08 A3018 RMK AO2 SLP215 T02060083 10206 20122 58008=
202010041652 METAR KATL 041652Z 04007KT 10SM BKN250 20/09 A3019 RMK AO2 SLP220 T02000089=
202010041552 METAR KATL 041552Z 05007KT 10SM BKN250 19/09 A3021 RMK AO2 SLP225 T01890089=
202010041452 METAR KATL 041452Z 10005KT 10SM BKN250 17/09 A3020 RMK AO2 SLP224 T01720094 51008=
202010041352 METAR KATL 041352Z 08007KT 10SM BKN250 15/09 A3020 RMK AO2 SLP224 T01500089=
202010041252 METAR KATL 041252Z 04009KT 10SM FEW150 BKN250 13/08 A3019 RMK AO2 SLP222 T01330083=
202010041152 METAR KATL 041152Z 05007KT 10SM BKN250 12/08 A3018 RMK AO2 SLP217 T01220083 10133 20122 51007=
202010041052 METAR KATL 041052Z 05006KT 10SM BKN250 12/08 A3018 RMK AO2 SLP216 T01220078=
202010040952 METAR KATL 040952Z 05005KT 10SM BKN250 13/08 A3016 RMK AO2 SLP211 T01280078=
202010040852 METAR KATL 040852Z 07004KT 10SM BKN250 12/08 A3016 RMK AO2 SLP209 T01220078 57006=
202010040752 METAR KATL 040752Z 06004KT 10SM BKN250 13/08 A3016 RMK AO2 SLP208 T01330083=
202010040652 METAR KATL 040652Z 09005KT 10SM BKN250 13/08 A3017 RMK AO2 SLP214 T01280083=
202010040552 METAR KATL 040552Z 09005KT 10SM BKN250 13/08 A3017 RMK AO2 SLP214 T01330083 10183 20133 58004=
202010040452 METAR KATL 040452Z 08005KT 10SM BKN250 13/09 A3018 RMK AO2 SLP217 T01330089 402170094=
202010040352 METAR KATL 040352Z 09006KT 10SM SCT250 14/09 A3019 RMK AO2 SLP220 T01440089=
202010040252 METAR KATL 040252Z 08008KT 10SM SCT250 16/09 A3019 RMK AO2 SLP219 T01560089 51011=
202010040152 METAR KATL 040152Z 08007KT 10SM FEW250 17/08 A3019 RMK AO2 SLP220 T01670083=
202010040052 METAR KATL 040052Z 09005KT 10SM FEW250 17/08 A3017 RMK AO2 SLP214 T01670083=
202010032352 METAR KATL 032352Z 10004KT 10SM FEW250 18/07 A3015 RMK AO2 SLP208 T01830067 10217 20183 53002=
202010032252 METAR KATL 032252Z 09006KT 10SM FEW060 FEW250 19/07 A3014 RMK AO2 SLP205 T01890067=
202010032152 METAR KATL 032152Z 07005KT 10SM FEW060 FEW250 21/06 A3014 RMK AO2 SLP203 T02060061=
202010032052 METAR KATL 032052Z VRB03KT 10SM FEW060 FEW250 21/06 A3015 RMK AO2 SLP206 T02110061 56011=
202010031952 METAR KATL 031952Z 11008KT 10SM FEW060 22/07 A3015 RMK AO2 SLP208 T02170067=
202010031852 METAR KATL 031852Z 09007KT 10SM FEW055 21/07 A3017 RMK AO2 SLP212 T02110067=
202010031752 METAR KATL 031752Z 00000KT 10SM FEW055 21/07 A3018 RMK AO2 SLP217 T02060067 10206 20106 57008=
202010031652 METAR KATL 031652Z 09007KT 10SM FEW050 20/08 A3019 RMK AO2 SLP219 T02000078=
202010031552 METAR KATL 031552Z 12009KT 10SM CLR 18/07 A3020 RMK AO2 SLP223 T01830067=
202010031452 METAR KATL 031452Z 08007KT 10SM CLR 17/08 A3021 RMK AO2 SLP226 T01670083 51011=
202010031352 METAR KATL 031352Z 09006KT 10SM FEW250 14/08 A3020 RMK AO2 SLP226 T01390078=
202010031252 METAR KATL 031252Z 06007KT 10SM FEW250 12/07 A3019 RMK AO2 SLP222 T01220072=
202010031152 METAR KATL 031152Z 05006KT 10SM FEW250 11/07 A3017 RMK AO2 SLP216 T01110067 10117 20094 53013=
202010031052 METAR KATL 031052Z 02005KT 10SM FEW250 11/07 A3016 RMK AO2 SLP210 T01060067=
202010030952 METAR KATL 030952Z 01004KT 10SM FEW250 11/07 A3014 RMK AO2 SLP203 T01060067=
202010030852 METAR KATL 030852Z 33006KT 10SM FEW250 10/07 A3013 RMK AO2 SLP201 T01000067 53001=
202010030752 METAR KATL 030752Z 33006KT 10SM FEW250 10/07 A3013 RMK AO2 SLP201 T01000067=
202010030652 METAR KATL 030652Z 33004KT 10SM FEW250 11/07 A3012 RMK AO2 SLP198 T01110067=
202010030552 METAR KATL 030552Z 33004KT 10SM FEW250 11/07 A3013 RMK AO2 SLP200 T01110067 10161 20111 58001=
202010030452 METAR KATL 030452Z 35004KT 10SM FEW250 13/06 A3013 RMK AO2 SLP199 T01330061 402060100=
202010030352 METAR KATL 030352Z 35005KT 10SM FEW250 13/06 A3013 RMK AO2 SLP200 T01330061=
202010030252 METAR KATL 030252Z VRB06G19KT 10SM FEW250 14/06 A3013 RMK AO2 SLP201 T01390061 51012=
202010030152 METAR KATL 030152Z 33006KT 10SM FEW250 14/06 A3012 RMK AO2 SLP198 T01390061=
202010030052 METAR KATL 030052Z 32006KT 10SM FEW250 14/06 A3011 RMK AO2 SLP194 T01440056=
202010022352 METAR KATL 022352Z 32008KT 10SM FEW250 16/05 A3009 RMK AO2 SLP189 T01610050 10206 20161 53008=
202010022252 METAR KATL 022252Z 32010KT 10SM FEW250 18/04 A3008 RMK AO2 SLP185 T01830039=
202010022152 METAR KATL 022152Z 33009KT 10SM FEW075 FEW250 20/04 A3007 RMK AO2 SLP180 T02000039=
202010022052 METAR KATL 022052Z 36008G14KT 10SM FEW075 21/04 A3007 RMK AO2 SLP179 T02060039 56012=
202010021952 METAR KATL 021952Z 36006G14KT 10SM FEW080 21/03 A3008 RMK AO2 SLP182 T02060033=
202010021852 METAR KATL 021852Z 31007KT 10SM FEW003 FEW070 21/04 A3009 RMK AO2 SLP184 FU FEW003 FU PLUME E T02060044=
202010021752 METAR KATL 021752Z 32007KT 10SM CLR 20/03 A3010 RMK AO2 SLP190 T02000033 10200 20100 58013=
202010021652 METAR KATL 021652Z 34011KT 10SM CLR 19/01 A3012 RMK AO2 SLP196 T01940011=
202010021552 METAR KATL 021552Z 36011G21KT 10SM CLR 18/01 A3013 RMK AO2 SLP200 T01830011=
202010021452 METAR KATL 021452Z 34010KT 10SM CLR 17/06 A3014 RMK AO2 SLP203 T01720056 51014=
202010021352 METAR KATL 021352Z 32007KT 10SM FEW200 14/07 A3014 RMK AO2 SLP202 T01440067=
202010021252 METAR KATL 021252Z 32009KT 10SM CLR 12/07 A3012 RMK AO2 SLP199 T01170067=
202010021152 METAR KATL 021152Z 32006KT 10SM CLR 10/07 A3010 RMK AO2 SLP191 T01000067 10139 20100 53012=
202010021052 METAR KATL 021052Z 32008KT 10SM FEW250 11/07 A3009 RMK AO2 SLP185 T01060067=
202010020952 METAR KATL 020952Z 32007KT 10SM CLR 11/07 A3007 RMK AO2 SLP179 T01060067=
202010020852 METAR KATL 020852Z 32007KT 10SM CLR 12/07 A3007 RMK AO2 SLP176 T01170067 52001=
202010020752 METAR KATL 020752Z 32009KT 10SM CLR 12/07 A3006 RMK AO2 SLP174 T01220067=
202010020652 METAR KATL 020652Z 33008KT 10SM CLR 13/07 A3007 RMK AO2 SLP175 T01330072=
202010020552 METAR KATL 020552Z 32008G17KT 10SM CLR 14/07 A3006 RMK AO2 SLP174 T01390072 10211 20139 51004=
202010020452 METAR KATL 020452Z 32008KT 10SM CLR 15/08 A3006 RMK AO2 SLP173 T01500078 402670128=
202010020352 METAR KATL 020352Z 33007KT 10SM CLR 16/08 A3006 RMK AO2 SLP173 T01560078=
202010020252 METAR KATL 020252Z 33008KT 10SM CLR 17/08 A3005 RMK AO2 SLP170 T01670078 51019=
202010020152 METAR KATL 020152Z 34011KT 10SM CLR 18/09 A3004 RMK AO2 SLP168 T01830089=
202010020052 METAR KATL 020052Z 32010KT 10SM FEW048 FEW250 19/12 A3002 RMK AO2 SLP161 T01940117=
202010012352 METAR KATL 012352Z 31009KT 10SM FEW048 FEW250 21/12 A2999 RMK AO2 SLP152 T02110122 10267 20211 53009=
202010012252 METAR KATL 012252Z 32008G19KT 10SM FEW048 FEW250 23/14 A2998 RMK AO2 SLP149 T02280139=
202010012152 METAR KATL 012152Z 30014KT 10SM SCT048 SCT250 25/14 A2997 RMK AO2 SLP142 T02500139=
202010012052 METAR KATL 012052Z 30010KT 10SM FEW050 SCT250 26/14 A2997 RMK AO2 SLP141 T02610144 56020=
202010011952 METAR KATL 011952Z 28008G19KT 10SM FEW060 SCT250 27/14 A2998 RMK AO2 SLP144 T02670139=
202010011852 METAR KATL 011852Z 29009KT 10SM FEW055 SCT250 26/13 A3000 RMK AO2 SLP152 T02610133=
202010011752 METAR KATL 011752Z 24008KT 10SM SCT250 25/13 A3003 RMK AO2 SLP162 T02500128 10250 20133 58013=
202010011652 METAR KATL 011652Z 26008KT 10SM SCT250 24/12 A3005 RMK AO2 SLP171 T02390122 $=
202010011552 METAR KATL 011552Z 27010G18KT 10SM FEW250 23/12 A3006 RMK AO2 SLP174 T02280117 $=
202010011452 METAR KATL 011452Z 26006KT 10SM FEW250 22/12 A3006 RMK AO2 SLP176 T02170117 53005 $=
202010011352 METAR KATL 011352Z 24007KT 10SM CLR 19/12 A3006 RMK AO2 SLP175 T01890122 $=
202010011252 METAR KATL 011252Z 26004KT 10SM FEW250 16/12 A3005 RMK AO2 SLP171 T01560117 $=
