##########################################################
# Query made at 04/20/2024 00:08:40 UTC
# Time interval: from 01/01/2020 12:00  to 01/31/2020 12:59  UTC
##########################################################

##########################################################
# KATL, Atlanta, Hartsfield - Jackson Atlanta International Airport (United States)
# WMO index: 72219. WIGOS ID: 0-20000-0-72219
# Latitude 33-38-59N. Longitude 084-25-00W. Altitude 312 m.
##########################################################

202001311252 METAR KATL 311252Z 09008KT 10SM SCT065 BKN110 OVC140 05/02 A3016 RMK AO2 RAE24 SLP218 P0001 T00500022=
202001311152 METAR KATL 311152Z 09010KT 7SM -RA BKN048 OVC075 06/02 A3018 RMK AO2 RAB26 SLP223 P0001 60001 70001 T00610022 10072 20061 53009=
202001311052 METAR KATL 311052Z 07010KT 10SM SCT055 BKN095 OVC130 06/02 A3015 RMK AO2 SLP213 VIRGA OHD-ALQDS T00610017=
202001310952 METAR KATL 310952Z 09008KT 10SM SCT070 OVC150 06/02 A3016 RMK AO2 SLP215 VIRGA SE-SW ACC SE-SW-W T00610022=
202001310852 METAR KATL 310852Z 09011KT 10SM FEW150 BKN200 OVC250 06/02 A3015 RMK AO2 SLP211 T00610022 55002=
202001310752 METAR KATL 310752Z 09010KT 10SM FEW150 BKN200 BKN250 06/03 A3014 RMK AO2 SLP208 T00610028=
202001310652 METAR KATL 310652Z 09007KT 10SM FEW150 BKN200 OVC250 07/03 A3015 RMK AO2 SLP213 T00670028=
202001310552 METAR KATL 310552Z 09007KT 10SM SCT200 BKN250 07/03 A3016 RMK AO2 SLP214 T00720028 10117 20067 50003=
202001310452 METAR KATL 310452Z 08007KT 10SM BKN250 07/03 A3016 RMK AO2 SLP215 T00720028 401500044=
202001310352 METAR KATL 310352Z 10007KT 10SM BKN250 09/03 A3016 RMK AO2 SLP214 T00890028=
202001310252 METAR KATL 310252Z 10006KT 10SM BKN250 08/03 A3015 RMK AO2 SLP211 T00830028 51009=
202001310152 METAR KATL 310152Z 09009KT 10SM SCT250 09/03 A3014 RMK AO2 SLP210 T00940028=
202001310052 METAR KATL 310052Z 10006KT 10SM SCT250 11/03 A3013 RMK AO2 SLP208 T01060028=
202001302352 METAR KATL 302352Z 10008KT 10SM FEW045 SCT250 12/03 A3012 RMK AO2 SLP202 T01170028 10150 20111 51011=
202001302252 METAR KATL 302252Z 10007KT 10SM FEW045 SCT250 13/03 A3011 RMK AO2 SLP198 T01280028=
202001302152 METAR KATL 302152Z 09007KT 10SM FEW044 14/03 A3010 RMK AO2 SLP194 T01390033=
202001302052 METAR KATL 302052Z 05007KT 10SM FEW042 14/03 A3008 RMK AO2 SLP189 T01440033 56010=
202001301952 METAR KATL 301952Z 11007KT 10SM FEW040 15/04 A3009 RMK AO2 SLP189 T01500039=
202001301852 METAR KATL 301852Z VRB04KT 10SM FEW036 13/04 A3010 RMK AO2 SLP196 T01330039=
202001301752 METAR KATL 301752Z 07007G16KT 10SM FEW031 13/04 A3011 RMK AO2 SLP199 T01280039 10128 20050 58011=
202001301652 METAR KATL 301652Z 07009KT 10SM SCT026 12/04 A3015 RMK AO2 SLP211 T01170044=
202001301552 METAR KATL 301552Z 09007KT 10SM FEW024 10/04 A3016 RMK AO2 SLP215 T01000039=
202001301452 METAR KATL 301452Z 07008KT 10SM CLR 08/03 A3015 RMK AO2 SLP212 T00780028 51015=
202001301352 METAR KATL 301352Z 09007KT 10SM CLR 06/02 A3013 RMK AO2 SLP207 T00610017=
202001301252 METAR KATL 301252Z 06009KT 10SM CLR 05/01 A3012 RMK AO2 SLP204 T00500011=
202001301152 METAR KATL 301152Z 05007KT 10SM CLR 05/01 A3010 RMK AO2 SLP197 T00500006 10067 20044 53021=
202001301052 METAR KATL 301052Z 04007KT 9SM CLR 04/01 A3007 RMK AO2 SLP187 T00440006=
202001300952 METAR KATL 300952Z 05006KT 10SM CLR 05/01 A3005 RMK AO2 SLP181 T00500006=
202001300852 METAR KATL 300852Z 04006KT 10SM CLR 06/01 A3004 RMK AO2 SLP174 T00560011 51002=
202001300752 METAR KATL 300752Z 04008KT 10SM FEW250 06/01 A3003 RMK AO2 SLP173 T00560011=
202001300652 METAR KATL 300652Z 02004KT 10SM FEW100 FEW250 06/01 A3004 RMK AO2 SLP175 T00560006=
202001300552 METAR KATL 300552Z 36007KT 10SM FEW100 FEW250 07/01 A3003 RMK AO2 SLP172 T00670011 10100 20067 58000=
202001300452 METAR KATL 300452Z 04007KT 10SM FEW100 FEW250 07/01 A3004 RMK AO2 SLP174 T00720011 401110056=
202001300352 METAR KATL 300352Z 04007KT 10SM FEW100 SCT250 08/01 A3003 RMK AO2 SLP173 T00830011=
202001300252 METAR KATL 300252Z 04007KT 10SM BKN100 BKN200 09/01 A3003 RMK AO2 SLP172 T00890011 51008=
202001300152 METAR KATL 300152Z 07007KT 10SM BKN090 BKN200 09/01 A3003 RMK AO2 SLP170 T00890011=
202001300052 METAR KATL 300052Z 07006KT 10SM BKN095 OVC130 09/01 A3003 RMK AO2 SLP170 T00940011=
202001292352 METAR KATL 292352Z 07007KT 10SM FEW090 BKN130 OVC200 09/01 A3001 RMK AO2 PRESRR SLP164 T00940011 10111 20094 53012=
202001292252 METAR KATL 292252Z 06010KT 10SM FEW090 BKN130 BKN250 10/01 A2997 RMK AO2 SLP150 T01000006=
202001292152 METAR KATL 292152Z 05009KT 10SM SCT080 BKN140 OVC250 11/00 A2997 RMK AO2 SLP150 T01060000=
202001292052 METAR KATL 292052Z 06004KT 10SM FEW060 BKN075 OVC100 11/00 A2997 RMK AO2 SLP152 T01060000 58007=
202001291952 METAR KATL 291952Z 06005KT 10SM BKN075 OVC090 11/01 A2998 RMK AO2 SLP156 T01060006=
202001291852 METAR KATL 291852Z 08006KT 10SM FEW080 BKN100 OVC200 11/01 A2999 RMK AO2 SLP158 T01110006=
202001291752 METAR KATL 291752Z 06009KT 10SM BKN110 OVC200 11/01 A3000 RMK AO2 SLP160 T01060011 10106 20056 58011=
202001291652 METAR KATL 291652Z 09005KT 10SM BKN110 OVC250 10/01 A3002 RMK AO2 SLP170 T01000006=
202001291552 METAR KATL 291552Z 07008KT 10SM BKN110 OVC200 09/00 A3002 RMK AO2 SLP170 T00890000=
202001291452 METAR KATL 291452Z 08010KT 10SM SCT100 OVC200 08/00 A3003 RMK AO2 SLP170 T00830000 50008=
202001291352 METAR KATL 291352Z 07007KT 10SM BKN100 BKN200 BKN250 07/01 A3004 RMK AO2 SLP174 T00720006=
202001291252 METAR KATL 291252Z 09004KT 10SM SCT085 SCT110 BKN200 BKN250 07/01 A3003 RMK AO2 SLP173 VIRGA NE-SE-SW T00670006=
202001291152 METAR KATL 291152Z 07003KT 10SM BKN110 07/01 A3001 RMK AO2 SLP163 T00670006 10083 20056 51001=
202001291052 METAR KATL 291052Z 00000KT 10SM FEW100 BKN150 07/00 A3001 RMK AO2 SLP162 T00720000=
202001290952 METAR KATL 290952Z 00000KT 10SM FEW100 BKN140 BKN200 06/01 A3001 RMK AO2 SLP163 T00560006=
202001290852 METAR KATL 290852Z 04003KT 10SM BKN100 07/00 A3000 RMK AO2 SLP160 T00720000 58005=
202001290752 METAR KATL 290752Z 00000KT 10SM BKN110 07/01 A3002 RMK AO2 SLP168 T00670011=
202001290652 METAR KATL 290652Z 00000KT 10SM SCT120 SCT250 06/01 A3002 RMK AO2 SLP166 T00560006=
202001290552 METAR KATL 290552Z 00000KT 10SM SCT120 BKN250 07/00 A3002 RMK AO2 SLP166 T00720000 10111 20067 50000=
202001290452 METAR KATL 290452Z 00000KT 10SM FEW120 SCT250 08/00 A3003 RMK AO2 SLP169 T00780000 401500028=
202001290352 METAR KATL 290352Z 00000KT 10SM FEW120 SCT250 08/01 A3002 RMK AO2 SLP167 T00780006=
202001290252 METAR KATL 290252Z 02005KT 10SM SCT250 11/M01 A3002 RMK AO2 SLP168 T01061006 51004=
202001290152 METAR KATL 290152Z 35004KT 10SM SCT250 11/M01 A3002 RMK AO2 SLP168 T01061006=
202001290052 METAR KATL 290052Z 34005KT 10SM SCT250 11/00 A3001 RMK AO2 SLP167 T01060000=
202001282352 METAR KATL 282352Z 33005KT 10SM SCT250 11/M01 A3001 RMK AO2 SLP164 T01111006 10150 20111 53007=
202001282252 METAR KATL 282252Z 32007KT 10SM FEW250 12/M01 A3000 RMK AO2 SLP162 T01221006=
202001282152 METAR KATL 282152Z 33010KT 10SM FEW065 FEW250 14/M01 A2999 RMK AO2 SLP158 T01391011=
202001282052 METAR KATL 282052Z 36012G18KT 10SM FEW065 14/M02 A2998 RMK AO2 SLP156 T01441017 55013=
202001281952 METAR KATL 281952Z 35008KT 10SM FEW060 FEW200 14/M02 A2998 RMK AO2 SLP154 T01441017=
202001281852 METAR KATL 281852Z 30006G18KT 10SM FEW250 14/M01 A3000 RMK AO2 SLP161 T01391006=
202001281752 METAR KATL 281752Z 33006KT 10SM FEW250 13/01 A3002 RMK AO2 SLP168 T01330011 10133 20028 58013=
202001281652 METAR KATL 281652Z 31008KT 10SM FEW250 12/02 A3005 RMK AO2 SLP179 T01170017=
202001281552 METAR KATL 281552Z 32008KT 10SM FEW250 10/02 A3007 RMK AO2 SLP184 T01000022=
202001281452 METAR KATL 281452Z 31007KT 10SM FEW250 07/03 A3006 RMK AO2 SLP183 T00720028 53015=
202001281352 METAR KATL 281352Z 31008KT 10SM CLR 05/02 A3004 RMK AO2 SLP178 T00500022=
202001281252 METAR KATL 281252Z 30006KT 10SM CLR 03/01 A3003 RMK AO2 SLP172 T00280006=
202001281152 METAR KATL 281152Z 30004KT 10SM CLR 03/01 A3001 RMK AO2 SLP168 T00280011 10050 20028 53011=
202001281052 METAR KATL 281052Z 28005KT 10SM CLR 03/01 A3000 RMK AO2 SLP162 T00330011=
202001280952 METAR KATL 280952Z 29005KT 10SM CLR 04/02 A2998 RMK AO2 SLP156 T00390017=
202001280852 METAR KATL 280852Z 32007KT 10SM CLR 03/02 A2998 RMK AO2 SLP155 T00330017 56002=
202001280752 METAR KATL 280752Z 30006KT 10SM CLR 04/02 A2998 RMK AO2 SLP157 T00390017=
202001280652 METAR KATL 280652Z 30006KT 10SM CLR 04/02 A2998 RMK AO2 SLP155 T00390022=
202001280552 METAR KATL 280552Z 30006KT 10SM CLR 05/03 A2999 RMK AO2 SLP156 T00500028 10083 20050 50001=
202001280452 METAR KATL 280452Z 29006KT 10SM CLR 06/03 A3000 RMK AO2 SLP161 T00560028 401170056=
202001280352 METAR KATL 280352Z 29006KT 10SM CLR 06/03 A2999 RMK AO2 SLP159 T00610033=
202001280252 METAR KATL 280252Z 28007KT 10SM CLR 07/03 A2998 RMK AO2 SLP156 T00670033 51011=
202001280152 METAR KATL 280152Z 27006KT 10SM CLR 07/03 A2997 RMK AO2 SLP153 T00720033=
202001280052 METAR KATL 280052Z 27006KT 10SM CLR 08/03 A2996 RMK AO2 SLP149 T00780033=
202001272352 METAR KATL 272352Z 28006KT 10SM FEW030 08/04 A2995 RMK AO2 SLP144 T00830039 10111 20083 53008=
202001272252 METAR KATL 272252Z 30008KT 10SM FEW020 SCT032 10/04 A2994 RMK AO2 SLP140 T01000044=
202001272152 METAR KATL 272152Z 30011KT 10SM FEW020 SCT029 BKN038 11/06 A2993 RMK AO2 SLP136 SCT029 V BKN T01060056=
202001272149 SPECI KATL 272149Z 31011KT 10SM FEW020 SCT029 BKN038 11/06 A2993 RMK AO2 SCT029 V BKN=
202001272052 METAR KATL 272052Z 31008KT 10SM FEW015 BKN020 OVC028 11/06 A2992 RMK AO2 SLP135 BINOVC T01060061 55004=
202001271952 METAR KATL 271952Z 31007KT 10SM BKN015 OVC024 10/06 A2991 RMK AO2 SLP130 T01000061=
202001271852 METAR KATL 271852Z 29009KT 10SM BKN016 OVC025 11/06 A2992 RMK AO2 SLP133 T01060061=
202001271817 SPECI KATL 271817Z 29010KT 10SM BKN017 BKN025 OVC038 11/07 A2993 RMK AO2 T01110067=
202001271752 METAR KATL 271752Z 31013KT 10SM BKN013 BKN036 BKN047 11/07 A2994 RMK AO2 SLP139 BKN013 V SCT T01110067 10117 20072 58011=
202001271652 METAR KATL 271652Z 29009KT 10SM OVC013 10/06 A2997 RMK AO2 SLP150 T01000061=
202001271621 SPECI KATL 271621Z 29012KT 10SM BKN010 BKN015 10/06 A2997 RMK AO2 T01000061=
202001271552 METAR KATL 271552Z 29009KT 10SM BKN009 OVC015 10/06 A2997 RMK AO2 SLP150 BINOVC T01000061=
202001271452 METAR KATL 271452Z 24008KT 10SM BKN008 OVC012 08/06 A2997 RMK AO2 SLP152 T00830056 51009=
202001271424 SPECI KATL 271424Z 23006KT 10SM BKN009 OVC012 08/05 A2997 RMK AO2 T00830050=
202001271352 METAR KATL 271352Z 22004KT 10SM BKN011 OVC015 08/05 A2997 RMK AO2 SLP151 T00780050=
202001271252 METAR KATL 271252Z 22003KT 10SM BKN014 OVC020 08/04 A2996 RMK AO2 SLP148 T00780044=
202001271239 SPECI KATL 271239Z 22003KT 10SM BKN014 OVC024 08/04 A2996 RMK AO2 T00780044=
202001271152 METAR KATL 271152Z 00000KT 10SM BKN024 BKN029 OVC035 08/04 A2994 RMK AO2 SLP142 60000 T00780039 10089 20072 55004=
202001271052 METAR KATL 271052Z 25003KT 10SM SCT024 BKN029 OVC035 08/04 A2994 RMK AO2 RAE0954B20E29 SLP141 P0000 T00780039=
202001271039 SPECI KATL 271039Z 28003KT 10SM FEW024 OVC029 07/04 A2994 RMK AO2 RAE0954B20E29 P0000 T00720039=
202001270952 METAR KATL 270952Z 30003KT 10SM -RA BKN033 OVC042 08/03 A2995 RMK AO2 RAB38 SLP143 P0000 T00780033=
202001270852 METAR KATL 270852Z 29003KT 10SM FEW025 OVC042 08/03 A2996 RMK AO2 SLP146 T00830028 55003=
202001270752 METAR KATL 270752Z 00000KT 10SM FEW025 OVC044 08/02 A2995 RMK AO2 SLP142 T00830022=
202001270652 METAR KATL 270652Z 24004KT 10SM FEW025 BKN041 OVC060 08/02 A2997 RMK AO2 SLP150 T00830017=
202001270552 METAR KATL 270552Z 26003KT 10SM BKN046 OVC060 09/02 A2997 RMK AO2 SLP150 T00890017 10100 20089 58014=
202001270452 METAR KATL 270452Z 24003KT 10SM OVC050 09/02 A2999 RMK AO2 SLP159 T00890022 401060006=
202001270352 METAR KATL 270352Z 00000KT 10SM OVC055 09/02 A3000 RMK AO2 SLP164 T00890017=
202001270252 METAR KATL 270252Z 00000KT 10SM OVC060 09/02 A3001 RMK AO2 SLP167 T00890022 58004=
202001270152 METAR KATL 270152Z 00000KT 10SM OVC060 09/02 A3002 RMK AO2 SLP170 T00940017=
202001270052 METAR KATL 270052Z 21004KT 10SM OVC060 09/02 A3002 RMK AO2 SLP172 T00940022=
202001262352 METAR KATL 262352Z 00000KT 10SM OVC060 10/01 A3002 RMK AO2 SLP171 T01000011 10106 20089 55004=
202001262252 METAR KATL 262252Z 00000KT 10SM BKN065 OVC080 10/01 A3002 RMK AO2 SLP170 ACC OHD-ALQDS T01000006=
202001262152 METAR KATL 262152Z 28003KT 10SM OVC075 10/01 A3002 RMK AO2 SLP171 ACC OHD-ALQDS SHRA DSNT N-NE T01000006=
202001262052 METAR KATL 262052Z 28006KT 10SM BKN070 OVC250 10/M01 A3004 RMK AO2 SLP175 T01001006 56019=
202001261952 METAR KATL 261952Z 29006KT 10SM BKN080 OVC250 10/00 A3004 RMK AO2 SLP178 T01000000=
202001261852 METAR KATL 261852Z 31007KT 10SM SCT080 BKN100 BKN250 09/00 A3007 RMK AO2 SLP186 T00940000=
202001261752 METAR KATL 261752Z 32010KT 10SM SCT085 SCT140 BKN250 09/M01 A3009 RMK AO2 SLP195 T00891006 10094 20006 58014=
202001261652 METAR KATL 261652Z 30006KT 10SM FEW095 SCT150 BKN250 08/00 A3011 RMK AO2 SLP200 T00830000=
202001261552 METAR KATL 261552Z 31006KT 10SM SCT100 SCT150 SCT200 BKN250 06/00 A3013 RMK AO2 SLP210 T00560000=
202001261452 METAR KATL 261452Z 32006KT 10SM FEW150 SCT200 BKN250 04/M01 A3013 RMK AO2 SLP211 T00391011 51016=
202001261352 METAR KATL 261352Z 31007KT 10SM FEW150 SCT200 SCT250 02/M01 A3013 RMK AO2 SLP210 T00221011=
202001261252 METAR KATL 261252Z 33009KT 10SM FEW200 SCT250 01/M02 A3010 RMK AO2 SLP201 T00111022=
202001261152 METAR KATL 261152Z 31008KT 10SM FEW200 SCT250 01/M02 A3009 RMK AO2 SLP195 T00061017 10028 20006 53003=
202001261052 METAR KATL 261052Z 29010KT 10SM FEW200 SCT250 01/M02 A3008 RMK AO2 SLP193 T00111017=
202001260952 METAR KATL 260952Z 32007KT 10SM FEW200 SCT250 01/M02 A3006 RMK AO2 SLP185 T00111017=
202001260852 METAR KATL 260852Z 32007KT 10SM FEW180 SCT220 SCT250 02/M02 A3007 RMK AO2 SLP190 T00171017 58009=
202001260752 METAR KATL 260752Z 29007KT 10SM BKN180 BKN220 02/M02 A3009 RMK AO2 SLP196 T00221017=
202001260652 METAR KATL 260652Z 29008KT 10SM BKN200 OVC250 03/M02 A3011 RMK AO2 SLP201 T00281017=
202001260552 METAR KATL 260552Z 27005KT 10SM BKN200 OVC250 02/M02 A3010 RMK AO2 SLP199 T00221017 10050 20022 51002=
202001260452 METAR KATL 260452Z 29007KT 10SM BKN200 BKN250 03/M01 A3010 RMK AO2 SLP197 T00281011 400780028=
202001260352 METAR KATL 260352Z 29007KT 10SM BKN200 BKN250 03/M01 A3011 RMK AO2 SLP200 T00331011=
202001260252 METAR KATL 260252Z 29007KT 10SM SCT200 BKN250 03/M01 A3010 RMK AO2 SLP198 T00331011 50006=
202001260152 METAR KATL 260152Z 30008KT 10SM SCT200 BKN250 04/M01 A3010 RMK AO2 SLP199 T00391011=
202001260052 METAR KATL 260052Z 29006KT 10SM SCT200 BKN250 04/M01 A3009 RMK AO2 SLP196 T00391006=
202001252352 METAR KATL 252352Z 31006KT 10SM BKN250 05/M01 A3008 RMK AO2 SLP191 T00501011 10078 20050 53003=
202001252252 METAR KATL 252252Z 31009KT 10SM FEW030 BKN250 06/M01 A3007 RMK AO2 SLP189 T00611006=
202001252152 METAR KATL 252152Z 31011KT 10SM FEW028 SCT250 07/M01 A3006 RMK AO2 SLP185 T00721006=
202001252129 SPECI KATL 252129Z 30013KT 10SM SCT028 SCT250 07/00 A3006 RMK AO2 T00720000=
202001252052 METAR KATL 252052Z 29011KT 10SM BKN029 07/M01 A3007 RMK AO2 SLP186 T00671006 56011=
202001251952 METAR KATL 251952Z 30010KT 10SM BKN028 07/M01 A3007 RMK AO2 SLP187 T00671006=
202001251852 METAR KATL 251852Z 29012KT 10SM BKN028 07/M01 A3007 RMK AO2 SLP188 T00671006=
202001251752 METAR KATL 251752Z 32012KT 10SM BKN026 06/M01 A3010 RMK AO2 SLP197 T00611006 10061 20028 58002=
202001251652 METAR KATL 251652Z 31010KT 10SM BKN026 06/M01 A3012 RMK AO2 SLP205 T00611006=
202001251552 METAR KATL 251552Z 30012KT 10SM BKN025 05/M01 A3012 RMK AO2 SLP204 T00501006=
202001251452 METAR KATL 251452Z 30017G21KT 10SM BKN027 04/M01 A3011 RMK AO2 SLP199 T00441011 53020=
202001251357 SPECI KATL 251357Z 29011KT 10SM FEW022 BKN029 04/00 A3009 RMK AO2 BKN029 V SCT T00390000=
202001251352 METAR KATL 251352Z 28009KT 10SM FEW012 FEW022 SCT029 04/01 A3009 RMK AO2 SLP193 T00390006=
202001251301 SPECI KATL 251301Z 28008KT 10SM FEW012 FEW022 SCT029 03/00 A3006 RMK AO2 T00280000=
202001251252 METAR KATL 251252Z 28008KT 10SM FEW012 SCT022 BKN029 03/00 A3006 RMK AO2 SLP183 BKN029 V SCT T00330000=
202001251200 SPECI KATL 251200Z 28008KT 10SM BKN028 03/M01 A3005 RMK AO2 BKN028 V SCT T00281006=
202001251152 METAR KATL 251152Z 29008KT 10SM SCT026 03/M01 A3005 RMK AO2 SLP179 SCT026 V BKN 70004 T00281006 10056 20028 53008=
202001251140 SPECI KATL 251140Z 29008KT 10SM SCT026 03/M01 A3004 RMK AO2 T00281006=
202001251117 SPECI KATL 251117Z 29010KT 10SM BKN028 03/M01 A3003 RMK AO2 T00281006=
202001251052 METAR KATL 251052Z 29010KT 10SM SCT028 03/M01 A3003 RMK AO2 SLP171 T00281006=
202001250952 METAR KATL 250952Z 28012KT 10SM SCT028 03/00 A3002 RMK AO2 SLP167 T00330000=
202001250852 METAR KATL 250852Z 29011KT 10SM FEW024 04/00 A3002 RMK AO2 SLP168 T00390000 53005=
202001250752 METAR KATL 250752Z 27008KT 10SM SCT024 04/01 A3001 RMK AO2 SLP163 T00440011=
202001250652 METAR KATL 250652Z 27007KT 10SM FEW050 05/02 A2999 RMK AO2 SLP159 T00500017=
202001250552 METAR KATL 250552Z 27005KT 10SM FEW050 06/02 A3001 RMK AO2 SLP164 T00560022 10106 20050 53007=
202001250452 METAR KATL 250452Z 29006KT 10SM FEW050 06/02 A3000 RMK AO2 SLP161 T00610017 401500050=
202001250352 METAR KATL 250352Z 27005KT 10SM FEW050 07/02 A2999 RMK AO2 SLP158 T00670017=
202001250252 METAR KATL 250252Z 23003KT 10SM FEW050 07/02 A2998 RMK AO2 SLP157 T00720022 51011=
202001250152 METAR KATL 250152Z 28003KT 10SM FEW050 08/02 A2998 RMK AO2 SLP154 T00780017=
202001250052 METAR KATL 250052Z 24005KT 10SM FEW050 09/02 A2996 RMK AO2 SLP150 T00940022=
202001242352 METAR KATL 242352Z 25004KT 10SM FEW030 FEW250 11/02 A2995 RMK AO2 SLP145 60001 T01060022 10150 20100 53012=
202001242252 METAR KATL 242252Z 27007KT 10SM FEW030 FEW250 12/04 A2993 RMK AO2 SLP137 T01220039=
202001242152 METAR KATL 242152Z 27009KT 10SM SCT030 14/06 A2992 RMK AO2 SLP133 T01440061=
202001242052 METAR KATL 242052Z 24004KT 10SM SCT015 SCT024 BKN031 13/09 A2992 RMK AO2 SLP132 60001 T01330094 58011=
202001242048 SPECI KATL 242048Z 22004KT 10SM SCT015 SCT024 BKN031 13/09 A2992 RMK AO2=
202001241952 METAR KATL 241952Z 24006KT 10SM BKN008 BKN015 BKN024 13/10 A2993 RMK AO2 DZE06 SLP136 P0001 T01280100=
202001241931 SPECI KATL 241931Z 25007KT 7SM BKN004 BKN012 BKN018 12/10 A2993 RMK AO2 DZE06 P0001 T01220100=
202001241852 METAR KATL 241852Z 25004KT 1SM R09R/P6000FT -DZ BR OVC003 11/10 A2994 RMK AO2 SFC VIS 3 SLP141 TWRINC P0000 T01110100=
202001241752 METAR KATL 241752Z 19005KT 1/4SM R09R/4500V6000FT -DZ BR OVC002 10/09 A2995 RMK AO2 SFC VIS 1 1/4 DZB47 SLP145 TWRINC P0001 60003 T01000089 10106 20061 58015=
202001241652 METAR KATL 241652Z 14005KT 1/4SM R09R/P6000FT BR OVC003 09/08 A2998 RMK AO2 SFC VIS 3 DZE50 SLP155 TWRINC P0000 T00940078=
202001241644 SPECI KATL 241644Z 13004KT 1/4SM R09R/P6000FT -DZ BR OVC003 09/08 A2998 RMK AO2 SFC VIS 3 TWRINC P0000 T00890078=
202001241552 METAR KATL 241552Z 11007KT 2 1/2SM -DZ BR OVC004 08/07 A2999 RMK AO2 SFC VIS 3 SLP160 RAB04E19DZB38 P0000 T00830072=
202001241531 SPECI KATL 241531Z 12003KT 2 1/2SM BR OVC004 08/07 A3001 RMK AO2 SFC VIS 6 RAB04E19 TWRINC P0000 T00830067=
202001241452 METAR KATL 241452Z 10004KT 1/4SM R09R/P6000FT BR OVC003 08/06 A2999 RMK AO2 SFC VIS 6 SLP160 CIG 002V004 TWRINC 60002 T00780061 51002=
202001241352 METAR KATL 241352Z 08008KT 1/4SM R09R/P6000FT BR OVC003 07/05 A2999 RMK AO2 SFC VIS 5 DZE38 SLP161 CIG 002V004 TWRINC P0000 T00670050=
202001241345 SPECI KATL 241345Z 08008KT 1/4SM R09R/P6000FT BR OVC003 07/05 A2999 RMK AO2 SFC VIS 5 DZE38 CIG 002V004 TWRINC P0000 T00670050=
202001241323 SPECI KATL 241323Z 08007KT 3/4SM R09R/P6000FT -DZ BR OVC004 07/05 A2999 RMK AO2 SFC VIS 6 CIG 003V005 TWRINC P0000 T00670050=
202001241312 SPECI KATL 241312Z 09007KT 1 1/2SM -DZ BR OVC005 07/05 A2999 RMK AO2 SFC VIS 6 CIG 004V007 P0000 T00670050=
202001241252 METAR KATL 241252Z 12003KT 3SM -DZ BR OVC006 06/05 A2999 RMK AO2 SFC VIS 6 RAE32DZB32 SLP160 CIG 005V008 P0002 T00610050=
202001241232 SPECI KATL 241232Z 10003KT 3SM -DZ OVC006 06/04 A3000 RMK AO2 SFC VIS 8 RAE32DZB32 CIG 004V008 P0002 T00610044=
202001241209 SPECI KATL 241209Z 00000KT 1 1/2SM -RA BR OVC005 06/05 A3000 RMK AO2 SFC VIS 3 CIG 004V007 P0001 T00610050=
202001241152 METAR KATL 241152Z 10003KT 1 1/2SM -RA BR OVC004 06/05 A2999 RMK AO2 SFC VIS 3 SLP158 CIG 003V006 P0015 60048 70083 T00610050 10061 20050 55004=
202001241127 SPECI KATL 241127Z 00000KT 1 1/2SM R09R/6000VP6000FT RA BR OVC003 06/05 A2998 RMK AO2 SFC VIS 2 CIG 002V005 P0009 T00610050=
202001241052 METAR KATL 241052Z 12009KT 3SM -RA BR OVC004 06/04 A2997 RMK AO2 SLP153 CIG 003V005 P0004 T00610044=
202001240952 METAR KATL 240952Z 11009KT 3SM -RA BR OVC004 06/04 A2998 RMK AO2 SLP156 CIG 003V006 P0002 T00560044=
202001240852 METAR KATL 240852Z 10010KT 3SM -RA BR BKN004 OVC010 06/04 A3000 RMK AO2 SLP163 CIG 003V006 P0004 60027 T00560039 58021=
202001240829 SPECI KATL 240829Z 09009KT 4SM -RA BR OVC004 06/04 A3001 RMK AO2 CIG 003V006 P0003 T00560039=
202001240752 METAR KATL 240752Z 09011KT 4SM -RA BR OVC005 06/04 A3003 RMK AO2 SLP172 CIG 003V007 P0011 T00560039=
202001240652 METAR KATL 240652Z 09010KT 3SM RA BR BKN006 OVC014 05/04 A3005 RMK AO2 SLP180 CIG 004V008 P0012 T00500039=
202001240643 SPECI KATL 240643Z 09009KT 4SM -RA BR BKN006 BKN014 OVC024 05/04 A3005 RMK AO2 CIG 004V008 P0009 T00500039=
202001240552 METAR KATL 240552Z 08013KT 4SM -RA BR SCT006 BKN012 OVC020 05/03 A3007 RMK AO2 SLP186 P0015 60031 T00500033 10089 20050 58004=
202001240452 METAR KATL 240452Z 10008KT 4SM -RA BR BKN016 OVC030 06/03 A3009 RMK AO2 SLP194 P0013 T00560033 400890033=
202001240352 METAR KATL 240352Z 10008KT 5SM -RA BKN017 OVC030 06/03 A3009 RMK AO2 RAE0254B15 SLP195 P0002 T00560028=
202001240252 METAR KATL 240252Z 09011KT 8SM -RA BKN018 BKN030 OVC100 06/02 A3008 RMK AO2 SLP192 P0000 60001 T00610022 56006=
202001240152 METAR KATL 240152Z 09013KT 10SM -RA BKN017 OVC100 07/02 A3008 RMK AO2 RAB32 SLP192 P0001 T00670017=
202001240052 METAR KATL 240052Z 09010G21KT 10SM BKN020 BKN100 OVC150 08/00 A3009 RMK AO2 SLP193 T00830000=
202001232352 METAR KATL 232352Z 10009KT 10SM BKN018 BKN090 OVC150 09/01 A3010 RMK AO2 SLP197 60000 T00890006 10089 20083 56004=
202001232316 SPECI KATL 232316Z 10009G17KT 10SM BKN018 BKN090 OVC150 09/01 A3009 RMK AO2 T00890006=
202001232252 METAR KATL 232252Z 10009KT 10SM FEW020 BKN080 OVC150 09/01 A3010 RMK AO2 SLP197 T00890006=
202001232152 METAR KATL 232152Z 10008KT 10SM FEW019 SCT046 OVC080 09/01 A3010 RMK AO2 RAB30E45 SLP199 P0000 T00890006=
202001232138 SPECI KATL 232138Z 10010KT 10SM -RA SCT019 BKN046 OVC070 08/01 A3011 RMK AO2 RAB30 P0000 T00830006=
202001232120 SPECI KATL 232120Z 10007KT 10SM OVC021 09/00 A3011 RMK AO2 T00890000=
202001232052 METAR KATL 232052Z 10010KT 10SM FEW020 SCT055 OVC080 09/00 A3011 RMK AO2 RAB02E16 SLP202 P0000 60000 T00890000 56027=
202001231952 METAR KATL 231952Z 11012KT 10SM FEW048 BKN060 OVC075 08/01 A3011 RMK AO2 RAE46 SLP202 P0000 T00830006=
202001231852 METAR KATL 231852Z 11011G18KT 10SM -RA FEW029 BKN042 OVC200 08/01 A3015 RMK AO2 RAB19 SLP214 P0000 T00830006=
202001231752 METAR KATL 231752Z 13008KT 10SM BKN045 BKN060 OVC250 08/00 A3020 RMK AO2 RAB08E43 SLP230 P0000 60004 T00830000 10083 20033 58024=
202001231652 METAR KATL 231652Z 09015KT 10SM SCT055 OVC075 07/M01 A3022 RMK AO2 RAB22E50 SLP239 P0000 T00671011=
202001231552 METAR KATL 231552Z 09009KT 10SM FEW024 BKN049 BKN060 OVC250 05/M02 A3026 RMK AO2 RAE22 SLP253 P0002 T00501017=
202001231452 METAR KATL 231452Z 10007KT 7SM -RA FEW047 OVC065 04/M03 A3027 RMK AO2 RAB08 SLP256 P0002 60002 T00391033 53002=
202001231352 METAR KATL 231352Z 09010KT 10SM BKN048 BKN065 OVC110 04/M06 A3025 RMK AO2 SLP248 T00391056=
202001231252 METAR KATL 231252Z 07017KT 10SM SCT044 BKN065 BKN110 OVC200 04/M06 A3025 RMK AO2 RAB41E52 SLP249 P0000 T00391061=
202001231152 METAR KATL 231152Z 08010KT 10SM BKN044 OVC110 04/M08 A3026 RMK AO2 SLP253 VIRGA OHD-ALQDS T00441078 10050 20039 53009=
202001231052 METAR KATL 231052Z 08012KT 10SM FEW042 OVC100 04/M08 A3024 RMK AO2 SLP245 VIRGA OHD-ALQDS T00441083=
202001230952 METAR KATL 230952Z 08011KT 10SM SCT046 BKN150 OVC200 04/M08 A3024 RMK AO2 SLP244 VIRGA SE-SW-NW T00441083=
202001230852 METAR KATL 230852Z 08010KT 10SM FEW040 BKN150 OVC200 04/M08 A3023 RMK AO2 SLP242 T00441083 56014=
202001230752 METAR KATL 230752Z 09009KT 10SM FEW038 SCT140 BKN180 OVC250 04/M08 A3025 RMK AO2 SLP247 T00441083=
202001230652 METAR KATL 230652Z 09012KT 10SM FEW040 SCT150 OVC200 05/M09 A3026 RMK AO2 SLP251 T00501089=
202001230552 METAR KATL 230552Z 10008KT 10SM FEW040 SCT150 OVC250 05/M09 A3028 RMK AO2 SLP257 T00501089 10072 20044 58005=
202001230452 METAR KATL 230452Z 10008KT 10SM BKN040 OVC150 06/M09 A3029 RMK AO2 SLP264 T00561094 401001044=
202001230352 METAR KATL 230352Z 10009KT 10SM FEW050 BKN150 OVC200 06/M09 A3030 RMK AO2 SLP266 T00561094=
202001230252 METAR KATL 230252Z 09010KT 10SM SCT180 BKN250 05/M09 A3029 RMK AO2 SLP265 T00501089 50005=
202001230152 METAR KATL 230152Z 08008KT 10SM FEW200 BKN250 04/M09 A3030 RMK AO2 SLP267 T00441089=
202001230052 METAR KATL 230052Z 10007KT 10SM FEW200 BKN250 06/M09 A3029 RMK AO2 SLP265 T00561094=
202001222352 METAR KATL 222352Z 09008KT 10SM SCT200 BKN250 06/M09 A3028 RMK AO2 SLP262 T00611094 10100 20061 53003=
202001222252 METAR KATL 222252Z 09006KT 10SM FEW200 BKN250 08/M09 A3026 RMK AO2 SLP254 T00781094=
202001222152 METAR KATL 222152Z 06007KT 10SM BKN250 09/M11 A3026 RMK AO2 SLP256 T00941106=
202001222052 METAR KATL 222052Z 06009KT 10SM BKN250 09/M11 A3027 RMK AO2 SLP257 T00941111 58019=
202001221952 METAR KATL 221952Z 06006KT 10SM SCT250 09/M11 A3028 RMK AO2 SLP262 T00891106=
202001221852 METAR KATL 221852Z 10007KT 10SM BKN250 08/M11 A3031 RMK AO2 SLP271 T00831111=
202001221752 METAR KATL 221752Z 07009KT 10SM BKN250 07/M11 A3033 RMK AO2 SLP277 T00671106 10067 21028 58016=
202001221652 METAR KATL 221652Z 07013G17KT 10SM BKN250 05/M11 A3034 RMK AO2 SLP284 T00501106=
202001221552 METAR KATL 221552Z 07014KT 10SM BKN250 03/M11 A3037 RMK AO2 SLP294 T00331106=
202001221452 METAR KATL 221452Z 08009KT 10SM BKN250 02/M09 A3038 RMK AO2 SLP297 T00171094 51008=
202001221352 METAR KATL 221352Z 07010KT 10SM FEW200 BKN250 M01/M10 A3036 RMK AO2 SLP291 T10061100=
202001221252 METAR KATL 221252Z 05007KT 10SM FEW250 M01/M10 A3037 RMK AO2 SLP294 T10111100=
202001221152 METAR KATL 221152Z 04006KT 10SM FEW250 M03/M09 A3035 RMK AO2 SLP289 T10281094 11022 21044 53002=
202001221052 METAR KATL 221052Z 35003KT 10SM FEW250 M03/M09 A3035 RMK AO2 SLP288 T10331094=
202001220952 METAR KATL 220952Z 33007KT 10SM FEW250 M04/M09 A3034 RMK AO2 SLP284 T10391094=
202001220852 METAR KATL 220852Z 03005KT 10SM FEW250 M03/M10 A3035 RMK AO2 SLP285 T10281100 58013=
202001220752 METAR KATL 220752Z 00000KT 10SM CLR M03/M10 A3036 RMK AO2 SLP290 T10281100=
202001220652 METAR KATL 220652Z 05003KT 10SM CLR M02/M11 A3037 RMK AO2 SLP295 T10221106=
202001220552 METAR KATL 220552Z 35005KT 10SM CLR M02/M11 A3039 RMK AO2 SLP300 T10221106 10011 21028 50002=
202001220452 METAR KATL 220452Z 33009KT 10SM CLR M02/M10 A3040 RMK AO2 SLP305 T10171100 400501050=
202001220352 METAR KATL 220352Z 31011KT 10SM CLR M01/M10 A3041 RMK AO2 SLP309 T10111100=
202001220252 METAR KATL 220252Z 31009KT 10SM CLR M01/M10 A3038 RMK AO2 SLP299 T10111100 51006=
202001220152 METAR KATL 220152Z 33011KT 10SM CLR 00/M11 A3038 RMK AO2 SLP299 T00001106=
202001220052 METAR KATL 220052Z 33009KT 10SM CLR 01/M10 A3037 RMK AO2 SLP296 T00061100=
202001212352 METAR KATL 212352Z 32006KT 10SM CLR 01/M10 A3036 RMK AO2 SLP293 T00111100 10050 20011 56002=
202001212252 METAR KATL 212252Z 35008KT 10SM CLR 03/M10 A3036 RMK AO2 SLP293 T00281100=
202001212152 METAR KATL 212152Z 34011KT 10SM CLR 04/M09 A3036 RMK AO2 SLP292 T00391089=
202001212052 METAR KATL 212052Z 34010G16KT 10SM FEW060 04/M08 A3037 RMK AO2 SLP294 T00441083 56017=
202001211952 METAR KATL 211952Z 32010G17KT 10SM FEW055 04/M08 A3038 RMK AO2 SLP298 T00441083=
202001211852 METAR KATL 211852Z 35011G16KT 10SM FEW055 04/M08 A3040 RMK AO2 SLP303 T00391078=
202001211752 METAR KATL 211752Z 36006G15KT 10SM FEW055 03/M08 A3042 RMK AO2 SLP313 T00281083 10033 21033 58014=
202001211652 METAR KATL 211652Z 01004KT 10SM FEW050 02/M08 A3045 RMK AO2 SLP321 T00221083=
202001211552 METAR KATL 211552Z 34007KT 10SM FEW040 BKN060 00/M08 A3046 RMK AO2 SLP328 T00001078=
202001211452 METAR KATL 211452Z 33010KT 10SM OVC060 M02/M08 A3046 RMK AO2 SLP328 VIRGA NW-NE-SE T10171083 51026=
202001211352 METAR KATL 211352Z 33011KT 10SM OVC055 M02/M08 A3044 RMK AO2 SLP322 BINOVC T10221083=
202001211252 METAR KATL 211252Z 33010KT 10SM OVC055 M03/M08 A3041 RMK AO2 SLP312 T10281083=
202001211152 METAR KATL 211152Z 34008KT 10SM OVC050 M03/M09 A3038 RMK AO2 SLP301 T10331089 11033 21050 53016=
202001211052 METAR KATL 211052Z 33007KT 10SM BKN047 M04/M09 A3036 RMK AO2 SLP290 T10391094=
202001210952 METAR KATL 210952Z 33009KT 10SM BKN048 M04/M10 A3034 RMK AO2 SLP285 T10441100=
202001210852 METAR KATL 210852Z 34007KT 10SM FEW050 M04/M10 A3033 RMK AO2 SLP283 T10441100 58002=
202001210752 METAR KATL 210752Z 34006KT 10SM CLR M04/M10 A3034 RMK AO2 SLP286 T10441100=
202001210652 METAR KATL 210652Z 32009KT 10SM CLR M04/M11 A3034 RMK AO2 SLP285 T10391106=
202001210552 METAR KATL 210552Z 32008KT 10SM CLR M04/M11 A3034 RMK AO2 SLP285 T10391106 10000 21039 57010=
202001210452 METAR KATL 210452Z 33007KT 10SM CLR M03/M10 A3035 RMK AO2 SLP288 T10331100 400331039=
202001210352 METAR KATL 210352Z 32010KT 10SM CLR M03/M10 A3036 RMK AO2 SLP294 T10281100=
202001210252 METAR KATL 210252Z 33010KT 10SM CLR M03/M10 A3037 RMK AO2 SLP297 T10281100 53013=
202001210152 METAR KATL 210152Z 35010KT 10SM CLR M02/M10 A3035 RMK AO2 SLP288 T10171100=
202001210052 METAR KATL 210052Z 34017G22KT 10SM CLR M01/M09 A3034 RMK AO2 SLP287 T10111094=
202001202352 METAR KATL 202352Z 34009KT 10SM CLR 00/M09 A3033 RMK AO2 SLP284 T00001089 10033 20000 51012=
202001202252 METAR KATL 202252Z 34010KT 10SM CLR 01/M09 A3032 RMK AO2 SLP279 T00111089=
202001202152 METAR KATL 202152Z 33011KT 10SM CLR 03/M08 A3032 RMK AO2 SLP276 T00281083=
202001202052 METAR KATL 202052Z 32009KT 10SM CLR 03/M08 A3030 RMK AO2 SLP270 T00281078 56017=
202001201952 METAR KATL 201952Z 32013KT 10SM CLR 03/M08 A3031 RMK AO2 SLP273 T00281078 $=
202001201852 METAR KATL 201852Z 32011KT 10SM CLR 02/M08 A3032 RMK AO2 SLP276 T00221083 $=
202001201752 METAR KATL 201752Z 32010G16KT 10SM FEW250 02/M08 A3035 RMK AO2 SLP288 T00171078 10017 21039 58007 $=
202001201652 METAR KATL 201652Z 31012KT 10SM FEW250 01/M08 A3038 RMK AO2 SLP297 T00061083 $=
202001201552 METAR KATL 201552Z 31011KT 10SM SCT250 M01/M08 A3038 RMK AO2 SLP299 T10061083 $=
202001201452 METAR KATL 201452Z 34009KT 10SM FEW200 SCT250 M02/M09 A3037 RMK AO2 SLP295 T10221089 51023 $=
202001201352 METAR KATL 201352Z 34009G17KT 10SM FEW200 BKN250 M03/M09 A3036 RMK AO2 SLP290 T10331094 $=
202001201252 METAR KATL 201252Z 33010KT 10SM SCT200 M04/M09 A3033 RMK AO2 SLP280 T10391094 $=
202001201152 METAR KATL 201152Z 34011KT 10SM CLR M03/M09 A3030 RMK AO2 SLP270 T10331094 11006 21033 53020 $=
202001201052 METAR KATL 201052Z 34010G21KT 10SM CLR M03/M10 A3027 RMK AO2 SLP258 T10331100=
202001200952 METAR KATL 200952Z 32012KT 10SM CLR M03/M09 A3025 RMK AO2 SLP251 T10281094=
202001200852 METAR KATL 200852Z 33011KT 10SM CLR M02/M10 A3024 RMK AO2 SLP247 T10221100 58003=
202001200752 METAR KATL 200752Z 32009KT 10SM CLR M02/M09 A3025 RMK AO2 SLP250 T10221094=
202001200652 METAR KATL 200652Z 34012KT 10SM CLR M02/M10 A3025 RMK AO2 SLP250 T10171100=
202001200552 METAR KATL 200552Z 33012G20KT 10SM FEW200 M01/M09 A3025 RMK AO2 SLP250 T10061094 10056 21006 53012=
202001200452 METAR KATL 200452Z 33016KT 10SM FEW200 00/M10 A3024 RMK AO2 SLP246 T00001100 401330000=
202001200352 METAR KATL 200352Z 32014KT 10SM CLR 01/M09 A3022 RMK AO2 PK WND 33027/0324 SLP241 T00111089=
202001200252 METAR KATL 200252Z 34013G21KT 10SM CLR 03/M08 A3021 RMK AO2 SLP238 T00281078 51013=
202001200152 METAR KATL 200152Z 33016G25KT 10SM CLR 04/M07 A3021 RMK AO2 SLP235 T00391072=
202001200052 METAR KATL 200052Z 32016G22KT 10SM FEW200 04/M07 A3019 RMK AO2 PK WND 32026/0018 SLP229 T00441067=
202001192352 METAR KATL 192352Z 32012KT 10SM FEW200 06/M07 A3018 RMK AO2 SLP223 T00561067 10089 20056 53017=
202001192252 METAR KATL 192252Z 31014KT 10SM FEW200 07/M06 A3015 RMK AO2 SLP214 T00671061=
202001192152 METAR KATL 192152Z 31015G22KT 10SM FEW250 08/M06 A3013 RMK AO2 SLP206 T00781061=
202001192052 METAR KATL 192052Z 30013KT 10SM FEW250 08/M07 A3013 RMK AO2 SLP202 T00831067 55005=
202001191952 METAR KATL 191952Z 32017G26KT 10SM FEW250 08/M08 A3012 RMK AO2 PK WND 32027/1854 SLP199 T00831078=
202001191852 METAR KATL 191852Z 31019G25KT 10SM FEW250 08/M08 A3012 RMK AO2 PK WND 33026/1823 SLP201 T00831078=
202001191752 METAR KATL 191752Z 33019G24KT 10SM FEW250 07/M07 A3014 RMK AO2 SLP209 T00721067 10072 20044 58008=
202001191652 METAR KATL 191652Z 32016G22KT 10SM SCT250 06/M07 A3017 RMK AO2 PK WND 31026/1643 SLP220 T00611067=
202001191552 METAR KATL 191552Z 29013G18KT 10SM SCT200 BKN250 05/M04 A3018 RMK AO2 SLP222 T00501039=
202001191452 METAR KATL 191452Z 31012G22KT 10SM BKN200 04/M02 A3017 RMK AO2 SLP219 T00441022 51022=
202001191352 METAR KATL 191352Z 33014G22KT 10SM FEW016 BKN250 05/M01 A3015 RMK AO2 SLP212 VIRGA OHD-E T00501011=
202001191252 METAR KATL 191252Z 31011KT 10SM FEW018 BKN250 06/02 A3013 RMK AO2 SLP205 T00610022=
202001191152 METAR KATL 191152Z 31018G22KT 10SM SCT018 SCT080 OVC250 07/03 A3010 RMK AO2 PK WND 31026/1129 SLP194 60000 70055 T00720028 10133 20072 53016=
202001191052 METAR KATL 191052Z 30013KT 10SM FEW018 SCT080 OVC250 09/05 A3007 RMK AO2 SLP184 T00890050=
202001190952 METAR KATL 190952Z 30009KT 10SM FEW009 SCT015 SCT075 OVC250 11/08 A3006 RMK AO2 SLP178 T01060078=
202001190945 SPECI KATL 190945Z 31014G20KT 10SM FEW009 SCT015 BKN075 OVC250 11/07 A3005 RMK AO2 CIG 013V018 T01110072=
202001190902 SPECI KATL 190902Z 32014KT 10SM FEW009 BKN015 OVC042 12/10 A3005 RMK AO2 CIG 013V018 T01220100=
202001190852 METAR KATL 190852Z 32011KT 10SM BKN014 OVC042 12/10 A3005 RMK AO2 SLP177 60000 T01220100 55002=
202001190850 SPECI KATL 190850Z 31009KT 10SM BKN014 OVC042 12/11 A3005 RMK AO2=
202001190752 METAR KATL 190752Z 30011KT 10SM FEW005 SCT042 BKN090 OVC200 12/11 A3005 RMK AO2 SLP176 T01220106=
202001190652 METAR KATL 190652Z 28007KT 10SM FEW003 SCT012 OVC035 13/12 A3006 RMK AO2 RAE0557 SLP179 SCT012 V BKN P0000 T01280117=
202001190648 SPECI KATL 190648Z 28008KT 10SM FEW003 SCT012 OVC035 13/12 A3006 RMK AO2 RAE0557 SCT012 V BKN P0000=
202001190607 SPECI KATL 190607Z 26007KT 10SM FEW006 BKN012 OVC038 13/12 A3007 RMK AO2 RAE0557 P0000 T01280117=
202001190552 METAR KATL 190552Z 27007KT 7SM -RA FEW005 SCT026 OVC038 13/12 A3008 RMK AO2 RAE25B39 SLP186 P0002 60050 T01280117 10128 20106 58008=
202001190546 SPECI KATL 190546Z 27006KT 5SM -RA BR FEW005 BKN038 OVC055 13/12 A3008 RMK AO2 RAE25B39 P0002=
202001190530 SPECI KATL 190530Z 26004KT 9SM SCT028 SCT039 OVC050 13/11 A3008 RMK AO2 RAE25 P0001 T01280111=
202001190457 SPECI KATL 190457Z 24003KT 2SM -RA BR FEW005 OVC026 12/11 A3009 RMK AO2 SFC VIS 2 1/2 P0001 T01170106=
202001190452 METAR KATL 190452Z VRB03KT 1SM R09R/P6000FT -RA BR FEW005 SCT011 OVC026 12/11 A3010 RMK AO2 SFC VIS 2 1/2 SLP192 P0011 T01170106 401220061=
202001190409 SPECI KATL 190409Z 32006KT 1SM R09R/P6000FT -RA BR FEW003 SCT006 OVC015 12/11 A3010 RMK AO2 SFC VIS 3 P0005 T01170106=
202001190352 METAR KATL 190352Z 33008KT 1SM R09R/P6000FT +RA BR BKN005 BKN012 OVC018 12/11 A3011 RMK AO2 SFC VIS 1 3/4 SLP197 CIG 004V007 P0016 T01170106=
202001190346 SPECI KATL 190346Z 34009G17KT 1SM R09R/P6000FT +RA BR BKN004 BKN011 OVC016 12/10 A3010 RMK AO2 SFC VIS 2 CIG 003V006 P0011=
202001190334 SPECI KATL 190334Z 30005KT 1SM R09R/P6000FT RA BR BKN007 BKN012 OVC024 12/11 A3010 RMK AO2 SFC VIS 2 1/2 P0007 T01220111=
202001190252 METAR KATL 190252Z 00000KT 3SM -RA BR SCT006 BKN013 OVC028 11/10 A3010 RMK AO2 SFC VIS 4 SLP196 P0005 60021 T01110100 58014=
202001190231 SPECI KATL 190231Z 00000KT 3SM -RA BR SCT005 BKN016 OVC030 11/10 A3011 RMK AO2 SFC VIS 4 P0004 T01110100=
202001190223 SPECI KATL 190223Z 00000KT 3SM -RA BR BKN005 BKN014 OVC030 11/10 A3011 RMK AO2 SFC VIS 4 CIG 004V007 P0003 T01110100=
202001190221 SPECI KATL 190221Z 00000KT 3SM -RA BR BKN004 BKN009 OVC014 11/10 A3011 RMK AO2 SFC VIS 4 CIG 003V006 P0003 T01110100=
202001190213 SPECI KATL 190213Z 00000KT 1 1/4SM -RA BR OVC004 11/10 A3012 RMK AO2 SFC VIS 2 CIG 003V006 P0002 T01110100=
202001190152 METAR KATL 190152Z 00000KT 1 1/4SM -RA BR BKN005 OVC014 11/09 A3012 RMK AO2 SFC VIS 3 SLP201 CIG 004V007 P0005 T01060094=
202001190148 SPECI KATL 190148Z 00000KT 2SM -RA BR BKN005 OVC014 11/09 A3012 RMK AO2 SFC VIS 2 1/2 CIG 004V007 P0004=
202001190052 METAR KATL 190052Z 11004KT 2SM -RA BR SCT008 BKN014 OVC025 11/09 A3013 RMK AO2 SFC VIS 3 SLP206 P0011 T01060094=
202001190012 SPECI KATL 190012Z 01006KT 2SM R09R/4000VP6000FT +RA BR FEW006 BKN014 OVC021 12/09 A3015 RMK AO2 P0005 T01170094=
202001182352 METAR KATL 182352Z 00000KT 6SM -RA BR FEW006 BKN016 OVC022 12/09 A3014 RMK AO2 RAB29 SLP210 P0000 60005 T01170094 10117 20094 56014=
202001182252 METAR KATL 182252Z 17004KT 10SM OVC017 12/09 A3016 RMK AO2 SLP215 T01170094=
202001182152 METAR KATL 182152Z 16004KT 10SM OVC020 12/09 A3017 RMK AO2 SLP219 T01170089=
202001182052 METAR KATL 182052Z 17007KT 10SM OVC020 11/08 A3019 RMK AO2 SLP225 60005 T01110083 58021=
202001181952 METAR KATL 181952Z 14004KT 10SM OVC023 11/08 A3020 RMK AO2 RAB08E38 SLP230 P0005 T01060078=
202001181944 SPECI KATL 181944Z 16003KT 10SM BKN023 BKN050 OVC070 10/07 A3021 RMK AO2 RAB08E38 P0005 T01000072=
202001181852 METAR KATL 181852Z 17007KT 10SM FEW029 OVC043 10/04 A3025 RMK AO2 SLP246 T01000044=
202001181846 SPECI KATL 181846Z 18006KT 10SM SCT029 OVC043 10/04 A3025 RMK AO2=
202001181828 SPECI KATL 181828Z 17008KT 10SM OVC029 10/04 A3026 RMK AO2 PRESFR T01000039=
202001181752 METAR KATL 181752Z 17007KT 10SM OVC033 09/03 A3030 RMK AO2 SLP262 T00940033 10094 20061 58020=
202001181652 METAR KATL 181652Z 16005KT 10SM SCT020 OVC042 09/02 A3033 RMK AO2 SLP273 T00890022=
202001181646 SPECI KATL 181646Z 13008KT 10SM SCT021 OVC043 09/02 A3033 RMK AO2=
202001181552 METAR KATL 181552Z 13008KT 10SM OVC023 08/01 A3036 RMK AO2 SLP284 T00780006=
202001181452 METAR KATL 181452Z 13009G16KT 10SM BKN017 OVC100 07/M01 A3038 RMK AO2 SLP291 T00671006 58011=
202001181352 METAR KATL 181352Z 12010KT 10SM OVC019 06/M01 A3040 RMK AO2 SLP298 T00611011=
202001181252 METAR KATL 181252Z 11008KT 10SM OVC019 06/M02 A3041 RMK AO2 SLP302 T00611022=
202001181152 METAR KATL 181152Z 11010KT 10SM OVC020 06/M03 A3041 RMK AO2 SLP302 T00611033 10067 20061 58008=
202001181052 METAR KATL 181052Z 11009KT 10SM OVC021 06/M04 A3041 RMK AO2 SLP301 T00611039=
202001180952 METAR KATL 180952Z 11009KT 10SM OVC025 06/M03 A3044 RMK AO2 SLP311 T00611033=
202001180852 METAR KATL 180852Z 11011KT 10SM OVC024 06/M04 A3044 RMK AO2 SLP309 T00611039 58020=
202001180752 METAR KATL 180752Z 10012KT 10SM OVC028 06/M04 A3046 RMK AO2 SLP317 T00611044=
202001180652 METAR KATL 180652Z 10012KT 10SM BKN028 OVC110 07/M05 A3048 RMK AO2 SLP324 T00671050=
202001180648 SPECI KATL 180648Z 10012KT 10SM BKN028 OVC110 07/M05 A3048 RMK AO2=
202001180552 METAR KATL 180552Z 10011G17KT 10SM SCT032 BKN110 BKN250 07/M06 A3049 RMK AO2 SLP330 T00671056 10094 20067 58006=
202001180452 METAR KATL 180452Z 10011KT 10SM SCT120 BKN250 07/M06 A3050 RMK AO2 SLP333 T00721061 401330072=
202001180352 METAR KATL 180352Z 11011G16KT 10SM BKN120 BKN200 BKN250 08/M07 A3051 RMK AO2 SLP336 T00781067=
202001180252 METAR KATL 180252Z 11010KT 10SM SCT130 BKN200 BKN250 08/M07 A3051 RMK AO2 SLP336 T00781072 51003=
202001180152 METAR KATL 180152Z 11013KT 10SM SCT140 BKN200 BKN250 08/M07 A3051 RMK AO2 SLP336 T00831067=
202001180052 METAR KATL 180052Z 09013KT 10SM FEW140 BKN250 08/M05 A3052 RMK AO2 SLP338 T00831050=
202001172352 METAR KATL 172352Z 10008KT 10SM FEW140 SCT200 BKN250 09/M06 A3050 RMK AO2 SLP334 T00941056 10133 20094 53009=
202001172252 METAR KATL 172252Z 11015G21KT 10SM SCT140 BKN200 BKN250 11/M06 A3049 RMK AO2 SLP328 T01061061=
202001172152 METAR KATL 172152Z 10011KT 10SM FEW110 SCT130 BKN250 12/M04 A3048 RMK AO2 SLP323 T01171039=
202001172052 METAR KATL 172052Z 12011KT 10SM FEW110 BKN130 BKN250 13/M04 A3048 RMK AO2 SLP322 ACC W & DSNT SW T01281039 55010=
202001171952 METAR KATL 171952Z 11010KT 10SM FEW120 BKN140 BKN250 13/M05 A3048 RMK AO2 SLP322 T01281050=
202001171852 METAR KATL 171852Z 12010G21KT 10SM SCT120 BKN150 BKN230 13/M06 A3049 RMK AO2 SLP327 T01281056=
202001171752 METAR KATL 171752Z 11014G19KT 10SM FEW110 BKN130 BKN190 11/M06 A3051 RMK AO2 SLP333 VIRGA NE & DSNT E T01111056 10117 20072 58009=
202001171652 METAR KATL 171652Z 11012KT 10SM FEW100 BKN110 BKN230 11/M05 A3053 RMK AO2 SLP342 VIRGA OHD & NE-E T01061050=
202001171552 METAR KATL 171552Z 10009KT 10SM SCT110 BKN140 BKN250 11/M04 A3055 RMK AO2 SLP348 VIRGA OHD-W AND DSNT NW ACC DSNT S T01061044=
202001171452 METAR KATL 171452Z 09012KT 10SM FEW130 BKN150 BKN250 10/M03 A3054 RMK AO2 SLP342 VIRGA DSNT NE T01001033 51018=
202001171352 METAR KATL 171352Z 08006KT 10SM FEW120 BKN140 BKN250 09/M02 A3052 RMK AO2 SLP337 VIRGA DSNT NW-NE ACC DSNT SW NW-N T00891022=
202001171252 METAR KATL 171252Z 34005KT 10SM FEW120 BKN140 BKN250 08/M03 A3051 RMK AO2 SLP333 VIRGA DSNT SW-NW-N T00781028=
202001171152 METAR KATL 171152Z 01006KT 10SM BKN150 BKN250 08/M03 A3048 RMK AO2 SLP324 T00781033 10100 20072 53013=
202001171052 METAR KATL 171052Z 33004KT 10SM BKN150 BKN250 07/M03 A3046 RMK AO2 SLP318 T00721028=
202001170952 METAR KATL 170952Z 36007KT 10SM BKN150 BKN250 08/M03 A3045 RMK AO2 SLP311 T00781028=
202001170852 METAR KATL 170852Z 35007KT 10SM BKN180 BKN250 08/M03 A3044 RMK AO2 SLP309 T00831028 58001=
202001170752 METAR KATL 170752Z 34005KT 10SM SCT150 BKN180 BKN250 09/M03 A3044 RMK AO2 SLP309 T00891028=
202001170652 METAR KATL 170652Z 33006KT 10SM SCT150 BKN180 BKN250 09/M03 A3044 RMK AO2 SLP309 T00941028=
202001170552 METAR KATL 170552Z 35008KT 10SM BKN150 BKN250 10/M02 A3044 RMK AO2 SLP309 T01001022 10128 20100 50001=
202001170452 METAR KATL 170452Z 36009KT 10SM BKN150 BKN250 11/M02 A3045 RMK AO2 SLP310 T01061022 401830106=
202001170352 METAR KATL 170352Z 34010KT 10SM BKN150 BKN250 11/M02 A3045 RMK AO2 SLP311 T01111022=
202001170252 METAR KATL 170252Z 35015KT 10SM BKN150 BKN250 11/M01 A3044 RMK AO2 SLP309 T01111011 51008=
202001170152 METAR KATL 170152Z 35012KT 10SM BKN150 BKN200 OVC250 12/M01 A3043 RMK AO2 SLP305 T01171006=
202001170052 METAR KATL 170052Z 34012KT 10SM FEW150 BKN200 BKN250 12/01 A3043 RMK AO2 SLP306 T01220006=
202001162352 METAR KATL 162352Z 33011KT 10SM BKN180 BKN250 13/01 A3042 RMK AO2 SLP299 T01280006 10178 20128 51022=
202001162252 METAR KATL 162252Z 32013KT 10SM FEW120 BKN180 BKN250 14/02 A3040 RMK AO2 SLP292 T01390022=
202001162152 METAR KATL 162152Z 33010KT 10SM BKN170 BKN250 16/03 A3037 RMK AO2 SLP282 T01560033=
202001162052 METAR KATL 162052Z 33014G20KT 10SM BKN180 BKN250 16/04 A3035 RMK AO2 SLP275 T01610044 53006=
202001161952 METAR KATL 161952Z 33014G21KT 10SM BKN200 BKN250 17/05 A3034 RMK AO2 SLP271 T01720050=
202001161852 METAR KATL 161852Z 34014KT 10SM FEW200 FEW250 17/04 A3033 RMK AO2 SLP268 T01720044=
202001161752 METAR KATL 161752Z 34013G19KT 10SM FEW200 18/07 A3033 RMK AO2 SLP267 60000 T01780067 10178 20133 50001=
202001161652 METAR KATL 161652Z 32014KT 10SM SCT200 BKN250 17/07 A3036 RMK AO2 SLP278 T01670067=
202001161552 METAR KATL 161552Z 33013G20KT 10SM FEW180 SCT250 14/08 A3036 RMK AO2 SLP278 T01440078=
202001161452 METAR KATL 161452Z 32015KT 10SM SCT200 14/08 A3033 RMK AO2 SLP267 60000 T01390083 53021=
202001161352 METAR KATL 161352Z 33016G23KT 10SM FEW016 SCT032 BKN140 BKN200 15/11 A3030 RMK AO2 DZE30 SLP258 P0000 T01500106=
202001161341 SPECI KATL 161341Z 32013KT 10SM SCT016 BKN032 BKN120 BKN200 15/12 A3029 RMK AO2 DZE30 ACC DSNT N-NE P0000 T01500117=
202001161331 SPECI KATL 161331Z 32015KT 10SM SCT007 BKN016 BKN120 BKN200 15/13 A3029 RMK AO2 DZE30 P0000 T01500128=
202001161252 METAR KATL 161252Z 31012KT 7SM -DZ BKN008 OVC015 16/14 A3027 RMK AO2 DZB49 SLP245 CIG 007V010 P0000 T01560139=
202001161250 SPECI KATL 161250Z 31011KT 7SM -DZ BKN008 OVC015 16/14 A3026 RMK AO2 DZB49 CIG 007V010 P0000=
202001161235 SPECI KATL 161235Z 30010KT 10SM FEW007 BKN011 OVC018 16/14 A3026 RMK AO2 CIG 009V013 T01560139=
202001161220 SPECI KATL 161220Z 29011KT 10SM SCT008 BKN018 BKN140 BKN200 16/14 A3025 RMK AO2 T01560139=
202001161152 METAR KATL 161152Z 29012KT 10SM SCT007 BKN012 BKN140 OVC200 16/14 A3024 RMK AO2 SLP235 60061 70061 T01560139 10183 20156 53005=
202001161149 SPECI KATL 161149Z 28012KT 10SM SCT007 BKN012 BKN140 OVC200 16/14 A3023 RMK AO2=
202001161052 METAR KATL 161052Z 26006KT 10SM FEW006 BKN090 BKN150 BKN200 16/14 A3022 RMK AO2 RAE0956 SLP231 ACC E-OHD-W P0000 T01560144=
202001160952 METAR KATL 160952Z 24004KT 8SM -RA BKN080 OVC100 16/14 A3019 RMK AO2 SLP219 P0018 T01610144=
202001160852 METAR KATL 160852Z 29008KT 7SM -RA FEW010 SCT075 OVC090 17/14 A3022 RMK AO2 SLP228 P0012 60043 T01670144 50007=
202001160759 SPECI KATL 160759Z 28012G25KT 8SM -RA SCT008 BKN032CB BKN080 OVC130 18/14 A3020 RMK AO2 CB NE-SE-SW MOV SE P0007 T01780144=
202001160752 METAR KATL 160752Z 31016G25KT 1 1/2SM R09R/4500VP6000FT +RA BR BKN008 OVC015CB 18/16 A3023 RMK AO2 PRESRR SLP230 CB NE-OHD-SW MOV SE P0029 T01780161=
202001160745 SPECI KATL 160745Z 28011G16KT 3/4SM R09R/5500VP6000FT +RA BR OVC008CB 18/17 A3021 RMK AO2 CB NE-OHD-SW MOV SE P0005 T01830167=
202001160652 METAR KATL 160652Z 25008KT 4SM -RA BR OVC006 18/17 A3019 RMK AO2 RAB26 SLP218 CIG 004V008 P0002 T01830167=
202001160552 METAR KATL 160552Z 24008KT 9SM BKN007 OVC030 18/17 A3020 RMK AO2 SLP220 T01830167 10194 20178 58003=
202001160452 METAR KATL 160452Z 26006KT 8SM BKN007 BKN012 OVC080 18/17 A3021 RMK AO2 SLP224 T01830167 402220133=
202001160352 METAR KATL 160352Z 23005KT 2SM BKN005 OVC012 18/17 A3020 RMK AO2 SFC VIS 10 SLP223 BINOVC T01830167=
202001160252 METAR KATL 160252Z 22005KT 2SM SCT004 BKN012 OVC250 18/17 A3021 RMK AO2 SFC VIS 10 SLP225 SCT004 V BKN T01830167 55001=
202001160227 SPECI KATL 160227Z 23005KT 10SM FEW004 BKN012 BKN110 BKN250 18/17 A3021 RMK AO2 T01830167=
202001160152 METAR KATL 160152Z 22004KT 10SM FEW006 BKN110 BKN250 18/17 A3020 RMK AO2 SLP224 T01830167=
202001160052 METAR KATL 160052Z 22005KT 10SM FEW040 BKN100 BKN250 18/17 A3021 RMK AO2 SLP227 T01830167=
202001152352 METAR KATL 152352Z 22004KT 10SM FEW025 SCT045 BKN070 BKN250 19/16 A3021 RMK AO2 SLP227 T01940161 10222 20194 51013=
202001152252 METAR KATL 152252Z 23004KT 10SM SCT027 BKN035 BKN090 BKN250 20/16 A3020 RMK AO2 SLP223 T02000161=
202001152152 METAR KATL 152152Z 22007KT 10SM FEW019 BKN027 BKN070 21/16 A3018 RMK AO2 SLP217 T02060161=
202001152052 METAR KATL 152052Z 25008KT 10SM OVC022 21/16 A3017 RMK AO2 SLP212 T02110161 55009=
202001152009 SPECI KATL 152009Z 24008KT 10SM BKN025 22/16 A3017 RMK AO2 T02170161=
202001151952 METAR KATL 151952Z 24007KT 10SM SCT026 SCT034 BKN065 BKN200 22/16 A3016 RMK AO2 SLP209 T02220161=
202001151852 METAR KATL 151852Z 25006KT 10SM FEW022 BKN065 22/16 A3018 RMK AO2 SLP215 T02170156=
202001151752 METAR KATL 151752Z 26005KT 10SM FEW022 SCT095 SCT250 21/16 A3020 RMK AO2 SLP221 T02110156 10211 20139 58012=
202001151652 METAR KATL 151652Z 14004KT 10SM FEW010 SCT065 BKN100 BKN250 18/15 A3023 RMK AO2 SLP234 T01780150=
202001151552 METAR KATL 151552Z 00000KT 10SM FEW008 SCT070 BKN100 17/14 A3025 RMK AO2 SLP240 T01670144=
202001151452 METAR KATL 151452Z 00000KT 10SM FEW008 BKN070 BKN100 16/14 A3024 RMK AO2 SLP237 T01560144 53014=
202001151352 METAR KATL 151352Z 00000KT 10SM FEW035 BKN065 15/14 A3022 RMK AO2 SLP231 T01500139 $=
202001151252 METAR KATL 151252Z 00000KT 10SM BKN060 BKN075 BKN220 14/13 A3021 RMK AO2 SLP226 T01440133=
202001151152 METAR KATL 151152Z 00000KT 10SM BCFG FEW004 BKN055 14/13 A3019 RMK AO2 SLP222 FG BANK W-N 60000 70057 T01390133 10161 20133 53009=
202001151052 METAR KATL 151052Z 28003KT 10SM MIFG FEW004 FEW220 13/12 A3018 RMK AO2 SLP218 T01330122=
202001150952 METAR KATL 150952Z 28003KT 10SM MIFG FEW110 FEW220 14/13 A3017 RMK AO2 SLP213 T01390128=
202001150852 METAR KATL 150852Z 00000KT 10SM FEW110 SCT220 14/13 A3016 RMK AO2 SLP212 60000 T01440133 56010=
202001150752 METAR KATL 150752Z 23003KT 10SM FEW050 SCT110 SCT220 16/13 A3017 RMK AO2 RAB04E14 SLP212 P0000 T01560133=
202001150652 METAR KATL 150652Z 20007KT 10SM BKN050 BKN150 BKN200 16/14 A3019 RMK AO2 SLP220 T01610139=
202001150552 METAR KATL 150552Z 22006KT 10SM SCT060 BKN080 BKN140 OVC200 16/14 A3019 RMK AO2 PRESFR SLP222 VIRGA OHD-ALQDS 60003 T01560139 10167 20156 58005=
202001150452 METAR KATL 150452Z 26005KT 10SM FEW100 BKN150 OVC200 16/14 A3021 RMK AO2 SLP226 VIRGA OHD-ALQDS T01560139 401830156=
202001150352 METAR KATL 150352Z 00000KT 10SM FEW100 BKN180 OVC250 16/14 A3020 RMK AO2 SLP225 T01560139=
202001150252 METAR KATL 150252Z 28004KT 10SM SCT100 BKN200 OVC250 16/14 A3021 RMK AO2 RAE20 SLP228 P0001 60003 T01560144 50012=
202001150152 METAR KATL 150152Z 24006KT 9SM -RA FEW055 BKN100 OVC150 16/14 A3021 RMK AO2 SLP228 P0002 T01610144=
202001150052 METAR KATL 150052Z 26004KT 9SM -RA FEW005 BKN090 OVC150 16/14 A3020 RMK AO2 WSHFT 0009 RAE2353B38 SLP225 P0000 T01610144=
202001150029 SPECI KATL 150029Z 27006KT 10SM SCT006 BKN090 OVC150 16/14 A3021 RMK AO2 WSHFT 0009 RAE2353 P0000 T01610144=
202001142352 METAR KATL 142352Z 16005KT 8SM -RA FEW004 BKN100 OVC150 16/14 A3018 RMK AO2 SLP215 P0004 60038 T01610144 10172 20161 58018=
202001142333 SPECI KATL 142333Z 15013KT 8SM -RA FEW004 BKN080 OVC110 16/14 A3017 RMK AO2 PRESFR P0004 T01610144=
202001142252 METAR KATL 142252Z 21009KT 1 1/2SM -RA SCT004 BKN050 OVC110 16/15 A3023 RMK AO2 SFC VIS 7 RAE28B47 SLP233 SCT004 V BKN P0002 T01610150=
202001142217 SPECI KATL 142217Z 17008KT 1 1/2SM -RA SCT004 BKN025 OVC075 16/15 A3022 RMK AO2 SFC VIS 7 SCT004 V BKN P0002 T01610150=
202001142152 METAR KATL 142152Z 19008KT 3/4SM R09R/P6000FT -RA BR BKN004 BKN022 OVC090 16/15 A3024 RMK AO2 SFC VIS 4 SLP236 CIG 003V005 TWRINC P0006 T01610150=
202001142121 SPECI KATL 142121Z 18005KT 3/4SM R09R/P6000FT -RA BR BKN004 BKN022 OVC090 17/15 A3023 RMK AO2 SFC VIS 3 CIG 003V005 TWRINC P0003 T01670150=
202001142110 SPECI KATL 142110Z 16005KT 1 1/2SM -RA BR BKN004 BKN022 OVC090 17/15 A3023 RMK AO2 SFC VIS 6 P0002 T01670150=
202001142052 METAR KATL 142052Z 17004KT 2SM -RA BR SCT004 BKN022 OVC060 17/16 A3023 RMK AO2 SFC VIS 5 SLP233 P0012 60026 T01670156 56010=
202001142024 SPECI KATL 142024Z 16005KT 2SM RA BR BKN005 BKN060 OVC095 17/15 A3024 RMK AO2 SFC VIS 5 P0007 T01670150=
202001142019 SPECI KATL 142019Z 16005KT 3SM RA BR FEW005 BKN070 OVC095 17/15 A3024 RMK AO2 SFC VIS 4 P0006 T01670150=
202001141952 METAR KATL 141952Z 20003KT 4SM RA BR FEW007 SCT060 OVC085 17/16 A3025 RMK AO2 SLP238 P0007 T01670156=
202001141852 METAR KATL 141852Z 00000KT 4SM -RA BR FEW006 SCT048 OVC080 17/15 A3023 RMK AO2 LTG DSNT E SLP234 CB DSNT E P0007 T01720150=
202001141839 SPECI KATL 141839Z 18003KT 5SM -RA BR FEW006 OVC080 17/15 A3024 RMK AO2 P0005 T01720150=
202001141752 METAR KATL 141752Z 24004KT 7SM -RA FEW010 BKN044 OVC065 17/15 A3026 RMK AO2 SLP244 P0006 60016 T01720150 10183 20156 58007=
202001141652 METAR KATL 141652Z 33008KT 7SM -RA FEW008 BKN038 OVC055 17/15 A3030 RMK AO2 WSHFT 1539 SLP256 P0009 T01720150=
202001141604 SPECI KATL 141604Z 34007G16KT 3SM RA BR FEW007 BKN032 OVC050 17/15 A3032 RMK AO2 WSHFT 1539 P0004 T01720150=
202001141601 SPECI KATL 141601Z 33010KT 3SM R09R/5000VP6000FT RA BR SCT008 BKN020 OVC038 17/15 A3032 RMK AO2 WSHFT 1539 P0003 T01720150=
202001141552 METAR KATL 141552Z 34011KT 3SM R09R/5500VP6000FT -RA BR SCT004 BKN012 OVC030 17/15 A3033 RMK AO2 WSHFT 1537 RAB41 SLP267 P0001 T01720150=
202001141541 SPECI KATL 141541Z 35019G24KT 3SM -RA BR BKN004 OVC014 18/16 A3033 RMK AO2 RAB41 P0000 T01780156=
202001141452 METAR KATL 141452Z 22005KT 7SM OVC007 17/16 A3028 RMK AO2 SLP251 T01720161 53016=
202001141352 METAR KATL 141352Z 16005KT 10SM BKN008 BKN075 BKN120 OVC200 17/15 A3025 RMK AO2 PRESFR SLP241 T01670150=
202001141329 SPECI KATL 141329Z 20004KT 10SM FEW004 OVC008 17/15 A3028 RMK AO2 T01670150=
202001141252 METAR KATL 141252Z 00000KT 7SM FEW004 OVC012 16/15 A3026 RMK AO2 SLP244 CIG 010V015 T01610150=
202001141230 SPECI KATL 141230Z 00000KT 7SM FEW004 BKN011 BKN100 BKN180 16/15 A3025 RMK AO2 T01610150=
202001141205 SPECI KATL 141205Z 00000KT 6SM R09R/4500VP6000FT BR FEW002 SCT011 SCT110 BKN180 16/14 A3024 RMK AO2 VIS E-S 1 1/4 T01610144=
202001141152 METAR KATL 141152Z 00000KT 1 1/4SM R09R/4000VP6000FT BR SCT002 BKN011 BKN180 16/14 A3024 RMK AO2 SLP235 SCT002 V BKN TWRINC 60001 70123 T01560144 10178 20156 55002=
202001141102 SPECI KATL 141102Z 00000KT 1 1/4SM BR SCT002 SCT017 SCT220 16/14 A3022 RMK AO2 SFC VIS 6 VIS N-NE 1 1/4 SCT002 V BKN TWRINC T01610144=
202001141052 METAR KATL 141052Z 00000KT 1 1/4SM BR BKN002 BKN017 BKN220 16/15 A3021 RMK AO2 SFC VIS 5 SLP227 VIS N-NE 1 1/4 BKN002 V SCT TWRINC T01610150=
202001141030 SPECI KATL 141030Z 11004KT 1 1/4SM BR BKN002 BKN017 16/15 A3021 RMK AO2 SFC VIS 5 BKN002 V SCT TWRINC T01610150=
202001140952 METAR KATL 140952Z 19003KT 0SM R09R/P6000FT BR BKN002 OVC019 17/16 A3022 RMK AO2 SFC VIS 5 SLP230 TWRINC T01670156=
202001140852 METAR KATL 140852Z 18007KT 0SM R09R/3500VP6000FT BR VV002 17/16 A3024 RMK AO2 SFC VIS 3/4 SLP236 TWRINC 60001 T01720161 58016=
202001140752 METAR KATL 140752Z 18003KT 0SM R09R/P6000FT BR BKN002 BKN036 BKN065 OVC180 17/16 A3026 RMK AO2 SFC VIS 5 RAB0657E14 SLP243 BKN002 V SCT TWRINC P0000 T01720161=
202001140732 SPECI KATL 140732Z 20003KT 0SM R09R/P6000FT BR BKN002 OVC037 17/16 A3027 RMK AO2 SFC VIS 5 RAB0657E14 BKN002 V SCT TWRINC P0000 T01720161=
202001140718 SPECI KATL 140718Z 22003KT 5SM BR BKN003 BKN085 OVC110 17/16 A3027 RMK AO2 RAB0657E14 P0000 T01720161=
202001140652 METAR KATL 140652Z 00000KT 10SM FEW004 SCT110 BKN150 OVC200 17/16 A3028 RMK AO2 RAE24 SLP249 P0001 T01720161=
202001140552 METAR KATL 140552Z 09005KT 9SM -RA FEW004 BKN070 OVC100 18/16 A3029 RMK AO2 TSE25 SLP253 LTG DSNT NE-SE P0009 60089 T01780161 10183 20178 58017=
202001140526 SPECI KATL 140526Z 29005KT 5SM -RA BR FEW003 SCT055 OVC080 18/17 A3032 RMK AO2 TSE25 LTG DSNT NE-SE TS MOV NE P0006 T01780167=
202001140452 METAR KATL 140452Z 29009KT 2SM TSRA BR FEW003 SCT015CB OVC070 18/17 A3033 RMK AO2 SFC VIS 3 TSB0358 SLP268 OCNL LTGIC SE-SW TS SE-SW MOV NE P0016 T01780167 401890150=
202001140358 SPECI KATL 140358Z 36008KT 2SM TSRA FEW003 BKN015CB OVC050 18/17 A3033 RMK AO2 TSB58 OCNL LTGIC SW-W TS SW-W MOV NE P0001 T01830172=
202001140352 METAR KATL 140352Z 36010KT 2SM RA BR SCT004 BKN015CB OVC050 18/17 A3033 RMK AO2 LTG DSNT SW AND W SLP267 CB N-NE DSNT SW-W P0062 T01830172=
202001140314 SPECI KATL 140314Z 11004KT 1 1/2SM RA BR FEW003 BKN020 OVC060 18/17 A3034 RMK AO2 P0008 T01830172=
202001140252 METAR KATL 140252Z 00000KT 3SM -RA BR FEW003 BKN020 OVC070 18/17 A3034 RMK AO2 SLP272 P0002 60002 T01780172 53006=
202001140240 SPECI KATL 140240Z 00000KT 3SM -RA BR SCT003 BKN012 OVC110 18/17 A3035 RMK AO2 P0001 T01780172=
202001140152 METAR KATL 140152Z 14003KT 1/2SM R09R/3500V5500FT -RA BR OVC003 18/17 A3033 RMK AO2 SFC VIS 1 RAB05 SLP268 P0000 T01780172=
202001140057 SPECI KATL 140057Z 16004KT 1/2SM R09R/P6000FT BR OVC003 18/17 A3033 RMK AO2 SFC VIS 3 T01830167=
202001140052 METAR KATL 140052Z 15003KT 1 1/2SM BR OVC004 18/17 A3032 RMK AO2 SFC VIS 5 SLP265 CIG 003V005 T01830167=
202001140036 SPECI KATL 140036Z 13004KT 3SM OVC005 18/17 A3032 RMK AO2 SFC VIS 9 CIG 004V007 T01830167=
202001132352 METAR KATL 132352Z 13005KT 10SM OVC007 18/16 A3032 RMK AO2 SLP264 CIG 005V008 60001 T01830161 10189 20178 53008=
202001132252 METAR KATL 132252Z 00000KT 10SM OVC007 18/16 A3031 RMK AO2 SLP260 T01830161=
202001132152 METAR KATL 132152Z 14004KT 10SM OVC008 19/16 A3030 RMK AO2 SLP257 T01890161=
202001132130 SPECI KATL 132130Z 16006KT 10SM OVC010 19/16 A3031 RMK AO2 T01890161=
202001132109 SPECI KATL 132109Z 13004KT 10SM OVC009 19/16 A3030 RMK AO2 T01890161=
202001132052 METAR KATL 132052Z 14004KT 10SM OVC010 19/16 A3030 RMK AO2 SLP256 60001 T01890156 56013=
202001131952 METAR KATL 131952Z 13004KT 10SM OVC011 19/16 A3030 RMK AO2 RAE02 SLP256 P0000 T01890156=
202001131852 METAR KATL 131852Z 12004KT 10SM -RA FEW008 BKN012 OVC250 18/15 A3032 RMK AO2 RAB23 SLP263 P0001 T01830150=
202001131752 METAR KATL 131752Z 14004KT 10SM SCT008 BKN018 BKN110 OVC250 18/14 A3034 RMK AO2 SLP270 60032 T01780144 10183 20150 58013=
202001131734 SPECI KATL 131734Z 15005KT 10SM SCT008 BKN018 BKN025 OVC250 18/15 A3035 RMK AO2 BINOVC T01830150=
202001131652 METAR KATL 131652Z 07007KT 8SM SCT010 BKN021 BKN050 BKN250 18/14 A3035 RMK AO2 PRESFR SLP275 T01780139=
202001131650 SPECI KATL 131650Z 06006KT 8SM SCT010 BKN021 BKN050 BKN250 17/14 A3035 RMK AO2 PRESFR BINOVC=
202001131640 SPECI KATL 131640Z 06004KT 10SM BKN010 BKN021 BKN050 OVC250 17/14 A3037 RMK AO2 BINOVC T01670139=
202001131552 METAR KATL 131552Z 05005KT 10SM FEW010 SCT025 BKN100 BKN150 BKN250 17/13 A3038 RMK AO2 RAE03 SLP286 P0000 T01670133=
202001131452 METAR KATL 131452Z 03008KT 8SM -RA FEW008 SCT055 BKN110 OVC150 16/13 A3038 RMK AO2 SLP285 P0013 60032 T01560128 50016=
202001131419 SPECI KATL 131419Z 35009KT 5SM RA BR FEW018 BKN060 OVC110 15/13 A3038 RMK AO2 PRESFR P0010 T01500128=
202001131352 METAR KATL 131352Z 28006KT 4SM RA BKN018 BKN032 OVC075 16/12 A3038 RMK AO2 LTG DSNT N SLP287 CB DSNT NW-N P0010 T01560122=
202001131347 SPECI KATL 131347Z 32003KT 8SM -RA SCT018 BKN035 OVC075 16/11 A3038 RMK AO2 LTG DSNT N AND SE CB DSNT SE & NW-N P0009=
202001131320 SPECI KATL 131320Z 08005KT 4SM -RA BR FEW004 SCT014 OVC018 16/14 A3036 RMK AO2 LTG DSNT SE AND S CB DSNT SE-SW-W P0004 T01560139=
202001131252 METAR KATL 131252Z 01008KT 2SM -RA BR BKN004 OVC014 16/14 A3034 RMK AO2 SFC VIS 4 LTG DSNT NE-S SLP272 TSB13E44 CIG 003V007 BKN004 V SCT TS MOV NE TWRINC P0009 T01560144=
202001131249 SPECI KATL 131249Z 34007KT 2SM -RA BR BKN004 OVC014 16/14 A3035 RMK AO2 SFC VIS 4 LTG DSNT NE-S PRESRR TSB13E44 CIG 003V007 BKN004 V SCT TS MOV NE TWRINC P0009=
202001131246 SPECI KATL 131246Z 33007KT 1/4SM R09R/P6000FT -RA BR BKN005 OVC014CB 16/14 A3035 RMK AO2 SFC VIS 4 LTG DSNT NE-S TSB13E44 CIG 003V007 BKN005 V SCT TS MOV NE TWRINC P0009=
202001131231 SPECI KATL 131231Z 05008KT 1/4SM R09R/P6000FT TSRA BR BKN004 OVC014CB 16/14 A3032 RMK AO2 SFC VIS 2 1/2 LTG DSNT S AND SW TSB13 BKN004 V SCT OCNL LTGICCG SE TS SE MOV NE TWRINC P0006 T01610144 $=
202001131217 SPECI KATL 131217Z 05003KT 1/4SM R09R/P6000FT VCTS -RA BR SCT004 OVC011CB 16/14 A3035 RMK AO2 SFC VIS 4 LTG DSNT E-SW TSB13 SCT004 V BKN OCNL LTGICCG S-SW TS VC S-SW MOV NE TWRINC P0003 T01610144 $=
202001131152 METAR KATL 131152Z 01007KT 1/4SM R09R/P6000FT -RA BR BKN004 OVC009 16/14 A3033 RMK AO2 SFC VIS 4 SLP268 TSE42 CIG 003V006 BKN004 V SCT OCNL LTG DSNT E-S-SW TS MOV E TWRINC P0008 60077 70077 T01610144 10161 20156 53018 $=
202001131145 SPECI KATL 131145Z 35006KT 1/4SM R09R/P6000FT -RA BR BKN004 BKN009 OVC014 16/14 A3033 RMK AO2 SFC VIS 4 LTG DSNT E-SW TSE42 CIG 003V006 OCNL LTG DSNT E-S-SW TS MOV E TWRINC P0008 T01610144=
202001131122 SPECI KATL 131122Z 03004KT 1/4SM R09R/P6000FT VCTS -RA BR BKN004 OVC008CB 16/14 A3033 RMK AO2 SFC VIS 4 PRESRR TSB12 CIG 003V006 OCNL LTGICCG E-S TS VC E-S MOV NE TWRINC P0001 T01610144 $=
202001131109 SPECI KATL 131109Z 05005KT 1/4SM R09R/P6000FT -RA BR BKN005 BKN008 OVC031 16/14 A3031 RMK AO2 SFC VIS 6 LTG DSNT S P0000 T01560144 $=
202001131052 METAR KATL 131052Z 02008KT 1/4SM R09R/P6000FT -RA BR BKN005 BKN016 OVC031 16/14 A3029 RMK AO2 SFC VIS 4 SLP254 TSE46 CIG 003V007 BKN004 V SCT OCNL LTG DSNT NE-E-S TS MOV NE TWRINC P0035 T01560144 $=
202001131047 SPECI KATL 131047Z 04007KT 1/4SM R09R/P6000FT RA BR BKN003 BKN016 OVC031 16/14 A3029 RMK AO2 SFC VIS 3 TSE46 BKN003 V SCT TS MOV NE TWRINC P0034 $=
202001131032 SPECI KATL 131032Z 04007KT 1/4SM R09R/5000VP6000FT VCTS +RA FG BKN003 OVC013CB 16/14 A3029 RMK AO2 SFC VIS 1/2 OCNL LTGICCG E-SE TS VC E-SE MOV NE CB OHD MOV NE TWRINC P0021 T01560144 $=
202001131007 SPECI KATL 131007Z VRB04KT 1/4SM R09R/P6000FT VCTS -RA BR BKN003 OVC013CB 16/14 A3029 RMK AO2 SFC VIS 4 OCNL LTGICCG SE-S TS VC SE-S MOV NE TWRINC P0000 T01610144 $=
202001130952 METAR KATL 130952Z 03005KT 4SM VCTS -RA BR SCT004 OVC015CB 16/14 A3028 RMK AO2 LTG DSNT S RAB0853 SLP250 OCNL LTGICCG S TS VC S MOV NE P0007 T01610144=
202001130852 METAR KATL 130852Z 16003KT 6SM BR FEW004 BKN017 OVC050 16/14 A3028 RMK AO2 LTG DSNT E AND SE RAE42 SLP249 P0000 60027 T01560144 58000=
202001130752 METAR KATL 130752Z 13005KT 6SM -RA BR FEW007 BKN025TCU OVC033 16/14 A3028 RMK AO2 SLP251 TSE05 OCNL LTG DSNT SE & S TS MOV E CB DSNT SE & S TCU NE P0026 T01560139=
202001130748 SPECI KATL 130748Z 13004KT 3SM +RA BR FEW009 BKN025TCU OVC033 16/14 A3028 RMK AO2 TSE05 OCNL LTG DSNT SE & S TS MOV E CB DSNT SE & S TCU OHD-NE P0026=
202001130723 SPECI KATL 130723Z 12003KT 2 1/2SM +RA BR SCT009 OVC025 16/14 A3029 RMK AO2 TSE05 OCNL LTG DSNT E & SW TS MOV E P0008 T01560139=
202001130707 SPECI KATL 130707Z 00000KT 10SM -RA BKN009 OVC018 16/14 A3029 RMK AO2 TSE05 OCNL LTGCG DSNT E-SE TS MOV SE P0000 T01560144=
202001130652 METAR KATL 130652Z 19003KT 10SM VCTS -RA BKN009 BKN018CB OVC024 16/14 A3029 RMK AO2 RAB12 SLP253 TSB12 OCNL LTGICCG E-SE TS VC E-SE MOV NE P0001 T01560139=
202001130643 SPECI KATL 130643Z 17004KT 8SM VCTS -RA BKN009 BKN018CB OVC024 16/14 A3028 RMK AO2 RAB12 TSB12 OCNL LTGICCG SE TS VC SE MOV NE P0001 T01610139=
202001130614 SPECI KATL 130614Z 16003KT 10SM VCTS -RA BKN020CB OVC026 16/14 A3028 RMK AO2 RAB12 TSB12 OCNL LTGICCG SE-SW TS VC SE-SW MOV NE P0000 T01610139=
202001130552 METAR KATL 130552Z 00000KT 10SM OVC022 16/13 A3028 RMK AO2 LTG DSNT E-SW TSE50 SLP250 CB DSNT SE-SW T01610133 10183 20161 58003=
202001130452 METAR KATL 130452Z 32004KT 10SM BKN017 BKN030 OVC055 16/13 A3030 RMK AO2 LTG DSNT SE AND S SLP257 CB DSNT SE-SW T01610133 402060094=
202001130414 SPECI KATL 130414Z 24003KT 10SM BKN024 BKN036 OVC050 16/13 A3031 RMK AO2 T01610133=
202001130352 METAR KATL 130352Z 00000KT 10SM FEW012 SCT022 OVC038 16/13 A3030 RMK AO2 SLP259 T01610128=
202001130252 METAR KATL 130252Z 16004KT 10SM SCT038 BKN075 BKN110 OVC200 17/12 A3029 RMK AO2 SLP255 ACC E-OHD-W T01670122 50003=
202001130152 METAR KATL 130152Z 00000KT 10SM SCT065 BKN095 OVC200 17/12 A3030 RMK AO2 SLP258 ACC NE-OHD-SW T01720122=
202001130052 METAR KATL 130052Z 14003KT 10SM SCT070 BKN100 BKN200 OVC250 18/11 A3027 RMK AO2 SLP251 ACC NE-SE T01780111=
202001122352 METAR KATL 122352Z 17006KT 10SM OVC075 18/11 A3028 RMK AO2 SLP252 T01830111 10206 20172 53013=
202001122252 METAR KATL 122252Z 16003KT 10SM SCT085 BKN110 BKN200 BKN250 19/11 A3026 RMK AO2 SLP245 VIRGA SE-S ACC OHD-ALQDS T01890111=
202001122152 METAR KATL 122152Z 20004KT 10SM SCT100 SCT120 BKN250 19/11 A3026 RMK AO2 SLP244 T01940106=
202001122052 METAR KATL 122052Z 00000KT 10SM FEW080 SCT100 SCT250 BKN300 20/11 A3024 RMK AO2 SLP238 T02000106 56013=
202001121952 METAR KATL 121952Z 22004KT 10SM SCT100 SCT250 19/11 A3024 RMK AO2 SLP238 T01940106=
202001121852 METAR KATL 121852Z 22003KT 10SM FEW030 FEW160 FEW250 18/11 A3025 RMK AO2 SLP242 T01830106=
202001121752 METAR KATL 121752Z VRB05KT 10SM FEW030 FEW200 FEW250 18/10 A3028 RMK AO2 SLP251 T01780100 10178 20094 58007=
202001121652 METAR KATL 121652Z 00000KT 10SM FEW025 FEW200 FEW250 16/09 A3030 RMK AO2 SLP258 T01610094=
202001121552 METAR KATL 121552Z 35004KT 10SM FEW020 FEW200 FEW250 14/09 A3032 RMK AO2 SLP263 T01440094=
202001121452 METAR KATL 121452Z 34005KT 10SM FEW012 FEW200 FEW250 13/09 A3030 RMK AO2 SLP260 T01280094 53020=
202001121352 METAR KATL 121352Z 34006KT 10SM FEW025 FEW100 FEW200 11/09 A3027 RMK AO2 SLP250 T01110089=
202001121252 METAR KATL 121252Z 33003KT 10SM FEW012 FEW100 FEW200 10/08 A3026 RMK AO2 SLP245 T01000083=
202001121152 METAR KATL 121152Z 32006KT 10SM FEW012 FEW100 FEW200 10/08 A3024 RMK AO2 SLP240 70128 T01000083 10144 20100 53020=
202001121052 METAR KATL 121052Z 29003KT 10SM FEW012 BKN200 11/09 A3022 RMK AO2 SLP232 T01060089=
202001120952 METAR KATL 120952Z 29004KT 10SM FEW015 BKN200 11/09 A3019 RMK AO2 SLP222 T01110094=
202001120852 METAR KATL 120852Z 00000KT 10SM FEW015 BKN200 12/09 A3018 RMK AO2 SLP218 T01170094 53012=
202001120752 METAR KATL 120752Z 29003KT 10SM FEW026 BKN200 13/09 A3017 RMK AO2 SLP214 T01280094=
202001120652 METAR KATL 120652Z 29008KT 10SM FEW017 FEW026 SCT100 OVC200 13/09 A3015 RMK AO2 SLP208 T01330094=
202001120552 METAR KATL 120552Z 30009KT 10SM FEW015 SCT028 BKN100 OVC200 14/09 A3015 RMK AO2 RAB25E47 SLP205 P0000 60013 T01440094 10194 20144 51015=
202001120526 SPECI KATL 120526Z 30014G20KT 8SM -RA SCT010 BKN024TCU OVC090 16/13 A3015 RMK AO2 RAB25 FROPA TCU NE-OHD-SW P0000 T01610128=
202001120516 SPECI KATL 120516Z 25007KT 10SM SCT014 BKN026TCU BKN090 BKN150 17/15 A3014 RMK AO2 TCU SW-NW SHRA SW-NW T01670150=
202001120452 METAR KATL 120452Z 22007KT 10SM FEW012 SCT038 SCT090 BKN150 17/15 A3014 RMK AO2 RAE01 SLP201 P0000 T01720150 402110156=
202001120352 METAR KATL 120352Z 21011G19KT 6SM -RA BR FEW011 BKN036 OVC055 18/16 A3013 RMK AO2 RAB09 SLP199 P0001 T01780156 $=
202001120341 SPECI KATL 120341Z 23008KT 6SM -RA BR FEW014 BKN036 OVC065 18/16 A3013 RMK AO2 RAB09 P0001 T01780156 $=
202001120316 SPECI KATL 120316Z 21008KT 4SM -RA BR SCT014 BKN028 OVC060 18/16 A3012 RMK AO2 RAB09 P0000 T01780156 $=
202001120252 METAR KATL 120252Z 21007KT 10SM SCT014 BKN055 OVC095 18/16 A3010 RMK AO2 SLP188 MDT CU E-S W-NW 60012 T01780156 53032 $=
202001120216 SPECI KATL 120216Z 21011KT 10SM SCT014 BKN038 OVC080 18/16 A3008 RMK AO2 T01830161 $=
202001120152 METAR KATL 120152Z 21011G18KT 10SM BKN012 BKN018 OVC038 18/16 A3007 RMK AO2 RAE15 SLP177 CIG 010V014 P0001 T01830161 $=
202001120052 METAR KATL 120052Z 19011KT 6SM -RA BR BKN010 OVC020 18/17 A3002 RMK AO2 LTG DSNT S TSE02 SLP160 TS MOVD NE CIG 008V012 CB DSNT E-S P0011 T01830167 $=
202001120033 SPECI KATL 120033Z 20013G20KT 7SM -RA BKN010 BKN018 BKN065 OVC130 18/17 A3004 RMK AO2 LTG DSNT S TSE02 TS MOVD NE CIG 008V012 CB DSNT S P0008 T01830167 $=
202001120002 SPECI KATL 120002Z 19012G19KT 5SM RA BR FEW008 BKN080 OVC110 19/17 A3001 RMK AO2 TSE02 TS MOVD NE P0003 T01890172 $=
202001112352 METAR KATL 112352Z 20015G20KT 5SM TSRA BR FEW011 BKN046CB OVC085 19/17 A3000 RMK AO2 WSHFT 2239 SLP155 OCNL LTGICCA OHD-ALQDS TS OHD-ALQDS MOV NE P0097 60113 T01940172 10211 20183 53007 $=
202001112322 SPECI KATL 112322Z 23009KT 3SM TSRA BR FEW007 SCT016 OVC036CB 18/17 A3000 RMK AO2 WSHFT 2239 FRQ LTGICCGCA OHD-ALQDS TS OHD-ALQDS MOV NE P0083 T01830167 $=
202001112316 SPECI KATL 112316Z 22010G22KT 2 1/2SM R09R/3000VP6000FT +TSRA BR SCT008 OVC015CB 18/17 A2999 RMK AO2 WSHFT 2239 FRQ LTGICCGCA OHD-ALQDS TS OHD-ALQDS MOV NE P0080 T01830167 $=
202001112313 SPECI KATL 112313Z 20013G22KT 1 1/2SM R09R/3000VP6000FT +TSRA BR SCT008 OVC015CB 18/17 A2999 RMK AO2 WSHFT 2239 PRESFR FRQ LTGICCGCA OHD-ALQDS TS OHD-ALQDS MOV NE P0078 T01830167 $=
202001112309 SPECI KATL 112309Z 21008G18KT 170V260 3/4SM R09R/3000VP6000FT +TSRA BR SCT008 OVC015CB 18/17 A3001 RMK AO2 WSHFT 2239 FRQ LTGICCGCA OHD-ALQDS TS OHD-ALQDS MOV NE P0053 T01830167 $=
202001112258 SPECI KATL 112258Z 23010G30KT 1SM R09R/4000VP6000FT +TSRA BR SCT008 OVC015CB 18/17 A3001 RMK AO2 WSHFT 2239 FRQ LTGICCGCA NE-OHD-SW TS NE-OHD-SW MOV NE P0025 T01830167 $=
202001112256 SPECI KATL 112256Z 24010G32KT 3/4SM R09R/4000VP6000FT +TSRA BR SCT010 OVC016CB 18/17 A3000 RMK AO2 WSHFT 2239 FRQ LTGICCGCA NE-OHD-SW TS NE-OHD-SW MOV NE P0020 T01830167 $=
202001112252 METAR KATL 112252Z 26019G32KT 3/4SM R09R/4000VP6000FT +TSRA BR SCT008 OVC015CB 19/17 A3001 RMK AO2 PK WND 22032/2248 RAB27 TSB22 PRESRR SLP156 FRQ LTGICCGCA N-OHD-SW TS N-OHD-SW MOV NE P0005 T01940172 $=
202001112238 SPECI KATL 112238Z 18014G22KT 10SM -TSRA SCT010 BKN018 OVC028CB 21/18 A2998 RMK AO2 RAB27 TSB22 FRQ LTGICCGCA SW-NW-N TS SW-NW-N MOV NE P0000 T02110178 $=
202001112223 SPECI KATL 112223Z 17013G24KT 10SM TS BKN014 BKN026CB BKN075 OVC200 21/18 A2998 RMK AO2 TSB22 FRQ LTGICCGCA SW-NW-N TS SW-NW-N MOV NE T02110178 $=
202001112152 METAR KATL 112152Z 17018G24KT 10SM BKN014 BKN023 BKN030 OVC250 21/18 A2996 RMK AO2 PK WND 18027/2139 SLP140 LTG DSNT SW-NW CB DSNT SW-NW T02110178 $=
202001112052 METAR KATL 112052Z 17017G21KT 10SM BKN010 OVC016 21/18 A2998 RMK AO2 RAE17 SLP148 CIG 008V012 P0000 60011 T02060183 56018 $=
202001112049 SPECI KATL 112049Z 17012G20KT 10SM BKN010 OVC016 21/18 A2999 RMK AO2 RAE17 CIG 008V012 P0000 $=
202001111952 METAR KATL 111952Z 17012G19KT 7SM -RA BKN008 OVC019 21/19 A3001 RMK AO2 SLP158 CIG 006V010 P0006 T02060189 $=
202001111937 SPECI KATL 111937Z 18012G19KT 3SM R09R/5000VP6000FT -RA BR SCT006 BKN009 OVC014 20/18 A3001 RMK AO2 P0006 T02000183=
202001111918 SPECI KATL 111918Z 18013G17KT 7SM -RA BKN009 OVC014 20/18 A3002 RMK AO2 CIG 007V011 P0001 T02000183=
202001111858 SPECI KATL 111858Z 17011KT 2SM -RA BR OVC008 20/18 A3004 RMK AO2 CIG 006V010 P0000 T02000183=
202001111852 METAR KATL 111852Z 17013G18KT 1 3/4SM R09R/6000VP6000FT RA BR OVC008 20/18 A3004 RMK AO2 PK WND 17028/1815 DZE12RAB12 SLP167 CIG 006V010 P0005 T02000183=
202001111824 SPECI KATL 111824Z 17013G28KT 2SM -RA BR BKN009 OVC015 20/18 A3005 RMK AO2 PK WND 17028/1815 DZE12RAB12 CIG 007V011 P0001 T02000178=
202001111752 METAR KATL 111752Z 17013G21KT 8SM -DZ BKN009 OVC015 20/18 A3007 RMK AO2 SLP179 RAE11DZB11 CIG 007V011 P0000 60002 T02000178 10200 20183 58024=
202001111718 SPECI KATL 111718Z 17012G19KT 7SM -DZ BKN008 OVC015 20/18 A3010 RMK AO2 RAE11DZB11 CIG 006V010 P0000 T02000178=
202001111710 SPECI KATL 111710Z 18012G20KT 4SM -RA BR SCT006 BKN010 OVC020 19/18 A3010 RMK AO2 P0000 T01940178=
202001111652 METAR KATL 111652Z 16012G21KT 2SM -RA BR SCT008 BKN013 OVC020 19/18 A3012 RMK AO2 SLP195 DZE11RAB11 CIG 010V016 P0002 T01940178=
202001111639 SPECI KATL 111639Z 16012G20KT 2SM -RA BR FEW008 OVC013 19/17 A3013 RMK AO2 DZE11RAB11 CIG 010V016 P0002 T01940172=
202001111631 SPECI KATL 111631Z 17012G18KT 2SM -RA BR OVC012 19/17 A3014 RMK AO2 DZE11RAB11 CIG 010V015 P0001 T01940172=
202001111552 METAR KATL 111552Z 18015G21KT 7SM -DZ BKN011 OVC015 19/17 A3015 RMK AO2 PK WND 18026/1505 SLP206 P0000 T01940167=
202001111452 METAR KATL 111452Z 18015G24KT 8SM -DZ BKN014 OVC020 19/16 A3014 RMK AO2 PK WND 17027/1427 SLP204 DZB40 P0000 60000 T01940161 53004=
202001111352 METAR KATL 111352Z 16014G20KT 10SM OVC014 19/16 A3013 RMK AO2 SLP197 CIG 013V018 T01940161=
202001111252 METAR KATL 111252Z 16013G19KT 10SM OVC013 19/16 A3012 RMK AO2 RAE1153 SLP197 CIG 012V016 P0000 T01890156=
202001111152 METAR KATL 111152Z 16012KT 10SM -RA OVC013 18/16 A3013 RMK AO2 RAB02 SLP200 CIG 011V015 P0000 60000 T01830156 10189 20156 55013=
202001111052 METAR KATL 111052Z 17011G22KT 10SM BKN013 OVC050 19/16 A3012 RMK AO2 SLP197 T01890156=
202001111038 SPECI KATL 111038Z 17013G21KT 10SM BKN013 OVC050 18/16 A3013 RMK AO2 T01830156=
202001110952 METAR KATL 110952Z 17013G19KT 10SM OVC015 18/15 A3015 RMK AO2 SLP204 CIG 014V018 T01830150=
202001110859 SPECI KATL 110859Z 15012G17KT 10SM SCT011 BKN017 BKN055 17/15 A3017 RMK AO2 T01720150=
202001110852 METAR KATL 110852Z 15010KT 10SM BKN011 BKN016 BKN055 17/15 A3017 RMK AO2 SLP213 T01720150 56018=
202001110845 SPECI KATL 110845Z 15011KT 10SM BKN013 OVC055 17/15 A3017 RMK AO2 T01720150=
202001110752 METAR KATL 110752Z 14011G16KT 10SM OVC007 17/15 A3019 RMK AO2 SLP219 T01720150=
202001110652 METAR KATL 110652Z 13006KT 10SM BKN006 OVC012 16/14 A3021 RMK AO2 SLP225 T01610144=
202001110552 METAR KATL 110552Z 13010KT 10SM BKN007 BKN012 OVC050 16/14 A3023 RMK AO2 SLP233 BINOVC T01560139 10161 20150 58017=
202001110452 METAR KATL 110452Z 13009KT 10SM BKN010 BKN060 OVC250 16/13 A3025 RMK AO2 SLP242 T01560133 401890100=
202001110417 SPECI KATL 110417Z 12009KT 10SM BKN011 BKN070 BKN250 16/13 A3027 RMK AO2 T01560128=
202001110352 METAR KATL 110352Z 12011KT 10SM FEW012 SCT020 BKN070 BKN250 16/13 A3028 RMK AO2 SLP251 T01560128=
202001110252 METAR KATL 110252Z 10009KT 10SM FEW020 SCT060 BKN250 15/12 A3028 RMK AO2 SLP253 T01500117 58016=
202001110152 METAR KATL 110152Z 10008KT 10SM FEW060 SCT150 BKN250 16/11 A3030 RMK AO2 SLP259 T01560111=
202001110052 METAR KATL 110052Z 10009KT 10SM FEW060 BKN090 BKN250 16/11 A3032 RMK AO2 SLP266 T01560111=
202001102352 METAR KATL 102352Z 10008KT 10SM BKN060 BKN150 OVC250 16/11 A3033 RMK AO2 SLP269 T01610111 10189 20161 53003=
202001102252 METAR KATL 102252Z 10007KT 10SM FEW030 SCT060 BKN150 OVC250 17/11 A3032 RMK AO2 SLP266 T01670111=
202001102152 METAR KATL 102152Z 11011KT 10SM SCT030 BKN050 BKN170 OVC250 17/11 A3032 RMK AO2 SLP266 SCT030 V BKN BINOVC T01720111=
202001102052 METAR KATL 102052Z 13009KT 10SM FEW028 BKN032 BKN055 BKN180 OVC250 18/11 A3032 RMK AO2 SLP266 T01780111 56024=
202001101952 METAR KATL 101952Z 13010KT 10SM BKN035 BKN055 BKN190 OVC250 18/11 A3033 RMK AO2 SLP269 VIRGA S T01780111=
202001101852 METAR KATL 101852Z 12008G16KT 10SM FEW050 FEW070 BKN190 BKN250 18/11 A3036 RMK AO2 SLP278 VIRGA NW T01830106=
202001101752 METAR KATL 101752Z 11012KT 10SM SCT050 SCT070 BKN180 BKN220 OVC250 17/10 A3039 RMK AO2 SLP290 VIRGA W-NW T01670100 10167 20100 58020=
202001101652 METAR KATL 101652Z 12006KT 10SM SCT045 BKN060 BKN180 BKN250 15/09 A3044 RMK AO2 SLP306 SCT045 V BKN T01500089=
202001101552 METAR KATL 101552Z 09009KT 10SM SCT055 SCT065 BKN180 OVC250 13/08 A3047 RMK AO2 SLP316 VIRGA ALQDS T01330083=
202001101452 METAR KATL 101452Z 10010KT 10SM FEW050 SCT120 BKN200 BKN250 12/08 A3045 RMK AO2 SLP312 VIRGA E-SE & SW-NW T01220078 53011=
202001101352 METAR KATL 101352Z 09011KT 10SM FEW065 SCT120 BKN200 BKN250 11/08 A3043 RMK AO2 SLP304 T01110078=
202001101252 METAR KATL 101252Z 10009KT 10SM FEW038 SCT070 BKN200 BKN250 11/07 A3043 RMK AO2 SLP304 T01060067=
202001101152 METAR KATL 101152Z 10008KT 10SM FEW070 SCT180 BKN250 11/07 A3042 RMK AO2 SLP301 T01060067 10133 20106 55003=
202001101052 METAR KATL 101052Z 11007KT 10SM SCT070 SCT180 BKN250 12/07 A3041 RMK AO2 SLP298 T01170067=
202001100952 METAR KATL 100952Z 12011KT 10SM SCT180 BKN250 12/07 A3040 RMK AO2 SLP293 T01220072=
202001100852 METAR KATL 100852Z 11009KT 10SM FEW065 BKN180 OVC250 12/07 A3043 RMK AO2 SLP302 T01220072 58004=
202001100752 METAR KATL 100752Z 09006KT 10SM FEW065 BKN180 OVC250 12/07 A3045 RMK AO2 SLP310 T01220067=
202001100652 METAR KATL 100652Z 10008KT 10SM FEW065 BKN180 BKN250 13/07 A3045 RMK AO2 SLP309 T01280067=
202001100552 METAR KATL 100552Z 11010KT 10SM FEW035 SCT065 OVC180 13/07 A3044 RMK AO2 SLP307 T01330067 10156 20133 58017=
202001100452 METAR KATL 100452Z 11009KT 10SM SCT035 BKN060 OVC200 14/06 A3047 RMK AO2 SLP317 T01390061 401780028=
202001100352 METAR KATL 100352Z 10006KT 10SM BKN035 BKN060 OVC200 14/06 A3049 RMK AO2 SLP326 T01440061=
202001100252 METAR KATL 100252Z 12005KT 10SM BKN038 BKN060 OVC200 15/06 A3049 RMK AO2 SLP326 T01500056 51006=
202001100152 METAR KATL 100152Z 12004KT 10SM SCT040 BKN055 BKN150 OVC250 15/06 A3049 RMK AO2 SLP327 T01500061=
202001100052 METAR KATL 100052Z 12004KT 10SM BKN055 BKN150 OVC250 15/07 A3048 RMK AO2 SLP324 T01500067=
202001092352 METAR KATL 092352Z 14005KT 10SM BKN050 BKN250 16/07 A3048 RMK AO2 SLP322 T01560067 10178 20156 53016=
202001092252 METAR KATL 092252Z 16008KT 10SM BKN045 BKN250 16/07 A3046 RMK AO2 SLP317 T01610067=
202001092152 METAR KATL 092152Z 16011G18KT 10SM FEW045 BKN250 17/07 A3044 RMK AO2 SLP308 T01670067=
202001092052 METAR KATL 092052Z 17013G24KT 10SM FEW050 BKN250 17/06 A3043 RMK AO2 SLP305 T01720056 56026=
202001091952 METAR KATL 091952Z 14009KT 10SM FEW150 BKN250 17/02 A3045 RMK AO2 SLP312 T01670022=
202001091852 METAR KATL 091852Z 14013G19KT 10SM BKN250 16/M01 A3047 RMK AO2 SLP319 T01561011=
202001091752 METAR KATL 091752Z 14011G18KT 10SM BKN250 16/M02 A3051 RMK AO2 SLP332 T01561017 10156 20028 58009=
202001091652 METAR KATL 091652Z 12010G15KT 10SM BKN250 14/M02 A3054 RMK AO2 SLP344 T01391017=
202001091552 METAR KATL 091552Z 12010KT 10SM BKN250 12/M02 A3055 RMK AO2 SLP349 T01171017=
202001091452 METAR KATL 091452Z 13007KT 10SM BKN250 09/M02 A3053 RMK AO2 SLP343 T00941017 53019=
202001091352 METAR KATL 091352Z 11008KT 10SM SCT250 07/M02 A3051 RMK AO2 SLP337 T00671017=
202001091252 METAR KATL 091252Z 11005KT 10SM FEW250 03/M02 A3049 RMK AO2 SLP330 T00281022=
202001091152 METAR KATL 091152Z 11005KT 10SM FEW250 03/M03 A3048 RMK AO2 SLP324 T00331028 10061 20033 53009=
202001091052 METAR KATL 091052Z 10005KT 10SM CLR 04/M03 A3046 RMK AO2 SLP318 T00391028=
202001090952 METAR KATL 090952Z 08004KT 10SM CLR 04/M02 A3045 RMK AO2 SLP313 T00391022=
202001090852 METAR KATL 090852Z 11003KT 10SM CLR 05/M03 A3045 RMK AO2 SLP312 T00501028 50005 $=
202001090752 METAR KATL 090752Z 00000KT 10SM FEW250 06/M02 A3045 RMK AO2 SLP314 T00561022 $=
202001090652 METAR KATL 090652Z 14003KT 10SM SCT250 05/M02 A3043 RMK AO2 SLP308 T00501017 $=
202001090552 METAR KATL 090552Z 00000KT 10SM SCT250 06/M02 A3043 RMK AO2 SLP308 T00561017 10128 20056 58004 $=
202001090452 METAR KATL 090452Z 00000KT 10SM SCT250 07/M02 A3044 RMK AO2 SLP311 T00671022 401610022 $=
202001090352 METAR KATL 090352Z 00000KT 10SM FEW250 07/M02 A3044 RMK AO2 SLP311 T00721022 $=
202001090252 METAR KATL 090252Z 00000KT 10SM FEW250 08/M03 A3044 RMK AO2 SLP314 T00831028 51006 $=
202001090152 METAR KATL 090152Z 33003KT 10SM FEW250 09/M03 A3044 RMK AO2 SLP313 T00891028 $=
202001090052 METAR KATL 090052Z 34005KT 10SM SCT250 11/M04 A3043 RMK AO2 SLP312 T01061039 $=
202001082352 METAR KATL 082352Z 33004KT 10SM SCT250 13/M06 A3043 RMK AO2 SLP307 T01281056 10161 20128 53012 $=
202001082252 METAR KATL 082252Z 33004KT 10SM FEW250 14/M06 A3041 RMK AO2 SLP302 T01391056=
202001082152 METAR KATL 082152Z 28007KT 10SM FEW250 16/M05 A3040 RMK AO2 SLP297 T01561050=
202001082052 METAR KATL 082052Z 29009KT 10SM FEW250 16/M05 A3039 RMK AO2 SLP293 T01611050 55009=
202001081952 METAR KATL 081952Z 31009KT 10SM FEW250 16/M04 A3038 RMK AO2 SLP290 T01611044=
202001081852 METAR KATL 081852Z 30008KT 10SM FEW250 15/M04 A3039 RMK AO2 SLP293 T01501044=
202001081752 METAR KATL 081752Z 32007KT 10SM CLR 13/M04 A3042 RMK AO2 SLP302 T01331039 10139 20022 58006=
202001081652 METAR KATL 081652Z 33011KT 10SM CLR 12/M03 A3044 RMK AO2 SLP311 T01221033=
202001081552 METAR KATL 081552Z 31006KT 10SM CLR 10/M02 A3045 RMK AO2 SLP313 T01001022=
202001081452 METAR KATL 081452Z 31008KT 10SM CLR 07/M03 A3044 RMK AO2 SLP311 T00721028 51021=
202001081352 METAR KATL 081352Z 29006KT 10SM CLR 05/M03 A3042 RMK AO2 SLP306 T00501033=
202001081252 METAR KATL 081252Z 28006KT 10SM CLR 03/M04 A3040 RMK AO2 SLP299 T00281039=
202001081152 METAR KATL 081152Z 28007KT 10SM CLR 03/M04 A3037 RMK AO2 SLP290 T00281039 10056 20028 53021=
202001081052 METAR KATL 081052Z 28006KT 10SM CLR 03/M04 A3034 RMK AO2 SLP278 T00281039=
202001080952 METAR KATL 080952Z 30007KT 10SM CLR 03/M04 A3032 RMK AO2 SLP270 T00331039=
202001080852 METAR KATL 080852Z 30005KT 10SM CLR 04/M04 A3031 RMK AO2 SLP266 T00391039 53007 $=
202001080752 METAR KATL 080752Z 30008KT 10SM CLR 04/M04 A3030 RMK AO2 SLP264 T00441039 $=
202001080652 METAR KATL 080652Z 29007KT 10SM CLR 05/M03 A3028 RMK AO2 SLP257 T00501033 $=
202001080552 METAR KATL 080552Z 30008KT 10SM CLR 06/M03 A3029 RMK AO2 SLP258 T00561033 10100 20050 51005 $=
202001080452 METAR KATL 080452Z 30008KT 10SM CLR 06/M03 A3028 RMK AO2 SLP257 T00611033 401390061 $=
202001080352 METAR KATL 080352Z 30009KT 10SM CLR 07/M03 A3028 RMK AO2 SLP256 T00721033=
202001080252 METAR KATL 080252Z 29011KT 10SM CLR 08/M03 A3027 RMK AO2 SLP252 T00781033 51019=
202001080152 METAR KATL 080152Z 29009KT 10SM CLR 08/M03 A3025 RMK AO2 SLP247 T00831033=
202001080052 METAR KATL 080052Z 29010KT 10SM CLR 09/M03 A3024 RMK AO2 SLP244 T00941033=
202001072352 METAR KATL 072352Z 29010KT 10SM CLR 10/M04 A3021 RMK AO2 SLP232 T01001039 10139 20100 52031=
202001072252 METAR KATL 072252Z 29012G20KT 10SM CLR 12/M04 A3018 RMK AO2 SLP221 T01171039=
202001072152 METAR KATL 072152Z 32014KT 10SM CLR 13/M04 A3015 RMK AO2 SLP209 T01281039=
202001072052 METAR KATL 072052Z 29014KT 10SM CLR 13/M03 A3012 RMK AO2 SLP199 T01331033 53005=
202001071952 METAR KATL 071952Z 29014G24KT 10SM FEW200 14/M03 A3010 RMK AO2 PK WND 31026/1904 SLP194 T01391028=
202001071852 METAR KATL 071852Z 28012G23KT 10SM FEW065 FEW250 13/M02 A3010 RMK AO2 PK WND 32026/1833 SLP193 T01331022=
202001071752 METAR KATL 071752Z 31015G23KT 10SM FEW060 13/M02 A3010 RMK AO2 PK WND 31028/1716 SLP193 T01331022 10133 20100 50007=
202001071652 METAR KATL 071652Z 30017G24KT 10SM FEW050 13/M01 A3010 RMK AO2 SLP194 T01331011=
202001071552 METAR KATL 071552Z 31019G24KT 10SM FEW038 13/02 A3009 RMK AO2 SLP192 T01280022=
202001071452 METAR KATL 071452Z 30016KT 10SM FEW026 FEW085 SCT250 12/06 A3008 RMK AO2 SLP186 T01220061 53025=
202001071352 METAR KATL 071352Z 27011KT 10SM FEW014 FEW080 SCT250 11/08 A3005 RMK AO2 SLP175 T01110078=
202001071252 METAR KATL 071252Z 26011KT 10SM FEW015 BKN070 10/07 A3002 RMK AO2 SLP168 T01000072=
202001071243 SPECI KATL 071243Z 26009KT 10SM SCT015 BKN075 10/07 A3002 RMK AO2 T01000067=
202001071152 METAR KATL 071152Z 23010G18KT 10SM BKN019 BKN044 OVC060 11/07 A3000 RMK AO2 RAE21 SLP160 BKN019 V SCT P0001 60002 70002 T01060067 10117 20094 56009=
202001071126 SPECI KATL 071126Z 22009KT 10SM BKN024 BKN044 OVC060 10/07 A3000 RMK AO2 RAE21 P0001 T01000067=
202001071052 METAR KATL 071052Z 24009G16KT 7SM -RA SCT026 BKN039 OVC050 11/07 A3001 RMK AO2 RAB17 SLP161 P0001 T01060067=
202001070952 METAR KATL 070952Z 22010KT 10SM BKN070 BKN100 BKN250 11/07 A3001 RMK AO2 SLP162 T01110067=
202001070852 METAR KATL 070852Z 22008KT 10SM FEW070 FEW085 SCT200 BKN250 11/07 A3003 RMK AO2 SLP168 T01060067 56018=
202001070752 METAR KATL 070752Z 21008KT 10SM FEW060 BKN085 BKN200 BKN250 11/06 A3004 RMK AO2 SLP173 T01060061=
202001070652 METAR KATL 070652Z 19006KT 10SM SCT060 SCT200 BKN250 09/06 A3006 RMK AO2 SLP180 T00940061=
202001070552 METAR KATL 070552Z 22005KT 10SM BKN055 BKN250 11/06 A3009 RMK AO2 SLP188 T01060061 10133 20100 58006=
202001070452 METAR KATL 070452Z 23006KT 10SM FEW060 BKN250 11/06 A3010 RMK AO2 SLP193 T01060061 401720033=
202001070352 METAR KATL 070352Z 22005KT 10SM FEW055 BKN250 11/06 A3010 RMK AO2 SLP193 T01060056=
202001070252 METAR KATL 070252Z 23005KT 10SM FEW060 BKN250 12/06 A3011 RMK AO2 SLP195 T01170056 50000=
202001070152 METAR KATL 070152Z 22004KT 10SM BKN060 BKN250 13/05 A3011 RMK AO2 SLP198 T01280050=
202001070052 METAR KATL 070052Z 21003KT 10SM BKN055 BKN250 13/05 A3012 RMK AO2 SLP201 T01280050=
202001062352 METAR KATL 062352Z 20003KT 10SM FEW050 BKN250 13/05 A3011 RMK AO2 SLP197 T01330050 10172 20133 58001=
202001062252 METAR KATL 062252Z 21005KT 10SM FEW050 BKN250 14/05 A3011 RMK AO2 SLP198 T01440050=
202001062152 METAR KATL 062152Z 23006KT 10SM FEW050 SCT250 16/04 A3011 RMK AO2 SLP196 T01610039=
202001062052 METAR KATL 062052Z 24007KT 10SM FEW050 FEW250 17/04 A3011 RMK AO2 SLP196 T01670039 56020=
202001061952 METAR KATL 061952Z 26004KT 10SM CLR 17/04 A3012 RMK AO2 SLP199 T01720044=
202001061852 METAR KATL 061852Z 27006KT 10SM CLR 15/03 A3013 RMK AO2 SLP206 T01500028=
202001061752 METAR KATL 061752Z 22003KT 10SM CLR 14/02 A3017 RMK AO2 SLP218 T01390022 10144 20033 58021=
202001061652 METAR KATL 061652Z 00000KT 10SM CLR 12/02 A3021 RMK AO2 SLP233 T01220022=
202001061552 METAR KATL 061552Z 32005KT 10SM CLR 11/02 A3023 RMK AO2 SLP241 T01060022=
202001061452 METAR KATL 061452Z 29008KT 10SM CLR 09/02 A3023 RMK AO2 SLP241 T00890017 51016=
202001061352 METAR KATL 061352Z 28004KT 10SM CLR 06/01 A3022 RMK AO2 SLP236 T00610006=
202001061252 METAR KATL 061252Z 28004KT 10SM CLR 04/M01 A3020 RMK AO2 SLP231 T00391006=
202001061152 METAR KATL 061152Z 31007KT 10SM CLR 03/M01 A3018 RMK AO2 SLP226 T00331011 10061 20033 53000=
202001061052 METAR KATL 061052Z 29006KT 10SM CLR 04/M01 A3017 RMK AO2 SLP221 T00441006=
202001060952 METAR KATL 060952Z 28007KT 10SM CLR 05/M01 A3017 RMK AO2 SLP220 T00501011=
202001060852 METAR KATL 060852Z 27005KT 10SM CLR 04/M01 A3018 RMK AO2 SLP223 T00441011 58003=
202001060752 METAR KATL 060752Z 26005KT 10SM CLR 05/M02 A3019 RMK AO2 SLP225 T00501017=
202001060652 METAR KATL 060652Z 28007KT 10SM CLR 05/M01 A3019 RMK AO2 SLP228 T00501011=
202001060552 METAR KATL 060552Z 26006KT 10SM CLR 06/M01 A3019 RMK AO2 SLP228 T00611011 10089 20061 58010=
202001060452 METAR KATL 060452Z 25004KT 10SM CLR 06/M02 A3021 RMK AO2 SLP234 T00611017 401280000=
202001060352 METAR KATL 060352Z 24005KT 10SM CLR 07/M02 A3022 RMK AO2 SLP237 T00671022=
202001060252 METAR KATL 060252Z 24004KT 10SM CLR 07/M02 A3022 RMK AO2 SLP240 T00671022 56007=
202001060152 METAR KATL 060152Z 26005KT 10SM CLR 08/M03 A3023 RMK AO2 SLP242 T00831033=
202001060052 METAR KATL 060052Z 23005KT 10SM CLR 08/M02 A3023 RMK AO2 SLP243 T00831022=
202001052352 METAR KATL 052352Z 24003KT 10SM CLR 09/M02 A3024 RMK AO2 SLP247 T00891022 10128 20089 53000=
202001052252 METAR KATL 052252Z 26003KT 10SM CLR 11/M03 A3024 RMK AO2 SLP245 T01061028=
202001052152 METAR KATL 052152Z 25004KT 10SM CLR 12/M03 A3024 RMK AO2 SLP244 T01221033=
202001052052 METAR KATL 052052Z 29008KT 10SM CLR 12/M02 A3024 RMK AO2 SLP246 T01221022 56024=
202001051952 METAR KATL 051952Z 31012KT 10SM CLR 11/M03 A3025 RMK AO2 SLP249 T01111028=
202001051852 METAR KATL 051852Z 30009KT 10SM CLR 11/M02 A3028 RMK AO2 SLP259 T01061022=
202001051752 METAR KATL 051752Z 30011KT 10SM CLR 09/M02 A3032 RMK AO2 SLP271 T00891017 10089 20000 58018=
202001051652 METAR KATL 051652Z 31011KT 10SM CLR 07/M02 A3036 RMK AO2 SLP286 T00721017=
202001051552 METAR KATL 051552Z 33014KT 10SM CLR 06/M02 A3038 RMK AO2 SLP292 T00561022=
202001051452 METAR KATL 051452Z 31010KT 10SM CLR 03/M02 A3037 RMK AO2 SLP292 T00331022 53020=
202001051352 METAR KATL 051352Z 29008KT 10SM CLR 01/M03 A3033 RMK AO2 SLP279 T00111028=
202001051252 METAR KATL 051252Z 29007KT 10SM CLR 00/M04 A3031 RMK AO2 SLP274 T00001039=
202001051152 METAR KATL 051152Z 29007KT 10SM CLR 00/M04 A3031 RMK AO2 SLP271 70002 T00001039 10022 20000 53016=
202001051052 METAR KATL 051052Z 28009KT 10SM CLR 00/M04 A3029 RMK AO2 SLP262 T00001039=
202001050952 METAR KATL 050952Z 27006KT 10SM CLR 00/M04 A3028 RMK AO2 SLP259 T00001044=
202001050852 METAR KATL 050852Z 27007KT 10SM CLR 00/M04 A3026 RMK AO2 SLP253 T00001044 53016=
202001050752 METAR KATL 050752Z 28006KT 10SM CLR 01/M04 A3023 RMK AO2 SLP240 T00061044=
202001050652 METAR KATL 050652Z 29006KT 10SM CLR 02/M04 A3022 RMK AO2 SLP239 T00171039=
202001050552 METAR KATL 050552Z 31008KT 10SM CLR 02/M04 A3021 RMK AO2 SLP235 T00221044 10072 20022 58002=
202001050452 METAR KATL 050452Z 33010KT 10SM FEW038 03/M04 A3022 RMK AO2 PK WND 32026/0402 SLP238 T00281044 401500028=
202001050352 METAR KATL 050352Z 32011KT 10SM FEW038 03/M04 A3023 RMK AO2 SLP238 T00331044=
202001050252 METAR KATL 050252Z 32014KT 10SM FEW038 SCT060 04/M05 A3022 RMK AO2 PK WND 29028/0158 SLP236 T00391050 53040=
202001050152 METAR KATL 050152Z 30015G26KT 10SM FEW040 04/M04 A3018 RMK AO2 PK WND 31033/0101 SLP222 T00441039=
202001050052 METAR KATL 050052Z 30024G34KT 10SM SCT042 SCT075 06/M04 A3013 RMK AO2 PK WND 31037/0012 SLP206 T00561039=
202001042352 METAR KATL 042352Z 30017G28KT 10SM FEW050 SCT080 07/M03 A3010 RMK AO2 PK WND 30031/2255 PRESRR SLP192 60000 T00721033 10139 20072 53042=
202001042252 METAR KATL 042252Z 30019G30KT 10SM FEW038 SCT050 BKN080 09/M02 A3005 RMK AO2 PK WND 30036/2237 RAB24E33 PRESRR SLP175 MDT CU E-S SHRA E-S P0000 T00891022=
202001042152 METAR KATL 042152Z 29023G31KT 10SM BKN050 BKN070 10/00 A3000 RMK AO2 PK WND 30031/2150 SLP159 T01000000=
202001042052 METAR KATL 042052Z 31017G27KT 10SM BKN055 BKN075 12/01 A2997 RMK AO2 PK WND 28031/2026 SLP147 T01170011 53006=
202001041952 METAR KATL 041952Z 30020G28KT 10SM FEW050 13/00 A2993 RMK AO2 PK WND 27028/1911 SLP134 T01330000=
202001041852 METAR KATL 041852Z 29018KT 10SM FEW045 13/02 A2994 RMK AO2 PK WND 30026/1836 SLP136 T01330022=
202001041752 METAR KATL 041752Z 30017G28KT 10SM FEW030 FEW050 13/04 A2995 RMK AO2 PK WND 31028/1747 RAE1655 SLP140 P0000 60002 T01280044 10144 20117 50003=
202001041652 METAR KATL 041652Z 29014KT 10SM -RA FEW019 BKN032 BKN045 12/08 A2995 RMK AO2 PK WND 28027/1631 RAB29 SLP141 P0001 T01170083=
202001041600 SPECI KATL 041600Z 29010KT 10SM FEW012 BKN019 BKN046 13/11 A2995 RMK AO2 T01330106=
202001041552 METAR KATL 041552Z 28011KT 10SM FEW012 FEW022 BKN045 13/11 A2995 RMK AO2 PK WND 25028/1502 RAB01E42 SLP140 P0001 T01330106=
202001041524 SPECI KATL 041524Z 29010KT 2SM -RA FEW009 SCT034 BKN041 13/11 A2995 RMK AO2 PK WND 25028/1502 SFC VIS 7 RAB01 P0001 T01280106=
202001041516 SPECI KATL 041516Z 29013KT 2SM -RA SCT014 BKN029 OVC037 13/10 A2996 RMK AO2 PK WND 25028/1502 SFC VIS 5 RAB01 P0001 T01280100=
202001041505 SPECI KATL 041505Z 28016G28KT 2SM -RA BR BKN014 BKN021 OVC029 13/11 A2995 RMK AO2 PK WND 25028/1502 SFC VIS 3 RAB01 P0000 T01280106=
202001041456 SPECI KATL 041456Z 26011KT 2SM HZ OVC014 14/11 A2994 RMK AO2 SFC VIS 6 T01390111=
202001041452 METAR KATL 041452Z 27013KT 10SM BKN014 BKN019 OVC029 14/11 A2994 RMK AO2 SLP135 T01390106 53014=
202001041434 SPECI KATL 041434Z 25009G19KT 10SM FEW009 FEW019 BKN029 BKN150 14/11 A2993 RMK AO2 T01390111=
202001041419 SPECI KATL 041419Z 25011KT 10SM SCT030 SCT150 SCT250 14/11 A2992 RMK AO2 T01390111=
202001041404 SPECI KATL 041404Z 25009G16KT 10SM FEW009 BKN028 BKN200 BKN250 13/11 A2991 RMK AO2 T01330111=
202001041352 METAR KATL 041352Z 25008KT 10SM FEW009 BKN030 BKN200 BKN250 13/12 A2991 RMK AO2 SLP126 T01330117=
202001041307 SPECI KATL 041307Z 26008KT 10SM FEW008 FEW015 SCT021 SCT200 SCT250 13/11 A2990 RMK AO2 T01280106=
202001041252 METAR KATL 041252Z 26012G17KT 8SM BKN008 BKN019 BKN200 BKN250 13/11 A2990 RMK AO2 SLP121 BKN008 V SCT T01280111=
202001041248 SPECI KATL 041248Z 26008KT 8SM BKN008 BKN019 BKN200 BKN250 13/11 A2990 RMK AO2 BKN008 V SCT=
202001041152 METAR KATL 041152Z 25007KT 7SM SCT007 SCT026 BKN250 13/12 A2989 RMK AO2 SLP121 SCT007 V BKN 60012 70109 T01330117 10150 20133 53006=
202001041052 METAR KATL 041052Z 25005KT 7SM BKN007 BKN019 OVC024 14/12 A2989 RMK AO2 RAE00 SLP120 CIG 005V010 BKN007 V SCT P0000 T01390122=
202001040952 METAR KATL 040952Z 26006KT 7SM -RA BKN006 BKN041 OVC100 14/12 A2988 RMK AO2 RAE16B47 SLP114 CIG 004V009 BKN006 V SCT P0001 T01390122=
202001040852 METAR KATL 040852Z 28006KT 5SM -RA BR BKN006 BKN019 OVC039 14/12 A2988 RMK AO2 PRESFR SLP114 CIG 004V008 BKN006 V SCT P0006 60011 T01390122 58006=
202001040849 SPECI KATL 040849Z 27006KT 5SM -RA BR BKN008 BKN019 OVC039 14/12 A2989 RMK AO2 BKN008 V SCT P0006=
202001040821 SPECI KATL 040821Z 25006KT 2 1/2SM RA BR BKN007 BKN055 OVC085 14/13 A2990 RMK AO2 SFC VIS 5 BKN007 V SCT P0004 T01440128=
202001040807 SPECI KATL 040807Z 25005KT 2 1/2SM -RA BR SCT007 BKN060 OVC080 14/13 A2990 RMK AO2 SFC VIS 6 SCT007 V BKN P0001 T01440128=
202001040752 METAR KATL 040752Z 24004KT 2 1/2SM -RA BKN007 OVC080 14/13 A2990 RMK AO2 SFC VIS 7 SLP123 CIG 004V010 P0000 T01440128=
202001040652 METAR KATL 040652Z 23006KT 2 1/2SM -RA BKN007 BKN021 OVC080 14/13 A2990 RMK AO2 SFC VIS 7 SLP124 BKN007 V SCT P0005 T01440128=
202001040637 SPECI KATL 040637Z 25005KT 2 1/2SM -RA BKN005 BKN033 OVC075 14/13 A2989 RMK AO2 SFC VIS 7 BKN005 V SCT P0005 T01440133=
202001040619 SPECI KATL 040619Z 25006KT 2 1/2SM -RA BR SCT005 BKN033 OVC070 14/13 A2990 RMK AO2 SFC VIS 6 SCT005 V BKN P0001 T01440133=
202001040552 METAR KATL 040552Z 21005KT 2 1/2SM -RA BKN005 BKN015 OVC080 15/13 A2990 RMK AO2 SFC VIS 8 SLP120 P0001 60007 T01500133 10156 20150 58010=
202001040452 METAR KATL 040452Z 23004KT 2 1/2SM -RA SCT003 BKN008 OVC080 15/14 A2991 RMK AO2 SFC VIS 7 SLP125 P0006 T01500139 401720100=
202001040352 METAR KATL 040352Z 19005KT 2 1/2SM -RA BR SCT003 BKN007 OVC060 15/14 A2992 RMK AO2 SFC VIS 5 RAB43 SLP130 P0000 T01500139=
202001040346 SPECI KATL 040346Z 19005KT 6SM -RA BR SCT003 BKN025 OVC060 15/14 A2992 RMK AO2 RAB43 P0000=
202001040252 METAR KATL 040252Z 20005KT 10SM FEW004 BKN055 OVC080 15/14 A2993 RMK AO2 RAB05E50 SLP132 P0000 60000 T01500139 50014=
202001040152 METAR KATL 040152Z 28004KT 9SM FEW004 BKN050 OVC090 15/14 A2993 RMK AO2 SLP133 T01500139=
202001040052 METAR KATL 040052Z 23004KT 10SM FEW005 BKN055 OVC100 16/14 A2992 RMK AO2 PRESRR SLP128 T01560139=
202001032352 METAR KATL 032352Z 15005KT 10SM FEW005 BKN050 OVC100 16/14 A2988 RMK AO2 RAE09B29E43 SLP117 P0001 60015 T01560139 10172 20156 50004=
202001032252 METAR KATL 032252Z 00000KT 8SM -RA FEW006 SCT030 BKN050 OVC200 16/14 A2989 RMK AO2 SLP120 P0002 T01610144=
202001032202 SPECI KATL 032202Z 27004KT 10SM -RA FEW006 SCT031 BKN110 BKN200 16/14 A2990 RMK AO2 P0001 T01610144=
202001032152 METAR KATL 032152Z 32005KT 2SM -RA FEW005 BKN044 BKN120 16/14 A2989 RMK AO2 SFC VIS 10 SLP119 P0005 T01610144=
202001032052 METAR KATL 032052Z 31008KT 2SM -RA FEW005 BKN046 OVC080 16/15 A2987 RMK AO2 SFC VIS 7 RAB1958 SLP112 P0000 60007 T01610150 53005=
202001031952 METAR KATL 031952Z 32008KT 2SM SCT004 OVC040 16/15 A2984 RMK AO2 SFC VIS 7 RAE18 SLP103 P0000 T01610150=
202001031939 SPECI KATL 031939Z 31008KT 2SM SCT004 OVC040 16/14 A2984 RMK AO2 SFC VIS 10 RAE18 P0000 T01610144=
202001031921 SPECI KATL 031921Z 32007KT 2SM FEW002 BKN009 BKN070 16/15 A2983 RMK AO2 SFC VIS 7 RAE18 P0000 T01610150=
202001031852 METAR KATL 031852Z 32009KT 1/2SM R09R/P6000FT -RA BR OVC003 17/15 A2983 RMK AO2 SFC VIS 5 SLP099 TWRINC P0007 T01670150=
202001031841 SPECI KATL 031841Z 33009KT 1 1/2SM -RA BR BKN003 BKN017 BKN029 17/16 A2983 RMK AO2 SFC VIS 5 P0007 T01720156=
202001031822 SPECI KATL 031822Z 31006KT 1 1/2SM RA BR FEW003 BKN025 OVC035 17/16 A2985 RMK AO2 SFC VIS 2 1/2 VIS 1 1/4V5 P0002 T01670156=
202001031759 SPECI KATL 031759Z 31006KT 1 1/2SM -RA BR FEW005 SCT025 OVC040 17/16 A2985 RMK AO2 SFC VIS 4 P0000 T01670156=
202001031752 METAR KATL 031752Z 31006KT 1 1/2SM -RA BR SCT005 BKN020 OVC040 17/16 A2985 RMK AO2 SFC VIS 5 SLP108 P0006 60075 T01670156 10167 20128 58010=
202001031652 METAR KATL 031652Z 00000KT 1 1/2SM -RA BR BKN005 BKN040 OVC060 17/16 A2987 RMK AO2 SFC VIS 4 RAB22 SLP115 P0001 T01670156=
202001031607 SPECI KATL 031607Z 00000KT 1 1/2SM BR SCT004 BKN040 OVC060 16/15 A2988 RMK AO2 SFC VIS 6 T01610150=
202001031552 METAR KATL 031552Z 13003KT 8SM FEW005 BKN040 OVC070 16/15 A2988 RMK AO2 RAE52 SLP118 P0002 T01610150=
202001031459 SPECI KATL 031459Z 00000KT 5SM -RA BR SCT004 BKN025 OVC040 15/14 A2989 RMK AO2 P0001 T01500144=
202001031452 METAR KATL 031452Z 00000KT 4SM -RA BR SCT004 SCT025 OVC040 15/14 A2989 RMK AO2 SLP120 P0053 60066 T01500144 53010=
202001031440 SPECI KATL 031440Z 29003KT 4SM -RA BR FEW005 SCT020CB OVC060 15/14 A2988 RMK AO2 VIS LWR NE-SE SHRA CB NE-SE MOV NE P0053 T01500139=
202001031436 SPECI KATL 031436Z 00000KT 3SM -RA BR SCT039 BKN050 15/14 A2987 RMK AO2 TWR VIS 4 VIS LWR NE-SE-SW SHRA CB NE-SE-SW MOV NE P0053 T01500139=
202001031429 SPECI KATL 031429Z 00000KT 1 3/4SM +RA BR FEW005 SCT020CB OVC050 15/14 A2986 RMK AO2 TWR VIS 4 VIS LWR NE-SE-SW SHRA CB NE-SE-SW MOV NE P0052 T01500139=
202001031425 SPECI KATL 031425Z 00000KT 4SM -RA BR FEW005 SCT020CB OVC050 15/14 A2986 RMK AO2 VIS LWR NE-SE-SW SHRA CB NE-SE-SW MOV NE P0049 T01500139=
202001031419 SPECI KATL 031419Z 33003KT 6SM -RA BR FEW004 BKN016CB OVC040 15/14 A2987 RMK AO2 VIS LWR NE-SE-SW SHRA CB NE-SE-SW MOV NE P0049 T01500139=
202001031352 METAR KATL 031352Z 32013G24KT 280V020 1/4SM R09R/P6000FT +RA BR OVC003CB 15/14 A2983 RMK AO2 SFC VIS 1 SLP101 CIG 002V004 CB NE-OHD-SW MOV NE TWRINC P0009 T01500139=
202001031252 METAR KATL 031252Z 07005KT 1/4SM R09R/5500VP6000FT -RA BR BKN003 OVC011 14/13 A2985 RMK AO2 SFC VIS 1 RAB09 SLP109 CIG 002V004 TWRINC P0004 T01390128=
202001031152 METAR KATL 031152Z 08005KT 1/4SM R09R/2400V2600FT FG VV002 13/12 A2986 RMK AO2 SFC VIS 1/2 SLP111 60000 70091 T01280122 10133 20106 56000=
202001031052 METAR KATL 031052Z 06006KT 1/4SM R09R/2600V3500FT FG VV002 13/12 A2986 RMK AO2 SLP111 T01280117=
202001030952 METAR KATL 030952Z 06006KT 1/4SM R09R/2200V2400FT FG VV002 12/11 A2986 RMK AO2 SFC VIS 1/2 RAB22E31 SLP111 P0000 T01220111=
202001030950 SPECI KATL 030950Z 07006KT 1/4SM R09R/2000V2400FT FG VV002 12/11 A2986 RMK AO2 SFC VIS 1/2 RAB22E31 P0000=
202001030852 METAR KATL 030852Z 08003KT 1/4SM R09R/1800V2000FT FG VV002 13/12 A2987 RMK AO2 SLP114 60000 T01280117 53001=
202001030819 SPECI KATL 030819Z 00000KT 1/4SM R09R/2000V2200FT FG VV002 12/11 A2985 RMK AO2 T01170111=
202001030752 METAR KATL 030752Z 14004KT 1/4SM R09R/2800V3500FT FG VV002 11/11 A2986 RMK AO2 SFC VIS 1/2 SLP112 T01110106=
202001030737 SPECI KATL 030737Z 11005KT 1/4SM R09R/4000V5000FT BR VV002 11/10 A2986 RMK AO2 SFC VIS 3/4 T01110100=
202001030652 METAR KATL 030652Z 12004KT 1SM R09R/P6000FT BR OVC003 11/09 A2986 RMK AO2 SFC VIS 4 DZB39E50 SLP114 CIG 002V004 TWRINC P0000 T01060094=
202001030639 SPECI KATL 030639Z 11005KT 2 1/2SM -DZ BR OVC004 11/09 A2987 RMK AO2 SFC VIS 5 DZB39 CIG 003V005 P0000 T01060094=
202001030552 METAR KATL 030552Z 12006KT 2 1/2SM FEW003 OVC007 11/09 A2988 RMK AO2 SFC VIS 8 RAE16 SLP121 P0000 60010 T01060089 10106 20089 56009=
202001030535 SPECI KATL 030535Z 11006KT 2 1/2SM FEW003 OVC008 10/09 A2989 RMK AO2 SFC VIS 8 RAE16 P0000 T01000089=
202001030452 METAR KATL 030452Z 11006KT 2 1/2SM -RA FEW004 OVC012 10/08 A2990 RMK AO2 SFC VIS 8 RAB50 SLP125 P0000 T01000083 401000078=
202001030352 METAR KATL 030352Z 11007KT 2 1/2SM FEW005 BKN015 OVC030 09/08 A2990 RMK AO2 SFC VIS 8 RAE25 SLP125 P0005 T00940083=
202001030252 METAR KATL 030252Z 11008KT 2 1/2SM -RA BR SCT005 BKN016 OVC030 09/08 A2991 RMK AO2 SFC VIS 3 RAB22 SLP130 P0003 60005 T00940078 53001=
202001030152 METAR KATL 030152Z 12011KT 2 1/2SM SCT004 BKN020 OVC035 09/07 A2990 RMK AO2 SFC VIS 9 RAE52 SLP127 SCT004 V BKN P0000 T00940072=
202001030052 METAR KATL 030052Z 11008KT 2 1/2SM -RA SCT004 BKN009 OVC028 09/07 A2991 RMK AO2 SFC VIS 8 SLP130 SCT004 V BKN P0002 T00890072=
202001022352 METAR KATL 022352Z 09009KT 2 1/2SM -RA BR BKN005 OVC030 09/07 A2991 RMK AO2 SFC VIS 5 SLP130 CIG 004V007 P0001 60055 T00890072 10089 20083 55002=
202001022252 METAR KATL 022252Z 11009KT 2 1/2SM -RA BR BKN005 OVC035 08/07 A2991 RMK AO2 SFC VIS 6 SLP129 CIG 004V007 P0001 T00830072=
202001022231 SPECI KATL 022231Z 10006KT 2 1/2SM -RA BKN005 OVC035 08/07 A2991 RMK AO2 SFC VIS 7 CIG 004V007 P0001 T00830072=
202001022152 METAR KATL 022152Z 11009KT 1/2SM R09R/P6000FT -RA BR BKN005 BKN010 OVC040 08/07 A2991 RMK AO2 SFC VIS 4 LTG DSNT N SLP132 CB DSNT N P0007 T00830067=
202001022052 METAR KATL 022052Z 06012KT 1/2SM R09R/6000VP6000FT RA BR BKN005 BKN010 OVC030 09/07 A2991 RMK AO2 SFC VIS 2 SLP132 P0015 60046 T00890067 55021=
202001022017 SPECI KATL 022017Z 08007KT 1/2SM R09R/P6000FT RA BR BKN005 BKN010 OVC020 08/07 A2991 RMK AO2 SFC VIS 2 1/2 P0007 T00830072=
202001021952 METAR KATL 021952Z 09010KT 1 1/2SM RA BR BKN005 BKN010 OVC020 08/07 A2991 RMK AO2 SFC VIS 3 SLP131 P0016 T00830067=
202001021852 METAR KATL 021852Z 06011KT 1 1/2SM +RA BR BKN005 BKN009 OVC020 09/07 A2996 RMK AO2 SFC VIS 3 SLP148 P0015 T00890072=
202001021830 SPECI KATL 021830Z 11005KT 1/2SM R09R/P6000FT -RA BR BKN005 BKN013 OVC020 09/07 A2998 RMK AO2 SFC VIS 3 P0004 T00890072=
202001021800 SPECI KATL 021800Z 10006KT 2SM -RA BR FEW005 BKN013 OVC020 08/07 A2999 RMK AO2 SFC VIS 5 P0000 T00830072=
202001021752 METAR KATL 021752Z 08008KT 1SM R09R/P6000FT -RA BR SCT005 OVC013 09/07 A2998 RMK AO2 SFC VIS 3 SLP154 P0019 60026 T00890072 10089 20078 58021=
202001021745 SPECI KATL 021745Z 08008KT 1SM R09R/P6000FT RA BR SCT005 BKN013 OVC020 09/07 A2998 RMK AO2 SFC VIS 2 P0016 T00890072=
202001021742 SPECI KATL 021742Z 09010KT 2SM +RA BR FEW005 BKN013 OVC020 09/07 A2998 RMK AO2 SFC VIS 3 PRESFR P0015 T00890072=
202001021655 SPECI KATL 021655Z 14004KT 3SM RA BR BKN018 BKN030 OVC050 08/06 A3004 RMK AO2 P0000 T00830061=
202001021652 METAR KATL 021652Z 14005KT 4SM -RA BR FEW018 BKN024 OVC050 08/06 A3004 RMK AO2 SLP175 P0006 T00830061=
202001021639 SPECI KATL 021639Z 12004KT 4SM -RA FEW018 BKN024 OVC050 08/06 A3004 RMK AO2 P0004 T00830056=
202001021552 METAR KATL 021552Z 14004KT 10SM -RA FEW030 SCT040 OVC080 09/04 A3005 RMK AO2 RAB1457 SLP180 P0000 T00890044=
202001021517 SPECI KATL 021517Z 17004KT 9SM -RA FEW030 BKN040 OVC070 09/04 A3005 RMK AO2 RAB1457 P0000 T00890044=
202001021452 METAR KATL 021452Z 16004KT 10SM FEW020 BKN027 OVC030 09/04 A3004 RMK AO2 RAB26E36 SLP176 P0000 60001 T00890039 53013=
202001021352 METAR KATL 021352Z 16005KT 10SM FEW022 OVC028 08/03 A3002 RMK AO2 RAE1253B21E43 SLP169 P0000 T00830033=
202001021314 SPECI KATL 021314Z 00000KT 10SM BKN027 BKN050 OVC100 08/03 A3002 RMK AO2 RAE1253 P0000 T00780033=
202001021252 METAR KATL 021252Z 19005KT 10SM -RA FEW046 FEW075 OVC110 08/03 A3002 RMK AO2 SLP167 ACC SW NW-N P0001 T00780028=
202001021152 METAR KATL 021152Z 16003KT 10SM -RA FEW036 SCT065 OVC100 08/02 A3000 RMK AO2 SLP163 P0001 60001 70001 T00780022 10089 20078 58004=
202001021052 METAR KATL 021052Z 00000KT 10SM -RA BKN038 OVC060 08/02 A3001 RMK AO2 SLP164 PCPN VRY LGT P0000 T00780017=
202001020952 METAR KATL 020952Z 00000KT 10SM -RA OVC045 08/00 A3002 RMK AO2 RAB14 SLP166 P0000 T00830000=
202001020852 METAR KATL 020852Z 00000KT 10SM BKN050 OVC130 09/M01 A3002 RMK AO2 SLP165 VIRGA OHD-ALQDS T00891011 53005=
202001020752 METAR KATL 020752Z 00000KT 10SM FEW060 SCT130 OVC180 08/M02 A3001 RMK AO2 SLP161 VIRGA SW-NW-NE T00831017=
202001020652 METAR KATL 020652Z 20003KT 10SM BKN130 OVC200 08/M02 A3000 RMK AO2 SLP160 VIRGA SE-SW-NW T00831017=
202001020552 METAR KATL 020552Z 00000KT 10SM BKN150 OVC200 08/M02 A3000 RMK AO2 SLP160 T00781022 10094 20078 58009=
202001020452 METAR KATL 020452Z 00000KT 10SM BKN150 OVC200 08/M03 A3002 RMK AO2 SLP169 T00831028 401390022=
202001020352 METAR KATL 020352Z 20003KT 10SM BKN200 08/M03 A3002 RMK AO2 SLP170 T00831028=
202001020252 METAR KATL 020252Z 22003KT 10SM BKN200 08/M02 A3003 RMK AO2 SLP172 T00831022 50008=
202001020152 METAR KATL 020152Z 23004KT 10SM BKN200 09/M03 A3004 RMK AO2 SLP176 T00891033=
202001020052 METAR KATL 020052Z 22005KT 10SM BKN180 BKN250 09/M03 A3002 RMK AO2 SLP171 T00941033=
202001012352 METAR KATL 012352Z 20005KT 10SM SCT180 BKN250 09/M03 A3001 RMK AO2 SLP165 T00941033 10139 20094 50000=
202001012252 METAR KATL 012252Z 23005KT 10SM SCT170 BKN200 BKN250 11/M04 A3002 RMK AO2 SLP168 T01061039=
202001012152 METAR KATL 012152Z 21006KT 10SM FEW170 SCT200 BKN250 12/M05 A3000 RMK AO2 SLP163 T01171050=
202001012052 METAR KATL 012052Z 22006KT 10SM FEW170 BKN250 13/M06 A3001 RMK AO2 SLP163 T01281056 55012=
202001011952 METAR KATL 011952Z VRB06KT 10SM BKN170 BKN250 13/M06 A3000 RMK AO2 SLP161 T01281061=
202001011852 METAR KATL 011852Z 27007KT 10SM SCT150 BKN200 BKN250 12/M06 A3002 RMK AO2 SLP169 T01171056=
202001011752 METAR KATL 011752Z 29007KT 10SM FEW150 SCT200 BKN250 11/M04 A3004 RMK AO2 SLP176 T01111044 10117 20022=
202001011652 METAR KATL 011652Z 33011KT 10SM FEW150 SCT200 BKN250 10/M04 A3008 RMK AO2 SLP191 T01001044=
202001011552 METAR KATL 011552Z 31007KT 10SM FEW150 SCT200 BKN250 08/M02 A3010 RMK AO2 SLP196 T00831022=
202001011452 METAR KATL 011452Z 29008KT 10SM FEW150 SCT200 BKN250 06/M03 A3009 RMK AO2 SLP194 T00561033 51011 $=
202001011352 METAR KATL 011352Z 28006KT 10SM FEW150 SCT200 BKN250 04/M03 A3009 RMK AO2 SLP193 T00391028 $=
202001011252 METAR KATL 011252Z 26004KT 10SM FEW150 SCT200 BKN250 02/M04 A3007 RMK AO2 SLP188 T00221039 $=
