##########################################################
# Query made at 04/20/2024 00:09:38 UTC
# Time interval: from 03/01/2020 12:00  to 03/31/2020 12:59  UTC
##########################################################

##########################################################
# KATL, Atlanta, Hartsfield - Jackson Atlanta International Airport (United States)
# WMO index: 72219. WIGOS ID: 0-20000-0-72219
# Latitude 33-38-59N. Longitude 084-25-00W. Altitude 312 m.
##########################################################

202003311252 METAR KATL 311252Z 13006KT 10SM SCT055 BKN080 BKN100 BKN150 OVC200 16/04 A2980 RMK AO2 SLP085 T01560044=
202003311152 METAR KATL 311152Z 08008KT 10SM SCT055 BKN075 BKN090 BKN200 15/04 A2982 RMK AO2 SLP094 T01500044 10172 20150 58016=
202003311052 METAR KATL 311052Z 02007KT 10SM SCT055 SCT085 BKN180 16/03 A2986 RMK AO2 SLP105 VIRGA OHD-W T01560033 $=
202003310952 METAR KATL 310952Z 34007KT 10SM BKN070 BKN090 OVC120 16/03 A2988 RMK AO2 SLP111 T01560033 $=
202003310852 METAR KATL 310852Z 36009KT 10SM SCT070 BKN120 BKN150 OVC200 16/04 A2987 RMK AO2 SLP109 T01610039 58027 $=
202003310752 METAR KATL 310752Z 34007KT 10SM SCT080 BKN120 OVC150 16/06 A2992 RMK AO2 SLP124 T01610056=
202003310652 METAR KATL 310652Z 34005KT 10SM FEW110 OVC150 17/04 A2992 RMK AO2 SLP124 T01670044=
202003310552 METAR KATL 310552Z 30003KT 10SM SCT110 BKN140 OVC180 17/06 A2995 RMK AO2 SLP137 T01670056 10200 20167 56026=
202003310452 METAR KATL 310452Z 34004KT 10SM FEW100 BKN140 OVC200 18/04 A2997 RMK AO2 SLP141 VIRGA NW-NE T01780039 402390156=
202003310352 METAR KATL 310352Z 03005KT 10SM FEW110 BKN150 OVC200 18/03 A2997 RMK AO2 PRESFR SLP143 VIRGA NW-NE T01830028=
202003310252 METAR KATL 310252Z 33007KT 10SM SCT120 BKN150 OVC200 18/03 A3003 RMK AO2 SLP164 VIRGA OHD-ALQDS T01830033 58008=
202003310152 METAR KATL 310152Z 32006KT 10SM BKN140 OVC200 19/03 A3006 RMK AO2 SLP174 T01890033=
202003310052 METAR KATL 310052Z 34006KT 10SM BKN150 OVC200 19/03 A3006 RMK AO2 SLP174 T01940028=
202003302352 METAR KATL 302352Z 32007KT 10SM SCT150 BKN200 OVC250 20/02 A3006 RMK AO2 SLP173 VIRGA S-W ACC SE-S T02000022 10239 20200 56012=
202003302252 METAR KATL 302252Z 32010KT 10SM FEW110 BKN180 OVC250 21/02 A3006 RMK AO2 SLP175 VIRGA OHD-ALQDS T02110022=
202003302152 METAR KATL 302152Z 33010KT 10SM FEW100 BKN180 OVC250 22/03 A3006 RMK AO2 SLP175 T02220028=
202003302052 METAR KATL 302052Z 31008KT 10SM FEW110 BKN180 BKN250 23/02 A3009 RMK AO2 SLP184 VIRGA DSNT NE-SE-S ACC DSNT N-E T02280022 56014=
202003301952 METAR KATL 301952Z 30011KT 10SM FEW140 BKN180 BKN250 23/02 A3009 RMK AO2 SLP184 VIRGA DSNT NE SE-SW ACC DSNT ALQDS T02330022=
202003301852 METAR KATL 301852Z 34012KT 10SM FEW140 BKN180 BKN250 23/02 A3012 RMK AO2 SLP192 VIRGA NW-NE-E ACC DSNT ALQDS T02280022=
202003301752 METAR KATL 301752Z 32011KT 10SM FEW140 BKN180 BKN250 22/03 A3013 RMK AO2 SLP198 VIRGA E-S-W ACC ALQDS T02170028 10228 20156 58013=
202003301652 METAR KATL 301652Z 34012KT 10SM FEW150 BKN200 BKN250 22/03 A3016 RMK AO2 SLP207 ACC NW DSNT SW W T02220028=
202003301552 METAR KATL 301552Z 33010KT 10SM FEW150 FEW200 SCT250 21/03 A3017 RMK AO2 SLP212 ACC DSNT SE-SW T02110033=
202003301452 METAR KATL 301452Z 35011G19KT 10SM FEW140 FEW180 SCT250 20/03 A3017 RMK AO2 SLP211 ACC SE-SW T02000033 58002=
202003301352 METAR KATL 301352Z 32009KT 10SM FEW120 FEW180 SCT250 18/03 A3019 RMK AO2 SLP217 ACC S SW T01780033=
202003301252 METAR KATL 301252Z 30007KT 10SM FEW110 SCT180 BKN250 16/05 A3019 RMK AO2 SLP217 VIRGA DSNT NE SE-SW ACC DSNT NE E T01560050=
202003301152 METAR KATL 301152Z 30009KT 10SM FEW120 SCT180 BKN220 BKN250 16/04 A3018 RMK AO2 SLP213 ACC DSNT NE VIRGA OHD-ALQDS T01610044 10183 20161 53014=
202003301052 METAR KATL 301052Z 32008KT 10SM SCT180 BKN220 BKN250 16/06 A3016 RMK AO2 SLP206 VIRGA OHD-W T01610056=
202003300952 METAR KATL 300952Z 31005KT 10SM FEW120 SCT180 BKN220 BKN250 16/06 A3013 RMK AO2 SLP196 T01610061=
202003300852 METAR KATL 300852Z 30008KT 10SM FEW150 BKN180 BKN220 17/06 A3014 RMK AO2 SLP199 T01670056 53001=
202003300752 METAR KATL 300752Z 29008KT 10SM FEW150 BKN180 BKN220 17/06 A3013 RMK AO2 SLP195 T01670061 $=
202003300652 METAR KATL 300652Z 27006KT 10SM BKN150 BKN180 17/06 A3011 RMK AO2 SLP190 T01720061 $=
202003300552 METAR KATL 300552Z 29009KT 10SM BKN150 BKN180 18/06 A3013 RMK AO2 SLP196 T01830061 10222 20183 58001 $=
202003300452 METAR KATL 300452Z 28008KT 10SM SCT150 BKN180 BKN250 19/06 A3015 RMK AO2 SLP204 T01890056 402610189 $=
202003300352 METAR KATL 300352Z 27006KT 10SM BKN140 BKN180 BKN250 19/06 A3014 RMK AO2 SLP199 T01940056 $=
202003300252 METAR KATL 300252Z 28008KT 10SM SCT160 BKN190 BKN250 20/06 A3014 RMK AO2 SLP198 T02000056 51013 $=
202003300152 METAR KATL 300152Z 26007KT 10SM BKN180 BKN250 21/04 A3013 RMK AO2 SLP196 T02060044=
202003300052 METAR KATL 300052Z 25007KT 10SM FEW150 BKN190 BKN250 22/04 A3011 RMK AO2 SLP188 T02170039=
202003292352 METAR KATL 292352Z 26009KT 10SM SCT150 BKN190 BKN250 22/03 A3010 RMK AO2 SLP184 VIRGA SE-SW T02220028 10261 20222 53005=
202003292252 METAR KATL 292252Z 25008KT 10SM FEW050 SCT150 SCT180 BKN250 24/07 A3009 RMK AO2 SLP181 VIRGA SE-SW T02390067=
202003292152 METAR KATL 292152Z 27010KT 10SM SCT050 SCT150 BKN180 BKN220 24/07 A3008 RMK AO2 SLP177 VIRGA E-SW T02440072=
202003292052 METAR KATL 292052Z 24009KT 10SM FEW150 BKN200 24/05 A3008 RMK AO2 SLP179 T02440050 56004=
202003291952 METAR KATL 291952Z 29008KT 10SM SCT045 BKN150 OVC250 25/08 A3008 RMK AO2 SLP179 T02500083=
202003291852 METAR KATL 291852Z 26010KT 10SM BKN043 OVC055 24/08 A3009 RMK AO2 SLP181 T02440083=
202003291752 METAR KATL 291752Z 27009KT 240V310 10SM FEW037 BKN060 BKN200 26/10 A3010 RMK AO2 SLP183 60000 T02560100 10261 20217 51008=
202003291652 METAR KATL 291652Z 31011KT 10SM FEW033 BKN065 BKN250 24/13 A3009 RMK AO2 SLP181 T02390128=
202003291552 METAR KATL 291552Z 31018G22KT 10SM FEW018 BKN030 OVC040 22/13 A3010 RMK AO2 WSHFT 1525 RAB33E44 SLP184 P0000 T02220133=
202003291540 SPECI KATL 291540Z 31015G20KT 10SM -RA BKN018 BKN050 23/17 A3010 RMK AO2 WSHFT 1525 RAB33 P0000 T02280167=
202003291452 METAR KATL 291452Z 24008G15KT 10SM OVC018 23/19 A3007 RMK AO2 SLP175 T02330189 51012=
202003291436 SPECI KATL 291436Z 24008KT 10SM BKN018 BKN023 BKN038 OVC250 23/19 A3007 RMK AO2 T02330189=
202003291427 SPECI KATL 291427Z 22009KT 10SM SCT016 SCT023 BKN038 BKN250 23/19 A3007 RMK AO2 T02330189=
202003291352 METAR KATL 291352Z 22007KT 8SM BKN016 OVC023 22/19 A3006 RMK AO2 SLP170 T02220189=
202003291317 SPECI KATL 291317Z 21013G23KT 8SM BKN014 BKN022 OVC029 22/18 A3005 RMK AO2 T02170183=
202003291306 SPECI KATL 291306Z 20011KT 8SM FEW016 BKN022 OVC036 22/18 A3005 RMK AO2 T02170183=
202003291252 METAR KATL 291252Z 21009KT 8SM FEW015 SCT027 BKN033 BKN150 OVC250 22/18 A3006 RMK AO2 SLP169 T02170183=
202003291243 SPECI KATL 291243Z 21009KT 8SM FEW015 SCT027 BKN033 BKN150 OVC250 22/18 A3006 RMK AO2 T02170183=
202003291218 SPECI KATL 291218Z 22008KT 8SM SCT013 BKN022 BKN039 BKN150 OVC250 22/18 A3005 RMK AO2 T02170183=
202003291152 METAR KATL 291152Z 21008KT 9SM FEW015 BKN035 BKN150 OVC250 22/18 A3004 RMK AO2 SLP163 T02170183 10222 20206 53016=
202003291108 SPECI KATL 291108Z 22009KT 10SM SCT019 OVC031 22/18 A3003 RMK AO2 T02170178=
202003291052 METAR KATL 291052Z 24010KT 10SM BKN017 OVC025 22/18 A3003 RMK AO2 SLP159 T02170178=
202003290952 METAR KATL 290952Z 22012KT 10SM BKN016 BKN250 21/18 A2999 RMK AO2 SLP147 T02110178=
202003290852 METAR KATL 290852Z 23009KT 10SM BKN015 BKN250 21/17 A2999 RMK AO2 SLP145 T02110172 53004=
202003290835 SPECI KATL 290835Z 23010G17KT 10SM BKN014 BKN250 21/17 A2998 RMK AO2 T02060172=
202003290752 METAR KATL 290752Z 21009KT 10SM FEW050 SCT250 21/17 A2996 RMK AO2 SLP137 T02060167=
202003290652 METAR KATL 290652Z 23007KT 10SM FEW050 SCT250 21/17 A2997 RMK AO2 SLP139 T02110167=
202003290552 METAR KATL 290552Z 22009KT 10SM FEW050 SCT250 22/17 A2998 RMK AO2 SLP141 T02220167 10267 20222 58001=
202003290452 METAR KATL 290452Z 23010KT 10SM FEW050 BKN250 BKN300 23/17 A2999 RMK AO2 SLP146 T02280167 402890189=
202003290352 METAR KATL 290352Z 22010KT 10SM FEW050 BKN250 BKN300 24/17 A3000 RMK AO2 SLP148 T02390167=
202003290252 METAR KATL 290252Z 20004KT 10SM BKN250 BKN300 23/16 A2998 RMK AO2 SLP143 T02330161 53007=
202003290152 METAR KATL 290152Z 20005KT 10SM BKN250 BKN300 24/16 A2997 RMK AO2 SLP139 T02390161=
202003290052 METAR KATL 290052Z 20006KT 10SM FEW050 SCT200 BKN250 BKN300 25/16 A2995 RMK AO2 SLP135 T02500156=
202003282352 METAR KATL 282352Z 21008KT 10SM FEW050 SCT200 BKN250 27/15 A2996 RMK AO2 SLP135 T02670150 10289 20261 50005=
202003282252 METAR KATL 282252Z 22011G17KT 10SM FEW050 BKN250 28/16 A2996 RMK AO2 SLP136 T02780156=
202003282152 METAR KATL 282152Z 22012KT 10SM FEW050 BKN250 28/16 A2995 RMK AO2 SLP133 T02830156=
202003282052 METAR KATL 282052Z 22011G17KT 10SM BKN250 29/15 A2994 RMK AO2 SLP130 T02890150 58015=
202003281952 METAR KATL 281952Z 22010G19KT 10SM FEW050 BKN250 28/16 A2996 RMK AO2 SLP134 T02830161=
202003281852 METAR KATL 281852Z 22011KT 10SM FEW042 BKN250 28/16 A2998 RMK AO2 SLP141 T02780161=
202003281752 METAR KATL 281752Z 22009G17KT 10SM FEW039 BKN250 27/16 A2999 RMK AO2 SLP146 T02670161 10267 20200 58013=
202003281652 METAR KATL 281652Z 22010G15KT 10SM FEW032 BKN250 25/17 A3001 RMK AO2 SLP154 T02500167=
202003281603 SPECI KATL 281603Z 22011G17KT 10SM SCT030 BKN250 24/16 A3002 RMK AO2 T02440161=
202003281552 METAR KATL 281552Z 25010G19KT 10SM BKN029 BKN250 24/17 A3003 RMK AO2 SLP158 T02440167=
202003281452 METAR KATL 281452Z 24015G24KT 10SM BKN023 22/16 A3003 RMK AO2 SLP160 T02170161 52004=
202003281352 METAR KATL 281352Z 24010KT 10SM OVC017 21/16 A3003 RMK AO2 SLP160 T02110161=
202003281252 METAR KATL 281252Z 24007KT 10SM BKN015 OVC021 21/17 A3002 RMK AO2 SLP157 CIG 014V019 BINOVC T02060167=
202003281246 SPECI KATL 281246Z 26008KT 10SM OVC015 21/17 A3002 RMK AO2 CIG 014V019 BINOVC=
202003281152 METAR KATL 281152Z 23006KT 10SM OVC014 20/17 A2999 RMK AO2 SLP148 CIG 013V017 T02000167 10211 20189 53010=
202003281052 METAR KATL 281052Z 23009KT 10SM BKN010 19/17 A2997 RMK AO2 SLP139 T01940167=
202003280959 SPECI KATL 280959Z 23007KT 10SM BKN012 BKN250 19/17 A2997 RMK AO2 T01940167=
202003280952 METAR KATL 280952Z 23006KT 10SM FEW012 BKN250 19/17 A2997 RMK AO2 SLP138 T01890167=
202003280852 METAR KATL 280852Z 23007KT 10SM SCT250 19/16 A2996 RMK AO2 SLP136 T01940161 58008=
202003280752 METAR KATL 280752Z 23005KT 10SM BKN250 20/16 A2997 RMK AO2 SLP138 T02000161=
202003280652 METAR KATL 280652Z 23004KT 10SM BKN250 20/16 A2998 RMK AO2 SLP144 T02000161=
202003280552 METAR KATL 280552Z 21006KT 10SM BKN250 21/16 A2999 RMK AO2 SLP145 T02110161 10256 20200 51002=
202003280452 METAR KATL 280452Z 00000KT 10SM BKN250 21/16 A2998 RMK AO2 SLP144 T02110161 402940156=
202003280352 METAR KATL 280352Z 00000KT 10SM BKN250 22/16 A2998 RMK AO2 SLP143 T02220161=
202003280252 METAR KATL 280252Z 20005KT 10SM BKN250 22/16 A2998 RMK AO2 SLP143 T02220161 53012=
202003280152 METAR KATL 280152Z 20008KT 10SM BKN250 23/16 A2996 RMK AO2 SLP140 T02330156=
202003280052 METAR KATL 280052Z 21008KT 10SM BKN250 24/15 A2995 RMK AO2 SLP134 T02440150=
202003272352 METAR KATL 272352Z 20007KT 10SM FEW150 SCT250 26/14 A2994 RMK AO2 SLP131 T02560144 10294 20256 53008=
202003272252 METAR KATL 272252Z 21010KT 10SM FEW150 SCT250 28/12 A2993 RMK AO2 SLP125 T02780117=
202003272152 METAR KATL 272152Z 21010KT 10SM FEW200 SCT250 28/12 A2991 RMK AO2 SLP121 T02830122=
202003272052 METAR KATL 272052Z 22008KT 10SM SCT200 SCT250 29/14 A2992 RMK AO2 SLP121 T02940139 56017=
202003271952 METAR KATL 271952Z 25007G16KT 10SM FEW180 SCT250 SCT300 29/14 A2993 RMK AO2 SLP126 T02940139=
202003271852 METAR KATL 271852Z 22012KT 9SM SCT200 SCT250 BKN300 28/14 A2995 RMK AO2 SLP133 T02830144=
202003271752 METAR KATL 271752Z 23007G14KT 10SM SCT200 SCT250 BKN300 28/14 A2997 RMK AO2 SLP139 T02780139 10278 20161 58016=
202003271652 METAR KATL 271652Z 22013KT 10SM SCT200 SCT250 BKN300 26/15 A2999 RMK AO2 SLP147 T02560150=
202003271552 METAR KATL 271552Z 27004KT 9SM SCT180 BKN250 24/16 A3001 RMK AO2 SLP154 T02390156=
202003271452 METAR KATL 271452Z 31004KT 9SM FEW150 SCT200 BKN250 22/16 A3002 RMK AO2 SLP157 VIRGA N-NE ACC DSNT NE SW W T02170156 51030=
202003271352 METAR KATL 271352Z 30005KT 9SM SCT150 BKN200 BKN250 20/15 A2999 RMK AO2 SLP147 VIRGA S-W-NW ACC SW DSNT NW T02000150=
202003271252 METAR KATL 271252Z 28005KT 10SM FEW150 SCT250 19/14 A2997 RMK AO2 SLP140 ACC DSNT NW T01890144=
202003271152 METAR KATL 271152Z 20003KT 10SM FEW150 BKN250 16/13 A2993 RMK AO2 SLP127 ACC DSNT NW T01610133 10183 20156 50001=
202003271052 METAR KATL 271052Z 23005KT 10SM FEW250 16/12 A2994 RMK AO2 SLP132 T01610122=
202003270952 METAR KATL 270952Z 22004KT 10SM FEW250 16/12 A2993 RMK AO2 SLP128 T01610122=
202003270852 METAR KATL 270852Z 22005KT 10SM SCT250 17/12 A2992 RMK AO2 SLP125 T01720122 58015=
202003270752 METAR KATL 270752Z 22005KT 10SM SCT250 17/12 A2994 RMK AO2 SLP130 T01720117=
202003270652 METAR KATL 270652Z 20003KT 10SM SCT250 17/12 A2996 RMK AO2 SLP137 T01720122=
202003270552 METAR KATL 270552Z 00000KT 10SM SCT250 18/12 A2997 RMK AO2 SLP141 T01780122 10244 20178 58001=
202003270452 METAR KATL 270452Z 17003KT 10SM SCT250 19/12 A2998 RMK AO2 SLP144 T01890122 402670111=
202003270352 METAR KATL 270352Z 20003KT 10SM FEW250 19/12 A2998 RMK AO2 SLP145 T01940122=
202003270252 METAR KATL 270252Z 18005KT 10SM FEW250 21/12 A2997 RMK AO2 SLP143 T02060117 51005=
202003270152 METAR KATL 270152Z 16003KT 10SM FEW250 21/12 A2996 RMK AO2 SLP141 T02110117=
202003270052 METAR KATL 270052Z 00000KT 10SM FEW250 23/11 A2996 RMK AO2 SLP141 T02280111=
202003262352 METAR KATL 262352Z 20003KT 10SM FEW250 24/11 A2995 RMK AO2 SLP138 T02440111 10267 20217 55002=
202003262252 METAR KATL 262252Z 18007KT 10SM SCT250 26/11 A2994 RMK AO2 SLP133 T02610106=
202003262152 METAR KATL 262152Z 18007KT 10SM FEW200 SCT250 26/11 A2995 RMK AO2 SLP134 T02610106=
202003262052 METAR KATL 262052Z 14004KT 10SM SCT200 BKN250 26/11 A2996 RMK AO2 SLP139 T02610106 56027=
202003261952 METAR KATL 261952Z 22005KT 10SM FEW050 SCT200 SCT250 26/11 A2999 RMK AO2 SLP149 T02560111=
202003261852 METAR KATL 261852Z 10005KT 10SM FEW036 SCT200 BKN250 24/14 A3001 RMK AO2 SLP158 T02390139=
202003261752 METAR KATL 261752Z 11007KT 10SM FEW028 SCT200 BKN250 22/14 A3004 RMK AO2 SLP170 T02170139 10217 20111 58012=
202003261652 METAR KATL 261652Z 09008KT 10SM FEW022 SCT200 SCT250 20/13 A3006 RMK AO2 SLP175 T02000133=
202003261552 METAR KATL 261552Z 11007KT 10SM FEW016 SCT200 SCT250 18/12 A3008 RMK AO2 SLP181 T01830122=
202003261452 METAR KATL 261452Z 10006KT 10SM SCT008 SCT200 SCT250 17/12 A3008 RMK AO2 SLP183 T01670117 51020=
202003261352 METAR KATL 261352Z 08009KT 10SM FEW008 SCT200 SCT250 14/10 A3007 RMK AO2 SLP179 T01390100=
202003261252 METAR KATL 261252Z 08009KT 10SM FEW003 BKN250 12/09 A3005 RMK AO2 SLP173 T01220089=
202003261152 METAR KATL 261152Z 09006KT 10SM BKN250 12/08 A3002 RMK AO2 SLP164 T01170083 10144 20117 53015=
202003261052 METAR KATL 261052Z 06008KT 10SM BKN250 13/08 A3001 RMK AO2 SLP157 T01280083=
202003260952 METAR KATL 260952Z 03006KT 10SM FEW250 13/08 A2999 RMK AO2 SLP152 T01280083=
202003260852 METAR KATL 260852Z 00000KT 10SM FEW250 12/09 A2998 RMK AO2 SLP147 T01220089 51003=
202003260752 METAR KATL 260752Z 31003KT 10SM FEW250 13/09 A2998 RMK AO2 SLP147 T01280089=
202003260652 METAR KATL 260652Z 32003KT 10SM FEW250 13/09 A2997 RMK AO2 SLP145 T01330089=
202003260552 METAR KATL 260552Z 32004KT 10SM FEW250 14/09 A2997 RMK AO2 SLP144 T01390089 10194 20139 50004=
202003260452 METAR KATL 260452Z 35003KT 10SM FEW250 14/09 A2997 RMK AO2 SLP145 T01440089 402280144=
202003260352 METAR KATL 260352Z 34005KT 10SM FEW250 16/09 A2996 RMK AO2 SLP141 T01560089=
202003260252 METAR KATL 260252Z 33004KT 10SM FEW250 16/09 A2995 RMK AO2 SLP139 T01560089 53013=
202003260152 METAR KATL 260152Z 33006KT 10SM FEW250 17/09 A2994 RMK AO2 SLP136 T01670089=
202003260052 METAR KATL 260052Z 34008KT 10SM SCT250 18/09 A2992 RMK AO2 SLP128 T01830089=
202003252352 METAR KATL 252352Z 33008KT 10SM FEW250 19/09 A2992 RMK AO2 SLP125 T01940094 10228 20194 53007=
202003252252 METAR KATL 252252Z 33011KT 10SM FEW250 22/11 A2991 RMK AO2 SLP121 T02170106=
202003252152 METAR KATL 252152Z 33010KT 10SM FEW250 22/11 A2989 RMK AO2 SLP117 T02220111=
202003252052 METAR KATL 252052Z 33010G14KT 10SM FEW250 23/12 A2989 RMK AO2 SLP117 T02280117 58010=
202003251952 METAR KATL 251952Z 34008G20KT 10SM FEW250 22/12 A2990 RMK AO2 SLP120 T02220117=
202003251852 METAR KATL 251852Z 35010KT 10SM FEW250 22/12 A2992 RMK AO2 SLP124 T02170122=
202003251752 METAR KATL 251752Z 32012KT 10SM CLR 21/13 A2993 RMK AO2 SLP127 T02110128 10217 20167 50004=
202003251652 METAR KATL 251652Z 33013KT 10SM SCT029 20/12 A2994 RMK AO2 SLP132 T02000122=
202003251552 METAR KATL 251552Z 32009KT 270V350 10SM SCT025 20/13 A2993 RMK AO2 SLP128 T02000128=
202003251452 METAR KATL 251452Z 29011KT 10SM SCT018 19/13 A2991 RMK AO2 SLP124 T01890128 51023=
202003251420 SPECI KATL 251420Z 31011KT 10SM SCT016 18/13 A2989 RMK AO2 T01830133=
202003251352 METAR KATL 251352Z 30009KT 10SM BKN014 18/14 A2989 RMK AO2 SLP115 T01780139=
202003251326 SPECI KATL 251326Z 30008KT 10SM BKN012 17/14 A2988 RMK AO2 T01720144=
202003251252 METAR KATL 251252Z 30010KT 10SM FEW009 17/14 A2987 RMK AO2 SLP110 T01720144=
202003251152 METAR KATL 251152Z 30008KT 10SM FEW008 FEW150 17/14 A2984 RMK AO2 SLP099 60009 70115 T01670144 10189 20167 51013=
202003251052 METAR KATL 251052Z 30007KT 9SM FEW006 17/16 A2983 RMK AO2 SLP094 T01670156=
202003250952 METAR KATL 250952Z 30008KT 10SM FEW006 SCT011 17/16 A2982 RMK AO2 SLP090 T01720156=
202003250919 SPECI KATL 250919Z 31008KT 10SM FEW006 BKN011 BKN080 18/16 A2982 RMK AO2 T01780161=
202003250852 METAR KATL 250852Z 30007KT 10SM SCT008 BKN016 BKN080 18/16 A2980 RMK AO2 SLP085 60009 T01830161 50002=
202003250804 SPECI KATL 250804Z 30008KT 10SM BKN008 BKN013 OVC080 18/17 A2982 RMK AO2 T01830167=
202003250752 METAR KATL 250752Z 27007KT 10SM FEW005 BKN013 OVC080 18/17 A2982 RMK AO2 RAE16 SLP089 P0000 T01830167=
202003250746 SPECI KATL 250746Z 27008KT 10SM FEW005 BKN013 OVC080 18/17 A2982 RMK AO2 RAE16 P0000=
202003250652 METAR KATL 250652Z 33009KT 8SM -RA SCT008 BKN032 OVC060 19/17 A2980 RMK AO2 LTG DSNT SE AND S TSE0559 SLP083 TS MOV SE CB DSNT SE-S P0009 T01890172=
202003250650 SPECI KATL 250650Z 33008KT 8SM -RA FEW006 SCT018 BKN032 BKN130 19/17 A2980 RMK AO2 LTG DSNT SE AND S TSE0559 TS MOV SE CB DSNT SE-S P0009=
202003250632 SPECI KATL 250632Z 32008KT 4SM -RA BR SCT006 BKN013 OVC035 19/17 A2981 RMK AO2 LTG DSNT S AND SW TSE0559 TS MOV SE CB DSNT E-S-SW P0008 T01890172=
202003250601 SPECI KATL 250601Z 27008KT 6SM -RA BR FEW007 SCT023CB BKN050 BKN130 19/17 A2980 RMK AO2 TSE0559 OCNL LTGICCA E-S-SW TS E-S-SW MOV E P0000 T01890172=
202003250556 SPECI KATL 250556Z 25006KT 6SM -TSRA BR FEW007 SCT023CB BKN050 BKN130 19/17 A2980 RMK AO2 OCNL LTGICCA E-S-SW TS E-S-SW MOV E P0000 T01890172=
202003250552 METAR KATL 250552Z 25006KT 2SM R09R/5000VP6000FT -TSRA BR FEW007 BKN023CB OVC039 19/17 A2980 RMK AO2 TSB44 SLP084 OCNL LTGICCG OHD-SW TS OHD-SW MOV E P0051 60051 T01890172 10239 20178 50006=
202003250547 SPECI KATL 250547Z 25008KT 2SM R09R/5000VP6000FT +TSRA BR SCT007 BKN023CB OVC039 19/17 A2981 RMK AO2 TSB44 OCNL LTGICCG OHD-SW TS OHD-SW MOV E P0045=
202003250537 SPECI KATL 250537Z 27005KT 1SM R09R/4500VP6000FT +RA BR FEW007 BKN027CB OVC050 19/17 A2981 RMK AO2 OCNL LTG DSNT SE & SW CB NE-OHD-SW-W MOV E P0017 T01890172=
202003250452 METAR KATL 250452Z 23012G20KT 9SM -RA FEW015 BKN070 BKN110 OVC150 21/16 A2979 RMK AO2 RAB20 SLP080 LTG DSNT NW-N CB DSNT NW-N P0000 T02060161 402560156=
202003250352 METAR KATL 250352Z 22015G25KT 10SM FEW035 BKN130 OVC200 21/16 A2978 RMK AO2 SLP078 LTG DSNT NW-NE CB DSNT NE-NW T02110161=
202003250252 METAR KATL 250252Z 14005KT 10SM FEW040 BKN080 OVC200 18/15 A2981 RMK AO2 SLP089 T01830150 56021=
202003250152 METAR KATL 250152Z 08006KT 10SM BKN042 BKN120 BKN200 18/15 A2982 RMK AO2 SLP095 T01830150=
202003250052 METAR KATL 250052Z 15006KT 10SM FEW004 SCT090 BKN120 19/15 A2983 RMK AO2 SLP095 T01890150=
202003242352 METAR KATL 242352Z 20007KT 10SM FEW035 BKN120 BKN200 24/14 A2987 RMK AO2 SLP109 T02390144 10256 20222 56012=
202003242252 METAR KATL 242252Z 20005KT 10SM FEW040 SCT090 BKN150 BKN200 24/15 A2988 RMK AO2 SLP112 ACC SE-SW-NW T02440150=
202003242152 METAR KATL 242152Z 19010G19KT 10SM SCT040 SCT060 BKN150 BKN200 25/15 A2989 RMK AO2 SLP114 T02500150=
202003242052 SPECI KATL 242052Z 23012G21KT 9SM SCT036 SCT060 SCT140 BKN200 25/15 A2991 RMK AO2 SLP121 T02500150 56034=
202003242052 METAR KATL 242052Z 23012G21KT 9SM SCT036 SCT060 SCT140 BKN200 25/15 A2991 RMK AO2 SLP121 T02500150 56034=
202003241952 METAR KATL 241952Z 22011KT 10SM SCT034 SCT065 BKN140 BKN200 24/17 A2994 RMK AO2 SLP132 MDT CU NW-NE-SE T02440167=
202003241852 METAR KATL 241852Z 23011G18KT 10SM SCT024 BKN034 BKN060 BKN140 24/17 A2998 RMK AO2 SLP144 MDT CU NW-NE-SE T02390172=
202003241819 SPECI KATL 241819Z 23013G17KT 10SM SCT024 SCT048 SCT075 23/17 A2999 RMK AO2 T02330172=
202003241752 METAR KATL 241752Z 24013G21KT 10SM FEW016 BKN028 BKN048 22/18 A3001 RMK AO2 SLP156 60055 T02220178 10222 20156 56008=
202003241704 SPECI KATL 241704Z 22014G20KT 10SM BKN015 BKN026 OVC045 21/18 A3002 RMK AO2 BINOVC T02110178=
202003241652 METAR KATL 241652Z 23015G21KT 8SM BKN011 BKN022 OVC055 21/18 A3002 RMK AO2 RAB31E42 SLP160 CIG 009V013 BINOVC P0001 T02060178=
202003241645 SPECI KATL 241645Z 24012G18KT 2SM BKN011 BKN018 OVC060 20/18 A3002 RMK AO2 SFC VIS 8 RAB31E42 CIG 009V013 P0000 T02000183=
202003241635 SPECI KATL 241635Z 22008KT 2SM -RA BR BKN008 BKN014 OVC065 20/18 A3002 RMK AO2 SFC VIS 5 RAB31 CIG 007V010 P0000 T02000183=
202003241602 SPECI KATL 241602Z 20009KT 1SM R09R/P6000FT BR BKN006 OVC012 18/17 A3002 RMK AO2 SFC VIS 6 CIG 004V008 T01830172=
202003241552 METAR KATL 241552Z 19007KT 1SM R09R/P6000FT BR BKN003 OVC008 18/17 A3002 RMK AO2 SFC VIS 4 RAE1455 SLP160 CIG 002V005 P0000 T01830172=
202003241452 METAR KATL 241452Z 16004KT 1SM R09R/P6000FT -RA BR BKN004 BKN018 OVC060 17/16 A3003 RMK AO2 SFC VIS 5 LTG DSNT N-E SLP166 RAB12 TSB13E48 TS MOVD E CB DSNT N-E-SE P0054 60054 T01720161 58006=
202003241443 SPECI KATL 241443Z 15006KT 1SM R09R/P6000FT -TSRA BR SCT004 BKN018CB OVC060 17/16 A3003 RMK AO2 SFC VIS 2 RAB12 TSB13 FRQ LTGICCGCA NE-SE TS NE-SE MOV E P0054 T01720161=
202003241427 SPECI KATL 241427Z 23005KT 1/2SM R09R/2200V3500FT +TSRA FG BKN003 OVC020CB 17/16 A3007 RMK AO2 RAB12 TSB13 FRQ LTGICCGCA N-OHD-S TS N-OHD-S MOV E P0002 T01670156=
202003241424 SPECI KATL 241424Z 22003KT 1/2SM R09R/2200V3500FT -TSRA BR OVC002CB 17/16 A3007 RMK AO2 SFC VIS 3/4 PRESRR RAB12 TSB13 VIS NW-NE 1 1/2 FRQ LTGICCGCA SW-NW TS SW-NW MOV E P0000 T01670156=
202003241417 SPECI KATL 241417Z 00000KT 1/2SM R09R/1800V2400FT VCTS -RA FG OVC002CB 17/16 A3005 RMK AO2 RAB12 TSB13 VIS NW-NE 1 OCNL LTGICCA SW-NW TS VC SW-NW MOV E P0000 T01670156=
202003241410 SPECI KATL 241410Z 15004KT 1/2SM R09R/1600V2200FT FG VV002 17/16 A3004 RMK AO2 LTG DSNT W AND NW VIS NW-NE 1 CB DSNT W NW T01670156=
202003241358 SPECI KATL 241358Z 13006KT 1/2SM R09R/1600V2600FT FG VV002 17/16 A3003 RMK AO2 LTG DSNT W AND NW CB DSNT W NW T01670156=
202003241352 METAR KATL 241352Z 15005KT 1/2SM R09R/1600V2200FT FG VV002 17/16 A3004 RMK AO2 LTG DSNT W AND NW SLP167 CB DSNT W NW T01670161=
202003241325 SPECI KATL 241325Z 14005KT 1/2SM R09R/1800V2600FT BR VV002 17/16 A3004 RMK AO2 SFC VIS 3/4 T01670156=
202003241315 SPECI KATL 241315Z 15004KT 1/4SM R09R/1800V2200FT FG VV002 16/15 A3005 RMK AO2 TWR VIS 1/2 T01610150=
202003241305 SPECI KATL 241305Z 13004KT 1/4SM R09R/1600V2400FT FG VV002 16/15 A3005 RMK AO2 TWR VIS 1/2 T01610150=
202003241252 METAR KATL 241252Z 08003KT 1/4SM R09R/1400V1600FT FG VV002 16/15 A3005 RMK AO2 TWR VIS 1/2 SLP174 T01610150=
202003241211 SPECI KATL 241211Z 06003KT 1/4SM R09R/1600V2200FT FG VV002 16/15 A3005 RMK AO2 TWR VIS 1/2 T01560150=
202003241152 METAR KATL 241152Z 00000KT 1/2SM R09R/2600VP6000FT FG BKN002 OVC007 16/15 A3005 RMK AO2 SLP174 70145 T01610150 10167 20156 55003=
202003241052 METAR KATL 241052Z 00000KT 1/2SM R09R/5000VP6000FT BR OVC003 16/15 A3005 RMK AO2 SFC VIS 3/4 SLP173 T01560150=
202003240952 METAR KATL 240952Z 00000KT 1/2SM R09R/3000V4500FT BR BKN004 OVC010 16/15 A3006 RMK AO2 SFC VIS 1 1/2 SLP176 T01610150=
202003240852 METAR KATL 240852Z 00000KT 1/2SM R09R/3000V6000FT BR OVC003 16/15 A3006 RMK AO2 SFC VIS 1 1/2 SLP177 T01610150 58004=
202003240752 METAR KATL 240752Z 00000KT 1/2SM R09R/2200V2800FT FG VV003 16/15 A3007 RMK AO2 SLP181 T01610150=
202003240750 SPECI KATL 240750Z 00000KT 1/4SM R09R/2000V2800FT FG VV003 16/15 A3007 RMK AO2 TWR VIS 1/2=
202003240723 SPECI KATL 240723Z 00000KT 1/4SM R09R/1600V2200FT FG VV002 16/15 A3008 RMK AO2 TWR VIS 1/2 T01610150=
202003240652 METAR KATL 240652Z 00000KT 1/2SM R09R/2200V3000FT FG VV003 16/15 A3008 RMK AO2 SLP182 T01610150=
202003240629 SPECI KATL 240629Z 00000KT 1/2SM R09R/2200V2600FT FG VV003 16/15 A3007 RMK AO2 T01610150=
202003240616 SPECI KATL 240616Z 00000KT 1/4SM R09R/1800V2800FT FG BKN003 OVC010 16/16 A3007 RMK AO2 TWR VIS 1/2 T01610156=
202003240608 SPECI KATL 240608Z 04003KT 1/4SM R09R/1800V2200FT FG BKN003 OVC010 17/16 A3007 RMK AO2 TWR VIS 1/2 T01670156=
202003240552 METAR KATL 240552Z 02004KT 1/2SM R09R/5000VP6000FT BR BKN003 OVC010 17/16 A3007 RMK AO2 SFC VIS 1 SLP181 60013 T01670156 10178 20161 58006=
202003240452 METAR KATL 240452Z 00000KT 1/2SM R09R/4500VP6000FT BR BKN003 OVC010 17/16 A3008 RMK AO2 SFC VIS 3 SLP184 VIS LWR SE-SW T01670156 401780106=
202003240352 METAR KATL 240352Z 16003KT 1 1/2SM BR BKN003 OVC010 17/16 A3008 RMK AO2 SFC VIS 5 SLP185 T01670156=
202003240323 SPECI KATL 240323Z 00000KT 1 1/2SM BR BKN004 OVC010 17/16 A3009 RMK AO2 SFC VIS 5 T01720156=
202003240252 METAR KATL 240252Z 35004KT 7SM SCT004 BKN009 BKN075 OVC150 17/16 A3009 RMK AO2 SLP187 SCT004 V BKN 60013 T01720161 58002=
202003240152 METAR KATL 240152Z 21003KT 8SM SCT012 BKN020 BKN075 OVC150 17/16 A3011 RMK AO2 RAE32 SLP193 P0002 T01720156=
202003240126 SPECI KATL 240126Z 19004KT 6SM -RA BR FEW003 BKN015 OVC080 17/16 A3011 RMK AO2 P0001 T01720161=
202003240052 METAR KATL 240052Z 17004KT 1 1/4SM -RA BR SCT003 BKN007 OVC050 17/15 A3010 RMK AO2 SFC VIS 4 RAB2359 SLP193 P0011 T01670150=
202003240040 SPECI KATL 240040Z VRB03KT 1 1/2SM RA BR SCT003 BKN007 OVC015 17/15 A3010 RMK AO2 SFC VIS 2 1/2 RAB2359 P0008 T01670150=
202003232352 METAR KATL 232352Z 13003KT 1/2SM R09R/P6000FT BR BKN003 OVC008 16/15 A3010 RMK AO2 SFC VIS 5 RAE21 SLP190 TWRINC P0001 60064 T01610150 10161 20128 56006=
202003232314 SPECI KATL 232314Z 14004KT 1/2SM R09R/P6000FT -RA BR BKN003 OVC008 16/15 A3009 RMK AO2 SFC VIS 5 P0001 T01560150=
202003232252 METAR KATL 232252Z 11004KT 1/2SM R09R/P6000FT RA BR SCT003 BKN008 OVC050 16/14 A3010 RMK AO2 SFC VIS 2 SLP191 CB DSNT E P0051 T01560144=
202003232152 METAR KATL 232152Z 11005KT 1/4SM R09R/P6000FT -RA BR BKN003 OVC008 16/14 A3010 RMK AO2 SFC VIS 3 SLP191 P0006 T01610144=
202003232052 METAR KATL 232052Z 13003KT 1/4SM R09R/P6000FT -RA BR OVC004 16/14 A3011 RMK AO2 SFC VIS 5 DZE33RAB33 SLP196 CIG 003V005 TWRINC P0001 60006 T01560144 56021=
202003232023 SPECI KATL 232023Z 17006KT 1/4SM R09R/P6000FT -DZ BR OVC003 16/14 A3012 RMK AO2 SFC VIS 6 CIG 002V004 TWRINC P0000 T01560139=
202003231952 METAR KATL 231952Z 17004KT 1 1/4SM -DZ BR OVC003 15/13 A3013 RMK AO2 SFC VIS 6 SLP201 CIG 002V004 TWRINC P0000 T01500133=
202003231852 METAR KATL 231852Z 17005KT 1 1/4SM -DZ BR OVC004 14/13 A3015 RMK AO2 SFC VIS 6 RAE14DZB50 SLP210 CIG 003V006 P0005 T01390128=
202003231752 METAR KATL 231752Z 10005KT 1 1/4SM +RA BR BKN004 BKN017 OVC038 13/11 A3018 RMK AO2 SFC VIS 2 SLP218 CIG 003V006 P0018 60068 T01280111 10128 20111 58016=
202003231652 METAR KATL 231652Z 13006KT 1 1/4SM RA BR BKN004 BKN014 OVC036 12/11 A3021 RMK AO2 SFC VIS 4 LTG DSNT SE SLP231 CIG 003V006 CB DSNT SE P0023 T01220106=
202003231552 METAR KATL 231552Z 12005KT 1 1/4SM R09R/5500VP6000FT +RA BR BKN004 BKN008 OVC016CB 12/11 A3023 RMK AO2 SFC VIS 1 3/4 SLP238 CIG 003V005 CB NE-OHD-SW MOV E P0022 T01170106=
202003231515 SPECI KATL 231515Z 09007KT 1 1/4SM -RA BR BKN004 OVC008 12/11 A3024 RMK AO2 SFC VIS 3 CIG 003V005 P0004 T01170106=
202003231452 METAR KATL 231452Z 09006KT 1/2SM R09R/P6000FT -RA BR OVC003 12/10 A3023 RMK AO2 SFC VIS 3 SLP235 CIG 002V004 TWRINC P0003 60005 T01170100 53002=
202003231352 METAR KATL 231352Z 12009KT 1/2SM R09R/P6000FT -RA BR OVC003 11/10 A3021 RMK AO2 SFC VIS 3 DZE19RAB19 SLP231 CIG 002V004 TWRINC P0001 T01110100=
202003231252 METAR KATL 231252Z 13007KT 1/2SM R09R/P6000FT -DZ BR OVC004 11/10 A3022 RMK AO2 SFC VIS 4 SLP235 CIG 003V005 TWRINC P0001 T01110100=
202003231152 METAR KATL 231152Z 10006KT 1/2SM R09R/P6000FT -DZ BR OVC002 11/10 A3022 RMK AO2 SFC VIS 1 1/4 SLP233 P0000 60000 70003 T01110100 10111 20106 53010=
202003231052 METAR KATL 231052Z 12008KT 1/2SM R09R/P6000FT -DZ BR OVC003 11/10 A3019 RMK AO2 SFC VIS 1 1/2 SLP224 CIG 002V004 TWRINC P0000 T01110100=
202003230952 METAR KATL 230952Z 10007KT 1/2SM R09R/P6000FT -DZ BR OVC003 11/10 A3018 RMK AO2 SFC VIS 2 1/2 SLP220 CIG 002V004 TWRINC P0000 T01110100=
202003230920 SPECI KATL 230920Z 11011KT 1/2SM R09R/P6000FT -DZ BR OVC003 11/09 A3018 RMK AO2 SFC VIS 4 CIG 002V004 TWRINC P0000 T01110094=
202003230852 METAR KATL 230852Z 11010KT 5SM -DZ BR OVC004 11/09 A3019 RMK AO2 SLP222 CIG 003V005 P0000 60000 T01110094 58028=
202003230752 METAR KATL 230752Z 10011KT 6SM -DZ BR OVC004 11/09 A3022 RMK AO2 DZB41 SLP231 P0000 T01110094=
202003230741 SPECI KATL 230741Z 10008KT 6SM -DZ BR OVC004 11/09 A3022 RMK AO2 DZB41 P0000 T01110094=
202003230652 METAR KATL 230652Z 10009KT 7SM OVC005 11/09 A3025 RMK AO2 DZE21 SLP242 P0000 T01110094=
202003230552 METAR KATL 230552Z 08012KT 2SM -DZ BR OVC004 11/10 A3028 RMK AO2 SFC VIS 5 RAE03DZB03 SLP251 CIG 003V006 TWRINC P0000 60000 T01110100 10133 20111 58002=
202003230452 METAR KATL 230452Z 10009KT 2SM -RA BR BKN004 OVC008 12/10 A3029 RMK AO2 SFC VIS 2 1/2 DZE34RAB34 SLP255 P0000 T01170100 401720083=
202003230352 METAR KATL 230352Z 09009KT 2 1/2SM -DZ BR BKN004 OVC008 12/10 A3029 RMK AO2 SFC VIS 4 SLP257 P0000 T01170100=
202003230316 SPECI KATL 230316Z 11008KT 2 1/2SM -DZ BR OVC004 12/11 A3028 RMK AO2 SFC VIS 4 P0000 T01220106=
202003230252 METAR KATL 230252Z 11009KT 5SM -DZ BR OVC005 12/11 A3028 RMK AO2 SLP254 DZB45 P0000 60000 T01220106 50006=
202003230152 METAR KATL 230152Z 10010KT 7SM -DZ OVC006 13/11 A3028 RMK AO2 SLP254 DZB45 P0000 T01280106=
202003230052 METAR KATL 230052Z 11011KT 10SM BKN008 OVC015 13/11 A3027 RMK AO2 SLP250 T01330106=
202003222352 METAR KATL 222352Z 09009KT 10SM BKN009 OVC015 13/11 A3026 RMK AO2 DZE44 SLP249 P0000 60003 T01330106 10172 20133 53007=
202003222252 METAR KATL 222252Z 10010KT 10SM -DZ BKN009 OVC015 14/11 A3026 RMK AO2 SLP248 DZB35 P0000 T01390111=
202003222222 SPECI KATL 222222Z 09013KT 10SM BKN009 OVC015 14/11 A3025 RMK AO2 T01390111=
202003222152 METAR KATL 222152Z 10011KT 10SM BKN010 OVC015 15/12 A3024 RMK AO2 SLP241 T01500117=
202003222052 METAR KATL 222052Z 08012KT 10SM OVC014 16/13 A3024 RMK AO2 RAE21 SLP240 P0000 60003 T01610128 55021=
202003222039 SPECI KATL 222039Z 09010KT 10SM BKN014 OVC021 17/13 A3024 RMK AO2 RAE21 P0000 T01670128=
202003221952 METAR KATL 221952Z 12009G18KT 8SM -RA SCT037 SCT050 BKN070 17/13 A3022 RMK AO2 RAB1853 SLP232 P0003 T01670133=
202003221852 METAR KATL 221852Z 09004KT 9SM SCT044 SCT060 BKN100 OVC200 17/12 A3029 RMK AO2 SLP258 T01720117=
202003221752 METAR KATL 221752Z 09008KT 10SM SCT022 BKN042 OVC080 17/11 A3030 RMK AO2 SLP261 T01670111 10167 20094 50007=
202003221652 METAR KATL 221652Z 09010KT 10SM SCT022 BKN080 OVC150 17/11 A3032 RMK AO2 SLP265 T01670106=
202003221552 METAR KATL 221552Z 09012G19KT 10SM SCT019 BKN085 OVC150 16/10 A3030 RMK AO2 SLP259 T01560100=
202003221524 SPECI KATL 221524Z 09015KT 10SM SCT016 BKN085 OVC150 16/11 A3028 RMK AO2 T01560106=
202003221452 METAR KATL 221452Z 09011KT 10SM OVC015 16/10 A3028 RMK AO2 SLP252 T01560100 50005=
202003221435 SPECI KATL 221435Z 08012KT 10SM OVC015 14/09 A3029 RMK AO2 T01440094=
202003221352 METAR KATL 221352Z 05010KT 10SM OVC014 13/08 A3029 RMK AO2 SLP257 T01330078=
202003221252 METAR KATL 221252Z 06007KT 10SM BKN013 BKN200 OVC250 12/07 A3028 RMK AO2 SLP252 T01170067=
202003221243 SPECI KATL 221243Z 05006KT 10SM BKN013 BKN200 OVC250 12/06 A3028 RMK AO2 T01170061=
202003221231 SPECI KATL 221231Z 06007KT 10SM BKN015 BKN150 BKN200 BKN250 11/06 A3027 RMK AO2 BKN015 V SCT T01110061=
202003221152 METAR KATL 221152Z 01005KT 10SM FEW025 SCT200 BKN250 09/06 A3027 RMK AO2 SLP248 T00940056 10106 20083 53012=
202003221052 METAR KATL 221052Z 35004KT 10SM BKN250 08/05 A3025 RMK AO2 SLP242 T00830050=
202003220952 METAR KATL 220952Z 02008KT 10SM BKN250 09/05 A3022 RMK AO2 SLP231 T00890050=
202003220852 METAR KATL 220852Z 33009KT 10SM BKN250 09/06 A3023 RMK AO2 SLP235 T00890056 56020=
202003220752 METAR KATL 220752Z 31010G18KT 270V340 10SM BKN250 09/06 A3025 RMK AO2 SLP241 T00940061=
202003220652 METAR KATL 220652Z 33008KT 10SM BKN250 10/06 A3027 RMK AO2 SLP247 T01000061=
202003220552 METAR KATL 220552Z 30006KT 10SM BKN250 11/07 A3029 RMK AO2 SLP254 T01060067 10178 20106 55003=
202003220452 METAR KATL 220452Z 32008KT 10SM BKN250 12/07 A3029 RMK AO2 SLP253 T01170072 402330117=
202003220352 METAR KATL 220352Z 34010KT 10SM BKN250 BKN300 13/07 A3030 RMK AO2 SLP259 T01280072=
202003220252 METAR KATL 220252Z 34011KT 10SM FEW030 BKN250 BKN300 14/08 A3030 RMK AO2 SLP258 T01440083 53009=
202003220152 METAR KATL 220152Z 33008KT 10SM BKN250 17/11 A3029 RMK AO2 SLP253 T01670106=
202003220052 METAR KATL 220052Z 33006KT 10SM FEW035 BKN250 17/11 A3027 RMK AO2 SLP249 T01670111=
202003212352 METAR KATL 212352Z 33008KT 10SM FEW035 BKN250 18/11 A3027 RMK AO2 SLP248 T01780111 10233 20178 51010=
202003212252 METAR KATL 212252Z 32009KT 10SM FEW030 SCT035 BKN250 19/12 A3027 RMK AO2 SLP246 T01940117=
202003212152 METAR KATL 212152Z 34010KT 10SM SCT030 SCT037 BKN250 19/12 A3025 RMK AO2 SLP240 T01940122=
202003212052 METAR KATL 212052Z 32013KT 10SM BKN037 BKN250 21/13 A3024 RMK AO2 SLP236 T02110128 56012=
202003211952 METAR KATL 211952Z 29011KT 10SM SCT037 BKN250 22/13 A3025 RMK AO2 SLP236 T02220133=
202003211852 METAR KATL 211852Z 30014G17KT 10SM SCT035 BKN250 23/13 A3026 RMK AO2 SLP242 T02280128=
202003211752 METAR KATL 211752Z 28007KT 10SM SCT032 SCT250 23/14 A3028 RMK AO2 SLP248 T02280139 10228 20161 58007=
202003211652 METAR KATL 211652Z 30009KT 10SM SCT026 SCT042 21/14 A3030 RMK AO2 SLP253 T02110139=
202003211629 SPECI KATL 211629Z 31009KT 10SM SCT015 SCT022 21/13 A3030 RMK AO2 T02060133=
202003211552 METAR KATL 211552Z 31009KT 10SM SCT015 BKN022 19/13 A3031 RMK AO2 SLP258 T01890133=
202003211452 METAR KATL 211452Z 32010KT 10SM FEW008 SCT016 BKN023 18/14 A3030 RMK AO2 SLP256 T01830144 51018=
202003211418 SPECI KATL 211418Z 32009KT 6SM BR SCT006 BKN013 17/14 A3030 RMK AO2 T01720144=
202003211352 METAR KATL 211352Z 31010KT 6SM BR SCT004 BKN009 17/14 A3029 RMK AO2 SLP252 T01720144=
202003211328 SPECI KATL 211328Z 31013KT 6SM BR SCT004 BKN008 17/14 A3028 RMK AO2 T01720144=
202003211252 METAR KATL 211252Z 30005KT 7SM SCT004 BKN095 16/15 A3027 RMK AO2 SLP244 T01610150=
202003211152 METAR KATL 211152Z 28005KT 10SM SCT005 BKN034 BKN080 16/14 A3025 RMK AO2 RAB04E50 SLP236 SCT005 V BKN P0007 60009 70010 T01610144 10172 20161 53012=
202003211121 SPECI KATL 211121Z 30005KT 7SM -RA FEW004 BKN044 OVC080 16/14 A3024 RMK AO2 RAB04 P0001 T01610144=
202003211052 METAR KATL 211052Z 28007KT 10SM FEW028 SCT044 OVC070 16/14 A3024 RMK AO2 RAE37 SLP234 P0000 T01610144=
202003210952 METAR KATL 210952Z 28005KT 8SM -RA OVC060 16/14 A3021 RMK AO2 RAB11E23B50 SLP224 P0000 T01610144=
202003210852 METAR KATL 210852Z 27005KT 10SM SCT047 BKN065 OVC120 16/14 A3021 RMK AO2 SLP223 60002 T01610144 57001=
202003210752 METAR KATL 210752Z 28006KT 10SM FEW047 BKN060 BKN080 OVC130 17/14 A3021 RMK AO2 RAE0655B16E35 SLP222 P0001 T01670144=
202003210652 METAR KATL 210652Z 22004KT 10SM -RA BKN050 BKN090 OVC120 17/15 A3021 RMK AO2 SLP224 P0001 T01670150=
202003210552 METAR KATL 210552Z 34004KT 10SM -RA BKN055 BKN085 BKN110 BKN150 17/14 A3021 RMK AO2 RAE27B49 SLP223 P0001 60001 T01720144 10250 20172 58015=
202003210452 METAR KATL 210452Z 33003KT 8SM -RA SCT055 BKN080 OVC110 18/14 A3023 RMK AO2 RAB11 SLP231 P0000 T01780139 402830167=
202003210352 METAR KATL 210352Z 34010KT 10SM FEW045 BKN100 BKN200 18/13 A3026 RMK AO2 SLP240 T01830128=
202003210252 METAR KATL 210252Z 33010KT 10SM FEW045 BKN150 BKN200 19/13 A3026 RMK AO2 SLP240 T01890128 53026=
202003210152 METAR KATL 210152Z 34013G22KT 10SM SCT042 BKN055 BKN100 BKN200 19/13 A3024 RMK AO2 PK WND 32029/0126 WSHFT 0109 SLP235 T01940128=
202003210127 SPECI KATL 210127Z 32023G29KT 10SM SCT042 BKN055 BKN200 BKN250 21/13 A3023 RMK AO2 PK WND 32029/0126 WSHFT 0109 PRESRR FROPA T02110133=
202003210052 METAR KATL 210052Z 22005KT 10SM FEW050 SCT070 BKN200 BKN250 24/14 A3019 RMK AO2 SLP215 T02390144=
202003202352 METAR KATL 202352Z 23006KT 10SM CLR 24/14 A3018 RMK AO2 SLP213 T02440139 10283 20244 55000=
202003202252 METAR KATL 202252Z 22008KT 10SM FEW045 BKN180 BKN250 26/14 A3018 RMK AO2 SLP212 T02560144=
202003202152 METAR KATL 202152Z 23011KT 10SM FEW045 BKN180 BKN250 26/15 A3017 RMK AO2 SLP210 T02610150=
202003202052 METAR KATL 202052Z 23015G25KT 10SM FEW044 SCT060 BKN180 BKN250 26/14 A3018 RMK AO2 SLP212 VIRGA N-OHD-S T02610144 55012=
202003201952 METAR KATL 201952Z 24010G18KT 10SM FEW055 BKN200 BKN250 27/14 A3017 RMK AO2 SLP209 T02670139=
202003201852 METAR KATL 201852Z 24011KT 10SM FEW048 SCT200 BKN250 28/15 A3019 RMK AO2 SLP214 T02780150=
202003201752 METAR KATL 201752Z 25011G19KT 10SM FEW040 SCT200 SCT250 27/15 A3022 RMK AO2 SLP223 T02670150 10267 20178 58020=
202003201652 METAR KATL 201652Z 20007G17KT 10SM FEW034 SCT200 BKN250 25/16 A3025 RMK AO2 SLP234 T02500156=
202003201552 METAR KATL 201552Z 22010KT 10SM FEW030 SCT200 BKN250 23/16 A3028 RMK AO2 SLP246 T02330156=
202003201452 METAR KATL 201452Z 22009KT 10SM FEW024 SCT200 BKN250 22/15 A3028 RMK AO2 SLP246 T02170150 50006=
202003201352 METAR KATL 201352Z 25011G16KT 10SM SCT016 SCT180 BKN250 20/16 A3029 RMK AO2 SLP252 T02000156=
202003201303 SPECI KATL 201303Z 22011KT 10SM SCT010 SCT016 SCT200 BKN250 19/16 A3029 RMK AO2 T01890156=
202003201252 METAR KATL 201252Z 24010KT 10SM BKN010 BKN015 BKN200 BKN250 18/16 A3029 RMK AO2 SLP250 BKN010 V SCT T01830156=
202003201152 METAR KATL 201152Z 25008KT 9SM BKN013 BKN250 18/15 A3026 RMK AO2 SLP239 T01780150 10211 20167 53010=
202003201108 SPECI KATL 201108Z VRB06KT 10SM BKN012 BKN250 17/15 A3024 RMK AO2 T01720150=
202003201052 METAR KATL 201052Z 00000KT 10SM FEW020 SCT250 17/14 A3024 RMK AO2 SLP234 T01720144=
202003200952 METAR KATL 200952Z 22005KT 10SM SCT250 18/14 A3023 RMK AO2 SLP229 T01780144=
202003200852 METAR KATL 200852Z 20007KT 10SM BKN250 18/14 A3022 RMK AO2 SLP227 T01830144 58004=
202003200752 METAR KATL 200752Z 22004KT 10SM BKN250 18/14 A3024 RMK AO2 SLP231 T01830144=
202003200652 METAR KATL 200652Z 19004KT 10SM BKN250 19/15 A3024 RMK AO2 SLP233 T01940150=
202003200552 METAR KATL 200552Z 20007KT 10SM FEW050 SCT250 21/15 A3024 RMK AO2 SLP231 T02110150 10244 20206 53004=
202003200452 METAR KATL 200452Z 18005KT 10SM SCT045 BKN060 BKN250 22/16 A3023 RMK AO2 SLP229 T02170156 402720150=
202003200352 METAR KATL 200352Z 17007KT 10SM FEW200 BKN250 21/15 A3022 RMK AO2 SLP228 T02110150=
202003200252 METAR KATL 200252Z 17006KT 10SM SCT200 BKN250 22/15 A3023 RMK AO2 SLP230 T02170150 58001=
202003200152 METAR KATL 200152Z 17003KT 10SM FEW070 SCT200 BKN250 21/16 A3023 RMK AO2 SLP233 T02110156=
202003200052 METAR KATL 200052Z 19003KT 10SM FEW070 SCT200 BKN250 23/16 A3022 RMK AO2 SLP229 T02280156=
202003192352 METAR KATL 192352Z 00000KT 10SM SCT070 BKN200 BKN250 24/15 A3023 RMK AO2 SLP231 T02440150 10272 20239 51007=
202003192252 METAR KATL 192252Z 26009KT 10SM FEW070 SCT200 BKN250 25/15 A3022 RMK AO2 SLP228 T02500150=
202003192152 METAR KATL 192152Z 25010KT 10SM SCT050TCU SCT080 BKN200 BKN250 27/15 A3022 RMK AO2 SLP226 TCU NW-N T02670150=
202003192052 METAR KATL 192052Z 22011KT 10SM FEW046 SCT060 SCT200 BKN250 27/15 A3021 RMK AO2 SLP223 T02670150 56015=
202003191952 METAR KATL 191952Z 19013G17KT 10SM SCT044 BKN055 BKN250 27/16 A3022 RMK AO2 SLP225 T02670156=
202003191852 METAR KATL 191852Z 20011KT 10SM BKN048 BKN250 26/16 A3022 RMK AO2 SLP228 T02560156=
202003191752 METAR KATL 191752Z 19013G20KT 10SM SCT036 SCT050 BKN250 26/16 A3025 RMK AO2 SLP238 T02560161 10256 20156 58011=
202003191652 METAR KATL 191652Z 20010G16KT 9SM BKN032 OVC045 23/16 A3027 RMK AO2 SLP246 BINOVC T02330156=
202003191552 METAR KATL 191552Z 16006KT 8SM SCT023 SCT046 SCT180 BKN250 22/17 A3028 RMK AO2 SLP250 T02170167=
202003191452 METAR KATL 191452Z 13004KT 4SM BR SCT004 SCT180 BKN250 17/16 A3029 RMK AO2 SLP252 T01720156 53007=
202003191431 SPECI KATL 191431Z 14004KT 1 3/4SM BR OVC003 16/15 A3028 RMK AO2 SFC VIS 2 CIG 002V004 BINOVC T01610150=
202003191416 SPECI KATL 191416Z 13006KT 1/4SM R09R/5000VP6000FT BR OVC002 16/15 A3027 RMK AO2 SFC VIS 3/4 VIS NW-NE 2 CIG 001V003 TWRINC T01560150=
202003191352 METAR KATL 191352Z 13004KT 0SM R09R/2600VP6000FT FG VV002 16/15 A3027 RMK AO2 SFC VIS 1/2 SLP248 T01560150=
202003191338 SPECI KATL 191338Z 13003KT 0SM R09R/1400V1800FT FG VV002 16/15 A3027 RMK AO2 SFC VIS 1/4 T01560150=
202003191302 SPECI KATL 191302Z 00000KT 0SM R09R/2000V5500FT FG VV002 16/14 A3027 RMK AO2 SFC VIS 1/4 T01560144=
202003191252 METAR KATL 191252Z 09004KT 0SM R09R/1800V2800FT FG VV001 16/14 A3026 RMK AO2 SFC VIS 1/4 SLP243 T01560144=
202003191152 METAR KATL 191152Z 16003KT 0SM R09R/1000V1400FT FG VV001 15/14 A3026 RMK AO2 SFC VIS 1/8 SLP243 T01500139 10167 20150 53004=
202003191052 METAR KATL 191052Z 12003KT 0SM R09R/1200V1800FT FG VV001 15/14 A3026 RMK AO2 SFC VIS 1/4 SLP240 T01500144=
202003191016 SPECI KATL 191016Z 10004KT 0SM R09R/1200V1400FT FG VV001 15/14 A3025 RMK AO2 SFC VIS 1/4 T01500144=
202003190952 METAR KATL 190952Z 09004KT 1/8SM R09R/1200V1400FT FG VV001 15/14 A3023 RMK AO2 SFC VIS 1/4 SLP232 T01500144=
202003190852 METAR KATL 190852Z 11005KT 1/8SM R09R/1200V1600FT FG VV001 16/14 A3025 RMK AO2 SFC VIS 1/4 SLP238 T01560144 55001=
202003190752 METAR KATL 190752Z 08006KT 1/8SM R09R/1200V1600FT FG VV001 16/14 A3025 RMK AO2 SFC VIS 1/4 SLP238 T01560144=
202003190726 SPECI KATL 190726Z 08006KT 1/8SM R09R/1600V2000FT FG VV001 16/14 A3025 RMK AO2 SFC VIS 1/4 T01560144=
202003190710 SPECI KATL 190710Z 05006KT 1/8SM R09R/1400V2600FT FG VV001 16/15 A3025 RMK AO2 SFC VIS 1/4 T01610150=
202003190708 SPECI KATL 190708Z 05005KT 1/8SM R09R/1400V1600FT FG VV002 16/15 A3025 RMK AO2 SFC VIS 1/4 T01610150=
202003190652 METAR KATL 190652Z 06006KT 1/8SM R09R/1800V2800FT FG VV002 16/15 A3025 RMK AO2 SFC VIS 1/4 SLP238 TWRINC T01610150=
202003190639 SPECI KATL 190639Z 06006KT 1/8SM R09R/1800V2800FT FG VV002 16/15 A3025 RMK AO2 SFC VIS 1/4 TWRINC T01610150=
202003190632 SPECI KATL 190632Z 06006KT 1/8SM R09R/1600V2200FT FG VV002 16/15 A3025 RMK AO2 SFC VIS 1/4 TWRINC T01610150=
202003190605 SPECI KATL 190605Z 08005KT 1/8SM R09R/1800V3000FT FG VV002 16/15 A3025 RMK AO2 SFC VIS 1/2 TWRINC T01610150=
202003190552 METAR KATL 190552Z 08006KT 1/2SM R09R/2800VP6000FT BR OVC002 17/15 A3025 RMK AO2 SFC VIS 1 1/4 SLP240 TWRINC T01670150 10233 20167 51002=
202003190522 SPECI KATL 190522Z 10004KT 1/2SM R09R/P6000FT BR BKN003 BKN250 17/15 A3025 RMK AO2 SFC VIS 4 TWRINC T01670150=
202003190509 SPECI KATL 190509Z 09004KT 2SM BR BKN004 BKN250 17/15 A3025 RMK AO2 SFC VIS 5 T01670150=
202003190452 METAR KATL 190452Z 08007KT 6SM BR BKN005 BKN250 17/15 A3025 RMK AO2 SLP240 T01670150 402560133=
202003190429 SPECI KATL 190429Z 08008KT 6SM BR BKN005 BKN250 17/15 A3026 RMK AO2 T01670150=
202003190352 METAR KATL 190352Z 08007KT 6SM BR FEW090 SCT250 17/16 A3026 RMK AO2 SLP242 T01720156=
202003190252 METAR KATL 190252Z 08007KT 7SM FEW150 SCT250 18/16 A3025 RMK AO2 SLP239 T01830161 53008=
202003190152 METAR KATL 190152Z 09006KT 8SM FEW150 BKN250 20/17 A3023 RMK AO2 SLP233 T02000172=
202003190052 METAR KATL 190052Z 10003KT 10SM FEW150 BKN250 22/16 A3023 RMK AO2 SLP231 T02170161=
202003182352 METAR KATL 182352Z 16003KT 10SM SCT060 BKN100 BKN250 23/16 A3022 RMK AO2 SLP229 60000 T02330161 10256 20200 53005=
202003182252 METAR KATL 182252Z 16006KT 10SM FEW040TCU SCT150 BKN250 24/16 A3021 RMK AO2 SLP224 TCU NE T02440161=
202003182152 METAR KATL 182152Z 18008KT 10SM SCT040 BKN150 BKN250 25/16 A3020 RMK AO2 SLP220 CB DSNT NE-SE T02500156=
202003182052 METAR KATL 182052Z 16006KT 10SM FEW030TCU SCT080 BKN200 BKN250 25/17 A3021 RMK AO2 RAB15E25 SLP223 TCU NE SE DSNT N P0000 60000 T02500167 56023=
202003181952 METAR KATL 181952Z 17007KT 10SM SCT027 SCT055 OVC080 23/16 A3021 RMK AO2 SLP227 MDT CU S-W-NW T02330161=
202003181852 METAR KATL 181852Z 12007KT 10SM FEW018 SCT028 BKN180 BKN250 23/17 A3024 RMK AO2 SLP234 T02330167=
202003181829 SPECI KATL 181829Z 13006KT 10SM SCT017 SCT028 BKN180 BKN250 23/17 A3025 RMK AO2 T02280167=
202003181752 METAR KATL 181752Z 13007KT 8SM BKN013 OVC034 20/16 A3028 RMK AO2 SLP249 T02000156 10200 20144 58009=
202003181727 SPECI KATL 181727Z 13007KT 8SM BKN012 BKN034 OVC048 19/16 A3029 RMK AO2 T01940156=
202003181718 SPECI KATL 181718Z 14006KT 8SM SCT012 BKN034 OVC048 19/16 A3029 RMK AO2 T01940156=
202003181652 METAR KATL 181652Z 14007KT 8SM BKN011 OVC026 19/15 A3030 RMK AO2 SLP257 T01890150=
202003181552 METAR KATL 181552Z 12007KT 8SM OVC011 18/14 A3031 RMK AO2 SLP260 T01780144=
202003181452 METAR KATL 181452Z 13007KT 6SM HZ BKN012 OVC024 17/14 A3031 RMK AO2 SLP259 T01720144 51017=
202003181352 METAR KATL 181352Z 11008KT 5SM BR BKN010 OVC024 17/14 A3029 RMK AO2 SLP255 T01670144=
202003181252 METAR KATL 181252Z 10005KT 4SM BR BKN008 OVC025 16/14 A3027 RMK AO2 SLP249 T01610139=
202003181213 SPECI KATL 181213Z 10003KT 4SM BR BKN009 OVC025 14/13 A3026 RMK AO2 T01440128=
202003181152 METAR KATL 181152Z 12003KT 4SM BR SCT009 SCT025 BKN200 14/13 A3026 RMK AO2 SLP242 T01390128 10156 20133 53007=
202003181052 METAR KATL 181052Z 09005KT 7SM FEW007 FEW025 14/12 A3024 RMK AO2 SLP236 T01440122=
202003180952 METAR KATL 180952Z 07006KT 7SM FEW007 FEW027 14/12 A3023 RMK AO2 SLP235 T01390122=
202003180935 SPECI KATL 180935Z 07006KT 7SM FEW009 SCT027 14/12 A3024 RMK AO2 T01390122=
202003180852 METAR KATL 180852Z 08003KT 6SM BR FEW009 SCT016 BKN026 16/13 A3023 RMK AO2 SLP234 T01560133 55003=
202003180752 METAR KATL 180752Z 12004KT 6SM BR FEW007 BKN016 14/13 A3023 RMK AO2 SLP235 BKN016 V SCT T01440128=
202003180747 SPECI KATL 180747Z 00000KT 6SM BR FEW007 BKN016 14/13 A3024 RMK AO2 BKN016 V SCT=
202003180733 SPECI KATL 180733Z 16003KT 7SM FEW007 SCT016 14/13 A3024 RMK AO2 SCT016 V BKN T01440128=
202003180703 SPECI KATL 180703Z 11004KT 6SM BR FEW007 BKN020 15/13 A3025 RMK AO2 T01500128=
202003180652 METAR KATL 180652Z 00000KT 6SM BR FEW007 FEW032 14/13 A3024 RMK AO2 SLP238 T01440128=
202003180552 METAR KATL 180552Z 09003KT 7SM FEW009 FEW250 15/13 A3025 RMK AO2 SLP243 T01500128 10189 20144 51003=
202003180452 METAR KATL 180452Z 11003KT 7SM FEW250 15/13 A3025 RMK AO2 SLP242 T01500133 402000106=
202003180352 METAR KATL 180352Z 00000KT 8SM FEW250 16/13 A3026 RMK AO2 SLP243 T01560128=
202003180252 METAR KATL 180252Z 00000KT 8SM BKN250 17/13 A3024 RMK AO2 SLP240 T01720133 53012=
202003180152 METAR KATL 180152Z 00000KT 9SM FEW200 BKN250 17/14 A3023 RMK AO2 SLP236 T01720139=
202003180052 METAR KATL 180052Z 00000KT 9SM FEW200 SCT250 17/14 A3022 RMK AO2 SLP232 T01720139=
202003172352 METAR KATL 172352Z 19003KT 9SM FEW200 SCT250 19/14 A3021 RMK AO2 SLP228 T01890139 10200 20156 55001=
202003172252 METAR KATL 172252Z 22003KT 10SM FEW200 BKN250 20/14 A3021 RMK AO2 SLP227 T02000139=
202003172152 METAR KATL 172152Z 21004KT 10SM SCT200 BKN250 19/13 A3021 RMK AO2 SLP226 T01940133=
202003172052 METAR KATL 172052Z VRB04KT 10SM FEW020 SCT140 BKN200 BKN250 19/14 A3021 RMK AO2 SLP229 T01890139 56021=
202003171952 METAR KATL 171952Z 20003KT 8SM FEW015 BKN180 BKN250 18/13 A3022 RMK AO2 SLP231 T01780133=
202003171911 SPECI KATL 171911Z 00000KT 6SM HZ SCT013 BKN180 BKN250 18/13 A3023 RMK AO2 T01780133=
202003171855 SPECI KATL 171855Z 25003KT 6SM HZ BKN011 BKN180 BKN250 17/13 A3024 RMK AO2 CIG 010V013 T01720133=
202003171852 METAR KATL 171852Z 25004KT 2SM HZ BKN011 BKN180 BKN250 17/13 A3024 RMK AO2 SFC VIS 5 SLP238 CIG 010V013 T01720133=
202003171827 SPECI KATL 171827Z 00000KT 2SM HZ OVC010 17/13 A3026 RMK AO2 SFC VIS 5 CIG 009V011 T01670128=
202003171752 METAR KATL 171752Z 03005KT 2SM HZ OVC008 16/12 A3028 RMK AO2 SFC VIS 5 SLP252 CIG 007V010 60000 T01610122 10161 20106 52002=
202003171652 METAR KATL 171652Z 00000KT 2SM BR OVC005 14/12 A3027 RMK AO2 SFC VIS 4 SLP250 CIG 003V007 T01440122=
202003171642 SPECI KATL 171642Z 00000KT 2SM BR OVC005 14/12 A3027 RMK AO2 SFC VIS 3 CIG 003V007 T01390122=
202003171552 METAR KATL 171552Z 00000KT 1/2SM R09R/4000VP6000FT BR OVC003 13/12 A3027 RMK AO2 SFC VIS 1 1/2 SLP252 VIS NW-NE 2 1/2 CIG 002V004 TWRINC T01280117=
202003171452 METAR KATL 171452Z 15004KT 1/2SM R09R/2600V4000FT FG VV002 12/11 A3027 RMK AO2 SLP251 60000 T01220106 53011=
202003171352 METAR KATL 171352Z 11005KT 1/2SM R09R/3000V3500FT FG VV002 11/10 A3026 RMK AO2 SLP247 T01110100=
202003171252 METAR KATL 171252Z 11003KT 1/2SM R09R/3000V4500FT BR OVC002 11/10 A3024 RMK AO2 SFC VIS 3/4 DZE20 SLP242 P0000 T01060100=
202003171152 METAR KATL 171152Z 12005KT 1/2SM R09R/P6000FT -DZ BR OVC002 11/09 A3024 RMK AO2 SFC VIS 1 1/4 SLP240 TWRINC P0000 60000 T01060094 10111 20106 51011=
202003171052 METAR KATL 171052Z 10005KT 1/2SM R09R/5000VP6000FT -DZ BR OVC003 11/09 A3023 RMK AO2 SFC VIS 1 SLP237 TWRINC P0000 T01060094=
202003171003 SPECI KATL 171003Z 07006KT 1/2SM R09R/P6000FT -DZ BR OVC003 11/09 A3022 RMK AO2 SFC VIS 1 1/2 TWRINC P0000 T01060094=
202003170952 METAR KATL 170952Z 09005KT 2SM -DZ BR OVC003 11/09 A3022 RMK AO2 SLP233 P0000 T01060094=
202003170852 METAR KATL 170852Z 09008KT 2 1/2SM -DZ BR OVC003 11/09 A3020 RMK AO2 SLP228 CIG 003V006 P0000 60000 T01060094 58013=
202003170759 SPECI KATL 170759Z 08007KT 2 1/2SM -DZ BR OVC004 11/09 A3023 RMK AO2 P0000 T01060094=
202003170752 METAR KATL 170752Z 07007KT 3SM -DZ BR OVC004 11/09 A3023 RMK AO2 SLP236 CIG 003V006 P0000 T01060094=
202003170749 SPECI KATL 170749Z 08006KT 3SM -DZ BR OVC004 11/09 A3023 RMK AO2 CIG 003V006 P0000=
202003170736 SPECI KATL 170736Z 07007KT 2SM -DZ BR OVC004 11/09 A3023 RMK AO2 CIG 003V006 P0000 T01110094=
202003170709 SPECI KATL 170709Z 07006KT 1 1/2SM -DZ BR OVC004 11/09 A3024 RMK AO2 P0000 T01060094=
202003170652 METAR KATL 170652Z 08006KT 2SM -DZ BR OVC004 11/09 A3024 RMK AO2 SLP242 CIG 003V006 P0000 T01110094=
202003170626 SPECI KATL 170626Z 09006KT 2SM -DZ BR OVC004 11/09 A3024 RMK AO2 P0000 T01110094=
202003170552 METAR KATL 170552Z 11008KT 6SM -DZ BR OVC007 11/09 A3024 RMK AO2 DZB29 SLP241 P0000 60000 T01110089 10128 20111 58012=
202003170514 SPECI KATL 170514Z 09008KT 10SM OVC008 12/09 A3026 RMK AO2 T01170089=
202003170452 METAR KATL 170452Z 11008KT 10SM OVC010 12/09 A3027 RMK AO2 SLP249 T01170089 401440111=
202003170352 METAR KATL 170352Z 11011KT 10SM OVC011 12/09 A3026 RMK AO2 SLP248 T01220089=
202003170252 METAR KATL 170252Z 12008KT 10SM OVC010 12/09 A3028 RMK AO2 SLP253 T01220089 50003=
202003170152 METAR KATL 170152Z 08011KT 10SM OVC011 12/09 A3028 RMK AO2 SLP255 T01220089=
202003170052 METAR KATL 170052Z 11008KT 10SM OVC011 13/09 A3027 RMK AO2 SLP249 T01280094=
202003162352 METAR KATL 162352Z 10007KT 10SM OVC012 13/09 A3027 RMK AO2 SLP250 T01280094 10133 20128 55000=
202003162252 METAR KATL 162252Z 09008KT 9SM OVC011 13/10 A3026 RMK AO2 SLP245 T01280100=
202003162152 METAR KATL 162152Z 10007KT 9SM OVC010 13/10 A3025 RMK AO2 SLP243 T01330100=
202003162052 METAR KATL 162052Z 12006KT 9SM OVC010 13/10 A3027 RMK AO2 SLP249 T01330100 56017=
202003161952 METAR KATL 161952Z 12006KT 10SM OVC010 13/10 A3027 RMK AO2 SLP251 T01330100=
202003161852 METAR KATL 161852Z 07011KT 10SM OVC008 13/10 A3030 RMK AO2 SLP259 T01280100=
202003161752 METAR KATL 161752Z 11008KT 10SM OVC009 13/10 A3032 RMK AO2 RAE1657 SLP267 P0000 60000 T01280100 10128 20111 58012=
202003161652 METAR KATL 161652Z 09010KT 7SM -RA OVC006 12/10 A3035 RMK AO2 RAB18E27B46 SLP276 P0000 T01220100=
202003161552 METAR KATL 161552Z 10008KT 7SM OVC005 12/10 A3036 RMK AO2 DZE09 SLP279 P0000 T01170100=
202003161452 METAR KATL 161452Z 08009KT 4SM -DZ BR OVC005 12/09 A3036 RMK AO2 SLP279 P0000 60000 T01170094 53016=
202003161352 METAR KATL 161352Z 07009KT 4SM -DZ BR OVC006 12/10 A3034 RMK AO2 SLP274 P0000 T01170100=
202003161252 METAR KATL 161252Z 09010KT 3SM -DZ BR BKN006 OVC011 12/10 A3032 RMK AO2 SLP268 CIG 005V008 P0000 T01170100=
202003161242 SPECI KATL 161242Z 09010KT 3SM -DZ BR BKN006 OVC011 12/10 A3032 RMK AO2 CIG 005V008 P0000 T01170100=
202003161152 METAR KATL 161152Z 09010KT 2 1/2SM -DZ BR BKN005 OVC010 12/11 A3031 RMK AO2 SLP262 CIG 004V007 P0000 60000 70003 T01220106 10144 20122 53016=
202003161145 SPECI KATL 161145Z 10011KT 2 1/2SM -DZ BR BKN005 OVC010 12/11 A3031 RMK AO2 CIG 004V007 P0000 T01220106=
202003161052 METAR KATL 161052Z 07014KT 2SM -DZ BR OVC004 14/12 A3028 RMK AO2 DZB09 SLP250 CIG 003V005 P0000 T01390122=
202003161022 SPECI KATL 161022Z 08007KT 2SM -DZ BR OVC004 14/13 A3028 RMK AO2 DZB09 P0000 T01440128=
202003161016 SPECI KATL 161016Z 07006KT 3SM -DZ BR OVC004 14/13 A3028 RMK AO2 DZB09 P0000 T01440128=
202003161010 SPECI KATL 161010Z 07006KT 3SM -DZ BR OVC005 14/13 A3027 RMK AO2 DZB09 CIG 004V006 P0000 T01440128=
202003160952 METAR KATL 160952Z 08006KT 10SM OVC006 14/12 A3026 RMK AO2 SLP245 T01440122=
202003160852 METAR KATL 160852Z 06006KT 10SM OVC008 14/11 A3026 RMK AO2 RAB01E10 SLP244 P0000 60000 T01440111 58009 $=
202003160845 SPECI KATL 160845Z 05005KT 10SM OVC008 14/11 A3026 RMK AO2 RAB01E10 P0000 T01440111 $=
202003160815 SPECI KATL 160815Z 04004KT 10SM BKN011 OVC022 14/11 A3027 RMK AO2 RAB01E10 P0000 T01390111 $=
202003160752 METAR KATL 160752Z 35005KT 10SM FEW015 BKN022 OVC055 14/11 A3028 RMK AO2 SLP250 T01390111 $=
202003160652 METAR KATL 160652Z 02004KT 10SM BKN028 BKN060 14/11 A3028 RMK AO2 SLP251 T01390106 $=
202003160642 SPECI KATL 160642Z 33005KT 10SM BKN028 BKN060 14/11 A3028 RMK AO2 T01390106 $=
202003160552 METAR KATL 160552Z 34004KT 10SM SCT027 BKN039 BKN060 14/11 A3029 RMK AO2 SLP254 T01390111 10172 20139 58005 $=
202003160452 METAR KATL 160452Z 32006KT 10SM SCT040 BKN060 BKN110 14/12 A3031 RMK AO2 SLP259 T01440117 402170139 $=
202003160352 METAR KATL 160352Z 33006KT 10SM FEW030 BKN045 BKN060 14/12 A3031 RMK AO2 SLP261 T01440117 $=
202003160252 METAR KATL 160252Z 33005KT 10SM SCT030 BKN048 BKN100 15/12 A3030 RMK AO2 SLP259 T01500122 51009 $=
202003160227 SPECI KATL 160227Z 33005KT 10SM FEW014 SCT030 BKN060 15/12 A3030 RMK AO2 T01500122=
202003160201 SPECI KATL 160201Z 32005KT 10SM SCT014 BKN028 BKN060 16/12 A3030 RMK AO2 T01560122=
202003160152 METAR KATL 160152Z 34004KT 10SM BKN014 BKN028 BKN060 16/12 A3030 RMK AO2 SLP259 T01560122=
202003160052 METAR KATL 160052Z 35008KT 10SM BKN012 BKN025 BKN060 16/13 A3029 RMK AO2 SLP256 T01610128=
202003152352 METAR KATL 152352Z 35010KT 10SM BKN012 BKN020 BKN130 18/14 A3028 RMK AO2 SLP250 60002 T01780139 10217 20178 53015=
202003152350 SPECI KATL 152350Z 34011KT 10SM BKN012 BKN020 BKN130 18/14 A3028 RMK AO2=
202003152252 METAR KATL 152252Z 34007KT 10SM FEW020 SCT050 BKN130 BKN250 21/15 A3025 RMK AO2 SLP241 T02060150=
202003152152 METAR KATL 152152Z 32010KT 10SM FEW020 BKN048 BKN130 BKN250 21/15 A3024 RMK AO2 SLP237 T02060150=
202003152052 METAR KATL 152052Z 33012KT 10SM FEW018 SCT060 BKN150 BKN250 21/15 A3023 RMK AO2 SLP233 60002 T02060150 56024=
202003151952 METAR KATL 151952Z 30009KT 10SM FEW011 BKN090 BKN250 19/16 A3025 RMK AO2 RAE26 SLP240 P0001 T01890156=
202003151852 METAR KATL 151852Z 28007KT 10SM -RA FEW015 BKN065 OVC095 18/15 A3027 RMK AO2 SLP249 P0001 T01780150=
202003151752 METAR KATL 151752Z 29010KT 10SM -RA FEW065 OVC085 18/14 A3030 RMK AO2 RAB01 SLP259 P0000 60001 T01780144 10183 20144 53004=
202003151652 METAR KATL 151652Z 29010KT 10SM BKN085 OVC250 18/14 A3030 RMK AO2 SLP257 T01830139=
202003151552 METAR KATL 151552Z 28011KT 10SM BKN095 OVC250 18/14 A3029 RMK AO2 SLP256 T01830144=
202003151452 METAR KATL 151452Z 28010KT 10SM FEW014 BKN100 OVC250 18/14 A3029 RMK AO2 RAE1355 SLP255 P0000 60001 T01780144 50014=
202003151352 METAR KATL 151352Z 28010KT 10SM -RA OVC085 15/12 A3030 RMK AO2 RAB09 SLP257 P0001 T01500122=
202003151252 METAR KATL 151252Z 29009KT 10SM FEW020 BKN085 BKN150 14/09 A3029 RMK AO2 SLP252 T01440094=
202003151152 METAR KATL 151152Z 28006KT 10SM FEW020 BKN075 BKN150 BKN250 14/09 A3025 RMK AO2 SLP238 T01440089 10150 20139 53002=
202003151052 METAR KATL 151052Z 31003KT 10SM FEW040 BKN075 BKN130 14/08 A3023 RMK AO2 SLP231 T01440083=
202003150952 METAR KATL 150952Z 24003KT 10SM FEW043 BKN070 BKN130 14/08 A3023 RMK AO2 SLP230 T01440083=
202003150852 METAR KATL 150852Z 24003KT 10SM FEW043 BKN070 BKN085 14/08 A3024 RMK AO2 SLP235 T01440078 58012=
202003150752 METAR KATL 150752Z 35006KT 10SM SCT043 BKN055 BKN075 BKN130 14/08 A3027 RMK AO2 PRESFR SLP246 T01440078=
202003150652 METAR KATL 150652Z 03006KT 10SM SCT065 BKN130 BKN220 15/07 A3028 RMK AO2 SLP247 T01500072=
202003150552 METAR KATL 150552Z 03007KT 10SM FEW150 BKN220 15/07 A3028 RMK AO2 SLP247 T01500072 10217 20144 51001=
202003150452 METAR KATL 150452Z 06004KT 10SM SCT150 SCT250 14/08 A3027 RMK AO2 SLP245 T01440083 402720139=
202003150352 METAR KATL 150352Z 07007KT 10SM SCT140 SCT200 SCT250 15/08 A3028 RMK AO2 SLP250 T01500083=
202003150252 METAR KATL 150252Z 08008KT 10SM FEW150 SCT220 SCT300 16/09 A3028 RMK AO2 SLP249 T01560094 51017=
202003150152 METAR KATL 150152Z 07010KT 10SM FEW150 BKN250 18/10 A3026 RMK AO2 SLP244 T01830100=
202003150052 METAR KATL 150052Z 08009KT 10SM SCT150 SCT250 20/11 A3024 RMK AO2 WSHFT 2340 SLP235 T02000111=
202003150000 SPECI KATL 150000Z 05011KT 10SM FEW065 BKN150 BKN250 22/12 A3022 RMK AO2 WSHFT 2340 T02170117=
202003142352 METAR KATL 142352Z 05010KT 10SM FEW065 BKN150 BKN250 22/12 A3022 RMK AO2 SLP231 T02170122 10272 20217 53007=
202003142252 METAR KATL 142252Z 20007KT 10SM SCT060 SCT150 BKN250 26/14 A3020 RMK AO2 SLP221 T02610139=
202003142152 METAR KATL 142152Z 21007KT 10SM SCT060 SCT160 BKN250 26/14 A3020 RMK AO2 SLP220 T02610139=
202003142052 METAR KATL 142052Z 19005KT 10SM SCT055 BKN130 BKN250 27/14 A3020 RMK AO2 SLP220 T02670144 56024=
202003141952 METAR KATL 141952Z 17008KT 130V200 10SM SCT050 BKN120 BKN250 26/14 A3021 RMK AO2 SLP224 T02610139=
202003141852 METAR KATL 141852Z 16005KT 10SM SCT044 BKN130 26/14 A3024 RMK AO2 SLP234 T02560144=
202003141752 METAR KATL 141752Z 14005KT 10SM FEW040 BKN120 24/14 A3027 RMK AO2 SLP246 T02440144 10244 20139 58010=
202003141652 METAR KATL 141652Z 06003KT 10SM BKN140 BKN250 24/14 A3030 RMK AO2 SLP254 T02390144=
202003141552 METAR KATL 141552Z VRB03KT 10SM FEW120 BKN200 22/13 A3030 RMK AO2 SLP255 T02220133=
202003141452 METAR KATL 141452Z 11005KT 10SM BKN055 BKN120 19/12 A3031 RMK AO2 SLP257 T01940117 51013=
202003141352 METAR KATL 141352Z 03006KT 10SM SCT120 BKN250 18/10 A3030 RMK AO2 SLP256 T01780100=
202003141252 METAR KATL 141252Z VRB03KT 10SM FEW020 FEW065 SCT180 SCT250 16/09 A3027 RMK AO2 SLP247 T01610094=
202003141152 METAR KATL 141152Z 02004KT 10SM FEW020 FEW065 SCT250 14/08 A3026 RMK AO2 SLP246 T01390078 10167 20139 53009=
202003141052 METAR KATL 141052Z 34005KT 10SM FEW065 14/09 A3026 RMK AO2 SLP243 T01440089=
202003140952 METAR KATL 140952Z 34005KT 10SM BKN065 15/11 A3024 RMK AO2 SLP236 T01500106=
202003140852 METAR KATL 140852Z 33005KT 10SM SCT060 16/11 A3024 RMK AO2 SLP234 T01560111 53004=
202003140752 METAR KATL 140752Z 30006KT 10SM OVC065 16/11 A3024 RMK AO2 SLP234 T01610111=
202003140652 METAR KATL 140652Z 31004KT 10SM SCT050 OVC070 16/12 A3023 RMK AO2 SLP230 T01610117=
202003140552 METAR KATL 140552Z 00000KT 10SM FEW050 BKN060 OVC080 17/12 A3023 RMK AO2 SLP231 T01670117 10194 20167 56010=
202003140452 METAR KATL 140452Z 00000KT 10SM SCT050 BKN065 OVC080 17/12 A3024 RMK AO2 SLP235 T01720117 402170167=
202003140352 METAR KATL 140352Z 00000KT 10SM BKN060 OVC080 17/12 A3024 RMK AO2 SLP236 T01720117=
202003140252 METAR KATL 140252Z 29007KT 10SM OVC070 18/12 A3026 RMK AO2 SLP241 T01780122 51024=
202003140152 METAR KATL 140152Z 33011KT 10SM FEW022 OVC065 18/13 A3024 RMK AO2 SLP236 T01830128=
202003140052 METAR KATL 140052Z 32009KT 10SM FEW022 OVC070 19/15 A3023 RMK AO2 SLP230 T01940150=
202003132352 METAR KATL 132352Z 30004KT 10SM FEW022 OVC070 19/17 A3018 RMK AO2 SLP216 60000 T01940167 10217 20194 51010=
202003132252 METAR KATL 132252Z 28004KT 10SM FEW025 BKN060 OVC080 20/16 A3017 RMK AO2 SLP212 T02000161=
202003132152 METAR KATL 132152Z 28006KT 10SM FEW025 OVC060 20/17 A3017 RMK AO2 RAB15E27 SLP209 P0000 T02000167=
202003132052 METAR KATL 132052Z 24005KT 10SM SCT025 OVC060 21/17 A3015 RMK AO2 SLP204 60000 T02060167 55001=
202003131952 METAR KATL 131952Z 00000KT 10SM SCT022 BKN065 OVC080 22/16 A3015 RMK AO2 RAB1855E05 SLP202 BINOVC P0000 T02170161=
202003131913 SPECI KATL 131913Z 30004KT 10SM SCT035 OVC050 21/16 A3014 RMK AO2 RAB1855E05 P0000 T02060161=
202003131852 METAR KATL 131852Z 30006KT 10SM BKN022 BKN035 OVC060 21/16 A3015 RMK AO2 RAB28E39 SLP202 P0000 T02060161=
202003131752 METAR KATL 131752Z 28007KT 10SM BKN018 OVC026 21/16 A3015 RMK AO2 SLP205 T02110156 10211 20178 51012=
202003131703 SPECI KATL 131703Z 28006KT 10SM BKN023 OVC031 21/16 A3015 RMK AO2 T02110161=
202003131652 METAR KATL 131652Z 24008KT 10SM SCT024 OVC032 21/16 A3015 RMK AO2 SLP202 T02060156=
202003131603 SPECI KATL 131603Z 25008KT 10SM BKN021 OVC030 21/16 A3013 RMK AO2 T02060156=
202003131552 METAR KATL 131552Z 26007KT 10SM SCT018 BKN030 OVC140 21/16 A3013 RMK AO2 SLP197 T02060156=
202003131515 SPECI KATL 131515Z 27010KT 10SM BKN016 BKN026 BKN042 21/16 A3012 RMK AO2 T02060156=
202003131452 METAR KATL 131452Z 27006KT 10SM FEW014 BKN042 20/16 A3012 RMK AO2 SLP193 T02000156 53017=
202003131352 METAR KATL 131352Z 25006KT 10SM FEW013 BKN035 OVC140 19/15 A3010 RMK AO2 SLP187 T01890150=
202003131252 METAR KATL 131252Z 25010KT 10SM FEW025 BKN040 BKN110 OVC250 18/15 A3008 RMK AO2 SLP180 BINOVC T01830150=
202003131152 METAR KATL 131152Z 24008KT 10SM SCT025 BKN030 BKN120 BKN250 18/14 A3007 RMK AO2 RAE28 SLP175 P0000 60000 T01780144 10200 20178 51020=
202003131150 SPECI KATL 131150Z 24007KT 10SM SCT025 BKN030 BKN120 BKN250 18/14 A3007 RMK AO2 RAE28 P0000=
202003131105 SPECI KATL 131105Z 25008KT 10SM -RA SCT017 BKN027 BKN250 18/14 A3006 RMK AO2 P0000 T01780144=
202003131052 METAR KATL 131052Z 24007KT 10SM -RA SCT019 SCT110 BKN250 18/14 A3005 RMK AO2 RAB50 SLP169 P0000 T01780144=
202003131025 SPECI KATL 131025Z 25008KT 10SM BKN022 BKN190 18/14 A3004 RMK AO2 T01830139=
202003130952 METAR KATL 130952Z 24011KT 10SM FEW018 SCT120 BKN190 BKN250 18/14 A3003 RMK AO2 SLP160 T01830139=
202003130852 METAR KATL 130852Z 24010G19KT 10SM SCT110 BKN150 BKN200 19/13 A3001 RMK AO2 SLP154 T01890133 51004=
202003130752 METAR KATL 130752Z 23009KT 10SM SCT120 BKN180 OVC250 19/13 A3000 RMK AO2 SLP151 T01940133=
202003130652 METAR KATL 130652Z 24011G18KT 10SM SCT110 BKN170 OVC250 20/13 A3001 RMK AO2 SLP155 T02000133=
202003130552 METAR KATL 130552Z 23012KT 10SM FEW120 BKN160 BKN180 OVC250 20/13 A2999 RMK AO2 SLP151 T02000133 10228 20200 53009=
202003130452 METAR KATL 130452Z 23010G18KT 10SM BKN130 BKN200 BKN250 20/14 A2998 RMK AO2 SLP147 T02000139 402440156=
202003130352 METAR KATL 130352Z 21010KT 10SM FEW150 SCT200 BKN250 21/14 A2997 RMK AO2 SLP141 T02060139=
202003130252 METAR KATL 130252Z 20008KT 10SM FEW150 SCT250 21/14 A2997 RMK AO2 SLP142 T02060139 53005=
202003130152 METAR KATL 130152Z 19007KT 10SM SCT250 21/14 A2996 RMK AO2 SLP138 T02060139=
202003130052 METAR KATL 130052Z 19007KT 10SM FEW050 SCT250 21/14 A2995 RMK AO2 SLP137 T02110139=
202003122352 METAR KATL 122352Z 20006KT 10SM SCT050 BKN250 23/14 A2995 RMK AO2 SLP136 T02280139 10244 20200 53005=
202003122252 METAR KATL 122252Z 21010KT 10SM FEW045 SCT200 BKN250 24/13 A2994 RMK AO2 SLP132 T02390133=
202003122152 METAR KATL 122152Z 19010KT 10SM FEW040 BKN200 OVC250 24/14 A2994 RMK AO2 SLP131 T02390139=
202003122052 METAR KATL 122052Z 20011KT 10SM FEW040 SCT055 BKN200 BKN250 24/14 A2994 RMK AO2 SLP131 T02440139 56030=
202003121952 METAR KATL 121952Z 18005KT 10SM FEW034 SCT050 BKN200 OVC250 23/16 A2996 RMK AO2 SLP140 T02280156=
202003121852 METAR KATL 121852Z 16005KT 10SM SCT020 BKN034 BKN200 OVC250 22/16 A3000 RMK AO2 SLP153 T02220161=
202003121836 SPECI KATL 121836Z 19007KT 10SM SCT018 BKN032 OVC200 22/16 A3001 RMK AO2 T02170156=
202003121752 METAR KATL 121752Z 20006KT 10SM BKN015 BKN140 OVC200 20/16 A3003 RMK AO2 SLP163 CIG 013V017 T02000156 10206 20156 58007=
202003121743 SPECI KATL 121743Z 17005KT 10SM OVC015 20/16 A3003 RMK AO2 CIG 010V014 T02000156=
202003121712 SPECI KATL 121712Z 19005KT 8SM OVC012 19/16 A3004 RMK AO2 CIG 010V014 T01890156=
202003121652 METAR KATL 121652Z 19005KT 3SM BKN009 OVC015 19/16 A3004 RMK AO2 SFC VIS 8 SLP169 CIG 008V011 T01890156=
202003121552 METAR KATL 121552Z 19006KT 3SM OVC008 18/16 A3005 RMK AO2 SFC VIS 7 SLP172 CIG 006V010 T01780156=
202003121452 METAR KATL 121452Z 24003KT 3SM OVC007 18/16 A3005 RMK AO2 SFC VIS 8 SLP172 CIG 006V009 T01780156 53009=
202003121405 SPECI KATL 121405Z 24005KT 3SM BR OVC006 17/15 A3004 RMK AO2 SFC VIS 6 CIG 004V008 T01720150=
202003121352 METAR KATL 121352Z 27007KT 2SM BR OVC006 17/15 A3004 RMK AO2 SFC VIS 6 SLP167 CIG 005V008 T01720150=
202003121252 METAR KATL 121252Z 23003KT 2SM BR BKN006 OVC012 17/15 A3003 RMK AO2 SFC VIS 4 SLP165 CIG 004V008 T01670150=
202003121242 SPECI KATL 121242Z 28005KT 2SM BR BKN005 OVC010 16/15 A3003 RMK AO2 SFC VIS 3 CIG 004V006 T01610150=
202003121217 SPECI KATL 121217Z 25003KT 1 1/4SM BR BKN004 OVC010 16/15 A3002 RMK AO2 SFC VIS 2 CIG 002V006 T01610150=
202003121152 METAR KATL 121152Z 25004KT 3/4SM R09R/P6000FT BR OVC002 16/14 A3002 RMK AO2 SFC VIS 1 3/4 SLP163 TWRINC 60004 70027 T01560144 10161 20156 53004=
202003121128 SPECI KATL 121128Z 25004KT 3/4SM R09R/P6000FT BR BKN003 OVC007 16/14 A3002 RMK AO2 SFC VIS 3 TWRINC T01560144=
202003121109 SPECI KATL 121109Z 22003KT 1SM R09R/P6000FT BR BKN004 OVC010 16/14 A3002 RMK AO2 SFC VIS 5 CIG 003V005 TWRINC T01560144=
202003121057 SPECI KATL 121057Z 00000KT 1 3/4SM BR BKN004 OVC010 16/14 A3001 RMK AO2 SFC VIS 5 CIG 003V005 TWRINC T01560144=
202003121052 METAR KATL 121052Z 16003KT 6SM BR FEW003 BKN005 OVC010 16/14 A3001 RMK AO2 SLP159 T01560144=
202003120952 METAR KATL 120952Z 00000KT 6SM BR BKN007 OVC012 16/14 A3001 RMK AO2 DZE11B35E51RAB20E35 SLP158 CIG 006V008 P0001 T01560144=
202003120931 SPECI KATL 120931Z 20003KT 5SM -RA BR BKN006 OVC010 16/14 A3001 RMK AO2 DZE11RAB20 CIG 005V007 P0000 T01560144 $=
202003120852 METAR KATL 120852Z 00000KT 4SM -DZ BR BKN003 OVC010 16/14 A3001 RMK AO2 SLP160 RAB0758E42DZB42 P0003 60003 T01610144 58008=
202003120846 SPECI KATL 120846Z VRB03KT 6SM BR BKN003 BKN008 OVC013 16/14 A3001 RMK AO2 RAB0758E42 P0003=
202003120835 SPECI KATL 120835Z 00000KT 4SM -RA BR FEW008 BKN012 OVC017 16/14 A3001 RMK AO2 RAB0758 P0003 T01560144=
202003120752 METAR KATL 120752Z 00000KT 6SM BR FEW010 BKN029 OVC040 16/14 A3003 RMK AO2 RAB15E27 SLP162 BINOVC P0000 T01560144=
202003120702 SPECI KATL 120702Z 00000KT 6SM BR BKN026 BKN048 BKN060 16/14 A3003 RMK AO2 T01560139=
202003120652 METAR KATL 120652Z 00000KT 6SM BR SCT026 BKN047 BKN055 16/14 A3003 RMK AO2 RAB0559E11 SLP164 P0000 T01560144=
202003120552 METAR KATL 120552Z 00000KT 8SM BKN050 BKN065 BKN250 16/14 A3004 RMK AO2 RAB22E32 SLP166 P0000 60000 T01610144 10172 20156 58004=
202003120452 METAR KATL 120452Z 00000KT 9SM BKN055 BKN075 BKN250 16/14 A3005 RMK AO2 SLP171 T01560139 402220128=
202003120352 METAR KATL 120352Z 28003KT 10SM BKN075 BKN250 16/14 A3005 RMK AO2 SLP171 T01560139=
202003120252 METAR KATL 120252Z 00000KT 10SM FEW009 BKN080 BKN250 16/14 A3005 RMK AO2 SLP172 T01610139 51015=
202003120152 METAR KATL 120152Z 33005KT 10SM FEW070 BKN095 BKN250 17/14 A3005 RMK AO2 SLP172 T01670144=
202003120052 METAR KATL 120052Z 22005KT 10SM SCT100 BKN250 17/14 A3001 RMK AO2 SLP159 T01670139=
202003112352 METAR KATL 112352Z 21009KT 10SM FEW070 BKN100 BKN200 17/14 A3001 RMK AO2 RAB23E37 SLP157 VIRGA NE-SE P0000 60023 T01720144 10222 20156 58022=
202003112252 METAR KATL 112252Z 24009KT 10SM FEW070 BKN110 BKN200 17/13 A3005 RMK AO2 SLP172 VIRGA OHD-ALQDS T01720133=
202003112152 METAR KATL 112152Z 24007KT 10SM FEW025 SCT070 BKN100 BKN250 17/14 A3005 RMK AO2 RAE46 SLP173 VIRGA OHD TCU DSNT SE-S P0002 T01720144=
202003112052 METAR KATL 112052Z 26004KT 6SM -RA BR FEW024CB BKN038 BKN080 OVC140 16/14 A3007 RMK AO2 WSHFT 2017 RAB14 SLP181 CB NE-SE & S-SW MOV E P0021 60021 T01610139 56017=
202003112038 SPECI KATL 112038Z 30007G22KT 6SM R09R/3500VP6000FT -RA BR SCT026CB BKN038 OVC075 16/13 A3008 RMK AO2 WSHFT 2017 RAB14 CB NE-SE-S MOV E P0020 T01560133=
202003112033 SPECI KATL 112033Z 29008G22KT 260V330 2SM R09R/3500VP6000FT +RA BKN024CB OVC050 16/13 A3008 RMK AO2 WSHFT 2017 RAB14 VIS S-SW 3/4 CB NE-OHD-SW MOV E P0015 T01560128=
202003112025 SPECI KATL 112025Z 33011KT 2SM R09R/4500VP6000FT RA BKN024CB OVC050 16/13 A3009 RMK AO2 RAB14 VIS NW-NE 3/4 CB NE-OHD-W MOV E P0003 T01610128=
202003112022 SPECI KATL 112022Z 32015KT 3SM R09R/5000VP6000FT RA BKN026CB BKN050 OVC100 17/12 A3009 RMK AO2 RAB14 CB NE-OHD-W MOV E P0001 T01720122=
202003111952 METAR KATL 111952Z 21012KT 10SM SCT032 BKN100 BKN250 21/14 A3007 RMK AO2 SLP179 CB DSNT NE & W T02110139=
202003111852 METAR KATL 111852Z 21008KT 10SM SCT033 BKN250 22/13 A3009 RMK AO2 SLP186 MDT CU N T02220133=
202003111752 METAR KATL 111752Z 24007KT 10SM FEW028 SCT037 BKN250 21/13 A3012 RMK AO2 SLP197 T02110128 10211 20150 58009=
202003111652 METAR KATL 111652Z VRB06KT 10SM SCT024 BKN200 BKN250 20/14 A3015 RMK AO2 SLP206 T02000139=
202003111612 SPECI KATL 111612Z 20006KT 10SM SCT020 BKN250 19/13 A3015 RMK AO2 T01890133=
202003111552 METAR KATL 111552Z 24006KT 10SM BKN016 BKN023 BKN250 18/13 A3015 RMK AO2 SLP208 T01830133=
202003111524 SPECI KATL 111524Z 23006KT 10SM BKN017 BKN250 18/13 A3016 RMK AO2 T01830133=
202003111452 METAR KATL 111452Z 22008KT 10SM BKN013 BKN250 18/13 A3015 RMK AO2 SLP208 T01780133 58005=
202003111416 SPECI KATL 111416Z 25005KT 10SM BKN011 17/14 A3017 RMK AO2 T01720139=
202003111352 METAR KATL 111352Z 26004KT 10SM OVC009 17/14 A3017 RMK AO2 SLP215 T01670139=
202003111312 SPECI KATL 111312Z 22003KT 10SM BKN013 BKN250 16/14 A3017 RMK AO2 T01610139=
202003111252 METAR KATL 111252Z 27003KT 9SM BKN009 BKN015 BKN020 BKN250 16/14 A3017 RMK AO2 SLP214 T01560139=
202003111214 SPECI KATL 111214Z 26004KT 3SM BR BKN006 OVC012 15/14 A3017 RMK AO2 SFC VIS 5 CIG 004V008 T01500139=
202003111152 METAR KATL 111152Z 27006KT 2SM BR BKN003 OVC007 15/13 A3017 RMK AO2 SFC VIS 4 SLP213 70002 T01500133 10150 20128 50003=
202003111052 METAR KATL 111052Z 28010KT 1 1/2SM BR OVC004 15/13 A3017 RMK AO2 SFC VIS 6 SLP214 TWRINC T01500133=
202003110952 METAR KATL 110952Z 26008KT 1 1/4SM BR OVC003 14/13 A3017 RMK AO2 SFC VIS 3 SLP213 TWRINC T01440133=
202003110913 SPECI KATL 110913Z 26007KT 1 1/4SM BR BKN003 OVC010 14/13 A3016 RMK AO2 SFC VIS 6 TWRINC T01390128=
202003110910 SPECI KATL 110910Z 26007KT 3SM BR BKN005 BKN080 14/13 A3016 RMK AO2 SFC VIS 6 T01390128=
202003110906 SPECI KATL 110906Z 26008KT 8SM BKN005 BKN080 14/12 A3016 RMK AO2 T01390122=
202003110852 METAR KATL 110852Z 25005KT 7SM FEW005 SCT080 13/12 A3016 RMK AO2 SLP210 T01330122 58017=
202003110752 METAR KATL 110752Z 22004KT 8SM BKN085 13/11 A3018 RMK AO2 SLP218 T01280111=
202003110652 METAR KATL 110652Z 23004KT 10SM SCT065 BKN085 BKN250 13/12 A3020 RMK AO2 SLP226 T01330117=
202003110552 METAR KATL 110552Z 22005KT 10SM FEW060 BKN250 13/12 A3021 RMK AO2 SLP228 T01330117 10161 20133 58011=
202003110452 METAR KATL 110452Z 23004KT 10SM SCT250 14/12 A3023 RMK AO2 SLP235 T01390117 401890128=
202003110352 METAR KATL 110352Z 23004KT 10SM SCT250 14/12 A3023 RMK AO2 SLP237 T01390117=
202003110252 METAR KATL 110252Z 22003KT 10SM BKN250 14/12 A3024 RMK AO2 SLP241 T01390117 56004=
202003110152 METAR KATL 110152Z 00000KT 10SM FEW022 BKN250 14/12 A3025 RMK AO2 SLP242 T01440117=
202003110052 METAR KATL 110052Z 17003KT 10SM FEW022 BKN250 16/12 A3025 RMK AO2 SLP241 T01560117=
202003102352 METAR KATL 102352Z 24003KT 10SM FEW023 SCT050 BKN250 17/12 A3026 RMK AO2 SLP244 T01670122 10189 20161 55001=
202003102252 METAR KATL 102252Z 21009KT 10SM FEW023 BKN050 17/12 A3025 RMK AO2 SLP240 T01720122=
202003102231 SPECI KATL 102231Z 20010KT 10SM SCT023 BKN045 18/12 A3025 RMK AO2 T01780122=
202003102152 METAR KATL 102152Z 24008KT 10SM BKN025 OVC040 18/12 A3026 RMK AO2 SLP245 T01780122=
202003102052 METAR KATL 102052Z 23009KT 10SM BKN027 OVC040 18/12 A3026 RMK AO2 SLP244 T01830117 56026=
202003102026 SPECI KATL 102026Z 25011KT 10SM BKN026 BKN042 OVC060 18/12 A3027 RMK AO2 T01830117=
202003101952 METAR KATL 101952Z 22012KT 10SM SCT024 BKN038 OVC065 18/12 A3027 RMK AO2 SLP249 BINOVC T01830117=
202003101852 METAR KATL 101852Z 22010KT 10SM BKN022 OVC045 17/12 A3030 RMK AO2 SLP258 T01720117=
202003101825 SPECI KATL 101825Z 23009KT 10SM SCT016 BKN040 BKN075 OVC140 17/12 A3031 RMK AO2 T01720122=
202003101752 METAR KATL 101752Z 24008KT 210V270 10SM BKN017 BKN032 OVC055 16/12 A3034 RMK AO2 SLP272 CIG 015V019 60002 T01610122 10167 20128 58013=
202003101725 SPECI KATL 101725Z 23010KT 10SM BKN015 BKN032 BKN070 OVC130 16/12 A3035 RMK AO2 CIG 013V017 T01610122=
202003101652 METAR KATL 101652Z 24008KT 9SM BKN013 BKN028 OVC055 15/12 A3036 RMK AO2 RAE29DZB29E49 SLP280 CIG 011V015 P0000 T01500117=
202003101629 SPECI KATL 101629Z 23008KT 6SM -DZ BKN013 BKN028 OVC037 15/12 A3037 RMK AO2 RAE29DZB29 P0000 T01500122=
202003101552 METAR KATL 101552Z 24008KT 8SM -RA SCT035 OVC055 14/11 A3037 RMK AO2 SLP283 P0000 T01440106=
202003101452 METAR KATL 101452Z 23003KT 8SM -RA FEW028 BKN038 OVC070 14/11 A3038 RMK AO2 SLP286 P0000 60002 T01390111 53009=
202003101352 METAR KATL 101352Z 20007KT 8SM -RA FEW050 BKN070 OVC090 13/11 A3036 RMK AO2 SLP279 P0001 T01330106=
202003101252 METAR KATL 101252Z 19006KT 8SM -RA FEW055 BKN075 OVC095 13/10 A3036 RMK AO2 RAE25B48 SLP281 P0001 T01280100=
202003101152 METAR KATL 101152Z 21004KT 9SM -RA SCT075 OVC100 13/10 A3035 RMK AO2 SLP276 P0003 60003 70003 T01280100 10156 20128 51005=
202003101052 METAR KATL 101052Z 19005KT 9SM -RA FEW055 SCT070 OVC090 14/09 A3035 RMK AO2 RAB45 SLP274 P0000 T01390094=
202003100952 METAR KATL 100952Z 18004KT 10SM FEW055 SCT100 SCT150 BKN250 14/08 A3034 RMK AO2 SLP273 T01390083=
202003100852 METAR KATL 100852Z 19005KT 10SM SCT055 BKN150 BKN200 BKN250 14/08 A3034 RMK AO2 SLP269 T01440083 56016=
202003100752 METAR KATL 100752Z 18007KT 10SM FEW070 BKN140 15/08 A3035 RMK AO2 SLP272 T01500078 $=
202003100652 METAR KATL 100652Z 17007KT 10SM FEW070 OVC150 16/08 A3036 RMK AO2 SLP278 T01560078=
202003100552 METAR KATL 100552Z 17005KT 10SM FEW070 BKN150 OVC200 15/07 A3038 RMK AO2 SLP285 T01500072 10183 20144 58015=
202003100452 METAR KATL 100452Z 16004KT 10SM FEW070 BKN150 OVC200 15/07 A3040 RMK AO2 SLP293 T01500072 401940061=
202003100352 METAR KATL 100352Z 16004KT 10SM FEW070 SCT150 SCT200 BKN250 16/07 A3042 RMK AO2 SLP299 T01560072=
202003100252 METAR KATL 100252Z 16004KT 10SM FEW070 BKN200 OVC250 16/07 A3043 RMK AO2 SLP302 T01610072 51007=
202003100152 METAR KATL 100152Z 17004KT 10SM BKN065 BKN150 OVC200 17/07 A3042 RMK AO2 SLP302 T01670067=
202003100052 METAR KATL 100052Z 19003KT 10SM FEW060 BKN150 OVC200 17/07 A3041 RMK AO2 SLP298 T01720067=
202003092352 METAR KATL 092352Z 19006KT 10SM FEW060 BKN150 OVC200 18/07 A3041 RMK AO2 SLP297 T01830067 10194 20183 55005=
202003092252 METAR KATL 092252Z 18006KT 10SM FEW060 BKN150 OVC200 19/06 A3039 RMK AO2 SLP292 T01890061=
202003092152 METAR KATL 092152Z 17008KT 10SM SCT060 BKN140 OVC200 19/06 A3040 RMK AO2 SLP296 T01940061=
202003092052 METAR KATL 092052Z 19009G14KT 10SM FEW055 SCT140 BKN180 OVC250 19/07 A3042 RMK AO2 SLP301 T01940067 56030=
202003091952 METAR KATL 091952Z 16011G17KT 10SM SCT060 BKN170 OVC250 19/06 A3045 RMK AO2 SLP309 VIRGA N-OHD-S T01890061=
202003091852 METAR KATL 091852Z 20010G17KT 10SM SCT050 BKN200 OVC250 19/07 A3048 RMK AO2 SLP322 T01890067=
202003091752 METAR KATL 091752Z 20010KT 10SM BKN047 BKN065 BKN200 BKN250 19/08 A3051 RMK AO2 SLP333 T01890078 10194 20061 58013=
202003091652 METAR KATL 091652Z 19011G16KT 10SM SCT038 SCT060 BKN200 BKN250 18/08 A3054 RMK AO2 SLP341 T01780083=
202003091552 METAR KATL 091552Z 18010G18KT 10SM FEW038 FEW055 SCT200 BKN250 17/09 A3056 RMK AO2 SLP347 T01670089=
202003091452 METAR KATL 091452Z 14007KT 10SM FEW150 SCT200 BKN250 14/08 A3055 RMK AO2 SLP347 T01390078 50005=
202003091352 METAR KATL 091352Z 15007KT 10SM FEW050 SCT150 SCT200 BKN250 11/06 A3057 RMK AO2 SLP352 T01060056=
202003091252 METAR KATL 091252Z 13003KT 10SM FEW150 SCT200 BKN250 08/03 A3056 RMK AO2 SLP351 T00830028=
202003091152 METAR KATL 091152Z 09006KT 10SM FEW150 SCT250 06/01 A3054 RMK AO2 SLP343 T00610006 10089 20061 53009=
202003091052 METAR KATL 091052Z 09006KT 10SM FEW150 SCT200 SCT250 06/00 A3052 RMK AO2 SLP338 T00610000=
202003090952 METAR KATL 090952Z 08006KT 10SM FEW150 BKN250 06/M01 A3051 RMK AO2 SLP333 T00611006=
202003090852 METAR KATL 090852Z 10003KT 10SM FEW150 SCT250 07/M02 A3051 RMK AO2 SLP333 T00671017 58004 $=
202003090752 METAR KATL 090752Z 09004KT 10SM FEW150 SCT250 08/M01 A3052 RMK AO2 SLP335 T00781011 $=
202003090652 METAR KATL 090652Z 08005KT 10SM SCT250 07/M01 A3052 RMK AO2 SLP337 T00721011 $=
202003090552 METAR KATL 090552Z 12003KT 10SM SCT250 09/M02 A3052 RMK AO2 SLP337 T00891017 10133 20089 58004 $=
202003090452 METAR KATL 090452Z 12004KT 10SM CLR 10/M03 A3053 RMK AO2 SLP339 T01001028 401670033 $=
202003090352 METAR KATL 090352Z 12003KT 10SM CLR 10/M03 A3054 RMK AO2 SLP342 T01001028 $=
202003090252 METAR KATL 090252Z 12003KT 10SM FEW250 11/M03 A3053 RMK AO2 SLP342 T01061028 51008 $=
202003090152 METAR KATL 090152Z 13003KT 10SM FEW250 11/M03 A3052 RMK AO2 SLP339 T01111028 $=
202003090052 METAR KATL 090052Z 15004KT 10SM FEW250 12/M02 A3052 RMK AO2 SLP337 T01221022 $=
202003082352 METAR KATL 082352Z 15006KT 10SM FEW200 FEW250 13/M03 A3051 RMK AO2 SLP334 T01331028 10167 20133 55001 $=
202003082252 METAR KATL 082252Z 14006KT 10SM FEW150 FEW250 SCT300 16/M04 A3050 RMK AO2 SLP331 T01561039 $=
202003082152 METAR KATL 082152Z 15012KT 10SM FEW150 FEW200 SCT250 16/M03 A3050 RMK AO2 SLP332 T01611028 $=
202003082052 METAR KATL 082052Z 11008KT 10SM SCT150 BKN200 BKN250 17/M02 A3051 RMK AO2 SLP332 T01671022 56022 $=
202003081952 METAR KATL 081952Z 18009KT 10SM SCT150 BKN200 BKN250 16/M03 A3053 RMK AO2 SLP339 T01561028 $=
202003081852 METAR KATL 081852Z 17007KT 10SM SCT150 BKN200 BKN250 16/M02 A3055 RMK AO2 SLP346 T01561022 $=
202003081752 METAR KATL 081752Z 12008G16KT 10SM SCT150 SCT200 BKN250 14/M02 A3057 RMK AO2 SLP355 T01441022 10144 20033 58006 $=
202003081652 METAR KATL 081652Z 14011KT 10SM SCT150 SCT200 BKN250 13/M03 A3058 RMK AO2 SLP357 T01331028 $=
202003081552 METAR KATL 081552Z 15008G16KT 10SM SCT150 SCT200 BKN250 12/M02 A3059 RMK AO2 SLP360 T01171022 $=
202003081452 METAR KATL 081452Z 12006KT 10SM SCT150 SCT200 BKN250 09/M02 A3059 RMK AO2 SLP362 T00941017 51018 $=
202003081352 METAR KATL 081352Z 10006KT 10SM SCT150 SCT200 BKN250 07/M01 A3058 RMK AO2 SLP360 T00671006 $=
202003081252 METAR KATL 081252Z 10004KT 10SM FEW150 SCT200 BKN250 05/M02 A3056 RMK AO2 SLP353 T00501017 $=
202003081152 METAR KATL 081152Z 08003KT 10SM BKN250 04/M02 A3054 RMK AO2 SLP345 T00441022 10078 20033 53018 $=
202003081052 METAR KATL 081052Z 08005KT 10SM BKN250 04/M02 A3052 RMK AO2 SLP336 T00441017 $=
202003080952 METAR KATL 080952Z 08005KT 10SM BKN250 05/M02 A3050 RMK AO2 SLP330 T00501017 $=
202003080852 METAR KATL 080852Z 10003KT 10SM SCT250 07/M02 A3048 RMK AO2 SLP324 T00671022 50004 $=
202003080752 METAR KATL 080752Z 00000KT 10SM SCT250 06/M02 A3048 RMK AO2 SLP325 T00611017 $=
202003080652 METAR KATL 080652Z 00000KT 10SM SCT250 07/M02 A3048 RMK AO2 SLP325 T00671017 $=
202003080552 METAR KATL 080552Z 09003KT 10SM SCT250 07/M02 A3047 RMK AO2 SLP321 T00721017 10117 20072 53004 $=
202003080452 METAR KATL 080452Z 06004KT 10SM SCT250 09/M02 A3046 RMK AO2 SLP316 T00891022 401500006 $=
202003080352 METAR KATL 080352Z 06006KT 10SM SCT250 10/M02 A3047 RMK AO2 SLP321 T01001022 $=
202003080252 METAR KATL 080252Z 02006KT 10SM SCT250 10/M03 A3046 RMK AO2 SLP319 T01001028 51017 $=
202003080152 METAR KATL 080152Z 32003KT 10SM FEW250 11/M02 A3045 RMK AO2 SLP314 T01061022 $=
202003080052 METAR KATL 080052Z 28003KT 10SM FEW250 11/M02 A3042 RMK AO2 SLP308 T01111017=
202003072352 METAR KATL 072352Z 29005KT 10SM FEW250 12/M02 A3041 RMK AO2 SLP302 T01171022 10150 20111 53007=
202003072252 METAR KATL 072252Z 30004KT 10SM SCT250 SCT300 14/M03 A3039 RMK AO2 SLP296 T01441033=
202003072152 METAR KATL 072152Z 06005KT 10SM SCT250 15/M03 A3039 RMK AO2 SLP293 T01501033=
202003072052 METAR KATL 072052Z 01007KT 10SM SCT250 14/M03 A3038 RMK AO2 SLP293 T01441033 56021=
202003071952 METAR KATL 071952Z 00000KT 10SM SCT250 14/M02 A3040 RMK AO2 SLP297 T01391022=
202003071852 METAR KATL 071852Z 00000KT 10SM CLR 12/M04 A3041 RMK AO2 SLP304 T01221044=
202003071752 METAR KATL 071752Z 35006KT 10SM CLR 11/M04 A3045 RMK AO2 SLP315 T01111044 10111 20006 58003=
202003071652 METAR KATL 071652Z 03009KT 10SM CLR 09/M04 A3047 RMK AO2 SLP322 T00941044=
202003071552 METAR KATL 071552Z 35008KT 10SM CLR 08/M03 A3047 RMK AO2 SLP322 T00781033=
202003071452 METAR KATL 071452Z 33010KT 10SM CLR 06/M04 A3046 RMK AO2 SLP319 T00561039 51024=
202003071352 METAR KATL 071352Z 35010KT 10SM CLR 04/M04 A3045 RMK AO2 SLP315 T00391039=
202003071252 METAR KATL 071252Z 32010KT 10SM CLR 02/M04 A3041 RMK AO2 SLP303 T00171044=
202003071152 METAR KATL 071152Z 32009KT 10SM CLR 01/M05 A3039 RMK AO2 SLP295 T00061050 10039 20006 53014=
202003071052 METAR KATL 071052Z 33008KT 10SM CLR 01/M04 A3037 RMK AO2 SLP289 T00111044=
202003070952 METAR KATL 070952Z 32009KT 10SM CLR 01/M04 A3035 RMK AO2 SLP283 T00111044=
202003070852 METAR KATL 070852Z 32008KT 10SM CLR 02/M05 A3034 RMK AO2 SLP278 T00221050 58004=
202003070752 METAR KATL 070752Z AUTO 32010KT 10SM CLR 02/M04 A3036 RMK AO2 SLP284 T00221044=
202003070652 METAR KATL 070652Z 34009KT 10SM CLR 03/M05 A3036 RMK AO2 SLP285 T00281050=
202003070552 METAR KATL 070552Z 34010KT 10SM CLR 04/M05 A3036 RMK AO2 SLP283 T00391050 10106 20039 51009=
202003070452 METAR KATL 070452Z 35013KT 10SM CLR 05/M04 A3035 RMK AO2 SLP281 T00501044 401440050=
202003070352 METAR KATL 070352Z 35012G19KT 10SM CLR 06/M04 A3034 RMK AO2 PK WND 36027/0318 SLP278 T00611044=
202003070252 METAR KATL 070252Z 35013G23KT 10SM CLR 07/M04 A3033 RMK AO2 SLP273 T00721044 51034=
202003070152 METAR KATL 070152Z 34018G22KT 10SM CLR 08/M04 A3030 RMK AO2 SLP264 T00781044=
202003070052 METAR KATL 070052Z 34017G22KT 10SM CLR 09/M05 A3027 RMK AO2 PK WND 33026/2355 SLP254 T00941050=
202003062352 METAR KATL 062352Z 34020G25KT 10SM CLR 11/M06 A3022 RMK AO2 SLP238 T01061056 10144 20106 53022=
202003062252 METAR KATL 062252Z 33018G25KT 10SM CLR 12/M04 A3019 RMK AO2 PK WND 35027/2235 SLP227 T01221044=
202003062152 METAR KATL 062152Z 33020G26KT 10SM FEW065 13/M03 A3017 RMK AO2 PK WND 34031/2107 SLP217 T01331028=
202003062052 METAR KATL 062052Z 32019G29KT 10SM FEW065 14/M02 A3016 RMK AO2 PK WND 30031/2003 SLP213 T01391022 56009=
202003061952 METAR KATL 061952Z 30020G30KT 10SM FEW065 13/M02 A3016 RMK AO2 PK WND 31030/1950 SLP213 T01331022=
202003061852 METAR KATL 061852Z 30019G30KT 10SM FEW060 13/M01 A3017 RMK AO2 PK WND 32030/1839 SLP216 T01331011=
202003061752 METAR KATL 061752Z 32019G27KT 10SM FEW055 12/M02 A3019 RMK AO2 PK WND 31033/1719 SLP223 T01221017 10122 20072 51012=
202003061652 METAR KATL 061652Z 32017G30KT 10SM FEW050 12/M01 A3018 RMK AO2 PK WND 31030/1645 SLP221 T01171011=
202003061552 METAR KATL 061552Z 30014G21KT 10SM FEW045 12/00 A3017 RMK AO2 PK WND 33031/1512 SLP217 T01170000=
202003061452 METAR KATL 061452Z 32018G22KT 10SM FEW040 11/M01 A3015 RMK AO2 SLP211 T01061006 51023=
202003061352 METAR KATL 061352Z 31013KT 10SM FEW250 09/02 A3014 RMK AO2 SLP207 T00940017=
202003061252 METAR KATL 061252Z 31011G19KT 10SM FEW250 08/02 A3011 RMK AO2 SLP199 T00830022=
202003061152 METAR KATL 061152Z 30008KT 10SM FEW200 FEW250 07/05 A3008 RMK AO2 SLP189 70073 T00720050 10083 20072 53020=
202003061052 METAR KATL 061052Z 30008KT 10SM FEW007 07/06 A3006 RMK AO2 SLP181 T00720056=
202003060952 METAR KATL 060952Z 30010KT 10SM FEW005 07/06 A3003 RMK AO2 SLP173 T00720061=
202003060852 METAR KATL 060852Z 28009KT 10SM FEW005 07/06 A3002 RMK AO2 SLP169 T00720061 58014=
202003060752 METAR KATL 060752Z 27006KT 10SM FEW005 08/07 A3004 RMK AO2 SLP175 T00780067=
202003060747 SPECI KATL 060747Z 26006KT 10SM FEW005 08/06 A3004 RMK AO2=
202003060652 METAR KATL 060652Z 27007KT 10SM FEW010 08/06 A3006 RMK AO2 SLP180 T00830061=
202003060552 METAR KATL 060552Z 27004KT 10SM FEW013 08/07 A3006 RMK AO2 SLP182 T00830067 10111 20083 58003=
202003060533 SPECI KATL 060533Z 25003KT 10SM SCT013 09/07 A3006 RMK AO2 T00940067=
202003060452 METAR KATL 060452Z 31007KT 10SM BKN013 10/07 A3008 RMK AO2 SLP187 T01000067 401170100=
202003060352 METAR KATL 060352Z 32007KT 10SM OVC012 10/07 A3008 RMK AO2 SLP188 T01000072=
202003060252 METAR KATL 060252Z 02005KT 10SM OVC015 11/07 A3007 RMK AO2 SLP184 BINOVC T01060067 51019=
202003060152 METAR KATL 060152Z 04008KT 10SM OVC015 11/07 A3006 RMK AO2 SLP181 BINOVC T01060072=
202003060052 METAR KATL 060052Z 02008KT 10SM OVC013 11/07 A3006 RMK AO2 SLP181 BINOVC T01060072=
202003052352 METAR KATL 052352Z 05011KT 10SM FEW009 BKN014 OVC025 11/07 A3002 RMK AO2 SLP164 BINOVC 60035 T01060072 10111 20100 53001=
202003052252 METAR KATL 052252Z 06012KT 10SM SCT009 BKN014 OVC030 11/08 A3000 RMK AO2 SLP159 BINOVC T01060078=
202003052152 METAR KATL 052152Z 06011KT 10SM BKN011 BKN030 OVC070 11/08 A3000 RMK AO2 RAE46 SLP160 CIG 009V013 BINOVC P0003 T01060083=
202003052152 SPECI KATL 052152Z 06011KT 10SM BKN011 BKN030 OVC070 11/08 A3000 RMK AO2 RAE46 SLP160 CIG 009V013 BINOVC P0003 T01060083=
202003052130 SPECI KATL 052130Z 05013KT 8SM -RA BKN011 OVC018 11/08 A3001 RMK AO2 CIG 009V013 P0003 T01060083=
202003052052 METAR KATL 052052Z 04013KT 2SM -RA BR FEW007 BKN011 OVC016 11/08 A3001 RMK AO2 SFC VIS 3 SLP163 CIG 009V013 P0002 60032 T01060083 55003=
202003051952 METAR KATL 051952Z 06012KT 2SM -RA BR BKN008 OVC016 10/08 A2999 RMK AO2 SFC VIS 5 SLP157 CIG 007V010 P0010 T01000083=
202003051852 METAR KATL 051852Z 08015G22KT 2SM -RA BR BKN006 BKN014 OVC048 10/08 A2996 RMK AO2 SFC VIS 4 SLP146 CIG 005V008 P0020 T01000078=
202003051819 SPECI KATL 051819Z 08018KT 2SM -RA BR BKN007 BKN014 OVC036 10/08 A2999 RMK AO2 SFC VIS 3 PRESFR CIG 006V009 P0003 T01000083=
202003051805 SPECI KATL 051805Z 07013KT 2SM -RA BR BKN007 BKN013 OVC022 10/08 A3003 RMK AO2 SFC VIS 3 CIG 006V009 P0000 T01000083=
202003051752 METAR KATL 051752Z 06016KT 2SM -RA BR BKN010 BKN015 OVC050 10/08 A3002 RMK AO2 LTG DSNT NE DZE04RAB04 SLP167 CIG 009V012 CB DSNT NE P0010 60038 T01000083 10117 20100 58003=
202003051745 SPECI KATL 051745Z 07017KT 2SM -RA BR BKN010 BKN015 OVC050 10/08 A3001 RMK AO2 DZE04RAB04 PRESFR CIG 009V012 P0010 T01000083=
202003051727 SPECI KATL 051727Z 03014G19KT 2SM +RA BR BKN008 OVC013 10/08 A3005 RMK AO2 SFC VIS 2 1/2 DZE04RAB04 P0005 T01000083=
202003051652 METAR KATL 051652Z 08014KT 7SM -DZ OVC008CB 10/08 A3004 RMK AO2 SLP172 CIG 007V010 CB SE-SW MOV NE P0000 T01000078=
202003051552 METAR KATL 051552Z 08016KT 7SM -DZ OVC007 10/08 A3003 RMK AO2 RAE50DZB50 SLP169 CIG 005V009 P0005 T01000083=
202003051518 SPECI KATL 051518Z 07015KT 6SM -RA BR BKN007 OVC015 11/09 A3004 RMK AO2 CIG 005V009 P0005 T01060089=
202003051452 METAR KATL 051452Z 07014G19KT 2SM +RA BR BKN008 OVC014 11/09 A3003 RMK AO2 SLP170 CIG 007V010 P0006 60023 T01110094 52009=
202003051352 METAR KATL 051352Z 10011KT 5SM -RA BR BKN008 OVC015 11/09 A3001 RMK AO2 SLP163 CIG 006V010 P0005 T01110094=
202003051252 METAR KATL 051252Z 10008KT 3SM RA BR OVC007 11/09 A3002 RMK AO2 LTG DSNT NE SLP164 CIG 005V009 CB DSNT NE P0012 T01110094=
202003051152 METAR KATL 051152Z 10009KT 2SM RA BR BKN005 OVC045 11/09 A3000 RMK AO2 SFC VIS 3 SLP159 CIG 004V006 BINOVC P0012 60067 70184 T01110094 10111 20106 51008=
202003051052 METAR KATL 051052Z 12008KT 2SM -RA BKN005 OVC039 11/09 A2999 RMK AO2 SFC VIS 7 SLP154 CIG 004V006 P0015 T01110094=
202003051007 SPECI KATL 051007Z 07008KT 2SM -RA BR BKN005 BKN010 OVC020 11/09 A2999 RMK AO2 SFC VIS 4 LTG DSNT SW P0005 T01110094=
202003050952 METAR KATL 050952Z 05008KT 4SM RA BR BKN007 OVC018 11/09 A3000 RMK AO2 LTG DSNT N AND SW SLP158 CIG 005V010 CB DSNT N AND SW P0016 T01110094=
202003050852 METAR KATL 050852Z 11004KT 6SM -RA BR BKN008 OVC020 11/09 A2998 RMK AO2 SLP150 CIG 006V010 P0005 60024 T01060094 58012 $=
202003050820 SPECI KATL 050820Z 03005KT 6SM -RA BR BKN008 BKN060 OVC090 11/09 A2999 RMK AO2 P0001 T01110094 $=
202003050757 SPECI KATL 050757Z 03003KT 7SM -RA FEW008 BKN070 OVC090 11/09 A3001 RMK AO2 P0000 T01110094 $=
202003050752 METAR KATL 050752Z 05003KT 7SM -RA FEW010 BKN050 OVC095 11/09 A3000 RMK AO2 SLP160 P0007 T01110089 $=
202003050652 METAR KATL 050652Z 16004KT 5SM -RA BR FEW010 BKN060 OVC075 11/09 A3001 RMK AO2 LTG DSNT SE SLP162 CB DSNT SE P0012 T01110089 $=
202003050552 METAR KATL 050552Z 15006KT 3SM RA BR BKN050 OVC080 11/09 A3001 RMK AO2 TSB28E48 SLP163 P0018 60054 T01110089 10133 20111 58013 $=
202003050549 SPECI KATL 050549Z 15007KT 3SM RA BR BKN050 OVC080 11/09 A3000 RMK AO2 TSB28E48 TS DSIPTD P0016 $=
202003050528 SPECI KATL 050528Z 16006KT 3SM TSRA BR FEW020CB BKN050 OVC080 12/09 A3003 RMK AO2 TSB28 OCNL LTGICCG OHD-SW TS OHD-SW MOV NE P0007 T01170094=
202003050452 METAR KATL 050452Z 13007KT 6SM -RA SCT055 BKN070 OVC100 12/09 A2999 RMK AO2 PRESFR SLP155 P0011 T01170089 401670117=
202003050352 METAR KATL 050352Z VRB03KT 4SM -RA BKN065 OVC090 12/09 A3009 RMK AO2 PRESRR SLP188 P0008 T01220094=
202003050252 METAR KATL 050252Z 13003KT 5SM -RA BR BKN080 OVC110 12/11 A3005 RMK AO2 PRESFR SLP176 P0007 60017 T01220106 58002=
202003050152 METAR KATL 050152Z 30008KT 6SM -RA BR BKN085 OVC110 13/11 A3007 RMK AO2 SLP181 P0002 T01280111=
202003050052 METAR KATL 050052Z 26004KT 5SM -RA BR FEW005 BKN085 OVC110 13/11 A3006 RMK AO2 SLP179 P0008 T01280111=
202003042352 METAR KATL 042352Z 26005KT 4SM -RA BR FEW006 BKN075 OVC100 13/12 A3006 RMK AO2 PRESRR SLP177 P0001 60025 T01330117 10144 20128 53023=
202003042252 METAR KATL 042252Z 31007KT 7SM -RA FEW007 SCT070 OVC090 13/12 A3002 RMK AO2 RAE06B50 SLP163 P0000 T01330117=
202003042152 METAR KATL 042152Z 00000KT 7SM -RA FEW012 BKN065 OVC090 13/11 A2998 RMK AO2 RAB22 PRESFR SLP150 P0001 T01330111=
202003042125 SPECI KATL 042125Z 29005KT 7SM -RA SCT011 BKN045 BKN070 OVC130 14/11 A3001 RMK AO2 RAB22 P0000 T01390111=
202003042052 METAR KATL 042052Z VRB03KT 8SM BKN010 BKN040 BKN085 OVC200 14/11 A2999 RMK AO2 RAE47 SLP153 P0002 60023 T01440111 58002=
202003042001 SPECI KATL 042001Z 02008KT 4SM -RA BR SCT006 BKN040 OVC090 13/11 A2996 RMK AO2 P0000 T01330111=
202003041952 METAR KATL 041952Z 36006KT 4SM -RA BR BKN006 BKN020 OVC085 13/11 A2999 RMK AO2 SLP152 CIG 004V008 P0006 T01330111=
202003041916 SPECI KATL 041916Z 34003KT 3SM -RA BR BKN006 BKN022 OVC055 13/12 A3000 RMK AO2 CIG 004V008 P0004 T01330117=
202003041852 METAR KATL 041852Z 29003KT 2 1/2SM -RA BR BKN008 BKN020 OVC050 13/11 A3000 RMK AO2 SLP158 VIS SE-S 3 CIG 007V010 P0015 T01280111=
202003041825 SPECI KATL 041825Z 33003KT 2 1/2SM RA BR BKN008 BKN028 OVC055 13/11 A2999 RMK AO2 CIG 007V010 P0009 T01280106=
202003041752 METAR KATL 041752Z 18004KT 5SM -RA BR BKN007 BKN028 OVC090 13/11 A3000 RMK AO2 SLP155 CIG 005V009 P0002 60038 T01280111 10133 20122 55014=
202003041723 SPECI KATL 041723Z 10005KT 7SM -RA BKN006 BKN026 OVC100 13/11 A2997 RMK AO2 CIG 005V008 P0000 T01280111=
202003041652 METAR KATL 041652Z 12003KT 6SM -RA BR FEW006 BKN075 OVC095 13/11 A2998 RMK AO2 SLP151 P0006 T01280106=
202003041552 METAR KATL 041552Z 11003KT 5SM -RA BR FEW008 BKN070 OVC100 12/11 A3000 RMK AO2 SLP156 P0011 T01220106=
202003041531 SPECI KATL 041531Z 09006KT 4SM -RA BR FEW009 BKN065 OVC090 12/11 A3000 RMK AO2 P0009 T01220106=
202003041452 METAR KATL 041452Z 22003KT 3SM RA BR FEW028 BKN060 OVC085 12/11 A3004 RMK AO2 SLP170 P0012 60019 T01220111 53018=
202003041435 SPECI KATL 041435Z 23003KT 3SM -RA BR BKN065 OVC090 13/11 A3004 RMK AO2 LTG DSNT S AND SW CB DSNT SE-SW P0008 T01280111=
202003041352 METAR KATL 041352Z 00000KT 8SM -RA FEW065 SCT085 OVC110 13/11 A3001 RMK AO2 RAE1258B29 SLP160 P0001 T01280106=
202003041252 METAR KATL 041252Z 02007KT 10SM -RA SCT042 BKN085 OVC110 13/09 A2998 RMK AO2 SLP151 P0006 T01280089=
202003041152 METAR KATL 041152Z 34007KT 6SM -RA SCT060 BKN085 OVC100 13/10 A2999 RMK AO2 RAB13 SLP151 P0002 60002 70036 T01330100 10167 20133 53018=
202003041052 METAR KATL 041052Z 33009KT 10SM FEW065 BKN080 OVC110 14/10 A2996 RMK AO2 PRESRR SLP141 T01440100=
202003040952 METAR KATL 040952Z 35010KT 10SM FEW065 BKN080 OVC110 15/11 A2992 RMK AO2 SLP127 T01500106=
202003040852 METAR KATL 040852Z 31005KT 10SM SCT085 BKN110 OVC200 15/11 A2993 RMK AO2 SLP132 T01500111 50001=
202003040752 METAR KATL 040752Z 28004KT 10SM BKN090 BKN130 OVC200 16/11 A2994 RMK AO2 SLP134 T01560106=
202003040652 METAR KATL 040652Z 32009KT 10SM FEW045 SCT095 BKN120 OVC200 16/12 A2994 RMK AO2 SLP134 T01610117=
202003040552 METAR KATL 040552Z 32006KT 10SM BKN100 OVC200 17/14 A2993 RMK AO2 SLP130 T01670144 10183 20167 50006=
202003040452 METAR KATL 040452Z 29008KT 7SM SCT004 BKN100 OVC200 17/15 A2994 RMK AO2 SLP136 T01670150 402060139=
202003040352 METAR KATL 040352Z 26006KT 9SM FEW005 BKN110 OVC150 17/16 A2994 RMK AO2 SLP133 T01720156=
202003040252 METAR KATL 040252Z 24005KT 9SM FEW006 BKN110 OVC150 17/16 A2991 RMK AO2 SLP124 T01720156 53008=
202003040152 METAR KATL 040152Z 23005KT 9SM FEW006 SCT110 BKN150 BKN250 17/16 A2989 RMK AO2 SLP116 T01720156=
202003040135 SPECI KATL 040135Z 22008KT 9SM SCT007 BKN150 BKN250 17/16 A2989 RMK AO2 T01720156=
202003040121 SPECI KATL 040121Z 22009KT 9SM SCT006 BKN010 BKN250 18/16 A2989 RMK AO2 T01780156=
202003040052 METAR KATL 040052Z 22008KT 10SM FEW008 SCT120 BKN250 18/16 A2990 RMK AO2 SLP120 T01780156=
202003032352 METAR KATL 032352Z 23005KT 10SM FEW012 SCT120 BKN250 18/16 A2989 RMK AO2 SLP116 T01830156 10206 20183 53020=
202003032252 METAR KATL 032252Z 24008KT 10SM FEW015 BKN130 BKN200 19/16 A2986 RMK AO2 SLP106 T01940156=
202003032152 METAR KATL 032152Z 22010KT 10SM FEW016 SCT032 BKN130 BKN200 20/16 A2983 RMK AO2 SLP095 T02000161=
202003032145 SPECI KATL 032145Z 23010KT 10SM FEW016 SCT030 BKN120 BKN200 20/16 A2983 RMK AO2 T02000161=
202003032123 SPECI KATL 032123Z 22009KT 10SM SCT016 BKN026 BKN045 OVC140 20/16 A2983 RMK AO2 VIRGA SE-S T02000161=
202003032052 METAR KATL 032052Z 22009KT 10SM SCT020 SCT040 BKN120 OVC180 20/16 A2983 RMK AO2 SLP095 VIRGA SE-SW T02000161 55007=
202003031952 METAR KATL 031952Z 23009KT 10SM FEW018 SCT035 SCT140 OVC200 21/16 A2982 RMK AO2 SLP092 TCU DSNT NE T02060161=
202003031916 SPECI KATL 031916Z 24010KT 10SM SCT016 BKN032 BKN070 OVC140 21/16 A2983 RMK AO2 T02060161=
202003031852 METAR KATL 031852Z 23010G17KT 10SM BKN016 BKN024 BKN060 OVC130 20/16 A2983 RMK AO2 SLP098 CIG 014V018 T02000161=
202003031752 METAR KATL 031752Z 23008G18KT 10SM BKN015 BKN038 OVC055 19/16 A2985 RMK AO2 SLP103 CIG 013V017 BINOVC 60034 T01940156 10194 20167 56005=
202003031652 METAR KATL 031652Z 23011G21KT 10SM BKN015 OVC026 19/16 A2986 RMK AO2 SLP107 CIG 013V017 BINOVC T01890156=
202003031552 METAR KATL 031552Z 21016G24KT 10SM BKN012 BKN022 BKN065 BKN200 18/16 A2984 RMK AO2 RAE30 SLP102 CIG 010V014 P0005 T01830156=
202003031527 SPECI KATL 031527Z 22013G20KT 10SM -RA FEW007 BKN011 OVC028 18/16 A2986 RMK AO2 CIG 009V013 P0004 T01780156=
202003031518 SPECI KATL 031518Z 22011KT 4SM -RA BR SCT010 BKN016 OVC046 18/16 A2986 RMK AO2 P0004 T01780156=
202003031512 SPECI KATL 031512Z 21011KT 2 1/2SM R09R/6000VP6000FT RA BR BKN015 BKN024 OVC050 17/16 A2986 RMK AO2 P0001 T01720156=
202003031452 METAR KATL 031452Z 23007KT 8SM -RA SCT011 BKN020 OVC055 17/15 A2987 RMK AO2 SLP111 P0018 60029 T01720150 53007=
202003031437 SPECI KATL 031437Z 24007G19KT 6SM -RA BR SCT007 BKN014 OVC040 17/15 A2987 RMK AO2 CIG 012V016 P0018 T01670150=
202003031415 SPECI KATL 031415Z 26010KT 3SM R09R/5500VP6000FT RA BR SCT007 BKN028 OVC060 17/15 A2987 RMK AO2 P0013 T01720150=
202003031358 SPECI KATL 031358Z 23010KT 1 1/2SM -RA BR SCT005 BKN018 OVC050 18/16 A2986 RMK AO2 SFC VIS 3 P0001 T01780156=
202003031352 METAR KATL 031352Z 22008KT 1 1/2SM RA BR BKN005 BKN013 OVC046 17/16 A2986 RMK AO2 SFC VIS 2 RAB12 SLP110 CIG 004V009 P0011 T01720161=
202003031341 SPECI KATL 031341Z 23007KT 2 1/2SM RA BR BKN007 BKN016CB OVC070 17/16 A2987 RMK AO2 RAB12 CB SE-SW MOV NE P0006 T01720156=
202003031331 SPECI KATL 031331Z 19009KT 3SM -RA BR SCT007CB BKN048 OVC070 17/16 A2984 RMK AO2 RAB12 CB S-SW MOV NE P0003 T01720156=
202003031300 SPECI KATL 031300Z 22007KT 6SM BR BKN009 OVC014 17/16 A2985 RMK AO2 T01720156=
202003031252 METAR KATL 031252Z 21007KT 7SM FEW009 BKN012 OVC020 17/16 A2984 RMK AO2 SLP103 CIG 011V015 T01720156=
202003031231 SPECI KATL 031231Z 21008KT 7SM SCT009 BKN012 OVC020 17/16 A2984 RMK AO2 T01720156=
202003031152 METAR KATL 031152Z 22009KT 7SM SCT011 BKN016 BKN032 OVC200 17/15 A2984 RMK AO2 SLP103 60015 70110 T01720150 10172 20144 56002=
202003031052 METAR KATL 031052Z 23004KT 7SM BKN009 OVC012 17/15 A2986 RMK AO2 SLP107 BKN006 V SCT T01670150=
202003030952 METAR KATL 030952Z 20009KT 7SM BKN006 BKN015 OVC120 16/14 A2983 RMK AO2 SLP099 BKN006 V SCT T01610144=
202003030852 METAR KATL 030852Z 19007KT 6SM BR OVC008 16/14 A2985 RMK AO2 RAE0756 TSE0758 SLP106 CIG 007V010 TS MOV E P0000 60015 T01560144 58020 $=
202003030833 SPECI KATL 030833Z 19006KT 7SM BKN008 OVC015 16/14 A2986 RMK AO2 RAE0756 TSE0758 CIG 007V009 TS MOV E P0000 T01560139 $=
202003030825 SPECI KATL 030825Z 18005KT 8SM FEW004 BKN013 OVC019 15/14 A2986 RMK AO2 RAE0756 TSE0758 TS MOV E P0000 T01500139 $=
202003030802 SPECI KATL 030802Z 20006KT 8SM SCT004 BKN025 BKN120 BKN250 15/14 A2988 RMK AO2 RAE0756 TSE0758 VIS LWR SE-SW CIG 002V005 OCNL LTGICCG DSNT E TS MOV E TWRINC P0000 T01500139 $=
202003030752 METAR KATL 030752Z 00000KT 1/2SM R09R/P6000FT -TSRA BR BKN004 OVC012CB 15/14 A2989 RMK AO2 SFC VIS 6 SLP119 VIS LWR SE-SW CIG 002V005 OCNL LTGICCG NE-E TS NE-E MOV E TWRINC P0013 T01500139 $=
202003030730 SPECI KATL 030730Z 28004KT 1/2SM R09R/P6000FT -TSRA BR BKN004 OVC012CB 15/14 A2990 RMK AO2 SFC VIS 3 CIG 003V005 FRQ LTGICCG N-NE W TS VC N-NE W MOV E TWRINC P0001 T01500139 $=
202003030652 METAR KATL 030652Z 00000KT 5SM -TSRA BR BKN004 OVC012CB 15/14 A2991 RMK AO2 SLP127 TSB18 OCNL LTGICCG NW-NE TS NW-NE MOV NE P0002 T01500139=
202003030620 SPECI KATL 030620Z 22007KT 5SM -TSRA BR SCT003 BKN005 OVC037 14/13 A2992 RMK AO2 TSB18 OCNL LTGICCG W-NW TS VC W-NW MOV NE P0001 T01440133=
202003030552 METAR KATL 030552Z 20008KT 6SM -RA BR FEW003 BKN007 OVC015 14/13 A2991 RMK AO2 LTG DSNT W RAB51 SLP128 CB DSNT W NW-NE P0000 60024 T01440128 10144 20122 58014=
202003030530 SPECI KATL 030530Z 20007KT 5SM BR FEW003 BKN008 OVC015 14/13 A2991 RMK AO2 LTG DSNT N AND NW CB DSNT NW-N T01390128=
202003030452 METAR KATL 030452Z 17004KT 1/2SM R09R/P6000FT BR BKN003 OVC014 13/12 A2993 RMK AO2 SFC VIS 2 RAE11 SLP133 TWRINC P0001 T01330122 401330083=
202003030352 METAR KATL 030352Z 16003KT 1/2SM R09R/4000VP6000FT -RA BR BKN003 OVC090 13/12 A2995 RMK AO2 SFC VIS 2 RAB0253 SLP142 TWRINC P0001 T01280117=
202003030252 METAR KATL 030252Z 12004KT 1/2SM R09R/P6000FT BR BKN003 OVC090 13/12 A2995 RMK AO2 SFC VIS 2 RAE50 SLP142 TWRINC P0003 60022 T01280117 58004=
202003030152 METAR KATL 030152Z 16004KT 1SM R09R/P6000FT -RA BR SCT004 BKN007 OVC075 13/12 A2996 RMK AO2 SFC VIS 3 SLP147 P0000 T01280117=
202003030141 SPECI KATL 030141Z 17004KT 5SM -RA BR FEW004 BKN008 OVC020 13/12 A2996 RMK AO2 P0000 T01280117=
202003030052 METAR KATL 030052Z 00000KT 5SM -RA BR FEW004 BKN020 OVC080 12/12 A2997 RMK AO2 SLP148 P0019 T01220117=
202003030044 SPECI KATL 030044Z 13003KT 4SM -RA BR SCT004 BKN020 OVC090 12/11 A2996 RMK AO2 P0019 T01220111=
202003030006 SPECI KATL 030006Z 15006KT 1SM R09R/P6000FT -RA BR BKN004 BKN020 OVC090 12/11 A2996 RMK AO2 SFC VIS 4 P0001 T01220106=
202003022352 METAR KATL 022352Z 16006KT 1 1/4SM -RA BR BKN004 BKN014 OVC090 12/11 A2997 RMK AO2 SFC VIS 3 SLP148 P0006 60058 T01220106 10122 20106 56009=
202003022339 SPECI KATL 022339Z 15004KT 1 1/4SM -RA BR BKN004 BKN014 OVC090 12/11 A2997 RMK AO2 SFC VIS 4 P0005 T01220106=
202003022322 SPECI KATL 022322Z 14003KT 1 1/4SM -RA BR SCT003 BKN014 OVC090 12/11 A2996 RMK AO2 SFC VIS 3 P0003 T01220106=
202003022252 METAR KATL 022252Z 17005KT 2SM RA BR SCT004 BKN014 OVC045 12/11 A2997 RMK AO2 SFC VIS 3 SLP148 P0016 T01220106=
202003022216 SPECI KATL 022216Z 17005KT 2SM -RA BR SCT004 BKN010 OVC045 12/11 A2997 RMK AO2 SFC VIS 3 P0005 T01170106=
202003022159 SPECI KATL 022159Z 18006KT 3SM -RA BR SCT004 BKN008 OVC044 12/11 A2997 RMK AO2 P0002 T01170106=
202003022152 METAR KATL 022152Z 18006KT 3SM -RA BR SCT006 BKN016 OVC040 12/11 A2997 RMK AO2 SLP150 P0004 T01170106=
202003022052 METAR KATL 022052Z 20007KT 4SM -RA BR BKN006 OVC018 12/10 A2999 RMK AO2 SLP157 CIG 004V008 P0007 60032 T01170100 55024=
202003021952 METAR KATL 021952Z 17008KT 4SM -RA BR BKN006 BKN026 OVC040 11/09 A2999 RMK AO2 SLP155 CIG 004V008 P0014 T01110094=
202003021918 SPECI KATL 021918Z 14007KT 3SM RA BR FEW004 BKN055 OVC070 11/09 A3000 RMK AO2 PRESFR P0007 T01110094=
202003021852 METAR KATL 021852Z 16010KT 4SM -RA BR SCT028 BKN048 OVC065 11/09 A3003 RMK AO2 SLP170 P0011 T01060089=
202003021752 METAR KATL 021752Z 18008KT 7SM -RA SCT036 BKN048 OVC075 11/08 A3007 RMK AO2 SLP182 P0006 60013 T01110083 10122 20083 58010=
202003021652 METAR KATL 021652Z 16006KT 7SM -RA FEW055 BKN070 OVC120 11/08 A3009 RMK AO2 SLP191 P0007 T01060078=
202003021552 METAR KATL 021552Z 20006KT 8SM -RA SCT060 BKN075 BKN130 OVC200 12/06 A3009 RMK AO2 RAB47 SLP190 P0000 T01170056=
202003021452 METAR KATL 021452Z 20006KT 10SM SCT075 BKN130 BKN180 BKN250 11/04 A3010 RMK AO2 SLP192 VIRGA OHD-ALQDS ACC SW-NW T01110039 53009=
202003021352 METAR KATL 021352Z 18009KT 10SM SCT075 BKN130 BKN180 BKN250 10/02 A3008 RMK AO2 SLP188 VIRGA W-N-NE ACC W-NW T01000022=
202003021252 METAR KATL 021252Z 00000KT 10SM FEW040 SCT130 BKN180 BKN220 09/02 A3008 RMK AO2 SLP188 T00890022=
202003021152 METAR KATL 021152Z 17006KT 10SM FEW040 FEW130 SCT180 BKN220 08/02 A3007 RMK AO2 SLP183 T00830017 10122 20083 56011=
202003021052 METAR KATL 021052Z 14006KT 10SM FEW100 BKN130 BKN180 09/02 A3007 RMK AO2 SLP184 T00890022=
202003020952 METAR KATL 020952Z 16004KT 10SM FEW110 BKN130 BKN200 10/02 A3009 RMK AO2 SLP189 T01000017=
202003020852 METAR KATL 020852Z 17005KT 10SM FEW110 BKN130 11/02 A3010 RMK AO2 SLP191 T01110017 58021 $=
202003020752 METAR KATL 020752Z 20006KT 10SM BKN130 12/02 A3014 RMK AO2 SLP203 T01170017 $=
202003020652 METAR KATL 020652Z 20008KT 10SM SCT120 BKN150 12/01 A3015 RMK AO2 SLP208 T01170011 $=
202003020552 METAR KATL 020552Z 18006KT 10SM SCT130 BKN150 BKN250 12/01 A3017 RMK AO2 SLP214 T01170011 10150 20117 55008 $=
202003020452 METAR KATL 020452Z 16006KT 10SM SCT140 BKN150 BKN250 12/01 A3016 RMK AO2 SLP213 T01170011 401780011 $=
202003020352 METAR KATL 020352Z 17006KT 10SM SCT140 BKN150 BKN250 12/01 A3018 RMK AO2 SLP221 T01220006 $=
202003020252 METAR KATL 020252Z 16005KT 10SM SCT140 BKN150 BKN250 13/01 A3019 RMK AO2 SLP224 T01280006 51001 $=
202003020152 METAR KATL 020152Z 16007KT 10SM BKN150 BKN250 13/01 A3018 RMK AO2 SLP223 T01330006 $=
202003020052 METAR KATL 020052Z 16005KT 10SM BKN150 BKN250 BKN300 14/01 A3019 RMK AO2 SLP227 T01390006 $=
202003012352 METAR KATL 012352Z 17006KT 10SM SCT150 BKN250 BKN300 15/00 A3019 RMK AO2 SLP225 T01500000 10178 20150 57002 $=
202003012252 METAR KATL 012252Z 17008KT 10SM SCT150 BKN250 BKN300 17/00 A3019 RMK AO2 SLP224 T01670000 $=
202003012152 METAR KATL 012152Z 22009KT 10SM BKN150 BKN250 17/M01 A3019 RMK AO2 SLP226 VIRGA SW T01721006 $=
202003012052 METAR KATL 012052Z 22005KT 10SM BKN150 17/M01 A3019 RMK AO2 SLP226 VIRGA SW T01721011 56025=
202003011952 METAR KATL 011952Z 22005KT 10SM SCT150 BKN200 17/01 A3020 RMK AO2 SLP229 T01720006=
202003011852 METAR KATL 011852Z VRB05KT 10SM SCT200 BKN250 18/00 A3023 RMK AO2 SLP237 T01780000=
202003011752 METAR KATL 011752Z 24006KT 10SM BKN200 16/M01 A3027 RMK AO2 SLP251 VIRGA SW T01561011 10156 20017 58008=
202003011652 METAR KATL 011652Z 25009KT 10SM SCT200 BKN250 15/M02 A3029 RMK AO2 SLP260 T01501022=
202003011552 METAR KATL 011552Z 22006KT 10SM FEW200 SCT250 13/M03 A3030 RMK AO2 SLP264 T01281033=
202003011452 METAR KATL 011452Z 12005KT 10SM FEW200 FEW250 10/M05 A3029 RMK AO2 SLP261 T01001050 51008=
202003011352 METAR KATL 011352Z 13004KT 10SM FEW150 SCT200 SCT250 06/M04 A3028 RMK AO2 SLP259 T00611039=
202003011252 METAR KATL 011252Z 00000KT 10SM FEW150 SCT200 SCT250 03/M03 A3028 RMK AO2 SLP259 T00281028=
