##########################################################
# Query made at 04/20/2024 00:15:28 UTC
# Time interval: from 03/01/2021 12:00  to 03/31/2021 12:59  UTC
##########################################################

##########################################################
# KATL, Atlanta, Hartsfield - Jackson Atlanta International Airport (United States)
# WMO index: 72219. WIGOS ID: 0-20000-0-72219
# Latitude 33-38-59N. Longitude 084-25-00W. Altitude 312 m.
##########################################################

202103311252 METAR KATL 311252Z 21009G19KT 8SM OVC008 19/17 A3009 RMK AO2 SLP185 T01890167=
202103311152 METAR KATL 311152Z 19011G17KT 10SM BKN011 BKN030 OVC080 18/16 A3009 RMK AO2 SLP184 70009 T01830161 10183 20172 53000=
202103311150 SPECI KATL 311150Z 19011G17KT 10SM BKN011 BKN030 OVC080 18/16 A3009 RMK AO2=
202103311108 SPECI KATL 311108Z 20007KT 10SM SCT028 SCT080 BKN095 18/16 A3009 RMK AO2 T01780156=
202103311052 METAR KATL 311052Z 19011KT 10SM BKN024 BKN029 OVC100 18/16 A3008 RMK AO2 SLP181 T01830156=
202103311038 SPECI KATL 311038Z 20009KT 10SM BKN024 OVC029 18/16 A3009 RMK AO2 T01830161=
202103310952 METAR KATL 310952Z 18010KT 10SM FEW009 FEW014 OVC095 18/16 A3008 RMK AO2 SLP178 T01780156=
202103310911 SPECI KATL 310911Z 18007KT 8SM FEW011 SCT022 OVC100 18/16 A3009 RMK AO2 T01780161=
202103310852 METAR KATL 310852Z 17007KT 8SM FEW007 BKN020 OVC180 18/16 A3009 RMK AO2 SLP183 T01780156 56020=
202103310805 SPECI KATL 310805Z 15007KT 8SM FEW007 BKN018 OVC180 17/16 A3009 RMK AO2 T01720156=
202103310752 METAR KATL 310752Z 15005KT 10SM FEW007 FEW020 OVC120 17/16 A3010 RMK AO2 SLP186 T01720156=
202103310652 METAR KATL 310652Z 15008KT 8SM FEW009 FEW033 OVC120 17/16 A3012 RMK AO2 SLP194 T01720156=
202103310552 METAR KATL 310552Z 15006KT 10SM SCT012 BKN026 OVC090 18/16 A3015 RMK AO2 RAB04E19 SLP205 BKN026 V SCT P0001 60009 T01780156 10206 20172 58013=
202103310516 SPECI KATL 310516Z 15005KT 10SM -RA SCT014 BKN034 OVC090 17/15 A3017 RMK AO2 RAB04 P0001 T01720150=
202103310452 METAR KATL 310452Z 16004KT 10SM SCT014 BKN022 OVC070 17/15 A3018 RMK AO2 RAB25E50 SLP213 P0008 T01720150 402390094=
202103310352 METAR KATL 310352Z 14009G15KT 10SM SCT034 BKN045 BKN060 OVC200 18/13 A3019 RMK AO2 SLP220 T01830133=
202103310252 METAR KATL 310252Z 13009KT 10SM FEW032 BKN045 BKN150 OVC250 19/14 A3019 RMK AO2 SLP220 T01890139 51014=
202103310152 METAR KATL 310152Z 13008KT 10SM SCT035 BKN050 BKN070 BKN250 19/14 A3019 RMK AO2 SLP220 T01940139=
202103310052 METAR KATL 310052Z 15008KT 10SM FEW040 BKN055 BKN250 20/13 A3016 RMK AO2 SLP211 T02000133=
202103302352 METAR KATL 302352Z 14009KT 10SM SCT040 SCT060 BKN200 BKN250 21/13 A3015 RMK AO2 SLP208 MDT CU OHD-NW T02060133 10239 20206 58003=
202103302252 METAR KATL 302252Z 14006G17KT 10SM BKN045 BKN060 BKN200 22/13 A3016 RMK AO2 SLP211 MDT CU OHD-ALQDS T02170133=
202103302152 METAR KATL 302152Z 13009KT 10SM BKN045 BKN200 BKN250 23/13 A3015 RMK AO2 SLP208 T02280128=
202103302052 METAR KATL 302052Z 16008KT 10SM FEW046 FEW080 SCT200 BKN250 24/13 A3016 RMK AO2 SLP209 T02390128 58021=
202103301952 METAR KATL 301952Z 15007G18KT 10SM SCT044 BKN075 BKN250 24/12 A3019 RMK AO2 SLP219 T02390122=
202103301852 METAR KATL 301852Z 14009KT 10SM FEW038 SCT080 SCT250 22/12 A3020 RMK AO2 SLP224 T02220117=
202103301752 METAR KATL 301752Z 17008KT 10SM FEW032 SCT075 SCT250 21/11 A3023 RMK AO2 SLP233 T02110111 10211 20100 58013=
202103301652 METAR KATL 301652Z 14008KT 10SM SCT019 SCT026 SCT250 19/12 A3024 RMK AO2 SLP238 T01940117=
202103301552 METAR KATL 301552Z 13009KT 10SM SCT018 OVC024 17/10 A3026 RMK AO2 SLP246 BINOVC T01720100=
202103301452 METAR KATL 301452Z 14012KT 10SM BKN018 BKN028 16/09 A3026 RMK AO2 SLP247 T01560089 50005=
202103301352 METAR KATL 301352Z 12010KT 10SM OVC015 13/07 A3027 RMK AO2 SLP247 BINOVC T01280067=
202103301252 METAR KATL 301252Z 13004KT 10SM BKN011 12/08 A3027 RMK AO2 SLP249 T01170078=
202103301204 SPECI KATL 301204Z 10004KT 10SM BKN011 10/07 A3025 RMK AO2 BKN011 V SCT T01000072=
202103301152 METAR KATL 301152Z 12005KT 10SM FEW012 11/07 A3025 RMK AO2 SLP242 T01060072 10128 20094 52021=
202103301052 METAR KATL 301052Z 11005KT 10SM CLR 10/06 A3022 RMK AO2 SLP232 T01000061=
202103300952 METAR KATL 300952Z 10004KT 10SM CLR 11/06 A3021 RMK AO2 SLP229 T01060056=
202103300852 METAR KATL 300852Z 13005KT 10SM CLR 11/06 A3018 RMK AO2 SLP219 T01060056 55002=
202103300752 METAR KATL 300752Z 12007KT 10SM CLR 12/04 A3018 RMK AO2 SLP219 T01170044=
202103300652 METAR KATL 300652Z 12006KT 10SM CLR 12/03 A3018 RMK AO2 SLP219 T01220033=
202103300552 METAR KATL 300552Z 11004KT 10SM CLR 12/03 A3019 RMK AO2 SLP222 T01170033 10178 20117 58005=
202103300452 METAR KATL 300452Z 11003KT 10SM CLR 12/03 A3020 RMK AO2 SLP225 T01220033 402060050=
202103300352 METAR KATL 300352Z 13003KT 10SM CLR 13/04 A3021 RMK AO2 SLP229 T01330039=
202103300252 METAR KATL 300252Z 12005KT 10SM CLR 14/03 A3021 RMK AO2 SLP228 T01440028 53016=
202103300152 METAR KATL 300152Z 12004KT 10SM CLR 16/01 A3018 RMK AO2 SLP220 T01560011=
202103300052 METAR KATL 300052Z 14004KT 10SM CLR 16/02 A3017 RMK AO2 SLP217 T01610022=
202103292352 METAR KATL 292352Z 15005KT 10SM CLR 18/01 A3016 RMK AO2 SLP213 T01780011 10206 20167 55003=
202103292252 METAR KATL 292252Z 17005KT 10SM CLR 19/M01 A3015 RMK AO2 SLP210 T01941006=
202103292152 METAR KATL 292152Z 16004KT 10SM CLR 19/M02 A3016 RMK AO2 SLP211 T01941022=
202103292052 METAR KATL 292052Z 10SM CLR 20/M02 A3017 RMK AO2 SLP213 T02001017 56021=
202103291952 METAR KATL 291952Z VRB03KT 10SM CLR 19/M01 A3018 RMK AO2 SLP219 T01891011=
202103291852 METAR KATL 291852Z VRB04KT 10SM CLR 18/M01 A3020 RMK AO2 SLP225 T01831011=
202103291752 METAR KATL 291752Z 00000KT 10SM CLR 17/00 A3023 RMK AO2 SLP234 T01720000 10172 20056 58009=
202103291652 METAR KATL 291652Z VRB03KT 10SM CLR 15/M02 A3025 RMK AO2 SLP242 T01501017=
202103291552 METAR KATL 291552Z VRB04KT 10SM CLR 14/M02 A3026 RMK AO2 SLP246 T01391017 $=
202103291452 METAR KATL 291452Z 02005KT 10SM FEW250 12/M03 A3026 RMK AO2 SLP245 T01221033 51019 $=
202103291352 METAR KATL 291352Z 34007KT 10SM CLR 11/M02 A3024 RMK AO2 SLP241 T01061022 $=
202103291252 METAR KATL 291252Z 34008KT 10SM FEW250 08/M02 A3022 RMK AO2 SLP235 T00781022=
202103291152 METAR KATL 291152Z 34007KT 10SM FEW250 06/M03 A3020 RMK AO2 SLP227 70006 T00561028 10111 20050 53013=
202103291052 METAR KATL 291052Z 33003KT 10SM FEW250 06/M03 A3019 RMK AO2 SLP223 T00611028=
202103290952 METAR KATL 290952Z 34006KT 10SM FEW250 07/M03 A3017 RMK AO2 SLP216 T00671028=
202103290852 METAR KATL 290852Z 34008KT 10SM FEW250 08/M03 A3016 RMK AO2 SLP211 T00831028 50004=
202103290752 METAR KATL 290752Z 36010KT 10SM FEW250 09/M02 A3016 RMK AO2 SLP212 T00941022=
202103290652 METAR KATL 290652Z 35011KT 10SM FEW200 SCT250 10/M02 A3015 RMK AO2 SLP209 T01001022=
202103290552 METAR KATL 290552Z 35018G27KT 10SM FEW220 SCT250 11/M02 A3015 RMK AO2 PK WND 01027/0551 SLP206 T01111022 10161 20111 50011=
202103290452 METAR KATL 290452Z 35015G24KT 10SM SCT220 BKN250 12/M01 A3016 RMK AO2 SLP211 T01221011 402280122=
202103290352 METAR KATL 290352Z 36013G22KT 10SM SCT220 BKN250 13/01 A3015 RMK AO2 SLP204 T01330011=
202103290252 METAR KATL 290252Z 33012G20KT 10SM FEW150 BKN200 BKN250 14/03 A3011 RMK AO2 SLP193 T01390028 51022=
202103290152 METAR KATL 290152Z 30013KT 10SM FEW120 BKN220 OVC250 14/03 A3011 RMK AO2 SLP191 T01440028=
202103290052 METAR KATL 290052Z 30010KT 10SM FEW035 FEW120 BKN220 OVC250 15/04 A3007 RMK AO2 SLP179 T01500039=
202103282352 METAR KATL 282352Z 32015G27KT 10SM FEW035 SCT095 SCT120 BKN190 OVC250 16/03 A3005 RMK AO2 PK WND 31029/2325 SLP170 VIRGA E-S AND W 60000 T01610033 10200 20161 51023=
202103282252 METAR KATL 282252Z 30014G24KT 10SM FEW034 SCT095 SCT120 BKN170 OVC250 17/09 A3003 RMK AO2 PK WND 30026/2157 SLP163 VIRGA OHD-E-SW T01670089=
202103282152 METAR KATL 282152Z 30017G25KT 10SM SCT027 SCT036 SCT150 BKN200 OVC250 18/11 A3000 RMK AO2 PK WND 28027/2130 SLP151 T01780106=
202103282052 METAR KATL 282052Z 29012KT 10SM SCT027 BKN150 OVC200 18/12 A2997 RMK AO2 SLP144 60000 T01780122 53007=
202103282029 SPECI KATL 282029Z 29017G22KT 10SM SCT019 OVC028 18/13 A2998 RMK AO2 T01780128=
202103281952 METAR KATL 281952Z 29015G26KT 10SM BKN014 OVC030 17/14 A2997 RMK AO2 PK WND 33027/1927 RAB10E21 SLP142 P0000 T01720139=
202103281942 SPECI KATL 281942Z 30016G26KT 10SM OVC013 17/14 A2996 RMK AO2 PK WND 33027/1927 RAB10E21 P0000 T01720139=
202103281852 METAR KATL 281852Z 29011G19KT 10SM BKN017 OVC022 20/17 A2993 RMK AO2 SLP129 T02000167=
202103281822 SPECI KATL 281822Z 27010KT 10SM BKN018 OVC140 19/17 A2993 RMK AO2 T01940167=
202103281752 METAR KATL 281752Z 24006G16KT 10SM FEW012 BKN140 OVC250 19/17 A2995 RMK AO2 SLP135 CB DSNT E MOV SE 60006 T01940167 10222 20189 58001=
202103281652 METAR KATL 281652Z 23007KT 10SM FEW025 SCT060 BKN100 OVC250 19/17 A2996 RMK AO2 WSHFT 1607 LTG DSNT SE RAE31 SLP137 CB DSNT SE MOV SE P0006 T01940172=
202103281624 SPECI KATL 281624Z 18010G19KT 8SM -RA FEW025 SCT070 OVC085 20/17 A2993 RMK AO2 WSHFT 1607 LTG DSNT S CB DSNT S MOV SE P0006 T02000172=
202103281552 METAR KATL 281552Z 24012G21KT 7SM -RA FEW020 BKN080 OVC095 21/18 A2997 RMK AO2 PK WND 24029/1502 LTG DSNT SW RAB32 SLP142 CB DSNT SW MOV SE P0000 T02110178=
202103281452 METAR KATL 281452Z 22011G22KT 10SM BKN017 BKN120 22/18 A2995 RMK AO2 LTG DSNT N AND NW SLP135 CB DSNT NW-N MOV SE T02170178 50005=
202103281442 SPECI KATL 281442Z 22014G23KT 10SM BKN015 BKN021 21/18 A2994 RMK AO2 LTG DSNT N CB DSNT N T02110178=
202103281352 METAR KATL 281352Z 23009G18KT 10SM OVC011 20/17 A2996 RMK AO2 SLP139 T02000167=
202103281252 METAR KATL 281252Z 23009G19KT 10SM OVC013 20/16 A2996 RMK AO2 SLP138 T02000161=
202103281156 SPECI KATL 281156Z 21011KT 10SM BKN014 BKN100 BKN250 19/15 A2994 RMK AO2 BKN014 V SCT T01940150=
202103281152 METAR KATL 281152Z 20012KT 10SM BKN016 BKN080 BKN250 19/14 A2994 RMK AO2 SLP129 BKN016 V SCT T01940144 10228 20189 58005=
202103281052 METAR KATL 281052Z 22008KT 10SM FEW070 FEW085 BKN250 19/14 A2995 RMK AO2 SLP132 T01940139=
202103280952 METAR KATL 280952Z 23010KT 10SM FEW070 BKN110 BKN250 21/12 A2996 RMK AO2 SLP134 T02060122=
202103280852 METAR KATL 280852Z 21008KT 10SM SCT100 BKN250 21/13 A2995 RMK AO2 SLP134 T02110128 58013=
202103280752 METAR KATL 280752Z 20009G18KT 10SM FEW080 SCT095 OVC250 22/13 A2997 RMK AO2 SLP140 T02170128=
202103280652 METAR KATL 280652Z 21009KT 10SM BKN080 OVC250 22/12 A2999 RMK AO2 SLP145 T02220122=
202103280552 METAR KATL 280552Z 21009KT 10SM FEW100 OVC250 23/13 A2999 RMK AO2 SLP146 T02280133 10256 20222 56008=
202103280452 METAR KATL 280452Z 21008G20KT 10SM OVC250 23/16 A3000 RMK AO2 SLP149 T02280161 402780178=
202103280352 METAR KATL 280352Z 20007KT 10SM FEW200 BKN250 22/18 A3001 RMK AO2 SLP152 T02220178=
202103280252 METAR KATL 280252Z 20009KT 10SM FEW200 BKN250 23/18 A3002 RMK AO2 SLP157 T02330178 58005=
202103280152 METAR KATL 280152Z 18007KT 10SM SCT200 BKN250 24/18 A3003 RMK AO2 SLP160 T02390178=
202103280052 METAR KATL 280052Z 20005KT 10SM FEW045 FEW100 SCT200 BKN250 24/17 A3004 RMK AO2 SLP164 T02440167=
202103272352 METAR KATL 272352Z 20005KT 10SM FEW050 FEW100 SCT200 BKN250 26/17 A3003 RMK AO2 RAB2256E23 SLP162 P0000 60000 T02560172 10278 20256 56007=
202103272252 METAR KATL 272252Z 23005KT 10SM FEW035 SCT050 SCT100 BKN150 BKN250 27/17 A3004 RMK AO2 SLP164 MDT CU E-S T02670172=
202103272152 METAR KATL 272152Z 23007KT 10SM FEW050 FEW080 27/17 A3004 RMK AO2 SLP166 T02670172=
202103272052 METAR KATL 272052Z 22012G21KT 10SM SCT049 BKN100 OVC250 27/16 A3006 RMK AO2 SLP170 TCU DSNT SW T02720161 56021=
202103271952 METAR KATL 271952Z 23014G21KT 10SM SCT042 SCT055 BKN250 28/17 A3008 RMK AO2 SLP175 MDT CU ALQDS T02780167=
202103271852 METAR KATL 271852Z 20014G18KT 10SM SCT039TCU BKN048 BKN250 27/17 A3009 RMK AO2 SLP181 TCU SE-S T02720172=
202103271752 METAR KATL 271752Z 22011G19KT 10SM BKN038 BKN050 BKN250 27/17 A3012 RMK AO2 SLP192 T02720172 10272 20189 58011=
202103271652 METAR KATL 271652Z 25011G20KT 10SM SCT030 BKN250 26/18 A3014 RMK AO2 SLP197 T02560178=
202103271552 METAR KATL 271552Z 24008KT 10SM FEW018 SCT032 BKN095 24/18 A3015 RMK AO2 SLP204 T02390183=
202103271541 SPECI KATL 271541Z 23009KT 10SM SCT012 BKN022 BKN095 23/19 A3016 RMK AO2 T02330189=
202103271452 METAR KATL 271452Z 21006KT 10SM BKN010 OVC017 22/19 A3015 RMK AO2 SLP205 T02170189 53006=
202103271352 METAR KATL 271352Z 21008KT 3SM BR OVC005 21/19 A3014 RMK AO2 SFC VIS 6 SLP201 T02060189=
202103271349 SPECI KATL 271349Z 22008KT 3SM BR OVC005 21/19 A3014 RMK AO2 SFC VIS 6=
202103271252 METAR KATL 271252Z 19007KT 1/4SM R09R/P6000FT BR BKN003 OVC017 19/18 A3013 RMK AO2 SFC VIS 3 SLP197 VIS SE-SW 2 TWRINC T01940183=
202103271209 SPECI KATL 271209Z 17006KT 1/4SM R09R/P6000FT BR BKN003 OVC017 19/18 A3013 RMK AO2 SFC VIS 3 TWRINC T01890178=
202103271152 METAR KATL 271152Z 19006KT 4SM BR BKN004 OVC023 19/18 A3014 RMK AO2 SLP199 T01890178 10189 20178 51005=
202103271123 SPECI KATL 271123Z 18004KT 5SM BR BKN004 OVC025 19/17 A3013 RMK AO2 T01890172=
202103271052 METAR KATL 271052Z 19004KT 5SM BR FEW005 SCT014 OVC024 18/17 A3013 RMK AO2 SLP198 T01830172=
202103270952 METAR KATL 270952Z 20004KT 9SM FEW008 BKN022 BKN030 18/17 A3013 RMK AO2 SLP195 T01830167=
202103270940 SPECI KATL 270940Z 20004KT 10SM FEW008 BKN022 BKN046 18/17 A3013 RMK AO2 T01830167=
202103270852 METAR KATL 270852Z 19003KT 10SM BKN023 BKN046 BKN100 18/16 A3012 RMK AO2 SLP192 T01780161 57002=
202103270752 METAR KATL 270752Z 00000KT 10SM BKN025 BKN055 18/16 A3012 RMK AO2 SLP192 BKN025 V SCT T01830156=
202103270716 SPECI KATL 270716Z 00000KT 10SM SCT027 BKN036 BKN065 18/16 A3012 RMK AO2 T01830156=
202103270652 METAR KATL 270652Z 19003KT 10SM BKN025 BKN060 18/15 A3013 RMK AO2 SLP195 T01830150=
202103270644 SPECI KATL 270644Z 00000KT 10SM BKN025 BKN060 18/15 A3013 RMK AO2 T01830150=
202103270552 METAR KATL 270552Z 19003KT 10SM FEW038 SCT050 BKN095 18/15 A3013 RMK AO2 SLP196 T01830150 10222 20183 58005=
202103270452 METAR KATL 270452Z 00000KT 10SM FEW045 BKN060 BKN250 19/15 A3014 RMK AO2 SLP200 T01890150 402440178=
202103270352 METAR KATL 270352Z 20004KT 10SM BKN047 OVC060 19/16 A3015 RMK AO2 SLP202 T01940156=
202103270252 METAR KATL 270252Z 19004KT 10SM BKN050 BKN070 BKN250 19/16 A3014 RMK AO2 SLP201 T01940161 53012=
202103270152 METAR KATL 270152Z 20003KT 10SM SCT045 BKN120 BKN250 19/16 A3013 RMK AO2 SLP197 T01940161=
202103270052 METAR KATL 270052Z 20003KT 10SM FEW045 SCT060 BKN110 BKN250 20/16 A3011 RMK AO2 SLP191 T02000156=
202103262352 METAR KATL 262352Z 22004KT 10SM SCT046 BKN060 BKN250 22/14 A3011 RMK AO2 SLP189 TCU DSNT SW T02220139 10244 20222 53010=
202103262252 METAR KATL 262252Z 22004KT 10SM SCT048 BKN060 BKN200 23/13 A3009 RMK AO2 SLP183 MDT CU NW-NE T02280133=
202103262152 METAR KATL 262152Z 24004KT 10SM BKN048 BKN060 BKN200 23/12 A3008 RMK AO2 SLP179 MDT CU OHD-ALQDS T02330117=
202103262052 METAR KATL 262052Z 17005KT 10SM SCT050 BKN060 BKN200 24/12 A3008 RMK AO2 SLP177 MDT CU ALQDS T02390122 56009=
202103261952 METAR KATL 261952Z 31005KT 10SM FEW036 BKN048 BKN065 BKN200 24/12 A3008 RMK AO2 SLP177 MDT CU NE-SE T02440122=
202103261852 METAR KATL 261852Z 00000KT 10SM FEW032 BKN048 OVC065 23/12 A3009 RMK AO2 SLP181 MDT CU ALQDS BINOVC T02330117=
202103261752 METAR KATL 261752Z VRB04KT 10SM BKN046 OVC060 22/12 A3010 RMK AO2 SLP187 60000 T02220122 10228 20178 53006=
202103261652 METAR KATL 261652Z 31003KT 10SM OVC045 22/12 A3009 RMK AO2 SLP184 BINOVC T02170122=
202103261552 METAR KATL 261552Z 30004KT 10SM SCT040 BKN050 BKN200 21/15 A3009 RMK AO2 SLP180 T02060150=
202103261452 METAR KATL 261452Z 00000KT 10SM OVC041 19/14 A3009 RMK AO2 RAE12 SLP180 P0000 60000 T01940144 51035=
202103261352 METAR KATL 261352Z 30003KT 10SM -RA OVC042 18/14 A3005 RMK AO2 RAB49 SLP170 PCPN VRY LGT P0000 T01830144=
202103261252 METAR KATL 261252Z 30005KT 10SM FEW025 SCT035 OVC045 18/15 A3004 RMK AO2 SLP165 T01780150=
202103261152 METAR KATL 261152Z 32007KT 10SM BKN038 BKN045 OVC075 18/16 A2998 RMK AO2 LTG DSNT SE AND S SLP145 CB DSNT SE-SW 60061 70115 T01830156 10211 20183 53017=
202103261104 SPECI KATL 261104Z 32006KT 10SM FEW009 SCT027 OVC035 18/16 A2998 RMK AO2 LTG DSNT NE-S CB DSNT NE-SW T01830156=
202103261052 METAR KATL 261052Z 33007KT 10SM FEW009 SCT024 OVC029 18/16 A2997 RMK AO2 LTG DSNT E-SW RAB17E42 SLP142 CB DSNT E-SW P0006 T01830161=
202103261041 SPECI KATL 261041Z 33007KT 10SM -RA SCT007 BKN026 OVC033 18/16 A2998 RMK AO2 LTG DSNT E-S RAB17 CB DSNT SE-SW P0006 T01830161=
202103260952 METAR KATL 260952Z 30007KT 7SM BKN007 OVC050 20/19 A2993 RMK AO2 LTG DSNT S AND SW RAE05B27E45 SLP126 CB DSNT S AND SW P0000 T02000189 $=
202103260943 SPECI KATL 260943Z 26005KT 8SM -RA BKN008 OVC048 20/19 A2995 RMK AO2 LTG DSNT S AND SW RAE05B27 CB DSNT S AND SW P0000 T02000189 $=
202103260852 METAR KATL 260852Z 23008KT 7SM -RA FEW005 FEW025 OVC042 20/19 A2993 RMK AO2 SLP126 P0019 60055 T02000189 58002 $=
202103260850 SPECI KATL 260850Z 24007KT 7SM -RA FEW005 FEW025 OVC042 20/19 A2993 RMK AO2 P0018 $=
202103260802 SPECI KATL 260802Z 26008KT 3SM -RA BR SCT023 BKN040 OVC050 20/18 A2993 RMK AO2 P0005 T02000183 $=
202103260752 METAR KATL 260752Z 24010G21KT 2 1/2SM VCTS -RA BR SCT025CB BKN035 OVC045 20/18 A2994 RMK AO2 WSHFT 0643 SLP130 TSE18 OCNL LTGICCC VC OHD-S-W TS VC OHD-S-W MOV NE P0033 T02000183 $=
202103260749 SPECI KATL 260749Z 24013G21KT 3SM VCTS -RA BR SCT025CB OVC040 20/18 A2994 RMK AO2 WSHFT 0643 TSE18 OCNL LTGICCC VC SW TS VC SW MOV NE P0029 $=
202103260742 SPECI KATL 260742Z 25008KT 9SM -RA SCT025 BKN035 OVC050 20/18 A2993 RMK AO2 WSHFT 0643 LTG DSNT SW AND W TSE18 CB DSNT SW P0027 T02000178 $=
202103260719 SPECI KATL 260719Z 27012G22KT 6SM -RA BR SCT008 BKN025 OVC035 20/18 A2993 RMK AO2 WSHFT 0643 LTG DSNT NE AND E TSE18 TS MOV NE CB DSNT NE AND E P0023 T02000178 $=
202103260703 SPECI KATL 260703Z 29011KT 2 1/2SM TSRA BR FEW006 BKN016CB OVC025 20/19 A2993 RMK AO2 WSHFT 0643 VIS 2V5 OCNL LTGICCC OHD-NE TS OHD-NE MOV NE P0014 T02000189 $=
202103260652 METAR KATL 260652Z 31013G23KT 2SM TSRA BR SCT006 BKN016CB OVC033 21/19 A2993 RMK AO2 SLP128 RAE0553B32 TSB25 FRQ LTGICCCCG OHD-N-NE TS OHD-N-NE MOV NE P0003 T02060189 $=
202103260634 SPECI KATL 260634Z 19012G17KT 9SM -TSRA FEW009 BKN028CB OVC050 21/19 A2989 RMK AO2 RAE0553 TSB25 FRQ LTGICCCCG W-N TS W-N MOV NE P0000 T02110194=
202103260625 SPECI KATL 260625Z 19009KT 10SM TS FEW009 BKN028 OVC043 21/19 A2990 RMK AO2 LTG DSNT W-NE RAE0553 TSE23B25 P0000 T02110194=
202103260552 METAR KATL 260552Z 22007KT 10SM -RA FEW009 BKN023 OVC040 21/19 A2992 RMK AO2 TSE27 SLP123 LTG DSNT W-N CB DSNT W-N P0006 60051 T02110194 10250 20206 53003=
202103260536 SPECI KATL 260536Z 21010KT 5SM -RA BR SCT009 BKN023 OVC029 21/19 A2991 RMK AO2 LTG DSNT NW-NE TSE27 PRESFR TS MOV NE CB DSNT NW-NE P0006 T02110194=
202103260528 SPECI KATL 260528Z 24006KT 7SM -RA SCT012 BKN025 OVC050 21/19 A2992 RMK AO2 LTG DSNT NE AND NW TSE27 TS MOV NE CB DSNT NE AND NW P0003 T02060194=
202103260452 METAR KATL 260452Z 23009G17KT 4SM -TSRA BR FEW006 SCT025CB BKN050 OVC150 21/19 A2992 RMK AO2 PK WND 18031/0400 PRESRR SLP124 FRQ LTGICCGCA NE-SE W-N TS NE-SE W-N MOV NE P0045 T02110194 402500167=
202103260440 SPECI KATL 260440Z 22012G25KT 5SM -TSRA BR SCT020CB BKN040 BKN100 OVC150 21/19 A2990 RMK AO2 PK WND 18031/0400 FRQ LTGICCGCA NE-SE-SW NW-N TS NE-SE-SW NW-N MOV NE P0042 T02060189=
202103260424 SPECI KATL 260424Z 20014G23KT 1 1/2SM R09R/5000VP6000FT +TSRA BR SCT028CB BKN045 OVC100 22/19 A2992 RMK AO2 PK WND 18031/0400 CONS LTGICCGCA OHD-ALQDS TS OHD-ALQDS MOV NE P0010 T02170194=
202103260352 METAR KATL 260352Z 19016G27KT 10SM -TSRA SCT028CB BKN040 BKN120 OVC200 24/18 A2990 RMK AO2 PK WND 19028/0328 RAB51 TSB51 SLP117 FRQ LTGICCGCA SW-W TS SW-W MOV NE P0000 T02390178=
202103260252 METAR KATL 260252Z 21014G25KT 10SM BKN032 BKN045 BKN110 OVC200 24/17 A2991 RMK AO2 PK WND 19030/0159 RAB10E36 SLP121 TSE05 P0000 60000 T02440172 53014=
202103260206 SPECI KATL 260206Z 21017G30KT 10SM FEW030 BKN050 BKN110 OVC200 24/16 A2991 RMK AO2 PK WND 19030/0159 TSE05 LTG DSNT NE TS MOV NE T02440161=
202103260152 METAR KATL 260152Z 20020G37KT 9SM VCTS FEW030CB SCT045 BKN060 OVC200 24/16 A2989 RMK AO2 PK WND 20037/0144 SLP114 TSB14 OCNL LTGICCG VC N-NE TS VC N-NE MOV NE T02440161=
202103260116 SPECI KATL 260116Z 17014G23KT 10SM VCTS FEW030CB SCT080 BKN110 OVC150 24/16 A2986 RMK AO2 TSB14 OCNL LTGIC VC SW-NW TS VC SW-NW MOV NE T02440161=
202103260052 METAR KATL 260052Z 18011KT 10SM FEW030 SCT070 BKN110 OVC150 24/16 A2988 RMK AO2 LTG DSNT W AND NW SLP111 CB DSNT SW-NW T02440161=
202103252352 METAR KATL 252352Z 17011KT 10SM FEW055 SCT090 BKN120 OVC200 24/17 A2987 RMK AO2 SLP108 60000 T02440167 10250 20228 55007=
202103252252 METAR KATL 252252Z 17010G18KT 10SM FEW035 BKN070 BKN090 OVC150 24/17 A2987 RMK AO2 SLP107 T02440167=
202103252152 METAR KATL 252152Z 18009KT 10SM FEW038 SCT070 BKN120 OVC200 24/17 A2988 RMK AO2 SLP110 T02440167=
202103252052 METAR KATL 252052Z 18010KT 10SM FEW038 BKN070 BKN110 OVC200 25/17 A2989 RMK AO2 LTG DSNT NW RAB28E37 SLP114 CB DSNT NW ACC OHD-ALQDS P0000 60000 T02500167 56017=
202103251952 METAR KATL 251952Z 19011KT 9SM FEW046 SCT090 SCT140 OVC200 25/17 A2990 RMK AO2 SLP116 T02500172=
202103251852 METAR KATL 251852Z 20014G23KT 9SM SCT040 BKN060 BKN140 OVC200 24/17 A2992 RMK AO2 SLP125 T02390167=
202103251752 METAR KATL 251752Z 19012G27KT 9SM BKN035 OVC042 23/16 A2994 RMK AO2 PK WND 19033/1720 LTG DSNT N AND NE SLP132 CB DSNT N-NE BINOVC 60003 T02280161 10233 20167 55003=
202103251652 METAR KATL 251652Z 19016G29KT 10SM SCT030 BKN055 BKN090 BKN200 23/16 A2992 RMK AO2 PK WND 16032/1641 SLP124 T02330156=
202103251552 METAR KATL 251552Z 17016G24KT 10SM BKN030 BKN060 BKN140 BKN200 21/15 A2993 RMK AO2 RAB1458E17 SLP128 MDT CU NE-SE-SW P0000 T02060150=
202103251452 METAR KATL 251452Z 15011KT 10SM BKN030 BKN042 BKN065 BKN200 18/16 A2995 RMK AO2 RAE19 SLP136 MDT CU ALQDS P0000 60003 T01830156 58012=
202103251442 SPECI KATL 251442Z 14010KT 10SM BKN028 OVC038 18/15 A2995 RMK AO2 RAE19 P0000 T01780150=
202103251352 METAR KATL 251352Z 13010KT 10SM -RA FEW009 BKN037 OVC060 17/15 A2996 RMK AO2 RAE33B51 SLP140 MDT CU OHD-ALQDS P0002 T01720150=
202103251348 SPECI KATL 251348Z 14010KT 10SM FEW001 FEW012 BKN040 OVC140 17/15 A2997 RMK AO2 RAE33 FU FEW001 FU PLUME SE P0002=
202103251252 METAR KATL 251252Z 14007KT 9SM -RA FEW007 BKN055 BKN070 BKN250 17/15 A2998 RMK AO2 RAE01B19 SLP145 P0001 T01670150=
202103251152 METAR KATL 251152Z 14010KT 9SM -RA FEW007 BKN075 BKN110 BKN250 17/15 A2999 RMK AO2 SLP148 P0010 60017 70017 T01670150 10178 20167 50009=
202103251052 METAR KATL 251052Z 11005KT 6SM -RA BR BKN075 BKN090 OVC250 17/15 A2999 RMK AO2 RAB0953 SLP148 P0005 T01670150=
202103250952 METAR KATL 250952Z 11006KT 10SM SCT048 BKN100 BKN250 17/15 A2997 RMK AO2 RAE43 SLP142 P0002 T01670150=
202103250852 METAR KATL 250852Z 11008KT 10SM -RA FEW042 BKN055 OVC085 17/15 A2996 RMK AO2 RAB34 PRESFR SLP138 BINOVC P0000 60000 T01720150 58016=
202103250752 METAR KATL 250752Z 17005KT 10SM FEW050 BKN070 OVC250 18/14 A2999 RMK AO2 SLP148 BINOVC T01780144=
202103250652 METAR KATL 250652Z 17005KT 10SM BKN055 OVC070 17/15 A2999 RMK AO2 SLP149 T01720150=
202103250552 METAR KATL 250552Z 17008KT 10SM FEW150 SCT200 OVC250 17/15 A3000 RMK AO2 SLP154 T01720150 10211 20172 58011=
202103250452 METAR KATL 250452Z 19007KT 10SM FEW150 SCT200 BKN250 17/14 A3003 RMK AO2 SLP163 T01720144 402390156=
202103250352 METAR KATL 250352Z 15003KT 10SM FEW150 BKN200 BKN250 18/14 A3003 RMK AO2 SLP162 T01780139=
202103250252 METAR KATL 250252Z 17004KT 10SM FEW040 BKN200 BKN250 18/14 A3004 RMK AO2 SLP166 T01830139 53016=
202103250152 METAR KATL 250152Z 14003KT 10SM BKN200 BKN250 19/13 A3001 RMK AO2 SLP158 T01940133=
202103250052 METAR KATL 250052Z 16004KT 10SM SCT200 BKN250 20/13 A3001 RMK AO2 SLP156 T02000128=
202103242352 METAR KATL 242352Z 16005KT 10SM SCT200 BKN250 21/13 A2999 RMK AO2 SLP150 T02110128 10239 20211 53005=
202103242252 METAR KATL 242252Z 19008KT 10SM FEW045 SCT200 BKN250 23/12 A2998 RMK AO2 SLP146 T02280122=
202103242152 METAR KATL 242152Z 17010KT 10SM SCT045 BKN200 BKN250 24/12 A2997 RMK AO2 SLP143 T02390122=
202103242052 METAR KATL 242052Z 20009KT 10SM FEW040 SCT200 BKN250 24/13 A2997 RMK AO2 SLP143 T02390128 55008=
202103241952 METAR KATL 241952Z 14005KT 10SM FEW034 BKN200 23/13 A2997 RMK AO2 SLP142 T02280133=
202103241852 METAR KATL 241852Z 19010G18KT 10SM SCT032 BKN200 22/13 A2998 RMK AO2 SLP146 T02220133=
202103241752 METAR KATL 241752Z 17008KT 10SM SCT030 BKN250 22/13 A3000 RMK AO2 SLP151 T02170133 10217 20161 58002=
202103241710 SPECI KATL 241710Z 20006KT 10SM SCT026 OVC032 21/13 A3001 RMK AO2 BINOVC T02060133=
202103241652 METAR KATL 241652Z 15007KT 10SM BKN028 OVC034 20/13 A3001 RMK AO2 SLP156 T02000133=
202103241634 SPECI KATL 241634Z 17008KT 10SM BKN025 BKN033 OVC200 19/13 A3001 RMK AO2 T01940133=
202103241552 METAR KATL 241552Z 13004KT 10SM FEW022 BKN200 19/14 A3001 RMK AO2 SLP158 T01940139=
202103241452 METAR KATL 241452Z 09006KT 10SM FEW036 BKN200 18/14 A3000 RMK AO2 SLP155 T01780139 50011=
202103241352 METAR KATL 241352Z 11007KT 10SM OVC036 17/13 A3001 RMK AO2 SLP157 T01670133=
202103241252 METAR KATL 241252Z 10007KT 10SM BKN032 BKN042 OVC250 16/13 A3000 RMK AO2 SLP153 T01610128=
202103241220 SPECI KATL 241220Z 07007KT 10SM FEW015 SCT030 BKN042 OVC250 16/13 A2998 RMK AO2 PRESRR T01610128=
202103241152 METAR KATL 241152Z 06008KT 10SM SCT015 BKN029 BKN043 BKN150 OVC250 16/12 A2997 RMK AO2 SLP144 T01610122 10167 20156 53010=
202103241052 METAR KATL 241052Z 05005KT 10SM BKN016 OVC030 16/13 A2996 RMK AO2 SLP139 T01610128=
202103241004 SPECI KATL 241004Z 00000KT 10SM BKN020 BKN031 BKN045 OVC250 17/13 A2996 RMK AO2 PRESRR BINOVC T01670128=
202103240952 METAR KATL 240952Z 00000KT 10SM FEW024 BKN033 BKN047 OVC250 16/12 A2995 RMK AO2 SLP136 BINOVC T01610122=
202103240852 METAR KATL 240852Z 00000KT 10SM FEW038 BKN140 BKN160 OVC250 16/12 A2994 RMK AO2 SLP132 BINOVC T01610122 50010=
202103240752 METAR KATL 240752Z 30005KT 10SM FEW040 BKN150 BKN180 OVC250 16/12 A2997 RMK AO2 PRESRR SLP144 T01560122=
202103240652 METAR KATL 240652Z 23006KT 10SM FEW030 SCT100 SCT150 OVC250 16/12 A2994 RMK AO2 PK WND 14031/0601 SLP133 VIRGA ALQDS T01610122=
202103240552 METAR KATL 240552Z 14019G30KT 10SM SCT070 BKN110 17/12 A2991 RMK AO2 PK WND 14030/0544 RAE19 SLP121 VIRGA OHD-NE P0000 60000 T01670122 10194 20161 58037=
202103240452 METAR KATL 240452Z 15014G23KT 10SM -RA FEW080 BKN120 OVC150 17/12 A2995 RMK AO2 PK WND 14032/0437 RAE06B47 SLP136 PCPN VRY LGT P0000 T01670117 402060133=
202103240352 METAR KATL 240352Z 18003KT 10SM -RA FEW050 SCT080 BKN110 OVC150 17/12 A3001 RMK AO2 RAB33 SLP157 P0000 T01670117=
202103240252 METAR KATL 240252Z 19004KT 10SM BKN120 OVC200 17/11 A3002 RMK AO2 SLP162 T01720106 53006=
202103240152 METAR KATL 240152Z 00000KT 8SM FEW060 BKN130 OVC200 18/10 A3000 RMK AO2 SLP154 T01830100=
202103240052 METAR KATL 240052Z 00000KT 10SM FEW080 BKN110 OVC150 19/09 A3001 RMK AO2 SLP158 T01940094=
202103232352 METAR KATL 232352Z 10004KT 10SM FEW085 BKN110 OVC150 19/09 A3000 RMK AO2 SLP155 T01890094 10206 20189 53004=
202103232252 METAR KATL 232252Z 10006KT 10SM SCT085 BKN110 OVC150 19/09 A2998 RMK AO2 SLP150 VIRGA SW-NW T01940094=
202103232152 METAR KATL 232152Z 13003KT 10SM FEW090 BKN120 OVC200 20/09 A2998 RMK AO2 SLP148 VIRGA OHD-ALQDS T02000089=
202103232052 METAR KATL 232052Z 12007KT 10SM FEW055 FEW085 BKN130 OVC200 20/09 A2999 RMK AO2 SLP151 VIRGA OHD-ALQDS T02000094 56022=
202103231952 METAR KATL 231952Z 11008KT 10SM FEW055 FEW095 BKN150 OVC200 20/09 A3000 RMK AO2 SLP155 VIRGA OHD-ALQDS T02000089=
202103231852 METAR KATL 231852Z 11007KT 10SM FEW055 FEW100 BKN140 BKN200 21/09 A3002 RMK AO2 SLP162 VIRGA SW-NW-NE T02060094=
202103231752 METAR KATL 231752Z 13011G16KT 10SM FEW045 FEW085 BKN130 OVC200 19/09 A3005 RMK AO2 SLP173 VIRGA ALQDS T01940089 10194 20133 58020=
202103231652 METAR KATL 231652Z 11008KT 10SM FEW085 BKN130 OVC200 18/09 A3009 RMK AO2 SLP186 VIRGA OHD-ALQDS T01830089=
202103231552 METAR KATL 231552Z 11011KT 10SM SCT140 BKN180 OVC250 17/08 A3008 RMK AO2 SLP184 VIRGA ALQDS T01720083=
202103231452 METAR KATL 231452Z VRB06KT 10SM SCT140 BKN180 OVC250 16/08 A3012 RMK AO2 SLP195 VIRGA ALQDS T01560078 53010=
202103231352 METAR KATL 231352Z 10012KT 10SM SCT140 BKN180 BKN250 14/08 A3009 RMK AO2 SLP188 VIRGA ALQDS T01440078=
202103231252 METAR KATL 231252Z 12008KT 10SM SCT140 BKN180 BKN220 13/07 A3009 RMK AO2 SLP188 VIRGA ALQDS T01330072=
202103231152 METAR KATL 231152Z 10010G18KT 10SM BKN150 OVC200 13/08 A3009 RMK AO2 SLP185 VIRGA OHD-ALQDS T01330078 10150 20133 50005=
202103231052 METAR KATL 231052Z 10010KT 10SM BKN150 BKN250 13/08 A3009 RMK AO2 SLP186 T01330078=
202103230952 METAR KATL 230952Z 09007KT 10SM FEW180 BKN250 13/08 A3008 RMK AO2 SLP183 T01330078=
202103230852 METAR KATL 230852Z 09010KT 10SM SCT180 BKN250 13/07 A3007 RMK AO2 SLP178 T01330072 57006=
202103230752 METAR KATL 230752Z 09008KT 10SM SCT180 BKN250 13/07 A3007 RMK AO2 SLP179 T01330067=
202103230652 METAR KATL 230652Z 09008KT 10SM SCT180 BKN250 13/07 A3008 RMK AO2 SLP183 T01330067=
202103230552 METAR KATL 230552Z 10007KT 10SM SCT180 BKN250 14/06 A3009 RMK AO2 SLP184 T01440061 10189 20144 53002=
202103230452 METAR KATL 230452Z 09006KT 9SM BKN200 BKN250 15/07 A3008 RMK AO2 SLP182 T01500067 402170111=
202103230352 METAR KATL 230352Z 09007KT 10SM BKN200 BKN250 15/06 A3008 RMK AO2 SLP182 T01500061=
202103230252 METAR KATL 230252Z 09010KT 10SM BKN200 BKN250 16/06 A3008 RMK AO2 SLP183 T01610061 53007=
202103230152 METAR KATL 230152Z 10006KT 10SM FEW200 BKN250 16/06 A3007 RMK AO2 SLP182 T01610056=
202103230052 METAR KATL 230052Z 09008KT 10SM SCT200 BKN250 17/06 A3006 RMK AO2 SLP178 T01670056=
202103222352 METAR KATL 222352Z 10007G19KT 10SM FEW200 BKN250 19/05 A3006 RMK AO2 SLP176 T01890050 10217 20183 55001=
202103222252 METAR KATL 222252Z 08009KT 10SM BKN250 21/05 A3005 RMK AO2 SLP171 T02060050=
202103222152 METAR KATL 222152Z 09013KT 10SM FEW070 SCT250 21/05 A3004 RMK AO2 SLP170 T02110050=
202103222052 METAR KATL 222052Z VRB05G15KT 10SM FEW070 SCT200 BKN250 22/06 A3006 RMK AO2 SLP176 T02170056 56029=
202103221952 METAR KATL 221952Z 11006G18KT 10SM FEW070 BKN200 BKN250 22/06 A3008 RMK AO2 SLP184 T02170061=
202103221852 METAR KATL 221852Z 09008KT 10SM FEW065 BKN200 BKN250 21/06 A3011 RMK AO2 SLP194 T02060061=
202103221752 METAR KATL 221752Z 09011G18KT 10SM FEW060 SCT200 BKN250 20/07 A3015 RMK AO2 SLP207 T02000067 10206 20111 58026=
202103221652 METAR KATL 221652Z 09007KT 10SM FEW200 SCT250 19/07 A3020 RMK AO2 SLP226 T01890067=
202103221552 METAR KATL 221552Z 09012KT 10SM FEW200 SCT250 18/07 A3023 RMK AO2 SLP234 T01780067=
202103221452 METAR KATL 221452Z 07013KT 10SM FEW040 FEW250 16/06 A3023 RMK AO2 SLP235 T01610061 51005=
202103221352 METAR KATL 221352Z 07017KT 10SM FEW250 14/04 A3022 RMK AO2 SLP233 T01440044=
202103221252 METAR KATL 221252Z 06013KT 10SM FEW250 12/04 A3023 RMK AO2 SLP234 T01220039=
202103221152 METAR KATL 221152Z 06012KT 10SM FEW250 11/03 A3021 RMK AO2 SLP231 T01110033 10117 20111 53007=
202103221052 METAR KATL 221052Z 06010KT 10SM FEW250 11/03 A3021 RMK AO2 SLP227 T01110033=
202103220952 METAR KATL 220952Z 06011KT 10SM CLR 11/03 A3020 RMK AO2 SLP223 T01110033=
202103220852 METAR KATL 220852Z 07009KT 10SM CLR 11/03 A3019 RMK AO2 SLP222 T01110033 58010=
202103220652 METAR KATL 220652Z 08009KT 10SM FEW055 12/03 A3021 RMK AO2 SLP230 T01170033=
202103220552 METAR KATL 220552Z 08009KT 10SM FEW055 12/03 A3022 RMK AO2 SLP234 T01170033 10150 20117 56008=
202103220452 METAR KATL 220452Z 07009KT 10SM FEW065 12/04 A3023 RMK AO2 SLP236 T01220039 401940083=
202103220352 METAR KATL 220352Z 07008KT 10SM FEW065 13/05 A3024 RMK AO2 SLP239 T01280050=
202103220252 METAR KATL 220252Z 05007KT 10SM FEW050 13/06 A3025 RMK AO2 SLP243 T01330056 58002=
202103220152 METAR KATL 220152Z 07006KT 10SM FEW050 13/06 A3025 RMK AO2 SLP244 T01330056=
202103220052 METAR KATL 220052Z 06010KT 10SM SCT050 SCT060 14/07 A3026 RMK AO2 SLP245 T01440067=
202103212352 METAR KATL 212352Z 08013KT 10SM BKN050 BKN060 15/07 A3026 RMK AO2 SLP246 T01500072 10194 20150 53004=
202103212252 METAR KATL 212252Z 06014KT 10SM BKN045 BKN065 17/06 A3025 RMK AO2 SLP244 T01720061=
202103212152 METAR KATL 212152Z 10011KT 10SM BKN048 18/07 A3024 RMK AO2 SLP239 T01780067=
202103212052 METAR KATL 212052Z 08008G17KT 10SM SCT047 BKN085 BKN120 18/07 A3024 RMK AO2 SLP241 T01830067 56014=
202103211952 METAR KATL 211952Z 09014G21KT 10SM SCT043 BKN075 BKN110 18/07 A3025 RMK AO2 SLP243 T01830067=
202103211852 METAR KATL 211852Z 07012G22KT 10SM SCT042 SCT075 BKN110 18/06 A3026 RMK AO2 SLP246 T01830061=
202103211752 METAR KATL 211752Z 05011G21KT 10SM SCT032 BKN050 BKN110 16/05 A3029 RMK AO2 SLP257 T01610050 10167 20083 58014=
202103211652 METAR KATL 211652Z 08013KT 10SM BKN032 BKN044 15/05 A3031 RMK AO2 SLP265 T01500050=
202103211552 METAR KATL 211552Z 07015G21KT 10SM BKN030 BKN055 14/04 A3032 RMK AO2 SLP269 T01390039=
202103211452 METAR KATL 211452Z 06013G21KT 10SM SCT026 BKN050 12/03 A3033 RMK AO2 SLP272 T01220028 53005 $=
202103211415 SPECI KATL 211415Z 07012G23KT 10SM BKN025 BKN050 11/02 A3033 RMK AO2 T01110022 $=
202103211352 METAR KATL 211352Z 07013G22KT 10SM SCT025 BKN055 BKN200 10/02 A3032 RMK AO2 SLP270 T01000022 $=
202103211252 METAR KATL 211252Z 05015G24KT 10SM SCT023 BKN055 10/02 A3032 RMK AO2 SLP267 SCT023 V BKN T01000017=
202103211152 METAR KATL 211152Z 06012KT 10SM OVC023 08/02 A3031 RMK AO2 SLP267 T00830017 10094 20083 51009=
202103211052 METAR KATL 211052Z 07013G20KT 10SM OVC022 08/02 A3031 RMK AO2 SLP264 T00830022=
202103210952 METAR KATL 210952Z 07010KT 10SM OVC025 08/02 A3030 RMK AO2 SLP261 T00830017=
202103210852 METAR KATL 210852Z 09012KT 10SM BKN027 OVC036 09/01 A3029 RMK AO2 SLP257 T00890011 57012=
202103210845 SPECI KATL 210845Z 09011KT 10SM BKN027 OVC037 09/01 A3029 RMK AO2 T00890011=
202103210752 METAR KATL 210752Z 09014KT 10SM SCT029 BKN047 09/01 A3030 RMK AO2 SLP260 T00940006=
202103210652 METAR KATL 210652Z 07011KT 10SM FEW035 BKN050 09/M02 A3031 RMK AO2 SLP266 T00941017=
202103210452 METAR KATL 210452Z 08010KT 10SM FEW035 BKN055 09/M03 A3034 RMK AO2 SLP276 T00891033 401440050=
202103210352 METAR KATL 210352Z 06008KT 10SM FEW060 09/M04 A3035 RMK AO2 SLP280 T00941044=
202103210252 METAR KATL 210252Z 07009KT 10SM FEW075 09/M05 A3035 RMK AO2 SLP280 T00941050 51012=
202103210152 METAR KATL 210152Z 08012KT 10SM FEW080 11/M06 A3034 RMK AO2 SLP276 T01061056=
202103210052 METAR KATL 210052Z 08010KT 10SM FEW080 11/M06 A3032 RMK AO2 SLP272 T01111056=
202103202352 METAR KATL 202352Z 10009KT 10SM CLR 12/M06 A3031 RMK AO2 SLP268 T01171061 10144 20117 53004=
202103202252 METAR KATL 202252Z 07011KT 10SM CLR 13/M07 A3030 RMK AO2 SLP262 T01331072=
202103202152 METAR KATL 202152Z 09012G19KT 10SM CLR 14/M08 A3029 RMK AO2 SLP260 T01441078=
202103202052 METAR KATL 202052Z 07010G19KT 10SM CLR 14/M08 A3030 RMK AO2 SLP262 T01391078 56024=
202103201952 METAR KATL 201952Z 07016G20KT 10SM CLR 13/M08 A3031 RMK AO2 SLP267 T01331083=
202103201852 METAR KATL 201852Z 05006G17KT 10SM CLR 12/M08 A3034 RMK AO2 SLP275 T01221078=
202103201752 METAR KATL 201752Z 06012G21KT 10SM CLR 12/M08 A3037 RMK AO2 SLP286 T01171083 10122 20050 58019=
202103201652 METAR KATL 201652Z 06015G21KT 10SM CLR 11/M08 A3040 RMK AO2 PK WND 08028/1607 SLP295 T01061078=
202103201552 METAR KATL 201552Z 06018G23KT 10SM CLR 10/M07 A3042 RMK AO2 SLP302 T01001067=
202103201452 METAR KATL 201452Z 07020G25KT 10SM CLR 08/M07 A3043 RMK AO2 PK WND 08026/1405 SLP307 T00831067 51013=
202103201352 METAR KATL 201352Z 08020G28KT 10SM CLR 07/M05 A3043 RMK AO2 PK WND 08028/1345 SLP306 T00721050=
202103201252 METAR KATL 201252Z 08017G24KT 10SM CLR 06/M02 A3042 RMK AO2 SLP303 T00561017=
202103201152 METAR KATL 201152Z 08014KT 10SM FEW090 05/M01 A3039 RMK AO2 SLP293 70001 T00501011 10100 20050 53024=
202103201052 METAR KATL 201052Z 07012G22KT 10SM CLR 06/M02 A3036 RMK AO2 SLP284 T00611022=
202103200952 METAR KATL 200952Z 06015KT 10SM FEW085 07/00 A3034 RMK AO2 SLP274 T00670000=
202103200852 METAR KATL 200852Z 08011KT 10SM FEW085 07/01 A3032 RMK AO2 SLP267 T00720006 51010=
202103200752 METAR KATL 200752Z 08017KT 10SM BKN085 09/00 A3030 RMK AO2 SLP261 T00890000=
202103200652 METAR KATL 200652Z 09016G23KT 10SM BKN085 09/00 A3030 RMK AO2 PK WND 08026/0625 SLP261 T00940000=
202103200552 METAR KATL 200552Z 10012G21KT 10SM BKN085 10/02 A3028 RMK AO2 SLP255 60000 T01000017 10133 20100 51022=
202103200452 METAR KATL 200452Z 08014KT 10SM BKN085 11/02 A3027 RMK AO2 PK WND 08026/0410 SLP251 T01110017 401560072=
202103200352 METAR KATL 200352Z 09015KT 10SM FEW070 BKN085 12/02 A3025 RMK AO2 SLP244 T01170017=
202103200252 METAR KATL 200252Z 08019G27KT 10SM FEW040 SCT070 BKN085 12/02 A3022 RMK AO2 PK WND 08027/0252 SLP233 60000 T01170022 51026=
202103200152 METAR KATL 200152Z 08012KT 10SM SCT032 BKN040 OVC060 13/07 A3019 RMK AO2 RAB22E33 SLP225 P0000 T01280067=
202103200052 METAR KATL 200052Z VRB05KT 10SM BKN032 OVC040 13/08 A3016 RMK AO2 RAE2358 SLP215 P0000 T01330083=
202103192352 METAR KATL 192352Z 09012KT 10SM -RA BKN032 OVC040 13/08 A3014 RMK AO2 RAB31 SLP206 P0001 60001 T01330078 10156 20128 53024=
202103192252 METAR KATL 192252Z 36008KT 10SM BKN043 OVC055 15/06 A3010 RMK AO2 SLP193 T01500061=
202103192152 METAR KATL 192152Z VRB04KT 10SM BKN046 BKN055 OVC200 15/06 A3008 RMK AO2 SLP185 T01500056=
202103192052 METAR KATL 192052Z 34010KT 10SM FEW042 BKN050 OVC200 15/06 A3007 RMK AO2 SLP182 T01500056 53005=
202103191952 METAR KATL 191952Z 33007KT 10SM SCT040 BKN048 OVC200 15/06 A3005 RMK AO2 SLP177 T01500056=
202103191852 METAR KATL 191852Z 35008KT 10SM SCT036 OVC042 14/06 A3005 RMK AO2 SLP175 T01440056=
202103191752 METAR KATL 191752Z 35010KT 320V030 10SM FEW026 BKN034 BKN200 14/06 A3005 RMK AO2 SLP176 T01440056 10144 20078 50001=
202103191735 SPECI KATL 191735Z 31011G17KT 10SM SCT030 BKN200 14/06 A3005 RMK AO2 T01390056=
202103191652 METAR KATL 191652Z 32011G19KT 10SM BKN025 BKN200 12/05 A3005 RMK AO2 SLP177 T01220050=
202103191552 METAR KATL 191552Z 35014KT 10SM OVC023 11/04 A3006 RMK AO2 SLP179 BINOVC T01060044=
202103191452 METAR KATL 191452Z 33014KT 10SM OVC020 09/04 A3005 RMK AO2 SLP176 BINOVC T00940044 53025=
202103191352 METAR KATL 191352Z 32011G20KT 10SM SCT018 OVC026 09/04 A3002 RMK AO2 SLP166 BINOVC T00890044=
202103191312 SPECI KATL 191312Z 31017G23KT 10SM SCT018 BKN032 08/04 A3000 RMK AO2 T00830044=
202103191252 METAR KATL 191252Z 30014G21KT 10SM BKN018 BKN030 08/04 A2999 RMK AO2 SLP158 BKN019 V SCT T00830044=
202103191152 METAR KATL 191152Z 29010G19KT 10SM BKN018 BKN026 08/04 A2997 RMK AO2 SLP150 70037 T00780039 10083 20072 53020=
202103191052 METAR KATL 191052Z 30011KT 10SM BKN018 BKN027 08/04 A2995 RMK AO2 SLP142 T00780039=
202103190952 METAR KATL 190952Z 31010KT 10SM BKN018 BKN022 07/03 A2993 RMK AO2 SLP133 T00720033=
202103190917 SPECI KATL 190917Z 30009KT 10SM SCT018 BKN023 07/03 A2992 RMK AO2 T00720033=
202103190852 METAR KATL 190852Z 30012KT 10SM SCT023 07/03 A2991 RMK AO2 SLP127 T00720028 51003=
202103190802 SPECI KATL 190802Z 28011G17KT 10SM FEW023 07/03 A2991 RMK AO2 T00720028=
202103190752 METAR KATL 190752Z 30010KT 10SM BKN023 08/03 A2991 RMK AO2 SLP126 T00780028=
202103190652 METAR KATL 190652Z 31012KT 10SM SCT018 BKN026 08/03 A2991 RMK AO2 PK WND 32027/0627 SLP126 T00830028=
202103190552 METAR KATL 190552Z 31014G22KT 10SM BKN018 BKN027 BKN040 08/03 A2990 RMK AO2 PK WND 29027/0534 SLP123 60000 T00830028 10133 20083 51013=
202103190452 METAR KATL 190452Z 30014G23KT 10SM SCT018 BKN024 OVC040 09/04 A2990 RMK AO2 SLP121 T00890039 402330089=
202103190352 METAR KATL 190352Z 28015G24KT 10SM BKN022 BKN040 BKN055 09/04 A2988 RMK AO2 SLP116 T00940044=
202103190252 METAR KATL 190252Z 27016G23KT 10SM SCT018 BKN025 BKN050 10/05 A2986 RMK AO2 PK WND 30030/0157 RAB04E12 SLP109 P0000 60000 T01000050 53024=
202103190206 SPECI KATL 190206Z 28020G30KT 10SM -RA BKN025 BKN032 BKN050 11/06 A2984 RMK AO2 PK WND 30030/0157 RAB04 P0000 T01060056=
202103190152 METAR KATL 190152Z 28014G25KT 10SM SCT028 BKN035 BKN055 12/06 A2983 RMK AO2 SLP099 T01170056=
202103190052 METAR KATL 190052Z 28012KT 10SM FEW032 SCT040 BKN060 13/05 A2981 RMK AO2 PK WND 30026/0029 SLP090 T01280050=
202103182352 METAR KATL 182352Z 28014G22KT 10SM FEW030 BKN045 OVC070 13/05 A2979 RMK AO2 SLP085 T01330050 10233 20133 51031=
202103182252 METAR KATL 182252Z 28013G23KT 10SM BKN050 BKN070 15/06 A2977 RMK AO2 PK WND 27029/2220 SLP078 T01500056=
202103182152 METAR KATL 182152Z 29022G29KT 10SM SCT050 BKN070 18/07 A2973 RMK AO2 PK WND 27030/2108 SLP061 T01780072=
202103182052 METAR KATL 182052Z 26018G26KT 10SM SCT050 BKN070 21/08 A2969 RMK AO2 PK WND 25031/2016 SLP049 T02060078 55001=
202103181952 METAR KATL 181952Z 25013G21KT 10SM SCT060 21/08 A2967 RMK AO2 PK WND 24030/1911 SLP041 T02110083=
202103181852 METAR KATL 181852Z 24014G34KT 10SM SCT048 BKN060 22/08 A2968 RMK AO2 PK WND 26034/1847 SLP045 T02220078=
202103181752 METAR KATL 181752Z 23014G24KT 10SM FEW050 22/10 A2970 RMK AO2 PK WND 27028/1729 SLP049 60037 T02220100 10222 20178 58008=
202103181652 METAR KATL 181652Z 27018G27KT 10SM FEW030 SCT050 20/11 A2972 RMK AO2 PK WND 28027/1647 SLP059 TCU DSNT NE-E T02000111=
202103181552 METAR KATL 181552Z 25015G22KT 10SM FEW026 BKN032 BKN044 20/14 A2973 RMK AO2 SLP062 T02000139=
202103181539 SPECI KATL 181539Z 25016G24KT 10SM FEW026 SCT032 BKN042 19/14 A2973 RMK AO2 T01940139=
202103181452 METAR KATL 181452Z 24010G18KT 10SM FEW015 SCT024 BKN032 20/16 A2972 RMK AO2 RAE1356 SLP059 P0000 60037 T02000156 53001=
202103181357 SPECI KATL 181357Z 23011KT 10SM FEW006 BKN026TCU BKN034 BKN140 19/17 A2972 RMK AO2 RAE56 TCU E-S P0000 T01890167=
202103181352 METAR KATL 181352Z 24011KT 8SM -RA SCT007 BKN012 OVC026CB 19/17 A2972 RMK AO2 SLP059 CIG 010V014 CB NE MOV NE TCU E-S BINOVC P0025 T01890172=
202103181342 SPECI KATL 181342Z 24009G17KT 3SM RA BR BKN007 BKN016 OVC030CB 19/17 A2972 RMK AO2 CIG 005V009 CB N-E-SE MOV NE P0022 T01890172=
202103181326 SPECI KATL 181326Z 20013G25KT 2SM R09R/4500VP6000FT +RA BR BKN006 BKN014 OVC028CB 19/17 A2971 RMK AO2 CB NE-OHD-SW MOV NE P0012 T01890172=
202103181320 SPECI KATL 181320Z 18013G25KT 3SM -RA BR BKN006 BKN014 OVC028CB 19/17 A2971 RMK AO2 CB N-NE SE-SW MOV NE P0006 T01890172=
202103181314 SPECI KATL 181314Z 18012KT 1 1/2SM +RA BR BKN008 OVC015CB 19/17 A2971 RMK AO2 CB NE-OHD-SW MOV NE P0003 T01890172=
202103181311 SPECI KATL 181311Z 18008KT 7SM -RA BR BKN008 OVC015CB 19/17 A2971 RMK AO2 CB SW-NW MOV NE P0002 T01890172=
202103181252 METAR KATL 181252Z 20009G19KT 6SM -RA BR SCT004 BKN010 OVC015 19/17 A2972 RMK AO2 SLP059 P0012 T01890172=
202103181249 SPECI KATL 181249Z 20010G24KT 5SM -RA SCT004 BKN010 OVC015 19/17 A2972 RMK AO2 RAE39B43 P0012=
202103181247 SPECI KATL 181247Z COR 21010G24KT 5SM -RA BR SCT004 BKN010 OVC015 19/17 A2972 RMK A02 P0012=
202103181242 SPECI KATL 181242Z 21016G24KT 2SM SCT004 BKN010 OVC015 19/17 A2972 RMK AO2 SFC VIS 8 RAE39 P0011 T01890172=
202103181233 SPECI KATL 181233Z 20015G22KT 2SM VCTS -RA BR BKN004CB OVC008 18/17 A2972 RMK AO2 SFC VIS 5 OCNL LTGICCG VC N TS VC N MOV NE P0011 T01830172=
202103181152 METAR KATL 181152Z 18010KT 2SM -RA BR BKN004 OVC008 18/17 A2973 RMK AO2 SFC VIS 5 SLP065 P0002 60015 70031 T01780167 10178 20161 56006=
202103181122 SPECI KATL 181122Z 17007KT 2SM -RA OVC005 17/16 A2974 RMK AO2 SFC VIS 8 CIG 004V006 P0001 T01720161=
202103181052 METAR KATL 181052Z 17005KT 10SM -RA BKN008 OVC012 17/16 A2974 RMK AO2 SLP069 P0003 T01720156=
202103181039 SPECI KATL 181039Z 17007KT 8SM -RA BKN007 OVC014 17/16 A2975 RMK AO2 P0003 T01720156=
202103180952 METAR KATL 180952Z 15010KT 10SM -RA SCT009 BKN018 OVC095 17/16 A2973 RMK AO2 RAE0853B48 PRESFR SLP063 P0000 T01720156=
202103180852 METAR KATL 180852Z 18011G18KT 10SM -RA SCT007 BKN013 OVC050 17/16 A2975 RMK AO2 SLP071 P0002 60010 T01720156 56051=
202103180752 METAR KATL 180752Z 16007KT 7SM -RA FEW005 BKN075 OVC095 17/16 A2981 RMK AO2 PRESFR SLP090 P0005 T01670156=
202103180652 METAR KATL 180652Z 17006KT 10SM -RA FEW005 SCT055 BKN100 17/16 A2985 RMK AO2 SLP107 RAE18B46 TSE15 P0003 T01670156=
202103180622 SPECI KATL 180622Z 17008G15KT 10SM FEW019 SCT060 OVC080 16/16 A2985 RMK AO2 LTG DSNT NE-E RAE18 TSE15 TS MOV NE CB DSNT NE-E P0003 T01610156=
202103180557 SPECI KATL 180557Z 17010G17KT 4SM -TSRA BR SCT004 BKN019 OVC080 16/16 A2990 RMK AO2 LTG DSNT N AND NE P0002 T01610156=
202103180552 METAR KATL 180552Z 17010G17KT 1/2SM R09R/P6000FT -TSRA BR BKN002CB OVC010 16/15 A2991 RMK AO2 SFC VIS 2 1/2 SLP125 RAB40 OCNL LTGIC OHD & ALQDS TS OHD & ALQDS MOV NE P0009 60009 T01610150 10161 20133 55006=
202103180541 SPECI KATL 180541Z VRB06KT 1/2SM R09R/P6000FT -TSRA BR OVC002CB 16/15 A2991 RMK AO2 SFC VIS 2 1/2 LTG DSNT ALQDS PRESRR RAB20 OCNL LTGIC OHD-NE-S TS OHD-NE-S MOV NE CB DSNT N & NE & SW P0005 T01560150=
202103180530 SPECI KATL 180530Z 16006KT 1/2SM R09R/3500VP6000FT VCTS -RA BR VV002 16/15 A2988 RMK AO2 SFC VIS 3/4 LTG DSNT SW-N RAB23 OCNL LTGIC VC S-SW TS VC S-SW MOV NE P0001 T01560150=
202103180452 METAR KATL 180452Z 12007KT 1/2SM R09R/2400V5500FT BR VV002 15/14 A2990 RMK AO2 SFC VIS 3/4 LTG DSNT W SLP123 CB DSNT SW-NW T01500144 401500094=
202103180352 METAR KATL 180352Z 12009KT 1/2SM R09R/2800V3500FT BR VV002 14/14 A2990 RMK AO2 SFC VIS 3/4 SLP122 T01440139=
202103180252 METAR KATL 180252Z 12006KT 1/2SM R09R/3500V4500FT BR OVC002 14/13 A2993 RMK AO2 SFC VIS 1 SLP133 T01390133 51004=
202103180152 METAR KATL 180152Z 11011KT 1/2SM R09R/2200V2800FT FG VV002 14/13 A2992 RMK AO2 PRESFR SLP131 T01390133=
202103180052 METAR KATL 180052Z 11007KT 1/2SM R09R/3000V3500FT BR VV002 14/13 A2994 RMK AO2 SFC VIS 3/4 SLP139 T01390133=
202103172352 METAR KATL 172352Z 11012KT 1/2SM R09R/2600V3500FT FG VV002 13/13 A2991 RMK AO2 RAE04 SLP129 P0000 60003 T01330128 10144 20133 58016=
202103172252 METAR KATL 172252Z 10010KT 1/2SM R09R/2200V2600FT -RA FG VV002 14/13 A2994 RMK AO2 RAE2155B15 SLP136 P0000 T01390133=
202103172152 METAR KATL 172152Z 11007KT 1/2SM R09R/P6000FT -RA BR OVC002 14/13 A2996 RMK AO2 SFC VIS 2 SLP143 P0002 T01440133=
202103172052 METAR KATL 172052Z 12008KT 1/2SM R09R/P6000FT -RA BR OVC003 14/13 A2996 RMK AO2 SFC VIS 3 DZE49RAB49 SLP146 CIG 002V004 TWRINC P0000 60001 T01440133 57022=
202103171952 METAR KATL 171952Z 10009KT 1SM R09R/P6000FT -DZ BR OVC004 14/13 A2998 RMK AO2 SFC VIS 4 DZB43 SLP152 CIG 003V005 P0000 T01440128=
202103171852 METAR KATL 171852Z 11005KT 2SM BR OVC004 14/13 A3001 RMK AO2 SFC VIS 6 RAE16DZB16E50 SLP163 CIG 003V005 P0001 T01390128=
202103171752 METAR KATL 171752Z 13005KT 2SM -RA BR OVC004 13/12 A3003 RMK AO2 SFC VIS 4 DZB09E49RAB49 SLP170 CIG 003V005 P0000 60004 T01330122 10139 20106 50001=
202103171652 METAR KATL 171652Z 11008KT 2SM BR OVC004 13/12 A3004 RMK AO2 SFC VIS 6 SLP173 T01330122=
202103171552 METAR KATL 171552Z 12008KT 2SM BR BKN004 OVC012 12/11 A3003 RMK AO2 SFC VIS 6 RAE05DZB05E49 SLP170 CIG 003V005 P0001 T01220111=
202103171452 METAR KATL 171452Z 09011KT 1/2SM R09R/P6000FT -RA BR OVC003 11/10 A3003 RMK AO2 SFC VIS 4 PRESFR SLP168 CIG 002V004 TWRINC P0003 60003 T01110100 58005=
202103171352 METAR KATL 171352Z 09007KT 1/2SM R09R/5000VP6000FT -RA BR OVC002 11/10 A3005 RMK AO2 SFC VIS 3/4 DZB09E50RAB50 SLP177 P0000 T01060100=
202103171322 SPECI KATL 171322Z 10007KT 1/2SM R09R/1800V2600FT -DZ FG VV002 11/10 A3006 RMK AO2 DZB09 P0000 T01060100=
202103171314 SPECI KATL 171314Z 09006KT 1/2SM R09R/1800V2200FT -DZ FG VV002 11/10 A3006 RMK AO2 DZB09 P0000 T01060100=
202103171252 METAR KATL 171252Z 10004KT 1/2SM R09R/1600V2600FT FG VV002 11/10 A3007 RMK AO2 SLP182 T01060100=
202103171152 METAR KATL 171152Z 14003KT 1/2SM R09R/2000V2600FT FG VV002 11/09 A3004 RMK AO2 SLP174 70015 T01060094 10106 20100 53008=
202103171052 METAR KATL 171052Z 08006KT 1/2SM R09R/3500V5000FT BR VV002 11/09 A3002 RMK AO2 SFC VIS 3/4 SLP166 T01060094=
202103170952 METAR KATL 170952Z 05004KT 1/2SM R09R/P6000FT BR OVC002 10/09 A3003 RMK AO2 SFC VIS 2 1/2 SLP171 T01000094=
202103170852 METAR KATL 170852Z 18007KT 1/2SM R09R/4500VP6000FT BR OVC002 10/09 A3002 RMK AO2 SFC VIS 1 3/4 SLP166 T01000094 55007=
202103170752 METAR KATL 170752Z 06007KT 1/2SM R09R/P6000FT BR OVC002 10/09 A3000 RMK AO2 SFC VIS 2 SLP159 T01000094=
202103170652 METAR KATL 170652Z 12003KT 1/2SM R09R/P6000FT BR OVC002 10/09 A3002 RMK AO2 SFC VIS 1 1/2 SLP168 T01000094=
202103170552 METAR KATL 170552Z 06003KT 1/2SM R09R/3500V4500FT BR VV002 10/09 A3004 RMK AO2 SFC VIS 1 SLP173 60002 T01000089 10100 20094 58004=
202103170452 METAR KATL 170452Z 09004KT 1/2SM R09R/4500VP6000FT BR VV002 10/09 A3003 RMK AO2 SFC VIS 1 SLP172 T01000089 401720083=
202103170352 METAR KATL 170352Z 00000KT 1SM R09R/P6000FT BR OVC003 10/09 A3006 RMK AO2 SFC VIS 4 RAB33E50 SLP180 P0000 T01000089=
202103170252 METAR KATL 170252Z 10005KT 2SM OVC005 10/08 A3005 RMK AO2 SFC VIS 9 SLP178 CIG 004V007 60002 T01000083 51019=
202103170152 METAR KATL 170152Z 10004KT 1SM R09R/P6000FT BKN004 OVC009 10/08 A3004 RMK AO2 SFC VIS 8 SLP174 T01000083=
202103170052 METAR KATL 170052Z 09007KT 1SM R09R/P6000FT BKN004 OVC010 10/08 A3001 RMK AO2 SFC VIS 9 RAE19 SLP163 P0002 T01000083=
202103170038 SPECI KATL 170038Z 09009KT 2 1/2SM SCT004 BKN007 OVC015 10/08 A3001 RMK AO2 SFC VIS 10 RAE19 P0002 T01000083=
202103162352 METAR KATL 162352Z 05007KT 1 1/4SM RA BR OVC003 09/09 A2999 RMK AO2 SFC VIS 2 1/2 RAB47 SLP158 P0001 60007 T00940089 10100 20089 55005=
202103162252 METAR KATL 162252Z 08010KT 1 1/4SM BR OVC003 10/09 A2999 RMK AO2 SFC VIS 5 RAE52 SLP154 CIG 002V004 P0000 T01000089=
202103162152 METAR KATL 162152Z 08010KT 1 1/4SM -RA BR OVC004 09/08 A2999 RMK AO2 SFC VIS 6 RAE2059B40 SLP158 P0000 T00940083=
202103162052 METAR KATL 162052Z 07008KT 1 1/4SM -RA BR OVC004 10/08 A3001 RMK AO2 SFC VIS 6 SLP161 CIG 003V005 TWRINC P0005 60006 T01000083 56014=
202103161952 METAR KATL 161952Z 12006KT 1/2SM R09R/P6000FT -RA BR OVC003 09/08 A3002 RMK AO2 SFC VIS 3 DZE35RAB35 SLP165 CIG 002V004 TWRINC P0000 T00940083=
202103161855 SPECI KATL 161855Z 09010KT 1/2SM R09R/P6000FT -DZ BR OVC003 09/08 A3002 RMK AO2 SFC VIS 5 PRESFR CIG 002V004 TWRINC P0000 T00940083=
202103161852 METAR KATL 161852Z 09009KT 2SM -DZ BR OVC004 09/08 A3002 RMK AO2 SFC VIS 6 RAE04DZB04 SLP166 CIG 003V005 P0001 T00940083=
202103161811 SPECI KATL 161811Z 11008KT 2SM -DZ BR OVC004 09/08 A3005 RMK AO2 SFC VIS 6 RAE04DZB04 CIG 003V005 P0001 T00890078=
202103161752 METAR KATL 161752Z 10010KT 1SM R09R/P6000FT -RA BR OVC004 09/07 A3005 RMK AO2 SFC VIS 5 PRESFR SLP175 CIG 003V005 TWRINC P0002 60006 T00890072 10100 20083 58017=
202103161747 SPECI KATL 161747Z 10010KT 1SM R09R/P6000FT -RA BR OVC004 09/07 A3006 RMK AO2 SFC VIS 6 CIG 003V005 TWRINC P0002=
202103161652 METAR KATL 161652Z 10009KT 3SM -RA BR OVC004 09/08 A3008 RMK AO2 SFC VIS 6 DZE02RAB02 SLP184 CIG 003V005 P0000 T00890078=
202103161552 METAR KATL 161552Z 07012KT 3SM -DZ OVC005 09/07 A3010 RMK AO2 SFC VIS 7 SLP190 CIG 004V007 P0000 T00890072=
202103161454 SPECI KATL 161454Z 08013KT 3SM -DZ BR BKN006 OVC014 09/07 A3010 RMK AO2 SFC VIS 6 CIG 004V008 P0000 T00890072=
202103161452 METAR KATL 161452Z 09013KT 1 1/2SM -DZ BR BKN006 OVC014 09/08 A3010 RMK AO2 SFC VIS 6 RAE43DZB43 SLP192 CIG 004V008 P0001 60004 T00890078 53014=
202103161421 SPECI KATL 161421Z 08012KT 1 1/2SM -RA BR OVC005 09/08 A3011 RMK AO2 SFC VIS 3 CIG 003V007 P0001 T00890078=
202103161418 SPECI KATL 161418Z 07013KT 1 1/2SM -RA BR OVC004 09/08 A3011 RMK AO2 SFC VIS 3 CIG 003V005 P0001 T00890078=
202103161352 METAR KATL 161352Z 07012KT 3/4SM R09R/P6000FT -RA BR OVC003 09/08 A3010 RMK AO2 SFC VIS 1 1/2 DZE39RAB39 SLP191 CIG 002V004 P0002 T00890078=
202103161322 SPECI KATL 161322Z 09009KT 3/4SM R09R/P6000FT -DZ BR OVC003 09/08 A3010 RMK AO2 SFC VIS 3 PRESRR CIG 002V004 TWRINC P0000 T00890078=
202103161252 METAR KATL 161252Z 07016KT 3/4SM R09R/P6000FT -DZ BR OVC003 09/08 A3005 RMK AO2 SFC VIS 3 RAE45DZB45 SLP173 TWRINC P0001 T00940083=
202103161155 SPECI KATL 161155Z 10011KT 3/4SM R09R/P6000FT -RA BR OVC003 10/09 A3006 RMK AO2 SFC VIS 3 TWRINC P0000 T01000089=
202103161152 METAR KATL 161152Z 09012KT 3SM -RA BR OVC004 10/09 A3006 RMK AO2 RAB45 SLP177 CIG 003V006 P0000 60003 70007 T01000089 10167 20100 50008=
202103161052 METAR KATL 161052Z 08012KT 6SM BR OVC004 11/09 A3006 RMK AO2 RAB0956E27 SLP178 CIG 003V006 P0000 T01060089=
202103160952 METAR KATL 160952Z 06012KT 6SM BR OVC004 12/11 A3004 RMK AO2 WSHFT 0923 SLP171 CIG 003V005 T01170106=
202103160938 SPECI KATL 160938Z 06012KT 5SM BR OVC003 13/12 A3004 RMK AO2 WSHFT 0923 T01280117=
202103160852 METAR KATL 160852Z 10009KT 6SM BR OVC005 14/13 A3003 RMK AO2 SLP166 60003 T01440133 58011=
202103160752 METAR KATL 160752Z 09008KT 8SM OVC008 15/14 A3005 RMK AO2 RAE19 SLP171 P0001 T01500139=
202103160711 SPECI KATL 160711Z 09008KT 6SM -RA BR BKN008 OVC014 16/14 A3005 RMK AO2 P0001 T01560139=
202103160652 METAR KATL 160652Z 12008KT 9SM -RA OVC014 16/14 A3006 RMK AO2 SLP175 P0002 T01610139=
202103160552 METAR KATL 160552Z 15005KT 7SM -RA BKN017 OVC027 17/14 A3007 RMK AO2 SLP177 P0004 60004 T01670139 10200 20167 58002=
202103160510 SPECI KATL 160510Z 11006KT 8SM -RA BKN023 OVC037 17/13 A3006 RMK AO2 P0000 T01720128=
202103160452 METAR KATL 160452Z 11008KT 9SM -RA SCT023 OVC037 17/13 A3007 RMK AO2 RAB01 SLP176 P0000 T01720128 402110156=
202103160352 METAR KATL 160352Z 11010KT 9SM FEW028 BKN040 OVC055 18/11 A3008 RMK AO2 LTG DSNT N SLP181 CB DSNT NW-N T01830111=
202103160252 METAR KATL 160252Z 11008G17KT 10SM BKN045 BKN080 BKN200 19/11 A3007 RMK AO2 SLP179 T01890106 53006=
202103160152 METAR KATL 160152Z 13010G16KT 10SM BKN050 BKN080 BKN200 19/11 A3007 RMK AO2 SLP177 T01940106=
202103160052 METAR KATL 160052Z 12011G19KT 10SM SCT060 BKN090 BKN200 19/10 A3005 RMK AO2 SLP173 T01940100=
202103152352 METAR KATL 152352Z 12010G21KT 10SM BKN060 BKN080 BKN200 20/09 A3005 RMK AO2 SLP173 T02000089 10211 20189 56003=
202103152252 METAR KATL 152252Z 11011G21KT 9SM BKN060 BKN150 OVC200 20/08 A3006 RMK AO2 SLP175 T02000083=
202103152152 METAR KATL 152152Z 11011KT 8SM SCT070 BKN150 BKN200 21/08 A3006 RMK AO2 SLP173 T02110078=
202103152052 METAR KATL 152052Z 10013G20KT 9SM FEW038 BKN060 BKN140 BKN200 21/08 A3006 RMK AO2 SLP175 T02060078 56024=
202103151952 METAR KATL 151952Z 11013G22KT 10SM FEW038 BKN055 BKN140 BKN200 20/07 A3008 RMK AO2 SLP181 T02000072=
202103151852 METAR KATL 151852Z 09016G21KT 10SM FEW036 BKN050 BKN140 BKN200 19/08 A3010 RMK AO2 SLP188 T01890083=
202103151752 METAR KATL 151752Z 11013G20KT 10SM SCT032 BKN060 BKN140 BKN200 20/10 A3014 RMK AO2 SLP199 T02000100 10200 20156 56014=
202103151748 SPECI KATL 151748Z 10013G22KT 10SM SCT030 BKN060 BKN140 BKN200 20/09 A3014 RMK AO2=
202103151652 METAR KATL 151652Z 12011G18KT 10SM OVC024 19/11 A3015 RMK AO2 SLP204 BINOVC T01890106=
202103151552 METAR KATL 151552Z 12012G17KT 10SM OVC022 18/11 A3016 RMK AO2 SLP206 T01830111=
202103151454 SPECI KATL 151454Z 10010G20KT 10SM BKN020 BKN055 BKN140 OVC200 18/12 A3018 RMK AO2 T01780117=
202103151452 METAR KATL 151452Z 10011G20KT 10SM SCT020 BKN055 BKN150 OVC200 18/12 A3018 RMK AO2 SLP213 T01780117 51020=
202103151352 METAR KATL 151352Z 10013G19KT 10SM FEW050 SCT075 BKN180 OVC250 17/12 A3016 RMK AO2 SLP208 ACC OHD-ALQDS T01670117=
202103151252 METAR KATL 151252Z 10009KT 10SM FEW055 SCT070 BKN150 BKN180 BKN250 16/12 A3014 RMK AO2 SLP199 ACC NW T01610117=
202103151152 METAR KATL 151152Z 10010KT 10SM FEW040 SCT075 BKN150 BKN200 16/12 A3012 RMK AO2 SLP192 T01560117 10194 20156 50005=
202103151052 METAR KATL 151052Z 08009KT 10SM FEW040 SCT075 BKN200 16/12 A3012 RMK AO2 SLP192 T01560122=
202103150952 METAR KATL 150952Z 09008KT 10SM BKN070 BKN150 BKN200 16/13 A3011 RMK AO2 SLP189 T01610128=
202103150852 METAR KATL 150852Z 09010KT 10SM SCT065 SCT150 BKN200 17/13 A3010 RMK AO2 SLP185 T01670128 53004=
202103150752 METAR KATL 150752Z 09008KT 10SM FEW070 17/13 A3010 RMK AO2 SLP185 T01670128=
202103150652 METAR KATL 150652Z 10007KT 10SM FEW070 SCT150 BKN200 BKN250 18/13 A3009 RMK AO2 SLP181 T01780128=
202103150552 METAR KATL 150552Z 11006KT 10SM FEW070 SCT150 BKN200 BKN250 19/12 A3009 RMK AO2 SLP181 T01890122 10239 20189 53001=
202103150452 METAR KATL 150452Z 12007KT 10SM BKN200 BKN250 20/12 A3009 RMK AO2 SLP181 T02000117 402720133=
202103150352 METAR KATL 150352Z 13006KT 10SM SCT200 BKN250 20/11 A3008 RMK AO2 SLP180 T02000111=
202103150252 METAR KATL 150252Z 13003KT 10SM FEW200 BKN250 21/09 A3008 RMK AO2 SLP181 T02060094 50006=
202103150152 METAR KATL 150152Z 16003KT 10SM SCT075 SCT200 BKN250 22/09 A3009 RMK AO2 SLP183 T02170089=
202103150052 METAR KATL 150052Z 00000KT 10SM FEW075 SCT200 BKN250 22/08 A3008 RMK AO2 SLP181 T02220083=
202103142352 METAR KATL 142352Z 19004KT 10SM FEW075 SCT200 BKN250 24/08 A3007 RMK AO2 SLP176 T02390078 10272 20239 55003=
202103142252 METAR KATL 142252Z 14005KT 10SM FEW075 BKN250 26/08 A3006 RMK AO2 SLP173 T02610078=
202103142152 METAR KATL 142152Z 18006KT 10SM FEW200 BKN250 27/09 A3006 RMK AO2 SLP173 T02670089=
202103142052 METAR KATL 142052Z 00000KT 10SM SCT070 SCT170 BKN250 27/09 A3008 RMK AO2 SLP177 T02720094 56026=
202103141952 METAR KATL 141952Z 00000KT 10SM SCT060 SCT150 BKN200 BKN250 26/11 A3010 RMK AO2 SLP184 T02610106=
202103141852 METAR KATL 141852Z 08004KT 10SM FEW055 SCT140 SCT200 BKN250 26/12 A3013 RMK AO2 SLP195 T02560117=
202103141752 METAR KATL 141752Z 01004KT 10SM FEW055 SCT140 SCT200 BKN250 24/11 A3016 RMK AO2 SLP205 T02440111 10244 20133 58013=
202103141652 METAR KATL 141652Z VRB03KT 10SM SCT140 SCT200 BKN250 22/11 A3018 RMK AO2 SLP215 T02170106=
202103141552 METAR KATL 141552Z 06003KT 10SM FEW140 SCT200 BKN250 20/10 A3019 RMK AO2 SLP218 T02000100=
202103141452 METAR KATL 141452Z 09003KT 10SM FEW200 SCT250 18/08 A3019 RMK AO2 SLP219 T01780083 51008=
202103141352 METAR KATL 141352Z 10007KT 10SM FEW200 SCT250 16/07 A3019 RMK AO2 SLP218 T01610072=
202103141252 METAR KATL 141252Z 07009KT 10SM FEW200 FEW250 15/07 A3018 RMK AO2 SLP214 T01500067=
202103141152 METAR KATL 141152Z 09005KT 10SM FEW200 FEW250 14/06 A3017 RMK AO2 SLP211 T01390061 10183 20133 53007=
202103141052 METAR KATL 141052Z 08007KT 10SM FEW250 14/07 A3015 RMK AO2 SLP206 T01390072=
202103140952 METAR KATL 140952Z 08006KT 10SM FEW045 SCT250 14/08 A3015 RMK AO2 SLP203 T01390083=
202103140852 METAR KATL 140852Z 09006KT 10SM FEW045 BKN250 15/09 A3015 RMK AO2 SLP202 T01500089 58009=
202103140752 METAR KATL 140752Z 08007KT 10SM FEW045 SCT065 BKN250 16/09 A3016 RMK AO2 SLP208 T01610094=
202103140652 METAR KATL 140652Z 07010KT 10SM FEW045 BKN060 BKN085 BKN250 18/11 A3018 RMK AO2 SLP213 T01780106=
202103140552 METAR KATL 140552Z 08008KT 10SM FEW055 SCT085 BKN250 18/13 A3018 RMK AO2 SLP211 T01780128 10228 20178 56008=
202103140452 METAR KATL 140452Z 07008KT 10SM FEW055 SCT085 BKN250 19/13 A3018 RMK AO2 SLP212 T01940133 402670139=
202103140352 METAR KATL 140352Z 04006KT 10SM FEW085 BKN250 21/14 A3019 RMK AO2 SLP218 T02060139=
202103140252 METAR KATL 140252Z 04006KT 10SM BKN085 BKN250 22/14 A3020 RMK AO2 SLP221 T02170139 58000=
202103140152 METAR KATL 140152Z 01004KT 10SM SCT070 BKN085 BKN250 22/13 A3020 RMK AO2 SLP222 T02170133=
202103140052 METAR KATL 140052Z 35006KT 10SM FEW060 BKN085 BKN250 23/13 A3021 RMK AO2 SLP223 T02280133=
202103132352 METAR KATL 132352Z 36007KT 10SM FEW050 BKN080 BKN200 BKN250 23/13 A3020 RMK AO2 SLP222 T02280133 10267 20228 55002=
202103132252 METAR KATL 132252Z 36007KT 10SM SCT050 SCT080 SCT200 BKN250 24/13 A3019 RMK AO2 SLP219 T02390133=
202103132152 METAR KATL 132152Z 34007KT 10SM SCT055 SCT080 BKN130 BKN250 25/13 A3019 RMK AO2 SLP219 T02500133=
202103132052 METAR KATL 132052Z 34008KT 10SM SCT048 BKN070 BKN120 BKN250 25/13 A3021 RMK AO2 SLP223 T02500133 56019=
202103131952 METAR KATL 131952Z 00000KT 10SM SCT050 SCT075 BKN180 BKN250 25/13 A3022 RMK AO2 SLP226 T02500128=
202103131852 METAR KATL 131852Z 29003KT 10SM SCT043 SCT065 BKN180 BKN250 24/13 A3023 RMK AO2 SLP232 T02440133=
202103131752 METAR KATL 131752Z VRB06KT 10SM SCT055 SCT075 BKN180 BKN250 25/13 A3026 RMK AO2 SLP243 T02500133 10250 20139 58016=
202103131652 METAR KATL 131652Z 32008KT 10SM SCT046 SCT070 BKN180 BKN250 24/13 A3029 RMK AO2 SLP251 T02440133=
202103131552 METAR KATL 131552Z 27003KT 10SM SCT040 BKN180 BKN250 22/14 A3031 RMK AO2 SLP259 T02170139=
202103131452 METAR KATL 131452Z 31005KT 10SM SCT200 BKN250 19/13 A3031 RMK AO2 SLP260 T01940133 51017=
202103131352 METAR KATL 131352Z 30007KT 10SM SCT200 BKN250 17/14 A3030 RMK AO2 SLP256 T01720139=
202103131252 METAR KATL 131252Z 28003KT 10SM SCT180 BKN250 16/13 A3028 RMK AO2 SLP248 T01560128=
202103131152 METAR KATL 131152Z 29004KT 10SM SCT200 BKN250 14/11 A3026 RMK AO2 SLP243 T01390111 10156 20139 53004=
202103131052 METAR KATL 131052Z 30005KT 10SM SCT250 14/11 A3025 RMK AO2 SLP240 T01390111=
202103130952 METAR KATL 130952Z 30007KT 10SM SCT250 14/10 A3025 RMK AO2 SLP238 T01440100=
202103130852 METAR KATL 130852Z 00000KT 10SM SCT250 14/09 A3025 RMK AO2 SLP237 T01440094 58008=
202103130752 METAR KATL 130752Z 30004KT 10SM SCT250 16/09 A3026 RMK AO2 SLP241 T01560089=
202103130652 METAR KATL 130652Z 30005KT 10SM SCT250 15/08 A3027 RMK AO2 SLP246 T01500083=
202103130552 METAR KATL 130552Z 24003KT 10SM BKN250 16/08 A3027 RMK AO2 SLP245 T01560078 10217 20156 58009=
202103130452 METAR KATL 130452Z 27003KT 10SM SCT250 17/08 A3029 RMK AO2 SLP251 T01720078 402610111=
202103130352 METAR KATL 130352Z 29004KT 10SM SCT250 18/08 A3031 RMK AO2 SLP257 T01780078=
202103130252 METAR KATL 130252Z 25003KT 10SM BKN250 18/08 A3030 RMK AO2 SLP255 T01830078 53007=
202103130152 METAR KATL 130152Z 22004KT 10SM BKN250 19/08 A3028 RMK AO2 SLP251 T01890078=
202103130052 METAR KATL 130052Z 23004KT 10SM BKN250 21/08 A3028 RMK AO2 SLP248 T02060078=
202103122352 METAR KATL 122352Z 27005KT 10SM FEW200 BKN250 22/08 A3028 RMK AO2 SLP249 T02170078 10261 20217 55001=
202103122252 METAR KATL 122252Z 28005KT 10SM FEW150 BKN250 23/08 A3027 RMK AO2 SLP246 T02330078=
202103122152 METAR KATL 122152Z 26008KT 10SM FEW080 FEW150 BKN200 BKN250 25/07 A3027 RMK AO2 SLP246 T02500072=
202103122052 METAR KATL 122052Z 26007KT 10SM FEW080 BKN200 BKN250 26/07 A3028 RMK AO2 SLP248 T02560072 56026=
202103121952 METAR KATL 121952Z 25007KT 10SM FEW075 SCT200 BKN250 25/08 A3030 RMK AO2 SLP256 T02500083=
202103121852 METAR KATL 121852Z 30006KT 10SM FEW070 BKN200 BKN250 24/10 A3033 RMK AO2 SLP265 T02440100=
202103121752 METAR KATL 121752Z 29007KT 10SM FEW060 FEW140 BKN200 BKN250 23/11 A3036 RMK AO2 SLP276 T02330106 10233 20122 58016=
202103121652 METAR KATL 121652Z 26007KT 10SM FEW060 FEW140 BKN200 BKN250 23/10 A3038 RMK AO2 SLP284 T02280100=
202103121552 METAR KATL 121552Z 26007KT 10SM FEW150 BKN200 BKN250 23/11 A3040 RMK AO2 SLP289 T02280111=
202103121452 METAR KATL 121452Z 28010KT 10SM FEW150 SCT200 SCT250 19/11 A3041 RMK AO2 SLP293 T01940111 51015=
202103121352 METAR KATL 121352Z 30008KT 10SM SCT200 SCT250 17/09 A3041 RMK AO2 SLP293 T01670089=
202103121252 METAR KATL 121252Z 27004KT 10SM FEW200 SCT250 14/08 A3038 RMK AO2 SLP285 T01440083=
202103121152 METAR KATL 121152Z 24004KT 10SM BKN250 12/07 A3036 RMK AO2 SLP280 T01220067 10139 20111 53013=
202103121052 METAR KATL 121052Z 00000KT 10SM SCT250 11/07 A3035 RMK AO2 SLP275 T01110067=
202103120952 METAR KATL 120952Z 00000KT 10SM BKN250 13/07 A3033 RMK AO2 SLP267 T01280067=
202103120852 METAR KATL 120852Z 00000KT 10SM FEW250 13/07 A3033 RMK AO2 SLP265 T01280072 58002=
202103120752 METAR KATL 120752Z 00000KT 10SM FEW250 13/07 A3033 RMK AO2 SLP265 T01330072=
202103120652 METAR KATL 120652Z 21003KT 10SM FEW250 13/07 A3033 RMK AO2 SLP268 T01330072=
202103120552 METAR KATL 120552Z 22004KT 10SM FEW250 14/07 A3033 RMK AO2 SLP268 T01390072 10206 20133 58007=
202103120452 METAR KATL 120452Z 19004KT 10SM SCT250 15/07 A3034 RMK AO2 SLP270 T01500072 402330117=
202103120352 METAR KATL 120352Z 20004KT 10SM BKN250 16/07 A3035 RMK AO2 SLP275 T01610072=
202103120252 METAR KATL 120252Z 18004KT 10SM SCT250 17/07 A3035 RMK AO2 SLP276 T01720072 53008=
202103120152 METAR KATL 120152Z 00000KT 9SM FEW250 18/07 A3035 RMK AO2 SLP274 T01830072=
202103120052 METAR KATL 120052Z 14003KT 8SM FEW250 19/07 A3033 RMK AO2 SLP269 T01890072=
202103112352 METAR KATL 112352Z 16004KT 6SM HZ FU FEW250 21/07 A3033 RMK AO2 SLP267 T02060072 10233 20206 55003=
202103112252 METAR KATL 112252Z 16009KT 9SM FEW200 FEW250 22/06 A3031 RMK AO2 SLP260 T02220061=
202103112152 METAR KATL 112152Z 15005KT 10SM FEW200 FEW250 23/07 A3033 RMK AO2 SLP265 T02280067=
202103112052 METAR KATL 112052Z 25004KT 10SM FEW200 SCT250 23/06 A3034 RMK AO2 SLP269 T02280061 58025=
202103111952 METAR KATL 111952Z VRB05KT 10SM FEW060 BKN200 BKN250 22/07 A3037 RMK AO2 SLP280 T02220067=
202103111852 METAR KATL 111852Z 17005KT 10SM FEW055 BKN200 BKN250 21/07 A3039 RMK AO2 SLP288 T02110072=
202103111752 METAR KATL 111752Z 00000KT 10SM FEW055 BKN220 21/07 A3041 RMK AO2 SLP295 T02060067 10217 20117 58008=
202103111652 METAR KATL 111652Z 18008KT 10SM FEW045 BKN200 BKN250 21/08 A3043 RMK AO2 SLP300 T02060083=
202103111552 METAR KATL 111552Z 17005KT 10SM BKN200 18/09 A3043 RMK AO2 SLP304 T01780089=
202103111452 METAR KATL 111452Z 20006KT 10SM BKN200 BKN250 16/08 A3044 RMK AO2 SLP304 T01610083 52009=
202103111352 METAR KATL 111352Z 20007KT 10SM BKN210 BKN250 14/09 A3042 RMK AO2 SLP301 T01390089=
202103111252 METAR KATL 111252Z 17005KT 10SM BKN220 BKN250 12/08 A3042 RMK AO2 SLP300 T01220083=
202103111152 METAR KATL 111152Z 19003KT 10SM BKN220 BKN250 12/08 A3041 RMK AO2 SLP295 T01170078 10139 20117 51012=
202103111052 METAR KATL 111052Z 15004KT 10SM FEW180 BKN210 BKN250 12/07 A3039 RMK AO2 SLP289 T01170072=
202103110952 METAR KATL 110952Z 20003KT 10SM SCT180 BKN250 12/07 A3039 RMK AO2 SLP288 T01170067=
202103110852 METAR KATL 110852Z 17007KT 10SM FEW200 BKN250 12/06 A3037 RMK AO2 SLP282 T01220061 57003=
202103110752 METAR KATL 110752Z 16006KT 10SM SCT250 13/05 A3038 RMK AO2 SLP283 T01280050=
202103110652 METAR KATL 110652Z 00000KT 10SM FEW250 13/03 A3038 RMK AO2 SLP284 T01330033=
202103110552 METAR KATL 110552Z 18004KT 10SM FEW250 14/03 A3038 RMK AO2 SLP285 T01390033 10200 20139 53002=
202103110452 METAR KATL 110452Z 18005KT 10SM FEW250 14/03 A3038 RMK AO2 SLP284 T01440033 402330078=
202103110352 METAR KATL 110352Z 18006KT 10SM FEW250 16/02 A3038 RMK AO2 SLP285 T01560022=
202103110252 METAR KATL 110252Z 18008KT 10SM FEW250 17/02 A3038 RMK AO2 SLP285 T01670017 51007=
202103110152 METAR KATL 110152Z 15005KT 10SM FEW250 17/02 A3037 RMK AO2 SLP284 T01670022=
202103110052 METAR KATL 110052Z 16006KT 10SM FEW200 SCT250 18/02 A3037 RMK AO2 SLP283 T01780017=
202103102352 METAR KATL 102352Z 14007KT 10SM SCT200 BKN250 20/02 A3036 RMK AO2 SLP278 T02000022 10233 20200 56005=
202103102252 METAR KATL 102252Z 16007KT 10SM FEW180 BKN200 BKN250 21/03 A3036 RMK AO2 SLP279 VIRGA DSNT SW-W T02110028=
202103102152 METAR KATL 102152Z 17008KT 10SM FEW170 BKN200 BKN250 22/02 A3035 RMK AO2 SLP276 VIRGA DSNT SW-NW T02170022=
202103102052 METAR KATL 102052Z 19008KT 10SM SCT200 BKN250 22/02 A3037 RMK AO2 SLP283 T02220022 56023=
202103101952 METAR KATL 101952Z 19012G19KT 10SM FEW200 SCT250 22/01 A3039 RMK AO2 SLP290 T02220011=
202103101852 METAR KATL 101852Z 18010KT 10SM FEW002 FEW200 SCT250 22/03 A3042 RMK AO2 SLP297 FU FEW002 FU PLUME NE T02170028=
202103101752 METAR KATL 101752Z 20006KT 10SM FEW200 SCT250 21/03 A3044 RMK AO2 SLP307 T02110033 10211 20078 58010=
202103101652 METAR KATL 101652Z 22008KT 10SM SCT200 SCT250 19/03 A3047 RMK AO2 SLP316 T01940033=
202103101552 METAR KATL 101552Z 19008KT 9SM SCT200 BKN250 19/04 A3048 RMK AO2 SLP319 T01890039=
202103101452 METAR KATL 101452Z 00000KT 9SM SCT200 BKN250 17/04 A3047 RMK AO2 SLP318 T01670044 51015=
202103101352 METAR KATL 101352Z 19005KT 10SM FEW150 SCT250 13/03 A3047 RMK AO2 SLP318 T01280033=
202103101252 METAR KATL 101252Z 00000KT 10SM SCT250 10/02 A3045 RMK AO2 SLP311 T01000017=
202103101152 METAR KATL 101152Z 00000KT 10SM CLR 08/00 A3043 RMK AO2 SLP304 T00830000 10111 20083 53010=
202103101052 METAR KATL 101052Z 12003KT 10SM CLR 10/M01 A3042 RMK AO2 SLP300 T01001011=
202103100952 METAR KATL 100952Z 00000KT 10SM CLR 09/M01 A3040 RMK AO2 SLP294 T00941011=
202103100852 METAR KATL 100852Z 00000KT 10SM CLR 10/M02 A3040 RMK AO2 SLP293 T01001017 56012=
202103100752 METAR KATL 100752Z 18004KT 10SM CLR 11/M02 A3041 RMK AO2 SLP296 T01061022=
202103100652 METAR KATL 100652Z 17004KT 10SM CLR 11/M02 A3042 RMK AO2 SLP300 T01061022=
202103100552 METAR KATL 100552Z 21003KT 10SM CLR 11/M02 A3044 RMK AO2 SLP305 T01061022 10178 20106 58000=
202103100452 METAR KATL 100452Z 00000KT 10SM FEW250 12/M02 A3044 RMK AO2 SLP306 T01171022 402110044=
202103100352 METAR KATL 100352Z 20003KT 10SM FEW250 12/M03 A3045 RMK AO2 SLP308 T01221028=
202103100252 METAR KATL 100252Z 19006KT 10SM FEW250 13/M03 A3044 RMK AO2 SLP307 T01331033 53002=
202103100152 METAR KATL 100152Z 17006KT 9SM FEW250 16/M04 A3043 RMK AO2 SLP304 T01561039=
202103100052 METAR KATL 100052Z 17004KT 8SM FEW200 SCT250 16/M03 A3043 RMK AO2 SLP306 T01611033=
202103092352 METAR KATL 092352Z 17004KT 8SM SCT200 BKN250 18/M03 A3043 RMK AO2 SLP306 T01781028 10211 20178 55006=
202103092252 METAR KATL 092252Z 19004KT 8SM BKN200 BKN250 19/M03 A3043 RMK AO2 SLP305 T01891028=
202103092152 METAR KATL 092152Z 20009KT 6SM HZ FU BKN200 BKN250 19/M04 A3044 RMK AO2 SLP306 T01941044=
202103092052 METAR KATL 092052Z 20007KT 8SM BKN200 BKN250 20/M04 A3045 RMK AO2 SLP309 T02001039 56025=
202103091952 METAR KATL 091952Z 20005KT 10SM FEW170 BKN200 BKN250 20/M06 A3046 RMK AO2 SLP314 T02001056=
202103091852 METAR KATL 091852Z 20008KT 10SM FEW160 BKN200 BKN250 20/M06 A3049 RMK AO2 SLP323 T02001056=
202103091752 METAR KATL 091752Z 23005KT 10SM SCT200 BKN250 20/M04 A3052 RMK AO2 SLP335 T02001039 10200 20044 58013=
202103091652 METAR KATL 091652Z 27006KT 10SM FEW150 SCT200 SCT250 19/M02 A3056 RMK AO2 SLP346 T01891022=
202103091552 METAR KATL 091552Z 25009KT 10SM FEW200 SCT250 17/M02 A3057 RMK AO2 SLP351 T01721017=
202103091452 METAR KATL 091452Z 20008KT 10SM FEW200 FEW250 14/M01 A3056 RMK AO2 SLP350 T01391011 51018=
202103091352 METAR KATL 091352Z 23007KT 10SM FEW250 12/M02 A3055 RMK AO2 SLP346 T01221022=
202103091252 METAR KATL 091252Z 00000KT 10SM FEW250 08/M01 A3053 RMK AO2 SLP340 T00781006=
202103091152 METAR KATL 091152Z 00000KT 10SM FEW250 04/M02 A3051 RMK AO2 SLP333 T00441022 10100 20044 53013=
202103091052 METAR KATL 091052Z 00000KT 10SM FEW250 06/M02 A3049 RMK AO2 SLP326 T00611022=
202103090952 METAR KATL 090952Z 23003KT 10SM CLR 07/M03 A3048 RMK AO2 SLP322 T00721033 $=
202103090852 METAR KATL 090852Z 00000KT 10SM CLR 08/M04 A3047 RMK AO2 SLP317 T00831044 58008=
202103090752 METAR KATL 090752Z 23004KT 10SM CLR 09/M04 A3048 RMK AO2 SLP318 T00891044=
202103090652 METAR KATL 090652Z 23004KT 10SM FEW250 10/M05 A3050 RMK AO2 SLP326 T01001050=
202103090552 METAR KATL 090552Z 23003KT 10SM FEW250 10/M04 A3050 RMK AO2 SLP327 T01001044 10167 20094 50000=
202103090452 METAR KATL 090452Z 00000KT 10SM CLR 11/M05 A3050 RMK AO2 SLP328 T01061050 402110028=
202103090352 METAR KATL 090352Z 21004KT 10SM CLR 12/M06 A3050 RMK AO2 SLP329 T01171056=
202103090252 METAR KATL 090252Z 21005KT 10SM CLR 13/M06 A3050 RMK AO2 SLP328 T01281061 51005=
202103090152 METAR KATL 090152Z 20004KT 10SM FEW250 14/M06 A3049 RMK AO2 SLP328 T01391061=
202103090052 METAR KATL 090052Z 23003KT 10SM FEW250 14/M07 A3049 RMK AO2 SLP327 T01441067=
202103082352 METAR KATL 082352Z 21004KT 10SM FEW250 17/M08 A3048 RMK AO2 SLP324 T01671078 10211 20167 53002=
202103082252 METAR KATL 082252Z 00000KT 10SM FEW250 19/M10 A3047 RMK AO2 SLP319 T01941100=
202103082152 METAR KATL 082152Z 25005KT 10SM FEW025 FEW250 20/M10 A3047 RMK AO2 SLP319 FU FEW025 FU PLUME SW T02001100=
202103082052 METAR KATL 082052Z 20004KT 10SM FEW020 FEW250 21/M08 A3047 RMK AO2 SLP319 FU FEW020 T02061078 56020=
202103082011 SPECI KATL 082011Z 22006KT 10SM FEW250 21/M07 A3049 RMK AO2 T02061072=
202103081952 METAR KATL 081952Z 16004KT 10SM FEW250 19/M08 A3049 RMK AO2 SLP324 T01941083=
202103081852 METAR KATL 081852Z 33005KT 10SM CLR 19/M07 A3051 RMK AO2 SLP330 T01891072=
202103081752 METAR KATL 081752Z 00000KT 10SM CLR 17/M07 A3053 RMK AO2 SLP340 T01721072 10183 20033 58009=
202103081652 METAR KATL 081652Z 00000KT 10SM CLR 16/M07 A3056 RMK AO2 SLP350 T01561072=
202103081552 METAR KATL 081552Z 00000KT 10SM CLR 14/M07 A3057 RMK AO2 SLP354 T01391072=
202103081452 METAR KATL 081452Z 09005KT 10SM CLR 13/M07 A3056 RMK AO2 SLP351 T01281067 51023=
202103081352 METAR KATL 081352Z 00000KT 10SM CLR 09/M04 A3055 RMK AO2 SLP348 T00891039=
202103081252 METAR KATL 081252Z 00000KT 10SM CLR 05/M03 A3052 RMK AO2 SLP337 T00501028=
202103081152 METAR KATL 081152Z 35005KT 10SM CLR 03/M05 A3049 RMK AO2 SLP329 T00331050 10083 20028 53017 $=
202103081052 METAR KATL 081052Z 32003KT 10SM FEW250 04/M05 A3048 RMK AO2 SLP324 T00441050=
202103080952 METAR KATL 080952Z 32003KT 10SM FEW250 04/M04 A3045 RMK AO2 SLP315 T00391044=
202103080852 METAR KATL 080852Z 34005KT 10SM FEW250 06/M06 A3044 RMK AO2 SLP310 T00611056 51005 $=
202103080752 METAR KATL 080752Z 33005KT 10SM FEW250 06/M05 A3044 RMK AO2 SLP310 T00561050 $=
202103080652 METAR KATL 080652Z 34006KT 10SM FEW250 07/M06 A3044 RMK AO2 SLP308 T00721056 $=
202103080552 METAR KATL 080552Z 35008KT 10SM CLR 07/M04 A3043 RMK AO2 SLP305 T00671044 10128 20061 52004 $=
202103080452 METAR KATL 080452Z 34010KT 10SM FEW250 07/M04 A3042 RMK AO2 SLP304 T00671044 401610017 $=
202103080352 METAR KATL 080352Z 33013KT 10SM FEW250 09/M04 A3042 RMK AO2 SLP304 T00891044 $=
202103080252 METAR KATL 080252Z 33006KT 10SM FEW250 09/M05 A3042 RMK AO2 SLP302 T00941050 51015=
202103080152 METAR KATL 080152Z 32007KT 10SM SCT250 10/M06 A3040 RMK AO2 SLP298 T01001056=
202103080052 METAR KATL 080052Z 32006KT 10SM FEW250 12/M06 A3039 RMK AO2 SLP297 T01171061=
202103072352 METAR KATL 072352Z 33011KT 10SM FEW200 FEW250 13/M07 A3037 RMK AO2 SLP288 T01281067 10161 20128 53013=
202103072252 METAR KATL 072252Z 32010G20KT 10SM FEW250 14/M07 A3035 RMK AO2 SLP280 T01441072=
202103072152 METAR KATL 072152Z 31007G18KT 10SM FEW250 16/M07 A3033 RMK AO2 SLP273 T01561072=
202103072052 METAR KATL 072052Z 31008KT 10SM FEW250 16/M07 A3033 RMK AO2 SLP273 T01561072 55014=
202103071952 METAR KATL 071952Z 30008G17KT 10SM FEW250 16/M08 A3032 RMK AO2 SLP271 T01611078=
202103071852 METAR KATL 071852Z 35008G18KT 10SM FEW250 16/M10 A3034 RMK AO2 SLP276 T01561100=
202103071752 METAR KATL 071752Z 30008G14KT 10SM FEW200 14/M09 A3037 RMK AO2 SLP287 T01391089 10139 20017 58007=
202103071652 METAR KATL 071652Z VRB03KT 10SM CLR 12/M06 A3039 RMK AO2 SLP295 T01221061=
202103071552 METAR KATL 071552Z 02004KT 10SM CLR 11/M09 A3040 RMK AO2 SLP298 T01061089=
202103071452 METAR KATL 071452Z VRB04KT 10SM CLR 09/M09 A3039 RMK AO2 SLP295 T00941094 51028=
202103071352 METAR KATL 071352Z 01009KT 10SM CLR 06/M09 A3038 RMK AO2 SLP292 T00611089=
202103071252 METAR KATL 071252Z 33005KT 10SM CLR 03/M08 A3034 RMK AO2 SLP278 T00281078=
202103071152 METAR KATL 071152Z 33006KT 10SM CLR 02/M08 A3031 RMK AO2 SLP267 T00171083 10044 20017 53022=
202103071052 METAR KATL 071052Z 33008KT 10SM CLR 02/M08 A3028 RMK AO2 SLP259 T00221083=
202103070952 METAR KATL 070952Z 34008KT 10SM CLR 03/M09 A3026 RMK AO2 SLP251 T00281089=
202103070852 METAR KATL 070852Z 33009KT 10SM CLR 03/M09 A3024 RMK AO2 SLP244 T00331089 53009=
202103070752 METAR KATL 070752Z 33006G19KT 10SM CLR 03/M08 A3022 RMK AO2 SLP239 T00331078=
202103070652 METAR KATL 070652Z 33010KT 10SM CLR 04/M07 A3023 RMK AO2 SLP241 T00391067=
202103070552 METAR KATL 070552Z 32010KT 10SM CLR 04/M05 A3021 RMK AO2 SLP234 T00441050 10100 20044 51005=
202103070452 METAR KATL 070452Z 31008KT 10SM CLR 04/M04 A3021 RMK AO2 SLP233 T00441044 401220044=
202103070352 METAR KATL 070352Z 32005KT 10SM CLR 06/M04 A3021 RMK AO2 SLP231 T00611044=
202103070252 METAR KATL 070252Z 28003KT 10SM CLR 07/M03 A3020 RMK AO2 SLP228 T00671033 51013=
202103070152 METAR KATL 070152Z 33005KT 10SM FEW080 08/M02 A3018 RMK AO2 SLP224 T00831022=
202103070052 METAR KATL 070052Z 28003KT 10SM FEW080 09/M01 A3017 RMK AO2 SLP219 T00891011=
202103062352 METAR KATL 062352Z 25003KT 10SM FEW080 FEW250 10/M02 A3016 RMK AO2 SLP214 T01001022 10122 20094 55001=
202103062252 METAR KATL 062252Z VRB03KT 10SM FEW080 FEW250 12/M02 A3016 RMK AO2 SLP212 T01171022=
202103062152 METAR KATL 062152Z 01007KT 10SM FEW080 12/M02 A3015 RMK AO2 SLP210 T01221017=
202103062052 METAR KATL 062052Z 04005KT 10SM BKN080 12/M01 A3016 RMK AO2 SLP213 T01171011 56016=
202103061952 METAR KATL 061952Z 06008KT 10SM OVC065 10/M02 A3017 RMK AO2 SLP218 BINOVC T01001017=
202103061852 METAR KATL 061852Z 07009KT 10SM OVC070 09/M04 A3018 RMK AO2 SLP222 BINOVC T00941039=
202103061752 METAR KATL 061752Z 08011G21KT 10SM OVC075 10/M06 A3021 RMK AO2 SLP231 T01001056 10117 20094 50010=
202103061652 METAR KATL 061652Z 08010KT 10SM OVC080 09/M07 A3021 RMK AO2 SLP233 T00941067=
202103061552 METAR KATL 061552Z 07011KT 10SM OVC065 10/M07 A3021 RMK AO2 SLP231 T01001067=
202103061452 METAR KATL 061452Z 09012KT 10SM SCT065 BKN150 BKN200 11/M04 A3018 RMK AO2 SLP220 T01061044 51020=
202103061352 METAR KATL 061352Z 09009G14KT 10SM BKN065 OVC085 09/M04 A3016 RMK AO2 SLP215 BINOVC T00941039=
202103061252 METAR KATL 061252Z 05007KT 10SM BKN070 BKN085 09/M04 A3014 RMK AO2 SLP207 T00941044=
202103061152 METAR KATL 061152Z 04008KT 10SM BKN085 BKN100 09/M05 A3012 RMK AO2 SLP199 T00941050 10100 20089 52010=
202103061052 METAR KATL 061052Z 36008KT 10SM BKN085 09/M06 A3011 RMK AO2 SLP196 T00891056=
202103060952 METAR KATL 060952Z 35009KT 10SM BKN075 OVC095 09/M06 A3009 RMK AO2 SLP189 T00891056=
202103060852 METAR KATL 060852Z 34007KT 330V030 10SM BKN085 BKN100 09/M06 A3009 RMK AO2 SLP187 T00891061 58001=
202103060752 METAR KATL 060752Z 34010KT 10SM OVC070 09/M07 A3009 RMK AO2 SLP187 T00941067=
202103060652 METAR KATL 060652Z 31006KT 10SM BKN080 OVC100 09/M07 A3010 RMK AO2 SLP192 VIRGA W-OHD-N T00941067=
202103060552 METAR KATL 060552Z 32007KT 10SM SCT080 OVC100 10/M07 A3009 RMK AO2 SLP188 VIRGA E-OHD-W T01001072 10139 20100 53003=
202103060452 METAR KATL 060452Z 32009KT 10SM FEW070 BKN090 OVC140 10/M07 A3008 RMK AO2 SLP184 VIRGA NW-NE T01001072 401940056=
202103060352 METAR KATL 060352Z 33004KT 10SM FEW065 BKN085 OVC140 11/M07 A3007 RMK AO2 SLP182 VIRGA OHD-ALQDS T01111072=
202103060252 METAR KATL 060252Z 36010KT 10SM SCT085 OVC110 11/M08 A3008 RMK AO2 SLP185 VIRGA OHD-ALQDS T01111078 50006=
202103060152 METAR KATL 060152Z 34010KT 10SM BKN100 OVC140 11/M08 A3009 RMK AO2 SLP190 VIRGA OHD-ALQDS T01111078=
202103060052 METAR KATL 060052Z 32014KT 10SM BKN110 OVC140 12/M07 A3008 RMK AO2 SLP189 VIRGA OHD-ALQDS T01221067=
202103052352 METAR KATL 052352Z 33012G20KT 10SM SCT120 BKN140 OVC200 14/M07 A3006 RMK AO2 SLP181 VIRGA OHD-ALQDS T01391067 10194 20139 53019=
202103052252 METAR KATL 052252Z 32011KT 10SM FEW120 BKN140 BKN180 OVC250 16/M06 A3003 RMK AO2 SLP171 VIRGA ALQDS T01611056=
202103052152 METAR KATL 052152Z 29007KT 10SM SCT140 BKN180 BKN250 17/M06 A3001 RMK AO2 SLP161 VIRGA DSNT SW-NW T01721061=
202103052052 METAR KATL 052052Z 30010KT 10SM SCT150 SCT250 19/M06 A3000 RMK AO2 SLP159 VIRGA SW T01891061 56020=
202103051952 METAR KATL 051952Z 34008KT 10SM FEW150 BKN250 18/M08 A3001 RMK AO2 SLP161 T01831083=
202103051852 METAR KATL 051852Z VRB06KT 10SM SCT150 BKN250 18/M07 A3004 RMK AO2 SLP169 T01831067=
202103051752 METAR KATL 051752Z 02007KT 10SM FEW200 BKN250 18/M08 A3006 RMK AO2 SLP179 T01781083 10178 20056 58017=
202103051652 METAR KATL 051652Z 03007KT 010V070 10SM SCT200 BKN250 17/M06 A3008 RMK AO2 SLP186 T01671061=
202103051552 METAR KATL 051552Z 01010KT 10SM FEW250 15/M05 A3011 RMK AO2 SLP194 T01501050=
202103051452 METAR KATL 051452Z 33006KT 10SM BKN200 BKN250 13/M03 A3012 RMK AO2 SLP197 T01281028 51013=
202103051352 METAR KATL 051352Z 34008KT 10SM FEW200 FEW250 10/M01 A3012 RMK AO2 SLP198 T01001011=
202103051252 METAR KATL 051252Z 32008KT 10SM FEW015 FEW250 07/M01 A3009 RMK AO2 SLP190 FU FEW015 T00721006=
202103051152 METAR KATL 051152Z 31007KT 10SM CLR 06/M01 A3008 RMK AO2 SLP185 T00561006 10117 20056 51009=
202103051052 METAR KATL 051052Z 33007KT 10SM CLR 07/M01 A3007 RMK AO2 SLP180 T00671011=
202103050952 METAR KATL 050952Z 31008KT 10SM CLR 07/M01 A3007 RMK AO2 SLP180 T00671006=
202103050852 METAR KATL 050852Z 32007KT 10SM CLR 08/M01 A3005 RMK AO2 SLP173 T00781006 58002=
202103050752 METAR KATL 050752Z 35009KT 10SM CLR 10/M01 A3005 RMK AO2 SLP175 T01001011=
202103050652 METAR KATL 050652Z 34008KT 10SM CLR 10/M01 A3006 RMK AO2 SLP176 T01001006=
202103050552 METAR KATL 050552Z 33007KT 10SM CLR 10/01 A3005 RMK AO2 SLP175 T01000006 10172 20089 51003=
202103050452 METAR KATL 050452Z 31007KT 10SM CLR 10/01 A3005 RMK AO2 SLP176 T01000006 402110067=
202103050352 METAR KATL 050352Z 31006KT 10SM CLR 12/00 A3005 RMK AO2 SLP175 T01170000=
202103050252 METAR KATL 050252Z 33005KT 10SM CLR 13/M01 A3004 RMK AO2 SLP172 T01331011 51005=
202103050152 METAR KATL 050152Z 33006KT 10SM CLR 15/M02 A3004 RMK AO2 SLP173 T01501017=
202103050052 METAR KATL 050052Z 34008KT 10SM CLR 17/M02 A3004 RMK AO2 SLP171 T01671017=
202103042352 METAR KATL 042352Z 33013G21KT 10SM CLR 17/M01 A3003 RMK AO2 SLP168 T01721011 10211 20172 53005=
202103042252 METAR KATL 042252Z 34014G20KT 10SM CLR 19/M03 A3001 RMK AO2 PK WND 30026/2237 SLP161 T01941028=
202103042152 METAR KATL 042152Z 34014KT 10SM CLR 21/M04 A3000 RMK AO2 PK WND 32026/2055 SLP159 T02061039=
202103042052 METAR KATL 042052Z 31015G22KT 10SM CLR 21/M03 A3001 RMK AO2 SLP160 T02061033 56025=
202103041952 METAR KATL 041952Z 34012G25KT 10SM CLR 21/M01 A3002 RMK AO2 SLP165 T02061011=
202103041852 METAR KATL 041852Z 32013KT 10SM CLR 20/01 A3006 RMK AO2 SLP177 T02000006=
202103041752 METAR KATL 041752Z 36012G18KT 10SM CLR 19/00 A3009 RMK AO2 SLP187 T01890000 10189 20067 58010=
202103041652 METAR KATL 041652Z 34010KT 10SM CLR 18/00 A3011 RMK AO2 SLP194 T01780000=
202103041552 METAR KATL 041552Z 34013KT 10SM CLR 16/M01 A3012 RMK AO2 SLP198 T01611006=
202103041452 METAR KATL 041452Z 34007KT 10SM CLR 14/00 A3012 RMK AO2 SLP198 T01390000 51015=
202103041352 METAR KATL 041352Z 33008KT 10SM CLR 11/00 A3011 RMK AO2 SLP196 T01060000=
202103041252 METAR KATL 041252Z 32010KT 10SM CLR 08/M01 A3009 RMK AO2 SLP190 T00781006=
202103041152 METAR KATL 041152Z 32011KT 10SM CLR 07/M01 A3007 RMK AO2 SLP184 T00671011 10083 20067 52008=
202103041052 METAR KATL 041052Z 32010KT 10SM CLR 07/M01 A3006 RMK AO2 SLP180 T00721011=
202103040952 METAR KATL 040952Z 33009KT 10SM CLR 07/M01 A3006 RMK AO2 SLP177 T00721011=
202103040852 METAR KATL 040852Z 32011KT 10SM CLR 08/M01 A3005 RMK AO2 SLP175 T00781011 58002=
202103040752 METAR KATL 040752Z 32010KT 10SM CLR 08/M01 A3005 RMK AO2 SLP175 T00781011=
202103040652 METAR KATL 040652Z 31009KT 10SM CLR 08/M01 A3006 RMK AO2 SLP178 T00781011=
202103040552 METAR KATL 040552Z 31007KT 10SM CLR 08/M01 A3005 RMK AO2 SLP177 T00781011 10139 20078 50005=
202103040452 METAR KATL 040452Z 30006KT 10SM CLR 09/M01 A3006 RMK AO2 SLP180 T00891011 401830039=
202103040352 METAR KATL 040352Z 28006KT 10SM CLR 09/M02 A3005 RMK AO2 SLP177 T00891022=
202103040252 METAR KATL 040252Z 30004KT 10SM CLR 11/M03 A3004 RMK AO2 SLP172 T01111033 50004=
202103040152 METAR KATL 040152Z 27003KT 10SM CLR 12/M02 A3005 RMK AO2 SLP178 T01171022=
202103040052 METAR KATL 040052Z 30006KT 10SM CLR 13/M02 A3004 RMK AO2 SLP175 T01281022=
202103032352 METAR KATL 032352Z 29007KT 10SM CLR 14/M03 A3002 RMK AO2 SLP169 T01391028 10183 20139 53006=
202103032252 METAR KATL 032252Z 34012KT 10SM CLR 17/M06 A3001 RMK AO2 SLP164 T01721061=
202103032152 METAR KATL 032152Z 32011KT 10SM CLR 18/M04 A3001 RMK AO2 SLP161 T01781039=
202103032052 METAR KATL 032052Z 31012G15KT 10SM CLR 18/M01 A3001 RMK AO2 SLP161 T01781006 56012=
202103031952 METAR KATL 031952Z 32010KT 10SM CLR 18/01 A3001 RMK AO2 SLP161 T01780011=
202103031852 METAR KATL 031852Z 35007KT 310V010 10SM CLR 16/02 A3002 RMK AO2 SLP167 T01610017=
202103031752 METAR KATL 031752Z 31010KT 10SM CLR 15/03 A3004 RMK AO2 SLP175 T01500028 10150 20044 58008=
202103031652 METAR KATL 031652Z 32005KT 10SM FEW070 13/02 A3006 RMK AO2 SLP182 T01330022=
202103031552 METAR KATL 031552Z 35010KT 10SM FEW070 12/02 A3007 RMK AO2 SLP184 T01170022=
202103031452 METAR KATL 031452Z 33011KT 10SM FEW055 FEW070 09/02 A3007 RMK AO2 SLP185 T00940022 50010=
202103031352 METAR KATL 031352Z 33008KT 10SM FEW055 SCT070 06/02 A3007 RMK AO2 SLP189 T00560022=
202103031252 METAR KATL 031252Z 36008KT 10SM FEW055 FEW070 06/02 A3004 RMK AO2 SLP176 T00560017=
202103031228 SPECI KATL 031228Z 35009KT 10SM FEW055 FEW070 04/02 A3004 RMK AO2 T00440022=
202103031152 METAR KATL 031152Z 34008KT 10SM SCT050 OVC065 04/02 A3004 RMK AO2 SLP176 60019 70031 T00440022 10050 20039 53004=
202103031052 METAR KATL 031052Z 35008KT 10SM BKN046 OVC060 04/02 A3002 RMK AO2 SLP171 T00440022=
202103030952 METAR KATL 030952Z 03009KT 10SM BKN065 OVC150 04/02 A3001 RMK AO2 RAB0853E11 SLP167 P0000 T00440017=
202103030852 METAR KATL 030852Z 02009KT 10SM FEW009 SCT050 OVC070 04/02 A3002 RMK AO2 RAE37 SLP170 P0003 60019 T00440022 58006=
202103030752 METAR KATL 030752Z 05009KT 6SM -RA BR FEW009 BKN042 OVC075 04/02 A3005 RMK AO2 SLP181 P0009 T00390022=
202103030736 SPECI KATL 030736Z 05012KT 7SM -RA FEW009 BKN046 OVC075 04/02 A3005 RMK AO2 P0007 T00440022=
202103030652 METAR KATL 030652Z 03008KT 6SM RA BR SCT041 OVC048 04/02 A3006 RMK AO2 SLP184 P0007 T00440022=
202103030552 METAR KATL 030552Z 08013KT 9SM -RA BKN048 OVC060 05/02 A3004 RMK AO2 SLP176 P0001 60012 T00500022 10072 20044 58022=
202103030452 METAR KATL 030452Z 04010KT 7SM -RA BKN042 OVC060 05/02 A3009 RMK AO2 SLP192 P0004 T00500022 400940050=
202103030352 METAR KATL 030352Z 07011KT 9SM -RA BKN042 OVC060 05/02 A3010 RMK AO2 SLP197 P0001 T00500022=
202103030252 METAR KATL 030252Z 07010KT 8SM -RA BKN043 BKN055 OVC070 05/02 A3011 RMK AO2 SLP201 P0002 60006 T00500017 58004=
202103030152 METAR KATL 030152Z 08010KT 9SM -RA SCT048 BKN070 OVC120 06/02 A3011 RMK AO2 SLP202 P0003 T00560017=
202103030052 METAR KATL 030052Z 07008KT 9SM -RA FEW035 BKN070 OVC100 07/01 A3013 RMK AO2 SLP206 P0001 T00670011=
202103022352 METAR KATL 022352Z 09011KT 8SM -RA FEW035 BKN070 OVC100 07/01 A3012 RMK AO2 RAB40 SLP204 P0000 60000 T00720011 10094 20072 51007=
202103022252 METAR KATL 022252Z 06012KT 10SM FEW038 BKN090 BKN140 OVC200 08/00 A3010 RMK AO2 SLP198 VIRGA SE-SW-W T00830000=
202103022152 METAR KATL 022152Z 12007KT 10SM SCT036 BKN080 BKN140 OVC200 09/M01 A3013 RMK AO2 SLP208 VIRGA SE-SW T00891011=
202103022052 METAR KATL 022052Z 09011KT 10SM FEW070 SCT110 BKN150 BKN200 09/M01 A3010 RMK AO2 SLP196 60000 T00941006 56036=
202103021952 METAR KATL 021952Z 09012KT 10SM FEW050 BKN085 BKN130 OVC180 09/M01 A3013 RMK AO2 RAE48 SLP204 VIRGA NW-NE P0000 T00891011=
202103021852 METAR KATL 021852Z 10011KT 10SM -RA FEW050 SCT070 BKN100 OVC150 09/M02 A3016 RMK AO2 RAB50 SLP217 PCPN VRY LGT P0000 T00891022=
202103021752 METAR KATL 021752Z 09011KT 10SM SCT075 BKN120 OVC150 09/M02 A3021 RMK AO2 SLP233 VIRGA OHD-ALQDS ACC W-N-NE T00891022 10089 20067 56010=
202103021652 METAR KATL 021652Z 09010KT 10SM SCT080 BKN130 OVC180 09/M01 A3023 RMK AO2 SLP239 VIRGA OHD-ALQDS ACC SW-NW-NE T00891011=
202103021552 METAR KATL 021552Z 09009KT 10SM FEW080 BKN130 OVC180 08/M01 A3022 RMK AO2 SLP237 VIRGA OHD-ALQDS ACC NW-NE T00831006=
202103021452 METAR KATL 021452Z 00000KT 10SM SCT085 BKN120 OVC150 08/M01 A3024 RMK AO2 SLP244 VIRGA OHD-ALQDS ACC SW-NW-NE T00781011 53019=
202103021352 METAR KATL 021352Z 32004KT 10SM SCT085 SCT120 OVC150 07/M02 A3023 RMK AO2 SLP239 VIRGA ALQDS T00721017=
202103021340 SPECI KATL 021340Z 33005KT 10SM SCT085 OVC150 07/M02 A3022 RMK AO2 VIRGA ALQDS T00721017=
202103021252 METAR KATL 021252Z 02005KT 10SM BKN090 OVC180 07/M02 A3016 RMK AO2 SLP215 T00671017=
202103021152 METAR KATL 021152Z 33007KT 10SM BKN090 OVC180 07/M02 A3018 RMK AO2 SLP223 70002 T00671017 10078 20067 53013=
202103021052 METAR KATL 021052Z 35009KT 10SM SCT100 BKN180 07/M02 A3016 RMK AO2 SLP215 T00671017=
202103020952 METAR KATL 020952Z 35007KT 10SM SCT100 BKN180 07/M01 A3014 RMK AO2 SLP208 T00671011=
202103020852 METAR KATL 020852Z 34012KT 10SM FEW150 BKN180 07/M01 A3014 RMK AO2 SLP207 T00721011 58011=
202103020752 METAR KATL 020752Z 33012KT 10SM FEW100 OVC150 07/M01 A3016 RMK AO2 PK WND 32028/0711 SLP215 T00721006=
202103020652 METAR KATL 020652Z 32015G21KT 10SM BKN110 BKN150 OVC200 08/00 A3018 RMK AO2 SLP219 T00780000=
202103020552 METAR KATL 020552Z 33014KT 10SM SCT120 BKN150 OVC200 08/00 A3018 RMK AO2 SLP220 T00780000 10117 20078 51010=
202103020452 METAR KATL 020452Z 34011G20KT 10SM SCT120 BKN150 OVC200 09/01 A3017 RMK AO2 SLP215 T00890011 402060089=
202103020352 METAR KATL 020352Z 33010KT 10SM BKN110 OVC150 09/01 A3019 RMK AO2 SLP224 T00940011=
202103020252 METAR KATL 020252Z 34007KT 10SM OVC100 10/03 A3015 RMK AO2 SLP209 T01000028 50001=
202103020152 METAR KATL 020152Z 33010KT 10SM OVC100 10/04 A3016 RMK AO2 SLP212 T01000039=
202103020052 METAR KATL 020052Z 33009KT 10SM FEW020 BKN095 OVC200 11/04 A3015 RMK AO2 SLP209 T01060044=
202103012352 METAR KATL 012352Z 32015KT 10SM SCT018 BKN090 OVC200 12/04 A3014 RMK AO2 PRESRR SLP206 60000 T01170039 10167 20117 53016=
202103012252 METAR KATL 012252Z 33010KT 10SM FEW020 BKN085 OVC100 14/09 A3013 RMK AO2 SLP199 T01390094=
202103012152 METAR KATL 012152Z 31008KT 10SM FEW026 BKN060 OVC080 16/11 A3009 RMK AO2 SLP186 SHRA DSNT NW-NE T01560111=
202103012052 METAR KATL 012052Z 32012KT 10SM SCT024 BKN065 OVC090 17/11 A3010 RMK AO2 SLP186 SHRA N 60000 T01670111 51015=
202103011952 METAR KATL 011952Z 29010KT 10SM SCT021 BKN034 OVC085 16/12 A3009 RMK AO2 RAB37E48 SLP184 P0000 T01610122=
202103011950 SPECI KATL 011950Z 29011KT 10SM SCT021 BKN034 OVC085 16/13 A3009 RMK AO2 RAB37E48 P0000=
202103011938 SPECI KATL 011938Z 29008KT 10SM -RA BKN021 BKN036 OVC075 16/13 A3009 RMK AO2 RAB37 P0000 T01610128=
202103011852 METAR KATL 011852Z 26006KT 10SM FEW033 BKN065 OVC080 16/13 A3007 RMK AO2 RAB33E43 SLP177 VIRGA DSNT SE-SW P0000 T01610128=
202103011752 METAR KATL 011752Z 23005KT 10SM FEW014 BKN070 OVC085 16/12 A3005 RMK AO2 SLP171 VIRGA ALQDS 60002 T01560122 10156 20144 56012=
202103011652 METAR KATL 011652Z 24006KT 10SM FEW012 BKN060 OVC075 16/12 A3005 RMK AO2 SLP172 VIRGA DSNT SW-NW T01560122=
202103011552 METAR KATL 011552Z 24007KT 10SM FEW010 BKN065 OVC080 15/13 A3008 RMK AO2 SLP180 VIRGA DSNT NE-SE-SW-NW T01500128=
202103011452 METAR KATL 011452Z 28005KT 10SM FEW008 BKN065 OVC080 15/13 A3009 RMK AO2 RAE1359B17E50 SLP184 VIRGA NE-SE-SW P0000 60002 T01500128 51021=
202103011352 METAR KATL 011352Z 30008KT 8SM -RA FEW008 BKN060 OVC075 14/13 A3007 RMK AO2 RAE20B47 SLP179 P0001 T01440128=
202103011252 METAR KATL 011252Z 32012KT 6SM -RA BR FEW008 BKN050 OVC075 14/13 A3004 RMK AO2 RAB05 SLP168 P0001 T01440128=
202103011228 SPECI KATL 011228Z 32014G22KT 4SM -RA BR SCT008 BKN032 OVC050 14/13 A3004 RMK AO2 RAB05 P0001 T01440128=
202103011210 SPECI KATL 011210Z 32014G19KT 4SM -RA BR SCT012 BKN050 OVC060 14/13 A3003 RMK AO2 RAB05 P0000 T01440128=
