##########################################################
# Query made at 04/20/2024 00:16:27 UTC
# Time interval: from 05/01/2021 12:00  to 05/31/2021 12:59  UTC
##########################################################

##########################################################
# KATL, Atlanta, Hartsfield - Jackson Atlanta International Airport (United States)
# WMO index: 72219. WIGOS ID: 0-20000-0-72219
# Latitude 33-38-59N. Longitude 084-25-00W. Altitude 312 m.
##########################################################

202105311252 METAR KATL 311252Z 11007KT 10SM FEW050 SCT200 BKN250 18/12 A3030 RMK AO2 SLP255 T01780122=
202105311152 METAR KATL 311152Z 09009KT 10SM FEW050 SCT200 BKN250 16/12 A3029 RMK AO2 SLP252 T01610117 10172 20150 53017=
202105311052 METAR KATL 311052Z 09005KT 10SM FEW055 SCT250 15/12 A3027 RMK AO2 SLP245 T01500117=
202105310952 METAR KATL 310952Z 09004KT 10SM FEW050 FEW250 15/11 A3025 RMK AO2 SLP236 T01500111=
202105310852 METAR KATL 310852Z 07004KT 10SM SCT050 SCT250 16/11 A3024 RMK AO2 SLP235 T01560106 53005=
202105310752 METAR KATL 310752Z 09004KT 10SM FEW050 SCT250 16/10 A3023 RMK AO2 SLP231 T01560100=
202105310652 METAR KATL 310652Z 06004KT 10SM FEW050 FEW250 17/09 A3023 RMK AO2 SLP231 T01670094=
202105310552 METAR KATL 310552Z 02004KT 10SM SCT050 SCT250 17/09 A3023 RMK AO2 SLP230 T01720094 10228 20172 51007=
202105310452 METAR KATL 310452Z 35006KT 10SM FEW055 17/10 A3022 RMK AO2 SLP229 T01720100 402500122=
202105310352 METAR KATL 310352Z 34006KT 10SM FEW055 18/10 A3021 RMK AO2 SLP225 T01780100=
202105310252 METAR KATL 310252Z 33009KT 10SM FEW055 19/11 A3020 RMK AO2 SLP223 T01890106 53020=
202105310152 METAR KATL 310152Z 33007KT 10SM FEW055 20/11 A3017 RMK AO2 SLP212 T02000106=
202105310052 METAR KATL 310052Z 32007KT 10SM FEW055 21/09 A3016 RMK AO2 SLP209 T02110094=
202105302352 METAR KATL 302352Z 29009KT 10SM FEW055 23/10 A3014 RMK AO2 SLP202 T02280100 10250 20222 53010=
202105302252 METAR KATL 302252Z 29007KT 10SM FEW055 24/10 A3012 RMK AO2 SLP194 T02390100=
202105302152 METAR KATL 302152Z VRB05KT 10SM SCT055 24/11 A3011 RMK AO2 SLP192 T02440106=
202105302052 METAR KATL 302052Z 34006KT 10SM SCT050 25/11 A3011 RMK AO2 SLP192 T02500106 58004=
202105301952 METAR KATL 301952Z VRB03KT 10SM SCT049 25/11 A3012 RMK AO2 SLP192 T02500106=
202105301852 METAR KATL 301852Z 33006KT 10SM SCT045 24/11 A3012 RMK AO2 SLP195 T02390106=
202105301752 METAR KATL 301752Z 10SM SCT037 23/12 A3012 RMK AO2 SLP196 T02330117 10233 20133 50001=
202105301652 METAR KATL 301652Z VRB03KT 10SM SCT037 23/12 A3013 RMK AO2 SLP198 T02280122=
202105301552 METAR KATL 301552Z 02006KT 10SM SCT037 21/12 A3013 RMK AO2 SLP196 T02060117=
202105301452 METAR KATL 301452Z 01008KT 10SM SCT037 19/11 A3012 RMK AO2 SLP195 T01890106 51014=
202105301352 METAR KATL 301352Z 33008KT 10SM SCT035 17/10 A3011 RMK AO2 SLP192 T01670100=
202105301252 METAR KATL 301252Z 32010KT 10SM FEW035 14/09 A3010 RMK AO2 SLP187 T01440089=
202105301152 METAR KATL 301152Z 32012KT 10SM FEW027 BKN034 13/09 A3008 RMK AO2 SLP182 T01330089 10139 20122 53018=
202105301145 SPECI KATL 301145Z 34011KT 10SM SCT027 BKN034 13/08 A3008 RMK AO2 T01280083=
202105301121 SPECI KATL 301121Z 33011KT 10SM BKN027 13/08 A3006 RMK AO2 T01280083=
202105301052 METAR KATL 301052Z 33009KT 10SM SCT028 BKN034 12/08 A3005 RMK AO2 SLP172 T01220083=
202105300952 METAR KATL 300952Z 33009KT 10SM FEW031 12/08 A3003 RMK AO2 SLP165 T01220083=
202105300852 METAR KATL 300852Z 33010KT 10SM FEW019 13/08 A3002 RMK AO2 SLP162 T01280083 53004=
202105300752 METAR KATL 300752Z 32016G24KT 10SM SCT019 13/08 A3001 RMK AO2 SLP158 T01330083=
202105300652 METAR KATL 300652Z 33008KT 10SM FEW020 13/09 A3001 RMK AO2 SLP157 T01330089=
202105300606 SPECI KATL 300606Z 33011G22KT 10SM FEW030 FEW250 14/09 A3001 RMK AO2 T01390089=
202105300552 METAR KATL 300552Z 33011KT 10SM FEW030 FEW250 14/09 A3001 RMK AO2 SLP157 T01390089 10206 20139 50004=
202105300452 METAR KATL 300452Z 34015G23KT 10SM FEW028 FEW250 15/09 A3002 RMK AO2 SLP159 T01500094 402390150=
202105300352 METAR KATL 300352Z 34014G21KT 10SM FEW030 FEW047 17/09 A3001 RMK AO2 SLP156 T01670094=
202105300252 METAR KATL 300252Z 33011G17KT 10SM FEW030 SCT040 SCT250 18/11 A3000 RMK AO2 SLP153 T01780106 51017=
202105300152 METAR KATL 300152Z 33014G18KT 10SM SCT035 BKN040 BKN250 19/11 A2998 RMK AO2 SLP146 T01940106=
202105300052 METAR KATL 300052Z 29010KT 10SM FEW035 SCT043 SCT055 BKN250 20/11 A2997 RMK AO2 SLP142 T02000111=
202105292352 METAR KATL 292352Z 29013KT 10SM SCT047 SCT055 BKN250 21/11 A2995 RMK AO2 SLP135 T02060111 10239 20206 53012=
202105292252 METAR KATL 292252Z 30009KT 10SM SCT047 BKN250 22/11 A2993 RMK AO2 SLP128 T02220111=
202105292152 METAR KATL 292152Z 29013KT 10SM BKN047 BKN250 22/11 A2992 RMK AO2 SLP125 T02220106=
202105292052 METAR KATL 292052Z 30014G22KT 10SM SCT043 SCT250 23/11 A2991 RMK AO2 SLP121 T02330106 56007=
202105291952 METAR KATL 291952Z 29013G22KT 10SM SCT043 SCT250 23/11 A2992 RMK AO2 SLP123 T02280111=
202105291852 METAR KATL 291852Z 31010G17KT 10SM SCT038 SCT060 BKN250 22/11 A2992 RMK AO2 SLP126 T02220111=
202105291752 METAR KATL 291752Z 30012G20KT 10SM SCT038 SCT060 BKN250 22/12 A2993 RMK AO2 SLP128 T02220122 10228 20183 51006=
202105291652 METAR KATL 291652Z 30012G17KT 10SM SCT031 SCT055 BKN250 21/12 A2993 RMK AO2 SLP129 T02110122=
202105291552 METAR KATL 291552Z 32012G18KT 10SM SCT026 SCT041 BKN200 BKN250 20/12 A2993 RMK AO2 SLP128 T02000122=
202105291452 METAR KATL 291452Z 29012KT 10SM SCT023 SCT035 BKN200 BKN250 20/13 A2991 RMK AO2 SLP123 T02000128 50014=
202105291420 SPECI KATL 291420Z 31011G16KT 10SM SCT020 SCT025 BKN033 BKN250 19/14 A2991 RMK AO2 T01940139=
202105291352 METAR KATL 291352Z 31012KT 10SM SCT017 BKN023 BKN034 19/14 A2992 RMK AO2 SLP125 T01940139=
202105291311 SPECI KATL 291311Z 29009G17KT 10SM SCT010 BKN017 BKN028 19/16 A2989 RMK AO2 BINOVC T01890156=
202105291252 METAR KATL 291252Z 30011KT 8SM BKN008 BKN012 OVC027 19/16 A2989 RMK AO2 SLP114 BINOVC T01890161=
202105291249 SPECI KATL 291249Z 31011KT 8SM BKN008 BKN012 OVC027 19/16 A2988 RMK AO2=
202105291152 METAR KATL 291152Z 32008KT 8SM SCT008 BKN012 19/17 A2987 RMK AO2 SLP106 CIG 010V015 70025 T01890167 10200 20189 50007=
202105291148 SPECI KATL 291148Z 31006KT 8SM SCT008 BKN012 19/17 A2987 RMK AO2=
202105291052 METAR KATL 291052Z 32009KT 8SM SCT021 SCT027 BKN075 BKN130 BKN250 19/17 A2986 RMK AO2 SLP102 T01940172=
202105291032 SPECI KATL 291032Z 32009KT 10SM SCT009 SCT019 SCT026 19/17 A2986 RMK AO2 T01940172=
202105290952 METAR KATL 290952Z 29007KT 9SM SCT005 BKN011 19/18 A2985 RMK AO2 SLP099 SCT005 V BKN T01940183=
202105290852 METAR KATL 290852Z 28007KT 10SM SCT006 BKN014 BKN038 20/18 A2985 RMK AO2 SLP098 T02000183 55000=
202105290752 METAR KATL 290752Z 27007KT 10SM FEW004 OVC011 20/18 A2984 RMK AO2 SLP095 T02000183=
202105290736 SPECI KATL 290736Z 27006KT 10SM SCT004 OVC011 20/18 A2984 RMK AO2 T02000183=
202105290652 METAR KATL 290652Z 27007KT 6SM BR OVC003 19/18 A2984 RMK AO2 SLP095 T01940183=
202105290552 METAR KATL 290552Z 27006KT 10SM OVC004 19/18 A2985 RMK AO2 SLP098 CIG 003V005 60025 T01940183 10267 20194 58004=
202105290524 SPECI KATL 290524Z 26005KT 10SM BKN004 OVC130 19/18 A2985 RMK AO2 T01940183=
202105290452 METAR KATL 290452Z 27006KT 10SM BKN005 BKN130 OVC250 19/18 A2986 RMK AO2 SLP104 CIG 004V006 T01940183 402890194=
202105290352 METAR KATL 290352Z 25005KT 10SM BKN005 BKN110 OVC220 20/18 A2988 RMK AO2 SLP109 BKN005 V SCT T02000183=
202105290344 SPECI KATL 290344Z 24007KT 10SM BKN005 BKN110 OVC220 20/18 A2988 RMK AO2 BKN005 V SCT T02000183=
202105290252 METAR KATL 290252Z 26006KT 10SM FEW006 BKN130 BKN200 OVC250 21/19 A2986 RMK AO2 RAE31 SLP102 P0004 60025 T02060189 51007=
202105290223 SPECI KATL 290223Z 23006KT 8SM -RA SCT007 BKN080 OVC110 21/19 A2986 RMK AO2 P0004 T02060189=
202105290152 METAR KATL 290152Z 24006KT 4SM RA FEW007 BKN080 BKN110 OVC150 20/19 A2986 RMK AO2 WSHFT 0040 TSE08 SLP102 P0010 T02000189=
202105290109 SPECI KATL 290109Z 24010KT 9SM -RA FEW050 SCT080 BKN110 OVC200 21/19 A2987 RMK AO2 WSHFT 0040 TSE08 LTG DSNT NE-E TS MOV E P0004 T02060189=
202105290100 SPECI KATL 290100Z 26011KT 6SM -TSRA BR FEW025CB BKN050 OVC110 21/18 A2986 RMK AO2 WSHFT 0040 OCNL LTGIC NE-SE TS NE-SE MOV E P0004 T02060183=
202105290052 METAR KATL 290052Z 26011G33KT 3SM TSRA SCT025CB BKN050 OVC110 21/19 A2987 RMK AO2 PK WND 28033/0043 RAB43 TSB51 SLP106 VIS LWR NE-SE OCNL LTGIC NE-SE TS NE-SE MOV E P0011 T02060189=
202105290045 SPECI KATL 290045Z 28020G33KT 1 1/2SM R09R/6000VP6000FT +RA SCT025CB BKN070 BKN110 OVC200 23/19 A2987 RMK AO2 PK WND 28033/0043 RAB43 PRESRR CB NE-OHD-SW MOV E P0002 T02330189=
202105282352 METAR KATL 282352Z 21008G17KT 10SM FEW035 BKN110 BKN200 OVC250 27/19 A2984 RMK AO2 LTG DSNT NW SLP094 CB DSNT SW-NW T02670194 10289 20267 56011=
202105282252 METAR KATL 282252Z 23011G18KT 10SM FEW035TCU SCT060 BKN110 BKN250 28/19 A2984 RMK AO2 SLP094 TCU SE-S W-NW T02780194=
202105282152 METAR KATL 282152Z 20013G19KT 10SM SCT038 SCT055 BKN120 BKN250 28/19 A2984 RMK AO2 SLP096 MDT CU OHD-ALQDS T02780189=
202105282052 METAR KATL 282052Z 22011G19KT 10SM FEW034 FEW055 SCT110 BKN200 BKN250 28/19 A2987 RMK AO2 SLP105 MDT CU E SW-NW T02780194 57023=
202105281952 METAR KATL 281952Z 22010G18KT 10SM FEW034 FEW065 SCT110 BKN180 BKN250 27/19 A2990 RMK AO2 SLP115 VIRGA NE-SE-SW CB DSNT SW NW TCU DSNT NE-E MDT CU N T02720194=
202105281852 METAR KATL 281852Z 23010G20KT 10SM FEW034 SCT060 BKN110 BKN200 28/19 A2991 RMK AO2 SLP118 CB DSNT NW-N TCU DSNT NE E MDT CU ALQDS T02780189=
202105281752 METAR KATL 281752Z 21010G19KT 10SM FEW030TCU SCT045 SCT110 BKN200 28/20 A2994 RMK AO2 SLP129 CB DSNT SW-NW TCU N NE MDT CU ALQDS T02830200 10283 20222 58015=
202105281652 METAR KATL 281652Z 22008KT 10SM FEW024 FEW100 BKN200 BKN250 27/21 A2997 RMK AO2 SLP139 TCU DSNT N W T02720211=
202105281552 METAR KATL 281552Z 21008KT 10SM SCT024 BKN200 BKN250 27/21 A2998 RMK AO2 SLP141 T02720206=
202105281452 METAR KATL 281452Z 24010KT 10SM FEW018 BKN200 BKN250 26/20 A2999 RMK AO2 SLP146 T02560200 58002=
202105281352 METAR KATL 281352Z 28010KT 10SM FEW014 FEW110 SCT200 BKN250 25/21 A3000 RMK AO2 SLP150 T02500206=
202105281252 METAR KATL 281252Z 24010KT 10SM FEW010 SCT100 SCT250 23/20 A3000 RMK AO2 SLP150 T02330200=
202105281152 METAR KATL 281152Z 24008KT 10SM SCT010 SCT100 SCT250 22/19 A3000 RMK AO2 SLP148 70009 T02220194 10228 20211 53002=
202105281052 METAR KATL 281052Z 22005KT 10SM FEW007 FEW095 SCT250 21/19 A2999 RMK AO2 SLP146 T02110194=
202105280952 METAR KATL 280952Z 25007KT 10SM SCT095 BKN250 22/19 A2998 RMK AO2 SLP143 T02170194=
202105280852 METAR KATL 280852Z 22006KT 10SM FEW100 SCT250 22/19 A2999 RMK AO2 SLP145 T02220194 56009=
202105280752 METAR KATL 280752Z 24007KT 10SM SCT100 SCT250 22/19 A2999 RMK AO2 SLP146 T02220194=
202105280652 METAR KATL 280652Z 23007KT 10SM SCT090 SCT250 22/19 A3001 RMK AO2 SLP152 T02220189=
202105280552 METAR KATL 280552Z 23005KT 10SM SCT095 SCT250 23/19 A3002 RMK AO2 SLP153 60000 T02280194 10239 20228 58005=
202105280452 METAR KATL 280452Z 23005KT 10SM BKN090 BKN250 23/19 A3003 RMK AO2 SLP157 T02330194 403060206=
202105280352 METAR KATL 280352Z 24006KT 10SM FEW070 BKN085 BKN250 23/19 A3003 RMK AO2 SLP159 T02330194=
202105280252 METAR KATL 280252Z 24005KT 10SM FEW030 SCT070 BKN100 BKN250 23/19 A3003 RMK AO2 RAB26E44 SLP160 P0000 60000 T02330194 53005=
202105280152 METAR KATL 280152Z 23007KT 10SM FEW040 SCT080 BKN100 BKN250 23/19 A3002 RMK AO2 SLP155 T02330194=
202105280052 METAR KATL 280052Z 22004KT 10SM FEW045 BKN090 BKN250 24/19 A3002 RMK AO2 SLP157 CB DSNT SW T02390194=
202105272352 METAR KATL 272352Z 24005KT 10SM FEW070 BKN095 BKN200 24/19 A3002 RMK AO2 SLP155 60009 T02390189 10306 20233 53001=
202105272252 METAR KATL 272252Z 22006KT 10SM FEW045TCU SCT070 BKN100 BKN200 23/19 A3002 RMK AO2 RAB09E51 SLP157 TCU N-NE P0009 T02330194=
202105272152 METAR KATL 272152Z 27007KT 10SM SCT050TCU BKN070 BKN100 BKN200 27/18 A3001 RMK AO2 SLP153 TCU OHD-ALQDS T02720183=
202105272052 METAR KATL 272052Z 21008G17KT 10SM SCT055TCU BKN100 BKN200 BKN250 29/17 A3001 RMK AO2 SLP154 TCU N SE SW MDT CU ALQDS T02890167 58025=
202105271952 METAR KATL 271952Z 22011KT 10SM SCT055TCU SCT090 BKN200 BKN250 29/16 A3004 RMK AO2 SLP162 TCU N SW-NW MDT CU ALQDS T02890156=
202105271852 METAR KATL 271852Z 22009G15KT 10SM FEW002 FEW055 SCT080 BKN200 29/16 A3007 RMK AO2 SLP171 FU FEW002 FU PLUME N MDT CU ALQDS T02890156=
202105271752 METAR KATL 271752Z 21006KT 10SM FEW050 SCT075 BKN110 BKN200 29/16 A3009 RMK AO2 SLP179 MDT CU ALQDS T02940161 10294 20222 58016=
202105271652 METAR KATL 271652Z 17010G15KT 10SM FEW050 FEW075 SCT110 SCT200 28/17 A3011 RMK AO2 SLP187 MDT CU ALQDS T02830172=
202105271552 METAR KATL 271552Z 18007KT 10SM FEW050 SCT110 SCT200 28/17 A3013 RMK AO2 SLP192 ACC NW T02780172=
202105271452 METAR KATL 271452Z 32005KT 10SM FEW042 FEW060 SCT110 SCT200 27/17 A3014 RMK AO2 SLP195 ACC SW-W T02670167 50006=
202105271352 METAR KATL 271352Z 30007KT 10SM FEW055 SCT100 SCT180 BKN250 27/18 A3015 RMK AO2 SLP198 ACC SE S SW DSNT NE T02670178=
202105271252 METAR KATL 271252Z 30005KT 10SM FEW050 SCT100 SCT130 BKN160 BKN250 24/17 A3014 RMK AO2 SLP196 T02440172=
202105271152 METAR KATL 271152Z 00000KT 10SM FEW110 BKN130 BKN160 BKN250 22/17 A3012 RMK AO2 SLP190 T02220167 10228 20206 53008=
202105271052 METAR KATL 271052Z 30005KT 10SM SCT130 BKN170 BKN250 22/16 A3011 RMK AO2 SLP186 T02170161=
202105270952 METAR KATL 270952Z 28004KT 10SM SCT150 BKN170 BKN250 21/15 A3010 RMK AO2 SLP183 T02060150=
202105270852 METAR KATL 270852Z 30007KT 10SM SCT160 SCT180 22/14 A3010 RMK AO2 SLP180 T02170144 56007=
202105270752 METAR KATL 270752Z 27005KT 10SM SCT160 BKN180 22/15 A3010 RMK AO2 SLP180 T02170150=
202105270652 METAR KATL 270652Z 27004KT 10SM FEW100 SCT180 21/14 A3011 RMK AO2 SLP184 T02110144=
202105270552 METAR KATL 270552Z 26004KT 10SM FEW100 SCT200 23/14 A3012 RMK AO2 SLP188 T02280144 10289 20222 58007=
202105270452 METAR KATL 270452Z 27006KT 10SM FEW250 23/14 A3013 RMK AO2 SLP191 T02280144 403110206=
202105270352 METAR KATL 270352Z 27007KT 10SM FEW200 SCT250 24/14 A3014 RMK AO2 SLP194 T02390144=
202105270252 METAR KATL 270252Z 26008KT 10SM FEW200 25/14 A3014 RMK AO2 SLP195 T02500139 51012=
202105270152 METAR KATL 270152Z 26007KT 10SM FEW100 FEW250 26/14 A3013 RMK AO2 SLP190 T02610139=
202105270052 METAR KATL 270052Z 27006KT 10SM FEW100 FEW250 27/13 A3012 RMK AO2 SLP189 T02670133=
202105262352 METAR KATL 262352Z 23009KT 10SM FEW070 FEW250 29/12 A3010 RMK AO2 SLP184 T02890122 10311 20289 56010=
202105262252 METAR KATL 262252Z 25009G19KT 10SM FEW070 FEW250 30/12 A3011 RMK AO2 SLP186 T03000122=
202105262152 METAR KATL 262152Z 24009KT 10SM SCT070 SCT250 31/13 A3012 RMK AO2 SLP190 T03060133=
202105262052 METAR KATL 262052Z 22008G18KT 200V260 10SM FEW075 FEW110 SCT200 SCT250 31/14 A3014 RMK AO2 SLP194 ACC NE-SE-SW T03110139 56022=
202105261952 METAR KATL 261952Z 22012G21KT 10SM FEW070 FEW120 SCT200 SCT250 31/13 A3015 RMK AO2 SLP200 T03060133=
202105261852 METAR KATL 261852Z 23012G19KT 10SM FEW070 SCT200 SCT250 31/14 A3018 RMK AO2 SLP208 T03110139=
202105261752 METAR KATL 261752Z 24011G16KT 10SM FEW065 SCT200 SCT250 30/14 A3020 RMK AO2 SLP216 T03000144 10306 20222 58011=
202105261652 METAR KATL 261652Z 25009G19KT 10SM SCT060 SCT120 SCT250 29/14 A3022 RMK AO2 SLP222 T02940139=
202105261552 METAR KATL 261552Z 29006KT 10SM FEW048 FEW120 29/16 A3023 RMK AO2 SLP226 T02890156=
202105261452 METAR KATL 261452Z 27007KT 10SM FEW110 FEW250 28/16 A3024 RMK AO2 SLP228 T02830161 51011=
202105261352 METAR KATL 261352Z 27007KT 10SM FEW100 FEW250 27/16 A3023 RMK AO2 SLP227 T02670161=
202105261252 METAR KATL 261252Z 27005KT 10SM FEW080 FEW120 25/16 A3022 RMK AO2 SLP223 T02500161=
202105261152 METAR KATL 261152Z 21004KT 10SM FEW080 FEW150 22/17 A3020 RMK AO2 SLP216 T02220167 10233 20206 51010 $=
202105261052 METAR KATL 261052Z 00000KT 10SM FEW150 FEW250 21/16 A3019 RMK AO2 SLP214 T02110161=
202105260952 METAR KATL 260952Z 22003KT 10SM FEW080 FEW250 21/16 A3018 RMK AO2 SLP210 T02060156=
202105260852 METAR KATL 260852Z 26003KT 10SM FEW075 FEW250 22/16 A3017 RMK AO2 SLP206 T02220156 55004=
202105260752 METAR KATL 260752Z 00000KT 10SM FEW250 23/15 A3017 RMK AO2 SLP205 T02330150=
202105260652 METAR KATL 260652Z 27003KT 10SM FEW075 FEW250 23/15 A3017 RMK AO2 SLP205 T02330150=
202105260552 METAR KATL 260552Z 27005KT 10SM FEW075 FEW250 23/16 A3018 RMK AO2 SLP209 T02330156 10294 20233 50000=
202105260452 METAR KATL 260452Z 27004KT 10SM SCT075 BKN250 24/16 A3019 RMK AO2 SLP212 T02440161 403280222=
202105260352 METAR KATL 260352Z 00000KT 10SM BKN070 BKN250 25/16 A3019 RMK AO2 SLP212 T02500161=
202105260252 METAR KATL 260252Z 00000KT 10SM SCT250 26/15 A3018 RMK AO2 SLP209 T02610150 53012=
202105260152 METAR KATL 260152Z 25003KT 10SM FEW250 27/15 A3017 RMK AO2 SLP205 T02720150=
202105260052 METAR KATL 260052Z 23004KT 10SM FEW070 FEW250 28/15 A3015 RMK AO2 SLP199 T02830150=
202105252352 METAR KATL 252352Z 21006KT 10SM FEW070 FEW250 29/15 A3015 RMK AO2 SLP197 T02940150 10328 20294 55006=
202105252252 METAR KATL 252252Z 23007KT 10SM FEW070 SCT250 31/14 A3014 RMK AO2 SLP196 T03110144=
202105252152 METAR KATL 252152Z 22008KT 10SM FEW070 FEW100 SCT250 32/14 A3015 RMK AO2 SLP198 TCU DSNT N-NE T03170144 $=
202105252052 METAR KATL 252052Z 19009KT 10SM FEW075 FEW100 SCT200 SCT250 32/15 A3016 RMK AO2 SLP203 MDT CU N-E-SE T03170150 56015=
202105251952 METAR KATL 251952Z 22008G14KT 10SM FEW075 FEW100 SCT200 SCT250 32/15 A3017 RMK AO2 SLP205 MDT CU NE SE SW T03220150=
202105251852 METAR KATL 251852Z VRB05KT 10SM FEW070 SCT100 SCT200 BKN250 32/14 A3019 RMK AO2 SLP212 MDT CU ALQDS T03170144=
202105251752 METAR KATL 251752Z 21006KT 10SM FEW070 SCT100 SCT200 BKN250 32/15 A3021 RMK AO2 SLP218 MDT CU ALQDS T03220150 10322 20239 58005=
202105251652 METAR KATL 251652Z 21004KT 10SM SCT065 SCT095 BKN200 BKN250 31/15 A3022 RMK AO2 SLP221 MDT CU OHD ALQDS T03060150=
202105251552 METAR KATL 251552Z VRB04KT 9SM FEW055 SCT200 SCT250 31/17 A3022 RMK AO2 SLP221 T03060172=
202105251452 METAR KATL 251452Z VRB03KT 9SM FEW120 SCT200 SCT250 SCT300 29/18 A3023 RMK AO2 SLP223 ACC SW T02940178 51008=
202105251352 METAR KATL 251352Z 16005KT 10SM FEW200 SCT250 SCT300 27/17 A3022 RMK AO2 SLP222 T02720172=
202105251252 METAR KATL 251252Z 00000KT 10SM FEW200 SCT250 27/18 A3021 RMK AO2 SLP219 T02670183=
202105251152 METAR KATL 251152Z 00000KT 10SM FEW200 BKN250 24/17 A3020 RMK AO2 SLP216 T02390172 10250 20222 53016=
202105251052 METAR KATL 251052Z 00000KT 10SM FEW200 SCT250 24/17 A3018 RMK AO2 SLP210 T02390167=
202105250952 METAR KATL 250952Z 01003KT 10SM FEW150 SCT250 24/17 A3017 RMK AO2 SLP203 T02390167=
202105250852 METAR KATL 250852Z 32003KT 10SM FEW250 23/17 A3015 RMK AO2 SLP200 T02280167 56004=
202105250752 METAR KATL 250752Z 31003KT 10SM FEW250 23/17 A3016 RMK AO2 SLP200 T02330167=
202105250652 METAR KATL 250652Z 00000KT 10SM FEW250 24/17 A3016 RMK AO2 SLP200 T02440167=
202105250552 METAR KATL 250552Z 00000KT 10SM SCT250 24/16 A3016 RMK AO2 SLP204 T02390161 10300 20239 58004=
202105250452 METAR KATL 250452Z 03005KT 10SM SCT250 27/16 A3018 RMK AO2 SLP206 T02670156 403280194=
202105250352 METAR KATL 250352Z 01006KT 10SM FEW200 BKN250 27/16 A3018 RMK AO2 SLP208 T02670156=
202105250252 METAR KATL 250252Z 34005KT 10SM FEW200 BKN250 27/16 A3018 RMK AO2 SLP207 T02670156 53012=
202105250152 METAR KATL 250152Z 31004KT 10SM SCT200 BKN250 28/16 A3016 RMK AO2 SLP201 T02780156=
202105250052 METAR KATL 250052Z 33006KT 10SM FEW085 SCT200 BKN250 28/16 A3015 RMK AO2 SLP198 T02830161=
202105242352 METAR KATL 242352Z 34007KT 10SM FEW085 SCT200 BKN250 30/16 A3014 RMK AO2 SLP196 T03000156 10328 20300 55000=
202105242252 METAR KATL 242252Z 27007KT 10SM FEW085 SCT200 BKN250 31/15 A3013 RMK AO2 SLP193 T03060150=
202105242152 METAR KATL 242152Z 00000KT 10SM SCT085 BKN200 BKN250 32/12 A3013 RMK AO2 SLP193 T03170117=
202105242052 METAR KATL 242052Z 28006KT 10SM FEW080 SCT100 BKN200 BKN250 31/13 A3014 RMK AO2 SLP195 MDT CU OHD NE SW W T03110128 56013=
202105241952 METAR KATL 241952Z 30008KT 10SM FEW080 SCT200 BKN250 BKN300 32/14 A3015 RMK AO2 SLP197 T03220139=
202105241852 METAR KATL 241852Z 23007KT 10SM FEW075 SCT200 BKN250 BKN300 32/14 A3016 RMK AO2 SLP203 MDT CU E SW T03170144=
202105241752 METAR KATL 241752Z 26007KT 10SM FEW080 SCT200 SCT250 BKN300 31/14 A3018 RMK AO2 SLP209 MDT CU ALQDS T03060139 10322 20211 58012=
202105241652 METAR KATL 241652Z VRB05KT 10SM FEW065 FEW200 SCT250 SCT300 31/14 A3020 RMK AO2 SLP217 T03110144=
202105241552 METAR KATL 241552Z 00000KT 10SM FEW200 SCT250 SCT300 30/16 A3021 RMK AO2 SLP219 T03000156=
202105241452 METAR KATL 241452Z 03006KT 10SM FEW200 SCT250 SCT300 29/16 A3021 RMK AO2 SLP221 T02890156 50008=
202105241352 METAR KATL 241352Z 05006KT 10SM FEW200 SCT250 BKN300 27/16 A3022 RMK AO2 SLP222 T02720156=
202105241252 METAR KATL 241252Z 32004KT 10SM FEW200 SCT250 24/16 A3021 RMK AO2 SLP218 T02440161=
202105241152 METAR KATL 241152Z 33005KT 10SM FEW200 SCT250 21/15 A3019 RMK AO2 SLP213 T02110150 10222 20194 53015=
202105241052 METAR KATL 241052Z 31004KT 10SM FEW200 SCT250 19/14 A3017 RMK AO2 SLP206 T01940144=
202105240952 METAR KATL 240952Z 31006KT 10SM FEW250 20/14 A3015 RMK AO2 SLP199 T02000144=
202105240852 METAR KATL 240852Z 31005KT 10SM FEW250 21/14 A3014 RMK AO2 SLP197 T02060144 56005=
202105240752 METAR KATL 240752Z 31005KT 10SM FEW250 21/14 A3015 RMK AO2 SLP197 T02060144=
202105240652 METAR KATL 240652Z 31005KT 10SM SCT250 22/14 A3015 RMK AO2 SLP199 T02170144=
202105240552 METAR KATL 240552Z 31007KT 10SM FEW250 22/14 A3016 RMK AO2 SLP202 T02220144 10294 20222 58008=
202105240452 METAR KATL 240452Z 31007KT 10SM SCT250 23/14 A3017 RMK AO2 SLP207 T02330139 403220183=
202105240352 METAR KATL 240352Z 31007KT 10SM FEW250 24/14 A3018 RMK AO2 SLP209 T02390139=
202105240252 METAR KATL 240252Z 29006KT 10SM FEW250 24/14 A3018 RMK AO2 SLP211 T02440139 53010=
202105240152 METAR KATL 240152Z 32006KT 10SM FEW075 SCT250 26/13 A3017 RMK AO2 SLP207 T02610128=
202105240052 METAR KATL 240052Z 32006KT 10SM FEW075 FEW250 28/12 A3016 RMK AO2 SLP204 T02780122 $=
202105232352 METAR KATL 232352Z 31009KT 10SM FEW075 SCT250 29/12 A3015 RMK AO2 SLP201 T02940117 10322 20294 55002 $=
202105232252 METAR KATL 232252Z 31008KT 10SM FEW075 FEW250 31/11 A3015 RMK AO2 SLP199 T03060111 $=
202105232252 SPECI KATL 232252Z 31008KT 10SM FEW075 FEW250 31/11 A3015 RMK AO2 SLP199 T03060111 $=
202105232152 METAR KATL 232152Z 31011G16KT 10SM SCT075 SCT250 31/12 A3015 RMK AO2 SLP201 T03110117 $=
202105232052 METAR KATL 232052Z 31010KT 10SM SCT080 SCT250 32/12 A3016 RMK AO2 SLP203 T03170122 56021 $=
202105231952 METAR KATL 231952Z 25006KT 10SM SCT080 SCT250 32/12 A3018 RMK AO2 SLP207 T03170122 $=
202105231852 METAR KATL 231852Z VRB03KT 10SM SCT075 SCT250 31/12 A3019 RMK AO2 SLP214 T03110117=
202105231752 METAR KATL 231752Z 30005KT 10SM FEW065 SCT250 30/12 A3022 RMK AO2 SLP223 T03000122 10311 20211 58017=
202105231652 METAR KATL 231652Z 30008KT 10SM FEW055 SCT250 30/16 A3025 RMK AO2 SLP231 T03000156=
202105231552 METAR KATL 231552Z 29004KT 10SM FEW150 FEW250 28/17 A3026 RMK AO2 SLP238 T02830167=
202105231452 METAR KATL 231452Z 30003KT 10SM FEW150 SCT250 27/16 A3027 RMK AO2 SLP242 T02670156 58003=
202105231352 METAR KATL 231352Z 29006KT 10SM FEW150 SCT250 25/15 A3028 RMK AO2 SLP246 T02500150=
202105231252 METAR KATL 231252Z 29007KT 10SM FEW250 23/14 A3028 RMK AO2 SLP246 T02330144=
202105231152 METAR KATL 231152Z 27004KT 10SM FEW180 FEW250 21/13 A3028 RMK AO2 SLP245 T02110133 10217 20183 53008=
202105231052 METAR KATL 231052Z 00000KT 10SM FEW060 FEW180 FEW250 19/13 A3027 RMK AO2 SLP241 T01890128=
202105230952 METAR KATL 230952Z 29005KT 10SM FEW050 SCT250 19/13 A3026 RMK AO2 SLP238 T01890128=
202105230852 METAR KATL 230852Z 30005KT 10SM SCT250 19/13 A3026 RMK AO2 SLP237 T01940133 56011=
202105230752 METAR KATL 230752Z 26003KT 10SM BKN250 20/13 A3026 RMK AO2 SLP238 T02000128=
202105230652 METAR KATL 230652Z 28004KT 10SM BKN250 21/12 A3027 RMK AO2 SLP242 T02060122=
202105230552 METAR KATL 230552Z 00000KT 10SM BKN250 22/12 A3029 RMK AO2 SLP248 T02170122 10267 20217 58007=
202105230452 METAR KATL 230452Z 24003KT 10SM BKN250 BKN300 22/13 A3030 RMK AO2 SLP253 T02170128 402890178=
202105230352 METAR KATL 230352Z 24004KT 10SM BKN250 BKN300 22/13 A3030 RMK AO2 SLP253 T02220128=
202105230252 METAR KATL 230252Z 23004KT 10SM FEW070 BKN250 BKN300 23/12 A3031 RMK AO2 SLP256 T02330122 53008=
202105230152 METAR KATL 230152Z 00000KT 10SM FEW200 BKN250 BKN300 24/12 A3030 RMK AO2 SLP253 T02390122=
202105230052 METAR KATL 230052Z 18004KT 10SM FEW200 BKN250 BKN300 25/12 A3029 RMK AO2 SLP250 T02500117=
202105222352 METAR KATL 222352Z 17005KT 10SM SCT200 BKN250 BKN300 27/11 A3029 RMK AO2 SLP248 T02670106 10289 20267 56009=
202105222252 METAR KATL 222252Z 11005KT 10SM BKN250 BKN300 28/11 A3029 RMK AO2 SLP251 T02780106=
202105222152 METAR KATL 222152Z 07006KT 10SM FEW075 BKN250 BKN300 29/10 A3030 RMK AO2 SLP253 T02890100=
202105222052 METAR KATL 222052Z 11009KT 10SM FEW075 SCT200 BKN250 BKN300 29/11 A3032 RMK AO2 SLP257 T02890106 56024=
202105221952 METAR KATL 221952Z 09011KT 10SM FEW075 SCT200 BKN250 BKN300 28/11 A3033 RMK AO2 SLP264 T02830111=
202105221852 METAR KATL 221852Z 07007KT 10SM FEW070 SCT200 BKN250 BKN300 28/11 A3036 RMK AO2 SLP273 T02780106=
202105221752 METAR KATL 221752Z 05008KT 10SM FEW065 SCT200 SCT250 BKN300 28/12 A3039 RMK AO2 SLP282 T02780122 10278 20194 58016=
202105221652 METAR KATL 221652Z 05008KT 10SM FEW060 SCT200 BKN250 BKN300 27/11 A3041 RMK AO2 SLP290 T02670106=
202105221552 METAR KATL 221552Z 00000KT 10SM FEW050 SCT200 BKN250 BKN300 25/12 A3043 RMK AO2 SLP295 T02500122=
202105221452 METAR KATL 221452Z 00000KT 10SM FEW050 SCT200 BKN250 BKN300 24/13 A3043 RMK AO2 SLP298 T02440133 50003=
202105221352 METAR KATL 221352Z 00000KT 10SM SCT200 BKN250 BKN300 22/15 A3044 RMK AO2 SLP300 T02220150=
202105221252 METAR KATL 221252Z 16004KT 10SM SCT250 21/15 A3043 RMK AO2 SLP299 T02060150=
202105221152 METAR KATL 221152Z 08003KT 10SM SCT250 19/14 A3043 RMK AO2 SLP296 T01940139 10211 20178 53011=
202105221052 METAR KATL 221052Z 00000KT 10SM SCT250 18/13 A3041 RMK AO2 SLP292 T01780133=
202105220952 METAR KATL 220952Z 07005KT 10SM SCT250 18/13 A3040 RMK AO2 SLP287 T01780133=
202105220852 METAR KATL 220852Z 10003KT 10SM FEW250 19/13 A3039 RMK AO2 SLP284 T01890133 58001=
202105220752 METAR KATL 220752Z 12003KT 10SM SCT250 19/14 A3040 RMK AO2 SLP284 T01940139=
202105220652 METAR KATL 220652Z 12004KT 10SM BKN250 21/13 A3040 RMK AO2 SLP285 T02060133=
202105220552 METAR KATL 220552Z 09004KT 10SM BKN250 21/13 A3040 RMK AO2 SLP285 T02110133 10261 20211 50001=
202105220452 METAR KATL 220452Z 09007KT 10SM BKN250 22/14 A3040 RMK AO2 SLP287 T02170139 402890150=
202105220352 METAR KATL 220352Z 09008KT 10SM BKN250 22/14 A3040 RMK AO2 SLP287 T02220139=
202105220252 METAR KATL 220252Z 08009KT 10SM BKN250 24/13 A3039 RMK AO2 SLP284 T02390128 53009=
202105220152 METAR KATL 220152Z 08007KT 10SM BKN250 24/13 A3038 RMK AO2 SLP280 T02390128=
202105220052 METAR KATL 220052Z 09008KT 10SM BKN250 24/13 A3037 RMK AO2 SLP277 T02440128=
202105212352 METAR KATL 212352Z 09010KT 10SM FEW070 BKN250 26/12 A3037 RMK AO2 SLP276 T02610122 10289 20261 55005=
202105212252 METAR KATL 212252Z 12009KT 10SM FEW070 BKN250 28/12 A3037 RMK AO2 SLP276 T02780117=
202105212152 METAR KATL 212152Z 12010KT 10SM FEW070 BKN250 28/11 A3037 RMK AO2 SLP277 T02780111=
202105212052 METAR KATL 212052Z 14008G17KT 10SM FEW070 SCT250 BKN300 28/12 A3038 RMK AO2 SLP280 T02830117 56018=
202105211952 METAR KATL 211952Z 12010KT 10SM FEW070 SCT250 SCT300 28/11 A3040 RMK AO2 SLP285 T02780111=
202105211852 METAR KATL 211852Z 15008G18KT 10SM FEW065 SCT250 28/13 A3041 RMK AO2 SLP291 T02780128=
202105211752 METAR KATL 211752Z 11010G20KT 10SM FEW060 SCT200 SCT250 28/12 A3044 RMK AO2 SLP298 T02780117 10278 20172 58004=
202105211652 METAR KATL 211652Z 14008KT 10SM FEW200 SCT250 SCT300 27/13 A3045 RMK AO2 SLP304 T02670133=
202105211552 METAR KATL 211552Z 12007G15KT 10SM FEW200 SCT250 BKN300 26/12 A3046 RMK AO2 SLP305 T02560122=
202105211452 METAR KATL 211452Z 14008KT 10SM SCT200 BKN250 BKN300 24/12 A3045 RMK AO2 SLP303 T02390122 51008=
202105211352 METAR KATL 211352Z 11008KT 10SM SCT200 BKN250 BKN300 22/13 A3045 RMK AO2 SLP302 T02170133=
202105211252 METAR KATL 211252Z 12007KT 10SM BKN250 19/13 A3044 RMK AO2 SLP301 T01940133=
202105211152 METAR KATL 211152Z 08006KT 10SM SCT250 17/13 A3042 RMK AO2 SLP296 T01720128 10194 20150 53012=
202105211052 METAR KATL 211052Z 09004KT 10SM SCT250 15/12 A3040 RMK AO2 SLP287 T01500122=
202105210952 METAR KATL 210952Z 12004KT 10SM SCT250 17/12 A3039 RMK AO2 SLP285 T01670122=
202105210852 METAR KATL 210852Z 12005KT 10SM FEW250 17/12 A3039 RMK AO2 SLP283 T01720117 53007=
202105210752 METAR KATL 210752Z 13005KT 10SM CLR 18/12 A3038 RMK AO2 SLP279 T01780117=
202105210652 METAR KATL 210652Z 14005KT 10SM FEW250 18/12 A3037 RMK AO2 SLP277 T01830117=
202105210552 METAR KATL 210552Z 14006KT 10SM FEW250 19/12 A3037 RMK AO2 SLP276 T01940117 10250 20194 51010=
202105210452 METAR KATL 210452Z 13007KT 10SM SCT250 21/12 A3036 RMK AO2 SLP274 T02060117 402720167=
202105210352 METAR KATL 210352Z 12012G19KT 10SM SCT250 22/11 A3035 RMK AO2 SLP270 T02170111=
202105210252 METAR KATL 210252Z 11009G17KT 10SM SCT250 23/12 A3034 RMK AO2 SLP264 T02280117 51009=
202105210152 METAR KATL 210152Z 10008KT 10SM SCT250 23/12 A3033 RMK AO2 SLP262 T02280122=
202105210052 METAR KATL 210052Z 11006KT 10SM FEW060 SCT250 24/12 A3032 RMK AO2 SLP260 T02390117=
202105202352 METAR KATL 202352Z 12011KT 10SM FEW060 SCT250 25/12 A3031 RMK AO2 SLP256 T02500117 10272 20250 52001=
202105202252 METAR KATL 202252Z 13010G20KT 10SM SCT060 BKN250 26/11 A3031 RMK AO2 SLP256 T02610111=
202105202152 METAR KATL 202152Z 13010G20KT 10SM FEW060 BKN250 27/12 A3030 RMK AO2 SLP254 T02670117=
202105202052 METAR KATL 202052Z 12008G24KT 090V170 10SM FEW060 SCT200 SCT250 27/12 A3030 RMK AO2 SLP254 T02670122 58017=
202105201952 METAR KATL 201952Z 11012KT 10SM FEW060 SCT200 SCT250 27/12 A3033 RMK AO2 SLP262 T02670117=
202105201852 METAR KATL 201852Z 11012G18KT 080V140 10SM FEW055 SCT200 BKN250 26/13 A3034 RMK AO2 SLP265 T02610128=
202105201752 METAR KATL 201752Z 12014G22KT 10SM SCT050 SCT200 BKN250 26/12 A3035 RMK AO2 SLP271 T02560122 10256 20183 58006=
202105201652 METAR KATL 201652Z 11016G23KT 10SM SCT048 BKN200 BKN250 25/13 A3037 RMK AO2 SLP275 T02500128 $=
202105201552 METAR KATL 201552Z 14013G23KT 10SM SCT042 SCT200 BKN250 23/13 A3037 RMK AO2 PK WND 10028/1525 SLP277 T02330133 $=
202105201452 METAR KATL 201452Z 11015G22KT 10SM FEW036 SCT200 BKN250 23/13 A3037 RMK AO2 SLP276 T02330133 50005=
202105201352 METAR KATL 201352Z 12009G17KT 10SM FEW024 SCT250 BKN300 22/15 A3038 RMK AO2 SLP278 T02220150=
202105201252 METAR KATL 201252Z 11007KT 10SM FEW018 FEW070 BKN250 19/15 A3037 RMK AO2 SLP277 T01940150=
202105201152 METAR KATL 201152Z 12006KT 10SM FEW060 BKN250 18/15 A3036 RMK AO2 SLP273 T01830150 10200 20167 53013=
202105201052 METAR KATL 201052Z 11007KT 10SM FEW060 BKN250 17/14 A3034 RMK AO2 SLP267 T01720144=
202105200952 METAR KATL 200952Z 11006KT 10SM BKN250 18/15 A3033 RMK AO2 SLP263 T01780150=
202105200852 METAR KATL 200852Z 12005KT 10SM FEW250 18/15 A3032 RMK AO2 SLP259 T01780150 53003=
202105200752 METAR KATL 200752Z 11006KT 10SM FEW055 SCT250 19/15 A3031 RMK AO2 SLP256 T01890150=
202105200652 METAR KATL 200652Z 12007KT 10SM FEW050 SCT250 19/15 A3031 RMK AO2 SLP256 T01940150=
202105200552 METAR KATL 200552Z 13007KT 10SM FEW050 BKN250 20/15 A3031 RMK AO2 SLP256 T02000150 10250 20200 51009=
202105200452 METAR KATL 200452Z 14008KT 10SM FEW060 BKN250 21/15 A3030 RMK AO2 SLP253 T02110150 402720178=
202105200352 METAR KATL 200352Z 12012G18KT 10SM FEW055 SCT250 22/15 A3029 RMK AO2 SLP248 T02170150=
202105200252 METAR KATL 200252Z 12009KT 10SM SCT050 BKN250 23/15 A3028 RMK AO2 SLP245 T02280150 53013=
202105200152 METAR KATL 200152Z 11010G20KT 10SM FEW048 BKN065 BKN200 BKN250 24/14 A3026 RMK AO2 SLP241 T02390144=
202105200052 METAR KATL 200052Z 11008KT 10SM SCT055 BKN200 BKN250 24/14 A3025 RMK AO2 SLP236 T02440139=
202105192352 METAR KATL 192352Z 11010KT 10SM FEW050 SCT200 BKN250 25/14 A3024 RMK AO2 SLP234 T02500139 10272 20244 56003=
202105192252 METAR KATL 192252Z 12012G19KT 10SM FEW050 SCT070 BKN250 26/14 A3024 RMK AO2 SLP234 T02610139=
202105192152 METAR KATL 192152Z 09013G20KT 10SM FEW050 SCT080 BKN250 27/14 A3025 RMK AO2 SLP235 T02670144=
202105192052 METAR KATL 192052Z 12010G19KT 10SM FEW050 FEW080 BKN250 27/14 A3025 RMK AO2 SLP237 T02670139 58014=
202105191952 METAR KATL 191952Z 10015G22KT 10SM FEW050 SCT070 BKN250 27/14 A3028 RMK AO2 SLP243 T02670139=
202105191852 METAR KATL 191852Z 10012G23KT 10SM SCT050 BKN250 26/13 A3029 RMK AO2 SLP247 T02610133=
202105191752 METAR KATL 191752Z 12011G18KT 10SM SCT049 BKN060 BKN250 24/13 A3030 RMK AO2 SLP251 MDT CU S-W T02440133 10261 20183 58001=
202105191652 METAR KATL 191652Z 12012G23KT 10SM SCT042 BKN250 26/14 A3031 RMK AO2 PK WND 11026/1641 SLP254 T02560139=
202105191552 METAR KATL 191552Z 12013G20KT 10SM SCT038 BKN250 25/14 A3031 RMK AO2 SLP255 T02500144=
202105191452 METAR KATL 191452Z 11012G20KT 10SM FEW033 SCT200 SCT250 23/14 A3030 RMK AO2 SLP252 T02330144 50002=
202105191352 METAR KATL 191352Z 11010G17KT 10SM FEW026 SCT150 SCT250 22/14 A3031 RMK AO2 SLP255 T02170144=
202105191252 METAR KATL 191252Z 11009KT 10SM FEW150 FEW180 FEW250 21/13 A3031 RMK AO2 SLP257 T02060133=
202105191152 METAR KATL 191152Z 09009KT 10SM SCT180 SCT250 18/13 A3029 RMK AO2 SLP252 T01830128 10200 20178 53014=
202105191052 METAR KATL 191052Z 10010KT 10SM SCT180 BKN220 BKN250 18/12 A3028 RMK AO2 SLP246 T01830122=
202105190952 METAR KATL 190952Z 10007KT 10SM FEW043 SCT180 BKN220 18/13 A3027 RMK AO2 SLP242 T01830133=
202105190852 METAR KATL 190852Z 12006KT 10SM FEW043 BKN180 BKN250 19/13 A3025 RMK AO2 SLP237 T01890133 53002=
202105190752 METAR KATL 190752Z 12008KT 10SM SCT048 BKN150 BKN200 BKN250 19/14 A3024 RMK AO2 SLP233 T01940139=
202105190652 METAR KATL 190652Z 12008KT 10SM BKN045 BKN150 BKN200 BKN250 20/15 A3024 RMK AO2 SLP233 T02000150=
202105190552 METAR KATL 190552Z 10008KT 10SM FEW150 SCT200 BKN250 20/16 A3025 RMK AO2 SLP234 60000 T02000156 10233 20200 58003=
202105190452 METAR KATL 190452Z 10011KT 10SM FEW060 SCT150 BKN200 BKN250 21/16 A3026 RMK AO2 SLP239 T02060156 402560172=
202105190352 METAR KATL 190352Z 09013G20KT 10SM FEW048 BKN070 BKN150 BKN200 22/15 A3026 RMK AO2 SLP241 T02170150=
202105190252 METAR KATL 190252Z 09009KT 10SM FEW070 BKN140 BKN200 22/16 A3026 RMK AO2 RAE09 SLP239 P0000 60000 T02170156 53015=
202105190152 METAR KATL 190152Z 09010KT 10SM -RA SCT048 BKN070 BKN120 BKN200 22/16 A3024 RMK AO2 RAB51 SLP234 P0000 T02220156=
202105190052 METAR KATL 190052Z 09010KT 10SM FEW050 SCT080 BKN110 BKN200 23/16 A3022 RMK AO2 SLP228 T02280156=
202105182352 METAR KATL 182352Z 12009KT 10SM FEW035 SCT060 BKN150 BKN250 24/15 A3021 RMK AO2 SLP224 60000 T02390150 10256 20228 55000=
202105182252 METAR KATL 182252Z 10009KT 10SM FEW038 BKN100 BKN150 BKN250 24/16 A3020 RMK AO2 RAB19E28 SLP222 P0000 T02390156=
202105182152 METAR KATL 182152Z 13011G20KT 10SM SCT042TCU SCT060 BKN140 BKN250 26/14 A3021 RMK AO2 SLP222 TCU E-OHD-SW T02560144=
202105182052 METAR KATL 182052Z 11013G20KT 10SM SCT044 BKN100 BKN150 BKN250 25/14 A3021 RMK AO2 SLP224 T02500144 56019=
202105181952 METAR KATL 181952Z 11011KT 10SM BKN041 BKN080 BKN160 BKN250 25/14 A3023 RMK AO2 SLP230 T02500144=
202105181852 METAR KATL 181852Z 09012G21KT 10SM SCT036 BKN050 BKN160 BKN250 24/16 A3025 RMK AO2 SLP235 T02440156=
202105181752 METAR KATL 181752Z 13011KT 10SM SCT032 BKN055 BKN160 24/16 A3027 RMK AO2 SLP243 T02440156 10244 20172 58007=
202105181652 METAR KATL 181652Z 13010G17KT 10SM SCT032 BKN045 BKN160 BKN200 24/14 A3029 RMK AO2 SLP249 T02390144=
202105181630 SPECI KATL 181630Z 15006KT 10SM BKN030 BKN044 BKN150 24/16 A3029 RMK AO2 T02390161=
202105181552 METAR KATL 181552Z 13007KT 10SM BKN027 BKN160 23/16 A3029 RMK AO2 SLP250 T02330156=
202105181452 METAR KATL 181452Z 13007KT 10SM FEW020 BKN160 21/16 A3029 RMK AO2 SLP251 T02110156 50004=
202105181352 METAR KATL 181352Z 14007KT 10SM BKN160 OVC200 19/15 A3029 RMK AO2 SLP251 BINOVC T01940150=
202105181252 METAR KATL 181252Z 11009KT 10SM FEW027 FEW150 SCT180 OVC200 18/14 A3028 RMK AO2 SLP248 VIRGA SW-NW T01830144=
202105181152 METAR KATL 181152Z 11008KT 10SM SCT150 BKN220 BKN250 17/14 A3028 RMK AO2 SLP246 VIRGA S-W-N T01720139 10206 20172 53024=
202105181052 METAR KATL 181052Z 12005KT 10SM FEW150 BKN220 BKN250 17/13 A3025 RMK AO2 SLP237 T01720133=
202105180952 METAR KATL 180952Z 11006KT 10SM SCT150 BKN220 BKN250 17/13 A3022 RMK AO2 SLP227 T01720128=
202105180852 METAR KATL 180852Z 13005KT 10SM FEW180 SCT200 BKN250 18/13 A3020 RMK AO2 SLP221 T01780128 53001=
202105180752 METAR KATL 180752Z 15006KT 10SM SCT180 SCT200 SCT250 18/13 A3020 RMK AO2 SLP218 T01830128=
202105180652 METAR KATL 180652Z 15009KT 10SM SCT180 BKN200 BKN250 19/12 A3019 RMK AO2 SLP217 T01940122=
202105180552 METAR KATL 180552Z 15006KT 10SM SCT150 BKN180 BKN250 21/12 A3020 RMK AO2 SLP219 T02060122 10244 20206 58000=
202105180452 METAR KATL 180452Z 13009KT 10SM BKN150 BKN250 21/12 A3021 RMK AO2 SLP221 T02060122 402610150=
202105180352 METAR KATL 180352Z 13006KT 10SM BKN180 BKN250 21/12 A3020 RMK AO2 SLP220 T02060117=
202105180252 METAR KATL 180252Z 12007KT 10SM SCT180 BKN250 22/11 A3020 RMK AO2 SLP219 T02170111 53009=
202105180152 METAR KATL 180152Z 11007KT 10SM FEW150 SCT200 BKN250 22/11 A3017 RMK AO2 SLP211 T02220111=
202105180052 METAR KATL 180052Z 11009KT 10SM FEW150 BKN200 BKN250 23/11 A3018 RMK AO2 SLP212 T02330111=
202105172352 METAR KATL 172352Z 11008KT 10SM FEW150 BKN200 BKN250 24/11 A3017 RMK AO2 SLP212 T02440106 10261 20244 54000=
202105172252 METAR KATL 172252Z 13007KT 10SM FEW060 BKN200 BKN250 26/11 A3018 RMK AO2 SLP212 T02560111=
202105172152 METAR KATL 172152Z 15009KT 10SM FEW060 BKN200 BKN250 25/09 A3017 RMK AO2 SLP211 T02500094=
202105172052 METAR KATL 172052Z 19009G16KT 10SM FEW060 BKN200 BKN250 25/10 A3017 RMK AO2 SLP212 T02500100 56015=
202105171952 METAR KATL 171952Z 13009KT 10SM FEW060 BKN200 BKN250 25/11 A3018 RMK AO2 SLP213 T02500106=
202105171852 METAR KATL 171852Z 14011G17KT 10SM SCT060 BKN250 25/09 A3020 RMK AO2 SLP220 T02500094=
202105171752 METAR KATL 171752Z 14008G16KT 10SM SCT060 BKN250 25/09 A3022 RMK AO2 SLP227 T02500094 10256 20167 58010=
202105171652 METAR KATL 171652Z VRB06KT 10SM FEW055 SCT200 BKN250 25/11 A3023 RMK AO2 SLP230 T02500106=
202105171552 METAR KATL 171552Z 19007KT 10SM FEW048 SCT200 BKN250 24/12 A3025 RMK AO2 SLP235 T02440117=
202105171452 METAR KATL 171452Z VRB04KT 10SM FEW200 BKN250 23/13 A3025 RMK AO2 SLP237 T02280128 51009=
202105171352 METAR KATL 171352Z 20006KT 10SM FEW200 SCT250 21/12 A3024 RMK AO2 SLP234 T02060122=
202105171252 METAR KATL 171252Z 20006KT 10SM FEW200 FEW250 18/12 A3023 RMK AO2 SLP233 T01830122=
202105171152 METAR KATL 171152Z VRB03KT 10SM FEW200 FEW250 17/11 A3022 RMK AO2 SLP228 T01670111 10183 20150 53014=
202105171052 METAR KATL 171052Z 20005KT 10SM FEW200 SCT250 15/11 A3020 RMK AO2 SLP220 T01500106=
202105170952 METAR KATL 170952Z 20008KT 10SM FEW250 16/11 A3019 RMK AO2 SLP217 T01560106=
202105170852 METAR KATL 170852Z 18005KT 10SM FEW250 16/10 A3018 RMK AO2 SLP213 T01610100 56004=
202105170752 METAR KATL 170752Z 00000KT 10SM FEW250 17/10 A3018 RMK AO2 SLP213 T01670100=
202105170652 METAR KATL 170652Z 00000KT 10SM FEW250 18/10 A3018 RMK AO2 SLP213 T01780100=
202105170552 METAR KATL 170552Z 00000KT 10SM FEW250 18/10 A3019 RMK AO2 SLP216 T01830100 10239 20178 58006=
202105170452 METAR KATL 170452Z 18004KT 10SM FEW250 18/11 A3020 RMK AO2 SLP219 T01780106 402610133=
202105170352 METAR KATL 170352Z 17004KT 10SM FEW250 19/11 A3020 RMK AO2 SLP221 T01940106=
202105170252 METAR KATL 170252Z 15003KT 10SM FEW250 21/11 A3021 RMK AO2 SLP222 T02060106 51011=
202105170152 METAR KATL 170152Z 16004KT 10SM FEW070 SCT250 22/10 A3020 RMK AO2 SLP219 T02170100=
202105170052 METAR KATL 170052Z 17005KT 10SM FEW070 SCT250 23/09 A3019 RMK AO2 SLP217 T02280094=
202105162352 METAR KATL 162352Z 20005KT 10SM SCT070 BKN250 24/09 A3017 RMK AO2 SLP212 T02390089 10261 20239 56004=
202105162252 METAR KATL 162252Z 22007KT 10SM SCT070 BKN250 24/09 A3018 RMK AO2 SLP212 T02440089=
202105162152 METAR KATL 162152Z 24004KT 10SM SCT070 BKN250 26/09 A3018 RMK AO2 SLP212 T02560089=
202105162052 METAR KATL 162052Z 24007KT 10SM FEW070 BKN250 25/09 A3019 RMK AO2 SLP217 T02500089 56022=
202105161952 METAR KATL 161952Z 20004KT 10SM FEW070 SCT250 25/08 A3020 RMK AO2 SLP221 T02500078=
202105161852 METAR KATL 161852Z 22008KT 10SM FEW070 FEW250 25/08 A3023 RMK AO2 SLP230 T02500083=
202105161752 METAR KATL 161752Z 24004KT 10SM FEW070 24/08 A3025 RMK AO2 SLP239 T02440078 10250 20150 56016=
202105161652 METAR KATL 161652Z VRB06KT 10SM FEW065 FEW200 24/09 A3027 RMK AO2 SLP244 T02440089=
202105161552 METAR KATL 161552Z VRB03KT 10SM FEW200 23/08 A3028 RMK AO2 SLP248 T02330078=
202105161452 METAR KATL 161452Z 24006KT 10SM FEW200 FEW250 23/08 A3030 RMK AO2 SLP255 T02280078 53008=
202105161352 METAR KATL 161352Z 22009KT 10SM FEW200 SCT250 20/07 A3029 RMK AO2 SLP253 T02000072=
202105161252 METAR KATL 161252Z 23005KT 10SM FEW150 FEW200 SCT250 17/08 A3028 RMK AO2 SLP250 T01720083=
202105161152 METAR KATL 161152Z 22004KT 10SM FEW080 FEW150 FEW200 SCT250 15/09 A3028 RMK AO2 SLP248 T01500089 10167 20133 53016=
202105161052 METAR KATL 161052Z 00000KT 10SM FEW080 FEW130 SCT200 SCT250 14/09 A3026 RMK AO2 SLP241 T01390089=
202105160952 METAR KATL 160952Z 00000KT 10SM FEW130 FEW250 14/09 A3024 RMK AO2 SLP234 T01390094=
202105160852 METAR KATL 160852Z 00000KT 10SM SCT130 BKN250 15/09 A3023 RMK AO2 SLP231 T01500089 53008=
202105160752 METAR KATL 160752Z 00000KT 10SM FEW150 SCT250 16/08 A3021 RMK AO2 SLP223 T01560083=
202105160652 METAR KATL 160652Z 00000KT 10SM FEW150 FEW250 16/08 A3019 RMK AO2 SLP219 T01560083=
202105160552 METAR KATL 160552Z 22003KT 10SM FEW250 16/09 A3020 RMK AO2 SLP222 T01610089 10222 20161 58007=
202105160452 METAR KATL 160452Z 21005KT 10SM FEW150 FEW250 17/09 A3022 RMK AO2 SLP226 T01670094 402440117=
202105160352 METAR KATL 160352Z 19003KT 10SM SCT075 18/09 A3022 RMK AO2 SLP227 T01780094=
202105160252 METAR KATL 160252Z 20003KT 10SM SCT075 18/09 A3023 RMK AO2 SLP229 T01830089 53013=
202105160152 METAR KATL 160152Z 20004KT 10SM SCT075 SCT250 19/09 A3022 RMK AO2 SLP226 T01940094=
202105160052 METAR KATL 160052Z 18004KT 10SM SCT075 SCT250 21/09 A3019 RMK AO2 SLP218 T02060089=
202105152352 METAR KATL 152352Z 22004KT 10SM SCT075 SCT250 22/08 A3019 RMK AO2 SLP217 T02220078 10244 20222 55008=
202105152252 METAR KATL 152252Z 21007KT 10SM FEW070 SCT075 BKN250 23/07 A3018 RMK AO2 SLP216 T02330067=
202105152152 METAR KATL 152152Z 20006KT 10SM SCT075 BKN085 BKN250 23/07 A3020 RMK AO2 SLP223 T02330067=
202105152052 METAR KATL 152052Z 19003KT 10SM BKN070 BKN090 BKN250 23/07 A3021 RMK AO2 SLP226 T02280072 56020=
202105151952 METAR KATL 151952Z 09003KT 10SM BKN070 BKN090 23/07 A3022 RMK AO2 SLP229 T02330072=
202105151852 METAR KATL 151852Z VRB04KT 10SM BKN070 BKN250 23/07 A3025 RMK AO2 SLP237 T02330072=
202105151752 METAR KATL 151752Z 00000KT 10SM BKN070 23/08 A3027 RMK AO2 SLP245 T02330078 10239 20150 58009=
202105151652 METAR KATL 151652Z 24004KT 10SM BKN060 23/09 A3029 RMK AO2 SLP252 T02330089=
202105151552 METAR KATL 151552Z VRB04KT 10SM FEW060 FEW200 22/08 A3031 RMK AO2 SLP257 T02220083=
202105151452 METAR KATL 151452Z 21005KT 10SM FEW001 FEW080 21/08 A3030 RMK AO2 SLP254 FU FEW001 FU E T02060083 58001=
202105151352 METAR KATL 151352Z 18005KT 10SM FEW080 19/08 A3031 RMK AO2 SLP258 T01890078=
202105151252 METAR KATL 151252Z 12003KT 10SM FEW070 FEW250 18/07 A3031 RMK AO2 SLP258 T01780072=
202105151152 METAR KATL 151152Z 03004KT 10SM FEW070 14/09 A3030 RMK AO2 SLP257 T01440089 10150 20117 53023=
202105151052 METAR KATL 151052Z 29003KT 10SM FEW070 12/08 A3027 RMK AO2 SLP248 T01220078=
202105150952 METAR KATL 150952Z 00000KT 10SM FEW070 12/08 A3024 RMK AO2 SLP237 T01220083=
202105150852 METAR KATL 150852Z 00000KT 10SM FEW070 12/08 A3023 RMK AO2 SLP233 T01220083 55003=
202105150752 METAR KATL 150752Z 00000KT 10SM FEW070 14/08 A3022 RMK AO2 SLP230 T01390078=
202105150652 METAR KATL 150652Z 00000KT 10SM FEW070 15/08 A3023 RMK AO2 SLP230 T01500078=
202105150552 METAR KATL 150552Z 00000KT 10SM FEW070 14/08 A3024 RMK AO2 SLP235 T01440083 10211 20144 55002=
202105150452 METAR KATL 150452Z 00000KT 10SM FEW070 16/07 A3024 RMK AO2 SLP234 T01610072 402330111=
202105150352 METAR KATL 150352Z 00000KT 10SM FEW075 17/07 A3024 RMK AO2 SLP236 T01670067=
202105150252 METAR KATL 150252Z 00000KT 10SM BKN075 18/07 A3024 RMK AO2 SLP236 T01780072 53013=
202105150152 METAR KATL 150152Z 17003KT 10SM SCT075 18/07 A3023 RMK AO2 SLP231 T01830072=
202105150052 METAR KATL 150052Z 17004KT 10SM SCT075 19/06 A3022 RMK AO2 SLP228 T01940061=
202105142352 METAR KATL 142352Z 09008KT 10SM SCT080 21/06 A3021 RMK AO2 SLP224 T02060056 10233 20206 55003=
202105142252 METAR KATL 142252Z 00000KT 10SM SCT075 22/04 A3020 RMK AO2 SLP223 T02220044=
202105142152 METAR KATL 142152Z 05004KT 10SM SCT075 22/04 A3021 RMK AO2 SLP226 T02220044=
202105142052 METAR KATL 142052Z 05006KT 10SM FEW075 SCT085 22/04 A3022 RMK AO2 SLP229 T02170039 58015=
202105141952 METAR KATL 141952Z VRB04KT 10SM SCT075 BKN080 22/04 A3023 RMK AO2 SLP235 T02170039=
202105141852 METAR KATL 141852Z 17005KT 10SM SCT075 BKN085 22/04 A3025 RMK AO2 SLP238 T02170044=
202105141752 METAR KATL 141752Z 17006KT 10SM SCT075 22/04 A3026 RMK AO2 SLP243 T02170044 10217 20150 58010=
202105141652 METAR KATL 141652Z VRB04KT 10SM SCT070 21/04 A3028 RMK AO2 SLP249 T02110039=
202105141552 METAR KATL 141552Z 07007KT 10SM FEW065 21/05 A3029 RMK AO2 SLP253 T02060050=
202105141452 METAR KATL 141452Z 04003KT 10SM FEW055 FEW075 FEW250 19/06 A3029 RMK AO2 SLP253 T01940056 50006=
202105141352 METAR KATL 141352Z 10005KT 10SM FEW075 FEW250 18/07 A3029 RMK AO2 SLP254 T01780067=
202105141252 METAR KATL 141252Z 07006KT 10SM FEW075 17/05 A3029 RMK AO2 SLP254 T01670050=
202105141152 METAR KATL 141152Z 05005KT 10SM FEW075 15/07 A3027 RMK AO2 SLP248 T01500072 10150 20111 53014=
202105141052 METAR KATL 141052Z 31003KT 10SM SCT075 12/07 A3025 RMK AO2 SLP242 T01170067=
202105140952 METAR KATL 140952Z 30003KT 10SM SCT075 12/07 A3024 RMK AO2 SLP236 T01220067=
202105140852 METAR KATL 140852Z 00000KT 10SM SCT070 12/08 A3023 RMK AO2 SLP233 SCT070 V BKN T01170078 55000=
202105140752 METAR KATL 140752Z 00000KT 10SM FEW060 SCT070 11/08 A3022 RMK AO2 SLP231 T01110078=
202105140652 METAR KATL 140652Z 00000KT 10SM FEW060 13/08 A3022 RMK AO2 SLP230 T01280078=
202105140552 METAR KATL 140552Z 00000KT 10SM FEW070 13/08 A3023 RMK AO2 SLP233 T01280078 10189 20128 58003=
202105140452 METAR KATL 140452Z 00000KT 10SM FEW070 14/08 A3024 RMK AO2 SLP236 T01390078 402110089=
202105140352 METAR KATL 140352Z 00000KT 10SM FEW070 15/07 A3024 RMK AO2 SLP237 T01500067=
202105140252 METAR KATL 140252Z 00000KT 10SM FEW070 16/07 A3024 RMK AO2 SLP237 T01560072 53014=
202105140152 METAR KATL 140152Z 13003KT 10SM FEW070 17/07 A3022 RMK AO2 SLP231 T01670067=
202105140052 METAR KATL 140052Z 13003KT 10SM FEW070 17/07 A3021 RMK AO2 SLP227 T01720067=
202105132352 METAR KATL 132352Z 12006KT 10SM SCT070 18/05 A3019 RMK AO2 SLP222 T01830050 10211 20183 55001=
202105132252 METAR KATL 132252Z 09007KT 10SM SCT070 19/05 A3019 RMK AO2 SLP220 T01940050=
202105132152 METAR KATL 132152Z 07008KT 10SM SCT070 21/04 A3019 RMK AO2 SLP221 T02060039=
202105132052 METAR KATL 132052Z 08010G16KT 10SM FEW075 21/05 A3020 RMK AO2 SLP224 T02110050 56014=
202105131952 METAR KATL 131952Z 00000KT 10SM FEW070 20/03 A3021 RMK AO2 SLP226 T02000033=
202105131852 METAR KATL 131852Z 06010KT 10SM FEW070 21/05 A3022 RMK AO2 SLP233 T02060050=
202105131752 METAR KATL 131752Z 07005G17KT 10SM FEW065 FEW110 19/03 A3024 RMK AO2 SLP237 T01890033 10189 20106 58015=
202105131652 METAR KATL 131652Z 05005KT 10SM FEW060 FEW100 18/03 A3026 RMK AO2 SLP245 T01830028=
202105131552 METAR KATL 131552Z 08007KT 10SM SCT100 SCT250 17/01 A3027 RMK AO2 SLP251 T01670006=
202105131452 METAR KATL 131452Z 09008KT 10SM FEW110 FEW200 15/03 A3028 RMK AO2 SLP255 T01500028 51007=
202105131447 SPECI KATL 131447Z 09008KT 10SM FEW001 FEW110 FEW200 15/02 A3028 RMK AO2 FU FEW001 FU PLUME S=
202105131352 METAR KATL 131352Z 09011KT 10SM FEW150 FEW250 13/03 A3028 RMK AO2 SLP254 T01330033=
202105131252 METAR KATL 131252Z 06009G17KT 10SM FEW150 FEW250 12/04 A3027 RMK AO2 SLP253 T01220044=
202105131152 METAR KATL 131152Z 04010KT 10SM FEW150 FEW250 11/05 A3026 RMK AO2 SLP248 ACC SE 70016 T01060050 10106 20089 53010=
202105131052 METAR KATL 131052Z 04008KT 10SM SCT160 SCT250 09/06 A3025 RMK AO2 SLP243 T00940056=
202105130952 METAR KATL 130952Z 03008KT 10SM FEW047 SCT160 09/06 A3023 RMK AO2 SLP239 T00940061=
202105130852 METAR KATL 130852Z 06007KT 10SM FEW047 FEW150 09/07 A3023 RMK AO2 SLP238 T00940067 55008=
202105130752 METAR KATL 130752Z 04007KT 10SM SCT045 09/07 A3023 RMK AO2 SLP238 T00940067=
202105130652 METAR KATL 130652Z 08005KT 10SM FEW040 09/07 A3024 RMK AO2 SLP241 T00890067=
202105130552 METAR KATL 130552Z 08005KT 10SM FEW010 FEW040 09/07 A3026 RMK AO2 SLP247 T00940072 10117 20089 56004=
202105130452 METAR KATL 130452Z 08006KT 10SM FEW010 FEW250 09/07 A3026 RMK AO2 SLP247 T00940072 401940094=
202105130352 METAR KATL 130352Z 10005KT 10SM SCT013 BKN030 BKN250 10/08 A3026 RMK AO2 SLP248 SCT013 V BKN T01000078=
202105130252 METAR KATL 130252Z 09009KT 10SM SCT012 BKN018 BKN030 BKN250 10/07 A3027 RMK AO2 SLP250 T01000072 51010=
202105130152 METAR KATL 130152Z 08009KT 10SM FEW014 BKN022 OVC030 11/08 A3026 RMK AO2 SLP247 BINOVC T01060078=
202105130143 SPECI KATL 130143Z 10009KT 10SM SCT014 BKN022 OVC030 11/08 A3025 RMK AO2 BINOVC T01110078=
202105130052 METAR KATL 130052Z 09011KT 10SM BKN013 OVC030 11/08 A3025 RMK AO2 SLP242 T01110078=
202105122352 METAR KATL 122352Z 07013KT 10SM BKN013 OVC020 12/08 A3024 RMK AO2 SLP238 60000 T01170078 10133 20117 52018=
202105122252 METAR KATL 122252Z 06015G22KT 10SM BKN014 OVC020 12/08 A3022 RMK AO2 SLP232 T01170078=
202105122152 METAR KATL 122152Z 07013KT 10SM OVC015 12/08 A3020 RMK AO2 SLP224 T01220083=
202105122052 METAR KATL 122052Z 05013G23KT 10SM OVC010 12/09 A3018 RMK AO2 SLP219 CIG 009V012 60000 T01220089 51008=
202105121952 METAR KATL 121952Z 08015G23KT 10SM BKN013 OVC018 13/09 A3017 RMK AO2 PK WND 05026/1932 RAE04DZB04E40 SLP215 CIG 011V015 P0000 T01280094=
202105121940 SPECI KATL 121940Z 08017G26KT 8SM OVC011 12/09 A3017 RMK AO2 PK WND 05026/1932 RAE04DZB04E40 CIG 009V013 P0000 T01220094=
202105121852 METAR KATL 121852Z 07016G22KT 7SM -RA BKN008 OVC014 13/11 A3017 RMK AO2 PK WND 07026/1758 DZE19RAB42 SLP214 CIG 007V010 P0000 T01280106=
202105121820 SPECI KATL 121820Z 07014KT 8SM BKN011 BKN016 OVC022 13/11 A3017 RMK AO2 PK WND 07026/1758 DZE19 CIG 009V013 P0000 T01330106=
202105121752 METAR KATL 121752Z 07018G27KT 3SM -DZ BKN009 OVC015 13/11 A3016 RMK AO2 PK WND 07027/1744 SFC VIS 7 RAE16DZB16 SLP209 CIG 008V011 P0001 60016 T01330111 10161 20133 50013=
202105121652 METAR KATL 121652Z 06015G23KT 3SM -RA BR BKN007 OVC012 14/12 A3016 RMK AO2 PK WND 04026/1628 WSHFT 1618 DZE21RAB33 SLP210 CIG 005V009 P0002 T01390122=
202105121635 SPECI KATL 121635Z 04016G26KT 6SM -RA BR OVC006 15/13 A3016 RMK AO2 PK WND 04026/1628 WSHFT 1618 DZE21RAB33 CIG 003V009 FROPA P0000 T01500128=
202105121622 SPECI KATL 121622Z 05017G21KT 6SM BR SCT004 BKN007 OVC015 16/14 A3014 RMK AO2 DZE21 CIG 005V009 P0000 T01560139=
202105121552 METAR KATL 121552Z 35009KT 1 1/2SM -DZ BR OVC004 16/14 A3014 RMK AO2 SFC VIS 6 SLP202 CIG 003V005 P0000 T01560139=
202105121512 SPECI KATL 121512Z 36010KT 1SM R09R/P6000FT -DZ BR OVC003 15/14 A3013 RMK AO2 SFC VIS 6 CIG 002V004 TWRINC P0000 T01500139=
202105121452 METAR KATL 121452Z 34010KT 6SM -DZ BR OVC004 16/14 A3012 RMK AO2 RAE35DZB35 SLP195 CIG 003V005 P0001 60013 T01560139 50009=
202105121352 METAR KATL 121352Z 33008KT 6SM -RA BR BKN004 OVC016 15/14 A3012 RMK AO2 SLP195 CIG 003V005 P0005 T01500139=
202105121252 METAR KATL 121252Z 30007KT 3SM RA BR BKN004 OVC012 16/14 A3011 RMK AO2 SLP190 CIG 003V005 P0007 T01610144=
202105121208 SPECI KATL 121208Z 30006KT 5SM -RA BR BKN004 OVC029 16/14 A3010 RMK AO2 BKN004 V SCT P0001 T01560144=
202105121152 METAR KATL 121152Z 33006KT 5SM -RA BR FEW005 BKN029 OVC035 16/14 A3009 RMK AO2 SLP184 P0022 60045 70045 T01560144 10194 20156 53018=
202105121104 SPECI KATL 121104Z 33006KT 3SM RA BR SCT003 BKN025 OVC036 16/15 A3008 RMK AO2 P0005 T01610150=
202105121052 METAR KATL 121052Z 32008KT 2 1/2SM +RA BR SCT004 BKN025 OVC050 16/16 A3008 RMK AO2 SLP178 P0019 T01610156=
202105121049 SPECI KATL 121049Z 31007KT 2 1/2SM +RA BR FEW004 BKN025 OVC040 16/16 A3008 RMK AO2 P0016=
202105120952 METAR KATL 120952Z 33007KT 6SM -RA BR OVC028 17/15 A3005 RMK AO2 RAB0858 SLP169 P0004 T01670150=
202105120852 METAR KATL 120852Z 33005KT 10SM BKN028 OVC075 18/13 A3004 RMK AO2 SLP164 T01830133 56010=
202105120842 SPECI KATL 120842Z 33005KT 10SM BKN028 OVC075 18/13 A3003 RMK AO2 T01830133=
202105120752 METAR KATL 120752Z 33005KT 10SM BKN030 OVC075 18/13 A3004 RMK AO2 SLP165 T01830128=
202105120652 METAR KATL 120652Z 00000KT 10SM BKN030 BKN080 BKN100 OVC200 19/13 A3005 RMK AO2 SLP168 T01890128=
202105120552 METAR KATL 120552Z 00000KT 10SM FEW020 BKN032 BKN085 OVC200 19/13 A3007 RMK AO2 SLP174 T01890128 10217 20189 58009=
202105120452 METAR KATL 120452Z 00000KT 10SM FEW020 SCT070 BKN090 OVC200 19/13 A3008 RMK AO2 SLP178 T01890133 402560172=
202105120352 METAR KATL 120352Z 34008KT 10SM FEW020 BKN090 BKN150 OVC250 19/13 A3009 RMK AO2 SLP185 T01940133=
202105120252 METAR KATL 120252Z 35007KT 10SM SCT038 BKN110 BKN150 BKN250 19/13 A3009 RMK AO2 SLP184 T01940133 51017=
202105120152 METAR KATL 120152Z 33007KT 10SM FEW045 BKN150 BKN250 20/15 A3009 RMK AO2 SLP182 T02000150=
202105120052 METAR KATL 120052Z 33006KT 10SM FEW020 SCT045 BKN150 BKN250 21/15 A3006 RMK AO2 SLP174 T02060150=
202105112352 METAR KATL 112352Z 35006KT 10SM SCT046 BKN140 BKN200 OVC250 22/16 A3004 RMK AO2 SLP166 T02170161 10256 20217 55001=
202105112252 METAR KATL 112252Z 34008KT 10SM FEW050 BKN180 BKN250 23/16 A3004 RMK AO2 SLP165 VIRGA S-W T02280161=
202105112152 METAR KATL 112152Z 34007KT 10SM SCT050 BKN180 BKN250 23/16 A3005 RMK AO2 SLP168 T02330161=
202105112052 METAR KATL 112052Z 34008KT 10SM FEW038 FEW080 BKN180 BKN250 24/17 A3004 RMK AO2 SLP166 VIRGA W-N T02390167 58018=
202105111952 METAR KATL 111952Z 29007KT 10SM FEW034TCU FEW080 SCT160 OVC200 24/16 A3007 RMK AO2 LTG DSNT SE SLP176 VIRGA SE-SW CB DSNT SE TCU SE-SW T02440161=
202105111852 METAR KATL 111852Z 30008KT 10SM SCT033 SCT080 BKN170 OVC250 24/17 A3009 RMK AO2 LTG DSNT SW SLP182 VIRGA SW-NW-NE CB DSNT SW T02440167=
202105111752 METAR KATL 111752Z 30006KT 10SM SCT030 SCT080 BKN200 BKN250 24/17 A3010 RMK AO2 SLP185 T02390167 10244 20172 55009=
202105111652 METAR KATL 111652Z 27006KT 10SM FEW026 SCT036 SCT080 BKN200 BKN250 24/17 A3009 RMK AO2 SLP184 T02440167=
202105111552 METAR KATL 111552Z 30005KT 10SM FEW026 SCT032 BKN080 BKN200 22/16 A3011 RMK AO2 SLP191 T02170156=
202105111452 METAR KATL 111452Z 31005KT 10SM FEW022 FEW050 SCT075 OVC200 21/16 A3013 RMK AO2 SLP195 T02110156 53004=
202105111352 METAR KATL 111352Z 34005KT 10SM FEW050 FEW075 BKN200 OVC250 19/15 A3010 RMK AO2 SLP188 ACC N DSNT S T01940150=
202105111252 METAR KATL 111252Z 26003KT 10SM FEW045 SCT055 BKN080 OVC200 18/15 A3010 RMK AO2 SLP188 T01830150=
202105111152 METAR KATL 111152Z 28006KT 10SM BKN040 BKN050 BKN075 OVC200 17/15 A3011 RMK AO2 SLP191 T01720150 10178 20172 53017=
202105111052 METAR KATL 111052Z 00000KT 10SM BKN040 BKN048 BKN250 18/15 A3007 RMK AO2 SLP174 T01780150=
202105110952 METAR KATL 110952Z 30004KT 10SM BKN044 BKN250 17/15 A3007 RMK AO2 SLP177 T01720150=
202105110852 METAR KATL 110852Z 31007KT 10SM BKN041 OVC250 18/15 A3006 RMK AO2 SLP172 T01780150 53004=
202105110752 METAR KATL 110752Z 32005KT 10SM FEW028 OVC038 18/15 A3005 RMK AO2 SLP169 T01780150=
202105110749 SPECI KATL 110749Z 32005KT 10SM FEW028 OVC035 18/15 A3005 RMK AO2=
202105110652 METAR KATL 110652Z 32005KT 10SM BKN029 BKN250 18/16 A3005 RMK AO2 SLP169 T01780156=
202105110620 SPECI KATL 110620Z 33006KT 10SM BKN029 BKN100 BKN250 18/16 A3005 RMK AO2 T01780161=
202105110552 METAR KATL 110552Z 32005KT 10SM FEW030 FEW100 SCT250 18/16 A3005 RMK AO2 SLP168 T01780161 10222 20178 58000=
202105110452 METAR KATL 110452Z 30005KT 10SM SCT250 18/16 A3006 RMK AO2 SLP171 T01830161 402500172=
202105110352 METAR KATL 110352Z 29005KT 10SM SCT250 19/16 A3005 RMK AO2 SLP171 T01890161=
202105110252 METAR KATL 110252Z 32006KT 10SM SCT070 BKN250 20/16 A3005 RMK AO2 SLP169 T02000161 52012=
202105110152 METAR KATL 110152Z 33007KT 10SM BKN250 21/17 A3003 RMK AO2 SLP164 T02060167=
202105110052 METAR KATL 110052Z 31007KT 10SM FEW028 BKN250 21/17 A3003 RMK AO2 SLP162 T02110167=
202105102352 METAR KATL 102352Z 32010KT 10SM FEW028 SCT200 BKN250 22/16 A3001 RMK AO2 SLP157 T02220161 10250 20222 53005=
202105102252 METAR KATL 102252Z 29011KT 10SM SCT030 SCT200 BKN250 24/17 A3000 RMK AO2 SLP153 T02390167=
202105102152 METAR KATL 102152Z 29009KT 10SM SCT032 BKN200 BKN250 24/16 A3000 RMK AO2 SLP150 T02390161=
202105102052 METAR KATL 102052Z 31014G20KT 10SM FEW032 SCT060 SCT140 BKN200 BKN250 24/17 A3000 RMK AO2 SLP151 TCU DSNT E SE T02390167 56004=
202105101952 METAR KATL 101952Z 28008G16KT 10SM SCT034TCU SCT070 BKN140 BKN200 24/17 A3000 RMK AO2 SLP151 TCU E-SE SW-W MDT CU ALQDS T02440172=
202105101852 METAR KATL 101852Z 24010KT 10SM SCT027 BKN036 BKN060 OVC140 24/17 A3001 RMK AO2 SLP155 MDT CU ALQDS T02390167=
202105101752 METAR KATL 101752Z 24010G15KT 10SM SCT026 BKN060 BKN140 OVC200 24/17 A3001 RMK AO2 SLP155 60000 T02390167 10239 20178 58002=
202105101652 METAR KATL 101652Z 26007KT 10SM FEW022 FEW080 SCT140 BKN200 23/17 A3001 RMK AO2 SLP155 T02330167=
202105101552 METAR KATL 101552Z 22007KT 10SM FEW016 SCT090 SCT140 BKN200 21/17 A3002 RMK AO2 SLP160 T02060167=
202105101452 METAR KATL 101452Z 22006KT 10SM SCT012 BKN090 BKN140 BKN200 20/17 A3002 RMK AO2 SLP156 60000 T02000172 53010=
202105101352 METAR KATL 101352Z 27006KT 10SM FEW007 SCT100 BKN140 BKN200 19/17 A3000 RMK AO2 SLP151 ACC E-SE SW-NW T01890167=
202105101321 SPECI KATL 101321Z 26006KT 10SM SCT007 BKN085 BKN100 OVC140 18/17 A3000 RMK AO2 ACC ALQDS T01830167=
202105101252 METAR KATL 101252Z 29008KT 6SM BR BKN007 BKN080 OVC095 18/17 A3000 RMK AO2 RAE11 SLP149 BKN007 V SCT BINOVC P0000 T01830167=
202105101218 SPECI KATL 101218Z 30003KT 6SM BR BKN007 BKN080 OVC100 18/17 A2999 RMK AO2 RAE11 BKN007 V SCT P0000 T01830167=
202105101152 METAR KATL 101152Z 20003KT 7SM -RA SCT005 BKN050 OVC100 18/17 A2999 RMK AO2 SLP146 SCT005 V BKN P0004 60038 70040 T01780167 10194 20172 55002=
202105101106 SPECI KATL 101106Z 20007KT 8SM -RA FEW005 SCT060 OVC100 18/16 A2997 RMK AO2 P0002 T01780161=
202105101052 METAR KATL 101052Z 20006KT 8SM -RA FEW030 OVC100 18/16 A2996 RMK AO2 RAB36 SLP138 P0001 T01780161=
202105100952 METAR KATL 100952Z 20005KT 10SM FEW005 BKN090 OVC130 18/16 A2996 RMK AO2 RAE16 SLP137 P0001 T01780161=
202105100855 SPECI KATL 100855Z 26007KT 5SM -RA BR FEW005 BKN030 OVC060 18/16 A2999 RMK AO2 P0000 T01780161=
202105100852 METAR KATL 100852Z 27006KT 4SM -RA BR SCT005 BKN023 OVC037 18/17 A2999 RMK AO2 SLP148 P0008 60032 T01780167 56003=
202105100846 SPECI KATL 100846Z 28007KT 3SM RA BR SCT005 BKN023 OVC037 18/17 A3000 RMK AO2 P0006=
202105100752 METAR KATL 100752Z 19006KT 7SM -RA FEW004 SCT065 OVC095 17/16 A2998 RMK AO2 SLP143 P0005 T01720161=
202105100652 METAR KATL 100652Z 00000KT 7SM -RA FEW006 SCT040 OVC085 17/16 A3000 RMK AO2 PK WND 34028/0553 SLP151 TS DSIPTD P0019 T01720156=
202105100631 SPECI KATL 100631Z 33006KT 6SM -RA BR FEW006 BKN040CB OVC070 18/16 A3002 RMK AO2 PK WND 34028/0553 TS DSIPTD CB VC E-S MOV E P0016 T01780161=
202105100618 SPECI KATL 100618Z 34009G19KT 5SM -TSRA BR FEW015 BKN040CB OVC070 18/16 A3002 RMK AO2 PK WND 34028/0553 LTG DSNT NE AND SW CB DSNT NE & SW OCNL LTGICCG W-NW TS W-NW MOV E P0015 T01780161=
202105100605 SPECI KATL 100605Z 35016G25KT 2SM +TSRA BR SCT012 BKN030CB OVC048 18/16 A3004 RMK AO2 PK WND 34028/0553 LTG DSNT NW-NE OCNL LTGICCA OHD-ALQDS TS OHD-ALQDS MOV E P0010 T01830161=
202105100552 METAR KATL 100552Z 34019G27KT 4SM -TSRA FEW015 BKN030CB BKN048 OVC130 19/17 A3004 RMK AO2 PK WND 35027/0552 WSHFT 0536 LTG DSNT NW-NE RAB38 TSB33 PRESRR SLP162 OCNL LTGICCACG W-N-NE TS W-N-NE MOV E P0001 60002 T01940167 10267 20194=
202105100534 SPECI KATL 100534Z 29008G16KT 10SM TS FEW025CB SCT045 BKN085 OVC130 22/15 A3000 RMK AO2 LTG DSNT W-NE TSB33 PRESRR OCNL LTGICCACG W-NW TS VC W-NW MOV E CB DSNT NW-NE T02170150=
202105100452 METAR KATL 100452Z 23007KT 10SM FEW035 FEW049 SCT120 BKN150 OVC200 21/15 A2997 RMK AO2 LTG DSNT N AND NW RAE04 SLP140 CB DSNT W-N P0000 T02110150 402830133=
202105100352 METAR KATL 100352Z 22006KT 8SM -RA SCT050 BKN070 BKN110 OVC150 22/15 A2997 RMK AO2 RAB23 SLP138 P0001 T02220150=
202105100252 METAR KATL 100252Z 23007KT 10SM FEW025 SCT110 BKN140 OVC200 24/12 A2997 RMK AO2 LTG DSNT W AND NW RAB10E18 SLP139 P0000 60000 T02440122 51008=
202105100152 METAR KATL 100152Z 22007KT 10SM FEW090 BKN150 OVC250 24/12 A2997 RMK AO2 LTG DSNT NW SLP139 VIRGA ALQDS CB DSNT NW BINOVC T02440117=
202105100052 METAR KATL 100052Z 23005KT 10SM FEW090 FEW110 SCT150 BKN180 OVC250 26/12 A2997 RMK AO2 SLP140 VIRGA N-E BINOVC T02560117=
202105092352 METAR KATL 092352Z 21012G17KT 10SM FEW065 SCT090 SCT110 BKN200 OVC250 27/11 A2994 RMK AO2 SLP134 BINOVC T02670111 10283 20261 55002=
202105092252 METAR KATL 092252Z 22011G18KT 10SM FEW065 FEW110 SCT170 BKN250 28/12 A2992 RMK AO2 PK WND 22027/2159 SLP126 T02780117=
202105092152 METAR KATL 092152Z 20017G28KT 10SM FEW065 SCT160 SCT250 28/12 A2992 RMK AO2 PK WND 22030/2105 SLP125 T02780117=
202105092052 METAR KATL 092052Z 20018G24KT 10SM FEW065 FEW150 SCT250 28/12 A2995 RMK AO2 PK WND 24028/2028 SLP135 T02780117 58025=
202105091952 METAR KATL 091952Z 21013G21KT 10SM FEW140 FEW180 BKN250 28/13 A2999 RMK AO2 SLP148 T02830133=
202105091852 METAR KATL 091852Z 24011G18KT 10SM FEW150 BKN250 27/13 A3002 RMK AO2 SLP158 T02720128=
202105091752 METAR KATL 091752Z 23014G24KT 10SM FEW200 FEW250 27/12 A3003 RMK AO2 PK WND 21026/1717 SLP161 T02670122 10267 20144 58011=
202105091652 METAR KATL 091652Z 20015G23KT 10SM FEW200 BKN250 26/11 A3004 RMK AO2 SLP166 T02560106=
202105091552 METAR KATL 091552Z 21012G21KT 10SM FEW160 BKN200 24/09 A3006 RMK AO2 PK WND 21027/1513 SLP174 T02390089=
202105091452 METAR KATL 091452Z 19014G20KT 10SM FEW150 23/10 A3006 RMK AO2 SLP174 T02280100 58006=
202105091352 METAR KATL 091352Z 21008KT 10SM FEW250 20/11 A3007 RMK AO2 SLP177 T02000106=
202105091252 METAR KATL 091252Z 22006KT 10SM FEW250 17/10 A3008 RMK AO2 SLP179 T01720100=
202105091152 METAR KATL 091152Z 21005KT 10SM SCT250 14/08 A3008 RMK AO2 SLP181 T01440083 10156 20133 53013=
202105091052 METAR KATL 091052Z 20005KT 10SM SCT250 13/07 A3006 RMK AO2 SLP175 T01330072=
202105090952 METAR KATL 090952Z 00000KT 10SM FEW250 14/08 A3004 RMK AO2 SLP167 T01390078=
202105090852 METAR KATL 090852Z 19004KT 10SM SCT250 14/08 A3004 RMK AO2 SLP168 T01390083 56007=
202105090752 METAR KATL 090752Z 21005KT 10SM FEW250 14/08 A3005 RMK AO2 SLP168 T01440083=
202105090652 METAR KATL 090652Z 20003KT 10SM CLR 14/08 A3005 RMK AO2 SLP169 T01440083=
202105090552 METAR KATL 090552Z 20003KT 10SM CLR 16/08 A3006 RMK AO2 SLP174 T01560083 10222 20156 58008=
202105090452 METAR KATL 090452Z 20004KT 10SM CLR 16/09 A3008 RMK AO2 SLP180 T01610089 402500106=
202105090352 METAR KATL 090352Z 16003KT 10SM CLR 17/09 A3008 RMK AO2 SLP181 T01670094=
202105090252 METAR KATL 090252Z 16003KT 10SM FEW250 18/09 A3009 RMK AO2 SLP183 T01830089 53007=
202105090152 METAR KATL 090152Z 00000KT 10SM FEW100 FEW250 19/08 A3008 RMK AO2 SLP181 T01890083=
202105090052 METAR KATL 090052Z 00000KT 10SM FEW080 FEW100 FEW250 21/07 A3007 RMK AO2 SLP177 T02110072=
202105082352 METAR KATL 082352Z 30003KT 10SM FEW080 FEW100 FEW250 22/06 A3007 RMK AO2 SLP176 T02220056 10250 20222 58001=
202105082252 METAR KATL 082252Z 30007KT 10SM BKN080 BKN100 BKN250 23/06 A3007 RMK AO2 SLP178 T02330061=
202105082152 METAR KATL 082152Z 30009KT 10SM SCT080 BKN110 BKN150 BKN250 23/06 A3007 RMK AO2 SLP179 T02330061=
202105082052 METAR KATL 082052Z 30006KT 10SM FEW070 FEW150 24/06 A3007 RMK AO2 SLP178 T02390056 58022=
202105081952 METAR KATL 081952Z 25009G15KT 10SM FEW070 FEW120 SCT200 24/05 A3009 RMK AO2 SLP184 T02390050=
202105081852 METAR KATL 081852Z VRB06KT 10SM FEW080 BKN100 BKN150 BKN200 23/06 A3012 RMK AO2 SLP196 T02330056=
202105081752 METAR KATL 081752Z 23006KT 10SM FEW100 SCT250 23/06 A3013 RMK AO2 SLP200 T02280061 10228 20133 58006=
202105081652 METAR KATL 081652Z 31007KT 10SM FEW090 BKN200 22/06 A3016 RMK AO2 SLP207 T02220061=
202105081552 METAR KATL 081552Z 31012G19KT 10SM BKN140 20/05 A3017 RMK AO2 SLP212 T02000050=
202105081452 METAR KATL 081452Z 27009KT 10SM FEW049 SCT075 BKN100 19/06 A3015 RMK AO2 SLP208 T01890056 51011 $=
202105081352 METAR KATL 081352Z 29009KT 10SM SCT090 BKN140 BKN250 18/06 A3014 RMK AO2 SLP204 T01830056=
202105081252 METAR KATL 081252Z 27004KT 10SM SCT130 16/05 A3013 RMK AO2 SLP200 T01560050=
202105081152 METAR KATL 081152Z 27003KT 10SM FEW130 14/04 A3012 RMK AO2 SLP196 T01390044 10139 20106 51008=
202105081052 METAR KATL 081052Z 00000KT 10SM SCT110 BKN130 12/04 A3011 RMK AO2 SLP194 T01220039=
202105080952 METAR KATL 080952Z 27006KT 10SM CLR 11/04 A3011 RMK AO2 SLP194 T01060039=
202105080852 METAR KATL 080852Z 28004KT 10SM CLR 11/03 A3010 RMK AO2 SLP189 T01060033 55001=
202105080752 METAR KATL 080752Z 28005KT 10SM CLR 11/04 A3009 RMK AO2 SLP187 T01060039=
202105080652 METAR KATL 080652Z 29007KT 10SM CLR 11/04 A3010 RMK AO2 SLP191 T01110039=
202105080552 METAR KATL 080552Z 29008KT 10SM CLR 12/03 A3010 RMK AO2 SLP190 T01170033 10183 20111 53003=
202105080452 METAR KATL 080452Z 27005KT 10SM CLR 12/03 A3009 RMK AO2 SLP186 T01170033 402060100=
202105080352 METAR KATL 080352Z 28006KT 10SM CLR 12/03 A3008 RMK AO2 SLP185 T01220033=
202105080252 METAR KATL 080252Z 24003KT 10SM CLR 13/04 A3009 RMK AO2 SLP187 T01330039 53009=
202105080152 METAR KATL 080152Z 28005KT 10SM CLR 14/03 A3008 RMK AO2 SLP185 T01440028=
202105080052 METAR KATL 080052Z 32006KT 10SM CLR 17/01 A3007 RMK AO2 SLP180 T01670011=
202105072352 METAR KATL 072352Z 33008KT 10SM CLR 18/01 A3006 RMK AO2 SLP178 T01830006 10206 20183 55001=
202105072252 METAR KATL 072252Z 33011G17KT 10SM CLR 19/00 A3006 RMK AO2 SLP177 T01940000=
202105072152 METAR KATL 072152Z 33013G23KT 10SM CLR 20/00 A3006 RMK AO2 PK WND 34027/2120 SLP177 T02000000=
202105072052 METAR KATL 072052Z 31011G23KT 10SM FEW080 20/01 A3007 RMK AO2 SLP179 T02000006 58011=
202105071952 METAR KATL 071952Z 30014G22KT 10SM FEW080 20/02 A3008 RMK AO2 PK WND 33028/1917 SLP181 T02000017=
202105071852 METAR KATL 071852Z 35018G26KT 10SM FEW080 19/01 A3009 RMK AO2 PK WND 33030/1758 SLP187 T01940006=
202105071752 METAR KATL 071752Z 32019G28KT 10SM FEW075 19/01 A3010 RMK AO2 PK WND 33029/1736 SLP189 T01890006 10194 20111 50000=
202105071652 METAR KATL 071652Z 33022G30KT 10SM FEW070 18/00 A3011 RMK AO2 PK WND 31031/1622 SLP193 T01780000=
202105071552 METAR KATL 071552Z 31014G24KT 10SM FEW060 17/04 A3011 RMK AO2 PK WND 32028/1459 SLP194 T01720039=
202105071452 METAR KATL 071452Z 30015G24KT 10SM FEW038 16/04 A3010 RMK AO2 PK WND 32026/1416 SLP189 T01610044 51013=
202105071352 METAR KATL 071352Z 31010G21KT 10SM FEW022 SCT030 14/07 A3010 RMK AO2 SLP189 T01390067=
202105071335 SPECI KATL 071335Z 30014G20KT 10SM SCT023 BKN032 14/07 A3009 RMK AO2 T01390072=
202105071315 SPECI KATL 071315Z 30012G19KT 10SM BKN023 13/08 A3009 RMK AO2 T01280078=
202105071252 METAR KATL 071252Z 30011KT 10SM SCT020 13/08 A3008 RMK AO2 SLP185 T01280078=
202105071152 METAR KATL 071152Z 31011KT 10SM FEW020 FEW030 11/07 A3006 RMK AO2 SLP177 T01110072 10133 20100 53019=
202105071052 METAR KATL 071052Z 29009KT 10SM FEW014 10/07 A3003 RMK AO2 SLP168 T01000067=
202105070952 METAR KATL 070952Z 29009KT 10SM CLR 10/07 A3002 RMK AO2 SLP163 T01000067=
202105070852 METAR KATL 070852Z 28009KT 10SM CLR 11/07 A3000 RMK AO2 SLP156 T01060067 55007=
202105070752 METAR KATL 070752Z 30008KT 10SM CLR 12/07 A2999 RMK AO2 SLP153 T01170067=
202105070652 METAR KATL 070652Z 29011KT 10SM CLR 13/07 A3000 RMK AO2 SLP154 T01280067=
202105070552 METAR KATL 070552Z 30009KT 10SM FEW110 13/07 A3002 RMK AO2 SLP163 T01330067 10194 20133 58006=
202105070452 METAR KATL 070452Z 30007KT 10SM BKN110 15/07 A3004 RMK AO2 SLP166 T01500067 402220106=
202105070352 METAR KATL 070352Z 31012KT 10SM SCT110 15/07 A3005 RMK AO2 PK WND 32032/0330 SLP173 T01500067=
202105070252 METAR KATL 070252Z 28008KT 10SM FEW120 16/07 A3004 RMK AO2 SLP170 T01560067 53015=
202105070152 METAR KATL 070152Z 29007KT 10SM FEW200 16/07 A3002 RMK AO2 SLP163 T01610067=
202105070052 METAR KATL 070052Z 29008KT 10SM CLR 18/07 A3001 RMK AO2 SLP160 T01780067=
202105062352 METAR KATL 062352Z 28009KT 10SM CLR 19/07 A3000 RMK AO2 SLP155 T01940067 10222 20194 58003=
202105062252 METAR KATL 062252Z 32012G18KT 10SM CLR 21/06 A3000 RMK AO2 SLP155 T02110056=
202105062152 METAR KATL 062152Z 32011G19KT 10SM CLR 22/05 A3001 RMK AO2 SLP157 T02170050=
202105062052 METAR KATL 062052Z 32011KT 10SM FEW075 FEW200 22/04 A3001 RMK AO2 SLP157 T02220044 57017=
202105061952 METAR KATL 061952Z 33013G23KT 10SM FEW075 FEW200 22/04 A3002 RMK AO2 SLP163 T02170039=
202105061852 METAR KATL 061852Z 31015KT 10SM FEW070 FEW200 22/05 A3004 RMK AO2 SLP168 T02170050=
202105061752 METAR KATL 061752Z 32012KT 10SM FEW065 FEW200 21/06 A3006 RMK AO2 SLP174 T02110061 10211 20117 58013=
202105061652 METAR KATL 061652Z 31011G22KT 10SM FEW065 FEW150 20/07 A3007 RMK AO2 SLP180 T02000072=
202105061552 METAR KATL 061552Z 33013G20KT 10SM FEW055 19/07 A3010 RMK AO2 SLP189 T01890072=
202105061452 METAR KATL 061452Z 31009KT 10SM FEW050 FEW250 18/09 A3009 RMK AO2 SLP187 T01780089 50002=
202105061352 METAR KATL 061352Z 32010KT 10SM FEW250 16/08 A3010 RMK AO2 SLP190 T01560083=
202105061252 METAR KATL 061252Z 32012KT 10SM FEW250 13/08 A3009 RMK AO2 SLP187 T01330083=
202105061152 METAR KATL 061152Z 31008KT 10SM SCT250 12/08 A3009 RMK AO2 SLP185 T01170083 10144 20106 53013=
202105061052 METAR KATL 061052Z 31008KT 10SM SCT250 11/08 A3007 RMK AO2 SLP179 T01060083=
202105060952 METAR KATL 060952Z 32011KT 10SM SCT250 11/08 A3006 RMK AO2 SLP173 T01110083=
202105060852 METAR KATL 060852Z 32008KT 10SM CLR 12/08 A3005 RMK AO2 SLP170 T01170083 53001=
202105060752 METAR KATL 060752Z 32009KT 10SM CLR 13/08 A3005 RMK AO2 SLP169 T01280078=
202105060652 METAR KATL 060652Z 33006KT 10SM CLR 13/08 A3004 RMK AO2 SLP168 T01330078=
202105060552 METAR KATL 060552Z 33011KT 10SM CLR 14/09 A3005 RMK AO2 SLP169 T01440089 10217 20144 50000=
202105060452 METAR KATL 060452Z 33009KT 10SM CLR 16/10 A3005 RMK AO2 SLP171 T01560100 402560156=
202105060352 METAR KATL 060352Z 34012G21KT 10SM CLR 17/11 A3005 RMK AO2 SLP171 T01670111=
202105060252 METAR KATL 060252Z 33008KT 10SM FEW060 FEW250 18/13 A3004 RMK AO2 SLP167 T01780133 51010=
202105060152 METAR KATL 060152Z 32009KT 10SM FEW060 FEW250 19/13 A3004 RMK AO2 SLP166 T01890133=
202105060052 METAR KATL 060052Z 32007KT 10SM FEW060 FEW250 19/14 A3002 RMK AO2 SLP160 T01940139=
202105052352 METAR KATL 052352Z 32012G21KT 10SM FEW035 SCT060 SCT250 22/14 A3001 RMK AO2 SLP157 T02170139 10256 20217 53009=
202105052252 METAR KATL 052252Z 31012KT 10SM SCT038 BKN060 BKN250 23/16 A2999 RMK AO2 SLP150 MDT CU OHD-ALQDS T02330156=
202105052152 METAR KATL 052152Z 28012G20KT 10SM FEW040 SCT060 BKN200 BKN250 25/15 A2999 RMK AO2 SLP147 T02500150=
202105052052 METAR KATL 052052Z 28011G21KT 10SM FEW036 SCT060 BKN250 24/15 A2999 RMK AO2 SLP147 T02440150 56010=
202105051952 METAR KATL 051952Z 26013G21KT 10SM SCT038TCU BKN065 BKN250 24/16 A2999 RMK AO2 SLP149 TCU ALQDS T02390156=
202105051852 METAR KATL 051852Z 27008G20KT 10SM FEW030TCU BKN060 BKN250 24/16 A3000 RMK AO2 SLP152 TCU W-N T02440161=
202105051752 METAR KATL 051752Z 27011G21KT 10SM FEW028 BKN042 BKN050 BKN250 23/16 A3002 RMK AO2 SLP158 T02280161 10233 20183 50005=
202105051652 METAR KATL 051652Z 31012G18KT 10SM FEW021 BKN038 BKN250 22/17 A3002 RMK AO2 SLP158 T02220167=
202105051552 METAR KATL 051552Z 28012KT 10SM OVC024 21/16 A3002 RMK AO2 SLP158 T02110161=
202105051452 METAR KATL 051452Z 28009KT 10SM BKN016 OVC022 21/17 A3000 RMK AO2 SLP152 T02060167 53009=
202105051352 METAR KATL 051352Z 27010KT 10SM FEW014 BKN025 20/17 A2998 RMK AO2 SLP148 T02000167=
202105051252 METAR KATL 051252Z 27011G18KT 10SM SCT010 BKN026 BKN200 BKN250 19/17 A2998 RMK AO2 SLP148 T01940167=
202105051239 SPECI KATL 051239Z 27010KT 10SM SCT010 BKN026 BKN200 BKN250 19/17 A2998 RMK AO2 T01890167=
202105051152 METAR KATL 051152Z 26011KT 10SM BKN010 BKN019 18/16 A2997 RMK AO2 SLP144 70189 T01830161 10183 20167 53019=
202105051145 SPECI KATL 051145Z 26010G20KT 10SM BKN010 BKN019 18/16 A2997 RMK AO2 T01830161=
202105051052 METAR KATL 051052Z 26010G17KT 10SM BKN008 OVC012 18/16 A2995 RMK AO2 SLP136 T01780161=
202105050952 METAR KATL 050952Z 24011G21KT 10SM BKN009 17/16 A2991 RMK AO2 CIG 007V011 SLP124 T01720156=
202105050947 SPECI KATL 050947Z 25009KT 10SM BKN008 17/16 A2991 RMK AO2 CIG 007V011=
202105050935 SPECI KATL 050935Z 25008KT 10SM FEW008 FEW200 BKN250 17/16 A2991 RMK AO2 T01720156=
202105050852 METAR KATL 050852Z 23009G16KT 10SM FEW200 BKN250 17/15 A2989 RMK AO2 SLP116 T01720150 55002=
202105050752 METAR KATL 050752Z 23008KT 10SM SCT200 BKN250 17/16 A2988 RMK AO2 SLP113 T01720156=
202105050652 METAR KATL 050652Z 22006KT 10SM FEW006 SCT150 SCT230 BKN250 17/16 A2988 RMK AO2 SLP111 T01720156=
202105050552 METAR KATL 050552Z 22006KT 10SM FEW006 SCT150 BKN180 BKN250 17/16 A2990 RMK AO2 SLP116 60117 T01720161 10189 20172 56034=
202105050452 METAR KATL 050452Z 23008G20KT 10SM FEW006 SCT110 BKN150 OVC200 18/16 A2991 RMK AO2 SLP120 T01780161 402560178=
202105050352 METAR KATL 050352Z 15007G16KT 120V220 10SM FEW006 BKN080 BKN110 OVC200 18/16 A2988 RMK AO2 RAE27 TSE01 SLP109 P0006 T01780161=
202105050301 SPECI KATL 050301Z 11004KT 5SM -RA BR FEW006 BKN070 BKN110 OVC150 18/17 A2998 RMK AO2 TSE01 PRESFR TS DSIPTD P0002 T01780167=
202105050252 METAR KATL 050252Z 00000KT 5SM -TSRA BR FEW006 SCT025CB BKN060 OVC150 18/17 A3000 RMK AO2 PRESFR SLP152 OCNL LTGICCA NE-SE TS NE-SE MOV NE P0036 60111 T01780167 51024=
202105050237 SPECI KATL 050237Z 30010KT 3SM TSRA BR FEW006 SCT020CB BKN060 OVC150 18/17 A3004 RMK AO2 OCNL LTGICCA OHD-ALQDS TS OHD-ALQDS MOV NE P0025 T01830167=
202105050219 SPECI KATL 050219Z 29011G16KT 3SM TSRA BR SCT006 BKN015CB OVC070 18/17 A3001 RMK AO2 OCNL LTGICCA OHD-ALQDS TS OHD-ALQDS MOV NE P0016 T01830167=
202105050152 METAR KATL 050152Z 31006KT 2 1/2SM +TSRA BR FEW006 SCT025CB OVC050 18/17 A3000 RMK AO2 SLP152 OCNL LTGICCA OHD-ALQDS TS OHD-ALQDS MOV NE P0063 T01780167=
202105050119 SPECI KATL 050119Z 32007KT 1 1/2SM +TSRA BR FEW006 BKN040CB OVC080 18/17 A2996 RMK AO2 OCNL LTGICCACG OHD-ALQDS TS OHD-ALQDS MOV NE P0016 T01830167=
202105050052 METAR KATL 050052Z 17003KT 4SM -TSRA BR FEW007 SCT040CB BKN055 OVC150 18/17 A2994 RMK AO2 TSB04 SLP132 OCNL LTGICCA OHD-ALQDS TS OHD-ALQDS MOV NE P0012 T01830172=
202105050004 SPECI KATL 050004Z 00000KT 4SM -TSRA BR FEW007 SCT045CB BKN070 OVC150 18/17 A2992 RMK AO2 TSB04 OCNL LTGICCA SW-NW TS SW-NW MOV NE P0003 T01830167=
202105042352 METAR KATL 042352Z 00000KT 5SM -RA BR FEW007 SCT055 BKN070 OVC150 18/17 A2993 RMK AO2 LTG DSNT SW-NW SLP128 CB DSNT SW-NW P0008 60072 T01830167 10250 20183 55006=
202105042252 METAR KATL 042252Z 08010KT 7SM -RA FEW045 SCT070 BKN085 OVC150 19/17 A2990 RMK AO2 TSE18 SLP119 P0011 T01890167=
202105042218 SPECI KATL 042218Z 06006KT 7SM -RA FEW045 SCT070 BKN100 OVC150 19/17 A2990 RMK AO2 TSE18 TS DSIPTD P0006 T01890167=
202105042152 METAR KATL 042152Z 04005KT 8SM -TSRA FEW008 SCT045CB BKN100 OVC150 19/17 A2991 RMK AO2 SLP123 OCNL LTGICCA OHD-ALQDS TS OHD-ALQDS MOV NE CB DSNT ALQDS P0012 T01890172=
202105042052 METAR KATL 042052Z 30006KT 4SM TSRA BR FEW008 BKN048CB OVC070 19/17 A2995 RMK AO2 SLP135 OCNL LTGICCA OHD-ALQDS TS OHD-ALQDS MOV NE P0024 60041 T01890172 55002=
202105042040 SPECI KATL 042040Z 34007KT 4SM TSRA BR FEW008 BKN042CB OVC070 19/17 A2992 RMK AO2 LTG DSNT SE-W OCNL LTGICCA OHD-ALQDS TS OHD-ALQDS MOV NE CB DSNT SE-SW-W P0021 T01890172=
202105042017 SPECI KATL 042017Z 36011G23KT 4SM TSRA BR FEW012 SCT034CB OVC065 19/17 A2992 RMK AO2 OCNL LTGICCA E-OHD-SW TS E-OHD-SW MOV SE CB DSNT NE-SE-SW P0008 T01890172=
202105041952 METAR KATL 041952Z 35014KT 3SM TSRA BR FEW012 BKN028CB OVC045 19/17 A2993 RMK AO2 LTG DSNT ALQDS SLP129 RAB18 TSB09 VIS NE-SE-SW 1 FRQ LTGICCGCA OHD-ALQDS TS OHD-ALQDS MOV NE CB DSNT ALQDS P0017 T01890172=
202105041928 SPECI KATL 041928Z 01009KT 3SM R09R/6000VP6000FT TSRA BR FEW016 OVC028CB 19/17 A2995 RMK AO2 LTG DSNT W AND NW RAB18 TSB09 OCNL LTGICCCCA E-OHD-W TS E-OHD-W MOV NE CB DSNT ALQDS P0015 T01890172=
202105041911 SPECI KATL 041911Z 02010KT 10SM TS FEW016 BKN028CB OVC050 20/17 A2994 RMK AO2 LTG DSNT S AND W TSB09 OCNL LTGICCCCA SE-SW VC W-NW TS SE-SW VC W-NW MOV NE SHRA SE-SW VC W-NW CB DSNT ALQDS T02000167=
202105041852 METAR KATL 041852Z 03010KT 10SM FEW014 BKN026 OVC065 20/17 A2995 RMK AO2 PK WND 34030/1817 WSHFT 1816 LTG DSNT NE AND W SLP135 RAB19E46 TSB06E46 TS MOVD NE CB DSNT N-NE SW-NW SHRA DSNT NE-E P0000 T02000167=
202105041847 SPECI KATL 041847Z 01009KT 10SM FEW014 BKN026 OVC065 19/17 A2995 RMK AO2 PK WND 34030/1817 WSHFT 1816 LTG DSNT NE AND W RAB19E46 TSB06E46 TS MOVD NE CB DSNT N-NE SW-NW P0000=
202105041832 SPECI KATL 041832Z 36015G27KT 10SM -TSRA FEW012 BKN024CB BKN055 OVC130 19/16 A2996 RMK AO2 PK WND 34030/1817 WSHFT 1816 LTG DSNT W-NE RAB19 TSB06 OCNL LTGICCA N-E TS N-E MOV NE CB DSNT N-NE SW-NW P0000 T01940161=
202105041819 SPECI KATL 041819Z 33019G30KT 10SM -TSRA BKN022CB BKN048 OVC100 23/18 A2997 RMK AO2 PK WND 34030/1817 LTG DSNT W-NE PRESRR RAB19 TSB06 OCNL LTGICCCCA NW-NE TS NW-NE MOV NE CB DSNT W-N-NE SHRA NW-NE P0000 T02280178=
202105041814 SPECI KATL 041814Z 27008KT 10SM TS SCT024CB BKN046 OVC100 25/20 A2996 RMK AO2 LTG DSNT W-NE TSB06 OCNL LTGICCCCA NW-NE TS NW-NE MOV NE CB DSNT W-N-NE SHRA NW-NE T02500200=
202105041806 SPECI KATL 041806Z 25008KT 10SM VCTS SCT024CB BKN046 OVC100 25/20 A2995 RMK AO2 LTG DSNT W-NE TSE06 CB W-N MOV NE CB DSNT W-N-NE SHRA W-N T02500200=
202105041752 METAR KATL 041752Z 25013G18KT 10SM BKN020 BKN032 OVC044 25/20 A2995 RMK AO2 LTG DSNT W-N SLP134 CB DSNT W-N BINOVC T02500200 10256 20189 51003=
202105041652 METAR KATL 041652Z 23014G21KT 10SM SCT017 BKN024 OVC042 25/21 A2994 RMK AO2 SLP131 BINOVC T02500206=
202105041552 METAR KATL 041552Z 22008G17KT 10SM OVC015 24/20 A2995 RMK AO2 SLP134 CIG 013V017 T02390200=
202105041452 METAR KATL 041452Z 21007KT 10SM BKN015 OVC026 23/19 A2994 RMK AO2 SLP131 T02280189 58002=
202105041442 SPECI KATL 041442Z 20011KT 10SM SCT014 OVC024 22/19 A2994 RMK AO2 T02220189=
202105041352 METAR KATL 041352Z 20012G18KT 10SM BKN012 OVC022 21/18 A2995 RMK AO2 SLP134 T02110178=
202105041252 METAR KATL 041252Z 20007KT 10SM FEW014 BKN023 OVC250 20/17 A2995 RMK AO2 SLP134 T02000167=
202105041152 METAR KATL 041152Z 20004KT 10SM BKN020 OVC250 19/16 A2995 RMK AO2 SLP134 70191 T01890161 10189 20178 53010=
202105041113 SPECI KATL 041113Z 21008KT 10SM BKN021 BKN026 BKN250 19/16 A2993 RMK AO2 T01890156=
202105041052 METAR KATL 041052Z 21007KT 10SM SCT025 BKN032 BKN250 18/15 A2993 RMK AO2 SLP128 T01830150=
202105040952 METAR KATL 040952Z 21005KT 10SM BKN018 BKN024 BKN250 18/16 A2992 RMK AO2 SLP124 T01830156=
202105040909 SPECI KATL 040909Z 21005KT 10SM BKN020 BKN250 18/16 A2991 RMK AO2 BKN020 V SCT T01780156=
202105040852 METAR KATL 040852Z 21006KT 10SM FEW020 FEW100 BKN250 18/16 A2992 RMK AO2 SLP124 T01780156 56004=
202105040752 METAR KATL 040752Z 22005KT 10SM CLR 18/16 A2992 RMK AO2 SLP123 T01780156=
202105040652 METAR KATL 040652Z 23007KT 10SM FEW100 FEW250 18/16 A2992 RMK AO2 SLP123 T01830156=
202105040552 METAR KATL 040552Z 23007KT 10SM FEW100 FEW200 SCT250 19/16 A2993 RMK AO2 SLP128 60000 T01890156 10222 20189 51008=
202105040452 METAR KATL 040452Z 23008KT 10SM FEW100 BKN200 BKN250 20/17 A2993 RMK AO2 SLP126 CB DSNT NW T02000167 402610200=
202105040352 METAR KATL 040352Z 21010G18KT 10SM FEW095 BKN200 OVC250 21/18 A2992 RMK AO2 SLP125 T02110178=
202105040252 METAR KATL 040252Z 21006KT 10SM FEW100 BKN180 OVC250 21/19 A2990 RMK AO2 SLP119 60000 T02110194 53008=
202105040152 METAR KATL 040152Z 20004KT 10SM FEW150 BKN180 OVC250 22/20 A2990 RMK AO2 SLP118 T02170200=
202105040052 METAR KATL 040052Z 19006KT 10SM FEW025 SCT110 BKN150 OVC200 22/20 A2987 RMK AO2 RAB22E31 SLP108 P0000 T02170200=
202105032352 METAR KATL 032352Z 09004KT 9SM SCT025 SCT110 BKN150 OVC200 22/20 A2988 RMK AO2 SLP110 60071 T02170200 10261 20217 51016=
202105032252 METAR KATL 032252Z 16004KT 10SM FEW025 BKN150 OVC200 22/20 A2986 RMK AO2 RAE03 SLP104 P0000 T02220200=
202105032152 METAR KATL 032152Z 23006KT 10SM -RA FEW025 SCT050 BKN130CB OVC200 22/20 A2986 RMK AO2 PK WND 20026/2119 TSE52 SLP105 LTG DSNT NE TS MOV NE CBMAM OHD-E P0014 T02170200=
202105032129 SPECI KATL 032129Z 21010G24KT 7SM -TSRA SCT030CB BKN045 BKN090 OVC140 22/20 A2986 RMK AO2 PK WND 20026/2119 OCNL LTGICCA NE-SE SW-NW TS NE-SE SW-NW MOV NE P0012 T02170200=
202105032124 SPECI KATL 032124Z 20013G26KT 2SM R09R/3500VP6000FT +TSRA BR BKN030CB BKN045 BKN090 OVC140 22/20 A2987 RMK AO2 PK WND 20026/2119 LTG DSNT ALQDS OCNL LTGICCA NE-OHD-SW TS NE-OHD-SW MOV NE P0002 T02220200=
202105032052 METAR KATL 032052Z 22006KT 6SM -TSRA BR SCT028CB BKN038 BKN065 OVC140 23/21 A2983 RMK AO2 LTG DSNT ALQDS RAB08 TSB13 SLP094 OCNL LTGICCA NE-OHD-SW TS NE-OHD-SW MOV NE CB DSNT ALQDS P0031 60057 T02280206 58005=
202105032018 SPECI KATL 032018Z 23007KT 2SM R09R/5000VP6000FT +TSRA BR FEW018 SCT026CB BKN050 OVC140 23/21 A2983 RMK AO2 LTG DSNT ALQDS RAB08 TSB13 OCNL LTGICCGCA NE-OHD-SW TS NE-OHD-SW MOV NE CB DSNT ALQDS P0006 T02330211=
202105032013 SPECI KATL 032013Z 22008KT 4SM R09R/5000VP6000FT -TSRA FEW018 SCT026CB BKN050 BKN140 OVC200 24/21 A2983 RMK AO2 LTG DSNT ALQDS RAB08 TSB13 OCNL LTGICCGCA SW TS SW MOV NE CB DSNT ALQDS P0000 T02390206=
202105031952 METAR KATL 031952Z 20011G17KT 10SM SCT018 BKN024 OVC036 25/22 A2984 RMK AO2 LTG DSNT ALQDS RAB05E20 TSE30 SLP098 TS MOVD NE CB DSNT ALQDS P0007 T02500217=
202105031948 SPECI KATL 031948Z 20008KT 10SM SCT018 BKN024 OVC036 25/22 A2984 RMK AO2 LTG DSNT ALQDS RAB05E20 TSE30 TS MOVD NE CB DSNT ALQDS P0007=
202105031931 SPECI KATL 031931Z 22005KT 10SM FEW017 SCT024 BKN050 BKN140 BKN200 26/22 A2984 RMK AO2 LTG DSNT ALQDS RAB05E20 TSE30 TS MOVD NE CB DSNT ALQDS P0007 T02560222=
202105031852 METAR KATL 031852Z 17003KT 10SM TS FEW012 BKN024CB BKN036 OVC130 24/21 A2984 RMK AO2 LTG DSNT ALQDS RAE13 TSE23B52 SLP098 OCNL LTGICCGCA E-S TS E-S MOV NE CB DSNT ALQDS SHRA E-S P0019 T02440211=
202105031849 SPECI KATL 031849Z 00000KT 10SM VCTS SCT023 BKN028 BKN036 24/21 A2985 RMK AO2 LTG DSNT ALQDS RAE13 TSE23 TS MOVD E CB DSNT ALQDS P0019=
202105031824 SPECI KATL 031824Z 24005KT 10SM FEW007 SCT023 BKN036 OVC140 24/22 A2987 RMK AO2 LTG DSNT ALQDS RAE13 TSE23 TS MOVD E CB DSNT ALQDS P0019 T02390217=
202105031808 SPECI KATL 031808Z 32005KT 6SM R09R/4000VP6000FT -TSRA BR SCT007 BKN020CB BKN045 BKN200 22/21 A2986 RMK AO2 LTG DSNT N-E FRQ LTGICCGCA NE-E TS NE-E MOV E P0018 T02220206=
202105031752 METAR KATL 031752Z 23009G23KT 1SM R09R/3500VP6000FT +TSRA BR SCT016 BKN022CB OVC035 22/20 A2987 RMK AO2 SLP106 TSB1654 VIS E-SE 3 FRQ LTGICCGCA NE-OHD-SW TS NE-OHD-SW MOV E P0012 60120 T02170200 10233 20200 50010=
202105031745 SPECI KATL 031745Z 34013G17KT 1SM R09R/P6000FT +TSRA BR SCT016 BKN022CB OVC045 22/20 A2985 RMK AO2 TSB1654 VIS SE-SW 3 FRQ LTGICCGCA NE-OHD-SW TS NE-OHD-SW MOV E P0005 T02220200=
202105031738 SPECI KATL 031738Z 21005KT 1SM R09R/P6000FT +TSRA BR SCT016 BKN022CB OVC045 22/20 A2987 RMK AO2 LTG DSNT W-NE TSB1654 FRQ LTGICCGCA NE-OHD-SW TS NE-OHD-SW MOV E CB DSNT ALQDS P0004 T02220200=
202105031724 SPECI KATL 031724Z 19009KT 10SM -TSRA BKN018 BKN028CB OVC040 22/19 A2986 RMK AO2 LTG DSNT ALQDS TSB1654 FRQ LTGICCGCA NE-OHD-SW TS NE-OHD-SW MOV NE CB DSNT ALQDS P0002 T02220194=
202105031654 SPECI KATL 031654Z 20010G17KT 10SM VCTS -RA FEW014 BKN028 OVC050 23/20 A2987 RMK AO2 LTG DSNT ALQDS P0000 T02280200=
202105031652 METAR KATL 031652Z 21009G17KT 10SM -RA SCT016 BKN028 OVC050 23/20 A2987 RMK AO2 LTG DSNT ALQDS RAE1553B52 SLP107 CB DSNT ALQDS P0000 T02280200=
202105031619 SPECI KATL 031619Z 22010G19KT 10SM FEW009 BKN016 OVC030 23/21 A2987 RMK AO2 RAE1553 CB DSNT NE S-SW NW P0000 T02330206=
202105031608 SPECI KATL 031608Z 22012G23KT 10SM SCT009 BKN014 OVC026 23/20 A2988 RMK AO2 RAE1553 CB DSNT NE S-SW NW P0000 T02280200=
202105031552 METAR KATL 031552Z 24006KT 10SM -RA FEW003 BKN008 OVC014 22/20 A2988 RMK AO2 WSHFT 1502 TSE49 SLP108 TS MOVD NE FRQ LTGICCA DSNT NE CB DSNT NE P0092 T02170200=
202105031537 SPECI KATL 031537Z 23005KT 8SM -TSRA BKN008 BKN014 OVC024CB 21/19 A2987 RMK AO2 WSHFT 1502 FRQ LTGICCA NE TS NE MOV NE P0092 T02060189=
202105031527 SPECI KATL 031527Z 27008G19KT 3SM R09R/4500VP6000FT +TSRA BR BKN006 OVC012CB 21/19 A2988 RMK AO2 WSHFT 1502 OCNL LTGICCA N-E TS N-E MOV NE P0091 T02060194=
202105031522 SPECI KATL 031522Z 26005G23KT 2SM R09R/2200VP6000FT +TSRA BR BKN006 OVC012CB 21/19 A2987 RMK AO2 WSHFT 1502 OCNL LTGICCA N-E-SE TS N-E-SE MOV NE P0087 T02060194=
202105031517 SPECI KATL 031517Z 28012G23KT 1/2SM R09R/2200V4000FT +TSRA FG BKN006 OVC012CB 21/19 A2987 RMK AO2 WSHFT 1502 OCNL LTGICCA NE-OHD-SW TS NE-OHD-SW MOV E P0072 T02060194=
202105031506 SPECI KATL 031506Z 32011G23KT 1/2SM R09R/2800VP6000FT +TSRA FG BKN006 OVC012CB 21/19 A2988 RMK AO2 PRESRR OCNL LTGICCA NE-OHD-SW TS NE-OHD-SW MOV E P0007 T02110194=
202105031504 SPECI KATL 031504Z 29016G23KT 1SM R09R/5000VP6000FT +TSRA BR BKN006 OVC012CB 21/19 A2987 RMK AO2 PRESRR OCNL LTGICCA NE-OHD-SW TS NE-OHD-SW MOV E P0003 T02110194=
202105031452 METAR KATL 031452Z 17010G21KT 3SM TSRA BR BKN006 OVC014CB 21/19 A2984 RMK AO2 SLP096 RAE1358B24 TSB24 OCNL LTGICCA NE-OHD-SW TS NE-OHD-SW MOV NE P0008 60016 T02060194 58010=
202105031442 SPECI KATL 031442Z 18011G24KT 3SM TSRA BR BKN006 OVC012CB 21/19 A2985 RMK AO2 RAE1358B24 TSB24 OCNL LTGICCA SW-NW-NE TS SW-NW-NE MOV NE P0004 T02060194=
202105031425 SPECI KATL 031425Z 17009KT 7SM -TSRA OVC007CB 21/19 A2986 RMK AO2 RAE1358B24 TSB24 OCNL LTGICCA SW-NW TS SW-NW MOV E P0000 T02060194=
202105031352 METAR KATL 031352Z 17006KT 7SM -RA BKN007 BKN036 OVC100 21/19 A2987 RMK AO2 LTG DSNT NW SLP106 CIG 005V009 CB DSNT W-NW P0004 T02060189=
202105031252 METAR KATL 031252Z 20008KT 5SM -RA BR OVC007 21/19 A2988 RMK AO2 LTG DSNT N AND W RAB23 SLP111 CIG 006V009 CB DSNT W & N P0004 T02060189=
202105031235 SPECI KATL 031235Z 20009KT 5SM -RA BR OVC009 21/18 A2988 RMK AO2 RAB23 P0001 T02060183=
202105031211 SPECI KATL 031211Z 21009KT 10SM OVC009 21/18 A2988 RMK AO2 CIG 008V013 T02060183=
202105031152 METAR KATL 031152Z 19008G16KT 10SM OVC010 21/18 A2987 RMK AO2 SLP105 CIG 009V013 CB DSNT NW-N T02060178 10211 20206 53009=
202105031052 METAR KATL 031052Z 19009G17KT 10SM BKN012 OVC016 21/17 A2986 RMK AO2 SLP102 T02060172=
202105030952 METAR KATL 030952Z 18008KT 10SM OVC014 21/16 A2984 RMK AO2 SLP095 T02060161=
202105030852 METAR KATL 030852Z 18007KT 10SM BKN016 BKN120 OVC250 21/16 A2984 RMK AO2 LTG DSNT NW SLP095 T02060156 56008=
202105030846 SPECI KATL 030846Z 18009KT 10SM BKN016 BKN120 OVC250 21/16 A2984 RMK AO2=
202105030752 METAR KATL 030752Z 17009KT 10SM SCT017 BKN080 BKN110 BKN200 21/16 A2985 RMK AO2 SLP100 T02060156=
202105030652 METAR KATL 030652Z 17007KT 10SM FEW070 SCT085 SCT120 21/16 A2987 RMK AO2 SLP104 T02060156=
202105030552 METAR KATL 030552Z 17006KT 10SM FEW070 SCT095 SCT120 SCT250 21/16 A2988 RMK AO2 SLP107 T02110156 10250 20211 53002=
202105030452 METAR KATL 030452Z 16005KT 10SM SCT100 SCT130 SCT250 21/16 A2987 RMK AO2 SLP104 T02110156 402720167=
202105030352 METAR KATL 030352Z 14004KT 10SM FEW060 BKN110 BKN150 BKN250 22/16 A2987 RMK AO2 SLP104 T02220161=
202105030252 METAR KATL 030252Z 15005KT 10SM FEW070 SCT120 BKN150 BKN250 23/16 A2987 RMK AO2 SLP106 T02280161 50001=
202105030152 METAR KATL 030152Z 16007KT 10SM FEW040 SCT070 BKN120 OVC160 24/16 A2989 RMK AO2 SLP112 T02390161=
202105030052 METAR KATL 030052Z 18006KT 10SM BKN070 BKN160 OVC250 24/16 A2989 RMK AO2 SLP112 T02440156=
202105022352 METAR KATL 022352Z 15008KT 10SM FEW080 SCT160 BKN190 OVC250 25/14 A2986 RMK AO2 SLP105 VIRGA E T02500144 10272 20250 58012=
202105022252 METAR KATL 022252Z 13006KT 10SM FEW055 FEW080 SCT160 BKN200 OVC250 26/14 A2988 RMK AO2 SLP109 VIRGA W T02560144=
202105022152 METAR KATL 022152Z 18008KT 10SM FEW050 SCT080 SCT120 SCT160 OVC250 26/14 A2990 RMK AO2 SLP116 T02610144=
202105022052 METAR KATL 022052Z 19011G20KT 10SM FEW050 SCT080 BKN170 BKN250 26/13 A2990 RMK AO2 SLP117 T02610133 55019=
202105021952 METAR KATL 021952Z 16007KT 10SM FEW055 BKN150 BKN250 26/13 A2990 RMK AO2 SLP117 T02560133=
202105021852 METAR KATL 021852Z 17010G16KT 10SM SCT050 BKN250 27/14 A2994 RMK AO2 SLP129 T02670139=
202105021752 METAR KATL 021752Z 16012KT 10SM FEW050 SCT150 BKN250 26/14 A2996 RMK AO2 SLP136 T02610139 10261 20167 58018=
202105021652 METAR KATL 021652Z 17010KT 10SM FEW040 SCT180 BKN250 25/15 A2999 RMK AO2 SLP146 T02500150=
202105021552 METAR KATL 021552Z 19010G15KT 10SM BKN160 BKN250 24/16 A3000 RMK AO2 SLP152 T02390156=
202105021452 METAR KATL 021452Z 19008G16KT 10SM BKN150 BKN200 22/15 A3001 RMK AO2 SLP155 T02220150 58003=
202105021352 METAR KATL 021352Z 18008KT 10SM BKN150 BKN250 21/15 A3002 RMK AO2 SLP159 T02060150=
202105021252 METAR KATL 021252Z 13006KT 10SM SCT120 BKN180 BKN220 18/15 A3001 RMK AO2 SLP157 VIRGA NW-NE T01780150=
202105021152 METAR KATL 021152Z 13004KT 10SM SCT110 BKN150 OVC180 17/14 A3002 RMK AO2 SLP159 VIRGA OHD-ALQDS T01670139 10189 20167 53006=
202105021052 METAR KATL 021052Z 12004KT 10SM FEW120 SCT150 BKN180 17/13 A3000 RMK AO2 SLP153 VIRGA NE & SE-SW T01670133=
202105020952 METAR KATL 020952Z 12003KT 10SM BKN180 17/13 A3000 RMK AO2 SLP152 T01720128=
202105020852 METAR KATL 020852Z 16004KT 10SM BKN200 17/13 A3000 RMK AO2 SLP152 T01720128 56002=
202105020752 METAR KATL 020752Z 16005KT 10SM BKN220 17/12 A3000 RMK AO2 SLP152 T01720117=
202105020652 METAR KATL 020652Z 00000KT 10SM SCT250 18/09 A2999 RMK AO2 SLP149 T01780094=
202105020552 METAR KATL 020552Z 12003KT 10SM SCT250 18/09 A3001 RMK AO2 SLP154 T01830094 10233 20178 58007=
202105020452 METAR KATL 020452Z 00000KT 10SM SCT250 19/09 A3002 RMK AO2 SLP158 T01890089 402560128=
202105020352 METAR KATL 020352Z 00000KT 10SM BKN250 19/08 A3002 RMK AO2 SLP159 T01940083=
202105020252 METAR KATL 020252Z 15003KT 10SM FEW200 BKN250 20/08 A3003 RMK AO2 SLP161 T02000083 51006=
202105020152 METAR KATL 020152Z 15004KT 10SM FEW200 BKN250 21/08 A3002 RMK AO2 SLP160 T02110083=
202105020052 METAR KATL 020052Z 15005KT 10SM CLR 22/08 A3002 RMK AO2 SLP158 T02170083=
202105012352 METAR KATL 012352Z 19005KT 10SM FEW200 SCT250 24/07 A3001 RMK AO2 SLP155 T02390072 10256 20233 55006=
202105012252 METAR KATL 012252Z 18007KT 10SM FEW200 SCT250 25/07 A3001 RMK AO2 SLP155 T02500067=
202105012152 METAR KATL 012152Z 15007KT 10SM FEW200 SCT250 26/06 A3001 RMK AO2 SLP155 T02560061=
202105012052 METAR KATL 012052Z 18007KT 10SM FEW200 SCT250 26/06 A3003 RMK AO2 SLP162 T02560061 58022=
202105011952 METAR KATL 011952Z 09004KT 10SM FEW200 SCT250 26/07 A3005 RMK AO2 SLP169 T02560067=
202105011852 METAR KATL 011852Z 18008KT 10SM FEW200 SCT250 SCT300 24/06 A3007 RMK AO2 SLP178 T02440061=
202105011752 METAR KATL 011752Z 15005KT 10SM FEW200 SCT250 SCT300 24/05 A3009 RMK AO2 SLP184 T02390050 10244 20144 58015=
202105011652 METAR KATL 011652Z 14006KT 10SM FEW200 SCT250 SCT300 23/06 A3012 RMK AO2 SLP194 T02330056=
202105011552 METAR KATL 011552Z 08006KT 10SM FEW200 SCT250 22/05 A3014 RMK AO2 SLP200 T02220050=
202105011452 METAR KATL 011452Z 03007KT 10SM FEW200 FEW250 22/04 A3014 RMK AO2 SLP199 T02170044 51018=
202105011352 METAR KATL 011352Z 01007KT 10SM FEW200 SCT250 20/06 A3013 RMK AO2 SLP197 T02000056=
202105011252 METAR KATL 011252Z 01009KT 10SM FEW200 SCT250 18/06 A3011 RMK AO2 SLP189 T01780061=
