##########################################################
# Query made at 04/20/2024 00:19:24 UTC
# Time interval: from 11/01/2021 12:00  to 11/30/2021 12:59  UTC
##########################################################

##########################################################
# KATL, Atlanta, Hartsfield - Jackson Atlanta International Airport (United States)
# WMO index: 72219. WIGOS ID: 0-20000-0-72219
# Latitude 33-38-59N. Longitude 084-25-00W. Altitude 312 m.
##########################################################

202111301252 METAR KATL 301252Z 28003KT 10SM CLR 02/M05 A3020 RMK AO2 SLP231 T00221050 $=
202111301152 METAR KATL 301152Z 31005KT 10SM CLR 02/M06 A3018 RMK AO2 SLP226 T00221056 10039 20017 53010 $=
202111301052 METAR KATL 301052Z 31004KT 10SM CLR 02/M05 A3016 RMK AO2 SLP219 T00221050=
202111300952 METAR KATL 300952Z 27003KT 10SM CLR 02/M05 A3016 RMK AO2 SLP216 T00221050=
202111300852 METAR KATL 300852Z 00000KT 10SM CLR 03/M06 A3015 RMK AO2 SLP214 T00281061 50006=
202111300752 METAR KATL 300752Z 29003KT 10SM CLR 03/M06 A3016 RMK AO2 SLP216 T00281056=
202111300652 METAR KATL 300652Z 31006KT 10SM CLR 03/M06 A3014 RMK AO2 SLP212 T00331061=
202111300552 METAR KATL 300552Z 00000KT 10SM FEW250 04/M06 A3013 RMK AO2 SLP208 T00391061 10078 20033 50002=
202111300452 METAR KATL 300452Z 30006KT 10SM FEW250 04/M07 A3014 RMK AO2 SLP208 T00441067 401280028=
202111300352 METAR KATL 300352Z 30005KT 10SM CLR 04/M07 A3013 RMK AO2 SLP208 T00441067=
202111300252 METAR KATL 300252Z 31005KT 10SM FEW250 05/M07 A3013 RMK AO2 SLP206 T00501067 53001=
202111300152 METAR KATL 300152Z 31006KT 10SM FEW250 06/M07 A3012 RMK AO2 SLP205 T00561067=
202111300052 METAR KATL 300052Z 31010KT 10SM FEW250 07/M07 A3012 RMK AO2 SLP206 T00671072=
202111292352 METAR KATL 292352Z 31010KT 10SM FEW250 08/M08 A3012 RMK AO2 SLP205 T00781078 10122 20072 53007=
202111292252 METAR KATL 292252Z 33008KT 10SM FEW250 08/M09 A3011 RMK AO2 SLP200 T00831089=
202111292152 METAR KATL 292152Z 33009KT 10SM FEW200 FEW250 11/M10 A3010 RMK AO2 SLP196 T01061100=
202111292052 METAR KATL 292052Z 33010KT 10SM FEW200 SCT250 12/M09 A3010 RMK AO2 SLP195 T01171094 55001=
202111291952 METAR KATL 291952Z 33013KT 10SM FEW200 SCT250 12/M08 A3009 RMK AO2 SLP189 T01221083 $=
202111291852 METAR KATL 291852Z 33012KT 10SM FEW200 SCT250 12/M09 A3009 RMK AO2 SLP190 T01171094=
202111291752 METAR KATL 291752Z 35012G16KT 10SM CLR 11/M08 A3010 RMK AO2 SLP195 T01111083 10111 20028 58009=
202111291652 METAR KATL 291652Z 33009KT 10SM CLR 09/M06 A3012 RMK AO2 SLP202 T00941061=
202111291552 METAR KATL 291552Z 34009KT 10SM CLR 08/M07 A3014 RMK AO2 SLP208 T00781067=
202111291452 METAR KATL 291452Z 32010KT 10SM FEW250 06/M06 A3013 RMK AO2 SLP207 T00611056 53018=
202111291352 METAR KATL 291352Z 34010G19KT 10SM FEW220 04/M06 A3011 RMK AO2 SLP201 T00441056=
202111291252 METAR KATL 291252Z 33013G21KT 10SM FEW220 03/M05 A3009 RMK AO2 SLP194 T00331050 $=
202111291152 METAR KATL 291152Z 32013KT 10SM FEW200 03/M06 A3008 RMK AO2 SLP189 T00331056 10078 20033 53011 $=
202111291052 METAR KATL 291052Z 33015KT 10SM FEW200 04/M03 A3006 RMK AO2 SLP182 T00391033 $=
202111290952 METAR KATL 290952Z 32012KT 10SM FEW200 04/M03 A3004 RMK AO2 SLP174 T00441028 $=
202111290852 METAR KATL 290852Z 33013G22KT 10SM FEW200 06/M03 A3004 RMK AO2 SLP175 T00561028 53001 $=
202111290752 METAR KATL 290752Z 33010KT 10SM FEW200 06/M02 A3004 RMK AO2 SLP175 T00611022 $=
202111290652 METAR KATL 290652Z 32010KT 10SM CLR 07/M02 A3004 RMK AO2 SLP173 T00671017 $=
202111290552 METAR KATL 290552Z 33013KT 10SM CLR 08/M01 A3004 RMK AO2 SLP174 T00781011 10106 20078 51007 $=
202111290452 METAR KATL 290452Z 33012KT 10SM FEW200 08/M01 A3004 RMK AO2 SLP173 T00831011 401390050 $=
202111290352 METAR KATL 290352Z 33013KT 10SM FEW200 FEW250 09/00 A3003 RMK AO2 SLP170 T00890000 $=
202111290252 METAR KATL 290252Z 32011KT 10SM FEW210 SCT250 09/02 A3002 RMK AO2 SLP167 T00890022 53007 $=
202111290152 METAR KATL 290152Z 29009KT 10SM SCT210 SCT250 10/02 A3000 RMK AO2 SLP163 T01000022 $=
202111290052 METAR KATL 290052Z 29006KT 10SM SCT170 SCT220 BKN250 09/02 A3000 RMK AO2 SLP163 T00940022 $=
202111282352 METAR KATL 282352Z 28005KT 10SM FEW150 SCT200 SCT250 11/02 A2999 RMK AO2 SLP160 T01060022 10139 20094 53009 $=
202111282252 METAR KATL 282252Z 27006KT 10SM FEW150 FEW180 SCT250 11/02 A2998 RMK AO2 SLP156 T01060017 $=
202111282152 METAR KATL 282152Z 26005KT 10SM FEW180 BKN220 BKN250 13/01 A2997 RMK AO2 SLP151 T01330011=
202111282052 METAR KATL 282052Z 28006KT 10SM BKN200 BKN250 13/01 A2997 RMK AO2 SLP149 T01280006 56017=
202111281952 METAR KATL 281952Z 28007KT 10SM BKN180 BKN250 13/00 A2997 RMK AO2 SLP149 T01280000=
202111281852 METAR KATL 281852Z 27009KT 10SM BKN170 BKN250 13/00 A2999 RMK AO2 SLP156 T01280000=
202111281752 METAR KATL 281752Z 29009KT 10SM BKN160 OVC250 12/M01 A3002 RMK AO2 SLP166 T01171006 10122 20056 56012=
202111281652 METAR KATL 281652Z 32008KT 10SM BKN180 OVC250 11/M01 A3002 RMK AO2 SLP166 BINOVC T01111006=
202111281552 METAR KATL 281552Z 28004KT 10SM SCT200 BKN250 10/00 A3004 RMK AO2 SLP174 T01000000 $=
202111281452 METAR KATL 281452Z 30009KT 10SM FEW150 BKN200 BKN250 08/M01 A3006 RMK AO2 SLP180 T00831011 53009 $=
202111281352 METAR KATL 281352Z 29007KT 10SM FEW180 SCT220 BKN250 07/M01 A3004 RMK AO2 SLP175 T00721011 $=
202111281252 METAR KATL 281252Z 28004KT 10SM FEW180 SCT220 BKN250 06/M02 A3003 RMK AO2 SLP173 T00611022 $=
202111281152 METAR KATL 281152Z 28007KT 10SM FEW180 SCT220 BKN250 06/M02 A3003 RMK AO2 SLP170 T00611022 10094 20050 55000 $=
202111281052 METAR KATL 281052Z 25004KT 10SM SCT180 SCT220 06/M03 A3002 RMK AO2 SLP167 T00561028 $=
202111280952 METAR KATL 280952Z 22003KT 10SM SCT180 BKN220 06/M03 A3002 RMK AO2 SLP166 T00611028 $=
202111280852 METAR KATL 280852Z 28006KT 10SM SCT180 BKN220 06/M03 A3003 RMK AO2 SLP169 T00611028 56004 $=
202111280752 METAR KATL 280752Z 27007KT 10SM SCT200 BKN250 07/M03 A3003 RMK AO2 SLP170 T00721033 $=
202111280652 METAR KATL 280652Z 27005KT 10SM SCT200 BKN250 08/M03 A3003 RMK AO2 SLP167 T00831033 $=
202111280552 METAR KATL 280552Z 26006KT 10SM BKN210 BKN250 09/M04 A3004 RMK AO2 SLP172 T00891039 10122 20089 58005 $=
202111280452 METAR KATL 280452Z 26006KT 10SM SCT200 BKN250 09/M03 A3006 RMK AO2 SLP180 T00941033 401720017 $=
202111280352 METAR KATL 280352Z 25005KT 10SM SCT210 BKN250 10/M03 A3005 RMK AO2 SLP178 T01001033 $=
202111280252 METAR KATL 280252Z 25005KT 10SM SCT200 BKN250 11/M03 A3006 RMK AO2 SLP180 T01061028 56003 $=
202111280152 METAR KATL 280152Z 25004KT 10SM BKN200 BKN250 10/M02 A3006 RMK AO2 SLP182 T01001017 $=
202111280052 METAR KATL 280052Z 23004KT 10SM BKN200 BKN250 11/M02 A3006 RMK AO2 SLP182 T01111022 $=
202111272352 METAR KATL 272352Z 24003KT 10SM BKN200 BKN250 12/M03 A3007 RMK AO2 SLP185 T01221028 10172 20122 53001 $=
202111272252 METAR KATL 272252Z 23004KT 10SM BKN200 BKN250 13/M03 A3006 RMK AO2 SLP184 T01331033 $=
202111272152 METAR KATL 272152Z 24008KT 10SM BKN200 BKN250 16/M05 A3006 RMK AO2 SLP182 T01561050 $=
202111272052 METAR KATL 272052Z 26006KT 10SM FEW170 SCT200 BKN250 16/M05 A3006 RMK AO2 SLP182 T01611050 55014 $=
202111271952 METAR KATL 271952Z 21006KT 10SM FEW200 SCT250 16/M06 A3006 RMK AO2 SLP179 T01611061 $=
202111271852 METAR KATL 271852Z VRB05KT 10SM FEW200 16/M06 A3008 RMK AO2 SLP189 T01561061 $=
202111271752 METAR KATL 271752Z 30008KT 10SM FEW200 15/M06 A3010 RMK AO2 SLP197 T01501061 10150 20017 58020 $=
202111271652 METAR KATL 271652Z 34003KT 10SM FEW200 13/M07 A3013 RMK AO2 SLP207 T01281072 $=
202111271552 METAR KATL 271552Z 31005KT 10SM FEW200 11/M07 A3015 RMK AO2 SLP215 T01061072 $=
202111271452 METAR KATL 271452Z 30005KT 10SM FEW200 07/M07 A3016 RMK AO2 SLP219 T00721067 51014 $=
202111271352 METAR KATL 271352Z 32006KT 10SM CLR 04/M06 A3015 RMK AO2 SLP217 T00391061 $=
202111271252 METAR KATL 271252Z 31006KT 10SM CLR 02/M07 A3014 RMK AO2 SLP213 T00171067=
202111271152 METAR KATL 271152Z 32004KT 10SM CLR 02/M07 A3012 RMK AO2 SLP206 T00171072 10028 20017 53005=
202111271052 METAR KATL 271052Z 33008KT 10SM CLR 02/M07 A3011 RMK AO2 SLP201 T00171067=
202111270952 METAR KATL 270952Z 34011KT 10SM CLR 02/M07 A3010 RMK AO2 SLP197 T00171067=
202111270852 METAR KATL 270852Z 33012KT 10SM CLR 02/M07 A3010 RMK AO2 SLP199 T00221067 50002=
202111270752 METAR KATL 270752Z 33009KT 10SM CLR 02/M07 A3011 RMK AO2 SLP199 T00221067 $=
202111270652 METAR KATL 270652Z 32010KT 10SM CLR 03/M07 A3010 RMK AO2 SLP197 T00281067 $=
202111270552 METAR KATL 270552Z 32012KT 10SM CLR 03/M06 A3010 RMK AO2 SLP196 T00281061 10072 20028 58001 $=
202111270452 METAR KATL 270452Z 32009KT 10SM CLR 03/M05 A3011 RMK AO2 SLP200 T00331050 401330033 $=
202111270352 METAR KATL 270352Z 32012KT 10SM CLR 04/M05 A3010 RMK AO2 SLP197 T00391050 $=
202111270252 METAR KATL 270252Z 30008KT 10SM CLR 04/M05 A3010 RMK AO2 SLP197 T00441050 53001 $=
202111270152 METAR KATL 270152Z 31009KT 10SM CLR 05/M06 A3010 RMK AO2 SLP199 T00501056 $=
202111270052 METAR KATL 270052Z 31010KT 10SM CLR 06/M06 A3009 RMK AO2 SLP194 T00611056 $=
202111262352 METAR KATL 262352Z 32012KT 10SM CLR 07/M06 A3010 RMK AO2 SLP195 T00721061 10111 20072 50006 $=
202111262252 METAR KATL 262252Z 33012KT 10SM FEW250 08/M06 A3010 RMK AO2 SLP195 T00781056 $=
202111262152 METAR KATL 262152Z 31014KT 10SM FEW250 09/M05 A3008 RMK AO2 SLP189 T00941050 $=
202111262052 METAR KATL 262052Z 31011G18KT 10SM FEW250 11/M07 A3008 RMK AO2 SLP186 T01061072 56013 $=
202111261952 METAR KATL 261952Z 30017G23KT 10SM FEW200 11/M06 A3009 RMK AO2 PK WND 29029/1855 SLP189 T01061061=
202111261852 METAR KATL 261852Z 32015KT 10SM FEW250 10/M06 A3009 RMK AO2 SLP191 T01001056=
202111261752 METAR KATL 261752Z 31014KT 10SM FEW250 09/M04 A3012 RMK AO2 SLP199 T00941044 10094 20044 58009=
202111261652 METAR KATL 261652Z 33013G21KT 10SM FEW250 08/M03 A3013 RMK AO2 SLP205 T00831033=
202111261552 METAR KATL 261552Z 32017G24KT 10SM FEW250 07/M02 A3015 RMK AO2 SLP211 T00721022=
202111261452 METAR KATL 261452Z 31013G25KT 10SM FEW028 FEW250 06/M01 A3015 RMK AO2 SLP210 T00611006 53013=
202111261352 METAR KATL 261352Z 32012G24KT 10SM FEW020 FEW250 04/M01 A3013 RMK AO2 SLP204 T00441006 $=
202111261252 METAR KATL 261252Z 32015G23KT 10SM FEW020 FEW200 FEW250 04/M01 A3012 RMK AO2 SLP201 T00441006 $=
202111261152 METAR KATL 261152Z 33011G22KT 10SM SCT021 SCT030 07/02 A3011 RMK AO2 PK WND 34028/1057 SLP196 60001 70017 T00670017 10133 20067 53021 $=
202111261052 METAR KATL 261052Z 33020G27KT 10SM SCT013 BKN020 BKN028 08/05 A3008 RMK AO2 PK WND 33027/1011 SLP186 SCT013 V BKN T00830050 $=
202111261033 SPECI KATL 261033Z 32015G23KT 10SM SCT014 BKN028 BKN034 09/07 A3007 RMK AO2 PK WND 33027/1011 T00940067 $=
202111260952 METAR KATL 260952Z 31011G19KT 10SM BKN013 OVC020 11/08 A3005 RMK AO2 SLP176 T01060083 $=
202111260852 METAR KATL 260852Z 32015G19KT 10SM FEW010 BKN013 OVC020 12/09 A3004 RMK AO2 SLP170 60001 T01170094 53005 $=
202111260819 SPECI KATL 260819Z 33009KT 10SM BKN011 OVC020 12/10 A3004 RMK AO2 BINOVC T01220100 $=
202111260752 METAR KATL 260752Z 32009G18KT 10SM BKN008 OVC016 12/11 A3002 RMK AO2 SLP163 BINOVC T01220106 $=
202111260734 SPECI KATL 260734Z 30010G16KT 10SM BKN008 OVC016 13/11 A3002 RMK AO2 BINOVC T01280111 $=
202111260708 SPECI KATL 260708Z 31008KT 10SM SCT007 BKN013 BKN022 13/11 A3001 RMK AO2 T01280111 $=
202111260652 METAR KATL 260652Z 31012KT 10SM BKN007 BKN013 13/11 A3001 RMK AO2 RAE18 SLP161 P0001 T01280111 $=
202111260552 METAR KATL 260552Z 28010KT 3SM -RA BR BKN005 OVC020 13/12 A3003 RMK AO2 SLP166 CIG 004V008 P0008 60015 T01280117 10144 20128 56014 PNO $=
202111260452 METAR KATL 260452Z 25007KT 3SM -RA BR BKN005 BKN012 OVC050 13/12 A3004 RMK AO2 SLP170 P0005 T01280117 402060022 PNO $=
202111260434 SPECI KATL 260434Z 25008KT 4SM -RA BR SCT005 BKN012 OVC050 13/12 A3004 RMK AO2 P0004 T01280117 PNO $=
202111260352 METAR KATL 260352Z 24006KT 4SM -RA BR SCT008 BKN025 OVC060 13/12 A3006 RMK AO2 SLP176 P0002 T01330117 PNO $=
202111260318 SPECI KATL 260318Z 23006KT 7SM -RA SCT008 BKN035 OVC060 13/12 A3006 RMK AO2 P0001 T01330117 PNO $=
202111260252 METAR KATL 260252Z 23006KT 5SM -RA BR FEW010 BKN035 BKN050 BKN200 13/12 A3007 RMK AO2 RAB35 SLP182 P0001 T01330117 56013 PNO $=
202111260152 METAR KATL 260152Z 22008KT 10SM BKN038 BKN080 BKN200 14/09 A3007 RMK AO2 SLP185 T01390089 $=
202111260052 METAR KATL 260052Z 22006KT 10SM SCT045 BKN200 BKN250 14/08 A3008 RMK AO2 SLP190 T01390083 $=
202111252352 METAR KATL 252352Z 23005KT 10SM FEW150 SCT200 BKN250 14/07 A3011 RMK AO2 SLP199 T01390072 10194 20139 55011 $=
202111252252 METAR KATL 252252Z 19006KT 10SM FEW150 SCT200 BKN250 14/07 A3011 RMK AO2 SLP197 T01440067 $=
202111252152 METAR KATL 252152Z 22006KT 10SM FEW048 SCT200 SCT250 17/06 A3014 RMK AO2 SLP206 T01720061 $=
202111252052 METAR KATL 252052Z 23008KT 10SM FEW045 FEW100 SCT200 SCT250 18/05 A3014 RMK AO2 SLP208 T01780050 56021 $=
202111251952 METAR KATL 251952Z 27012KT 10SM FEW012 FEW110 SCT200 SCT250 19/04 A3016 RMK AO2 SLP213 FU FEW012 FU PLUME SW T01890044 $=
202111251852 METAR KATL 251852Z 23009KT 10SM SCT200 SCT250 18/06 A3018 RMK AO2 SLP220 T01830056 $=
202111251752 METAR KATL 251752Z 23010KT 10SM SCT200 SCT250 17/06 A3021 RMK AO2 SLP230 T01670061 10178 20022 58027 $=
202111251652 METAR KATL 251652Z 22007KT 190V270 10SM FEW200 SCT250 16/07 A3025 RMK AO2 SLP244 T01610067=
202111251552 METAR KATL 251552Z 22008KT 10SM FEW200 SCT250 13/06 A3028 RMK AO2 SLP255 T01280056=
202111251452 METAR KATL 251452Z 24006KT 10SM SCT200 BKN250 11/04 A3029 RMK AO2 SLP260 T01060044 55003=
202111251352 METAR KATL 251352Z 00000KT 10SM BKN250 07/00 A3028 RMK AO2 SLP258 T00670000=
202111251252 METAR KATL 251252Z 00000KT 10SM BKN250 03/M02 A3028 RMK AO2 SLP259 T00331022=
202111251152 METAR KATL 251152Z 15003KT 10SM BKN250 02/M02 A3030 RMK AO2 SLP265 T00221017 10061 20022 58005=
202111251052 METAR KATL 251052Z 00000KT 10SM BKN250 04/M02 A3030 RMK AO2 SLP266 T00391022 $=
202111250952 METAR KATL 250952Z 00000KT 10SM BKN250 03/M02 A3032 RMK AO2 SLP269 T00331022 $=
202111250852 METAR KATL 250852Z 08004KT 10SM BKN250 04/M02 A3031 RMK AO2 SLP267 T00441022 56008 $=
202111250752 METAR KATL 250752Z 00000KT 10SM BKN250 05/M03 A3032 RMK AO2 SLP271 T00501028 $=
202111250652 METAR KATL 250652Z 09004KT 10SM BKN250 06/M03 A3033 RMK AO2 SLP272 T00561028 $=
202111250552 METAR KATL 250552Z 00000KT 10SM BKN250 06/M02 A3034 RMK AO2 SLP276 T00561022 10100 20056 58001 $=
202111250452 METAR KATL 250452Z 11003KT 10SM BKN250 07/M03 A3035 RMK AO2 SLP281 T00721033 401500006 $=
202111250352 METAR KATL 250352Z 13003KT 10SM BKN250 07/M02 A3034 RMK AO2 SLP278 T00671017 $=
202111250252 METAR KATL 250252Z 14003KT 10SM SCT250 07/M03 A3034 RMK AO2 SLP278 T00721028 51005 $=
202111250152 METAR KATL 250152Z 00000KT 10SM SCT250 08/M03 A3034 RMK AO2 SLP280 T00831028 $=
202111250052 METAR KATL 250052Z 13003KT 10SM SCT250 09/M03 A3033 RMK AO2 SLP277 T00941028 $=
202111242352 METAR KATL 242352Z 14003KT 10SM SCT250 09/M03 A3033 RMK AO2 SLP276 T00941028 10150 20094 56002 $=
202111242252 METAR KATL 242252Z 14004KT 10SM FEW200 FEW250 11/M03 A3033 RMK AO2 SLP275 T01111033 $=
202111242152 METAR KATL 242152Z 16006KT 10SM FEW200 SCT250 14/M06 A3033 RMK AO2 SLP275 T01391056 $=
202111242052 METAR KATL 242052Z 11007KT 10SM FEW150 SCT200 SCT250 14/M06 A3033 RMK AO2 SLP275 T01441056 56011 $=
202111241952 METAR KATL 241952Z 12007KT 10SM SCT200 SCT250 14/M06 A3034 RMK AO2 SLP279 T01441061 $=
202111241852 METAR KATL 241852Z 15006KT 10SM SCT200 BKN250 14/M07 A3035 RMK AO2 SLP281 T01391067=
202111241752 METAR KATL 241752Z 16007KT 10SM SCT200 SCT250 14/M07 A3037 RMK AO2 SLP287 T01391067 10139 20006 58012=
202111241652 METAR KATL 241652Z 14006KT 10SM FEW200 SCT250 12/M05 A3039 RMK AO2 SLP294 T01221050=
202111241552 METAR KATL 241552Z 11005KT 10SM FEW200 FEW250 11/M04 A3040 RMK AO2 SLP300 T01111039=
202111241452 METAR KATL 241452Z 11005KT 10SM FEW250 09/M03 A3040 RMK AO2 SLP301 T00891028 51021=
202111241352 METAR KATL 241352Z 09005KT 10SM FEW200 04/M03 A3038 RMK AO2 SLP295 T00441028=
202111241252 METAR KATL 241252Z 09005KT 10SM CLR 01/M04 A3036 RMK AO2 SLP289 T00111039=
202111241152 METAR KATL 241152Z 08006KT 10SM CLR 01/M04 A3034 RMK AO2 SLP281 T00061044 10028 20006 53013=
202111241052 METAR KATL 241052Z 08005KT 10SM CLR 01/M04 A3032 RMK AO2 SLP275 T00111044=
202111240952 METAR KATL 240952Z 09004KT 10SM CLR 02/M04 A3031 RMK AO2 SLP269 T00171039=
202111240852 METAR KATL 240852Z 00000KT 10SM CLR 02/M03 A3030 RMK AO2 SLP266 T00171033 53008=
202111240752 METAR KATL 240752Z 00000KT 10SM CLR 01/M04 A3029 RMK AO2 SLP261 T00111039=
202111240652 METAR KATL 240652Z 00000KT 10SM CLR 02/M04 A3027 RMK AO2 SLP256 T00221039=
202111240552 METAR KATL 240552Z 00000KT 10SM CLR 03/M05 A3028 RMK AO2 SLP257 T00281050 10083 20022 51004=
202111240452 METAR KATL 240452Z 31004KT 10SM CLR 04/M06 A3027 RMK AO2 SLP257 T00391056 401220000=
202111240352 METAR KATL 240352Z 31006KT 10SM CLR 04/M06 A3027 RMK AO2 SLP255 T00441061=
202111240252 METAR KATL 240252Z 29004KT 10SM CLR 04/M07 A3026 RMK AO2 SLP253 T00441067 53008=
202111240152 METAR KATL 240152Z 32006KT 10SM CLR 06/M08 A3025 RMK AO2 SLP251 T00611078=
202111240052 METAR KATL 240052Z 33007KT 10SM CLR 07/M08 A3025 RMK AO2 SLP249 T00671078=
202111232352 METAR KATL 232352Z 32006KT 10SM FEW250 07/M08 A3024 RMK AO2 SLP247 T00721083 10122 20072 51015=
202111232252 METAR KATL 232252Z 32007KT 10SM FEW250 09/M08 A3022 RMK AO2 SLP240 T00891083=
202111232152 METAR KATL 232152Z 31009KT 10SM FEW180 SCT250 11/M10 A3021 RMK AO2 SLP235 T01111100=
202111232052 METAR KATL 232052Z 30010KT 10SM SCT180 BKN250 12/M11 A3019 RMK AO2 SLP229 T01171111 56012=
202111231952 METAR KATL 231952Z 30008KT 10SM SCT180 BKN250 12/M11 A3020 RMK AO2 SLP230 T01221111=
202111231852 METAR KATL 231852Z 34005KT 10SM SCT180 BKN250 12/M08 A3021 RMK AO2 SLP234 T01171083=
202111231752 METAR KATL 231752Z 32008KT 10SM SCT180 BKN250 11/M08 A3023 RMK AO2 SLP240 T01061083 10106 20000 58011=
202111231652 METAR KATL 231652Z 29005KT 10SM SCT250 09/M07 A3025 RMK AO2 SLP248 T00941067=
202111231552 METAR KATL 231552Z 36007KT 10SM SCT250 07/M08 A3026 RMK AO2 SLP253 T00721078=
202111231452 METAR KATL 231452Z 35009KT 10SM FEW250 04/M07 A3026 RMK AO2 SLP253 T00441067 51019=
202111231352 METAR KATL 231352Z 35007KT 10SM FEW250 02/M05 A3025 RMK AO2 SLP248 T00221050=
202111231252 METAR KATL 231252Z 33010KT 10SM FEW250 00/M05 A3023 RMK AO2 SLP242 T00001050=
202111231152 METAR KATL 231152Z 33009KT 10SM CLR 00/M05 A3021 RMK AO2 SLP234 T00001050 10039 20000 53017=
202111231052 METAR KATL 231052Z 31008KT 10SM CLR 00/M05 A3018 RMK AO2 SLP223 T00001050=
202111230952 METAR KATL 230952Z 32008KT 10SM CLR 01/M04 A3016 RMK AO2 SLP216 T00111044 $=
202111230852 METAR KATL 230852Z 33009KT 10SM CLR 02/M05 A3015 RMK AO2 SLP214 T00171050 53014 $=
202111230752 METAR KATL 230752Z 33009KT 10SM CLR 02/M05 A3014 RMK AO2 SLP208 T00221050 $=
202111230652 METAR KATL 230652Z 33009KT 10SM CLR 03/M05 A3012 RMK AO2 SLP202 T00281050 $=
202111230552 METAR KATL 230552Z 33008KT 10SM CLR 04/M06 A3011 RMK AO2 SLP199 T00391056 10111 20039 51010 $=
202111230452 METAR KATL 230452Z 33010KT 10SM CLR 05/M06 A3010 RMK AO2 SLP196 T00501061 401610050 $=
202111230352 METAR KATL 230352Z 34012G21KT 10SM FEW200 06/M06 A3010 RMK AO2 PK WND 35026/0302 SLP194 T00611056 $=
202111230252 METAR KATL 230252Z 33014KT 10SM FEW200 07/M04 A3008 RMK AO2 SLP189 T00671044 51022 $=
202111230152 METAR KATL 230152Z 34019G27KT 10SM FEW200 08/M04 A3006 RMK AO2 PK WND 33027/0144 SLP181 T00831044 $=
202111230052 METAR KATL 230052Z 33019G25KT 10SM FEW200 09/M02 A3004 RMK AO2 SLP174 T00941022 $=
202111222352 METAR KATL 222352Z 33015G25KT 10SM FEW200 11/M01 A3001 RMK AO2 PK WND 31028/2327 SLP163 T01111011 10161 20111 53010 $=
202111222252 METAR KATL 222252Z 32012KT 10SM FEW200 12/01 A2999 RMK AO2 SLP156 T01220006 $=
202111222152 METAR KATL 222152Z 33009G17KT 10SM FEW200 14/02 A2998 RMK AO2 SLP150 T01440017 $=
202111222052 METAR KATL 222052Z 34014KT 10SM FEW050 FEW250 16/01 A2998 RMK AO2 SLP151 T01560011 55007 $=
202111221952 METAR KATL 221952Z 33016KT 10SM FEW250 16/01 A2998 RMK AO2 PK WND 33027/1855 SLP148 T01610011 $=
202111221852 METAR KATL 221852Z 32017G23KT 10SM FEW200 16/03 A2998 RMK AO2 SLP151 T01610033 $=
202111221752 METAR KATL 221752Z 31015KT 10SM SCT200 BKN250 15/05 A3000 RMK AO2 PK WND 34026/1711 SLP158 60000 T01500050 10150 20117 58009 $=
202111221652 METAR KATL 221652Z 33013G20KT 10SM FEW022 14/08 A3003 RMK AO2 SLP167 T01440078 $=
202111221620 SPECI KATL 221620Z 33016KT 10SM SCT018 13/08 A3004 RMK AO2 T01330078 $=
202111221604 SPECI KATL 221604Z 33016KT 10SM BKN018 12/08 A3005 RMK AO2 T01220078 $=
202111221552 METAR KATL 221552Z 34012KT 10SM SCT017 13/08 A3005 RMK AO2 SLP174 T01280078 $=
202111221541 SPECI KATL 221541Z 33009G20KT 10SM SCT014 12/08 A3004 RMK AO2 T01220083 $=
202111221452 METAR KATL 221452Z 31010KT 10SM BKN012 12/09 A3003 RMK AO2 SLP169 60000 T01170094 51013 $=
202111221441 SPECI KATL 221441Z 32012KT 10SM OVC011 12/09 A3004 RMK AO2 T01170094 $=
202111221352 METAR KATL 221352Z 32010KT 6SM BR BKN007 BKN016 OVC045 13/11 A3003 RMK AO2 DZB08E42 SLP167 CIG 005V009 P0000 T01280111 $=
202111221309 SPECI KATL 221309Z 29009KT 5SM -DZ BR BKN006 BKN011 OVC027 13/12 A3002 RMK AO2 DZB08 CIG 004V008 P0000 T01280117 $=
202111221252 METAR KATL 221252Z 29008KT 6SM BR SCT005 BKN019 BKN048 OVC180 13/12 A3001 RMK AO2 SLP159 SCT005 V BKN T01280117=
202111221220 SPECI KATL 221220Z 28006KT 7SM FEW004 BKN044 BKN075 OVC200 12/12 A3000 RMK AO2 T01220117=
202111221208 SPECI KATL 221208Z 27006KT 6SM BR BKN004 OVC042 13/12 A2999 RMK AO2 BKN004 V SCT T01280117=
202111221156 SPECI KATL 221156Z 28008KT 7SM SCT004 BKN042 BKN075 OVC200 13/12 A2999 RMK AO2 SCT004 V BKN T01280117=
202111221152 METAR KATL 221152Z 27008KT 6SM BR BKN005 BKN042 BKN075 OVC200 13/12 A3000 RMK AO2 RAE1053 SLP155 CIG 004V008 P0000 60036 70036 T01280117 10144 20128 56007=
202111221105 SPECI KATL 221105Z 32009KT 5SM BR BKN005 OVC012 13/12 A2999 RMK AO2 RAE1053 CIG 004V008 P0000 T01280122=
202111221052 METAR KATL 221052Z 32015KT 6SM -RA BR BKN004 BKN016 OVC075 13/12 A3000 RMK AO2 RAE21B41 PRESRR SLP155 CIG 003V006 P0002 T01280117 $=
202111221016 SPECI KATL 221016Z 18006KT 4SM -RA BR BKN003 BKN065 OVC075 13/12 A2996 RMK AO2 CIG 002V004 P0002 T01280117 $=
202111220952 METAR KATL 220952Z 18007KT 6SM -RA BR FEW004 OVC070 13/12 A2998 RMK AO2 PRESFR SLP151 P0006 T01280117 $=
202111220852 METAR KATL 220852Z 24003KT 8SM -RA FEW005 OVC075 13/12 A3002 RMK AO2 SLP163 P0004 60028 T01280122 58007 $=
202111220752 METAR KATL 220752Z 00000KT 10SM -RA FEW008 FEW055 OVC080 13/12 A3003 RMK AO2 SLP165 P0005 T01330122 $=
202111220652 METAR KATL 220652Z 33004KT 4SM RA BR FEW008 OVC050 14/12 A3004 RMK AO2 SLP171 P0019 T01390122 $=
202111220631 SPECI KATL 220631Z 31006KT 3SM RA BR FEW008 SCT022 OVC040 14/13 A3005 RMK AO2 P0014 T01390128 $=
202111220626 SPECI KATL 220626Z 31007KT 2 1/2SM +RA BR FEW008 SCT022 OVC040 14/12 A3005 RMK AO2 P0012 T01390122 $=
202111220611 SPECI KATL 220611Z 32005KT 3SM +RA BR SCT015 BKN025 OVC050 14/12 A3005 RMK AO2 P0003 T01440122 $=
202111220552 METAR KATL 220552Z 22003KT 10SM -RA FEW020 BKN031 OVC055 14/12 A3004 RMK AO2 SLP170 RAB44 P0000 60000 T01440117 10161 20144 56015 $=
202111220452 METAR KATL 220452Z 20005KT 10SM SCT031 BKN080 OVC250 14/12 A3005 RMK AO2 SLP176 T01440117 401830067 $=
202111220352 METAR KATL 220352Z 20006KT 10SM FEW045 FEW065 SCT100 BKN200 OVC250 14/12 A3006 RMK AO2 SLP179 T01440117 $=
202111220252 METAR KATL 220252Z 17005KT 10SM FEW045 FEW065 BKN095 OVC250 14/11 A3009 RMK AO2 SLP188 T01440111 58012 $=
202111220152 METAR KATL 220152Z 00000KT 10SM SCT039 BKN050 BKN060 15/11 A3010 RMK AO2 SLP194 T01500111 $=
202111220052 METAR KATL 220052Z 11004KT 10SM SCT042 BKN050 BKN100 OVC250 16/11 A3012 RMK AO2 SLP199 T01610111 $=
202111212352 METAR KATL 212352Z 12003KT 10SM FEW040 SCT100 BKN200 OVC250 16/11 A3012 RMK AO2 SLP201 T01610111 10183 20150 58009 $=
202111212252 METAR KATL 212252Z 15003KT 10SM FEW045 FEW055 BKN210 OVC250 17/11 A3013 RMK AO2 SLP202 T01670111 $=
202111212152 METAR KATL 212152Z 17003KT 10SM SCT045 BKN060 OVC250 18/11 A3014 RMK AO2 SLP207 T01780111 $=
202111212052 METAR KATL 212052Z 18008KT 160V240 10SM SCT040 SCT120 BKN200 18/11 A3015 RMK AO2 SLP208 T01830106 56031 $=
202111211952 METAR KATL 211952Z 10004KT 10SM FEW032 SCT150 BKN250 18/11 A3017 RMK AO2 SLP216 T01830106 $=
202111211852 METAR KATL 211852Z 13004KT 10SM FEW028 FEW065 BKN250 17/09 A3021 RMK AO2 SLP228 T01670094 $=
202111211752 METAR KATL 211752Z VRB04KT 10SM FEW020 FEW080 SCT150 BKN250 16/09 A3024 RMK AO2 SLP241 T01560089 10156 20067 58023 $=
202111211652 METAR KATL 211652Z 13005KT 10SM FEW015 BKN080 BKN150 13/08 A3028 RMK AO2 SLP256 T01330078 $=
202111211636 SPECI KATL 211636Z VRB03KT 10SM SCT014 BKN080 13/07 A3030 RMK AO2 T01280072 $=
202111211552 METAR KATL 211552Z 13005KT 10SM OVC012 11/06 A3031 RMK AO2 SLP267 T01110061 $=
202111211452 METAR KATL 211452Z 10006KT 10SM OVC010 10/04 A3031 RMK AO2 SLP267 T01000044 50002 $=
202111211352 METAR KATL 211352Z 11007KT 10SM OVC009 09/03 A3033 RMK AO2 SLP272 T00890028 $=
202111211324 SPECI KATL 211324Z 09007KT 10SM OVC009 08/01 A3032 RMK AO2 CIG 008V011 T00830011 $=
202111211252 METAR KATL 211252Z 09007KT 10SM OVC010 08/00 A3031 RMK AO2 SLP265 CIG 009V012 T00830000 $=
202111211218 SPECI KATL 211218Z 10006KT 10SM BKN012 08/M01 A3031 RMK AO2 T00781011 $=
202111211152 METAR KATL 211152Z 09007KT 10SM FEW020 FEW035 07/M01 A3031 RMK AO2 SLP266 T00721011 10094 20067 58002 $=
202111211052 METAR KATL 211052Z 08007KT 10SM FEW019 SCT036 08/M02 A3031 RMK AO2 SLP267 T00781017 $=
202111210952 METAR KATL 210952Z 08008KT 10SM SCT019 BKN036 08/M02 A3031 RMK AO2 SLP265 T00831022 $=
202111210950 SPECI KATL 210950Z 09007KT 10SM SCT019 BKN036 08/M02 A3031 RMK AO2 $=
202111210852 METAR KATL 210852Z 09008KT 10SM OVC019 09/M02 A3031 RMK AO2 SLP267 BINOVC T00891022 56009 $=
202111210752 METAR KATL 210752Z 09008KT 10SM BKN020 09/M02 A3032 RMK AO2 SLP267 T00941022 $=
202111210652 METAR KATL 210652Z 09010KT 10SM BKN022 09/M02 A3033 RMK AO2 SLP273 T00941022 $=
202111210552 METAR KATL 210552Z 09009KT 10SM BKN021 BKN027 09/M01 A3034 RMK AO2 SLP276 T00941011 10106 20078 58007 $=
202111210452 METAR KATL 210452Z 09011KT 10SM BKN026 OVC033 09/M01 A3035 RMK AO2 SLP279 BINOVC T00941011 401440028 $=
202111210352 METAR KATL 210352Z 09010KT 10SM OVC026 09/M01 A3037 RMK AO2 SLP285 T00891006 $=
202111210313 SPECI KATL 210313Z 09008KT 10SM BKN029 BKN250 09/00 A3036 RMK AO2 T00890000 $=
202111210252 METAR KATL 210252Z 09009KT 10SM SCT029 BKN250 08/00 A3036 RMK AO2 SLP285 T00830000 53003 $=
202111210230 SPECI KATL 210230Z 09009KT 10SM BKN029 BKN250 09/01 A3036 RMK AO2 T00890006 $=
202111210152 METAR KATL 210152Z 08010KT 10SM FEW025 BKN250 09/01 A3035 RMK AO2 SLP282 T00890006 $=
202111210052 METAR KATL 210052Z 10008KT 10SM FEW025 SCT250 10/01 A3035 RMK AO2 SLP284 T01000011 $=
202111202352 METAR KATL 202352Z 09007KT 10SM FEW030 SCT250 11/02 A3035 RMK AO2 SLP284 T01060017 10144 20106 53006 $=
202111202252 METAR KATL 202252Z 10007KT 10SM FEW030 SCT250 12/01 A3035 RMK AO2 SLP281 T01170011 $=
202111202152 METAR KATL 202152Z 10008KT 10SM SCT250 13/01 A3034 RMK AO2 SLP277 T01330011 $=
202111202052 METAR KATL 202052Z 11008KT 10SM SCT250 14/02 A3033 RMK AO2 SLP275 T01440017 56023 $=
202111201952 METAR KATL 201952Z 09008KT 10SM FEW250 14/02 A3034 RMK AO2 SLP276 T01440022 $=
202111201852 METAR KATL 201852Z 06008KT 10SM SCT250 13/01 A3037 RMK AO2 SLP285 T01330011 $=
202111201752 METAR KATL 201752Z 10009G14KT 10SM FEW200 FEW250 12/01 A3040 RMK AO2 SLP298 T01220006 10128 20028 58021 $=
202111201652 METAR KATL 201652Z 09014KT 10SM FEW150 FEW250 11/M02 A3044 RMK AO2 SLP310 T01061017 $=
202111201552 METAR KATL 201552Z 10014G20KT 10SM FEW250 09/M03 A3046 RMK AO2 SLP319 T00941033 $=
202111201452 METAR KATL 201452Z 08015KT 10SM FEW250 08/M04 A3047 RMK AO2 SLP321 T00781039 51014 $=
202111201352 METAR KATL 201352Z 09018G23KT 10SM FEW200 FEW250 06/M04 A3046 RMK AO2 SLP320 T00561039 $=
202111201252 METAR KATL 201252Z 08012KT 10SM FEW200 FEW250 03/M04 A3044 RMK AO2 SLP313 T00331039 $=
202111201152 METAR KATL 201152Z 08012KT 10SM FEW250 03/M04 A3043 RMK AO2 SLP307 T00281039 10078 20028 53009 $=
202111201052 METAR KATL 201052Z 08011KT 10SM FEW250 03/M03 A3041 RMK AO2 SLP300 T00331033=
202111200952 METAR KATL 200952Z 08011KT 10SM CLR 04/M03 A3040 RMK AO2 SLP298 T00391033=
202111200852 METAR KATL 200852Z 09010KT 10SM CLR 04/M03 A3040 RMK AO2 SLP295 T00391028 58001=
202111200752 METAR KATL 200752Z 09011KT 10SM CLR 06/M04 A3040 RMK AO2 SLP296 T00611044=
202111200652 METAR KATL 200652Z 10009KT 10SM CLR 07/M04 A3040 RMK AO2 SLP296 T00721039=
202111200552 METAR KATL 200552Z 10006KT 10SM FEW250 08/M03 A3040 RMK AO2 SLP296 T00781028 10133 20067 51007=
202111200452 METAR KATL 200452Z 11010KT 10SM FEW250 09/M03 A3039 RMK AO2 SLP293 T00891028 401720028=
202111200352 METAR KATL 200352Z 09008KT 10SM CLR 07/M01 A3039 RMK AO2 SLP294 T00721011=
202111200252 METAR KATL 200252Z 09005KT 10SM CLR 09/M02 A3038 RMK AO2 SLP290 T00891017 53014=
202111200152 METAR KATL 200152Z 09007KT 10SM CLR 10/M02 A3036 RMK AO2 SLP286 T01001017=
202111200052 METAR KATL 200052Z VRB05KT 10SM CLR 13/M04 A3035 RMK AO2 SLP281 T01331044=
202111192352 METAR KATL 192352Z 01007KT 10SM CLR 13/M05 A3034 RMK AO2 SLP276 T01281050 10172 20122 53008=
202111192252 METAR KATL 192252Z 34006KT 10SM FEW250 13/M06 A3032 RMK AO2 SLP271 T01331056=
202111192152 METAR KATL 192152Z 35007KT 10SM FEW250 16/M07 A3032 RMK AO2 SLP268 T01611067=
202111192052 METAR KATL 192052Z 04006KT 10SM FEW250 17/M07 A3031 RMK AO2 SLP266 T01671067 55010=
202111191952 METAR KATL 191952Z 02006KT 10SM CLR 17/M07 A3031 RMK AO2 SLP266 T01671072=
202111191852 METAR KATL 191852Z 34006KT 10SM FEW250 16/M07 A3033 RMK AO2 SLP271 T01611067=
202111191752 METAR KATL 191752Z 32008KT 10SM FEW250 15/M06 A3034 RMK AO2 SLP277 T01501056 10150 20028 58011=
202111191652 METAR KATL 191652Z 35006KT 10SM FEW250 14/M06 A3037 RMK AO2 SLP287 T01391061=
202111191552 METAR KATL 191552Z 34006KT 10SM FEW250 12/M06 A3039 RMK AO2 SLP293 T01171061=
202111191452 METAR KATL 191452Z 34010KT 10SM FEW200 FEW250 09/M06 A3038 RMK AO2 SLP290 T00891061 51014=
202111191352 METAR KATL 191352Z 34007KT 10SM FEW200 FEW250 06/M06 A3037 RMK AO2 SLP289 T00561056=
202111191252 METAR KATL 191252Z 33010KT 10SM FEW250 03/M05 A3036 RMK AO2 SLP281 T00331050=
202111191152 METAR KATL 191152Z 33009KT 10SM FEW250 03/M04 A3034 RMK AO2 SLP275 T00331044 10067 20033 51010=
202111191052 METAR KATL 191052Z 33010KT 10SM FEW250 04/M04 A3033 RMK AO2 SLP272 T00391039=
202111190952 METAR KATL 190952Z 33011KT 10SM FEW250 04/M03 A3032 RMK AO2 SLP268 T00391033=
202111190852 METAR KATL 190852Z 33014KT 10SM FEW250 05/M03 A3031 RMK AO2 SLP263 T00501028 53001=
202111190752 METAR KATL 190752Z 33012KT 10SM FEW250 06/M02 A3030 RMK AO2 SLP260 T00561022=
202111190652 METAR KATL 190652Z 32012G19KT 10SM FEW200 06/M01 A3029 RMK AO2 SLP258 T00561011=
202111190552 METAR KATL 190552Z 33010KT 10SM FEW200 07/01 A3031 RMK AO2 SLP261 T00670011 10178 20067 58001=
202111190452 METAR KATL 190452Z 33012KT 10SM FEW100 SCT250 08/02 A3032 RMK AO2 SLP266 T00780017 402390078=
202111190352 METAR KATL 190352Z 32011KT 10SM FEW100 SCT200 BKN250 09/01 A3032 RMK AO2 SLP264 T00890006=
202111190252 METAR KATL 190252Z 33011KT 10SM BKN100 BKN250 11/M01 A3031 RMK AO2 PK WND 32026/0218 SLP263 T01061011 51025=
202111190152 METAR KATL 190152Z 32015KT 10SM FEW015 BKN036 BKN100 12/04 A3030 RMK AO2 PK WND 32027/0119 SLP259 T01220044=
202111190121 SPECI KATL 190121Z 33020G27KT 10SM FEW015 BKN038 BKN100 13/08 A3028 RMK AO2 PK WND 32027/0119 T01330078=
202111190052 METAR KATL 190052Z 33012KT 10SM BKN016 BKN100 15/11 A3027 RMK AO2 SLP250 T01500106=
202111190028 SPECI KATL 190028Z 33011G18KT 10SM SCT018 SCT040 16/12 A3025 RMK AO2 T01560117=
202111182352 METAR KATL 182352Z 33017KT 10SM BKN022 BKN200 18/13 A3023 RMK AO2 SLP236 T01780133 10239 20178 53014=
202111182252 METAR KATL 182252Z 31008KT 10SM FEW035 FEW200 19/13 A3021 RMK AO2 SLP228 T01890133=
202111182152 METAR KATL 182152Z 31010G20KT 10SM FEW036 SCT070 BKN100 BKN200 21/13 A3020 RMK AO2 SLP225 TCU DSNT NE-SE NW MDT CU E-S T02110133=
202111182052 METAR KATL 182052Z 29011KT 10SM BKN047 BKN075 BKN110 BKN200 23/13 A3019 RMK AO2 SLP220 TCU DSNT SE-S MDT CU NE-OHD-SW T02280128 55009=
202111182022 SPECI KATL 182022Z 31011G17KT 10SM BKN045TCU BKN075 BKN110 BKN200 23/12 A3019 RMK AO2 TCU NE-OHD-SW FROPA T02280122=
202111181952 METAR KATL 181952Z 26007KT 10SM FEW045 SCT075 BKN100 BKN200 23/13 A3019 RMK AO2 SLP218 TCU DSNT W ACC ALQDS T02330128=
202111181852 METAR KATL 181852Z 26011KT 10SM FEW038 SCT075 BKN095 BKN200 22/12 A3020 RMK AO2 SLP222 TCU DSNT NW-N ACC ALQDS T02220122=
202111181752 METAR KATL 181752Z 25010KT 10SM FEW032 SCT080 BKN110 BKN200 22/14 A3022 RMK AO2 SLP230 TCU DSNT NW ACC OHD-ALQDS T02220139 10233 20100 58012=
202111181652 METAR KATL 181652Z 24010G19KT 10SM FEW028 BKN080 BKN100 BKN250 23/15 A3024 RMK AO2 SLP238 TCU DSNT NW T02280150 $=
202111181552 METAR KATL 181552Z 22008G17KT 10SM FEW040 SCT075 BKN100 BKN250 21/14 A3026 RMK AO2 SLP244 ACC SW-NW-NE T02110144 $=
202111181452 METAR KATL 181452Z 19006KT 10SM FEW075 FEW090 SCT250 19/13 A3026 RMK AO2 SLP243 ACC W-N T01890128 50006 $=
202111181352 METAR KATL 181352Z 22003KT 10SM FEW065 FEW080 FEW250 15/12 A3026 RMK AO2 SLP244 T01500117=
202111181252 METAR KATL 181252Z 12004KT 10SM FEW085 FEW250 11/09 A3024 RMK AO2 SLP240 T01110089=
202111181152 METAR KATL 181152Z 00000KT 10SM SCT080 11/08 A3024 RMK AO2 SLP237 T01060083 10133 20106 50002=
202111181052 METAR KATL 181052Z 28003KT 10SM FEW075 11/08 A3024 RMK AO2 SLP238 T01110083=
202111180952 METAR KATL 180952Z 00000KT 10SM FEW075 12/09 A3023 RMK AO2 SLP234 T01170089=
202111180852 METAR KATL 180852Z 00000KT 10SM FEW065 12/08 A3023 RMK AO2 SLP233 T01170083 56004=
202111180752 METAR KATL 180752Z 00000KT 10SM FEW060 12/09 A3024 RMK AO2 SLP235 T01220089=
202111180652 METAR KATL 180652Z 00000KT 10SM CLR 13/09 A3024 RMK AO2 SLP235 T01330089=
202111180552 METAR KATL 180552Z 00000KT 10SM CLR 13/09 A3024 RMK AO2 SLP238 T01330089 10178 20128 58004=
202111180452 METAR KATL 180452Z 00000KT 10SM CLR 13/08 A3025 RMK AO2 SLP241 T01280083 402330089=
202111180352 METAR KATL 180352Z 00000KT 10SM CLR 14/08 A3026 RMK AO2 SLP245 T01390083=
202111180252 METAR KATL 180252Z 00000KT 10SM CLR 14/08 A3026 RMK AO2 SLP243 T01440083 53007=
202111180152 METAR KATL 180152Z 15004KT 10SM CLR 16/08 A3024 RMK AO2 SLP239 T01610083=
202111180052 METAR KATL 180052Z 15005KT 10SM CLR 17/08 A3024 RMK AO2 SLP239 T01670078=
202111172352 METAR KATL 172352Z 16004KT 10SM CLR 18/07 A3023 RMK AO2 SLP237 T01780072 10233 20178 53006=
202111172252 METAR KATL 172252Z 17005KT 10SM CLR 19/06 A3022 RMK AO2 SLP232 T01940061=
202111172152 METAR KATL 172152Z 17007KT 10SM FEW020 22/06 A3022 RMK AO2 SLP230 FU FEW020 T02170061=
202111172052 METAR KATL 172052Z 18006G14KT 10SM CLR 22/07 A3022 RMK AO2 SLP229 T02220067 56015=
202111171952 METAR KATL 171952Z 20007KT 10SM CLR 23/07 A3022 RMK AO2 SLP230 T02280067=
202111171852 METAR KATL 171852Z 20006KT 10SM CLR 22/07 A3024 RMK AO2 SLP236 T02220067=
202111171752 METAR KATL 171752Z 21009KT 10SM CLR 21/07 A3026 RMK AO2 SLP245 T02110067 10217 20094 58017=
202111171652 METAR KATL 171652Z 22007KT 10SM CLR 21/07 A3029 RMK AO2 SLP255 T02060067=
202111171552 METAR KATL 171552Z 20007KT 10SM CLR 19/09 A3031 RMK AO2 SLP262 T01890089=
202111171452 METAR KATL 171452Z 22003KT 10SM CLR 17/13 A3031 RMK AO2 SLP262 T01720128 51019=
202111171352 METAR KATL 171352Z 21003KT 10SM CLR 13/10 A3029 RMK AO2 SLP256 T01330100=
202111171252 METAR KATL 171252Z 00000KT 9SM CLR 11/08 A3028 RMK AO2 SLP253 T01060083=
202111171152 METAR KATL 171152Z 00000KT 9SM CLR 10/08 A3025 RMK AO2 SLP244 T01000083 10128 20089 53008 $=
202111171052 METAR KATL 171052Z 00000KT 8SM CLR 10/08 A3023 RMK AO2 SLP236 T01000078 $=
202111170952 METAR KATL 170952Z 00000KT 9SM CLR 11/09 A3023 RMK AO2 SLP235 T01060089 $=
202111170852 METAR KATL 170852Z 00000KT 8SM CLR 11/09 A3023 RMK AO2 SLP233 T01110089 50001 $=
202111170752 METAR KATL 170752Z 14003KT 7SM CLR 11/09 A3023 RMK AO2 SLP234 T01110094 $=
202111170652 METAR KATL 170652Z 00000KT 8SM CLR 12/10 A3023 RMK AO2 SLP233 T01170100 $=
202111170552 METAR KATL 170552Z 00000KT 9SM CLR 12/10 A3023 RMK AO2 SLP232 T01220100 10172 20122 52005 $=
202111170452 METAR KATL 170452Z 22003KT 10SM CLR 13/10 A3022 RMK AO2 SLP231 T01280100 402280072 $=
202111170352 METAR KATL 170352Z 23003KT 10SM CLR 13/11 A3021 RMK AO2 SLP228 T01330106 $=
202111170252 METAR KATL 170252Z 21005KT 10SM CLR 14/11 A3021 RMK AO2 SLP227 T01440111 51006 $=
202111170152 METAR KATL 170152Z 22004KT 10SM CLR 15/11 A3020 RMK AO2 SLP227 T01500111 $=
202111170052 METAR KATL 170052Z 23004KT 10SM CLR 16/11 A3020 RMK AO2 SLP226 T01610111 $=
202111162352 METAR KATL 162352Z 22003KT 10SM CLR 17/11 A3019 RMK AO2 SLP223 T01670111 10228 20167 53007 $=
202111162252 METAR KATL 162252Z 20004KT 10SM FEW045 18/12 A3018 RMK AO2 SLP218 T01830117 $=
202111162152 METAR KATL 162152Z 21009KT 10SM FEW044 21/11 A3017 RMK AO2 SLP216 T02110111 $=
202111162052 METAR KATL 162052Z 22007KT 10SM SCT044 21/11 A3017 RMK AO2 SLP214 T02110111 55011 $=
202111161952 METAR KATL 161952Z 19009KT 10SM SCT037 BKN048 22/12 A3017 RMK AO2 SLP213 T02170117 $=
202111161852 METAR KATL 161852Z 17006KT 10SM SCT040 SCT050 22/12 A3018 RMK AO2 SLP217 T02170122 $=
202111161752 METAR KATL 161752Z 28008KT 10SM FEW030 SCT050 21/12 A3020 RMK AO2 SLP225 T02110122 10211 20083 58015 $=
202111161652 METAR KATL 161652Z 27009G17KT 10SM FEW028 SCT046 19/12 A3024 RMK AO2 SLP238 MDT CU NE SE-SW T01940117 $=
202111161552 METAR KATL 161552Z 28011KT 10SM FEW023 BKN040 18/11 A3025 RMK AO2 SLP244 MDT CU W-N-NE T01830106 $=
202111161452 METAR KATL 161452Z 25008KT 10SM FEW020 17/08 A3025 RMK AO2 SLP242 T01720083 53011 $=
202111161352 METAR KATL 161352Z 24003KT 10SM CLR 13/06 A3023 RMK AO2 SLP238 T01280056=
202111161252 METAR KATL 161252Z 21004KT 10SM FEW041 09/04 A3022 RMK AO2 SLP236 T00890039 $=
202111161152 METAR KATL 161152Z 00000KT 10SM SCT041 SCT250 09/04 A3021 RMK AO2 SLP232 T00890039 10089 20072 51010 $=
202111161052 METAR KATL 161052Z 26003KT 10SM BKN036 BKN250 08/04 A3021 RMK AO2 SLP232 T00830039 $=
202111160952 METAR KATL 160952Z 00000KT 10SM CLR 08/03 A3020 RMK AO2 SLP228 T00780028 $=
202111160852 METAR KATL 160852Z 00000KT 10SM CLR 08/03 A3018 RMK AO2 SLP220 T00780028 53001 $=
202111160752 METAR KATL 160752Z 00000KT 10SM CLR 08/03 A3017 RMK AO2 SLP218 T00830028 $=
202111160652 METAR KATL 160652Z 26004KT 10SM CLR 08/02 A3017 RMK AO2 SLP217 T00830022 $=
202111160552 METAR KATL 160552Z 22003KT 10SM CLR 08/02 A3018 RMK AO2 SLP220 T00830022 10117 20083 58007 $=
202111160452 METAR KATL 160452Z 22005KT 10SM CLR 08/02 A3019 RMK AO2 SLP223 T00830022 401670050 $=
202111160352 METAR KATL 160352Z 24003KT 10SM CLR 09/02 A3019 RMK AO2 SLP225 T00940017 $=
202111160252 METAR KATL 160252Z 24005KT 10SM CLR 11/01 A3020 RMK AO2 SLP227 T01060011 53005 $=
202111160152 METAR KATL 160152Z 23005KT 10SM CLR 11/01 A3019 RMK AO2 SLP225 T01060006 $=
202111160052 METAR KATL 160052Z 22003KT 10SM FEW200 10/02 A3018 RMK AO2 SLP222 T01000022 $=
202111152352 METAR KATL 152352Z 00000KT 10SM FEW200 12/01 A3018 RMK AO2 SLP224 T01170006 10167 20111 50002 $=
202111152252 METAR KATL 152252Z 26003KT 10SM FEW200 14/00 A3019 RMK AO2 SLP224 T01390000 $=
202111152152 METAR KATL 152152Z 27009KT 10SM FEW200 FEW250 16/M01 A3019 RMK AO2 SLP224 T01611011 $=
202111152052 METAR KATL 152052Z 28007KT 10SM FEW200 FEW250 17/M02 A3018 RMK AO2 SLP220 T01671022 55013 $=
202111151952 METAR KATL 151952Z 32008KT 10SM FEW200 FEW250 16/M03 A3017 RMK AO2 SLP217 T01611033 $=
202111151852 METAR KATL 151852Z 32006KT 10SM FEW200 SCT250 16/M02 A3020 RMK AO2 SLP226 T01561017 $=
202111151752 METAR KATL 151752Z 34008KT 10SM FEW200 SCT250 14/M01 A3022 RMK AO2 SLP233 T01441011 10144 20056 58006 $=
202111151652 METAR KATL 151652Z 29007KT 10SM FEW200 SCT250 13/M01 A3025 RMK AO2 SLP244 T01281006=
202111151552 METAR KATL 151552Z 33008KT 10SM FEW200 SCT250 12/00 A3025 RMK AO2 SLP243 T01170000=
202111151452 METAR KATL 151452Z 32010KT 10SM FEW200 SCT250 10/01 A3023 RMK AO2 SLP240 T01000011 51027=
202111151352 METAR KATL 151352Z 33009KT 10SM FEW200 FEW250 08/02 A3020 RMK AO2 SLP230 T00830017=
202111151252 METAR KATL 151252Z 30009KT 10SM FEW200 FEW250 07/01 A3019 RMK AO2 SLP225 T00670011=
202111151152 METAR KATL 151152Z 30007KT 10SM FEW200 FEW250 06/01 A3015 RMK AO2 SLP214 T00560006 10083 20050 53014=
202111151052 METAR KATL 151052Z 31007KT 10SM FEW250 06/01 A3013 RMK AO2 SLP206 T00560011 $=
202111150952 METAR KATL 150952Z 30008KT 10SM FEW250 06/02 A3012 RMK AO2 SLP199 T00610017 $=
202111150852 METAR KATL 150852Z 29007KT 10SM FEW250 06/02 A3011 RMK AO2 SLP198 T00610017 53005 $=
202111150752 METAR KATL 150752Z 28007KT 10SM FEW250 07/02 A3010 RMK AO2 SLP195 T00670017 $=
202111150652 METAR KATL 150652Z 29009KT 10SM FEW250 08/02 A3010 RMK AO2 SLP194 T00780022 $=
202111150552 METAR KATL 150552Z 28009KT 10SM SCT250 08/02 A3010 RMK AO2 SLP192 T00780017 10117 20078 51008 $=
202111150452 METAR KATL 150452Z 28009KT 10SM FEW250 09/01 A3009 RMK AO2 SLP190 T00890011 401560017 $=
202111150352 METAR KATL 150352Z 27009KT 10SM FEW250 09/01 A3008 RMK AO2 SLP188 T00890011 $=
202111150252 METAR KATL 150252Z 27007KT 10SM FEW250 09/01 A3007 RMK AO2 SLP184 T00940006 53015 $=
202111150152 METAR KATL 150152Z 27008KT 10SM SCT250 11/00 A3005 RMK AO2 SLP181 T01060000 $=
202111150052 METAR KATL 150052Z 26006KT 10SM FEW250 11/M01 A3004 RMK AO2 SLP175 T01061006 $=
202111142352 METAR KATL 142352Z 27009KT 10SM FEW250 12/M01 A3002 RMK AO2 SLP171 T01171011 10156 20117 53010 $=
202111142252 METAR KATL 142252Z 23006KT 10SM FEW250 13/M01 A2998 RMK AO2 SLP156 T01281011 $=
202111142152 METAR KATL 142152Z 26008KT 10SM FEW250 15/M02 A2998 RMK AO2 SLP156 T01501022 $=
202111142052 METAR KATL 142052Z 30008KT 10SM FEW250 16/M02 A2999 RMK AO2 SLP158 T01561022 56021 $=
202111141952 METAR KATL 141952Z 26008KT 10SM FEW250 15/M01 A3000 RMK AO2 SLP161 T01501011 $=
202111141852 METAR KATL 141852Z 26007KT 230V290 10SM FEW250 14/M02 A3002 RMK AO2 SLP166 T01441017=
202111141752 METAR KATL 141752Z 29010KT 10SM CLR 13/M02 A3006 RMK AO2 SLP181 T01281017 10128 20017 58015=
202111141652 METAR KATL 141652Z 31006KT 10SM CLR 11/M01 A3007 RMK AO2 SLP188 T01111011=
202111141552 METAR KATL 141552Z 32010KT 10SM FEW050 10/M02 A3010 RMK AO2 SLP198 T01001017=
202111141452 METAR KATL 141452Z 32012G19KT 10SM CLR 09/M01 A3010 RMK AO2 SLP198 T00891011 53005=
202111141352 METAR KATL 141352Z 33007KT 310V010 10SM CLR 05/M01 A3008 RMK AO2 SLP190 T00501011=
202111141252 METAR KATL 141252Z 31007KT 10SM CLR 02/M02 A3009 RMK AO2 SLP194 T00221017=
202111141152 METAR KATL 141152Z 31006KT 10SM CLR 02/M02 A3009 RMK AO2 SLP194 T00171017 10039 20017 53013=
202111141052 METAR KATL 141052Z 32006KT 10SM CLR 02/M02 A3005 RMK AO2 SLP181 T00221017=
202111140952 METAR KATL 140952Z 33006KT 10SM CLR 02/M02 A3005 RMK AO2 SLP181 T00221017=
202111140852 METAR KATL 140852Z 32011KT 10SM CLR 03/M02 A3005 RMK AO2 SLP179 T00281017 56012=
202111140752 METAR KATL 140752Z 32007KT 10SM CLR 03/M01 A3006 RMK AO2 SLP183 T00281011=
202111140652 METAR KATL 140652Z 33007KT 10SM CLR 04/M01 A3006 RMK AO2 SLP183 T00391011=
202111140552 METAR KATL 140552Z 32007KT 10SM CLR 04/M01 A3008 RMK AO2 SLP190 T00391011 10083 20033 52001=
202111140452 METAR KATL 140452Z 30006KT 10SM CLR 04/M01 A3009 RMK AO2 SLP192 T00391006 401330033=
202111140352 METAR KATL 140352Z 29006KT 10SM CLR 04/M01 A3008 RMK AO2 SLP188 T00441011=
202111140252 METAR KATL 140252Z 28006KT 10SM CLR 05/M01 A3008 RMK AO2 SLP191 T00501006 53009=
202111140152 METAR KATL 140152Z 29006KT 10SM CLR 06/M01 A3007 RMK AO2 SLP185 T00561006=
202111140052 METAR KATL 140052Z 29006KT 10SM CLR 07/M01 A3007 RMK AO2 SLP185 T00721006=
202111132352 METAR KATL 132352Z 30010KT 10SM CLR 08/00 A3006 RMK AO2 SLP180 T00830000 10133 20083 51018=
202111132252 METAR KATL 132252Z 32010KT 10SM CLR 10/00 A3004 RMK AO2 SLP176 T01000000=
202111132152 METAR KATL 132152Z 31013KT 10SM CLR 11/M01 A3002 RMK AO2 SLP168 T01111006=
202111132052 METAR KATL 132052Z 31012KT 10SM CLR 12/00 A3000 RMK AO2 SLP160 T01220000 55003=
202111131952 METAR KATL 131952Z 33011G17KT 10SM CLR 13/01 A2999 RMK AO2 PK WND 32027/1904 SLP157 T01330006=
202111131852 METAR KATL 131852Z 29011KT 10SM CLR 13/01 A3000 RMK AO2 SLP160 T01280011=
202111131752 METAR KATL 131752Z 29011KT 10SM CLR 12/01 A3001 RMK AO2 SLP163 T01220006 10128 20078 58009=
202111131652 METAR KATL 131652Z 32010G20KT 10SM FEW034 13/02 A3004 RMK AO2 SLP172 T01280017=
202111131552 METAR KATL 131552Z 34015G19KT 10SM FEW027 12/01 A3004 RMK AO2 SLP174 T01170011=
202111131452 METAR KATL 131452Z 32012KT 10SM FEW023 11/04 A3004 RMK AO2 SLP172 T01060044 51014=
202111131352 METAR KATL 131352Z 32008KT 10SM FEW015 09/05 A3002 RMK AO2 SLP167 T00940050=
202111131252 METAR KATL 131252Z 31007KT 10SM CLR 08/05 A3001 RMK AO2 SLP163 T00780050=
202111131152 METAR KATL 131152Z 32009KT 10SM CLR 08/05 A2999 RMK AO2 SLP157 T00780050 10100 20078 53010=
202111131052 METAR KATL 131052Z 31005KT 10SM CLR 08/05 A2998 RMK AO2 SLP150 T00780050=
202111130952 METAR KATL 130952Z 30010KT 10SM CLR 09/06 A2997 RMK AO2 SLP149 T00890056=
202111130852 METAR KATL 130852Z 29009KT 10SM CLR 09/07 A2996 RMK AO2 SLP144 T00890067 55007=
202111130752 METAR KATL 130752Z 24004KT 10SM FEW140 10/06 A2995 RMK AO2 SLP141 T01000061=
202111130652 METAR KATL 130652Z 23005KT 10SM FEW140 09/06 A2997 RMK AO2 SLP145 T00940061=
202111130552 METAR KATL 130552Z 23005KT 10SM SCT140 10/07 A2998 RMK AO2 SLP151 T01000067 10139 20100 58017=
202111130452 METAR KATL 130452Z 25005KT 10SM FEW150 11/06 A3001 RMK AO2 SLP160 T01110061 402000089=
202111130352 METAR KATL 130352Z 23005KT 10SM FEW200 11/06 A3003 RMK AO2 SLP166 T01060056=
202111130252 METAR KATL 130252Z 23005KT 10SM FEW200 12/06 A3003 RMK AO2 SLP170 T01170056 56002=
202111130152 METAR KATL 130152Z 24005KT 10SM CLR 13/05 A3004 RMK AO2 SLP171 T01280050=
202111130052 METAR KATL 130052Z 22003KT 10SM CLR 13/04 A3003 RMK AO2 SLP171 T01330044=
202111122352 METAR KATL 122352Z 22003KT 10SM FEW150 14/06 A3004 RMK AO2 SLP173 T01390056 10200 20139 53004=
202111122252 METAR KATL 122252Z 24003KT 10SM FEW150 FEW250 16/04 A3003 RMK AO2 SLP168 T01610039=
202111122152 METAR KATL 122152Z 25005KT 10SM FEW150 FEW250 19/03 A3003 RMK AO2 SLP165 T01890028=
202111122052 METAR KATL 122052Z VRB03KT 10SM FEW200 20/03 A3003 RMK AO2 SLP166 T02000033 56017=
202111121952 METAR KATL 121952Z 31006KT 10SM CLR 20/03 A3004 RMK AO2 SLP168 T02000028=
202111121852 METAR KATL 121852Z 28008KT 10SM FEW002 19/02 A3005 RMK AO2 SLP171 FU FEW002 T01940022=
202111121849 SPECI KATL 121849Z VRB06KT 10SM FEW002 19/02 A3005 RMK AO2 FU FEW002=
202111121752 METAR KATL 121752Z 26005KT 10SM CLR 19/04 A3008 RMK AO2 SLP183 T01890039 10189 20089 58019=
202111121652 METAR KATL 121652Z 00000KT 10SM CLR 17/04 A3012 RMK AO2 SLP196 T01720039=
202111121552 METAR KATL 121552Z 33007KT 10SM FEW250 16/08 A3014 RMK AO2 SLP205 T01560083=
202111121452 METAR KATL 121452Z 31007KT 10SM FEW250 14/09 A3014 RMK AO2 SLP204 T01390089 53008=
202111121352 METAR KATL 121352Z 31006KT 10SM FEW250 12/09 A3013 RMK AO2 SLP201 T01220089=
202111121252 METAR KATL 121252Z 00000KT 10SM FEW250 10/08 A3009 RMK AO2 SLP188 T01000083=
202111121152 METAR KATL 121152Z 30005KT 10SM FEW250 09/08 A3011 RMK AO2 SLP195 70070 T00890078 10139 20089 50010=
202111121052 METAR KATL 121052Z 30007KT 10SM FEW250 10/09 A3011 RMK AO2 SLP194 T01000089 $=
202111120952 METAR KATL 120952Z 31008KT 10SM FEW250 11/09 A3010 RMK AO2 SLP188 T01060089 $=
202111120852 METAR KATL 120852Z 30007KT 10SM FEW007 FEW250 11/10 A3008 RMK AO2 SLP183 T01110100 53014 $=
202111120752 METAR KATL 120752Z 31007KT 10SM SCT007 SCT250 12/11 A3006 RMK AO2 SLP175 T01170106 $=
202111120652 METAR KATL 120652Z 29007KT 10SM FEW025 SCT250 13/11 A3004 RMK AO2 SLP170 T01280111 $=
202111120552 METAR KATL 120552Z 30011KT 10SM FEW009 FEW025 SCT150 SCT250 14/12 A3004 RMK AO2 SLP168 60070 T01390117 10206 20139 53007 $=
202111120452 METAR KATL 120452Z 30010KT 10SM FEW007 BKN150 BKN250 15/13 A3003 RMK AO2 SLP166 T01500133 402330122 $=
202111120352 METAR KATL 120352Z 29005KT 10SM FEW007 SCT014 BKN110 BKN200 16/14 A3002 RMK AO2 RAE04 SLP163 SCT014 V BKN P0001 T01560144 $=
202111120252 METAR KATL 120252Z 24005KT 8SM -RA SCT007 BKN050 OVC110 16/15 A3002 RMK AO2 SLP161 SCT007 V BKN P0012 60069 T01610150 51024 $=
202111120152 METAR KATL 120152Z 26004KT 6SM -RA BR SCT006 BKN045 OVC100 16/15 A3001 RMK AO2 WSHFT 0040 SLP158 SCT006 V BKN P0053 T01610150 $=
202111120133 SPECI KATL 120133Z 29009KT 3SM RA BR SCT006 BKN030CB OVC070 16/15 A3000 RMK AO2 WSHFT 0040 CB NE-SE MOV NE P0048 T01610150 $=
202111120059 SPECI KATL 120059Z 29010G23KT 1 1/2SM +RA BR FEW015 BKN025CB OVC060 17/15 A2999 RMK AO2 WSHFT 0040 CB NE-OHD-SW MOV NE P0005 T01670150 $=
202111120052 METAR KATL 120052Z 30016KT 2 1/2SM +RA BR SCT015 BKN028CB OVC060 17/15 A2997 RMK AO2 SLP147 CB NE-OHD-SW MOV NE P0004 T01720150 $=
202111112352 METAR KATL 112352Z 20007KT 10SM -RA FEW040 BKN055 BKN100 OVC200 21/14 A2994 RMK AO2 RAB43 SLP137 CB DSNT SW-NW-N P0000 60000 T02060139 10233 20200 53001 $=
202111112252 METAR KATL 112252Z 18009KT 10SM FEW040 SCT060 BKN100 BKN200 22/14 A2994 RMK AO2 SLP134 CB DSNT SW-NW T02170139 $=
202111112152 METAR KATL 112152Z 17009KT 10SM FEW042 SCT065 BKN100 BKN200 22/13 A2993 RMK AO2 SLP131 CB DSNT W-NW TCU DSNT NE E T02220133 $=
202111112052 METAR KATL 112052Z 19012G18KT 10SM SCT040 BKN065 BKN200 BKN250 22/13 A2994 RMK AO2 SLP135 TCU DSNT SE MDT CU OHD-ALQDS T02220133 56026 $=
202111111952 METAR KATL 111952Z 18010KT 10SM FEW034 SCT080 SCT200 BKN250 23/14 A2995 RMK AO2 SLP137 MDT CU SW-NW T02280139 $=
202111111852 METAR KATL 111852Z 17010KT 10SM FEW026 SCT034 SCT075 BKN200 22/14 A2998 RMK AO2 SLP147 TCU DSNT SE MDT CU N T02170144 $=
202111111812 SPECI KATL 111812Z 20008G17KT 10SM SCT024 BKN032 BKN070 BKN200 22/15 A3001 RMK AO2 MDT CU ALQDS T02170150 $=
202111111752 METAR KATL 111752Z 18011G16KT 10SM SCT018 BKN026 BKN070 BKN200 20/14 A3002 RMK AO2 SLP162 TCU DSNT NE E MDT CU OHD-ALQDS T02000144 10211 20122 58024 $=
202111111742 SPECI KATL 111742Z 18008G17KT 10SM FEW016 SCT026 BKN065 BKN200 20/14 A3003 RMK AO2 T02000144 $=
202111111707 SPECI KATL 111707Z 18012G18KT 10SM SCT015 BKN024 BKN070 OVC200 20/15 A3005 RMK AO2 T02000150 $=
202111111652 METAR KATL 111652Z 18010KT 10SM BKN014 BKN024 OVC070 18/15 A3006 RMK AO2 SLP177 BINOVC T01830150 $=
202111111552 METAR KATL 111552Z 19008G15KT 10SM OVC013 18/14 A3009 RMK AO2 SLP186 BINOVC T01780144 $=
202111111508 SPECI KATL 111508Z 18010G17KT 10SM BKN011 BKN020 OVC080 17/13 A3010 RMK AO2 BINOVC T01720133 $=
202111111452 METAR KATL 111452Z 18007G17KT 10SM SCT010 BKN022 BKN080 BKN200 17/13 A3010 RMK AO2 SLP188 T01720133 53002 $=
202111111449 SPECI KATL 111449Z 17010G17KT 10SM SCT010 BKN022 BKN080 BKN200 17/13 A3010 RMK AO2 $=
202111111418 SPECI KATL 111418Z 18009G16KT 10SM BKN011 BKN018 BKN080 BKN200 16/13 A3010 RMK AO2 T01610128 $=
202111111352 METAR KATL 111352Z 14005KT 10SM FEW020 SCT070 SCT200 BKN250 16/12 A3009 RMK AO2 SLP189 T01560122 $=
202111111252 METAR KATL 111252Z 13005KT 10SM FEW050 BKN075 BKN250 13/11 A3009 RMK AO2 SLP187 T01330106 $=
202111111152 METAR KATL 111152Z 00000KT 10SM SCT050 BKN070 BKN210 BKN250 13/10 A3009 RMK AO2 SLP187 T01280100 10139 20122 55000 $=
202111111052 METAR KATL 111052Z 13004KT 10SM BKN035 BKN040 BKN060 13/09 A3007 RMK AO2 SLP180 T01280094=
202111110952 METAR KATL 110952Z 14004KT 10SM FEW050 SCT060 BKN210 BKN250 13/08 A3008 RMK AO2 SLP182 T01280083=
202111110852 METAR KATL 110852Z 15007KT 10SM BKN060 BKN220 BKN250 13/09 A3009 RMK AO2 SLP184 T01330089 58009=
202111110752 METAR KATL 110752Z 13004KT 10SM SCT050 BKN060 BKN210 BKN250 13/08 A3011 RMK AO2 SLP190 T01280078=
202111110652 METAR KATL 110652Z 15004KT 10SM SCT050 BKN220 BKN250 13/08 A3011 RMK AO2 SLP191 T01330078=
202111110552 METAR KATL 110552Z 17004KT 10SM BKN200 BKN250 14/07 A3012 RMK AO2 SLP194 T01390072 10178 20139 57004=
202111110452 METAR KATL 110452Z 17005KT 10SM BKN200 BKN250 14/07 A3012 RMK AO2 SLP196 T01440072 402440100=
202111110352 METAR KATL 110352Z 14003KT 10SM FEW200 BKN250 14/08 A3012 RMK AO2 SLP197 T01390078=
202111110252 METAR KATL 110252Z 14004KT 10SM FEW200 BKN250 14/08 A3013 RMK AO2 SLP200 T01440083 51006=
202111110152 METAR KATL 110152Z 13003KT 10SM SCT250 15/08 A3012 RMK AO2 SLP199 T01500083=
202111110052 METAR KATL 110052Z 15004KT 10SM SCT250 17/08 A3012 RMK AO2 SLP198 T01670078=
202111102352 METAR KATL 102352Z 00000KT 10SM SCT250 18/07 A3011 RMK AO2 SLP195 T01780072 10244 20178 53003=
202111102252 METAR KATL 102252Z 15004KT 10SM SCT250 20/07 A3010 RMK AO2 SLP192 T02000067=
202111102152 METAR KATL 102152Z 17005KT 10SM FEW250 23/06 A3010 RMK AO2 SLP191 T02280056=
202111102052 METAR KATL 102052Z 18004KT 10SM FEW250 24/06 A3010 RMK AO2 SLP190 T02390056 56014=
202111101952 METAR KATL 101952Z 23006KT 10SM CLR 24/05 A3011 RMK AO2 SLP191 T02390050=
202111101852 METAR KATL 101852Z 24005KT 10SM FEW150 24/05 A3012 RMK AO2 SLP196 T02390050=
202111101752 METAR KATL 101752Z 22006KT 10SM FEW150 23/07 A3015 RMK AO2 SLP205 T02280072 10239 20100 58021=
202111101652 METAR KATL 101652Z VRB05KT 10SM FEW150 FEW200 22/07 A3018 RMK AO2 SLP216 T02220072=
202111101552 METAR KATL 101552Z 00000KT 10SM FEW150 FEW200 20/08 A3020 RMK AO2 SLP223 T02000078 $=
202111101452 METAR KATL 101452Z VRB03KT 10SM FEW200 FEW250 18/08 A3021 RMK AO2 SLP227 T01830083 50008=
202111101352 METAR KATL 101352Z 29004KT 10SM FEW150 SCT200 SCT250 13/08 A3022 RMK AO2 SLP230 T01280083=
202111101252 METAR KATL 101252Z 30007KT 10SM FEW150 BKN200 BKN250 12/08 A3020 RMK AO2 SLP226 T01170078=
202111101152 METAR KATL 101152Z 28003KT 10SM FEW200 SCT250 11/07 A3019 RMK AO2 SLP220 T01060072 10128 20100 53003=
202111101052 METAR KATL 101052Z 00000KT 10SM SCT200 BKN250 10/07 A3018 RMK AO2 SLP218 T01000067=
202111100952 METAR KATL 100952Z 00000KT 10SM SCT200 BKN250 10/07 A3017 RMK AO2 SLP215 T01000067=
202111100852 METAR KATL 100852Z 29003KT 10SM SCT200 BKN250 11/07 A3018 RMK AO2 SLP215 T01110072 56007=
202111100752 METAR KATL 100752Z 00000KT 10SM BKN200 BKN250 12/08 A3018 RMK AO2 SLP214 T01220078=
202111100652 METAR KATL 100652Z 00000KT 10SM FEW200 BKN250 12/07 A3019 RMK AO2 SLP217 T01220072=
202111100552 METAR KATL 100552Z 30003KT 10SM FEW200 BKN250 12/07 A3020 RMK AO2 SLP222 T01220072 10178 20122 58002=
202111100452 METAR KATL 100452Z 00000KT 10SM FEW200 BKN250 13/08 A3021 RMK AO2 SLP225 T01330078 402560072=
202111100352 METAR KATL 100352Z 00000KT 10SM SCT200 BKN250 13/08 A3021 RMK AO2 SLP225 T01330078=
202111100252 METAR KATL 100252Z 28003KT 10SM BKN200 BKN250 16/07 A3021 RMK AO2 SLP226 T01610072 50000=
202111100152 METAR KATL 100152Z 22003KT 10SM BKN200 BKN250 16/07 A3021 RMK AO2 SLP227 T01610072=
202111100052 METAR KATL 100052Z 24003KT 10SM FEW150 BKN200 BKN250 17/08 A3021 RMK AO2 SLP229 T01670078=
202111092352 METAR KATL 092352Z 22003KT 10SM FEW150 BKN200 BKN250 18/07 A3021 RMK AO2 SLP229 T01780072 10256 20172 55001=
202111092252 METAR KATL 092252Z 22003KT 10SM FEW150 BKN200 BKN250 19/07 A3020 RMK AO2 SLP226 T01940067=
202111092152 METAR KATL 092152Z 00000KT 10SM FEW150 BKN200 BKN250 23/05 A3020 RMK AO2 SLP225 T02330050=
202111092052 METAR KATL 092052Z 21006KT 10SM FEW150 SCT200 BKN250 24/04 A3021 RMK AO2 SLP227 T02440039 56018=
202111091952 METAR KATL 091952Z 18005KT 10SM FEW150 SCT200 SCT250 25/03 A3022 RMK AO2 SLP232 T02500028=
202111091852 METAR KATL 091852Z 00000KT 10SM FEW200 SCT250 24/03 A3024 RMK AO2 SLP238 T02440033=
202111091752 METAR KATL 091752Z 00000KT 10SM FEW200 FEW250 23/03 A3026 RMK AO2 SLP244 T02330028 10239 20078 58021=
202111091652 METAR KATL 091652Z 00000KT 10SM FEW250 22/06 A3030 RMK AO2 SLP256 T02220056=
202111091552 METAR KATL 091552Z 00000KT 10SM FEW250 21/04 A3032 RMK AO2 SLP264 T02060044=
202111091452 METAR KATL 091452Z 31003KT 10SM FEW250 17/06 A3033 RMK AO2 SLP268 T01670061 51010=
202111091352 METAR KATL 091352Z 30004KT 10SM FEW005 14/06 A3033 RMK AO2 SLP268 FU FEW005 T01390061=
202111091252 METAR KATL 091252Z 31003KT 10SM CLR 09/06 A3031 RMK AO2 SLP264 T00940056=
202111091152 METAR KATL 091152Z 00000KT 10SM CLR 08/05 A3030 RMK AO2 SLP258 T00780050 10111 20072 50005=
202111091052 METAR KATL 091052Z 30004KT 10SM CLR 08/05 A3030 RMK AO2 SLP258 T00780050=
202111090952 METAR KATL 090952Z 00000KT 10SM CLR 08/05 A3029 RMK AO2 SLP254 T00830050=
202111090852 METAR KATL 090852Z 00000KT 10SM CLR 09/05 A3028 RMK AO2 SLP251 T00890050 51002=
202111090752 METAR KATL 090752Z 00000KT 10SM CLR 08/04 A3028 RMK AO2 SLP251 T00830044=
202111090652 METAR KATL 090652Z 27003KT 10SM CLR 09/05 A3028 RMK AO2 SLP251 T00890050=
202111090552 METAR KATL 090552Z 32003KT 10SM CLR 11/05 A3028 RMK AO2 SLP250 T01110050 10189 20100 58002=
202111090452 METAR KATL 090452Z 30003KT 10SM CLR 12/05 A3028 RMK AO2 SLP251 T01170050 402330056=
202111090352 METAR KATL 090352Z 25003KT 10SM CLR 11/05 A3029 RMK AO2 SLP254 T01110050=
202111090252 METAR KATL 090252Z 00000KT 10SM CLR 12/05 A3028 RMK AO2 SLP253 T01220050 51009=
202111090152 METAR KATL 090152Z 00000KT 10SM CLR 15/03 A3028 RMK AO2 SLP252 T01500028=
202111090052 METAR KATL 090052Z 34005KT 10SM CLR 18/02 A3027 RMK AO2 SLP248 T01830022=
202111082352 METAR KATL 082352Z 31004KT 10SM CLR 18/03 A3025 RMK AO2 SLP245 T01830028 10233 20178 53003=
202111082252 METAR KATL 082252Z 31004KT 10SM CLR 21/02 A3024 RMK AO2 SLP241 T02060017=
202111082152 METAR KATL 082152Z 29005KT 10SM CLR 22/02 A3025 RMK AO2 SLP241 T02220017=
202111082052 METAR KATL 082052Z 26003KT 10SM CLR 23/03 A3025 RMK AO2 SLP240 T02330028 56009=
202111081952 METAR KATL 081952Z 08005KT 10SM CLR 23/01 A3025 RMK AO2 SLP240 T02330011=
202111081852 METAR KATL 081852Z 05006KT 10SM CLR 23/01 A3025 RMK AO2 SLP242 T02280011=
202111081752 METAR KATL 081752Z 09008KT 10SM CLR 22/01 A3027 RMK AO2 SLP250 T02170006 10222 20061 58012=
202111081652 METAR KATL 081652Z 06007KT 10SM CLR 21/M01 A3030 RMK AO2 SLP259 T02061011=
202111081552 METAR KATL 081552Z VRB03KT 10SM CLR 19/M01 A3031 RMK AO2 SLP263 T01941011=
202111081452 METAR KATL 081452Z 00000KT 10SM CLR 16/02 A3031 RMK AO2 SLP263 T01610017 51024=
202111081352 METAR KATL 081352Z 32005KT 10SM CLR 10/02 A3030 RMK AO2 SLP261 T01000022=
202111081252 METAR KATL 081252Z 32003KT 10SM CLR 08/02 A3027 RMK AO2 SLP252 T00780017=
202111081152 METAR KATL 081152Z 31005KT 10SM CLR 06/01 A3024 RMK AO2 SLP241 T00610011 10094 20056 53014=
202111081052 METAR KATL 081052Z 32005KT 10SM CLR 07/01 A3022 RMK AO2 SLP235 T00670006=
202111080952 METAR KATL 080952Z 35003KT 10SM CLR 08/00 A3020 RMK AO2 SLP227 T00830000=
202111080852 METAR KATL 080852Z 33005KT 10SM CLR 08/00 A3020 RMK AO2 SLP224 T00780000 53006=
202111080752 METAR KATL 080752Z 32004KT 10SM CLR 08/00 A3019 RMK AO2 SLP222 T00780000=
202111080652 METAR KATL 080652Z 33005KT 10SM CLR 09/00 A3018 RMK AO2 SLP219 T00890000=
202111080552 METAR KATL 080552Z 33004KT 10SM CLR 08/00 A3018 RMK AO2 SLP218 T00830000 10144 20083 53004=
202111080452 METAR KATL 080452Z 32007KT 10SM CLR 09/00 A3017 RMK AO2 SLP216 T00940000 401940039=
202111080352 METAR KATL 080352Z 32012KT 10SM CLR 11/00 A3017 RMK AO2 SLP216 T01060000=
202111080252 METAR KATL 080252Z 31011KT 10SM CLR 11/00 A3017 RMK AO2 SLP216 T01110000 51000=
202111080152 METAR KATL 080152Z 30008KT 10SM CLR 11/01 A3016 RMK AO2 SLP217 T01110006=
202111080052 METAR KATL 080052Z 30006KT 10SM CLR 12/01 A3017 RMK AO2 SLP218 T01220006=
202111072352 METAR KATL 072352Z 32005KT 10SM CLR 14/M01 A3016 RMK AO2 SLP216 T01441006 10194 20139 53008=
202111072252 METAR KATL 072252Z 32008KT 10SM CLR 16/00 A3015 RMK AO2 SLP212 T01610000=
202111072152 METAR KATL 072152Z 31007KT 10SM CLR 18/M01 A3014 RMK AO2 SLP207 T01781006=
202111072052 METAR KATL 072052Z 32007KT 10SM CLR 19/00 A3014 RMK AO2 SLP205 T01940000 56013=
202111071952 METAR KATL 071952Z 28007KT 250V320 10SM CLR 19/01 A3014 RMK AO2 SLP207 T01940006=
202111071852 METAR KATL 071852Z 30006KT 10SM CLR 19/01 A3016 RMK AO2 SLP212 T01890011=
202111071752 METAR KATL 071752Z 10SM CLR 18/02 A3018 RMK AO2 SLP219 T01780017 10178 20039 58014=
202111071652 METAR KATL 071652Z VRB04KT 10SM CLR 16/03 A3021 RMK AO2 SLP229 T01560028=
202111071552 METAR KATL 071552Z 33004KT 10SM FEW250 14/03 A3022 RMK AO2 SLP234 T01440033=
202111071452 METAR KATL 071452Z 31004KT 10SM FEW250 11/03 A3022 RMK AO2 SLP235 T01060028 53018=
202111071352 METAR KATL 071352Z 30006KT 10SM FEW200 07/02 A3020 RMK AO2 SLP231 T00720022=
202111071252 METAR KATL 071252Z 31003KT 10SM FEW200 05/02 A3017 RMK AO2 SLP220 T00500017=
202111071152 METAR KATL 071152Z 31008KT 10SM FEW200 04/01 A3016 RMK AO2 SLP218 T00390011 10061 20039 53013=
202111071052 METAR KATL 071052Z 32008KT 10SM FEW250 04/01 A3015 RMK AO2 SLP213 T00440011=
202111070952 METAR KATL 070952Z 30006KT 10SM FEW250 04/02 A3013 RMK AO2 SLP204 T00440017=
202111070852 METAR KATL 070852Z 31006KT 10SM FEW250 05/02 A3012 RMK AO2 SLP202 T00500017 55003=
202111070752 METAR KATL 070752Z 31004KT 10SM FEW250 06/02 A3011 RMK AO2 SLP199 T00560022=
202111070652 METAR KATL 070652Z 31005KT 10SM FEW250 06/02 A3012 RMK AO2 SLP201 T00610022=
202111070552 METAR KATL 070552Z 31005KT 10SM FEW250 06/03 A3013 RMK AO2 SLP206 T00610028 10117 20061 54000=
202111070452 METAR KATL 070452Z 01005KT 10SM BKN250 09/02 A3013 RMK AO2 SLP204 T00890022 401500067=
202111070352 METAR KATL 070352Z 33006KT 10SM FEW200 BKN250 08/03 A3013 RMK AO2 SLP206 T00830033=
202111070252 METAR KATL 070252Z 33005KT 10SM FEW200 BKN250 09/03 A3013 RMK AO2 SLP205 T00890033 50001=
202111070152 METAR KATL 070152Z VRB05KT 10SM FEW200 BKN250 11/03 A3014 RMK AO2 SLP207 T01060033=
202111070052 METAR KATL 070052Z 34005KT 10SM FEW200 BKN250 11/03 A3013 RMK AO2 SLP206 T01110033=
202111062352 METAR KATL 062352Z 33006KT 10SM SCT200 BKN250 12/03 A3013 RMK AO2 SLP205 T01170033 10150 20117 53001=
202111062252 METAR KATL 062252Z 33007KT 10SM SCT200 BKN250 13/04 A3013 RMK AO2 SLP204 T01280039=
202111062152 METAR KATL 062152Z 34008KT 10SM FEW200 BKN250 14/04 A3013 RMK AO2 SLP202 T01440044=
202111062052 METAR KATL 062052Z 32007KT 10SM FEW200 BKN250 15/03 A3013 RMK AO2 SLP203 T01500028 56018=
202111061952 METAR KATL 061952Z 33006KT 10SM FEW200 BKN250 14/00 A3014 RMK AO2 SLP206 T01440000=
202111061852 METAR KATL 061852Z 36009KT 10SM FEW200 BKN250 15/M01 A3016 RMK AO2 SLP214 T01501011=
202111061752 METAR KATL 061752Z 01007G16KT 340V060 10SM FEW150 FEW200 BKN250 14/M03 A3018 RMK AO2 SLP221 T01391028 10139 20067 58020=
202111061652 METAR KATL 061652Z 04010KT 10SM FEW150 SCT200 BKN250 12/M03 A3021 RMK AO2 SLP233 T01221028=
202111061552 METAR KATL 061552Z 03013KT 10SM SCT150 SCT200 BKN250 11/M02 A3024 RMK AO2 SLP241 T01061022=
202111061452 METAR KATL 061452Z 04019G25KT 10SM FEW150 BKN200 09/M02 A3024 RMK AO2 SLP244 T00941022 50005=
202111061352 METAR KATL 061352Z 05012KT 10SM FEW150 BKN200 BKN250 08/M02 A3026 RMK AO2 SLP248 T00781017=
202111061252 METAR KATL 061252Z 05012G21KT 10SM FEW150 BKN180 BKN250 07/M02 A3024 RMK AO2 SLP243 T00721017=
202111061152 METAR KATL 061152Z 05012KT 10SM FEW150 BKN180 BKN250 07/M01 A3023 RMK AO2 SLP239 T00671006 10078 20067 53002=
202111061052 METAR KATL 061052Z 05013KT 10SM FEW150 BKN180 BKN250 07/00 A3021 RMK AO2 SLP232 T00670000=
202111060952 METAR KATL 060952Z 05013KT 10SM FEW150 BKN180 BKN250 07/M01 A3021 RMK AO2 SLP233 T00721006=
202111060852 METAR KATL 060852Z 06012KT 10SM FEW150 BKN200 OVC250 07/01 A3022 RMK AO2 SLP235 T00720006 58002=
202111060752 METAR KATL 060752Z 07013KT 10SM BKN180 BKN250 07/01 A3022 RMK AO2 SLP236 T00720011=
202111060652 METAR KATL 060652Z 08012KT 10SM BKN180 BKN250 07/02 A3023 RMK AO2 SLP240 T00720017=
202111060552 METAR KATL 060552Z 07013KT 10SM FEW120 BKN180 OVC250 08/02 A3023 RMK AO2 SLP238 T00780022 10094 20078 58007=
202111060452 METAR KATL 060452Z 06007KT 10SM FEW120 BKN180 OVC250 08/03 A3025 RMK AO2 SLP246 T00780028 401280061=
202111060352 METAR KATL 060352Z 06010KT 10SM BKN180 OVC250 08/03 A3024 RMK AO2 SLP244 T00830028=
202111060252 METAR KATL 060252Z 08009KT 10SM BKN180 OVC250 08/03 A3025 RMK AO2 SLP247 T00830028 53004=
202111060152 METAR KATL 060152Z 07006KT 10SM BKN180 OVC250 09/03 A3023 RMK AO2 SLP240 T00890028=
202111060052 METAR KATL 060052Z 06008KT 10SM BKN180 OVC250 09/02 A3024 RMK AO2 SLP242 T00940022=
202111052352 METAR KATL 052352Z 08008KT 10SM SCT150 BKN200 OVC250 09/02 A3024 RMK AO2 SLP243 T00940022 10128 20094 53000=
202111052252 METAR KATL 052252Z 09008KT 10SM FEW150 BKN200 OVC250 10/02 A3024 RMK AO2 SLP242 T01000017=
202111052152 METAR KATL 052152Z 09010KT 10SM FEW140 BKN180 OVC250 11/02 A3024 RMK AO2 SLP241 T01110017=
202111052052 METAR KATL 052052Z 08011KT 10SM FEW140 BKN180 BKN250 12/02 A3024 RMK AO2 SLP242 T01170022 55012=
202111051952 METAR KATL 051952Z 08012KT 10SM FEW150 BKN200 BKN250 12/02 A3022 RMK AO2 SLP237 T01170022=
202111051852 METAR KATL 051852Z 07013KT 10SM FEW140 BKN200 BKN250 12/02 A3024 RMK AO2 SLP242 T01170017=
202111051752 METAR KATL 051752Z 07015G19KT 10SM FEW120 BKN200 OVC250 11/02 A3027 RMK AO2 SLP253 T01110017 10117 20061 58011=
202111051652 METAR KATL 051652Z 09012KT 10SM FEW110 BKN200 OVC250 11/02 A3030 RMK AO2 SLP262 T01060022=
202111051552 METAR KATL 051552Z 07010G21KT 10SM FEW100 BKN200 OVC250 09/03 A3030 RMK AO2 SLP263 T00940028=
202111051452 METAR KATL 051452Z 07013KT 10SM FEW022 FEW080 OVC200 08/03 A3030 RMK AO2 SLP265 T00780028 53016=
202111051352 METAR KATL 051352Z 08011KT 10SM FEW016 FEW080 BKN200 OVC250 07/04 A3029 RMK AO2 SLP260 T00720039=
202111051252 METAR KATL 051252Z 07008KT 10SM FEW012 FEW080 BKN200 OVC250 07/04 A3027 RMK AO2 SLP254 T00670039=
202111051152 METAR KATL 051152Z 08008KT 10SM FEW012 SCT100 OVC250 06/04 A3026 RMK AO2 SLP250 70006 T00610039 10078 20061 51013=
202111051052 METAR KATL 051052Z 08007KT 10SM FEW012 SCT045 BKN240 06/04 A3024 RMK AO2 SLP246 T00610039=
202111050952 METAR KATL 050952Z 07007KT 10SM FEW012 BKN240 06/04 A3024 RMK AO2 SLP244 T00610039=
202111050950 SPECI KATL 050950Z 07006KT 10SM FEW012 BKN240 06/04 A3024 RMK AO2=
202111050852 METAR KATL 050852Z 07008KT 10SM BKN012 BKN240 06/04 A3022 RMK AO2 SLP236 T00610039 50000=
202111050830 SPECI KATL 050830Z 08007KT 10SM SCT010 BKN240 06/04 A3022 RMK AO2 T00610039=
202111050752 METAR KATL 050752Z 08010KT 10SM OVC010 07/04 A3022 RMK AO2 SLP237 T00670039=
202111050723 SPECI KATL 050723Z 09008KT 10SM OVC010 07/04 A3022 RMK AO2 T00670039=
202111050652 METAR KATL 050652Z 09011KT 10SM OVC009 07/04 A3022 RMK AO2 SLP237 T00720044=
202111050552 METAR KATL 050552Z 10009KT 10SM OVC008 08/06 A3022 RMK AO2 SLP235 T00780056 10089 20078 50000=
202111050542 SPECI KATL 050542Z 10008KT 10SM OVC008 08/06 A3022 RMK AO2 T00780056=
202111050452 METAR KATL 050452Z 08009KT 10SM OVC011 08/06 A3022 RMK AO2 SLP237 CIG 009V013 T00830056 401000078=
202111050352 METAR KATL 050352Z 08009KT 10SM OVC010 08/06 A3022 RMK AO2 SLP237 T00830056=
202111050252 METAR KATL 050252Z 06010KT 10SM OVC010 08/06 A3022 RMK AO2 SLP235 CIG 008V012 T00830056 55001=
202111050152 METAR KATL 050152Z 07011KT 10SM BKN008 OVC015 08/06 A3021 RMK AO2 SLP234 T00830056=
202111050052 METAR KATL 050052Z 06009KT 10SM BKN009 BKN020 OVC040 08/06 A3022 RMK AO2 SLP235 T00830061=
202111042352 METAR KATL 042352Z 07008KT 10SM SCT008 BKN012 OVC020 09/06 A3022 RMK AO2 SLP236 60000 T00890061 10094 20083 53007=
202111042252 METAR KATL 042252Z 04007KT 10SM BKN009 OVC015 09/06 A3021 RMK AO2 SLP233 T00890061=
202111042152 METAR KATL 042152Z 05009KT 10SM SCT008 BKN013 OVC045 09/06 A3019 RMK AO2 DZE21 SLP227 P0000 T00890061=
202111042052 METAR KATL 042052Z 04009KT 8SM -DZ BKN008 OVC015 09/07 A3020 RMK AO2 RAE07DZB07 SLP229 CIG 007V010 PCPN VRY LGT P0000 60000 T00890067 56011=
202111041952 METAR KATL 041952Z 05010KT 6SM -RA BR BKN009 OVC015 09/07 A3020 RMK AO2 DZE36RAB43 SLP230 CIG 008V011 P0000 T00890067=
202111041938 SPECI KATL 041938Z 07008KT 9SM BKN008 BKN014 OVC024 09/06 A3021 RMK AO2 DZE36 CIG 007V010 P0000 T00890061=
202111041852 METAR KATL 041852Z 08009KT 8SM -DZ BKN011 BKN017 OVC030 09/07 A3021 RMK AO2 DZE01B44 SLP234 CIG 009V013 P0000 T00890067=
202111041752 METAR KATL 041752Z 08008KT 7SM -DZ BKN011 BKN016 OVC028 08/06 A3023 RMK AO2 DZB47 SLP240 CIG 009V013 PCPN VRY LGT P0000 60006 T00830061 10083 20078 58010=
202111041652 METAR KATL 041652Z 07010KT 10SM BKN010 BKN016 OVC030 08/06 A3025 RMK AO2 RAE06 SLP246 CIG 009V012 P0000 T00830061=
202111041552 METAR KATL 041552Z 07010KT 7SM -RA BKN011 OVC033 08/06 A3026 RMK AO2 SLP249 CIG 009V013 P0001 T00830061=
202111041525 SPECI KATL 041525Z 07010KT 7SM -RA SCT008 BKN014 OVC032 08/06 A3027 RMK AO2 CIG 012V016 P0001 T00830061=
202111041452 METAR KATL 041452Z 07009KT 6SM -RA BR BKN008 BKN013 OVC032 08/06 A3026 RMK AO2 SLP250 CIG 007V010 P0003 60005 T00830061 51018=
202111041449 SPECI KATL 041449Z 08009KT 6SM -RA BR SCT008 BKN013 OVC032 08/06 A3026 RMK AO2 CIG 010V016 P0003=
202111041352 METAR KATL 041352Z 05009KT 6SM -RA BR SCT008 BKN033 OVC075 08/06 A3025 RMK AO2 SLP245 P0002 T00780061=
202111041252 METAR KATL 041252Z 08009KT 9SM -RA SCT009 BKN033 OVC080 08/06 A3023 RMK AO2 RAB22 SLP238 P0000 T00780056=
202111041152 METAR KATL 041152Z 08008KT 10SM FEW008 BKN033 OVC080 08/06 A3021 RMK AO2 RAE41 SLP231 P0000 60003 70003 T00780056 10094 20078 53004=
202111041052 METAR KATL 041052Z 07010KT 10SM -RA FEW007 SCT070 OVC080 08/06 A3020 RMK AO2 SLP228 P0002 T00780061=
202111040952 METAR KATL 040952Z 07009KT 10SM -RA FEW035 SCT050 OVC075 08/06 A3019 RMK AO2 SLP226 P0001 T00830056=
202111040852 METAR KATL 040852Z 08009KT 10SM -RA FEW034 SCT050 OVC080 08/06 A3019 RMK AO2 SLP226 P0000 60000 T00830056 56011=
202111040752 METAR KATL 040752Z 07011KT 10SM -RA FEW050 SCT070 OVC090 09/05 A3020 RMK AO2 SLP225 PCPN VRY LGT P0000 T00890050=
202111040652 METAR KATL 040652Z 08008KT 10SM -RA FEW050 SCT070 OVC085 09/04 A3021 RMK AO2 SLP232 PCPN VRY LGT P0000 T00890044=
202111040552 METAR KATL 040552Z 09010KT 10SM -RA SCT050 BKN080 OVC095 09/04 A3023 RMK AO2 SLP236 PCPN VRY LGT P0000 60000 T00940044 10122 20094 58005=
202111040452 METAR KATL 040452Z 07010KT 10SM -RA SCT050 BKN070 OVC100 10/04 A3024 RMK AO2 RAB47 SLP239 PCPN VRY LGT P0000 T01000044 401560061=
202111040352 METAR KATL 040352Z 07011KT 10SM SCT050 BKN070 OVC100 11/04 A3024 RMK AO2 SLP241 T01060044=
202111040252 METAR KATL 040252Z 07011KT 10SM BKN065 OVC080 11/04 A3024 RMK AO2 SLP242 T01110044 53009=
202111040152 METAR KATL 040152Z 07010KT 10SM BKN055 BKN070 OVC100 12/04 A3022 RMK AO2 SLP235 T01170044=
202111040052 METAR KATL 040052Z 08008KT 10SM BKN060 BKN075 BKN150 OVC200 12/05 A3022 RMK AO2 SLP236 T01220050=
202111032352 METAR KATL 032352Z 08010KT 10SM SCT060 BKN080 BKN110 OVC150 12/05 A3021 RMK AO2 RAE08 SLP233 P0000 60000 T01220050 10156 20122 53012=
202111032252 METAR KATL 032252Z 06009KT 10SM -RA SCT060 BKN100 BKN130 OVC200 13/06 A3020 RMK AO2 RAB49 SLP227 P0000 T01330061=
202111032152 METAR KATL 032152Z 06008KT 10SM SCT065 BKN120 OVC200 14/06 A3019 RMK AO2 SLP225 T01390061=
202111032052 METAR KATL 032052Z 07011KT 10SM SCT060 BKN095 BKN130 BKN200 14/07 A3018 RMK AO2 SLP220 T01440067 56013=
202111031952 METAR KATL 031952Z VRB06KT 10SM FEW031 BKN075 BKN120 BKN200 16/07 A3019 RMK AO2 SLP223 ACC NE SE-S W T01560067=
202111031852 METAR KATL 031852Z 09007KT 10SM BKN033 BKN140 BKN200 BKN250 14/07 A3020 RMK AO2 SLP229 T01440067=
202111031752 METAR KATL 031752Z 06009G15KT 10SM FEW032 BKN140 BKN200 BKN250 14/06 A3022 RMK AO2 SLP234 T01440061 10150 20078 58018=
202111031652 METAR KATL 031652Z 09007KT 10SM FEW030 BKN130 BKN200 BKN250 14/06 A3026 RMK AO2 SLP246 T01440061=
202111031552 METAR KATL 031552Z 08011KT 10SM FEW024 SCT032 SCT200 BKN250 14/06 A3027 RMK AO2 SLP249 T01390061=
202111031452 METAR KATL 031452Z 08014G22KT 10SM FEW018 SCT029 SCT200 BKN250 12/06 A3027 RMK AO2 SLP252 T01220061 51013=
202111031445 SPECI KATL 031445Z 09014KT 10SM FEW018 SCT028 SCT200 BKN250 12/06 A3027 RMK AO2 T01170061=
202111031352 METAR KATL 031352Z 07010KT 10SM FEW014 BKN027 BKN200 BKN250 11/06 A3027 RMK AO2 SLP251 T01060061=
202111031339 SPECI KATL 031339Z 06011KT 10SM FEW014 BKN028 BKN200 BKN250 10/06 A3027 RMK AO2 T01000061=
202111031252 METAR KATL 031252Z 03008KT 10SM FEW015 SCT120 SCT180 BKN250 09/06 A3025 RMK AO2 SLP245 T00940056=
202111031152 METAR KATL 031152Z 36005KT 10SM FEW120 SCT180 BKN240 08/05 A3023 RMK AO2 SLP239 T00780050 10083 20061 53007=
202111031052 METAR KATL 031052Z 33005KT 10SM SCT180 BKN250 07/04 A3022 RMK AO2 SLP233 T00670044=
202111030952 METAR KATL 030952Z 34006KT 10SM SCT250 07/04 A3022 RMK AO2 SLP234 T00670044=
202111030852 METAR KATL 030852Z 33006KT 10SM SCT250 07/04 A3021 RMK AO2 SLP230 T00670044 56003=
202111030752 METAR KATL 030752Z 33008KT 10SM SCT250 07/04 A3022 RMK AO2 SLP231 T00720044=
202111030652 METAR KATL 030652Z 33007KT 10SM SCT250 08/05 A3021 RMK AO2 SLP227 T00780050=
202111030552 METAR KATL 030552Z 32010KT 10SM FEW200 FEW250 08/05 A3022 RMK AO2 SLP232 T00830050 10150 20083 53002=
202111030452 METAR KATL 030452Z 32009KT 10SM FEW200 09/06 A3021 RMK AO2 SLP228 T00940056 402110089=
202111030352 METAR KATL 030352Z 33010KT 10SM FEW200 11/06 A3023 RMK AO2 SLP234 T01060056=
202111030252 METAR KATL 030252Z 32007KT 10SM FEW200 11/06 A3021 RMK AO2 SLP231 T01110056 52004=
202111030152 METAR KATL 030152Z 34009KT 10SM FEW200 13/06 A3021 RMK AO2 SLP229 T01280056=
202111030052 METAR KATL 030052Z 35009KT 10SM FEW200 14/06 A3021 RMK AO2 SLP230 T01390061=
202111022352 METAR KATL 022352Z 34009KT 10SM FEW200 15/07 A3020 RMK AO2 SLP227 T01500072 10211 20150 53008=
202111022252 METAR KATL 022252Z 35008KT 10SM FEW200 17/07 A3018 RMK AO2 SLP221 T01670067=
202111022152 METAR KATL 022152Z 34009KT 10SM FEW200 18/07 A3018 RMK AO2 SLP218 T01830067=
202111022052 METAR KATL 022052Z 32011KT 10SM FEW200 20/07 A3018 RMK AO2 SLP216 T02000072 56011=
202111021952 METAR KATL 021952Z 32012KT 10SM FEW200 19/07 A3018 RMK AO2 SLP216 T01940067=
202111021852 METAR KATL 021852Z 34011KT 10SM FEW110 FEW200 21/04 A3019 RMK AO2 SLP222 ACC DSNT NE T02060044=
202111021752 METAR KATL 021752Z 31007KT 10SM FEW110 FEW200 20/06 A3021 RMK AO2 SLP228 ACC DSNT N NE NW T02000056 10200 20089 58011=
202111021652 METAR KATL 021652Z VRB04KT 10SM FEW095 FEW110 18/06 A3023 RMK AO2 SLP236 ACC DSNT NE T01830061=
202111021552 METAR KATL 021552Z 28005KT 10SM FEW090 SCT110 SCT200 17/09 A3025 RMK AO2 SLP242 ACC W-N-NE T01670089=
202111021452 METAR KATL 021452Z 29007KT 10SM FEW100 SCT200 14/09 A3024 RMK AO2 SLP240 ACC NW-N T01390089 51010=
202111021352 METAR KATL 021352Z 32006KT 10SM FEW110 FEW200 11/08 A3024 RMK AO2 SLP239 ACC DSNT N T01110078=
202111021252 METAR KATL 021252Z 31007KT 10SM FEW120 09/07 A3022 RMK AO2 SLP233 T00940072=
202111021152 METAR KATL 021152Z 31006KT 10SM FEW120 09/07 A3021 RMK AO2 SLP230 T00890072 10111 20089 51009=
202111021052 METAR KATL 021052Z 30004KT 10SM CLR 09/07 A3021 RMK AO2 SLP227 T00890072=
202111020952 METAR KATL 020952Z 31006KT 9SM CLR 09/08 A3019 RMK AO2 SLP223 T00940078=
202111020852 METAR KATL 020852Z 32005KT 10SM CLR 10/08 A3018 RMK AO2 SLP218 T01000083 53001=
202111020752 METAR KATL 020752Z 32004KT 10SM CLR 10/08 A3018 RMK AO2 SLP218 T01000083=
202111020652 METAR KATL 020652Z 29004KT 9SM CLR 11/08 A3018 RMK AO2 SLP218 T01060083=
202111020552 METAR KATL 020552Z 00000KT 10SM CLR 11/08 A3018 RMK AO2 SLP218 T01110083 10183 20106 58012=
202111020452 METAR KATL 020452Z 00000KT 10SM CLR 12/09 A3019 RMK AO2 SLP222 T01220089 402170078=
202111020352 METAR KATL 020352Z 00000KT 10SM CLR 13/09 A3021 RMK AO2 SLP228 T01330089=
202111020252 METAR KATL 020252Z 33005KT 10SM FEW250 15/09 A3022 RMK AO2 SLP231 T01500089 51013=
202111020152 METAR KATL 020152Z 34006KT 10SM FEW250 16/09 A3021 RMK AO2 SLP229 T01610094=
202111020052 METAR KATL 020052Z 33007KT 10SM FEW200 FEW250 17/09 A3019 RMK AO2 SLP222 T01720094=
202111012352 METAR KATL 012352Z 32005KT 10SM FEW200 FEW250 18/09 A3018 RMK AO2 SLP218 T01830094 10217 20178 53004=
202111012252 METAR KATL 012252Z 30004KT 10SM FEW200 FEW250 19/09 A3016 RMK AO2 SLP213 T01940089=
202111012152 METAR KATL 012152Z 00000KT 10SM FEW200 FEW250 21/09 A3017 RMK AO2 SLP213 T02060094=
202111012052 METAR KATL 012052Z 32006KT 10SM FEW200 22/09 A3016 RMK AO2 SLP212 T02170089 56015=
202111011952 METAR KATL 011952Z VRB03KT 10SM FEW200 21/08 A3018 RMK AO2 SLP217 T02110083=
202111011852 METAR KATL 011852Z 06004KT 10SM FEW200 FEW250 21/08 A3019 RMK AO2 SLP221 T02060083=
202111011752 METAR KATL 011752Z 07004KT 10SM FEW250 20/09 A3021 RMK AO2 SLP227 T02000089 10200 20083 58009=
202111011652 METAR KATL 011652Z 10005KT 10SM FEW250 19/08 A3023 RMK AO2 SLP235 T01890083=
202111011552 METAR KATL 011552Z VRB04KT 10SM FEW250 17/08 A3024 RMK AO2 SLP239 T01720078=
202111011452 METAR KATL 011452Z 08008KT 10SM FEW200 16/08 A3024 RMK AO2 SLP238 T01560078 51022=
202111011352 METAR KATL 011352Z 03006KT 10SM FEW200 13/08 A3022 RMK AO2 SLP234 T01330078=
202111011252 METAR KATL 011252Z 33004KT 10SM CLR 09/07 A3019 RMK AO2 SLP226 T00940072=
