##########################################################
# Query made at 04/20/2024 00:14:29 UTC
# Time interval: from 01/01/2021 12:00  to 01/31/2021 12:59  UTC
##########################################################

##########################################################
# KATL, Atlanta, Hartsfield - Jackson Atlanta International Airport (United States)
# WMO index: 72219. WIGOS ID: 0-20000-0-72219
# Latitude 33-38-59N. Longitude 084-25-00W. Altitude 312 m.
##########################################################

202101311252 METAR KATL 311252Z 01012KT 3SM RA BR SCT005 BKN013 OVC022 07/06 A2995 RMK AO2 SLP146 P0015 T00670056=
202101311249 SPECI KATL 311249Z 02012KT 3SM RA BR SCT005 BKN013 OVC022 07/06 A2995 RMK AO2 P0014=
202101311229 SPECI KATL 311229Z 35010KT 2SM +RA BR BKN005 OVC011 07/06 A2995 RMK AO2 CIG 004V007 P0008 T00670056=
202101311215 SPECI KATL 311215Z 36012KT 3SM RA BR BKN005 OVC009 07/06 A2995 RMK AO2 CIG 004V007 P0003 T00670056=
202101311152 METAR KATL 311152Z 35013KT 3SM -RA BR OVC003 07/06 A2994 RMK AO2 SLP139 P0002 60007 70007 T00720056 10072 20061 55006=
202101311052 METAR KATL 311052Z 13006KT 5SM -RA BR OVC004 07/05 A2990 RMK AO2 RAB27 SLP128 CIG 003V005 P0000 T00670050=
202101311050 SPECI KATL 311050Z 13005KT 5SM -RA BR OVC004 07/06 A2990 RMK AO2 RAB27 CIG 003V005 P0000=
202101311027 SPECI KATL 311027Z 12006KT 5SM -RA BR BKN005 BKN013 OVC022 06/05 A2991 RMK AO2 RAB27 CIG 004V006 P0000 T00610050=
202101310952 METAR KATL 310952Z 12005KT 4SM BR FEW004 SCT015 OVC024 06/04 A2992 RMK AO2 RAE46 SLP134 P0003 T00610044=
202101310925 SPECI KATL 310925Z 15006KT 4SM -RA BR BKN024 OVC033 06/04 A2993 RMK AO2 BKN024 V SCT P0002 T00610044=
202101310923 SPECI KATL 310923Z 15006KT 5SM -RA BR BKN026 OVC033 06/04 A2993 RMK AO2 P0001 T00610044=
202101310856 SPECI KATL 310856Z 15008KT 4SM -RA BR FEW018 SCT025 OVC035 06/04 A2995 RMK AO2 P0001 T00610044=
202101310852 METAR KATL 310852Z 15007G15KT 4SM -RA BR FEW018 BKN025 OVC038 06/04 A2995 RMK AO2 SLP145 P0002 60002 T00610044 56027=
202101310802 SPECI KATL 310802Z 14008KT 4SM -RA BKN026 OVC037 07/03 A2998 RMK AO2 P0001 T00670028=
202101310752 METAR KATL 310752Z 14008KT 7SM -RA BKN035 OVC045 07/02 A2999 RMK AO2 RAB49 SLP157 P0000 T00720022=
202101310652 METAR KATL 310652Z 13011KT 10SM FEW043 OVC055 07/01 A3000 RMK AO2 SLP160 T00670006=
202101310552 METAR KATL 310552Z 11014G25KT 10SM BKN070 BKN090 BKN120 06/M03 A3003 RMK AO2 PRESFR SLP174 T00611028 10083 20061 58036=
202101310452 METAR KATL 310452Z 12010KT 10SM SCT046 BKN100 BKN110 07/M03 A3011 RMK AO2 SLP200 T00671033 401110006=
202101310352 METAR KATL 310352Z 12008KT 10SM BKN110 BKN150 BKN180 07/M02 A3013 RMK AO2 SLP207 T00671022=
202101310252 METAR KATL 310252Z 11010KT 10SM BKN150 BKN180 07/M02 A3014 RMK AO2 SLP212 T00721022 56004=
202101310152 METAR KATL 310152Z 12009G18KT 10SM BKN150 BKN180 08/M02 A3015 RMK AO2 SLP214 T00781022=
202101310052 METAR KATL 310052Z 12010KT 10SM FEW140 BKN160 BKN200 08/M02 A3014 RMK AO2 SLP214 T00781017=
202101302352 METAR KATL 302352Z 11010G18KT 10SM SCT150 BKN170 BKN200 09/M01 A3016 RMK AO2 SLP218 VIRGA OHD & W T00891006 10111 20083 50001=
202101302252 METAR KATL 302252Z 10009KT 10SM SCT080 BKN170 BKN200 10/00 A3017 RMK AO2 SLP220 VIRGA W-NW T01000000=
202101302152 METAR KATL 302152Z 10008KT 10SM SCT060 SCT090 BKN140 OVC200 11/01 A3017 RMK AO2 SLP222 T01060006=
202101302052 METAR KATL 302052Z 12009KT 10SM SCT055 SCT080 BKN095 OVC140 11/01 A3015 RMK AO2 SLP216 T01110011 56028=
202101301952 METAR KATL 301952Z 13008KT 10SM SCT055 BKN085 OVC140 10/01 A3019 RMK AO2 SLP227 T01000011=
202101301852 METAR KATL 301852Z 14008KT 10SM SCT055 OVC085 09/01 A3021 RMK AO2 SLP234 T00940011=
202101301752 METAR KATL 301752Z 13006KT 10SM SCT055 BKN085 BKN140 08/01 A3024 RMK AO2 SLP245 60000 T00830011 10089 20006 58016=
202101301652 METAR KATL 301652Z 14006KT 10SM SCT055 BKN080 BKN140 07/01 A3027 RMK AO2 SLP255 T00720011=
202101301552 METAR KATL 301552Z 11007KT 10SM SCT070 SCT100 BKN140 BKN200 06/M01 A3029 RMK AO2 SLP264 T00561006=
202101301452 METAR KATL 301452Z 09004KT 10SM SCT060 SCT085 BKN140 BKN200 04/M02 A3029 RMK AO2 SLP263 GSB07E21 P0000 60000 T00391017 53009 $=
202101301423 SPECI KATL 301423Z 11004KT 10SM SCT060 BKN085 BKN140 03/M02 A3027 RMK AO2 GSB07E21 P0000 T00331022 $=
202101301412 SPECI KATL 301412Z 12006KT 10SM GS SCT070 BKN100 BKN150 BKN250 03/M03 A3026 RMK AO2 GSB07 P0000 T00281028=
202101301352 METAR KATL 301352Z 09005KT 10SM SCT095 BKN120 BKN150 BKN250 02/M03 A3025 RMK AO2 SLP252 VIRGA OHD-S T00221028=
202101301252 METAR KATL 301252Z 09007KT 10SM SCT100 BKN180 BKN250 01/M03 A3025 RMK AO2 SLP251 T00111033=
202101301152 METAR KATL 301152Z 08005KT 10SM FEW090 SCT180 SCT250 01/M04 A3026 RMK AO2 SLP253 T00061044 10028 20006 53005=
202101301052 METAR KATL 301052Z 07005KT 10SM FEW150 FEW250 01/M04 A3025 RMK AO2 SLP250 T00111044=
202101300952 METAR KATL 300952Z 09004KT 10SM FEW250 01/M04 A3023 RMK AO2 SLP243 T00111039=
202101300852 METAR KATL 300852Z 05004KT 10SM SCT250 02/M04 A3024 RMK AO2 SLP246 T00221039 55001=
202101300752 METAR KATL 300752Z 00000KT 10SM SCT250 02/M03 A3024 RMK AO2 SLP244 T00171033=
202101300652 METAR KATL 300652Z 14003KT 10SM BKN250 02/M04 A3023 RMK AO2 SLP243 T00171039=
202101300552 METAR KATL 300552Z 00000KT 10SM BKN250 03/M06 A3025 RMK AO2 SLP248 T00281056 10083 20022 58008=
202101300452 METAR KATL 300452Z 00000KT 10SM BKN250 03/M05 A3026 RMK AO2 SLP254 T00281050 401171017=
202101300352 METAR KATL 300352Z 35004KT 10SM SCT250 04/M06 A3027 RMK AO2 SLP256 T00441056=
202101300252 METAR KATL 300252Z 33004KT 10SM SCT250 04/M05 A3027 RMK AO2 SLP258 T00441050 53001=
202101300152 METAR KATL 300152Z 33005KT 10SM FEW250 06/M06 A3026 RMK AO2 SLP254 T00561056=
202101300052 METAR KATL 300052Z 33006KT 10SM FEW200 SCT250 06/M05 A3027 RMK AO2 SLP257 T00611050=
202101292352 METAR KATL 292352Z 31005KT 10SM FEW200 SCT250 08/M06 A3027 RMK AO2 SLP256 T00831061 10117 20078 53003=
202101292252 METAR KATL 292252Z 33006KT 10SM FEW200 BKN250 10/M07 A3025 RMK AO2 SLP249 T01001067=
202101292152 METAR KATL 292152Z 33007KT 10SM FEW200 FEW250 11/M07 A3026 RMK AO2 SLP252 T01111067=
202101292052 METAR KATL 292052Z 31005KT 10SM FEW200 12/M07 A3026 RMK AO2 SLP251 T01171067 56017=
202101291952 METAR KATL 291952Z VRB05KT 10SM FEW200 11/M06 A3027 RMK AO2 SLP254 T01111056=
202101291852 METAR KATL 291852Z 30005KT 10SM FEW200 09/M06 A3028 RMK AO2 SLP261 T00941061=
202101291752 METAR KATL 291752Z 00000KT 10SM FEW200 FEW250 08/M07 A3031 RMK AO2 SLP269 T00831067 10083 21017 58020=
202101291652 METAR KATL 291652Z 31003KT 10SM FEW200 SCT250 06/M07 A3034 RMK AO2 SLP281 T00611072=
202101291552 METAR KATL 291552Z 00000KT 10SM SCT200 BKN250 04/M08 A3036 RMK AO2 SLP290 T00391078=
202101291452 METAR KATL 291452Z 35005KT 10SM SCT200 BKN250 02/M08 A3037 RMK AO2 SLP292 T00171083 51013=
202101291352 METAR KATL 291352Z 33007KT 10SM FEW200 SCT250 00/M08 A3037 RMK AO2 SLP293 T00001083=
202101291252 METAR KATL 291252Z 33007KT 10SM FEW200 SCT250 M02/M08 A3036 RMK AO2 SLP290 T10171083=
202101291152 METAR KATL 291152Z 33008KT 10SM FEW200 BKN250 M02/M08 A3033 RMK AO2 SLP280 T10171083 10006 21017 55002=
202101291052 METAR KATL 291052Z 33011KT 10SM SCT220 BKN250 M01/M08 A3031 RMK AO2 SLP273 T10111083=
202101290952 METAR KATL 290952Z 32010KT 10SM SCT200 BKN250 M01/M08 A3033 RMK AO2 SLP279 T10111083=
202101290852 METAR KATL 290852Z 33010KT 10SM SCT200 BKN250 M01/M08 A3033 RMK AO2 SLP280 T10111083 56006=
202101290752 METAR KATL 290752Z 33011KT 10SM FEW200 BKN250 M01/M08 A3034 RMK AO2 SLP282 T10061083=
202101290652 METAR KATL 290652Z 32009KT 10SM FEW200 BKN250 00/M08 A3034 RMK AO2 SLP282 T00001083=
202101290552 METAR KATL 290552Z 33009KT 10SM BKN250 01/M08 A3035 RMK AO2 SLP286 T00061083 10044 20006 56009=
202101290452 METAR KATL 290452Z 33011KT 10SM BKN250 01/M08 A3037 RMK AO2 SLP291 T00111078 400830011=
202101290352 METAR KATL 290352Z 33011KT 10SM SCT250 02/M08 A3037 RMK AO2 SLP290 T00171083=
202101290252 METAR KATL 290252Z 33013G22KT 10SM FEW250 02/M08 A3038 RMK AO2 SLP296 T00221078 58005=
202101290152 METAR KATL 290152Z 33011KT 10SM FEW250 03/M07 A3040 RMK AO2 SLP304 T00281072=
202101290052 METAR KATL 290052Z 33010KT 10SM FEW250 03/M06 A3040 RMK AO2 SLP303 T00331061=
202101282352 METAR KATL 282352Z 32012KT 10SM FEW250 04/M06 A3040 RMK AO2 SLP301 T00441061 10083 20044 53006=
202101282252 METAR KATL 282252Z 33012KT 10SM FEW250 06/M07 A3039 RMK AO2 SLP297 T00561067=
202101282152 METAR KATL 282152Z 32010G19KT 10SM FEW250 07/M06 A3038 RMK AO2 SLP294 T00671056=
202101282052 METAR KATL 282052Z 31015G22KT 10SM FEW250 07/M06 A3038 RMK AO2 SLP293 T00721056 55008=
202101281952 METAR KATL 281952Z 32014KT 10SM CLR 07/M06 A3036 RMK AO2 SLP287 T00721056=
202101281852 METAR KATL 281852Z 30014G24KT 10SM CLR 07/M04 A3038 RMK AO2 PK WND 33027/1813 SLP292 T00721044=
202101281752 METAR KATL 281752Z 34014G25KT 10SM CLR 07/M04 A3041 RMK AO2 PK WND 35027/1654 SLP302 T00671039 10067 20022 50003=
202101281652 METAR KATL 281652Z 35021G29KT 10SM FEW050 06/M04 A3043 RMK AO2 PK WND 32031/1636 SLP310 T00611044=
202101281552 METAR KATL 281552Z 34018G27KT 10SM FEW040 04/M04 A3043 RMK AO2 PK WND 33027/1543 SLP308 T00441039=
202101281452 METAR KATL 281452Z 32011G20KT 10SM FEW034 04/M04 A3040 RMK AO2 PK WND 32030/1420 SLP299 T00391039 51023=
202101281352 METAR KATL 281352Z 34017G27KT 10SM SCT029 03/M04 A3038 RMK AO2 PK WND 32030/1301 SLP294 T00281044=
202101281336 SPECI KATL 281336Z 33013G25KT 10SM SCT029 03/M04 A3037 RMK AO2 PK WND 32030/1301 T00281039=
202101281252 METAR KATL 281252Z 32019G27KT 10SM BKN029 03/M04 A3036 RMK AO2 PK WND 34036/1225 SLP287 T00281039=
202101281152 METAR KATL 281152Z 32017G26KT 10SM BKN028 BKN033 03/M03 A3033 RMK AO2 PK WND 34033/1137 SLP273 70057 T00281033 10056 20028 53028=
202101281052 METAR KATL 281052Z 33015G34KT 10SM BKN029 03/M03 A3030 RMK AO2 PK WND 33034/1049 SLP263 T00281033=
202101280952 METAR KATL 280952Z 33016G29KT 10SM BKN024 OVC030 03/M03 A3027 RMK AO2 PK WND 33032/0939 SLP253 T00331028=
202101280852 METAR KATL 280852Z 33019G28KT 10SM OVC027 03/M03 A3024 RMK AO2 PK WND 31030/0832 SLP244 BINOVC T00331028 51025=
202101280752 METAR KATL 280752Z 33018G32KT 10SM BKN023 OVC029 04/M02 A3023 RMK AO2 PK WND 34033/0706 SLP238 T00391017=
202101280652 METAR KATL 280652Z 33020G34KT 10SM SCT025 OVC029 04/M02 A3019 RMK AO2 PK WND 31034/0646 SLP227 T00441017=
202101280552 METAR KATL 280552Z 31020G29KT 10SM BKN025 BKN032 06/01 A3017 RMK AO2 PK WND 32029/0546 SLP217 60000 T00560006 10133 20056 51021=
202101280527 SPECI KATL 280527Z 32018G24KT 10SM BKN024 BKN030 BKN250 06/01 A3016 RMK AO2 T00610006=
202101280452 METAR KATL 280452Z 31018G27KT 10SM SCT028 SCT250 06/01 A3015 RMK AO2 PK WND 30031/0421 SLP212 T00610006 401560061=
202101280352 METAR KATL 280352Z 31017G28KT 10SM SCT025 BKN032 BKN250 07/02 A3013 RMK AO2 PK WND 31028/0352 SLP206 T00720017=
202101280252 METAR KATL 280252Z 31020G29KT 10SM FEW025 SCT250 08/03 A3010 RMK AO2 PK WND 32029/0227 SLP195 60000 T00780028 51035=
202101280152 METAR KATL 280152Z 31018G28KT 10SM SCT022 BKN250 09/06 A3007 RMK AO2 PK WND 29028/0134 SLP183 SCT022 V BKN T00890056=
202101280052 METAR KATL 280052Z 31015G25KT 10SM FEW015 SCT250 10/07 A3004 RMK AO2 PK WND 31038/0023 RAE31 SLP172 P0000 T01000067=
202101272352 METAR KATL 272352Z 29018G27KT 4SM -RA BR SCT007 BKN015 OVC040 13/12 A3000 RMK AO2 PK WND 29027/2352 SLP158 P0001 60002 T01330117 10156 20133 53015=
202101272314 SPECI KATL 272314Z 26008KT 7SM -RA SCT007 BKN013 OVC030 13/12 A2998 RMK AO2 P0001 T01330122=
202101272305 SPECI KATL 272305Z 27007KT 2 1/2SM -RA BR SCT007 BKN013 OVC030 13/12 A2998 RMK AO2 P0000 T01330117=
202101272252 METAR KATL 272252Z 27009KT 8SM -RA BKN014 BKN025 OVC050 14/12 A2997 RMK AO2 RAB33 SLP150 P0001 T01390117=
202101272152 METAR KATL 272152Z 20008KT 10SM BKN026 BKN033 OVC055 15/11 A2995 RMK AO2 SLP140 T01500106=
202101272052 METAR KATL 272052Z 22005KT 10SM SCT021 BKN028 BKN040 OVC140 15/11 A2995 RMK AO2 SLP141 T01500106 56013=
202101271952 METAR KATL 271952Z 18006KT 10SM BKN023 BKN033 BKN120 BKN200 16/11 A2995 RMK AO2 SLP140 T01560111=
202101271927 SPECI KATL 271927Z 17005KT 10SM BKN017 BKN033 BKN120 BKN200 15/11 A2995 RMK AO2 T01500111=
202101271852 METAR KATL 271852Z 16006KT 10SM BKN011 BKN120 BKN200 16/12 A2996 RMK AO2 SLP143 CIG 009V013 T01560117=
202101271850 SPECI KATL 271850Z 15007KT 10SM BKN011 BKN110 BKN200 15/12 A2996 RMK AO2 CIG 009V013=
202101271752 METAR KATL 271752Z 15006KT 10SM OVC007 13/11 A2999 RMK AO2 SLP155 CIG 006V008 BINOVC 60055 T01330111 10133 20106 58020=
202101271652 METAR KATL 271652Z 11005KT 10SM OVC007 13/11 A3004 RMK AO2 SLP171 CIG 006V009 BINOVC T01280106=
202101271608 SPECI KATL 271608Z 12004KT 10SM BKN007 BKN055 BKN140 BKN200 12/10 A3006 RMK AO2 CIG 005V009 T01170100=
202101271552 METAR KATL 271552Z 13003KT 10SM SCT006 BKN060 BKN130 BKN200 11/09 A3006 RMK AO2 RAE09 SLP180 P0001 T01110094=
202101271452 METAR KATL 271452Z 15006KT 8SM -RA FEW006 BKN065 OVC120 11/09 A3006 RMK AO2 SLP177 P0012 60054 T01060094 53012=
202101271352 METAR KATL 271352Z 09007KT 4SM RA BR FEW006 BKN055 OVC090 11/09 A3002 RMK AO2 SLP164 P0019 T01060094=
202101271343 SPECI KATL 271343Z 07007KT 5SM -RA BR FEW006 SCT055 OVC085 11/09 A3002 RMK AO2 P0016 T01060089=
202101271252 METAR KATL 271252Z 05005KT 3SM RA BR FEW035 BKN050 OVC070 11/09 A3003 RMK AO2 SLP168 P0023 T01060089=
202101271152 METAR KATL 271152Z 02008KT 4SM RA BR SCT040 OVC060 11/09 A3002 RMK AO2 SLP164 P0015 60035 70035 T01060089 10150 20106 53007=
202101271052 METAR KATL 271052Z 33004KT 8SM -RA OVC055 11/08 A3002 RMK AO2 PRESRR SLP163 P0002 T01060083=
202101270952 METAR KATL 270952Z 35010KT 7SM -RA FEW045 OVC065 11/09 A2999 RMK AO2 SLP155 P0008 T01110089=
202101270852 METAR KATL 270852Z 08005KT 10SM -RA FEW050 BKN065 OVC080 12/10 A3000 RMK AO2 RAE0757B17 PRESFR SLP155 P0003 60010 T01220100 51006=
202101270752 METAR KATL 270752Z 00000KT 10SM -RA SCT070 BKN085 OVC110 13/09 A2999 RMK AO2 SLP151 P0007 T01280094=
202101270652 METAR KATL 270652Z 25005KT 10SM -RA FEW055 SCT070 OVC090 14/09 A3001 RMK AO2 RAB45 PRESRR SLP160 P0000 T01390094=
202101270552 METAR KATL 270552Z 34010KT 10SM SCT095 BKN120 BKN250 14/11 A2998 RMK AO2 SLP146 T01390106 10167 20139 50001=
202101270452 METAR KATL 270452Z 00000KT 10SM FEW095 BKN120 BKN250 14/12 A2998 RMK AO2 SLP148 T01390117 402060139=
202101270352 METAR KATL 270352Z 27004KT 10SM FEW090 BKN140 BKN250 14/12 A2999 RMK AO2 SLP151 T01390117=
202101270252 METAR KATL 270252Z 25003KT 10SM FEW090 SCT250 14/12 A2997 RMK AO2 SLP147 T01390117 51009=
202101270152 METAR KATL 270152Z 00000KT 10SM SCT085 SCT150 15/12 A2997 RMK AO2 SLP145 T01500117=
202101270052 METAR KATL 270052Z 24003KT 10SM SCT085 BKN110 BKN150 16/11 A2996 RMK AO2 SLP142 T01610111=
202101262352 METAR KATL 262352Z 00000KT 10SM SCT110 BKN150 BKN200 17/11 A2995 RMK AO2 SLP136 T01670111 10200 20167 51009=
202101262252 METAR KATL 262252Z 27006KT 10SM BKN095 BKN200 17/11 A2994 RMK AO2 SLP133 ACC OHD-ALQDS T01720111=
202101262152 METAR KATL 262152Z 26005KT 10SM BKN095 BKN120 BKN200 19/11 A2994 RMK AO2 SLP130 ACC OHD-ALQDS T01890106=
202101262052 METAR KATL 262052Z 27007KT 10SM BKN090 BKN120 BKN200 19/09 A2992 RMK AO2 SLP124 ACC OHD-ALQDS T01890089 55002=
202101261952 METAR KATL 261952Z 28008KT 10SM BKN090 BKN120 BKN200 19/09 A2991 RMK AO2 SLP121 ACC OHD-ALQDS T01940089=
202101261852 METAR KATL 261852Z 24007KT 10SM BKN085 BKN120 BKN200 19/12 A2992 RMK AO2 SLP124 ACC OHD-ALQDS T01940117=
202101261752 METAR KATL 261752Z 29007KT 10SM FEW024 BKN075 BKN110 BKN200 20/13 A2992 RMK AO2 SLP127 ACC NE-SE DSNT NW 60000 T02000128 10206 20150 50001=
202101261652 METAR KATL 261652Z 33006KT 10SM FEW018 SCT075 BKN100 BKN250 19/14 A2994 RMK AO2 SLP132 T01940139=
202101261552 METAR KATL 261552Z 29008KT 10SM FEW016 SCT070 SCT100 BKN200 18/14 A2994 RMK AO2 SLP134 ACC E-S T01780139=
202101261452 METAR KATL 261452Z 26011G15KT 10SM FEW014 BKN065 BKN120 BKN200 17/13 A2992 RMK AO2 SLP127 60000 T01670128 53023=
202101261352 METAR KATL 261352Z 24006KT 10SM FEW110 FEW180 16/13 A2989 RMK AO2 SLP116 T01610133=
202101261252 METAR KATL 261252Z 00000KT 10SM FEW050 SCT110 BKN180 15/13 A2985 RMK AO2 RAE02 SLP105 P0000 T01500128=
202101261152 METAR KATL 261152Z 22008KT 10SM -RA FEW008 SCT075 OVC100 17/15 A2985 RMK AO2 LTG DSNT E AND SE TSE33 SLP104 TS MOV SE P0008 60040 70040 T01720150 10206 20172 53019=
202101261133 SPECI KATL 261133Z 23006KT 10SM -RA FEW008 SCT080 OVC100 17/15 A2985 RMK AO2 LTG DSNT E-S TSE33 TS MOV SE P0008 T01720150=
202101261110 SPECI KATL 261110Z 24009G17KT 5SM TSRA BR FEW005 BKN060CB OVC070 18/17 A2984 RMK AO2 LTG DSNT ALQDS FRQ LGTICACG S TS VC S MOV NE P0005 T01780167=
202101261052 METAR KATL 261052Z 29010KT 7SM -TSRA FEW005CB BKN050 OVC070 18/17 A2982 RMK AO2 SLP094 WSHFT 1005 FRQ LTGICCACG SE-SW TS VC SE-SW MOV NE P0025 T01780167=
202101261030 SPECI KATL 261030Z 26012G23KT 3SM +TSRA BR SCT010CB BKN041 OVC070 18/17 A2983 RMK AO2 WSHFT 1005 OCNL LTGICCG NE-E TS VC NE-E MOV NE P0019 T01830167=
202101261018 SPECI KATL 261018Z 27016G25KT 6SM R09R/6000VP6000FT -TSRA BR SCT006 BKN012CB OVC018 19/17 A2981 RMK AO2 WSHFT 06 OCNL LTGICCG NE-E TS NE-E MOV NE CB ALQDS P0013 T01890172=
202101260952 METAR KATL 260952Z 21010KT 7SM -TSRA FEW006 BKN010CB OVC015 19/18 A2978 RMK AO2 SLP080 RAB00 TSB12 OCNL LTGICCG W-N-NE TS W-N-NE MOV NE P0007 T01940178=
202101260941 SPECI KATL 260941Z 22010G18KT 6SM -TSRA BR BKN008 OVC012CB 19/18 A2980 RMK AO2 RAB00 TSB12 N FRQ LTGICCG W-N-NE TS N MOV NE P0005 T01940178=
202101260929 SPECI KATL 260929Z 24008G20KT 5SM -RA BR SCT008 OVC015CB 19/18 A2980 RMK AO2 LTG DSNT W-NE RAB00 TSB12E27 OCNL LTGIC N FRQ LTG DSNT W-N-NE TS N MOV NE P0005 T01940178=
202101260917 SPECI KATL 260917Z 23008G17KT 3SM TSRA BR FEW008 OVC015CB 20/18 A2980 RMK AO2 LTG DSNT W-N RAB00 TSB12 OCNL LTGIC N FRQ LTG DSNT W-N-NE TS N MOV NE P0003 T02000178=
202101260852 METAR KATL 260852Z 23009G20KT 10SM BKN016 OVC022 21/17 A2979 RMK AO2 PK WND 22027/0755 LTG DSNT W-NE SLP083 CIG 014V018 CB DSNT SW-NW-NE 60000 T02060172 56003=
202101260752 METAR KATL 260752Z 22015G25KT 10SM BKN017 BKN035 BKN110 OVC250 21/17 A2980 RMK AO2 PK WND 22027/0740 LTG DSNT N AND NW RAB33E43 SLP085 CB DSNT NW-NE P0000 T02060172=
202101260652 METAR KATL 260652Z 22011G17KT 10SM OVC015 20/17 A2980 RMK AO2 RAE18 SLP085 CIG 013V018 P0000 T02000167=
202101260552 METAR KATL 260552Z 21010G24KT 10SM -RA BKN018 BKN025 OVC055 19/17 A2980 RMK AO2 PK WND 22030/0503 RAB52 SLP087 PCPN VRY LGT P0000 60000 T01940167 10194 20167 56013=
202101260452 METAR KATL 260452Z 20010KT 10SM SCT016 BKN022 BKN090 BKN200 19/15 A2981 RMK AO2 PK WND 22027/0359 SLP090 T01890150 401940089=
202101260252 METAR KATL 260252Z 20012G24KT 10SM SCT022 BKN090 BKN150 BKN200 19/13 A2984 RMK AO2 SLP102 T01890128 56008=
202101260152 METAR KATL 260152Z 20010KT 10SM SCT095 BKN150 BKN200 19/13 A2984 RMK AO2 SLP103 T01890128=
202101260052 METAR KATL 260052Z 17007KT 10SM FEW090 BKN150 BKN200 18/14 A2984 RMK AO2 SLP103 T01830139=
202101252352 METAR KATL 252352Z 14007KT 10SM FEW050 BKN150 BKN200 17/14 A2987 RMK AO2 SLP111 T01720139 10183 20144 58010=
202101252252 METAR KATL 252252Z 11003KT 10SM SCT050 BKN150 BKN250 17/14 A2989 RMK AO2 SLP120 MDT CU OHD-W T01720139=
202101252152 METAR KATL 252152Z 14006KT 10SM SCT041 BKN080 BKN140 BKN250 18/13 A2988 RMK AO2 SLP118 MDT CU NE T01830133=
202101252052 METAR KATL 252052Z 12005KT 10SM SCT036 BKN080 BKN140 BKN200 17/13 A2990 RMK AO2 SLP122 MDT CU NE-E SW T01720128 55009=
202101251952 METAR KATL 251952Z 09005KT 10SM SCT022 BKN075 BKN140 BKN200 16/12 A2990 RMK AO2 SLP123 T01610122=
202101251945 SPECI KATL 251945Z 09006KT 10SM SCT022 BKN070 BKN140 BKN200 16/12 A2990 RMK AO2 T01560122=
202101251912 SPECI KATL 251912Z 08007KT 10SM BKN015 OVC022 15/12 A2991 RMK AO2 T01500117=
202101251852 METAR KATL 251852Z 06008KT 9SM OVC011 14/12 A2991 RMK AO2 SLP128 CIG 010V013 T01440117=
202101251752 METAR KATL 251752Z 05006KT 10SM OVC012 16/13 A2993 RMK AO2 SLP132 CIG 010V014 60000 T01560128 10161 20100 56013=
202101251714 SPECI KATL 251714Z 12005KT 10SM OVC011 16/13 A2992 RMK AO2 CIG 009V013 T01560128=
202101251652 METAR KATL 251652Z 13004KT 9SM OVC007 15/12 A2993 RMK AO2 SLP135 T01500122=
202101251552 METAR KATL 251552Z 11005KT 8SM OVC006 13/11 A2995 RMK AO2 DZB1458E24 SLP142 P0000 T01330111=
202101251452 METAR KATL 251452Z 13005KT 7SM OVC005 12/10 A2997 RMK AO2 SLP147 CIG 004V007 T01170100 56014=
202101251447 SPECI KATL 251447Z 12004KT 2SM OVC005 12/10 A2997 RMK AO2 SFC VIS 7 CIG 004V007=
202101251352 METAR KATL 251352Z 12005KT 2SM BR OVC004 11/09 A2998 RMK AO2 SFC VIS 6 SLP152 CIG 003V005 TWRINC T01060089=
202101251323 SPECI KATL 251323Z 13006KT 2SM BR OVC004 10/09 A2998 RMK AO2 SFC VIS 6 CIG 003V005 TWRINC T01000089=
202101251317 SPECI KATL 251317Z 14005KT 6SM BR OVC004 10/09 A2998 RMK AO2 CIG 003V005 T01000089=
202101251252 METAR KATL 251252Z 12007KT 6SM BR OVC005 10/08 A2999 RMK AO2 SLP156 T01000083=
202101251152 METAR KATL 251152Z 11003KT 7SM OVC006 10/09 A3001 RMK AO2 SLP162 60002 70002 T01000089 10111 20089 55006=
202101251052 METAR KATL 251052Z 12005KT 7SM SCT004 OVC007 09/08 A3000 RMK AO2 SLP160 CIG 005V008 T00940083=
202101250952 METAR KATL 250952Z 13005KT 5SM BR OVC004 09/08 A3001 RMK AO2 DZE52 SLP161 CIG 002V005 P0000 T00890078=
202101250904 SPECI KATL 250904Z 10005KT 3SM -DZ BR OVC004 09/08 A3002 RMK AO2 CIG 003V005 P0000 T00890078=
202101250852 METAR KATL 250852Z 10006KT 2 1/2SM -DZ BR OVC006 09/08 A3003 RMK AO2 DZB0758 SLP167 CIG 004V008 P0001 60002 T00890078 58014=
202101250830 SPECI KATL 250830Z 09006KT 4SM -DZ BR OVC008 09/07 A3004 RMK AO2 DZB0758 P0000 T00890072=
202101250752 METAR KATL 250752Z 08007KT 10SM OVC011 09/07 A3006 RMK AO2 RAE23DZB23E42 SLP177 P0001 T00890072=
202101250707 SPECI KATL 250707Z 10004KT 3SM -RA OVC012 10/07 A3007 RMK AO2 P0001 T01000067=
202101250652 METAR KATL 250652Z 09005KT 7SM -RA OVC013 11/06 A3007 RMK AO2 RAB50 SLP181 VIS LWR SE-SW P0000 T01060061=
202101250552 METAR KATL 250552Z 07006KT 10SM OVC014 11/06 A3007 RMK AO2 RAB10E19 SLP181 P0000 60000 T01060061 10133 20106 56011=
202101250546 SPECI KATL 250546Z 08006KT 10SM OVC014 11/06 A3007 RMK AO2 RAB10E19 P0000=
202101250452 METAR KATL 250452Z 09006KT 10SM BKN017 OVC025 12/06 A3009 RMK AO2 RAE26 SLP191 P0000 T01170056 401670039=
202101250352 METAR KATL 250352Z 12006KT 10SM -RA BKN018 OVC028 12/05 A3010 RMK AO2 RAB32 SLP194 P0000 T01170050=
202101250252 METAR KATL 250252Z 13006KT 10SM OVC018 12/04 A3011 RMK AO2 SLP197 T01220039 58009=
202101250152 METAR KATL 250152Z 16007KT 10SM BKN020 OVC030 13/04 A3013 RMK AO2 SLP204 T01280039=
202101250052 METAR KATL 250052Z 14008KT 10SM BKN019 BKN033 BKN048 13/04 A3012 RMK AO2 SLP202 T01280044=
202101250033 SPECI KATL 250033Z 14007KT 10SM BKN019 BKN033 BKN048 13/04 A3013 RMK AO2 T01280044=
202101242352 METAR KATL 242352Z 14007KT 10SM FEW030 SCT040 BKN050 13/04 A3014 RMK AO2 SLP207 T01330044 10167 20133 53005=
202101242252 METAR KATL 242252Z 14008KT 10SM FEW030 BKN045 BKN250 14/05 A3013 RMK AO2 SLP203 T01390050=
202101242152 METAR KATL 242152Z 16008KT 10SM BKN048 BKN120 BKN250 15/05 A3011 RMK AO2 SLP197 T01500050=
202101242052 METAR KATL 242052Z 15005KT 10SM FEW028 BKN080 BKN250 16/04 A3012 RMK AO2 SLP199 VIRGA SW T01610044 55019=
202101241952 METAR KATL 241952Z 13007KT 10SM SCT027 BKN250 16/03 A3012 RMK AO2 SLP198 T01560033=
202101241852 METAR KATL 241852Z 13008KT 10SM BKN027 BKN150 16/02 A3013 RMK AO2 SLP204 T01560017=
202101241841 SPECI KATL 241841Z 13008KT 10SM BKN028 14/01 A3014 RMK AO2 T01390011=
202101241752 METAR KATL 241752Z VRB06KT 10SM BKN031 13/M01 A3018 RMK AO2 SLP220 T01331011 10133 20039 58018=
202101241734 SPECI KATL 241734Z 14008KT 10SM BKN030 13/M02 A3019 RMK AO2 T01281022=
202101241704 SPECI KATL 241704Z 13006KT 10SM BKN028 BKN150 13/M02 A3021 RMK AO2 T01281022=
202101241652 METAR KATL 241652Z 12006KT 10SM SCT028 BKN150 BKN250 12/M02 A3022 RMK AO2 SLP235 T01221022=
202101241552 METAR KATL 241552Z 12006KT 10SM FEW150 SCT250 10/M03 A3025 RMK AO2 SLP246 T01001033=
202101241452 METAR KATL 241452Z 12007KT 10SM FEW200 BKN250 08/M04 A3023 RMK AO2 SLP240 T00831039 51003=
202101241352 METAR KATL 241352Z 11006KT 10SM FEW090 FEW200 SCT250 06/M03 A3023 RMK AO2 SLP240 T00611033=
202101241252 METAR KATL 241252Z 09006KT 10SM FEW090 FEW150 FEW250 04/M02 A3024 RMK AO2 SLP243 T00391017=
202101241152 METAR KATL 241152Z 10008KT 10SM FEW090 FEW150 05/M02 A3023 RMK AO2 SLP238 T00501017 10094 20050 53006=
202101241052 METAR KATL 241052Z 10009KT 10SM FEW090 FEW250 06/M01 A3020 RMK AO2 PRESFR SLP229 T00561011=
202101240952 METAR KATL 240952Z 08007KT 10SM SCT090 06/M01 A3022 RMK AO2 SLP234 T00561006=
202101240852 METAR KATL 240852Z 12005KT 10SM BKN090 BKN250 08/M01 A3021 RMK AO2 SLP229 T00781006 53003=
202101240752 METAR KATL 240752Z 11006KT 10SM BKN095 08/M01 A3020 RMK AO2 SLP226 T00831011=
202101240652 METAR KATL 240652Z 10005KT 10SM SCT090 SCT250 08/M01 A3020 RMK AO2 SLP228 T00831011=
202101240552 METAR KATL 240552Z 11004KT 10SM FEW080 BKN090 09/M01 A3020 RMK AO2 SLP227 T00941006 10122 20089 50003=
202101240452 METAR KATL 240452Z 10005KT 10SM FEW080 BKN090 09/M01 A3020 RMK AO2 SLP229 T00941006 401720017=
202101240352 METAR KATL 240352Z 13007KT 10SM BKN090 10/00 A3019 RMK AO2 SLP225 T01000000=
202101240252 METAR KATL 240252Z 00000KT 10SM FEW080 BKN095 10/M01 A3019 RMK AO2 SLP225 T01001006 51009=
202101240152 METAR KATL 240152Z 00000KT 10SM BKN100 11/M01 A3018 RMK AO2 SLP224 T01061006=
202101240052 METAR KATL 240052Z 14003KT 10SM SCT100 SCT250 11/M01 A3017 RMK AO2 SLP221 T01111011=
202101232352 METAR KATL 232352Z 14003KT 10SM FEW100 FEW250 12/M02 A3016 RMK AO2 SLP216 T01221022 10172 20122 53009=
202101232252 METAR KATL 232252Z 16004KT 10SM FEW250 14/M04 A3014 RMK AO2 SLP210 T01441039=
202101232152 METAR KATL 232152Z 00000KT 10SM FEW250 16/M05 A3013 RMK AO2 SLP205 T01611050=
202101232052 METAR KATL 232052Z 00000KT 10SM FEW250 16/M06 A3013 RMK AO2 SLP205 T01611061 55010=
202101231952 METAR KATL 231952Z 01003KT 10SM FEW250 16/M06 A3013 RMK AO2 SLP204 T01611056=
202101231852 METAR KATL 231852Z 00000KT 10SM FEW250 15/M06 A3014 RMK AO2 SLP209 T01501056=
202101231752 METAR KATL 231752Z 00000KT 10SM BKN250 13/M06 A3016 RMK AO2 SLP216 T01331056 10139 20017 58009=
202101231652 METAR KATL 231652Z 09003KT 10SM BKN250 12/M05 A3020 RMK AO2 SLP227 T01221050=
202101231552 METAR KATL 231552Z 03007KT 10SM FEW200 SCT250 10/M05 A3021 RMK AO2 SLP232 T01001050=
202101231452 METAR KATL 231452Z 35010KT 10SM SCT250 06/M04 A3019 RMK AO2 SLP229 T00611044 51021=
202101231352 METAR KATL 231352Z 33009KT 10SM FEW200 03/M03 A3016 RMK AO2 SLP219 T00331033=
202101231252 METAR KATL 231252Z 33007KT 10SM FEW150 02/M03 A3016 RMK AO2 SLP218 T00171033=
202101231152 METAR KATL 231152Z 33008KT 10SM CLR 02/M03 A3013 RMK AO2 SLP207 70001 T00171028 10056 20017 53011=
202101231052 METAR KATL 231052Z 32010KT 10SM CLR 03/M02 A3011 RMK AO2 SLP198 T00281022=
202101230952 METAR KATL 230952Z 33010KT 10SM CLR 03/M02 A3009 RMK AO2 SLP193 T00331017=
202101230852 METAR KATL 230852Z 34010KT 10SM CLR 04/M01 A3010 RMK AO2 SLP193 T00391006 53010=
202101230752 METAR KATL 230752Z 34010KT 10SM CLR 04/00 A3008 RMK AO2 SLP187 T00440000=
202101230652 METAR KATL 230652Z 32007KT 10SM CLR 05/00 A3007 RMK AO2 SLP185 T00500000=
202101230552 METAR KATL 230552Z 32009KT 10SM CLR 06/00 A3006 RMK AO2 SLP184 T00560000 10094 20056 51003=
202101230452 METAR KATL 230452Z 33007KT 10SM CLR 06/M01 A3006 RMK AO2 SLP184 T00611006 401500056=
202101230352 METAR KATL 230352Z 33006KT 10SM CLR 06/M01 A3006 RMK AO2 SLP183 T00611011=
202101230252 METAR KATL 230252Z 33007KT 10SM CLR 07/M01 A3005 RMK AO2 SLP181 T00671006 51012=
202101230152 METAR KATL 230152Z 31007KT 10SM FEW080 07/00 A3005 RMK AO2 SLP178 T00720000=
202101230052 METAR KATL 230052Z 31006KT 10SM FEW080 FEW200 08/M01 A3004 RMK AO2 SLP175 T00781006=
202101222352 METAR KATL 222352Z 31007KT 10SM FEW180 09/M01 A3002 RMK AO2 SLP167 T00941011 10150 20094 53015=
202101222252 METAR KATL 222252Z 33009KT 10SM FEW150 BKN180 12/M03 A3000 RMK AO2 SLP159 ACC NE-OHD-SW T01171028=
202101222152 METAR KATL 222152Z 34010KT 10SM FEW140 BKN180 BKN250 13/M01 A2998 RMK AO2 SLP154 T01331011=
202101222052 METAR KATL 222052Z 33007KT 10SM FEW150 SCT200 BKN250 14/M01 A2997 RMK AO2 SLP150 T01441006 55007=
202101221952 METAR KATL 221952Z 33005KT 10SM SCT140 BKN200 BKN250 14/03 A2995 RMK AO2 SLP142 ACC DSNT E SE S-SW T01390033=
202101221852 METAR KATL 221852Z 32003KT 10SM FEW060 SCT140 BKN200 BKN250 12/05 A2996 RMK AO2 SLP147 ACC DSNT NE T01170050=
202101221752 METAR KATL 221752Z 28005KT 10SM BKN055 BKN120 OVC200 09/06 A2999 RMK AO2 SLP159 60001 T00940061 10094 20072 50006=
202101221652 METAR KATL 221652Z 30007KT 10SM BKN055 BKN100 OVC200 09/06 A3002 RMK AO2 SLP169 VIRGA W-NW T00890061=
202101221552 METAR KATL 221552Z 30005KT 10SM FEW010 BKN055 BKN100 OVC200 08/06 A3002 RMK AO2 SLP167 T00830061=
202101221452 METAR KATL 221452Z 29004KT 10SM FEW008 SCT060 BKN100 BKN200 08/06 A2998 RMK AO2 SLP153 60001 T00780061 50011=
202101221352 METAR KATL 221352Z 27005KT 10SM BKN046 BKN080 BKN250 08/06 A2998 RMK AO2 SLP154 T00780061=
202101221252 METAR KATL 221252Z 27003KT 10SM BKN043 BKN080 BKN250 07/06 A2995 RMK AO2 RAB15E49 SLP145 VIRGA NW-N P0001 T00720061=
202101221152 METAR KATL 221152Z 28003KT 10SM FEW055 BKN080 OVC100 07/06 A2994 RMK AO2 RAE32 SLP142 P0001 60006 70013 T00720061 10083 20072 55000=
202101221052 METAR KATL 221052Z 30007KT 9SM -RA BKN075 OVC090 08/06 A2994 RMK AO2 SLP140 P0001 T00780061=
202101220952 METAR KATL 220952Z 33006KT 8SM -RA FEW007 OVC080 08/06 A2994 RMK AO2 SLP139 P0003 T00780061=
202101220852 METAR KATL 220852Z 32008KT 8SM -RA FEW005 BKN070 OVC090 08/07 A2994 RMK AO2 RAB15 SLP141 P0001 60001 T00780067 51004=
202101220850 SPECI KATL 220850Z 32007KT 9SM -RA FEW005 BKN070 OVC090 08/07 A2994 RMK AO2 RAB15 P0001=
202101220752 METAR KATL 220752Z 30005KT 10SM FEW080 OVC110 08/06 A2994 RMK AO2 SLP140 T00780061=
202101220652 METAR KATL 220652Z 31005KT 10SM SCT060 BKN080 OVC095 08/06 A2993 RMK AO2 SLP137 RAE40 P0000 T00830061=
202101220552 METAR KATL 220552Z 26003KT 10SM -RA FEW007 BKN070 OVC110 08/07 A2993 RMK AO2 RAB50 SLP136 P0000 60000 T00830067 10106 20083 58003=
202101220452 METAR KATL 220452Z 32006KT 10SM FEW007 BKN120 OVC200 09/07 A2994 RMK AO2 SLP140 T00890067 401170056=
202101220352 METAR KATL 220352Z 34006KT 10SM SCT007 BKN150 OVC200 09/07 A2994 RMK AO2 SLP141 T00890072=
202101220252 METAR KATL 220252Z 32004KT 10SM FEW007 SCT018 BKN150 OVC200 09/08 A2994 RMK AO2 SLP140 SCT018 V BKN T00940078 50002=
202101220152 METAR KATL 220152Z 32008KT 10SM FEW007 SCT012 OVC018 10/08 A2995 RMK AO2 SLP144 T01000083=
202101220052 METAR KATL 220052Z 32009KT 8SM FEW005 BKN012 OVC020 10/09 A2994 RMK AO2 SLP139 T01000089=
202101212352 METAR KATL 212352Z 31008KT 3SM OVC005 11/09 A2993 RMK AO2 SFC VIS 8 DZB32E51 SLP137 CIG 003V008 P0000 60002 T01060094 10117 20100 53012=
202101212252 METAR KATL 212252Z 31008KT 3SM BR OVC005 11/10 A2992 RMK AO2 SFC VIS 4 DZE01RAB01E52 SLP132 P0002 T01110100=
202101212152 METAR KATL 212152Z 30006KT 2SM -DZ BR OVC004 11/11 A2991 RMK AO2 SLP131 CIG 003V005 P0000 T01110106=
202101212116 SPECI KATL 212116Z 30008KT 2SM -DZ BR OVC004 12/11 A2991 RMK AO2 SFC VIS 3 CIG 003V005 P0000 T01170106=
202101212052 METAR KATL 212052Z 25007KT 4SM -DZ BR BKN004 OVC012 12/11 A2990 RMK AO2 SLP126 CIG 003V006 P0000 60000 T01170106 56015=
202101212036 SPECI KATL 212036Z 27008KT 4SM -DZ BR OVC004 12/11 A2990 RMK AO2 CIG 003V006 P0000 T01170106=
202101211952 METAR KATL 211952Z 28007KT 4SM -DZ BR OVC005 12/10 A2991 RMK AO2 DZB43 SLP130 CIG 004V007 P0000 T01170100=
202101211852 METAR KATL 211852Z 24006KT 10SM BKN005 OVC012 11/09 A2992 RMK AO2 SLP132 CIG 004V007 T01060089=
202101211752 METAR KATL 211752Z 26005KT 8SM BKN006 BKN012 OVC110 10/08 A2994 RMK AO2 RAE15DZB15E47 SLP141 CIG 004V008 P0001 60005 T01000083 10111 20083 58018 $=
202101211734 SPECI KATL 211734Z 25006KT 6SM -DZ BR BKN006 OVC017 09/08 A2995 RMK AO2 RAE15DZB15 CIG 004V008 P0001 T00940083=
202101211717 SPECI KATL 211717Z 29006KT 3SM -DZ BR BKN004 OVC010 09/08 A2996 RMK AO2 RAE15DZB15 CIG 003V006 P0001 T00940078=
202101211703 SPECI KATL 211703Z 31007KT 3SM -RA BR BKN006 OVC012 09/08 A2998 RMK AO2 CIG 004V008 P0001 T00940078=
202101211652 METAR KATL 211652Z 33010KT 2SM R09R/5000VP6000FT -RA BR BKN005 OVC012 09/08 A2999 RMK AO2 SLP157 CIG 003V007 P0004 T00940078=
202101211650 SPECI KATL 211650Z 33010KT 2SM R09R/5000VP6000FT -RA BR BKN005 OVC012 09/08 A2999 RMK AO2 CIG 003V007 P0003=
202101211645 SPECI KATL 211645Z 33010KT 1SM R09R/5000VP6000FT -RA BR OVC005 09/08 A2999 RMK AO2 CIG 004V007 P0003 T00940083=
202101211631 SPECI KATL 211631Z 26007KT 2SM R09R/6000VP6000FT -RA BR OVC007 10/08 A2998 RMK AO2 CIG 006V010 P0001 T01000083=
202101211555 SPECI KATL 211555Z 26008G18KT 6SM -RA BKN013 BKN022 OVC040 11/07 A2999 RMK AO2 P0000 T01060067=
202101211552 METAR KATL 211552Z 25010G18KT 6SM -RA BKN016 BKN028 OVC040 11/07 A3000 RMK AO2 RAB22 SLP159 P0000 T01060067=
202101211452 METAR KATL 211452Z 24011G20KT 10SM SCT020 BKN060 OVC100 11/04 A3000 RMK AO2 SLP159 60000 T01060039 56013=
202101211352 METAR KATL 211352Z 23008KT 10SM FEW030 BKN060 OVC075 10/03 A3000 RMK AO2 DZE50 SLP161 P0000 T01000028=
202101211322 SPECI KATL 211322Z 24007KT 10SM -DZ SCT020 BKN055 OVC075 09/03 A3001 RMK AO2 P0000 T00940028=
202101211252 METAR KATL 211252Z 24007KT 10SM -DZ BKN020 OVC055 09/03 A3002 RMK AO2 SLP167 RAB27E37DZB37 P0000 T00890028=
202101211152 METAR KATL 211152Z 24007KT 10SM BKN020 BKN027 OVC070 08/03 A3004 RMK AO2 RAE07 SLP174 P0000 60003 70003 T00830028 10083 20056 56019=
202101211052 METAR KATL 211052Z 24005KT 10SM -RA OVC065 07/02 A3004 RMK AO2 SLP174 P0000 T00720022=
202101210952 METAR KATL 210952Z 24007KT 10SM -RA SCT019 BKN033 OVC075 07/02 A3006 RMK AO2 SLP182 RAE01B45 P0000 T00670022=
202101210852 METAR KATL 210852Z 27006KT 10SM -RA BKN025 OVC033 06/03 A3009 RMK AO2 SLP192 P0001 60003 T00560033 58010=
202101210839 SPECI KATL 210839Z 28007KT 10SM -RA BKN027 OVC033 06/03 A3011 RMK AO2 P0001 T00560033=
202101210752 METAR KATL 210752Z 27008KT 10SM -RA BKN049 OVC055 06/03 A3011 RMK AO2 SLP199 P0002 T00560028=
202101210652 METAR KATL 210652Z 26010KT 10SM -RA SCT050 BKN060 OVC070 08/M01 A3011 RMK AO2 SLP199 RAB34 P0000 T00781006=
202101210552 METAR KATL 210552Z 23003KT 10SM SCT075 BKN120 OVC200 08/M02 A3012 RMK AO2 SLP203 VIRGA OHD-NW T00781022 10094 20072 58021=
202101210452 METAR KATL 210452Z 27005KT 10SM FEW130 BKN200 OVC250 08/M03 A3015 RMK AO2 SLP213 T00781028 401330067=
202101210352 METAR KATL 210352Z 30007KT 10SM BKN130 OVC200 08/M03 A3018 RMK AO2 SLP223 T00831028=
202101210252 METAR KATL 210252Z 27006KT 10SM BKN150 OVC200 08/M03 A3019 RMK AO2 SLP225 T00831028 56008=
202101210152 METAR KATL 210152Z 26004KT 10SM BKN150 OVC200 08/M03 A3019 RMK AO2 SLP229 T00831033=
202101210052 METAR KATL 210052Z 29006KT 10SM BKN200 OVC250 09/M04 A3020 RMK AO2 SLP231 T00891039=
202101202352 METAR KATL 202352Z 29006KT 10SM BKN200 OVC250 09/M04 A3021 RMK AO2 SLP234 T00941039 10133 20089 53004=
202101202252 METAR KATL 202252Z 28005KT 10SM SCT200 BKN250 11/M04 A3020 RMK AO2 SLP230 T01061039=
202101202152 METAR KATL 202152Z 28010KT 10SM FEW200 BKN250 12/M04 A3020 RMK AO2 SLP228 T01171044=
202101202052 METAR KATL 202052Z 31008KT 10SM BKN250 13/M04 A3020 RMK AO2 SLP227 T01281039 55012=
202101201952 METAR KATL 201952Z 29009KT 10SM BKN250 13/M03 A3020 RMK AO2 SLP226 T01281033=
202101201852 METAR KATL 201852Z 31010KT 10SM BKN250 12/M04 A3021 RMK AO2 SLP233 T01221039=
202101201752 METAR KATL 201752Z 32012KT 10SM BKN250 12/M03 A3024 RMK AO2 SLP240 T01171033 10117 20067 58022=
202101201652 METAR KATL 201652Z 33012G21KT 10SM FEW200 SCT250 11/M02 A3027 RMK AO2 SLP253 T01061022=
202101201552 METAR KATL 201552Z 32011KT 10SM FEW200 BKN250 09/M01 A3030 RMK AO2 SLP264 T00941006=
202101201452 METAR KATL 201452Z 33011KT 10SM FEW250 08/01 A3030 RMK AO2 SLP263 T00830006 51006=
202101201352 METAR KATL 201352Z 28009KT 10SM FEW020 FEW200 SCT250 07/03 A3030 RMK AO2 SLP262 T00720028=
202101201252 METAR KATL 201252Z 30011KT 10SM FEW020 FEW120 SCT200 SCT250 07/03 A3029 RMK AO2 SLP261 T00670033=
202101201152 METAR KATL 201152Z 29011KT 10SM FEW020 FEW075 FEW110 08/03 A3028 RMK AO2 SLP256 T00780033 10111 20078 53010=
202101201052 METAR KATL 201052Z 31014KT 10SM FEW020 SCT075 BKN120 09/04 A3027 RMK AO2 SLP250 T00890039=
202101200952 METAR KATL 200952Z 30013KT 10SM FEW020 SCT060 BKN075 10/05 A3026 RMK AO2 SLP246 T01000050=
202101200852 METAR KATL 200852Z 29010KT 10SM SCT020 BKN060 BKN080 10/06 A3025 RMK AO2 SLP245 T01000061 56006=
202101200752 METAR KATL 200752Z 30010KT 10SM SCT020 SCT029 OVC045 11/06 A3026 RMK AO2 SLP248 SCT029 V BKN T01060061=
202101200744 SPECI KATL 200744Z 30013KT 10SM FEW020 SCT029 OVC045 11/06 A3027 RMK AO2 SCT029 V BKN T01060061=
202101200652 METAR KATL 200652Z 28009KT 10SM FEW015 BKN020 OVC030 11/06 A3026 RMK AO2 SLP246 BINOVC T01110061=
202101200552 METAR KATL 200552Z 28008KT 10SM BKN017 OVC025 11/05 A3027 RMK AO2 SLP252 T01060050 10133 20106 58012=
202101200452 METAR KATL 200452Z 28007KT 10SM BKN023 OVC030 11/04 A3030 RMK AO2 SLP260 T01060039 401560011=
202101200352 METAR KATL 200352Z 27005KT 10SM OVC036 11/04 A3031 RMK AO2 SLP264 T01060039=
202101200252 METAR KATL 200252Z 24005KT 10SM BKN045 OVC070 11/04 A3031 RMK AO2 SLP266 T01110039 58003=
202101200152 METAR KATL 200152Z 27004KT 10SM FEW035 OVC048 11/04 A3032 RMK AO2 SLP271 T01110039=
202101200100 SPECI KATL 200100Z 31007KT 10SM SCT027 BKN038 OVC050 12/03 A3032 RMK AO2 T01170028=
202101200052 METAR KATL 200052Z 30008KT 10SM BKN026 OVC040 12/02 A3032 RMK AO2 SLP272 T01170022=
202101200046 SPECI KATL 200046Z 30011KT 10SM BKN026 OVC040 12/02 A3032 RMK AO2=
202101192352 METAR KATL 192352Z 29007KT 10SM BKN048 OVC060 13/M02 A3032 RMK AO2 SLP271 T01331017 10156 20128 51010=
202101192252 METAR KATL 192252Z 30007KT 10SM BKN055 BKN070 BKN200 13/M01 A3031 RMK AO2 SLP269 T01331011=
202101192152 METAR KATL 192152Z 29006KT 10SM BKN060 BKN080 BKN200 14/M01 A3030 RMK AO2 SLP265 T01441011=
202101192052 METAR KATL 192052Z 26007KT 10SM SCT065 BKN090 BKN110 BKN200 16/M03 A3029 RMK AO2 SLP259 T01561028 56013=
202101191952 METAR KATL 191952Z 27008KT 10SM SCT065 BKN110 BKN200 16/M03 A3029 RMK AO2 SLP260 T01561028=
202101191852 METAR KATL 191852Z 26008KT 210V280 10SM BKN065 BKN110 14/M03 A3030 RMK AO2 SLP264 T01441033=
202101191752 METAR KATL 191752Z 25011KT 10SM BKN065 BKN100 14/M04 A3032 RMK AO2 SLP272 ACC N-NE DSNT S T01391044 10156 20022 58012=
202101191652 METAR KATL 191652Z 27013G18KT 10SM FEW070 SCT100 14/M04 A3034 RMK AO2 SLP279 ACC DSNT W-N T01441044=
202101191552 METAR KATL 191552Z 25007KT 10SM FEW085 FEW120 12/M04 A3036 RMK AO2 SLP285 ACC DSNT NW-N T01171039=
202101191452 METAR KATL 191452Z 24008G15KT 10SM FEW080 FEW120 08/M04 A3036 RMK AO2 SLP285 T00831039 53027=
202101191352 METAR KATL 191352Z 20003KT 10SM FEW080 04/M03 A3031 RMK AO2 SLP268 T00441028=
202101191252 METAR KATL 191252Z 20003KT 10SM FEW080 FEW150 02/M04 A3031 RMK AO2 SLP271 T00221044=
202101191152 METAR KATL 191152Z 23003KT 10SM FEW090 02/M04 A3028 RMK AO2 SLP260 T00221044 10033 20011 53013=
202101191052 METAR KATL 191052Z 25003KT 10SM FEW100 02/M04 A3027 RMK AO2 SLP255 T00171039=
202101190952 METAR KATL 190952Z 28003KT 10SM CLR 02/M04 A3025 RMK AO2 SLP248 T00171039=
202101190852 METAR KATL 190852Z 00000KT 10SM CLR 02/M04 A3024 RMK AO2 SLP245 T00221044 51006=
202101190752 METAR KATL 190752Z 00000KT 10SM CLR 02/M04 A3024 RMK AO2 SLP245 T00171039=
202101190652 METAR KATL 190652Z 23003KT 10SM CLR 03/M05 A3023 RMK AO2 SLP242 T00281050=
202101190552 METAR KATL 190552Z 21004KT 10SM CLR 02/M04 A3022 RMK AO2 SLP239 T00221044 10083 20022 53009=
202101190452 METAR KATL 190452Z 00000KT 10SM FEW250 03/M04 A3021 RMK AO2 SLP235 T00331044 401280017=
202101190352 METAR KATL 190352Z 00000KT 10SM CLR 04/M04 A3020 RMK AO2 SLP232 T00391044=
202101190252 METAR KATL 190252Z 00000KT 10SM CLR 06/M06 A3020 RMK AO2 SLP230 T00561056 53012=
202101190152 METAR KATL 190152Z 00000KT 10SM CLR 06/M06 A3018 RMK AO2 SLP225 T00611061=
202101190052 METAR KATL 190052Z 27004KT 10SM CLR 07/M06 A3017 RMK AO2 SLP223 T00671056=
202101182352 METAR KATL 182352Z 27005KT 10SM CLR 08/M06 A3016 RMK AO2 SLP219 T00781061 10128 20078 53022=
202101182252 METAR KATL 182252Z 28006KT 10SM CLR 09/M07 A3014 RMK AO2 SLP210 T00941067=
202101182152 METAR KATL 182152Z 27012KT 10SM FEW070 11/M06 A3011 RMK AO2 SLP201 T01111061=
202101182052 METAR KATL 182052Z 28013KT 10SM FEW075 12/M07 A3009 RMK AO2 SLP194 T01171067 53008=
202101181952 METAR KATL 181952Z 26015G22KT 10SM FEW070 13/M07 A3008 RMK AO2 PK WND 27026/1856 SLP187 T01281067=
202101181852 METAR KATL 181852Z 27016G25KT 10SM FEW065 FEW250 12/M06 A3007 RMK AO2 PK WND 29029/1806 SLP186 T01171056=
202101181752 METAR KATL 181752Z 28013KT 10SM FEW060 FEW250 11/M04 A3007 RMK AO2 PK WND 26026/1720 SLP186 T01111044 10117 20017 58005=
202101181652 METAR KATL 181652Z 26008G18KT 10SM FEW048 10/M03 A3009 RMK AO2 SLP194 T01001033=
202101181552 METAR KATL 181552Z 29007KT 10SM CLR 08/M03 A3010 RMK AO2 SLP197 T00831033=
202101181452 METAR KATL 181452Z 28009KT 10SM CLR 06/M03 A3009 RMK AO2 SLP193 T00611033 51019=
202101181352 METAR KATL 181352Z 28009KT 10SM CLR 04/M04 A3007 RMK AO2 SLP189 T00391039=
202101181252 METAR KATL 181252Z 27007KT 10SM CLR 02/M04 A3005 RMK AO2 SLP180 T00221044=
202101181152 METAR KATL 181152Z 25006KT 10SM CLR 02/M04 A3003 RMK AO2 SLP174 T00221044 10039 20022 53019=
202101181052 METAR KATL 181052Z 26006KT 10SM CLR 02/M04 A3001 RMK AO2 SLP165 T00221044=
202101180952 METAR KATL 180952Z 27007KT 10SM CLR 03/M04 A2998 RMK AO2 SLP156 T00281044=
202101180852 METAR KATL 180852Z 26007KT 10SM CLR 03/M04 A2997 RMK AO2 SLP153 T00281039 51014=
202101180752 METAR KATL 180752Z 29010KT 10SM CLR 03/M03 A2996 RMK AO2 SLP151 T00331033=
202101180652 METAR KATL 180652Z 28010KT 10SM CLR 04/M02 A2994 RMK AO2 SLP143 T00391022=
202101180552 METAR KATL 180552Z 27007KT 10SM FEW050 04/M02 A2993 RMK AO2 SLP138 60000 T00391017 10072 20033 51002=
202101180452 METAR KATL 180452Z 31005KT 10SM FEW050 SCT060 05/M01 A2993 RMK AO2 RAB39E48 SLP138 P0000 T00501011 401060000=
202101180352 METAR KATL 180352Z 23006KT 10SM FEW065 SCT090 SCT100 06/M02 A2992 RMK AO2 SLP136 T00561022=
202101180252 METAR KATL 180252Z 22005KT 10SM FEW025 FEW060 FEW100 04/M03 A2992 RMK AO2 SLP137 T00441028 51004=
202101180152 METAR KATL 180152Z 21005KT 10SM FEW055 05/M03 A2991 RMK AO2 SLP136 T00501028=
202101180052 METAR KATL 180052Z 23006KT 10SM FEW050 FEW250 07/M03 A2991 RMK AO2 SLP136 T00671028=
202101172352 METAR KATL 172352Z 22005KT 10SM FEW050 FEW250 07/M03 A2991 RMK AO2 SLP134 T00721028 10106 20072 53008=
202101172252 METAR KATL 172252Z 23006KT 10SM FEW050 SCT250 09/M03 A2989 RMK AO2 SLP125 T00891033=
202101172152 METAR KATL 172152Z 24011KT 10SM FEW050 FEW250 10/M03 A2988 RMK AO2 SLP123 T01001033=
202101172052 METAR KATL 172052Z 24010G18KT 10SM FEW050 SCT250 10/M03 A2988 RMK AO2 SLP124 T01001033 56020=
202101171952 METAR KATL 171952Z 26008G16KT 10SM FEW048 BKN250 10/M02 A2989 RMK AO2 SLP126 T01001022=
202101171852 METAR KATL 171852Z 24008G21KT 10SM SCT048 BKN200 BKN250 09/M03 A2992 RMK AO2 SLP134 T00891028=
202101171752 METAR KATL 171752Z 25008KT 220V280 10SM SCT044 BKN200 09/M03 A2994 RMK AO2 SLP144 T00941028 10094 20000 58016=
202101171652 METAR KATL 171652Z 23009G19KT 10SM SCT045 BKN200 07/M04 A2998 RMK AO2 SLP156 T00721039=
202101171552 METAR KATL 171552Z 23008KT 10SM BKN046 BKN200 07/M03 A3000 RMK AO2 SLP164 T00671033=
202101171452 METAR KATL 171452Z 23005KT 10SM FEW130 BKN200 BKN250 04/M03 A2999 RMK AO2 SLP163 T00441028 53010=
202101171352 METAR KATL 171352Z 24004KT 10SM FEW042 BKN130 BKN200 03/M03 A2998 RMK AO2 SLP160 T00281033=
202101171252 METAR KATL 171252Z 23003KT 10SM FEW042 SCT200 01/M04 A2997 RMK AO2 SLP157 T00061039=
202101171152 METAR KATL 171152Z 23004KT 10SM FEW042 BKN220 01/M04 A2996 RMK AO2 SLP153 T00061039 10028 20006 53003=
202101171052 METAR KATL 171052Z 22004KT 10SM OVC042 02/M04 A2994 RMK AO2 SLP143 T00171039=
202101170952 METAR KATL 170952Z 24003KT 10SM OVC043 03/M04 A2995 RMK AO2 SLP146 T00281039=
202101170852 METAR KATL 170852Z 23003KT 10SM OVC044 02/M04 A2995 RMK AO2 SLP149 T00221039 50000=
202101170752 METAR KATL 170752Z 24004KT 10SM OVC044 02/M04 A2996 RMK AO2 SLP150 BINOVC T00171039=
202101170652 METAR KATL 170652Z 00000KT 10SM OVC043 02/M04 A2996 RMK AO2 SLP150 BINOVC T00171039=
202101170552 METAR KATL 170552Z 22003KT 10SM BKN043 02/M04 A2995 RMK AO2 SLP150 T00171039 10039 20006 58000=
202101170452 METAR KATL 170452Z 28005KT 10SM BKN045 01/M05 A2996 RMK AO2 SLP153 T00111050 400720000=
202101170352 METAR KATL 170352Z 29003KT 10SM FEW045 02/M05 A2997 RMK AO2 SLP153 T00171050=
202101170252 METAR KATL 170252Z 28003KT 10SM CLR 02/M05 A2996 RMK AO2 SLP151 T00171050 53005=
202101170152 METAR KATL 170152Z 32005KT 10SM FEW050 02/M05 A2995 RMK AO2 SLP148 T00221050=
202101170052 METAR KATL 170052Z 33004KT 10SM FEW050 03/M05 A2994 RMK AO2 SLP147 T00281050=
202101162352 METAR KATL 162352Z 29004KT 10SM SCT050 03/M05 A2994 RMK AO2 SLP146 T00331050 10072 20033 51022=
202101162252 METAR KATL 162252Z 32007KT 10SM BKN050 05/M05 A2993 RMK AO2 SLP142 T00501050=
202101162152 METAR KATL 162152Z 31014G22KT 10SM BKN047 06/M06 A2990 RMK AO2 SLP131 T00611056=
202101162052 METAR KATL 162052Z 27012KT 10SM BKN045 06/M05 A2987 RMK AO2 PK WND 32026/1958 SLP122 T00611050 53002=
202101161952 METAR KATL 161952Z 30015G24KT 10SM BKN045 07/M05 A2986 RMK AO2 PK WND 30028/1858 SLP116 T00671050=
202101161852 METAR KATL 161852Z 29017G31KT 10SM SCT042 BKN050 06/M05 A2986 RMK AO2 PK WND 27031/1849 SLP115 T00561050=
202101161752 METAR KATL 161752Z 30016G24KT 10SM BKN038 BKN050 05/M04 A2987 RMK AO2 PK WND 30026/1707 SLP119 T00501044 10061 20000 51012=
202101161652 METAR KATL 161652Z 27017G24KT 10SM BKN036 BKN046 05/M04 A2986 RMK AO2 PK WND 27029/1626 SLP115 T00501044=
202101161552 METAR KATL 161552Z 29016G26KT 10SM BKN033 BKN080 04/M04 A2986 RMK AO2 PK WND 25028/1542 SLP116 T00441039=
202101161452 METAR KATL 161452Z 26011G24KT 10SM FEW050 BKN090 03/M05 A2983 RMK AO2 PK WND 25026/1358 SLP107 VIRGA E T00281050 53026=
202101161352 METAR KATL 161352Z 26013G21KT 10SM FEW070 BKN085 02/M06 A2979 RMK AO2 SLP093 T00171061=
202101161252 METAR KATL 161252Z 25008KT 10SM FEW070 01/M07 A2977 RMK AO2 SLP086 T00061067=
202101161152 METAR KATL 161152Z 24006KT 10SM FEW070 01/M07 A2975 RMK AO2 SLP080 T00061067 10039 20000 53001=
202101161052 METAR KATL 161052Z 23006KT 10SM FEW080 00/M07 A2974 RMK AO2 SLP077 T00001072=
202101160952 METAR KATL 160952Z 22005KT 10SM FEW090 01/M07 A2974 RMK AO2 SLP074 T00061072=
202101160852 METAR KATL 160852Z 25005KT 10SM FEW090 02/M08 A2975 RMK AO2 SLP077 T00171078 56002=
202101160752 METAR KATL 160752Z 24004KT 10SM CLR 03/M08 A2975 RMK AO2 SLP077 T00281078=
202101160652 METAR KATL 160652Z 25006KT 10SM CLR 03/M08 A2975 RMK AO2 SLP076 T00281083=
202101160552 METAR KATL 160552Z 27008KT 10SM CLR 04/M09 A2976 RMK AO2 SLP078 T00391089 10094 20033 58002=
202101160452 METAR KATL 160452Z 27008KT 10SM CLR 04/M09 A2976 RMK AO2 SLP082 T00391089 401330039=
202101160352 METAR KATL 160352Z 26006KT 10SM CLR 05/M09 A2976 RMK AO2 SLP082 T00501094=
202101160252 METAR KATL 160252Z 28008KT 10SM CLR 06/M09 A2976 RMK AO2 SLP082 T00561094 51016=
202101160152 METAR KATL 160152Z 29009KT 10SM FEW090 07/M11 A2975 RMK AO2 SLP078 T00671106=
202101160052 METAR KATL 160052Z 28011KT 10SM FEW090 08/M11 A2973 RMK AO2 SLP071 T00781106=
202101152352 METAR KATL 152352Z 26006KT 10SM SCT090 09/M09 A2971 RMK AO2 SLP062 T00941089 10133 20094 53012=
202101152252 METAR KATL 152252Z 25008KT 10SM SCT090 10/M09 A2969 RMK AO2 SLP056 T01001089=
202101152152 METAR KATL 152152Z 26011G23KT 10SM FEW085 12/M11 A2968 RMK AO2 SLP051 T01171106=
202101152052 METAR KATL 152052Z 24010G26KT 10SM FEW080 12/M11 A2968 RMK AO2 PK WND 27026/2044 SLP050 T01221106 56017=
202101151952 METAR KATL 151952Z 25013G23KT 10SM FEW070 13/M10 A2969 RMK AO2 PK WND 28027/1928 SLP052 T01281100=
202101151852 METAR KATL 151852Z 27015G21KT 10SM FEW060 FEW150 13/M08 A2970 RMK AO2 SLP057 T01281078=
202101151752 METAR KATL 151752Z 27014G23KT 10SM FEW150 12/M06 A2973 RMK AO2 SLP068 T01221056 10122 20072 58016=
202101151652 METAR KATL 151652Z 27009G16KT 10SM SCT150 11/M03 A2977 RMK AO2 SLP082 T01111028=
202101151552 METAR KATL 151552Z 29010KT 10SM FEW034 SCT150 09/00 A2979 RMK AO2 SLP088 T00940000=
202101151452 METAR KATL 151452Z 31009KT 10SM FEW022 FEW032 BKN150 08/00 A2978 RMK AO2 SLP086 T00780000 51017=
202101151352 METAR KATL 151352Z 32015G22KT 10SM FEW018 SCT025 BKN032 08/01 A2976 RMK AO2 SLP080 T00780006=
202101151339 SPECI KATL 151339Z 30013KT 10SM FEW019 SCT025 BKN030 08/02 A2976 RMK AO2 T00780022=
202101151252 METAR KATL 151252Z 28008KT 10SM SCT011 OVC020 08/06 A2974 RMK AO2 SLP074 T00830056=
202101151243 SPECI KATL 151243Z 28005KT 10SM SCT011 OVC020 08/06 A2973 RMK AO2 T00830056=
202101151152 METAR KATL 151152Z 27009KT 10SM BKN010 OVC018 09/07 A2973 RMK AO2 SLP067 CIG 009V012 T00940067 10094 20067 55007=
202101151150 SPECI KATL 151150Z 26006KT 10SM SCT010 OVC016 09/07 A2973 RMK AO2=
202101151052 METAR KATL 151052Z 19004KT 10SM BKN008 OVC012 08/06 A2972 RMK AO2 SLP066 T00830061=
202101151029 SPECI KATL 151029Z 20003KT 9SM OVC009 08/06 A2972 RMK AO2 T00780061=
202101150952 METAR KATL 150952Z 19005KT 10SM OVC010 08/06 A2973 RMK AO2 SLP067 T00780056=
202101150852 METAR KATL 150852Z 21004KT 10SM OVC012 08/04 A2975 RMK AO2 SLP073 T00780044 56013=
202101150814 SPECI KATL 150814Z 20006KT 10SM BKN010 OVC018 08/04 A2975 RMK AO2 T00780039=
202101150752 METAR KATL 150752Z 22007KT 10SM SCT018 BKN025 BKN070 08/04 A2976 RMK AO2 SLP078 T00780039=
202101150750 SPECI KATL 150750Z 21007KT 10SM SCT018 BKN025 BKN070 08/04 A2976 RMK AO2=
202101150652 METAR KATL 150652Z 22008KT 10SM SCT018 SCT250 07/02 A2979 RMK AO2 SLP087 T00720017=
202101150552 METAR KATL 150552Z 21009KT 10SM FEW200 SCT250 07/01 A2980 RMK AO2 SLP093 T00670006 10106 20067 58010=
202101150452 METAR KATL 150452Z 21006KT 10SM SCT200 BKN250 07/01 A2982 RMK AO2 SLP101 T00670006 401391011=
202101150352 METAR KATL 150352Z 23006KT 10SM FEW200 SCT250 07/01 A2984 RMK AO2 SLP109 T00670006=
202101150252 METAR KATL 150252Z 22005KT 10SM SCT250 08/01 A2983 RMK AO2 SLP107 T00780006 55001=
202101150152 METAR KATL 150152Z 21005KT 10SM FEW250 08/00 A2983 RMK AO2 SLP106 T00830000=
202101150052 METAR KATL 150052Z 20003KT 10SM FEW250 09/M01 A2982 RMK AO2 SLP103 T00891006=
202101142352 METAR KATL 142352Z 23005KT 10SM FEW250 11/M01 A2984 RMK AO2 SLP108 T01061011 10139 20100 53002=
202101142252 METAR KATL 142252Z 20007KT 10SM FEW250 12/M01 A2982 RMK AO2 SLP103 T01171006=
202101142152 METAR KATL 142152Z 21010G15KT 10SM FEW200 FEW250 13/M01 A2982 RMK AO2 SLP101 T01281011=
202101142052 METAR KATL 142052Z 24008G15KT 10SM FEW200 FEW250 13/M02 A2983 RMK AO2 SLP105 T01331022 56034=
202101141952 METAR KATL 141952Z 20011G18KT 10SM FEW250 13/M01 A2985 RMK AO2 SLP112 T01331011=
202101141931 SPECI KATL 141931Z 21007KT 190V250 10SM FEW200 14/M01 A2985 RMK AO2 PRESFR T01391006=
202101141852 METAR KATL 141852Z 23010G17KT 10SM FEW200 13/M01 A2989 RMK AO2 SLP126 T01331011=
202101141752 METAR KATL 141752Z 25009KT 10SM FEW200 12/M01 A2993 RMK AO2 SLP140 T01171006 10122 21011 58025=
202101141652 METAR KATL 141652Z 26008KT 10SM CLR 11/01 A2997 RMK AO2 SLP154 T01110006=
202101141552 METAR KATL 141552Z 22006KT 10SM FEW250 08/00 A3000 RMK AO2 SLP164 T00780000=
202101141452 METAR KATL 141452Z 29006KT 10SM FEW250 05/M01 A3001 RMK AO2 SLP168 T00501006 53009=
202101141352 METAR KATL 141352Z 00000KT 10SM FEW250 02/M01 A2999 RMK AO2 SLP163 T00171011=
202101141252 METAR KATL 141252Z 29004KT 10SM FEW250 M01/M03 A2998 RMK AO2 SLP159 T10111028=
202101141152 METAR KATL 141152Z 29005KT 10SM CLR M01/M03 A2998 RMK AO2 SLP160 T10061028 10017 21006 53007=
202101141052 METAR KATL 141052Z 28005KT 10SM CLR 00/M03 A2997 RMK AO2 SLP154 T00001028=
202101140952 METAR KATL 140952Z 28006KT 10SM CLR 00/M03 A2996 RMK AO2 SLP152 T00001028=
202101140852 METAR KATL 140852Z 26005KT 10SM CLR 01/M02 A2996 RMK AO2 SLP151 T00061022 58005=
202101140752 METAR KATL 140752Z 27006KT 10SM FEW250 01/M02 A2997 RMK AO2 SLP154 T00111022=
202101140652 METAR KATL 140652Z 27004KT 10SM FEW250 01/M02 A2997 RMK AO2 SLP155 T00111022=
202101140552 METAR KATL 140552Z 27004KT 10SM CLR 02/M03 A2998 RMK AO2 SLP155 T00171028 10067 20011 58007=
202101140452 METAR KATL 140452Z 29005KT 10SM CLR 02/M03 A3000 RMK AO2 SLP163 T00221028 401001011=
202101140352 METAR KATL 140352Z 29007KT 10SM CLR 03/M03 A3000 RMK AO2 SLP165 T00281028=
202101140252 METAR KATL 140252Z 28007KT 10SM FEW100 03/M04 A3000 RMK AO2 SLP164 T00331039 55006=
202101140152 METAR KATL 140152Z 29007KT 10SM FEW100 04/M04 A2999 RMK AO2 SLP164 T00441044=
202101140052 METAR KATL 140052Z 26006KT 10SM BKN100 BKN200 06/M04 A3001 RMK AO2 SLP168 T00611044=
202101132352 METAR KATL 132352Z 26003KT 10SM FEW100 FEW200 06/M03 A3001 RMK AO2 SLP171 T00611028 10100 20056 58010=
202101132252 METAR KATL 132252Z 28007KT 10SM FEW080 SCT100 BKN200 07/M03 A3003 RMK AO2 SLP175 VIRGA DSNT NW-NE ACC DSNT NE-SE T00721033=
202101132152 METAR KATL 132152Z 29008KT 10SM FEW080 BKN100 BKN200 BKN250 09/M03 A3004 RMK AO2 SLP178 VIRGA N-NE DSNT N-NE E W-NW ACC OHD-ALQDS T00891028=
202101132052 METAR KATL 132052Z 25010KT 10SM FEW085 BKN100 BKN200 BKN250 09/M04 A3004 RMK AO2 SLP180 VIRGA DSNT NW-NE ACC OHD-ALQDS T00941039 55014=
202101131952 METAR KATL 131952Z 26004KT 10SM FEW080 BKN100 BKN200 BKN250 09/M03 A3002 RMK AO2 SLP170 VIRGA DSNT N-NE E W-NW ACC OHD-ALQDS T00941033=
202101131852 METAR KATL 131852Z 29007KT 10SM FEW080 SCT110 SCT200 BKN250 09/M04 A3005 RMK AO2 SLP180 VIRGA S DSNT NW-NE ACC OHD-ALQDS T00891044=
202101131752 METAR KATL 131752Z 27010KT 10SM FEW080 FEW120 SCT200 SCT250 10/M04 A3009 RMK AO2 SLP193 VIRGA NE DSNT SW-NW ACC DSNT SW-NW T01001039 10100 21011 58020=
202101131652 METAR KATL 131652Z 32007KT 10SM FEW075 FEW130 FEW200 SCT250 07/M04 A3011 RMK AO2 SLP202 VIRGA NW ACC NW DSNT W MDT CU DSNT W T00671039=
202101131552 METAR KATL 131552Z 30008KT 10SM FEW120 FEW200 SCT250 05/M03 A3015 RMK AO2 SLP215 ACC SW-W T00501033=
202101131452 METAR KATL 131452Z 33007KT 10SM FEW130 SCT200 SCT250 03/M03 A3015 RMK AO2 SLP217 VIRGA DSNT S W ACC DSNT S W T00281033 58004=
202101131352 METAR KATL 131352Z 34009KT 7SM FEW120 SCT250 01/M02 A3015 RMK AO2 SLP218 T00061022=
202101131252 METAR KATL 131252Z 31009KT 5SM BR FEW005 FEW200 M01/M03 A3016 RMK AO2 SLP223 T10111028=
202101131152 METAR KATL 131152Z 30007KT 5SM BR FEW005 FEW200 M01/M03 A3016 RMK AO2 SLP221 VIS LWR NE-E T10111028 10011 21011 50002=
202101131052 METAR KATL 131052Z 29007KT 5SM BR FEW005 M01/M02 A3016 RMK AO2 SLP221 T10111022=
202101130952 METAR KATL 130952Z 27005KT 5SM BR FEW005 M01/M02 A3015 RMK AO2 SLP219 T10061022=
202101130852 METAR KATL 130852Z 29007KT 5SM BR FEW005 M01/M02 A3015 RMK AO2 SLP218 T10061017 58012=
202101130752 METAR KATL 130752Z 27005KT 5SM BR FEW005 00/M02 A3017 RMK AO2 SLP224 T00001017=
202101130652 METAR KATL 130652Z 28006KT 6SM BR FEW005 00/M01 A3018 RMK AO2 SLP228 T00001011=
202101130552 METAR KATL 130552Z 29007KT 7SM FEW005 01/M01 A3019 RMK AO2 SLP229 T00061006 10050 20006 58009=
202101130452 METAR KATL 130452Z 28006KT 9SM SCT007 01/00 A3020 RMK AO2 SLP234 T00110000 400610011=
202101130352 METAR KATL 130352Z 29008KT 10SM FEW010 02/00 A3021 RMK AO2 SLP237 T00220000=
202101130252 METAR KATL 130252Z 28006KT 10SM FEW010 03/01 A3022 RMK AO2 SLP239 T00280006 53001=
202101130219 SPECI KATL 130219Z 28006KT 10SM SCT011 04/01 A3021 RMK AO2 T00390011=
202101130152 METAR KATL 130152Z 30009KT 10SM BKN011 04/02 A3021 RMK AO2 SLP237 T00440017=
202101130052 METAR KATL 130052Z 29008KT 10SM BKN012 05/02 A3021 RMK AO2 SLP237 T00500017=
202101122352 METAR KATL 122352Z 32007KT 10SM OVC013 05/02 A3021 RMK AO2 SLP236 BINOVC T00500017 10061 20050 53004=
202101122252 METAR KATL 122252Z 29007KT 10SM OVC015 06/02 A3020 RMK AO2 SLP233 T00560022=
202101122152 METAR KATL 122152Z 29008KT 10SM OVC016 06/02 A3020 RMK AO2 SLP233 BINOVC T00610022=
202101122129 SPECI KATL 122129Z 30009KT 10SM OVC015 06/02 A3020 RMK AO2 CIG 013V017 BINOVC T00610022=
202101122052 METAR KATL 122052Z 31008KT 10SM OVC013 06/03 A3020 RMK AO2 SLP233 CIG 011V015 T00610028 56008=
202101121952 METAR KATL 121952Z 32011KT 10SM OVC013 06/02 A3021 RMK AO2 SLP234 CIG 011V015 T00610022=
202101121852 METAR KATL 121852Z 32011KT 10SM OVC011 06/02 A3022 RMK AO2 SLP238 T00560022=
202101121752 METAR KATL 121752Z 33011KT 10SM OVC011 06/03 A3023 RMK AO2 SLP242 T00560028 10056 20044 58008=
202101121652 METAR KATL 121652Z 31011KT 10SM OVC011 06/03 A3026 RMK AO2 SLP250 T00560028=
202101121552 METAR KATL 121552Z 32008KT 9SM OVC010 06/03 A3026 RMK AO2 SLP253 CIG 009V011 T00560028=
202101121508 SPECI KATL 121508Z 32011KT 8SM OVC010 06/03 A3026 RMK AO2 CIG 009V011 T00560028=
202101121452 METAR KATL 121452Z 31010KT 7SM OVC008 05/03 A3025 RMK AO2 SLP251 CIG 007V010 T00500033 53012=
202101121352 METAR KATL 121352Z 31008KT 7SM OVC008 05/03 A3024 RMK AO2 SLP245 CIG 007V010 T00500033=
202101121252 METAR KATL 121252Z 33012G16KT 6SM BR BKN006 BKN014 04/03 A3022 RMK AO2 SLP239 CIG 005V008 BKN006 V SCT T00440033=
202101121234 SPECI KATL 121234Z 33005KT 6SM BR SCT005 SCT014 05/03 A3021 RMK AO2 T00500033=
202101121212 SPECI KATL 121212Z 33006KT 6SM BR BKN005 OVC015 05/04 A3022 RMK AO2 CIG 004V007 BKN005 V SCT T00500039=
202101121201 SPECI KATL 121201Z 32008KT 9SM SCT005 OVC015 06/04 A3022 RMK AO2 T00560039=
202101121152 METAR KATL 121152Z 32007KT 6SM BR SCT005 OVC014 06/04 A3022 RMK AO2 SLP238 SCT005 V BKN 60000 70022 T00560039 10056 20050 53008=
202101121147 SPECI KATL 121147Z 32007KT 3SM BR SCT005 OVC014 05/04 A3022 RMK AO2 SFC VIS 6 SCT005 V BKN=
202101121052 METAR KATL 121052Z 33006KT 3SM BR OVC004 06/04 A3020 RMK AO2 SFC VIS 4 SLP232 CIG 003V005 T00560044=
202101120952 METAR KATL 120952Z 32004KT 3SM BR OVC004 06/04 A3020 RMK AO2 SFC VIS 4 SLP231 T00560039=
202101120852 METAR KATL 120852Z 36003KT 3SM BR BKN004 OVC034 05/04 A3019 RMK AO2 SFC VIS 4 DZE41 SLP229 BKN004 V SCT P0000 60000 T00500039 51005=
202101120841 SPECI KATL 120841Z 04004KT 3SM BR SCT004 BKN018 OVC037 05/04 A3019 RMK AO2 SFC VIS 4 DZE41 SCT004 V BKN P0000 T00500039=
202101120820 SPECI KATL 120820Z 01007KT 2 1/2SM -DZ BR SCT005 SCT011 OVC018 05/04 A3019 RMK AO2 TWR VIS 3 SCT005 V BKN P0000 T00500039=
202101120752 METAR KATL 120752Z 35008KT 3SM -DZ BR BKN005 OVC010 05/04 A3019 RMK AO2 SLP229 P0000 T00500039=
202101120705 SPECI KATL 120705Z 01007KT 3SM -DZ BR BKN006 OVC011 05/04 A3019 RMK AO2 P0000 T00500039=
202101120652 METAR KATL 120652Z 03007KT 3SM -DZ BR SCT007 BKN011 OVC016 05/04 A3018 RMK AO2 SFC VIS 4 SLP224 CIG 010V014 P0000 T00500039=
202101120636 SPECI KATL 120636Z 03007KT 3SM -DZ BR SCT007 BKN012 OVC016 06/04 A3018 RMK AO2 SFC VIS 4 CIG 010V014 P0000 T00560039=
202101120552 METAR KATL 120552Z 03006KT 3SM -DZ BR BKN008 OVC013 05/04 A3018 RMK AO2 SFC VIS 5 SLP225 DZB45 BKN008 V SCT P0000 P0000 60006 T00500039 10056 20050 58003=
202101120452 METAR KATL 120452Z 04006KT 3SM BR BKN009 OVC020 05/03 A3019 RMK AO2 SFC VIS 5 SLP228 RAE48 CIG 007V011 P0001 T00500033 400720044=
202101120352 METAR KATL 120352Z 03008KT 3SM -RA BR BKN008 OVC018 05/03 A3020 RMK AO2 SFC VIS 4 SLP233 CIG 006V010 P0001 T00500033=
202101120252 METAR KATL 120252Z 04011KT 3SM -RA BR OVC006 05/03 A3019 RMK AO2 SFC VIS 4 SLP228 CIG 004V008 P0002 60004 T00500033 51005=
202101120152 METAR KATL 120152Z 05008KT 3SM -RA BR OVC008 05/03 A3019 RMK AO2 SLP228 CIG 006V010 P0002 T00500033=
202101120052 METAR KATL 120052Z 04011KT 3SM -RA BR OVC008 05/03 A3019 RMK AO2 SFC VIS 5 SLP229 CIG 006V010 P0000 T00500033=
202101112352 METAR KATL 112352Z 03010KT 3SM -RA BR BKN008 OVC015 06/04 A3018 RMK AO2 SLP224 CIG 006V010 P0001 60011 T00560039 10072 20056 53000=
202101112252 METAR KATL 112252Z 07009KT 3SM -RA BR BKN008 BKN019 OVC038 06/04 A3016 RMK AO2 SFC VIS 4 DZE2157RAB2157 SLP219 P0003 T00560039=
202101112218 SPECI KATL 112218Z 03010KT 3SM -RA BR BKN008 BKN018 OVC026 06/04 A3016 RMK AO2 SFC VIS 4 DZE2157RAB2157 P0002 T00610039=
202101112152 METAR KATL 112152Z 04008KT 7SM -DZ BKN008 BKN020 OVC040 06/04 A3017 RMK AO2 RAE33DZB33 SLP221 CIG 007V010 P0001 T00610044=
202101112118 SPECI KATL 112118Z 05008KT 6SM -RA BR BKN008 BKN018 OVC033 07/04 A3017 RMK AO2 CIG 007V010 P0001 T00670044=
202101112052 METAR KATL 112052Z 05005KT 5SM -RA BR FEW008 BKN018 OVC038 07/04 A3017 RMK AO2 SLP223 P0001 60006 T00670044 55013=
202101112000 SPECI KATL 112000Z 08006KT 8SM -RA FEW009 BKN018 OVC045 07/04 A3017 RMK AO2 P0000 T00670039=
202101111952 METAR KATL 111952Z 07007KT 6SM -RA FEW010 SCT030 OVC055 07/04 A3017 RMK AO2 SLP220 P0001 T00670039=
202101111852 METAR KATL 111852Z 09008KT 7SM -RA FEW010 BKN046 OVC075 07/04 A3017 RMK AO2 RAE22B50 SLP223 P0004 T00670039=
202101111752 METAR KATL 111752Z 15005KT 6SM -RA FEW012 OVC050 06/03 A3021 RMK AO2 SLP236 P0002 60005 T00610028 10061 20044 56029=
202101111652 METAR KATL 111652Z 12006KT 7SM -RA BKN055 OVC080 06/02 A3024 RMK AO2 SLP246 P0003 T00610022=
202101111552 METAR KATL 111552Z 07005KT 8SM -RA FEW030 BKN060 OVC075 06/01 A3026 RMK AO2 RAB37 SLP253 P0000 T00560011=
202101111538 SPECI KATL 111538Z 09009KT 10SM -RA FEW028 BKN055 OVC075 06/01 A3025 RMK AO2 RAB37 PRESFR P0000 T00560006=
202101111452 METAR KATL 111452Z 10005KT 10SM FEW028 BKN055 OVC100 06/00 A3030 RMK AO2 SLP267 VIRGA OHD-ALQDS T00560000 53022=
202101111427 SPECI KATL 111427Z 12003KT 10SM SCT030 BKN075 OVC120 06/00 A3031 RMK AO2 PRESRR VIRGA OHD-ALQDS T00560000=
202101111352 METAR KATL 111352Z 06007KT 9SM FEW065 SCT080 OVC095 06/00 A3027 RMK AO2 SLP256 VIRGA SW-NW-NE T00560000=
202101111252 METAR KATL 111252Z 07007KT 9SM FEW080 BKN100 OVC150 04/01 A3024 RMK AO2 SLP244 BINOVC T00440006=
202101111152 METAR KATL 111152Z 10005KT 10SM FEW080 BKN100 OVC150 04/01 A3024 RMK AO2 SLP244 T00440006 10056 20044 58010=
202101111052 METAR KATL 111052Z 08007KT 10SM FEW080 BKN100 OVC130 04/01 A3025 RMK AO2 SLP248 T00440006=
202101110952 METAR KATL 110952Z 04004KT 10SM FEW080 OVC110 05/00 A3026 RMK AO2 SLP251 T00500000=
202101110852 METAR KATL 110852Z 00000KT 10SM BKN110 OVC150 05/01 A3027 RMK AO2 SLP254 T00500006 50004=
202101110752 METAR KATL 110752Z 00000KT 10SM BKN120 BKN150 05/01 A3029 RMK AO2 SLP261 T00500006=
202101110652 METAR KATL 110652Z 00000KT 10SM FEW100 BKN130 BKN150 05/00 A3027 RMK AO2 SLP255 T00500000=
202101110552 METAR KATL 110552Z 09006KT 10SM BKN130 BKN160 06/01 A3025 RMK AO2 SLP250 T00560006 10067 20050 50002=
202101110452 METAR KATL 110452Z 13003KT 10SM BKN130 BKN170 06/00 A3027 RMK AO2 SLP255 T00560000 400891022=
202101110352 METAR KATL 110352Z 17003KT 10SM BKN120 BKN170 06/00 A3027 RMK AO2 SLP255 T00610000=
202101110252 METAR KATL 110252Z 10004KT 10SM BKN130 BKN170 06/00 A3025 RMK AO2 SLP249 T00560000 58003=
202101110152 METAR KATL 110152Z 10007KT 10SM SCT110 BKN150 07/00 A3025 RMK AO2 SLP252 T00670000=
202101110052 METAR KATL 110052Z 00000KT 10SM BKN140 BKN160 06/00 A3026 RMK AO2 SLP256 T00610000=
202101102352 METAR KATL 102352Z 00000KT 10SM BKN160 BKN250 07/00 A3026 RMK AO2 SLP255 T00670000 10089 20067 53003=
202101102252 METAR KATL 102252Z 00000KT 10SM BKN160 BKN250 07/00 A3024 RMK AO2 SLP248 T00720000=
202101102152 METAR KATL 102152Z 13004KT 10SM FEW200 FEW250 09/M01 A3024 RMK AO2 SLP248 T00891011=
202101102052 METAR KATL 102052Z 13005KT 10SM SCT200 SCT250 09/M01 A3025 RMK AO2 SLP251 T00891011 56010=
202101101952 METAR KATL 101952Z 13005KT 10SM OVC200 08/M02 A3025 RMK AO2 SLP251 T00781017=
202101101852 METAR KATL 101852Z 11004KT 10SM OVC200 08/M02 A3026 RMK AO2 SLP254 T00781022=
202101101752 METAR KATL 101752Z 00000KT 10SM OVC250 08/M03 A3028 RMK AO2 SLP262 T00781028 10078 21022 58004=
202101101652 METAR KATL 101652Z VRB03KT 10SM BKN250 06/M03 A3031 RMK AO2 SLP272 T00611033=
202101101552 METAR KATL 101552Z 11007KT 10SM BKN250 05/M03 A3032 RMK AO2 SLP276 T00501033=
202101101452 METAR KATL 101452Z 06006KT 10SM SCT250 03/M03 A3030 RMK AO2 SLP268 T00281033 53013=
202101101352 METAR KATL 101352Z 34003KT 10SM FEW200 00/M04 A3028 RMK AO2 SLP265 T00001039=
202101101252 METAR KATL 101252Z 01006KT 9SM FEW200 M02/M05 A3026 RMK AO2 SLP257 T10171050=
202101101152 METAR KATL 101152Z 34005KT 10SM CLR M02/M05 A3026 RMK AO2 SLP256 T10221050 11006 21022 51011=
202101101052 METAR KATL 101052Z 34006KT 10SM CLR M02/M05 A3024 RMK AO2 SLP251 T10221050=
202101100952 METAR KATL 100952Z 33006KT 10SM CLR M02/M05 A3024 RMK AO2 SLP251 T10171050=
202101100852 METAR KATL 100852Z 34007KT 10SM SCT200 M01/M05 A3022 RMK AO2 SLP243 T10111050 50001=
202101100752 METAR KATL 100752Z 33007KT 10SM FEW200 M01/M05 A3023 RMK AO2 SLP246 T10111050=
202101100652 METAR KATL 100652Z 32007KT 10SM FEW020 SCT200 M01/M05 A3023 RMK AO2 SLP245 T10111050=
202101100552 METAR KATL 100552Z 32009KT 10SM FEW020 M01/M05 A3022 RMK AO2 SLP242 T10111050 10017 21011 51008=
202101100452 METAR KATL 100452Z 31008KT 10SM FEW020 M01/M05 A3021 RMK AO2 SLP239 T10061050 400331006=
202101100352 METAR KATL 100352Z 32012KT 10SM FEW021 00/M05 A3021 RMK AO2 SLP239 T00001050=
202101100252 METAR KATL 100252Z 32009KT 10SM FEW021 00/M05 A3019 RMK AO2 SLP234 T00001050 50006=
202101100222 SPECI KATL 100222Z 33012G21KT 10SM SCT021 01/M04 A3020 RMK AO2 T00061044=
202101100152 METAR KATL 100152Z 33011G20KT 10SM BKN020 01/M04 A3020 RMK AO2 SLP235 T00061044=
202101100052 METAR KATL 100052Z 32010KT 10SM BKN020 BKN025 02/M03 A3019 RMK AO2 SLP232 T00171033=
202101092352 METAR KATL 092352Z 33011G17KT 10SM BKN021 BKN025 02/M03 A3018 RMK AO2 SLP226 T00171033 10033 20017 51019=
202101092252 METAR KATL 092252Z 33012G17KT 10SM BKN021 BKN025 02/M03 A3016 RMK AO2 SLP220 T00221028=
202101092152 METAR KATL 092152Z 30013G22KT 10SM BKN022 02/M03 A3014 RMK AO2 SLP214 T00221028=
202101092052 METAR KATL 092052Z 33014G19KT 10SM BKN021 03/M02 A3012 RMK AO2 SLP206 T00331022 53003=
202101091952 METAR KATL 091952Z 30014G21KT 10SM BKN019 03/M02 A3011 RMK AO2 SLP204 T00281022=
202101091852 METAR KATL 091852Z 31015KT 10SM OVC017 03/M02 A3011 RMK AO2 SLP204 BINOVC T00281022=
202101091752 METAR KATL 091752Z 33014G19KT 10SM OVC016 03/M02 A3011 RMK AO2 SLP204 T00281017 10028 20017 58007=
202101091652 METAR KATL 091652Z 32011KT 10SM OVC015 03/M02 A3013 RMK AO2 SLP210 T00281017=
202101091552 METAR KATL 091552Z 31015G22KT 10SM OVC016 02/M02 A3014 RMK AO2 SLP215 T00221017=
202101091452 METAR KATL 091452Z 30015G20KT 10SM OVC015 02/M02 A3013 RMK AO2 SLP211 T00221017 52021=
202101091352 METAR KATL 091352Z 32015G20KT 10SM OVC015 02/M02 A3011 RMK AO2 SLP203 BINOVC T00221017=
202101091252 METAR KATL 091252Z 32014KT 10SM OVC015 02/M02 A3009 RMK AO2 SLP197 T00221017=
202101091152 METAR KATL 091152Z 33012G21KT 10SM OVC015 02/M02 A3007 RMK AO2 SLP188 70005 T00221017 10028 20022 53008=
202101091052 METAR KATL 091052Z 33014G21KT 10SM OVC015 02/M01 A3005 RMK AO2 SLP182 T00221011=
202101090952 METAR KATL 090952Z 32017G25KT 10SM OVC015 02/M01 A3004 RMK AO2 PK WND 31027/0939 SLP179 T00221011=
202101090852 METAR KATL 090852Z 32015G23KT 10SM OVC017 03/M02 A3004 RMK AO2 PK WND 32026/0830 SLP180 T00281017 53006=
202101090752 METAR KATL 090752Z 32009KT 10SM OVC016 03/M01 A3003 RMK AO2 SLP176 T00281011=
202101090652 METAR KATL 090652Z 32015G21KT 10SM OVC016 03/M01 A3003 RMK AO2 SLP174 BINOVC T00281011=
202101090552 METAR KATL 090552Z 32013G21KT 10SM OVC016 03/M01 A3003 RMK AO2 SLP174 T00281011 10039 20028 54000=
202101090452 METAR KATL 090452Z 31012G23KT 10SM OVC016 03/M01 A3002 RMK AO2 PK WND 32027/0406 SLP172 T00281006 400560028=
202101090352 METAR KATL 090352Z 33015G23KT 10SM BKN014 OVC020 03/M01 A3003 RMK AO2 SLP177 T00281006=
202101090252 METAR KATL 090252Z 33011G19KT 10SM BKN013 OVC020 03/00 A3003 RMK AO2 PK WND 32026/0217 SLP174 T00280000 51009=
202101090152 METAR KATL 090152Z 33015G22KT 10SM BKN014 OVC020 03/00 A3002 RMK AO2 SLP174 T00330000=
202101090052 METAR KATL 090052Z 31016G23KT 10SM BKN012 OVC020 03/01 A3001 RMK AO2 SLP169 T00330006=
202101090017 SPECI KATL 090017Z 30014KT 10SM SCT012 BKN018 OVC025 04/01 A3000 RMK AO2 T00390006=
202101082352 METAR KATL 082352Z 31018G25KT 10SM BKN012 OVC020 04/01 A3000 RMK AO2 SLP164 60002 T00390011 10056 20039 53022=
202101082252 METAR KATL 082252Z 33013G22KT 10SM BKN013 OVC020 04/02 A2997 RMK AO2 SLP154 T00440017=
202101082152 METAR KATL 082152Z 30014KT 10SM OVC012 04/02 A2995 RMK AO2 SLP146 CIG 010V014 T00440022=
202101082052 METAR KATL 082052Z 31012KT 10SM BKN012 OVC020 05/03 A2993 RMK AO2 SLP141 CIG 010V014 60002 T00500028 53001=
202101081952 METAR KATL 081952Z 33010KT 10SM BKN011 BKN016 OVC033 06/03 A2992 RMK AO2 RAE30 SLP136 CIG 010V014 P0000 T00560033=
202101081852 METAR KATL 081852Z 34008KT 9SM -RA SCT008 BKN014 OVC033 06/03 A2992 RMK AO2 SLP138 CIG 012V016 P0002 T00560033=
202101081801 SPECI KATL 081801Z 33008KT 4SM -RA BR BKN008 OVC014 05/03 A2993 RMK AO2 CIG 006V010 P0000 T00500033=
202101081752 METAR KATL 081752Z 32006KT 4SM -RA BR SCT007 BKN012 OVC018 05/03 A2993 RMK AO2 DZE32RAB32 SLP141 CIG 010V014 P0003 60003 T00500033 10050 20039 58008=
202101081734 SPECI KATL 081734Z 34008KT 4SM -RA BR SCT007 BKN012 OVC020 04/03 A2994 RMK AO2 DZE32RAB32 CIG 010V014 P0001 T00440028=
202101081652 METAR KATL 081652Z 33007KT 7SM -DZ BKN010 OVC020 05/03 A2995 RMK AO2 DZB49 SLP147 CIG 009V012 P0000 T00500028=
202101081552 METAR KATL 081552Z 02007KT 7SM BKN007 OVC014 04/03 A2996 RMK AO2 DZE1454B16E49 SLP151 CIG 005V009 P0000 T00440028=
202101081452 METAR KATL 081452Z 02009KT 6SM -DZ BR BKN008 OVC018 04/02 A2995 RMK AO2 SLP149 CIG 006V010 P0000 60000 T00440022 51011=
202101081444 SPECI KATL 081444Z 03010KT 6SM -DZ BR BKN008 OVC014 04/03 A2995 RMK AO2 CIG 006V010 P0000 T00440028=
202101081352 METAR KATL 081352Z 34005KT 1SM R09R/P6000FT -DZ BR BKN006 OVC013 04/03 A2994 RMK AO2 SFC VIS 2 1/2 DZE24B45 SLP145 CIG 004V008 PCPN VRY LGT P0000 T00440028=
202101081346 SPECI KATL 081346Z 35005KT 1SM R09R/P6000FT -DZ BR BKN007 OVC013 04/03 A2994 RMK AO2 SFC VIS 2 1/2 DZE24B45 CIG 005V009 P0000=
202101081331 SPECI KATL 081331Z 05005KT 2SM BR BKN008 OVC013 04/02 A2994 RMK AO2 SFC VIS 3 DZE24 CIG 005V008 P0000 T00440022=
202101081252 METAR KATL 081252Z 02008KT 3SM -DZ BR BKN005 OVC010 04/03 A2992 RMK AO2 SFC VIS 4 SLP137 PCPN VRY LGT P0000 T00440028=
202101081152 METAR KATL 081152Z 04006KT 3SM -DZ BR BKN006 OVC010 04/03 A2990 RMK AO2 SFC VIS 4 SLP130 DZB28 P0000 60008 70027 T00440028 10044 20044 53003=
202101081052 METAR KATL 081052Z 03007KT 5SM BR BKN008 OVC013 04/03 A2989 RMK AO2 DZE51 SLP128 CIG 006V010 P0000 T00440028=
202101080952 METAR KATL 080952Z 05008KT 5SM -DZ BR BKN006 OVC011 04/03 A2988 RMK AO2 SLP124 CIG 004V008 PCPN VRY LGT P0000 T00440028=
202101080852 METAR KATL 080852Z 03007KT 5SM -DZ BR BKN007 OVC015 04/03 A2989 RMK AO2 SLP127 CIG 005V009 P0000 60008 T00440033 51005=
202101080752 METAR KATL 080752Z 04006KT 7SM -DZ BKN008 OVC018 04/03 A2989 RMK AO2 SLP125 RAE45DZB45 CIG 006V010 P0001 T00440028=
202101080652 METAR KATL 080652Z 04007KT 5SM -RA BR BKN006 OVC010 04/03 A2989 RMK AO2 SLP125 CIG 004V008 P0007 T00440033=
202101080552 METAR KATL 080552Z 08012KT 3SM -RA BR OVC005 04/03 A2988 RMK AO2 SLP121 CIG 004V007 P0002 60003 T00440033 10044 20039 58014=
202101080452 METAR KATL 080452Z 09013KT 3SM -RA BR OVC006 04/03 A2989 RMK AO2 RAB01 SLP127 CIG 004V007 P0001 T00440033 400780022=
202101080352 METAR KATL 080352Z 09011KT 10SM BKN007 OVC012 04/03 A2991 RMK AO2 SLP134 T00440033=
202101080252 METAR KATL 080252Z 10014G21KT 10SM BKN008 OVC013 04/03 A2992 RMK AO2 RAB07E22 SLP136 P0000 60000 T00440028 58010=
202101080152 METAR KATL 080152Z 08008G19KT 10SM BKN008 BKN013 OVC025 04/02 A2993 RMK AO2 SLP141 T00440022=
202101080052 METAR KATL 080052Z 08015G25KT 10SM BKN011 BKN022 OVC065 04/02 A2994 RMK AO2 RAB37E46 SLP144 CIG 008V013 P0000 T00440022=
202101072352 METAR KATL 072352Z 09018KT 10SM BKN011 BKN025 OVC070 04/02 A2995 RMK AO2 SLP147 60016 T00390022 10078 20039 55012=
202101072316 SPECI KATL 072316Z 09012KT 10SM SCT011 BKN025 OVC070 04/02 A2996 RMK AO2 T00390022=
202101072252 METAR KATL 072252Z 08015KT 10SM FEW009 BKN032 BKN070 BKN150 04/02 A2994 RMK AO2 PK WND 06026/2218 RAE17 SLP143 P0001 T00440017=
202101072152 METAR KATL 072152Z 08019KT 6SM -RA BR FEW008 SCT046 BKN065 OVC130 04/02 A2995 RMK AO2 PK WND 06026/2145 SLP150 P0009 T00440022=
202101072052 METAR KATL 072052Z 04014KT 5SM RA FEW016 SCT026 OVC038 05/01 A2998 RMK AO2 RAB05 SLP159 P0006 60006 T00500011 58010=
202101072028 SPECI KATL 072028Z 04006KT 4SM -RA SCT018 BKN028 OVC045 06/00 A3000 RMK AO2 RAB05 P0001 T00560000=
202101071952 METAR KATL 071952Z 08005KT 10SM SCT046 BKN060 OVC075 07/M02 A3002 RMK AO2 PRESRR SLP170 VIRGA OHD-ALQDS T00721017=
202101071932 SPECI KATL 071932Z 02010KT 10SM SCT048 BKN060 OVC075 08/M02 A2999 RMK AO2 PRESFR VIRGA OHD-ALQDS T00781017=
202101071905 SPECI KATL 071905Z 11005KT 10SM BKN065 OVC090 08/M03 A3003 RMK AO2 PRESFR VIRGA OHD-ALQDS T00781028=
202101071852 METAR KATL 071852Z 19005KT 10SM SCT070 BKN095 OVC140 08/M03 A3008 RMK AO2 PRESRR SLP189 VIRGA OHD-ALQDS T00781028=
202101071809 SPECI KATL 071809Z 10003KT 10SM BKN110 BKN150 OVC200 07/M02 A3007 RMK AO2 PRESRR VIRGA OHD-ALQDS T00721017=
202101071752 METAR KATL 071752Z 08014KT 10SM SCT100 BKN150 BKN200 08/M02 A3001 RMK AO2 SLP167 VIRGA OHD-ALQDS T00781017 10078 20028 58028=
202101071728 SPECI KATL 071728Z 09014KT 10SM SCT120 BKN150 BKN200 07/M02 A3001 RMK AO2 PRESFR VIRGA OHD-ALQDS T00721017=
202101071713 SPECI KATL 071713Z 09013KT 10SM SCT120 BKN150 BKN200 07/M02 A3005 RMK AO2 VIRGA OHD-ALQDS T00721017=
202101071652 METAR KATL 071652Z 11010KT 10SM SCT120 BKN150 BKN200 BKN250 08/M02 A3010 RMK AO2 SLP196 VIRGA SE-SW-NW-N T00781017=
202101071552 METAR KATL 071552Z 10009G15KT 10SM SCT150 BKN200 BKN250 07/M01 A3013 RMK AO2 SLP205 VIRGA SW W-N ACC DSNT NE E T00721011=
202101071452 METAR KATL 071452Z 09013KT 10SM SCT140 BKN180 BKN250 04/M02 A3010 RMK AO2 SLP197 VIRGA SW-NW DSNT NE ACC SW-NW T00441017 51003=
202101071352 METAR KATL 071352Z 09011KT 10SM SCT150 BKN180 BKN220 04/M02 A3009 RMK AO2 SLP193 VIRGA OHD & ALQDS T00391017=
202101071252 METAR KATL 071252Z 11007KT 10SM BKN190 BKN250 04/M02 A3012 RMK AO2 SLP204 T00391017=
202101071152 METAR KATL 071152Z 09011KT 10SM BKN180 BKN250 03/M01 A3009 RMK AO2 SLP194 T00281011 10061 20022 58009=
202101071052 METAR KATL 071052Z 10005KT 10SM FEW200 BKN250 03/M01 A3013 RMK AO2 SLP207 T00281011=
202101070952 METAR KATL 070952Z 11004KT 10SM FEW120 SCT250 03/M01 A3012 RMK AO2 SLP203 T00331011=
202101070852 METAR KATL 070852Z 12005KT 10SM FEW180 SCT250 04/M01 A3012 RMK AO2 SLP201 T00441011 58010=
202101070752 METAR KATL 070752Z 11007KT 10SM FEW180 SCT250 05/M01 A3012 RMK AO2 SLP204 T00501006=
202101070652 METAR KATL 070652Z 13004KT 10SM FEW180 BKN250 06/M01 A3015 RMK AO2 SLP211 T00561006=
202101070552 METAR KATL 070552Z 09003KT 10SM FEW150 BKN200 OVC250 06/M01 A3015 RMK AO2 SLP212 T00611006 10089 20061 58001=
202101070452 METAR KATL 070452Z 00000KT 10SM BKN150 BKN200 OVC250 07/M01 A3016 RMK AO2 SLP217 T00671006 401330000=
202101070352 METAR KATL 070352Z 00000KT 10SM BKN150 BKN200 OVC250 07/M01 A3015 RMK AO2 SLP215 T00721006=
202101070252 METAR KATL 070252Z 00000KT 10SM BKN150 BKN200 BKN250 07/M01 A3015 RMK AO2 SLP215 T00671011 50000=
202101070152 METAR KATL 070152Z 00000KT 10SM SCT180 BKN250 08/M03 A3017 RMK AO2 SLP220 T00831028=
202101070052 METAR KATL 070052Z 00000KT 10SM SCT200 BKN250 08/M02 A3016 RMK AO2 SLP220 T00781022=
202101062352 METAR KATL 062352Z 16003KT 10SM BKN200 BKN250 09/M02 A3015 RMK AO2 SLP216 T00891022 10133 20089 51009=
202101062252 METAR KATL 062252Z 20003KT 10SM BKN200 BKN250 10/M03 A3014 RMK AO2 SLP212 T01001028=
202101062152 METAR KATL 062152Z 00000KT 10SM FEW180 BKN200 BKN250 12/M04 A3014 RMK AO2 SLP210 T01171039=
202101062052 METAR KATL 062052Z 10005KT 10SM FEW170 BKN200 BKN250 13/M04 A3012 RMK AO2 SLP205 T01281039 56012=
202101061952 METAR KATL 061952Z 00000KT 10SM BKN200 BKN250 13/M05 A3014 RMK AO2 SLP209 T01281050=
202101061852 METAR KATL 061852Z 00000KT 10SM SCT200 BKN250 11/M04 A3014 RMK AO2 SLP210 T01111044=
202101061752 METAR KATL 061752Z 12004KT 10SM BKN200 BKN250 10/M04 A3016 RMK AO2 SLP217 T01001039 10100 20000 58021=
202101061652 METAR KATL 061652Z 14003KT 10SM BKN200 BKN250 09/M04 A3020 RMK AO2 SLP229 T00941039=
202101061552 METAR KATL 061552Z 00000KT 10SM BKN200 BKN250 07/M02 A3022 RMK AO2 SLP237 T00721017=
202101061452 METAR KATL 061452Z 33004KT 10SM BKN200 BKN250 05/M01 A3022 RMK AO2 SLP240 T00501011 53016=
202101061352 METAR KATL 061352Z 34005KT 10SM SCT200 SCT250 02/M02 A3021 RMK AO2 SLP234 T00221017=
202101061252 METAR KATL 061252Z 33006KT 10SM FEW200 SCT250 00/M02 A3019 RMK AO2 SLP229 T00001022=
202101061152 METAR KATL 061152Z 33006KT 10SM FEW250 01/M02 A3018 RMK AO2 SLP223 T00111022 10039 20006 53012=
202101061052 METAR KATL 061052Z 32006KT 10SM FEW250 01/M02 A3016 RMK AO2 SLP217 T00111017=
202101060952 METAR KATL 060952Z 33007KT 10SM SCT250 02/M02 A3014 RMK AO2 SLP210 T00171017=
202101060852 METAR KATL 060852Z 31007KT 10SM SCT250 02/M02 A3014 RMK AO2 SLP209 T00221017 58000=
202101060752 METAR KATL 060752Z 33007KT 10SM SCT250 02/M02 A3014 RMK AO2 SLP210 T00221017=
202101060652 METAR KATL 060652Z 33008KT 10SM FEW250 03/M01 A3014 RMK AO2 SLP209 T00331011=
202101060552 METAR KATL 060552Z 33009KT 10SM CLR 04/M01 A3014 RMK AO2 SLP209 T00391011 10094 20039 53005=
202101060452 METAR KATL 060452Z 33011KT 10SM CLR 05/M01 A3014 RMK AO2 SLP207 T00501011 401440050=
202101060352 METAR KATL 060352Z 33010KT 10SM CLR 06/M01 A3013 RMK AO2 SLP205 T00611011=
202101060252 METAR KATL 060252Z 33006KT 10SM CLR 07/01 A3012 RMK AO2 SLP204 T00670006 51013=
202101060152 METAR KATL 060152Z 33007KT 10SM CLR 08/01 A3011 RMK AO2 SLP200 T00830006=
202101060052 METAR KATL 060052Z 30007KT 10SM CLR 08/01 A3010 RMK AO2 SLP195 T00830011=
202101052352 METAR KATL 052352Z 30007KT 10SM CLR 09/01 A3008 RMK AO2 SLP190 T00940011 10144 20089 51013=
202101052252 METAR KATL 052252Z 32009KT 10SM CLR 11/01 A3007 RMK AO2 SLP187 T01060006=
202101052152 METAR KATL 052152Z 31012KT 10SM FEW044 12/01 A3006 RMK AO2 SLP181 T01220006=
202101052052 METAR KATL 052052Z 31015G21KT 10SM FEW045 FEW150 13/01 A3004 RMK AO2 SLP174 T01280011 53008=
202101051952 METAR KATL 051952Z 32013G20KT 10SM SCT042 13/02 A3003 RMK AO2 SLP168 T01330017=
202101051852 METAR KATL 051852Z 30012KT 10SM SCT040 13/02 A3002 RMK AO2 PK WND 33026/1830 SLP165 T01280022=
202101051752 METAR KATL 051752Z 30016G22KT 10SM SCT038 13/03 A3002 RMK AO2 SLP166 T01280028 10128 20067 56002=
202101051652 METAR KATL 051652Z 32010G19KT 10SM SCT038 13/04 A3002 RMK AO2 SLP166 T01280039=
202101051552 METAR KATL 051552Z 31009KT 10SM FEW024 12/04 A3002 RMK AO2 SLP168 T01170044=
202101051452 METAR KATL 051452Z 30012KT 10SM FEW018 09/05 A3003 RMK AO2 SLP169 T00940050 51019=
202101051352 METAR KATL 051352Z 30010KT 10SM CLR 08/05 A3001 RMK AO2 SLP164 T00780050=
202101051252 METAR KATL 051252Z 29009KT 10SM FEW017 FEW120 07/04 A2999 RMK AO2 SLP159 T00670044=
202101051152 METAR KATL 051152Z 29010KT 10SM FEW017 FEW120 07/04 A2997 RMK AO2 SLP150 T00670039 10100 20061 53003=
202101051052 METAR KATL 051052Z 29008KT 10SM FEW120 07/03 A2995 RMK AO2 SLP142 T00670028=
202101050952 METAR KATL 050952Z 27006KT 10SM FEW025 SCT120 07/03 A2995 RMK AO2 SLP141 T00720028=
202101050852 METAR KATL 050852Z 27008KT 10SM FEW025 BKN120 08/02 A2996 RMK AO2 SLP145 T00830017 58004=
202101050752 METAR KATL 050752Z 26007KT 10SM FEW037 SCT110 08/01 A2997 RMK AO2 SLP148 T00830011=
202101050652 METAR KATL 050652Z 23006KT 10SM SCT037 BKN049 BKN110 09/01 A2997 RMK AO2 SLP148 T00940011=
202101050552 METAR KATL 050552Z 24006KT 10SM FEW035 SCT060 BKN110 10/01 A2997 RMK AO2 SLP150 T01000011 10111 20089 58009=
202101050452 METAR KATL 050452Z 23006KT 10SM SCT060 BKN120 09/01 A2999 RMK AO2 SLP156 T00890011 401500011=
202101050352 METAR KATL 050352Z 24005KT 10SM FEW060 SCT120 09/01 A3000 RMK AO2 SLP163 T00940011=
202101050252 METAR KATL 050252Z 24005KT 10SM BKN060 09/02 A3000 RMK AO2 SLP162 T00890017 58005=
202101050152 METAR KATL 050152Z 23005KT 10SM BKN055 BKN200 10/02 A3001 RMK AO2 SLP167 T01000017=
202101050052 METAR KATL 050052Z 22005KT 10SM FEW150 SCT200 SCT250 10/01 A3001 RMK AO2 SLP166 T01000011=
202101042352 METAR KATL 042352Z 21003KT 10SM BKN150 BKN200 BKN250 11/01 A3002 RMK AO2 SLP169 T01110011 10150 20111 50001=
202101042252 METAR KATL 042252Z 24003KT 10SM SCT150 BKN200 BKN250 12/01 A3002 RMK AO2 SLP171 T01220006=
202101042152 METAR KATL 042152Z 27007KT 10SM FEW150 FEW200 SCT250 14/00 A3002 RMK AO2 SLP168 T01390000=
202101042052 METAR KATL 042052Z 26006KT 10SM FEW200 FEW250 15/00 A3001 RMK AO2 SLP166 T01500000 56015=
202101041952 METAR KATL 041952Z 27008KT 10SM FEW200 BKN250 14/01 A3002 RMK AO2 SLP168 T01440006=
202101041852 METAR KATL 041852Z 30006KT 10SM FEW150 SCT250 13/01 A3003 RMK AO2 SLP170 T01330006=
202101041752 METAR KATL 041752Z 28007KT 250V310 10SM FEW150 SCT250 12/01 A3006 RMK AO2 SLP183 T01220006 10122 20011 58023=
202101041652 METAR KATL 041652Z 31009KT 10SM CLR 11/01 A3010 RMK AO2 SLP197 T01060006=
202101041552 METAR KATL 041552Z 31007KT 10SM CLR 08/01 A3013 RMK AO2 SLP207 T00830006=
202101041452 METAR KATL 041452Z 32008KT 10SM CLR 06/01 A3013 RMK AO2 SLP209 T00560006 51012=
202101041352 METAR KATL 041352Z 30005KT 10SM CLR 03/00 A3012 RMK AO2 SLP205 T00330000=
202101041252 METAR KATL 041252Z 30005KT 10SM CLR 01/M01 A3011 RMK AO2 SLP202 T00111011=
202101041152 METAR KATL 041152Z 31008KT 10SM CLR 01/M01 A3009 RMK AO2 SLP197 T00111011 10033 20011 53011=
202101041052 METAR KATL 041052Z 31006KT 10SM CLR 01/M01 A3008 RMK AO2 SLP190 T00111011=
202101040952 METAR KATL 040952Z 31007KT 10SM FEW250 02/M01 A3006 RMK AO2 SLP185 T00171006=
202101040852 METAR KATL 040852Z 31006KT 10SM FEW250 02/M01 A3006 RMK AO2 SLP184 T00221006 58000=
202101040752 METAR KATL 040752Z 31005KT 10SM FEW250 02/M01 A3006 RMK AO2 SLP183 T00221006=
202101040652 METAR KATL 040652Z 31006KT 10SM FEW250 03/M01 A3007 RMK AO2 SLP186 T00281006=
202101040552 METAR KATL 040552Z 00000KT 10SM FEW250 03/00 A3006 RMK AO2 SLP184 T00330000 10067 20028 55000=
202101040452 METAR KATL 040452Z 29004KT 10SM SCT250 03/00 A3005 RMK AO2 SLP181 T00330000 401220033=
202101040352 METAR KATL 040352Z 30006KT 10SM BKN250 04/01 A3006 RMK AO2 SLP183 T00440006=
202101040252 METAR KATL 040252Z 29006KT 10SM BKN250 04/01 A3006 RMK AO2 SLP184 T00440006 58002=
202101040152 METAR KATL 040152Z 28004KT 10SM SCT200 BKN250 05/00 A3006 RMK AO2 SLP186 T00500000=
202101040052 METAR KATL 040052Z 32005KT 10SM SCT200 SCT250 05/01 A3006 RMK AO2 SLP186 T00500006=
202101032352 METAR KATL 032352Z 32006KT 10SM SCT200 SCT250 07/00 A3007 RMK AO2 SLP186 T00670000 10106 20061 51006=
202101032252 METAR KATL 032252Z 33006KT 10SM SCT200 BKN250 07/01 A3006 RMK AO2 SLP184 T00720006=
202101032152 METAR KATL 032152Z 31012KT 10SM FEW028 SCT200 BKN250 08/00 A3006 RMK AO2 SLP183 T00830000=
202101032052 METAR KATL 032052Z 30013KT 10SM FEW032 SCT200 BKN250 09/01 A3005 RMK AO2 SLP178 T00940006 55002=
202101031952 METAR KATL 031952Z 29010G17KT 10SM FEW032 BKN250 09/01 A3003 RMK AO2 SLP171 T00940011=
202101031852 METAR KATL 031852Z 33013G18KT 10SM FEW035 SCT250 10/01 A3003 RMK AO2 SLP172 T01000011=
202101031752 METAR KATL 031752Z 32014G20KT 10SM SCT028 BKN250 09/01 A3005 RMK AO2 SLP178 T00940011 10094 20050 58012=
202101031745 SPECI KATL 031745Z 32011KT 10SM SCT028 BKN250 09/01 A3005 RMK AO2 T00940011=
202101031652 METAR KATL 031652Z 32008KT 10SM BKN026 BKN250 07/01 A3008 RMK AO2 SLP186 T00720006=
202101031552 METAR KATL 031552Z 31011KT 10SM BKN023 07/01 A3009 RMK AO2 SLP192 T00670006=
202101031452 METAR KATL 031452Z 29013G19KT 10SM BKN022 06/01 A3009 RMK AO2 SLP190 T00610006 51017=
202101031352 METAR KATL 031352Z 30010KT 10SM BKN021 05/00 A3008 RMK AO2 SLP186 T00500000=
202101031252 METAR KATL 031252Z 30018G24KT 10SM OVC019 05/00 A3006 RMK AO2 SLP180 BINOVC T00500000=
202101031152 METAR KATL 031152Z 28014G22KT 10SM OVC018 06/01 A3004 RMK AO2 SLP172 T00560011 10117 20056 53016=
202101031052 METAR KATL 031052Z 29008KT 10SM BKN017 06/02 A3002 RMK AO2 SLP167 T00610022=
202101030952 METAR KATL 030952Z 29010KT 10SM BKN017 07/03 A3000 RMK AO2 SLP157 T00720033=
202101030852 METAR KATL 030852Z 28009KT 10SM BKN016 08/04 A2999 RMK AO2 SLP155 T00830044 51015=
202101030805 SPECI KATL 030805Z 29012G17KT 10SM BKN016 09/06 A2998 RMK AO2 BKN016 V SCT T00890056=
202101030752 METAR KATL 030752Z 28009KT 10SM SCT016 09/06 A2998 RMK AO2 SLP150 T00890056=
202101030652 METAR KATL 030652Z 28010KT 10SM FEW015 FEW100 10/06 A2996 RMK AO2 SLP143 T01000061=
202101030552 METAR KATL 030552Z 27008KT 10SM SCT012 12/09 A2994 RMK AO2 SLP138 T01170094 10156 20117 55005=
202101030452 METAR KATL 030452Z 24004KT 10SM FEW100 13/11 A2994 RMK AO2 SLP136 T01280106 401780122=
202101030352 METAR KATL 030352Z 26007KT 10SM SCT055 BKN100 14/11 A2996 RMK AO2 SLP143 T01390111=
202101030252 METAR KATL 030252Z 24006KT 10SM FEW070 BKN100 14/12 A2996 RMK AO2 SLP143 T01440117 58002=
202101030152 METAR KATL 030152Z 22004KT 10SM SCT085 BKN095 14/12 A2997 RMK AO2 SLP146 T01440122=
202101030052 METAR KATL 030052Z 22005KT 10SM BKN080 BKN090 15/12 A2997 RMK AO2 SLP146 T01500117=
202101022352 METAR KATL 022352Z 18006KT 10SM BKN100 BKN150 BKN250 16/12 A2996 RMK AO2 SLP145 T01560117 10178 20156 55003=
202101022252 METAR KATL 022252Z 17005KT 10SM BKN100 BKN120 BKN150 BKN250 16/12 A2996 RMK AO2 SLP141 T01610117=
202101022152 METAR KATL 022152Z 16006KT 10SM SCT100 BKN200 BKN250 17/11 A2996 RMK AO2 SLP142 T01670111=
202101022052 METAR KATL 022052Z 19005KT 10SM SCT150 BKN250 17/12 A2997 RMK AO2 SLP146 T01720117 56016=
202101021952 METAR KATL 021952Z 14004KT 10SM SCT200 BKN250 18/12 A2998 RMK AO2 SLP149 T01780122=
202101021852 METAR KATL 021852Z 22005KT 10SM FEW020 BKN200 BKN250 17/12 A3001 RMK AO2 SLP158 T01670117=
202101021752 METAR KATL 021752Z 19004KT 10SM BKN200 BKN250 16/12 A3002 RMK AO2 SLP162 T01610117 10161 20122 58020=
202101021652 METAR KATL 021652Z 18004KT 10SM FEW014 BKN200 BKN250 16/12 A3007 RMK AO2 SLP179 T01560117=
202101021552 METAR KATL 021552Z 19006KT 10SM SCT012 BKN200 BKN250 14/12 A3009 RMK AO2 SLP185 T01440117=
202101021523 SPECI KATL 021523Z 23004KT 10SM SCT011 BKN200 BKN250 15/12 A3008 RMK AO2 T01500117=
202101021452 METAR KATL 021452Z 30003KT 10SM BKN011 BKN200 14/11 A3008 RMK AO2 SLP185 T01390111 53017=
202101021352 METAR KATL 021352Z 28003KT 10SM BKN012 BKN200 BKN250 13/12 A3007 RMK AO2 SLP179 BKN012 V SCT T01330117=
202101021252 METAR KATL 021252Z 28003KT 10SM FEW007 BKN011 BKN250 13/11 A3004 RMK AO2 SLP170 BKN011 V SCT T01280111=
202101021223 SPECI KATL 021223Z 25003KT 10SM FEW007 BKN012 13/11 A3004 RMK AO2 BKN012 V SCT T01280111=
202101021152 METAR KATL 021152Z 28005KT 10SM FEW005 SCT013 12/11 A3003 RMK AO2 SLP167 70117 T01220111 10167 20122 56000=
202101021148 SPECI KATL 021148Z 29005KT 10SM FEW005 SCT013 13/11 A3003 RMK AO2=
202101021052 METAR KATL 021052Z 00000KT 10SM FEW004 SCT009 BKN013 BKN200 13/12 A3003 RMK AO2 SLP167 CIG 011V015 T01330122=
202101021049 SPECI KATL 021049Z 26003KT 10SM FEW004 SCT009 BKN013 BKN200 13/12 A3003 RMK AO2 CIG 011V015=
202101020952 METAR KATL 020952Z 25003KT 8SM FEW005 BKN009 BKN200 14/13 A3003 RMK AO2 SLP165 BKN009 V SCT T01390128=
202101020941 SPECI KATL 020941Z 24003KT 8SM FEW005 BKN009 14/13 A3003 RMK AO2 BKN009 V SCT T01390128=
202101020852 METAR KATL 020852Z 22004KT 10SM FEW007 SCT011 SCT100 SCT200 14/13 A3003 RMK AO2 SLP167 SCT011 V BKN T01440133 55000=
202101020825 SPECI KATL 020825Z 25005KT 10SM FEW007 SCT011 SCT100 SCT200 14/13 A3003 RMK AO2 T01440133=
202101020752 METAR KATL 020752Z 23004KT 10SM FEW005 BKN012 BKN100 BKN200 15/14 A3003 RMK AO2 SLP167 CIG 010V014 BKN012 V SCT T01500139=
202101020740 SPECI KATL 020740Z 22004KT 10SM FEW005 BKN011 BKN100 BKN200 15/14 A3004 RMK AO2 BKN011 V SCT T01500139=
202101020652 METAR KATL 020652Z 23005KT 10SM FEW007 SCT100 BKN200 16/14 A3003 RMK AO2 SLP165 T01560139=
202101020552 METAR KATL 020552Z 23008KT 10SM FEW008 SCT013 SCT110 BKN200 16/15 A3003 RMK AO2 SLP166 SCT013 V BKN T01610150 10183 20161 51006=
202101020452 METAR KATL 020452Z 20005KT 10SM FEW007 SCT110 BKN200 17/16 A3003 RMK AO2 SLP164 T01670156 402000133=
202101020352 METAR KATL 020352Z 20006KT 10SM FEW007 SCT011 BKN110 OVC200 17/16 A3003 RMK AO2 SLP164 SCT011 V BKN T01720156=
202101020252 METAR KATL 020252Z 21005KT 10SM FEW007 SCT012 BKN120 OVC200 17/16 A3001 RMK AO2 SLP160 SCT012 V BKN T01720161 53010=
202101020152 METAR KATL 020152Z 19009KT 10SM SCT007 BKN013 BKN120 BKN200 18/16 A3000 RMK AO2 SLP155 T01780161=
202101020052 METAR KATL 020052Z 19009KT 10SM SCT007 BKN012 BKN120 BKN200 18/17 A2999 RMK AO2 SLP152 T01830167=
202101012352 METAR KATL 012352Z 20005KT 10SM SCT008 BKN013 BKN120 BKN200 18/17 A2998 RMK AO2 SLP149 60012 T01830172 10200 20183 53003=
202101012252 METAR KATL 012252Z 19009KT 10SM BKN009 BKN070 BKN110 OVC150 18/17 A2997 RMK AO2 RAE03 SLP145 P0000 T01830167=
202101012245 SPECI KATL 012245Z 19008KT 10SM BKN009 BKN070 BKN110 OVC150 18/17 A2996 RMK AO2 RAE03 P0000 T01830167=
202101012152 METAR KATL 012152Z 19009KT 10SM -RA SCT008 SCT065 BKN110 OVC150 18/17 A2997 RMK AO2 SLP145 P0002 T01830172=
202101012131 SPECI KATL 012131Z 19008KT 9SM -RA SCT008 SCT065 OVC100 19/17 A2997 RMK AO2 P0002 T01890172=
202101012052 METAR KATL 012052Z 19009KT 5SM -RA BR BKN007 OVC012 19/17 A2997 RMK AO2 SLP147 CIG 005V008 P0004 60010 T01890172 55003=
202101011952 METAR KATL 011952Z 18010KT 9SM -RA OVC006 18/17 A2997 RMK AO2 RAE20B45 SLP144 CIG 005V008 P0002 T01830172=
202101011927 SPECI KATL 011927Z 18009KT 10SM BKN008 BKN070 BKN100 OVC140 19/17 A2997 RMK AO2 RAE20 CIG 007V010 P0002 T01890172=
202101011852 METAR KATL 011852Z 20007G18KT 5SM RA BR FEW009 SCT055 BKN080 OVC130 19/17 A2997 RMK AO2 SLP146 P0004 T01890172=
202101011804 SPECI KATL 011804Z 18009KT 10SM -RA FEW007 SCT026 BKN075 OVC130 19/18 A2998 RMK AO2 P0000 T01940183=
202101011752 METAR KATL 011752Z 19009KT 8SM -RA FEW006 BKN024CB OVC075 19/18 A2998 RMK AO2 SLP150 CB NE-SE MOV NE P0041 60105 T01940183 10194 20156 58018=
202101011749 SPECI KATL 011749Z 19010KT 6SM R09R/3000VP6000FT -RA BR SCT006 BKN022CB OVC060 19/18 A2999 RMK AO2 CB NE-SE MOV NE P0041=
202101011738 SPECI KATL 011738Z 19011G18KT 1 1/2SM R09R/4500VP6000FT +RA BR BKN006 OVC014CB 19/18 A3000 RMK AO2 CB NE-OHD-SW MOV NE P0021 T01940183=
202101011734 SPECI KATL 011734Z 19012G18KT 1SM R09R/4500VP6000FT RA BR BKN006 OVC014CB 19/18 A3001 RMK AO2 CB NE-OHD-SW MOV NE P0011 T01940183=
202101011652 METAR KATL 011652Z 16009G17KT 3SM RA BR BKN006 OVC014 19/18 A3001 RMK AO2 SLP158 CIG 004V008 P0012 T01940183=
202101011645 SPECI KATL 011645Z 17010G19KT 2 1/2SM RA BR BKN008 OVC012 19/18 A3001 RMK AO2 P0009 T01940178=
202101011552 METAR KATL 011552Z 17008KT 5SM -RA BR BKN007 OVC012 18/18 A3004 RMK AO2 RAE23B39DZB23E39 SLP169 CIG 005V009 P0006 T01830178=
202101011523 SPECI KATL 011523Z 21007KT 6SM -DZ BR OVC006 18/17 A3006 RMK AO2 RAE23DZB23 CIG 005V008 P0003 T01780167=
202101011452 METAR KATL 011452Z 14007KT 1 1/4SM -RA BR BKN005 BKN010 OVC020 17/16 A3004 RMK AO2 SFC VIS 1 3/4 LTG DSNT SW SLP170 CIG 004V007 CB DSNT SW P0039 60046 T01670161 58005=
202101011414 SPECI KATL 011414Z 12008G19KT 1 1/4SM RA BR BKN003 OVC007 17/16 A3004 RMK AO2 SFC VIS 3 P0004 T01670161=
202101011352 METAR KATL 011352Z 13011KT 1/4SM R09R/P6000FT -RA BR BKN002 OVC005 16/16 A3005 RMK AO2 SFC VIS 4 RAB1256 SLP174 TWRINC P0007 T01610156=
202101011252 METAR KATL 011252Z 13008KT 1/4SM R09R/2600V3500FT BR VV002 16/15 A3005 RMK AO2 SFC VIS 3/4 SLP176 T01560150=
