##########################################################
# Query made at 04/20/2024 00:19:55 UTC
# Time interval: from 12/01/2021 12:00  to 12/31/2021 12:59  UTC
##########################################################

##########################################################
# KATL, Atlanta, Hartsfield - Jackson Atlanta International Airport (United States)
# WMO index: 72219. WIGOS ID: 0-20000-0-72219
# Latitude 33-38-59N. Longitude 084-25-00W. Altitude 312 m.
##########################################################

202112311252 METAR KATL 311252Z 15003KT 1SM R27L/2000V6000FT BR BKN002 BKN006 BKN055 BKN250 14/13 A3000 RMK AO2 SLP157 TWRINC T01390133 $=
202112311152 METAR KATL 311152Z 20003KT 1/4SM R09R/1200V1600FT BR VV002 14/13 A2999 RMK AO2 SFC VIS 1 SLP154 TWRINC 70152 T01390133 10156 20139 53002 $=
202112311131 SPECI KATL 311131Z 00000KT 1/4SM R09R/1600V2400FT FG VV002 14/13 A2999 RMK AO2 T01440133 $=
202112311124 SPECI KATL 311124Z 00000KT 1/4SM R09R/1600V2200FT FG VV002 14/13 A2999 RMK AO2 T01440133 $=
202112311052 METAR KATL 311052Z 00000KT 1/4SM R09R/1800V2600FT FG VV002 14/13 A2998 RMK AO2 SLP149 T01390133 $=
202112311047 SPECI KATL 311047Z 00000KT 1/4SM R09R/1800V5500FT FG VV002 14/13 A2998 RMK AO2 $=
202112311036 SPECI KATL 311036Z 00000KT 1/4SM R09R/1400V3000FT FG VV001 14/14 A2997 RMK AO2 T01440139 $=
202112311005 SPECI KATL 311005Z 22003KT 1/4SM R09R/1600V2200FT FG VV001 14/14 A2998 RMK AO2 TWR VIS 1/4 T01440139 $=
202112310952 METAR KATL 310952Z 24003KT 1/4SM R09R/2200VP6000FT BR OVC003 14/14 A2999 RMK AO2 SFC VIS 1 1/2 SLP152 TWRINC T01440139 $=
202112310852 METAR KATL 310852Z 00000KT 1/4SM R09R/P6000FT BR OVC002 15/14 A2998 RMK AO2 SFC VIS 2 1/2 SLP149 TWRINC T01500144 58001 $=
202112310752 METAR KATL 310752Z 00000KT 1/4SM R09R/2200V2600FT FG VV002 16/15 A2998 RMK AO2 SFC VIS 1/2 SLP150 T01560150 $=
202112310714 SPECI KATL 310714Z 00000KT 1/4SM R09R/1200V4000FT FG VV002 16/15 A2999 RMK AO2 SFC VIS 1/2 T01560150=
202112310652 METAR KATL 310652Z 00000KT 1/4SM R09R/1400V2200FT BR VV002 16/14 A2999 RMK AO2 SFC VIS 3/4 SLP151 TWRINC T01560144=
202112310621 SPECI KATL 310621Z 00000KT 1/2SM R09R/P6000FT BR BKN004 15/14 A2999 RMK AO2 SFC VIS 2 VIS 1 1/4V5 T01500139=
202112310552 METAR KATL 310552Z 26003KT 7SM FEW005 BKN250 16/14 A2998 RMK AO2 SLP150 T01560144 10183 20156 50007=
202112310452 METAR KATL 310452Z 25003KT 10SM FEW012 BKN250 16/15 A2999 RMK AO2 SLP150 T01610150 402110161=
202112310406 SPECI KATL 310406Z 27004KT 10SM SCT012 BKN250 17/15 A2998 RMK AO2 SCT012 V BKN T01670150=
202112310352 METAR KATL 310352Z 27003KT 10SM BKN012 BKN250 17/15 A2998 RMK AO2 SLP146 T01670150=
202112310252 METAR KATL 310252Z 27005KT 10SM BKN012 17/16 A2996 RMK AO2 SLP142 T01720156 51012=
202112310152 METAR KATL 310152Z 25006KT 10SM BKN007 BKN012 18/17 A2996 RMK AO2 SLP140 T01830167=
202112310052 METAR KATL 310052Z 27008KT 8SM OVC005 18/17 A2994 RMK AO2 SLP135 CIG 004V007 T01830172=
202112302352 METAR KATL 302352Z 27008KT 2 1/2SM OVC004 18/17 A2993 RMK AO2 SFC VIS 8 SLP128 CIG 003V006 60027 T01830167 10183 20178 53014=
202112302252 METAR KATL 302252Z 23004KT 2 1/2SM BKN004 BKN100 BKN200 18/17 A2990 RMK AO2 SFC VIS 7 SLP119 CIG 003V007 T01830172=
202112302152 METAR KATL 302152Z 00000KT 2 1/2SM BKN004 BKN095 BKN140 BKN200 18/17 A2991 RMK AO2 SFC VIS 7 RAE05 SLP122 CIG 003V006 P0000 T01830172=
202112302143 SPECI KATL 302143Z 19006KT 2 1/2SM SCT004 SCT090 BKN140 BKN200 18/17 A2991 RMK AO2 SFC VIS 8 RAE05 P0000 T01830172=
202112302140 SPECI KATL 302140Z 19005KT 1SM R09R/P6000FT SCT004 SCT080 BKN130 BKN200 18/17 A2991 RMK AO2 SFC VIS 8 RAE05 P0000 T01830172=
202112302109 SPECI KATL 302109Z 00000KT 1SM R09R/P6000FT BKN004 BKN075 BKN120 BKN200 18/17 A2990 RMK AO2 SFC VIS 10 RAE05 CIG 003V005 TWRINC P0000 T01780172=
202112302052 METAR KATL 302052Z 17009KT 1SM R09R/P6000FT RA BR SCT004 SCT065 BKN120 BKN200 18/17 A2988 RMK AO2 SFC VIS 5 LTG DSNT SE SLP113 CB DSNT SE P0012 60027 T01780167 58015=
202112302033 SPECI KATL 302033Z 19005KT 1SM R09R/P6000FT -RA BR SCT004 BKN060 OVC120 18/17 A2990 RMK AO2 SFC VIS 4 LTG DSNT SE CB DSNT SE-SW P0007 T01780167=
202112302021 SPECI KATL 302021Z 17005KT 3SM -RA BR FEW004 BKN050 OVC110 18/17 A2989 RMK AO2 SFC VIS 6 LTG DSNT S AND SW CB DSNT S SW P0005 T01780167=
202112302004 SPECI KATL 302004Z 20004KT 1 1/4SM -RA BR SCT004 BKN026 OVC055 18/17 A2991 RMK AO2 SFC VIS 5 LTG DSNT SW CB DSNT SW P0003 T01780167=
202112301952 METAR KATL 301952Z 21004KT 1 1/4SM -RA BR SCT004 BKN014 OVC033 18/17 A2992 RMK AO2 SFC VIS 4 LTG DSNT S AND SW SLP127 CB DSNT S SW P0006 T01780167=
202112301936 SPECI KATL 301936Z 19005KT 1 1/4SM -RA BR BKN003 BKN014 OVC038 18/17 A2991 RMK AO2 SFC VIS 5 LTG DSNT S CIG 002V005 TWRINC P0003 T01780167=
202112301928 SPECI KATL 301928Z 19004KT 6SM -RA BR BKN003 BKN014 OVC038 18/17 A2991 RMK AO2 CIG 003V005 P0003 T01780167=
202112301852 METAR KATL 301852Z 19005KT 8SM -RA FEW005 SCT065 BKN120 OVC200 18/17 A2991 RMK AO2 LTG DSNT S SLP121 CB DSNT S P0009 T01780167=
202112301752 METAR KATL 301752Z 22003KT 6SM -RA BR FEW008 SCT060 OVC090 18/17 A2993 RMK AO2 SLP128 TSB14E49 TS MOV E CB DSNT E-SE SW NW P0007 60125 T01780167 10194 20178 58008=
202112301750 SPECI KATL 301750Z 00000KT 7SM -RA FEW008 SCT060 OVC090 18/17 A2993 RMK AO2 TSB14E49 TS MOV E CB DSNT E-SE SW NW P0007=
202112301734 SPECI KATL 301734Z 21005KT 8SM VCTS -RA FEW042CB BKN070 OVC100 18/17 A2994 RMK AO2 LTG DSNT E-SW TSB14 OCNL LTGICCA VC SE-S TS VC SE-S MOV E CB DSNT E-S-SW P0006 T01780167=
202112301715 SPECI KATL 301715Z 24006KT 4SM TSRA BR SCT042CB OVC075 18/17 A2995 RMK AO2 LTG DSNT SW TSB14 OCNL LTGICCA OHD-ALQDS TS OHD-ALQDS MOV E CB DSNT SW P0003 T01780167=
202112301652 METAR KATL 301652Z 00000KT 9SM -RA FEW004 SCT055 BKN110 OVC200 18/17 A2995 RMK AO2 RAE35B51 TSE32 SLP134 TS MOV E CB DSNT E-SE SW P0018 T01780167=
202112301632 SPECI KATL 301632Z 00000KT 10SM -RA FEW006 SCT044 OVC090 18/17 A2995 RMK AO2 TSE32 TS MOV E CB DSNT ALQDS P0018 T01780172=
202112301614 SPECI KATL 301614Z 20008KT 3SM TSRA BR FEW006 SCT032CB OVC085 18/17 A2998 RMK AO2 LTG DSNT N-SE OCNL LTGICCA NE-SE-SW TS NE-SE-SW MOV E CB DSNT N-E-SE P0017 T01780172=
202112301556 SPECI KATL 301556Z 28004KT 2SM +TSRA BR FEW006 SCT026CB OVC065 18/17 A2997 RMK AO2 LTG DSNT SW OCNL LTGICCA NE-OHD-SW TS NE-OHD-SW MOV E CB DSNT SW-NW-NE P0003 T01780167=
202112301552 METAR KATL 301552Z 28005KT 2SM TSRA BR FEW006 SCT026CB OVC070 18/17 A2997 RMK AO2 LTG DSNT SW-NW SLP143 TSB51 OCNL LTGICCA NE-OHD-SW TS NE-OHD-SW MOV E CB DSNT SW-NW-N P0023 T01780167=
202112301550 SPECI KATL 301550Z 28004KT 2SM RA BR FEW006 SCT026CB OVC070 18/17 A2997 RMK AO2 LTG DSNT SW-NW TSE49 CB NE-OHD-SW MOV E CB DSNT SW-NW-N P0022=
202112301452 METAR KATL 301452Z 23006KT 6SM -RA BR FEW008 BKN075 OVC100 18/17 A2995 RMK AO2 LTG DSNT NE-S TSB07E48 SLP136 TS MOV E CB DSNT NE-SE-S P0076 60077 T01780167 53007=
202112301448 SPECI KATL 301448Z 23004KT 3SM -RA BR FEW007 BKN045 OVC085 18/17 A2995 RMK AO2 SFC VIS 5 LTG DSNT NE-S TSB07E48 TS MOV E CB DSNT NE-SE-S P0076=
202112301432 SPECI KATL 301432Z 22008KT 3SM +TSRA BR SCT006 BKN016CB OVC048 18/17 A2997 RMK AO2 TSB07 FRQ LTGICCGCA NE-SE-SW TS NE-SE-SW MOV E P0072 T01780167=
202112301409 SPECI KATL 301409Z 24008G17KT 1SM R09R/4500VP6000FT +TSRA BR SCT007 BKN018CB OVC036 18/16 A2994 RMK AO2 TSB07 OCNL LTGICCC E-OHD-W TS E-OHD-W MOV E P0029 T01780161=
202112301359 SPECI KATL 301359Z 28010KT 3/4SM R09R/4000VP6000FT +RA BR SCT009CB BKN036 OVC050 18/16 A2994 RMK AO2 VIS 1/4V5 RAE19B43 TSB45 OCNL LTGICCC VC N-NE TS VC N-NE MOV E P0008 T01830161=
202112301352 METAR KATL 301352Z 29009KT 4SM VCTS -RA BKN009CB OVC036 19/16 A2993 RMK AO2 SLP130 RAE19B43 TSB45 OCNL LTGICCC VC N-NE TS VC N-NE MOV E P0000 T01890161=
202112301350 SPECI KATL 301350Z 32007KT 9SM VCTS -RA BKN009CB OVC036 19/16 A2993 RMK AO2 RAE19B43 TSB45 OCNL LTGICCC VC N-NE TS VC N-NE MOV E P0000=
202112301323 SPECI KATL 301323Z 00000KT 10SM FEW003 BKN009 OVC016 19/17 A2995 RMK AO2 LTG DSNT N AND NW RAE19 CB DSNT W-N P0000 T01890172=
202112301252 METAR KATL 301252Z 18003KT 10SM -RA FEW005 BKN011 OVC015 19/17 A2993 RMK AO2 SLP129 RAE30B44 CIG 009V013 P0001 T01890172=
202112301152 METAR KATL 301152Z 24003KT 10SM -RA FEW007 BKN017 OVC075 19/17 A2992 RMK AO2 RAE01B40 TSE05 SLP124 TS MOV E P0000 60122 70161 T01890172 10206 20183 53002=
202112301106 SPECI KATL 301106Z 24006KT 10SM BKN020 BKN055 OVC075 18/17 A2990 RMK AO2 RAE01 TSE05 TS MOV E P0000 T01830172=
202112301055 SPECI KATL 301055Z 24004KT 6SM -TSRA BR FEW020 BKN045CB OVC090 18/17 A2990 RMK AO2 OCNL LTGICCC SE-S TS SE-S MOV E P0000 T01830172=
202112301052 METAR KATL 301052Z 25004KT 2 1/2SM -TSRA BR FEW016 BKN040CB OVC070 18/17 A2990 RMK AO2 SLP117 TSB30 OCNL LTGICCC SE-SW TS SE-SW MOV E P0026 T01830172=
202112301040 SPECI KATL 301040Z 26007KT 2 1/2SM -TSRA BR FEW016 BKN040CB OVC070 18/17 A2989 RMK AO2 TSB30 OCNL LTGICCC SE-SW TS SE-SW MOV E P0024 T01830172=
202112301033 SPECI KATL 301033Z 25008KT 3SM -TSRA BR SCT039CB BKN048 OVC100 18/17 A2990 RMK AO2 TSB30 OCNL LTGICCC SE-SW TS SE-SW MOV E P0016 T01830172=
202112300952 METAR KATL 300952Z 21009KT 6SM -RA BR SCT008 BKN085 OVC100 18/17 A2991 RMK AO2 SLP121 LTG DSNT SW-W CB DSNT SW-W P0004 T01830167=
202112300949 SPECI KATL 300949Z 21010KT 6SM -RA BR SCT008 BKN085 OVC100 18/17 A2991 RMK AO2 LTG DSNT W LTG DSNT SW-W CB DSNT SW-W P0003=
202112300910 SPECI KATL 300910Z 21008KT 9SM -RA SCT011 OVC095 19/18 A2990 RMK AO2 TSE09 LTG DSNT SE AND SW TS MOV E CB DSNT SE & SW P0000 T01940178=
202112300852 METAR KATL 300852Z 21008KT 7SM -TSRA SCT014CB SCT028 OVC085 19/18 A2989 RMK AO2 TSB16 SLP114 OCNL LTGICCG SE-SW TS SE-SW MOV E P0020 60092 T01940178 58004=
202112300848 SPECI KATL 300848Z 21010KT 7SM -TSRA SCT014CB SCT028 OVC085 19/18 A2989 RMK AO2 TSB16 OCNL LTGICCG SE-SW TS SE-SW MOV E P0019=
202112300825 SPECI KATL 300825Z 26004KT 2SM +TSRA BR BKN014CB BKN028 OVC085 19/18 A2993 RMK AO2 TSB16 OCNL LTGICCG OHD-SE-SW TS OHD-SE-SW MOV E BKN014 V SCT P0006 T01940183=
202112300816 SPECI KATL 300816Z 25005KT 8SM -TSRA BKN014CB BKN030 OVC085 19/18 A2993 RMK AO2 TSB16 PRESRR OCNL LTGICCG SW-W TS SW-W MOV E BKN014 V SCT P0000 T01890178=
202112300752 METAR KATL 300752Z 00000KT 9SM -RA FEW009 BKN014 OVC090 19/18 A2991 RMK AO2 TSE34 SLP122 TS MOV E P0019 T01940178=
202112300736 SPECI KATL 300736Z 28005KT 10SM -RA FEW009 BKN012 OVC020 19/18 A2991 RMK AO2 TSE34 TS MOV E P0017 T01940178=
202112300701 SPECI KATL 300701Z 26010G20KT 3SM TSRA BR FEW007 BKN018CB OVC023 19/18 A2991 RMK AO2 P0015 T01940178=
202112300652 METAR KATL 300652Z 28011G20KT 1 3/4SM R09R/4000VP6000FT TSRA BR SCT007 BKN014CB OVC025 19/18 A2990 RMK AO2 PK WND 30026/0621 TSB10 SLP119 OCNL LTGICCCCG OHD & SW-N-E TS OHD & SW-N-E MOV E P0053 T01940178=
202112300648 SPECI KATL 300648Z 29012G17KT 4SM -TSRA BR SCT007 BKN014CB OVC019 19/18 A2989 RMK AO2 PK WND 30026/0621 TSB10 OCNL LTGICCCCG OHD & W-N-E TS OHD & W-N-E MOV E P0048=
202112300635 SPECI KATL 300635Z 27010KT 2SM R09R/5500VP6000FT +TSRA BR SCT009 BKN014CB OVC019 19/18 A2989 RMK AO2 PK WND 30026/0621 VIS 1V4 TSB10 OCNL LTGICCCCG OHD & ALQDS TS OHD & ALQDS MOV E P0034 T01940178=
202112300623 SPECI KATL 300623Z 31014G26KT 1 3/4SM R09R/4500VP6000FT -TSRA BR SCT007 BKN014CB OVC019 19/18 A2989 RMK AO2 PK WND 30026/0621 TSB10 OCNL LTGICCCCG OHD & SW-NW-NE TS OHD & SW-NW-NE MOV E P0007 T01940178=
202112300615 SPECI KATL 300615Z 20005KT 7SM -TSRA SCT009 BKN015CB OVC035 21/19 A2989 RMK AO2 TSB10 OCNL LTGICCCCG SW-NW-NE TS SW-NW-NE MOV E P0000 T02060189=
202112300552 METAR KATL 300552Z 19008KT 5SM VCTS RA BR FEW009 BKN017CB BKN035 OVC150 21/19 A2989 RMK AO2 SLP114 RAB19 TSB28 OCNL LTGICCGCA VC W-N-NE TS VC W-N-NE MOV SE P0011 60012 T02060189 10211 20200 56005=
202112300530 SPECI KATL 300530Z 20008G15KT 9SM VCTS -RA SCT009 BKN020CB BKN060 OVC150 21/19 A2991 RMK AO2 RAB19 TSB28 FRQ LTGICCG VC W-N-NE TS VC W-N-NE MOV SE P0000 T02060189=
202112300452 METAR KATL 300452Z 20008G18KT 10SM SCT008 BKN060 BKN100 OVC200 21/19 A2990 RMK AO2 SLP118 CONS LTG DSNT NW-NE T02060189 402330183=
202112300425 SPECI KATL 300425Z 21011KT 10SM SCT008 BKN060 OVC100 21/19 A2990 RMK AO2 LTG DSNT NW T02060189=
202112300352 METAR KATL 300352Z 20010G16KT 10SM BKN006 BKN012 BKN200 21/19 A2989 RMK AO2 LTG DSNT W SLP114 T02060189=
202112300252 METAR KATL 300252Z 20008KT 10SM BKN007 BKN014 BKN200 21/19 A2990 RMK AO2 RAE05 SLP120 P0000 60001 T02060189 50005=
202112300152 METAR KATL 300152Z 22007KT 8SM -RA BKN007 BKN013 OVC060 20/18 A2991 RMK AO2 RAB40 SLP122 P0001 T02000183=
202112300108 SPECI KATL 300108Z 17008KT 10SM SCT006 BKN028 BKN250 20/18 A2989 RMK AO2 SCT006 V BKN T02000183=
202112300052 METAR KATL 300052Z 19006KT 10SM SCT006 BKN035 BKN250 20/18 A2989 RMK AO2 SLP114 T02000183=
202112300046 SPECI KATL 300046Z 18005KT 10SM SCT007 BKN035 BKN250 20/18 A2989 RMK AO2=
202112300025 SPECI KATL 300025Z 17008KT 10SM BKN007 BKN040 BKN250 20/18 A2990 RMK AO2 T02000183=
202112292352 METAR KATL 292352Z 17008KT 10SM FEW007 FEW250 20/18 A2989 RMK AO2 SLP114 T02000178 10233 20200 51004=
202112292252 METAR KATL 292252Z 17007KT 10SM FEW020 BKN075 BKN250 21/18 A2988 RMK AO2 SLP113 T02110178=
202112292152 METAR KATL 292152Z 20007KT 10SM FEW022 BKN075 BKN250 22/17 A2988 RMK AO2 SLP111 T02220172=
202112292052 METAR KATL 292052Z 21007KT 10SM FEW024 FEW065 SCT200 SCT250 23/18 A2987 RMK AO2 SLP109 T02280178 56020=
202112291952 METAR KATL 291952Z 23006KT 10SM FEW015 SCT065 SCT200 BKN250 22/18 A2989 RMK AO2 SLP115 T02220183=
202112291852 METAR KATL 291852Z 21009KT 10SM SCT013 SCT034 OVC080 21/18 A2991 RMK AO2 SLP120 BINOVC T02110183=
202112291822 SPECI KATL 291822Z 22007KT 10SM SCT010 BKN033 OVC075 21/19 A2992 RMK AO2 T02110189=
202112291752 METAR KATL 291752Z 21007KT 10SM SCT007 BKN012 BKN070 OVC140 21/18 A2994 RMK AO2 SLP130 60027 T02060183 10206 20183 55006=
202112291748 SPECI KATL 291748Z 22006KT 10SM SCT008 BKN013 BKN075 OVC140 21/19 A2993 RMK AO2=
202112291652 METAR KATL 291652Z 00000KT 10SM FEW022 SCT050 OVC075 19/17 A2993 RMK AO2 RAE46 SLP127 SHRA DSNT NE-SE-SW P0006 T01940172=
202112291552 METAR KATL 291552Z 29006KT 3SM -RA BR FEW007 BKN015 OVC024 18/17 A2996 RMK AO2 SLP140 CIG 013V017 P0012 T01830167=
202112291532 SPECI KATL 291532Z 28009KT 3SM R09R/6000VP6000FT RA BR SCT006 BKN015 OVC024 18/17 A2997 RMK AO2 P0008 T01830167=
202112291517 SPECI KATL 291517Z 29011G22KT 3SM +RA BR BKN006 OVC014CB 19/17 A2997 RMK AO2 CB NE-OHD-SW MOV E P0001 T01890172=
202112291452 METAR KATL 291452Z 23007KT 3SM -RA BR BKN007 OVC014 19/18 A2995 RMK AO2 SLP137 CIG 006V009 P0002 60009 T01940178 53011=
202112291352 METAR KATL 291352Z 22006KT 3SM -RA BR BKN009 BKN013 OVC060 19/18 A2994 RMK AO2 SFC VIS 6 SLP130 RAE00B10DZB00E10 CIG 007V011 P0004 T01940178=
202112291315 SPECI KATL 291315Z 21008KT 3SM -RA BR BKN008 OVC020 19/18 A2993 RMK AO2 SFC VIS 5 RAE00B10DZB00E10 CIG 007V009 P0000 T01940178=
202112291252 METAR KATL 291252Z 20008KT 3SM -RA BR BKN010 OVC020 19/18 A2992 RMK AO2 SFC VIS 5 DZE10RAB10 SLP126 CIG 008V012 P0003 T01890178=
202112291239 SPECI KATL 291239Z 20007KT 3SM -RA BR FEW008 BKN012 OVC060 19/18 A2992 RMK AO2 SFC VIS 5 DZE10RAB10 P0002 T01890178=
202112291152 METAR KATL 291152Z 22008KT 10SM -DZ OVC014 20/17 A2992 RMK AO2 SLP126 DZB45 P0000 60000 T02000172 10200 20194 53003=
202112291102 SPECI KATL 291102Z 21009KT 10SM BKN012 19/17 A2991 RMK AO2 T01940167=
202112291052 METAR KATL 291052Z 20009KT 10SM SCT012 19/17 A2990 RMK AO2 SLP118 SCT012 V BKN T01940167=
202112290952 METAR KATL 290952Z 19013G21KT 10SM SCT016 BKN090 19/17 A2989 RMK AO2 SLP115 T01940167=
202112290852 METAR KATL 290852Z 21012G18KT 10SM SCT018 BKN035 20/17 A2991 RMK AO2 SLP122 T02000167 50004=
202112290833 SPECI KATL 290833Z 22011G18KT 10SM FEW012 SCT018 BKN030 20/17 A2992 RMK AO2 T02000167=
202112290752 METAR KATL 290752Z 22009KT 10SM BKN018 BKN029 20/17 A2992 RMK AO2 SLP124 T02000167=
202112290652 METAR KATL 290652Z 22010G20KT 10SM BKN020 BKN250 20/16 A2991 RMK AO2 SLP122 T02000161=
202112290552 METAR KATL 290552Z 21011G21KT 10SM BKN016 BKN250 19/16 A2990 RMK AO2 SLP119 T01940161 10211 20189 55004=
202112290505 SPECI KATL 290505Z 20011G18KT 10SM BKN014 BKN250 19/16 A2990 RMK AO2 T01890161=
202112290452 METAR KATL 290452Z 20009G17KT 10SM FEW012 SCT250 19/16 A2990 RMK AO2 SLP118 T01890161 402390167=
202112290352 METAR KATL 290352Z 21008KT 10SM FEW080 SCT250 19/16 A2991 RMK AO2 SLP124 T01890156=
202112290252 METAR KATL 290252Z 20007KT 10SM FEW080 FEW200 19/15 A2991 RMK AO2 SLP124 T01940150 53002=
202112290152 METAR KATL 290152Z 20008KT 10SM FEW080 FEW200 20/15 A2991 RMK AO2 SLP122 T02000150=
202112290052 METAR KATL 290052Z 19009KT 10SM SCT080 BKN150 21/15 A2990 RMK AO2 SLP119 T02060150=
202112282352 METAR KATL 282352Z 19004KT 10SM FEW030 BKN085 21/16 A2990 RMK AO2 SLP120 60000 T02110156 10239 20200 51004=
202112282252 METAR KATL 282252Z 19009G17KT 10SM FEW030 BKN080 22/16 A2990 RMK AO2 SLP118 T02170161=
202112282152 METAR KATL 282152Z 20006KT 10SM FEW030 FEW042 BKN080 22/16 A2990 RMK AO2 SLP120 T02220161=
202112282052 METAR KATL 282052Z 20010G18KT 10SM FEW032 SCT044 BKN070 23/16 A2989 RMK AO2 SLP116 60000 T02280161 55005=
202112281952 METAR KATL 281952Z 22009G21KT 10SM SCT028 BKN036 BKN075 24/17 A2988 RMK AO2 SLP112 MDT CU ALQDS T02390167=
202112281900 SPECI KATL 281900Z 20008G17KT 10SM SCT022 BKN032 OVC065 22/17 A2988 RMK AO2 MDT CU ALQDS BINOVC T02220172=
202112281852 METAR KATL 281852Z 20010G20KT 10SM SCT018 BKN027 OVC070 22/17 A2989 RMK AO2 RAB10E20 SLP115 MDT CU ALQDS BINOVC P0000 T02170172=
202112281752 METAR KATL 281752Z 19010KT 10SM BKN015 OVC022 20/17 A2991 RMK AO2 RAB23E35 SLP123 CIG 013V017 P0000 60000 T02000172 10200 20178 58020=
202112281652 METAR KATL 281652Z 19009KT 10SM BKN011 OVC017 20/17 A2994 RMK AO2 SLP131 CIG 009V013 T02000167=
202112281552 METAR KATL 281552Z 19008KT 10SM OVC009 18/16 A2996 RMK AO2 SLP140 CIG 008V010 T01830161=
202112281505 SPECI KATL 281505Z 19009KT 10SM BKN009 OVC060 18/16 A2997 RMK AO2 CIG 008V010 BINOVC T01830156=
202112281452 METAR KATL 281452Z 18007KT 10SM SCT010 BKN060 18/16 A2997 RMK AO2 SLP144 T01780156 51006=
202112281352 METAR KATL 281352Z 21004KT 10SM FEW012 BKN060 18/16 A2996 RMK AO2 SLP141 T01780156=
202112281332 SPECI KATL 281332Z 21004KT 10SM SCT014 18/15 A2996 RMK AO2 T01780150=
202112281252 METAR KATL 281252Z 21006KT 10SM OVC012 18/16 A2996 RMK AO2 SLP140 CIG 010V015 BINOVC T01830156=
202112281152 METAR KATL 281152Z 21006KT 10SM BKN012 18/16 A2995 RMK AO2 SLP137 CIG 010V015 T01830161 10183 20167 53006=
202112281052 METAR KATL 281052Z 23008KT 10SM OVC010 18/16 A2994 RMK AO2 SLP131 T01830161=
202112281025 SPECI KATL 281025Z 22007KT 10SM OVC010 18/16 A2993 RMK AO2 T01830161=
202112280952 METAR KATL 280952Z 22007KT 10SM OVC009 18/17 A2992 RMK AO2 SLP126 T01830167=
202112280852 METAR KATL 280852Z 22006KT 9SM BKN008 BKN015 OVC050 18/16 A2993 RMK AO2 SLP130 T01780161 56004=
202112280752 METAR KATL 280752Z 20003KT 10SM BKN008 BKN015 BKN050 17/16 A2994 RMK AO2 SLP133 T01720156=
202112280744 SPECI KATL 280744Z 00000KT 10SM FEW008 BKN012 BKN050 17/15 A2994 RMK AO2 T01720150=
202112280724 SPECI KATL 280724Z 00000KT 10SM FEW012 SCT026 BKN050 17/15 A2994 RMK AO2 T01720150=
202112280656 SPECI KATL 280656Z 22003KT 10SM BKN023 BKN050 17/15 A2994 RMK AO2 T01670150=
202112280652 METAR KATL 280652Z 00000KT 10SM SCT025 BKN050 17/14 A2994 RMK AO2 SLP132 T01670144=
202112280552 METAR KATL 280552Z 17003KT 10SM FEW035 OVC050 18/15 A2995 RMK AO2 SLP135 BINOVC T01780150 10194 20178 58008=
202112280452 METAR KATL 280452Z 00000KT 10SM FEW036 OVC050 18/15 A2996 RMK AO2 SLP141 T01830150 402110150=
202112280352 METAR KATL 280352Z 19004KT 10SM FEW034 OVC048 18/15 A2997 RMK AO2 SLP143 T01830150=
202112280252 METAR KATL 280252Z 20003KT 10SM FEW034 OVC045 19/15 A2997 RMK AO2 SLP145 T01890150 51004=
202112280152 METAR KATL 280152Z 00000KT 10SM BKN040 19/16 A2997 RMK AO2 SLP144 T01890156=
202112280052 METAR KATL 280052Z 25005KT 10SM BKN038 BKN200 19/15 A2997 RMK AO2 SLP143 T01940150=
202112272352 METAR KATL 272352Z 24003KT 10SM FEW025 BKN038 BKN200 19/15 A2996 RMK AO2 SLP141 T01940150 10211 20194 51002=
202112272252 METAR KATL 272252Z 22007KT 10SM FEW028 BKN040 BKN200 20/15 A2995 RMK AO2 SLP137 T02000150=
202112272152 METAR KATL 272152Z 23008G17KT 10SM FEW032 BKN042 21/14 A2996 RMK AO2 SLP140 T02060144=
202112272052 METAR KATL 272052Z 24008KT 10SM SCT029 BKN040 21/14 A2995 RMK AO2 SLP138 T02060144 56013=
202112271952 METAR KATL 271952Z 23011G19KT 10SM FEW027 BKN036 21/14 A2996 RMK AO2 SLP138 T02060144=
202112271852 METAR KATL 271852Z 24014G21KT 10SM SCT025 BKN040 21/14 A2997 RMK AO2 SLP142 T02060144=
202112271752 METAR KATL 271752Z 25007G16KT 10SM SCT018 SCT024 OVC037 19/15 A2999 RMK AO2 SLP152 BINOVC 60000 T01940150 10200 20161 58017=
202112271723 SPECI KATL 271723Z 25011G18KT 10SM BKN016 OVC037 19/15 A3001 RMK AO2 T01890150=
202112271652 METAR KATL 271652Z 24007KT 10SM SCT016 OVC034 19/15 A3003 RMK AO2 SLP165 SCT016 V BKN T01890150=
202112271641 SPECI KATL 271641Z 25007KT 10SM BKN016 OVC032 18/15 A3004 RMK AO2 T01830150=
202112271552 METAR KATL 271552Z 25010G16KT 10SM FEW014 OVC032 18/15 A3005 RMK AO2 DZE07 SLP171 P0000 T01780150=
202112271519 SPECI KATL 271519Z 25007KT 10SM SCT008 OVC030 18/16 A3005 RMK AO2 DZE07 P0000 T01780156=
202112271452 METAR KATL 271452Z 23010G17KT 7SM -DZ OVC007 17/16 A3004 RMK AO2 DZB52 SLP169 P0000 60000 T01670156 53002=
202112271442 SPECI KATL 271442Z 22006KT 7SM OVC007 17/16 A3004 RMK AO2 T01670156=
202112271401 SPECI KATL 271401Z 22009KT 1SM R09R/P6000FT BR OVC004 17/16 A3004 RMK AO2 SFC VIS 5 TWRINC T01670156=
202112271352 METAR KATL 271352Z 23008KT 1/2SM R09R/P6000FT BR OVC003 17/16 A3004 RMK AO2 SFC VIS 3 SLP169 TWRINC T01670156=
202112271252 METAR KATL 271252Z 20006KT 1/2SM R09R/P6000FT BR OVC003 16/16 A3003 RMK AO2 SFC VIS 3 SLP164 CIG 002V005 TWRINC T01610156=
202112271152 METAR KATL 271152Z 26007KT 1/2SM R09R/P6000FT BR OVC003 16/16 A3004 RMK AO2 SFC VIS 3 SLP167 CIG 002V005 TWRINC T01610156 10161 20150 53007=
202112271133 SPECI KATL 271133Z 23006KT 1/2SM R09R/P6000FT BR OVC003 16/15 A3003 RMK AO2 SFC VIS 4 CIG 002V005 T01610150=
202112271052 METAR KATL 271052Z 25005KT 6SM BR OVC004 16/16 A3002 RMK AO2 SLP162 T01610156=
202112271012 SPECI KATL 271012Z 23004KT 3SM BR OVC002 16/15 A3001 RMK AO2 T01610150=
202112270952 METAR KATL 270952Z 22004KT 2 1/2SM BR OVC003 16/15 A3001 RMK AO2 SLP159 T01560150=
202112270923 SPECI KATL 270923Z 23005KT 1 1/4SM R09R/5500VP6000FT BR OVC002 16/15 A3002 RMK AO2 T01560150=
202112270907 SPECI KATL 270907Z 23004KT 1/2SM R09R/3000V4500FT FG VV002 16/15 A3002 RMK AO2 T01560150=
202112270852 METAR KATL 270852Z 23005KT 1/4SM R09R/1800V4000FT FG VV002 16/14 A3002 RMK AO2 SLP158 T01560144 58007=
202112270836 SPECI KATL 270836Z 23004KT 1/4SM R09R/1800V2200FT FG VV002 15/14 A3002 RMK AO2 T01500144=
202112270752 METAR KATL 270752Z 21003KT 1/4SM R09R/1200V1400FT FG VV001 16/14 A3002 RMK AO2 SLP162 T01560144=
202112270748 SPECI KATL 270748Z 21005KT 1/4SM R09R/1400FT FG VV001 16/14 A3002 RMK AO2=
202112270652 METAR KATL 270652Z 22005KT 1/4SM R09R/1000V1200FT FG VV002 16/15 A3003 RMK AO2 SLP164 T01560150=
202112270631 SPECI KATL 270631Z 22004KT 1/4SM R09R/1600V1800FT FG VV002 15/14 A3003 RMK AO2 T01500144=
202112270629 SPECI KATL 270629Z 22003KT 1/2SM R09R/1600V1800FT FG VV002 15/14 A3003 RMK AO2 T01500144=
202112270625 SPECI KATL 270625Z 21004KT 1/2SM R09R/1600V3500FT FG BKN003 15/14 A3003 RMK AO2 CIG 002V005 T01500144=
202112270614 SPECI KATL 270614Z 22003KT 1 1/2SM BR SCT004 16/14 A3004 RMK AO2 SCT004 V BKN T01560144=
202112270552 METAR KATL 270552Z 21003KT 3SM BR SCT005 16/14 A3004 RMK AO2 DZE24 SLP165 P0000 60000 T01560144 10194 20156 58004=
202112270452 METAR KATL 270452Z 22004KT 5SM -DZ BR FEW005 FEW020 16/15 A3005 RMK AO2 DZB52 SLP172 PCPN VRY LGT P0000 T01610150 402390144=
202112270352 METAR KATL 270352Z 21004KT 10SM SCT250 17/15 A3005 RMK AO2 SLP171 T01670150=
202112270252 METAR KATL 270252Z 22005KT 10SM SCT250 17/15 A3005 RMK AO2 SLP171 T01720150 51004=
202112270152 METAR KATL 270152Z 23005KT 10SM FEW040 SCT250 18/15 A3005 RMK AO2 SLP170 T01780150=
202112270052 METAR KATL 270052Z 23005KT 10SM FEW040 FEW060 SCT250 18/15 A3004 RMK AO2 SLP171 T01830150=
202112262352 METAR KATL 262352Z 22005KT 10SM FEW040 FEW060 BKN250 19/15 A3004 RMK AO2 SLP167 T01940150 10239 20194 52013=
202112262252 METAR KATL 262252Z 23005KT 10SM FEW040 SCT075 BKN250 21/15 A3002 RMK AO2 SLP162 MDT CU NW-NE T02060150=
202112262152 METAR KATL 262152Z 24006KT 10SM FEW030TCU SCT070 SCT250 22/15 A3001 RMK AO2 SLP158 TCU NE & NW T02170150=
202112262052 METAR KATL 262052Z 27010KT 10SM BKN035TCU BKN050 BKN070 24/15 A3000 RMK AO2 SLP152 TCU NE T02390150 55012=
202112261952 METAR KATL 261952Z 00000KT 10SM SCT035 BKN070 22/14 A3000 RMK AO2 SLP151 MDT CU ALQDS T02220144=
202112261852 METAR KATL 261852Z VRB05KT 10SM SCT032 BKN060 22/14 A3001 RMK AO2 SLP157 MDT CU ALQDS T02220144=
202112261752 METAR KATL 261752Z 28003KT 10SM SCT030 SCT055 23/15 A3004 RMK AO2 SLP165 T02280150 10228 20144 58017=
202112261652 METAR KATL 261652Z 29004KT 10SM FEW018 SCT200 22/16 A3007 RMK AO2 SLP177 T02170156=
202112261552 METAR KATL 261552Z 29005KT 10SM FEW020 SCT055 BKN250 21/16 A3009 RMK AO2 SLP183 T02060156=
202112261452 METAR KATL 261452Z 25005KT 10SM FEW150 18/15 A3009 RMK AO2 SLP184 T01830150 52021=
202112261352 METAR KATL 261352Z 25004KT 10SM FEW015 16/14 A3006 RMK AO2 SLP177 T01610144=
202112261252 METAR KATL 261252Z 23003KT 10SM SCT021 SCT027 15/13 A3005 RMK AO2 SLP171 T01500133=
202112261210 SPECI KATL 261210Z 00000KT 10SM BKN019 14/13 A3003 RMK AO2 T01440133=
202112261152 METAR KATL 261152Z 25003KT 10SM FEW055 15/13 A3003 RMK AO2 SLP163 T01500133 10178 20144 53009=
202112261052 METAR KATL 261052Z 24003KT 10SM SCT055 15/13 A3001 RMK AO2 SLP157 T01500133=
202112260952 METAR KATL 260952Z 23003KT 10SM FEW026 SCT060 16/14 A2999 RMK AO2 SLP150 T01610139=
202112260852 METAR KATL 260852Z 24006KT 10SM SCT026 BKN060 17/14 A3000 RMK AO2 SLP153 T01670139 53002=
202112260752 METAR KATL 260752Z 25006KT 10SM SCT030 BKN060 18/14 A2999 RMK AO2 SLP151 T01780139=
202112260652 METAR KATL 260652Z 24006KT 10SM FEW034 BKN055 18/14 A2999 RMK AO2 SLP149 T01780144=
202112260552 METAR KATL 260552Z 26006KT 10SM SCT050 BKN055 18/14 A2999 RMK AO2 SLP151 T01780144 10194 20178 58002=
202112260452 METAR KATL 260452Z 24007KT 10SM FEW042 BKN050 18/14 A3000 RMK AO2 SLP156 T01780144 402060117=
202112260352 METAR KATL 260352Z 24005KT 10SM FEW042 SCT050 BKN250 18/14 A3001 RMK AO2 SLP157 T01780139=
202112260252 METAR KATL 260252Z 24007KT 10SM FEW035 BKN042 19/14 A3000 RMK AO2 SLP154 T01890144 53009=
202112260152 METAR KATL 260152Z 25006KT 10SM FEW035 BKN043 19/14 A2998 RMK AO2 SLP150 T01890139=
202112260052 METAR KATL 260052Z 23008KT 10SM FEW035 BKN042 19/14 A2997 RMK AO2 SLP144 T01890139=
202112252352 METAR KATL 252352Z 23011G17KT 10SM FEW035 BKN042 19/14 A2997 RMK AO2 SLP145 T01940139 10206 20189 53012=
202112252252 METAR KATL 252252Z 24010KT 10SM FEW035 BKN041 19/14 A2996 RMK AO2 SLP140 T01940139=
202112252152 METAR KATL 252152Z 23011G17KT 10SM FEW033 BKN038 20/14 A2994 RMK AO2 PK WND 25026/2054 SLP136 T02000139=
202112252052 METAR KATL 252052Z 24011G20KT 10SM SCT034 BKN042 20/13 A2993 RMK AO2 PK WND 26027/1957 SLP132 T02000133 55011=
202112251952 METAR KATL 251952Z 25014G22KT 10SM FEW028 SCT034 BKN041 20/13 A2993 RMK AO2 PK WND 26029/1913 SLP130 T02000133=
202112251852 METAR KATL 251852Z 24017G25KT 10SM SCT024 BKN042 20/13 A2994 RMK AO2 PK WND 25026/1753 SLP134 T02000133=
202112251823 SPECI KATL 251823Z 25013G23KT 10SM SCT025 BKN038 20/13 A2994 RMK AO2 PK WND 25026/1753 T02000133=
202112251752 METAR KATL 251752Z 24013KT 10SM BKN022 OVC036 19/13 A2997 RMK AO2 PK WND 23026/1718 SLP144 T01890133 10189 20139 58023=
202112251729 SPECI KATL 251729Z 25017G25KT 10SM FEW020 BKN027 BKN042 19/13 A2998 RMK AO2 PK WND 23026/1718 T01890133=
202112251711 SPECI KATL 251711Z 24012G21KT 10SM SCT017 BKN042 19/13 A2999 RMK AO2 T01890133=
202112251652 METAR KATL 251652Z 23013G25KT 10SM BKN017 BKN041 18/13 A3000 RMK AO2 PK WND 24026/1556 SLP157 T01780128=
202112251552 METAR KATL 251552Z 25012KT 10SM BKN015 OVC038 17/12 A3003 RMK AO2 SLP168 T01670122=
202112251506 SPECI KATL 251506Z 24009G23KT 10SM BKN015 OVC040 16/12 A3003 RMK AO2 T01610122=
202112251452 METAR KATL 251452Z 25011G16KT 10SM SCT015 BKN040 16/12 A3003 RMK AO2 SLP168 T01560122 53013=
202112251352 METAR KATL 251352Z 22010G18KT 10SM FEW015 BKN035 BKN250 14/12 A3001 RMK AO2 SLP161 T01440117=
202112251252 METAR KATL 251252Z 23010G18KT 10SM FEW012 BKN037 BKN250 14/12 A3000 RMK AO2 SLP159 T01390117=
202112251152 METAR KATL 251152Z 23012G19KT 10SM FEW013 SCT037 14/11 A3000 RMK AO2 SLP156 T01390111 10139 20117 58004=
202112251052 METAR KATL 251052Z 24010KT 10SM FEW013 SCT020 BKN037 14/11 A3002 RMK AO2 SLP163 T01390111=
202112251004 SPECI KATL 251004Z 23010KT 10SM FEW023 BKN031 14/11 A3000 RMK AO2 T01390106=
202112250952 METAR KATL 250952Z 23007KT 10SM FEW024 OVC029 13/11 A3000 RMK AO2 SLP158 BINOVC T01330106=
202112250852 METAR KATL 250852Z 21005KT 10SM OVC028 13/10 A3001 RMK AO2 SLP159 T01280100 58006=
202112250758 SPECI KATL 250758Z 21005KT 10SM BKN025 BKN250 12/10 A3003 RMK AO2 T01220100=
202112250752 METAR KATL 250752Z 25003KT 10SM SCT025 SCT250 12/09 A3003 RMK AO2 SLP167 T01170094=
202112250652 METAR KATL 250652Z 20005KT 10SM FEW025 FEW250 12/09 A3001 RMK AO2 SLP160 T01220094=
202112250552 METAR KATL 250552Z 21009KT 10SM FEW025 SCT250 13/09 A3003 RMK AO2 SLP168 T01280089 10144 20122 58013=
202112250452 METAR KATL 250452Z 19007KT 10SM SCT250 13/08 A3004 RMK AO2 SLP170 T01280078 401890028=
202112250352 METAR KATL 250352Z 20007KT 10SM SCT250 13/07 A3006 RMK AO2 SLP181 T01280072=
202112250252 METAR KATL 250252Z 20005KT 10SM BKN250 13/07 A3007 RMK AO2 SLP183 T01330072 56004=
202112250152 METAR KATL 250152Z 20007KT 10SM BKN250 14/08 A3007 RMK AO2 SLP184 T01390078=
202112250052 METAR KATL 250052Z 18006KT 10SM FEW250 14/08 A3007 RMK AO2 SLP187 T01390083=
202112242352 METAR KATL 242352Z 18005KT 10SM FEW040 FEW250 14/08 A3008 RMK AO2 SLP188 T01390083 10189 20139 53002=
202112242252 METAR KATL 242252Z 19003KT 10SM FEW040 FEW250 16/08 A3008 RMK AO2 SLP187 T01560083=
202112242152 METAR KATL 242152Z 19010G16KT 10SM FEW038 FEW250 18/08 A3008 RMK AO2 SLP185 T01780083=
202112242052 METAR KATL 242052Z 19008G17KT 10SM FEW039 FEW250 19/08 A3008 RMK AO2 SLP184 T01890083 56027=
202112241952 METAR KATL 241952Z 20010KT 10SM FEW036 SCT250 18/09 A3008 RMK AO2 SLP187 T01780089=
202112241852 METAR KATL 241852Z 23008G18KT 10SM FEW024 BKN035 17/09 A3014 RMK AO2 SLP207 T01720089=
202112241828 SPECI KATL 241828Z 23007KT 10SM BKN031 16/08 A3015 RMK AO2 T01610083=
202112241752 METAR KATL 241752Z 25009KT 10SM BKN023 BKN250 15/07 A3016 RMK AO2 SLP213 T01500072 10161 20033 58016=
202112241652 METAR KATL 241652Z 22008KT 10SM BKN024 BKN150 BKN250 15/06 A3017 RMK AO2 SLP218 T01500061=
202112241552 METAR KATL 241552Z 21008KT 10SM BKN023 BKN250 12/03 A3021 RMK AO2 SLP231 T01220033=
202112241506 SPECI KATL 241506Z 19006KT 10SM BKN020 BKN250 10/02 A3020 RMK AO2 T01000022=
202112241452 METAR KATL 241452Z 20005KT 10SM SCT020 BKN250 10/02 A3021 RMK AO2 SLP231 T01000022 53004=
202112241352 METAR KATL 241352Z 18005KT 10SM FEW150 BKN250 07/02 A3020 RMK AO2 SLP231 T00670017=
202112241252 METAR KATL 241252Z 17003KT 10SM BKN250 03/00 A3019 RMK AO2 SLP227 T00330000=
202112241152 METAR KATL 241152Z 20003KT 10SM SCT250 04/00 A3019 RMK AO2 SLP229 T00440000 10067 20028 53007=
202112241052 METAR KATL 241052Z 00000KT 10SM FEW250 04/00 A3019 RMK AO2 SLP226 T00440000=
202112240952 METAR KATL 240952Z 00000KT 10SM SCT250 04/00 A3018 RMK AO2 SLP221 T00390000=
202112240852 METAR KATL 240852Z 00000KT 10SM BKN250 05/00 A3017 RMK AO2 SLP218 T00500000 53002=
202112240752 METAR KATL 240752Z 00000KT 10SM BKN250 06/00 A3017 RMK AO2 SLP216 T00560000=
202112240652 METAR KATL 240652Z 19006KT 10SM BKN250 06/00 A3015 RMK AO2 SLP212 T00610000=
202112240552 METAR KATL 240552Z 18004KT 10SM BKN250 07/M01 A3017 RMK AO2 SLP216 T00671006 10111 20056 58010=
202112240452 METAR KATL 240452Z 15004KT 10SM BKN250 06/M01 A3018 RMK AO2 SLP222 T00611006 401610011=
202112240352 METAR KATL 240352Z 17003KT 10SM BKN250 08/M02 A3019 RMK AO2 SLP227 T00781017=
202112240252 METAR KATL 240252Z 17004KT 10SM BKN250 08/M02 A3020 RMK AO2 SLP228 T00831017 53001=
202112240152 METAR KATL 240152Z 18003KT 10SM SCT250 09/M02 A3019 RMK AO2 SLP229 T00891017=
202112240052 METAR KATL 240052Z 17005KT 10SM SCT250 11/M02 A3019 RMK AO2 SLP228 T01061022=
202112232352 METAR KATL 232352Z 17005KT 10SM FEW250 11/M02 A3019 RMK AO2 SLP229 T01061022 10161 20106 53002=
202112232252 METAR KATL 232252Z 18004KT 10SM FEW250 12/M03 A3019 RMK AO2 SLP228 T01221028=
202112232152 METAR KATL 232152Z 18009KT 10SM FEW250 15/M04 A3018 RMK AO2 SLP221 T01501044=
202112232052 METAR KATL 232052Z 16007KT 10SM FEW250 16/M04 A3019 RMK AO2 SLP225 T01611044 56011=
202112231952 METAR KATL 231952Z 17006KT 10SM FEW250 16/M06 A3020 RMK AO2 SLP229 T01561056=
202112231852 METAR KATL 231852Z 18003KT 10SM CLR 15/M05 A3021 RMK AO2 SLP232 T01501050=
202112231752 METAR KATL 231752Z 00000KT 10SM FEW250 14/M05 A3022 RMK AO2 SLP236 T01441050 10144 20011 58012=
202112231652 METAR KATL 231652Z 12005KT 10SM FEW250 12/M06 A3025 RMK AO2 SLP246 T01221056=
202112231552 METAR KATL 231552Z 15007KT 10SM FEW250 10/M06 A3026 RMK AO2 SLP251 T01001061=
202112231452 METAR KATL 231452Z 01003KT 10SM FEW250 08/M04 A3026 RMK AO2 SLP251 T00781044 53017=
202112231352 METAR KATL 231352Z 32005KT 10SM FEW250 04/M05 A3024 RMK AO2 SLP243 T00441050=
202112231252 METAR KATL 231252Z 32003KT 10SM CLR 02/M06 A3021 RMK AO2 SLP237 T00171061=
202112231152 METAR KATL 231152Z 33004KT 10SM CLR 02/M06 A3021 RMK AO2 SLP235 T00171061 10039 20011 53017=
202112231052 METAR KATL 231052Z 34006KT 10SM CLR 02/M06 A3018 RMK AO2 SLP226 T00171061=
202112230952 METAR KATL 230952Z 34005KT 10SM CLR 02/M06 A3017 RMK AO2 SLP221 T00171061=
202112230852 METAR KATL 230852Z 32004KT 10SM CLR 02/M06 A3015 RMK AO2 SLP216 T00171061 51008=
202112230752 METAR KATL 230752Z 33003KT 10SM CLR 02/M07 A3015 RMK AO2 SLP214 T00221067=
202112230652 METAR KATL 230652Z 32006KT 10SM CLR 03/M07 A3014 RMK AO2 SLP211 T00281067=
202112230552 METAR KATL 230552Z 33009G16KT 10SM CLR 04/M07 A3013 RMK AO2 SLP206 T00391067 10083 20039 53009=
202112230452 METAR KATL 230452Z 32009KT 10SM CLR 04/M07 A3011 RMK AO2 SLP201 T00391067 401280039=
202112230352 METAR KATL 230352Z 34007KT 10SM CLR 05/M07 A3011 RMK AO2 SLP201 T00501067=
202112230252 METAR KATL 230252Z 32010KT 10SM CLR 06/M07 A3010 RMK AO2 SLP197 T00561067 51017=
202112230152 METAR KATL 230152Z 32010KT 10SM CLR 07/M06 A3008 RMK AO2 SLP192 T00671056=
202112230052 METAR KATL 230052Z 33007KT 10SM CLR 07/M06 A3007 RMK AO2 SLP187 T00721056=
202112222352 METAR KATL 222352Z 32011KT 10SM CLR 08/M06 A3005 RMK AO2 SLP180 T00831056 10128 20078 53018=
202112222252 METAR KATL 222252Z 32009KT 10SM CLR 09/M05 A3003 RMK AO2 SLP172 T00891050=
202112222152 METAR KATL 222152Z 31018G23KT 10SM CLR 11/M05 A3001 RMK AO2 SLP166 T01061050=
202112222052 METAR KATL 222052Z 33014G27KT 10SM CLR 12/M06 A2999 RMK AO2 PK WND 31027/2031 SLP159 T01171056 53006=
202112221952 METAR KATL 221952Z 31014G22KT 10SM CLR 12/M06 A2998 RMK AO2 SLP153 T01221056=
202112221852 METAR KATL 221852Z 32014G21KT 10SM CLR 12/M05 A2997 RMK AO2 PK WND 30027/1758 SLP151 T01221050=
202112221752 METAR KATL 221752Z 32014G21KT 10SM CLR 12/M01 A2997 RMK AO2 PK WND 33026/1734 SLP153 T01171006 10117 20044 50003=
202112221652 METAR KATL 221652Z 32016G26KT 10SM CLR 11/M01 A2998 RMK AO2 PK WND 31026/1647 SLP154 T01061011=
202112221552 METAR KATL 221552Z 31014G21KT 10SM CLR 09/02 A2998 RMK AO2 SLP154 T00940017=
202112221452 METAR KATL 221452Z 33011KT 10SM FEW250 07/02 A2996 RMK AO2 SLP151 T00720022 53028=
202112221352 METAR KATL 221352Z 32011KT 10SM FEW250 06/02 A2994 RMK AO2 SLP143 T00610017=
202112221252 METAR KATL 221252Z 31015G22KT 10SM FEW200 04/01 A2990 RMK AO2 SLP130 T00440011=
202112221152 METAR KATL 221152Z 31012KT 10SM FEW200 04/01 A2988 RMK AO2 SLP123 70017 T00440011 10056 20044 53002=
202112221052 METAR KATL 221052Z 31012KT 10SM FEW200 04/02 A2987 RMK AO2 SLP121 T00440017=
202112220952 METAR KATL 220952Z 31010KT 10SM FEW150 05/02 A2987 RMK AO2 SLP120 T00500022=
202112220852 METAR KATL 220852Z 30009KT 10SM FEW120 SCT150 05/02 A2987 RMK AO2 SLP121 T00500022 51004=
202112220752 METAR KATL 220752Z 30008KT 10SM BKN120 06/03 A2987 RMK AO2 SLP120 T00560028=
202112220652 METAR KATL 220652Z 29008KT 10SM BKN110 BKN200 06/03 A2987 RMK AO2 SLP119 T00560028=
202112220552 METAR KATL 220552Z 29009KT 10SM BKN100 BKN200 06/03 A2986 RMK AO2 SLP117 T00560028 10056 20050 58003=
202112220452 METAR KATL 220452Z 29010KT 10SM BKN095 BKN200 06/04 A2988 RMK AO2 SLP123 T00560039 400610044=
202112220352 METAR KATL 220352Z 29008KT 10SM SCT006 OVC085 06/04 A2988 RMK AO2 SLP124 T00560039=
202112220252 METAR KATL 220252Z 27007KT 9SM FEW007 BKN070 OVC200 06/03 A2987 RMK AO2 SLP119 T00560033 57004=
202112220152 METAR KATL 220152Z 29006KT 9SM FEW007 BKN070 OVC200 06/04 A2987 RMK AO2 SLP119 T00560039=
202112220052 METAR KATL 220052Z 31008KT 9SM SCT007 BKN050 BKN070 OVC200 06/04 A2988 RMK AO2 SLP124 T00560039=
202112212352 METAR KATL 212352Z 32006KT 10SM SCT006 BKN050 BKN110 OVC200 06/04 A2988 RMK AO2 RAB01E10 SLP123 P0000 60002 T00560039 10061 20050 55004=
202112212252 METAR KATL 212252Z 34007KT 10SM FEW008 SCT030 BKN050 BKN200 05/03 A2987 RMK AO2 RAE11 SLP121 P0001 T00500033=
202112212152 METAR KATL 212152Z 34007KT 6SM -RA BR FEW008 SCT014 OVC030 05/03 A2990 RMK AO2 RAB17 SLP130 P0001 T00500033=
202112212148 SPECI KATL 212148Z 33007KT 7SM -RA SCT008 SCT014 OVC028 05/03 A2990 RMK AO2 RAB17 CIG 006V009 P0001=
202112212126 SPECI KATL 212126Z 33009KT 6SM -RA BR BKN007 BKN012 OVC026 05/03 A2990 RMK AO2 RAB17 CIG 006V009 P0000 T00500033=
202112212119 SPECI KATL 212119Z 32011KT 8SM -RA SCT008 BKN012 OVC028 05/03 A2990 RMK AO2 RAB17 P0000 T00500028=
202112212101 SPECI KATL 212101Z 32009KT 10SM SCT009 BKN028 OVC060 06/03 A2990 RMK AO2 T00560033=
202112212052 METAR KATL 212052Z 33010KT 10SM FEW012 SCT030 OVC065 06/03 A2989 RMK AO2 SLP127 60000 T00560028 55018=
202112211952 METAR KATL 211952Z 04009KT 10SM FEW014 SCT065 OVC085 06/02 A2989 RMK AO2 RAB00E13 SLP126 P0000 T00610017=
202112211852 METAR KATL 211852Z 01008KT 10SM FEW012 BKN060 OVC085 06/02 A2991 RMK AO2 RAE46 SLP132 P0000 T00560022=
202112211752 METAR KATL 211752Z 05008KT 8SM -RA FEW014 BKN060 OVC085 04/01 A2995 RMK AO2 SLP146 P0002 60015 T00440011 10061 20044 58020=
202112211652 METAR KATL 211652Z 06005KT 8SM -RA BKN055 OVC070 04/00 A2999 RMK AO2 SLP162 P0003 T00440000=
202112211552 METAR KATL 211552Z 10005KT 5SM RA SCT036 OVC065 04/00 A3001 RMK AO2 RAB06 SLP167 P0010 T00440000=
202112211452 METAR KATL 211452Z 09006KT 10SM SCT048 BKN065 OVC090 06/M04 A3001 RMK AO2 SLP166 VIRGA OHD-ALQDS T00611044 55003=
202112211352 METAR KATL 211352Z 04008KT 10SM FEW046 OVC100 06/M05 A2998 RMK AO2 SLP157 VIRGA ALQDS T00611050=
202112211252 METAR KATL 211252Z 05006KT 10SM BKN045 OVC055 06/M05 A3000 RMK AO2 SLP163 T00561050=
202112211152 METAR KATL 211152Z 04009KT 10SM OVC055 05/M04 A3002 RMK AO2 SLP169 60000 T00501039 10050 20044 57025=
202112211052 METAR KATL 211052Z 05008KT 10SM BKN041 OVC060 04/M03 A3004 RMK AO2 SLP178 T00441028=
202112210952 METAR KATL 210952Z 06011KT 10SM BKN035 OVC045 04/M02 A3007 RMK AO2 RAB02E35 SLP186 P0000 T00441022=
202112210852 METAR KATL 210852Z 09008KT 10SM OVC050 05/M03 A3009 RMK AO2 SLP195 T00501033 56017=
202112210752 METAR KATL 210752Z 09007KT 10SM BKN031 OVC070 05/M02 A3010 RMK AO2 SLP196 T00501022=
202112210652 METAR KATL 210652Z 10011KT 10SM BKN031 OVC070 05/M03 A3010 RMK AO2 SLP197 T00501033=
202112210552 METAR KATL 210552Z 13007KT 10SM BKN032 BKN100 OVC150 05/M03 A3014 RMK AO2 SLP212 T00501028 10061 20050 55007=
202112210452 METAR KATL 210452Z 08011KT 10SM FEW030 BKN120 OVC200 05/M02 A3013 RMK AO2 SLP209 T00501022 400780044=
202112210352 METAR KATL 210352Z 09009KT 10SM BKN030 BKN120 OVC200 05/M02 A3016 RMK AO2 SLP218 T00501022=
202112210252 METAR KATL 210252Z 09011KT 10SM FEW035 BKN140 OVC200 05/M02 A3016 RMK AO2 SLP219 T00501017 58014=
202112210152 METAR KATL 210152Z 08012KT 10SM FEW035 BKN150 OVC200 06/M02 A3019 RMK AO2 SLP227 T00561017=
202112210052 METAR KATL 210052Z 09006KT 10SM FEW150 BKN200 OVC250 06/M02 A3021 RMK AO2 SLP236 T00561017=
202112202352 METAR KATL 202352Z 11007KT 10SM FEW150 BKN200 OVC250 06/M02 A3021 RMK AO2 SLP234 T00611022 10078 20061 53001=
202112202252 METAR KATL 202252Z 11005KT 10SM FEW150 BKN200 OVC250 07/M02 A3020 RMK AO2 SLP230 T00671022=
202112202152 METAR KATL 202152Z 08012KT 10SM BKN160 OVC200 07/M02 A3018 RMK AO2 SLP226 T00721022=
202112202052 METAR KATL 202052Z 08008KT 10SM BKN180 OVC250 07/M02 A3020 RMK AO2 SLP233 T00721022 55009=
202112201952 METAR KATL 201952Z 10008KT 10SM BKN180 OVC250 08/M02 A3020 RMK AO2 SLP232 T00781022=
202112201852 METAR KATL 201852Z 08011KT 10SM BKN180 OVC250 07/M02 A3020 RMK AO2 SLP232 T00721017=
202112201752 METAR KATL 201752Z 09012KT 10SM BKN180 BKN250 07/M01 A3023 RMK AO2 SLP243 T00721011 10072 20044 58020=
202112201652 METAR KATL 201652Z 10012KT 10SM BKN180 BKN250 06/M01 A3027 RMK AO2 SLP256 T00611011=
202112201552 METAR KATL 201552Z 08013G22KT 10SM FEW022 BKN180 BKN250 06/M01 A3029 RMK AO2 SLP261 T00611006=
202112201452 METAR KATL 201452Z 08013KT 10SM FEW020 BKN180 BKN250 06/01 A3029 RMK AO2 SLP264 T00560006 53024=
202112201441 SPECI KATL 201441Z 09013KT 10SM SCT018 BKN180 BKN250 06/01 A3029 RMK AO2 T00560006=
202112201352 METAR KATL 201352Z 08012KT 10SM BKN019 BKN200 OVC250 05/01 A3026 RMK AO2 SLP254 T00500006=
202112201252 METAR KATL 201252Z 08013KT 10SM BKN021 BKN200 BKN250 04/01 A3024 RMK AO2 SLP245 T00440006=
202112201204 SPECI KATL 201204Z 08012KT 10SM BKN020 BKN200 BKN250 04/01 A3023 RMK AO2 BKN020 V SCT T00440006=
202112201152 METAR KATL 201152Z 08012KT 10SM FEW020 BKN250 04/01 A3022 RMK AO2 SLP238 70003 T00440006 10056 20044 53010=
202112201052 METAR KATL 201052Z 09011KT 10SM FEW021 FEW250 05/02 A3019 RMK AO2 SLP229 T00500022=
202112200952 METAR KATL 200952Z 06009KT 10SM FEW021 FEW250 06/03 A3020 RMK AO2 SLP230 T00560028=
202112200852 METAR KATL 200852Z 08008KT 10SM FEW021 FEW250 06/03 A3019 RMK AO2 SLP226 T00560028 53007=
202112200752 METAR KATL 200752Z 06007KT 10SM FEW021 FEW250 05/02 A3018 RMK AO2 SLP224 T00500022=
202112200652 METAR KATL 200652Z 06006KT 10SM FEW021 FEW250 05/02 A3016 RMK AO2 SLP217 T00500022=
202112200552 METAR KATL 200552Z 02004KT 10SM FEW021 FEW030 FEW250 05/02 A3017 RMK AO2 SLP219 T00500017 10067 20044 50007=
202112200452 METAR KATL 200452Z 34005KT 10SM SCT021 BKN030 05/02 A3017 RMK AO2 SLP221 T00500017 401720044=
202112200444 SPECI KATL 200444Z 36006KT 10SM SCT021 BKN030 06/02 A3017 RMK AO2 T00560017=
202112200352 METAR KATL 200352Z 34006KT 10SM BKN021 06/02 A3017 RMK AO2 SLP218 T00560017=
202112200338 SPECI KATL 200338Z 34007KT 10SM BKN021 05/02 A3016 RMK AO2 T00500017=
202112200252 METAR KATL 200252Z 33007KT 10SM FEW020 FEW250 05/02 A3014 RMK AO2 SLP211 T00500017 51010=
202112200152 METAR KATL 200152Z 33011KT 10SM FEW020 FEW250 06/02 A3014 RMK AO2 SLP210 T00560017=
202112200052 METAR KATL 200052Z 32013KT 10SM FEW020 SCT250 06/02 A3013 RMK AO2 SLP206 T00610022=
202112192352 METAR KATL 192352Z 32013KT 10SM FEW020 SCT250 07/03 A3011 RMK AO2 PK WND 33026/2253 SLP200 T00670028 10128 20067 51015=
202112192303 SPECI KATL 192303Z 33014G23KT 10SM SCT020 SCT250 08/03 A3011 RMK AO2 PK WND 33026/2253 T00780033=
202112192252 METAR KATL 192252Z 32017G22KT 10SM BKN020 BKN250 08/03 A3010 RMK AO2 SLP194 T00780033=
202112192230 SPECI KATL 192230Z 33007KT 10SM BKN020 BKN250 08/03 A3010 RMK AO2 T00830033=
202112192152 METAR KATL 192152Z 33019KT 10SM SCT021 SCT200 SCT250 09/04 A3009 RMK AO2 SLP190 T00940039=
202112192052 METAR KATL 192052Z 32016G21KT 10SM FEW026 FEW120 SCT200 12/05 A3007 RMK AO2 SLP179 T01170050 53008=
202112191952 METAR KATL 191952Z 33016KT 10SM FEW022 SCT200 SCT250 12/06 A3004 RMK AO2 SLP170 T01220061=
202112191852 METAR KATL 191852Z 32013KT 10SM SCT018 SCT180 SCT250 12/07 A3004 RMK AO2 SLP171 T01170067=
202112191841 SPECI KATL 191841Z 33014KT 10SM SCT016 SCT120 SCT250 12/07 A3005 RMK AO2 T01220072=
202112191752 METAR KATL 191752Z 32014KT 10SM OVC012 11/07 A3004 RMK AO2 SLP172 BINOVC 60003 T01060072 10111 20094 58002=
202112191652 METAR KATL 191652Z 33014G19KT 10SM BKN011 BKN110 BKN200 11/08 A3005 RMK AO2 SLP174 T01110083=
202112191552 METAR KATL 191552Z 32012KT 10SM SCT008 BKN065 BKN120 BKN200 11/08 A3006 RMK AO2 RAE13 SLP177 P0000 T01060083=
202112191452 METAR KATL 191452Z 31009KT 10SM -RA SCT006 BKN048 BKN075 OVC140 10/08 A3005 RMK AO2 RAB1358 SLP174 P0001 60003 T01000083 51021=
202112191355 SPECI KATL 191355Z 31009KT 6SM BR BKN007 OVC049 09/08 A3004 RMK AO2 T00940083=
202112191352 METAR KATL 191352Z 31008KT 2SM BR BKN007 BKN034 OVC046 09/08 A3004 RMK AO2 SFC VIS 6 RAE40 SLP170 P0001 T00940083=
202112191309 SPECI KATL 191309Z 33012G21KT 2SM -RA BR BKN007 BKN043 OVC060 09/08 A3001 RMK AO2 SFC VIS 5 BKN007 V SCT P0000 T00940078=
202112191304 SPECI KATL 191304Z 33012G24KT 3SM -RA BR BKN008 BKN043 OVC060 09/08 A3002 RMK AO2 SFC VIS 6 BKN008 V SCT P0000 T00940078=
202112191252 METAR KATL 191252Z 32013KT 3SM -RA BR BKN010 BKN022 OVC055 10/08 A3001 RMK AO2 SFC VIS 5 RAB16 SLP161 BKN010 V SCT P0001 T01000083=
202112191238 SPECI KATL 191238Z 33014G23KT 3SM -RA BR BKN010 BKN022 OVC036 10/08 A3000 RMK AO2 SFC VIS 4 RAB16 P0001 T01000078=
202112191233 SPECI KATL 191233Z 33016G23KT 5SM -RA BR SCT010 OVC022 10/08 A3001 RMK AO2 RAB16 P0000 T01000083=
202112191152 METAR KATL 191152Z 32011KT 10SM OVC006 11/09 A2998 RMK AO2 PK WND 34026/1124 RAB28E48 SLP151 P0000 60000 70078 T01110094 10172 20111 53013=
202112191052 METAR KATL 191052Z 32012KT 6SM BR SCT004 OVC007 13/12 A2995 RMK AO2 SLP140 T01330122=
202112190952 METAR KATL 190952Z 32011KT 6SM BR SCT003 OVC007 16/15 A2994 RMK AO2 SLP133 T01560150=
202112190944 SPECI KATL 190944Z 32010KT 7SM SCT002 OVC007 16/15 A2994 RMK AO2 T01610150=
202112190852 METAR KATL 190852Z 29005KT 1/4SM R09R/P6000FT BR OVC002 17/16 A2994 RMK AO2 SFC VIS 4 SLP135 60000 T01720161 55007=
202112190752 METAR KATL 190752Z 30003KT 1/4SM R09R/2200V3000FT FG VV002 17/17 A2994 RMK AO2 SFC VIS 1/2 SLP134 T01720167=
202112190652 METAR KATL 190652Z 00000KT 1/4SM R09R/P6000FT BR OVC003 17/17 A2993 RMK AO2 SFC VIS 3/4 RAE30 SLP132 TWRINC P0000 T01720167=
202112190636 SPECI KATL 190636Z 00000KT 1/4SM R09R/3000VP6000FT BR VV003 17/17 A2994 RMK AO2 SFC VIS 3/4 RAE30 P0000 T01720167=
202112190626 SPECI KATL 190626Z 00000KT 1 1/2SM R09R/3000V5500FT -RA BR BKN003 OVC010 17/17 A2994 RMK AO2 P0000 T01720167=
202112190621 SPECI KATL 190621Z 00000KT 2SM R09R/3000V4500FT -RA BR BKN003 OVC010 17/17 A2994 RMK AO2 PRESFR P0000 T01720167=
202112190557 SPECI KATL 190557Z 00000KT 3SM R09R/6000VP6000FT -RA BR BKN004 OVC010 17/17 A2996 RMK AO2 CIG 002V006 P0000 T01720167=
202112190552 METAR KATL 190552Z 00000KT 5SM -RA BR BKN005 OVC090 17/17 A2997 RMK AO2 SLP143 CIG 003V007 P0002 60018 T01720167 10183 20172 56012=
202112190531 SPECI KATL 190531Z 20003KT 5SM -RA BR BKN005 BKN050 OVC090 17/17 A2998 RMK AO2 P0001 T01720167=
202112190521 SPECI KATL 190521Z 16003KT 1 3/4SM R09R/6000VP6000FT -RA BR SCT006 BKN037 OVC110 17/17 A2997 RMK AO2 P0001 T01720167=
202112190452 METAR KATL 190452Z 00000KT 4SM -RA BR FEW003 BKN050 BKN100 OVC150 17/16 A2997 RMK AO2 SLP142 P0001 T01720161 402000167=
202112190352 METAR KATL 190352Z 00000KT 6SM -RA BR FEW005 SCT016 OVC095 18/17 A2998 RMK AO2 SLP145 P0011 T01780167=
202112190348 SPECI KATL 190348Z 00000KT 6SM -RA BR FEW005 SCT016 OVC095 18/17 A2998 RMK AO2 P0010=
202112190339 SPECI KATL 190339Z 00000KT 4SM -RA BR FEW005 BKN016 OVC043 18/17 A2998 RMK AO2 P0009 T01780167=
202112190325 SPECI KATL 190325Z 00000KT 2 1/2SM RA BR SCT005 BKN016 OVC033 18/17 A3000 RMK AO2 P0005 T01780167=
202112190308 SPECI KATL 190308Z 00000KT 5SM -RA BR BKN005 OVC019 18/17 A3000 RMK AO2 CIG 004V007 P0002 T01780167=
202112190252 METAR KATL 190252Z 00000KT 7SM -RA FEW009 BKN041 OVC100 18/17 A3000 RMK AO2 SLP154 P0003 60004 T01780167 50004=
202112190230 SPECI KATL 190230Z 19004KT 10SM -RA SCT007 OVC039 18/17 A3000 RMK AO2 P0002 T01780167=
202112190152 METAR KATL 190152Z 28003KT 8SM -RA BKN005 BKN025 OVC050 18/17 A3001 RMK AO2 RAB0057E25B47 SLP156 P0000 T01780167=
202112190149 SPECI KATL 190149Z 29003KT 9SM -RA SCT005 BKN025 OVC050 18/17 A3001 RMK AO2 RAB0057E25B47 SCT005 V BKN P0000=
202112190052 METAR KATL 190052Z 19006KT 10SM FEW005 BKN050 OVC110 18/17 A2999 RMK AO2 RAE39 SLP152 P0001 T01830167=
202112190031 SPECI KATL 190031Z 20006KT 8SM -RA SCT005 BKN055 OVC085 18/17 A2999 RMK AO2 BINOVC P0001 T01830172=
202112182352 METAR KATL 182352Z 00000KT 7SM -RA BKN007 BKN065 OVC095 18/17 A2999 RMK AO2 SLP150 BINOVC P0010 60020 T01830172 10183 20178 50000=
202112182252 METAR KATL 182252Z 22004KT 7SM -RA BKN005 OVC020 18/17 A3000 RMK AO2 RAB40 SLP153 CIG 004V006 BINOVC P0001 T01830172=
202112182152 METAR KATL 182152Z 22005KT 10SM BKN006 OVC010 18/17 A2998 RMK AO2 SLP148 CIG 005V007 T01830172=
202112182052 METAR KATL 182052Z 21008KT 10SM OVC007 18/17 A2999 RMK AO2 RAE1958 SLP150 CIG 006V008 BINOVC P0000 60009 T01830167 56021=
202112181952 METAR KATL 181952Z 18006KT 9SM -RA BKN008 BKN028 OVC080 18/17 A2999 RMK AO2 RAB1853 SLP152 CIG 006V010 P0008 T01780167=
202112181947 SPECI KATL 181947Z 18005KT 6SM -RA BR BKN007 BKN026 OVC080 18/17 A2999 RMK AO2 RAB1853 P0008=
202112181914 SPECI KATL 181914Z 24003KT 6SM -RA BR FEW006 SCT026 BKN075 OVC130 18/17 A3001 RMK AO2 RAB1853 P0001 T01780167=
202112181852 METAR KATL 181852Z 20004KT 10SM SCT006 BKN024 BKN075 OVC140 18/17 A3002 RMK AO2 RAE26 SLP162 P0001 T01830167=
202112181752 METAR KATL 181752Z 21005KT 10SM -RA FEW008 BKN038 BKN085 BKN140 OVC200 18/17 A3005 RMK AO2 TSE28 SLP172 TS DSIPTD P0040 60040 T01780167 10200 20172 58015=
202112181728 SPECI KATL 181728Z 22004KT 6SM -RA BR FEW007 SCT026 OVC075 18/17 A3006 RMK AO2 TSE28 TS DSIPTD P0038 T01780167=
202112181724 SPECI KATL 181724Z 25003KT 3SM R09R/5500VP6000FT TSRA BR SCT010 BKN024CB OVC048 18/17 A3006 RMK AO2 OCNL LTGICCA NE-SE-S TS NE-SE-S MOV E P0038 T01780167=
202112181720 SPECI KATL 181720Z 26004KT 2SM R09R/5500VP6000FT +TSRA BR SCT012 BKN024CB OVC048 18/17 A3006 RMK AO2 OCNL LTGICCA NE-SE-S TS NE-SE-S MOV E P0036 T01780167=
202112181659 SPECI KATL 181659Z 27008KT 1SM R09R/4500VP6000FT +TSRA BKN015CB OVC033 19/16 A3008 RMK AO2 OCNL LTGICCA NE-OHD-SW TS NE-OHD-SW MOV NE P0000 T01890161=
202112181652 METAR KATL 181652Z 27010G15KT 10SM -TSRA BKN015CB OVC034 19/17 A3008 RMK AO2 SLP181 RAB16 TSB34 VIS LWR SW-NW-NE OCNL LTGICCA SW-NW-NE TS SW-NW-NE MOV NE SHELF CLOUD SW-NW-NE MOV E P0000 T01940167=
202112181634 SPECI KATL 181634Z 19007G17KT 10SM -TSRA BKN017CB OVC033 20/17 A3007 RMK AO2 LTG DSNT W AND NW RAB16 TSB20 OCNL LTGICCGCA SW-NW-N TS SW-NW-N MOV NE CB DSNT SW-NW P0000 T02000167=
202112181552 METAR KATL 181552Z 19010G20KT 10SM FEW012 BKN022 BKN033 OVC130 19/17 A3009 RMK AO2 SLP183 CB DSNT SW-NW T01940167=
202112181452 METAR KATL 181452Z 19008KT 10SM FEW007 BKN025 BKN120 BKN200 19/17 A3009 RMK AO2 SLP187 T01890167 51004=
202112181417 SPECI KATL 181417Z 18008KT 10SM FEW007 BKN023 BKN120 OVC200 18/17 A3009 RMK AO2 T01830167=
202112181352 METAR KATL 181352Z 18007KT 8SM FEW007 BKN033 BKN120 OVC200 18/17 A3009 RMK AO2 SLP185 T01780167=
202112181304 SPECI KATL 181304Z 18007KT 7SM FEW007 BKN035 BKN120 BKN250 18/16 A3009 RMK AO2 T01780161=
202112181252 METAR KATL 181252Z 19005KT 2SM BR SCT005 BKN038 BKN120 BKN250 17/16 A3009 RMK AO2 SFC VIS 5 SLP186 SCT005 V BKN T01720161=
202112181250 SPECI KATL 181250Z 18005KT 2SM BR SCT005 BKN038 BKN120 BKN250 17/16 A3009 RMK AO2 SFC VIS 5 SCT005 V BKN=
202112181224 SPECI KATL 181224Z 18006KT 2SM BR BKN005 BKN038 OVC120 17/17 A3009 RMK AO2 SFC VIS 5 BKN005 V SCT T01720167=
202112181214 SPECI KATL 181214Z 18006KT 2SM BR BKN004 BKN075 BKN120 17/17 A3009 RMK AO2 SFC VIS 5 BKN004 V SCT T01720167=
202112181152 METAR KATL 181152Z 17009KT 2SM BR FEW004 SCT040 SCT075 17/16 A3008 RMK AO2 SFC VIS 5 SLP182 60000 70004 T01720161 10178 20167 58013=
202112181143 SPECI KATL 181143Z 17008KT 2SM BR FEW004 SCT041 17/16 A3008 RMK AO2 SFC VIS 5 T01720161=
202112181111 SPECI KATL 181111Z 16004KT 1/2SM R09R/P6000FT BR SCT004 BKN037 BKN048 17/16 A3010 RMK AO2 SFC VIS 4 SCT004 V BKN T01720161=
202112181052 METAR KATL 181052Z 17005KT 1/2SM R09R/P6000FT BR BKN004 BKN037 17/16 A3010 RMK AO2 SFC VIS 5 SLP189 T01720161=
202112180952 METAR KATL 180952Z 18005KT 1/2SM R09R/P6000FT BR OVC003 17/17 A3011 RMK AO2 SFC VIS 3 SLP189 TWRINC T01720167=
202112180901 SPECI KATL 180901Z 17005KT 1/2SM R09R/1800V2600FT FG VV002 17/17 A3012 RMK AO2 T01720167=
202112180852 METAR KATL 180852Z 16004KT 1/4SM R09R/1800V2200FT FG VV002 17/16 A3012 RMK AO2 TWR VIS 1/2 SLP195 60000 T01720161 56012=
202112180850 SPECI KATL 180850Z 16003KT 1/4SM R09R/2000V2200FT FG VV002 17/16 A3012 RMK AO2 TWR VIS 1/2=
202112180752 METAR KATL 180752Z 16004KT 1/2SM R09R/2800V4000FT FG VV002 17/16 A3013 RMK AO2 SLP199 T01670161=
202112180652 METAR KATL 180652Z 13005KT 1/2SM R09R/2000V2600FT FG VV002 17/16 A3013 RMK AO2 RAB28E38 SLP198 P0000 T01670161=
202112180552 METAR KATL 180552Z 15003KT 1/2SM R09R/P6000FT BR OVC002 17/16 A3016 RMK AO2 SFC VIS 2 RAB0455E37 SLP208 P0004 60004 T01670156 10183 20167 58013=
202112180452 METAR KATL 180452Z 14004KT 1/2SM R09R/6000VP6000FT BR OVC003 17/16 A3018 RMK AO2 SFC VIS 2 SLP216 T01670156 401940133=
202112180352 METAR KATL 180352Z 00000KT 1/2SM R09R/P6000FT BR OVC002 17/16 A3019 RMK AO2 SFC VIS 1 1/2 SLP221 T01670156=
202112180252 METAR KATL 180252Z 15003KT 1SM R09R/P6000FT BR OVC003 17/16 A3019 RMK AO2 SFC VIS 4 SLP223 T01670156 50000=
202112180155 SPECI KATL 180155Z 14005KT 1SM R09R/P6000FT BKN004 BKN035 BKN250 17/16 A3019 RMK AO2 SFC VIS 7 T01670156=
202112180152 METAR KATL 180152Z 15005KT 8SM BKN005 BKN035 BKN250 17/16 A3020 RMK AO2 SLP223 T01670156=
202112180141 SPECI KATL 180141Z 17004KT 9SM SCT007 BKN032 BKN250 17/15 A3020 RMK AO2 T01670150=
202112180052 METAR KATL 180052Z 14005KT 10SM FEW017 BKN026 OVC200 18/16 A3020 RMK AO2 SLP225 T01780156=
202112172352 METAR KATL 172352Z 16003KT 10SM FEW018 BKN028 OVC200 18/15 A3019 RMK AO2 SLP222 T01780150 10194 20172 53004=
202112172252 METAR KATL 172252Z 19004KT 10SM SCT022 BKN034 OVC200 18/15 A3019 RMK AO2 SLP219 T01830150=
202112172250 SPECI KATL 172250Z 20004KT 10SM SCT022 BKN034 OVC200 18/15 A3019 RMK AO2=
202112172152 METAR KATL 172152Z 19003KT 10SM SCT016 BKN028 OVC140 19/15 A3018 RMK AO2 SLP217 T01890150=
202112172052 METAR KATL 172052Z 20004KT 10SM BKN024 BKN140 OVC200 19/14 A3017 RMK AO2 SLP214 T01940144 55015=
202112171952 METAR KATL 171952Z 16005KT 10SM BKN018 BKN140 BKN200 OVC250 19/14 A3017 RMK AO2 SLP213 T01940144=
202112171852 METAR KATL 171852Z 25004KT 10SM FEW016 OVC022 19/14 A3019 RMK AO2 SLP218 BINOVC T01940144=
202112171752 METAR KATL 171752Z 19004KT 9SM FEW012 BKN022 BKN130 OVC200 17/14 A3022 RMK AO2 SLP229 T01720139 10172 20133 58012=
202112171652 METAR KATL 171652Z 20004KT 3SM SCT008 BKN028 BKN130 OVC200 17/14 A3024 RMK AO2 SFC VIS 7 SLP239 T01670139=
202112171635 SPECI KATL 171635Z 00000KT 3SM BKN006 BKN025 BKN130 OVC200 17/14 A3025 RMK AO2 SFC VIS 7 CIG 004V008 T01670139=
202112171632 SPECI KATL 171632Z 20003KT 1SM R09R/P6000FT BR BKN005 BKN025 BKN130 OVC200 16/14 A3025 RMK AO2 SFC VIS 6 CIG 003V007 T01610139=
202112171552 METAR KATL 171552Z 21005KT 1SM R09R/P6000FT BR BKN004 BKN018 BKN140 OVC200 14/13 A3026 RMK AO2 SFC VIS 4 SLP246 CIG 003V005 T01440133=
202112171541 SPECI KATL 171541Z 18004KT 1SM R09R/P6000FT BR BKN004 BKN020 BKN140 BKN200 14/13 A3026 RMK AO2 SFC VIS 6 CIG 003V005 T01440133=
202112171503 SPECI KATL 171503Z 00000KT 2SM BR BKN004 OVC018 14/13 A3025 RMK AO2 SFC VIS 5 CIG 003V005 T01390133=
202112171452 METAR KATL 171452Z 00000KT 1/2SM R09R/P6000FT BR OVC003 14/13 A3025 RMK AO2 SFC VIS 3 SLP242 CIG 002V004 TWRINC T01390128 53007=
202112171352 METAR KATL 171352Z 15003KT 1/4SM R09R/4500VP6000FT BR VV002 13/13 A3024 RMK AO2 SFC VIS 1 SLP239 TWRINC T01330128=
202112171252 METAR KATL 171252Z 00000KT 1/4SM R09R/P6000FT BR OVC004 13/13 A3023 RMK AO2 SFC VIS 1 1/2 SLP236 TWRINC T01330128=
202112171203 SPECI KATL 171203Z 00000KT 1/4SM R09R/2000V5500FT BR VV002 13/13 A3023 RMK AO2 SFC VIS 3/4 TWRINC T01330128=
202112171152 METAR KATL 171152Z 15003KT 1SM R09R/2600VP6000FT BR VV002 13/12 A3023 RMK AO2 SLP235 T01330122 10144 20133 53006 $=
202112171052 METAR KATL 171052Z 00000KT 3/4SM R09R/3500VP6000FT BR VV003 13/13 A3022 RMK AO2 SLP230 T01330128=
202112171021 SPECI KATL 171021Z 13003KT 1/2SM R09R/2800VP6000FT FG VV003 14/13 A3021 RMK AO2 T01390128=
202112171006 SPECI KATL 171006Z 00000KT 1/4SM R09R/1600V2600FT FG VV002 14/13 A3021 RMK AO2 T01390128=
202112170952 METAR KATL 170952Z 00000KT 1/4SM R09R/1600V1800FT FG VV002 13/13 A3021 RMK AO2 SLP228 T01330128=
202112170947 SPECI KATL 170947Z 00000KT 1/4SM R09R/1400V1600FT FG VV002 13/13 A3021 RMK AO2=
202112170852 METAR KATL 170852Z 15003KT 1/4SM R09R/1000V1200FT FG VV001 13/13 A3022 RMK AO2 SLP229 T01330128 53003=
202112170752 METAR KATL 170752Z 11004KT 1/4SM R09R/1000V1600FT FG VV001 14/13 A3021 RMK AO2 SLP227 T01390133=
202112170745 SPECI KATL 170745Z 00000KT 1/4SM R09R/1000V1800FT FG VV001 14/13 A3021 RMK AO2 TWR VIS 1 T01390133=
202112170737 SPECI KATL 170737Z 12004KT 1/4SM R09R/1600V2800FT FG VV001 14/13 A3021 RMK AO2 TWR VIS 1 T01390133=
202112170726 SPECI KATL 170726Z 12005KT 1/2SM R09R/3500VP6000FT FG VV001 14/13 A3021 RMK AO2 TWR VIS 1 T01390133=
202112170721 SPECI KATL 170721Z 13005KT 1 1/2SM R09R/3500VP6000FT BR OVC001 14/13 A3021 RMK AO2 TWR VIS 2 T01390133=
202112170652 METAR KATL 170652Z 09003KT 2SM BR BKN003 BKN015 14/13 A3021 RMK AO2 SFC VIS 5 SLP226 T01440133=
202112170644 SPECI KATL 170644Z 09004KT 2SM BR BKN003 BKN015 14/13 A3021 RMK AO2 SFC VIS 4 T01440133=
202112170552 METAR KATL 170552Z 12004KT 1 1/2SM BR SCT003 OVC015 14/13 A3021 RMK AO2 SFC VIS 3 SLP227 SCT003 V BKN T01440133 10172 20144 56005=
202112170452 METAR KATL 170452Z 12003KT 5SM BR SCT004 OVC016 15/13 A3021 RMK AO2 SLP229 SCT004 V BKN T01500133 401940106=
202112170431 SPECI KATL 170431Z 11003KT 7SM SCT004 OVC016 15/13 A3021 RMK AO2 T01500133=
202112170352 METAR KATL 170352Z 00000KT 8SM FEW010 OVC018 15/14 A3021 RMK AO2 SLP228 T01500139=
202112170252 METAR KATL 170252Z 00000KT 10SM FEW012 BKN020 16/14 A3022 RMK AO2 SLP232 T01560139 51012=
202112170152 METAR KATL 170152Z 14003KT 10SM FEW010 OVC018 16/14 A3021 RMK AO2 SLP229 T01560139=
202112170052 METAR KATL 170052Z 14005KT 10SM OVC017 16/14 A3021 RMK AO2 SLP228 BINOVC T01610139=
202112162352 METAR KATL 162352Z 13005KT 10SM OVC018 17/14 A3019 RMK AO2 SLP220 BINOVC T01720139 10194 20167 55003=
202112162252 METAR KATL 162252Z 17005KT 10SM BKN018 18/13 A3018 RMK AO2 SLP217 T01780133=
202112162152 METAR KATL 162152Z 13003KT 10SM BKN019 18/13 A3019 RMK AO2 SLP221 T01830133=
202112162052 METAR KATL 162052Z 14003KT 10SM BKN018 19/13 A3020 RMK AO2 SLP223 T01890133 56019=
202112161952 METAR KATL 161952Z 30003KT 10SM OVC019 18/13 A3021 RMK AO2 SLP229 T01830128=
202112161914 SPECI KATL 161914Z 22003KT 10SM OVC016 18/13 A3022 RMK AO2 T01780128=
202112161852 METAR KATL 161852Z VRB03KT 10SM OVC014 17/12 A3022 RMK AO2 SLP232 T01720122=
202112161752 METAR KATL 161752Z 13004KT 10SM OVC012 17/12 A3025 RMK AO2 SLP243 T01670117 10167 20117 58020=
202112161652 METAR KATL 161652Z 13004KT 10SM OVC010 16/11 A3028 RMK AO2 SLP254 T01560106=
202112161552 METAR KATL 161552Z 10004KT 10SM OVC011 14/09 A3030 RMK AO2 SLP262 T01440094=
202112161506 SPECI KATL 161506Z 06003KT 10SM BKN012 BKN031 OVC043 13/08 A3032 RMK AO2 T01330083=
202112161452 METAR KATL 161452Z VRB04KT 10SM FEW012 SCT033 BKN043 13/08 A3031 RMK AO2 SLP264 T01330083 53007=
202112161352 METAR KATL 161352Z 09005KT 10SM BKN035 BKN250 13/08 A3029 RMK AO2 SLP260 T01280083=
202112161252 METAR KATL 161252Z 08008KT 10SM BKN035 BKN250 12/07 A3029 RMK AO2 SLP258 T01170067=
202112161152 METAR KATL 161152Z 07007KT 10SM FEW011 BKN032 12/06 A3029 RMK AO2 SLP258 T01170061 10122 20106 53003=
202112161052 METAR KATL 161052Z 09006KT 10SM SCT011 BKN037 12/06 A3028 RMK AO2 SLP254 T01170056=
202112161014 SPECI KATL 161014Z 09006KT 10SM SCT011 BKN036 11/06 A3028 RMK AO2 T01110056=
202112160952 METAR KATL 160952Z 08006KT 10SM BKN011 BKN038 11/06 A3028 RMK AO2 SLP254 BKN011 V SCT T01110056=
202112160943 SPECI KATL 160943Z 08006KT 10SM BKN011 BKN038 11/06 A3028 RMK AO2 T01110056=
202112160852 METAR KATL 160852Z 08007KT 10SM BKN039 11/06 A3028 RMK AO2 SLP254 T01060056 56008=
202112160752 METAR KATL 160752Z 07006KT 10SM BKN039 11/06 A3029 RMK AO2 SLP257 T01110056=
202112160652 METAR KATL 160652Z 09007KT 10SM FEW022 BKN042 BKN250 11/06 A3029 RMK AO2 SLP258 T01110056=
202112160552 METAR KATL 160552Z 10008KT 10SM SCT022 BKN030 BKN250 12/06 A3031 RMK AO2 SLP263 T01170056 10128 20106 58011=
202112160452 METAR KATL 160452Z 11008KT 10SM SCT028 BKN040 BKN250 12/06 A3032 RMK AO2 SLP267 T01220056 401560050=
202112160406 SPECI KATL 160406Z 10005KT 10SM SCT028 BKN040 BKN250 12/06 A3034 RMK AO2 T01170061=
202112160352 METAR KATL 160352Z 09007KT 10SM BKN028 BKN250 11/06 A3034 RMK AO2 SLP274 T01110061=
202112160252 METAR KATL 160252Z 10010KT 10SM BKN030 BKN250 13/06 A3034 RMK AO2 SLP276 T01280056 58004=
202112160152 METAR KATL 160152Z 09006KT 10SM FEW045 BKN250 11/06 A3035 RMK AO2 SLP279 T01060056=
202112160052 METAR KATL 160052Z 10005KT 10SM CLR 11/06 A3036 RMK AO2 SLP282 T01110056=
202112152352 METAR KATL 152352Z 10006KT 10SM FEW045 FEW250 13/06 A3035 RMK AO2 SLP281 T01280056 10156 20128 50001=
202112152252 METAR KATL 152252Z 10005KT 10SM FEW045 FEW250 13/06 A3036 RMK AO2 SLP282 T01330056=
202112152152 METAR KATL 152152Z 10006KT 10SM SCT022 BKN046 BKN250 15/06 A3036 RMK AO2 SLP281 T01500056=
202112152052 METAR KATL 152052Z 09006KT 10SM BKN022 16/06 A3035 RMK AO2 SLP279 T01560061 56019=
202112151952 METAR KATL 151952Z 11007KT 10SM OVC017 15/06 A3036 RMK AO2 SLP281 BINOVC T01500056 $=
202112151852 METAR KATL 151852Z 11009KT 10SM OVC017 14/05 A3038 RMK AO2 SLP289 T01440050 $=
202112151752 METAR KATL 151752Z 08010KT 10SM OVC018 14/03 A3041 RMK AO2 SLP299 T01390033 10144 20056 58021 $=
202112151652 METAR KATL 151652Z 10006KT 10SM BKN020 OVC036 14/03 A3044 RMK AO2 SLP310 BINOVC T01390028 $=
202112151641 SPECI KATL 151641Z 09007KT 10SM BKN020 BKN036 13/03 A3045 RMK AO2 T01330028 $=
202112151552 METAR KATL 151552Z 08007KT 10SM SCT023 BKN038 12/02 A3047 RMK AO2 SLP320 T01170022=
202112151549 SPECI KATL 151549Z 07008KT 10SM SCT022 BKN037 12/02 A3047 RMK AO2=
202112151452 METAR KATL 151452Z 09007KT 10SM BKN023 BKN200 09/02 A3047 RMK AO2 SLP322 T00940017 51005=
202112151352 METAR KATL 151352Z 08010KT 10SM BKN023 08/02 A3047 RMK AO2 SLP320 T00780017=
202112151252 METAR KATL 151252Z 07009KT 10SM BKN020 BKN250 07/02 A3047 RMK AO2 SLP320 T00720017=
202112151229 SPECI KATL 151229Z 07010KT 10SM BKN020 BKN250 07/02 A3047 RMK AO2 T00720017=
202112151152 METAR KATL 151152Z 08005KT 10SM FEW020 FEW045 06/02 A3046 RMK AO2 SLP316 T00560017 10083 20050 53008=
202112151052 METAR KATL 151052Z 08007KT 10SM FEW020 06/02 A3044 RMK AO2 SLP309 T00610017=
202112150952 METAR KATL 150952Z 10005KT 10SM FEW020 06/02 A3043 RMK AO2 SLP306 T00610017=
202112150852 METAR KATL 150852Z 08008KT 10SM FEW020 06/02 A3043 RMK AO2 SLP305 T00610017 53000=
202112150752 METAR KATL 150752Z 07007KT 10SM FEW025 07/02 A3043 RMK AO2 SLP306 T00670017=
202112150652 METAR KATL 150652Z 09006KT 10SM FEW040 07/02 A3042 RMK AO2 SLP302 T00670017=
202112150552 METAR KATL 150552Z 08007KT 10SM CLR 08/02 A3043 RMK AO2 SLP305 T00780022 10133 20072 50002=
202112150452 METAR KATL 150452Z 08006KT 10SM CLR 09/02 A3044 RMK AO2 SLP309 T00890017 402060028=
202112150352 METAR KATL 150352Z 09007KT 10SM CLR 09/02 A3043 RMK AO2 SLP308 T00890017=
202112150252 METAR KATL 150252Z 10005KT 10SM CLR 11/02 A3043 RMK AO2 SLP305 T01060017 51009=
202112150152 METAR KATL 150152Z 10004KT 10SM CLR 12/02 A3042 RMK AO2 SLP303 T01220017=
202112150052 METAR KATL 150052Z 11005KT 10SM CLR 13/03 A3041 RMK AO2 SLP303 T01280028=
202112142352 METAR KATL 142352Z 00000KT 10SM CLR 14/03 A3040 RMK AO2 SLP297 T01390028 10206 20139 53010=
202112142252 METAR KATL 142252Z 12005KT 10SM CLR 17/02 A3038 RMK AO2 SLP288 T01670017=
202112142152 METAR KATL 142152Z 09004KT 10SM CLR 19/M01 A3038 RMK AO2 SLP288 T01891011=
202112142052 METAR KATL 142052Z 00000KT 10SM CLR 21/00 A3037 RMK AO2 SLP284 T02060000 55008=
202112141952 METAR KATL 141952Z 00000KT 10SM CLR 20/01 A3036 RMK AO2 SLP283 T02000006=
202112141852 METAR KATL 141852Z 00000KT 10SM CLR 19/01 A3038 RMK AO2 SLP287 T01940011 $=
202112141752 METAR KATL 141752Z 00000KT 10SM CLR 17/02 A3039 RMK AO2 SLP293 T01720017 10172 20028 58016 $=
202112141652 METAR KATL 141652Z VRB03KT 10SM CLR 16/02 A3042 RMK AO2 SLP303 T01610022 $=
202112141552 METAR KATL 141552Z 34003KT 10SM CLR 14/02 A3044 RMK AO2 SLP308 T01390022 $=
202112141452 METAR KATL 141452Z 32003KT 10SM CLR 10/02 A3044 RMK AO2 SLP312 T01000022 51012 $=
202112141352 METAR KATL 141352Z 32005KT 10SM CLR 07/02 A3043 RMK AO2 SLP310 T00670022=
202112141252 METAR KATL 141252Z 29005KT 10SM CLR 04/01 A3042 RMK AO2 SLP306 T00390006=
202112141152 METAR KATL 141152Z 32006KT 10SM CLR 03/01 A3041 RMK AO2 SLP301 T00330006 10061 20028 53002=
202112141052 METAR KATL 141052Z 27003KT 10SM CLR 04/01 A3040 RMK AO2 SLP296 T00440006=
202112140952 METAR KATL 140952Z 00000KT 10SM CLR 04/01 A3039 RMK AO2 SLP293 T00390006=
202112140852 METAR KATL 140852Z 00000KT 10SM CLR 04/01 A3040 RMK AO2 SLP297 T00390006 50001=
202112140752 METAR KATL 140752Z 00000KT 10SM CLR 04/01 A3040 RMK AO2 SLP297 T00440011=
202112140652 METAR KATL 140652Z 00000KT 10SM CLR 05/01 A3041 RMK AO2 SLP299 T00500011=
202112140552 METAR KATL 140552Z 33003KT 10SM CLR 06/02 A3040 RMK AO2 SLP296 T00610017 10106 20056 51002=
202112140452 METAR KATL 140452Z 00000KT 10SM CLR 07/01 A3039 RMK AO2 SLP295 T00670011 401670033=
202112140352 METAR KATL 140352Z 00000KT 10SM CLR 08/02 A3040 RMK AO2 SLP297 T00780017=
202112140252 METAR KATL 140252Z 00000KT 10SM CLR 08/02 A3039 RMK AO2 SLP295 T00780017 52006=
202112140152 METAR KATL 140152Z 00000KT 10SM CLR 08/02 A3039 RMK AO2 SLP294 T00830017=
202112140052 METAR KATL 140052Z 00000KT 10SM CLR 09/02 A3038 RMK AO2 SLP293 T00940022=
202112132352 METAR KATL 132352Z 00000KT 10SM CLR 11/01 A3037 RMK AO2 SLP289 T01060011 10167 20106 53007=
202112132252 METAR KATL 132252Z 00000KT 10SM CLR 13/00 A3036 RMK AO2 SLP283 T01330000=
202112132152 METAR KATL 132152Z 15003KT 10SM CLR 15/00 A3035 RMK AO2 SLP281 T01500000=
202112132052 METAR KATL 132052Z 00000KT 10SM CLR 16/00 A3035 RMK AO2 SLP280 T01610000 56014=
202112131952 METAR KATL 131952Z 00000KT 10SM CLR 16/00 A3035 RMK AO2 SLP280 T01610000=
202112131852 METAR KATL 131852Z 09004KT 10SM CLR 15/01 A3037 RMK AO2 SLP285 T01500006=
202112131752 METAR KATL 131752Z 00000KT 10SM CLR 14/00 A3039 RMK AO2 SLP295 T01390000 10139 20039 58013=
202112131652 METAR KATL 131652Z 12003KT 10SM CLR 13/00 A3042 RMK AO2 SLP304 T01280000=
202112131552 METAR KATL 131552Z 15005KT 10SM CLR 11/M01 A3044 RMK AO2 SLP310 T01111011=
202112131452 METAR KATL 131452Z 09004KT 10SM CLR 08/M01 A3043 RMK AO2 SLP309 T00831006 51013=
202112131352 METAR KATL 131352Z 09006KT 10SM CLR 06/M01 A3042 RMK AO2 SLP306 T00611006=
202112131252 METAR KATL 131252Z 09004KT 10SM CLR 04/M02 A3041 RMK AO2 SLP302 T00391017=
202112131152 METAR KATL 131152Z 06007KT 10SM CLR 04/M02 A3039 RMK AO2 SLP296 T00391017 10061 20033 53014 $=
202112131052 METAR KATL 131052Z 05004KT 10SM CLR 04/M01 A3037 RMK AO2 SLP287 T00441011 $=
202112130952 METAR KATL 130952Z 09005KT 10SM CLR 04/M01 A3035 RMK AO2 SLP282 T00441006 $=
202112130852 METAR KATL 130852Z 07005KT 10SM CLR 04/00 A3035 RMK AO2 SLP281 T00390000 51004 $=
202112130752 METAR KATL 130752Z 08004KT 10SM CLR 05/00 A3035 RMK AO2 SLP280 T00500000 $=
202112130652 METAR KATL 130652Z 09005KT 10SM CLR 05/01 A3034 RMK AO2 SLP277 T00500006 $=
202112130552 METAR KATL 130552Z 10004KT 10SM CLR 06/01 A3034 RMK AO2 SLP277 T00560006 10106 20056 50003 $=
202112130452 METAR KATL 130452Z 10004KT 10SM CLR 07/01 A3034 RMK AO2 SLP278 T00670006 401440022 $=
202112130352 METAR KATL 130352Z 09006KT 10SM CLR 07/01 A3034 RMK AO2 SLP279 T00670006 $=
202112130252 METAR KATL 130252Z 11004KT 10SM CLR 08/01 A3033 RMK AO2 SLP276 T00780006 51012 $=
202112130152 METAR KATL 130152Z 13004KT 10SM CLR 09/01 A3033 RMK AO2 SLP275 T00890006 $=
202112130052 METAR KATL 130052Z 11005KT 10SM CLR 10/00 A3032 RMK AO2 SLP271 T01000000 $=
202112122352 METAR KATL 122352Z 13003KT 10SM CLR 11/02 A3030 RMK AO2 SLP264 T01060017 10144 20106 53011 $=
202112122252 METAR KATL 122252Z 12003KT 10SM CLR 12/02 A3028 RMK AO2 SLP256 T01170017 $=
202112122152 METAR KATL 122152Z 09004KT 10SM CLR 13/01 A3027 RMK AO2 SLP253 T01330006 $=
202112122052 METAR KATL 122052Z 05003KT 10SM CLR 14/00 A3026 RMK AO2 SLP250 T01390000 55010 $=
202112121952 METAR KATL 121952Z 00000KT 10SM CLR 14/02 A3026 RMK AO2 SLP247 T01390017 $=
202112121852 METAR KATL 121852Z VRB03KT 10SM CLR 13/02 A3027 RMK AO2 SLP252 T01330017 $=
202112121752 METAR KATL 121752Z 03007KT 10SM CLR 12/01 A3029 RMK AO2 SLP260 T01170011 10122 20022 58001 $=
202112121652 METAR KATL 121652Z 05003KT 10SM FEW250 10/01 A3031 RMK AO2 SLP267 T01000006 $=
202112121552 METAR KATL 121552Z 34006KT 10SM FEW250 08/00 A3032 RMK AO2 SLP271 T00830000 $=
202112121452 METAR KATL 121452Z 34007KT 10SM FEW250 06/M01 A3030 RMK AO2 SLP262 T00561006 53029 $=
202112121352 METAR KATL 121352Z 33008KT 10SM FEW250 04/M01 A3027 RMK AO2 SLP252 T00391006 $=
202112121252 METAR KATL 121252Z 32007KT 10SM FEW250 02/M01 A3023 RMK AO2 SLP241 T00221011 $=
202112121152 METAR KATL 121152Z 33007KT 10SM FEW250 03/M01 A3021 RMK AO2 SLP232 70046 T00281006 10083 20028 53014 $=
202112121052 METAR KATL 121052Z 33007KT 10SM FEW250 04/M01 A3019 RMK AO2 SLP226 T00391006 $=
202112120952 METAR KATL 120952Z 34010KT 10SM FEW200 SCT250 04/00 A3017 RMK AO2 SLP219 T00440000 $=
202112120852 METAR KATL 120852Z 33015G24KT 10SM BKN200 BKN250 06/00 A3017 RMK AO2 PK WND 34027/0840 SLP216 T00610000 53016 $=
202112120752 METAR KATL 120752Z 33013G21KT 10SM SCT180 BKN200 OVC250 07/02 A3015 RMK AO2 SLP211 T00670017 $=
202112120652 METAR KATL 120652Z 33014G27KT 10SM FEW150 OVC180 07/02 A3013 RMK AO2 PK WND 33032/0631 SLP200 T00720017 $=
202112120552 METAR KATL 120552Z 32016KT 10SM FEW080 SCT160 BKN180 OVC250 08/03 A3012 RMK AO2 SLP196 60008 T00830033 10150 20083 53017 $=
202112120452 METAR KATL 120452Z 31016G22KT 10SM SCT110 BKN140 BKN200 BKN250 09/05 A3011 RMK AO2 PRESRR SLP192 T00940050 402390094 $=
202112120352 METAR KATL 120352Z 33010KT 10SM FEW018 SCT085 BKN110 BKN250 10/06 A3004 RMK AO2 RAE30 PRESFR SLP170 P0000 T01000061 $=
202112120252 METAR KATL 120252Z 31012KT 10SM -RA FEW020 BKN100 BKN250 11/08 A3007 RMK AO2 RAB45 SLP178 P0000 60008 T01110078 53023 $=
202112120152 METAR KATL 120152Z 30013KT 10SM SCT020 BKN030 BKN100 OVC250 12/10 A3004 RMK AO2 SLP169 RAE10 P0000 T01220100 $=
202112120148 SPECI KATL 120148Z 30011KT 10SM SCT020 BKN030 BKN100 OVC250 13/10 A3004 RMK AO2 RAE10 P0000 $=
202112120052 METAR KATL 120052Z 30014KT 8SM -RA SCT013 BKN017 OVC100 13/11 A3001 RMK AO2 RAB02 SLP160 P0008 T01330111 $=
202112120041 SPECI KATL 120041Z 29013G20KT 6SM -RA BR SCT013 BKN017 OVC100 14/13 A3002 RMK AO2 RAB02 P0005 T01440128 $=
202112112352 METAR KATL 112352Z 28008KT 10SM SCT015 SCT023 BKN095 OVC250 15/12 A3000 RMK AO2 RAB01E39 SLP154 P0004 60038 T01500122 10239 20150 51011 $=
202112112252 METAR KATL 112252Z 26006KT 10SM FEW008 BKN030 BKN080 OVC150 16/14 A3000 RMK AO2 RAE23 PRESRR SLP154 P0000 T01610144 $=
202112112250 SPECI KATL 112250Z 25005KT 10SM FEW008 BKN030 BKN080 OVC150 16/14 A2999 RMK AO2 RAE23 PRESRR P0000 $=
202112112204 SPECI KATL 112204Z 27008KT 10SM -RA FEW007 BKN016 OVC070 17/15 A2997 RMK AO2 P0000 T01670150 $=
202112112152 METAR KATL 112152Z 26007KT 4SM -RA BR SCT020 BKN049 OVC065 17/15 A2996 RMK AO2 SLP143 P0009 T01670150 $=
202112112123 SPECI KATL 112123Z 26008KT 4SM -RA BR SCT031 BKN055 OVC070 17/15 A2996 RMK AO2 P0007 T01670150 $=
202112112105 SPECI KATL 112105Z 28009G18KT 2SM RA BR SCT027 BKN050 OVC065 17/15 A2995 RMK AO2 P0004 T01670150 $=
202112112052 METAR KATL 112052Z 26010KT 7SM -RA SCT027 BKN050 OVC065 17/15 A2994 RMK AO2 LTG DSNT S RAE14B50 SLP137 CB DSNT S P0000 60025 T01720150 53006 $=
202112112019 SPECI KATL 112019Z 28009KT 7SM SCT027 BKN050 BKN065 18/16 A2992 RMK AO2 RAE14 P0000 T01780156 $=
202112111952 METAR KATL 111952Z 27010KT 4SM -RA BR SCT017 BKN026 BKN050 17/15 A2993 RMK AO2 PK WND 30036/1915 WSHFT 1901 RAB11 TSB03E50 SLP134 TS E-SE MOV E P0025 T01670150 $=
202112111930 SPECI KATL 111930Z 28015G25KT 1 1/2SM R09R/3500VP6000FT TSRA BR SCT017 BKN028CB OVC055 17/15 A2994 RMK AO2 PK WND 30036/1915 WSHFT 1901 LTG DSNT NE RAB11 TSB03 OCNL LTGICCG NE-S TS NE-S MOV E CB DSNT NE P0019 T01670150 $=
202112111923 SPECI KATL 111923Z 30011G36KT 1/2SM R09R/3500VP6000FT +TSRA FG SCT017 BKN028CB OVC055 17/16 A2994 RMK AO2 PK WND 30036/1915 WSHFT 1901 RAB11 TSB03 OCNL LTGICCG OHD-SW-N TS OHD-SW-N MOV E P0010 T01720156 $=
202112111916 SPECI KATL 111916Z 29023G36KT 2SM -TSRA SCT017 BKN028CB OVC055 19/15 A2993 RMK AO2 PK WND 30036/1915 WSHFT 1901 RAB11 TSB03 PRESRR OCNL LTGICCG OHD-SW-N TS OHD-SW-N MOV E P0000 T01940150 $=
202112111904 SPECI KATL 111904Z 21011G20KT 7SM TS BKN026CB BKN037 BKN044 23/18 A2990 RMK AO2 TSB03 OCNL LTGICCG N TS N MOV E CB DSNT SW-NW T02330178 $=
202112111852 METAR KATL 111852Z 20011G18KT 7SM BKN026CB BKN037 BKN044 23/18 A2989 RMK AO2 PK WND 21026/1754 LTG DSNT W SLP117 CB W MOV E CB DSNT SW-NW T02330178 $=
202112111752 METAR KATL 111752Z 22016G28KT 8SM BKN025 BKN037 23/18 A2993 RMK AO2 PK WND 22028/1751 SLP129 T02330178 10233 20167 58025 $=
202112111652 METAR KATL 111652Z 21015G24KT 8SM SCT021 BKN029 BKN050 22/18 A2996 RMK AO2 PK WND 22027/1617 SLP139 T02220178 $=
202112111552 METAR KATL 111552Z 19013G22KT 7SM SCT017 BKN027 BKN040 BKN130 22/18 A2998 RMK AO2 PK WND 20026/1541 SLP149 T02220183 $=
202112111521 SPECI KATL 111521Z 20011G21KT 7SM SCT011 BKN027 BKN045 BKN130 21/18 A2999 RMK AO2 T02110183 $=
202112111452 METAR KATL 111452Z 20012G19KT 7SM SCT009 SCT024 BKN047 BKN150 21/18 A3000 RMK AO2 SLP156 T02060183 53002 $=
202112111401 SPECI KATL 111401Z 19007KT 6SM BR SCT006 SCT017 BKN050 BKN250 19/18 A3000 RMK AO2 T01890183 $=
202112111352 METAR KATL 111352Z 19007KT 6SM BR SCT006 BKN017 BKN050 BKN250 19/18 A3000 RMK AO2 SLP154 BKN017 V SCT T01890183 $=
202112111342 SPECI KATL 111342Z 19007KT 6SM BR SCT006 BKN019 BKN050 BKN250 19/18 A3000 RMK AO2 SCT006 V BKN T01890178 $=
202112111332 SPECI KATL 111332Z 20007KT 6SM BR SCT006 SCT012 BKN050 BKN250 19/18 A3000 RMK AO2 SCT006 V BKN T01890178 $=
202112111252 METAR KATL 111252Z 19007KT 2SM BR SCT005 BKN012 BKN016 BKN250 18/17 A2999 RMK AO2 SFC VIS 5 SLP155 MDT CU E-SE T01830172 $=
202112111152 METAR KATL 111152Z 18003KT 2SM R09R/4500VP6000FT BR SCT004 BKN016 BKN030 OVC250 17/16 A3000 RMK AO2 SFC VIS 4 SLP156 VIS S-SW 2 70004 T01670161 10167 20139 55003 $=
202112111137 SPECI KATL 111137Z 16005KT 2SM R09R/3000VP6000FT BR BKN005 BKN015 BKN055 OVC250 16/16 A2999 RMK AO2 SFC VIS 2 1/2 VIS SE-SW 3/4 CIG 003V007 BKN005 V SCT T01610156 $=
202112111120 SPECI KATL 111120Z 14005KT 1/2SM R09R/3000V6000FT BR BKN003 BKN009 OVC015 16/15 A2999 RMK AO2 SFC VIS 1 1/2 VIS SE-SW 3/4 BKN003 V SCT T01560150 $=
202112111052 METAR KATL 111052Z 13004KT 1/2SM R09R/2000V2800FT FG BKN002 OVC013 16/15 A2999 RMK AO2 SLP153 T01610150 $=
202112111016 SPECI KATL 111016Z 14003KT 1/2SM R09R/4000VP6000FT BR BKN003 BKN013 OVC028 16/15 A2999 RMK AO2 SFC VIS 1 1/2 CIG 002V004 TWRINC T01560150 $=
202112111006 SPECI KATL 111006Z 15006KT 1/2SM R09R/3500VP6000FT BR FEW001 SCT004 OVC013 16/15 A2999 RMK AO2 SFC VIS 2 T01560150 $=
202112110952 METAR KATL 110952Z 15006KT 1/8SM R09R/3000V4000FT FG VV002 16/14 A2999 RMK AO2 SFC VIS 1/2 SLP153 T01560144 $=
202112110922 SPECI KATL 110922Z 14004KT 1/8SM R09R/2200V2400FT FG VV002 15/14 A3000 RMK AO2 SFC VIS 1/4 T01500144 $=
202112110852 METAR KATL 110852Z 11005KT 1/8SM R09R/1600V1800FT FG VV002 14/14 A3001 RMK AO2 SFC VIS 1/4 SLP160 T01440139 58003 $=
202112110752 METAR KATL 110752Z 12004KT 1/8SM R09R/1800FT FG VV002 14/14 A3001 RMK AO2 SFC VIS 1/2 SLP162 T01440139 $=
202112110652 METAR KATL 110652Z 10003KT 1/8SM R09R/2400V2800FT FG VV003 14/14 A3002 RMK AO2 SFC VIS 1/2 SLP165 T01440139 $=
202112110552 METAR KATL 110552Z 12003KT 1/8SM R09R/2200V2400FT FG VV002 14/13 A3002 RMK AO2 SFC VIS 1/4 DZE50 SLP164 P0000 60000 T01390133 10139 20128 58013 $=
202112110452 METAR KATL 110452Z 13005KT 1/8SM R09R/1800FT -DZ FG VV002 14/13 A3003 RMK AO2 SFC VIS 1/4 SLP169 P0000 T01390128 401390083 $=
202112110352 METAR KATL 110352Z 11005KT 1/8SM R09R/1600FT -DZ FG VV002 13/13 A3005 RMK AO2 SFC VIS 1/4 SLP177 P0000 T01330128=
202112110252 METAR KATL 110252Z 12006KT 1/8SM R09R/1600V2000FT -DZ FG VV002 13/13 A3005 RMK AO2 SFC VIS 1/4 SLP178 P0000 60000 T01330128 58003=
202112110152 METAR KATL 110152Z 11007KT 1/8SM R09R/1800V2200FT -DZ FG VV002 13/12 A3006 RMK AO2 SFC VIS 1/4 SLP181 P0000 T01330122=
202112110122 SPECI KATL 110122Z 10006KT 1/8SM R09R/2000V2200FT -DZ FG VV002 13/12 A3006 RMK AO2 SFC VIS 1/4 P0000 T01280122=
202112110052 METAR KATL 110052Z 11005KT 1/8SM R09R/2600V4000FT -DZ FG VV002 13/12 A3006 RMK AO2 SFC VIS 1/2 SLP180 P0000 T01280122=
202112102352 METAR KATL 102352Z 09006KT 1/8SM R09R/3500VP6000FT -DZ FG VV002 13/12 A3006 RMK AO2 SFC VIS 1/2 RAB37E47 SLP181 P0001 60001 T01280122 10128 20111 53003=
202112102252 METAR KATL 102252Z 12004KT 1/8SM R09R/2600V3000FT -DZ FG VV002 12/12 A3006 RMK AO2 SFC VIS 1/2 SLP179 P0000 T01220117=
202112102152 METAR KATL 102152Z 13007KT 1/8SM R09R/2400V3000FT -DZ FG VV002 12/12 A3005 RMK AO2 SFC VIS 1/4 SLP178 P0000 T01220117=
202112102148 SPECI KATL 102148Z 13006KT 1/8SM R09R/2200V3000FT -DZ FG VV002 12/12 A3006 RMK AO2 SFC VIS 1/4 P0000=
202112102108 SPECI KATL 102108Z 12005KT 1/4SM R09R/2600V4000FT -DZ FG VV002 12/12 A3005 RMK AO2 P0000 T01220117=
202112102052 METAR KATL 102052Z 11005KT 1/4SM R09R/3000V4500FT -DZ FG OVC001 12/12 A3005 RMK AO2 SFC VIS 1/2 SLP177 CIG 001V003 P0000 60000 T01220117 55008=
202112101952 METAR KATL 101952Z 11006KT 1/4SM R09R/2800V3500FT -DZ FG VV002 12/12 A3005 RMK AO2 SFC VIS 1/2 SLP177 P0000 T01220117=
202112101852 METAR KATL 101852Z 13005KT 1/4SM R09R/4000VP6000FT -DZ BR OVC002 12/12 A3006 RMK AO2 SFC VIS 1 SLP180 CIG 001V003 P0000 T01220117 $=
202112101752 METAR KATL 101752Z 13006KT 1/4SM R09R/4000VP6000FT -DZ BR OVC002 12/11 A3008 RMK AO2 SFC VIS 1 1/4 SLP186 CIG 001V003 TWRINC P0000 60003 T01170106 10117 20094 58023 $=
202112101652 METAR KATL 101652Z 14007KT 1/4SM R09R/P6000FT -DZ BR OVC003 11/10 A3011 RMK AO2 SFC VIS 2 1/2 SLP199 CIG 002V004 PCPN VRY LGT TWRINC P0000 T01110100 $=
202112101552 METAR KATL 101552Z 11006KT 1/4SM R09R/P6000FT -DZ BR OVC003 10/09 A3014 RMK AO2 SFC VIS 5 RAE02DZB02 SLP207 CIG 002V004 TWRINC P0000 T01000094 $=
202112101452 METAR KATL 101452Z 11004KT 1/4SM R09R/P6000FT -RA BR OVC003 10/09 A3015 RMK AO2 SFC VIS 5 DZB10E45 SLP211 CIG 002V004 TWRINC P0001 60003 T01000089 53007 $=
202112101352 METAR KATL 101352Z 09007KT 1/4SM R09R/P6000FT -RA BR BKN002 OVC005 09/08 A3013 RMK AO2 SFC VIS 2 SLP204 DZE15RAB15 P0002 T00940083 $=
202112101252 METAR KATL 101252Z 09008KT 1/4SM R09R/P6000FT -DZ BR OVC003 09/08 A3012 RMK AO2 SFC VIS 6 RAE1158DZB49 SLP202 TWRINC PCPN VRY LGT P0000 T00940083 $=
202112101249 SPECI KATL 101249Z 09008KT 1/4SM R09R/P6000FT -DZ BR OVC003 09/08 A3012 RMK AO2 SFC VIS 6 RAE1158DZB49 PCPN VRY LGT P0000 $=
202112101152 METAR KATL 101152Z 11007KT 1 1/2SM -RA BR BKN004 OVC008 09/08 A3012 RMK AO2 SFC VIS 6 SLP201 P0010 60031 70040 T00940083 10094 20083 53003 $=
202112101052 METAR KATL 101052Z 12007KT 1SM R09R/P6000FT +RA BR OVC002 09/08 A3010 RMK AO2 SFC VIS 2 SLP195 DZE0956B05E14RAB0956E05B14 TWRINC P0009 T00940083 $=
202112100952 METAR KATL 100952Z 09006KT 1SM R09R/P6000FT -DZ BR OVC003 09/08 A3010 RMK AO2 SFC VIS 2 1/2 SLP193 RAB16E27DZB27 P0001 T00940083 $=
202112100852 METAR KATL 100852Z 10006KT 2SM BKN004 OVC013 09/08 A3011 RMK AO2 SFC VIS 10 DZE16RAB16E26 SLP196 CIG 003V005 P0001 60011 T00940083 56007 $=
202112100752 METAR KATL 100752Z 10006KT 2SM -DZ BKN004 OVC015 09/08 A3011 RMK AO2 SFC VIS 7 SLP197 RAE30DZB30 TWRINC P0002 T00890078 $=
202112100652 METAR KATL 100652Z 09005KT 2SM -RA BR BKN004 BKN009 OVC028 08/08 A3013 RMK AO2 SFC VIS 4 SLP202 CIG 003V005 P0008 T00830078 $=
202112100552 METAR KATL 100552Z 11005KT 2SM -RA BR BKN004 OVC020 08/07 A3013 RMK AO2 SFC VIS 3 SLP205 P0008 60009 T00830072 10094 20083 55007 $=
202112100452 METAR KATL 100452Z 11007KT 4SM -RA BR BKN007 OVC018 09/07 A3012 RMK AO2 RAB31 SLP200 P0001 T00890072 401280039 $=
202112100352 METAR KATL 100352Z 14008KT 10SM BKN009 OVC018 09/07 A3015 RMK AO2 SLP214 T00890067 $=
202112100252 METAR KATL 100252Z 14007KT 9SM OVC009 09/07 A3015 RMK AO2 SLP215 T00890067 50002 $=
202112100152 METAR KATL 100152Z 12006KT 10SM BKN010 BKN025 OVC200 09/06 A3016 RMK AO2 SLP217 T00940061 $=
202112100052 METAR KATL 100052Z 11007G15KT 10SM FEW015 BKN028 OVC200 09/06 A3015 RMK AO2 SLP213 T00940061 $=
202112092352 METAR KATL 092352Z 11009KT 10SM BKN034 BKN200 BKN250 09/06 A3015 RMK AO2 SLP212 T00940061 10128 20094 51009 $=
202112092252 METAR KATL 092252Z 11008KT 10SM SCT200 BKN250 10/06 A3014 RMK AO2 SLP210 T01000061 $=
202112092152 METAR KATL 092152Z 11007KT 10SM FEW170 BKN200 OVC250 12/06 A3013 RMK AO2 SLP207 T01170056 $=
202112092052 METAR KATL 092052Z 12008KT 10SM FEW150 BKN200 BKN250 12/06 A3012 RMK AO2 SLP202 T01220056 55010 $=
202112091952 METAR KATL 091952Z 13009KT 10SM FEW180 BKN200 BKN250 13/06 A3012 RMK AO2 SLP202 T01280056 $=
202112091852 METAR KATL 091852Z 14010KT 10SM SCT180 BKN200 OVC250 12/05 A3011 RMK AO2 PRESFR SLP199 T01220050=
202112091752 METAR KATL 091752Z 12008KT 10SM SCT180 BKN220 BKN250 12/05 A3015 RMK AO2 SLP212 VIRGA E-S ACC SW-W T01170050 10122 20039 55007 $=
202112091652 METAR KATL 091652Z 12011KT 10SM SCT170 BKN200 BKN250 12/04 A3015 RMK AO2 SLP212 VIRGA ALQDS ACC SW-NW T01170044 $=
202112091552 METAR KATL 091552Z 10008KT 10SM SCT170 BKN200 BKN250 09/04 A3016 RMK AO2 SLP216 VIRGA SW-NW-NE ACC ALQDS T00890039 $=
202112091452 METAR KATL 091452Z 10007KT 10SM SCT170 BKN200 BKN250 07/03 A3017 RMK AO2 SLP221 VIRGA SW-NW ACC DSNT W T00670028 53015 $=
202112091352 METAR KATL 091352Z 08008KT 10SM BKN200 BKN250 05/02 A3015 RMK AO2 SLP214 T00500017=
202112091252 METAR KATL 091252Z 08005KT 10SM SCT200 BKN250 04/02 A3015 RMK AO2 SLP215 T00440017=
202112091152 METAR KATL 091152Z 09006KT 10SM SCT200 BKN250 04/02 A3013 RMK AO2 SLP207 70002 T00440017 10083 20039 53018=
202112091052 METAR KATL 091052Z 12005KT 10SM SCT250 04/02 A3011 RMK AO2 PRESRR SLP199 T00440022=
202112090952 METAR KATL 090952Z 00000KT 10SM SCT250 05/02 A3007 RMK AO2 SLP184 T00500022=
202112090852 METAR KATL 090852Z 32004KT 10SM FEW250 05/02 A3007 RMK AO2 SLP187 T00500022 51007=
202112090752 METAR KATL 090752Z 34004KT 10SM FEW250 05/03 A3005 RMK AO2 SLP180 T00500028=
202112090652 METAR KATL 090652Z 27003KT 10SM FEW250 05/03 A3009 RMK AO2 SLP192 T00500028=
202112090552 METAR KATL 090552Z 34006KT 10SM FEW250 08/03 A3005 RMK AO2 SLP180 T00830028 10089 20056 58009=
202112090452 METAR KATL 090452Z 33006KT 10SM FEW250 06/03 A3010 RMK AO2 SLP197 T00560033 401220056=
202112090352 METAR KATL 090352Z 31005KT 10SM FEW250 06/03 A3009 RMK AO2 SLP193 T00560033=
202112090252 METAR KATL 090252Z 31005KT 10SM CLR 07/04 A3008 RMK AO2 SLP189 T00720039 51017=
202112090152 METAR KATL 090152Z 25004KT 10SM CLR 07/04 A3008 RMK AO2 SLP190 T00720039=
202112090052 METAR KATL 090052Z 32005KT 10SM CLR 08/04 A3006 RMK AO2 SLP180 T00830039=
202112082352 METAR KATL 082352Z 33005KT 10SM CLR 09/04 A3003 RMK AO2 SLP172 T00890044 10122 20089 53009=
202112082252 METAR KATL 082252Z 32006KT 10SM CLR 09/04 A3002 RMK AO2 SLP169 T00940044 $=
202112082152 METAR KATL 082152Z 34008KT 10SM CLR 12/04 A3001 RMK AO2 SLP163 T01170044 $=
202112082052 METAR KATL 082052Z 31009KT 10SM FEW022 12/06 A3000 RMK AO2 SLP161 T01170061 55001 $=
202112082005 SPECI KATL 082005Z 30010KT 10SM SCT020 12/07 A2999 RMK AO2 T01170067 $=
202112081952 METAR KATL 081952Z 31009KT 10SM BKN018 12/07 A2999 RMK AO2 SLP156 T01170067 $=
202112081916 SPECI KATL 081916Z 28007KT 10SM BKN016 11/07 A2999 RMK AO2 T01060067 $=
202112081852 METAR KATL 081852Z 32007KT 10SM OVC012 10/07 A2999 RMK AO2 SLP157 BINOVC T01000067=
202112081752 METAR KATL 081752Z 32009KT 10SM OVC010 09/07 A3000 RMK AO2 SLP163 60002 T00940067 10100 20072 50004=
202112081652 METAR KATL 081652Z 31007KT 10SM OVC010 10/07 A3001 RMK AO2 SLP165 CIG 008V012 T01000072 $=
202112081645 SPECI KATL 081645Z 32009KT 10SM OVC010 10/08 A3001 RMK AO2 CIG 008V012 T01000078 $=
202112081552 METAR KATL 081552Z 31009KT 10SM OVC006 09/08 A3002 RMK AO2 SLP168 CIG 005V007 T00940078 $=
202112081525 SPECI KATL 081525Z 24005KT 7SM BKN005 BKN009 OVC020 10/08 A3001 RMK AO2 T01000083 $=
202112081452 METAR KATL 081452Z 24003KT 3SM BR BKN004 BKN012 OVC020 09/08 A2999 RMK AO2 SFC VIS 6 SLP157 CIG 003V005 60002 T00890078 51010 $=
202112081400 SPECI KATL 081400Z 30003KT 3SM BR BKN004 BKN008 OVC016 08/07 A2999 RMK AO2 SFC VIS 5 CIG 003V005 T00830067 $=
202112081352 METAR KATL 081352Z 30003KT 3SM BR FEW003 BKN016 OVC025 08/07 A2999 RMK AO2 SFC VIS 5 SLP157 BINOVC T00780067 $=
202112081347 SPECI KATL 081347Z 3SM BR SCT003 BKN016 OVC025 08/07 A2998 RMK AO2 SFC VIS 5 BINOVC=
202112081313 SPECI KATL 081313Z 33005KT 1 1/2SM BR FEW004 BKN008 OVC014 08/06 A3000 RMK AO2 SFC VIS 4 T00780061 $=
202112081311 SPECI KATL 081311Z 36004KT 1SM R09R/P6000FT BR FEW004 BKN008 OVC014 08/06 A2999 RMK AO2 SFC VIS 4 T00780061 $=
202112081252 METAR KATL 081252Z 34005KT 1SM R09R/P6000FT BR BKN004 OVC013 08/07 A2999 RMK AO2 SFC VIS 4 RAE02B27E43DZB21E27 SLP157 CIG 003V006 P0002 T00780067 $=
202112081207 SPECI KATL 081207Z 00000KT 1SM R09R/P6000FT BR OVC003 07/06 A2997 RMK AO2 SFC VIS 3 RAE02 TWRINC P0000 T00720061 $=
202112081152 METAR KATL 081152Z 03005KT 2SM RA BR BKN004 OVC007 07/06 A2996 RMK AO2 SFC VIS 3 SLP148 P0004 60063 70063 T00720061 10083 20072 55003 $=
202112081052 METAR KATL 081052Z 05006KT 2SM -RA BR OVC004 07/06 A2996 RMK AO2 RAE21B48DZB22E48 SLP145 CIG 003V005 OCNL LTGIC DSNT S CB DSNT SE-SW P0004 T00720061 $=
202112081034 SPECI KATL 081034Z 07007KT 2SM -DZ BR OVC004 07/06 A2995 RMK AO2 SFC VIS 3 RAE21DZB22 CIG 003V005 P0003 T00720061 $=
202112081022 SPECI KATL 081022Z 08007KT 3SM -DZ BR BKN004 OVC009 07/06 A2995 RMK AO2 RAE21DZB22 CIG 003V005 P0003 T00720061 $=
202112080952 METAR KATL 080952Z 08006KT 3SM -RA BR BKN005CB OVC009 07/06 A2996 RMK AO2 RAB0854 SLP146 OCNL LTGIC DSNT S CB S & DSNT E-S-SW MOV NE P0005 T00720061 $=
202112080852 METAR KATL 080852Z 06005KT 5SM BR OVC008 07/06 A2997 RMK AO2 RAE33 TSB02E43 SLP151 TS MOV E P0039 60050 T00720061 56010 $=
202112080843 SPECI KATL 080843Z 07004KT 8SM BKN008 OVC022 07/06 A2997 RMK AO2 RAE33 TSB02E43 OCNL LTGICCG DSNT NE-SE TS MOV E P0039 T00720056 $=
202112080833 SPECI KATL 080833Z 08005KT 5SM TS BR BKN008CB BKN013 OVC046 07/06 A2997 RMK AO2 RAE33 TSB02 OCNL LTGICCG NE-SE-S TS NE-SE-S MOV NE P0039 T00720061 $=
202112080822 SPECI KATL 080822Z 07006KT 6SM R09R/4500VP6000FT -TSRA BR SCT008CB OVC046 07/06 A2997 RMK AO2 TSB02 OCNL LTGIC NE-SE-S TS NE-SE-S MOV NE P0039 T00720061 $=
202112080812 SPECI KATL 080812Z 03005KT 1 1/2SM R09R/4000VP6000FT +TSRA BR OVC008CB 07/06 A2998 RMK AO2 TSB02 OCNL LTGIC NE-OHD-SW TS NE-OHD-SW MOV NE P0020 T00720061 $=
202112080802 SPECI KATL 080802Z 06007KT 3SM -TSRA BR OVC008CB 08/06 A2997 RMK AO2 TSB02 OCNL LTGIC OHD-SW TS OHD-SW MOV NE P0011 T00780061 $=
202112080752 METAR KATL 080752Z 07007KT 2SM R09R/3500VP6000FT +RA BR OVC008CB 08/06 A2997 RMK AO2 RAB33 SLP151 OCNL LTG DSNT SW CB OVHD & DSNT SW P0011 T00780056 $=
202112080656 SPECI KATL 080656Z 13006KT 10SM OVC008 08/04 A2997 RMK AO2 T00830044 $=
202112080652 METAR KATL 080652Z 12007KT 10SM OVC010 08/04 A2997 RMK AO2 SLP149 CIG 009V011 T00830044 $=
202112080552 METAR KATL 080552Z 11006KT 10SM OVC012 08/03 A3000 RMK AO2 SLP162 60000 T00830028 10106 20083 58020 $=
202112080452 METAR KATL 080452Z 09007KT 10SM OVC011 08/02 A3002 RMK AO2 SLP169 T00830022 401110022 $=
202112080352 METAR KATL 080352Z 09006KT 10SM OVC013 08/03 A3005 RMK AO2 RAB34E46 SLP179 P0000 T00830033 $=
202112080252 METAR KATL 080252Z 09008KT 10SM OVC015 09/02 A3006 RMK AO2 RAB30E41 SLP183 P0000 60000 T00940022 51001 $=
202112080152 METAR KATL 080152Z 10008KT 10SM BKN017 OVC040 09/03 A3006 RMK AO2 SLP184 T00940028 $=
202112080052 METAR KATL 080052Z 09005KT 10SM BKN018 BKN040 BKN200 10/03 A3007 RMK AO2 SLP187 T01000028=
202112080027 SPECI KATL 080027Z 08007KT 10SM BKN024 BKN040 BKN200 11/03 A3007 RMK AO2 T01060028=
202112072352 METAR KATL 072352Z 10008KT 10SM FEW028 BKN040 BKN200 11/03 A3006 RMK AO2 SLP183 T01060033 10111 20083 58004=
202112072252 METAR KATL 072252Z 08003KT 10SM BKN042 BKN070 BKN200 11/04 A3007 RMK AO2 SLP187 T01110044=
202112072152 METAR KATL 072152Z 15004KT 10SM BKN050 BKN065 BKN200 BKN250 11/04 A3008 RMK AO2 SLP188 T01110044=
202112072052 METAR KATL 072052Z 11004KT 10SM SCT049 BKN060 BKN070 BKN250 11/04 A3007 RMK AO2 SLP186 T01060039 56022=
202112071952 METAR KATL 071952Z 10005KT 10SM SCT045 BKN055 OVC070 11/03 A3008 RMK AO2 SLP189 BINOVC T01060033=
202112071852 METAR KATL 071852Z 09006KT 10SM SCT049 SCT055 BKN070 BKN250 10/03 A3010 RMK AO2 SLP197 T01000028=
202112071752 METAR KATL 071752Z 06003KT 10SM BKN050 OVC060 08/02 A3014 RMK AO2 SLP209 BINOVC T00830017 10089 20022 58014 $=
202112071652 METAR KATL 071652Z 03004KT 10SM BKN047 BKN060 08/01 A3017 RMK AO2 SLP220 T00830011=
202112071552 METAR KATL 071552Z 03004KT 10SM BKN050 BKN060 07/M01 A3017 RMK AO2 SLP222 T00671006=
202112071452 METAR KATL 071452Z 35006KT 10SM BKN050 BKN060 04/M01 A3018 RMK AO2 SLP224 T00441011 53020=
202112071352 METAR KATL 071352Z 32007KT 10SM SCT050 BKN100 BKN200 04/M01 A3016 RMK AO2 SLP217 T00391011=
202112071252 METAR KATL 071252Z 33006KT 10SM SCT050 SCT200 03/M02 A3013 RMK AO2 SLP205 T00281017 $=
202112071152 METAR KATL 071152Z 31007KT 10SM FEW050 SCT200 03/M02 A3012 RMK AO2 SLP202 70037 T00281017 10067 20022 53018 $=
202112071052 METAR KATL 071052Z 31008KT 10SM CLR 03/M02 A3010 RMK AO2 SLP195 T00281017 $=
202112070952 METAR KATL 070952Z 32008KT 10SM CLR 03/M02 A3008 RMK AO2 SLP185 T00331017 $=
202112070852 METAR KATL 070852Z 31008KT 10SM FEW200 04/M01 A3006 RMK AO2 SLP182 T00391006 55003 $=
202112070752 METAR KATL 070752Z 32010KT 10SM FEW200 05/00 A3006 RMK AO2 SLP180 T00500000 $=
202112070652 METAR KATL 070652Z 32006KT 10SM FEW200 06/01 A3006 RMK AO2 SLP180 T00560006 $=
202112070552 METAR KATL 070552Z 31008KT 10SM SCT200 07/02 A3007 RMK AO2 SLP184 T00670017 10150 20067 56002 $=
202112070452 METAR KATL 070452Z 32008G18KT 10SM BKN200 08/02 A3008 RMK AO2 SLP186 T00780022 401780078 $=
202112070352 METAR KATL 070352Z 33012G24KT 10SM FEW015 BKN200 08/02 A3007 RMK AO2 SLP181 T00830022 $=
202112070311 SPECI KATL 070311Z 33018G23KT 10SM FEW015 SCT045 BKN200 10/06 A3008 RMK AO2 T01000061 $=
202112070252 METAR KATL 070252Z 32016G24KT 10SM BKN015 BKN045 OVC200 11/07 A3008 RMK AO2 SLP186 T01060072 51016=
202112070152 METAR KATL 070152Z 33013G19KT 10SM SCT012 BKN020 BKN045 OVC200 13/11 A3007 RMK AO2 SLP183 T01330106=
202112070140 SPECI KATL 070140Z 35013KT 10SM SCT012 BKN020 BKN045 OVC200 14/11 A3007 RMK AO2 T01390111=
202112070052 METAR KATL 070052Z 32012KT 10SM FEW008 SCT014 BKN045 BKN200 14/12 A3005 RMK AO2 SLP175 T01440122=
202112070039 SPECI KATL 070039Z 32010KT 10SM FEW006 SCT025 BKN050 BKN200 14/12 A3005 RMK AO2 T01440122=
202112062352 METAR KATL 062352Z 33009KT 10SM FEW005 BKN020 OVC150 15/13 A3003 RMK AO2 SLP168 60037 T01500128 10178 20150 53024=
202112062252 METAR KATL 062252Z 29009KT 9SM FEW004 BKN025 OVC150 17/15 A3000 RMK AO2 RAB12E45 SLP155 P0001 T01670150=
202112062216 SPECI KATL 062216Z 30005KT 3SM -RA BR SCT007 BKN015 BKN035 OVC150 17/16 A2998 RMK AO2 RAB12 P0000 T01670156=
202112062152 METAR KATL 062152Z 27006KT 10SM FEW008 BKN023 BKN034 OVC130 17/16 A2998 RMK AO2 RAE09 SLP150 P0000 T01720156=
202112062146 SPECI KATL 062146Z 27005KT 10SM FEW008 BKN024 BKN038 OVC130 17/16 A2998 RMK AO2 RAE09 P0000=
202112062052 METAR KATL 062052Z 23005KT 6SM -RA BR FEW007 SCT038 BKN110 OVC180 17/16 A2996 RMK AO2 SLP142 P0003 60036 T01720161 58013=
202112061952 METAR KATL 061952Z 22007KT 7SM -RA FEW006 SCT060 BKN100 OVC180 17/16 A2997 RMK AO2 LTG DSNT SE AND S SLP148 TSE31 TS MOVD E CB DSNT SE P0018 T01720156=
202112061932 SPECI KATL 061932Z 21010KT 6SM -RA BR FEW008 SCT050 BKN095 OVC130 17/16 A2998 RMK AO2 LTG DSNT E-S TSE31 TS MOVD E CB DSNT E-S P0015 T01720161=
202112061921 SPECI KATL 061921Z 20010KT 5SM VCTS -RA BR FEW032CB BKN060 OVC100 17/16 A2997 RMK AO2 LTG DSNT NE AND SE TSE21 OCNL LTGICCGCA VC NE-SE TS VC NE-SE MOV E P0014 T01720161=
202112061911 SPECI KATL 061911Z 20008KT 2SM +TSRA BR FEW008 SCT028CB OVC065 17/16 A2999 RMK AO2 LTG DSNT NE-S OCNL LTGICCGCA NE-SE-S TS NE-SE-S MOV E P0011 T01720161=
202112061859 SPECI KATL 061859Z 21006KT 1 1/2SM +TSRA BR SCT008 BKN018CB OVC040 17/16 A2999 RMK AO2 LTG DSNT E-SW OCNL LTGICCGCA OHD-ALQDS TS OHD-ALQDS MOV E P0004 T01720161=
202112061852 METAR KATL 061852Z 25005KT 1 1/2SM R09R/5000VP6000FT +TSRA BR OVC012CB 17/16 A3000 RMK AO2 LTG DSNT ALQDS SLP155 RAB07 TSB21 OCNL LTGICCCCA OHD-ALQDS TS OHD-ALQDS MOV E P0015 T01720161=
202112061846 SPECI KATL 061846Z 27006KT 3/4SM R09R/5000VP6000FT +TSRA BR OVC012CB 17/16 A3001 RMK AO2 LTG DSNT NE AND SW AND W RAB07 TSB21 OCNL LTGICCCCA OHD-ALQDS TS OHD-ALQDS MOV E P0006=
202112061843 SPECI KATL 061843Z 25007KT 1SM R09R/P6000FT TSRA BR OVC012CB 17/16 A3001 RMK AO2 LTG DSNT W-NE RAB07 TSB21 OCNL LTGICCCCA OHD-ALQDS TS OHD-ALQDS MOV E P0005 T01720156=
202112061823 SPECI KATL 061823Z 22009KT 6SM -TSRA BR OVC012CB 18/16 A3000 RMK AO2 LTG DSNT ALQDS RAB07 TSB21 OCNL LTGICCCCA SW-NW-N TS SW-NW-N MOV E P0001 T01780156=
202112061752 METAR KATL 061752Z 21006KT 10SM FEW002 OVC012 18/16 A3000 RMK AO2 LTG DSNT W AND NW SLP156 FU FEW002 FU PLUME NE CB DSNT W-N 60000 T01780156 10178 20128 58012=
202112061652 METAR KATL 061652Z 20007KT 10SM BKN011 OVC016 17/16 A3001 RMK AO2 DZE44 SLP159 CIG 009V013 P0000 T01720156=
202112061633 SPECI KATL 061633Z 22008G19KT 8SM -DZ OVC010 17/16 A3003 RMK AO2 PRESFR CIG 009V012 PCPN VRY LGT P0000 T01720156 $=
202112061552 METAR KATL 061552Z 24009KT 6SM -DZ BR OVC005 16/15 A3007 RMK AO2 PRESRR SLP179 CIG 004V006 PCPN VRY LGT P0000 T01610150 $=
202112061550 SPECI KATL 061550Z 24008KT 6SM -DZ BR OVC005 16/15 A3007 RMK AO2 PRESRR CIG 004V006 PCPN VRY LGT P0000 $=
202112061525 SPECI KATL 061525Z 20007G15KT 1SM R09R/P6000FT -DZ BR OVC004 16/15 A3004 RMK AO2 SFC VIS 2 1/2 CIG 003V005 P0000 T01560150 $=
202112061452 METAR KATL 061452Z 20008KT 1/4SM R09R/P6000FT -DZ BR OVC003 15/14 A3004 RMK AO2 SFC VIS 1 1/2 DZB12 SLP168 CIG 002V004 TWRINC P0000 60000 T01500144 56011 $=
202112061352 METAR KATL 061352Z 21007KT 1/4SM R09R/2200V2400FT FG VV002 14/13 A3005 RMK AO2 SFC VIS 1/2 SLP174 T01390133 $=
202112061344 SPECI KATL 061344Z 19008KT 1/4SM R09R/1600V2400FT FG VV002 14/13 A3004 RMK AO2 SFC VIS 1/2 T01390133 $=
202112061323 SPECI KATL 061323Z 21006KT 1/4SM R09R/1600V2000FT FG VV002 14/13 A3006 RMK AO2 SFC VIS 1/2 T01390128 $=
202112061252 METAR KATL 061252Z 19006KT 1/4SM R09R/3500V6000FT BR OVC002 13/13 A3005 RMK AO2 SFC VIS 1 SLP173 TWRINC T01330128 $=
202112061152 METAR KATL 061152Z 20003KT 1/4SM R09R/4000VP6000FT BR OVC003 13/12 A3007 RMK AO2 SFC VIS 1 1/2 SLP180 CIG 002V004 TWRINC T01280122 10133 20117 58006 $=
202112061150 SPECI KATL 061150Z 20003KT 1/4SM R09R/4000VP6000FT BR OVC003 13/12 A3007 RMK AO2 SFC VIS 1 1/2 CIG 002V004 TWRINC $=
202112061148 SPECI KATL 061148Z 19004KT 1 3/4SM R09R/4000VP6000FT BR OVC003 13/12 A3007 RMK AO2 $=
202112061122 SPECI KATL 061122Z 19003KT 5SM BR BKN004 OVC008 13/12 A3008 RMK AO2 T01280117 $=
202112061052 METAR KATL 061052Z 00000KT 6SM BR FEW005 OVC009 12/11 A3008 RMK AO2 SLP184 T01220111 $=
202112061034 SPECI KATL 061034Z 00000KT 6SM BR FEW005 BKN013 BKN250 12/11 A3007 RMK AO2 T01220111 $=
202112061027 SPECI KATL 061027Z 00000KT 6SM BR FEW005 BKN016 BKN250 12/11 A3008 RMK AO2 T01170106 $=
202112060952 METAR KATL 060952Z 12003KT 7SM FEW019 SCT180 SCT250 12/11 A3008 RMK AO2 SLP183 T01170106 $=
202112060924 SPECI KATL 060924Z 11003KT 7SM SCT021 BKN180 12/11 A3008 RMK AO2 T01220106 $=
202112060852 METAR KATL 060852Z 00000KT 7SM BKN022 BKN200 12/11 A3009 RMK AO2 SLP186 BKN022 V SCT T01220111 56008 $=
202112060848 SPECI KATL 060848Z 00000KT 7SM BKN022 BKN200 12/11 A3009 RMK AO2 BKN022 V SCT $=
202112060752 METAR KATL 060752Z 13003KT 7SM SCT019 SCT042 BKN200 12/11 A3009 RMK AO2 SLP187 T01220111 $=
202112060652 METAR KATL 060652Z 13004KT 8SM FEW042 BKN200 BKN250 13/11 A3010 RMK AO2 SLP190 T01280111 $=
202112060552 METAR KATL 060552Z 11004KT 8SM FEW042 SCT200 BKN250 13/12 A3011 RMK AO2 SLP194 T01330117 10161 20133 58006 $=
202112060452 METAR KATL 060452Z 11005KT 8SM BKN042 BKN250 15/12 A3013 RMK AO2 SLP199 T01500122 401830122 $=
202112060352 METAR KATL 060352Z 00000KT 8SM OVC042 16/13 A3014 RMK AO2 SLP203 T01560128 $=
202112060252 METAR KATL 060252Z 12005KT 8SM OVC047 16/12 A3013 RMK AO2 SLP201 BINOVC T01610122 50007 $=
202112060152 METAR KATL 060152Z 10005KT 8SM SCT038 OVC046 16/12 A3014 RMK AO2 SLP204 T01610122 $=
202112060052 METAR KATL 060052Z 10007KT 8SM OVC045 16/12 A3012 RMK AO2 SLP198 BINOVC T01610117 $=
202112052352 METAR KATL 052352Z 09006KT 8SM BKN043 BKN070 16/11 A3011 RMK AO2 SLP194 60000 T01560111 10183 20156 53003 $=
202112052252 METAR KATL 052252Z 08006KT 7SM BKN040 BKN065 16/12 A3010 RMK AO2 RAB03E16 SLP191 P0000 T01610122 $=
202112052152 METAR KATL 052152Z 08003KT 6SM HZ SCT042 BKN050 BKN065 18/13 A3010 RMK AO2 SLP190 T01780133 $=
202112052052 METAR KATL 052052Z 10004KT 7SM BKN041 BKN048 OVC060 18/13 A3010 RMK AO2 SLP190 BINOVC 60000 T01830133 56011 $=
202112051952 METAR KATL 051952Z 07003KT 6SM HZ OVC044 18/13 A3011 RMK AO2 SLP193 T01780133 $=
202112051852 METAR KATL 051852Z 08004KT 5SM HZ OVC036 17/13 A3012 RMK AO2 RAB05E14 SLP197 P0000 T01670128 $=
202112051752 METAR KATL 051752Z 10004KT 5SM HZ OVC034 16/13 A3013 RMK AO2 SLP202 T01610128 10161 20128 58016 $=
202112051652 METAR KATL 051652Z 08005KT 6SM HZ SCT026 BKN032 OVC050 16/13 A3017 RMK AO2 SLP213 T01560128 $=
202112051636 SPECI KATL 051636Z 11005KT 6SM HZ BKN026 OVC037 16/12 A3017 RMK AO2 LTG DSNT NW CB DSNT NW T01560122 $=
202112051552 METAR KATL 051552Z 11006KT 6SM HZ SCT024 BKN031 BKN050 16/13 A3018 RMK AO2 LTG DSNT NW SLP218 CB DSNT NW T01560128 $=
202112051512 SPECI KATL 051512Z 11005KT 5SM HZ SCT028 BKN036 OVC050 16/13 A3019 RMK AO2 T01560128 $=
202112051452 METAR KATL 051452Z 13005KT 4SM BR BKN026 BKN036 OVC050 15/13 A3018 RMK AO2 SLP219 T01500128 53012 $=
202112051413 SPECI KATL 051413Z 14003KT 6SM BR BKN026 OVC045 14/13 A3017 RMK AO2 LTG DSNT W CB DSNT W T01440128 $=
202112051352 METAR KATL 051352Z 13004KT 7SM SCT026 BKN032 BKN075 14/13 A3017 RMK AO2 SLP213 SCT026 V BKN T01440128 $=
202112051252 METAR KATL 051252Z 00000KT 7SM SCT022 BKN035 BKN060 13/12 A3016 RMK AO2 SLP210 SCT022 V BKN T01330117 $=
202112051152 METAR KATL 051152Z 00000KT 7SM SCT035 BKN060 13/12 A3015 RMK AO2 SLP206 T01280117 10144 20122 53007 $=
202112051052 METAR KATL 051052Z 00000KT 7SM FEW008 SCT036 SCT060 13/11 A3013 RMK AO2 SLP200 T01280111 $=
202112050952 METAR KATL 050952Z 00000KT 8SM FEW008 SCT034 BKN060 13/12 A3013 RMK AO2 SLP198 T01330117 $=
202112050852 METAR KATL 050852Z 00000KT 8SM FEW008 SCT028 BKN055 13/12 A3013 RMK AO2 SLP197 T01330117 56001 $=
202112050845 SPECI KATL 050845Z 00000KT 9SM FEW008 SCT028 BKN055 14/12 A3013 RMK AO2 T01390117 $=
202112050812 SPECI KATL 050812Z 00000KT 9SM FEW008 BKN029 BKN055 14/12 A3013 RMK AO2 T01440122 $=
202112050752 METAR KATL 050752Z 00000KT 9SM FEW032 BKN050 13/12 A3013 RMK AO2 SLP198 T01330117 $=
202112050652 METAR KATL 050652Z 00000KT 9SM SCT032 BKN049 13/12 A3012 RMK AO2 SLP196 T01330117 $=
202112050552 METAR KATL 050552Z 00000KT 9SM FEW032 BKN049 13/12 A3013 RMK AO2 SLP199 T01330117 10167 20133 58002 $=
202112050452 METAR KATL 050452Z 00000KT 9SM FEW032 SCT045 13/11 A3013 RMK AO2 SLP201 T01330111 402110111 $=
202112050352 METAR KATL 050352Z 22004KT 9SM FEW045 14/12 A3014 RMK AO2 SLP204 T01390117 $=
202112050252 METAR KATL 050252Z 00000KT 10SM SCT045 SCT250 14/12 A3014 RMK AO2 SLP203 T01440122 51009 $=
202112050152 METAR KATL 050152Z 00000KT 10SM FEW040 FEW250 16/13 A3013 RMK AO2 SLP203 T01560128 $=
202112050052 METAR KATL 050052Z 00000KT 10SM FEW250 16/12 A3012 RMK AO2 SLP198 T01560122 $=
202112042352 METAR KATL 042352Z 00000KT 10SM FEW200 SCT250 16/12 A3011 RMK AO2 SLP195 T01610122 10211 20161 51007 $=
202112042252 METAR KATL 042252Z 25005KT 10SM FEW030 SCT200 SCT250 18/13 A3010 RMK AO2 SLP191 T01780128 $=
202112042152 METAR KATL 042152Z 23003KT 10SM FEW032 SCT200 BKN250 20/13 A3010 RMK AO2 SLP190 T02000133 $=
202112042052 METAR KATL 042052Z 26004KT 10SM FEW030 BKN180 BKN250 21/13 A3009 RMK AO2 SLP185 T02110133 56008 $=
202112041952 METAR KATL 041952Z 30006KT 10SM BKN170 BKN200 BKN250 21/13 A3009 RMK AO2 SLP185 T02060133 $=
202112041852 METAR KATL 041852Z 28004KT 10SM BKN170 BKN200 BKN250 21/13 A3010 RMK AO2 SLP187 T02110133 $=
202112041752 METAR KATL 041752Z 29005KT 10SM BKN180 BKN250 19/13 A3011 RMK AO2 SLP193 T01890133 10194 20111 58010=
202112041652 METAR KATL 041652Z 31006KT 10SM FEW150 BKN200 BKN250 18/13 A3013 RMK AO2 SLP200 T01830133=
202112041552 METAR KATL 041552Z 28005KT 10SM BKN150 BKN200 BKN250 17/13 A3015 RMK AO2 SLP207 T01720133=
202112041452 METAR KATL 041452Z 26004KT 7SM FEW031 SCT150 BKN250 15/13 A3014 RMK AO2 SLP204 VIRGA E T01500128 53008 $=
202112041352 METAR KATL 041352Z 23003KT 8SM FEW029 FEW150 SCT200 BKN250 12/11 A3012 RMK AO2 SLP198 VIRGA ALQDS T01220111 $=
202112041252 METAR KATL 041252Z 29004KT 8SM FEW029 SCT200 BKN250 12/10 A3011 RMK AO2 SLP193 VIRGA SE-SW T01170100 $=
202112041152 METAR KATL 041152Z 28004KT 10SM FEW029 BKN220 12/11 A3012 RMK AO2 SLP196 VIRGA NE-OHD-NW T01170106 10139 20111 53012 $=
202112041052 METAR KATL 041052Z 25003KT 9SM FEW150 BKN250 12/10 A3009 RMK AO2 SLP187 T01170100 $=
202112040952 METAR KATL 040952Z 27004KT 10SM FEW150 BKN250 12/10 A3009 RMK AO2 SLP184 T01220100=
202112040852 METAR KATL 040852Z 26003KT 10SM FEW150 BKN250 12/09 A3008 RMK AO2 SLP182 T01170094 55001=
202112040752 METAR KATL 040752Z 28003KT 10SM FEW150 FEW250 12/10 A3008 RMK AO2 SLP180 T01220100=
202112040652 METAR KATL 040652Z 28003KT 10SM FEW250 13/10 A3008 RMK AO2 SLP180 T01280100=
202112040552 METAR KATL 040552Z 27005KT 10SM SCT250 14/11 A3008 RMK AO2 SLP182 T01390106 10183 20139 50000=
202112040452 METAR KATL 040452Z 26004KT 10SM SCT250 15/11 A3009 RMK AO2 SLP184 T01500106 402500100=
202112040352 METAR KATL 040352Z 25005KT 10SM FEW250 16/10 A3009 RMK AO2 SLP186 T01560100=
202112040252 METAR KATL 040252Z 24004KT 10SM FEW250 16/09 A3008 RMK AO2 SLP184 T01560089 53003=
202112040152 METAR KATL 040152Z 23005KT 10SM FEW200 SCT250 17/08 A3008 RMK AO2 SLP183 T01670083=
202112040052 METAR KATL 040052Z 23005KT 10SM FEW200 BKN250 18/08 A3007 RMK AO2 SLP182 T01780083=
202112032352 METAR KATL 032352Z 22005KT 10SM FEW200 BKN250 18/07 A3007 RMK AO2 SLP181 T01830072 10250 20183 53010=
202112032252 METAR KATL 032252Z 00000KT 10SM FEW180 BKN250 20/06 A3005 RMK AO2 SLP174 T02000061 $=
202112032152 METAR KATL 032152Z 23005KT 10SM SCT180 BKN250 BKN300 22/06 A3005 RMK AO2 SLP172 T02220061=
202112032052 METAR KATL 032052Z 22005KT 10SM FEW200 SCT250 BKN300 24/06 A3004 RMK AO2 SLP169 T02390056 56016=
202112031952 METAR KATL 031952Z 29006KT 10SM FEW200 SCT250 BKN300 24/06 A3004 RMK AO2 SLP169 T02440061 $=
202112031852 METAR KATL 031852Z 30005KT 10SM SCT200 SCT250 23/06 A3006 RMK AO2 SLP175 T02330056 $=
202112031752 METAR KATL 031752Z 31005KT 10SM FEW200 SCT250 23/06 A3009 RMK AO2 SLP184 T02280061 10228 20100 58015 $=
202112031652 METAR KATL 031652Z 31004KT 10SM FEW200 FEW250 21/08 A3012 RMK AO2 SLP196 T02110083 $=
202112031552 METAR KATL 031552Z 32007KT 10SM FEW200 FEW250 19/09 A3013 RMK AO2 SLP201 T01890089=
202112031452 METAR KATL 031452Z 31007KT 10SM FEW250 16/09 A3014 RMK AO2 SLP203 T01560094 53013=
202112031352 METAR KATL 031352Z 29005KT 9SM FEW250 13/09 A3012 RMK AO2 SLP198 T01330094 $=
202112031252 METAR KATL 031252Z 27004KT 10SM FEW250 11/08 A3011 RMK AO2 SLP194 T01110083=
202112031152 METAR KATL 031152Z 30004KT 10SM FEW250 11/08 A3010 RMK AO2 SLP190 T01060083 10133 20100 53003=
202112031052 METAR KATL 031052Z 30006KT 10SM FEW250 11/08 A3009 RMK AO2 SLP186 T01060078=
202112030952 METAR KATL 030952Z 28006KT 10SM FEW250 11/08 A3008 RMK AO2 SLP184 T01110083 $=
202112030852 METAR KATL 030852Z 30006KT 10SM FEW250 11/08 A3009 RMK AO2 SLP186 T01060078 58004 $=
202112030752 METAR KATL 030752Z 28006KT 10SM CLR 12/08 A3010 RMK AO2 SLP188 T01220083 $=
202112030652 METAR KATL 030652Z 27006KT 10SM CLR 12/08 A3010 RMK AO2 SLP189 T01220083 $=
202112030552 METAR KATL 030552Z 29006KT 10SM CLR 13/08 A3010 RMK AO2 SLP189 T01330083 10178 20133 53002 $=
202112030452 METAR KATL 030452Z 27008KT 10SM CLR 14/08 A3010 RMK AO2 SLP189 T01390083 402330094 $=
202112030352 METAR KATL 030352Z 27006KT 10SM CLR 14/08 A3010 RMK AO2 SLP189 T01440083 $=
202112030252 METAR KATL 030252Z 27007KT 10SM CLR 15/08 A3010 RMK AO2 SLP189 T01500083 53005 $=
202112030152 METAR KATL 030152Z 28005KT 10SM CLR 16/08 A3009 RMK AO2 SLP187 T01610078 $=
202112030052 METAR KATL 030052Z 26004KT 10SM CLR 16/07 A3008 RMK AO2 SLP185 T01560072 $=
202112022352 METAR KATL 022352Z 29005KT 10SM CLR 18/07 A3008 RMK AO2 SLP185 T01780067 10233 20172 53006 $=
202112022252 METAR KATL 022252Z 28007KT 10SM FEW250 18/07 A3007 RMK AO2 SLP180 T01780067 $=
202112022152 METAR KATL 022152Z 27008KT 10SM FEW250 21/07 A3006 RMK AO2 SLP177 T02110072 $=
202112022052 METAR KATL 022052Z 30009KT 10SM FEW250 22/06 A3006 RMK AO2 SLP177 T02220061 55009 $=
202112021952 METAR KATL 021952Z 28010G17KT 10SM FEW250 23/05 A3006 RMK AO2 SLP176 T02280050 $=
202112021852 METAR KATL 021852Z 27007KT 10SM FEW250 22/08 A3008 RMK AO2 SLP181 T02220083 $=
202112021752 METAR KATL 021752Z 29010KT 10SM FEW250 22/09 A3009 RMK AO2 SLP187 T02170089 10217 20106 58015 $=
202112021652 METAR KATL 021652Z 27008KT 10SM FEW250 19/10 A3012 RMK AO2 SLP197 T01940100 $=
202112021552 METAR KATL 021552Z 30011KT 10SM FEW200 SCT250 18/10 A3013 RMK AO2 SLP202 T01780100 $=
202112021452 METAR KATL 021452Z 30009KT 10SM FEW200 FEW250 15/09 A3014 RMK AO2 SLP205 T01500089 51013 $=
202112021352 METAR KATL 021352Z 28011KT 10SM FEW250 13/08 A3013 RMK AO2 SLP201 T01280083=
202112021252 METAR KATL 021252Z 29009KT 10SM FEW040 SCT250 11/07 A3013 RMK AO2 SLP202 T01060067=
202112021152 METAR KATL 021152Z 26009KT 10SM FEW050 FEW250 12/07 A3010 RMK AO2 SLP192 T01170067 10122 20094 55001 $=
202112021052 METAR KATL 021052Z 25005KT 10SM FEW250 11/06 A3009 RMK AO2 SLP188 T01110056 $=
202112020952 METAR KATL 020952Z 26005KT 10SM FEW050 11/05 A3010 RMK AO2 SLP191 T01060050 $=
202112020852 METAR KATL 020852Z 25005KT 10SM FEW055 10/04 A3010 RMK AO2 SLP191 T01000044 56009 $=
202112020752 METAR KATL 020752Z 25005KT 10SM FEW060 10/04 A3011 RMK AO2 SLP193 T01000039 $=
202112020652 METAR KATL 020652Z 24007KT 10SM FEW060 FEW085 11/04 A3011 RMK AO2 SLP194 T01110039 $=
202112020552 METAR KATL 020552Z 25003KT 10SM SCT070 BKN085 12/04 A3013 RMK AO2 SLP200 T01170039 10150 20111 58002 $=
202112020452 METAR KATL 020452Z 24003KT 10SM SCT095 BKN120 11/04 A3015 RMK AO2 SLP206 T01110039 402060072 $=
202112020352 METAR KATL 020352Z 23004KT 10SM SCT150 12/04 A3014 RMK AO2 SLP204 T01170039 $=
202112020252 METAR KATL 020252Z 22005KT 10SM FEW200 12/04 A3014 RMK AO2 SLP204 T01220039 50005 $=
202112020152 METAR KATL 020152Z 22005KT 10SM FEW200 13/04 A3014 RMK AO2 SLP206 T01330039 $=
202112020052 METAR KATL 020052Z 21006KT 10SM FEW200 FEW250 13/04 A3013 RMK AO2 SLP204 T01330039 $=
202112012352 METAR KATL 012352Z 26003KT 10SM FEW200 SCT250 15/04 A3012 RMK AO2 SLP200 T01500039 10206 20150 53004 $=
202112012252 METAR KATL 012252Z 21006KT 10SM BKN200 BKN250 17/04 A3012 RMK AO2 SLP197 T01720039 $=
202112012152 METAR KATL 012152Z 22008KT 10SM FEW180 BKN200 BKN250 18/03 A3011 RMK AO2 SLP194 VIRGA E-S W-NW ACC DSNT SE-S T01830033 $=
202112012052 METAR KATL 012052Z 24009KT 10SM SCT180 BKN200 BKN250 19/03 A3011 RMK AO2 SLP194 VIRGA NE-OHD-SW ACC E-S DSNT SE-S T01940033 55017 $=
202112011952 METAR KATL 011952Z 24010KT 10SM SCT180 BKN200 BKN250 20/03 A3010 RMK AO2 SLP193 VIRGA DSNT W-N ACC SE-SW T02000033 $=
202112011852 METAR KATL 011852Z 25010G18KT 10SM SCT170 BKN200 BKN250 21/04 A3012 RMK AO2 SLP196 ACC S-SW T02060039 $=
202112011752 METAR KATL 011752Z 25008KT 10SM FEW180 SCT200 SCT250 20/06 A3016 RMK AO2 SLP210 T02000056 10200 20072 58024 $=
202112011652 METAR KATL 011652Z 25008KT 10SM FEW170 FEW200 SCT250 19/06 A3020 RMK AO2 SLP225 ACC DSNT S NW T01940061 $=
202112011552 METAR KATL 011552Z 27009KT 10SM FEW200 17/06 A3023 RMK AO2 SLP236 T01720056 $=
202112011452 METAR KATL 011452Z 22005KT 10SM FEW180 SCT250 14/05 A3023 RMK AO2 SLP237 T01390050 53012 $=
202112011352 METAR KATL 011352Z 22003KT 10SM FEW017 SCT220 SCT250 09/05 A3022 RMK AO2 SLP234 T00940050=
202112011252 METAR KATL 011252Z 19005KT 10SM SCT220 BKN250 08/04 A3020 RMK AO2 SLP226 T00780039=
