##########################################################
# Query made at 04/20/2024 00:17:28 UTC
# Time interval: from 07/01/2021 12:00  to 07/31/2021 12:59  UTC
##########################################################

##########################################################
# KATL, Atlanta, Hartsfield - Jackson Atlanta International Airport (United States)
# WMO index: 72219. WIGOS ID: 0-20000-0-72219
# Latitude 33-38-59N. Longitude 084-25-00W. Altitude 312 m.
##########################################################

202107311252 METAR KATL 311252Z 33005KT 10SM FEW180 FEW250 26/22 A3004 RMK AO2 SLP160 T02610222=
202107311152 METAR KATL 311152Z 29006KT 10SM FEW200 FEW250 24/22 A3003 RMK AO2 SLP157 T02440217 10261 20239 51017=
202107311052 METAR KATL 311052Z 33004KT 10SM SCT200 BKN250 24/22 A3002 RMK AO2 SLP152 T02440217=
202107310952 METAR KATL 310952Z 32008KT 10SM BKN200 BKN250 24/21 A3000 RMK AO2 SLP147 T02440211 $=
202107310852 METAR KATL 310852Z 32006KT 10SM BKN200 BKN250 25/21 A2998 RMK AO2 SLP139 T02500211 56011 $=
202107310752 METAR KATL 310752Z 29007KT 10SM CLR 25/21 A2998 RMK AO2 SLP141 T02500211 $=
202107310652 METAR KATL 310652Z 29005KT 10SM SCT180 BKN220 BKN250 26/21 A3000 RMK AO2 SLP146 T02560211 $=
202107310552 METAR KATL 310552Z 27005KT 10SM SCT180 BKN220 BKN250 26/22 A3001 RMK AO2 SLP149 60000 T02610217 10311 20261 56006 $=
202107310452 METAR KATL 310452Z 26005KT 10SM BKN150 BKN250 27/22 A3001 RMK AO2 SLP151 T02720217 403330239 $=
202107310352 METAR KATL 310352Z 30007KT 10SM FEW070 BKN150 BKN250 27/22 A3002 RMK AO2 SLP154 T02720217 $=
202107310252 METAR KATL 310252Z 33007KT 10SM FEW060 SCT100 BKN150 OVC200 28/21 A3003 RMK AO2 SLP157 60000 T02830206 51016 $=
202107310152 METAR KATL 310152Z 34009KT 10SM BKN150 BKN200 BKN250 28/22 A3002 RMK AO2 RAE12 SLP155 P0000 T02780217 $=
202107310052 METAR KATL 310052Z 34005KT 9SM -RA FEW030 SCT100 BKN150 BKN200 28/22 A2999 RMK AO2 PK WND 01027/0017 SLP146 RAB22 TSE50 TS DSIPTD P0000 T02780222 $=
202107310004 SPECI KATL 310004Z 27009KT 10SM TS SCT035CB BKN070 BKN150 BKN250 31/23 A2999 RMK AO2 FRQ LTGICCG NW-N DSNT E-SE TS NW-N DSNT E-SE MOV SE TCU OHD-ALQDS T03060233=
202107302352 METAR KATL 302352Z 27008KT 10SM VCTS FEW035CB SCT070 BKN180 BKN250 31/23 A2998 RMK AO2 SLP141 TSB50 OCNL LTGICCG VC NW-N DSNT E TS VC NW-N DSNT E MOV SE TCU OHD-NE T03060233 10333 20306 56005=
202107302350 SPECI KATL 302350Z 27008KT 10SM VCTS FEW035CB SCT070 BKN180 BKN250 31/23 A2998 RMK AO2 TSB50 OCNL LTGICCG VC NW-N DSNT E TS VC NW-N DSNT E MOV SE TCU OHD-NE=
202107302252 METAR KATL 302252Z 27009KT 10SM FEW035 SCT200 BKN250 32/23 A2999 RMK AO2 SLP142 LTG DSNT E NW CB DSNT E NW TCU DSNT N-NE T03220233 $=
202107302152 METAR KATL 302152Z 28011KT 10SM FEW040 SCT200 BKN250 33/22 A3000 RMK AO2 LTG DSNT N SLP145 CB DSNT NW-N TCU DSNT NE T03280222=
202107302052 METAR KATL 302052Z 24010KT 10SM FEW042 SCT200 BKN250 33/23 A3000 RMK AO2 SLP146 CB DSNT N NW MDT CU N-NE T03280228 58004=
202107301952 METAR KATL 301952Z 26008KT 10SM FEW040 FEW120 SCT200 SCT250 32/23 A3001 RMK AO2 SLP151 T03220233=
202107301852 METAR KATL 301852Z 32007G16KT 10SM SCT044 SCT100 BKN200 BKN250 32/23 A3002 RMK AO2 SLP152 T03220228=
202107301752 METAR KATL 301752Z 23008KT 10SM FEW038 SCT200 BKN250 BKN300 32/23 A3001 RMK AO2 SLP150 T03220228 10328 20250 58003=
202107301652 METAR KATL 301652Z 31009KT 10SM FEW034 SCT200 BKN250 BKN300 32/23 A3003 RMK AO2 SLP155 T03220228=
202107301552 METAR KATL 301552Z 29007KT 8SM FEW110 SCT200 BKN250 BKN300 30/24 A3002 RMK AO2 SLP153 T03000239=
202107301452 METAR KATL 301452Z 30009KT 7SM BKN200 OVC250 28/23 A3002 RMK AO2 SLP154 T02780233 58014=
202107301352 METAR KATL 301352Z 29009KT 7SM OVC200 27/23 A3004 RMK AO2 SLP160 T02670228=
202107301252 METAR KATL 301252Z 29007KT 8SM BKN220 OVC250 26/22 A3006 RMK AO2 SLP165 T02560222=
202107301152 METAR KATL 301152Z 28005KT 8SM FEW200 OVC250 25/22 A3006 RMK AO2 SLP168 T02500217 10267 20239 53017=
202107301052 METAR KATL 301052Z 28005KT 8SM SCT200 BKN250 24/21 A3003 RMK AO2 SLP157 T02390211=
202107300952 METAR KATL 300952Z 27004KT 9SM BKN250 24/21 A3002 RMK AO2 SLP155 T02440211=
202107300852 METAR KATL 300852Z 32008KT 8SM BKN250 26/21 A3001 RMK AO2 SLP149 T02560211 55001=
202107300752 METAR KATL 300752Z 31006KT 9SM BKN250 26/21 A3000 RMK AO2 SLP147 T02560211=
202107300652 METAR KATL 300652Z 31007KT 9SM BKN250 26/22 A3000 RMK AO2 SLP145 T02610217=
202107300552 METAR KATL 300552Z 31007KT 10SM BKN300 27/22 A3001 RMK AO2 SLP150 T02670217 10317 20267 58013=
202107300452 METAR KATL 300452Z 31005KT 10SM BKN250 27/22 A3003 RMK AO2 SLP156 T02720217 403440250=
202107300352 METAR KATL 300352Z 30007KT 10SM SCT250 28/22 A3006 RMK AO2 SLP165 T02780217=
202107300252 METAR KATL 300252Z 27004KT 10SM SCT250 28/22 A3005 RMK AO2 SLP164 T02830217 51015=
202107300152 METAR KATL 300152Z 27003KT 10SM BKN250 29/22 A3004 RMK AO2 SLP160 T02940217=
202107300052 METAR KATL 300052Z 30005KT 10SM BKN250 31/21 A3002 RMK AO2 SLP154 T03110211=
202107292352 METAR KATL 292352Z 27007KT 10SM FEW055 BKN250 32/21 A3001 RMK AO2 SLP150 T03170211 10344 20317 55000=
202107292252 METAR KATL 292252Z 27007KT 10SM FEW055 SCT250 33/21 A3000 RMK AO2 SLP147 T03280211=
202107292152 METAR KATL 292152Z 27007KT 10SM FEW055 SCT250 33/22 A3000 RMK AO2 SLP146 T03330217=
202107292052 METAR KATL 292052Z 27007KT 10SM FEW055 FEW075 SCT250 BKN300 34/23 A3001 RMK AO2 SLP149 T03390228 56020=
202107291952 METAR KATL 291952Z 29008KT 10SM FEW050TCU FEW075 SCT250 BKN300 34/22 A3003 RMK AO2 SLP155 TCU NE E T03440217=
202107291852 METAR KATL 291852Z 29010KT 10SM FEW048TCU SCT075 SCT250 SCT300 33/22 A3005 RMK AO2 SLP162 TCU E S W MDT CU ALQDS T03330217=
202107291752 METAR KATL 291752Z 27007KT 10SM FEW046 SCT300 33/22 A3007 RMK AO2 SLP169 TCU DSNT NW T03330217 10339 20261 58008=
202107291652 METAR KATL 291652Z 22006KT 10SM FEW040 SCT300 32/22 A3008 RMK AO2 SLP172 TCU DSNT W-NW T03220217=
202107291552 METAR KATL 291552Z 19006KT 10SM FEW038 FEW300 32/22 A3010 RMK AO2 SLP180 MDT CU N NE T03170222=
202107291452 METAR KATL 291452Z 22006KT 9SM FEW024 FEW300 31/24 A3010 RMK AO2 SLP179 T03060239 52007=
202107291352 METAR KATL 291352Z 00000KT 10SM FEW300 29/23 A3008 RMK AO2 SLP175 T02940233=
202107291252 METAR KATL 291252Z 31004KT 9SM FEW250 28/23 A3008 RMK AO2 SLP174 T02830233=
202107291152 METAR KATL 291152Z 00000KT 9SM SCT250 26/23 A3007 RMK AO2 SLP170 70003 T02610228 10267 20250 53021=
202107291052 METAR KATL 291052Z 00000KT 9SM SCT250 25/22 A3005 RMK AO2 SLP163 T02500222=
202107290952 METAR KATL 290952Z 00000KT 10SM FEW250 26/22 A3003 RMK AO2 SLP155 T02610217=
202107290852 METAR KATL 290852Z 33003KT 9SM FEW250 26/22 A3001 RMK AO2 SLP148 T02560222 55005=
202107290752 METAR KATL 290752Z 33005KT 10SM CLR 26/22 A3000 RMK AO2 SLP147 T02610217=
202107290652 METAR KATL 290652Z 30004KT 10SM CLR 26/22 A3001 RMK AO2 SLP148 T02610222=
202107290552 METAR KATL 290552Z 29004KT 10SM FEW250 26/22 A3002 RMK AO2 SLP153 60003 T02610222 10322 20261 58008=
202107290452 METAR KATL 290452Z 30003KT 10SM FEW250 27/23 A3004 RMK AO2 SLP160 T02670228 403500228=
202107290352 METAR KATL 290352Z 33005KT 10SM FEW040 FEW250 28/23 A3005 RMK AO2 SLP162 T02830228=
202107290252 METAR KATL 290252Z 00000KT 10SM FEW040 SCT250 27/24 A3005 RMK AO2 RAE17 SLP163 P0000 60003 T02720239 52018=
202107290152 METAR KATL 290152Z 00000KT 9SM -RA SCT040CB BKN070 BKN250 27/23 A3004 RMK AO2 SLP160 RAB12 TSB01E50 TS DSIPTD CB OHD-NE MOV SW P0003 T02670233=
202107290104 SPECI KATL 290104Z 31007KT 10SM TS SCT050CB SCT250 31/22 A3001 RMK AO2 TSB01 OCNL LTGICCG NE-SE DSNT S TS NE-SE DSNT S MOV SW T03060217=
202107290052 METAR KATL 290052Z 32006KT 10SM FEW050TCU FEW250 31/22 A3001 RMK AO2 LTG DSNT S SLP149 CB DSNT S TCU NE-SE T03060217=
202107282352 METAR KATL 282352Z 33008KT 10SM FEW050 FEW250 32/22 A2999 RMK AO2 SLP145 CB DSNT S TCU DSNT N NE T03220217 10350 20322 55002=
202107282252 METAR KATL 282252Z 35010KT 10SM FEW055TCU SCT070 SCT250 33/21 A2999 RMK AO2 SLP143 TCU S DSNT E-SE T03330211=
202107282152 METAR KATL 282152Z 33010KT 10SM SCT055TCU SCT085 SCT250 34/21 A2999 RMK AO2 SLP144 TCU OHD-SE T03390211=
202107282052 METAR KATL 282052Z 33011KT 10SM SCT055TCU SCT080 SCT250 34/21 A3000 RMK AO2 SLP146 TCU N-NE E-S-SW T03440211 56013=
202107281952 METAR KATL 281952Z 03007KT 10SM FEW050TCU FEW075 SCT250 34/21 A3001 RMK AO2 SLP149 TCU NE SE-S NW T03440206=
202107281852 METAR KATL 281852Z 30006KT 10SM FEW048 SCT250 34/22 A3002 RMK AO2 SLP153 MDT CU N-NE S-SW T03390217=
202107281752 METAR KATL 281752Z 34006KT 10SM SCT039 SCT250 33/22 A3004 RMK AO2 SLP159 MDT CU ALQDS T03280222 10328 20233 58007=
202107281652 METAR KATL 281652Z 32007KT 10SM FEW030 FEW250 32/23 A3005 RMK AO2 SLP165 TCU DSNT NW T03170228=
202107281552 METAR KATL 281552Z VRB04KT 10SM FEW022 FEW200 SCT250 31/23 A3006 RMK AO2 SLP166 T03060228=
202107281452 METAR KATL 281452Z 29005KT 10SM FEW018 FEW200 SCT250 28/23 A3006 RMK AO2 SLP168 T02830228 50005=
202107281352 METAR KATL 281352Z VRB04KT 10SM FEW018 SCT200 SCT250 26/22 A3006 RMK AO2 SLP170 T02610222=
202107281252 METAR KATL 281252Z 30008KT 10SM FEW008 SCT200 SCT250 24/22 A3006 RMK AO2 SLP169 T02440217=
202107281152 METAR KATL 281152Z 29006KT 8SM FEW003 SCT150 BKN200 BKN250 23/22 A3005 RMK AO2 SLP165 T02330217 10239 20228 51002=
202107281052 METAR KATL 281052Z 28004KT 3SM BR FEW003 SCT150 BKN200 23/22 A3005 RMK AO2 SFC VIS 6 SLP165 TWRINC T02280217=
202107281048 SPECI KATL 281048Z 28004KT 3SM BR SCT003 SCT150 BKN200 23/22 A3005 RMK AO2 SFC VIS 6 TWRINC=
202107281038 SPECI KATL 281038Z 27004KT 3/4SM R09R/P6000FT BR BKN003 23/22 A3005 RMK AO2 SFC VIS 5 CIG 002V004 TWRINC T02280217=
202107281027 SPECI KATL 281027Z 22005KT 2SM BR BKN003 23/22 A3005 RMK AO2 SFC VIS 4 CIG 002V004 TWRINC T02280217=
202107280956 SPECI KATL 280956Z 21003KT 8SM BKN004 23/22 A3004 RMK AO2 CIG 003V005 BKN004 V SCT T02280217=
202107280952 METAR KATL 280952Z 23004KT 9SM BKN005 23/22 A3004 RMK AO2 SLP161 BKN005 V SCT T02330217=
202107280852 METAR KATL 280852Z 00000KT 9SM BKN005 23/22 A3003 RMK AO2 SLP158 BKN005 V SCT T02330217 57001 $=
202107280812 SPECI KATL 280812Z 26003KT 9SM BKN007 BKN200 BKN250 23/22 A3002 RMK AO2 T02330217 $=
202107280759 SPECI KATL 280759Z 00000KT 9SM SCT008 SCT200 BKN250 23/22 A3003 RMK AO2 T02330217 $=
202107280752 METAR KATL 280752Z 00000KT 8SM FEW200 BKN250 23/22 A3003 RMK AO2 SLP158 T02280217 $=
202107280652 METAR KATL 280652Z 18003KT 10SM FEW200 BKN250 23/22 A3003 RMK AO2 SLP158 T02330217 $=
202107280552 METAR KATL 280552Z 29003KT 10SM FEW200 BKN250 24/22 A3003 RMK AO2 SLP158 T02390217 10256 20233 50004 $=
202107280452 METAR KATL 280452Z 21004KT 10SM FEW200 BKN250 24/22 A3004 RMK AO2 SLP160 T02390217 403280233 $=
202107280352 METAR KATL 280352Z 22004KT 10SM SCT200 BKN250 24/22 A3003 RMK AO2 SLP156 T02440217 $=
202107280252 METAR KATL 280252Z 30004KT 10SM SCT200 BKN250 25/22 A3002 RMK AO2 SLP155 T02500217 53004 $=
202107280152 METAR KATL 280152Z 29004KT 10SM BKN200 OVC250 25/21 A3000 RMK AO2 SLP147 T02500211=
202107280052 METAR KATL 280052Z 22005KT 10SM FEW150 BKN200 OVC250 24/21 A3000 RMK AO2 SLP148 T02440206=
202107272352 METAR KATL 272352Z 22004KT 10SM FEW025 SCT070 BKN140 OVC200 25/21 A3001 RMK AO2 RAE29 TSE39 SLP152 LTG DSNT SE-S P0000 60000 T02500206 10322 20244 50011=
202107272339 SPECI KATL 272339Z 23004KT 10SM FEW025 SCT070 BKN140 OVC200 24/21 A3001 RMK AO2 RAE29 TSE39 LTG SE-S TS MOV S P0000 T02440206=
202107272252 METAR KATL 272252Z 10006KT 10SM -TSRA FEW025CB SCT040 BKN070 BKN130 OVC200 24/21 A3003 RMK AO2 WSHFT 2235 SLP159 RAB49 FRQ LTGICCG NW-NE-SE TS NW-NE-SE MOV SE SHELF CLOUD SE-W P0000 T02440206=
202107272222 SPECI KATL 272222Z 25007G17KT 10SM TS FEW030CB SCT060 BKN120 BKN200 OVC250 27/22 A3001 RMK AO2 FRQ LTGICCG NW-NE-E VC E-SE TS NW-NE-E VC E-SE MOV SE SHELF CLOUD NW-NE-SE T02720222=
202107272152 METAR KATL 272152Z 26010G19KT 9SM VCTS SCT040CB SCT070 BKN120 OVC200 28/23 A2999 RMK AO2 SLP144 OCNL LTGICCGCA VC E-SE TS VC E-SE MOV SE TCU N-E-S T02830233=
202107272052 METAR KATL 272052Z 27008KT 10SM TS FEW043CB SCT070 SCT120 BKN200 30/23 A2998 RMK AO2 LTG DSNT N AND NE SLP139 TSB30 OCNL LTGICCG NE VC SE TS NE VC SE MOV S TCU NE-E CB DSNT N NE SHRA NE VC SE T03000228 56015=
202107272032 SPECI KATL 272032Z 26008KT 10SM VCTS FEW043CB SCT070 SCT120 BKN200 31/23 A2998 RMK AO2 LTG DSNT NE AND SW TSB30 OCNL LTGICCG VC SE TS VC SE MOV S TCU NE-OHD-SW CB DSNT NE SW T03060228=
202107271952 METAR KATL 271952Z 18004KT 10SM FEW042TCU SCT070 SCT120 BKN200 32/22 A2999 RMK AO2 LTG DSNT SW SLP142 CB DSNT SW TCU N-NE SE-S NW DSNT NE-SE T03170217=
202107271852 METAR KATL 271852Z 14003KT 10SM SCT042TCU SCT070 SCT120 BKN200 32/22 A3000 RMK AO2 LTG DSNT SW AND W SLP147 CB DSNT SW W TCU ALQDS T03170222=
202107271752 METAR KATL 271752Z 07005KT 10SM SCT040 SCT110 SCT200 32/22 A3002 RMK AO2 SLP154 CB DSNT SW MDT CU ALQDS T03170222 10328 20250 58009=
202107271652 METAR KATL 271652Z 01007KT 10SM SCT032 SCT100 SCT250 32/22 A3004 RMK AO2 SLP162 T03170217=
202107271552 METAR KATL 271552Z 34006KT 10SM FEW028 FEW250 31/22 A3005 RMK AO2 SLP165 T03060222=
202107271452 METAR KATL 271452Z VRB05KT 10SM FEW026 FEW070 FEW250 29/23 A3005 RMK AO2 SLP164 T02890228 52003=
202107271352 METAR KATL 271352Z 04003KT 10SM FEW022 FEW065 FEW200 28/22 A3005 RMK AO2 SLP163 T02780217=
202107271252 METAR KATL 271252Z 09003KT 10SM FEW020 FEW060 FEW200 26/21 A3004 RMK AO2 SLP161 T02610211=
202107271152 METAR KATL 271152Z 00000KT 10SM FEW023 SCT060 SCT200 25/21 A3004 RMK AO2 SLP160 70049 T02500211 10250 20233 53011=
202107271052 METAR KATL 271052Z 36003KT 10SM FEW012 FEW060 SCT200 24/21 A3003 RMK AO2 SLP157 T02440211=
202107270952 METAR KATL 270952Z 00000KT 10SM FEW060 SCT200 23/21 A3001 RMK AO2 SLP149 T02330211=
202107270852 METAR KATL 270852Z 07003KT 10SM FEW060 SCT200 23/21 A3000 RMK AO2 SLP148 T02330211 55003=
202107270752 METAR KATL 270752Z 10004KT 10SM FEW060 BKN200 24/22 A3000 RMK AO2 SLP145 T02390217=
202107270652 METAR KATL 270652Z 02006KT 10SM FEW060 BKN200 OVC250 24/22 A3000 RMK AO2 SLP146 T02440217=
202107270552 METAR KATL 270552Z 34005KT 10SM BKN200 OVC250 24/22 A3001 RMK AO2 SLP152 60049 T02440217 10306 20239 57003=
202107270452 METAR KATL 270452Z 00000KT 10SM BKN200 OVC250 24/22 A3002 RMK AO2 SLP155 T02390217 403390239=
202107270352 METAR KATL 270352Z 17005KT 10SM FEW150 BKN200 OVC250 24/22 A3002 RMK AO2 SLP152 T02440222=
202107270252 METAR KATL 270252Z 14005KT 10SM FEW100 SCT150 BKN200 OVC250 24/22 A3002 RMK AO2 LTG DSNT SE AND SW RAE00 SLP156 P0000 60049 T02440222 51018=
202107270152 METAR KATL 270152Z 00000KT 10SM -RA FEW008 SCT050 BKN100 BKN150 OVC200 25/23 A3001 RMK AO2 WSHFT 0043 TSE52 SLP152 LTG DSNT NE-SE-S SW TS DSIPTD P0049 T02500228=
202107270123 SPECI KATL 270123Z 12004KT 5SM TSRA BR SCT028CB BKN045 BKN100 OVC200 24/23 A3001 RMK AO2 WSHFT 0043 VIS LWR SE-SW OCNL LTGICCG SE-SW TS SE-SW MOV SE P0048 T02440228=
202107270107 SPECI KATL 270107Z 34007KT 2 1/2SM R09R/4000VP6000FT TSRA BKN035CB BKN050 BKN150 BKN250 26/22 A3001 RMK AO2 WSHFT 0043 OCNL LTGICCG OHD-ALQDS TS OHD-ALQDS MOV SE P0000 T02560222=
202107270100 SPECI KATL 270100Z 01012G22KT 5SM -TSRA BKN035CB BKN060 BKN150 BKN250 27/22 A3000 RMK AO2 WSHFT 0043 VIS LWR W-N OCNL LTGICCG OHD-NW TS OHD-NW MOV SE P0000 T02670222=
202107270052 METAR KATL 270052Z 04011KT 10SM -TSRA SCT035CB BKN060 BKN150 BKN250 28/22 A2999 RMK AO2 SLP146 VIS LWR W-NW RAB18 OCNL LTGICCG SW-NW DSNT NE-SE SE TS SW-NW DSNT NE-SE MOV SE TCU OHD-ALQDS P0000 T02780217=
202107270018 SPECI KATL 270018Z 08010KT 10SM -TSRA SCT038CB BKN080 BKN150 BKN250 29/21 A2997 RMK AO2 RAB18 TSB18 VIS LWR NE-E OCNL LTGICCG NE-SE TS NE-SE MOV SE TCU OHD-ALQDS P0000 T02890211=
202107262352 METAR KATL 262352Z 27009KT 10SM VCTS SCT040CB SCT080 BKN150 BKN250 31/23 A2997 RMK AO2 SLP136 TSB14 OCNL LTGICCG VC NE-SE DSNT S NW TS VC NE-SE DSNT S NW MOV SE TCU SE-OHD-NW 60000 T03060228 10339 20306 53003=
202107262316 SPECI KATL 262316Z 27007KT 10SM VCTS FEW040CB SCT080 SCT250 32/23 A2995 RMK AO2 TSB14 OCNL LTGICCG DSNT E VC N-NE TS VC N-NE DSNT E MOV SE TCU NE-E DSNT SE-S T03170233=
202107262252 METAR KATL 262252Z 27005KT 10SM SCT043TCU SCT080 BKN250 33/23 A2995 RMK AO2 LTG DSNT NE-SE RAE29 SLP131 CB DSNT NE SE TCU NE-SE-S P0000 T03280228=
202107262152 METAR KATL 262152Z VRB03KT 10SM -RA SCT043TCU BKN080 BKN120 BKN200 33/22 A2996 RMK AO2 RAB51 SLP132 TCU OHD-ALQDS P0000 T03280222=
202107262052 METAR KATL 262052Z 26006KT 10SM SCT045TCU SCT080 SCT120 BKN200 33/22 A2996 RMK AO2 SLP131 TCU OHD ALQDS T03330217 56015=
202107261952 METAR KATL 261952Z 32007KT 10SM FEW048TCU SCT070 SCT120 BKN200 33/22 A2997 RMK AO2 SLP135 TCU ALQDS T03330217=
202107261852 METAR KATL 261852Z 32006KT 10SM SCT046TCU SCT070 SCT110 32/22 A2998 RMK AO2 SLP141 TCU OHD SE-SW MDT CU ALQDS T03220217=
202107261752 METAR KATL 261752Z 23005KT 10SM SCT036TCU SCT070 SCT110 32/22 A3000 RMK AO2 SLP147 TCU ALQDS T03220222 10328 20256 58012=
202107261652 METAR KATL 261652Z 34006KT 9SM SCT032TCU SCT110 32/22 A3002 RMK AO2 SLP152 TCU N-NE NW MDT CU ALQDS T03220217=
202107261552 METAR KATL 261552Z 30005KT 9SM FEW028TCU FEW110 31/23 A3003 RMK AO2 SLP157 CB DSNT NW TCU NE DSNT SW-W T03060228=
202107261452 METAR KATL 261452Z 32006KT 9SM FEW022 FEW110 29/23 A3004 RMK AO2 SLP160 T02940228 50003=
202107261352 METAR KATL 261352Z 27007KT 8SM FEW018 FEW050 SCT110 28/23 A3004 RMK AO2 SLP162 T02780228=
202107261252 METAR KATL 261252Z 30005KT 8SM FEW015 FEW050 BKN110 27/23 A3004 RMK AO2 SLP159 T02670228=
202107261152 METAR KATL 261152Z VRB03KT 9SM FEW055 SCT100 SCT200 26/22 A3003 RMK AO2 SLP158 T02560222 10261 20244 53013=
202107261052 METAR KATL 261052Z 29006KT 8SM FEW055 SCT120 SCT200 25/22 A3001 RMK AO2 SLP149 T02500222=
202107260952 METAR KATL 260952Z 00000KT 8SM FEW055 25/23 A2999 RMK AO2 SLP144 T02500228=
202107260852 METAR KATL 260852Z 27003KT 9SM FEW046 SCT060 26/23 A2999 RMK AO2 SLP144 T02560228 56005=
202107260752 METAR KATL 260752Z 31003KT 9SM FEW180 26/23 A2999 RMK AO2 SLP144 T02560228=
202107260652 METAR KATL 260652Z 27004KT 9SM FEW180 FEW250 26/23 A3000 RMK AO2 SLP146 T02560228=
202107260552 METAR KATL 260552Z 16003KT 9SM FEW180 FEW250 26/23 A3001 RMK AO2 SLP149 T02560228 10289 20256 58003=
202107260452 METAR KATL 260452Z 15003KT 9SM BKN180 BKN250 27/23 A3002 RMK AO2 SLP153 T02670228 403220239=
202107260352 METAR KATL 260352Z 00000KT 9SM FEW050 SCT110 BKN180 BKN250 27/22 A3002 RMK AO2 SLP153 T02670222=
202107260252 METAR KATL 260252Z 21005KT 9SM FEW050 BKN110 OVC250 27/23 A3002 RMK AO2 SLP152 TCU DSNT S & SW-W SHRA S & SW-W T02720228 51017=
202107260152 METAR KATL 260152Z 14004KT 8SM FEW035 FEW045 SCT070 BKN170 OVC250 28/23 A3000 RMK AO2 SLP146 TSB20E35 TS DSIPT T02780228=
202107260143 SPECI KATL 260143Z 10004KT 8SM FEW035 SCT045 SCT070 BKN170 OVC250 28/23 A2999 RMK AO2 TSB20E35 TS DSIPT T02780233=
202107260124 SPECI KATL 260124Z 03003KT 8SM TS FEW035 SCT055CB SCT070 BKN170 OVC250 28/23 A3000 RMK AO2 TSB20 OCNL LTGIC NE-SE TS NE-SE DRFTG SE T02830233=
202107260052 METAR KATL 260052Z 00000KT 8SM FEW036 BKN047 BKN070 BKN170 OVC250 29/22 A2999 RMK AO2 SLP144 TSB00E45 TS DSIPT TCU S-SW CB DSNT NW T02890222=
202107260047 SPECI KATL 260047Z 00000KT 8SM FEW036 BKN047 BKN070 BKN170 OVC250 29/22 A2999 RMK AO2 LTG DSNT NW TSB00E45 TS DSIPT TCU S-SW CB DSNT NW=
202107260001 SPECI KATL 260001Z 22004KT 9SM VCTS FEW055CB SCT070 BKN170 BKN250 28/22 A2998 RMK AO2 TSB00 OCNL LTGIC VC NW-N TS VC NW-N DRFTG SE TCU S-SW T02830222=
202107252352 METAR KATL 252352Z 22006KT 9SM FEW055CB SCT070 BKN170 BKN250 29/22 A2997 RMK AO2 SLP136 CB NW MOV SE T02890222 10322 20289 56006=
202107252252 METAR KATL 252252Z 15008KT 9SM FEW050TCU SCT070 SCT150 SCT250 31/22 A2997 RMK AO2 LTG DSNT NE SLP137 TCU N & S CB DSNT NE T03060222=
202107252152 METAR KATL 252152Z 15005KT 9SM SCT050TCU SCT070 SCT085 BKN250 30/22 A2998 RMK AO2 SLP140 TCU NW & DSNT S & SW CB DSNT E T03000222=
202107252052 METAR KATL 252052Z VRB06KT 9SM SCT048TCU BKN070 BKN250 31/21 A2998 RMK AO2 SLP141 TCU OHD AND N T03110211 58018=
202107251952 METAR KATL 251952Z 14006KT 9SM SCT044TCU BKN070 BKN250 29/22 A3001 RMK AO2 SLP150 TCU OHD-SE-S SHRA DSNT SE-S T02940217=
202107251852 METAR KATL 251852Z 32005KT 9SM SCT040 SCT075 BKN250 32/22 A3002 RMK AO2 SLP154 T03220217=
202107251752 METAR KATL 251752Z 00000KT 9SM SCT033 SCT055 SCT070 BKN250 32/19 A3004 RMK AO2 SLP160 T03220194 10322 20239 58011=
202107251652 METAR KATL 251652Z VRB04KT 8SM FEW030 SCT048 SCT060 BKN250 31/22 A3006 RMK AO2 SLP167 T03110222=
202107251552 METAR KATL 251552Z 30009KT 8SM SCT026 SCT038 BKN150 BKN250 31/23 A3007 RMK AO2 SLP169 T03060228 $=
202107251452 METAR KATL 251452Z 29007G15KT 8SM FEW039 SCT050 SCT150 SCT250 29/23 A3007 RMK AO2 SLP171 T02940228 50001 $=
202107251352 METAR KATL 251352Z 26007KT 6SM HZ SCT044 SCT150 SCT200 28/22 A3007 RMK AO2 SLP172 T02780222 $=
202107251252 METAR KATL 251252Z 21004KT 7SM FEW040 FEW150 FEW200 26/22 A3007 RMK AO2 SLP171 T02560217 $=
202107251152 METAR KATL 251152Z 20004KT 7SM FEW040 FEW150 FEW200 24/22 A3007 RMK AO2 SLP171 T02390217 10256 20239 53004 $=
202107251052 METAR KATL 251052Z 00000KT 7SM FEW036 SCT150 SCT200 24/22 A3006 RMK AO2 SLP167 T02390217 $=
202107250952 METAR KATL 250952Z 00000KT 8SM FEW033 SCT055 SCT150 24/22 A3005 RMK AO2 SLP165 T02390217 $=
202107250852 METAR KATL 250852Z 00000KT 8SM FEW040 FEW055 24/22 A3006 RMK AO2 SLP166 T02440222 50001 $=
202107250752 METAR KATL 250752Z 19003KT 7SM BKN040 BKN055 BKN100 BKN250 25/22 A3006 RMK AO2 SLP167 T02500222 $=
202107250652 METAR KATL 250652Z 00000KT 7SM BKN050 BKN100 BKN250 25/22 A3006 RMK AO2 SLP167 T02500217 $=
202107250552 METAR KATL 250552Z 20006KT 8SM FEW045 FEW100 SCT250 26/22 A3005 RMK AO2 SLP164 T02560217 10294 20256 58003 $=
202107250452 METAR KATL 250452Z 21006KT 8SM FEW045 SCT100 BKN250 26/22 A3006 RMK AO2 SLP165 T02610222 403220228 $=
202107250352 METAR KATL 250352Z 19004KT 8SM FEW040 SCT100 OVC250 27/23 A3007 RMK AO2 SLP169 BINOVC T02670228 $=
202107250252 METAR KATL 250252Z 19004KT 8SM FEW048 SCT100 BKN250 27/22 A3006 RMK AO2 SLP167 CB DSNT NE T02670222 51009 $=
202107250152 METAR KATL 250152Z 20006KT 8SM FEW048 SCT100 BKN250 28/23 A3006 RMK AO2 SLP167 T02780228 $=
202107250052 METAR KATL 250052Z 19005KT 8SM SCT047 BKN100 BKN250 28/22 A3005 RMK AO2 SLP164 T02830222 $=
202107242352 METAR KATL 242352Z 20005KT 9SM SCT050 SCT100 SCT250 29/21 A3003 RMK AO2 SLP159 TCU DSNT NE & W SHRA DSNT NE T02940211 10322 20294 55005 $=
202107242252 METAR KATL 242252Z 20006KT 10SM SCT050 SCT120 SCT250 31/21 A3003 RMK AO2 SLP159 MDT CU N-E T03110206 $=
202107242152 METAR KATL 242152Z 22004KT 10SM SCT050 SCT100 SCT250 32/20 A3004 RMK AO2 SLP161 MDT CU N AND E T03170200 $=
202107242052 METAR KATL 242052Z 22007KT 10SM SCT050 32/19 A3005 RMK AO2 SLP164 T03170194 56020 $=
202107241952 METAR KATL 241952Z VRB03KT 10SM SCT050 32/20 A3007 RMK AO2 SLP169 T03170200 $=
202107241852 METAR KATL 241852Z VRB03KT 9SM SCT044 SCT055 31/20 A3009 RMK AO2 SLP176 T03110200 $=
202107241752 METAR KATL 241752Z 18006KT 9SM SCT042 31/21 A3011 RMK AO2 LTG DSNT NW SLP184 CB DSNT NW T03110211 10311 20244 58006=
202107241652 METAR KATL 241652Z 22007KT 9SM SCT036 31/20 A3013 RMK AO2 SLP190 T03060200=
202107241552 METAR KATL 241552Z 19005KT 8SM SCT030 29/22 A3013 RMK AO2 SLP192 T02940217=
202107241452 METAR KATL 241452Z 20004KT 7SM FEW022 28/22 A3013 RMK AO2 SLP191 T02830222 50006=
202107241352 METAR KATL 241352Z 16005KT 7SM CLR 27/22 A3014 RMK AO2 SLP194 T02670222=
202107241252 METAR KATL 241252Z 20003KT 7SM CLR 26/23 A3012 RMK AO2 SLP189 T02560228=
202107241152 METAR KATL 241152Z 00000KT 7SM CLR 24/22 A3011 RMK AO2 SLP186 70032 T02390222 10250 20228 53009=
202107241052 METAR KATL 241052Z 00000KT 5SM BR FEW005 FEW200 23/22 A3010 RMK AO2 SLP182 T02330217=
202107240952 METAR KATL 240952Z 00000KT 8SM FEW020 FEW200 23/22 A3009 RMK AO2 SLP180 T02330217=
202107240852 METAR KATL 240852Z 00000KT 8SM FEW020 FEW200 24/22 A3008 RMK AO2 SLP176 T02390222 55004=
202107240752 METAR KATL 240752Z 00000KT 6SM BR CLR 24/23 A3008 RMK AO2 SLP173 T02390228=
202107240652 METAR KATL 240652Z 00000KT 8SM FEW080 FEW250 24/22 A3008 RMK AO2 SLP175 T02440222=
202107240552 METAR KATL 240552Z 00000KT 8SM FEW080 FEW250 25/23 A3010 RMK AO2 SLP179 T02500228 10278 20244 56003=
202107240452 METAR KATL 240452Z 00000KT 9SM FEW250 25/23 A3010 RMK AO2 SLP179 T02500228 403280233=
202107240352 METAR KATL 240352Z 00000KT 9SM FEW250 26/23 A3010 RMK AO2 SLP181 T02560228=
202107240252 METAR KATL 240252Z 00000KT 8SM FEW200 26/23 A3011 RMK AO2 SLP183 T02610233 51005=
202107240152 METAR KATL 240152Z 00000KT 8SM FEW080 FEW200 26/23 A3010 RMK AO2 SLP183 T02610233=
202107240052 METAR KATL 240052Z 20003KT 8SM FEW080 SCT250 27/23 A3010 RMK AO2 SLP180 T02670228=
202107232352 METAR KATL 232352Z 12003KT 9SM FEW030TCU SCT080 BKN200 BKN250 28/23 A3009 RMK AO2 LTG DSNT NE RAE04 SLP178 CB DSNT NE TCU NW P0001 60032 T02780228 10328 20256 53003=
202107232252 METAR KATL 232252Z 00000KT 9SM -RA FEW028 SCT045 BKN070 OVC200 27/21 A3008 RMK AO2 SLP176 TSE38 LTG DSNT NE P0030 T02670211=
202107232239 SPECI KATL 232239Z 15004KT 7SM -RA FEW028CB BKN045 BKN070 OVC200 26/22 A3009 RMK AO2 VIS LWR SW-NW TSE38 LTG DSNT N-NE TS DSIPTD CB OHD-W DSNT N-NE MOV STNRY P0023 T02560217=
202107232152 METAR KATL 232152Z 21005KT 9SM -TSRA SCT028CB BKN045 BKN070 BKN200 28/22 A3008 RMK AO2 SLP174 VIS LWR N-NE RAB10 FRQ LTGICCG NW-NE TS NW-NE MOV SW P0001 T02830217=
202107232119 SPECI KATL 232119Z 19010KT 7SM -TSRA SCT028CB BKN045 BKN070 BKN200 26/22 A3007 RMK AO2 RAB10 OCNL LTGICCG N-NE VC S TS N-NE VC S MOV SW P0001 T02610222=
202107232052 METAR KATL 232052Z 15008KT 7SM VCTS BKN042CB 29/22 A3008 RMK AO2 LTG DSNT S SLP175 TSB19 OCNL LTGICCG S VCTS S MOV SW T02890222 56012=
202107232023 SPECI KATL 232023Z 35005KT 7SM VCTS BKN045CB 32/21 A3008 RMK AO2 TSB19 OCNL LTGICCG S VCTS S MOV S T03170206=
202107231952 METAR KATL 231952Z 31005KT 7SM SCT045TCU 32/21 A3008 RMK AO2 SLP174 TCU NE-SE-S SHRA VC SE-S T03220206=
202107231852 METAR KATL 231852Z VRB03KT 7SM BKN046TCU 32/21 A3010 RMK AO2 LTG DSNT SE SLP181 TCU ALQDS CB DSNT SE T03170206=
202107231752 METAR KATL 231752Z 34003KT 7SM BKN038TCU 31/21 A3012 RMK AO2 LTG DSNT SE SLP186 TCU ALQDS CB DSNT SE T03060211 10322 20239 58014=
202107231652 METAR KATL 231652Z VRB03KT 7SM SCT037 BKN055 31/21 A3014 RMK AO2 SLP195 MDT CU ALQDS T03060211=
202107231552 METAR KATL 231552Z 31004KT 7SM SCT030 30/22 A3016 RMK AO2 SLP200 T03000217=
202107231452 METAR KATL 231452Z 36003KT 6SM FU FEW150 29/22 A3016 RMK AO2 SLP200 T02940217 50005=
202107231432 SPECI KATL 231432Z 00000KT 6SM FU FEW150 29/22 A3016 RMK AO2 T02890217=
202107231352 METAR KATL 231352Z 32003KT 4SM FU FEW000 FEW250 28/22 A3016 RMK AO2 SLP202 SFC VSBY 5 FU FEW000 T02780217=
202107231252 METAR KATL 231252Z 03004KT 5SM FU SCT000 SCT250 26/21 A3015 RMK AO2 SLP200 FU SCT000 TWR VIS 4 T02610211=
202107231245 SPECI KATL 231245Z 01006KT 6SM FU SCT000 SCT250 26/21 A3015 RMK AO2 FU SCT000 T02610211=
202107231152 METAR KATL 231152Z 32005KT 7SM SCT200 24/21 A3014 RMK AO2 SLP196 T02390211 10250 20233 53009=
202107231052 METAR KATL 231052Z 34005KT 5SM FU FEW000 SCT200 23/21 A3013 RMK AO2 SLP192 FU FEW000 T02330206=
202107230952 METAR KATL 230952Z 32005KT 6SM FU SCT000 23/21 A3012 RMK AO2 SLP188 FU SCT000 T02330206=
202107230852 METAR KATL 230852Z 33004KT 6SM FU SCT000 24/21 A3011 RMK AO2 SLP187 FU SCT000 T02390206 56004=
202107230752 METAR KATL 230752Z 30004KT 7SM FEW110 SCT250 24/21 A3012 RMK AO2 SLP186 T02390206=
202107230652 METAR KATL 230652Z 29004KT 7SM FEW150 SCT200 24/21 A3012 RMK AO2 SLP189 T02390211=
202107230552 METAR KATL 230552Z 29004KT 7SM FEW120 FEW250 25/22 A3013 RMK AO2 SLP190 T02500217 10294 20250 56008=
202107230452 METAR KATL 230452Z 31003KT 7SM FEW200 SCT250 26/22 A3013 RMK AO2 SLP191 T02560217 403220222=
202107230352 METAR KATL 230352Z 28003KT 8SM FEW200 SCT250 26/21 A3014 RMK AO2 SLP195 T02560211=
202107230252 METAR KATL 230252Z 32005KT 7SM FEW200 BKN250 27/21 A3015 RMK AO2 SLP198 T02670211 53013=
202107230152 METAR KATL 230152Z 31005KT 7SM FEW200 BKN250 28/21 A3014 RMK AO2 SLP194 T02780206=
202107230052 METAR KATL 230052Z 29007KT 7SM FEW200 BKN250 28/21 A3012 RMK AO2 SLP189 CB DSNT NE T02780211=
202107222352 METAR KATL 222352Z 30006KT 7SM FEW040 SCT200 BKN250 29/21 A3011 RMK AO2 SLP186 CB DSNT NE T02890206 10322 20289 53002=
202107222252 METAR KATL 222252Z 31008KT 7SM FEW150 SCT200 BKN250 31/21 A3010 RMK AO2 SLP182 T03060206=
202107222152 METAR KATL 222152Z 29010G17KT 9SM FEW040 BKN200 BKN250 30/21 A3010 RMK AO2 SLP181 T03000206=
202107222052 METAR KATL 222052Z 30011KT 8SM FEW042 FEW075 BKN200 BKN250 31/21 A3010 RMK AO2 SLP183 T03060211 56012=
202107221952 METAR KATL 221952Z 32008KT 8SM FEW045 FEW070 BKN200 BKN250 32/20 A3012 RMK AO2 SLP187 MDT CU ALQDS T03220200=
202107221852 METAR KATL 221852Z 31010G14KT 10SM FEW044TCU SCT070 SCT200 BKN250 31/20 A3012 RMK AO2 SLP187 CB DSNT S SW TCU N NE MDT CU ALQDS T03110200=
202107221752 METAR KATL 221752Z 01008KT 9SM FEW042TCU SCT065 SCT200 BKN250 31/19 A3014 RMK AO2 SLP195 CB DSNT SE SW TCU SE MDT CU ALQDS T03060194 10311 20233 58006=
202107221652 METAR KATL 221652Z 28007KT 9SM SCT035TCU SCT060 SCT200 SCT250 31/20 A3016 RMK AO2 SLP201 TCU NE-SE DSNT N S MDT CU ALQDS T03060200=
202107221552 METAR KATL 221552Z 30009KT 9SM SCT028 SCT150 SCT250 29/21 A3017 RMK AO2 SLP205 MDT CU ALQDS T02940206=
202107221452 METAR KATL 221452Z 28005KT 9SM FEW024 FEW150 SCT250 28/22 A3016 RMK AO2 SLP202 T02830222 51008=
202107221352 METAR KATL 221352Z 32004KT 9SM FEW016 SCT150 SCT250 27/22 A3016 RMK AO2 SLP201 TCU DSNT NW T02670222=
202107221252 METAR KATL 221252Z 29007KT 10SM FEW012 FEW085 SCT150 SCT200 25/22 A3015 RMK AO2 SLP200 T02500217=
202107221152 METAR KATL 221152Z 29005KT 10SM FEW010 SCT085 SCT200 SCT250 23/21 A3013 RMK AO2 SLP194 T02330211 10239 20222 51012=
202107221052 METAR KATL 221052Z 27004KT 10SM FEW008 BKN085 BKN200 23/21 A3013 RMK AO2 SLP192 T02280211=
202107220952 METAR KATL 220952Z 28004KT 10SM FEW006 SCT080 SCT100 22/21 A3011 RMK AO2 SLP185 T02220211=
202107220852 METAR KATL 220852Z 28004KT 10SM FEW065 SCT080 23/21 A3010 RMK AO2 SLP181 T02330211 58001=
202107220752 METAR KATL 220752Z 19003KT 10SM FEW065 BKN080 BKN100 23/22 A3010 RMK AO2 SLP183 T02330217 $=
202107220652 METAR KATL 220652Z 00000KT 10SM SCT080 BKN100 BKN150 24/21 A3011 RMK AO2 SLP184 T02390211 $=
202107220552 METAR KATL 220552Z 00000KT 10SM FEW070 BKN100 BKN150 24/22 A3010 RMK AO2 SLP183 60000 T02390217 10261 20239 56002 $=
202107220452 METAR KATL 220452Z 00000KT 10SM FEW012 FEW060 SCT150 24/22 A3011 RMK AO2 SLP184 T02440217 403110222 $=
202107220352 METAR KATL 220352Z 23003KT 10SM FEW020 SCT060 SCT140 BKN200 24/22 A3010 RMK AO2 RAE02 SLP182 P0000 T02440222 $=
202107220252 METAR KATL 220252Z 16003KT 10SM -RA FEW020 SCT070 BKN120 BKN200 25/22 A3011 RMK AO2 RAB39 SLP185 P0000 60000 T02500222 51020 $=
202107220152 METAR KATL 220152Z 30004KT 10SM FEW030 SCT070 BKN110 BKN200 26/22 A3009 RMK AO2 LTG DSNT NE SLP180 CB DSNT NE NW-N T02560217 $=
202107220052 METAR KATL 220052Z 27004KT 10SM FEW035 SCT060 BKN120 BKN200 26/22 A3007 RMK AO2 LTG DSNT N SLP173 CB DSNT NW-NE T02560217 $=
202107212352 METAR KATL 212352Z 20006KT 10SM SCT040TCU BKN055 BKN130 BKN200 26/21 A3005 RMK AO2 SLP165 CB DSNT N TCU ALQDS T02610206 10311 20261 53004 $=
202107212252 METAR KATL 212252Z 22007KT 10SM SCT040CB BKN090 BKN140 BKN200 27/21 A3003 RMK AO2 SLP160 CB NE DSNT SE-S NW MOV STNRY TCU NE-SE T02720211 $=
202107212152 METAR KATL 212152Z 23005KT 10SM SCT040TCU SCT140 BKN200 BKN250 29/20 A3003 RMK AO2 SLP159 CB DSNT S-SW NW TCU ALQDS T02940200 $=
202107212052 METAR KATL 212052Z 00000KT 10SM FEW036TCU BKN200 BKN250 30/20 A3003 RMK AO2 SLP159 TCU ALQDS T03000200 58014=
202107211952 METAR KATL 211952Z 28005KT 10SM FEW032TCU BKN200 BKN250 29/21 A3005 RMK AO2 SLP165 TCU ALQDS T02940206=
202107211852 METAR KATL 211852Z 00000KT 10SM FEW028TCU BKN200 BKN250 29/21 A3006 RMK AO2 SLP168 TCU ALQDS T02890211=
202107211752 METAR KATL 211752Z 32006KT 10SM FEW028TCU BKN180 28/21 A3008 RMK AO2 SLP174 TCU ALQDS 60000 T02780206 10283 20228 58007=
202107211652 METAR KATL 211652Z 34005KT 10SM SCT020 BKN170 27/21 A3010 RMK AO2 SLP182 MDT CU ALQDS T02670206=
202107211552 METAR KATL 211552Z 32006KT 10SM SCT018 BKN170 BKN250 26/21 A3010 RMK AO2 SLP184 T02610211=
202107211508 SPECI KATL 211508Z 27007KT 10SM SCT016 BKN160 BKN250 26/22 A3010 RMK AO2 T02610217=
202107211452 METAR KATL 211452Z 27004KT 10SM BKN013 BKN140 26/21 A3010 RMK AO2 SLP182 BKN013 V SCT 60000 T02560211 51010=
202107211352 METAR KATL 211352Z 26005KT 10SM BKN010 OVC140 24/22 A3009 RMK AO2 SLP180 T02440217=
202107211252 METAR KATL 211252Z 27005KT 10SM SCT010 BKN015 BKN025 BKN150 OVC250 23/21 A3008 RMK AO2 DZB10E50 SLP178 T02330211=
202107211236 SPECI KATL 211236Z 28004KT 10SM -DZ SCT009 BKN015 BKN030 BKN150 OVC250 23/21 A3008 RMK AO2 DZB10 T02330211=
202107211210 SPECI KATL 211210Z 28005KT 10SM -DZ BKN009 BKN015 BKN030 OVC250 23/21 A3007 RMK AO2 DZB10 DZB08 T02280211=
202107211152 METAR KATL 211152Z 26004KT 10SM SCT009 BKN015 BKN150 OVC250 23/21 A3007 RMK AO2 SLP172 70007 T02280211 10228 20222 51017=
202107211130 SPECI KATL 211130Z 30004KT 10SM FEW006 BKN015 BKN150 OVC250 23/21 A3006 RMK AO2 T02280206=
202107211052 METAR KATL 211052Z 27003KT 10SM BKN007 OVC014 23/21 A3006 RMK AO2 SLP169 T02280206=
202107211028 SPECI KATL 211028Z 28005KT 10SM BKN007 OVC013 22/21 A3005 RMK AO2 T02220206=
202107210952 METAR KATL 210952Z 24003KT 10SM SCT008 BKN014 BKN020 22/21 A3003 RMK AO2 SLP160 T02220206=
202107210940 SPECI KATL 210940Z 23005KT 10SM SCT008 BKN014 BKN019 22/21 A3003 RMK AO2 T02220206 $=
202107210852 METAR KATL 210852Z 21004KT 10SM FEW007 SCT013 SCT019 BKN250 22/21 A3002 RMK AO2 SLP155 T02220206 53004 $=
202107210824 SPECI KATL 210824Z 25003KT 10SM SCT007 SCT015 BKN030 BKN250 22/21 A3002 RMK AO2 T02220206 $=
202107210752 METAR KATL 210752Z 23004KT 10SM FEW005 BKN009 BKN015 23/21 A3001 RMK AO2 SLP152 T02280206 $=
202107210732 SPECI KATL 210732Z 22006KT 10SM BKN009 OVC015 23/21 A3000 RMK AO2 T02280206 $=
202107210715 SPECI KATL 210715Z 21004KT 10SM SCT008 BKN015 OVC025 23/21 A3000 RMK AO2 T02280206 $=
202107210652 METAR KATL 210652Z 21003KT 10SM BKN008 BKN015 OVC026 23/21 A3000 RMK AO2 SLP150 T02280206 $=
202107210628 SPECI KATL 210628Z 00000KT 10SM BKN008 OVC020 23/21 A3000 RMK AO2 T02280211 $=
202107210559 SPECI KATL 210559Z 00000KT 10SM BKN010 BKN030 BKN150 23/21 A3000 RMK AO2 BKN010 V SCT T02280211 $=
202107210552 METAR KATL 210552Z 00000KT 10SM SCT010 BKN025 BKN150 23/21 A3000 RMK AO2 SLP149 SCT010 V BKN T02280211 10244 20228 56003 $=
202107210511 SPECI KATL 210511Z 00000KT 10SM BKN008 BKN025 23/21 A3001 RMK AO2 T02280211 $=
202107210452 METAR KATL 210452Z 18003KT 10SM FEW008 SCT025 BKN150 BKN200 23/21 A3000 RMK AO2 SLP150 T02280211 402830217 $=
202107210352 METAR KATL 210352Z 14003KT 10SM SCT008 BKN150 OVC200 23/21 A3000 RMK AO2 SLP151 T02330211 $=
202107210333 SPECI KATL 210333Z 12003KT 10SM SCT008 BKN150 OVC200 23/21 A3001 RMK AO2 T02330211 $=
202107210252 METAR KATL 210252Z 13004KT 10SM BKN008 BKN060 BKN150 OVC200 23/22 A3001 RMK AO2 SLP153 BKN008 V SCT T02330217 53005 $=
202107210230 SPECI KATL 210230Z 14005KT 10SM SCT008 BKN150 OVC200 23/22 A3001 RMK AO2 T02330217 $=
202107210215 SPECI KATL 210215Z 11004KT 10SM BKN008 BKN150 OVC200 23/22 A3000 RMK AO2 T02330217 $=
202107210152 METAR KATL 210152Z 14005KT 10SM FEW008 SCT090 BKN150 OVC200 24/21 A3000 RMK AO2 SLP148 T02390211 $=
202107210052 METAR KATL 210052Z 11006KT 10SM SCT010 SCT016 BKN090 BKN140 OVC200 24/22 A3000 RMK AO2 SLP149 T02390217 $=
202107210034 SPECI KATL 210034Z 12007KT 10SM BKN010 BKN090 BKN140 OVC200 24/22 A3000 RMK AO2 T02440217 $=
202107202352 METAR KATL 202352Z 09007KT 10SM FEW010 SCT070 BKN100 BKN140 OVC200 24/22 A3000 RMK AO2 SLP148 CB DSNT SE W-NW 60007 T02440217 10283 20244 53006 $=
202107202252 METAR KATL 202252Z 07006KT 10SM FEW010 SCT016 BKN080 BKN130 OVC200 25/22 A2998 RMK AO2 SLP143 CB DSNT SE-S NW T02500217=
202107202152 METAR KATL 202152Z 04004KT 10SM FEW010 SCT035 BKN060 BKN140 OVC200 25/22 A2998 RMK AO2 LTG DSNT SE AND NW RAE03 SLP143 CB DSNT SE-S SW-NW P0000 T02500217=
202107202052 METAR KATL 202052Z 05008KT 5SM RA FEW010 SCT018 SCT050 BKN130 OVC200 25/22 A2998 RMK AO2 LTG DSNT W RAB02 SLP142 CB DSNT E-SE W-NW P0005 60007 T02500222 56004=
202107202014 SPECI KATL 202014Z 35007KT 8SM -RA FEW018TCU SCT045 BKN090 BKN200 26/22 A2997 RMK AO2 RAB02 TCU E-S-SW CB DSNT ALQDS P0000 T02560222=
202107202003 SPECI KATL 202003Z 36009KT 10SM -RA BKN020 BKN055 BKN140 BKN200 26/22 A2998 RMK AO2 LTG DSNT E RAB02 CB DSNT ALQDS P0000 T02560217=
202107201952 METAR KATL 201952Z 36010KT 10SM SCT018 SCT032CB BKN070 BKN200 27/22 A2998 RMK AO2 LTG DSNT E SLP143 CB NE SE-SW DSNT ALQDS MOV E SHRA NE SE-SW T02670222=
202107201852 METAR KATL 201852Z 29006KT 10SM FEW014 FEW032TCU SCT065 BKN200 27/23 A2998 RMK AO2 LTG DSNT N RAB01E40 SLP142 CB DSNT ALQDS TCU SE-S DSNT NE SW NW P0002 T02720228=
202107201802 SPECI KATL 201802Z 32012G15KT 8SM -RA SCT022CB BKN032TCU BKN070 BKN200 26/21 A2999 RMK AO2 RAB01 VIS LWR NW-NE CB NW-NE MOV E TCU ALQDS P0000 T02610211=
202107201752 METAR KATL 201752Z VRB03KT 10SM SCT022CB BKN032TCU BKN070 BKN200 27/21 A2999 RMK AO2 SLP145 VIS LWR NW-NE CB NW-NE MOV E TCU ALQDS SHRA NW-NE T02720211 10283 20222 58004=
202107201652 METAR KATL 201652Z VRB04KT 10SM SCT018TCU BKN036 BKN055 BKN200 27/22 A3000 RMK AO2 SLP150 TCU SW W DSNT NW-N MDT CU ALQDS T02670217=
202107201615 SPECI KATL 201615Z 23005KT 10SM FEW014 SCT028 OVC040 26/21 A3001 RMK AO2 MDT CU ALQDS T02560211=
202107201552 METAR KATL 201552Z 28004KT 10SM FEW014 BKN024 OVC035 26/21 A3001 RMK AO2 SLP154 T02560211=
202107201452 METAR KATL 201452Z VRB03KT 8SM SCT008 BKN012 OVC022 24/22 A3000 RMK AO2 SLP151 CIG 010V014 BINOVC T02440217 51005=
202107201352 METAR KATL 201352Z 22005KT 6SM BR OVC005 23/21 A3000 RMK AO2 SLP151 CIG 004V007 T02280211=
202107201252 METAR KATL 201252Z 20003KT 7SM OVC005 22/21 A2999 RMK AO2 SLP149 CIG 004V008 T02220211=
202107201211 SPECI KATL 201211Z 19003KT 7SM OVC006 22/21 A2999 RMK AO2 CIG 005V009 T02220206=
202107201152 METAR KATL 201152Z 20003KT 7SM SCT008 SCT044 BKN070 OVC150 22/21 A2999 RMK AO2 RAB01E42 SLP145 P0005 60023 70161 T02220211 10222 20217 53006=
202107201052 METAR KATL 201052Z 23003KT 8SM FEW007 SCT044 BKN075 OVC150 22/21 A2998 RMK AO2 SLP142 T02170206=
202107201042 SPECI KATL 201042Z 23003KT 9SM FEW007 SCT038 SCT080 22/21 A2998 RMK AO2 T02170206=
202107200952 METAR KATL 200952Z 00000KT 9SM FEW007 BKN024 OVC048 22/21 A2997 RMK AO2 SLP140 T02170206=
202107200948 SPECI KATL 200948Z 21003KT 10SM FEW007 BKN024 OVC048 22/21 A2997 RMK AO2=
202107200939 SPECI KATL 200939Z 20003KT 10SM FEW007 SCT024 OVC048 22/21 A2997 RMK AO2 T02170206=
202107200852 METAR KATL 200852Z 23004KT 10SM SCT011 SCT017 BKN075 OVC130 22/21 A2997 RMK AO2 RAE31 SLP139 P0002 60018 T02170206 56010=
202107200752 METAR KATL 200752Z 19003KT 4SM -RA BR FEW007 SCT065 OVC090 22/21 A2998 RMK AO2 SLP140 P0010 T02220206=
202107200720 SPECI KATL 200720Z 19003KT 5SM -RA BR FEW007 BKN070 OVC090 22/21 A2998 RMK AO2 LTG DSNT SW CB DSNT SW P0005 T02220211=
202107200706 SPECI KATL 200706Z 00000KT 6SM -RA BR SCT011 BKN070 OVC110 22/21 A2998 RMK AO2 LTG DSNT SW CB DSNT SW P0002 T02220206=
202107200652 METAR KATL 200652Z 00000KT 7SM -RA BKN013 BKN050 OVC110 22/21 A2998 RMK AO2 SLP142 BKN013 V SCT P0006 T02220206=
202107200625 SPECI KATL 200625Z 00000KT 8SM -RA FEW007 BKN013 OVC075 22/21 A2999 RMK AO2 BKN013 V SCT P0004 T02220211=
202107200552 METAR KATL 200552Z 00000KT 9SM -RA SCT005 BKN060 OVC110 22/21 A3000 RMK AO2 SLP149 P0001 60114 T02220211 10239 20222 58013=
202107200534 SPECI KATL 200534Z 22003KT 7SM -RA SCT014 SCT050 OVC060 22/21 A3000 RMK AO2 P0000 T02220206=
202107200512 SPECI KATL 200512Z 23003KT 10SM -RA FEW005 BKN016 BKN090 OVC150 22/21 A3001 RMK AO2 P0000 T02220206=
202107200452 METAR KATL 200452Z 21003KT 10SM -RA FEW005 SCT020 BKN090 OVC150 22/21 A3001 RMK AO2 SLP155 SCT020 V BKN P0001 T02220206 402830222=
202107200352 METAR KATL 200352Z 22004KT 7SM -RA FEW005 SCT050 BKN090 OVC150 22/21 A3003 RMK AO2 TSE20 SLP159 P0017 T02220206=
202107200320 SPECI KATL 200320Z 22005KT 4SM -RA BR FEW005 SCT012 BKN060 OVC150 22/21 A3004 RMK AO2 TSE20 TS DSIPTD SCT012 V BKN P0012 T02220211=
202107200252 METAR KATL 200252Z 23004KT 4SM TSRA BR FEW005 SCT015CB OVC070 22/21 A3004 RMK AO2 SLP162 OCNL LTGICCA E-S TS E-S MOV E P0032 60095 T02220211 53006=
202107200227 SPECI KATL 200227Z 24003KT 3SM TSRA BR FEW005 SCT015CB OVC040 23/21 A3004 RMK AO2 OCNL LTGICCA NE-SE-S TS NE-SE-S MOV E P0025 T02280211=
202107200152 METAR KATL 200152Z VRB03KT 4SM TSRA BR SCT005 BKN015CB OVC070 23/22 A3003 RMK AO2 SLP161 TSE12B36 FRQ LTGICCGCA NE-SE-SW TS NE-SE-SW MOV E P0037 T02280217=
202107200138 SPECI KATL 200138Z 27004KT 5SM -TSRA BR FEW005 SCT015CB BKN070 OVC150 23/22 A3002 RMK AO2 TSE12B36 OCNL LTGICCA NE-SE-SW TS NE-SE-SW MOV E P0033 T02280217=
202107200112 SPECI KATL 200112Z 30006KT 3SM RA BR FEW005 SCT014CB BKN040 OVC150 23/22 A3002 RMK AO2 TS DSIPTD CB N-NE MOV E P0027 T02330217=
202107200052 METAR KATL 200052Z 23006KT 1 1/2SM R09R/5500VP6000FT +TSRA BR SCT007 BKN014CB OVC050 23/22 A3002 RMK AO2 RAB28 TSB38 SLP157 OCNL LTGIC OHD-ALQDS TS OHD-ALQDS MOV E P0026 T02280217=
202107200049 SPECI KATL 200049Z 21005KT 1 1/2SM R09R/6000VP6000FT +TSRA BR SCT007 BKN014CB OVC050 23/22 A3002 RMK AO2 RAB28 TSB38 OCNL LTGIC OHD-ALQDS TS OHD-ALQDS MOV E P0021=
202107200039 SPECI KATL 200039Z 22008KT 2 1/2SM -TSRA BR SCT007 BKN014CB BKN050 OVC150 23/22 A3001 RMK AO2 RAB28 TSB38 LTG DSNT SW-NW CB OHD-W N-NE DSNT SW-NW MOV E P0002 T02330217=
202107200024 SPECI KATL 200024Z 20006KT 10SM FEW005 BKN014CB BKN050 OVC150 24/22 A3002 RMK AO2 LTG DSNT SW-NW CB ALQDS MOV E T02390217=
202107192352 METAR KATL 192352Z 18003KT 10SM FEW005 SCT020 BKN050 OVC200 24/22 A3002 RMK AO2 LTG DSNT SW AND W RAE32 SLP156 CB DSNT NE SW-W P0005 60021 T02390217 10283 20233 53003=
202107192252 METAR KATL 192252Z 29003KT 6SM -RA BR FEW005 FEW020 BKN070 BKN150 OVC200 23/21 A3000 RMK AO2 RAB07 TSE42 SLP150 LTG DSNT NE-SE CB DSNT NE-SE-S P0016 T02330211=
202107192243 SPECI KATL 192243Z 28004KT 6SM -RA BR FEW007 SCT022CB BKN040 OVC150 23/22 A3000 RMK AO2 RAB07 TSE42 LTG DSNT NE-SE TS DSIPTD CB N-E DSNT NE-SE-S P0014 T02330217=
202107192241 SPECI KATL 192241Z 29004KT 6SM -TSRA BR FEW007 SCT022CB BKN040 OVC150 23/22 A3000 RMK AO2 RAB07 LTG DSNT NE-SE TS DSIPTD CB N-E DSNT NE-SE-S P0014 T02330217=
202107192233 SPECI KATL 192233Z 25006KT 2 1/2SM R09R/5000VP6000FT TSRA BR FEW007 SCT022CB BKN040 OVC150 23/21 A3001 RMK AO2 RAB07 OCNL LTGICCA NE-OHD-SW TS NE-OHD-SW MOV E P0011 T02330211=
202107192152 METAR KATL 192152Z 20010KT 10SM TS SCT030CB BKN055 BKN140 OVC200 26/21 A3000 RMK AO2 RAB03E44 TSB33 SLP150 OCNL LTGICCG SW-NW TS SW-NW MOV E CB SW-NW DSNT ALQDS MOV E P0000 T02560211=
202107192133 SPECI KATL 192133Z 20004KT 10SM -TSRA SCT030CB BKN055 BKN140 OVC200 27/22 A3001 RMK AO2 RAB03 TSB33 OCNL LTGICCG SW-NW TS SW-NW MOV E CB SW-NW DSNT ALQDS MOV E P0000 T02670217=
202107192052 METAR KATL 192052Z 20007KT 10SM BKN030TCU BKN060 BKN140 BKN200 27/21 A3001 RMK AO2 LTG DSNT W AND NW SLP152 CB DSNT NE SE W NW TCU SW NW-NE SHRA SW NW DSNT NE SE T02720206 56021=
202107191952 METAR KATL 191952Z 19007KT 10SM SCT026TCU BKN055 BKN140 BKN200 27/21 A3003 RMK AO2 SLP157 TCU W-NW SHRA NW T02720206=
202107191852 METAR KATL 191852Z 19005KT 10SM FEW024 SCT120 BKN150 BKN200 27/21 A3005 RMK AO2 SLP166 TCU DSNT W-NW T02720206=
202107191752 METAR KATL 191752Z 00000KT 10SM FEW018 SCT100 BKN150 BKN200 26/21 A3007 RMK AO2 RAE00 SLP173 TCU DSNT NE NW P0000 60003 T02610211 10261 20222 58015=
202107191652 METAR KATL 191652Z 27003KT 10SM -RA FEW010 SCT065 BKN100 OVC140 24/22 A3009 RMK AO2 SLP180 P0001 T02390217=
202107191623 SPECI KATL 191623Z 28006KT 9SM -RA SCT010 SCT022 OVC048 23/22 A3010 RMK AO2 P0000 T02330217=
202107191552 METAR KATL 191552Z 28005KT 6SM -RA BR BKN010 OVC032 24/22 A3012 RMK AO2 RAB40 SLP189 CIG 009V012 P0000 T02390217=
202107191452 METAR KATL 191452Z 24007KT 10SM BKN010 BKN024 OVC120 24/21 A3012 RMK AO2 SLP189 CIG 009V012 60002 T02390211 53006=
202107191352 METAR KATL 191352Z 25006KT 8SM BKN010 OVC028 23/21 A3011 RMK AO2 RAE13 SLP188 CIG 009V012 P0001 T02330211=
202107191252 METAR KATL 191252Z 23004KT 7SM -RA OVC005 23/21 A3010 RMK AO2 RAE09B25 SLP184 CIG 004V008 P0001 T02280211 $=
202107191152 METAR KATL 191152Z 22004KT 7SM -RA BKN005 BKN075 OVC110 22/21 A3010 RMK AO2 RAB24 SLP183 P0002 60002 70059 T02220211 10233 20222 53006=
202107191150 SPECI KATL 191150Z 22005KT 7SM -RA BKN005 BKN075 OVC110 22/21 A3010 RMK AO2 RAB24 P0002=
202107191117 SPECI KATL 191117Z 21004KT 10SM FEW006 SCT011 BKN120 OVC150 23/21 A3009 RMK AO2 T02280211=
202107191052 METAR KATL 191052Z 23003KT 10SM SCT008 BKN013 BKN047 BKN130 23/21 A3008 RMK AO2 RAB30E42 SLP178 BKN008 V SCT P0000 T02280211=
202107190952 METAR KATL 190952Z 24007KT 10SM OVC005 23/21 A3009 RMK AO2 SLP179 T02280211=
202107190852 METAR KATL 190852Z 23004KT 10SM OVC006 23/21 A3008 RMK AO2 SLP175 T02280211 56006=
202107190758 SPECI KATL 190758Z 27005KT 10SM BKN006 BKN022 OVC150 23/21 A3008 RMK AO2 BKN006 V SCT T02280211 $=
202107190752 METAR KATL 190752Z 27005KT 10SM SCT006 BKN022 23/21 A3008 RMK AO2 SLP175 T02280211 $=
202107190741 SPECI KATL 190741Z 27007KT 10SM SCT006 BKN022 23/21 A3008 RMK AO2 T02280211 $=
202107190652 METAR KATL 190652Z 24004KT 10SM OVC007 23/22 A3008 RMK AO2 SLP176 T02280217 $=
202107190552 METAR KATL 190552Z 21004KT 10SM BKN005 OVC110 23/22 A3010 RMK AO2 RAB21E37 SLP180 CIG 004V007 P0000 60048 T02330217 10256 20233 58005 $=
202107190521 SPECI KATL 190521Z 22004KT 9SM -RA BKN005 BKN035 OVC110 23/22 A3011 RMK AO2 RAB21 P0000 T02330217=
202107190452 METAR KATL 190452Z 24005KT 10SM FEW007 FEW035 SCT080 BKN150 BKN250 23/22 A3011 RMK AO2 SLP187 T02330217 402940228=
202107190450 SPECI KATL 190450Z 23004KT 10SM FEW007 FEW035 SCT080 BKN150 BKN250 23/22 A3011 RMK AO2=
202107190352 METAR KATL 190352Z 23003KT 10SM FEW010 SCT070 BKN090 BKN130 BKN250 23/22 A3012 RMK AO2 RAE26 SLP189 P0000 T02330217=
202107190252 METAR KATL 190252Z 26003KT 9SM -RA SCT013 BKN047 BKN120 BKN250 23/21 A3011 RMK AO2 RAB04 SLP187 P0048 60048 T02330211 53004=
202107190248 SPECI KATL 190248Z 28003KT 4SM -RA BR SCT013 BKN047 BKN120 BKN250 23/22 A3011 RMK AO2 RAB04 P0047=
202107190225 SPECI KATL 190225Z VRB06G16KT 3SM -RA BR SCT010 BKN017 OVC027 24/22 A3011 RMK AO2 RAB04 P0037 T02390217=
202107190210 SPECI KATL 190210Z 23010G18KT 2SM R09R/5500VP6000FT +RA BR FEW010 BKN015 OVC028 24/22 A3011 RMK AO2 LTG DSNT W RAB04 P0002 T02390217=
202107190152 METAR KATL 190152Z 17003KT 10SM BKN012 BKN020 BKN027 BKN150 OVC250 25/22 A3010 RMK AO2 SLP181 CB DSNT W BINOVC T02500222=
202107190121 SPECI KATL 190121Z 00000KT 10SM BKN013 BKN045 BKN075 25/22 A3010 RMK AO2 T02500222=
202107190052 METAR KATL 190052Z 21003KT 10SM FEW015 SCT050 SCT080 SCT150 BKN200 BKN250 25/22 A3011 RMK AO2 LTG DSNT N SLP187 CB DSNT NW & N T02500217=
202107182352 METAR KATL 182352Z 20004KT 10SM FEW015 FEW035 SCT080 SCT150 BKN200 BKN250 25/21 A3010 RMK AO2 LTG DSNT NW SLP183 TCU DSNT S-SW CB DSNT NE & E & NW 60009 T02500211 10294 20233 50000=
202107182252 METAR KATL 182252Z 18008KT 10SM FEW016 SCT040 SCT090 SCT150 BKN200 BKN250 26/21 A3010 RMK AO2 SLP182 TCU DSNT ALQDS CB DSNT NW T02610211=
202107182152 METAR KATL 182152Z 32003KT 10SM FEW012 FEW035TCU SCT049 BKN150 BKN250 26/22 A3011 RMK AO2 PK WND 24030/2109 WSHFT 2106 RAB10E41 SLP186 TCU NE & DSNT SE CB DSNT S & NW P0009 T02560222=
202107182125 SPECI KATL 182125Z 30007KT 7SM R09R/5000VP6000FT -RA FEW027 BKN040TCU BKN070 BKN150 BKN250 24/22 A3011 RMK AO2 PK WND 24030/2109 WSHFT 2106 RAB10 VIS LWR E & NW P0008 T02390222=
202107182052 METAR KATL 182052Z 22007KT 10SM SCT038TCU SCT060 BKN250 28/20 A3010 RMK AO2 SLP181 TCU N-E-SE CB DSNT SW-W MOV NE T02830200 56023=
202107181952 METAR KATL 181952Z 21006KT 10SM SCT036TCU BKN140 BKN250 28/19 A3011 RMK AO2 SLP188 TCU N & SE-S CB DSNT NW T02830194=
202107181852 METAR KATL 181852Z VRB03KT 10SM SCT035TCU BKN170 29/20 A3014 RMK AO2 SLP194 TCU ALQDS T02890200=
202107181752 METAR KATL 181752Z VRB04KT 10SM SCT028 SCT170 BKN250 29/21 A3017 RMK AO2 SLP205 60000 T02890211 10289 20233 58012=
202107181652 METAR KATL 181652Z 00000KT 10SM FEW028 SCT120 BKN170 BKN250 27/21 A3019 RMK AO2 SLP214 T02670206=
202107181552 METAR KATL 181552Z 19004KT 10SM FEW020 SCT090 BKN150 BKN250 26/21 A3020 RMK AO2 SLP219 T02560206=
202107181452 METAR KATL 181452Z 00000KT 10SM FEW018 BKN120 OVC250 24/20 A3021 RMK AO2 SLP220 60000 T02440200 50003=
202107181352 METAR KATL 181352Z 00000KT 10SM FEW032 SCT080 OVC130 24/19 A3021 RMK AO2 RAB29E38 SLP222 P0000 T02440194=
202107181252 METAR KATL 181252Z 33003KT 10SM FEW034 OVC120 24/19 A3021 RMK AO2 SLP218 T02390189=
202107181152 METAR KATL 181152Z 34004KT 10SM FEW034 BKN120 OVC150 24/19 A3020 RMK AO2 SLP215 T02390189 10239 20228 53013=
202107181052 METAR KATL 181052Z 02005KT 10SM SCT038 BKN130 OVC180 23/19 A3018 RMK AO2 SLP209 VIRGA OHD-SW-NW T02330194=
202107180952 METAR KATL 180952Z 31003KT 10SM FEW110 BKN150 BKN180 BKN250 23/20 A3017 RMK AO2 SLP205 T02280200=
202107180852 METAR KATL 180852Z 31005KT 10SM SCT110 SCT150 BKN180 BKN250 23/19 A3016 RMK AO2 SLP201 T02330194 55002=
202107180752 METAR KATL 180752Z 00000KT 10SM FEW110 SCT150 BKN180 BKN250 23/20 A3015 RMK AO2 SLP199 T02280200=
202107180652 METAR KATL 180652Z 31003KT 10SM FEW110 BKN150 BKN180 BKN250 23/20 A3015 RMK AO2 SLP199 T02280200=
202107180552 METAR KATL 180552Z 30004KT 10SM FEW110 BKN150 BKN180 BKN250 23/20 A3016 RMK AO2 SLP203 60000 T02280200 10283 20228 58009=
202107180452 METAR KATL 180452Z 26004KT 10SM FEW110 SCT150 BKN180 BKN250 23/19 A3017 RMK AO2 SLP205 T02280194 403110217=
202107180352 METAR KATL 180352Z 29006KT 10SM FEW025 SCT110 BKN140 BKN200 OVC250 23/19 A3019 RMK AO2 SLP211 T02330194=
202107180252 METAR KATL 180252Z 22004KT 10SM FEW030 FEW050 SCT110 BKN130 OVC250 23/20 A3019 RMK AO2 LTG DSNT NW RAB26E52 SLP213 CB DSNT NW P0000 60000 T02280200 51012=
202107180152 METAR KATL 180152Z 20007KT 10SM FEW012 SCT030 SCT110 BKN200 OVC250 23/19 A3017 RMK AO2 RAB26E37 SLP207 P0000 T02330194=
202107180115 SPECI KATL 180115Z 20012G24KT 10SM FEW025 SCT030 BKN050 BKN200 OVC250 26/19 A3018 RMK AO2 TS DSIPTD VC SE-SW T02560189=
202107180056 SPECI KATL 180056Z 21006KT 10SM VCTS SCT030CB BKN120 BKN200 OVC250 28/21 A3017 RMK AO2 OCNL LTGICCG VC SE-SW TS VC SE-SW MOV NE T02780211=
202107180052 METAR KATL 180052Z 24006KT 10SM SCT030 BKN120 BKN200 OVC250 28/21 A3017 RMK AO2 LTG DSNT S SLP206 CB DSNT S BINOVC T02780206=
202107172352 METAR KATL 172352Z 24004KT 10SM FEW003 FEW038 BKN120 BKN200 BKN250 28/21 A3015 RMK AO2 LTG DSNT N SLP200 TCU DSNT S FU FEW003 FU PLUME SE CB DSNT N T02830206 10311 20283 53006=
202107172252 METAR KATL 172252Z 25007KT 10SM FEW038 BKN130 BKN200 BKN250 29/20 A3013 RMK AO2 SLP194 TCU DSNT NW & E T02890200=
202107172152 METAR KATL 172152Z 26006KT 10SM FEW039 SCT120 BKN200 BKN250 29/21 A3013 RMK AO2 SLP194 CB DSNT NE TCU DSNT N & SE-S T02890206=
202107172052 METAR KATL 172052Z 23009KT 10SM SCT041TCU BKN150 BKN250 31/20 A3013 RMK AO2 LTG DSNT N SLP193 TCU ALQDS CB DSNT N T03060200 56017=
202107171952 METAR KATL 171952Z 23006KT 10SM SCT041TCU BKN120 BKN160 BKN250 31/21 A3014 RMK AO2 LTG DSNT SE SLP197 TSE09 TS MOV NE TCU ALQDS T03060211=
202107171915 SPECI KATL 171915Z 23007KT 10SM SCT040TCU BKN160 BKN250 30/21 A3015 RMK AO2 LTG DSNT N TSE09 TS MOV NE CB DSNT N TCU ALQDS T03000206=
202107171852 METAR KATL 171852Z 26010G16KT 10SM VCTS SCT040CB BKN160 31/21 A3016 RMK AO2 LTG DSNT N SLP204 TSB22 OCNL LTGICCG N VCTS N MOV NE TCU NE-SE & SW-NW T03060206=
202107171828 SPECI KATL 171828Z 26006KT 10SM VCTS SCT040CB BKN160 30/21 A3017 RMK AO2 TSB22 OCNL LTGICCG NW VCTS NW MOV E TCU NE-SE-SW T03000211=
202107171752 METAR KATL 171752Z 24008KT 10SM SCT040TCU BKN160 30/21 A3018 RMK AO2 LTG DSNT W SLP210 TCU ALQDS CB DSNT W T03000206 10306 20233 58005=
202107171652 METAR KATL 171652Z 28013G16KT 10SM SCT036 BKN160 29/19 A3020 RMK AO2 SLP214 MDT CU ALQDS T02940194=
202107171552 METAR KATL 171552Z VRB06KT 10SM FEW030 BKN160 29/21 A3020 RMK AO2 SLP215 T02890206=
202107171452 METAR KATL 171452Z 22008KT 10SM FEW027 SCT150 28/21 A3020 RMK AO2 SLP216 T02780206 50005=
202107171352 METAR KATL 171352Z VRB04KT 10SM FEW022 FEW150 SCT250 27/21 A3020 RMK AO2 SLP218 T02670206=
202107171252 METAR KATL 171252Z 28005KT 10SM FEW035 FEW150 FEW250 24/21 A3020 RMK AO2 SLP216 T02440206=
202107171152 METAR KATL 171152Z 10SM FEW008 FEW035 FEW150 23/21 A3018 RMK AO2 SLP212 70020 T02280206 10233 20217 51016=
202107171052 METAR KATL 171052Z 00000KT 10SM FEW035 FEW150 FEW250 22/20 A3017 RMK AO2 SLP207 T02220200=
202107170952 METAR KATL 170952Z 23003KT 10SM FEW035 SCT180 SCT250 22/21 A3015 RMK AO2 SLP199 T02220206=
202107170852 METAR KATL 170852Z 00000KT 10SM FEW035 SCT180 SCT250 22/20 A3013 RMK AO2 SLP193 T02220200 55005=
202107170752 METAR KATL 170752Z 00000KT 10SM FEW035 SCT180 BKN250 23/21 A3013 RMK AO2 SLP191 T02330206=
202107170652 METAR KATL 170652Z 27004KT 10SM FEW008 FEW035 SCT180 BKN220 23/21 A3013 RMK AO2 SLP190 T02280206=
202107170552 METAR KATL 170552Z 19003KT 10SM FEW008 FEW035 BKN180 23/21 A3015 RMK AO2 SLP198 60001 T02280206 10256 20228 55004=
202107170550 SPECI KATL 170550Z 20005KT 10SM FEW008 FEW035 BKN180 23/21 A3015 RMK AO2=
202107170452 METAR KATL 170452Z 27004KT 10SM FEW030TCU BKN150 BKN200 23/20 A3015 RMK AO2 LTG DSNT S SLP198 CB DSNT S-SW TCU NE T02330200 403170228=
202107170352 METAR KATL 170352Z 00000KT 10SM FEW100 SCT150 BKN200 BKN250 24/21 A3014 RMK AO2 SLP196 T02390206=
202107170252 METAR KATL 170252Z 29005KT 10SM FEW030 SCT100 BKN150 BKN200 24/21 A3016 RMK AO2 SLP203 60001 T02390206 53016=
202107170152 METAR KATL 170152Z 27004KT 10SM FEW030 BKN150 BKN200 23/21 A3014 RMK AO2 LTG DSNT NW SLP197 T02330211=
202107170052 METAR KATL 170052Z 00000KT 10SM FEW030 SCT110 BKN150 BKN200 25/22 A3011 RMK AO2 RAB01E21B40E51 SLP185 LTG DSNT NE SW-W P0001 T02500222=
202107170013 SPECI KATL 170013Z 27004KT 9SM -RA FEW030 SCT080 BKN120 BKN200 25/22 A3011 RMK AO2 RAB01 LTG DSNT NE SW TS DSIPTD P0001 T02500217=
202107162352 METAR KATL 162352Z 24008KT 10SM VCTS FEW030CB SCT070 BKN120 BKN200 25/21 A3011 RMK AO2 PK WND 15030/2320 SLP186 RAB18E38 TSB06 OCNL LTGICCG VC SW-W DSNT NE TS VC SW-W DSNT NE MOV N P0019 60019 T02500211 10317 20244 53003=
202107162306 SPECI KATL 162306Z 24008KT 10SM TS FEW035CB SCT070 BKN150 BKN200 29/21 A3010 RMK AO2 TSB06 OCNL LTGICCG S DSNT SW-W TS S DSNT SW-W MOV N TCU ALQDS T02890211=
202107162252 METAR KATL 162252Z 22006KT 10SM FEW035CB SCT070 BKN150 BKN200 29/22 A3009 RMK AO2 SLP178 LTG DSNT SW-W CB S DSNT SW-NW MOV N TCU ALQDS T02890217=
202107162152 METAR KATL 162152Z 21006KT 10SM SCT035TCU BKN070 BKN200 29/21 A3009 RMK AO2 LTG DSNT W SLP178 TSB06E24 CB DSNT SW-NW TCU OHD-ALQDS T02940206=
202107162125 SPECI KATL 162125Z 17007KT 10SM FEW040CB SCT070 SCT200 30/21 A3009 RMK AO2 TSB06E24 TS DSIPTD CB NW DSNT SW-W MOV NE TCU ALQDS T03000206=
202107162108 SPECI KATL 162108Z 20006KT 10SM VCTS SCT040CB SCT070 BKN200 31/21 A3010 RMK AO2 TSB06 OCNL LTGICCG VC W-NW TS VC W-NW MOV NE TCU ALQDS T03110211=
202107162052 METAR KATL 162052Z 20006KT 10SM SCT040TCU SCT070 SCT200 BKN250 30/20 A3010 RMK AO2 SLP182 CB DSNT E S W TCU ALQDS T03000200 56020=
202107161952 METAR KATL 161952Z 19006KT 10SM SCT038TCU SCT200 BKN250 31/21 A3012 RMK AO2 LTG DSNT E SLP189 CB DSNT E TCU E S SW MDT CU ALQDS T03110211=
202107161852 METAR KATL 161852Z 21006KT 10SM SCT036 SCT140 BKN200 BKN250 31/22 A3014 RMK AO2 SLP195 TCU DSNT SW MDT CU ALQDS T03060217=
202107161752 METAR KATL 161752Z 25007KT 10SM FEW034 SCT140 BKN180 BKN250 29/22 A3016 RMK AO2 SLP202 CB DSNT NE E TCU DSNT N-NE T02940217 10294 20244 58009=
202107161652 METAR KATL 161652Z 22004KT 10SM FEW038 FEW120 BKN150 BKN200 29/22 A3018 RMK AO2 SLP210 VIRGA S CB DSNT N NW TCU DSNT NE E SE NW T02890217=
202107161552 METAR KATL 161552Z 31005KT 10SM FEW040 FEW120 BKN150 BKN200 28/22 A3019 RMK AO2 SLP214 TCU DSNT N NE NW ACC SE-S T02780217=
202107161452 METAR KATL 161452Z 30005KT 10SM BKN150 BKN200 BKN250 27/21 A3019 RMK AO2 SLP211 T02720211 51008=
202107161352 METAR KATL 161352Z 34005KT 10SM FEW120 BKN150 BKN200 BKN250 26/21 A3019 RMK AO2 SLP211 ACC SW T02560211=
202107161252 METAR KATL 161252Z 30005KT 10SM FEW150 BKN170 BKN250 25/22 A3017 RMK AO2 SLP207 T02500217=
202107161152 METAR KATL 161152Z 29006KT 10SM SCT150 BKN180 BKN250 24/22 A3016 RMK AO2 SLP202 T02440217 10244 20228 51009=
202107161052 METAR KATL 161052Z 28004KT 10SM FEW055 SCT150 SCT200 SCT250 23/21 A3016 RMK AO2 SLP201 CB DSNT E T02330211=
202107160952 METAR KATL 160952Z 27005KT 10SM FEW200 FEW250 23/22 A3015 RMK AO2 SLP197 T02330217=
202107160852 METAR KATL 160852Z 27004KT 10SM FEW200 SCT250 23/21 A3014 RMK AO2 SLP193 T02330211 55003=
202107160752 METAR KATL 160752Z 22004KT 10SM FEW200 BKN250 23/21 A3013 RMK AO2 SLP192 T02330211=
202107160652 METAR KATL 160652Z 19004KT 10SM SCT200 BKN250 24/22 A3014 RMK AO2 SLP195 T02390217=
202107160552 METAR KATL 160552Z 20004KT 10SM CLR 24/22 A3014 RMK AO2 SLP196 T02440217 10311 20244 58001=
202107160452 METAR KATL 160452Z 24004KT 10SM FEW150 BKN250 26/22 A3015 RMK AO2 SLP199 T02560217 403220222=
202107160352 METAR KATL 160352Z 24006KT 10SM FEW150 BKN250 27/22 A3015 RMK AO2 SLP197 T02670222=
202107160252 METAR KATL 160252Z 24005KT 10SM SCT200 BKN250 27/22 A3015 RMK AO2 SLP196 T02670217 53007=
202107160152 METAR KATL 160152Z 21005KT 10SM FEW055 SCT200 BKN250 27/22 A3013 RMK AO2 SLP192 T02720217=
202107160052 METAR KATL 160052Z 21005KT 10SM FEW055TCU SCT200 BKN250 29/18 A3013 RMK AO2 SLP190 TCU E DSNT SW T02890178=
202107152352 METAR KATL 152352Z 28004KT 10SM FEW055TCU SCT200 BKN250 31/16 A3013 RMK AO2 SLP190 TCU SE-S T03110156 10322 20306 55005=
202107152252 METAR KATL 152252Z 25005KT 10SM FEW055 FEW200 SCT250 31/17 A3012 RMK AO2 SLP190 CB DSNT E TCU DSNT SE-S T03110167=
202107152152 METAR KATL 152152Z 32007KT 10SM FEW055 SCT250 32/18 A3013 RMK AO2 SLP191 TCU DSNT E-S T03170178=
202107152052 METAR KATL 152052Z 35007KT 10SM FEW055 FEW080 SCT200 SCT250 32/19 A3014 RMK AO2 SLP196 CB DSNT NE SE TCU DSNT E-S T03170194 56024=
202107151952 METAR KATL 151952Z 32010KT 10SM FEW050TCU SCT080 BKN200 32/19 A3017 RMK AO2 SLP205 CB DSNT N TCU NE-SE-SW DSNT SE-S NW T03170194=
202107151852 METAR KATL 151852Z 29009KT 10SM SCT048TCU SCT080 BKN200 32/19 A3019 RMK AO2 SLP210 CB DSNT NE SE TCU N NE W-NW MDT CU ALQDS T03220194=
202107151752 METAR KATL 151752Z 23005KT 10SM FEW048 SCT080 BKN200 32/21 A3022 RMK AO2 SLP220 CB DSNT NE SE-S NW TCU DSNT NW-N SE T03170206 10317 20233 58011=
202107151652 METAR KATL 151652Z 29008KT 10SM SCT040TCU SCT075 BKN200 31/21 A3022 RMK AO2 SLP223 TCU N SW NW DSNT ALQDS T03110206=
202107151552 METAR KATL 151552Z 27005KT 10SM SCT032TCU SCT070 BKN200 30/21 A3024 RMK AO2 SLP231 TCU SE-SW NW DSNT N SHRA NW T03000211=
202107151452 METAR KATL 151452Z 26005KT 10SM FEW026TCU FEW044 SCT200 29/21 A3025 RMK AO2 SLP232 TCU SE DSNT NW-NE T02890211 50001=
202107151352 METAR KATL 151352Z 27005KT 10SM FEW014 FEW042 FEW200 28/22 A3026 RMK AO2 SLP235 T02780222=
202107151252 METAR KATL 151252Z 26008KT 10SM FEW040 FEW250 26/21 A3025 RMK AO2 SLP231 TCU DSNT N T02610211=
202107151152 METAR KATL 151152Z 19004KT 10SM FEW055 FEW085 SCT250 24/21 A3024 RMK AO2 SLP231 TCU DSNT NW 70007 T02390211 10239 20222 53008=
202107151052 METAR KATL 151052Z 00000KT 10SM FEW050 FEW085 FEW140 SCT250 23/21 A3023 RMK AO2 SLP226 TCU DSNT NW-N T02280206=
202107150952 METAR KATL 150952Z 00000KT 10SM FEW050 FEW085 SCT250 22/21 A3022 RMK AO2 SLP223 T02220206=
202107150852 METAR KATL 150852Z 00000KT 10SM FEW050 FEW085 SCT250 23/21 A3022 RMK AO2 SLP222 T02280206 56007=
202107150752 METAR KATL 150752Z 20003KT 10SM FEW050 SCT250 23/21 A3023 RMK AO2 SLP224 T02280206=
202107150652 METAR KATL 150652Z 00000KT 10SM FEW050 FEW085 SCT250 23/21 A3023 RMK AO2 SLP229 T02330206=
202107150552 METAR KATL 150552Z 21003KT 10SM FEW085 SCT250 24/21 A3024 RMK AO2 SLP230 T02390206 10289 20239 50001=
202107150452 METAR KATL 150452Z 24003KT 10SM SCT085 BKN250 24/21 A3024 RMK AO2 SLP230 T02440206 403110217=
202107150352 METAR KATL 150352Z 23003KT 10SM FEW200 BKN250 24/21 A3025 RMK AO2 SLP231 T02440206=
202107150252 METAR KATL 150252Z 20004KT 10SM SCT200 BKN250 25/21 A3024 RMK AO2 SLP228 T02500211 53001=
202107150152 METAR KATL 150152Z 19005KT 10SM FEW150 SCT200 BKN250 26/21 A3023 RMK AO2 SLP226 T02610211=
202107150052 METAR KATL 150052Z 17004KT 10SM FEW035TCU SCT200 BKN250 27/21 A3023 RMK AO2 SLP226 TCU NE T02720211=
202107142352 METAR KATL 142352Z 21003KT 10SM FEW035TCU SCT150 BKN200 BKN250 29/21 A3023 RMK AO2 LTG DSNT E SLP227 CB DSNT E-SE TCU OHD-E DSNT SW 60007 T02890211 10311 20233 55002=
202107142252 METAR KATL 142252Z 32005KT 10SM FEW040 SCT200 BKN250 29/21 A3021 RMK AO2 SLP218 TCU DSNT E-SE W-NW T02940211=
202107142152 METAR KATL 142152Z 34010KT 10SM SCT040TCU BKN140 BKN200 29/21 A3023 RMK AO2 SLP226 TCU OHD-ALQDS T02940206=
202107142052 METAR KATL 142052Z 27005KT 10SM FEW003 FEW038CB SCT080 BKN140 BKN200 30/21 A3024 RMK AO2 SLP229 FU FEW003 FU PLUME S CB NW DSNT NE-SE S MOV E SHRA NW 60007 T03000206 56012=
202107141952 METAR KATL 141952Z 28006KT 10SM FEW038 SCT080 BKN140 BKN200 30/20 A3024 RMK AO2 SLP230 RAE1853 CB DSNT NE-E SE-SW TCU DSNT SE NW P0000 T03000200=
202107141852 METAR KATL 141852Z 00000KT 10SM -RA FEW036CB SCT046TCU BKN070 BKN200 25/22 A3026 RMK AO2 PK WND 21028/1813 RAB19 SLP240 CB NE MOV NE TCU N-E DSNT ALQDS P0007 T02500217=
202107141752 METAR KATL 141752Z 23007KT 10SM FEW036CB SCT044TCU SCT070 BKN200 29/19 A3027 RMK AO2 LTG DSNT NE SLP241 CB SW DSNT NE SW MOV NE TCU ALQDS SHRA SW DSNT NE T02940189 10311 20233 58010=
202107141652 METAR KATL 141652Z 19005KT 10SM SCT030TCU SCT065 SCT200 BKN250 30/21 A3029 RMK AO2 LTG DSNT SW SLP247 CB DSNT NE S SW NW-N TCU ALQDS SHRA NW-N T03000206=
202107141552 METAR KATL 141552Z 21006KT 10SM FEW026TCU SCT065 SCT200 SCT250 28/19 A3030 RMK AO2 SLP249 CB DSNT SW NW-N TCU NE SW SHRA DSNT SW NW-N T02780194=
202107141452 METAR KATL 141452Z 27006KT 10SM FEW024TCU FEW065 SCT180 SCT250 28/21 A3030 RMK AO2 SLP251 TCU NE NW T02830211 50005=
202107141352 METAR KATL 141352Z 17004KT 10SM FEW022 SCT140 SCT180 SCT250 27/22 A3031 RMK AO2 SLP252 T02670217=
202107141252 METAR KATL 141252Z 22003KT 10SM FEW150 SCT180 SCT250 26/22 A3031 RMK AO2 SLP252 T02560217=
202107141152 METAR KATL 141152Z 00000KT 10SM FEW010 FEW110 SCT200 SCT250 23/21 A3029 RMK AO2 SLP248 70001 T02330206 10239 20217 53006=
202107141052 METAR KATL 141052Z 22003KT 10SM FEW110 SCT200 BKN250 23/20 A3028 RMK AO2 SLP245 T02280200=
202107140952 METAR KATL 140952Z 00000KT 10SM FEW100 SCT200 BKN250 22/20 A3027 RMK AO2 SLP242 T02220200 $=
202107140852 METAR KATL 140852Z 00000KT 10SM FEW095 BKN250 22/20 A3027 RMK AO2 SLP241 T02220200 56004 $=
202107140752 METAR KATL 140752Z 00000KT 10SM FEW095 SCT250 23/20 A3027 RMK AO2 SLP241 T02280200 $=
202107140652 METAR KATL 140652Z 21003KT 10SM FEW095 SCT250 23/21 A3028 RMK AO2 SLP243 T02280206 $=
202107140552 METAR KATL 140552Z 13003KT 10SM FEW100 FEW250 23/21 A3028 RMK AO2 SLP246 T02280211 10272 20228 51003 $=
202107140452 METAR KATL 140452Z 00000KT 10SM FEW200 23/21 A3028 RMK AO2 SLP245 T02330206 402890206 $=
202107140352 METAR KATL 140352Z 19003KT 10SM FEW120 FEW200 24/21 A3028 RMK AO2 SLP243 T02390206 $=
202107140252 METAR KATL 140252Z 17005KT 10SM FEW120 FEW200 25/21 A3028 RMK AO2 SLP244 T02500206 53008 $=
202107140152 METAR KATL 140152Z 17005KT 10SM SCT120 SCT200 26/21 A3027 RMK AO2 SLP241 T02560206 $=
202107140052 METAR KATL 140052Z 17004KT 10SM FEW040 FEW110 SCT200 26/21 A3025 RMK AO2 SLP235 CB DSNT W-NW T02610206 $=
202107132352 METAR KATL 132352Z 20003KT 10SM FEW040 SCT110 BKN200 27/20 A3025 RMK AO2 SLP236 CB DSNT NE NW 60000 T02720200 10289 20261 53002 $=
202107132252 METAR KATL 132252Z 20006KT 10SM FEW040 BKN100 BKN200 28/19 A3024 RMK AO2 SLP232 CB DSNT NW-N MDT CU SE-S T02830194 $=
202107132152 METAR KATL 132152Z 17007KT 10SM FEW035 FEW120 SCT200 29/19 A3025 RMK AO2 SLP233 CB DSNT NW TCU DSNT SE-S T02890189 $=
202107132052 METAR KATL 132052Z 19005KT 10SM FEW036TCU FEW200 28/19 A3025 RMK AO2 SLP232 TCU ALQDS 60000 T02830194 56020 $=
202107131952 METAR KATL 131952Z 21006KT 10SM SCT030TCU SCT130 28/21 A3025 RMK AO2 SLP235 TCU ALQDS T02830206 $=
202107131852 METAR KATL 131852Z 18005KT 10SM FEW026TCU SCT060 BKN130 27/21 A3028 RMK AO2 RAB21E39 SLP246 TCU ALQDS P0000 T02720206 $=
202107131752 METAR KATL 131752Z 18008KT 10SM FEW018 SCT033TCU BKN130 26/21 A3031 RMK AO2 RAB33E39 SLP255 TCU S-W-N SHRA VC E P0000 60001 T02610211 10272 20217 58002 $=
202107131652 METAR KATL 131652Z 22007KT 10SM SCT024 SCT041 BKN250 26/20 A3032 RMK AO2 SLP258 T02610200 $=
202107131552 METAR KATL 131552Z 17006KT 10SM FEW016 SCT024 BKN100 BKN150 26/21 A3032 RMK AO2 SLP257 T02560206 $=
202107131452 METAR KATL 131452Z 18003KT 10SM SCT009 BKN020 BKN130 23/20 A3032 RMK AO2 SLP258 60001 T02330200 51009 $=
202107131352 METAR KATL 131352Z 16004KT 10SM SCT006 BKN020 OVC150 22/21 A3031 RMK AO2 RAE20 SLP257 BINOVC P0001 T02220206=
202107131346 SPECI KATL 131346Z 16004KT 10SM SCT005 BKN020 OVC150 22/20 A3031 RMK AO2 RAE20 P0001=
202107131252 METAR KATL 131252Z 14003KT 8SM -RA SCT006 SCT060 BKN130 BKN200 22/20 A3029 RMK AO2 RAB47 SLP250 PCPN VRY LGT P0000 T02170200 $=
202107131152 METAR KATL 131152Z 00000KT 8SM FEW006 FEW060 BKN130 BKN200 21/19 A3026 RMK AO2 SLP241 60000 70039 T02110194 10211 20206 53010=
202107131133 SPECI KATL 131133Z 00000KT 7SM FEW005 SCT060 BKN120 BKN200 21/19 A3026 RMK AO2 T02110194=
202107131052 METAR KATL 131052Z 00000KT 2SM BR SCT005 SCT060 BKN120 BKN200 21/19 A3025 RMK AO2 SFC VIS 6 RAE0958 SLP236 P0000 T02110194=
202107130952 METAR KATL 130952Z 19004KT 2SM -RA SCT008 BKN055 OVC120 21/19 A3024 RMK AO2 SFC VIS 7 RAB25 SLP230 PCPN VRY LGT P0000 T02110194=
202107130926 SPECI KATL 130926Z 21003KT 2SM -RA BKN008 BKN060 OVC110 21/19 A3023 RMK AO2 SFC VIS 7 RAB25 CIG 006V010 P0000 T02110194=
202107130852 METAR KATL 130852Z 20003KT 2SM BR BKN004 OVC010 21/19 A3024 RMK AO2 SFC VIS 6 SLP231 CIG 003V005 T02110194 51005=
202107130752 METAR KATL 130752Z 17006KT 2SM BR OVC004 21/20 A3024 RMK AO2 SFC VIS 6 SLP231 CIG 003V005 T02110200=
202107130741 SPECI KATL 130741Z 17006KT 2SM BR BKN005 BKN012 OVC100 21/19 A3023 RMK AO2 SFC VIS 6 CIG 004V006 T02110194=
202107130729 SPECI KATL 130729Z 00000KT 2SM SCT005 SCT012 OVC100 21/19 A3022 RMK AO2 SFC VIS 7 T02110194=
202107130652 METAR KATL 130652Z 24004KT 2SM BR OVC003 21/20 A3022 RMK AO2 SFC VIS 6 SLP225 CIG 002V004 T02110200=
202107130552 METAR KATL 130552Z 18005KT 2SM BKN004 BKN012 OVC095 21/19 A3022 RMK AO2 SFC VIS 7 SLP226 CIG 003V005 60001 T02060194 10222 20206 58002=
202107130452 METAR KATL 130452Z 16004KT 2SM BKN004 BKN095 BKN140 BKN200 21/19 A3024 RMK AO2 SFC VIS 8 SLP231 T02110194 402830206=
202107130352 METAR KATL 130352Z 15005KT 3SM BKN004 BKN140 BKN250 21/19 A3025 RMK AO2 SFC VIS 10 SLP234 T02060194=
202107130252 METAR KATL 130252Z 00000KT 10SM FEW005 SCT140 BKN200 BKN250 21/19 A3023 RMK AO2 SLP227 60001 T02060194 58004=
202107130152 METAR KATL 130152Z 21004KT 10SM FEW006 SCT045 BKN130 BKN200 21/19 A3024 RMK AO2 RAE17 SLP233 P0000 T02060194=
202107130052 METAR KATL 130052Z 19007KT 9SM -RA FEW007 SCT090 BKN110 BKN200 21/19 A3023 RMK AO2 SLP230 LTG DSNT NE NW P0001 T02110194=
202107122352 METAR KATL 122352Z 18020G36KT 8SM -RA SCT022CB BKN050 BKN100 BKN200 23/19 A3024 RMK AO2 PK WND 18036/2343 RAB50 SLP232 VIS LWR SE-SW LTG DSNT NE-SE CB E-OHD-W DSNT NE-SE SW-W P0000 60035 T02280189 10261 20222 53017=
202107122252 METAR KATL 122252Z 20003KT 10SM FEW120 BKN200 BKN250 26/21 A3018 RMK AO2 LTG DSNT S SLP212 CB DSNT SE-SW T02560211=
202107122152 METAR KATL 122152Z 26003KT 10SM FEW120 BKN200 BKN250 25/22 A3017 RMK AO2 RAE07 SLP208 CB DSNT SE-SW P0000 T02500217=
202107122052 METAR KATL 122052Z 20004KT 7SM -RA FEW030TCU SCT060 BKN120 BKN250 23/21 A3019 RMK AO2 RAB44 SLP214 TCU SE-S P0000 60035 T02330211 58004=
202107121952 METAR KATL 121952Z 15005KT 10SM SCT046 BKN100 OVC200 23/21 A3019 RMK AO2 LTG DSNT S RAE47 TSB05E46 PRESFR SLP216 TS MOV NE CB DSNT NE & S P0035 T02280206=
202107121930 SPECI KATL 121930Z 00000KT 3SM -TSRA BR FEW008 BKN045CB OVC070 22/21 A3021 RMK AO2 LTG DSNT NE TSB05 OCNL LTGICCG NE CB NE MOV NE P0034 T02220206=
202107121917 SPECI KATL 121917Z 21006G21KT 1SM R09R/4000VP6000FT +TSRA BR FEW008 BKN025CB OVC070 22/21 A3021 RMK AO2 LTG DSNT NE TSB05 OCNL LTGICCG OHD-S CB OHD-S MOV NE P0024 T02220206=
202107121910 SPECI KATL 121910Z 21015G21KT 2SM R09R/3500VP6000FT +TSRA BR FEW008 BKN025CB OVC070 23/22 A3021 RMK AO2 LTG DSNT NE TSB05 OCNL LTGCG S CB S MOV NE VSBY LWR S P0015 T02330217=
202107121906 SPECI KATL 121906Z 24011G17KT 7SM R09R/3500VP6000FT +TSRA FEW008 BKN035CB BKN100 BKN200 24/22 A3020 RMK AO2 LTG DSNT NE TSB05 OCNL LTGCG S CB S MOV NE VSBY LWR S P0004 T02440217=
202107121852 METAR KATL 121852Z 00000KT 7SM VCTS -RA FEW031TCU BKN070 BKN200 25/22 A3019 RMK AO2 LTG DSNT NE AND SW RAE03B51 SLP216 CB DSNT NE & SW TSE41 MOV NE TCU W-NW P0000 T02500217=
202107121847 SPECI KATL 121847Z 14004KT 10SM FEW031 BKN070 BKN200 25/22 A3020 RMK AO2 LTG DSNT NE AND SW RAE03 CB DSNT N-NE & SW TSE41 MOV NE TCU W-NW P0000=
202107121752 METAR KATL 121752Z 20008KT 5SM VCTS -RA FEW022 SCT035CB BKN065 BKN200 24/21 A3020 RMK AO2 LTG DSNT W RAB19 SLP218 TSB28 OCNL LTGCG SW-W VCTS SW-W MOV NE VSBY LWR S CB DSNT NE P0003 60003 T02440211 10283 20222 58005=
202107121734 SPECI KATL 121734Z 21008KT 4SM VCTS RA SCT032CB BKN060 BKN200 25/22 A3020 RMK AO2 RAB19 TSB28 OCNL LTGCG S-SW VCTS S-SW MOV NE VSBY LWR S-SW P0002 T02500217=
202107121652 METAR KATL 121652Z 20008KT 10SM SCT028TCU BKN200 28/21 A3020 RMK AO2 SLP216 TCU S-W-N SHRA VC NE-SESE T02780211=
202107121552 METAR KATL 121552Z 21007G16KT 10SM SCT024 BKN130 BKN250 27/21 A3022 RMK AO2 SLP225 MDT CU ALQDS T02720211=
202107121452 METAR KATL 121452Z 22005KT 10SM SCT021 BKN130 26/20 A3021 RMK AO2 SLP223 T02560200 51014=
202107121352 METAR KATL 121352Z 19006KT 10SM FEW021 SCT120 BKN150 24/20 A3021 RMK AO2 SLP220 T02390200=
202107121252 METAR KATL 121252Z 20005KT 10SM FEW008 FEW075 BKN150 BKN200 23/20 A3020 RMK AO2 SLP217 T02280200=
202107121152 METAR KATL 121152Z 18005KT 10SM FEW007 FEW075 BKN150 BKN200 22/20 A3017 RMK AO2 SLP208 ACC DSNT N NW T02220200 10222 20217 53010=
202107121052 METAR KATL 121052Z 19005KT 10SM FEW085 BKN140 BKN200 BKN250 22/19 A3015 RMK AO2 SLP201 ACC NE SE DSNT NE NW T02170194=
202107120952 METAR KATL 120952Z 24003KT 10SM SCT085 BKN150 BKN200 BKN250 22/19 A3015 RMK AO2 SLP200 T02170194=
202107120852 METAR KATL 120852Z 22005KT 10SM FEW022 SCT075 BKN250 22/20 A3014 RMK AO2 SLP198 T02170200 51012=
202107120752 METAR KATL 120752Z 22005KT 10SM FEW006 FEW020 SCT070 BKN250 22/20 A3013 RMK AO2 SLP194 T02170200=
202107120652 METAR KATL 120652Z 21006KT 10SM SCT006 SCT018 BKN250 22/20 A3012 RMK AO2 SLP187 T02170200=
202107120649 SPECI KATL 120649Z 21007KT 10SM SCT007 SCT018 BKN250 22/20 A3012 RMK AO2=
202107120624 SPECI KATL 120624Z 19006KT 10SM BKN007 BKN020 BKN250 22/21 A3011 RMK AO2 CIG 006V009 T02170206=
202107120552 METAR KATL 120552Z 21007KT 10SM SCT008 SCT020 SCT250 22/21 A3011 RMK AO2 SLP185 T02220206 10250 20222 50004=
202107120452 METAR KATL 120452Z 18006KT 10SM FEW008 FEW018 FEW200 SCT250 23/21 A3011 RMK AO2 SLP186 T02280206 403000217=
202107120448 SPECI KATL 120448Z 19005KT 10SM FEW008 FEW018 FEW200 SCT250 23/21 A3011 RMK AO2=
202107120352 METAR KATL 120352Z 15006KT 10SM FEW018 SCT041 BKN250 23/21 A3011 RMK AO2 SLP187 T02280211=
202107120344 SPECI KATL 120344Z 16004KT 10SM FEW015 SCT021 BKN250 23/21 A3011 RMK AO2 T02280211=
202107120326 SPECI KATL 120326Z 14005KT 10SM FEW015 BKN021 BKN250 23/21 A3011 RMK AO2 T02330211=
202107120252 METAR KATL 120252Z 14004KT 10SM FEW020 FEW120 SCT180 BKN250 23/21 A3010 RMK AO2 SLP182 T02330206 53009=
202107120152 METAR KATL 120152Z 21005KT 10SM FEW015 FEW100 SCT180 BKN250 24/21 A3008 RMK AO2 SLP177 CB DSNT S T02390206=
202107120052 METAR KATL 120052Z 22006KT 10SM FEW020 FEW100 SCT180 BKN250 24/21 A3007 RMK AO2 SLP174 CB DSNT N & S T02440206=
202107112352 METAR KATL 112352Z 20009G15KT 10SM FEW020 FEW100 SCT150 BKN250 25/21 A3007 RMK AO2 SLP173 CB DSNT N & S T02500206 10300 20250 53003=
202107112252 METAR KATL 112252Z 20013G20KT 10SM FEW020 SCT150 BKN250 26/21 A3006 RMK AO2 SLP170 CB DSNT S T02560206=
202107112152 METAR KATL 112152Z 19012KT 10SM FEW018 SCT080 SCT150 OVC250 27/22 A3005 RMK AO2 SLP167 TCU DSNT N-NE BINOVC T02670217=
202107112052 METAR KATL 112052Z 20009G20KT 10SM SCT033 SCT048 BKN080 BKN150 27/22 A3006 RMK AO2 SLP168 CB DSNT E MDT CU NE-E AND W-N T02720217 56007=
202107111952 METAR KATL 111952Z 19011G19KT 10SM SCT032TCU SCT046 BKN080 BKN150 28/22 A3006 RMK AO2 SLP169 TCU W-NW CB DSNT S AND NW MDT CU ALQDS T02780217=
202107111852 METAR KATL 111852Z 22008KT 10SM SCT028 SCT036TCU BKN075 BKN150 30/22 A3007 RMK AO2 LTG DSNT N AND E SLP171 TCU SW CB DSNT N AND E MDT CU ALQDS T03000217=
202107111752 METAR KATL 111752Z 22008KT 10SM SCT025 SCT033 BKN070 BKN150 28/22 A3008 RMK AO2 SLP176 MDT CU ALQDS T02830217 10289 20222 58009=
202107111733 SPECI KATL 111733Z 20007G18KT 10SM SCT023 SCT031 BKN070 BKN150 28/22 A3009 RMK AO2 MDT CU ALQDS T02830217=
202107111652 METAR KATL 111652Z 21007KT 10SM SCT020 BKN027 BKN070 BKN150 27/22 A3010 RMK AO2 SLP183 MDT CU NE-SE AND W-N T02670217=
202107111625 SPECI KATL 111625Z 20008KT 10SM SCT012 SCT020 BKN030 BKN150 BKN250 27/22 A3011 RMK AO2 MDT CU E-SE AND W-NW T02720222=
202107111552 METAR KATL 111552Z 21007KT 8SM SCT015 BKN021 OVC028 25/22 A3012 RMK AO2 SLP189 T02500217=
202107111452 METAR KATL 111452Z 23007KT 8SM BKN015 OVC024 25/22 A3011 RMK AO2 SLP186 T02500217 51009=
202107111407 SPECI KATL 111407Z 22006KT 7SM BKN012 OVC021 24/22 A3010 RMK AO2 T02440217=
202107111352 METAR KATL 111352Z 24005KT 7SM BKN009 OVC018 24/21 A3010 RMK AO2 SLP183 T02390211=
202107111252 METAR KATL 111252Z 23005KT 8SM OVC007 23/21 A3010 RMK AO2 SLP183 T02280211=
202107111152 METAR KATL 111152Z 23005KT 7SM OVC007 22/21 A3008 RMK AO2 SLP177 70090 T02220206 10228 20222 53012=
202107111052 METAR KATL 111052Z 23005KT 10SM OVC008 22/21 A3007 RMK AO2 SLP173 BINOVC T02220206=
202107111002 SPECI KATL 111002Z 24005KT 10SM BKN008 22/21 A3005 RMK AO2 T02220206 $=
202107110952 METAR KATL 110952Z 24005KT 10SM SCT007 SCT150 22/21 A3005 RMK AO2 SLP164 T02220206 $=
202107110852 METAR KATL 110852Z 24004KT 10SM OVC007 23/21 A3004 RMK AO2 SLP163 T02280206 56009 $=
202107110752 METAR KATL 110752Z 24007KT 10SM OVC007 23/21 A3005 RMK AO2 SLP164 T02280206 $=
202107110724 SPECI KATL 110724Z 25005KT 10SM OVC009 23/21 A3005 RMK AO2 T02280206 $=
202107110652 METAR KATL 110652Z 24008KT 10SM FEW009 OVC012 23/21 A3006 RMK AO2 SLP168 T02280206 $=
202107110640 SPECI KATL 110640Z 26006KT 10SM FEW009 OVC012 23/21 A3006 RMK AO2 T02280206 $=
202107110557 SPECI KATL 110557Z 26008KT 10SM BKN007 BKN012 23/21 A3007 RMK AO2 T02280206 $=
202107110552 METAR KATL 110552Z 25006KT 10SM FEW009 BKN012 23/21 A3007 RMK AO2 SLP172 CIG 010V015 60047 T02280206 10261 20217 53003 $=
202107110545 SPECI KATL 110545Z 24006KT 10SM FEW009 BKN012 22/20 A3007 RMK AO2 CIG 010V015 T02220200 $=
202107110452 METAR KATL 110452Z 23003KT 10SM FEW180 SCT250 22/20 A3006 RMK AO2 SLP168 T02220200 403110217 $=
202107110352 METAR KATL 110352Z 23003KT 10SM FEW060 SCT110 SCT250 23/20 A3005 RMK AO2 SLP165 T02280200 $=
202107110252 METAR KATL 110252Z 23004KT 10SM FEW060 SCT110 SCT150 BKN250 23/20 A3006 RMK AO2 SLP171 60047 T02280200 50004 $=
202107110152 METAR KATL 110152Z 25011G23KT 10SM FEW032 SCT047 BKN060 BKN150 BKN250 25/21 A3008 RMK AO2 LTG DSNT SE SLP174 CB DSNT SE T02500211 $=
202107110052 METAR KATL 110052Z 23003KT 10SM FEW022 SCT036 BKN110 BKN150 BKN250 23/20 A3006 RMK AO2 PK WND 23028/0010 SLP171 RAB14E40 TSB05E38 CB E-SE MOV NE & DSNT SW-N TCU DSNT NE P0047 T02330200 $=
202107110041 SPECI KATL 110041Z 22004KT 10SM -RA SCT022 SCT036 SCT075 BKN150 BKN250 23/20 A3006 RMK AO2 PK WND 23028/0010 RAB14 TSB05E38 TS MOV NE CB DSNT SW TCU DSNT W-N P0047 T02280200 $=
202107110028 SPECI KATL 110028Z 18010G17KT 7SM R09R/3500VP6000FT -RA SCT025 BKN036 OVC080 23/21 A3006 RMK AO2 PK WND 23028/0010 RAB14 TSB05 OCNL LTGIC OHD-S-SW TS 0HD-S-SW MOV NE VIS S-W 1 1/4 TCU DSNT N CB DSNT NW P0038 T02330206 $=
202107110021 SPECI KATL 110021Z 15008G22KT 7SM R09R/2200V6000FT -TSRA FEW032CB SCT060TCU SCT095 BKN150 BKN250 23/21 A3005 RMK A02 PK WND 23028/0010 RAB14 TSB05 OCNL LTGIC OHD-S-SW TS OHD-S-SW MOV NE VIS S-W 1 1/4 TCU DSNT NW P0021 T02330206=
202107110007 SPECI KATL 110007Z 21011G21KT 170V230 10SM TS FEW032CB SCT060TCU SCT095 BKN150 BKN250 25/22 A3006 RMK AO2 TSB05 OCNL LTGIC S-SW TS S-SW MOV NE TCU SW & DSNT N CB DSNT NW P0000 T02500217 $=
202107102352 METAR KATL 102352Z 22003KT 10SM FEW021 SCT044TCU SCT095 BKN150 BKN250 26/22 A3005 RMK AO2 LTG DSNT SW SLP167 TCU SW CB DSNT SW P0028 60043 T02610217 10311 20250 55002 $=
202107102335 SPECI KATL 102335Z 16005KT 10SM -RA FEW021 SCT044 BKN095 BKN150 BKN250 26/19 A3006 RMK AO2 VIS LWR NE-SE P0028 T02560194 $=
202107102328 SPECI KATL 102328Z 13008G21KT 2SM R09R/2800VP6000FT HZ SCT019 BKN044 OVC095 25/18 A3006 RMK AO2 VIS LWR SW-N P0027 T02500183=
202107102252 METAR KATL 102252Z 12006KT 10SM -RA SCT032 SCT048 SCT100 BKN140 BKN180 BKN250 26/23 A3005 RMK AO2 RAB19 SLP165 TCU OHD-SE-S & SW-W & DSNT N & S CB DSNT NW & NE P0007 T02610228=
202107102216 SPECI KATL 102216Z 07005KT 10SM FEW035 FEW055TCU SCT080 SCT150 BKN180 BKN250 29/21 A3004 RMK AO2 LTG DSNT NE TCU SE-SW & DSNT N & W CB DSNT NW-NE SHRA SE-SW T02890211=
202107102152 METAR KATL 102152Z 04005KT 10SM VCTS FEW035CB SCT050TCU SCT080 SCT150 BKN180 BKN250 28/21 A3005 RMK AO2 LTG DSNT NW TSE49 SLP167 OCNL LTGICCG VC NW-NE TS VC NW-NE MOV E TCU E-SE & S-SW SHRA E-SE & S-SW T02830211=
202107102052 METAR KATL 102052Z 01007KT 10SM TS SCT036CB SCT055 BKN080 BKN130 29/22 A3006 RMK AO2 LTG DSNT NE AND NW SLP168 TSB29 OCNL LTGICCGGC NW-N TS NW-N MOV SE CB DSNT NW-NE TCU DSNT S VIS NW-N 4 P0000 60008 T02940217 58009 $=
202107102032 SPECI KATL 102032Z 00000KT 10SM TS SCT036CB SCT055 BKN075 BKN250 29/21 A3006 RMK AO2 LTG DSNT NE TSB29 OCNL LTGIC NW TS NW MOV SE CB DSNT NE P0000 T02940206 $=
202107101959 SPECI KATL 101959Z 36010G14KT 10SM SCT040TCU BKN055 BKN075 BKN250 29/22 A3007 RMK AO2 RAE57 TSE57 TS DSPTD TCU OHD AND E-SE P0000 T02890222 $=
202107101952 METAR KATL 101952Z 02004KT 8SM -TSRA SCT040CB BKN055 BKN075 BKN250 29/22 A3007 RMK AO2 RAB25 SLP173 OCNL LTGICCG NE-E TS NE-E MOV SE CB DSNT E AND S VSY NE 4 P0008 T02890222 $=
202107101940 SPECI KATL 101940Z 02007KT 5SM R09R/6000VP6000FT -TSRA BKN040CB BKN055 BKN075 28/24 A3007 RMK AO2 RAB25 OCNL LTGICCG OHD-N-NE TS OHD-N-NE MOV SE CB DSNT E AND S VSY NE 2 1/2 P0008 T02780239 $=
202107101928 SPECI KATL 101928Z 02011KT 2SM R09R/5000VP6000FT -TSRA BKN039CB BKN055 BKN075 27/22 A3008 RMK AO2 RAB25 OCNL LTGICCG OHD-NW-N TS OHD-NW-N MOV SE CB DSNT E AND S AND NW P0003 T02670222 $=
202107101852 METAR KATL 101852Z 05010KT 10SM TS BKN037CB BKN055 BKN075 28/19 A3008 RMK AO2 LTG DSNT E SLP175 TSB15 OCNL LTGICCG OHD-N-NE TS OHD-N-NE MOV SE CB DSNT E VSY N 4 AND E 5 T02780194 $=
202107101814 SPECI KATL 101814Z 25005G18KT 10SM TS SCT035TCU SCT055 BKN075 BKN250 29/21 A3008 RMK AO2 LTG DSNT NE AND E TSB14 TSB1729E12 TS DSPTD TCU SE CB DSNT NE AND E TCU DSNT NW T02940206 $=
202107101752 METAR KATL 101752Z 28009KT 10SM VCTS SCT035CB BKN050 BKN070 BKN250 30/21 A3009 RMK AO2 LTG DSNT N-E SLP177 TSB29 OCNL LTGICCG E TS VC E MOV SE CB DSNT N-E TCU DSNT NW T03000211 10306 20228 58022 $=
202107101735 SPECI KATL 101735Z 25008KT 10SM VCTS SCT033CB SCT047 BKN065 BKN250 31/22 A3009 RMK AO2 LTG DSNT NE AND E TSB29 OCNL LTGICCG NE TS VC NE MOV SE CB DSNT N-E TCU DSNT NW T03060217 $=
202107101652 METAR KATL 101652Z 28007G17KT 10SM SCT028 SCT037 BKN070 BKN250 30/22 A3011 RMK AO2 LTG DSNT N SLP185 MDT CU NE-SE CB DSNT N T03000222=
202107101617 SPECI KATL 101617Z 26008KT 230V300 10SM SCT027 BKN036 BKN070 BKN250 29/22 A3013 RMK AO2 MDT CU NE AND NW T02940217=
202107101552 METAR KATL 101552Z 27007KT 10SM SCT022 BKN029 BKN250 28/22 A3014 RMK AO2 SLP197 T02830222=
202107101537 SPECI KATL 101537Z 30008KT 10SM BKN022 BKN250 29/22 A3015 RMK AO2 T02890222=
202107101452 METAR KATL 101452Z 30007KT 10SM SCT022 SCT042 SCT250 28/22 A3015 RMK AO2 SLP200 T02780222 51013=
202107101352 METAR KATL 101352Z 27008KT 10SM SCT013 SCT041 SCT150 26/21 A3015 RMK AO2 SLP200 T02560211=
202107101252 METAR KATL 101252Z 26007KT 10SM SCT011 SCT040 SCT150 24/21 A3014 RMK AO2 SLP196 T02440211=
202107101152 METAR KATL 101152Z 27007KT 10SM FEW008 SCT020 SCT040 23/21 A3011 RMK AO2 SLP188 70022 T02280206 10233 20217 53007=
202107101150 SPECI KATL 101150Z 26006KT 10SM FEW008 SCT020 SCT040 23/21 A3011 RMK AO2=
202107101052 METAR KATL 101052Z 27005KT 10SM FEW022 SCT060 SCT200 22/20 A3010 RMK AO2 SLP185 T02170200=
202107100952 METAR KATL 100952Z 29006KT 10SM FEW007 FEW060 SCT200 SCT250 22/20 A3010 RMK AO2 SLP182 T02220200=
202107100948 SPECI KATL 100948Z 29007KT 10SM FEW007 FEW060 SCT200 SCT250 22/20 A3010 RMK AO2=
202107100852 METAR KATL 100852Z 28006KT 10SM FEW060 SCT200 BKN250 22/20 A3009 RMK AO2 SLP181 T02220200 55000=
202107100752 METAR KATL 100752Z 27007KT 10SM FEW055 SCT200 BKN250 22/21 A3008 RMK AO2 SLP176 T02220206=
202107100652 METAR KATL 100652Z 28006KT 10SM FEW055 SCT200 SCT250 23/21 A3007 RMK AO2 SLP173 T02280206=
202107100552 METAR KATL 100552Z 30005KT 10SM FEW055 FEW200 SCT250 23/21 A3009 RMK AO2 SLP179 T02330211 10261 20233 58017=
202107100452 METAR KATL 100452Z 25004KT 10SM SCT055 SCT200 BKN250 23/21 A3012 RMK AO2 SLP190 T02330206 403170222=
202107100352 METAR KATL 100352Z 26004KT 10SM FEW040 SCT060 BKN200 BKN250 24/19 A3014 RMK AO2 SLP196 LTG DSNT SE T02390194=
202107100252 METAR KATL 100252Z 27007KT 10SM FEW025 SCT065 BKN090 BKN200 24/20 A3014 RMK AO2 TSB02E23 SLP197 OCNL LTG DSNT SE T02440200 52016=
202107100223 SPECI KATL 100223Z 24005KT 10SM FEW025 SCT070 BKN200 BKN250 25/21 A3014 RMK AO2 TSB02E23 OCNL LTG DSNT SE TS MOVD SE T02500206=
202107100202 SPECI KATL 100202Z 24004KT 10SM TS FEW025CB SCT050 BKN200 BKN250 25/22 A3013 RMK AO2 TSB02 OCNL LTGICCG VC SE-S TS VC SE-S MOV SE T02500217=
202107100152 METAR KATL 100152Z 25007KT 10SM SCT025TCU SCT040 BKN200 BKN250 25/22 A3013 RMK AO2 SLP193 CB DSNT S-SW TCU OHD-W T02500217=
202107100052 METAR KATL 100052Z 00000KT 10SM FEW025TCU SCT060 BKN200 BKN250 26/21 A3010 RMK AO2 LTG DSNT W SLP184 CB DSNT SW-W TCU SE-SW T02560211=
202107092352 METAR KATL 092352Z 29008KT 10SM FEW060 SCT200 BKN250 26/21 A3009 RMK AO2 SLP181 CB DSNT W TCU DSNT S-SW 60022 T02610211 10317 20222 51004=
202107092252 METAR KATL 092252Z 30008KT 10SM FEW140 BKN200 BKN250 25/21 A3008 RMK AO2 SLP178 TCU DSNT S-SW T02500206=
202107092152 METAR KATL 092152Z 33008KT 10SM FEW140 BKN200 BKN250 26/20 A3009 RMK AO2 SLP181 CB DSNT SE-S T02560200=
202107092052 METAR KATL 092052Z 02006KT 10SM FEW012 FEW075 SCT120 BKN200 24/19 A3008 RMK AO2 LTG DSNT NE-S RAE35 TSE24 PRESFR SLP177 TS MOVD SE CB DSNT NE-SE-SW P0015 60022 T02390194 58009 $=
202107092024 SPECI KATL 092024Z 00000KT 6SM -RA FEW035 SCT055 BKN080 OVC130 22/19 A3012 RMK AO2 LTG DSNT E AND SE TSE24 TS MOVD SE CB DSNT NE-SE P0014 T02220194 $=
202107091952 METAR KATL 091952Z 01021G36KT 4SM R09R/3500VP6000F -TSRA BR FEW010 BKN030CB OVC060 23/21 A3014 RMK A02 PK WND 35036KT/1943 WSHFT 1849 LTG DSNT ALQDS RAB32 SLP196 OCNL LTGICCGCA NE-SE-SW-W TS NE-SE-SW-W MOV SE CB DSNT ALQDS P0007 T02280211=
202107091945 SPECI KATL 091945Z 36023G36KT 1/2SM R09R/3500VP6000F +TSRA FG FEW010 BKN028CB OVC060 23/21 A3014 RMK A02 PK WND 350036KT WSHFT 1849 LTG DSNT ALQDS RAB32 PRESRR OCNL LTGICCGCA SE-OHD-NW TS SE-OHD-NW MOV SE CB DSNT ALQDS P0004 T02280211=
202107091936 SPECI KATL 091936Z 35019G28KT 3SM TSRA BKN036CB BKN060 BKN110 BKN200 24/21 A3012 RMK AO2 PK WND 34028/1932 WSHFT 1849 LTG DSNT ALQDS RAB32 VIS NW-NE 1 OCNL LTGICCGCA SE-OHD-NW TS SE-OHD-NW MOV SE CB DSNT ALQDS P0000 T02440211 $=
202107091905 SPECI KATL 091905Z 33009KT 10SM TS SCT036CB BKN044TCU BKN100 BKN200 27/21 A3010 RMK AO2 WSHFT 1849 LTG DSNT NW-E OCNL LTGICCGCA N-E VC NW TS N-E VC NW MOV SE CB DSNT ALQDS TCU E-S-SW SHRA N-E VC NW T02720211 $=
202107091852 METAR KATL 091852Z 33013G20KT 10SM TS SCT036CB BKN048TCU BKN100 BKN200 30/21 A3010 RMK AO2 LTG DSNT NW-E TSB07 SLP181 FRQ LTGICCGCA NW-NE TS NW-NE MOV SE CB DSNT ALQDS TCU ALQDS SHELF COUD NE MOV SE SHRA NW-NE T03000211 $=
202107091807 SPECI KATL 091807Z 25011G17KT 10SM TS SCT034CB SCT045TCU BKN080 BKN200 32/22 A3009 RMK AO2 LTG DSNT NW-NE TSB07 FRQ LTGICCGCA NW-N TS NW-N MOV SE CB DSNT N SE NW TCU SW-W T03170217 $=
202107091752 METAR KATL 091752Z 25007G17KT 220V290 10SM SCT034TCU SCT046 BKN070 BKN200 31/22 A3011 RMK AO2 RAE02 TSB21E50 SLP184 TS MOVD SE CB DSNT SE NW TCU N-NE SE NW DSNT S-SW P0000 60000 T03110222 10311 20239 58006 $=
202107091721 SPECI KATL 091721Z 27009G15KT 10SM TS SCT030CB SCT040TCU BKN070 BKN200 31/22 A3011 RMK AO2 LTG DSNT W-NE RAE02 TSB21 FRQ LTGICCGCA SE TS SE MOV SE CB DSNT NE W NW TCU SE-SW P0000 T03110222 $=
202107091652 METAR KATL 091652Z 31010KT 10SM -RA SCT030CB BKN040TCU BKN065 BKN200 29/22 A3012 RMK AO2 RAB48 SLP189 CB SE MOV SE TCU OHD AND ALQDS P0000 T02890222 $=
202107091552 METAR KATL 091552Z 26009G18KT 10SM SCT024TCU BKN036 BKN200 BKN250 29/23 A3013 RMK AO2 SLP192 TCU NE SE SW DSNT S MDT CU ALQDS T02890228 $=
202107091452 METAR KATL 091452Z 26010KT 10SM SCT018 SCT200 BKN250 28/22 A3013 RMK AO2 SLP191 T02780222 50010 $=
202107091449 SPECI KATL 091449Z 26011KT 10SM SCT018 BKN200 BKN250 28/22 A3013 RMK AO2 $=
202107091421 SPECI KATL 091421Z 29009KT 10SM BKN017 BKN200 BKN250 28/23 A3013 RMK AO2 CIG 015V019 T02780228 $=
202107091352 METAR KATL 091352Z 28011KT 10SM SCT014 SCT200 SCT250 27/22 A3013 RMK AO2 SLP191 T02670222=
202107091320 SPECI KATL 091320Z 28009KT 10SM SCT012 SCT200 SCT250 26/22 A3013 RMK AO2 T02560217=
202107091252 METAR KATL 091252Z 26010G17KT 10SM BKN010 24/21 A3012 RMK AO2 SLP189 T02440211=
202107091249 SPECI KATL 091249Z 26009KT 10SM BKN010 24/21 A3012 RMK AO2=
202107091227 SPECI KATL 091227Z 25009KT 10SM BKN009 BKN012 BKN250 24/21 A3012 RMK AO2 T02390211=
202107091152 METAR KATL 091152Z 25008KT 10SM FEW009 SCT250 24/21 A3009 RMK AO2 SLP180 70003 T02390211 10239 20228 51010=
202107091113 SPECI KATL 091113Z 27008KT 10SM FEW007 SCT250 23/21 A3009 RMK AO2 T02330211=
202107091052 METAR KATL 091052Z 28010KT 9SM BKN006 OVC010 23/21 A3009 RMK AO2 SLP177 T02330211=
202107090952 METAR KATL 090952Z 27010KT 7SM OVC005 23/22 A3008 RMK AO2 SLP174 T02330217=
202107090910 SPECI KATL 090910Z 23006KT 8SM BKN006 23/22 A3007 RMK AO2 T02280217=
202107090852 METAR KATL 090852Z 21006KT 10SM FEW008 23/21 A3006 RMK AO2 SLP170 T02280211 51001=
202107090850 SPECI KATL 090850Z 22005KT 9SM FEW008 23/21 A3006 RMK AO2=
202107090752 METAR KATL 090752Z 25005KT 10SM FEW200 23/21 A3006 RMK AO2 SLP170 T02330211=
202107090652 METAR KATL 090652Z 25005KT 10SM FEW200 24/21 A3006 RMK AO2 SLP168 T02390211=
202107090552 METAR KATL 090552Z 23006KT 10SM FEW200 23/21 A3007 RMK AO2 SLP171 T02330211 10289 20233 58001=
202107090452 METAR KATL 090452Z 23005KT 10SM FEW200 24/22 A3007 RMK AO2 SLP172 T02440217 402940217=
202107090352 METAR KATL 090352Z 25003KT 10SM FEW200 SCT250 25/22 A3008 RMK AO2 SLP175 LTG DSNT E T02500217=
202107090252 METAR KATL 090252Z 26005KT 10SM FEW025 SCT200 SCT250 26/22 A3007 RMK AO2 SLP171 LTG DSNT E-SE T02560217 52025=
202107090152 METAR KATL 090152Z 26007KT 10SM FEW025 SCT200 BKN250 27/22 A3006 RMK AO2 SLP168 FRQ LTG DSNT E-SE T02670217=
202107090052 METAR KATL 090052Z 25008G16KT 10SM SCT025TCU SCT060 BKN200 BKN250 28/22 A3001 RMK AO2 LTG DSNT NE AND E SLP151 CB DSNT NE-E TCU NW-NE T02780217=
202107082352 METAR KATL 082352Z 23010KT 10SM SCT025TCU BKN050 BKN200 BKN250 29/21 A2999 RMK AO2 LTG DSNT NE SLP146 CB DSNT NE E TCU OHD-ALQDS 60003 T02890211 10294 20250 55002=
202107082252 METAR KATL 082252Z 19004KT 10SM SCT025CB BKN060 BKN200 BKN250 29/22 A2999 RMK AO2 SLP145 CB NW-N MOV E TCU ALQDS T02890222=
202107082152 METAR KATL 082152Z 23004KT 10SM FEW025TCU SCT060 SCT150 BKN250 29/22 A2999 RMK AO2 SLP144 TCU SE SW DSNT W-NW T02890222=
202107082052 METAR KATL 082052Z 00000KT 10SM FEW032TCU SCT070 BKN140 BKN200 28/21 A3000 RMK AO2 RAE11B27E36 SLP148 CB DSNT NE SE S-SW TCU N SE-SW W DSNT SE SHRA N W P0003 60003 T02830211 58006=
202107081952 METAR KATL 081952Z 33011KT 7SM -RA FEW020 FEW032CB BKN080 BKN140 BKN200 26/22 A3001 RMK AO2 LTG DSNT E RAB31 TSB31E51 SLP154 TS DSIPTD CB W-NW MOV E CB DSNT NE E SE P0000 T02610222=
202107081932 SPECI KATL 081932Z 35010KT 10SM -TSRA FEW032CB SCT065 BKN120 BKN200 27/21 A3002 RMK AO2 LTG DSNT SE RAB31 TSB31 OCNL LTGICCA W-NW TS W-NW MOV E CB DSNT ALQDS P0000 T02720206=
202107081916 SPECI KATL 081916Z 01009KT 10SM VCTS FEW032CB SCT070 BKN120 BKN200 28/21 A3002 RMK AO2 OCNL LTGICCA VC W-NW TS VC W-NW MOV E CB DSNT ALQDS VCSH W-NW T02830206=
202107081852 METAR KATL 081852Z 21008KT 10SM VCTS FEW030CB SCT070 BKN110 BKN200 29/22 A3001 RMK AO2 LTG DSNT E SLP154 OCNL LTGICCGCA VC N-NE TS VC N-NE MOV E CB DSNT E TCU NE-E NW DSNT SE-SW SHRA NW VC N-NE T02940217=
202107081752 METAR KATL 081752Z 28008G15KT 220V300 10SM VCTS SCT032CB BKN070 BKN100 BKN200 29/21 A3002 RMK AO2 LTG DSNT NE SLP154 TSB45 OCNL LTGICCGCA VC N-NE TS VC N-NE MOV E CB DSNT NE SW NW TCU ALQDS VCSH N-NE T02890206 10294 20217 58002=
202107081746 SPECI KATL 081746Z 25010KT 10SM VCTS SCT032CB BKN070 BKN140 BKN200 29/21 A3002 RMK AO2 LTG DSNT NE TSB45 OCNL LTGICCG VC N-NE TS VC N-NE MOV E CB DSNT NE SW TCU ALQDS VCSH N-NE=
202107081652 METAR KATL 081652Z 27006KT 10SM SCT026TCU BKN070 BKN140 BKN200 28/21 A3003 RMK AO2 SLP159 TCU ALQDS SHRA NE NW T02830206=
202107081552 METAR KATL 081552Z 28005KT 10SM FEW024TCU SCT070 BKN130 BKN200 27/21 A3003 RMK AO2 SLP159 TCU NW DSNT SE W MDT CU ALQDS T02720206=
202107081452 METAR KATL 081452Z 29010KT 10SM FEW020TCU FEW070 BKN130 BKN200 27/21 A3002 RMK AO2 SLP157 TCU SW MDT CU SE-SW T02670206 51010=
202107081352 METAR KATL 081352Z 26006KT 10SM FEW012 FEW065 BKN120 BKN200 24/21 A3001 RMK AO2 SLP153 T02440206=
202107081252 METAR KATL 081252Z 30006KT 10SM FEW008 FEW030 SCT065 BKN130 BKN190 BKN250 23/21 A3000 RMK AO2 SLP151 T02280206=
202107081152 METAR KATL 081152Z 31005KT 10SM FEW006 FEW065 BKN110 BKN150 BKN250 22/20 A2999 RMK AO2 SLP146 RAE10 P0000 60000 70015 T02170200 10222 20217 52009 $=
202107081052 METAR KATL 081052Z 31005KT 10SM -RA FEW005 FEW050 SCT075 BKN150 22/20 A2998 RMK AO2 RAB10E19B52 SLP143 P0000 T02170200 $=
202107080952 METAR KATL 080952Z 32004KT 10SM FEW005 SCT048 BKN080 BKN150 22/20 A2997 RMK AO2 SLP140 T02170200 $=
202107080930 SPECI KATL 080930Z 32004KT 10SM SCT005 BKN050 BKN080 BKN150 22/20 A2997 RMK AO2 T02170200 $=
202107080852 METAR KATL 080852Z 34004KT 10SM BKN050 OVC095 22/20 A2996 RMK AO2 SLP136 60000 T02170200 55000 $=
202107080752 METAR KATL 080752Z 32005KT 10SM SCT004 SCT055 BKN070 BKN150 BKN250 22/21 A2996 RMK AO2 RAB0655E15 SLP134 P0000 T02170206=
202107080652 METAR KATL 080652Z 31005KT 10SM FEW008 SCT100 BKN150 BKN250 22/20 A2996 RMK AO2 SLP135 T02170200=
202107080552 METAR KATL 080552Z 03006KT 10SM BKN075 BKN100 BKN150 22/20 A2996 RMK AO2 SLP135 60015 T02220200 10261 20217 57015=
202107080452 METAR KATL 080452Z 02006KT 10SM FEW008 BKN065 OVC200 22/21 A2998 RMK AO2 SLP141 T02220206 403000217=
202107080352 METAR KATL 080352Z 35006KT 10SM FEW008 BKN060 OVC150 22/20 A2999 RMK AO2 RAE43 SLP146 P0001 T02220200=
202107080252 METAR KATL 080252Z 30004KT 7SM -RA FEW006 SCT030 BKN045 OVC150 22/20 A3001 RMK AO2 WSHFT 0151 RAB01 SLP152 P0014 60014 T02170200 51012=
202107080209 SPECI KATL 080209Z 13007G20KT 4SM RA FEW020 BKN035 BKN100 OVC150 23/19 A3001 RMK AO2 WSHFT 0151 RAB01 P0006 T02280189=
202107080152 METAR KATL 080152Z 13011G18KT 10SM SCT020TCU BKN035 BKN150 OVC200 25/19 A3000 RMK AO2 SLP149 CB DSNT NE TCU NE-OHD-S T02500194=
202107080052 METAR KATL 080052Z 33005KT 10SM FEW025 SCT100 BKN140 OVC200 26/21 A2998 RMK AO2 RAE01 SLP143 CB DSNT NE-SE-S P0000 T02560206=
202107072352 METAR KATL 072352Z 30005KT 10SM -RA FEW025 SCT090 BKN110 BKN200 26/21 A2997 RMK AO2 RAB51 SLP140 P0000 60000 T02610206 10300 20250 56007=
202107072252 METAR KATL 072252Z 28003KT 10SM BKN100 26/21 A2998 RMK AO2 SLP141 T02610206=
202107072152 METAR KATL 072152Z 21008KT 10SM FEW025 BKN090 BKN150 OVC250 25/21 A2998 RMK AO2 RAB40E49 SLP144 P0000 T02500206=
202107072052 METAR KATL 072052Z 15005KT 10SM FEW030 BKN090 OVC250 28/21 A2999 RMK AO2 LTG DSNT NW SLP146 CB DSNT NW BINOVC T02780206 56022=
202107071952 METAR KATL 071952Z 13010KT 10SM SCT038TCU BKN100 29/19 A3001 RMK AO2 SLP153 TCU ALQDS T02890194=
202107071852 METAR KATL 071852Z 13008KT 10SM BKN038TCU BKN090 BKN250 29/20 A3004 RMK AO2 SLP161 TCU ALQDS T02890200=
202107071752 METAR KATL 071752Z 12007KT 10SM SCT031 SCT070 BKN110 BKN250 28/21 A3006 RMK AO2 SLP169 MDT CU ALQDS T02830206 10289 20222 58015=
202107071727 SPECI KATL 071727Z 15003KT 10SM BKN031 BKN090 BKN250 28/21 A3007 RMK AO2 T02830211=
202107071652 METAR KATL 071652Z VRB03KT 10SM BKN027 BKN250 27/21 A3008 RMK AO2 SLP177 T02720206=
202107071552 METAR KATL 071552Z 11006KT 10SM FEW024 BKN150 26/20 A3009 RMK AO2 SLP182 T02610200=
202107071452 METAR KATL 071452Z 13004KT 10SM FEW016 BKN150 26/21 A3010 RMK AO2 SLP185 T02560211 51002=
202107071352 METAR KATL 071352Z 09005KT 10SM FEW009 FEW015 BKN060 BKN130 24/21 A3010 RMK AO2 SLP185 T02390211=
202107071252 METAR KATL 071252Z 10005KT 10SM FEW007 SCT100 BKN130 23/21 A3010 RMK AO2 SLP183 T02280206=
202107071152 METAR KATL 071152Z 10005KT 10SM FEW006 FEW035 SCT100 BKN130 22/21 A3010 RMK AO2 SLP182 60002 70013 T02220206 10222 20217 53008=
202107071052 METAR KATL 071052Z 03005KT 10SM FEW004 FEW035 BKN100 OVC130 22/21 A3008 RMK AO2 SLP177 T02220206=
202107070952 METAR KATL 070952Z 08005KT 10SM SCT004 SCT120 OVC150 22/21 A3008 RMK AO2 RAE0857 SLP175 P0001 T02220206=
202107070852 METAR KATL 070852Z 05006KT 10SM -RA FEW005 OVC120 22/21 A3007 RMK AO2 SLP174 P0000 60001 T02220206 56015=
202107070752 METAR KATL 070752Z 32004KT 8SM -RA FEW004 BKN120 OVC200 22/21 A3008 RMK AO2 RAB29 SLP174 P0001 T02220206=
202107070703 SPECI KATL 070703Z 29003KT 10SM SCT004 BKN110 OVC200 22/20 A3009 RMK AO2 T02170200=
202107070652 METAR KATL 070652Z 00000KT 10SM BKN004 BKN055 BKN110 22/20 A3009 RMK AO2 RAE0558B26E39 SLP180 BKN004 V SCT P0000 T02170200=
202107070552 METAR KATL 070552Z 18003KT 10SM -RA SCT004 BKN120 OVC200 22/20 A3012 RMK AO2 RAB48 SLP189 SCT004 V BKN P0000 60011 T02170200 10283 20217 58009=
202107070452 METAR KATL 070452Z 18005KT 10SM FEW005 SCT090 BKN120 OVC200 22/20 A3013 RMK AO2 SLP192 T02170200 403000217=
202107070352 METAR KATL 070352Z 19006KT 9SM FEW005 BKN110 OVC150 22/21 A3015 RMK AO2 RAE52 SLP199 P0002 T02170206=
202107070252 METAR KATL 070252Z 21008KT 8SM -RA FEW007 BKN090 BKN120 OVC150 22/20 A3015 RMK AO2 PK WND 18028/0155 SLP200 P0009 60009 T02170200 51023=
202107070152 METAR KATL 070152Z 16015G28KT 6SM -RA SCT030CB BKN050 BKN070 OVC200 25/20 A3014 RMK AO2 PK WND 18028/0148 RAB44 PRESRR SLP198 VIS LWR E-S CB E-OHD-SW MOV NW P0000 T02500200=
202107070052 METAR KATL 070052Z 13007KT 10SM SCT110 BKN150 BKN250 28/18 A3009 RMK AO2 SLP180 LTG DSNT SE-SW T02780183=
202107062352 METAR KATL 062352Z 13007KT 10SM FEW150 SCT200 BKN250 28/17 A3008 RMK AO2 SLP174 T02830167 10300 20283 56003=
202107062252 METAR KATL 062252Z 13008KT 10SM FEW045 SCT200 BKN250 29/17 A3008 RMK AO2 SLP175 T02890172=
202107062152 METAR KATL 062152Z 13006KT 10SM FEW045 SCT150 SCT200 BKN250 29/18 A3008 RMK AO2 SLP175 T02890178=
202107062052 METAR KATL 062052Z 15007KT 10SM FEW048 FEW140 SCT200 BKN250 29/19 A3009 RMK AO2 SLP177 T02890189 56020=
202107061952 METAR KATL 061952Z 14010G18KT 10SM FEW048 FEW055 SCT200 BKN250 29/17 A3010 RMK AO2 SLP183 T02940172=
202107061852 METAR KATL 061852Z 14008KT 10SM FEW042 SCT050 SCT140 BKN200 BKN250 29/17 A3013 RMK AO2 SLP191 CB DSNT W TCU DSNT S SW T02890167=
202107061752 METAR KATL 061752Z 12008G16KT 10SM FEW038 FEW055 SCT140 BKN200 BKN250 28/18 A3015 RMK AO2 SLP199 TCU DSNT SW-W T02830183 10294 20233 58002=
202107061652 METAR KATL 061652Z 10010KT 10SM FEW036 FEW050 SCT140 BKN200 BKN250 28/18 A3016 RMK AO2 SLP204 TCU DSNT S-W T02830178=
202107061552 METAR KATL 061552Z 14010KT 10SM FEW034 FEW050 SCT140 BKN200 BKN250 28/19 A3016 RMK AO2 SLP202 MDT CU DSNT S-W T02830189=
202107061452 METAR KATL 061452Z 09009KT 10SM FEW026 FEW050 SCT140 BKN200 27/20 A3015 RMK AO2 SLP200 T02720200 50004=
202107061352 METAR KATL 061352Z 12005KT 10SM FEW022 SCT050 SCT140 BKN200 BKN250 26/21 A3015 RMK AO2 SLP200 T02560206=
202107061252 METAR KATL 061252Z 14004KT 10SM SCT120 BKN150 BKN200 BKN250 24/20 A3015 RMK AO2 SLP198 T02440200=
202107061152 METAR KATL 061152Z 09005KT 10SM BKN100 BKN150 BKN200 BKN250 23/19 A3014 RMK AO2 SLP196 T02330194 10233 20222 53008=
202107061052 METAR KATL 061052Z 11003KT 10SM BKN095 23/20 A3013 RMK AO2 SLP190 T02280200=
202107060952 METAR KATL 060952Z 08006KT 10SM OVC090 23/20 A3012 RMK AO2 SLP189 T02330200=
202107060852 METAR KATL 060852Z 15003KT 10SM BKN090 OVC150 23/20 A3012 RMK AO2 SLP187 T02280200 53000=
202107060752 METAR KATL 060752Z 16004KT 10SM FEW150 SCT200 BKN250 23/20 A3011 RMK AO2 SLP185 T02280200=
202107060652 METAR KATL 060652Z 15003KT 10SM FEW150 SCT200 BKN250 23/20 A3011 RMK AO2 SLP186 T02280200=
202107060552 METAR KATL 060552Z 17006KT 10SM FEW150 SCT200 BKN250 23/20 A3012 RMK AO2 SLP187 T02280200 10289 20228 50001=
202107060452 METAR KATL 060452Z 18007KT 10SM FEW090 SCT200 BKN250 24/19 A3012 RMK AO2 SLP188 T02390189 403110206=
202107060352 METAR KATL 060352Z 16005KT 10SM SCT200 BKN250 25/17 A3012 RMK AO2 SLP188 T02500172=
202107060252 METAR KATL 060252Z 13003KT 10SM BKN200 BKN250 26/17 A3011 RMK AO2 SLP186 T02560172 53015=
202107060152 METAR KATL 060152Z 15004KT 10SM SCT200 BKN250 26/17 A3009 RMK AO2 SLP180 T02610172=
202107060052 METAR KATL 060052Z 15005KT 10SM FEW060 SCT200 BKN250 27/16 A3008 RMK AO2 SLP175 T02720161=
202107052352 METAR KATL 052352Z 15008KT 10SM FEW060 SCT200 BKN250 29/16 A3007 RMK AO2 SLP170 T02890156 10311 20289 51001=
202107052252 METAR KATL 052252Z 15007KT 10SM FEW060 BKN200 BKN250 30/15 A3007 RMK AO2 SLP170 T03000150=
202107052152 METAR KATL 052152Z 14008KT 10SM FEW065 BKN200 BKN250 30/15 A3007 RMK AO2 SLP173 T03000150=
202107052052 METAR KATL 052052Z 13008KT 10SM FEW065 SCT080 BKN200 BKN250 30/16 A3006 RMK AO2 SLP170 T03000156 56014=
202107051952 METAR KATL 051952Z 13007KT 10SM FEW065 SCT200 BKN250 31/15 A3007 RMK AO2 SLP171 T03060150=
202107051852 METAR KATL 051852Z 11007KT 10SM FEW065 SCT200 SCT250 30/16 A3009 RMK AO2 SLP178 T03000156=
202107051752 METAR KATL 051752Z 15007KT 10SM FEW060 SCT250 29/15 A3011 RMK AO2 SLP184 T02890150 10300 20228 58001=
202107051652 METAR KATL 051652Z 10006KT 10SM SCT055 28/16 A3011 RMK AO2 SLP186 T02830161=
202107051552 METAR KATL 051552Z 12007KT 10SM FEW050 29/16 A3011 RMK AO2 SLP185 T02890156=
202107051452 METAR KATL 051452Z 17008KT 9SM CLR 28/16 A3011 RMK AO2 SLP185 T02780161 51012=
202107051352 METAR KATL 051352Z 12005KT 8SM FEW060 27/17 A3010 RMK AO2 SLP182 T02670167=
202107051252 METAR KATL 051252Z 15003KT 8SM FEW060 24/17 A3009 RMK AO2 SLP180 T02440167=
202107051152 METAR KATL 051152Z 08003KT 3SM HZ FEW060 23/18 A3007 RMK AO2 SLP173 T02280178 10244 20206 51017=
202107051052 METAR KATL 051052Z 10003KT 2 1/2SM HZ CLR 22/18 A3006 RMK AO2 SLP170 T02170178=
202107050959 SPECI KATL 050959Z 00000KT 2 1/2SM HZ CLR 21/18 A3004 RMK AO2 T02110178=
202107050952 METAR KATL 050952Z 00000KT 3SM HZ FEW055 21/18 A3004 RMK AO2 SLP163 T02110178=
202107050852 METAR KATL 050852Z 00000KT 4SM HZ FEW055 23/18 A3002 RMK AO2 SLP154 T02280183 56003=
202107050829 SPECI KATL 050829Z 00000KT 3SM HZ FEW055 22/18 A3002 RMK AO2 T02220183=
202107050822 SPECI KATL 050822Z 00000KT 2 1/2SM HZ FEW055 22/18 A3002 RMK AO2 T02220183=
202107050752 METAR KATL 050752Z 00000KT 3SM HZ FEW055 22/18 A3002 RMK AO2 SLP155 T02220183=
202107050652 METAR KATL 050652Z 00000KT 4SM HZ FEW050 23/18 A3002 RMK AO2 SLP156 T02330178=
202107050552 METAR KATL 050552Z 28004KT 4SM HZ FEW050 23/18 A3003 RMK AO2 SLP158 T02330183 10278 20233 58002=
202107050452 METAR KATL 050452Z 00000KT 4SM HZ FEW050 24/18 A3004 RMK AO2 SLP163 T02390178 403060183=
202107050352 METAR KATL 050352Z 18004KT 5SM HZ FEW050 FEW070 23/18 A3004 RMK AO2 SLP162 T02330178=
202107050252 METAR KATL 050252Z 30004KT 10SM FEW050 SCT065 26/17 A3004 RMK AO2 SLP160 T02560172 53010=
202107050152 METAR KATL 050152Z 00000KT 10SM SCT055 SCT070 27/17 A3002 RMK AO2 SLP157 T02670167=
202107050052 METAR KATL 050052Z 25003KT 10SM SCT055 SCT070 27/17 A3001 RMK AO2 SLP153 T02720172=
202107042352 METAR KATL 042352Z 21004KT 10SM SCT060 28/17 A3001 RMK AO2 SLP151 T02780167 10306 20278 53005=
202107042252 METAR KATL 042252Z 23003KT 10SM SCT060 28/16 A2999 RMK AO2 SLP147 T02830161=
202107042152 METAR KATL 042152Z 28005KT 10SM SCT060 28/17 A2999 RMK AO2 SLP147 T02780167=
202107042052 METAR KATL 042052Z 00000KT 10SM SCT055 29/16 A2999 RMK AO2 SLP147 T02940156 58006=
202107041952 METAR KATL 041952Z 00000KT 10SM SCT055 29/16 A3000 RMK AO2 SLP149 T02940156=
202107041852 METAR KATL 041852Z 26005KT 10SM SCT050 28/16 A3000 RMK AO2 SLP151 T02830161=
202107041752 METAR KATL 041752Z 16004KT 10SM SCT050 28/16 A3001 RMK AO2 SLP152 T02830161 10283 20217 58007=
202107041652 METAR KATL 041652Z 18005KT 10SM SCT042 SCT055 27/17 A3003 RMK AO2 SLP157 T02720167=
202107041552 METAR KATL 041552Z 12006KT 10SM SCT040 27/17 A3003 RMK AO2 SLP161 T02670167=
202107041452 METAR KATL 041452Z 13005KT 10SM FEW033 FEW070 26/17 A3003 RMK AO2 SLP161 T02610172 50008=
202107041352 METAR KATL 041352Z 07003KT 10SM FEW070 24/17 A3005 RMK AO2 SLP165 T02440172=
202107041252 METAR KATL 041252Z 10004KT 10SM FEW065 23/16 A3004 RMK AO2 SLP162 T02330161=
202107041152 METAR KATL 041152Z 00000KT 10SM CLR 22/16 A3001 RMK AO2 SLP153 T02170161 10217 20183 53012=
202107041052 METAR KATL 041052Z 00000KT 8SM CLR 19/15 A3000 RMK AO2 SLP148 T01890150=
202107040952 METAR KATL 040952Z 01005KT 10SM CLR 20/15 A2998 RMK AO2 SLP143 T02000150=
202107040852 METAR KATL 040852Z 32003KT 10SM CLR 19/15 A2997 RMK AO2 SLP140 T01890150 56005=
202107040752 METAR KATL 040752Z 33003KT 9SM CLR 19/15 A2998 RMK AO2 SLP141 T01940150=
202107040652 METAR KATL 040652Z 33004KT 10SM CLR 21/14 A2998 RMK AO2 SLP142 T02060144=
202107040552 METAR KATL 040552Z 33003KT 10SM FEW250 21/14 A2999 RMK AO2 SLP145 T02110144 10261 20211 58001=
202107040452 METAR KATL 040452Z 32003KT 10SM FEW250 22/14 A3000 RMK AO2 SLP149 T02220139 402890194=
202107040352 METAR KATL 040352Z 32004KT 10SM FEW250 22/14 A2999 RMK AO2 SLP148 T02220139=
202107040252 METAR KATL 040252Z 31004KT 10SM FEW250 23/13 A2999 RMK AO2 SLP147 T02280133 51010=
202107040152 METAR KATL 040152Z 33006KT 10SM SCT250 23/12 A2998 RMK AO2 SLP144 T02330122=
202107040052 METAR KATL 040052Z 33006KT 10SM FEW060 24/13 A2997 RMK AO2 SLP141 T02440128=
202107032352 METAR KATL 032352Z 32009KT 10SM SCT060 SCT250 26/12 A2996 RMK AO2 SLP136 T02610122 10289 20261 53006=
202107032252 METAR KATL 032252Z 30007KT 10SM SCT060 SCT250 27/13 A2995 RMK AO2 SLP131 T02720133=
202107032152 METAR KATL 032152Z 28010KT 10SM SCT060 SCT250 27/14 A2994 RMK AO2 SLP129 T02720139=
202107032052 METAR KATL 032052Z 28009KT 10SM SCT060 SCT250 28/15 A2994 RMK AO2 SLP130 T02830150 56005=
202107031952 METAR KATL 031952Z 31009KT 10SM SCT055 SCT250 29/15 A2994 RMK AO2 SLP129 T02890150=
202107031852 METAR KATL 031852Z 27007KT 10SM SCT050 SCT250 28/16 A2995 RMK AO2 SLP130 T02830156=
202107031752 METAR KATL 031752Z VRB03KT 10SM SCT050 28/14 A2996 RMK AO2 SLP134 T02780144 10278 20206 58004=
202107031652 METAR KATL 031652Z VRB03KT 10SM SCT045 27/16 A2997 RMK AO2 SLP139 T02670156=
202107031552 METAR KATL 031552Z 00000KT 10SM SCT040 SCT060 26/16 A2998 RMK AO2 SLP142 T02560156=
202107031452 METAR KATL 031452Z 06009KT 10SM FEW036 25/16 A2997 RMK AO2 SLP139 T02500156 51009=
202107031352 METAR KATL 031352Z 08008KT 10SM FEW250 24/16 A2996 RMK AO2 SLP137 T02390161=
202107031252 METAR KATL 031252Z 02006KT 10SM FEW018 FEW100 SCT200 22/17 A2996 RMK AO2 SLP136 T02220172=
202107031152 METAR KATL 031152Z 34004KT 10SM FEW100 SCT200 BKN250 21/17 A2994 RMK AO2 SLP130 70077 T02060172 10228 20194 51014=
202107031052 METAR KATL 031052Z 33007KT 10SM FEW100 SCT200 BKN250 19/17 A2993 RMK AO2 SLP126 T01940172=
202107030952 METAR KATL 030952Z 35005KT 10SM CLR 20/17 A2991 RMK AO2 SLP120 T02000172=
202107030852 METAR KATL 030852Z 32006KT 10SM FEW075 21/18 A2990 RMK AO2 SLP116 T02060178 55000=
202107030752 METAR KATL 030752Z 32006KT 10SM FEW075 FEW200 21/18 A2990 RMK AO2 SLP115 T02110178=
202107030652 METAR KATL 030652Z 32006KT 10SM SCT075 SCT200 22/18 A2990 RMK AO2 SLP115 T02170178=
202107030552 METAR KATL 030552Z 32007KT 10SM FEW090 FEW200 23/18 A2990 RMK AO2 SLP116 T02280183 10261 20222 51004=
202107030452 METAR KATL 030452Z 33005KT 10SM FEW090 FEW200 23/20 A2990 RMK AO2 SLP114 T02280200 402720228=
202107030352 METAR KATL 030352Z 30005KT 10SM BKN090 BKN200 23/21 A2989 RMK AO2 SLP113 T02330211=
202107030252 METAR KATL 030252Z 27006KT 10SM FEW100 FEW200 23/22 A2989 RMK AO2 SLP111 T02330217 51012=
202107030152 METAR KATL 030152Z 28003KT 10SM FEW015 FEW110 SCT200 24/22 A2987 RMK AO2 SLP107 T02390217=
202107030052 METAR KATL 030052Z 24008KT 10SM FEW018 FEW110 BKN200 25/22 A2987 RMK AO2 SLP104 TCU DSNT N-NE T02500217=
202107022352 METAR KATL 022352Z 24005KT 10SM FEW018 SCT120 BKN200 BKN250 26/22 A2985 RMK AO2 SLP099 TCU DSNT NE 60057 T02560222 10272 20233 58003=
202107022252 METAR KATL 022252Z 23006KT 10SM FEW018 SCT150 BKN200 27/22 A2986 RMK AO2 SLP100 TCU DSNT NW MDT CU OHD-SE T02670222=
202107022152 METAR KATL 022152Z 23005KT 10SM SCT015 BKN200 26/22 A2987 RMK AO2 SLP104 MDT CU OHD-SE T02610222=
202107022052 METAR KATL 022052Z 24005KT 10SM FEW014 SCT065 SCT120 BKN200 BKN250 27/22 A2986 RMK AO2 SLP102 TCU DSNT N NE NW 60057 T02670222 56015=
202107021952 METAR KATL 021952Z 29006KT 10SM FEW012 FEW028 SCT065 BKN130 BKN200 26/22 A2987 RMK AO2 LTG DSNT SE RAE16 SLP105 CB DSNT E-S-SW P0027 T02560222=
202107021928 SPECI KATL 021928Z 30007KT 10SM FEW026TCU SCT060 BKN120 BKN200 25/22 A2987 RMK AO2 RAE16 CB DSNT E SE SW TCU E SW DSNT NW P0027 T02500222=
202107021900 SPECI KATL 021900Z 27008KT 6SM R09R/4000VP6000FT RA BR BKN018CB BKN028 BKN070 BKN130 23/22 A2989 RMK AO2 CB SE-SW MOV SE P0009 T02330217=
202107021852 METAR KATL 021852Z 28010G17KT 3SM R09R/2000VP6000FT +RA BR BKN016CB BKN026 BKN065 OVC130 24/22 A2989 RMK AO2 RAB10E21B42 SLP113 VIS SE-SW 1 CB SE-OHD-NW MOV SE FROPA P0030 T02390222=
202107021752 METAR KATL 021752Z 28006KT 10SM SCT016TCU BKN026 BKN080 OVC140 26/22 A2991 RMK AO2 SLP118 TCU N-NE E W MDT CU ALQDS 60020 T02560217 10261 20228 58011=
202107021723 SPECI KATL 021723Z 25005KT 10SM SCT013 BKN020 BKN060 OVC130 26/22 A2992 RMK AO2 T02560222=
202107021652 METAR KATL 021652Z 26007KT 10SM FEW008 SCT016 BKN080 OVC140 25/22 A2993 RMK AO2 RAE00 SLP124 P0000 T02500222=
202107021642 SPECI KATL 021642Z 25006KT 10SM FEW008 SCT016 BKN075 OVC130 25/22 A2993 RMK AO2 RAE00 P0000 T02500222=
202107021552 METAR KATL 021552Z 24005KT 7SM -RA SCT008 BKN014 BKN075 OVC130 24/22 A2994 RMK AO2 SLP129 TCU DSNT NW-N P0002 T02390217=
202107021452 METAR KATL 021452Z 24007KT 3SM -RA BR BKN007 BKN045 OVC085 23/22 A2994 RMK AO2 SLP130 CIG 005V009 P0010 60018 T02330217 50002=
202107021425 SPECI KATL 021425Z 24005KT 3SM -RA BR BKN007 BKN012 OVC065 23/22 A2995 RMK AO2 CIG 005V009 P0006 T02330217=
202107021352 METAR KATL 021352Z 26007KT 2 1/2SM -RA BR BKN007 BKN045 OVC075 23/22 A2995 RMK AO2 SLP132 CIG 006V009 P0007 T02280217=
202107021346 SPECI KATL 021346Z 26006KT 2 1/2SM -RA BR BKN007 OVC045 23/22 A2995 RMK AO2 CIG 005V009 P0005=
202107021252 METAR KATL 021252Z 26006KT 6SM -RA BR SCT009 BKN070 OVC110 23/22 A2995 RMK AO2 RAB10 SLP131 P0001 T02330217=
202107021239 SPECI KATL 021239Z 28006KT 5SM -RA BR SCT009 BKN070 OVC110 23/22 A2995 RMK AO2 RAB10 P0001 T02330217=
202107021223 SPECI KATL 021223Z 28006KT 7SM -RA SCT012 BKN045 OVC090 23/21 A2994 RMK AO2 RAB10 P0000 T02330211=
202107021152 METAR KATL 021152Z 26005KT 8SM OVC009 23/21 A2994 RMK AO2 SLP127 CIG 008V012 T02330211 10239 20228 53009=
202107021052 METAR KATL 021052Z 27006KT 10SM SCT007 BKN013 BKN041 23/21 A2993 RMK AO2 SLP123 T02280211=
202107021048 SPECI KATL 021048Z 26006KT 10SM SCT007 BKN013 BKN041 23/21 A2993 RMK AO2=
202107020952 METAR KATL 020952Z 27006KT 10SM FEW006 SCT130 SCT180 BKN220 23/21 A2991 RMK AO2 SLP116 T02280211=
202107020852 METAR KATL 020852Z 25005KT 10SM FEW009 SCT100 BKN130 BKN180 23/21 A2991 RMK AO2 SLP116 T02330211 56016=
202107020752 METAR KATL 020752Z 24008KT 10SM FEW009 SCT050 SCT100 SCT130 BKN180 23/21 A2992 RMK AO2 SLP122 T02330206 $=
202107020712 SPECI KATL 020712Z 23006KT 10SM SCT009 SCT028 SCT050 BKN180 BKN250 23/21 A2993 RMK AO2 T02330211 $=
202107020652 METAR KATL 020652Z 21007KT 10SM FEW028 FEW050 SCT080 BKN200 BKN250 23/21 A2993 RMK AO2 SLP125 T02280211 $=
202107020552 METAR KATL 020552Z 21008KT 10SM FEW028 SCT045 SCT080 BKN200 24/21 A2996 RMK AO2 SLP133 60000 T02390206 10272 20239 58009 $=
202107020452 METAR KATL 020452Z 20004KT 10SM FEW030 SCT055 BKN090 BKN200 24/22 A2997 RMK AO2 RAB14E30 SLP138 P0000 T02440217 403060211 $=
202107020352 METAR KATL 020352Z 20006KT 10SM SCT032TCU BKN065 BKN200 25/21 A2999 RMK AO2 SLP144 TCU OHD-ALQDS T02500211 $=
202107020252 METAR KATL 020252Z 22005KT 10SM FEW035 SCT110 BKN200 BKN250 26/21 A2998 RMK AO2 SLP142 T02560206 51006 $=
202107020152 METAR KATL 020152Z 21005KT 10SM SCT110 BKN200 BKN250 26/21 A2997 RMK AO2 SLP139 T02610206 $=
202107020052 METAR KATL 020052Z 24005KT 10SM SCT110 BKN200 BKN250 27/20 A2998 RMK AO2 SLP142 CB DSNT SE T02670200 $=
202107012352 METAR KATL 012352Z 28007KT 10SM FEW030 FEW070 BKN200 27/19 A2996 RMK AO2 SLP137 CB DSNT SE T02720194 10306 20272 55003 $=
202107012252 METAR KATL 012252Z 22008KT 10SM FEW035 BKN200 29/19 A2996 RMK AO2 SLP134 CB DSNT S TCU DSNT NE-SE NW T02890189 $=
202107012152 METAR KATL 012152Z 22007KT 10SM FEW038 BKN200 29/19 A2997 RMK AO2 SLP137 TCU DSNT NE-SE T02940194 $=
202107012052 METAR KATL 012052Z 22009KT 10SM SCT040TCU SCT065 BKN200 BKN250 29/21 A2997 RMK AO2 SLP140 TCU NE-SE-SW T02940206 56023 $=
202107011952 METAR KATL 011952Z 23006G15KT 10SM SCT044TCU BKN060 BKN200 BKN250 31/21 A2999 RMK AO2 SLP146 TCU ALQDS T03060206=
202107011852 METAR KATL 011852Z 20009KT 10SM SCT045TCU BKN200 BKN250 29/20 A3002 RMK AO2 SLP155 TCU N NE MDT CU ALQDS T02890200=
202107011752 METAR KATL 011752Z 20007G17KT 10SM SCT038 BKN200 BKN250 29/20 A3004 RMK AO2 SLP162 MDT CU SW-NW-N T02940200 10294 20228 58018=
202107011652 METAR KATL 011652Z 21006G15KT 10SM SCT036 SCT200 BKN250 28/19 A3007 RMK AO2 SLP173 MDT CU SW-NW-NE T02830194=
202107011552 METAR KATL 011552Z 22009KT 10SM SCT036 SCT200 BKN250 28/20 A3008 RMK AO2 SLP178 T02780200=
202107011452 METAR KATL 011452Z 23009KT 10SM FEW030 FEW130 SCT200 BKN250 26/19 A3010 RMK AO2 SLP182 T02610194 50000=
202107011352 METAR KATL 011352Z 20009KT 10SM FEW022 SCT130 SCT200 BKN250 25/19 A3010 RMK AO2 SLP183 T02500194=
202107011252 METAR KATL 011252Z VRB06KT 10SM FEW015 SCT140 SCT200 BKN250 24/20 A3011 RMK AO2 SLP184 T02390200=
