##########################################################
# Query made at 04/20/2024 00:15:01 UTC
# Time interval: from 02/01/2021 12:00  to 02/28/2021 12:59  UTC
##########################################################

##########################################################
# KATL, Atlanta, Hartsfield - Jackson Atlanta International Airport (United States)
# WMO index: 72219. WIGOS ID: 0-20000-0-72219
# Latitude 33-38-59N. Longitude 084-25-00W. Altitude 312 m.
##########################################################

202102281252 METAR KATL 281252Z 00000KT 1SM R09R/5000V6000FT BR OVC002 14/13 A3018 RMK AO2 SLP217 T01390128=
202102281211 SPECI KATL 281211Z 15003KT 1SM R09R/P6000FT BR OVC003 14/13 A3016 RMK AO2 SFC VIS 2 1/2 TWRINC T01390128=
202102281152 METAR KATL 281152Z 14005KT 5SM BR OVC004 14/12 A3015 RMK AO2 SLP208 T01390122 10150 20128 55000=
202102281135 SPECI KATL 281135Z 13005KT 5SM BR OVC004 14/12 A3015 RMK AO2 T01390122=
202102281052 METAR KATL 281052Z 12004KT 5SM BR BKN006 OVC055 14/12 A3015 RMK AO2 SLP205 T01390122=
202102281011 SPECI KATL 281011Z 10003KT 6SM BR BKN008 BKN055 BKN070 13/12 A3014 RMK AO2 BKN008 V SCT T01330117=
202102280952 METAR KATL 280952Z 11005KT 7SM FEW007 FEW020 BKN060 BKN200 13/12 A3015 RMK AO2 SLP205 T01330117=
202102280852 METAR KATL 280852Z 10005KT 7SM FEW025 SCT065 BKN200 13/12 A3016 RMK AO2 SLP208 T01280117 58008=
202102280752 METAR KATL 280752Z 11004KT 8SM FEW025 FEW070 14/12 A3017 RMK AO2 SLP214 T01390117=
202102280652 METAR KATL 280652Z 12005KT 10SM BKN070 BKN200 14/12 A3018 RMK AO2 SLP217 T01440122=
202102280552 METAR KATL 280552Z 10008KT 10SM SCT080 BKN200 15/13 A3018 RMK AO2 SLP218 T01500128 10183 20150 50000=
202102280452 METAR KATL 280452Z 10005KT 10SM BKN038 BKN060 BKN250 16/13 A3020 RMK AO2 SLP225 T01560128 402060083=
202102280352 METAR KATL 280352Z 08006KT 10SM FEW080 BKN250 BKN300 15/12 A3019 RMK AO2 SLP224 T01500122=
202102280252 METAR KATL 280252Z 09006KT 10SM FEW080 BKN250 BKN300 16/13 A3018 RMK AO2 SLP219 T01610128 50000=
202102280152 METAR KATL 280152Z 11003KT 10SM FEW080 FEW150 BKN250 BKN300 17/13 A3018 RMK AO2 SLP218 T01720128=
202102280052 METAR KATL 280052Z 11004KT 10SM SCT080 SCT150 BKN250 18/13 A3018 RMK AO2 SLP220 T01780128=
202102272352 METAR KATL 272352Z 08005KT 10SM CLR 18/13 A3018 RMK AO2 SLP218 T01780133 10206 20144 53003=
202102272252 METAR KATL 272252Z 00000KT 10SM FEW025 SCT150 BKN250 20/13 A3016 RMK AO2 SLP213 T02000133=
202102272152 METAR KATL 272152Z 00000KT 10SM SCT150 BKN250 20/14 A3017 RMK AO2 SLP213 T02000139=
202102272052 METAR KATL 272052Z VRB03KT 10SM FEW016 BKN200 19/14 A3017 RMK AO2 SLP214 T01890139 56015=
202102272021 SPECI KATL 272021Z VRB03KT 10SM SCT015 BKN250 18/14 A3017 RMK AO2 T01830139=
202102271952 METAR KATL 271952Z 18003KT 10SM BKN012 BKN250 17/13 A3018 RMK AO2 SLP219 T01720133=
202102271906 SPECI KATL 271906Z 18006KT 10SM OVC010 17/13 A3018 RMK AO2 T01670128=
202102271852 METAR KATL 271852Z 17006KT 8SM OVC009 16/12 A3018 RMK AO2 SLP220 T01610122=
202102271752 METAR KATL 271752Z 14004KT 7SM OVC007 14/11 A3021 RMK AO2 SLP231 T01440111 10144 20083 58003=
202102271726 SPECI KATL 271726Z 13003KT 4SM BR OVC005 13/11 A3022 RMK AO2 T01280111=
202102271652 METAR KATL 271652Z 14007KT 1/2SM R09R/P6000FT BR OVC004 12/11 A3022 RMK AO2 SFC VIS 2 1/2 SLP235 TWRINC T01170106=
202102271606 SPECI KATL 271606Z 13006KT 1/2SM R09R/2000V5000FT BR VV003 11/10 A3022 RMK AO2 SFC VIS 1 T01060100=
202102271552 METAR KATL 271552Z 14005KT 1/2SM R09R/1600V2200FT BR VV002 10/09 A3022 RMK AO2 SFC VIS 3/4 SLP237 T01000094=
202102271541 SPECI KATL 271541Z 13004KT 1/2SM R09R/1400V2800FT FG VV002 10/09 A3023 RMK AO2 T01000094=
202102271532 SPECI KATL 271532Z 13005KT 1/2SM R09R/1200V1800FT FG VV002 10/09 A3023 RMK AO2 T01000094=
202102271521 SPECI KATL 271521Z 13005KT 1/2SM R09R/1200V2800FT FG VV002 09/09 A3023 RMK AO2 T00940089=
202102271452 METAR KATL 271452Z 12005KT 1/2SM R09R/1000V1400FT FG VV002 09/09 A3022 RMK AO2 SLP236 T00940089 51016=
202102271352 METAR KATL 271352Z 11007KT 1/4SM R09R/1000V1600FT FG VV002 09/08 A3021 RMK AO2 TWR VIS 1/2 SLP232 T00890083=
202102271252 METAR KATL 271252Z 09006KT 1/4SM R09R/1400V1600FT FG VV002 08/08 A3020 RMK AO2 TWR VIS 1/2 SLP227 T00830078=
202102271235 SPECI KATL 271235Z 10006KT 1/4SM R09R/1400V1800FT FG VV002 08/08 A3019 RMK AO2 TWR VIS 3/4 T00830078=
202102271221 SPECI KATL 271221Z 06006KT 1/2SM R09R/2000V3500FT FG VV002 08/08 A3019 RMK AO2 TWR VIS 3/4 T00830078=
202102271152 METAR KATL 271152Z 11005KT 3/4SM R09R/2800V4500FT BR VV002 08/08 A3017 RMK AO2 SLP219 70013 T00830078 10100 20083 51010=
202102271142 SPECI KATL 271142Z 08007KT 3/4SM R09R/2600V4000FT BR VV002 08/07 A3018 RMK AO2 TWR VIS 1 T00830072=
202102271052 METAR KATL 271052Z 08007KT 1SM R09R/P6000FT BR OVC003 09/08 A3017 RMK AO2 SFC VIS 2 1/2 SLP216 TWRINC T00890078=
202102271008 SPECI KATL 271008Z 09006KT 4SM BR OVC004 09/08 A3016 RMK AO2 T00940078=
202102270952 METAR KATL 270952Z 08006KT 5SM BR OVC005 09/08 A3015 RMK AO2 SLP212 T00940083=
202102270852 METAR KATL 270852Z 11006KT 6SM BR OVC005 10/08 A3014 RMK AO2 SLP208 T01000083 58001=
202102270752 METAR KATL 270752Z 10008KT 6SM BR OVC006 10/08 A3015 RMK AO2 SLP211 T01000083=
202102270652 METAR KATL 270652Z 10007KT 6SM BR BKN006 OVC012 10/08 A3015 RMK AO2 SLP210 CIG 005V009 T01000083=
202102270552 METAR KATL 270552Z 12006KT 6SM BR OVC005 10/08 A3014 RMK AO2 SLP208 T01000083 10106 20100 50004=
202102270452 METAR KATL 270452Z 09011KT 6SM BR OVC005 10/08 A3017 RMK AO2 SLP216 T01000083 401610100=
202102270359 SPECI KATL 270359Z 09010KT 5SM BR OVC005 10/09 A3016 RMK AO2 CIG 004V006 T01000089=
202102270352 METAR KATL 270352Z 09010KT 2SM BR OVC004 10/09 A3016 RMK AO2 SFC VIS 4 SLP214 T01000089=
202102270312 SPECI KATL 270312Z 10007KT 2SM BR OVC004 10/09 A3015 RMK AO2 SFC VIS 4 T01000089=
202102270252 METAR KATL 270252Z 09010KT 4SM BR OVC004 10/08 A3013 RMK AO2 SLP205 T01000083 51007=
202102270152 METAR KATL 270152Z 10011KT 7SM OVC005 10/08 A3013 RMK AO2 SLP204 T01000083=
202102270052 METAR KATL 270052Z 10009KT 7SM OVC006 11/09 A3013 RMK AO2 SLP204 T01060089=
202102262352 METAR KATL 262352Z 09010KT 10SM BKN007 OVC035 11/09 A3011 RMK AO2 SLP198 BINOVC 60000 T01060089 10128 20106 55001=
202102262252 METAR KATL 262252Z 08010KT 8SM BKN008 OVC020 12/09 A3011 RMK AO2 SLP196 T01170094=
202102262152 METAR KATL 262152Z 08008KT 030V100 8SM BKN008 OVC020 13/10 A3011 RMK AO2 SLP195 T01280100=
202102262052 METAR KATL 262052Z 09010KT 6SM BR BKN008 OVC016 12/10 A3011 RMK AO2 RAE31DZB31E47 SLP197 CIG 007V010 P0000 60000 T01220100 56019=
202102261952 METAR KATL 261952Z 09009KT 6SM -RA BR OVC007 11/09 A3013 RMK AO2 DZE1857RAB50 SLP201 CIG 006V009 P0000 T01110094=
202102261852 METAR KATL 261852Z 10010KT 6SM -DZ BR BKN007 OVC022 11/09 A3015 RMK AO2 DZB14 SLP209 CIG 005V008 P0000 T01110094=
202102261752 METAR KATL 261752Z 08015KT 6SM BR BKN007 BKN026 OVC065 11/09 A3017 RMK AO2 RAE15DZB15E51 SLP216 CIG 005V009 P0000 60013 T01110094 10117 20106 58001=
202102261720 SPECI KATL 261720Z 06007KT 4SM -DZ BR BKN007 OVC012 11/09 A3019 RMK AO2 RAE15DZB15 CIG 005V009 P0000 T01110094=
202102261652 METAR KATL 261652Z 06008KT 1 1/2SM -RA BR BKN007 OVC036 11/09 A3021 RMK AO2 SFC VIS 3 RAB14 SLP230 CIG 006V009 P0013 T01060094=
202102261618 SPECI KATL 261618Z 03011KT 1 1/2SM R09R/4500VP6000FT +RA BR BKN011 OVC042 11/09 A3023 RMK AO2 SFC VIS 2 RAB14 CIG 009V013 P0001 T01110089=
202102261609 SPECI KATL 261609Z 02012KT 7SM BKN011 BKN042 OVC070 11/09 A3022 RMK AO2 PRESRR SHRA SW-NW-N T01110089=
202102261552 METAR KATL 261552Z 09014KT 8SM SCT009 BKN038 OVC070 11/09 A3019 RMK AO2 RAB05E20 SLP221 SHRA W-N P0000 T01110089=
202102261452 METAR KATL 261452Z 10009KT 7SM BKN009 OVC048 11/09 A3018 RMK AO2 RAE24 SLP217 P0000 60000 T01110089 53005=
202102261417 SPECI KATL 261417Z 08011KT 8SM -RA BKN009 OVC042 11/09 A3018 RMK AO2 P0000 T01110089=
202102261352 METAR KATL 261352Z 09008KT 10SM -RA FEW005 FEW030 OVC042 12/09 A3017 RMK AO2 SLP216 RAB45 P0000 T01170089=
202102261252 METAR KATL 261252Z 09007KT 10SM FEW005 BKN043 BKN075 OVC250 11/09 A3014 RMK AO2 SLP203 T01110089=
202102261152 METAR KATL 261152Z 05006KT 10SM BKN047 OVC065 11/08 A3016 RMK AO2 RAE25 SLP212 BINOVC P0001 60001 70001 T01110083 10156 20111 53024=
202102261052 METAR KATL 261052Z 01013KT 10SM -RA BKN050 BKN055 13/06 A3014 RMK AO2 SLP204 RAB36 P0000 T01280056=
202102260952 METAR KATL 260952Z 00000KT 10SM SCT050 BKN070 BKN090 14/01 A3010 RMK AO2 SLP187 T01440006 $=
202102260852 METAR KATL 260852Z 08004KT 10SM BKN080 BKN095 BKN160 14/01 A3009 RMK AO2 SLP184 T01440006 58012 $=
202102260752 METAR KATL 260752Z 04005KT 10SM BKN090 BKN150 BKN180 15/01 A3011 RMK AO2 SLP190 T01500006 $=
202102260652 METAR KATL 260652Z 05003KT 10SM BKN080 BKN250 16/M01 A3013 RMK AO2 SLP198 T01561011=
202102260552 METAR KATL 260552Z 05004KT 10SM SCT075 BKN250 16/M02 A3013 RMK AO2 SLP197 T01561017 10200 20156 58012=
202102260452 METAR KATL 260452Z 04006KT 10SM FEW075 SCT250 16/M01 A3014 RMK AO2 SLP200 T01611006 402390106=
202102260352 METAR KATL 260352Z 03004KT 10SM SCT075 SCT250 17/00 A3016 RMK AO2 SLP208 T01670000=
202102260252 METAR KATL 260252Z 02007G19KT 10SM FEW080 FEW250 18/01 A3016 RMK AO2 SLP210 T01780011 50004=
202102260152 METAR KATL 260152Z 36006KT 10SM FEW080 FEW250 18/02 A3017 RMK AO2 SLP212 T01830022=
202102260052 METAR KATL 260052Z 35007KT 10SM FEW080 FEW250 19/03 A3016 RMK AO2 SLP212 T01940028=
202102252352 METAR KATL 252352Z 33006KT 10SM FEW080 FEW250 20/04 A3015 RMK AO2 SLP207 T02000039 10239 20194 53006=
202102252252 METAR KATL 252252Z 31006KT 10SM FEW250 22/03 A3013 RMK AO2 SLP199 T02170033=
202102252152 METAR KATL 252152Z 29006G15KT 10SM FEW250 23/04 A3013 RMK AO2 SLP197 T02280039=
202102252052 METAR KATL 252052Z 31010G15KT 10SM FEW250 23/04 A3013 RMK AO2 SLP200 T02330039 56016=
202102251952 METAR KATL 251952Z 33009G15KT 10SM CLR 23/04 A3014 RMK AO2 SLP201 T02330039=
202102251852 METAR KATL 251852Z 30009KT 10SM CLR 23/04 A3015 RMK AO2 SLP207 T02280044=
202102251752 METAR KATL 251752Z 30009G17KT 10SM CLR 22/06 A3018 RMK AO2 SLP217 T02170056 10217 20117 58006=
202102251652 METAR KATL 251652Z 31007KT 10SM CLR 20/06 A3020 RMK AO2 SLP225 T02000056=
202102251552 METAR KATL 251552Z 31009KT 10SM CLR 19/05 A3021 RMK AO2 SLP226 T01890050=
202102251452 METAR KATL 251452Z 32008KT 10SM CLR 16/04 A3020 RMK AO2 SLP225 T01610039 53024=
202102251352 METAR KATL 251352Z 30009KT 10SM CLR 14/04 A3017 RMK AO2 SLP216 T01390039=
202102251252 METAR KATL 251252Z 29008KT 10SM CLR 12/04 A3015 RMK AO2 SLP207 T01170044=
202102251152 METAR KATL 251152Z 26006KT 10SM FEW065 FEW080 12/05 A3013 RMK AO2 SLP199 T01170050 10139 20106 53012=
202102251052 METAR KATL 251052Z 23004KT 10SM SCT060 BKN080 12/05 A3011 RMK AO2 SLP193 T01220050 $=
202102250952 METAR KATL 250952Z 24004KT 10SM SCT065 BKN080 12/03 A3009 RMK AO2 SLP187 T01170033=
202102250852 METAR KATL 250852Z 24005KT 10SM BKN060 BKN070 12/01 A3009 RMK AO2 SLP185 T01170006 55003=
202102250752 METAR KATL 250752Z 23006KT 10SM SCT065 12/M01 A3008 RMK AO2 SLP182 T01171006=
202102250652 METAR KATL 250652Z 21004KT 10SM FEW065 11/M01 A3008 RMK AO2 SLP183 T01111006=
202102250552 METAR KATL 250552Z 25004KT 10SM FEW070 13/M01 A3010 RMK AO2 SLP188 T01331011 10189 20122 58001=
202102250452 METAR KATL 250452Z 27005KT 10SM FEW060 13/M01 A3011 RMK AO2 SLP192 T01331006 402280056=
202102250352 METAR KATL 250352Z 24004KT 10SM CLR 14/00 A3012 RMK AO2 SLP195 T01390000=
202102250252 METAR KATL 250252Z 23004KT 10SM CLR 14/M01 A3010 RMK AO2 SLP191 T01441006 53014=
202102250152 METAR KATL 250152Z 23004KT 10SM CLR 16/M01 A3008 RMK AO2 SLP185 T01611011=
202102250052 METAR KATL 250052Z 22005KT 10SM FEW250 17/M01 A3007 RMK AO2 SLP183 T01671011=
202102242352 METAR KATL 242352Z 23005KT 10SM FEW250 19/M02 A3006 RMK AO2 SLP179 T01891017 10228 20189 53004=
202102242252 METAR KATL 242252Z 21007G17KT 10SM CLR 21/M02 A3005 RMK AO2 SLP173 T02111022=
202102242152 METAR KATL 242152Z 24011KT 10SM CLR 22/M02 A3005 RMK AO2 SLP173 T02221017=
202102242052 METAR KATL 242052Z 23011G17KT 10SM CLR 22/M02 A3005 RMK AO2 SLP174 T02221017 56022=
202102241952 METAR KATL 241952Z 25011G18KT 10SM CLR 23/M02 A3006 RMK AO2 SLP179 T02281017=
202102241852 METAR KATL 241852Z 21009G21KT 10SM CLR 21/M02 A3008 RMK AO2 SLP183 T02111017=
202102241752 METAR KATL 241752Z 21014G19KT 10SM CLR 21/M02 A3012 RMK AO2 SLP196 T02111017 10217 20067 58018=
202102241652 METAR KATL 241652Z 22012G20KT 10SM CLR 20/M02 A3015 RMK AO2 SLP207 T02001017=
202102241552 METAR KATL 241552Z 26007KT 10SM CLR 19/00 A3016 RMK AO2 SLP212 T01940000=
202102241452 METAR KATL 241452Z 29006KT 10SM CLR 17/00 A3017 RMK AO2 SLP215 T01720000 50012=
202102241352 METAR KATL 241352Z 24004KT 10SM CLR 13/01 A3017 RMK AO2 SLP217 T01280006=
202102241252 METAR KATL 241252Z 00000KT 10SM CLR 08/01 A3015 RMK AO2 SLP211 T00780006=
202102241152 METAR KATL 241152Z 21003KT 10SM CLR 07/01 A3013 RMK AO2 SLP204 T00670006 10111 20056 51012=
202102241052 METAR KATL 241052Z 00000KT 10SM CLR 07/00 A3013 RMK AO2 SLP200 T00720000=
202102240952 METAR KATL 240952Z 26003KT 10SM CLR 07/01 A3011 RMK AO2 SLP194 T00720006=
202102240852 METAR KATL 240852Z 26003KT 10SM FEW015 FEW250 08/00 A3010 RMK AO2 SLP189 FU FEW015 T00830000 53002=
202102240752 METAR KATL 240752Z 25004KT 10SM FEW015 FEW250 08/01 A3009 RMK AO2 SLP187 FU FEW015 T00830006=
202102240652 METAR KATL 240652Z 23003KT 10SM FEW250 08/01 A3008 RMK AO2 SLP184 T00780006=
202102240552 METAR KATL 240552Z 00000KT 10SM FEW250 10/00 A3009 RMK AO2 SLP187 T01000000 10172 20100 50001=
202102240452 METAR KATL 240452Z 22003KT 10SM FEW250 11/00 A3010 RMK AO2 SLP191 T01060000 402170044=
202102240352 METAR KATL 240352Z 25004KT 10SM FEW250 12/00 A3010 RMK AO2 SLP190 T01170000=
202102240252 METAR KATL 240252Z 23004KT 10SM CLR 12/M01 A3009 RMK AO2 SLP188 T01221006 51009=
202102240152 METAR KATL 240152Z 18003KT 10SM CLR 14/M01 A3008 RMK AO2 SLP188 T01391006=
202102240052 METAR KATL 240052Z 00000KT 10SM CLR 15/M01 A3007 RMK AO2 SLP185 T01501011=
202102232352 METAR KATL 232352Z 26005KT 10SM CLR 17/M02 A3006 RMK AO2 SLP180 T01721017 10217 20167 53011=
202102232252 METAR KATL 232252Z 27008KT 10SM CLR 19/M02 A3004 RMK AO2 SLP172 T01941017=
202102232152 METAR KATL 232152Z 29012G17KT 10SM CLR 21/M02 A3003 RMK AO2 SLP169 T02061017=
202102232052 METAR KATL 232052Z 27010KT 10SM CLR 21/M02 A3003 RMK AO2 SLP167 T02111017 56015=
202102231952 METAR KATL 231952Z 31013G20KT 10SM CLR 21/M02 A3003 RMK AO2 SLP169 T02061022=
202102231852 METAR KATL 231852Z 32011G18KT 10SM CLR 21/M02 A3004 RMK AO2 SLP172 T02061017=
202102231752 METAR KATL 231752Z 26008KT 10SM CLR 19/M01 A3007 RMK AO2 SLP182 T01941011 10200 20044 58015=
202102231652 METAR KATL 231652Z 26009G19KT 10SM CLR 17/M01 A3010 RMK AO2 SLP192 T01721011=
202102231552 METAR KATL 231552Z 28012KT 10SM CLR 14/M01 A3012 RMK AO2 SLP199 T01441011=
202102231452 METAR KATL 231452Z 27010G17KT 10SM CLR 12/M02 A3012 RMK AO2 SLP199 T01171022 51011=
202102231352 METAR KATL 231352Z 24006KT 10SM CLR 08/M03 A3012 RMK AO2 SLP201 T00781028=
202102231252 METAR KATL 231252Z 25005KT 10SM CLR 06/M03 A3010 RMK AO2 SLP195 T00561033=
202102231152 METAR KATL 231152Z 27006KT 10SM CLR 04/M03 A3008 RMK AO2 SLP189 70001 T00441033 10072 20044 53009=
202102231052 METAR KATL 231052Z 26005KT 10SM CLR 05/M03 A3007 RMK AO2 SLP182 T00501033=
202102230952 METAR KATL 230952Z 29007KT 10SM CLR 05/M03 A3006 RMK AO2 SLP179 T00501033=
202102230852 METAR KATL 230852Z 29008KT 10SM CLR 06/M03 A3005 RMK AO2 SLP177 T00561033 58002=
202102230752 METAR KATL 230752Z 28009KT 10SM CLR 06/M03 A3006 RMK AO2 SLP178 T00561033=
202102230652 METAR KATL 230652Z 28008KT 10SM CLR 06/M03 A3006 RMK AO2 SLP181 T00611028=
202102230552 METAR KATL 230552Z 30008KT 10SM CLR 07/M03 A3006 RMK AO2 SLP181 T00721028 10139 20067 55003=
202102230452 METAR KATL 230452Z 29008KT 10SM CLR 08/M03 A3005 RMK AO2 SLP178 T00781028 401830078=
202102230352 METAR KATL 230352Z 31009KT 10SM CLR 09/M02 A3007 RMK AO2 SLP182 T00891022=
202102230252 METAR KATL 230252Z 31010KT 10SM CLR 09/M01 A3007 RMK AO2 SLP184 T00941011 53012=
202102230152 METAR KATL 230152Z 31007KT 10SM CLR 10/00 A3006 RMK AO2 SLP179 T01000000=
202102230052 METAR KATL 230052Z 33006KT 10SM CLR 12/00 A3005 RMK AO2 SLP175 T01170000=
202102222352 METAR KATL 222352Z 30012KT 10SM CLR 13/M01 A3003 RMK AO2 SLP171 60000 T01331006 10183 20122 53003=
202102222252 METAR KATL 222252Z 28014G20KT 10SM FEW055 16/01 A3002 RMK AO2 SLP166 T01610006=
202102222152 METAR KATL 222152Z 29009KT 10SM FEW055 18/03 A3002 RMK AO2 PK WND 30028/2119 SLP164 T01780033=
202102222052 METAR KATL 222052Z 29010G21KT 10SM FEW048 18/05 A3002 RMK AO2 SLP165 60000 T01830050 55017=
202102221952 METAR KATL 221952Z 28015G20KT 10SM FEW034 SCT050 17/08 A3002 RMK AO2 SLP164 MDT CU DSNT NE-SE T01720078=
202102221907 SPECI KATL 221907Z 29010G17KT 10SM SCT018 BKN032 BKN040 BKN200 16/11 A3003 RMK AO2 T01560106=
202102221852 METAR KATL 221852Z 27007KT 10SM BKN018 BKN026 OVC041 14/10 A3004 RMK AO2 RAE05 SLP172 BINOVC P0000 T01440100=
202102221752 METAR KATL 221752Z 34007G15KT 10SM -RA SCT011 BKN015 OVC050 12/11 A3007 RMK AO2 DZE51RAB51 SLP184 CIG 013V017 PCPN VRY LGT BINOVC P0000 60001 T01220106 10139 20089 58004=
202102221652 METAR KATL 221652Z 26009G16KT 8SM -DZ OVC012 13/11 A3009 RMK AO2 RAB1556E05DZB50 SLP188 CIG 010V014 P0000 T01330106=
202102221552 METAR KATL 221552Z 22010KT 10SM OVC011 12/10 A3008 RMK AO2 RAE10B29E39 SLP186 P0000 T01170100=
202102221452 METAR KATL 221452Z 20011G19KT 9SM -RA BKN008 BKN014 OVC060 11/09 A3009 RMK AO2 RAE1353B51 SLP188 CIG 007V010 PCPN VRY LGT P0000 60001 T01060094 58012=
202102221352 METAR KATL 221352Z 19009KT 7SM -RA BKN008 BKN013 OVC035 10/08 A3011 RMK AO2 RAB11E23B44 SLP195 CIG 006V010 P0000 T01000083=
202102221252 METAR KATL 221252Z 18009G17KT 6SM BR BKN006 OVC085 09/08 A3011 RMK AO2 RAE10B28E35 SLP195 P0001 T00890078=
202102221228 SPECI KATL 221228Z 17008KT 6SM -RA BR BKN006 BKN010 OVC085 09/08 A3011 RMK AO2 RAE10B28 P0001 T00890078=
202102221152 METAR KATL 221152Z 17007KT 7SM -RA FEW007 SCT012 OVC055 09/07 A3012 RMK AO2 RAB41 SLP201 P0000 60003 70003 T00890072 10117 20089 56020=
202102221149 SPECI KATL 221149Z 17008KT 7SM -RA FEW007 SCT012 OVC055 09/07 A3013 RMK AO2 RAB41 P0000=
202102221122 SPECI KATL 221122Z 17006KT 7SM SCT007 SCT010 OVC014 09/07 A3014 RMK AO2 T00890072=
202102221112 SPECI KATL 221112Z 17006KT 7SM BKN009 BKN080 09/07 A3014 RMK AO2 BKN007 V SCT T00890072=
202102221104 SPECI KATL 221104Z 18006KT 10SM SCT008 BKN013 BKN080 09/07 A3014 RMK AO2 T00890072=
202102221052 METAR KATL 221052Z 16007KT 7SM FEW005 SCT010 OVC080 09/07 A3014 RMK AO2 RAB11E35 SLP205 P0000 T00890072=
202102221011 SPECI KATL 221011Z 16006KT 7SM -RA FEW009 BKN013 OVC050 09/07 A3016 RMK AO2 RAB11 P0000 T00890072=
202102220952 METAR KATL 220952Z 15007KT 8SM SCT013 BKN050 OVC090 09/07 A3016 RMK AO2 RAE26 SLP214 P0001 T00890072=
202102220903 SPECI KATL 220903Z 15008KT 8SM -RA SCT014 BKN048 OVC070 09/07 A3018 RMK AO2 P0001 T00890072=
202102220852 METAR KATL 220852Z 14010KT 8SM -RA BKN014 BKN022 OVC065 09/07 A3018 RMK AO2 PRESFR SLP221 CIG 011V016 P0002 60002 T00940072 58019=
202102220848 SPECI KATL 220848Z 15008KT 8SM -RA BKN014 OVC020 09/07 A3020 RMK AO2 CIG 011V016 P0002=
202102220819 SPECI KATL 220819Z VRB05KT 4SM -RA BR BKN015 BKN024 OVC038 09/07 A3020 RMK AO2 P0002 T00940072=
202102220752 METAR KATL 220752Z 16006KT 10SM -RA OVC017 10/07 A3022 RMK AO2 RAB52 SLP233 P0000 T01000067=
202102220652 METAR KATL 220652Z 17009G19KT 10SM OVC020 11/07 A3024 RMK AO2 RAB18E27 SLP240 P0000 T01110067=
202102220630 SPECI KATL 220630Z 15012G18KT 10SM BKN021 BKN045 OVC070 11/07 A3024 RMK AO2 RAB18E27 P0000 T01110067=
202102220552 METAR KATL 220552Z 15012G20KT 10SM SCT024 BKN060 OVC070 12/06 A3024 RMK AO2 SLP241 BINOVC T01170061 10139 20111 58009=
202102220452 METAR KATL 220452Z 16012G17KT 10SM SCT041 BKN050 BKN060 12/06 A3026 RMK AO2 SLP248 T01170056 401610006=
202102220352 METAR KATL 220352Z 15006KT 10SM SCT041 BKN048 BKN060 12/04 A3028 RMK AO2 SLP254 T01220039 $=
202102220252 METAR KATL 220252Z 14003KT 10SM SCT041 BKN049 BKN065 12/03 A3027 RMK AO2 SLP252 T01220028 58005=
202102220152 METAR KATL 220152Z 14007KT 10SM BKN060 13/02 A3027 RMK AO2 SLP254 T01280022=
202102220052 METAR KATL 220052Z 15005KT 10SM BKN060 13/02 A3029 RMK AO2 SLP260 T01330022=
202102212352 METAR KATL 212352Z 15010G15KT 10SM BKN060 BKN250 14/01 A3029 RMK AO2 SLP260 T01390006 10161 20133 58005=
202102212252 METAR KATL 212252Z 15008KT 10SM FEW060 SCT250 14/M04 A3029 RMK AO2 SLP261 T01441044=
202102212152 METAR KATL 212152Z 19013G20KT 10SM SCT120 SCT250 16/M06 A3030 RMK AO2 SLP265 T01561061=
202102212052 METAR KATL 212052Z 13009G21KT 10SM SCT250 15/M06 A3030 RMK AO2 SLP265 T01501056 56034=
202102211952 METAR KATL 211952Z 12011G18KT 10SM CLR 15/M05 A3032 RMK AO2 SLP271 T01501050=
202102211852 METAR KATL 211852Z 15013G19KT 10SM CLR 14/M05 A3036 RMK AO2 PK WND 13026/1835 SLP284 T01441050=
202102211752 METAR KATL 211752Z 16008KT 10SM CLR 13/M04 A3041 RMK AO2 SLP299 T01331044 10133 20011 58015=
202102211652 METAR KATL 211652Z 12011G16KT 10SM CLR 11/M06 A3043 RMK AO2 SLP310 T01111056=
202102211552 METAR KATL 211552Z 13008KT 10SM FEW200 09/M05 A3044 RMK AO2 SLP315 T00941050=
202102211452 METAR KATL 211452Z 09006KT 10SM SCT200 06/M04 A3045 RMK AO2 SLP317 T00611044 50012=
202102211352 METAR KATL 211352Z 08006KT 10SM FEW200 03/M04 A3045 RMK AO2 SLP319 T00331044=
202102211252 METAR KATL 211252Z 09006KT 10SM SCT200 01/M06 A3042 RMK AO2 SLP307 T00111056=
202102211152 METAR KATL 211152Z 08006KT 10SM SCT220 01/M06 A3041 RMK AO2 SLP306 T00111061 10050 20006 53010=
202102211052 METAR KATL 211052Z 07006KT 10SM FEW250 01/M06 A3040 RMK AO2 SLP299 T00111061=
202102210952 METAR KATL 210952Z 09006KT 10SM FEW250 02/M06 A3038 RMK AO2 SLP293 T00171061=
202102210852 METAR KATL 210852Z 05003KT 10SM CLR 03/M07 A3038 RMK AO2 SLP294 T00281067 58001=
202102210752 METAR KATL 210752Z 08003KT 10SM CLR 03/M06 A3039 RMK AO2 SLP295 T00331061=
202102210652 METAR KATL 210652Z 09003KT 10SM CLR 03/M05 A3040 RMK AO2 SLP299 T00281050=
202102210552 METAR KATL 210552Z 06003KT 10SM CLR 05/M07 A3039 RMK AO2 SLP294 T00501072 10089 20033 58005=
202102210452 METAR KATL 210452Z 00000KT 10SM CLR 03/M05 A3040 RMK AO2 SLP299 T00331050 401221022=
202102210352 METAR KATL 210352Z 00000KT 10SM CLR 04/M06 A3041 RMK AO2 SLP303 T00391056=
202102210252 METAR KATL 210252Z 00000KT 10SM CLR 06/M07 A3040 RMK AO2 SLP302 T00611072 51015=
202102210152 METAR KATL 210152Z VRB05KT 10SM CLR 07/M08 A3039 RMK AO2 SLP298 T00721078=
202102210052 METAR KATL 210052Z 34005KT 10SM CLR 08/M08 A3038 RMK AO2 SLP293 T00781078=
202102202352 METAR KATL 202352Z 34004KT 10SM CLR 09/M08 A3036 RMK AO2 SLP287 T00891083 10122 20089 53012=
202102202252 METAR KATL 202252Z 33007KT 10SM CLR 11/M09 A3034 RMK AO2 SLP279 T01061089=
202102202152 METAR KATL 202152Z 34008KT 10SM CLR 12/M09 A3033 RMK AO2 SLP274 T01171089=
202102202052 METAR KATL 202052Z 29012KT 10SM CLR 12/M09 A3032 RMK AO2 SLP273 T01171089 56014=
202102201952 METAR KATL 201952Z 34008KT 10SM CLR 12/M09 A3033 RMK AO2 SLP277 T01171094=
202102201852 METAR KATL 201852Z 33004KT 10SM CLR 11/M09 A3034 RMK AO2 SLP281 T01061089=
202102201752 METAR KATL 201752Z 30007KT 10SM CLR 10/M08 A3036 RMK AO2 SLP288 T01001083 10100 21022 58009=
202102201652 METAR KATL 201652Z 35005KT 10SM CLR 08/M08 A3038 RMK AO2 SLP292 T00781078=
202102201552 METAR KATL 201552Z 34008KT 10SM CLR 06/M08 A3039 RMK AO2 SLP298 T00561078=
202102201452 METAR KATL 201452Z 33004KT 10SM CLR 03/M07 A3039 RMK AO2 SLP299 T00281067 53015=
202102201352 METAR KATL 201352Z 32007KT 10SM CLR 01/M06 A3038 RMK AO2 SLP296 T00061061=
202102201252 METAR KATL 201252Z 32008KT 10SM CLR M02/M06 A3035 RMK AO2 SLP287 T10171061=
202102201152 METAR KATL 201152Z 32008KT 10SM CLR M02/M07 A3035 RMK AO2 SLP284 T10221067 10017 21022 51015=
202102201052 METAR KATL 201052Z 31008KT 10SM CLR M02/M06 A3033 RMK AO2 SLP278 T10171061=
202102200952 METAR KATL 200952Z 31010KT 10SM CLR M01/M06 A3032 RMK AO2 SLP272 T10111061=
202102200852 METAR KATL 200852Z 31009KT 10SM CLR M01/M06 A3030 RMK AO2 SLP267 T10111061 51006=
202102200752 METAR KATL 200752Z 31010KT 10SM CLR 00/M07 A3030 RMK AO2 SLP267 T00001067=
202102200652 METAR KATL 200652Z 31011KT 10SM FEW200 01/M07 A3029 RMK AO2 SLP262 T00111067=
202102200552 METAR KATL 200552Z 32011KT 10SM SCT200 02/M07 A3028 RMK AO2 SLP261 T00171067 10067 20017 50006=
202102200452 METAR KATL 200452Z 33012KT 10SM FEW200 03/M06 A3029 RMK AO2 SLP266 T00281056 400940022=
202102200352 METAR KATL 200352Z 33013KT 10SM CLR 03/M05 A3030 RMK AO2 SLP267 T00331050=
202102200252 METAR KATL 200252Z 33012KT 10SM CLR 04/M04 A3026 RMK AO2 SLP255 T00441039 53021=
202102200152 METAR KATL 200152Z 33010KT 10SM CLR 05/M04 A3023 RMK AO2 SLP245 T00501039=
202102200052 METAR KATL 200052Z 33008KT 10SM CLR 06/M04 A3021 RMK AO2 SLP237 T00561044=
202102192352 METAR KATL 192352Z 33010KT 10SM CLR 07/M06 A3020 RMK AO2 SLP233 T00671061 10094 20061 53014=
202102192252 METAR KATL 192252Z 32010KT 10SM CLR 08/M06 A3018 RMK AO2 SLP226 T00831061=
202102192152 METAR KATL 192152Z 33016KT 10SM CLR 09/M04 A3017 RMK AO2 PK WND 31027/2109 SLP221 T00941044=
202102192052 METAR KATL 192052Z 32017G24KT 10SM CLR 09/M02 A3016 RMK AO2 SLP216 T00941022 55001=
202102191952 METAR KATL 191952Z 31014KT 10SM FEW032 09/00 A3015 RMK AO2 SLP212 T00890000=
202102191852 METAR KATL 191852Z 32016G24KT 10SM FEW028 07/00 A3015 RMK AO2 SLP215 T00720000=
202102191752 METAR KATL 191752Z 31014G19KT 10SM FEW019 06/01 A3016 RMK AO2 SLP218 T00610006 10061 20022 50006=
202102191740 SPECI KATL 191740Z 31014G22KT 10SM SCT017 06/01 A3017 RMK AO2 T00610006=
202102191723 SPECI KATL 191723Z 31012KT 10SM BKN017 05/00 A3017 RMK AO2 T00500000=
202102191652 METAR KATL 191652Z 30012G20KT 10SM BKN014 04/00 A3017 RMK AO2 SLP221 T00440000=
202102191552 METAR KATL 191552Z 33013KT 10SM BKN012 03/00 A3016 RMK AO2 SLP219 T00330000=
202102191452 METAR KATL 191452Z 31017KT 10SM OVC010 03/00 A3014 RMK AO2 SLP213 BINOVC T00280000 53011=
202102191420 SPECI KATL 191420Z 33012G20KT 10SM OVC010 03/00 A3013 RMK AO2 T00280000=
202102191352 METAR KATL 191352Z 32013KT 10SM OVC009 02/00 A3013 RMK AO2 SLP208 T00220000=
202102191252 METAR KATL 191252Z 32008KT 8SM OVC008 02/01 A3012 RMK AO2 SLP206 T00220006=
202102191152 METAR KATL 191152Z 33014KT 8SM OVC008 03/01 A3011 RMK AO2 SLP202 CIG 007V009 70009 T00280006 10061 20028 53013=
202102191052 METAR KATL 191052Z 32011KT 8SM OVC007 03/02 A3009 RMK AO2 SLP195 T00330017=
202102190952 METAR KATL 190952Z 35014G17KT 8SM OVC006 04/03 A3007 RMK AO2 SLP189 T00390028=
202102190852 METAR KATL 190852Z 32011G17KT 3SM OVC005 05/04 A3007 RMK AO2 SFC VIS 10 SLP187 T00500039 58001=
202102190752 METAR KATL 190752Z 32011KT 3SM OVC006 06/04 A3007 RMK AO2 SFC VIS 7 SLP188 T00560039=
202102190659 SPECI KATL 190659Z 33008KT 2SM BR OVC005 06/04 A3007 RMK AO2 SFC VIS 5 T00560039=
202102190652 METAR KATL 190652Z 32008KT 2SM BR OVC004 06/04 A3007 RMK AO2 SFC VIS 4 SLP189 T00560039=
202102190552 METAR KATL 190552Z 34008KT 1SM R09R/P6000FT BR OVC003 06/05 A3007 RMK AO2 SFC VIS 3 SLP188 60008 T00610050 10072 20061 58005=
202102190452 METAR KATL 190452Z 35004KT 1SM R09R/P6000FT BR OVC003 07/06 A3009 RMK AO2 SFC VIS 3 RAE51 SLP195 CIG 002V004 P0000 T00670056 400720039=
202102190433 SPECI KATL 190433Z 36005KT 1SM R09R/P6000FT -RA BR OVC003 07/06 A3008 RMK AO2 SFC VIS 1 1/2 CIG 002V004 P0000 T00670056=
202102190352 METAR KATL 190352Z 01004KT 2SM -RA BR BKN004 BKN012 OVC020 07/06 A3009 RMK AO2 RAB38 SLP195 P0000 T00720061=
202102190339 SPECI KATL 190339Z 01007KT 2SM -RA BR BKN004 BKN012 OVC020 07/06 A3009 RMK AO2 RAB38 P0000 T00720056=
202102190252 METAR KATL 190252Z 36005KT 2SM SCT005 BKN016 OVC030 07/06 A3009 RMK AO2 SFC VIS 8 SLP194 60008 T00670056 53013=
202102190152 METAR KATL 190152Z 01008KT 2SM SCT005 BKN009 OVC030 07/05 A3007 RMK AO2 SFC VIS 8 RAE49 SLP189 P0004 T00670050=
202102190052 METAR KATL 190052Z 35006KT 2SM -RA BR OVC006 07/05 A3006 RMK AO2 SFC VIS 3 SLP183 CIG 004V008 P0004 T00670050=
202102182352 METAR KATL 182352Z 01007KT 2SM -RA BR BKN006 OVC040 07/05 A3005 RMK AO2 SFC VIS 6 RAE20B33 SLP180 P0000 60000 T00670050 10067 20056 53003=
202102182323 SPECI KATL 182323Z 02007KT 2SM BKN005 OVC040 07/05 A3005 RMK AO2 SFC VIS 8 RAE20 PRESRR CIG 004V007 P0000 T00670050=
202102182252 METAR KATL 182252Z 04010KT 2SM -RA BR SCT005 BKN011 OVC040 07/05 A3003 RMK AO2 SFC VIS 4 RAB15 SLP173 P0000 T00670050=
202102182237 SPECI KATL 182237Z 04007KT 2SM -RA BR SCT005 BKN010 OVC035 07/05 A3005 RMK AO2 RAB15 P0000 T00670050=
202102182152 METAR KATL 182152Z 04007KT 9SM BKN005 OVC009 07/05 A3005 RMK AO2 SLP180 T00670050=
202102182052 METAR KATL 182052Z 05008KT 8SM OVC006 07/05 A3004 RMK AO2 SLP177 60000 T00670050 55009=
202102181952 METAR KATL 181952Z 05006KT 7SM OVC005 06/05 A3003 RMK AO2 SLP174 T00610050=
202102181852 METAR KATL 181852Z 05006KT 7SM OVC005 06/05 A3006 RMK AO2 DZE15 SLP184 P0000 T00610050=
202102181752 METAR KATL 181752Z 04008KT 3SM -DZ BR OVC005 06/04 A3007 RMK AO2 SLP187 P0000 60001 T00560044 10061 20039 55001=
202102181652 METAR KATL 181652Z 07009KT 3SM -DZ BR OVC005 06/04 A3006 RMK AO2 SLP185 P0000 T00560039=
202102181552 METAR KATL 181552Z 06012KT 4SM -DZ BR OVC005 05/04 A3007 RMK AO2 SLP187 P0000 T00500039=
202102181543 SPECI KATL 181543Z 05010KT 3SM -DZ BR OVC006 05/04 A3007 RMK AO2 P0000 T00500039=
202102181503 SPECI KATL 181503Z 04010KT 2SM R09R/6000VP6000FT -DZ BR OVC007 05/03 A3007 RMK AO2 P0000 T00500033=
202102181452 METAR KATL 181452Z 04007KT 4SM -DZ BR OVC007 05/03 A3007 RMK AO2 DZB50 SLP187 P0000 60001 T00500033 53009=
202102181352 METAR KATL 181352Z 10010G20KT 10SM BKN007 OVC020 04/03 A3002 RMK AO2 SLP170 T00440028=
202102181252 METAR KATL 181252Z 08012KT 10SM BKN007 BKN100 BKN250 04/03 A3002 RMK AO2 SLP171 RAE20 P0001 T00440028=
202102181240 SPECI KATL 181240Z 08011KT 7SM BKN007 OVC100 04/03 A3003 RMK AO2 RAE20 P0001 T00440028=
202102181152 METAR KATL 181152Z 05012KT 2SM -RA BR SCT007 BKN025 OVC045 04/03 A3005 RMK AO2 SFC VIS 5 SLP178 P0002 60059 70066 T00390028 10061 20039 53015=
202102181052 METAR KATL 181052Z 35011KT 2SM -RA BR BKN005 BKN009 OVC022 04/03 A3005 RMK AO2 SFC VIS 5 SLP180 P0030 T00440028=
202102180952 METAR KATL 180952Z 13007G21KT 070V180 2SM -RA BR BKN005 OVC010 04/03 A2993 RMK AO2 SFC VIS 3 PRESFR SLP140 P0006 T00440033=
202102180935 SPECI KATL 180935Z 08011KT 2SM -RA BR BKN005 BKN010 OVC020 04/03 A2997 RMK AO2 SFC VIS 4 P0005 T00440033=
202102180852 METAR KATL 180852Z 05010KT 5SM -RA BR BKN008 OVC013 04/03 A3000 RMK AO2 SLP162 CIG 006V010 P0018 60021 T00440033 55010=
202102180838 SPECI KATL 180838Z 04008KT 4SM RA BR BKN008 OVC014 05/04 A3001 RMK AO2 CIG 005V010 P0017 T00500039=
202102180818 SPECI KATL 180818Z 05008KT 2 1/2SM R09R/6000VP6000FT +RA BR BKN006 OVC012 05/03 A3002 RMK AO2 P0011 T00500033=
202102180752 METAR KATL 180752Z 06010G22KT 3SM -RA BR BKN006 OVC010 05/03 A3000 RMK AO2 SLP162 P0002 T00500033=
202102180652 METAR KATL 180652Z 04012G18KT 6SM -RA BR BKN007 OVC020 06/04 A3003 RMK AO2 SLP172 P0001 T00560039=
202102180649 SPECI KATL 180649Z 04011KT 6SM -RA BR BKN007 OVC021 06/04 A3003 RMK AO2 P0001=
202102180552 METAR KATL 180552Z 05012KT 6SM -RA BR FEW007 OVC020 06/04 A3007 RMK AO2 PRESFR SLP188 P0006 60007 T00610044 10100 20061 50005=
202102180452 METAR KATL 180452Z 04007KT 6SM -RA BKN024 OVC040 08/03 A3008 RMK AO2 SLP191 P0000 T00780033 401171050=
202102180352 METAR KATL 180352Z 10008KT 7SM -RA BKN029 OVC045 08/02 A3009 RMK AO2 RAB19 SLP193 P0001 T00830022=
202102180252 METAR KATL 180252Z 09013G19KT 10SM FEW030 OVC050 09/M01 A3006 RMK AO2 SLP183 T00941006 55002=
202102180152 METAR KATL 180152Z 10010KT 10SM FEW030 OVC055 10/M02 A3004 RMK AO2 SLP179 T01001017=
202102180052 METAR KATL 180052Z 10009G18KT 10SM BKN060 OVC100 10/M03 A3006 RMK AO2 SLP186 T01001028=
202102172352 METAR KATL 172352Z 10009KT 10SM BKN065 BKN110 BKN200 10/M03 A3006 RMK AO2 SLP188 T01001028 10117 20078 50001=
202102172252 METAR KATL 172252Z 11011KT 10SM SCT075 BKN110 BKN200 11/M04 A3007 RMK AO2 SLP191 T01061044=
202102172152 METAR KATL 172152Z 11011G18KT 10SM BKN100 11/M04 A3006 RMK AO2 SLP187 T01111044=
202102172052 METAR KATL 172052Z 11011KT 10SM FEW100 FEW250 11/M05 A3006 RMK AO2 SLP186 T01111050 58036=
202102171952 METAR KATL 171952Z 14006KT 10SM FEW250 11/M06 A3010 RMK AO2 SLP201 T01061056=
202102171852 METAR KATL 171852Z 15007KT 10SM FEW250 10/M04 A3014 RMK AO2 SLP213 T01001039=
202102171752 METAR KATL 171752Z 11007KT 10SM FEW250 08/M04 A3017 RMK AO2 SLP226 T00781044 10078 21050 58020=
202102171652 METAR KATL 171652Z 11007KT 10SM FEW250 06/M04 A3022 RMK AO2 SLP241 T00611044=
202102171552 METAR KATL 171552Z 09005KT 10SM FEW250 03/M04 A3024 RMK AO2 SLP251 T00331044=
202102171452 METAR KATL 171452Z 03006KT 10SM FEW250 01/M06 A3023 RMK AO2 SLP249 T00111056 53018=
202102171352 METAR KATL 171352Z 01007KT 10SM FEW250 M02/M07 A3020 RMK AO2 SLP240 T10171067=
202102171252 METAR KATL 171252Z 34005KT 10SM FEW200 FEW250 M04/M08 A3021 RMK AO2 SLP242 T10441078=
202102171152 METAR KATL 171152Z 01005KT 10SM FEW150 FEW250 M05/M08 A3018 RMK AO2 SLP233 T10501083 11044 21050 51008=
202102171052 METAR KATL 171052Z 33004KT 10SM FEW250 M05/M08 A3018 RMK AO2 SLP232 T10501083=
202102170952 METAR KATL 170952Z 33006KT 10SM SCT250 M05/M09 A3016 RMK AO2 SLP226 T10501089=
202102170852 METAR KATL 170852Z 33006KT 10SM FEW150 BKN250 M04/M09 A3015 RMK AO2 SLP222 T10441089 53004=
202102170752 METAR KATL 170752Z 33003KT 10SM FEW150 SCT250 M05/M09 A3014 RMK AO2 SLP219 T10501089=
202102170652 METAR KATL 170652Z 30007KT 10SM SCT200 M05/M09 A3013 RMK AO2 SLP217 T10501089=
202102170552 METAR KATL 170552Z 32005KT 10SM FEW250 M05/M09 A3014 RMK AO2 SLP219 T10501089 11028 21050 55004=
202102170452 METAR KATL 170452Z 33008KT 10SM FEW250 M04/M09 A3014 RMK AO2 PRESFR SLP218 T10441089 400721044=
202102170352 METAR KATL 170352Z 33009KT 10SM FEW250 M04/M09 A3015 RMK AO2 SLP222 T10441094=
202102170252 METAR KATL 170252Z 31007KT 10SM FEW250 M04/M09 A3015 RMK AO2 SLP223 T10391089 53008=
202102170152 METAR KATL 170152Z 32009KT 10SM FEW250 M03/M09 A3014 RMK AO2 SLP217 T10331089=
202102170052 METAR KATL 170052Z 31008KT 10SM FEW250 M03/M09 A3014 RMK AO2 SLP218 T10331089=
202102162352 METAR KATL 162352Z 29010KT 10SM FEW025 M03/M09 A3013 RMK AO2 SLP214 T10281089 10000 21028 53011=
202102162252 METAR KATL 162252Z 32009KT 10SM FEW025 M02/M09 A3012 RMK AO2 SLP209 T10171089=
202102162152 METAR KATL 162152Z 32012KT 10SM FEW024 M01/M07 A3010 RMK AO2 SLP201 T10061072=
202102162052 METAR KATL 162052Z 32013G17KT 10SM FEW024 M01/M07 A3010 RMK AO2 SLP200 T10061072 53005=
202102161952 METAR KATL 161952Z 29010G18KT 10SM SCT020 M01/M07 A3008 RMK AO2 SLP194 T10061067=
202102161852 METAR KATL 161852Z 30011KT 10SM OVC019 M02/M07 A3008 RMK AO2 SLP194 BINOVC T10221072=
202102161752 METAR KATL 161752Z 28009KT 10SM OVC015 M02/M06 A3008 RMK AO2 SLP194 T10221061 11006 21033 50014=
202102161652 METAR KATL 161652Z 31009KT 10SM OVC011 M03/M06 A3008 RMK AO2 SLP194 T10331061=
202102161552 METAR KATL 161552Z 29010G18KT 10SM OVC013 M02/M06 A3006 RMK AO2 SLP185 T10221056=
202102161452 METAR KATL 161452Z 28014G18KT 10SM OVC012 M02/M05 A3004 RMK AO2 SLP178 T10221050 50013=
202102161450 SPECI KATL 161450Z 27011KT 10SM OVC012 M02/M05 A3004 RMK AO2=
202102161352 METAR KATL 161352Z 27012G20KT 7SM BKN008 OVC014 M02/M04 A3001 RMK AO2 SLP167 T10221044=
202102161347 SPECI KATL 161347Z 27010KT 8SM BKN008 OVC014 M02/M04 A3000 RMK AO2=
202102161310 SPECI KATL 161310Z 27011KT 8SM SCT009 BKN012 OVC017 M02/M04 A2998 RMK AO2 T10171044=
202102161252 METAR KATL 161252Z 26010G21KT 8SM BKN009 OVC014 M01/M04 A2997 RMK AO2 SLP154 T10111039=
202102161152 METAR KATL 161152Z 27014G20KT 10SM BKN007 OVC015 M01/M03 A2994 RMK AO2 SLP146 60000 70079 T10061028 10061 21006 51031=
202102161052 METAR KATL 161052Z 28013KT 10SM BKN008 OVC015 01/M01 A2992 RMK AO2 SLP137 T00061011=
202102161015 SPECI KATL 161015Z 26009KT 10SM FEW009 BKN012 OVC016 01/M01 A2991 RMK AO2 T00111011=
202102160952 METAR KATL 160952Z 26006G18KT 10SM BKN008 BKN012 OVC016 02/M01 A2989 RMK AO2 SLP125 CIG 007V010 T00171006=
202102160852 METAR KATL 160852Z 27008G17KT 10SM BKN007 OVC014 02/01 A2985 RMK AO2 SLP113 CIG 006V010 60000 T00220006 51018=
202102160752 METAR KATL 160752Z 26014G20KT 10SM OVC008 03/01 A2985 RMK AO2 DZE09 SLP112 P0000 T00330011=
202102160652 METAR KATL 160652Z 28013G21KT 8SM -DZ BKN007 OVC015 04/03 A2984 RMK AO2 RAE22DZB22 SLP108 CIG 006V010 P0000 T00440028=
202102160552 METAR KATL 160552Z 29011KT 9SM -RA BKN006 OVC015 06/04 A2980 RMK AO2 RAE29B52 SLP093 PCPN VRY LGT P0000 60005 T00610044 10100 20061 51008=
202102160452 METAR KATL 160452Z 27011KT 5SM -RA BKN006 OVC015 08/06 A2979 RMK AO2 RAB43 SLP090 CIG 004V008 P0000 T00780061 401000061=
202102160431 SPECI KATL 160431Z 24010G17KT 7SM BKN005 BKN012 OVC020 08/07 A2979 RMK AO2 T00830067=
202102160352 METAR KATL 160352Z 24009KT 10SM SCT007 BKN015 OVC023 09/07 A2979 RMK AO2 SLP089 T00940072=
202102160349 SPECI KATL 160349Z 24010KT 10SM FEW005 BKN015 OVC023 09/08 A2979 RMK AO2=
202102160252 METAR KATL 160252Z 23005KT 7SM BKN005 BKN009 OVC020 09/08 A2977 RMK AO2 SLP083 60005 T00940083 51027=
202102160152 METAR KATL 160152Z 00000KT 1 1/2SM BR BKN005 OVC018 09/08 A2975 RMK AO2 SFC VIS 6 RAE27 SLP078 P0001 T00890078=
202102160052 METAR KATL 160052Z 17004KT 1 1/2SM -RA BR SCT003 BKN009 OVC020 09/08 A2975 RMK AO2 SFC VIS 2 1/2 RAB11 SLP077 P0004 T00890078=
202102152352 METAR KATL 152352Z 12005KT 1 1/2SM OVC004 08/07 A2969 RMK AO2 SFC VIS 7 RAE00B12E46 TSE20 SLP056 TWRINC P0000 60074 T00830072 10089 20072 56024=
202102152346 SPECI KATL 152346Z 11006KT 7SM OVC004 08/07 A2969 RMK AO2 RAE00B12E46 TSE20 P0000=
202102152334 SPECI KATL 152334Z 10010KT 10SM -RA BKN006 OVC016 08/07 A2969 RMK AO2 RAE00B12 TSE20 P0000 T00830072=
202102152327 SPECI KATL 152327Z 10009G19KT 7SM -RA FEW008 BKN013 OVC019 08/07 A2971 RMK AO2 RAE00B12 TSE20 P0000 T00830067=
202102152306 SPECI KATL 152306Z 12013KT 10SM FEW003 SCT011 OVC020 08/07 A2971 RMK AO2 RAE00 PRESFR P0000 T00830072=
202102152252 METAR KATL 152252Z 11013G20KT 3SM -RA BR BKN005 OVC017 08/07 A2973 RMK AO2 LTG DSNT NE TSB16E37B39E48 SLP070 TS MOV NE CB DSNT NE MOV NE P0035 T00830072=
202102152248 SPECI KATL 152248Z 11014G19KT 3SM -RA BR BKN005 OVC017 08/07 A2974 RMK AO2 LTG DSNT NE AND E TSB16E37B39E48 TS MOV NE CB DSNT NE MOV NE P0034=
202102152227 SPECI KATL 152227Z 11011KT 1 3/4SM +TSRA BR SCT006 OVC016CB 08/07 A2975 RMK AO2 LTG DSNT NE-S TSB16 OCNL LTGIC E-S-SW TS E-S-SW MOV NE P0019 T00830067=
202102152222 SPECI KATL 152222Z 11008KT 3SM +TSRA BR BKN006 OVC010CB 08/07 A2976 RMK AO2 LTG DSNT E AND S TSB16 OCNL LTGIC E-S-SW TS E-S-SW MOV NE P0013 T00830067=
202102152152 METAR KATL 152152Z 10006KT 5SM -RA BR OVC006 08/07 A2976 RMK AO2 LTG DSNT ALQDS TSE2058 SLP081 TSB2058E46 TS MOV NE CB DSNT ALQDS MOV NE P0031 T00780067=
202102152114 SPECI KATL 152114Z 08015G20KT 1 1/2SM R09R/5500VP6000FT VCTS +RA BR OVC006CB 08/07 A2972 RMK AO2 SFC VIS 2 LTG DSNT ALQDS TSE2058 PRESFR TSB2058 OCNL LTGIC ALQDS VCTS ALQDS MOV NE P0008 T00780067=
202102152104 SPECI KATL 152104Z 11010KT 3/4SM R09R/P6000FT VCTS -RA BR OVC004CB 08/07 A2975 RMK AO2 SFC VIS 4 LTG DSNT E-SW TSE2058 TSB2058 OCNL LTGIC SE-SW VCTS SE-SW MOV NE TWRINC P0003 T00780067=
202102152052 METAR KATL 152052Z 10012KT 3/4SM R09R/P6000FT RA BR OVC004 08/07 A2976 RMK AO2 SFC VIS 2 1/2 LTG DSNT SE-SW DZE18RAB18 SLP080 CB DSNT SE-SW MOV NE TWRINC P0008 60008 T00780067 56047=
202102151952 METAR KATL 151952Z 11012G17KT 3/4SM R09R/P6000FT -DZ BR OVC003 08/07 A2979 RMK AO2 SFC VIS 1 1/2 SLP090 TWRINC P0000 T00780067=
202102151944 SPECI KATL 151944Z 11009G18KT 3/4SM R09R/P6000FT -DZ BR OVC004 08/07 A2979 RMK AO2 SFC VIS 1 3/4 TWRINC P0000 T00780067=
202102151916 SPECI KATL 151916Z 11012G22KT 1 1/2SM -DZ BR OVC004 07/06 A2980 RMK AO2 SFC VIS 3 PRESFR P0000 T00720061=
202102151852 METAR KATL 151852Z 11014KT 1 1/2SM -DZ BR OVC005 07/06 A2983 RMK AO2 SFC VIS 3 PRESFR SLP105 P0000 T00720061=
202102151752 METAR KATL 151752Z 11010G22KT 1 1/2SM R09R/6000VP6000FT -DZ BR OVC005 07/06 A2990 RMK AO2 SLP129 P0000 60000 T00720061 10072 20061 58024=
202102151652 METAR KATL 151652Z 12010KT 1 1/2SM -DZ BR OVC005 07/06 A2996 RMK AO2 SFC VIS 2 SLP148 P0000 T00670056=
202102151612 SPECI KATL 151612Z 10010KT 1 1/2SM -DZ BR OVC005 07/06 A2997 RMK AO2 SFC VIS 2 P0000 T00670056=
202102151606 SPECI KATL 151606Z 10011KT 1/2SM R09R/P6000FT -DZ BR OVC005 07/06 A2998 RMK AO2 SFC VIS 1 3/4 TWRINC P0000 T00670056=
202102151552 METAR KATL 151552Z 10008KT 1/2SM R09R/P6000FT -DZ BR OVC004 07/06 A2999 RMK AO2 SFC VIS 2 SLP158 TWRINC P0000 T00670056=
202102151452 METAR KATL 151452Z 10012G20KT 1/2SM R09R/P6000FT -DZ BR OVC004 07/05 A2997 RMK AO2 SFC VIS 2 SLP154 TWRINC P0000 60000 T00670050 58002=
202102151352 METAR KATL 151352Z 09012KT 1/2SM R09R/P6000FT -DZ BR BKN004 OVC012 06/05 A3000 RMK AO2 SFC VIS 2 SLP165 CIG 003V006 TWRINC P0000 T00610050=
202102151252 METAR KATL 151252Z 10009KT 1/2SM R09R/P6000FT -DZ BR OVC004 06/05 A3000 RMK AO2 SFC VIS 2 SLP164 CIG 003V006 TWRINC P0000 T00610050=
202102151152 METAR KATL 151152Z 10010KT 1/2SM R09R/P6000FT -DZ BR OVC004 06/05 A2998 RMK AO2 SFC VIS 2 1/2 SLP156 CIG 003V006 TWRINC P0000 60000 70002 T00610050 10067 20061 58006 $=
202102151052 METAR KATL 151052Z 09008KT 1/2SM R09R/P6000FT -DZ BR OVC004 06/05 A3000 RMK AO2 SFC VIS 2 SLP161 CIG 003V006 TWRINC P0000 T00610050 $=
202102150952 METAR KATL 150952Z 09008KT 1/2SM R09R/P6000FT -DZ BR OVC004 06/05 A2999 RMK AO2 SFC VIS 2 SLP160 CIG 003V006 TWRINC P0000 T00610050 $=
202102150852 METAR KATL 150852Z 09010KT 1/2SM R09R/P6000FT -DZ BR BKN004 OVC008 06/05 A3000 RMK AO2 SFC VIS 3 SLP162 CIG 003V006 TWRINC P0000 60000 T00610050 58012 $=
202102150752 METAR KATL 150752Z 10007KT 1/2SM R09R/P6000FT -DZ BR OVC003 06/06 A3001 RMK AO2 SFC VIS 2 1/2 SLP167 CIG 002V005 TWRINC P0000 T00610056 $=
202102150727 SPECI KATL 150727Z 08008KT 1/2SM R09R/P6000FT -DZ BR OVC003 06/06 A3002 RMK AO2 SFC VIS 1 1/2 CIG 002V004 TWRINC P0000 T00610056 $=
202102150721 SPECI KATL 150721Z 08008KT 2SM -DZ BR OVC004 06/06 A3002 RMK AO2 TWR VIS 3 CIG 003V006 P0000 T00610056 $=
202102150652 METAR KATL 150652Z 08009KT 3SM -DZ BR OVC004 07/06 A3002 RMK AO2 SLP171 CIG 003V006 P0000 T00670056 $=
202102150650 SPECI KATL 150650Z 08009KT 3SM -DZ BR OVC004 07/06 A3003 RMK AO2 CIG 003V006 P0000 $=
202102150552 METAR KATL 150552Z 08008KT 3SM -DZ BR BKN005 BKN010 OVC014 07/06 A3004 RMK AO2 SFC VIS 5 SLP175 DZE08RAB08 CIG 004V007 P0002 60002 T00670056 10078 20067 52004=
202102150548 SPECI KATL 150548Z 09007KT 3SM BR BKN005 BKN010 OVC014 07/06 A3004 RMK AO2 SFC VIS 5 DZE08RAB08 CIG 004V007 P0002=
202102150547 SPECI KATL 150547Z 09007KT 1SM R09R/P6000FT BR BKN005 BKN010 OVC014 07/06 A3003 RMK AO2 SFC VIS 4 DZE08RAB08 CIG 004V007 P0002=
202102150513 SPECI KATL 150513Z 09005KT 1SM R09R/P6000FT -RA BR OVC004 07/06 A3003 RMK AO2 SFC VIS 2 1/2 DZE08RAB08 P0001 T00670056=
202102150508 SPECI KATL 150508Z 08007KT 2SM -DZ BR OVC004 07/06 A3003 RMK AO2 TWR VIS 3 P0001 T00670056=
202102150452 METAR KATL 150452Z 08008KT 3SM -DZ BR OVC005 07/06 A3003 RMK AO2 SLP174 P0000 T00670056 400890061=
202102150352 METAR KATL 150352Z 08010KT 3SM -DZ BR OVC006 07/06 A3003 RMK AO2 SFC VIS 4 SLP172 DZE21B37 P0000 T00670056=
202102150252 METAR KATL 150252Z 08009KT 3SM -DZ BR OVC005 07/06 A3003 RMK AO2 SFC VIS 5 SLP171 DZB44 PCPN VRY LGT P0000 60000 T00670056 51004=
202102150152 METAR KATL 150152Z 08007KT 3SM BR BKN005 OVC009 07/06 A3002 RMK AO2 SFC VIS 5 SLP171 DZE26 P0000 T00720056=
202102150052 METAR KATL 150052Z 07009KT 3SM -DZ BR BKN005 OVC009 07/06 A3002 RMK AO2 SFC VIS 4 SLP169 DZB40 P0000 T00720061=
202102142352 METAR KATL 142352Z 09009KT 10SM OVC009 08/06 A3001 RMK AO2 SLP166 CIG 007V011 T00780056 10089 20072 50007=
202102142343 SPECI KATL 142343Z 08008KT 10SM OVC009 08/06 A3001 RMK AO2 T00780056=
202102142252 METAR KATL 142252Z 09007KT 10SM OVC012 08/06 A3002 RMK AO2 SLP169 T00830056=
202102142152 METAR KATL 142152Z 06008KT 10SM OVC013 09/06 A2999 RMK AO2 SLP159 T00890056=
202102142052 METAR KATL 142052Z 04008KT 10SM OVC012 09/05 A2999 RMK AO2 SLP158 T00890050 55010=
202102141952 METAR KATL 141952Z 05009KT 10SM OVC011 08/05 A2998 RMK AO2 SLP154 T00830050=
202102141852 METAR KATL 141852Z 04009KT 10SM OVC010 08/05 A2999 RMK AO2 SLP160 T00780050=
202102141752 METAR KATL 141752Z 09010KT 10SM OVC009 07/05 A3002 RMK AO2 SLP169 60000 T00720050 10078 20061 58010=
202102141652 METAR KATL 141652Z 08009KT 040V110 5SM BR BKN007 OVC012 07/05 A3005 RMK AO2 DZB08E36 SLP179 P0000 T00720050=
202102141552 METAR KATL 141552Z 06008KT 6SM BR OVC007 07/05 A3006 RMK AO2 SLP183 T00720050=
202102141452 METAR KATL 141452Z 05007KT 7SM OVC009 07/05 A3005 RMK AO2 SLP180 T00720050 52013=
202102141352 METAR KATL 141352Z 03007KT 2SM BR BKN005 BKN012 OVC020 07/05 A3004 RMK AO2 SFC VIS 6 SLP176 CIG 004V008 BKN005 V SCT T00670050=
202102141252 METAR KATL 141252Z 07006KT 2SM BR BKN006 OVC019 07/05 A3002 RMK AO2 SFC VIS 5 SLP170 CIG 005V008 T00670050=
202102141152 METAR KATL 141152Z 05007KT 2SM BR OVC005 06/05 A3001 RMK AO2 SFC VIS 6 SLP167 CIG 003V007 60000 70024 T00610050 10067 20061 55001=
202102141052 METAR KATL 141052Z 05007KT 2SM BR OVC005 06/05 A3001 RMK AO2 SFC VIS 6 DZE51 SLP165 CIG 003V007 P0000 T00610050=
202102141003 SPECI KATL 141003Z 06005KT 2SM -DZ BR OVC005 06/05 A3001 RMK AO2 SFC VIS 4 CIG 003V007 P0000 T00610050=
202102140952 METAR KATL 140952Z 05006KT 2SM -DZ BR OVC004 06/05 A3002 RMK AO2 SFC VIS 4 SLP169 CIG 003V005 P0000 T00610050=
202102140852 METAR KATL 140852Z 05007KT 2SM -DZ BR BKN004 OVC011 06/05 A3001 RMK AO2 SFC VIS 2 1/2 SLP168 CIG 003V006 P0000 60000 T00610050 58004=
202102140825 SPECI KATL 140825Z 04009KT 2SM -DZ BR BKN004 OVC010 06/05 A3002 RMK AO2 SFC VIS 2 1/2 CIG 003V006 P0000 T00610050=
202102140752 METAR KATL 140752Z 07008KT 1/2SM R09R/P6000FT -DZ BR OVC003 06/05 A3003 RMK AO2 SFC VIS 1 1/2 SLP173 CIG 002V004 TWRINC P0000 T00610050=
202102140729 SPECI KATL 140729Z 08008KT 1/2SM R09R/P6000FT -DZ BR OVC003 06/05 A3003 RMK AO2 SFC VIS 1 1/4 CIG 002V004 TWRINC P0000 T00610050=
202102140652 METAR KATL 140652Z 06008KT 2 1/2SM -DZ BR OVC004 06/05 A3003 RMK AO2 DZB41 SLP174 P0000 T00610050=
202102140552 METAR KATL 140552Z 06007KT 10SM OVC005 07/05 A3003 RMK AO2 SLP172 T00670050 10078 20061 55001=
202102140452 METAR KATL 140452Z 03008KT 8SM OVC005 07/05 A3001 RMK AO2 SLP168 T00670050 400780039=
202102140352 METAR KATL 140352Z 04007KT 10SM OVC006 07/05 A3002 RMK AO2 SLP170 T00720050=
202102140252 METAR KATL 140252Z 05007KT 10SM OVC007 07/05 A3003 RMK AO2 SLP173 T00720050 53016=
202102140152 METAR KATL 140152Z 06006KT 10SM OVC009 07/05 A3001 RMK AO2 SLP166 CIG 008V010 T00720050=
202102140052 METAR KATL 140052Z 08005KT 10SM OVC009 07/05 A2999 RMK AO2 SLP161 CIG 008V010 T00720050=
202102132352 METAR KATL 132352Z 04008KT 10SM OVC009 07/05 A2998 RMK AO2 SLP157 CIG 008V010 60000 T00720050 10078 20061 51012=
202102132252 METAR KATL 132252Z 05007KT 10SM OVC009 07/05 A2997 RMK AO2 SLP155 CIG 008V010 T00720050=
202102132152 METAR KATL 132152Z 03006KT 10SM OVC008 07/05 A2997 RMK AO2 SLP152 T00720050=
202102132052 METAR KATL 132052Z 04007KT 10SM OVC008 07/05 A2995 RMK AO2 SLP145 60000 T00720050 56014=
202102131952 METAR KATL 131952Z 04005KT 10SM OVC007 07/05 A2996 RMK AO2 SLP148 T00720050=
202102131852 METAR KATL 131852Z 06009KT 7SM OVC007 07/04 A2996 RMK AO2 RAE1753DZB1753E30 SLP150 P0000 T00670044=
202102131752 METAR KATL 131752Z 01006KT 3SM -RA BR BKN006 OVC014 06/04 A2999 RMK AO2 RAE17B41DZB29E41 SLP159 P0002 60024 T00610044 10061 20039 58006=
202102131652 METAR KATL 131652Z 04008KT 3SM -RA BR OVC006 06/04 A3000 RMK AO2 SLP165 P0002 T00560039=
202102131552 METAR KATL 131552Z 06010KT 3SM -RA BR OVC007 05/04 A2999 RMK AO2 SLP161 P0002 T00500039=
202102131452 METAR KATL 131452Z 08009KT 3SM -RA BR BKN005 OVC010 05/03 A3001 RMK AO2 SLP166 P0005 60018 T00500033 50009=
202102131436 SPECI KATL 131436Z 07009KT 3SM -RA BR BKN007 OVC013 04/03 A3001 RMK AO2 SFC VIS 4 P0004 T00440033=
202102131425 SPECI KATL 131425Z 06009KT 3SM -RA BR SCT007 OVC013 04/03 A3001 RMK AO2 SFC VIS 5 P0003 T00440033=
202102131358 SPECI KATL 131358Z 06007KT 3SM -RA BR BKN006 OVC012 04/03 A3001 RMK AO2 SFC VIS 4 P0000 T00440033=
202102131352 METAR KATL 131352Z 06008KT 2SM -RA BR BKN006 OVC012 04/03 A3001 RMK AO2 SFC VIS 3 SLP166 P0009 T00440028=
202102131252 METAR KATL 131252Z 08010KT 2SM -RA BR BKN006 BKN009 OVC014 04/03 A2999 RMK AO2 SFC VIS 4 SLP161 P0004 T00440028=
202102131152 METAR KATL 131152Z 09009KT 2SM -RA BR BKN006 BKN010 OVC016 04/03 A2998 RMK AO2 SFC VIS 6 SLP156 CIG 005V008 P0005 60024 70027 T00440028 10050 20044 58002=
202102131052 METAR KATL 131052Z 08011KT 2SM -RA BR BKN007 OVC015 04/03 A2999 RMK AO2 SFC VIS 5 SLP159 CIG 005V009 P0004 T00440028=
202102130952 METAR KATL 130952Z 09013KT 2SM -RA FEW003 BKN007 OVC011 04/03 A2998 RMK AO2 SFC VIS 7 SLP157 CIG 005V009 P0004 T00440028=
202102130852 METAR KATL 130852Z 08011KT 2SM -RA BR BKN006 BKN013 OVC019 04/03 A2999 RMK AO2 SFC VIS 6 SLP158 CIG 004V008 P0004 60011 T00440028 58016=
202102130839 SPECI KATL 130839Z 08012KT 2SM -RA BR BKN007 OVC013 04/03 A2999 RMK AO2 SFC VIS 6 CIG 005V009 P0003 T00440028=
202102130752 METAR KATL 130752Z 09010KT 1 1/4SM -RA BR BKN004 OVC013 04/03 A3000 RMK AO2 SFC VIS 5 SLP164 CIG 003V007 P0005 T00440033=
202102130652 METAR KATL 130652Z 09011KT 1 1/4SM -RA BR OVC004 05/04 A3003 RMK AO2 SFC VIS 3 SLP172 CIG 003V005 P0002 T00500039=
202102130552 METAR KATL 130552Z 08011KT 1 1/4SM -RA OVC003 05/04 A3004 RMK AO2 SFC VIS 2 SLP175 CIG 002V004 P0001 60001 T00500039 10061 20050 58009=
202102130452 METAR KATL 130452Z 08010KT 1 1/4SM -RA OVC003 05/04 A3005 RMK AO2 SFC VIS 6 RAB13 SLP181 P0000 T00500039 401560050=
202102130352 METAR KATL 130352Z 09007KT 1 1/4SM BR OVC003 06/04 A3007 RMK AO2 SFC VIS 4 SLP186 T00560044=
202102130325 SPECI KATL 130325Z 09009KT 1 1/4SM BR OVC003 06/04 A3007 RMK AO2 SFC VIS 3 T00560044=
202102130252 METAR KATL 130252Z 08009KT 2SM BR OVC004 06/04 A3006 RMK AO2 SFC VIS 5 RAE26 SLP184 CIG 003V005 P0000 60000 T00560044 51005=
202102130152 METAR KATL 130152Z 07010KT 2SM -RA BR OVC004 06/04 A3006 RMK AO2 SFC VIS 6 RAB47 SLP180 P0000 T00610044=
202102130052 METAR KATL 130052Z 07009KT 2SM OVC004 06/04 A3007 RMK AO2 SFC VIS 7 RAE20 SLP182 P0000 T00610044=
202102122352 METAR KATL 122352Z 08010KT 2SM -RA OVC004 06/05 A3005 RMK AO2 SFC VIS 7 RAB52 SLP176 PCPN VRY LGT P0000 60000 T00610050 10083 20061 53004=
202102122252 METAR KATL 122252Z 07010KT 2SM BR BKN004 OVC008 07/05 A3004 RMK AO2 SFC VIS 5 SLP172 T00670050=
202102122202 SPECI KATL 122202Z 08008KT 1 1/4SM BR OVC003 07/06 A3004 RMK AO2 SFC VIS 3 CIG 002V004 T00670056=
202102122152 METAR KATL 122152Z 09010KT 1SM R09R/P6000FT BR OVC003 07/06 A3003 RMK AO2 SFC VIS 2 1/2 SLP170 CIG 002V004 T00670056=
202102122052 METAR KATL 122052Z 05009KT 1SM R09R/P6000FT BR OVC003 07/06 A3004 RMK AO2 SFC VIS 3 DZB12E50 SLP172 CIG 002V004 TWRINC P0000 60000 T00720056 55009=
202102122045 SPECI KATL 122045Z 06008KT 1SM R09R/P6000FT -DZ BR OVC004 07/06 A3003 RMK AO2 SFC VIS 4 DZB12 CIG 003V005 P0000 T00720061=
202102121952 METAR KATL 121952Z 08011KT 2SM BR OVC004 08/06 A3002 RMK AO2 SFC VIS 6 DZE51 SLP167 CIG 003V005 P0000 T00780061=
202102121852 METAR KATL 121852Z 08008KT 1/2SM R09R/P6000FT -DZ BR OVC003 07/06 A3005 RMK AO2 SFC VIS 3 SLP175 CIG 002V004 TWRINC P0000 T00720061=
202102121752 METAR KATL 121752Z 08011KT 1/2SM R09R/P6000FT -DZ BR OVC003 08/07 A3007 RMK AO2 SFC VIS 3 SLP182 CIG 002V004 TWRINC P0000 60002 T00780067 10150 20078 58003=
202102121657 SPECI KATL 121657Z 06007KT 1/2SM R09R/P6000FT -DZ BR OVC004 08/07 A3008 RMK AO2 SFC VIS 4 CIG 003V005 TWRINC P0000 T00830072=
202102121652 METAR KATL 121652Z 05009KT 2SM -DZ BR OVC004 08/07 A3008 RMK AO2 SFC VIS 3 SLP184 CIG 003V005 P0000 T00830072=
202102121552 METAR KATL 121552Z 05010KT 2SM -DZ BR BKN005 OVC012 09/08 A3008 RMK AO2 SFC VIS 6 RAE05DZB05 SLP185 CIG 003V007 P0000 T00890078=
202102121526 SPECI KATL 121526Z 05011G21KT 2SM -DZ BR BKN005 OVC014 09/08 A3008 RMK AO2 SFC VIS 5 RAE05DZB05 CIG 003V007 P0000 T00890078=
202102121452 METAR KATL 121452Z 06009KT 1/4SM R09R/P6000FT -RA BR OVC003 10/09 A3008 RMK AO2 SFC VIS 2 SLP184 CIG 002V004 TWRINC P0001 60002 T01000089 53029=
202102121420 SPECI KATL 121420Z 07012KT 1/4SM R09R/P6000FT -RA BR OVC002 11/09 A3007 RMK AO2 SFC VIS 1 3/4 CIG 001V003 TWRINC P0000 T01060094=
202102121352 METAR KATL 121352Z 08016KT 1/4SM R09R/6000VP6000FT -RA BR OVC003 13/13 A3003 RMK AO2 SFC VIS 1 1/2 DZB01E49RAB49 SLP168 CIG 002V004 TWRINC P0001 T01330128=
202102121318 SPECI KATL 121318Z 00000KT 1/4SM R09R/P6000FT -DZ BR BKN002 OVC006 14/14 A3001 RMK AO2 SFC VIS 1 1/4 DZB01 CIG 001V003 TWRINC P0000 T01440139=
202102121302 SPECI KATL 121302Z 00000KT 1 3/4SM R09R/3500VP6000FT -DZ BR BKN002 BKN025 OVC040 14/14 A3001 RMK AO2 DZB01 P0000 T01440139=
202102121252 METAR KATL 121252Z 32003KT 2SM R09R/3000V5500FT BR SCT002 BKN025 OVC041 14/14 A3001 RMK AO2 SLP158 T01440139=
202102121236 SPECI KATL 121236Z 31004KT 2 1/2SM BR SCT002 BKN025 OVC042 14/14 A3000 RMK AO2 T01440139=
202102121152 METAR KATL 121152Z 00000KT 1 1/2SM BR BKN002 BKN025 OVC042 14/13 A2999 RMK AO2 SLP152 70055 T01440133 10150 20139 53003=
202102121105 SPECI KATL 121105Z 00000KT 1 1/4SM R09R/2600V4000FT BR BKN002 BKN005 OVC050 14/13 A2997 RMK AO2 T01440133=
202102121052 METAR KATL 121052Z 00000KT 1 1/4SM R09R/2400V3500FT BR SCT002 BKN005 BKN050 14/14 A2997 RMK AO2 SLP145 T01440139=
202102121027 SPECI KATL 121027Z 15003KT 1 1/2SM R09R/2800VP6000FT BR SCT002 BKN006 BKN060 14/13 A2996 RMK AO2 T01440133=
202102121001 SPECI KATL 121001Z 00000KT 1 1/2SM R09R/3000VP6000FT BR BKN002 OVC008 14/14 A2996 RMK AO2 T01440139=
202102120957 SPECI KATL 120957Z 00000KT 1SM R09R/3000VP6000FT BR SCT002 BKN012 OVC047 14/14 A2996 RMK AO2 SCT002 V BKN T01440139=
202102120952 METAR KATL 120952Z 00000KT 2SM R09R/5500VP6000FT BR SCT002 BKN022 BKN047 14/14 A2996 RMK AO2 SLP143 SCT002 V BKN T01440139=
202102120946 SPECI KATL 120946Z 00000KT 2 1/2SM BR SCT002 BKN022 BKN047 14/14 A2996 RMK AO2 VIS E-S 1=
202102120933 SPECI KATL 120933Z 00000KT 2SM R09R/3500VP6000FT BR SCT002 BKN022 BKN047 14/14 A2997 RMK AO2 T01440139=
202102120852 METAR KATL 120852Z 00000KT 1/4SM R09R/P6000FT BR BKN002 OVC019 14/13 A2998 RMK AO2 SFC VIS 2 SLP148 TWRINC T01440133 51008=
202102120850 SPECI KATL 120850Z 00000KT 1/4SM R09R/P6000FT BR BKN002 BKN019 OVC033 14/13 A2998 RMK AO2 SFC VIS 2 1/2=
202102120800 SPECI KATL 120800Z 00000KT 6SM BR SCT002 BKN019 BKN060 BKN130 15/14 A2998 RMK AO2 T01500139=
202102120752 METAR KATL 120752Z 34003KT 6SM BR SCT002 SCT019 BKN060 BKN130 14/13 A2997 RMK AO2 SLP147 T01440133=
202102120652 METAR KATL 120652Z 32004KT 7SM FEW002 FEW025 SCT070 BKN140 14/13 A2997 RMK AO2 SLP145 T01440133=
202102120552 METAR KATL 120552Z 00000KT 10SM FEW002 FEW025 BKN120 OVC150 15/14 A2995 RMK AO2 SLP140 60005 T01500139 10161 20150 56016=
202102120452 METAR KATL 120452Z 00000KT 10SM FEW090 BKN110 OVC150 16/14 A2995 RMK AO2 RAE22 SLP141 P0000 T01560139 401720122=
202102120352 METAR KATL 120352Z 17006KT 10SM -RA FEW060 BKN100 OVC150 16/14 A2997 RMK AO2 SLP145 P0001 T01560144=
202102120252 METAR KATL 120252Z 19003KT 7SM -RA FEW007 SCT075 BKN100 OVC150 16/14 A3000 RMK AO2 SLP157 P0003 60004 T01560144 58000=
202102120152 METAR KATL 120152Z 18003KT 6SM -RA BR FEW007 BKN075 OVC100 16/14 A3002 RMK AO2 RAB17 SLP162 P0001 T01560144=
202102120052 METAR KATL 120052Z 00000KT 10SM SCT042 BKN130 OVC200 16/14 A3000 RMK AO2 RAE13 SLP157 P0000 T01610144=
202102112352 METAR KATL 112352Z 00000KT 10SM -RA FEW009 BKN045 OVC110 16/15 A3000 RMK AO2 RAB52 SLP157 P0000 60003 T01610150 10172 20150 53006=
202102112252 METAR KATL 112252Z 20003KT 10SM FEW045 BKN140 OVC200 17/14 A2997 RMK AO2 SLP148 VIRGA W-NW T01670144=
202102112152 METAR KATL 112152Z 25005KT 10SM FEW008 SCT055 BKN120 OVC200 17/15 A2999 RMK AO2 SLP153 T01670150=
202102112142 SPECI KATL 112142Z 27006KT 10SM FEW008 SCT015 BKN050 OVC200 17/15 A2999 RMK AO2 T01670150=
202102112052 METAR KATL 112052Z 28006KT 9SM BKN009 BKN048 BKN100 OVC150 17/16 A2998 RMK AO2 RAB23E35 SLP151 P0000 60003 T01720156 55011=
202102111952 METAR KATL 111952Z 22003KT 7SM BKN008 BKN030 BKN110 OVC200 17/16 A2998 RMK AO2 RAE31DZB31E50 SLP149 CIG 006V010 P0000 T01670156=
202102111852 METAR KATL 111852Z 20005KT 1 1/4SM -RA BKN005 BKN012 OVC045 16/15 A2998 RMK AO2 SFC VIS 8 RAE13B50 SLP150 CIG 004V007 P0003 T01610150=
202102111752 METAR KATL 111752Z 29004KT 1 1/4SM +RA BR SCT004 BKN008 OVC018 15/14 A3002 RMK AO2 SFC VIS 2 SLP164 CIG 007V010 P0022 60047 T01500144 10156 20133 58009=
202102111726 SPECI KATL 111726Z 18005KT 1 1/4SM RA BR BKN004 OVC018 15/14 A3003 RMK AO2 SFC VIS 2 1/2 CIG 003V005 P0009 T01500139=
202102111707 SPECI KATL 111707Z 21005KT 1/4SM R09R/P6000FT RA BR BKN003 OVC016 15/14 A3004 RMK AO2 SFC VIS 3 CIG 002V004 TWRINC P0002 T01500144=
202102111652 METAR KATL 111652Z 20006KT 2SM -RA BR BKN004 BKN010 OVC050 15/14 A3004 RMK AO2 SFC VIS 4 TSE08 SLP171 TS DSIPTD CIG 003V006 P0019 T01500139=
202102111628 SPECI KATL 111628Z 34004KT 2SM RA BR SCT004 BKN008 OVC040 15/14 A3004 RMK AO2 TSE08 PRESFR TS DSIPTD CIG 007V010 P0014 T01500144=
202102111609 SPECI KATL 111609Z 21003KT 1SM R09R/P6000FT RA BR BKN004 BKN012 OVC040 14/14 A3007 RMK AO2 SFC VIS 1 3/4 TSE08 TS DSIPTD CIG 003V005 P0007 T01440139=
202102111552 METAR KATL 111552Z 24004KT 1SM R09R/P6000FT TSRA BR BKN004 BKN014CB OVC040 14/14 A3007 RMK AO2 SFC VIS 2 LTG DSNT SW AND W SLP181 DZE30RAB30 TSB41 OCNL LTGICCA NE-OHD-SW TS NE-OHD-SW MOV E CB DSNT S SW P0006 T01440139=
202102111542 SPECI KATL 111542Z 23004KT 1SM R09R/P6000FT TSRA BR BKN004 OVC012CB 14/14 A3007 RMK AO2 SFC VIS 2 LTG DSNT ALQDS DZE30RAB30 TSB41 OCNL LTGICCA SW-NW-N TS SW-NW-N MOV E P0002 T01440139=
202102111459 SPECI KATL 111459Z 21004KT 1SM R09R/P6000FT -DZ BR BKN004 OVC012 14/13 A3005 RMK AO2 SFC VIS 3 LTG DSNT SW-N CIG 003V005 CB DSNT SW-NW P0000 T01440133 $=
202102111452 METAR KATL 111452Z 00000KT 1/2SM R09R/P6000FT -DZ BR OVC003 14/13 A3005 RMK AO2 SFC VIS 3 LTG DSNT W DZB26 SLP172 CIG 002V004 CB DSNT SW-NW TWRINC P0000 60000 T01390133 50002=
202102111352 METAR KATL 111352Z 00000KT 1/8SM R09R/2200V4000FT BR OVC003 13/13 A3005 RMK AO2 SFC VIS 1 1/4 SLP173 TWRINC T01330128=
202102111349 SPECI KATL 111349Z 16003KT 1/8SM R09R/2000V4000FT BR VV003 13/13 A3004 RMK AO2 SFC VIS 1 TWRINC=
202102111340 SPECI KATL 111340Z 14003KT 1/8SM R09R/1800V2400FT FG VV003 14/13 A3004 RMK AO2 SFC VIS 1/4 T01390133=
202102111252 METAR KATL 111252Z 00000KT 1/8SM R09R/1400V1600FT FG VV002 13/13 A3004 RMK AO2 SFC VIS 1/4 SLP170 T01330128=
202102111232 SPECI KATL 111232Z 21003KT 1/8SM R09R/1800V2200FT FG VV002 13/13 A3004 RMK AO2 SFC VIS 1/4 T01330128=
202102111202 SPECI KATL 111202Z 19003KT 1/8SM R09R/2000V2600FT FG VV002 13/13 A3004 RMK AO2 SFC VIS 1/4 T01330128=
202102111152 METAR KATL 111152Z 20004KT 1/8SM R09R/1800V2200FT FG VV002 13/13 A3004 RMK AO2 SFC VIS 1/4 SLP170 T01330128 10139 20122 53002=
202102111119 SPECI KATL 111119Z 21005KT 1/8SM R09R/1800V2200FT FG VV002 14/13 A3003 RMK AO2 SFC VIS 1/4 T01390128=
202102111109 SPECI KATL 111109Z 21003KT 1/8SM R09R/1800V2400FT FG VV002 13/13 A3003 RMK AO2 SFC VIS 1/4 T01330128=
202102111052 METAR KATL 111052Z 00000KT 1/8SM R09R/1400V1600FT FG VV002 13/13 A3004 RMK AO2 SFC VIS 1/4 SLP169 TWRINC T01330128=
202102111017 SPECI KATL 111017Z 00000KT 1/8SM R09R/1600V1800FT FG VV002 13/13 A3003 RMK AO2 SFC VIS 1/2 TWRINC T01330128=
202102110954 SPECI KATL 110954Z 00000KT 1/8SM R09R/2600V4000FT BR VV002 13/12 A3003 RMK AO2 SFC VIS 1 TWRINC T01330122=
202102110952 METAR KATL 110952Z 00000KT 1SM R09R/3000V4000FT BR VV002 13/12 A3003 RMK AO2 SLP165 T01330122=
202102110950 SPECI KATL 110950Z 00000KT 1SM R09R/2600V4000FT BR VV003 13/12 A3003 RMK AO2=
202102110942 SPECI KATL 110942Z 00000KT 1/2SM R09R/2600V3000FT FG VV003 13/12 A3003 RMK AO2 T01330122=
202102110929 SPECI KATL 110929Z 00000KT 1/4SM R09R/2200V2800FT FG VV003 13/12 A3003 RMK AO2 T01280122=
202102110859 SPECI KATL 110859Z 00000KT 1/4SM R09R/1800V2200FT FG VV002 13/12 A3003 RMK AO2 T01280122=
202102110852 METAR KATL 110852Z 00000KT 1/2SM R09R/2000V2400FT FG VV002 13/12 A3003 RMK AO2 SLP167 T01280122 56015=
202102110845 SPECI KATL 110845Z 00000KT 1/2SM R09R/2000VP6000FT FG VV002 13/12 A3004 RMK AO2 T01280122=
202102110814 SPECI KATL 110814Z 00000KT 2 1/2SM BR BKN002 BKN160 BKN190 13/12 A3004 RMK AO2 T01280117=
202102110752 METAR KATL 110752Z 00000KT 6SM BR FEW015 BKN160 BKN190 13/12 A3004 RMK AO2 SLP170 T01280117=
202102110652 METAR KATL 110652Z 00000KT 7SM SCT018 BKN160 BKN200 13/12 A3005 RMK AO2 SLP174 T01280117=
202102110552 METAR KATL 110552Z 00000KT 8SM SCT200 BKN250 13/11 A3008 RMK AO2 SLP182 T01280111 10178 20122 56014=
202102110452 METAR KATL 110452Z 15004KT 9SM SCT200 12/11 A3008 RMK AO2 SLP184 T01220111 402060078=
202102110352 METAR KATL 110352Z 14004KT 10SM FEW035 SCT250 13/11 A3011 RMK AO2 SLP195 T01330111=
202102110252 METAR KATL 110252Z 00000KT 10SM FEW035 FEW250 16/12 A3012 RMK AO2 SLP198 T01560117 51008=
202102110152 METAR KATL 110152Z 24003KT 10SM SCT035 SCT250 16/12 A3012 RMK AO2 SLP199 T01560122=
202102110052 METAR KATL 110052Z 21004KT 10SM BKN045 BKN250 16/12 A3011 RMK AO2 SLP194 T01610117=
202102102352 METAR KATL 102352Z 16004KT 10SM SCT038 BKN050 BKN250 18/11 A3009 RMK AO2 SLP190 T01780106 10206 20178 55002=
202102102252 METAR KATL 102252Z 15004KT 10SM SCT060 BKN250 19/11 A3009 RMK AO2 SLP188 T01890106=
202102102152 METAR KATL 102152Z 17004KT 10SM FEW048 BKN060 BKN250 20/10 A3010 RMK AO2 SLP190 T02000100=
202102102052 METAR KATL 102052Z 12004KT 10SM SCT047 OVC060 20/10 A3010 RMK AO2 SLP191 BINOVC T02000100 55017=
202102101952 METAR KATL 101952Z 00000KT 10SM SCT045 BKN055 20/09 A3009 RMK AO2 SLP188 T02000094=
202102101852 METAR KATL 101852Z 16008KT 10SM BKN040 BKN050 21/09 A3012 RMK AO2 SLP198 T02060094=
202102101752 METAR KATL 101752Z 13006KT 10SM BKN038 19/09 A3015 RMK AO2 SLP209 T01940094 10200 20083 58017=
202102101652 METAR KATL 101652Z 09005KT 10SM FEW038 FEW050 19/09 A3018 RMK AO2 SLP219 T01940094=
202102101552 METAR KATL 101552Z 07005KT 10SM FEW034 FEW050 17/09 A3020 RMK AO2 SLP225 T01720089=
202102101452 METAR KATL 101452Z VRB03KT 10SM FEW024 FEW040 15/09 A3020 RMK AO2 SLP227 T01500089 51014=
202102101352 METAR KATL 101352Z 00000KT 10SM FEW040 12/09 A3020 RMK AO2 SLP226 T01220089=
202102101252 METAR KATL 101252Z 00000KT 10SM FEW070 09/07 A3018 RMK AO2 SLP221 VIS LWR E-S T00890072=
202102101152 METAR KATL 101152Z 05003KT 10SM CLR 09/07 A3016 RMK AO2 SLP214 T00890072 10106 20078 53006=
202102101052 METAR KATL 101052Z 00000KT 10SM CLR 08/07 A3015 RMK AO2 SLP211 T00830067=
202102100952 METAR KATL 100952Z 36003KT 10SM CLR 08/07 A3015 RMK AO2 SLP208 T00780067=
202102100852 METAR KATL 100852Z 00000KT 10SM CLR 09/08 A3014 RMK AO2 SLP207 T00890078 55001=
202102100752 METAR KATL 100752Z 33003KT 10SM CLR 09/08 A3014 RMK AO2 SLP205 T00890078=
202102100652 METAR KATL 100652Z 00000KT 10SM FEW006 10/08 A3014 RMK AO2 SLP206 T01000083=
202102100644 SPECI KATL 100644Z 00000KT 10SM FEW006 09/08 A3015 RMK AO2 T00940078=
202102100552 METAR KATL 100552Z 00000KT 10SM FEW250 11/08 A3015 RMK AO2 SLP207 T01060083 10167 20106 57004=
202102100452 METAR KATL 100452Z 00000KT 10SM FEW250 11/09 A3015 RMK AO2 SLP211 T01110089 401890100=
202102100352 METAR KATL 100352Z 01003KT 10SM FEW045 13/10 A3016 RMK AO2 SLP212 T01280100=
202102100252 METAR KATL 100252Z 00000KT 10SM FEW045 12/09 A3016 RMK AO2 SLP215 T01170089 51009=
202102100152 METAR KATL 100152Z 35003KT 10SM FEW045 16/11 A3015 RMK AO2 SLP211 T01560106=
202102100052 METAR KATL 100052Z 00000KT 10SM FEW035 BKN050 16/10 A3015 RMK AO2 SLP208 T01610100=
202102092352 METAR KATL 092352Z 36006KT 10SM FEW042 BKN055 17/11 A3013 RMK AO2 SLP203 T01670106 10189 20167 51010=
202102092252 METAR KATL 092252Z 33003KT 10SM FEW028 SCT045 BKN060 17/11 A3012 RMK AO2 SLP200 T01720106=
202102092152 METAR KATL 092152Z 31005KT 10SM FEW028 BKN048 BKN065 18/11 A3012 RMK AO2 SLP198 T01780106=
202102092052 METAR KATL 092052Z 32007KT 10SM SCT031 OVC048 18/11 A3010 RMK AO2 SLP192 BINOVC T01830106 55011=
202102092025 SPECI KATL 092025Z 36004KT 10SM BKN031 BKN055 BKN250 18/11 A3010 RMK AO2 T01830106=
202102091952 METAR KATL 091952Z 34006KT 10SM BKN027 BKN060 BKN250 18/10 A3010 RMK AO2 SLP189 T01780100=
202102091922 SPECI KATL 091922Z 36005KT 10SM BKN027 BKN055 BKN200 18/11 A3010 RMK AO2 T01830106=
202102091852 METAR KATL 091852Z 00000KT 10SM FEW024 SCT050 SCT200 18/11 A3011 RMK AO2 SLP193 T01780106=
202102091752 METAR KATL 091752Z VRB03KT 10SM SCT020 BKN045 BKN200 18/11 A3014 RMK AO2 SLP203 60000 T01780106 10178 20100 58016=
202102091652 METAR KATL 091652Z 00000KT 10SM SCT012 BKN030 BKN200 14/10 A3016 RMK AO2 SLP212 T01440100=
202102091552 METAR KATL 091552Z 00000KT 7SM OVC007 12/09 A3018 RMK AO2 SLP221 CIG 006V008 T01220094=
202102091517 SPECI KATL 091517Z 00000KT 4SM BR OVC005 12/09 A3018 RMK AO2 CIG 004V007 T01170094=
202102091452 METAR KATL 091452Z 00000KT 3SM BR OVC004 11/09 A3018 RMK AO2 DZE48 SLP222 CIG 003V005 P0000 60000 T01110094 53014=
202102091449 SPECI KATL 091449Z 00000KT 3SM BR OVC004 11/09 A3018 RMK AO2 DZE48 CIG 003V005 P0000=
202102091431 SPECI KATL 091431Z 10003KT 1 1/2SM -DZ BR OVC003 11/09 A3017 RMK AO2 SFC VIS 2 1/2 CIG 002V004 P0000 T01060094=
202102091352 METAR KATL 091352Z 14004KT 2SM -DZ BR OVC004 10/09 A3017 RMK AO2 SLP217 CIG 003V005 P0000 T01000089=
202102091343 SPECI KATL 091343Z 00000KT 2SM -DZ BR OVC004 10/09 A3017 RMK AO2 CIG 003V005 P0000 T01000089=
202102091252 METAR KATL 091252Z 05006KT 4SM -DZ BR OVC006 11/08 A3015 RMK AO2 DZB52 SLP211 P0000 T01060083=
202102091152 METAR KATL 091152Z 11003KT 10SM OVC006 10/08 A3014 RMK AO2 SLP208 T01000083 10106 20100 55002=
202102091117 SPECI KATL 091117Z 09005KT 10SM OVC008 10/08 A3013 RMK AO2 T01000083=
202102091052 METAR KATL 091052Z 09007KT 10SM FEW008 OVC011 10/08 A3012 RMK AO2 SLP200 T01000083=
202102091032 SPECI KATL 091032Z 09007KT 10SM FEW008 BKN011 OVC050 11/08 A3013 RMK AO2 T01060083=
202102090952 METAR KATL 090952Z 10006KT 10SM FEW008 FEW014 OVC065 11/08 A3012 RMK AO2 SLP200 T01060083=
202102090852 METAR KATL 090852Z 10005KT 10SM FEW017 SCT027 BKN220 10/08 A3015 RMK AO2 SLP209 T01000078 56006=
202102090849 SPECI KATL 090849Z 12004KT 10SM FEW017 SCT027 BKN220 10/08 A3015 RMK AO2=
202102090752 METAR KATL 090752Z 10003KT 10SM FEW018 BKN029 BKN034 BKN220 11/07 A3015 RMK AO2 SLP209 T01060072=
202102090652 METAR KATL 090652Z 10006KT 10SM BKN021 OVC029 11/07 A3016 RMK AO2 SLP213 T01060067=
202102090620 SPECI KATL 090620Z 09007KT 10SM BKN027 OVC150 11/07 A3017 RMK AO2 T01060067=
202102090552 METAR KATL 090552Z 10007KT 10SM BKN030 BKN150 OVC200 11/06 A3017 RMK AO2 SLP217 T01060061 10122 20106 58012=
202102090452 METAR KATL 090452Z 12007KT 10SM FEW140 BKN200 OVC250 11/06 A3018 RMK AO2 SLP222 T01060056 401560011=
202102090352 METAR KATL 090352Z 11006KT 10SM SCT140 BKN200 BKN250 11/05 A3019 RMK AO2 SLP224 T01110050=
202102090252 METAR KATL 090252Z 12004KT 10SM SCT150 BKN200 BKN250 11/04 A3020 RMK AO2 SLP231 T01060039 53005=
202102090152 METAR KATL 090152Z 10007KT 10SM FEW150 BKN200 BKN250 11/03 A3019 RMK AO2 SLP227 T01060033=
202102090052 METAR KATL 090052Z 12004KT 10SM FEW150 BKN200 BKN250 12/03 A3019 RMK AO2 SLP229 T01170033=
202102082352 METAR KATL 082352Z 11004KT 10SM FEW150 BKN200 BKN250 12/03 A3019 RMK AO2 SLP227 T01170033 10156 20117 51002=
202102082252 METAR KATL 082252Z 13006KT 10SM FEW150 SCT200 BKN250 13/03 A3018 RMK AO2 SLP225 T01330033=
202102082152 METAR KATL 082152Z 14007KT 10SM SCT200 BKN250 14/03 A3019 RMK AO2 SLP225 T01390028=
202102082052 METAR KATL 082052Z 17008KT 10SM SCT200 SCT250 14/02 A3018 RMK AO2 SLP223 T01440017 55019=
202102081952 METAR KATL 081952Z 14007KT 10SM SCT200 BKN250 14/02 A3018 RMK AO2 SLP223 T01440022=
202102081852 METAR KATL 081852Z 13009KT 10SM SCT180 BKN250 14/02 A3020 RMK AO2 SLP228 VIRGA SE-SW DSNT NE NW T01390022=
202102081752 METAR KATL 081752Z 13009KT 10SM SCT200 BKN250 12/02 A3024 RMK AO2 SLP243 T01220022 10122 20011 58016=
202102081652 METAR KATL 081652Z 15010G17KT 10SM SCT200 SCT250 10/02 A3027 RMK AO2 SLP255 T01000022=
202102081552 METAR KATL 081552Z 13009KT 10SM FEW030 SCT200 SCT250 09/03 A3029 RMK AO2 SLP261 T00940028=
202102081452 METAR KATL 081452Z 11006KT 10SM FEW200 SCT250 07/01 A3029 RMK AO2 SLP261 T00670011 51020=
202102081352 METAR KATL 081352Z 09008KT 10SM SCT250 04/00 A3028 RMK AO2 SLP259 T00390000=
202102081252 METAR KATL 081252Z 09005KT 10SM SCT250 01/M01 A3025 RMK AO2 SLP251 T00111006=
202102081152 METAR KATL 081152Z 08006KT 10SM FEW220 01/M01 A3023 RMK AO2 SLP242 T00111011 10039 20011 53012=
202102081052 METAR KATL 081052Z 09006KT 10SM FEW250 02/M01 A3021 RMK AO2 SLP236 T00171011=
202102080952 METAR KATL 080952Z 05004KT 10SM FEW250 03/M01 A3020 RMK AO2 SLP232 T00281006=
202102080852 METAR KATL 080852Z 03003KT 10SM FEW250 03/M01 A3019 RMK AO2 SLP228 T00281006 51010=
202102080752 METAR KATL 080752Z 06003KT 10SM FEW250 03/M01 A3018 RMK AO2 SLP224 T00331006=
202102080652 METAR KATL 080652Z 03003KT 10SM CLR 03/M01 A3018 RMK AO2 SLP223 T00331006=
202102080552 METAR KATL 080552Z 09004KT 10SM CLR 04/M01 A3016 RMK AO2 SLP218 T00391006 10072 20039 51006=
202102080452 METAR KATL 080452Z 09003KT 10SM CLR 04/00 A3015 RMK AO2 SLP216 T00440000 401060028=
202102080352 METAR KATL 080352Z 00000KT 10SM CLR 04/M01 A3015 RMK AO2 SLP215 T00391006=
202102080252 METAR KATL 080252Z 34006KT 10SM CLR 04/00 A3014 RMK AO2 SLP213 T00440000 51017=
202102080152 METAR KATL 080152Z 33007KT 10SM CLR 05/01 A3013 RMK AO2 SLP208 T00500006=
202102080052 METAR KATL 080052Z 32007KT 10SM CLR 06/01 A3011 RMK AO2 SLP202 T00610011=
202102072352 METAR KATL 072352Z 32007KT 10SM CLR 07/01 A3009 RMK AO2 SLP195 T00720011 10106 20072 53021=
202102072252 METAR KATL 072252Z 31009KT 10SM FEW030 09/02 A3007 RMK AO2 SLP186 T00940017=
202102072152 METAR KATL 072152Z 32010KT 10SM FEW032 10/02 A3005 RMK AO2 SLP180 T01000017=
202102072052 METAR KATL 072052Z 31009KT 10SM FEW030 11/02 A3003 RMK AO2 SLP172 T01060022 55000=
202102071952 METAR KATL 071952Z 34010G17KT 10SM FEW030 10/02 A3003 RMK AO2 SLP173 T01000017=
202102071852 METAR KATL 071852Z 32012G19KT 10SM FEW028 10/02 A3003 RMK AO2 SLP172 T01000022=
202102071752 METAR KATL 071752Z 33010KT 10SM SCT019 08/02 A3003 RMK AO2 SLP173 T00830022 10083 20028 50014=
202102071734 SPECI KATL 071734Z 34012G19KT 10SM SCT017 08/02 A3003 RMK AO2 T00780022=
202102071652 METAR KATL 071652Z 32015KT 10SM BKN011 06/02 A3004 RMK AO2 SLP177 T00610022=
202102071552 METAR KATL 071552Z 32011KT 10SM BKN012 06/02 A3002 RMK AO2 SLP170 T00560022=
202102071512 SPECI KATL 071512Z 33010KT 10SM BKN010 05/02 A2999 RMK AO2 T00500022=
202102071452 METAR KATL 071452Z 32009KT 10SM BKN008 04/02 A2999 RMK AO2 SLP160 T00440022 51016=
202102071443 SPECI KATL 071443Z 33010KT 10SM BKN007 04/02 A2998 RMK AO2 T00440022=
202102071352 METAR KATL 071352Z 30007KT 10SM SCT006 03/02 A2998 RMK AO2 SLP158 SCT006 V BKN T00330022=
202102071318 SPECI KATL 071318Z 34006KT 10SM SCT007 BKN035 03/01 A2995 RMK AO2 SCT007 V BKN T00280011=
202102071252 METAR KATL 071252Z 34009KT 10SM BKN007 BKN035 03/01 A2995 RMK AO2 SLP147 CIG 006V009 BKN007 V SCT T00280011=
202102071152 METAR KATL 071152Z 35009KT 10SM BKN006 OVC030 03/01 A2994 RMK AO2 DZE48 SLP145 P0001 60006 70077 T00280011 10033 20028 51026=
202102071052 METAR KATL 071052Z 34007KT 5SM -DZ BR BKN007 BKN016 OVC025 03/02 A2994 RMK AO2 SLP143 RAE0953B08E31DZB0953E08B31 BKN007 V SCT P0003 T00280017=
202102071036 SPECI KATL 071036Z 34009G18KT 6SM -DZ BR BKN007 OVC013 03/01 A2993 RMK AO2 RAE0953B08E31DZB0953E08B31 P0003 T00280011=
202102070952 METAR KATL 070952Z 02008KT 7SM UP OVC006 03/01 A2988 RMK AO2 DZE23RAB36E52UPB52 SLP124 CIG 005V008 P0001 T00280011=
202102070852 METAR KATL 070852Z 06007KT 7SM -DZ OVC005 03/02 A2986 RMK AO2 RAB51E52 SLP116 CIG 004V007 P0001 60001 T00330017 56006=
202102070805 SPECI KATL 070805Z 06006KT 4SM -DZ BR BKN005 OVC010 03/02 A2986 RMK AO2 CIG 004V007 P0001 T00330022=
202102070752 METAR KATL 070752Z 08008KT 2 1/2SM -DZ BR OVC005 03/02 A2987 RMK AO2 SLP118 P0000 T00330022=
202102070652 METAR KATL 070652Z 08011KT 6SM -DZ BR OVC005 03/02 A2986 RMK AO2 SLP115 CIG 004V007 P0000 T00330022=
202102070552 METAR KATL 070552Z 09010KT 5SM -DZ BR BKN005 OVC009 03/02 A2988 RMK AO2 RAE51DZB51 SLP121 CIG 004V007 P0001 60035 T00330022 10039 20028 58023=
202102070452 METAR KATL 070452Z 09009KT 10SM -RA BKN008 OVC015 04/02 A2991 RMK AO2 SLP133 DZE00RAB00 CIG 006V009 P0002 T00390022 401170022=
202102070352 METAR KATL 070352Z 09013KT 10SM -DZ BKN007 OVC010 04/02 A2992 RMK AO2 PK WND 08032/0325 SLP137 RAE44DZB44 P0001 T00390022=
202102070252 METAR KATL 070252Z 10010G21KT 6SM -RA BR BKN007 OVC011 03/02 A2995 RMK AO2 SLP146 P0003 60031 T00330022 58013=
202102070152 METAR KATL 070152Z 09015KT 6SM RA BR BKN008 BKN012 OVC055 03/02 A2999 RMK AO2 SLP159 P0013 T00330017=
202102070147 SPECI KATL 070147Z 09012KT 8SM -RA BKN010 BKN029 OVC055 03/02 A2999 RMK AO2 P0013=
202102070052 METAR KATL 070052Z 09012KT 5SM -RA BR BKN006 OVC030 03/02 A2996 RMK AO2 SLP152 CIG 004V007 P0015 T00330022=
202102062352 METAR KATL 062352Z 06011KT 4SM RA BR BKN006 OVC035 03/02 A2999 RMK AO2 PLB12E29 SLP162 P0022 60036 T00280017 10111 20028 58017=
202102062329 SPECI KATL 062329Z 07009KT 5SM RA BR BKN005 BKN010 OVC055 03/02 A3000 RMK AO2 PLB12E29 SCT005 V BKN P0011 T00330017=
202102062312 SPECI KATL 062312Z 09015KT 5SM PLRA BR SCT007 OVC055 03/01 A2998 RMK AO2 PLB12 PRESFR SCT007 V BKN P0006 T00280011=
202102062252 METAR KATL 062252Z 06012KT 5SM RA BR SCT007 BKN060 OVC070 03/02 A3001 RMK AO2 SNB12E30PLB12E34 SLP168 P0010 T00330017=
202102062235 SPECI KATL 062235Z 06011KT 5SM -RA BR FEW017 BKN048 OVC070 03/02 A3001 RMK AO2 SNB12E30PLB12E34 P0004 T00330017=
202102062213 SPECI KATL 062213Z 06012KT 8SM -RASNPL FEW014 BKN035 OVC065 04/02 A3002 RMK AO2 SNB12PLB12 P0001 T00390017=
202102062206 SPECI KATL 062206Z 05014KT 10SM -RA FEW014 BKN035 OVC065 04/02 A3002 RMK AO2 P0000 T00390017=
202102062152 METAR KATL 062152Z 06011KT 6SM -RA BR FEW014 BKN027 OVC065 04/02 A3004 RMK AO2 SLP178 P0004 T00390017=
202102062052 METAR KATL 062052Z 11010G17KT 3SM -RA OVC025 05/00 A3004 RMK AO2 SFC VIS 4 RAB32 SLP179 P0000 60000 T00500000 55007=
202102061952 METAR KATL 061952Z 08010KT 10SM BKN046 OVC055 09/M06 A3002 RMK AO2 RAB23E37 SLP169 P0000 T00891056=
202102061852 METAR KATL 061852Z 11009KT 10SM OVC085 11/M08 A3004 RMK AO2 SLP178 BINOVC T01061078=
202102061752 METAR KATL 061752Z 08013KT 10SM BKN090 BKN110 OVC250 11/M08 A3007 RMK AO2 SLP185 T01061083 10117 20044 58014=
202102061652 METAR KATL 061652Z 09012KT 10SM FEW090 BKN130 BKN200 12/M07 A3008 RMK AO2 SLP189 T01171072=
202102061552 METAR KATL 061552Z 05010KT 10SM OVC100 09/M06 A3010 RMK AO2 SLP196 VIRGA SE-SW BINOVC T00891056=
202102061452 METAR KATL 061452Z 05009KT 10SM BKN110 08/M06 A3011 RMK AO2 SLP199 T00781061 51014=
202102061352 METAR KATL 061352Z 03009KT 10SM FEW080 BKN110 07/M06 A3010 RMK AO2 SLP196 VIRGA E-S T00671056=
202102061252 METAR KATL 061252Z 03009KT 10SM SCT085 BKN110 05/M06 A3008 RMK AO2 SLP191 VIRGA NE-OHD-SW T00501056=
202102061152 METAR KATL 061152Z 04004KT 10SM BKN110 04/M04 A3006 RMK AO2 SLP184 T00441044 10050 20022 53010=
202102061052 METAR KATL 061052Z 00000KT 10SM BKN130 BKN180 04/M04 A3005 RMK AO2 SLP180 T00391044=
202102060952 METAR KATL 060952Z 35005KT 10SM SCT130 SCT180 03/M05 A3004 RMK AO2 SLP174 T00281050=
202102060852 METAR KATL 060852Z 33004KT 10SM SCT150 03/M04 A3003 RMK AO2 SLP174 T00331044 53006=
202102060752 METAR KATL 060752Z 34003KT 10SM FEW150 04/M05 A3001 RMK AO2 SLP164 T00391050=
202102060652 METAR KATL 060652Z 00000KT 10SM FEW150 02/M04 A3001 RMK AO2 SLP167 T00221044=
202102060552 METAR KATL 060552Z 00000KT 10SM FEW150 03/M04 A3001 RMK AO2 SLP168 T00331044 10100 20033 53006=
202102060452 METAR KATL 060452Z 28004KT 10SM SCT150 06/M06 A3002 RMK AO2 SLP167 T00611061 401280050=
202102060352 METAR KATL 060352Z 29003KT 10SM SCT150 06/M05 A2999 RMK AO2 SLP158 T00611050=
202102060252 METAR KATL 060252Z 00000KT 10SM SCT150 SCT200 08/M07 A2999 RMK AO2 SLP160 T00781067 51017=
202102060152 METAR KATL 060152Z 28003KT 10SM BKN140 BKN200 08/M07 A2999 RMK AO2 SLP157 T00831067=
202102060052 METAR KATL 060052Z 31005KT 10SM BKN150 OVC200 09/M07 A2996 RMK AO2 SLP146 T00891072=
202102052352 METAR KATL 052352Z 34009KT 10SM SCT130 BKN180 OVC250 10/M08 A2994 RMK AO2 SLP141 T01001078 10122 20094 51011=
202102052252 METAR KATL 052252Z 33006KT 10SM FEW060 BKN130 OVC200 11/M08 A2994 RMK AO2 SLP139 T01061083=
202102052152 METAR KATL 052152Z 31010KT 10SM FEW130 BKN180 BKN250 12/M07 A2992 RMK AO2 SLP132 T01171072=
202102052052 METAR KATL 052052Z 33012G21KT 10SM SCT130 BKN180 BKN250 12/M08 A2991 RMK AO2 SLP128 T01171078 56005=
202102051952 METAR KATL 051952Z 33012G18KT 10SM FEW160 BKN200 BKN250 12/M07 A2991 RMK AO2 SLP128 T01221072=
202102051852 METAR KATL 051852Z 32013G18KT 10SM FEW160 SCT200 BKN250 12/M04 A2990 RMK AO2 SLP126 T01171044=
202102051752 METAR KATL 051752Z 32014G22KT 10SM BKN250 10/M04 A2992 RMK AO2 SLP133 T01001039 10100 20078 50010=
202102051652 METAR KATL 051652Z 31013KT 10SM FEW020 BKN250 09/00 A2993 RMK AO2 SLP136 T00940000=
202102051552 METAR KATL 051552Z 32013G18KT 10SM FEW020 FEW080 BKN250 09/02 A2992 RMK AO2 SLP133 T00940022=
202102051452 METAR KATL 051452Z 31012G21KT 10SM FEW016 SCT080 BKN250 08/03 A2989 RMK AO2 SLP124 T00780033 53029=
202102051352 METAR KATL 051352Z 31011G23KT 10SM SCT013 SCT075 BKN180 BKN250 08/06 A2987 RMK AO2 SLP115 T00830056=
202102051252 METAR KATL 051252Z 30007KT 10SM SCT009 BKN070 BKN250 09/08 A2982 RMK AO2 SLP099 T00940083=
202102051152 METAR KATL 051152Z 30006KT 10SM FEW007 SCT017 BKN055 10/08 A2980 RMK AO2 RAB13E23 SLP094 P0000 60014 70014 T01000083 10128 20100 51012=
202102051052 METAR KATL 051052Z 30008KT 10SM FEW008 SCT017 OVC046 11/08 A2980 RMK AO2 WSHFT 1011 RAE36 SLP091 P0003 T01060083=
202102051050 SPECI KATL 051050Z 30008KT 10SM SCT008 SCT017 OVC046 11/08 A2980 RMK AO2 WSHFT 1011 RAE36 P0003=
202102051029 SPECI KATL 051029Z 31013G24KT 8SM -RA SCT006 SCT009 OVC017 11/08 A2980 RMK AO2 WSHFT 1011 FROPA P0003 T01060083=
202102050952 METAR KATL 050952Z 26006KT 3SM -RA BR BKN005 OVC010 11/10 A2979 RMK AO2 SLP087 P0005 T01110100=
202102050925 SPECI KATL 050925Z 27008KT 8SM -RA BKN007 BKN014 OVC028 11/10 A2978 RMK AO2 P0004 T01110100=
202102050908 SPECI KATL 050908Z 22007KT 7SM -RA FEW016 BKN028 OVC034 11/09 A2977 RMK AO2 P0003 T01110094 $=
202102050852 METAR KATL 050852Z 21008KT 7SM -RA SCT016 BKN032 OVC041 11/09 A2977 RMK AO2 SLP081 P0006 60006 T01110094 56008 $=
202102050752 METAR KATL 050752Z 22010G19KT 10SM -RA BKN019 OVC025 13/08 A2978 RMK AO2 RAB0654E07B50 SLP083 P0000 T01280078 $=
202102050652 METAR KATL 050652Z 20009G19KT 10SM BKN021 BKN030 12/05 A2978 RMK AO2 SLP085 T01170050=
202102050552 METAR KATL 050552Z 20010G20KT 10SM BKN023 BKN030 OVC050 11/02 A2980 RMK AO2 RAB43E52 SLP090 P0000 60000 T01110017 10117 20100 56020=
202102050452 METAR KATL 050452Z 19012G18KT 10SM BKN024 OVC150 11/M01 A2981 RMK AO2 SLP095 T01111006 401221011=
202102050352 METAR KATL 050352Z 18010G20KT 10SM FEW025 BKN055 BKN150 OVC200 11/M02 A2983 RMK AO2 SLP105 T01061022=
202102050252 METAR KATL 050252Z 17011KT 10SM SCT028 BKN065 BKN140 OVC200 10/M03 A2986 RMK AO2 SLP113 T01001028 58023=
202102050152 METAR KATL 050152Z 16006KT 10SM FEW038 SCT060 BKN140 OVC200 10/M03 A2990 RMK AO2 SLP128 T01001028=
202102050052 METAR KATL 050052Z 17004KT 10SM BKN040 BKN140 OVC200 10/M03 A2992 RMK AO2 SLP137 T01001033=
202102042352 METAR KATL 042352Z 16007KT 10SM FEW035 SCT130 OVC200 10/M03 A2993 RMK AO2 SLP139 T01001033 10122 20094 55007=
202102042252 METAR KATL 042252Z 16006KT 10SM SCT095 BKN140 OVC200 11/M04 A2992 RMK AO2 SLP137 VIRGA OHD-ALQDS T01061039=
202102042152 METAR KATL 042152Z 17009KT 10SM FEW110 BKN150 OVC180 12/M06 A2994 RMK AO2 SLP142 VIRGA OHD-ALQDS T01171061=
202102042052 METAR KATL 042052Z 16009KT 10SM FEW110 SCT150 OVC180 12/M06 A2995 RMK AO2 SLP146 VIRGA SE SW-NW ACC NE-E S-SW T01221056 58024=
202102041952 METAR KATL 041952Z 17006KT 10SM FEW120 SCT150 BKN200 OVC250 12/M06 A2998 RMK AO2 SLP156 VIRGA SE ACC N-E SW-W T01171056=
202102041852 METAR KATL 041852Z 16004KT 10SM SCT120 BKN150 OVC200 10/M06 A3000 RMK AO2 SLP162 VIRGA NW-N ACC SW-NW-NE T01001061=
202102041752 METAR KATL 041752Z 13006KT 10SM FEW140 BKN200 OVC250 09/M06 A3002 RMK AO2 SLP171 ACC DSNT N T00941056 10094 20000 58016=
202102041652 METAR KATL 041652Z 14005KT 10SM FEW150 BKN180 OVC250 08/M04 A3006 RMK AO2 SLP185 VIRGA W-N DSNT S-SW T00781044=
202102041552 METAR KATL 041552Z 14003KT 10SM SCT150 BKN200 OVC250 06/M04 A3008 RMK AO2 SLP190 T00611044=
202102041452 METAR KATL 041452Z 00000KT 10SM SCT150 BKN200 BKN250 04/M04 A3007 RMK AO2 SLP189 VIRGA DSNT N-NE T00391044 51008=
202102041352 METAR KATL 041352Z 00000KT 10SM SCT150 BKN220 OVC250 02/M04 A3006 RMK AO2 SLP187 BINOVC T00171044=
202102041252 METAR KATL 041252Z 00000KT 10SM SCT200 BKN250 01/M06 A3007 RMK AO2 SLP189 VIRGA NE T00061056=
202102041152 METAR KATL 041152Z 00000KT 10SM BKN250 00/M06 A3005 RMK AO2 SLP181 T00001061 10022 21011 57003=
202102041052 METAR KATL 041052Z 28003KT 10SM BKN250 M01/M06 A3005 RMK AO2 SLP181 T10061061=
202102040952 METAR KATL 040952Z 28003KT 10SM BKN250 01/M07 A3006 RMK AO2 SLP183 T00061067=
202102040852 METAR KATL 040852Z 30006KT 10SM SCT250 00/M07 A3006 RMK AO2 SLP183 T00001067 53005=
202102040752 METAR KATL 040752Z 30004KT 10SM FEW250 01/M07 A3005 RMK AO2 SLP179 T00061067=
202102040652 METAR KATL 040652Z 28006KT 10SM FEW250 01/M07 A3004 RMK AO2 SLP178 T00061067=
202102040552 METAR KATL 040552Z 27003KT 10SM FEW250 02/M07 A3004 RMK AO2 SLP179 T00221072 10061 20017 55006=
202102040452 METAR KATL 040452Z 00000KT 10SM SCT250 02/M08 A3004 RMK AO2 SLP179 T00221078 401061017=
202102040352 METAR KATL 040352Z 31004KT 10SM SCT250 02/M07 A3005 RMK AO2 SLP184 T00221067=
202102040252 METAR KATL 040252Z 31008KT 10SM SCT250 03/M07 A3006 RMK AO2 SLP187 T00331072 50003=
202102040152 METAR KATL 040152Z 30007KT 10SM FEW250 03/M07 A3006 RMK AO2 SLP189 T00331067=
202102040052 METAR KATL 040052Z 31007KT 10SM SCT250 05/M07 A3006 RMK AO2 SLP189 T00501072=
202102032352 METAR KATL 032352Z 32008KT 10SM SCT250 06/M08 A3005 RMK AO2 SLP184 T00611078 10106 20061 53011=
202102032252 METAR KATL 032252Z 31012KT 10SM BKN250 08/M08 A3003 RMK AO2 SLP176 T00831083=
202102032152 METAR KATL 032152Z 32009KT 10SM FEW250 10/M09 A3002 RMK AO2 SLP172 T01001089=
202102032052 METAR KATL 032052Z 33010G17KT 10SM FEW150 FEW250 11/M08 A3002 RMK AO2 SLP170 T01061083 56016=
202102031952 METAR KATL 031952Z 31013KT 10SM FEW150 FEW250 10/M08 A3002 RMK AO2 SLP171 T01001078 $=
202102031852 METAR KATL 031852Z 32013G21KT 10SM CLR 09/M07 A3004 RMK AO2 SLP177 T00891072=
202102031752 METAR KATL 031752Z 32011KT 10SM FEW250 07/M07 A3006 RMK AO2 SLP187 T00721067 10072 21017 58012 $=
202102031652 METAR KATL 031652Z 32008KT 10SM CLR 06/M07 A3009 RMK AO2 SLP197 T00561067 $=
202102031552 METAR KATL 031552Z 30011KT 10SM CLR 03/M07 A3010 RMK AO2 SLP202 T00331072 $=
202102031452 METAR KATL 031452Z 31015KT 10SM CLR 02/M07 A3010 RMK AO2 SLP201 T00171072 51017 $=
202102031352 METAR KATL 031352Z 32013KT 10SM CLR 00/M07 A3009 RMK AO2 SLP198 T00001072 $=
202102031252 METAR KATL 031252Z 31010KT 10SM CLR M02/M08 A3007 RMK AO2 SLP191 T10171078=
202102031152 METAR KATL 031152Z 31010G18KT 10SM CLR M02/M08 A3005 RMK AO2 SLP184 T10171078 10006 21017 53015=
202102031052 METAR KATL 031052Z 33010KT 10SM CLR M02/M08 A3003 RMK AO2 SLP176 T10171078 $=
202102030952 METAR KATL 030952Z 32015KT 10SM CLR M01/M08 A3002 RMK AO2 SLP171 T10111078 $=
202102030852 METAR KATL 030852Z 32012G18KT 10SM FEW030 M01/M07 A3000 RMK AO2 SLP167 T10111072 56001 $=
202102030752 METAR KATL 030752Z 32011KT 10SM FEW030 M01/M07 A3000 RMK AO2 SLP167 T10111072 $=
202102030652 METAR KATL 030652Z 32015KT 10SM FEW030 M01/M07 A3000 RMK AO2 SLP166 T10061067=
202102030552 METAR KATL 030552Z 33015KT 10SM CLR 01/M07 A3001 RMK AO2 SLP168 T00061067 10050 20006 55001=
202102030452 METAR KATL 030452Z 33014KT 10SM CLR 01/M07 A3000 RMK AO2 SLP167 T00111067 400830006=
202102030352 METAR KATL 030352Z 32012KT 10SM CLR 02/M07 A3001 RMK AO2 SLP169 T00171067=
202102030252 METAR KATL 030252Z 31011KT 10SM CLR 02/M07 A3001 RMK AO2 SLP170 T00221067 51008=
202102030152 METAR KATL 030152Z 31011KT 10SM CLR 03/M07 A3001 RMK AO2 SLP169 T00331072=
202102030052 METAR KATL 030052Z 31012KT 10SM CLR 04/M08 A3000 RMK AO2 SLP166 T00391078=
202102022352 METAR KATL 022352Z 31014KT 10SM CLR 04/M08 A2999 RMK AO2 SLP161 T00441083 10083 20044 53008 $=
202102022252 METAR KATL 022252Z 32019G25KT 10SM CLR 06/M09 A2997 RMK AO2 PK WND 32029/2209 SLP155 T00611089 $=
202102022152 METAR KATL 022152Z 31021G31KT 10SM CLR 07/M09 A2997 RMK AO2 PK WND 31031/2152 SLP152 T00721094=
202102022052 METAR KATL 022052Z 33016G25KT 10SM FEW250 07/M09 A2996 RMK AO2 PK WND 29029/2030 SLP151 T00721094 55009=
202102021952 METAR KATL 021952Z 32018G29KT 10SM FEW250 07/M10 A2996 RMK AO2 PK WND 33029/1858 SLP150 T00721100=
202102021852 METAR KATL 021852Z 33020G28KT 10SM CLR 07/M09 A2997 RMK AO2 PK WND 31032/1804 SLP153 T00671089=
202102021752 METAR KATL 021752Z 33017G33KT 10SM FEW055 06/M07 A2999 RMK AO2 PK WND 32033/1743 SLP161 T00561072 10056 20006 50002=
202102021652 METAR KATL 021652Z 33018G29KT 10SM FEW050 05/M06 A3000 RMK AO2 PK WND 31037/1603 SLP165 T00501061=
202102021552 METAR KATL 021552Z 32014G27KT 10SM FEW030 04/M06 A3000 RMK AO2 PK WND 33031/1521 SLP166 T00391056 $=
202102021452 METAR KATL 021452Z 32018G29KT 10SM SCT028 02/M05 A2998 RMK AO2 PK WND 31029/1448 SLP161 T00221050 51006 $=
202102021446 SPECI KATL 021446Z 32014G26KT 10SM SCT028 02/M05 A2998 RMK AO2 PK WND 33029/1424=
202102021352 METAR KATL 021352Z 33015G25KT 10SM BKN028 01/M05 A2998 RMK AO2 PK WND 35035/1316 SLP160 T00111050=
202102021252 METAR KATL 021252Z 33016G26KT 10SM BKN028 01/M05 A2998 RMK AO2 PK WND 32027/1206 SLP159 T00061050=
202102021152 METAR KATL 021152Z 32014G23KT 10SM BKN028 01/M05 A2997 RMK AO2 PK WND 34026/1132 SLP155 T00061050 10017 20006 53005=
202102021052 METAR KATL 021052Z 34012G23KT 10SM BKN025 01/M05 A2996 RMK AO2 PK WND 32026/0955 SLP153 T00111050=
202102020952 METAR KATL 020952Z 33018G26KT 10SM BKN027 01/M05 A2995 RMK AO2 PK WND 33032/0920 SLP150 T00111050=
202102020949 SPECI KATL 020949Z 33018G26KT 10SM BKN027 01/M05 A2995 RMK AO2 PK WND 33032/0920=
202102020852 METAR KATL 020852Z 33019G33KT 10SM BKN030 01/M06 A2995 RMK AO2 PK WND 33033/0843 SLP149 T00111056 56002=
202102020752 METAR KATL 020752Z 33020G29KT 10SM BKN031 02/M06 A2995 RMK AO2 PK WND 33036/0728 SLP150 T00171056=
202102020652 METAR KATL 020652Z 32016G27KT 10SM BKN034 02/M06 A2995 RMK AO2 PK WND 33035/0557 SLP148 T00171061=
202102020552 METAR KATL 020552Z 32016G23KT 10SM BKN036 BKN042 02/M06 A2996 RMK AO2 PK WND 32035/0506 SLP152 T00171061 10022 20017 58003=
202102020452 METAR KATL 020452Z 32018G26KT 10SM BKN036 02/M06 A2997 RMK AO2 PK WND 32031/0441 SLP156 T00221061 400830022=
202102020352 METAR KATL 020352Z 31014G25KT 10SM BKN037 02/M06 A2996 RMK AO2 PK WND 32034/0259 SLP153 T00221056=
202102020252 METAR KATL 020252Z 32021G31KT 10SM BKN030 OVC036 02/M04 A2997 RMK AO2 PK WND 33032/0216 SLP155 T00221044 51010=
202102020152 METAR KATL 020152Z 32014G27KT 10SM OVC026 02/M04 A2996 RMK AO2 PK WND 33033/0117 SLP153 T00221039=
202102020052 METAR KATL 020052Z 33020G31KT 10SM OVC025 02/M03 A2995 RMK AO2 PK WND 32035/0005 SLP148 T00221033=
202102012352 METAR KATL 012352Z 33021G32KT 10SM OVC022 02/M03 A2994 RMK AO2 PK WND 31036/2335 SLP145 T00221033 10039 20022 51013=
202102012252 METAR KATL 012252Z 31023G34KT 10SM OVC022 02/M03 A2993 RMK AO2 PK WND 32038/2211 SLP141 T00221028=
202102012152 METAR KATL 012152Z 32023G30KT 10SM OVC025 03/M03 A2991 RMK AO2 PK WND 31035/2056 SLP136 T00281028=
202102012052 METAR KATL 012052Z 32022G33KT 10SM OVC026 03/M03 A2990 RMK AO2 PK WND 33034/2014 SLP130 T00281033 55001=
202102012011 SPECI KATL 012011Z 32020G34KT 10SM OVC027 03/M03 A2989 RMK AO2 PK WND 33034/2009 BINOVC T00331033=
202102011952 METAR KATL 011952Z 32016G30KT 10SM OVC030 03/M03 A2989 RMK AO2 PK WND 32037/1901 SLP125 BINOVC T00331033=
202102011914 SPECI KATL 011914Z 32023G33KT 10SM OVC030 03/M03 A2989 RMK AO2 PK WND 32037/1901 BINOVC T00331033=
202102011852 METAR KATL 011852Z 32021G33KT 10SM OVC028 03/M03 A2989 RMK AO2 PK WND 32035/1824 SLP126 BINOVC T00331033=
202102011752 METAR KATL 011752Z 32020G30KT 10SM OVC026 04/M03 A2990 RMK AO2 PK WND 33031/1737 SLP129 BINOVC T00391028 10039 20022 58009=
202102011652 METAR KATL 011652Z 32022G32KT 10SM OVC027 03/M03 A2992 RMK AO2 PK WND 32032/1651 SLP137 T00281028=
202102011552 METAR KATL 011552Z 31019G39KT 10SM BKN026 OVC034 03/M03 A2993 RMK AO2 PK WND 31039/1544 SLP138 BINOVC T00331028=
202102011452 METAR KATL 011452Z 33014G29KT 10SM SCT025 BKN034 BKN065 03/M02 A2993 RMK AO2 PK WND 34031/1418 SLP138 T00331022 51008=
202102011352 METAR KATL 011352Z 32015G27KT 10SM FEW018 SCT027 BKN065 03/M02 A2992 RMK AO2 PK WND 32027/1347 SLP138 T00331017=
202102011301 SPECI KATL 011301Z 32019G25KT 10SM FEW019 BKN038 OVC065 02/M02 A2993 RMK AO2 T00221017=
202102011252 METAR KATL 011252Z 32017G26KT 10SM BKN019 BKN025 BKN055 02/M02 A2992 RMK AO2 PK WND 33030/1217 SLP138 T00221017=
