##########################################################
# Query made at 04/20/2024 00:15:54 UTC
# Time interval: from 04/01/2021 12:00  to 04/30/2021 12:59  UTC
##########################################################

##########################################################
# KATL, Atlanta, Hartsfield - Jackson Atlanta International Airport (United States)
# WMO index: 72219. WIGOS ID: 0-20000-0-72219
# Latitude 33-38-59N. Longitude 084-25-00W. Altitude 312 m.
##########################################################

202104301252 METAR KATL 301252Z 32009G17KT 10SM FEW015 SCT140 SCT200 BKN250 19/14 A3005 RMK AO2 SLP169 ACC OHD-W T01890144=
202104301152 METAR KATL 301152Z 31010KT 10SM CLR 18/14 A3003 RMK AO2 SLP164 60000 70008 T01780144 10206 20178 53011=
202104301052 METAR KATL 301052Z 32008KT 10SM FEW022 FEW150 BKN250 18/15 A3001 RMK AO2 SLP154 T01780150=
202104300952 METAR KATL 300952Z 33010KT 10SM FEW022 SCT055 18/16 A2999 RMK AO2 SLP149 T01830161=
202104300852 METAR KATL 300852Z 32010KT 10SM SCT020 SCT055 SCT075 19/17 A3000 RMK AO2 SLP150 60000 T01940172 50003=
202104300820 SPECI KATL 300820Z 31007KT 10SM FEW009 SCT020 BKN050 BKN150 20/18 A3000 RMK AO2 T02000178=
202104300752 METAR KATL 300752Z 30010KT 10SM SCT009 BKN020 OVC043 20/18 A3000 RMK AO2 RAB31E50 SLP152 P0000 T02000178=
202104300748 SPECI KATL 300748Z 31011KT 10SM -RA SCT009 BKN025 OVC040 20/18 A3000 RMK AO2 RAB31 P0000=
202104300652 METAR KATL 300652Z 28011KT 10SM SCT012 BKN025 BKN110 21/18 A2999 RMK AO2 SLP147 T02060183=
202104300552 METAR KATL 300552Z 27009KT 10SM FEW010 BKN080 BKN090 BKN250 20/18 A2999 RMK AO2 SLP147 60008 T02000183 10233 20200 58005=
202104300452 METAR KATL 300452Z 25007KT 10SM FEW025 BKN085 OVC150 21/18 A3001 RMK AO2 RAE42 SLP154 P0007 T02060183 402560183=
202104300352 METAR KATL 300352Z 26008KT 4SM -RA FEW015 BKN040 BKN070 OVC150 21/18 A3002 RMK AO2 RAB42 SLP157 P0001 T02110183=
202104300252 METAR KATL 300252Z 24011G18KT 10SM FEW032 SCT070 BKN150 BKN200 22/17 A3000 RMK AO2 SLP152 T02220172 53005=
202104300152 METAR KATL 300152Z 23007KT 10SM BKN150 BKN200 22/17 A3000 RMK AO2 SLP149 T02170172=
202104300052 METAR KATL 300052Z 22008KT 10SM BKN150 BKN250 23/17 A2998 RMK AO2 SLP146 T02280172=
202104292352 METAR KATL 292352Z 22007KT 10SM SCT150 BKN200 BKN250 23/17 A2999 RMK AO2 SLP148 ACC OHD-S T02330167 10256 20233 56005=
202104292252 METAR KATL 292252Z 24010KT 10SM FEW032 SCT055 BKN150 BKN250 24/17 A2999 RMK AO2 SLP149 ACC NW T02440167=
202104292152 METAR KATL 292152Z 21010KT 10SM FEW035 BKN200 OVC250 24/17 A2998 RMK AO2 SLP146 T02440167=
202104292052 METAR KATL 292052Z 23010KT 10SM FEW036 FEW065 BKN180 OVC250 24/17 A3000 RMK AO2 SLP152 T02440167 56018=
202104291952 METAR KATL 291952Z 25011G20KT 10SM FEW038 FEW150 BKN200 BKN250 24/16 A3002 RMK AO2 SLP157 T02440161=
202104291852 METAR KATL 291852Z 25011G18KT 10SM FEW036 FEW150 BKN200 OVC250 26/16 A3004 RMK AO2 SLP164 T02560161=
202104291752 METAR KATL 291752Z 27010G18KT 10SM SCT036 SCT140 BKN200 BKN250 25/17 A3006 RMK AO2 SLP171 T02500167 10250 20189 50008=
202104291652 METAR KATL 291652Z 26010G20KT 10SM FEW036 FEW110 SCT140 BKN200 24/16 A3008 RMK AO2 SLP177 VIRGA SE-S T02440161=
202104291552 METAR KATL 291552Z 25010G21KT 10SM FEW038 SCT110 BKN150 OVC200 23/14 A3006 RMK AO2 SLP172 VIRGA N-OHD-S ACC NE-SE T02280144=
202104291452 METAR KATL 291452Z 23013G20KT 10SM FEW036 FEW110 SCT150 OVC200 23/15 A3003 RMK AO2 SLP162 ACC W-NW T02330150 50007=
202104291352 METAR KATL 291352Z 23006KT 10SM FEW110 SCT140 BKN200 BKN250 23/16 A3004 RMK AO2 SLP163 T02280161=
202104291252 METAR KATL 291252Z 26007KT 10SM FEW035 SCT120 SCT180 OVC250 21/16 A3003 RMK AO2 SLP162 T02060161=
202104291152 METAR KATL 291152Z 23003KT 10SM SCT180 BKN250 19/16 A3001 RMK AO2 SLP155 T01890161 10206 20183 53011=
202104291052 METAR KATL 291052Z 22005KT 10SM FEW150 SCT180 BKN250 18/16 A2999 RMK AO2 SLP148 T01830156=
202104290952 METAR KATL 290952Z 22005KT 10SM FEW180 BKN250 19/16 A2999 RMK AO2 SLP146 T01890156=
202104290852 METAR KATL 290852Z 20007KT 10SM FEW150 SCT200 BKN250 19/16 A2998 RMK AO2 SLP143 T01940156 56013=
202104290752 METAR KATL 290752Z 19007KT 10SM FEW150 BKN200 BKN250 20/16 A2999 RMK AO2 SLP146 T02000156=
202104290652 METAR KATL 290652Z 20007KT 10SM FEW140 BKN180 BKN210 20/16 A3000 RMK AO2 SLP150 T02000156=
202104290552 METAR KATL 290552Z 19007KT 10SM SCT180 BKN250 20/16 A3002 RMK AO2 SLP156 T02000156 10250 20200 56017=
202104290452 METAR KATL 290452Z 20004KT 10SM SCT180 SCT250 20/16 A3003 RMK AO2 SLP161 T02000156 402780183=
202104290352 METAR KATL 290352Z 19003KT 10SM FEW200 SCT250 21/15 A3005 RMK AO2 SLP166 T02110150=
202104290252 METAR KATL 290252Z 00000KT 10SM FEW200 SCT250 22/15 A3007 RMK AO2 SLP174 T02170150 51008=
202104290152 METAR KATL 290152Z 22003KT 10SM FEW150 SCT200 BKN250 23/15 A3006 RMK AO2 SLP172 T02280150=
202104290052 METAR KATL 290052Z 23003KT 10SM FEW150 SCT200 BKN250 24/14 A3006 RMK AO2 SLP172 T02390144=
202104282352 METAR KATL 282352Z 21006KT 10SM FEW060 SCT200 BKN250 25/14 A3005 RMK AO2 SLP166 T02500139 10278 20250 55003=
202104282252 METAR KATL 282252Z 22006KT 10SM FEW060 SCT200 BKN250 26/14 A3004 RMK AO2 SLP165 T02610139=
202104282152 METAR KATL 282152Z 22009KT 10SM SCT060 SCT200 BKN250 26/14 A3004 RMK AO2 SLP165 T02610139=
202104282052 METAR KATL 282052Z 21012KT 10SM FEW060 SCT200 BKN250 27/14 A3006 RMK AO2 SLP168 T02670139 57021=
202104281952 METAR KATL 281952Z 23009G20KT 10SM SCT055 SCT200 BKN250 27/15 A3007 RMK AO2 SLP174 T02720150=
202104281852 METAR KATL 281852Z 21007KT 10SM SCT050 SCT180 BKN250 27/14 A3010 RMK AO2 SLP185 T02720144=
202104281752 METAR KATL 281752Z 23007KT 10SM SCT050 SCT150 BKN250 26/15 A3012 RMK AO2 SLP190 T02610150 10278 20183 58011=
202104281652 METAR KATL 281652Z 23007G14KT 10SM SCT044 BKN160 BKN200 BKN250 26/15 A3014 RMK AO2 SLP197 T02610150=
202104281552 METAR KATL 281552Z 23009G16KT 10SM FEW039 SCT160 BKN200 BKN250 26/15 A3015 RMK AO2 SLP201 T02560150=
202104281452 METAR KATL 281452Z 22007KT 10SM FEW070 FEW140 SCT200 SCT250 24/16 A3015 RMK AO2 SLP203 T02390156 51004=
202104281352 METAR KATL 281352Z 17004KT 10SM SCT140 BKN200 BKN250 22/16 A3015 RMK AO2 SLP201 T02220161=
202104281252 METAR KATL 281252Z 18005KT 10SM FEW012 FEW045 SCT150 SCT180 BKN220 19/16 A3016 RMK AO2 SLP204 T01940156=
202104281152 METAR KATL 281152Z 20003KT 10SM FEW045 SCT150 BKN180 BKN250 19/16 A3014 RMK AO2 SLP200 T01890156 10200 20183 53011=
202104281052 METAR KATL 281052Z 00000KT 10SM FEW045 BKN150 OVC180 18/15 A3011 RMK AO2 SLP187 VIRGA OHD-ALQDS T01830150=
202104280952 METAR KATL 280952Z 13004KT 10SM CLR 19/15 A3009 RMK AO2 SLP182 T01890150=
202104280852 METAR KATL 280852Z 22007KT 10SM FEW050 SCT180 BKN220 19/15 A3011 RMK AO2 SLP187 T01940150 55002=
202104280752 METAR KATL 280752Z 00000KT 10SM SCT180 BKN250 19/15 A3010 RMK AO2 SLP183 T01940150=
202104280652 METAR KATL 280652Z 19005KT 10SM BKN200 BKN250 20/15 A3009 RMK AO2 SLP181 T02000150=
202104280552 METAR KATL 280552Z 20005KT 10SM BKN220 20/15 A3011 RMK AO2 SLP189 T02000150 10244 20194 56007=
202104280452 METAR KATL 280452Z 20005KT 10SM BKN200 BKN250 19/16 A3012 RMK AO2 SLP191 T01940156 402720150=
202104280352 METAR KATL 280352Z 18004KT 10SM BKN200 BKN250 21/16 A3013 RMK AO2 SLP194 T02060156=
202104280252 METAR KATL 280252Z 20004KT 10SM FEW055 BKN200 OVC250 22/15 A3013 RMK AO2 SLP196 T02170150 53014=
202104280152 METAR KATL 280152Z 19004KT 10SM FEW055 BKN200 OVC250 22/15 A3012 RMK AO2 SLP192 T02220150=
202104280052 METAR KATL 280052Z 17004KT 10SM BKN200 OVC250 23/14 A3010 RMK AO2 SLP187 T02330144=
202104272352 METAR KATL 272352Z 19004KT 10SM FEW050 BKN200 OVC250 24/14 A3009 RMK AO2 SLP184 T02440144 10272 20244 58004=
202104272252 METAR KATL 272252Z 19008KT 10SM FEW050 SCT200 BKN250 26/13 A3009 RMK AO2 SLP185 T02560133=
202104272152 METAR KATL 272152Z 20007KT 10SM SCT050 BKN200 BKN250 27/14 A3010 RMK AO2 SLP187 T02670139=
202104272052 METAR KATL 272052Z 22008KT 10SM SCT050 BKN200 BKN250 26/13 A3011 RMK AO2 SLP187 T02610133 58016=
202104271952 METAR KATL 271952Z 22008KT 10SM SCT055 SCT200 BKN250 27/14 A3012 RMK AO2 SLP191 T02720139=
202104271852 METAR KATL 271852Z 23008KT 10SM SCT050 BKN200 BKN250 26/14 A3014 RMK AO2 SLP200 T02610144=
202104271752 METAR KATL 271752Z 21006KT 10SM SCT046 BKN200 BKN250 25/14 A3015 RMK AO2 SLP204 T02500144 10256 20161 58010=
202104271652 METAR KATL 271652Z 18007KT 10SM SCT046 SCT200 BKN250 25/14 A3017 RMK AO2 SLP208 T02500144=
202104271552 METAR KATL 271552Z 19008KT 10SM FEW050 SCT200 BKN250 24/14 A3018 RMK AO2 SLP212 T02390144=
202104271452 METAR KATL 271452Z 21009G16KT 10SM FEW140 SCT200 BKN250 23/14 A3018 RMK AO2 SLP214 T02280139 58003=
202104271352 METAR KATL 271352Z 20008KT 10SM FEW200 SCT250 21/14 A3019 RMK AO2 SLP219 T02060144=
202104271252 METAR KATL 271252Z 18007KT 10SM FEW200 SCT250 18/13 A3020 RMK AO2 SLP220 T01780133=
202104271152 METAR KATL 271152Z 15003KT 10SM FEW200 BKN250 16/13 A3019 RMK AO2 SLP218 T01610128 10172 20150 51018=
202104271052 METAR KATL 271052Z 00000KT 10SM FEW200 SCT250 16/12 A3018 RMK AO2 SLP213 T01560122=
202104270952 METAR KATL 270952Z 16004KT 10SM FEW200 BKN250 16/12 A3015 RMK AO2 SLP205 T01560122=
202104270852 METAR KATL 270852Z 16004KT 10SM FEW200 BKN250 16/12 A3014 RMK AO2 SLP199 T01560122 53005=
202104270752 METAR KATL 270752Z 13003KT 10SM FEW200 BKN250 17/12 A3013 RMK AO2 SLP196 T01670122=
202104270652 METAR KATL 270652Z 00000KT 10SM FEW200 BKN250 17/12 A3013 RMK AO2 SLP197 T01670122=
202104270552 METAR KATL 270552Z 14004KT 10SM BKN250 17/12 A3012 RMK AO2 SLP194 T01720122 10233 20172 50001=
202104270452 METAR KATL 270452Z 13003KT 10SM BKN250 18/12 A3013 RMK AO2 SLP195 T01780122 402560111=
202104270352 METAR KATL 270352Z 15004KT 10SM FEW200 BKN250 19/12 A3012 RMK AO2 SLP195 T01890122=
202104270252 METAR KATL 270252Z 14005KT 10SM SCT200 BKN250 19/12 A3012 RMK AO2 SLP193 T01940122 51010=
202104270152 METAR KATL 270152Z 14004KT 10SM BKN250 21/12 A3012 RMK AO2 SLP192 T02060117=
202104270052 METAR KATL 270052Z 14005KT 10SM FEW200 BKN250 22/12 A3010 RMK AO2 SLP186 T02170117=
202104262352 METAR KATL 262352Z 17006KT 10SM FEW200 BKN250 23/11 A3009 RMK AO2 SLP184 T02330111 10256 20228 51001=
202104262252 METAR KATL 262252Z 15007KT 10SM FEW200 BKN250 25/11 A3009 RMK AO2 SLP183 T02500111=
202104262152 METAR KATL 262152Z 14007KT 10SM FEW200 BKN250 25/11 A3009 RMK AO2 SLP185 T02500106=
202104262052 METAR KATL 262052Z 16008KT 10SM SCT200 BKN250 25/11 A3009 RMK AO2 SLP183 T02500111 58015=
202104261952 METAR KATL 261952Z 17007KT 10SM FEW075 SCT200 BKN250 24/11 A3011 RMK AO2 SLP190 T02440111=
202104261852 METAR KATL 261852Z 17006KT 10SM FEW070 SCT200 BKN250 24/11 A3012 RMK AO2 SLP196 T02390106=
202104261752 METAR KATL 261752Z 12009KT 10SM FEW065 SCT200 SCT250 24/11 A3013 RMK AO2 SLP198 T02390111 10239 20128 58008=
202104261652 METAR KATL 261652Z 16009KT 10SM FEW060 SCT200 SCT250 22/10 A3015 RMK AO2 SLP207 T02220100=
202104261552 METAR KATL 261552Z 11008G16KT 10SM SCT200 SCT250 21/09 A3016 RMK AO2 SLP208 T02110094=
202104261452 METAR KATL 261452Z 12007G16KT 10SM SCT200 BKN250 19/08 A3016 RMK AO2 SLP208 T01940083 51017=
202104261352 METAR KATL 261352Z 11012KT 10SM FEW200 SCT250 18/08 A3014 RMK AO2 SLP203 T01780078=
202104261252 METAR KATL 261252Z 09009KT 10SM FEW200 FEW250 15/08 A3013 RMK AO2 SLP201 T01500078=
202104261152 METAR KATL 261152Z 09007KT 10SM FEW200 FEW250 13/07 A3011 RMK AO2 SLP193 T01280072 10133 20111 53021=
202104261052 METAR KATL 261052Z 08007KT 10SM FEW200 12/07 A3008 RMK AO2 SLP185 T01170072=
202104260952 METAR KATL 260952Z 09007KT 10SM CLR 11/07 A3005 RMK AO2 SLP175 T01110067=
202104260852 METAR KATL 260852Z 06006KT 10SM CLR 13/07 A3004 RMK AO2 SLP170 T01280072 53001=
202104260752 METAR KATL 260752Z 04006KT 10SM CLR 13/07 A3004 RMK AO2 SLP168 T01330067=
202104260652 METAR KATL 260652Z 36004KT 10SM CLR 13/07 A3003 RMK AO2 SLP166 T01330067=
202104260552 METAR KATL 260552Z 34005KT 10SM CLR 12/07 A3004 RMK AO2 SLP169 T01220072 10178 20122 55000=
202104260452 METAR KATL 260452Z 33003KT 10SM CLR 13/07 A3004 RMK AO2 SLP168 T01330072 402170128=
202104260352 METAR KATL 260352Z 31004KT 10SM CLR 14/07 A3004 RMK AO2 SLP169 T01390072=
202104260252 METAR KATL 260252Z 32005KT 10SM CLR 14/07 A3004 RMK AO2 SLP170 T01440072 51015=
202104260152 METAR KATL 260152Z 33007KT 10SM CLR 16/07 A3003 RMK AO2 SLP168 T01560072=
202104260052 METAR KATL 260052Z 32007KT 10SM CLR 16/07 A3001 RMK AO2 SLP160 T01610067=
202104252352 METAR KATL 252352Z 34012KT 10SM CLR 18/07 A3000 RMK AO2 SLP156 T01780067 10217 20178 53009=
202104252252 METAR KATL 252252Z 32015G24KT 10SM CLR 19/07 A2999 RMK AO2 SLP151 T01890072=
202104252152 METAR KATL 252152Z 31014G21KT 10SM CLR 20/08 A2998 RMK AO2 SLP148 T02000083=
202104252052 METAR KATL 252052Z 33015G23KT 10SM FEW050 21/08 A2997 RMK AO2 PK WND 31027/2022 SLP144 T02060083 56003=
202104251952 METAR KATL 251952Z 33015G22KT 10SM FEW050 21/08 A2998 RMK AO2 SLP148 T02060083=
202104251852 METAR KATL 251852Z 31012G22KT 10SM FEW045 21/09 A2997 RMK AO2 SLP144 T02110094=
202104251752 METAR KATL 251752Z 34012G18KT 10SM FEW045 21/10 A2998 RMK AO2 SLP147 T02110100 10211 20128 51008=
202104251652 METAR KATL 251652Z 34012G17KT 10SM FEW042 19/10 A2998 RMK AO2 SLP148 T01940100=
202104251552 METAR KATL 251552Z 33013G22KT 10SM FEW029 18/09 A2998 RMK AO2 SLP148 T01830089=
202104251452 METAR KATL 251452Z 35013G22KT 10SM FEW027 17/09 A2996 RMK AO2 PK WND 32027/1356 SLP141 T01720089 51021=
202104251352 METAR KATL 251352Z 32016G23KT 10SM FEW017 SCT028 16/09 A2994 RMK AO2 PK WND 34029/1332 SLP137 T01560089=
202104251252 METAR KATL 251252Z 32016G24KT 10SM FEW018 FEW028 14/09 A2991 RMK AO2 PK WND 32027/1153 SLP126 T01390089=
202104251219 SPECI KATL 251219Z 33014G25KT 10SM SCT027 13/08 A2990 RMK AO2 PK WND 32027/1153 T01330083=
202104251152 METAR KATL 251152Z 32015G24KT 10SM BKN023 13/09 A2989 RMK AO2 SLP118 60000 70277 T01280089 10150 20128 53025=
202104251052 METAR KATL 251052Z 33014G22KT 10SM BKN021 BKN027 13/09 A2985 RMK AO2 SLP104 T01280094=
202104250952 METAR KATL 250952Z 32012KT 10SM BKN021 BKN035 13/10 A2983 RMK AO2 SLP099 T01280100=
202104250852 METAR KATL 250852Z 32013G23KT 10SM BKN019 BKN025 BKN030 13/10 A2982 RMK AO2 PK WND 32026/0818 SLP091 60000 T01330100 53011 $=
202104250847 SPECI KATL 250847Z 32015G23KT 10SM BKN019 BKN025 OVC030 13/10 A2981 RMK AO2 PK WND 32026/0818 $=
202104250752 METAR KATL 250752Z 31012G19KT 10SM BKN014 BKN021 BKN050 13/11 A2979 RMK AO2 SLP082 T01330111 $=
202104250749 SPECI KATL 250749Z 31013KT 10SM BKN014 BKN021 BKN050 13/12 A2979 RMK AO2 $=
202104250731 SPECI KATL 250731Z 30012G21KT 10SM SCT014 BKN021 BKN055 14/12 A2979 RMK AO2 T01390117 $=
202104250724 SPECI KATL 250724Z 30014G22KT 10SM BKN014 BKN021 OVC055 14/12 A2978 RMK AO2 T01390117 $=
202104250652 METAR KATL 250652Z 30015KT 10SM FEW008 BKN032 BKN048 14/12 A2978 RMK AO2 PK WND 27028/0635 RAB28E46 SLP079 P0000 T01390117 $=
202104250640 SPECI KATL 250640Z 30017G28KT 5SM -RA BR FEW008 BKN026 OVC048 14/12 A2979 RMK AO2 PK WND 27028/0635 RAB28 P0000 T01440122 $=
202104250552 METAR KATL 250552Z 29010KT 10SM FEW008 BKN050 15/13 A2977 RMK AO2 SLP077 60066 T01500133 10189 20139 53012 $=
202104250452 METAR KATL 250452Z 29012KT 10SM FEW010 SCT023 BKN055 16/13 A2977 RMK AO2 SLP075 T01560133 402560122 $=
202104250352 METAR KATL 250352Z 26006KT 10SM CLR 14/13 A2974 RMK AO2 SLP068 T01440133 $=
202104250252 METAR KATL 250252Z 30007KT 10SM SCT070 BKN090 BKN150 15/13 A2974 RMK AO2 SLP067 60066 T01500133 53014 $=
202104250152 METAR KATL 250152Z 20005KT 10SM FEW035 SCT060 SCT080 BKN150 BKN250 14/13 A2970 RMK AO2 SLP054 LTG DSNT SE RAE11 TSE25 CB DSNT E-SE P0004 T01440128 $=
202104250126 SPECI KATL 250126Z 21006KT 10SM FEW035 SCT060 SCT090 BKN150 BKN200 BKN250 14/14 A2969 RMK AO2 LTG DSNT NE-S RAE11 TSE25 TS MOV NE CB DSNT NE-S P0004 T01440139 $=
202104250059 SPECI KATL 250059Z 24009G16KT 5SM -TSRA BR SCT012 BKN020CB OVC045 14/14 A2969 RMK AO2 LTG DSNT ALQDS CONS LTGICCCCGCA OHD & ALQDS TS OHD & ALQDS MOV E CB DSNT ALQDS P0001 T01440139 $=
202104250052 METAR KATL 250052Z 29007G44KT 1SM R09R/2400VP6000FT +TSRAGR BR SCT012 OVC020CB 14/13 A2968 RMK AO2 PK WND 28066/0041 SLP047 RAB35GRB43E47 TSB22 GR 3/4 CONS LTGICCCCGCA ALQDS TS ALQDS MOV E P0062 T01440133 $=
202104250047 SPECI KATL 250047Z 20010G22KT 0SM R09R/1600VP6000FT +TSRAGR FG SCT012 OVC020CB 14/13 A2969 RMK AO2 PK WND 28066/0041 RAB35GRB43 TSB22 GR 3/4 CONS LTGICCCCGCA OHD & ALQDS TS OHD & ALQDS MOV E P0055 $=
202104250041 SPECI KATL 250041Z COR 20010G22KT 2SM R09R/1800VP6000FT TSRA BR FEW012 BKN020CB BKN045 OVC250 16/14 A2972 RMK AO2 PK WND 28066/0041 RAB37 TSB22 PRESRR CONS LTGICCCCGCA OHD & ALQDS TS OHD AND ALQDS MOV E=
202104250023 SPECI KATL 250023Z 19006KT 10SM TS FEW012 SCT020CB SCT045TCU BKN250 18/16 A2965 RMK AO2 TSB22 LTG DSNT SW CONS LTGICCCCG W-NW TS W-NW MOV E TCU SW CB DSNT E AND SW T01830156 $=
202104242352 METAR KATL 242352Z 20009KT 10SM FEW012 FEW025 SCT035 BKN250 19/16 A2964 RMK AO2 SLP032 LTG SW-NW CB DSNT ALQDS TCU SE & SW 60093 T01890161 10256 20161 58008 $=
202104242252 METAR KATL 242252Z 19009G17KT 10SM FEW012 SCT028 BKN040 BKN150 BKN250 19/16 A2966 RMK AO2 PK WND 32030/2225 RAE2155B17E46 TSB17E45 SLP041 LTG DSNT N & SE-SW TS MOV E CB DSNT N & SE-SW P0020 T01890156 $=
202104242246 SPECI KATL 242246Z 24008KT 10SM FEW012 SCT028CB BKN040 BKN150 BKN250 19/16 A2967 RMK AO2 PK WND 32030/2225 RAE2155B17E46 TSB17E45 LTG DSNT N & SE-SW TS MOV E CB DSNT N & SE-SW P0020 $=
202104242233 SPECI KATL 242233Z COR 28017G30KT 1 1/4SM R09R/3000VP6000FT TSRA BR FEW010 BKN028CB BKN050 OVC150 19/14 A2967 RMK AO2 PK WND 32030/2225 RAE2155B17 TSB17 PRESRR LTG DSNT NE-SE-SW OCNL LTGICCG OHD TS OHD MOV E CB DSNT NE-SE-SW P0016=
202104242224 SPECI KATL 242224Z 35017G27KT 2SM R09R/5000VP6000FT -TSRA BR FEW010 SCT028CB BKN050 OVC150 18/16 A2966 RMK AO2 PK WND 35027/2224 RAE2155B17 TSB17 LTG DSNT SE-SW OCNL LTGIC OHD TS OHD MOV E CB DSNT SE-SW P0001 T01830161 $=
202104242217 SPECI KATL 242217Z 32004KT 10SM -TSRA FEW010 SCT028CB BKN100 BKN150 BKN250 18/16 A2965 RMK AO2 LTG DSNT S-W RAE2155B17 TSB17 OCNL LTGIC OHD-W TS OHD-W MOV E CB DSNT S-SW P0000 T01780156 $=
202104242152 METAR KATL 242152Z 22005KT 6SM RA BR FEW010 SCT020 BKN060 BKN150 BKN250 18/16 A2966 RMK AO2 PK WND 28032/2109 WSHFT 2104 SLP041 RAB04E28B36 GRB05E11 TSB05E35 LTG DSNT NE & SE & NW CB DSNT NE & SE & NW P0073 T01830156 $=
202104242143 SPECI KATL 242143Z COR 26009KT 4SM R09R/6000VP6000FT RA BR FEW010 SCT020 BKN090 BKN150 BKN250 18/16 A2968 RMK AO2 PK WND 28032/2109 WSHFT 2104 LTG DSNT NW & NE & SE RAB04E28B36 GRB05E11 TSB05E35=
202104242125 SPECI KATL 242125Z 28009G26KT 7SM -TSRA BKN016CB BKN065 OVC090 18/15 A2966 RMK AO2 PK WND 28032/2109 WSHFT 2104 RAB04GRB05E11 OCNL LTGICCG NE AND W TS NE AND W MOV NE P0063 T01780150 $=
202104242123 SPECI KATL 242123Z 28009G26KT 1 1/4SM R09R/4000VP6000FT +TSRA BKN016CB BKN065 OVC090 18/14 A2966 RMK AO2 PK WND 28032/2109 WSHFT 2104 RAB04GRB05E11 OCNL LTGICCG OHD-NE TS OHD-NE MOV NE P0063 T01780144 $=
202104242109 SPECI KATL 242109Z 28024G32KT 0SM R09R/0700VP6000FT +TSRAGR BKN019CB OVC035 19/15 A2968 RMK AO2 PK WND 28032/2109 RAB04GRB09 TSB05 GR 1/2 OCNL LTGICCG S-SW MOV NE TS S-SW MOV NE P0035 T01940150=
202104242106 SPECI KATL 242106Z 24012G19KT 190V300 7SM R09R/0700VP6000FT -TSRA SCT035CB BKN065 BKN090 BKN150 BKN250 23/15 A2964 RMK AO2 RAB04 TSB05 OCNL LTGICCG S-SW MOV NE TS S-SW MOV NE P0000 T02280150=
202104242052 METAR KATL 242052Z 18007KT 10SM SCT036 BKN060 BKN150 BKN250 24/14 A2966 RMK AO2 LTG DSNT SW PRESFR SLP038 CB DSNT SW 60000 T02390144 58023=
202104241952 METAR KATL 241952Z 24011G18KT 10SM SCT026 SCT035 BKN055 BKN150 26/15 A2971 RMK AO2 SLP054 T02560150=
202104241852 METAR KATL 241852Z 00000KT 10SM SCT015 SCT023 BKN032 BKN150 23/17 A2973 RMK AO2 RAE02 SLP061 P0000 T02280167=
202104241815 SPECI KATL 241815Z 18006KT 10SM SCT028 SCT036 BKN150 21/17 A2974 RMK AO2 RAE02 P0000 T02110167=
202104241752 METAR KATL 241752Z 18003KT 8SM -RA SCT018 BKN027 OVC034 20/16 A2973 RMK AO2 RAB50 SLP063 P0000 60118 T02000161 10200 20128 58029=
202104241708 SPECI KATL 241708Z 21006KT 7SM SCT010 BKN017 OVC027 19/17 A2978 RMK AO2 T01890167=
202104241652 METAR KATL 241652Z 21007KT 5SM BR BKN012 BKN019 OVC027 18/17 A2980 RMK AO2 RAB07E29 SLP085 P0001 T01830167=
202104241552 METAR KATL 241552Z 17008KT 5SM BR SCT008 BKN012 OVC024 17/15 A2982 RMK AO2 SLP092 T01720150=
202104241533 SPECI KATL 241533Z 18008KT 5SM BR SCT008 OVC012 17/15 A2982 RMK AO2 T01670150=
202104241452 METAR KATL 241452Z 15008KT 4SM BR BKN006 OVC014 16/14 A2982 RMK AO2 RAE29 SLP095 P0008 60117 T01560139 56029=
202104241438 SPECI KATL 241438Z 15009KT 4SM BR SCT004 BKN009 OVC020 15/14 A2980 RMK AO2 RAE29 P0008 T01500139=
202104241424 SPECI KATL 241424Z 17006G20KT 4SM -RA BR BKN004 BKN013 OVC022 14/13 A2981 RMK AO2 P0008 T01440133=
202104241352 METAR KATL 241352Z 11010KT 2SM RA BR BKN004 OVC014 14/13 A2983 RMK AO2 SLP096 CB DSNT SE P0043 T01390128=
202104241252 METAR KATL 241252Z 11011KT 2SM +RA BR BKN004 OVC015 13/12 A2987 RMK AO2 SLP114 CIG 003V006 P0066 T01330122 $=
202104241248 SPECI KATL 241248Z 11011KT 2SM +RA BR OVC004 13/12 A2988 RMK AO2 CIG 003V006 P0063 $=
202104241224 SPECI KATL 241224Z 11009KT 1 1/2SM R09R/6000VP6000FT +RA BR BKN004 OVC014 13/12 A2989 RMK AO2 CIG 003V006 P0039 T01280117 $=
202104241213 SPECI KATL 241213Z 10010KT 2 1/2SM RA BR BKN004 OVC014 13/12 A2989 RMK AO2 CIG 003V006 P0029 T01280117 $=
202104241157 SPECI KATL 241157Z 11009G15KT 1 1/2SM R09R/5500VP6000FT +RA BR OVC004 13/12 A2991 RMK AO2 CIG 003V006 P0006 T01280117 $=
202104241152 METAR KATL 241152Z 10009G15KT 2SM +RA BR OVC004 13/12 A2991 RMK AO2 SLP125 CIG 003V006 P0025 60041 70041 T01280117 10156 20122 56022 $=
202104241129 SPECI KATL 241129Z 09006KT 2SM RA BR BKN005 OVC014 12/11 A2992 RMK AO2 CIG 004V007 P0010 T01220111 $=
202104241052 METAR KATL 241052Z 09011KT 4SM RA BR BKN009 BKN035 OVC060 12/11 A2992 RMK AO2 RAB0953 SLP128 P0016 T01220106=
202104241050 SPECI KATL 241050Z 09011KT 3SM RA BR BKN009 BKN035 OVC042 12/11 A2992 RMK AO2 RAB0953 P0015=
202104241029 SPECI KATL 241029Z 11006KT 3SM RA BR FEW012 BKN042 OVC055 12/10 A2994 RMK AO2 RAB0953 P0007 T01220100=
202104240952 METAR KATL 240952Z 11007KT 10SM FEW055 OVC080 13/09 A2995 RMK AO2 SLP136 T01330089=
202104240852 METAR KATL 240852Z 12005KT 10SM FEW050 OVC095 14/07 A2998 RMK AO2 RAB02E16 SLP146 P0000 60000 T01390072 56017=
202104240752 METAR KATL 240752Z 11008KT 10SM OVC095 14/07 A2999 RMK AO2 RAB14E25 SLP150 P0000 T01440067=
202104240652 METAR KATL 240652Z 12008KT 10SM BKN110 OVC180 16/04 A3000 RMK AO2 SLP154 T01560039=
202104240552 METAR KATL 240552Z 11010KT 10SM BKN120 OVC200 16/03 A3003 RMK AO2 SLP164 VIRGA OHD-NW-NE T01560033 10189 20156 58018=
202104240452 METAR KATL 240452Z 11006KT 10SM BKN140 OVC200 16/03 A3006 RMK AO2 SLP176 T01610033 402110072=
202104240352 METAR KATL 240352Z 13005KT 10SM BKN150 BKN200 OVC250 17/03 A3005 RMK AO2 SLP175 T01670033=
202104240252 METAR KATL 240252Z 12007KT 10SM BKN150 OVC200 17/03 A3008 RMK AO2 SLP184 T01720033 50004=
202104240152 METAR KATL 240152Z 13005KT 10SM BKN180 OVC250 18/03 A3008 RMK AO2 SLP184 T01780033=
202104240052 METAR KATL 240052Z 15004KT 10SM FEW150 SCT200 BKN250 17/03 A3008 RMK AO2 SLP184 T01720033=
202104232352 METAR KATL 232352Z 17005KT 10SM FEW150 BKN200 BKN250 19/03 A3007 RMK AO2 SLP180 T01890028 10211 20183 56015=
202104232252 METAR KATL 232252Z 19007KT 10SM FEW140 SCT200 BKN250 20/02 A3008 RMK AO2 SLP184 T02000022=
202104232152 METAR KATL 232152Z 15006KT 10SM FEW140 SCT200 BKN250 21/03 A3010 RMK AO2 SLP190 T02110028=
202104232052 METAR KATL 232052Z 14007KT 10SM FEW075 FEW140 SCT200 BKN250 21/02 A3012 RMK AO2 SLP196 ACC S-SW T02060022 58022=
202104231952 METAR KATL 231952Z 15008KT 10SM FEW075 FEW140 SCT200 BKN250 21/03 A3014 RMK AO2 SLP203 ACC S SW T02110028=
202104231852 METAR KATL 231852Z 19007KT 10SM FEW070 FEW140 SCT200 BKN250 19/01 A3017 RMK AO2 SLP214 ACC SE-SW T01940011=
202104231752 METAR KATL 231752Z 14006KT 10SM FEW120 SCT200 BKN250 19/02 A3018 RMK AO2 SLP220 ACC N-NE SE-SW NW T01890022 10189 20100 58015=
202104231652 METAR KATL 231652Z 13008KT 10SM FEW070 FEW110 SCT200 BKN250 17/01 A3021 RMK AO2 SLP227 ACC NE W NW T01670011=
202104231552 METAR KATL 231552Z 12005KT 10SM SCT110 BKN200 BKN250 14/00 A3024 RMK AO2 SLP239 VIRGA N-NE ACC NW T01440000=
202104231452 METAR KATL 231452Z 10006KT 10SM FEW075 BKN110 OVC200 14/01 A3023 RMK AO2 SLP236 ACC DSNT E T01390006 51013=
202104231352 METAR KATL 231352Z 12008KT 10SM FEW075 BKN100 BKN200 OVC250 12/01 A3022 RMK AO2 SLP233 T01170006=
202104231252 METAR KATL 231252Z 09006KT 10SM BKN100 BKN160 BKN210 BKN250 12/03 A3021 RMK AO2 SLP231 T01170028=
202104231152 METAR KATL 231152Z 00000KT 10SM BKN110 BKN170 BKN250 10/03 A3019 RMK AO2 SLP223 T01000028 10100 20072 53012=
202104231052 METAR KATL 231052Z 12004KT 10SM FEW080 BKN100 BKN170 BKN250 09/03 A3015 RMK AO2 SLP209 T00890033=
202104230952 METAR KATL 230952Z 00000KT 10SM BKN170 BKN250 09/02 A3015 RMK AO2 SLP211 T00890022=
202104230852 METAR KATL 230852Z 22003KT 10SM SCT200 BKN250 08/02 A3015 RMK AO2 SLP211 T00830017 55004=
202104230752 METAR KATL 230752Z 00000KT 10SM FEW200 SCT250 08/02 A3014 RMK AO2 SLP207 T00780017=
202104230652 METAR KATL 230652Z 25003KT 10SM FEW200 SCT250 08/01 A3016 RMK AO2 SLP212 T00780011=
202104230552 METAR KATL 230552Z 00000KT 10SM SCT250 09/01 A3017 RMK AO2 SLP215 T00890011 10144 20089 51002=
202104230452 METAR KATL 230452Z 33005KT 10SM SCT250 12/M01 A3016 RMK AO2 SLP214 T01171011 401780033=
202104230352 METAR KATL 230352Z 30003KT 10SM FEW250 11/M01 A3017 RMK AO2 SLP216 T01111006=
202104230252 METAR KATL 230252Z 33005KT 10SM SCT250 12/M01 A3016 RMK AO2 SLP215 T01221011 50014=
202104230152 METAR KATL 230152Z 26003KT 10SM FEW250 12/M01 A3017 RMK AO2 SLP216 T01221011=
202104230052 METAR KATL 230052Z 30003KT 10SM FEW250 14/M02 A3014 RMK AO2 SLP207 T01391017=
202104222352 METAR KATL 222352Z 28008KT 10SM FEW250 14/M02 A3012 RMK AO2 SLP201 T01441022 10178 20144 56008=
202104222252 METAR KATL 222252Z 32008KT 10SM FEW250 16/M03 A3013 RMK AO2 SLP204 T01611033=
202104222152 METAR KATL 222152Z 29007G17KT 260V330 10SM FEW250 17/M04 A3013 RMK AO2 SLP205 T01671039=
202104222052 METAR KATL 222052Z 29007KT 10SM FEW200 FEW250 17/M03 A3014 RMK AO2 SLP209 T01721033 58019=
202104221952 METAR KATL 221952Z 34007KT 10SM FEW250 17/M04 A3016 RMK AO2 SLP215 T01671039=
202104221852 METAR KATL 221852Z 33011G17KT 10SM FEW250 17/M03 A3019 RMK AO2 SLP223 T01671033=
202104221752 METAR KATL 221752Z 35004G15KT 10SM FEW180 FEW250 15/M04 A3020 RMK AO2 SLP230 T01501039 10156 20061 58016=
202104221652 METAR KATL 221652Z 30009KT 10SM FEW200 FEW250 14/M05 A3023 RMK AO2 SLP239 T01391050=
202104221559 SPECI KATL 221559Z 34006KT 10SM FEW200 FEW250 13/M06 A3024 RMK AO2 T01281061=
202104221552 METAR KATL 221552Z VRB06KT 10SM FEW200 FEW250 13/M07 A3024 RMK AO2 SLP243 T01281067=
202104221452 METAR KATL 221452Z 33008KT 10SM FEW002 FEW150 FEW200 11/M07 A3025 RMK AO2 SLP247 FU FEW002 T01111072 51016=
202104221352 METAR KATL 221352Z 35009KT 10SM FEW200 10/M06 A3025 RMK AO2 SLP245 T01001061=
202104221252 METAR KATL 221252Z 33004KT 10SM FEW150 FEW250 08/M03 A3023 RMK AO2 SLP241 T00781028=
202104221152 METAR KATL 221152Z 01005KT 10SM CLR 06/M04 A3021 RMK AO2 SLP232 T00611039 10061 20033 53009=
202104221052 METAR KATL 221052Z 01006KT 10SM CLR 04/M03 A3018 RMK AO2 SLP223 T00441028=
202104220952 METAR KATL 220952Z 34007KT 10SM CLR 04/M03 A3018 RMK AO2 SLP222 T00391028=
202104220852 METAR KATL 220852Z 33007KT 10SM CLR 04/M03 A3018 RMK AO2 SLP222 T00391028 53001=
202104220752 METAR KATL 220752Z 33006KT 10SM CLR 04/M03 A3018 RMK AO2 SLP220 T00391028=
202104220652 METAR KATL 220652Z 32005KT 10SM CLR 04/M03 A3017 RMK AO2 SLP220 T00441028=
202104220552 METAR KATL 220552Z 33005KT 10SM CLR 05/M03 A3018 RMK AO2 SLP220 T00501033 10111 20050 50006=
202104220452 METAR KATL 220452Z 35008KT 10SM CLR 06/M04 A3019 RMK AO2 SLP223 T00611044 401670061=
202104220352 METAR KATL 220352Z 35011KT 10SM CLR 07/M05 A3018 RMK AO2 SLP219 T00721050=
202104220252 METAR KATL 220252Z 35014G22KT 10SM CLR 08/M04 A3016 RMK AO2 SLP213 T00831044 52025=
202104220152 METAR KATL 220152Z 35013G23KT 10SM CLR 09/M04 A3013 RMK AO2 SLP205 T00891039=
202104220052 METAR KATL 220052Z 34014G21KT 10SM CLR 10/M04 A3010 RMK AO2 SLP195 T01001039=
202104212352 METAR KATL 212352Z 34013G23KT 10SM CLR 11/M03 A3008 RMK AO2 SLP187 T01111033 10150 20111 53010=
202104212252 METAR KATL 212252Z 33014G24KT 10SM CLR 12/M03 A3007 RMK AO2 PK WND 34029/2231 SLP181 T01221033=
202104212152 METAR KATL 212152Z 33018G25KT 10SM CLR 13/M03 A3005 RMK AO2 PK WND 33026/2114 SLP176 T01331028=
202104212052 METAR KATL 212052Z 33014G25KT 10SM CLR 14/M02 A3005 RMK AO2 SLP175 T01391017 53003=
202104211952 METAR KATL 211952Z 31019G30KT 10SM CLR 14/M02 A3005 RMK AO2 PK WND 29030/1944 SLP172 T01441017=
202104211852 METAR KATL 211852Z 31020G25KT 10SM CLR 14/00 A3004 RMK AO2 PK WND 30028/1804 SLP172 T01440000=
202104211752 METAR KATL 211752Z 30018G26KT 10SM FEW038 FEW060 14/02 A3004 RMK AO2 PK WND 31030/1731 SLP171 T01440017 10150 20122 50007=
202104211652 METAR KATL 211652Z 33022G27KT 10SM FEW028 FEW050 14/02 A3005 RMK AO2 PK WND 33027/1647 SLP173 T01440022=
202104211552 METAR KATL 211552Z 32016G27KT 10SM FEW045 14/04 A3005 RMK AO2 PK WND 31028/1513 SLP172 T01440039=
202104211452 METAR KATL 211452Z 32020KT 10SM CLR 13/04 A3002 RMK AO2 PK WND 32027/1440 SLP163 T01330039 53017=
202104211352 METAR KATL 211352Z 32016KT 10SM FEW035 13/04 A3000 RMK AO2 SLP156 T01330044=
202104211252 METAR KATL 211252Z 31018G26KT 10SM FEW028 FEW080 12/05 A2999 RMK AO2 PK WND 31026/1248 SLP152 T01220050=
202104211152 METAR KATL 211152Z 32015G22KT 10SM FEW080 12/06 A2997 RMK AO2 SLP144 T01220061 10161 20117 53017=
202104211052 METAR KATL 211052Z 28009KT 10SM FEW080 12/06 A2994 RMK AO2 SLP133 T01220061=
202104210952 METAR KATL 210952Z 28008KT 10SM FEW080 13/06 A2993 RMK AO2 SLP130 T01330061=
202104210852 METAR KATL 210852Z 25004KT 10SM CLR 14/06 A2992 RMK AO2 SLP125 T01390061 55006=
202104210752 METAR KATL 210752Z 26005KT 10SM CLR 14/06 A2992 RMK AO2 SLP125 T01390061=
202104210652 METAR KATL 210652Z 28008KT 10SM FEW075 15/07 A2993 RMK AO2 SLP130 T01500067=
202104210552 METAR KATL 210552Z 25005KT 10SM FEW075 16/07 A2994 RMK AO2 SLP132 T01610067 10211 20156 58003=
202104210452 METAR KATL 210452Z 24005KT 10SM SCT080 17/07 A2995 RMK AO2 SLP135 T01670067 402390128=
202104210352 METAR KATL 210352Z 24006KT 10SM SCT080 17/07 A2995 RMK AO2 SLP135 T01670072=
202104210252 METAR KATL 210252Z 22006KT 10SM FEW075 17/07 A2995 RMK AO2 SLP135 T01720067 53012=
202104210152 METAR KATL 210152Z 21004KT 10SM FEW075 18/07 A2993 RMK AO2 SLP132 T01780067=
202104210052 METAR KATL 210052Z 22004KT 10SM FEW075 20/05 A2992 RMK AO2 SLP126 T02000050=
202104202352 METAR KATL 202352Z 23004KT 10SM FEW075 22/06 A2991 RMK AO2 SLP123 T02170056 10239 20217 56004=
202104202252 METAR KATL 202252Z 19004KT 10SM SCT070 23/06 A2991 RMK AO2 SLP124 T02280061=
202104202152 METAR KATL 202152Z 23006KT 10SM BKN075 22/04 A2992 RMK AO2 SLP126 T02220044=
202104202052 METAR KATL 202052Z 21009KT 10SM SCT075 23/06 A2992 RMK AO2 SLP128 T02330056 58022=
202104201952 METAR KATL 201952Z VRB06KT 10SM FEW070 SCT250 23/06 A2995 RMK AO2 SLP136 T02280056=
202104201852 METAR KATL 201852Z 24006G17KT 10SM SCT070 SCT250 23/06 A2997 RMK AO2 SLP144 T02280056=
202104201752 METAR KATL 201752Z 19007G16KT 10SM FEW070 SCT200 SCT250 22/05 A2999 RMK AO2 SLP150 T02170050 10222 20150 58016=
202104201722 SPECI KATL 201722Z 19008G14KT 10SM FEW065 SCT200 SCT250 22/06 A3001 RMK AO2 T02170056=
202104201652 METAR KATL 201652Z 00000KT 10SM FEW060 SCT200 SCT250 22/07 A3002 RMK AO2 SLP160 T02170072=
202104201552 METAR KATL 201552Z 15005KT 10SM FEW050 BKN200 BKN250 19/06 A3004 RMK AO2 SLP169 T01940056=
202104201452 METAR KATL 201452Z 04004KT 10SM BKN200 BKN250 20/05 A3004 RMK AO2 SLP168 T02000050 53006=
202104201352 METAR KATL 201352Z 00000KT 10SM FEW160 BKN200 BKN250 17/05 A3003 RMK AO2 SLP165 VIRGA DSNT SE-SW T01720050=
202104201252 METAR KATL 201252Z 00000KT 10SM FEW180 SCT220 BKN250 16/07 A3002 RMK AO2 SLP162 VIRGA OHD-ALQDS T01560067=
202104201152 METAR KATL 201152Z 05003KT 10SM FEW180 SCT220 BKN250 14/06 A3002 RMK AO2 SLP162 T01440056 10150 20128 53003=
202104201052 METAR KATL 201052Z 05003KT 10SM BKN180 BKN250 14/05 A3000 RMK AO2 SLP155 T01440050=
202104200952 METAR KATL 200952Z 00000KT 10SM BKN180 14/06 A3001 RMK AO2 SLP157 T01390056=
202104200852 METAR KATL 200852Z 00000KT 10SM BKN180 13/06 A3001 RMK AO2 SLP159 T01330061 53009=
202104200752 METAR KATL 200752Z 32005KT 10SM SCT150 BKN180 BKN220 13/06 A2999 RMK AO2 SLP151 T01330056=
202104200652 METAR KATL 200652Z 26003KT 10SM BKN180 BKN220 BKN250 14/06 A2999 RMK AO2 SLP152 T01390056=
202104200552 METAR KATL 200552Z 00000KT 10SM BKN180 BKN220 BKN250 15/06 A2998 RMK AO2 SLP149 T01500056 10194 20139 58001=
202104200452 METAR KATL 200452Z 29003KT 10SM BKN200 BKN250 14/06 A2999 RMK AO2 SLP153 T01440056 402220100=
202104200352 METAR KATL 200352Z 30003KT 10SM SCT200 BKN250 14/06 A2999 RMK AO2 SLP152 T01440056=
202104200252 METAR KATL 200252Z 32004KT 10SM SCT250 16/05 A2999 RMK AO2 SLP151 T01560050 51016=
202104200152 METAR KATL 200152Z 34007KT 10SM SCT250 17/04 A2998 RMK AO2 SLP148 T01670044=
202104200052 METAR KATL 200052Z 34007KT 10SM FEW250 18/04 A2996 RMK AO2 SLP141 T01830039=
202104192352 METAR KATL 192352Z 33007KT 9SM FEW250 19/04 A2994 RMK AO2 SLP136 T01940039 10222 20194 53004=
202104192252 METAR KATL 192252Z 31011KT 9SM FEW250 21/03 A2993 RMK AO2 SLP134 T02060033=
202104192152 METAR KATL 192152Z 28004KT 10SM FEW250 21/04 A2993 RMK AO2 SLP132 T02110039=
202104192052 METAR KATL 192052Z 30009KT 10SM FEW065 21/04 A2993 RMK AO2 SLP131 T02110044 56007=
202104191952 METAR KATL 191952Z 34005G19KT 10SM FEW065 22/04 A2993 RMK AO2 SLP131 T02170044=
202104191852 METAR KATL 191852Z 34015G19KT 10SM FEW060 21/04 A2994 RMK AO2 SLP134 T02110044=
202104191752 METAR KATL 191752Z 31008KT 10SM FEW060 20/05 A2995 RMK AO2 SLP137 T02000050 10206 20111 58007=
202104191652 METAR KATL 191652Z 35011G20KT 10SM FEW055 19/04 A2997 RMK AO2 SLP144 T01890039=
202104191552 METAR KATL 191552Z 32011G22KT 10SM FEW050 18/04 A2998 RMK AO2 SLP147 T01780039=
202104191452 METAR KATL 191452Z 32016G22KT 10SM FEW050 17/05 A2997 RMK AO2 SLP146 T01670050 51010=
202104191352 METAR KATL 191352Z 32011KT 10SM CLR 15/06 A2996 RMK AO2 SLP143 T01500061=
202104191252 METAR KATL 191252Z 31010KT 10SM CLR 13/06 A2995 RMK AO2 SLP140 T01330061=
202104191152 METAR KATL 191152Z 30008KT 10SM CLR 11/06 A2994 RMK AO2 SLP136 T01110056 10139 20100 53012=
202104191052 METAR KATL 191052Z 29008KT 10SM CLR 11/06 A2992 RMK AO2 SLP128 T01060056=
202104190952 METAR KATL 190952Z 30009KT 10SM CLR 11/06 A2991 RMK AO2 SLP124 T01110056=
202104190852 METAR KATL 190852Z 29009KT 10SM FEW060 12/06 A2990 RMK AO2 SLP122 T01170056 55001=
202104190752 METAR KATL 190752Z 30009KT 10SM FEW060 12/06 A2990 RMK AO2 SLP119 T01220056=
202104190652 METAR KATL 190652Z 31010KT 10SM FEW060 13/06 A2989 RMK AO2 SLP117 T01330056=
202104190552 METAR KATL 190552Z 31009KT 10SM FEW060 FEW180 FEW250 14/06 A2991 RMK AO2 SLP123 T01390061 10194 20139 50002=
202104190452 METAR KATL 190452Z 31009KT 10SM SCT060 BKN190 BKN250 14/06 A2991 RMK AO2 SLP124 T01440061 402280111=
202104190352 METAR KATL 190352Z 31010KT 10SM FEW065 BKN190 BKN250 16/06 A2990 RMK AO2 SLP122 T01560056=
202104190252 METAR KATL 190252Z 31009KT 10SM SCT190 BKN220 BKN250 16/05 A2990 RMK AO2 SLP122 T01610050 53016=
202104190152 METAR KATL 190152Z 31008KT 10SM FEW200 SCT250 17/05 A2989 RMK AO2 SLP120 T01670050=
202104190052 METAR KATL 190052Z 31007KT 10SM SCT190 SCT220 SCT250 18/04 A2986 RMK AO2 SLP109 T01830044=
202104182352 METAR KATL 182352Z 29009KT 10SM FEW180 SCT210 BKN250 19/05 A2985 RMK AO2 SLP107 T01940050 10228 20194 55001=
202104182252 METAR KATL 182252Z 31008KT 10SM FEW180 SCT210 BKN250 21/05 A2984 RMK AO2 SLP102 VIRGA E T02110050=
202104182152 METAR KATL 182152Z 32009KT 10SM FEW070 SCT210 SCT250 22/04 A2985 RMK AO2 SLP103 T02170044=
202104182052 METAR KATL 182052Z 31005G15KT 10SM FEW070 SCT200 BKN250 22/04 A2986 RMK AO2 SLP107 T02170039 58014=
202104181952 METAR KATL 181952Z VRB05KT 10SM FEW070 FEW250 22/04 A2987 RMK AO2 SLP111 T02220044=
202104181852 METAR KATL 181852Z 25005KT 10SM FEW065 SCT200 22/04 A2990 RMK AO2 SLP120 T02170044=
202104181752 METAR KATL 181752Z VRB04KT 10SM FEW060 21/05 A2990 RMK AO2 SLP121 T02060050 10211 20117 58018=
202104181652 METAR KATL 181652Z 34007G15KT 10SM FEW038 20/05 A2992 RMK AO2 SLP128 T02000050=
202104181552 METAR KATL 181552Z 28005KT 10SM FEW030 FEW055 19/06 A2995 RMK AO2 SLP136 T01940056=
202104181452 METAR KATL 181452Z 00000KT 10SM FEW055 17/06 A2995 RMK AO2 SLP139 T01720056 52007=
202104181352 METAR KATL 181352Z 31003KT 10SM SCT055 BKN250 14/06 A2994 RMK AO2 SLP136 T01440056=
202104181252 METAR KATL 181252Z 33004KT 10SM BKN055 BKN150 BKN220 13/06 A2994 RMK AO2 SLP136 T01330056=
202104181152 METAR KATL 181152Z 32006KT 10SM BKN055 BKN220 12/06 A2993 RMK AO2 SLP133 T01170061 10144 20111 53010=
202104181052 METAR KATL 181052Z 33007KT 10SM BKN055 BKN220 12/06 A2991 RMK AO2 SLP125 T01170056=
202104180952 METAR KATL 180952Z 34007KT 10SM BKN055 BKN250 12/06 A2990 RMK AO2 SLP121 T01170056=
202104180852 METAR KATL 180852Z 33007KT 10SM SCT060 SCT180 SCT220 SCT250 12/06 A2990 RMK AO2 SLP121 T01170056 53003=
202104180752 METAR KATL 180752Z 33008KT 10SM FEW070 SCT180 SCT220 BKN250 13/06 A2989 RMK AO2 SLP116 T01280056=
202104180652 METAR KATL 180652Z 33009KT 10SM FEW180 BKN220 BKN250 14/06 A2989 RMK AO2 SLP118 T01390056=
202104180552 METAR KATL 180552Z 33007KT 10SM FEW180 BKN220 BKN250 14/06 A2989 RMK AO2 SLP117 T01440056 10194 20144 50005=
202104180452 METAR KATL 180452Z 34009KT 10SM FEW180 BKN220 BKN250 16/06 A2989 RMK AO2 SLP119 T01560056 402220128=
202104180352 METAR KATL 180352Z 33011KT 10SM FEW180 SCT220 BKN250 16/06 A2989 RMK AO2 SLP117 T01610056=
202104180252 METAR KATL 180252Z 31008KT 10SM SCT210 BKN250 17/06 A2987 RMK AO2 SLP113 T01670061 51010=
202104180152 METAR KATL 180152Z 32006KT 10SM FEW065 BKN250 17/06 A2987 RMK AO2 SLP110 T01720061=
202104180052 METAR KATL 180052Z 33006KT 10SM SCT065 SCT210 BKN250 18/07 A2986 RMK AO2 SLP107 T01830072=
202104172352 METAR KATL 172352Z 27005KT 10SM SCT060 SCT210 BKN250 19/07 A2984 RMK AO2 SLP102 T01940067 10222 20194 53007=
202104172252 METAR KATL 172252Z 27011KT 10SM SCT070 SCT210 BKN250 21/06 A2983 RMK AO2 SLP098 T02060061=
202104172152 METAR KATL 172152Z 28008KT 10SM SCT070 SCT210 BKN250 22/07 A2983 RMK AO2 SLP097 T02170072=
202104172052 METAR KATL 172052Z 29006KT 10SM BKN075 BKN250 21/06 A2982 RMK AO2 SLP093 T02060061 56015=
202104171952 METAR KATL 171952Z VRB05KT 10SM BKN055 BKN070 BKN150 21/06 A2983 RMK AO2 SLP095 T02110061=
202104171852 METAR KATL 171852Z 28008KT 10SM BKN055 OVC100 21/06 A2985 RMK AO2 SLP105 BINOVC T02060061=
202104171752 METAR KATL 171752Z 27009KT 10SM SCT060 BKN080 BKN200 20/04 A2987 RMK AO2 SLP109 T02000039 10200 20133 58013=
202104171652 METAR KATL 171652Z 00000KT 10SM BKN060 19/04 A2988 RMK AO2 SLP114 T01940044=
202104171552 METAR KATL 171552Z 00000KT 10SM BKN055 BKN150 18/04 A2990 RMK AO2 SLP120 T01780044=
202104171452 METAR KATL 171452Z 27003KT 10SM BKN055 OVC150 17/05 A2991 RMK AO2 SLP123 T01670050 53009=
202104171352 METAR KATL 171352Z 31004KT 10SM BKN050 BKN150 16/07 A2990 RMK AO2 SLP122 T01560072=
202104171252 METAR KATL 171252Z 00000KT 10SM FEW065 BKN130 BKN200 14/08 A2987 RMK AO2 SLP112 T01390083=
202104171152 METAR KATL 171152Z 33004KT 10SM FEW055 SCT065 BKN090 BKN150 BKN200 13/09 A2988 RMK AO2 SLP114 60001 70001 T01330094 10139 20128 53008=
202104171052 METAR KATL 171052Z 00000KT 10SM FEW070 BKN090 BKN150 13/09 A2983 RMK AO2 SLP100 T01280089=
202104170952 METAR KATL 170952Z 28005KT 10SM BKN070 OVC085 13/08 A2984 RMK AO2 SLP102 T01330083=
202104170852 METAR KATL 170852Z 28004KT 10SM OVC075 13/08 A2985 RMK AO2 SLP105 60001 T01330083 56004=
202104170752 METAR KATL 170752Z 23004KT 10SM BKN080 OVC100 13/09 A2985 RMK AO2 SLP105 T01280089=
202104170652 METAR KATL 170652Z 22003KT 10SM FEW060 OVC090 13/08 A2985 RMK AO2 RAE35 SLP107 P0001 T01280083=
202104170552 METAR KATL 170552Z 21005KT 10SM -RA FEW075 OVC090 14/07 A2986 RMK AO2 RAB32 SLP109 P0000 60000 T01390067 10172 20139 58002=
202104170452 METAR KATL 170452Z 27005KT 10SM BKN110 BKN150 OVC200 14/05 A2987 RMK AO2 SLP111 T01440050 401940100=
202104170352 METAR KATL 170352Z 28006KT 10SM BKN150 OVC200 15/04 A2987 RMK AO2 SLP112 T01500044=
202104170252 METAR KATL 170252Z 25005KT 10SM SCT150 OVC200 16/06 A2987 RMK AO2 SLP112 T01560056 51007=
202104170152 METAR KATL 170152Z 23003KT 10SM BKN200 OVC250 16/05 A2987 RMK AO2 SLP112 T01560050=
202104170052 METAR KATL 170052Z 23005KT 10SM BKN200 OVC250 16/04 A2986 RMK AO2 SLP107 T01610044=
202104162352 METAR KATL 162352Z 21005KT 10SM BKN200 OVC250 17/03 A2985 RMK AO2 SLP105 T01720033 10194 20172 56000=
202104162252 METAR KATL 162252Z 20006KT 10SM BKN200 OVC250 18/03 A2985 RMK AO2 SLP106 T01780028=
202104162152 METAR KATL 162152Z 23005KT 10SM FEW150 BKN200 OVC250 18/02 A2985 RMK AO2 SLP104 T01830022=
202104162052 METAR KATL 162052Z 23005KT 10SM FEW150 BKN200 OVC250 19/03 A2985 RMK AO2 SLP105 T01890028 56013=
202104161952 METAR KATL 161952Z 18007KT 10SM BKN200 BKN250 19/03 A2985 RMK AO2 SLP107 T01890028=
202104161852 METAR KATL 161852Z VRB05KT 10SM FEW150 BKN200 BKN250 18/02 A2987 RMK AO2 SLP112 T01830022=
202104161752 METAR KATL 161752Z 17006KT 10SM FEW150 BKN200 BKN250 18/03 A2989 RMK AO2 SLP118 T01780028 10178 20106 58028=
202104161652 METAR KATL 161652Z 19006KT 10SM FEW150 BKN200 BKN250 17/03 A2992 RMK AO2 SLP130 T01670033=
202104161552 METAR KATL 161552Z 12006KT 10SM SCT150 BKN200 BKN250 16/02 A2994 RMK AO2 PRESFR SLP137 T01560017=
202104161452 METAR KATL 161452Z 10005KT 10SM SCT150 BKN200 OVC250 14/02 A2997 RMK AO2 SLP146 T01440017 53012=
202104161352 METAR KATL 161352Z 06007KT 10SM SCT150 BKN200 OVC250 13/02 A2995 RMK AO2 SLP138 T01330017=
202104161252 METAR KATL 161252Z 02007KT 10SM FEW160 SCT210 OVC250 12/02 A2994 RMK AO2 SLP137 T01220017=
202104161152 METAR KATL 161152Z 36006KT 10SM FEW180 BKN210 BKN250 11/02 A2994 RMK AO2 SLP135 T01060017 10122 20100 51015=
202104161052 METAR KATL 161052Z 33007KT 10SM SCT180 BKN210 BKN250 10/02 A2992 RMK AO2 SLP129 T01000022=
202104160952 METAR KATL 160952Z 30004KT 10SM BKN200 OVC250 10/02 A2991 RMK AO2 SLP125 T01000017=
202104160852 METAR KATL 160852Z 34006KT 10SM SCT180 BKN220 BKN250 11/02 A2989 RMK AO2 SLP118 T01060017 58006=
202104160752 METAR KATL 160752Z 33007KT 10SM BKN220 BKN250 11/02 A2989 RMK AO2 SLP119 T01060017=
202104160652 METAR KATL 160652Z 33007KT 10SM BKN250 11/01 A2991 RMK AO2 SLP125 T01110011=
202104160552 METAR KATL 160552Z 33007KT 10SM BKN250 12/01 A2991 RMK AO2 SLP124 T01220006 10189 20122 53002=
202104160452 METAR KATL 160452Z 32009KT 10SM BKN250 13/01 A2991 RMK AO2 SLP124 T01280011 402170128=
202104160352 METAR KATL 160352Z 33009KT 10SM SCT250 14/01 A2990 RMK AO2 SLP121 T01440011=
202104160252 METAR KATL 160252Z 34013G23KT 10SM SCT250 16/02 A2990 RMK AO2 SLP122 T01560017 51014=
202104160152 METAR KATL 160152Z 32009KT 10SM FEW200 BKN250 17/05 A2989 RMK AO2 SLP118 T01670050=
202104160052 METAR KATL 160052Z 28009KT 10SM FEW200 BKN250 17/06 A2988 RMK AO2 SLP114 T01720056=
202104152352 METAR KATL 152352Z 29010KT 10SM FEW200 BKN250 18/06 A2986 RMK AO2 SLP106 T01830056 10217 20183 55003=
202104152252 METAR KATL 152252Z 30014KT 10SM FEW200 BKN250 21/06 A2985 RMK AO2 SLP103 T02060056=
202104152152 METAR KATL 152152Z 32015G20KT 10SM FEW200 SCT250 21/05 A2986 RMK AO2 SLP106 T02110050=
202104152052 METAR KATL 152052Z 33013G19KT 10SM FEW200 SCT250 22/05 A2987 RMK AO2 SLP108 T02170050 58016=
202104151952 METAR KATL 151952Z 31015G21KT 10SM FEW075 FEW150 SCT200 BKN250 21/04 A2988 RMK AO2 SLP113 T02110039=
202104151852 METAR KATL 151852Z 34011KT 10SM FEW065 FEW140 SCT200 BKN250 21/06 A2990 RMK AO2 SLP120 T02060056=
202104151752 METAR KATL 151752Z 32008KT 10SM FEW055 FEW110 BKN200 BKN250 19/07 A2992 RMK AO2 SLP125 T01940072 10194 20156 58009=
202104151652 METAR KATL 151652Z 35008KT 10SM FEW044 FEW095 SCT150 BKN200 18/08 A2994 RMK AO2 SLP135 T01830078=
202104151552 METAR KATL 151552Z 31010KT 10SM FEW028 FEW070 SCT150 BKN200 17/09 A2995 RMK AO2 SLP137 T01670094=
202104151452 METAR KATL 151452Z 33011KT 10SM FEW018 FEW075 BKN150 BKN200 16/08 A2994 RMK AO2 PRESRR SLP136 T01560083 53008=
202104151352 METAR KATL 151352Z 34011KT 10SM FEW012 SCT070 BKN150 OVC200 16/12 A2990 RMK AO2 SLP121 T01610122=
202104151252 METAR KATL 151252Z 31007KT 10SM FEW008 BKN045 BKN070 16/13 A2993 RMK AO2 SLP131 T01560133=
202104151227 SPECI KATL 151227Z 33008KT 10SM SCT008 SCT023 OVC034 16/13 A2992 RMK AO2 BINOVC T01560133=
202104151159 SPECI KATL 151159Z 33006KT 10SM SCT007 BKN015 OVC023 16/14 A2992 RMK AO2 T01560139=
202104151152 METAR KATL 151152Z 34008KT 10SM SCT007 BKN014 OVC020 16/14 A2992 RMK AO2 SLP126 60000 70002 T01560139 10172 20156 50006=
202104151148 SPECI KATL 151148Z 33008KT 10SM SCT007 BKN014 OVC020 16/14 A2992 RMK AO2=
202104151052 METAR KATL 151052Z 30007KT 10SM BKN007 BKN014 OVC024 16/14 A2992 RMK AO2 SLP127 T01560144=
202104150952 METAR KATL 150952Z 32007KT 9SM BKN007 BKN012 BKN036 16/14 A2990 RMK AO2 DZE50 SLP119 BKN007 V SCT P0000 T01610144=
202104150852 METAR KATL 150852Z 29007KT 5SM -DZ BR FEW009 BKN014 OVC020 16/14 A2992 RMK AO2 SLP126 RAB25E46DZB46 P0000 60000 T01610144 55008=
202104150752 METAR KATL 150752Z 27006KT 10SM FEW010 BKN014 OVC040 17/14 A2992 RMK AO2 SLP123 BKN014 V SCT T01670139=
202104150652 METAR KATL 150652Z 28004KT 10SM FEW009 BKN014 OVC020 17/14 A2994 RMK AO2 SLP130 BINOVC T01670144=
202104150650 SPECI KATL 150650Z 29005KT 10SM FEW009 BKN014 OVC020 17/14 A2994 RMK AO2 BINOVC=
202104150559 SPECI KATL 150559Z 26005KT 10SM SCT012 BKN019 BKN043 17/14 A2994 RMK AO2 T01720144=
202104150552 METAR KATL 150552Z 27005KT 10SM FEW012 SCT019 BKN040 17/14 A2995 RMK AO2 SLP133 T01670139 10183 20167 58021=
202104150452 METAR KATL 150452Z 27005KT 10SM FEW022 BKN055 BKN120 OVC250 17/14 A2997 RMK AO2 SLP141 T01720144 402720144=
202104150352 METAR KATL 150352Z 27006KT 10SM FEW024 SCT065 BKN110 OVC250 17/14 A2999 RMK AO2 SLP147 T01720144=
202104150252 METAR KATL 150252Z 27008KT 10SM FEW024 BKN050 OVC100 18/15 A3001 RMK AO2 SLP155 T01780150 53010=
202104150152 METAR KATL 150152Z 28008KT 10SM SCT047 BKN060 OVC090 18/14 A3001 RMK AO2 SLP154 T01780144=
202104150052 METAR KATL 150052Z 27008KT 10SM BKN060 OVC100 18/14 A2998 RMK AO2 SLP147 T01780144=
202104142352 METAR KATL 142352Z 24008KT 10SM SCT075 BKN100 OVC200 18/14 A2998 RMK AO2 SLP147 60002 T01830144 10267 20183 58009=
202104142252 METAR KATL 142252Z 22008KT 10SM FEW075 BKN090 BKN120 OVC200 18/16 A2999 RMK AO2 RAE26 SLP151 P0001 T01830156=
202104142152 METAR KATL 142152Z 24009KT 10SM -RA BKN085 OVC110 19/15 A3002 RMK AO2 PK WND 28035/2055 RAB2056 SLP159 P0001 T01890150=
202104142052 METAR KATL 142052Z 27015G22KT 10SM BKN070 BKN100 OVC150 24/10 A3001 RMK AO2 PK WND 24026/2024 SLP154 ACC NE-OHD-SW SHRA SW-NW-N T02440100 55005=
202104141952 METAR KATL 141952Z 23011G23KT 10SM SCT075 BKN090 BKN140 OVC200 26/08 A3000 RMK AO2 SLP152 ACC ALQDS T02560078=
202104141852 METAR KATL 141852Z 21010G20KT 10SM SCT090 SCT150 OVC200 27/06 A3001 RMK AO2 SLP155 ACC N-OHD-S DSNT W-NW T02670061=
202104141752 METAR KATL 141752Z 22008G19KT 10SM FEW150 BKN180 BKN250 27/05 A3002 RMK AO2 SLP159 T02670050 10272 20156 58019=
202104141652 METAR KATL 141652Z 22010G17KT 10SM FEW150 SCT200 BKN250 27/06 A3005 RMK AO2 SLP165 T02670061=
202104141552 METAR KATL 141552Z 22006KT 10SM FEW150 SCT200 SCT250 26/06 A3008 RMK AO2 SLP177 T02560056=
202104141452 METAR KATL 141452Z 00000KT 10SM FEW150 SCT200 SCT250 24/09 A3008 RMK AO2 SLP178 T02390094 50003=
202104141352 METAR KATL 141352Z 00000KT 10SM FEW150 FEW200 SCT250 21/12 A3009 RMK AO2 SLP180 T02110117=
202104141252 METAR KATL 141252Z 26003KT 10SM FEW200 FEW250 18/11 A3008 RMK AO2 SLP180 T01830106=
202104141152 METAR KATL 141152Z 00000KT 10SM FEW250 16/09 A3007 RMK AO2 SLP175 T01560089 10194 20144 53001=
202104141052 METAR KATL 141052Z 27003KT 10SM FEW120 15/08 A3007 RMK AO2 SLP175 T01500083=
202104140952 METAR KATL 140952Z 32003KT 10SM FEW120 17/08 A3006 RMK AO2 SLP172 T01720078=
202104140852 METAR KATL 140852Z 32006KT 10SM SCT120 17/08 A3007 RMK AO2 SLP173 T01720083 55003=
202104140752 METAR KATL 140752Z 00000KT 10SM FEW250 18/07 A3006 RMK AO2 SLP169 T01780072=
202104140652 METAR KATL 140652Z 30006KT 10SM FEW250 19/08 A3006 RMK AO2 SLP171 T01890078=
202104140552 METAR KATL 140552Z 29005KT 10SM FEW250 19/07 A3008 RMK AO2 SLP176 T01890072 10261 20183 56001=
202104140452 METAR KATL 140452Z 32004KT 10SM FEW200 BKN250 20/07 A3008 RMK AO2 SLP176 T02000067 403000150=
202104140352 METAR KATL 140352Z 25004KT 10SM FEW200 BKN250 20/08 A3008 RMK AO2 SLP177 T02000078=
202104140252 METAR KATL 140252Z 26003KT 10SM FEW200 BKN250 21/08 A3008 RMK AO2 SLP178 T02110078 51013=
202104140152 METAR KATL 140152Z 33003KT 10SM FEW200 BKN250 24/06 A3008 RMK AO2 SLP176 T02390061=
202104140052 METAR KATL 140052Z 24003KT 10SM SCT200 BKN250 24/06 A3006 RMK AO2 SLP170 T02440056=
202104132352 METAR KATL 132352Z 24003KT 10SM FEW085 SCT200 BKN250 26/06 A3004 RMK AO2 SLP165 T02610061 10300 20261 53004=
202104132252 METAR KATL 132252Z 28005KT 10SM FEW085 SCT200 BKN250 28/06 A3003 RMK AO2 SLP160 T02780056=
202104132152 METAR KATL 132152Z 29006KT 10SM FEW085 SCT200 BKN250 28/08 A3002 RMK AO2 SLP159 T02830078=
202104132052 METAR KATL 132052Z 36005KT 10SM FEW080 SCT200 SCT250 BKN300 30/07 A3003 RMK AO2 SLP159 T03000067 56013=
202104131952 METAR KATL 131952Z 25006KT 10SM FEW080 FEW200 SCT250 BKN300 29/08 A3003 RMK AO2 SLP162 T02940078=
202104131852 METAR KATL 131852Z 01006KT 10SM FEW075 FEW250 SCT300 28/08 A3005 RMK AO2 SLP168 T02830078=
202104131813 SPECI KATL 131813Z 31005KT 10SM FEW200 SCT250 SCT300 28/09 A3007 RMK AO2 T02830089=
202104131752 METAR KATL 131752Z 17004KT 10SM FEW200 SCT250 SCT300 27/08 A3006 RMK AO2 SLP173 T02720078 10278 20156 58012=
202104131652 METAR KATL 131652Z 12006KT 10SM FEW200 FEW250 27/09 A3009 RMK AO2 SLP181 T02670089=
202104131552 METAR KATL 131552Z VRB04KT 10SM FEW200 SCT250 25/07 A3011 RMK AO2 SLP187 T02500072=
202104131452 METAR KATL 131452Z 14005KT 10SM FEW200 SCT250 23/07 A3010 RMK AO2 SLP185 T02330067 51014=
202104131352 METAR KATL 131352Z 09005KT 10SM SCT250 22/08 A3009 RMK AO2 SLP183 T02220083=
202104131252 METAR KATL 131252Z 07004KT 10SM FEW250 21/07 A3007 RMK AO2 SLP174 T02060072=
202104131152 METAR KATL 131152Z 00000KT 10SM FEW250 16/08 A3006 RMK AO2 SLP172 T01560078 10189 20150 53017=
202104131052 METAR KATL 131052Z 00000KT 10SM FEW250 17/07 A3004 RMK AO2 SLP163 T01670072=
202104130952 METAR KATL 130952Z 30006KT 10SM FEW250 16/08 A3001 RMK AO2 SLP155 T01560078=
202104130852 METAR KATL 130852Z 32007KT 10SM FEW250 16/07 A3001 RMK AO2 SLP153 T01610072 53011=
202104130752 METAR KATL 130752Z 27004KT 10SM FEW250 16/07 A2999 RMK AO2 SLP148 T01610072=
202104130652 METAR KATL 130652Z 28004KT 10SM FEW250 18/07 A2998 RMK AO2 SLP145 T01780072=
202104130552 METAR KATL 130552Z 29004KT 10SM FEW250 18/07 A2997 RMK AO2 SLP141 T01830067 10256 20178 50004=
202104130452 METAR KATL 130452Z 33007KT 10SM SCT250 18/07 A2998 RMK AO2 SLP143 T01780072 402830111=
202104130352 METAR KATL 130352Z 30006KT 10SM FEW250 20/07 A2997 RMK AO2 SLP140 T02000067=
202104130252 METAR KATL 130252Z 29006KT 10SM FEW250 21/06 A2996 RMK AO2 SLP138 T02110056 51021=
202104130152 METAR KATL 130152Z 29005KT 10SM FEW250 22/05 A2994 RMK AO2 SLP133 T02170050=
202104130052 METAR KATL 130052Z 31005KT 10SM FEW250 23/05 A2992 RMK AO2 SLP125 T02330050=
202104122352 METAR KATL 122352Z 31009KT 10SM SCT250 26/04 A2990 RMK AO2 SLP117 T02560044 10283 20256 53014=
202104122252 METAR KATL 122252Z 32012KT 10SM SCT250 27/03 A2988 RMK AO2 SLP111 T02720033=
202104122152 METAR KATL 122152Z 32012KT 10SM FEW250 28/03 A2986 RMK AO2 SLP105 T02830033=
202104122052 METAR KATL 122052Z 28011G19KT 10SM FEW250 28/05 A2985 RMK AO2 PK WND 31026/2021 SLP103 T02830050 57007=
202104121952 METAR KATL 121952Z 30014G26KT 10SM CLR 28/05 A2986 RMK AO2 PK WND 29027/1855 SLP104 T02780050=
202104121852 METAR KATL 121852Z 28014G26KT 10SM CLR 27/06 A2987 RMK AO2 PK WND 30026/1827 SLP109 T02720061=
202104121752 METAR KATL 121752Z 31018G27KT 10SM CLR 27/06 A2988 RMK AO2 PK WND 28027/1746 SLP110 T02670061 10267 20133 55002=
202104121652 METAR KATL 121652Z 31016G22KT 10SM CLR 26/08 A2987 RMK AO2 SLP109 T02560078=
202104121552 METAR KATL 121552Z 30016G22KT 10SM CLR 24/07 A2988 RMK AO2 SLP112 T02390072=
202104121452 METAR KATL 121452Z 28010KT 10SM CLR 22/08 A2988 RMK AO2 SLP113 T02170078 51014=
202104121352 METAR KATL 121352Z 30011KT 10SM CLR 19/07 A2987 RMK AO2 SLP109 T01890067=
202104121252 METAR KATL 121252Z 28007KT 10SM CLR 17/07 A2986 RMK AO2 SLP107 T01670072=
202104121152 METAR KATL 121152Z 00000KT 10SM CLR 13/06 A2984 RMK AO2 SLP101 T01330056 10144 20111 51021=
202104121052 METAR KATL 121052Z 28006KT 10SM CLR 12/06 A2982 RMK AO2 SLP095 T01170056=
202104120952 METAR KATL 120952Z 27007KT 10SM CLR 12/06 A2981 RMK AO2 SLP088 T01170056=
202104120852 METAR KATL 120852Z 27007KT 10SM CLR 12/06 A2978 RMK AO2 SLP079 T01220056 53007=
202104120752 METAR KATL 120752Z 28008KT 10SM CLR 13/06 A2976 RMK AO2 SLP074 T01280056=
202104120652 METAR KATL 120652Z 28007KT 10SM CLR 14/06 A2975 RMK AO2 SLP071 T01390056=
202104120552 METAR KATL 120552Z 28008KT 10SM CLR 14/06 A2976 RMK AO2 SLP070 T01440056 10206 20144 53009=
202104120452 METAR KATL 120452Z 26007KT 10SM CLR 16/05 A2975 RMK AO2 SLP067 T01560050 402390139=
202104120352 METAR KATL 120352Z 27008KT 10SM CLR 16/04 A2973 RMK AO2 SLP062 T01610044=
202104120252 METAR KATL 120252Z 27007KT 10SM CLR 17/04 A2973 RMK AO2 SLP062 T01670044 53020=
202104120152 METAR KATL 120152Z 29007KT 10SM CLR 17/04 A2971 RMK AO2 SLP054 T01720044=
202104120052 METAR KATL 120052Z 27008KT 10SM CLR 19/04 A2968 RMK AO2 SLP046 T01890039=
202104112352 METAR KATL 112352Z 26006KT 10SM CLR 21/03 A2967 RMK AO2 SLP041 T02060033 10239 20206 53003=
202104112252 METAR KATL 112252Z 25007KT 10SM CLR 22/04 A2966 RMK AO2 SLP037 T02220039=
202104112152 METAR KATL 112152Z 30010G17KT 10SM CLR 23/05 A2966 RMK AO2 SLP036 T02330050=
202104112052 METAR KATL 112052Z 28004KT 10SM FEW040 FEW250 23/04 A2966 RMK AO2 SLP036 T02330044 58012=
202104111952 METAR KATL 111952Z VRB05G14KT 10SM FEW040 FEW250 23/04 A2967 RMK AO2 SLP041 T02280044=
202104111852 METAR KATL 111852Z VRB04KT 10SM FEW039 FEW250 22/06 A2969 RMK AO2 SLP049 T02170056=
202104111752 METAR KATL 111752Z 33005G15KT 10SM FEW037 SCT250 22/07 A2969 RMK AO2 SLP049 T02170067 10222 20144 58018=
202104111652 METAR KATL 111652Z 24008G17KT 10SM FEW036 SCT250 21/08 A2972 RMK AO2 SLP057 T02110083=
202104111552 METAR KATL 111552Z 25008G14KT 10SM FEW026 SCT250 21/08 A2975 RMK AO2 SLP068 T02060078=
202104111452 METAR KATL 111452Z 23010G15KT 10SM SCT024 SCT250 18/08 A2975 RMK AO2 SLP069 T01830078 51016=
202104111352 METAR KATL 111352Z 29007KT 10SM SCT012 SCT250 17/12 A2974 RMK AO2 SLP066 T01720117=
202104111252 METAR KATL 111252Z 27008KT 10SM FEW007 FEW250 16/13 A2972 RMK AO2 SLP058 T01560133=
202104111152 METAR KATL 111152Z 25003KT 10SM FEW005 FEW070 FEW250 14/13 A2970 RMK AO2 SLP053 60001 70046 T01440133 10156 20139 53001=
202104111052 METAR KATL 111052Z 28004KT 10SM SCT005 SCT070 14/13 A2970 RMK AO2 SLP052 T01440133=
202104111047 SPECI KATL 111047Z 28005KT 10SM SCT005 SCT070 14/13 A2970 RMK AO2=
202104110952 METAR KATL 110952Z 26005KT 10SM BKN005 16/14 A2969 RMK AO2 SLP048 BKN005 V SCT T01560139=
202104110852 METAR KATL 110852Z 24009KT 10SM BKN005 16/14 A2970 RMK AO2 SLP051 60001 T01560144 55002=
202104110835 SPECI KATL 110835Z 22004KT 10SM BKN005 BKN025 16/14 A2969 RMK AO2 T01560139=
202104110752 METAR KATL 110752Z 22005KT 10SM FEW009 SCT025 SCT060 16/14 A2969 RMK AO2 RAB17E25 SLP049 P0001 T01560139=
202104110725 SPECI KATL 110725Z 26005KT 10SM FEW009 SCT027 BKN044 16/14 A2970 RMK AO2 RAB17E25 P0001 T01560139=
202104110652 METAR KATL 110652Z 23005KT 10SM FEW027 FEW045 15/14 A2969 RMK AO2 SLP049 T01500139=
202104110552 METAR KATL 110552Z 23007KT 10SM FEW027 SCT045 SCT250 16/14 A2970 RMK AO2 SLP055 T01560139 10194 20156 50001=
202104110452 METAR KATL 110452Z 23007KT 10SM FEW050 FEW055 FEW250 16/14 A2971 RMK AO2 SLP055 T01610139 402110161=
202104110352 METAR KATL 110352Z 22006KT 10SM FEW043 SCT250 16/14 A2971 RMK AO2 SLP055 T01610144=
202104110252 METAR KATL 110252Z 21006KT 10SM FEW040 FEW250 17/14 A2970 RMK AO2 SLP054 T01670144 51009=
202104110152 METAR KATL 110152Z 20005KT 10SM FEW040 SCT250 17/15 A2970 RMK AO2 SLP051 T01720150=
202104110052 METAR KATL 110052Z 19005KT 10SM BKN038 BKN250 18/15 A2968 RMK AO2 SLP047 T01830150=
202104102352 METAR KATL 102352Z 20006KT 10SM SCT033 BKN038 BKN250 19/15 A2967 RMK AO2 SLP043 60006 T01940150 10211 20178 55001=
202104102252 METAR KATL 102252Z 20008KT 10SM SCT028 BKN033 BKN250 21/15 A2967 RMK AO2 SLP040 T02060150=
202104102152 METAR KATL 102152Z 25009KT 10SM SCT025 SCT200 BKN250 21/14 A2966 RMK AO2 SLP038 T02060144=
202104102052 METAR KATL 102052Z 24012G20KT 10SM SCT019 BKN039 BKN150 BKN250 21/15 A2968 RMK AO2 SLP043 60006 T02060150 58018=
202104102034 SPECI KATL 102034Z 25013G20KT 10SM SCT017 BKN039 BKN150 20/15 A2968 RMK AO2 T02000150=
202104101952 METAR KATL 101952Z 24011G21KT 7SM SCT013 BKN020 BKN036 19/16 A2970 RMK AO2 RAE05 SLP050 P0000 T01940161=
202104101922 SPECI KATL 101922Z 23009KT 4SM BR SCT007 BKN011 BKN018 19/17 A2970 RMK AO2 RAE05 P0000 T01890167=
202104101852 METAR KATL 101852Z 22010G15KT 2SM -RA BR BKN007 BKN014 OVC038 18/17 A2972 RMK AO2 RAB1758 SLP060 P0006 T01780167=
202104101821 SPECI KATL 101821Z 20007KT 2SM RA BR BKN009 OVC014 18/16 A2974 RMK AO2 RAB1758 P0003 T01780161=
202104101752 METAR KATL 101752Z 21008G17KT 3SM BR BKN008 BKN013 OVC025 18/16 A2973 RMK AO2 RAE29 PRESRR SLP063 P0000 60039 T01780156 10178 20167 55027=
202104101652 METAR KATL 101652Z 15010G21KT 3SM -RA BR BKN008 BKN014 OVC027 17/16 A2972 RMK AO2 PK WND 15026/1631 SLP059 P0003 T01720156=
202104101552 METAR KATL 101552Z 15012KT 2 1/2SM -RA BR BKN008 BKN015 OVC031 17/16 A2977 RMK AO2 SLP076 P0017 T01720156=
202104101533 SPECI KATL 101533Z 16008KT 2SM -RA BR BKN007 BKN012 OVC036 17/16 A2979 RMK AO2 P0017 T01720156=
202104101452 METAR KATL 101452Z 14008G15KT 1 1/2SM R09R/4500VP6000FT RA BR SCT007 BKN012 OVC030 17/16 A2981 RMK AO2 SLP091 P0019 60019 T01670156 50001=
202104101446 SPECI KATL 101446Z 16010KT 1 1/2SM R09R/4500VP6000FT +RA BR BKN012 BKN024 OVC032 17/15 A2983 RMK AO2 P0008=
202104101437 SPECI KATL 101437Z 16009G17KT 2SM -RA BR SCT012 BKN025 OVC037 17/15 A2982 RMK AO2 P0002 T01720150=
202104101423 SPECI KATL 101423Z 16007KT 6SM -RA BR SCT012 BKN027 OVC033 17/15 A2981 RMK AO2 P0000 T01720150=
202104101352 METAR KATL 101352Z 15009KT 7SM -RA SCT013 BKN033 OVC049 17/14 A2981 RMK AO2 RAE18B50 SLP090 P0000 T01720144=
202104101252 METAR KATL 101252Z 15008KT 8SM -RA FEW009 BKN032 BKN120 OVC150 17/14 A2981 RMK AO2 RAB47 SLP090 PCPN VRY LGT P0000 T01720139=
202104101152 METAR KATL 101152Z 13009KT 7SM SCT009 SCT042 OVC180 17/14 A2982 RMK AO2 SLP093 T01670144 10178 20167 58013=
202104101131 SPECI KATL 101131Z 13007G18KT 7SM BKN009 BKN042 OVC180 17/14 A2983 RMK AO2 CIG 008V012 T01720144=
202104101103 SPECI KATL 101103Z 13010KT 9SM BKN011 BKN042 BKN048 BKN180 17/14 A2985 RMK AO2 T01720144=
202104101052 METAR KATL 101052Z 13010KT 9SM BKN009 BKN013 BKN180 17/15 A2986 RMK AO2 SLP105 T01720150=
202104100952 METAR KATL 100952Z 13008KT 8SM BKN007 OVC014 18/16 A2986 RMK AO2 SLP103 T01780156=
202104100852 METAR KATL 100852Z 12006KT 9SM BKN007 OVC024 18/16 A2986 RMK AO2 SLP106 T01780156 56028=
202104100815 SPECI KATL 100815Z 14007KT 10SM BKN008 BKN012 BKN025 BKN150 BKN200 17/16 A2988 RMK AO2 T01720156=
202104100809 SPECI KATL 100809Z 13007KT 10SM SCT008 BKN012 BKN024 BKN150 BKN200 17/16 A2988 RMK AO2 T01720156=
202104100752 METAR KATL 100752Z 14007KT 10SM BKN008 BKN013 BKN024 OVC150 18/16 A2988 RMK AO2 SLP112 CIG 007V011 T01780156=
202104100652 METAR KATL 100652Z 16005KT 10SM BKN008 BKN013 OVC022 18/16 A2991 RMK AO2 SLP123 BKN008 V SCT T01780156=
202104100650 SPECI KATL 100650Z 15006KT 10SM BKN008 BKN013 OVC022 18/16 A2992 RMK AO2 BKN008 V SCT=
202104100640 SPECI KATL 100640Z 14007KT 10SM SCT008 SCT018 OVC022 18/16 A2992 RMK AO2 T01780156=
202104100552 METAR KATL 100552Z 14006KT 10SM BKN008 OVC024 18/16 A2995 RMK AO2 SLP134 BKN008 V SCT T01780156 10194 20172 53001=
202104100532 SPECI KATL 100532Z 14006KT 10SM BKN008 OVC023 18/15 A2995 RMK AO2 T01780150=
202104100516 SPECI KATL 100516Z 15007KT 10SM SCT008 BKN025 OVC200 18/15 A2996 RMK AO2 T01780150=
202104100452 METAR KATL 100452Z 13006KT 10SM FEW011 SCT018 BKN025 OVC200 18/15 A2995 RMK AO2 SLP136 T01780150 402440172=
202104100352 METAR KATL 100352Z 14004KT 10SM BKN020 BKN200 BKN250 17/14 A2993 RMK AO2 SLP129 T01720144=
202104100341 SPECI KATL 100341Z 14006KT 10SM BKN020 BKN200 BKN250 17/14 A2992 RMK AO2 T01720144=
202104100252 METAR KATL 100252Z 12005KT 10SM FEW028 SCT200 BKN250 17/14 A2994 RMK AO2 SLP134 T01720139 50001=
202104100152 METAR KATL 100152Z 15006KT 10SM SCT150 BKN200 BKN250 18/14 A2996 RMK AO2 SLP141 T01780139=
202104100052 METAR KATL 100052Z 00000KT 10SM FEW150 BKN200 BKN250 18/14 A2996 RMK AO2 SLP140 T01830139=
202104092352 METAR KATL 092352Z 22005KT 10SM FEW150 SCT200 BKN250 19/13 A2994 RMK AO2 SLP133 T01940133 10244 20194 58004=
202104092252 METAR KATL 092252Z 20012KT 10SM FEW030 FEW070 BKN200 OVC250 21/14 A2994 RMK AO2 SLP132 T02060139=
202104092152 METAR KATL 092152Z 20009KT 10SM FEW032 FEW065 BKN180 OVC250 22/14 A2996 RMK AO2 SLP138 VIRGA SE-SW T02220144=
202104092052 METAR KATL 092052Z 19010G18KT 10SM FEW036 FEW060 SCT160 OVC200 23/14 A2995 RMK AO2 SLP136 VIRGA OHD-ALQDS T02280144 58009=
202104091952 METAR KATL 091952Z 19012G20KT 10SM FEW038 SCT060 BKN200 BKN250 23/14 A2996 RMK AO2 SLP138 VIRGA NE-OHD-SW TCU DSNT NE E SE-SW MDT CU SW T02280139=
202104091852 METAR KATL 091852Z 18014G20KT 10SM SCT033 BKN060 BKN200 BKN250 23/14 A2998 RMK AO2 SLP145 TCU DSNT W-N-NE MDT CU ALQDS T02330144=
202104091752 METAR KATL 091752Z 17011G19KT 10SM FEW030 SCT055 BKN200 BKN250 23/16 A2998 RMK AO2 SLP145 MDT CU NW-NE T02330161 10244 20172=
202104091652 METAR KATL 091652Z 15007KT 10SM FEW028 BKN200 BKN250 24/17 A2998 RMK AO2 SLP142 TCU DSNT NW T02440167=
202104091552 METAR KATL 091552Z 13009KT 10SM FEW022 SCT180 BKN250 23/17 A2998 RMK AO2 SLP146 CB DSNT SW T02330172=
202104091452 METAR KATL 091452Z 19006KT 10SM FEW014 SCT180 BKN250 21/17 A2998 RMK AO2 SLP147 T02110167 51003=
202104091359 SPECI KATL 091359Z 18003KT 10SM SCT011 SCT140 BKN200 BKN250 19/16 A2998 RMK AO2 T01890161=
202104091352 METAR KATL 091352Z 19004KT 10SM BKN010 BKN140 BKN200 BKN250 19/16 A2998 RMK AO2 SLP146 T01890161=
202104091252 METAR KATL 091252Z 19005KT 9SM BKN009 BKN180 BKN250 18/17 A2998 RMK AO2 SLP147 T01830167=
202104091231 SPECI KATL 091231Z 19004KT 9SM BKN009 BKN180 OVC250 18/16 A2999 RMK AO2 BINOVC T01830161=
202104091152 METAR KATL 091152Z 21005KT 8SM SCT009 SCT150 BKN180 OVC250 17/16 A2998 RMK AO2 SLP144 T01720161 10194 20172 50014=
202104091052 METAR KATL 091052Z 00000KT 7SM BKN007 BKN180 17/16 A2995 RMK AO2 SLP136 T01720156=
202104091042 SPECI KATL 091042Z 00000KT 8SM BKN007 BKN180 BKN220 17/16 A2995 RMK AO2 T01720156=
202104090952 METAR KATL 090952Z 19004KT 10SM FEW010 SCT150 BKN180 BKN220 17/16 A2993 RMK AO2 SLP129 T01720156=
202104090852 METAR KATL 090852Z 22004KT 10SM FEW010 SCT150 BKN180 BKN250 18/16 A2992 RMK AO2 SLP126 T01780156 51004=
202104090752 METAR KATL 090752Z 21006KT 10SM FEW010 BKN190 BKN230 18/16 A2992 RMK AO2 SLP126 T01780156=
202104090652 METAR KATL 090652Z 21008KT 10SM BKN200 BKN250 19/16 A2992 RMK AO2 SLP124 T01890156=
202104090552 METAR KATL 090552Z 21009KT 10SM BKN200 BKN250 19/16 A2991 RMK AO2 SLP122 T01940156 10239 20194 51007=
202104090452 METAR KATL 090452Z 20006KT 10SM BKN250 19/15 A2991 RMK AO2 SLP120 T01940150 402560161=
202104090352 METAR KATL 090352Z 21008KT 10SM FEW250 20/14 A2990 RMK AO2 SLP119 T02000144=
202104090252 METAR KATL 090252Z 22006KT 10SM FEW250 20/14 A2989 RMK AO2 SLP115 T02000139 51016=
202104090152 METAR KATL 090152Z 20005KT 10SM FEW250 21/13 A2988 RMK AO2 SLP110 T02060133=
202104090052 METAR KATL 090052Z 21005KT 10SM FEW050 FEW250 22/13 A2986 RMK AO2 SLP104 T02220133=
202104082352 METAR KATL 082352Z 22010KT 10SM FEW050 FEW250 24/13 A2984 RMK AO2 SLP099 T02390128 10256 20222 55000=
202104082252 METAR KATL 082252Z 20007G17KT 10SM SCT045 SCT250 25/14 A2983 RMK AO2 SLP094 T02500139=
202104082152 METAR KATL 082152Z 21012KT 10SM SCT042 BKN055 BKN250 26/14 A2983 RMK AO2 SLP092 T02560144=
202104082052 METAR KATL 082052Z 20009G16KT 10SM SCT044 BKN070 BKN250 24/14 A2984 RMK AO2 SLP099 MDT CU ALQDS T02440144 56014=
202104081952 METAR KATL 081952Z 19016G22KT 10SM SCT038 BKN060 BKN140 BKN250 24/14 A2985 RMK AO2 SLP101 T02390144=
202104081852 METAR KATL 081852Z 20014G22KT 10SM SCT037 OVC055 23/14 A2988 RMK AO2 SLP111 BINOVC T02330144=
202104081752 METAR KATL 081752Z 20013G22KT 10SM SCT038 BKN050 BKN110 BKN200 23/14 A2989 RMK AO2 PK WND 19026/1725 SLP114 T02330144 10233 20161 58013=
202104081652 METAR KATL 081652Z 17008G16KT 150V210 10SM FEW032 SCT110 BKN200 BKN250 23/14 A2990 RMK AO2 SLP117 T02280144=
202104081552 METAR KATL 081552Z 20007KT 10SM FEW020 BKN100 BKN200 BKN250 19/15 A2993 RMK AO2 SLP127 T01940150=
202104081452 METAR KATL 081452Z 18007KT 10SM FEW016 BKN110 BKN150 OVC200 18/14 A2993 RMK AO2 SLP127 T01830144 50006=
202104081429 SPECI KATL 081429Z 19008KT 10SM SCT016 BKN110 BKN150 OVC200 18/14 A2993 RMK AO2 T01830144=
202104081417 SPECI KATL 081417Z 20006KT 10SM BKN016 BKN110 BKN140 OVC200 18/14 A2993 RMK AO2 CIG 014V018 T01830144=
202104081352 METAR KATL 081352Z 20005KT 10SM BKN012 BKN100 BKN140 OVC200 18/14 A2993 RMK AO2 SLP129 CIG 010V014 T01780144=
202104081350 SPECI KATL 081350Z 22006KT 10SM BKN012 BKN110 BKN150 OVC200 18/14 A2994 RMK AO2 CIG 010V014=
202104081252 METAR KATL 081252Z 20009KT 10SM FEW010 SCT130 BKN160 BKN250 17/14 A2991 RMK AO2 SLP121 T01720144=
202104081152 METAR KATL 081152Z 20007KT 10SM FEW070 SCT130 BKN170 BKN250 16/13 A2994 RMK AO2 SLP131 T01610133 10183 20161 53003=
202104081052 METAR KATL 081052Z 20006KT 10SM SCT130 BKN170 BKN250 16/13 A2993 RMK AO2 SLP129 T01610128=
202104080952 METAR KATL 080952Z 19005KT 10SM FEW070 BKN150 BKN180 17/12 A2992 RMK AO2 SLP125 T01670122=
202104080852 METAR KATL 080852Z 00000KT 10SM SCT070 BKN160 BKN250 17/11 A2993 RMK AO2 SLP127 T01670111 56008=
202104080752 METAR KATL 080752Z 21005KT 10SM BKN180 BKN250 17/11 A2994 RMK AO2 SLP130 T01670111=
202104080652 METAR KATL 080652Z 20005KT 10SM FEW150 SCT170 BKN250 18/11 A2994 RMK AO2 SLP132 T01780106=
202104080552 METAR KATL 080552Z 21006KT 10SM FEW150 SCT180 BKN250 18/10 A2995 RMK AO2 SLP136 T01780100 10233 20178 58002=
202104080452 METAR KATL 080452Z 20005KT 10SM FEW150 BKN200 BKN250 19/10 A2996 RMK AO2 SLP135 T01890100 402720139=
202104080352 METAR KATL 080352Z 20006KT 10SM BKN250 20/10 A2997 RMK AO2 SLP139 T02000100=
202104080252 METAR KATL 080252Z 21006KT 10SM BKN250 21/10 A2996 RMK AO2 SLP138 T02060100 53004=
202104080152 METAR KATL 080152Z 20006KT 10SM BKN250 21/10 A2995 RMK AO2 SLP135 T02110100=
202104080052 METAR KATL 080052Z 18005KT 10SM BKN250 23/10 A2993 RMK AO2 SLP129 T02280100=
202104072352 METAR KATL 072352Z 19005KT 10SM FEW070 BKN250 24/10 A2995 RMK AO2 SLP136 T02390100 10272 20239 58010=
202104072252 METAR KATL 072252Z 24007KT 10SM SCT070 BKN250 26/09 A2997 RMK AO2 SLP142 T02560094=
202104072152 METAR KATL 072152Z 20007KT 10SM SCT070 BKN250 26/10 A2997 RMK AO2 SLP143 T02610100=
202104072052 METAR KATL 072052Z 19008KT 10SM FEW070 SCT250 27/09 A2998 RMK AO2 SLP145 T02670089 58023=
202104071952 METAR KATL 071952Z 24007KT 10SM SCT065 26/09 A3001 RMK AO2 SLP154 T02610094=
202104071852 METAR KATL 071852Z 22007KT 10SM SCT065 BKN250 25/09 A3003 RMK AO2 SLP162 T02500094=
202104071752 METAR KATL 071752Z 24010KT 10SM FEW060 SCT250 24/10 A3005 RMK AO2 SLP169 T02440100 10261 20139 58017=
202104071652 METAR KATL 071652Z VRB03KT 10SM FEW055 SCT250 25/11 A3007 RMK AO2 SLP175 T02500106=
202104071552 METAR KATL 071552Z 29007KT 10SM FEW045 BKN250 24/13 A3009 RMK AO2 SLP184 T02390128=
202104071452 METAR KATL 071452Z 30006KT 10SM BKN250 21/13 A3010 RMK AO2 SLP187 T02110128 52006=
202104071352 METAR KATL 071352Z 29006KT 10SM FEW140 BKN250 19/12 A3009 RMK AO2 SLP184 T01890117=
202104071252 METAR KATL 071252Z 26003KT 10SM FEW070 FEW250 18/09 A3009 RMK AO2 SLP183 ACC SW-W T01780094=
202104071152 METAR KATL 071152Z 21003KT 10SM FEW250 14/08 A3008 RMK AO2 SLP181 T01390083 10178 20139 53006=
202104071052 METAR KATL 071052Z 22003KT 10SM FEW250 14/08 A3007 RMK AO2 SLP177 T01390078=
202104070952 METAR KATL 070952Z 00000KT 10SM FEW250 14/08 A3007 RMK AO2 SLP175 T01390083=
202104070852 METAR KATL 070852Z 00000KT 10SM CLR 14/08 A3006 RMK AO2 SLP174 T01440078 54000=
202104070752 METAR KATL 070752Z 27004KT 10SM CLR 16/08 A3006 RMK AO2 SLP173 T01610078=
202104070652 METAR KATL 070652Z 28004KT 10SM CLR 17/07 A3006 RMK AO2 SLP173 T01670072=
202104070552 METAR KATL 070552Z 26003KT 10SM CLR 17/07 A3006 RMK AO2 SLP173 T01720072 10239 20172 50000=
202104070352 METAR KATL 070352Z 26003KT 10SM CLR 18/06 A3007 RMK AO2 SLP174 T01830061=
202104070252 METAR KATL 070252Z 34006KT 10SM CLR 19/06 A3006 RMK AO2 SLP174 T01890061 53009=
202104070152 METAR KATL 070152Z 23005KT 10SM CLR 21/06 A3005 RMK AO2 SLP171 T02060056=
202104070052 METAR KATL 070052Z 23005KT 10SM CLR 22/06 A3004 RMK AO2 SLP168 T02170056=
202104062352 METAR KATL 062352Z 00000KT 10SM CLR 23/05 A3003 RMK AO2 SLP165 T02330050 10267 20233 56003=
202104062252 METAR KATL 062252Z 24006KT 10SM CLR 26/03 A3003 RMK AO2 SLP165 T02560028=
202104062152 METAR KATL 062152Z 21007KT 10SM FEW085 26/04 A3003 RMK AO2 SLP164 T02610039=
202104062052 METAR KATL 062052Z 22006KT 10SM FEW085 26/03 A3004 RMK AO2 SLP167 T02610033 56026=
202104061952 METAR KATL 061952Z 21008KT 10SM FEW085 26/04 A3006 RMK AO2 SLP174 T02610039=
202104061852 METAR KATL 061852Z 22010G16KT 10SM FEW085 26/03 A3009 RMK AO2 SLP184 T02560033=
202104061752 METAR KATL 061752Z VRB04KT 10SM FEW080 26/04 A3012 RMK AO2 SLP194 T02560044 10256 20128 58017=
202104061652 METAR KATL 061652Z 25004G17KT 10SM FEW070 24/03 A3014 RMK AO2 SLP200 T02390028=
202104061552 METAR KATL 061552Z 32005KT 10SM FEW001 FEW045 23/06 A3016 RMK AO2 SLP207 FU FEW001 FU PLUME W T02330061=
202104061452 METAR KATL 061452Z 29007KT 10SM CLR 21/07 A3017 RMK AO2 SLP211 T02110067 51011=
202104061352 METAR KATL 061352Z 30007KT 10SM CLR 19/06 A3016 RMK AO2 SLP207 T01890061=
202104061252 METAR KATL 061252Z 28007KT 10SM CLR 16/06 A3015 RMK AO2 SLP205 T01610061=
202104061152 METAR KATL 061152Z 29005KT 10SM CLR 13/04 A3014 RMK AO2 SLP201 T01280044 10156 20106 53017=
202104061052 METAR KATL 061052Z 22006KT 10SM CLR 11/05 A3012 RMK AO2 SLP195 T01060050=
202104060952 METAR KATL 060952Z 28004KT 10SM CLR 13/04 A3010 RMK AO2 SLP186 T01280039=
202104060852 METAR KATL 060852Z 29004KT 10SM CLR 14/03 A3009 RMK AO2 SLP182 T01440033 55000=
202104060752 METAR KATL 060752Z 28005KT 10SM CLR 15/03 A3008 RMK AO2 SLP181 T01500028=
202104060652 METAR KATL 060652Z 28005KT 10SM CLR 14/03 A3008 RMK AO2 SLP181 T01440028=
202104060552 METAR KATL 060552Z 00000KT 10SM CLR 15/03 A3009 RMK AO2 SLP182 T01500033 10228 20150 55004=
202104060452 METAR KATL 060452Z 22004KT 10SM CLR 16/03 A3009 RMK AO2 SLP182 T01560033 402560094=
202104060352 METAR KATL 060352Z 25003KT 10SM CLR 18/02 A3010 RMK AO2 SLP186 T01830022=
202104060252 METAR KATL 060252Z 29005KT 10SM CLR 18/03 A3010 RMK AO2 SLP187 T01830028 53010=
202104060152 METAR KATL 060152Z 23006KT 10SM CLR 19/02 A3009 RMK AO2 SLP186 T01940017=
202104060052 METAR KATL 060052Z 25003KT 10SM CLR 21/02 A3007 RMK AO2 SLP179 T02060017=
202104052352 METAR KATL 052352Z 25004KT 10SM CLR 23/00 A3007 RMK AO2 SLP179 T02280000 10256 20228 55004=
202104052252 METAR KATL 052252Z 20006KT 10SM CLR 24/01 A3007 RMK AO2 SLP177 T02440006=
202104052152 METAR KATL 052152Z 24005KT 10SM CLR 26/01 A3007 RMK AO2 SLP178 T02560011=
202104052052 METAR KATL 052052Z 22005KT 10SM CLR 26/00 A3008 RMK AO2 SLP182 T02560000 58023=
202104051952 METAR KATL 051952Z 19007KT 10SM CLR 25/01 A3011 RMK AO2 SLP190 T02500006 $=
202104051852 METAR KATL 051852Z VRB03KT 10SM FEW250 24/02 A3013 RMK AO2 SLP199 T02440017 $=
202104051752 METAR KATL 051752Z 22006KT 10SM CLR 24/00 A3015 RMK AO2 SLP206 T02390000 10244 20094 58017 $=
202104051652 METAR KATL 051652Z 13006KT 10SM CLR 23/01 A3017 RMK AO2 SLP213 T02330011 $=
202104051552 METAR KATL 051552Z 03006KT 10SM CLR 22/01 A3019 RMK AO2 SLP220 T02220011 $=
202104051452 METAR KATL 051452Z 31005KT 10SM CLR 20/03 A3020 RMK AO2 SLP224 T02000033 50005=
202104051352 METAR KATL 051352Z 31006KT 10SM CLR 16/03 A3021 RMK AO2 SLP226 T01610033=
202104051252 METAR KATL 051252Z 31006KT 10SM CLR 13/02 A3020 RMK AO2 SLP224 T01330022=
202104051152 METAR KATL 051152Z 28004KT 10SM CLR 09/02 A3019 RMK AO2 SLP221 T00940017 10133 20094 53008=
202104051052 METAR KATL 051052Z 27004KT 10SM CLR 10/01 A3018 RMK AO2 SLP217 T01000006=
202104050952 METAR KATL 050952Z 30004KT 10SM CLR 10/01 A3017 RMK AO2 SLP213 T01000011=
202104050852 METAR KATL 050852Z 30004KT 10SM CLR 11/01 A3016 RMK AO2 SLP212 T01060011 55005=
202104050752 METAR KATL 050752Z 29004KT 10SM CLR 12/01 A3016 RMK AO2 SLP209 T01170006=
202104050652 METAR KATL 050652Z 28004KT 10SM CLR 12/01 A3017 RMK AO2 SLP212 T01170006=
202104050552 METAR KATL 050552Z 30004KT 10SM CLR 13/01 A3018 RMK AO2 SLP217 T01280006 10200 20128 58007=
202104050452 METAR KATL 050452Z 30004KT 10SM CLR 14/M01 A3019 RMK AO2 SLP218 T01441006 402280044=
202104050352 METAR KATL 050352Z 28004KT 10SM CLR 14/00 A3020 RMK AO2 SLP223 T01440000=
202104050252 METAR KATL 050252Z 29003KT 10SM CLR 16/M01 A3020 RMK AO2 SLP224 T01561011 51006=
202104050152 METAR KATL 050152Z 27004KT 10SM CLR 17/00 A3020 RMK AO2 SLP225 T01670000=
202104050052 METAR KATL 050052Z 32004KT 10SM CLR 18/M01 A3019 RMK AO2 SLP222 T01831011=
202104042352 METAR KATL 042352Z 30006KT 10SM CLR 20/M02 A3018 RMK AO2 SLP221 T02001022 10228 20200 55004=
202104042252 METAR KATL 042252Z 30004KT 10SM CLR 22/M02 A3018 RMK AO2 SLP219 T02221017=
202104042152 METAR KATL 042152Z 28007KT 10SM CLR 23/M02 A3018 RMK AO2 SLP218 T02281017=
202104042052 METAR KATL 042052Z VRB03KT 10SM CLR 22/M01 A3020 RMK AO2 SLP223 T02221011 56027=
202104041952 METAR KATL 041952Z VRB05KT 10SM CLR 22/M03 A3022 RMK AO2 SLP230 T02221033=
202104041852 METAR KATL 041852Z 33008KT 10SM CLR 21/M02 A3025 RMK AO2 SLP241 T02111022=
202104041752 METAR KATL 041752Z 34007KT 10SM CLR 21/M02 A3028 RMK AO2 SLP252 T02061022 10206 20056 58022=
202104041652 METAR KATL 041652Z 29007KT 260V320 10SM CLR 19/M02 A3031 RMK AO2 SLP262 T01941017=
202104041552 METAR KATL 041552Z 31008G17KT 10SM CLR 18/M02 A3033 RMK AO2 SLP270 T01781017=
202104041452 METAR KATL 041452Z 30006KT 10SM CLR 17/M01 A3035 RMK AO2 SLP274 T01671006 51001=
202104041352 METAR KATL 041352Z 29006KT 10SM CLR 14/M01 A3035 RMK AO2 SLP276 T01391011=
202104041252 METAR KATL 041252Z 28004KT 10SM CLR 09/01 A3035 RMK AO2 SLP277 T00940011=
202104041152 METAR KATL 041152Z 27004KT 8SM CLR 06/M01 A3034 RMK AO2 SLP277 T00561006 10094 20044 53004=
202104041052 METAR KATL 041052Z 29005KT 10SM CLR 04/00 A3033 RMK AO2 SLP272 T00440000=
202104040952 METAR KATL 040952Z 29005KT 10SM CLR 06/M01 A3033 RMK AO2 SLP272 T00561011=
202104040852 METAR KATL 040852Z 28004KT 10SM CLR 06/M01 A3033 RMK AO2 SLP272 T00611006 56009=
202104040752 METAR KATL 040752Z 29003KT 9SM CLR 07/M01 A3033 RMK AO2 SLP271 T00721011=
202104040652 METAR KATL 040652Z 00000KT 10SM CLR 09/M02 A3034 RMK AO2 SLP274 T00891017=
202104040552 METAR KATL 040552Z 16003KT 10SM CLR 09/M02 A3036 RMK AO2 SLP280 T00941017 10167 20089 58005=
202104040452 METAR KATL 040452Z 00000KT 10SM CLR 11/M02 A3037 RMK AO2 SLP286 T01061022 401780017=
202104040352 METAR KATL 040352Z 15003KT 10SM CLR 11/M01 A3037 RMK AO2 SLP287 T01061011=
202104040252 METAR KATL 040252Z 00000KT 10SM CLR 12/M03 A3037 RMK AO2 SLP286 T01221033 53012=
202104040152 METAR KATL 040152Z 16003KT 10SM CLR 11/M01 A3036 RMK AO2 SLP283 T01111011=
202104040052 METAR KATL 040052Z 13003KT 10SM CLR 14/M03 A3035 RMK AO2 SLP278 T01441028=
202104032352 METAR KATL 032352Z 00000KT 10SM FEW250 17/M06 A3034 RMK AO2 SLP274 T01671061 10178 20144 56006=
202104032252 METAR KATL 032252Z 19004KT 10SM FEW200 FEW250 17/M06 A3034 RMK AO2 SLP276 T01721056=
202104032152 METAR KATL 032152Z 25005KT 10SM FEW200 FEW250 17/M05 A3034 RMK AO2 SLP278 T01721050=
202104032052 METAR KATL 032052Z 19005KT 10SM SCT200 BKN250 16/M06 A3036 RMK AO2 SLP282 T01611056 58021=
202104031952 METAR KATL 031952Z 00000KT 10SM SCT200 BKN250 17/M05 A3039 RMK AO2 SLP292 T01671050=
202104031852 METAR KATL 031852Z 18005KT 10SM BKN250 16/M04 A3040 RMK AO2 SLP298 T01561044=
202104031752 METAR KATL 031752Z 27004KT 10SM BKN250 14/M06 A3042 RMK AO2 SLP304 T01441061 10150 20033 58019=
202104031652 METAR KATL 031652Z 00000KT 10SM BKN250 14/M05 A3044 RMK AO2 SLP312 T01391050=
202104031552 METAR KATL 031552Z 14005KT 10SM SCT250 12/M05 A3047 RMK AO2 SLP321 T01221050=
202104031452 METAR KATL 031452Z VRB03KT 10SM SCT250 11/M04 A3048 RMK AO2 SLP324 T01061039 52013=
202104031352 METAR KATL 031352Z 10004KT 10SM FEW250 09/M03 A3047 RMK AO2 SLP321 T00891033=
202104031252 METAR KATL 031252Z 10007KT 10SM CLR 05/M03 A3045 RMK AO2 SLP315 T00501028=
202104031152 METAR KATL 031152Z 07004KT 10SM CLR 04/M05 A3044 RMK AO2 SLP312 T00391050 10056 20017 53017=
202104031052 METAR KATL 031052Z 32003KT 10SM CLR 02/M04 A3042 RMK AO2 SLP307 T00171044=
202104030952 METAR KATL 030952Z 00000KT 10SM CLR 02/M04 A3040 RMK AO2 SLP300 T00221044=
202104030852 METAR KATL 030852Z 00000KT 10SM CLR 02/M03 A3039 RMK AO2 SLP295 T00221033 53002=
202104030752 METAR KATL 030752Z 00000KT 10SM CLR 03/M04 A3038 RMK AO2 SLP292 T00281039=
202104030652 METAR KATL 030652Z 00000KT 10SM CLR 04/M05 A3038 RMK AO2 SLP292 T00391050=
202104030552 METAR KATL 030552Z 00000KT 10SM CLR 05/M06 A3038 RMK AO2 SLP292 T00501061 10106 20044 53003=
202104030452 METAR KATL 030452Z 31004KT 10SM CLR 06/M06 A3038 RMK AO2 SLP292 T00561061 401390006=
202104030352 METAR KATL 030352Z 33004KT 10SM CLR 06/M07 A3037 RMK AO2 SLP290 T00611067=
202104030252 METAR KATL 030252Z 33005KT 10SM CLR 07/M06 A3037 RMK AO2 SLP291 T00721061 51012=
202104030152 METAR KATL 030152Z 33008KT 10SM CLR 08/M06 A3037 RMK AO2 SLP290 T00831061=
202104030052 METAR KATL 030052Z 32008KT 10SM CLR 09/M06 A3036 RMK AO2 SLP285 T00941061=
202104022352 METAR KATL 022352Z 32009KT 10SM CLR 11/M06 A3034 RMK AO2 SLP279 T01061061 10139 20106 56002=
202104022252 METAR KATL 022252Z 31009KT 10SM CLR 12/M06 A3034 RMK AO2 SLP279 T01221061=
202104022152 METAR KATL 022152Z 33007KT 10SM CLR 13/M08 A3034 RMK AO2 SLP277 T01331078=
202104022052 METAR KATL 022052Z 35006KT 10SM CLR 13/M08 A3035 RMK AO2 SLP281 T01331083 56019=
202104021952 METAR KATL 021952Z 01006KT 10SM CLR 13/M09 A3036 RMK AO2 SLP284 T01281089=
202104021852 METAR KATL 021852Z VRB06KT 10SM CLR 12/M08 A3038 RMK AO2 SLP292 T01171083=
202104021752 METAR KATL 021752Z 35008KT 10SM CLR 11/M09 A3041 RMK AO2 SLP301 T01111089 10117 20011 58007=
202104021652 METAR KATL 021652Z 01007KT 10SM CLR 09/M09 A3042 RMK AO2 SLP305 T00941089=
202104021552 METAR KATL 021552Z 36008KT 10SM CLR 08/M09 A3042 RMK AO2 SLP308 T00781089=
202104021452 METAR KATL 021452Z 35011G18KT 10SM CLR 06/M08 A3043 RMK AO2 SLP309 T00611083 51016=
202104021352 METAR KATL 021352Z 35010KT 10SM CLR 04/M07 A3042 RMK AO2 SLP306 T00441067=
202104021252 METAR KATL 021252Z 34009KT 10SM CLR 03/M07 A3040 RMK AO2 SLP299 T00281072=
202104021152 METAR KATL 021152Z 35011KT 10SM CLR 01/M07 A3038 RMK AO2 SLP294 T00111072 10039 20006 53019=
202104021052 METAR KATL 021052Z 34009KT 10SM CLR 01/M06 A3036 RMK AO2 SLP284 T00111061=
202104020952 METAR KATL 020952Z 34009KT 10SM CLR 02/M07 A3033 RMK AO2 SLP277 T00171067=
202104020852 METAR KATL 020852Z 33006KT 10SM CLR 02/M07 A3032 RMK AO2 SLP273 T00171067 53001=
202104020752 METAR KATL 020752Z 34008KT 10SM CLR 03/M07 A3031 RMK AO2 SLP269 T00281067=
202104020652 METAR KATL 020652Z 35009KT 10SM CLR 03/M08 A3031 RMK AO2 SLP270 T00331078=
202104020552 METAR KATL 020552Z 35010KT 10SM CLR 04/M07 A3032 RMK AO2 SLP271 T00391072 10089 20039 53003=
202104020452 METAR KATL 020452Z 34012KT 10SM CLR 04/M07 A3031 RMK AO2 SLP267 T00441072 401170044=
202104020352 METAR KATL 020352Z 33012KT 10SM CLR 06/M07 A3030 RMK AO2 SLP266 T00561072=
202104020252 METAR KATL 020252Z 33016G22KT 10SM CLR 06/M07 A3031 RMK AO2 PK WND 34027/0238 SLP269 T00611072 51021=
202104020152 METAR KATL 020152Z 35015G25KT 10SM CLR 07/M08 A3030 RMK AO2 SLP266 T00721078=
202104020052 METAR KATL 020052Z 36014G25KT 10SM CLR 08/M08 A3027 RMK AO2 SLP256 T00781078=
202104012352 METAR KATL 012352Z 35017G25KT 10SM CLR 09/M09 A3025 RMK AO2 SLP247 T00891089 10117 20089 53005=
202104012252 METAR KATL 012252Z 33013G24KT 10SM CLR 11/M10 A3024 RMK AO2 PK WND 34027/2225 SLP243 T01061100=
202104012152 METAR KATL 012152Z 32021G27KT 10SM CLR 11/M09 A3022 RMK AO2 PK WND 32033/2142 SLP237 T01111094=
202104012052 METAR KATL 012052Z 30019G31KT 10SM CLR 11/M09 A3023 RMK AO2 PK WND 32031/2049 SLP240 T01111089 56014=
202104011952 METAR KATL 011952Z 33020G29KT 10SM CLR 11/M09 A3024 RMK AO2 PK WND 36034/1906 SLP243 T01111089=
202104011852 METAR KATL 011852Z 31017G27KT 10SM CLR 11/M08 A3025 RMK AO2 PK WND 35032/1825 SLP248 T01061083=
202104011752 METAR KATL 011752Z 32019G31KT 10SM CLR 10/M08 A3027 RMK AO2 PK WND 33031/1745 SLP254 T01001083 10100 20044 58001=
202104011652 METAR KATL 011652Z 35019G29KT 10SM CLR 09/M08 A3028 RMK AO2 PK WND 34029/1604 SLP257 T00941083=
202104011552 METAR KATL 011552Z 33021G30KT 10SM CLR 08/M08 A3029 RMK AO2 PK WND 32030/1548 SLP259 T00831083=
202104011452 METAR KATL 011452Z 33017G29KT 10SM CLR 07/M08 A3027 RMK AO2 PK WND 34036/1411 SLP255 T00721083 52019=
202104011352 METAR KATL 011352Z 32021G29KT 10SM CLR 06/M08 A3025 RMK AO2 PK WND 33035/1324 SLP248 T00611078=
202104011252 METAR KATL 011252Z 33013G22KT 10SM CLR 06/M06 A3024 RMK AO2 PK WND 33026/1206 SLP242 T00561056=
