##########################################################
# Query made at 04/20/2024 00:17:55 UTC
# Time interval: from 08/01/2021 12:00  to 08/31/2021 12:59  UTC
##########################################################

##########################################################
# KATL, Atlanta, Hartsfield - Jackson Atlanta International Airport (United States)
# WMO index: 72219. WIGOS ID: 0-20000-0-72219
# Latitude 33-38-59N. Longitude 084-25-00W. Altitude 312 m.
##########################################################

202108311252 METAR KATL 311252Z 15013G22KT 6SM -RA BR BKN009 BKN012 OVC022 24/22 A2978 RMK AO2 RAB10 SLP076 P0002 T02390222=
202108311243 SPECI KATL 311243Z 15015G22KT 6SM -RA BR BKN009 BKN016 OVC055 24/22 A2979 RMK AO2 RAB10 P0001 T02390222=
202108311218 SPECI KATL 311218Z 15012G20KT 3SM -RA BR FEW009 OVC012 24/22 A2980 RMK AO2 RAB10 P0001 T02390222=
202108311152 METAR KATL 311152Z 16011G23KT 7SM BKN009 OVC013 24/22 A2981 RMK AO2 SLP083 BKN009 V SCT 60000 70015 T02390222 10239 20228 55007=
202108311127 SPECI KATL 311127Z 14010G22KT 7SM BKN007 BKN013 OVC090 23/22 A2980 RMK AO2 BKN007 V SCT T02330217=
202108311115 SPECI KATL 311115Z 15011G19KT 7SM SCT007 BKN013 BKN080 OVC130 23/22 A2980 RMK AO2 SCT007 V BKN T02330217=
202108311052 METAR KATL 311052Z 14010G18KT 8SM SCT007 SCT012 BKN080 BKN130 23/22 A2980 RMK AO2 SLP081 SCT007 V BKN T02330217=
202108311039 SPECI KATL 311039Z 14009KT 8SM SCT007 SCT012 BKN065 BKN130 23/22 A2981 RMK AO2 SCT007 V BKN T02330217=
202108310952 METAR KATL 310952Z 14010KT 7SM BKN007 BKN013 BKN050 OVC130 23/22 A2982 RMK AO2 RAE52 SLP087 CIG 006V009 BKN007 V SCT P0000 T02330217=
202108310852 METAR KATL 310852Z 14009KT 7SM -RA BKN006 BKN012 OVC120 23/22 A2983 RMK AO2 RAB32 SLP090 CIG 005V008 P0000 60000 T02280217 58025=
202108310849 SPECI KATL 310849Z 13008KT 7SM -RA BKN008 BKN012 OVC120 23/22 A2983 RMK AO2 RAB32 P0000=
202108310752 METAR KATL 310752Z 13005KT 10SM FEW005 BKN075 BKN150 OVC200 23/21 A2985 RMK AO2 SLP099 T02280211=
202108310652 METAR KATL 310652Z 14004KT 10SM FEW005 BKN150 OVC200 23/21 A2988 RMK AO2 SLP107 T02280211=
202108310552 METAR KATL 310552Z 12007KT 10SM FEW007 SCT150 BKN200 OVC250 23/22 A2990 RMK AO2 SLP115 60000 T02280217 10239 20228 58009=
202108310532 SPECI KATL 310532Z 13006KT 10SM FEW007 SCT130 BKN200 OVC250 23/21 A2991 RMK AO2 T02280211=
202108310452 METAR KATL 310452Z 14004KT 10SM FEW130 BKN200 OVC250 23/21 A2993 RMK AO2 SLP123 T02280211 403000228=
202108310352 METAR KATL 310352Z 14004KT 10SM FEW010 SCT150 BKN200 OVC250 23/21 A2993 RMK AO2 SLP122 T02280206=
202108310252 METAR KATL 310252Z 13003KT 10SM BKN150 OVC200 23/21 A2993 RMK AO2 SLP125 60000 T02280211 58003=
202108310152 METAR KATL 310152Z 13004KT 10SM FEW012 BKN150 OVC200 23/21 A2995 RMK AO2 SLP130 T02330211=
202108310052 METAR KATL 310052Z 17004KT 10SM FEW020 SCT110 BKN150 OVC200 23/22 A2993 RMK AO2 RAE47 SLP127 P0000 T02330217=
202108302352 METAR KATL 302352Z 17006KT 9SM -RA FEW020 SCT080 BKN110 OVC150 24/22 A2994 RMK AO2 SLP130 CB DSNT SW-NW P0003 60015 T02390217 10300 20239 53000=
202108302252 METAR KATL 302252Z 18013G20KT 8SM -RA FEW025 BKN080 BKN110 OVC200 26/23 A2994 RMK AO2 LTG DSNT NE AND SE AND NW RAB36 SLP130 VIS LWR SE-SW CB DSNT NE SE SW NW P0001 T02560228=
202108302152 METAR KATL 302152Z 15004KT 10SM FEW025CB SCT140 OVC200 27/24 A2994 RMK AO2 SLP126 CB E-SE DSNT SE-S MOV N TCU DSNT NE-E T02720239=
202108302052 METAR KATL 302052Z 14006KT 10SM FEW030TCU FEW075 SCT140 OVC200 27/23 A2994 RMK AO2 LTG DSNT N SLP128 RAE1956 TSE1956 TS MOVD N CB DSNT N-NE SE SW TCU SE SW W-NW DSNT NE-SE P0000 60011 T02720228 56021 $=
202108301958 SPECI KATL 301958Z 13005KT 10SM FEW014 SCT032 SCT070 BKN130 OVC200 26/22 A2995 RMK AO2 LTG DSNT E RAE56 TSE56 TS MOVD N CB DSNT N-E P0000 T02610222 $=
202108301952 METAR KATL 301952Z 13005KT 10SM VCTS -RA FEW012 SCT034CB SCT070 BKN130 OVC200 26/22 A2995 RMK AO2 PK WND 14026/1927 LTG DSNT E SLP132 TSB37 OCNL LTGICCA VC N-NE TS VC N-NE MOV N CB DSNT E TCU DSNT NE W-NW P0011 T02610222 $=
202108301938 SPECI KATL 301938Z 10010G21KT 4SM R09R/5000V6000FT -TSRA BKN034CB BKN042TCU BKN070 OVC130 24/21 A2996 RMK A02 PK WND 14026/1927 LTG DSNT E AND SE AND NW TSB37 OCNL LTGICCA NE-E TS NE-E MOV NW CB DSNT SE NW TCU ALQDS P0011 T02440211=
202108301935 SPECI KATL 301935Z 12013G26KT 3/4SM R09R/5000VP6000FT RA BKN034CB BKN042TCU BKN070 OVC130 24/21 A2997 RMK AO2 PK WND 14026/1927 SFC VIS 2 LTG DSNT SE AND NW CB OHD-NE-SE MOV NW CB DSNT SE NW TCU ALQDS P0011 T02440211=
202108301852 METAR KATL 301852Z 13010G17KT 4SM R09R/4500VP6000FT RA BKN032TCU BKN070 BKN110 OVC200 29/22 A2998 RMK AO2 LTG DSNT W RAB50 SLP141 CB DSNT W TCU OHD-ALQDS P0000 T02890222=
202108301752 METAR KATL 301752Z 15006KT 10SM BKN032TCU BKN070 BKN200 OVC250 30/22 A3001 RMK AO2 SLP148 TCU ALQDS T03000222 10300 20239 58016=
202108301652 METAR KATL 301652Z 14008KT 10SM BKN031 BKN200 BKN300 30/23 A3003 RMK AO2 SLP157 TCU DSNT E SE MDT CU ALQDS T03000228=
202108301552 METAR KATL 301552Z 14010KT 10SM FEW001 SCT025 BKN200 BKN300 29/23 A3004 RMK AO2 SLP162 FU FEW001 FU PLUME NE T02940228=
202108301452 METAR KATL 301452Z 16007KT 10SM FEW020 SCT150 BKN200 OVC300 28/23 A3005 RMK AO2 SLP165 T02830233 58006=
202108301352 METAR KATL 301352Z 15006KT 9SM FEW014 SCT150 BKN200 OVC300 27/23 A3006 RMK AO2 SLP169 T02670228=
202108301252 METAR KATL 301252Z 15004KT 8SM FEW150 BKN200 BKN250 24/22 A3008 RMK AO2 SLP174 T02440222=
202108301152 METAR KATL 301152Z 00000KT 9SM FEW008 FEW150 SCT200 BKN250 24/21 A3007 RMK AO2 SLP172 T02390211 10256 20233 53002=
202108301145 SPECI KATL 301145Z 16003KT 9SM FEW008 FEW150 SCT200 BKN250 23/21 A3007 RMK AO2 T02330211=
202108301052 METAR KATL 301052Z 09006KT 10SM FEW150 SCT180 SCT250 24/21 A3007 RMK AO2 SLP170 T02390206 $=
202108300952 METAR KATL 300952Z 13004KT 10SM FEW012 SCT180 SCT250 24/21 A3006 RMK AO2 SLP169 T02440206=
202108300852 METAR KATL 300852Z 09005KT 10SM FEW012 FEW180 SCT250 24/21 A3007 RMK AO2 SLP169 T02440211 56015=
202108300752 METAR KATL 300752Z 11004KT 10SM CLR 25/21 A3008 RMK AO2 SLP173 T02500211=
202108300652 METAR KATL 300652Z 00000KT 10SM FEW040 SCT180 SCT250 25/21 A3009 RMK AO2 SLP179 T02500211=
202108300552 METAR KATL 300552Z 15003KT 10SM FEW040 FEW060 SCT180 BKN250 26/21 A3011 RMK AO2 SLP184 T02560211 10283 20256 50000=
202108300452 METAR KATL 300452Z 13003KT 10SM FEW040 SCT070 SCT090 BKN200 BKN250 26/21 A3012 RMK AO2 SLP189 T02610211 403170244=
202108300352 METAR KATL 300352Z 12005KT 10SM SCT180 BKN200 BKN250 27/21 A3012 RMK AO2 SLP188 T02670211=
202108300252 METAR KATL 300252Z 09007KT 10SM SCT180 BKN210 BKN250 27/21 A3011 RMK AO2 SLP184 T02720211 50002=
202108300152 METAR KATL 300152Z 10006KT 10SM FEW040 SCT150 BKN180 BKN250 28/22 A3012 RMK AO2 SLP188 T02780217=
202108300052 METAR KATL 300052Z 16004KT 10SM FEW040 SCT150 BKN180 BKN250 28/22 A3013 RMK AO2 SLP191 T02780217=
202108292352 METAR KATL 292352Z 16005KT 10SM FEW043 SCT150 BKN180 BKN250 28/22 A3010 RMK AO2 SLP183 T02830217 10317 20283 53001=
202108292252 METAR KATL 292252Z 16004KT 10SM FEW045 FEW150 BKN200 BKN250 29/21 A3009 RMK AO2 SLP179 T02940206=
202108292152 METAR KATL 292152Z 15006KT 10SM FEW043 FEW150 SCT200 SCT250 31/20 A3010 RMK AO2 SLP181 MDT CU SW-NW T03060200=
202108292052 METAR KATL 292052Z 12011KT 10SM SCT046 SCT060 BKN180 31/21 A3010 RMK AO2 SLP181 MDT CU DSNT S AND W T03060206 56024=
202108291952 METAR KATL 291952Z 13010G16KT 10SM SCT042 SCT060 BKN150 32/21 A3012 RMK AO2 SLP188 MDT CU DSNT SE AND W T03170211=
202108291852 METAR KATL 291852Z 13007KT 100V160 10SM SCT038 BKN055 BKN150 31/22 A3015 RMK AO2 SLP198 MDT CU DSNT N AND S-SW T03110217=
202108291752 METAR KATL 291752Z 11008KT 10SM SCT038 SCT055 BKN150 29/21 A3017 RMK AO2 SLP207 MDT CU DSNT SE-S T02940211 10300 20244 58010=
202108291652 METAR KATL 291652Z 09009KT 10SM SCT027 BKN035 BKN150 29/22 A3019 RMK AO2 SLP210 T02940222=
202108291637 SPECI KATL 291637Z 10008KT 080V140 10SM SCT026 BKN034 BKN150 29/22 A3019 RMK AO2 T02940217=
202108291552 METAR KATL 291552Z 11006KT 10SM SCT022 BKN029 BKN150 28/22 A3020 RMK AO2 SLP216 T02830217=
202108291452 METAR KATL 291452Z 09008KT 8SM BKN018 BKN028 BKN150 28/22 A3021 RMK AO2 SLP218 T02780222 58005=
202108291352 METAR KATL 291352Z 10004KT 7SM SCT009 SCT015 BKN027 BKN150 26/22 A3021 RMK AO2 SLP221 T02610222=
202108291316 SPECI KATL 291316Z 09008KT 7SM SCT009 BKN013 BKN023 BKN220 25/22 A3022 RMK AO2 T02500222=
202108291252 METAR KATL 291252Z 09006KT 7SM BKN009 BKN013 BKN022 OVC220 25/22 A3023 RMK AO2 SLP225 BKN009 V SCT BINOVC T02500222=
202108291152 METAR KATL 291152Z 11007KT 7SM BKN009 OVC022 24/22 A3022 RMK AO2 SLP223 CIG 008V012 BKN009 V SCT T02440222 10250 20244 53020=
202108291111 SPECI KATL 291111Z 10006KT 8SM BKN009 BKN022 BKN180 24/22 A3020 RMK AO2 BKN009 V SCT T02440222=
202108291052 METAR KATL 291052Z 12004KT 10SM SCT008 BKN022 BKN180 24/22 A3020 RMK AO2 SLP215 BKN022 V SCT T02440222=
202108290952 METAR KATL 290952Z 12006KT 10SM FEW008 BKN016 OVC021 24/22 A3018 RMK AO2 SLP208 T02440222=
202108290852 METAR KATL 290852Z 13007KT 10SM BKN008 BKN013 24/22 A3016 RMK AO2 SLP201 BKN008 V SCT T02440222 50001=
202108290752 METAR KATL 290752Z 14006KT 10SM BKN006 OVC009 24/22 A3016 RMK AO2 SLP203 T02440222=
202108290735 SPECI KATL 290735Z 15007KT 10SM BKN009 BKN180 24/22 A3017 RMK AO2 T02440222=
202108290652 METAR KATL 290652Z 12005KT 10SM FEW025 SCT180 SCT250 24/22 A3016 RMK AO2 SLP201 T02440222=
202108290552 METAR KATL 290552Z 09008KT 10SM FEW025 FEW180 FEW250 25/22 A3016 RMK AO2 SLP201 T02500222 10283 20250 58010=
202108290452 METAR KATL 290452Z 14006KT 10SM FEW030 SCT170 SCT250 26/23 A3017 RMK AO2 SLP207 T02560228 403060239=
202108290352 METAR KATL 290352Z 12005KT 10SM SCT022 SCT170 SCT250 26/23 A3019 RMK AO2 SLP211 T02610228=
202108290252 METAR KATL 290252Z 13006KT 10SM SCT028 BKN050 BKN170 BKN250 27/22 A3019 RMK AO2 SLP212 T02670222 50008=
202108290152 METAR KATL 290152Z 14005KT 10SM FEW050 FEW070 BKN170 BKN250 27/22 A3020 RMK AO2 SLP214 T02670217=
202108290052 METAR KATL 290052Z 13006KT 10SM FEW049 SCT070 SCT120 SCT200 SCT250 27/22 A3019 RMK AO2 SLP213 CB DSNT E T02720217=
202108282352 METAR KATL 282352Z 11010G19KT 10SM FEW036 SCT070 SCT200 SCT250 28/22 A3016 RMK AO2 LTG DSNT SW SLP203 CB DSNT SE & S-SW TCU DSNT E T02830217 10306 20283 53005=
202108282252 METAR KATL 282252Z 10009KT 10SM SCT036 SCT070 BKN200 BKN250 29/22 A3016 RMK AO2 LTG DSNT S SLP201 MDT CU N-SE CB DSNT S T02940217=
202108282152 METAR KATL 282152Z 08009KT 10SM SCT038 SCT200 SCT250 30/21 A3015 RMK AO2 SLP198 MDT CU DSNT E-SE-S T03000206=
202108282052 METAR KATL 282052Z 13009KT 10SM SCT033 SCT045 SCT160 BKN250 31/21 A3015 RMK AO2 SLP198 MDT CU DSNT W T03060206 58021=
202108281952 METAR KATL 281952Z 08010KT 10SM SCT033 SCT041 SCT070 BKN150 30/22 A3017 RMK AO2 SLP204 MDT CU DSNT SW-N T03000217=
202108281852 METAR KATL 281852Z 13010KT 10SM SCT033 SCT044 BKN065 BKN150 29/21 A3020 RMK AO2 SLP216 MDT CU DSNT SE-S AND NW-N T02940211=
202108281752 METAR KATL 281752Z 08010KT 10SM SCT030 BKN039 BKN060 BKN150 29/21 A3021 RMK AO2 SLP220 MDT CU DSNT SE-S AND NW-N T02890211 10300 20239 58008=
202108281652 METAR KATL 281652Z 11009KT 10SM SCT030 SCT044 BKN065 BKN150 28/21 A3023 RMK AO2 SLP226 MDT CU DSNT NW-N T02830211=
202108281552 METAR KATL 281552Z 10007KT 060V140 10SM SCT025 SCT042 BKN050 BKN150 29/22 A3023 RMK AO2 SLP227 MDT CU DSNT NW T02890217=
202108281452 METAR KATL 281452Z 11006KT 10SM SCT017 SCT026 BKN035 BKN150 27/22 A3024 RMK AO2 SLP228 T02720217 51013=
202108281411 SPECI KATL 281411Z 12006KT 8SM SCT011 BKN019 26/22 A3023 RMK AO2 T02610217=
202108281352 METAR KATL 281352Z 11007KT 7SM BKN011 BKN018 26/22 A3023 RMK AO2 SLP226 T02560222=
202108281252 METAR KATL 281252Z 11006KT 3SM BR BKN005 BKN011 24/23 A3021 RMK AO2 SFC VIS 6 SLP221 CIG 004V007 T02440228=
202108281152 METAR KATL 281152Z 11004KT 1SM R09R/P6000FT BR BKN004 24/23 A3020 RMK AO2 SFC VIS 4 SLP215 VIS N-E 1 1/2 CIG 003V005 TWRINC T02390228 10250 20239 53012=
202108281131 SPECI KATL 281131Z 11007KT 7SM BKN005 24/22 A3019 RMK AO2 T02390222=
202108281052 METAR KATL 281052Z 11004KT 8SM BKN004 BKN008 24/23 A3018 RMK AO2 SLP207 T02390228=
202108280952 METAR KATL 280952Z 13005KT 8SM BKN004 BKN150 BKN250 24/22 A3017 RMK AO2 SLP204 BKN004 V SCT T02390222=
202108280852 METAR KATL 280852Z 12006KT 10SM BKN006 BKN150 BKN220 24/22 A3016 RMK AO2 SLP201 T02390222 55000=
202108280819 SPECI KATL 280819Z 11005KT 10SM FEW006 SCT150 BKN220 24/22 A3016 RMK AO2 T02390222=
202108280752 METAR KATL 280752Z 12006KT 10SM FEW150 BKN220 BKN250 24/22 A3015 RMK AO2 SLP199 T02440222=
202108280652 METAR KATL 280652Z 12007KT 10SM FEW150 BKN220 BKN250 24/22 A3016 RMK AO2 SLP199 T02440217=
202108280552 METAR KATL 280552Z 12005KT 10SM FEW150 BKN220 BKN250 25/22 A3016 RMK AO2 SLP201 T02500217 10261 20244 58004=
202108280452 METAR KATL 280452Z 13004KT 10SM FEW150 BKN200 BKN250 24/21 A3017 RMK AO2 SLP206 T02440211 403220233=
202108280352 METAR KATL 280352Z 08007KT 10SM FEW150 SCT200 BKN250 25/21 A3018 RMK AO2 SLP208 T02500211=
202108280252 METAR KATL 280252Z 10005KT 10SM FEW150 SCT200 BKN250 24/21 A3017 RMK AO2 SLP206 T02440211 51008=
202108280152 METAR KATL 280152Z 09007KT 10SM FEW150 SCT200 BKN250 24/20 A3017 RMK AO2 SLP207 T02440200=
202108280052 METAR KATL 280052Z 11003KT 10SM FEW035 SCT150 BKN200 BKN250 26/20 A3015 RMK AO2 LTG DSNT NW SLP200 CB DSNT NW T02560200=
202108272352 METAR KATL 272352Z 12008KT 10SM FEW035 SCT080 BKN150 BKN200 26/19 A3015 RMK AO2 PK WND 10033/2319 RAB18E44 TSB02E51 SLP199 LTG DSNT NW TS MOVD NW P0000 60000 T02610189 10322 20261 53015=
202108272302 SPECI KATL 272302Z 15009G15KT 10SM TS SCT040CB BKN070 BKN200 31/22 A3012 RMK AO2 TSB02 OCNL LTGICCG E-SE TS E-SE MOV NW TCU OHD-ALQDS T03110217=
202108272252 METAR KATL 272252Z 13009KT 10SM SCT040TCU SCT070 BKN200 31/21 A3011 RMK AO2 LTG DSNT E AND SE SLP186 CB DSNT E SE TCU NW-NE-SE-SW T03110211=
202108272152 METAR KATL 272152Z 09011G15KT 10SM SCT040TCU SCT075 SCT200 BKN250 32/22 A3010 RMK AO2 SLP182 CB DSNT SE S TCU OHD DSNT ALQDS T03170217=
202108272052 METAR KATL 272052Z 07011G18KT 10SM SCT042TCU SCT075 SCT200 BKN250 32/22 A3010 RMK AO2 SLP181 CB DSNT E-SE TCU E-SE DSNT ALQDS T03170217 56018=
202108271952 METAR KATL 271952Z 09007KT 10SM FEW043TCU SCT070 SCT200 31/21 A3010 RMK AO2 SLP182 CB DSNT NE SE TCU N NE NW DSNT NE SE NW T03110211=
202108271852 METAR KATL 271852Z 10008KT 10SM SCT040TCU BKN070 BKN200 32/22 A3013 RMK AO2 SLP191 CB DSNT SE TCU N NE E S W DSNT SW NW T03170217=
202108271752 METAR KATL 271752Z 09009KT 10SM SCT035TCU BKN070 BKN200 BKN250 30/21 A3016 RMK AO2 SLP200 TCU NE E SE-S W DSNT ALQDS T03000211 10311 20239 58005=
202108271652 METAR KATL 271652Z 12008KT 10SM SCT034 BKN065 BKN200 BKN250 29/21 A3018 RMK AO2 SLP208 TCU DSNT NE-SE-SW MDT CU ALQDS T02940211=
202108271552 METAR KATL 271552Z 12009KT 10SM SCT032 BKN050 BKN200 BKN250 29/21 A3019 RMK AO2 SLP210 MDT CU ALQDS T02890206=
202108271452 METAR KATL 271452Z 11009KT 10SM SCT024 SCT180 SCT250 28/21 A3017 RMK AO2 SLP206 T02780211 53009=
202108271352 METAR KATL 271352Z 09007KT 10SM FEW016 FEW200 SCT250 27/22 A3016 RMK AO2 SLP202 T02670217 $=
202108271252 METAR KATL 271252Z 09007KT 9SM FEW015 SCT200 SCT250 25/22 A3015 RMK AO2 SLP197 T02500222=
202108271152 METAR KATL 271152Z 09005KT 9SM FEW038 FEW200 FEW250 24/22 A3014 RMK AO2 SLP196 T02390217 10261 20233 53004=
202108271052 METAR KATL 271052Z 11005KT 10SM FEW038 SCT200 SCT250 24/21 A3014 RMK AO2 SLP194 T02390211=
202108270952 METAR KATL 270952Z 09005KT 10SM FEW045 SCT200 SCT250 24/22 A3012 RMK AO2 SLP190 T02390217=
202108270852 METAR KATL 270852Z 11005KT 10SM SCT045 SCT150 SCT250 24/22 A3013 RMK AO2 SLP191 T02440217 56005=
202108270752 METAR KATL 270752Z 13004KT 10SM SCT045 SCT130 SCT250 25/22 A3013 RMK AO2 SLP192 T02500217=
202108270652 METAR KATL 270652Z 10004KT 10SM FEW035 FEW130 SCT250 25/22 A3013 RMK AO2 SLP193 T02500217=
202108270552 METAR KATL 270552Z 10003KT 10SM SCT130 SCT200 SCT250 26/22 A3015 RMK AO2 SLP196 T02610217 10294 20261 58003=
202108270452 METAR KATL 270452Z 06004KT 10SM FEW120 FEW250 27/22 A3016 RMK AO2 SLP200 T02670217 403170222=
202108270352 METAR KATL 270352Z 09004KT 10SM FEW200 27/21 A3015 RMK AO2 SLP200 T02670211=
202108270252 METAR KATL 270252Z 00000KT 10SM FEW200 27/21 A3015 RMK AO2 SLP200 T02670211 53012=
202108270152 METAR KATL 270152Z 14003KT 10SM FEW200 SCT250 27/21 A3014 RMK AO2 SLP197 T02670211=
202108270052 METAR KATL 270052Z 12004KT 10SM FEW200 28/20 A3013 RMK AO2 SLP191 T02830200=
202108262352 METAR KATL 262352Z 11007KT 10SM FEW045 FEW200 29/19 A3012 RMK AO2 SLP188 T02940194 10317 20289 55001=
202108262252 METAR KATL 262252Z 14004KT 10SM FEW045 FEW200 31/20 A3011 RMK AO2 SLP186 T03060200=
202108262152 METAR KATL 262152Z 11005KT 10SM FEW045 FEW200 31/20 A3011 RMK AO2 SLP186 T03060200=
202108262052 METAR KATL 262052Z 11007KT 10SM FEW044 FEW060 SCT140 SCT250 31/19 A3012 RMK AO2 SLP189 MDT CU S-W-NW T03110194 57018=
202108261952 METAR KATL 261952Z 09004KT 10SM SCT038 SCT055 SCT130 BKN250 30/21 A3014 RMK AO2 SLP194 MDT CU ALQDS T03000206=
202108261852 METAR KATL 261852Z 15005KT 10SM SCT034 SCT120 BKN250 31/21 A3016 RMK AO2 SLP202 T03060211=
202108261752 METAR KATL 261752Z 18005KT 10SM BKN031 BKN120 BKN250 29/22 A3018 RMK AO2 SLP208 T02940217 10294 20222 58010=
202108261652 METAR KATL 261652Z 13005KT 10SM SCT028 SCT150 BKN250 28/22 A3020 RMK AO2 SLP215 T02830217=
202108261552 METAR KATL 261552Z 12004KT 10SM FEW024 BKN140 BKN250 27/21 A3021 RMK AO2 SLP219 T02670211=
202108261452 METAR KATL 261452Z 16004KT 10SM FEW022 BKN140 BKN250 25/21 A3021 RMK AO2 SLP220 T02500211 51010=
202108261352 METAR KATL 261352Z 13005KT 10SM FEW010 BKN140 BKN200 BKN250 24/21 A3020 RMK AO2 SLP218 T02440211=
202108261252 METAR KATL 261252Z 16003KT 6SM BR SCT005 BKN120 BKN250 23/21 A3019 RMK AO2 SLP215 SCT005 V BKN T02280211=
202108261229 SPECI KATL 261229Z 15006KT 6SM BR SCT005 BKN200 BKN250 23/22 A3019 RMK AO2 SCT004 V BKN T02280217=
202108261152 METAR KATL 261152Z 13003KT 6SM BR BKN004 BKN200 BKN250 22/21 A3018 RMK AO2 SLP208 BKN004 V SCT 70026 T02220211 10228 20222 53007=
202108261052 METAR KATL 261052Z 07004KT 1/8SM R09R/6000VP6000FT BR OVC002 22/21 A3016 RMK AO2 SFC VIS 1 1/2 SLP203 TWRINC T02220211=
202108260952 METAR KATL 260952Z 00000KT 1/8SM R09R/P6000FT BR OVC002 22/22 A3016 RMK AO2 SFC VIS 1 1/4 SLP201 TWRINC T02220217=
202108260852 METAR KATL 260852Z 11004KT 1/8SM R09R/1800V4000FT FG VV002 22/22 A3016 RMK AO2 SFC VIS 1/2 SLP201 TWRINC T02220217 53005=
202108260754 SPECI KATL 260754Z 13004KT 1/4SM R09R/P6000FT BR BKN003 22/21 A3015 RMK AO2 SFC VIS 1 1/2 TWRINC T02220211=
202108260752 METAR KATL 260752Z 13003KT 1SM R09R/P6000FT BR BKN003 22/21 A3015 RMK AO2 SFC VIS 2 SLP197 TWRINC T02220211=
202108260749 SPECI KATL 260749Z 11005KT 1SM R09R/P6000FT BR BKN003 22/21 A3015 RMK AO2 SFC VIS 2 TWRINC=
202108260652 METAR KATL 260652Z 04005KT 7SM FEW005 SCT250 23/21 A3013 RMK AO2 SLP191 T02280211=
202108260552 METAR KATL 260552Z 10006KT 10SM FEW005 SCT200 SCT250 23/21 A3014 RMK AO2 SLP195 60026 T02280211 10300 20228 56003=
202108260523 SPECI KATL 260523Z 07006KT 10SM FEW005 SCT200 SCT250 23/22 A3014 RMK AO2 T02330217=
202108260452 METAR KATL 260452Z 13004KT 10SM FEW150 SCT200 BKN250 23/22 A3014 RMK AO2 SLP194 T02330217 403330228=
202108260352 METAR KATL 260352Z 16006KT 10SM FEW006 SCT080 BKN200 23/22 A3014 RMK AO2 RAE38 SLP195 P0001 T02330217=
202108260252 METAR KATL 260252Z 19003KT 8SM -RA FEW006 BKN070 BKN100 OVC150 24/22 A3015 RMK AO2 TSE23 SLP198 CB DSNT SW P0002 60025 T02390217 50025=
202108260224 SPECI KATL 260224Z 20003KT 8SM -RA FEW006 BKN070 BKN100 OVC150 23/22 A3017 RMK AO2 TSE23 TS DSIPTD P0000 T02280217=
202108260152 METAR KATL 260152Z 30004KT 8SM -TSRA FEW020CB SCT070 BKN100 OVC150 23/21 A3018 RMK AO2 SLP208 PK WND 07030/0116 FRQ LTGICCG SW-NW TS SW-NW MOV W P0023 T02280211=
202108260136 SPECI KATL 260136Z 06010KT 3SM TSRA BR FEW006 SCT020CB BKN060 OVC150 23/21 A3017 RMK AO2 PK WND 07030/0116 FRQ LTGICCG OHD-ALQDS TS OHD-ALQDS MOV W P0021 T02280211=
202108260114 SPECI KATL 260114Z 06015G25KT 1 1/2SM +TSRA BKN025CB BKN050 BKN080 OVC200 26/21 A3018 RMK AO2 PRESRR FRQ LTGICCG OHD-ALQDS TS OHD-ALQDS MOV W P0000 T02560211=
202108260052 METAR KATL 260052Z 22005KT 10SM -TSRA SCT030CB BKN080 BKN150 BKN250 27/22 A3013 RMK AO2 PRESRR SLP192 VIS LWR NW-NE RAB49 TSB49 CONS LTGICCG N-E TS N-E MOV W CB ALQDS MOV W P0000 T02670217=
202108252352 METAR KATL 252352Z 16006KT 10SM FEW035TCU SCT080 BKN200 BKN250 29/22 A3007 RMK AO2 LTG DSNT NE AND SE AND W SLP172 CB DSNT NE-SE SW-W TCU OHD-SW T02940222 10333 20294 53001=
202108252252 METAR KATL 252252Z 12005KT 10SM FEW040 SCT090 SCT150 BKN200 31/21 A3007 RMK AO2 SLP169 TSE17 LTG DSNT W-NW CB DSNT NE-E SE SW-NW TCU DSNT SW T03110211=
202108252219 SPECI KATL 252219Z 11009KT 10SM FEW040TCU SCT090 SCT200 32/22 A3007 RMK AO2 TSE17 LTG DSNT NW TS MOVD SW CB DSNT W-NW TCU SW-W DSNT NE SE-S T03170217=
202108252152 METAR KATL 252152Z 12006KT 10SM VCTS FEW045CB SCT090 SCT200 32/21 A3006 RMK AO2 SLP167 TSB50 OCNL LTGICCG VC NW-N TS VC NW-N MOV SW TCU ALQDS T03220211=
202108252052 METAR KATL 252052Z 16006KT 10SM SCT048TCU SCT085 SCT200 BKN250 32/21 A3007 RMK AO2 SLP170 CB DSNT N-NE SE TCU ALQDS T03220211 56020=
202108251952 METAR KATL 251952Z 11007KT 10SM SCT048TCU SCT075 SCT200 33/21 A3008 RMK AO2 SLP173 TCU ALQDS MDT CU ALQDS T03330206=
202108251852 METAR KATL 251852Z 15008KT 10SM SCT046TCU SCT075 SCT250 32/22 A3011 RMK AO2 SLP182 TCU ALQDS MDT CU ALQDS T03220217=
202108251752 METAR KATL 251752Z 09005KT 10SM SCT044TCU SCT070 SCT250 32/21 A3013 RMK AO2 SLP190 TCU NE-SE-SW W MDT CU ALQDS T03170211 10328 20256 58002=
202108251652 METAR KATL 251652Z 11007KT 10SM SCT036TCU SCT060 SCT250 32/22 A3014 RMK AO2 SLP194 TCU ALQDS MDT CU ALQDS T03220217=
202108251552 METAR KATL 251552Z 10007KT 10SM SCT033 SCT250 31/22 A3015 RMK AO2 SLP195 MDT CU ALQDS T03110222=
202108251452 METAR KATL 251452Z 11008KT 9SM FEW022 FEW250 31/22 A3014 RMK AO2 SLP193 T03060222 51007=
202108251352 METAR KATL 251352Z 09005KT 8SM FEW250 29/23 A3013 RMK AO2 SLP191 T02890228=
202108251252 METAR KATL 251252Z 09006KT 8SM CLR 27/23 A3013 RMK AO2 SLP190 T02720228=
202108251152 METAR KATL 251152Z 10004KT 8SM CLR 26/23 A3012 RMK AO2 SLP187 T02560228 10272 20256 53008=
202108251052 METAR KATL 251052Z 00000KT 10SM FEW045 FEW250 27/23 A3011 RMK AO2 SLP181 T02670228=
202108250952 METAR KATL 250952Z 01003KT 10SM FEW045 FEW250 27/23 A3010 RMK AO2 SLP178 T02670228=
202108250852 METAR KATL 250852Z 00000KT 10SM FEW045 FEW250 27/23 A3009 RMK AO2 SLP177 T02670228 53002=
202108250752 METAR KATL 250752Z 00000KT 10SM FEW045 FEW250 27/23 A3009 RMK AO2 SLP176 T02720228=
202108250652 METAR KATL 250652Z 00000KT 10SM FEW045 FEW250 26/23 A3009 RMK AO2 SLP175 T02610228=
202108250552 METAR KATL 250552Z 00000KT 10SM FEW045 FEW250 27/23 A3009 RMK AO2 SLP175 T02670228 10317 20267 51006=
202108250452 METAR KATL 250452Z 00000KT 10SM FEW045 FEW250 28/22 A3008 RMK AO2 SLP174 TCU DSNT NW T02780222 403390250=
202108250352 METAR KATL 250352Z 00000KT 10SM FEW045TCU SCT060 SCT250 28/23 A3007 RMK AO2 SLP171 TCU NW-N T02780228=
202108250252 METAR KATL 250252Z 29004KT 10SM FEW200 28/22 A3007 RMK AO2 SLP169 T02780222 51016=
202108250152 METAR KATL 250152Z 14003KT 10SM FEW200 29/22 A3006 RMK AO2 SLP165 T02890222=
202108250052 METAR KATL 250052Z 14003KT 10SM FEW050 FEW250 30/21 A3004 RMK AO2 SLP161 CB DSNT NW T03000211=
202108250015 SPECI KATL 250015Z 14004KT 10SM FEW050 FEW250 30/21 A3003 RMK AO2 LTG DSNT NW CB DSNT NW T03000211=
202108242352 METAR KATL 242352Z 12005KT 10SM FEW050 FEW250 31/20 A3002 RMK AO2 SLP153 CB DSNT NW T03110200 10339 20311 55003=
202108242252 METAR KATL 242252Z 10007KT 10SM FEW055 FEW250 32/19 A3002 RMK AO2 SLP152 TCU DSNT NW-N T03170194=
202108242152 METAR KATL 242152Z 09006KT 10SM FEW055TCU FEW250 33/20 A3002 RMK AO2 SLP152 TCU NW-NE T03330200=
202108242052 METAR KATL 242052Z 11009KT 10SM FEW055TCU FEW075 SCT250 34/20 A3003 RMK AO2 SLP155 TCU N S DSNT E T03390200 56014=
202108241952 METAR KATL 241952Z 10009KT 10SM FEW055 SCT070 SCT250 34/20 A3004 RMK AO2 SLP158 MDT CU ALQDS T03390200=
202108241852 METAR KATL 241852Z 13006KT 10SM FEW055 FEW070 SCT250 33/19 A3005 RMK AO2 SLP163 MDT CU ALQDS T03280194=
202108241752 METAR KATL 241752Z 12007KT 10SM SCT048TCU SCT250 33/20 A3007 RMK AO2 SLP169 TCU SW-W MDT CU ALQDS T03280200 10333 20256 58008=
202108241652 METAR KATL 241652Z 13005KT 10SM SCT044TCU SCT250 32/21 A3008 RMK AO2 SLP172 TCU SW W NW-N DSNT E MDT CU ALQDS T03220206=
202108241552 METAR KATL 241552Z VRB03KT 10SM FEW042TCU FEW250 31/22 A3009 RMK AO2 SLP175 TCU N T03060217=
202108241452 METAR KATL 241452Z 00000KT 10SM FEW030 FEW250 31/21 A3009 RMK AO2 SLP177 TCU DSNT NW T03110211 51012=
202108241352 METAR KATL 241352Z 00000KT 10SM FEW018 FEW250 29/22 A3008 RMK AO2 SLP172 T02940222=
202108241252 METAR KATL 241252Z 00000KT 10SM FEW200 FEW250 28/23 A3007 RMK AO2 SLP170 T02780228=
202108241152 METAR KATL 241152Z 00000KT 10SM FEW200 FEW250 26/22 A3006 RMK AO2 SLP166 T02560222 10278 20250 53014=
202108241052 METAR KATL 241052Z 00000KT 10SM FEW050 FEW250 25/22 A3003 RMK AO2 SLP157 T02500222=
202108240952 METAR KATL 240952Z 00000KT 10SM FEW050 FEW250 26/22 A3002 RMK AO2 SLP151 T02560222=
202108240852 METAR KATL 240852Z 00000KT 10SM FEW050 FEW250 25/22 A3001 RMK AO2 SLP151 T02500222 55005=
202108240752 METAR KATL 240752Z 00000KT 10SM FEW050 FEW250 26/22 A3001 RMK AO2 SLP149 T02560222=
202108240652 METAR KATL 240652Z 00000KT 10SM FEW050 FEW250 26/22 A3002 RMK AO2 SLP151 T02560217=
202108240552 METAR KATL 240552Z 00000KT 10SM FEW250 27/22 A3003 RMK AO2 SLP156 T02670217 10311 20267 58001=
202108240452 METAR KATL 240452Z 04005KT 10SM FEW250 28/22 A3004 RMK AO2 SLP159 T02830217 403330233=
202108240352 METAR KATL 240352Z 08004KT 10SM FEW050 SCT250 28/22 A3004 RMK AO2 SLP158 T02830217=
202108240252 METAR KATL 240252Z 01007KT 10SM SCT050 29/21 A3003 RMK AO2 SLP157 T02940211 52018=
202108240152 METAR KATL 240152Z 36008KT 10SM BKN050 30/20 A3002 RMK AO2 SLP153 T03000200=
202108240052 METAR KATL 240052Z 35006KT 10SM FEW048TCU SCT065 31/20 A2999 RMK AO2 SLP144 TCU S T03060200=
202108232352 METAR KATL 232352Z 34008KT 10SM SCT050TCU SCT070 31/20 A2998 RMK AO2 SLP140 TCU NE-OHD-S T03110200 10333 20311 55000=
202108232252 METAR KATL 232252Z 32008KT 10SM SCT050TCU SCT070 32/21 A2997 RMK AO2 SLP137 TCU OHD-SW T03220206=
202108232152 METAR KATL 232152Z 31010KT 10SM SCT050TCU SCT070 SCT250 33/19 A2997 RMK AO2 SLP137 TCU OHD-S T03280194=
202108232052 METAR KATL 232052Z 06009KT 10SM SCT050TCU SCT075 SCT250 32/19 A2998 RMK AO2 SLP139 TCU OHD NE-SE-SW W T03220194 56011=
202108231952 METAR KATL 231952Z 35003KT 10SM SCT046TCU SCT070 SCT250 32/21 A2999 RMK AO2 SLP142 TCU NE S SW W NW MDT CU ALQDS T03170206=
202108231852 METAR KATL 231852Z 00000KT 10SM SCT046TCU BKN070 BKN250 33/22 A3000 RMK AO2 SLP147 TCU SW MDT CU ALQDS T03280217=
202108231752 METAR KATL 231752Z 00000KT 10SM SCT042TCU SCT250 31/21 A3001 RMK AO2 SLP151 TCU N SW MDT CU ALQDS T03110211 10322 20233 58003=
202108231652 METAR KATL 231652Z 06006KT 10SM SCT036TCU SCT250 31/22 A3002 RMK AO2 SLP155 TCU SW W NW-N MDT CU ALQDS T03110217=
202108231552 METAR KATL 231552Z 11005KT 10SM SCT028 SCT250 30/22 A3003 RMK AO2 SLP156 T03000222=
202108231452 METAR KATL 231452Z 08004KT 10SM FEW022 FEW200 29/22 A3002 RMK AO2 SLP155 T02890222 51010=
202108231352 METAR KATL 231352Z 05005KT 10SM FEW018 FEW200 FEW250 28/22 A3001 RMK AO2 SLP152 T02780222=
202108231252 METAR KATL 231252Z 02003KT 10SM FEW110 FEW200 27/22 A3001 RMK AO2 SLP150 T02670222=
202108231221 SPECI KATL 231221Z 00000KT 10SM FEW200 24/23 A3000 RMK AO2 T02440228=
202108231152 METAR KATL 231152Z 30003KT 3SM BR FEW002 FEW110 FEW200 23/22 A2999 RMK AO2 SFC VIS 5 SLP146 VIS N-NE 1 70062 T02330222 10244 20233 53010=
202108231149 SPECI KATL 231149Z 31003KT 3SM BR FEW002 FEW110 FEW200 23/22 A2999 RMK AO2 SFC VIS 5 VIS N-NE 1=
202108231139 SPECI KATL 231139Z 32003KT 1/4SM R09R/P6000FT BR FEW002 FEW110 23/22 A2999 RMK AO2 SFC VIS 2 VIS N-NE 1 T02330222=
202108231117 SPECI KATL 231117Z 32006KT 1/4SM R09R/P6000FT BR BKN002 23/22 A2998 RMK AO2 SFC VIS 1 BKN002 V SCT TWRINC T02330222=
202108231052 METAR KATL 231052Z 32005KT 10SM FEW005 23/22 A2997 RMK AO2 SLP139 T02330222=
202108230952 METAR KATL 230952Z 00000KT 10SM FEW035 24/22 A2996 RMK AO2 SLP133 T02390222=
202108230852 METAR KATL 230852Z 32003KT 10SM FEW035 24/22 A2996 RMK AO2 SLP136 T02390222 53002=
202108230752 METAR KATL 230752Z 30004KT 10SM FEW035 24/22 A2995 RMK AO2 SLP132 T02390222=
202108230652 METAR KATL 230652Z 33006KT 10SM FEW035 24/23 A2994 RMK AO2 SLP129 T02440228=
202108230552 METAR KATL 230552Z 31006KT 10SM FEW095 24/23 A2995 RMK AO2 SLP132 T02440228 10261 20244 50004=
202108230452 METAR KATL 230452Z 30004KT 10SM SCT090 SCT250 25/23 A2996 RMK AO2 SLP135 T02500228 403060233=
202108230352 METAR KATL 230352Z 31007KT 10SM FEW100 SCT200 SCT250 25/23 A2996 RMK AO2 SLP133 T02500228=
202108230252 METAR KATL 230252Z 31008KT 10SM FEW100 SCT250 25/23 A2994 RMK AO2 SLP129 T02500228 51004=
202108230152 METAR KATL 230152Z 31009KT 10SM FEW100 SCT250 26/23 A2994 RMK AO2 SLP129 T02560228=
202108230052 METAR KATL 230052Z 26004KT 10SM FEW030 FEW060 SCT110 SCT250 26/23 A2994 RMK AO2 SLP130 T02560233=
202108222352 METAR KATL 222352Z 27004KT 10SM FEW030 SCT100 SCT160 BKN250 26/23 A2993 RMK AO2 SLP125 60062 T02610233 10306 20233 53002=
202108222252 METAR KATL 222252Z 31008KT 10SM FEW025 SCT080 SCT150 BKN250 26/22 A2992 RMK AO2 SLP123 CB DSNT NE & SE TCU DSNT N & SE T02610222=
202108222152 METAR KATL 222152Z 30012KT 10SM FEW025 FEW080 SCT140 SCT250 28/23 A2992 RMK AO2 LTG DSNT N SLP121 CB DSNT N & E-SE TCU DSNT S T02780228=
202108222052 METAR KATL 222052Z 30011KT 10SM FEW030TCU SCT080 SCT140 BKN250 27/23 A2992 RMK AO2 RAE16 SLP123 CB DSNT NW & N TCU E & SW P0002 60062 T02670233 57011=
202108221952 METAR KATL 221952Z 29010KT 4SM R09R/5000VP6000FT -RA BR BKN032CB BKN055 BKN080 BKN250 24/22 A2994 RMK AO2 PK WND 31031/1925 WSHFT 1857 RAB02 SLP131 CB SE-SW MOV SE TCU N-NE P0060 T02390222=
202108221949 SPECI KATL 221949Z 29011KT 4SM R09R/5000VP6000FT +RA BR BKN032CB BKN055 BKN080 BKN250 23/22 A2995 RMK AO2 PK WND 31031/1925 WSHFT 1857 RAB02 CB SE-SW MOV SE TCU N-NE VSBY LWR S P0059=
202108221931 SPECI KATL 221931Z 30019G31KT 1SM R09R/3000V6000FT +RA BR SCT008 BKN016CB BKN032 BKN250 24/22 A2996 RMK AO2 PK WND 31031/1925 WSHFT 1857 RAB02 CB SW-OHD-E MOV SE P0028 T02390222=
202108221927 SPECI KATL 221927Z 30020G31KT 2SM R09R/3000VP6000FT +RA BR SCT008 BKN024CB BKN080 BKN250 24/23 A2996 RMK AO2 PK WND 31031/1925 WSHFT 1857 RAB02 CB SW-OHD-E MOV SE P0016 T02440228=
202108221920 SPECI KATL 221920Z 30014KT 3SM RA BR FEW008 BKN024CB BKN048 OVC250 25/23 A2995 RMK AO2 WSHFT 1857 RAB02 CB SW-OHD-E MOV SE P0003 T02500228=
202108221914 SPECI KATL 221914Z 33017G22KT 3SM RA SCT032CB BKN090 BKN250 26/23 A2995 RMK AO2 WSHFT 1857 RAB02 CB NW-NE MOV SE P0001 T02610228=
202108221852 METAR KATL 221852Z 26012G18KT 10SM SCT036CB BKN120 BKN250 29/22 A2994 RMK AO2 SLP126 CB NW-NE MOV SE TCU E-S-W T02940217=
202108221752 METAR KATL 221752Z 28010G18KT 10SM SCT030TCU BKN250 30/22 A2996 RMK AO2 SLP132 TCU S-W T03000217 10306 20239 58010=
202108221652 METAR KATL 221652Z 27011KT 10SM SCT026TCU BKN200 29/22 A2998 RMK AO2 SLP141 TCU ALQDS T02890222=
202108221614 SPECI KATL 221614Z 24011KT 10SM SCT022 BKN250 29/23 A2998 RMK AO2 MDT CU ALQDS T02890228 $=
202108221552 METAR KATL 221552Z 27008KT 10SM FEW018 BKN024 BKN031 BKN200 27/22 A2999 RMK AO2 SLP144 T02720222 $=
202108221525 SPECI KATL 221525Z 27010KT 10SM BKN016 BKN023 BKN250 27/23 A2999 RMK AO2 T02720228 $=
202108221452 METAR KATL 221452Z 27009KT 10SM FEW012 SCT026 BKN250 26/22 A2999 RMK AO2 SLP144 T02610222 51005 $=
202108221447 SPECI KATL 221447Z 10SM SCT012 SCT026 26/23 A2999 RMK AO2 $=
202108221415 SPECI KATL 221415Z 28007KT 10SM OVC011 25/22 A2999 RMK AO2 T02500222 $=
202108221352 METAR KATL 221352Z 28008KT 10SM R09R/5500VP6000FT OVC009 24/22 A2999 RMK AO2 SLP145 T02440222 $=
202108221252 METAR KATL 221252Z 26006KT 7SM OVC008 24/22 A2998 RMK AO2 SLP142 T02440222 $=
202108221245 SPECI KATL 221245Z 26006KT 7SM OVC008 24/22 A2998 RMK AO2 T02440222 $=
202108221152 METAR KATL 221152Z 26006KT 7SM FEW008 OVC012 24/22 A2997 RMK AO2 SLP139 BKN012 V SCT T02390222 10250 20239 53005 $=
202108221127 SPECI KATL 221127Z 26006KT 10SM FEW008 BKN012 BKN085 BKN130 BKN250 24/22 A2997 RMK AO2 BKN012 V SCT T02390222 $=
202108221052 METAR KATL 221052Z 27007KT 10SM FEW008 SCT055 BKN075 OVC130 24/22 A2996 RMK AO2 SLP136 T02390222 $=
202108221050 SPECI KATL 221050Z 27007KT 10SM FEW008 SCT055 BKN075 OVC130 24/22 A2996 RMK AO2 $=
202108220952 METAR KATL 220952Z 26007KT 10SM SCT008 BKN014 BKN065 OVC130 24/22 A2996 RMK AO2 SLP133 SCT008 V BKN T02440222 $=
202108220941 SPECI KATL 220941Z 24007KT 10SM FEW008 BKN014 OVC065 24/22 A2995 RMK AO2 T02440222 $=
202108220852 METAR KATL 220852Z 27006KT 10SM BKN013 BKN032 BKN150 OVC220 24/22 A2994 RMK AO2 SLP127 BKN013 V SCT T02440222 58001 $=
202108220844 SPECI KATL 220844Z 26006KT 10SM BKN013 BKN032 BKN150 OVC220 24/22 A2994 RMK AO2 BKN013 V SCT T02440222 $=
202108220752 METAR KATL 220752Z 27007KT 10SM SCT021 BKN032 BKN046 BKN180 OVC250 24/22 A2994 RMK AO2 SLP126 T02440222 $=
202108220652 METAR KATL 220652Z 27007KT 10SM FEW006 SCT027 BKN046 BKN180 BKN220 OVC250 25/23 A2995 RMK AO2 SLP130 T02500228 $=
202108220643 SPECI KATL 220643Z 28006KT 10SM FEW006 BKN027 BKN050 BKN180 BKN220 OVC250 25/23 A2995 RMK AO2 T02500228=
202108220617 SPECI KATL 220617Z 26006KT 10SM FEW006 SCT027 BKN180 BKN220 OVC250 25/23 A2994 RMK AO2 T02500233=
202108220552 METAR KATL 220552Z 25006KT 10SM FEW020 FEW075 SCT150 BKN250 25/23 A2994 RMK AO2 SLP128 T02500233 10272 20250 58007=
202108220452 METAR KATL 220452Z 27005KT 10SM FEW040 BKN070 BKN150 BKN250 25/23 A2996 RMK AO2 SLP134 T02500228 402940233=
202108220352 METAR KATL 220352Z 26006KT 10SM FEW020 SCT100 SCT160 SCT250 26/23 A2997 RMK AO2 SLP136 T02560233=
202108220252 METAR KATL 220252Z 25006KT 10SM FEW021 FEW035 SCT100 BKN150 BKN250 26/23 A2996 RMK AO2 SLP136 T02610233 51014=
202108220152 METAR KATL 220152Z 24007KT 10SM FEW021 SCT030 BKN150 BKN250 27/23 A2996 RMK AO2 SLP133 T02670233=
202108220052 METAR KATL 220052Z 22003KT 10SM FEW022 FEW100 BKN150 BKN250 27/23 A2994 RMK AO2 SLP127 T02670233=
202108212352 METAR KATL 212352Z 25007KT 10SM SCT022 SCT100 BKN150 BKN250 27/23 A2992 RMK AO2 SLP122 RAE02 P0000 60000 T02720228 10289 20272 55000=
202108212252 METAR KATL 212252Z 29005KT 10SM -RA FEW030 FEW055 SCT100 BKN150 BKN250 28/23 A2992 RMK AO2 SLP120 RAB45 P0000 T02830228=
202108212152 METAR KATL 212152Z 24007KT 10SM FEW030 SCT100 BKN150 BKN180 OVC250 28/22 A2991 RMK AO2 SLP118 TCU DSNT S & NW T02830222=
202108212052 METAR KATL 212052Z 25008KT 10SM FEW026 SCT090 BKN150 OVC250 28/22 A2992 RMK AO2 SLP121 MDT CU S-SW T02830217 58016=
202108211952 METAR KATL 211952Z 30006KT 10SM SCT024 SCT140 OVC200 29/22 A2994 RMK AO2 LTG DSNT SW SLP129 MDT CU SE-S T02890222=
202108211852 METAR KATL 211852Z 27007KT 10SM FEW026 SCT160 BKN250 29/22 A2995 RMK AO2 SLP131 MDT CU SE T02890222=
202108211752 METAR KATL 211752Z 26008KT 10SM SCT025TCU BKN080 BKN200 28/22 A2997 RMK AO2 SLP137 TCU NW MDT CU ALQDS T02830222 10294 20239 58004=
202108211652 METAR KATL 211652Z 28006KT 10SM SCT025 BKN200 28/22 A2998 RMK AO2 SLP139 MDT CU ALQDS T02830222=
202108211620 SPECI KATL 211620Z 31006KT 10SM SCT022 BKN055 BKN200 28/23 A2999 RMK AO2 T02830228=
202108211552 METAR KATL 211552Z 30006KT 10SM BKN022 OVC200 27/22 A2999 RMK AO2 SLP145 T02720222=
202108211531 SPECI KATL 211531Z 30003KT 10SM FEW017 BKN200 BKN250 27/22 A2999 RMK AO2 T02720222=
202108211452 METAR KATL 211452Z 30007KT 10SM OVC016 27/22 A2998 RMK AO2 SLP142 T02670222 51007=
202108211403 SPECI KATL 211403Z 31006KT 10SM OVC011 26/22 A2997 RMK AO2 T02560222=
202108211352 METAR KATL 211352Z 31007KT 10SM OVC009 26/23 A2998 RMK AO2 SLP140 T02560228=
202108211342 SPECI KATL 211342Z 30006KT 10SM OVC009 25/23 A2998 RMK AO2 T02500228=
202108211252 METAR KATL 211252Z 29007KT 2SM OVC007 24/22 A2998 RMK AO2 SFC VIS 7 SLP141 CIG 006V008 T02440222=
202108211152 METAR KATL 211152Z 31007KT 2SM BR OVC005 24/22 A2996 RMK AO2 SFC VIS 6 SLP135 T02390222 10244 20233 53018=
202108211146 SPECI KATL 211146Z 32007KT 2SM BR OVC005 24/22 A2996 RMK AO2 SFC VIS 6=
202108211052 METAR KATL 211052Z 28005KT 7SM OVC005 23/22 A2994 RMK AO2 SLP128 CIG 004V006 T02330222=
202108210952 METAR KATL 210952Z 29007KT 8SM BKN005 BKN150 23/22 A2992 RMK AO2 SLP121 BKN005 V SCT T02330222=
202108210852 METAR KATL 210852Z 30007KT 10SM FEW007 SCT150 24/22 A2991 RMK AO2 SLP115 T02390222 55006=
202108210752 METAR KATL 210752Z 31009KT 10SM FEW150 24/22 A2990 RMK AO2 SLP115 T02390222=
202108210652 METAR KATL 210652Z 31008KT 10SM FEW100 24/22 A2991 RMK AO2 SLP118 T02440222=
202108210552 METAR KATL 210552Z 27006KT 10SM FEW100 24/22 A2992 RMK AO2 SLP122 T02440222 10283 20244 58013=
202108210452 METAR KATL 210452Z 26006KT 10SM FEW150 24/22 A2995 RMK AO2 SLP131 T02440222 403170222=
202108210352 METAR KATL 210352Z 29006KT 10SM SCT150 25/22 A2996 RMK AO2 SLP133 T02500222=
202108210252 METAR KATL 210252Z 26004KT 10SM FEW100 SCT200 25/22 A2996 RMK AO2 SLP135 T02500222 53014=
202108210152 METAR KATL 210152Z 26006KT 10SM FEW032 SCT100 SCT250 26/22 A2994 RMK AO2 SLP128 T02610222=
202108210052 METAR KATL 210052Z 24007KT 10SM FEW032TCU SCT090 SCT150 BKN250 27/23 A2993 RMK AO2 SLP124 TSB08E37 TCU NW-N DSNT SE SW-W T02670228=
202108210038 SPECI KATL 210038Z 22005KT 10SM FEW032TCU SCT090 SCT150 BKN250 27/22 A2993 RMK AO2 TSB08E37 TS DSIPTD CB DSNT SE SW-W TCU NW T02670222=
202108210010 SPECI KATL 210010Z 22009KT 10SM VCTS FEW032CB SCT150 BKN250 28/22 A2992 RMK AO2 TSB08 OCNL LTGICCG VC E-SE TS VC E-SE MOV SE CB DSNT SW-W TCU NW T02780217=
202108202352 METAR KATL 202352Z 27008KT 10SM FEW032CB SCT080 SCT150 BKN250 28/21 A2992 RMK AO2 SLP121 CB SE DSNT SW-W MOV SE TCU NW DSNT SE-S T02830211 10317 20283 55000=
202108202252 METAR KATL 202252Z 29006KT 10SM FEW035TCU SCT150 SCT250 29/22 A2991 RMK AO2 SLP117 TCU S-SW DSNT SE T02940217=
202108202152 METAR KATL 202152Z 29009KT 10SM FEW035TCU BKN150 BKN250 30/21 A2991 RMK AO2 SLP117 CB DSNT SE S-SW TCU N-NE T03000211=
202108202052 METAR KATL 202052Z 33009KT 10SM FEW034TCU SCT070 BKN180 BKN250 31/22 A2992 RMK AO2 LTG DSNT NW SLP120 CB DSNT SE-S NW-N TCU N-NE DSNT ALQDS T03110217 57024=
202108201952 METAR KATL 201952Z 32010KT 10SM FEW032TCU SCT055 BKN180 BKN250 31/22 A2994 RMK AO2 SLP127 CB DSNT S-SW NW TCU N SW DSNT N-E NW T03060217=
202108201852 METAR KATL 201852Z 30008G15KT 10SM FEW028TCU SCT042 BKN180 BKN200 30/22 A2997 RMK AO2 SLP138 CB DSNT SE NW TCU SW W DSNT SE-S T03000217=
202108201752 METAR KATL 201752Z 30009KT 10SM FEW028 SCT038 BKN180 BKN250 30/22 A2999 RMK AO2 SLP145 MDT CU SE-SW-W T03000217 10300 20228 58014=
202108201652 METAR KATL 201652Z 33006KT 10SM FEW026 SCT140 BKN200 BKN250 29/22 A3001 RMK AO2 SLP150 T02890217=
202108201629 SPECI KATL 201629Z 34007KT 280V020 10SM SCT024 SCT120 BKN180 BKN250 28/22 A3002 RMK AO2 T02830217=
202108201552 METAR KATL 201552Z 31009KT 10SM BKN022 BKN120 BKN180 BKN250 28/22 A3003 RMK AO2 SLP157 T02780217=
202108201524 SPECI KATL 201524Z 32011KT 10SM SCT020 SCT110 BKN150 BKN200 26/21 A3003 RMK AO2 T02610211=
202108201452 METAR KATL 201452Z 32009G16KT 10SM BKN018 BKN100 BKN150 BKN200 27/22 A3004 RMK AO2 SLP161 T02670217 53000=
202108201407 SPECI KATL 201407Z 31007KT 270V330 10SM SCT015 BKN090 BKN150 BKN200 25/22 A3003 RMK AO2 ACC S-W T02500217=
202108201352 METAR KATL 201352Z 29009KT 10SM BKN013 BKN080 BKN150 BKN200 24/22 A3004 RMK AO2 SLP162 ACC SW-NW T02440217=
202108201336 SPECI KATL 201336Z 30010KT 10SM BKN011 BKN080 BKN150 BKN200 25/22 A3003 RMK AO2 ACC ALQDS T02500217=
202108201252 METAR KATL 201252Z 30009KT 10SM SCT008 BKN070 BKN150 BKN200 24/21 A3003 RMK AO2 SLP161 T02390211=
202108201249 SPECI KATL 201249Z 30008KT 10SM SCT008 BKN070 BKN150 BKN200 23/21 A3003 RMK AO2=
202108201152 METAR KATL 201152Z 31010KT 10SM BKN006 OVC010 23/21 A3003 RMK AO2 SLP161 T02280211 10233 20222 51015=
202108201146 SPECI KATL 201146Z 29008KT 10SM BKN006 OVC010 23/21 A3003 RMK AO2=
202108201052 METAR KATL 201052Z 31005KT 10SM BKN004 BKN150 BKN200 22/21 A3001 RMK AO2 SLP151 BKN004 V SCT T02220211=
202108200952 METAR KATL 200952Z 28004KT 10SM BKN004 22/21 A2999 RMK AO2 SLP146 BKN004 V SCT T02220211=
202108200941 SPECI KATL 200941Z 28004KT 10SM BKN004 22/21 A2999 RMK AO2 BKN004 V SCT T02220211=
202108200852 METAR KATL 200852Z 27003KT 10SM FEW004 SCT200 22/21 A2999 RMK AO2 SLP148 T02220211 56018=
202108200819 SPECI KATL 200819Z 32005KT 10SM SCT004 SCT200 23/21 A2999 RMK AO2 T02280211=
202108200752 METAR KATL 200752Z 33004KT 10SM BKN003 BKN150 BKN200 23/22 A3000 RMK AO2 SLP150 BKN003 V SCT T02280217=
202108200722 SPECI KATL 200722Z 31006KT 10SM BKN004 BKN008 BKN150 23/22 A3002 RMK AO2 T02280217=
202108200652 METAR KATL 200652Z 32006KT 10SM FEW004 BKN150 BKN200 23/22 A3003 RMK AO2 SLP155 T02330217=
202108200552 METAR KATL 200552Z 27005KT 10SM FEW005 BKN150 BKN200 23/22 A3005 RMK AO2 SLP164 T02330217 10250 20233 58014=
202108200452 METAR KATL 200452Z 30005KT 10SM FEW005 BKN140 BKN200 23/22 A3007 RMK AO2 SLP172 T02330217 403280233=
202108200352 METAR KATL 200352Z 27003KT 10SM FEW150 BKN200 BKN250 23/22 A3009 RMK AO2 SLP180 T02330217=
202108200252 METAR KATL 200252Z 28005KT 10SM FEW150 BKN200 BKN250 24/22 A3009 RMK AO2 SLP179 T02390217 53006=
202108200152 METAR KATL 200152Z 28006KT 10SM FEW150 BKN200 BKN250 24/22 A3007 RMK AO2 SLP173 T02390217=
202108200052 METAR KATL 200052Z 00000KT 10SM SCT150 BKN200 BKN250 24/21 A3006 RMK AO2 SLP169 T02440211=
202108192352 METAR KATL 192352Z 21004KT 10SM FEW110 SCT150 BKN200 BKN250 25/22 A3007 RMK AO2 RAE2258 SLP174 P0000 60000 T02500217 10328 20244 58007=
202108192252 METAR KATL 192252Z 24003KT 10SM -RA FEW080 SCT110 BKN140 BKN200 25/21 A3009 RMK AO2 RAB04E22B49 SLP178 P0000 T02500211=
202108192152 METAR KATL 192152Z VRB06KT 10SM FEW080 BKN140 OVC200 26/21 A3008 RMK AO2 LTG DSNT SE AND S SLP177 CB DSNT SE-S T02560206=
202108192052 METAR KATL 192052Z 33009KT 10SM FEW034 FEW075 SCT140 BKN200 24/21 A3009 RMK AO2 PK WND 32030/1954 LTG DSNT N-E SLP182 TSE26 TS MOVD NE CB DSNT N-E-S-SW TCU DSNT SE-S ACC N NE-E NW T02440206 58003=
202108192026 SPECI KATL 192026Z 33010G20KT 10SM FEW012 FEW032 SCT075 BKN130 BKN200 24/21 A3011 RMK AO2 PK WND 32030/1954 LTG DSNT N-SE TSE26 TS MOVD NE CB DSNT ALQDS T02440206=
202108192016 SPECI KATL 192016Z 33015KT 10SM VCTS FEW010 SCT030CB BKN070 BKN130 BKN200 24/21 A3011 RMK AO2 PK WND 32030/1954 LTG DSNT ALQDS FRQ LTGICCGCA VC NE-SE TS VC NE-SE MOV NE CB DSNT ALQDS VCSH NE-SE T02440211=
202108191957 SPECI KATL 191957Z 32020G32KT 10SM TS SCT014 SCT028CB BKN075 BKN130 OVC200 25/21 A3011 RMK AO2 PK WND 32030/1954 LTG DSNT W-NE OCNL LTGICCGCA SE VC N NE TS SE VC N NE MOV NE CB DSNT W-N-NE SHRA N NE SE T02500211=
202108191952 METAR KATL 191952Z 33024G32KT 10SM VCTS FEW012 SCT028CB BKN080 BKN200 26/21 A3012 RMK AO2 PK WND 31033/1934 WSHFT 1924 LTG DSNT W-NE SLP189 TSB38 OCNL LTGICCGCA VC N-NE S TS VC N-NE S MOV NE CB DSNT W-N-NE TCU ALQDS SHRA N-NE S T02=
202108191942 SPECI KATL 191942Z 30025G33KT 10SM VCTS SCT028CB BKN070 BKN200 BKN250 27/21 A3013 RMK AO2 PK WND 31033/1934 WSHFT 1924 LTG DSNT NW-NE TSB38 OCNL LTGICCGCA VC NW-N TS VC NW-N MOV NE CB DSNT NW-NE TCU SE-SW SHRA S NW-N T02670211=
202108191934 SPECI KATL 191934Z 31025G33KT 10SM SCT028CB BKN070 BKN200 BKN250 28/22 A3012 RMK AO2 PK WND 31033/1934 LTG DSNT W-N PRESRR CB NW DSNT NW-NE MOV NE TCU OHD-SE-SW SHRA NW SW DSNT NW-NE SHELF CLOUD N-NE NW T02830217=
202108191852 METAR KATL 191852Z 23008KT 10SM SCT046TCU SCT075 BKN200 BKN250 32/22 A3009 RMK AO2 LTG DSNT W-N SLP178 CB DSNT SW-NW-N TCU SE-SW NW-N SHELF CLOUD DSNT NW T03170217=
202108191752 METAR KATL 191752Z 23006KT 10SM SCT044 SCT080 BKN200 BKN250 33/22 A3010 RMK AO2 LTG DSNT NW SLP180 CB DSNT SE NW-N TCU DSNT SE-SW NW T03280222 10328 20250 58019=
202108191652 METAR KATL 191652Z 30005KT 10SM SCT038TCU BKN075 BKN200 BKN250 31/22 A3014 RMK AO2 SLP193 TCU ALQDS MDT CU ALQDS T03060217=
202108191552 METAR KATL 191552Z 26008KT 10SM SCT030TCU BKN075 BKN200 BKN250 31/22 A3015 RMK AO2 SLP196 TCU ALQDS T03110222=
202108191452 METAR KATL 191452Z 32006KT 10SM FEW028TCU SCT075 SCT200 SCT250 30/23 A3016 RMK AO2 SLP201 TCU SE SW MDT CU E S W T03000228 51003=
202108191352 METAR KATL 191352Z 30006KT 10SM FEW018 FEW036 FEW075 SCT250 29/23 A3016 RMK AO2 SLP200 TCU DSNT NW-N T02890228=
202108191252 METAR KATL 191252Z 00000KT 10SM FEW035 FEW080 FEW150 BKN250 28/23 A3016 RMK AO2 SLP201 T02780228=
202108191152 METAR KATL 191152Z 00000KT 10SM FEW040 FEW080 BKN250 25/22 A3015 RMK AO2 SLP198 T02500222 10256 20244 53003=
202108191052 METAR KATL 191052Z 32004KT 10SM FEW040 FEW080 SCT180 BKN250 25/23 A3014 RMK AO2 SLP195 T02500228=
202108190952 METAR KATL 190952Z 30003KT 10SM SCT041 BKN250 25/22 A3014 RMK AO2 SLP194 T02500222=
202108190852 METAR KATL 190852Z 20003KT 10SM FEW035 SCT080 BKN250 24/22 A3014 RMK AO2 SLP195 T02440222 55005=
202108190752 METAR KATL 190752Z 21003KT 10SM FEW035 SCT080 BKN250 25/22 A3013 RMK AO2 SLP193 T02500222=
202108190652 METAR KATL 190652Z 24003KT 10SM FEW045 SCT080 BKN250 26/23 A3015 RMK AO2 SLP197 T02560228=
202108190552 METAR KATL 190552Z 23004KT 10SM FEW050 SCT060 SCT080 BKN250 26/23 A3016 RMK AO2 SLP200 T02560228 10300 20256 58003=
202108190452 METAR KATL 190452Z 00000KT 10SM FEW035 SCT100 BKN250 26/23 A3016 RMK AO2 SLP202 T02610228 403330211=
202108190352 METAR KATL 190352Z 20004KT 10SM FEW035 FEW080 BKN250 26/23 A3017 RMK AO2 SLP205 T02610233=
202108190252 METAR KATL 190252Z 16004KT 10SM FEW040 FEW100 SCT250 27/23 A3017 RMK AO2 SLP203 CB DSNT SE S-SW T02720233 51013=
202108190152 METAR KATL 190152Z 15003KT 10SM FEW040 SCT250 28/23 A3016 RMK AO2 SLP201 LTG DSNT SW CB DSNT S-SW T02780228=
202108190052 METAR KATL 190052Z 17003KT 10SM FEW040 FEW250 28/22 A3014 RMK AO2 SLP196 TCU DSNT S-SW T02830222=
202108182352 METAR KATL 182352Z 21006KT 10SM FEW045TCU SCT060 30/22 A3013 RMK AO2 SLP190 TCU N-NE DSNT SE-SW-W T03000217 10333 20300 53002=
202108182252 METAR KATL 182252Z 21006KT 10SM SCT045 SCT060 31/21 A3012 RMK AO2 SLP187 MDT CU OHD-ALQDS T03110206=
202108182152 METAR KATL 182152Z 00000KT 10SM SCT048 SCT060 32/21 A3012 RMK AO2 SLP187 MDT CU OHD-ALQDS T03220206=
202108182052 METAR KATL 182052Z 00000KT 10SM SCT048 32/21 A3012 RMK AO2 SLP189 MDT CU ALQDS T03170206 58017=
202108181952 METAR KATL 181952Z 20003KT 10SM SCT048 31/19 A3014 RMK AO2 SLP195 MDT CU ALQDS T03110194=
202108181852 METAR KATL 181852Z 23005KT 10SM SCT045 33/21 A3016 RMK AO2 SLP202 MDT CU ALQDS T03280211=
202108181752 METAR KATL 181752Z 00000KT 10SM SCT043 30/19 A3017 RMK AO2 SLP207 MDT CU ALQDS T03000194 10317 20222 58004=
202108181652 METAR KATL 181652Z 31007KT 10SM SCT042 31/20 A3018 RMK AO2 SLP210 T03060200=
202108181552 METAR KATL 181552Z 00000KT 10SM SCT036 SCT250 29/21 A3019 RMK AO2 SLP212 T02940206=
202108181452 METAR KATL 181452Z 19003KT 10SM FEW034 FEW250 29/22 A3019 RMK AO2 SLP211 T02890217 51010=
202108181352 METAR KATL 181352Z 00000KT 10SM FEW070 28/22 A3018 RMK AO2 SLP209 T02780217=
202108181252 METAR KATL 181252Z 00000KT 10SM FEW070 FEW250 25/22 A3017 RMK AO2 SLP207 T02500217=
202108181152 METAR KATL 181152Z 00000KT 10SM FEW070 FEW250 22/21 A3016 RMK AO2 SLP203 ACC DSNT S 70092 T02220206 10222 20211 52020=
202108181052 METAR KATL 181052Z 00000KT 10SM FEW250 22/20 A3014 RMK AO2 SLP197 T02170200=
202108180952 METAR KATL 180952Z 00000KT 10SM CLR 22/20 A3011 RMK AO2 SLP188 T02220200=
202108180852 METAR KATL 180852Z 00000KT 10SM CLR 22/21 A3010 RMK AO2 SLP182 T02170206 53007=
202108180752 METAR KATL 180752Z 00000KT 10SM CLR 22/20 A3008 RMK AO2 SLP178 T02170200=
202108180652 METAR KATL 180652Z 00000KT 10SM CLR 22/20 A3007 RMK AO2 SLP175 T02170200=
202108180552 METAR KATL 180552Z 00000KT 10SM CLR 22/20 A3007 RMK AO2 SLP174 T02220200 10250 20222 51008=
202108180452 METAR KATL 180452Z 00000KT 10SM FEW003 FEW120 22/20 A3007 RMK AO2 SLP173 VIS LWR SE-S T02220200 402610222=
202108180352 METAR KATL 180352Z 00000KT 10SM FEW120 22/20 A3006 RMK AO2 SLP170 T02220200=
202108180252 METAR KATL 180252Z 23003KT 10SM CLR 23/21 A3005 RMK AO2 SLP166 T02280206 51026=
202108180152 METAR KATL 180152Z 24003KT 10SM CLR 23/21 A3003 RMK AO2 SLP159 T02280206=
202108180052 METAR KATL 180052Z 27006KT 10SM FEW022 24/20 A3000 RMK AO2 SLP149 T02390200=
202108172352 METAR KATL 172352Z 28009KT 10SM FEW022 SCT035 25/21 A2997 RMK AO2 SLP138 60000 T02500206 10261 20233 51017=
202108172252 METAR KATL 172252Z 26010KT 10SM SCT022 BKN035 26/21 A2995 RMK AO2 SLP134 T02560206=
202108172152 METAR KATL 172152Z 26010G17KT 10SM SCT020TCU SCT030 BKN045 26/21 A2995 RMK AO2 SLP131 TCU SE-S T02560211=
202108172052 METAR KATL 172052Z 24012G19KT 10SM SCT019 BKN024 BKN040 25/22 A2991 RMK AO2 RAB40E49 SLP120 P0000 60000 T02500217 51011=
202108171952 METAR KATL 171952Z 27013G23KT 10SM BKN016 25/22 A2990 RMK AO2 PK WND 28027/1853 RAB00E10 SLP116 P0000 T02500217=
202108171905 SPECI KATL 171905Z 26010G21KT 3SM -RA BR FEW008 OVC013 23/22 A2989 RMK AO2 PK WND 28027/1853 RAB00 P0000 T02330217=
202108171852 METAR KATL 171852Z 28017G23KT 10SM OVC013 23/21 A2988 RMK AO2 WSHFT 1754 RAE00 SLP110 P0000 T02330211=
202108171808 SPECI KATL 171808Z 25011G23KT 10SM SCT007 BKN010 OVC015 24/22 A2986 RMK AO2 WSHFT 1754 RAE00 P0000 T02390217=
202108171801 SPECI KATL 171801Z 25013G21KT 7SM BKN007 BKN017 24/23 A2986 RMK AO2 RAE00 P0000 T02440228=
202108171752 METAR KATL 171752Z 24011KT 2SM R09R/5500VP6000FT -RA BR OVC007 24/23 A2985 RMK AO2 SFC VIS 3 DZE38RAB04E17B45 SLP100 CIG 005V009 P0002 60092 T02440228 10244 20233 58001=
202108171652 METAR KATL 171652Z 17009KT 2SM -DZ BR OVC006 23/22 A2986 RMK AO2 SFC VIS 4 RAE41DZB44 SLP102 P0001 T02330222=
202108171552 METAR KATL 171552Z 16010G19KT 2SM R09R/6000VP6000FT -RA BR BKN006 OVC010 23/22 A2986 RMK AO2 SLP102 P0005 T02330217=
202108171452 METAR KATL 171452Z 14010G19KT 2SM R09R/5500VP6000FT -RA BR BKN006 OVC013 23/22 A2986 RMK AO2 DZB42E49 SLP101 P0017 60084 T02330222 55008=
202108171352 METAR KATL 171352Z 13010KT 2SM RA BR BKN007 OVC014 23/22 A2985 RMK AO2 PK WND 11031/1309 SLP097 CIG 005V009 P0052 T02330222=
202108171319 SPECI KATL 171319Z 09015G22KT 2SM R09R/4000VP6000FT -RA BR BKN007 OVC018 23/22 A2985 RMK AO2 PK WND 11031/1309 CIG005V009 P0043 T02330222=
202108171311 SPECI KATL 171311Z 12013G31KT 1SM R09R/4000V5500FT +RA BR BKN007 OVC014 23/22 A2986 RMK AO2 PK WND 11031/1309 CIG005 V 009 P0035 T02330222=
202108171252 METAR KATL 171252Z 09016G25KT 1 3/4SM R09R/5500VP6000FT +RA BR BKN007 BKN014 OVC036 23/22 A2986 RMK AO2 SLP101 CIG 005V009 P0015 T02330222=
202108171245 SPECI KATL 171245Z 09016G22KT 2SM +RA BR BKN007 BKN016 OVC045 23/22 A2986 RMK AO2 CIG 005V009 P0007 T02330222=
202108171236 SPECI KATL 171236Z 09015KT 3SM RA BR BKN007 BKN016 OVC045 23/22 A2986 RMK AO2 CIG 005V009 P0004 T02330222=
202108171226 SPECI KATL 171226Z 08014KT 5SM -RA BR SCT007 BKN018 OVC060 23/22 A2986 RMK AO2 P0001 T02330222=
202108171152 METAR KATL 171152Z 08015KT 7SM -RA SCT008 BKN014 BKN055 OVC130 23/22 A2988 RMK AO2 SLP109 P0008 60188 70269 T02330222 10233 20222 56008=
202108171146 SPECI KATL 171146Z 08012KT 8SM -RA SCT008 BKN014 BKN050 OVC130 23/22 A2988 RMK AO2 P0007=
202108171132 SPECI KATL 171132Z 08012KT 8SM -RA BKN013 BKN022 OVC045 23/22 A2989 RMK AO2 P0006 T02330217=
202108171105 SPECI KATL 171105Z 09007KT 9SM -RA SCT005 BKN024 BKN050 OVC130 23/22 A2988 RMK AO2 P0006 T02280217=
202108171052 METAR KATL 171052Z 08011KT 3SM RA BR BKN006 BKN015CB OVC036 23/22 A2988 RMK AO2 SLP111 CIG 004V008 CB NW-NE MOV NW P0075 T02280217=
202108171040 SPECI KATL 171040Z 07011KT 2SM +RA BR BKN006 BKN014CB OVC036 23/22 A2988 RMK AO2 CIG 005V008 CB OHD-ALQDS MOV NW P0066 T02280217=
202108171033 SPECI KATL 171033Z 06008KT 1 1/2SM R09R/2600VP6000FT +RA BR BKN007 BKN014CB OVC038 23/22 A2987 RMK AO2 CB OHD-ALQDS MOV NW P0061 T02280217=
202108171026 SPECI KATL 171026Z 07012G21KT 3/4SM R09R/2600VP6000FT +RA BR BKN007 BKN014CB OVC038 23/22 A2988 RMK AO2 CB NE-OHD-SW MOV NW P0021 T02280217=
202108171025 SPECI KATL 171025Z 07014KT 1SM R09R/2600VP6000FT +RA BR SCT007 BKN014CB OVC041 23/22 A2989 RMK AO2 CB NE-OHD-SW MOV NW P0018 T02280217=
202108171022 SPECI KATL 171022Z 08014KT 2SM +RA BR SCT007 BKN014CB OVC041 23/22 A2989 RMK AO2 CB NE-OHD-SW MOV NW P0017 T02280217=
202108170958 SPECI KATL 170958Z 06015KT 3SM R09R/4500VP6000FT -RA BR SCT006 BKN018CB OVC045 23/22 A2989 RMK AO2 CB SW-NW-NE MOV NW P0015 T02280217=
202108170952 METAR KATL 170952Z 06016KT 2SM R09R/4500VP6000FT +RA BR SCT007 BKN020CB OVC050 23/22 A2990 RMK AO2 PK WND 07028/0934 SLP115 CB NE-OHD-W MOV NW P0045 T02280217=
202108170948 SPECI KATL 170948Z 08016KT 1 1/2SM +RA BR SCT008 BKN022CB OVC050 23/22 A2990 RMK AO2 PK WND 07028/0934 CB E-OHD-SW MOV NW P0040=
202108170942 SPECI KATL 170942Z 07017G28KT 3SM RA BR SCT008 BKN022 OVC050 23/22 A2990 RMK AO2 PK WND 07028/0934 P0036 T02280217=
202108170924 SPECI KATL 170924Z 07018G24KT 2SM +RA BR BKN008 BKN018CB OVC038 23/22 A2990 RMK AO2 CB E-S-SW MOV NW P0017 T02280217=
202108170852 METAR KATL 170852Z 08017KT 4SM RA BR BKN007 BKN014 OVC026 23/22 A2991 RMK AO2 PK WND 06028/0806 SLP118 CIG 005V009 P0020 60060 T02280217 58018=
202108170752 METAR KATL 170752Z 05015KT 3SM RA BR BKN006 BKN015 OVC040 22/21 A2993 RMK AO2 SLP125 CIG 005V008 P0026 T02220211=
202108170652 METAR KATL 170652Z 05015KT 4SM -RA BR BKN006 BKN020CB OVC040 22/21 A2996 RMK AO2 SLP134 CIG 005V008 CB SW-NW-NE MOV NW P0014 T02220211=
202108170647 SPECI KATL 170647Z 05014KT 4SM -RA BR BKN006 BKN020CB OVC040 22/21 A2996 RMK AO2 CIG 005V008 CB SW-NW-NE MOV NW P0014=
202108170640 SPECI KATL 170640Z 06015KT 2SM +RA BR BKN006 OVC020CB 22/21 A2997 RMK AO2 CB NE-OHD-SW MOV NW P0007 T02220211=
202108170552 METAR KATL 170552Z 07012KT 8SM -RA BKN008 OVC018 22/21 A2999 RMK AO2 SLP145 CIG 006V010 P0006 60010 T02220211 10228 20222 58008=
202108170452 METAR KATL 170452Z 07013KT 10SM -RA BKN006 BKN012 OVC120 22/21 A3001 RMK AO2 SLP153 P0001 T02220211 402890222=
202108170352 METAR KATL 170352Z 08010KT 10SM -RA BKN006 BKN011 BKN110 OVC150 23/21 A3002 RMK AO2 SLP156 P0000 T02280211=
202108170252 METAR KATL 170252Z 07012KT 9SM -RA BKN006 BKN011 BKN080 OVC150 23/21 A3001 RMK AO2 SLP154 P0002 60003 T02280211 58005=
202108170152 METAR KATL 170152Z 08010KT 8SM -RA BKN006 BKN015 OVC150 23/22 A3003 RMK AO2 RAE05B26 SLP161 P0000 T02280217=
202108170126 SPECI KATL 170126Z 08009KT 8SM -RA SCT006 BKN025 BKN050 OVC150 23/21 A3004 RMK AO2 RAE05B26 SCT006 V BKN P0000 T02280211=
202108170052 METAR KATL 170052Z 10007KT 10SM -RA FEW006 SCT050 BKN120 OVC200 23/21 A3003 RMK AO2 SLP160 P0001 T02280211=
202108162352 METAR KATL 162352Z 09011KT 9SM -RA FEW006 SCT045 BKN070 OVC150 23/21 A3003 RMK AO2 SLP159 P0023 60071 T02280211 10289 20228 50001=
202108162305 SPECI KATL 162305Z 10009G18KT 4SM RA BR FEW009 SCT020CB BKN060 OVC150 23/21 A3004 RMK AO2 CB OHD-ALQDS P0010 T02280211=
202108162252 METAR KATL 162252Z 11012G19KT 2 1/2SM +RA BR SCT009 BKN020CB BKN060 OVC150 23/21 A3004 RMK AO2 RAB13 SLP163 CB OHD-ALQDS MOV NW P0011 T02280211=
202108162213 SPECI KATL 162213Z 10009G20KT 10SM -RA BKN012 BKN020CB BKN100 OVC150 24/22 A3004 RMK AO2 RAB13 CB E-S-SW MOV NW P0000 T02390217=
202108162152 METAR KATL 162152Z 08010KT 10SM SCT011 BKN060 BKN100 OVC150 24/22 A3003 RMK AO2 RAE2057 SLP160 CB DSNT SE-SW P0000 T02440217=
202108162052 METAR KATL 162052Z 10009KT 10SM -RA FEW028 BKN055 BKN085 OVC130 24/22 A3002 RMK AO2 SLP158 P0013 60037 T02440217 56013=
202108162013 SPECI KATL 162013Z 12005KT 9SM -RA FEW008 SCT030CB BKN085 OVC130 24/22 A3004 RMK AO2 CB W-NW MOV NW P0009 T02440222=
202108161952 METAR KATL 161952Z 12004KT 3SM R09R/4000VP6000FT +RA BR FEW008 BKN024 BKN060 OVC130 24/22 A3004 RMK AO2 PK WND 12026/1939 RAB39 SLP162 VIS LWR SW-NW CB SW-NW-N MOV NW P0024 T02440222=
202108161940 SPECI KATL 161940Z 11020G26KT 3SM R09R/3500VP6000FT RA BKN024CB BKN050 BKN120 OVC200 27/22 A3004 RMK AO2 PK WND 12026/1939 RAB39 CB N-OHD-S MOV NW P0000 T02670217=
202108161852 METAR KATL 161852Z 11006KT 10SM SCT028TCU BKN070 BKN120 BKN200 29/21 A3004 RMK AO2 SLP161 TCU N NE-SE NW MDT CU ALQDS SHRA NE-SE T02890206=
202108161752 METAR KATL 161752Z 07007KT 10SM SCT024TCU BKN036 BKN130 OVC200 28/21 A3006 RMK AO2 SLP169 TCU S SW DSNT NE-SE MDT CU ALQDS T02780211 10283 20239 58013=
202108161652 METAR KATL 161652Z 09009KT 10SM SCT025 BKN033 BKN140 BKN200 27/21 A3009 RMK AO2 SLP178 MDT CU ALQDS T02670211=
202108161552 METAR KATL 161552Z 12007KT 10SM BKN018 BKN150 BKN200 27/22 A3010 RMK AO2 SLP180 T02670217=
202108161452 METAR KATL 161452Z 13007KT 10SM SCT018 SCT150 BKN180 BKN250 26/21 A3010 RMK AO2 SLP183 T02560211 51010=
202108161352 METAR KATL 161352Z 12005KT 10SM FEW018 BKN180 BKN250 26/21 A3009 RMK AO2 SLP178 T02560206=
202108161252 METAR KATL 161252Z 11008KT 10SM FEW009 SCT012 SCT160 BKN190 BKN250 24/21 A3009 RMK AO2 SLP178 T02440211=
202108161230 SPECI KATL 161230Z 11008KT 10SM FEW008 SCT010 SCT160 BKN190 BKN250 24/21 A3008 RMK AO2 T02390211=
202108161152 METAR KATL 161152Z 09005KT 10SM FEW010 SCT160 BKN250 24/21 A3007 RMK AO2 SLP173 T02390211 10244 20233 51008=
202108161052 METAR KATL 161052Z 14004KT 10SM SCT010 BKN160 BKN250 23/22 A3007 RMK AO2 SLP170 T02330217=
202108161016 SPECI KATL 161016Z 14003KT 10SM SCT010 SCT160 24/22 A3006 RMK AO2 T02390217=
202108160952 METAR KATL 160952Z 15008KT 10SM BKN010 BKN015 24/22 A3005 RMK AO2 SLP165 T02390217=
202108160852 METAR KATL 160852Z 14006KT 10SM BKN010 OVC014 24/22 A3005 RMK AO2 SLP163 BINOVC T02440222 55007=
202108160821 SPECI KATL 160821Z 14005KT 10SM OVC010 24/22 A3004 RMK AO2 BINOVC T02440217=
202108160752 METAR KATL 160752Z 13004KT 10SM FEW010 FEW120 BKN150 BKN170 BKN200 24/22 A3004 RMK AO2 SLP163 T02390217=
202108160652 METAR KATL 160652Z 16003KT 10SM FEW010 FEW070 BKN150 BKN170 BKN250 24/22 A3005 RMK AO2 SLP166 T02440217=
202108160552 METAR KATL 160552Z 16003KT 10SM FEW009 SCT140 BKN160 24/22 A3007 RMK AO2 SLP170 T02440222 10272 20244 58007=
202108160452 METAR KATL 160452Z 16004KT 10SM BKN140 25/22 A3008 RMK AO2 SLP173 T02500217 403060222=
202108160352 METAR KATL 160352Z 16004KT 10SM BKN160 25/22 A3009 RMK AO2 SLP178 T02500217=
202108160252 METAR KATL 160252Z 15005KT 10SM BKN140 BKN200 26/21 A3009 RMK AO2 SLP178 T02560211 53015=
202108160152 METAR KATL 160152Z 15004KT 10SM BKN140 26/21 A3007 RMK AO2 SLP174 T02560206=
202108160052 METAR KATL 160052Z 15006KT 10SM BKN140 BKN200 26/21 A3005 RMK AO2 SLP167 T02610206=
202108152352 METAR KATL 152352Z 16005KT 10SM FEW038TCU SCT120 BKN180 27/22 A3004 RMK AO2 SLP163 TCU NE & DSNT SW T02720217 10306 20272 55003=
202108152252 METAR KATL 152252Z 15012G18KT 10SM SCT038TCU BKN140 BKN250 29/21 A3004 RMK AO2 SLP161 TCU SW & DSNT NE-SE T02940206=
202108152152 METAR KATL 152152Z 14009G16KT 10SM FEW034TCU SCT150 SCT250 30/21 A3004 RMK AO2 SLP162 TCU ALQDS T03000206=
202108152052 METAR KATL 152052Z 14008KT 10SM SCT037TCU SCT055 BKN150 BKN250 29/21 A3005 RMK AO2 SLP166 TCU NW-N AND DSNT E-SW T02890206 56024=
202108151952 METAR KATL 151952Z 14012G19KT 10SM SCT035TCU BKN050 BKN150 31/21 A3007 RMK AO2 SLP171 TCU OHD-NW-N AND DSNT E-SW T03060206=
202108151852 METAR KATL 151852Z 13009G15KT 10SM SCT027 SCT035TCU BKN055 BKN150 29/21 A3010 RMK AO2 SLP181 TCU OHD-NW-N AND DSNT E-SW T02940206=
202108151752 METAR KATL 151752Z 14007KT 10SM SCT023 BKN033TCU BKN150 BKN250 29/21 A3013 RMK AO2 SLP190 TCU SE-SW AND NW-N T02890211 10289 20222 58010=
202108151652 METAR KATL 151652Z 15006KT 10SM SCT023 BKN030TCU BKN150 BKN250 27/22 A3014 RMK AO2 SLP196 TCU N T02720217=
202108151608 SPECI KATL 151608Z VRB03KT 10SM SCT017 BKN027 BKN250 27/22 A3015 RMK AO2 T02670217=
202108151552 METAR KATL 151552Z 00000KT 7SM BKN014 BKN021 26/21 A3015 RMK AO2 SLP201 T02610211=
202108151452 METAR KATL 151452Z 14003KT 6SM HZ BKN011 OVC020 24/21 A3016 RMK AO2 SLP203 T02440211 51006=
202108151443 SPECI KATL 151443Z 00000KT 6SM HZ BKN011 OVC020 24/21 A3016 RMK AO2 T02440211=
202108151352 METAR KATL 151352Z 00000KT 5SM HZ BKN008 OVC014 24/21 A3015 RMK AO2 SLP202 T02390211=
202108151252 METAR KATL 151252Z 06004KT 3SM BKN006 OVC012 23/21 A3014 RMK AO2 SFC VIS 7 SLP198 T02280206=
202108151239 SPECI KATL 151239Z 09004KT 2SM BKN005 OVC009 23/21 A3014 RMK AO2 SFC VIS 10 T02280211=
202108151216 SPECI KATL 151216Z 09004KT 1SM R09R/P6000FT BKN004 OVC009 23/21 A3014 RMK AO2 SFC VIS 7 TWRINC T02280211=
202108151152 METAR KATL 151152Z 11005KT 7SM BKN005 OVC010 23/21 A3014 RMK AO2 SLP196 70004 T02280206 10233 20222 51009=
202108151052 METAR KATL 151052Z 12006KT 10SM BKN007 OVC025 23/21 A3013 RMK AO2 SLP195 T02280206=
202108151042 SPECI KATL 151042Z 09006KT 10SM BKN007 BKN025 BKN050 BKN200 BKN250 22/21 A3013 RMK AO2 T02220206=
202108151005 SPECI KATL 151005Z 09007KT 10SM SCT008 SCT027 BKN035 BKN250 22/21 A3012 RMK AO2 T02220206=
202108150952 METAR KATL 150952Z 09006KT 10SM FEW009 BKN027 BKN085 BKN250 23/21 A3011 RMK AO2 SLP188 BKN027 V SCT T02280206=
202108150944 SPECI KATL 150944Z 09006KT 10SM FEW009 BKN027 BKN085 BKN250 23/21 A3011 RMK AO2 T02280206=
202108150852 METAR KATL 150852Z 09006KT 10SM BKN024 BKN070 BKN250 22/21 A3011 RMK AO2 SLP184 T02220206 56008=
202108150843 SPECI KATL 150843Z 09005KT 10SM BKN024 23/21 A3011 RMK AO2 T02280206=
202108150752 METAR KATL 150752Z 10007KT 10SM SCT025 SCT085 BKN250 23/21 A3011 RMK AO2 SLP185 T02280206=
202108150652 METAR KATL 150652Z 09006KT 10SM FEW015 SCT027 BKN085 BKN250 23/21 A3013 RMK AO2 SLP190 T02280206=
202108150552 METAR KATL 150552Z 07004KT 10SM FEW010 SCT015 BKN080 BKN250 23/21 A3013 RMK AO2 SLP192 T02280206 10256 20228 58009=
202108150534 SPECI KATL 150534Z 00000KT 10SM FEW010 SCT015 BKN085 23/21 A3014 RMK AO2 T02330206=
202108150504 SPECI KATL 150504Z 15003KT 10SM FEW010 BKN015 BKN070 23/21 A3015 RMK AO2 T02330206=
202108150452 METAR KATL 150452Z 15004KT 10SM SCT015 BKN070 23/21 A3015 RMK AO2 SLP198 T02280206 403440228=
202108150352 METAR KATL 150352Z 11006KT 10SM BKN060 BKN140 24/21 A3016 RMK AO2 SLP201 T02390206=
202108150252 METAR KATL 150252Z 08008KT 10SM FEW020 BKN120 24/21 A3016 RMK AO2 SLP203 T02390206 53014=
202108150152 METAR KATL 150152Z 13006KT 10SM BKN120 24/21 A3014 RMK AO2 SLP196 T02440206=
202108150052 METAR KATL 150052Z 12004KT 10SM FEW030 BKN140 24/21 A3013 RMK AO2 SLP193 TCU DSNT W-NW T02440206=
202108142352 METAR KATL 142352Z 11008KT 10SM FEW040 SCT120 BKN180 26/21 A3012 RMK AO2 SLP190 TCU DSNT NW 60004 T02560206 10344 20233 51016=
202108142252 METAR KATL 142252Z 14009KT 10SM FEW060 SCT120 BKN180 BKN250 24/21 A3011 RMK AO2 LTG DSNT NW RAE2159 TSE15B16E34 SLP187 TS DSPTD CB DSNT NW TCU DSNT W P0000 T02440211=
202108142237 SPECI KATL 142237Z 13006KT 10SM SCT055 SCT120 BKN250 24/21 A3011 RMK AO2 LTG DSNT NW RAE2159 TSE15B16E34 TS DSPTD CB DSNT NW P0000 T02390211=
202108142152 METAR KATL 142152Z 16007G25KT 6SM -TSRA SCT017 BKN044CB BKN060 BKN250 24/21 A3012 RMK AO2 PK WND 11032/2126 LTG DSNT N AND NE AND S RAB25 TSB18 SLP190 TSB12 OCNL LTGICCG N-NE & S TS N-NE & S MOV NW VIS LWR SE-SW P0004 T02390211=
202108142130 SPECI KATL 142130Z 12021G32KT 7SM TSRA FEW017 BKN040CB BKN070 BKN250 26/22 A3011 RMK AO2 PK WND 11032/2126 LTG DSNT NE-SE RAB25 TSB18 TSB12 OCNL LTGICCG NE-SE TS NE-SE MOV NW VIS LWR S P0001 T02610217=
202108142118 SPECI KATL 142118Z 10SM TS BKN060CB BKN250 33/20 A3009 RMK AO2 LTG DSNT NE AND SE TSB18 TSB12 OCNL LTGICCG SE TS VC SE MOV NW T03280200=
202108142052 METAR KATL 142052Z 23004KT 10SM SCT055TCU SCT200 34/21 A3007 RMK AO2 LTG DSNT E-S SLP170 TCU OHD-E-SE CB DSNT E-S T03390206 56021=
202108141952 METAR KATL 141952Z 32008KT 10SM SCT060TCU SCT200 34/21 A3009 RMK AO2 SLP176 TCU S AND DSNT SE-S T03390206=
202108141852 METAR KATL 141852Z VRB04KT 10SM SCT055 SCT200 34/21 A3011 RMK AO2 SLP184 TCU DSNT SE-S T03390206=
202108141752 METAR KATL 141752Z 00000KT 10SM SCT045 SCT150 33/20 A3013 RMK AO2 SLP192 CB DSNT SE AND SW T03280200 10328 20250 58017=
202108141652 METAR KATL 141652Z 29007KT 10SM SCT043 SCT150 33/21 A3017 RMK AO2 SLP202 MDT CU DSNT W-N T03280211=
202108141552 METAR KATL 141552Z 00000KT 10SM SCT035 SCT150 31/21 A3018 RMK AO2 SLP209 T03110211=
202108141452 METAR KATL 141452Z 29004KT 10SM FEW034 FEW150 SCT250 31/21 A3019 RMK AO2 SLP209 T03060206 51004=
202108141352 METAR KATL 141352Z 00000KT 10SM FEW150 FEW250 29/22 A3018 RMK AO2 SLP210 T02940217=
202108141252 METAR KATL 141252Z 29003KT 10SM FEW150 FEW250 27/22 A3018 RMK AO2 SLP209 T02670217=
202108141152 METAR KATL 141152Z 30005KT 10SM FEW150 FEW200 24/22 A3017 RMK AO2 SLP206 T02440217 10261 20233 53007=
202108141052 METAR KATL 141052Z 00000KT 10SM FEW150 FEW200 24/21 A3017 RMK AO2 SLP203 ACC DSNT E T02390211=
202108140952 METAR KATL 140952Z 23003KT 10SM FEW200 23/21 A3016 RMK AO2 SLP200 T02330211=
202108140852 METAR KATL 140852Z 00000KT 10SM FEW200 25/21 A3015 RMK AO2 SLP198 T02500211 55002=
202108140752 METAR KATL 140752Z 00000KT 10SM FEW200 25/22 A3015 RMK AO2 SLP197 T02500217=
202108140652 METAR KATL 140652Z 00000KT 10SM FEW050 FEW200 26/22 A3015 RMK AO2 SLP196 T02560217=
202108140552 METAR KATL 140552Z 00000KT 10SM FEW150 26/22 A3016 RMK AO2 SLP200 T02560217 10306 20256 55003=
202108140452 METAR KATL 140452Z 00000KT 10SM FEW200 27/22 A3015 RMK AO2 SLP197 T02670217 403330222=
202108140352 METAR KATL 140352Z 29003KT 10SM FEW200 27/22 A3015 RMK AO2 SLP199 T02670217=
202108140252 METAR KATL 140252Z 32005KT 10SM FEW200 28/22 A3017 RMK AO2 SLP203 T02780217 51016=
202108140152 METAR KATL 140152Z 27005KT 10SM FEW200 28/21 A3015 RMK AO2 SLP199 T02780211=
202108140052 METAR KATL 140052Z 27006KT 10SM FEW050 FEW200 29/21 A3014 RMK AO2 LTG DSNT N SLP194 CB DSNT N T02890211=
202108132352 METAR KATL 132352Z 27007KT 10SM FEW048 FEW200 31/20 A3012 RMK AO2 SLP187 TCU DSNT NW-N T03060200 10333 20306 55001=
202108132252 METAR KATL 132252Z 21006KT 10SM FEW050TCU FEW080 SCT250 32/19 A3011 RMK AO2 SLP184 TCU OHD N SE S T03220194=
202108132152 METAR KATL 132152Z 24008KT 10SM FEW050 FEW075 SCT250 33/20 A3011 RMK AO2 SLP185 CB DSNT SE TCU DSNT N-NE T03280200=
202108132052 METAR KATL 132052Z 00000KT 10SM FEW050TCU FEW075 SCT110 SCT200 BKN250 32/20 A3012 RMK AO2 SLP189 CB DSNT SE TCU NE DSNT ALQDS T03220200 58021=
202108131952 METAR KATL 131952Z 19003KT 10SM FEW048TCU SCT075 SCT100 BKN200 BKN250 32/21 A3015 RMK AO2 SLP196 TCU NE E-OHD-W DSNT ALQDS SHRA E T03170211=
202108131852 METAR KATL 131852Z 33003KT 10SM SCT046TCU BKN080 BKN200 BKN250 32/21 A3017 RMK AO2 SLP203 TCU NE-OHD-SW W-NW DSNT NW-NE MDT CU ALQDS T03170206=
202108131752 METAR KATL 131752Z 34006KT 10SM FEW044TCU SCT075 SCT200 SCT250 31/21 A3018 RMK AO2 SLP210 TCU SE-S SW DSNT ALQDS T03110206 10322 20233 58010=
202108131652 METAR KATL 131652Z 20007KT 10SM FEW040 SCT250 31/21 A3020 RMK AO2 SLP216 CB DSNT NW-NE TCU DSNT N-NE SE W T03110211=
202108131552 METAR KATL 131552Z 00000KT 10SM FEW032 FEW250 31/21 A3022 RMK AO2 SLP222 CB DSNT NW-NE T03060211=
202108131452 METAR KATL 131452Z 28004KT 10SM FEW024 FEW250 29/21 A3022 RMK AO2 SLP221 T02890206 50008=
202108131352 METAR KATL 131352Z 30005KT 10SM FEW055 SCT250 27/21 A3022 RMK AO2 SLP221 T02720211=
202108131252 METAR KATL 131252Z 29004KT 10SM FEW055 FEW070 SCT250 25/21 A3021 RMK AO2 SLP220 ACC DSNT NW T02500211=
202108131152 METAR KATL 131152Z 00000KT 10SM FEW055 FEW070 SCT250 23/21 A3019 RMK AO2 SLP213 MDT CU W 70044 T02330206 10244 20222 53018=
202108131052 METAR KATL 131052Z 27004KT 10SM FEW050 SCT200 SCT250 22/21 A3017 RMK AO2 SLP207 T02220206=
202108130952 METAR KATL 130952Z 00000KT 10SM SCT050 23/20 A3015 RMK AO2 SLP197 T02280200=
202108130852 METAR KATL 130852Z 26003KT 10SM CLR 22/20 A3014 RMK AO2 SLP194 T02220200 56006=
202108130752 METAR KATL 130752Z 00000KT 10SM CLR 23/21 A3014 RMK AO2 SLP193 T02330206=
202108130652 METAR KATL 130652Z 00000KT 10SM FEW250 23/20 A3015 RMK AO2 SLP198 T02330200=
202108130552 METAR KATL 130552Z 01003KT 10SM FEW090 FEW110 SCT250 23/21 A3016 RMK AO2 SLP200 60044 T02330206 10306 20228 58013=
202108130452 METAR KATL 130452Z 27005KT 10SM FEW025 FEW110 SCT200 23/21 A3017 RMK AO2 RAE0359 SLP204 TSE38 OCNL LTG DSNT NW P0000 T02330206 403280222=
202108130439 SPECI KATL 130439Z 29008KT 10SM FEW025 FEW110 SCT200 23/21 A3017 RMK AO2 RAE0359 TSE38 FRQ LTG DSNT NW TS MOV NW P0000 T02330211=
202108130352 METAR KATL 130352Z 29010KT 10SM VCTS -RA SCT025CB BKN035 BKN110 OVC200 23/21 A3020 RMK AO2 WSHFT 0245 LTG DSNT SW-NW SLP216 CONS LTGICCGCA VC SW-NW TS VC SW-NW MOV NW P0004 T02330206=
202108130305 SPECI KATL 130305Z 04007KT 8SM -TSRA FEW025CB SCT080 BKN110 OVC200 24/21 A3018 RMK AO2 WSHFT 0245 LTG DSNT ALQDS FRQ LTGICCGCA OHD-ALQDS TS OHD-ALQDS MOV NW P0004 T02390206=
202108130252 METAR KATL 130252Z 06016G22KT 5SM -TSRA SCT030CB BKN080 BKN150 OVC200 24/20 A3019 RMK AO2 LTG DSNT ALQDS RAB23 SLP214 VIS LWR NE-SE FRQ LTGICCG OHD-ALQDS TS OHD-ALQDS MOV NW P0040 60040 T02390200 53026=
202108130230 SPECI KATL 130230Z 17012G23KT 2SM R09R/4500VP6000FT +TSRA BKN032CB BKN050 OVC200 26/19 A3019 RMK AO2 LTG DSNT ALQDS RAB23 PRESRR VIS LWR SE-SW FRQ LTGICCG OHD-ALQDS TS OHD-ALQDS MOV NW P0015 T02560194=
202108130152 METAR KATL 130152Z 31006KT 10SM TS FEW040CB SCT080 BKN200 BKN250 28/22 A3015 RMK AO2 LTG DSNT ALQDS SLP197 TSB24 CONS LTGICCG SE-S DSNT NE-E TS SE-S DSNT NE-E MOV NW CB DSNT ALQDS T02830217=
202108130125 SPECI KATL 130125Z 31006KT 10SM VCTS FEW040CB SCT080 SCT200 BKN250 28/21 A3013 RMK AO2 LTG DSNT ALQDS TSB24 FRQ LTGICCG VC SE DSNT NE-E TS VC SE DSNT NE-E MOV NW CB DSNT ALQDS T02830211=
202108130052 METAR KATL 130052Z 31007KT 10SM FEW040 SCT060 SCT200 BKN250 28/21 A3013 RMK AO2 LTG DSNT E-S SLP193 TSE19 CB DSNT E SE S SW NW TCU DSNT N W T02780206=
202108130019 SPECI KATL 130019Z 32008KT 10SM FEW040CB SCT060 SCT200 BKN250 29/21 A3012 RMK AO2 LTG DSNT SW TS DSIPTD CB NW DSNT E S SW MOV NW TCU N W T02890206=
202108122352 METAR KATL 122352Z 00000KT 10SM TS FEW040CB SCT060 SCT150 BKN250 31/22 A3012 RMK AO2 TSB30 SLP187 FRQ LTGICCG NW-N TS NW-N MOV NW TCU DSNT ALQDS T03060217 10328 20306 55002=
202108122332 SPECI KATL 122332Z 23004KT 10SM TS SCT045CB BKN250 31/22 A3011 RMK AO2 TSB30 OCNL LTGICCG NW-N TS NW-N MOV NW T03060217=
202108122252 METAR KATL 122252Z 23004KT 10SM SCT045TCU BKN250 31/21 A3010 RMK AO2 SLP182 TCU OHD NW DSNT ALQDS T03110211=
202108122152 METAR KATL 122152Z 20005KT 10SM FEW045 SCT070 BKN250 32/22 A3011 RMK AO2 SLP184 MDT CU N-OHD-S T03220217=
202108122052 METAR KATL 122052Z 20007KT 10SM SCT046TCU SCT075 SCT110 BKN200 BKN250 31/21 A3012 RMK AO2 SLP189 TCU N-NE SE SW-NW DSNT ALQDS T03110211 56027=
202108121952 METAR KATL 121952Z VRB03KT 10SM SCT046TCU SCT080 SCT120 BKN250 32/21 A3014 RMK AO2 SLP196 TCU ALQDS T03170211=
202108121852 METAR KATL 121852Z 19005KT 10SM SCT044TCU SCT075 BKN110 BKN200 BKN250 31/21 A3017 RMK AO2 SLP205 TCU OHD AND ALQDS SHRA S T03060206=
202108121752 METAR KATL 121752Z 25005KT 10SM SCT042TCU SCT075 SCT200 BKN250 32/22 A3020 RMK AO2 SLP216 TCU SE-SW NW MDT CU ALQDS T03220217 10322 20228 58008=
202108121652 METAR KATL 121652Z 32006KT 10SM FEW038 SCT180 SCT250 32/20 A3022 RMK AO2 SLP224 CB DSNT W T03170200=
202108121552 METAR KATL 121552Z 00000KT 10SM FEW036 SCT250 BKN300 30/21 A3023 RMK AO2 SLP227 T03000206=
202108121452 METAR KATL 121452Z 00000KT 10SM FEW028 FEW180 SCT250 BKN300 29/21 A3023 RMK AO2 SLP225 T02890206 51018=
202108121352 METAR KATL 121352Z 30006KT 10SM FEW180 SCT250 27/21 A3022 RMK AO2 SLP222 T02670211=
202108121252 METAR KATL 121252Z 32006KT 10SM SCT170 25/21 A3019 RMK AO2 SLP214 T02500211=
202108121152 METAR KATL 121152Z 29006KT 10SM FEW140 SCT170 23/21 A3017 RMK AO2 SLP208 ACC S T02280211 10233 20222 53008=
202108121052 METAR KATL 121052Z 31005KT 10SM SCT170 SCT250 23/21 A3015 RMK AO2 SLP201 T02280206=
202108120952 METAR KATL 120952Z 32003KT 10SM FEW180 SCT250 23/21 A3015 RMK AO2 SLP199 T02280206=
202108120852 METAR KATL 120852Z 33003KT 10SM SCT170 SCT250 23/21 A3015 RMK AO2 SLP200 T02280206 55001=
202108120752 METAR KATL 120752Z 20003KT 10SM BKN170 BKN250 22/21 A3014 RMK AO2 SLP199 T02220206=
202108120652 METAR KATL 120652Z 08003KT 10SM SCT170 SCT250 23/21 A3014 RMK AO2 SLP197 T02280211=
202108120552 METAR KATL 120552Z 00000KT 10SM FEW006 SCT200 SCT250 23/21 A3015 RMK AO2 SLP201 T02280211 10256 20228 58011=
202108120452 METAR KATL 120452Z 22005KT 9SM FEW005 BKN200 BKN250 23/21 A3017 RMK AO2 SLP207 T02280211 403110228=
202108120352 METAR KATL 120352Z 18003KT 10SM FEW120 SCT200 BKN250 23/21 A3018 RMK AO2 SLP207 T02280211=
202108120252 METAR KATL 120252Z 00000KT 10SM FEW130 SCT200 BKN250 24/21 A3019 RMK AO2 SLP211 T02390211 51015=
202108120152 METAR KATL 120152Z 30004KT 10SM FEW130 BKN200 OVC250 24/21 A3017 RMK AO2 SLP205 T02440211=
202108120052 METAR KATL 120052Z 01004KT 10SM SCT130 BKN200 OVC250 25/21 A3016 RMK AO2 SLP203 T02500211=
202108112352 METAR KATL 112352Z 33006KT 10SM FEW100 BKN200 OVC250 25/21 A3014 RMK AO2 SLP198 T02500211 10272 20250 58004=
202108112252 METAR KATL 112252Z 35006KT 10SM FEW090 BKN130 OVC200 25/21 A3015 RMK AO2 SLP200 T02500211=
202108112152 METAR KATL 112152Z 29007KT 10SM FEW030 FEW085 SCT120 BKN180 OVC250 25/21 A3015 RMK AO2 SLP202 LTG DSNT SW NW-N CB DSNT SW NW-N T02500206=
202108112052 METAR KATL 112052Z 32010KT 10SM FEW034 FEW085 SCT120 BKN180 BKN250 26/21 A3015 RMK AO2 LTG DSNT SW-NW SLP201 CB DSNT NE-E SW-NW TCU DSNT SW ACC SE S-W T02610206 55009=
202108112027 SPECI KATL 112027Z 31008KT 10SM FEW034 FEW085 SCT120 BKN180 BKN250 27/20 A3015 RMK AO2 LTG DSNT S-NW CB DSNT NE-E SW-NW T02670200=
202108111952 METAR KATL 111952Z 16005KT 10SM FEW036 FEW085 SCT120 BKN200 26/21 A3014 RMK AO2 LTG DSNT ALQDS SLP199 TSE38 TS DSIPTD CB DSNT ALQDS T02560206=
202108111941 SPECI KATL 111941Z 00000KT 10SM FEW036TCU FEW080 SCT120 BKN200 26/19 A3014 RMK AO2 LTG DSNT ALQDS TSE38 TS DSIPTD CB DSNT ALQDS T02560194=
202108111852 METAR KATL 111852Z 13004KT 10SM VCTS FEW036CB FEW080 SCT120 BKN200 26/21 A3016 RMK AO2 LTG DSNT ALQDS SLP204 OCNL LTGICCGCA VC SE-SW TS VC SE-SW MOV E CBMAM E-OHD-W CB DSNT ALQDS TCU SE SHRA SE-SW T02560206=
202108111752 METAR KATL 111752Z 09009KT 10SM VCTS SCT034CB SCT065 BKN110 BKN200 28/22 A3018 RMK AO2 LTG DSNT N-E SLP210 RAB08E49 TSB18 OCNL LTGICCA VC NE-E TS VC NE-E MOV NE CB DSNT N-E P0000 60000 T02780217 10311 20239 58010=
202108111719 SPECI KATL 111719Z 12006KT 8SM -TSRA BKN032CB BKN040TCU BKN080 BKN200 28/23 A3019 RMK AO2 LTG DSNT NE AND E RAB08 TSB18 VIS LWR NE-SE OCNL LTGICCA NE-SE TS NE-SE MOV STNRY CB DSNT NE E TCU ALQDS P0000 T02830228=
202108111709 SPECI KATL 111709Z 14006KT 8SM -RA BKN032CB BKN040TCU BKN080 BKN200 29/22 A3019 RMK AO2 LTG DSNT NE RAB08 VIS LWR NE-SE CB NE-SE MOV STNRY TCU ALQDS CB DSNT NE P0000 T02940217=
202108111652 METAR KATL 111652Z 24004KT 10SM BKN032CB BKN040TCU BKN090 BKN200 31/22 A3020 RMK AO2 LTG DSNT SW SLP217 CB OHD-SE MOV STNRY TCU ALQDS SHRA SE T03060222=
202108111552 METAR KATL 111552Z 30005KT 10SM FEW036TCU FEW080 SCT250 31/23 A3021 RMK AO2 SLP219 TCU N-NE SW T03060228=
202108111452 METAR KATL 111452Z 35007KT 10SM FEW036 FEW080 FEW250 29/21 A3022 RMK AO2 SLP221 T02940211 51010=
202108111352 METAR KATL 111352Z 31008KT 9SM FEW036TCU SCT075 SCT250 28/21 A3021 RMK AO2 SLP219 TCU SW NW ACC N T02780211=
202108111252 METAR KATL 111252Z 29003KT 10SM FEW070 FEW250 26/21 A3020 RMK AO2 SLP215 T02560211=
202108111152 METAR KATL 111152Z 28003KT 10SM FEW035 SCT250 24/21 A3018 RMK AO2 SLP210 CB DSNT NW T02390206 10244 20228 53006=
202108111052 METAR KATL 111052Z 31005KT 10SM FEW065 FEW085 SCT250 23/21 A3017 RMK AO2 SLP206 T02330211=
202108110952 METAR KATL 110952Z 28004KT 10SM FEW040 FEW110 SCT250 23/21 A3017 RMK AO2 SLP207 T02330211=
202108110852 METAR KATL 110852Z 23005KT 10SM FEW110 SCT250 23/22 A3017 RMK AO2 SLP203 T02330217 58002=
202108110752 METAR KATL 110752Z 22004KT 10SM SCT250 23/21 A3017 RMK AO2 SLP206 T02330211=
202108110652 METAR KATL 110652Z 16003KT 10SM FEW200 SCT250 24/21 A3018 RMK AO2 SLP207 T02390211=
202108110552 METAR KATL 110552Z 28004KT 10SM FEW055 SCT250 24/21 A3017 RMK AO2 SLP207 T02390206 10278 20239 56002=
202108110452 METAR KATL 110452Z 00000KT 10SM FEW200 SCT250 24/21 A3018 RMK AO2 SLP207 T02390211 403280233=
202108110352 METAR KATL 110352Z 28003KT 10SM SCT200 BKN250 26/21 A3017 RMK AO2 SLP205 T02560206=
202108110252 METAR KATL 110252Z 20003KT 10SM BKN200 BKN250 25/21 A3018 RMK AO2 SLP208 T02500211 51012=
202108110152 METAR KATL 110152Z 21004KT 10SM FEW050 BKN200 BKN250 26/21 A3018 RMK AO2 SLP208 T02560211=
202108110052 METAR KATL 110052Z 19004KT 10SM FEW050 BKN200 BKN250 27/22 A3016 RMK AO2 SLP203 T02670222=
202108102352 METAR KATL 102352Z 22005KT 10SM FEW150 BKN200 BKN250 28/22 A3014 RMK AO2 SLP196 CB DSNT NW-N 60000 T02780222 10328 20267 58004=
202108102252 METAR KATL 102252Z 20003KT 10SM FEW080 SCT150 BKN200 BKN250 28/21 A3015 RMK AO2 LTG DSNT NE SLP199 CB DSNT NW-N NE T02780211=
202108102152 METAR KATL 102152Z 20007KT 10SM FEW045CB SCT080 BKN120 BKN200 27/18 A3015 RMK AO2 PK WND 22026/2123 SLP199 RAB40E50 TSE51 TS DSIPTD CB SW-W DSNT NE-E NW-N MOV STNRY TCU N-NE P0000 T02720183=
202108102052 METAR KATL 102052Z 20009KT 10SM VCTS SCT043CB SCT050TCU BKN100 BKN200 32/22 A3015 RMK AO2 LTG DSNT E-SW SLP199 TSB36 OCNL LTGICCA VC SE S TS VC SE S MOV N CB DSNT E-S-SW TCU ALQDS T03220222 56016=
202108102040 SPECI KATL 102040Z 21007KT 10SM TS SCT042CB SCT050TCU BKN100 BKN200 32/22 A3016 RMK AO2 LTG DSNT E-SW TSB36 OCNL LTGICCG NE-E TS NE-E MOV NE CB DSNT E-S-SW TCU ALQDS T03220222=
202108101952 METAR KATL 101952Z 23008KT 10SM SCT045TCU SCT080 BKN200 BKN250 32/22 A3016 RMK AO2 LTG DSNT S AND SW SLP201 CB DSNT SE-SW TCU ALQDS T03220217=
202108101852 METAR KATL 101852Z 21006KT 10SM SCT040TCU SCT080 SCT200 BKN250 32/22 A3017 RMK AO2 LTG DSNT S SLP206 CB DSNT S TCU ALQDS T03220222=
202108101752 METAR KATL 101752Z 20006KT 10SM SCT036TCU SCT080 SCT200 BKN250 31/23 A3020 RMK AO2 SLP217 CB DSNT SW TCU ALQDS T03060228 10322 20250 58014=
202108101652 METAR KATL 101652Z 31003KT 10SM SCT034TCU SCT075 BKN200 BKN250 32/22 A3023 RMK AO2 SLP223 TCU ALQDS SHRA E-SE T03170222=
202108101552 METAR KATL 101552Z 28004KT 10SM FEW032TCU SCT044 SCT200 BKN250 31/23 A3024 RMK AO2 SLP229 TCU SW NW DSNT SW-NW-N MDT CU ALQDS T03110228=
202108101452 METAR KATL 101452Z 27005KT 10SM FEW030 FEW042 SCT200 SCT250 30/22 A3024 RMK AO2 SLP230 T03000222 51008=
202108101352 METAR KATL 101352Z 26004KT 10SM FEW200 SCT250 29/22 A3024 RMK AO2 SLP227 T02890222=
202108101252 METAR KATL 101252Z 29003KT 10SM FEW250 27/22 A3023 RMK AO2 SLP226 T02670217=
202108101152 METAR KATL 101152Z 00000KT 10SM SCT200 SCT250 25/22 A3022 RMK AO2 SLP223 70005 T02500217 10250 20233 53014=
202108101052 METAR KATL 101052Z 00000KT 10SM SCT200 SCT250 24/21 A3020 RMK AO2 SLP216 T02390206=
202108100952 METAR KATL 100952Z 33003KT 10SM SCT200 SCT250 24/21 A3019 RMK AO2 SLP211 T02390206=
202108100852 METAR KATL 100852Z 00000KT 10SM FEW200 23/21 A3018 RMK AO2 SLP208 T02330206 53003=
202108100752 METAR KATL 100752Z 18004KT 10SM FEW200 FEW250 23/20 A3017 RMK AO2 SLP206 T02330200=
202108100652 METAR KATL 100652Z 00000KT 9SM FEW200 FEW250 24/21 A3017 RMK AO2 SLP205 T02390206=
202108100552 METAR KATL 100552Z 20004KT 9SM FEW200 FEW250 24/21 A3017 RMK AO2 SLP205 T02390211 10283 20239 58002=
202108100452 METAR KATL 100452Z 19003KT 9SM FEW200 SCT250 24/22 A3018 RMK AO2 SLP208 T02390217 403110228=
202108100352 METAR KATL 100352Z 15003KT 9SM SCT200 BKN250 26/23 A3017 RMK AO2 SLP206 T02560228=
202108100252 METAR KATL 100252Z 00000KT 9SM SCT200 BKN250 27/23 A3017 RMK AO2 SLP206 T02670228 51012=
202108100152 METAR KATL 100152Z 30004KT 10SM FEW150 BKN200 BKN250 27/22 A3017 RMK AO2 SLP203 T02670222=
202108100052 METAR KATL 100052Z 23004KT 9SM FEW150 BKN200 BKN250 27/23 A3016 RMK AO2 SLP203 T02670228=
202108092352 METAR KATL 092352Z 23005KT 9SM FEW150 BKN200 BKN250 28/23 A3014 RMK AO2 SLP195 60005 T02830233 10311 20261 53005=
202108092252 METAR KATL 092252Z 28006KT 9SM FEW150 BKN200 BKN250 29/23 A3013 RMK AO2 SLP193 T02890228=
202108092152 METAR KATL 092152Z 22003KT 10SM FEW150 BKN200 BKN250 29/22 A3012 RMK AO2 SLP189 CB DSNT S-SW T02940217=
202108092052 METAR KATL 092052Z 23003KT 10SM FEW040 FEW150 SCT200 BKN250 31/21 A3012 RMK AO2 SLP189 60005 T03110206 58014=
202108091952 METAR KATL 091952Z 00000KT 10SM FEW038 FEW075 SCT120 BKN200 29/21 A3014 RMK AO2 LTG DSNT W RAE1858 SLP195 CB DSNT W NW TCU DSNT N-E-SE P0000 T02890211=
202108091852 METAR KATL 091852Z 20011KT 8SM -RA FEW035 SCT070 BKN095 BKN200 27/23 A3015 RMK AO2 RAB24 SLP201 TCU DSNT N NE-E P0005 T02670228=
202108091752 METAR KATL 091752Z 00000KT 10SM SCT040TCU BKN075 BKN200 BKN250 31/20 A3016 RMK AO2 LTG DSNT W SLP202 CB DSNT SW-NW TCU N E SW-W T03060200 10311 20239 58007=
202108091652 METAR KATL 091652Z 18005KT 9SM SCT040TCU SCT070 BKN200 BKN250 30/21 A3018 RMK AO2 SLP209 CB DSNT W-NW TCU OHD ALQDS T03000211=
202108091552 METAR KATL 091552Z 17005KT 9SM FEW036 SCT200 SCT250 BKN300 30/21 A3019 RMK AO2 SLP212 MDT CU NE-E SW-NW T03000206=
202108091452 METAR KATL 091452Z 18004KT 9SM FEW032 SCT200 SCT250 BKN300 30/21 A3019 RMK AO2 SLP210 T03000211 51012=
202108091352 METAR KATL 091352Z 25004KT 9SM FEW180 BKN250 BKN300 29/24 A3018 RMK AO2 SLP208 T02890239=
202108091252 METAR KATL 091252Z 23003KT 9SM FEW150 SCT200 BKN250 27/22 A3017 RMK AO2 SLP204 T02670217=
202108091152 METAR KATL 091152Z 00000KT 9SM FEW050 SCT150 SCT200 SCT250 24/21 A3015 RMK AO2 SLP199 T02390206 10250 20228 53012=
202108091052 METAR KATL 091052Z 00000KT 10SM FEW050 SCT200 SCT250 23/20 A3013 RMK AO2 SLP192 T02280200=
202108090952 METAR KATL 090952Z 29003KT 10SM FEW050 FEW110 23/21 A3011 RMK AO2 SLP187 T02330206=
202108090852 METAR KATL 090852Z 00000KT 10SM FEW050 SCT110 23/21 A3011 RMK AO2 SLP186 T02330206 55004=
202108090752 METAR KATL 090752Z 22003KT 10SM FEW050 FEW110 23/21 A3011 RMK AO2 SLP186 T02330206 $=
202108090652 METAR KATL 090652Z 15003KT 10SM FEW050 FEW110 24/21 A3012 RMK AO2 SLP188 T02390211 $=
202108090552 METAR KATL 090552Z 20003KT 10SM FEW110 FEW200 24/21 A3013 RMK AO2 SLP191 T02440206 10289 20239 50001 $=
202108090452 METAR KATL 090452Z 00000KT 10SM SCT110 24/21 A3013 RMK AO2 SLP191 T02440206 403170206 $=
202108090352 METAR KATL 090352Z 16003KT 10SM SCT060 SCT120 25/21 A3013 RMK AO2 SLP191 T02500206 $=
202108090252 METAR KATL 090252Z 10005KT 10SM BKN120 26/20 A3012 RMK AO2 SLP189 T02560200 53015 $=
202108090152 METAR KATL 090152Z 15006KT 10SM BKN080 27/21 A3010 RMK AO2 SLP182 T02670206 $=
202108090052 METAR KATL 090052Z 21003KT 10SM FEW036TCU FEW080 SCT250 28/20 A3008 RMK AO2 SLP174 TCU NE-SE T02780200 $=
202108082352 METAR KATL 082352Z 21005KT 10SM FEW040 FEW120 BKN250 29/19 A3008 RMK AO2 SLP175 TCU DSNT SE-S T02890194 10317 20289 56003 $=
202108082252 METAR KATL 082252Z 21004KT 10SM FEW040TCU SCT120 BKN250 29/19 A3008 RMK AO2 SLP174 TCU SE T02940194=
202108082152 METAR KATL 082152Z 16004KT 10SM SCT043TCU SCT070 BKN120 BKN250 31/19 A3008 RMK AO2 SLP174 TCU N-NE & DSNT S T03060194=
202108082052 METAR KATL 082052Z 20006KT 10SM SCT046 SCT060 BKN085 32/20 A3009 RMK AO2 SLP177 MDT CU NW-NE AND S-SW T03170200 56012=
202108081952 METAR KATL 081952Z VRB03KT 10SM SCT043 SCT065 SCT085 31/19 A3009 RMK AO2 SLP180 MDT CU S-NW T03060194=
202108081852 METAR KATL 081852Z VRB03KT 10SM SCT040 SCT060 SCT085 30/19 A3011 RMK AO2 SLP185 MDT CU NE AND SE-SW T03000194=
202108081752 METAR KATL 081752Z 36006KT 10SM SCT032 SCT042 BKN055 30/19 A3012 RMK AO2 SLP190 MDT CU N-S T03000194 10306 20222 58003=
202108081652 METAR KATL 081652Z 00000KT 10SM SCT032 SCT041 BKN055 29/20 A3013 RMK AO2 SLP193 T02890200=
202108081552 METAR KATL 081552Z 00000KT 10SM FEW036 29/19 A3013 RMK AO2 SLP192 T02890194=
202108081452 METAR KATL 081452Z 00000KT 10SM CLR 27/19 A3013 RMK AO2 SLP194 T02720194 50005=
202108081352 METAR KATL 081352Z 00000KT 10SM FEW028 26/20 A3014 RMK AO2 SLP195 T02610200=
202108081252 METAR KATL 081252Z 14003KT 10SM CLR 24/20 A3013 RMK AO2 SLP194 T02440200=
202108081152 METAR KATL 081152Z 00000KT 10SM CLR 22/19 A3012 RMK AO2 SLP189 T02220194 10228 20206 53017=
202108081052 METAR KATL 081052Z 07003KT 10SM CLR 22/19 A3010 RMK AO2 SLP182 T02220189=
202108080952 METAR KATL 080952Z 00000KT 10SM CLR 21/19 A3008 RMK AO2 SLP175 T02110189=
202108080852 METAR KATL 080852Z 00000KT 10SM FEW010 FEW110 21/18 A3006 RMK AO2 SLP172 T02110183 55006=
202108080752 METAR KATL 080752Z 00000KT 10SM FEW012 FEW200 21/18 A3006 RMK AO2 SLP168 T02110183=
202108080652 METAR KATL 080652Z 00000KT 10SM FEW200 22/19 A3007 RMK AO2 SLP172 T02170189=
202108080552 METAR KATL 080552Z 17004KT 10SM FEW200 22/19 A3008 RMK AO2 SLP177 T02170189 10250 20217 58007=
202108080452 METAR KATL 080452Z 00000KT 10SM CLR 23/18 A3010 RMK AO2 SLP182 T02330183 403110222=
202108080352 METAR KATL 080352Z 19004KT 10SM CLR 23/19 A3011 RMK AO2 SLP185 T02280189=
202108080252 METAR KATL 080252Z 00000KT 10SM CLR 23/19 A3010 RMK AO2 SLP184 T02330189 53008=
202108080152 METAR KATL 080152Z 00000KT 10SM FEW200 24/19 A3009 RMK AO2 SLP179 T02390189=
202108080052 METAR KATL 080052Z 15003KT 10SM FEW120 FEW200 24/19 A3008 RMK AO2 SLP177 T02390194=
202108072352 METAR KATL 072352Z 09007KT 10SM FEW030 SCT110 SCT200 25/19 A3008 RMK AO2 SLP177 60000 T02500194 10311 20244 50003=
202108072252 METAR KATL 072252Z 03010KT 10SM FEW035 SCT140 BKN200 27/18 A3008 RMK AO2 WSHFT 2150 SLP178 TCU DSNT SE-S T02670183=
202108072209 SPECI KATL 072209Z 34009G19KT 10SM FEW043 SCT050 BKN140 BKN200 27/19 A3008 RMK AO2 WSHFT 2150 LTG DSNT NE CB DSNT NE MOV SE TCU DSNT S T02670194=
202108072152 METAR KATL 072152Z 32012G18KT 10SM SCT042 BKN120 BKN200 28/19 A3008 RMK AO2 LTG DSNT NE TSE06 SLP176 TS MOV SE CB DSNT NE MOV SE TCU DSNT E & S T02780194=
202108072109 SPECI KATL 072109Z VRB03KT 10SM FEW049 BKN120 BKN200 26/19 A3008 RMK AO2 LTG DSNT ALQDS TSE06 TS MOV SE CB DSNT NE-SE AND SW-NW TCU N T02560194=
202108072052 METAR KATL 072052Z 17005KT 10SM TS SCT049CB BKN070 BKN095 BKN200 24/21 A3007 RMK AO2 LTG DSNT NE AND NW RAB31E41 TSB30 SLP174 OCNL LTGICCG OHD-S-SW TS OHD-S-SW MOV SE CB DSNT NE AND NW VIS S-SW 5 P0000 60000 T02440206 55009=
202108072031 SPECI KATL 072031Z 16010KT 9SM -TSRA SCT042CB BKN055 BKN070 BKN200 26/19 A3007 RMK AO2 LTG DSNT NW RAB31 TSB30 OCNL LTGICCG SW-W TS SW-W MOV SE CB DSNT NW VIS SW-W 5 P0000 T02560194=
202108071952 METAR KATL 071952Z 02008KT 10SM SCT042CB SCT055 BKN070 BKN200 31/18 A3006 RMK AO2 TSE06 SLP169 CB SE AND DSNT NE AND W MDT CU ALQDS T03060178=
202108071908 SPECI KATL 071908Z VRB03KT 10SM SCT041 SCT055 SCT070 BKN200 30/17 A3008 RMK AO2 TSE06 TS DSPTD CB DSNT NE MDT CU N-SE T03000172=
202108071852 METAR KATL 071852Z 27003KT 10SM TS SCT038CB SCT055 BKN070 BKN200 31/18 A3008 RMK AO2 TSB28 SLP176 OCNL LTGICCG NE TS NE MOV E MDT CU N-SE T03110178=
202108071828 SPECI KATL 071828Z 00000KT 10SM TS SCT036TCU SCT050 BKN065 BKN200 30/17 A3009 RMK AO2 TSB28 TCU NW-NE MDT CU DSNT ALQDS T03000172=
202108071752 METAR KATL 071752Z 27005KT 10SM SCT036TCU SCT050 BKN085 BKN200 29/18 A3010 RMK AO2 SLP182 TCU NW-NE MDT CU DSNT ALQDS T02940178 10306 20233 58007=
202108071652 METAR KATL 071652Z 28009KT 10SM SCT033TCU SCT050 BKN085 BKN200 30/20 A3012 RMK AO2 SLP189 TCU NW-N MDT CU DSNT SW-NW T03000200=
202108071552 METAR KATL 071552Z VRB04KT 10SM SCT027 SCT033 SCT048 BKN200 28/18 A3013 RMK AO2 SLP191 MDT CU DSNT S-SW T02830183=
202108071452 METAR KATL 071452Z 24006KT 10SM SCT022 SCT033 SCT080 BKN200 28/21 A3012 RMK AO2 SLP189 MDT CU DSNT SW-W T02780211 50002=
202108071352 METAR KATL 071352Z VRB03KT 10SM SCT017 SCT080 SCT200 26/21 A3013 RMK AO2 SLP192 MDT CU DSNT NW T02610211=
202108071252 METAR KATL 071252Z 00000KT 10SM FEW014 FEW080 FEW200 25/21 A3013 RMK AO2 SLP191 T02500211=
202108071152 METAR KATL 071152Z 00000KT 10SM FEW020 FEW080 23/21 A3012 RMK AO2 SLP188 T02330206 10233 20222 53008=
202108071052 METAR KATL 071052Z 00000KT 10SM FEW020 FEW080 22/20 A3011 RMK AO2 SLP186 T02220200=
202108070952 METAR KATL 070952Z 00000KT 10SM FEW035 SCT250 23/20 A3009 RMK AO2 SLP180 T02280200=
202108070852 METAR KATL 070852Z 00000KT 10SM FEW035 SCT250 22/20 A3009 RMK AO2 SLP179 T02220200 56009=
202108070752 METAR KATL 070752Z 00000KT 10SM FEW030 BKN200 BKN250 23/21 A3010 RMK AO2 SLP180 T02280206=
202108070652 METAR KATL 070652Z 17004KT 10SM SCT031 SCT042 BKN180 BKN250 23/21 A3011 RMK AO2 SLP185 T02330206=
202108070552 METAR KATL 070552Z 15005KT 10SM FEW037 BKN220 BKN250 23/21 A3012 RMK AO2 SLP188 T02330206 10278 20233 50000=
202108070452 METAR KATL 070452Z 11006KT 10SM FEW032 BKN200 BKN250 24/20 A3012 RMK AO2 SLP189 T02440200 403000217=
202108070352 METAR KATL 070352Z 09004KT 10SM FEW032 SCT200 BKN250 25/20 A3012 RMK AO2 SLP190 T02500200=
202108070252 METAR KATL 070252Z 13003KT 10SM FEW032 FEW090 BKN250 26/19 A3012 RMK AO2 SLP189 T02560194 52007=
202108070152 METAR KATL 070152Z 15004KT 10SM FEW090 SCT200 BKN250 26/19 A3011 RMK AO2 SLP187 T02560194=
202108070052 METAR KATL 070052Z 09005KT 10SM FEW040 FEW090 SCT200 BKN250 27/18 A3010 RMK AO2 SLP184 T02670178=
202108062352 METAR KATL 062352Z 10007KT 10SM FEW040 FEW090 SCT200 BKN250 28/18 A3010 RMK AO2 SLP182 TCU DSNT SW T02780183 10300 20278 53001=
202108062252 METAR KATL 062252Z 10006KT 10SM FEW045 SCT200 BKN250 29/17 A3008 RMK AO2 SLP177 TCU DSNT SE-S SW T02890172=
202108062152 METAR KATL 062152Z 10008KT 10SM FEW045 FEW090 SCT200 BKN250 29/18 A3009 RMK AO2 SLP179 MDT CU DSNT ALQDS T02890178=
202108062052 METAR KATL 062052Z 09005KT 10SM SCT048 BKN075 BKN200 BKN250 29/17 A3009 RMK AO2 SLP181 TCU DSNT E-S-SW MDT CU ALQDS T02890167 56018=
202108061952 METAR KATL 061952Z 06008KT 10SM SCT045 BKN065 BKN200 BKN250 29/17 A3011 RMK AO2 SLP185 TCU DSNT NE-SE T02890172=
202108061852 METAR KATL 061852Z 11007KT 10SM SCT044 SCT075 BKN200 BKN250 29/17 A3012 RMK AO2 SLP189 MDT CU ALQDS T02940172=
202108061752 METAR KATL 061752Z 06007KT 10SM SCT040 SCT065 SCT200 BKN250 29/18 A3015 RMK AO2 SLP198 MDT CU ALQDS T02940178 10294 20222 58012=
202108061652 METAR KATL 061652Z 10010KT 10SM SCT038 SCT060 BKN200 BKN250 28/18 A3017 RMK AO2 SLP205 TCU DSNT SE SW W MDT CU ALQDS T02830183=
202108061552 METAR KATL 061552Z 06011KT 10SM BKN030 BKN200 BKN250 27/19 A3018 RMK AO2 SLP207 MDT CU ALQDS T02720189=
202108061452 METAR KATL 061452Z 09006KT 10SM SCT026 BKN200 BKN250 26/19 A3018 RMK AO2 SLP211 TCU DSNT NW-NE T02560189 51006=
202108061352 METAR KATL 061352Z 06007KT 10SM FEW022 SCT200 BKN250 BKN300 25/19 A3018 RMK AO2 SLP211 T02500194=
202108061252 METAR KATL 061252Z 06007KT 10SM FEW250 BKN300 23/18 A3018 RMK AO2 SLP210 T02330183=
202108061152 METAR KATL 061152Z 06005KT 10SM SCT250 BKN300 22/19 A3016 RMK AO2 SLP205 T02220194 10233 20217 53014=
202108061052 METAR KATL 061052Z 06004KT 10SM SCT250 BKN300 22/19 A3015 RMK AO2 SLP199 T02220189=
202108060952 METAR KATL 060952Z 07003KT 10SM FEW010 BKN250 22/19 A3013 RMK AO2 SLP191 T02170194=
202108060852 METAR KATL 060852Z 14003KT 10SM FEW040 BKN250 22/19 A3012 RMK AO2 SLP190 T02170194 55007=
202108060752 METAR KATL 060752Z 00000KT 10SM FEW010 BKN250 22/19 A3012 RMK AO2 SLP189 T02170189=
202108060652 METAR KATL 060652Z 00000KT 10SM FEW042 SCT250 22/19 A3013 RMK AO2 SLP193 T02220194=
202108060552 METAR KATL 060552Z 13005KT 10SM SCT042 SCT250 23/19 A3014 RMK AO2 SLP196 T02330189 10278 20233 51002=
202108060452 METAR KATL 060452Z 09005KT 10SM BKN250 23/19 A3014 RMK AO2 SLP197 T02330189 403000206=
202108060352 METAR KATL 060352Z 09005KT 10SM BKN250 24/18 A3014 RMK AO2 SLP197 T02440183=
202108060252 METAR KATL 060252Z 10004KT 10SM SCT250 26/18 A3014 RMK AO2 SLP196 T02560183 51017=
202108060152 METAR KATL 060152Z 13003KT 10SM BKN250 26/18 A3013 RMK AO2 SLP192 T02610183=
202108060052 METAR KATL 060052Z 11006KT 10SM SCT250 27/17 A3010 RMK AO2 SLP182 T02720172=
202108052352 METAR KATL 052352Z 10006KT 10SM FEW050 FEW250 28/17 A3009 RMK AO2 SLP179 T02780172 10300 20278 58002=
202108052252 METAR KATL 052252Z 07005G18KT 10SM FEW050 FEW090 29/16 A3009 RMK AO2 SLP179 T02890161=
202108052152 METAR KATL 052152Z 10007KT 10SM FEW045TCU SCT070 SCT250 28/17 A3010 RMK AO2 SLP183 TCU NW-N T02830172=
202108052052 METAR KATL 052052Z 11007KT 10SM FEW048 FEW075 SCT250 29/17 A3009 RMK AO2 SLP180 TCU DSNT N-NE T02940172 56012=
202108051952 METAR KATL 051952Z 08006KT 10SM FEW044TCU SCT075 SCT250 29/17 A3010 RMK AO2 SLP184 TCU N SW W NW DSNT NE-SE T02890167=
202108051852 METAR KATL 051852Z 12006KT 10SM SCT044TCU BKN070 29/18 A3012 RMK AO2 SLP189 TCU NE SW W MDT CU ALQDS T02890178=
202108051819 SPECI KATL 051819Z 09007G16KT 10SM SCT043 BKN070 28/18 A3013 RMK AO2 MDT CU ALQDS T02830178=
202108051752 METAR KATL 051752Z 04012KT 10SM SCT038 BKN070 28/17 A3013 RMK AO2 SLP193 MDT CU ALQDS T02830172 10283 20211 58008=
202108051652 METAR KATL 051652Z 11008KT 10SM SCT033 BKN044 28/18 A3015 RMK AO2 SLP199 MDT CU ALQDS T02780183=
202108051552 METAR KATL 051552Z 08008KT 10SM SCT028 BKN036 27/19 A3015 RMK AO2 SLP201 MDT CU ALQDS T02670189=
202108051452 METAR KATL 051452Z 08007KT 10SM SCT020 26/19 A3015 RMK AO2 SLP201 MDT CU ALQDS T02560189 51009=
202108051418 SPECI KATL 051418Z 11005KT 10SM BKN016 BKN120 24/19 A3015 RMK AO2 T02440194=
202108051352 METAR KATL 051352Z 11006KT 10SM BKN012 BKN110 23/19 A3015 RMK AO2 SLP202 T02330194=
202108051315 SPECI KATL 051315Z 09007KT 8SM BKN010 BKN110 23/19 A3015 RMK AO2 T02280189=
202108051252 METAR KATL 051252Z 08007KT 9SM FEW009 FEW110 23/19 A3014 RMK AO2 SLP198 T02280189=
202108051152 METAR KATL 051152Z 07008KT 9SM FEW009 21/18 A3013 RMK AO2 SLP192 T02110183 10217 20206 51012=
202108051130 SPECI KATL 051130Z 08007KT 9SM FEW009 21/18 A3013 RMK AO2 T02060183=
202108051052 METAR KATL 051052Z 07008KT 9SM FEW010 FEW110 21/18 A3012 RMK AO2 SLP190 T02060183=
202108050952 METAR KATL 050952Z 08008KT 10SM FEW110 21/18 A3010 RMK AO2 SLP183 T02060183=
202108050852 METAR KATL 050852Z 09007KT 10SM SCT110 21/18 A3009 RMK AO2 SLP180 T02060183 55000=
202108050752 METAR KATL 050752Z 08008KT 10SM SCT110 21/18 A3008 RMK AO2 SLP177 T02110183=
202108050652 METAR KATL 050652Z 08007KT 10SM SCT110 22/18 A3009 RMK AO2 SLP179 T02170183=
202108050552 METAR KATL 050552Z 09007KT 10SM SCT100 22/18 A3009 RMK AO2 SLP180 T02170183 10267 20217 50003=
202108050452 METAR KATL 050452Z 09006KT 10SM FEW100 22/18 A3009 RMK AO2 SLP180 T02220183 402940211=
202108050352 METAR KATL 050352Z 08007KT 10SM FEW100 23/18 A3009 RMK AO2 SLP179 T02330178=
202108050252 METAR KATL 050252Z 09007KT 10SM FEW100 24/18 A3008 RMK AO2 SLP177 T02390178 51019=
202108050152 METAR KATL 050152Z 10006KT 10SM SCT100 SCT200 25/17 A3007 RMK AO2 SLP172 T02500172=
202108050052 METAR KATL 050052Z 12004KT 10SM FEW090 26/17 A3004 RMK AO2 SLP164 CB DSNT NW-N TCU DSNT W T02560172=
202108042352 METAR KATL 042352Z 10008KT 10SM FEW050 FEW100 27/17 A3002 RMK AO2 SLP158 CB DSNT NW-N T02670167 10294 20267 53005=
202108042252 METAR KATL 042252Z 11007KT 10SM FEW050 SCT110 28/17 A3001 RMK AO2 SLP154 TCU DSNT NW-N T02780167=
202108042152 METAR KATL 042152Z 10005KT 10SM SCT050 SCT100 28/16 A3001 RMK AO2 SLP151 MDT CU ALQDS T02830156=
202108042052 METAR KATL 042052Z VRB05KT 10SM FEW050TCU 28/17 A3001 RMK AO2 SLP152 TCU SW MDT CU ALQDS T02830167 56015=
202108041952 METAR KATL 041952Z 09007KT 10SM SCT048TCU 29/17 A3002 RMK AO2 SLP156 TCU ALQDS T02890167=
202108041852 METAR KATL 041852Z 09004KT 10SM SCT042TCU 28/17 A3004 RMK AO2 SLP162 TCU ALQDS T02830167=
202108041752 METAR KATL 041752Z 00000KT 10SM BKN038 27/17 A3005 RMK AO2 SLP168 MDT CU ALQDS T02720172 10272 20217 58004=
202108041652 METAR KATL 041652Z 10006KT 10SM SCT034 26/17 A3006 RMK AO2 SLP171 MDT CU SW-W T02610167=
202108041552 METAR KATL 041552Z 09006KT 10SM FEW024 SCT034 26/18 A3007 RMK AO2 SLP172 T02560178=
202108041452 METAR KATL 041452Z 12007KT 10SM FEW018 SCT032 24/18 A3007 RMK AO2 SLP172 T02390178 50007=
202108041427 SPECI KATL 041427Z 09010KT 10SM FEW018 BKN031 23/17 A3006 RMK AO2 T02330172=
202108041352 METAR KATL 041352Z 09010KT 10SM FEW015 BKN028 22/17 A3007 RMK AO2 SLP175 T02220167=
202108041307 SPECI KATL 041307Z 09009KT 10SM FEW012 BKN027 22/18 A3007 RMK AO2 T02220178=
202108041252 METAR KATL 041252Z 08007KT 10SM FEW011 SCT024 BKN055 23/19 A3006 RMK AO2 SLP171 T02280189=
202108041226 SPECI KATL 041226Z 09009KT 9SM FEW009 SCT024 BKN034 22/19 A3005 RMK AO2 T02170189=
202108041152 METAR KATL 041152Z 08008KT 8SM FEW009 BKN021 BKN055 22/19 A3004 RMK AO2 SLP166 70143 T02170194 10222 20211 53016=
202108041135 SPECI KATL 041135Z 07005KT 7SM SCT009 BKN017 BKN055 22/19 A3004 RMK AO2 T02170194=
202108041117 SPECI KATL 041117Z 06005KT 7SM SCT017 SCT028 BKN055 22/19 A3003 RMK AO2 T02170194=
202108041052 METAR KATL 041052Z 10006KT 8SM SCT019 BKN028 BKN055 21/19 A3002 RMK AO2 SLP159 T02110194=
202108041013 SPECI KATL 041013Z 08006KT 8SM FEW008 BKN021 BKN032 22/19 A3001 RMK AO2 T02170194=
202108040952 METAR KATL 040952Z 07006KT 9SM FEW008 SCT021 BKN032 22/19 A3001 RMK AO2 SLP152 T02170194=
202108040852 METAR KATL 040852Z 08006KT 8SM FEW007 SCT021 21/19 A3000 RMK AO2 SLP148 T02110194 55002=
202108040752 METAR KATL 040752Z 07006KT 8SM FEW007 FEW030 21/19 A2999 RMK AO2 SLP145 T02110194 $=
202108040652 METAR KATL 040652Z 08007KT 9SM FEW007 FEW130 FEW200 22/19 A3000 RMK AO2 SLP148 T02170194 $=
202108040552 METAR KATL 040552Z 08006KT 9SM FEW007 FEW130 FEW200 22/20 A3000 RMK AO2 SLP150 T02170200 10233 20217 57002 $=
202108040452 METAR KATL 040452Z 09007KT 9SM FEW008 BKN130 BKN200 22/20 A3001 RMK AO2 SLP152 T02170200 402890211 $=
202108040352 METAR KATL 040352Z 06006KT 10SM BKN130 BKN200 23/21 A3000 RMK AO2 SLP150 T02280206 $=
202108040252 METAR KATL 040252Z 05008KT 10SM BKN130 BKN200 23/20 A3001 RMK AO2 SLP152 T02280200 51007 $=
202108040152 METAR KATL 040152Z 08009KT 10SM FEW010 BKN120 BKN200 22/20 A3000 RMK AO2 SLP152 T02220200 $=
202108040052 METAR KATL 040052Z 08007KT 10SM BKN110 BKN200 23/19 A2999 RMK AO2 SLP147 T02280194 $=
202108032352 METAR KATL 032352Z 05011KT 10SM FEW008 SCT070 BKN120 BKN150 BKN200 23/22 A2999 RMK AO2 WSHFT 2314 RAE51 TSE10 SLP145 LTG DSNT NE-SE S-SW CB DSNT NE-E S-SW P0002 60143 T02330217 10289 20211 53011 $=
202108032334 SPECI KATL 032334Z 04012KT 9SM -RA FEW008 SCT060 BKN110 BKN150 BKN200 23/22 A2998 RMK AO2 WSHFT 2314 TSE10 LTG DSNT NE-E SE-SW CB DSNT NE-E SE-SW P0002 T02330217 $=
202108032310 SPECI KATL 032310Z 09005KT 9SM -RA FEW020 SCT050 BKN080 BKN150 BKN200 22/22 A2998 RMK AO2 TSE10 LTG DSNT NE SE-SW TS MOVD SE CB DSNT NE SE-SW P0001 T02220217 $=
202108032252 METAR KATL 032252Z 08010KT 6SM -TSRA BR FEW020CB SCT050 BKN080 BKN150 OVC200 22/21 A2997 RMK AO2 PK WND 04028/2229 WSHFT 2225 RAB07 TSB15 SLP140 VIS LWR E-SE OCNL LTGICCG NE-SE-SW TS NE-SE-SW MOV SE P0141 T02170211 $=
202108032243 SPECI KATL 032243Z 08017G25KT 3SM R09R/2600VP6000FT TSRA BR FEW012 SCT025CB BKN050 OVC150 21/21 A2997 RMK AO2 PK WND 04028/2229 WSHFT 2225 RAB07 TSB15 VIS LWR NE-SE OCNL LTGICCG NE-OHD-S TS NE-OHD-S MOV SE P0135 T02110206 $=
202108032236 SPECI KATL 032236Z 07021G28KT 3/4SM R09R/2600V3500FT +TSRA BR SCT012 BKN025CB OVC050 22/21 A2998 RMK AO2 PK WND 04028/2229 WSHFT 2216 LTG DSNT SW RAB07 TSB15 OCNL LTGICCG OHD-ALQDS TS OHD-ALQDS MOV SE P0102 T02170206 $=
202108032223 SPECI KATL 032223Z 36013G23KT 1/2SM R09R/2400V5500FT +TSRA FG SCT012 BKN025CB BKN050 OVC150 22/21 A2997 RMK AO2 RAB07 TSB15 OCNL LTGIC OHD-ALQDS TS OHD-ALQDS MOV SE P0035 T02220206 $=
202108032219 SPECI KATL 032219Z 31017G23KT 1SM R09R/4000VP6000FT +TSRA BR SCT012 BKN030CB BKN050 OVC200 22/21 A2996 RMK AO2 RAB07 TSB15 OCNL LTGIC OHD-ALQDS TS OHD-ALQDS MOV SE P0021 T02220206 $=
202108032215 SPECI KATL 032215Z 33014G21KT 2SM R09R/4000VP6000FT +TSRA BR SCT015 BKN030CB BKN050 BKN200 23/21 A2996 RMK AO2 RAB07 TSB15 VIS LWR SW-NW OCNL LTGIC NE-OHD-SW TS NE-OHD-SW MOV SE P0005 T02280206 $=
202108032152 METAR KATL 032152Z 09009KT 10SM FEW015 SCT035CB BKN060 BKN200 27/19 A2995 RMK AO2 SLP132 CB SW-NW-NE MOV SE TCU OHD-S T02670194=
202108032052 METAR KATL 032052Z 11007KT 10SM SCT030TCU SCT065 BKN110 BKN200 27/18 A2995 RMK AO2 SLP132 CB DSNT N W NW TCU W NW-N DSNT N-NE SE-S T02720183 58013=
202108031952 METAR KATL 031952Z 11009KT 10SM SCT034TCU SCT085 BKN140 BKN200 28/19 A2997 RMK AO2 SLP137 CB DSNT NW-NE TCU NW-N DSNT NE-SE T02830194=
202108031852 METAR KATL 031852Z 10007KT 10SM SCT033 SCT080 BKN140 BKN200 27/19 A2998 RMK AO2 SLP142 CB DSNT NW TCU DSNT ALQDS T02720189=
202108031752 METAR KATL 031752Z 08009KT 10SM SCT030TCU SCT055 BKN085 BKN140 BKN200 27/19 A2999 RMK AO2 SLP146 TCU S-SW NW-N DSNT SE NW 60000 T02670189 10278 20228 58007=
202108031652 METAR KATL 031652Z 06006KT 10SM SCT024 SCT050 BKN070 BKN140 BKN200 26/19 A3000 RMK AO2 SLP150 MDT CU N E-S-SW T02610194=
202108031634 SPECI KATL 031634Z 05006KT 10SM BKN024 BKN048 BKN070 BKN140 BKN200 26/19 A3001 RMK AO2 MDT CU ALQDS T02610194=
202108031552 METAR KATL 031552Z 07007KT 10SM SCT016 BKN038 BKN100 BKN140 BKN200 25/19 A3001 RMK AO2 SLP153 MDT CU N W-NW T02500194=
202108031452 METAR KATL 031452Z 08006KT 9SM SCT016 SCT095 BKN140 BKN200 24/19 A3001 RMK AO2 SLP153 60000 T02390194 50006=
202108031352 METAR KATL 031352Z 09009KT 8SM FEW014 BKN090 BKN140 BKN200 23/19 A3001 RMK AO2 SLP154 T02280189=
202108031252 METAR KATL 031252Z 08008KT 8SM SCT012 SCT085 BKN120 BKN150 BKN200 23/19 A3000 RMK AO2 RAB02E33 SLP150 P0000 T02280194=
202108031208 SPECI KATL 031208Z 06007KT 7SM -RA FEW009 SCT070 BKN090 BKN150 23/20 A2999 RMK AO2 RAB02 P0000 T02280200=
202108031152 METAR KATL 031152Z 06008KT 7SM FEW011 SCT070 BKN085 BKN150 23/20 A2999 RMK AO2 SLP147 60000 70001 T02280200 10239 20222 52003=
202108031052 METAR KATL 031052Z 08006KT 7SM FEW010 BKN085 22/19 A2999 RMK AO2 SLP145 T02220194=
202108030952 METAR KATL 030952Z 10008KT 9SM FEW010 BKN070 OVC085 22/19 A2999 RMK AO2 RAE52 SLP143 P0000 T02220194=
202108030852 METAR KATL 030852Z 09005KT 7SM -RA FEW010 BKN070 OVC090 23/21 A2998 RMK AO2 RAE0755B43 SLP142 P0000 60000 T02330206 55002=
202108030752 METAR KATL 030752Z 08003KT 8SM -RA FEW047 SCT060 OVC075 23/20 A2998 RMK AO2 RAB42 SLP140 P0000 T02330200=
202108030652 METAR KATL 030652Z 08005KT 9SM OVC080 23/20 A2998 RMK AO2 RAB19E30 SLP140 P0000 T02330200=
202108030552 METAR KATL 030552Z 09005KT 9SM FEW070 BKN085 OVC110 24/19 A2999 RMK AO2 RAE39 SLP144 P0000 60001 T02390194 10261 20239 58006=
202108030452 METAR KATL 030452Z 09006KT 9SM -RA FEW070 BKN100 OVC150 24/20 A3001 RMK AO2 SLP150 P0000 T02390200 403170222=
202108030352 METAR KATL 030352Z 06004KT 8SM -RA BKN110 OVC150 24/20 A3001 RMK AO2 SLP151 P0000 T02440200=
202108030252 METAR KATL 030252Z 06006KT 8SM -RA FEW070 BKN110 OVC150 24/21 A3001 RMK AO2 SLP150 P0000 60001 T02440211 58001=
202108030152 METAR KATL 030152Z 00000KT 7SM -RA FEW085 BKN110 OVC150 24/21 A3002 RMK AO2 SLP155 P0000 T02390206=
202108030052 METAR KATL 030052Z 00000KT 7SM -RA FEW060 BKN090 BKN120 OVC150 24/21 A3001 RMK AO2 SLP155 P0001 T02440206=
202108022352 METAR KATL 022352Z 27006KT 9SM -RA SCT060 BKN090 BKN150 OVC200 26/17 A3001 RMK AO2 RAB48 SLP153 P0000 60000 T02610172 10317 20261 53017=
202108022252 METAR KATL 022252Z 32009KT 8SM FEW150 BKN200 OVC250 28/16 A2997 RMK AO2 SLP139 T02830156=
202108022152 METAR KATL 022152Z 33009KT 8SM FEW150 BKN200 BKN250 29/16 A2997 RMK AO2 SLP136 T02940161=
202108022052 METAR KATL 022052Z 34010G18KT 9SM FEW065 BKN200 BKN250 30/16 A2996 RMK AO2 SLP134 T03000161 58020=
202108021952 METAR KATL 021952Z 33008KT 9SM FEW070 SCT180 BKN250 31/12 A2998 RMK AO2 SLP142 T03060122=
202108021852 METAR KATL 021852Z 34005KT 9SM FEW065 SCT200 SCT250 32/14 A3000 RMK AO2 SLP147 T03170144=
202108021752 METAR KATL 021752Z 33007KT 9SM FEW055 SCT200 SCT250 31/16 A3002 RMK AO2 SLP153 T03060156 10306 20228 58009=
202108021652 METAR KATL 021652Z 32008KT 8SM FEW130 SCT180 BKN250 29/17 A3003 RMK AO2 SLP159 ACC NW-N T02940167=
202108021552 METAR KATL 021552Z 36005KT 8SM FEW120 SCT180 BKN250 28/16 A3005 RMK AO2 SLP164 ACC NW-N T02830161=
202108021452 METAR KATL 021452Z 30005KT 8SM SCT200 BKN250 27/17 A3005 RMK AO2 SLP163 T02720172 50005=
202108021352 METAR KATL 021352Z 32004KT 8SM SCT200 BKN250 26/19 A3005 RMK AO2 SLP164 T02560189=
202108021252 METAR KATL 021252Z 32005KT 8SM FEW110 SCT220 24/19 A3004 RMK AO2 SLP162 T02390189=
202108021152 METAR KATL 021152Z 33005KT 8SM FEW100 SCT220 23/19 A3003 RMK AO2 SLP159 T02280189 10244 20222 53005=
202108021052 METAR KATL 021052Z 32007KT 8SM FEW040 FEW090 SCT250 22/19 A3002 RMK AO2 SLP156 T02220189=
202108020952 METAR KATL 020952Z 32005KT 10SM SCT250 22/19 A3001 RMK AO2 SLP151 T02220189=
202108020852 METAR KATL 020852Z 32007KT 10SM FEW040 BKN250 23/19 A3001 RMK AO2 SLP153 T02280194 53002=
202108020752 METAR KATL 020752Z 32005KT 8SM SCT250 23/20 A3000 RMK AO2 SLP149 T02330200=
202108020716 SPECI KATL 020716Z 32007KT 2 1/2SM HZ CLR 23/20 A3000 RMK AO2 T02330200=
202108020652 METAR KATL 020652Z 32007KT 10SM FEW040 SCT250 24/20 A3000 RMK AO2 SLP149 T02390200=
202108020552 METAR KATL 020552Z 32007KT 10SM FEW040 SCT250 24/21 A3001 RMK AO2 SLP149 T02440206 10283 20244 57001=
202108020452 METAR KATL 020452Z 32005KT 10SM BKN250 25/21 A3001 RMK AO2 SLP151 T02500206 403220233=
202108020352 METAR KATL 020352Z 31008KT 10SM FEW035 SCT200 SCT250 26/21 A3001 RMK AO2 SLP148 T02560211=
202108020252 METAR KATL 020252Z 29006KT 10SM FEW033 FEW150 SCT200 SCT250 26/21 A3001 RMK AO2 SLP151 T02610206 51020=
202108020152 METAR KATL 020152Z 29008KT 10SM SCT040 SCT150 SCT200 BKN250 27/21 A3000 RMK AO2 SLP147 T02670206=
202108020052 METAR KATL 020052Z 29007KT 10SM SCT045 SCT100 SCT200 BKN250 28/21 A2997 RMK AO2 SLP138 T02780206=
202108012352 METAR KATL 012352Z 28009KT 10SM FEW040 FEW100 FEW200 BKN250 28/20 A2995 RMK AO2 SLP131 LTG DSNT N-NE CB DSNT N-NE T02830200 10322 20283 55005=
202108012252 METAR KATL 012252Z 26008KT 10SM FEW040 FEW150 SCT200 BKN250 29/20 A2995 RMK AO2 SLP130 CB DSNT NW-N TCU DSNT NW T02890200=
202108012152 METAR KATL 012152Z 31013G21KT 10SM FEW045 SCT200 BKN250 30/20 A2995 RMK AO2 SLP130 T03000200=
202108012052 METAR KATL 012052Z 30011G20KT 10SM FEW040 SCT180 BKN250 31/20 A2997 RMK AO2 SLP135 T03110200 58012=
202108011952 METAR KATL 011952Z 28012KT 10SM FEW040 BKN180 BKN250 30/21 A2998 RMK AO2 SLP141 T03000206=
202108011852 METAR KATL 011852Z 29010G17KT 10SM SCT040 SCT055 BKN140 31/20 A2999 RMK AO2 SLP143 MDT CU ALQDS T03060200=
202108011752 METAR KATL 011752Z 32010KT 10SM SCT037 BKN200 31/21 A3000 RMK AO2 SLP147 MDT CU ALQDS T03110211 10311 20233 58001=
202108011652 METAR KATL 011652Z 33015G20KT 10SM SCT035 SCT050 31/22 A3000 RMK AO2 SLP147 T03110217=
202108011552 METAR KATL 011552Z 31012G23KT 10SM FEW026 30/22 A3002 RMK AO2 SLP152 T03000217=
202108011452 METAR KATL 011452Z 30010KT 9SM FEW022 29/23 A3001 RMK AO2 SLP148 T02890228 53002=
202108011352 METAR KATL 011352Z 30012KT 10SM SCT012 27/22 A3000 RMK AO2 SLP146 T02670222=
202108011252 METAR KATL 011252Z 29011KT 10SM FEW120 25/21 A3001 RMK AO2 SLP150 T02500211=
