##########################################################
# Query made at 04/20/2024 00:18:25 UTC
# Time interval: from 09/01/2021 12:00  to 09/30/2021 12:59  UTC
##########################################################

##########################################################
# KATL, Atlanta, Hartsfield - Jackson Atlanta International Airport (United States)
# WMO index: 72219. WIGOS ID: 0-20000-0-72219
# Latitude 33-38-59N. Longitude 084-25-00W. Altitude 312 m.
##########################################################

202109301252 METAR KATL 301252Z 00000KT 10SM SCT200 BKN250 21/18 A3012 RMK AO2 SLP192 T02060178=
202109301152 METAR KATL 301152Z 00000KT 10SM SCT200 BKN250 19/17 A3011 RMK AO2 SLP189 T01890167 10222 20183 53013=
202109301052 METAR KATL 301052Z 00000KT 10SM SCT200 BKN250 19/17 A3010 RMK AO2 SLP183 T01890167=
202109300952 METAR KATL 300952Z 32004KT 10SM FEW200 SCT250 19/17 A3009 RMK AO2 SLP179 T01890167=
202109300852 METAR KATL 300852Z 31005KT 10SM SCT200 BKN250 19/17 A3008 RMK AO2 SLP175 T01940167 53003=
202109300752 METAR KATL 300752Z 02003KT 10SM FEW200 BKN250 20/17 A3007 RMK AO2 SLP172 T02000167=
202109300652 METAR KATL 300652Z 01003KT 10SM BKN250 22/17 A3007 RMK AO2 SLP171 T02170167=
202109300552 METAR KATL 300552Z 33003KT 10SM BKN250 21/17 A3007 RMK AO2 SLP172 T02110172 10256 20206 50001=
202109300452 METAR KATL 300452Z VRB04KT 10SM BKN250 22/17 A3007 RMK AO2 SLP174 T02220167 402940183=
202109300352 METAR KATL 300352Z 32004KT 10SM BKN250 22/17 A3007 RMK AO2 SLP173 T02220172=
202109300252 METAR KATL 300252Z 33005KT 10SM SCT250 24/16 A3006 RMK AO2 SLP171 T02390161 51009=
202109300152 METAR KATL 300152Z 32004KT 10SM SCT250 24/16 A3006 RMK AO2 SLP170 T02390161=
202109300052 METAR KATL 300052Z 00000KT 10SM SCT250 24/17 A3005 RMK AO2 SLP169 T02440167=
202109292352 METAR KATL 292352Z 30005KT 10SM FEW055 SCT250 25/17 A3004 RMK AO2 SLP163 T02500167 10294 20250 53008=
202109292252 METAR KATL 292252Z 31008KT 10SM FEW055 SCT250 27/15 A3003 RMK AO2 SLP158 T02720150=
202109292152 METAR KATL 292152Z 31008KT 10SM FEW055 FEW250 28/14 A3001 RMK AO2 SLP153 T02830144=
202109292052 METAR KATL 292052Z 32009KT 10SM FEW055 FEW250 29/15 A3001 RMK AO2 SLP153 T02940150 56014=
202109291952 METAR KATL 291952Z 30009KT 10SM FEW050 FEW250 28/16 A3002 RMK AO2 SLP155 T02830156=
202109291852 METAR KATL 291852Z 35010KT 10SM FEW048 FEW250 29/16 A3003 RMK AO2 SLP159 T02890161=
202109291752 METAR KATL 291752Z 33010G17KT 10SM FEW044 29/16 A3005 RMK AO2 SLP167 T02890161 10289 20189 58009=
202109291652 METAR KATL 291652Z 34010G21KT 10SM FEW042 FEW250 28/16 A3007 RMK AO2 SLP172 T02830161=
202109291552 METAR KATL 291552Z 32010KT 10SM FEW038 FEW200 27/18 A3008 RMK AO2 SLP176 T02720178=
202109291452 METAR KATL 291452Z 34007KT 10SM FEW200 26/18 A3008 RMK AO2 SLP177 T02560178 51012=
202109291352 METAR KATL 291352Z 32006KT 10SM FEW200 23/17 A3008 RMK AO2 SLP177 T02280172=
202109291252 METAR KATL 291252Z 31006KT 10SM CLR 21/17 A3007 RMK AO2 SLP173 T02060167=
202109291152 METAR KATL 291152Z 32005KT 10SM FEW200 FEW250 19/16 A3005 RMK AO2 SLP167 T01890161 10200 20183 53007=
202109291052 METAR KATL 291052Z 31006KT 10SM FEW250 19/16 A3004 RMK AO2 SLP164 T01890161=
202109290952 METAR KATL 290952Z 29004KT 10SM FEW250 19/16 A3003 RMK AO2 SLP159 T01890161 $=
202109290852 METAR KATL 290852Z 29005KT 10SM FEW250 19/16 A3002 RMK AO2 SLP157 T01940161 55001 $=
202109290752 METAR KATL 290752Z 29005KT 10SM SCT250 19/16 A3002 RMK AO2 SLP155 T01940161 $=
202109290652 METAR KATL 290652Z 27003KT 10SM SCT250 19/16 A3002 RMK AO2 SLP156 T01940161 $=
202109290552 METAR KATL 290552Z 27003KT 10SM BKN250 20/17 A3002 RMK AO2 SLP158 T02000167 10244 20200 50001 $=
202109290452 METAR KATL 290452Z 28003KT 10SM BKN250 21/17 A3003 RMK AO2 SLP159 T02060167 402890172 $=
202109290352 METAR KATL 290352Z 00000KT 10SM BKN250 21/17 A3002 RMK AO2 SLP157 T02060167 $=
202109290252 METAR KATL 290252Z 29003KT 10SM SCT250 21/17 A3002 RMK AO2 SLP158 T02110167 51005 $=
202109290152 METAR KATL 290152Z 00000KT 10SM FEW250 23/16 A3002 RMK AO2 SLP157 T02280161 $=
202109290052 METAR KATL 290052Z 29003KT 10SM FEW250 24/16 A3002 RMK AO2 SLP156 T02390161 $=
202109282352 METAR KATL 282352Z 29005KT 10SM FEW250 24/16 A3000 RMK AO2 SLP153 T02440156 10289 20244 53003 $=
202109282252 METAR KATL 282252Z 27006KT 10SM FEW250 26/15 A3000 RMK AO2 SLP151 T02610150 $=
202109282152 METAR KATL 282152Z 30004KT 10SM FEW250 28/14 A2999 RMK AO2 SLP146 T02780144 $=
202109282052 METAR KATL 282052Z 26005KT 10SM FEW055 FEW250 28/15 A3000 RMK AO2 SLP148 T02830150 56021 $=
202109281952 METAR KATL 281952Z 34006KT 10SM FEW050 FEW250 28/14 A3002 RMK AO2 SLP156 T02830144 $=
202109281852 METAR KATL 281852Z 28005KT 10SM FEW048 FEW250 28/16 A3003 RMK AO2 SLP162 T02780156 $=
202109281752 METAR KATL 281752Z 34007KT 10SM FEW044 FEW075 SCT250 27/15 A3006 RMK AO2 SLP169 T02720150 10278 20178 58013 $=
202109281652 METAR KATL 281652Z 30008G17KT 10SM FEW038 SCT200 SCT250 27/16 A3007 RMK AO2 SLP175 T02720161=
202109281552 METAR KATL 281552Z 29007KT 10SM FEW035 FEW200 SCT250 27/17 A3009 RMK AO2 SLP180 T02670172=
202109281452 METAR KATL 281452Z 30006KT 10SM FEW200 FEW250 24/17 A3010 RMK AO2 SLP184 T02440167 51003=
202109281352 METAR KATL 281352Z 31007KT 10SM FEW055 FEW200 FEW250 23/16 A3010 RMK AO2 SLP184 T02280161=
202109281252 METAR KATL 281252Z 29004KT 10SM FEW046 FEW200 FEW250 21/17 A3009 RMK AO2 SLP184 T02060167=
202109281152 METAR KATL 281152Z 00000KT 10SM FEW046 FEW200 SCT250 18/15 A3009 RMK AO2 SLP182 T01780150 10200 20172 51009=
202109281052 METAR KATL 281052Z 30003KT 10SM SCT046 SCT200 18/14 A3009 RMK AO2 SLP180 T01780144=
202109280952 METAR KATL 280952Z 29003KT 10SM FEW200 18/14 A3007 RMK AO2 SLP174 T01780144=
202109280852 METAR KATL 280852Z 00000KT 10SM FEW200 18/15 A3006 RMK AO2 SLP172 T01780150 57006=
202109280752 METAR KATL 280752Z 00000KT 10SM FEW200 18/15 A3007 RMK AO2 SLP174 T01830150=
202109280652 METAR KATL 280652Z 00000KT 10SM FEW200 18/15 A3008 RMK AO2 SLP176 T01780150=
202109280552 METAR KATL 280552Z 00000KT 10SM FEW200 19/16 A3008 RMK AO2 SLP177 T01890156 10244 20189 58002=
202109280452 METAR KATL 280452Z 00000KT 10SM FEW250 19/14 A3009 RMK AO2 SLP180 T01940144 402830156=
202109280352 METAR KATL 280352Z 23003KT 10SM FEW250 20/15 A3009 RMK AO2 SLP181 T02000150=
202109280252 METAR KATL 280252Z 20004KT 10SM CLR 20/15 A3009 RMK AO2 SLP180 T02000150 51005=
202109280152 METAR KATL 280152Z 00000KT 10SM CLR 22/15 A3009 RMK AO2 SLP180 T02170150=
202109280052 METAR KATL 280052Z 00000KT 10SM CLR 23/15 A3008 RMK AO2 SLP179 T02280150=
202109272352 METAR KATL 272352Z 00000KT 10SM CLR 24/14 A3007 RMK AO2 SLP177 T02440144 10283 20239 55002=
202109272252 METAR KATL 272252Z 28004KT 10SM FEW060 26/13 A3007 RMK AO2 SLP175 T02610133=
202109272152 METAR KATL 272152Z 21005KT 10SM FEW060 27/13 A3008 RMK AO2 SLP178 T02720133=
202109272052 METAR KATL 272052Z 26005KT 10SM FEW060 28/14 A3008 RMK AO2 SLP178 T02780139 56020=
202109271952 METAR KATL 271952Z 26005KT 10SM FEW055 27/14 A3009 RMK AO2 SLP182 T02670139=
202109271852 METAR KATL 271852Z 32005KT 10SM FEW055 27/14 A3011 RMK AO2 SLP188 T02720139=
202109271752 METAR KATL 271752Z 31004KT 10SM FEW055 27/14 A3014 RMK AO2 SLP199 T02720139 10278 20167 58010=
202109271652 METAR KATL 271652Z VRB04KT 10SM FEW055 27/14 A3016 RMK AO2 SLP204 T02670144=
202109271552 METAR KATL 271552Z 29005KT 10SM FEW050 26/14 A3017 RMK AO2 SLP207 T02560139=
202109271452 METAR KATL 271452Z 31005KT 10SM CLR 25/15 A3017 RMK AO2 SLP210 T02500150 50004=
202109271352 METAR KATL 271352Z 00000KT 10SM CLR 23/14 A3018 RMK AO2 SLP211 T02280139=
202109271252 METAR KATL 271252Z 00000KT 10SM CLR 19/16 A3017 RMK AO2 SLP209 T01940156=
202109271152 METAR KATL 271152Z 00000KT 10SM CLR 17/14 A3016 RMK AO2 SLP207 T01670139 10178 20156 53009=
202109271052 METAR KATL 271052Z 00000KT 10SM CLR 16/13 A3014 RMK AO2 SLP202 T01610133=
202109270952 METAR KATL 270952Z 00000KT 10SM CLR 16/13 A3014 RMK AO2 SLP198 T01610133=
202109270852 METAR KATL 270852Z 00000KT 10SM CLR 16/13 A3013 RMK AO2 SLP197 T01610133 55001=
202109270752 METAR KATL 270752Z 24003KT 10SM CLR 16/13 A3013 RMK AO2 SLP196 T01610133=
202109270652 METAR KATL 270652Z 00000KT 10SM CLR 17/14 A3014 RMK AO2 SLP197 T01720139=
202109270552 METAR KATL 270552Z 30003KT 10SM CLR 18/14 A3014 RMK AO2 SLP198 T01780139 10233 20178 50001=
202109270452 METAR KATL 270452Z 00000KT 10SM CLR 18/14 A3014 RMK AO2 SLP199 T01830139 402720139=
202109270352 METAR KATL 270352Z 00000KT 10SM CLR 18/14 A3014 RMK AO2 SLP198 T01830144=
202109270252 METAR KATL 270252Z 21003KT 10SM CLR 18/14 A3013 RMK AO2 SLP197 T01830139 51008=
202109270152 METAR KATL 270152Z 31003KT 10SM CLR 21/14 A3013 RMK AO2 SLP195 T02110144=
202109270052 METAR KATL 270052Z 30003KT 10SM CLR 22/14 A3012 RMK AO2 SLP192 T02220139=
202109262352 METAR KATL 262352Z 28004KT 10SM CLR 23/13 A3011 RMK AO2 SLP190 T02280128 10272 20228 53001=
202109262252 METAR KATL 262252Z 31006KT 10SM FEW050 25/13 A3010 RMK AO2 SLP188 T02500128=
202109262152 METAR KATL 262152Z 33010KT 10SM FEW050 26/13 A3010 RMK AO2 SLP188 T02560133=
202109262052 METAR KATL 262052Z 35009G17KT 10SM FEW055 FEW100 26/13 A3010 RMK AO2 SLP188 T02610128 56015=
202109261952 METAR KATL 261952Z 35008G16KT 10SM FEW055 26/13 A3011 RMK AO2 SLP190 T02610128=
202109261852 METAR KATL 261852Z 31011KT 10SM SCT050 27/13 A3013 RMK AO2 SLP195 T02670128=
202109261752 METAR KATL 261752Z VRB03KT 10SM FEW047 26/13 A3015 RMK AO2 SLP202 T02560128 10261 20150 58010=
202109261652 METAR KATL 261652Z 34006KT 10SM FEW045 25/13 A3017 RMK AO2 SLP211 T02500133=
202109261552 METAR KATL 261552Z 34006KT 10SM CLR 24/14 A3019 RMK AO2 SLP215 T02440139=
202109261452 METAR KATL 261452Z 31004KT 10SM CLR 23/13 A3018 RMK AO2 SLP214 T02280133 51013=
202109261352 METAR KATL 261352Z 31003KT 10SM FEW250 21/13 A3017 RMK AO2 SLP212 T02060133=
202109261252 METAR KATL 261252Z 31004KT 10SM CLR 17/13 A3016 RMK AO2 SLP208 T01720128=
202109261152 METAR KATL 261152Z 00000KT 10SM CLR 15/12 A3014 RMK AO2 SLP202 T01500117 10167 20139 53013=
202109261052 METAR KATL 261052Z 29003KT 10SM CLR 14/12 A3013 RMK AO2 SLP196 T01440117=
202109260952 METAR KATL 260952Z 31005KT 10SM CLR 15/12 A3011 RMK AO2 SLP191 T01500122=
202109260852 METAR KATL 260852Z 29005KT 10SM CLR 15/12 A3010 RMK AO2 SLP188 T01500117 58002=
202109260752 METAR KATL 260752Z 00000KT 10SM CLR 16/12 A3011 RMK AO2 SLP188 T01610122=
202109260652 METAR KATL 260652Z 28003KT 10SM CLR 16/12 A3011 RMK AO2 SLP190 T01610122=
202109260552 METAR KATL 260552Z 30004KT 10SM CLR 16/12 A3011 RMK AO2 SLP190 T01610117 10217 20161 50003=
202109260452 METAR KATL 260452Z 30004KT 10SM CLR 17/12 A3011 RMK AO2 SLP191 T01720122 402560139=
202109260352 METAR KATL 260352Z 31004KT 10SM CLR 18/12 A3012 RMK AO2 SLP193 T01830117=
202109260252 METAR KATL 260252Z 32005KT 10SM CLR 18/12 A3010 RMK AO2 SLP187 T01830117 53010=
202109260152 METAR KATL 260152Z 32005KT 10SM CLR 19/11 A3009 RMK AO2 SLP183 T01940111=
202109260052 METAR KATL 260052Z 31005KT 10SM CLR 21/11 A3008 RMK AO2 SLP179 T02060111=
202109252352 METAR KATL 252352Z 32006KT 10SM FEW250 22/11 A3007 RMK AO2 SLP177 T02170106 10256 20217 53002=
202109252252 METAR KATL 252252Z 32008KT 10SM FEW250 23/11 A3007 RMK AO2 SLP177 T02330106=
202109252152 METAR KATL 252152Z 31006KT 10SM FEW250 24/11 A3006 RMK AO2 SLP172 T02440106=
202109252052 METAR KATL 252052Z 34007G16KT 10SM FEW050 FEW250 25/11 A3006 RMK AO2 SLP174 T02500111 56017=
202109251952 METAR KATL 251952Z 34009KT 10SM FEW048 26/11 A3007 RMK AO2 SLP178 T02560111=
202109251852 METAR KATL 251852Z 35009G19KT 10SM FEW048 25/12 A3009 RMK AO2 SLP185 T02500117=
202109251752 METAR KATL 251752Z 27008KT 10SM SCT043 24/12 A3011 RMK AO2 SLP191 T02440122 10244 20144 58010=
202109251652 METAR KATL 251652Z 26004KT 10SM FEW042 FEW250 24/13 A3013 RMK AO2 SLP196 T02390128=
202109251552 METAR KATL 251552Z 31006KT 10SM FEW038 FEW200 SCT250 23/13 A3014 RMK AO2 SLP199 T02280128=
202109251452 METAR KATL 251452Z 28004KT 10SM SCT200 BKN250 22/13 A3014 RMK AO2 SLP202 T02170133 51005=
202109251352 METAR KATL 251352Z 28004KT 10SM FEW200 BKN250 19/13 A3014 RMK AO2 SLP203 T01940128=
202109251252 METAR KATL 251252Z 29003KT 10SM SCT200 BKN250 18/13 A3013 RMK AO2 SLP198 T01830133=
202109251152 METAR KATL 251152Z 31003KT 10SM FEW200 SCT250 14/12 A3013 RMK AO2 SLP198 T01440117 10161 20139 53010=
202109251052 METAR KATL 251052Z 00000KT 10SM SCT250 14/12 A3011 RMK AO2 SLP191 T01390117=
202109250952 METAR KATL 250952Z 00000KT 10SM SCT250 14/12 A3010 RMK AO2 SLP187 T01440117=
202109250852 METAR KATL 250852Z 00000KT 10SM SCT250 14/12 A3010 RMK AO2 SLP185 T01440117 50001=
202109250752 METAR KATL 250752Z 31003KT 10SM SCT250 15/12 A3010 RMK AO2 SLP186 T01500117=
202109250652 METAR KATL 250652Z 00000KT 10SM SCT250 16/12 A3009 RMK AO2 SLP185 T01560117=
202109250552 METAR KATL 250552Z 00000KT 10SM SCT250 16/12 A3009 RMK AO2 SLP184 T01610122 10211 20161 58001=
202109250452 METAR KATL 250452Z 00000KT 10SM SCT250 17/12 A3010 RMK AO2 SLP186 T01670122 402440117=
202109250352 METAR KATL 250352Z 00000KT 10SM FEW250 17/12 A3010 RMK AO2 SLP188 T01670122=
202109250252 METAR KATL 250252Z 00000KT 10SM FEW250 18/12 A3010 RMK AO2 SLP186 T01830117 51007=
202109250152 METAR KATL 250152Z 21003KT 10SM FEW250 18/12 A3009 RMK AO2 SLP185 T01830122=
202109250052 METAR KATL 250052Z 00000KT 10SM FEW250 20/12 A3009 RMK AO2 SLP183 T02000117=
202109242352 METAR KATL 242352Z 17004KT 10SM FEW250 21/11 A3008 RMK AO2 SLP180 T02110111 10244 20211 53001=
202109242252 METAR KATL 242252Z 18005KT 10SM CLR 23/10 A3007 RMK AO2 SLP180 T02280100 $=
202109242152 METAR KATL 242152Z 19004KT 10SM CLR 24/09 A3007 RMK AO2 SLP177 T02390094=
202109242052 METAR KATL 242052Z 23006KT 10SM FEW070 24/09 A3007 RMK AO2 SLP178 T02390094 56015=
202109241952 METAR KATL 241952Z 12005KT 10SM FEW070 24/09 A3008 RMK AO2 SLP180 T02390094=
202109241852 METAR KATL 241852Z 16004KT 10SM FEW065 23/10 A3010 RMK AO2 SLP186 T02330100=
202109241752 METAR KATL 241752Z 12005KT 10SM CLR 23/10 A3012 RMK AO2 SLP194 T02280100 10233 20133 58012=
202109241652 METAR KATL 241652Z 13006KT 10SM CLR 22/10 A3013 RMK AO2 SLP199 T02220100=
202109241552 METAR KATL 241552Z 08008KT 10SM CLR 21/10 A3014 RMK AO2 SLP204 T02060100=
202109241452 METAR KATL 241452Z 10006KT 10SM CLR 19/09 A3015 RMK AO2 SLP206 T01940094 51015=
202109241352 METAR KATL 241352Z 08008KT 10SM CLR 17/09 A3014 RMK AO2 SLP203 T01720089=
202109241252 METAR KATL 241252Z 04007KT 10SM CLR 16/08 A3013 RMK AO2 SLP199 T01610078=
202109241152 METAR KATL 241152Z 02006KT 10SM CLR 13/08 A3011 RMK AO2 SLP192 T01330083 10139 20117 53014=
202109241052 METAR KATL 241052Z 01006KT 10SM CLR 13/08 A3009 RMK AO2 SLP185 T01280083=
202109240952 METAR KATL 240952Z 35009KT 10SM CLR 13/08 A3007 RMK AO2 SLP180 T01280083=
202109240852 METAR KATL 240852Z 34007KT 10SM CLR 12/08 A3007 RMK AO2 SLP177 T01220083 55000=
202109240752 METAR KATL 240752Z 32006KT 10SM CLR 12/08 A3006 RMK AO2 SLP173 T01220083=
202109240652 METAR KATL 240652Z 33008KT 10SM CLR 13/09 A3006 RMK AO2 SLP174 T01280089=
202109240552 METAR KATL 240552Z 32005KT 10SM CLR 13/09 A3007 RMK AO2 SLP177 T01330089 10189 20128 58001=
202109240452 METAR KATL 240452Z 36004KT 10SM CLR 15/08 A3007 RMK AO2 SLP179 T01500083 402280117=
202109240352 METAR KATL 240352Z 33006KT 10SM CLR 15/09 A3007 RMK AO2 SLP178 T01500089=
202109240252 METAR KATL 240252Z 34008KT 10SM CLR 17/09 A3007 RMK AO2 SLP178 T01670089 51013=
202109240152 METAR KATL 240152Z 34011KT 10SM CLR 17/09 A3006 RMK AO2 SLP175 T01720094=
202109240052 METAR KATL 240052Z 34008KT 10SM CLR 18/09 A3004 RMK AO2 SLP170 T01780089=
202109232352 METAR KATL 232352Z 33009KT 10SM CLR 19/09 A3003 RMK AO2 SLP166 T01890089 10228 20189 53009=
202109232252 METAR KATL 232252Z 32009KT 10SM CLR 21/08 A3002 RMK AO2 SLP161 T02060083=
202109232152 METAR KATL 232152Z 34010KT 300V010 10SM CLR 22/08 A3001 RMK AO2 SLP157 T02220078=
202109232100 SPECI KATL 232100Z 35010G22KT 10SM FEW003 22/06 A3000 RMK AO2 FU FEW003 FU PLUME E T02220061=
202109232052 METAR KATL 232052Z 31013KT 10SM CLR 22/07 A3000 RMK AO2 SLP155 T02220072 56013 $=
202109231952 METAR KATL 231952Z 32013G18KT 10SM FEW070 23/07 A3000 RMK AO2 SLP155 T02280072 $=
202109231852 METAR KATL 231852Z 33012G22KT 10SM FEW065 23/07 A3001 RMK AO2 SLP157 T02280067 $=
202109231752 METAR KATL 231752Z 32014G20KT 10SM FEW060 22/08 A3004 RMK AO2 SLP167 T02170078 10217 20117 58004 $=
202109231652 METAR KATL 231652Z 36013G27KT 10SM FEW055 21/07 A3005 RMK AO2 PK WND 01027/1647 SLP171 T02060072 $=
202109231552 METAR KATL 231552Z 34012G21KT 10SM FEW040 19/09 A3006 RMK AO2 SLP176 T01890094 $=
202109231452 METAR KATL 231452Z 35012G21KT 10SM FEW026 17/09 A3005 RMK AO2 PK WND 33026/1406 SLP172 T01720094 51017 $=
202109231352 METAR KATL 231352Z 33012KT 10SM FEW018 15/09 A3004 RMK AO2 SLP168 T01500094 $=
202109231252 METAR KATL 231252Z 31013G18KT 10SM CLR 13/09 A3002 RMK AO2 SLP163 T01330094 $=
202109231152 METAR KATL 231152Z 33011KT 10SM CLR 12/09 A3000 RMK AO2 SLP155 70011 T01170089 10144 20117 53007 $=
202109231052 METAR KATL 231052Z 32009KT 10SM CLR 12/09 A2999 RMK AO2 SLP151 T01170089=
202109230952 METAR KATL 230952Z 32008KT 10SM CLR 12/09 A2998 RMK AO2 SLP148 T01170089 $=
202109230852 METAR KATL 230852Z 32010KT 10SM CLR 12/08 A2998 RMK AO2 SLP147 T01220083 56012 $=
202109230752 METAR KATL 230752Z 32010KT 10SM CLR 13/08 A2998 RMK AO2 SLP149 T01330083 $=
202109230652 METAR KATL 230652Z 31010KT 10SM CLR 13/09 A3000 RMK AO2 SLP153 T01330089 $=
202109230552 METAR KATL 230552Z 32008KT 10SM CLR 14/10 A3002 RMK AO2 SLP159 T01440100 10200 20139 58002 $=
202109230452 METAR KATL 230452Z 33009KT 10SM CLR 15/09 A3002 RMK AO2 SLP162 T01500094 402500150 $=
202109230352 METAR KATL 230352Z 35007KT 10SM FEW250 16/11 A3003 RMK AO2 SLP161 T01610106 $=
202109230252 METAR KATL 230252Z 34008KT 10SM FEW040 FEW250 17/12 A3002 RMK AO2 SLP160 T01720117 53021 $=
202109230152 METAR KATL 230152Z 33007KT 10SM FEW040 FEW250 18/13 A3000 RMK AO2 SLP154 T01780128 $=
202109230052 METAR KATL 230052Z 29009KT 10SM FEW040 FEW250 18/13 A2997 RMK AO2 SLP143 T01830128 $=
202109222352 METAR KATL 222352Z 31011KT 10SM FEW040 SCT250 20/13 A2996 RMK AO2 SLP138 T02000128 10239 20200 51009 $=
202109222252 METAR KATL 222252Z 32012G20KT 10SM FEW040 SCT250 22/13 A2995 RMK AO2 SLP134 T02170128 $=
202109222152 METAR KATL 222152Z 32013G20KT 10SM SCT040 BKN200 23/13 A2994 RMK AO2 PK WND 31027/2104 SLP131 T02280133 $=
202109222052 METAR KATL 222052Z 31013G22KT 10SM FEW033 BKN250 23/15 A2993 RMK AO2 SLP127 T02280150 56008=
202109221952 METAR KATL 221952Z 32011G22KT 10SM SCT029 BKN250 22/15 A2994 RMK AO2 SLP129 T02220150=
202109221852 METAR KATL 221852Z 33013G23KT 10SM FEW029 SCT090 BKN250 22/14 A2995 RMK AO2 SLP132 T02220144=
202109221752 METAR KATL 221752Z 32012KT 10SM FEW017 FEW050 SCT090 SCT200 22/17 A2995 RMK AO2 RAE1654 SLP135 P0000 60011 T02220172 10250 20189 56000=
202109221652 METAR KATL 221652Z 35012G20KT 6SM -RA BR SCT008 OVC055 19/17 A2996 RMK AO2 PK WND 33039/1603 WSHFT 1555 RAB05 SLP139 FROPA P0011 T01940172=
202109221636 SPECI KATL 221636Z 33013G24KT 6SM -RA BR FEW008 BKN033 OVC050 19/17 A2997 RMK AO2 PK WND 33039/1603 WSHFT 1555 RAB05 P0011 T01890172=
202109221621 SPECI KATL 221621Z 33016G28KT 4SM RA BR SCT012 OVC032 19/17 A2997 RMK AO2 PK WND 33039/1603 WSHFT 1555 RAB05 FROPA P0011 T01940172=
202109221610 SPECI KATL 221610Z 33017G39KT 2SM R09R/5000VP6000FT +RA BR BKN017 OVC021 19/17 A2997 RMK AO2 PK WND 33039/1603 WSHFT 1555 RAB05 FROPA P0002 T01940172=
202109221552 METAR KATL 221552Z 24006KT 10SM BKN015 BKN021 BKN027 25/21 A2994 RMK AO2 SLP130 T02500211=
202109221530 SPECI KATL 221530Z 24010G15KT 10SM BKN015 OVC025 25/22 A2995 RMK AO2 BINOVC T02500217=
202109221452 METAR KATL 221452Z 23005KT 10SM BKN011 BKN019 OVC028 24/21 A2996 RMK AO2 SLP134 60000 T02390211 58000=
202109221445 SPECI KATL 221445Z 23007KT 10SM BKN011 BKN017 OVC090 24/22 A2995 RMK AO2 T02390217=
202109221432 SPECI KATL 221432Z 24006KT 10SM FEW007 SCT012 BKN028 BKN130 24/22 A2996 RMK AO2 T02390217=
202109221416 SPECI KATL 221416Z 22006KT 10SM SCT007 BKN012 OVC025 23/22 A2996 RMK AO2 T02330217=
202109221352 METAR KATL 221352Z 23005KT 3SM BKN006 OVC012 23/22 A2996 RMK AO2 SFC VIS 7 DZB19E49 SLP137 BINOVC P0000 T02330222=
202109221331 SPECI KATL 221331Z 23006KT 1 1/2SM -DZ BR OVC005 23/21 A2996 RMK AO2 SFC VIS 3 DZB19 P0000 T02280211=
202109221252 METAR KATL 221252Z 19005KT 10SM BKN005 OVC010 23/21 A2996 RMK AO2 SLP137 T02280211=
202109221152 METAR KATL 221152Z 20003KT 10SM BKN005 OVC010 22/21 A2996 RMK AO2 SLP135 70003 T02220211 10222 20222 55005=
202109221052 METAR KATL 221052Z 17003KT 3SM BKN006 OVC010 22/21 A2995 RMK AO2 SFC VIS 10 SLP133 T02220211=
202109221045 SPECI KATL 221045Z 17005KT 3SM BKN006 OVC010 22/21 A2995 RMK AO2 SFC VIS 10 T02220211=
202109220952 METAR KATL 220952Z 17004KT 1SM R09R/P6000FT BR OVC002 22/21 A2996 RMK AO2 SFC VIS 4 SLP135 TWRINC T02220211=
202109220852 METAR KATL 220852Z 14003KT 1SM R09R/P6000FT BR OVC003 22/21 A2997 RMK AO2 SFC VIS 3 SLP139 TWRINC T02220211 56017=
202109220752 METAR KATL 220752Z 00000KT 1SM R09R/P6000FT BR OVC004 22/21 A2998 RMK AO2 SFC VIS 3 SLP141 CIG 003V005 T02220211=
202109220652 METAR KATL 220652Z 13003KT 2SM BR BKN004 OVC010 22/21 A3000 RMK AO2 SFC VIS 3 SLP149 CIG 003V005 T02220211=
202109220625 SPECI KATL 220625Z 13004KT 9SM BKN004 OVC010 22/21 A3002 RMK AO2 T02220206=
202109220552 METAR KATL 220552Z 10005KT 10SM OVC005 22/21 A3002 RMK AO2 SLP157 T02220206 10244 20217 58015=
202109220452 METAR KATL 220452Z 10008KT 10SM OVC006 22/21 A3004 RMK AO2 SLP163 T02220206 402940217=
202109220405 SPECI KATL 220405Z 09007KT 10SM BKN008 BKN060 BKN200 22/20 A3005 RMK AO2 T02170200=
202109220352 METAR KATL 220352Z 10005KT 10SM FEW007 SCT014 SCT200 22/20 A3006 RMK AO2 SLP170 T02170200=
202109220338 SPECI KATL 220338Z 10006KT 10SM FEW010 SCT150 SCT200 22/20 A3006 RMK AO2 T02170200=
202109220316 SPECI KATL 220316Z 09007KT 10SM BKN011 BKN150 BKN200 22/20 A3006 RMK AO2 T02220200=
202109220252 METAR KATL 220252Z 09007KT 10SM FEW009 FEW140 SCT200 22/20 A3007 RMK AO2 SLP173 T02220200 51010=
202109220152 METAR KATL 220152Z 09010KT 10SM FEW010 SCT120 BKN200 22/21 A3006 RMK AO2 SLP171 T02220206=
202109220052 METAR KATL 220052Z 09008KT 10SM FEW015 SCT100 SCT200 23/21 A3006 RMK AO2 SLP171 LTG DSNT NW CB DSNT W-NW T02330211=
202109212352 METAR KATL 212352Z 12007KT 10SM FEW020 FEW100 SCT200 24/21 A3004 RMK AO2 SLP162 CB DSNT SE W-NW 60003 T02440211 10294 20244 53005=
202109212252 METAR KATL 212252Z 11006KT 10SM FEW020 SCT040 SCT100 BKN200 24/21 A3001 RMK AO2 RAE02 SLP154 CB DSNT SE SW P0000 T02440211=
202109212233 SPECI KATL 212233Z 08007KT 10SM FEW020TCU SCT030 SCT050 BKN200 24/22 A3002 RMK AO2 RAE02 TCU NW P0000 T02440217=
202109212152 METAR KATL 212152Z 10010KT 10SM -RA SCT018CB BKN025TCU BKN045 BKN200 26/22 A3003 RMK AO2 RAB32 SLP159 CB E-SE MOV STNRY TCU OHD-ALQDS P0003 T02610222=
202109212052 METAR KATL 212052Z 11006KT 10SM SCT026TCU BKN070 BKN110 BKN200 28/22 A3002 RMK AO2 LTG DSNT SE SLP155 CB DSNT SE TCU SE SW-W NW 60000 T02780217 56023=
202109211952 METAR KATL 211952Z 06006KT 10SM SCT030TCU BKN060 BKN100 BKN200 29/21 A3003 RMK AO2 SLP159 TCU ALQDS T02890211=
202109211852 METAR KATL 211852Z 03005KT 10SM SCT024TCU BKN055 BKN100 BKN200 28/22 A3005 RMK AO2 RAB42E52 SLP167 TCU NE SE SW W DSNT ALQDS P0000 T02830217=
202109211810 SPECI KATL 211810Z 05007KT 10SM SCT020TCU BKN032 BKN090 BKN200 27/22 A3008 RMK AO2 TCU ALQDS T02670217=
202109211752 METAR KATL 211752Z 05005KT 10SM SCT018CB BKN028TCU BKN100 BKN200 27/22 A3009 RMK AO2 SLP180 CB SE MOV E TCU ALQDS SHRA E-SE 60000 T02670217 10267 20222 58007=
202109211652 METAR KATL 211652Z 03006KT 10SM SCT016TCU BKN028 BKN070 BKN200 26/22 A3011 RMK AO2 SLP187 TCU N NE SE-S SHRA NE SE T02610222=
202109211631 SPECI KATL 211631Z 36006KT 10SM BKN016 OVC028 26/22 A3011 RMK AO2 CIG 014V018 BINOVC T02610217=
202109211552 METAR KATL 211552Z 00000KT 10SM BKN014 OVC026 26/22 A3012 RMK AO2 SLP190 CIG 012V016 BINOVC T02560217=
202109211524 SPECI KATL 211524Z 10004KT 10SM BKN013 BKN024 OVC055 26/22 A3011 RMK AO2 CIG 011V015 BINOVC T02560222=
202109211452 METAR KATL 211452Z VRB03KT 8SM BKN008 BKN014 OVC055 25/22 A3011 RMK AO2 SLP187 CIG 006V010 BINOVC 60000 T02500222 51007=
202109211410 SPECI KATL 211410Z 13003KT 7SM BKN007 BKN014 BKN050 BKN200 24/22 A3011 RMK AO2 CIG 005V009 T02440222=
202109211352 METAR KATL 211352Z 14004KT 6SM BR SCT007 BKN016 BKN070 BKN200 24/22 A3010 RMK AO2 RAB16E37 SLP184 P0000 T02390217=
202109211348 SPECI KATL 211348Z 15003KT 6SM BR SCT007 BKN013 BKN065 BKN200 24/22 A3010 RMK AO2 RAB16E37 P0000=
202109211316 SPECI KATL 211316Z 00000KT 1 1/2SM -RA BR BKN006 BKN018 OVC060 23/22 A3010 RMK AO2 SFC VIS 6 RAB16 CIG 004V008 BINOVC P0000 T02280217=
202109211304 SPECI KATL 211304Z 00000KT 1 1/2SM BR BKN004 BKN010 OVC060 23/22 A3010 RMK AO2 SFC VIS 4 CIG 003V006 BINOVC T02280217=
202109211252 METAR KATL 211252Z VRB03KT 1SM R09R/P6000FT BR BKN004 BKN012 OVC060 22/21 A3010 RMK AO2 SFC VIS 4 RAE01 SLP184 CIG 003V006 BINOVC P0000 T02220211=
202109211152 METAR KATL 211152Z 08004KT 1SM R09R/P6000FT -RA BR BKN004 BKN027 BKN048 22/21 A3009 RMK AO2 SFC VIS 4 RAB09 SLP181 BKN004 V SCT P0042 60042 70108 T02220211 10222 20217 53014=
202109211137 SPECI KATL 211137Z 04005KT 1SM R09R/4000VP6000FT +RA BR SCT003 BKN025 OVC045 22/21 A3009 RMK AO2 SFC VIS 1 1/2 RAB09 SCT003 V BKN P0037 T02220211=
202109211052 METAR KATL 211052Z 00000KT 1SM R09R/P6000FT BR OVC002 22/21 A3007 RMK AO2 SFC VIS 1 1/2 SLP175 T02220211=
202109210952 METAR KATL 210952Z 02004KT 1SM R09R/P6000FT BR OVC002 22/21 A3006 RMK AO2 SFC VIS 1 1/2 DZE52 SLP170 P0000 T02170206=
202109210852 METAR KATL 210852Z 04004KT 1SM R09R/P6000FT -DZ BR OVC003 22/21 A3005 RMK AO2 SFC VIS 2 SLP167 P0000 60000 T02170206 56003=
202109210752 METAR KATL 210752Z 05003KT 1SM R09R/P6000FT -DZ BR OVC003 22/21 A3005 RMK AO2 SFC VIS 4 SLP167 TWRINC P0000 T02170206=
202109210652 METAR KATL 210652Z 08005KT 1SM R09R/P6000FT -DZ BR OVC003 22/21 A3005 RMK AO2 SFC VIS 2 1/2 SLP166 TWRINC P0000 T02170206=
202109210552 METAR KATL 210552Z 07003KT 1SM R09R/P6000FT -DZ BR OVC003 22/21 A3006 RMK AO2 SFC VIS 1 1/2 SLP170 P0000 60000 T02170206 10228 20217 56006=
202109210452 METAR KATL 210452Z 10004KT 1SM R09R/P6000FT -DZ BR OVC003 22/21 A3006 RMK AO2 SFC VIS 1 1/2 SLP172 P0000 T02170206 402330217=
202109210352 METAR KATL 210352Z 08006KT 1SM R09R/P6000FT -DZ BR OVC004 22/21 A3007 RMK AO2 SFC VIS 2 SLP175 CIG 003V005 P0000 T02170206=
202109210252 METAR KATL 210252Z 09009KT 1SM R09R/P6000FT -DZ BR OVC004 22/21 A3008 RMK AO2 SFC VIS 5 DZB02 SLP177 P0000 60000 T02170206 53008=
202109210217 SPECI KATL 210217Z 09013KT 1SM R09R/P6000FT -DZ BR OVC005 22/21 A3008 RMK AO2 SFC VIS 3 DZB02 CIG 003V007 P0000 T02170206=
202109210152 METAR KATL 210152Z 08010KT 10SM BKN006 OVC015 22/21 A3007 RMK AO2 SLP174 T02220206=
202109210052 METAR KATL 210052Z 10009KT 10SM BKN008 BKN014 OVC025 22/21 A3006 RMK AO2 RAE13 SLP170 P0000 T02220206=
202109202352 METAR KATL 202352Z 09008KT 8SM -RA BKN010 OVC030 23/21 A3005 RMK AO2 RAE26B52 SLP168 CIG 007V014 P0000 60003 T02280211 10233 20222 53006=
202109202252 METAR KATL 202252Z 08009KT 3SM -RA BR BKN006 BKN012 OVC030 23/22 A3005 RMK AO2 DZE20RAB20 SLP166 P0003 T02280217=
202109202228 SPECI KATL 202228Z 07011KT 2SM -RA BR BKN006 BKN012 OVC030 23/22 A3005 RMK AO2 DZE20RAB20 P0002 T02280217=
202109202152 METAR KATL 202152Z 08011KT 3SM -DZ BR BKN007 OVC020 23/21 A3004 RMK AO2 SFC VIS 6 SLP162 CIG 005V009 P0000 T02330211=
202109202052 METAR KATL 202052Z 08012KT 3SM -DZ BR BKN007 OVC014 23/21 A3003 RMK AO2 SFC VIS 6 RAE13DZB13 SLP162 CIG 005V009 PCPN VRY LGT P0000 60000 T02280206 56017=
202109202001 SPECI KATL 202001Z 07014KT 3SM -RA BR BKN009 OVC016 23/21 A3004 RMK AO2 CIG 008V011 P0000 T02280206=
202109201952 METAR KATL 201952Z 09010KT 6SM -RA BR BKN010 OVC018 23/21 A3004 RMK AO2 PK WND 08027/1907 RAB42 SLP166 CIG 009V013 P0000 T02280206=
202109201852 METAR KATL 201852Z 08012KT 10SM BKN012 OVC020 23/21 A3006 RMK AO2 DZE05B13E30 SLP172 CIG 010V014 P0000 T02280206=
202109201806 SPECI KATL 201806Z 09011G20KT 10SM SCT008 BKN012 OVC024 23/21 A3008 RMK AO2 DZE05 CIG 010V014 P0000 T02280206=
202109201752 METAR KATL 201752Z 10010G20KT 6SM -DZ BR BKN012 BKN018 OVC034 23/21 A3009 RMK AO2 RAE20B37E48DZB20 SLP180 CIG 010V014 P0001 60063 T02280206 10233 20222 58001=
202109201716 SPECI KATL 201716Z 11014G23KT 4SM -RA BR SCT006 BKN010 OVC030 23/21 A3009 RMK AO2 CIG 008V012 P0000 T02280206=
202109201652 METAR KATL 201652Z 10013G20KT 3SM -RA BR BKN007 BKN016 OVC032 23/21 A3009 RMK AO2 SFC VIS 4 SLP180 CIG 005V009 P0033 T02280211=
202109201645 SPECI KATL 201645Z 11009G18KT 2SM -RA BR BKN007 BKN016 OVC032 23/21 A3009 RMK AO2 SFC VIS 3 CIG 005V009 P0033 T02280211=
202109201609 SPECI KATL 201609Z 11009KT 1 1/2SM R09R/4500VP6000FT +RA BR FEW004 BKN007 OVC016 23/22 A3009 RMK AO2 CIG 005V009 P0012 T02280217=
202109201552 METAR KATL 201552Z 10009KT 2SM RA BR BKN007 BKN014 OVC038 23/22 A3009 RMK AO2 SLP182 CIG 005V009 P0017 T02280217=
202109201533 SPECI KATL 201533Z 12009KT 2SM R09R/6000VP6000FT -RA BR SCT006 BKN013 OVC021 23/22 A3009 RMK AO2 P0012 T02280217=
202109201528 SPECI KATL 201528Z 11006G17KT 1 1/2SM R09R/5500VP6000FT +RA BR BKN008 BKN012 OVC019 23/21 A3009 RMK AO2 P0010 T02280211=
202109201504 SPECI KATL 201504Z 11008KT 2SM -RA BR BKN008 OVC012 23/22 A3009 RMK AO2 P0001 T02280217=
202109201452 METAR KATL 201452Z 11008KT 3SM -RA BR BKN008 OVC016 23/22 A3009 RMK AO2 DZB07E25RAB27 SLP181 CIG 006V010 P0002 60012 T02280217 53012=
202109201352 METAR KATL 201352Z 12009KT 7SM BKN005 OVC012 23/21 A3007 RMK AO2 RAE46 SLP175 CIG 004V007 P0010 T02280211=
202109201333 SPECI KATL 201333Z 12007KT 4SM -RA BR BKN006 OVC014 23/22 A3007 RMK AO2 CIG 005V008 P0009 T02280217=
202109201304 SPECI KATL 201304Z 11007KT 2SM R09R/6000VP6000FT RA BR BKN005 OVC015 23/22 A3007 RMK AO2 P0004 T02280217=
202109201252 METAR KATL 201252Z 11009G16KT 5SM -RA BR BKN005 OVC010 23/21 A3006 RMK AO2 RAE1159B49 SLP171 P0000 T02280211=
202109201152 METAR KATL 201152Z 12006KT 6SM -RA BR BKN006 OVC010 23/22 A3005 RMK AO2 SLP168 P0023 60028 70120 T02280217 10228 20228 53005=
202109201052 METAR KATL 201052Z 09008KT 4SM -RA BR BKN005 OVC023 23/22 A3004 RMK AO2 RAB14 SLP163 CIG 004V007 P0005 T02280217=
202109200952 METAR KATL 200952Z 09010KT 7SM BKN007 BKN012 OVC075 23/21 A3004 RMK AO2 RAB09E52 SLP163 CIG 006V009 P0000 T02280211=
202109200852 METAR KATL 200852Z 10009KT 10SM BKN008 BKN012 BKN130 OVC200 23/21 A3004 RMK AO2 SLP162 BKN008 V SCT 60000 T02280211 56013=
202109200837 SPECI KATL 200837Z 10008KT 10SM BKN008 BKN023 BKN130 OVC200 23/21 A3004 RMK AO2 BKN008 V SCT T02280211=
202109200757 SPECI KATL 200757Z 10006KT 10SM FEW008 OVC014 23/21 A3005 RMK AO2 T02280211=
202109200752 METAR KATL 200752Z 09007KT 10SM BKN016 OVC030 23/21 A3005 RMK AO2 RAE0654B25E41 SLP165 P0000 T02280211=
202109200652 METAR KATL 200652Z 09006KT 10SM -RA BKN017 OVC030 23/21 A3006 RMK AO2 RAB30 SLP170 P0000 T02280211=
202109200552 METAR KATL 200552Z 10005KT 10SM FEW017 BKN022 BKN029 BKN130 OVC200 23/21 A3008 RMK AO2 SLP176 60005 T02280211 10250 20228 58004=
202109200533 SPECI KATL 200533Z 11005KT 10SM BKN019 BKN055 BKN130 BKN200 23/21 A3008 RMK AO2 T02280211=
202109200452 METAR KATL 200452Z 10005KT 10SM FEW027 SCT060 BKN130 BKN210 OVC250 23/21 A3009 RMK AO2 SLP179 BINOVC T02280211 402720222=
202109200352 METAR KATL 200352Z 12005KT 10SM FEW030 SCT110 BKN130 BKN210 23/21 A3009 RMK AO2 SLP182 T02280211=
202109200252 METAR KATL 200252Z 14003KT 10SM FEW110 23/22 A3009 RMK AO2 RAE0159 SLP181 P0000 60005 T02280217 51013=
202109200159 SPECI KATL 200159Z 15004KT 10SM FEW018 SCT029 BKN045 BKN250 23/22 A3009 RMK AO2 RAE59 P0000 T02280217=
202109200152 METAR KATL 200152Z 15005KT 10SM -RA FEW018 BKN029 BKN045 BKN250 23/22 A3009 RMK AO2 RAB20 SLP181 P0005 T02280217=
202109200137 SPECI KATL 200137Z 14007KT 6SM -RA BR FEW019 BKN029 BKN045 23/21 A3009 RMK AO2 RAB20 P0005 T02280211=
202109200052 METAR KATL 200052Z 11008KT 10SM FEW032 BKN043 BKN050 BKN140 BKN250 25/21 A3007 RMK AO2 SLP172 T02500206=
202109192352 METAR KATL 192352Z 10007KT 10SM FEW029 BKN140 BKN250 25/22 A3005 RMK AO2 SLP167 T02500217 10272 20250 50003=
202109192252 METAR KATL 192252Z 10008KT 10SM SCT029 BKN140 BKN200 BKN250 26/21 A3005 RMK AO2 SLP168 TCU DSNT SW MDT CU DSNT W T02560211=
202109192152 METAR KATL 192152Z 12007KT 10SM FEW020 BKN140 OVC250 26/22 A3004 RMK AO2 SLP164 TCU DSNT N & W MDT CU NW T02610217=
202109192052 METAR KATL 192052Z 12006KT 10SM SCT023TCU BKN130 OVC250 27/22 A3004 RMK AO2 SLP163 TCU NW-N & S T02670217 56018=
202109191952 METAR KATL 191952Z 13009KT 10SM SCT025 BKN140 OVC250 27/21 A3005 RMK AO2 SLP166 T02670211=
202109191945 SPECI KATL 191945Z 14006KT 10SM SCT022 BKN140 OVC250 27/22 A3005 RMK AO2 T02670217=
202109191852 METAR KATL 191852Z 14007KT 10SM BKN022 BKN036 OVC140 27/22 A3007 RMK AO2 SLP172 T02670217=
202109191752 METAR KATL 191752Z 11008KT 10SM FEW014 SCT021 BKN029 OVC140 26/22 A3010 RMK AO2 SLP182 60087 T02610222 10261 20222 58010=
202109191742 SPECI KATL 191742Z 14007KT 10SM SCT012 BKN018 BKN030 OVC140 26/22 A3010 RMK AO2 T02610222=
202109191652 METAR KATL 191652Z 11006KT 10SM FEW008 BKN012 OVC040 26/22 A3012 RMK AO2 SLP190 T02560222=
202109191609 SPECI KATL 191609Z 12006KT 10SM FEW008 BKN018 OVC034 24/22 A3013 RMK AO2 T02440222=
202109191552 METAR KATL 191552Z 10005KT 8SM BKN008 OVC015 24/22 A3013 RMK AO2 SLP195 T02440222=
202109191452 METAR KATL 191452Z 11005KT 10SM BKN008 BKN025 OVC080 24/22 A3013 RMK AO2 RAE17 SLP194 VSBY LWR NW-N P0017 60087 T02390222 53009 $=
202109191410 SPECI KATL 191410Z 00000KT 4SM R09R/5000VP6000FT -RA BR FEW009 BKN029 OVC050 23/21 A3012 RMK AO2 VSBY LWR NW-N P0016 T02280211 $=
202109191404 SPECI KATL 191404Z 09004KT 1SM R09R/5000VP6000FT +RA BR SCT009 BKN025 OVC050 22/21 A3012 RMK AO2 P0011 T02220211 $=
202109191356 SPECI KATL 191356Z 12004KT 2SM RA BR SCT009 BKN014 OVC035 23/21 A3012 RMK AO2 P0002 T02280211 $=
202109191352 METAR KATL 191352Z VRB03KT 9SM RA FEW006 BKN014 BKN034 OVC250 23/21 A3012 RMK AO2 RAE20B39 SLP191 VSBY LWR S-SW P0011 T02280211 $=
202109191252 METAR KATL 191252Z 08010KT 4SM -RA BR SCT004 OVC022 22/21 A3010 RMK AO2 RAB1159 SLP184 VIS NW-NE 2 CB DSIPTD P0059 T02220211 $=
202109191250 SPECI KATL 191250Z 09011KT 3SM R09R/5500VP6000FT -RA BR BKN004 OVC022 22/21 A3010 RMK AO2 RAB1159 VIS NW-NE 2 BKN004 V SCT CB DSIPTD P0059 $=
202109191236 SPECI KATL 191236Z 10006KT 1/2SM R09R/5500VP6000FT +RA FG BKN004CB OVC025 23/22 A3011 RMK AO2 RAB1159 CB OHD-N-E MOV NW P0039 T02280217=
202109191233 SPECI KATL 191233Z 11008KT 2 1/2SM -RA BR BKN004CB OVC025 23/22 A3012 RMK AO2 RAB1159 VIS NE-E 1 CB N-E MOV NW P0035 T02280217=
202109191216 SPECI KATL 191216Z 06007KT 5SM R09R/4000VP6000FT +RA BR BKN004CB OVC029 23/22 A3010 RMK AO2 RAB1159 VIS LWR NE-SE CB VC NE-SE MOV NW P0021 T02280217=
202109191159 SPECI KATL 191159Z 09004KT 5SM -RA BR SCT003 BKN007 OVC070 23/22 A3010 RMK AO2 RAB59 BKN007 V SCT P0000 T02280217=
202109191152 METAR KATL 191152Z 09004KT 6SM BR SCT003 SCT007 BKN070 OVC130 23/22 A3010 RMK AO2 SLP183 60004 70010 T02280217 10244 20228 53004=
202109191148 SPECI KATL 191148Z 09005KT 6SM BR SCT007 BKN070 OVC110 23/22 A3010 RMK AO2=
202109191052 METAR KATL 191052Z 09005KT 6SM BR FEW003 BKN009 OVC055 23/22 A3009 RMK AO2 SLP182 BKN009 V SCT T02280217=
202109190952 METAR KATL 190952Z 09005KT 6SM BR BKN008 BKN030 OVC048 23/22 A3009 RMK AO2 RAB0856E49 SLP178 CIG 007V010 BKN008 V SCT P0004 T02280217=
202109190948 SPECI KATL 190948Z 09007KT 6SM -RA BR BKN008 BKN030 OVC048 23/22 A3008 RMK AO2 RAB0856 CIG 007V010 BKN008 V SCT P0004=
202109190929 SPECI KATL 190929Z 09006KT 6SM -RA BR SCT006 SCT014 OVC110 23/22 A3008 RMK AO2 RAB0856 P0002 T02330217=
202109190915 SPECI KATL 190915Z VRB06KT 5SM -RA BR SCT004 BKN055 OVC100 23/22 A3007 RMK AO2 RAB0856 SCT004 V BKN P0001 T02330222=
202109190902 SPECI KATL 190902Z 09006KT 5SM -RA BR BKN004 BKN050 OVC100 23/22 A3007 RMK AO2 RAB0856 BKN004 V SCT P0000 T02330222=
202109190852 METAR KATL 190852Z 08006KT 6SM BR BKN005 BKN085 OVC110 23/22 A3007 RMK AO2 RAB20E30 SLP173 CIG 004V006 P0000 60000 T02330222 56005=
202109190847 SPECI KATL 190847Z 08007KT 6SM BR BKN005 BKN085 OVC110 23/22 A3007 RMK AO2 RAB20E30 P0000=
202109190752 METAR KATL 190752Z 07006KT 8SM BKN110 23/22 A3007 RMK AO2 SLP174 T02330222=
202109190659 SPECI KATL 190659Z 09003KT 9SM BKN021 BKN030 BKN036 OVC150 24/22 A3008 RMK AO2 T02390222=
202109190652 METAR KATL 190652Z 10004KT 9SM SCT024 BKN030 BKN036 24/22 A3008 RMK AO2 SLP175 T02390222=
202109190552 METAR KATL 190552Z 08006KT 10SM SCT035 BKN049 OVC150 24/22 A3009 RMK AO2 SLP178 60006 T02440222 10256 20239 55003=
202109190452 METAR KATL 190452Z 09005KT 10SM FEW080 BKN150 BKN180 OVC250 24/22 A3009 RMK AO2 SLP177 T02440222 402890228=
202109190352 METAR KATL 190352Z 02003KT 10SM FEW110 BKN150 BKN180 BKN250 24/23 A3009 RMK AO2 SLP177 RAE21 P0000 T02440228=
202109190252 METAR KATL 190252Z 32003KT 8SM FEW030 SCT085 SCT120 BKN150 OVC250 24/23 A3010 RMK AO2 RAE09B29E52 SLP182 BINOVC P0001 60006 T02390228 50004=
202109190152 METAR KATL 190152Z 24003KT 8SM -RA SCT055 BKN070 BKN090 OVC250 24/23 A3010 RMK AO2 SLP183 P0002 T02440228=
202109190052 METAR KATL 190052Z 00000KT 10SM -RA FEW030 SCT090 BKN120 BKN200 OVC250 25/22 A3010 RMK AO2 SLP184 P0003 T02500222=
202109182352 METAR KATL 182352Z 10004KT 10SM -RA FEW030 SCT080 BKN110 BKN150 OVC250 26/21 A3008 RMK AO2 RAE10B45 SLP178 P0000 60000 T02560211 10289 20256 53007=
202109182252 METAR KATL 182252Z 09006KT 10SM -RA FEW030 SCT060 SCT080 BKN140 BKN250 26/21 A3007 RMK AO2 RAB46 SLP173 P0000 T02610206=
202109182152 METAR KATL 182152Z 08010KT 10SM FEW022 SCT030TCU BKN140 OVC200 27/21 A3007 RMK AO2 SLP171 TCU NW-N SHRA NW-N T02670206=
202109182052 METAR KATL 182052Z 13007KT 10SM FEW032TCU SCT085 BKN140 OVC200 28/20 A3006 RMK AO2 SLP170 CB DSNT SW TCU N-NE E DSNT N-NE SW NW T02780200 56020=
202109181952 METAR KATL 181952Z 14007KT 10SM FEW030 SCT080 BKN140 OVC200 28/20 A3007 RMK AO2 SLP173 CB DSNT E SE TCU DSNT N SE-S T02780200=
202109181852 METAR KATL 181852Z 15008KT 10SM FEW028TCU SCT080 BKN140 BKN200 28/21 A3009 RMK AO2 SLP178 CB DSNT SW NW TCU SW DSNT NE T02830206=
202109181752 METAR KATL 181752Z 11006KT 10SM FEW030 SCT075 BKN140 OVC200 28/21 A3012 RMK AO2 LTG DSNT W SLP190 CB DSNT W TCU DSNT SW-NW 60000 T02780211 10289 20228 58009=
202109181652 METAR KATL 181652Z 12006KT 10SM FEW025TCU SCT070 BKN140 OVC200 28/21 A3014 RMK AO2 SLP197 TCU NW DSNT NW-NE T02780211=
202109181552 METAR KATL 181552Z 12007KT 10SM FEW018 SCT028 SCT065 BKN140 BKN200 27/21 A3015 RMK AO2 SLP200 TCU DSNT N-NE MDT CU SW-NW T02720211=
202109181452 METAR KATL 181452Z 10006KT 10SM FEW016 SCT065 BKN140 BKN200 26/22 A3015 RMK AO2 SLP200 60000 T02610217 53001=
202109181352 METAR KATL 181352Z 12005KT 8SM FEW008 SCT060 BKN140 BKN200 25/22 A3014 RMK AO2 SLP198 T02500217=
202109181252 METAR KATL 181252Z 10006KT 7SM FEW007 BKN055 BKN150 BKN200 23/22 A3015 RMK AO2 RAE1157 SLP200 P0000 T02330217=
202109181234 SPECI KATL 181234Z 10006KT 8SM FEW007 BKN050 BKN180 23/21 A3015 RMK AO2 RAE1157 P0000 T02280211=
202109181152 METAR KATL 181152Z 08006KT 7SM -RA FEW028 BKN049 BKN180 BKN250 23/21 A3015 RMK AO2 RAB38 SLP201 P0001 60001 70001 T02280211 10233 20228 53010=
202109181052 METAR KATL 181052Z 08005KT 10SM FEW025 BKN046 BKN180 BKN250 23/21 A3013 RMK AO2 SLP194 T02280211 $=
202109180952 METAR KATL 180952Z 08004KT 10SM SCT025 BKN046 BKN070 BKN180 BKN250 23/21 A3013 RMK AO2 SLP193 SCT025 V BKN T02280211 $=
202109180929 SPECI KATL 180929Z 10004KT 10SM BKN025 BKN070 BKN180 23/21 A3012 RMK AO2 T02280211 $=
202109180852 METAR KATL 180852Z 09004KT 10SM FEW070 SCT180 BKN250 23/21 A3012 RMK AO2 SLP190 T02280211 58001 $=
202109180752 METAR KATL 180752Z 06006KT 10SM SCT070 23/21 A3012 RMK AO2 SLP191 T02330211 $=
202109180652 METAR KATL 180652Z 06004KT 10SM BKN070 23/21 A3012 RMK AO2 SLP191 T02330211 $=
202109180552 METAR KATL 180552Z 08004KT 10SM BKN075 23/21 A3012 RMK AO2 SLP192 T02330211 10244 20233 58006 $=
202109180452 METAR KATL 180452Z 00000KT 10SM OVC075 24/21 A3014 RMK AO2 SLP196 BINOVC T02390211 402500217 $=
202109180352 METAR KATL 180352Z 00000KT 10SM BKN075 BKN200 24/21 A3014 RMK AO2 SLP198 T02390211 $=
202109172352 METAR KATL 172352Z 12004KT 10SM FEW015 BKN060 BKN200 24/21 A3012 RMK AO2 SLP189 60000 T02440211 10250 20244 53001 $=
202109172252 METAR KATL 172252Z 15004KT 10SM FEW015 BKN060 BKN200 25/21 A3011 RMK AO2 SLP187 TCU DSNT NE T02500211 $=
202109172152 METAR KATL 172152Z 15004KT 10SM FEW015 OVC060 25/21 A3010 RMK AO2 SLP185 TCU DSNT NE-E BINOVC T02500211 $=
202109172052 METAR KATL 172052Z 15005KT 10SM FEW016TCU SCT036 OVC060 25/22 A3011 RMK AO2 SLP188 TCU NE BINOVC 60000 T02500217 56017 $=
202109171952 METAR KATL 171952Z 13008KT 10SM SCT015TCU BKN036 OVC050 25/21 A3012 RMK AO2 RAE08 SLP191 TCU NE SW P0000 T02500211 $=
202109171925 SPECI KATL 171925Z 14007KT 10SM SCT015 BKN035 OVC050 24/21 A3013 RMK AO2 RAE08 P0000 T02440211 $=
202109171852 METAR KATL 171852Z 17007KT 8SM -RA SCT012 BKN020 OVC033 25/21 A3014 RMK AO2 RAB48 SLP199 P0000 T02500211 $=
202109171752 METAR KATL 171752Z 15007KT 10SM SCT012 BKN016 OVC028 24/21 A3017 RMK AO2 SLP206 CIG 014V018 60000 T02440206 10244 20222 58002 $=
202109171708 SPECI KATL 171708Z 12005KT 10SM SCT009 BKN016 OVC030 24/21 A3017 RMK AO2 T02390211 $=
202109171652 METAR KATL 171652Z 12007KT 9SM BKN008 BKN016 OVC028 23/21 A3018 RMK AO2 DZB39E49 SLP212 CIG 007V010 P0000 T02330211 $=
202109171552 METAR KATL 171552Z 10008KT 9SM BKN008 BKN014 OVC026 23/21 A3019 RMK AO2 SLP215 CIG 007V010 T02330211 $=
202109171452 METAR KATL 171452Z 11007KT 9SM BKN011 OVC020 23/21 A3017 RMK AO2 DZE44 SLP209 CIG 009V013 P0000 60000 T02330206 53013 $=
202109171352 METAR KATL 171352Z 11007KT 3SM -DZ BR BKN007 OVC014 23/21 A3015 RMK AO2 SFC VIS 6 SLP202 CIG 005V009 P0000 T02280206 $=
202109171314 SPECI KATL 171314Z 10006KT 3SM -DZ BR BKN006 OVC012 22/21 A3015 RMK AO2 SFC VIS 6 CIG 005V008 P0000 T02220206 $=
202109171252 METAR KATL 171252Z 12006KT 8SM -DZ BKN006 BKN010 OVC015 22/21 A3015 RMK AO2 SLP200 DZB44 PCPN VRY LGT P0000 T02220206 $=
202109171152 METAR KATL 171152Z 13004KT 10SM BKN006 BKN009 OVC018 22/21 A3013 RMK AO2 SLP196 60000 70031 T02220206 10222 20217 53018 $=
202109171052 METAR KATL 171052Z 14004KT 2SM BKN005 OVC010 22/21 A3011 RMK AO2 SFC VIS 8 SLP189 DZE19 CIG 004V007 P0000 T02170206 $=
202109171028 SPECI KATL 171028Z 14006KT 2SM BKN005 OVC010 22/21 A3011 RMK AO2 SFC VIS 7 DZE19 CIG 004V006 P0000 T02170206 $=
202109170952 METAR KATL 170952Z 11006KT 1 1/2SM -DZ BR BKN005 OVC010 22/21 A3009 RMK AO2 SFC VIS 4 DZB50 SLP182 CIG 004V006 TWRINC P0000 T02170206 $=
202109170852 METAR KATL 170852Z 10007KT 10SM BKN007 BKN012 OVC033 22/21 A3008 RMK AO2 SLP178 DZE26 BINOVC P0000 60000 T02170206 56005 $=
202109170752 METAR KATL 170752Z 10005KT 10SM -DZ BKN005 BKN012 OVC028 22/21 A3008 RMK AO2 SLP179 RAB16E35DZB35 CIG 004V007 PCPN VRY LGT P0000 T02220206 $=
202109170739 SPECI KATL 170739Z 00000KT 4SM -DZ BR BKN005 BKN011 OVC028 22/21 A3008 RMK AO2 RAB16E35DZB35 CIG 004V008 P0000 T02220211 $=
202109170730 SPECI KATL 170730Z 13003KT 3SM BR SCT004 OVC011 22/21 A3008 RMK AO2 RAB16E30 SCT004 V BKN P0000 T02220206 $=
202109170723 SPECI KATL 170723Z 12004KT 2 1/2SM -RA BR SCT004 OVC011 22/21 A3009 RMK AO2 RAB16 SCT004 V BKN P0000 T02220206 $=
202109170652 METAR KATL 170652Z 13006KT 10SM SCT007 BKN011 OVC018 22/21 A3008 RMK AO2 SLP178 SCT007 V BKN BINOVC T02220206 $=
202109170644 SPECI KATL 170644Z 12004KT 10SM SCT007 BKN011 OVC018 22/21 A3009 RMK AO2 SCT007 V BKN T02220206 $=
202109170552 METAR KATL 170552Z 13006KT 10SM BKN007 BKN012 22/21 A3009 RMK AO2 SLP183 CIG 006V008 60001 T02220206 10228 20222 58002 $=
202109170515 SPECI KATL 170515Z 11009KT 10SM BKN008 BKN040 22/21 A3009 RMK AO2 CIG 007V009 T02220206 $=
202109170452 METAR KATL 170452Z 11006KT 10SM SCT006 BKN040 BKN200 22/21 A3009 RMK AO2 RAE42 SLP183 P0001 T02220206 402500206 $=
202109170442 SPECI KATL 170442Z 12006G15KT 10SM SCT006 BKN040 BKN200 22/21 A3010 RMK AO2 RAE42 P0001 T02220206 $=
202109170352 METAR KATL 170352Z 10008KT 4SM -RA BR BKN006 OVC030 22/21 A3010 RMK AO2 SLP186 CIG 004V008 P0000 T02220211 $=
202109170252 METAR KATL 170252Z 09009KT 7SM -RA BKN006 BKN012 OVC030 22/21 A3010 RMK AO2 RAB52 SLP184 P0000 60000 T02220211 51015 $=
202109170152 METAR KATL 170152Z 08010KT 10SM SCT006 BKN012 OVC030 23/21 A3010 RMK AO2 SLP184 T02280211 $=
202109170052 SPECI KATL 170052Z 09008KT 10SM SCT006 BKN020 BKN200 22/21 A3008 RMK AO2 SLP178 SCT006 V BKN T02220211 $=
202109170052 METAR KATL 170052Z 09008KT 10SM SCT006 BKN020 BKN200 22/21 A3008 RMK AO2 SLP178 SCT006 V BKN T02220211 $=
202109162352 METAR KATL 162352Z 09010KT 10SM SCT006 BKN015 OVC030 23/21 A3006 RMK AO2 RAE15 SLP169 SCT006 V BKN P0000 60028 T02280211 10250 20222 51008=
202109162252 METAR KATL 162252Z 09010KT 6SM -RA BR SCT007 BKN015 OVC040 23/21 A3005 RMK AO2 RAB19 SLP168 P0005 T02280211=
202109162221 SPECI KATL 162221Z 11012KT 5SM -RA SCT009 BKN020TCU BKN060 BKN200 24/21 A3004 RMK AO2 RAB19 TCU OHD-ALQDS P0000 T02390211=
202109162152 METAR KATL 162152Z 08008KT 10SM FEW007 SCT020 BKN060 BKN200 24/21 A3004 RMK AO2 RAE00 SLP163 TCU DSNT ALQDS P0000 T02390211=
202109162127 SPECI KATL 162127Z 08009KT 10SM FEW007 SCT020 BKN060 BKN200 23/21 A3003 RMK AO2 RAE00 TCU DSNT ALQDS P0000 T02330211=
202109162052 METAR KATL 162052Z 07008KT 6SM -RA BR SCT006 BKN015 OVC045 23/22 A3003 RMK AO2 SLP161 BINOVC P0004 60023 T02330217 56013=
202109162049 SPECI KATL 162049Z 08009KT 5SM -RA BR SCT006 BKN015 OVC045 23/21 A3003 RMK AO2 BINOVC P0004=
202109161952 METAR KATL 161952Z 09008KT 2 1/2SM -RA BR SCT006 BKN024CB OVC050 23/21 A3004 RMK AO2 SFC VIS 3 RAB17 SLP164 CB NW-NE MOV NW P0019 T02280211=
202109161943 SPECI KATL 161943Z 09008KT 2 1/2SM R09R/6000VP6000FT -RA BR FEW005 BKN018CB OVC036 23/21 A3004 RMK AO2 RAB17 CB NE-OHD-SW MOV NW P0019 T02280211=
202109161930 SPECI KATL 161930Z 09010KT 1SM R09R/4000VP6000FT +RA BR FEW005 BKN018CB OVC032 23/21 A3004 RMK AO2 RAB17 CB NE-OHD-SW MOV NW P0013 T02280211=
202109161917 SPECI KATL 161917Z 13010KT 1 1/2SM +RA SCT010 BKN014CB OVC050 24/21 A3004 RMK AO2 RAB17 CB NE-OHD-SW MOV NW P0000 T02390211=
202109161852 METAR KATL 161852Z 08008KT 10SM SCT010 BKN014TCU OVC040 24/21 A3005 RMK AO2 RAE26 SLP167 TCU NE-SE-SW SHRA NE-SE-SW BINOVC P0000 T02440211=
202109161815 SPECI KATL 161815Z 08008KT 6SM -RA BR SCT008 BKN014 OVC035 23/21 A3006 RMK AO2 P0000 T02330211=
202109161752 METAR KATL 161752Z 11009KT 6SM -RA BKN012 OVC028 23/21 A3007 RMK AO2 RAB05E16B47DZB16E27 SLP174 VIS LWR NW-NE CIG 010V014 P0000 60002 T02330206 10239 20211 58001=
202109161727 SPECI KATL 161727Z 11008KT 10SM BKN012 OVC022 23/21 A3007 RMK AO2 RAB05E16DZB16E27 CIG 010V014 P0000 T02280206=
202109161652 METAR KATL 161652Z 10008KT 10SM BKN008 OVC022 23/21 A3007 RMK AO2 DZE36 SLP176 CIG 006V010 P0000 T02330206=
202109161552 METAR KATL 161552Z 09009KT 6SM -DZ BR OVC008 22/21 A3008 RMK AO2 RAE1457DZB11E29B51 SLP178 CIG 006V010 P0000 T02220206=
202109161452 METAR KATL 161452Z 11007KT 5SM -RA BR OVC006 22/20 A3007 RMK AO2 DZB39E50 SLP176 CIG 004V008 P0002 60002 T02170200 51016=
202109161352 METAR KATL 161352Z 10007KT 7SM -RA OVC007 22/20 A3006 RMK AO2 RAB47 SLP171 CIG 005V009 P0000 T02170200=
202109161252 METAR KATL 161252Z 11008KT 3SM BKN007 OVC020 21/20 A3005 RMK AO2 SFC VIS 7 SLP168 RAE05DZB05E12 CIG 005V009 P0000 T02110200=
202109161245 SPECI KATL 161245Z 11007KT 3SM BKN007 BKN013 OVC050 21/20 A3005 RMK AO2 SFC VIS 7 RAE05DZB05E12 CIG 006V009 P0000 T02110200=
202109161152 METAR KATL 161152Z 09008KT 1 1/2SM -RA BR BKN005 OVC035 21/20 A3002 RMK AO2 SFC VIS 3 SLP159 P0002 60015 70059 T02110200 10211 20206 53009=
202109161052 METAR KATL 161052Z 10005KT 1 1/2SM -RA BR BKN005 BKN009 OVC018 21/20 A3001 RMK AO2 SFC VIS 5 SLP156 CIG 004V007 TWRINC P0003 T02110200=
202109161027 SPECI KATL 161027Z 09007KT 1 1/2SM -RA BR BKN005 OVC015 21/20 A3001 RMK AO2 SFC VIS 4 CIG 004V007 TWRINC P0001 T02110200=
202109160952 METAR KATL 160952Z 10005KT 1SM R09R/P6000FT -RA BR BKN005 OVC023 21/19 A3000 RMK AO2 SFC VIS 4 RAB0856 SLP151 CIG 004V006 TWRINC P0007 T02060194=
202109160852 METAR KATL 160852Z 09004KT 1SM R09R/P6000FT BR BKN005 BKN010 OVC023 21/19 A2999 RMK AO2 SFC VIS 5 RAE52 SLP149 CIG 004V006 TWRINC P0003 60003 T02060194 56008=
202109160752 METAR KATL 160752Z 09006KT 1SM R09R/P6000FT -RA BR BKN005 OVC010 21/19 A3000 RMK AO2 SFC VIS 5 DZE51RAB51 SLP150 CIG 004V006 TWRINC P0000 T02060194=
202109160652 METAR KATL 160652Z 09008KT 1SM R09R/P6000FT -DZ BR OVC005 21/19 A3000 RMK AO2 SFC VIS 6 SLP152 CIG 004V007 TWRINC P0000 T02060194=
202109160552 METAR KATL 160552Z 09009KT 1SM R09R/P6000FT -DZ BR BKN005 OVC010 21/19 A3002 RMK AO2 SFC VIS 6 SLP157 RAE0458DZB0458E20B40 CIG 004V007 P0000 60030 T02060194 10217 20206 58007=
202109160521 SPECI KATL 160521Z 08011KT 1SM R09R/P6000FT BKN005 OVC010 21/19 A3002 RMK AO2 SFC VIS 7 RAE0458DZB0458E20 CIG 004V007 P0000 T02110194=
202109160516 SPECI KATL 160516Z 08009KT 1SM R09R/P6000FT -DZ OVC004 21/19 A3002 RMK AO2 SFC VIS 10 RAE0458DZB0458 P0000 T02110194=
202109160452 METAR KATL 160452Z 08008KT 9SM -RA BKN005 BKN012 OVC070 21/20 A3002 RMK AO2 SLP158 P0001 T02110200 402610206=
202109160352 METAR KATL 160352Z 09010KT 4SM -RA BR BKN006 BKN012 OVC070 21/19 A3004 RMK AO2 SLP163 P0014 T02110194=
202109160252 METAR KATL 160252Z 09011KT 3SM -RA BR BKN005 BKN015 OVC070 21/19 A3004 RMK AO2 SLP164 P0006 60015 T02060194 52012=
202109160152 METAR KATL 160152Z 08009KT 4SM -RA BR BKN006 BKN012 OVC090 21/19 A3003 RMK AO2 SLP161 P0004 T02060194=
202109160133 SPECI KATL 160133Z 07011KT 5SM -RA BR SCT006 BKN012 OVC090 21/19 A3002 RMK AO2 P0003 T02060194=
202109160052 METAR KATL 160052Z 06011KT 6SM -RA BR FEW006 BKN055 OVC090 21/19 A3001 RMK AO2 SLP155 P0005 T02060189=
202109152352 METAR KATL 152352Z 06006KT 5SM -RA FEW012 BKN055 OVC080 21/18 A3000 RMK AO2 SLP152 P0003 60013 T02110183 10244 20211 51002=
202109152252 METAR KATL 152252Z 03006KT 6SM -RA FEW012 BKN045 OVC100 22/18 A3000 RMK AO2 SLP151 P0002 T02170178=
202109152152 METAR KATL 152152Z 09004KT 4SM -RA FEW015 BKN035 OVC060 21/18 A3000 RMK AO2 SLP152 P0005 T02110183=
202109152052 METAR KATL 152052Z 11005KT 7SM -RA FEW016 BKN046 OVC070 23/19 A3000 RMK AO2 SLP150 P0000 60003 T02280189 55010=
202109151952 METAR KATL 151952Z 15003KT 10SM -RA FEW046 SCT075 BKN100 OVC130 24/19 A2999 RMK AO2 RAE09B51 SLP147 ACC E-S PCPN VRY LGT P0000 T02390194=
202109151852 METAR KATL 151852Z 17004KT 8SM -RA FEW022TCU SCT048 BKN075 OVC130 23/21 A3000 RMK AO2 SLP150 TCU OHD-NW P0003 T02330206=
202109151752 METAR KATL 151752Z 16005KT 5SM -RA FEW020TCU SCT048 OVC075 24/21 A3003 RMK AO2 SLP160 TCU SE-SW NW P0001 60001 T02440211 10261 20228 58004=
202109151652 METAR KATL 151652Z 18005KT 8SM -RA FEW050 BKN075 OVC100 25/20 A3004 RMK AO2 RAB50 SLP164 P0000 T02500200=
202109151552 METAR KATL 151552Z 14006KT 10SM FEW030 BKN100 OVC140 26/20 A3004 RMK AO2 SLP162 TCU DSNT NW T02560200=
202109151452 METAR KATL 151452Z 14006KT 9SM FEW075 BKN100 OVC140 25/21 A3004 RMK AO2 SLP163 T02500206 53008=
202109151352 METAR KATL 151352Z VRB03KT 9SM BKN110 BKN140 OVC200 24/21 A3003 RMK AO2 SLP160 T02390211=
202109151252 METAR KATL 151252Z 21003KT 10SM FEW010 BKN120 BKN140 BKN250 23/21 A3002 RMK AO2 SLP158 T02330206=
202109151152 METAR KATL 151152Z 00000KT 10SM SCT110 BKN150 BKN180 BKN250 23/21 A3002 RMK AO2 SLP155 T02330206 10239 20222 53007=
202109151052 METAR KATL 151052Z 00000KT 10SM FEW050 SCT150 BKN180 BKN250 23/20 A3000 RMK AO2 SLP147 T02330200=
202109150952 METAR KATL 150952Z 02004KT 10SM FEW050 BKN180 OVC250 24/20 A2999 RMK AO2 SLP146 T02390200=
202109150852 METAR KATL 150852Z 00000KT 10SM SCT050 BKN250 23/20 A3000 RMK AO2 SLP146 T02280200 56009=
202109150752 METAR KATL 150752Z 00000KT 10SM SCT050 BKN200 BKN250 23/20 A3000 RMK AO2 SLP148 T02280200=
202109150652 METAR KATL 150652Z 32004KT 10SM FEW200 BKN250 23/20 A3001 RMK AO2 SLP151 T02280200=
202109150552 METAR KATL 150552Z 30005KT 10SM FEW045 BKN200 BKN250 23/20 A3002 RMK AO2 SLP155 T02330200 10267 20233 58007=
202109150452 METAR KATL 150452Z 27004KT 10SM SCT150 BKN200 BKN250 23/20 A3004 RMK AO2 SLP160 T02330200 403060217=
202109150352 METAR KATL 150352Z 27004KT 10SM BKN150 BKN250 24/21 A3004 RMK AO2 SLP163 T02390206=
202109150252 METAR KATL 150252Z 25003KT 10SM FEW045 SCT150 BKN200 BKN250 24/21 A3004 RMK AO2 SLP162 T02440206 52013=
202109150152 METAR KATL 150152Z 26005KT 10SM SCT045 BKN060 BKN200 BKN250 26/21 A3003 RMK AO2 SLP159 T02560206=
202109150052 METAR KATL 150052Z 22003KT 10SM FEW100 BKN200 BKN250 26/19 A3001 RMK AO2 SLP154 T02560189=
202109142352 METAR KATL 142352Z 19005KT 10SM FEW055 SCT100 BKN200 BKN250 27/18 A3001 RMK AO2 SLP151 T02670183 10306 20267 55000=
202109142252 METAR KATL 142252Z 19004KT 10SM FEW055 BKN200 BKN250 28/17 A3000 RMK AO2 SLP150 MDT CU NW-N T02830167=
202109142152 METAR KATL 142152Z 18005KT 10SM FEW060 SCT200 BKN250 29/17 A3000 RMK AO2 SLP148 MDU CU S SW NW-N T02940167=
202109142052 METAR KATL 142052Z 14009KT 080V170 10SM FEW060 FEW090 SCT200 BKN250 31/17 A3001 RMK AO2 SLP150 MDT CU ALQDS T03060172 56020=
202109141952 METAR KATL 141952Z 12005KT 10SM FEW055 SCT085 BKN200 BKN250 31/18 A3002 RMK AO2 SLP153 MDT CU ALQDS T03060178=
202109141852 METAR KATL 141852Z 00000KT 10SM FEW055TCU SCT090 SCT200 BKN250 29/18 A3004 RMK AO2 SLP161 CB DSNT NW TCU N SE-SW T02890178=
202109141752 METAR KATL 141752Z 00000KT 10SM SCT046TCU SCT065 SCT200 BKN250 29/17 A3007 RMK AO2 SLP170 TCU ALQDS T02890167 10306 20217 58018=
202109141652 METAR KATL 141652Z 31005KT 10SM SCT044TCU SCT200 BKN250 29/18 A3009 RMK AO2 SLP177 TCU ALQDS T02940178=
202109141552 METAR KATL 141552Z VRB03KT 10SM SCT038TCU SCT050 SCT200 BKN250 28/19 A3011 RMK AO2 SLP185 TCU SW DSNT SW-NW MDT CU N SE-S T02830189=
202109141452 METAR KATL 141452Z 00000KT 10SM FEW046 SCT200 SCT250 28/19 A3012 RMK AO2 SLP189 T02780194 50001=
202109141352 METAR KATL 141352Z 00000KT 10SM FEW048 SCT200 SCT250 27/19 A3012 RMK AO2 SLP190 T02670194=
202109141252 METAR KATL 141252Z 00000KT 10SM FEW046 BKN200 BKN250 24/21 A3012 RMK AO2 SLP189 T02390206=
202109141152 METAR KATL 141152Z 27003KT 10SM FEW050 BKN200 BKN250 22/19 A3012 RMK AO2 SLP190 T02170194 10239 20217 52008=
202109141052 METAR KATL 141052Z 00000KT 10SM FEW050 SCT200 SCT250 22/19 A3011 RMK AO2 SLP187 T02170194=
202109140952 METAR KATL 140952Z 00000KT 10SM SCT200 BKN250 23/20 A3010 RMK AO2 SLP181 T02280200=
202109140852 METAR KATL 140852Z 00000KT 10SM SCT200 BKN250 23/19 A3009 RMK AO2 SLP179 T02280194 56010=
202109140752 METAR KATL 140752Z 00000KT 10SM SCT200 BKN250 23/20 A3010 RMK AO2 SLP182 T02330200=
202109140652 METAR KATL 140652Z 30003KT 10SM SCT200 BKN250 24/21 A3011 RMK AO2 SLP185 T02390206=
202109140552 METAR KATL 140552Z 30004KT 10SM SCT200 BKN250 24/21 A3012 RMK AO2 SLP189 T02390206 10272 20233 58006=
202109140452 METAR KATL 140452Z 27004KT 10SM SCT200 BKN250 24/21 A3013 RMK AO2 SLP192 T02390206 403110200=
202109140352 METAR KATL 140352Z 28003KT 10SM FEW200 BKN250 24/20 A3014 RMK AO2 SLP195 T02440200=
202109140252 METAR KATL 140252Z 28004KT 10SM FEW200 BKN250 24/20 A3014 RMK AO2 SLP196 T02440200 51007=
202109140152 METAR KATL 140152Z 28004KT 10SM FEW200 BKN250 25/19 A3013 RMK AO2 SLP194 T02500194=
202109140052 SPECI KATL 140052Z 29004KT 10SM FEW200 BKN250 27/19 A3013 RMK AO2 SLP193 T02670189=
202109140052 METAR KATL 140052Z 29004KT 10SM FEW200 BKN250 27/19 A3013 RMK AO2 SLP193 T02670189=
202109132352 METAR KATL 132352Z 29006KT 10SM FEW050 SCT200 BKN250 27/18 A3012 RMK AO2 SLP190 T02670183 10311 20267 58004=
202109132252 METAR KATL 132252Z 30007KT 10SM FEW050 BKN250 29/17 A3012 RMK AO2 SLP191 T02940167=
202109132152 METAR KATL 132152Z 34003KT 10SM FEW050 BKN250 31/17 A3013 RMK AO2 SLP191 T03110172=
202109132052 METAR KATL 132052Z VRB05KT 10SM FEW050 BKN250 31/18 A3013 RMK AO2 SLP192 MDT CU SE-SW T03110178 58028=
202109131952 METAR KATL 131952Z 35005KT 10SM FEW055 BKN250 31/18 A3016 RMK AO2 SLP202 MDT CU ALQDS T03110178=
202109131852 METAR KATL 131852Z VRB04KT 10SM FEW050 BKN250 31/18 A3019 RMK AO2 SLP213 MDT CU ALQDS T03060178=
202109131752 METAR KATL 131752Z 35006KT 10SM SCT040 BKN250 31/18 A3022 RMK AO2 SLP222 MDT CU ALQDS T03110183 10311 20211 58014=
202109131652 METAR KATL 131652Z 34006KT 10SM SCT033 BKN250 29/19 A3024 RMK AO2 SLP230 MDT CU ALQDS T02890194=
202109131552 METAR KATL 131552Z 28009KT 10SM FEW037 BKN250 28/19 A3026 RMK AO2 SLP237 T02830194=
202109131452 METAR KATL 131452Z 28007KT 10SM SCT250 27/19 A3026 RMK AO2 SLP237 T02720189 53003=
202109131352 METAR KATL 131352Z 28006KT 10SM FEW250 26/18 A3025 RMK AO2 SLP234 T02560178=
202109131252 METAR KATL 131252Z 28003KT 10SM FEW250 23/18 A3025 RMK AO2 SLP236 T02280178=
202109131152 METAR KATL 131152Z 26003KT 10SM FEW060 FEW250 21/17 A3025 RMK AO2 SLP236 T02110167 10217 20200 53005=
202109131052 METAR KATL 131052Z 00000KT 10SM FEW250 21/17 A3025 RMK AO2 SLP234 T02060167=
202109130952 METAR KATL 130952Z 00000KT 10SM FEW250 21/16 A3024 RMK AO2 SLP231 T02060161=
202109130852 METAR KATL 130852Z 00000KT 10SM FEW250 21/17 A3024 RMK AO2 SLP230 T02060167 56010=
202109130752 METAR KATL 130752Z 23003KT 10SM FEW250 21/17 A3025 RMK AO2 SLP233 T02060167=
202109130652 METAR KATL 130652Z 00000KT 10SM FEW250 21/17 A3026 RMK AO2 SLP236 T02110172=
202109130552 METAR KATL 130552Z 21003KT 10SM FEW250 22/18 A3027 RMK AO2 SLP240 T02170178 10267 20217 58002=
202109130452 METAR KATL 130452Z 00000KT 10SM FEW250 22/18 A3027 RMK AO2 SLP242 T02220178 402940183=
202109130352 METAR KATL 130352Z 00000KT 10SM FU BKN250 23/18 A3028 RMK AO2 SLP244 FU BKN250 T02280183=
202109130252 METAR KATL 130252Z 16003KT 10SM FU BKN250 23/18 A3028 RMK AO2 SLP244 FU BKN250 T02280183 51012=
202109130152 METAR KATL 130152Z 00000KT 8SM FU BKN250 24/18 A3027 RMK AO2 SLP242 FU BKN250 T02440183=
202109130052 METAR KATL 130052Z 00000KT 10SM FU BKN250 25/18 A3025 RMK AO2 SLP237 FU BKN250 T02500183=
202109122352 METAR KATL 122352Z 13005KT 10SM FU FEW050 BKN250 27/18 A3024 RMK AO2 SLP232 FU BKN250 T02670178 10294 20267 55003=
202109122252 METAR KATL 122252Z 13007KT 10SM FEW048 FEW060 28/17 A3024 RMK AO2 SLP230 T02780172=
202109122152 METAR KATL 122152Z 00000KT 10SM SCT050 28/17 A3024 RMK AO2 SLP231 T02830172=
202109122052 METAR KATL 122052Z 12003KT 10SM FEW048 29/17 A3025 RMK AO2 SLP235 MDT CU SE-SW-NW T02890172 56018=
202109121952 METAR KATL 121952Z 13004KT 10SM SCT047 29/18 A3026 RMK AO2 SLP239 MDT CU ALQDS T02890178=
202109121852 METAR KATL 121852Z 15006KT 10SM SCT045 29/17 A3029 RMK AO2 SLP247 MDT CU ALQDS T02890172=
202109121752 METAR KATL 121752Z VRB03KT 10SM SCT042 28/18 A3031 RMK AO2 SLP254 MDT CU ALQDS T02830183 10289 20189 58008=
202109121652 METAR KATL 121652Z 00000KT 10SM FEW033 27/18 A3031 RMK AO2 SLP257 MDT CU ALQDS T02720183=
202109121552 METAR KATL 121552Z 16006KT 10SM FEW023 26/19 A3033 RMK AO2 SLP262 T02610194=
202109121452 METAR KATL 121452Z 17004KT 10SM FEW060 24/20 A3033 RMK AO2 SLP262 T02440200 51012=
202109121352 METAR KATL 121352Z 19006KT 10SM FEW060 22/19 A3032 RMK AO2 SLP258 T02220194=
202109121252 METAR KATL 121252Z 15003KT 10SM FEW060 20/17 A3031 RMK AO2 SLP255 T02000172=
202109121152 METAR KATL 121152Z 00000KT 10SM FEW060 FEW200 19/16 A3029 RMK AO2 SLP250 T01890161 10206 20183 53009=
202109121052 METAR KATL 121052Z 00000KT 10SM FEW200 19/16 A3027 RMK AO2 SLP244 T01890156=
202109120952 METAR KATL 120952Z 00000KT 10SM CLR 19/16 A3026 RMK AO2 SLP239 T01890156=
202109120852 METAR KATL 120852Z 00000KT 10SM CLR 19/16 A3026 RMK AO2 SLP239 T01940156 55001=
202109120752 METAR KATL 120752Z 00000KT 10SM CLR 20/16 A3026 RMK AO2 SLP238 T02000156=
202109120652 METAR KATL 120652Z 00000KT 10SM CLR 20/16 A3026 RMK AO2 SLP238 T02000161=
202109120552 METAR KATL 120552Z 00000KT 10SM CLR 21/16 A3026 RMK AO2 SLP240 T02060161 10250 20200 50002=
202109120452 METAR KATL 120452Z 00000KT 10SM CLR 21/16 A3027 RMK AO2 SLP241 T02110156 402890183=
202109120352 METAR KATL 120352Z 15003KT 10SM FEW250 22/16 A3027 RMK AO2 SLP241 T02170161=
202109120252 METAR KATL 120252Z 16003KT 10SM FEW060 FEW250 22/16 A3026 RMK AO2 SLP238 T02220161 51018=
202109120152 METAR KATL 120152Z 15005KT 10SM FEW060 FEW250 23/16 A3025 RMK AO2 SLP235 T02280161=
202109120052 METAR KATL 120052Z 15004KT 10SM FEW060 FEW250 24/16 A3022 RMK AO2 SLP226 T02390156=
202109112352 METAR KATL 112352Z 15004KT 10SM FEW060 FEW070 FEW250 25/16 A3021 RMK AO2 SLP221 T02500156 10289 20250 53003=
202109112252 METAR KATL 112252Z 16005KT 10SM FEW060 FEW070 27/15 A3020 RMK AO2 SLP220 T02670150=
202109112152 METAR KATL 112152Z 12004KT 10SM FEW060 SCT070 27/13 A3020 RMK AO2 SLP217 T02720133=
202109112052 METAR KATL 112052Z 15006KT 10SM FEW060 27/14 A3020 RMK AO2 SLP217 MDT CU S-W T02720139 56015=
202109111952 METAR KATL 111952Z 12007KT 10SM SCT055 SCT070 28/14 A3021 RMK AO2 SLP220 MDT CU SE-SW-NW T02780144=
202109111852 METAR KATL 111852Z 16005KT 10SM SCT055 28/15 A3022 RMK AO2 SLP226 MDT CU ALQDS T02780150=
202109111752 METAR KATL 111752Z VRB03KT 10SM SCT055 27/15 A3024 RMK AO2 SLP232 MDT CU ALQDS T02670150 10283 20189 58003=
202109111652 METAR KATL 111652Z 00000KT 10SM SCT050 28/16 A3025 RMK AO2 SLP235 MDT CU ALQDS T02780156=
202109111552 METAR KATL 111552Z VRB04KT 10SM FEW040 26/16 A3026 RMK AO2 SLP238 T02610156=
202109111452 METAR KATL 111452Z 14006KT 10SM CLR 25/16 A3025 RMK AO2 SLP236 T02500156 51012=
202109111352 METAR KATL 111352Z 13005KT 10SM FEW060 23/17 A3024 RMK AO2 SLP231 T02280167=
202109111252 METAR KATL 111252Z 11003KT 10SM FEW060 21/16 A3023 RMK AO2 SLP228 T02110156=
202109111152 METAR KATL 111152Z 08003KT 10SM SCT055 19/15 A3022 RMK AO2 SLP224 T01890150 10211 20183 53015=
202109111052 METAR KATL 111052Z 09004KT 10SM FEW050 18/14 A3019 RMK AO2 SLP217 T01830144=
202109110952 METAR KATL 110952Z 09004KT 10SM FEW050 19/14 A3017 RMK AO2 SLP209 T01890144=
202109110852 METAR KATL 110852Z 08004KT 10SM SCT050 19/14 A3017 RMK AO2 SLP207 T01940144 53003=
202109110752 METAR KATL 110752Z 07004KT 10SM CLR 20/14 A3016 RMK AO2 SLP205 T02000144=
202109110652 METAR KATL 110652Z 09004KT 10SM CLR 20/14 A3016 RMK AO2 SLP205 T02000144=
202109110552 METAR KATL 110552Z 08004KT 10SM CLR 21/14 A3016 RMK AO2 SLP204 T02060144 10256 20206 51008=
202109110452 METAR KATL 110452Z 04005KT 10SM CLR 22/14 A3016 RMK AO2 SLP203 T02220144 402830161=
202109110352 METAR KATL 110352Z 08003KT 10SM FEW060 22/14 A3015 RMK AO2 SLP200 T02220139=
202109110252 METAR KATL 110252Z 08007KT 10SM FEW060 23/14 A3013 RMK AO2 SLP195 T02280144 53018=
202109110152 METAR KATL 110152Z 02006KT 10SM FEW060 24/13 A3011 RMK AO2 SLP187 T02440128=
202109110052 METAR KATL 110052Z 02007KT 10SM FEW060 25/13 A3009 RMK AO2 SLP181 T02500133=
202109102352 METAR KATL 102352Z 12003KT 10SM SCT060 SCT250 25/12 A3008 RMK AO2 SLP179 T02500122 10283 20250 54000=
202109102252 METAR KATL 102252Z 15004KT 10SM SCT060 SCT250 26/13 A3008 RMK AO2 SLP179 T02610128=
202109102152 METAR KATL 102152Z VRB03KT 10SM SCT060 SCT250 27/11 A3008 RMK AO2 SLP177 T02720111=
202109102052 METAR KATL 102052Z 00000KT 10SM SCT065 SCT250 27/12 A3008 RMK AO2 SLP178 T02670122 56012=
202109101952 METAR KATL 101952Z VRB03KT 10SM SCT065 SCT200 28/13 A3009 RMK AO2 SLP180 T02780133=
202109101852 METAR KATL 101852Z 23004KT 10SM SCT065 SCT250 27/13 A3010 RMK AO2 SLP185 T02670128=
202109101752 METAR KATL 101752Z 13006KT 10SM FEW060 SCT250 27/13 A3012 RMK AO2 SLP190 T02670128 10267 20178 58005=
202109101652 METAR KATL 101652Z 12007KT 10SM SCT250 26/13 A3012 RMK AO2 SLP192 T02560128=
202109101552 METAR KATL 101552Z 11008KT 10SM FEW080 SCT250 25/13 A3013 RMK AO2 SLP195 T02500128=
202109101452 METAR KATL 101452Z 09010KT 10SM FEW080 FEW110 SCT250 24/13 A3013 RMK AO2 SLP195 T02390128 51015=
202109101352 METAR KATL 101352Z 06008KT 10SM FEW075 FEW100 SCT250 23/12 A3012 RMK AO2 SLP191 ACC DSNT SW T02280122=
202109101252 METAR KATL 101252Z 04006KT 10SM FEW070 FEW100 FEW250 22/12 A3011 RMK AO2 SLP188 ACC DSNT S-SW T02170122=
202109101152 METAR KATL 101152Z 35003KT 10SM FEW100 FEW150 FEW250 18/13 A3009 RMK AO2 SLP181 ACC S T01780128 10183 20161 53023=
202109101052 METAR KATL 101052Z 33004KT 10SM FEW150 FEW250 17/12 A3006 RMK AO2 SLP173 T01670122=
202109100952 METAR KATL 100952Z 33005KT 10SM FEW250 17/13 A3004 RMK AO2 SLP163 T01670128=
202109100852 METAR KATL 100852Z 34007KT 10SM FEW250 17/13 A3002 RMK AO2 SLP157 T01720133 55001=
202109100752 METAR KATL 100752Z 33006KT 10SM FEW250 17/13 A3001 RMK AO2 SLP155 T01720133=
202109100652 METAR KATL 100652Z 33005KT 10SM SCT250 18/13 A3001 RMK AO2 SLP155 T01780133=
202109100552 METAR KATL 100552Z 33004KT 10SM SCT250 18/13 A3002 RMK AO2 SLP158 T01830133 10250 20183 51007=
202109100452 METAR KATL 100452Z 33005KT 10SM SCT250 19/13 A3002 RMK AO2 SLP155 T01890133 402890189=
202109100352 METAR KATL 100352Z 33007KT 10SM FEW200 SCT250 19/13 A3002 RMK AO2 SLP156 T01940133=
202109100252 METAR KATL 100252Z 32007KT 10SM FEW200 SCT250 21/13 A3000 RMK AO2 SLP151 T02110128 53019=
202109100152 METAR KATL 100152Z 34007KT 10SM FEW200 BKN250 23/12 A2999 RMK AO2 SLP146 T02280122=
202109100052 METAR KATL 100052Z 33008KT 10SM FEW200 BKN250 23/12 A2996 RMK AO2 SLP137 T02330117=
202109092352 METAR KATL 092352Z 34008KT 10SM FEW070 SCT200 BKN250 25/11 A2995 RMK AO2 SLP131 T02500111 10289 20250 53011=
202109092252 METAR KATL 092252Z 34011KT 10SM FEW070 SCT200 BKN250 27/11 A2993 RMK AO2 PK WND 34027/2220 SLP126 T02670111=
202109092152 METAR KATL 092152Z 34012KT 10SM FEW070 SCT200 BKN250 27/10 A2991 RMK AO2 SLP119 T02720100=
202109092052 METAR KATL 092052Z 32011G22KT 10SM FEW070 SCT200 SCT250 28/11 A2991 RMK AO2 SLP119 T02780106 58002=
202109091952 METAR KATL 091952Z 33013G22KT 10SM FEW065 SCT200 SCT250 28/11 A2991 RMK AO2 SLP119 T02830111=
202109091852 METAR KATL 091852Z 31013G22KT 10SM FEW060 SCT200 SCT250 28/13 A2992 RMK AO2 SLP120 T02780128=
202109091752 METAR KATL 091752Z 32016G22KT 10SM FEW055 SCT200 SCT250 27/11 A2992 RMK AO2 SLP120 T02720111 10278 20222 51001=
202109091652 METAR KATL 091652Z 32016G21KT 10SM FEW044 SCT200 SCT250 27/13 A2992 RMK AO2 SLP120 T02720133=
202109091552 METAR KATL 091552Z 31012G21KT 10SM FEW038 SCT250 26/18 A2992 RMK AO2 SLP121 T02610178=
202109091452 METAR KATL 091452Z 33010KT 10SM FEW026 FEW100 FEW250 24/18 A2991 RMK AO2 SLP120 T02440183 51015=
202109091352 METAR KATL 091352Z 31010KT 10SM FEW016 SCT095 SCT250 23/18 A2990 RMK AO2 SLP114 ACC E-S W-NW T02280183=
202109091252 METAR KATL 091252Z 31013KT 10SM FEW010 SCT013 SCT050 BKN250 22/19 A2989 RMK AO2 SLP113 T02220189=
202109091212 SPECI KATL 091212Z 29007KT 10SM FEW008 SCT015 SCT050 BKN250 22/20 A2988 RMK AO2 T02220200=
202109091152 METAR KATL 091152Z 30005KT 10SM FEW008 SCT014 BKN020 BKN250 22/20 A2987 RMK AO2 SLP104 60000 T02220200 10228 20222 52003=
202109091052 METAR KATL 091052Z 29007KT 10SM SCT008 BKN014 OVC022 23/21 A2987 RMK AO2 SLP104 SCT008 V BKN BINOVC T02280206=
202109091049 SPECI KATL 091049Z 30008KT 10SM FEW008 OVC022 23/21 A2987 RMK AO2 BINOVC=
202109091006 SPECI KATL 091006Z 27008KT 10SM BKN008 BKN013 OVC020 23/21 A2986 RMK AO2 BINOVC T02280211=
202109090952 METAR KATL 090952Z 31005KT 10SM SCT008 BKN013 OVC022 23/21 A2986 RMK AO2 SLP100 SCT008 V BKN BINOVC T02280211=
202109090942 SPECI KATL 090942Z 28005KT 10SM SCT008 BKN012 BKN025 23/21 A2985 RMK AO2 T02280211=
202109090852 METAR KATL 090852Z 25005KT 10SM BKN009 BKN013 OVC019 23/21 A2985 RMK AO2 SLP099 BINOVC 60000 T02280211 56009=
202109090752 METAR KATL 090752Z 24004KT 10SM BKN007 OVC012 23/21 A2986 RMK AO2 RAB07E16 SLP101 P0000 T02280211=
202109090652 METAR KATL 090652Z 23004KT 10SM BKN007 BKN012 OVC050 23/21 A2987 RMK AO2 SLP104 T02280211=
202109090552 METAR KATL 090552Z 21005KT 10SM BKN008 OVC014 23/21 A2988 RMK AO2 SLP109 BINOVC T02280211 10244 20228 58004=
202109090529 SPECI KATL 090529Z 22004KT 10SM BKN008 OVC014 23/21 A2990 RMK AO2 T02280211=
202109090520 SPECI KATL 090520Z 23008KT 10SM SCT008 BKN012 BKN050 OVC200 23/21 A2990 RMK AO2 T02280211=
202109090452 METAR KATL 090452Z 20006KT 10SM SCT008 BKN015 BKN050 OVC200 23/21 A2990 RMK AO2 SLP115 T02280211 402890217=
202109090352 METAR KATL 090352Z 19005KT 10SM SCT008 BKN017 BKN050 BKN200 23/21 A2990 RMK AO2 SLP115 T02280211=
202109090252 METAR KATL 090252Z VRB04KT 10SM FEW015 BKN200 BKN250 23/21 A2990 RMK AO2 SLP114 T02280211 50006=
202109090152 METAR KATL 090152Z 20003KT 10SM BKN065 BKN200 BKN250 23/21 A2990 RMK AO2 SLP117 T02330211=
202109090052 METAR KATL 090052Z 22006KT 10SM FEW025 SCT100 BKN200 BKN250 24/21 A2989 RMK AO2 SLP113 LTG DSNT N CB DSNT N T02390206=
202109082352 METAR KATL 082352Z 20007KT 10SM FEW025 SCT100 BKN200 OVC250 24/21 A2988 RMK AO2 SLP108 T02440211 10289 20244 55000=
202109082252 METAR KATL 082252Z 22007KT 10SM FEW025 SCT140 BKN200 OVC250 26/22 A2988 RMK AO2 LTG DSNT N AND NE SLP107 CB DSNT N-NE T02560217=
202109082152 METAR KATL 082152Z 20009G19KT 10SM FEW025 SCT120 BKN150 OVC200 26/22 A2987 RMK AO2 LTG DSNT N AND NE SLP104 CB DSNT N-NE T02610217=
202109082052 METAR KATL 082052Z 21009KT 10SM FEW026TCU SCT065 SCT120 BKN200 27/22 A2988 RMK AO2 LTG DSNT NE AND SW SLP108 CB DSNT N NE SE SW TCU W-N-NE T02670222 55013=
202109081952 METAR KATL 081952Z 19010KT 10SM FEW026TCU SCT060 BKN200 BKN250 28/22 A2988 RMK AO2 SLP108 CB DSNT ALQDS TCU E-S DSNT N-NE SW T02830217=
202109081852 METAR KATL 081852Z 22007KT 10SM FEW024 SCT060 BKN200 BKN250 28/22 A2989 RMK AO2 SLP111 CB DSNT N E-S-SW TCU DSNT ALQDS T02830222=
202109081752 METAR KATL 081752Z 21007KT 10SM FEW022 BKN200 BKN250 28/22 A2992 RMK AO2 SLP120 CB DSNT NW-NE T02830222 10289 20217 58016=
202109081652 METAR KATL 081652Z 22006KT 10SM SCT015 BKN200 BKN250 27/23 A2996 RMK AO2 SLP133 T02670228=
202109081630 SPECI KATL 081630Z 17005KT 10SM SCT014 BKN200 BKN250 26/22 A2996 RMK AO2 T02560222=
202109081552 METAR KATL 081552Z 21007KT 10SM OVC013 25/22 A2997 RMK AO2 SLP140 BINOVC T02500222=
202109081452 METAR KATL 081452Z 00000KT 9SM BKN010 BKN180 BKN250 24/22 A2997 RMK AO2 SLP138 T02440222 52004=
202109081352 METAR KATL 081352Z 28004KT 8SM BKN007 BKN140 BKN250 24/22 A2996 RMK AO2 SLP135 T02390217=
202109081345 SPECI KATL 081345Z 27003KT 7SM BKN006 BKN140 BKN250 23/22 A2996 RMK AO2 T02330217=
202109081252 METAR KATL 081252Z 24004KT 1 1/2SM BR BKN003 OVC006 22/21 A2996 RMK AO2 SFC VIS 4 SLP137 VIS LWR S-SW CIG 002V005 TWRINC T02220211=
202109081240 SPECI KATL 081240Z 19005KT 1 1/2SM BR BKN003 OVC008 22/21 A2996 RMK AO2 SFC VIS 6 TWRINC T02220211=
202109081213 SPECI KATL 081213Z 21003KT 7SM FEW004 BKN008 22/21 A2996 RMK AO2 T02220206=
202109081152 METAR KATL 081152Z 19003KT 8SM FEW005 SCT150 SCT250 22/21 A2996 RMK AO2 SLP135 70017 T02170206 10233 20217 50001=
202109081052 METAR KATL 081052Z 16003KT 7SM FEW005 SCT150 SCT250 22/21 A2996 RMK AO2 SLP135 T02220206=
202109080952 METAR KATL 080952Z 08005KT 8SM FEW005 SCT150 22/21 A2996 RMK AO2 SLP136 VIS LWR NW-NE T02220211=
202109080852 METAR KATL 080852Z 06003KT 10SM FEW006 SCT100 SCT180 BKN250 23/21 A2995 RMK AO2 SLP132 T02280211 55008 $=
202109080752 METAR KATL 080752Z 24006KT 10SM FEW080 SCT180 BKN250 23/21 A2992 RMK AO2 SLP123 TSE30 TS DSIPTD T02280211 $=
202109080732 SPECI KATL 080732Z 23005KT 10SM FEW018 FEW032 SCT080 BKN250 23/21 A2993 RMK AO2 TSE30 TS DSIPTD T02280211 $=
202109080652 METAR KATL 080652Z 18003KT 10SM VCTS FEW018CB FEW032 SCT080 SCT150 BKN220 BKN250 23/21 A2996 RMK AO2 SLP135 FRQ LTGIC DSNT SE & SW CB DSNT SE & SW T02280211 $=
202109080552 METAR KATL 080552Z 10004KT 10SM FEW018 FEW032 SCT080 SCT150 SCT220 SCT250 23/21 A2998 RMK AO2 SLP141 TSE15B27E42 FRQ LTGICCG DSNT SE TS MOV SE CB DSNT E-SE 60003 T02330211 10267 20228 50007 $=
202109080543 SPECI KATL 080543Z 11004KT 10SM FEW018 SCT032 SCT080 SCT150 SCT180 SCT250 23/21 A2998 RMK AO2 TSE15B27E42 FRQ LTGICCG DSNT SE TS MOV SE CB DSNT E-SE T02330211 $=
202109080529 SPECI KATL 080529Z 05007KT 10SM VCTS FEW018CB SCT032 SCT080 SCT150 BKN180 BKN250 24/21 A2999 RMK AO2 TSE15B27 OCNL LTGICCG VC SE TS VC SE MOV E CB DSNT NE-SE T02390206 $=
202109080516 SPECI KATL 080516Z 05006KT 10SM SCT018 SCT032 SCT150 BKN180 BKN250 24/21 A2999 RMK AO2 TSE15 OCNL LTGICCG DSNT NE-E TS MOV E CB DSNT NE-SE T02390206 $=
202109080452 METAR KATL 080452Z 03007KT 10SM VCTS SCT020CB BKN032 BKN070 OVC150 23/21 A3000 RMK AO2 RAE03 SLP149 TSB45 FRQ LTGICCG VC NE DSNT NW-NE TS VC NE DSNT NW-NE MOV NE P0000 T02280206 402940217 $=
202109080445 SPECI KATL 080445Z 34006KT 10SM VCTS SCT020CB BKN032 BKN070 OVC150 23/21 A3000 RMK AO2 RAE03 TSB45 FRQ LTGICCG VC NE DSNT NW-NE TS VC NE DSNT NW-NE MOV NE P0000 T02280206 $=
202109080352 METAR KATL 080352Z 31005KT 7SM -RA FEW020 SCT040 BKN070 BKN150 OVC200 23/21 A2997 RMK AO2 WSHFT 0259 PRESRR SLP139 RAB25 TSE36 CONS LTG DSNT NW-NE P0003 T02280206 $=
202109080336 SPECI KATL 080336Z 17009KT 7SM -RA FEW020 SCT050 BKN100 BKN150 OVC200 23/20 A2992 RMK AO2 WSHFT 0259 RAB25 TSE36 CONS LTG DSNT NW-NE TS DSIPTD P0001 T02330200 $=
202109080313 SPECI KATL 080313Z 22013G24KT 10SM TS FEW008 BKN020CB BKN045 OVC200 24/21 A2997 RMK AO2 WSHFT 0259 FRQ LTGICCG S-W-NW DSNT NW-NE TS S-W-NW DSNT NW-NE MOV NE T02440211 $=
202109080252 METAR KATL 080252Z 14006KT 9SM VCTS FEW025CB SCT045 BKN150 BKN250 25/23 A2996 RMK AO2 PRESFR SLP134 TSB51 FRQ LTGICCG VC S-SW DSNT NW-NE TS VC S-SW DSNT NW-NE MOV NE T02500228 50003 $=
202109080152 METAR KATL 080152Z 12005KT 10SM FEW030 SCT150 BKN200 BKN250 26/23 A2997 RMK AO2 SLP138 TSB05E24 LTG DSNT NE SE S-SW NW CB DSNT ALQDS T02560228 $=
202109080124 SPECI KATL 080124Z 10007KT 10SM FEW030TCU SCT150 BKN200 BKN250 26/23 A2996 RMK AO2 TSB05E24 TS DSIPTD LTG DSNT SE S-SW TCU E-SE T02560228 $=
202109080106 SPECI KATL 080106Z 09007KT 10SM VCTS FEW025CB SCT150 BKN200 BKN250 26/23 A2996 RMK AO2 TSB05 OCNL LTGICCG VC SE TS VC SE MOV N T02610228 $=
202109080052 METAR KATL 080052Z 09007KT 10SM FEW025 SCT150 BKN200 BKN250 26/23 A2996 RMK AO2 SLP135 LTG DSNT SE SW CB DSNT NE SE SW T02610228 $=
202109072352 METAR KATL 072352Z 11005KT 10SM FEW025CB SCT150 BKN200 BKN250 27/22 A2995 RMK AO2 SLP132 CB SE DSNT SE-S MOV N 60002 T02670222 10289 20244 50000 $=
202109072252 METAR KATL 072252Z 12005KT 10SM FEW030 FEW120 SCT200 BKN250 28/22 A2995 RMK AO2 SLP133 CB DSNT NW TCU DSNT S T02830222 $=
202109072152 METAR KATL 072152Z 00000KT 10SM FEW030 SCT120 BKN200 BKN250 28/21 A2994 RMK AO2 LTG DSNT NW SLP130 CB DSNT NW-N T02780211 $=
202109072052 METAR KATL 072052Z VRB04KT 10SM FEW032 FEW110 BKN200 BKN250 29/22 A2995 RMK AO2 LTG DSNT N AND NW SLP130 TSE03 TS MOVD NE CB DSNT SE NW-N 60002 T02890222 56019 $=
202109072004 SPECI KATL 072004Z 00000KT 10SM FEW032 FEW090 SCT120 BKN200 27/21 A2996 RMK AO2 TSE03 TS MOVD NE CB DSNT NE SE NW T02670211 $=
202109071952 METAR KATL 071952Z 34004KT 10SM VCTS FEW034CB SCT085 BKN120 BKN200 26/22 A2997 RMK AO2 SLP139 OCNL LTGICCA VC E-SE TS VC E-SE MOV NE CB DSNT NE SE NW T02610217 $=
202109071949 SPECI KATL 071949Z 31004KT 10SM VCTS FEW034CB SCT085 BKN120 BKN200 26/21 A2997 RMK AO2 LTG DSNT ALQDS OCNL LTGICCA VC E-SE TS VC E-SE MOV NE CB DSNT NE SE NW $=
202109071852 METAR KATL 071852Z 31006KT 10SM TS FEW036CB SCT070 BKN110 BKN200 27/21 A2998 RMK AO2 LTG DSNT ALQDS RAE19B36E45 TSB38 SLP143 FRQ LTGICCGCA W-NW TS W-NW MOV NE CB DSNT ALQDS TCU DSNT NE P0002 T02670211 $=
202109071839 SPECI KATL 071839Z 03004KT 10SM -TSRA SCT038CB SCT070 BKN110 BKN200 28/21 A2999 RMK AO2 LTG DSNT NE AND SW AND W RAE19B36 TSB38 OCNL LTGICCA W-NW TS W-NW MOV NE CB DSNT NE SW NW TCU DSNT E P0002 T02780206 $=
202109071752 METAR KATL 071752Z 11006KT 6SM -RA FEW028CB SCT038TCU BKN080 BKN140 BKN200 26/22 A3001 RMK AO2 RAB15 SLP151 VIS LWR SE-S CB SE-S MOV NE TCU N-NE SE SW P0011 60012 T02610217 10294 20228 58009=
202109071652 METAR KATL 071652Z 00000KT 10SM FEW026 SCT070 BKN140 BKN200 28/22 A3001 RMK AO2 SLP154 TCU DSNT SW T02830222=
202109071552 METAR KATL 071552Z 13005KT 8SM FEW014 SCT085 BKN140 BKN200 27/22 A3003 RMK AO2 SLP159 T02720222=
202109071452 METAR KATL 071452Z 09007KT 7SM SCT009 BKN080 BKN140 BKN200 25/22 A3003 RMK AO2 SLP161 60001 T02500217 51005=
202109071450 SPECI KATL 071450Z 09007KT 7SM SCT008 BKN075 BKN140 BKN200 25/22 A3003 RMK AO2=
202109071420 SPECI KATL 071420Z 09006KT 6SM BR BKN007 BKN036 BKN080 OVC140 24/22 A3003 RMK AO2 CIG 005V009 T02390217=
202109071352 METAR KATL 071352Z 08006KT 2SM BR OVC006 24/22 A3003 RMK AO2 SFC VIS 5 RAB1255E14 SLP159 CIG 004V008 BINOVC P0001 T02390222=
202109071326 SPECI KATL 071326Z 07005KT 2SM BR BKN005 BKN036 BKN060 OVC140 23/22 A3003 RMK AO2 SFC VIS 5 RAB1255E14 CIG 004V007 P0001 T02330217=
202109071252 METAR KATL 071252Z VRB03KT 1SM R09R/P6000FT BR OVC004 23/22 A3003 RMK AO2 SFC VIS 2 SLP159 TWRINC T02330217=
202109071235 SPECI KATL 071235Z VRB05KT 1SM R09R/P6000FT BR BKN003 OVC090 23/22 A3002 RMK AO2 SFC VIS 1 1/2 TWRINC T02280217=
202109071204 SPECI KATL 071204Z 08004KT 1SM R09R/P6000FT BR BKN005 BKN095 OVC200 23/21 A3002 RMK AO2 SFC VIS 5 CIG 003V006 TWRINC T02280211=
202109071152 METAR KATL 071152Z 09004KT 6SM BR FEW005 SCT033 BKN100 BKN200 22/21 A3002 RMK AO2 SLP156 60000 T02220206 10228 20217 53014=
202109071052 METAR KATL 071052Z 00000KT 7SM SCT033 BKN110 BKN200 22/21 A3000 RMK AO2 RAE0953 SLP149 P0000 T02220206=
202109070952 METAR KATL 070952Z 09004KT 9SM -RA BKN037 BKN050 BKN100 BKN200 23/21 A2998 RMK AO2 RAB49 SLP143 P0000 T02280206=
202109070852 METAR KATL 070852Z 07003KT 10SM BKN055 23/21 A2997 RMK AO2 SLP141 T02280206 53005=
202109070752 METAR KATL 070752Z 11004KT 10SM FEW020 SCT095 SCT200 BKN250 22/20 A2996 RMK AO2 SLP135 T02220200=
202109070652 METAR KATL 070652Z 19003KT 8SM FEW050 FEW100 SCT200 BKN250 22/20 A2996 RMK AO2 SLP136 T02170200=
202109070552 METAR KATL 070552Z 00000KT 10SM FEW050 FEW100 SCT200 BKN250 23/21 A2996 RMK AO2 SLP134 60000 T02280206 10244 20222 58003=
202109070452 METAR KATL 070452Z 29004KT 10SM FEW100 SCT200 BKN250 23/21 A2997 RMK AO2 SLP139 T02280206 402940228=
202109070352 METAR KATL 070352Z 00000KT 10SM FEW200 BKN250 23/21 A2997 RMK AO2 SLP137 T02330206=
202109070252 METAR KATL 070252Z 00000KT 10SM FEW100 BKN200 BKN250 23/20 A2997 RMK AO2 SLP137 60000 T02330200 53005=
202109070152 METAR KATL 070152Z 24005KT 10SM FEW100 SCT200 BKN250 23/21 A2996 RMK AO2 SLP135 T02330211=
202109070052 METAR KATL 070052Z 00000KT 10SM FEW050 SCT075 BKN100 BKN200 24/21 A2995 RMK AO2 RAE02 SLP133 P0000 T02440211=
202109062352 METAR KATL 062352Z 21005KT 10SM -RA FEW025 SCT060 BKN080 BKN200 24/20 A2995 RMK AO2 LTG DSNT NE AND S SLP133 CB DSNT NE SE-S P0000 60000 T02440200 10294 20239 53006=
202109062252 METAR KATL 062252Z 28005KT 8SM -RA FEW025 BKN070 BKN100 OVC200 26/23 A2995 RMK AO2 RAB49 SLP131 TCU DSNT NE P0000 T02560228=
202109062152 METAR KATL 062152Z 21005KT 10SM FEW025 SCT060 BKN080 BKN200 26/23 A2994 RMK AO2 SLP127 T02610228=
202109062052 METAR KATL 062052Z 27007KT 10SM FEW024 FEW055 SCT090 BKN200 26/22 A2993 RMK AO2 LTG DSNT SE SLP126 CB DSNT NE-SE-SW TCU DSNT SE 60000 T02610217 55011=
202109061952 METAR KATL 061952Z 31007KT 10SM FEW026 FEW048 SCT095 BKN200 27/22 A2993 RMK AO2 LTG DSNT W RAE04 SLP126 CB DSNT NE SE S-W TCU DSNT SE P0000 T02720217=
202109061852 METAR KATL 061852Z 33006KT 6SM -RA FEW026TCU SCT047 BKN090 BKN200 26/23 A2996 RMK AO2 LTG DSNT SE AND SW RAB42 SLP134 CB DSNT SE SW TCU NE S-SW P0000 T02610228=
202109061752 METAR KATL 061752Z 29006KT 10SM FEW024 SCT044 SCT080 BKN200 28/21 A2997 RMK AO2 SLP137 CB DSNT SW W T02830211 10283 20228 58009=
202109061652 METAR KATL 061652Z 32008KT 9SM FEW026TCU SCT045 BKN085 BKN200 27/22 A2999 RMK AO2 LTG DSNT S SLP145 CB DSNT S TCU NW-N DSNT S W T02670217=
202109061552 METAR KATL 061552Z 32008KT 10SM SCT022TCU BKN045 BKN100 BKN200 28/22 A3000 RMK AO2 SLP147 TCU S-SW DSNT NE T02780217=
202109061528 SPECI KATL 061528Z 31006KT 10SM SCT020 BKN045 BKN080 BKN200 28/22 A3000 RMK AO2 TCU DSNT N T02780217=
202109061452 METAR KATL 061452Z 31008KT 10SM BKN016 BKN045 BKN085 BKN200 27/22 A2999 RMK AO2 SLP147 T02720217 51006=
202109061450 SPECI KATL 061450Z 30006KT 10SM BKN016 BKN045 BKN085 BKN200 27/22 A3000 RMK AO2=
202109061352 METAR KATL 061352Z 24007KT 9SM FEW012 SCT045 SCT090 BKN200 25/21 A2999 RMK AO2 SLP146 TCU DSNT SW-W T02500211=
202109061252 METAR KATL 061252Z 26005KT 8SM FEW037 BKN080 24/21 A2999 RMK AO2 SLP145 T02390211=
202109061152 METAR KATL 061152Z 20004KT 8SM BKN037 OVC080 23/21 A2998 RMK AO2 SLP140 T02280206 10233 20228 53008=
202109061052 METAR KATL 061052Z 25005KT 10SM SCT037 BKN100 23/21 A2996 RMK AO2 SLP133 T02330206=
202109060952 METAR KATL 060952Z 25004KT 10SM BKN110 BKN220 23/21 A2995 RMK AO2 SLP129 T02330206=
202109060852 METAR KATL 060852Z 24007KT 10SM SCT220 23/21 A2995 RMK AO2 SLP131 T02330206 56006=
202109060752 METAR KATL 060752Z 24006KT 10SM FEW200 23/20 A2995 RMK AO2 SLP131 T02280200=
202109060652 METAR KATL 060652Z 24004KT 10SM FEW200 23/20 A2997 RMK AO2 SLP136 T02280200=
202109060552 METAR KATL 060552Z 22005KT 10SM FEW040 FEW250 23/20 A2997 RMK AO2 SLP137 T02280200 10272 20228 50004=
202109060452 METAR KATL 060452Z 22006KT 10SM SCT034 SCT045 SCT250 23/20 A2998 RMK AO2 SLP142 T02330200 403000161=
202109060352 METAR KATL 060352Z 22005KT 10SM FEW032 SCT055 SCT250 23/20 A2997 RMK AO2 SLP139 T02330200=
202109060252 METAR KATL 060252Z 21006KT 10SM FEW250 24/20 A2996 RMK AO2 SLP134 T02390200 51012=
202109060152 METAR KATL 060152Z 23004KT 10SM FEW055 SCT250 24/19 A2995 RMK AO2 SLP132 T02440194=
202109060052 METAR KATL 060052Z 20004KT 10SM FEW055 SCT250 25/19 A2993 RMK AO2 SLP126 T02500194=
202109052352 METAR KATL 052352Z 20004KT 10SM FEW055 FEW080 SCT250 27/19 A2992 RMK AO2 SLP124 T02720189 10300 20272 56009=
202109052252 METAR KATL 052252Z 29006KT 10SM FEW055 SCT080 SCT250 29/18 A2993 RMK AO2 SLP125 MDT CU E & DSNT S T02940183=
202109052152 METAR KATL 052152Z 28005KT 10SM FEW050 SCT075 SCT250 29/18 A2994 RMK AO2 SLP129 MDT CU NW-NE & DSNT SW T02890178=
202109052052 METAR KATL 052052Z 25007KT 10SM SCT055 BKN200 30/18 A2995 RMK AO2 SLP132 T03000178 56016=
202109051952 METAR KATL 051952Z 32007KT 10SM SCT050 BKN200 29/17 A2996 RMK AO2 SLP135 T02940167=
202109051852 METAR KATL 051852Z 26007KT 10SM SCT048 BKN200 29/17 A2998 RMK AO2 SLP142 T02940172=
202109051752 METAR KATL 051752Z VRB04KT 10SM SCT055 SCT180 SCT250 29/18 A3000 RMK AO2 SLP148 T02890183 10289 20178 58012=
202109051652 METAR KATL 051652Z 25006KT 10SM SCT055 SCT180 SCT250 27/16 A3001 RMK AO2 SLP155 T02720161=
202109051552 METAR KATL 051552Z VRB04KT 10SM SCT180 SCT250 27/16 A3003 RMK AO2 SLP159 T02720156=
202109051452 METAR KATL 051452Z 24005KT 10SM FEW038 FEW200 SCT250 26/16 A3003 RMK AO2 SLP161 T02560156 53005=
202109051352 METAR KATL 051352Z 26005KT 10SM FEW200 SCT250 24/14 A3002 RMK AO2 SLP158 T02390144=
202109051252 METAR KATL 051252Z 00000KT 10SM FEW200 SCT250 21/16 A3002 RMK AO2 SLP157 T02110161=
202109051152 METAR KATL 051152Z 00000KT 10SM FEW150 FEW200 18/15 A3002 RMK AO2 SLP157 T01780150 10194 20161 53009=
202109051052 METAR KATL 051052Z 27003KT 10SM FEW200 18/14 A3001 RMK AO2 SLP153 T01780139=
202109050952 METAR KATL 050952Z 00000KT 10SM FEW200 18/14 A2999 RMK AO2 SLP146 T01780139=
202109050852 METAR KATL 050852Z 00000KT 10SM FEW200 18/14 A2999 RMK AO2 SLP146 T01830139 56010=
202109050752 METAR KATL 050752Z 21003KT 10SM FEW200 17/14 A2999 RMK AO2 SLP147 T01720139=
202109050652 METAR KATL 050652Z 23003KT 10SM FEW200 19/14 A3000 RMK AO2 SLP148 T01890144=
202109050552 METAR KATL 050552Z 23003KT 10SM FEW250 19/14 A3002 RMK AO2 SLP157 T01890144 10250 20189 58005=
202109050452 METAR KATL 050452Z 23003KT 10SM FEW250 20/15 A3003 RMK AO2 SLP160 T02000150 402890178=
202109050352 METAR KATL 050352Z 19003KT 10SM FEW250 21/15 A3003 RMK AO2 SLP159 T02110150=
202109050252 METAR KATL 050252Z 18003KT 10SM SCT250 22/15 A3003 RMK AO2 SLP161 T02170150 53005=
202109050152 METAR KATL 050152Z 16004KT 10SM FEW200 SCT250 23/16 A3003 RMK AO2 SLP160 T02280156=
202109050052 METAR KATL 050052Z 15004KT 10SM FEW200 BKN250 23/14 A3002 RMK AO2 SLP156 T02330144=
202109042352 METAR KATL 042352Z 15004KT 10SM FEW060 BKN250 25/14 A3002 RMK AO2 SLP158 T02500139 10289 20250 55002=
202109042252 METAR KATL 042252Z VRB04KT 10SM FEW060 BKN250 27/13 A3002 RMK AO2 SLP156 T02670128=
202109042152 METAR KATL 042152Z 09005KT 10SM FEW060 BKN250 28/13 A3002 RMK AO2 SLP157 T02780133=
202109042052 METAR KATL 042052Z 02006KT 10SM FEW055 SCT200 BKN250 29/13 A3002 RMK AO2 SLP158 T02890133 56017=
202109041952 METAR KATL 041952Z 07006KT 10SM FEW050 SCT200 SCT250 29/12 A3003 RMK AO2 SLP160 T02890122=
202109041852 METAR KATL 041852Z 10SM FEW047 SCT200 SCT250 27/14 A3005 RMK AO2 SLP168 T02720139=
202109041752 METAR KATL 041752Z 00000KT 10SM FEW045 SCT200 27/14 A3008 RMK AO2 SLP175 T02670139 10272 20178 58010=
202109041652 METAR KATL 041652Z VRB04KT 10SM FEW044 FEW200 26/14 A3009 RMK AO2 SLP180 T02610139=
202109041552 METAR KATL 041552Z 12004KT 10SM FEW200 26/14 A3010 RMK AO2 SLP184 T02610139=
202109041452 METAR KATL 041452Z 12004KT 10SM FEW200 24/13 A3011 RMK AO2 SLP187 T02440133 50006=
202109041352 METAR KATL 041352Z 00000KT 10SM FEW200 23/14 A3011 RMK AO2 SLP188 T02280139=
202109041252 METAR KATL 041252Z 00000KT 10SM FEW150 FEW200 21/16 A3010 RMK AO2 SLP185 T02110156=
202109041152 METAR KATL 041152Z 00000KT 10SM FEW150 SCT200 SCT250 18/14 A3009 RMK AO2 SLP182 T01780144 10211 20178 53012=
202109041052 METAR KATL 041052Z 00000KT 10SM FEW150 SCT200 SCT250 18/14 A3007 RMK AO2 SLP175 T01780139=
202109040952 METAR KATL 040952Z 10003KT 10SM FEW250 18/14 A3006 RMK AO2 SLP171 T01830139=
202109040852 METAR KATL 040852Z 00000KT 10SM SCT250 18/14 A3005 RMK AO2 SLP169 T01830139 56007=
202109040752 METAR KATL 040752Z 12003KT 10SM SCT250 19/14 A3006 RMK AO2 SLP171 T01890139=
202109040652 METAR KATL 040652Z 00000KT 10SM SCT250 19/14 A3006 RMK AO2 SLP171 T01940139=
202109040552 METAR KATL 040552Z 00000KT 10SM SCT250 20/14 A3008 RMK AO2 SLP175 T02000139 10244 20194 55000=
202109040452 METAR KATL 040452Z 12003KT 10SM BKN250 21/14 A3007 RMK AO2 SLP175 T02060139 402780189=
202109040352 METAR KATL 040352Z 00000KT 10SM BKN250 21/14 A3008 RMK AO2 SLP175 T02060139=
202109040252 METAR KATL 040252Z 14003KT 10SM BKN250 21/15 A3008 RMK AO2 SLP176 T02110150 51010=
202109040152 METAR KATL 040152Z 13003KT 10SM FEW150 BKN250 22/14 A3007 RMK AO2 SLP175 T02170144=
202109040052 METAR KATL 040052Z 15003KT 10SM FEW200 SCT250 23/13 A3005 RMK AO2 SLP169 T02280133=
202109032352 METAR KATL 032352Z 11004KT 10SM FEW200 SCT250 24/12 A3004 RMK AO2 SLP166 T02440117 10278 20244 58008=
202109032252 METAR KATL 032252Z 08006KT 10SM FEW200 FEW250 26/12 A3005 RMK AO2 SLP169 T02610122=
202109032152 METAR KATL 032152Z VRB06KT 10SM FEW200 SCT250 27/12 A3006 RMK AO2 SLP170 T02670117=
202109032052 METAR KATL 032052Z 10008KT 10SM SCT200 SCT250 27/12 A3007 RMK AO2 SLP173 T02720122 56012=
202109031952 METAR KATL 031952Z VRB06KT 10SM FEW150 SCT200 BKN250 27/11 A3008 RMK AO2 SLP175 T02670111=
202109031852 METAR KATL 031852Z 13005KT 10SM FEW150 BKN200 BKN250 27/13 A3009 RMK AO2 SLP181 T02670128=
202109031752 METAR KATL 031752Z 10008G17KT 10SM FEW070 FEW150 BKN200 BKN250 26/12 A3010 RMK AO2 SLP184 T02610117 10267 20194 58006=
202109031652 METAR KATL 031652Z 09009G15KT 10SM FEW060 FEW150 SCT200 BKN250 26/12 A3012 RMK AO2 SLP189 T02610122=
202109031552 METAR KATL 031552Z 09010KT 10SM FEW150 SCT200 BKN250 26/12 A3012 RMK AO2 SLP190 T02560117=
202109031452 METAR KATL 031452Z 09010KT 10SM FEW150 BKN200 BKN250 24/13 A3012 RMK AO2 SLP190 T02390128 51013=
202109031352 METAR KATL 031352Z 10008KT 10SM FEW200 SCT250 23/14 A3011 RMK AO2 SLP187 T02280144=
202109031252 METAR KATL 031252Z 10009KT 10SM FEW250 21/15 A3010 RMK AO2 SLP182 T02110150=
202109031152 METAR KATL 031152Z 08006KT 10SM FEW150 FEW250 19/16 A3008 RMK AO2 SLP178 T01940161 10233 20189 53020=
202109031052 METAR KATL 031052Z 08008KT 10SM FEW050 19/17 A3006 RMK AO2 SLP170 T01940167=
202109030952 METAR KATL 030952Z 09007KT 10SM FEW050 19/17 A3003 RMK AO2 SLP160 T01940167=
202109030852 METAR KATL 030852Z 09005KT 10SM FEW050 21/17 A3002 RMK AO2 SLP158 T02060172 52000=
202109030752 METAR KATL 030752Z 10005KT 10SM FEW050 21/17 A3002 RMK AO2 SLP156 T02110172=
202109030652 METAR KATL 030652Z 09006KT 10SM SCT050 SCT060 22/18 A3003 RMK AO2 SLP157 T02220178=
202109030552 METAR KATL 030552Z 10004KT 10SM SCT047 BKN055 23/18 A3002 RMK AO2 SLP156 T02330178 10272 20228 51002=
202109030452 METAR KATL 030452Z 08004KT 10SM FEW048 BKN060 24/18 A3002 RMK AO2 SLP156 T02390183 403000211=
202109030352 METAR KATL 030352Z 00000KT 10SM FEW050 24/18 A3002 RMK AO2 SLP156 T02440183=
202109030252 METAR KATL 030252Z 05006KT 10SM FEW040 26/18 A3002 RMK AO2 SLP153 T02560178 51021=
202109030152 METAR KATL 030152Z 02008KT 10SM SCT040 BKN055 27/18 A3000 RMK AO2 SLP149 T02670183=
202109030052 METAR KATL 030052Z 00000KT 10SM SCT048 BKN065 27/18 A2997 RMK AO2 SLP139 MDT CU OHD-ALQDS T02670178=
202109022352 METAR KATL 022352Z 11005KT 10SM SCT048 BKN065 27/17 A2995 RMK AO2 SLP133 MDT CU OHD-ALQDS T02720172 10300 20272 53007=
202109022252 METAR KATL 022252Z 00000KT 10SM SCT048 SCT060 28/17 A2994 RMK AO2 SLP128 MDT CU OHD-SW NW T02830172=
202109022152 METAR KATL 022152Z 05003KT 10SM SCT048 SCT060 SCT250 30/17 A2993 RMK AO2 SLP125 MDT CU OHD-SW N T03000172=
202109022052 METAR KATL 022052Z 07005KT 10SM SCT048 SCT060 SCT250 28/17 A2993 RMK AO2 SLP124 T02830167 56012=
202109021952 METAR KATL 021952Z 15005KT 10SM SCT045 BKN055 BKN250 29/18 A2994 RMK AO2 SLP127 T02940178=
202109021852 METAR KATL 021852Z 11006KT 10SM SCT043 BKN055 BKN250 28/17 A2995 RMK AO2 SLP133 T02780172=
202109021752 METAR KATL 021752Z 09006KT 10SM SCT038 BKN055 28/18 A2997 RMK AO2 SLP137 MDT CU ALQDS T02780178 10283 20217 50000=
202109021652 METAR KATL 021652Z VRB06KT 10SM BKN040 BKN055 BKN200 27/18 A2997 RMK AO2 SLP138 T02720178=
202109021552 METAR KATL 021552Z 06004G14KT 10SM SCT034 BKN055 BKN200 26/17 A2997 RMK AO2 SLP139 T02610172=
202109021452 METAR KATL 021452Z 08010KT 10SM FEW034 SCT060 SCT250 26/18 A2997 RMK AO2 SLP137 T02610178 51017=
202109021352 METAR KATL 021352Z 09011KT 10SM FEW060 FEW200 25/18 A2996 RMK AO2 SLP134 T02500183=
202109021252 METAR KATL 021252Z 06007KT 10SM FEW055 FEW180 24/18 A2994 RMK AO2 SLP126 T02390178=
202109021152 METAR KATL 021152Z 02005KT 10SM FEW055 22/18 A2992 RMK AO2 SLP120 T02170178 10222 20211 53019=
202109021052 METAR KATL 021052Z 35008KT 10SM FEW055 21/18 A2989 RMK AO2 SLP110 T02110183=
202109020952 METAR KATL 020952Z 35007KT 10SM CLR 21/19 A2987 RMK AO2 SLP103 T02110189=
202109020852 METAR KATL 020852Z 34008KT 10SM CLR 21/19 A2986 RMK AO2 SLP100 T02110189 53001=
202109020752 METAR KATL 020752Z 33008KT 10SM FEW250 22/19 A2985 RMK AO2 SLP097 T02170194=
202109020652 METAR KATL 020652Z 31007KT 10SM FEW250 22/19 A2985 RMK AO2 SLP097 T02220194=
202109020552 METAR KATL 020552Z 29005KT 10SM FEW250 22/20 A2986 RMK AO2 SLP099 T02220200 10278 20222 50005=
202109020452 METAR KATL 020452Z 30006KT 10SM SCT250 23/19 A2986 RMK AO2 SLP101 T02280194 403000217=
202109020352 METAR KATL 020352Z 34007KT 10SM FEW150 SCT250 24/19 A2985 RMK AO2 SLP097 T02440194=
202109020252 METAR KATL 020252Z 33007KT 10SM FEW040 SCT250 25/20 A2984 RMK AO2 SLP094 T02500200 51017=
202109020152 METAR KATL 020152Z 32005KT 10SM FEW040 SCT250 26/20 A2984 RMK AO2 SLP093 T02560200=
202109020052 METAR KATL 020052Z 32005KT 10SM FEW040 FEW150 SCT250 26/20 A2981 RMK AO2 SLP084 T02610200=
202109012352 METAR KATL 012352Z 32006KT 10SM FEW038 FEW150 SCT250 28/19 A2979 RMK AO2 SLP076 T02780194 10300 20278 53002=
202109012252 METAR KATL 012252Z 34007KT 10SM FEW038 FEW250 29/19 A2978 RMK AO2 SLP073 TCU DSNT NW T02890194=
202109012152 METAR KATL 012152Z 30009KT 10SM SCT038 SCT050 28/19 A2978 RMK AO2 SLP073 MDT CU S-W-NW T02830194=
202109012052 METAR KATL 012052Z 34010G19KT 10SM SCT038 SCT047 29/19 A2978 RMK AO2 SLP073 MDT CU SE-SW T02940194 58006=
202109011952 METAR KATL 011952Z 33011G17KT 10SM SCT038 SCT055 30/20 A2979 RMK AO2 SLP076 MDT CU ALQDS T03000200=
202109011852 METAR KATL 011852Z 31013G19KT 10SM BKN038 BKN050 29/19 A2980 RMK AO2 SLP082 MDT CU ALQDS T02890194=
202109011752 METAR KATL 011752Z 32013KT 10SM BKN038 28/19 A2980 RMK AO2 PK WND 31027/1708 SLP080 T02830194 10289 20222 51003=
202109011652 METAR KATL 011652Z 31015KT 10SM SCT032 SCT045 28/19 A2980 RMK AO2 SLP079 T02780189=
202109011552 METAR KATL 011552Z 30013G22KT 10SM FEW028 27/20 A2980 RMK AO2 SLP081 T02720200=
202109011452 METAR KATL 011452Z 30016KT 10SM FEW025 FEW050 SCT250 26/20 A2979 RMK AO2 SLP078 T02560200 53005=
202109011352 METAR KATL 011352Z 28012G19KT 10SM SCT017 24/20 A2978 RMK AO2 SLP075 T02390200=
202109011252 METAR KATL 011252Z 28010G19KT 10SM BKN017 23/19 A2978 RMK AO2 SLP077 BKN017 V SCT T02280194=
