##########################################################
# Query made at 04/20/2024 00:23:09 UTC
# Time interval: from 07/01/2022 12:00  to 07/31/2022 12:59  UTC
##########################################################

##########################################################
# KATL, Atlanta, Hartsfield - Jackson Atlanta International Airport (United States)
# WMO index: 72219. WIGOS ID: 0-20000-0-72219
# Latitude 33-38-59N. Longitude 084-25-00W. Altitude 312 m.
##########################################################

202207311252 METAR KATL 311252Z 26005KT 10SM FEW005 FEW070 SCT090 SCT200 SCT250 23/21 A3024 RMK AO2 SLP230 T02280211=
202207311152 METAR KATL 311152Z 27003KT 10SM FEW002 FEW150 SCT200 SCT250 22/21 A3022 RMK AO2 SLP225 VIS LWR W-N 70003 T02220211 10228 20217 53021=
202207311052 METAR KATL 311052Z 28004KT 10SM FEW005 SCT120 SCT200 SCT250 22/21 A3020 RMK AO2 SLP218 ACC DSNT SW-W T02170206=
202207310952 METAR KATL 310952Z 24003KT 10SM FEW005 SCT120 BKN250 22/21 A3018 RMK AO2 SLP210 T02170206=
202207310852 METAR KATL 310852Z 18003KT 10SM FEW007 SCT120 BKN250 22/21 A3016 RMK AO2 SLP204 T02170206 55011=
202207310752 METAR KATL 310752Z 15003KT 10SM FEW007 SCT120 BKN200 BKN250 22/21 A3016 RMK AO2 SLP202 T02220206=
202207310652 METAR KATL 310652Z 20006KT 10SM FEW007 SCT150 SCT200 OVC250 22/21 A3018 RMK AO2 SLP209 T02170206=
202207310552 METAR KATL 310552Z 19004KT 10SM FEW007 FEW150 SCT200 BKN250 23/21 A3019 RMK AO2 SLP213 60002 T02280211 10261 20222 58003=
202207310526 SPECI KATL 310526Z 00000KT 10SM FEW007 SCT150 SCT200 BKN250 23/21 A3020 RMK AO2 T02280211=
202207310452 METAR KATL 310452Z 00000KT 10SM FEW100 SCT150 BKN200 BKN250 23/21 A3020 RMK AO2 RAE06 SLP216 LTG DSNT N-NE CB DSNT N-NE P0000 T02280211 403220222=
202207310352 METAR KATL 310352Z 27009KT 10SM -RA FEW050 SCT070 BKN100 BKN200 23/21 A3021 RMK AO2 PK WND 27034/0319 RAB10 TSE50 SLP219 LTG DSNT NW-NE CB DSNT NW-NE P0002 T02280206=
202207310350 SPECI KATL 310350Z 27009KT 10SM -RA FEW050 SCT070 BKN100 BKN200 23/21 A3021 RMK AO2 PK WND 27034/0319 RAB10 TSE50 LTG DSNT NW-NE TS MOVD NE CB DSNT NW-NE P0002=
202207310252 METAR KATL 310252Z 22003KT 10SM TS FEW020CB BKN065 BKN150 BKN250 25/23 A3020 RMK AO2 TSB52 SLP217 OCNL LTGICCG VC SW-W-DSNT NW TS VC SW-W-DSNT NW MOV NE T02500233 53017=
202207310152 METAR KATL 310152Z 19003KT 10SM FEW080 SCT150 BKN200 BKN250 25/23 A3017 RMK AO2 SLP206 LTG DSNT SW-W CB DSNT SW-W T02500233=
202207310052 METAR KATL 310052Z 32005KT 10SM FEW080 SCT150 BKN200 OVC250 26/23 A3015 RMK AO2 SLP198 T02610228=
202207302352 METAR KATL 302352Z 00000KT 10SM FEW070 SCT150 BKN200 OVC250 26/23 A3015 RMK AO2 SLP200 60001 T02560228 10322 20250 55000=
202207302252 METAR KATL 302252Z 26003KT 10SM FEW070 BKN150 OVC200 25/23 A3014 RMK AO2 LTG DSNT NW SLP198 CB DSNT W-NW T02500228=
202207302152 METAR KATL 302152Z 00000KT 10SM FEW018TCU BKN150 BKN200 26/23 A3015 RMK AO2 LTG DSNT N AND NW RAE35 TSE07 PRESRR SLP201 CB DSNT NE NW-N TCU NW P0000 T02560228=
202207302108 SPECI KATL 302108Z 04011KT 9SM -RA FEW018 SCT080 BKN120 OVC200 26/23 A3015 RMK AO2 LTG DSNT NW-NE TSE07 TS MOVD N CB DSNT NW-NE P0000 T02610233=
202207302052 METAR KATL 302052Z 01005KT 8SM -TSRA SCT018CB BKN080 OVC200 26/23 A3015 RMK AO2 LTG DSNT ALQDS RAB1957 SLP200 FRQ LTGICCG VC NW-N TS VC NW-N MOV N P0001 60001 T02610233 55001=
202207302041 SPECI KATL 302041Z 01008KT 9SM -TSRA BKN018CB BKN035 BKN100 OVC200 26/23 A3015 RMK AO2 LTG DSNT ALQDS RAB1957 FRQ LTGCGIC VC NW-N TS VC NW-N MOV N P0001 T02610228=
202207301952 METAR KATL 301952Z 21009KT 10SM TS SCT035CB BKN100 OVC200 28/24 A3014 RMK AO2 LTG DSNT ALQDS TSB19 SLP194 OCNL LTGCG W-N-NE TS W-N-NE MOV NE VIS LWR N-NE T02830239=
202207301919 SPECI KATL 301919Z 19012KT 10SM TS SCT030CB BKN044 BKN200 31/23 A3013 RMK AO2 LTG DSNT ALQDS TSB19 OCNL LTGCG VC E TS VC E MOV NE TCU OHD-E DSNT NW T03060233=
202207301852 METAR KATL 301852Z 20008KT 10SM SCT037CB SCT100 BKN200 31/22 A3013 RMK AO2 LTG DSNT E-SW TSB09E32 SLP190 CB E DSNT SE SW MOV E TCU DSNT NW-N T03060222=
202207301832 SPECI KATL 301832Z 21005KT 10SM SCT038TCU SCT100 BKN200 32/22 A3014 RMK AO2 LTG DSNT E-SW TSB09E32 TS DSIPTD CB DSNT E-SE SW TCU OHD-E T03170222=
202207301809 SPECI KATL 301809Z VRB04KT 10SM TS SCT038CB SCT100 BKN200 31/22 A3015 RMK AO2 LTG DSNT S AND SW TSB09 T03110217=
202207301752 METAR KATL 301752Z 23006KT 10SM SCT038TCU SCT250 32/22 A3016 RMK AO2 LTG DSNT S SLP199 CB DSNT SE S SW TCU E-S NW T03170222 10317 20250 58012=
202207301652 METAR KATL 301652Z 30006KT 10SM SCT033 SCT170 BKN250 31/22 A3017 RMK AO2 LTG DSNT S SLP206 CB DSNT S MDT CU E-S T03060217=
202207301552 METAR KATL 301552Z 00000KT 10SM SCT026 BKN170 BKN250 29/22 A3019 RMK AO2 SLP212 MDT CU DSNT S T02940222=
202207301452 METAR KATL 301452Z 31003KT 10SM SCT019 BKN170 BKN250 28/22 A3019 RMK AO2 SLP212 T02830222 51013=
202207301352 METAR KATL 301352Z 29006KT 10SM FEW016 BKN170 BKN250 28/23 A3018 RMK AO2 SLP210 T02780228=
202207301252 METAR KATL 301252Z VRB05KT 10SM FEW010 FEW055 BKN170 BKN250 26/23 A3017 RMK AO2 SLP207 T02610228=
202207301152 METAR KATL 301152Z 00000KT 10SM FEW050 FEW150 SCT200 BKN250 24/22 A3015 RMK AO2 SLP200 70023 T02440217 10261 20239 53008=
202207301052 METAR KATL 301052Z 28003KT 10SM FEW050 SCT150 OVC250 24/22 A3013 RMK AO2 SLP193 BINOVC T02390217=
202207300952 METAR KATL 300952Z 00000KT 10SM FEW050 OVC250 24/22 A3012 RMK AO2 SLP189 T02390217 $=
202207300852 METAR KATL 300852Z 23004KT 10SM FEW050 BKN220 24/21 A3013 RMK AO2 SLP191 T02390211 53001 $=
202207300752 METAR KATL 300752Z 13004KT 10SM FEW050 BKN150 OVC250 24/21 A3011 RMK AO2 SLP186 T02440211 $=
202207300652 METAR KATL 300652Z 09007KT 10SM FEW009 BKN032 BKN070 BKN130 BKN180 25/22 A3013 RMK AO2 TSE13 SLP192 CONS LTGICCACG DSNT E-SE TS MOV E CB DSNT E-SE T02500222 $=
202207300613 SPECI KATL 300613Z 02009KT 10SM FEW009 SCT039CB SCT055 BKN130 BKN180 26/23 A3013 RMK AO2 TSE13 CONS LTGICCACG DSNT NE-SE TS MOV NE CB DSNT NE-SE T02610233 $=
202207300552 METAR KATL 300552Z 31008KT 10SM TS BKN035CB BKN043 BKN060 BKN130 OVC200 26/23 A3013 RMK AO2 RAB0456E05 SLP190 OCNL LTGICCG VC N-NE TS VC N-NE MOV E P0000 60000 T02560228 10294 20256 50006 $=
202207300452 METAR KATL 300452Z 25005KT 10SM TS SCT040CB BKN080 BKN130 BKN200 27/22 A3013 RMK AO2 TSB52 SLP191 OCNL LTGICCG VC N-NE DSNT W-N TS VC N-NE DSNT W-N MOV E T02670222 403440239 $=
202207300352 METAR KATL 300352Z 00000KT 10SM SCT045TCU BKN080 BKN150 BKN250 27/23 A3012 RMK AO2 SLP186 LTG DSNT NW-NE CB DSNT E-SE NW-NE TCU OHD T02720228 $=
202207300252 METAR KATL 300252Z 00000KT 10SM FEW040 SCT075 BKN200 BKN250 28/22 A3011 RMK AO2 SLP184 CB DSNT NW T02780222 53018 $=
202207300152 METAR KATL 300152Z 00000KT 10SM FEW035 SCT070 BKN200 BKN250 28/24 A3008 RMK AO2 SLP173 CB DSNT SE NW T02780239 $=
202207300052 SPECI KATL 300052Z 24004KT 10SM FEW035 SCT150 BKN200 BKN250 28/24 A3007 RMK AO2 SLP172 CB DSNT SE TCU DSNT S T02830244 $=
202207300052 METAR KATL 300052Z 24004KT 10SM FEW035 SCT150 BKN200 BKN250 28/24 A3007 RMK AO2 SLP172 CB DSNT SE TCU DSNT S T02830244 $=
202207292352 METAR KATL 292352Z 30004KT 10SM FEW035 SCT200 BKN250 29/22 A3005 RMK AO2 SLP166 CB DSNT E-SE TCU DSNT S 60023 T02940217 10344 20256 51005 $=
202207292252 METAR KATL 292252Z 34004KT 10SM FEW035 SCT200 BKN250 29/22 A3004 RMK AO2 LTG DSNT E RAE16 SLP162 CB DSNT E-SE SW TCU DSNT SE-SW P0003 T02940222 $=
202207292152 METAR KATL 292152Z 28006KT 7SM -RA FEW035CB SCT060 BKN120 BKN200 26/22 A3008 RMK AO2 PK WND 32029/2117 WSHFT 2110 RAB29 TSB03E52 SLP176 VIS LWR SE-SW LTG DSNT NE TS MOVD E CB OHD-S MOV E P0020 T02560222 $=
202207292130 SPECI KATL 292130Z 31017G26KT 10SM -TSRA SCT035CB BKN060 BKN120 BKN200 29/21 A3007 RMK AO2 PK WND 32029/2117 WSHFT 2110 RAB29 TSB03 OCNL LTGICCG VC NW-NE TS VC NW-NE MOV E TCU OHD-ALQDS P0000 T02890206 $=
202207292103 SPECI KATL 292103Z 25010KT 10SM TS FEW048CB SCT130 SCT200 34/19 A3005 RMK AO2 TSB03 OCNL LTGICCG VC W-N TS VC W-N MOV E CB DSNT N-NE T03440194=
202207292052 METAR KATL 292052Z 21010KT 10SM FEW048 FEW130 SCT200 33/20 A3004 RMK AO2 LTG DSNT W-NE SLP158 CB DSNT NE W-NW TCU DSNT E 60000 T03330200 58019=
202207291952 METAR KATL 291952Z 24011KT 10SM SCT046TCU BKN110 BKN200 32/21 A3006 RMK AO2 LTG DSNT NW SLP167 CB DSNT N NE NW TCU OHD-W NW DSNT ALQDS T03220211=
202207291852 METAR KATL 291852Z 22007KT 10SM FEW042TCU SCT110 SCT200 33/22 A3008 RMK AO2 RAB30E42 SLP173 TCU N DSNT ALQDS MDT CU DSNT SE-S P0000 T03280217=
202207291752 METAR KATL 291752Z VRB04KT 10SM SCT042TCU SCT090 SCT250 32/21 A3009 RMK AO2 SLP179 TCU N-NE DSNT ALQDS MDT CU ALQDS T03220206 10333 20244 58008=
202207291652 METAR KATL 291652Z 27009KT 10SM SCT036TCU SCT250 33/22 A3010 RMK AO2 SLP181 TCU W-N-NE MDT CU ALQDS T03280222=
202207291552 METAR KATL 291552Z 28011KT 10SM SCT030 SCT250 32/22 A3012 RMK AO2 SLP186 TCU DSNT NW-N MDT CU E T03170217=
202207291452 METAR KATL 291452Z 26006KT 10SM FEW028 SCT250 29/22 A3012 RMK AO2 SLP187 T02940222 51010=
202207291352 METAR KATL 291352Z 26009KT 10SM FEW022 FEW150 SCT250 28/22 A3011 RMK AO2 SLP185 T02780222=
202207291252 METAR KATL 291252Z 26008KT 10SM FEW018 FEW150 SCT250 26/22 A3010 RMK AO2 SLP180 T02610222=
202207291152 METAR KATL 291152Z 24006KT 10SM FEW010 FEW060 FEW150 SCT250 24/22 A3009 RMK AO2 SLP176 CB DSNT NW TCU DSNT NW 70001 T02440222 10256 20239 53009=
202207291052 METAR KATL 291052Z 22005KT 10SM FEW060 FEW120 SCT250 24/22 A3007 RMK AO2 SLP173 TCU DSNT NW T02390217=
202207290952 METAR KATL 290952Z 25005KT 10SM SCT060 SCT250 24/22 A3006 RMK AO2 SLP168 T02440217=
202207290852 METAR KATL 290852Z 26007KT 10SM FEW055 FEW250 25/22 A3006 RMK AO2 SLP167 T02500217 55003=
202207290752 METAR KATL 290752Z 24008KT 10SM FEW055 FEW250 26/22 A3006 RMK AO2 SLP166 T02560222=
202207290652 METAR KATL 290652Z 23005KT 10SM FEW060 FEW250 26/22 A3006 RMK AO2 SLP166 T02560222=
202207290552 METAR KATL 290552Z 24004KT 10SM FEW085 FEW250 26/22 A3007 RMK AO2 SLP170 T02560222 10306 20256 50001=
202207290452 METAR KATL 290452Z 20007KT 10SM FEW250 26/22 A3007 RMK AO2 SLP170 T02610222 403280239=
202207290352 METAR KATL 290352Z 22007KT 10SM FEW250 27/22 A3008 RMK AO2 SLP172 T02720217=
202207290252 METAR KATL 290252Z 20004KT 10SM FEW100 FEW250 27/22 A3006 RMK AO2 SLP169 T02720217 53006=
202207290152 METAR KATL 290152Z 20004KT 10SM SCT100 SCT250 28/22 A3006 RMK AO2 SLP167 LTG DSNT S-SW CB DSNT S-SW T02780217=
202207290052 METAR KATL 290052Z 21006KT 10SM FEW100 SCT250 29/22 A3005 RMK AO2 SLP163 T02940217=
202207282352 METAR KATL 282352Z 23004KT 10SM FEW040 BKN250 31/21 A3005 RMK AO2 SLP162 60001 T03060211 10328 20294 53006=
202207282252 METAR KATL 282252Z 20008KT 10SM FEW040 SCT200 BKN250 31/21 A3003 RMK AO2 SLP157 T03060206=
202207282152 METAR KATL 282152Z 23007KT 10SM FEW040TCU SCT200 BKN250 33/21 A3003 RMK AO2 SLP156 TCU E DSNT NE-E T03280211=
202207282052 METAR KATL 282052Z 21008KT 10SM FEW040TCU SCT070 SCT110 BKN200 BKN250 31/23 A3003 RMK AO2 RAB22E35 SLP156 CB DSNT E SW TCU N-NE E DSNT SW P0000 60001 T03060233 56017=
202207281952 METAR KATL 281952Z 19011KT 10SM SCT040TCU BKN100 BKN200 BKN250 32/22 A3004 RMK AO2 SLP162 CB DSNT E SE S TCU ALQDS SHRA NE S-SW T03170217=
202207281852 METAR KATL 281852Z 20008KT 10SM SCT042TCU SCT100 SCT200 BKN250 32/22 A3006 RMK AO2 LTG DSNT E-SW RAB03E18 SLP166 CB DSNT E-SE S SW TCU SW-W DSNT NE P0001 T03220222=
202207281752 METAR KATL 281752Z 28007KT 10SM SCT044TCU SCT100 BKN250 BKN300 32/21 A3008 RMK AO2 RAB30E42 SLP174 CB DSNT NW TCU E-S W NW DSNT ALQDS SHRA E S P0000 60000 T03220211 10328 20244 58011=
202207281706 SPECI KATL 281706Z 34011KT 10SM SCT041TCU BKN090 BKN250 BKN300 32/22 A3010 RMK AO2 TCU ALQDS SHRA N NE SE T03170217=
202207281652 METAR KATL 281652Z 26007KT 10SM SCT039TCU BKN090 BKN250 BKN300 33/21 A3010 RMK AO2 SLP180 TCU ALQDS SHRA N S T03280206=
202207281552 METAR KATL 281552Z 31007KT 10SM BKN033TCU BKN070 BKN250 BKN300 31/22 A3012 RMK AO2 SLP186 TCU ALQDS T03060222=
202207281452 METAR KATL 281452Z 28007KT 10SM FEW028 FEW045 SCT250 SCT300 31/23 A3011 RMK AO2 SLP185 TCU DSNT SE T03060228 51008=
202207281352 METAR KATL 281352Z 28009KT 10SM FEW022 FEW200 SCT250 SCT300 28/22 A3011 RMK AO2 SLP185 TCU DSNT NW T02830222=
202207281252 METAR KATL 281252Z 26008KT 10SM FEW020 FEW250 SCT300 27/22 A3011 RMK AO2 SLP184 T02670222=
202207281152 METAR KATL 281152Z 25005KT 10SM SCT250 BKN300 24/22 A3009 RMK AO2 SLP177 T02440222 10256 20239 53004=
202207281052 METAR KATL 281052Z 22005KT 10SM FEW150 SCT250 SCT300 24/22 A3008 RMK AO2 SLP175 T02390217=
202207280952 METAR KATL 280952Z 21004KT 10SM FEW250 24/22 A3007 RMK AO2 SLP171 T02390217=
202207280852 METAR KATL 280852Z 00000KT 10SM FEW250 24/22 A3008 RMK AO2 SLP172 T02440217 55006=
202207280752 METAR KATL 280752Z 22006KT 10SM FEW250 25/22 A3007 RMK AO2 SLP171 T02500217=
202207280652 METAR KATL 280652Z 23006KT 10SM FEW050 SCT250 25/22 A3008 RMK AO2 SLP174 T02500217=
202207280552 METAR KATL 280552Z 21007KT 10SM FEW050 SCT250 26/21 A3010 RMK AO2 SLP178 T02560211 10317 20256 50006=
202207280452 METAR KATL 280452Z 20007KT 10SM FEW055 SCT250 26/21 A3010 RMK AO2 SLP181 T02610211 403390233=
202207280352 METAR KATL 280352Z 20005KT 10SM FEW055 SCT250 28/21 A3009 RMK AO2 SLP178 T02780206=
202207280252 METAR KATL 280252Z 20005KT 10SM SCT250 28/21 A3008 RMK AO2 SLP173 T02830206 51006=
202207280152 METAR KATL 280152Z 22005KT 10SM BKN250 29/21 A3007 RMK AO2 SLP172 T02940206=
202207280052 METAR KATL 280052Z 27006KT 10SM FEW060 BKN250 30/20 A3006 RMK AO2 SLP168 T03000200=
202207272352 METAR KATL 272352Z 26008KT 10SM FEW060 BKN250 32/19 A3006 RMK AO2 SLP166 T03170194 10339 20317 55005=
202207272252 METAR KATL 272252Z 19010KT 10SM FEW060 BKN250 33/19 A3005 RMK AO2 SLP165 T03280194=
202207272152 METAR KATL 272152Z 24006KT 10SM FEW060 BKN250 33/19 A3006 RMK AO2 SLP168 T03330194=
202207272052 METAR KATL 272052Z 26010KT 10SM FEW060 SCT200 SCT250 BKN300 34/19 A3007 RMK AO2 SLP171 TCU DSNT ALQDS T03390189 56021=
202207271952 METAR KATL 271952Z 22007G16KT 10SM FEW055 SCT080 SCT200 BKN250 32/19 A3009 RMK AO2 SLP179 TCU DSNT SE-S MDT CU NW-NE T03220194=
202207271852 METAR KATL 271852Z 23007G16KT 10SM FEW048TCU SCT075 SCT200 BKN250 32/19 A3011 RMK AO2 SLP186 TCU NE SE DSNT ALQDS T03220194=
202207271752 METAR KATL 271752Z 22011KT 10SM FEW044TCU SCT080 BKN200 BKN250 33/21 A3014 RMK AO2 SLP192 TCU SE-S SW DSNT E-S T03280206 10328 20256 58010=
202207271652 METAR KATL 271652Z 25011G20KT 10SM SCT038TCU SCT075 SCT200 BKN250 32/21 A3015 RMK AO2 SLP198 TCU N DSNT ALQDS T03220206=
202207271552 METAR KATL 271552Z 29011KT 10SM SCT033TCU SCT065 SCT200 BKN250 31/22 A3017 RMK AO2 SLP204 TCU ALQDS MDT CU ALQDS T03060217=
202207271452 METAR KATL 271452Z 28010KT 10SM FEW030TCU FEW060 SCT200 BKN250 29/22 A3017 RMK AO2 SLP203 TCU NE DSNT E-SE MDT CU NW-NE T02940217 51010=
202207271352 METAR KATL 271352Z 31007KT 10SM FEW020 FEW038 SCT200 SCT250 28/22 A3016 RMK AO2 SLP200 MDT CU SE-S W-NW T02780222=
202207271252 METAR KATL 271252Z 26005KT 10SM FEW200 SCT250 SCT300 27/22 A3015 RMK AO2 SLP199 T02670222=
202207271152 METAR KATL 271152Z 28003KT 10SM FEW200 SCT250 26/22 A3014 RMK AO2 SLP193 T02560217 10261 20233 53013=
202207271052 METAR KATL 271052Z 20004KT 10SM FEW200 SCT250 24/21 A3012 RMK AO2 SLP188 T02390211=
202207270952 METAR KATL 270952Z 00000KT 10SM FEW250 24/22 A3010 RMK AO2 SLP181 T02440217=
202207270852 METAR KATL 270852Z 22003KT 10SM FEW250 25/22 A3010 RMK AO2 SLP179 T02500217 56007=
202207270752 METAR KATL 270752Z 23005KT 10SM FEW250 26/21 A3010 RMK AO2 SLP180 T02560211=
202207270652 METAR KATL 270652Z 25004KT 10SM FEW250 26/22 A3011 RMK AO2 SLP183 T02560217=
202207270552 METAR KATL 270552Z 22005KT 10SM FEW250 26/22 A3012 RMK AO2 SLP187 T02610217 10311 20261 58002=
202207270452 METAR KATL 270452Z 22004KT 10SM FEW250 26/22 A3013 RMK AO2 SLP192 T02610217 403330233=
202207270352 METAR KATL 270352Z 20005KT 10SM FEW250 27/22 A3013 RMK AO2 SLP192 T02720217=
202207270252 METAR KATL 270252Z 19005KT 10SM FEW250 27/22 A3013 RMK AO2 SLP190 T02720217 51012=
202207270152 METAR KATL 270152Z 21004KT 10SM FEW045 SCT250 29/21 A3012 RMK AO2 SLP189 T02890211=
202207270052 METAR KATL 270052Z 26005KT 10SM FEW045 SCT250 30/21 A3011 RMK AO2 SLP183 T03000206=
202207262352 METAR KATL 262352Z 25006KT 10SM FEW045TCU FEW060 SCT250 31/21 A3009 RMK AO2 SLP177 TCU NE-E T03110206 10333 20306 55005=
202207262252 METAR KATL 262252Z 25008KT 10SM FEW045TCU SCT060 SCT250 32/21 A3008 RMK AO2 SLP175 TCU NE MDT CU ALQDS T03220206=
202207262152 METAR KATL 262152Z 24009KT 10SM SCT045TCU SCT200 BKN250 33/21 A3010 RMK AO2 SLP180 TCU OHD-NE ALQDS T03280206=
202207262052 METAR KATL 262052Z 22008KT 10SM SCT048TCU SCT100 SCT200 BKN250 32/21 A3010 RMK AO2 SLP182 TCU NE SE S SW DSNT ALQDS T03170206 56020=
202207261952 METAR KATL 261952Z 25008KT 10SM SCT046 SCT110 SCT200 BKN250 32/21 A3013 RMK AO2 SLP189 TCU DSNT ALQDS T03170206=
202207261852 METAR KATL 261852Z 21008G18KT 10SM FEW044TCU SCT100 SCT200 SCT250 32/20 A3014 RMK AO2 SLP196 TCU E SE SW NW DSNT ALQDS T03220200=
202207261752 METAR KATL 261752Z 26011G18KT 10SM SCT040TCU SCT090 SCT200 BKN250 31/21 A3017 RMK AO2 SLP203 CB DSNT W TCU N NE SE NW DSNT ALQDS SHRA NW T03110206 10322 20250 58003=
202207261652 METAR KATL 261652Z 23008KT 10SM SCT036TCU SCT080 SCT200 BKN250 31/21 A3018 RMK AO2 SLP208 TCU OHD N NE SW-NW DSNT ALQDS MDT CU ALQDS T03060206=
202207261552 METAR KATL 261552Z 25009KT 10SM BKN033TCU BKN080 BKN200 BKN250 29/21 A3019 RMK AO2 SLP211 TCU ALQDS T02940211=
202207261452 METAR KATL 261452Z 26009G16KT 10SM FEW026 FEW150 SCT200 BKN250 29/22 A3018 RMK AO2 SLP207 MDT CU SE-S DSNT NW-N T02940217 51009=
202207261352 METAR KATL 261352Z 25009KT 10SM FEW022 FEW150 SCT200 BKN250 28/22 A3017 RMK AO2 SLP205 T02780217=
202207261252 METAR KATL 261252Z 24009KT 10SM FEW150 SCT200 SCT250 27/22 A3017 RMK AO2 SLP203 ACC NW T02670217=
202207261152 METAR KATL 261152Z 23005KT 10SM FEW150 SCT200 SCT250 24/22 A3015 RMK AO2 SLP199 T02440217 10256 20233 53014=
202207261052 METAR KATL 261052Z 28003KT 10SM FEW040 FEW150 SCT200 SCT250 24/22 A3013 RMK AO2 SLP192 T02390217=
202207260952 METAR KATL 260952Z 24003KT 10SM FEW040 BKN200 24/22 A3011 RMK AO2 SLP185 T02390217=
202207260852 METAR KATL 260852Z 22004KT 10SM FEW150 SCT200 SCT250 24/22 A3011 RMK AO2 SLP183 T02390217 55003=
202207260752 METAR KATL 260752Z 23004KT 10SM FEW150 FEW200 SCT250 24/22 A3009 RMK AO2 SLP178 T02440222=
202207260652 METAR KATL 260652Z 23003KT 10SM BKN150 BKN200 BKN250 26/22 A3010 RMK AO2 SLP180 T02560222=
202207260552 METAR KATL 260552Z 21003KT 10SM SCT150 SCT200 BKN250 26/23 A3012 RMK AO2 SLP186 T02560228 10289 20256 58007=
202207260452 METAR KATL 260452Z 19005KT 10SM FEW045 SCT150 BKN250 26/23 A3013 RMK AO2 SLP189 T02610233 403280233=
202207260352 METAR KATL 260352Z 17003KT 10SM SCT150 OVC250 27/23 A3014 RMK AO2 SLP194 BINOVC T02720233=
202207260252 METAR KATL 260252Z 22005KT 10SM FEW045 SCT150 BKN250 28/23 A3014 RMK AO2 SLP193 T02780228 53012=
202207260152 METAR KATL 260152Z 22004KT 10SM FEW045 SCT100 SCT170 BKN250 28/23 A3011 RMK AO2 SLP184 T02780228=
202207260052 METAR KATL 260052Z 21004KT 10SM FEW040 SCT100 SCT170 BKN250 28/23 A3010 RMK AO2 SLP180 TCU DSNT NE T02830228=
202207252352 METAR KATL 252352Z 20003KT 10SM FEW040 SCT100 SCT170 BKN250 29/22 A3010 RMK AO2 SLP182 TSE43 TS TSIPTD SE CB DSNT N AND NE T02890222 10328 20289 53006=
202207252252 METAR KATL 252252Z 23007KT 10SM TS FEW035 FEW042CB SCT060 SCT180 BKN200 OVC250 31/21 A3009 RMK AO2 SLP177 TSB32 OCNL LTGICCG VC E-SE TS VC E-SE MOV NE CB DSNT NE AND W-NW TCU DSNT S SHRA DSNT S-SW T03060211=
202207252237 SPECI KATL 252237Z 26007KT 10SM TS FEW035CB FEW080 SCT150 BKN200 OVC250 31/21 A3009 RMK AO2 TSB32 OCNL LTGICCG VC E-SE TS VC E-SE MOV NE CB DSNT W-NW TCU DSNT S SHRA DSNT S T03060211=
202207252152 METAR KATL 252152Z 26007KT 10SM FEW042 FEW080 FEW150 SCT200 BKN250 31/22 A3008 RMK AO2 LTG DSNT NW SLP174 CB DSNT NW TCU DSNT SE-S SHRA SE AND S T03110217=
202207252052 METAR KATL 252052Z 20011KT 10SM FEW045TCU FEW080 SCT200 BKN250 32/21 A3008 RMK AO2 SLP175 CB DSNT N SE NW TCU N NE NW DSNT ALQDS T03170206 56015=
202207251952 METAR KATL 251952Z 22010KT 10SM FEW043TCU SCT085 BKN200 BKN250 32/21 A3009 RMK AO2 SLP179 CB DSNT NE NW TCU NE SE S NW DSNT ALQDS T03170206=
202207251852 METAR KATL 251852Z 23009KT 10SM FEW045TCU SCT070 SCT110 BKN200 BKN250 32/21 A3011 RMK AO2 SLP184 CB DSNT NE NW TCU NE S-SW NW DSNT ALQDS T03220211=
202207251752 METAR KATL 251752Z 22007KT 10SM FEW042TCU SCT070 SCT110 BKN200 BKN250 31/21 A3013 RMK AO2 SLP190 CB DSNT NE TCU N NE SW DSNT ALQDS SHRA NE T03110206 10317 20244 58011=
202207251652 METAR KATL 251652Z 21006G15KT 10SM SCT036TCU SCT060 BKN100 BKN200 BKN250 31/21 A3016 RMK AO2 SLP200 CB DSNT N NE TCU OHD ALQDS DSNT NW-N SHRA NE DSNT N NE T03060206=
202207251552 METAR KATL 251552Z VRB06KT 10SM SCT030CB BKN090 BKN200 BKN250 31/22 A3017 RMK AO2 SLP204 CB N NE NW MOV E TCU ALQDS SHRA N NE NW T03060217=
202207251452 METAR KATL 251452Z 26007KT 10SM FEW028TCU SCT110 SCT200 BKN250 30/22 A3016 RMK AO2 SLP202 CB DSNT NE TCU NW DSNT W-NW T03000217 51009=
202207251352 METAR KATL 251352Z 27006KT 10SM FEW032 FEW150 SCT200 BKN250 28/22 A3015 RMK AO2 SLP198 T02830222=
202207251252 METAR KATL 251252Z 22004KT 10SM FEW150 SCT200 BKN250 27/22 A3015 RMK AO2 SLP197 T02670222=
202207251152 METAR KATL 251152Z 25005KT 10SM FEW150 SCT200 BKN250 24/22 A3013 RMK AO2 SLP192 T02440217 10261 20233 53017=
202207251052 METAR KATL 251052Z 24003KT 10SM FEW200 SCT250 23/22 A3011 RMK AO2 SLP185 T02330217=
202207250952 METAR KATL 250952Z 24005KT 10SM FEW200 BKN250 24/21 A3009 RMK AO2 SLP178 T02390211=
202207250852 METAR KATL 250852Z 23005KT 10SM FEW200 BKN250 24/22 A3008 RMK AO2 SLP175 T02390217 56008=
202207250752 METAR KATL 250752Z 22003KT 10SM FEW200 BKN250 25/22 A3009 RMK AO2 SLP176 T02500222=
202207250652 METAR KATL 250652Z 28007KT 10SM BKN200 BKN250 26/22 A3009 RMK AO2 SLP178 T02560222=
202207250552 METAR KATL 250552Z 22005KT 10SM FEW055 SCT200 SCT250 26/22 A3011 RMK AO2 SLP182 T02560222 10311 20256 58007=
202207250452 METAR KATL 250452Z 22005KT 10SM FEW055 SCT200 BKN250 27/22 A3013 RMK AO2 SLP190 CB DSNT E-SE T02670222 403390233=
202207250352 METAR KATL 250352Z 20004KT 10SM FEW055 FEW070 SCT200 BKN250 27/22 A3014 RMK AO2 SLP193 T02670222=
202207250252 METAR KATL 250252Z 22003KT 10SM FEW050 FEW070 SCT180 SCT250 28/22 A3013 RMK AO2 SLP191 FRQ LTGIC DSNT NE AND SE CB DSNT NE AND SE T02780217 51019=
202207250152 METAR KATL 250152Z 23003KT 10SM FEW050 FEW070 SCT200 SCT250 29/21 A3011 RMK AO2 LTG DSNT E AND SE SLP186 CB DSNT E AND SE T02940211=
202207250052 METAR KATL 250052Z 00000KT 10SM FEW060 FEW075 SCT150 SCT200 BKN250 30/21 A3009 RMK AO2 SLP178 TCU DSNT SE AND W T03000206=
202207242352 METAR KATL 242352Z 22005KT 10SM FEW060 FEW070 SCT180 BKN250 32/21 A3007 RMK AO2 SLP171 TCU DSNT SE T03170211 10339 20311 55007=
202207242252 METAR KATL 242252Z 25004KT 10SM FEW060 FEW200 BKN250 33/18 A3006 RMK AO2 SLP168 TCU DSNT SE-S MDT CU SW T03280183=
202207242152 METAR KATL 242152Z 22005KT 10SM FEW060 SCT150 SCT250 33/19 A3008 RMK AO2 SLP173 TCU DSNT SE-SW AND W T03280189=
202207242052 METAR KATL 242052Z 00000KT 10SM SCT055 SCT070 SCT150 BKN250 33/19 A3009 RMK AO2 SLP178 MDT CU DSNT SE-SW T03330194 56021=
202207241952 METAR KATL 241952Z VRB03KT 10SM SCT055 SCT065 SCT150 BKN250 33/19 A3010 RMK AO2 SLP182 MDT CU DSNT SE-SW T03280194=
202207241852 METAR KATL 241852Z 26006KT 10SM SCT048 SCT060 SCT150 BKN250 32/20 A3013 RMK AO2 SLP191 MDT CU DSNT SE-SW AND NW T03220200=
202207241752 METAR KATL 241752Z 21005KT 10SM SCT045 SCT055 SCT150 BKN250 33/19 A3016 RMK AO2 SLP198 MDT CU DSNT SW AND NW T03280194 10328 20250 58007=
202207241652 METAR KATL 241652Z 27004KT 10SM SCT042 SCT055 SCT150 BKN250 31/19 A3018 RMK AO2 SLP207 MDT CU DSNT SW AND NW T03110189=
202207241552 METAR KATL 241552Z VRB03KT 10SM SCT034 SCT150 SCT250 31/21 A3018 RMK AO2 SLP210 T03060211=
202207241452 METAR KATL 241452Z 28005KT 10SM FEW042 FEW250 29/23 A3018 RMK AO2 SLP207 T02940228 50005=
202207241352 METAR KATL 241352Z 29006KT 10SM FEW040 SCT250 28/22 A3019 RMK AO2 SLP211 T02830217=
202207241252 METAR KATL 241252Z 29007KT 10SM FEW040 FEW250 27/21 A3019 RMK AO2 SLP210 T02720206=
202207241152 METAR KATL 241152Z 27006KT 10SM FEW040 FEW200 25/21 A3016 RMK AO2 SLP202 T02500206 10256 20233 53014=
202207241052 METAR KATL 241052Z 27003KT 10SM FEW040 FEW200 23/21 A3015 RMK AO2 SLP198 T02330211=
202207240952 METAR KATL 240952Z 28004KT 10SM FEW040 24/21 A3013 RMK AO2 SLP193 T02440206=
202207240852 METAR KATL 240852Z 00000KT 10SM FEW040 24/21 A3012 RMK AO2 SLP188 T02390211 58014=
202207240752 METAR KATL 240752Z 00000KT 10SM SCT040 24/22 A3013 RMK AO2 SLP192 T02440217=
202207240652 METAR KATL 240652Z 29003KT 10SM FEW200 25/21 A3015 RMK AO2 SLP197 T02500211=
202207240552 METAR KATL 240552Z 00000KT 10SM FEW200 26/22 A3016 RMK AO2 SLP200 T02560217 10283 20250 56004=
202207240452 METAR KATL 240452Z 22003KT 10SM FEW200 FEW250 25/22 A3016 RMK AO2 SLP201 T02500222 403280217=
202207240352 METAR KATL 240352Z 00000KT 10SM FEW037 FEW200 FEW250 26/23 A3016 RMK AO2 SLP203 T02560228=
202207240252 METAR KATL 240252Z 00000KT 10SM BKN200 BKN250 27/23 A3017 RMK AO2 SLP206 T02670228 53018=
202207240152 METAR KATL 240152Z 21003KT 10SM SCT190 BKN210 BKN250 27/22 A3015 RMK AO2 SLP197 T02720217=
202207240052 METAR KATL 240052Z 20003KT 10SM FEW050 FEW150 SCT190 BKN250 28/22 A3013 RMK AO2 SLP192 T02780222=
202207232352 METAR KATL 232352Z 23003KT 10SM FEW045 FEW150 FEW200 BKN250 28/22 A3012 RMK AO2 SLP189 CB DSNT W AND NW TCU DSNT SE 60000 T02830217 10328 20250 55003=
202207232252 METAR KATL 232252Z 23005KT 10SM FEW040 SCT095 SCT130 SCT200 BKN250 28/22 A3011 RMK AO2 LTG DSNT N AND NW RAE2159 TSE09 SLP186 CB DSNT N AND NW TCU DSNT N-NE AND E AND SW MDT CU S P0000 T02780222=
202207232209 SPECI KATL 232209Z 23005KT 10SM SCT044 SCT060 SCT095 BKN130 BKN200 BKN250 27/22 A3011 RMK AO2 LTG DSNT N RAE2159 TSE09 TS DSTPD CB DSNT N AND E P0000 T02720217 $=
202207232152 METAR KATL 232152Z 27008KT 7SM -TSRA SCT039CB BKN060 BKN095 BKN130 26/21 A3011 RMK AO2 LTG DSNT NE AND SW SLP188 OCNL LTGICCG OHD-W-NW TS OHD-W-NW MOV E CB DSNT NE AND SW P0000 T02610206 $=
202207232052 METAR KATL 232052Z VRB03KT 6SM -TSRA SCT044CB SCT055 BKN080 BKN130 28/21 A3013 RMK AO2 PK WND 07045/2012 LTG DSNT W AND NW SLP192 OCNL LTGICCG NE-SE TS NE-SE MOV E CB DSNT W AND NW P0000 60000 T02780206 58003 $=
202207232023 SPECI KATL 232023Z 10016G36KT 4SM -TSRA SCT049CB BKN070 28/20 A3012 RMK AO2 PK WND 07045/2012 LTG DSNT SE AND W OCNL LTGICCG NE-SE TS NE-SE MOV NE CB DSNT SE AND W P0000 T02780200 $=
202207232013 SPECI KATL 232013Z 08028G45KT 1 1/2SM TSRA SCT049CB BKN070 29/19 A3014 RMK AO2 PK WND 07045/2012 LTG DSNT SE AND W FRQ LTGICCG OHD-NE-S TS OHD-NE-S MOV NE CB DSNT SE AND W P0000 T02940194 $=
202207231955 SPECI KATL 231955Z VRB05KT 2 1/2SM TSRA SCT041CB BKN060 32/22 A3015 RMK AO2 LTG DSNT SE AND W OCNL LTGICCG OH-SE-S TS OHD-SE-S MOV NE P0000 T03220217=
202207231952 METAR KATL 231952Z VRB05KT 3/4SM R09R/P6000FT +TSRA SCT041CB BKN060 BKN150 33/22 A3016 RMK AO2 LTG DSNT SE AND W PRESRR SLP202 TSB37 RAB34 OCNL LTGICCG OHD-SE-S TS OHD-SE-S MOV NE CB DSNT SW MDT CU DSNT SE-W P0000 T03280217=
202207231946 SPECI KATL 231946Z 18007KT 3/4SM R09R/P6000FT +TSRA SCT041CB BKN060 BKN150 32/21 A3014 RMK AO2 LTG DSNT SE AND S TSB37 RAB34 OCNL LTGICCG OHD-SE-S TS OHD-SE-S MOV NE CB DSNT SW MDT CU DSNT SE-W P0000=
202207231942 SPECI KATL 231942Z 21004KT 10SM -TSRA SCT041CB BKN060 BKN150 32/21 A3014 RMK AO2 LTG DSNT SE AND S TSB37 RAB34 OCNL LTGICCG OHD-SE-S TS OHD-SE-S MOV NE CB DSNT SW MDT CU DSNT SE-W P0000 T03220211=
202207231852 METAR KATL 231852Z 20006KT 10SM SCT038 SCT050 BKN150 BKN250 31/22 A3014 RMK AO2 SLP194 MDT CU DSNT S AND W T03110217=
202207231752 METAR KATL 231752Z 00000KT 10SM SCT036 SCT047 BKN150 BKN250 32/22 A3016 RMK AO2 SLP201 MDT CU DSNT W T03220222 10322 20217 58005=
202207231652 METAR KATL 231652Z VRB03KT 10SM SCT038 SCT140 BKN250 31/23 A3018 RMK AO2 SLP208 MDT CU DSNT W T03110228=
202207231552 METAR KATL 231552Z 22003KT 10SM SCT065 SCT100 SCT150 BKN250 29/23 A3017 RMK AO2 SLP207 T02940228=
202207231452 METAR KATL 231452Z VRB03KT 10SM FEW065 SCT100 SCT150 BKN250 28/22 A3017 RMK AO2 SLP207 T02780222 50006=
202207231352 METAR KATL 231352Z 26004KT 10SM FEW065 SCT100 BKN150 BKN250 25/21 A3018 RMK AO2 SLP209 T02500211=
202207231252 METAR KATL 231252Z 23005KT 10SM FEW060 BKN100 BKN150 BKN200 23/20 A3016 RMK AO2 SLP205 T02330200=
202207231152 METAR KATL 231152Z 23004KT 10SM SCT060 BKN100 BKN200 BKN250 22/19 A3016 RMK AO2 SLP201 70013 T02170194 10233 20217 53009=
202207231052 METAR KATL 231052Z 22004KT 10SM BKN050 BKN100 BKN200 BKN250 22/20 A3015 RMK AO2 SLP197 ACC NE T02170200 $=
202207230952 METAR KATL 230952Z 22004KT 10SM FEW100 SCT220 SCT250 22/20 A3013 RMK AO2 SLP192 T02170200 $=
202207230852 METAR KATL 230852Z 00000KT 10SM FEW100 SCT220 SCT250 22/20 A3013 RMK AO2 SLP191 T02220200 55004 $=
202207230752 METAR KATL 230752Z 32004KT 10SM FEW100 SCT220 BKN250 23/20 A3012 RMK AO2 SLP190 T02280200 $=
202207230652 METAR KATL 230652Z 00000KT 10SM FEW100 SCT200 SCT250 23/21 A3013 RMK AO2 SLP191 T02280211 $=
202207230552 METAR KATL 230552Z 00000KT 10SM SCT100 SCT220 BKN250 23/21 A3014 RMK AO2 SLP195 60011 T02280206 10272 20228 53002 $=
202207230452 METAR KATL 230452Z 00000KT 10SM FEW095 SCT200 BKN250 23/21 A3013 RMK AO2 SLP193 T02330206 403220217 $=
202207230352 METAR KATL 230352Z 31005KT 10SM FEW120 BKN200 BKN250 24/20 A3013 RMK AO2 SLP192 T02440200 $=
202207230252 METAR KATL 230252Z 00000KT 10SM FEW120 BKN200 BKN250 24/21 A3013 RMK AO2 SLP194 60011 T02390211 53011 $=
202207230152 METAR KATL 230152Z 27004KT 10SM FEW070 SCT150 BKN200 BKN250 24/21 A3010 RMK AO2 SLP183 T02440206 $=
202207230052 METAR KATL 230052Z 30011KT 10SM FEW025 SCT070 BKN100 BKN150 OVC250 26/21 A3013 RMK AO2 RAE40 TSE26 SLP194 LTG DSNT NW CB DSNT NE NW P0011 T02560211 $=
202207230026 SPECI KATL 230026Z 23006KT 10SM -RA FEW025 SCT070 BKN100 BKN150 OVC250 26/22 A3009 RMK AO2 TSE26 LTG DSNT NW TS DSIPTD CB DSNT NE NW P0011 T02560222 $=
202207222352 METAR KATL 222352Z 23011G21KT 8SM -TSRA SCT032CB BKN055 BKN100 OVC200 28/22 A3010 RMK AO2 SLP182 VIS LWR E-S OCNL LTGICCG S-SW TS S-SW NW MOV STNRY CB OHD-ALQDS MOV STNRY P0000 60002 T02780217 10322 20278 53012 PNO $=
202207222252 METAR KATL 222252Z 27005KT 6SM -TSRA SCT035CB BKN060 BKN150 BKN250 30/23 A3008 RMK AO2 RAB43 TSB45 SLP175 VIS LWR NE-E OCNL LTGICCG OHD-NE TS OHD-NE MOV STNRY TCU ALQDS P0002 T03000228=
202207222247 SPECI KATL 222247Z 28007KT 8SM -TSRA SCT035CB BKN070 BKN200 BKN250 31/23 A3008 RMK AO2 RAB43 TSB45 OCNL LTGICCG OHD-NE TS OHD-NE MOV STNRY TCU ALQDS P0000=
202207222152 METAR KATL 222152Z 20006KT 10SM SCT035TCU BKN200 BKN250 31/22 A3006 RMK AO2 SLP169 LTG DSNT N NE S-SW CB DSNT N NE S-SW TCU OHD-NE T03110222=
202207222052 METAR KATL 222052Z 24008KT 10SM FEW036 FEW060 BKN180 BKN250 31/22 A3006 RMK AO2 SLP169 CB DSNT N NE-E TCU DSNT E T03110222 56009=
202207221952 METAR KATL 221952Z 24007KT 10SM FEW036 FEW060 SCT120 SCT200 BKN250 31/22 A3007 RMK AO2 SLP171 CB DSNT NE SW TCU DSNT NE-E SW-W T03060217=
202207221852 METAR KATL 221852Z 24010KT 10SM FEW035 SCT050 SCT110 SCT200 BKN250 31/21 A3008 RMK AO2 LTG DSNT N AND NE TSB1756E49 SLP175 TS MOVD E CB DSNT NE-E TCU DSNT E-SE T03110211=
202207221850 SPECI KATL 221850Z 26009KT 10SM FEW035 SCT050 SCT110 BKN200 31/22 A3008 RMK AO2 LTG DSNT N TSB1756E49 TS MOVD E CB DSNT NE-E TCU DSNT E-SE=
202207221757 SPECI KATL 221757Z 23008KT 200V270 10SM TS FEW021 BKN040CB BKN100 BKN200 30/23 A3009 RMK AO2 LTG DSNT N TSB56 OCNL LTGICCG VC N-NE TS VC N-NE MOV E CB DSNT N TCU E SE NW SHRA VC N-NE T03000233=
202207221752 METAR KATL 221752Z 22008KT 10SM FEW021 BKN043TCU BKN100 BKN200 BKN250 29/23 A3009 RMK AO2 LTG DSNT N SLP178 TCU N-NE E SE NW SHRA N-NE T02940233 10294 20217 50002=
202207221652 METAR KATL 221652Z 21009KT 10SM FEW026 SCT042TCU BKN180 BKN250 29/23 A3009 RMK AO2 SLP180 TCU S-SW T02890228=
202207221552 METAR KATL 221552Z VRB04KT 10SM FEW026 FEW120 BKN200 BKN250 28/22 A3010 RMK AO2 SLP181 TSU DSNT SW T02830222=
202207221452 METAR KATL 221452Z 00000KT 10SM FEW024 FEW110 BKN180 BKN250 27/21 A3008 RMK AO2 SLP177 ACC NW T02670211 51013=
202207221352 METAR KATL 221352Z 31006KT 10SM FEW018 FEW140 SCT250 BKN300 26/21 A3007 RMK AO2 SLP173 ACC SE T02610211=
202207221252 METAR KATL 221252Z 26005KT 10SM FEW009 FEW150 SCT250 BKN300 23/21 A3006 RMK AO2 SLP170 T02330211=
202207221152 METAR KATL 221152Z 27003KT 10SM FEW005 FEW150 FEW200 BKN250 22/21 A3005 RMK AO2 SLP165 70011 T02170206 10233 20217 53008=
202207221052 METAR KATL 221052Z 00000KT 9SM FEW005 FEW150 SCT200 OVC250 22/21 A3004 RMK AO2 SLP163 T02170206=
202207220952 METAR KATL 220952Z 24004KT 10SM FEW005 BKN250 22/21 A3003 RMK AO2 SLP158 T02170206=
202207220852 METAR KATL 220852Z 25003KT 10SM FEW006 BKN250 22/20 A3002 RMK AO2 SLP157 T02170200 50004=
202207220752 METAR KATL 220752Z 25004KT 10SM SCT075 BKN250 22/20 A3003 RMK AO2 SLP160 T02220200=
202207220652 METAR KATL 220652Z 21003KT 10SM SCT065 BKN250 22/20 A3001 RMK AO2 SLP153 T02220200=
202207220552 METAR KATL 220552Z 31004KT 10SM SCT200 BKN250 23/20 A3001 RMK AO2 SLP153 T02280200 10250 20228 53007=
202207220452 METAR KATL 220452Z 30004KT 10SM BKN200 BKN250 23/20 A3001 RMK AO2 SLP153 T02330200 402610222=
202207220352 METAR KATL 220352Z 19003KT 10SM SCT200 BKN250 23/20 A2998 RMK AO2 SLP143 T02330200=
202207220252 METAR KATL 220252Z 22004KT 10SM BKN200 BKN250 24/20 A2999 RMK AO2 SLP146 T02390200 53008=
202207220152 METAR KATL 220152Z 00000KT 10SM BKN200 BKN250 24/20 A2996 RMK AO2 SLP138 T02390200=
202207220052 METAR KATL 220052Z 23006KT 10SM FEW070 BKN200 BKN250 24/21 A2997 RMK AO2 SLP138 T02440206=
202207212352 METAR KATL 212352Z 20004KT 10SM SCT075 BKN200 BKN250 25/21 A2996 RMK AO2 SLP137 T02500206 10261 20244 55006=
202207212252 METAR KATL 212252Z 22004KT 10SM FEW090 SCT150 BKN200 OVC250 26/19 A2995 RMK AO2 SLP133 T02560194=
202207212152 METAR KATL 212152Z 23006KT 10SM FEW090 BKN200 BKN250 26/20 A2997 RMK AO2 SLP138 T02560200=
202207212052 METAR KATL 212052Z 23004KT 10SM FEW028 FEW100 BKN200CB BKN250 25/21 A2998 RMK AO2 SLP143 CBMAM N-OHD-S MOV SE CB DSNT E SE-S TCU DSNT E T02500211 53000=
202207211952 METAR KATL 211952Z 26005KT 10SM FEW034 FEW110 BKN180CB BKN250 26/23 A2998 RMK AO2 LTG DSNT SE AND S SLP140 CBMAM SE-SW MOV SE CB DSNT SE S ACC NE DSNT N T02610228=
202207211852 METAR KATL 211852Z 23004KT 10SM FEW032 FEW120 BKN200 BKN250 26/23 A2997 RMK AO2 SLP139 CBMAM DSNT S-SW CB DSNT S-SW TCU DSNT S T02560228=
202207211752 METAR KATL 211752Z 21005KT 10SM FEW001 FEW032 SCT120 BKN200CB BKN250 25/22 A2998 RMK AO2 LTG DSNT S AND SW RAE00 TSB27E42 SLP143 TS MOVD SE FU FEW001 FU PLUME S CBMAM S-W-NW MOV SE CB DSNT SW TCU DSNT SE-S P0000 60011 T02500222 10=
202207211745 SPECI KATL 211745Z 20005KT 10SM FEW032 SCT130 BKN200 BKN250 25/22 A2998 RMK AO2 LTG DSNT SW RAE00 TSB27E42 TS MOVD SE CB DSNT SW P0000 T02500222=
202207211731 SPECI KATL 211731Z 17004KT 10SM TS FEW030CB SCT120 BKN200 BKN250 24/22 A2999 RMK AO2 LTG DSNT SW RAE00 TSB27 OCNL LTGICCA VC SW TS VC SW MOV SE CB DSNT SW P0000 T02440222=
202207211652 METAR KATL 211652Z 22007KT 10SM -RA SCT028TCU SCT110 BKN180CB BKN250 24/22 A2999 RMK AO2 LTG DSNT SW AND W SLP146 RAB15 CBMAM N-OHD-S MOV SE CB DSNT SW-W TCU SE-SW P0000 T02390222=
202207211611 SPECI KATL 211611Z 09004KT 10SM BKN028TCU BKN038 OVC110 24/22 A3003 RMK AO2 CB DSNT NE SW-W TCU OHD-ALQDS T02390217=
202207211552 METAR KATL 211552Z 14006KT 10SM FEW014 SCT036 BKN140 OVC200 24/21 A3003 RMK AO2 RAE23 TSE11 SLP157 TS MOVD SE CB DSNT SW-NW P0003 T02390211=
202207211542 SPECI KATL 211542Z 17005KT 10SM FEW014 SCT032 BKN120 OVC200 23/21 A3002 RMK AO2 RAE23 TSE11 TS MOVD SE CB DSNT W-NW P0003 T02330211=
202207211511 SPECI KATL 211511Z 10008KT 8SM -RA FEW013 BKN027 BKN080 OVC130 22/21 A3002 RMK AO2 LTG DSNT E AND W AND NW TSE11 TS MOVD SE CB DSNT E-SE W-NW P0003 T02220206=
202207211452 METAR KATL 211452Z 08013KT 6SM +TSRA BR FEW010 BKN024CB OVC065 23/21 A3003 RMK AO2 RAB38 TSB18 SLP160 VIS LWR E-S OCNL LTGICCA E-S TS E-S MOV SE CB DSNT NE NW P0002 60008 T02280206 53013=
202207211429 SPECI KATL 211429Z 05014G19KT 8SM TS SCT008 BKN022CB OVC080 24/23 A3004 RMK AO2 LTG DSNT NW-NE TSB18 OCNL LTGICCGCA NW-NE TS NW-NE MOV SE SHELF CLOUD E-OHD-W MOV S CB DSNT NW-NE T02440228=
202207211418 SPECI KATL 211418Z 06003KT 7SM TS BKN008 BKN045CB BKN085 OVC130 25/23 A3003 RMK AO2 LTG DSNT NW-NE TSB18 PRESRR OCNL LTGICCGCA NW-NE TS NW-NE MOV SE SHELF CLOUD NW-NE MOV SE CB DSNT NW-NE T02500233=
202207211352 METAR KATL 211352Z 20004KT 6SM BR FEW007 SCT070 BKN100 BKN200 25/23 A3000 RMK AO2 LTG DSNT N AND NE RAE51 SLP147 CB DSNT NW-NE ACC OHD-ALQDS P0004 T02500233=
202207211325 SPECI KATL 211325Z 21004KT 6SM -RA BR FEW008 SCT070 BKN100 BKN200 25/23 A2999 RMK AO2 LTG DSNT N AND NE CB DSNT NW-NE ACC OHD-ALQDS P0003 T02500233=
202207211252 METAR KATL 211252Z 27006KT 6SM -RA BR FEW011 BKN045 BKN110 BKN200 25/23 A3001 RMK AO2 LTG DSNT N AND NE SLP151 RAE11B30 TSB11E48 TS MOV E CB DSNT NW-NE P0002 T02500233=
202207211227 SPECI KATL 211227Z 27007KT 8SM TS SCT011CB BKN020 BKN045 BKN150 BKN200 OVC250 25/23 A3001 RMK AO2 LTG DSNT W AND NE CB DSNT W AND NE RAE11 TSB11 OCNL LTGICCG N TS N MOV E P0000 T02500228=
202207211216 SPECI KATL 211216Z 27007KT 8SM TS SCT011CB SCT046 BKN090 BKN150 BKN200 OVC250 25/23 A3001 RMK AO2 LTG DSNT W AND NE CB DSNT W AND NE RAE11 TSB11 OCNL LTGICCG N TS N MOV E P0000 T02500228=
202207211152 METAR KATL 211152Z 24007KT 8SM -RA SCT011 SCT047 BKN090 BKN150 BKN200 OVC250 25/23 A2999 RMK AO2 LTG DSNT W-NE RAB27 SLP145 CB DSNT W-NE P0000 60000 T02500228 10256 20250 53018=
202207211052 METAR KATL 211052Z 25009KT 10SM FEW010 BKN046 BKN090 BKN150 BKN200 BKN250 25/23 A2996 RMK AO2 LTG DSNT NW-NE SLP134 CB DSNT NW-NE T02500228=
202207210952 METAR KATL 210952Z 24009KT 10SM SCT011 BKN043 BKN200 BKN250 25/22 A2995 RMK AO2 SLP130 T02500222=
202207210852 METAR KATL 210852Z 24008KT 10SM FEW012 SCT043 BKN200 BKN250 25/22 A2994 RMK AO2 SLP126 T02500222 53005=
202207210752 METAR KATL 210752Z 23009G16KT 10SM FEW012 FEW120 BKN300 26/23 A2992 RMK AO2 SLP119 T02560228=
202207210652 METAR KATL 210652Z 22006KT 10SM FEW045 SCT250 25/23 A2992 RMK AO2 SLP119 T02500228=
202207210552 METAR KATL 210552Z 20006KT 10SM FEW200 SCT250 26/23 A2992 RMK AO2 SLP121 T02560228 10311 20256 58006=
202207210452 METAR KATL 210452Z 20005KT 10SM FEW200 BKN250 27/22 A2994 RMK AO2 SLP127 T02670222 403330233=
202207210352 METAR KATL 210352Z 22005KT 10SM FEW200 BKN250 27/22 A2993 RMK AO2 SLP123 T02720217=
202207210252 METAR KATL 210252Z 23006KT 10SM FEW200 SCT250 28/22 A2994 RMK AO2 SLP128 T02830222 53007=
202207210152 METAR KATL 210152Z 22008KT 10SM FEW120 SCT200 SCT250 29/22 A2993 RMK AO2 SLP123 T02890222=
202207210052 METAR KATL 210052Z 21006KT 10SM FEW120 SCT200 SCT250 29/22 A2992 RMK AO2 SLP121 CB DSNT NE T02940222=
202207202352 METAR KATL 202352Z 21007KT 10SM FEW040 BKN130 BKN250 31/22 A2992 RMK AO2 SLP120 ACC OHD-E T03110222 10333 20311 55001=
202207202252 METAR KATL 202252Z 23007KT 10SM FEW042 SCT150 BKN200 BKN250 32/22 A2992 RMK AO2 SLP119 TCU DSNT S T03170217=
202207202152 METAR KATL 202152Z 22008G16KT 10SM SCT042 BKN200 BKN250 33/22 A2993 RMK AO2 SLP122 T03280222 $=
202207202052 METAR KATL 202052Z 22009KT 10SM FEW045 SCT065 SCT200 BKN250 33/23 A2993 RMK AO2 SLP121 TCU DSNT N E-SE T03280228 56014 $=
202207201952 METAR KATL 201952Z 23008KT 10SM SCT042 SCT065 BKN200 BKN250 33/22 A2993 RMK AO2 SLP123 TCU DSNT SE MDT CU ALQDS T03280222 $=
202207201852 METAR KATL 201852Z 22009KT 10SM SCT040 SCT065 BKN200 BKN250 32/23 A2995 RMK AO2 SLP129 TCU DSNT NE-SE-S MDT CU ALQDS T03220228 $=
202207201752 METAR KATL 201752Z 24007G16KT 10SM SCT038 BKN060 BKN200 BKN250 32/23 A2997 RMK AO2 SLP136 MDT CU ALQDS DSNT ALQDS 60000 T03220228 10322 20250 58017 $=
202207201652 METAR KATL 201652Z 23006G15KT 10SM SCT026 BKN055 BKN180 BKN250 31/23 A2999 RMK AO2 SLP144 TCU DSNT NE W MDT CU ALQDS T03110233=
202207201552 METAR KATL 201552Z 26008KT 10SM SCT022 BKN033 BKN120 BKN180 BKN250 30/24 A3001 RMK AO2 SLP151 MDT CU ALQDS T03000239=
202207201452 METAR KATL 201452Z 27006G15KT 10SM BKN016 BKN095 BKN250 29/24 A3002 RMK AO2 SLP154 CIG 014V018 MDT CU ALQDS 60000 T02890239 50000=
202207201352 METAR KATL 201352Z 25007KT 9SM SCT010 BKN110 BKN250 26/24 A3003 RMK AO2 RAE1257 SLP159 P0000 T02560239=
202207201346 SPECI KATL 201346Z 23006KT 9SM SCT009 BKN110 BKN250 26/23 A3003 RMK AO2 RAE1257 P0000=
202207201252 METAR KATL 201252Z 27007KT 8SM -RA BKN009 OVC110 25/23 A3002 RMK AO2 RAB38 SLP158 BKN009 V SCT BINOVC P0000 T02500233=
202207201152 METAR KATL 201152Z 25006KT 7SM OVC008 25/23 A3002 RMK AO2 SLP155 CIG 007V011 70053 T02500228 10250 20233 51012=
202207201052 METAR KATL 201052Z 24006KT 7SM OVC008 24/23 A3001 RMK AO2 SLP153 CIG 007V010 T02440228=
202207200952 METAR KATL 200952Z 23006KT 7SM BKN007 OVC012 24/23 A2999 RMK AO2 SLP147 T02440228=
202207200852 METAR KATL 200852Z 22006KT 7SM BKN007 BKN070 24/22 A2998 RMK AO2 SLP141 T02390222 56010 $=
202207200839 SPECI KATL 200839Z 23006KT 7SM BKN007 BKN070 23/22 A2998 RMK AO2 LTG DSNT N CB DSNT N T02330222 $=
202207200752 METAR KATL 200752Z 22005KT 10SM SCT007 SCT070 SCT130 SCT200 23/22 A2998 RMK AO2 SLP142 T02330222 $=
202207200652 METAR KATL 200652Z 22005KT 10SM BKN070 BKN130 BKN200 23/22 A3000 RMK AO2 SLP149 T02330222 $=
202207200552 METAR KATL 200552Z 22005KT 10SM FEW070 SCT130 BKN200 23/22 A3001 RMK AO2 SLP151 60000 T02330217 10239 20233 58004 $=
202207200452 METAR KATL 200452Z 21005KT 10SM FEW030 SCT070 BKN100 BKN200 23/22 A3002 RMK AO2 LTG DSNT E SLP154 CB DSNT NE-E T02330217 403060206 $=
202207200352 METAR KATL 200352Z 21006KT 10SM FEW030 BKN080 BKN200 23/22 A3002 RMK AO2 LTG DSNT NE AND E SLP157 CB DSNT NE-E T02330217 $=
202207200252 METAR KATL 200252Z 21006KT 10SM FEW030 SCT060 BKN100 BKN200 23/22 A3002 RMK AO2 LTG DSNT E SLP159 CB DSNT NE-E 60000 T02330217 53009 $=
202207200152 METAR KATL 200152Z 19006KT 10SM FEW032TCU SCT050 BKN200 BKN250 23/21 A3001 RMK AO2 SLP156 TCU OHD-NE T02330211 $=
202207200052 METAR KATL 200052Z 18003KT 10SM FEW035TCU SCT150 BKN200 BKN250 24/21 A2999 RMK AO2 RAB36E50 SLP146 TCU OHD-S P0000 T02390206 $=
202207192352 METAR KATL 192352Z 21004KT 10SM FEW020 SCT150 BKN200 BKN250 24/21 A3000 RMK AO2 SLP148 CB DSNT W-NW TCU DSNT N 60001 T02390206 10306 20233 50002 $=
202207192252 METAR KATL 192252Z 17010G20KT 10SM FEW015 SCT120 BKN150CB BKN200 24/19 A3001 RMK AO2 SLP152 LTG DSNT SE-S SW-W CB DSNT SE-S SW-W CBMAM OHD-S MOV SE T02390194 $=
202207192152 METAR KATL 192152Z 00000KT 10SM FEW030 SCT110 BKN150CB BKN200 26/22 A2999 RMK AO2 RAB13E52 TSE52 SLP147 FRQ LTG DSNT NE-SE S-SW TS MOVD E CB DSNT NE-SE S-SW NW CBMAM OHD-N P0001 T02610217 $=
202207192052 METAR KATL 192052Z 23008KT 10SM TS SCT034CB SCT110 BKN200 BKN250 29/21 A2999 RMK AO2 SLP144 TSB27 FRQ LTGICCGCA W-N TS W-N MOV E CB DSNT SE-SW-NW TCU SW-NW-N SHELF CLOUD NW-N MOV E T02890206 58017 $=
202207192028 SPECI KATL 192028Z 22007KT 170V250 10SM TS SCT034CB BKN110 BKN200 BKN250 30/22 A2999 RMK AO2 LTG DSNT W AND NW TSB27 FRQ LTGICCGCA VC W-NW TS VC W-NW MOV E CB DSNT SE-S W-NW SHRA W-NW T03000222 $=
202207191952 METAR KATL 191952Z 21005KT 10SM SCT033 SCT120 BKN200 BKN250 31/23 A3001 RMK AO2 LTG DSNT W AND NW SLP150 CB DSNT W-NW MDT CU SW-NW T03060228=
202207191852 METAR KATL 191852Z 20005KT 10SM FEW026 FEW120 BKN180 BKN250 29/22 A3002 RMK AO2 SLP155 CB DSNT SE T02890217 $=
202207191752 METAR KATL 191752Z 24005KT 10SM FEW018 FEW034 SCT120 BKN200 28/22 A3004 RMK AO2 LTG DSNT SW SLP162 CB DSNT S-SW TCU DSNT SE 60052 T02830222 10283 20206 58013=
202207191652 METAR KATL 191652Z 34010KT 10SM FEW014 SCT033 SCT100 BKN200 27/23 A3009 RMK AO2 SLP180 CB DSNT NE SHRA DSNT NE T02670228=
202207191552 METAR KATL 191552Z 28005KT 10SM FEW020 SCT080 SCT120 BKN200 26/22 A3009 RMK AO2 SLP178 ACC N-NE DSNT S T02560217=
202207191452 METAR KATL 191452Z 21003KT 10SM FEW032CB BKN055 BKN080 BKN140 BKN200 22/19 A3008 RMK AO2 RAB21E48 TSE03 SLP177 TS MOVD SE CB E-S MOV E SHRA NE-SE-S P0004 60052 T02170194 50007=
202207191439 SPECI KATL 191439Z 00000KT 8SM R09R/5000VP6000FT -RA FEW022 SCT046CB BKN080 BKN130 BKN200 22/19 A3009 RMK AO2 RAB21 TSE03 TS MOVD SE CB NE-SE-SW MOV E P0004 T02170194=
202207191436 SPECI KATL 191436Z 00000KT 3SM R09R/5000VP6000FT +RA BR SCT048CB BKN075 BKN110 OVC200 22/19 A3009 RMK AO2 RAB21 TSE03 TS MOVD SE CB NE-OHD-SW MOV E CB DSNT E P0003 T02170194=
202207191404 SPECI KATL 191404Z 00000KT 10SM FEW012 SCT044TCU BKN080 BKN130 BKN200 21/19 A3009 RMK AO2 LTG DSNT NE AND E TSE03 TS MOVD SE CB DSNT NE E-SE TCU SE W-NW SHRA W-NW DSNT NE-SE T02110189=
202207191352 METAR KATL 191352Z 33004KT 10SM TS SCT034CB BKN075 BKN120 BKN200 21/19 A3009 RMK AO2 PK WND 28031/1309 RAB06E47 SLP181 OCNL LTGICCGCA VC NE-SE TS VC NE-SE MOV SE TCU SE W-NW SHRA NE-SE W-NW P0048 T02110189=
202207191342 SPECI KATL 191342Z 32007KT 10SM -TSRA SCT034CB BKN075 BKN120 BKN200 21/19 A3009 RMK AO2 PK WND 28031/1309 RAB06 OCNL LTGICCGCA NE-SE TS NE-SE MOV SE P0048 T02110189=
202207191338 SPECI KATL 191338Z 33009KT 4SM R09R/4500VP6000FT -TSRA BR BKN034CB OVC055 21/19 A3009 RMK AO2 PK WND 28031/1309 RAB06 PRESFR OCNL LTGICCGCA NE-SE-S TS NE-SE-S MOV SE P0048 T02110189=
202207191334 SPECI KATL 191334Z 33009G24KT 2SM R09R/4000VP6000FT +TSRA BR BKN030CB OVC055 21/19 A3010 RMK AO2 PK WND 28031/1309 RAB06 VIS LWR NE-SE OCNL LTGICCGCA OHD-ALQDS TS OHD-ALQDS MOV SE P0045 T02060189=
202207191328 SPECI KATL 191328Z 32014G24KT 3/4SM R09R/3500VP6000FT +TSRA BR BKN030CB OVC055 21/19 A3010 RMK AO2 PK WND 28031/1309 RAB06 FRQ LTGICCGCA OHD-ALQDS TS OHD-ALQDS MOV SE P0030 T02110189=
202207191326 SPECI KATL 191326Z 31017G24KT 1SM R09R/3500VP6000FT +TSRA BR BKN030CB OVC055 21/19 A3011 RMK AO2 PK WND 28031/1309 RAB06 FRQ LTGICCGCA OHD-ALQDS TS OHD-ALQDS MOV SE P0022 T02110194=
202207191318 SPECI KATL 191318Z 30016G31KT 3SM +TSRA BR FEW008 BKN038CB OVC055 22/19 A3012 RMK AO2 PK WND 28031/1309 RAB06 VIS SE-SW 1 1/2 FRQ LTGICCGCA OHD-ALQDS TS OHD-ALQDS MOV SE P0010 T02170194=
202207191308 SPECI KATL 191308Z 28016G22KT 1 1/2SM +TSRA BR SCT008 BKN038CB OVC075 22/20 A3011 RMK AO2 RAB06 OCNL LTGICCGCA NE-OHD-SW TS NE-OHD-SW MOV SE P0000 T02220200=
202207191302 SPECI KATL 191302Z 29014G18KT 10SM TS FEW007 BKN038CB BKN070 BKN130 BKN200 22/21 A3011 RMK AO2 LTG DSNT SW-N PRESRR OCNL LTGICCGCA SW-NW TS SW-NW MOV SE CB DSNT SW-NW-N T02220206=
202207191252 METAR KATL 191252Z 25005KT 10SM TS FEW007 BKN038CB BKN070 BKN130 BKN200 22/21 A3007 RMK AO2 LTG DSNT SW-N RAE1156 TSE50B52 SLP174 OCNL LTGICCGCA VC W-N TS VC W-N MOV SE P0000 T02220206=
202207191223 SPECI KATL 191223Z 22003KT 10SM FEW004 FEW050 SCT110 BKN150 BKN200 22/21 A3005 RMK AO2 RAE1156 CB DSNT NW P0000 T02170206=
202207191152 METAR KATL 191152Z 21006KT 10SM -RA FEW050 BKN080 BKN110 BKN200 22/21 A3006 RMK AO2 RAB1057 SLP170 P0006 60006 70021 T02220206 10233 20222 50013=
202207191052 METAR KATL 191052Z 27008KT 7SM FEW009 SCT032 BKN070 OVC130 23/21 A3006 RMK AO2 LTG DSNT NE AND S RAB20E48 TSE46 SLP169 TS MOVD NE CB DSNT NE S-SW P0000 T02280206=
202207191047 SPECI KATL 191047Z 26006KT 7SM -RA SCT018 SCT032 BKN075 BKN130 BKN200 23/21 A3006 RMK AO2 LTG DSNT NE AND S RAB20 TSE46 TS MOVD NE CB DSNT NE S-SW P0000=
202207191029 SPECI KATL 191029Z 28011KT 7SM -TSRA SCT020 BKN032CB BKN100 OVC200 23/21 A3005 RMK AO2 LTG DSNT N AND NE AND SW RAB20 FRQ LTGICCACG VC N-NE TS VC N-NE MOV E P0000 T02280206=
202207190952 METAR KATL 190952Z 22006KT 10SM TS FEW018CB SCT038 SCT060 SCT130 SCT200 23/21 A3002 RMK AO2 LTG DSNT W-N RAE0854 TSB51 SLP155 OCNL LTGICCACG VC W-NW TS VC W-NW MOV E P0000 T02280206=
202207190852 METAR KATL 190852Z 27005KT 10SM -RA FEW018 BKN033 BKN060 BKN130 BKN200 23/21 A3002 RMK AO2 RAB45 TSB07E25 SLP153 TS DSIPTD P0000 60000 T02330206 55002=
202207190825 SPECI KATL 190825Z 28006KT 10SM FEW018 SCT038 BKN060 BKN130 BKN200 23/21 A3003 RMK AO2 TSB07E25 TS DSIPTD T02330206=
202207190807 SPECI KATL 190807Z 26007KT 10SM TS FEW030CB SCT060 BKN095 BKN130 BKN200 23/21 A3002 RMK AO2 TSB07 OCNL LTGIC VC NW-N TS VC NW-N MOV SE T02330206=
202207190752 METAR KATL 190752Z 23006KT 10SM SCT060 BKN090 BKN130 BKN200 23/21 A3001 RMK AO2 LTG DSNT NW SLP151 CB DSNT NW T02280206=
202207190652 METAR KATL 190652Z 22004KT 10SM FEW065 SCT080 BKN130 BKN200 23/21 A3001 RMK AO2 SLP151 T02280211=
202207190552 METAR KATL 190552Z 21004KT 10SM SCT070 BKN120 BKN200 23/21 A3003 RMK AO2 SLP156 60006 T02280211 10267 20228 53008=
202207190452 METAR KATL 190452Z 23005KT 10SM SCT070 BKN120 BKN200 23/22 A3002 RMK AO2 SLP154 T02330217 403390228=
202207190352 METAR KATL 190352Z 23003KT 10SM FEW110 SCT150 BKN200 24/22 A3001 RMK AO2 SLP150 T02390217=
202207190252 METAR KATL 190252Z 00000KT 10SM FEW060 BKN110 BKN200 24/22 A3000 RMK AO2 SLP148 60006 T02440222 51008=
202207190152 METAR KATL 190152Z 20003KT 10SM FEW055 SCT110 BKN150 BKN200 24/22 A3000 RMK AO2 RAE48 TSE29 SLP147 LTG DSNT NE-SE CB DSNT NE-SE P0002 T02440222=
202207190129 SPECI KATL 190129Z 20004KT 10SM -RA FEW035 SCT060 BKN110 BKN200 24/22 A2999 RMK AO2 TSE29 LTG DSNT NE-SE TS MOVD NE CB DSNT NE-SE P0002 T02440222=
202207190052 METAR KATL 190052Z 20004G17KT 7SM -TSRA BKN042CB BKN100 BKN200 25/22 A3000 RMK AO2 RAB01E13B44 TSB37 SLP146 VIS LWR E-S OCNL LTGICCG E-S VC S-SW TS E-S VC S-SW MOV NE TCU OHD-ALQDS P0004 T02500222=
202207190037 SPECI KATL 190037Z 31004KT 10SM TS SCT045CB BKN060 BKN100 BKN200 26/21 A2998 RMK AO2 RAB01E13 TSB37 OCNL LTGICCG VC S-SW TS VC S-SW MOV NE TCU OHD-ALQDS P0000 T02610211=
202207182352 METAR KATL 182352Z 34007KT 10SM SCT055TCU BKN100 BKN200 27/22 A2998 RMK AO2 LTG DSNT SW RAB13E25 SLP140 SHRA S-SW CB DSNT SW TCU OHD-ALQDS P0004 60004 T02670217 10339 20267 51006=
202207182252 METAR KATL 182252Z 33013KT 10SM SCT055CB BKN090 BKN200 28/21 A2997 RMK AO2 WSHFT 2226 SLP140 CB NW DSNT NE MOV NE TCU OHD-ALQDS T02780206=
202207182152 METAR KATL 182152Z 26010KT 10SM SCT055 SCT070 BKN200 33/19 A2996 RMK AO2 SLP135 CB DSNT W-N-NE MDT CU ALQDS T03280194=
202207182052 METAR KATL 182052Z 22010G18KT 10SM SCT055 SCT070 SCT150 32/19 A2996 RMK AO2 SLP132 MDT CU DSNT NW-NE T03220189 56020=
202207181952 METAR KATL 181952Z 22008G17KT 10SM SCT042 SCT055 SCT150 33/19 A2996 RMK AO2 SLP133 MDT CU DSNT E-SE AND NW-N T03280189=
202207181852 METAR KATL 181852Z 24010G16KT 10SM SCT040 SCT055 SCT150 33/19 A2999 RMK AO2 SLP143 MDT CU DSNT N AND SE-SW T03280194=
202207181752 METAR KATL 181752Z 22007KT 10SM SCT038TCU SCT055 SCT080 BKN250 31/22 A3002 RMK AO2 RAB07E28 SLP153 TCU SE MDT CU DSNT NE-SE AND W SHRA VC DSNT NE-SE P0005 60005 T03060222 10317 20239 58014=
202207181652 METAR KATL 181652Z 20008G15KT 10SM SCT039 SCT050 BKN250 31/20 A3004 RMK AO2 SLP160 MDT CU DSNT W-N SHRA VC DSNT NW-N T03110200=
202207181552 METAR KATL 181552Z 21008G16KT 10SM SCT035 SCT250 31/21 A3006 RMK AO2 SLP166 T03060206=
202207181452 METAR KATL 181452Z 23010KT 10SM FEW034 SCT250 29/20 A3006 RMK AO2 SLP167 T02940200 50002=
202207181352 METAR KATL 181352Z 24008KT 10SM FEW250 28/21 A3006 RMK AO2 SLP167 T02830211=
202207181252 METAR KATL 181252Z 25006KT 10SM FEW250 27/21 A3006 RMK AO2 SLP167 T02670206=
202207181152 METAR KATL 181152Z 22005KT 10SM FEW250 24/21 A3005 RMK AO2 SLP166 T02390206 10250 20228 53010=
202207181052 METAR KATL 181052Z 22005KT 10SM FEW250 23/20 A3004 RMK AO2 SLP162 T02280200=
202207180952 METAR KATL 180952Z 21004KT 10SM FEW250 23/20 A3003 RMK AO2 SLP157 T02330200=
202207180852 METAR KATL 180852Z 23003KT 10SM FEW250 23/20 A3002 RMK AO2 SLP156 T02330200 56003=
202207180752 METAR KATL 180752Z 22004KT 10SM FEW250 24/19 A3003 RMK AO2 SLP156 T02440194=
202207180652 METAR KATL 180652Z 22004KT 10SM FEW250 24/20 A3002 RMK AO2 SLP154 T02440200=
202207180552 METAR KATL 180552Z 20004KT 10SM FEW250 25/20 A3003 RMK AO2 SLP157 T02500200 10306 20250 58002=
202207180452 METAR KATL 180452Z 20005KT 10SM FEW250 26/20 A3004 RMK AO2 SLP160 T02560200 403220228=
202207180352 METAR KATL 180352Z 19004KT 10SM FEW250 27/19 A3004 RMK AO2 SLP161 T02670194=
202207180252 METAR KATL 180252Z 19006KT 10SM FEW250 27/19 A3004 RMK AO2 SLP159 T02720194 53008=
202207180152 METAR KATL 180152Z 19004KT 10SM FEW050 FEW060 FEW200 SCT250 28/19 A3003 RMK AO2 SLP155 T02830194=
202207180052 METAR KATL 180052Z 19004KT 10SM SCT050 SCT065 SCT200 SCT250 29/19 A3002 RMK AO2 SLP154 TCU DSNT NW T02940194=
202207172352 METAR KATL 172352Z 21005KT 10SM FEW060 FEW110 FEW200 SCT250 31/19 A3001 RMK AO2 SLP152 TCU DSNT W AND NW T03060189 10322 20306 55005=
202207172252 METAR KATL 172252Z 21008KT 10SM SCT050TCU SCT150 SCT250 32/18 A3001 RMK AO2 SLP151 TCU W-NW T03170183=
202207172152 METAR KATL 172152Z 22007KT 10SM FEW045 SCT110 SCT200 SCT250 32/19 A3002 RMK AO2 SLP154 CB DSNT NW TCU DSNT NE AND SW AND NW SHRA DSNT NE AND NW T03170189=
202207172052 METAR KATL 172052Z 21007KT 10SM FEW045 SCT110 SCT200 31/19 A3003 RMK AO2 SLP158 CB DSNT N TCU DSNT SW-NW T03060189 56016=
202207171952 METAR KATL 171952Z 23008KT 10SM FEW048 SCT100 SCT250 31/19 A3004 RMK AO2 SLP162 CB DSNT N TCU DSNT SW-NW T03110189=
202207171852 METAR KATL 171852Z 17008KT 10SM SCT045TCU SCT100 SCT250 32/20 A3006 RMK AO2 SLP166 TCU ALQDS MDT CU ALQDS SHRA S SW T03170200=
202207171752 METAR KATL 171752Z VRB04KT 10SM BKN042TCU BKN250 31/20 A3008 RMK AO2 SLP173 TCU N S MDT CU ALQDS T03110200 10317 20233 58001=
202207171652 METAR KATL 171652Z VRB05KT 10SM BKN036 BKN250 30/20 A3008 RMK AO2 SLP175 MDT CU ALQDS T03000200=
202207171552 METAR KATL 171552Z 00000KT 10SM BKN032 BKN250 29/21 A3009 RMK AO2 SLP178 MDT CU ALQDS T02940206=
202207171452 METAR KATL 171452Z 26007KT 10SM FEW028 FEW250 29/21 A3008 RMK AO2 SLP174 MDT CU DSNT W-NW T02940211 50001=
202207171352 METAR KATL 171352Z 27006KT 10SM FEW022 FEW250 28/21 A3008 RMK AO2 SLP175 T02780211=
202207171252 METAR KATL 171252Z 23005KT 10SM FEW050 FEW250 26/21 A3009 RMK AO2 SLP178 T02610206=
202207171152 METAR KATL 171152Z 22004KT 10SM FEW050 FEW250 23/20 A3008 RMK AO2 SLP174 T02330200 10250 20228 50004=
202207171052 METAR KATL 171052Z 22004KT 10SM FEW050 FEW250 23/20 A3008 RMK AO2 SLP174 T02280200=
202207170952 METAR KATL 170952Z 00000KT 10SM FEW050 23/21 A3007 RMK AO2 SLP172 T02280206=
202207170852 METAR KATL 170852Z 21003KT 10SM FEW050 23/21 A3007 RMK AO2 SLP169 T02330206 57007=
202207170752 METAR KATL 170752Z 19003KT 10SM SCT050 24/21 A3008 RMK AO2 SLP173 T02390206=
202207170652 METAR KATL 170652Z 22003KT 10SM FEW050 24/21 A3008 RMK AO2 SLP173 T02440211=
202207170552 METAR KATL 170552Z 22005KT 10SM SCT055 SCT200 25/21 A3009 RMK AO2 SLP177 T02500211 10306 20250 52001=
202207170452 METAR KATL 170452Z 19005KT 10SM BKN050 BKN250 26/21 A3009 RMK AO2 SLP177 T02560211 403220217=
202207170352 METAR KATL 170352Z 19004KT 10SM FEW050 FEW250 26/21 A3009 RMK AO2 SLP177 T02610211=
202207170252 METAR KATL 170252Z 16004KT 10SM FEW050 FEW250 27/21 A3008 RMK AO2 SLP177 T02670211 53016=
202207170152 METAR KATL 170152Z 17004KT 10SM FEW050 FEW250 27/21 A3006 RMK AO2 SLP167 T02720206=
202207170052 METAR KATL 170052Z 19006KT 10SM FEW050 FEW150 SCT250 28/20 A3004 RMK AO2 SLP162 CB DSNT SW TCU DSNT S T02830200=
202207162352 METAR KATL 162352Z 16006KT 10SM FEW050 FEW150 SCT250 31/19 A3004 RMK AO2 SLP160 CB DSNT N AND S TCU DSNT SE-SW T03060194 10322 20300 55006=
202207162252 METAR KATL 162252Z 15005KT 10SM FEW055 SCT120 SCT200 SCT250 31/18 A3003 RMK AO2 SLP159 CB DSNT N-NE AND E AND W MDT CU DSNT SE-S T03110178=
202207162152 METAR KATL 162152Z 17007KT 10SM FEW055 FEW120 SCT250 32/16 A3004 RMK AO2 SLP160 CB DSNT N TCU DSNT SE T03170161=
202207162052 METAR KATL 162052Z 00000KT 10SM FEW050 SCT120 BKN250 32/19 A3005 RMK AO2 SLP166 CB DSNT N W TCU DSNT SE-SW T03170189 58018=
202207161952 METAR KATL 161952Z 12005KT 10SM SCT050TCU SCT150 BKN250 32/18 A3007 RMK AO2 SLP172 TCU W-NW DSNT SE CB DSNT NE NW T03170183=
202207161852 METAR KATL 161852Z 14006KT 10SM FEW048 SCT150 BKN250 32/18 A3010 RMK AO2 LTG DSNT NW SLP179 CB DSNT NW MDT CU DSNT E-S-SW T03170183=
202207161752 METAR KATL 161752Z VRB03KT 10SM FEW045 SCT250 31/19 A3011 RMK AO2 LTG DSNT N SLP185 CB DSNT N W NW MDT CU ALQDS T03060189 10311 20233 58009=
202207161652 METAR KATL 161652Z 00000KT 10SM FEW030 BKN250 30/21 A3013 RMK AO2 SLP190 CB DSNT W MDT CU NW-N T03000206=
202207161552 METAR KATL 161552Z 19006KT 10SM FEW025 FEW180 BKN250 28/21 A3013 RMK AO2 SLP192 TCU DSNT W NW T02830211=
202207161452 METAR KATL 161452Z 21004KT 10SM FEW018 SCT180 BKN250 27/22 A3014 RMK AO2 SLP194 T02670217 50005=
202207161352 METAR KATL 161352Z 16003KT 10SM SCT012 BKN180 BKN250 26/22 A3014 RMK AO2 SLP195 T02560217=
202207161252 METAR KATL 161252Z 00000KT 10SM FEW065 FEW150 SCT200 BKN250 24/21 A3013 RMK AO2 SLP192 T02440211=
202207161152 METAR KATL 161152Z 17003KT 10SM FEW070 SCT200 SCT250 23/21 A3012 RMK AO2 SLP188 T02330206 10239 20217 53005=
202207161052 METAR KATL 161052Z 00000KT 10SM SCT200 SCT250 22/20 A3010 RMK AO2 SLP183 T02170200=
202207160952 METAR KATL 160952Z 27003KT 10SM FEW070 FEW250 22/20 A3010 RMK AO2 SLP182 T02220200=
202207160852 METAR KATL 160852Z 15004KT 10SM FEW070 FEW200 23/20 A3010 RMK AO2 SLP182 T02280200 56005=
202207160752 METAR KATL 160752Z 00000KT 10SM FEW070 FEW200 23/21 A3010 RMK AO2 SLP182 T02330206=
202207160652 METAR KATL 160652Z 00000KT 10SM FEW070 FEW250 23/21 A3012 RMK AO2 SLP186 T02330206=
202207160552 METAR KATL 160552Z 20004KT 10SM FEW070 FEW250 24/20 A3012 RMK AO2 SLP187 T02390200 10306 20239 58002=
202207160452 METAR KATL 160452Z 23004KT 10SM SCT065 SCT250 25/21 A3013 RMK AO2 SLP191 T02500206 403280217=
202207160352 METAR KATL 160352Z 20010G16KT 10SM FEW070 FEW250 25/21 A3013 RMK AO2 SLP192 T02500206=
202207160252 METAR KATL 160252Z 18007KT 10SM SCT070 SCT200 26/21 A3013 RMK AO2 SLP189 T02610206 53014=
202207160152 METAR KATL 160152Z 19008KT 10SM SCT070 SCT200 27/21 A3010 RMK AO2 SLP181 T02720206=
202207160052 METAR KATL 160052Z 17006KT 10SM SCT070TCU SCT200 29/18 A3008 RMK AO2 SLP176 TCU NW-NE MDT CU ALQDS T02890178=
202207152352 METAR KATL 152352Z 20003KT 10SM FEW070TCU FEW200 31/17 A3008 RMK AO2 SLP176 TCU NW-N DSNT NE MDT CU W-NW T03060172 10328 20306 55004=
202207152252 METAR KATL 152252Z 21004KT 10SM FEW070 FEW200 32/16 A3008 RMK AO2 SLP174 T03170161=
202207152152 METAR KATL 152152Z 18003KT 10SM SCT075 SCT200 32/15 A3009 RMK AO2 SLP178 MDT CU W-NW T03220150=
202207152052 METAR KATL 152052Z 17005KT 10SM SCT070 SCT200 33/16 A3010 RMK AO2 SLP179 CB DSNT S MDT CU ALQDS T03280161 56014=
202207151952 METAR KATL 151952Z 00000KT 10SM SCT070 SCT200 32/15 A3011 RMK AO2 SLP184 MDT CU ALQDS T03220150=
202207151852 METAR KATL 151852Z 09006KT 10SM SCT070 SCT200 32/15 A3012 RMK AO2 SLP189 MDT CU ALQDS T03170150=
202207151752 METAR KATL 151752Z 00000KT 10SM SCT065 32/14 A3014 RMK AO2 SLP194 MDT CU ALQDS T03220144 10322 20233 58009=
202207151652 METAR KATL 151652Z 00000KT 10SM FEW055 32/16 A3015 RMK AO2 SLP198 T03170161=
202207151552 METAR KATL 151552Z 09004KT 10SM FEW050 FEW200 31/17 A3016 RMK AO2 SLP202 T03060167 $=
202207151452 METAR KATL 151452Z 02006KT 10SM FEW045 FEW200 29/17 A3017 RMK AO2 SLP203 T02940167 50006=
202207151352 METAR KATL 151352Z 34004KT 10SM FEW200 28/19 A3017 RMK AO2 SLP204 T02830189=
202207151252 METAR KATL 151252Z 32003KT 10SM FEW170 FEW250 25/19 A3016 RMK AO2 SLP201 T02500194=
202207151152 METAR KATL 151152Z 34006KT 10SM FEW180 FEW250 23/19 A3015 RMK AO2 SLP197 T02330194 10239 20217 53004=
202207151052 METAR KATL 151052Z 29003KT 10SM FEW180 FEW250 22/20 A3014 RMK AO2 SLP195 T02170200=
202207150952 METAR KATL 150952Z 28003KT 10SM FEW180 SCT250 22/21 A3013 RMK AO2 SLP193 T02170206=
202207150852 METAR KATL 150852Z 00000KT 10SM SCT180 SCT250 22/21 A3013 RMK AO2 SLP193 T02220206 56005=
202207150752 METAR KATL 150752Z 00000KT 10SM SCT180 SCT250 23/21 A3014 RMK AO2 SLP194 T02280206=
202207150652 METAR KATL 150652Z 29005KT 10SM FEW150 SCT200 BKN250 23/21 A3014 RMK AO2 SLP195 T02330211=
202207150552 METAR KATL 150552Z 27006KT 10SM FEW150 FEW200 BKN250 24/22 A3015 RMK AO2 SLP198 T02390217 10289 20239 51005=
202207150452 METAR KATL 150452Z 28007KT 10SM FEW150 BKN200 BKN250 24/22 A3015 RMK AO2 SLP198 T02440217 403220228=
202207150352 METAR KATL 150352Z 22005KT 10SM FEW055 BKN200 BKN250 25/21 A3015 RMK AO2 SLP198 T02500211=
202207150252 METAR KATL 150252Z 28006KT 10SM FEW055 BKN200 BKN250 26/20 A3013 RMK AO2 SLP192 T02560200 53013=
202207150152 METAR KATL 150152Z 31005KT 10SM BKN200 BKN250 27/18 A3011 RMK AO2 SLP184 T02720183=
202207150052 METAR KATL 150052Z 27004KT 10SM FEW060 BKN200 BKN250 28/17 A3010 RMK AO2 SLP182 T02780172=
202207142352 METAR KATL 142352Z 26004KT 10SM FEW060 BKN200 BKN250 29/17 A3009 RMK AO2 SLP179 TCU DSNT SE T02890167 10322 20289 55001=
202207142252 METAR KATL 142252Z 29005KT 10SM FEW065 BKN200 BKN250 30/15 A3009 RMK AO2 SLP177 CB DSNT SE TCU DSNT E T03000150=
202207142152 METAR KATL 142152Z 33007KT 10SM FEW065 SCT200 BKN250 31/15 A3009 RMK AO2 SLP177 CB DSNT SW TCU DSNT SE-S T03110150=
202207142052 METAR KATL 142052Z 35009G16KT 10SM FEW065 SCT200 BKN250 32/15 A3010 RMK AO2 SLP180 CB DSNT E SE TCU DSNT E-S-SW T03170150 56010=
202207141952 METAR KATL 141952Z 30007KT 10SM FEW055 FEW140 SCT200 BKN250 32/16 A3011 RMK AO2 SLP183 TCU DSNT E SE-SW T03170161=
202207141852 METAR KATL 141852Z 36009KT 10SM FEW042TCU FEW120 BKN200 BKN250 31/16 A3011 RMK AO2 SLP186 TCU NE DSNT SE SW MDT CU E SE T03060161=
202207141752 METAR KATL 141752Z 01006KT 10SM FEW036 FEW120 BKN200 BKN250 29/20 A3013 RMK AO2 SLP192 MDT CU NE DSNT SE-SW T02940200 10300 20228 58006=
202207141652 METAR KATL 141652Z 33004KT 10SM FEW028 SCT120 BKN200 BKN250 28/19 A3015 RMK AO2 SLP199 T02830194=
202207141552 METAR KATL 141552Z 30004KT 10SM FEW022 FEW080 SCT110 BKN200 BKN250 28/21 A3015 RMK AO2 SLP201 MDT CU N E-SE SW T02780211=
202207141452 METAR KATL 141452Z 29005KT 10SM FEW018 SCT085 BKN200 OVC250 27/22 A3015 RMK AO2 SLP199 ACC NE-SE T02670217 51016=
202207141352 METAR KATL 141352Z 28007KT 10SM FEW014 FEW075 BKN180 OVC250 25/22 A3013 RMK AO2 SLP195 ACC W T02500217=
202207141338 SPECI KATL 141338Z 30006KT 10SM FEW002 FEW014 BKN180 OVC250 25/22 A3013 RMK AO2 FU FEW002 FU PLUME S T02500217=
202207141252 METAR KATL 141252Z 29006KT 10SM FEW030 FEW110 BKN220 OVC250 24/21 A3011 RMK AO2 SLP189 T02390211=
202207141152 METAR KATL 141152Z 28008KT 10SM FEW030 FEW110 BKN200 BKN250 23/21 A3010 RMK AO2 SLP184 70025 T02280211 10233 20228 51010=
202207141052 METAR KATL 141052Z 28006KT 10SM FEW030 SCT110 BKN180 BKN250 23/21 A3009 RMK AO2 SLP179 T02280211=
202207140952 METAR KATL 140952Z 26006KT 10SM FEW030 BKN110 BKN150 BKN200 BKN250 23/21 A3009 RMK AO2 SLP179 T02330211=
202207140852 METAR KATL 140852Z 27006KT 10SM SCT030 BKN100 BKN150 BKN200 BKN250 23/21 A3007 RMK AO2 SLP172 T02330211 55005=
202207140752 METAR KATL 140752Z 22004KT 10SM FEW035 FEW090 BKN150 BKN200 BKN250 23/21 A3006 RMK AO2 SLP168 T02330211=
202207140652 METAR KATL 140652Z 23005KT 10SM FEW075 SCT090 BKN150 BKN250 23/22 A3007 RMK AO2 SLP171 T02330217=
202207140552 METAR KATL 140552Z 23004KT 10SM FEW015 SCT075 BKN090 BKN200 BKN250 23/22 A3008 RMK AO2 SLP176 T02330217 10244 20233 51003=
202207140452 METAR KATL 140452Z 19005KT 10SM FEW080 BKN140 BKN200 BKN250 23/22 A3008 RMK AO2 SLP176 T02330217 403280233=
202207140352 METAR KATL 140352Z 21003KT 10SM FEW080 BKN150 BKN200 BKN250 23/22 A3007 RMK AO2 SLP173 T02330217=
202207140252 METAR KATL 140252Z 18005KT 10SM SCT150 BKN200 BKN250 24/22 A3007 RMK AO2 SLP172 T02390217 53011=
202207140152 METAR KATL 140152Z 20004KT 10SM FEW080 BKN150 BKN200 BKN250 24/22 A3004 RMK AO2 SLP163 T02390217=
202207140052 METAR KATL 140052Z 20003KT 10SM FEW080 SCT150 BKN200 BKN250 24/21 A3004 RMK AO2 SLP162 LTG DSNT SW CB DSNT SW T02440211=
202207132352 METAR KATL 132352Z 20006KT 10SM FEW035TCU SCT080 BKN150 BKN250 24/21 A3004 RMK AO2 TSE34 SLP163 LTG DSNT SE-SW CB DSNT SE-SW TCU NW-N 60025 T02440211 10328 20244 53011=
202207132334 SPECI KATL 132334Z 16007KT 10SM FEW035TCU BKN080 BKN150 BKN200 26/23 A3004 RMK AO2 TSE34 LTG DSNT SE-S TS MOVD SE CB DSNT SE-S TCU E T02610228=
202207132252 METAR KATL 132252Z 07006G16KT 10SM TS FEW035CB SCT050 BKN150 BKN200 27/22 A3001 RMK AO2 RAE01B26E45 TSE10B48 SLP152 OCNL LTGICCG VC SE-SW TS VC SE-SW MOV SE TCU NE-E P0003 T02720222=
202207132248 SPECI KATL 132248Z 06007G16KT 10SM TS FEW035CB SCT050 BKN150 BKN200 28/22 A3001 RMK AO2 RAE01B26E45 TSE10B48 OCNL LTGICCG VC SE-SW TS VC SE-SW MOV SE TCU NE-E P0003=
202207132210 SPECI KATL 132210Z 08004KT 10SM FEW035TCU SCT050 BKN100 BKN200 26/22 A3001 RMK AO2 RAE01 TSE10 LTG DSNT N-NE SE-SW TS DSIPTD CB DSNT N-NE SE-SW TCU ALQDS P0003 T02610222=
202207132152 METAR KATL 132152Z 14004KT 7SM -TSRA FEW035CB SCT050 BKN100 BKN200 25/22 A3002 RMK AO2 RAE2053B11 SLP156 OCNL LTGICCGCA SE-SW DSNT N-NE TS SE-SW MOV SE P0008 T02500222=
202207132052 SPECI KATL 132052Z 22006KT 10SM -TSRA SCT045CB BKN090 BKN120 BKN200 28/23 A3001 RMK AO2 PK WND 26030/2014 SLP150 RAB12 TSB02 OCNL LTGICCA SW VC E TS SW VC E MOV SE CB NW-N MOV SE P0014 60014 T02780233 55009=
202207132052 METAR KATL 132052Z 22006KT 10SM -TSRA SCT045CB BKN090 BKN120 BKN200 28/23 A3001 RMK AO2 PK WND 26030/2014 SLP150 RAB12 TSB02 OCNL LTGICCA SW VC E TS SW VC E MOV SE CB NW-N MOV SE P0014 60014 T02780233 55009=
202207132017 SPECI KATL 132017Z 24020G30KT 8SM -TSRA SCT045CB BKN085 BKN120 BKN200 29/22 A3000 RMK AO2 PK WND 26030/2014 LTG DSNT NE AND E RAB12 TSB02 OCNL LTGICCG SW VC NE TS SW VC NE MOV SE CB DSNT N-NE E TCU E-S-SW P0000 T02890217=
202207132005 SPECI KATL 132005Z 28013KT 10SM TS SCT045CB BKN085 BKN120 BKN200 32/22 A3000 RMK AO2 LTG DSNT NE AND E TSB02 OCNL LTGICCG N-NE TS N-NE MOV SE CB DSNT N-NE E NW TCU ALQDS SHRA N-NE S NW T03170217=
202207131952 METAR KATL 131952Z 24012G20KT 10SM SCT045CB BKN100 BKN200 BKN250 33/22 A3000 RMK AO2 LTG DSNT N AND NE SLP148 CB N-NE MOV SE CB DSNT NW-NE TCU ALQDS SHRA N-NE S NW T03280217=
202207131852 METAR KATL 131852Z 24009G15KT 10SM SCT038TCU SCT060 BKN110 BKN200 32/22 A3001 RMK AO2 LTG DSNT NW SLP150 CB DSNT N-NE SW NW TCU N-NE SW-W DSNT ALQDS T03170217=
202207131752 METAR KATL 131752Z 26010G16KT 10SM SCT032TCU BKN055 BKN090 BKN200 31/22 A3003 RMK AO2 SLP159 CB DSNT N-NE SE NE TCU W-NW DSNT ALQDS T03060217 10317 20244 58008=
202207131652 METAR KATL 131652Z 31006KT 10SM SCT026TCU SCT050 BKN080 BKN250 30/22 A3005 RMK AO2 SLP165 CB DSNT N NE SE SW TCU ALQDS DSNT ALQDS T03000222=
202207131552 METAR KATL 131552Z 29007KT 10SM SCT021TCU BKN037 BKN070 BKN200 29/22 A3006 RMK AO2 SLP167 TCU NE-SE-SW MDT CU ALQDS T02890222=
202207131452 METAR KATL 131452Z 30007KT 10SM BKN015TCU BKN034 BKN065 BKN200 28/22 A3006 RMK AO2 SLP167 TCU NE E MDT CU ALQDS T02780222 51009=
202207131352 METAR KATL 131352Z 28006KT 10SM BKN012 BKN034 BKN065 BKN200 26/22 A3005 RMK AO2 SLP164 CIG 010V014 MDT CU W DSNT NE-E T02610222=
202207131312 SPECI KATL 131312Z 26006KT 10SM BKN010 BKN034 OVC060 25/22 A3005 RMK AO2 CIG 009V012 MDT CU ALQDS BINOVC T02500222=
202207131252 METAR KATL 131252Z 29005KT 10SM FEW010 BKN034 BKN060 BKN150 BKN250 25/22 A3005 RMK AO2 SLP163 T02500217=
202207131239 SPECI KATL 131239Z 27003KT 10SM FEW018 BKN034 BKN060 BKN150 BKN250 24/22 A3004 RMK AO2 T02440217=
202207131224 SPECI KATL 131224Z 28005KT 10SM FEW008 BKN027 BKN060 BKN150 BKN250 24/22 A3004 RMK AO2 BKN027 V SCT T02440217=
202207131152 METAR KATL 131152Z 27006KT 10SM FEW009 SCT015 SCT150 SCT250 24/22 A3003 RMK AO2 SLP158 T02440217 10256 20233 53009=
202207131052 METAR KATL 131052Z 22004KT 10SM FEW008 SCT013 SCT150 SCT250 23/22 A3001 RMK AO2 SLP152 CIG008 NE-SE T02330217=
202207131037 SPECI KATL 131037Z 28005KT 10SM FEW008 SCT013 SCT150 BKN250 23/22 A3001 RMK AO2 CIG008 NE-E T02330217=
202207131006 SPECI KATL 131006Z 22004KT 10SM SCT008 BKN013 BKN150 23/22 A3000 RMK AO2 T02330217=
202207130952 METAR KATL 130952Z 00000KT 9SM BKN008 BKN085 BKN150 24/22 A3000 RMK AO2 SLP147 BKN008 V SCT T02390222=
202207130934 SPECI KATL 130934Z 27003KT 8SM BKN008 BKN085 BKN150 24/22 A3000 RMK AO2 T02390217=
202207130852 METAR KATL 130852Z 29006KT 10SM SCT008 SCT085 BKN150 BKN250 24/22 A3000 RMK AO2 SLP147 T02390217 55007 $=
202207130848 SPECI KATL 130848Z 30005KT 10SM SCT009 SCT085 BKN150 BKN250 24/22 A3000 RMK AO2=
202207130752 METAR KATL 130752Z 18005KT 10SM FEW085 BKN150 BKN250 24/22 A3000 RMK AO2 SLP147 T02390217=
202207130652 METAR KATL 130652Z 19006KT 10SM FEW020 FEW085 BKN150 BKN250 25/22 A3001 RMK AO2 SLP151 T02500222=
202207130552 METAR KATL 130552Z 17003KT 10SM FEW020 BKN080 BKN150 BKN250 26/23 A3002 RMK AO2 SLP155 T02560228 10283 20256 50006=
202207130452 METAR KATL 130452Z 14003KT 10SM FEW025 BKN150 BKN250 26/23 A3002 RMK AO2 SLP156 T02560228 403110228=
202207130352 METAR KATL 130352Z 15003KT 10SM FEW020 SCT200 BKN250 26/22 A3002 RMK AO2 SLP157 T02560222=
202207130252 METAR KATL 130252Z 19003KT 10SM SCT200 BKN250 26/22 A3000 RMK AO2 SLP150 T02610222 51017=
202207130152 METAR KATL 130152Z 18003KT 10SM FEW035 SCT200 BKN250 27/22 A2998 RMK AO2 SLP142 T02670222=
202207130052 METAR KATL 130052Z 17005KT 10SM FEW035 FEW070 SCT200 BKN250 27/22 A2998 RMK AO2 SLP143 T02720222=
202207122352 METAR KATL 122352Z 17011G16KT 10SM FEW035TCU FEW070 SCT200 BKN250 29/22 A2995 RMK AO2 SLP132 TCU S DSNT SW T02890222 10311 20278 51001=
202207122252 METAR KATL 122252Z 18008KT 10SM FEW035TCU SCT060 BKN200 BKN250 29/22 A2995 RMK AO2 SLP132 TCU S NW-NE DSNT SW T02940217=
202207122152 METAR KATL 122152Z 17006KT 10SM SCT038TCU BKN200 BKN250 29/22 A2995 RMK AO2 SLP132 TCU NW MDT CU ALQDS T02940217=
202207122052 METAR KATL 122052Z 16005KT 10SM FEW038 SCT060 BKN200 BKN250 31/21 A2995 RMK AO2 SLP131 TCU DSNT SE MDT CU W-N DSNT ALQDS T03110211 56019=
202207121952 METAR KATL 121952Z 17006KT 10SM FEW032 SCT060 SCT120 BKN200 30/21 A2997 RMK AO2 SLP137 TCU N DSNT W NW MDT CU DSNT ALQDS T03000206=
202207121852 METAR KATL 121852Z 14005KT 10SM FEW030 SCT055 SCT120 BKN200 29/21 A2999 RMK AO2 SLP144 TCU DSNT SE NW MDT CU W-N DSNT ALQDS T02890206=
202207121752 METAR KATL 121752Z 12004KT 10SM FEW030 BKN050 BKN120 BKN200 28/21 A3001 RMK AO2 SLP151 TCU DSNT SW NW MDT CU DSNT ALQDS T02830211 10283 20228 58002=
202207121652 METAR KATL 121652Z 20004KT 10SM SCT026 OVC045 26/22 A3002 RMK AO2 SLP156 TCU DSNT SE-SW NW MDT CU N-E BINOVC T02610217=
202207121552 METAR KATL 121552Z 00000KT 10SM SCT024 OVC036 26/21 A3002 RMK AO2 SLP157 TCU DSNT E MDT CU OHD SE-SW-W T02560206=
202207121452 METAR KATL 121452Z 12003KT 10SM FEW013 SCT017 OVC028 25/21 A3001 RMK AO2 SLP153 T02500211 51008=
202207121352 METAR KATL 121352Z 00000KT 10SM FEW009 SCT013 OVC024 25/21 A3001 RMK AO2 SLP153 T02500211=
202207121331 SPECI KATL 121331Z 14003KT 10SM SCT008 BKN012 OVC030 24/21 A3001 RMK AO2 BINOVC T02440211=
202207121319 SPECI KATL 121319Z 00000KT 10SM SCT007 BKN018 OVC034 24/22 A3001 RMK AO2 T02440217=
202207121252 METAR KATL 121252Z 14004KT 10SM FEW007 SCT028 SCT034 BKN200 BKN250 24/22 A3000 RMK AO2 SLP150 T02390217=
202207121152 METAR KATL 121152Z 14003KT 10SM FEW008 SCT028 BKN034 BKN200 BKN250 23/21 A2999 RMK AO2 SLP146 SCT028 V BKN T02280211 10239 20228 53013=
202207121124 SPECI KATL 121124Z 14003KT 10SM FEW008 FEW028 SCT200 BKN250 23/21 A2998 RMK AO2 T02280211 $=
202207121052 METAR KATL 121052Z 15003KT 10SM FEW037 SCT200 BKN250 23/21 A2997 RMK AO2 SLP139 T02280206=
202207120952 METAR KATL 120952Z 07005KT 10SM FEW037 SCT200 BKN250 23/21 A2995 RMK AO2 SLP133 T02330206=
202207120852 METAR KATL 120852Z 06003KT 10SM FEW037 SCT200 SCT250 23/21 A2995 RMK AO2 SLP132 T02330206 56014=
202207120752 METAR KATL 120752Z 14003KT 10SM BKN037 BKN200 BKN250 23/21 A2996 RMK AO2 SLP136 T02330211=
202207120652 METAR KATL 120652Z 16003KT 10SM FEW037 BKN200 BKN250 23/21 A2998 RMK AO2 SLP140 T02280206=
202207120552 METAR KATL 120552Z 07003KT 10SM SCT200 BKN250 24/21 A2999 RMK AO2 SLP146 T02390206 10261 20239 52002=
202207120452 METAR KATL 120452Z 07005KT 10SM FEW030 SCT200 BKN250 24/21 A2999 RMK AO2 SLP146 T02390206 402720222=
202207120352 METAR KATL 120352Z 11005KT 10SM FEW030 BKN250 24/21 A2999 RMK AO2 SLP145 T02440206=
202207120252 METAR KATL 120252Z 12005KT 10SM FEW020 BKN030 BKN250 25/21 A2999 RMK AO2 SLP145 T02500206 50001=
202207120152 METAR KATL 120152Z 12005KT 10SM FEW022 BKN030 BKN070 BKN250 25/21 A2999 RMK AO2 SLP147 T02500206=
202207120052 METAR KATL 120052Z 11006KT 10SM FEW022 BKN030 BKN070 BKN250 26/21 A2999 RMK AO2 SLP146 T02560206=
202207112352 METAR KATL 112352Z 13006KT 10SM FEW023 OVC028 26/20 A2998 RMK AO2 SLP143 T02610200 10272 20261 53011=
202207112252 METAR KATL 112252Z 09008KT 10SM FEW023 OVC028 27/20 A2996 RMK AO2 SLP135 BINOVC T02670200=
202207112152 METAR KATL 112152Z 09009KT 10SM SCT025 BKN032 27/20 A2995 RMK AO2 SLP130 T02720200=
202207112052 METAR KATL 112052Z 09006KT 10SM BKN027 OVC032 27/20 A2995 RMK AO2 SLP131 T02670200 58018=
202207111952 METAR KATL 111952Z 10011KT 10SM BKN027 OVC033 27/20 A2997 RMK AO2 SLP137 T02670200=
202207111852 METAR KATL 111852Z 08009KT 10SM BKN025 BKN085 BKN250 27/20 A2999 RMK AO2 SLP145 ACC NW-NE T02720200=
202207111752 METAR KATL 111752Z 07006KT 10SM OVC021 27/20 A3000 RMK AO2 SLP149 BINOVC T02670200 10267 20222 51001=
202207111652 METAR KATL 111652Z 11007KT 10SM BKN019 OVC033 25/20 A3000 RMK AO2 SLP149 BINOVC T02500200=
202207111552 METAR KATL 111552Z 06010KT 10SM BKN017 OVC021 25/20 A3001 RMK AO2 SLP151 T02500200 $=
202207111452 METAR KATL 111452Z 09010KT 10SM OVC010 23/20 A3000 RMK AO2 SLP149 CIG 009V012 BINOVC T02330200 51009=
202207111445 SPECI KATL 111445Z 08010KT 10SM OVC010 23/20 A3000 RMK AO2 CIG 009V012 T02280200=
202207111352 METAR KATL 111352Z 07010KT 10SM OVC008 23/20 A3000 RMK AO2 SLP149 CIG 007V009 T02280200=
202207111252 METAR KATL 111252Z 09009KT 10SM OVC008 22/20 A2999 RMK AO2 SLP144 CIG 007V009 T02220200=
202207111152 METAR KATL 111152Z 10010KT 8SM BKN007 OVC013 22/20 A2997 RMK AO2 SLP138 CIG 006V009 60000 T02220200 10239 20222 53005=
202207111052 METAR KATL 111052Z 08010KT 10SM OVC007 22/20 A2996 RMK AO2 SLP135 CIG 006V008 T02220200=
202207110952 METAR KATL 110952Z 07012KT 8SM BKN005 BKN014 OVC080 22/21 A2995 RMK AO2 DZE45 SLP131 P0000 T02220206=
202207110852 METAR KATL 110852Z 07014KT 7SM -DZ OVC006 23/21 A2996 RMK AO2 DZB50 SLP133 P0000 60000 T02280206 55004=
202207110752 METAR KATL 110752Z 09008KT 8SM OVC008 23/21 A2995 RMK AO2 SLP131 CIG 007V010 T02280206=
202207110652 METAR KATL 110652Z 08009KT 7SM BKN008 OVC012 23/21 A2996 RMK AO2 SLP132 CIG 007V010 T02330211=
202207110552 METAR KATL 110552Z 08010KT 10SM OVC009 24/22 A2997 RMK AO2 SLP137 CIG 008V011 60000 T02390217 10294 20239 51004=
202207110513 SPECI KATL 110513Z 09009KT 10SM BKN008 24/22 A2997 RMK AO2 T02390217=
202207110452 METAR KATL 110452Z 10009G18KT 10SM SCT008 BKN011 24/22 A2997 RMK AO2 SLP136 T02390217 403060222=
202207110430 SPECI KATL 110430Z 10010G19KT 10SM FEW008 BKN011 BKN015 24/22 A2996 RMK AO2 T02390217=
202207110352 METAR KATL 110352Z 08015KT 10SM BKN012 BKN026 25/22 A2996 RMK AO2 SLP135 CB DSNT SE T02500222=
202207110339 SPECI KATL 110339Z 08013KT 10SM BKN012 BKN026 BKN050 25/22 A2996 RMK AO2 CB DSNT SE T02500222=
202207110314 SPECI KATL 110314Z 08009KT 10SM SCT014 BKN026 BKN048 BKN250 25/22 A2996 RMK AO2 CB DSNT SE AND SW TCU DSNT S T02500222=
202207110252 METAR KATL 110252Z 09008KT 10SM FEW015 BKN045 BKN150 BKN250 25/22 A2996 RMK AO2 RAB13E24 TSE38 SLP132 TS MOV S CB DSNT SE TCU DSNT E AND SW AND W P0000 60000 T02500217 53018=
202207110239 SPECI KATL 110239Z 09010KT 10SM FEW015 SCT032 BKN045 BKN250 25/22 A2995 RMK AO2 RAB13E24 TSE38 TS MOV S CB DSNT SE AND S TCU DSNT E AND W P0000 T02500217=
202207110152 METAR KATL 110152Z 08011KT 10SM TS SCT019 BKN023CB BKN030TCU BKN150 BKN250 26/21 A2994 RMK AO2 TSB49 SLP128 OCNL LTGICCC SE TS SE MOV S TCU E AND W CB DSNT SE AND NW T02560211=
202207110150 SPECI KATL 110150Z 08012KT 10SM TS SCT019 BKN023CB BKN030TCU BKN150 BKN250 26/21 A2994 RMK AO2 TSB49 OCNL LTGICCC SE TS SE MOV S TCU E AND W CB DSNT SE AND NW=
202207110136 SPECI KATL 110136Z 05016G20KT 10SM SCT023 BKN028TCU BKN050 BKN150 BKN250 27/22 A2993 RMK AO2 TCU SE-OHD-W CB DSNT SE AND NW T02720217=
202207110052 METAR KATL 110052Z 29005KT 10SM FEW030 SCT050TCU BKN100 BKN250 28/22 A2991 RMK AO2 SLP118 TCU OHD AND NW-NE CB DSNT NE AND SW-NW T02830217=
202207102352 METAR KATL 102352Z 31005KT 10SM CLR 29/21 A2990 RMK AO2 SLP114 T02940211 10306 20278 55004=
202207102252 METAR KATL 102252Z 26005KT 10SM SCT032 SCT045 SCT250 30/21 A2990 RMK AO2 LTG DSNT N SLP113 CB DSNT N TCU DSNT NE-E AND NW T03000211=
202207102152 METAR KATL 102152Z 27006KT 10SM SCT030 SCT040 SCT070 30/21 A2990 RMK AO2 SLP114 TCU DSNT NW-NE T03000211=
202207102052 METAR KATL 102052Z 32005KT 10SM SCT027 BKN038 29/22 A2992 RMK AO2 SLP119 TCU DSNT N-NE T02940222 56013=
202207101952 METAR KATL 101952Z 28008KT 10SM FEW028 BKN036 29/22 A2993 RMK AO2 SLP123 T02940217=
202207101912 SPECI KATL 101912Z 30009KT 10SM SCT027 BKN033 29/21 A2993 RMK AO2 T02890211 $=
202207101852 METAR KATL 101852Z 29008KT 10SM BKN028 29/22 A2993 RMK AO2 SLP124 T02890217 $=
202207101752 METAR KATL 101752Z 30008KT 10SM OVC023 28/22 A2995 RMK AO2 SLP132 T02780222 10289 20228 58010 $=
202207101652 METAR KATL 101652Z 32008KT 10SM SCT020 BKN027 28/22 A2997 RMK AO2 SLP137 T02780222 $=
202207101552 METAR KATL 101552Z 32007KT 10SM SCT018 BKN028 28/22 A2998 RMK AO2 SLP141 MDT CU DSNT S NW T02780222=
202207101534 SPECI KATL 101534Z 29010KT 10SM SCT015 BKN025 28/22 A2998 RMK AO2 T02780222=
202207101514 SPECI KATL 101514Z 28008KT 10SM BKN014 BKN030 27/23 A2998 RMK AO2 MDT CU E W T02670228=
202207101452 METAR KATL 101452Z 28009KT 10SM SCT013 BKN031 BKN065 27/23 A2998 RMK AO2 SLP142 T02670228 51007=
202207101352 METAR KATL 101352Z 29005KT 10SM SCT007 BKN065 BKN110 24/22 A2998 RMK AO2 SLP143 CIG 007 NW-N T02440222=
202207101326 SPECI KATL 101326Z 28006KT 10SM SCT007 BKN065 BKN110 24/22 A2998 RMK AO2 T02390217=
202207101252 METAR KATL 101252Z 27005KT 9SM BKN007 BKN060 BKN110 23/22 A2998 RMK AO2 SLP140 T02330217=
202207101247 SPECI KATL 101247Z 28006KT 9SM BKN007 BKN060 BKN110 23/22 A2998 RMK AO2=
202207101152 METAR KATL 101152Z 32006KT 7SM FEW008 BKN060 BKN075 BKN130 BKN200 23/21 A2996 RMK AO2 RAE20 SLP136 P0001 60017 70021 T02280206 10250 20222 51012 $=
202207101052 METAR KATL 101052Z 24003KT 5SM -RA BR FEW005 SCT021TCU OVC065 23/22 A2995 RMK AO2 RAB08 SLP132 VIS LWR N-NE TCU N-NE P0016 T02330222 $=
202207101042 SPECI KATL 101042Z 30005KT 5SM -RA BR SCT005 SCT022TCU OVC065 23/22 A2995 RMK AO2 RAB08 VIS N-NE 2 TCU N-NE P0014 T02280217 $=
202207101030 SPECI KATL 101030Z 31011KT 2 1/2SM RA BR FEW005 SCT022 OVC070 23/22 A2995 RMK AO2 RAB08 P0012 T02330222 $=
202207101025 SPECI KATL 101025Z 32008KT 1 3/4SM +RA BR FEW005 BKN055 OVC100 24/23 A2995 RMK AO2 RAB08 P0009 T02390228=
202207100952 METAR KATL 100952Z 29003KT 10SM FEW005 SCT095 OVC110 24/22 A2994 RMK AO2 SLP128 T02390222=
202207100852 METAR KATL 100852Z 28005KT 10SM FEW005 SCT050 BKN120 BKN150 24/22 A2993 RMK AO2 SLP123 T02390222 55012=
202207100815 SPECI KATL 100815Z 27006KT 10SM FEW007 SCT049 BKN180 24/22 A2993 RMK AO2 T02440222=
202207100752 METAR KATL 100752Z 21004KT 10SM FEW150 BKN180 24/22 A2991 RMK AO2 SLP117 T02390222=
202207100652 METAR KATL 100652Z 10004KT 10SM FEW150 OVC180 25/22 A2992 RMK AO2 SLP122 T02500217=
202207100552 METAR KATL 100552Z 36008KT 10SM FEW006 SCT021 OVC170 25/23 A2997 RMK AO2 SLP137 60001 T02500228 10283 20250 58012=
202207100545 SPECI KATL 100545Z 35007KT 10SM SCT006 SCT021 OVC170 25/23 A2997 RMK AO2 T02500228=
202207100452 METAR KATL 100452Z 27004KT 10SM BKN007 BKN012 OVC170 25/23 A2999 RMK AO2 RAE12B45E50 SLP146 BINOVC P0001 T02500233 403110233=
202207100444 SPECI KATL 100444Z 28005KT 10SM BKN007 BKN012 OVC070 26/23 A3000 RMK AO2 RAE12 P0001 T02560233=
202207100352 METAR KATL 100352Z 26005KT 10SM -RA FEW012 BKN030 OVC070 26/23 A3001 RMK AO2 LTG DSNT E RAB0254 SLP153 CB DSNT E P0000 T02560233=
202207100252 METAR KATL 100252Z 26007KT 10SM FEW022 SCT032 BKN150 OVC250 27/23 A3000 RMK AO2 LTG DSNT N AND NE SLP149 CB DSNT N AND NE T02670228 53006=
202207100152 METAR KATL 100152Z 21007KT 10SM SCT030 SCT040 BKN090 OVC250 27/23 A2998 RMK AO2 LTG DSNT N AND NW SLP141 CB DSNT N AND NW T02670233=
202207100052 METAR KATL 100052Z 22007KT 10SM FEW022 SCT090 SCT160 BKN250 28/23 A2999 RMK AO2 SLP144 T02780233=
202207092352 METAR KATL 092352Z 22005KT 10SM FEW030 SCT120 SCT150 BKN250 28/23 A2998 RMK AO2 SLP141 T02830233 10311 20250 55007=
202207092252 METAR KATL 092252Z 27005KT 10SM FEW032 SCT150 SCT200 BKN250 29/22 A2996 RMK AO2 SLP133 T02940222=
202207092152 METAR KATL 092152Z 23006KT 10SM FEW032 SCT170 BKN250 30/22 A2996 RMK AO2 SLP135 T03000217=
202207092052 METAR KATL 092052Z 20006KT 10SM FEW024 SCT150 BKN250 30/23 A3000 RMK AO2 SLP149 T03000228 56018=
202207091952 METAR KATL 091952Z VRB03KT 10SM FEW022 SCT150 BKN250 29/23 A3002 RMK AO2 SLP154 T02940228=
202207091852 METAR KATL 091852Z 25007KT 10SM FEW009 BKN150 BKN250 27/23 A3003 RMK AO2 SLP157 T02720228 $=
202207091816 SPECI KATL 091816Z 21009KT 9SM SCT007 SCT100 BKN150 BKN200 26/24 A3004 RMK AO2 T02610239 $=
202207091752 METAR KATL 091752Z 22008KT 9SM BKN007 BKN100 OVC150 25/23 A3006 RMK AO2 RAB04E47 SLP170 P0001 60003 T02500228 10261 20239 55011 $=
202207091747 SPECI KATL 091747Z 21009KT 9SM BKN007 BKN100 OVC150 25/23 A3006 RMK AO2 RAB04E47 P0001 $=
202207091725 SPECI KATL 091725Z 22008KT 6SM -RA BR FEW006 BKN090 OVC110 25/23 A3008 RMK AO2 RAB04 P0001 T02500233 $=
202207091652 METAR KATL 091652Z 25004KT 10SM FEW010 SCT110 BKN150 BKN200 25/23 A3006 RMK AO2 RAB01E08 SLP169 P0000 T02500228 $=
202207091552 METAR KATL 091552Z 29005KT 10SM FEW021 BKN090 OVC150 24/22 A3008 RMK AO2 LTG DSNT E RAE18B33E43 TSE24 SLP175 CB DSNT SE P0001 T02440222 $=
202207091544 SPECI KATL 091544Z 27005KT 10SM SCT019 BKN090 OVC150 24/22 A3008 RMK AO2 LTG DSNT E RAE18B33E43 TSE24 CB DSNT SE P0001 T02440222 $=
202207091525 SPECI KATL 091525Z 25008KT 9SM FEW008 BKN019 OVC090 24/22 A3009 RMK AO2 LTG DSNT E-SW RAE18 TSE24 TS MOVD SE CB DSNT E-SE BKN V SCT P0000 T02440222 $=
202207091502 SPECI KATL 091502Z 25012G20KT 6SM -TSRA BR SCT008CB BKN023 OVC100 24/22 A3009 RMK AO2 LTG DSNT ALQDS VIS E 2 OCNL LTGCGIC VC E-S TS VC E-S MOV SE P0000 T02440222 $=
202207091452 METAR KATL 091452Z 26019G26KT 4SM TSRA BR BKN008CB OVC024 24/22 A3009 RMK AO2 PK WND 25026/1445 LTG DSNT SE-W RAB26 TSB33 SLP179 VIS N 2 1/2 OCNL LTGCGIC NE-SE-SW TS NE-SE-SW MOV SE P0001 60001 T02440222 53011 $=
202207091433 SPECI KATL 091433Z 27011KT 5SM -TSRA OVC009CB 26/23 A3008 RMK AO2 LTG DSNT ALQDS RAB26 TSB33 OCNL LTGCGIC W-N TS W-N MOV SE P0000 T02560228 $=
202207091352 METAR KATL 091352Z 25007KT 7SM OVC008 26/23 A3007 RMK AO2 LTG DSNT E AND S SLP170 TS MOVD SE TSB25E50 CB DSNT E-SE W-NW T02560228 $=
202207091327 SPECI KATL 091327Z 26010KT 7SM TS OVC008CB 25/22 A3007 RMK AO2 LTG DSNT E AND S TSE24B27 T02500222 $=
202207091252 METAR KATL 091252Z 24006KT 7SM OVC009CB 24/22 A3007 RMK AO2 LTG DSNT NE AND S SLP173 TSB1157E14 TS DSIPTD CB SE-S MOV E & DSNT NE T02440222 $=
202207091243 SPECI KATL 091243Z 22008KT 9SM OVC009CB 24/22 A3007 RMK AO2 LTG DSNT NE AND S TSB1157E14 TS DSIPTD CB S-SE MOV E & DSNT NE T02440217 $=
202207091219 SPECI KATL 091219Z 23007KT 10SM OVC012CB 24/22 A3006 RMK AO2 LTG DSNT NE TSB1257E14 TS DSIPTD CB S MOV E & DSNT NE T02440217 $=
202207091158 SPECI KATL 091158Z 22005KT 10SM TS OVC014CB 24/22 A3006 RMK AO2 T02390217 $=
202207091152 METAR KATL 091152Z 22005KT 10SM BKN014 OVC040 24/22 A3006 RMK AO2 LTG DSNT N SLP168 CB DSNT N 70002 T02390217 10239 20233 53002 $=
202207091145 SPECI KATL 091145Z 22006KT 10SM BKN014 BKN041 BKN110 BKN140 24/22 A3006 RMK AO2 LTG DSNT N CB DSNT N T02390217 $=
202207091052 METAR KATL 091052Z 22005KT 10SM FEW007 SCT046 SCT110 BKN140 BKN200 23/22 A3005 RMK AO2 LTG DSNT NW SLP166 CB DSNT NW T02330217 $=
202207090952 METAR KATL 090952Z 22005KT 10SM FEW007 SCT040 SCT110 BKN140 BKN200 BKN250 23/22 A3004 RMK AO2 LTG DSNT NW SLP161 CB DSNT NW T02330217 $=
202207090852 METAR KATL 090852Z 23006KT 10SM FEW007 BKN032 BKN100 BKN200 BKN250 23/22 A3005 RMK AO2 SLP166 CB DSNT NE T02330217 56012=
202207090752 METAR KATL 090752Z 20004KT 10SM FEW008 SCT032 BKN041 BKN200 BKN250 24/22 A3006 RMK AO2 SLP169 T02390217=
202207090652 METAR KATL 090652Z 18005KT 10SM FEW008 SCT031 SCT055 SCT140 BKN200 BKN250 23/21 A3008 RMK AO2 SLP173 T02330211=
202207090552 METAR KATL 090552Z 15005KT 10SM FEW007 SCT030 BKN055 BKN140 OVC200 23/21 A3009 RMK AO2 SLP177 60000 T02330211 10278 20233 58003=
202207090452 METAR KATL 090452Z 14007KT 9SM FEW008 FEW050 SCT120 OVC200 23/21 A3010 RMK AO2 SLP180 T02330211 403440233=
202207090352 METAR KATL 090352Z 10007KT 10SM FEW044 SCT075 BKN110 OVC200 24/21 A3011 RMK AO2 RAE21 TSE26 SLP185 TS MOVD SE FRQ LTGICCA DSNT E-SE CB DSNT E-SE P0000 T02390211=
202207090327 SPECI KATL 090327Z 10008KT 10SM FEW016 SCT044 BKN075 OVC140 24/22 A3010 RMK AO2 RAE21 TSE26 TS MOVD SE CONS LTGICCA DSNT E-SE CB DSNT E-SE P0000 T02390217=
202207090252 METAR KATL 090252Z 03014G28KT 6SM -TSRA FEW017 BKN031CB OVC075 27/21 A3010 RMK AO2 PK WND 01028/0244 WSHFT 0237 RAB49 TSB28 SLP179 VIS LWR NE-E OCNL LTGICCGCA NE-E TS NE-E MOV SE P0000 60000 T02720211 53021=
202207090242 SPECI KATL 090242Z 02014G21KT 10SM TS SCT017 BKN038CB OVC080 27/23 A3010 RMK AO2 TSB28 FRQ LTGICCGCA NW-NE TS NW-NE MOV SE SHELF CLOUD E-OHD-W MOV S SHRA NW-NE T02720228=
202207090229 SPECI KATL 090229Z 00000KT 10SM TS SCT038CB BKN075 BKN100 OVC200 27/23 A3008 RMK AO2 TSB28 FRQ LTGICCGCA VC NW-NE TS VC NW-NE MOV SE SHELF CLOUD VC NW-NE MOV S T02670233=
202207090152 METAR KATL 090152Z 24003KT 10SM FEW075 FEW110 BKN200 OVC250 27/23 A3006 RMK AO2 LTG DSNT N AND NW SLP168 CONS LTGIC DSNT NW-NE CB DSNT NW-NE T02670233=
202207090052 METAR KATL 090052Z 19004KT 10SM FEW110 BKN200 OVC250 27/23 A3004 RMK AO2 SLP162 CB DSNT NE NW T02720228=
202207082352 METAR KATL 082352Z 21007KT 10SM FEW034 FEW110 BKN200 OVC250 28/23 A3004 RMK AO2 SLP160 CB DSNT N-NE NW 60002 T02780228 10344 20278 53004=
202207082252 METAR KATL 082252Z 23008KT 10SM FEW042 FEW120 BKN200 BKN250 29/23 A3003 RMK AO2 LTG DSNT NW SLP159 CB DSNT NE NW TCU DSNT NW T02940228=
202207082152 METAR KATL 082152Z 20007KT 10SM FEW046 FEW110 BKN200 BKN250 30/23 A3001 RMK AO2 LTG DSNT NW SLP151 CB DSNT NE W NW TCU DSNT N T03000233=
202207082052 METAR KATL 082052Z 21010KT 10SM FEW050CB SCT110 BKN200 29/24 A3002 RMK AO2 SLP154 CB N DSNT E W MOV SE TCU E DSNT NW 60002 T02940244 55005=
202207081952 METAR KATL 081952Z 21012G21KT 10SM SCT045TCU SCT100 BKN200 29/23 A3000 RMK AO2 LTG DSNT E AND SE RAB18E31 TSB30E50 SLP148 TS MOVD SE CB DSNT SE TCU OHD-W-N P0002 T02940233=
202207081931 SPECI KATL 081931Z 22011KT 10SM TS SCT046CB SCT100 BKN250 31/25 A3001 RMK AO2 LTG DSNT E-SW RAB18E31 TSB30 OCNL LTGCGIC VC SE SW TS VC SE SW MOV SE TCU W P0002 T03060250=
202207081852 METAR KATL 081852Z 31004KT 10SM SCT044TCU SCT100 BKN200 33/23 A3002 RMK AO2 LTG DSNT SE AND S SLP153 CB DSNT SE-SW TCU ALQDS T03330228=
202207081752 METAR KATL 081752Z 34009KT 10SM SCT047TCU SCT250 34/22 A3004 RMK AO2 LTG DSNT E-SW SLP159 CB DSNT SE-SW TCU E-S-W T03390222 10344 20261 58016=
202207081652 METAR KATL 081652Z 30010KT 10SM SCT045 SCT250 33/23 A3007 RMK AO2 LTG DSNT SE-W SLP168 CB DSNT SE SW MDT CU ALQDS T03330228=
202207081552 METAR KATL 081552Z 29006KT 10SM FEW030 SCT250 32/23 A3009 RMK AO2 SLP175 MDT CU DSNT S T03220233=
202207081452 METAR KATL 081452Z 28007KT 10SM FEW180 SCT250 31/24 A3009 RMK AO2 SLP176 T03110239 51008=
202207081352 METAR KATL 081352Z VRB06KT 10SM FEW180 SCT250 29/23 A3009 RMK AO2 SLP176 T02940233=
202207081252 METAR KATL 081252Z 27007KT 10SM FEW200 BKN250 28/23 A3008 RMK AO2 SLP174 T02780228 $=
202207081152 METAR KATL 081152Z 23004KT 10SM SCT200 BKN250 26/23 A3006 RMK AO2 SLP169 T02610228 10267 20244 53015 $=
202207081052 METAR KATL 081052Z 00000KT 10SM SCT200 BKN250 25/22 A3005 RMK AO2 SLP163 T02500222 $=
202207080952 METAR KATL 080952Z 23003KT 10SM SCT200 BKN250 25/22 A3003 RMK AO2 SLP156 T02500222 $=
202207080852 METAR KATL 080852Z 22005KT 10SM SCT200 SCT250 26/22 A3002 RMK AO2 SLP152 T02560222 55005 $=
202207080752 METAR KATL 080752Z 24003KT 10SM SCT200 BKN250 26/22 A3002 RMK AO2 SLP151 T02610222 $=
202207080652 METAR KATL 080652Z 27004KT 10SM FEW050 SCT200 BKN250 26/22 A3002 RMK AO2 SLP153 T02610222 $=
202207080552 METAR KATL 080552Z 28004KT 10SM FEW050 SCT200 BKN250 26/22 A3003 RMK AO2 SLP158 T02610222 10300 20261 58009 $=
202207080452 METAR KATL 080452Z 23003KT 10SM FEW050 SCT200 BKN250 26/22 A3005 RMK AO2 SLP165 T02610222 403440244 $=
202207080352 METAR KATL 080352Z 19005KT 10SM SCT050 BKN150 BKN200 OVC250 27/22 A3006 RMK AO2 SLP167 LTG DSNT SW CB DSNT SW T02670222 $=
202207080252 METAR KATL 080252Z 20003KT 10SM SCT080 BKN150 BKN200 OVC250 27/22 A3006 RMK AO2 SLP166 T02720222 53010 $=
202207080152 METAR KATL 080152Z 15005KT 10SM FEW080 SCT150 BKN200 BKN250 27/22 A3003 RMK AO2 SLP158 T02720222 $=
202207080052 METAR KATL 080052Z 09006KT 10SM FEW045 SCT150 BKN200 BKN250 28/22 A3002 RMK AO2 SLP152 T02830222 $=
202207072352 METAR KATL 072352Z 04006KT 10SM FEW045 SCT120 BKN150 BKN200 BKN250 30/22 A3003 RMK AO2 TSE26 SLP156 OCNL LTG DSNT SE CB DSNT SE VCSH SW-NW 60000 T03000222 10344 20300 53017 $=
202207072327 SPECI KATL 072327Z 36011G16KT 10SM FEW045 SCT070 BKN150 BKN200 BKN250 31/21 A3002 RMK AO2 TSE26 OCNL LTG DSNT E-SE TS MOVD SE CB DSNT E-SE T03060211 $=
202207072252 METAR KATL 072252Z 33008KT 10SM TS SCT045CB SCT070 BKN150 BKN200 BKN250 32/21 A3001 RMK AO2 WSHFT 2221 TSB43 SLP150 OCNL LTGICCG VC E-SE TS VC E-SE MOV SE TCU S-W T03170211 $=
202207072244 SPECI KATL 072244Z 34009KT 10SM TS SCT045CB SCT070 BKN150 BKN200 BKN250 32/22 A3000 RMK AO2 WSHFT 2221 TSB43 OCNL LTGICCG VC E-SE DSNT W-NW TS VC E-SE DSNT W-NW MOV SE TCU SE-SW-W T03170217 $=
202207072238 SPECI KATL 072238Z 33010G18KT 10SM SCT045CB SCT070 BKN200 BKN250 32/22 A2999 RMK AO2 WSHFT 2221 LTG DSNT E AND SE AND W CB DSNT W-NW DSNT NE E MOV SE T03170222 $=
202207072152 METAR KATL 072152Z 25008KT 10SM SCT045CB SCT070 BKN200 BKN250 34/23 A2999 RMK AO2 LTG DSNT W-NE SLP141 CB NW DSNT NE E-SE W TCU ALQDS T03390233 $=
202207072052 METAR KATL 072052Z 23007KT 10SM SCT048 SCT120 BKN250 34/22 A2998 RMK AO2 LTG DSNT N AND NW SLP138 CB DSNT NW-NE MDT CU ALQDS 60000 T03390222 56024=
202207071952 METAR KATL 071952Z 26008KT 10SM FEW045TCU FEW080 SCT120 BKN200 34/22 A2999 RMK AO2 SLP143 CB DSNT NE SE W NW TCU SW DSNT N SE-SW W T03390217=
202207071852 METAR KATL 071852Z 22008KT 10SM FEW038 FEW080 SCT110 BKN200 33/24 A3002 RMK AO2 LTG DSNT SE AND S RAE05 TSE17B29E50 SLP152 TS DSIPTD CB DSNT ALQDS TCU DSNT ALQDS SHRA NE P0000 T03280239=
202207071829 SPECI KATL 071829Z 00000KT 10SM TS FEW036CB SCT075 SCT110 BKN200 31/24 A3003 RMK AO2 LTG DSNT NE AND NW RAE05 TSE17B29 OCNL LTGICCG N TS N MOV SE CB DSNT ALQDS TCU N SE NW P0000 T03110239=
202207071817 SPECI KATL 071817Z 19003KT 10SM FEW036TCU SCT080 BKN110 BKN200 31/23 A3004 RMK AO2 LTG DSNT NE-S RAE05 TSE17 TS MOVD SE CB DSNT N-E-S NW TCU SE-S NW P0000 T03060233=
202207071752 METAR KATL 071752Z 25008KT 10SM -TSRA FEW034CB SCT075 BKN110 BKN200 31/23 A3005 RMK AO2 RAE16B50 TSB27 SLP164 OCNL LTGICCA VC SE TS VC SE MOV SE CB DSNT ALQDS TCU N-NE S-SW NW P0000 60000 T03060233 10328 20256 58006=
202207071735 SPECI KATL 071735Z 30013G17KT 10SM TS SCT032CB BKN070 BKN110 BKN200 32/24 A3005 RMK AO2 RAE16 TSB27 OCNL LTGICCG VC SE TS VC SE MOV SE CB ALQDS MOV SE TCU ALQDS DSNT ALQDS SHRA ALQDS P0000 T03170239 $=
202207071728 SPECI KATL 071728Z 27009KT 10SM TS SCT032CB BKN070 BKN110 BKN200 32/24 A3006 RMK AO2 RAE16 TSB27 OCNL LTGICCG N TS N MOV E CB ALQDS MOV E TCU ALQDS DSNT ALQDS SHRA ALQDS P0000 T03220244 $=
202207071652 METAR KATL 071652Z 33008KT 10SM -RA SCT032TCU SCT065 BKN100 BKN200 32/24 A3006 RMK AO2 LTG DSNT SE AND W RAB43 SLP167 CB DSNT SE W TCU ALQDS DSNT ALQDS P0000 T03170239=
202207071552 METAR KATL 071552Z 30006KT 10SM BKN030TCU BKN100 BKN200 BKN250 32/24 A3008 RMK AO2 SLP172 TCU ALQDS T03170239=
202207071452 METAR KATL 071452Z 29009KT 10SM FEW022 FEW110 SCT150 SCT200 31/23 A3007 RMK AO2 SLP169 T03110233 51011=
202207071352 METAR KATL 071352Z 30011KT 10SM FEW048 FEW150 SCT200 SCT250 30/23 A3007 RMK AO2 SLP168 T03000233=
202207071252 METAR KATL 071252Z 27006KT 10SM FEW150 SCT200 SCT250 28/23 A3005 RMK AO2 SLP163 T02780228=
202207071152 METAR KATL 071152Z 28005KT 10SM FEW150 BKN250 26/22 A3004 RMK AO2 SLP159 T02560222 10272 20244 53007=
202207071052 METAR KATL 071052Z 30006KT 10SM FEW100 SCT200 BKN250 25/22 A3002 RMK AO2 SLP151 T02500217=
202207070952 METAR KATL 070952Z 24004KT 10SM SCT100 BKN200 BKN250 25/22 A3000 RMK AO2 SLP146 T02500217=
202207070852 METAR KATL 070852Z 18003KT 10SM FEW040 FEW050 SCT095 BKN250 25/22 A3001 RMK AO2 SLP151 T02500217 57010=
202207070752 METAR KATL 070752Z 19005KT 10SM SCT039 BKN050 BKN100 BKN250 25/22 A3003 RMK AO2 SLP155 FRQ LTG DSNT NE CB DSNT NE T02500217=
202207070652 METAR KATL 070652Z 19004KT 10SM SCT035 SCT050 SCT100 BKN250 26/21 A3003 RMK AO2 SLP157 T02610211=
202207070552 METAR KATL 070552Z 11005KT 10SM FEW017 BKN045 BKN095 BKN200 27/22 A3005 RMK AO2 WSHFT 0515 SLP161 TSE47 TS DSIPTD NE-SE T02720222 10317 20267 53002=
202207070550 SPECI KATL 070550Z 12003KT 10SM FEW017 BKN045 BKN095 BKN200 27/22 A3005 RMK AO2 WSHFT 0515 TSE47 TS DSIPTD NE-SE=
202207070529 SPECI KATL 070529Z 09011KT 10SM VCTS FEW015 FEW040 SCT065 BKN200 27/22 A3005 RMK AO2 WSHFT 0515 TSE25 OCNL LTGICCCCGCA NE-E TS NE-E MOV SE T02720222=
202207070452 METAR KATL 070452Z 22004KT 10SM FEW015 FEW040 SCT065 BKN200 28/23 A3003 RMK AO2 SLP157 CONS LTG DSNT NE-SE CB DSNT NE-SE T02780233 403440250=
202207070352 METAR KATL 070352Z 21005KT 10SM FEW040 SCT200 BKN250 28/24 A3002 RMK AO2 SLP152 CONS LTG DSNT NE-E CB DSNT NE-E T02830239=
202207070252 METAR KATL 070252Z 22004KT 10SM FEW045 SCT200 BKN250 29/24 A3004 RMK AO2 SLP159 CONS LTG DSNT NE-E CB DSNT NE-E T02940239 53018=
202207070152 METAR KATL 070152Z 25004KT 10SM FEW045 SCT200 BKN250 30/23 A3001 RMK AO2 LTG DSNT NE SLP150 CB DSNT NE SW T03000233=
202207070052 METAR KATL 070052Z 25006KT 10SM FEW045 SCT200 BKN250 31/23 A3000 RMK AO2 LTG DSNT NE SLP147 CB DSNT NE TCU DSNT SW-W NW T03110228=
202207062352 METAR KATL 062352Z 24007KT 10SM FEW050 SCT200 BKN250 32/23 A2998 RMK AO2 LTG DSNT NE SLP141 CB DSNT NE T03220233 10344 20317 53000=
202207062252 METAR KATL 062252Z 28010G16KT 10SM FEW050 SCT200 BKN250 33/22 A2997 RMK AO2 SLP134 TCU DSNT N-NE S-SW T03330222=
202207062152 METAR KATL 062152Z 22007KT 10SM SCT050CB BKN200 BKN250 34/21 A2998 RMK AO2 SLP137 CB NE MOV NE TCU OHD-ALQDS T03390211=
202207062052 METAR KATL 062052Z 23008KT 10SM SCT048TCU SCT110 BKN200 BKN250 34/22 A2998 RMK AO2 SLP140 CB DSNT N NE SW TCU NE SE DSNT ALQDS T03390222 56021=
202207061952 METAR KATL 061952Z 26006KT 10SM SCT048TCU SCT120 BKN200 BKN250 34/23 A3000 RMK AO2 SLP145 TCU N-NE SE-S DSNT ALQDS T03390228=
202207061852 METAR KATL 061852Z 26009KT 10SM FEW044TCU SCT120 SCT200 BKN250 33/22 A3001 RMK AO2 SLP149 CB DSNT E-S TCU E-SE SW DSNT NE S-SW NW T03330222=
202207061752 METAR KATL 061752Z 22008KT 10SM SCT040TCU SCT110 BKN200 BKN250 32/23 A3005 RMK AO2 LTG DSNT E SLP162 CB DSNT NE E SE TCU N NE SE SW DSNT ALQDS T03170233 10333 20261 58010=
202207061652 METAR KATL 061652Z 33007KT 10SM SCT034TCU SCT120 SCT200 BKN250 31/22 A3006 RMK AO2 SLP167 CB DSNT E SE-S TCU OHD ALQDS DSNT ALQDS T03110222=
202207061552 METAR KATL 061552Z 26008KT 10SM SCT032TCU SCT140 SCT250 32/24 A3008 RMK AO2 SLP172 CB DSNT S TCU E-S-W DSNT ALQDS T03170239=
202207061452 METAR KATL 061452Z 31006KT 10SM FEW022 FEW150 SCT250 31/23 A3008 RMK AO2 SLP172 TCU DSNT W MDT CU DSNT ALQDS T03060233 50007=
202207061352 METAR KATL 061352Z 29006KT 10SM FEW018 FEW140 SCT250 29/24 A3008 RMK AO2 SLP175 T02940239=
202207061252 METAR KATL 061252Z 32003KT 10SM FEW120 SCT150 SCT200 SCT250 27/23 A3007 RMK AO2 SLP171 ACC SE-SW T02720233=
202207061152 METAR KATL 061152Z 27004KT 10SM FEW070 BKN120 27/23 A3006 RMK AO2 SLP165 RAE1057B24E30 P0000 60000 T02670233 10267 20250 50004=
202207061124 SPECI KATL 061124Z 00000KT 10SM -RA FEW032 SCT047 BKN100 BKN200 26/23 A3006 RMK AO2 RAE1057B24 CB DSIPTD P0000 T02560228=
202207061052 METAR KATL 061052Z 00000KT 3SM RA BR BKN030CB BKN090 25/23 A3007 RMK AO2 RAB03 SLP170 VIS SW-NW 2 CB OHD-W-NW MOV STNRY P0000 T02500228=
202207060952 METAR KATL 060952Z 00000KT 10SM BKN032 BKN041 BKN080 26/23 A3006 RMK AO2 SLP164 T02560228=
202207060852 METAR KATL 060852Z 19003KT 10SM FEW038 SCT080 SCT200 26/23 A3004 RMK AO2 SLP161 T02560228 53002=
202207060752 METAR KATL 060752Z 21003KT 10SM FEW100 SCT200 26/23 A3003 RMK AO2 SLP154 T02560228=
202207060652 METAR KATL 060652Z 00000KT 10SM FEW100 BKN200 26/23 A3002 RMK AO2 SLP155 T02610228=
202207060552 METAR KATL 060552Z 19003KT 10SM FEW100 BKN200 BKN250 27/23 A3004 RMK AO2 SLP160 T02670228 10311 20267 56008=
202207060452 METAR KATL 060452Z 18004KT 10SM FEW100 BKN200 BKN250 27/23 A3004 RMK AO2 SLP161 T02720233 403390228=
202207060352 METAR KATL 060352Z 14003KT 10SM FEW040 SCT150 BKN200 BKN250 27/23 A3005 RMK AO2 SLP164 FRQ LTG DSNT NE CB DSNT NE T02720228=
202207060252 METAR KATL 060252Z 31004KT 10SM FEW040 BKN200 BKN250 28/22 A3006 RMK AO2 SLP168 CONS LTG DSNT E-SE CB DSNT NE E-SE T02780222 53013=
202207060152 METAR KATL 060152Z 27005KT 10SM FEW040 SCT200 BKN250 28/23 A3004 RMK AO2 SLP161 FRQ LTG DSNT NE E-SE CB DSNT NE E-SE T02830228=
202207060052 METAR KATL 060052Z 30004KT 10SM FEW040 SCT055 BKN200 BKN250 29/23 A3004 RMK AO2 SLP160 LTG DSNT N SE CB DSNT N E SE T02940233=
202207052352 METAR KATL 052352Z 29003KT 10SM FEW045 SCT200 SCT250 31/23 A3003 RMK AO2 LTG DSNT N AND SW SLP155 CB DSNT SE SW NW-N TCU DSNT NE T03110228 10339 20311 53002=
202207052252 METAR KATL 052252Z 21004KT 10SM FEW045 FEW070 FEW250 32/22 A3001 RMK AO2 SLP150 LTG DSNT NW CB DSNT SE NW TCU DSNT ALQDS T03220222=
202207052152 METAR KATL 052152Z 19005KT 10SM FEW045TCU FEW070 SCT250 33/21 A3001 RMK AO2 SLP151 CB DSNT NW TCU W-NW DSNT ALQDS T03280211=
202207052052 METAR KATL 052052Z 18007KT 10SM FEW046TCU SCT075 SCT200 BKN250 33/22 A3002 RMK AO2 SLP153 CB DSNT W TCU NE E SW-NW DSNT ALQDS T03330222 56022=
202207051952 METAR KATL 051952Z 15004KT 10SM SCT040TCU BKN075 BKN200 BKN250 33/22 A3004 RMK AO2 SLP161 TCU ALQDS DSNT ALQDS SHRA DSNT S T03280222=
202207051852 METAR KATL 051852Z 00000KT 10SM BKN038TCU BKN070 BKN250 31/22 A3006 RMK AO2 SLP169 TCU OHD ALQDS DSNT ALQDS T03110222=
202207051752 METAR KATL 051752Z 00000KT 10SM SCT034TCU SCT065 SCT250 31/22 A3009 RMK AO2 SLP177 TCU N SE SW DSNT ALQDS MDT CU ALQDS T03110217 10322 20239 58017=
202207051652 METAR KATL 051652Z 17005KT 10SM SCT030 SCT055 SCT250 31/23 A3011 RMK AO2 SLP185 MDT CU SW-NW T03060233=
202207051552 METAR KATL 051552Z 17005KT 10SM SCT028 SCT055 SCT250 30/23 A3013 RMK AO2 SLP190 T03000233=
202207051543 SPECI KATL 051543Z 10003KT 10SM SCT028 BKN050 BKN250 30/23 A3013 RMK AO2 T03000233=
202207051457 SPECI KATL 051457Z 00000KT 10SM SCT016 BKN026 BKN045 BKN250 28/23 A3014 RMK AO2 T02830228=
202207051452 METAR KATL 051452Z 00000KT 10SM SCT017 SCT026 BKN045 BKN250 28/23 A3014 RMK AO2 SLP194 T02830228 50003=
202207051352 METAR KATL 051352Z 10005KT 8SM FEW018 SCT045 SCT200 SCT250 28/24 A3015 RMK AO2 SLP199 T02780239=
202207051252 METAR KATL 051252Z 29003KT 8SM FEW007 FEW045 FEW200 SCT250 26/23 A3014 RMK AO2 SLP196 T02560228=
202207051152 METAR KATL 051152Z 27003KT 5SM BR FEW007 FEW045 SCT200 SCT250 24/23 A3013 RMK AO2 SLP192 70184 T02390228 10244 20228 53008=
202207051134 SPECI KATL 051134Z 31003KT 4SM BR FEW005 FEW045 SCT200 SCT250 23/22 A3013 RMK AO2 CIG BKN005 E T02330222=
202207051052 METAR KATL 051052Z 00000KT 7SM FEW005 FEW046 SCT250 23/22 A3011 RMK AO2 SLP184 T02330222=
202207050952 METAR KATL 050952Z 14003KT 10SM FEW005 FEW046 BKN250 23/22 A3010 RMK AO2 SLP183 T02330217=
202207050852 METAR KATL 050852Z 00000KT 10SM FEW005 FEW100 SCT150 OVC250 23/22 A3010 RMK AO2 SLP182 T02330217 55003=
202207050752 METAR KATL 050752Z 17003KT 10SM FEW100 SCT150 OVC250 23/22 A3010 RMK AO2 SLP181 T02330217=
202207050652 METAR KATL 050652Z 00000KT 10SM FEW060 FEW100 SCT150 OVC250 23/22 A3010 RMK AO2 SLP181 T02330217=
202207050552 METAR KATL 050552Z 04007KT 10SM FEW005 FEW060 SCT100 BKN130 OVC180 23/22 A3011 RMK AO2 RAE32 TSE38 SLP187 OCNL DSNT LTG NW TS MOV NW CB DSNT NW P0036 60180 T02280217 10306 20228 58004=
202207050538 SPECI KATL 050538Z 02005KT 10SM FEW005 FEW060 BKN100 BKN130 OVC180 23/22 A3012 RMK AO2 RAE32 TSE38 FRQ DSNT LTG NW TS MOV NW CB DSNT NW P0036 T02280217=
202207050500 SPECI KATL 050500Z 31010KT 3SM +TSRA BR FEW005 BKN030CB OVC070 23/22 A3014 RMK AO2 PRESFR VIS LWR SW-NW CONS LTGICCG OHD-ALQDS TS OHD-ALQDS MOV W P0023 T02280217=
202207050451 METAR KATL 050451Z 24009KT 1SM R09R/4000VP6000FT +TSRA BR SCT005 BKN014 OVC025CB 23/22 A3017 RMK AO2 PK WND 15030/0422 WSHFT 0431 SLP204 CONS LTGICCG OHD-ALQDS TS OHD-ALQDS MOV W P0144 T02280217 403390228=
202207050450 SPECI KATL 050450Z 24009G19KT 1SM R09R/4000VP6000FT +TSRA BR SCT005 BKN014 OVC025CB 23/22 A3017 RMK AO2 PK WND 15030/0422 WSHFT 0431 CONS LTGICCG OHD-ALQDS TS OHD-ALQDS MOV W P0139=
202207050416 SPECI KATL 050416Z 15013G21KT 1 1/2SM R09R/2200VP6000FT +TSRA BR SCT010 BKN025CB OVC070 24/23 A3016 RMK AO2 CONS LTGICCG OHD-ALQDS TS OHD-ALQDS MOV W P0014 T02440228 $=
202207050407 SPECI KATL 050407Z 12008G15KT 2SM +TSRA FEW012 BKN025CB BKN070 OVC130 26/23 A3016 RMK AO2 FRQ LTGICCG OHD-ALQDS TS OHD-ALQDS MOV W P0000 T02610228 $=
202207050352 METAR KATL 050352Z VRB03KT 7SM -TSRA BKN035CB BKN070 BKN130 OVC200 26/22 A3014 RMK AO2 RAB44 TSB41 SLP193 FRQ LTGICCG SE-SW TS SE-SW MOV NW P0000 T02610217 $=
202207050341 SPECI KATL 050341Z 35006KT 7SM TS SCT040CB BKN080 BKN130 BKN250 26/22 A3014 RMK AO2 TSB41 FRQ LTGICCG SE-SW TS SE-SW MOV NW T02610217 $=
202207050252 METAR KATL 050252Z 07003KT 7SM FEW040 SCT100 BKN140 BKN200 BKN250 27/23 A3013 RMK AO2 RAE00 TSE23 SLP189 FRQ LTG DSNT NW-N CB DSNT NW-N P0000 60000 T02720228 51018 $=
202207050224 SPECI KATL 050224Z 07008KT 8SM FEW040 BKN100 BKN140 BKN250 28/22 A3012 RMK AO2 RAE00 TSE23 FRQ LTG DSNT NW-NE TS MOVD NW CB DSNT NW-NE P0000 T02780217 $=
202207050152 METAR KATL 050152Z 08008KT 10SM -TSRA FEW040CB SCT060 BKN120 BKN250 28/22 A3011 RMK AO2 RAB37 SLP184 FRQ LTGICCG VC NW-N-DSNT NE TS VC NW-N-DSNT NE MOV NW P0000 T02780222 $=
202207050052 METAR KATL 050052Z 21005KT 10SM TS FEW040CB SCT080 BKN150 BKN250 30/23 A3009 RMK AO2 TSB25 SLP180 FRQ LTGICCG N-E-SE TS N-E-SE MOV NW T03000233 $=
202207050025 SPECI KATL 050025Z 23005KT 10SM TS FEW040CB SCT150 BKN250 30/23 A3008 RMK AO2 TSB25 OCNL LTGICCG VC E-SE DSNT N TS VC E-SE DSNT N MOV W TCU N-E T03000228 $=
202207042352 METAR KATL 042352Z 22005KT 10SM FEW040 FEW070 SCT150 SCT250 31/23 A3007 RMK AO2 LTG DSNT E AND SE SLP171 CB DSNT N E-SE TCU DSNT NE-E 60004 T03060233 10339 20283 55004 $=
202207042252 METAR KATL 042252Z 27004KT 10SM FEW040TCU SCT140 SCT200 32/23 A3007 RMK AO2 LTG DSNT NW SLP169 CB DSNT SE NW TCU E DSNT N-E T03220228 $=
202207042152 METAR KATL 042152Z 26004KT 10SM FEW040TCU SCT070 SCT120 BKN200 29/23 A3007 RMK AO2 RAB17E32 TSB08E27 SLP171 TCU ALQDS P0004 T02940233 $=
202207042127 SPECI KATL 042127Z 25007KT 10SM -RA SCT044CB SCT070 BKN120 BKN200 28/23 A3007 RMK AO2 RAB17 TSB08E27 OCNL LTG DSNT S TS DSIPTD CB W-NW DSNT S MOV W TCU ALQDS P0004 T02830228 $=
202207042108 SPECI KATL 042108Z 22005KT 10SM TS SCT044CB SCT070 BKN120 BKN200 31/22 A3007 RMK AO2 TSB08 OCNL LTGIC S-W TS S-W MOV SW TCU SE-S T03060222 $=
202207042052 METAR KATL 042052Z 12004KT 10SM SCT044TCU BKN075 BKN120 BKN200 32/21 A3008 RMK AO2 TSB19E49 SLP175 LTG DSNT S AND SW TS MOVD SW CB DSNT S SW TCU ALQDS T03170211 56018 $=
202207042019 SPECI KATL 042019Z 09005KT 10SM TS SCT044CB SCT075 BKN110 BKN200 32/22 A3008 RMK AO2 TSB19 OCNL LTGICCA VC SW TS VC SW MOV SW CB DSNT SW NW TCU ALQDS T03220217 $=
202207041952 METAR KATL 041952Z 31006KT 10SM SCT040TCU SCT070 SCT110 BKN200 33/21 A3009 RMK AO2 SLP177 CB DSNT SW NW TCU ALQDS T03280211=
202207041852 METAR KATL 041852Z 04009KT 10SM SCT040TCU BKN065 BKN100 BKN200 31/22 A3011 RMK AO2 SLP183 CB DSNT SW-W NW TCU ALQDS T03110217=
202207041752 METAR KATL 041752Z 30006KT 10SM SCT034TCU BKN090 BKN200 BKN250 31/23 A3014 RMK AO2 SLP193 CB DSNT S W NW TCU ALQDS 60000 T03060228 10317 20239 58012=
202207041652 METAR KATL 041652Z 08005KT 10SM SCT032TCU BKN075 BKN250 31/22 A3016 RMK AO2 LTG DSNT NW SLP200 CB DSNT S TCU ALQDS T03110222=
202207041552 METAR KATL 041552Z 07006KT 10SM SCT026TCU BKN038 BKN075 BKN250 29/23 A3017 RMK AO2 SLP206 TCU N NW DSNT NE-SE MDT CU ALQDS T02940228=
202207041452 METAR KATL 041452Z 11004KT 8SM BKN018TCU BKN032 BKN065 BKN250 28/23 A3017 RMK AO2 SLP207 TCU SW-NW MDT CU ALQDS 60000 T02830233 50007=
202207041444 SPECI KATL 041444Z 10006KT 8SM SCT016TCU SCT032 BKN065 BKN250 28/23 A3018 RMK AO2 TCU S SW-NW T02780233=
202207041352 METAR KATL 041352Z 12003KT 3SM OVC012 27/23 A3018 RMK AO2 SFC VIS 7 SLP207 CIG 010V014 BINOVC T02670233=
202207041330 SPECI KATL 041330Z 00000KT 2SM OVC011 26/23 A3017 RMK AO2 SFC VIS 7 CIG 009V013 BINOVC T02610233=
202207041317 SPECI KATL 041317Z 00000KT 2SM BR OVC008 25/23 A3017 RMK AO2 SFC VIS 6 CIG 007V010 BINOVC T02500233=
202207041252 METAR KATL 041252Z 01003KT 2SM BR BKN004 OVC007 24/23 A3016 RMK AO2 SFC VIS 4 DZE20 SLP203 P0000 T02440228=
202207041248 SPECI KATL 041248Z 36006KT 2SM BR BKN004 OVC007 24/23 A3016 RMK AO2 SFC VIS 4 DZE20 P0000=
202207041152 METAR KATL 041152Z 28003KT 1SM R09R/P6000FT -DZ BR OVC004 24/23 A3015 RMK AO2 SFC VIS 2 1/2 DZB17 SLP200 CIG 003V005 P0000 60000 70059 T02390228 10244 20233 53018=
202207041102 SPECI KATL 041102Z 27003KT 1SM R09R/P6000FT BR OVC004 23/22 A3013 RMK AO2 SFC VIS 3 CIG 003V005 T02330222=
202207041052 METAR KATL 041052Z 27004KT 6SM BR OVC005 24/22 A3013 RMK AO2 SLP192 CIG 004V007 T02390222=
202207040952 METAR KATL 040952Z 31004KT 6SM BR BKN007 24/22 A3011 RMK AO2 SLP185 T02390222=
202207040928 SPECI KATL 040928Z 30004KT 6SM BR OVC008 24/23 A3010 RMK AO2 T02390228=
202207040852 METAR KATL 040852Z 00000KT 7SM FEW005 BKN010 24/22 A3010 RMK AO2 SLP182 T02390222 56004=
202207040850 SPECI KATL 040850Z 00000KT 7SM FEW005 BKN010 24/22 A3010 RMK AO2=
202207040752 METAR KATL 040752Z 22003KT 7SM FEW150 24/23 A3010 RMK AO2 SLP181 T02390228=
202207040652 METAR KATL 040652Z 00000KT 10SM FEW150 FEW200 24/23 A3010 RMK AO2 SLP182 T02440228=
202207040552 METAR KATL 040552Z 28003KT 10SM FEW150 SCT200 SCT250 24/23 A3011 RMK AO2 SLP185 60059 T02440233 10289 20244 56003=
202207040452 METAR KATL 040452Z 26003KT 10SM FEW150 SCT200 BKN250 24/22 A3011 RMK AO2 SLP185 T02440222 403330228=
202207040352 METAR KATL 040352Z 28003KT 10SM FEW110 BKN150 BKN200 BKN250 24/23 A3010 RMK AO2 RAE22 TSE26 SLP180 P0000 T02440228=
202207040326 SPECI KATL 040326Z 27003KT 10SM FEW070 SCT110 BKN200 BKN250 24/23 A3010 RMK AO2 RAE22 TSE26 TS DSIPTD P0000 T02440228=
202207040252 METAR KATL 040252Z 27005KT 10SM -TSRA FEW035CB SCT070 BKN120 BKN200 24/23 A3012 RMK AO2 SLP189 OCNL LTGICCGCA SW-NW TS SW-NW MOV W P0059 60059 T02440228 50012=
202207040152 METAR KATL 040152Z 09010KT 3SM TSRA SCT017 BKN035CB BKN070 OVC200 27/23 A3012 RMK AO2 RAB31 TSB52 SLP189 VIS LWR N-E-SE OCNL LTGICCG OHD-E TS OHD-E MOV STNRY P0000 T02670233=
202207040052 METAR KATL 040052Z 22006KT 10SM FEW020 SCT070 BKN130 BKN200 BKN250 28/23 A3011 RMK AO2 LTG DSNT NE AND SE SLP185 CB DSNT NE E-SE T02780233=
202207032352 METAR KATL 032352Z 31003KT 10SM FEW080 BKN130 BKN200 BKN250 29/22 A3008 RMK AO2 SLP176 CB DSNT NE 60000 T02890217 10333 20261 53005=
202207032252 METAR KATL 032252Z 27003KT 10SM FEW040TCU SCT090 BKN200 BKN250 29/22 A3007 RMK AO2 SLP171 CB DSNT NE TCU SE T02940222=
202207032152 METAR KATL 032152Z 00000KT 10SM SCT040TCU BKN090 BKN200 BKN250 27/22 A3008 RMK AO2 RAE30 TSE30 SLP176 LTG DSNT NE-SE-S CB DSNT NE-SE-S TCU OHD-E P0000 T02670222=
202207032130 SPECI KATL 032130Z 25005KT 10SM SCT040TCU BKN100 BKN200 BKN250 26/22 A3008 RMK AO2 RAE30 TSE30 LTG DSNT NE-SE TS DSIPTD CB DSNT NE-SE TCU N-NE P0000 T02610222=
202207032052 METAR KATL 032052Z 27010G21KT 10SM -TSRA SCT045CB BKN085 BKN200 27/22 A3007 RMK AO2 PK WND 26030/2023 WSHFT 2022 LTG DSNT ALQDS RAB51 SLP172 OCNL LTGCGIC NE-E VC S TS NE-E VC S MOV SE CB DSNT N P0000 60000 T02670217 55002=
202207032041 SPECI KATL 032041Z 27013KT 10SM TS SCT045CB BKN075 BKN200 27/22 A3007 RMK AO2 PK WND 26030/2023 WSHFT 2022 LTG DSNT ALQDS OCNL LTGCGIC SE-S TS SE-S MOV SE CB DSNT N T02720217=
202207031952 METAR KATL 031952Z 23003KT 10SM TS SCT045CB SCT110 BKN200 33/21 A3004 RMK AO2 LTG DSNT S-W SLP160 OCNL LTGCGIC VC S-W TSB49 TS VC S-W MOV SE TCU ALQDS T03330206=
202207031852 METAR KATL 031852Z VRB03KT 10SM SCT044TCU SCT200 33/21 A3005 RMK AO2 LTG DSNT W SLP163 CB DSNT S-W-N TCU SE-SW T03330206=
202207031752 METAR KATL 031752Z 28005KT 10SM SCT042TCU SCT100 SCT200 33/22 A3008 RMK AO2 SLP171 TCU ALQDS MDT CU ALQDS T03330217 10333 20233 58014=
202207031652 SPECI KATL 031652Z VRB05KT 10SM SCT040TCU SCT100 32/21 A3009 RMK AO2 SLP177 TCU SE SW MDT CU ALQDS T03220211=
202207031652 METAR KATL 031652Z VRB05KT 10SM SCT040TCU SCT100 32/21 A3009 RMK AO2 SLP177 TCU SE SW MDT CU ALQDS T03220211=
202207031552 METAR KATL 031552Z 35005KT 10SM BKN032 31/22 A3012 RMK AO2 SLP187 MDT CU ALQDS T03060222=
202207031452 METAR KATL 031452Z 30009KT 10SM FEW026 FEW050 29/23 A3012 RMK AO2 SLP187 MDT CU DSNT W-N T02940228 50006 $=
202207031352 METAR KATL 031352Z 31004KT 10SM FEW022 FEW050 28/22 A3012 RMK AO2 SLP188 T02830222 $=
202207031252 METAR KATL 031252Z 27006KT 10SM FEW050 FEW200 27/22 A3012 RMK AO2 SLP186 T02670222 $=
202207031152 METAR KATL 031152Z 28008KT 10SM FEW200 23/22 A3010 RMK AO2 SLP182 T02330217 10256 20228 51018 $=
202207031052 METAR KATL 031052Z 27007KT 10SM FEW050 FEW200 23/22 A3009 RMK AO2 SLP178 T02280217 $=
202207030952 METAR KATL 030952Z 27005KT 10SM FEW050 FEW200 23/22 A3006 RMK AO2 SLP169 T02280217 $=
202207030852 METAR KATL 030852Z 28006KT 10SM FEW050 FEW200 23/22 A3004 RMK AO2 SLP162 T02330217 53000 $=
202207030752 METAR KATL 030752Z 27006KT 10SM FEW050 FEW200 24/22 A3004 RMK AO2 SLP161 T02440217 $=
202207030652 METAR KATL 030652Z 26005KT 10SM FEW200 25/22 A3004 RMK AO2 SLP160 T02500217 $=
202207030552 METAR KATL 030552Z 27006KT 10SM FEW200 25/22 A3004 RMK AO2 SLP161 T02500217 10306 20250 58008 $=
202207030452 METAR KATL 030452Z 26005KT 10SM FEW200 26/22 A3005 RMK AO2 SLP165 T02610217 403280222 $=
202207030352 METAR KATL 030352Z 00000KT 10SM FEW065 FEW180 27/22 A3007 RMK AO2 LTG DSNT E SLP170 CB DSNT E T02670222 $=
202207030252 METAR KATL 030252Z 25004KT 10SM FEW065 SCT180 SCT250 27/22 A3007 RMK AO2 LTG DSNT E SLP170 CB DSNT E T02720217 51017 $=
202207030152 METAR KATL 030152Z 33006KT 10SM FEW050 FEW065 SCT140 SCT200 29/21 A3006 RMK AO2 LTG DSNT E SLP168 CB DSNT E-SE T02890211 $=
202207030052 METAR KATL 030052Z 26004KT 10SM FEW045 SCT140 BKN200 29/21 A3003 RMK AO2 SLP157 CB DSNT NE SE SW T02890206 $=
202207022352 METAR KATL 022352Z 25007KT 10SM FEW045CB FEW120 SCT200 29/21 A3002 RMK AO2 LTG DSNT N SLP153 CB NE DSNT N-NE MOV STNRY TCU E DSNT S T02940211 10328 20294 53002 $=
202207022252 METAR KATL 022252Z 30008KT 10SM FEW046TCU FEW100 SCT200 32/21 A3000 RMK AO2 LTG DSNT N SLP147 CB DSNT SE NW-N TCU N DSNT S T03170206 $=
202207022152 METAR KATL 022152Z 23007KT 10SM FEW045 FEW100 SCT200 32/21 A3001 RMK AO2 SLP150 CB DSNT N W NW TCU DSNT E-SE T03170206 $=
202207022052 METAR KATL 022052Z 23007KT 10SM SCT045TCU SCT100 SCT200 31/21 A3001 RMK AO2 SLP151 CB DSNT NW-N TCU E W DSNT SW T03110206 56015 $=
202207021952 METAR KATL 021952Z 00000KT 10SM SCT045TCU SCT100 31/19 A3002 RMK AO2 SLP153 TCU OHD-SW DSNT SW-NW MDT CU ALQDS T03110194 $=
202207021852 METAR KATL 021852Z VRB03KT 10SM SCT048 31/19 A3004 RMK AO2 SLP160 TCU DSNT SW-W NW MDT CU ALQDS T03110189 $=
202207021752 METAR KATL 021752Z 35005KT 10SM SCT042 31/20 A3005 RMK AO2 SLP166 MDT CU ALQDS T03060200 10317 20228 58018 $=
202207021652 METAR KATL 021652Z 27005KT 10SM SCT038 31/21 A3008 RMK AO2 SLP173 MDT CU ALQDS T03110211 $=
202207021552 METAR KATL 021552Z VRB04KT 10SM SCT028 29/21 A3010 RMK AO2 SLP182 TCU DSNT N NE MDT CU ALQDS T02940211 $=
202207021452 METAR KATL 021452Z VRB03KT 10SM SCT020 28/22 A3011 RMK AO2 SLP185 SCT V BKN T02780217 51006 $=
202207021423 SPECI KATL 021423Z 00000KT 9SM SCT017 27/22 A3010 RMK AO2 T02720217 $=
202207021352 METAR KATL 021352Z 00000KT 6SM HZ BKN013 BKN020 26/22 A3011 RMK AO2 SLP185 T02560222 $=
202207021320 SPECI KATL 021320Z 00000KT 5SM BR BKN011 25/22 A3011 RMK AO2 T02500222 $=
202207021252 METAR KATL 021252Z 13003KT 6SM BR BKN008 BKN012 24/22 A3011 RMK AO2 SLP184 BKN008 V SCT T02390222 $=
202207021228 SPECI KATL 021228Z 00000KT 6SM BR BKN005 BKN011 23/22 A3010 RMK AO2 BKN005 V SCT T02330217 $=
202207021152 METAR KATL 021152Z 13003KT 6SM BR SCT003 23/21 A3009 RMK AO2 SLP179 VIS LWR NE 70001 T02280211 10233 20222 52014 $=
202207021052 METAR KATL 021052Z 07004KT 8SM FEW004 FEW015 22/21 A3008 RMK AO2 SLP176 T02220211 $=
202207020952 METAR KATL 020952Z 08004KT 10SM FEW007 FEW200 22/21 A3006 RMK AO2 SLP169 T02220211 $=
202207020852 METAR KATL 020852Z 00000KT 10SM FEW015 FEW250 23/21 A3005 RMK AO2 SLP165 T02280211 55003 $=
202207020752 METAR KATL 020752Z 00000KT 10SM SCT015 23/22 A3004 RMK AO2 SLP164 T02280217 $=
202207020652 METAR KATL 020652Z 08004KT 10SM SCT015 23/22 A3005 RMK AO2 SLP165 T02280217 $=
202207020552 METAR KATL 020552Z 00000KT 10SM FEW250 23/22 A3006 RMK AO2 SLP169 T02330217 10278 20233 58010 $=
202207020452 METAR KATL 020452Z 22004KT 10SM FEW250 24/22 A3007 RMK AO2 SLP174 T02390222 402830233 $=
202207020352 METAR KATL 020352Z 19003KT 10SM FEW150 FEW250 24/22 A3009 RMK AO2 SLP179 T02390217 $=
202207020252 METAR KATL 020252Z 00000KT 10SM FEW150 SCT250 24/22 A3009 RMK AO2 SLP179 T02440217 51008 $=
202207020152 METAR KATL 020152Z 21003KT 10SM FEW150 SCT250 25/22 A3009 RMK AO2 SLP178 T02500222 $=
202207020052 METAR KATL 020052Z 20005KT 10SM FEW025 FEW150 SCT250 26/22 A3007 RMK AO2 LTG DSNT NE SLP173 CB DSNT NE T02610217 $=
202207012352 METAR KATL 012352Z 20005KT 10SM FEW025 FEW150 SCT200 BKN250 28/21 A3006 RMK AO2 SLP169 CB DSNT NE 60001 T02780211 10283 20239 56004 $=
202207012252 METAR KATL 012252Z 16004KT 10SM FEW025 SCT150 BKN200 BKN250 28/21 A3006 RMK AO2 SLP170 CB DSNT NE T02780206 $=
202207012152 METAR KATL 012152Z 00000KT 10SM FEW025 SCT150 BKN200 BKN250 27/21 A3006 RMK AO2 SLP171 CB DSNT NE E T02720211 $=
202207012052 METAR KATL 012052Z 00000KT 10SM FEW020 SCT140 BKN200 BKN250 27/21 A3008 RMK AO2 LTG DSNT S SLP174 CB DSNT NE SE S 60001 T02670211 56018 $=
202207011952 METAR KATL 011952Z 07004KT 10SM FEW015 SCT120 BKN200 26/21 A3009 RMK AO2 RAE1859 SLP180 CB DSNT NE E S P0000 T02560206 $=
202207011852 METAR KATL 011852Z 05007KT 10SM -RA FEW018 BKN100 BKN200 24/21 A3011 RMK AO2 LTG DSNT E AND SW AND W SLP186 CB DSNT E SW TCU DSNT S P0001 T02390211=
202207011809 SPECI KATL 011809Z 03010KT 10SM -RA FEW005 FEW020 BKN100 BKN200 25/21 A3013 RMK AO2 LTG DSNT SW AND W CB DSNT E SW TCU DSNT S P0000 T02500206=
202207011752 METAR KATL 011752Z 01007KT 9SM -RA FEW020CB BKN090 BKN200 24/21 A3013 RMK AO2 RAB12 TSB1658E51 SLP192 TS DSIPTD CB SW DSNT E MOV S TCU SE-S P0000 60000 T02440211 10278 20239 58014=
202207011723 SPECI KATL 011723Z 36007KT 9SM -TSRA SCT022CB BKN050 BKN250 26/21 A3014 RMK AO2 LTG DSNT W-NE RAB12 TSB1658 OCNL LTGCGIC W-NW TS W-NW MOV STNRY TCU S P0000 T02560206=
202207011658 SPECI KATL 011658Z 06007KT 10SM TS BKN022CB BKN150 BKN250 27/21 A3014 RMK AO2 LTG DSNT NE AND NW TSB58 OCNL LTGCGIC W-NW TS W-NW MOV STNRY CB NE-E MOV SW T02670206=
202207011652 METAR KATL 011652Z 08008G15KT 10SM BKN022CB BKN150 BKN250 27/21 A3015 RMK AO2 LTG DSNT NE TSB00E39 SLP197 TS DSIPTD CB NE W MOV SW TCU OHD-SW T02670206=
202207011640 SPECI KATL 011640Z 10006KT 10SM BKN022CB BKN150 BKN250 28/22 A3015 RMK AO2 LTG DSNT NE TSB00E39 TS DSIPTD CB NE W MOV SW TCU OHD-SW T02780217=
202207011626 SPECI KATL 011626Z VRB04KT 10SM TS BKN022CB BKN150 BKN250 27/21 A3015 RMK AO2 LTG DSNT NE TSB00 OCNL LTGCGIC NE W TS NE W MOV SW TCU OHD-SW T02720211=
202207011600 SPECI KATL 011600Z 09005KT 10SM TS SCT020CB BKN150 BKN250 27/21 A3016 RMK AO2 LTG DSNT NE AND NW TSB00 OCNL LTGCGIC NE TS NE MOV W CB DSNT NW-N TCU ALQDS T02720211=
202207011552 METAR KATL 011552Z VRB03KT 10SM SCT020CB BKN150 BKN250 27/21 A3016 RMK AO2 LTG DSNT NE AND NW SLP202 CB NE DSNT NW-N MOV W TCU ALQDS T02720211=
202207011534 SPECI KATL 011534Z VRB03KT 10SM SCT018TCU SCT095 BKN150 BKN250 27/22 A3016 RMK AO2 LTG DSNT N AND NW CB DSNT NW-N TCU W-N-E T02720217=
202207011452 METAR KATL 011452Z 13004KT 10SM BKN015 BKN095 BKN150 26/22 A3017 RMK AO2 SLP206 T02610217 50003=
202207011423 SPECI KATL 011423Z 13004KT 10SM BKN012 BKN095 OVC150 26/22 A3017 RMK AO2 T02560217=
202207011352 METAR KATL 011352Z 09005KT 10SM SCT011 BKN095 OVC150 25/22 A3017 RMK AO2 SLP207 T02500217=
202207011328 SPECI KATL 011328Z 09003KT 10SM BKN011 BKN085 OVC150 25/21 A3018 RMK AO2 T02500211=
202207011252 METAR KATL 011252Z 10005KT 10SM FEW012 BKN080 BKN150 BKN200 OVC250 24/21 A3017 RMK AO2 SLP206 BINOVC T02440211=
