##########################################################
# Query made at 04/20/2024 00:21:44 UTC
# Time interval: from 04/01/2022 12:00  to 04/30/2022 12:59  UTC
##########################################################

##########################################################
# KATL, Atlanta, Hartsfield - Jackson Atlanta International Airport (United States)
# WMO index: 72219. WIGOS ID: 0-20000-0-72219
# Latitude 33-38-59N. Longitude 084-25-00W. Altitude 312 m.
##########################################################

202204301252 METAR KATL 301252Z 15009KT 10SM FEW150 FEW250 18/13 A3011 RMK AO2 SLP190 ACC SW T01780133 $=
202204301152 METAR KATL 301152Z 13005KT 10SM FEW150 FEW250 16/12 A3010 RMK AO2 SLP187 ACC NW T01560117 10189 20150 53015 $=
202204301052 METAR KATL 301052Z 11006KT 10SM FEW050 FEW250 16/12 A3009 RMK AO2 SLP182 T01560117 $=
202204300952 METAR KATL 300952Z 13004KT 10SM FEW250 16/12 A3007 RMK AO2 SLP175 T01610117 $=
202204300852 METAR KATL 300852Z 14003KT 10SM SCT250 16/12 A3006 RMK AO2 SLP171 T01610117 56004 $=
202204300752 METAR KATL 300752Z 16006KT 10SM SCT250 17/11 A3006 RMK AO2 SLP171 T01720111 $=
202204300652 METAR KATL 300652Z 17008KT 10SM SCT250 18/11 A3006 RMK AO2 SLP171 T01780106 $=
202204300552 METAR KATL 300552Z 17008KT 10SM SCT250 19/09 A3007 RMK AO2 SLP174 T01890094 10239 20183 56001 $=
202204300452 METAR KATL 300452Z 16007KT 10SM SCT250 18/08 A3007 RMK AO2 SLP175 T01830078 402670139 $=
202204300352 METAR KATL 300352Z 14004KT 10SM SCT250 19/08 A3007 RMK AO2 SLP175 T01890078 $=
202204300252 METAR KATL 300252Z 14003KT 10SM SCT250 19/08 A3007 RMK AO2 SLP177 T01940078 53007 $=
202204300152 METAR KATL 300152Z 14004KT 10SM FEW250 21/07 A3007 RMK AO2 SLP175 T02110072 $=
202204300052 METAR KATL 300052Z 15005KT 10SM FEW250 22/07 A3006 RMK AO2 SLP172 T02220072 $=
202204292352 METAR KATL 292352Z 16006KT 10SM FEW250 24/07 A3005 RMK AO2 SLP170 T02390067 10267 20239 55002 $=
202204292252 METAR KATL 292252Z 14007KT 10SM SCT075 SCT250 25/06 A3005 RMK AO2 SLP170 T02500061 $=
202204292152 METAR KATL 292152Z 13006KT 10SM SCT075 SCT250 25/06 A3005 RMK AO2 SLP171 T02500061 $=
202204292052 METAR KATL 292052Z 14006KT 10SM SCT075 SCT100 26/07 A3006 RMK AO2 SLP172 MDT CU DSNT NE T02560067 56018 $=
202204291952 METAR KATL 291952Z 12007KT 10SM SCT075 26/06 A3008 RMK AO2 SLP179 MDT CU DSNT NE-E T02560061 $=
202204291852 METAR KATL 291852Z VRB05KT 10SM SCT075 SCT150 26/06 A3009 RMK AO2 SLP182 MDT CU ALQDS T02560061 $=
202204291752 METAR KATL 291752Z 18005KT 10SM FEW070 SCT150 SCT250 25/07 A3011 RMK AO2 SLP189 T02500072 10250 20144 58017 $=
202204291652 METAR KATL 291652Z 17007KT 10SM FEW060 SCT085 SCT150 24/08 A3013 RMK AO2 SLP197 T02390083 $=
202204291552 METAR KATL 291552Z 18013G17KT 10SM FEW090 SCT250 23/09 A3015 RMK AO2 SLP204 T02280094 $=
202204291452 METAR KATL 291452Z 20008KT 10SM SCT085 SCT250 21/11 A3016 RMK AO2 SLP207 T02110111 51003 $=
202204291352 METAR KATL 291352Z 21009KT 10SM FEW190 SCT250 19/12 A3016 RMK AO2 SLP207 T01890117=
202204291252 METAR KATL 291252Z 18007KT 10SM SCT190 SCT230 SCT300 17/09 A3016 RMK AO2 SLP209 T01670094 $=
202204291152 METAR KATL 291152Z 15003KT 10SM FEW080 SCT210 BKN250 14/08 A3015 RMK AO2 SLP205 T01440078 10172 20139 53018 $=
202204291052 METAR KATL 291052Z 00000KT 10SM BKN080 BKN200 BKN250 14/08 A3013 RMK AO2 SLP198 T01390078 $=
202204290952 METAR KATL 290952Z 00000KT 10SM SCT080 SCT200 BKN250 14/07 A3011 RMK AO2 SLP190 T01390067 $=
202204290852 METAR KATL 290852Z 19004KT 10SM SCT200 BKN250 14/07 A3010 RMK AO2 SLP185 T01440067 55000 $=
202204290752 METAR KATL 290752Z 17004KT 10SM BKN200 BKN250 16/07 A3009 RMK AO2 SLP182 T01560067 $=
202204290652 METAR KATL 290652Z 17007KT 10SM SCT200 BKN250 17/06 A3009 RMK AO2 SLP184 T01670061 $=
202204290552 METAR KATL 290552Z 00000KT 10SM FEW250 17/08 A3009 RMK AO2 SLP185 T01670078 10233 20167 58005 $=
202204290452 METAR KATL 290452Z 14003KT 10SM FEW250 17/08 A3010 RMK AO2 SLP188 T01670078 402560117 $=
202204290352 METAR KATL 290352Z 14003KT 10SM FEW250 17/07 A3010 RMK AO2 SLP188 T01720072 $=
202204290252 METAR KATL 290252Z 16004KT 9SM FEW250 19/07 A3011 RMK AO2 SLP190 T01890067 51011 $=
202204290152 METAR KATL 290152Z 15004KT 9SM FEW250 20/07 A3010 RMK AO2 SLP187 T02000067 $=
202204290052 METAR KATL 290052Z 14003KT 7SM SCT250 21/07 A3009 RMK AO2 SLP183 T02110067 $=
202204282352 METAR KATL 282352Z 14005KT 7SM SCT250 23/06 A3007 RMK AO2 SLP179 T02280056 10256 20228 55003 $=
202204282252 METAR KATL 282252Z 14006KT 10SM BKN250 24/04 A3007 RMK AO2 SLP178 T02440039 $=
202204282152 METAR KATL 282152Z 17006KT 10SM BKN250 24/03 A3007 RMK AO2 SLP179 T02440033 $=
202204282052 METAR KATL 282052Z 12008KT 10SM SCT250 BKN300 25/04 A3008 RMK AO2 SLP182 T02500039 58023 $=
202204281952 METAR KATL 281952Z 18007KT 10SM SCT250 BKN300 25/03 A3011 RMK AO2 SLP191 T02500033 $=
202204281852 METAR KATL 281852Z 09008KT 10SM SCT250 24/04 A3013 RMK AO2 SLP199 T02440044 $=
202204281752 METAR KATL 281752Z 19006KT 10SM FEW250 SCT300 24/04 A3015 RMK AO2 SLP206 T02390039 10239 20139 58019=
202204281652 METAR KATL 281652Z 15007KT 10SM FEW250 SCT300 23/03 A3018 RMK AO2 SLP215 T02330033=
202204281552 METAR KATL 281552Z 11007KT 10SM FEW250 22/04 A3020 RMK AO2 SLP222 T02220039=
202204281452 METAR KATL 281452Z 11009KT 10SM FEW250 21/03 A3021 RMK AO2 SLP226 T02110028 51011 $=
202204281352 METAR KATL 281352Z 13009KT 10SM SCT250 SCT300 18/03 A3020 RMK AO2 SLP221 T01830033=
202204281252 METAR KATL 281252Z 09008KT 10SM SCT250 BKN300 16/04 A3020 RMK AO2 SLP220 T01610039=
202204281152 METAR KATL 281152Z 08008KT 10SM BKN300 14/04 A3018 RMK AO2 SLP215 T01390039 10150 20117 53015=
202204281052 METAR KATL 281052Z 08006KT 10SM FEW250 12/04 A3016 RMK AO2 SLP209 T01170039=
202204280952 METAR KATL 280952Z 07005KT 10SM FEW250 12/04 A3014 RMK AO2 SLP203 T01220044=
202204280852 METAR KATL 280852Z 08008KT 10SM FEW250 12/05 A3013 RMK AO2 SLP198 T01220050 55001=
202204280752 METAR KATL 280752Z 07005KT 10SM FEW250 13/04 A3012 RMK AO2 SLP196 T01280044 $=
202204280652 METAR KATL 280652Z 00000KT 10SM CLR 12/06 A3013 RMK AO2 SLP198 T01220061 $=
202204280552 METAR KATL 280552Z 34003KT 10SM CLR 13/06 A3013 RMK AO2 SLP199 T01330056 10217 20133 58000 $=
202204280452 METAR KATL 280452Z 00000KT 10SM CLR 15/04 A3014 RMK AO2 SLP200 T01500039 402500083 $=
202204280352 METAR KATL 280352Z 33004KT 10SM CLR 16/04 A3014 RMK AO2 SLP202 T01560039 $=
202204280252 METAR KATL 280252Z 32004KT 10SM CLR 17/04 A3014 RMK AO2 SLP201 T01670039 53013 $=
202204280152 METAR KATL 280152Z 33008KT 10SM CLR 18/04 A3012 RMK AO2 SLP196 T01830039 $=
202204280052 METAR KATL 280052Z 33011KT 10SM CLR 20/03 A3010 RMK AO2 SLP191 T02000033 $=
202204272352 METAR KATL 272352Z 31009KT 10SM CLR 22/03 A3010 RMK AO2 SLP189 T02170028 10250 20217 53001 $=
202204272252 METAR KATL 272252Z 30009KT 10SM CLR 23/03 A3009 RMK AO2 SLP186 T02330033 $=
202204272152 METAR KATL 272152Z 34007KT 10SM CLR 24/M02 A3009 RMK AO2 SLP185 T02441017 $=
202204272052 METAR KATL 272052Z 34008KT 10SM CLR 24/M01 A3009 RMK AO2 SLP187 T02441011 56023 $=
202204271952 METAR KATL 271952Z 35006KT 10SM CLR 24/00 A3011 RMK AO2 SLP192 T02390000 $=
202204271852 METAR KATL 271852Z 35004KT 10SM CLR 24/02 A3014 RMK AO2 SLP202 T02390017 $=
202204271752 METAR KATL 271752Z 03005KT 10SM CLR 23/02 A3017 RMK AO2 SLP211 T02280017 10228 20094 58014 $=
202204271652 METAR KATL 271652Z 02005KT 10SM CLR 21/01 A3019 RMK AO2 SLP218 T02110011 $=
202204271552 METAR KATL 271552Z 35006KT 10SM CLR 19/02 A3021 RMK AO2 SLP226 T01940022=
202204271452 METAR KATL 271452Z 06007KT 10SM CLR 18/02 A3021 RMK AO2 SLP226 T01780022 51008=
202204271352 METAR KATL 271352Z 04008KT 10SM CLR 16/03 A3020 RMK AO2 SLP225 T01560028 $=
202204271252 METAR KATL 271252Z 35006KT 10SM CLR 12/04 A3020 RMK AO2 SLP224 T01170039=
202204271152 METAR KATL 271152Z 34006KT 10SM CLR 09/04 A3018 RMK AO2 SLP220 70009 T00940039 10122 20083 53012=
202204271052 METAR KATL 271052Z 33007KT 10SM CLR 09/03 A3017 RMK AO2 SLP214 T00890033=
202204270952 METAR KATL 270952Z 32008KT 10SM CLR 09/04 A3016 RMK AO2 SLP211 T00940039=
202204270852 METAR KATL 270852Z 33006KT 10SM CLR 09/04 A3015 RMK AO2 SLP207 T00940039 56004=
202204270752 METAR KATL 270752Z 34008KT 10SM CLR 10/04 A3015 RMK AO2 SLP209 T01000039=
202204270652 METAR KATL 270652Z 34008KT 10SM CLR 12/04 A3015 RMK AO2 SLP208 T01170039=
202204270552 METAR KATL 270552Z 33009KT 10SM CLR 12/04 A3016 RMK AO2 SLP211 T01220039 10178 20122 58007=
202204270452 METAR KATL 270452Z 33010KT 10SM CLR 13/04 A3017 RMK AO2 SLP214 T01330039 402220133=
202204270352 METAR KATL 270352Z 33008KT 10SM CLR 14/06 A3018 RMK AO2 SLP218 T01390056=
202204270252 METAR KATL 270252Z 34009KT 10SM CLR 16/07 A3018 RMK AO2 SLP217 T01560067 53012=
202204270152 METAR KATL 270152Z 34011KT 10SM FEW200 16/09 A3017 RMK AO2 SLP211 T01610094=
202204270052 METAR KATL 270052Z 33011KT 10SM FEW150 17/10 A3015 RMK AO2 SLP206 T01670100=
202204262352 METAR KATL 262352Z 32010G21KT 10SM FEW150 18/09 A3015 RMK AO2 SLP204 T01780094 10194 20167 55003=
202204262252 METAR KATL 262252Z 33012KT 10SM SCT150 19/09 A3014 RMK AO2 SLP203 T01890094=
202204262152 METAR KATL 262152Z 30007KT 10SM FEW120 SCT150 SCT200 18/12 A3014 RMK AO2 SLP203 T01830122=
202204262052 METAR KATL 262052Z 33009KT 10SM SCT015 SCT120 BKN150 BKN200 17/13 A3016 RMK AO2 SLP207 T01720128 58007 $=
202204261952 METAR KATL 261952Z 32010G18KT 10SM OVC013 17/13 A3017 RMK AO2 SLP211 CIG 011V015 T01670133 $=
202204261852 METAR KATL 261852Z 32009KT 10SM OVC011 17/14 A3018 RMK AO2 SLP214 CIG 009V013 T01720139 $=
202204261752 METAR KATL 261752Z 31013KT 10SM OVC011 17/14 A3018 RMK AO2 SLP214 CIG 009V013 60009 T01720144 10222 20172 55006 $=
202204261652 METAR KATL 261652Z 34010KT 10SM OVC011 19/16 A3017 RMK AO2 RAE07 SLP212 CIG 009V013 BINOVC P0000 T01890161=
202204261629 SPECI KATL 261629Z 33008KT 10SM SCT007 BKN012 OVC100 19/17 A3018 RMK AO2 RAE07 P0000 T01890167=
202204261617 SPECI KATL 261617Z 34008KT 10SM SCT007 BKN095 BKN150 OVC200 19/17 A3019 RMK AO2 RAE07 SHRA SW-NW P0000 T01890167=
202204261552 METAR KATL 261552Z 33006KT 8SM -RA FEW010 BKN095 BKN140 OVC200 18/16 A3019 RMK AO2 SLP218 P0005 T01830161=
202204261452 METAR KATL 261452Z 32009G20KT 3SM +RA BR FEW012 SCT034 OVC055 18/16 A3020 RMK AO2 PK WND 29028/1424 RAB26 SLP220 P0004 60004 T01830161 53026=
202204261438 SPECI KATL 261438Z 32012KT 9SM -RA SCT013 BKN045 OVC075 19/16 A3019 RMK AO2 PK WND 29028/1424 RAB26 P0000 T01890161=
202204261419 SPECI KATL 261419Z 31015G25KT 10SM BKN013 BKN085 OVC120 21/17 A3018 RMK AO2 PRESRR CIG 011V015 CB DSNT SW NW T02060167=
202204261404 SPECI KATL 261404Z 31016G22KT 10SM BKN016 BKN085 BKN120 BKN200 22/17 A3017 RMK AO2 CIG 014V018 CB DSNT SW W-NW T02170172=
202204261352 METAR KATL 261352Z 30012KT 10SM SCT017 BKN085 BKN110 BKN200 22/17 A3015 RMK AO2 SLP202 CB DSNT SW-NW T02220172=
202204261252 METAR KATL 261252Z 31009KT 10SM FEW060 FEW250 21/16 A3013 RMK AO2 SLP194 T02060161=
202204261152 METAR KATL 261152Z 27005KT 10SM FEW060 FEW250 19/16 A3012 RMK AO2 SLP191 T01940161 10211 20183 51014=
202204261052 METAR KATL 261052Z VRB03KT 10SM FEW060 FEW250 18/16 A3011 RMK AO2 SLP187 T01830161 $=
202204260952 METAR KATL 260952Z 22005KT 10SM FEW060 FEW250 19/16 A3009 RMK AO2 SLP180 T01890161 $=
202204260852 METAR KATL 260852Z 23004KT 10SM FEW048 SCT060 SCT250 19/16 A3008 RMK AO2 SLP176 T01940156 56009 $=
202204260752 METAR KATL 260752Z 23004KT 10SM BKN050 20/16 A3008 RMK AO2 SLP178 T02000156 $=
202204260652 METAR KATL 260652Z 23004KT 10SM FEW055 SCT080 SCT250 21/16 A3009 RMK AO2 SLP180 T02110156 $=
202204260552 METAR KATL 260552Z 22003KT 10SM FEW060 SCT080 SCT250 21/16 A3011 RMK AO2 SLP186 T02110156 10267 20206 58006 $=
202204260452 METAR KATL 260452Z 00000KT 10SM FEW060 FEW250 21/16 A3012 RMK AO2 SLP190 T02060156 402890167 $=
202204260352 METAR KATL 260352Z 00000KT 10SM FEW090 22/15 A3012 RMK AO2 SLP192 T02170150 $=
202204260252 METAR KATL 260252Z 22004KT 10SM FEW090 23/14 A3013 RMK AO2 SLP192 T02280144 53008 $=
202204260152 METAR KATL 260152Z 00000KT 10SM FEW090 24/14 A3011 RMK AO2 SLP189 T02390144 $=
202204260052 METAR KATL 260052Z 00000KT 10SM FEW060 25/14 A3011 RMK AO2 SLP187 T02500139 $=
202204252352 METAR KATL 252352Z 23006KT 10SM FEW060 27/13 A3010 RMK AO2 SLP184 T02670128 10289 20267 53001 $=
202204252252 METAR KATL 252252Z 19008KT 10SM FEW060 FEW090 28/13 A3009 RMK AO2 SLP181 T02780128 $=
202204252152 METAR KATL 252152Z 20009KT 10SM SCT060 BKN090 28/12 A3010 RMK AO2 SLP183 MDT CU OHD T02830122 $=
202204252052 METAR KATL 252052Z 23009KT 10SM FEW060 SCT085 29/12 A3010 RMK AO2 SLP182 MDT CU NE T02890122 56018 $=
202204251952 METAR KATL 251952Z 22006KT 10SM FEW055 SCT080 28/13 A3011 RMK AO2 SLP186 MDT CU NE-SE T02780133 $=
202204251852 METAR KATL 251852Z 23007G15KT 10SM SCT055 BKN080 27/14 A3013 RMK AO2 SLP195 MDT CU ALQDS T02720139 $=
202204251752 METAR KATL 251752Z 22007KT 10SM SCT050 SCT080 27/14 A3015 RMK AO2 SLP201 MDT CU ALQDS T02720139 10272 20172 58012 $=
202204251652 METAR KATL 251652Z 22008KT 10SM BKN044 BKN070 27/14 A3017 RMK AO2 SLP208 MDT CU ALQDS T02670139 $=
202204251552 METAR KATL 251552Z 19008G15KT 10SM FEW038 SCT065 26/16 A3019 RMK AO2 SLP214 T02560156 $=
202204251452 METAR KATL 251452Z 20007KT 10SM FEW065 24/16 A3019 RMK AO2 SLP215 T02390161 50006 $=
202204251352 METAR KATL 251352Z 24007KT 10SM FEW060 22/16 A3019 RMK AO2 SLP216 T02170161 $=
202204251252 METAR KATL 251252Z 18008KT 10SM CLR 19/16 A3018 RMK AO2 SLP212 T01890156 $=
202204251152 METAR KATL 251152Z 19003KT 10SM CLR 17/14 A3017 RMK AO2 SLP210 T01720144 10189 20167 53012 $=
202204251052 METAR KATL 251052Z 21003KT 10SM CLR 17/14 A3015 RMK AO2 SLP201 T01670139 $=
202204250952 METAR KATL 250952Z 19004KT 10SM CLR 17/14 A3013 RMK AO2 SLP195 T01720139 $=
202204250852 METAR KATL 250852Z 00000KT 10SM CLR 17/13 A3013 RMK AO2 SLP198 T01720133 56004 $=
202204250752 METAR KATL 250752Z 20004KT 10SM CLR 18/13 A3014 RMK AO2 SLP197 T01830133 $=
202204250652 METAR KATL 250652Z 20004KT 10SM CLR 18/13 A3014 RMK AO2 SLP199 T01830133 $=
202204250552 METAR KATL 250552Z 00000KT 10SM CLR 19/13 A3015 RMK AO2 SLP202 T01890133 10250 20189 58004 $=
202204250452 METAR KATL 250452Z 17003KT 10SM CLR 19/13 A3016 RMK AO2 SLP205 T01940133 402670156 $=
202204250352 METAR KATL 250352Z 16004KT 10SM CLR 20/14 A3016 RMK AO2 SLP206 T02000139 $=
202204250252 METAR KATL 250252Z 15005KT 10SM CLR 21/13 A3016 RMK AO2 SLP206 T02110133 50007 $=
202204250152 METAR KATL 250152Z 15004KT 10SM CLR 22/13 A3016 RMK AO2 SLP208 T02170133 $=
202204250052 METAR KATL 250052Z 15005KT 10SM FEW055 FEW250 23/13 A3015 RMK AO2 SLP204 T02280128 $=
202204242352 METAR KATL 242352Z 17007KT 10SM FEW055 FEW250 25/12 A3014 RMK AO2 SLP200 T02500122 10267 20244 56004 $=
202204242252 METAR KATL 242252Z 16008KT 10SM SCT055 SCT250 26/12 A3014 RMK AO2 SLP199 T02610117 $=
202204242152 METAR KATL 242152Z 15008KT 10SM SCT055 SCT250 27/12 A3015 RMK AO2 SLP202 T02670122 $=
202204242052 METAR KATL 242052Z VRB04KT 10SM SCT050 SCT250 26/12 A3015 RMK AO2 SLP203 T02610122 57016 $=
202204241952 METAR KATL 241952Z 23005KT 10SM SCT050 SCT250 26/12 A3017 RMK AO2 SLP208 T02610122 $=
202204241852 METAR KATL 241852Z 14004KT 10SM SCT048 SCT250 26/12 A3018 RMK AO2 SLP214 T02610122 $=
202204241752 METAR KATL 241752Z VRB03KT 10SM SCT044 SCT250 24/13 A3020 RMK AO2 SLP218 T02440128 10250 20161 58016 $=
202204241652 METAR KATL 241652Z VRB04KT 10SM FEW042 BKN250 24/13 A3021 RMK AO2 SLP223 T02390128 $=
202204241552 METAR KATL 241552Z 16004KT 10SM SCT034 BKN250 23/12 A3024 RMK AO2 SLP232 T02280122 $=
202204241452 METAR KATL 241452Z 16008KT 10SM SCT026 BKN250 22/14 A3025 RMK AO2 SLP236 T02170144 58002 $=
202204241352 METAR KATL 241352Z 19007G16KT 10SM FEW022 BKN250 19/14 A3025 RMK AO2 SLP238 T01940139 $=
202204241252 METAR KATL 241252Z 17008KT 10SM FEW200 BKN250 18/14 A3026 RMK AO2 SLP240 T01830139 $=
202204241152 METAR KATL 241152Z 14004KT 10SM FEW055 FEW200 BKN250 16/13 A3025 RMK AO2 SLP238 T01610128 10194 20156 53014 $=
202204241052 METAR KATL 241052Z 12004KT 10SM FEW055 SCT250 16/13 A3023 RMK AO2 SLP229 T01560128 $=
202204240952 METAR KATL 240952Z 00000KT 10SM FEW055 SCT250 16/13 A3022 RMK AO2 SLP226 T01610128 $=
202204240852 METAR KATL 240852Z 12003KT 10SM FEW055 BKN250 17/13 A3021 RMK AO2 SLP223 T01670128 53002 $=
202204240752 METAR KATL 240752Z 15005KT 10SM FEW055 BKN250 17/13 A3020 RMK AO2 SLP219 T01720128 $=
202204240652 METAR KATL 240652Z 16007KT 10SM BKN055 BKN250 18/13 A3020 RMK AO2 SLP217 T01830128 $=
202204240552 METAR KATL 240552Z 16008G21KT 10SM FEW055 BKN250 19/13 A3021 RMK AO2 SLP220 T01940128 10244 20194 53001 $=
202204240452 METAR KATL 240452Z 15009KT 10SM FEW055 BKN250 20/13 A3020 RMK AO2 SLP220 T02000128 402720156 $=
202204240352 METAR KATL 240352Z 13004KT 10SM FEW055 SCT250 20/13 A3020 RMK AO2 SLP218 T02000133 $=
202204240252 METAR KATL 240252Z 13005KT 10SM SCT250 21/13 A3020 RMK AO2 SLP221 T02110133 53006 $=
202204240152 METAR KATL 240152Z 13004KT 10SM FEW250 22/13 A3019 RMK AO2 SLP218 T02170128=
202204240052 METAR KATL 240052Z 13004KT 10SM CLR 23/12 A3019 RMK AO2 SLP218 T02280122=
202204232352 METAR KATL 232352Z 14007KT 10SM FEW055 SCT250 24/12 A3019 RMK AO2 SLP216 T02440117 10272 20244 58010=
202204232252 METAR KATL 232252Z 14008KT 10SM SCT055 SCT250 26/12 A3020 RMK AO2 SLP220 T02610117=
202204232152 METAR KATL 232152Z 16012G20KT 10SM SCT060 SCT250 26/11 A3021 RMK AO2 SLP223 T02610111=
202204232052 METAR KATL 232052Z 15011G19KT 10SM SCT055 SCT250 26/12 A3022 RMK AO2 SLP226 T02610117 56018=
202204231952 METAR KATL 231952Z 17012G18KT 10SM SCT055 SCT250 27/12 A3023 RMK AO2 SLP230 T02670117=
202204231852 METAR KATL 231852Z 13007G20KT 10SM SCT055 SCT250 26/12 A3026 RMK AO2 SLP238 T02610117=
202204231752 METAR KATL 231752Z 14013KT 10SM FEW060 FEW250 26/11 A3027 RMK AO2 SLP243 T02610111 10261 20161 57013=
202204231652 METAR KATL 231652Z 16013G23KT 10SM FEW050 25/11 A3029 RMK AO2 SLP248 T02500111=
202204231552 METAR KATL 231552Z 15011G19KT 10SM CLR 24/11 A3030 RMK AO2 SLP252 T02390111=
202204231452 METAR KATL 231452Z 17010KT 10SM CLR 22/11 A3031 RMK AO2 SLP258 T02220106 50004=
202204231352 METAR KATL 231352Z 17005KT 10SM CLR 20/13 A3032 RMK AO2 SLP259 T02000128=
202204231252 METAR KATL 231252Z 18006KT 10SM CLR 18/12 A3031 RMK AO2 SLP257 T01830122=
202204231152 METAR KATL 231152Z 15004KT 9SM CLR 16/12 A3030 RMK AO2 SLP255 T01610117 10189 20156 53009=
202204231052 METAR KATL 231052Z 00000KT 10SM CLR 16/11 A3029 RMK AO2 SLP249 T01560111=
202204230952 METAR KATL 230952Z 00000KT 10SM CLR 16/11 A3028 RMK AO2 SLP247 T01610111=
202204230852 METAR KATL 230852Z 17004KT 10SM CLR 17/12 A3027 RMK AO2 SLP245 T01670117 55006=
202204230752 METAR KATL 230752Z 20007KT 10SM CLR 17/12 A3027 RMK AO2 SLP243 T01720117=
202204230652 METAR KATL 230652Z 18008KT 10SM CLR 18/12 A3028 RMK AO2 SLP246 T01830117=
202204230552 METAR KATL 230552Z 13003KT 10SM CLR 19/13 A3029 RMK AO2 SLP249 T01890128 10250 20189 58007=
202204230452 METAR KATL 230452Z 14004KT 10SM CLR 19/13 A3030 RMK AO2 SLP255 T01940133 402780144=
202204230352 METAR KATL 230352Z 14004KT 10SM CLR 21/13 A3032 RMK AO2 SLP259 T02060133=
202204230252 METAR KATL 230252Z 14003KT 9SM CLR 21/13 A3031 RMK AO2 SLP258 T02110128 51007=
202204230152 METAR KATL 230152Z 00000KT 10SM CLR 22/13 A3031 RMK AO2 SLP256 T02220128=
202204230052 METAR KATL 230052Z 12004KT 10SM CLR 23/13 A3030 RMK AO2 SLP256 T02330128=
202204222352 METAR KATL 222352Z 16005KT 10SM CLR 25/12 A3029 RMK AO2 SLP252 T02500117 10278 20250 56010=
202204222252 METAR KATL 222252Z 14006KT 10SM CLR 26/11 A3029 RMK AO2 SLP252 T02610106=
202204222152 METAR KATL 222152Z 17005KT 10SM CLR 27/11 A3031 RMK AO2 SLP256 T02670106=
202204222052 METAR KATL 222052Z 00000KT 10SM FEW065 27/11 A3032 RMK AO2 SLP261 T02670111 58025=
202204221952 METAR KATL 221952Z 12004KT 10SM FEW060 27/12 A3035 RMK AO2 SLP270 T02670117=
202204221852 METAR KATL 221852Z 10003KT 10SM FEW055 26/13 A3038 RMK AO2 SLP280 T02610128=
202204221752 METAR KATL 221752Z 15005KT 10SM FEW050 26/12 A3040 RMK AO2 SLP288 T02560122 10256 20156 58014=
202204221652 METAR KATL 221652Z 13004KT 10SM FEW045 24/12 A3042 RMK AO2 SLP295 T02390122=
202204221552 METAR KATL 221552Z 14005KT 10SM CLR 23/13 A3043 RMK AO2 SLP300 T02280128=
202204221452 METAR KATL 221452Z 10SM CLR 22/13 A3044 RMK AO2 SLP303 T02220133 50006=
202204221352 METAR KATL 221352Z 21004KT 10SM CLR 20/13 A3045 RMK AO2 SLP306 T02000128=
202204221252 METAR KATL 221252Z 22004KT 10SM FEW250 18/13 A3044 RMK AO2 SLP301 T01780128=
202204221152 METAR KATL 221152Z 00000KT 10SM FEW250 16/12 A3042 RMK AO2 SLP298 T01560122 10172 20144 53016=
202204221052 METAR KATL 221052Z 18003KT 10SM FEW250 15/12 A3040 RMK AO2 SLP289 T01500117=
202204220952 METAR KATL 220952Z 00000KT 10SM CLR 15/12 A3038 RMK AO2 SLP283 T01500117=
202204220852 METAR KATL 220852Z 00000KT 10SM FEW250 16/12 A3037 RMK AO2 SLP280 T01560117 56005=
202204220752 METAR KATL 220752Z 00000KT 10SM FEW250 16/12 A3038 RMK AO2 SLP280 T01610117=
202204220652 METAR KATL 220652Z 00000KT 10SM CLR 16/12 A3038 RMK AO2 SLP281 T01610117=
202204220552 METAR KATL 220552Z 00000KT 10SM FEW250 17/12 A3039 RMK AO2 SLP286 T01720117 10222 20167 58004=
202204220452 METAR KATL 220452Z 00000KT 10SM SCT250 17/12 A3039 RMK AO2 SLP288 T01670117 402440128=
202204220352 METAR KATL 220352Z 16003KT 10SM SCT250 18/12 A3040 RMK AO2 SLP288 T01830117=
202204220252 METAR KATL 220252Z 16003KT 9SM SCT250 19/12 A3040 RMK AO2 SLP290 T01890117 51011=
202204220152 METAR KATL 220152Z 17004KT 10SM FEW250 19/12 A3039 RMK AO2 SLP289 T01940117=
202204220052 METAR KATL 220052Z 16004KT 10SM SCT250 21/12 A3038 RMK AO2 SLP285 T02060117=
202204212352 METAR KATL 212352Z 16005KT 10SM SCT250 22/11 A3037 RMK AO2 SLP280 T02220111 10244 20217 53006=
202204212252 METAR KATL 212252Z 18006KT 10SM FEW250 23/11 A3036 RMK AO2 SLP276 T02330111=
202204212152 METAR KATL 212152Z 19005KT 10SM FEW120 FEW250 24/11 A3035 RMK AO2 SLP274 T02390111=
202204212052 METAR KATL 212052Z 18008KT 10SM FEW055 FEW120 FEW250 24/11 A3035 RMK AO2 SLP273 T02390111 56023=
202204211952 METAR KATL 211952Z 17008KT 10SM FEW048 FEW120 SCT200 SCT250 23/11 A3037 RMK AO2 SLP279 T02330106=
202204211852 METAR KATL 211852Z 16008KT 9SM SCT044 SCT120 SCT200 BKN250 23/12 A3040 RMK AO2 SLP288 T02280117=
202204211752 METAR KATL 211752Z 18008KT 8SM SCT038 BKN050 BKN120 BKN200 22/12 A3042 RMK AO2 SLP297 T02170122 10222 20128 58007=
202204211652 METAR KATL 211652Z 17005KT 10SM SCT034 BKN046 BKN120 BKN200 21/12 A3045 RMK AO2 SLP306 T02110122=
202204211552 METAR KATL 211552Z 19007KT 10SM BKN030 BKN120 BKN180 BKN250 20/12 A3045 RMK AO2 SLP306 T02000122=
202204211452 METAR KATL 211452Z 13006KT 10SM FEW020 BKN180 BKN250 18/12 A3044 RMK AO2 SLP305 T01830122 51015=
202204211352 METAR KATL 211352Z 12005KT 10SM FEW018 SCT150 BKN200 BKN250 16/11 A3043 RMK AO2 SLP301 T01560111=
202204211252 METAR KATL 211252Z 14007KT 10SM FEW014 SCT150 BKN180 BKN250 14/11 A3041 RMK AO2 SLP296 T01440106=
202204211152 METAR KATL 211152Z 12007KT 9SM FEW015 SCT180 BKN250 13/10 A3040 RMK AO2 SLP290 T01280100 10161 20128 51010=
202204211052 METAR KATL 211052Z 11009KT 10SM FEW050 SCT180 BKN250 13/10 A3038 RMK AO2 SLP284 T01280100=
202204210952 METAR KATL 210952Z 12006KT 10SM SCT048 SCT180 BKN250 13/10 A3038 RMK AO2 SLP285 T01330100=
202204210852 METAR KATL 210852Z 12005KT 10SM SCT180 BKN250 14/11 A3037 RMK AO2 SLP279 T01390106 51008 $=
202204210752 METAR KATL 210752Z 13005KT 10SM BKN170 BKN210 BKN250 15/11 A3036 RMK AO2 SLP277 T01500106 $=
202204210652 METAR KATL 210652Z 15008KT 10SM BKN170 BKN250 16/11 A3035 RMK AO2 SLP273 T01560106 $=
202204210552 METAR KATL 210552Z 14009KT 10SM BKN170 BKN210 16/10 A3034 RMK AO2 SLP271 T01560100 10200 20156 53009 $=
202204210452 METAR KATL 210452Z 14008KT 10SM BKN200 16/08 A3032 RMK AO2 SLP265 T01610083 402220072 $=
202204210352 METAR KATL 210352Z 12007KT 10SM BKN200 17/07 A3032 RMK AO2 SLP263 T01670067 $=
202204210252 METAR KATL 210252Z 11007KT 10SM SCT200 17/05 A3031 RMK AO2 SLP262 T01720050 53016 $=
202204210152 METAR KATL 210152Z 12006KT 10SM FEW180 SCT250 18/05 A3029 RMK AO2 SLP256 T01780050 $=
202204210052 METAR KATL 210052Z 13006KT 10SM BKN180 BKN250 19/04 A3028 RMK AO2 SLP252 T01890039 $=
202204202352 METAR KATL 202352Z 13010KT 10SM BKN200 BKN250 20/04 A3026 RMK AO2 SLP248 T02000039 10222 20200 58001 $=
202204202252 METAR KATL 202252Z 14007KT 10SM BKN200 BKN250 21/03 A3027 RMK AO2 SLP248 T02060033 $=
202204202152 METAR KATL 202152Z 15008G18KT 10SM BKN200 OVC250 21/02 A3027 RMK AO2 SLP249 T02110022 $=
202204202052 METAR KATL 202052Z 14010G19KT 10SM BKN200 BKN250 22/02 A3027 RMK AO2 SLP248 T02170017 57018=
202204201952 METAR KATL 201952Z 12011G20KT 10SM BKN200 BKN250 22/01 A3028 RMK AO2 SLP251 T02170011=
202204201852 METAR KATL 201852Z 12009G19KT 10SM SCT200 SCT250 21/02 A3031 RMK AO2 SLP262 T02110017=
202204201752 METAR KATL 201752Z 14011KT 10SM FEW200 SCT250 20/02 A3032 RMK AO2 SLP267 T02000017 10206 20078 58008=
202204201652 METAR KATL 201652Z 12010KT 10SM SCT250 19/01 A3035 RMK AO2 SLP274 T01890011=
202204201552 METAR KATL 201552Z 12012G18KT 10SM SCT250 18/01 A3035 RMK AO2 SLP276 T01780011=
202204201452 METAR KATL 201452Z 11009G15KT 10SM SCT250 16/02 A3035 RMK AO2 SLP276 T01560017 51009 $=
202204201352 METAR KATL 201352Z 10008KT 10SM BKN250 12/02 A3034 RMK AO2 SLP274 T01220022=
202204201252 METAR KATL 201252Z 09012KT 10SM SCT250 10/02 A3034 RMK AO2 SLP275 T01000017=
202204201152 METAR KATL 201152Z 08009KT 10SM SCT250 08/01 A3032 RMK AO2 SLP269 T00780011 10111 20072 53017=
202204201052 METAR KATL 201052Z 06006KT 10SM FEW250 09/M01 A3030 RMK AO2 SLP261 T00891011=
202204200952 METAR KATL 200952Z 04007KT 10SM CLR 09/M02 A3028 RMK AO2 SLP253 T00941017=
202204200852 METAR KATL 200852Z 05004KT 10SM CLR 09/M01 A3027 RMK AO2 SLP250 T00941011 53008=
202204200752 METAR KATL 200752Z 04006KT 10SM FEW250 10/M01 A3027 RMK AO2 SLP248 T01001006=
202204200652 METAR KATL 200652Z 00000KT 10SM FEW250 10/00 A3024 RMK AO2 SLP242 T01000000=
202204200552 METAR KATL 200552Z 36004KT 10SM FEW250 11/M01 A3025 RMK AO2 SLP242 T01061006 10156 20100 53009=
202204200452 METAR KATL 200452Z 30004KT 10SM FEW250 10/01 A3024 RMK AO2 SLP240 T01000006 401780056=
202204200352 METAR KATL 200352Z 00000KT 10SM CLR 11/01 A3022 RMK AO2 SLP235 T01110011=
202204200252 METAR KATL 200252Z 01006KT 10SM CLR 13/M03 A3022 RMK AO2 SLP233 T01331033 53012=
202204200152 METAR KATL 200152Z 34005KT 10SM CLR 14/M03 A3020 RMK AO2 SLP228 T01391028=
202204200052 METAR KATL 200052Z 33005KT 10SM CLR 14/M03 A3018 RMK AO2 SLP222 T01441028=
202204192352 METAR KATL 192352Z 32008KT 10SM CLR 16/M03 A3018 RMK AO2 SLP222 T01561033 10178 20150 55002=
202204192252 METAR KATL 192252Z 31009KT 10SM FEW250 17/M03 A3018 RMK AO2 SLP221 T01671033=
202204192152 METAR KATL 192152Z 35007KT 10SM FEW250 17/M03 A3018 RMK AO2 SLP220 T01721033=
202204192052 METAR KATL 192052Z 32010G22KT 10SM FEW250 17/M03 A3019 RMK AO2 SLP223 T01721028 58008=
202204191952 METAR KATL 191952Z 31014G22KT 10SM CLR 17/M04 A3020 RMK AO2 SLP225 T01721039=
202204191852 METAR KATL 191852Z 33009G17KT 10SM CLR 16/M03 A3021 RMK AO2 SLP229 T01561033 $=
202204191752 METAR KATL 191752Z 33009KT 10SM CLR 15/M04 A3021 RMK AO2 SLP231 T01501039 10150 20067 58006 $=
202204191652 METAR KATL 191652Z 32008KT 10SM CLR 13/M05 A3023 RMK AO2 SLP236 T01331050=
202204191552 METAR KATL 191552Z 33011G21KT 10SM CLR 12/M05 A3023 RMK AO2 SLP237 T01221050=
202204191452 METAR KATL 191452Z 36011G23KT 10SM FEW250 11/M05 A3023 RMK AO2 SLP238 T01061050 51016=
202204191352 METAR KATL 191352Z 35013G24KT 10SM FEW250 09/M04 A3022 RMK AO2 PK WND 34027/1256 SLP234 T00941044=
202204191252 METAR KATL 191252Z 35018G26KT 10SM CLR 08/M03 A3020 RMK AO2 PK WND 35026/1252 SLP229 T00831033=
202204191152 METAR KATL 191152Z 32010KT 10SM CLR 07/01 A3018 RMK AO2 SLP222 T00670006 10089 20056 53018=
202204191052 METAR KATL 191052Z 31008KT 10SM CLR 06/01 A3016 RMK AO2 SLP214 T00610011=
202204190952 METAR KATL 190952Z 32009KT 10SM CLR 06/01 A3014 RMK AO2 SLP207 T00610011=
202204190852 METAR KATL 190852Z 30008KT 10SM CLR 07/01 A3013 RMK AO2 SLP203 T00670011 53004=
202204190752 METAR KATL 190752Z 32012KT 10SM CLR 08/01 A3012 RMK AO2 SLP197 T00780011=
202204190652 METAR KATL 190652Z 33013G23KT 10SM CLR 08/01 A3012 RMK AO2 PK WND 35029/0607 SLP197 T00830011=
202204190552 METAR KATL 190552Z 34016G23KT 10SM CLR 09/02 A3012 RMK AO2 SLP196 T00890017 10144 20089 51003=
202204190452 METAR KATL 190452Z 33013G23KT 10SM CLR 09/04 A3012 RMK AO2 SLP196 T00940039 402280094=
202204190352 METAR KATL 190352Z 33011KT 10SM CLR 10/04 A3011 RMK AO2 SLP194 T01000039=
202204190252 METAR KATL 190252Z 32011KT 10SM CLR 11/04 A3011 RMK AO2 SLP193 T01110039 51022=
202204190152 METAR KATL 190152Z 33017G26KT 10SM CLR 12/03 A3009 RMK AO2 PK WND 33028/0131 SLP188 T01170033=
202204190052 METAR KATL 190052Z 32012KT 10SM CLR 13/04 A3007 RMK AO2 SLP181 T01280044=
202204182352 METAR KATL 182352Z 32013G22KT 10SM CLR 14/06 A3004 RMK AO2 PK WND 33029/2253 SLP169 T01440056 10228 20144 51015=
202204182252 METAR KATL 182252Z 33018G30KT 10SM FEW035 16/07 A3003 RMK AO2 PK WND 32030/2248 SLP164 T01610067=
202204182152 METAR KATL 182152Z 31017G28KT 10SM SCT032 17/08 A3001 RMK AO2 PK WND 29030/2105 SLP160 T01670078=
202204182052 METAR KATL 182052Z 32020G28KT 10SM BKN031 OVC042 17/10 A3000 RMK AO2 PK WND 29029/2011 SLP153 BINOVC T01720100 53013=
202204181952 METAR KATL 181952Z 30018G26KT 10SM SCT032 BKN042 21/12 A2997 RMK AO2 PK WND 32026/1948 SLP142 T02060122=
202204181852 METAR KATL 181852Z 30018G24KT 10SM SCT038 BKN055 22/13 A2997 RMK AO2 SLP141 T02170128=
202204181752 METAR KATL 181752Z 30011G24KT 10SM FEW028 SCT038 BKN055 22/14 A2996 RMK AO2 SLP138 60000 T02220144 10222 20178 58005=
202204181652 METAR KATL 181652Z 30011KT 10SM SCT024 BKN055 OVC070 21/15 A2998 RMK AO2 SLP145 MDT CU ALQDS BINOVC T02060150=
202204181552 METAR KATL 181552Z 33014G22KT 10SM SCT024 BKN034 OVC055 21/15 A2997 RMK AO2 SLP144 BINOVC T02060150=
202204181548 SPECI KATL 181548Z 33016KT 10SM SCT026 BKN036 OVC060 21/16 A2997 RMK AO2 BINOVC=
202204181452 METAR KATL 181452Z 31008KT 10SM SCT016 BKN026 OVC055 19/16 A2996 RMK AO2 RAB22E40 SLP139 MDT CU SE-SW BINOVC P0000 60000 T01940161 51013=
202204181433 SPECI KATL 181433Z 32011G14KT 7SM -RA SCT010 BKN016 OVC034 19/16 A2995 RMK AO2 RAB22 FROPA P0000 T01890161=
202204181352 METAR KATL 181352Z 27007KT 10SM BKN011 BKN022 OVC048 19/16 A2995 RMK AO2 SLP136 CIG 009V013 T01890161=
202204181307 SPECI KATL 181307Z 26007KT 10SM BKN008 BKN021 OVC035 18/16 A2994 RMK AO2 CIG 007V010 T01830156=
202204181300 SPECI KATL 181300Z 26007KT 10SM SCT009 BKN021 OVC035 18/16 A2994 RMK AO2 T01830161=
202204181252 METAR KATL 181252Z 26006KT 10SM SCT009 OVC038 18/16 A2993 RMK AO2 SLP130 BINOVC T01830161=
202204181210 SPECI KATL 181210Z 25006KT 10SM FEW009 SCT023 OVC035 18/16 A2992 RMK AO2 T01780156=
202204181152 METAR KATL 181152Z 24005KT 10SM BKN009 BKN025 OVC035 18/16 A2992 RMK AO2 SLP125 BKN009 V SCT 60001 70001 T01780156 10183 20178 53015=
202204181134 SPECI KATL 181134Z 23005KT 10SM SCT009 SCT025 OVC033 18/16 A2991 RMK AO2 BINOVC T01780156=
202204181052 METAR KATL 181052Z 23006KT 10SM SCT009 BKN025 OVC033 18/16 A2990 RMK AO2 SLP117 BKN025 V SCT BINOVC T01780156=
202204181020 SPECI KATL 181020Z 25006KT 10SM SCT009 SCT013 BKN025 18/16 A2989 RMK AO2 T01780156=
202204180952 METAR KATL 180952Z 24008KT 10SM BKN007 BKN013 BKN038 18/16 A2988 RMK AO2 SLP110 BKN007 V SCT T01780161=
202204180852 METAR KATL 180852Z 23005KT 10SM OVC007 18/16 A2987 RMK AO2 SLP109 CIG 006V009 60001 T01780161 55009 $=
202204180752 METAR KATL 180752Z 21005KT 10SM OVC005 18/17 A2986 RMK AO2 SLP106 CIG 004V008 T01780167 $=
202204180722 SPECI KATL 180722Z 17008KT 10SM BKN006 BKN120 BKN150 OVC200 18/17 A2985 RMK AO2 T01780167 $=
202204180652 METAR KATL 180652Z 18006KT 10SM FEW006 SCT047 BKN110 BKN150 OVC200 18/17 A2986 RMK AO2 RAE23 SLP106 P0001 T01780167 $=
202204180552 METAR KATL 180552Z 21005KT 10SM -RA FEW047 BKN090 BKN110 OVC200 18/17 A2990 RMK AO2 RAB18 PRESFR SLP119 P0000 60000 T01830167 10217 20183 58015 $=
202204180452 METAR KATL 180452Z 22005KT 10SM FEW035 BKN046 BKN085 OVC200 19/17 A2995 RMK AO2 SLP134 SHRA DSNT SW-NW T01890167 402280156 $=
202204180352 METAR KATL 180352Z 18005KT 10SM FEW040 SCT080 BKN190 OVC250 19/16 A2994 RMK AO2 SLP133 T01890161 $=
202204180252 METAR KATL 180252Z 17004KT 10SM SCT042 SCT090 BKN200 BKN250 19/15 A2995 RMK AO2 SLP134 T01890150 53001 $=
202204180152 METAR KATL 180152Z 13003KT 10SM FEW040 SCT090 SCT200 SCT250 19/16 A2994 RMK AO2 SLP134 T01940156 $=
202204180052 METAR KATL 180052Z 09005KT 10SM FEW040 SCT090 SCT170 SCT250 21/15 A2993 RMK AO2 SLP131 T02060150 $=
202204172352 METAR KATL 172352Z 12003KT 10SM FEW050 SCT090 SCT170 BKN250 22/15 A2994 RMK AO2 SLP134 CB DSNT SW 60000 T02170150 10228 20217 56005 $=
202204172252 METAR KATL 172252Z 15004KT 10SM FEW035 BKN090 BKN150 BKN250 22/15 A2995 RMK AO2 SLP137 T02220150 $=
202204172152 METAR KATL 172152Z 12004KT 10SM FEW030 SCT095 SCT110 BKN200 BKN250 23/15 A2994 RMK AO2 SLP132 T02280150 $=
202204172052 METAR KATL 172052Z 13003KT 10SM FEW033 SCT110 BKN160 BKN250 22/15 A2996 RMK AO2 RAE36 SLP138 CB DSNT SE P0000 60000 T02220150 56025 $=
202204171952 METAR KATL 171952Z 00000KT 10SM -RA FEW042 BKN110 BKN180 BKN250 22/14 A2999 RMK AO2 RAB49 SLP148 CB DSNT SE-S P0000 T02220144 $=
202204171852 METAR KATL 171852Z VRB05KT 10SM FEW034 FEW100 BKN140 OVC200 22/14 A3000 RMK AO2 SLP153 VIRGA SW-W TCU DSNT SE-S T02220139 $=
202204171752 METAR KATL 171752Z 28007KT 10SM FEW032 SCT100 OVC200 23/14 A3003 RMK AO2 SLP164 MDT CU DSNT SE-S T02280144 10228 20156 58004 $=
202204171652 METAR KATL 171652Z 30009KT 10SM FEW026 FEW140 BKN210 22/14 A3005 RMK AO2 SLP168 MDT CU DSNT E AND S T02170144 $=
202204171552 METAR KATL 171552Z 31004KT 10SM FEW020 FEW150 BKN220 21/16 A3005 RMK AO2 SLP170 MDT CU DSNT S T02060156 $=
202204171452 METAR KATL 171452Z 32005KT 7SM FEW008 FEW150 BKN250 19/16 A3004 RMK AO2 SLP168 T01940156 51007 $=
202204171427 SPECI KATL 171427Z 32005KT 5SM BR SCT004 BKN170 BKN250 17/15 A3004 RMK AO2 T01670150 $=
202204171352 METAR KATL 171352Z 30005KT 2SM BR BKN003 BKN130 16/15 A3004 RMK AO2 SLP169 BKN003 V SCT T01610150 $=
202204171258 SPECI KATL 171258Z 32005KT 1/4SM R09R/3500VP6000FT BR OVC002 16/15 A3004 RMK AO2 SFC VIS 3/4 BINOVC T01560150 $=
202204171252 METAR KATL 171252Z 30004KT 1/4SM R09R/1400V2200FT BR OVC002 16/15 A3004 RMK AO2 SFC VIS 3/4 SLP167 BINOVC TWRINC T01560150 $=
202204171213 SPECI KATL 171213Z 32003KT 1/4SM R09R/1400V2200FT FG VV002 16/15 A3003 RMK AO2 T01560150 $=
202204171152 METAR KATL 171152Z 32003KT 1/4SM R09R/1000V2200FT FG VV001 16/15 A3002 RMK AO2 SLP162 70007 T01560150 10183 20156 53006 $=
202204171139 SPECI KATL 171139Z 33005KT 1/4SM R09R/1000V1800FT FG VV001 16/15 A3002 RMK AO2 T01560150 $=
202204171124 SPECI KATL 171124Z 32006KT 1/4SM R09R/1000V2400FT FG VV001 16/15 A3002 RMK AO2 T01560150 $=
202204171120 SPECI KATL 171120Z 31006KT 1/4SM R09R/1000V1200FT FG VV001 16/15 A3002 RMK AO2 T01560150 $=
202204171052 METAR KATL 171052Z 30006KT 1/4SM R09R/1200V1600FT FG VV002 16/15 A3001 RMK AO2 SLP157 T01560150 $=
202204171050 SPECI KATL 171050Z 31006KT 1/4SM R09R/1200V1800FT FG VV002 16/15 A3001 RMK AO2 $=
202204171008 SPECI KATL 171008Z 31005KT 1/2SM R09R/5500VP6000FT BR BKN003 BKN055 16/15 A3001 RMK AO2 SFC VIS 1 1/2 CIG 002V004 T01560150 $=
202204170952 METAR KATL 170952Z 31005KT 4SM BR BKN003 BKN055 16/15 A3001 RMK AO2 SLP156 BKN003 V SCT T01560150 $=
202204170852 METAR KATL 170852Z 00000KT 8SM FEW004 SCT055 16/15 A3000 RMK AO2 SLP155 T01610150 55007 $=
202204170752 METAR KATL 170752Z 00000KT 10SM CLR 17/16 A3000 RMK AO2 SLP152 T01720156 $=
202204170652 METAR KATL 170652Z 28003KT 10SM CLR 17/16 A3001 RMK AO2 SLP156 T01720161 $=
202204170552 METAR KATL 170552Z 30003KT 10SM FEW055 18/17 A3003 RMK AO2 SLP161 T01830167 10206 20183 58002 $=
202204170452 METAR KATL 170452Z 32003KT 10SM FEW016 BKN038 BKN055 19/17 A3004 RMK AO2 SLP167 T01890167 402280150 $=
202204170442 SPECI KATL 170442Z 29003KT 10SM SCT016 BKN038 BKN055 19/17 A3004 RMK AO2 T01890167 $=
202204170352 METAR KATL 170352Z 00000KT 10SM BKN019 BKN024 BKN120 19/17 A3004 RMK AO2 SLP167 T01890167 $=
202204170332 SPECI KATL 170332Z 00000KT 10SM BKN017 BKN055 BKN120 18/17 A3004 RMK AO2 T01830167 $=
202204170252 METAR KATL 170252Z 00000KT 10SM SCT015 SCT055 BKN120 BKN250 19/17 A3003 RMK AO2 SLP165 T01890167 53004 $=
202204170152 METAR KATL 170152Z 13004KT 10SM FEW020 SCT120 BKN140 OVC200 19/17 A3001 RMK AO2 SLP158 T01940167 $=
202204170052 METAR KATL 170052Z 31003KT 10SM FEW030 SCT055 BKN150 OVC200 20/17 A3002 RMK AO2 SLP162 T02000167 $=
202204170039 SPECI KATL 170039Z 34003KT 10SM FEW015 SCT045 SCT055 BKN150 BKN200 21/17 A3002 RMK AO2 FU FEW015 FU PLUME NW T02060167 $=
202204170009 SPECI KATL 170009Z 00000KT 10SM BKN023 BKN028 BKN036 BKN160 OVC200 21/17 A3003 RMK AO2 T02060167 $=
202204162352 METAR KATL 162352Z 10003KT 10SM SCT023 BKN030 BKN160 OVC200 21/17 A3002 RMK AO2 SLP161 T02060167 10228 20206 55000 $=
202204162252 METAR KATL 162252Z 36005KT 10SM SCT030 BKN160 OVC200 21/17 A3001 RMK AO2 SLP158 T02110167 $=
202204162152 METAR KATL 162152Z 00000KT 10SM FEW015 FEW035 BKN170 OVC200 21/17 A3001 RMK AO2 SLP158 VIRGA OHD-E-SW T02110167 $=
202204162052 METAR KATL 162052Z 05006KT 10SM FEW036 BKN170 OVC230 22/17 A3002 RMK AO2 SLP159 T02170167 58003 $=
202204161952 METAR KATL 161952Z 28004KT 10SM SCT026 BKN035 OVC180 23/16 A3003 RMK AO2 SLP163 T02280161 $=
202204161922 SPECI KATL 161922Z 25006KT 10SM SCT025 BKN033 OVC200 23/16 A3003 RMK AO2 T02280161 $=
202204161852 METAR KATL 161852Z 28006KT 10SM BKN026 BKN200 23/16 A3002 RMK AO2 SLP161 T02280161 $=
202204161752 METAR KATL 161752Z 29005KT 10SM BKN023 OVC200 22/16 A3003 RMK AO2 SLP163 60007 T02220161 10222 20150 58009 $=
202204161652 METAR KATL 161652Z 25008KT 10SM BKN021 OVC200 21/16 A3007 RMK AO2 SLP175 T02110161 $=
202204161622 SPECI KATL 161622Z VRB05KT 10SM OVC016 21/16 A3006 RMK AO2 BINOVC T02060161 $=
202204161552 METAR KATL 161552Z 22005KT 10SM BKN014 OVC200 19/16 A3006 RMK AO2 SLP175 T01940156 $=
202204161452 METAR KATL 161452Z 21011G14KT 10SM BKN011 BKN110 BKN250 19/16 A3006 RMK AO2 SLP173 60007 T01890156 56015 $=
202204161423 SPECI KATL 161423Z 16006KT 10SM SCT009 BKN110 BKN250 18/16 A3006 RMK AO2 T01780161 $=
202204161352 METAR KATL 161352Z 10005KT 9SM BKN006 BKN100 BKN200 17/15 A3007 RMK AO2 RAE14 SLP178 BKN006 V SCT P0000 T01670150=
202204161309 SPECI KATL 161309Z 13005KT 6SM -RA BR BKN005 BKN015 OVC090 16/14 A3007 RMK AO2 P0000 T01560144=
202204161301 SPECI KATL 161301Z 17007KT 7SM -RA SCT004 SCT015 OVC090 16/14 A3007 RMK AO2 P0000 T01560144=
202204161252 METAR KATL 161252Z 16008KT 7SM -RA SCT004 BKN016 OVC100 15/14 A3007 RMK AO2 SLP178 BKN016 V SCT P0007 T01500139=
202204161244 SPECI KATL 161244Z 17007KT 7SM -RA SCT005 BKN016 OVC090 15/14 A3008 RMK AO2 PRESFR P0007 T01500139=
202204161152 METAR KATL 161152Z 05004KT 3SM RA BR BKN005 BKN019CB OVC041 15/14 A3010 RMK AO2 SLP189 CIG 004V007 CB OHD-ALQDS MOV E P0061 60098 70098 T01500139 10178 20150 51020=
202204161134 SPECI KATL 161134Z 35005KT 3SM +RA BR BKN005 BKN016CB OVC024 15/14 A3011 RMK AO2 CB OHD-ALQDS MOV E P0051 T01500139=
202204161113 SPECI KATL 161113Z 36009KT 1 3/4SM +RA BR BKN005 OVC009CB 15/14 A3011 RMK AO2 LTG DSNT NE CIG 003V007 CB OHD-ALQDS MOV E P0028 T01500139=
202204161104 SPECI KATL 161104Z 36011KT 2SM +RA BR SCT003 OVC007CB 16/14 A3010 RMK AO2 LTG DSNT NE PRESRR CB OHD-ALQDS MOV E P0012 T01560144=
202204161052 METAR KATL 161052Z 04006KT 3SM +RA BR FEW003 OVC006CB 16/14 A3008 RMK AO2 PRESRR SLP181 CIG 005V009 CB OHD-ALQDS MOV E P0030 T01560144=
202204161046 SPECI KATL 161046Z 00000KT 4SM RA BR BKN006 OVC012CB 16/14 A3008 RMK AO2 LTG DSNT SE CIG 005V008 CB OHD-ALQDS MOV E P0026=
202204161014 SPECI KATL 161014Z 00000KT 4SM RA BR BKN013 OVC018CB 16/14 A3006 RMK AO2 LTG DSNT W-NE CB OHD-ALQDS MOV E P0009 T01610144=
202204160952 METAR KATL 160952Z 14003KT 7SM RA BKN015 BKN022CB OVC040 16/14 A3004 RMK AO2 LTG DSNT ALQDS SLP167 CB OHD-ALQDS MOV E P0007 T01610144=
202204160942 SPECI KATL 160942Z 11003KT 7SM -RA BKN017 BKN048 OVC060 16/14 A3003 RMK AO2 LTG DSNT W AND NW CB DSNT W-N P0004 T01610144=
202204160852 METAR KATL 160852Z 17006KT 10SM -RA FEW012 BKN060 OVC100 17/13 A3002 RMK AO2 LTG DSNT N AND NE RAB32 SLP158 CB DSNT NW-NE P0000 60000 T01670133 58007=
202204160752 METAR KATL 160752Z 18009G18KT 10SM FEW100 SCT150 OVC180 17/12 A3002 RMK AO2 SLP160 VIRGA OHD-ALQDS T01670122=
202204160652 METAR KATL 160652Z 16006KT 10SM FEW100 SCT150 SCT220 OVC250 17/11 A3004 RMK AO2 SLP165 T01670111=
202204160552 METAR KATL 160552Z 15009KT 10SM FEW150 SCT200 OVC250 17/10 A3004 RMK AO2 SLP166 T01670100 10228 20167 58022=
202204160452 METAR KATL 160452Z 15010KT 10SM FEW150 BKN200 17/08 A3007 RMK AO2 SLP177 T01720078 402500089=
202204160352 METAR KATL 160352Z 14006KT 10SM BKN200 18/06 A3009 RMK AO2 SLP184 T01780056=
202204160252 METAR KATL 160252Z 14005KT 10SM FEW250 18/06 A3010 RMK AO2 SLP189 T01780056 51009=
202204160152 METAR KATL 160152Z 14003KT 10SM FEW250 19/06 A3010 RMK AO2 SLP189 T01890056=
202204160052 METAR KATL 160052Z 13004KT 10SM SCT250 21/03 A3009 RMK AO2 SLP184 T02110033=
202204152352 METAR KATL 152352Z 14005KT 10SM FEW200 BKN250 23/03 A3008 RMK AO2 SLP181 T02280028 10250 20222 55006=
202204152252 METAR KATL 152252Z 15008KT 10SM FEW200 SCT250 24/02 A3007 RMK AO2 SLP180 T02440017=
202204152152 METAR KATL 152152Z 14007KT 10SM BKN250 25/01 A3008 RMK AO2 SLP182 T02500006=
202204152052 METAR KATL 152052Z 15008G16KT 10SM BKN250 25/01 A3010 RMK AO2 SLP186 T02500006 58025=
202204151952 METAR KATL 151952Z 13007G17KT 10SM SCT250 24/00 A3012 RMK AO2 SLP196 T02440000=
202204151852 METAR KATL 151852Z 13009G17KT 10SM SCT250 23/00 A3015 RMK AO2 SLP204 T02330000=
202204151752 METAR KATL 151752Z 15010KT 10SM FEW250 23/01 A3017 RMK AO2 SLP212 T02280011 10233 20122 58016=
202204151652 METAR KATL 151652Z 10008G15KT 10SM FEW250 22/01 A3020 RMK AO2 SLP224 T02220011=
202204151552 METAR KATL 151552Z 10012G23KT 10SM FEW250 21/02 A3022 RMK AO2 SLP228 T02110017=
202204151452 METAR KATL 151452Z 09014G21KT 10SM FEW250 19/02 A3022 RMK AO2 SLP229 T01890017 51008=
202204151352 METAR KATL 151352Z 08015KT 10SM FEW250 17/02 A3021 RMK AO2 SLP227 T01720017=
202204151252 METAR KATL 151252Z 08011G18KT 10SM FEW250 14/02 A3021 RMK AO2 SLP228 T01440017=
202204151152 METAR KATL 151152Z 05006KT 10SM FEW250 12/01 A3019 RMK AO2 SLP222 T01220006 10133 20089 53023=
202204151052 METAR KATL 151052Z 03003KT 10SM SCT250 11/01 A3017 RMK AO2 SLP212 T01060011=
202204150952 METAR KATL 150952Z 00000KT 10SM BKN250 10/02 A3015 RMK AO2 SLP204 T01000017=
202204150852 METAR KATL 150852Z 36003KT 10SM SCT250 12/01 A3013 RMK AO2 SLP196 T01220006 53003=
202204150752 METAR KATL 150752Z 02005KT 10SM FEW250 10/03 A3012 RMK AO2 SLP194 T01000028=
202204150652 METAR KATL 150652Z 36004KT 10SM SCT250 13/01 A3011 RMK AO2 SLP193 T01280011=
202204150552 METAR KATL 150552Z 34008KT 10SM SCT250 13/02 A3012 RMK AO2 SLP193 T01330017 10206 20133 50003=
202204150452 METAR KATL 150452Z 32007KT 10SM FEW200 13/02 A3012 RMK AO2 SLP197 T01330022 402500133=
202204150352 METAR KATL 150352Z 33007KT 10SM CLR 15/02 A3011 RMK AO2 SLP193 T01500022=
202204150252 METAR KATL 150252Z 32006KT 10SM FEW250 16/04 A3011 RMK AO2 SLP191 T01610039 53028=
202204150152 METAR KATL 150152Z 34007KT 10SM FEW250 18/03 A3007 RMK AO2 SLP180 T01780033=
202204150052 METAR KATL 150052Z 34008KT 10SM BKN250 19/02 A3005 RMK AO2 SLP169 T01890017=
202204142352 METAR KATL 142352Z 33010KT 10SM SCT250 21/02 A3002 RMK AO2 SLP161 T02060022 10250 20206 51010=
202204142252 METAR KATL 142252Z 33013KT 10SM FEW200 SCT250 23/01 A3002 RMK AO2 SLP158 T02280006=
202204142152 METAR KATL 142152Z 34013G20KT 10SM FEW200 SCT250 24/06 A3000 RMK AO2 SLP152 T02390061=
202204142052 METAR KATL 142052Z 33012G22KT 10SM FEW065 SCT200 SCT250 24/08 A2999 RMK AO2 PK WND 34030/2040 SLP149 T02440083 56008=
202204141952 METAR KATL 141952Z 32014G17KT 10SM FEW055 SCT200 SCT250 24/11 A3000 RMK AO2 SLP150 T02440111=
202204141852 METAR KATL 141852Z 33009G19KT 10SM FEW046 SCT200 SCT250 23/12 A3001 RMK AO2 SLP156 T02330122=
202204141752 METAR KATL 141752Z 30008G19KT 10SM FEW030 FEW055 SCT200 SCT250 23/14 A3002 RMK AO2 SLP157 T02280144 10233 20172 50003=
202204141652 METAR KATL 141652Z 33014G21KT 10SM SCT024 BKN034 BKN050 BKN250 22/15 A3002 RMK AO2 WSHFT 1638 SLP159 FROPA NE-E SW T02170150=
202204141552 METAR KATL 141552Z 27013G19KT 10SM BKN017 OVC027 21/16 A3002 RMK AO2 SLP160 CIG 015V019 MDT CU SW-NW T02060161=
202204141452 METAR KATL 141452Z 27009KT 10SM OVC015 19/16 A3001 RMK AO2 SLP154 CIG 013V017 T01890156 51019 $=
202204141448 SPECI KATL 141448Z 28010KT 10SM OVC015 18/16 A3001 RMK AO2 CIG 013V017 $=
202204141352 METAR KATL 141352Z 27008KT 10SM OVC013 18/16 A2999 RMK AO2 SLP148 CIG 011V015 T01780156 $=
202204141316 SPECI KATL 141316Z 27009KT 10SM BKN013 BKN075 BKN200 BKN250 18/15 A2998 RMK AO2 T01780150 $=
202204141252 METAR KATL 141252Z 27006KT 10SM FEW012 FEW070 BKN200 BKN250 18/16 A2997 RMK AO2 SLP143 VIRGA NE-SE T01780156 $=
202204141152 METAR KATL 141152Z 26007KT 10SM FEW009 FEW110 BKN200 OVC250 17/16 A2995 RMK AO2 SLP135 60012 70012 T01720156 10194 20172 53017 $=
202204141052 METAR KATL 141052Z 31009KT 10SM FEW009 FEW013 BKN180 OVC250 17/16 A2990 RMK AO2 SLP119 T01720156 $=
202204141027 SPECI KATL 141027Z 30006KT 10SM FEW009 FEW013 BKN200 OVC250 17/16 A2991 RMK AO2 T01720156 $=
202204141004 SPECI KATL 141004Z 27005KT 10SM SCT009 BKN013 BKN170 OVC250 17/16 A2991 RMK AO2 BKN013 V SCT T01720156 $=
202204140952 METAR KATL 140952Z 27008KT 10SM BKN009 BKN015 BKN170 OVC250 18/16 A2992 RMK AO2 SLP125 T01780156 $=
202204140928 SPECI KATL 140928Z 25007KT 10SM BKN009 BKN013 OVC170 18/16 A2991 RMK AO2 T01780161 $=
202204140852 METAR KATL 140852Z 26007G18KT 10SM SCT013 BKN020 BKN090 OVC160 18/16 A2990 RMK AO2 PK WND 15028/0825 RAB08E22 PRESRR SLP117 BKN020 V SCT P0000 60012 T01830156 56029 $=
202204140752 METAR KATL 140752Z 16007KT 10SM SCT021 SCT032 BKN160 OVC250 18/16 A2991 RMK AO2 PRESFR SLP121 RAE29 TSE20 TS MOV NE P0012 T01780156 $=
202204140742 SPECI KATL 140742Z 17007KT 10SM BKN021 OVC032 18/16 A2993 RMK AO2 RAE29 TSE20 TS MOV NE P0012 T01780156 $=
202204140725 SPECI KATL 140725Z 17005KT 10SM FEW021 SCT028 BKN045 OVC200 18/16 A2994 RMK AO2 TSE20 TS MOV NE P0012 T01780161 $=
202204140710 SPECI KATL 140710Z 18005KT 2SM +TSRA BR SCT043CB SCT055 BKN110 BKN150 OVC200 18/16 A2995 RMK AO2 RAB04 TSB03 OCNL LTGIC SW TS SW MOV NE P0006 T01830156=
202204140652 METAR KATL 140652Z 18006KT 10SM SCT070 BKN110 BKN150 OVC210 19/14 A2996 RMK AO2 SLP137 T01890144=
202204140552 METAR KATL 140552Z 18006KT 10SM BKN160 BKN200 OVC250 19/14 A2999 RMK AO2 SLP147 T01940144 10228 20189 50002=
202204140452 METAR KATL 140452Z 21008KT 10SM BKN150 OVC200 20/14 A3002 RMK AO2 SLP158 T02000139 402500178=
202204140352 METAR KATL 140352Z 18009KT 10SM SCT040 BKN150 BKN250 21/14 A3001 RMK AO2 SLP154 T02060144=
202204140252 METAR KATL 140252Z 14004KT 10SM FEW040 BKN150 BKN250 20/16 A2998 RMK AO2 SLP145 T02000156 51023=
202204140152 METAR KATL 140152Z 16005KT 10SM BKN042 BKN250 21/16 A2995 RMK AO2 SLP137 T02110156=
202204140052 METAR KATL 140052Z 18007KT 10SM BKN040 BKN250 22/15 A2994 RMK AO2 SLP132 T02220150=
202204132352 METAR KATL 132352Z 16009KT 10SM FEW040 FEW150 SCT250 23/14 A2991 RMK AO2 SLP122 T02280144 10250 20228 58016=
202204132252 METAR KATL 132252Z 17005KT 10SM SCT040 BKN150 BKN200 23/16 A2996 RMK AO2 SLP140 ACC OHD-NW T02330156=
202204132152 METAR KATL 132152Z 19008G17KT 10SM SCT035 BKN140 BKN200 OVC250 23/15 A2998 RMK AO2 SLP146 T02330150=
202204132052 METAR KATL 132052Z 15012G20KT 10SM FEW040 SCT130 BKN180 OVC250 23/14 A2996 RMK AO2 PK WND 19026/1959 PRESFR SLP137 VIRGA SE-SW-NW ACC SW-NW T02330144 58029=
202204131952 METAR KATL 131952Z 18014G25KT 9SM FEW038 SCT150 BKN200 OVC250 24/14 A3000 RMK AO2 SLP151 T02390144=
202204131852 METAR KATL 131852Z 17015G24KT 10SM FEW033 SCT140 BKN200 BKN250 24/15 A3002 RMK AO2 SLP159 T02390150=
202204131752 METAR KATL 131752Z 16009G21KT 10SM FEW034 SCT140 BKN200 BKN250 23/14 A3004 RMK AO2 SLP167 ACC NE-SE T02280144 10239 20178 58022=
202204131652 METAR KATL 131652Z 18009KT 10SM FEW040 SCT140 SCT200 BKN250 23/14 A3008 RMK AO2 SLP177 VIRGA DSNT E-SE ACC DSNT N-NE T02280144=
202204131552 METAR KATL 131552Z 18009KT 9SM FEW044 SCT140 BKN200 BKN250 22/14 A3009 RMK AO2 SLP182 VIRGA NW DSNT N-NE ACC SW-NW-N T02170144=
202204131452 METAR KATL 131452Z 20008G18KT 10SM FEW026 FEW044 SCT140 BKN200 21/14 A3011 RMK AO2 SLP189 T02110144 50017=
202204131352 METAR KATL 131352Z 20007KT 10SM FEW042 BKN150 BKN200 BKN250 19/14 A3014 RMK AO2 SLP200 T01890139=
202204131252 METAR KATL 131252Z 21006KT 10SM FEW020 FEW047 BKN150 BKN250 18/13 A3013 RMK AO2 SLP198 T01830128=
202204131152 METAR KATL 131152Z 18007KT 10SM FEW020 BKN130 OVC200 18/12 A3006 RMK AO2 SLP172 SHRA NW-N T01780122 10200 20178 53007=
202204131052 METAR KATL 131052Z 16006KT 10SM FEW120 OVC140 18/12 A3003 RMK AO2 SLP160 BINOVC T01780122=
202204130952 METAR KATL 130952Z 15006KT 10SM FEW120 OVC150 18/14 A3003 RMK AO2 SLP159 T01780139=
202204130852 METAR KATL 130852Z 15005KT 10SM FEW120 OVC150 18/14 A3004 RMK AO2 SLP163 T01830139 56020=
202204130752 METAR KATL 130752Z 19004KT 10SM BKN200 18/14 A3006 RMK AO2 SLP169 T01830139=
202204130652 METAR KATL 130652Z 20005KT 10SM BKN200 19/14 A3008 RMK AO2 SLP179 T01940139=
202204130552 METAR KATL 130552Z 19007KT 10SM BKN200 19/13 A3010 RMK AO2 SLP185 T01940133 10244 20194 55001=
202204130452 METAR KATL 130452Z 17006KT 10SM BKN200 BKN250 20/13 A3009 RMK AO2 SLP183 T02000133 402780139=
202204130352 METAR KATL 130352Z 19004KT 10SM SCT200 BKN250 20/13 A3010 RMK AO2 SLP186 T02000128=
202204130252 METAR KATL 130252Z 18007KT 10SM SCT200 BKN250 22/13 A3010 RMK AO2 SLP187 T02170128 53005=
202204130152 METAR KATL 130152Z 17005KT 10SM BKN200 BKN250 22/12 A3009 RMK AO2 SLP182 T02220122=
202204130052 METAR KATL 130052Z 20004KT 10SM BKN200 BKN250 23/12 A3009 RMK AO2 SLP182 T02280117=
202204122352 METAR KATL 122352Z 19003KT 10SM BKN200 BKN250 24/12 A3009 RMK AO2 SLP183 T02440122 10278 20244 58005=
202204122252 METAR KATL 122252Z 19009KT 10SM FEW070 SCT200 BKN250 26/11 A3010 RMK AO2 SLP187 T02610111=
202204122152 METAR KATL 122152Z 17010G21KT 10SM FEW070 SCT200 BKN250 27/11 A3010 RMK AO2 SLP185 T02720111=
202204122052 METAR KATL 122052Z 18011G20KT 10SM FEW070 BKN090 BKN200 BKN250 28/12 A3010 RMK AO2 SLP187 T02780122 56017=
202204121952 METAR KATL 121952Z 17011G24KT 10SM FEW065 BKN085 BKN200 BKN250 27/12 A3011 RMK AO2 SLP190 T02720122=
202204121852 METAR KATL 121852Z 22009G19KT 10SM SCT085 SCT200 BKN250 26/12 A3014 RMK AO2 SLP199 T02610117=
202204121752 METAR KATL 121752Z 21009G18KT 10SM FEW085 SCT200 SCT250 26/13 A3015 RMK AO2 SLP205 T02560128 10261 20144 58010=
202204121652 METAR KATL 121652Z 20011G19KT 10SM FEW055 SCT085 SCT200 BKN250 24/13 A3018 RMK AO2 SLP213 T02440128=
202204121552 METAR KATL 121552Z 24009G18KT 10SM FEW050 SCT095 SCT200 23/13 A3019 RMK AO2 SLP216 T02330133=
202204121452 METAR KATL 121452Z 19005KT 10SM FEW075 SCT100 SCT250 21/14 A3018 RMK AO2 SLP216 T02110139 51008=
202204121352 METAR KATL 121352Z 20006KT 10SM SCT080 SCT100 BKN250 18/13 A3018 RMK AO2 SLP215 ACC NW-NE T01830133=
202204121252 METAR KATL 121252Z VRB04KT 10SM BKN085 BKN100 BKN250 17/12 A3017 RMK AO2 SLP212 ACC OHD-ALQDS T01670117=
202204121152 METAR KATL 121152Z 18003KT 10SM SCT085 SCT250 14/11 A3016 RMK AO2 SLP209 ACC NE T01440106 10161 20139 53012=
202204121052 METAR KATL 121052Z 00000KT 10SM SCT085 14/10 A3015 RMK AO2 SLP205 T01440100=
202204120952 METAR KATL 120952Z 00000KT 10SM BKN090 16/10 A3013 RMK AO2 SLP197 T01560100=
202204120852 METAR KATL 120852Z 00000KT 10SM SCT080 BKN095 15/10 A3012 RMK AO2 SLP196 T01500100 50002=
202204120752 METAR KATL 120752Z 00000KT 10SM BKN080 16/09 A3013 RMK AO2 SLP196 T01610089=
202204120652 METAR KATL 120652Z 00000KT 10SM SCT100 SCT200 15/09 A3012 RMK AO2 SLP194 T01500089=
202204120552 METAR KATL 120552Z 00000KT 10SM BKN100 BKN200 16/09 A3012 RMK AO2 SLP194 T01560089 10200 20156 53001=
202204120452 METAR KATL 120452Z 15004KT 10SM SCT110 SCT200 16/09 A3011 RMK AO2 SLP192 T01610089 402170100=
202204120352 METAR KATL 120352Z 16005KT 10SM BKN100 BKN200 17/08 A3011 RMK AO2 SLP193 T01670078=
202204120252 METAR KATL 120252Z 09004KT 10SM FEW110 SCT200 17/07 A3011 RMK AO2 SLP194 T01670067 55002=
202204120152 METAR KATL 120152Z 16005KT 10SM FEW110 SCT200 SCT250 17/06 A3011 RMK AO2 SLP192 T01720061=
202204120052 METAR KATL 120052Z 17006KT 10SM FEW110 BKN200 BKN250 19/06 A3011 RMK AO2 SLP192 T01890056=
202204112352 METAR KATL 112352Z 18005KT 10SM FEW090 BKN110 BKN200 20/06 A3012 RMK AO2 SLP197 T02000056 10217 20194 53001=
202204112252 METAR KATL 112252Z 18005KT 10SM SCT095 BKN120 OVC200 21/08 A3011 RMK AO2 SLP193 T02060078=
202204112152 METAR KATL 112152Z 18010KT 10SM SCT110 BKN200 BKN250 21/05 A3010 RMK AO2 SLP190 T02110050=
202204112052 METAR KATL 112052Z 16008KT 10SM SCT130 BKN180 OVC250 21/04 A3012 RMK AO2 SLP195 VIRGA NW-N T02060044 58024=
202204111952 METAR KATL 111952Z 19008KT 10SM FEW070 BKN140 OVC200 20/05 A3014 RMK AO2 SLP202 VIRGA OHD-ALQDS T02000050=
202204111852 METAR KATL 111852Z 23010KT 10SM FEW075 BKN150 BKN200 BKN250 21/05 A3017 RMK AO2 SLP214 VIRGA OHD-ALQDS T02060050=
202204111752 METAR KATL 111752Z VRB05KT 10SM FEW060 FEW110 SCT140 BKN200 19/07 A3019 RMK AO2 SLP218 VIRGA N-E-S T01940072 10194 20106 58010=
202204111732 SPECI KATL 111732Z 17005KT 10SM FEW055 SCT110 BKN140 OVC200 19/08 A3017 RMK AO2 PRESFR VIRGA OHD-ALQDS T01890078=
202204111652 METAR KATL 111652Z 27007KT 10SM FEW044 SCT110 BKN140 BKN200 19/09 A3022 RMK AO2 SLP228 VIRGA S-W-NW T01890094=
202204111552 METAR KATL 111552Z 27008KT 10SM FEW032 FEW120 BKN180 OVC250 18/11 A3023 RMK AO2 SLP233 VIRGA DSNT SW-NW-N T01830106=
202204111452 METAR KATL 111452Z 27007KT 10SM BKN110 BKN150 BKN200 BKN250 16/10 A3022 RMK AO2 PRESRR SLP230 ACC OHD-ALQDS VIRGA ALQDS T01610100 53030=
202204111440 SPECI KATL 111440Z 24005KT 10SM BKN130 BKN180 BKN250 17/09 A3020 RMK AO2 PRESRR ACC OHD-ALQDS VIRGA ALQDS T01670094=
202204111352 METAR KATL 111352Z 19003KT 10SM SCT120 BKN180 BKN250 16/09 A3016 RMK AO2 SLP209 ACC OHD-ALQDS VIRGA SW-NW-NE T01560094=
202204111252 METAR KATL 111252Z 00000KT 10SM SCT150 SCT200 BKN250 14/09 A3014 RMK AO2 SLP202 ACC OHD-W T01390089=
202204111152 METAR KATL 111152Z 16003KT 10SM FEW200 SCT250 11/07 A3013 RMK AO2 SLP199 T01060067 10144 20100 53012=
202204111052 METAR KATL 111052Z 13003KT 10SM FEW250 10/06 A3010 RMK AO2 SLP189 T01000061=
202204110952 METAR KATL 110952Z 17003KT 10SM FEW250 11/06 A3010 RMK AO2 SLP191 T01060061=
202204110852 METAR KATL 110852Z 22004KT 10SM FEW250 12/06 A3009 RMK AO2 SLP185 T01170061 53002=
202204110752 METAR KATL 110752Z 24003KT 10SM FEW250 12/05 A3009 RMK AO2 SLP185 T01220050=
202204110652 METAR KATL 110652Z 21006KT 10SM FEW250 13/04 A3008 RMK AO2 SLP183 T01330044=
202204110552 METAR KATL 110552Z 21006KT 10SM FEW250 14/04 A3009 RMK AO2 SLP184 T01440039 10211 20144 53000=
202204110452 METAR KATL 110452Z 20006KT 10SM SCT250 16/03 A3008 RMK AO2 SLP183 T01560033 402330033=
202204110352 METAR KATL 110352Z 20005KT 10SM SCT250 16/03 A3008 RMK AO2 SLP183 T01560028=
202204110252 METAR KATL 110252Z 19005KT 10SM SCT250 16/03 A3008 RMK AO2 SLP185 T01610028 51014=
202204110152 METAR KATL 110152Z 20005KT 10SM SCT250 17/03 A3008 RMK AO2 SLP182 T01720028=
202204110052 METAR KATL 110052Z 18004KT 10SM SCT250 19/02 A3005 RMK AO2 SLP176 T01890022=
202204102352 METAR KATL 102352Z 20006KT 10SM FEW250 21/01 A3004 RMK AO2 SLP173 T02110011 10233 20200 55001=
202204102252 METAR KATL 102252Z 21006KT 10SM FEW250 23/01 A3004 RMK AO2 SLP170 T02280011=
202204102152 METAR KATL 102152Z 19009KT 10SM FEW250 23/01 A3004 RMK AO2 SLP170 T02280006=
202204102052 METAR KATL 102052Z 20005KT 10SM FEW250 23/01 A3005 RMK AO2 SLP174 T02280006 58023=
202204101952 METAR KATL 101952Z 28003KT 10SM FEW250 22/01 A3007 RMK AO2 SLP182 T02220006=
202204101852 METAR KATL 101852Z 28006KT 10SM CLR 21/M01 A3010 RMK AO2 SLP190 T02111011=
202204101752 METAR KATL 101752Z VRB04G14KT 10SM CLR 20/M02 A3012 RMK AO2 SLP198 T02001017 10206 20039 58014=
202204101652 METAR KATL 101652Z 28005KT 10SM FEW250 19/M02 A3015 RMK AO2 SLP207 T01891022=
202204101552 METAR KATL 101552Z 00000KT 10SM FEW250 17/M02 A3016 RMK AO2 SLP214 T01721017=
202204101452 METAR KATL 101452Z VRB03KT 10SM FEW250 15/M02 A3016 RMK AO2 SLP214 T01501022 51016=
202204101352 METAR KATL 101352Z 00000KT 10SM FEW250 13/00 A3015 RMK AO2 SLP210 T01280000=
202204101252 METAR KATL 101252Z 00000KT 10SM CLR 09/02 A3014 RMK AO2 SLP207 T00890017=
202204101152 METAR KATL 101152Z 30003KT 10SM CLR 04/00 A3011 RMK AO2 SLP200 70001 T00390000 10072 20033 53017=
202204101052 METAR KATL 101052Z 00000KT 10SM CLR 03/M01 A3009 RMK AO2 SLP193 T00331006=
202204100952 METAR KATL 100952Z 29003KT 10SM CLR 04/M01 A3007 RMK AO2 SLP186 T00441006=
202204100852 METAR KATL 100852Z 28003KT 10SM CLR 05/M01 A3006 RMK AO2 SLP182 T00501011 53005=
202204100752 METAR KATL 100752Z 33007KT 10SM CLR 06/M01 A3006 RMK AO2 SLP181 T00561011=
202204100652 METAR KATL 100652Z 25004KT 10SM CLR 07/M02 A3004 RMK AO2 SLP175 T00721017=
202204100552 METAR KATL 100552Z 25005KT 10SM CLR 07/M02 A3004 RMK AO2 SLP177 T00721017 10117 20072 53007=
202204100452 METAR KATL 100452Z 24003KT 10SM CLR 08/M01 A3003 RMK AO2 SLP174 T00781011 401390050=
202204100352 METAR KATL 100352Z 24003KT 10SM CLR 08/M01 A3003 RMK AO2 SLP174 T00831011=
202204100252 METAR KATL 100252Z 20005KT 10SM CLR 07/M01 A3002 RMK AO2 SLP172 T00721006 53018=
202204100152 METAR KATL 100152Z 28005KT 10SM CLR 09/M02 A3000 RMK AO2 SLP163 T00941017=
202204100052 METAR KATL 100052Z 28003KT 10SM FEW065 10/M02 A2998 RMK AO2 SLP157 T01001022=
202204092352 METAR KATL 092352Z 29006KT 10SM FEW065 12/M02 A2997 RMK AO2 SLP151 T01171022 10139 20094 53005=
202204092252 METAR KATL 092252Z 29012KT 10SM SCT065 13/M03 A2995 RMK AO2 SLP146 T01281028=
202204092152 METAR KATL 092152Z 31016G22KT 10SM SCT065 13/M03 A2995 RMK AO2 PK WND 29026/2121 SLP146 T01281033=
202204092052 METAR KATL 092052Z 31019G29KT 10SM SCT065 13/M03 A2995 RMK AO2 PK WND 31032/2036 SLP145 T01281033 58012=
202204091952 METAR KATL 091952Z 32019G26KT 10SM BKN065 12/M03 A2997 RMK AO2 PK WND 28028/1924 SLP150 T01221033=
202204091852 METAR KATL 091852Z 30017G29KT 10SM BKN060 11/M04 A2998 RMK AO2 PK WND 32029/1846 SLP155 T01061039=
202204091752 METAR KATL 091752Z 29013G24KT 10SM BKN050 BKN075 09/M02 A2999 RMK AO2 SLP158 60001 T00941022 10106 20050 58005=
202204091652 METAR KATL 091652Z 28015G24KT 10SM FEW032 BKN044 BKN055 07/M02 A3001 RMK AO2 RAE1557 SLP166 SHRA N-E-SE P0000 T00721022=
202204091552 METAR KATL 091552Z 32009KT 10SM -RA FEW022 SCT038 BKN050 06/00 A3002 RMK AO2 RAE06B49 SLP170 P0000 T00610000=
202204091507 SPECI KATL 091507Z 32010KT 10SM SCT024 BKN037 OVC048 05/01 A3001 RMK AO2 RAE06 P0000 T00500011=
202204091452 METAR KATL 091452Z 33009KT 9SM -RA BKN028 OVC047 05/01 A3001 RMK AO2 RAB06PLB20E35 SLP166 P0001 60001 T00500011 53018=
202204091435 SPECI KATL 091435Z 31009KT 9SM -RA SCT022 BKN037 OVC045 06/02 A3000 RMK AO2 RAB06PLB20E35 P0001 T00560017=
202204091420 SPECI KATL 091420Z 27012G20KT 9SM -PLRA BKN024 OVC050 05/01 A2999 RMK AO2 RAB06PLB20 P0001 T00500011=
202204091410 SPECI KATL 091410Z 27008KT 9SM -RA BKN024 OVC050 06/01 A2998 RMK AO2 RAB06 P0000 T00560011=
202204091352 METAR KATL 091352Z 25008KT 10SM SCT028 BKN037 OVC050 06/01 A2997 RMK AO2 SLP154 T00560006=
202204091252 METAR KATL 091252Z 26009KT 10SM FEW033 OVC060 06/01 A2996 RMK AO2 SLP150 T00560006=
202204091152 METAR KATL 091152Z 26007KT 10SM FEW040 OVC060 06/00 A2995 RMK AO2 SLP146 BINOVC T00560000 10072 20050 53008=
202204091052 METAR KATL 091052Z 27007KT 10SM OVC060 05/M01 A2993 RMK AO2 SLP139 BINOVC T00501006=
202204090952 METAR KATL 090952Z 27007KT 10SM BKN060 05/M01 A2993 RMK AO2 SLP137 T00501006=
202204090852 METAR KATL 090852Z 26007KT 10SM BKN060 06/M01 A2993 RMK AO2 SLP137 T00561011 55007=
202204090752 METAR KATL 090752Z 27005KT 10SM BKN065 06/M02 A2992 RMK AO2 SLP134 T00561017=
202204090652 METAR KATL 090652Z 29008KT 10SM FEW045 SCT070 06/M02 A2994 RMK AO2 SLP140 T00611017=
202204090552 METAR KATL 090552Z 30010KT 10SM FEW050 BKN070 07/M02 A2995 RMK AO2 SLP142 T00721022 10089 20072 50003=
202204090452 METAR KATL 090452Z 29013KT 10SM FEW045 BKN065 07/M03 A2995 RMK AO2 SLP143 T00721028 401500072=
202204090352 METAR KATL 090352Z 29009KT 10SM BKN065 08/M02 A2995 RMK AO2 SLP141 T00781022=
202204090252 METAR KATL 090252Z 30012KT 10SM FEW050 BKN065 BKN080 08/M02 A2994 RMK AO2 SLP140 T00831017 53016=
202204090152 METAR KATL 090152Z 29011G17KT 10SM FEW050 SCT085 08/00 A2992 RMK AO2 SLP133 T00830000=
202204090052 METAR KATL 090052Z 30009KT 10SM SCT075 BKN090 08/00 A2990 RMK AO2 SLP127 T00830000=
202204082352 METAR KATL 082352Z 29010G20KT 10SM FEW080 BKN095 09/00 A2989 RMK AO2 SLP125 T00890000 10144 20089 51022=
202204082252 METAR KATL 082252Z 31015KT 10SM FEW038 BKN090 10/01 A2988 RMK AO2 PK WND 30027/2204 SLP120 T01000006=
202204082152 METAR KATL 082152Z AUTO 31016G26KT 10SM FEW045 SCT080 BKN100 11/01 A2986 RMK AO2 PK WND 31026/2143 SLP113 T01110011=
202204082052 METAR KATL 082052Z 31016G23KT 10SM SCT060 BKN085 12/01 A2983 RMK AO2 SLP100 VIRGA ALQDS T01220011 53006=
202204081952 METAR KATL 081952Z 32013G20KT 10SM BKN065 OVC075 13/01 A2981 RMK AO2 SLP094 VIRGA ALQDS T01280006=
202204081852 METAR KATL 081852Z 24011G25KT 10SM SCT065 OVC075 14/M02 A2980 RMK AO2 PK WND 21029/1759 SLP092 VIRGA OHD-W-N-E T01391017=
202204081752 METAR KATL 081752Z 25018G31KT 10SM BKN070 BKN090 14/M02 A2981 RMK AO2 PK WND 27031/1743 SLP093 VIRGA DSNT NW-NE T01391022 10150 20083 58014=
202204081652 METAR KATL 081652Z 26012G23KT 10SM SCT065 BKN080 14/M02 A2983 RMK AO2 PK WND 25030/1623 SLP099 VIRGA DSNT NW-NE T01441017=
202204081552 METAR KATL 081552Z 27018G26KT 10SM SCT065 BKN085 13/M02 A2985 RMK AO2 PK WND 28032/1534 SLP106 MDT CU ALQDS T01331022=
202204081452 METAR KATL 081452Z 25015G26KT 10SM FEW055 FEW095 14/M01 A2985 RMK AO2 PK WND 27026/1450 SLP106 MDT CU DSNT N T01391006 51005=
202204081352 METAR KATL 081352Z 26013KT 10SM FEW100 12/01 A2985 RMK AO2 SLP105 T01220006=
202204081252 METAR KATL 081252Z 24009KT 10SM FEW080 10/01 A2985 RMK AO2 SLP105 T01000011=
202204081152 METAR KATL 081152Z 25006KT 10SM FEW080 08/01 A2983 RMK AO2 SLP101 T00830011 10106 20078 53003=
202204081052 METAR KATL 081052Z 25006KT 10SM CLR 08/01 A2982 RMK AO2 SLP097 T00830006=
202204080952 METAR KATL 080952Z 25005KT 10SM FEW090 08/01 A2982 RMK AO2 SLP095 T00830006=
202204080852 METAR KATL 080852Z 27011KT 10SM FEW090 09/01 A2982 RMK AO2 SLP096 T00940006 56006=
202204080752 METAR KATL 080752Z 26007KT 10SM FEW090 09/01 A2982 RMK AO2 SLP097 T00890006=
202204080652 METAR KATL 080652Z 27006KT 10SM FEW080 09/00 A2984 RMK AO2 SLP101 T00940000=
202204080552 METAR KATL 080552Z 27006KT 10SM SCT080 10/00 A2984 RMK AO2 SLP103 T01000000 10172 20100 58003=
202204080452 METAR KATL 080452Z 28007KT 10SM SCT080 11/M01 A2985 RMK AO2 SLP105 T01061006 402110106=
202204080352 METAR KATL 080352Z 28008KT 10SM FEW085 12/M01 A2985 RMK AO2 SLP107 T01221006=
202204080252 METAR KATL 080252Z 31010KT 10SM FEW090 14/01 A2985 RMK AO2 SLP106 T01390006 51032=
202204080152 METAR KATL 080152Z 30011KT 10SM FEW090 15/M01 A2982 RMK AO2 SLP096 T01501006=
202204080052 METAR KATL 080052Z 29012KT 10SM BKN090 16/M02 A2979 RMK AO2 SLP084 T01611017=
202204072352 METAR KATL 072352Z 28008KT 10SM SCT095 17/M01 A2975 RMK AO2 SLP073 T01671011 10211 20167 53010=
202204072252 METAR KATL 072252Z 26012G24KT 10SM SCT100 19/M02 A2974 RMK AO2 PK WND 28028/2201 SLP066 T01891022=
202204072152 METAR KATL 072152Z 28011G22KT 10SM SCT100 19/M02 A2973 RMK AO2 PK WND 24029/2111 SLP062 T01941022=
202204072052 METAR KATL 072052Z 28014G22KT 10SM FEW090 19/M01 A2972 RMK AO2 PK WND 27029/2040 SLP061 T01891011 56014=
202204071952 METAR KATL 071952Z 28013G23KT 10SM FEW085 21/01 A2973 RMK AO2 PK WND 25029/1926 SLP063 T02060006=
202204071852 METAR KATL 071852Z 26016G27KT 10SM FEW080 21/00 A2975 RMK AO2 PK WND 29028/1834 SLP069 T02060000=
202204071752 METAR KATL 071752Z 26013G26KT 10SM FEW075 19/01 A2977 RMK AO2 PK WND 30032/1707 SLP074 T01940006 10194 20122 58008=
202204071652 METAR KATL 071652Z 30015KT 10SM FEW065 19/02 A2978 RMK AO2 PK WND 29027/1631 SLP079 T01890022=
202204071552 METAR KATL 071552Z 29012KT 10SM FEW048 18/06 A2979 RMK AO2 PK WND 29026/1506 SLP083 T01780056=
202204071452 METAR KATL 071452Z 30010G23KT 10SM FEW036 17/06 A2979 RMK AO2 SLP083 T01670061 51011=
202204071352 METAR KATL 071352Z 31014G20KT 10SM FEW250 15/07 A2979 RMK AO2 SLP081 T01500067=
202204071252 METAR KATL 071252Z 30011KT 10SM FEW070 FEW100 13/08 A2977 RMK AO2 SLP077 T01330083=
202204071152 METAR KATL 071152Z 29009KT 10SM FEW070 BKN095 12/08 A2976 RMK AO2 SLP073 ACC DSNT E 60001 70091 T01220083 10183 20122 53015 $=
202204071052 METAR KATL 071052Z 31010KT 10SM BKN070 BKN095 13/08 A2974 RMK AO2 SLP067 T01280083=
202204070952 METAR KATL 070952Z 31010KT 10SM FEW014 BKN060 BKN085 13/10 A2972 RMK AO2 SLP059 T01330100=
202204070852 METAR KATL 070852Z 31013KT 10SM FEW014 BKN060 BKN085 14/11 A2971 RMK AO2 SLP057 60001 T01390106 52006=
202204070850 SPECI KATL 070850Z 32014KT 10SM FEW014 BKN060 BKN085 14/11 A2971 RMK AO2=
202204070752 METAR KATL 070752Z 31014KT 10SM BKN012 BKN020 OVC055 15/13 A2971 RMK AO2 RAB0653E14 SLP056 P0001 T01500128=
202204070652 METAR KATL 070652Z 33013G21KT 10SM BKN012 BKN022 OVC055 17/14 A2970 RMK AO2 SLP049 BKN012 V SCT SHRA SW-N T01670144=
202204070552 METAR KATL 070552Z 30008KT 10SM FEW004 BKN011 OVC018 18/17 A2969 RMK AO2 RAE30 TSE44 SLP048 LTG DSNT E-SE-S TS MOV E CB DSNT E-SE-S BINOVC P0002 60029 T01830172 10200 20178 56004=
202204070545 SPECI KATL 070545Z 30008KT 8SM FEW004 BKN011 OVC018 18/17 A2969 RMK AO2 RAE30 TSE44 LTG DSNT E-SE-S TS MOV E CB DSNT E-SE-S P0002 T01830172=
202204070452 METAR KATL 070452Z 26007KT 7SM -TSRA BKN009 BKN025CB OVC060 18/17 A2971 RMK AO2 SLP053 FRQ LTGICCGCA N-NE E-S TS N-NE E-S MOV E P0016 T01830172 402280161=
202204070441 SPECI KATL 070441Z 26005KT 5SM -TSRA BR SCT009 BKN025CB BKN050 OVC150 18/17 A2970 RMK AO2 CONS LTGICCG E-S-SW TS E-S-SW MOV E P0016 T01830172=
202204070352 METAR KATL 070352Z 00000KT 5SM TSRA BR FEW005 SCT025CB BKN050 OVC150 18/17 A2968 RMK AO2 WSHFT 0312 RAB03 SLP046 VIS LWR NE-SE FRQ LTGICCG OHD-ALQDS TS OHD-ALQDS MOV E P0010 T01830167=
202204070347 SPECI KATL 070347Z 00000KT 2SM R09R/6000VP6000FT +TSRA BR FEW005 BKN025CB OVC070 18/17 A2969 RMK AO2 WSHFT 0312 RAB03 PRESFR FRQ LTGICCG OHD-ALQDS TS OHD-ALQDS MOV E P0007=
202204070330 SPECI KATL 070330Z 33008KT 6SM -TSRA BR FEW005 SCT025CB BKN040 OVC150 19/17 A2971 RMK AO2 WSHFT 0312 RAB03 FRQ LTGICCG OHD-ALQDS TS OHD-ALQDS MOV NE P0000 T01890167=
202204070252 METAR KATL 070252Z 18008KT 10SM TS FEW006 SCT025CB BKN060 BKN200 19/17 A2971 RMK AO2 TSB52 SLP054 FRQ LTGICCG W-N TS W-N MOV NE 60001 T01890172 53003=
202204070152 METAR KATL 070152Z 18005KT 10SM SCT040 BKN070 BKN150 BKN200 19/18 A2969 RMK AO2 SLP046 LTG DSNT W-N CB DSNT E-SE W-N T01890178=
202204070052 METAR KATL 070052Z 17007KT 10SM FEW004 SCT100 BKN150 BKN200 19/18 A2969 RMK AO2 RAB2359E09 SLP049 CONS LTG DSNT SE-SW CB DSNT SE-SW P0001 T01940183=
202204070025 SPECI KATL 070025Z 18005KT 10SM FEW004 SCT040 BKN090 BKN200 19/18 A2969 RMK AO2 LTG DSNT SW RAB2359E09 CB DSNT S-SW P0001 T01940183=
202204062352 METAR KATL 062352Z 17004KT 9SM FEW030 SCT080 BKN150 BKN200 20/18 A2970 RMK AO2 SLP051 TCU DSNT SW 60061 T02000183 10228 20194 55000=
202204062252 METAR KATL 062252Z 14006KT 10SM FEW030 BKN150CB OVC200 20/18 A2970 RMK AO2 RAE07 SLP050 LTG DSNT E-S CBMAM SW-W CB DSNT E-S P0000 T02000183=
202204062152 METAR KATL 062152Z 24003KT 10SM -RA FEW040 BKN110 BKN150 BKN200 20/18 A2966 RMK AO2 TSE17 SLP036 LTG DSNT E-S-SW CB DSNT E-S-SW P0001 T02000178=
202204062117 SPECI KATL 062117Z 26007KT 10SM -RA FEW040 SCT085 BKN140CB BKN200 20/18 A2967 RMK AO2 TSE17 LTG DSNT E-SE TS DSIPTD CBMAM OHD CB DSNT E-SE NW-N P0001 T02000178=
202204062052 METAR KATL 062052Z 29006KT 7SM -TSRA FEW040CB BKN085 BKN120 BKN200 19/18 A2970 RMK AO2 SLP052 OCNL LTGICCA E-S-SW TS E-S-SW MOV NE CB DSNT NE-E NW P0044 60060 T01940178 58024=
202204062012 SPECI KATL 062012Z 28006KT 4SM R09R/6000VP6000FT -TSRA BR FEW014 BKN030CB OVC090 20/19 A2973 RMK AO2 OCNL LTGICCGCA NE-OHD-SW TS NE-OHD-SW MOV NE P0037 T02000189=
202204061955 SPECI KATL 061955Z 27017G25KT 1/2SM R09R/3500VP6000FT +TSRA BR BKN012 BKN025 OVC032CB 21/19 A2975 RMK AO2 SFC VIS 3/4 FRQ LTGICCGCA NE-OHD-SW TS NE-OHD-SW MOV NE P0008 T02060189=
202204061952 METAR KATL 061952Z 28016G25KT 1SM R09R/4500VP6000FT +TSRA BR FEW008 BKN012 OVC022CB 21/19 A2975 RMK AO2 SLP069 TSB08 FRQ LTGICCGCA NE-OHD-SW TS NE-OHD-SW MOV NE P0014 T02060189=
202204061947 SPECI KATL 061947Z 28008KT 2SM -TSRA BR SCT008 BKN018CB OVC040 21/19 A2974 RMK AO2 SFC VIS 5 TSB08 FRQ LTGICCGCA SW-NW-NE TS SW-NW-NE MOV NE SHELF CLOUD NE-OHD-SW MOV E P0011=
202204061910 SPECI KATL 061910Z VRB04KT 2SM -TSRA BR BKN013 OVC022CB 22/20 A2973 RMK AO2 SFC VIS 6 TSB08 OCNL LTGICCGCA E-SE SW-W TS E-SE SW-W MOV NE P0000 T02220200=
202204061852 METAR KATL 061852Z VRB03KT 2SM -RA BR OVC013 22/20 A2974 RMK AO2 SFC VIS 6 LTG DSNT SW AND W DZE42RAB42 PRESFR SLP065 CIG 011V015 CB DSNT SW W P0002 T02220200=
202204061819 SPECI KATL 061819Z 23007G15KT 2SM -DZ BR BKN011 OVC018 22/20 A2977 RMK AO2 SFC VIS 6 CIG 009V013 P0000 T02220200=
202204061752 METAR KATL 061752Z 21008KT 2SM -DZ BR OVC007 22/19 A2977 RMK AO2 SFC VIS 6 SLP075 CIG 006V009 P0000 60000 T02170194 10217 20167 58007=
202204061749 SPECI KATL 061749Z 21008KT 2SM -DZ BR OVC006 22/19 A2977 RMK AO2 SFC VIS 6 CIG 005V007 P0000=
202204061731 SPECI KATL 061731Z 20007KT 1 1/2SM -DZ BR OVC006 21/19 A2978 RMK AO2 SFC VIS 4 CIG 005V007 P0000 T02110194=
202204061652 METAR KATL 061652Z 20007KT 1 1/2SM -DZ BR OVC004 21/19 A2978 RMK AO2 SFC VIS 3 DZB46 SLP079 CIG 003V005 P0000 T02060194=
202204061631 SPECI KATL 061631Z 19007KT 1 1/2SM BR OVC004 20/19 A2978 RMK AO2 SFC VIS 4 CIG 003V005 T02000194=
202204061552 METAR KATL 061552Z 18007KT 1/2SM R09R/P6000FT BR OVC003 19/19 A2979 RMK AO2 SFC VIS 2 DZE49 SLP083 CIG 002V004 TWRINC P0000 T01940189=
202204061452 METAR KATL 061452Z 18006KT 1/2SM R09R/3000V5500FT -DZ FG OVC002 19/18 A2979 RMK AO2 RAB1353E03DZB27 SLP084 P0000 60000 T01890183 51003=
202204061429 SPECI KATL 061429Z 17005KT 1/2SM R09R/2200V2400FT -DZ FG VV002 18/18 A2979 RMK AO2 RAB1353E03DZB27 P0000 T01830178=
202204061352 METAR KATL 061352Z 14005KT 1/2SM R09R/1800V2200FT FG VV002 17/17 A2979 RMK AO2 DZB01E47 SLP084 P0000 T01720167=
202204061348 SPECI KATL 061348Z 14005KT 1/2SM R09R/1800V2200FT FG VV002 17/17 A2979 RMK AO2 DZB01E47 P0000=
202204061252 METAR KATL 061252Z 12003KT 1/2SM R09R/3000VP6000FT FG VV002 17/16 A2979 RMK AO2 SLP081 TWRINC T01720161=
202204061152 METAR KATL 061152Z 11004KT 1/2SM R09R/P6000FT BR OVC002 17/16 A2977 RMK AO2 SFC VIS 3 SLP078 TWRINC 60000 70218 T01670156 10167 20161 53007=
202204061052 METAR KATL 061052Z VRB03KT 1/2SM R09R/3000V5500FT BR VV002 16/16 A2976 RMK AO2 SFC VIS 1 SLP071 TWRINC T01610156=
202204060952 METAR KATL 060952Z 16003KT 1/2SM R09R/3000V3500FT BR VV002 16/16 A2974 RMK AO2 SFC VIS 3/4 SLP066 TWRINC T01610156=
202204060852 METAR KATL 060852Z 19004KT 1/2SM R09R/3000V3500FT BR VV002 16/16 A2975 RMK AO2 SFC VIS 3/4 RAE13 SLP070 TWRINC P0000 60000 T01610156 56008=
202204060752 METAR KATL 060752Z 21003KT 1/2SM R09R/P6000FT -RA BR OVC004 16/16 A2976 RMK AO2 SFC VIS 4 RAB28 SLP072 TWRINC P0000 T01610156=
202204060652 METAR KATL 060652Z 24007KT 10SM OVC005 16/15 A2977 RMK AO2 SLP077 T01610150=
202204060552 METAR KATL 060552Z 25007KT 10SM BKN006 OVC009 17/15 A2978 RMK AO2 SLP080 T01670150 10183 20161 51009=
202204060452 METAR KATL 060452Z 24008KT 10SM OVC008 17/14 A2977 RMK AO2 SLP079 BINOVC T01670144 401890122=
202204060352 METAR KATL 060352Z 23008KT 10SM BKN009 16/14 A2977 RMK AO2 SLP078 T01610144=
202204060318 SPECI KATL 060318Z 23007KT 10SM BKN010 16/14 A2976 RMK AO2 T01610144=
202204060252 METAR KATL 060252Z 22008KT 10SM SCT011 16/14 A2975 RMK AO2 SLP072 T01610144 51019=
202204060152 METAR KATL 060152Z 22009KT 10SM FEW015 17/14 A2974 RMK AO2 SLP069 T01670144=
202204060052 METAR KATL 060052Z 22010KT 10SM FEW018 FEW200 17/14 A2972 RMK AO2 SLP061 T01720144=
202204052352 METAR KATL 052352Z 23009G22KT 10SM SCT018 BKN030 BKN200 18/14 A2969 RMK AO2 PK WND 25027/2317 SLP051 60067 T01830144 10189 20150 53019=
202204052252 METAR KATL 052252Z 24015G22KT 10SM BKN020 BKN035 BKN180 BKN250 19/15 A2966 RMK AO2 SLP039 T01890150=
202204052210 SPECI KATL 052210Z 22012G23KT 10SM FEW007 BKN020 BKN180 OVC250 19/16 A2964 RMK AO2 T01890156=
202204052152 METAR KATL 052152Z 20011G19KT 10SM FEW007 BKN180 OVC250 19/16 A2963 RMK AO2 SLP028 T01890161 $=
202204052104 SPECI KATL 052104Z 18012G19KT 10SM SCT007 BKN080 BKN150 BKN200 18/17 A2962 RMK AO2 T01830167 $=
202204052052 METAR KATL 052052Z 19011G20KT 10SM BKN007 BKN075 BKN150 BKN200 18/17 A2964 RMK AO2 SLP031 CIG 005V009 60067 T01830167 58025 $=
202204052003 SPECI KATL 052003Z 18012G19KT 10SM BKN005 BKN090 BKN140 BKN200 17/16 A2965 RMK AO2 T01720161=
202204051952 METAR KATL 051952Z 17014G19KT 10SM FEW004 SCT095 BKN140 BKN200 17/16 A2965 RMK AO2 RAE35 SLP037 CBMAM DSNT NE-SE-S ACC OHD-ALQDS P0004 T01720161=
202204051922 SPECI KATL 051922Z 14011G15KT 6SM -RA BR FEW003 SCT055 BKN090 OVC130CB 16/15 A2967 RMK AO2 PRESFR CBMAM N-OHD-S MOV NE P0003 T01610150=
202204051914 SPECI KATL 051914Z 16006KT 6SM -RA BR FEW006 SCT060 OVC100 16/14 A2972 RMK AO2 PRESFR P0003 T01610144=
202204051852 METAR KATL 051852Z 15006KT 4SM RA BR FEW006 SCT055 OVC090 16/14 A2975 RMK AO2 LTG DSNT E AND SE TSE42 SLP072 TS MOVD NE CB DSNT NE-SE P0063 T01560144=
202204051842 SPECI KATL 051842Z 17004KT 3SM -RA BR SCT006 BKN060 OVC090 16/14 A2974 RMK AO2 SFC VIS 5 LTG DSNT SE TSE42 TS MOVD NE CB DSNT NE-SE P0061 T01560144=
202204051833 SPECI KATL 051833Z 13004KT 3SM +TSRA BR SCT004 BKN036CB OVC070 16/14 A2974 RMK AO2 OCNL LTGICCA NE-SE-SW TS NE-SE-SW MOV NE P0058 T01560139=
202204051813 SPECI KATL 051813Z 01009KT 1/2SM R09R/1800VP6000FT +TSRA BR BKN004 BKN018CB OVC036 15/14 A2975 RMK AO2 SFC VIS 3/4 PRESRR FRQ LTGICCGCA OHD-ALQDS TS OHD-ALQDS MOV NE P0021 T01500139=
202204051752 METAR KATL 051752Z 10008G17KT 1/2SM R09R/5500VP6000FT +TSRA BR BKN004 BKN014CB OVC034 15/14 A2971 RMK AO2 SFC VIS 1 1/4 PRESFR SLP058 FRQ LTGICCA OHD-ALQDS TS OHD-ALQDS MOV NE TWRINC P0044 60151 T01500139 10150 20122 58030=
202204051652 METAR KATL 051652Z 11008KT 1/2SM R09R/5500VP6000FT +TSRA BR BKN003 BKN014CB OVC036 14/13 A2978 RMK AO2 SFC VIS 1 1/2 SLP081 OCNL LTGICCA OHD-ALQDS TS OHD-ALQDS MOV NE TWRINC P0045 T01390128=
202204051630 SPECI KATL 051630Z 11007KT 1/2SM R09R/P6000FT +TSRA BR BKN003 BKN016CB OVC038 13/12 A2979 RMK AO2 SFC VIS 1 1/2 OCNL LTGICCA OHD-ALQDS TS OHD-ALQDS MOV NE TWRINC P0029 T01330122=
202204051552 METAR KATL 051552Z 07005KT 1/2SM R09R/3500VP6000FT +TSRA BR BKN004 BKN018CB OVC045 13/12 A2983 RMK AO2 SFC VIS 1 1/2 SLP097 OCNL LTGICCA OHD-ALQDS TS OHD-ALQDS MOV NE TWRINC P0036 T01280122=
202204051522 SPECI KATL 051522Z 09006KT 1/2SM R09R/P6000FT +TSRA BR BKN004 BKN018CB OVC040 13/12 A2982 RMK AO2 SFC VIS 1 1/2 OCNL LTGICCA OHD-ALQDS TS OHD-ALQDS MOV NE TWRINC P0011 T01280117=
202204051515 SPECI KATL 051515Z 12007KT 2SM +TSRA BR FEW006 BKN022CB OVC055 13/12 A2984 RMK AO2 LTG DSNT ALQDS OCNL LTGICCA OHD-ALQDS TS OHD-ALQDS MOV NE CB DSNT ALQDS P0008 T01280117=
202204051452 METAR KATL 051452Z 07011KT 3SM TSRA BR FEW008 BKN036 OVC075 13/11 A2980 RMK AO2 LTG DSNT ALQDS TSB11E43B52 PRESFR SLP089 TS MOVD NE CB DSNT ALQDS P0017 60026 T01280111 58006=
202204051444 SPECI KATL 051444Z 08012KT 4SM RA BR FEW008 BKN036 OVC075 13/11 A2982 RMK AO2 LTG DSNT ALQDS TSB11E43 TS MOVD NE CB DSNT ALQDS P0014 T01280111=
202204051433 SPECI KATL 051433Z 06011KT 3SM TSRA BR FEW010 BKN038CB OVC080 12/11 A2983 RMK AO2 LTG DSNT ALQDS TSB11 OCNL LTGICCA OHD-ALQDS TS OHD-ALQDS MOV NE CB DSNT ALQDS P0010 T01220106=
202204051412 SPECI KATL 051412Z 05009KT 6SM -TSRA BR FEW012 BKN038CB OVC080 13/11 A2984 RMK AO2 LTG DSNT ALQDS TSB11 OCNL LTGICCA SE-SW-NW TS SE-SW-NW MOV NE CB DSNT ALQDS P0003 T01280106=
202204051352 METAR KATL 051352Z 08009KT 8SM -RA FEW035 SCT070 OVC100 13/10 A2985 RMK AO2 LTG DSNT NE-S RAB02 TSB03E48 SLP105 TS MOVD NE CB DSNT NE-SE-S P0009 T01280100=
202204051349 SPECI KATL 051349Z 08008KT 8SM -RA FEW035 SCT070 OVC100 13/10 A2985 RMK AO2 LTG DSNT NE-S RAB02 TSB03E48 TS MOVD NE CB DSNT NE-SE-S P0009=
202204051320 SPECI KATL 051320Z 24004KT 3SM +TSRA FEW020 BKN048CB OVC080 12/08 A2988 RMK AO2 RAB02 TSB03 OCNL LTGICCGCA N-OHD-S TS N-OHD-S MOV NE P0003 T01220083=
202204051303 SPECI KATL 051303Z 19004KT 9SM -TSRA FEW024 BKN055CB BKN110 OVC150 13/07 A2984 RMK AO2 RAB02 TSB03 PRESRR OCNL LTGICCGCA SW-NW TS SW-NW MOV NE P0000 T01330072=
202204051252 METAR KATL 051252Z 13005KT 10SM FEW025 BKN060 OVC180 13/07 A2982 RMK AO2 LTG DSNT S-NW SLP094 CB DSNT S-W-NW SHRA S-W-NW T01330072=
202204051152 METAR KATL 051152Z 10006KT 10SM FEW100 SCT150 OVC220 13/06 A2985 RMK AO2 SLP102 VIRGA ALQDS BINOVC T01330061 10156 20128 56010=
202204051052 METAR KATL 051052Z 00000KT 10SM FEW150 SCT220 BKN250 13/06 A2986 RMK AO2 SLP105 T01280056=
202204050952 METAR KATL 050952Z 11005KT 10SM FEW150 BKN250 13/06 A2986 RMK AO2 SLP104 T01280056=
202204050852 METAR KATL 050852Z 00000KT 10SM SCT250 13/05 A2988 RMK AO2 SLP112 T01330050 56021=
202204050752 METAR KATL 050752Z 08004KT 10SM SCT250 14/04 A2990 RMK AO2 SLP117 T01390044=
202204050652 METAR KATL 050652Z 11003KT 10SM SCT250 14/04 A2992 RMK AO2 SLP127 T01440044=
202204050552 METAR KATL 050552Z 09004KT 10SM SCT250 16/04 A2994 RMK AO2 SLP134 T01560039 10222 20156 51001=
202204050452 METAR KATL 050452Z 00000KT 10SM SCT250 16/04 A2994 RMK AO2 SLP135 T01560039 402440089=
202204050352 METAR KATL 050352Z 14003KT 10SM FEW250 16/04 A2994 RMK AO2 SLP136 T01610039=
202204050252 METAR KATL 050252Z 13006KT 10SM FEW250 17/04 A2994 RMK AO2 SLP135 T01720039 50006=
202204050152 METAR KATL 050152Z 00000KT 10SM FEW250 18/02 A2995 RMK AO2 SLP138 T01780022=
202204050052 METAR KATL 050052Z 00000KT 10SM FEW250 20/02 A2993 RMK AO2 SLP134 T02000017=
202204042352 METAR KATL 042352Z 00000KT 10SM FEW250 22/M01 A2992 RMK AO2 SLP129 T02221006 10244 20211 56009=
202204042252 METAR KATL 042252Z 20005KT 10SM FEW200 SCT250 24/M01 A2993 RMK AO2 SLP130 T02391006=
202204042152 METAR KATL 042152Z 21005KT 10SM FEW150 SCT200 BKN250 24/M02 A2993 RMK AO2 SLP132 T02391022=
202204042052 METAR KATL 042052Z 29006KT 10SM FEW150 SCT200 BKN250 23/M01 A2995 RMK AO2 SLP139 T02331006 56026=
202204042012 SPECI KATL 042012Z 22006KT 10SM SCT200 BKN250 24/M02 A2996 RMK AO2 T02391017=
202204041952 METAR KATL 041952Z 30009G15KT 230V320 10SM SCT200 BKN250 24/M01 A2997 RMK AO2 SLP144 T02441006=
202204041852 METAR KATL 041852Z 19005KT 10SM SCT200 BKN250 22/M01 A3000 RMK AO2 SLP157 T02221011=
202204041752 METAR KATL 041752Z 18007KT 10SM SCT200 SCT250 21/M01 A3003 RMK AO2 SLP166 T02111011 10217 20089 58010=
202204041652 METAR KATL 041652Z VRB04KT 10SM FEW200 SCT250 19/01 A3006 RMK AO2 SLP174 T01940006=
202204041552 METAR KATL 041552Z 14004KT 10SM FEW200 SCT250 17/00 A3007 RMK AO2 SLP179 T01720000=
202204041452 METAR KATL 041452Z 09005KT 10SM SCT200 BKN250 14/M01 A3006 RMK AO2 SLP177 T01441006 51016=
202204041352 METAR KATL 041352Z 11008KT 10SM FEW200 BKN250 13/M01 A3005 RMK AO2 SLP173 T01281006=
202204041252 METAR KATL 041252Z 09010KT 10SM FEW200 BKN250 11/M01 A3003 RMK AO2 SLP168 T01061011=
202204041152 METAR KATL 041152Z 08008KT 10SM BKN250 09/M01 A3001 RMK AO2 SLP162 T00941011 10111 20089 53014=
202204041052 METAR KATL 041052Z 07009KT 10SM BKN250 10/M02 A2999 RMK AO2 SLP155 T01001017=
202204040952 METAR KATL 040952Z 04006KT 10SM BKN250 10/M02 A2997 RMK AO2 SLP148 T01001017=
202204040852 METAR KATL 040852Z 33004KT 10SM BKN250 10/M01 A2997 RMK AO2 SLP147 T01001011 56004=
202204040752 METAR KATL 040752Z 34004KT 10SM FEW250 11/M02 A2997 RMK AO2 SLP147 T01061017=
202204040652 METAR KATL 040652Z 00000KT 10SM FEW250 09/01 A2998 RMK AO2 SLP149 T00940006=
202204040552 METAR KATL 040552Z 33004KT 10SM FEW250 12/M02 A2998 RMK AO2 SLP150 T01171017 10183 20111 58001=
202204040452 METAR KATL 040452Z 33005KT 10SM SCT250 12/M02 A2998 RMK AO2 SLP150 T01221017 402110089=
202204040352 METAR KATL 040352Z 32005KT 10SM SCT250 13/M01 A2999 RMK AO2 SLP152 T01281011=
202204040252 METAR KATL 040252Z 32005KT 10SM FEW250 14/M02 A2998 RMK AO2 SLP151 T01441022 51012=
202204040152 METAR KATL 040152Z 33005KT 10SM FEW250 15/M03 A2998 RMK AO2 SLP150 T01501028=
202204040052 METAR KATL 040052Z 34006KT 10SM FEW250 17/M04 A2997 RMK AO2 SLP145 T01671039=
202204032352 METAR KATL 032352Z 34008KT 10SM FEW250 18/M05 A2995 RMK AO2 SLP140 T01831050 10211 20183 55004=
202204032252 METAR KATL 032252Z 34009KT 10SM CLR 20/M04 A2994 RMK AO2 SLP137 T02001039=
202204032152 METAR KATL 032152Z 35013G19KT 10SM FEW250 21/M05 A2995 RMK AO2 SLP140 T02061050=
202204032052 METAR KATL 032052Z 31012KT 10SM FEW250 21/M03 A2996 RMK AO2 SLP144 T02061033 56018=
202204031952 METAR KATL 031952Z 30009G21KT 10SM FEW250 21/M01 A2998 RMK AO2 SLP149 T02061006=
202204031852 METAR KATL 031852Z 33013KT 10SM CLR 20/M01 A3000 RMK AO2 SLP156 T02001011=
202204031752 METAR KATL 031752Z 33013G19KT 10SM CLR 19/02 A3002 RMK AO2 SLP163 T01890022 10189 20094 58005=
202204031652 METAR KATL 031652Z 34014KT 10SM CLR 18/03 A3003 RMK AO2 PK WND 30026/1612 SLP166 T01830033=
202204031552 METAR KATL 031552Z 35012G20KT 10SM CLR 17/04 A3004 RMK AO2 SLP169 T01720039=
202204031452 METAR KATL 031452Z 32012KT 10SM CLR 16/04 A3003 RMK AO2 SLP168 T01610039 51009=
202204031352 METAR KATL 031352Z 35011KT 10SM CLR 14/04 A3002 RMK AO2 SLP164 T01390044=
202204031252 METAR KATL 031252Z 32009KT 10SM CLR 12/04 A3002 RMK AO2 SLP163 T01170039=
202204031152 METAR KATL 031152Z 31006KT 10SM CLR 09/03 A3001 RMK AO2 SLP159 T00940033 10117 20089 53014=
202204031052 METAR KATL 031052Z 31007KT 10SM CLR 09/03 A2998 RMK AO2 SLP152 T00890033=
202204030952 METAR KATL 030952Z 31007KT 10SM CLR 10/03 A2997 RMK AO2 SLP147 T01000028=
202204030852 METAR KATL 030852Z 32007KT 10SM CLR 10/03 A2996 RMK AO2 SLP145 T01000033 58012=
202204030752 METAR KATL 030752Z 32007KT 10SM CLR 11/04 A2998 RMK AO2 SLP148 T01060039=
202204030652 METAR KATL 030652Z 31009KT 10SM CLR 11/04 A2999 RMK AO2 SLP153 T01110039=
202204030552 METAR KATL 030552Z 30005KT 10SM CLR 11/04 A3000 RMK AO2 SLP156 T01110044 10172 20111 58004=
202204030452 METAR KATL 030452Z 28005KT 10SM CLR 12/04 A3001 RMK AO2 SLP159 T01220039 402060089=
202204030352 METAR KATL 030352Z 30005KT 10SM CLR 13/04 A3001 RMK AO2 SLP159 T01280044=
202204030252 METAR KATL 030252Z 29008KT 10SM CLR 14/04 A3001 RMK AO2 SLP161 FROPA T01390039 53013=
202204030152 METAR KATL 030152Z 24004KT 10SM CLR 14/03 A3000 RMK AO2 SLP157 T01440033=
202204030052 METAR KATL 030052Z 20005KT 10SM CLR 15/03 A2998 RMK AO2 SLP151 T01500033=
202204022352 METAR KATL 022352Z 21005KT 10SM FEW120 17/02 A2997 RMK AO2 SLP148 T01720022 10206 20172 55004=
202204022252 METAR KATL 022252Z 19006KT 10SM FEW005 SCT110 18/02 A2997 RMK AO2 SLP146 FU FEW005 NE T01830022=
202204022152 METAR KATL 022152Z 18009KT 10SM FEW002 FEW110 FEW160 19/02 A2996 RMK AO2 SLP142 FU FEW002 NE T01890022=
202204022052 METAR KATL 022052Z 19006KT 10SM SCT080 BKN110 BKN160 18/02 A2998 RMK AO2 SLP152 T01780022 58029=
202204021952 METAR KATL 021952Z 24003KT 10SM SCT080 BKN120 BKN160 18/01 A3001 RMK AO2 SLP162 T01830006=
202204021852 METAR KATL 021852Z 29009KT 10SM SCT075 SCT110 BKN150 BKN250 19/01 A3004 RMK AO2 SLP171 T01940011=
202204021752 METAR KATL 021752Z 21006KT 10SM SCT075 BKN110 BKN160 18/02 A3007 RMK AO2 SLP181 T01780017 10183 20100 58008=
202204021652 METAR KATL 021652Z 25007KT 10SM SCT150 BKN200 BKN250 18/03 A3011 RMK AO2 SLP193 T01830028=
202204021552 METAR KATL 021552Z 14005KT 10SM SCT150 SCT200 BKN250 16/02 A3011 RMK AO2 SLP194 T01560022=
202204021452 METAR KATL 021452Z VRB04KT 10SM FEW150 SCT200 SCT250 14/03 A3010 RMK AO2 SLP190 T01390028 53002=
202204021352 METAR KATL 021352Z 08008KT 10SM FEW150 SCT200 SCT250 12/02 A3009 RMK AO2 SLP188 T01220022=
202204021252 METAR KATL 021252Z 07010KT 10SM FEW200 SCT250 10/01 A3008 RMK AO2 SLP186 T01000011=
202204021152 METAR KATL 021152Z 05006KT 10SM SCT200 SCT250 10/00 A3009 RMK AO2 SLP188 T01000000 10106 20089 53018=
202204021052 METAR KATL 021052Z 04004KT 10SM FEW180 BKN250 09/01 A3006 RMK AO2 SLP176 T00940006=
202204020952 METAR KATL 020952Z 00000KT 10SM SCT250 10/01 A3004 RMK AO2 SLP169 T01000006=
202204020852 METAR KATL 020852Z 01003KT 10SM FEW250 09/01 A3003 RMK AO2 SLP168 T00940011 58010=
202204020752 METAR KATL 020752Z 33006KT 10SM FEW250 09/02 A3005 RMK AO2 SLP174 T00890017=
202204020652 METAR KATL 020652Z 33006KT 10SM FEW250 09/01 A3005 RMK AO2 SLP175 T00940011=
202204020552 METAR KATL 020552Z 34005KT 10SM CLR 11/01 A3006 RMK AO2 SLP179 T01060011 10172 20106 58004=
202204020452 METAR KATL 020452Z 33005KT 10SM CLR 11/02 A3007 RMK AO2 SLP182 T01110017 401940089=
202204020352 METAR KATL 020352Z 33005KT 10SM CLR 12/02 A3008 RMK AO2 SLP184 T01220017=
202204020252 METAR KATL 020252Z 33006KT 10SM CLR 13/02 A3008 RMK AO2 SLP184 T01330017 53015=
202204020152 METAR KATL 020152Z 33008KT 10SM FEW250 14/01 A3006 RMK AO2 SLP179 T01440006=
202204020052 METAR KATL 020052Z 35006KT 10SM SCT250 16/01 A3005 RMK AO2 SLP175 T01560006=
202204012352 METAR KATL 012352Z 32008KT 10SM FEW250 17/M01 A3003 RMK AO2 SLP169 T01721006 10194 20161 53009=
202204012252 METAR KATL 012252Z 31007KT 10SM FEW250 19/M01 A3002 RMK AO2 SLP163 T01891011=
202204012152 METAR KATL 012152Z 30006KT 10SM FEW250 19/M01 A3001 RMK AO2 SLP159 T01941006=
202204012052 METAR KATL 012052Z 30006KT 10SM FEW250 19/00 A3001 RMK AO2 SLP159 T01940000 56011=
202204011952 METAR KATL 011952Z 30008KT 10SM FEW250 19/01 A3001 RMK AO2 SLP159 T01890006=
202204011852 METAR KATL 011852Z 29010KT 10SM FEW250 18/01 A3002 RMK AO2 SLP164 T01780011=
202204011752 METAR KATL 011752Z 29012G20KT 10SM FEW250 17/00 A3004 RMK AO2 SLP170 T01670000 10167 20089 50002=
202204011652 METAR KATL 011652Z VRB04KT 10SM FEW250 14/01 A3005 RMK AO2 SLP173 T01440011=
202204011552 METAR KATL 011552Z 30010G17KT 10SM FEW250 13/01 A3005 RMK AO2 SLP175 T01330006=
202204011452 METAR KATL 011452Z 31014G22KT 10SM FEW042 FEW250 13/02 A3003 RMK AO2 SLP169 T01280022 51022=
202204011352 METAR KATL 011352Z 31011KT 10SM FEW250 11/03 A3001 RMK AO2 SLP161 T01110028=
202204011252 METAR KATL 011252Z 29009KT 10SM FEW250 10/04 A3000 RMK AO2 SLP156 T01000039=
