##########################################################
# Query made at 04/20/2024 00:23:36 UTC
# Time interval: from 08/01/2022 12:00  to 08/31/2022 12:59  UTC
##########################################################

##########################################################
# KATL, Atlanta, Hartsfield - Jackson Atlanta International Airport (United States)
# WMO index: 72219. WIGOS ID: 0-20000-0-72219
# Latitude 33-38-59N. Longitude 084-25-00W. Altitude 312 m.
##########################################################

202208311252 METAR KATL 311252Z 33007KT 10SM FEW007 FEW200 FEW250 23/22 A3004 RMK AO2 SLP162 T02330217=
202208311152 METAR KATL 311152Z 33006KT 7SM FEW004 FEW200 SCT250 23/22 A3003 RMK AO2 SLP159 70028 T02280217 10239 20222 53006=
202208311052 METAR KATL 311052Z 32006KT 6SM BR SCT004 BKN250 23/22 A3002 RMK AO2 SLP155 T02280217=
202208310952 METAR KATL 310952Z 33007KT 2SM BR OVC005 23/22 A3001 RMK AO2 SFC VIS 6 SLP153 CIG 004V007 T02280217=
202208310918 SPECI KATL 310918Z 33008KT 2SM BR OVC005 23/22 A3001 RMK AO2 SFC VIS 6 CIG 004V007 T02280217=
202208310852 METAR KATL 310852Z 33007KT 2SM BR OVC004 23/22 A3001 RMK AO2 SFC VIS 6 SLP152 CIG 003V006 TWRINC T02280222 55000=
202208310752 METAR KATL 310752Z 32008KT 1SM R09R/P6000FT BR BKN003 23/22 A3000 RMK AO2 SFC VIS 6 SLP147 T02280222=
202208310652 METAR KATL 310652Z 32008KT 1SM R09R/P6000FT BR OVC002 23/22 A3000 RMK AO2 SFC VIS 5 SLP146 T02280222=
202208310623 SPECI KATL 310623Z 32009KT 1SM R09R/P6000FT BR BKN003 23/22 A3000 RMK AO2 SFC VIS 4 T02280222=
202208310619 SPECI KATL 310619Z 32009KT 6SM BR BKN003 23/22 A3000 RMK AO2 T02280222=
202208310552 METAR KATL 310552Z 31008KT 10SM FEW003 SCT250 23/22 A3001 RMK AO2 SLP150 T02280222 10239 20228 58003=
202208310452 METAR KATL 310452Z 30005KT 10SM FEW003 SCT250 23/22 A3002 RMK AO2 SLP154 T02280222 403280222=
202208310352 METAR KATL 310352Z 29005KT 10SM FEW004 SCT200 BKN250 23/22 A3002 RMK AO2 SLP155 T02280222=
202208310252 METAR KATL 310252Z 28004KT 10SM FEW004 BKN200 BKN250 23/22 A3002 RMK AO2 SLP154 T02330222 53008=
202208310152 METAR KATL 310152Z 29004KT 10SM SCT004 BKN200 BKN250 23/22 A3000 RMK AO2 SLP150 T02330222=
202208310112 SPECI KATL 310112Z 27003KT 10SM FEW005 SCT150 BKN200 BKN250 23/22 A2999 RMK AO2 T02330222=
202208310052 METAR KATL 310052Z 25003KT 10SM FEW150 BKN200 BKN250 23/22 A2999 RMK AO2 SLP146 T02330222=
202208302352 METAR KATL 302352Z 30004KT 10SM FEW110 SCT150 BKN200 BKN250 24/22 A2999 RMK AO2 SLP147 60028 T02390222 10328 20233 50005 $=
202208302252 METAR KATL 302252Z 34004KT 10SM FEW010 SCT045 BKN110 BKN200 OVC250 24/22 A3000 RMK AO2 RAE49 SLP151 P0000 T02390222 $=
202208302118 SPECI KATL 302118Z 26004KT 10SM -RA FEW030 SCT080 BKN120 BKN200 24/22 A2998 RMK AO2 TSE18 LTG DSNT NE-SE TS MOVD E CB DSNT NE-SE P0001 T02390222=
202208302057 SPECI KATL 302057Z 32011KT 5SM R09R/6000VP6000FT -TSRA BR SCT030CB BKN055 OVC120 24/22 A2998 RMK AO2 LTG DSNT ALQDS OCNL LTGICCA NE-SE TS NE-SE MOV E CB DSNT ALQDS P0001 T02390222=
202208302052 METAR KATL 302052Z 34009G27KT 2SM R09R/6000VP6000FT +TSRA BR SCT018 BKN033CB OVC090 23/22 A2998 RMK AO2 PK WND 33036/2023 RAB20 PRESFR SLP141 VIS N-NE 3/4 OCNL LTGICCA NE-OHD-SW TS NE-OHD-SW MOV E P0027 60027 T02330222 55009=
202208302050 SPECI KATL 302050Z 34011G27KT 2SM R09R/2200VP6000FT +TSRA BR SCT021 BKN033CB BKN090 OVC200 23/22 A2998 RMK AO2 PK WND 33036/2023 RAB20 PRESFR VIS N-NE 3/4 OCNL LTGICCGCA NE-OHD-SW TS NE-OHD-SW MOV E P0026=
202208302035 SPECI KATL 302035Z 34019G29KT 3/4SM R09R/3500VP6000FT +TSRA BR FEW014 BKN033CB OVC080 24/22 A3001 RMK AO2 PK WND 33036/2023 RAB20 FRQ LTGICCGCA NE-OHD-SW TS NE-OHD-SW MOV E P0005 T02440222=
202208302031 SPECI KATL 302031Z 33022G36KT 1SM R09R/3500VP6000FT TSRA FEW014 BKN033CB BKN100 BKN200 25/22 A3000 RMK AO2 PK WND 33036/2023 RAB20 VIS HYR E-S FRQ LTGICCGCA NE-OHD-SW TS NE-OHD-SW MOV E P0000 T02500222=
202208302021 SPECI KATL 302021Z 32022G36KT 8SM -TSRA FEW026 BKN044CB BKN120 BKN200 28/21 A3000 RMK AO2 PK WND 33036/2018 RAB20 PRESRR VIS LWR NW-NE FRQ LTGICCGCA NW-NE TS NW-NE MOV E SHELF CLOUD NW-N MOV SE P0000 T02830211=
202208301952 METAR KATL 301952Z 25007KT 210V280 10SM TS SCT045CB SCT110 BKN200 BKN250 32/22 A2997 RMK AO2 LTG DSNT W-N TSB51 SLP136 OCNL LTGICCG VC N-NE TS VC N-NE MOV E CB DSNT W-N T03220217=
202208301852 SPECI KATL 301852Z 23008KT 10SM SCT040TCU SCT120 SCT200 BKN250 32/22 A2998 RMK AO2 SLP140 CB DSNT NW TCU N-NE MDT CU ALQDS T03170217=
202208301852 METAR KATL 301852Z 23008KT 10SM SCT040TCU SCT120 SCT200 BKN250 32/22 A2998 RMK AO2 SLP140 CB DSNT NW TCU N-NE MDT CU ALQDS T03170217=
202208301752 METAR KATL 301752Z 20004KT 10SM SCT036 SCT130 BKN200 BKN250 31/21 A3001 RMK AO2 SLP148 TCU DSNT NW MDT CU ALQDS T03060211 10317 20222 58025=
202208301552 METAR KATL 301552Z 36005KT 10SM FEW028 FEW110 SCT200 SCT250 29/22 A3006 RMK AO2 SLP169 ACC DSNT NW T02940222 $=
202208301452 METAR KATL 301452Z 00000KT 10SM FEW022 FEW030 SCT200 SCT250 28/22 A3008 RMK AO2 SLP175 T02780217 52005=
202208301352 METAR KATL 301352Z 13004KT 10SM FEW012 SCT016 SCT200 SCT250 25/22 A3007 RMK AO2 SLP172 T02500217=
202208301347 SPECI KATL 301347Z 00000KT 10SM SCT010 SCT014 SCT200 BKN250 25/22 A3007 RMK AO2=
202208301317 SPECI KATL 301317Z 19003KT 7SM BKN008 BKN012 BKN250 23/21 A3008 RMK AO2 CIG 007V010 T02330211=
202208301252 METAR KATL 301252Z 00000KT 1 1/2SM BKN007 BKN011 BKN250 23/21 A3008 RMK AO2 SFC VIS 8 SLP173 T02280211=
202208301152 METAR KATL 301152Z VRB03KT 1 1/2SM BR BKN005 BKN250 22/21 A3007 RMK AO2 SFC VIS 6 SLP170 BKN005 V SCT T02220211 10244 20222 53011=
202208301122 SPECI KATL 301122Z 15003KT 1 1/2SM BR BKN005 BKN250 22/21 A3006 RMK AO2 SFC VIS 6 BKN005 V SCT T02220211=
202208301052 METAR KATL 301052Z 16003KT 1 1/2SM BR BKN004 BKN250 22/21 A3005 RMK AO2 SFC VIS 6 SLP165 BKN004 V SCT T02220211=
202208300952 METAR KATL 300952Z 07005KT 1 1/2SM BR OVC004 23/22 A3004 RMK AO2 SFC VIS 6 SLP163 T02280217=
202208300852 METAR KATL 300852Z 10005KT 1 1/2SM BR OVC003 23/22 A3003 RMK AO2 SFC VIS 6 SLP159 T02280217 56005=
202208300757 SPECI KATL 300757Z 09005KT 1 1/2SM BKN003 23/22 A3005 RMK AO2 SFC VIS 7 T02330222 $=
202208300752 METAR KATL 300752Z 09005KT 10SM BKN003 23/22 A3005 RMK AO2 SLP163 T02330222 $=
202208300718 SPECI KATL 300718Z 12004KT 10SM BKN006 23/22 A3004 RMK AO2 T02330217 $=
202208300652 METAR KATL 300652Z 12004KT 10SM FEW008 23/22 A3003 RMK AO2 SLP159 T02330217 $=
202208300643 SPECI KATL 300643Z 12005KT 10SM FEW008 24/22 A3003 RMK AO2 T02390217 $=
202208300552 METAR KATL 300552Z 12005KT 10SM FEW048 24/22 A3005 RMK AO2 SLP165 T02440217 10300 20244 56002 $=
202208300452 METAR KATL 300452Z 14004KT 10SM CLR 25/22 A3006 RMK AO2 SLP168 T02500217 403220228 $=
202208300352 METAR KATL 300352Z 11003KT 10SM CLR 25/22 A3004 RMK AO2 SLP161 T02500217 $=
202208300252 METAR KATL 300252Z 12003KT 10SM FEW045 26/22 A3006 RMK AO2 SLP167 T02560217 50014 $=
202208300152 METAR KATL 300152Z 10008KT 10SM FEW045 27/21 A3007 RMK AO2 SLP171 T02720211 $=
202208300052 METAR KATL 300052Z 13003KT 10SM FEW045 FEW200 29/21 A3003 RMK AO2 SLP158 LTG DSNT NE SE CB DSNT NE SE T02890211 $=
202208292352 METAR KATL 292352Z 12004KT 10SM FEW045 FEW080 30/20 A3002 RMK AO2 SLP153 TCU DSNT N NE-SE T03000200 10322 20294 55003 $=
202208292252 METAR KATL 292252Z 10005KT 10SM FEW045 FEW200 31/20 A3001 RMK AO2 SLP151 T03060200 $=
202208292152 METAR KATL 292152Z 07009KT 10SM FEW045 FEW200 32/20 A3001 RMK AO2 SLP151 MDT CU W T03170200 $=
202208292052 METAR KATL 292052Z 11008KT 10SM FEW048 SCT070 SCT200 31/21 A3002 RMK AO2 SLP156 CB DSNT E-SE TCU DSNT N MDT CU NW-NE T03110206 56025 $=
202208291952 METAR KATL 291952Z 07005KT 10SM SCT042 SCT065 31/20 A3004 RMK AO2 SLP163 TCU DSNT NE E W MDT CU ALQDS T03060200 $=
202208291852 METAR KATL 291852Z 12008KT 10SM SCT039 BKN060 30/21 A3007 RMK AO2 SLP173 MDT CU OHD ALQDS T03000211 $=
202208291752 METAR KATL 291752Z 09008G15KT 10SM SCT037 BKN060 30/21 A3010 RMK AO2 SLP181 TCU DSNT NE-SE MDT CU ALQDS T03000206 10306 20233 58007 $=
202208291652 METAR KATL 291652Z 06008KT 10SM SCT033 BKN055 29/21 A3012 RMK AO2 SLP187 TCU DSNT NE-E MDT CU ALQDS T02940211=
202208291552 METAR KATL 291552Z 08007KT 10SM SCT030 BKN044 28/21 A3013 RMK AO2 SLP191 MDT CU ALQDS T02830211=
202208291452 METAR KATL 291452Z VRB03KT 10SM SCT022 BKN040 28/22 A3012 RMK AO2 SLP189 MDT CU ALQDS T02780217 51014=
202208291352 METAR KATL 291352Z 05004KT 10SM FEW016 FEW040 27/22 A3011 RMK AO2 SLP185 T02670222=
202208291252 METAR KATL 291252Z 06004KT 10SM FEW040 25/22 A3010 RMK AO2 SLP181 T02500217=
202208291152 METAR KATL 291152Z 07008KT 10SM FEW040 23/21 A3008 RMK AO2 SLP175 T02330211 10250 20228 52012 $=
202208291052 METAR KATL 291052Z 05004KT 10SM FEW250 23/21 A3007 RMK AO2 SLP172 T02330211 $=
202208290952 METAR KATL 290952Z 09004KT 10SM CLR 23/21 A3006 RMK AO2 SLP167 T02280206 $=
202208290852 METAR KATL 290852Z 09006KT 10SM CLR 23/21 A3005 RMK AO2 SLP163 T02330211 55007 $=
202208290752 METAR KATL 290752Z 09003KT 10SM CLR 24/21 A3004 RMK AO2 SLP161 T02390211 $=
202208290652 METAR KATL 290652Z 08005KT 10SM FEW055 FEW250 24/21 A3005 RMK AO2 SLP165 T02440211 $=
202208290552 METAR KATL 290552Z 09004KT 10SM FEW055 FEW250 25/21 A3007 RMK AO2 SLP170 T02500211 10294 20250 50002 $=
202208290452 METAR KATL 290452Z 12003KT 10SM FEW045 FEW250 26/21 A3007 RMK AO2 SLP171 T02560211 403170228 $=
202208290352 METAR KATL 290352Z 13003KT 10SM FEW250 26/21 A3007 RMK AO2 SLP170 T02560211 $=
202208290252 METAR KATL 290252Z 00000KT 10SM FEW250 26/22 A3006 RMK AO2 SLP168 T02610217 52021 $=
202208290152 METAR KATL 290152Z 13003KT 10SM FEW045 FEW250 27/21 A3004 RMK AO2 SLP161 CB DSNT NE T02670211 $=
202208290052 METAR KATL 290052Z 13003KT 10SM FEW045 FEW250 28/21 A3002 RMK AO2 SLP154 CB DSNT NE AND W T02830206 $=
202208282352 METAR KATL 282352Z 12008KT 10SM FEW045 FEW200 FEW250 29/21 A3000 RMK AO2 SLP147 CB DSNT NE TCU DSNT S T02940206 10317 20294 56005 $=
202208282252 METAR KATL 282252Z 12007KT 10SM FEW045 FEW250 31/21 A3000 RMK AO2 SLP147 CB DSNT NE TCU DSNT NE T03060206 $=
202208282152 METAR KATL 282152Z 12008KT 10SM FEW045 SCT250 31/20 A3001 RMK AO2 SLP149 CB DSNT NE TCU DSNT S T03110200 $=
202208282052 METAR KATL 282052Z VRB05KT 10SM FEW045 FEW250 32/19 A3001 RMK AO2 SLP151 TCU DSNT NE MDT CU ALQDS T03170194 56018 $=
202208281952 METAR KATL 281952Z 13007KT 100V160 10SM FEW046 FEW250 32/20 A3003 RMK AO2 SLP157 TCU DSNT NE S NW MDT CU ALQDS T03170200 $=
202208281852 METAR KATL 281852Z 12007KT 10SM SCT044TCU SCT250 32/21 A3005 RMK AO2 SLP163 TCU N MDT CU ALQDS T03170206 $=
202208281752 METAR KATL 281752Z 15008KT 10SM SCT036 SCT250 31/22 A3007 RMK AO2 SLP169 MDT CU ALQDS T03110217 10311 20228 58007 $=
202208281652 METAR KATL 281652Z VRB04KT 10SM SCT028 SCT250 29/22 A3008 RMK AO2 SLP175 MDT CU W-N T02940222 $=
202208281552 METAR KATL 281552Z 15006KT 10SM SCT020 SCT250 28/23 A3009 RMK AO2 SLP177 T02830228 $=
202208281507 SPECI KATL 281507Z 09005KT 10SM SCT011 SCT250 26/22 A3009 RMK AO2 T02610222 $=
202208281452 METAR KATL 281452Z 09006KT 10SM BKN009 BKN250 26/23 A3009 RMK AO2 SLP177 T02610228 51016 $=
202208281352 METAR KATL 281352Z 09005KT 10SM BKN009 BKN250 26/23 A3008 RMK AO2 SLP174 T02560228 $=
202208281339 SPECI KATL 281339Z 10006KT 10SM BKN009 BKN250 26/23 A3007 RMK AO2 T02560228 $=
202208281252 METAR KATL 281252Z 09007KT 10SM FEW004 SCT250 24/22 A3006 RMK AO2 SLP167 T02390222 $=
202208281152 METAR KATL 281152Z 08004KT 10SM FEW004 SCT250 23/22 A3004 RMK AO2 SLP161 T02280217 10256 20228 53012 $=
202208281102 SPECI KATL 281102Z 04007KT 10SM FEW005 SCT200 SCT250 23/22 A3002 RMK AO2 T02280217 $=
202208281052 METAR KATL 281052Z 04008KT 10SM FEW200 SCT250 23/22 A3002 RMK AO2 SLP153 T02280217 $=
202208280952 METAR KATL 280952Z 08005KT 10SM FEW005 FEW200 SCT250 23/22 A3000 RMK AO2 SLP149 T02280217 $=
202208280852 METAR KATL 280852Z 10003KT 10SM FEW007 FEW035 FEW200 SCT250 24/22 A3000 RMK AO2 SLP148 T02390222 55003 $=
202208280752 METAR KATL 280752Z 00000KT 10SM FEW009 FEW032 FEW150 SCT200 SCT250 24/22 A2999 RMK AO2 SLP144 T02440222 $=
202208280652 METAR KATL 280652Z 09007KT 10SM FEW009 FEW032 SCT150 SCT200 SCT250 24/22 A3001 RMK AO2 SLP151 T02440222 $=
202208280552 METAR KATL 280552Z 00000KT 10SM FEW010 SCT038 SCT150 SCT200 SCT250 26/23 A3001 RMK AO2 LTG DSNT NW SLP151 CB DSNT NW 60000 T02560228 10300 20256 50000 $=
202208280452 METAR KATL 280452Z 00000KT 10SM FEW020 SCT045 SCT100 BKN150 BKN200 BKN250 26/23 A3002 RMK AO2 SLP153 CONS LTGICCCCG N AND NE CB DSNT N AND NE T02560228 403220228 $=
202208280352 METAR KATL 280352Z 00000KT 10SM FEW042 SCT070 SCT150 SCT200 BKN250 26/22 A3001 RMK AO2 SLP151 FRQ LTGICCCCG DSNT NE CB DSNT NE OCNL LTGICCC DSNT W T02610222 $=
202208280252 METAR KATL 280252Z 18004KT 10SM FEW042 SCT070 BKN250 26/22 A3001 RMK AO2 SLP151 60000 T02610222 51020 $=
202208280152 METAR KATL 280152Z 18004KT 10SM SCT042 SCT050 SCT110 BKN250 27/22 A3000 RMK AO2 SLP147 SHRA DSNT N T02670217 $=
202208280052 METAR KATL 280052Z 35006KT 10SM SCT040 SCT050 SCT110 BKN250 28/21 A2997 RMK AO2 SLP137 RAB2354E30 TCU DSNT NE SHRA DSNT NE P0000 T02780206 $=
202208272352 METAR KATL 272352Z 12004KT 10SM SCT035CB SCT044 BKN110 BKN250 30/21 A2995 RMK AO2 LTG DSNT NE SLP131 CB OHD-W CB DSNT N-NE T03000211 10322 20294 55000 $=
202208272252 METAR KATL 272252Z 17005KT 10SM FEW020 SCT035CB SCT110 SCT200 BKN250 31/22 A2995 RMK AO2 SLP130 CB VC NW-NE TCU DSNT NE SHRA DSNT NE T03110217=
202208272152 METAR KATL 272152Z 13005KT 10SM SCT035 SCT100 BKN250 30/22 A2995 RMK AO2 SLP130 CB DSNT N-NE TCU DSNT NW MDT CU W SHRA DSNT NW T03000217=
202208272052 METAR KATL 272052Z 00000KT 10SM SCT038 SCT100 SCT200 32/22 A2995 RMK AO2 SLP130 CB DSNT NW-N TCU DSNT NE W-NW T03170217 57019=
202208271952 METAR KATL 271952Z 18003KT 10SM FEW034 SCT100 SCT200 31/23 A2996 RMK AO2 SLP135 CB DSNT N TCU DSNT W-N-NE T03110228=
202208271852 METAR KATL 271852Z 00000KT 10SM FEW032 BKN100 BKN200 30/22 A3000 RMK AO2 SLP146 TCU DSNT S-W-N-NE T03000217=
202208271752 METAR KATL 271752Z 09007KT 10SM SCT030CB BKN100 BKN250 30/23 A3001 RMK AO2 RAE13 SLP150 CB NE S-SW MOV STNRY TCU SW-NW-N P0000 60000 T03000228 10311 20233 58015=
202208271652 METAR KATL 271652Z 04009G17KT 8SM -RA SCT030CB BKN055 BKN100 BKN250 29/22 A3003 RMK AO2 RAB50 SLP157 CB OHD-N MOV STNRY TCU S-W P0000 T02940222=
202208271552 METAR KATL 271552Z 13003KT 10SM SCT028TCU SCT250 30/22 A3004 RMK AO2 SLP161 TCU N MDT CU ALQDS T03000222=
202208271452 METAR KATL 271452Z 09004KT 10SM FEW022 FEW250 29/22 A3005 RMK AO2 SLP166 T02890222 50004=
202208271352 METAR KATL 271352Z 00000KT 10SM FEW009 FEW250 27/23 A3005 RMK AO2 SLP166 T02670233=
202208271252 METAR KATL 271252Z 08005KT 10SM FEW006 SCT250 24/23 A3005 RMK AO2 SLP165 T02390228=
202208271152 METAR KATL 271152Z 09005KT 10SM FEW005 FEW200 SCT250 23/22 A3004 RMK AO2 SLP161 T02330222 10239 20228 53014=
202208271052 METAR KATL 271052Z 09003KT 10SM FEW005 FEW200 SCT250 23/22 A3002 RMK AO2 SLP154 T02280217=
202208271050 SPECI KATL 271050Z 00000KT 10SM FEW005 FEW200 SCT250 23/22 A3002 RMK AO2=
202208270952 METAR KATL 270952Z 27003KT 10SM FEW050 SCT200 SCT250 23/22 A3000 RMK AO2 SLP148 T02280222=
202208270852 METAR KATL 270852Z 27006KT 10SM FEW050 SCT200 23/22 A2999 RMK AO2 SLP146 T02330222 56014=
202208270752 METAR KATL 270752Z 29004KT 10SM FEW050 SCT200 BKN250 23/22 A3000 RMK AO2 SLP148 T02330222=
202208270652 METAR KATL 270652Z 00000KT 10SM FEW050 SCT200 BKN250 23/22 A3002 RMK AO2 SLP153 T02330222=
202208270552 METAR KATL 270552Z 21003KT 10SM FEW050 SCT200 BKN250 24/22 A3004 RMK AO2 SLP160 T02390222 10289 20233 58003=
202208270452 METAR KATL 270452Z 20004KT 10SM FEW045 SCT200 BKN250 24/23 A3005 RMK AO2 SLP164 T02390228 403110222=
202208270352 METAR KATL 270352Z 19006KT 10SM FEW045 SCT200 BKN250 25/23 A3005 RMK AO2 SLP163 T02500228=
202208270252 METAR KATL 270252Z 17004KT 10SM FEW045TCU SCT100 BKN200 BKN250 26/23 A3005 RMK AO2 SLP163 TCU S DSNT NW-N T02560228 53019=
202208270152 METAR KATL 270152Z 21003KT 10SM SCT045 BKN200 BKN250 26/22 A3003 RMK AO2 SLP158 T02560222=
202208270052 METAR KATL 270052Z 22003KT 10SM FEW200 SCT250 27/22 A3000 RMK AO2 SLP148 LTG DSNT SW CB DSNT SW T02670217=
202208262352 METAR KATL 262352Z 22004KT 10SM FEW040 SCT200 BKN250 29/21 A2999 RMK AO2 SLP144 T02890211 10311 20278 58001=
202208262252 METAR KATL 262252Z 32005KT 10SM FEW040TCU SCT200 30/20 A3000 RMK AO2 SLP146 TCU SE DSNT S T03000200 $=
202208262152 METAR KATL 262152Z 33004KT 10SM SCT040TCU SCT070 BKN200 31/20 A3000 RMK AO2 SLP146 TCU OHD-ALQDS T03060200 $=
202208262052 METAR KATL 262052Z 25003KT 10SM SCT037TCU SCT070 SCT250 31/20 A2999 RMK AO2 SLP144 TCU OHD-SE DSNT S MDT CU ALQDS T03060200 56021 $=
202208261952 METAR KATL 261952Z 30007KT 10SM SCT038 SCT200 31/21 A3000 RMK AO2 SLP149 TCU DSNT N MDT CU ALQDS T03060211 $=
202208261852 METAR KATL 261852Z 27006KT 10SM SCT032TCU SCT060 29/21 A3003 RMK AO2 SLP159 TCU N S MDT CU ALQDS T02890206=
202208261752 METAR KATL 261752Z 31006KT 10SM SCT028 SCT200 28/21 A3005 RMK AO2 SLP167 MDT CU ALQDS T02830211 10294 20222 58012=
202208261652 METAR KATL 261652Z 31004KT 10SM SCT025TCU BKN050 BKN250 28/22 A3007 RMK AO2 SLP174 TCU NW-N MDT CU ALQDS T02830217=
202208261552 METAR KATL 261552Z 00000KT 10SM SCT021TCU BKN042 BKN200 27/21 A3009 RMK AO2 SLP179 TCU NE MDT CU ALQDS T02720211=
202208261521 SPECI KATL 261521Z VRB04KT 10SM BKN017 BKN200 27/22 A3009 RMK AO2 MDT CU ALQDS T02720222=
202208261452 METAR KATL 261452Z 00000KT 10SM SCT015 SCT033 SCT200 27/22 A3009 RMK AO2 SLP179 MDT CU ALQDS T02670222 51006=
202208261352 METAR KATL 261352Z 30007KT 10SM FEW011 BKN034 BKN200 24/22 A3009 RMK AO2 SLP179 T02440217=
202208261252 METAR KATL 261252Z 28003KT 10SM FEW005 SCT025 BKN035 BKN200 23/22 A3008 RMK AO2 SLP178 T02280217=
202208261152 METAR KATL 261152Z 28003KT 10SM SCT025 BKN042 BKN055 BKN150 BKN200 22/22 A3007 RMK AO2 RAE24 SLP174 P0006 60013 70041 T02220217 10228 20222 53002=
202208261122 SPECI KATL 261122Z 00000KT 8SM -RA SCT017 BKN025 OVC037 22/22 A3007 RMK AO2 P0006 T02220217=
202208261052 METAR KATL 261052Z 24003KT 6SM +RA BR BKN016 BKN030 BKN045 22/21 A3007 RMK AO2 RAB36 SLP173 VIS LWR SW-NW P0002 T02220211=
202208261048 SPECI KATL 261048Z 27003KT 6SM RA BR BKN016 BKN030 BKN045 22/21 A3007 RMK AO2 RAB36 P0000=
202208260952 METAR KATL 260952Z 00000KT 10SM FEW005 BKN047 BKN070 BKN140 22/21 A3006 RMK AO2 RAE15 SLP171 P0003 T02220211=
202208260923 SPECI KATL 260923Z 33005KT 10SM FEW005 SCT025 OVC042 22/21 A3006 RMK AO2 RAE15 BINOVC P0003 T02220211=
202208260907 SPECI KATL 260907Z 31005KT 8SM -RA FEW015 BKN026 OVC042 22/21 A3006 RMK AO2 P0002 T02220211=
202208260852 METAR KATL 260852Z 29006KT 7SM RA FEW005 SCT020 OVC030 22/22 A3007 RMK AO2 RAB45 SLP173 VIS LWR SW-W BINOVC P0001 60002 T02220217 58012=
202208260825 SPECI KATL 260825Z 34003KT 10SM FEW005 SCT030 BKN070 BKN250 22/22 A3007 RMK AO2 T02220217=
202208260752 METAR KATL 260752Z 33003KT 10SM FEW005 BKN028 BKN033 BKN250 22/21 A3008 RMK AO2 RAB09E45 SLP176 P0001 T02220211=
202208260750 SPECI KATL 260750Z 32004KT 10SM FEW005 BKN028 BKN033 BKN250 22/21 A3008 RMK AO2 RAB09E45 P0001=
202208260652 METAR KATL 260652Z 00000KT 10SM FEW005 BKN030 BKN040 BKN250 23/22 A3009 RMK AO2 SLP181 FU FEW005 T02280217=
202208260552 METAR KATL 260552Z 22003KT 10SM FEW032 SCT040 BKN055 BKN250 23/22 A3010 RMK AO2 SLP183 T02280217 10239 20228 50001=
202208260452 METAR KATL 260452Z 00000KT 10SM FEW065 BKN090 BKN250 23/22 A3011 RMK AO2 SLP186 T02280217 402830211=
202208260352 METAR KATL 260352Z 00000KT 10SM SCT070 BKN200 BKN250 23/22 A3011 RMK AO2 SLP187 T02280217=
202208260252 METAR KATL 260252Z 16004KT 10SM FEW012 FEW080 BKN250 23/22 A3010 RMK AO2 SLP183 T02280217 51012=
202208260152 METAR KATL 260152Z 00000KT 10SM FEW080 SCT200 BKN250 23/22 A3009 RMK AO2 SLP182 T02280217=
202208260052 METAR KATL 260052Z 00000KT 10SM FEW080 SCT150 BKN200 BKN250 23/22 A3008 RMK AO2 SLP177 T02330217=
202208252352 METAR KATL 252352Z 21004KT 10SM SCT080 BKN150 BKN200 BKN250 24/22 A3006 RMK AO2 SLP172 60028 T02390217 10272 20222 55002=
202208252252 METAR KATL 252252Z 00000KT 10SM FEW090 SCT120 BKN150 BKN200 24/22 A3006 RMK AO2 RAE2154 SLP169 P0000 T02390217=
202208252152 METAR KATL 252152Z 22004KT 10SM -RA FEW030TCU SCT090 BKN120 BKN200 23/22 A3007 RMK AO2 SLP175 CB DSNT SE TCU S-SW P0001 T02330217=
202208252052 METAR KATL 252052Z 25006KT 7SM -RA FEW028CB SCT085 BKN110 BKN200 23/21 A3007 RMK AO2 SLP174 CB S-SW MOV E CB DSNT N NE E TCU DSNT NW-NE-SE P0000 60027 T02330211 58010=
202208251952 METAR KATL 251952Z 17007KT 8SM -RA FEW012 SCT028CB BKN090 BKN140 BKN200 23/21 A3008 RMK AO2 SLP178 VIS LWR SE-SW CB SE-SW MOV E TCU NW DSNT N-E ACC NW-NE P0011 T02330211=
202208251949 SPECI KATL 251949Z 17007KT 6SM -RA BR FEW014 SCT026CB BKN085 BKN140 BKN200 23/21 A3008 RMK AO2 VIS LWR SE-SW CB SE-SW MOV E TCU NW DSNT N-E P0011=
202208251909 SPECI KATL 251909Z 11005KT 6SM -RA FEW016 BKN026CB BKN065 BKN140 BKN200 24/21 A3010 RMK AO2 VIS LWR E-S SW CB SE-SW MOV E TCU NW-N P0005 T02390211=
202208251852 METAR KATL 251852Z 05004KT 3SM R09R/5000VP6000FT +RA BR SCT016 BKN023CB BKN060 OVC130 24/22 A3010 RMK AO2 RAE06B24 SLP184 VIS SE-S 1 CB SE-OHD-W MOV E TCU ALQDS P0016 T02390217=
202208251835 SPECI KATL 251835Z 34006KT 3SM R09R/4000VP6000FT RA BKN023CB BKN050 BKN100 BKN200 25/22 A3010 RMK AO2 RAE06B24 CB OHD-W-NW MOV E TCU ALQDS P0002 T02500222=
202208251752 METAR KATL 251752Z 00000KT 10SM -RA BKN026CB BKN070 BKN120 BKN200 28/21 A3010 RMK AO2 RAB50 SLP182 VIS LWR NE-E CB NE-E MOV E TCU ALQDS P0000 60000 T02780211 10283 20217 58008=
202208251652 METAR KATL 251652Z 17004KT 10SM SCT022TCU BKN075 BKN110 BKN180 BKN250 26/21 A3012 RMK AO2 SLP189 TCU NW-NE-E DSNT ALQDS SHRA NW-N T02610211=
202208251552 METAR KATL 251552Z 19008KT 10SM BKN016 BKN030 BKN075 BKN140 24/22 A3013 RMK AO2 SLP193 CIG 014V018 MDT CU ALQDS T02440217=
202208251452 METAR KATL 251452Z 18005KT 10SM BKN010 BKN040 OVC075 23/21 A3012 RMK AO2 SLP193 CIG 009V012 MDT CU ALQDS BINOVC T02330211 51009=
202208251352 METAR KATL 251352Z 14004KT 9SM BKN007 BKN038 BKN075 BKN140 23/22 A3012 RMK AO2 SLP191 CIG 005V009 T02280217=
202208251302 SPECI KATL 251302Z 14003KT 10SM BKN005 BKN075 BKN090 BKN200 OVC250 22/21 A3011 RMK AO2 BKN005 V SCT BINOVC T02170211=
202208251252 METAR KATL 251252Z 14004KT 10SM SCT005 BKN075 BKN090 BKN150 BKN200 OVC250 22/21 A3011 RMK AO2 SLP187 BINOVC T02170206=
202208251228 SPECI KATL 251228Z 16003KT 10SM SCT005 SCT090 BKN150 BKN180 BKN250 22/21 A3010 RMK AO2 T02170211=
202208251152 METAR KATL 251152Z 15005KT 10SM BKN005 BKN130 BKN200 22/21 A3010 RMK AO2 RAE43 SLP184 P0001 60031 70050 T02170206 10222 20211 53009=
202208251052 METAR KATL 251052Z 12003KT 7SM -RA FEW004 BKN007 BKN130 22/21 A3008 RMK AO2 SLP179 P0002 T02170206=
202208251023 SPECI KATL 251023Z 00000KT 7SM -RA BKN006 OVC110 22/21 A3008 RMK AO2 P0001 T02170206=
202208250952 METAR KATL 250952Z 00000KT 7SM -RA SCT005 BKN075 OVC090 22/21 A3007 RMK AO2 SLP175 BINOVC P0008 T02170206=
202208250852 METAR KATL 250852Z 18004KT 6SM -RA BR FEW005 SCT030 BKN090 22/21 A3007 RMK AO2 SLP174 P0005 60020 T02170206 56006=
202208250752 METAR KATL 250752Z 22005KT 4SM RA BR SCT006 BKN075 OVC095 22/21 A3007 RMK AO2 SLP176 P0011 T02170211=
202208250705 SPECI KATL 250705Z 19003KT 6SM -RA BR SCT007 BKN085 OVC100 22/21 A3008 RMK AO2 P0001 T02220211=
202208250652 METAR KATL 250652Z 00000KT 7SM -RA FEW060 BKN090 OVC110 22/21 A3008 RMK AO2 SLP178 P0004 T02220211=
202208250552 METAR KATL 250552Z 00000KT 7SM -RA BKN100 OVC150 22/21 A3009 RMK AO2 RAB19 SLP179 P0000 60000 T02220211 10233 20222 53004=
202208250452 METAR KATL 250452Z 00000KT 10SM FEW055 SCT100 BKN150 OVC200 22/21 A3008 RMK AO2 SLP176 T02220211 402890222=
202208250352 METAR KATL 250352Z 00000KT 10SM FEW055 BKN100 BKN150 OVC250 23/21 A3008 RMK AO2 SLP175 T02280211=
202208250252 METAR KATL 250252Z 00000KT 10SM BKN095 BKN150 OVC250 22/21 A3008 RMK AO2 SLP175 T02220211 53005=
202208250152 METAR KATL 250152Z 00000KT 10SM FEW020 SCT090 BKN150 BKN250 23/22 A3006 RMK AO2 SLP172 T02280217=
202208250052 METAR KATL 250052Z 20003KT 10SM FEW020 SCT120 BKN150 OVC200 23/21 A3005 RMK AO2 SLP167 T02280211=
202208242352 METAR KATL 242352Z 20004KT 10SM FEW008 FEW020 SCT050 BKN150 OVC200 23/22 A3006 RMK AO2 SLP171 SHRA SE-SW TCU DSNT NW 60019 T02330217 10272 20228 53012=
202208242252 METAR KATL 242252Z 22006KT 10SM FEW025 BKN140 BKN200 OVC250 24/22 A3005 RMK AO2 SLP165 T02390217=
202208242152 METAR KATL 242152Z 22005KT 10SM FEW025 BKN130 BKN200 OVC250 24/22 A3003 RMK AO2 SLP160 CB DSNT SE SW-NW T02440217=
202208242052 METAR KATL 242052Z 19005KT 10SM FEW028 BKN085 BKN130 BKN200 OVC250 24/21 A3003 RMK AO2 LTG DSNT SW SLP158 CB DSNT SW ACC OHD-ALQDS SHRA W DSNT SW 60019 T02440211 58013=
202208241952 METAR KATL 241952Z 18003KT 10SM FEW012 FEW038 BKN070 BKN130 OVC200 24/22 A3003 RMK AO2 LTG DSNT NW RAE41 TSE09 SLP161 TS DSIPTD CB DSNT W-NW ACC OHD-ALQDS SHRA NE W P0017 T02390217=
202208241910 SPECI KATL 241910Z 16004KT 6SM RA BR SCT036TCU BKN065 BKN110 OVC200 23/21 A3005 RMK AO2 TSE09 TS DSIPTD CB DSNT E NW TCU NW-NE P0014 T02280211=
202208241852 METAR KATL 241852Z 15012KT 6SM R09R/6000VP6000FT TSRA BR FEW022 BKN037CB OVC070 23/21 A3006 RMK AO2 WSHFT 1822 TSB25 SLP170 VIS LWR NE SE-S OCNL LTGICCA NE-SE-S TS NE-SE-S MOV NW CB DSNT NE E S TCU NW-NE P0002 T02280211=
202208241839 SPECI KATL 241839Z 17010G21KT 7SM -TSRA BKN037CB BKN070 OVC120 23/21 A3007 RMK AO2 WSHFT 1822 LTG DSNT NW TSB25 VIS LWR NE-SE-SW OCNL LTGICCG NE-SE-SW TS NE-SE-SW MOV NW CB DSNT E SE-S NW P0001 T02330211=
202208241825 SPECI KATL 241825Z 18014G19KT 9SM -TSRA BKN037CB BKN070 OVC120 26/21 A3006 RMK AO2 LTG DSNT NW TSB25 VIS LWR SE-SW OCNL LTGICCG SE-SW TS SE-SW MOV NW CB DSNT E-SE-S TCU OHD-ALQDS P0000 T02560206=
202208241752 METAR KATL 241752Z 01010KT 8SM -RA BKN033CB BKN070 BKN120 OVC200 27/19 A3006 RMK AO2 RAB00 SLP170 CB NW-NE MOV NW CB DSNT SE-SW TCU ALQDS P0000 60000 T02720194 10289 20233 58002=
202208241737 SPECI KATL 241737Z 02010KT 6SM -RA BKN033CB BKN080 BKN120 OVC200 27/20 A3007 RMK AO2 RAB00 VIS NE-E 1 CB OHD-NE-E MOV STNRY CB DSNT SE-SW TCU ALQDS P0000 T02720200=
202208241719 SPECI KATL 241719Z 04013KT 8SM -RA BKN033CB BKN080 BKN120 OVC200 28/20 A3006 RMK AO2 RAB00 VIS N-NE 1 CB OHD-N-NE MOV STNRY CB DSNT SE-SW TCU DSNT W-NW P0000 T02780200=
202208241707 SPECI KATL 241707Z 00000KT 8SM -RA SCT033CB BKN080 BKN120 OVC200 29/21 A3006 RMK AO2 RAB00 VIS LWR N-NE CB OHD-N-NE MOV STNRY CB DSNT SE-SW TCU DSNT W-NW P0000 T02890206=
202208241652 METAR KATL 241652Z 23004KT 10SM FEW032TCU SCT075 SCT120 BKN200 28/21 A3006 RMK AO2 SLP169 VIS LWR N SHRA CB DSNT SE-SW TCU OHD-N DSNT W-NW T02830206=
202208241552 METAR KATL 241552Z 20004KT 10SM FEW024 SCT075 BKN120 OVC200 27/20 A3007 RMK AO2 SLP173 TCU DSNT N S-SE NW ACC E-SE T02720200=
202208241452 METAR KATL 241452Z 33004KT 10SM FEW014TCU FEW075 SCT110 BKN150 OVC200 27/22 A3007 RMK AO2 SLP171 TCU N DSNT N SW T02720217 51007 $=
202208241352 METAR KATL 241352Z 36007KT 10SM FEW075 BKN110 BKN150 OVC200 25/21 A3006 RMK AO2 SLP170 VIRGA W-NW ACC N-E NW T02500211 $=
202208241252 METAR KATL 241252Z 34005KT 10SM FEW037 BKN090 OVC200 24/21 A3006 RMK AO2 SLP168 SHRA SE-SW T02440206 $=
202208241152 METAR KATL 241152Z 21003KT 10SM FEW060 OVC085 23/21 A3005 RMK AO2 SLP164 ACC NE T02330211 10239 20228 53012 $=
202208241052 METAR KATL 241052Z 00000KT 10SM BKN090 BKN110 BKN200 23/21 A3002 RMK AO2 SLP154 T02330206 $=
202208240952 METAR KATL 240952Z 32003KT 10SM OVC100 23/21 A3001 RMK AO2 SLP151 T02280206 $=
202208240852 METAR KATL 240852Z 28003KT 10SM BKN100 OVC200 23/21 A3001 RMK AO2 SLP151 T02280206 55002 $=
202208240752 METAR KATL 240752Z 27004KT 10SM SCT090 BKN200 BKN250 23/21 A3000 RMK AO2 SLP149 T02330206 $=
202208240652 METAR KATL 240652Z 26005KT 10SM BKN090 BKN200 OVC250 23/21 A3001 RMK AO2 SLP150 T02330206 $=
202208240552 METAR KATL 240552Z 24005KT 10SM SCT090 BKN200 OVC250 23/21 A3002 RMK AO2 SLP154 T02330211 10261 20233 51003 $=
202208240452 METAR KATL 240452Z 24004KT 10SM BKN095 BKN200 OVC250 24/21 A3001 RMK AO2 SLP153 T02440211 403060222 $=
202208240352 METAR KATL 240352Z 27003KT 10SM BKN090 OVC200 24/21 A3002 RMK AO2 SLP155 T02440206 $=
202208240252 METAR KATL 240252Z 28005KT 10SM BKN095 BKN200 OVC250 24/21 A3001 RMK AO2 SLP152 T02440206 51020 $=
202208240152 METAR KATL 240152Z 28006KT 10SM FEW045 BKN100 BKN200 OVC250 25/21 A3000 RMK AO2 SLP149 T02500206 $=
202208240052 METAR KATL 240052Z 24005KT 10SM SCT045TCU BKN200 OVC250 26/21 A2998 RMK AO2 SLP141 CB DSNT W-NW TCU NE-E T02560206 $=
202208232352 METAR KATL 232352Z 22005KT 10SM SCT045 BKN200 OVC250 26/21 A2995 RMK AO2 SLP132 CB DSNT SW-NW MDT CU NE-SE T02610211 10306 20261 56000 $=
202208232252 METAR KATL 232252Z 21007KT 10SM SCT045 BKN200 OVC250 28/20 A2995 RMK AO2 SLP131 MDT CU NE-OHD-SW T02830200 $=
202208232152 METAR KATL 232152Z 33004KT 10SM FEW045 SCT150 BKN200 BKN250 30/18 A2995 RMK AO2 SLP129 CB DSNT SW W MDT CU OHD-SE T03000178 $=
202208232052 METAR KATL 232052Z 32005KT 10SM FEW044 SCT100 BKN200 BKN250 29/18 A2995 RMK AO2 SLP130 CB DSNT SE-SW TCU DSNT SE ACC E-S-SW T02940183 56016 $=
202208231952 METAR KATL 231952Z 30006KT 10SM FEW046 SCT085 BKN200 BKN250 29/19 A2996 RMK AO2 SLP135 CB DSNT N-NE SE-S TCU DSNT NE T02940189 $=
202208231852 METAR KATL 231852Z 02005KT 10SM SCT040TCU SCT075 BKN200 BKN250 31/19 A2998 RMK AO2 SLP141 CB DSNT S SW TCU NE DSNT ALQDS T03060189 $=
202208231752 METAR KATL 231752Z 34007KT 10SM SCT033TCU SCT140 BKN200 BKN250 28/20 A3000 RMK AO2 SLP148 CB DSNT SW TCU ALQDS DSNT ALQDS T02830200 10289 20222 58009 $=
202208231652 METAR KATL 231652Z 30006KT 10SM FEW021 FEW060 SCT140 BKN200 BKN250 28/22 A3001 RMK AO2 SLP151 TCU DSNT N-NE T02780217 $=
202208231552 METAR KATL 231552Z 31006KT 10SM SCT017 SCT060 BKN140 BKN200 26/21 A3002 RMK AO2 SLP158 T02560211 $=
202208231452 METAR KATL 231452Z 29008KT 10SM BKN015 BKN050 BKN140 OVC200 25/22 A3002 RMK AO2 SLP157 CIG 013V017 T02500217 52013 $=
202208231352 METAR KATL 231352Z 26007KT 8SM SCT007 BKN012 BKN040 OVC130 23/22 A3001 RMK AO2 SLP153 T02280217 $=
202208231350 SPECI KATL 231350Z 26006KT 8SM SCT007 BKN012 BKN040 OVC130 23/22 A3001 RMK AO2 $=
202208231252 METAR KATL 231252Z 27007KT 8SM BKN007 OVC012 22/21 A3000 RMK AO2 SLP149 T02220211 $=
202208231152 METAR KATL 231152Z 26006KT 6SM BR OVC006 22/21 A2998 RMK AO2 SLP144 T02220211 10233 20222 53010 $=
202208231052 METAR KATL 231052Z 29007KT 7SM BKN006 22/21 A2997 RMK AO2 SLP139 T02220211 $=
202208230952 METAR KATL 230952Z 30006KT 7SM BKN006 22/21 A2996 RMK AO2 SLP133 T02220211 $=
202208230852 METAR KATL 230852Z 32006KT 10SM OVC005 22/21 A2995 RMK AO2 SLP133 T02220211 56010 $=
202208230843 SPECI KATL 230843Z 33008KT 10SM BKN006 OVC100 22/21 A2995 RMK AO2 T02220211 $=
202208230752 METAR KATL 230752Z 31005KT 10SM FEW100 SCT180 OVC250 22/21 A2995 RMK AO2 SLP134 T02220211 $=
202208230652 METAR KATL 230652Z 27003KT 10SM FEW100 SCT180 OVC250 22/21 A2997 RMK AO2 SLP138 T02220211 $=
202208230552 METAR KATL 230552Z 28005KT 10SM FEW100 SCT180 OVC250 22/21 A2999 RMK AO2 SLP145 T02220211 10256 20222 58007 $=
202208230452 METAR KATL 230452Z 29007KT 10SM FEW100 SCT200 OVC250 23/22 A3000 RMK AO2 SLP149 T02280217 402830228 $=
202208230352 METAR KATL 230352Z 26006KT 10SM FEW100 BKN200 OVC250 23/22 A3001 RMK AO2 SLP152 T02330217 $=
202208230252 METAR KATL 230252Z 26007KT 10SM BKN110 BKN200 BKN250 24/22 A3001 RMK AO2 SLP152 T02440217 51009 $=
202208230152 METAR KATL 230152Z 24005KT 10SM FEW030 SCT100 BKN200 BKN250 25/22 A3001 RMK AO2 SLP152 T02500222=
202208230052 METAR KATL 230052Z 25005KT 10SM FEW100 BKN200 BKN250 26/22 A3000 RMK AO2 SLP149 T02560217=
202208222352 METAR KATL 222352Z 27006KT 10SM FEW025 BKN200 BKN250 26/21 A2998 RMK AO2 SLP143 60000 T02560211 10283 20239 53001=
202208222252 METAR KATL 222252Z 25007KT 10SM FEW025 BKN200 BKN250 27/21 A2997 RMK AO2 SLP139 TCU DSNT S T02670206=
202208222152 METAR KATL 222152Z 28009KT 10SM FEW025 SCT150 BKN200 BKN250 28/21 A2997 RMK AO2 SLP139 CB DSNT SW TCU DSNT NW-NE T02780206=
202208222052 METAR KATL 222052Z 28010KT 10SM FEW021TCU FEW110 BKN200 BKN250 28/22 A2998 RMK AO2 LTG DSNT NE SLP141 CB DSNT N-NE SE TCU SW DSNT NE SE 60000 T02780217 58016=
202208221952 METAR KATL 221952Z 27004KT 10SM FEW016TCU SCT070 SCT110 BKN180 BKN250 26/22 A2999 RMK AO2 WSHFT 1903 RAE44 TSE28 SLP147 TS DSIPTD CB DSNT NW-NE TCU SE-S SW DSNT NW-NE P0000 T02610217=
202208221929 SPECI KATL 221929Z 33006KT 8SM -RA SCT018TCU BKN044 BKN090 BKN150 OVC200 24/21 A3000 RMK AO2 WSHFT 1903 LTG DSNT E TSE28 TS DSIPTD CB DSNT E TCU E-S-SW P0000 T02390211=
202208221921 SPECI KATL 221921Z 35010KT 7SM -TSRA SCT018CB BKN044 BKN080 OVC140 24/21 A3001 RMK AO2 WSHFT 1903 LTG DSNT E OCNL LTGIC NE TS NE MOV E TCU SE-SW P0000 T02440206=
202208221852 METAR KATL 221852Z 29007KT 10SM -TSRA SCT018CB SCT055 BKN140 OVC200 27/23 A3001 RMK AO2 RAB47 TSB27 SLP153 OCNL LTGICCGCA VC NW-NE TS VC NW-NE MOV E CB DSNT NE TCU W-N-NE P0000 T02720228=
202208221827 SPECI KATL 221827Z 23007KT 10SM TS SCT020CB SCT070 BKN140 OVC200 26/22 A3002 RMK AO2 LTG DSNT NE TSB27 OCNL LTGICCG VC NW-NE TS VC NW-NE MOV E CB DSNT NE T02610217=
202208221752 METAR KATL 221752Z 26006KT 10SM SCT018TCU SCT065 BKN140 OVC200 26/22 A3003 RMK AO2 SLP158 TCU NW-NE 60000 T02610217 10267 20228 58009=
202208221652 METAR KATL 221652Z 27006KT 10SM SCT017 SCT050 BKN060 BKN140 OVC200 26/22 A3004 RMK AO2 SLP163 T02610217=
202208221625 SPECI KATL 221625Z 29005KT 10SM SCT017 BKN090 BKN130 OVC200 26/22 A3004 RMK AO2 T02610217=
202208221552 METAR KATL 221552Z 28005KT 10SM BKN015 BKN080 BKN140 OVC200 26/22 A3005 RMK AO2 SLP166 CIG 013V017 T02610217=
202208221510 SPECI KATL 221510Z 28005KT 10SM SCT014 BKN080 BKN130 OVC200 25/22 A3006 RMK AO2 T02500222=
202208221452 METAR KATL 221452Z 26006KT 10SM FEW007 BKN012 BKN080 OVC140 24/22 A3006 RMK AO2 RAE03 SLP169 P0000 60000 T02440222 51006=
202208221352 METAR KATL 221352Z 27005KT 6SM -RA BR SCT006 BKN010 OVC060 23/22 A3006 RMK AO2 RAB33 SLP169 P0000 T02330217=
202208221328 SPECI KATL 221328Z 27006KT 10SM SCT007 BKN012 BKN075 OVC130 23/22 A3006 RMK AO2 T02280217=
202208221315 SPECI KATL 221315Z 27005KT 10SM SCT007 BKN075 BKN120 OVC200 23/22 A3005 RMK AO2 T02280217=
202208221252 METAR KATL 221252Z 28005KT 10SM BKN007 OVC075 23/22 A3005 RMK AO2 SLP167 T02280217=
202208221217 SPECI KATL 221217Z 26003KT 10SM BKN008 BKN060 OVC075 23/22 A3004 RMK AO2 T02280217=
202208221152 METAR KATL 221152Z 27004KT 10SM FEW005 SCT060 SCT110 BKN150 BKN250 23/22 A3004 RMK AO2 SLP162 60000 T02280217 10239 20228 53010=
202208221052 METAR KATL 221052Z 28004KT 10SM FEW005 BKN110 OVC180 23/22 A3002 RMK AO2 SLP155 T02280217=
202208220952 METAR KATL 220952Z 30007KT 10SM FEW110 OVC180 23/22 A3000 RMK AO2 SLP150 T02280217=
202208220852 METAR KATL 220852Z 27005KT 10SM FEW110 23/22 A3001 RMK AO2 SLP150 60000 T02330222 56013=
202208220752 METAR KATL 220752Z 27006KT 10SM FEW015 BKN120 OVC220 24/22 A3002 RMK AO2 RAB10E19 SLP154 P0000 T02390222=
202208220652 METAR KATL 220652Z 25007KT 10SM FEW015 SCT150 OVC220 24/22 A3003 RMK AO2 SLP158 T02390222=
202208220552 METAR KATL 220552Z 25006KT 10SM FEW015 SCT150 OVC220 24/22 A3005 RMK AO2 SLP164 60000 T02390217 10278 20233 57006=
202208220452 METAR KATL 220452Z 26005KT 10SM BKN160 OVC200 24/21 A3006 RMK AO2 SLP169 T02390211 403000211=
202208220352 METAR KATL 220352Z 26006KT 10SM SCT028 BKN160 OVC200 24/21 A3005 RMK AO2 RAE07 SLP167 P0000 T02440211=
202208220252 METAR KATL 220252Z 27007KT 10SM -RA SCT019 SCT035 BKN150 OVC200 24/21 A3007 RMK AO2 RAB51 SLP172 P0000 60000 T02440211 51012=
202208220152 METAR KATL 220152Z 21004KT 10SM FEW036 SCT100 BKN150 OVC200 25/22 A3006 RMK AO2 SLP170 CB DSNT SW T02500217=
202208220052 METAR KATL 220052Z 21009KT 10SM SCT023 BKN150 BKN200 26/21 A3004 RMK AO2 SLP164 CB DSNT E SW T02560211=
202208212352 METAR KATL 212352Z 28006KT 10SM SCT025TCU BKN150 BKN200 28/22 A3003 RMK AO2 LTG DSNT SW SLP158 CB DSNT NE SW TCU OHD-W-N 60000 T02780222 10300 20278 58001=
202208212252 METAR KATL 212252Z 24005KT 10SM FEW027 SCT150 OVC200 28/23 A3004 RMK AO2 SLP161 TCU DSNT SW W-N-NE T02830228=
202208212152 METAR KATL 212152Z 21008KT 10SM FEW026 SCT150 BKN200 28/22 A3003 RMK AO2 SLP159 CB DSNT NE TCU DSNT ALQDS T02830222=
202208212052 METAR KATL 212052Z 22007KT 10SM SCT033 SCT050 SCT070 BKN200 29/22 A3003 RMK AO2 RAB1957E06 SLP159 MDT CU NE-E AND S-W P0000 60000 T02890222 56025=
202208211952 METAR KATL 211952Z 26007KT 10SM SCT029TCU BKN038 BKN070 BKN200 28/21 A3005 RMK AO2 SLP167 TCU NE AND DSNT W MDT CU ALQDS SHRA DSNT W-NW T02830211=
202208211852 METAR KATL 211852Z 26007KT 10SM SCT027TCU BKN037 BKN065 BKN200 28/22 A3008 RMK AO2 SLP177 TCU SE AND DSNT W MDT CU ALQDS T02830217=
202208211752 METAR KATL 211752Z 23009KT 10SM SCT024TCU BKN033 BKN040 BKN200 28/22 A3011 RMK AO2 SLP186 TCU E AND DSNT S MDT CU ALQDS T02830222 10283 20217 58014=
202208211737 SPECI KATL 211737Z 25008KT 10SM SCT024 BKN030 BKN036 BKN200 27/22 A3012 RMK AO2 MDT CU DSNT ALQDS T02720217=
202208211652 METAR KATL 211652Z 21008KT 10SM SCT024 BKN029 BKN037 BKN200 27/21 A3012 RMK AO2 SLP190 MDT CU DSNT ALQDS T02720211=
202208211552 METAR KATL 211552Z 25008KT 10SM SCT014 BKN022 BKN034 26/22 A3014 RMK AO2 SLP198 T02560217=
202208211537 SPECI KATL 211537Z 25009KT 10SM SCT014 BKN021 BKN034 26/22 A3015 RMK AO2 T02560217=
202208211452 METAR KATL 211452Z 22005KT 7SM BKN010 BKN017 BKN070 24/22 A3015 RMK AO2 SLP200 T02440217 53005=
202208211352 METAR KATL 211352Z 25007KT 4SM BR BKN007 OVC012 23/21 A3014 RMK AO2 SLP196 T02280211=
202208211324 SPECI KATL 211324Z 24005KT 5SM BR SCT007 BKN012 BKN070 22/21 A3013 RMK AO2 T02220211=
202208211252 METAR KATL 211252Z 21003KT 2SM BR OVC005 22/21 A3013 RMK AO2 SFC VIS 6 SLP194 CIG 004V007 T02170211=
202208211249 SPECI KATL 211249Z 21004KT 2SM BR OVC005 22/21 A3013 RMK AO2 SFC VIS 6 CIG 004V007=
202208211154 SPECI KATL 211154Z 00000KT 2SM OVC003 22/21 A3014 RMK AO2 SFC VIS 7 TWRINC T02170206=
202208211152 METAR KATL 211152Z 23003KT 1SM R09R/P6000FT OVC003 22/21 A3014 RMK AO2 SFC VIS 7 SLP195 70005 T02170206 10217 20211 53007=
202208211052 METAR KATL 211052Z 20004KT 1SM R09R/P6000FT BR OVC003 21/21 A3012 RMK AO2 SFC VIS 6 SLP191 T02110206=
202208210952 METAR KATL 210952Z 18004KT 1SM R09R/P6000FT BKN004 BKN045 BKN110 BKN250 21/21 A3011 RMK AO2 SFC VIS 7 SLP185 BKN004 V SCT T02110206=
202208210852 METAR KATL 210852Z 15004KT 10SM BKN004 BKN045 BKN110 BKN250 21/21 A3011 RMK AO2 SLP187 BKN004 V SCT T02110206 58009=
202208210826 SPECI KATL 210826Z 17004KT 10SM SCT004 SCT045 BKN120 BKN250 21/20 A3012 RMK AO2 T02110200=
202208210752 METAR KATL 210752Z 15006KT 10SM FEW045 SCT085 BKN120 21/20 A3013 RMK AO2 SLP192 T02110200=
202208210652 METAR KATL 210652Z 16005KT 10SM CLR 21/20 A3014 RMK AO2 SLP196 T02110200=
202208210552 METAR KATL 210552Z 13007KT 10SM FEW005 SCT085 BKN110 OVC150 22/21 A3014 RMK AO2 RAE29 SLP197 P0001 60005 T02170206 10278 20217 51001=
202208210452 METAR KATL 210452Z 00000KT 8SM -RA FEW090 OVC120 22/21 A3013 RMK AO2 LTG DSNT N TSE18 SLP193 OCNL LTGICCC DSNT N CB DSNT N P0003 T02170206 403000217=
202208210419 SPECI KATL 210419Z 26005KT 9SM -RA FEW035 SCT080 OVC120 22/20 A3014 RMK AO2 LTG DSNT W-NE TSE18 FRQ LTGICCC DSNT NW-NE TS MOVD NE CB DSNT NW-NE P0001 T02170200=
202208210352 METAR KATL 210352Z 26010KT 7SM -TSRA SCT013 BKN035CB OVC080 22/21 A3017 RMK AO2 LTG DSNT NE AND E AND W RAB35 TSB31 SLP207 FRQ LTGICCG W-NW VC NE TS W-NW VC NE MOV NE P0001 T02220206=
202208210331 SPECI KATL 210331Z 19016G25KT 9SM TS FEW023 BKN034CB OVC065 24/19 A3016 RMK AO2 LTG DSNT NE AND E AND W TSB31 FRQ LTGICCG VC NE-E W TS VC NE-E W MOV NE T02390194=
202208210252 METAR KATL 210252Z 00000KT 10SM SCT042 BKN070 OVC130 27/23 A3014 RMK AO2 LTG DSNT SE AND SW SLP194 FRQ LTGIC DSNT SE SW CB DSNT SE SW T02670233 53010=
202208210152 METAR KATL 210152Z 00000KT 10SM FEW100 BKN130 BKN200 27/23 A3013 RMK AO2 SLP191 CONS LTGICCC DSNT SE-S CB DSNT SE-S T02670233=
202208210052 METAR KATL 210052Z 00000KT 10SM SCT130 BKN200 BKN250 27/23 A3011 RMK AO2 SLP187 CONS LTGICCC DSNT S CB DSNT S T02720228=
202208202352 METAR KATL 202352Z 20003KT 10SM FEW040 SCT100 BKN200 BKN250 28/22 A3011 RMK AO2 SLP184 CB DSNT NW-N T02780222 10300 20278 55003=
202208202252 METAR KATL 202252Z 22005KT 10SM FEW040 FEW140 SCT200 BKN250 28/22 A3010 RMK AO2 SLP184 CB DSNT N T02830222=
202208202152 METAR KATL 202152Z 21005KT 10SM SCT039 SCT075 BKN140 BKN250 29/22 A3011 RMK AO2 SLP185 MDT CU N-SE AND S-NW T02890217=
202208202052 METAR KATL 202052Z 00000KT 10SM SCT036TCU SCT048 BKN120 BKN250 28/22 A3011 RMK AO2 SLP187 TCU OHD-W CB DSNT NE AND W MDT CU SE-SW T02830217 56017=
202208201952 METAR KATL 201952Z 20005KT 10SM SCT037TCU SCT050 BKN130 BKN250 28/22 A3013 RMK AO2 LTG DSNT W SLP191 TCU OHD-W CB DSNT NE AND W MDT CU SW-N T02830217 $=
202208201852 METAR KATL 201852Z 22009G14KT 10SM SCT032 SCT044 BKN130 BKN250 30/22 A3015 RMK AO2 SLP197 CB DSNT NE TCU DSNT E-SE MDT CU SW-N T03000217 $=
202208201752 METAR KATL 201752Z 22007KT 10SM SCT025 SCT035 BKN120 BKN200 28/22 A3016 RMK AO2 LTG DSNT N SLP204 CB DSNT N AND NE MDT CU ALQDS T02830222 10283 20222 58007 $=
202208201652 METAR KATL 201652Z VRB04KT 10SM SCT022 BKN032 BKN120 BKN200 28/22 A3018 RMK AO2 LTG DSNT NW SLP210 CB DSNT NW MDT CU ALQDS T02780222 $=
202208201552 METAR KATL 201552Z 22003KT 10SM SCT022 BKN030 BKN180 27/22 A3019 RMK AO2 SLP213 T02720217 $=
202208201507 SPECI KATL 201507Z VRB04KT 10SM SCT020 BKN027 BKN180 27/22 A3019 RMK AO2 T02670222 $=
202208201452 METAR KATL 201452Z 21004KT 10SM SCT017 SCT023 BKN032 BKN180 27/22 A3019 RMK AO2 SLP212 T02670222 51010 $=
202208201426 SPECI KATL 201426Z 18004KT 10SM FEW006 SCT017 BKN029 BKN180 26/22 A3019 RMK AO2 T02560217 $=
202208201352 METAR KATL 201352Z 00000KT 10SM FEW005 SCT032 BKN180 BKN250 25/22 A3018 RMK AO2 SLP211 T02500217 $=
202208201321 SPECI KATL 201321Z 14003KT 10SM FEW006 SCT027 BKN180 BKN250 23/22 A3017 RMK AO2 T02280217 $=
202208201252 METAR KATL 201252Z 15003KT 6SM BR SCT002 BKN020 BKN200 BKN250 23/22 A3017 RMK AO2 SLP209 SCT002 V BKN T02280222 $=
202208201249 SPECI KATL 201249Z 18003KT 6SM BR SCT002 BKN020 BKN200 BKN250 23/22 A3017 RMK AO2 SCT002 V BKN $=
202208201234 SPECI KATL 201234Z 19004KT 6SM BR BKN003 BKN120 BKN200 BKN250 23/22 A3017 RMK AO2 BKN003 V SCT T02280217 $=
202208201152 METAR KATL 201152Z 15003KT 7SM FEW002 FEW120 BKN200 BKN250 22/22 A3015 RMK AO2 SLP202 70021 T02220217 10233 20222 53014 $=
202208201102 SPECI KATL 201102Z 00000KT 4SM R09R/2400VP6000FT BR BKN003 BKN120 BKN200 22/22 A3013 RMK AO2 VIS LWR S-W 2 BKN003 V SCT T02220217 $=
202208201052 METAR KATL 201052Z 00000KT 5SM BR SCT003 SCT120 BKN200 22/21 A3013 RMK AO2 SLP195 T02220211 $=
202208201003 SPECI KATL 201003Z 15003KT 7SM SCT004 SCT037 BKN120 22/21 A3012 RMK AO2 SCT004 V BKN T02220211=
202208200952 METAR KATL 200952Z 13003KT 7SM BKN004 BKN037 BKN120 22/22 A3012 RMK AO2 SLP190 T02220217=
202208200852 METAR KATL 200852Z 00000KT 7SM BKN004 BKN050 22/21 A3011 RMK AO2 SLP188 T02220211 53000=
202208200752 METAR KATL 200752Z 15003KT 7SM BKN004 BKN050 BKN110 23/22 A3010 RMK AO2 SLP184 BKN004 V SCT T02280217=
202208200652 METAR KATL 200652Z 20004KT 10SM BKN007 BKN020 BKN110 23/22 A3011 RMK AO2 SLP186 T02280217=
202208200552 METAR KATL 200552Z 13004KT 10SM BKN006 BKN012 OVC018 23/22 A3011 RMK AO2 SLP187 CB DSNT SW 60000 T02330222 10239 20233 51009=
202208200452 METAR KATL 200452Z 13005KT 10SM BKN007 BKN015 BKN200 23/22 A3010 RMK AO2 SLP185 T02330222 402560222=
202208200352 METAR KATL 200352Z 12005KT 10SM BKN006 BKN015 BKN200 23/22 A3011 RMK AO2 RAE0253 SLP187 CB DSNT S-SW P0000 T02330222=
202208200252 METAR KATL 200252Z 11006KT 9SM -RA BKN006 BKN040 BKN110 BKN200 23/22 A3008 RMK AO2 LTG DSNT S AND SW RAB39 SLP178 CB DSNT S-SW P0000 60000 T02330222 53010=
202208200152 METAR KATL 200152Z 08007KT 10SM BKN007 BKN060 BKN200 23/22 A3007 RMK AO2 SLP175 CIG 005V011 CB DSNT SW-W T02330222=
202208200052 METAR KATL 200052Z 11007KT 10SM SCT008 BKN070 BKN200 23/22 A3004 RMK AO2 LTG DSNT W SLP164 CB DSNT SW-NW T02330217=
202208192352 METAR KATL 192352Z 10006KT 10SM SCT010 BKN070 BKN200 24/22 A3005 RMK AO2 SLP167 CB DSNT SW-NW 60009 T02390217 10256 20233 53007=
202208192252 METAR KATL 192252Z 09007KT 10SM SCT010 BKN080 BKN200 24/21 A3004 RMK AO2 SLP162 SCT010 V BKN MDT CU ALQDS T02440211=
202208192152 METAR KATL 192152Z 13005KT 10SM SCT008 BKN013 BKN080 BKN200 24/22 A3003 RMK AO2 SLP160 MDT CU OHD-ALQDS T02390217=
202208192052 METAR KATL 192052Z 11006KT 9SM SCT006 BKN070 OVC150 23/22 A3003 RMK AO2 RAE41 SLP159 CB DSNT S SW P0003 60009 T02330217 56008=
202208191952 METAR KATL 191952Z 14005KT 4SM RA BR SCT009 BKN055 OVC080 24/22 A3003 RMK AO2 RAB12 SLP161 CB DSNT S P0006 T02390217=
202208191938 SPECI KATL 191938Z 14006KT 3SM RA BR BKN013CB BKN045 OVC070 24/22 A3003 RMK AO2 RAB12 CB OHD-S-SW MOV NE P0005 T02390217=
202208191852 METAR KATL 191852Z 10006KT 10SM FEW015 SCT038 BKN085 OVC200 26/21 A3003 RMK AO2 SLP161 CB DSNT N S SW T02560206=
202208191752 METAR KATL 191752Z 09006KT 7SM SCT009 BKN035 OVC150 24/22 A3005 RMK AO2 LTG DSNT E AND SE RAE52 SLP168 CB DSNT NE-SE-S P0000 60012 T02390217 10239 20222 50000=
202208191740 SPECI KATL 191740Z 09006KT 5SM -RA BR SCT008 BKN036 OVC150 24/22 A3005 RMK AO2 LTG DSNT E CB DSNT E-S P0000 T02390217=
202208191730 SPECI KATL 191730Z 09008KT 4SM -RA BR BKN007 OVC035 24/22 A3005 RMK AO2 LTG DSNT E BKN V SCT P0000 T02390222=
202208191652 METAR KATL 191652Z 10007KT 2 1/2SM -RA BR BKN006 OVC016 23/22 A3006 RMK AO2 SFC VIS 3 SLP169 P0010 T02330222=
202208191627 SPECI KATL 191627Z 08004KT 2SM -RA BR BKN005 BKN023 OVC065 23/22 A3006 RMK AO2 TWR VIS 2 1/2 P0009 T02330222 $=
202208191602 SPECI KATL 191602Z 08006KT 1 3/4SM +RA BR BKN006 OVC012 23/22 A3006 RMK AO2 TWR VIS 2 1/2 P0002 T02280217 $=
202208191552 METAR KATL 191552Z 09004KT 2 1/2SM RA BR BKN007 OVC012 23/22 A3006 RMK AO2 RAB42 SLP170 P0002 T02280217=
202208191452 METAR KATL 191452Z 07006KT 2 1/2SM BR OVC006 23/22 A3005 RMK AO2 SFC VIS 4 SLP167 T02280217 53012=
202208191352 METAR KATL 191352Z 11006KT 2 1/2SM BR OVC005 23/21 A3004 RMK AO2 SFC VIS 3 SLP164 T02280211=
202208191252 METAR KATL 191252Z 12006KT 2 1/2SM BR OVC005 23/21 A3003 RMK AO2 SFC VIS 4 SLP158 CIG 004V006 T02280211=
202208191152 METAR KATL 191152Z 07005KT 2 1/2SM BR OVC005 22/21 A3002 RMK AO2 SFC VIS 4 SLP155 CIG 004V006 60000 T02220211 10239 20222 53005=
202208191052 METAR KATL 191052Z 09005KT 6SM BR BKN006 OVC055 22/21 A3001 RMK AO2 SLP152 CIG 004V008 T02220206=
202208191031 SPECI KATL 191031Z 07005KT 7SM BKN007 OVC050 22/21 A3000 RMK AO2 CIG 006V008 T02220206=
202208190952 METAR KATL 190952Z 09005KT 10SM FEW008 BKN055 BKN110 BKN200 23/21 A3000 RMK AO2 SLP150 T02280206=
202208190852 METAR KATL 190852Z 12003KT 10SM SCT022 BKN047 BKN075 BKN130 BKN200 23/21 A3000 RMK AO2 RAE00 SLP149 P0000 60000 T02280206 50000=
202208190752 METAR KATL 190752Z 10005KT 8SM -RA BKN026 BKN048 OVC075 23/21 A3000 RMK AO2 RAB40 SLP150 VIS LWR NW-N P0000 T02330211=
202208190741 SPECI KATL 190741Z 09005KT 10SM -RA BKN027 BKN070 OVC110 23/21 A3000 RMK AO2 RAB40 P0000 T02330211=
202208190652 METAR KATL 190652Z 09004KT 10SM FEW030 SCT110 BKN200 BKN250 23/21 A3000 RMK AO2 SLP150 T02330206=
202208190552 METAR KATL 190552Z 09004KT 10SM FEW028 SCT110 BKN200 BKN250 24/21 A3000 RMK AO2 SLP149 T02390206 10261 20239 53002=
202208190452 METAR KATL 190452Z 13004KT 10SM FEW027 BKN100 BKN200 24/20 A3000 RMK AO2 SLP148 T02440200 402720200=
202208190352 METAR KATL 190352Z 12003KT 9SM BKN110 BKN200 24/21 A3000 RMK AO2 SLP149 T02440206=
202208190252 METAR KATL 190252Z 12004KT 10SM BKN100 BKN200 25/20 A3000 RMK AO2 SLP147 T02500200 53010=
202208190152 METAR KATL 190152Z 00000KT 10SM BKN100 BKN130 BKN200 25/20 A2999 RMK AO2 SLP144 T02500200=
202208190052 METAR KATL 190052Z 12003KT 10SM BKN100 BKN130 BKN200 26/19 A2997 RMK AO2 SLP141 T02560194=
202208182352 METAR KATL 182352Z 11004KT 10SM FEW030 SCT110 BKN150 BKN200 26/19 A2996 RMK AO2 SLP137 T02610194 10272 20261 55001=
202208182252 METAR KATL 182252Z 15005KT 10SM FEW030 SCT110 BKN150 BKN200 26/19 A2995 RMK AO2 SLP134 T02610194=
202208182152 METAR KATL 182152Z 13005KT 10SM FEW030 SCT075 BKN100 BKN200 27/19 A2997 RMK AO2 SLP138 T02670194=
202208182052 METAR KATL 182052Z 14005KT 10SM FEW030TCU BKN065 BKN100 BKN200 27/19 A2997 RMK AO2 SLP139 TCU W DSNT SE MDT CU DSNT E SHRA W T02670194 56011=
202208181952 METAR KATL 181952Z 14007KT 10SM SCT032TCU BKN100 OVC200 27/19 A2997 RMK AO2 SLP141 TCU W DSNT N-NE SE MDT CU N T02670194=
202208181852 METAR KATL 181852Z 12005KT 10SM SCT033 BKN095 BKN250 27/18 A2998 RMK AO2 SLP144 TCU DSNT ALQDS MDT CU SE-SW T02670183=
202208181752 METAR KATL 181752Z 15005KT 10SM SCT032TCU BKN090 BKN250 27/19 A3000 RMK AO2 SLP150 TCU N-NE MDT CU ALQDS T02670194 10272 20217 58003=
202208181652 METAR KATL 181652Z 10005KT 10SM SCT022 BKN070 BKN250 26/19 A3000 RMK AO2 SLP151 MDT CU ALQDS T02560194=
202208181552 METAR KATL 181552Z 08009KT 10SM SCT018 BKN050 BKN250 24/20 A3001 RMK AO2 SLP155 MDT CU ALQDS T02440200=
202208181521 SPECI KATL 181521Z 08007KT 050V110 10SM SCT016 BKN050 BKN100 25/20 A3001 RMK AO2 MDT CU ALQDS T02500200=
202208181452 METAR KATL 181452Z 09008KT 10SM BKN013 BKN055 BKN100 25/21 A3001 RMK AO2 SLP154 MDT CU E-SE T02500206 51008=
202208181436 SPECI KATL 181436Z 12005KT 10SM BKN012 BKN100 24/21 A3001 RMK AO2 T02440206=
202208181409 SPECI KATL 181409Z 08008KT 10SM SCT009 SCT015 BKN095 23/20 A3001 RMK AO2 T02330200=
202208181352 METAR KATL 181352Z 09007KT 10SM BKN009 OVC095 23/21 A3001 RMK AO2 SLP152 T02280206=
202208181325 SPECI KATL 181325Z 08007KT 10SM BKN009 OVC095 23/20 A3001 RMK AO2 T02280200=
202208181252 METAR KATL 181252Z 05009KT 10SM SCT008 SCT075 BKN095 BKN200 22/19 A3000 RMK AO2 SLP148 ACC DSNT N T02220194=
202208181225 SPECI KATL 181225Z 10005KT 10SM FEW008 SCT075 BKN090 BKN200 22/19 A2999 RMK AO2 ACC DSNT NE-E T02170194=
202208181152 METAR KATL 181152Z 10005KT 10SM FEW030 SCT070 BKN100 BKN200 22/19 A2999 RMK AO2 SLP146 ACC DSNT NW-NE 70073 T02170189 10222 20200 53006=
202208181052 METAR KATL 181052Z 08006KT 10SM FEW028 BKN070 OVC095 21/19 A2997 RMK AO2 SLP141 ACC SE-SW-NW BINOVC T02110189=
202208180952 METAR KATL 180952Z 02005KT 10SM FEW008 SCT050 OVC070 22/18 A2997 RMK AO2 SLP140 T02170183=
202208180852 METAR KATL 180852Z 10007KT 9SM FEW008 SCT055 OVC075 21/19 A2997 RMK AO2 SLP139 T02110189 58004 $=
202208180752 METAR KATL 180752Z 02005KT 10SM FEW065 BKN080 BKN150 BKN200 22/19 A2997 RMK AO2 SLP140 T02170189 $=
202208180652 METAR KATL 180652Z 00000KT 10SM FEW050 OVC070 21/19 A2998 RMK AO2 SLP144 VIRGA OHD-W-N T02060189 $=
202208180552 METAR KATL 180552Z 24005KT 10SM OVC060 21/19 A2998 RMK AO2 RAB0457E09 SLP143 VIRGA E-OHD-W P0000 60073 T02060189 10250 20194 58009 $=
202208180452 METAR KATL 180452Z 17005KT 10SM FEW025 BKN055 OVC100 20/18 A3000 RMK AO2 RAE21 SLP150 CB DSNT S-SW P0003 T02000178 402780194 $=
202208180352 METAR KATL 180352Z 09010KT 7SM -RA SCT025CB BKN050 OVC100 20/18 A3001 RMK AO2 SLP154 VIS LWR E-S-SW CB E-S-SW MOV SE P0054 T02000183 $=
202208180344 SPECI KATL 180344Z 10011KT 6SM -RA BR SCT025CB BKN050 OVC100 20/18 A3001 RMK AO2 VIS LWR E-S-SW CB E-S-SW MOV SE P0048 T02000178 $=
202208180316 SPECI KATL 180316Z 07017G21KT 2SM +RA BR FEW012 BKN025CB OVC060 20/18 A3002 RMK AO2 CB OHD-ALQDS MOV SE P0018 T02000178 $=
202208180252 METAR KATL 180252Z 05015KT 3SM RA FEW012 BKN025CB OVC100 21/18 A3001 RMK AO2 RAB26 SLP155 CB OHD-ALQDS MOV SE P0016 60016 T02110183 53015=
202208180241 SPECI KATL 180241Z 05018G22KT 2 1/2SM +RA FEW012 BKN025CB OVC100 23/20 A3001 RMK AO2 RAB26 CB OHD-ALQDS MOV SE P0003 T02330200=
202208180152 METAR KATL 180152Z 16003KT 10SM SCT027 BKN035 BKN060 BKN200 24/20 A2999 RMK AO2 SLP146 CB DSNT NE T02440200=
202208180052 METAR KATL 180052Z 21004KT 10SM SCT030CB BKN090 BKN150 BKN200 24/20 A2998 RMK AO2 SLP142 CB N-NE MOV E T02440200=
202208172352 METAR KATL 172352Z 21005KT 10SM SCT030TCU BKN140 BKN200 25/21 A2996 RMK AO2 SLP137 TCU OHD-NW T02500206 10278 20250 55001=
202208172252 METAR KATL 172252Z 17004KT 10SM SCT030TCU BKN140 BKN200 26/19 A2996 RMK AO2 SLP135 TCU SW-W T02610194=
202208172152 METAR KATL 172152Z 00000KT 10SM SCT032 BKN140 BKN200 27/19 A2996 RMK AO2 SLP136 T02670189=
202208172052 METAR KATL 172052Z 04006KT 10SM FEW034 FEW075 SCT140 BKN200 BKN250 27/18 A2997 RMK AO2 SLP137 ACC SE-SW T02720183 58019=
202208171952 METAR KATL 171952Z 35005KT 10SM FEW033 SCT075 BKN150 BKN200 BKN250 27/18 A2999 RMK AO2 SLP146 TCU DSNT N-NE ACC E-OHD-W T02670183=
202208171852 METAR KATL 171852Z 00000KT 10SM FEW026 SCT070 BKN170 BKN250 26/19 A3001 RMK AO2 SLP152 TCU DSNT N NE T02610189=
202208171752 METAR KATL 171752Z 08005KT 10SM SCT023 SCT065 BKN085 BKN200 26/19 A3002 RMK AO2 RAE00 SLP158 MDT CU NW-NE DSNT ALQDS P0000 60000 T02560194 10256 20211 58002=
202208171652 METAR KATL 171652Z 09006KT 9SM -RA FEW018 SCT032 BKN065 24/19 A3003 RMK AO2 DZE15RAB49 SLP160 PCPN VRY LGT P0000 T02390194=
202208171650 SPECI KATL 171650Z 07006KT 9SM -RA FEW018 SCT028 BKN060 24/19 A3003 RMK AO2 DZE15RAB49 PCPN VRY LGT P0000=
202208171552 METAR KATL 171552Z 06010KT 7SM -DZ BKN016 BKN024 OVC034 23/19 A3004 RMK AO2 DZB39 SLP162 P0000 T02330189=
202208171452 METAR KATL 171452Z 08007KT 10SM SCT009 BKN015 OVC028 22/19 A3003 RMK AO2 RAE01DZB01E33 SLP160 P0000 60000 T02220194 51010=
202208171352 METAR KATL 171352Z 08007KT 4SM -RA BR BKN007 OVC012 22/20 A3002 RMK AO2 DZB14E49RAB49 SLP157 VIS LWR NE-E CIG 005V009 P0000 T02170200=
202208171252 METAR KATL 171252Z 09006KT 6SM BR OVC006 22/20 A3002 RMK AO2 DZE45 SLP156 CIG 005V008 P0000 T02170200=
202208171229 SPECI KATL 171229Z 08007KT 5SM -DZ BR BKN005 OVC008 22/20 A3001 RMK AO2 CIG 004V006 P0000 T02170200=
202208171212 SPECI KATL 171212Z 07007KT 2SM -DZ BR OVC005 22/20 A3001 RMK AO2 CIG 004V006 P0000 T02170200=
202208171152 METAR KATL 171152Z 08007KT 7SM -DZ OVC008 22/19 A3000 RMK AO2 DZB50 SLP149 CIG 007V010 PCPN VRY LGT P0000 60000 T02220194 10233 20222 53016=
202208171140 SPECI KATL 171140Z 10006KT 8SM OVC009 22/19 A2999 RMK AO2 CIG 008V010 T02220194=
202208171052 METAR KATL 171052Z 11008KT 10SM OVC011 22/19 A2997 RMK AO2 SLP140 T02220194=
202208170952 METAR KATL 170952Z 09009KT 10SM OVC011 23/19 A2996 RMK AO2 SLP133 T02280194=
202208170852 METAR KATL 170852Z 09008KT 10SM OVC011 23/20 A2995 RMK AO2 SLP132 T02280200 55001 $=
202208170752 METAR KATL 170752Z 11007KT 10SM BKN011 OVC095 23/20 A2994 RMK AO2 SLP129 T02280200 $=
202208170652 METAR KATL 170652Z 07005KT 10SM BKN011 OVC100 23/20 A2995 RMK AO2 SLP130 BKN011 V SCT T02330200 $=
202208170614 SPECI KATL 170614Z 08008KT 10SM BKN011 BKN024 BKN110 BKN150 23/20 A2996 RMK AO2 BKN011 V SCT T02330200 $=
202208170552 METAR KATL 170552Z 08008KT 10SM FEW009 SCT024 BKN110 BKN150 BKN250 23/20 A2996 RMK AO2 SLP133 T02330200 10278 20233 55003 $=
202208170531 SPECI KATL 170531Z 08007KT 10SM FEW009 SCT024 SCT110 BKN150 BKN250 23/19 A2996 RMK AO2 T02330194 $=
202208170452 METAR KATL 170452Z 04005KT 10SM SCT110 BKN150 BKN250 24/19 A2995 RMK AO2 SLP132 T02440189 403110217 $=
202208170352 METAR KATL 170352Z 34005KT 10SM FEW150 SCT200 BKN250 24/19 A2997 RMK AO2 SLP137 T02440194 $=
202208170252 METAR KATL 170252Z 32007KT 260V330 10SM FEW150 SCT200 BKN250 25/19 A2997 RMK AO2 SLP137 T02500189 51014 $=
202208170152 METAR KATL 170152Z 32008KT 10SM FEW100 BKN150 BKN200 26/19 A2996 RMK AO2 SLP134 T02610194 $=
202208170052 METAR KATL 170052Z 32008KT 10SM FEW120 BKN150 BKN200 27/19 A2995 RMK AO2 SLP133 T02670194 $=
202208162352 METAR KATL 162352Z 31006KT 10SM FEW120 BKN150 BKN200 28/19 A2993 RMK AO2 SLP123 T02780189 10311 20278 55001 $=
202208162252 METAR KATL 162252Z 33009KT 10SM FEW055 BKN140 BKN200 28/19 A2991 RMK AO2 SLP118 T02780189 $=
202208162152 METAR KATL 162152Z 34008KT 10SM FEW055 BKN130 BKN200 29/18 A2992 RMK AO2 SLP120 T02890178=
202208162052 METAR KATL 162052Z 32010KT 10SM FEW050 SCT130 BKN180 BKN250 30/18 A2993 RMK AO2 SLP124 TCU DSNT E SE ACC NW-NE T03000178 56009=
202208161952 METAR KATL 161952Z 32010KT 10SM FEW050 SCT120 BKN180 BKN250 31/17 A2993 RMK AO2 SLP125 TCU DSNT SE T03060172=
202208161852 METAR KATL 161852Z 34007KT 10SM FEW048 SCT065 SCT200 BKN250 31/18 A2995 RMK AO2 SLP129 TCU DSNT SE T03060183=
202208161752 METAR KATL 161752Z 31006KT 10SM SCT038 BKN060 BKN250 29/19 A2996 RMK AO2 SLP133 TCU DSNT E-S MDT CU ALQDS T02940194 10300 20217 50003=
202208161652 METAR KATL 161652Z 32005KT 10SM SCT027 BKN040 BKN250 28/20 A2996 RMK AO2 SLP135 MDT CU ALQDS T02830200=
202208161552 METAR KATL 161552Z 11004KT 10SM SCT018 BKN033 26/21 A2996 RMK AO2 SLP135 MDT CU ALQDS T02610206=
202208161452 METAR KATL 161452Z 07005KT 10SM OVC015 25/21 A2995 RMK AO2 SLP132 CIG 013V017 BINOVC T02500206 53009=
202208161352 METAR KATL 161352Z 04008KT 10SM BKN014 BKN200 BKN250 24/20 A2993 RMK AO2 SLP127 CIG 012V016 T02440200=
202208161326 SPECI KATL 161326Z 06008KT 10SM BKN012 BKN200 BKN250 24/20 A2994 RMK AO2 T02390200=
202208161252 METAR KATL 161252Z 06007KT 10SM FEW015 FEW200 SCT250 24/20 A2993 RMK AO2 SLP125 T02390200=
202208161152 METAR KATL 161152Z 33006KT 10SM FEW250 22/19 A2992 RMK AO2 SLP121 70013 T02170194 10228 20217 53016=
202208161052 METAR KATL 161052Z 33007KT 10SM FEW200 22/19 A2989 RMK AO2 SLP112 T02170194=
202208160952 METAR KATL 160952Z 30006KT 10SM FEW250 22/20 A2989 RMK AO2 SLP110 T02170200=
202208160852 METAR KATL 160852Z 30007KT 10SM FEW250 22/21 A2987 RMK AO2 SLP104 T02170206 58014=
202208160752 METAR KATL 160752Z 31007KT 10SM FEW250 22/21 A2989 RMK AO2 SLP109 T02220206=
202208160652 METAR KATL 160652Z 30006KT 10SM FEW250 22/21 A2990 RMK AO2 SLP114 T02220211=
202208160552 METAR KATL 160552Z 29005KT 10SM FEW250 23/21 A2991 RMK AO2 SLP119 60013 T02280211 10283 20228 55002=
202208160452 METAR KATL 160452Z 29005KT 10SM FEW250 23/21 A2991 RMK AO2 SLP118 T02330211 403280228=
202208160352 METAR KATL 160352Z 30008KT 10SM FEW250 23/21 A2992 RMK AO2 SLP119 T02330211=
202208160252 METAR KATL 160252Z 25004KT 10SM FEW100 SCT250 23/21 A2992 RMK AO2 SLP121 60013 T02330211 51018=
202208160152 METAR KATL 160152Z 26003KT 10SM FEW080 SCT110 BKN150 BKN200 24/22 A2991 RMK AO2 RAE08 TSE17 SLP119 LTG DSNT NE CB DSNT N NE SE P0000 T02390217=
202208160117 SPECI KATL 160117Z 15003KT 10SM FEW080 SCT110 BKN150 BKN200 23/21 A2990 RMK AO2 RAE08 TSE17 LTG DSNT N NE-SE TS MOVD SE CB DSNT N NE-SE P0000 T02330211=
202208160052 METAR KATL 160052Z 26005KT 8SM -TSRA FEW015 SCT035CB BKN080 BKN200 23/21 A2989 RMK AO2 PK WND 28037/0017 WSHFT 0015 RAB19 TSB08 PRESFR SLP112 FRQ LTGICCG NE-SE TS NE-SE MOV SE P0013 T02280211=
202208160046 SPECI KATL 160046Z 27006KT 6SM -TSRA BR FEW015 SCT035CB BKN080 BKN200 23/21 A2990 RMK AO2 PK WND 28037/0017 WSHFT 0015 RAB19 TSB08 VIS LWR NE-SE FRQ LTGICCG OHD-ALQDS TS OHD-ALQDS MOV SE P0013=
202208160035 SPECI KATL 160035Z 29012G29KT 1 1/2SM +TSRA FEW015 BKN035CB BKN080 BKN200 23/21 A2991 RMK AO2 PK WND 28037/0017 WSHFT 0015 RAB19 TSB08 PRESRR FRQ LTGICCG OHD-ALQDS TS OHD-ALQDS MOV SE P0004 T02330206=
202208160033 SPECI KATL 160033Z 28015G29KT 6SM TSRA FEW015 SCT035CB BKN080 BKN200 23/21 A2991 RMK AO2 PK WND 28037/0017 WSHFT 0015 RAB19 TSB08 PRESRR VIS LWR S-W-N OCNL LTGICCG N-OHD-S TS N-OHD-S MOV SE P0002 T02330206=
202208160008 SPECI KATL 160008Z 21003KT 10SM TS FEW040CB BKN150 BKN250 28/23 A2988 RMK AO2 TSB08 OCNL LTGICCG VC SW-NW TS VC SW-NW MOV SE T02780228=
202208152352 METAR KATL 152352Z 22005KT 10SM FEW040 SCT200 BKN250 28/22 A2986 RMK AO2 SLP101 LTG DSNT SW-NW CB DSNT SW-NW 60000 T02830222 10328 20278 55003=
202208152252 METAR KATL 152252Z 23005KT 10SM FEW040 SCT200 BKN250 29/21 A2986 RMK AO2 LTG DSNT E SLP099 CB DSNT E-SE T02890211=
202208152152 METAR KATL 152152Z 23009G20KT 10SM FEW040 SCT080 BKN200 BKN250 28/21 A2988 RMK AO2 TSB22E52 SLP105 LTG DSNT S-SW TS MOVD SE CB DSNT N-NE SE-SW TCU DSNT W T02830211=
202208152122 SPECI KATL 152122Z 27007KT 10SM TS SCT045CB SCT080 BKN200 BKN250 31/21 A2987 RMK AO2 TSB22 OCNL LTGICCG SW-W TS SW-W MOV SE TCU DSNT NE-SE-S NW-N T03060211=
202208152052 METAR KATL 152052Z 26011KT 10SM SCT045TCU SCT080 BKN200 BKN250 31/21 A2987 RMK AO2 LTG DSNT SE AND S SLP105 CB DSNT E SE-S TCU N NE-E W-NW 60000 T03110206 58021=
202208151952 METAR KATL 151952Z 27008KT 10SM SCT050TCU BKN080 BKN200 BKN250 31/21 A2990 RMK AO2 LTG DSNT SW RAB06E21 SLP114 CB DSNT SE SW TCU OHD NE SE-S DSNT ALQDS P0000 T03110211=
202208151909 SPECI KATL 151909Z 28007G16KT 3SM -RA SCT043CB BKN080 BKN200 BKN250 31/21 A2992 RMK AO2 RAB06 CB OHD-NW-N MOV SE TCU DSNT ALQDS P0000 T03060206=
202208151852 METAR KATL 151852Z 25009KT 10SM SCT041TCU BKN065 BKN250 32/21 A2992 RMK AO2 SLP121 TCU N SE-S DSNT ALQDS T03170206=
202208151752 METAR KATL 151752Z 27008KT 10SM SCT038TCU BKN065 BKN250 31/21 A2994 RMK AO2 SLP125 TCU ALQDS T03110211 10311 20239 58012=
202208151652 METAR KATL 151652Z 28007KT 10SM SCT036 SCT075 SCT200 BKN250 30/21 A2995 RMK AO2 SLP130 ACC DSNT SE T03000206=
202208151552 METAR KATL 151552Z 25008G15KT 10SM FEW032 FEW075 FEW200 SCT250 29/20 A2996 RMK AO2 SLP134 ACC DSNT NE T02940200=
202208151452 METAR KATL 151452Z 24011G17KT 10SM FEW070 SCT180 BKN250 27/19 A2997 RMK AO2 SLP139 ACC DSNT W NW T02670194 51005=
202208151352 METAR KATL 151352Z 25010KT 10SM FEW070 SCT180 BKN250 26/19 A2997 RMK AO2 SLP139 ACC DSNT W T02560189=
202208151252 METAR KATL 151252Z 25009KT 10SM FEW075 FEW150 BKN200 BKN250 25/18 A2997 RMK AO2 SLP137 ACC SE-SW T02500183=
202208151152 METAR KATL 151152Z 24008KT 10SM SCT080 SCT140 BKN200 BKN250 24/18 A2996 RMK AO2 SLP134 ACC ALQDS T02390183 10250 20228 53001=
202208151052 METAR KATL 151052Z 24006KT 10SM FEW080 FEW140 SCT200 SCT250 24/18 A2995 RMK AO2 SLP132 T02390183=
202208150952 METAR KATL 150952Z 25005KT 10SM BKN080 BKN250 24/19 A2995 RMK AO2 SLP131 T02390189=
202208150852 METAR KATL 150852Z 24004KT 10SM FEW100 FEW140 23/19 A2996 RMK AO2 SLP133 T02330189 56008=
202208150752 METAR KATL 150752Z 25003KT 10SM FEW100 SCT140 SCT250 24/19 A2996 RMK AO2 SLP135 T02390189=
202208150652 METAR KATL 150652Z 23005KT 10SM FEW100 BKN140 BKN250 24/19 A2997 RMK AO2 SLP137 T02440189=
202208150552 METAR KATL 150552Z 23005KT 10SM SCT140 BKN250 24/19 A2998 RMK AO2 SLP141 T02440189 10294 20239 58005=
202208150452 METAR KATL 150452Z 22005KT 10SM SCT150 BKN250 25/19 A2999 RMK AO2 SLP145 T02500194 403170211=
202208150352 METAR KATL 150352Z 24005KT 10SM FEW150 SCT250 26/19 A3000 RMK AO2 SLP147 T02610194=
202208150252 METAR KATL 150252Z 23004KT 10SM FEW150 FEW250 26/19 A3000 RMK AO2 SLP147 T02610194 55000=
202208150152 METAR KATL 150152Z 23004KT 10SM FEW150 FEW250 26/19 A3000 RMK AO2 SLP147 T02610194=
202208150052 SPECI KATL 150052Z 20004KT 10SM FEW080 FEW150 27/19 A2998 RMK AO2 SLP143 T02720194=
202208150052 METAR KATL 150052Z 20004KT 10SM FEW080 FEW150 27/19 A2998 RMK AO2 SLP143 T02720194=
202208142352 METAR KATL 142352Z 25006KT 10SM FEW045 SCT080 SCT250 29/18 A3000 RMK AO2 SLP147 MDT CU E DSNT N T02940183 10317 20289 55005=
202208142252 METAR KATL 142252Z 21008KT 10SM FEW048 SCT075 SCT250 29/18 A2998 RMK AO2 SLP141 MDT CU E T02940183=
202208142152 METAR KATL 142152Z 19009KT 10SM SCT050 SCT075 SCT250 31/18 A3000 RMK AO2 SLP147 MDT CU ALQDS T03060178=
202208142052 METAR KATL 142052Z 18009KT 10SM SCT050 SCT070 SCT150 BKN250 31/18 A3001 RMK AO2 SLP152 MDT CU DSNT E S AND NW T03060178 56015=
202208141952 METAR KATL 141952Z 22007KT 10SM SCT050 SCT065 SCT150 BKN250 30/18 A3003 RMK AO2 SLP157 MDT CU DSNT SE-NW T03000178=
202208141852 METAR KATL 141852Z 19008KT 10SM SCT046 SCT060 BKN150 BKN250 29/18 A3004 RMK AO2 SLP160 MDT CU DSNT ALQDS T02940178=
202208141752 METAR KATL 141752Z 18007KT 10SM SCT042 SCT055 BKN250 29/18 A3006 RMK AO2 SLP166 MDT CU DSNT ALQDS T02940183 10294 20222 58012=
202208141652 METAR KATL 141652Z 24006KT 10SM SCT040 SCT055 SCT150 BKN250 29/19 A3007 RMK AO2 SLP172 MDT CU DSNT E-S AND W-N T02890189=
202208141552 METAR KATL 141552Z 21007KT 10SM SCT038 SCT047 SCT150 BKN250 27/18 A3009 RMK AO2 SLP178 MDT CU DSNT S AND W-N T02720183=
202208141452 METAR KATL 141452Z 24005KT 10SM FEW032 SCT200 SCT250 27/19 A3009 RMK AO2 SLP179 T02720189 53009=
202208141352 METAR KATL 141352Z 19006KT 10SM FEW100 FEW200 SCT250 26/19 A3008 RMK AO2 SLP176 T02560189=
202208141252 METAR KATL 141252Z 18003KT 10SM FEW100 FEW200 FEW250 24/18 A3008 RMK AO2 SLP174 T02390183=
202208141152 METAR KATL 141152Z 00000KT 10SM FEW100 FEW200 FEW250 22/18 A3007 RMK AO2 SLP172 T02220183 10228 20211 53006=
202208141052 METAR KATL 141052Z 08003KT 10SM FEW100 FEW200 22/18 A3005 RMK AO2 SLP167 T02170183=
202208140952 METAR KATL 140952Z 09003KT 10SM FEW100 22/18 A3005 RMK AO2 SLP165 T02220183=
202208140852 METAR KATL 140852Z 09003KT 10SM CLR 22/18 A3005 RMK AO2 SLP165 T02220183 56011=
202208140752 METAR KATL 140752Z 00000KT 10SM FEW250 22/18 A3005 RMK AO2 SLP167 T02220183=
202208140652 METAR KATL 140652Z 00000KT 10SM FEW250 23/18 A3006 RMK AO2 SLP168 T02280183=
202208140552 METAR KATL 140552Z 00000KT 10SM FEW100 FEW250 23/19 A3008 RMK AO2 SLP176 T02280189 10267 20228 58000=
202208140452 METAR KATL 140452Z 00000KT 10SM FEW100 FEW250 23/19 A3009 RMK AO2 SLP180 T02330189 402890217=
202208140352 METAR KATL 140352Z 00000KT 10SM SCT250 24/19 A3009 RMK AO2 SLP180 T02390189=
202208140252 METAR KATL 140252Z 00000KT 10SM FEW250 24/19 A3008 RMK AO2 SLP177 T02440189 51009=
202208140152 METAR KATL 140152Z 13004KT 10SM FEW095 FEW250 25/18 A3008 RMK AO2 SLP176 T02500183=
202208140052 METAR KATL 140052Z 11005KT 10SM FEW095 FEW250 26/18 A3007 RMK AO2 SLP173 T02610178=
202208132352 METAR KATL 132352Z 13005KT 10SM FEW038 FEW095 FEW250 27/18 A3005 RMK AO2 SLP168 MDT CU DSNT NW T02670183 10289 20267 55007=
202208132252 METAR KATL 132252Z 12006KT 10SM FEW039 FEW095 SCT250 28/18 A3005 RMK AO2 SLP165 MDT CU DSNT S T02780183=
202208132152 METAR KATL 132152Z 14006KT 10SM FEW037 SCT090 BKN250 28/18 A3006 RMK AO2 SLP170 MDT CU DSNT S-SW T02780183=
202208132052 METAR KATL 132052Z 10009KT 10SM SCT038 SCT050 SCT090 BKN250 28/18 A3008 RMK AO2 SLP174 MDT CU DSNT SW-N T02780178 56013=
202208131952 METAR KATL 131952Z 12005KT 10SM SCT037 SCT046 BKN090 BKN250 28/18 A3009 RMK AO2 SLP178 MDT CU DSNT ALQDS T02830178=
202208131852 METAR KATL 131852Z 09008KT 10SM SCT039 BKN046 BKN060 28/18 A3010 RMK AO2 SLP184 MDT CU DSNT ALQDS T02780178=
202208131752 METAR KATL 131752Z 11008KT 10SM SCT037 BKN060 BKN200 28/18 A3012 RMK AO2 SLP188 T02780183 10278 20222 58008=
202208131652 METAR KATL 131652Z 09010KT 10SM BKN032 BKN065 BKN200 27/18 A3013 RMK AO2 SLP191 T02670183=
202208131616 SPECI KATL 131616Z 09012G18KT 10SM BKN028 BKN060 BKN200 26/18 A3014 RMK AO2 T02610178=
202208131552 METAR KATL 131552Z 12011G17KT 10SM SCT025 SCT060 BKN200 26/18 A3014 RMK AO2 SLP195 T02610183=
202208131452 METAR KATL 131452Z 10012KT 10SM SCT023 BKN060 BKN200 26/19 A3014 RMK AO2 SLP196 T02560189 51017=
202208131352 METAR KATL 131352Z 11010G18KT 10SM SCT019 BKN060 BKN200 24/18 A3013 RMK AO2 SLP191 T02440178=
202208131322 SPECI KATL 131322Z 09014G19KT 10SM BKN018 BKN060 24/18 A3012 RMK AO2 T02390183=
202208131252 METAR KATL 131252Z 11010KT 10SM SCT012 SCT075 SCT200 23/19 A3011 RMK AO2 SLP185 T02330194=
202208131152 METAR KATL 131152Z 08009KT 10SM FEW009 SCT015 SCT075 BKN200 22/19 A3009 RMK AO2 SLP179 70001 T02220194 10239 20217 51015=
202208131130 SPECI KATL 131130Z 09009KT 10SM FEW009 BKN014 22/19 A3008 RMK AO2 T02220194=
202208131052 METAR KATL 131052Z 09011KT 10SM FEW008 SCT016 BKN075 BKN200 22/19 A3008 RMK AO2 SLP173 SCT016 V BKN T02170194=
202208131044 SPECI KATL 131044Z 08011KT 10SM SCT008 BKN016 BKN075 22/19 A3007 RMK AO2 BKN016 V SCT T02170194=
202208130952 METAR KATL 130952Z 08010KT 10SM BKN005 22/21 A3006 RMK AO2 SLP169 T02220211=
202208130903 SPECI KATL 130903Z 08011KT 10SM BKN006 22/21 A3004 RMK AO2 BKN006 V SCT T02220206=
202208130852 METAR KATL 130852Z 08011KT 10SM SCT006 23/21 A3004 RMK AO2 SLP162 T02280211 50005=
202208130816 SPECI KATL 130816Z 09006KT 10SM FEW007 SCT010 23/21 A3005 RMK AO2 T02280206=
202208130752 METAR KATL 130752Z 06009KT 10SM BKN007 23/21 A3004 RMK AO2 SLP162 T02280206=
202208130743 SPECI KATL 130743Z 05010KT 10SM BKN007 23/21 A3004 RMK AO2 T02280206=
202208130652 METAR KATL 130652Z 07006KT 10SM CLR 23/21 A3003 RMK AO2 SLP159 T02330206=
202208130552 METAR KATL 130552Z 33003KT 10SM CLR 23/19 A3003 RMK AO2 SLP156 T02280189 10289 20228 58003=
202208130452 METAR KATL 130452Z 35004KT 10SM FEW055 FEW250 25/18 A3004 RMK AO2 SLP160 T02500183 403170222=
202208130352 METAR KATL 130352Z 33005KT 10SM SCT055 SCT250 24/18 A3004 RMK AO2 SLP163 T02440183=
202208130252 METAR KATL 130252Z 32006KT 10SM FEW045 FEW250 25/18 A3003 RMK AO2 SLP161 T02500183 51013=
202208130152 METAR KATL 130152Z 34008KT 10SM FEW045 FEW250 27/18 A3002 RMK AO2 SLP154 T02720178=
202208130052 METAR KATL 130052Z 33007KT 10SM FEW045 SCT250 28/18 A3001 RMK AO2 SLP154 CB DSNT E SE T02780178=
202208122352 METAR KATL 122352Z 33007KT 10SM FEW045 BKN250 29/18 A2999 RMK AO2 SLP146 CB DSNT SE-S T02890178 10317 20289 55001=
202208122252 METAR KATL 122252Z 34011KT 10SM FEW045 FEW200 31/16 A2999 RMK AO2 SLP145 CB DSNT SE TCU SE-S T03060161=
202208122152 METAR KATL 122152Z 33010KT 10SM FEW045 FEW200 31/17 A2999 RMK AO2 SLP144 CB DSNT E-SE T03110172=
202208122052 METAR KATL 122052Z 31008KT 10SM FEW046 FEW200 32/19 A3000 RMK AO2 SLP147 CB DSNT E TCU DSNT N S SW T03170189 56012=
202208121952 METAR KATL 121952Z 32011KT 10SM SCT040 SCT250 31/20 A3000 RMK AO2 SLP149 MDT CU ALQDS T03110200=
202208121852 METAR KATL 121852Z 31009KT 290V360 10SM SCT034 BKN250 30/21 A3003 RMK AO2 SLP156 MDT CU ALQDS T03000206=
202208121752 METAR KATL 121752Z 28008KT 10SM SCT028 SCT200 29/22 A3003 RMK AO2 SLP159 TCU DSNT SE-S MDT CU ALQDS 60001 T02940222 10300 20228 58016=
202208121739 SPECI KATL 121739Z 31005KT 10SM SCT028 SCT200 29/21 A3004 RMK AO2 TCU DSNT SE-S MDT CU ALQDS T02940211=
202208121652 METAR KATL 121652Z 30005KT 10SM BKN022TCU BKN090 28/22 A3005 RMK AO2 SLP167 TCU ALQDS MDT CU ALQDS T02830217=
202208121552 METAR KATL 121552Z 26006KT 10SM SCT009TCU BKN015 BKN036 25/23 A3008 RMK AO2 SLP177 TCU ALQDS T02500228=
202208121526 SPECI KATL 121526Z 30006KT 10SM SCT009TCU BKN016 BKN025 24/22 A3008 RMK AO2 TCU W T02390222=
202208121452 METAR KATL 121452Z 25006KT 10SM BKN007 OVC014 24/22 A3008 RMK AO2 RAB08E37 SLP177 P0001 60001 T02390222 52005=
202208121409 SPECI KATL 121409Z 27008KT 7SM -RA BKN009 OVC017 23/22 A3008 RMK AO2 RAB08 P0000 T02330217=
202208121352 METAR KATL 121352Z 28006KT 9SM SCT009 OVC016 24/22 A3008 RMK AO2 RAB34E44 SLP176 P0000 T02390222=
202208121327 SPECI KATL 121327Z VRB05KT 9SM SCT008 OVC016 23/22 A3007 RMK AO2 T02330217=
202208121252 METAR KATL 121252Z 27007KT 10SM BKN009 OVC017 23/22 A3007 RMK AO2 SLP174 CIG 008V010 T02330217=
202208121244 SPECI KATL 121244Z 26005KT 10SM BKN009 OVC017 23/22 A3007 RMK AO2 CIG 008V010 T02330217=
202208121152 METAR KATL 121152Z 25005KT 10SM SCT009 BKN012 OVC095 23/21 A3007 RMK AO2 SLP171 70046 T02280211 10228 20222 53008=
202208121147 SPECI KATL 121147Z VRB05KT 10SM SCT009 BKN012 OVC095 23/21 A3007 RMK AO2=
202208121120 SPECI KATL 121120Z 23004KT 10SM SCT009 SCT014 BKN095 BKN200 BKN250 23/21 A3006 RMK AO2 T02280211=
202208121052 METAR KATL 121052Z 22004KT 10SM BKN009 BKN095 BKN120 BKN200 BKN250 23/21 A3006 RMK AO2 SLP166 T02280211=
202208120952 METAR KATL 120952Z 23006KT 10SM BKN008 OVC014 23/21 A3005 RMK AO2 SLP163 T02280211=
202208120852 METAR KATL 120852Z 23006KT 10SM BKN008 OVC014 23/21 A3004 RMK AO2 SLP162 T02280211 56004=
202208120828 SPECI KATL 120828Z 24007KT 10SM BKN008 OVC012 23/21 A3005 RMK AO2 T02280211=
202208120752 METAR KATL 120752Z 25005KT 10SM BKN014 BKN035 BKN060 22/21 A3005 RMK AO2 SLP163 T02220211=
202208120744 SPECI KATL 120744Z 25005KT 10SM BKN014 BKN035 BKN060 22/21 A3004 RMK AO2 T02220211=
202208120652 METAR KATL 120652Z 21005KT 10SM FEW030 SCT100 SCT250 22/21 A3004 RMK AO2 SLP163 T02220206=
202208120552 METAR KATL 120552Z 25005KT 10SM FEW030 FEW140 SCT250 22/21 A3005 RMK AO2 SLP167 60046 T02220206 10267 20222 56008=
202208120452 METAR KATL 120452Z 26006KT 10SM FEW140 FEW250 22/21 A3006 RMK AO2 SLP169 T02220211 403060217=
202208120352 METAR KATL 120352Z 28007KT 10SM SCT130 SCT250 23/21 A3006 RMK AO2 SLP171 T02280211=
202208120252 METAR KATL 120252Z 27005KT 10SM FEW007 BKN110 BKN200 23/22 A3008 RMK AO2 RAE21 TSE08 SLP176 P0001 60046 T02330217 50012=
202208120208 SPECI KATL 120208Z 20003KT 9SM -RA FEW030 BKN090 BKN150 OVC200 23/22 A3008 RMK AO2 TSE08 TS DSIPTD P0001 T02280217=
202208120152 METAR KATL 120152Z 21003KT 8SM -TSRA FEW008 FEW030CB BKN080 OVC200 23/22 A3009 RMK AO2 TSB41 SLP179 OCNL LTGIC VC N-NE TS VC N-NE MOV SE P0002 T02280217=
202208120141 SPECI KATL 120141Z 18003KT 9SM -TSRA FEW008 SCT030CB BKN060 OVC200 23/22 A3009 RMK AO2 TSB41 OCNL LTGIC VC N-NE TS VC N-NE MOV SE P0002 T02280217=
202208120052 METAR KATL 120052Z 21008G16KT 8SM -RA FEW010 SCT030CB BKN050 BKN200 23/22 A3007 RMK AO2 RAB15 TSE06 SLP176 LTG DSNT N-NE SW-W CB ALQDS MOV STNRY P0043 T02280217=
202208120007 SPECI KATL 120007Z 18012G19KT 10SM FEW018 SCT030CB BKN050 BKN200 25/22 A3005 RMK AO2 TSE06 LTG DSNT SE SW TS DSIPTD CB S DSNT SE-SW MOV STNRY TCU OHD-ALQDS T02500217=
202208112352 METAR KATL 112352Z 17006KT 10SM TS SCT028CB BKN050 BKN150 BKN200 27/21 A3004 RMK AO2 TSB16 SLP164 OCNL LTGICCG VC S-SW DSNT SE TS VC S-SW DSNT SE MOV STNRY TCU OHD-NW T02670211 10306 20267 53000=
202208112316 SPECI KATL 112316Z 10005KT 10SM TS FEW035CB SCT080 SCT150 BKN200 28/21 A3002 RMK AO2 TSB16 OCNL LTGICCG VC SE-S DSNT SW TS VC SE-S DSNT SW MOV STNRY TCU OHD T02830211=
202208112252 METAR KATL 112252Z 09006KT 10SM FEW035 FEW080 SCT150 SCT200 29/21 A3002 RMK AO2 LTG DSNT S AND SW SLP157 CB DSNT SE-SW T02890211=
202208112152 METAR KATL 112152Z 03007KT 10SM FEW035TCU SCT070 BKN140 BKN200 29/21 A3003 RMK AO2 LTG DSNT E SLP160 CB DSNT SE-S TCU DSNT S-W-NW T02890211=
202208112052 METAR KATL 112052Z 02008KT 10SM SCT042TCU SCT070 SCT140 BKN200 BKN250 29/21 A3004 RMK AO2 LTG DSNT NW SLP163 CB DSNT NW TCU SE-SW DSNT ALQDS ACC N-NE T02940206 58023=
202208111952 METAR KATL 111952Z 21008KT 10SM SCT036CB SCT075 SCT140 BKN200 29/21 A3006 RMK AO2 SLP170 CB NW-N MOV E TCU NW-NE DSNT ALQDS SHRA NW-N T02940206=
202208111852 METAR KATL 111852Z 19007KT 10SM SCT032TCU SCT070 SCT140 BKN200 29/21 A3009 RMK AO2 LTG DSNT N AND NW SLP180 CB DSNT N NW TCU N W-NW DSNT SE-SW T02940206=
202208111752 METAR KATL 111752Z 22005KT 10SM SCT028TCU SCT060 SCT140 BKN200 28/21 A3011 RMK AO2 SLP187 TCU SW DSNT N SE NW T02780206 10283 20217 58013=
202208111652 METAR KATL 111652Z 00000KT 10SM FEW025 SCT042 BKN140 BKN200 27/21 A3013 RMK AO2 SLP193 CB DSNT SW TCU DSNT SE-SW-NW ACC N-NE T02670211=
202208111552 METAR KATL 111552Z 30004KT 10SM SCT018 BKN140 BKN200 BKN250 26/21 A3015 RMK AO2 SLP201 TCU DSNT S W T02610211=
202208111452 METAR KATL 111452Z 26005KT 10SM FEW016 BKN140 BKN200 BKN250 25/21 A3015 RMK AO2 SLP201 ACC N-NE T02500206 53002=
202208111352 METAR KATL 111352Z 20004KT 10SM FEW010 BKN140 BKN200 BKN250 23/22 A3015 RMK AO2 SLP200 T02330217=
202208111342 SPECI KATL 111342Z 00000KT 10SM FEW002 FEW008 BKN140 BKN200 24/22 A3015 RMK AO2 FU FEW002 FU PLUME SE T02390217=
202208111252 METAR KATL 111252Z 00000KT 10SM FEW008 BKN130 BKN200 BKN250 23/21 A3014 RMK AO2 SLP199 T02280206=
202208111250 SPECI KATL 111250Z 00000KT 10SM FEW008 BKN130 BKN200 BKN250 22/21 A3014 RMK AO2=
202208111152 METAR KATL 111152Z 00000KT 10SM FEW025 FEW150 SCT180 BKN250 22/20 A3014 RMK AO2 SLP197 TCU DSNT S 70086 T02170200 10222 20217 53003=
202208111052 METAR KATL 111052Z 30004KT 10SM CLR 22/20 A3013 RMK AO2 SLP193 T02170200=
202208110952 METAR KATL 110952Z 00000KT 10SM FEW120 SCT150 BKN250 22/20 A3013 RMK AO2 SLP192 T02170200=
202208110852 METAR KATL 110852Z 00000KT 10SM FEW010 BKN160 BKN190 BKN250 22/20 A3013 RMK AO2 SLP194 T02170200 56010=
202208110752 METAR KATL 110752Z 21005KT 10SM BKN140 BKN170 BKN220 22/21 A3014 RMK AO2 SLP197 T02170206=
202208110652 METAR KATL 110652Z 22004KT 10SM BKN140 BKN170 BKN250 22/21 A3015 RMK AO2 SLP200 T02170206=
202208110552 METAR KATL 110552Z 19004KT 10SM BKN150 BKN180 BKN250 22/21 A3016 RMK AO2 SLP204 60077 T02220211 10278 20222 50005=
202208110452 METAR KATL 110452Z 00000KT 10SM BKN140 BKN200 BKN250 23/22 A3017 RMK AO2 SLP205 T02280217 402940217=
202208110352 METAR KATL 110352Z 00000KT 10SM FEW100 BKN140 BKN200 23/22 A3015 RMK AO2 SLP202 T02280217=
202208110252 METAR KATL 110252Z 00000KT 10SM FEW100 BKN140 BKN200 23/21 A3015 RMK AO2 SLP200 LTG DSNT N-NE CB DSNT N-NE 60077 T02280206 50007=
202208110152 METAR KATL 110152Z 24004KT 10SM FEW060 SCT100 BKN150 BKN200 23/21 A3015 RMK AO2 RAE23 TSE26 SLP201 LTG DSNT N-NE CB DSNT N-NE P0030 T02280211=
202208110126 SPECI KATL 110126Z 20005KT 10SM FEW030 SCT060 BKN100 BKN200 23/21 A3015 RMK AO2 RAE23 TSE26 LTG DSNT NE MOVD NE CB DSNT N NE P0030 T02280206=
202208110103 SPECI KATL 110103Z 15007KT 4SM TSRA FEW010 SCT025CB BKN050 BKN200 23/20 A3015 RMK AO2 OCNL LTGICCG N-NE TS N-NE MOV NE P0027 T02280200=
202208110052 METAR KATL 110052Z 19013G31KT 2 1/2SM R09R/2400VP6000FT +TSRA FEW010 SCT025CB BKN050 BKN200 23/19 A3015 RMK AO2 PK WND 21038/0041 RAB42 TSB27 SLP201 VIS LWR W-N-NE OCNL LTGICCG OHD-ALQDS TS OHD-ALQDS MOV NE P0047 T02330194=
202208110047 SPECI KATL 110047Z 22019G38KT 1 1/2SM R09R/2400VP6000FT +TSRA FEW010 SCT025CB BKN050 BKN200 23/20 A3014 RMK AO2 PK WND 21038/0041 RAB42 TSB27 OCNL LTGICCG OHD-ALQDS TS OHD-ALQDS MOV NE P0021=
202208110027 SPECI KATL 110027Z 17004KT 10SM TS FEW015 FEW035CB SCT110 BKN200 27/22 A3013 RMK AO2 TSB27 OCNL LTGICCG VC S-SW DSNT NW TS VC S-SW DSNT NW MOV NE TCU SE-S T02720222=
202208102352 METAR KATL 102352Z 19003KT 10SM FEW035 SCT110 SCT200 BKN250 28/22 A3013 RMK AO2 SLP193 CB DSNT SE SW NW TCU DSNT N 60009 T02780217 10294 20250 56003=
202208102252 METAR KATL 102252Z 17005KT 10SM FEW035 SCT110 SCT200 BKN250 29/21 A3013 RMK AO2 LTG DSNT W SLP193 CB DSNT SW-W TCU DSNT NW-NE T02890211=
202208102152 METAR KATL 102152Z 19004KT 10SM FEW035 FEW110 BKN200 BKN250 28/21 A3013 RMK AO2 SLP193 CB DSNT SW T02830206=
202208102052 METAR KATL 102052Z 23005KT 10SM FEW036 FEW100 BKN200 BKN250 28/22 A3014 RMK AO2 LTG DSNT NE TSE16 SLP196 TS MOVD NE CB DSNT NE SE-SW W TCU DSNT NE W 60009 T02830217 56021=
202208102017 SPECI KATL 102017Z 20003KT 10SM FEW036 FEW080 SCT130 BKN200 BKN250 27/21 A3014 RMK AO2 LTG DSNT W TSE16 TS MOVD NE CB DSNT N NE S W TCU DSNT E S T02670211=
202208101952 METAR KATL 101952Z 12008KT 10SM TS FEW033CB SCT075 BKN120 BKN200 26/22 A3016 RMK AO2 LTG DSNT NE AND W RAE46 SLP206 FRQ LTGICCGCA VC N NE-E TS VC N NE-E MOV NE CB DSNT NE W TCU NE W P0007 T02610217=
202208101916 SPECI KATL 101916Z 15007KT 10SM -TSRA SCT033CB BKN080 BKN140 BKN200 25/22 A3017 RMK AO2 LTG DSNT S-NW FRQ LTGICCGCA NE-SE-S TS NE-SE-S MOV NE CB DSNT NE S W-NW TCU W-NW P0007 T02500222=
202208101852 METAR KATL 101852Z 16015KT 6SM R09R/5000VP6000FT +TSRA SCT036CB BKN140 OVC200 27/22 A3018 RMK AO2 LTG DSNT S-NW RAB50 TSB32 SLP208 OCNL LTGICCGCA S-SW TS S-SW MOV NE CB DSNT NE SW-NW TCU DSNT ALQDS P0002 T02670217=
202208101833 SPECI KATL 101833Z 23007KT 10SM TS SCT036CB SCT140 BKN200 BKN250 29/21 A3018 RMK AO2 LTG DSNT NE AND SW TSB32 OCNL LTGCGIC S-SW TS S-SW MOV NE CB DSNT NE SW W-NW TCU DSNT ALQDS SHRA S-SW T02940206=
202208101752 METAR KATL 101752Z 22007KT 10SM SCT026TCU SCT140 BKN180 BKN250 29/22 A3020 RMK AO2 LTG DSNT N AND NE TSB09E22 SLP217 TS MOVD NE CB DSNT N NE SW NW TCU NE SE SW DSNT ALQDS T02890217 10289 20222 58006=
202208101723 SPECI KATL 101723Z 00000KT 10SM SCT024TCU SCT140 BKN180 BKN250 28/22 A3021 RMK AO2 LTG DSNT NE TSB09E22 TS MOVD NE CB DSNT NE NW TCU N-NE SE-S DSNT ALQDS T02780222=
202208101709 SPECI KATL 101709Z VRB04KT 10SM TS SCT022CB BKN140 BKN200 27/22 A3022 RMK AO2 LTG DSNT NW TSB09 OCNL LTGCGIC NW-N TS NW-N MOV NE CB DSNT NW TCU N-NE S SW-NW SHRA NW-N T02720222=
202208101652 METAR KATL 101652Z 20006KT 10SM SCT020CB BKN140 BKN200 BKN250 27/22 A3023 RMK AO2 SLP225 CB NW MOV NE TCU N-NE SW ACC S-W SHRA NW T02720222=
202208101552 METAR KATL 101552Z 21005KT 10SM SCT016 BKN140 BKN200 BKN250 26/22 A3023 RMK AO2 SLP229 ACC SE-S W-NW T02610222=
202208101500 SPECI KATL 101500Z 20004KT 10SM BKN012 BKN150 BKN200 BKN250 26/22 A3023 RMK AO2 T02560222=
202208101452 METAR KATL 101452Z 23005KT 10SM SCT012 BKN150 BKN200 BKN250 25/22 A3022 RMK AO2 SLP226 T02500222 53004=
202208101352 METAR KATL 101352Z 27005KT 10SM SCT006 SCT140 BKN200 BKN250 23/22 A3022 RMK AO2 SLP224 T02330217=
202208101252 METAR KATL 101252Z 25007KT 10SM FEW006 FEW040 SCT150 BKN200 BKN250 23/21 A3021 RMK AO2 SLP222 SHRA NE T02280211=
202208101152 METAR KATL 101152Z 24005KT 10SM FEW005 SCT055 SCT090 BKN130 22/21 A3021 RMK AO2 RAE02 SLP221 SHRA NW-N P0000 60000 70119 T02220211 10228 20217 53010=
202208101052 METAR KATL 101052Z 23003KT 10SM -RA SCT005 SCT035 BKN065 BKN150 22/21 A3020 RMK AO2 RAB47 SLP216 SCT005 V BKN P0000 T02220206=
202208100952 METAR KATL 100952Z 19006KT 10SM BKN005 BKN019 BKN150 22/21 A3018 RMK AO2 SLP211 BKN005 V SCT T02170206=
202208100852 METAR KATL 100852Z 17007KT 10SM SCT004 SCT017 BKN150 BKN200 22/21 A3018 RMK AO2 SLP209 60000 T02220211 53008=
202208100752 METAR KATL 100752Z 00000KT 10SM FEW005 SCT120 BKN150 OVC200 23/21 A3015 RMK AO2 RAE17 SLP200 P0000 T02280211=
202208100652 METAR KATL 100652Z 00000KT 10SM -RA FEW005 SCT120 BKN150 BKN200 23/21 A3015 RMK AO2 RAB47 SLP198 P0000 T02280211=
202208100552 METAR KATL 100552Z 30006KT 10SM FEW005 FEW110 BKN150 BKN200 OVC250 23/22 A3016 RMK AO2 SLP201 60064 T02280217 10256 20228 58002=
202208100452 METAR KATL 100452Z 31006KT 10SM FEW050 SCT110 BKN150 OVC200 23/21 A3014 RMK AO2 RAE51 TSE24 SLP198 LTG DSNT NW CB DSNT NW P0001 T02280211 403220222=
202208100424 SPECI KATL 100424Z VRB03KT 9SM -RA FEW050 SCT080 BKN110 OVC200 23/21 A3016 RMK AO2 TSE24 LTG DSNT NE NW TS DSIPTD CB DSNT NE NW P0001 T02280211=
202208100352 METAR KATL 100352Z 23005KT 9SM -TSRA FEW008 SCT030CB BKN080 BKN200 23/21 A3019 RMK AO2 RAB29 SLP214 OCNL LTGICCG NE-E SW-NW-N TS NE-E SW-NW-N MOV N P0000 T02280206=
202208100252 METAR KATL 100252Z 25007KT 10SM TS FEW030CB SCT060 BKN100 BKN200 24/22 A3016 RMK AO2 TSB52 SLP205 FRQ LTGICCG VC SE-SW TS VC SE-SW MOV N 60063 T02390217 51016 $=
202208100152 METAR KATL 100152Z 00000KT 10SM SCT080 BKN140 BKN200 24/22 A3015 RMK AO2 SLP200 LTG DSNT SE-SW NW CB DSNT SE-SW NW T02390222 $=
202208100052 METAR KATL 100052Z 20004KT 10SM FEW030 SCT100 BKN150 BKN200 24/22 A3013 RMK AO2 RAE40 TSE37 SLP194 CB DSNT NW P0063 T02390217 $=
202208100037 SPECI KATL 100037Z 00000KT 10SM -RA FEW030TCU SCT100 BKN150 BKN200 26/20 A3013 RMK AO2 TSE37 TS DSIPTD CB DSNT NW TCU N DSNT NW P0063 T02560200 $=
202208100008 SPECI KATL 100008Z 36008KT 4SM R09R/3000VP6000FT TSRA FEW008 SCT030CB BKN080 BKN200 24/20 A3013 RMK AO2 VIS LWR W-N OCNL LTGICCGCA OHD-ALQDS TS OHD-ALQDS MOV N P0062 T02390200 $=
202208092350 SPECI KATL 092350Z 21014G33KT 2SM R09R/1600VP6000FT +TSRA SCT010 BKN030CB BKN150 BKN250 24/21 A3012 RMK AO2 PK WND 17033/2347 RAB37 TSB23 VIS LWR SE-SW FRQ LTGCGICCA OHD-ALQDS TS OHD-ALQDS MOV N P0044 $=
202208092323 SPECI KATL 092323Z 04007KT 10SM TS FEW035CB BKN150 BKN200 BKN250 28/21 A3011 RMK AO2 TSB23 OCNL LTGICCG VC S-SW TS VC S-SW MOV NW TCU SW-NW DSNT N T02780206=
202208092252 METAR KATL 092252Z 04007KT 10SM FEW040 SCT140 BKN200 BKN250 28/21 A3011 RMK AO2 TSE52 SLP188 SHRA N-NE LTG DSNT SW W NW TS MOVD N CB DSNT SW W NW TCU DSNT SW-W T02830206=
202208092152 METAR KATL 092152Z 22006KT 10SM TS FEW045CB SCT110 BKN200 BKN250 29/22 A3009 RMK AO2 SLP179 OCNL LTGICCG NE VC SW NW TS NE VC SW NW MOV NW T02940217=
202208092052 METAR KATL 092052Z 19005KT 10SM TS SCT046CB SCT120 SCT200 BKN250 31/18 A3009 RMK AO2 SLP180 TSB41 OCNL LTGICCGCA VC SE SW TS VC SE SW MOV NW CB DSNT S NW TCU N E-SE SW-W DSNT ALQDS T03110183 56024=
202208092044 SPECI KATL 092044Z 27004KT 10SM TS SCT046CB SCT120 SCT200 BKN250 32/19 A3009 RMK AO2 LTG DSNT SE-W TSB41 OCNL LTGCGIC VC SE SW TS VC SE SW MOV NW CB DSNT SE NW TCU NE-SE SW DSNT ALQDS T03170189=
202208091952 METAR KATL 091952Z 21005KT 10SM SCT042TCU SCT120 SCT200 BKN250 32/20 A3012 RMK AO2 LTG DSNT NE AND S SLP187 CB DSNT N NE SE-S TCU SE-SW DSNT ALQDS SHRA DSNT S T03170200=
202208091852 METAR KATL 091852Z 17005KT 10SM SCT034TCU SCT110 BKN200 BKN250 30/21 A3014 RMK AO2 LTG DSNT NE-S SLP195 CB DSNT N-NE SE-S TCU SE DSNT ALQDS T03000206=
202208091752 METAR KATL 091752Z 20008KT 10SM SCT028TCU SCT110 BKN200 BKN250 30/22 A3017 RMK AO2 LTG DSNT N SLP204 CB DSNT N-NE NW TCU N SE-SW DSNT ALQDS T03000217 10300 20222 58008=
202208091652 METAR KATL 091652Z 19007KT 10SM FEW014 FEW026 SCT200 BKN250 27/22 A3018 RMK AO2 LTG DSNT N SLP210 CB DSNT NW-NE TCU DSNT ALQDS T02670222=
202208091612 SPECI KATL 091612Z 23005KT 10SM FEW008 SCT024 SCT200 BKN250 24/22 A3019 RMK AO2 LTG DSNT N AND NW CB DSNT NW-N TCU DSNT N-NE T02390222=
202208091552 METAR KATL 091552Z 22005KT 9SM SCT007 BKN024 BKN200 BKN250 23/22 A3019 RMK AO2 LTG DSNT NW SLP213 CB DSNT NW T02330217=
202208091452 METAR KATL 091452Z 22005KT 9SM OVC007 23/22 A3019 RMK AO2 SLP215 CIG 005V009 BINOVC T02330217 50008=
202208091352 METAR KATL 091352Z 22005KT 9SM OVC006 23/21 A3019 RMK AO2 SLP215 CIG 004V008 BINOVC T02280211=
202208091336 SPECI KATL 091336Z 21006KT 9SM BKN007 BKN012 BKN180 BKN250 23/21 A3019 RMK AO2 CIG 005V009 T02280211=
202208091252 METAR KATL 091252Z 19005KT 10SM FEW005 SCT180 SCT250 23/21 A3018 RMK AO2 SLP211 T02280211=
202208091152 METAR KATL 091152Z 21004KT 10SM FEW007 FEW120 SCT180 SCT250 23/21 A3017 RMK AO2 SLP205 TCU DSNT NW ACC DSNT SW-W T02280211 10228 20222 53014=
202208091052 METAR KATL 091052Z 29004KT 10SM FEW005 FEW120 SCT180 BKN220 22/21 A3014 RMK AO2 SLP196 T02220206=
202208090952 METAR KATL 090952Z 18004KT 10SM FEW005 SCT150 BKN200 22/21 A3014 RMK AO2 SLP196 T02220206=
202208090852 METAR KATL 090852Z 22004KT 10SM FEW005 FEW110 BKN150 BKN200 22/21 A3012 RMK AO2 SLP190 T02220211 56004=
202208090752 METAR KATL 090752Z 00000KT 10SM FEW110 SCT150 BKN200 BKN250 23/21 A3013 RMK AO2 SLP192 T02280211=
202208090652 METAR KATL 090652Z 17003KT 10SM FEW020 BKN150 BKN200 BKN250 23/21 A3012 RMK AO2 SLP190 T02280211=
202208090552 METAR KATL 090552Z 15003KT 10SM FEW020 FEW100 SCT150 BKN200 BKN250 23/22 A3014 RMK AO2 SLP194 T02280217 10267 20228 58002=
202208090452 METAR KATL 090452Z 19005KT 10SM FEW020 SCT110 BKN200 BKN250 23/22 A3015 RMK AO2 SLP200 LTG DSNT E-SE CB DSNT E-SE T02330217 403280222=
202208090352 METAR KATL 090352Z 23005KT 10SM FEW025 SCT050 BKN200 BKN250 24/22 A3015 RMK AO2 SLP198 LTG DSNT E-SE W CB DSNT E-SE W T02390217=
202208090252 METAR KATL 090252Z 20003KT 10SM SCT120 BKN200 BKN250 25/22 A3014 RMK AO2 SLP196 LTG DSNT SE SW CB DSNT SE SW T02500222 51024=
202208090152 METAR KATL 090152Z 20004KT 10SM FEW120 SCT200 BKN250 25/22 A3012 RMK AO2 SLP188 LTG DSNT SE CB DSNT SE T02500222=
202208090052 METAR KATL 090052Z 21005KT 10SM FEW100 BKN200 BKN250 25/22 A3011 RMK AO2 SLP186 CB DSNT SE T02500222=
202208082352 METAR KATL 082352Z 31005KT 10SM FEW100 BKN200 BKN250 27/22 A3007 RMK AO2 SLP172 CB DSNT SE 60000 T02670217 10328 20256 58010=
202208082252 METAR KATL 082252Z 21006KT 10SM FEW040 SCT100 BKN150 BKN200 26/21 A3009 RMK AO2 TSE33 SLP179 LTG DSNT E-SE SW CB DSNT E-SE SW T02610211=
202208082233 SPECI KATL 082233Z 22006KT 10SM FEW040 SCT100 BKN150 BKN200 26/22 A3010 RMK AO2 TSE33 LTG DSNT NE E-SE SW TS MOVD SW CB DSNT NE E-SE SW T02610217=
202208082152 METAR KATL 082152Z 20005KT 10SM TS FEW040CB SCT080 BKN150 BKN200 26/22 A3009 RMK AO2 RAE10 SLP182 OCNL LTGICCGCA VC S-SW DSNT NE SE W TS VC S-SW DSNT NE SE W MOV SW P0000 T02610217=
202208082052 METAR KATL 082052Z 07012KT 9SM -TSRA SCT046CB SCT075 BKN140 BKN200 29/22 A3010 RMK AO2 WSHFT 2022 RAB39 SLP181 FRQ LTGICCGCA E-S TS E-S MOV SW CB DSNT ALQDS P0000 60000 T02940217 56020=
202208082039 SPECI KATL 082039Z 04011KT 10SM -TSRA SCT044CB SCT070 SCT140 BKN200 30/19 A3010 RMK AO2 WSHFT 2022 LTG DSNT E RAB39 FRQ LTGCGICCA NE-SE-S TS NE-SE-S MOV SW CB DSNT ALQDS P0000 T03000194=
202208082029 SPECI KATL 082029Z 04014G18KT 10SM TS SCT044CB SCT070 SCT140 BKN200 31/20 A3011 RMK AO2 LTG DSNT E FRQ LTGCGICCA SE VC NE-SE TS SE VC NE-SE MOV SW CB DSNT ALQDS SHRA N-E-SE T03060200=
202208081952 METAR KATL 081952Z 35009KT 10SM TS FEW042CB SCT140 BKN200 BKN250 32/21 A3010 RMK AO2 TSB45 SLP183 FRQ LTGCGICCA N-NE E VC SE TS N-NE E VC SE MOV W CB DSNT ALQDS TCU SE NW SHRA N-NE E VC SE T03170206=
202208081946 SPECI KATL 081946Z 24004KT 10SM TS FEW042CB SCT140 BKN200 BKN250 33/21 A3010 RMK AO2 TSB45 OCNL LTGICCG E VC SE TS E VC SE MOV W CB DSNT ALQDS TCU N-NE S NW SHRA E VC SE=
202208081852 METAR KATL 081852Z 25004KT 10SM FEW040TCU SCT140 BKN200 BKN250 31/21 A3013 RMK AO2 LTG DSNT N SLP191 CB DSNT NW-NE TCU E-S DSNT ALQDS T03110211=
202208081752 METAR KATL 081752Z 29006KT 10SM SCT036TCU SCT140 BKN200 BKN250 30/21 A3016 RMK AO2 SLP203 CB DSNT N-NE S NW TCU NE SE S-SW DSNT ALQDS SHRA DSNT S T03000211 10311 20228 58010=
202208081652 METAR KATL 081652Z 30004KT 10SM FEW034TCU FEW140 SCT200 BKN250 30/21 A3018 RMK AO2 SLP207 CB DSNT NE NW TCU E-S DSNT N-NE T03000211=
202208081552 METAR KATL 081552Z 31005KT 10SM FEW026 FEW140 BKN180 BKN250 29/21 A3019 RMK AO2 SLP213 CB DSNT N-NE TCU DSNT NE SE NW T02890211=
202208081452 METAR KATL 081452Z 29006KT 10SM FEW022 FEW140 BKN180 BKN250 28/21 A3019 RMK AO2 SLP213 CB DSNT N NE T02780211 50004=
202208081352 METAR KATL 081352Z 00000KT 10SM FEW020 SCT140 SCT180 BKN250 27/21 A3020 RMK AO2 SLP213 T02720211=
202208081252 METAR KATL 081252Z 00000KT 10SM SCT180 SCT250 25/21 A3018 RMK AO2 SLP211 T02500206=
202208081152 METAR KATL 081152Z 22005KT 10SM FEW100 FEW200 SCT250 23/21 A3018 RMK AO2 SLP209 ACC DSNT SE-S NW T02280206 10233 20222 53008=
202208081052 METAR KATL 081052Z 00000KT 10SM FEW040 SCT200 SCT250 23/20 A3016 RMK AO2 SLP204 T02330200=
202208080952 METAR KATL 080952Z 30004KT 10SM SCT200 BKN250 23/20 A3016 RMK AO2 SLP201 T02280200=
202208080852 METAR KATL 080852Z 24003KT 10SM SCT200 BKN250 22/20 A3016 RMK AO2 SLP201 T02220200 55003=
202208080752 METAR KATL 080752Z 24003KT 10SM FEW050 SCT200 SCT250 23/20 A3015 RMK AO2 SLP198 T02280200=
202208080652 METAR KATL 080652Z 26003KT 10SM FEW050 SCT180 SCT220 BKN250 23/20 A3016 RMK AO2 SLP201 T02280200=
202208080552 METAR KATL 080552Z 00000KT 10SM FEW050 SCT180 BKN220 BKN250 23/19 A3017 RMK AO2 SLP204 T02330194 10300 20233 58014=
202208080452 METAR KATL 080452Z 00000KT 10SM FEW045 SCT180 BKN210 BKN250 24/19 A3018 RMK AO2 SLP208 T02390194 403220217=
202208080352 METAR KATL 080352Z 26006KT 10SM FEW012 SCT045 BKN180 BKN250 24/21 A3020 RMK AO2 SLP215 CB DSNT SW T02390206=
202208080252 METAR KATL 080252Z 22008KT 10SM FEW020 SCT046 SCT075 BKN200 BKN250 25/21 A3021 RMK AO2 LTG DSNT SW AND W SLP219 TSE45 TS MOV SW CB DSNT SW AND W T02500211 51015=
202208080249 SPECI KATL 080249Z 22005KT 10SM FEW020 SCT046 SCT075 BKN200 BKN250 26/21 A3021 RMK AO2 LTG DSNT SW AND W TSE45 TS MOV SW CB DSNT SW AND W=
202208080152 METAR KATL 080152Z 10005KT 10SM TS FEW025CB SCT048 SCT095 BKN200 BKN250 28/21 A3019 RMK AO2 SLP211 CONS LTGICCCCGCA OHD-SW-W TS OHD-SW-W MOV SW T02830211=
202208080052 METAR KATL 080052Z 12005KT 10SM TS FEW025 FEW040CB SCT100 SCT150 BKN250 29/21 A3016 RMK AO2 TSB46 SLP203 FRQ LTGICCG NW TS NW MOV SW CONS LTGICCCCGCA DSNT S-SW TS DSNT S-SW MOV SW CB DSNT SE T02940211=
202208080046 SPECI KATL 080046Z 13005KT 10SM TS FEW040CB SCT100 SCT150 BKN250 29/22 A3016 RMK AO2 TSB46 FRQ LTGICCG NW TS NW MOV SW=
202208072352 METAR KATL 072352Z 14007KT 10SM FEW047 FEW100 SCT150 BKN250 30/22 A3016 RMK AO2 SLP201 CB DSNT N NE E SE SW TCU DSNT S W T03000217 10322 20294 53003=
202208072252 METAR KATL 072252Z 08007KT 10SM FEW050 31/19 A3015 RMK AO2 SLP198 T03110194=
202208072152 METAR KATL 072152Z 00000KT 10SM SCT045TCU SCT150 BKN200 BKN250 31/20 A3015 RMK AO2 SLP197 TCU NW AND DSNT N SW-NW CB DSNT W T03110200=
202208072052 METAR KATL 072052Z 00000KT 10SM SCT044 SCT100 SCT200 31/21 A3015 RMK AO2 SLP198 TCU DSNT E SW W-NW MDT CU ALQDS T03110211 56028=
202208071952 METAR KATL 071952Z 14005KT 10SM SCT039TCU SCT090 SCT200 31/21 A3017 RMK AO2 SLP205 TCU SW DSNT S-SW NW MDT CU ALQDS T03110211=
202208071852 METAR KATL 071852Z VRB04KT 10SM SCT033TCU BKN055 BKN200 31/22 A3020 RMK AO2 SLP216 TCU NE DSNT S MDT CU ALQDS T03060217=
202208071752 METAR KATL 071752Z VRB04KT 10SM SCT026 SCT150 29/22 A3023 RMK AO2 SLP227 MDT CU ALQDS T02940222 10294 20222 58014=
202208071652 METAR KATL 071652Z 00000KT 10SM SCT024 BKN150 28/22 A3026 RMK AO2 SLP236 T02830217=
202208071552 METAR KATL 071552Z 00000KT 10SM SCT021 BKN140 27/22 A3028 RMK AO2 SLP243 T02720217=
202208071452 METAR KATL 071452Z 17004KT 10SM SCT015 BKN130 BKN210 26/22 A3028 RMK AO2 SLP244 T02610217 51007=
202208071352 METAR KATL 071352Z 16004KT 10SM SCT009 BKN210 26/22 A3027 RMK AO2 SLP242 T02560217=
202208071252 METAR KATL 071252Z VRB03KT 10SM FEW007 FEW150 BKN220 BKN250 24/21 A3027 RMK AO2 SLP238 T02390206=
202208071152 METAR KATL 071152Z 00000KT 10SM FEW005 FEW150 BKN200 22/21 A3026 RMK AO2 SLP235 70120 T02220206 10239 20217 51013=
202208071052 METAR KATL 071052Z 15003KT 10SM FEW005 SCT008 BKN200 BKN250 22/21 A3024 RMK AO2 SLP230 SCT008 V BKN T02170206=
202208071043 SPECI KATL 071043Z 13003KT 10SM FEW005 SCT008 BKN200 BKN250 22/21 A3024 RMK AO2 SCT008 V BKN T02170206=
202208071007 SPECI KATL 071007Z 12005KT 8SM FEW005 BKN011 BKN200 22/20 A3023 RMK AO2 BKN011 V SCT T02170200=
202208070952 METAR KATL 070952Z 00000KT 10SM FEW006 SCT012 BKN200 BKN250 22/20 A3023 RMK AO2 SLP226 VIS LWR NW-NE T02170200=
202208070852 METAR KATL 070852Z 09006KT 10SM FEW006 SCT250 22/20 A3022 RMK AO2 SLP221 T02170200 55006=
202208070752 METAR KATL 070752Z 09004KT 10SM FEW006 FEW050 SCT180 SCT250 22/21 A3020 RMK AO2 SLP217 T02220206=
202208070652 METAR KATL 070652Z 03005KT 10SM FEW007 FEW045 BKN180 OVC250 23/21 A3021 RMK AO2 SLP219 T02280211=
202208070552 METAR KATL 070552Z 00000KT 10SM FEW005 FEW080 OVC180 23/21 A3023 RMK AO2 SLP228 60120 T02280206 10300 20222 55026=
202208070549 SPECI KATL 070549Z 00000KT 10SM FEW005 FEW080 OVC180 23/21 A3024 RMK AO2=
202208070452 METAR KATL 070452Z 14004KT 10SM FEW045 FEW080 BKN120 BKN250 23/21 A3023 RMK AO2 RAE30 TSE50 SLP226 TS DSIPTD OHD-S-NW P0006 T02280206 403280222=
202208070450 SPECI KATL 070450Z 15004KT 10SM FEW045 FEW080 BKN120 BKN250 23/21 A3023 RMK AO2 RAE30 TSE50 TS DSIPTD OHD-S-NW P0006=
202208070352 METAR KATL 070352Z 15006KT 10SM -TSRA SCT043CB BKN075 BKN110 BKN250 22/21 A3027 RMK AO2 SLP242 OCNL LTGICCCCGCA OHD-S-NW TS OHD-S-NW MOV STNRY P0044 T02220206=
202208070338 SPECI KATL 070338Z 17006KT 7SM -TSRA FEW006 SCT043CB BKN110 BKN250 22/21 A3028 RMK AO2 OCNL LTGICCCCGCA OHD-S-NW TS OHD-S-NW MOV STNRY P0044 T02220211=
202208070322 SPECI KATL 070322Z 15006KT 2SM TSRA BR FEW006 BKN037CB OVC070 22/21 A3029 RMK AO2 LTG DSNT N AND SW OCNL LTGICCCCGCA OHD-ALQDS TS OHD-ALQDS MOV STNRY P0042 T02220206=
202208070252 METAR KATL 070252Z COR 09006KT 1 1/2SM R09R/5000VP6000FT +TSRA BR SCT009 BKN034CB OVC048 23/21 A3031 RMK AO2 PK WND 08026/0201 WSHFT 0223 SLP256 OCNL LTGICCG OHD-ALQDS TS OHD-ALQDS MOV STNRY P0070 60070 T02280211 52031=
202208070243 SPECI KATL 070243Z 08007G19KT 1 1/4SM R09R/5000VP6000FT +TSRA BR SCT009 BKN034CB OVC048 23/21 A3031 RMK AO2 PK WND 08026/0201 WSHFT 0223 OCNL LTGICCG OHD AND ALQDS TS OHD AND ALQDS MOV STNRY P0040 T02280211=
202208070234 SPECI KATL 070234Z 05016KT 1 1/2SM R09R/4000VP6000FT +TSRA BR SCT009 BKN039CB OVC046 23/21 A3031 RMK AO2 PK WND 08026/0201 OCNL LTGICCG OHD AND ALQDS TS OHD AND ALQDS MOV STNRY P0016 T02280211=
202208070219 SPECI KATL 070219Z 12009KT 10SM -TSRA SCT009 BKN046CB BKN080 BKN250 23/21 A3029 RMK AO2 PK WND 08026/0201 LTG DSNT NE-S PRESRR FRQ LTGICCG OHD AND ALQDS TS OHD AND ALQDS MOV STNRY CB DSNT NE-S P0000 T02330211=
202208070152 METAR KATL 070152Z 09020G26KT 7SM -TSRA FEW015 BKN044CB BKN080 OVC250 24/21 A3026 RMK AO2 PK WND 09026/0152 LTG DSNT ALQDS RAB52 SLP237 FRQ LTGICCG OHD AND ALQDS TS OHD AND ALQDS MOV STNRY CB DSNT ALQDS P0000 T02440211=
202208070052 METAR KATL 070052Z 32003KT 10SM TS FEW045CB SCT065 SCT080 SCT170 BKN250 29/22 A3020 RMK AO2 SLP216 CONS LTGICCG N-NE AND E TS N-NE AND E MOV STNRY TCU DSNT SE-SW T02940217=
202208062352 METAR KATL 062352Z 30007KT 10SM TS FEW040CB FEW110 SCT200 SCT250 30/22 A3018 RMK AO2 LTG DSNT NE SLP210 TSB38 OCNL LTGICCG VC N TS VC N MOV STNRY CB DSNT NE SE S NW T03000222 10328 20294 53005=
202208062343 SPECI KATL 062343Z 28007KT 10SM TS FEW040CB FEW110 SCT200 SCT250 31/23 A3018 RMK AO2 TSB38 OCNL LTGICCG VC N TS VC N MOV STNRY T03060228=
202208062252 METAR KATL 062252Z 26003KT 10SM FEW045 FEW110 SCT250 32/21 A3016 RMK AO2 SLP199 CB DSNT NE TCU DSNT N E SE S T03220206=
202208062152 METAR KATL 062152Z 25004KT 10SM FEW046 FEW100 SCT250 32/20 A3016 RMK AO2 SLP201 CB DSNT NE NW TCU DSNT N E T03220200=
202208062052 METAR KATL 062052Z 19005KT 10SM SCT042 SCT250 32/21 A3017 RMK AO2 SLP204 CB DSNT W TCU DSNT N NW T03170206 56027=
202208061952 METAR KATL 061952Z 16007KT 10SM SCT034 SCT250 32/22 A3019 RMK AO2 LTG DSNT W SLP210 CB DSNT SW-W TCU DSNT N E T03170217=
202208061852 METAR KATL 061852Z 16006KT 10SM SCT030 SCT250 31/22 A3022 RMK AO2 SLP220 CB DSNT W MDT DSNT N-E T03060222=
202208061752 METAR KATL 061752Z 16007KT 10SM SCT026 SCT250 30/23 A3025 RMK AO2 SLP231 T03000233 10300 20233 58009=
202208061735 SPECI KATL 061735Z 12007KT 10SM SCT026 SCT250 29/23 A3025 RMK AO2 T02940233=
202208061652 METAR KATL 061652Z 15007KT 10SM BKN023 BKN250 29/23 A3027 RMK AO2 SLP240 T02940228=
202208061552 METAR KATL 061552Z 12004KT 10SM BKN018 BKN250 28/23 A3028 RMK AO2 SLP243 T02830228=
202208061524 SPECI KATL 061524Z VRB06KT 10SM BKN015 BKN060 BKN250 27/23 A3028 RMK AO2 T02720228=
202208061452 METAR KATL 061452Z 10007KT 10SM BKN011 BKN055 BKN250 26/23 A3028 RMK AO2 SLP242 T02610228 51015=
202208061433 SPECI KATL 061433Z VRB05KT 9SM BKN010 BKN250 25/23 A3027 RMK AO2 T02500228=
202208061352 METAR KATL 061352Z 10007KT 8SM OVC006 24/23 A3027 RMK AO2 SLP239 T02440228=
202208061252 METAR KATL 061252Z 09007KT 7SM OVC005 24/22 A3025 RMK AO2 SLP234 CIG 004V006 T02390222=
202208061249 SPECI KATL 061249Z 08007KT 7SM OVC005 24/22 A3025 RMK AO2=
202208061152 METAR KATL 061152Z 09006KT 7SM OVC004 23/22 A3023 RMK AO2 SLP228 70019 T02330222 10256 20233 53012=
202208061148 SPECI KATL 061148Z 08008KT 7SM OVC004 23/22 A3023 RMK AO2=
202208061142 SPECI KATL 061142Z VRB06KT 7SM BKN005 23/22 A3023 RMK AO2 T02330222=
202208061052 METAR KATL 061052Z 09006KT 10SM FEW005 FEW045 SCT200 SCT250 23/22 A3021 RMK AO2 SLP222 T02330217=
202208060952 METAR KATL 060952Z 10005KT 10SM FEW005 FEW045 FEW200 23/22 A3021 RMK AO2 SLP219 T02330222=
202208060949 SPECI KATL 060949Z 10004KT 10SM FEW005 FEW045 FEW200 23/22 A3020 RMK AO2=
202208060852 METAR KATL 060852Z 11005KT 10SM FEW045 FEW200 24/22 A3020 RMK AO2 SLP213 T02390222 53000=
202208060752 METAR KATL 060752Z 11006KT 10SM FEW045 FEW200 FEW250 25/22 A3019 RMK AO2 SLP212 T02500222=
202208060652 METAR KATL 060652Z 12003KT 10SM FEW045 SCT200 SCT250 25/22 A3019 RMK AO2 SLP213 T02500222=
202208060552 METAR KATL 060552Z 12004KT 10SM FEW045 SCT200 SCT250 26/22 A3020 RMK AO2 SLP213 T02560222 10278 20256 50003=
202208060452 METAR KATL 060452Z 12006KT 10SM FEW045 SCT200 BKN250 26/22 A3020 RMK AO2 SLP216 T02610222 403280228=
202208060352 METAR KATL 060352Z 07007KT 10SM FEW045 SCT200 BKN250 26/22 A3020 RMK AO2 SLP214 T02610222=
202208060252 METAR KATL 060252Z 11003KT 10SM FEW150 BKN200 BKN250 27/22 A3019 RMK AO2 SLP210 T02720217 53012=
202208060152 METAR KATL 060152Z 09003KT 10SM FEW150 SCT200 BKN250 27/22 A3017 RMK AO2 SLP204 T02720222=
202208060052 METAR KATL 060052Z 07006KT 10SM FEW140 BKN200 BKN250 27/22 A3015 RMK AO2 SLP200 T02670222=
202208052352 METAR KATL 052352Z 03007KT 10SM FEW030 SCT140 BKN200 BKN250 27/22 A3015 RMK AO2 SLP199 LTG DSNT SE CB DSNT SE 60019 T02670222 10328 20250 51007=
202208052252 METAR KATL 052252Z 00000KT 10SM FEW035 SCT120 BKN150 BKN250 28/23 A3014 RMK AO2 RAE15 TSE24 SLP196 LTG DSNT NW-NE CB DSNT NW-NE SW TCU DSNT NE-E P0000 T02780233=
202208052224 SPECI KATL 052224Z 00000KT 10SM FEW035 SCT120 BKN150 BKN250 27/24 A3013 RMK AO2 RAE15 TSE24 LTG DSNT NW-NE TS MOVD N CB DSNT NW-NE E P0000 T02670244=
202208052152 METAR KATL 052152Z 23004KT 10SM -TSRA FEW035CB SCT080 BKN120 BKN200 26/23 A3015 RMK AO2 WSHFT 2045 RAB2059 SLP199 OCNL LTGCGICCA VC NW-NE DSNT SW TS VC NW-NE DSNT SW MOV N TCU DSNT NE-E P0019 T02610233=
202208052105 SPECI KATL 052105Z 23012G25KT 7SM TSRA FEW015 BKN040CB BKN150 BKN250 26/22 A3014 RMK AO2 WSHFT 2045 RAB2059 VIS LWR S-SW FRQ LTGCGICCA OHD-ALQDS TS OHD-ALQDS MOV N TCU DSNT NE-E P0003 T02610222=
202208052052 METAR KATL 052052Z 21013G22KT 10SM TS BKN043CB BKN200 31/22 A3013 RMK AO2 LTG DSNT SW-NW TSB25 SLP190 OCNL LTGCGIC S-SW VC W TS S-SW VC W MOV N TCU DSNT NE-E T03110217 56018=
202208052025 SPECI KATL 052025Z 16010G15KT 10SM TS SCT046CB BKN250 33/21 A3013 RMK AO2 LTG DSNT SW TSB25 OCNL LTGCG VC SW TS VC SW MOV N TCU NW-NE-SE T03280211=
202208051952 METAR KATL 051952Z 17008KT 10SM SCT044 BKN250 32/21 A3014 RMK AO2 LTG DSNT SE AND W SLP196 CB DSNT SE W TCU DSNT SE SW T03220211=
202208051852 METAR KATL 051852Z 11006KT 10SM SCT043 BKN250 32/21 A3016 RMK AO2 LTG DSNT SW SLP202 CB DSNT S SW W TCU DSNT ALQDS T03220211=
202208051752 METAR KATL 051752Z 10004KT 10SM SCT038 BKN250 32/22 A3018 RMK AO2 SLP207 CB DSNT S-SW MDT CU ALQDS T03170217 10322 20233 58009=
202208051652 METAR KATL 051652Z 15006KT 10SM SCT032 SCT250 31/22 A3020 RMK AO2 SLP214 MDT CU ALQDS T03110222=
202208051552 METAR KATL 051552Z 14004KT 10SM FEW026 SCT250 29/22 A3021 RMK AO2 SLP219 T02940222=
202208051452 METAR KATL 051452Z 15003KT 10SM FEW024 SCT250 28/22 A3021 RMK AO2 SLP218 T02830222 51010=
202208051352 METAR KATL 051352Z 16004KT 10SM FEW018 FEW250 27/22 A3020 RMK AO2 SLP216 T02670222=
202208051252 METAR KATL 051252Z 10003KT 10SM FEW030 FEW180 SCT250 26/22 A3020 RMK AO2 SLP214 T02560217=
202208051152 METAR KATL 051152Z 09006KT 10SM FEW050 FEW200 SCT250 23/21 A3018 RMK AO2 SLP209 MDT CU DSNT NW 70056 T02330211 10267 20228 53015=
202208051052 METAR KATL 051052Z 09005KT 10SM FEW050 SCT150 SCT250 23/22 A3016 RMK AO2 SLP203 TCU DSNT NE T02330217 $=
202208050952 METAR KATL 050952Z 10004KT 10SM FEW060 FEW100 SCT250 23/22 A3014 RMK AO2 SLP199 T02330217 $=
202208050852 METAR KATL 050852Z 09005KT 10SM FEW055 FEW075 SCT250 24/22 A3013 RMK AO2 SLP192 T02390217 55004 $=
202208050752 METAR KATL 050752Z 00000KT 10SM FEW020 FEW055 SCT250 24/22 A3013 RMK AO2 SLP191 T02440217 $=
202208050652 METAR KATL 050652Z 13005KT 10SM FEW055 SCT075 SCT250 26/22 A3013 RMK AO2 SLP192 T02560217 $=
202208050552 METAR KATL 050552Z 11005KT 10SM BKN075 BKN090 BKN250 27/22 A3015 RMK AO2 SLP195 CB DSNT E T02670217 10289 20256 53001 $=
202208050452 METAR KATL 050452Z 00000KT 10SM CLR 26/23 A3014 RMK AO2 SLP195 T02610228 403280211 $=
202208050352 METAR KATL 050352Z 11003KT 10SM FEW100 BKN250 27/22 A3014 RMK AO2 SLP195 T02670222 $=
202208050252 METAR KATL 050252Z 00000KT 10SM FEW100 BKN250 27/23 A3014 RMK AO2 SLP197 T02670233 53016=
202208050152 METAR KATL 050152Z 10004KT 10SM FEW100 SCT250 27/23 A3012 RMK AO2 SLP190 T02720228=
202208050052 METAR KATL 050052Z 09005KT 10SM FEW100 SCT200 SCT250 27/22 A3011 RMK AO2 SLP185 CB DSNT S T02720217=
202208042352 METAR KATL 042352Z 00000KT 10SM FEW030 SCT100 BKN200 BKN250 28/22 A3010 RMK AO2 SLP181 CB DSNT NE E 60056 T02830217 10328 20250 51006=
202208042252 METAR KATL 042252Z 11003KT 10SM FEW030TCU SCT100 BKN200 BKN250 28/22 A3009 RMK AO2 WSHFT 2139 RAE36 TSE44 SLP180 LTG DSNT N-NE CB DSNT N-NE SW TCU SW-W DSNT ALQDS P0003 T02830222=
202208042244 SPECI KATL 042244Z 00000KT 10SM FEW030TCU SCT100 BKN200 BKN250 28/22 A3009 RMK AO2 WSHFT 2139 RAE36 TSE44 LTG DSNT N-NE TS MOVD N CB DSNT N-NE TCU SW-W DSNT ALQDS P0003 T02780222=
202208042159 SPECI KATL 042159Z 04016KT 5SM TSRA FEW012 SCT030CB BKN060 BKN150 BKN250 26/21 A3010 RMK AO2 WSHFT 2139 VIS LWR NW-NE OCNL LTGICCG NW-NE TS NW-NE MOV N P0003 T02560211=
202208042152 METAR KATL 042152Z 07015G25KT 1/2SM R09R/3000VP6000FT +TSRA SCT012 BKN030CB BKN060 OVC150 26/21 A3011 RMK AO2 PK WND 15033/2139 RAB34 TSB39 SLP186 FRQ LTGICCG OHD-ALQDS TS OHD-ALQDS MOV N P0053 T02560211=
202208042140 SPECI KATL 042140Z 14019G33KT 1/2SM R09R/1600VP6000FT +TSRA SCT040CB BKN065 BKN200 BKN250 26/22 A3009 RMK AO2 PK WND 15033/2139 RAB34 TSB39 PRESRR FRQ LTGICCG OHD-ALQDS TS OHD-ALQDS MOV N P0008 T02610222=
202208042052 METAR KATL 042052Z 26005KT 10SM SCT042 SCT065 SCT100 BKN200 BKN250 31/21 A3008 RMK AO2 RAB32E46 TSE50 SLP174 TS MOVD N CB DSNT N NE E SE TCU DSNT ALQDS P0000 60000 T03110211 58019=
202208042050 SPECI KATL 042050Z 26004KT 10SM SCT042TCU SCT065 SCT100 BKN200 BKN250 31/21 A3008 RMK AO2 RAB32E46 TSE50 TS MOVD N CB DSNT N NE E SE TCU DSNT ALQDS P0000=
202208041952 METAR KATL 041952Z 15005KT 10SM TS SCT044CB SCT100 BKN200 BKN250 31/21 A3010 RMK AO2 LTG DSNT SE TSB51 SLP181 OCNL LTGICCG W-NW TS W-NW MOV N CB DSNT NE SE S TCU S-SW DSNT ALQDS SHRA SW-NW T03110206=
202208041852 METAR KATL 041852Z 15008G15KT 10SM SCT042TCU SCT085 SCT250 31/21 A3012 RMK AO2 SLP189 CB DSNT SE S TCU SW-NW DSNT ALQDS T03110206=
202208041752 METAR KATL 041752Z 10009KT 10SM SCT040TCU SCT080 SCT250 32/21 A3014 RMK AO2 SLP193 TCU N SW-W DSNT ALQDS T03170206 10317 20217 58005=
202208041652 METAR KATL 041652Z 14006KT 10SM SCT038 SCT075 SCT250 30/22 A3015 RMK AO2 SLP200 TCU DSNT SW-NW MDT CU N S-W-NW T03000217=
202208041552 METAR KATL 041552Z 12006KT 10SM FEW030 FEW075 SCT250 28/22 A3016 RMK AO2 SLP203 TCU DSNT S SW W T02830217=
202208041452 METAR KATL 041452Z 14006KT 10SM FEW015 FEW250 26/21 A3015 RMK AO2 SLP200 T02610211 50007=
202208041423 SPECI KATL 041423Z 09004KT 10SM SCT013 SCT250 26/21 A3015 RMK AO2 T02560211=
202208041352 METAR KATL 041352Z 07004KT 10SM BKN010 BKN250 25/21 A3016 RMK AO2 SLP202 T02500206=
202208041343 SPECI KATL 041343Z VRB03KT 10SM BKN010 BKN250 24/21 A3015 RMK AO2 T02440211=
202208041252 METAR KATL 041252Z 13005KT 10SM BKN008 BKN020 23/21 A3014 RMK AO2 SLP196 T02280206=
202208041209 SPECI KATL 041209Z 12007KT 10SM BKN008 22/20 A3013 RMK AO2 T02220200=
202208041152 METAR KATL 041152Z 11004KT 10SM SCT007 SCT020 SCT200 22/20 A3013 RMK AO2 SLP194 70001 T02170200 10233 20217 53017=
202208041052 METAR KATL 041052Z 08005KT 10SM FEW004 SCT180 SCT250 22/20 A3011 RMK AO2 SLP186 T02170200=
202208041050 SPECI KATL 041050Z 08005KT 10SM FEW004 SCT180 SCT250 22/20 A3011 RMK AO2=
202208041005 SPECI KATL 041005Z 11005KT 10SM BKN004 OVC012 22/21 A3009 RMK AO2 BINOVC T02170206=
202208040952 METAR KATL 040952Z 12005KT 10SM BKN005 OVC012 22/21 A3008 RMK AO2 SLP176 BINOVC T02170206=
202208040903 SPECI KATL 040903Z 11008KT 10SM BKN005 BKN250 22/20 A3007 RMK AO2 T02170200=
202208040852 METAR KATL 040852Z 12008KT 10SM FEW200 SCT250 22/20 A3008 RMK AO2 SLP174 T02170200 55010=
202208040752 METAR KATL 040752Z 11004KT 10SM SCT200 SCT250 22/21 A3007 RMK AO2 SLP173 T02220206=
202208040652 METAR KATL 040652Z 09006KT 10SM FEW150 SCT190 BKN250 22/20 A3009 RMK AO2 SLP179 T02220200=
202208040552 METAR KATL 040552Z 08008KT 10SM FEW150 BKN190 BKN250 23/20 A3011 RMK AO2 SLP185 T02330200 10272 20233 50002=
202208040452 METAR KATL 040452Z 07005KT 10SM SCT150 BKN200 BKN250 24/20 A3012 RMK AO2 SLP189 T02390200 403220233=
202208040352 METAR KATL 040352Z 13003KT 10SM SCT140 BKN200 BKN250 23/21 A3011 RMK AO2 SLP186 T02330206=
202208040252 METAR KATL 040252Z 11006KT 10SM FEW035 SCT120 BKN200 BKN250 23/21 A3011 RMK AO2 LTG DSNT N AND NW SLP185 CB DSNT NW T02330206 50024=
202208040152 METAR KATL 040152Z 14009G18KT 10SM FEW015 SCT035 BKN120 BKN200 BKN250 24/21 A3011 RMK AO2 SLP188 LTG DSNT SE-S CB DSNT SE-S T02390211=
202208040052 METAR KATL 040052Z 15004KT 10SM SCT045TCU BKN060 BKN150 BKN250 27/19 A3006 RMK AO2 LTG DSNT NE-S SLP168 CB DSNT NE E-S TCU OHD-E T02720194=
202208032352 METAR KATL 032352Z 15006KT 10SM FEW040 SCT150 BKN200 BKN250 27/21 A3003 RMK AO2 RAB2256E06 TSE13 SLP160 LTG DSNT NE-E SE S CB DSNT NE-E SE S P0000 60000 T02720206 10322 20267 53004=
202208032313 SPECI KATL 032313Z 14004KT 10SM FEW040 SCT060 BKN200 BKN250 27/19 A3004 RMK AO2 RAB2256E06 TSE13 LTG DSNT NE-E SE-S TS DSIPTD CB DSNT NE-E SE-S P0000 T02720194=
202208032252 METAR KATL 032252Z 15006KT 10SM TS FEW040CB SCT060 BKN200 BKN250 28/19 A3002 RMK AO2 RAB09E35 SLP156 OCNL LTGICCG E-SE DSNT NE-E TS E-SE DSNT NE-E MOV N P0000 T02830194=
202208032152 METAR KATL 032152Z 19003KT 10SM TS FEW045CB SCT100 BKN200 BKN250 31/21 A3002 RMK AO2 TSB46 SLP154 FRQ LTGICCG SE-S DSNT NW TS SE-S DSNT NW MOV N T03060206=
202208032147 SPECI KATL 032147Z 16003KT 10SM TS FEW045CB SCT100 BKN200 BKN250 31/21 A3002 RMK AO2 TSB46 OCNL LTGICCG SE-S DSNT NW TS SE-S DSNT NW MOV N=
202208032052 METAR KATL 032052Z 15006KT 10SM FEW050 FEW100 SCT200 BKN250 31/19 A3002 RMK AO2 LTG DSNT SE AND W AND NW SLP153 CB DSNT E SE W-NW TCU DSNT E-SE T03110189 56017=
202208031952 METAR KATL 031952Z 13008KT 10SM FEW042 FEW080 SCT200 SCT250 32/19 A3003 RMK AO2 LTG DSNT SW SLP156 CB DSNT NE E SE SW NW TCU DSNT ALQDS T03170189=
202208031852 METAR KATL 031852Z 14005KT 10SM FEW032TCU SCT080 BKN180 BKN250 31/21 A3005 RMK AO2 SLP163 CB DSNT NE E W NW TCU SW-NW T03110211=
202208031752 METAR KATL 031752Z 12005KT 10SM FEW026TCU FEW080 SCT140 BKN200 BKN250 30/22 A3007 RMK AO2 SLP172 CB DSNT W TCU SW-W DSNT W-N 60001 T03000222 10306 20233 58007=
202208031652 METAR KATL 031652Z 17004KT 10SM FEW024TCU FEW075 SCT140 BKN180 BKN250 28/22 A3009 RMK AO2 SLP179 CB DSNT NW TCU S-SW DSNT W-N ACC NW-NE T02780222=
202208031552 METAR KATL 031552Z 00000KT 10SM FEW018 FEW075 SCT130 BKN180 BKN250 27/23 A3010 RMK AO2 SLP180 TCU DSNT N W ACC E-OHD-W T02720228=
202208031452 METAR KATL 031452Z 26004KT 10SM FEW010 FEW060 SCT120 BKN150 BKN200 24/22 A3009 RMK AO2 RAE11 SLP180 P0000 60001 T02440222 51008=
202208031352 METAR KATL 031352Z 27006KT 10SM -RA FEW007 SCT050 BKN110 BKN150 BKN200 24/22 A3009 RMK AO2 RAE32B43 SLP178 P0001 T02390222=
202208031332 SPECI KATL 031332Z 24005KT 10SM FEW007 FEW055 BKN110 BKN150 BKN200 24/22 A3009 RMK AO2 RAE32 P0001 T02390222=
202208031252 METAR KATL 031252Z 28003KT 9SM -RA FEW038 FEW055 BKN110 BKN150 24/22 A3008 RMK AO2 RAB34 SLP175 P0000 T02390217=
202208031152 METAR KATL 031152Z 27006KT 10SM BKN120 BKN150 BKN200 23/22 A3007 RMK AO2 SLP172 SHRA W T02330217 10250 20233 51014=
202208031052 METAR KATL 031052Z 27005KT 10SM SCT110 BKN150 BKN200 24/22 A3006 RMK AO2 SLP167 T02390217=
202208030952 METAR KATL 030952Z 00000KT 10SM FEW150 BKN200 OVC250 24/22 A3004 RMK AO2 SLP160 VIRGA OHD-NE-SE T02390217=
202208030852 METAR KATL 030852Z 00000KT 10SM FEW100 BKN180 OVC250 24/22 A3003 RMK AO2 SLP156 VIRGA OHD-ALQDS T02440217 55002=
202208030752 METAR KATL 030752Z 33003KT 10SM FEW110 BKN180 BKN250 25/22 A3001 RMK AO2 SLP152 VIRGA ALQDS T02500217=
202208030652 METAR KATL 030652Z 35005KT 10SM FEW060 SCT200 BKN250 24/21 A3001 RMK AO2 SLP149 T02440211=
202208030552 METAR KATL 030552Z 29005KT 10SM SCT200 BKN250 24/21 A3004 RMK AO2 SLP160 T02440211 10306 20244 58014=
202208030452 METAR KATL 030452Z 27006KT 10SM CLR 25/21 A3007 RMK AO2 LTG DSNT E SLP172 CB DSNT E-SE T02500206 403330228=
202208030352 METAR KATL 030352Z 25011G16KT 10SM FEW040 SCT200 27/21 A3008 RMK AO2 SLP175 CB DSNT SE T02670211=
202208030252 METAR KATL 030252Z 25010KT 10SM SCT040TCU BKN060 BKN200 28/23 A3008 RMK AO2 SLP174 TCU OHD-ALQDS T02780228 53016=
202208030152 METAR KATL 030152Z 25009KT 10SM SCT045 BKN200 BKN250 28/22 A3006 RMK AO2 SLP168 T02830222=
202208030052 METAR KATL 030052Z 24007KT 10SM FEW040 SCT150 BKN200 BKN250 29/23 A3004 RMK AO2 SLP161 T02890228=
202208022352 METAR KATL 022352Z 29006KT 10SM FEW040 SCT150 BKN200 BKN250 31/21 A3003 RMK AO2 LTG DSNT NE SLP158 CB DSNT NE TCU DSNT N T03060211 10333 20294 56006=
202208022252 METAR KATL 022252Z 27007KT 10SM FEW040 SCT200 SCT250 32/21 A3003 RMK AO2 SLP158 TCU DSNT NW-N T03220211=
202208022152 METAR KATL 022152Z 27005KT 10SM FEW040TCU SCT200 SCT250 33/21 A3004 RMK AO2 SLP160 TCU OHD-SE DSNT N T03280211=
202208022052 METAR KATL 022052Z 31008G15KT 10SM FEW040 SCT120 SCT200 BKN300 33/21 A3005 RMK AO2 SLP164 CB DSNT NE SW NW MDT CU NE SW-W T03280211 56017=
202208021952 METAR KATL 021952Z 27005KT 10SM FEW038 FEW140 SCT200 SCT300 32/22 A3006 RMK AO2 SLP167 T03220222=
202208021852 METAR KATL 021852Z 34007KT 10SM FEW040 FEW120 SCT200 SCT250 BKN300 31/21 A3007 RMK AO2 SLP172 T03110211=
202208021752 METAR KATL 021752Z 28008KT 10SM FEW026 FEW140 SCT180 BKN250 30/22 A3010 RMK AO2 SLP183 VIRGA S-SW T03000217 10300 20228 58010=
202208021652 METAR KATL 021652Z 28008KT 10SM FEW022 SCT130 SCT180 BKN250 28/22 A3012 RMK AO2 SLP187 VIRGA SE-S ACC SE-SW-W T02830222=
202208021552 METAR KATL 021552Z 30007KT 10SM FEW018 SCT120 SCT150 BKN200 28/22 A3012 RMK AO2 SLP190 ACC E-OHD-W T02780222=
202208021452 METAR KATL 021452Z 31008KT 10SM FEW016 SCT150 SCT200 BKN250 28/22 A3013 RMK AO2 SLP193 T02780217 50001=
202208021352 METAR KATL 021352Z 29008KT 10SM SCT012 SCT100 SCT150 BKN200 26/22 A3015 RMK AO2 SLP198 T02610222=
202208021252 METAR KATL 021252Z 30007KT 10SM FEW007 SCT100 BKN150 24/22 A3015 RMK AO2 SLP200 VIRGA E-S-W T02390217=
202208021239 SPECI KATL 021239Z 29005KT 10SM FEW007 SCT100 BKN150 23/22 A3015 RMK AO2 VIRGA ALQDS T02330217=
202208021152 METAR KATL 021152Z 28005KT 10SM SCT100 BKN150 BKN200 23/21 A3013 RMK AO2 SLP195 T02280211 10244 20228 51012=
202208021052 METAR KATL 021052Z 27006KT 10SM SCT100 BKN150 BKN180 23/21 A3012 RMK AO2 SLP190 T02280211=
202208020952 METAR KATL 020952Z 28008KT 10SM FEW030 SCT100 BKN150 BKN180 23/21 A3011 RMK AO2 SLP185 T02330211=
202208020852 METAR KATL 020852Z 26005KT 10SM FEW140 BKN180 23/21 A3010 RMK AO2 SLP181 T02330211 55001=
202208020752 METAR KATL 020752Z 25006KT 10SM FEW130 BKN180 24/22 A3009 RMK AO2 SLP180 T02390217=
202208020652 METAR KATL 020652Z 27006KT 10SM FEW130 BKN180 BKN250 24/22 A3009 RMK AO2 SLP180 T02390217=
202208020552 METAR KATL 020552Z 25007KT 10SM SCT130 BKN180 BKN250 24/22 A3010 RMK AO2 SLP182 60000 T02440222 10261 20244 58015=
202208020452 METAR KATL 020452Z 26005KT 10SM BKN140 BKN250 24/22 A3012 RMK AO2 SLP188 T02440217 402940228=
202208020352 METAR KATL 020352Z 24003KT 10SM BKN140 BKN200 BKN250 24/22 A3013 RMK AO2 SLP192 T02440222=
202208020252 METAR KATL 020252Z 33004KT 10SM SCT150 BKN200 BKN250 26/22 A3014 RMK AO2 SLP197 60000 T02560217 53010=
202208020152 METAR KATL 020152Z 34004KT 10SM BKN140 BKN200 BKN250 26/22 A3013 RMK AO2 SLP193 T02560217=
202208020052 METAR KATL 020052Z 31003KT 10SM FEW080 SCT120 BKN150 BKN200 26/22 A3013 RMK AO2 RAB12E51 SLP191 P0000 T02560217=
202208012352 METAR KATL 012352Z 22004KT 10SM FEW090 BKN120 BKN150 BKN200 26/21 A3012 RMK AO2 SLP188 SHRA SW-NW 60000 T02610211 10289 20261 58016=
202208012252 METAR KATL 012252Z 23003KT 10SM FEW090 BKN120 BKN150 BKN200 27/21 A3012 RMK AO2 SLP191 T02670211=
202208012152 METAR KATL 012152Z 31007KT 10SM FEW020 SCT080 SCT110 BKN150 BKN200 28/21 A3015 RMK AO2 SLP201 T02780211=
202208012052 METAR KATL 012052Z 32007KT 10SM FEW026 SCT080 BKN110 BKN150 BKN200 28/22 A3016 RMK AO2 RAB26E38 SLP204 CB DSNT S ACC OHD-ALQDS P0000 60000 T02780217 58012=
202208011952 METAR KATL 011952Z 33010KT 10SM FEW028TCU SCT075 BKN110 OVC150 28/21 A3018 RMK AO2 RAB27E37 SLP209 TCU SW ACC OHD-ALQDS P0000 T02780211=
202208011852 METAR KATL 011852Z 32009KT 10SM FEW026TCU SCT046 SCT080 BKN150 BKN200 28/21 A3019 RMK AO2 SLP213 CB DSNT SE-S TCU S W ACC OHD-ALQDS T02830206=
202208011752 METAR KATL 011752Z 29011G17KT 10SM FEW026 SCT100 BKN150 BKN200 28/21 A3020 RMK AO2 RAE17 SLP215 CB DSNT SE-SW TCU DSNT NW ACC SE-OHD-W P0000 60000 T02830211 10294 20244 58000=
202208011652 METAR KATL 011652Z 29010KT 9SM -RA FEW075 BKN110 BKN150 BKN200 27/22 A3021 RMK AO2 RAB14E32B49 SLP220 CB DSNT SE-SW ACC NW-NE P0000 T02720222=
202208011552 METAR KATL 011552Z 29010KT 10SM FEW026 FEW075 BKN140 BKN200 27/22 A3021 RMK AO2 SLP220 TCU DSNT S ACC N SW-W NW T02720217=
202208011452 METAR KATL 011452Z 29012G18KT 10SM FEW026 FEW110 BKN140 BKN200 29/21 A3020 RMK AO2 SLP214 ACC W-N T02890211 51006=
202208011352 METAR KATL 011352Z 25008KT 10SM SCT140 BKN200 BKN250 28/21 A3020 RMK AO2 SLP213 T02780206=
202208011252 METAR KATL 011252Z 23004KT 10SM FEW070 SCT150 SCT250 26/21 A3019 RMK AO2 SLP212 ACC DSNT NW T02560206=
