##########################################################
# Query made at 04/20/2024 00:21:20 UTC
# Time interval: from 03/01/2022 12:00  to 03/31/2022 12:59  UTC
##########################################################

##########################################################
# KATL, Atlanta, Hartsfield - Jackson Atlanta International Airport (United States)
# WMO index: 72219. WIGOS ID: 0-20000-0-72219
# Latitude 33-38-59N. Longitude 084-25-00W. Altitude 312 m.
##########################################################

202203311252 METAR KATL 311252Z 23006KT 10SM SCT010 BKN014 BKN110 BKN150 BKN200 17/15 A2970 RMK AO2 LTG DSNT SE RAB13E23 SLP051 CB DSNT SE P0000 T01670150=
202203311152 METAR KATL 311152Z 23007G16KT 10SM FEW010 BKN014 BKN028 17/16 A2967 RMK AO2 RAE16B39E52 SLP037 P0000 60065 70065 T01720156 10217 20172 56006=
202203311122 SPECI KATL 311122Z 23006KT 10SM SCT008 BKN018 OVC110 17/16 A2965 RMK AO2 RAE16 P0000 T01720156=
202203311052 METAR KATL 311052Z 19009KT 10SM -RA SCT006 BKN090 BKN110 17/16 A2967 RMK AO2 LTG DSNT S PRESRR SLP037 CB DSNT S P0020 T01720161=
202203311026 SPECI KATL 311026Z 18013KT 7SM RA SCT009 SCT026 OVC085 18/16 A2965 RMK AO2 P0018 T01780161=
202203311011 SPECI KATL 311011Z 19011G22KT 3SM RA BR SCT008 BKN014 OVC070 18/16 A2966 RMK AO2 P0015 T01780161=
202203310959 SPECI KATL 310959Z 21013G21KT 2SM +RA BR BKN008 OVC012 18/16 A2968 RMK AO2 PRESRR P0005 T01780161=
202203310956 SPECI KATL 310956Z 21013G20KT 3SM +RA BR BKN008 OVC012 18/16 A2967 RMK AO2 PRESRR P0002 T01780161=
202203310952 METAR KATL 310952Z 18009G17KT 150V220 3SM +RA BR BKN010 BKN015 OVC042 18/16 A2965 RMK AO2 SLP032 P0033 T01780161=
202203310932 SPECI KATL 310932Z 16008G18KT 4SM RA BR SCT010 BKN017 OVC037 18/16 A2965 RMK AO2 P0023 T01780161=
202203310852 METAR KATL 310852Z 17013G26KT 6SM RA BR FEW035 SCT055 OVC100 18/16 A2968 RMK AO2 PK WND 18036/0818 SLP043 P0012 60012 T01780156 56022=
202203310752 METAR KATL 310752Z 19016G27KT 10SM -RA SCT035 BKN080 OVC110 20/15 A2970 RMK AO2 PK WND 17033/0729 SLP049 P0000 T02000150=
202203310652 METAR KATL 310652Z 18018G29KT 10SM -RA BKN035 BKN055 BKN110 OVC250 21/14 A2972 RMK AO2 PK WND 19031/0632 SLP053 BINOVC P0000 T02110144=
202203310552 METAR KATL 310552Z 18011G24KT 10SM -RA BKN032 BKN110 BKN170 OVC200 22/14 A2975 RMK AO2 PK WND 17033/0529 SLP064 RAB46 P0000 60000 T02170144 10256 20217 55022=
202203310452 METAR KATL 310452Z 18012G35KT 10SM FEW020 SCT040 BKN150 OVC200 22/14 A2974 RMK AO2 PK WND 19035/0446 SLP063 T02170139 402830128=
202203310352 METAR KATL 310352Z 17019G31KT 10SM BKN150 OVC200 22/12 A2977 RMK AO2 PK WND 18033/0303 PRESFR SLP074 T02220122=
202203310252 METAR KATL 310252Z 19017G39KT 10SM BKN170 OVC250 23/11 A2982 RMK AO2 PK WND 17039/0247 SLP090 T02280111 51016=
202203310152 METAR KATL 310152Z 18020G36KT 10SM BKN180 BKN250 23/09 A2980 RMK AO2 PK WND 16040/0110 SLP084 T02330094=
202203310052 METAR KATL 310052Z 17019G31KT 10SM FEW050 SCT200 BKN250 24/06 A2979 RMK AO2 PK WND 19032/0012 SLP080 T02440061=
202203302352 METAR KATL 302352Z 18019G30KT 10SM FEW200 BKN250 26/05 A2977 RMK AO2 PK WND 18030/2351 SLP074 T02560050 10283 20244 56020=
202203302252 METAR KATL 302252Z 17019G30KT 9SM BKN250 27/05 A2979 RMK AO2 PK WND 18034/2242 SLP079 T02670050=
202203302152 METAR KATL 302152Z 18016G32KT 9SM BKN250 28/06 A2980 RMK AO2 PK WND 21034/2111 SLP085 T02780061=
202203302052 METAR KATL 302052Z 19014G32KT 9SM FEW075 FEW250 28/06 A2983 RMK AO2 PK WND 15033/2036 SLP094 VIS LWR S-SW BLDU T02780061 58050=
202203302027 SPECI KATL 302027Z 18016G29KT 9SM FEW070 FEW250 28/07 A2984 RMK AO2 PK WND 18030/2004 VIS LWR S-SW BLDU T02830072=
202203301952 METAR KATL 301952Z 19016G29KT 9SM FEW016 FEW200 SCT250 28/08 A2988 RMK AO2 PK WND 19029/1950 SLP111 VIS LWR S-SW BLDU T02780078=
202203301930 SPECI KATL 301930Z 18013G20KT 10SM FEW160 SCT200 SCT250 27/10 A2990 RMK AO2 PK WND 17028/1905 PRESFR T02670100=
202203301852 METAR KATL 301852Z 16016G26KT 9SM FEW160 SCT200 SCT250 26/09 A2994 RMK AO2 PK WND 16026/1851 SLP131 T02560094=
202203301752 METAR KATL 301752Z 18010G20KT 10SM SCT160 BKN200 BKN250 24/11 A2998 RMK AO2 PK WND 16028/1740 SLP146 T02440106 10250 20139 58018=
202203301652 METAR KATL 301652Z 15013G18KT 10SM FEW120 SCT160 BKN200 BKN250 22/12 A3001 RMK AO2 SLP157 VIRGA SW-W T02170117=
202203301552 METAR KATL 301552Z 13010KT 10SM FEW120 SCT150 BKN200 OVC250 19/13 A3003 RMK AO2 SLP162 VIRGA W-NW T01890133=
202203301452 METAR KATL 301452Z 11008KT 10SM FEW014 BKN150 OVC200 17/13 A3004 RMK AO2 SLP167 VIRGA SW-NW-NE T01670128 50000=
202203301352 METAR KATL 301352Z 12007G15KT 10SM FEW008 BKN160 OVC200 15/12 A3004 RMK AO2 SLP168 VIRGA ALQDS T01500122=
202203301252 METAR KATL 301252Z 11010KT 10SM SCT007 BKN150 BKN200 14/12 A3004 RMK AO2 SLP168 VIRGA OHD AND ALQDS T01390122=
202203301152 METAR KATL 301152Z 11009KT 10SM FEW008 SCT160 BKN190 BKN250 14/12 A3004 RMK AO2 SLP166 VIRGA OHD AND ALQDS T01390117 10161 20128 53001=
202203301052 METAR KATL 301052Z 12007KT 10SM BKN190 BKN220 BKN250 14/12 A3003 RMK AO2 SLP163 T01440117=
202203300952 METAR KATL 300952Z 07007KT 10SM SCT200 BKN250 13/10 A3004 RMK AO2 SLP168 T01330100=
202203300852 METAR KATL 300852Z 08006KT 10SM FEW200 BKN250 13/09 A3004 RMK AO2 SLP166 T01330089 55010=
202203300752 METAR KATL 300752Z 10004KT 10SM CLR 15/09 A3003 RMK AO2 SLP164 T01500089=
202203300652 METAR KATL 300652Z 11005KT 10SM BKN220 OVC250 16/08 A3005 RMK AO2 SLP169 T01610083=
202203300552 METAR KATL 300552Z 08006KT 10SM SCT220 OVC250 16/08 A3007 RMK AO2 SLP176 T01610083 10222 20161 56005=
202203300452 METAR KATL 300452Z 11004KT 10SM OVC230 18/08 A3007 RMK AO2 SLP178 T01780083 402390106=
202203300352 METAR KATL 300352Z 11006KT 10SM OVC250 18/08 A3007 RMK AO2 SLP179 T01780078=
202203300252 METAR KATL 300252Z 10006KT 10SM OVC250 19/08 A3008 RMK AO2 SLP182 T01890078 50007=
202203300152 METAR KATL 300152Z 12006KT 10SM FEW200 BKN250 20/08 A3008 RMK AO2 SLP182 T02000078=
202203300052 METAR KATL 300052Z 15006KT 10SM FEW200 BKN250 21/08 A3007 RMK AO2 SLP178 T02110078=
202203292352 METAR KATL 292352Z 15006KT 10SM SCT200 BKN250 22/08 A3006 RMK AO2 SLP175 T02220078 10239 20206 56011=
202203292252 METAR KATL 292252Z 14007KT 9SM FEW200 BKN250 24/08 A3006 RMK AO2 SLP176 T02390078=
202203292152 METAR KATL 292152Z 15006KT 8SM SCT200 BKN250 24/07 A3008 RMK AO2 SLP181 T02390067=
202203292052 METAR KATL 292052Z 16007KT 9SM SCT200 BKN250 24/06 A3009 RMK AO2 SLP186 VIS LWR S-W FU T02390061 56023=
202203291952 METAR KATL 291952Z 16006G15KT 10SM BKN200 BKN250 23/06 A3011 RMK AO2 SLP193 T02330061=
202203291852 METAR KATL 291852Z 17007KT 9SM SCT200 BKN250 22/04 A3014 RMK AO2 SLP203 T02220039=
202203291752 METAR KATL 291752Z 12008G15KT 10SM SCT200 BKN250 21/02 A3016 RMK AO2 SLP211 T02060017 10211 20111 58019=
202203291652 METAR KATL 291652Z 12010KT 10SM FEW055 SCT200 BKN250 19/01 A3019 RMK AO2 SLP222 T01890006=
202203291552 METAR KATL 291552Z 10009KT 10SM FEW048 SCT200 BKN250 17/M01 A3021 RMK AO2 SLP228 T01721006=
202203291452 METAR KATL 291452Z 09008KT 10SM FEW046 FEW080 SCT200 SCT250 16/M01 A3022 RMK AO2 SLP232 T01561011 51011=
202203291352 METAR KATL 291352Z 13009KT 10SM FEW044 SCT200 SCT250 14/M03 A3022 RMK AO2 SLP230 T01391028=
202203291252 METAR KATL 291252Z 09010KT 10SM BKN044 BKN200 12/M02 A3020 RMK AO2 SLP227 T01171017=
202203291152 METAR KATL 291152Z 08008KT 10SM BKN046 BKN200 11/M01 A3019 RMK AO2 SLP221 T01111011 10122 20106 51023=
202203291052 METAR KATL 291052Z 00000KT 10SM BKN047 BKN065 BKN200 11/M01 A3017 RMK AO2 SLP213 T01111011=
202203290952 METAR KATL 290952Z 14003KT 10SM SCT047 BKN065 BKN200 11/M01 A3014 RMK AO2 SLP203 T01061006=
202203290852 METAR KATL 290852Z 00000KT 10SM BKN060 11/M02 A3011 RMK AO2 SLP196 T01111017 55003=
202203290752 METAR KATL 290752Z 04004KT 10SM BKN050 12/M03 A3011 RMK AO2 SLP193 T01221033=
202203290652 METAR KATL 290652Z 05004KT 10SM FEW055 FEW250 12/M04 A3012 RMK AO2 SLP196 T01171039=
202203290552 METAR KATL 290552Z 07003KT 10SM FEW250 12/M02 A3012 RMK AO2 SLP199 T01221022 10161 20111 58003=
202203290452 METAR KATL 290452Z 00000KT 10SM FEW250 13/M04 A3014 RMK AO2 SLP203 T01281039 401940056=
202203290352 METAR KATL 290352Z 36003KT 10SM FEW055 FEW250 13/M03 A3014 RMK AO2 SLP205 T01331033=
202203290252 METAR KATL 290252Z 02008KT 10SM SCT055 SCT250 15/M04 A3013 RMK AO2 SLP203 T01501039 50006=
202203290152 METAR KATL 290152Z 01010KT 10SM SCT055 SCT250 16/M03 A3014 RMK AO2 SLP205 T01561028=
202203290052 METAR KATL 290052Z 35006KT 10SM FEW200 15/M03 A3012 RMK AO2 SLP200 T01501028=
202203282352 METAR KATL 282352Z 32004KT 10SM SCT200 16/M03 A3011 RMK AO2 SLP198 T01611028 10194 20161 53003=
202203282252 METAR KATL 282252Z 33008KT 10SM FEW150 SCT250 18/M03 A3011 RMK AO2 SLP196 T01781028=
202203282152 METAR KATL 282152Z 34010KT 9SM FEW055 FEW090 SCT250 18/M03 A3010 RMK AO2 SLP194 VIS LWR SE-SW FU T01831028=
202203282052 METAR KATL 282052Z 30011KT 8SM FEW055 SCT090 SCT250 18/M03 A3010 RMK AO2 SLP194 VIS LWR SE-SW-NW FU T01831028 56013=
202203281952 METAR KATL 281952Z 31012KT 10SM SCT055 SCT080 SCT250 18/M04 A3011 RMK AO2 SLP195 T01831039=
202203281852 METAR KATL 281852Z 32013G24KT 10SM FEW055 SCT075 SCT250 18/M05 A3012 RMK AO2 SLP199 T01831050=
202203281752 METAR KATL 281752Z 31011KT 10SM FEW065 BKN085 BKN250 17/M06 A3014 RMK AO2 SLP206 ACC N-NE T01721056 10172 20061 58004=
202203281652 METAR KATL 281652Z 34009KT 10SM FEW060 BKN080 BKN250 16/M07 A3016 RMK AO2 SLP211 T01611072=
202203281552 METAR KATL 281552Z 32008KT 10SM FEW085 SCT100 SCT250 14/M09 A3016 RMK AO2 SLP213 T01441089=
202203281452 METAR KATL 281452Z 32008KT 10SM SCT110 SCT250 12/M09 A3016 RMK AO2 SLP211 T01221089 52015=
202203281352 METAR KATL 281352Z 33009KT 10SM FEW110 FEW250 10/M07 A3014 RMK AO2 SLP206 T01001072=
202203281252 METAR KATL 281252Z 33008KT 10SM FEW100 FEW200 08/M06 A3013 RMK AO2 SLP203 T00781056=
202203281152 METAR KATL 281152Z 30006KT 10SM FEW100 FEW150 FEW200 06/M05 A3011 RMK AO2 SLP197 T00611050 10100 20056 51014=
202203281052 METAR KATL 281052Z 28006KT 10SM FEW100 FEW150 06/M05 A3010 RMK AO2 SLP193 T00611050=
202203280952 METAR KATL 280952Z 32006KT 10SM FEW100 SCT150 07/M06 A3008 RMK AO2 SLP187 T00721056=
202203280852 METAR KATL 280852Z 31006KT 10SM FEW100 FEW150 07/M06 A3007 RMK AO2 SLP181 T00721056 55007=
202203280752 METAR KATL 280752Z 34008KT 10SM FEW100 08/M06 A3006 RMK AO2 SLP179 T00831061=
202203280652 METAR KATL 280652Z 35010KT 10SM FEW100 09/M06 A3008 RMK AO2 SLP185 T00941061=
202203280552 METAR KATL 280552Z 32009KT 10SM FEW110 10/M04 A3009 RMK AO2 SLP189 T01001044 10156 20100 50002=
202203280452 METAR KATL 280452Z 29009KT 10SM FEW110 11/M04 A3010 RMK AO2 SLP191 T01061039 401830061=
202203280352 METAR KATL 280352Z 28007KT 10SM FEW120 FEW250 11/M04 A3009 RMK AO2 SLP189 T01061039=
202203280252 METAR KATL 280252Z 30010KT 10SM SCT140 SCT250 12/M04 A3008 RMK AO2 SLP188 T01221039 53015=
202203280152 METAR KATL 280152Z 29010KT 10SM FEW110 SCT140 SCT250 13/M03 A3007 RMK AO2 SLP182 T01281033=
202203280052 METAR KATL 280052Z 31007KT 10SM SCT110 BKN170 BKN250 14/M04 A3005 RMK AO2 SLP177 T01391039=
202203272352 METAR KATL 272352Z 31014G19KT 10SM FEW080 BKN110 BKN160 BKN250 16/M04 A3004 RMK AO2 SLP172 VIRGA NW-NE T01561044 10183 20156 51005=
202203272252 METAR KATL 272252Z 30011KT 10SM FEW130 BKN160 BKN250 16/M03 A3003 RMK AO2 PK WND 28029/2203 SLP171 VIRGA SW-W T01611033=
202203272152 METAR KATL 272152Z 30014G21KT 10SM FEW130 FEW200 SCT250 17/M04 A3003 RMK AO2 PK WND 28027/2131 SLP168 T01721039=
202203272052 METAR KATL 272052Z 28013G23KT 10SM FEW130 18/M04 A3002 RMK AO2 SLP165 T01781039 56019=
202203271952 METAR KATL 271952Z 29014KT 10SM FEW130 18/M04 A3003 RMK AO2 SLP167 T01781039=
202203271852 METAR KATL 271852Z 32010G21KT 10SM FEW090 FEW130 16/M05 A3005 RMK AO2 SLP175 T01611050=
202203271752 METAR KATL 271752Z 33015G20KT 10SM FEW070 FEW130 16/M06 A3008 RMK AO2 PK WND 29027/1654 SLP185 T01561061 10156 20067 58002=
202203271652 METAR KATL 271652Z 31014G23KT 10SM FEW120 14/M08 A3009 RMK AO2 PK WND 31026/1600 SLP189 T01391078=
202203271552 METAR KATL 271552Z 32017G22KT 10SM FEW120 13/M07 A3009 RMK AO2 PK WND 30027/1538 SLP190 T01281072=
202203271452 METAR KATL 271452Z 31016G23KT 10SM FEW130 11/M08 A3009 RMK AO2 SLP188 T01111078 51016=
202203271352 METAR KATL 271352Z 32012G21KT 10SM FEW130 09/M08 A3007 RMK AO2 SLP183 T00941078=
202203271252 METAR KATL 271252Z 31009KT 10SM CLR 08/M07 A3006 RMK AO2 SLP178 T00781072=
202203271152 METAR KATL 271152Z 31009KT 10SM CLR 07/M07 A3004 RMK AO2 SLP172 T00671072 10100 20061 53020=
202203271052 METAR KATL 271052Z 31008KT 10SM CLR 07/M08 A3002 RMK AO2 SLP165 T00721078=
202203270952 METAR KATL 270952Z 31008KT 10SM CLR 08/M07 A2999 RMK AO2 SLP156 T00781072=
202203270852 METAR KATL 270852Z 30008KT 10SM CLR 08/M07 A2998 RMK AO2 SLP149 T00831067 53002=
202203270752 METAR KATL 270752Z 29010KT 10SM CLR 09/M07 A2996 RMK AO2 SLP143 T00891072=
202203270652 METAR KATL 270652Z 29010KT 10SM CLR 10/M07 A2996 RMK AO2 SLP145 T01001072=
202203270552 METAR KATL 270552Z 30011KT 10SM CLR 10/M08 A2997 RMK AO2 SLP147 T01001078 10150 20100 50003=
202203270452 METAR KATL 270452Z 31013KT 10SM CLR 12/M09 A2997 RMK AO2 SLP148 T01171089 401830078=
202203270352 METAR KATL 270352Z 31017G27KT 10SM FEW250 12/M09 A2998 RMK AO2 PK WND 31027/0350 SLP150 T01221089=
202203270252 METAR KATL 270252Z 29012KT 10SM CLR 12/M08 A2996 RMK AO2 SLP144 T01221083 53020=
202203270152 METAR KATL 270152Z 29011KT 10SM CLR 13/M09 A2994 RMK AO2 SLP138 T01281089=
202203270052 METAR KATL 270052Z 29011KT 10SM CLR 14/M09 A2991 RMK AO2 SLP130 T01391094=
202203262352 METAR KATL 262352Z 29012KT 10SM FEW250 15/M09 A2990 RMK AO2 PK WND 27030/2254 SLP124 T01501094 10183 20150 53007=
202203262252 METAR KATL 262252Z 28018G26KT 10SM CLR 16/M09 A2989 RMK AO2 PK WND 29034/2217 SLP120 T01611089=
202203262152 METAR KATL 262152Z 29025G35KT 10SM CLR 17/M08 A2988 RMK AO2 PK WND 29039/2059 SLP115 T01721083=
202203262052 METAR KATL 262052Z 30023G35KT 10SM FEW250 18/M07 A2987 RMK AO2 PK WND 30036/2031 SLP115 T01781072 56021=
202203261952 METAR KATL 261952Z 30022G33KT 10SM FEW250 18/M06 A2989 RMK AO2 PK WND 29037/1930 SLP119 T01781061=
202203261852 METAR KATL 261852Z 29019G37KT 10SM FEW075 17/M05 A2991 RMK AO2 PK WND 30037/1845 SLP128 T01721050=
202203261752 METAR KATL 261752Z 27018G28KT 10SM CLR 16/M04 A2994 RMK AO2 PK WND 29032/1723 SLP137 T01611044 10167 20078 58017=
202203261652 METAR KATL 261652Z 28015G28KT 10SM CLR 16/M04 A2996 RMK AO2 PK WND 28033/1627 SLP143 T01561044=
202203261552 METAR KATL 261552Z 31016G28KT 10SM CLR 14/M04 A2998 RMK AO2 PK WND 30029/1455 SLP150 T01391039=
202203261452 METAR KATL 261452Z 30015G24KT 10SM CLR 12/M03 A2999 RMK AO2 PK WND 31032/1355 SLP155 T01221033 51013=
202203261352 METAR KATL 261352Z 30018G27KT 10SM CLR 11/01 A2998 RMK AO2 PK WND 30027/1352 SLP152 T01060006=
202203261252 METAR KATL 261252Z 29013G21KT 10SM CLR 09/03 A2997 RMK AO2 SLP149 T00890028=
202203261152 METAR KATL 261152Z 28009G17KT 10SM CLR 08/03 A2995 RMK AO2 SLP142 T00780028 10094 20078 53012=
202203261052 METAR KATL 261052Z 29010KT 10SM CLR 08/03 A2993 RMK AO2 SLP135 T00830028=
202203260952 METAR KATL 260952Z 28011KT 10SM CLR 09/03 A2992 RMK AO2 SLP130 T00890028=
202203260852 METAR KATL 260852Z 28008KT 10SM CLR 08/03 A2991 RMK AO2 SLP129 T00830033 57014=
202203260752 METAR KATL 260752Z 26006KT 10SM CLR 08/03 A2992 RMK AO2 SLP132 T00830033=
202203260652 METAR KATL 260652Z 28006KT 10SM CLR 08/03 A2994 RMK AO2 SLP140 T00830028=
202203260552 METAR KATL 260552Z 30007KT 10SM CLR 09/03 A2995 RMK AO2 SLP143 T00940033 10144 20094 58002=
202203260452 METAR KATL 260452Z 30012KT 10SM CLR 11/03 A2996 RMK AO2 SLP146 T01060033 401720083=
202203260352 METAR KATL 260352Z 29007KT 10SM CLR 11/03 A2996 RMK AO2 SLP144 T01060033=
202203260252 METAR KATL 260252Z 29007KT 10SM CLR 11/03 A2996 RMK AO2 SLP144 T01060033 51009=
202203260152 METAR KATL 260152Z 30006KT 10SM CLR 12/03 A2995 RMK AO2 SLP142 T01220028=
202203260052 METAR KATL 260052Z 30009KT 10SM FEW065 13/02 A2994 RMK AO2 SLP140 T01330022=
202203252352 METAR KATL 252352Z 31012KT 10SM FEW065 14/02 A2993 RMK AO2 SLP136 T01440022 10172 20144 53008=
202203252252 METAR KATL 252252Z 30013KT 10SM FEW065 16/02 A2992 RMK AO2 PK WND 30026/2213 SLP131 T01610017=
202203252152 METAR KATL 252152Z 30017KT 10SM SCT065 BKN085 16/02 A2991 RMK AO2 SLP128 T01610017=
202203252052 METAR KATL 252052Z 27020G28KT 10SM SCT065 BKN085 17/02 A2991 RMK AO2 PK WND 26028/2051 SLP125 T01670017 56010=
202203251952 METAR KATL 251952Z 29016G26KT 10SM BKN060 BKN080 16/02 A2991 RMK AO2 PK WND 31027/1904 SLP129 T01560017=
202203251852 METAR KATL 251852Z 28017G25KT 10SM BKN060 OVC085 14/01 A2992 RMK AO2 PK WND 28026/1758 SLP132 T01440011=
202203251752 METAR KATL 251752Z 31013G21KT 10SM SCT055 BKN075 BKN095 14/02 A2994 RMK AO2 PK WND 28034/1654 SLP137 T01440017 10156 20083 50002=
202203251652 METAR KATL 251652Z 28017G27KT 10SM SCT070 BKN100 15/02 A2994 RMK AO2 PK WND 30028/1559 SLP138 T01500022=
202203251552 METAR KATL 251552Z 30020G27KT 10SM SCT080 BKN110 13/01 A2996 RMK AO2 PK WND 29032/1509 SLP143 T01330006=
202203251452 METAR KATL 251452Z 31015G22KT 10SM FEW080 SCT110 14/02 A2993 RMK AO2 SLP134 ACC W AND DSNT NW T01390017 51013=
202203251352 METAR KATL 251352Z 30012KT 10SM FEW080 SCT110 12/02 A2992 RMK AO2 SLP133 ACC W AND DSNT NW T01170022=
202203251252 METAR KATL 251252Z 29008KT 10SM FEW080 SCT110 10/02 A2991 RMK AO2 SLP129 ACC W AND DSNT NE AND NW T01000017=
202203251152 METAR KATL 251152Z 26004KT 10SM FEW090 SCT110 SCT250 08/01 A2989 RMK AO2 SLP122 ACC W AND DSNT S T00830011 10111 20083 53006=
202203251052 METAR KATL 251052Z 29003KT 10SM FEW090 BKN110 09/01 A2986 RMK AO2 SLP111 T00940011=
202203250952 METAR KATL 250952Z 27004KT 10SM SCT090 BKN110 09/02 A2987 RMK AO2 SLP115 T00940017=
202203250852 METAR KATL 250852Z 23005KT 10SM BKN090 10/01 A2987 RMK AO2 SLP114 T01000011 56004=
202203250752 METAR KATL 250752Z 23003KT 10SM BKN095 09/01 A2987 RMK AO2 SLP114 T00940011=
202203250652 METAR KATL 250652Z 00000KT 10SM SCT095 09/01 A2988 RMK AO2 SLP115 T00940011=
202203250552 METAR KATL 250552Z 00000KT 10SM FEW095 11/M01 A2989 RMK AO2 SLP117 T01111006 10161 20111 58007=
202203250452 METAR KATL 250452Z 27003KT 10SM FEW085 12/M02 A2991 RMK AO2 SLP125 T01221017 402000078=
202203250352 METAR KATL 250352Z 26004KT 10SM BKN090 13/M01 A2992 RMK AO2 SLP128 T01281011=
202203250252 METAR KATL 250252Z 26004KT 10SM FEW085 13/M02 A2991 RMK AO2 SLP127 T01281017 51008=
202203250152 METAR KATL 250152Z 29005KT 10SM FEW085 14/M02 A2990 RMK AO2 SLP125 T01391022=
202203250052 METAR KATL 250052Z 26006KT 10SM FEW080 FEW200 14/M03 A2989 RMK AO2 SLP122 T01441028=
202203242352 METAR KATL 242352Z 26008KT 10SM FEW080 FEW200 16/M04 A2988 RMK AO2 SLP118 T01611039 10200 20161 53005=
202203242252 METAR KATL 242252Z 27012G21KT 10SM FEW150 FEW200 17/M03 A2986 RMK AO2 SLP110 T01721028=
202203242152 METAR KATL 242152Z 25011G21KT 10SM FEW080 SCT200 18/M02 A2986 RMK AO2 SLP108 T01831022=
202203242052 METAR KATL 242052Z 26009G19KT 10SM FEW080 FEW140 SCT200 19/M02 A2987 RMK AO2 PK WND 30026/2033 SLP111 T01891022 58015=
202203241952 METAR KATL 241952Z 25008G19KT 10SM FEW075 FEW140 SCT250 19/M01 A2988 RMK AO2 PK WND 26028/1901 SLP115 T01941011=
202203241852 METAR KATL 241852Z 26014G26KT 10SM FEW070 FEW140 SCT250 19/00 A2991 RMK AO2 PK WND 29026/1849 SLP124 T01890000=
202203241752 METAR KATL 241752Z 30010G20KT 10SM FEW065 SCT140 SCT250 18/02 A2991 RMK AO2 SLP127 T01780017 10183 20078 58016=
202203241652 METAR KATL 241652Z 29008G17KT 10SM SCT130 SCT250 17/03 A2994 RMK AO2 SLP136 T01720033=
202203241552 METAR KATL 241552Z 30010KT 10SM FEW140 FEW250 16/04 A2996 RMK AO2 SLP144 T01560044=
202203241452 METAR KATL 241452Z 31007KT 10SM FEW100 SCT130 SCT250 13/04 A2996 RMK AO2 SLP144 T01280039 53004=
202203241352 METAR KATL 241352Z 33008KT 10SM FEW001 FEW110 BKN150 BKN250 11/03 A2996 RMK AO2 SLP143 FU FEW001 FU PLUME S T01110033=
202203241252 METAR KATL 241252Z 32007KT 10SM SCT150 09/04 A2995 RMK AO2 SLP138 T00940039=
202203241152 METAR KATL 241152Z 29005KT 10SM FEW140 FEW200 08/04 A2995 RMK AO2 SLP139 70034 T00780039 10133 20078 53007=
202203241052 METAR KATL 241052Z 29006KT 10SM SCT130 SCT250 08/04 A2994 RMK AO2 SLP135 T00830039=
202203240952 METAR KATL 240952Z 30010KT 10SM SCT140 09/04 A2993 RMK AO2 SLP130 T00940039=
202203240852 METAR KATL 240852Z 29007KT 10SM SCT140 10/04 A2993 RMK AO2 SLP131 T01000044 51006=
202203240752 METAR KATL 240752Z 32011KT 10SM SCT140 11/05 A2992 RMK AO2 SLP128 T01110050=
202203240652 METAR KATL 240652Z 32011KT 10SM FEW110 SCT140 12/06 A2992 RMK AO2 SLP127 T01220056=
202203240552 METAR KATL 240552Z 30006KT 10SM FEW110 SCT140 13/06 A2991 RMK AO2 SLP122 T01330056 10217 20133 53007=
202203240452 METAR KATL 240452Z 31015KT 10SM SCT150 14/06 A2988 RMK AO2 SLP114 T01440061 402500144=
202203240352 METAR KATL 240352Z 29010KT 10SM FEW050 SCT200 16/07 A2989 RMK AO2 SLP117 T01560072=
202203240252 METAR KATL 240252Z 27008KT 10SM FEW200 17/08 A2989 RMK AO2 SLP115 T01720083 51023=
202203240152 METAR KATL 240152Z 24006KT 10SM FEW200 19/09 A2987 RMK AO2 SLP108 T01890089=
202203240052 METAR KATL 240052Z 24008KT 10SM FEW045 FEW150 21/11 A2985 RMK AO2 SLP101 T02060111=
202203232352 METAR KATL 232352Z 23008G17KT 10SM FEW040 FEW150 22/12 A2982 RMK AO2 SLP090 TCU DSNT E-SE 60007 T02170122 10250 20217 53022=
202203232252 METAR KATL 232252Z 22011G21KT 10SM SCT040 SCT140 BKN250 23/13 A2979 RMK AO2 SLP080 MDT CU NE-SE T02330133=
202203232152 METAR KATL 232152Z 21013G21KT 10SM FEW035 SCT060 BKN130 BKN250 24/15 A2976 RMK AO2 SLP070 MDT CU E-S T02390150=
202203232052 METAR KATL 232052Z 20012G25KT 10SM SCT035 BKN060 BKN130 BKN200 23/16 A2975 RMK AO2 PK WND 19029/2029 SLP068 MDT CU OHD-ALQDS 60007 T02330161 55002=
202203231952 METAR KATL 231952Z 19015G29KT 10SM FEW036 SCT080 BKN140 BKN200 24/16 A2974 RMK AO2 PK WND 21030/1942 RAB08E18 SLP063 TCU DSNT N MDT CU S-SW W-NW P0000 T02440161=
202203231852 METAR KATL 231852Z 19017G27KT 10SM FEW028CB SCT048 BKN100 BKN200 24/17 A2975 RMK AO2 PK WND 19030/1806 RAB1754E11 SLP067 CB E-SE MOV NE TCU DSNT NE SHRA E-SE P0007 T02440172=
202203231814 SPECI KATL 231814Z 19016G30KT 10SM SCT028CB BKN050 BKN085 BKN200 24/19 A2976 RMK AO2 PK WND 19030/1806 RAB1754E11 CB NE MOV NE TCU SE-S SHRA NE SE-S P0007 T02440189=
202203231801 SPECI KATL 231801Z 19010G23KT 3SM R09R/5500VP6000FT +RA SCT026CB BKN040 BKN090 BKN200 23/18 A2976 RMK AO2 RAB1754 CB OHD-NE MOV NE P0004 T02280183=
202203231752 METAR KATL 231752Z 19017G31KT 10SM SCT026TCU BKN040 BKN090 BKN200 24/17 A2976 RMK AO2 PK WND 18031/1734 SLP069 TCU SW-NW-N MDT CU ALQDS SHRA SW W 60027 T02390172 10250 20183 58007=
202203231716 SPECI KATL 231716Z 19015G29KT 10SM SCT022TCU BKN038 BKN060 BKN200 24/18 A2977 RMK AO2 PK WND 19029/1710 TCU ALQDS T02390183=
202203231652 METAR KATL 231652Z 19018G28KT 10SM BKN016 BKN026 OVC045 23/18 A2978 RMK AO2 PK WND 19028/1642 SLP076 CIG 014V018 BINOVC T02280183=
202203231552 METAR KATL 231552Z 18011G23KT 10SM SCT009 BKN013 OVC028 21/18 A2978 RMK AO2 RAE1456 SLP077 CIG 011V015 P0000 T02060183=
202203231545 SPECI KATL 231545Z 18011G20KT 10SM SCT009 BKN014 OVC030 21/18 A2978 RMK AO2 RAE1456 P0000 T02060183=
202203231452 METAR KATL 231452Z 19011G17KT 10SM -RA SCT008 BKN016TCU OVC036 19/18 A2978 RMK AO2 RAB1354 SLP077 TCU NE-E MDT OHD-ALQDS BINOVC P0025 60027 T01940183 50001=
202203231442 SPECI KATL 231442Z 20008G16KT 4SM -RA BR SCT008 BKN018CB OVC038 19/18 A2978 RMK AO2 RAB1354 CB NE-SE-SW MOV NE P0025 T01940178=
202203231437 SPECI KATL 231437Z 19010KT 2 1/2SM R09R/4500VP6000FT +RA BR SCT008 BKN016CB OVC034 19/18 A2978 RMK AO2 RAB1354 CIG 007V010 CB NE-SE-SW MOV NE P0022 T01890178=
202203231432 SPECI KATL 231432Z 19007KT 1 1/2SM R09R/4500VP6000FT +RA BR BKN008 OVC014CB 19/18 A2978 RMK AO2 RAB1354 CIG 007V010 CB NE-OHD-SW MOV NE P0016 T01890178=
202203231430 SPECI KATL 231430Z 20008KT 2SM R09R/5000VP6000FT +RA BR BKN008 OVC014CB 19/18 A2978 RMK AO2 RAB1354 CIG 007V010 CB NE-OHD-SW MOV NE P0012 T01890178=
202203231409 SPECI KATL 231409Z 19008G17KT 3SM RA BR BKN008 OVC014 19/18 A2978 RMK AO2 RAB1354 CIG 007V010 P0004 T01940178=
202203231352 METAR KATL 231352Z 18011G18KT 10SM BKN009 BKN013 OVC038 19/18 A2978 RMK AO2 RAB02E12 SLP079 CIG 008V011 P0000 T01940178=
202203231252 METAR KATL 231252Z 17012G21KT 10SM FEW006 BKN009 BKN110 19/17 A2978 RMK AO2 SLP078 RAE40 P0002 T01890172=
202203231208 SPECI KATL 231208Z 17009G19KT 7SM -RA BKN009 OVC013 18/17 A2978 RMK AO2 P0002 T01830167=
202203231152 METAR KATL 231152Z 16010G19KT 7SM -RA BKN010 OVC015 18/17 A2977 RMK AO2 SLP076 P0003 60018 70018 T01830167 10183 20167 56005=
202203231052 METAR KATL 231052Z 15010KT 6SM -RA BR SCT010 BKN014 OVC024 18/16 A2978 RMK AO2 SLP077 P0006 T01780161=
202203230952 METAR KATL 230952Z 16009G17KT 3SM +RA BR FEW010 BKN014 OVC025 17/16 A2978 RMK AO2 SLP077 P0007 T01720156=
202203230859 SPECI KATL 230859Z 17010G19KT 8SM -RA OVC010 17/15 A2979 RMK AO2 P0001 T01720150=
202203230852 METAR KATL 230852Z 17012G19KT 7SM -RA FEW010 BKN016 OVC035 17/15 A2979 RMK AO2 PRESRR SLP081 P0000 60002 T01720150 56023=
202203230752 METAR KATL 230752Z 15014G25KT 9SM -RA FEW011 BKN015 OVC025 17/14 A2981 RMK AO2 SLP087 P0002 T01670144=
202203230716 SPECI KATL 230716Z 15010G21KT 10SM -RA SCT016 BKN020 OVC028 17/14 A2983 RMK AO2 P0000 T01720144=
202203230652 METAR KATL 230652Z 14014G26KT 9SM -RA SCT021 OVC030 18/14 A2983 RMK AO2 PK WND 14026/0646 SLP096 P0000 T01780139=
202203230552 METAR KATL 230552Z 14016G23KT 10SM -RA BKN035 BKN055 18/13 A2986 RMK AO2 SLP105 P0000 60000 T01830128 10222 20183 58018=
202203230452 METAR KATL 230452Z 14013G22KT 9SM -RA BKN045 OVC060 19/13 A2989 RMK AO2 PK WND 15026/0434 RAB33 SLP114 P0000 T01890128 402440106=
202203230352 METAR KATL 230352Z 13015G24KT 10SM BKN045 BKN060 OVC200 20/11 A2990 RMK AO2 PK WND 14027/0327 SLP117 T02000106=
202203230252 METAR KATL 230252Z 14013G23KT 10SM BKN048 BKN100 OVC200 21/10 A2991 RMK AO2 SLP123 T02060100 58009=
202203230152 METAR KATL 230152Z 13013G19KT 10SM FEW100 BKN200 BKN250 21/10 A2993 RMK AO2 SLP132 T02110100=
202203230052 METAR KATL 230052Z 14008G17KT 10SM FEW100 BKN200 BKN250 21/09 A2993 RMK AO2 SLP132 T02110094=
202203222352 METAR KATL 222352Z 15011G19KT 10SM BKN100 BKN200 BKN250 22/09 A2994 RMK AO2 SLP136 T02220089 10244 20222 55001=
202203222252 METAR KATL 222252Z 15021G29KT 10SM SCT100 BKN200 BKN250 23/08 A2993 RMK AO2 PK WND 15029/2252 SLP131 T02330078=
202203222152 METAR KATL 222152Z 14009G23KT 10SM SCT100 BKN200 BKN250 24/08 A2993 RMK AO2 SLP130 T02440083=
202203222052 METAR KATL 222052Z 12013G24KT 10SM FEW050 FEW080 SCT200 BKN250 24/09 A2995 RMK AO2 SLP135 ACC W-NW T02390094 58034=
202203221952 METAR KATL 221952Z 13011G22KT 10SM FEW055 FEW150 SCT200 SCT250 24/10 A2998 RMK AO2 SLP148 T02390100=
202203221852 METAR KATL 221852Z 13011G19KT 10SM FEW060 FEW150 SCT200 BKN250 23/10 A3002 RMK AO2 SLP159 T02330100=
202203221752 METAR KATL 221752Z 13014G21KT 10SM FEW055 SCT200 BKN250 22/10 A3005 RMK AO2 SLP171 T02220100 10228 20106 58031=
202203221652 METAR KATL 221652Z 15009G18KT 10SM FEW055 FEW060 SCT200 BKN250 22/10 A3010 RMK AO2 SLP189 T02170100=
202203221552 METAR KATL 221552Z 18014G21KT 10SM FEW048 FEW055 SCT200 BKN250 20/10 A3013 RMK AO2 SLP198 T02000100=
202203221452 METAR KATL 221452Z 16010G18KT 10SM SCT200 SCT250 18/09 A3014 RMK AO2 SLP204 T01780094 50006=
202203221352 METAR KATL 221352Z 13007KT 10SM FEW200 SCT250 14/08 A3014 RMK AO2 SLP205 T01440083=
202203221252 METAR KATL 221252Z 13007KT 10SM FEW200 SCT250 12/06 A3014 RMK AO2 SLP204 T01170061=
202203221152 METAR KATL 221152Z 13006KT 10SM FEW200 FEW250 11/05 A3013 RMK AO2 SLP199 T01110050 10144 20106 55001=
202203221052 METAR KATL 221052Z 13006KT 10SM FEW200 SCT250 12/06 A3012 RMK AO2 SLP197 T01170056=
202203220952 METAR KATL 220952Z 12005KT 10SM SCT200 BKN250 13/05 A3013 RMK AO2 SLP199 T01280050=
202203220852 METAR KATL 220852Z 15007KT 10SM SCT200 BKN250 13/05 A3013 RMK AO2 SLP199 T01330050 56007=
202203220752 METAR KATL 220752Z 15009KT 10SM SCT200 BKN250 13/04 A3013 RMK AO2 SLP199 T01330044=
202203220652 METAR KATL 220652Z 15008KT 10SM FEW200 BKN250 14/03 A3014 RMK AO2 SLP204 T01390028=
202203220552 METAR KATL 220552Z 14005KT 10SM FEW200 BKN250 13/01 A3015 RMK AO2 SLP206 T01330006 10200 20133 56006=
202203220452 METAR KATL 220452Z 14004KT 10SM FEW200 BKN250 14/01 A3015 RMK AO2 SLP207 T01390006 402280067=
202203220352 METAR KATL 220352Z 13004KT 10SM BKN250 15/M01 A3016 RMK AO2 SLP210 T01501006=
202203220252 METAR KATL 220252Z 14004KT 10SM SCT250 16/00 A3017 RMK AO2 SLP213 T01560000 53008=
202203220152 METAR KATL 220152Z 14005KT 10SM FEW200 BKN250 17/M02 A3016 RMK AO2 SLP211 T01721017=
202203220052 METAR KATL 220052Z 13004KT 10SM FEW200 BKN250 18/M01 A3015 RMK AO2 SLP207 T01781006=
202203212352 METAR KATL 212352Z 14006KT 10SM FEW200 BKN250 20/M02 A3014 RMK AO2 SLP207 T02001022 10228 20200 56013=
202203212252 METAR KATL 212252Z 12008KT 10SM SCT200 BKN250 22/M03 A3015 RMK AO2 SLP207 T02171028=
202203212152 METAR KATL 212152Z 15008KT 10SM SCT200 BKN250 23/M03 A3016 RMK AO2 SLP212 T02281028=
202203212052 METAR KATL 212052Z 15010KT 10SM SCT200 BKN250 22/M02 A3018 RMK AO2 SLP218 T02221017 58032=
202203211952 METAR KATL 211952Z 13008KT 10SM SCT200 BKN250 22/M02 A3022 RMK AO2 SLP231 T02221017=
202203211852 METAR KATL 211852Z 12010KT 10SM SCT200 SCT250 21/M02 A3025 RMK AO2 SLP242 T02111017=
202203211752 METAR KATL 211752Z 10006G15KT 10SM SCT200 SCT250 21/M01 A3028 RMK AO2 SLP253 T02061011 10206 20078 58016=
202203211652 METAR KATL 211652Z 11010KT 10SM SCT200 SCT250 19/M01 A3031 RMK AO2 SLP262 T01941011=
202203211552 METAR KATL 211552Z 12009KT 10SM SCT200 SCT250 18/M02 A3034 RMK AO2 SLP270 T01831017=
202203211452 METAR KATL 211452Z 11009G17KT 10SM FEW200 SCT250 16/M02 A3033 RMK AO2 SLP269 T01611022 51015=
202203211352 METAR KATL 211352Z 09005KT 10SM FEW200 SCT250 14/00 A3032 RMK AO2 SLP267 T01390000=
202203211252 METAR KATL 211252Z 10005KT 10SM FEW200 FEW250 11/01 A3030 RMK AO2 SLP260 T01110006=
202203211152 METAR KATL 211152Z 00000KT 10SM FEW250 08/00 A3029 RMK AO2 SLP256 T00780000 10117 20067 53012=
202203211052 METAR KATL 211052Z 05003KT 10SM CLR 08/M01 A3027 RMK AO2 SLP249 T00831006=
202203210952 METAR KATL 210952Z 03003KT 10SM CLR 08/00 A3026 RMK AO2 SLP244 T00830000=
202203210852 METAR KATL 210852Z 00000KT 10SM CLR 09/M01 A3025 RMK AO2 SLP242 T00941006 51001 $=
202203210752 METAR KATL 210752Z 33005KT 10SM CLR 09/00 A3025 RMK AO2 SLP241 T00890000 $=
202203210652 METAR KATL 210652Z 31004KT 10SM CLR 10/00 A3026 RMK AO2 SLP244 T01000000 $=
202203210552 METAR KATL 210552Z 29003KT 10SM CLR 09/02 A3025 RMK AO2 SLP242 T00890017 10178 20089 58002 $=
202203210452 METAR KATL 210452Z 34004KT 10SM FEW250 13/M02 A3026 RMK AO2 SLP244 T01281017 402060050 $=
202203210352 METAR KATL 210352Z 01005KT 10SM CLR 15/M03 A3026 RMK AO2 SLP245 T01501033 $=
202203210252 METAR KATL 210252Z 35005KT 10SM CLR 14/M02 A3025 RMK AO2 SLP244 T01441022 53015 $=
202203210152 METAR KATL 210152Z 35007KT 10SM CLR 16/M03 A3023 RMK AO2 SLP237 T01611028 $=
202203210052 METAR KATL 210052Z 36008KT 10SM CLR 17/M03 A3022 RMK AO2 SLP232 T01671028 $=
202203202352 METAR KATL 202352Z 35008KT 10SM FEW250 18/M04 A3021 RMK AO2 SLP231 T01781039 10206 20178 53002 $=
202203202252 METAR KATL 202252Z 34009G21KT 10SM FEW250 19/M04 A3019 RMK AO2 SLP224 T01941044 $=
202203202152 METAR KATL 202152Z 34010KT 10SM SCT250 20/M04 A3019 RMK AO2 SLP223 T02001039 $=
202203202052 METAR KATL 202052Z 34011G21KT 10SM FEW250 20/M03 A3020 RMK AO2 SLP227 T02001028 58014 $=
202203201952 METAR KATL 201952Z 32018G23KT 10SM FEW250 19/M03 A3022 RMK AO2 PK WND 31026/1928 SLP231 T01941028 $=
202203201852 METAR KATL 201852Z 29012G22KT 10SM CLR 19/M01 A3024 RMK AO2 PK WND 33026/1808 SLP237 T01941011 $=
202203201752 METAR KATL 201752Z 32012G22KT 10SM CLR 18/M02 A3025 RMK AO2 SLP241 T01831017 10183 20050 50001 $=
202203201652 METAR KATL 201652Z 33018G24KT 10SM CLR 17/01 A3025 RMK AO2 SLP244 T01720006 $=
202203201552 METAR KATL 201552Z 33015G22KT 10SM CLR 16/01 A3024 RMK AO2 PK WND 34026/1536 SLP241 T01560006 $=
202203201452 METAR KATL 201452Z 30011G17KT 10SM CLR 13/03 A3024 RMK AO2 SLP242 T01280033 53016 $=
202203201352 METAR KATL 201352Z 32009KT 10SM CLR 10/03 A3022 RMK AO2 SLP235 T01000028 $=
202203201252 METAR KATL 201252Z 30008KT 10SM CLR 07/02 A3022 RMK AO2 SLP233 T00720022 $=
202203201152 METAR KATL 201152Z 28006KT 10SM CLR 06/01 A3020 RMK AO2 SLP227 T00560011 10094 20056 53015 $=
202203201052 METAR KATL 201052Z 30008KT 10SM CLR 06/02 A3018 RMK AO2 SLP219 T00560017 $=
202203200952 METAR KATL 200952Z 29004KT 10SM CLR 06/01 A3016 RMK AO2 SLP214 T00610011 $=
202203200852 METAR KATL 200852Z 31007KT 10SM FEW180 07/01 A3015 RMK AO2 SLP209 T00720011 50001 $=
202203200752 METAR KATL 200752Z 32006KT 10SM FEW180 08/01 A3016 RMK AO2 SLP213 T00780011 $=
202203200652 METAR KATL 200652Z 33010KT 10SM FEW180 09/01 A3016 RMK AO2 SLP212 T00890011 $=
202203200552 METAR KATL 200552Z 33011KT 10SM FEW180 09/02 A3015 RMK AO2 SLP208 T00890017 10150 20089 51006 $=
202203200452 METAR KATL 200452Z 32008KT 10SM SCT180 SCT250 09/02 A3014 RMK AO2 SLP207 T00890022 401940089 $=
202203200352 METAR KATL 200352Z 33012G19KT 10SM FEW035 FEW180 SCT250 10/03 A3014 RMK AO2 PK WND 32027/0328 SLP207 T01000028 $=
202203200252 METAR KATL 200252Z 32015G24KT 10SM FEW030 SCT180 SCT250 11/04 A3013 RMK AO2 SLP202 T01110039 53022 $=
202203200152 METAR KATL 200152Z 32009G19KT 10SM SCT180 SCT200 SCT250 13/04 A3010 RMK AO2 SLP192 T01280044 $=
202203200052 METAR KATL 200052Z 32011KT 10SM FEW050 SCT180 BKN250 14/04 A3008 RMK AO2 SLP184 T01390044 $=
202203192352 METAR KATL 192352Z 30011KT 10SM FEW050 FEW180 SCT250 15/04 A3006 RMK AO2 SLP178 T01500044 10194 20150 53016 $=
202203192252 METAR KATL 192252Z 29014KT 10SM FEW050 FEW150 SCT250 17/05 A3003 RMK AO2 SLP166 T01720050 $=
202203192152 METAR KATL 192152Z 29011KT 10SM FEW050 FEW150 SCT250 19/06 A3001 RMK AO2 SLP158 T01890061 $=
202203192052 METAR KATL 192052Z 28013G25KT 10SM FEW065 FEW140 SCT200 19/06 A3001 RMK AO2 SLP158 T01890056 55008 $=
202203191952 METAR KATL 191952Z 26010G18KT 10SM FEW060 FEW120 SCT200 19/05 A3001 RMK AO2 SLP159 T01890050 $=
202203191852 METAR KATL 191852Z 26009G21KT 10SM FEW060 FEW200 18/06 A3003 RMK AO2 SLP164 T01780061 $=
202203191752 METAR KATL 191752Z 26011G20KT 10SM FEW055 FEW200 17/06 A3004 RMK AO2 SLP169 T01720056 10172 20122 58004 $=
202203191652 METAR KATL 191652Z 25011G18KT 10SM FEW050 FEW140 FEW250 16/06 A3004 RMK AO2 SLP171 T01610056 $=
202203191552 METAR KATL 191552Z 27007G17KT 10SM FEW034 FEW110 SCT250 14/07 A3006 RMK AO2 SLP176 T01440067 $=
202203191452 METAR KATL 191452Z 27012G21KT 10SM FEW024 FEW100 13/07 A3005 RMK AO2 SLP174 T01330067 51033 $=
202203191352 METAR KATL 191352Z 28012G17KT 10SM FEW019 FEW090 13/08 A3003 RMK AO2 SLP168 T01280078 $=
202203191252 METAR KATL 191252Z 28011KT 10SM FEW016 FEW024 FEW090 12/08 A3000 RMK AO2 SLP158 T01220078 $=
202203191213 SPECI KATL 191213Z 27011KT 10SM FEW014 SCT022 SCT090 13/09 A2998 RMK AO2 PRESRR T01280089 $=
202203191152 METAR KATL 191152Z 29012KT 10SM SCT014 BKN025 13/09 A2995 RMK AO2 SLP139 60000 70077 T01330094 10178 20133 53020 $=
202203191117 SPECI KATL 191117Z 28014KT 10SM FEW009 BKN014 BKN033 16/13 A2994 RMK AO2 PRESRR BKN014 V SCT T01560133 $=
202203191052 METAR KATL 191052Z 24010G17KT 10SM SCT013 SCT033 17/15 A2991 RMK AO2 SLP124 T01720150 $=
202203191017 SPECI KATL 191017Z 23009G16KT 10SM BKN013 BKN019 BKN026 18/16 A2990 RMK AO2 T01780156 $=
202203190952 METAR KATL 190952Z 23007KT 10SM FEW011 BKN018 BKN025 18/16 A2989 RMK AO2 SLP117 T01780156 $=
202203190948 SPECI KATL 190948Z 23009KT 10SM SCT013 BKN020 BKN025 18/16 A2989 RMK AO2 $=
202203190923 SPECI KATL 190923Z 22009KT 10SM BKN011 BKN015 OVC030 18/16 A2989 RMK AO2 T01780161 $=
202203190852 METAR KATL 190852Z 23008G19KT 6SM BR BKN007 OVC017 18/16 A2989 RMK AO2 DZE49 SLP116 CIG 005V009 P0000 60000 T01780161 56004 $=
202203190847 SPECI KATL 190847Z 22011G19KT 6SM -DZ BR BKN007 OVC017 17/16 A2988 RMK AO2 CIG 005V009 P0000=
202203190842 SPECI KATL 190842Z 23009G16KT 1SM R09R/P6000FT -DZ BR BKN005 OVC019 17/16 A2989 RMK AO2 SFC VIS 6 P0000 T01720161=
202203190752 METAR KATL 190752Z 22006KT 1SM R09R/P6000FT -DZ BR OVC002 17/16 A2989 RMK AO2 SFC VIS 2 SLP120 TWRINC P0000 T01670156=
202203190652 METAR KATL 190652Z 20008KT 1SM R09R/P6000FT -DZ BR OVC003 16/15 A2990 RMK AO2 SFC VIS 2 DZB04 SLP122 CIG 002V004 TWRINC P0000 T01610150=
202203190604 SPECI KATL 190604Z 20010KT 1SM R09R/P6000FT -DZ BR OVC004 16/14 A2989 RMK AO2 SFC VIS 5 DZB04 CIG 003V005 P0000 T01560144=
202203190555 SPECI KATL 190555Z 19011G17KT 8SM OVC004 16/14 A2989 RMK AO2 T01560144=
202203190552 METAR KATL 190552Z 19010G17KT 10SM OVC006 16/14 A2989 RMK AO2 SLP118 60000 T01560144 10156 20150 57010=
202203190452 METAR KATL 190452Z 19009KT 10SM OVC006 16/14 A2990 RMK AO2 SLP122 T01560139 401560117=
202203190352 METAR KATL 190352Z 19007KT 10SM BKN007 OVC012 16/14 A2991 RMK AO2 RAB29E39 SLP125 P0000 T01560139=
202203190252 METAR KATL 190252Z 18007KT 9SM BKN007 OVC055 16/14 A2992 RMK AO2 DZB04E38 SLP128 P0000 60000 T01560139 53002=
202203190152 METAR KATL 190152Z 18007KT 2 1/2SM OVC004 15/14 A2992 RMK AO2 SFC VIS 9 DZE06 SLP129 P0000 T01500139=
202203190106 SPECI KATL 190106Z 18008KT 2 1/2SM OVC004 15/14 A2991 RMK AO2 SFC VIS 8 DZE06 P0000 T01500139=
202203190052 METAR KATL 190052Z 18007KT 4SM -DZ BR OVC005 15/14 A2991 RMK AO2 DZB50 SLP126 P0000 T01500139=
202203182352 METAR KATL 182352Z 18007KT 10SM OVC007 15/13 A2991 RMK AO2 SLP127 60004 T01500133 10150 20128 53001=
202203182252 METAR KATL 182252Z 17009KT 10SM OVC008 15/13 A2990 RMK AO2 SLP122 T01500133=
202203182152 METAR KATL 182152Z 18008KT 10SM OVC007 15/13 A2991 RMK AO2 SLP127 CIG 005V009 T01500133=
202203182052 METAR KATL 182052Z 17007KT 9SM OVC008 14/13 A2991 RMK AO2 SLP126 CIG 007V010 60004 T01440128 58014=
202203182021 SPECI KATL 182021Z 16006KT 10SM BKN008 BKN160CB OVC220 14/13 A2991 RMK AO2 VIRGA NE-SE-SW CIG 007V010 CBMAM NE-SE-SW MOV NE T01440128=
202203181952 METAR KATL 181952Z 18005KT 10SM SCT008 BKN150CB OVC200 14/13 A2992 RMK AO2 SLP131 VIRGA OHD-ALQDS CBMAM OHD-ALQDS MOV NE T01390128=
202203181947 SPECI KATL 181947Z 18005KT 10SM SCT007 BKN140CB OVC200 14/13 A2992 RMK AO2 VIRGA OHD-ALQDS CBMAM OHD-ALQDS MOV NE=
202203181917 SPECI KATL 181917Z 13005KT 10SM BKN006 BKN130CB OVC200 14/13 A2989 RMK AO2 CIG 004V008 CBMAM OHD-ALQDS MOV NE T01390128=
202203181852 METAR KATL 181852Z 16008G16KT 10SM BKN006 BKN080 OVC130CB 14/13 A2994 RMK AO2 PK WND 11027/1807 LTG DSNT E-S SLP138 RAE49 TSE23 TS MOVD E CBMAM OHD-ALQDS MOV NE CB DSNT NE-SE P0004 T01390128=
202203181845 SPECI KATL 181845Z 15010G18KT 10SM -RA BKN007 BKN075 OVC120CB 14/12 A2993 RMK AO2 PK WND 11027/1807 LTG DSNT E TSE23 TS MOVD E CBMAM OHD-ALQDS MOV NE CB DSNT NE-SE P0004 T01390122=
202203181825 SPECI KATL 181825Z 14014G27KT 8SM -RA FEW004 SCT016 BKN065 OVC130 13/12 A2992 RMK AO2 PK WND 11027/1807 TSE23 TS MOVD E CB DSNT NE-SE-S P0004 T01330122=
202203181812 SPECI KATL 181812Z 12017G27KT 6SM VCTS -RA BR FEW004 SCT014 OVC055CB 13/12 A2989 RMK AO2 PK WND 11027/1807 LTG DSNT ALQDS PRESFR OCNL LTGICCA VC NE-SE-SW TS VC NE-SE-SW MOV E CB DSNT ALQDS P0004 T01330117 $=
202203181752 METAR KATL 181752Z 12013G23KT 4SM TSRA BR SCT004 BKN012 OVC036CB 13/12 A2995 RMK AO2 LTG DSNT ALQDS SLP140 OCNL LTGICCA NE-SE-SW TS NE-SE-SW MOV E CB DSNT ALQDS P0026 60073 T01280117 10139 20122 58006 $=
202203181743 SPECI KATL 181743Z 11014G22KT 3SM TSRA BR SCT004 BKN014 OVC038CB 13/12 A2997 RMK AO2 LTG DSNT ALQDS PRESFR OCNL LTGICCA OHD-ALQDS TS OHD-ALQDS MOV E CB DSNT ALQDS P0023 T01280117 $=
202203181719 SPECI KATL 181719Z 13011KT 3SM TSRA BR FEW004 BKN050CB OVC075 12/11 A3001 RMK AO2 LTG DSNT ALQDS OCNL LTGICCA OHD-ALQDS TS OHD-ALQDS MOV E CB DSNT ALQDS P0011 T01220111 $=
202203181652 METAR KATL 181652Z 12011KT 3SM TSRA BR BKN055CB OVC085 12/11 A3003 RMK AO2 LTG DSNT ALQDS SLP166 OCNL LTGICCA OHD-ALQDS TS OHD-ALQDS MOV E CB DSNT ALQDS P0031 T01220111 $=
202203181552 METAR KATL 181552Z 19004KT 3SM +TSRA BR FEW012 BKN055CB OVC090 13/11 A3009 RMK AO2 PK WND 27047/1509 SLP187 TSB1458 OCNL LTGICCA OHD-ALQDS TS OHD-ALQDS MOV E P0016 T01280106 $=
202203181528 SPECI KATL 181528Z 27004G18KT 3SM +TSRA BR FEW012 BKN046CB OVC075 13/11 A3010 RMK AO2 PK WND 27047/1509 TSB1458 FRQ LTGICCGCA OHD-ALQDS TS OHD-ALQDS MOV E P0007 T01330111 $=
202203181522 SPECI KATL 181522Z 26007G31KT 2SM +TSRA BR FEW012 BKN046CB OVC080 13/11 A3012 RMK AO2 PK WND 27047/1509 TSB1458 FRQ LTGICCGCA OHD-ALQDS TS OHD-ALQDS MOV E P0004 T01330111 $=
202203181513 SPECI KATL 181513Z 27023G47KT 1SM R09R/P6000FT +TSRA SCT018 BKN048CB OVC075 14/11 A3011 RMK AO2 PK WND 27047/1509 TSB1458 FRQ LTGICCGCA N-OHD-S TS N-OHD-S MOV E SHELF CLOUD NE-SE-SW MOV E P0000 T01390106=
202203181511 SPECI KATL 181511Z 27030G47KT 3SM TSRA BR FEW018 BKN048CB BKN075 OVC140 13/11 A3011 RMK AO2 PK WND 27047/1509 TSB1458 PRESRR FRQ LTGICCGCA SW-NW-N TS SW-NW-N MOV E SHELF CLOUD SW-NW-N MOV E P0000 T01330111=
202203181459 SPECI KATL 181459Z 15006KT 10SM -TSRA BKN048CB BKN070 OVC120 13/11 A2997 RMK AO2 TSB58 FRQ LTGICCGCA SW-NW-N TS SW-NW-N MOV E P0000 T01280106=
202203181452 METAR KATL 181452Z 11007KT 10SM -RA SCT048 BKN070 BKN120 OVC180 13/11 A2997 RMK AO2 LTG DSNT SW-N RAB50 SLP145 CB DSNT SW-NW P0000 60000 T01280106 55010=
202203181352 METAR KATL 181352Z 10008KT 9SM FEW050 SCT130 BKN180 OVC250 13/11 A2996 RMK AO2 SLP143 VIRGA OHD-ALQDS T01280106=
202203181252 METAR KATL 181252Z 09006KT 10SM FEW045 FEW150 BKN180 OVC250 13/11 A3000 RMK AO2 SLP154 T01280106 $=
202203181152 METAR KATL 181152Z 12003KT 10SM FEW150 SCT180 BKN250 12/09 A3000 RMK AO2 SLP155 T01220094 10139 20117 50006 $=
202203181052 METAR KATL 181052Z 22004KT 10SM FEW150 BKN250 12/09 A3001 RMK AO2 PRESRR SLP157 T01220094 $=
202203180952 METAR KATL 180952Z 16005KT 10SM BKN250 13/09 A2998 RMK AO2 SLP146 T01330094=
202203180852 METAR KATL 180852Z 16003KT 10SM SCT250 13/09 A2998 RMK AO2 SLP147 T01280094 55004=
202203180752 METAR KATL 180752Z 19003KT 10SM FEW250 13/09 A2998 RMK AO2 SLP147 T01330094=
202203180652 METAR KATL 180652Z 00000KT 10SM CLR 12/09 A2999 RMK AO2 SLP151 T01220094=
202203180552 METAR KATL 180552Z 14004KT 10SM CLR 14/10 A2999 RMK AO2 SLP153 T01390100 10206 20139 58005=
202203180452 METAR KATL 180452Z 00000KT 10SM CLR 15/09 A3002 RMK AO2 SLP163 T01500094 402330094=
202203180352 METAR KATL 180352Z 00000KT 10SM CLR 16/10 A3002 RMK AO2 SLP163 T01560100=
202203180252 METAR KATL 180252Z 16003KT 10SM CLR 17/11 A3001 RMK AO2 SLP160 T01670111 51007=
202203180152 METAR KATL 180152Z 00000KT 10SM FEW250 18/09 A3000 RMK AO2 SLP158 T01780094=
202203180052 METAR KATL 180052Z 00000KT 10SM FEW200 SCT250 19/10 A3000 RMK AO2 SLP157 T01890100=
202203172352 METAR KATL 172352Z 20005KT 10SM FEW200 BKN250 21/09 A2999 RMK AO2 SLP152 T02060089 10233 20194 53005=
202203172252 METAR KATL 172252Z 25007KT 10SM FEW200 BKN250 22/10 A2998 RMK AO2 SLP148 T02220100=
202203172152 METAR KATL 172152Z 27007KT 10SM FEW055 SCT200 BKN250 23/09 A2997 RMK AO2 SLP146 T02280094=
202203172052 METAR KATL 172052Z 28009KT 10SM FEW055 SCT200 BKN250 23/10 A2997 RMK AO2 SLP144 T02330100 56019=
202203171952 METAR KATL 171952Z 31005KT 10SM FEW050 FEW200 SCT250 22/10 A2997 RMK AO2 SLP145 T02220100=
202203171852 METAR KATL 171852Z 29008KT 10SM FEW044 FEW250 21/11 A3000 RMK AO2 SLP155 T02110106=
202203171752 METAR KATL 171752Z 29006KT 10SM FEW033 19/11 A3003 RMK AO2 SLP165 T01940111 10200 20094 58004=
202203171652 METAR KATL 171652Z 33007KT 10SM FEW003 FEW022 18/12 A3004 RMK AO2 SLP168 FU FEW003 FU PLUME S T01780117=
202203171650 SPECI KATL 171650Z VRB04KT 10SM FEW003 FEW022 18/12 A3004 RMK AO2 FU FEW003 FU PLUME S=
202203171552 METAR KATL 171552Z 31006KT 10SM FEW018 16/11 A3004 RMK AO2 SLP170 T01610106=
202203171452 METAR KATL 171452Z 25005KT 9SM FEW009 14/12 A3004 RMK AO2 SLP171 T01440117 51015 $=
202203171402 SPECI KATL 171402Z 24003KT 8SM FEW002 12/11 A3003 RMK AO2 T01170106 $=
202203171352 METAR KATL 171352Z 23003KT 4SM BR FEW001 FEW006 12/11 A3003 RMK AO2 SLP169 T01170111 $=
202203171342 SPECI KATL 171342Z 28003KT 4SM BR FEW001 SCT006 11/10 A3003 RMK AO2 T01110100 $=
202203171326 SPECI KATL 171326Z 25003KT 2SM R09R/3500VP6000FT BR FEW001 SCT006 11/09 A3003 RMK AO2 VIS NW-N 1 1/4 T01060094 $=
202203171319 SPECI KATL 171319Z 26003KT 1 1/2SM R09R/2200V5000FT BR FEW001 SCT005 10/09 A3002 RMK AO2 VIS NW-N 3/4 T01000094 $=
202203171252 METAR KATL 171252Z 25005KT 1SM R09R/P6000FT BR SCT001 SCT006 09/09 A3002 RMK AO2 SLP166 T00940089=
202203171245 SPECI KATL 171245Z 26004KT 1SM R09R/1800VP6000FT BR SCT001 09/09 A3002 RMK AO2 T00940089=
202203171213 SPECI KATL 171213Z 25006KT 1/2SM R09R/1400V2400FT FG VV001 09/09 A3001 RMK AO2 T00940089=
202203171150 METAR KATL 171150Z 26004KT 3/4SM R09R/1400V1600FT BR BKN001 09/09 A3000 RMK AO2 SLP158 70052 T00940089 10128 20094 53013=
202203171149 SPECI KATL 171149Z 26005KT 3/4SM R09R/1400V1600FT BR BKN001 09/09 A3000 RMK AO2=
202203171131 SPECI KATL 171131Z 24005KT 3/4SM R09R/2400VP6000FT BR SCT001 10/09 A2999 RMK AO2 VIS SE-SW 1 1/4 T01000089=
202203171101 SPECI KATL 171101Z 32003KT 1/8SM R09R/1400V3000FT FG VV000 10/09 A2998 RMK AO2 T01000094=
202203171052 METAR KATL 171052Z 33003KT 1/8SM R09R/1400V2200FT FG VV000 10/09 A2998 RMK AO2 SLP151 T01000094=
202203171038 SPECI KATL 171038Z 32005KT 1/8SM R09R/1400FT FG VV000 10/09 A2997 RMK AO2 T01000094=
202203171001 SPECI KATL 171001Z 27004KT 1/8SM R09R/1600V4500FT FG VV000 10/09 A2996 RMK AO2 T01000094=
202203170952 METAR KATL 170952Z 00000KT 1/8SM R09R/1400V2000FT FG VV000 10/09 A2996 RMK AO2 SLP144 T01000094=
202203170852 METAR KATL 170852Z 31003KT 1/8SM R09R/1200FT FG VV000 11/10 A2996 RMK AO2 SLP143 T01060100 58001=
202203170850 SPECI KATL 170850Z 31003KT 1/8SM R09R/1000V1200FT FG VV000 11/10 A2996 RMK AO2=
202203170820 SPECI KATL 170820Z 29005KT 1/2SM R09R/2000VP6000FT FG BKN001 BKN014 11/11 A2996 RMK AO2 VIS S-SW 1 T01110106=
202203170811 SPECI KATL 170811Z 29005KT 1 3/4SM BR SCT001 SCT007 OVC014 11/11 A2996 RMK AO2 T01110106=
202203170752 METAR KATL 170752Z 28004KT 3SM BR SCT007 BKN014 12/11 A2996 RMK AO2 SLP144 T01170111=
202203170652 METAR KATL 170652Z 30003KT 6SM BR SCT007 BKN014 12/11 A2996 RMK AO2 SLP144 T01220111=
202203170552 METAR KATL 170552Z 00000KT 7SM SCT007 BKN010 13/11 A2996 RMK AO2 SLP143 T01280111 10133 20122 58001=
202203170452 METAR KATL 170452Z 09007KT 10SM SCT007 BKN012 BKN200 13/11 A2996 RMK AO2 SLP145 T01330111 401830117=
202203170352 METAR KATL 170352Z 09005KT 7SM OVC005 13/12 A2997 RMK AO2 SLP147 CIG 004V007 T01280117=
202203170256 SPECI KATL 170256Z 07008KT 1 1/2SM BKN004 BKN200 13/11 A2996 RMK AO2 SFC VIS 9 T01280111=
202203170252 METAR KATL 170252Z 07009KT 10SM BKN005 BKN200 13/11 A2996 RMK AO2 SLP144 T01280111 $=
202203170237 SPECI KATL 170237Z 05005KT 10SM BKN006 BKN200 12/11 A2996 RMK AO2 T01220106 $=
202203170152 METAR KATL 170152Z 04007KT 10SM FEW006 SCT150 BKN200 13/11 A2995 RMK AO2 SLP142 T01280106 $=
202203170052 METAR KATL 170052Z 06008KT 10SM SCT006 BKN150 BKN200 12/11 A2995 RMK AO2 SLP140 SCT006 V BKN T01220111 $=
202203162352 METAR KATL 162352Z 06008KT 10SM FEW060 SCT150 BKN200 12/10 A2995 RMK AO2 RAE06 SLP142 P0000 60050 T01220100 10183 20117 50009 $=
202203162252 METAR KATL 162252Z 01010KT 7SM -RA FEW025 BKN060 BKN120 BKN200 13/11 A2995 RMK AO2 RAB2159 TSE51 SLP141 LTG DSNT NW-NE TS MOVD NE CB DSNT NW-NE E-SE P0050 T01280106 $=
202203162221 SPECI KATL 162221Z 31006KT 3SM TSRA BR SCT014 BKN025CB OVC110 12/10 A2996 RMK AO2 RAB2159 VIS LWR NW-NE OCNL LTGICCG NW-N TS NW-N MOV NE P0035 T01170100 $=
202203162207 SPECI KATL 162207Z 27014G25KT 1 1/2SM +TSRA BKN014 BKN020CB OVC110 13/10 A2996 RMK AO2 RAB2159 OCNL LTGICCG SE-OHD-NW TS SE-OHD-NW MOV NE P0007 T01280100 $=
202203162152 METAR KATL 162152Z 07011KT 10SM TS SCT014 BKN020CB BKN110 OVC200 16/12 A2994 RMK AO2 SLP135 TSB32 FRQ LTGICCG SE-SW-NW TS SE-SW-NW MOV NE T01560122 $=
202203162132 SPECI KATL 162132Z 04014KT 10SM TS SCT014 BKN020CB BKN110 BKN200 16/12 A2992 RMK AO2 TSE29B32 OCNL LTGICCG S-W TS S-W MOV NE T01610122 $=
202203162052 METAR KATL 162052Z 08012KT 10SM BKN016 BKN026 BKN100 BKN200 17/13 A2992 RMK AO2 LTG DSNT S-W SLP130 CB DSNT SE S SW-NW T01720128 56017 $=
202203161952 METAR KATL 161952Z 08011KT 10SM BKN018 BKN028 BKN080 BKN200 17/13 A2994 RMK AO2 SLP136 CIG 016V020 T01670128 $=
202203161950 SPECI KATL 161950Z 09010KT 10SM BKN016 BKN026 BKN075 BKN200 17/13 A2994 RMK AO2 CIG 014V018 $=
202203161923 SPECI KATL 161923Z 08011KT 10SM BKN012 BKN018 OVC026 17/14 A2996 RMK AO2 CIG 010V014 BINOVC T01670139 $=
202203161852 METAR KATL 161852Z 07009KT 10SM BKN007 OVC015 17/14 A2997 RMK AO2 SLP148 CIG 005V009 BINOVC T01670139 $=
202203161752 METAR KATL 161752Z 06009KT 8SM BKN007 OVC014 15/13 A3000 RMK AO2 RAE03DZB03E49 SLP157 CIG 005V009 P0000 60002 T01500133 10156 20128 58014 $=
202203161652 METAR KATL 161652Z 08008KT 6SM -RA BR BKN006 OVC012 14/13 A3003 RMK AO2 DZE47RAB47 SLP166 CIG 004V008 P0000 T01440128 $=
202203161552 METAR KATL 161552Z 08009KT 7SM -DZ OVC005 14/13 A3004 RMK AO2 SLP171 CIG 004V007 PCPN VRY LGT P0000 T01390128 $=
202203161452 METAR KATL 161452Z 08008KT 6SM -DZ BR OVC005 13/12 A3004 RMK AO2 RAB1359E14 SLP172 CIG 004V007 P0001 60002 T01330122 51006=
202203161352 METAR KATL 161352Z 08011KT 6SM -DZ BR OVC006 13/12 A3004 RMK AO2 RAB07E31DZB49 SLP171 CIG 004V008 P0000 T01330122=
202203161252 METAR KATL 161252Z 07011KT 5SM BR OVC005 13/12 A3003 RMK AO2 RAE52 SLP168 CIG 004V008 P0001 T01330117=
202203161152 METAR KATL 161152Z 08011KT 3SM -RA BR BKN005 OVC012 13/12 A3002 RMK AO2 SLP165 DZE1056RAB1056 P0001 60033 70077 T01280117 10139 20128 53003=
202203161052 METAR KATL 161052Z 08011KT 6SM -DZ BR BKN005 OVC012 13/12 A3002 RMK AO2 RAB18E50DZB50 SLP163 CIG 004V008 P0001 T01330122=
202203160952 METAR KATL 160952Z 09007KT 6SM BR BKN006 OVC013 13/12 A3001 RMK AO2 RAE27 SLP160 P0003 T01330122 $=
202203160852 METAR KATL 160852Z 09009KT 3SM RA BR BKN006 OVC016 13/12 A3002 RMK AO2 SLP162 P0011 60028 T01330122 58014 $=
202203160836 SPECI KATL 160836Z 10006KT 2 1/2SM RA BR BKN006 OVC014 13/12 A3002 RMK AO2 P0006 T01330122 $=
202203160752 METAR KATL 160752Z 10009KT 6SM -RA BR BKN007 OVC012 14/12 A3004 RMK AO2 SLP168 CIG 006V009 P0009 T01390122 $=
202203160652 METAR KATL 160652Z 09015G20KT 4SM -RA BR BKN006 BKN011 OVC016 14/12 A3004 RMK AO2 SLP169 P0008 T01390122 $=
202203160552 METAR KATL 160552Z 10010G20KT 3SM RA BR BKN006 BKN013 OVC038 14/13 A3006 RMK AO2 SLP175 P0014 60036 T01390128 10150 20139 56018 $=
202203160452 METAR KATL 160452Z 11010KT 7SM -RA BKN008 BKN013 OVC040 14/13 A3008 RMK AO2 SLP181 P0007 T01440128 402000089 $=
202203160352 METAR KATL 160352Z 09015G23KT 5SM RA BR BKN007 BKN013 OVC030 14/13 A3008 RMK AO2 SLP185 P0007 T01390128 $=
202203160252 METAR KATL 160252Z 09012G17KT 4SM -RA BR SCT008 BKN013 OVC040 14/12 A3011 RMK AO2 SLP194 P0001 60008 T01390122 56005 $=
202203160218 SPECI KATL 160218Z 11011KT 7SM -RA FEW010 BKN022 OVC045 14/12 A3012 RMK AO2 P0000 T01390122 $=
202203160152 METAR KATL 160152Z 10013G18KT 7SM -RA SCT025 BKN042 OVC100 14/12 A3012 RMK AO2 SLP198 P0003 T01440122 $=
202203160052 METAR KATL 160052Z 09011KT 8SM -RA FEW025 BKN032 OVC070 14/12 A3012 RMK AO2 SLP199 P0004 T01440122 $=
202203152352 METAR KATL 152352Z 10009KT 8SM -RA FEW030 BKN042 OVC060 15/12 A3013 RMK AO2 RAE2254B19 SLP202 P0001 60008 T01500122 10194 20150 56011 $=
202203152252 METAR KATL 152252Z 08013KT 9SM -RA FEW025 SCT040 BKN060 OVC150 15/13 A3013 RMK AO2 SLP204 P0005 T01500128 $=
202203152152 METAR KATL 152152Z 08009KT 7SM -RA BKN045 BKN060 OVC130 16/13 A3015 RMK AO2 RAE13B42 SLP209 P0000 T01610128 $=
202203152052 METAR KATL 152052Z 09013KT 9SM -RA FEW034 SCT065 BKN085 OVC130 17/13 A3016 RMK AO2 SLP212 P0000 60002 T01720128 57022 $=
202203151952 METAR KATL 151952Z 08008KT 8SM -RA SCT036 BKN070 OVC100 18/13 A3018 RMK AO2 SLP219 P0002 T01780128 $=
202203151852 METAR KATL 151852Z 12008KT 8SM -RA SCT038 BKN075 OVC120 18/11 A3020 RMK AO2 RAB40 SLP226 P0000 T01830106 $=
202203151752 METAR KATL 151752Z 13009KT 10SM SCT035 SCT080 BKN120 OVC200 19/11 A3023 RMK AO2 SLP234 T01940106 10200 20094 58015=
202203151652 METAR KATL 151652Z 11005KT 10SM FEW044 SCT080 BKN110 OVC200 18/10 A3025 RMK AO2 SLP243 ACC SE SW T01830100=
202203151552 METAR KATL 151552Z 13007KT 10SM FEW048 SCT080 BKN110 BKN200 17/09 A3026 RMK AO2 SLP247 ACC SE-SW-NW T01670094=
202203151452 METAR KATL 151452Z 13009KT 10SM SCT070 BKN110 BKN200 BKN250 14/08 A3027 RMK AO2 SLP250 ACC SE-SW-NW DSNT N-NE T01440083 58004=
202203151352 METAR KATL 151352Z 10007KT 10SM FEW060 BKN100 BKN200 13/08 A3027 RMK AO2 SLP251 T01280078=
202203151252 METAR KATL 151252Z 12007KT 10SM SCT060 SCT120 BKN200 11/07 A3029 RMK AO2 SLP256 T01110072=
202203151152 METAR KATL 151152Z 13004KT 10SM BKN060 BKN120 BKN180 09/06 A3029 RMK AO2 SLP256 T00940056 10117 20089 53001=
202203151052 METAR KATL 151052Z 00000KT 10SM BKN055 BKN120 09/04 A3028 RMK AO2 SLP254 T00940044=
202203150952 METAR KATL 150952Z 14003KT 10SM FEW055 BKN130 09/04 A3027 RMK AO2 SLP251 T00940039=
202203150852 METAR KATL 150852Z 12005KT 10SM SCT055 SCT150 11/04 A3028 RMK AO2 SLP253 T01060039 58017=
202203150752 METAR KATL 150752Z 12004KT 10SM FEW120 SCT150 11/02 A3031 RMK AO2 SLP263 T01060022=
202203150652 METAR KATL 150652Z 13003KT 10SM BKN120 11/01 A3033 RMK AO2 SLP268 T01110011=
202203150552 METAR KATL 150552Z 10004KT 10SM SCT120 BKN150 12/M01 A3033 RMK AO2 SLP271 T01171006 10156 20111 58005=
202203150452 METAR KATL 150452Z 00000KT 10SM SCT150 12/M02 A3034 RMK AO2 SLP274 T01171017 401890028=
202203150352 METAR KATL 150352Z 08005KT 10SM SCT140 12/M03 A3035 RMK AO2 SLP278 T01171028=
202203150252 METAR KATL 150252Z 00000KT 10SM BKN140 12/M03 A3035 RMK AO2 SLP278 T01221033 51006=
202203150152 METAR KATL 150152Z 12004KT 10SM SCT140 13/M04 A3035 RMK AO2 SLP277 T01331039=
202203150052 METAR KATL 150052Z 14003KT 10SM SCT150 14/M05 A3034 RMK AO2 SLP276 T01391050=
202203142352 METAR KATL 142352Z 16005KT 10SM CLR 16/M06 A3033 RMK AO2 SLP273 T01561061 10189 20156 53001=
202203142252 METAR KATL 142252Z 17007KT 10SM SCT150 17/M08 A3032 RMK AO2 SLP268 T01721078=
202203142152 METAR KATL 142152Z 19007KT 10SM FEW180 18/M07 A3032 RMK AO2 SLP269 T01831072=
202203142052 METAR KATL 142052Z 17009KT 10SM FEW180 18/M08 A3033 RMK AO2 SLP272 T01831083 56023=
202203141952 METAR KATL 141952Z 19006G16KT 10SM FEW200 17/M08 A3034 RMK AO2 SLP276 T01721078=
202203141852 METAR KATL 141852Z 15009KT 10SM FEW001 17/M07 A3037 RMK AO2 SLP285 FU FEW001 FU PLUME NW T01721072=
202203141752 METAR KATL 141752Z 15010G17KT 10SM CLR 17/M06 A3040 RMK AO2 SLP295 T01671061 10167 20039 58019=
202203141652 METAR KATL 141652Z 12010KT 10SM FEW200 15/M07 A3043 RMK AO2 SLP305 T01501067=
202203141552 METAR KATL 141552Z 15007KT 10SM FEW200 13/M08 A3044 RMK AO2 SLP310 T01331083=
202203141452 METAR KATL 141452Z 21005KT 10SM FEW200 11/M08 A3046 RMK AO2 SLP316 T01111078 51016=
202203141352 METAR KATL 141352Z 00000KT 10SM FEW200 FEW250 09/M06 A3045 RMK AO2 SLP315 T00891056=
202203141252 METAR KATL 141252Z 00000KT 10SM FEW200 SCT250 06/M03 A3043 RMK AO2 SLP308 T00611028=
202203141152 METAR KATL 141152Z 00000KT 10SM FEW200 SCT250 04/M04 A3041 RMK AO2 SLP302 T00391044 10061 20028 53016=
202203141052 METAR KATL 141052Z 00000KT 10SM FEW200 03/M03 A3039 RMK AO2 SLP295 T00331033=
202203140952 METAR KATL 140952Z 00000KT 10SM FEW200 SCT250 03/M04 A3036 RMK AO2 SLP285 T00331044=
202203140852 METAR KATL 140852Z 00000KT 10SM FEW200 SCT250 05/M06 A3036 RMK AO2 SLP284 T00501061 58012=
202203140752 METAR KATL 140752Z 00000KT 10SM FEW200 05/M07 A3037 RMK AO2 SLP288 T00501072=
202203140652 METAR KATL 140652Z 00000KT 10SM FEW200 FEW250 06/M06 A3039 RMK AO2 SLP295 T00561061=
202203140552 METAR KATL 140552Z 19004KT 10SM FEW200 FEW250 06/M06 A3039 RMK AO2 SLP297 T00611061 10106 20061 58002=
202203140452 METAR KATL 140452Z 18003KT 10SM FEW200 SCT250 07/M07 A3040 RMK AO2 SLP299 T00671067 401281039=
202203140352 METAR KATL 140352Z 19003KT 10SM SCT250 07/M06 A3040 RMK AO2 SLP301 T00721061=
202203140252 METAR KATL 140252Z 00000KT 10SM SCT250 07/M04 A3040 RMK AO2 SLP300 T00721039 51016=
202203140152 METAR KATL 140152Z 14003KT 10SM CLR 08/M05 A3039 RMK AO2 SLP296 T00831050=
202203140052 METAR KATL 140052Z 20003KT 10SM CLR 09/M07 A3037 RMK AO2 SLP290 T00941067=
202203132352 METAR KATL 132352Z 20004KT 10SM CLR 11/M08 A3035 RMK AO2 SLP285 T01061083 10128 20078 53002=
202203132252 METAR KATL 132252Z VRB04KT 10SM CLR 12/M10 A3035 RMK AO2 SLP283 T01221100=
202203132152 METAR KATL 132152Z 27004KT 10SM CLR 13/M09 A3034 RMK AO2 SLP281 T01281094=
202203132052 METAR KATL 132052Z 21006KT 10SM CLR 12/M10 A3035 RMK AO2 SLP282 T01221100 56025=
202203131952 METAR KATL 131952Z 26006KT 10SM CLR 12/M09 A3036 RMK AO2 SLP288 T01221094=
202203131852 METAR KATL 131852Z VRB04KT 10SM CLR 10/M11 A3039 RMK AO2 SLP298 T01001106=
202203131752 METAR KATL 131752Z 23005KT 10SM CLR 08/M12 A3042 RMK AO2 SLP309 T00831117 10083 21039 58010=
202203131652 METAR KATL 131652Z VRB03KT 10SM CLR 06/M13 A3045 RMK AO2 SLP318 T00611133=
202203131552 METAR KATL 131552Z 00000KT 10SM CLR 04/M12 A3045 RMK AO2 SLP322 T00441117=
202203131452 METAR KATL 131452Z VRB03KT 10SM CLR 02/M13 A3045 RMK AO2 SLP322 T00171128 51024=
202203131352 METAR KATL 131352Z 34007KT 10SM CLR 00/M13 A3043 RMK AO2 SLP314 T00001128=
202203131252 METAR KATL 131252Z 34009KT 10SM CLR M02/M13 A3041 RMK AO2 SLP310 T10221128=
202203131152 METAR KATL 131152Z 34006KT 10SM CLR M04/M13 A3038 RMK AO2 SLP299 T10391128 11022 21039 53012=
202203131052 METAR KATL 131052Z 33005KT 10SM CLR M04/M13 A3036 RMK AO2 SLP292 T10391128=
202203130952 METAR KATL 130952Z 32006KT 10SM CLR M04/M13 A3035 RMK AO2 SLP290 T10391128=
202203130852 METAR KATL 130852Z 33006KT 10SM CLR M03/M13 A3034 RMK AO2 SLP286 T10331133 50008=
202203130752 METAR KATL 130752Z 31005KT 10SM CLR M03/M13 A3035 RMK AO2 SLP286 T10331133=
202203130652 METAR KATL 130652Z 33007KT 10SM CLR M03/M14 A3033 RMK AO2 SLP282 T10281144=
202203130552 METAR KATL 130552Z 33007KT 10SM CLR M02/M16 A3032 RMK AO2 SLP277 T10221156 10006 21022 50008=
202203130452 METAR KATL 130452Z 32011G16KT 10SM CLR M02/M16 A3033 RMK AO2 SLP280 T10171156 401221022=
202203130352 METAR KATL 130352Z 32010G20KT 10SM CLR M02/M15 A3031 RMK AO2 SLP275 T10171150=
202203130252 METAR KATL 130252Z 32009KT 10SM CLR M01/M14 A3029 RMK AO2 SLP270 T10111144 51029=
202203130152 METAR KATL 130152Z 32011G20KT 10SM CLR M01/M15 A3027 RMK AO2 SLP261 T10061150=
202203130052 METAR KATL 130052Z 32012KT 10SM CLR 00/M15 A3024 RMK AO2 PK WND 32027/0003 SLP249 T00001150=
202203122352 METAR KATL 122352Z 32016G27KT 10SM CLR 01/M17 A3020 RMK AO2 PK WND 32027/2347 SLP238 T00061167 10039 20006 53033=
202203122252 METAR KATL 122252Z 33015G23KT 10SM CLR 02/M14 A3016 RMK AO2 PK WND 32030/2205 SLP222 T00221139=
202203122152 METAR KATL 122152Z 31021G28KT 10SM CLR 03/M15 A3013 RMK AO2 PK WND 33037/2054 SLP210 T00281150=
202203122052 METAR KATL 122052Z 32025G38KT 10SM CLR 03/M16 A3010 RMK AO2 PK WND 33038/2043 SLP200 T00281156 53008=
202203121952 METAR KATL 121952Z 32023G35KT 10SM FEW060 03/M11 A3009 RMK AO2 PK WND 29037/1906 SLP194 T00331111=
202203121852 METAR KATL 121852Z 31021G33KT 10SM FEW048 03/M09 A3009 RMK AO2 PK WND 30036/1813 SLP191 T00281089=
202203121752 METAR KATL 121752Z 30027G37KT 10SM SCT043 02/M08 A3008 RMK AO2 PK WND 31039/1732 SLP189 60000 T00171083 10017 21006 51033=
202203121652 METAR KATL 121652Z 31023G39KT 10SM BKN037 01/M08 A3007 RMK AO2 PK WND 32039/1620 SLP186 T00111083=
202203121552 METAR KATL 121552Z 34019G35KT 10SM BKN033 01/M08 A3003 RMK AO2 PK WND 32042/1526 SLP172 T00061078=
202203121549 SPECI KATL 121549Z 33022G35KT 10SM BKN033 01/M08 A3003 RMK AO2 PK WND 32042/1526=
202203121452 METAR KATL 121452Z 32018G38KT 10SM BKN025 OVC032 00/M06 A2998 RMK AO2 PK WND 33043/1405 SNE26 SLP156 P0000 60000 T00001061 51072=
202203121426 SPECI KATL 121426Z 31019G30KT 10SM BKN021 OVC032 M01/M05 A2995 RMK AO2 PK WND 33043/1405 SNE26 P0000 T10061050=
202203121352 METAR KATL 121352Z 31022G36KT 10SM -SN BKN024 OVC032 00/M04 A2992 RMK AO2 PK WND 30047/1259 SNB40 PRESRR SLP135 BINOVC PCPN VRY LGT P0000 T00001044 $=
202203121341 SPECI KATL 121341Z 31024G36KT 10SM -SN FEW020 BKN026 BKN032 00/M04 A2990 RMK AO2 PK WND 30047/1259 SNB40 PCPN VRY LGT P0000 T00001044 $=
202203121252 METAR KATL 121252Z 32024G49KT 10SM OVC016 00/M04 A2984 RMK AO2 PK WND 30049/1248 SLP110 T00001044 $=
202203121239 SPECI KATL 121239Z 31024G40KT 10SM OVC016 00/M04 A2982 RMK AO2 PK WND 32040/1230 PRESRR T00001039 $=
202203121152 METAR KATL 121152Z 32025G33KT 10SM BKN013 OVC021 01/M02 A2976 RMK AO2 PK WND 32047/1136 SNB05E35 SLP080 CIG 010V016 P0000 60107 70107 T00061022 10122 20006 53037 $=
202203121136 SPECI KATL 121136Z 32033G47KT 10SM OVC012 01/M02 A2974 RMK AO2 PK WND 32047/1136 SNB05E35 CIG 010V016 P0000 T00061022 $=
202203121118 SPECI KATL 121118Z 31022G33KT 3SM -SN BR BKN012 OVC040 01/M01 A2972 RMK AO2 PK WND 30034/1105 SNB05 P0000 T00111006 $=
202203121052 METAR KATL 121052Z 31019G30KT 10SM BKN012 BKN040 OVC070 02/M01 A2968 RMK AO2 PK WND 33036/1038 RAE04SNE04 SLP052 CIG 010V015 P0000 T00171006 $=
202203121005 SPECI KATL 121005Z 32019G31KT 10SM BKN014 BKN042 BKN070 OVC150 03/01 A2967 RMK AO2 PK WND 34034/0954 RAE04SNE04 CIG 012V017 P0000 T00280011 $=
202203120952 METAR KATL 120952Z 32020G31KT 10SM -RASN BKN013 BKN042 OVC070 03/01 A2969 RMK AO2 PK WND 31047/0857 SNB28 SLP057 CIG 011V015 P0003 T00330011 $=
202203120938 SPECI KATL 120938Z 32020G37KT 10SM -RASN BKN012 BKN018 OVC080 03/01 A2969 RMK AO2 PK WND 31047/0857 SNB28 P0002 T00330011 $=
202203120928 SPECI KATL 120928Z 32026G39KT 6SM RASN BR SCT012 BKN018 OVC080 03/01 A2969 RMK AO2 PK WND 31047/0857 SNB28 P0002 T00330011 $=
202203120852 METAR KATL 120852Z 31025G37KT 5SM -RA BR FEW008 BKN012 OVC028 05/03 A2965 RMK AO2 PK WND 32039/0842 RAE11B48 SLP040 CIG 010V014 P0000 60104 T00500028 53005 $=
202203120839 SPECI KATL 120839Z 32029G38KT 10SM SCT008 BKN014 OVC029 05/03 A2964 RMK AO2 PK WND 32038/0839 RAE11 PRESRR P0000 T00500028 $=
202203120752 METAR KATL 120752Z 32025G43KT 10SM -RA BKN008 BKN021 OVC040 08/06 A2960 RMK AO2 PK WND 31043/0746 TSE15 SLP024 CIG 006V010 TS DSIPT P0029 T00780061 $=
202203120743 SPECI KATL 120743Z 31026G37KT 6SM RA BR SCT004 BKN008 OVC026 10/09 A2960 RMK AO2 PK WND 31037/0737 TSE15 TS DSIPT CB DSNT NE P0029 T01000089 $=
202203120716 SPECI KATL 120716Z 26007KT 2SM RA BR BKN004 OVC024 12/12 A2959 RMK AO2 SFC VIS 2 1/2 LTG DSNT NE TSE15 TS DSIPT CB DSNT NE P0019 T01220117 $=
202203120702 SPECI KATL 120702Z 00000KT 2SM TSRA BR BKN004 BKN026CB OVC040 12/12 A2958 RMK AO2 LTG DSNT NE AND E AND SW OCNL LTGICCA NE-E & SW TS NE-E & SW MOV NE P0010 T01220117 $=
202203120652 METAR KATL 120652Z VRB03KT 2SM R09R/4500VP6000FT +TSRA BR FEW004 OVC023CB 12/12 A2958 RMK AO2 LTG DSNT NE AND E AND SW SLP013 TSB17 FRQ LTGICCACG ALQDS TS ALQDS MOV NE P0075 T01220117 $=
202203120647 SPECI KATL 120647Z 30004KT 1/2SM R09R/4500VP6000FT +TSRA BR SCT004 OVC018CB 12/12 A2958 RMK AO2 SFC VIS 1 LTG DSNT NE AND E AND SW TSB17E46B47 FRQ LTGICCG ALQDS TS ALQDS MOV NE P0060 $=
202203120635 SPECI KATL 120635Z VRB06KT 1/2SM R09R/4500VP6000FT +TSRA BR BKN006CB OVC014 12/11 A2958 RMK AO2 SFC VIS 3/4 LTG DSNT NE AND E AND SW TSB17 PRESFR FRQ LTGICCG ALQDS TS ALQDS MOV NE P0032 T01220111 $=
202203120621 SPECI KATL 120621Z 00000KT 1/2SM R09R/P6000FT TSRA BR BKN003 OVC008CB 12/12 A2960 RMK AO2 SFC VIS 2 LTG DSNT NE AND SW TSB17 OCNL LTGIC NE-OHD-SW TS NE-OHD-SW MOV NE P0009 T01220117 $=
202203120552 METAR KATL 120552Z 00000KT 1/2SM R09R/2600V5500FT -RA BR VV002 12/11 A2963 RMK AO2 SFC VIS 1 DZE40RAB40 SLP033 60000 T01220111 10139 20122 56048 PNO=
202203120452 METAR KATL 120452Z 13005KT 1/2SM R09R/3000V4500FT -DZ BR VV002 12/12 A2968 RMK AO2 SFC VIS 3/4 DZB50 PRESFR SLP048 P0000 T01220117 401500089=
202203120352 METAR KATL 120352Z 12008KT 1/2SM R09R/6000VP6000FT BR OVC002 12/12 A2973 RMK AO2 SFC VIS 1 1/2 SLP066 TWRINC T01220117=
202203120252 METAR KATL 120252Z 12005KT 1/2SM R09R/5500VP6000FT BR OVC003 12/12 A2978 RMK AO2 SFC VIS 2 SLP083 TWRINC 60000 T01220117 58023=
202203120234 SPECI KATL 120234Z 13006KT 1/2SM R09R/P6000FT BR OVC003 12/12 A2977 RMK AO2 SFC VIS 2 PRESFR TWRINC T01220117=
202203120210 SPECI KATL 120210Z 11005KT 1SM R09R/P6000FT OVC004 13/12 A2980 RMK AO2 SFC VIS 7 T01280117=
202203120152 METAR KATL 120152Z 11005KT 2SM OVC005 13/12 A2980 RMK AO2 SFC VIS 7 RAE07 SLP093 CIG 003V007 P0000 T01280117=
202203120052 METAR KATL 120052Z 13006KT 2SM -RA BR OVC005 13/12 A2983 RMK AO2 SFC VIS 4 RAB44 SLP101 P0000 T01330117=
202203120044 SPECI KATL 120044Z 13007KT 2 1/2SM -RA BR OVC005 13/12 A2982 RMK AO2 SFC VIS 3 RAB44 P0000 T01330117=
202203112352 METAR KATL 112352Z 11004KT 9SM OVC009 13/11 A2985 RMK AO2 SLP107 T01330111 10150 20128 56012=
202203112252 METAR KATL 112252Z 12004KT 9SM OVC009 14/11 A2986 RMK AO2 SLP111 T01390111 $=
202203112152 METAR KATL 112152Z 11005KT 9SM OVC010 14/11 A2987 RMK AO2 SLP114 T01390111 $=
202203112052 METAR KATL 112052Z VRB06KT 10SM OVC011 14/11 A2988 RMK AO2 SLP118 T01440111 56041 $=
202203111952 METAR KATL 111952Z 10006KT 10SM OVC012 15/11 A2991 RMK AO2 SLP129 T01500111=
202203111908 SPECI KATL 111908Z 06005KT 9SM OVC010 14/11 A2995 RMK AO2 T01440106=
202203111852 METAR KATL 111852Z 11007KT 8SM OVC009 14/11 A2996 RMK AO2 SLP143 T01440111=
202203111752 METAR KATL 111752Z 08006KT 5SM HZ OVC006 13/10 A3001 RMK AO2 SLP162 60000 T01280100 10128 20094 58011=
202203111652 METAR KATL 111652Z 05006KT 2SM BR OVC005 12/09 A3005 RMK AO2 SFC VIS 4 SLP175 T01170094=
202203111552 METAR KATL 111552Z 07006KT 2SM BR OVC005 11/09 A3005 RMK AO2 SFC VIS 4 SLP175 T01110094=
202203111538 SPECI KATL 111538Z 08007KT 2SM BR OVC005 11/09 A3005 RMK AO2 SFC VIS 4 T01060094=
202203111536 SPECI KATL 111536Z 07006KT 2SM BR OVC004 11/09 A3005 RMK AO2 SFC VIS 5 T01060094=
202203111452 METAR KATL 111452Z 07012KT 1/2SM R09R/P6000FT BR OVC003 10/09 A3004 RMK AO2 SFC VIS 2 1/2 DZB17E50 SLP173 P0000 60000 T01000089 58002=
202203111352 METAR KATL 111352Z 11008KT 1/2SM R09R/P6000FT BR OVC003 10/09 A3005 RMK AO2 SFC VIS 3 SLP177 TWRINC T01000089=
202203111252 METAR KATL 111252Z 09008KT 1/2SM R09R/P6000FT BR OVC002 09/08 A3006 RMK AO2 SFC VIS 1 3/4 SLP180 DZE44 P0000 T00940083=
202203111152 METAR KATL 111152Z 10007KT 1/2SM R09R/P6000FT -DZ BR OVC002 09/08 A3005 RMK AO2 SFC VIS 2 SLP175 DZB45 TWRINC P0000 60000 T00940083 10094 20089 53004=
202203111052 METAR KATL 111052Z 09010KT 1SM R09R/P6000FT BR OVC004 09/08 A3004 RMK AO2 SFC VIS 6 SLP171 T00940083=
202203110952 METAR KATL 110952Z 09011KT 1/4SM R09R/P6000FT BR OVC002 09/08 A3003 RMK AO2 SFC VIS 3 SLP169 T00890083=
202203110852 METAR KATL 110852Z 09011KT 1/4SM R09R/P6000FT BR OVC002 09/08 A3003 RMK AO2 SFC VIS 1 1/2 SLP169 TWRINC 60000 T00940083 57014=
202203110752 METAR KATL 110752Z 08010KT 2SM BR OVC004 09/08 A3005 RMK AO2 SFC VIS 4 SLP173 T00940083=
202203110652 METAR KATL 110652Z 10006KT 2SM BR OVC004 09/08 A3007 RMK AO2 SFC VIS 5 DZB10E25 SLP180 P0000 T00940083=
202203110610 SPECI KATL 110610Z 08010KT 1SM R09R/P6000FT -DZ BR OVC003 09/08 A3008 RMK AO2 SFC VIS 5 DZB10 P0000 T00940083=
202203110552 METAR KATL 110552Z 09008KT 2SM BR OVC004 09/08 A3008 RMK AO2 SFC VIS 6 SLP184 CIG 003V005 T00940083 10128 20094 50001=
202203110452 METAR KATL 110452Z 09009KT 2SM OVC004 09/08 A3008 RMK AO2 SFC VIS 7 SLP186 CIG 003V005 T00940083 402000078=
202203110352 METAR KATL 110352Z 09009KT 9SM OVC005 10/08 A3008 RMK AO2 SLP185 T01000083=
202203110252 METAR KATL 110252Z 09009KT 10SM BKN007 11/08 A3007 RMK AO2 SLP185 T01060083 53017=
202203110152 METAR KATL 110152Z 11006KT 10SM BKN009 11/08 A3005 RMK AO2 SLP178 T01060083=
202203110136 SPECI KATL 110136Z 10008KT 10SM BKN009 11/08 A3005 RMK AO2 T01060083=
202203110052 METAR KATL 110052Z 10009KT 10SM FEW009 11/08 A3004 RMK AO2 SLP173 T01110083=
202203102352 METAR KATL 102352Z 08013KT 10SM CLR 13/08 A3002 RMK AO2 SLP167 T01280083 10200 20128 53016=
202203102252 METAR KATL 102252Z 08012KT 10SM CLR 14/09 A3000 RMK AO2 SLP158 T01440089=
202203102152 METAR KATL 102152Z 09010KT 10SM FEW032 16/09 A2998 RMK AO2 SLP153 T01610094=
202203102052 METAR KATL 102052Z 07012KT 10SM FEW032 17/10 A2997 RMK AO2 SLP150 T01670100 55012=
202203101952 METAR KATL 101952Z 09011G15KT 10SM FEW036 18/09 A2997 RMK AO2 SLP147 T01830094=
202203101852 METAR KATL 101852Z 00000KT 10SM FEW038 18/07 A2999 RMK AO2 SLP153 T01830067=
202203101752 METAR KATL 101752Z 08007KT 10SM FEW034 FEW110 SCT250 17/07 A3001 RMK AO2 SLP161 MDT CU NE DSNT N-E T01720072 10178 20078 58009=
202203101652 METAR KATL 101652Z VRB03KT 10SM FEW030 SCT110 SCT250 16/08 A3003 RMK AO2 SLP169 T01610078=
202203101552 METAR KATL 101552Z 13004KT 10SM FEW020 FEW080 SCT120 SCT200 14/08 A3004 RMK AO2 SLP172 ACC NW DSNT N-NE T01440078=
202203101452 METAR KATL 101452Z 00000KT 10SM SCT085 BKN110 BKN180 BKN250 12/07 A3004 RMK AO2 SLP172 VIRGA N-NE ACC N-NE E SW NW DSNT ALQDS T01220067 51015=
202203101352 METAR KATL 101352Z 00000KT 10SM SCT100 BKN130 BKN180 BKN250 11/07 A3002 RMK AO2 SLP168 VIRGA N-NE AND W-OHD T01060067=
202203101252 METAR KATL 101252Z 31004KT 10SM SCT027 BKN130 BKN200 BKN250 09/06 A3001 RMK AO2 PRESRR SLP163 VIRGA E-SE AND SW T00890056=
202203101215 SPECI KATL 101215Z 00000KT 10SM SCT027 BKN140 BKN200 BKN250 08/06 A3000 RMK AO2 T00780056=
202203101152 METAR KATL 101152Z 32004KT 10SM BKN025 BKN160 BKN250 08/06 A2999 RMK AO2 SLP158 70004 T00780056 10100 20078 51020=
202203101150 SPECI KATL 101150Z 32005KT 10SM BKN025 BKN160 BKN250 08/06 A2999 RMK AO2=
202203101052 METAR KATL 101052Z 33008KT 10SM FEW028 SCT170 BKN240 08/06 A2997 RMK AO2 SLP151 T00830056=
202203101031 SPECI KATL 101031Z 33004KT 10SM SCT028 BKN170 BKN240 08/06 A2997 RMK AO2 T00830056=
202203101004 SPECI KATL 101004Z 00000KT 10SM BKN027 BKN170 BKN240 08/06 A2997 RMK AO2 T00830056=
202203100952 METAR KATL 100952Z 29003KT 10SM SCT029 BKN170 BKN240 08/06 A2997 RMK AO2 SLP148 T00830056=
202203100852 METAR KATL 100852Z 34006KT 10SM FEW020 SCT170 BKN210 OVC240 08/06 A2993 RMK AO2 SLP136 T00830056 58006=
202203100752 METAR KATL 100752Z 33003KT 10SM SCT160 BKN210 OVC250 09/06 A2994 RMK AO2 SLP138 BINOVC T00890056=
202203100652 METAR KATL 100652Z 31004KT 10SM BKN160 BKN200 OVC250 09/06 A2996 RMK AO2 SLP147 BINOVC T00940056=
202203100552 METAR KATL 100552Z 34004KT 10SM BKN150 OVC200 10/06 A2995 RMK AO2 SLP142 T01000056 10117 20094 58000=
202203100452 METAR KATL 100452Z 29004KT 10SM BKN150 OVC200 10/06 A2996 RMK AO2 SLP146 T01000056 401390094=
202203100352 METAR KATL 100352Z 32007KT 10SM BKN150 OVC200 10/06 A2995 RMK AO2 SLP142 T01000056=
202203100252 METAR KATL 100252Z 31007KT 10SM BKN150 BKN200 OVC250 11/06 A2995 RMK AO2 SLP142 T01060056 53005=
202203100152 METAR KATL 100152Z 31007KT 10SM SCT150 BKN200 OVC250 11/06 A2995 RMK AO2 SLP141 T01060056=
202203100052 METAR KATL 100052Z 32007KT 10SM BKN200 OVC250 11/06 A2994 RMK AO2 SLP137 T01110061=
202203092352 METAR KATL 092352Z 33009KT 10SM BKN180 OVC250 12/07 A2994 RMK AO2 SLP137 T01170067 10139 20117 50008=
202203092252 METAR KATL 092252Z 34009KT 10SM FEW024 BKN180 OVC250 13/07 A2994 RMK AO2 SLP137 T01280072=
202203092152 METAR KATL 092152Z 32010KT 10SM FEW026 BKN180 OVC250 13/08 A2991 RMK AO2 SLP129 VIRGA NE-SE-SW T01330078=
202203092131 SPECI KATL 092131Z 31007KT 10SM SCT026 OVC200 14/08 A2992 RMK AO2 T01390078=
202203092052 METAR KATL 092052Z 32007KT 10SM BKN024 OVC200 13/08 A2991 RMK AO2 SLP128 T01330083 53002=
202203091952 METAR KATL 091952Z 28007KT 10SM BKN018 BKN024 OVC200 13/09 A2991 RMK AO2 SLP129 CIG 016V020 T01330089=
202203091920 SPECI KATL 091920Z 32008KT 10SM OVC014 13/09 A2991 RMK AO2 CIG 012V016 T01280089=
202203091852 METAR KATL 091852Z 31011KT 10SM BKN016 OVC021 13/09 A2990 RMK AO2 SLP123 CIG 014V018 BINOVC T01330094=
202203091752 METAR KATL 091752Z 30007KT 10SM OVC018 13/09 A2991 RMK AO2 SLP126 CIG 016V020 BINOVC 60004 T01330094 10139 20122 50004=
202203091711 SPECI KATL 091711Z 30008G20KT 10SM OVC016 14/10 A2991 RMK AO2 CIG 014V018 BINOVC T01390100=
202203091652 METAR KATL 091652Z 31012KT 10SM OVC012 13/10 A2991 RMK AO2 SLP127 CIG 010V014 T01330100=
202203091552 METAR KATL 091552Z 29010KT 10SM OVC011 13/11 A2991 RMK AO2 SLP126 CIG 009V013 T01330111=
202203091452 METAR KATL 091452Z 30008KT 7SM BKN006 OVC012 13/12 A2989 RMK AO2 SLP121 CIG 004V008 60004 T01280117 53015=
202203091427 SPECI KATL 091427Z 30006KT 2 1/2SM SCT003 BKN011 OVC028 13/12 A2989 RMK AO2 SFC VIS 8 T01330122=
202203091357 SPECI KATL 091357Z 28003KT 2 1/2SM BR BKN003 OVC011 13/12 A2988 RMK AO2 SFC VIS 6 T01330122=
202203091352 METAR KATL 091352Z 25003KT 3/4SM R09R/P6000FT BKN003 OVC014 13/12 A2988 RMK AO2 SFC VIS 7 RAE16 SLP118 P0001 T01330117=
202203091336 SPECI KATL 091336Z 00000KT 3/4SM R09R/P6000FT BKN003 OVC014 13/12 A2987 RMK AO2 SFC VIS 7 RAE16 P0001 T01280117=
202203091322 SPECI KATL 091322Z 07003KT 1 1/2SM BKN004 OVC027 13/12 A2987 RMK AO2 SFC VIS 7 RAE16 P0001 T01280117=
202203091252 METAR KATL 091252Z 10005KT 3SM -RA FEW005 BKN027 OVC038 13/12 A2985 RMK AO2 SFC VIS 7 TSE03 SLP108 TS DSIPTD P0003 T01280117=
202203091204 SPECI KATL 091204Z 12004KT 2SM -RA BR FEW005 SCT028 OVC037 12/11 A2985 RMK AO2 SFC VIS 5 TSE03 TS DSIPTD P0001 T01220111=
202203091152 METAR KATL 091152Z 07004KT 2SM -TSRA BR FEW005 SCT022CB OVC037 12/11 A2985 RMK AO2 SFC VIS 3 SLP107 OCNL LTGIC NE TS NE MOV NE P0035 60041 70157 T01170111 10122 20117 53010=
202203091129 SPECI KATL 091129Z 33005KT 1SM R09R/P6000FT +TSRA BR BKN005 OVC012CB 12/11 A2985 RMK AO2 SFC VIS 1 1/2 LTG DSNT NE OCNL LTGICCG NE-OHD-SE TS NE-OHD-SE MOV NE P0014 T01170106=
202203091114 SPECI KATL 091114Z 04007KT 1 1/2SM -TSRA BR SCT005 OVC012CB 12/11 A2984 RMK AO2 SFC VIS 4 LTG DSNT N AND NE OCNL LTGICCG N TS N MOV NE P0007 T01170106=
202203091052 METAR KATL 091052Z 03009KT 1 1/2SM -TSRA BR OVC006CB 12/11 A2981 RMK AO2 SFC VIS 3 LTG DSNT W-NE RAE0957B13 TSE09B13 SLP094 OCNL LTGCGIC W-NW TS W-NW MOV NE P0005 T01170106=
202203091013 SPECI KATL 091013Z 03006KT 1 1/2SM -TSRA BR OVC006CB 12/11 A2982 RMK AO2 SFC VIS 2 LTG DSNT W AND NW RAE0957B13 TSE09B13 OCNL LTGCGIC W TS W MOV NE P0000 T01220111=
202203090952 METAR KATL 090952Z 01009KT 1 1/2SM -RA BR OVC005 12/11 A2982 RMK AO2 SFC VIS 2 LTG DSNT W RAB19 SLP098 P0001 T01220111=
202203090946 SPECI KATL 090946Z 33008KT 1 1/2SM -RA BR OVC005 12/11 A2982 RMK AO2 SFC VIS 2 RAB19 P0001=
202203090852 METAR KATL 090852Z 16004KT 1/2SM R09R/P6000FT BR OVC002 12/11 A2982 RMK AO2 SFC VIS 2 SLP097 60000 T01220111 56030=
202203090752 METAR KATL 090752Z 13005KT 1/2SM R09R/P6000FT BR OVC003 12/11 A2986 RMK AO2 SFC VIS 3 DZE49 SLP112 P0000 T01170111=
202203090719 SPECI KATL 090719Z 13005KT 1/2SM R09R/P6000FT -DZ BR VV003 12/11 A2986 RMK AO2 SFC VIS 1 P0000 T01170111=
202203090652 METAR KATL 090652Z 10005KT 1SM R09R/P6000FT -DZ BR OVC003 12/11 A2987 RMK AO2 SFC VIS 2 1/2 RAE06DZB06 SLP114 P0000 T01170111=
202203090625 SPECI KATL 090625Z 10005KT 1SM R09R/P6000FT -DZ BR OVC004 12/11 A2989 RMK AO2 SFC VIS 4 RAE06DZB06 BINOVC P0000 T01170106=
202203090607 SPECI KATL 090607Z 09006KT 3SM -DZ BR OVC004 12/11 A2990 RMK AO2 SFC VIS 5 RAE06DZB06 P0000 T01170106=
202203090552 METAR KATL 090552Z 05004KT 3SM -RA BKN005 OVC015 12/11 A2991 RMK AO2 SFC VIS 8 SLP129 CIG 003V006 P0000 60018 T01220106 10122 20100 58013=
202203090452 METAR KATL 090452Z 15004KT 3SM -RA BR BKN005 OVC015 12/11 A2993 RMK AO2 SFC VIS 4 RAB49 SLP137 CIG 003V006 P0000 T01170106 401280078=
202203090419 SPECI KATL 090419Z 16003KT 7SM SCT004 BKN007 OVC015 11/11 A2994 RMK AO2 T01110106=
202203090352 METAR KATL 090352Z 13007KT 1SM R09R/P6000FT BKN004 OVC017 11/10 A2995 RMK AO2 SFC VIS 8 SLP141 CIG 003V006 T01110100=
202203090252 METAR KATL 090252Z 13005KT 1SM R09R/P6000FT BKN005 OVC015 11/10 A2995 RMK AO2 SFC VIS 9 SLP143 CIG 003V007 60018 T01110100 55003=
202203090152 METAR KATL 090152Z 10007KT 1SM R09R/P6000FT OVC003 11/09 A2993 RMK AO2 SFC VIS 8 RAE20 SLP137 P0007 T01060094=
202203090052 METAR KATL 090052Z 09006KT 1SM R09R/P6000FT RA BR BKN004 OVC050 10/09 A2995 RMK AO2 SFC VIS 4 TSE18 SLP142 P0011 T01000089=
202203090018 SPECI KATL 090018Z 10006KT 1SM R09R/P6000FT -RA BR BKN004 BKN030 OVC110 10/09 A2995 RMK AO2 SFC VIS 4 TSE18 LTG DSNT NE-SE TS MOVD NE P0007 T01000089=
202203082352 METAR KATL 082352Z 11008KT 1SM R09R/P6000FT -TSRA BR BKN004 BKN030CB OVC110 10/09 A2996 RMK AO2 SFC VIS 4 SLP148 OCNL LTGICCA NE-SE-S TS NE-SE-S MOV NE P0040 60097 T01000089 10106 20094 58012=
202203082252 METAR KATL 082252Z 10004KT 1SM R09R/5000VP6000FT +TSRA BR BKN005 BKN025CB OVC050 09/08 A3000 RMK AO2 SFC VIS 2 SLP162 OCNL LTGICCGCA OHD-ALQDS TS OHD-ALQDS MOV NE P0027 T00940083=
202203082239 SPECI KATL 082239Z 03009KT 1SM R09R/P6000FT +TSRA BR BKN005 BKN025CB OVC045 10/08 A3000 RMK AO2 SFC VIS 2 OCNL LTGICCCCA OHD-ALQDS TS OHD-ALQDS MOV NE P0017 T01000083=
202203082233 SPECI KATL 082233Z 05009KT 1/2SM R09R/P6000FT TSRA BR BKN005 BKN025CB OVC045 09/08 A2998 RMK AO2 SFC VIS 3 OCNL LTGICCCCA OHD-ALQDS TS OHD-ALQDS MOV NE P0015 T00940083=
202203082152 METAR KATL 082152Z 01009KT 2SM +TSRA BR BKN007 BKN016 OVC034CB 09/08 A2999 RMK AO2 TSB17 SLP156 OCNL LTGICCCCA OHD-ALQDS TS OHD-ALQDS MOV NE P0008 T00940083=
202203082128 SPECI KATL 082128Z 34008KT 2SM TSRA BR BKN007 OVC016CB 10/08 A3001 RMK AO2 LTG DSNT NE AND SW TSB17 OCNL LTGICCGCA NE-OHD-SW TS NE-OHD-SW MOV NE CB DSNT NE SW P0002 T01000083=
202203082117 SPECI KATL 082117Z 36007KT 5SM -TSRA BR BKN007 BKN016CB OVC024 10/09 A3000 RMK AO2 LTG DSNT N AND SW TSB17 OCNL LTGICCA SE-S VC SW TS SE-S VC SW MOV NE CB DSNT N SW P0000 T01000089=
202203082104 SPECI KATL 082104Z 32008KT 7SM -RA BKN008 BKN016 OVC024 10/08 A3002 RMK AO2 LTG DSNT SW CIG 007V010 CB DSNT SW P0000 T01000078=
202203082052 METAR KATL 082052Z 34004KT 4SM RA SCT011 BKN017 OVC026 11/08 A3000 RMK AO2 SLP159 P0001 60022 T01060078 56020=
202203081952 METAR KATL 081952Z 11005KT 6SM -RA FEW010 BKN027 OVC060 10/07 A3000 RMK AO2 LTG DSNT SE-SW SLP161 CB DSNT SE-SW P0015 T01000072=
202203081932 SPECI KATL 081932Z 00000KT 5SM -RA SCT008 OVC028 10/07 A3003 RMK AO2 P0012 T01000072=
202203081910 SPECI KATL 081910Z 00000KT 3SM -RA FEW010 BKN028CB OVC050 10/07 A3002 RMK AO2 LTG DSNT E AND S PRESFR CB N-E MOV NE CB DSNT E-S P0012 T01000072=
202203081854 SPECI KATL 081854Z 25003KT 1 1/2SM R09R/4000VP6000FT RA FEW010 BKN028CB OVC055 10/07 A3003 RMK AO2 LTG DSNT E AND S CB SE-OHD-NW MOV NE CB DSNT E-S P0000 T01000072=
202203081852 METAR KATL 081852Z 00000KT 4SM -RA BR FEW012 BKN033CB OVC060 10/08 A3004 RMK AO2 LTG DSNT E AND S SLP171 TSB17E50 TS MOVD NE CB SE-SW-W MOV NE CB DSNT E-S P0006 T01000078=
202203081820 SPECI KATL 081820Z 00000KT 9SM VCTS -RA OVC033CB 10/07 A3004 RMK AO2 LTG DSNT S TSB17 OCNL LTGICCA VC SE-S TS VC SE-S MOV NE CB DSNT S-SW P0000 T01000072=
202203081752 METAR KATL 081752Z 33004KT 7SM -RA OVC032 10/07 A3006 RMK AO2 LTG DSNT S RAB44 SLP179 CB DSNT E S SW P0001 60001 T01000067 10106 20078 58019=
202203081652 METAR KATL 081652Z 00000KT 10SM BKN032 OVC055 11/06 A3008 RMK AO2 RAB00E18 SLP188 P0000 T01060061=
202203081552 METAR KATL 081552Z 28006KT 10SM BKN050 OVC075 10/06 A3011 RMK AO2 RAB15E30 SLP196 SHRA SW-NW-N P0000 T01000056=
202203081452 METAR KATL 081452Z 30005KT 10SM BKN038 OVC070 09/05 A3012 RMK AO2 SLP198 ACC NW-NE T00940050 52007=
202203081352 METAR KATL 081352Z 33009KT 10SM SCT055 BKN080 BKN120 09/05 A3011 RMK AO2 SLP198 ACC ALQDS T00890050=
202203081252 METAR KATL 081252Z 33007KT 10SM FEW065 FEW090 SCT120 08/05 A3010 RMK AO2 SLP194 T00830050=
202203081152 METAR KATL 081152Z 32009KT 10SM FEW012 FEW065 BKN100 08/05 A3010 RMK AO2 SLP192 70015 T00780050 10122 20078 53009=
202203081052 METAR KATL 081052Z 33009KT 10SM FEW012 SCT065 SCT090 SCT200 08/05 A3008 RMK AO2 SLP184 T00830050=
202203080952 METAR KATL 080952Z 33007KT 10SM SCT012 BKN090 09/06 A3007 RMK AO2 SLP180 SCT012 V BKN T00890061=
202203080907 SPECI KATL 080907Z 31010KT 10SM SCT012 BKN090 09/06 A3007 RMK AO2 T00940061=
202203080852 METAR KATL 080852Z 31011KT 10SM BKN012 09/06 A3007 RMK AO2 SLP180 T00940061 53003=
202203080752 METAR KATL 080752Z 31009KT 10SM BKN014 11/08 A3007 RMK AO2 SLP179 T01060083=
202203080652 METAR KATL 080652Z 33008KT 10SM SCT011 BKN090 11/09 A3006 RMK AO2 SLP175 T01110089=
202203080632 SPECI KATL 080632Z 32010KT 10SM SCT013 12/09 A3006 RMK AO2 T01170089=
202203080552 METAR KATL 080552Z 31007KT 10SM BKN013 BKN100 12/10 A3006 RMK AO2 SLP174 T01220100 10150 20122 58001=
202203080452 METAR KATL 080452Z 31010KT 10SM FEW100 13/11 A3006 RMK AO2 SLP175 T01280106 402390128=
202203080352 METAR KATL 080352Z 29006KT 10SM FEW060 BKN100 14/13 A3006 RMK AO2 SLP176 T01390128=
202203080252 METAR KATL 080252Z 27006KT 10SM FEW060 SCT100 14/13 A3006 RMK AO2 SLP177 T01440128 53005=
202203080152 METAR KATL 080152Z 27005KT 10SM SCT060 BKN100 14/13 A3005 RMK AO2 SLP174 T01440128=
202203080052 METAR KATL 080052Z 28004KT 10SM FEW050 BKN070 BKN100 BKN200 15/13 A3005 RMK AO2 SLP172 T01500133=
202203072352 METAR KATL 072352Z 34004KT 10SM SCT045 BKN060 BKN200 15/13 A3005 RMK AO2 RAE51 SLP172 P0003 60015 T01500128 10239 20150 50013=
202203072252 METAR KATL 072252Z 31014KT 8SM -RA FEW009 SCT015 BKN045 OVC200 16/13 A3006 RMK AO2 PK WND 31032/2200 WSHFT 2150 RAB2153 SLP177 P0010 T01610133=
202203072207 SPECI KATL 072207Z 31016G32KT 4SM RA SCT015 BKN040 BKN080 OVC200 18/15 A3004 RMK AO2 PK WND 31032/2200 WSHFT 2150 LTG DSNT E AND SW RAB2153 CB DSNT E SW P0002 T01780150=
202203072152 METAR KATL 072152Z 30016G28KT 250V340 10SM BKN016CB BKN046 BKN080 OVC200 21/18 A3002 RMK AO2 PK WND 33028/2152 RAB35E49 SLP159 CB N NW DSNT SW-W MOV E P0000 T02060183=
202203072149 SPECI KATL 072149Z 24008KT 10SM BKN016CB BKN046 BKN080 OVC200 21/18 A3001 RMK AO2 RAB35E49 CB N NW DSNT SW-W MOV E P0000=
202203072052 METAR KATL 072052Z 25006KT 10SM FEW010 SCT045 BKN080 BKN200 21/18 A2999 RMK AO2 RAB1954E20 SLP148 CB DSNT S W-NW TCU DSNT SE P0000 60002 T02060183 56022=
202203071952 METAR KATL 071952Z 22010KT 10SM SCT024 BKN045 OVC080 21/18 A3000 RMK AO2 RAE51 SLP153 SHRA NE-SE-S P0002 T02060178=
202203071852 METAR KATL 071852Z 21013G19KT 3SM -RA BKN032 BKN048 OVC075 21/17 A3003 RMK AO2 RAB24 SLP161 P0000 T02110167=
202203071752 METAR KATL 071752Z 21014G27KT 10SM BKN032 BKN044 BKN090 BKN200 24/16 A3005 RMK AO2 PK WND 21027/1743 SLP168 T02390156 10239 20156 58022=
202203071742 SPECI KATL 071742Z 21014G21KT 10SM BKN031 BKN044 BKN080 BKN200 23/16 A3005 RMK AO2 BINOVC T02330156=
202203071652 METAR KATL 071652Z 21013G26KT 10SM BKN026 BKN046 OVC080 22/16 A3008 RMK AO2 PK WND 24028/1611 SLP179 T02170156=
202203071552 METAR KATL 071552Z 21009G20KT 8SM BKN020 OVC080 20/15 A3009 RMK AO2 SLP184 T02000150=
202203071456 SPECI KATL 071456Z 21008G18KT 7SM BKN016 BKN080 BKN140 BKN200 19/15 A3012 RMK AO2 T01940150=
202203071452 METAR KATL 071452Z 21011G18KT 7SM SCT016 BKN080 BKN140 BKN200 19/14 A3012 RMK AO2 SLP193 T01890144 50005=
202203071429 SPECI KATL 071429Z 19010G17KT 7SM SCT015 BKN085 BKN140 BKN200 18/14 A3012 RMK AO2 T01830144=
202203071352 METAR KATL 071352Z 20006KT 8SM BKN015 BKN050 OVC075 17/14 A3012 RMK AO2 SLP195 CIG 014V018 BINOVC T01720139=
202203071333 SPECI KATL 071333Z 19007KT 7SM BKN015 BKN050 BKN075 BKN250 17/14 A3012 RMK AO2 CIG 014V018 T01720139=
202203071252 METAR KATL 071252Z 14004KT 8SM SCT050 SCT070 16/14 A3011 RMK AO2 SLP191 T01610139=
202203071152 METAR KATL 071152Z 18003KT 8SM FEW060 16/13 A3010 RMK AO2 SLP188 T01560133 10200 20156 53013=
202203071052 METAR KATL 071052Z 18003KT 10SM FEW060 16/13 A3009 RMK AO2 SLP182 T01610133=
202203070952 METAR KATL 070952Z 19005KT 10SM FEW060 17/13 A3007 RMK AO2 SLP175 T01670133=
202203070852 METAR KATL 070852Z 18004KT 10SM SCT060 17/13 A3006 RMK AO2 SLP172 T01720133 58019=
202203070752 METAR KATL 070752Z 20005KT 10SM FEW070 18/14 A3009 RMK AO2 SLP182 T01830139=
202203070652 METAR KATL 070652Z 20006KT 10SM FEW070 19/13 A3011 RMK AO2 SLP189 T01890133=
202203070552 METAR KATL 070552Z 20008KT 10SM FEW070 20/13 A3012 RMK AO2 SLP192 T02000133 10239 20200 56012=
202203070452 METAR KATL 070452Z 19010KT 10SM FEW070 20/12 A3013 RMK AO2 SLP197 T02000122 402670144=
202203070352 METAR KATL 070352Z 17007KT 10SM FEW070 21/12 A3014 RMK AO2 SLP201 T02060117=
202203070252 METAR KATL 070252Z 18008KT 10SM FEW070 21/12 A3016 RMK AO2 SLP206 T02110117 56005=
202203070152 METAR KATL 070152Z 17007KT 10SM FEW070 22/12 A3016 RMK AO2 SLP207 T02170117=
202203070052 METAR KATL 070052Z 16006KT 10SM FEW060 SCT070 22/12 A3017 RMK AO2 SLP210 T02220122=
202203062352 METAR KATL 062352Z 18006KT 10SM FEW060 SCT070 24/12 A3017 RMK AO2 SLP212 T02390117 10267 20239 58005=
202203062252 METAR KATL 062252Z 20007KT 10SM SCT060 SCT070 26/12 A3018 RMK AO2 SLP214 T02560117=
202203062152 METAR KATL 062152Z 19005KT 10SM SCT060 SCT080 26/12 A3018 RMK AO2 SLP215 MDT CU ALQDS T02560117=
202203062052 METAR KATL 062052Z 22007KT 200V260 10SM SCT055 SCT070 27/12 A3019 RMK AO2 SLP216 MDT CU ALQDS T02670117 56026=
202203061952 METAR KATL 061952Z 16010G15KT 10SM SCT055 SCT075 26/12 A3021 RMK AO2 SLP223 MDT CU ALQDS T02610122=
202203061852 METAR KATL 061852Z 23008G17KT 10SM BKN041 BKN065 26/13 A3024 RMK AO2 SLP232 MDT CU ALQDS T02560133=
202203061752 METAR KATL 061752Z 19011G17KT 10SM SCT038 BKN060 24/14 A3027 RMK AO2 SLP244 MDT CU ALQDS T02440144 10244 20150 58016=
202203061652 METAR KATL 061652Z 19011G20KT 10SM SCT036 BKN060 23/14 A3030 RMK AO2 SLP255 T02280144=
202203061552 METAR KATL 061552Z 22009G17KT 10SM FEW038 BKN060 21/14 A3031 RMK AO2 SLP260 T02110144=
202203061452 METAR KATL 061452Z 19011G17KT 10SM FEW050 BKN065 19/14 A3032 RMK AO2 SLP261 T01940144 50009=
202203061352 METAR KATL 061352Z 19007KT 10SM FEW050 BKN065 17/13 A3032 RMK AO2 SLP263 T01720133=
202203061252 METAR KATL 061252Z 17003KT 10SM SCT050 BKN065 16/13 A3031 RMK AO2 SLP259 T01560133=
202203061152 METAR KATL 061152Z 16005KT 10SM BKN060 15/13 A3029 RMK AO2 SLP253 T01500133 10172 20144 53008=
202203061052 METAR KATL 061052Z 14004KT 10SM FEW060 14/13 A3028 RMK AO2 SLP247 T01440128=
202203060952 METAR KATL 060952Z 16004KT 10SM FEW060 15/13 A3027 RMK AO2 SLP245 T01500128=
202203060852 METAR KATL 060852Z 16006KT 10SM FEW060 16/13 A3027 RMK AO2 SLP243 T01560128 58006=
202203060752 METAR KATL 060752Z 16006KT 10SM SCT060 17/13 A3028 RMK AO2 SLP246 T01670128=
202203060652 METAR KATL 060652Z 15006KT 10SM FEW055 17/13 A3029 RMK AO2 SLP250 T01670128=
202203060552 METAR KATL 060552Z 15006KT 10SM FEW055 17/12 A3028 RMK AO2 SLP249 T01720122 10222 20167 50000=
202203060452 METAR KATL 060452Z 16006KT 10SM FEW055 18/12 A3029 RMK AO2 SLP251 T01780122 402560106=
202203060352 METAR KATL 060352Z 14005KT 10SM CLR 18/11 A3028 RMK AO2 SLP251 T01780111=
202203060252 METAR KATL 060252Z 13004KT 10SM FEW250 19/11 A3028 RMK AO2 SLP251 T01890111 53011=
202203060152 METAR KATL 060152Z 14006KT 10SM FEW250 19/10 A3027 RMK AO2 SLP247 T01940100=
202203060052 METAR KATL 060052Z 15007KT 10SM FEW065 FEW250 21/08 A3026 RMK AO2 SLP245 T02060083=
202203052352 METAR KATL 052352Z 16007KT 10SM FEW060 SCT250 22/07 A3025 RMK AO2 SLP241 T02220067 10256 20217 55000=
202203052252 METAR KATL 052252Z 18010KT 10SM SCT250 24/06 A3025 RMK AO2 SLP239 T02390061=
202203052152 METAR KATL 052152Z 16011G22KT 10SM FEW250 24/06 A3024 RMK AO2 PK WND 18027/2101 SLP236 T02440056=
202203052052 METAR KATL 052052Z 17012G20KT 10SM FEW070 FEW250 25/06 A3025 RMK AO2 SLP239 T02500056 56029=
202203051952 METAR KATL 051952Z 18011G21KT 10SM FEW065 SCT250 25/07 A3027 RMK AO2 SLP246 T02500072=
202203051852 METAR KATL 051852Z VRB05G18KT 10SM FEW055 FEW250 23/11 A3031 RMK AO2 SLP258 T02280106=
202203051752 METAR KATL 051752Z 13008G16KT 100V160 10SM FEW250 22/12 A3034 RMK AO2 SLP269 T02170117 10217 20111 58016=
202203051652 METAR KATL 051652Z 13007KT 10SM SCT250 19/11 A3037 RMK AO2 SLP281 T01940111=
202203051552 METAR KATL 051552Z 12006KT 10SM SCT250 18/11 A3038 RMK AO2 SLP284 T01780111=
202203051452 METAR KATL 051452Z 12005KT 9SM FEW012 SCT250 15/11 A3039 RMK AO2 SLP288 T01500106 51015=
202203051432 SPECI KATL 051432Z 11006KT 8SM SCT012 BKN250 14/10 A3039 RMK AO2 T01440100=
202203051407 SPECI KATL 051407Z 12007KT 7SM BKN010 BKN250 13/10 A3038 RMK AO2 T01330100=
202203051352 METAR KATL 051352Z 12006KT 7SM BKN009 13/11 A3038 RMK AO2 SLP284 T01330106=
202203051252 METAR KATL 051252Z 12009KT 5SM BR OVC006 12/10 A3035 RMK AO2 SLP276 T01220100=
202203051152 METAR KATL 051152Z 11009KT 9SM BKN006 BKN012 11/09 A3034 RMK AO2 SLP272 T01110089 10150 20106 51013=
202203051140 SPECI KATL 051140Z 11007KT 10SM BKN006 BKN012 11/08 A3034 RMK AO2 T01110078=
202203051052 METAR KATL 051052Z 09007KT 10SM FEW008 SCT200 SCT250 11/07 A3033 RMK AO2 SLP268 T01060072=
202203051007 SPECI KATL 051007Z 08008KT 10SM FEW008 SCT200 BKN250 11/07 A3032 RMK AO2 T01110072=
202203050952 METAR KATL 050952Z 08008KT 10SM FEW200 BKN250 12/07 A3032 RMK AO2 SLP261 T01170067=
202203050852 METAR KATL 050852Z 10006KT 10SM FEW200 BKN250 12/07 A3030 RMK AO2 SLP256 T01170067 58003=
202203050752 METAR KATL 050752Z 09007KT 10SM FEW200 BKN250 13/06 A3030 RMK AO2 SLP257 T01280061=
202203050652 METAR KATL 050652Z 11008KT 10SM FEW200 BKN250 14/06 A3031 RMK AO2 SLP260 T01440056=
202203050552 METAR KATL 050552Z 11007KT 10SM FEW200 BKN250 15/06 A3031 RMK AO2 SLP260 T01500056 10211 20150 52002=
202203050452 METAR KATL 050452Z 12010G16KT 10SM SCT200 BKN250 16/06 A3031 RMK AO2 SLP259 T01610056 402500117=
202203050352 METAR KATL 050352Z 11008KT 10SM BKN200 BKN250 17/06 A3031 RMK AO2 SLP259 T01720061=
202203050252 METAR KATL 050252Z 11008KT 10SM SCT200 BKN250 18/07 A3031 RMK AO2 SLP258 T01780067 51013=
202203050152 METAR KATL 050152Z 10008KT 10SM FEW200 BKN250 18/07 A3030 RMK AO2 SLP258 T01830072=
202203050052 METAR KATL 050052Z 10009KT 9SM SCT250 19/07 A3028 RMK AO2 SLP251 T01940072=
202203042352 METAR KATL 042352Z 11008G18KT 5SM FU SCT250 21/07 A3027 RMK AO2 SLP247 T02110072 10250 20211 53002=
202203042327 SPECI KATL 042327Z 11010KT 6SM HZ FU FEW250 22/07 A3026 RMK AO2 T02220067=
202203042252 METAR KATL 042252Z 10009KT 9SM FEW250 23/06 A3026 RMK AO2 SLP242 T02330061=
202203042152 METAR KATL 042152Z 13008KT 9SM FEW250 24/06 A3026 RMK AO2 SLP241 T02440056=
202203042052 METAR KATL 042052Z 10008KT 10SM SCT250 25/06 A3026 RMK AO2 SLP242 T02500056 56018=
202203041952 METAR KATL 041952Z 13007KT 10SM FEW250 25/05 A3027 RMK AO2 SLP245 T02500050=
202203041852 METAR KATL 041852Z 13006KT 10SM FEW250 24/04 A3029 RMK AO2 SLP252 T02390039=
202203041752 METAR KATL 041752Z 09008KT 10SM FEW250 23/05 A3032 RMK AO2 SLP262 T02280050 10228 20117 58007=
202203041652 METAR KATL 041652Z 09009KT 10SM FEW250 22/05 A3034 RMK AO2 SLP269 T02170050=
202203041552 METAR KATL 041552Z 10010KT 10SM FEW250 20/04 A3034 RMK AO2 SLP271 T02000044=
202203041452 METAR KATL 041452Z 10013KT 10SM FEW250 18/04 A3034 RMK AO2 SLP270 T01830039 51026=
202203041352 METAR KATL 041352Z 07012KT 10SM CLR 17/03 A3033 RMK AO2 SLP266 T01670028=
202203041252 METAR KATL 041252Z 06009KT 10SM CLR 16/02 A3029 RMK AO2 SLP253 T01560017=
202203041152 METAR KATL 041152Z 00000KT 10SM CLR 12/02 A3026 RMK AO2 SLP244 T01170017 10156 20117 51021=
202203041052 METAR KATL 041052Z 34004KT 9SM CLR 13/01 A3024 RMK AO2 SLP236 T01280006=
202203040952 METAR KATL 040952Z 31005KT 7SM CLR 13/00 A3023 RMK AO2 SLP230 T01330000=
202203040852 METAR KATL 040852Z 28003KT 8SM CLR 14/01 A3020 RMK AO2 SLP220 T01390006 53001=
202203040752 METAR KATL 040752Z 29004KT 10SM CLR 14/00 A3019 RMK AO2 SLP217 T01440000=
202203040652 METAR KATL 040652Z 25003KT 10SM CLR 14/01 A3019 RMK AO2 SLP218 T01440006=
202203040552 METAR KATL 040552Z 31008KT 10SM CLR 15/01 A3020 RMK AO2 SLP220 T01500006 10222 20150 53007=
202203040452 METAR KATL 040452Z 31008KT 10SM CLR 16/01 A3019 RMK AO2 SLP217 T01560006 402670106=
202203040352 METAR KATL 040352Z 30003KT 10SM CLR 17/M02 A3018 RMK AO2 SLP215 T01721022=
202203040252 METAR KATL 040252Z 00000KT 10SM CLR 18/M03 A3018 RMK AO2 SLP215 T01781028 51012=
202203040152 METAR KATL 040152Z 26004KT 7SM CLR 18/M01 A3017 RMK AO2 SLP213 T01831011=
202203040052 METAR KATL 040052Z 29005KT 10SM CLR 21/M03 A3016 RMK AO2 SLP210 T02061028=
202203032352 METAR KATL 032352Z 25004KT 10SM CLR 22/M02 A3014 RMK AO2 SLP203 T02221022 10267 20222 53006=
202203032252 METAR KATL 032252Z 27008KT 10SM FEW200 24/M02 A3012 RMK AO2 SLP195 T02441017=
202203032152 METAR KATL 032152Z 28007G15KT 10SM FEW200 26/M03 A3011 RMK AO2 SLP192 T02611028=
202203032052 METAR KATL 032052Z 28008KT 10SM FEW200 26/M03 A3012 RMK AO2 SLP194 T02611028 56019=
202203031952 METAR KATL 031952Z VRB05G15KT 10SM FEW200 27/M03 A3013 RMK AO2 SLP198 T02671028=
202203031852 METAR KATL 031852Z 25005G14KT 10SM FEW200 26/M02 A3015 RMK AO2 SLP205 T02561017=
202203031752 METAR KATL 031752Z 33010KT 10SM FEW200 24/M01 A3018 RMK AO2 SLP214 T02441011 10244 20106 58006=
202203031652 METAR KATL 031652Z 33008KT 10SM FEW200 23/00 A3020 RMK AO2 SLP221 T02280000=
202203031552 METAR KATL 031552Z 29009KT 10SM FEW200 21/03 A3020 RMK AO2 SLP222 T02110028=
202203031452 METAR KATL 031452Z 32007KT 10SM FEW200 18/02 A3020 RMK AO2 SLP222 T01780017 51014=
202203031352 METAR KATL 031352Z 31008KT 10SM CLR 16/01 A3020 RMK AO2 SLP223 T01560011=
202203031252 METAR KATL 031252Z 30008KT 10SM CLR 12/02 A3018 RMK AO2 SLP217 T01220017=
202203031152 METAR KATL 031152Z 30006KT 10SM CLR 11/01 A3016 RMK AO2 SLP210 T01060011 10161 20106 53010=
202203031052 METAR KATL 031052Z 30006KT 10SM CLR 11/01 A3014 RMK AO2 SLP203 T01110011=
202203030952 METAR KATL 030952Z 29007KT 10SM CLR 12/01 A3013 RMK AO2 SLP198 T01220011=
202203030852 METAR KATL 030852Z 29008KT 10SM CLR 13/01 A3013 RMK AO2 SLP196 T01330011 58001=
202203030752 METAR KATL 030752Z 28007KT 10SM CLR 13/01 A3013 RMK AO2 SLP198 T01280011=
202203030652 METAR KATL 030652Z 27004KT 10SM CLR 14/01 A3014 RMK AO2 SLP200 T01390006=
202203030552 METAR KATL 030552Z 26005KT 10SM CLR 16/M01 A3013 RMK AO2 SLP197 T01561006 10211 20139 58003=
202203030452 METAR KATL 030452Z 27006KT 10SM CLR 16/00 A3014 RMK AO2 SLP200 T01610000 402560083=
202203030352 METAR KATL 030352Z 26003KT 10SM CLR 16/M01 A3014 RMK AO2 SLP202 T01561006=
202203030252 METAR KATL 030252Z 29006KT 10SM CLR 17/M01 A3014 RMK AO2 SLP204 T01721006 51007=
202203030152 METAR KATL 030152Z 26004KT 10SM CLR 18/M01 A3014 RMK AO2 SLP203 T01781011=
202203030052 METAR KATL 030052Z 33007KT 10SM CLR 20/M03 A3013 RMK AO2 SLP200 T02001028=
202203022352 METAR KATL 022352Z 32007KT 10SM CLR 21/M03 A3012 RMK AO2 SLP197 T02061028 10256 20206 53006=
202203022252 METAR KATL 022252Z 28007KT 10SM CLR 23/M02 A3010 RMK AO2 SLP191 T02331022=
202203022152 METAR KATL 022152Z 30010KT 10SM CLR 24/M04 A3010 RMK AO2 SLP188 T02441039=
202203022052 METAR KATL 022052Z 27014G18KT 10SM CLR 26/M03 A3010 RMK AO2 SLP188 T02561028 56021=
202203021952 METAR KATL 021952Z 29009KT 10SM CLR 25/M02 A3011 RMK AO2 SLP192 T02501017=
202203021906 SPECI KATL 021906Z 29007G16KT 260V330 10SM CLR 24/M02 A3013 RMK AO2 T02391017 $=
202203021852 METAR KATL 021852Z 32006KT 10SM CLR 24/M02 A3013 RMK AO2 SLP200 T02391017 $=
202203021752 METAR KATL 021752Z 34009KT 10SM CLR 23/00 A3016 RMK AO2 SLP211 T02280000 10228 20083 58008=
202203021652 METAR KATL 021652Z 30009KT 10SM CLR 21/01 A3018 RMK AO2 SLP218 T02110006=
202203021552 METAR KATL 021552Z 31007KT 10SM CLR 18/01 A3019 RMK AO2 SLP220 T01830011=
202203021452 METAR KATL 021452Z 31006KT 10SM CLR 15/01 A3019 RMK AO2 SLP222 T01500011 51012=
202203021352 METAR KATL 021352Z 30006KT 10SM CLR 13/01 A3019 RMK AO2 SLP221 T01280006=
202203021252 METAR KATL 021252Z 00000KT 10SM CLR 10/M01 A3017 RMK AO2 SLP215 T01001006=
202203021152 METAR KATL 021152Z 29005KT 10SM CLR 09/M01 A3015 RMK AO2 SLP210 T00891006 10117 20083 53011=
202203021052 METAR KATL 021052Z 29004KT 10SM CLR 09/M01 A3014 RMK AO2 SLP206 T00891011=
202203020952 METAR KATL 020952Z 30008KT 10SM CLR 08/00 A3012 RMK AO2 SLP199 T00830000=
202203020852 METAR KATL 020852Z 30007KT 10SM CLR 08/M01 A3012 RMK AO2 SLP197 T00831006 58010=
202203020752 METAR KATL 020752Z 30006KT 10SM CLR 10/M01 A3014 RMK AO2 SLP204 T01001011=
202203020652 METAR KATL 020652Z 31007KT 10SM CLR 10/M01 A3015 RMK AO2 SLP208 T01001006=
202203020552 METAR KATL 020552Z 30006KT 10SM CLR 11/M02 A3015 RMK AO2 SLP208 T01061017 10172 20100 51004=
202203020452 METAR KATL 020452Z 29003KT 10SM CLR 11/M01 A3015 RMK AO2 SLP207 T01061011 402060056=
202203020352 METAR KATL 020352Z 30005KT 10SM CLR 12/M01 A3015 RMK AO2 SLP208 T01171011=
202203020252 METAR KATL 020252Z 30005KT 10SM CLR 13/M01 A3014 RMK AO2 SLP206 T01281011 53007=
202203020152 METAR KATL 020152Z 29005KT 10SM CLR 14/M02 A3013 RMK AO2 SLP203 T01391022=
202203020052 METAR KATL 020052Z 31006KT 10SM CLR 16/M02 A3012 RMK AO2 SLP201 T01561022=
202203012352 METAR KATL 012352Z 32005KT 10SM CLR 17/M03 A3012 RMK AO2 SLP200 T01721033 10206 20172 53005=
202203012252 METAR KATL 012252Z 28007KT 10SM CLR 19/M04 A3010 RMK AO2 SLP193 T01891044=
202203012152 METAR KATL 012152Z 31009KT 10SM CLR 20/M05 A3010 RMK AO2 SLP192 T02001050=
202203012052 METAR KATL 012052Z 28009KT 10SM FEW200 20/M05 A3010 RMK AO2 SLP192 T02001050 56021=
202203011952 METAR KATL 011952Z 29005KT 10SM FEW200 20/M04 A3011 RMK AO2 SLP195 T02001039=
202203011852 METAR KATL 011852Z 32005KT 10SM FEW001 FEW200 19/M05 A3013 RMK AO2 SLP202 FU FEW001 FU PLUME N T01891050=
202203011848 SPECI KATL 011848Z 30006KT 10SM FEW001 FEW200 19/M04 A3013 RMK AO2 FU FEW001 FU PLUME N=
202203011752 METAR KATL 011752Z 33007KT 10SM FEW200 18/M02 A3016 RMK AO2 SLP213 T01781022 10178 20056 58010=
202203011652 METAR KATL 011652Z 31007KT 10SM FEW200 17/M03 A3019 RMK AO2 SLP222 T01671028=
202203011552 METAR KATL 011552Z 31007KT 10SM FEW200 FEW250 15/M02 A3019 RMK AO2 SLP223 T01501017=
202203011452 METAR KATL 011452Z 31005KT 10SM FEW200 SCT250 12/02 A3019 RMK AO2 SLP224 T01170017 50005=
202203011352 METAR KATL 011352Z 31005KT 10SM FEW200 SCT250 09/01 A3020 RMK AO2 SLP226 T00890006=
202203011252 METAR KATL 011252Z 00000KT 10SM BKN200 BKN250 07/01 A3019 RMK AO2 SLP223 T00670006=
