##########################################################
# Query made at 04/20/2024 00:24:27 UTC
# Time interval: from 10/01/2022 12:00  to 10/31/2022 12:59  UTC
##########################################################

##########################################################
# KATL, Atlanta, Hartsfield - Jackson Atlanta International Airport (United States)
# WMO index: 72219. WIGOS ID: 0-20000-0-72219
# Latitude 33-38-59N. Longitude 084-25-00W. Altitude 312 m.
##########################################################

202210311252 METAR KATL 311252Z 00000KT 1 1/2SM BR OVC004 17/16 A3001 RMK AO2 SFC VIS 5 SLP160 T01670161 $=
202210311152 METAR KATL 311152Z 00000KT 1 1/2SM BR OVC004 17/16 A2999 RMK AO2 SFC VIS 6 DZE51 SLP153 CIG 003V006 P0000 60020 70041 T01670161 10167 20156 50003 $=
202210311139 SPECI KATL 311139Z 11005KT 1 1/2SM -DZ BR OVC004 17/16 A2999 RMK AO2 SFC VIS 5 CIG 003V006 P0000 T01670156 $=
202210311052 METAR KATL 311052Z 00000KT 1/2SM R09R/P6000FT -DZ BR BKN004 OVC009 17/16 A2999 RMK AO2 SFC VIS 6 RAB23E32DZB51 SLP153 CIG 003V005 P0000 T01670156=
202210310952 METAR KATL 310952Z 13003KT 1/2SM R09R/P6000FT BR BKN004 BKN009 OVC013 16/16 A2998 RMK AO2 SFC VIS 6 RAE38DZB38E52 SLP151 CIG 003V005 P0005 T01610156=
202210310938 SPECI KATL 310938Z 15004KT 1/2SM R09R/P6000FT -DZ BR SCT004 BKN009 OVC017 16/15 A2998 RMK AO2 SFC VIS 6 RAE38DZB38 PCPN VRY LGT P0005 T01610150=
202210310852 METAR KATL 310852Z 13006KT 1/2SM R09R/P6000FT -RA BR SCT003 SCT009 OVC018 16/15 A2998 RMK AO2 SFC VIS 2 1/2 SLP148 P0009 60015 T01610150 56011=
202210310845 SPECI KATL 310845Z 13005KT 1/2SM R09R/P6000FT -RA BR FEW003 SCT009 OVC018 16/15 A2998 RMK AO2 SFC VIS 2 1/2 P0008 T01610150=
202210310828 SPECI KATL 310828Z 14003KT 1/2SM R09R/P6000FT RA BR SCT004 BKN009 OVC015 16/15 A2998 RMK AO2 SFC VIS 1 1/2 TWRINC P0005 T01610150=
202210310752 METAR KATL 310752Z 14004KT 1/2SM R09R/P6000FT -RA BR OVC003 16/15 A2999 RMK AO2 SFC VIS 2 1/2 VIS 2V3 SLP152 TWRINC P0004 T01560150=
202210310652 METAR KATL 310652Z 13006KT 1/2SM R09R/P6000FT -RA BR OVC003 16/15 A2999 RMK AO2 SFC VIS 4 SLP154 TWRINC P0002 T01560150=
202210310552 METAR KATL 310552Z 15007KT 1/2SM R09R/P6000FT -RA BR OVC003 16/14 A3001 RMK AO2 SFC VIS 2 1/2 SLP160 TWRINC P0003 60018 T01560144 10156 20144 56009=
202210310452 METAR KATL 310452Z 12009KT 1/2SM R09R/P6000FT -RA BR BKN003 BKN006 OVC015 15/14 A3001 RMK AO2 SFC VIS 4 SLP162 TWRINC P0003 T01500144 401560139=
202210310352 METAR KATL 310352Z 12008KT 1/2SM R09R/P6000FT -RA BR OVC003 15/14 A3003 RMK AO2 SFC VIS 3 SLP165 DZE01RAB01 TWRINC P0009 T01500144=
202210310252 METAR KATL 310252Z 13009KT 1/2SM R09R/P6000FT -DZ BR OVC003 15/14 A3004 RMK AO2 SFC VIS 2 1/2 SLP169 DZE0155B45RAB0155E45 P0003 60003 T01500139 50001=
202210310152 METAR KATL 310152Z 13010KT 1/2SM R09R/P6000FT -DZ BR OVC002 15/14 A3004 RMK AO2 SFC VIS 1 3/4 SLP170 TWRINC P0000 T01500139=
202210310052 METAR KATL 310052Z 13007G18KT 1/2SM R09R/P6000FT -DZ BR OVC003 14/14 A3004 RMK AO2 SFC VIS 2 SLP170 TWRINC P0000 T01440139=
202210302352 METAR KATL 302352Z 12013KT 1/2SM R09R/P6000FT -DZ BR OVC003 14/14 A3003 RMK AO2 SFC VIS 4 SLP168 TWRINC P0000 60003 T01440139 10156 20144 55003=
202210302327 SPECI KATL 302327Z 11010KT 1/2SM R09R/P6000FT -DZ BR BKN003 OVC007 15/14 A3004 RMK AO2 SFC VIS 4 TWRINC P0000 T01500139=
202210302252 METAR KATL 302252Z 11009KT 050V120 3SM -DZ BKN005 OVC010 15/14 A3003 RMK AO2 SFC VIS 7 SLP168 P0000 T01500139=
202210302152 METAR KATL 302152Z 11009KT 3SM -DZ BKN005 OVC010 15/14 A3004 RMK AO2 SFC VIS 7 DZE2059B46 SLP169 PCPN VRY LGT P0000 T01500139=
202210302149 SPECI KATL 302149Z 11008KT 3SM -DZ BKN005 OVC010 15/14 A3004 RMK AO2 SFC VIS 7 DZE2059B46 PCPN VRY LGT P0000=
202210302115 SPECI KATL 302115Z 11009KT 2SM BR BKN008 OVC012 15/14 A3004 RMK AO2 SFC VIS 6 DZE2059 P0000 T01500139=
202210302052 METAR KATL 302052Z 11009KT 1 1/2SM -DZ BR BKN006 OVC012 16/14 A3004 RMK AO2 SFC VIS 5 RAE51DZB51 SLP172 P0002 60003 T01560144 56017=
202210302028 SPECI KATL 302028Z 12008KT 1 1/2SM -RA BR BKN005 OVC013 16/14 A3005 RMK AO2 SFC VIS 3 P0002 T01560144=
202210301952 METAR KATL 301952Z 11007KT 1 3/4SM -RA BR OVC004 15/14 A3005 RMK AO2 SFC VIS 2 RAE03B45DZB03E45 SLP174 P0000 T01500144=
202210301852 METAR KATL 301852Z 11012KT 1 3/4SM -RA BR OVC004 15/14 A3007 RMK AO2 SFC VIS 2 1/2 SLP181 P0001 T01500139=
202210301752 METAR KATL 301752Z 12011KT 1 3/4SM -RA BR OVC004 15/14 A3010 RMK AO2 SFC VIS 2 1/2 DZE51RAB51 SLP190 P0000 60000 T01500139 10150 20139 58014=
202210301652 METAR KATL 301652Z 12008KT 1 1/2SM -DZ BR OVC003 15/14 A3012 RMK AO2 TWR VIS 1 3/4 SLP198 P0000 T01500139=
202210301552 METAR KATL 301552Z 12011KT 1 3/4SM -DZ BR OVC003 14/14 A3014 RMK AO2 SLP204 P0000 T01440139 $=
202210301526 SPECI KATL 301526Z 11012KT 1 3/4SM -DZ BR OVC003 14/14 A3014 RMK AO2 TWR VIS 2 P0000 T01440139 $=
202210301452 METAR KATL 301452Z 12011KT 2SM -DZ BR OVC003 14/13 A3014 RMK AO2 SFC VIS 3 SLP204 P0000 60000 T01440133 50002 $=
202210301436 SPECI KATL 301436Z 12011G17KT 2SM -DZ BR OVC003 14/13 A3014 RMK AO2 P0000 T01440133 $=
202210301402 SPECI KATL 301402Z 12008KT 1 1/2SM R09R/6000VP6000FT -DZ BR OVC003 14/13 A3015 RMK AO2 TWR VIS 2 P0000 T01440133 $=
202210301352 METAR KATL 301352Z 13009KT 2SM -DZ BR OVC003 14/13 A3016 RMK AO2 SLP210 P0000 T01390133 $=
202210301252 METAR KATL 301252Z 12010KT 2SM -DZ BR OVC003 14/13 A3014 RMK AO2 SLP205 P0000 T01390133 $=
202210301152 METAR KATL 301152Z 11011KT 2SM -DZ BR OVC002 14/13 A3014 RMK AO2 SFC VIS 2 1/2 SLP203 TWRINC P0000 60000 T01390133 10139 20139 58004 $=
202210301052 METAR KATL 301052Z 11010KT 2SM -DZ BR OVC003 14/13 A3015 RMK AO2 SFC VIS 3 DZB48 SLP207 TWRINC P0000 T01390133 $=
202210300952 METAR KATL 300952Z 11008KT 2SM BR OVC004 14/13 A3015 RMK AO2 SFC VIS 6 SLP207 CIG 003V005 T01390128 $=
202210300901 SPECI KATL 300901Z 10014KT 2SM BR OVC004 14/13 A3014 RMK AO2 SFC VIS 6 PRESFR CIG 003V005 T01390128 $=
202210300852 METAR KATL 300852Z 11011KT 2SM OVC005 14/13 A3015 RMK AO2 SFC VIS 7 DZE48 SLP205 DZB45 CIG 004V006 P0000 60000 T01390128 58016 $=
202210300752 METAR KATL 300752Z 11008KT 2SM -DZ BR OVC005 14/13 A3018 RMK AO2 SFC VIS 3 SLP216 DZB45 CIG 004V006 P0000 T01390128 $=
202210300652 METAR KATL 300652Z 10009KT 2SM -DZ BR OVC005 14/13 A3020 RMK AO2 SFC VIS 4 SLP223 DZB45 CIG 004V006 P0000 T01390128 $=
202210300552 METAR KATL 300552Z 11010KT 2SM -DZ BR OVC005 14/13 A3019 RMK AO2 SFC VIS 2 1/2 SLP222 DZB45 CIG 004V006 P0000 60000 T01390128 10167 20139 56010 $=
202210300452 METAR KATL 300452Z 10010KT 2SM -DZ BR OVC005 14/13 A3019 RMK AO2 SFC VIS 3 SLP223 DZB45 CIG 004V006 P0000 T01390128 401940117 $=
202210300441 SPECI KATL 300441Z 11010KT 2SM BR OVC004 14/13 A3020 RMK AO2 SFC VIS 3 CIG 004V007 T01390128 $=
202210300352 METAR KATL 300352Z 12011KT 6SM BR OVC006 14/13 A3021 RMK AO2 SLP228 T01440128 $=
202210300349 SPECI KATL 300349Z 11011KT 6SM BR OVC006 14/13 A3021 RMK AO2 $=
202210300252 METAR KATL 300252Z 11013KT 10SM OVC010 15/13 A3022 RMK AO2 SLP233 CIG 009V012 T01500128 50003 $=
202210300152 METAR KATL 300152Z 11009KT 10SM OVC010 15/12 A3023 RMK AO2 SLP234 CIG 009V012 T01500122=
202210300052 METAR KATL 300052Z 11009KT 10SM SCT005 BKN010 OVC015 16/13 A3023 RMK AO2 SLP234 T01560128=
202210300049 SPECI KATL 300049Z 11011KT 10SM SCT005 BKN010 OVC015 16/13 A3023 RMK AO2=
202210292352 METAR KATL 292352Z 11011G17KT 10SM BKN015 OVC020 17/12 A3022 RMK AO2 SLP230 T01670122 10194 20167 55000=
202210292252 METAR KATL 292252Z 12009KT 10SM OVC020 17/12 A3021 RMK AO2 SLP228 T01720122=
202210292152 METAR KATL 292152Z 11008KT 10SM OVC020 18/13 A3021 RMK AO2 SLP228 T01780128=
202210292052 METAR KATL 292052Z 11010KT 10SM OVC019 18/13 A3022 RMK AO2 SLP230 T01830128 56020=
202210291952 METAR KATL 291952Z 10012KT 10SM BKN023 BKN200 19/13 A3023 RMK AO2 SLP232 T01890128=
202210291852 METAR KATL 291852Z 12009KT 10SM BKN022 BKN200 19/12 A3025 RMK AO2 SLP239 T01890122=
202210291752 METAR KATL 291752Z 11008KT 10SM BKN019 BKN200 18/12 A3028 RMK AO2 SLP251 T01780117 10178 20117 58014=
202210291652 METAR KATL 291652Z 10008KT 10SM OVC015 17/12 A3031 RMK AO2 SLP261 BINOVC T01670117=
202210291552 METAR KATL 291552Z 09011KT 10SM OVC012 16/11 A3032 RMK AO2 SLP266 T01560111=
202210291452 METAR KATL 291452Z 10014KT 10SM BKN013 OVC022 15/11 A3032 RMK AO2 SLP266 T01500106 50009=
202210291352 METAR KATL 291352Z 09012KT 10SM BKN012 OVC023 14/09 A3032 RMK AO2 SLP267 BINOVC T01390094=
202210291259 SPECI KATL 291259Z 09012KT 10SM BKN013 OVC018 13/09 A3031 RMK AO2 T01280089=
202210291252 METAR KATL 291252Z 09012G18KT 10SM FEW011 OVC016 13/09 A3031 RMK AO2 SLP261 T01280089=
202210291205 SPECI KATL 291205Z 08011KT 10SM BKN020 BKN200 BKN250 12/08 A3029 RMK AO2 T01220083=
202210291152 METAR KATL 291152Z 09011KT 10SM SCT020 SCT200 BKN250 12/08 A3029 RMK AO2 SLP256 T01170078 10133 20117 53003=
202210291052 METAR KATL 291052Z 08009KT 10SM SCT200 BKN250 12/08 A3029 RMK AO2 SLP254 T01170078=
202210290952 METAR KATL 290952Z 10010KT 10SM FEW040 SCT200 BKN250 12/07 A3028 RMK AO2 SLP250 T01220072=
202210290852 METAR KATL 290852Z 08012KT 10SM FEW200 BKN250 13/07 A3028 RMK AO2 SLP251 T01280072 56004=
202210290752 METAR KATL 290752Z 09012KT 10SM FEW200 FEW250 13/07 A3028 RMK AO2 SLP252 T01280072=
202210290652 METAR KATL 290652Z 10010KT 10SM FEW200 FEW250 13/07 A3028 RMK AO2 SLP251 T01280072=
202210290552 METAR KATL 290552Z 09011KT 10SM FEW200 FEW250 13/07 A3029 RMK AO2 SLP255 T01330072 10189 20133 55002=
202210290452 METAR KATL 290452Z 09009KT 10SM FEW200 SCT250 14/07 A3029 RMK AO2 SLP253 T01440072 402170122=
202210290352 METAR KATL 290352Z 10011KT 10SM FEW200 SCT250 15/07 A3029 RMK AO2 SLP256 T01500072=
202210290252 METAR KATL 290252Z 10009KT 10SM FEW200 SCT250 15/08 A3030 RMK AO2 SLP259 T01500078 51010=
202210290152 METAR KATL 290152Z 09009KT 10SM SCT200 BKN250 17/08 A3030 RMK AO2 SLP258 T01670078=
202210290052 METAR KATL 290052Z 08011KT 10SM BKN200 BKN250 18/08 A3028 RMK AO2 SLP252 T01780083=
202210282352 METAR KATL 282352Z 09010KT 10SM BKN200 BKN250 18/09 A3027 RMK AO2 SLP248 T01780089 10217 20178 51014=
202210282252 METAR KATL 282252Z 09010KT 10SM BKN200 BKN250 19/09 A3025 RMK AO2 SLP241 T01890089=
202210282152 METAR KATL 282152Z 09010KT 10SM BKN200 BKN250 20/09 A3025 RMK AO2 SLP240 T02000094=
202210282052 METAR KATL 282052Z 10012KT 10SM SCT180 BKN250 20/09 A3023 RMK AO2 SLP233 T02000094 56010=
202210281952 METAR KATL 281952Z 09011KT 10SM SCT180 BKN250 21/10 A3023 RMK AO2 SLP235 T02060100=
202210281852 METAR KATL 281852Z 11010G18KT 10SM FEW040 SCT180 BKN250 22/11 A3024 RMK AO2 SLP235 T02170106=
202210281752 METAR KATL 281752Z 10010KT 10SM FEW036 BKN180 BKN250 21/11 A3026 RMK AO2 SLP243 T02060106 10206 20133 58017=
202210281652 METAR KATL 281652Z 10012KT 10SM FEW034 SCT180 BKN250 20/10 A3029 RMK AO2 SLP253 T02000100=
202210281552 METAR KATL 281552Z 10012KT 10SM FEW029 SCT038 BKN250 18/09 A3030 RMK AO2 SLP257 T01780094=
202210281452 METAR KATL 281452Z 10016KT 10SM FEW029 BKN035 BKN250 16/09 A3031 RMK AO2 SLP262 T01610089 51019=
202210281352 METAR KATL 281352Z 10012G21KT 10SM SCT030 SCT038 SCT250 15/09 A3030 RMK AO2 SLP258 T01500089=
202210281252 METAR KATL 281252Z 09012KT 10SM BKN030 BKN039 BKN250 14/09 A3028 RMK AO2 SLP250 T01390089=
202210281152 METAR KATL 281152Z 09012KT 10SM SCT026 BKN038 BKN250 13/08 A3025 RMK AO2 SLP241 T01330083 10144 20122 51012=
202210281052 METAR KATL 281052Z 08009KT 10SM BKN028 BKN036 14/09 A3024 RMK AO2 SLP238 SCT028 V BKN T01390089=
202210281049 SPECI KATL 281049Z 08009KT 10SM SCT028 BKN036 14/09 A3024 RMK AO2 SCT028 V BKN=
202210281000 SPECI KATL 281000Z 09010KT 10SM BKN028 BKN037 13/08 A3022 RMK AO2 T01330083=
202210280952 METAR KATL 280952Z 09009KT 10SM SCT028 BKN037 13/08 A3022 RMK AO2 SLP228 T01330083=
202210280852 METAR KATL 280852Z 09010KT 10SM FEW040 FEW250 13/08 A3020 RMK AO2 SLP223 T01280083 58001=
202210280752 METAR KATL 280752Z 09009KT 10SM FEW250 13/08 A3020 RMK AO2 SLP223 T01280083=
202210280652 METAR KATL 280652Z 09007KT 10SM CLR 13/09 A3020 RMK AO2 SLP224 T01280089=
202210280552 METAR KATL 280552Z 11008KT 10SM CLR 13/09 A3020 RMK AO2 SLP224 T01330089 10200 20133 51014=
202210280452 METAR KATL 280452Z 10008KT 10SM CLR 14/09 A3020 RMK AO2 SLP222 T01390089 402280083=
202210280352 METAR KATL 280352Z 10009KT 10SM FEW250 15/09 A3018 RMK AO2 SLP216 T01500089=
202210280252 METAR KATL 280252Z 10010KT 10SM FEW250 15/09 A3016 RMK AO2 SLP212 T01500089 53013=
202210280152 METAR KATL 280152Z 10009KT 10SM FEW250 17/09 A3015 RMK AO2 SLP206 T01670089=
202210280052 METAR KATL 280052Z 10009KT 10SM FEW250 18/09 A3012 RMK AO2 SLP197 T01830094=
202210272352 METAR KATL 272352Z 09008KT 10SM FEW250 19/09 A3012 RMK AO2 SLP198 T01940094 10228 20189 53016=
202210272252 METAR KATL 272252Z 09008KT 10SM FEW250 20/09 A3010 RMK AO2 SLP192 T02000094=
202210272152 METAR KATL 272152Z 11007KT 10SM CLR 22/09 A3009 RMK AO2 SLP187 T02170094=
202210272052 METAR KATL 272052Z 08007KT 10SM CLR 22/09 A3008 RMK AO2 SLP182 T02220094 55003=
202210271952 METAR KATL 271952Z 10008KT 10SM CLR 22/10 A3006 RMK AO2 SLP176 T02220100=
202210271852 METAR KATL 271852Z 13007KT 10SM FEW046 22/10 A3007 RMK AO2 SLP180 T02170100=
202210271752 METAR KATL 271752Z 09008KT 10SM FEW042 21/09 A3009 RMK AO2 SLP186 T02060094 10206 20089 58009=
202210271652 METAR KATL 271652Z 10006KT 10SM FEW033 FEW040 19/09 A3012 RMK AO2 SLP196 T01890094=
202210271552 METAR KATL 271552Z 09008KT 10SM FEW032 SCT042 18/09 A3011 RMK AO2 SLP195 T01780089=
202210271452 METAR KATL 271452Z 11010KT 10SM SCT028 SCT040 16/08 A3011 RMK AO2 SLP196 T01560083 51021=
202210271352 METAR KATL 271352Z 09009KT 10SM FEW002 FEW038 13/08 A3010 RMK AO2 SLP193 FU FEW002 T01330078=
202210271349 SPECI KATL 271349Z 09011KT 10SM FEW002 FEW038 13/08 A3010 RMK AO2 FU FEW002=
202210271252 METAR KATL 271252Z 03006KT 10SM FEW040 11/07 A3008 RMK AO2 SLP186 T01110072 $=
202210271152 METAR KATL 271152Z 36006KT 10SM CLR 09/07 A3005 RMK AO2 SLP177 T00890067 10094 20083 53017 $=
202210271052 METAR KATL 271052Z 35005KT 10SM CLR 08/07 A3003 RMK AO2 SLP170 T00830067 $=
202210270952 METAR KATL 270952Z 36007KT 10SM CLR 09/07 A3001 RMK AO2 SLP161 T00890067 $=
202210270852 METAR KATL 270852Z 34007KT 10SM CLR 08/07 A3000 RMK AO2 SLP159 T00830067 53005 $=
202210270752 METAR KATL 270752Z 35006KT 10SM CLR 09/07 A2999 RMK AO2 SLP155 T00890067 $=
202210270652 METAR KATL 270652Z 35008KT 10SM CLR 09/07 A2998 RMK AO2 SLP151 T00940067 $=
202210270552 METAR KATL 270552Z 35009KT 10SM CLR 09/07 A2998 RMK AO2 SLP153 T00940067 10133 20094 50001 $=
202210270452 METAR KATL 270452Z 35008KT 10SM CLR 10/07 A2999 RMK AO2 SLP154 T01000067 401940100 $=
202210270352 METAR KATL 270352Z 35011KT 10SM CLR 11/07 A2998 RMK AO2 SLP152 T01060067 $=
202210270252 METAR KATL 270252Z 34010KT 10SM CLR 11/07 A2998 RMK AO2 SLP151 T01110067 53009 $=
202210270152 METAR KATL 270152Z 35011KT 10SM CLR 12/07 A2997 RMK AO2 SLP147 T01170067 $=
202210270052 METAR KATL 270052Z 34012KT 10SM CLR 13/07 A2996 RMK AO2 SLP144 T01280072 $=
202210262352 METAR KATL 262352Z 33010KT 10SM CLR 13/08 A2995 RMK AO2 SLP142 T01330078 10172 20133 53007 $=
202210262252 METAR KATL 262252Z 34010KT 10SM CLR 14/08 A2994 RMK AO2 SLP138 T01440078 $=
202210262152 METAR KATL 262152Z 33013KT 10SM CLR 16/07 A2994 RMK AO2 SLP134 T01560072 $=
202210262052 METAR KATL 262052Z 33011KT 10SM CLR 16/07 A2993 RMK AO2 SLP132 T01610072 55002 $=
202210261952 METAR KATL 261952Z 34013KT 10SM FEW031 16/08 A2992 RMK AO2 SLP129 T01610078 $=
202210261852 METAR KATL 261852Z 36008G19KT 10SM FEW033 17/08 A2993 RMK AO2 SLP130 T01670078 $=
202210261752 METAR KATL 261752Z 34009KT 10SM SCT029 16/07 A2994 RMK AO2 SLP132 T01610072 10161 20117 50001 $=
202210261652 METAR KATL 261652Z 33015G21KT 10SM SCT025 16/08 A2995 RMK AO2 SLP137 T01560078 $=
202210261552 METAR KATL 261552Z 33007KT 10SM SCT024 16/08 A2994 RMK AO2 SLP135 T01560083 $=
202210261452 METAR KATL 261452Z 33010KT 10SM SCT021 14/09 A2993 RMK AO2 SLP132 T01440089 51016 $=
202210261352 METAR KATL 261352Z 32011G18KT 10SM SCT017 14/09 A2992 RMK AO2 SLP130 T01390094 $=
202210261252 METAR KATL 261252Z 31010KT 10SM FEW012 FEW038 13/10 A2990 RMK AO2 SLP120 T01280100 $=
202210261152 METAR KATL 261152Z 31008KT 10SM FEW010 FEW040 12/10 A2989 RMK AO2 SLP115 70018 T01220100 10194 20122 53008 $=
202210261052 METAR KATL 261052Z 31009KT 10SM FEW012 FEW042 13/11 A2988 RMK AO2 SLP113 T01280106 $=
202210260952 METAR KATL 260952Z 30006KT 10SM FEW044 14/11 A2986 RMK AO2 SLP105 T01390111 $=
202210260852 METAR KATL 260852Z 32009KT 10SM FEW014 FEW034 SCT046 15/12 A2986 RMK AO2 SLP105 T01500122 50008 $=
202210260752 METAR KATL 260752Z 32008KT 10SM SCT032 SCT140 16/13 A2986 RMK AO2 SLP106 T01610133 $=
202210260711 SPECI KATL 260711Z 31009KT 10SM SCT028 BKN036 OVC140 17/14 A2986 RMK AO2 T01720139 $=
202210260652 METAR KATL 260652Z 32013KT 10SM FEW018 BKN028 OVC034 17/14 A2986 RMK AO2 SLP103 T01720144 $=
202210260604 SPECI KATL 260604Z 29008KT 10SM SCT008 BKN018 OVC026 19/17 A2984 RMK AO2 T01890172 $=
202210260556 SPECI KATL 260556Z 29012G16KT 10SM BKN008 BKN015 OVC021 19/18 A2984 RMK AO2 CIG 006V010 FROPA T01890178 $=
202210260552 METAR KATL 260552Z 30009G16KT 250V320 10SM SCT007 BKN013 OVC021 19/18 A2983 RMK AO2 SLP094 CIG 011V015 60018 T01940183 10228 20189 56005 $=
202210260549 SPECI KATL 260549Z 23005KT 10SM SCT007 BKN013 OVC021 19/18 A2983 RMK AO2 CIG 011V015 $=
202210260452 METAR KATL 260452Z 22004KT 10SM FEW005 BKN020 BKN070 BKN200 19/18 A2984 RMK AO2 RAE40 SLP096 P0001 T01940183 402560117 $=
202210260431 SPECI KATL 260431Z 21007KT 7SM -RA FEW007 BKN018 OVC070 19/18 A2984 RMK AO2 P0001 T01940183 $=
202210260352 METAR KATL 260352Z 20013G23KT 7SM -RA SCT007 BKN014 OVC045 19/18 A2985 RMK AO2 SLP099 CB DSNT SE-S NW-N P0008 T01890178 $=
202210260343 SPECI KATL 260343Z 21006KT 5SM -RA BR SCT007 BKN014 OVC035 19/18 A2984 RMK AO2 CB DSNT S-SW NW P0007 T01890178 $=
202210260337 SPECI KATL 260337Z 18006KT 2 1/2SM +RA BR SCT008 BKN014 OVC035 19/18 A2984 RMK AO2 LTG DSNT N CB DSNT N-NE S-SW P0003 T01890178 $=
202210260252 METAR KATL 260252Z 16006KT 3SM RA BR BKN020 BKN032 OVC050 19/18 A2985 RMK AO2 SLP102 P0006 60009 T01890178 58007 $=
202210260152 METAR KATL 260152Z 16007KT 10SM -RA FEW020 BKN090 BKN200 19/17 A2985 RMK AO2 SLP102 P0003 T01890167 $=
202210260128 SPECI KATL 260128Z 16007KT 9SM -RA SCT022 BKN035 BKN100 OVC200 19/17 A2986 RMK AO2 P0003 T01890172 $=
202210260113 SPECI KATL 260113Z 18010G18KT 4SM -RA BKN022 BKN035 OVC050 19/17 A2988 RMK AO2 P0003 T01940167 $=
202210260102 SPECI KATL 260102Z 21011KT 2 1/2SM -RA BKN022 BKN030 OVC050 21/16 A2989 RMK AO2 PRESRR P0000 T02060161 $=
202210260052 METAR KATL 260052Z 19008G16KT 9SM -RA BKN028 BKN040 OVC060 22/15 A2987 RMK AO2 RAB19 SLP111 P0000 T02170150 $=
202210252352 METAR KATL 252352Z 18012G24KT 10SM BKN032 BKN045 OVC060 23/13 A2987 RMK AO2 RAB21E30 SLP110 P0000 60000 T02280128 10256 20228 55003 $=
202210252252 METAR KATL 252252Z 16009KT 10SM FEW045 BKN060 BKN150 OVC200 23/12 A2987 RMK AO2 SLP109 T02330122 $=
202210252152 METAR KATL 252152Z 16009G15KT 10SM FEW055 BKN180 BKN250 24/12 A2987 RMK AO2 SLP112 T02390122 $=
202210252052 METAR KATL 252052Z 16011G17KT 10SM FEW130 SCT180 BKN250 24/12 A2988 RMK AO2 SLP113 VIRGA NE-SE ACC DSNT W-NW T02440122 56027 $=
202210251952 METAR KATL 251952Z 17008G15KT 10SM FEW120 BKN180 BKN250 24/12 A2990 RMK AO2 SLP119 VIRGA SW NW ACC SW-NW T02440117 $=
202210251852 METAR KATL 251852Z 17012G19KT 10SM SCT110 BKN200 BKN250 24/12 A2992 RMK AO2 SLP126 VIRGA W-NW ACC SW-NW T02440117 $=
202210251752 METAR KATL 251752Z 20011G20KT 10SM FEW055 FEW100 SCT200 BKN250 25/12 A2996 RMK AO2 SLP141 VIRGA DSNT W-NW ACC W-NW T02500122 10250 20128 58031 $=
202210251652 METAR KATL 251652Z 18009G16KT 10SM FEW050 FEW090 SCT200 SCT250 24/12 A3001 RMK AO2 SLP155 ACC DSNT NW T02390122 $=
202210251552 METAR KATL 251552Z 18009G17KT 10SM FEW050 FEW090 SCT200 SCT250 23/12 A3004 RMK AO2 SLP165 T02280117 $=
202210251452 METAR KATL 251452Z 17008KT 10SM FEW045 FEW080 SCT200 SCT250 21/12 A3006 RMK AO2 SLP173 T02060117 50005 $=
202210251352 METAR KATL 251352Z 15006KT 9SM FEW070 FEW180 SCT250 17/11 A3006 RMK AO2 SLP175 VIRGA NE ACC DSNT W T01720111 $=
202210251252 METAR KATL 251252Z 14003KT 10SM FEW040 FEW200 SCT250 15/11 A3006 RMK AO2 SLP176 T01500106 $=
202210251152 METAR KATL 251152Z 00000KT 10SM FEW040 FEW200 FEW250 13/09 A3004 RMK AO2 SLP169 T01280094 10156 20117 58000 $=
202210251052 METAR KATL 251052Z 13003KT 10SM FEW250 13/09 A3006 RMK AO2 SLP174 T01280094 $=
202210250952 METAR KATL 250952Z 00000KT 10SM FEW250 12/09 A3006 RMK AO2 SLP172 T01170089 $=
202210250852 METAR KATL 250852Z 00000KT 10SM FEW250 13/09 A3004 RMK AO2 SLP169 T01280089 56004 $=
202210250752 METAR KATL 250752Z 13003KT 10SM CLR 14/09 A3005 RMK AO2 SLP168 T01440094 $=
202210250652 METAR KATL 250652Z 00000KT 10SM CLR 14/10 A3005 RMK AO2 SLP171 T01440100 $=
202210250552 METAR KATL 250552Z 14003KT 10SM FEW200 SCT250 15/10 A3006 RMK AO2 SLP172 T01500100 10217 20150 58009 $=
202210250452 METAR KATL 250452Z 00000KT 10SM FEW200 BKN250 16/10 A3007 RMK AO2 SLP178 T01610100 402500100 $=
202210250352 METAR KATL 250352Z 00000KT 10SM FEW200 BKN250 17/11 A3009 RMK AO2 SLP184 T01670106 $=
202210250252 METAR KATL 250252Z 14003KT 10SM FEW200 SCT250 17/11 A3009 RMK AO2 SLP184 T01720106 51007 $=
202210250152 METAR KATL 250152Z 15003KT 10SM FEW200 SCT250 18/11 A3008 RMK AO2 SLP183 T01830106 $=
202210250052 METAR KATL 250052Z 00000KT 9SM SCT200 BKN250 19/11 A3007 RMK AO2 SLP180 T01940106 $=
202210242352 METAR KATL 242352Z 14005KT 10SM BKN200 BKN250 22/11 A3006 RMK AO2 SLP176 T02170106 10250 20217 56011 $=
202210242252 METAR KATL 242252Z 17003KT 10SM SCT200 BKN250 22/11 A3008 RMK AO2 SLP181 T02220106 $=
202210242152 METAR KATL 242152Z 18004KT 10SM SCT200 BKN250 24/10 A3008 RMK AO2 SLP181 T02440100 $=
202210242052 METAR KATL 242052Z 17005KT 10SM FEW200 SCT250 25/10 A3010 RMK AO2 SLP187 T02500100 56018 $=
202210241952 METAR KATL 241952Z 16005KT 10SM FEW200 SCT250 24/10 A3011 RMK AO2 SLP191 T02440100 $=
202210241852 METAR KATL 241852Z 19005KT 10SM FEW250 24/10 A3013 RMK AO2 SLP199 T02440100 $=
202210241752 METAR KATL 241752Z 22007KT 10SM FEW250 24/10 A3015 RMK AO2 SLP205 T02390100 10239 20122 58022 $=
202210241652 METAR KATL 241652Z 13006KT 10SM FEW250 23/11 A3018 RMK AO2 SLP216 T02280106 $=
202210241552 METAR KATL 241552Z 15008KT 10SM FEW250 21/11 A3020 RMK AO2 SLP223 T02110106 $=
202210241452 METAR KATL 241452Z VRB03KT 10SM FEW250 18/09 A3022 RMK AO2 SLP230 T01830094 50009 $=
202210241352 METAR KATL 241352Z VRB03KT 10SM FEW250 16/08 A3023 RMK AO2 SLP233 T01610078 $=
202210241252 METAR KATL 241252Z 10005KT 10SM FEW200 SCT250 14/07 A3021 RMK AO2 SLP227 T01390067 $=
202210241152 METAR KATL 241152Z VRB03KT 10SM FEW200 SCT250 12/06 A3019 RMK AO2 SLP222 T01220061 10133 20100 51009 $=
202210241052 METAR KATL 241052Z 11003KT 10SM BKN250 11/06 A3018 RMK AO2 SLP219 T01110061 $=
202210240952 METAR KATL 240952Z 00000KT 10SM BKN250 10/06 A3017 RMK AO2 SLP214 T01000061 $=
202210240852 METAR KATL 240852Z 00000KT 10SM BKN250 11/07 A3016 RMK AO2 SLP210 T01060067 56002 $=
202210240752 METAR KATL 240752Z 07003KT 10SM BKN250 13/07 A3016 RMK AO2 SLP210 T01280067 $=
202210240652 METAR KATL 240652Z 00000KT 10SM BKN250 12/07 A3016 RMK AO2 SLP209 T01220067 $=
202210240552 METAR KATL 240552Z 00000KT 10SM BKN250 12/07 A3017 RMK AO2 SLP212 T01220072 10172 20117 51002 $=
202210240452 METAR KATL 240452Z 00000KT 10SM BKN250 13/07 A3017 RMK AO2 SLP211 T01330067 402390078 $=
202210240352 METAR KATL 240352Z 00000KT 10SM FEW250 13/07 A3017 RMK AO2 SLP214 T01280067 $=
202210240252 METAR KATL 240252Z 00000KT 10SM FEW250 13/06 A3016 RMK AO2 SLP212 T01330061 53005 $=
202210240152 METAR KATL 240152Z 17003KT 10SM FEW250 16/06 A3015 RMK AO2 SLP205 T01560056 $=
202210240052 METAR KATL 240052Z 21003KT 10SM FEW250 16/06 A3015 RMK AO2 SLP208 T01610056 $=
202210232352 METAR KATL 232352Z 20003KT 10SM FEW180 FEW250 17/06 A3015 RMK AO2 SLP208 T01720061 10239 20167 53000 $=
202210232252 METAR KATL 232252Z 20003KT 10SM FEW180 FEW250 20/05 A3013 RMK AO2 SLP201 T02000050 $=
202210232152 METAR KATL 232152Z 17004KT 10SM FEW180 FEW250 23/03 A3014 RMK AO2 SLP204 T02280033 $=
202210232052 METAR KATL 232052Z 15003KT 10SM FEW150 FEW250 23/02 A3015 RMK AO2 SLP205 T02330022 56020 $=
202210231952 METAR KATL 231952Z 00000KT 10SM FEW200 FEW250 23/03 A3016 RMK AO2 SLP208 T02330028 $=
202210231852 METAR KATL 231852Z VRB04KT 10SM FEW200 FEW250 22/03 A3017 RMK AO2 SLP214 T02220028 $=
202210231752 METAR KATL 231752Z 00000KT 10SM FEW200 SCT250 23/04 A3021 RMK AO2 SLP225 T02280039 10228 20089 58011 $=
202210231652 METAR KATL 231652Z 00000KT 10SM FEW200 BKN250 21/03 A3023 RMK AO2 SLP235 T02060033 $=
202210231552 METAR KATL 231552Z VRB04KT 10SM FEW200 BKN250 18/03 A3024 RMK AO2 SLP237 VIRGA DSNT SE T01830033 $=
202210231452 METAR KATL 231452Z 10005KT 10SM SCT200 BKN250 17/04 A3024 RMK AO2 SLP238 VIRGA DSNT SE NW-N T01720044 51011 $=
202210231352 METAR KATL 231352Z 08005KT 10SM SCT200 BKN250 16/04 A3024 RMK AO2 SLP237 VIRGA OHD-NW T01610044 $=
202210231252 METAR KATL 231252Z 08005KT 10SM FEW200 BKN250 13/05 A3022 RMK AO2 SLP230 T01330050 $=
202210231152 METAR KATL 231152Z 00000KT 10SM FEW200 SCT250 09/04 A3021 RMK AO2 SLP229 T00890039 10128 20078 51007 $=
202210231052 METAR KATL 231052Z 09003KT 10SM FEW200 SCT250 09/04 A3020 RMK AO2 SLP226 T00940039=
202210230952 METAR KATL 230952Z 07003KT 10SM FEW200 SCT250 11/04 A3019 RMK AO2 SLP221 T01060039=
202210230852 METAR KATL 230852Z 07003KT 10SM FEW250 11/04 A3018 RMK AO2 SLP218 T01060044 51005=
202210230752 METAR KATL 230752Z 09004KT 10SM FEW250 11/05 A3018 RMK AO2 SLP217 T01110050=
202210230652 METAR KATL 230652Z 11003KT 10SM FEW200 FEW250 13/04 A3018 RMK AO2 SLP215 T01280044=
202210230552 METAR KATL 230552Z 00000KT 10SM FEW200 FEW250 12/04 A3017 RMK AO2 SLP212 T01220044 10172 20122 53004=
202210230452 METAR KATL 230452Z 00000KT 10SM FEW200 SCT250 13/05 A3016 RMK AO2 SLP210 T01280050 402330072=
202210230352 METAR KATL 230352Z 11003KT 10SM FEW200 SCT250 14/05 A3016 RMK AO2 SLP211 T01390050=
202210230252 METAR KATL 230252Z 00000KT 10SM FEW200 SCT250 14/05 A3016 RMK AO2 SLP210 T01440050 51007=
202210230152 METAR KATL 230152Z 00000KT 10SM FEW200 BKN250 15/06 A3015 RMK AO2 SLP208 T01500056=
202210230052 METAR KATL 230052Z 00000KT 10SM SCT200 BKN250 16/04 A3014 RMK AO2 SLP206 T01610044=
202210222352 METAR KATL 222352Z 15003KT 10SM SCT200 BKN250 17/04 A3013 RMK AO2 SLP204 T01670039 10233 20167 55002=
202210222252 METAR KATL 222252Z 16003KT 9SM FEW180 SCT250 19/04 A3013 RMK AO2 SLP201 T01890039=
202210222152 METAR KATL 222152Z 15006KT 10SM FEW200 BKN250 22/02 A3014 RMK AO2 SLP203 T02220022=
202210222052 METAR KATL 222052Z 20004KT 10SM FEW200 BKN250 22/02 A3014 RMK AO2 SLP205 T02170017 56016=
202210221952 METAR KATL 221952Z 15005KT 10SM FEW200 SCT250 23/02 A3015 RMK AO2 SLP205 T02330022=
202210221852 METAR KATL 221852Z VRB04KT 10SM FEW200 FEW250 23/02 A3016 RMK AO2 SLP209 T02280022=
202210221752 METAR KATL 221752Z VRB03KT 10SM FEW200 FEW250 22/02 A3019 RMK AO2 SLP221 T02170017 10217 20072 58017=
202210221652 METAR KATL 221652Z VRB03KT 10SM FEW200 FEW250 21/02 A3022 RMK AO2 SLP232 T02110022=
202210221552 METAR KATL 221552Z 16004KT 10SM FEW250 19/02 A3024 RMK AO2 SLP240 T01940017=
202210221452 METAR KATL 221452Z 00000KT 10SM SCT250 17/03 A3024 RMK AO2 SLP239 T01670028 53013=
202210221352 METAR KATL 221352Z 11005KT 10SM BKN250 13/02 A3023 RMK AO2 SLP235 T01330017=
202210221252 METAR KATL 221252Z 10005KT 10SM FEW150 BKN250 11/03 A3021 RMK AO2 SLP230 T01110028=
202210221152 METAR KATL 221152Z 07003KT 10SM FEW150 SCT200 07/03 A3020 RMK AO2 SLP228 T00720028 10111 20072 51018=
202210221052 METAR KATL 221052Z 00000KT 10SM FEW200 07/03 A3019 RMK AO2 SLP222 T00720033=
202210220952 METAR KATL 220952Z 00000KT 10SM FEW200 08/03 A3017 RMK AO2 SLP213 T00830028=
202210220852 METAR KATL 220852Z 00000KT 10SM FEW200 08/04 A3015 RMK AO2 SLP207 T00780039 50003=
202210220752 METAR KATL 220752Z 06004KT 10SM FEW200 09/03 A3015 RMK AO2 SLP207 T00940033=
202210220652 METAR KATL 220652Z 00000KT 10SM FEW200 10/03 A3014 RMK AO2 SLP206 T01000028=
202210220552 METAR KATL 220552Z 00000KT 10SM CLR 11/03 A3014 RMK AO2 SLP204 T01060028 10156 20100 58002=
202210220452 METAR KATL 220452Z 00000KT 10SM FEW250 11/04 A3014 RMK AO2 SLP205 T01060039 402110056=
202210220352 METAR KATL 220352Z 14003KT 10SM FEW250 12/04 A3015 RMK AO2 SLP208 T01170039=
202210220252 METAR KATL 220252Z 14003KT 10SM FEW250 13/03 A3015 RMK AO2 SLP207 T01280033 53014=
202210220152 METAR KATL 220152Z 16003KT 10SM FEW250 13/03 A3013 RMK AO2 SLP203 T01330033=
202210220052 METAR KATL 220052Z 14004KT 10SM FEW250 14/03 A3012 RMK AO2 SLP199 T01440033=
202210212352 METAR KATL 212352Z 25003KT 10SM FEW250 15/04 A3010 RMK AO2 SLP195 T01500039 10211 20150 53006=
202210212252 METAR KATL 212252Z 25003KT 10SM FEW250 18/02 A3009 RMK AO2 SLP188 T01780022=
202210212152 METAR KATL 212152Z 00000KT 10SM FEW250 21/M01 A3008 RMK AO2 SLP186 T02061006=
202210212052 METAR KATL 212052Z VRB03KT 10SM SCT250 21/M01 A3008 RMK AO2 SLP186 T02111006 55016=
202210211952 METAR KATL 211952Z 00000KT 10SM BKN250 21/M01 A3008 RMK AO2 SLP185 T02061006=
202210211852 METAR KATL 211852Z 15005KT 10SM FEW002 BKN250 19/M01 A3010 RMK AO2 SLP191 FU FEW002 T01941006=
202210211752 METAR KATL 211752Z 00000KT 10SM SCT250 19/M02 A3013 RMK AO2 SLP203 T01891017 10200 20061 58012=
202210211652 METAR KATL 211652Z 00000KT 10SM FEW250 18/M02 A3016 RMK AO2 SLP211 T01831017=
202210211552 METAR KATL 211552Z 02007KT 10SM FEW250 17/M01 A3017 RMK AO2 SLP216 T01721011=
202210211452 METAR KATL 211452Z 32005KT 10SM FEW250 15/01 A3017 RMK AO2 SLP216 T01500006 53019=
202210211352 METAR KATL 211352Z 32005KT 10SM FEW250 12/M01 A3015 RMK AO2 SLP210 T01221011=
202210211252 METAR KATL 211252Z 00000KT 10SM CLR 08/00 A3012 RMK AO2 SLP202 T00830000=
202210211152 METAR KATL 211152Z 30004KT 10SM CLR 06/M01 A3011 RMK AO2 SLP198 T00611006 10078 20056 51015=
202210211052 METAR KATL 211052Z 32005KT 10SM CLR 06/00 A3010 RMK AO2 SLP194 T00610000=
202210210952 METAR KATL 210952Z 32006KT 10SM CLR 06/00 A3008 RMK AO2 SLP187 T00610000=
202210210852 METAR KATL 210852Z 32007KT 10SM CLR 07/M01 A3006 RMK AO2 SLP181 T00671006 58001=
202210210752 METAR KATL 210752Z 32004KT 10SM CLR 07/00 A3007 RMK AO2 SLP181 T00670000=
202210210652 METAR KATL 210652Z 32004KT 10SM CLR 07/M01 A3007 RMK AO2 SLP182 T00721006=
202210210552 METAR KATL 210552Z 29004KT 10SM CLR 07/01 A3007 RMK AO2 SLP183 T00720006 10133 20072 51002=
202210210452 METAR KATL 210452Z 32003KT 10SM CLR 08/00 A3007 RMK AO2 SLP182 T00780000 401780028=
202210210352 METAR KATL 210352Z 29003KT 10SM CLR 08/01 A3007 RMK AO2 SLP183 T00830006=
202210210252 METAR KATL 210252Z 29003KT 10SM CLR 09/00 A3006 RMK AO2 SLP180 T00890000 53011=
202210210152 METAR KATL 210152Z 31003KT 10SM CLR 10/00 A3005 RMK AO2 SLP177 T01000000=
202210210052 METAR KATL 210052Z 33005KT 10SM CLR 12/M02 A3004 RMK AO2 SLP174 T01171022=
202210202352 METAR KATL 202352Z 31007G15KT 10SM CLR 13/M04 A3003 RMK AO2 SLP171 T01331039 10178 20128 53004=
202210202252 METAR KATL 202252Z 27004KT 10SM FEW250 15/M03 A3001 RMK AO2 SLP165 T01501033=
202210202152 METAR KATL 202152Z 30005KT 10SM FEW250 16/M04 A3002 RMK AO2 SLP165 T01611039=
202210202052 METAR KATL 202052Z 30009KT 10SM FEW200 FEW250 17/M06 A3001 RMK AO2 SLP164 T01671056 56023=
202210201952 METAR KATL 201952Z 31008KT 10SM FEW200 18/M04 A3003 RMK AO2 SLP169 T01781044=
202210201852 METAR KATL 201852Z 27009G16KT 10SM FEW200 17/M04 A3005 RMK AO2 SLP177 T01721039=
202210201752 METAR KATL 201752Z 26007KT 10SM FEW200 16/M03 A3008 RMK AO2 SLP188 T01611033 10161 20028 58016=
202210201652 METAR KATL 201652Z 26007G19KT 10SM SCT200 14/M06 A3012 RMK AO2 SLP199 T01441061=
202210201552 METAR KATL 201552Z 29008KT 10SM SCT200 14/M04 A3013 RMK AO2 SLP204 T01441044=
202210201452 METAR KATL 201452Z 33005KT 10SM SCT200 12/M03 A3013 RMK AO2 SLP205 T01221033 51009=
202210201352 METAR KATL 201352Z 33005KT 10SM FEW200 09/M02 A3013 RMK AO2 SLP204 T00941017=
202210201252 METAR KATL 201252Z 30003KT 10SM FEW200 FEW250 06/M02 A3012 RMK AO2 SLP202 T00611017=
202210201152 METAR KATL 201152Z 00000KT 10SM FEW200 FEW250 04/M02 A3011 RMK AO2 SLP198 T00391022 10067 20033 57001=
202210201052 METAR KATL 201052Z 32003KT 10SM FEW250 04/M02 A3011 RMK AO2 SLP198 T00391017=
202210200952 METAR KATL 200952Z 31004KT 10SM FEW250 04/M02 A3010 RMK AO2 SLP196 T00441022=
202210200852 METAR KATL 200852Z 35005KT 10SM SCT250 06/M03 A3011 RMK AO2 SLP196 T00561033 58003=
202210200752 METAR KATL 200752Z 34005KT 10SM SCT250 05/M02 A3011 RMK AO2 SLP199 T00501022=
202210200652 METAR KATL 200652Z 33007KT 10SM CLR 06/M02 A3012 RMK AO2 SLP200 T00611022=
202210200552 METAR KATL 200552Z 33009KT 10SM FEW250 07/M02 A3012 RMK AO2 SLP200 T00671022 10117 20061 58006=
202210200452 METAR KATL 200452Z 32008KT 10SM FEW250 07/M02 A3013 RMK AO2 SLP206 T00671022 401560022=
202210200352 METAR KATL 200352Z 32008KT 10SM FEW250 08/M02 A3014 RMK AO2 SLP208 T00781017=
202210200252 METAR KATL 200252Z 33008KT 10SM FEW250 08/M01 A3014 RMK AO2 SLP208 T00831006 51010=
202210200152 METAR KATL 200152Z 32007KT 10SM CLR 09/M01 A3013 RMK AO2 SLP205 T00941011=
202210200052 METAR KATL 200052Z 29005KT 10SM CLR 10/M01 A3012 RMK AO2 SLP204 T01001006=
202210192352 METAR KATL 192352Z 31004KT 10SM CLR 11/M01 A3011 RMK AO2 SLP198 T01111011 10156 20111 53004=
202210192252 METAR KATL 192252Z 30006KT 10SM CLR 13/M02 A3010 RMK AO2 SLP195 T01281017=
202210192152 METAR KATL 192152Z 33010KT 10SM CLR 14/M02 A3009 RMK AO2 SLP191 T01441022=
202210192052 METAR KATL 192052Z 34013G16KT 10SM CLR 16/M02 A3009 RMK AO2 SLP192 T01561022 55009=
202210191952 METAR KATL 191952Z 33007G22KT 10SM CLR 15/M02 A3009 RMK AO2 SLP190 T01501022=
202210191852 METAR KATL 191852Z 29009G18KT 10SM CLR 14/M03 A3011 RMK AO2 SLP196 T01441028=
202210191752 METAR KATL 191752Z 35015G21KT 10SM CLR 13/M04 A3012 RMK AO2 SLP203 T01331039 10139 20028 58010=
202210191652 METAR KATL 191652Z 01011G18KT 10SM CLR 12/M04 A3015 RMK AO2 SLP212 T01221044=
202210191552 METAR KATL 191552Z 35009KT 10SM CLR 11/M04 A3016 RMK AO2 SLP215 T01111039=
202210191452 METAR KATL 191452Z 36013G18KT 10SM CLR 09/M03 A3015 RMK AO2 SLP214 T00891033 51017=
202210191352 METAR KATL 191352Z 35009KT 10SM CLR 07/M02 A3015 RMK AO2 SLP212 T00671022=
202210191252 METAR KATL 191252Z 31007KT 10SM CLR 04/M02 A3012 RMK AO2 SLP204 T00441017=
202210191152 METAR KATL 191152Z 32005KT 10SM CLR 03/M02 A3010 RMK AO2 SLP198 T00281022 10050 20022 53012=
202210191052 METAR KATL 191052Z 32007KT 10SM CLR 03/M02 A3009 RMK AO2 SLP193 T00281017=
202210190952 METAR KATL 190952Z 30005KT 10SM CLR 03/M02 A3008 RMK AO2 SLP190 T00281017=
202210190852 METAR KATL 190852Z 33006KT 10SM CLR 03/M02 A3007 RMK AO2 SLP185 T00331017 58002 $=
202210190752 METAR KATL 190752Z 33007KT 10SM CLR 04/M02 A3007 RMK AO2 SLP186 T00391017 $=
202210190652 METAR KATL 190652Z 33007KT 10SM CLR 04/M02 A3007 RMK AO2 SLP188 T00441017 $=
202210190552 METAR KATL 190552Z 33008KT 10SM CLR 04/M01 A3007 RMK AO2 SLP187 T00441011 10083 20039 51004 $=
202210190452 METAR KATL 190452Z 32005KT 10SM CLR 04/M01 A3007 RMK AO2 SLP186 T00391011 401220039 $=
202210190352 METAR KATL 190352Z 32007KT 10SM CLR 06/M01 A3007 RMK AO2 SLP187 T00561011 $=
202210190252 METAR KATL 190252Z 34009KT 10SM FEW060 06/M02 A3006 RMK AO2 SLP183 T00611017 51017 $=
202210190152 METAR KATL 190152Z 35009KT 10SM FEW060 07/M02 A3004 RMK AO2 SLP177 T00721022 $=
202210190052 METAR KATL 190052Z 33006KT 10SM FEW060 FEW250 08/M03 A3003 RMK AO2 SLP173 T00781028 $=
202210182352 METAR KATL 182352Z 34008KT 10SM FEW060 FEW250 08/M03 A3001 RMK AO2 SLP166 T00831033 10122 20083 53015 $=
202210182252 METAR KATL 182252Z 36012KT 10SM FEW060 FEW250 10/M04 A2998 RMK AO2 SLP156 T01001044 $=
202210182152 METAR KATL 182152Z 35012KT 10SM FEW060 FEW250 10/M04 A2998 RMK AO2 PK WND 34027/2103 SLP154 T01001044 $=
202210182052 METAR KATL 182052Z 01012G27KT 10SM FEW060 FEW200 11/M04 A2996 RMK AO2 PK WND 01029/2038 SLP149 T01111044 53003=
202210181952 METAR KATL 181952Z 35018G35KT 10SM FEW065 FEW200 12/M05 A2994 RMK AO2 PK WND 01035/1950 SLP141 T01171050=
202210181852 METAR KATL 181852Z 35015G26KT 10SM FEW065 FEW200 11/M05 A2994 RMK AO2 PK WND 36028/1808 SLP140 T01111050=
202210181752 METAR KATL 181752Z 36013G24KT 10SM FEW065 11/M05 A2995 RMK AO2 PK WND 32028/1717 SLP144 T01061050 10111 20044 58006=
202210181652 METAR KATL 181652Z 32015G21KT 10SM FEW070 09/M04 A2996 RMK AO2 SLP147 T00941044=
202210181552 METAR KATL 181552Z 36014KT 10SM FEW065 09/M06 A2997 RMK AO2 SLP150 T00891056=
202210181452 METAR KATL 181452Z 34015G24KT 10SM CLR 07/M06 A2997 RMK AO2 SLP150 T00721056 51019=
202210181352 METAR KATL 181352Z 35012G23KT 10SM CLR 06/M06 A2997 RMK AO2 SLP148 T00611056=
202210181252 METAR KATL 181252Z 34013G19KT 10SM CLR 05/M06 A2995 RMK AO2 SLP141 T00501056 $=
202210181152 METAR KATL 181152Z 34014KT 10SM FEW002 04/M06 A2992 RMK AO2 SLP131 FU FEW002 T00441056 10106 20044 53019 $=
202210181145 SPECI KATL 181145Z 34012KT 10SM FEW002 04/M06 A2992 RMK AO2 FU FEW002 T00441056 $=
202210181052 METAR KATL 181052Z 34014G19KT 10SM CLR 05/M06 A2990 RMK AO2 SLP123 T00501056=
202210180952 METAR KATL 180952Z 35012G21KT 10SM CLR 06/M06 A2987 RMK AO2 SLP113 T00561056=
202210180852 METAR KATL 180852Z 34014G22KT 10SM CLR 07/M06 A2986 RMK AO2 SLP109 T00671056 51003=
202210180752 METAR KATL 180752Z 35018G31KT 10SM CLR 08/M06 A2986 RMK AO2 PK WND 36031/0733 SLP107 T00781056=
202210180652 METAR KATL 180652Z 01015G24KT 10SM CLR 09/M03 A2986 RMK AO2 SLP107 T00941033=
202210180552 METAR KATL 180552Z 34014G19KT 10SM CLR 11/M01 A2985 RMK AO2 PK WND 36027/0533 SLP104 T01061011 10183 20106 51003=
202210180452 METAR KATL 180452Z 35013KT 10SM CLR 12/01 A2985 RMK AO2 PK WND 34027/0402 SLP102 T01170011 402500117=
202210180352 METAR KATL 180352Z 33015G24KT 10SM CLR 13/01 A2985 RMK AO2 SLP103 T01330011=
202210180252 METAR KATL 180252Z 34014G21KT 10SM CLR 14/03 A2984 RMK AO2 SLP101 T01440028 53010=
202210180152 METAR KATL 180152Z 33014G19KT 10SM FEW250 16/04 A2983 RMK AO2 SLP096 T01560044=
202210180052 METAR KATL 180052Z 33011KT 10SM FEW250 17/05 A2982 RMK AO2 SLP093 T01720050=
202210172352 METAR KATL 172352Z 33016G26KT 10SM FEW050 FEW250 18/06 A2981 RMK AO2 PK WND 35026/2349 SLP090 T01830061 10250 20183 53010=
202210172252 METAR KATL 172252Z 33011KT 10SM FEW050 FEW250 20/08 A2979 RMK AO2 SLP083 T02000083=
202210172152 METAR KATL 172152Z 30013G22KT 10SM SCT050 SCT250 23/09 A2978 RMK AO2 SLP078 T02280094=
202210172052 METAR KATL 172052Z 27012G26KT 10SM SCT050 SCT250 24/11 A2978 RMK AO2 PK WND 30026/2043 WSHFT 1946 SLP077 MDT CU ALQDS T02440111 56020=
202210172006 SPECI KATL 172006Z 29011KT 10SM SCT045 SCT055 24/13 A2979 RMK AO2 WSHFT 1946 MDT CU ALQDS T02440133=
202210171952 METAR KATL 171952Z 32013G25KT 10SM SCT047 SCT055 24/13 A2979 RMK AO2 SLP080 MDT CU ALQDS T02440133=
202210171852 METAR KATL 171852Z 30013G21KT 10SM SCT040 BKN055 24/14 A2980 RMK AO2 SLP086 MDT CU ALQDS T02390139=
202210171752 METAR KATL 171752Z 33012G21KT 10SM SCT038 SCT046 23/14 A2984 RMK AO2 SLP099 MDT CU ALQDS T02330139 10244 20167 58017=
202210171652 METAR KATL 171652Z 29008KT 10SM BKN034 BKN150 22/14 A2987 RMK AO2 SLP109 MDT CU S NW-N T02220144=
202210171552 METAR KATL 171552Z 29011KT 10SM SCT027 SCT250 22/14 A2988 RMK AO2 SLP112 T02220144=
202210171452 METAR KATL 171452Z 32009KT 10SM FEW024 FEW150 BKN250 21/14 A2989 RMK AO2 SLP116 T02110144 50000=
202210171352 METAR KATL 171352Z 31008KT 10SM FEW150 BKN250 18/13 A2990 RMK AO2 SLP119 T01830133=
202210171252 METAR KATL 171252Z 28007KT 10SM FEW120 BKN150 BKN200 17/12 A2990 RMK AO2 SLP117 T01720122=
202210171152 METAR KATL 171152Z 29006KT 10SM SCT130 BKN170 17/12 A2989 RMK AO2 SLP116 T01720122 10178 20161 56001 $=
202210171052 METAR KATL 171052Z 26004KT 10SM BKN120 BKN180 18/12 A2989 RMK AO2 SLP115 T01780117=
202210170952 METAR KATL 170952Z 25003KT 10SM SCT140 BKN180 BKN250 17/12 A2989 RMK AO2 SLP113 T01720117=
202210170852 METAR KATL 170852Z 28004KT 10SM BKN130 BKN250 18/12 A2989 RMK AO2 SLP115 T01780117 56015=
202210170752 METAR KATL 170752Z 29007KT 10SM BKN130 BKN250 18/12 A2991 RMK AO2 SLP119 T01780117=
202210170652 METAR KATL 170652Z 27003KT 10SM SCT150 BKN250 17/12 A2992 RMK AO2 SLP124 T01670122=
202210170552 METAR KATL 170552Z 28005KT 10SM FEW200 SCT250 17/12 A2994 RMK AO2 SLP130 T01720117 10222 20172 58012=
202210170452 METAR KATL 170452Z 29004KT 10SM FEW200 BKN250 17/12 A2995 RMK AO2 SLP134 T01720122 402780122=
202210170352 METAR KATL 170352Z 27005KT 10SM FEW200 BKN250 19/12 A2997 RMK AO2 SLP140 T01940122=
202210170252 METAR KATL 170252Z 23005KT 10SM SCT150 BKN200 BKN250 19/13 A2997 RMK AO2 SLP143 T01940128 50001=
202210170152 METAR KATL 170152Z 26003KT 10SM FEW200 BKN250 21/13 A2998 RMK AO2 SLP144 T02060128=
202210170052 METAR KATL 170052Z 30004KT 10SM FEW180 BKN250 21/13 A2998 RMK AO2 SLP148 T02110128=
202210162352 METAR KATL 162352Z 25004KT 10SM FEW180 BKN250 22/13 A2997 RMK AO2 SLP143 T02220128 10278 20222 56012=
202210162252 METAR KATL 162252Z 23004KT 10SM SCT180 BKN250 24/12 A2998 RMK AO2 SLP146 T02390122=
202210162152 METAR KATL 162152Z 29006KT 10SM SCT180 BKN250 26/11 A2999 RMK AO2 SLP149 T02560111=
202210162052 METAR KATL 162052Z 26004KT 10SM FEW180 BKN250 27/12 A3001 RMK AO2 SLP154 T02670117 56021=
202210161952 METAR KATL 161952Z 24006KT 10SM FEW180 BKN250 27/12 A3001 RMK AO2 SLP157 T02720117=
202210161852 METAR KATL 161852Z 28007KT 10SM FEW180 BKN250 27/11 A3004 RMK AO2 SLP164 T02720106 $=
202210161752 METAR KATL 161752Z 24008KT 10SM FEW180 SCT250 27/09 A3007 RMK AO2 SLP175 T02670094 10272 20133 58017 $=
202210161652 METAR KATL 161652Z 28007KT 10SM FEW180 SCT250 27/10 A3009 RMK AO2 SLP182 T02670100 $=
202210161552 METAR KATL 161552Z 24005KT 10SM FEW180 SCT250 25/11 A3011 RMK AO2 SLP188 T02500106 $=
202210161452 METAR KATL 161452Z 25006KT 10SM SCT250 23/10 A3012 RMK AO2 SLP192 T02330100 50005 $=
202210161352 METAR KATL 161352Z 24004KT 10SM FEW180 SCT250 21/11 A3013 RMK AO2 SLP195 T02110106 $=
202210161252 METAR KATL 161252Z 00000KT 10SM FEW150 SCT200 SCT250 16/11 A3011 RMK AO2 SLP191 T01610106 $=
202210161152 METAR KATL 161152Z 30005KT 10SM FEW150 SCT200 SCT250 14/09 A3011 RMK AO2 SLP190 T01390089 10167 20122 53001 $=
202210161052 METAR KATL 161052Z 00000KT 10SM FEW250 13/09 A3010 RMK AO2 SLP187 T01330089 $=
202210160952 METAR KATL 160952Z 29003KT 10SM FEW250 13/09 A3010 RMK AO2 SLP188 T01330094 $=
202210160852 METAR KATL 160852Z 29003KT 10SM FEW250 14/10 A3010 RMK AO2 SLP188 T01390100 55003 $=
202210160752 METAR KATL 160752Z 00000KT 10SM BKN250 14/10 A3010 RMK AO2 SLP186 T01390100 $=
202210160652 METAR KATL 160652Z 00000KT 10SM SCT250 15/10 A3011 RMK AO2 SLP190 T01500100 $=
202210160552 METAR KATL 160552Z 00000KT 10SM SCT250 17/09 A3011 RMK AO2 SLP190 T01670089 10206 20161 55001 $=
202210160452 METAR KATL 160452Z 26003KT 10SM SCT250 17/09 A3010 RMK AO2 SLP187 T01720089 402720106 $=
202210160352 METAR KATL 160352Z 00000KT 10SM FEW250 18/08 A3011 RMK AO2 SLP191 T01780083 $=
202210160252 METAR KATL 160252Z 25004KT 10SM FEW250 18/09 A3011 RMK AO2 SLP191 T01830089 53001 $=
202210160152 METAR KATL 160152Z 23004KT 10SM FEW250 19/09 A3011 RMK AO2 SLP192 T01890094 $=
202210160052 METAR KATL 160052Z 23003KT 10SM FEW250 19/10 A3011 RMK AO2 SLP193 T01890100 $=
202210152352 METAR KATL 152352Z 23003KT 10SM SCT250 21/09 A3011 RMK AO2 SLP195 T02060094 10272 20206 53003 $=
202210152252 METAR KATL 152252Z 24003KT 10SM BKN250 23/09 A3010 RMK AO2 SLP190 T02330089 $=
202210152152 METAR KATL 152152Z 24007KT 10SM BKN250 26/07 A3010 RMK AO2 SLP188 T02560072 $=
202210152052 METAR KATL 152052Z 29008KT 10SM SCT250 27/08 A3010 RMK AO2 SLP187 T02720083 55010 $=
202210151952 METAR KATL 151952Z 24006KT 10SM FEW250 27/08 A3010 RMK AO2 SLP187 T02720083 $=
202210151852 METAR KATL 151852Z 24006KT 10SM FEW250 27/08 A3011 RMK AO2 SLP189 T02670078 $=
202210151752 METAR KATL 151752Z 27006G15KT 10SM FEW250 26/08 A3013 RMK AO2 SLP198 T02610078 10261 20106 58009 $=
202210151652 METAR KATL 151652Z 25009KT 10SM FEW250 24/08 A3015 RMK AO2 SLP205 T02440083 $=
202210151552 METAR KATL 151552Z 27008KT 10SM FEW250 23/08 A3016 RMK AO2 SLP206 T02330078 $=
202210151452 METAR KATL 151452Z 23007KT 10SM FEW250 20/08 A3016 RMK AO2 SLP210 T02000078 51017 $=
202210151352 METAR KATL 151352Z 23005KT 10SM FEW250 17/08 A3015 RMK AO2 SLP208 T01720078 $=
202210151252 METAR KATL 151252Z 20003KT 10SM CLR 13/08 A3013 RMK AO2 SLP199 T01330078 $=
202210151152 METAR KATL 151152Z 19003KT 10SM CLR 11/08 A3011 RMK AO2 SLP194 T01060078 10139 20106 53012 $=
202210151052 METAR KATL 151052Z 16004KT 10SM CLR 11/07 A3010 RMK AO2 SLP189 T01110072 $=
202210150952 METAR KATL 150952Z 00000KT 10SM CLR 11/08 A3008 RMK AO2 SLP184 T01110078 $=
202210150852 METAR KATL 150852Z 24003KT 10SM CLR 11/08 A3008 RMK AO2 SLP180 T01110078 51003 $=
202210150752 METAR KATL 150752Z 00000KT 10SM CLR 12/08 A3007 RMK AO2 SLP180 T01170078 $=
202210150652 METAR KATL 150652Z 00000KT 10SM CLR 12/08 A3007 RMK AO2 SLP180 T01170083 $=
202210150552 METAR KATL 150552Z 25003KT 10SM CLR 13/07 A3007 RMK AO2 SLP177 T01330072 10183 20128 51008 $=
202210150452 METAR KATL 150452Z 20004KT 10SM CLR 13/08 A3006 RMK AO2 SLP177 T01280078 402390094 $=
202210150352 METAR KATL 150352Z 25003KT 10SM CLR 15/07 A3005 RMK AO2 SLP173 T01500067 $=
202210150252 METAR KATL 150252Z 24005KT 10SM CLR 16/07 A3004 RMK AO2 SLP169 T01560067 53015 $=
202210150152 METAR KATL 150152Z 25004KT 10SM CLR 16/07 A3002 RMK AO2 SLP164 T01560072 $=
202210150052 METAR KATL 150052Z 24003KT 10SM CLR 16/07 A3001 RMK AO2 SLP161 T01610072 $=
202210142352 METAR KATL 142352Z 25003KT 10SM CLR 18/06 A3000 RMK AO2 SLP156 T01830061 10239 20183 52006 $=
202210142252 METAR KATL 142252Z 25006KT 10SM CLR 21/04 A2999 RMK AO2 SLP153 T02060039 $=
202210142152 METAR KATL 142152Z VRB06KT 10SM CLR 22/03 A2998 RMK AO2 SLP150 T02220033 $=
202210142052 METAR KATL 142052Z 32011KT 10SM CLR 23/02 A2998 RMK AO2 SLP147 T02330022 56014=
202210141952 METAR KATL 141952Z VRB04KT 10SM CLR 23/04 A2998 RMK AO2 SLP147 T02330039=
202210141852 METAR KATL 141852Z VRB06KT 10SM CLR 22/03 A3000 RMK AO2 SLP153 T02220028=
202210141752 METAR KATL 141752Z 31011KT 10SM CLR 22/03 A3002 RMK AO2 SLP161 T02220028 10228 20094 58008=
202210141652 METAR KATL 141652Z 30005KT 10SM CLR 22/03 A3004 RMK AO2 SLP167 T02170028=
202210141552 METAR KATL 141552Z 21005KT 10SM CLR 21/03 A3004 RMK AO2 SLP169 T02060033=
202210141452 METAR KATL 141452Z VRB03KT 10SM FEW010 18/05 A3004 RMK AO2 SLP169 FU FEW010 T01830050 51017=
202210141352 METAR KATL 141352Z 00000KT 10SM CLR 16/07 A3003 RMK AO2 SLP165 T01610067=
202210141252 METAR KATL 141252Z 00000KT 10SM CLR 12/07 A3001 RMK AO2 SLP161 T01170067=
202210141152 METAR KATL 141152Z 28003KT 10SM CLR 09/06 A2999 RMK AO2 SLP153 T00940056 10117 20094 53015=
202210141052 METAR KATL 141052Z 00000KT 10SM CLR 09/06 A2997 RMK AO2 SLP147 T00940056=
202210140952 METAR KATL 140952Z 29003KT 10SM CLR 10/06 A2996 RMK AO2 SLP142 T01000061=
202210140852 METAR KATL 140852Z 32004KT 10SM CLR 11/06 A2995 RMK AO2 SLP136 T01060061 58001=
202210140752 METAR KATL 140752Z 33006KT 10SM CLR 11/06 A2995 RMK AO2 SLP139 T01110061=
202210140652 METAR KATL 140652Z 31007KT 10SM CLR 12/06 A2995 RMK AO2 SLP139 T01170061=
202210140552 METAR KATL 140552Z 31005KT 10SM CLR 12/07 A2995 RMK AO2 SLP137 T01220067 10200 20117 51007=
202210140452 METAR KATL 140452Z 31005KT 10SM CLR 13/07 A2994 RMK AO2 SLP136 T01330067 402500133=
202210140352 METAR KATL 140352Z 34008KT 10SM CLR 15/06 A2994 RMK AO2 SLP133 T01500061=
202210140252 METAR KATL 140252Z 32009KT 10SM CLR 16/07 A2993 RMK AO2 SLP130 T01610072 51022=
202210140152 METAR KATL 140152Z 32009KT 10SM CLR 18/08 A2991 RMK AO2 SLP123 T01780078=
202210140052 METAR KATL 140052Z 33009KT 10SM CLR 19/09 A2989 RMK AO2 SLP115 T01890094=
202210132352 METAR KATL 132352Z 32007KT 10SM FEW250 20/12 A2986 RMK AO2 SLP106 T02000122 10250 20200 53012=
202210132252 METAR KATL 132252Z 32009KT 10SM FEW050 FEW250 22/12 A2984 RMK AO2 SLP097 T02220122=
202210132152 METAR KATL 132152Z 30010KT 10SM FEW050 FEW200 23/12 A2982 RMK AO2 SLP092 T02330122=
202210132052 METAR KATL 132052Z 30013G19KT 10SM SCT050 SCT200 SCT250 24/13 A2983 RMK AO2 SLP092 T02390133 56017=
202210131952 METAR KATL 131952Z 32012KT 10SM SCT043 SCT200 SCT250 24/14 A2984 RMK AO2 SLP096 T02440139=
202210131852 METAR KATL 131852Z VRB06KT 10SM SCT035 SCT180 BKN250 23/15 A2985 RMK AO2 SLP103 T02330150=
202210131752 METAR KATL 131752Z 29009KT 10SM SCT014 SCT022 BKN250 22/16 A2988 RMK AO2 SLP111 T02220156 10222 20167 58005=
202210131739 SPECI KATL 131739Z 31007KT 10SM SCT014 SCT023 BKN250 22/16 A2988 RMK AO2 T02170156=
202210131722 SPECI KATL 131722Z 32008KT 10SM SCT015 BKN025 BKN250 21/16 A2989 RMK AO2 T02060156=
202210131652 METAR KATL 131652Z 32009KT 10SM FEW006 BKN012 OVC020 19/16 A2991 RMK AO2 SLP122 T01940156=
202210131552 METAR KATL 131552Z 28010KT 7SM FEW005 OVC011 19/16 A2990 RMK AO2 SLP121 T01890161 $=
202210131452 METAR KATL 131452Z 27010G15KT 3SM SCT005 BKN011 BKN250 19/16 A2989 RMK AO2 SFC VIS 7 SLP117 T01890161 52006=
202210131420 SPECI KATL 131420Z 24006KT 2SM BR SCT003 BKN007 BKN250 18/17 A2989 RMK AO2 SFC VIS 6 T01780167=
202210131352 METAR KATL 131352Z 24006KT 2SM BR BKN003 17/16 A2989 RMK AO2 SFC VIS 4 SLP118 T01720161=
202210131252 METAR KATL 131252Z 28008KT 1SM R09R/P6000FT BR BKN003 BKN250 17/16 A2988 RMK AO2 SFC VIS 4 SLP112 CIG 002V004 TWRINC T01720161=
202210131231 SPECI KATL 131231Z 28005KT 1SM R09R/P6000FT BR BKN004 BKN250 17/16 A2988 RMK AO2 SFC VIS 4 CIG 003V005 T01720161=
202210131152 METAR KATL 131152Z 27008KT 1/2SM R09R/P6000FT BKN004 OVC010 18/17 A2988 RMK AO2 SFC VIS 7 RAE16 SLP111 TWRINC P0001 60048 70111 T01780167 10178 20172 58003=
202210131141 SPECI KATL 131141Z 31003KT 2SM BKN005 BKN060 17/17 A2986 RMK AO2 SFC VIS 7 RAE16 P0001 T01720167=
202210131110 SPECI KATL 131110Z 12008KT 1/2SM R09R/P6000FT -RA BR BKN004 OVC060 17/17 A2984 RMK AO2 SFC VIS 6 CIG 003V005 TWRINC P0001 T01720167 $=
202210131052 METAR KATL 131052Z 05005KT 7SM -RA SCT004 BKN075 OVC100 17/16 A2985 RMK AO2 PRESFR SLP104 TSE00 BINOVC P0019 T01720161 $=
202210131044 SPECI KATL 131044Z 05005KT 7SM RA BKN085 OVC100 18/17 A2987 RMK AO2 TSE00 P0017 T01780167 $=
202210131003 SPECI KATL 131003Z 34005KT 4SM -RA BR FEW006 OVC075 17/17 A2992 RMK AO2 TSE00 TS MOV E LTG DSNT NE-SW CB DSNT NE-SW P0004 T01720167=
202210130952 METAR KATL 130952Z 34007KT 5SM TSRA BR FEW006 SCT015CB OVC095 17/17 A2992 RMK AO2 SLP128 TSB10 OCNL LTGICCC E-SW TS E-SW MOV E LTG DSNT NE CB DSNT NE P0026 T01720167=
202210130945 SPECI KATL 130945Z 35008KT 3SM TSRA BR SCT004 BKN015CB OVC040 17/17 A2992 RMK AO2 TSB10 OCNL LTGICCC OHD-SE-W TS OHD-SE-W MOV E LTG DSNT NE CB DSNT NE P0023 T01720167=
202210130926 SPECI KATL 130926Z 29007KT 3/4SM R09R/P6000FT TSRA BR FEW004 BKN016CB OVC050 18/17 A2993 RMK AO2 SFC VIS 1 3/4 TSB10 OCNL LTGICCC OHD-SW-N TS OHD-SW-N MOV E P0014 T01780172=
202210130911 SPECI KATL 130911Z 32013KT 3/4SM R09R/P6000FT -TSRA BR BKN004 BKN020CB OVC080 18/17 A2992 RMK AO2 SFC VIS 4 PRESRR TSB10 OCNL LTGICCC SW-N TS SW-N MOV E TWRINC P0003 T01780167=
202210130852 METAR KATL 130852Z 00000KT 3/4SM R09R/P6000FT -RA BR BKN004 BKN019 OVC060 18/17 A2988 RMK AO2 SFC VIS 6 RAB14 SLP113 CIG 003V005 TWRINC P0002 60002 T01780167 56022 $=
202210130752 METAR KATL 130752Z 15005KT 1/2SM R09R/P6000FT BR BKN003 OVC008 18/17 A2990 RMK AO2 SFC VIS 6 SLP118 LTG DSNT SW-NW CB DSNT SW-NW TWRINC T01780167 $=
202210130652 METAR KATL 130652Z 15004KT 1/2SM R09R/P6000FT BKN003 BKN040 18/17 A2993 RMK AO2 SFC VIS 7 SLP129 TWRINC T01780167 $=
202210130613 SPECI KATL 130613Z 17003KT 1SM R09R/P6000FT BKN004 BKN025 BKN060 18/17 A2995 RMK AO2 SFC VIS 7 T01780167 $=
202210130552 METAR KATL 130552Z 15003KT 1SM R09R/P6000FT SCT004 BKN025 BKN070 BKN200 18/17 A2995 RMK AO2 SFC VIS 8 SLP137 T01780172 10189 20178 58014 $=
202210130545 SPECI KATL 130545Z 14005KT 1SM R09R/P6000FT SCT004 BKN025 BKN070 BKN200 18/17 A2995 RMK AO2 SFC VIS 8 T01780167 $=
202210130452 METAR KATL 130452Z 11007KT 1/2SM R09R/P6000FT BKN004 BKN025 BKN200 18/17 A2997 RMK AO2 SFC VIS 9 SLP144 T01780172 402220178 $=
202210130352 METAR KATL 130352Z 06008KT 1/2SM R09R/P6000FT BKN003 BKN075 BKN200 18/17 A3000 RMK AO2 SFC VIS 9 SLP151 T01780172 $=
202210130347 SPECI KATL 130347Z 07009KT 1/2SM R09R/P6000FT BKN003 BKN075 BKN200 18/17 A3000 RMK AO2 SFC VIS 9 $=
202210130252 METAR KATL 130252Z 03005KT 10SM FEW075 SCT200 BKN250 18/17 A3000 RMK AO2 SLP153 T01830167 51012 $=
202210130152 METAR KATL 130152Z 29004KT 10SM FEW150 BKN200 BKN250 18/17 A2999 RMK AO2 SLP148 T01830167 $=
202210130052 METAR KATL 130052Z 28003KT 10SM FEW110 SCT150 BKN200 BKN250 18/17 A2999 RMK AO2 SLP150 T01830167 $=
202210122352 METAR KATL 122352Z 20003KT 10SM FEW100 SCT150 BKN200 BKN250 19/17 A2997 RMK AO2 SLP141 60063 T01890167 10217 20189 55042 $=
202210122252 METAR KATL 122252Z 15008G17KT 10SM FEW007 SCT100 BKN140 BKN200 19/18 A2996 RMK AO2 RAE42 TSE15 SLP139 P0011 T01940178 $=
202210122215 SPECI KATL 122215Z 16011G19KT 7SM -RA FEW008 SCT050 BKN090 BKN200 19/18 A3001 RMK AO2 TSE15 PRESFR TS DSIPTD P0009 T01940178 $=
202210122152 METAR KATL 122152Z 18006KT 5SM TSRA BR FEW008 SCT040CB BKN090 OVC150 20/19 A3005 RMK AO2 TSB32 SLP168 OCNL LTGIC SE-SW TS SE-SW MOV NE P0017 T02000189 $=
202210122134 SPECI KATL 122134Z 19004KT 4SM TSRA BR FEW008 SCT040CB BKN090 OVC150 21/19 A3006 RMK AO2 TSB32 OCNL LTGIC SE-SW TS SE-SW MOV NE P0013 T02060194 $=
202210122112 SPECI KATL 122112Z 22007KT 3SM RA BR SCT008 BKN040 BKN090 OVC150 20/19 A3008 RMK AO2 SCT008 V BKN CB DSNT SE P0007 T02000189 $=
202210122052 METAR KATL 122052Z 29006KT 1 1/2SM -RA BR SCT006 BKN027 BKN050 21/19 A3009 RMK AO2 SLP184 CB DSNT S P0026 60035 T02060194 55005 $=
202210122039 SPECI KATL 122039Z 25003KT 1 1/2SM -RA BR SCT006 BKN027 BKN050 21/19 A3009 RMK AO2 CB DSNT SW P0020 T02060194 $=
202210122021 SPECI KATL 122021Z 25003KT 2SM -RA BR SCT006 BKN017 BKN037 21/20 A3009 RMK AO2 LTG DSNT S CB DSNT S P0011 T02060200 $=
202210121952 METAR KATL 121952Z 23004KT 2 1/2SM -RA BR SCT007 BKN018 BKN037 21/20 A3008 RMK AO2 LTG DSNT S-W SLP181 CB DSNT S-W P0005 T02110200=
202210121921 SPECI KATL 121921Z 19003KT 4SM -RA BR SCT007 BKN015 BKN032 21/20 A3008 RMK AO2 LTG DSNT W CB DSNT W P0001 T02110200=
202210121901 SPECI KATL 121901Z 19003KT 4SM -RA BR SCT013 BKN028 OVC048 21/19 A3008 RMK AO2 P0000 T02110194=
202210121852 METAR KATL 121852Z 15003KT 2 1/2SM -RA BR BKN013 BKN028 OVC048 21/19 A3008 RMK AO2 SLP180 P0004 T02110194=
202210121832 SPECI KATL 121832Z 17003KT 2 1/2SM -RA BR BKN012 BKN023 OVC036 21/19 A3010 RMK AO2 P0001 T02110194=
202210121752 METAR KATL 121752Z 19006KT 6SM -RA BKN014 OVC021 22/19 A3011 RMK AO2 RAB41 SLP188 P0000 60000 T02170189 10222 20200 58015=
202210121652 METAR KATL 121652Z 19005KT 7SM BKN011 OVC017 22/18 A3014 RMK AO2 SLP198 T02170183=
202210121552 METAR KATL 121552Z 16008KT 7SM OVC008 22/18 A3015 RMK AO2 SLP203 T02170183 $=
202210121452 METAR KATL 121452Z 14006KT 7SM BKN008 OVC013 21/18 A3015 RMK AO2 SLP205 T02110183 58007=
202210121352 METAR KATL 121352Z 15007KT 5SM BR OVC007 21/18 A3017 RMK AO2 SLP209 T02060183=
202210121252 METAR KATL 121252Z 15007KT 6SM BR OVC007 20/18 A3018 RMK AO2 SLP213 T02000183=
202210121152 METAR KATL 121152Z 15008KT 7SM OVC007 20/18 A3018 RMK AO2 SLP212 60001 70001 T02000178 10206 20200 50004=
202210121052 METAR KATL 121052Z 15007KT 7SM OVC007 20/18 A3019 RMK AO2 SLP214 T02000183=
202210120952 METAR KATL 120952Z 16004KT 7SM OVC007 20/18 A3018 RMK AO2 RAB37E46 SLP211 P0000 T02000183=
202210120852 METAR KATL 120852Z 14007KT 8SM OVC008 20/18 A3017 RMK AO2 RAB28E50 SLP206 P0001 60001 T02000183 58008 $=
202210120752 METAR KATL 120752Z 14006KT 10SM OVC008 20/18 A3017 RMK AO2 SLP210 T02000178 $=
202210120740 SPECI KATL 120740Z 13008G16KT 10SM OVC009 20/18 A3017 RMK AO2 T02000178 $=
202210120652 METAR KATL 120652Z 14007KT 10SM OVC011 21/17 A3018 RMK AO2 SLP213 T02060172 $=
202210120552 METAR KATL 120552Z 12006KT 10SM OVC013 21/17 A3019 RMK AO2 SLP215 T02060167 10228 20194 58006 $=
202210120546 SPECI KATL 120546Z 13009KT 10SM OVC013 21/17 A3019 RMK AO2 $=
202210120452 METAR KATL 120452Z 11006KT 10SM BKN018 BKN040 BKN150 20/16 A3020 RMK AO2 SLP221 T02000156 402610133 $=
202210120352 METAR KATL 120352Z 10009KT 10SM FEW030 SCT150 BKN200 19/15 A3020 RMK AO2 SLP222 T01940150 $=
202210120252 METAR KATL 120252Z 10007KT 10SM FEW045 BKN150 20/15 A3021 RMK AO2 SLP224 T02000150 51007 $=
202210120152 METAR KATL 120152Z 10007KT 10SM FEW045 SCT180 21/15 A3021 RMK AO2 SLP224 T02060150 $=
202210120052 METAR KATL 120052Z 11006KT 10SM SCT180 22/14 A3020 RMK AO2 SLP220 T02170144 $=
202210112352 METAR KATL 112352Z 13003KT 10SM FEW050 SCT200 23/14 A3019 RMK AO2 SLP218 T02280139 10261 20228 55005 $=
202210112252 METAR KATL 112252Z 14006KT 10SM FEW048 FEW250 24/13 A3018 RMK AO2 SLP215 T02440133 $=
202210112152 METAR KATL 112152Z 15009KT 10SM SCT048 SCT250 26/13 A3019 RMK AO2 SLP217 T02560133 $=
202210112052 METAR KATL 112052Z 14008G14KT 10SM SCT047 SCT250 26/13 A3020 RMK AO2 SLP222 T02610133 56023 $=
202210111952 METAR KATL 111952Z 17005KT 10SM SCT042 SCT250 24/14 A3022 RMK AO2 SLP228 T02440139 $=
202210111852 METAR KATL 111852Z 15007KT 10SM SCT039 BKN250 24/14 A3024 RMK AO2 SLP235 T02440144 $=
202210111752 METAR KATL 111752Z 13008KT 10SM BKN033 BKN250 24/14 A3027 RMK AO2 SLP246 T02390144 10239 20150 58016 $=
202210111652 METAR KATL 111652Z 13009KT 10SM SCT030 SCT250 23/15 A3029 RMK AO2 SLP253 T02330150=
202210111552 METAR KATL 111552Z 13007KT 10SM SCT030 SCT250 22/14 A3031 RMK AO2 SLP259 T02170144=
202210111452 METAR KATL 111452Z 11010KT 10SM SCT016 SCT030 19/13 A3032 RMK AO2 SLP263 MDT CU NE T01940133 51016=
202210111450 SPECI KATL 111450Z 10010KT 10SM SCT016 SCT030 19/13 A3032 RMK AO2 MDT CU NE=
202210111352 METAR KATL 111352Z 10009KT 9SM OVC015 17/13 A3031 RMK AO2 SLP260 CIG 013V017 BINOVC T01670128=
202210111252 METAR KATL 111252Z 10010KT 10SM BKN014 16/12 A3029 RMK AO2 SLP253 T01610122=
202210111240 SPECI KATL 111240Z 09010KT 10SM BKN011 16/12 A3029 RMK AO2 T01560122=
202210111152 METAR KATL 111152Z 09009KT 10SM BKN007 15/12 A3027 RMK AO2 SLP247 T01500122 10150 20133 50009=
202210111052 METAR KATL 111052Z 10006KT 10SM BKN008 14/12 A3028 RMK AO2 SLP248 T01390117=
202210111049 SPECI KATL 111049Z 10007KT 10SM BKN008 14/12 A3028 RMK AO2=
202210111033 SPECI KATL 111033Z 08008KT 10SM SCT009 14/12 A3027 RMK AO2 T01390117=
202210110952 METAR KATL 110952Z 09008KT 10SM CLR 14/12 A3026 RMK AO2 SLP241 T01390117=
202210110852 METAR KATL 110852Z 07007KT 10SM CLR 14/12 A3025 RMK AO2 SLP237 T01390117 55000 $=
202210110752 METAR KATL 110752Z 10006KT 10SM CLR 14/11 A3024 RMK AO2 SLP237 T01390111 $=
202210110652 METAR KATL 110652Z 10006KT 10SM CLR 14/11 A3025 RMK AO2 SLP239 T01440106 $=
202210110552 METAR KATL 110552Z 11005KT 10SM CLR 15/10 A3025 RMK AO2 SLP238 T01500100 10211 20150 51001 $=
202210110452 METAR KATL 110452Z 08007KT 10SM CLR 17/08 A3024 RMK AO2 SLP236 T01670078 402440094 $=
202210110352 METAR KATL 110352Z 03005KT 10SM CLR 17/06 A3025 RMK AO2 SLP239 T01720061 $=
202210110252 METAR KATL 110252Z 01008KT 10SM CLR 18/06 A3024 RMK AO2 SLP237 T01830056 51016 $=
202210110152 METAR KATL 110152Z 01006KT 10SM CLR 19/06 A3024 RMK AO2 SLP237 T01890056 $=
202210110052 METAR KATL 110052Z 36009KT 10SM CLR 19/07 A3022 RMK AO2 SLP230 T01940067 $=
202210102352 METAR KATL 102352Z 36010KT 10SM CLR 21/07 A3020 RMK AO2 SLP223 T02110072 10244 20211 53002 $=
202210102252 METAR KATL 102252Z 35006KT 10SM CLR 23/08 A3019 RMK AO2 SLP220 T02280078 $=
202210102152 METAR KATL 102152Z 08004KT 10SM CLR 24/08 A3018 RMK AO2 SLP217 T02390078 $=
202210102052 METAR KATL 102052Z 06006KT 10SM CLR 24/08 A3019 RMK AO2 SLP219 T02440078 56015 $=
202210101952 METAR KATL 101952Z VRB04KT 10SM CLR 24/08 A3019 RMK AO2 SLP220 T02390083 $=
202210101852 METAR KATL 101852Z 09006KT 10SM CLR 23/09 A3021 RMK AO2 SLP225 T02330089 $=
202210101752 METAR KATL 101752Z 01005KT 10SM FEW055 23/09 A3024 RMK AO2 SLP235 T02280094 10228 20094 58010 $=
202210101652 METAR KATL 101652Z 00000KT 10SM FEW050 22/10 A3026 RMK AO2 SLP242 T02170100 $=
202210101552 METAR KATL 101552Z 03007KT 10SM FEW045 20/09 A3026 RMK AO2 SLP244 T02000094 $=
202210101452 METAR KATL 101452Z 01005KT 10SM CLR 18/08 A3027 RMK AO2 SLP245 T01780083 51015 $=
202210101352 METAR KATL 101352Z 34005KT 10SM CLR 14/07 A3025 RMK AO2 SLP243 T01440067 $=
202210101252 METAR KATL 101252Z 32005KT 10SM CLR 12/06 A3024 RMK AO2 SLP238 T01170056 $=
202210101152 METAR KATL 101152Z 34005KT 10SM CLR 09/04 A3022 RMK AO2 SLP233 T00940044 10122 20094 53010 $=
202210101052 METAR KATL 101052Z 34005KT 10SM CLR 09/05 A3022 RMK AO2 SLP230 T00940050 $=
202210100952 METAR KATL 100952Z 34006KT 10SM CLR 10/04 A3019 RMK AO2 SLP221 T01000044 $=
202210100852 METAR KATL 100852Z 35004KT 10SM CLR 11/05 A3019 RMK AO2 SLP219 T01110050 58007 $=
202210100752 METAR KATL 100752Z 32007KT 10SM CLR 11/06 A3020 RMK AO2 SLP221 T01110056 $=
202210100652 METAR KATL 100652Z 33007KT 10SM CLR 12/06 A3021 RMK AO2 SLP226 T01170061 $=
202210100552 METAR KATL 100552Z 33006KT 10SM FEW050 12/07 A3021 RMK AO2 SLP227 T01220067 10183 20122 58002 $=
202210100452 METAR KATL 100452Z 33007KT 10SM FEW050 13/07 A3022 RMK AO2 SLP229 T01330072 402330072 $=
202210100352 METAR KATL 100352Z 34007KT 10SM SCT050 15/07 A3022 RMK AO2 SLP230 T01500072=
202210100252 METAR KATL 100252Z 02006KT 10SM SCT049 17/07 A3022 RMK AO2 SLP229 T01720067 51010=
202210100152 METAR KATL 100152Z 34005KT 10SM FEW050 FEW250 17/08 A3021 RMK AO2 SLP227 T01670078=
202210100052 METAR KATL 100052Z 33007KT 10SM FEW050 FEW250 17/08 A3020 RMK AO2 SLP224 T01720078=
202210092352 METAR KATL 092352Z 33007KT 10SM FEW050 FEW250 18/08 A3018 RMK AO2 SLP220 T01830078 10233 20183 53005=
202210092252 METAR KATL 092252Z 32009KT 10SM FEW055 FEW250 21/07 A3016 RMK AO2 SLP212 T02060072=
202210092152 METAR KATL 092152Z 29008KT 10SM FEW055 FEW250 22/08 A3017 RMK AO2 SLP213 T02220083=
202210092052 METAR KATL 092052Z 00000KT 10SM FEW055 23/08 A3017 RMK AO2 SLP213 T02280078 56016=
202210091952 METAR KATL 091952Z 34004KT 10SM FEW050 23/08 A3017 RMK AO2 SLP214 T02280083=
202210091852 METAR KATL 091852Z 04004KT 10SM FEW045 FEW250 21/09 A3019 RMK AO2 SLP222 T02110089=
202210091752 METAR KATL 091752Z 00000KT 10SM FEW035 FEW250 21/10 A3022 RMK AO2 SLP230 T02110100 10211 20078 58010=
202210091652 METAR KATL 091652Z 10SM SCT027 21/12 A3024 RMK AO2 SLP237 T02060117 $=
202210091552 METAR KATL 091552Z 11003KT 10SM SCT021 18/11 A3025 RMK AO2 SLP241 T01780111 $=
202210091539 SPECI KATL 091539Z 12003KT 10SM SCT016 SCT022 17/11 A3025 RMK AO2 T01720111 $=
202210091526 SPECI KATL 091526Z 00000KT 10SM BKN015 BKN022 17/11 A3025 RMK AO2 T01670111 $=
202210091452 METAR KATL 091452Z 08005KT 10SM BKN013 BKN020 16/09 A3025 RMK AO2 SLP241 T01560094 51013 $=
202210091352 METAR KATL 091352Z 02004KT 10SM OVC010 13/06 A3024 RMK AO2 SLP240 T01280061 $=
202210091317 SPECI KATL 091317Z 01006KT 10SM BKN011 11/05 A3024 RMK AO2 T01060050 $=
202210091252 METAR KATL 091252Z 34006KT 10SM CLR 09/04 A3023 RMK AO2 SLP235 T00940039 $=
202210091152 METAR KATL 091152Z 34007KT 10SM CLR 08/03 A3021 RMK AO2 SLP229 T00780033 10111 20072 51007 $=
202210091052 METAR KATL 091052Z 34006KT 10SM CLR 08/03 A3020 RMK AO2 SLP226 T00780028 $=
202210090952 METAR KATL 090952Z 34007KT 10SM CLR 08/03 A3020 RMK AO2 SLP225 T00830028 $=
202210090852 METAR KATL 090852Z 34008KT 10SM CLR 09/03 A3019 RMK AO2 SLP220 T00890028 58009 $=
202210090752 METAR KATL 090752Z 33008KT 10SM CLR 09/03 A3020 RMK AO2 SLP225 T00940028 $=
202210090652 METAR KATL 090652Z 33006KT 10SM CLR 10/03 A3022 RMK AO2 SLP229 T01000028 $=
202210090552 METAR KATL 090552Z 33007KT 10SM CLR 11/02 A3022 RMK AO2 SLP229 T01110022 10183 20111 58001 $=
202210090452 METAR KATL 090452Z 33007KT 10SM CLR 12/02 A3022 RMK AO2 SLP230 T01170022 402390117 $=
202210090352 METAR KATL 090352Z 32006KT 10SM CLR 12/02 A3022 RMK AO2 SLP230 T01220017 $=
202210090252 METAR KATL 090252Z 34008KT 10SM CLR 14/01 A3022 RMK AO2 SLP230 T01390011 53005 $=
202210090152 METAR KATL 090152Z 36010KT 10SM CLR 15/01 A3021 RMK AO2 SLP228 T01500011 $=
202210090052 METAR KATL 090052Z 35007KT 10SM CLR 17/00 A3021 RMK AO2 SLP227 T01670000 $=
202210082352 METAR KATL 082352Z 34010KT 10SM CLR 18/M01 A3020 RMK AO2 SLP225 T01831006 10239 20183 53008 $=
202210082252 METAR KATL 082252Z 34009KT 10SM FEW250 21/01 A3019 RMK AO2 SLP219 T02060006 $=
202210082152 METAR KATL 082152Z 36011G19KT 10SM FEW250 22/01 A3018 RMK AO2 PK WND 34026/2115 SLP215 T02220011 $=
202210082052 METAR KATL 082052Z 35011KT 10SM FEW250 23/M01 A3018 RMK AO2 SLP213 T02331011 56014 $=
202210081952 METAR KATL 081952Z 33013G19KT 10SM FEW250 24/01 A3018 RMK AO2 SLP214 T02390006 $=
202210081852 METAR KATL 081852Z 35010KT 10SM FEW150 FEW250 23/03 A3020 RMK AO2 SLP221 T02330033 $=
202210081752 METAR KATL 081752Z 33008G16KT 10SM SCT150 SCT250 22/04 A3022 RMK AO2 SLP228 T02220039 10228 20133 58012 $=
202210081652 METAR KATL 081652Z 35010G19KT 10SM SCT150 SCT250 22/04 A3024 RMK AO2 SLP234 T02170044 $=
202210081552 METAR KATL 081552Z 33011G18KT 10SM SCT150 BKN250 21/07 A3025 RMK AO2 SLP238 T02060067 $=
202210081452 METAR KATL 081452Z 35009KT 10SM BKN240 19/08 A3026 RMK AO2 SLP240 T01890083 51013 $=
202210081352 METAR KATL 081352Z 34007KT 10SM FEW150 BKN240 16/09 A3025 RMK AO2 SLP239 T01610094 $=
202210081252 METAR KATL 081252Z 33008KT 10SM FEW150 FEW250 14/09 A3023 RMK AO2 SLP233 T01440094=
202210081152 METAR KATL 081152Z 34008KT 10SM SCT200 SCT250 14/10 A3022 RMK AO2 SLP228 T01390100 10178 20139 51010=
202210081052 METAR KATL 081052Z 34008KT 10SM SCT200 BKN250 14/10 A3021 RMK AO2 SLP224 T01440100=
202210080952 METAR KATL 080952Z 34010KT 10SM FEW200 BKN250 15/11 A3020 RMK AO2 SLP220 T01500106=
202210080852 METAR KATL 080852Z 34010KT 10SM SCT200 BKN250 16/12 A3019 RMK AO2 SLP215 T01560117 53001=
202210080752 METAR KATL 080752Z 33010KT 10SM CLR 16/12 A3018 RMK AO2 SLP213 T01610122=
202210080652 METAR KATL 080652Z 33007KT 10SM FEW200 SCT250 17/12 A3018 RMK AO2 SLP213 T01670117=
202210080552 METAR KATL 080552Z 32006KT 10SM SCT200 SCT250 17/12 A3018 RMK AO2 SLP213 T01720117 10239 20172 50002=
202210080452 METAR KATL 080452Z 33005KT 10SM BKN200 18/11 A3018 RMK AO2 SLP213 T01780111 402890139=
202210080352 METAR KATL 080352Z 34007KT 10SM SCT200 BKN250 18/11 A3018 RMK AO2 SLP212 T01830111=
202210080252 METAR KATL 080252Z 33007KT 10SM SCT200 19/11 A3018 RMK AO2 SLP212 T01940106 51015=
202210080152 METAR KATL 080152Z 34005KT 10SM FEW250 21/10 A3016 RMK AO2 SLP207 T02110100=
202210080052 METAR KATL 080052Z 36008KT 10SM FEW250 23/09 A3015 RMK AO2 SLP203 T02280094=
202210072352 METAR KATL 072352Z 34008KT 10SM FEW250 24/09 A3013 RMK AO2 SLP198 T02390094 10289 20239 53008=
202210072252 METAR KATL 072252Z 34009KT 10SM FEW250 26/09 A3011 RMK AO2 SLP191 T02560089=
202210072152 METAR KATL 072152Z 33009KT 10SM FEW070 FEW250 27/08 A3011 RMK AO2 SLP189 T02720078=
202210072052 METAR KATL 072052Z 35010KT 10SM FEW070 FEW250 28/09 A3011 RMK AO2 SLP188 T02780094 56014=
202210071952 METAR KATL 071952Z 34011KT 10SM FEW070 FEW250 28/10 A3011 RMK AO2 SLP188 T02830100=
202210071852 METAR KATL 071852Z 31010KT 10SM FEW070 FEW250 28/10 A3012 RMK AO2 SLP192 T02830100=
202210071752 METAR KATL 071752Z 27007KT 240V310 10SM FEW065 FEW250 28/11 A3015 RMK AO2 SLP203 T02780111 10283 20144 58012=
202210071652 METAR KATL 071652Z 33010KT 10SM FEW065 FEW250 27/11 A3017 RMK AO2 SLP211 T02720106=
202210071552 METAR KATL 071552Z VRB05KT 10SM FEW250 26/10 A3018 RMK AO2 SLP214 T02560100=
202210071452 METAR KATL 071452Z 29003KT 10SM FEW250 23/08 A3019 RMK AO2 SLP215 T02330078 51010=
202210071352 METAR KATL 071352Z 32003KT 10SM FEW250 21/08 A3019 RMK AO2 SLP216 T02060083=
202210071252 METAR KATL 071252Z 00000KT 10SM CLR 17/09 A3018 RMK AO2 SLP215 T01720089=
202210071152 METAR KATL 071152Z 00000KT 10SM CLR 14/08 A3016 RMK AO2 SLP207 T01440083 10161 20139 51013=
202210071052 METAR KATL 071052Z 30004KT 10SM CLR 14/08 A3015 RMK AO2 SLP203 T01390083=
202210070952 METAR KATL 070952Z 31004KT 10SM CLR 14/09 A3013 RMK AO2 SLP196 T01390089=
202210070852 METAR KATL 070852Z 32004KT 10SM CLR 14/09 A3012 RMK AO2 SLP192 T01440089 58003 $=
202210070752 METAR KATL 070752Z 30004KT 10SM CLR 15/08 A3012 RMK AO2 SLP192 T01500083 $=
202210070652 METAR KATL 070652Z 30004KT 10SM CLR 15/08 A3013 RMK AO2 SLP196 T01500083 $=
202210070552 METAR KATL 070552Z 29003KT 10SM CLR 16/08 A3012 RMK AO2 SLP195 T01560083 10222 20144 58000 $=
202210070452 METAR KATL 070452Z 00000KT 10SM CLR 15/08 A3013 RMK AO2 SLP196 T01500083 402720111 $=
202210070352 METAR KATL 070352Z 31004KT 10SM CLR 17/08 A3013 RMK AO2 SLP196 T01720083 $=
202210070252 METAR KATL 070252Z 35004KT 10SM CLR 19/07 A3012 RMK AO2 SLP195 T01890072 51013 $=
202210070152 METAR KATL 070152Z 32004KT 10SM CLR 19/07 A3011 RMK AO2 SLP193 T01940067 $=
202210070052 METAR KATL 070052Z 30003KT 10SM CLR 19/07 A3010 RMK AO2 SLP190 T01940072 $=
202210062352 METAR KATL 062352Z 31005KT 10SM CLR 22/06 A3009 RMK AO2 SLP185 T02220056 10272 20217 53008 $=
202210062252 METAR KATL 062252Z 32006KT 10SM CLR 24/04 A3007 RMK AO2 SLP180 T02390044 $=
202210062152 METAR KATL 062152Z 33006KT 10SM CLR 26/04 A3007 RMK AO2 SLP177 T02610044=
202210062052 METAR KATL 062052Z 33009KT 10SM FEW250 27/05 A3006 RMK AO2 SLP174 T02670050 56013=
202210061952 METAR KATL 061952Z 31008KT 10SM FEW250 27/07 A3006 RMK AO2 SLP174 T02670072=
202210061852 METAR KATL 061852Z 36008KT 10SM FEW250 26/07 A3008 RMK AO2 SLP179 T02610072=
202210061752 METAR KATL 061752Z 33010KT 10SM FEW250 25/09 A3010 RMK AO2 SLP187 T02500089 10256 20117 58008=
202210061652 METAR KATL 061652Z 33006KT 10SM FEW250 23/09 A3012 RMK AO2 SLP194 T02330089=
202210061556 SPECI KATL 061556Z 32006KT 10SM FEW001 FEW250 22/09 A3013 RMK AO2 FU FEW001 FU PLUME S T02170089=
202210061552 METAR KATL 061552Z 34006KT 10SM FEW250 22/09 A3013 RMK AO2 SLP197 T02220094=
202210061452 METAR KATL 061452Z 33006KT 10SM FEW250 19/08 A3013 RMK AO2 SLP196 T01940083 51012=
202210061352 METAR KATL 061352Z 34005KT 10SM FEW250 17/07 A3012 RMK AO2 SLP196 T01720072=
202210061252 METAR KATL 061252Z 34005KT 10SM FEW200 14/06 A3011 RMK AO2 SLP194 T01390061=
202210061152 METAR KATL 061152Z 34006KT 10SM FEW200 11/06 A3009 RMK AO2 SLP187 T01110061 10139 20111 51012=
202210061052 METAR KATL 061052Z 32006KT 10SM CLR 11/06 A3008 RMK AO2 SLP183 T01110061=
202210060952 METAR KATL 060952Z 32006KT 10SM CLR 12/06 A3007 RMK AO2 SLP178 T01170056=
202210060852 METAR KATL 060852Z 32007KT 10SM CLR 12/06 A3006 RMK AO2 SLP172 T01220056 58001 $=
202210060752 METAR KATL 060752Z 32005KT 10SM FEW200 12/06 A3006 RMK AO2 SLP175 T01220061 $=
202210060652 METAR KATL 060652Z 32007KT 10SM FEW200 13/06 A3007 RMK AO2 SLP175 T01330061 $=
202210060552 METAR KATL 060552Z 32007KT 10SM FEW200 14/07 A3006 RMK AO2 SLP173 T01390067 10206 20139 58005 $=
202210060452 METAR KATL 060452Z 32006KT 10SM FEW200 14/07 A3007 RMK AO2 SLP176 T01440067 402610111 $=
202210060352 METAR KATL 060352Z 32005KT 10SM FEW200 16/06 A3008 RMK AO2 SLP179 T01560061 $=
202210060252 METAR KATL 060252Z 32006KT 10SM FEW200 17/06 A3008 RMK AO2 SLP180 T01670061 51008 $=
202210060152 METAR KATL 060152Z 32007KT 10SM FEW200 18/06 A3007 RMK AO2 SLP180 T01780061 $=
202210060052 METAR KATL 060052Z 33006KT 10SM SCT200 19/06 A3007 RMK AO2 SLP178 T01890056 $=
202210052352 METAR KATL 052352Z 33006KT 10SM BKN200 21/05 A3005 RMK AO2 SLP173 T02060050 10261 20206 53009=
202210052252 METAR KATL 052252Z 33008KT 10SM BKN200 23/04 A3004 RMK AO2 SLP169 T02280039=
202210052152 METAR KATL 052152Z 34009KT 10SM BKN200 24/03 A3003 RMK AO2 SLP164 T02440028=
202210052052 METAR KATL 052052Z 33009G16KT 10SM FEW200 FEW250 26/03 A3002 RMK AO2 SLP162 T02560028 56014=
202210051952 METAR KATL 051952Z 34013G18KT 10SM FEW200 26/02 A3003 RMK AO2 SLP164 T02560022=
202210051852 METAR KATL 051852Z 01012KT 10SM FEW200 26/02 A3005 RMK AO2 SLP168 T02610017=
202210051752 METAR KATL 051752Z 34008KT 10SM FEW200 25/03 A3007 RMK AO2 SLP176 T02500033 10250 20111 58014=
202210051652 METAR KATL 051652Z 33005KT 10SM FEW200 23/06 A3010 RMK AO2 SLP186 T02280056=
202210051552 METAR KATL 051552Z 30006KT 10SM FEW200 21/07 A3010 RMK AO2 SLP188 T02060072=
202210051452 METAR KATL 051452Z 31004KT 10SM FEW200 17/08 A3011 RMK AO2 SLP192 T01720083 51012=
202210051352 METAR KATL 051352Z 32005KT 10SM FEW200 15/08 A3010 RMK AO2 SLP191 T01500083=
202210051252 METAR KATL 051252Z 32008KT 10SM FEW200 13/08 A3009 RMK AO2 SLP186 T01280078=
202210051152 METAR KATL 051152Z 32007KT 10SM FEW200 11/08 A3007 RMK AO2 SLP181 T01110078 10144 20111 53007=
202210051052 METAR KATL 051052Z 32006KT 10SM CLR 11/08 A3007 RMK AO2 SLP178 T01110083=
202210050952 METAR KATL 050952Z 33004KT 10SM CLR 12/09 A3006 RMK AO2 SLP175 T01170089=
202210050852 METAR KATL 050852Z 33004KT 10SM CLR 12/09 A3005 RMK AO2 SLP172 T01220094 56005=
202210050752 METAR KATL 050752Z 32007KT 10SM CLR 13/09 A3006 RMK AO2 SLP173 T01280094=
202210050652 METAR KATL 050652Z 31004KT 10SM CLR 13/10 A3006 RMK AO2 SLP174 T01330100=
202210050552 METAR KATL 050552Z 33005KT 10SM CLR 14/10 A3007 RMK AO2 SLP178 T01440100 10206 20144 58001=
202210050452 METAR KATL 050452Z 33005KT 10SM CLR 15/10 A3007 RMK AO2 SLP179 T01500100 402500144=
202210050352 METAR KATL 050352Z 32004KT 10SM CLR 16/11 A3007 RMK AO2 SLP179 T01610106=
202210050252 METAR KATL 050252Z 33005KT 10SM FEW250 17/11 A3007 RMK AO2 SLP180 T01670106 51007=
202210050152 METAR KATL 050152Z 34005KT 10SM FEW250 18/11 A3007 RMK AO2 SLP177 T01830106=
202210050052 METAR KATL 050052Z 33006KT 10SM FEW250 19/10 A3006 RMK AO2 SLP175 T01890100=
202210042352 METAR KATL 042352Z 32005KT 10SM FEW250 21/11 A3005 RMK AO2 SLP172 T02060106 10250 20206 55001=
202210042252 METAR KATL 042252Z 32009KT 10SM FEW250 23/10 A3005 RMK AO2 SLP169 T02280100=
202210042152 METAR KATL 042152Z 32009KT 10SM FEW055 FEW250 24/10 A3005 RMK AO2 SLP168 T02390100=
202210042052 METAR KATL 042052Z 34012KT 10SM SCT050 24/11 A3005 RMK AO2 SLP171 T02440106 56023=
202210041952 METAR KATL 041952Z 32008KT 10SM SCT050 25/11 A3006 RMK AO2 SLP175 T02500111=
202210041852 METAR KATL 041852Z 29010G17KT 10SM SCT048 24/12 A3009 RMK AO2 SLP184 T02390117=
202210041752 METAR KATL 041752Z 31009KT 10SM BKN040 BKN055 23/12 A3012 RMK AO2 SLP195 T02330122 10239 20144 58014=
202210041652 METAR KATL 041652Z VRB03KT 10SM BKN036 BKN048 21/12 A3014 RMK AO2 SLP202 T02110122=
202210041552 METAR KATL 041552Z 34004KT 10SM SCT030 20/12 A3016 RMK AO2 SLP208 T02000117=
202210041452 METAR KATL 041452Z 13005KT 10SM SCT024 SCT048 19/12 A3017 RMK AO2 SLP210 T01890122 51009=
202210041352 METAR KATL 041352Z VRB03KT 10SM FEW020 SCT048 17/12 A3017 RMK AO2 SLP210 T01720122=
202210041252 METAR KATL 041252Z 00000KT 10SM BKN048 16/12 A3016 RMK AO2 SLP207 T01560122=
202210041152 METAR KATL 041152Z 00000KT 10SM SCT050 14/12 A3014 RMK AO2 SLP201 T01440117 10172 20144 51012=
202210041052 METAR KATL 041052Z 15003KT 10SM SCT050 14/12 A3013 RMK AO2 SLP196 T01440117=
202210040952 METAR KATL 040952Z 10005KT 10SM BKN049 15/13 A3012 RMK AO2 SLP193 T01500128=
202210040852 METAR KATL 040852Z 20003KT 10SM FEW044 14/12 A3010 RMK AO2 SLP188 T01440117 58005=
202210040752 METAR KATL 040752Z 00000KT 10SM FEW044 15/12 A3011 RMK AO2 SLP189 T01500122=
202210040652 METAR KATL 040652Z 18004KT 10SM FEW045 16/12 A3012 RMK AO2 SLP193 T01560122=
202210040552 METAR KATL 040552Z 14006KT 10SM FEW045 17/12 A3012 RMK AO2 SLP193 T01720122 10222 20161 50001=
202210040452 METAR KATL 040452Z 11004KT 10SM FEW045 17/12 A3012 RMK AO2 SLP193 T01720122 402560133=
202210040352 METAR KATL 040352Z 03005KT 10SM SCT045 18/12 A3012 RMK AO2 SLP194 T01830122=
202210040252 METAR KATL 040252Z 04006KT 10SM SCT045 19/12 A3012 RMK AO2 SLP192 T01940122 51014=
202210040152 METAR KATL 040152Z 02008KT 10SM SCT050 20/12 A3011 RMK AO2 SLP191 T02000122=
202210040052 METAR KATL 040052Z 35007KT 10SM FEW055 SCT060 21/12 A3009 RMK AO2 SLP183 T02060122=
202210032352 METAR KATL 032352Z 34006KT 10SM SCT055 SCT060 22/12 A3008 RMK AO2 SLP179 T02220122 10256 20222 53004=
202210032252 METAR KATL 032252Z 32006KT 10SM SCT055 SCT060 24/12 A3007 RMK AO2 SLP176 T02390117=
202210032152 METAR KATL 032152Z 34009KT 10SM SCT055 24/11 A3006 RMK AO2 SLP175 SCT055 V BKN T02440111=
202210032052 METAR KATL 032052Z 36005KT 10SM SCT055 24/11 A3006 RMK AO2 SLP174 T02440106 56018=
202210031952 METAR KATL 031952Z 04010KT 10SM SCT055 25/11 A3007 RMK AO2 SLP176 T02500106=
202210031852 METAR KATL 031852Z 09005KT 10SM SCT055 24/11 A3009 RMK AO2 SLP183 T02390111=
202210031752 METAR KATL 031752Z 01005KT 10SM FEW050 23/11 A3012 RMK AO2 SLP193 T02280111 10239 20150 58014 $=
202210031652 METAR KATL 031652Z 09006KT 10SM FEW055 22/11 A3014 RMK AO2 SLP200 T02220111 $=
202210031552 METAR KATL 031552Z 04006KT 10SM FEW055 21/11 A3016 RMK AO2 SLP207 T02110111 $=
202210031452 METAR KATL 031452Z 10SM FEW038 19/11 A3016 RMK AO2 SLP208 T01940106 51010 $=
202210031352 METAR KATL 031352Z 08007KT 10SM FEW001 18/11 A3015 RMK AO2 SLP207 FU FEW001 FU PLUME N T01780106 $=
202210031252 METAR KATL 031252Z 05006KT 10SM CLR 17/11 A3014 RMK AO2 SLP203 T01670106=
202210031152 METAR KATL 031152Z 03005KT 10SM CLR 15/11 A3013 RMK AO2 SLP198 T01500106 10156 20133 53013=
202210031052 METAR KATL 031052Z 36004KT 10SM CLR 14/11 A3011 RMK AO2 SLP193 T01390106=
202210030952 METAR KATL 030952Z 35003KT 10SM FEW046 13/11 A3010 RMK AO2 SLP187 T01330106 $=
202210030852 METAR KATL 030852Z 01007KT 10SM FEW046 14/11 A3009 RMK AO2 SLP183 T01440106 53001 $=
202210030752 METAR KATL 030752Z 01007KT 10SM FEW046 15/11 A3008 RMK AO2 SLP180 T01500106 $=
202210030652 METAR KATL 030652Z 01007KT 10SM FEW050 15/11 A3008 RMK AO2 SLP181 T01500106 $=
202210030552 METAR KATL 030552Z 35006KT 10SM FEW050 16/11 A3009 RMK AO2 SLP182 T01560106 10194 20156 51004 $=
202210030452 METAR KATL 030452Z 01008KT 10SM BKN048 16/11 A3009 RMK AO2 SLP183 T01610106 402500128 $=
202210030352 METAR KATL 030352Z 36010KT 10SM BKN048 17/11 A3009 RMK AO2 SLP183 T01670106 $=
202210030252 METAR KATL 030252Z 35006KT 10SM FEW040 FEW050 17/11 A3007 RMK AO2 SLP180 T01670111 52014 $=
202210030152 METAR KATL 030152Z 34010KT 10SM FEW040 17/11 A3006 RMK AO2 SLP175 T01720106 $=
202210030052 METAR KATL 030052Z 33013KT 10SM FEW042 18/11 A3005 RMK AO2 SLP172 T01830111 $=
202210022352 METAR KATL 022352Z 32013KT 10SM FEW042 19/11 A3003 RMK AO2 SLP167 T01940111 10250 20194 53017 $=
202210022252 METAR KATL 022252Z 32016G22KT 10SM FEW042 22/12 A3001 RMK AO2 SLP158 T02170117 $=
202210022152 METAR KATL 022152Z 32014KT 10SM FEW044 23/12 A3000 RMK AO2 SLP152 T02330117 $=
202210022052 METAR KATL 022052Z 30012KT 10SM FEW044 24/12 A2998 RMK AO2 SLP148 T02440122 55003 $=
202210021952 METAR KATL 021952Z 36009G20KT 10SM FEW044 25/12 A2997 RMK AO2 SLP143 T02500122 $=
202210021852 METAR KATL 021852Z 30009G19KT 10SM FEW044 24/12 A2998 RMK AO2 SLP145 T02390117 $=
202210021752 METAR KATL 021752Z 33012KT 10SM FEW046 23/11 A2999 RMK AO2 SLP150 T02330111 10233 20128 58003 $=
202210021652 METAR KATL 021652Z 33012G17KT 10SM FEW044 21/11 A3000 RMK AO2 SLP153 T02110106 $=
202210021552 METAR KATL 021552Z 32010G20KT 300V020 10SM FEW040 FEW200 21/10 A3000 RMK AO2 SLP155 T02060100 $=
202210021452 METAR KATL 021452Z 33012KT 10SM FEW035 FEW200 19/09 A3000 RMK AO2 SLP154 T01890094 51011 $=
202210021352 METAR KATL 021352Z 35012KT 10SM FEW200 17/09 A2999 RMK AO2 SLP149 T01720094 $=
202210021252 METAR KATL 021252Z 32009KT 10SM FEW060 FEW200 14/09 A2998 RMK AO2 SLP148 T01440094 $=
202210021152 METAR KATL 021152Z 33007KT 10SM FEW060 FEW200 13/09 A2997 RMK AO2 SLP143 T01280094 10156 20128 53007 $=
202210021052 METAR KATL 021052Z 31008KT 10SM CLR 13/09 A2996 RMK AO2 SLP141 T01280094 $=
202210020952 METAR KATL 020952Z 31008KT 10SM CLR 13/10 A2995 RMK AO2 SLP135 T01280100 $=
202210020852 METAR KATL 020852Z 32009KT 10SM CLR 13/10 A2994 RMK AO2 SLP134 T01330100 58004 $=
202210020752 METAR KATL 020752Z 32010KT 10SM CLR 14/11 A2995 RMK AO2 SLP135 T01390106 $=
202210020652 METAR KATL 020652Z 31009KT 10SM CLR 14/11 A2996 RMK AO2 SLP138 T01440111 $=
202210020552 METAR KATL 020552Z 32009KT 10SM CLR 16/11 A2996 RMK AO2 SLP138 T01560106 10211 20156 58002 $=
202210020452 METAR KATL 020452Z 33007KT 10SM CLR 16/10 A2997 RMK AO2 SLP142 T01610100 402610133 $=
202210020352 METAR KATL 020352Z 34011KT 10SM CLR 17/11 A2996 RMK AO2 SLP141 T01720106 $=
202210020252 METAR KATL 020252Z 34007KT 10SM FEW044 18/12 A2996 RMK AO2 SLP141 T01780117 51012 $=
202210020152 METAR KATL 020152Z 36011KT 10SM CLR 19/12 A2995 RMK AO2 SLP138 T01890117 $=
202210020052 METAR KATL 020052Z 35006KT 10SM CLR 20/12 A2994 RMK AO2 SLP136 T02000117 $=
202210012352 METAR KATL 012352Z 36014KT 10SM FEW044 21/11 A2993 RMK AO2 PK WND 34031/2313 SLP130 T02110111 10261 20211 53020 $=
202210012252 METAR KATL 012252Z 35020G29KT 10SM FEW048 23/12 A2990 RMK AO2 PK WND 34032/2239 SLP121 T02280117 $=
202210012152 METAR KATL 012152Z 35014G23KT 10SM SCT048 24/12 A2989 RMK AO2 SLP115 T02440122 $=
202210012052 METAR KATL 012052Z 32019KT 10SM FEW050 26/12 A2987 RMK AO2 SLP108 T02560122 55000 $=
202210011952 METAR KATL 011952Z 31016KT 10SM FEW050 FEW200 26/12 A2985 RMK AO2 SLP103 T02560122 $=
202210011852 METAR KATL 011852Z 30019KT 10SM FEW050 FEW200 26/12 A2986 RMK AO2 PK WND 34026/1815 SLP103 T02560117 $=
202210011752 METAR KATL 011752Z 29016G24KT 10SM FEW050 FEW200 24/11 A2987 RMK AO2 SLP108 T02440111 10244 20133 58004 $=
202210011652 METAR KATL 011652Z 33017G23KT 10SM FEW045 FEW200 23/10 A2988 RMK AO2 SLP110 T02280100 $=
202210011552 METAR KATL 011552Z 31012G21KT 10SM FEW130 FEW200 21/08 A2988 RMK AO2 SLP113 T02060083 $=
202210011452 METAR KATL 011452Z 31016G23KT 10SM FEW130 FEW200 19/08 A2988 RMK AO2 SLP113 T01890078 51016 $=
202210011352 METAR KATL 011352Z 31014KT 10SM FEW130 17/07 A2987 RMK AO2 SLP109 T01670072 $=
202210011252 METAR KATL 011252Z 31014G23KT 10SM FEW120 SCT150 SCT200 14/07 A2985 RMK AO2 SLP105 T01440067 $=
