##########################################################
# Query made at 04/20/2024 00:25:16 UTC
# Time interval: from 12/01/2022 12:00  to 12/31/2022 12:59  UTC
##########################################################

##########################################################
# KATL, Atlanta, Hartsfield - Jackson Atlanta International Airport (United States)
# WMO index: 72219. WIGOS ID: 0-20000-0-72219
# Latitude 33-38-59N. Longitude 084-25-00W. Altitude 312 m.
##########################################################

202212311252 METAR KATL 311252Z 00000KT 6SM BR FEW004 OVC017 14/13 A3002 RMK AO2 SLP162 T01390128 $=
202212311152 METAR KATL 311152Z 07004KT 8SM FEW005 OVC020 14/13 A3001 RMK AO2 SLP158 70003 T01440133 10161 20128 50000 $=
202212311052 METAR KATL 311052Z 09004KT 9SM BKN024 BKN046 BKN110 OVC180 14/13 A3001 RMK AO2 SLP158 T01390128 $=
202212311043 SPECI KATL 311043Z 00000KT 10SM BKN029 BKN046 BKN110 OVC180 14/13 A3001 RMK AO2 T01390128 $=
202212310952 METAR KATL 310952Z 10003KT 10SM SCT085 SCT180 OVC220 13/12 A3002 RMK AO2 SLP163 VIRGA W-N T01330122=
202212310852 METAR KATL 310852Z 09005KT 10SM FEW030 SCT180 OVC220 13/12 A3001 RMK AO2 SLP157 T01330117 56008=
202212310752 METAR KATL 310752Z 09006KT 10SM FEW030 FEW110 SCT150 OVC180 14/12 A3001 RMK AO2 SLP160 T01390117=
202212310652 METAR KATL 310652Z 12004KT 10SM FEW030 SCT110 SCT140 OVC200 16/12 A3001 RMK AO2 SLP159 VIRGA NE-SE-SW T01560122=
202212310552 METAR KATL 310552Z 13006KT 10SM FEW023 SCT110 BKN140 OVC180 15/12 A3003 RMK AO2 SLP166 VIRGA SW-NW 60003 T01500122 10161 20139 56043=
202212310529 SPECI KATL 310529Z 17006KT 10SM FEW014 SCT024 BKN120 OVC200 16/12 A3005 RMK AO2 T01560122=
202212310503 SPECI KATL 310503Z 00000KT 10SM SCT016 BKN026 BKN090 OVC140 15/13 A3006 RMK AO2 T01500128=
202212310452 METAR KATL 310452Z 26004KT 10SM SCT018 SCT080 BKN120 OVC150 16/12 A3006 RMK AO2 RAB12E22 SLP174 P0000 T01560122 401940083=
202212310406 SPECI KATL 310406Z 15008KT 10SM FEW010 FEW016 SCT110 OVC150 15/12 A3005 RMK AO2 T01500122=
202212310352 METAR KATL 310352Z 13008G21KT 10SM FEW008 FEW034 BKN100 OVC150 14/13 A3002 RMK AO2 PK WND 12030/0328 RAE41 SLP165 P0002 T01440128=
202212310321 SPECI KATL 310321Z 12018G26KT 5SM -RA BR SCT047 OVC090 14/13 A3004 RMK AO2 PK WND 12026/0319 PRESFR P0002 T01390128=
202212310316 SPECI KATL 310316Z 12015G22KT 6SM -RA BR OVC090 14/13 A3010 RMK AO2 PRESFR P0001 T01390128=
202212310252 METAR KATL 310252Z 13005KT 6SM -RA BR SCT039 BKN060 OVC100 14/13 A3016 RMK AO2 SLP212 P0001 60001 T01440128 51015=
202212310152 METAR KATL 310152Z 12005KT 10SM -RA SCT048 BKN070 BKN100 OVC150 16/12 A3016 RMK AO2 RAB49 SLP211 P0000 T01560117=
202212310052 METAR KATL 310052Z 09009KT 10SM FEW046 SCT130 BKN160 OVC200 16/12 A3012 RMK AO2 SLP199 VIRGA SW-NW T01560117=
202212302352 METAR KATL 302352Z 09009KT 10SM FEW048 SCT140 BKN180 OVC250 16/12 A3011 RMK AO2 SLP197 VIRGA SW-NW T01560117 10194 20156 51004=
202212302252 METAR KATL 302252Z 09008KT 10SM FEW050 BKN180 OVC250 17/12 A3011 RMK AO2 SLP196 VIRGA SW-NW T01670117=
202212302152 METAR KATL 302152Z 09007KT 10SM BKN180 OVC250 18/12 A3010 RMK AO2 SLP193 T01780117=
202212302052 METAR KATL 302052Z 09010KT 10SM FEW026 SCT200 OVC250 19/12 A3010 RMK AO2 SLP191 T01890117 56027=
202212301952 METAR KATL 301952Z 11007KT 10SM FEW026 BKN200 BKN250 19/12 A3012 RMK AO2 SLP197 T01890122=
202212301852 METAR KATL 301852Z 12006KT 10SM SCT023 BKN200 BKN250 18/12 A3016 RMK AO2 SLP211 T01830122=
202212301752 METAR KATL 301752Z 10005KT 10SM SCT021 SCT200 BKN250 18/12 A3018 RMK AO2 SLP220 T01830117 10189 20083 58019=
202212301740 SPECI KATL 301740Z VRB06KT 10SM SCT019 BKN250 18/11 A3019 RMK AO2 T01830111=
202212301711 SPECI KATL 301711Z 06005KT 10SM BKN020 BKN042 BKN250 17/11 A3021 RMK AO2 T01670111=
202212301652 METAR KATL 301652Z 10007KT 10SM SCT022 SCT042 BKN250 16/11 A3023 RMK AO2 SLP236 T01610106=
202212301626 SPECI KATL 301626Z 11006KT 10SM FEW022 SCT040 SCT250 16/11 A3025 RMK AO2 T01560111=
202212301552 METAR KATL 301552Z 11005KT 9SM FEW009 BKN021 BKN250 13/11 A3024 RMK AO2 SLP242 T01330106=
202212301523 SPECI KATL 301523Z 11008KT 9SM SCT007 BKN021 BKN250 13/10 A3024 RMK AO2 T01280100=
202212301452 METAR KATL 301452Z 10008KT 8SM BKN007 BKN250 12/09 A3024 RMK AO2 SLP241 T01220094 56010=
202212301435 SPECI KATL 301435Z 09007KT 8SM BKN007 BKN250 12/09 A3024 RMK AO2 T01220089=
202212301433 SPECI KATL 301433Z 09007KT 10SM FEW007 12/09 A3024 RMK AO2 T01170089=
202212301352 METAR KATL 301352Z 08010KT 10SM FEW012 BKN250 11/08 A3024 RMK AO2 SLP242 T01060078=
202212301308 SPECI KATL 301308Z 08008KT 10SM SCT012 SCT200 BKN250 09/07 A3026 RMK AO2 T00940072=
202212301252 METAR KATL 301252Z 08007KT 10SM BKN012 BKN200 BKN250 09/07 A3026 RMK AO2 SLP250 BKN012 V SCT T00940067=
202212301229 SPECI KATL 301229Z 08007KT 10SM BKN012 BKN020 BKN250 09/07 A3026 RMK AO2 T00940067=
202212301152 METAR KATL 301152Z 09006KT 10SM BKN019 BKN060 08/06 A3027 RMK AO2 SLP253 BKN019 V SCT T00830056 10100 20083 58001=
202212301052 METAR KATL 301052Z 10006KT 10SM BKN018 BKN025 BKN060 10/07 A3028 RMK AO2 SLP252 T01000067=
202212301018 SPECI KATL 301018Z 06006KT 10SM SCT014 BKN025 BKN060 10/07 A3027 RMK AO2 T01000067=
202212300952 METAR KATL 300952Z 06004KT 10SM SCT028 BKN060 09/06 A3028 RMK AO2 SLP251 T00940061=
202212300949 SPECI KATL 300949Z 06004KT 10SM SCT028 BKN060 09/07 A3028 RMK AO2=
202212300904 SPECI KATL 300904Z 08006KT 10SM BKN024 OVC060 09/06 A3028 RMK AO2 T00940061=
202212300852 METAR KATL 300852Z 07005KT 10SM SCT023 BKN060 09/06 A3028 RMK AO2 SLP251 T00940061 56008=
202212300752 METAR KATL 300752Z 08004KT 10SM SCT065 08/05 A3028 RMK AO2 SLP253 T00830050=
202212300652 METAR KATL 300652Z 07005KT 10SM FEW065 08/05 A3028 RMK AO2 SLP254 T00830050=
202212300552 METAR KATL 300552Z 08006KT 10SM FEW065 09/05 A3030 RMK AO2 SLP262 T00940050 10150 20089 58006=
202212300452 METAR KATL 300452Z 09005KT 10SM FEW060 10/06 A3031 RMK AO2 SLP265 T01000056 401890056 $=
202212300352 METAR KATL 300352Z 09006KT 10SM FEW060 11/06 A3032 RMK AO2 SLP268 T01060056 $=
202212300252 METAR KATL 300252Z 10003KT 10SM FEW060 12/06 A3032 RMK AO2 SLP269 T01170061 51010 $=
202212300152 METAR KATL 300152Z 10005KT 10SM FEW250 12/06 A3032 RMK AO2 SLP269 T01220061 $=
202212300052 METAR KATL 300052Z 11004KT 10SM FEW250 14/06 A3031 RMK AO2 SLP264 T01390061 $=
202212292352 METAR KATL 292352Z 11004KT 10SM FEW250 14/06 A3029 RMK AO2 SLP258 T01390061 10189 20139 53005 $=
202212292252 METAR KATL 292252Z 12004KT 10SM FEW250 16/06 A3028 RMK AO2 SLP255 T01610061 $=
202212292152 METAR KATL 292152Z 13006KT 10SM FEW015 FEW200 18/06 A3027 RMK AO2 SLP251 FU FEW015 T01830061 $=
202212292052 METAR KATL 292052Z 14006KT 10SM FEW200 19/06 A3027 RMK AO2 SLP252 T01890061 55018 $=
202212291952 METAR KATL 291952Z 13008KT 10SM FEW055 FEW200 19/06 A3027 RMK AO2 SLP251 T01890061 $=
202212291852 METAR KATL 291852Z 12008KT 10SM FEW055 FEW200 18/06 A3030 RMK AO2 SLP259 T01780056 $=
202212291752 METAR KATL 291752Z 13006KT 10SM FEW055 FEW250 16/06 A3033 RMK AO2 SLP270 T01610056 10161 20061 58016 $=
202212291652 METAR KATL 291652Z 12005KT 10SM FEW055 FEW200 SCT250 14/05 A3036 RMK AO2 SLP284 T01440050 $=
202212291552 METAR KATL 291552Z 13007KT 10SM FEW048 SCT060 SCT200 SCT250 12/04 A3038 RMK AO2 SLP291 T01170044 $=
202212291452 METAR KATL 291452Z 10008KT 10SM FEW050 SCT065 SCT200 BKN250 10/03 A3038 RMK AO2 SLP288 T01000033 51010 $=
202212291352 METAR KATL 291352Z 10006KT 10SM SCT050 SCT065 BKN200 BKN250 07/01 A3038 RMK AO2 SLP291 T00720011 $=
202212291252 METAR KATL 291252Z 09006KT 10SM BKN050 BKN060 BKN250 06/01 A3036 RMK AO2 SLP286 T00610006 $=
202212291152 METAR KATL 291152Z 08008KT 10SM BKN048 BKN060 07/01 A3034 RMK AO2 SLP279 T00720006 10083 20056 53004 $=
202212291052 METAR KATL 291052Z 07007KT 10SM BKN044 BKN060 07/01 A3034 RMK AO2 SLP276 T00720006 $=
202212290952 METAR KATL 290952Z 08006KT 10SM FEW045 BKN065 07/00 A3033 RMK AO2 SLP272 T00670000 $=
202212290852 METAR KATL 290852Z 08006KT 10SM SCT043 BKN060 06/M01 A3033 RMK AO2 SLP274 T00611006 56000 $=
202212290752 METAR KATL 290752Z 08008KT 10SM BKN041 07/M01 A3034 RMK AO2 SLP275 T00671006 $=
202212290652 METAR KATL 290652Z 08008KT 10SM FEW043 FEW200 07/M01 A3033 RMK AO2 SLP271 T00671011 $=
202212290552 METAR KATL 290552Z 06004KT 10SM BKN038 BKN250 08/M01 A3033 RMK AO2 SLP273 T00831011 10106 20072 53008 $=
202212290452 METAR KATL 290452Z 07008KT 10SM FEW032 SCT060 07/M01 A3032 RMK AO2 SLP271 T00721011 401441011 $=
202212290352 METAR KATL 290352Z 10005KT 10SM FEW032 08/M01 A3031 RMK AO2 SLP267 T00831011 $=
202212290252 METAR KATL 290252Z 11007KT 10SM BKN038 10/M02 A3031 RMK AO2 SLP267 T01001017 51012 $=
202212290152 METAR KATL 290152Z 13003KT 10SM FEW033 SCT045 08/M02 A3031 RMK AO2 SLP268 T00831017 $=
202212290052 METAR KATL 290052Z 14005KT 10SM FEW048 09/M02 A3029 RMK AO2 SLP264 T00941017 $=
202212282352 METAR KATL 282352Z 13005KT 10SM SCT048 11/M02 A3027 RMK AO2 SLP256 T01061022 10144 20106 53003 $=
202212282252 METAR KATL 282252Z 11008KT 10SM FEW040 12/M02 A3026 RMK AO2 SLP253 T01171022=
202212282152 METAR KATL 282152Z 11009KT 10SM CLR 14/M02 A3026 RMK AO2 SLP251 T01391017=
202212282052 METAR KATL 282052Z 18004KT 10SM CLR 14/M02 A3026 RMK AO2 SLP252 T01391017 56019=
202212281952 METAR KATL 281952Z 21006KT 10SM CLR 13/M02 A3027 RMK AO2 SLP254 T01331022=
202212281852 METAR KATL 281852Z 12006KT 10SM CLR 13/M02 A3029 RMK AO2 SLP262 T01281017=
202212281752 METAR KATL 281752Z 18005KT 10SM CLR 12/M02 A3032 RMK AO2 SLP272 T01221022 10122 21011 58009=
202212281652 METAR KATL 281652Z 13005KT 10SM CLR 11/M02 A3035 RMK AO2 SLP281 T01061022=
202212281552 METAR KATL 281552Z 13006KT 10SM CLR 08/M02 A3035 RMK AO2 SLP282 T00831017=
202212281452 METAR KATL 281452Z 13003KT 10SM CLR 05/M02 A3035 RMK AO2 SLP283 T00501022 53016=
202212281352 METAR KATL 281352Z 10004KT 10SM FEW010 FEW250 02/M03 A3033 RMK AO2 SLP280 FU FEW010 T00221033=
202212281252 METAR KATL 281252Z 00000KT 10SM FEW007 M01/M05 A3031 RMK AO2 SLP273 FU FEW007 FU PLUME S T10111050=
202212281152 METAR KATL 281152Z 00000KT 10SM FEW005 00/M05 A3030 RMK AO2 SLP268 FU FEW005 T00001050 10028 21011 51018=
202212281052 METAR KATL 281052Z 00000KT 10SM FEW005 00/M05 A3028 RMK AO2 SLP262 FU FEW005 T00001050=
202212280952 METAR KATL 280952Z 00000KT 10SM CLR 01/M06 A3026 RMK AO2 SLP254 T00061056=
202212280852 METAR KATL 280852Z 00000KT 10SM CLR 01/M05 A3025 RMK AO2 SLP247 T00061050 55006=
202212280752 METAR KATL 280752Z 00000KT 10SM CLR 01/M06 A3024 RMK AO2 SLP246 T00111056=
202212280652 METAR KATL 280652Z 00000KT 10SM CLR 02/M06 A3025 RMK AO2 SLP248 T00221056=
202212280552 METAR KATL 280552Z 00000KT 10SM FEW250 02/M06 A3026 RMK AO2 SLP253 T00221056 10061 20017 53003=
202212280452 METAR KATL 280452Z 13003KT 10SM FEW250 02/M06 A3025 RMK AO2 SLP249 T00221056 401111011=
202212280352 METAR KATL 280352Z 14003KT 10SM FEW250 03/M06 A3026 RMK AO2 SLP252 T00281056=
202212280252 METAR KATL 280252Z 00000KT 10SM FEW250 03/M06 A3025 RMK AO2 SLP251 T00331061 58000=
202212280152 METAR KATL 280152Z 19003KT 10SM FEW200 FEW250 03/M06 A3026 RMK AO2 SLP254 T00281056=
202212280052 METAR KATL 280052Z 00000KT 10SM FEW200 SCT250 04/M07 A3026 RMK AO2 SLP255 T00441067=
202212272352 METAR KATL 272352Z 18003KT 10SM FEW200 FEW250 06/M06 A3025 RMK AO2 SLP253 T00611061 10111 20056 53008=
202212272252 METAR KATL 272252Z 00000KT 10SM FEW200 FEW250 07/M07 A3024 RMK AO2 SLP249 T00721072=
202212272152 METAR KATL 272152Z 24006KT 10SM FEW200 SCT250 10/M08 A3023 RMK AO2 SLP243 T01001083=
202212272052 METAR KATL 272052Z 22005KT 10SM FEW200 SCT250 11/M08 A3023 RMK AO2 SLP242 T01061078 58011=
202212271952 METAR KATL 271952Z 32006KT 10SM FEW200 FEW250 11/M07 A3024 RMK AO2 SLP245 T01111072=
202212271852 METAR KATL 271852Z 26005KT 10SM FEW250 09/M07 A3026 RMK AO2 SLP251 T00941067=
202212271752 METAR KATL 271752Z 04003KT 10SM FEW250 09/M07 A3026 RMK AO2 SLP254 T00891072 10089 21011 58016=
202212271652 METAR KATL 271652Z 00000KT 10SM CLR 08/M07 A3030 RMK AO2 SLP265 T00781067=
202212271552 METAR KATL 271552Z VRB04KT 10SM CLR 06/M06 A3032 RMK AO2 SLP274 T00611056=
202212271452 METAR KATL 271452Z 00000KT 10SM FEW038 04/M04 A3031 RMK AO2 SLP271 T00391039 53012=
202212271352 METAR KATL 271352Z 00000KT 10SM CLR 02/M03 A3029 RMK AO2 SLP266 T00171028=
202212271252 METAR KATL 271252Z 31004KT 10SM FEW055 M01/M04 A3029 RMK AO2 SLP266 T10111039 $=
202212271152 METAR KATL 271152Z 34003KT 10SM FEW055 M01/M04 A3027 RMK AO2 SLP261 60000 70001 T10061039 10006 21006 58004 $=
202212271052 METAR KATL 271052Z 34003KT 10SM BKN050 OVC080 01/M03 A3028 RMK AO2 SLP262 T00061028 $=
202212270952 METAR KATL 270952Z 33005KT 10SM BKN050 OVC080 01/M03 A3029 RMK AO2 SLP264 T00061028 $=
202212270852 METAR KATL 270852Z 30003KT 10SM BKN050 OVC080 01/M02 A3029 RMK AO2 SLP264 60000 T00061022 53004 $=
202212270752 METAR KATL 270752Z 19003KT 10SM OVC042 00/M03 A3029 RMK AO2 SLP264 T00001028 $=
202212270652 METAR KATL 270652Z 00000KT 10SM OVC042 00/M03 A3028 RMK AO2 SNB12E42 SLP261 SHSN NE-SE P0000 T00001028 $=
202212270642 SPECI KATL 270642Z 00000KT 10SM BKN042 OVC055 01/M03 A3028 RMK AO2 SNB12E42 SHSN NE-SE P0000 T00061033 $=
202212270612 SPECI KATL 270612Z 06003KT 10SM -SN BKN042 OVC055 00/M03 A3028 RMK AO2 SNB12 P0000 T00001033=
202212270552 METAR KATL 270552Z 01004KT 10SM BKN036 OVC050 00/M03 A3028 RMK AO2 SNE02 SLP260 SHSN NE-SE P0001 60001 T00001033 10044 20000 58001=
202212270502 SPECI KATL 270502Z 36007KT 9SM BKN048 OVC060 01/M03 A3028 RMK AO2 SNE02 SHSN NW-NE P0000 T00061033=
202212270452 METAR KATL 270452Z 03007KT 8SM -SN FEW038 BKN050 OVC065 01/M03 A3029 RMK AO2 SLP265 P0000 T00061033 400671072=
202212270352 METAR KATL 270352Z 06007KT 7SM -SN BKN038 OVC050 02/M07 A3029 RMK AO2 SLP267 SNB29 P0000 T00171067=
202212270331 SPECI KATL 270331Z 02008KT 8SM -SN BKN042 OVC060 02/M09 A3029 RMK AO2 SNB29 P0000 T00221094=
202212270252 METAR KATL 270252Z 36006KT 10SM BKN042 OVC070 03/M13 A3028 RMK AO2 SLP262 SHSN N-E T00281128 51013=
202212270152 METAR KATL 270152Z 33006KT 10SM BKN075 OVC100 03/M13 A3027 RMK AO2 SLP260 VIRGA NW-NE-SE T00281128=
202212270052 METAR KATL 270052Z 32006KT 10SM SCT080 BKN100 BKN150 03/M14 A3026 RMK AO2 SLP258 VIRGA NW-NE T00331139=
202212262352 METAR KATL 262352Z 00000KT 10SM FEW075 SCT130 BKN180 04/M13 A3024 RMK AO2 SLP252 T00391133 10067 20039 53006=
202212262252 METAR KATL 262252Z 00000KT 10SM FEW075 BKN130 BKN200 05/M12 A3022 RMK AO2 SLP244 VIRGA DSNT W-N-NE T00501117=
202212262152 METAR KATL 262152Z 26004KT 10SM FEW075 SCT110 BKN140 BKN200 06/M13 A3022 RMK AO2 SLP244 VIRGA DSNT W-N T00561133=
202212262052 METAR KATL 262052Z 00000KT 10SM FEW085 SCT140 BKN200 BKN250 07/M14 A3022 RMK AO2 SLP243 VIRGA DSNT NW-N T00671144 55009=
202212261952 METAR KATL 261952Z 22004KT 10SM FEW080 SCT130 SCT200 SCT250 06/M14 A3022 RMK AO2 SLP242 T00561144=
202212261852 METAR KATL 261852Z 29007KT 10SM FEW130 SCT200 SCT250 05/M18 A3022 RMK AO2 SLP245 T00501178=
202212261752 METAR KATL 261752Z 33007KT 10SM FEW130 SCT200 SCT250 04/M16 A3025 RMK AO2 SLP253 T00391156 10039 21072 58005=
202212261652 METAR KATL 261652Z 32005KT 10SM FEW150 SCT200 BKN250 03/M15 A3027 RMK AO2 SLP263 T00281150=
202212261552 METAR KATL 261552Z 32008KT 10SM SCT200 BKN250 01/M15 A3028 RMK AO2 SLP266 T00061150=
202212261452 METAR KATL 261452Z 34007KT 10SM FEW150 BKN200 BKN250 M01/M14 A3026 RMK AO2 SLP260 T10061144 50006=
202212261352 METAR KATL 261352Z 31006KT 10SM SCT200 BKN250 M04/M14 A3028 RMK AO2 SLP265 T10441139=
202212261252 METAR KATL 261252Z 30005KT 10SM SCT200 M07/M13 A3027 RMK AO2 SLP263 VIRGA SW-NW T10671133=
202212261152 METAR KATL 261152Z 29006KT 10SM SCT200 M07/M14 A3025 RMK AO2 SLP256 T10721139 11044 21072 53009=
202212261052 METAR KATL 261052Z 28005KT 10SM FEW200 SCT250 M06/M14 A3023 RMK AO2 SLP250 T10611144=
202212260952 METAR KATL 260952Z 26003KT 10SM FEW200 M06/M14 A3022 RMK AO2 SLP245 T10611144=
202212260852 METAR KATL 260852Z 30006KT 10SM CLR M06/M14 A3022 RMK AO2 SLP244 T10611144 56010=
202212260752 METAR KATL 260752Z 30004KT 10SM CLR M06/M15 A3023 RMK AO2 SLP247 T10561150=
202212260652 METAR KATL 260652Z 29006KT 10SM CLR M06/M15 A3024 RMK AO2 SLP251 T10561150=
202212260552 METAR KATL 260552Z 30007KT 10SM CLR M04/M15 A3025 RMK AO2 SLP255 T10441150 11017 21050 58005=
202212260452 METAR KATL 260452Z 30008KT 10SM CLR M04/M15 A3026 RMK AO2 SLP257 T10391150 400281078=
202212260352 METAR KATL 260352Z 30007KT 10SM CLR M04/M15 A3026 RMK AO2 SLP260 T10391150=
202212260252 METAR KATL 260252Z 29006KT 10SM CLR M03/M16 A3026 RMK AO2 SLP262 T10331156 50005=
202212260152 METAR KATL 260152Z 29006KT 10SM CLR M03/M15 A3027 RMK AO2 SLP263 T10281150=
202212260052 METAR KATL 260052Z 31006KT 10SM CLR M02/M16 A3026 RMK AO2 SLP261 T10171156=
202212252352 METAR KATL 252352Z 31006KT 10SM CLR M02/M16 A3025 RMK AO2 SLP258 T10171156 10028 21017 53017=
202212252252 METAR KATL 252252Z 31008KT 10SM CLR 00/M17 A3022 RMK AO2 SLP247 T00001167=
202212252152 METAR KATL 252152Z 30009KT 10SM CLR 02/M18 A3021 RMK AO2 SLP242 T00171178=
202212252052 METAR KATL 252052Z 29011G18KT 10SM CLR 02/M17 A3020 RMK AO2 SLP238 T00221172 56016=
202212251952 METAR KATL 251952Z 28007KT 10SM CLR 02/M17 A3020 RMK AO2 SLP240 T00221167=
202212251852 METAR KATL 251852Z 28013KT 10SM CLR 02/M16 A3022 RMK AO2 SLP245 T00221161=
202212251752 METAR KATL 251752Z 29011G18KT 10SM FEW250 01/M16 A3025 RMK AO2 SLP256 T00061161 10006 21078 58014=
202212251652 METAR KATL 251652Z 29013KT 10SM SCT250 M01/M16 A3028 RMK AO2 SLP266 T10061161=
202212251552 METAR KATL 251552Z 29011KT 10SM FEW250 M03/M14 A3029 RMK AO2 SLP271 T10281144=
202212251452 METAR KATL 251452Z 30009G16KT 10SM FEW250 M04/M14 A3029 RMK AO2 SLP273 T10441139 53015=
202212251352 METAR KATL 251352Z 30011KT 10SM FEW250 M06/M13 A3026 RMK AO2 SLP263 T10611133=
202212251252 METAR KATL 251252Z 30010KT 10SM FEW250 M08/M13 A3025 RMK AO2 SLP260 T10781133=
202212251152 METAR KATL 251152Z 29011KT 10SM CLR M07/M13 A3025 RMK AO2 SLP258 T10721133 11067 21072 53004=
202212251052 METAR KATL 251052Z 30011KT 10SM CLR M07/M13 A3023 RMK AO2 SLP251 T10721133=
202212250952 METAR KATL 250952Z 31012KT 10SM CLR M07/M13 A3022 RMK AO2 SLP248 T10671133=
202212250852 METAR KATL 250852Z 31010KT 10SM CLR M07/M13 A3024 RMK AO2 SLP253 T10671128 53001=
202212250752 METAR KATL 250752Z 30009KT 10SM CLR M07/M13 A3023 RMK AO2 SLP250 T10671128=
202212250652 METAR KATL 250652Z 29008KT 10SM CLR M07/M13 A3022 RMK AO2 SLP248 T10721128=
202212250552 METAR KATL 250552Z 29006KT 10SM CLR M07/M13 A3023 RMK AO2 SLP254 T10721133 11050 21072 58006=
202212250452 METAR KATL 250452Z 28005KT 10SM CLR M07/M13 A3025 RMK AO2 SLP259 T10671133 410281133=
202212250352 METAR KATL 250352Z 28009KT 10SM CLR M06/M13 A3026 RMK AO2 SLP263 T10611133=
202212250252 METAR KATL 250252Z 29008KT 10SM CLR M06/M13 A3025 RMK AO2 SLP261 T10561133 58001=
202212250152 METAR KATL 250152Z 28009KT 10SM FEW200 M06/M13 A3026 RMK AO2 SLP264 T10561133=
202212250052 METAR KATL 250052Z 27007KT 10SM FEW200 FEW250 M06/M14 A3026 RMK AO2 SLP265 T10561139=
202212242352 METAR KATL 242352Z 26007KT 10SM FEW200 SCT250 M05/M14 A3025 RMK AO2 SLP263 T10501139 11028 21056 58000=
202212242252 METAR KATL 242252Z 27007KT 10SM FEW200 SCT250 M04/M14 A3026 RMK AO2 SLP264 T10441144=
202212242152 METAR KATL 242152Z 28012KT 10SM FEW200 BKN250 M04/M14 A3025 RMK AO2 SLP263 T10391144=
202212242052 METAR KATL 242052Z 29012KT 10SM FEW200 BKN250 M03/M14 A3025 RMK AO2 SLP262 T10331144 56010=
202212241952 METAR KATL 241952Z 29014KT 10SM BKN250 M03/M15 A3026 RMK AO2 SLP263 T10331150=
202212241852 METAR KATL 241852Z 27013G22KT 10SM BKN250 M04/M15 A3026 RMK AO2 SLP266 T10441150=
202212241752 METAR KATL 241752Z 26014G21KT 10SM BKN250 M06/M16 A3029 RMK AO2 SLP274 T10561156 11056 21133 58012=
202212241652 METAR KATL 241652Z 28014G20KT 10SM FEW020 BKN250 M07/M16 A3031 RMK AO2 SLP283 T10721156=
202212241552 METAR KATL 241552Z 28014G21KT 10SM FEW022 BKN250 M08/M17 A3032 RMK AO2 SLP288 T10831167=
202212241452 METAR KATL 241452Z 29016G21KT 10SM SCT022 SCT250 M11/M17 A3032 RMK AO2 SLP288 T11061167 53013=
202212241352 METAR KATL 241352Z 28013G20KT 10SM SCT021 SCT250 M13/M17 A3030 RMK AO2 SLP283 T11281172 $=
202212241252 METAR KATL 241252Z 29009KT 10SM SCT023 SCT250 M13/M18 A3029 RMK AO2 SLP278 T11331178 $=
202212241152 METAR KATL 241152Z 30012KT 10SM FEW030 FEW250 M13/M18 A3028 RMK AO2 SLP275 T11331178 11117 21133 53007 $=
202212241052 METAR KATL 241052Z 28009KT 10SM FEW030 FEW250 M13/M19 A3027 RMK AO2 SLP271 T11331189 $=
202212240952 METAR KATL 240952Z 30012KT 10SM FEW250 M13/M19 A3027 RMK AO2 SLP268 T11281189 $=
202212240852 METAR KATL 240852Z 29009KT 10SM FEW030 FEW250 M13/M18 A3026 RMK AO2 SLP266 T11281183 53004 $=
202212240752 METAR KATL 240752Z 32014G20KT 10SM FEW030 FEW250 M13/M19 A3026 RMK AO2 PK WND 31028/0735 SLP265 T11281194 $=
202212240652 METAR KATL 240652Z 30018G29KT 10SM FEW030 FEW250 M12/M19 A3025 RMK AO2 PK WND 33029/0646 SLP261 T11221189 $=
202212240552 METAR KATL 240552Z 31016G27KT 10SM FEW030 SCT250 M12/M18 A3025 RMK AO2 PK WND 31027/0540 SLP261 T11171183 11094 21117 51006 $=
202212240452 METAR KATL 240452Z 29012G21KT 10SM FEW030 SCT250 M12/M18 A3025 RMK AO2 PK WND 31027/0416 SLP260 T11171178 401111117 $=
202212240352 METAR KATL 240352Z 29014G26KT 10SM SCT250 M11/M18 A3024 RMK AO2 PK WND 31027/0338 SLP258 T11111183 $=
202212240252 METAR KATL 240252Z 29014G23KT 10SM SCT250 M11/M18 A3023 RMK AO2 PK WND 30028/0234 SLP255 T11111183 53012 $=
202212240152 METAR KATL 240152Z 29011G19KT 10SM BKN250 M11/M18 A3022 RMK AO2 SLP251 T11061178 $=
202212240052 METAR KATL 240052Z 29013KT 10SM SCT250 M10/M18 A3020 RMK AO2 PK WND 31026/0018 SLP244 T11001183 $=
202212232352 METAR KATL 232352Z 30015G29KT 10SM FEW250 M09/M18 A3019 RMK AO2 PK WND 29029/2345 SLP242 T10941183 11056 21094 51018 $=
202212232252 METAR KATL 232252Z 31016G31KT 10SM FEW250 M09/M19 A3018 RMK AO2 PK WND 30031/2246 SLP234 T10891189 $=
202212232152 METAR KATL 232152Z 31019G23KT 10SM FEW250 M07/M18 A3016 RMK AO2 PK WND 31029/2057 SLP225 T10721183 $=
202212232052 METAR KATL 232052Z 31016G31KT 10SM FEW250 M06/M18 A3014 RMK AO2 PK WND 30031/2050 SLP217 T10611183 53002 $=
202212231952 METAR KATL 231952Z 30019G28KT 10SM FEW045 FEW250 M06/M18 A3012 RMK AO2 PK WND 32033/1913 SLP210 T10611183 $=
202212231852 METAR KATL 231852Z 30023G29KT 10SM FEW045 FEW250 M06/M17 A3012 RMK AO2 PK WND 31032/1840 SLP207 T10561172 $=
202212231752 METAR KATL 231752Z 30019G28KT 10SM FEW042 FEW250 M06/M18 A3013 RMK AO2 PK WND 30037/1710 SLP210 T10611183 11061 21089 58005 $=
202212231652 METAR KATL 231652Z 30019G27KT 10SM FEW036 SCT250 M06/M17 A3015 RMK AO2 PK WND 29036/1614 SLP219 T10611167 $=
202212231552 METAR KATL 231552Z 31022G31KT 10SM FEW034 FEW250 M07/M17 A3016 RMK AO2 PK WND 29031/1544 SLP222 T10721172 $=
202212231452 METAR KATL 231452Z 30018G25KT 10SM FEW030 M08/M16 A3014 RMK AO2 PK WND 32033/1359 SLP218 T10781156 51038 $=
202212231352 METAR KATL 231352Z 31022G34KT 10SM FEW030 M09/M17 A3011 RMK AO2 PK WND 32036/1322 SLP206 T10891172 $=
202212231252 METAR KATL 231252Z 30025G32KT 10SM CLR M08/M14 A3007 RMK AO2 PK WND 29034/1207 SLP193 T10831144 $=
202212231152 METAR KATL 231152Z 29020G33KT 10SM SCT023 M07/M13 A3003 RMK AO2 PK WND 29035/1100 SLP178 60001 70001 T10721133 10111 21072 51051 $=
202212231052 METAR KATL 231052Z 29020G32KT 10SM FEW020 M05/M11 A2999 RMK AO2 PK WND 31040/1001 SLP163 T10501111 $=
202212230952 METAR KATL 230952Z 31022G33KT 10SM FEW015 SCT020 M02/M08 A2993 RMK AO2 PK WND 30041/0856 SLP144 T10221078=
202212230946 SPECI KATL 230946Z 30023G33KT 10SM FEW015 SCT020 M02/M07 A2993 RMK AO2 PK WND 30041/0856=
202212230852 METAR KATL 230852Z 30027G40KT 10SM SCT015 OVC021 02/M01 A2987 RMK AO2 PK WND 32041/0824 RAE00 PRESRR SLP121 FROPA P0001 60001 T00221011 53047=
202212230752 METAR KATL 230752Z 29020G32KT 9SM -RA SCT008 BKN015 BKN037 07/04 A2980 RMK AO2 PK WND 26039/0701 RAE0658B27 SLP094 P0000 T00670039=
202212230652 METAR KATL 230652Z 27021G42KT 10SM -RA FEW007 BKN022 BKN042 09/07 A2975 RMK AO2 PK WND 27042/0643 SLP076 P0000 T00940067=
202212230552 METAR KATL 230552Z 22018G28KT 7SM -RA SCT008 BKN013 OVC025 11/08 A2973 RMK AO2 PK WND 22028/0551 RAB40 SLP069 P0000 60000 T01060083 10106 20078 58019=
202212230452 METAR KATL 230452Z 21014G24KT 9SM FEW004 BKN008 OVC015 09/08 A2975 RMK AO2 RAE06 SLP078 P0000 T00940078 400940044=
202212230352 METAR KATL 230352Z 20009KT 1 1/4SM -RA BR BKN003 OVC010 08/07 A2978 RMK AO2 SFC VIS 5 RAB33 SLP087 P0000 T00830072=
202212230252 METAR KATL 230252Z 19010KT 1 1/4SM OVC004 08/07 A2979 RMK AO2 SFC VIS 10 DZE07 SLP090 P0000 60000 T00780067 58032=
202212230207 SPECI KATL 230207Z 17010KT 1 1/4SM BKN003 OVC010 08/07 A2980 RMK AO2 SFC VIS 8 DZE07 P0000 T00780067=
202212230200 SPECI KATL 230200Z 17009KT 1 1/4SM -DZ BR BKN003 OVC010 08/07 A2981 RMK AO2 SFC VIS 6 P0000 T00780067=
202212230152 METAR KATL 230152Z 16008KT 3SM -DZ BKN004 OVC020 08/07 A2981 RMK AO2 SFC VIS 6 DZB26 SLP100 CIG 003V006 P0000 T00780067=
202212230052 METAR KATL 230052Z 00000KT 3SM BKN006 BKN017 OVC025 08/07 A2987 RMK AO2 SFC VIS 9 DZB2357E44 SLP119 P0000 T00780067=
202212222352 METAR KATL 222352Z 23004KT 3SM OVC006 08/07 A2988 RMK AO2 SFC VIS 9 SLP123 60000 T00780067 10078 20061 51003=
202212222252 METAR KATL 222252Z 22003KT 3SM OVC005 07/06 A2988 RMK AO2 SFC VIS 8 SLP121 CIG 004V007 T00720061=
202212222152 METAR KATL 222152Z 22007KT 3SM OVC007 07/06 A2989 RMK AO2 SFC VIS 7 SLP126 CIG 005V009 T00720056=
202212222052 METAR KATL 222052Z 18003KT 3SM OVC006 07/06 A2987 RMK AO2 SFC VIS 7 SLP120 CIG 005V007 60000 T00720061 56029=
202212221952 METAR KATL 221952Z 19005KT 3SM BR OVC006 07/06 A2990 RMK AO2 SFC VIS 6 SLP128 CIG 005V007 T00720056=
202212221852 METAR KATL 221852Z 00000KT 3SM BR OVC005 07/06 A2991 RMK AO2 SFC VIS 5 DZE50 SLP132 CIG 003V007 P0000 T00670056=
202212221832 SPECI KATL 221832Z 00000KT 3SM -DZ BR OVC005 07/06 A2992 RMK AO2 SFC VIS 5 CIG 003V007 P0000 T00670056=
202212221829 SPECI KATL 221829Z 00000KT 1SM R09R/P6000FT -DZ BR OVC005 07/06 A2992 RMK AO2 SFC VIS 4 CIG 003V007 P0000 T00670056=
202212221752 METAR KATL 221752Z 19005KT 1SM R09R/P6000FT -DZ BR OVC004 06/05 A2996 RMK AO2 SFC VIS 2 1/2 SLP150 CIG 003V006 P0000 60000 T00610050 10061 20044 58023=
202212221652 METAR KATL 221652Z 15004KT 1 1/4SM R09R/5500VP6000FT -DZ BR OVC004 06/04 A3000 RMK AO2 DZB52 SLP162 CIG 003V005 P0000 T00560044=
202212221552 METAR KATL 221552Z 14004KT 1 1/4SM BR OVC004 06/04 A3002 RMK AO2 SFC VIS 3 DZE46 SLP171 CIG 003V006 P0000 T00560039=
202212221457 SPECI KATL 221457Z 11005KT 1 1/4SM R09R/4500VP6000FT -DZ BR OVC004 05/04 A3003 RMK AO2 CIG 003V005 P0000 T00500044=
202212221452 METAR KATL 221452Z 10004KT 1/2SM R09R/5000VP6000FT -DZ BR OVC003 05/04 A3003 RMK AO2 SFC VIS 1 1/2 SLP174 CIG 002V004 TWRINC P0000 60000 T00500039 58005=
202212221352 METAR KATL 221352Z 35003KT 1/2SM R09R/P6000FT -DZ BR OVC003 05/04 A3006 RMK AO2 SFC VIS 2 SLP182 TWRINC PCPN VRY LGT P0000 T00500039=
202212221323 SPECI KATL 221323Z 10005KT 1/2SM R09R/6000VP6000FT -DZ BR OVC003 04/04 A3005 RMK AO2 SFC VIS 1 1/4 TWRINC P0000 T00440039=
202212221252 METAR KATL 221252Z 08006KT 1 1/4SM -DZ BR OVC003 04/04 A3005 RMK AO2 SFC VIS 2 SLP180 DZB06 TWRINC P0000 T00440039=
202212221242 SPECI KATL 221242Z 08007KT 1 1/4SM -DZ BR OVC003 04/04 A3005 RMK AO2 SFC VIS 3 DZB06 TWRINC P0000 T00440039=
202212221152 METAR KATL 221152Z 08009KT 5SM BR OVC004 04/03 A3005 RMK AO2 SLP180 DZE44 P0000 60001 70001 T00440033 10050 20044 58018=
202212221052 METAR KATL 221052Z 10009KT 4SM -DZ BR OVC004 04/04 A3006 RMK AO2 SLP184 P0000 T00440039=
202212221007 SPECI KATL 221007Z 08009KT 4SM -DZ BR OVC003 04/04 A3009 RMK AO2 P0000 T00440039=
202212220952 METAR KATL 220952Z 06009KT 2 1/2SM -DZ BR OVC004 04/04 A3010 RMK AO2 SLP196 CIG 003V007 P0000 T00440039=
202212220942 SPECI KATL 220942Z 07007KT 3SM -DZ BR OVC004 05/04 A3010 RMK AO2 CIG 003V007 P0000 T00500039=
202212220859 SPECI KATL 220859Z 08010KT 2 1/2SM -DZ BR OVC005 05/04 A3010 RMK AO2 CIG 003V007 P0000 T00500039=
202212220852 METAR KATL 220852Z 08009KT 3SM -DZ BR OVC005 05/04 A3010 RMK AO2 DZB36 SLP198 CIG 003V007 P0000 60001 T00500039 57015=
202212220752 METAR KATL 220752Z 08009KT 10SM BKN006 OVC014 05/04 A3011 RMK AO2 SLP201 RAE16DZB16E40 CIG 004V008 P0001 T00500039=
202212220652 METAR KATL 220652Z 08011KT 4SM -RA BR OVC005 05/04 A3014 RMK AO2 SLP209 DZE45RAB45 CIG 004V007 P0000 T00500039=
202212220552 METAR KATL 220552Z 09010KT 4SM -DZ BR OVC006 05/04 A3015 RMK AO2 RAE52DZB52 SLP213 CIG 004V009 P0000 60000 T00500039 10089 20050 58013=
202212220452 METAR KATL 220452Z 08012KT 4SM -RA BR OVC006 06/04 A3017 RMK AO2 SLP222 CIG 004V009 P0000 T00560044 401000039=
202212220415 SPECI KATL 220415Z 09009KT 5SM -RA BR BKN007 OVC020 06/04 A3018 RMK AO2 P0000 T00560044=
202212220400 SPECI KATL 220400Z 08011KT 2 1/2SM -RA BR BKN008 BKN013 OVC025 06/04 A3017 RMK AO2 P0000 T00560039=
202212220352 METAR KATL 220352Z 08012KT 8SM -RA SCT008 BKN013 OVC030 06/04 A3017 RMK AO2 RAB41 SLP221 P0000 T00610039=
202212220252 METAR KATL 220252Z 08010KT 9SM SCT008 BKN018 OVC035 06/04 A3019 RMK AO2 RAB02E51 SLP227 P0000 60000 T00610044 58006=
202212220152 METAR KATL 220152Z 08014KT 10SM SCT018 BKN025 OVC040 07/03 A3021 RMK AO2 SLP233 T00720033=
202212220052 METAR KATL 220052Z 07014KT 10SM SCT023 BKN034 OVC045 08/03 A3022 RMK AO2 RAB37E48 SLP237 P0000 T00830028=
202212212352 METAR KATL 212352Z 09011KT 10SM BKN024 OVC030 09/02 A3021 RMK AO2 SLP233 T00890022 10100 20089 55005=
202212212252 METAR KATL 212252Z 10007KT 10SM BKN028 OVC050 09/01 A3019 RMK AO2 SLP228 T00940011=
202212212152 METAR KATL 212152Z 09009KT 10SM BKN032 OVC050 10/01 A3021 RMK AO2 SLP233 T01000011=
202212212052 METAR KATL 212052Z 09010KT 10SM BKN030 OVC050 10/01 A3022 RMK AO2 SLP238 T01000011 56019=
202212211952 METAR KATL 211952Z 08010KT 10SM SCT026 BKN050 BKN250 10/02 A3023 RMK AO2 SLP241 T01000017=
202212211947 SPECI KATL 211947Z 09010KT 10SM SCT026 BKN050 BKN250 10/02 A3023 RMK AO2=
202212211852 METAR KATL 211852Z 08009KT 10SM OVC024 10/01 A3024 RMK AO2 SLP246 BINOVC T01000011=
202212211752 METAR KATL 211752Z 09009KT 10SM OVC022 09/01 A3028 RMK AO2 SLP257 BINOVC T00940011 10094 20044 58022=
202212211652 METAR KATL 211652Z 08012KT 10SM OVC023 08/00 A3032 RMK AO2 SLP271 BINOVC T00830000=
202212211552 METAR KATL 211552Z 08012KT 10SM BKN019 OVC030 07/M02 A3034 RMK AO2 SLP279 BINOVC T00671017=
202212211452 METAR KATL 211452Z 08012KT 10SM OVC027 06/M03 A3034 RMK AO2 SLP282 BINOVC T00561028 53014=
202212211352 METAR KATL 211352Z 09012KT 10SM FEW021 BKN027 05/M02 A3033 RMK AO2 SLP277 T00501022=
202212211252 METAR KATL 211252Z 08012KT 10SM FEW019 OVC027 04/M02 A3031 RMK AO2 SLP270 T00441022=
202212211156 SPECI KATL 211156Z 08011KT 10SM FEW021 OVC028 05/M02 A3030 RMK AO2 T00501022=
202212211152 METAR KATL 211152Z 08010KT 10SM FEW021 OVC030 05/M02 A3030 RMK AO2 SLP267 70006 T00501022 10050 20044 53003=
202212211112 SPECI KATL 211112Z 07008KT 10SM SCT021 OVC030 05/M01 A3030 RMK AO2 T00501011=
202212211052 METAR KATL 211052Z 07008KT 10SM OVC020 05/M01 A3030 RMK AO2 SLP266 T00501006=
202212210952 METAR KATL 210952Z 07009KT 10SM OVC020 04/00 A3029 RMK AO2 SLP262 T00440000=
202212210852 METAR KATL 210852Z 07010KT 10SM OVC024 04/01 A3029 RMK AO2 SLP264 T00440011 56010=
202212210752 METAR KATL 210752Z 05009KT 10SM OVC023 04/02 A3030 RMK AO2 SLP265 T00440017=
202212210652 METAR KATL 210652Z 06009KT 10SM OVC021 04/02 A3030 RMK AO2 SLP267 T00440022=
202212210552 METAR KATL 210552Z 08010KT 10SM OVC018 04/02 A3032 RMK AO2 SLP274 60000 T00440017 10044 20039 58012=
202212210452 METAR KATL 210452Z 08011KT 10SM FEW010 OVC018 04/01 A3034 RMK AO2 SLP279 T00390011 400670039=
202212210352 METAR KATL 210352Z 07011KT 10SM SCT017 OVC022 04/01 A3035 RMK AO2 SLP285 T00440011=
202212210252 METAR KATL 210252Z 06009KT 10SM FEW012 OVC020 04/02 A3036 RMK AO2 RAE41 SLP286 P0000 60000 T00440017 51006=
202212210152 METAR KATL 210152Z 07011KT 10SM -RA FEW012 OVC020 04/01 A3035 RMK AO2 RAB04 SLP284 P0000 T00440011=
202212210052 METAR KATL 210052Z 05011KT 10SM FEW012 BKN018 OVC025 04/02 A3036 RMK AO2 SLP287 T00440017=
202212202352 METAR KATL 202352Z 10008KT 10SM FEW017 OVC025 04/02 A3034 RMK AO2 SLP281 60002 T00390022 10050 20039 50000=
202212202252 METAR KATL 202252Z 09008KT 10SM FEW012 SCT017 OVC025 04/02 A3035 RMK AO2 RAE38 SLP283 SHRA E-S-SW P0000 T00390022=
202212202152 METAR KATL 202152Z 08010KT 7SM -RA BKN011 OVC022 04/03 A3035 RMK AO2 SLP281 CIG 009V013 P0001 T00440028=
202212202059 SPECI KATL 202059Z 07011KT 10SM -RA OVC011 04/02 A3034 RMK AO2 P0000 T00440022=
202212202052 METAR KATL 202052Z 07010KT 7SM -RA BKN007 BKN015 OVC030 04/03 A3034 RMK AO2 SLP279 CIG 005V009 P0000 60001 T00440028 57007=
202212202046 SPECI KATL 202046Z 07009KT 7SM -RA BKN007 BKN015 OVC030 04/02 A3034 RMK AO2 CIG 005V009 P0000=
202212201952 METAR KATL 201952Z 07012KT 3SM -RA BR BKN008 BKN015 OVC028 04/03 A3034 RMK AO2 SFC VIS 5 SLP280 CIG 006V010 PCPN VRY LGT P0001 T00440028=
202212201932 SPECI KATL 201932Z 08013KT 3SM -RA BR BKN007 OVC014 04/03 A3034 RMK AO2 CIG 005V009 P0001 T00440028=
202212201852 METAR KATL 201852Z 05015KT 4SM -RA BR BKN008 OVC015 04/03 A3036 RMK AO2 SLP285 CIG 006V010 P0000 T00390028=
202212201756 SPECI KATL 201756Z 08014KT 3SM -RA BR OVC007 04/03 A3036 RMK AO2 CIG 005V009 P0000 T00440033=
202212201752 METAR KATL 201752Z 08011KT 2 1/2SM -RA BR OVC007 05/03 A3036 RMK AO2 SLP286 CIG 005V009 P0001 60004 T00500033 10050 20039 58011=
202212201652 METAR KATL 201652Z 06014KT 6SM -RA BR BKN008 OVC015 04/03 A3038 RMK AO2 SLP294 CIG 006V010 P0000 T00440028=
202212201613 SPECI KATL 201613Z 08010KT 9SM -RA BKN008 OVC024 04/03 A3039 RMK AO2 P0000 T00440028=
202212201552 METAR KATL 201552Z 08012KT 5SM -RA BR SCT008 BKN024 OVC038 04/03 A3038 RMK AO2 SLP294 P0000 T00440028=
202212201452 METAR KATL 201452Z 08010KT 10SM -RA SCT008 BKN021 OVC040 04/02 A3039 RMK AO2 SLP298 PCPN VRY LGT P0000 60003 T00440022 53014=
202212201352 METAR KATL 201352Z 09009KT 6SM -RA BR SCT008 BKN020 OVC040 04/03 A3036 RMK AO2 SLP286 SCT008 V BKN P0002 T00440028=
202212201252 METAR KATL 201252Z 09007KT 4SM -RA BR FEW009 BKN019 OVC042 04/02 A3037 RMK AO2 DZE37RAB37 SLP288 P0001 T00390022=
202212201152 METAR KATL 201152Z 07007KT 6SM -DZ BR FEW009 OVC016 04/02 A3035 RMK AO2 RAE18DZB46 SLP283 P0000 60000 T00390022 10067 20039 53009=
202212201137 SPECI KATL 201137Z 08009KT 4SM BR FEW009 OVC016 04/02 A3034 RMK AO2 RAE18 P0000 T00390022=
202212201107 SPECI KATL 201107Z 10007KT 5SM -RA BR BKN018 BKN028 OVC035 04/02 A3033 RMK AO2 P0000 T00390017=
202212201052 METAR KATL 201052Z 11008KT 5SM -RA FEW019 BKN032 OVC060 04/02 A3032 RMK AO2 RAB10 SLP272 P0000 T00440017=
202212200952 METAR KATL 200952Z 09008KT 10SM FEW030 BKN045 OVC060 07/M02 A3031 RMK AO2 SLP268 T00671022=
202212200852 METAR KATL 200852Z 09007KT 10SM OVC060 07/M02 A3033 RMK AO2 SLP272 T00671022 55010=
202212200752 METAR KATL 200752Z 11006KT 10SM OVC065 07/M02 A3032 RMK AO2 SLP271 T00671022=
202212200652 METAR KATL 200652Z 10006KT 10SM OVC070 07/M03 A3034 RMK AO2 SLP277 T00671028=
202212200552 METAR KATL 200552Z 10006KT 10SM BKN075 OVC180 07/M03 A3036 RMK AO2 SLP282 T00671028 10094 20067 55001=
202212200452 METAR KATL 200452Z 10008KT 10SM FEW150 OVC180 07/M03 A3035 RMK AO2 SLP283 T00671028 401061017=
202212200352 METAR KATL 200352Z 09007KT 10SM FEW150 OVC180 07/M03 A3036 RMK AO2 SLP285 T00671028=
202212200252 METAR KATL 200252Z 12006KT 10SM FEW120 SCT150 OVC180 08/M03 A3036 RMK AO2 SLP285 VIRGA SE-SW T00781033 53014=
202212200152 METAR KATL 200152Z 07010KT 10SM BKN120 OVC150 08/M03 A3034 RMK AO2 SLP279 VIRGA OHD-ALQDS T00781033=
202212200052 METAR KATL 200052Z 09007KT 10SM BKN130 OVC200 08/M03 A3032 RMK AO2 SLP273 VIRGA OHD-ALQDS T00781028=
202212192352 METAR KATL 192352Z 07010KT 10SM BKN140 OVC200 09/M04 A3031 RMK AO2 SLP271 VIRGA OHD-ALQDS T00941044 10106 20089 51003=
202212192252 METAR KATL 192252Z 08008KT 10SM SCT120 BKN150 OVC180 09/M04 A3031 RMK AO2 SLP271 VIRGA OHD-ALQDS T00941044=
202212192152 METAR KATL 192152Z 09006KT 10SM SCT110 BKN140 OVC180 09/M04 A3031 RMK AO2 SLP270 VIRGA OHD-ALQDS T00941044=
202212192052 METAR KATL 192052Z 11008KT 10SM SCT120 BKN160 OVC200 10/M04 A3030 RMK AO2 SLP268 VIRGA E-OHD-W T01001044 56011=
202212191952 METAR KATL 191952Z 15007KT 10SM BKN130 BKN180 BKN250 10/M04 A3030 RMK AO2 SLP268 VIRGA W-N-NE T01001044=
202212191852 METAR KATL 191852Z 12006KT 10SM BKN150 BKN200 BKN250 10/M05 A3032 RMK AO2 SLP273 VIRGA SW-NW ACC SW-W T01001050=
202212191752 METAR KATL 191752Z 15008KT 10SM SCT150 BKN200 BKN250 09/M05 A3034 RMK AO2 SLP279 ACC W NW T00941050 10094 20000 58030=
202212191652 METAR KATL 191652Z 15007KT 10SM SCT150 BKN200 BKN250 09/M04 A3038 RMK AO2 SLP296 T00891044=
202212191552 METAR KATL 191552Z 09008KT 10SM FEW150 SCT200 BKN250 07/M04 A3042 RMK AO2 SLP309 T00671044=
202212191452 METAR KATL 191452Z 10007KT 10SM FEW150 SCT200 SCT250 04/M05 A3043 RMK AO2 SLP311 T00441050 53035=
202212191352 METAR KATL 191352Z 08008KT 10SM FEW150 SCT200 BKN250 02/M06 A3037 RMK AO2 SLP293 T00221056=
202212191252 METAR KATL 191252Z 08004KT 10SM FEW100 SCT180 SCT230 00/M06 A3036 RMK AO2 SLP289 T00001061=
202212191152 METAR KATL 191152Z 05009KT 10SM SCT200 01/M06 A3032 RMK AO2 SLP276 T00061061 10006 21017 50009=
202212191052 METAR KATL 191052Z 01005KT 10SM FEW250 M01/M06 A3033 RMK AO2 SLP278 T10061061=
202212190952 METAR KATL 190952Z 34004KT 10SM FEW250 M01/M06 A3031 RMK AO2 SLP271 T10111061=
202212190852 METAR KATL 190852Z 35006KT 10SM FEW250 00/M06 A3029 RMK AO2 SLP265 T00001061 53003=
202212190752 METAR KATL 190752Z 34007KT 10SM FEW250 M01/M06 A3030 RMK AO2 SLP266 T10061061=
202212190652 METAR KATL 190652Z 33007KT 10SM FEW250 01/M06 A3028 RMK AO2 SLP260 T00061061=
202212190552 METAR KATL 190552Z 33007KT 10SM FEW250 01/M06 A3028 RMK AO2 SLP262 T00061061 10044 20000 58003=
202212190452 METAR KATL 190452Z 33009KT 10SM FEW250 01/M06 A3030 RMK AO2 SLP267 T00061056 400781006=
202212190352 METAR KATL 190352Z 30004KT 10SM FEW250 01/M06 A3031 RMK AO2 SLP273 T00061056=
202212190252 METAR KATL 190252Z 30006KT 10SM FEW250 02/M06 A3029 RMK AO2 SLP267 T00171056 53016=
202212190152 METAR KATL 190152Z 31007KT 10SM FEW250 02/M06 A3027 RMK AO2 SLP260 T00221061=
202212190052 METAR KATL 190052Z 30006KT 10SM FEW250 03/M06 A3027 RMK AO2 SLP258 T00281061=
202212182352 METAR KATL 182352Z 30008KT 10SM FEW250 04/M07 A3025 RMK AO2 SLP250 T00441067 10078 20039 53017=
202212182252 METAR KATL 182252Z 32010KT 10SM FEW250 05/M07 A3021 RMK AO2 SLP239 T00501067=
202212182152 METAR KATL 182152Z 32012KT 10SM FEW250 07/M07 A3020 RMK AO2 SLP235 T00671072=
202212182052 METAR KATL 182052Z 32011KT 10SM CLR 08/M07 A3019 RMK AO2 SLP230 T00781072 53005=
202212181952 METAR KATL 181952Z 34012KT 10SM CLR 08/M07 A3018 RMK AO2 SLP226 T00781067=
202212181852 METAR KATL 181852Z 32013KT 10SM CLR 07/M08 A3016 RMK AO2 SLP220 T00721078=
202212181752 METAR KATL 181752Z 31011G18KT 10SM CLR 07/M07 A3018 RMK AO2 SLP225 T00671067 10072 21006 50001=
202212181652 METAR KATL 181652Z 31012G18KT 10SM CLR 06/M07 A3019 RMK AO2 SLP230 T00561067=
202212181552 METAR KATL 181552Z 30010KT 10SM CLR 04/M06 A3019 RMK AO2 SLP231 T00441056=
202212181452 METAR KATL 181452Z 32015G20KT 10SM CLR 03/M06 A3017 RMK AO2 SLP225 T00281056 51018=
202212181352 METAR KATL 181352Z 31011KT 10SM CLR 01/M06 A3016 RMK AO2 SLP220 T00111056=
202212181252 METAR KATL 181252Z 30010G18KT 10SM CLR 00/M06 A3014 RMK AO2 SLP214 T00001061=
202212181152 METAR KATL 181152Z 31009KT 10SM CLR 01/M06 A3012 RMK AO2 SLP208 T00061061 10022 20006 53014=
202212181052 METAR KATL 181052Z 31011KT 10SM CLR 01/M06 A3010 RMK AO2 SLP200 T00061061=
202212180952 METAR KATL 180952Z 29008KT 10SM CLR 01/M06 A3009 RMK AO2 SLP195 T00111061=
202212180852 METAR KATL 180852Z 30011KT 10SM CLR 02/M05 A3008 RMK AO2 SLP191 T00171050 53008=
202212180752 METAR KATL 180752Z 30010KT 10SM CLR 02/M05 A3007 RMK AO2 SLP189 T00221050=
202212180652 METAR KATL 180652Z 29009KT 10SM CLR 02/M04 A3006 RMK AO2 SLP185 T00171044=
202212180552 METAR KATL 180552Z 26006KT 10SM CLR 02/M04 A3006 RMK AO2 SLP183 T00171044 10050 20017 51005=
202212180452 METAR KATL 180452Z 27006KT 10SM CLR 02/M04 A3005 RMK AO2 SLP181 T00221044 400890022=
202212180352 METAR KATL 180352Z 27006KT 10SM CLR 03/M04 A3005 RMK AO2 SLP180 T00281044=
202212180252 METAR KATL 180252Z 27007KT 10SM CLR 03/M04 A3004 RMK AO2 SLP177 T00331044 53012=
202212180152 METAR KATL 180152Z 26006KT 10SM CLR 04/M04 A3002 RMK AO2 SLP170 T00391044=
202212180052 METAR KATL 180052Z 25004KT 10SM CLR 04/M04 A3001 RMK AO2 SLP165 T00441044=
202212172352 METAR KATL 172352Z 27005KT 10SM FEW170 05/M04 A3000 RMK AO2 SLP164 T00501039 10089 20050 53020=
202212172252 METAR KATL 172252Z 25007KT 10SM FEW170 FEW250 07/M03 A2998 RMK AO2 SLP155 T00721033=
202212172152 METAR KATL 172152Z 27010KT 10SM FEW085 FEW170 SCT250 08/M05 A2996 RMK AO2 SLP146 T00831050=
202212172052 METAR KATL 172052Z 27009KT 10SM SCT070 SCT085 BKN170 BKN250 08/M04 A2994 RMK AO2 SLP143 T00781044 55010=
202212171952 METAR KATL 171952Z 27012KT 10SM SCT055 BKN075 BKN170 08/M04 A2994 RMK AO2 SLP141 T00781044=
202212171852 METAR KATL 171852Z 26006KT 10SM BKN043 BKN075 08/M02 A2995 RMK AO2 SLP146 T00781022 $=
202212171752 METAR KATL 171752Z 27008KT 10SM OVC043 08/M02 A2997 RMK AO2 SLP153 BINOVC T00781022 10083 20067 58015 $=
202212171652 METAR KATL 171652Z 28009KT 10SM SCT055 BKN075 BKN090 OVC170 08/M01 A3000 RMK AO2 SLP161 BINOVC T00781011 $=
202212171552 METAR KATL 171552Z 26010KT 10SM SCT055 BKN075 BKN180 BKN250 08/M01 A3002 RMK AO2 SLP168 T00781011 $=
202212171452 METAR KATL 171452Z 26008KT 10SM SCT060 BKN080 BKN180 BKN250 08/M01 A3002 RMK AO2 SLP169 T00781006 53013 $=
202212171352 METAR KATL 171352Z 26007KT 10SM BKN060 BKN080 BKN180 BKN250 07/M01 A2999 RMK AO2 SLP160 T00721011 $=
202212171252 METAR KATL 171252Z 26005KT 10SM BKN060 BKN100 BKN180 OVC250 07/M01 A2998 RMK AO2 SLP156 T00671006 $=
202212171152 METAR KATL 171152Z 25005KT 10SM FEW055 SCT090 BKN180 OVC250 07/M01 A2998 RMK AO2 SLP156 T00721011 10078 20067 53002 $=
202212171052 METAR KATL 171052Z 24006KT 10SM FEW055 SCT070 BKN090 OVC250 07/M01 A2997 RMK AO2 SLP150 T00721011 $=
202212170952 METAR KATL 170952Z 24007KT 10SM BKN055 BKN095 08/M02 A2997 RMK AO2 SLP151 T00781017 $=
202212170852 METAR KATL 170852Z 25005KT 10SM BKN055 BKN100 07/M02 A2998 RMK AO2 SLP152 T00721017 56009 $=
202212170752 METAR KATL 170752Z 25007KT 10SM BKN050 BKN100 08/M02 A2999 RMK AO2 SLP156 T00781017 $=
202212170652 METAR KATL 170652Z 24007KT 10SM BKN055 OVC200 08/M02 A2999 RMK AO2 SLP156 T00781022 $=
202212170552 METAR KATL 170552Z 26010KT 10SM BKN065 BKN200 08/M02 A3000 RMK AO2 SLP161 T00781022 10083 20067 50001 $=
202212170452 METAR KATL 170452Z 27009KT 10SM BKN075 BKN200 08/M03 A3000 RMK AO2 SLP162 T00831028 401220028 $=
202212170352 METAR KATL 170352Z 27008KT 10SM BKN085 BKN200 08/M03 A3001 RMK AO2 SLP165 T00781028=
202212170252 METAR KATL 170252Z 24005KT 10SM BKN100 BKN200 07/M04 A3000 RMK AO2 SLP163 T00721039 51012=
202212170152 METAR KATL 170152Z 25004KT 10SM FEW110 FEW200 07/M04 A3000 RMK AO2 SLP163 T00671044=
202212170052 METAR KATL 170052Z 25005KT 10SM FEW200 07/M04 A2998 RMK AO2 SLP159 T00721039=
202212162352 METAR KATL 162352Z 23004KT 10SM FEW250 08/M03 A2997 RMK AO2 SLP152 T00831033 10122 20083 58003=
202212162252 METAR KATL 162252Z 27005KT 10SM FEW250 09/M03 A2997 RMK AO2 SLP153 T00891033=
202212162152 METAR KATL 162152Z 26008KT 10SM FEW250 11/M03 A2998 RMK AO2 SLP156 T01111033=
202212162052 METAR KATL 162052Z 28012KT 10SM FEW250 12/M04 A2997 RMK AO2 SLP153 T01171044 55004=
202212161952 METAR KATL 161952Z 30012KT 10SM CLR 12/M03 A2996 RMK AO2 SLP149 T01171033=
202212161852 METAR KATL 161852Z 28008G19KT 10SM FEW250 12/M02 A2997 RMK AO2 SLP151 T01171022=
202212161752 METAR KATL 161752Z 26014G20KT 10SM FEW042 FEW250 11/M01 A2998 RMK AO2 SLP156 T01061011 10111 20028 58009=
202212161652 METAR KATL 161652Z 28015G21KT 10SM FEW035 10/00 A3000 RMK AO2 SLP161 T01000000=
202212161552 METAR KATL 161552Z 28009KT 10SM CLR 08/00 A3002 RMK AO2 SLP168 T00830000=
202212161452 METAR KATL 161452Z 28010KT 10SM FEW010 07/01 A3001 RMK AO2 SLP166 FU FEW010 T00720006 53015=
202212161352 METAR KATL 161352Z 26007KT 10SM CLR 05/00 A2999 RMK AO2 SLP161 T00500000=
202212161252 METAR KATL 161252Z 23004KT 10SM CLR 03/00 A2997 RMK AO2 SLP154 T00280000=
202212161152 METAR KATL 161152Z 26005KT 10SM CLR 03/M01 A2997 RMK AO2 SLP152 T00281006 10056 20028 53002=
202212161052 METAR KATL 161052Z 27005KT 10SM CLR 03/M01 A2996 RMK AO2 SLP148 T00331006=
202212160952 METAR KATL 160952Z 28006KT 10SM CLR 03/M01 A2996 RMK AO2 SLP146 T00331006 $=
202212160852 METAR KATL 160852Z 29008KT 10SM CLR 04/00 A2996 RMK AO2 SLP147 T00390000 51008 $=
202212160752 METAR KATL 160752Z 30008KT 10SM CLR 05/00 A2996 RMK AO2 SLP147 T00500000 $=
202212160652 METAR KATL 160652Z 28009KT 10SM CLR 06/01 A2995 RMK AO2 SLP143 T00560006=
202212160552 METAR KATL 160552Z 28008KT 10SM CLR 06/01 A2994 RMK AO2 SLP138 T00560006 10100 20050 51008=
202212160452 METAR KATL 160452Z 28008KT 10SM CLR 06/01 A2993 RMK AO2 SLP139 T00560006 401440056=
202212160352 METAR KATL 160352Z 28009KT 10SM CLR 07/01 A2993 RMK AO2 SLP138 T00670006=
202212160252 METAR KATL 160252Z 27009KT 10SM CLR 07/01 A2991 RMK AO2 SLP131 T00720006 53015=
202212160152 METAR KATL 160152Z 28008KT 10SM CLR 07/01 A2989 RMK AO2 SLP124 T00720006=
202212160052 METAR KATL 160052Z 27008KT 10SM CLR 08/00 A2988 RMK AO2 SLP118 T00830000=
202212152352 METAR KATL 152352Z 27009KT 10SM CLR 10/01 A2987 RMK AO2 SLP114 T01000006 10144 20100 53014=
202212152252 METAR KATL 152252Z 26009KT 10SM CLR 12/02 A2985 RMK AO2 SLP107 T01170022=
202212152152 METAR KATL 152152Z 25007KT 10SM FEW060 14/02 A2983 RMK AO2 SLP101 T01390022=
202212152052 METAR KATL 152052Z 25011KT 10SM CLR 14/03 A2982 RMK AO2 SLP097 T01440028 55006=
202212151952 METAR KATL 151952Z 26011KT 10SM FEW055 14/03 A2981 RMK AO2 SLP092 T01440033=
202212151852 METAR KATL 151852Z 28010KT 10SM FEW055 14/03 A2981 RMK AO2 SLP095 T01390033=
202212151752 METAR KATL 151752Z 28014KT 10SM FEW038 13/04 A2984 RMK AO2 SLP105 T01330044 10133 20089 58010=
202212151652 METAR KATL 151652Z 30012KT 10SM FEW024 12/06 A2986 RMK AO2 SLP112 T01220056 $=
202212151552 METAR KATL 151552Z 30008KT 10SM FEW018 11/07 A2988 RMK AO2 SLP118 T01110067 $=
202212151527 SPECI KATL 151527Z 29006KT 10SM SCT016 10/06 A2988 RMK AO2 T01000061 $=
202212151452 METAR KATL 151452Z 29009KT 10SM BKN017 BKN028 09/07 A2987 RMK AO2 SLP118 T00940067 53033 $=
202212151435 SPECI KATL 151435Z 31011KT 10SM BKN015 OVC026 09/07 A2986 RMK AO2 CIG 013V017 BINOVC T00940067 $=
202212151352 METAR KATL 151352Z 29014G19KT 10SM BKN013 OVC025 10/07 A2983 RMK AO2 SLP103 T01000072 $=
202212151252 METAR KATL 151252Z 32013G20KT 10SM FEW007 BKN015 OVC025 11/08 A2979 RMK AO2 SLP090 BINOVC T01060078 $=
202212151221 SPECI KATL 151221Z 29010KT 10SM FEW006 SCT010 OVC015 11/09 A2979 RMK AO2 BINOVC T01060089 $=
202212151219 SPECI KATL 151219Z 29009KT 10SM FEW010 OVC015 11/09 A2978 RMK AO2 T01060094 $=
202212151152 METAR KATL 151152Z 31009KT 10SM SCT006 BKN014 11/09 A2977 RMK AO2 SLP083 60057 70137 T01110094 10122 20094 53023 $=
202212151142 SPECI KATL 151142Z 30008KT 10SM SCT005 BKN011 11/09 A2977 RMK AO2 T01110094 $=
202212151128 SPECI KATL 151128Z 30007KT 10SM SCT005 SCT025 11/09 A2976 RMK AO2 T01060094 $=
202212151052 METAR KATL 151052Z 32009KT 2SM BKN005 OVC012 12/11 A2975 RMK AO2 SFC VIS 10 SLP074 CIG 003V007 BINOVC T01170106 $=
202212151025 SPECI KATL 151025Z 31014G23KT 2SM BR BKN005 OVC010 12/11 A2974 RMK AO2 SFC VIS 6 CIG 003V007 T01170111 $=
202212150952 METAR KATL 150952Z 29008KT 1/2SM R09R/P6000FT BR BKN004 OVC008 12/12 A2972 RMK AO2 SFC VIS 6 RAE15 SLP064 CIG 002V006 TWRINC P0000 T01220117 $=
202212150852 METAR KATL 150852Z 12003KT 1/2SM R09R/P6000FT -RA BR BKN005 OVC010 12/11 A2970 RMK AO2 SFC VIS 7 SLP059 CIG 003V007 TWRINC P0019 60057 T01220111 55014 $=
202212150752 METAR KATL 150752Z 12009KT 1/2SM R09R/P6000FT RA BR BKN003 OVC010 12/11 A2969 RMK AO2 SFC VIS 3 SLP056 TWRINC P0011 T01170106 $=
202212150652 METAR KATL 150652Z 12012G19KT 1/2SM R09R/P6000FT -RA BR BKN004 OVC010 11/10 A2970 RMK AO2 SFC VIS 4 PRESFR SLP059 P0027 T01110100 $=
202212150552 METAR KATL 150552Z 10013KT 1/2SM R09R/P6000FT RA BR BKN004 OVC008 09/09 A2974 RMK AO2 SFC VIS 3 SLP074 TWRINC P0017 60064 T00940089 10094 20078 58033 $=
202212150452 METAR KATL 150452Z 10012KT 1/2SM R09R/P6000FT -RA BKN004 OVC008 09/08 A2979 RMK AO2 SFC VIS 7 PRESFR SLP091 TWRINC P0016 T00890083 400940061=
202212150352 METAR KATL 150352Z 10010KT 1/2SM R09R/P6000FT RA BR BKN004 OVC013 09/08 A2984 RMK AO2 SFC VIS 2 1/2 SLP105 TWRINC P0019 T00890078=
202212150252 METAR KATL 150252Z 11012G19KT 1/2SM R09R/P6000FT RA BR OVC003 08/08 A2984 RMK AO2 SFC VIS 3 SLP109 P0008 60012 T00830078 58015=
202212150152 METAR KATL 150152Z 10013KT 1/2SM R09R/P6000FT -RA BR OVC002 08/07 A2987 RMK AO2 SFC VIS 1 1/2 RAB28 SLP119 P0000 T00830072=
202212150131 SPECI KATL 150131Z 10011KT 1/2SM R09R/P6000FT -RA BR OVC003 08/07 A2987 RMK AO2 SFC VIS 5 RAB28 P0000 T00830072=
202212150052 METAR KATL 150052Z 10011KT 1 1/2SM OVC004 08/07 A2989 RMK AO2 SFC VIS 9 RAE34 SLP124 P0004 T00830072=
202212150002 SPECI KATL 150002Z 10010G18KT 1 1/2SM RA BR OVC004 08/07 A2988 RMK AO2 SFC VIS 3 P0001 T00780067=
202212142352 METAR KATL 142352Z 10011KT 1/2SM R09R/P6000FT -RA BR OVC004 08/07 A2989 RMK AO2 SFC VIS 6 SLP124 CIG 003V006 TWRINC P0013 60016 T00780067 10078 20061 58010=
202212142252 METAR KATL 142252Z 09009KT 1/2SM R09R/P6000FT -RA BR OVC002 07/07 A2992 RMK AO2 SFC VIS 1 1/4 DZE21RAB21 SLP135 TWRINC P0000 T00720067=
202212142152 METAR KATL 142152Z 11011KT 1/2SM R09R/6000VP6000FT -DZ BR OVC002 07/07 A2992 RMK AO2 SFC VIS 1 SLP135 CIG 001V003 TWRINC P0000 T00720067=
202212142052 METAR KATL 142052Z 11010KT 1/2SM R09R/P6000FT -DZ BR OVC003 07/06 A2992 RMK AO2 SFC VIS 1 1/2 RAE44DZB44 SLP135 CIG 002V004 TWRINC P0001 60003 T00720061 56029=
202212141955 SPECI KATL 141955Z 11009KT 1/2SM R09R/P6000FT -RA BR OVC003 07/06 A2994 RMK AO2 SFC VIS 2 1/2 CIG 002V004 TWRINC P0000 T00670061=
202212141952 METAR KATL 141952Z 11010KT 1 1/4SM -RA BR OVC003 07/06 A2994 RMK AO2 SFC VIS 3 DZE03RAB03 SLP142 CIG 002V004 P0000 T00670061=
202212141852 METAR KATL 141852Z 09010KT 1 1/4SM -DZ BR OVC004 07/06 A2998 RMK AO2 SFC VIS 5 RAE49DZB49 SLP154 CIG 003V005 P0002 T00670056=
202212141752 METAR KATL 141752Z 11009KT 1 1/4SM -RA BR OVC004 07/06 A3001 RMK AO2 SFC VIS 1 3/4 DZB07E15B39E49 SLP164 CIG 003V005 P0000 60000 T00670056 10078 20061 58028=
202212141724 SPECI KATL 141724Z 09012KT 1 1/4SM -RA BR OVC004 07/06 A3003 RMK AO2 SFC VIS 2 1/2 DZB07E15 CIG 003V007 P0000 T00670056=
202212141718 SPECI KATL 141718Z 10010KT 2SM -RA BR OVC004 07/06 A3003 RMK AO2 SFC VIS 2 1/2 DZB07E15 CIG 003V007 PRESFR P0000 T00670056=
202212141652 METAR KATL 141652Z 10010KT 2SM -RA BR OVC007 07/05 A3006 RMK AO2 SFC VIS 3 DZE39RAB39 SLP182 CIG 006V008 P0000 T00670050=
202212141641 SPECI KATL 141641Z 10008G17KT 2SM -RA BR OVC008 07/05 A3006 RMK AO2 DZE39RAB39 CIG 007V009 P0000 T00670050=
202212141552 METAR KATL 141552Z 09012KT 7SM -DZ OVC009 07/04 A3008 RMK AO2 SLP189 P0000 T00720044=
202212141452 METAR KATL 141452Z 10011G19KT 8SM -DZ OVC011 07/04 A3009 RMK AO2 DZB50 SLP193 P0000 60000 T00720039 53007=
202212141352 METAR KATL 141352Z 10009KT 10SM OVC012 07/04 A3008 RMK AO2 SLP189 T00720039=
202212141252 METAR KATL 141252Z 09016G21KT 10SM OVC013 08/04 A3007 RMK AO2 SLP187 T00780039=
202212141219 SPECI KATL 141219Z 10014KT 10SM OVC013 08/03 A3006 RMK AO2 T00780033=
202212141152 METAR KATL 141152Z 09012G19KT 10SM OVC015 08/03 A3007 RMK AO2 SLP186 T00780033 10094 20078 58007=
202212141052 METAR KATL 141052Z 10013KT 10SM OVC016 08/03 A3008 RMK AO2 SLP187 T00780033 $=
202212140952 METAR KATL 140952Z 10008KT 10SM OVC020 08/04 A3010 RMK AO2 SLP195 T00830039 $=
202212140852 METAR KATL 140852Z 10010KT 10SM OVC021 08/04 A3009 RMK AO2 SLP192 T00830039 58009 $=
202212140752 METAR KATL 140752Z 10007KT 10SM OVC022 09/04 A3011 RMK AO2 SLP199 T00890039 $=
202212140652 METAR KATL 140652Z 10009KT 10SM OVC021 09/04 A3011 RMK AO2 SLP199 T00890039 $=
202212140552 METAR KATL 140552Z 10012KT 10SM OVC021 09/04 A3012 RMK AO2 SLP202 T00940039 10100 20094 58010 $=
202212140452 METAR KATL 140452Z 10011G17KT 10SM OVC021 09/04 A3014 RMK AO2 SLP208 T00940039 401170089 $=
202212140352 METAR KATL 140352Z 11009KT 10SM OVC024 09/04 A3015 RMK AO2 SLP213 T00940039 $=
202212140252 METAR KATL 140252Z 11010G20KT 10SM OVC024 10/04 A3015 RMK AO2 SLP212 T01000039 58007 $=
202212140152 METAR KATL 140152Z 11010KT 10SM OVC026 10/04 A3017 RMK AO2 SLP218 T01000044 $=
202212140052 METAR KATL 140052Z 10010G20KT 10SM BKN025 OVC036 10/05 A3016 RMK AO2 SLP215 T01000050 $=
202212132352 METAR KATL 132352Z 11010KT 10SM BKN026 BKN035 OVC060 10/05 A3017 RMK AO2 SLP220 T01000050 10106 20100 55000 $=
202212132252 METAR KATL 132252Z 10010G19KT 10SM FEW025 BKN037 OVC060 10/05 A3017 RMK AO2 SLP219 T01000050 $=
202212132206 SPECI KATL 132206Z 10009KT 10SM BKN025 BKN035 BKN250 10/05 A3017 RMK AO2 T01000050 $=
202212132152 METAR KATL 132152Z 10010G16KT 10SM SCT025 BKN035 BKN250 11/05 A3017 RMK AO2 SLP218 T01060050 $=
202212132127 SPECI KATL 132127Z 10010KT 10SM FEW018 SCT025 BKN037 BKN250 10/05 A3016 RMK AO2 T01000050 $=
202212132052 METAR KATL 132052Z 09012KT 10SM FEW018 BKN025 OVC048 10/05 A3018 RMK AO2 SLP220 T01000050 56005 $=
202212131952 METAR KATL 131952Z 10010KT 10SM FEW022 BKN028 OVC050 10/05 A3018 RMK AO2 SLP220 T01000050 $=
202212131852 METAR KATL 131852Z 10013G19KT 10SM FEW018 BKN027 OVC050 10/05 A3018 RMK AO2 SLP221 BINOVC T01000050 $=
202212131752 METAR KATL 131752Z 10012KT 10SM FEW018 OVC027 10/05 A3019 RMK AO2 SLP224 T01000050 10100 20089 56011 $=
202212131652 METAR KATL 131652Z 10012KT 10SM FEW014 OVC025 10/06 A3020 RMK AO2 SLP227 T01000056 $=
202212131552 METAR KATL 131552Z 08014KT 9SM SCT012 BKN026 OVC065 10/06 A3021 RMK AO2 SLP230 T01000061 $=
202212131452 METAR KATL 131452Z 09012KT 9SM SCT013 OVC028 09/06 A3022 RMK AO2 SLP236 T00940061 51018 $=
202212131352 METAR KATL 131352Z 13007KT 10SM FEW012 BKN028 OVC065 09/06 A3021 RMK AO2 SLP231 T00940061 $=
202212131252 METAR KATL 131252Z 09009KT 10SM FEW009 BKN020 OVC065 09/07 A3019 RMK AO2 SLP223 T00940067 $=
202212131220 SPECI KATL 131220Z 10008KT 8SM FEW009 BKN022 OVC065 09/07 A3018 RMK AO2 T00890067=
202212131152 METAR KATL 131152Z 10012KT 8SM FEW010 SCT024 OVC065 09/07 A3017 RMK AO2 SLP217 BINOVC T00940072 10111 20094 55002 $=
202212131136 SPECI KATL 131136Z 09008KT 8SM SCT010 SCT027 OVC065 09/07 A3017 RMK AO2 T00940072 $=
202212131052 METAR KATL 131052Z 09010KT 8SM BKN007 OVC065 09/08 A3016 RMK AO2 SLP214 T00940078 $=
202212130952 METAR KATL 130952Z 10007KT 6SM BR BKN006 10/08 A3017 RMK AO2 SLP215 T01000083 $=
202212130944 SPECI KATL 130944Z 12008KT 6SM BR BKN006 10/08 A3017 RMK AO2 T01000083 $=
202212130919 SPECI KATL 130919Z 11006KT 6SM BR BKN004 10/08 A3017 RMK AO2 T01000083 $=
202212130852 METAR KATL 130852Z 09009KT 5SM BR BKN005 10/08 A3017 RMK AO2 SLP218 T01000083 53013 $=
202212130752 METAR KATL 130752Z 08010KT 10SM BKN006 10/08 A3015 RMK AO2 SLP210 T01000083 $=
202212130652 METAR KATL 130652Z 12006KT 9SM BKN006 BKN030 10/09 A3014 RMK AO2 SLP205 T01000089 $=
202212130636 SPECI KATL 130636Z 10004KT 10SM BKN006 BKN030 10/08 A3014 RMK AO2 T01000083 $=
202212130552 METAR KATL 130552Z 10007KT 10SM FEW009 BKN030 11/09 A3013 RMK AO2 SLP203 T01110089 10133 20111 58004 $=
202212130515 SPECI KATL 130515Z 10006KT 10SM SCT009 BKN030 BKN250 12/09 A3014 RMK AO2 T01170094 $=
202212130452 METAR KATL 130452Z 10007KT 10SM BKN009 BKN030 BKN250 12/09 A3014 RMK AO2 SLP206 T01170094 401670111 $=
202212130352 METAR KATL 130352Z 12007KT 10SM BKN008 BKN030 12/09 A3014 RMK AO2 SLP207 T01170094 $=
202212130252 METAR KATL 130252Z 11008KT 10SM BKN008 BKN015 12/10 A3015 RMK AO2 SLP207 T01220100 51014 $=
202212130152 METAR KATL 130152Z 14007KT 10SM SCT008 BKN012 BKN030 13/11 A3014 RMK AO2 SLP207 T01280106 $=
202212130118 SPECI KATL 130118Z 13008KT 10SM SCT009 BKN014 BKN030 13/11 A3013 RMK AO2 T01330111 $=
202212130052 METAR KATL 130052Z 15004KT 10SM FEW009 BKN022 BKN035 13/11 A3012 RMK AO2 SLP200 T01330111 $=
202212130045 SPECI KATL 130045Z 14004KT 10SM SCT020 BKN027 BKN035 13/11 A3012 RMK AO2 T01330111 $=
202212122352 METAR KATL 122352Z 14004KT 10SM BKN035 BKN200 13/11 A3010 RMK AO2 SLP194 T01330106 10167 20133 53008 $=
202212122252 METAR KATL 122252Z 17003KT 10SM SCT034 SCT200 14/11 A3009 RMK AO2 SLP190 T01390106 $=
202212122152 METAR KATL 122152Z 19004KT 10SM FEW030 FEW038 SCT250 16/11 A3008 RMK AO2 SLP185 T01560111=
202212122052 METAR KATL 122052Z 16004KT 10SM FEW028 BKN037 BKN250 16/11 A3008 RMK AO2 SLP184 MDT CU DSNT E T01560111 56008=
202212121952 METAR KATL 121952Z 00000KT 10SM SCT028 BKN034 16/10 A3008 RMK AO2 SLP186 T01610100=
202212121946 SPECI KATL 121946Z 28003KT 10SM SCT027 BKN034 16/10 A3008 RMK AO2=
202212121852 METAR KATL 121852Z 00000KT 10SM BKN021 OVC032 16/11 A3009 RMK AO2 SLP189 BINOVC T01610106=
202212121830 SPECI KATL 121830Z 03004KT 10SM BKN022 BKN033 16/11 A3010 RMK AO2 T01560106=
202212121752 METAR KATL 121752Z 07005KT 10SM SCT018 BKN033 16/11 A3010 RMK AO2 SLP193 T01560106 10161 20122 58008=
202212121652 METAR KATL 121652Z 13004KT 10SM FEW018 OVC033 14/11 A3012 RMK AO2 SLP200 BINOVC T01440111=
202212121552 METAR KATL 121552Z 09005KT 10SM FEW010 SCT016 BKN033 14/11 A3014 RMK AO2 SLP205 T01440111=
202212121547 SPECI KATL 121547Z 11004KT 10SM FEW010 SCT016 BKN033 14/11 A3014 RMK AO2=
202212121526 SPECI KATL 121526Z 10005KT 10SM BKN010 BKN020 BKN035 14/12 A3014 RMK AO2 CIG 009V012 T01440117=
202212121452 METAR KATL 121452Z 01005KT 8SM BKN008 OVC026 14/12 A3013 RMK AO2 SLP202 CIG 007V010 BINOVC T01390117 53007=
202212121435 SPECI KATL 121435Z 02005KT 7SM BKN008 OVC026 13/12 A3012 RMK AO2 CIG 007V010 BINOVC T01330117=
202212121352 METAR KATL 121352Z 36005KT 2SM BR BKN005 BKN026 13/12 A3011 RMK AO2 SFC VIS 6 SLP195 CIG 004V008 BKN005 V SCT T01280117=
202212121343 SPECI KATL 121343Z 36006KT 2SM BR BKN005 BKN026 13/11 A3010 RMK AO2 SFC VIS 6 CIG 004V007 BKN005 V SCT T01280111=
202212121252 METAR KATL 121252Z 35006KT 2SM BR BKN004 OVC025 12/11 A3011 RMK AO2 SFC VIS 6 SLP197 CIG 003V005 BKN004 V SCT BINOVC T01220111=
202212121235 SPECI KATL 121235Z 33005KT 2SM BR BKN004 OVC024 12/11 A3011 RMK AO2 SFC VIS 6 CIG 003V005 T01220111=
202212121152 METAR KATL 121152Z 34004KT 1/4SM R09R/P6000FT BR BKN004 OVC018 12/11 A3011 RMK AO2 SFC VIS 6 SLP195 CIG 003V005 BKN004 V SCT 70044 T01220111 10122 20111 53008=
202212121052 METAR KATL 121052Z 34005KT 1/4SM R09R/P6000FT BR BKN003 OVC020 12/11 A3010 RMK AO2 SFC VIS 5 SLP192 TWRINC T01170111=
202212120952 METAR KATL 120952Z 33004KT 1/4SM R09R/P6000FT BR BKN003 OVC010 12/11 A3009 RMK AO2 SFC VIS 4 SLP188 BKN003 V SCT TWRINC T01170111=
202212120852 METAR KATL 120852Z 36006KT 1/4SM R09R/P6000FT BR BKN003 OVC010 12/11 A3008 RMK AO2 SFC VIS 2 SLP186 TWRINC T01170111 56002=
202212120752 METAR KATL 120752Z 00000KT 1/4SM R09R/P6000FT BR OVC002 11/11 A3009 RMK AO2 SFC VIS 1 SLP189 T01110111=
202212120652 METAR KATL 120652Z 03004KT 1/4SM R09R/2200V2600FT FG VV002 11/11 A3007 RMK AO2 SLP184 T01110106=
202212120637 SPECI KATL 120637Z 04005KT 1/4SM R09R/2200V2400FT FG VV002 11/11 A3007 RMK AO2 T01110106=
202212120622 SPECI KATL 120622Z 08003KT 1/4SM R09R/2000V2200FT FG VV002 11/11 A3008 RMK AO2 T01110106=
202212120605 SPECI KATL 120605Z 00000KT 1/4SM R09R/2000V2400FT FG VV002 11/11 A3008 RMK AO2 T01110111=
202212120552 METAR KATL 120552Z 12003KT 1/4SM R09R/1600V1800FT FG VV002 11/11 A3009 RMK AO2 SLP189 60000 T01110106 10122 20111 55006=
202212120547 SPECI KATL 120547Z 00000KT 1/4SM R09R/1800V2000FT FG VV002 11/11 A3009 RMK AO2=
202212120538 SPECI KATL 120538Z 00000KT 1/4SM R09R/1800V2600FT FG VV002 11/11 A3009 RMK AO2 T01110106=
202212120452 METAR KATL 120452Z 16004KT 1/4SM R09R/1400V1800FT FG VV002 11/11 A3009 RMK AO2 SLP189 T01110106 401220111=
202212120437 SPECI KATL 120437Z 13004KT 1/4SM R09R/1600V2200FT FG VV002 11/11 A3009 RMK AO2 T01110106=
202212120426 SPECI KATL 120426Z 14004KT 1/4SM R09R/1800V2400FT FG VV002 12/11 A3010 RMK AO2 T01170111=
202212120415 SPECI KATL 120415Z 11003KT 1/4SM R09R/2000V2200FT FG VV002 12/11 A3011 RMK AO2 T01170111=
202212120352 METAR KATL 120352Z 10004KT 1/4SM R09R/3500V5500FT FG VV002 12/11 A3011 RMK AO2 SFC VIS 1/2 SLP196 T01170111=
202212120252 METAR KATL 120252Z 05007KT 1/4SM R09R/4000VP6000FT BR VV002 12/11 A3011 RMK AO2 SFC VIS 3/4 SLP196 60000 T01170111 51008=
202212120152 METAR KATL 120152Z 10003KT 1/4SM R09R/P6000FT BR OVC002 12/11 A3010 RMK AO2 SFC VIS 3 SLP194 VIS NE-E 2 T01220111=
202212120139 SPECI KATL 120139Z 09003KT 1/4SM R09R/P6000FT BR OVC003 12/12 A3010 RMK AO2 SFC VIS 6 CIG 002V005 T01220117=
202212120052 METAR KATL 120052Z 00000KT 2SM BR OVC004 12/12 A3009 RMK AO2 SFC VIS 6 RAB01E16 SLP190 CIG 002V006 P0000 T01220117=
202212112352 METAR KATL 112352Z 13003KT 1 1/4SM OVC004 12/11 A3008 RMK AO2 SFC VIS 7 RAE20 SLP187 CIG 003V005 P0000 60044 T01220111 10122 20117 56008=
202212112252 METAR KATL 112252Z 10004KT 1 1/4SM -RA OVC005 12/11 A3009 RMK AO2 SFC VIS 7 SLP190 CIG 004V007 P0003 T01220111=
202212112152 METAR KATL 112152Z 15005KT 1 1/2SM -RA BR BKN005 OVC070 12/11 A3009 RMK AO2 SFC VIS 5 SLP190 CIG 004V006 P0006 T01220111=
202212112111 SPECI KATL 112111Z 14003KT 1 1/2SM -RA BR BKN006 OVC060 12/11 A3011 RMK AO2 SFC VIS 5 BKN V SCT P0001 T01220111=
202212112052 METAR KATL 112052Z 13004KT 1/2SM R09R/P6000FT -RA BR BKN005 OVC060 12/11 A3011 RMK AO2 SFC VIS 4 SLP194 CIG 004V006 TWRINC P0018 60035 T01220111 56009=
202212111952 METAR KATL 111952Z 00000KT 1/2SM R09R/P6000FT RA BR BKN005 BKN012 OVC022 12/11 A3011 RMK AO2 SFC VIS 2 SLP195 CIG 004V007 TWRINC P0013 T01220111=
202212111907 SPECI KATL 111907Z 12004KT 1/2SM R09R/P6000FT RA BR OVC005 12/11 A3010 RMK AO2 SFC VIS 2 1/2 CIG 004V007 TWRINC P0001 T01220111=
202212111852 METAR KATL 111852Z 11003KT 1/2SM R09R/P6000FT -RA BR OVC004 12/11 A3011 RMK AO2 SFC VIS 2 1/2 SLP197 CIG 003V007 TWRINC P0004 T01170111=
202212111752 METAR KATL 111752Z 16004KT 1/2SM R09R/5000VP6000FT -RA BR OVC002 12/11 A3013 RMK AO2 SFC VIS 1 1/4 DZE42RAB42 SLP205 TWRINC P0000 60000 T01170111 10117 20111 58012=
202212111652 METAR KATL 111652Z 10006KT 1/2SM R09R/4000V5000FT -DZ BR OVC002 11/11 A3015 RMK AO2 SFC VIS 3/4 SLP209 P0000 T01110106=
202212111552 METAR KATL 111552Z 09004KT 1/2SM R09R/6000VP6000FT -DZ BR OVC003 12/11 A3018 RMK AO2 SFC VIS 1 SLP221 TWRINC P0000 T01170106=
202212111452 METAR KATL 111452Z 10005KT 1/2SM R09R/6000VP6000FT -DZ BR OVC003 11/11 A3017 RMK AO2 SFC VIS 1 1/4 SLP217 TWRINC P0000 60000 T01110106 51006=
202212111352 METAR KATL 111352Z 08004KT 1/2SM R09R/6000VP6000FT -DZ BR OVC003 11/11 A3017 RMK AO2 SFC VIS 1 SLP217 CIG 002V004 TWRINC P0000 T01110106=
202212111252 METAR KATL 111252Z 00000KT 1/2SM R09R/P6000FT -DZ BR OVC003 11/11 A3016 RMK AO2 SFC VIS 1 1/2 DZB46 SLP214 CIG 002V004 TWRINC P0000 T01110106=
202212111219 SPECI KATL 111219Z 15005KT 1/2SM R09R/P6000FT BR OVC003 11/10 A3015 RMK AO2 SFC VIS 5 TWRINC T01110100=
202212111204 SPECI KATL 111204Z 13005KT 1 1/2SM BR OVC003 11/10 A3015 RMK AO2 SFC VIS 5 TWRINC T01110100=
202212111152 METAR KATL 111152Z 13006KT 3SM BR OVC004 11/10 A3015 RMK AO2 SFC VIS 6 RAB38E48 SLP210 P0000 60000 T01110100 10117 20111 58004=
202212111052 METAR KATL 111052Z 12004KT 3SM BR OVC003 11/11 A3016 RMK AO2 SFC VIS 6 DZB11E48 SLP214 CIG 022V004 P0000 T01110106=
202212110952 METAR KATL 110952Z 08006KT 4SM BR OVC004 12/11 A3016 RMK AO2 SLP214 T01170106=
202212110852 METAR KATL 110852Z 14003KT 6SM BR OVC004 12/11 A3016 RMK AO2 SLP213 T01170106 55005=
202212110800 SPECI KATL 110800Z 15004KT 7SM OVC004 12/11 A3016 RMK AO2 T01170106=
202212110752 METAR KATL 110752Z 14007KT 7SM OVC005 12/10 A3016 RMK AO2 SLP212 T01170100=
202212110652 METAR KATL 110652Z 13006KT 7SM OVC006 12/10 A3017 RMK AO2 SLP215 T01170100=
202212110552 METAR KATL 110552Z 12004KT 10SM BKN006 OVC010 12/11 A3018 RMK AO2 RAB30E42 SLP218 P0000 60000 T01170106 10117 20117 50003=
202212110452 METAR KATL 110452Z 13007KT 9SM BKN005 OVC010 12/10 A3018 RMK AO2 SLP219 DZE39 CIG 004V007 P0000 T01170100 401390111=
202212110448 SPECI KATL 110448Z 12006KT 9SM BKN005 OVC010 12/11 A3018 RMK AO2 DZE39 CIG 004V007 P0000=
202212110352 METAR KATL 110352Z 16010KT 7SM -DZ BKN004 OVC009 12/11 A3017 RMK AO2 DZB50 SLP216 PCPN VRY LGT P0000 T01170106=
202212110350 SPECI KATL 110350Z 17009G17KT 7SM -DZ BKN004 OVC009 12/11 A3017 RMK AO2 DZB50 P0000=
202212110327 SPECI KATL 110327Z 14009KT 7SM SCT004 OVC009 12/11 A3018 RMK AO2 PRESFR T01170106=
202212110252 METAR KATL 110252Z 13005KT 7SM SCT005 OVC010 12/11 A3021 RMK AO2 SLP230 DZE40 P0000 60000 T01170106 50007=
202212110247 SPECI KATL 110247Z 13004KT 7SM SCT005 OVC010 12/11 A3021 RMK AO2 DZE40 P0000=
202212110152 METAR KATL 110152Z 08006KT 3SM -DZ BR OVC006 12/11 A3022 RMK AO2 SFC VIS 6 SLP236 P0000 T01170106=
202212110052 METAR KATL 110052Z 12007KT 1 1/2SM -DZ BR OVC003 12/11 A3019 RMK AO2 SFC VIS 4 SLP225 TWRINC P0000 T01170106=
202212102352 METAR KATL 102352Z 12007KT 1 1/2SM -DZ BR OVC004 12/11 A3019 RMK AO2 SFC VIS 5 SLP223 DZB44 TWRINC P0000 60000 T01170106 10139 20117 50005=
202212102340 SPECI KATL 102340Z 10006KT 1 1/2SM BR OVC004 12/11 A3019 RMK AO2 SFC VIS 6 TWRINC T01220106=
202212102252 METAR KATL 102252Z 11006KT 6SM BR OVC004 12/11 A3019 RMK AO2 SLP223 T01220111=
202212102152 METAR KATL 102152Z 13004KT 7SM OVC005 12/11 A3018 RMK AO2 SLP220 T01220111=
202212102052 METAR KATL 102052Z 17005KT 9SM OVC008 13/11 A3017 RMK AO2 SLP216 T01280111 55007=
202212102004 SPECI KATL 102004Z 14007KT 9SM OVC009 13/11 A3016 RMK AO2 T01330111=
202212101952 METAR KATL 101952Z 09006KT 9SM OVC010 13/11 A3016 RMK AO2 SLP212 T01330111=
202212101852 METAR KATL 101852Z 09005KT 8SM OVC010 14/11 A3017 RMK AO2 SLP217 T01390111=
202212101836 SPECI KATL 101836Z 11006KT 8SM OVC010 14/11 A3018 RMK AO2 T01390111=
202212101813 SPECI KATL 101813Z 10003KT 7SM BKN007 OVC012 14/11 A3019 RMK AO2 T01390111=
202212101752 METAR KATL 101752Z 09004KT 1SM R09R/P6000FT OVC006 13/11 A3019 RMK AO2 SFC VIS 7 SLP223 T01330111 10133 20111 58010=
202212101714 SPECI KATL 101714Z 09005KT 1SM R09R/P6000FT BR OVC005 13/11 A3021 RMK AO2 SFC VIS 5 T01280111=
202212101652 METAR KATL 101652Z 09005KT 1SM R09R/P6000FT BR OVC004 12/11 A3022 RMK AO2 SFC VIS 4 SLP233 CIG 003V005 T01220111=
202212101634 SPECI KATL 101634Z 07005KT 1SM R09R/P6000FT BR OVC004 12/11 A3023 RMK AO2 SFC VIS 3 T01220106=
202212101552 METAR KATL 101552Z 11004KT 3SM BR OVC004 12/11 A3023 RMK AO2 SFC VIS 4 SLP237 T01170106=
202212101452 METAR KATL 101452Z 11004KT 3SM BR OVC004 12/11 A3022 RMK AO2 SFC VIS 4 SLP233 T01170106 53011=
202212101421 SPECI KATL 101421Z 08006KT 3SM BR OVC004 12/11 A3022 RMK AO2 VIS S-SW 1 1/2 CIG 002V005 T01170106=
202212101406 SPECI KATL 101406Z 09006KT 1SM R09R/P6000FT BR OVC003 12/11 A3021 RMK AO2 TWR VIS 3 VIS S 1 1/2 T01170106=
202212101352 METAR KATL 101352Z 10006KT 2SM BR OVC004 12/11 A3021 RMK AO2 TWR VIS 3 SLP227 VIS S 4 CIG 003V005 T01170106=
202212101335 SPECI KATL 101335Z 09006KT 3SM BR BKN005 OVC008 12/11 A3020 RMK AO2 SFC VIS 6 CIG 004V006 T01170106=
202212101252 METAR KATL 101252Z 09008KT 3SM BR BKN004 OVC012 12/11 A3019 RMK AO2 SFC VIS 6 SLP223 CIG 003V006 T01170106=
202212101250 SPECI KATL 101250Z 10008KT 3SM BR BKN004 OVC012 12/11 A3019 RMK AO2 SFC VIS 6 CIG 003V006=
202212101152 METAR KATL 101152Z 08008KT 1/2SM R09R/P6000FT BR OVC004 12/11 A3019 RMK AO2 SFC VIS 6 SLP222 CIG 003V005 60000 70041 T01170106 10133 20117 53009=
202212101052 METAR KATL 101052Z 09007KT 1/2SM R09R/P6000FT BR OVC003 12/11 A3017 RMK AO2 SFC VIS 2 DZE07 SLP215 CIG 002V005 TWRINC P0000 T01170111=
202212100952 METAR KATL 100952Z 09009KT 1/2SM R09R/P6000FT -DZ BR OVC003 12/11 A3016 RMK AO2 SFC VIS 2 SLP211 CIG 002V004 TWRINC P0000 T01170111=
202212100852 METAR KATL 100852Z 08007KT 1/2SM R09R/P6000FT -DZ BR OVC003 13/12 A3016 RMK AO2 SFC VIS 3 DZE33B50 SLP211 CIG 002V006 TWRINC P0000 60000 T01280117 51002=
202212100752 METAR KATL 100752Z 07008KT 1/2SM R09R/P6000FT -DZ BR BKN004 OVC008 13/12 A3016 RMK AO2 SFC VIS 3 DZB49 SLP210 CIG 002V006 P0000 T01280122=
202212100736 SPECI KATL 100736Z 08009KT 1/2SM R09R/P6000FT BR OVC004 13/12 A3016 RMK AO2 SFC VIS 3 CIG 002V006 T01280122=
202212100721 SPECI KATL 100721Z 08007KT 1/2SM R09R/P6000FT BR FEW002 BKN005 OVC009 13/12 A3016 RMK AO2 SFC VIS 5 CIG 004V007 T01330122=
202212100652 METAR KATL 100652Z 07008KT 1/2SM R09R/6000VP6000FT BR OVC003 13/12 A3015 RMK AO2 SFC VIS 1 SLP208 T01280122=
202212100552 METAR KATL 100552Z 09009KT 1/2SM R09R/P6000FT BR OVC004 13/12 A3015 RMK AO2 SFC VIS 4 RAB33E45 SLP206 CIG 002V006 P0000 60018 T01330122 10156 20133 51004=
202212100458 SPECI KATL 100458Z 09007KT 1/2SM R09R/P6000FT BR OVC002 14/13 A3015 RMK AO2 SFC VIS 2 T01390128=
202212100452 METAR KATL 100452Z 07007KT 1 1/4SM OVC003 14/13 A3015 RMK AO2 SFC VIS 8 SLP206 CIG 002V006 T01390133 402170139=
202212100352 METAR KATL 100352Z 09007KT 1 1/4SM OVC004 14/13 A3015 RMK AO2 SFC VIS 9 RAE09 SLP204 CIG 003V006 P0000 T01390133=
202212100309 SPECI KATL 100309Z 10006KT 1 1/4SM BKN003 OVC010 14/13 A3014 RMK AO2 SFC VIS 8 RAE09 P0000 T01440133=
202212100252 METAR KATL 100252Z 09008KT 3SM -RA BKN005 OVC020 14/13 A3014 RMK AO2 SFC VIS 7 RAB0157E09B51 SLP202 CIG 003V007 P0000 60018 T01440133 53009=
202212100152 METAR KATL 100152Z 08009KT 3SM BKN005 OVC020 14/14 A3013 RMK AO2 SFC VIS 9 RAE06 SLP201 CIG 003V007 P0000 T01440139=
202212100052 METAR KATL 100052Z 09009KT 2 1/2SM -RA BKN005 BKN020 OVC040 15/14 A3012 RMK AO2 SFC VIS 7 SLP197 CIG 003V007 P0018 T01500139=
202212092352 METAR KATL 092352Z 07013KT 3SM RA BR SCT007 BKN018 OVC040 16/14 A3011 RMK AO2 SLP194 SCT007 V BKN P0013 60023 T01560139 10211 20156 53007=
202212092334 SPECI KATL 092334Z 06011G19KT 4SM RA BR BKN005 OVC025 16/14 A3011 RMK AO2 CIG 003V008 P0010 T01560144=
202212092327 SPECI KATL 092327Z 07011G19KT 2SM RA BR BKN005 OVC025 16/14 A3011 RMK AO2 CIG 003V008 P0005 T01560144=
202212092252 METAR KATL 092252Z 09009KT 8SM -RA BKN005 OVC025 16/14 A3010 RMK AO2 SLP189 CIG 004V007 P0000 T01610144=
202212092152 METAR KATL 092152Z 07008KT 7SM -RA OVC004 17/16 A3010 RMK AO2 SLP190 P0005 T01670156=
202212092120 SPECI KATL 092120Z 07009KT 7SM -RA OVC004 17/16 A3010 RMK AO2 P0000 T01670156=
202212092052 METAR KATL 092052Z 08010KT 5SM -RA BR BKN005 OVC022 17/16 A3009 RMK AO2 RAE16B21 SLP186 BKN V SCT P0002 60005 T01720161 55003=
202212092020 SPECI KATL 092020Z 36005KT 5SM BR BKN005 OVC023 19/18 A3009 RMK AO2 RAE16 P0002 T01940178=
202212092000 SPECI KATL 092000Z 35006KT 3SM -RA BR FEW006 SCT011 OVC028 19/18 A3009 RMK AO2 P0002 T01890178=
202212091952 METAR KATL 091952Z 36009KT 1 1/4SM R09R/5500VP6000FT RA BR SCT006 BKN011 OVC033 19/18 A3009 RMK AO2 RAB39 SLP185 P0003 T01940178=
202212091947 SPECI KATL 091947Z 36007KT 1 1/2SM R09R/6000VP6000FT RA BR FEW006 BKN012 OVC030 19/18 A3009 RMK AO2 RAB39 P0000=
202212091942 SPECI KATL 091942Z 36007KT 5SM -RA FEW006 BKN012 OVC030 20/17 A3008 RMK AO2 RAB39 P0000 T02000172=
202212091918 SPECI KATL 091918Z 31003KT 7SM FEW011 BKN020 OVC040 20/18 A3008 RMK AO2 T02000178=
202212091902 SPECI KATL 091902Z 00000KT 7SM FEW011 SCT023 OVC035 20/18 A3009 RMK AO2 T02000178=
202212091852 METAR KATL 091852Z 34004KT 7SM FEW011 BKN024 OVC035 20/18 A3009 RMK AO2 RAE1755B04E40 SLP183 P0000 T02000178=
202212091803 SPECI KATL 091803Z 31003KT 8SM FEW013 BKN022 OVC060 21/17 A3010 RMK AO2 RAE1755 P0000 T02110167=
202212091752 METAR KATL 091752Z VRB04KT 6SM -RA FEW015 SCT025 OVC060 21/17 A3010 RMK AO2 RAB46 SLP187 P0000 60000 T02110167 10217 20167 58013=
202212091652 METAR KATL 091652Z 35003KT 10SM FEW016 BKN034 OVC070 22/17 A3012 RMK AO2 SLP193 BINOVC T02170167=
202212091552 METAR KATL 091552Z 30003KT 8SM FEW018 SCT075 BKN110 BKN140 22/17 A3014 RMK AO2 SLP199 T02170167=
202212091452 METAR KATL 091452Z 00000KT 8SM FEW065 BKN110 BKN140 BKN250 19/16 A3014 RMK AO2 SLP201 T01940161 53010=
202212091352 METAR KATL 091352Z 20004KT 7SM FEW075 BKN230 18/16 A3013 RMK AO2 SLP197 T01780156=
202212091252 METAR KATL 091252Z 00000KT 7SM SCT038 SCT047 BKN075 BKN200 17/16 A3012 RMK AO2 SLP195 T01670156=
202212091152 METAR KATL 091152Z 22004KT 10SM SCT036 SCT045 BKN075 17/16 A3011 RMK AO2 SLP191 T01720161 10183 20172 56002 $=
202212091052 METAR KATL 091052Z 26004KT 10SM SCT044 BKN050 BKN075 18/16 A3011 RMK AO2 SLP190 T01780156 $=
202212090952 METAR KATL 090952Z 26005KT 9SM BKN043 BKN085 17/16 A3011 RMK AO2 SLP191 T01720156 $=
202212090852 METAR KATL 090852Z 26004KT 10SM BKN075 18/16 A3012 RMK AO2 SLP192 T01780156 56008 $=
202212090752 METAR KATL 090752Z 27005KT 10SM FEW042 BKN070 18/16 A3013 RMK AO2 SLP195 T01780156 $=
202212090652 METAR KATL 090652Z 27006KT 10SM SCT042 SCT065 18/16 A3013 RMK AO2 SLPNO T01780156 $=
202212090552 METAR KATL 090552Z 27006KT 10SM FEW028 SCT040 18/16 A3014 RMK AO2 SLP201 T01780156 10211 20178 56003 $=
202212090452 METAR KATL 090452Z 25003KT 10SM FEW035 FEW250 18/16 A3015 RMK AO2 SLP202 T01780156 402560128 $=
202212090352 METAR KATL 090352Z 00000KT 10SM BKN035 BKN250 18/16 A3015 RMK AO2 SLP202 T01830161 $=
202212090252 METAR KATL 090252Z 26003KT 10SM FEW250 18/16 A3015 RMK AO2 SLP206 T01830161 53003 $=
202212090152 METAR KATL 090152Z 23003KT 10SM FEW250 18/16 A3015 RMK AO2 SLP205 T01830161 $=
202212090052 METAR KATL 090052Z 00000KT 10SM SCT250 20/16 A3014 RMK AO2 SLP202 T02000161=
202212082352 METAR KATL 082352Z 24004KT 10SM FEW035 SCT250 21/17 A3014 RMK AO2 SLP203 T02060167 10250 20206 53004=
202212082252 METAR KATL 082252Z 25004KT 10SM FEW035 FEW060 SCT250 22/17 A3014 RMK AO2 SLP200 MDT CU SE-SW T02220167=
202212082152 METAR KATL 082152Z 26011KT 10SM FEW036 FEW055 SCT080 SCT250 24/16 A3013 RMK AO2 SLP198 TCU DSNT E W MDT CU N SE T02390161=
202212082052 METAR KATL 082052Z 24010KT 10SM FEW039TCU SCT075 SCT250 24/17 A3013 RMK AO2 SLP197 TCU N NE DSNT NW-NE MDT CU S T02440167=
202212081952 METAR KATL 081952Z 27007KT 10SM FEW036 SCT046 SCT065 SCT250 25/16 A3014 RMK AO2 SLP198 MDT CU N-NE S-SW NW T02500161=
202212081918 SPECI KATL 081918Z 28008KT 10SM SCT034TCU SCT065 SCT250 26/17 A3015 RMK AO2 TCU N-NE T02560167=
202212081852 METAR KATL 081852Z 24011G16KT 10SM SCT028TCU SCT065 SCT250 25/17 A3016 RMK SLP229 TCU N NE T02500167=
202212081752 METAR KATL 081752Z 27006KT 10SM SCT026TCU SCT055 SCT250 24/18 A3019 RMK AO2 SLP215 TCU W-NW MDT CU N SE-SW T02390178 10239 20161 58021 $=
202212081652 METAR KATL 081652Z 28005KT 10SM FEW018 SCT038 SCT250 22/18 A3022 RMK AO2 SLP226 MDT CU SE-S T02220183 $=
202212081552 METAR KATL 081552Z 29006KT 10SM FEW014 SCT032 SCT250 20/17 A3024 RMK AO2 SLP236 T02000172 $=
202212081452 METAR KATL 081452Z 26004KT 8SM FEW006 FEW012 SCT250 19/17 A3025 RMK AO2 SLP237 T01890172 51006 $=
202212081442 SPECI KATL 081442Z 27004KT 8SM FEW003 SCT250 18/17 A3025 RMK AO2 T01830167 $=
202212081417 SPECI KATL 081417Z 24003KT 1SM R09R/5000VP6000FT BR FEW001 FEW030 SCT250 17/17 A3025 RMK AO2 SFC VIS 2 T01720167=
202212081400 SPECI KATL 081400Z 24003KT 1/2SM R09R/1800V4000FT BR FEW001 FEW030 SCT250 17/17 A3024 RMK AO2 SFC VIS 3/4 T01720167=
202212081352 METAR KATL 081352Z 24003KT 1/2SM R09R/1400V1800FT BR FEW001 FEW030 SCT250 17/16 A3024 RMK AO2 SFC VIS 3/4 SLP237 VIS NW 1/2 T01670161=
202212081320 SPECI KATL 081320Z 00000KT 1/4SM R09R/0800V1400FT BR BKN001 BKN250 17/16 A3024 RMK AO2 SFC VIS 3/4 VIS NW-NE 1/2 T01670161=
202212081259 SPECI KATL 081259Z 00000KT 1/2SM R09R/0800V1200FT FG VV001 16/16 A3024 RMK AO2 T01610156=
202212081252 METAR KATL 081252Z 00000KT 1/2SM R09R/1000V3500FT BR VV001 16/16 A3024 RMK AO2 SFC VIS 3/4 SLP234 VIS SW-NW 1/2 T01610156=
202212081244 SPECI KATL 081244Z 00000KT 1SM R09R/1800V4000FT BR BKN002 BKN250 17/16 A3023 RMK AO2 T01670161=
202212081152 METAR KATL 081152Z 26004KT 1SM R09R/1600V3000FT BR FEW001 FEW250 17/16 A3023 RMK AO2 SLP231 T01670161 10189 20161 55001=
202212081142 SPECI KATL 081142Z 00000KT 1/2SM R09R/1400V2600FT FG VV001 17/16 A3023 RMK AO2 T01670161=
202212081116 SPECI KATL 081116Z 00000KT 1/4SM R09R/1600V2400FT FG VV001 17/17 A3022 RMK AO2 T01720167 $=
202212081106 SPECI KATL 081106Z 00000KT 3/4SM R09R/2000V5500FT BR VV002 17/17 A3022 RMK AO2 VIS NW-NE 1/2 T01720167 $=
202212081100 SPECI KATL 081100Z 00000KT 1SM R09R/4000VP6000FT BR BKN002 17/17 A3022 RMK AO2 VIS NW-NE 1/2 T01720167 $=
202212081052 METAR KATL 081052Z 00000KT 1 1/4SM BR SCT001 17/16 A3022 RMK AO2 SLP227 VIS NW-NE 1/2 T01670161 $=
202212081043 SPECI KATL 081043Z 00000KT 1SM R09R/4000VP6000FT BR VV002 17/16 A3022 RMK AO2 T01670161 $=
202212081028 SPECI KATL 081028Z 00000KT 1/2SM R09R/1800V5500FT FG VV001 17/16 A3021 RMK AO2 T01670156 $=
202212081016 SPECI KATL 081016Z 00000KT 1/4SM R09R/1400V4500FT FG VV001 17/16 A3021 RMK AO2 T01670161 $=
202212081005 SPECI KATL 081005Z 00000KT 1/4SM R09R/1200V2000FT FG VV001 17/16 A3022 RMK AO2 T01670161 $=
202212080952 METAR KATL 080952Z 00000KT 1/4SM R09R/1000V3500FT FG BKN001 17/16 A3022 RMK AO2 SLP226 T01670161 $=
202212080949 SPECI KATL 080949Z 00000KT 1/4SM R09R/2000VP6000FT FG BKN001 17/16 A3022 RMK AO2 $=
202212080852 METAR KATL 080852Z 00000KT 8SM FEW005 FEW080 18/17 A3023 RMK AO2 SLP232 T01780167 58009 $=
202212080752 METAR KATL 080752Z 00000KT 8SM FEW005 FEW050 SCT080 18/17 A3024 RMK AO2 SLP235 T01780172 $=
202212080652 METAR KATL 080652Z 00000KT 5SM BR FEW005 SCT050 SCT100 18/17 A3025 RMK AO2 SLP238 T01830172 $=
202212080552 METAR KATL 080552Z 00000KT 7SM FEW005 BKN050 BKN090 BKN200 19/18 A3026 RMK AO2 RAE04 SLP241 P0000 60000 T01890178 10206 20189 58012 $=
202212080452 METAR KATL 080452Z 30004KT 4SM -RA BR FEW020 BKN035 OVC050 19/18 A3028 RMK AO2 RAE14B34 SLP248 P0000 T01890183 402280122 $=
202212080352 METAR KATL 080352Z 00000KT 8SM -RA BKN035 BKN050 BKN200 19/18 A3028 RMK AO2 SLP249 P0000 T01940183 $=
202212080252 METAR KATL 080252Z 00000KT 6SM -RA BR FEW010 SCT028 BKN035 BKN200 19/18 A3029 RMK AO2 SLP254 P0000 60000 T01940183 51008 $=
202212080152 METAR KATL 080152Z 00000KT 6SM -RA BR FEW010 BKN025 OVC040 20/18 A3029 RMK AO2 RAB21 SLP254 P0000 T02000183 $=
202212080122 SPECI KATL 080122Z 00000KT 7SM -RA BKN022 BKN030 OVC055 21/18 A3029 RMK AO2 RAB21 P0000 T02060178 $=
202212080052 METAR KATL 080052Z 00000KT 10SM FEW030 BKN045 BKN060 BKN200 20/18 A3029 RMK AO2 SLP253 SHRA NW-N T02000178 $=
202212072352 METAR KATL 072352Z 24004KT 10SM FEW012 SCT035 BKN070 BKN200 21/18 A3027 RMK AO2 SLP247 T02060178 10228 20206 53005 $=
202212072252 METAR KATL 072252Z 25005KT 10SM FEW040 BKN075 BKN200 21/18 A3026 RMK AO2 SLP244 CB DSNT NE SHRA DSNT NE T02110178 $=
202212072152 METAR KATL 072152Z 24005KT 10SM FEW014 SCT038 BKN065 BKN200 22/18 A3026 RMK AO2 SLP242 CB DSNT N-NE SHRA DSNT NW-NE T02170183 $=
202212072052 METAR KATL 072052Z 25005KT 10SM SCT026 BKN040 BKN065 BKN200 22/18 A3025 RMK AO2 SLP241 T02220178 55008 $=
202212072045 SPECI KATL 072045Z 25005KT 10SM SCT028 BKN040 BKN065 BKN200 22/18 A3025 RMK AO2 T02220178 $=
202212071952 METAR KATL 071952Z 23007KT 10SM SCT017 BKN026 OVC036 22/18 A3025 RMK AO2 SLP241 T02220178 $=
202212071852 METAR KATL 071852Z 23008KT 10SM BKN015 BKN026 OVC050 22/18 A3026 RMK AO2 SLP242 CIG 013V017 T02170183=
202212071752 METAR KATL 071752Z 24006KT 9SM SCT008 BKN012 OVC024 21/18 A3028 RMK AO2 SLP251 CIG 010V014 60000 T02060183 10206 20144 58008 PNO $=
202212071749 SPECI KATL 071749Z 23008KT 8SM SCT008 BKN012 OVC024 21/18 A3028 RMK AO2 CIG 010V014 60000 PNO $=
202212071652 METAR KATL 071652Z 23007KT 7SM BKN007 OVC013 20/18 A3029 RMK AO2 SLP256 CIG 005V009 T02000183 PNO $=
202212071552 METAR KATL 071552Z 22007KT 6SM BR BKN007 BKN022 OVC050 19/18 A3030 RMK AO2 SLP260 CIG 005V009 T01890183 PNO $=
202212071452 METAR KATL 071452Z 21006KT 1 1/4SM BR BKN006 BKN028 OVC050 18/18 A3030 RMK AO2 SFC VIS 4 RAB36E51 SLP259 CIG 004V008 P0000 60000 T01830178 53014 PNO $=
202212071408 SPECI KATL 071408Z 18003KT 1 1/4SM BR BKN006 OVC014 18/17 A3029 RMK AO2 SFC VIS 3 CIG 004V008 T01780167 PNO $=
202212071352 METAR KATL 071352Z 18003KT 1 1/4SM BR SCT002 OVC010 17/17 A3029 RMK AO2 SFC VIS 4 SLP254 TWRINC T01720167 PNO $=
202212071337 SPECI KATL 071337Z 00000KT 1/2SM R09R/P6000FT BR BKN002 OVC010 16/16 A3028 RMK AO2 SFC VIS 2 TWRINC T01610156 PNO $=
202212071252 METAR KATL 071252Z 16003KT 1/4SM R09R/1600V4000FT FG VV002 14/14 A3027 RMK AO2 SFC VIS 1/2 SLP248 T01440144 PNO $=
202212071152 METAR KATL 071152Z 00000KT 1/4SM R09R/2000V3500FT FG VV002 14/14 A3026 RMK AO2 SLP245 T01440139 10144 20122 52004 PNO $=
202212071127 SPECI KATL 071127Z 00000KT 1/4SM R09R/1400V2200FT FG VV002 14/13 A3025 RMK AO2 T01440133 PNO $=
202212071052 METAR KATL 071052Z 00000KT 1/4SM R09R/1800V3000FT FG VV002 14/13 A3025 RMK AO2 SLP241 T01390133 PNO $=
202212070952 METAR KATL 070952Z 00000KT 1/4SM R09R/4000VP6000FT BR VV003 13/13 A3024 RMK AO2 SFC VIS 3/4 SLP241 T01330128 PNO $=
202212070852 METAR KATL 070852Z 00000KT 1/4SM R09R/5500VP6000FT BR VV003 13/12 A3024 RMK AO2 SFC VIS 1 SLP240 T01280122 58000 PNO $=
202212070804 SPECI KATL 070804Z 00000KT 1/4SM R09R/2200V2800FT FG VV002 13/12 A3024 RMK AO2 T01280122 PNO $=
202212070752 METAR KATL 070752Z 15003KT 1/4SM R09R/2000FT FG VV002 13/12 A3024 RMK AO2 SLP239 T01280122 PNO $=
202212070745 SPECI KATL 070745Z 15003KT 1/4SM R09R/1800V2000FT FG VV002 12/12 A3024 RMK AO2 T01220117 PNO $=
202212070652 METAR KATL 070652Z 00000KT 1/4SM R09R/P6000FT BR OVC002 12/12 A3024 RMK AO2 SFC VIS 2 SLP241 TWRINC T01220117 PNO $=
202212070552 METAR KATL 070552Z 15003KT 1/4SM R09R/P6000FT BR OVC003 12/12 A3024 RMK AO2 SFC VIS 3 SLP241 60000 T01220117 10122 20117 51005 PNO $=
202212070452 METAR KATL 070452Z 12006KT 1/4SM R09R/P6000FT BR OVC003 12/12 A3024 RMK AO2 SFC VIS 2 RAE23 SLP241 P0000 T01220117 401280089 PNO $=
202212070352 METAR KATL 070352Z 10005KT 1/4SM R09R/P6000FT -RA BR OVC003 12/11 A3023 RMK AO2 SFC VIS 1 1/2 RAB50 SLP238 P0000 T01170111 PNO $=
202212070252 METAR KATL 070252Z 09007KT 1/4SM R09R/P6000FT BR OVC002 12/12 A3023 RMK AO2 SFC VIS 3/4 SLP236 T01220117 53010 PNO $=
202212070152 METAR KATL 070152Z 12005KT 1/4SM R09R/2200V3000FT FG VV002 12/12 A3021 RMK AO2 SLP230 T01220117 PNO $=
202212070117 SPECI KATL 070117Z 11005KT 1/4SM R09R/2000V2600FT FG VV002 12/12 A3021 RMK AO2 T01220117 PNO $=
202212070052 METAR KATL 070052Z 11006KT 1/4SM R09R/1600V2200FT FG VV002 12/12 A3020 RMK AO2 SLP228 T01220117 PNO $=
202212070029 SPECI KATL 070029Z 10006KT 1/4SM R09R/1600V2000FT FG VV002 12/12 A3020 RMK AO2 T01220117 PNO $=
202212062352 METAR KATL 062352Z VRB06KT 1/4SM R09R/2000V3000FT FG VV002 12/11 A3020 RMK AO2 SLP226 60000 T01170111 10128 20106 53009 PNO $=
202212062252 METAR KATL 062252Z 11007KT 1/2SM R09R/2600V4000FT FG OVC002 12/12 A3019 RMK AO2 SLP223 T01220117 PNO $=
202212062152 METAR KATL 062152Z 08007KT 1/2SM R09R/2800V5000FT FG OVC002 12/12 A3017 RMK AO2 SLP219 CIG 001V003 T01220117 PNO $=
202212062052 METAR KATL 062052Z 11007KT 1/2SM R09R/2200V5000FT FG OVC002 12/12 A3017 RMK AO2 SLP217 CIG 001V003 T01220117 55004 PNO $=
202212061952 METAR KATL 061952Z AUTO 08006KT 1/2SM R09R/P6000FT BR OVC003 12/11 A3017 RMK AO2 SFC VIS 1 1/4 SLP216 T01220111 PNO $=
202212061852 METAR KATL 061852Z 11004KT 1/2SM R09R/P6000FT BR OVC002 12/11 A3017 RMK AO2 SFC VIS 2 1/2 VIS 2V3 SLP217 CIG 001V003 TWRINC T01220111 PNO $=
202212061752 METAR KATL 061752Z 11006KT 1/2SM R09R/2400V4000FT FG OVC002 11/10 A3018 RMK AO2 DZE47 SLP222 CIG 001V003 P0000 60000 T01060100 10106 20094 58004 PNO $=
202212061652 METAR KATL 061652Z 12005KT 1/2SM R09R/2800V4500FT -DZ FG OVC002 10/09 A3020 RMK AO2 SLP229 CIG 001V003 P0000 T01000094=
202212061552 METAR KATL 061552Z 11004KT 1/2SM R09R/P6000FT -DZ BR OVC003 10/09 A3021 RMK AO2 SFC VIS 2 1/2 SLP231 CIG 002V004 TWRINC P0000 T01000089=
202212061452 METAR KATL 061452Z 10009KT 1/2SM R09R/P6000FT -DZ BR OVC003 09/09 A3019 RMK AO2 SFC VIS 2 RAB24E36 SLP226 CIG 002V004 TWRINC P0000 60000 T00940089 51020=
202212061352 METAR KATL 061352Z 09007KT 1/2SM R09R/6000VP6000FT -DZ BR OVC003 09/09 A3018 RMK AO2 SFC VIS 1 DZE1256B18RAB1256E18 SLP221 TWRINC P0000 T00940089=
202212061252 METAR KATL 061252Z 10007KT 050V120 1/2SM R09R/P6000FT -DZ BR OVC003 09/09 A3015 RMK AO2 SFC VIS 1 1/4 SLP213 RAB1159E08DZB08 CIG 002V004 TWRINC P0000 T00940089=
202212061152 METAR KATL 061152Z 10007KT 1/2SM R09R/P6000FT BR OVC003 09/09 A3013 RMK AO2 SFC VIS 6 RAB07E33 SLP206 CIG 002V004 TWRINC P0013 60014 70097 T00940089 10100 20089 53010=
202212061143 SPECI KATL 061143Z 10006KT 1/2SM R09R/P6000FT BR OVC003 09/09 A3013 RMK AO2 SFC VIS 6 RAB07E33 TWRINC P0013 T00940089=
202212061121 SPECI KATL 061121Z 10008KT 1/2SM R09R/2400VP6000FT RA BR OVC003 09/09 A3012 RMK AO2 SFC VIS 1 1/2 RAB07 P0013 T00940089=
202212061112 SPECI KATL 061112Z 11008KT 1/2SM R09R/2000V2400FT -RA FG VV002 09/09 A3012 RMK AO2 RAB07 P0000 T00940089=
202212061110 SPECI KATL 061110Z 11009KT 1/4SM R09R/2000V2200FT -RA FG VV002 09/09 A3012 RMK AO2 TWR VIS 1/2 RAB07 P0000 T00940089=
202212061059 SPECI KATL 061059Z 10006KT 1/4SM R09R/2000V3000FT FG VV002 09/09 A3011 RMK AO2 TWR VIS 1/2 T00940089=
202212061052 METAR KATL 061052Z 10007KT 1/4SM R09R/2000V2200FT FG VV002 09/09 A3011 RMK AO2 TWR VIS 1/2 SLP199 T00940089=
202212060952 METAR KATL 060952Z 09007KT 1/4SM R09R/1800V2000FT FG VV002 10/09 A3010 RMK AO2 TWR VIS 1/2 SLP196 T01000094=
202212060852 METAR KATL 060852Z 12005KT 1/4SM R09R/2000FT FG VV002 09/09 A3010 RMK AO2 TWR VIS 1/2 DZE23 SLP195 P0000 60001 T00940089 50002=
202212060824 SPECI KATL 060824Z VRB06KT 1/4SM R09R/2000V2200FT FG VV002 09/09 A3011 RMK AO2 TWR VIS 1/2 DZE23 P0000 T00940089=
202212060817 SPECI KATL 060817Z VRB04KT 1/4SM R09R/2000V2400FT -DZ FG VV002 09/09 A3011 RMK AO2 TWR VIS 1/2 P0000 T00940089=
202212060752 METAR KATL 060752Z 13006KT 1/2SM R09R/2400V3000FT -DZ FG VV002 09/09 A3010 RMK AO2 DZE13B23RAB13E23 SLP196 P0001 T00940089=
202212060713 SPECI KATL 060713Z 14005KT 1/2SM R09R/2600V3000FT -RA FG VV002 09/08 A3010 RMK AO2 DZE13RAB13 P0001 T00890083=
202212060652 METAR KATL 060652Z 14005KT 1/4SM R09R/2000V2400FT -DZ FG VV002 09/09 A3010 RMK AO2 TWR VIS 1/2 RAE43DZB43 SLP194 P0000 T00890089=
202212060615 SPECI KATL 060615Z 14005KT 1/2SM R09R/3000V3500FT -RA FG VV002 09/08 A3010 RMK AO2 P0000 T00890083=
202212060552 METAR KATL 060552Z 13008KT 1/2SM R09R/P6000FT -RA BR OVC002 09/08 A3010 RMK AO2 SFC VIS 3 SLP193 TWRINC PCPN VRY LGT P0000 60008 T00890083 10089 20089 58004=
202212060452 METAR KATL 060452Z 11007KT 1/2SM R09R/P6000FT -RA BR OVC003 09/08 A3011 RMK AO2 SFC VIS 4 SLP197 TWRINC P0002 T00890083 401110089=
202212060352 METAR KATL 060352Z 13007KT 1/2SM R09R/P6000FT -RA BR OVC003 09/08 A3011 RMK AO2 SFC VIS 6 SLP196 TWRINC P0001 T00890078=
202212060252 METAR KATL 060252Z 12008KT 1 1/4SM -RA OVC004 09/08 A3011 RMK AO2 SFC VIS 10 SLP197 CIG 003V006 PCPN VRY LGT P0000 60005 T00890078 50006=
202212060152 METAR KATL 060152Z 11008KT 1 1/4SM -RA OVC005 09/08 A3012 RMK AO2 SFC VIS 8 RAE23B40 SLP200 CIG 003V007 P0004 T00890078=
202212060052 METAR KATL 060052Z 08007KT 1 1/4SM -RA OVC005 09/08 A3011 RMK AO2 SFC VIS 10 SLP198 CIG 003V006 P0001 T00890078=
202212052352 METAR KATL 052352Z 12008KT 1 1/4SM -RA OVC005 09/08 A3009 RMK AO2 SFC VIS 7 SLP190 CIG 003V007 P0001 60061 T00890078 10111 20089 53002=
202212052252 METAR KATL 052252Z 12007KT 1 1/4SM -RA BR BKN005 OVC012 09/08 A3008 RMK AO2 SFC VIS 6 SLP188 P0006 T00890078=
202212052152 METAR KATL 052152Z 12010KT 1 1/4SM RA BR BKN005 OVC012 09/08 A3008 RMK AO2 SFC VIS 4 SLP187 CIG 003V007 P0022 T00890083=
202212052145 SPECI KATL 052145Z 11009KT 1 1/4SM RA BR BKN005 OVC012 09/08 A3008 RMK AO2 SFC VIS 4 CIG 003V007 P0019 T00890078=
202212052052 METAR KATL 052052Z 11008KT 1/2SM R09R/P6000FT RA BR BKN005 BKN016 OVC042 09/08 A3008 RMK AO2 SFC VIS 2 SLP187 CIG 003V007 TWRINC P0019 60032 T00940083 55003=
202212052029 SPECI KATL 052029Z 10012KT 1/2SM R09R/P6000FT +RA BR BKN005 BKN018 OVC036 09/08 A3008 RMK AO2 SFC VIS 1 1/2 CIG 003V007 TWRINC P0011 T00940083=
202212051952 METAR KATL 051952Z 06013KT 1/2SM R09R/5500VP6000FT RA BR BKN004 OVC012 10/08 A3008 RMK AO2 SFC VIS 1 1/2 SLP186 CIG 003V006 TWRINC P0010 T01000083=
202212051852 METAR KATL 051852Z 11010KT 1/2SM R09R/P6000FT -RA BR OVC003 11/09 A3006 RMK AO2 SFC VIS 1 3/4 SLP181 CIG 002V005 TWRINC P0003 T01060094=
202212051808 SPECI KATL 051808Z 13008KT 1/2SM R09R/P6000FT -RA BR OVC003 11/10 A3008 RMK AO2 SFC VIS 2 CIG 002V004 TWRINC P0001 T01110100=
202212051752 METAR KATL 051752Z 14009KT 1SM R09R/P6000FT -RA BR OVC004 11/10 A3009 RMK AO2 SFC VIS 3 DZE26RAB26 SLP190 CIG 003V006 P0000 60014 T01110100 10111 20100 58019=
202212051750 SPECI KATL 051750Z 14008KT 1SM R09R/P6000FT -RA BR OVC004 11/10 A3009 RMK AO2 SFC VIS 3 DZE26RAB26 CIG 003V006 P0000=
202212051652 METAR KATL 051652Z 13006KT 6SM -DZ BR OVC005 11/10 A3012 RMK AO2 RAE51DZB51 SLP200 CIG 003V007 P0003 T01110100=
202212051552 METAR KATL 051552Z 14007KT 3SM -RA BR BKN005 BKN018 OVC050 11/09 A3015 RMK AO2 SLP209 CIG 004V007 P0010 T01060094=
202212051534 SPECI KATL 051534Z 12005KT 3SM RA BR SCT005 BKN020 OVC060 11/09 A3016 RMK AO2 P0008 T01060089=
202212051522 SPECI KATL 051522Z 10006KT 2 1/2SM RA BR SCT005 OVC020 10/09 A3016 RMK AO2 P0006 T01000089=
202212051512 SPECI KATL 051512Z 09006KT 2SM RA BR FEW005 OVC020 10/08 A3016 RMK AO2 P0003 T01000083=
202212051507 SPECI KATL 051507Z 09006KT 2 1/2SM RA BR OVC022 10/08 A3017 RMK AO2 P0002 T01000083=
202212051452 METAR KATL 051452Z 10007KT 5SM -RA BR BKN024 OVC031 11/08 A3015 RMK AO2 RAE1355B12 SLP210 P0001 60001 T01060083 53014=
202212051441 SPECI KATL 051441Z 09006KT 7SM -RA BKN027 OVC032 11/08 A3015 RMK AO2 RAE1355B12 P0001 T01060078 $=
202212051352 METAR KATL 051352Z 11007KT 8SM -RA FEW015 BKN034 OVC041 11/07 A3012 RMK AO2 RAE02B30 SLP202 P0000 T01060067=
202212051252 METAR KATL 051252Z 12004KT 8SM -RA FEW020 OVC042 11/06 A3013 RMK AO2 RAB39 SLP202 P0000 T01060056=
202212051152 METAR KATL 051152Z 09006KT 10SM BKN047 OVC070 11/04 A3011 RMK AO2 RAB1053E06 SLP196 VIRGA ALQDS P0000 60000 T01060044 10111 20106 53004=
202212051052 METAR KATL 051052Z 11005KT 10SM BKN060 OVC070 11/04 A3010 RMK AO2 SLP194 T01060039=
202212050952 METAR KATL 050952Z 00000KT 10SM OVC060 11/04 A3009 RMK AO2 SLP190 T01060039 $=
202212050852 METAR KATL 050852Z 13004KT 10SM BKN049 OVC060 11/03 A3010 RMK AO2 SLP190 T01110033 56009 $=
202212050752 METAR KATL 050752Z 04003KT 10SM OVC060 11/03 A3010 RMK AO2 SLP192 T01110028 $=
202212050652 METAR KATL 050652Z 01004KT 10SM BKN060 OVC080 11/02 A3011 RMK AO2 SLP196 VIRGA ALQDS T01110017 $=
202212050552 METAR KATL 050552Z 36004KT 10SM FEW060 OVC080 11/02 A3012 RMK AO2 SLP200 VIRGA SW 60000 T01110017 10122 20111 58001 $=
202212050452 METAR KATL 050452Z 35008KT 10SM FEW060 OVC090 11/05 A3015 RMK AO2 SLP209 T01110050 401560072 $=
202212050352 METAR KATL 050352Z 34007KT 10SM BKN065 OVC095 11/06 A3015 RMK AO2 SLP210 T01110061 $=
202212050252 METAR KATL 050252Z 30004KT 10SM FEW080 OVC100 12/06 A3013 RMK AO2 SLP202 RAE04 P0000 60000 T01170061 55013 $=
202212050152 METAR KATL 050152Z VRB03KT 10SM -RA SCT085 OVC110 12/06 A3012 RMK AO2 RAB51 SLP202 P0000 T01170061 $=
202212050052 METAR KATL 050052Z 31003KT 10SM SCT110 OVC150 12/06 A3016 RMK AO2 SLP214 VIRGA DSNT W-NW T01170056 $=
202212042352 METAR KATL 042352Z 34008KT 10SM FEW120 OVC190 12/07 A3016 RMK AO2 SLP216 VIRGA NE SW T01220067 10156 20122 55001 $=
202212042252 METAR KATL 042252Z 33004KT 10SM FEW120 BKN170 13/08 A3016 RMK AO2 SLP212 VIRGA DSNT NW-N T01330083 $=
202212042152 METAR KATL 042152Z 34006KT 10SM FEW023 SCT100 BKN180 14/09 A3017 RMK AO2 SLP215 T01440089 $=
202212042052 METAR KATL 042052Z 36008KT 10SM SCT024 BKN110 BKN200 15/08 A3016 RMK AO2 SLP214 T01500083 56014 $=
202212041952 METAR KATL 041952Z 31009KT 10SM SCT024 BKN090 BKN200 16/09 A3017 RMK AO2 SLP214 T01560089 $=
202212041852 METAR KATL 041852Z 32007KT 10SM SCT023 BKN090 BKN200 15/08 A3018 RMK AO2 SLP219 T01500083 $=
202212041841 SPECI KATL 041841Z 30007KT 10SM SCT023 BKN090 BKN200 14/08 A3018 RMK AO2 T01440078 $=
202212041752 METAR KATL 041752Z 32004KT 10SM OVC018 14/07 A3021 RMK AO2 SLP228 T01390067 10139 20072 58021 $=
202212041652 METAR KATL 041652Z 34006KT 10SM OVC017 13/06 A3024 RMK AO2 SLP238 T01330056 $=
202212041611 SPECI KATL 041611Z 31005KT 10SM OVC020 13/06 A3026 RMK AO2 T01330056 $=
202212041552 METAR KATL 041552Z 34005KT 10SM FEW020 SCT200 BKN250 13/06 A3026 RMK AO2 SLP246 T01280061 $=
202212041452 METAR KATL 041452Z 34005KT 10SM FEW017 SCT200 BKN250 11/06 A3027 RMK AO2 SLP249 T01060061 50010 $=
202212041352 METAR KATL 041352Z 32009KT 10SM SCT016 BKN250 08/06 A3027 RMK AO2 SLP251 SCT016 V BKN T00830056 $=
202212041252 METAR KATL 041252Z 29005KT 10SM FEW250 07/06 A3025 RMK AO2 SLP243 T00720056 $=
202212041152 METAR KATL 041152Z 32005KT 10SM FEW015 FEW250 08/06 A3024 RMK AO2 SLP240 70004 T00780061 10133 20078 55002 $=
202212041052 METAR KATL 041052Z 34005KT 10SM CLR 08/07 A3023 RMK AO2 SLP238 T00830072 $=
202212040952 METAR KATL 040952Z 33006KT 10SM FEW005 09/08 A3024 RMK AO2 SLP239 T00940083 $=
202212040852 METAR KATL 040852Z 32004KT 10SM FEW005 10/09 A3024 RMK AO2 SLP241 T01000089 56007 $=
202212040810 SPECI KATL 040810Z 32007KT 7SM SCT005 11/10 A3025 RMK AO2 T01110100 $=
202212040752 METAR KATL 040752Z 34006KT 7SM BKN005 12/10 A3025 RMK AO2 SLP242 BKN005 V SCT T01170100 $=
202212040652 METAR KATL 040652Z 34009KT 7SM BKN006 13/12 A3026 RMK AO2 SLP244 CIG 005V007 T01280117 $=
202212040635 SPECI KATL 040635Z 34007KT 7SM BKN008 13/12 A3026 RMK AO2 T01330117 $=
202212040616 SPECI KATL 040616Z 34009KT 7SM SCT008 SCT250 13/12 A3026 RMK AO2 T01330117 $=
202212040552 METAR KATL 040552Z 34006KT 8SM FEW010 SCT250 13/12 A3027 RMK AO2 SLP247 60000 T01330122 10167 20133 58013 $=
202212040452 METAR KATL 040452Z 32005KT 9SM FEW022 BKN250 14/13 A3028 RMK AO2 SLP253 T01390128 401830028 $=
202212040352 METAR KATL 040352Z 02005KT 10SM FEW034 BKN250 16/14 A3030 RMK AO2 SLP257 T01560139 $=
202212040252 METAR KATL 040252Z 33006KT 9SM FEW007 BKN033 BKN250 16/14 A3031 RMK AO2 SLP261 60000 T01610144 51004 $=
202212040152 METAR KATL 040152Z 34006KT 7SM FEW006 SCT026 BKN044 16/15 A3031 RMK AO2 SLP261 T01610150 $=
202212040142 SPECI KATL 040142Z 33005KT 7SM SCT007 SCT024 BKN044 17/15 A3031 RMK AO2 T01670150 $=
202212040052 METAR KATL 040052Z 31003KT 7SM BKN010 OVC047 17/15 A3030 RMK AO2 RAE03 SLP258 BINOVC P0000 T01670150 $=
202212040036 SPECI KATL 040036Z 28003KT 7SM BKN010 OVC047 17/15 A3030 RMK AO2 RAE03 BINOVC P0000 T01670150 $=
202212040004 SPECI KATL 040004Z 29003KT 7SM SCT011 SCT023 OVC043 17/15 A3030 RMK AO2 RAE03 BINOVC P0000 T01670150 $=
202212032352 METAR KATL 032352Z 29005KT 6SM -RA BR BKN012 OVC032 17/15 A3030 RMK AO2 RAB50 SLP257 PCPN VRY LGT P0000 60000 T01670150 10183 20161 51008 $=
202212032339 SPECI KATL 032339Z 00000KT 10SM OVC013 17/16 A3029 RMK AO2 T01720156 $=
202212032252 METAR KATL 032252Z 28003KT 7SM FEW011 OVC018 17/16 A3029 RMK AO2 DZB01E13 SLP254 P0000 T01670156 $=
202212032239 SPECI KATL 032239Z 00000KT 7SM SCT013 OVC018 17/16 A3029 RMK AO2 DZB01E13 P0000 T01670156 $=
202212032213 SPECI KATL 032213Z 29003KT 7SM SCT008 BKN013 OVC038 17/16 A3028 RMK AO2 DZB01E13 P0000 T01720156 $=
202212032201 SPECI KATL 032201Z 29006KT 3SM -DZ BR BKN008 OVC011 17/15 A3028 RMK AO2 DZB01 P0000 T01720150 $=
202212032152 METAR KATL 032152Z 31005KT 7SM BKN011 BKN027 17/16 A3029 RMK AO2 SLP254 T01720156 $=
202212032140 SPECI KATL 032140Z 32007KT 7SM BKN011 BKN027 17/15 A3029 RMK AO2 T01720150 $=
202212032052 METAR KATL 032052Z 26006KT 7SM BKN009 BKN024 18/16 A3027 RMK AO2 SLP249 60000 T01780156 56013=
202212031952 METAR KATL 031952Z 27006KT 4SM BR OVC008 17/16 A3027 RMK AO2 CIG 007V011 SLP250 T01720156=
202212031907 SPECI KATL 031907Z 27006KT 4SM BR BKN010 BKN022 OVC030 17/15 A3028 RMK AO2 T01720150=
202212031852 METAR KATL 031852Z 27007KT 4SM BR SCT007 BKN024 OVC033 17/15 A3029 RMK AO2 RAE19 SLP255 P0000 T01670150=
202212031819 SPECI KATL 031819Z 27009KT 3SM BR SCT007 BKN023 OVC044 16/14 A3030 RMK AO2 RAE19 P0000 T01610144=
202212031752 METAR KATL 031752Z 26009KT 2 1/2SM -RA BR BKN021 BKN042 OVC050 16/14 A3031 RMK AO2 RAE22B38 SLP263 P0002 60004 T01610144 10172 20122 58007=
202212031652 METAR KATL 031652Z 26008KT 3SM -RA BR SCT017 BKN027 OVC035 16/14 A3034 RMK AO2 WSHFT 1609 RAB18 SLP272 P0002 T01560139=
202212031631 SPECI KATL 031631Z 32011KT 2SM R09R/6000VP6000FT -RA BKN017 OVC028 16/13 A3035 RMK AO2 WSHFT 1609 RAB18 P0000 T01610133=
202212031626 SPECI KATL 031626Z 32011KT 4SM -RA SCT017 BKN028 BKN046 16/13 A3035 RMK AO2 WSHFT 1609 RAB18 P0000 T01610128=
202212031615 SPECI KATL 031615Z 33018G25KT 8SM SCT017 BKN028 BKN046 17/13 A3036 RMK AO2 PRESRR T01720133=
202212031552 METAR KATL 031552Z 24010G20KT 8SM SCT013 SCT028 BKN046 17/13 A3032 RMK AO2 SLP266 T01720133=
202212031452 METAR KATL 031452Z 23010G15KT 8SM SCT012 BKN035 BKN055 15/12 A3033 RMK AO2 SLP271 T01500122 58000=
202212031352 METAR KATL 031352Z 21004KT 8SM FEW012 OVC038 13/12 A3034 RMK AO2 SLP274 T01330117 $=
202212031252 METAR KATL 031252Z 15006KT 8SM FEW009 SCT030 OVC050 13/10 A3033 RMK AO2 SLP271 T01280100 $=
202212031152 METAR KATL 031152Z 18005KT 10SM FEW009 BKN030 OVC055 12/09 A3033 RMK AO2 SLP271 T01220094 10122 20100 55005 $=
202212031052 METAR KATL 031052Z 16004KT 10SM FEW030 BKN060 OVC130 12/09 A3032 RMK AO2 SLP269 T01170094 $=
202212030952 METAR KATL 030952Z 17004KT 10SM FEW035 SCT060 BKN140 11/09 A3032 RMK AO2 SLP268 T01110089 $=
202212030852 METAR KATL 030852Z 13004KT 10SM FEW036 BKN060 BKN140 BKN250 11/08 A3035 RMK AO2 SLP276 T01060083 58004 $=
202212030752 METAR KATL 030752Z 08005KT 10SM FEW035 BKN140 BKN250 11/07 A3036 RMK AO2 SLP282 T01060072 $=
202212030652 METAR KATL 030652Z 11003KT 10SM FEW035 BKN140 BKN250 11/08 A3037 RMK AO2 SLP283 T01060078 $=
202212030552 METAR KATL 030552Z 13005KT 10SM FEW120 SCT150 SCT250 11/08 A3036 RMK AO2 SLP281 T01110078 10144 20111 58004=
202212030452 METAR KATL 030452Z 13005KT 10SM SCT120 BKN150 12/07 A3037 RMK AO2 SLP287 T01170072 401610039=
202212030352 METAR KATL 030352Z 12006KT 10SM SCT140 SCT200 12/07 A3038 RMK AO2 SLP288 T01170072=
202212030252 METAR KATL 030252Z 13007KT 10SM BKN140 BKN200 13/07 A3037 RMK AO2 SLP287 T01280067 51004=
202212030152 METAR KATL 030152Z 13009KT 10SM BKN140 BKN200 13/07 A3037 RMK AO2 SLP285 T01330067=
202212030052 METAR KATL 030052Z 13008KT 10SM BKN140 BKN250 14/07 A3037 RMK AO2 SLP286 T01390072=
202212022352 METAR KATL 022352Z 13007KT 10SM FEW038 BKN130 BKN250 14/07 A3036 RMK AO2 SLP283 T01440072 10161 20133 50005=
202212022252 METAR KATL 022252Z 12007KT 10SM FEW038 BKN120 BKN250 14/07 A3036 RMK AO2 SLP285 VIRGA DSNT NW-N T01390072=
202212022152 METAR KATL 022152Z 11004KT 10SM FEW150 SCT250 15/07 A3036 RMK AO2 SLP283 VIRGA DSNT W-NW T01500067=
202212022052 METAR KATL 022052Z 14006KT 10SM FEW160 BKN250 16/06 A3034 RMK AO2 SLP277 ACC DSNT SE NW T01610056 56020=
202212021952 METAR KATL 021952Z 14008KT 10SM SCT140 BKN160 16/05 A3035 RMK AO2 SLP278 ACC DSNT NW T01560050=
202212021852 METAR KATL 021852Z 13007KT 10SM FEW032 FEW140 BKN170 14/04 A3037 RMK AO2 SLP286 VIRGA DSNT S-SW T01390044=
202212021752 METAR KATL 021752Z 15006KT 10SM FEW037 SCT140 BKN170 13/03 A3041 RMK AO2 SLP299 T01330033 10133 20056 58024=
202212021652 METAR KATL 021652Z 15009KT 10SM FEW038 BKN140 12/02 A3043 RMK AO2 SLP305 VIRGA N-E T01170017=
202212021552 METAR KATL 021552Z 10007KT 10SM FEW026 BKN036 BKN140 11/M02 A3047 RMK AO2 SLP322 VIRGA W-N T01061017=
202212021452 METAR KATL 021452Z 10008KT 10SM SCT036 BKN150 09/M03 A3048 RMK AO2 SLP324 T00941028 53006=
202212021352 METAR KATL 021352Z 12008KT 10SM BKN035 BKN140 08/M03 A3047 RMK AO2 SLP322 VIRGA OHD-W-N T00781033=
202212021252 METAR KATL 021252Z 12009KT 10SM FEW022 OVC036 06/M03 A3046 RMK AO2 SLP320 BINOVC T00611028=
202212021152 METAR KATL 021152Z 09009KT 10SM OVC031 06/M03 A3046 RMK AO2 SLP319 BINOVC T00561028 10067 20039 53009=
202212021113 SPECI KATL 021113Z 08010KT 10SM OVC030 06/M03 A3045 RMK AO2 BINOVC T00561033=
202212021052 METAR KATL 021052Z 08009KT 10SM OVC026 06/M03 A3044 RMK AO2 SLP311 BINOVC T00611028=
202212021015 SPECI KATL 021015Z 12007KT 10SM BKN023 BKN150 BKN200 BKN250 06/M03 A3043 RMK AO2 T00561033=
202212020952 METAR KATL 020952Z 14007KT 10SM FEW026 FEW150 SCT200 BKN250 06/M04 A3043 RMK AO2 SLP307 T00561039 $=
202212020852 METAR KATL 020852Z 14006KT 10SM FEW200 SCT250 06/M03 A3043 RMK AO2 SLP307 T00561033 55001 $=
202212020752 METAR KATL 020752Z 13006KT 10SM FEW200 SCT250 06/M03 A3042 RMK AO2 SLP304 T00561033 $=
202212020652 METAR KATL 020652Z 09006KT 10SM FEW200 SCT250 04/M03 A3042 RMK AO2 SLP306 T00441028 $=
202212020552 METAR KATL 020552Z 12005KT 10SM FEW200 SCT250 06/M03 A3043 RMK AO2 SLP308 T00611033 10094 20056 58000 $=
202212020452 METAR KATL 020452Z 12005KT 10SM FEW200 BKN250 07/M03 A3043 RMK AO2 SLP310 T00671033 401390006 $=
202212020352 METAR KATL 020352Z 11007KT 10SM FEW200 BKN250 06/M03 A3044 RMK AO2 SLP313 T00611028 $=
202212020252 METAR KATL 020252Z 11006KT 10SM SCT200 BKN250 08/M03 A3043 RMK AO2 SLP312 T00831033 53003 $=
202212020152 METAR KATL 020152Z 12005KT 10SM SCT200 BKN250 09/M03 A3043 RMK AO2 SLP311 T00891033 $=
202212020052 METAR KATL 020052Z 12004KT 10SM SCT200 BKN250 09/M03 A3043 RMK AO2 SLP310 T00891033 $=
202212012352 METAR KATL 012352Z 14004KT 10SM SCT200 BKN250 09/M02 A3043 RMK AO2 SLP309 T00941022 10139 20089 53009 $=
202212012252 METAR KATL 012252Z 11005KT 10SM BKN200 BKN250 10/M03 A3042 RMK AO2 SLP306 T01001028 $=
202212012152 METAR KATL 012152Z 15006KT 10SM BKN200 BKN250 13/M04 A3040 RMK AO2 SLP300 T01281044 $=
202212012052 METAR KATL 012052Z 15007KT 10SM BKN200 BKN250 13/M05 A3040 RMK AO2 SLP297 T01331050 56010 $=
202212011952 METAR KATL 011952Z 16005KT 10SM BKN200 BKN250 13/M07 A3040 RMK AO2 SLP299 T01331067 $=
202212011852 METAR KATL 011852Z VRB03KT 10SM SCT200 BKN250 12/M07 A3041 RMK AO2 SLP301 T01221067 $=
202212011752 METAR KATL 011752Z 12004KT 10SM SCT200 SCT250 12/M06 A3043 RMK AO2 SLP307 T01221061 10122 20006 58003 $=
202212011652 METAR KATL 011652Z 10004KT 10SM FEW200 SCT250 10/M07 A3045 RMK AO2 SLP316 T01001067 $=
202212011552 METAR KATL 011552Z 00000KT 10SM SCT200 SCT250 08/M04 A3045 RMK AO2 SLP316 T00831044 $=
202212011452 METAR KATL 011452Z 33004KT 10SM FEW200 SCT250 05/M05 A3044 RMK AO2 SLP313 T00501050 53017 $=
202212011352 METAR KATL 011352Z 36006KT 10SM FEW200 FEW250 03/M06 A3042 RMK AO2 SLP306 T00331056 $=
202212011252 METAR KATL 011252Z 35009KT 10SM FEW250 01/M06 A3040 RMK AO2 SLP299 T00111061 $=
