##########################################################
# Query made at 04/20/2024 00:24:04 UTC
# Time interval: from 09/01/2022 12:00  to 09/30/2022 12:59  UTC
##########################################################

##########################################################
# KATL, Atlanta, Hartsfield - Jackson Atlanta International Airport (United States)
# WMO index: 72219. WIGOS ID: 0-20000-0-72219
# Latitude 33-38-59N. Longitude 084-25-00W. Altitude 312 m.
##########################################################

202209301252 METAR KATL 301252Z 03012KT 10SM BKN065 18/06 A2999 RMK AO2 SLP152 T01780061=
202209301152 METAR KATL 301152Z 03012KT 10SM BKN065 17/07 A2999 RMK AO2 SLP151 T01670067 10172 20167 50002=
202209301052 METAR KATL 301052Z 03012KT 10SM FEW055 BKN070 17/07 A3000 RMK AO2 SLP151 T01670067=
202209300952 METAR KATL 300952Z 04011KT 10SM BKN050 BKN065 17/06 A2999 RMK AO2 SLP151 T01670061=
202209300852 METAR KATL 300852Z 05012KT 10SM FEW047 BKN065 17/06 A2999 RMK AO2 SLP148 T01670061 56013=
202209300752 METAR KATL 300752Z 04014KT 10SM BKN055 17/07 A2999 RMK AO2 PK WND 03027/0722 SLP150 T01670067=
202209300652 METAR KATL 300652Z 04014G22KT 10SM BKN050 BKN095 17/07 A3000 RMK AO2 SLP153 T01670067=
202209300552 METAR KATL 300552Z 04013KT 10SM SCT095 17/07 A3003 RMK AO2 SLP162 T01720072 10206 20172 56016=
202209300452 METAR KATL 300452Z 05015KT 10SM BKN095 18/07 A3005 RMK AO2 SLP168 T01780072 402390133=
202209300352 METAR KATL 300352Z 04014KT 10SM FEW090 18/07 A3006 RMK AO2 SLP173 T01780072=
202209300252 METAR KATL 300252Z 05013KT 10SM FEW090 18/07 A3008 RMK AO2 SLP179 T01830067 58001=
202209300152 METAR KATL 300152Z 04012KT 10SM FEW090 19/06 A3008 RMK AO2 SLP182 T01890061=
202209300052 METAR KATL 300052Z 04013KT 10SM FEW090 19/06 A3008 RMK AO2 SLP182 T01940061=
202209292352 METAR KATL 292352Z 05014KT 10SM FEW090 FEW200 21/05 A3008 RMK AO2 SLP182 T02060050 10239 20206 53000=
202209292252 METAR KATL 292252Z 04017KT 10SM FEW090 FEW200 22/06 A3008 RMK AO2 PK WND 02026/2212 SLP181 T02170061=
202209292152 METAR KATL 292152Z 05015KT 10SM FEW090 FEW200 23/06 A3008 RMK AO2 PK WND 03027/2058 SLP179 T02280061=
202209292052 METAR KATL 292052Z 07013G24KT 10SM FEW050 FEW090 FEW200 23/06 A3008 RMK AO2 PK WND 06026/1954 SLP180 T02280056 56019=
202209291952 METAR KATL 291952Z 06017G26KT 10SM FEW080 FEW200 24/06 A3009 RMK AO2 PK WND 04028/1858 SLP185 T02390056=
202209291852 METAR KATL 291852Z 06018G26KT 10SM FEW085 FEW200 23/04 A3011 RMK AO2 PK WND 06034/1756 SLP190 T02280044=
202209291752 METAR KATL 291752Z 04016G24KT 10SM FEW100 FEW200 22/06 A3013 RMK AO2 PK WND 03029/1722 SLP199 T02220056 10222 20133 58012=
202209291652 METAR KATL 291652Z 03020G28KT 10SM FEW001 FEW200 21/05 A3016 RMK AO2 PK WND 07032/1604 SLP208 FU FEW001 FU PLUME S T02060050=
202209291650 SPECI KATL 291650Z 05019G28KT 10SM FEW001 FEW200 21/05 A3016 RMK AO2 PK WND 07032/1604 FU FEW001 FU PLUME S=
202209291552 METAR KATL 291552Z 05022G28KT 10SM FEW200 19/05 A3018 RMK AO2 PK WND 08032/1521 SLP214 T01940050=
202209291452 METAR KATL 291452Z 05024G32KT 10SM FEW100 FEW200 18/05 A3017 RMK AO2 PK WND 07035/1414 SLP213 T01780050 50004=
202209291352 METAR KATL 291352Z 05023G32KT 10SM FEW200 16/06 A3018 RMK AO2 PK WND 05032/1350 SLP215 T01610056=
202209291252 METAR KATL 291252Z 05020G27KT 10SM FEW200 15/05 A3017 RMK AO2 PK WND 06027/1248 SLP212 T01500050=
202209291152 METAR KATL 291152Z 05018G24KT 10SM FEW090 FEW200 13/04 A3016 RMK AO2 PK WND 05027/1109 SLP210 T01330044 10144 20133 53000=
202209291052 METAR KATL 291052Z 05019G28KT 10SM FEW090 FEW200 14/04 A3016 RMK AO2 PK WND 04028/1050 SLP208 T01390039=
202209290952 METAR KATL 290952Z 05015G23KT 10SM FEW200 14/03 A3016 RMK AO2 PK WND 05026/0913 SLP207 T01390033=
202209290852 METAR KATL 290852Z 04012KT 10SM FEW200 13/03 A3016 RMK AO2 SLP208 T01330033 56008=
202209290752 METAR KATL 290752Z 03011KT 10SM FEW200 13/05 A3016 RMK AO2 SLP209 T01330050=
202209290652 METAR KATL 290652Z 04010KT 10SM FEW200 14/06 A3017 RMK AO2 SLP212 T01390056=
202209290552 METAR KATL 290552Z 04010KT 10SM FEW200 14/05 A3018 RMK AO2 SLP216 T01440050 10200 20144 58004=
202209290452 METAR KATL 290452Z 04009KT 10SM FEW200 15/04 A3019 RMK AO2 SLP217 T01500044 402440128=
202209290352 METAR KATL 290352Z 04010KT 10SM FEW200 16/05 A3020 RMK AO2 SLP221 T01610050=
202209290252 METAR KATL 290252Z 06007KT 10SM FEW200 17/04 A3019 RMK AO2 SLP220 T01670044 53016=
202209290152 METAR KATL 290152Z 36009KT 10SM FEW200 18/04 A3017 RMK AO2 SLP214 T01780039=
202209290052 METAR KATL 290052Z 01012KT 10SM FEW200 19/03 A3015 RMK AO2 SLP207 T01890033=
202209282352 METAR KATL 282352Z 36011KT 10SM FEW200 20/03 A3015 RMK AO2 SLP206 T02000028 10244 20200 53006=
202209282252 METAR KATL 282252Z 35011G20KT 10SM FEW200 22/03 A3013 RMK AO2 SLP199 T02170033=
202209282152 METAR KATL 282152Z 35016G22KT 10SM SCT200 23/02 A3012 RMK AO2 SLP196 T02330022=
202209282052 METAR KATL 282052Z 06006G16KT 10SM SCT200 SCT250 24/02 A3013 RMK AO2 SLP196 T02390022 56021=
202209281952 METAR KATL 281952Z 01011G21KT 10SM SCT200 SCT250 24/01 A3015 RMK AO2 SLP204 T02390006=
202209281852 METAR KATL 281852Z 05009G17KT 10SM SCT200 SCT250 23/02 A3015 RMK AO2 SLP205 T02330017=
202209281752 METAR KATL 281752Z 06010KT 10SM FEW200 SCT250 23/03 A3019 RMK AO2 SLP217 T02280028 10228 20133 58012=
202209281652 METAR KATL 281652Z 03009G17KT 10SM FEW200 SCT250 22/02 A3021 RMK AO2 SLP223 T02220022=
202209281552 METAR KATL 281552Z 07010KT 10SM FEW200 SCT250 20/03 A3022 RMK AO2 SLP227 T02000028=
202209281452 METAR KATL 281452Z 05009KT 10SM FEW200 SCT250 19/03 A3023 RMK AO2 SLP230 T01940028 51014=
202209281352 METAR KATL 281352Z 04008KT 010V070 10SM FEW200 FEW250 17/03 A3021 RMK AO2 SLP227 T01720033=
202209281252 METAR KATL 281252Z 02008KT 10SM FEW200 FEW250 16/03 A3020 RMK AO2 SLP222 T01560028=
202209281152 METAR KATL 281152Z 36006KT 10SM FEW200 FEW250 13/03 A3018 RMK AO2 SLP218 T01330033 10161 20128 53013=
202209281052 METAR KATL 281052Z 36007KT 10SM FEW200 13/03 A3016 RMK AO2 SLP210 T01330033=
202209280952 METAR KATL 280952Z 35008KT 10SM FEW200 14/03 A3016 RMK AO2 SLP207 T01390033=
202209280852 METAR KATL 280852Z 35010KT 10SM FEW200 14/03 A3015 RMK AO2 SLP202 T01440033 50005=
202209280752 METAR KATL 280752Z 34008KT 10SM FEW200 14/04 A3015 RMK AO2 SLP203 T01390044=
202209280652 METAR KATL 280652Z 35011KT 10SM FEW200 16/04 A3014 RMK AO2 SLP201 T01560039=
202209280552 METAR KATL 280552Z 01009KT 10SM FEW200 16/04 A3013 RMK AO2 SLP197 T01610039 10200 20161 50002=
202209280452 METAR KATL 280452Z 36011KT 10SM FEW200 17/04 A3013 RMK AO2 SLP198 T01670039 402440128=
202209280352 METAR KATL 280352Z 36009KT 10SM FEW200 17/04 A3014 RMK AO2 SLP199 T01720039=
202209280252 METAR KATL 280252Z 35009KT 10SM FEW200 18/04 A3012 RMK AO2 SLP196 T01780039 51013=
202209280152 METAR KATL 280152Z 34010KT 10SM FEW200 18/04 A3011 RMK AO2 SLP192 T01780039=
202209280052 SPECI KATL 280052Z 34011KT 10SM FEW200 19/03 A3010 RMK AO2 SLP190 T01890033=
202209280052 METAR KATL 280052Z 34011KT 10SM FEW200 19/03 A3010 RMK AO2 SLP190 T01890033=
202209272352 METAR KATL 272352Z 34008KT 10SM FEW200 20/03 A3009 RMK AO2 SLP185 T02000028 10244 20200 53011=
202209272252 METAR KATL 272252Z 34010KT 10SM FEW200 22/02 A3007 RMK AO2 SLP177 T02220022=
202209272152 METAR KATL 272152Z 33008KT 10SM FEW200 23/03 A3006 RMK AO2 SLP173 T02330028=
202209272052 METAR KATL 272052Z 35010G21KT 10SM FEW200 24/03 A3005 RMK AO2 SLP171 T02390028 55006=
202209271952 METAR KATL 271952Z 32017G23KT 10SM FEW200 24/01 A3005 RMK AO2 SLP168 T02390011=
202209271852 METAR KATL 271852Z 33009G21KT 10SM FEW200 24/02 A3005 RMK AO2 SLP171 T02390017=
202209271752 METAR KATL 271752Z 35012G20KT 10SM FEW200 23/M01 A3007 RMK AO2 SLP176 T02331006 10239 20128 58004=
202209271652 METAR KATL 271652Z 34007G19KT 310V010 10SM FEW200 22/02 A3007 RMK AO2 SLP178 T02220017 $=
202209271552 METAR KATL 271552Z 36011G17KT 10SM FEW200 21/03 A3009 RMK AO2 SLP183 T02110033 $=
202209271452 METAR KATL 271452Z 32011KT 10SM FEW200 19/05 A3008 RMK AO2 SLP180 T01940050 51020 $=
202209271352 METAR KATL 271352Z 33008KT 10SM FEW200 18/06 A3007 RMK AO2 SLP179 T01780061=
202209271252 METAR KATL 271252Z 34006KT 10SM FEW200 16/06 A3004 RMK AO2 SLP169 T01560061=
202209271152 METAR KATL 271152Z 32004KT 10SM FEW200 13/07 A3002 RMK AO2 SLP162 T01280067 10167 20128 53010=
202209271052 METAR KATL 271052Z 33009KT 10SM CLR 13/07 A3001 RMK AO2 SLP155 T01330067=
202209270952 METAR KATL 270952Z 34009KT 10SM CLR 14/07 A3000 RMK AO2 SLP153 T01440072=
202209270852 METAR KATL 270852Z 33009KT 10SM CLR 14/08 A2999 RMK AO2 SLP149 T01390083 58004=
202209270752 METAR KATL 270752Z 33004KT 10SM CLR 14/09 A3000 RMK AO2 SLP152 T01440089=
202209270652 METAR KATL 270652Z 32006KT 10SM CLR 16/09 A3000 RMK AO2 SLP151 T01560089=
202209270552 METAR KATL 270552Z 32006KT 10SM CLR 17/09 A3000 RMK AO2 SLP152 T01670089 10228 20167 50006=
202209270452 METAR KATL 270452Z 32006KT 10SM CLR 17/10 A3000 RMK AO2 SLP153 T01720100 402780172=
202209270352 METAR KATL 270352Z 32007KT 10SM CLR 18/11 A3000 RMK AO2 SLP152 T01830106 $=
202209270252 METAR KATL 270252Z 31005KT 10SM CLR 19/11 A2998 RMK AO2 SLP146 T01940106 51019 $=
202209270152 METAR KATL 270152Z 31005KT 10SM CLR 20/10 A2997 RMK AO2 SLP143 T02000100 $=
202209270052 METAR KATL 270052Z 31005KT 10SM CLR 22/09 A2996 RMK AO2 SLP138 T02170089 $=
202209262352 METAR KATL 262352Z 30007KT 10SM FEW200 23/08 A2993 RMK AO2 SLP127 T02280083 10278 20228 53005 $=
202209262252 METAR KATL 262252Z 31010G16KT 10SM FEW200 25/09 A2992 RMK AO2 SLP124 T02500089 $=
202209262152 METAR KATL 262152Z 30011KT 10SM FEW200 26/08 A2991 RMK AO2 SLP121 T02610078 $=
202209262052 METAR KATL 262052Z 31007G17KT 10SM FEW200 27/08 A2991 RMK AO2 SLP119 T02670078 56013=
202209261952 METAR KATL 261952Z 31010G18KT 10SM FEW200 27/07 A2991 RMK AO2 SLP120 T02670072=
202209261852 METAR KATL 261852Z 31012G19KT 10SM FEW250 27/07 A2993 RMK AO2 SLP125 T02670072=
202209261752 METAR KATL 261752Z 31008G17KT 10SM FEW250 26/09 A2995 RMK AO2 SLP133 T02610094 10267 20183 58013=
202209261652 METAR KATL 261652Z 31013G20KT 10SM FEW250 26/10 A2997 RMK AO2 SLP139 T02610100 $=
202209261552 METAR KATL 261552Z 33010KT 10SM FEW250 25/11 A2999 RMK AO2 SLP146 T02500106 $=
202209261452 METAR KATL 261452Z 33008KT 10SM FEW200 24/12 A2999 RMK AO2 SLP146 T02390122 53012 $=
202209261352 METAR KATL 261352Z 32009KT 10SM FEW200 22/14 A2998 RMK AO2 SLP142 T02220139=
202209261252 METAR KATL 261252Z 32007KT 10SM FEW200 19/17 A2997 RMK AO2 SLP140 T01940172=
202209261152 METAR KATL 261152Z 31005KT 10SM FEW200 18/17 A2995 RMK AO2 SLP135 T01830167 10217 20183 53011=
202209261052 METAR KATL 261052Z 32009KT 10SM FEW150 19/17 A2993 RMK AO2 SLP126 T01890172=
202209260952 METAR KATL 260952Z 31009KT 10SM CLR 19/18 A2991 RMK AO2 SLP120 T01940178 $=
202209260852 METAR KATL 260852Z 30007KT 10SM FEW023 FEW150 19/18 A2992 RMK AO2 SLP122 T01940178 58002 $=
202209260752 METAR KATL 260752Z 29006KT 10SM SCT020 SCT036 21/18 A2992 RMK AO2 SLP124 T02060178 $=
202209260652 METAR KATL 260652Z 26004KT 10SM SCT023 SCT032 22/18 A2992 RMK AO2 SLP123 T02170178 $=
202209260552 METAR KATL 260552Z 27006KT 10SM FEW028 FEW200 21/18 A2993 RMK AO2 SLP125 T02110178 10239 20211 58001 $=
202209260452 METAR KATL 260452Z 27007KT 10SM FEW040 FEW250 21/18 A2994 RMK AO2 SLP129 T02110178 402830172 $=
202209260352 METAR KATL 260352Z 28006KT 10SM FEW250 21/18 A2994 RMK AO2 SLP129 T02110178 $=
202209260252 METAR KATL 260252Z 27006KT 10SM FEW040 FEW250 22/17 A2993 RMK AO2 SLP126 T02220172 51012 $=
202209260152 METAR KATL 260152Z 00000KT 10SM SCT036 SCT250 23/17 A2992 RMK AO2 SLP125 T02280172 $=
202209260052 METAR KATL 260052Z 26005KT 10SM FEW045 FEW140 SCT250 23/17 A2990 RMK AO2 SLP118 T02330172 $=
202209252352 METAR KATL 252352Z 27007KT 10SM FEW045 SCT140 SCT250 24/17 A2989 RMK AO2 SLP114 60000 T02390172 10283 20239 56003 $=
202209252252 METAR KATL 252252Z 27007KT 10SM FEW040 FEW140 SCT250 26/18 A2989 RMK AO2 SLP114 T02610178 $=
202209252152 METAR KATL 252152Z 26011KT 10SM FEW040 SCT140 SCT250 27/18 A2990 RMK AO2 SLP116 T02720178 $=
202209252052 METAR KATL 252052Z 25009KT 10SM FEW045 FEW110 SCT150 SCT250 28/17 A2990 RMK AO2 SLP116 ACC DSNT SE-S 60000 T02830172 56029 $=
202209251952 METAR KATL 251952Z 23009KT 10SM FEW110 BKN150 BKN200 27/17 A2992 RMK AO2 SLP122 ACC DSNT SE-S T02670167 $=
202209251852 METAR KATL 251852Z 24009KT 10SM FEW110 BKN150 BKN200 25/16 A2995 RMK AO2 RAE02 SLP133 ACC NW-N DSNT E-SE P0000 T02500156 $=
202209251752 METAR KATL 251752Z 27010KT 10SM -RA SCT100 BKN150 BKN200 24/15 A2999 RMK AO2 SLP148 RAE08B40 P0000 60000 T02390150 10244 20178 58003 $=
202209251652 METAR KATL 251652Z 28010KT 10SM -RA BKN110 BKN150 BKN200 24/14 A3000 RMK AO2 RAB50 SLP153 P0000 T02390144=
202209251552 METAR KATL 251552Z 28005KT 10SM FEW110 BKN150 BKN200 23/14 A3000 RMK AO2 SLP152 SHRA W-N T02330139=
202209251452 METAR KATL 251452Z 26005KT 10SM SCT100 BKN150 BKN200 23/12 A3000 RMK AO2 SLP151 SHRA NW-N T02330122 55003=
202209251352 METAR KATL 251352Z 00000KT 10SM SCT085 BKN150 BKN200 21/12 A3000 RMK AO2 SLP150 SHRA NW-N T02060122=
202209251252 METAR KATL 251252Z 16003KT 10SM FEW090 BKN150 BKN200 19/13 A2999 RMK AO2 SLP151 SHRA W-N T01890128=
202209251152 METAR KATL 251152Z 00000KT 10SM FEW090 BKN150 BKN200 18/12 A3001 RMK AO2 SLP155 T01780122 10194 20172 51003=
202209251052 METAR KATL 251052Z 29004KT 10SM FEW090 BKN200 BKN250 19/11 A3000 RMK AO2 SLP152 T01890106=
202209250952 METAR KATL 250952Z 28005KT 10SM SCT090 SCT200 BKN250 18/11 A3001 RMK AO2 SLP155 T01780106=
202209250852 METAR KATL 250852Z 23005KT 10SM FEW200 BKN250 18/10 A3000 RMK AO2 SLP150 T01830100 58009=
202209250752 METAR KATL 250752Z 22005KT 10SM FEW200 SCT250 18/11 A3000 RMK AO2 SLP152 T01780106=
202209250652 METAR KATL 250652Z 23004KT 10SM FEW200 17/12 A3003 RMK AO2 SLP159 T01720117=
202209250552 METAR KATL 250552Z 00000KT 10SM FEW200 18/11 A3003 RMK AO2 SLP161 T01780111 10239 20172 58003=
202209250452 METAR KATL 250452Z 00000KT 10SM FEW200 19/11 A3003 RMK AO2 SLP163 T01890106 402720128=
202209250352 METAR KATL 250352Z 21003KT 10SM FEW250 19/10 A3004 RMK AO2 SLP166 T01940100=
202209250252 METAR KATL 250252Z 19005KT 10SM FEW200 20/10 A3004 RMK AO2 SLP165 T02000100 58000=
202209250152 METAR KATL 250152Z 19003KT 10SM FEW200 21/09 A3005 RMK AO2 SLP170 T02110094=
202209250052 METAR KATL 250052Z 16004KT 10SM FEW250 22/09 A3004 RMK AO2 SLP165 T02220094=
202209242352 METAR KATL 242352Z 16005KT 10SM CLR 24/09 A3004 RMK AO2 SLP166 T02390089 10272 20239 56005=
202209242252 METAR KATL 242252Z 15006KT 10SM CLR 26/09 A3004 RMK AO2 SLP166 T02560094 $=
202209242152 METAR KATL 242152Z 13006KT 10SM CLR 27/09 A3005 RMK AO2 SLP168 T02670094=
202209242052 METAR KATL 242052Z 16004KT 10SM CLR 27/09 A3005 RMK AO2 SLP170 T02670089 56023=
202209241952 METAR KATL 241952Z 00000KT 10SM CLR 27/09 A3007 RMK AO2 SLP177 T02670089=
202209241852 METAR KATL 241852Z 23004KT 10SM CLR 27/11 A3009 RMK AO2 SLP183 T02670111=
202209241752 METAR KATL 241752Z 11004KT 10SM CLR 26/10 A3012 RMK AO2 SLP193 T02560100 10256 20144 58013=
202209241652 METAR KATL 241652Z 00000KT 10SM FEW180 24/11 A3014 RMK AO2 SLP200 T02440106=
202209241552 METAR KATL 241552Z 15005KT 10SM FEW180 23/11 A3015 RMK AO2 SLP205 T02330111=
202209241452 METAR KATL 241452Z 14005KT 10SM FEW180 21/11 A3016 RMK AO2 SLP208 T02110111 50009 $=
202209241352 METAR KATL 241352Z 00000KT 10SM FEW180 19/11 A3017 RMK AO2 SLP209 T01940111=
202209241252 METAR KATL 241252Z 07004KT 10SM FEW180 17/10 A3016 RMK AO2 SLP208 T01720100=
202209241152 METAR KATL 241152Z 00000KT 10SM FEW180 14/09 A3014 RMK AO2 SLP200 T01440089 10167 20128 53009=
202209241052 METAR KATL 241052Z 00000KT 10SM CLR 13/09 A3012 RMK AO2 SLP192 T01330094=
202209240952 METAR KATL 240952Z 00000KT 10SM CLR 13/10 A3011 RMK AO2 SLP189 T01330100=
202209240852 METAR KATL 240852Z 00000KT 10SM CLR 15/09 A3011 RMK AO2 SLP189 T01500094 58003=
202209240752 METAR KATL 240752Z 00000KT 10SM CLR 14/11 A3011 RMK AO2 SLP191 T01390106=
202209240652 METAR KATL 240652Z 00000KT 10SM CLR 16/09 A3012 RMK AO2 SLP194 T01560089=
202209240552 METAR KATL 240552Z 00000KT 10SM CLR 16/09 A3012 RMK AO2 SLP192 T01610089 10222 20161 51004=
202209240452 METAR KATL 240452Z 00000KT 10SM CLR 17/09 A3012 RMK AO2 SLP192 T01720094 402670167=
202209240352 METAR KATL 240352Z 15003KT 10SM CLR 18/09 A3012 RMK AO2 SLP193 T01780089=
202209240252 METAR KATL 240252Z 13003KT 10SM CLR 18/09 A3010 RMK AO2 SLP188 T01830094 51012=
202209240152 METAR KATL 240152Z 13004KT 10SM CLR 20/09 A3010 RMK AO2 SLP188 T02000089=
202209240052 METAR KATL 240052Z 12003KT 10SM CLR 21/08 A3009 RMK AO2 SLP182 T02110083=
202209232352 METAR KATL 232352Z 14004KT 10SM CLR 22/08 A3007 RMK AO2 SLP176 T02220078 10267 20222 53002=
202209232252 METAR KATL 232252Z 08003KT 10SM CLR 25/06 A3007 RMK AO2 SLP174 T02500056=
202209232152 METAR KATL 232152Z 10005KT 10SM CLR 26/06 A3006 RMK AO2 SLP171 T02610056=
202209232052 METAR KATL 232052Z VRB05KT 10SM CLR 26/06 A3006 RMK AO2 SLP173 T02610061 56016 $=
202209231952 METAR KATL 231952Z 11004KT 10SM CLR 26/07 A3007 RMK AO2 SLP175 T02610067 $=
202209231852 METAR KATL 231852Z VRB06KT 10SM CLR 25/08 A3009 RMK AO2 SLP180 T02500078=
202209231752 METAR KATL 231752Z VRB03KT 10SM FEW150 24/08 A3011 RMK AO2 SLP188 T02440078 10244 20172 58006 $=
202209231652 METAR KATL 231652Z 10004KT 10SM FEW150 23/08 A3013 RMK AO2 SLP195 T02280083=
202209231552 METAR KATL 231552Z VRB05KT 10SM FEW150 23/09 A3014 RMK AO2 SLP197 T02280094=
202209231452 METAR KATL 231452Z 13009KT 10SM FEW150 21/08 A3013 RMK AO2 SLP195 T02060083 53016=
202209231352 METAR KATL 231352Z 08012G19KT 10SM FEW150 19/08 A3011 RMK AO2 SLP189 T01940083=
202209231252 METAR KATL 231252Z 06009KT 10SM FEW150 18/08 A3010 RMK AO2 SLP184 T01830083=
202209231152 METAR KATL 231152Z 06008KT 10SM FEW150 FEW250 17/09 A3008 RMK AO2 SLP178 T01720089 10194 20167 53020=
202209231052 METAR KATL 231052Z 05007KT 10SM FEW250 17/10 A3006 RMK AO2 SLP168 T01720100=
202209230952 METAR KATL 230952Z 02005KT 10SM CLR 17/10 A3004 RMK AO2 SLP162 T01670100=
202209230852 METAR KATL 230852Z 34007KT 10SM CLR 17/11 A3002 RMK AO2 SLP157 T01670106 53013=
202209230752 METAR KATL 230752Z 01009KT 10SM CLR 18/10 A3000 RMK AO2 SLP147 T01830100=
202209230652 METAR KATL 230652Z 36009KT 10SM CLR 19/10 A2999 RMK AO2 SLP145 T01890100=
202209230552 METAR KATL 230552Z 35007KT 10SM CLR 19/12 A2998 RMK AO2 SLP141 T01940117 10272 20194 51014=
202209230452 METAR KATL 230452Z 33009KT 10SM CLR 21/13 A2997 RMK AO2 SLP137 T02060128 403440206=
202209230352 METAR KATL 230352Z 34013KT 10SM CLR 22/12 A2996 RMK AO2 SLP132 T02220122=
202209230252 METAR KATL 230252Z 35013G22KT 10SM CLR 24/13 A2994 RMK AO2 SLP127 T02390128 51019=
202209230152 METAR KATL 230152Z 34014KT 10SM CLR 25/17 A2993 RMK AO2 SLP123 T02500167=
202209230052 METAR KATL 230052Z 34015G25KT 10SM FEW150 26/17 A2990 RMK AO2 SLP116 T02610167=
202209222352 METAR KATL 222352Z 33011KT 10SM FEW150 27/20 A2988 RMK AO2 SLP109 60000 T02720200 10344 20272 51008=
202209222252 METAR KATL 222252Z 01012KT 10SM FEW040 SCT100 BKN150 29/21 A2988 RMK AO2 SLP106 T02940206=
202209222152 METAR KATL 222152Z 30011KT 10SM FEW050CB SCT090 BKN200 30/20 A2987 RMK AO2 SLP102 CB NE-E MOV SE T03000200=
202209222052 METAR KATL 222052Z 32011G19KT 10SM SCT060 BKN110 32/19 A2986 RMK AO2 RAB12E22 SLP098 TCU DSNT ALQDS P0000 60000 T03220189 56018=
202209221952 METAR KATL 221952Z 31013G20KT 10SM FEW070TCU SCT100 33/18 A2986 RMK AO2 SLP098 TCU NW-N DSNT N-NE E NW MDT CU ALQDS T03330183=
202209221852 SPECI KATL 221852Z 32012G20KT 10SM FEW065TCU SCT090 33/18 A2988 RMK AO2 SLP107 TCU N E SE DSNT NE-SE MDT CU ALQDS T03330178=
202209221852 METAR KATL 221852Z 32012G20KT 10SM FEW065TCU SCT090 33/18 A2988 RMK AO2 SLP107 TCU N E SE DSNT NE-SE MDT CU ALQDS T03330178=
202209221752 METAR KATL 221752Z 31012G21KT 10SM FEW055 33/18 A2991 RMK AO2 SLP117 MDT CU ALQDS T03280183 10339 20228 58017=
202209221652 METAR KATL 221652Z 32014G22KT 10SM FEW048 33/19 A2994 RMK AO2 SLP124 T03330194=
202209221552 METAR KATL 221552Z 29010KT 10SM CLR 32/21 A2996 RMK AO2 SLP133 T03170211 $=
202209221452 METAR KATL 221452Z 30009KT 10SM FEW250 30/21 A2996 RMK AO2 SLP134 T03000206 52001=
202209221352 METAR KATL 221352Z 28009KT 10SM FEW250 27/19 A2996 RMK AO2 SLP135 T02720194=
202209221252 METAR KATL 221252Z 27006KT 10SM FEW250 25/19 A2996 RMK AO2 SLP134 T02500194=
202209221152 METAR KATL 221152Z 28005KT 10SM FEW250 23/19 A2996 RMK AO2 SLP134 T02280189 10239 20222 53004=
202209221052 METAR KATL 221052Z 28005KT 10SM FEW200 22/19 A2995 RMK AO2 SLP130 T02220189=
202209220952 METAR KATL 220952Z 28007KT 10SM CLR 22/19 A2994 RMK AO2 SLP128 T02220189=
202209220852 METAR KATL 220852Z 30005KT 10SM CLR 23/19 A2995 RMK AO2 SLP128 T02330189 58010=
202209220752 METAR KATL 220752Z 29005KT 10SM CLR 23/19 A2996 RMK AO2 SLP133 T02330194=
202209220652 METAR KATL 220652Z 26003KT 10SM CLR 24/19 A2997 RMK AO2 SLP137 T02390194=
202209220552 METAR KATL 220552Z 27003KT 10SM CLR 24/20 A2998 RMK AO2 SLP139 T02390200 10289 20233 57002=
202209220452 METAR KATL 220452Z 25003KT 10SM CLR 25/20 A2998 RMK AO2 SLP139 T02500200 403390217=
202209220352 METAR KATL 220352Z 26003KT 10SM CLR 25/20 A2999 RMK AO2 SLP142 T02500200=
202209220252 METAR KATL 220252Z 25003KT 10SM CLR 26/20 A2999 RMK AO2 SLP143 T02610200 50005=
202209220152 METAR KATL 220152Z 26003KT 10SM CLR 27/20 A2999 RMK AO2 SLP144 T02720200=
202209220052 METAR KATL 220052Z 21004KT 10SM CLR 27/20 A2998 RMK AO2 SLP141 T02720200=
202209212352 METAR KATL 212352Z 23003KT 10SM CLR 29/19 A2997 RMK AO2 SLP138 T02890194 10339 20289 55001=
202209212252 METAR KATL 212252Z 21004KT 10SM CLR 31/19 A2996 RMK AO2 SLP135 T03060194=
202209212152 METAR KATL 212152Z 00000KT 10SM CLR 33/17 A2996 RMK AO2 SLP133 T03280167=
202209212052 METAR KATL 212052Z 36006KT 10SM FEW070 34/17 A2997 RMK AO2 SLP137 T03390172 56015=
202209211952 METAR KATL 211952Z 31006KT 10SM FEW070 33/17 A2998 RMK AO2 SLP139 T03280167=
202209211852 METAR KATL 211852Z 01005KT 10SM FEW065 33/18 A3000 RMK AO2 SLP145 T03280178=
202209211752 METAR KATL 211752Z 16005KT 10SM FEW055 31/18 A3002 RMK AO2 SLP153 T03110178 10317 20239 58014=
202209211652 METAR KATL 211652Z 00000KT 10SM FEW048 31/18 A3004 RMK AO2 SLP159 T03110178=
202209211552 METAR KATL 211552Z 13004KT 10SM FEW038 30/19 A3005 RMK AO2 SLP166 T03000194=
202209211452 METAR KATL 211452Z 00000KT 10SM CLR 28/19 A3006 RMK AO2 SLP169 T02830194 50008=
202209211352 METAR KATL 211352Z 09005KT 10SM CLR 27/20 A3006 RMK AO2 SLP169 T02670200=
202209211252 METAR KATL 211252Z 07006KT 10SM CLR 25/19 A3006 RMK AO2 SLP167 T02500194=
202209211152 METAR KATL 211152Z 03005KT 10SM CLR 24/19 A3004 RMK AO2 SLP161 70038 T02390194 10250 20217 53015=
202209211052 METAR KATL 211052Z 02003KT 10SM CLR 23/20 A3002 RMK AO2 SLP153 T02330200=
202209210952 METAR KATL 210952Z 00000KT 10SM CLR 22/20 A3000 RMK AO2 SLP150 T02170200=
202209210852 METAR KATL 210852Z 00000KT 10SM FEW060 23/20 A2999 RMK AO2 SLP144 T02330200 55005=
202209210752 METAR KATL 210752Z 05003KT 10SM FEW060 24/21 A2999 RMK AO2 SLP143 T02390211=
202209210652 METAR KATL 210652Z 00000KT 10SM FEW060 23/21 A3000 RMK AO2 SLP146 T02280211=
202209210552 METAR KATL 210552Z 09003KT 10SM FEW060 25/21 A3001 RMK AO2 SLP149 T02500211 10283 20239 58005=
202209210452 METAR KATL 210452Z 00000KT 10SM FEW060 24/22 A3001 RMK AO2 SLP153 T02390217 403330206=
202209210352 METAR KATL 210352Z 00000KT 10SM FEW060 24/22 A3002 RMK AO2 SLP156 T02390222=
202209210252 METAR KATL 210252Z 00000KT 10SM FEW060 25/22 A3002 RMK AO2 SLP157 T02500217 53009=
202209210152 METAR KATL 210152Z 00000KT 10SM SCT060 SCT090 25/22 A3002 RMK AO2 SLP156 T02500222=
202209210052 METAR KATL 210052Z 00000KT 10SM FEW090 25/22 A3000 RMK AO2 SLP149 T02500222=
202209202352 METAR KATL 202352Z 36004KT 10SM FEW110 FEW200 28/21 A3000 RMK AO2 SLP147 60020 T02830206 10333 20250 51005=
202209202252 METAR KATL 202252Z 33005KT 10SM FEW110 SCT200 28/20 A2999 RMK AO2 RAE12 TSE28 SLP145 LTG DSNT S-SW CB DSNT S-SW P0001 T02830200=
202209202228 SPECI KATL 202228Z 24003KT 10SM FEW040 SCT090 SCT200 26/22 A2999 RMK AO2 RAE12 TSE28 LTG DSNT S-SW TS MOVD S CB DSNT S-SW P0001 T02560222=
202209202152 METAR KATL 202152Z 31005G27KT 8SM -TSRA SCT040CB BKN080 BKN150 BKN200 26/21 A2999 RMK AO2 PK WND 33027/2142 RAB33 TSB51 SLP147 VIS LWR S-SW OCNL LTGIC S-SW TS S-SW MOV S P0019 T02560211=
202209202052 METAR KATL 202052Z 33008KT 10SM FEW048TCU SCT090 SCT200 32/21 A2998 RMK AO2 SLP141 CB DSNT N TCU N E-SE W NW T03170206 56017=
202209201952 METAR KATL 201952Z 35009KT 10SM FEW050TCU SCT085 SCT200 33/20 A2999 RMK AO2 SLP145 CB DSNT N TCU NE-E NW DSNT ALQDS T03280200=
202209201852 METAR KATL 201852Z 36008KT 10SM FEW046TCU SCT080 32/21 A3001 RMK AO2 SLP150 TCU SE SW-W DSNT ALQDS MDT CU ALQDS T03220206=
202209201752 METAR KATL 201752Z 35008KT 10SM FEW038 SCT065 32/21 A3003 RMK AO2 SLP159 TCU DSNT W-NW MDT CU NW-NE 60018 T03170211 10322 20211 58015=
202209201652 METAR KATL 201652Z 31007KT 10SM FEW034 SCT065 31/22 A3005 RMK AO2 SLP166 TCU DSNT W T03060222=
202209201552 METAR KATL 201552Z 33008KT 10SM FEW030 FEW120 FEW200 29/21 A3007 RMK AO2 SLP170 TCU DSNT W T02890211=
202209201452 METAR KATL 201452Z 31007KT 10SM FEW020 SCT085 SCT120 SCT200 26/21 A3008 RMK AO2 SLP175 60018 T02560206 52005=
202209201352 METAR KATL 201352Z 31006KT 9SM FEW065 SCT110 SCT200 23/21 A3007 RMK AO2 RAB06E27 SLP173 P0011 T02330206=
202209201252 METAR KATL 201252Z 30006KT 9SM FEW034 SCT070 BKN100 BKN200 22/19 A3007 RMK AO2 RAB09E27 SLP174 SHRA S-W-NW P0007 T02170194=
202209201152 METAR KATL 201152Z 31005KT 10SM BKN060 BKN200 22/18 A3006 RMK AO2 SLP171 T02170178 10222 20206 53009=
202209201052 METAR KATL 201052Z 00000KT 10SM BKN070 BKN200 22/18 A3005 RMK AO2 SLP164 T02170183=
202209200952 METAR KATL 200952Z 00000KT 10SM FEW200 21/18 A3004 RMK AO2 SLP161 T02110178=
202209200852 METAR KATL 200852Z 28003KT 10SM FEW250 22/18 A3004 RMK AO2 SLP160 T02170178 55005=
202209200752 METAR KATL 200752Z 00000KT 10SM FEW250 21/17 A3003 RMK AO2 SLP159 T02110172=
202209200652 METAR KATL 200652Z 00000KT 10SM FEW250 22/18 A3004 RMK AO2 SLP162 T02170178=
202209200552 METAR KATL 200552Z 32003KT 10SM FEW250 22/17 A3005 RMK AO2 SLP165 T02220172 10267 20222 58004=
202209200452 METAR KATL 200452Z 32003KT 10SM FEW250 23/18 A3006 RMK AO2 SLP167 T02280178 403060194=
202209200352 METAR KATL 200352Z 32005KT 10SM FEW250 23/17 A3006 RMK AO2 SLP170 T02330172=
202209200252 METAR KATL 200252Z VRB06KT 10SM FEW200 SCT250 24/17 A3006 RMK AO2 SLP169 T02440172 51012=
202209200152 METAR KATL 200152Z 31005KT 10SM FEW200 SCT250 24/17 A3006 RMK AO2 SLP169 T02440172=
202209200052 METAR KATL 200052Z 32006KT 10SM FEW200 SCT250 26/16 A3004 RMK AO2 SLP163 T02610161=
202209192352 METAR KATL 192352Z 00000KT 10SM FEW200 FEW250 27/16 A3003 RMK AO2 SLP159 T02670161 10306 20267 56000=
202209192252 METAR KATL 192252Z 02004KT 10SM FEW250 30/14 A3003 RMK AO2 SLP159 T03000144=
202209192152 METAR KATL 192152Z 32005KT 10SM FEW250 30/14 A3002 RMK AO2 SLP155 T03000144=
202209192052 METAR KATL 192052Z 34006KT 10SM FEW060 FEW250 31/15 A3003 RMK AO2 SLP158 T03060150 56019=
202209191952 METAR KATL 191952Z 33005KT 10SM FEW060 FEW250 31/14 A3004 RMK AO2 SLP161 T03060144=
202209191901 SPECI KATL 191901Z 05008KT 10SM FEW055 30/14 A3006 RMK AO2 T03000139=
202209191852 METAR KATL 191852Z 35008G17KT 10SM FEW055 30/14 A3006 RMK AO2 SLP169 T03000144=
202209191752 METAR KATL 191752Z 31006G14KT 10SM FEW050 29/16 A3009 RMK AO2 SLP178 T02940161 10294 20217 58014=
202209191652 METAR KATL 191652Z 01008KT 10SM SCT046 SCT065 29/16 A3010 RMK AO2 SLP184 T02890161=
202209191552 METAR KATL 191552Z 36008KT 10SM SCT042 SCT060 SCT200 28/17 A3012 RMK AO2 SLP191 MDT CU NE-SE-S T02780167=
202209191452 METAR KATL 191452Z 03006KT 10SM FEW038 SCT055 SCT200 27/18 A3013 RMK AO2 SLP193 T02720183 51010=
202209191352 METAR KATL 191352Z 11003KT 10SM FEW055 FEW200 24/17 A3012 RMK AO2 SLP191 T02440172=
202209191252 METAR KATL 191252Z 05005KT 10SM SCT055 23/17 A3012 RMK AO2 SLP191 T02330167=
202209191152 METAR KATL 191152Z 05006KT 10SM SCT055 22/16 A3010 RMK AO2 SLP184 T02170161 10222 20194 53011=
202209191052 METAR KATL 191052Z 03005KT 10SM BKN055 21/17 A3009 RMK AO2 SLP179 T02110167=
202209190952 METAR KATL 190952Z 02004KT 10SM BKN055 22/17 A3008 RMK AO2 SLP175 T02170167=
202209190852 METAR KATL 190852Z 00000KT 10SM CLR 20/16 A3007 RMK AO2 SLP171 T02000161 56002=
202209190752 METAR KATL 190752Z 01005KT 10SM CLR 22/16 A3007 RMK AO2 SLP171 T02170156=
202209190652 METAR KATL 190652Z 03004KT 10SM CLR 22/16 A3006 RMK AO2 SLP170 T02220156=
202209190552 METAR KATL 190552Z 10003KT 10SM CLR 21/16 A3007 RMK AO2 SLP173 T02110161 10267 20211 58008=
202209190452 METAR KATL 190452Z 06003KT 10SM CLR 22/16 A3009 RMK AO2 SLP180 T02220161 403000183=
202209190352 METAR KATL 190352Z 05005KT 10SM CLR 23/16 A3010 RMK AO2 SLP182 T02330161=
202209190252 METAR KATL 190252Z 10004KT 10SM CLR 23/16 A3010 RMK AO2 SLP183 T02330161 51004=
202209190152 METAR KATL 190152Z 10005KT 10SM CLR 24/16 A3010 RMK AO2 SLP183 T02440161=
202209190052 METAR KATL 190052Z 10005KT 10SM FEW060 25/16 A3009 RMK AO2 SLP181 T02500156=
202209182352 METAR KATL 182352Z 09007KT 10SM SCT060 26/16 A3009 RMK AO2 SLP180 T02610156 10300 20261 55003=
202209182252 METAR KATL 182252Z 10006KT 10SM SCT060 27/16 A3008 RMK AO2 SLP178 T02670156=
202209182152 METAR KATL 182152Z 09005KT 10SM SCT055 27/16 A3008 RMK AO2 SLP178 T02720156=
202209182052 METAR KATL 182052Z 01007KT 10SM SCT055 29/14 A3009 RMK AO2 SLP182 T02940144 56021=
202209181952 METAR KATL 181952Z 05007KT 10SM SCT055 29/14 A3011 RMK AO2 SLP188 T02890139 $=
202209181852 METAR KATL 181852Z 10SM SCT050 28/15 A3014 RMK AO2 SLP196 MDT CU DSNT NW-N T02830150 $=
202209181752 METAR KATL 181752Z 03007KT 10SM SCT048 29/16 A3016 RMK AO2 SLP203 MDT CU NW T02890161 10289 20189 58008 $=
202209181652 METAR KATL 181652Z 09008KT 10SM SCT042 28/16 A3018 RMK AO2 SLP208 T02780161 $=
202209181552 METAR KATL 181552Z 09007KT 10SM FEW036 26/16 A3018 RMK AO2 SLP212 T02610161 $=
202209181452 METAR KATL 181452Z 06007KT 10SM FEW032 25/16 A3018 RMK AO2 SLP212 T02500161 51011 $=
202209181352 METAR KATL 181352Z 05006KT 10SM FEW048 23/16 A3018 RMK AO2 SLP210 T02330156 $=
202209181252 METAR KATL 181252Z 07007KT 10SM SCT046 21/16 A3017 RMK AO2 SLP208 T02110156 $=
202209181152 METAR KATL 181152Z 07004KT 10SM FEW050 19/16 A3015 RMK AO2 SLP202 T01890156 10211 20183 53011 $=
202209181052 METAR KATL 181052Z 03004KT 10SM CLR 19/16 A3014 RMK AO2 SLP197 T01940156 $=
202209180952 METAR KATL 180952Z 08004KT 10SM CLR 19/16 A3012 RMK AO2 SLP191 T01940156 $=
202209180852 METAR KATL 180852Z 07005KT 10SM CLR 19/16 A3012 RMK AO2 SLP190 T01940156 56005 $=
202209180752 METAR KATL 180752Z 07006KT 10SM CLR 19/16 A3012 RMK AO2 SLP191 T01940156 $=
202209180652 METAR KATL 180652Z 08004KT 10SM CLR 21/16 A3012 RMK AO2 SLP192 T02060156 $=
202209180552 METAR KATL 180552Z 00000KT 10SM CLR 21/16 A3013 RMK AO2 SLP195 T02060156 10256 20206 58008 $=
202209180452 METAR KATL 180452Z 09004KT 10SM CLR 22/16 A3015 RMK AO2 SLP201 T02170156 402890183 $=
202209180352 METAR KATL 180352Z 09004KT 10SM FEW050 22/16 A3015 RMK AO2 SLP202 T02220156 $=
202209180252 METAR KATL 180252Z 09005KT 10SM FEW050 22/16 A3016 RMK AO2 SLP203 T02220156 50004 $=
202209180152 METAR KATL 180152Z 09006KT 10SM FEW050 23/16 A3016 RMK AO2 SLP204 T02280156 $=
202209180052 METAR KATL 180052Z 09006KT 10SM FEW055 23/15 A3015 RMK AO2 SLP201 T02330150 $=
202209172352 METAR KATL 172352Z 12005KT 10SM FEW055 26/14 A3014 RMK AO2 SLP199 T02560139 10289 20256 55002 $=
202209172252 METAR KATL 172252Z 11008KT 10SM FEW055 27/14 A3014 RMK AO2 SLP198 T02670144 $=
202209172152 METAR KATL 172152Z 12006KT 10SM FEW055 28/15 A3014 RMK AO2 SLP198 T02780150 $=
202209172052 METAR KATL 172052Z 09007KT 10SM SCT055 28/15 A3015 RMK AO2 SLP200 T02830150 56015 $=
202209171952 METAR KATL 171952Z 13006KT 10SM SCT055 28/14 A3016 RMK AO2 SLP203 T02830139 $=
202209171852 METAR KATL 171852Z 10004KT 10SM SCT055 28/14 A3017 RMK AO2 SLP208 T02780144 $=
202209171752 METAR KATL 171752Z 03005KT 10SM SCT050 28/15 A3019 RMK AO2 SLP216 T02780150 10278 20183 58010 $=
202209171652 METAR KATL 171652Z 05005KT 10SM SCT045 27/14 A3021 RMK AO2 SLP221 T02670144 $=
202209171552 METAR KATL 171552Z 10007KT 10SM FEW036 27/16 A3022 RMK AO2 SLP225 T02670161 $=
202209171452 METAR KATL 171452Z 11007KT 10SM FEW030 FEW055 25/17 A3022 RMK AO2 SLP226 T02500172 51009 $=
202209171352 METAR KATL 171352Z 08004KT 10SM BKN055 22/17 A3022 RMK AO2 SLP224 T02220172 $=
202209171252 METAR KATL 171252Z 09004KT 10SM FEW055 21/17 A3021 RMK AO2 SLP221 T02110167 $=
202209171152 METAR KATL 171152Z 08005KT 10SM FEW050 18/16 A3020 RMK AO2 SLP219 T01830156 10211 20183 53008 $=
202209171052 METAR KATL 171052Z 08005KT 10SM FEW050 18/16 A3018 RMK AO2 SLP213 T01830156 $=
202209170952 METAR KATL 170952Z 07004KT 10SM CLR 19/16 A3018 RMK AO2 SLP211 T01890156 $=
202209170852 METAR KATL 170852Z 08005KT 10SM FEW050 19/16 A3017 RMK AO2 SLP208 T01890156 56003 $=
202209170752 METAR KATL 170752Z 07005KT 10SM SCT050 20/16 A3017 RMK AO2 SLP208 T02000161 $=
202209170652 METAR KATL 170652Z 08004KT 10SM SCT050 21/16 A3018 RMK AO2 SLP209 T02060161 $=
202209170552 METAR KATL 170552Z 10003KT 10SM SCT050 21/16 A3018 RMK AO2 SLP212 T02110161 10250 20211 58001 $=
202209170452 METAR KATL 170452Z 00000KT 10SM BKN055 21/16 A3019 RMK AO2 SLP214 T02110161 402830178 $=
202209170352 METAR KATL 170352Z 00000KT 10SM BKN055 22/16 A3019 RMK AO2 SLP213 T02170161 $=
202209170252 METAR KATL 170252Z 14003KT 10SM BKN055 22/16 A3019 RMK AO2 SLP213 T02220161 51010 $=
202209170152 METAR KATL 170152Z 12003KT 10SM CLR 23/16 A3018 RMK AO2 SLP212 T02280156 $=
202209170052 METAR KATL 170052Z 12005KT 10SM FEW055 24/15 A3017 RMK AO2 SLP208 T02390150 $=
202209162352 METAR KATL 162352Z 11005KT 10SM FEW055 25/15 A3016 RMK AO2 SLP204 T02500150 10283 20250 53002 $=
202209162252 METAR KATL 162252Z 10005KT 10SM SCT055 26/14 A3015 RMK AO2 SLP202 T02610144 $=
202209162152 METAR KATL 162152Z 09010KT 10SM SCT055 26/14 A3014 RMK AO2 SLP200 T02610144 $=
202209162052 METAR KATL 162052Z 09007KT 10SM SCT055 28/14 A3015 RMK AO2 SLP200 T02780144 56017 $=
202209161952 METAR KATL 161952Z 12008KT 10SM SCT055 28/14 A3016 RMK AO2 SLP204 T02780144 $=
202209161852 METAR KATL 161852Z VRB06KT 10SM SCT048 27/15 A3018 RMK AO2 SLP211 T02720150 $=
202209161752 METAR KATL 161752Z 10008KT 10SM SCT048 27/15 A3020 RMK AO2 SLP218 T02720150 10272 20189 58014 $=
202209161652 METAR KATL 161652Z 08007KT 10SM BKN046 26/14 A3022 RMK AO2 SLP226 T02560144 $=
202209161552 METAR KATL 161552Z 11011KT 10SM SCT042 BKN050 26/14 A3023 RMK AO2 SLP229 T02610144 $=
202209161452 METAR KATL 161452Z 08007KT 10SM SCT048 24/16 A3024 RMK AO2 SLP232 T02440161 51012 $=
202209161352 METAR KATL 161352Z 04006KT 10SM FEW045 23/16 A3023 RMK AO2 SLP229 T02280156 $=
202209161252 METAR KATL 161252Z 04005KT 10SM FEW055 21/15 A3022 RMK AO2 SLP225 T02110150 $=
202209161152 METAR KATL 161152Z 07005KT 10SM FEW055 19/14 A3021 RMK AO2 SLP221 T01890144 10217 20178 53011=
202209161052 METAR KATL 161052Z 08004KT 10SM FEW055 18/14 A3019 RMK AO2 SLP214 T01780144=
202209160952 METAR KATL 160952Z 08003KT 10SM FEW050 19/14 A3017 RMK AO2 SLP209 T01890144=
202209160852 METAR KATL 160852Z 08004KT 10SM FEW050 19/14 A3017 RMK AO2 SLP209 T01890144 58004=
202209160752 METAR KATL 160752Z 06003KT 10SM FEW050 19/15 A3018 RMK AO2 SLP211 T01940150=
202209160652 METAR KATL 160652Z 05003KT 10SM SCT050 21/15 A3018 RMK AO2 SLP211 T02060150=
202209160552 METAR KATL 160552Z 06003KT 10SM FEW055 21/15 A3019 RMK AO2 SLP213 T02110150 10250 20200 50001=
202209160452 METAR KATL 160452Z 00000KT 10SM CLR 21/15 A3020 RMK AO2 SLP217 T02060150 402830189=
202209160352 METAR KATL 160352Z 09004KT 10SM CLR 21/15 A3019 RMK AO2 SLP214 T02110150=
202209160252 METAR KATL 160252Z 09005KT 10SM CLR 22/15 A3018 RMK AO2 SLP212 T02220150 50015=
202209160152 METAR KATL 160152Z 00000KT 10SM CLR 23/15 A3019 RMK AO2 SLP214 T02280150=
202209160052 METAR KATL 160052Z 10006KT 10SM CLR 24/14 A3016 RMK AO2 SLP205 T02390144=
202209152352 METAR KATL 152352Z 10006KT 10SM CLR 25/14 A3014 RMK AO2 SLP198 T02500139 10283 20250 51003=
202209152252 METAR KATL 152252Z 05009KT 10SM FEW055 27/13 A3014 RMK AO2 SLP197 T02720133=
202209152152 METAR KATL 152152Z 10006KT 10SM SCT055 27/14 A3014 RMK AO2 SLP196 T02720139=
202209152052 METAR KATL 152052Z 05006KT 10SM FEW060 28/13 A3013 RMK AO2 SLP195 T02780133 56015=
202209151952 METAR KATL 151952Z 05007KT 10SM SCT065 28/13 A3014 RMK AO2 SLP198 T02780133=
202209151852 METAR KATL 151852Z 10010G16KT 10SM SCT060 28/14 A3016 RMK AO2 SLP203 T02780144=
202209151752 METAR KATL 151752Z 08009KT 10SM SCT055 27/14 A3018 RMK AO2 SLP211 T02720144 10272 20194 58013=
202209151652 METAR KATL 151652Z 07006KT 10SM FEW050 26/14 A3020 RMK AO2 SLP216 T02610144=
202209151552 METAR KATL 151552Z 12007KT 10SM CLR 26/14 A3022 RMK AO2 SLP223 T02560144=
202209151452 METAR KATL 151452Z 08009KT 10SM CLR 24/14 A3022 RMK AO2 SLP224 T02440144 51011=
202209151352 METAR KATL 151352Z 07009KT 10SM FEW055 23/14 A3021 RMK AO2 SLP221 T02280144=
202209151252 METAR KATL 151252Z 06010KT 10SM FEW055 21/15 A3020 RMK AO2 SLP218 T02060150=
202209151152 METAR KATL 151152Z 05008KT 10SM FEW055 19/15 A3018 RMK AO2 SLP213 T01940150 10217 20189 53016=
202209151052 METAR KATL 151052Z 06008KT 10SM FEW055 19/16 A3016 RMK AO2 SLP204 T01890156=
202209150952 METAR KATL 150952Z 05008KT 10SM FEW055 19/16 A3014 RMK AO2 SLP199 T01940156=
202209150852 METAR KATL 150852Z 06006KT 10SM SCT055 20/15 A3013 RMK AO2 SLP195 T02000150 51003 $=
202209150752 METAR KATL 150752Z 05010KT 10SM FEW050 21/16 A3013 RMK AO2 SLP195 T02060156 $=
202209150652 METAR KATL 150652Z 06004KT 10SM FEW050 21/15 A3013 RMK AO2 SLP194 T02110150 $=
202209150552 METAR KATL 150552Z 11003KT 10SM FEW055 22/15 A3013 RMK AO2 SLP193 T02170150 10261 20217 50003 $=
202209150452 METAR KATL 150452Z 06004KT 10SM SCT060 23/16 A3013 RMK AO2 SLP194 T02280161 402940167 $=
202209150352 METAR KATL 150352Z 00000KT 10SM SCT060 22/17 A3013 RMK AO2 SLP193 T02220167 $=
202209150252 METAR KATL 150252Z 05007KT 10SM FEW060 24/16 A3012 RMK AO2 SLP188 T02390161 51022 $=
202209150152 METAR KATL 150152Z 02006KT 10SM CLR 24/16 A3010 RMK AO2 SLP184 T02440161 $=
202209150052 METAR KATL 150052Z 08004KT 10SM FEW060 24/14 A3007 RMK AO2 SLP173 T02440144 $=
202209142352 METAR KATL 142352Z 10006KT 10SM FEW060 26/14 A3005 RMK AO2 SLP169 T02610139 10294 20256 53000 $=
202209142252 METAR KATL 142252Z 06006KT 10SM FEW060 28/13 A3004 RMK AO2 SLP165 T02780133 $=
202209142152 METAR KATL 142152Z 03006KT 10SM FEW065 28/13 A3005 RMK AO2 SLP166 T02830133 $=
202209142052 METAR KATL 142052Z 36006KT 10SM FEW060 28/13 A3005 RMK AO2 SLP167 T02830133 56015 $=
202209141952 METAR KATL 141952Z 01008KT 10SM SCT060 28/13 A3006 RMK AO2 SLP172 T02780133 $=
202209141852 METAR KATL 141852Z VRB03KT 10SM SCT055 28/14 A3008 RMK AO2 SLP177 T02780139 $=
202209141752 METAR KATL 141752Z 10005KT 10SM FEW050 27/14 A3010 RMK AO2 SLP183 T02720144 10272 20172 58003 $=
202209141652 METAR KATL 141652Z 07008KT 030V110 10SM FEW048 27/13 A3010 RMK AO2 SLP186 T02670133=
202209141552 METAR KATL 141552Z 06007KT 10SM FEW045 26/14 A3011 RMK AO2 SLP187 T02610139=
202209141452 METAR KATL 141452Z 05008KT 10SM FEW250 26/14 A3011 RMK AO2 SLP186 T02560139 51016=
202209141352 METAR KATL 141352Z 04005KT 10SM FEW002 FEW250 23/14 A3009 RMK AO2 SLP182 FU FEW002 FU PLUME NE T02330139=
202209141349 SPECI KATL 141349Z 04006KT 10SM FEW001 FEW250 23/14 A3009 RMK AO2 FU FEW001 FU PLUME NE=
202209141252 METAR KATL 141252Z 01004KT 10SM FEW250 21/14 A3008 RMK AO2 SLP178 T02110144=
202209141152 METAR KATL 141152Z 32005KT 10SM SCT250 17/14 A3006 RMK AO2 SLP172 T01720139 10189 20167 53012=
202209141052 METAR KATL 141052Z 31003KT 10SM FEW250 17/14 A3004 RMK AO2 SLP165 T01670139=
202209140952 METAR KATL 140952Z 31005KT 10SM CLR 17/14 A3002 RMK AO2 SLP158 T01720139=
202209140852 METAR KATL 140852Z 30004KT 10SM CLR 17/14 A3002 RMK AO2 SLP158 T01720139 50001=
202209140752 METAR KATL 140752Z 29003KT 10SM CLR 18/14 A3002 RMK AO2 SLP159 T01780139=
202209140652 METAR KATL 140652Z 31006KT 10SM CLR 18/14 A3002 RMK AO2 SLP158 T01830139=
202209140552 METAR KATL 140552Z 00000KT 10SM CLR 18/14 A3002 RMK AO2 SLP157 T01830144 10239 20178 51006=
202209140452 METAR KATL 140452Z 30003KT 10SM CLR 19/14 A3002 RMK AO2 SLP157 T01890144 402720139=
202209140352 METAR KATL 140352Z 29004KT 10SM FEW200 19/14 A3001 RMK AO2 SLP155 T01890139=
202209140252 METAR KATL 140252Z 31004KT 10SM FEW250 21/13 A3000 RMK AO2 SLP151 T02110133 51011=
202209140152 METAR KATL 140152Z 32005KT 10SM FEW250 22/13 A3000 RMK AO2 SLP151 T02170128=
202209140052 METAR KATL 140052Z 30004KT 10SM FEW250 23/13 A2998 RMK AO2 SLP146 T02280128=
202209132352 METAR KATL 132352Z 32006KT 10SM FEW250 24/13 A2996 RMK AO2 SLP140 T02390128 10272 20239 50003=
202209132252 METAR KATL 132252Z 33007KT 10SM SCT250 26/11 A2997 RMK AO2 SLP142 T02560111=
202209132152 METAR KATL 132152Z 34006G15KT 10SM SCT250 27/11 A2996 RMK AO2 SLP139 T02670111=
202209132052 METAR KATL 132052Z 34009KT 10SM FEW075 FEW250 27/11 A2996 RMK AO2 SLP137 T02720111 57011=
202209131952 METAR KATL 131952Z 33010G15KT 10SM FEW070 FEW200 27/11 A2997 RMK AO2 SLP140 T02720106=
202209131852 METAR KATL 131852Z 34011KT 10SM FEW070 FEW200 27/11 A2998 RMK AO2 SLP145 T02670106=
202209131752 METAR KATL 131752Z 35009G18KT 10SM FEW065 FEW200 26/11 A2999 RMK AO2 SLP147 T02610106 10267 20150 58003=
202209131652 METAR KATL 131652Z 35012KT 10SM FEW060 FEW200 26/09 A3000 RMK AO2 SLP150 T02560094=
202209131552 METAR KATL 131552Z 36014G19KT 10SM FEW250 24/11 A3001 RMK AO2 SLP153 T02390106=
202209131452 METAR KATL 131452Z 35011KT 10SM FEW250 22/12 A3000 RMK AO2 SLP152 T02220117 52015=
202209131352 METAR KATL 131352Z 33009KT 10SM FEW250 19/12 A2999 RMK AO2 SLP147 T01940117=
202209131252 METAR KATL 131252Z 32007KT 10SM FEW250 17/12 A2997 RMK AO2 SLP142 T01670117=
202209131152 METAR KATL 131152Z 31008KT 10SM FEW250 15/12 A2996 RMK AO2 SLP138 T01500117 10178 20139 53009=
202209131052 METAR KATL 131052Z 29004KT 10SM CLR 14/12 A2994 RMK AO2 SLP134 T01390117=
202209130952 METAR KATL 130952Z 29006KT 10SM CLR 14/12 A2993 RMK AO2 SLP128 T01440117=
202209130852 METAR KATL 130852Z 29006KT 10SM CLR 14/12 A2993 RMK AO2 SLP128 T01440122 56005=
202209130752 METAR KATL 130752Z 29005KT 10SM CLR 16/13 A2993 RMK AO2 SLP127 T01560128=
202209130652 METAR KATL 130652Z 30006KT 10SM CLR 17/13 A2994 RMK AO2 SLP129 T01670128=
202209130552 METAR KATL 130552Z 31007KT 10SM CLR 18/13 A2995 RMK AO2 SLP132 T01780133 10244 20178 50000=
202209130452 METAR KATL 130452Z 32007KT 10SM CLR 19/14 A2995 RMK AO2 SLP134 T01890139 402940189=
202209130352 METAR KATL 130352Z 32007KT 10SM FEW250 20/15 A2995 RMK AO2 SLP132 T02000150=
202209130252 METAR KATL 130252Z 31004KT 10SM FEW250 21/16 A2995 RMK AO2 SLP131 T02060156 53016=
202209130152 METAR KATL 130152Z 31008KT 10SM FEW250 22/16 A2993 RMK AO2 SLP127 T02220156=
202209130052 METAR KATL 130052Z 32010KT 10SM FEW250 23/16 A2990 RMK AO2 SLP118 T02330161=
202209122352 METAR KATL 122352Z 31008KT 10SM FEW035 FEW250 24/18 A2990 RMK AO2 SLP115 T02440183 10294 20244 53003=
202209122252 METAR KATL 122252Z 31009G18KT 10SM FEW035 SCT250 26/19 A2989 RMK AO2 SLP112 MDT CU SW-W T02560189=
202209122152 METAR KATL 122152Z 30009KT 10SM FEW035 FEW200 28/19 A2989 RMK AO2 SLP111 T02780194=
202209122052 METAR KATL 122052Z 31010KT 10SM SCT038 SCT080 BKN200 28/19 A2989 RMK AO2 SLP110 CB DSNT SE TCU DSNT ALQDS T02830189 56022=
202209121952 METAR KATL 121952Z 28007KT 260V320 10SM SCT038TCU BKN085 BKN200 29/19 A2990 RMK AO2 SLP114 TCU N SE W-NW DSNT ALQDS T02890194=
202209121852 METAR KATL 121852Z 32008KT 10SM SCT036 BKN085 BKN200 28/19 A2993 RMK AO2 SLP125 TCU DSNT ALQDS T02780189=
202209121752 METAR KATL 121752Z 31008KT 10SM SCT034TCU SCT085 BKN200 27/19 A2995 RMK AO2 SLP133 TCU SE SW DSNT ALQDS T02720189 10289 20211 58012=
202209121652 METAR KATL 121652Z 31007KT 10SM SCT026TCU BKN038 BKN075 BKN200 26/20 A2997 RMK AO2 SLP139 TCU ALQDS T02610200=
202209121552 METAR KATL 121552Z 30008KT 10SM SCT022TCU SCT032 BKN065 BKN200 27/20 A2998 RMK AO2 SLP142 TCU SE S W MDT CU ALQDS T02670200=
202209121452 METAR KATL 121452Z 32007KT 10SM SCT016 BKN030 BKN060 BKN150 BKN200 26/21 A2999 RMK AO2 SLP145 MDT CU W-N T02560206 53006=
202209121447 SPECI KATL 121447Z 33008KT 10SM SCT014 BKN030 BKN055 BKN150 BKN200 26/21 A2999 RMK AO2=
202209121402 SPECI KATL 121402Z 32008KT 10SM SCT011 BKN016 BKN050 BKN150 BKN200 23/21 A2998 RMK AO2 T02280206=
202209121352 METAR KATL 121352Z 31008KT 9SM SCT011 SCT016 BKN050 BKN150 BKN200 23/21 A2997 RMK AO2 SLP140 T02280206=
202209121349 SPECI KATL 121349Z 31007KT 8SM SCT008 BKN014 BKN050 BKN150 23/21 A2997 RMK AO2=
202209121324 SPECI KATL 121324Z 31008KT 6SM BR OVC006 22/21 A2997 RMK AO2 CIG 005V008 T02170206=
202209121252 METAR KATL 121252Z 31009KT 1SM R09R/P6000FT FEW002 OVC005 22/21 A2997 RMK AO2 SFC VIS 7 SLP140 CIG 004V007 T02170206=
202209121240 SPECI KATL 121240Z 31010KT 1SM R09R/P6000FT BR OVC004 21/21 A2997 RMK AO2 SFC VIS 6 CIG 003V006 TWRINC T02110206=
202209121152 METAR KATL 121152Z 30009KT 1/2SM R09R/6000VP6000FT BR OVC002 21/20 A2997 RMK AO2 SFC VIS 1 1/2 SLP138 TWRINC 70001 T02110200 10217 20206 53003=
202209121129 SPECI KATL 121129Z 29008KT 1/2SM R09R/P6000FT BR OVC002 21/20 A2996 RMK AO2 SFC VIS 1 1/4 TWRINC T02060200=
202209121111 SPECI KATL 121111Z 29008KT 1/2SM R09R/P6000FT BR BKN002 BKN100 BKN140 21/20 A2996 RMK AO2 SFC VIS 6 TWRINC T02060200=
202209121052 METAR KATL 121052Z 29006KT 10SM FEW002 FEW100 SCT140 SCT250 21/20 A2995 RMK AO2 SLP132 T02060200=
202209121049 SPECI KATL 121049Z 30006KT 10SM FEW002 FEW100 SCT140 SCT250 21/20 A2995 RMK AO2=
202209120952 METAR KATL 120952Z 28006KT 10SM FEW110 BKN150 BKN200 BKN250 21/20 A2995 RMK AO2 SLP132 T02110200=
202209120852 METAR KATL 120852Z 22004KT 10SM FEW100 BKN130 BKN180 BKN250 21/20 A2996 RMK AO2 SLP135 T02110200 56021 $=
202209120752 METAR KATL 120752Z 26004KT 10SM FEW005 FEW100 SCT130 OVC180 21/20 A2997 RMK AO2 SLP141 T02110200 $=
202209120652 METAR KATL 120652Z 27007KT 10SM FEW005 FEW035 SCT095 BKN130 OVC180 22/20 A2999 RMK AO2 SLP147 SHRA SW-NW T02170200 $=
202209120645 SPECI KATL 120645Z 26005KT 10SM FEW005 FEW035 SCT095 BKN130 OVC180 22/20 A3000 RMK AO2 T02170200 $=
202209120552 METAR KATL 120552Z 27006KT 10SM FEW010 FEW032 BKN095 BKN130 OVC250 22/21 A3002 RMK AO2 RAB26E45 SLP157 P0000 60000 T02170206 10256 20217 56009 $=
202209120519 SPECI KATL 120519Z 32008KT 10SM SCT010 SCT029 BKN050 BKN250 22/21 A3003 RMK AO2 CB DSNT SW TCU DSNT SW SHRA SW-W T02220206 $=
202209120513 SPECI KATL 120513Z 32011KT 10SM SCT010 BKN014 BKN049 BKN250 23/21 A3004 RMK AO2 CB DSNT SW TCU DSNT SW SHRA SW-W T02280211 $=
202209120452 METAR KATL 120452Z 23005KT 10SM CLR 23/22 A3003 RMK AO2 LTG DSNT W SLP160 T02280217 402780217=
202209120352 METAR KATL 120352Z 22005KT 10SM FEW028 SCT036 SCT090 BKN250 23/22 A3003 RMK AO2 SLP161 OCNL LTGICCCCG DSNT SW-NW CB DSNT SW-NW T02280217=
202209120335 SPECI KATL 120335Z 22005KT 10SM FEW028 SCT036 SCT090 BKN250 23/22 A3004 RMK AO2 OCNL LTGICCCCG DSNT SW-NW CB DSNT SW-NW T02330217=
202209120252 METAR KATL 120252Z 22003KT 10SM BKN026 BKN085 BKN250 24/22 A3005 RMK AO2 SLP166 OCNL LTGICCCCG DSNT SW-N CB DSNT SW-N T02390217 53018=
202209120244 SPECI KATL 120244Z 22003KT 10SM BKN026 BKN085 BKN250 24/22 A3005 RMK AO2 OCNL LTGICCCCG DSNT SW-N CB DSNT SW-N T02390217=
202209120152 METAR KATL 120152Z 19004KT 10SM FEW025 FEW065 FEW085 SCT150 BKN250 24/22 A3003 RMK AO2 SLP158 FRQ LTGICCCCG DSNT W-NW CB DSNT W-NW T02390217=
202209120052 METAR KATL 120052Z 20003KT 10SM CLR 24/22 A3001 RMK AO2 SLP153 T02440217=
202209112352 METAR KATL 112352Z 20006KT 10SM FEW025 FEW065 SCT150 BKN250 26/22 A2999 RMK AO2 SLP148 CB DSNT S AND W-NW T02560217 10278 20256 58004=
202209112252 METAR KATL 112252Z 19006KT 10SM FEW025 SCT050 SCT065 BKN200 BKN250 27/22 A3000 RMK AO2 SLP150 T02670217=
202209112152 METAR KATL 112152Z 20006KT 10SM SCT026 BKN047 BKN055 BKN150 BKN250 27/22 A3001 RMK AO2 SLP152 T02670217=
202209112052 METAR KATL 112052Z 24007KT 10SM SCT027 SCT140 BKN250 28/21 A3001 RMK AO2 SLP151 TCU DSNT N S MDT CU ALQDS T02780211 58030=
202209111952 METAR KATL 111952Z 21008KT 10SM SCT024TCU SCT140 BKN200 27/22 A3004 RMK AO2 SLP163 TCU S DSNT N S MDT CU ALQDS T02720217=
202209111852 METAR KATL 111852Z 21007KT 10SM SCT024 SCT080 OVC200 28/22 A3007 RMK AO2 SLP172 TCU DSNT N MDT CU ALQDS T02780222=
202209111838 SPECI KATL 111838Z 21009KT 10SM BKN024 BKN080 OVC200 27/22 A3007 RMK AO2 TCU DSNT NW-N MDT CU ALQDS T02720217=
202209111752 METAR KATL 111752Z 21007KT 10SM SCT022 SCT055 BKN200 26/22 A3010 RMK AO2 RAE02 SLP183 TCU DSNT N S W P0001 60001 T02610217 10267 20217 58005=
202209111706 SPECI KATL 111706Z 20007KT 10SM SCT018 SCT028 OVC050 25/22 A3012 RMK AO2 RAE02 BINOVC P0001 T02500222=
202209111652 METAR KATL 111652Z 17006KT 9SM -RA SCT018 BKN026 OVC044 25/22 A3012 RMK AO2 RAB50 SLP191 P0000 T02500217=
202209111552 METAR KATL 111552Z 21005KT 10SM BKN017 BKN038 OVC150 25/21 A3012 RMK AO2 SLP191 T02500211=
202209111531 SPECI KATL 111531Z 17004KT 10SM BKN015 BKN150 25/21 A3012 RMK AO2 T02500211=
202209111452 METAR KATL 111452Z 19004KT 10SM BKN011 BKN026 BKN150 24/22 A3012 RMK AO2 RAB12E25 SLP189 P0000 60000 T02440217 51004=
202209111419 SPECI KATL 111419Z 18005KT 9SM -RA BKN008 BKN016 OVC032 23/22 A3012 RMK AO2 RAB12 P0000 T02330217=
202209111402 SPECI KATL 111402Z 18004KT 10SM SCT008 BKN032 OVC120 23/22 A3011 RMK AO2 T02280217=
202209111352 METAR KATL 111352Z 16004KT 9SM BKN008 BKN032 OVC120 23/22 A3011 RMK AO2 SLP189 T02280217=
202209111312 SPECI KATL 111312Z 14004KT 7SM BKN005 OVC032 22/22 A3011 RMK AO2 BINOVC T02220217=
202209111252 METAR KATL 111252Z 00000KT 1 1/2SM BR BKN004 OVC008 22/21 A3011 RMK AO2 SFC VIS 6 SLP189 CIG 003V006 TWRINC T02220211=
202209111152 METAR KATL 111152Z 15003KT 1 1/2SM BR BKN004 BKN008 OVC012 22/21 A3010 RMK AO2 SFC VIS 6 SLP187 CIG 003V006 TWRINC 60000 70008 T02170211 10217 20217 53003=
202209111052 METAR KATL 111052Z 16003KT 1SM R09R/P6000FT BR OVC004 22/21 A3009 RMK AO2 SFC VIS 2 SLP182 CIG 003V006 TWRINC T02170211=
202209110952 METAR KATL 110952Z 17003KT 1SM R09R/P6000FT BR OVC002 22/21 A3009 RMK AO2 SFC VIS 1 3/4 SLP181 T02170211=
202209110852 METAR KATL 110852Z 11003KT 1SM R09R/P6000FT BR OVC002 22/21 A3010 RMK AO2 SFC VIS 1 1/4 SLP183 60000 T02170211 55006=
202209110752 METAR KATL 110752Z 11005KT 1SM R09R/P6000FT BR OVC002 22/21 A3009 RMK AO2 SFC VIS 2 1/2 RAB13E37 SLP182 P0000 T02170211=
202209110652 METAR KATL 110652Z 08007KT 1SM R09R/3500V5500FT BR VV002 22/21 A3011 RMK AO2 SLP187 T02170211=
202209110552 METAR KATL 110552Z 09008KT 1SM R09R/P6000FT BR OVC002 22/21 A3011 RMK AO2 SFC VIS 2 1/2 SLP189 TWRINC 60000 T02170211 10217 20217 50002=
202209110452 METAR KATL 110452Z 09006KT 1SM R09R/P6000FT BR OVC003 22/21 A3012 RMK AO2 SFC VIS 6 SLP191 TWRINC T02170206 402280194=
202209110352 METAR KATL 110352Z 09007KT 1SM R09R/P6000FT BR OVC003 22/21 A3011 RMK AO2 SFC VIS 6 SLP188 TWRINC T02170206=
202209110252 METAR KATL 110252Z 08006KT 1SM R09R/P6000FT BR OVC003 22/21 A3011 RMK AO2 SFC VIS 6 SLP189 TWRINC 60000 T02170206 51014=
202209110152 METAR KATL 110152Z 07008KT 1SM R09R/P6000FT BR OVC003 22/21 A3010 RMK AO2 SFC VIS 5 SLP185 TWRINC T02170211=
202209110052 METAR KATL 110052Z 07008KT 1SM R09R/P6000FT BR OVC004 22/21 A3008 RMK AO2 SFC VIS 6 SLP179 DZB14E40 TWRINC P0000 T02170206=
202209110014 SPECI KATL 110014Z 07008KT 1SM R09R/P6000FT -DZ BR OVC005 22/21 A3007 RMK AO2 SFC VIS 4 DZB14 P0000 T02170211=
202209102352 METAR KATL 102352Z 08006KT 7SM BKN005 OVC010 22/21 A3006 RMK AO2 RAB15E42 SLP174 P0001 60007 T02170206 10228 20217 51006=
202209102337 SPECI KATL 102337Z 09007KT 3SM -RA BR OVC005 22/21 A3006 RMK AO2 RAB15 P0001 T02170206=
202209102321 SPECI KATL 102321Z 08009KT 1 3/4SM -RA BR OVC005 22/21 A3006 RMK AO2 RAB15 P0000 T02170211=
202209102252 METAR KATL 102252Z 09006KT 10SM BKN006 OVC010 22/21 A3006 RMK AO2 RAE09B25E38 SLP172 P0001 T02220211=
202209102239 SPECI KATL 102239Z 08007KT 4SM BR BKN006 OVC010 22/21 A3006 RMK AO2 RAE09B25E38 P0001 T02220211=
202209102232 SPECI KATL 102232Z 08007KT 2 1/2SM -RA BR BKN006 OVC012 22/21 A3006 RMK AO2 RAE09B25 P0001 T02220211=
202209102206 SPECI KATL 102206Z 07008KT 4SM -RA BR BKN005 OVC011 22/21 A3006 RMK AO2 P0000 T02220211=
202209102200 SPECI KATL 102200Z 09008KT 2SM -RA BR BKN005 OVC011 22/21 A3006 RMK AO2 P0000 T02220211=
202209102152 METAR KATL 102152Z 09005KT 1 1/2SM R09R/6000VP6000FT -RA BR BKN005 OVC015 22/21 A3005 RMK AO2 RAB15 SLP170 P0005 T02220211=
202209102126 SPECI KATL 102126Z 07008KT 1 3/4SM -RA BR BKN007 OVC012 23/21 A3005 RMK AO2 RAB15 P0000 T02280206=
202209102052 METAR KATL 102052Z 08010KT 8SM OVC008 23/21 A3005 RMK AO2 SLP167 60000 T02280206 58009=
202209101952 METAR KATL 101952Z 08009KT 8SM OVC008 23/21 A3005 RMK AO2 DZB36E50 SLP170 P0000 T02280206=
202209101852 METAR KATL 101852Z 08005KT 9SM OVC008 23/21 A3007 RMK AO2 SLP176 T02280206=
202209101752 METAR KATL 101752Z 08008KT 7SM OVC007 22/20 A3008 RMK AO2 SLP177 60001 T02220200 10222 20206 58000=
202209101652 METAR KATL 101652Z 09008KT 10SM OVC006 21/20 A3008 RMK AO2 SLP180 T02110200=
202209101552 METAR KATL 101552Z 09010KT 9SM OVC006 21/20 A3008 RMK AO2 DZE36 SLP179 P0000 T02110200=
202209101452 METAR KATL 101452Z 08011KT 3SM -DZ BR OVC005 21/20 A3008 RMK AO2 RAE11DZB11 SLP177 VIS N-NE 2 P0000 60001 T02060200 52019=
202209101422 SPECI KATL 101422Z 08011KT 3SM -DZ BR BKN005 OVC012 21/19 A3007 RMK AO2 RAE11DZB11 P0000 T02060194=
202209101411 SPECI KATL 101411Z 07010KT 2SM -DZ BR BKN005 OVC012 21/19 A3006 RMK AO2 RAE11DZB11 P0000 T02060194=
202209101352 METAR KATL 101352Z 08009KT 1 3/4SM -RA BR BKN005 OVC010 21/19 A3006 RMK AO2 DZE33RAB33 SLP170 P0001 T02060194=
202209101304 SPECI KATL 101304Z 09009KT 1 3/4SM -DZ BR BKN005 OVC010 21/19 A3004 RMK AO2 P0000 T02060194=
202209101252 METAR KATL 101252Z 08011KT 2SM -DZ BR BKN005 OVC011 21/19 A3004 RMK AO2 SLP164 P0000 T02060194=
202209101234 SPECI KATL 101234Z 08012KT 2 1/2SM -DZ BR BKN005 OVC011 21/19 A3003 RMK AO2 P0000 T02060194=
202209101152 METAR KATL 101152Z 09008KT 4SM -DZ BR OVC005 21/19 A3002 RMK AO2 DZB25 SLP157 P0000 60002 70007 T02060194 10206 20200 53013=
202209101052 METAR KATL 101052Z 08011KT 7SM OVC006 21/19 A3000 RMK AO2 RAB0954E52 SLP149 P0002 T02060194=
202209101037 SPECI KATL 101037Z 08010KT 3SM -RA BR OVC006 21/19 A3000 RMK AO2 RAB0954 P0002 T02060194=
202209101007 SPECI KATL 101007Z 07012KT 2SM -RA BR OVC006 21/19 A2999 RMK AO2 RAB0954 P0001 T02060194=
202209100952 METAR KATL 100952Z 07012KT 8SM OVC006 21/19 A2999 RMK AO2 DZE43 SLP146 P0000 T02060194=
202209100852 METAR KATL 100852Z 07012KT 5SM -DZ BR OVC006 20/19 A2998 RMK AO2 DZB0756 SLP144 P0000 60000 T02000194 57006=
202209100752 METAR KATL 100752Z 09011KT 7SM BKN006 OVC011 20/19 A2998 RMK AO2 RAE05DZB05E30 SLP145 P0000 T02000189=
202209100715 SPECI KATL 100715Z 08011KT 5SM -DZ BR BKN005 BKN011 OVC018 20/19 A2999 RMK AO2 RAE05DZB05 P0000 T02000189=
202209100652 METAR KATL 100652Z 08010KT 3SM -RA BR FEW005 BKN016 OVC024 20/19 A3000 RMK AO2 RAB48 SLP149 P0000 T02000189=
202209100552 METAR KATL 100552Z 08013KT 6SM BR SCT005 BKN023 OVC031 19/18 A3000 RMK AO2 RAE43 SLP150 P0002 60005 T01940183 10239 20194 51006=
202209100550 SPECI KATL 100550Z 08011KT 6SM BR SCT005 BKN023 OVC031 19/18 A3000 RMK AO2 RAE43 P0002=
202209100516 SPECI KATL 100516Z 07009KT 5SM -RA BR FEW005 FEW028 OVC033 20/19 A3000 RMK AO2 P0002 T02000189=
202209100452 METAR KATL 100452Z 09011G19KT 4SM -RA BR FEW007 BKN028 OVC040 20/18 A3000 RMK AO2 PK WND 09028/0415 RAB30 SLP151 VIS LWR W-N P0003 T02000183 402610200=
202209100434 SPECI KATL 100434Z 12013G25KT 2 1/2SM -RA SCT018 BKN025 OVC040 21/18 A3000 RMK AO2 PK WND 09028/0415 RAB30 P0000 T02110178=
202209100352 METAR KATL 100352Z 10012G20KT 10SM BKN042 OVC080 23/17 A2998 RMK AO2 SLP142 T02330172=
202209100252 METAR KATL 100252Z 09010G19KT 10SM BKN045 BKN080 OVC150 23/18 A2998 RMK AO2 SLP142 T02330183 51015=
202209100152 METAR KATL 100152Z 08013KT 10SM SCT050 BKN090 BKN150 OVC200 23/18 A2997 RMK AO2 SLP139 T02330183=
202209100052 METAR KATL 100052Z 09011KT 10SM FEW080 BKN150 BKN200 23/18 A2994 RMK AO2 SLP130 T02330183=
202209092352 METAR KATL 092352Z 09010KT 10SM FEW050 BKN080 OVC150 24/18 A2993 RMK AO2 SLP128 60000 T02390178 10250 20239 53005=
202209092252 METAR KATL 092252Z 08012KT 10SM BKN050 BKN070 OVC100 24/17 A2992 RMK AO2 SLP123 T02440172=
202209092152 METAR KATL 092152Z 08015KT 10SM FEW026 BKN055 OVC100 24/17 A2991 RMK AO2 SLP121 T02440172=
202209092052 METAR KATL 092052Z 07013KT 10SM FEW026 BKN060 OVC100 24/18 A2992 RMK AO2 SLP121 BINOVC 60000 T02440178 57007=
202209091952 METAR KATL 091952Z 07011KT 10SM FEW030 BKN070 OVC090 24/18 A2992 RMK AO2 RAE50 SLP125 P0000 T02390183=
202209091852 METAR KATL 091852Z 09011KT 10SM -RA SCT032 OVC075 25/18 A2993 RMK AO2 RAB51 SLP126 P0000 T02500178=
202209091752 METAR KATL 091752Z 08015KT 10SM SCT030 SCT050 BKN085 OVC140 25/18 A2994 RMK AO2 SLP129 T02500178 10261 20217 50001=
202209091652 METAR KATL 091652Z 09017G23KT 10SM SCT028 BKN140 BKN250 26/18 A2994 RMK AO2 SLP129 T02560178=
202209091624 SPECI KATL 091624Z 08016KT 10SM BKN028 BKN140 BKN250 26/18 A2995 RMK AO2 T02560178=
202209091602 SPECI KATL 091602Z 07015G25KT 10SM SCT027 BKN200 25/18 A2994 RMK AO2 T02500183=
202209091552 METAR KATL 091552Z 08016G22KT 10SM BKN026 BKN200 25/18 A2994 RMK AO2 PK WND 09026/1525 SLP130 T02500183=
202209091509 SPECI KATL 091509Z 07019G26KT 10SM BKN022 BKN200 25/18 A2994 RMK AO2 PK WND 06026/1501 T02500183=
202209091452 METAR KATL 091452Z 08015KT 10SM SCT022 BKN200 24/18 A2994 RMK AO2 SLP127 T02440183 53006=
202209091404 SPECI KATL 091404Z 07012KT 10SM SCT014 BKN200 23/19 A2992 RMK AO2 T02330189=
202209091352 METAR KATL 091352Z 08015G23KT 10SM BKN014 BKN200 23/19 A2991 RMK AO2 SLP120 T02330189=
202209091312 SPECI KATL 091312Z 08014G21KT 10SM BKN012 BKN032 BKN200 23/19 A2992 RMK AO2 T02280189=
202209091252 METAR KATL 091252Z 08015KT 10SM SCT013 BKN031 BKN200 BKN250 23/19 A2992 RMK AO2 SLP121 T02280194=
202209091247 SPECI KATL 091247Z 09013G23KT 10SM FEW013 BKN031 BKN044 22/19 A2992 RMK AO2=
202209091152 METAR KATL 091152Z 09013G20KT 10SM BKN008 OVC012 22/20 A2991 RMK AO2 SLP118 T02170200 10228 20217 53014=
202209091052 METAR KATL 091052Z 08009KT 10SM BKN009 BKN020 22/20 A2989 RMK AO2 SLP110 T02170200=
202209091039 SPECI KATL 091039Z 06010KT 10SM BKN009 BKN020 22/19 A2988 RMK AO2 T02170194=
202209090952 METAR KATL 090952Z 07010KT 10SM FEW009 FEW020 BKN045 BKN250 22/19 A2987 RMK AO2 SLP105 T02170194=
202209090926 SPECI KATL 090926Z 07010KT 10SM FEW021 SCT035 SCT050 BKN250 22/19 A2987 RMK AO2 T02170194=
202209090903 SPECI KATL 090903Z 08010KT 10SM SCT021 BKN027 BKN050 BKN250 22/20 A2987 RMK AO2 T02170200=
202209090852 METAR KATL 090852Z 08009KT 10SM SCT021 SCT030 BKN050 BKN250 22/19 A2987 RMK AO2 SLP103 T02170194 56004 $=
202209090752 METAR KATL 090752Z 09010KT 10SM FEW190 BKN250 22/19 A2987 RMK AO2 SLP105 T02170194 $=
202209090652 METAR KATL 090652Z 08009KT 10SM FEW190 BKN250 22/20 A2987 RMK AO2 SLP105 T02220200 $=
202209090552 METAR KATL 090552Z 08008KT 10SM SCT027 SCT190 SCT250 23/20 A2988 RMK AO2 SLP107 T02280200 10267 20228 52006 $=
202209090452 METAR KATL 090452Z 09009KT 10SM FEW200 BKN250 23/20 A2987 RMK AO2 SLP106 T02280200 402940222 $=
202209090352 METAR KATL 090352Z 09008KT 10SM FEW200 BKN250 23/21 A2986 RMK AO2 SLP102 T02330206 $=
202209090252 METAR KATL 090252Z 11005KT 10SM FEW150 BKN250 24/20 A2986 RMK AO2 SLP101 T02440200 51017 $=
202209090152 METAR KATL 090152Z 12006KT 10SM FEW030 BKN250 25/20 A2985 RMK AO2 SLP098 T02500200 $=
202209090052 METAR KATL 090052Z 12007KT 10SM FEW032TCU SCT050 BKN250 26/20 A2983 RMK AO2 SLP090 TCU W-N T02610200 $=
202209082352 METAR KATL 082352Z 11007KT 10SM FEW032 SCT200 BKN250 27/19 A2981 RMK AO2 SLP084 TCU DSNT S T02670194 10294 20267 53003 $=
202209082252 METAR KATL 082252Z 09009KT 10SM FEW032 SCT200 BKN250 27/19 A2980 RMK AO2 SLP080 TCU DSNT SE NW T02720194 $=
202209082152 METAR KATL 082152Z 06009KT 10SM FEW032 SCT120 BKN200 28/19 A2979 RMK AO2 SLP078 T02780194=
202209082052 METAR KATL 082052Z 06010G15KT 10SM FEW032 FEW065 SCT110 BKN200 28/20 A2980 RMK AO2 SLP080 TCU DSNT ALQDS T02780200 58023=
202209081952 METAR KATL 081952Z 10009G15KT 10SM SCT032TCU SCT065 BKN110 BKN200 29/21 A2982 RMK AO2 SLP088 TCU N-NE S-W-NW DSNT ALQDS SHRA NW T02890206=
202209081852 METAR KATL 081852Z 12006KT 10SM BKN030TCU BKN060 BKN110 BKN200 28/20 A2985 RMK AO2 SLP097 TCU ALQDS DSNT ALQDS T02780200=
202209081752 METAR KATL 081752Z 09008KT 10SM BKN030 BKN060 BKN250 27/21 A2987 RMK AO2 SLP104 TCU DSNT E W-NW MDT CU ALQDS T02720206 10278 20222 58010=
202209081652 METAR KATL 081652Z 11005KT 10SM SCT026 SCT065 BKN250 27/21 A2989 RMK AO2 SLP111 T02720206=
202209081640 SPECI KATL 081640Z 10006KT 10SM SCT024 BKN060 BKN250 27/20 A2989 RMK AO2 T02670200=
202209081552 METAR KATL 081552Z 09010KT 10SM BKN023 BKN055 BKN250 26/20 A2990 RMK AO2 SLP114 T02610200=
202209081548 SPECI KATL 081548Z 10008KT 10SM BKN022 BKN060 BKN250 26/20 A2990 RMK AO2=
202209081452 METAR KATL 081452Z 08010KT 10SM SCT022 BKN060 BKN250 26/19 A2990 RMK AO2 SLP115 T02560194 51006=
202209081352 METAR KATL 081352Z 08013KT 10SM FEW020 SCT055 SCT250 24/18 A2989 RMK AO2 SLP113 T02440183=
202209081252 METAR KATL 081252Z 07014KT 10SM SCT055 SCT200 SCT250 23/18 A2989 RMK AO2 SLP111 T02330183=
202209081152 METAR KATL 081152Z 05010KT 10SM FEW035 SCT150 SCT200 SCT250 22/18 A2988 RMK AO2 SLP108 T02220183 10244 20222 53004=
202209081052 METAR KATL 081052Z 03007KT 10SM FEW035 FEW050 FEW250 22/19 A2987 RMK AO2 SLP104 T02220189=
202209080952 METAR KATL 080952Z 04007KT 10SM FEW025 SCT060 SCT250 22/19 A2987 RMK AO2 SLP102 T02220194=
202209080852 METAR KATL 080852Z 04006KT 10SM FEW065 SCT250 23/19 A2987 RMK AO2 SLP103 T02280194 56009=
202209080752 METAR KATL 080752Z 02003KT 10SM FEW065 SCT250 23/19 A2988 RMK AO2 SLP105 T02280189=
202209080652 METAR KATL 080652Z 04004KT 10SM BKN250 23/19 A2988 RMK AO2 SLP108 T02330194=
202209080552 METAR KATL 080552Z 05005KT 10SM BKN250 23/19 A2990 RMK AO2 SLP112 T02330194 10272 20233 58006=
202209080452 METAR KATL 080452Z 35005KT 10SM BKN250 24/19 A2991 RMK AO2 SLP116 T02390194 403060217=
202209080352 METAR KATL 080352Z 33006KT 10SM BKN250 24/20 A2991 RMK AO2 SLP118 T02390200=
202209080252 METAR KATL 080252Z 31007KT 10SM FEW040 BKN250 24/20 A2991 RMK AO2 SLP119 T02440200 50005=
202209080152 METAR KATL 080152Z 32005KT 10SM FEW040 SCT250 25/19 A2992 RMK AO2 SLP120 T02500194=
202209080052 METAR KATL 080052Z 32009KT 10SM FEW040 BKN250 26/19 A2991 RMK AO2 SLP117 CB DSNT E-SE T02610194=
202209072352 METAR KATL 072352Z 32008KT 10SM FEW040 SCT250 27/19 A2990 RMK AO2 SLP115 CB DSNT E T02720194 10306 20272 55002=
202209072252 METAR KATL 072252Z 30009KT 10SM FEW040 SCT250 29/19 A2989 RMK AO2 SLP112 TCU DSNT NE-E T02890194=
202209072152 METAR KATL 072152Z 31007KT 10SM FEW040 SCT200 29/19 A2989 RMK AO2 SLP110 TCU DSNT NE-E T02940194=
202209072052 METAR KATL 072052Z 31010G16KT 10SM FEW044 SCT200 SCT250 31/19 A2990 RMK AO2 SLP114 CB DSNT NE NW TCU DSNT NE-SE W T03060194 58018=
202209071952 METAR KATL 071952Z 32011G17KT 10SM FEW042 SCT200 SCT250 29/19 A2992 RMK AO2 SLP121 TCU DSNT N-E MDT CU ALQDS T02940194=
202209071852 METAR KATL 071852Z 34009G18KT 10SM SCT040 SCT200 BKN250 30/19 A2995 RMK AO2 SLP129 TCU DSNT N W-NW T03000194=
202209071752 METAR KATL 071752Z 33009KT 10SM FEW036 SCT200 SCT250 29/20 A2996 RMK AO2 SLP133 TCU DSNT W NW T02940200 10300 20217 58018=
202209071652 METAR KATL 071652Z 31008KT 10SM FEW033 FEW200 SCT250 29/20 A2998 RMK AO2 SLP142 T02890200=
202209071552 METAR KATL 071552Z VRB05KT 10SM FEW030 FEW180 SCT250 27/21 A3001 RMK AO2 SLP150 T02720206=
202209071452 METAR KATL 071452Z 31006KT 10SM FEW120 SCT180 SCT250 26/21 A3001 RMK AO2 SLP153 T02610206 58001=
202209071352 METAR KATL 071352Z 32009KT 10SM FEW120 SCT180 BKN250 25/20 A3001 RMK AO2 SLP154 ACC DSNT W T02500200=
202209071252 METAR KATL 071252Z 32009KT 10SM FEW100 BKN130 BKN220 23/19 A3002 RMK AO2 SLP156 VIRGA SW-W T02330194=
202209071152 METAR KATL 071152Z 31008KT 10SM BKN120 BKN200 BKN250 22/19 A3002 RMK AO2 SLP155 T02170194 10239 20217 52006=
202209071052 METAR KATL 071052Z 29008KT 10SM SCT120 BKN150 BKN250 22/20 A3001 RMK AO2 SLP153 VIRGA OHD-NE-SE T02220200=
202209070952 METAR KATL 070952Z 31008KT 10SM FEW120 BKN150 BKN250 23/20 A3000 RMK AO2 SLP148 T02280200=
202209070852 METAR KATL 070852Z 32005KT 10SM FEW150 SCT200 BKN250 23/21 A3000 RMK AO2 SLP147 T02280206 58009=
202209070752 METAR KATL 070752Z 31005KT 10SM BKN150 BKN200 23/21 A3001 RMK AO2 SLP150 T02280206=
202209070652 METAR KATL 070652Z 29007KT 10SM FEW150 BKN200 BKN250 23/21 A3002 RMK AO2 SLP155 T02330211=
202209070552 METAR KATL 070552Z 31006KT 10SM BKN180 BKN250 24/22 A3003 RMK AO2 SLP156 T02390217 10267 20239 58008=
202209070452 METAR KATL 070452Z 30007KT 10SM BKN150 BKN250 24/22 A3004 RMK AO2 SLP161 T02440217 403000217=
202209070352 METAR KATL 070352Z 28007KT 10SM BKN150 BKN250 25/22 A3005 RMK AO2 SLP163 T02500222=
202209070252 METAR KATL 070252Z 23003KT 10SM FEW150 BKN200 BKN250 25/22 A3005 RMK AO2 SLP165 T02500217 50008=
202209070152 METAR KATL 070152Z 27005KT 10SM FEW150 SCT250 25/22 A3005 RMK AO2 SLP167 T02500217=
202209070052 METAR KATL 070052Z 29006KT 10SM FEW100 SCT150 SCT250 26/22 A3005 RMK AO2 SLP165 T02610222=
202209062352 METAR KATL 062352Z 22004KT 10SM FEW038 SCT150 SCT250 27/22 A3003 RMK AO2 SLP158 T02670217 10300 20267 56001=
202209062252 METAR KATL 062252Z 23005KT 10SM FEW038 SCT150 BKN200 BKN250 28/22 A3003 RMK AO2 SLP157 T02830217=
202209062152 METAR KATL 062152Z 26005KT 10SM FEW035 SCT150 BKN200 BKN250 29/21 A3002 RMK AO2 SLP155 CB DSNT SW T02940211=
202209062052 METAR KATL 062052Z 28007KT 10SM FEW036TCU FEW110 BKN200 BKN250 30/21 A3003 RMK AO2 SLP157 TCU NW DSNT E W T03000211 57016=
202209061952 METAR KATL 061952Z 25007KT 10SM FEW036TCU FEW090 SCT120 BKN200 29/21 A3005 RMK AO2 SLP165 CB DSNT SE TCU NW-N DSNT NE-E W-NW T02890206=
202209061852 METAR KATL 061852Z 29008KT 10SM FEW036TCU FEW085 SCT120 BKN200 29/21 A3006 RMK AO2 SLP168 TCU SE-S DSNT NE-E T02940206=
202209061752 METAR KATL 061752Z 32008KT 10SM FEW033 SCT080 BKN120 BKN200 29/21 A3008 RMK AO2 SLP175 CB DSNT S TCU DSNT N-E SW MDT CU W-NW 60000 T02890211 10294 20222 58010=
202209061652 METAR KATL 061652Z 32007KT 10SM SCT026TCU SCT085 BKN110 BKN200 28/22 A3010 RMK AO2 RAB14E30 SLP183 CB DSNT SW TCU ALQDS DSNT ALQDS P0000 T02830222=
202209061552 METAR KATL 061552Z 29007KT 10SM BKN028TCU BKN055 BKN200 BKN250 28/22 A3011 RMK AO2 SLP187 TCU OHD ALQDS DSNT ALQDS T02830217=
202209061452 METAR KATL 061452Z 31008KT 10SM SCT018 SCT028 BKN200 BKN250 27/22 A3011 RMK AO2 SLP185 TCU DSNT SE MDT CU E-S T02670217 53013=
202209061352 METAR KATL 061352Z 30006KT 10SM FEW010 SCT018 SCT140 BKN200 BKN250 26/22 A3009 RMK AO2 SLP181 T02560222=
202209061315 SPECI KATL 061315Z 00000KT 10SM FEW006 SCT018 BKN140 BKN200 23/22 A3008 RMK AO2 T02330217=
202209061252 METAR KATL 061252Z 31006KT 10SM FEW004 BKN018 BKN140 BKN200 23/21 A3008 RMK AO2 SLP176 BKN018 V SCT T02280211=
202209061244 SPECI KATL 061244Z 31006KT 10SM FEW004 BKN016 BKN140 BKN200 23/22 A3008 RMK AO2 BKN016 V SCT T02280217=
202209061152 METAR KATL 061152Z 27004KT 10SM FEW004 FEW026 SCT140 BKN200 22/21 A3007 RMK AO2 SLP173 70010 T02220211 10228 20217 53014=
202209061052 METAR KATL 061052Z 29005KT 10SM FEW002 SCT028 BKN140 BKN200 22/21 A3005 RMK AO2 SLP167 T02170211=
202209060952 METAR KATL 060952Z 27004KT 10SM FEW004 FEW110 SCT140 BKN200 22/21 A3004 RMK AO2 SLP162 T02220211=
202209060852 METAR KATL 060852Z 27004KT 10SM FEW004 FEW110 SCT140 22/21 A3003 RMK AO2 SLP158 T02220211 55003=
202209060752 METAR KATL 060752Z 00000KT 10SM FEW004 FEW110 SCT140 22/22 A3002 RMK AO2 SLP157 T02220217=
202209060652 METAR KATL 060652Z 25003KT 10SM SCT150 BKN250 23/22 A3003 RMK AO2 SLP159 T02280217=
202209060552 METAR KATL 060552Z 00000KT 10SM FEW110 SCT150 BKN250 22/22 A3004 RMK AO2 SLP161 T02220217 10239 20222 58006=
202209060452 METAR KATL 060452Z 22003KT 10SM FEW110 BKN250 23/22 A3004 RMK AO2 SLP164 T02280217 403000222=
202209060352 METAR KATL 060352Z 18003KT 10SM FEW200 BKN250 23/22 A3005 RMK AO2 SLP167 T02280217=
202209060252 METAR KATL 060252Z 23003KT 10SM FEW120 SCT200 BKN250 23/22 A3005 RMK AO2 SLP168 T02330217 51014=
202209060152 METAR KATL 060152Z 00000KT 10SM SCT085 BKN110 BKN200 23/22 A3005 RMK AO2 SLP167 T02330217=
202209060052 METAR KATL 060052Z 27004KT 10SM BKN100 BKN200 24/22 A3003 RMK AO2 SLP161 T02390222=
202209052352 METAR KATL 052352Z 28003KT 10SM FEW015 BKN110 BKN200 BKN250 24/22 A3001 RMK AO2 SLP154 60010 T02390217 10300 20239 51008=
202209052252 METAR KATL 052252Z 29005KT 10SM FEW015 SCT110 BKN200 BKN250 24/22 A3001 RMK AO2 TSE17 SLP153 CB DSNT NE SE T02440217=
202209052217 SPECI KATL 052217Z 27004KT 10SM FEW030 SCT080 BKN120 BKN200 BKN250 26/22 A3000 RMK AO2 TSE17 LTG DSNT NE-E TS MOVD NE CB DSNT NE-E T02560222=
202209052152 METAR KATL 052152Z 27005KT 10SM TS FEW030CB SCT080 BKN150 BKN250 24/23 A3000 RMK AO2 WSHFT 2118 RAB26E46 TSB52 SLP151 OCNL LTGIC VC NE-SE TS VC NE-SE MOV NE P0002 T02440228=
202209052138 SPECI KATL 052138Z 29011KT 9SM -RA SCT030CB BKN080 BKN200 BKN250 24/23 A2999 RMK AO2 WSHFT 2118 LTG DSNT NE RAB26 CB NE-SE-SW DSNT NE MOV NE P0001 T02440228=
202209052052 METAR KATL 052052Z 27006KT 10SM FEW033CB SCT080 BKN200 BKN250 28/23 A2999 RMK AO2 LTG DSNT E RAB01E34 SLP145 CB NE-SE MOV NE CB DSNT N NE-SE TCU E-SE DSNT W-N SHRA NE-SE P0008 60008 T02780228 56010=
202209051952 METAR KATL 051952Z 22007KT 10SM SCT032TCU BKN070 BKN200 BKN250 29/22 A2999 RMK AO2 SLP146 CB DSNT SE W-NW TCU N SE-SW DSNT ALQDS SHRA SW T02890217=
202209051852 METAR KATL 051852Z 24010KT 10SM SCT030 BKN065 BKN200 BKN250 29/22 A3001 RMK AO2 SLP151 CB DSNT NW TCU DSNT ALQDS T02890217=
202209051752 METAR KATL 051752Z 26008KT 10SM FEW020 SCT030 SCT065 BKN200 27/22 A3002 RMK AO2 SLP155 CB DSNT NE W-NW TCU DSNT ALQDS 60000 T02720217 10278 20228 58011=
202209051722 SPECI KATL 051722Z 22004KT 10SM FEW018 SCT028TCU BKN065 BKN200 27/22 A3003 RMK AO2 TCU NW-NE DSNT ALQDS T02670222=
202209051652 METAR KATL 051652Z 26006KT 10SM SCT016 BKN026TCU BKN060 BKN200 26/22 A3004 RMK AO2 SLP164 TCU N NE SE W-NW DSNT ALQDS MDT CU OHD ALQDS T02610222=
202209051648 SPECI KATL 051648Z 27006KT 10SM SCT015 BKN026TCU BKN065 BKN200 26/22 A3004 RMK AO2 TCU N SE W-NW DSNT ALQDS MDT CU ALQDS=
202209051552 METAR KATL 051552Z 23006KT 2SM SCT012 BKN025 BKN046 BKN200 25/23 A3005 RMK AO2 SFC VIS 8 RAB42E52 SLP167 TCU DSNT ALQDS MDT CU ALQDS P0000 T02500228=
202209051452 METAR KATL 051452Z 23008KT 2SM SCT008 BKN018 BKN044 BKN140 BKN200 24/22 A3004 RMK AO2 SFC VIS 10 DZE24 SLP164 MDT CU SW-NW P0000 60000 T02390222 51007=
202209051425 SPECI KATL 051425Z 20005KT 2SM SCT007 BKN016 BKN044 BKN140 OVC200 23/23 A3004 RMK AO2 SFC VIS 8 DZE24 P0000 T02330228=
202209051352 METAR KATL 051352Z 22006KT 2SM -DZ BR BKN007 OVC013 23/22 A3004 RMK AO2 SFC VIS 6 SLP163 CIG 005V009 P0000 T02330222=
202209051347 SPECI KATL 051347Z 22004KT 2SM -DZ BR BKN006 OVC012 23/22 A3004 RMK AO2 SFC VIS 6 CIG 005V008 P0000=
202209051252 METAR KATL 051252Z 18007KT 2SM -DZ BR OVC004 23/22 A3003 RMK AO2 SFC VIS 6 SLP160 CIG 003V005 P0000 T02280222=
202209051156 SPECI KATL 051156Z 21004KT 2SM -DZ BR BKN004 OVC008 23/22 A3002 RMK AO2 SFC VIS 5 P0000 T02280217=
202209051152 METAR KATL 051152Z 20005KT 6SM -DZ BR BKN004 OVC008 23/22 A3002 RMK AO2 DZB25 SLP157 P0000 60000 70026 T02280217 10228 20222 53015=
202209051125 SPECI KATL 051125Z 19005KT 4SM -DZ BR OVC004 23/22 A3001 RMK AO2 DZB25 P0000 T02280217=
202209051052 METAR KATL 051052Z 20007KT 6SM BR OVC005 23/22 A3000 RMK AO2 SLP149 T02280217=
202209050952 METAR KATL 050952Z 19005KT 7SM BKN006 OVC011 23/22 A2999 RMK AO2 SLP145 CIG 005V008 T02280217 $=
202209050924 SPECI KATL 050924Z 18005KT 7SM BKN006 OVC011 23/22 A2998 RMK AO2 CIG 005V008 T02280217 $=
202209050852 METAR KATL 050852Z 18006KT 6SM BR OVC004 23/22 A2998 RMK AO2 SLP142 T02280217 58002 $=
202209050752 METAR KATL 050752Z 17004KT 7SM BKN004 OVC008 22/22 A2998 RMK AO2 SLP143 T02220217 $=
202209050652 METAR KATL 050652Z 16005KT 5SM BR OVC003 22/22 A2998 RMK AO2 SLP143 T02220217 $=
202209050645 SPECI KATL 050645Z 15005KT 5SM BR OVC003 22/22 A2998 RMK AO2 T02220217 $=
202209050552 METAR KATL 050552Z 15005KT 10SM BKN005 BKN090 OVC110 22/22 A2998 RMK AO2 RAE42 SLP144 BKN005 V SCT P0000 60020 T02220217 10239 20222 58014 $=
202209050545 SPECI KATL 050545Z 15006KT 10SM BKN005 BKN060 BKN090 OVC150 22/21 A2999 RMK AO2 RAE42 BKN005 V SCT P0000 T02220211 $=
202209050512 SPECI KATL 050512Z 15003KT 10SM -RA SCT007 SCT055 BKN120 22/22 A2999 RMK AO2 SCT007 V BKN P0000 T02220217 $=
202209050452 METAR KATL 050452Z 15004KT 10SM -RA BKN007 BKN065 BKN120 23/22 A3000 RMK AO2 SLP148 RAB00 P0003 T02280217 402830228 $=
202209050438 SPECI KATL 050438Z 16003KT 10SM -RA SCT007 SCT070 BKN110 23/22 A3001 RMK AO2 RAB00 P0002 T02280217 $=
202209050352 METAR KATL 050352Z 14006KT 10SM BKN007 BKN012 OVC055 23/22 A3003 RMK AO2 RAB27E51 SLP159 P0000 T02280217 $=
202209050252 METAR KATL 050252Z 11007KT 10SM BKN007 BKN013 OVC070 23/22 A3002 RMK AO2 RAE33 SLP157 BINOVC P0005 60017 T02330222 51009 $=
202209050152 METAR KATL 050152Z 11006KT 4SM -RA BR BKN009 BKN013 OVC090 23/22 A3002 RMK AO2 SLP158 LTG DSNT SE-S CB DSNT SE-S BINOVC P0008 T02330222 $=
202209050116 SPECI KATL 050116Z 11005KT 7SM -RA BKN007 BKN013 OVC085 23/22 A3002 RMK AO2 LTG DSNT SE-S CB DSNT SE-S P0002 T02280217 $=
202209050052 METAR KATL 050052Z 14005KT 7SM -RA BKN010 BKN018 OVC080 23/22 A3001 RMK AO2 SLP151 LTG DSNT SW CB DSNT SW P0004 T02280217 $=
202209050040 SPECI KATL 050040Z 12007KT 7SM -RA FEW010 SCT018 BKN080 OVC150 23/21 A3000 RMK AO2 P0002 T02280211 $=
202209050006 SPECI KATL 050006Z 12009KT 10SM -RA BKN010 BKN018 OVC055 24/23 A3000 RMK AO2 P0001 T02390228 $=
202209042352 METAR KATL 042352Z 10008KT 6SM -RA BR FEW010 BKN018 OVC060 24/22 A3000 RMK AO2 LTG DSNT S RAB20 SLP148 CB DSNT SE-S P0005 60006 T02390222 10272 20239 53002 $=
202209042344 SPECI KATL 042344Z 10010KT 5SM -RA BR BKN014 OVC060 24/22 A3000 RMK AO2 LTG DSNT SE AND S RAB20 CB DSNT S SW P0003 T02440222 $=
202209042336 SPECI KATL 042336Z 11009KT 5SM RA BR BKN014 BKN025 OVC095 24/22 A3000 RMK AO2 LTG DSNT SE AND S RAB20 CB DSNT S SW P0001 T02440222=
202209042312 SPECI KATL 042312Z 08009KT 10SM BKN010 BKN025 OVC150 26/23 A3000 RMK AO2 LTG DSNT SW CB DSNT S SW T02560228=
202209042252 METAR KATL 042252Z 08007KT 10SM SCT010 SCT025TCU SCT090 BKN150 BKN200 BKN250 26/23 A2999 RMK AO2 LTG DSNT S AND SW SLP146 TCU SW-W NW-N CB DSNT SE SW T02560228=
202209042152 METAR KATL 042152Z 08006KT 10SM SCT014 SCT027 BKN150 BKN200 BKN250 26/23 A2999 RMK AO2 RAB21E30 SLP148 CB DSNT NE E SW TCU DSNT NE P0000 T02560228=
202209042052 METAR KATL 042052Z 09003KT 10SM FEW015 BKN150 BKN200 26/22 A2999 RMK AO2 RAE08 SLP146 CB DSNT E TCU DSNT SE-S W-NW P0000 60001 T02560222 56019=
202209042003 SPECI KATL 042003Z 16004KT 9SM -RA SCT018CB SCT045 BKN150 OVC200 24/23 A3000 RMK AO2 CB N-E-SE MOV N P0000 T02440228=
202209041952 METAR KATL 041952Z 16005KT 7SM RA BKN018CB BKN043 OVC150 24/23 A3000 RMK AO2 RAB1853 SLP150 CB OHD-NE-SE MOV N P0001 T02440228=
202209041852 METAR KATL 041852Z 15004KT 10SM FEW022TCU SCT055 BKN150 OVC200 26/22 A3003 RMK AO2 RAE10B27E35 TSB27E44 SLP160 CB DSNT N NE TCU NW DSNT E P0000 T02560217=
202209041844 SPECI KATL 041844Z 12005KT 9SM FEW022TCU SCT045 BKN150 OVC200 26/22 A3004 RMK AO2 RAE10B27E35 TSB27E44 TS MOVD N CB DSNT N TCU NW P0000 T02560217=
202209041827 SPECI KATL 041827Z 14008KT 4SM TSRA SCT022CB BKN036 OVC150 26/22 A3004 RMK AO2 RAE10B27 TSB27 VIS N 2 OCNL LTGCG N-NE TS N-NE MOV N P0000 T02560217=
202209041752 METAR KATL 041752Z 14007KT 9SM -RA SCT024TCU BKN060 BKN150 OVC200 27/22 A3005 RMK AO2 RAB51 SLP165 CB DSNT ALQDS TCU OHD-E-S P0000 60000 T02670217 10283 20233 58017=
202209041716 SPECI KATL 041716Z 17008KT 10SM SCT025 SCT060 BKN150 BKN200 27/21 A3006 RMK AO2 CB DSNT ALQDS TCU DSNT NE SE T02720211=
202209041652 METAR KATL 041652Z 13007KT 10SM BKN025 BKN150 BKN200 27/21 A3007 RMK AO2 SLP171 CB DSNT NE SW TCU DSNT N E-SE T02720211=
202209041552 METAR KATL 041552Z 14007KT 10SM BKN019TCU BKN042 BKN150 26/21 A3008 RMK AO2 RAE02 SLP177 TCU OHD-S NE MDT CU ALQDS P0000 T02610211=
202209041522 SPECI KATL 041522Z 15007KT 10SM BKN018TCU BKN034 BKN150 27/22 A3009 RMK AO2 RAE02 TCU N DSNT SW MDT CU ALQDS P0000 T02670217=
202209041452 METAR KATL 041452Z 13008KT 10SM -RA BKN013 BKN033 BKN150 26/22 A3010 RMK AO2 RAB51 SLP181 MDT CU ALQDS P0000 60000 T02610217 51002=
202209041412 SPECI KATL 041412Z 13008KT 100V160 9SM BKN011 BKN150 25/22 A3010 RMK AO2 T02500217=
202209041352 METAR KATL 041352Z 15006KT 8SM BKN009 BKN150 24/22 A3010 RMK AO2 SLP181 T02440217=
202209041252 METAR KATL 041252Z 16006KT 8SM OVC008 23/22 A3009 RMK AO2 SLP181 CIG 007V011 T02330217=
202209041152 METAR KATL 041152Z 13007KT 8SM OVC007 23/22 A3009 RMK AO2 SLP179 T02330217 10233 20233 50002=
202209041052 METAR KATL 041052Z 14006KT 7SM OVC006 23/22 A3009 RMK AO2 SLP179 T02330217=
202209040952 METAR KATL 040952Z 12006KT 10SM OVC007 23/22 A3008 RMK AO2 SLP176 T02330217=
202209040852 METAR KATL 040852Z 13007KT 10SM OVC007 23/22 A3008 RMK AO2 SLP176 T02330217 58007=
202209040752 METAR KATL 040752Z 11004KT 10SM BKN007 OVC070 23/22 A3009 RMK AO2 SLP179 T02330217=
202209040743 SPECI KATL 040743Z 12005KT 10SM BKN009 OVC070 23/22 A3009 RMK AO2 T02330217=
202209040652 METAR KATL 040652Z 11006KT 10SM SCT009 BKN055 BKN070 23/21 A3010 RMK AO2 SLP183 T02330211=
202209040552 METAR KATL 040552Z 12007KT 10SM FEW009 SCT120 BKN250 23/21 A3011 RMK AO2 SLP183 T02330211 10283 20233 58000=
202209040515 SPECI KATL 040515Z 10009KT 10SM SCT009 SCT120 BKN250 24/21 A3011 RMK AO2 SCT009 V BKN T02390211=
202209040452 METAR KATL 040452Z 11008KT 10SM BKN011 BKN120 BKN250 24/22 A3011 RMK AO2 SLP184 T02390217 403110222=
202209040450 SPECI KATL 040450Z 10008KT 10SM BKN011 BKN120 BKN250 24/22 A3011 RMK AO2=
202209040352 METAR KATL 040352Z 12006KT 10SM FEW017 FEW027 SCT050 BKN250 25/22 A3011 RMK AO2 SLP185 CB DSNT W-NW T02500222=
202209040252 METAR KATL 040252Z 11007KT 10SM SCT017 BKN049 BKN250 26/22 A3011 RMK AO2 SLP184 CB DSNT W T02560222 50008=
202209040152 METAR KATL 040152Z 12005KT 10SM FEW040 SCT055 BKN250 27/22 A3011 RMK AO2 SLP184 CB DSNT W T02720217=
202209040052 METAR KATL 040052Z 11008KT 10SM FEW040 SCT100 SCT200 BKN250 27/21 A3009 RMK AO2 SLP178 CB DSNT NE SE SW T02720211=
202209032352 METAR KATL 032352Z 11007KT 10SM SCT040 SCT100 SCT200 BKN250 28/21 A3008 RMK AO2 SLP176 CB DSNT NE-E AND SW TCU DSNT SE T02830211 10311 20278 53003=
202209032252 METAR KATL 032252Z 11006KT 10SM FEW040 FEW100 SCT200 BKN250 29/21 A3007 RMK AO2 SLP172 CB DSNT NE-E TCU DSNT NE-SE AND S-SW MDT CU N T02940211=
202209032152 METAR KATL 032152Z 13008KT 10SM FEW042 FEW200 BKN250 30/21 A3007 RMK AO2 SLP171 TCU DSNT N NE E MDT CU NE SE T03000206=
202209032052 METAR KATL 032052Z 15009KT 10SM FEW042 BKN250 30/19 A3007 RMK AO2 SLP172 TCU DSNT N-NE E SE MDT CU ALQDS T03000194 58028=
202209031952 METAR KATL 031952Z 12008KT 10SM SCT042 BKN250 31/20 A3010 RMK AO2 SLP182 TCU DSNT N E MDT CU ALQDS T03110200=
202209031852 METAR KATL 031852Z 12008KT 10SM SCT036 BKN250 29/20 A3013 RMK AO2 SLP193 TCU DSNT E MDT CU ALQDS T02940200=
202209031752 METAR KATL 031752Z 15009G14KT 10SM SCT032 BKN250 30/21 A3016 RMK AO2 SLP201 TCU DSNT NE E MDT CU ALQDS T03000211 10300 20222 58013=
202209031720 SPECI KATL 031720Z 13006KT 10SM SCT028 BKN250 28/21 A3017 RMK AO2 MDT CU ALQDS T02830206=
202209031652 METAR KATL 031652Z 12008KT 10SM BKN028 BKN250 29/21 A3017 RMK AO2 SLP206 MDT CU ALQDS T02940211=
202209031552 METAR KATL 031552Z 12007KT 10SM BKN026 BKN250 28/21 A3019 RMK AO2 SLP212 MDT CU SE W-NW T02830211=
202209031452 METAR KATL 031452Z 13008KT 10SM BKN019 BKN120 BKN250 27/22 A3020 RMK AO2 SLP214 T02720217 51010 $=
202209031421 SPECI KATL 031421Z 12005KT 10SM BKN016 BKN120 BKN250 26/22 A3019 RMK AO2 T02560217 $=
202209031404 SPECI KATL 031404Z 14007KT 10SM BKN013 BKN120 BKN250 26/22 A3019 RMK AO2 T02560217 $=
202209031352 METAR KATL 031352Z 18004KT 10SM SCT011 SCT120 SCT250 25/22 A3019 RMK AO2 SLP212 SCT011 V BKN T02500217 $=
202209031335 SPECI KATL 031335Z 17006KT 10SM SCT010 SCT120 SCT250 24/21 A3018 RMK AO2 T02440211 $=
202209031319 SPECI KATL 031319Z 13004KT 10SM BKN008 BKN120 BKN250 24/21 A3018 RMK AO2 BKN008 V SCT T02440211 $=
202209031252 METAR KATL 031252Z 17004KT 10SM SCT007 SCT011 SCT120 BKN250 23/22 A3018 RMK AO2 SLP210 T02330217 $=
202209031152 METAR KATL 031152Z 12006KT 10SM FEW006 SCT060 SCT120 BKN250 22/21 A3017 RMK AO2 SLP206 70009 T02220211 10244 20222 53007 $=
202209031052 METAR KATL 031052Z 12004KT 10SM FEW006 FEW060 SCT120 BKN200 BKN250 22/21 A3016 RMK AO2 SLP204 T02220211 $=
202209030952 METAR KATL 030952Z 14004KT 10SM FEW007 SCT120 BKN200 BKN250 23/21 A3014 RMK AO2 SLP199 T02280211 $=
202209030928 SPECI KATL 030928Z 13005KT 10SM SCT007 BKN110 BKN200 23/21 A3014 RMK AO2 T02280211 $=
202209030852 METAR KATL 030852Z 14003KT 10SM BKN007 BKN110 BKN200 23/22 A3014 RMK AO2 SLP197 T02330217 58000 $=
202209030752 METAR KATL 030752Z 12008KT 10SM BKN009 BKN060 OVC120 24/22 A3014 RMK AO2 SLP197 T02390217 $=
202209030745 SPECI KATL 030745Z 11007KT 10SM BKN009 BKN060 OVC120 24/22 A3014 RMK AO2 T02390217 $=
202209030733 SPECI KATL 030733Z 11007KT 10SM FEW009 SCT060 OVC120 24/22 A3014 RMK AO2 T02390217 $=
202209030652 METAR KATL 030652Z 11006KT 10SM SCT012 OVC120 24/22 A3015 RMK AO2 SLP197 T02390217 $=
202209030552 METAR KATL 030552Z 14006KT 10SM FEW014 SCT044 BKN110 BKN200 24/22 A3014 RMK AO2 SLP197 T02440217 10256 20244 50001 $=
202209030513 SPECI KATL 030513Z 13008KT 10SM SCT012 BKN120 BKN200 24/22 A3015 RMK AO2 T02440222 $=
202209030452 METAR KATL 030452Z 11007KT 10SM BKN012 BKN120 BKN200 24/22 A3015 RMK AO2 SLP198 T02440222 403000228 $=
202209030352 METAR KATL 030352Z 10007KT 10SM FEW009 BKN110 BKN200 24/22 A3015 RMK AO2 SLP198 T02440222 $=
202209030252 METAR KATL 030252Z 11005KT 10SM FEW010 BKN100 BKN200 25/22 A3014 RMK AO2 SLP196 T02500217 52015 $=
202209030152 METAR KATL 030152Z 10006KT 10SM FEW012 SCT080 BKN100 OVC200 26/22 A3013 RMK AO2 SLP192 T02560217 $=
202209030052 METAR KATL 030052Z 09007KT 10SM FEW060 BKN090 OVC200 26/22 A3011 RMK AO2 SLP185 T02560217 $=
202209022352 METAR KATL 022352Z 09006KT 10SM FEW030TCU SCT060 BKN080 OVC200 26/22 A3009 RMK AO2 SLP182 VCSH SE TCU SE 60009 T02560217 10300 20244 50007 $=
202209022252 METAR KATL 022252Z 02006KT 10SM FEW030 BKN060 BKN100 OVC200 26/22 A3010 RMK AO2 WSHFT 2139 RAE45 SLP183 CB DSNT W P0007 T02610217 $=
202209022152 METAR KATL 022152Z 03014KT 6SM -RA SCT030CB BKN050 BKN100 BKN200 25/22 A3010 RMK AO2 WSHFT 2137 RAB24 SLP183 VIS LWR NW CB NW MOV W P0002 T02500222=
202209022052 METAR KATL 022052Z 11007KT 10SM FEW032TCU SCT050 SCT100 BKN250 29/19 A3007 RMK AO2 SLP173 CB DSNT NE TCU S NW-NE DSNT E SHRA S NW-N T02890194 56014=
202209021952 METAR KATL 021952Z 11004KT 10SM SCT035TCU SCT100 BKN250 29/21 A3008 RMK AO2 SLP174 CB DSNT NE TCU N DSNT ALQDS T02940211=
202209021852 METAR KATL 021852Z 08009KT 10SM FEW036 SCT100 BKN250 29/20 A3010 RMK AO2 SLP183 CB DSNT NE TCU DSNT N E-SE T02940200=
202209021752 METAR KATL 021752Z VRB06KT 10SM SCT036 SCT100 BKN250 29/21 A3011 RMK AO2 SLP187 TCU DSNT N-E-SE MDT CU ALQDS T02940206 10294 20228 58010=
202209021652 METAR KATL 021652Z 11010KT 10SM SCT033 SCT090 BKN250 29/19 A3013 RMK AO2 SLP191 CB DSNT NE TCU DSNT E T02890194=
202209021552 METAR KATL 021552Z 10008KT 10SM SCT030 SCT090 BKN250 28/19 A3014 RMK AO2 SLP194 T02780194=
202209021452 METAR KATL 021452Z 13006KT 10SM FEW024 BKN100 BKN250 27/20 A3014 RMK AO2 SLP197 TCU DSNT E SE T02670200 51013=
202209021352 METAR KATL 021352Z 11009KT 10SM FEW015 BKN100 BKN250 25/20 A3014 RMK AO2 SLP194 T02500200=
202209021252 METAR KATL 021252Z 11009KT 10SM FEW008 BKN095 BKN250 24/21 A3012 RMK AO2 SLP191 T02390206=
202209021152 METAR KATL 021152Z 14003KT 6SM BR SCT006 BKN095 BKN200 BKN250 23/22 A3010 RMK AO2 SLP184 T02280217 10233 20228 52013=
202209021052 METAR KATL 021052Z 08006KT 10SM FEW015 BKN050 BKN090 BKN250 23/21 A3009 RMK AO2 SLP179 T02280211=
202209020952 METAR KATL 020952Z 11005KT 10SM FEW015 FEW035 SCT250 23/21 A3008 RMK AO2 SLP173 T02280211=
202209020852 METAR KATL 020852Z 11005KT 10SM FEW015 SCT036 SCT043 SCT250 23/21 A3007 RMK AO2 SLP169 T02330211 53002=
202209020752 METAR KATL 020752Z 13003KT 10SM FEW025 SCT036 SCT250 23/21 A3006 RMK AO2 SLP166 T02330211=
202209020652 METAR KATL 020652Z 15004KT 10SM FEW014 FEW025 SCT250 23/21 A3005 RMK AO2 SLP164 T02330211=
202209020552 METAR KATL 020552Z 15004KT 10SM FEW014 SCT025 SCT250 24/22 A3006 RMK AO2 SLP166 T02390217 10283 20239 53003=
202209020452 METAR KATL 020452Z 00000KT 10SM SCT014 SCT200 24/22 A3005 RMK AO2 SLP163 T02440217 403280206=
202209020423 SPECI KATL 020423Z 16004KT 10SM BKN014 BKN200 25/22 A3005 RMK AO2 T02500217=
202209020352 METAR KATL 020352Z 20004KT 10SM FEW015 BKN200 BKN250 25/22 A3005 RMK AO2 SLP163 T02500217=
202209020252 METAR KATL 020252Z 15006KT 10SM FEW045 SCT200 BKN250 26/22 A3005 RMK AO2 LTG DSNT W AND NW SLP164 CB DSNT W-NW T02560222 53020=
202209020152 METAR KATL 020152Z 14009KT 10SM FEW045 SCT150 BKN200 27/22 A3003 RMK AO2 SLP158 LTG DSNT SW-NW CB DSNT SW-NW T02670222=
202209020052 METAR KATL 020052Z 15006KT 10SM FEW045 FEW200 27/22 A3001 RMK AO2 LTG DSNT NW SLP150 CB DSNT SW-W NW T02720222=
202209012352 METAR KATL 012352Z 15007KT 10SM FEW048TCU FEW200 28/22 A2999 RMK AO2 SLP145 TCU W-NW DSNT S-SW T02830222 10328 20283 55001=
202209012252 METAR KATL 012252Z 09008KT 10SM FEW048TCU SCT070 SCT200 31/21 A2998 RMK AO2 SLP143 TCU W-NW T03060206=
202209012152 METAR KATL 012152Z 19005KT 10SM SCT055TCU SCT080 BKN200 32/20 A2998 RMK AO2 SLP142 CB DSNT E-SE TCU OHD-NW T03220200=
202209012052 METAR KATL 012052Z 21005KT 10SM FEW055TCU SCT080 SCT200 32/19 A2999 RMK AO2 SLP145 CB DSNT SE-S TCU N SE S DSNT SE NW T03220194 55017=
202209011952 METAR KATL 011952Z 16005KT 10SM SCT055 SCT080 SCT200 32/19 A2999 RMK AO2 SLP144 CB DSNT SE TCU DSNT NE SE MDT CU ALQDS T03170194=
202209011852 METAR KATL 011852Z 00000KT 10SM SCT055 SCT080 SCT250 32/19 A3001 RMK AO2 SLP152 CB DSNT SE TCU DSNT NE-SE MDT CU ALQDS T03220194=
202209011752 METAR KATL 011752Z VRB03KT 10SM SCT050 BKN080 BKN250 32/19 A3004 RMK AO2 SLP161 TCU DSNT E-SE MDT CU ALQDS T03220194 10322 20228 58007=
202209011652 METAR KATL 011652Z 08007KT 10SM FEW046 SCT080 SCT250 31/21 A3006 RMK AO2 SLP167 MDT CU NW-N DSNT E-SE T03110206=
202209011552 METAR KATL 011552Z 15008KT 10SM FEW040 FEW080 FEW250 30/19 A3007 RMK AO2 SLP171 T03000194=
202209011452 METAR KATL 011452Z 12004KT 10SM FEW003 FEW075 FEW250 28/19 A3007 RMK AO2 SLP170 FU FEW003 T02830189 53010=
202209011449 SPECI KATL 011449Z 11004KT 10SM FEW003 FEW070 FEW250 28/19 A3007 RMK AO2 FU FEW003=
202209011352 METAR KATL 011352Z 08007KT 10SM FEW070 26/18 A3005 RMK AO2 SLP166 ACC DSNT NE T02610183=
202209011252 METAR KATL 011252Z 08008KT 10SM FEW065 FEW250 24/17 A3004 RMK AO2 SLP162 T02440172=
