##########################################################
# Query made at 04/20/2024 00:22:40 UTC
# Time interval: from 06/01/2022 12:00  to 06/30/2022 12:59  UTC
##########################################################

##########################################################
# KATL, Atlanta, Hartsfield - Jackson Atlanta International Airport (United States)
# WMO index: 72219. WIGOS ID: 0-20000-0-72219
# Latitude 33-38-59N. Longitude 084-25-00W. Altitude 312 m.
##########################################################

202206301252 METAR KATL 301252Z 09004KT 10SM FEW018 SCT200 BKN250 BKN300 25/20 A3025 RMK AO2 SLP232 T02500200=
202206301152 METAR KATL 301152Z 15005KT 10SM FEW008 SCT026 SCT034 SCT150 BKN250 22/21 A3025 RMK AO2 SLP233 70001 T02220206 10233 20222 53009=
202206301052 METAR KATL 301052Z 10003KT 10SM FEW008 SCT028 SCT150 BKN200 BKN250 22/21 A3023 RMK AO2 SLP229 T02220211=
202206300952 METAR KATL 300952Z 05003KT 10SM SCT008 SCT150 BKN200 BKN250 23/21 A3023 RMK AO2 SLP224 T02280211=
202206300852 METAR KATL 300852Z 00000KT 10SM FEW008 FEW150 OVC250 23/21 A3022 RMK AO2 SLP222 T02280211 53001=
202206300752 METAR KATL 300752Z 00000KT 10SM FEW006 FEW150 BKN230 OVC250 23/21 A3021 RMK AO2 SLP220 T02280211=
202206300652 METAR KATL 300652Z 00000KT 10SM FEW006 SCT150 OVC250 23/21 A3021 RMK AO2 SLP220 T02280211=
202206300552 METAR KATL 300552Z 18004KT 10SM FEW006 BKN130 BKN150 OVC250 23/21 A3022 RMK AO2 SLP222 60001 T02330211 10278 20233 56012=
202206300452 METAR KATL 300452Z 20004KT 10SM FEW060 BKN110 BKN150 OVC200 24/21 A3024 RMK AO2 RAE25 SLP229 P0000 T02390211 403060222 $=
202206300352 METAR KATL 300352Z 22004KT 10SM -RA FEW060 BKN130 OVC200 24/21 A3023 RMK AO2 SLP227 P0000 T02390211 $=
202206300252 METAR KATL 300252Z 20003KT 10SM -RA FEW015 SCT055 BKN100 OVC150 24/22 A3025 RMK AO2 SLP235 RAB08 TSB10E35 LTG DSNT N-NE CB DSNT N-NE P0000 60001 T02440217 51018 $=
202206300236 SPECI KATL 300236Z 19005KT 10SM -RA FEW025 BKN100 OVC150 25/22 A3025 RMK AO2 RAB08 TSB10E35 LTG DSNT N-NE SW-W TS DSIPTD CB DSNT N-NE SW-W P0000 T02500217 $=
202206300212 SPECI KATL 300212Z 18006KT 10SM -TSRA FEW030CB BKN110 OVC150 26/22 A3024 RMK AO2 RAB08 TSB10 OCNL LTGICCA E DSNT NE SW-W TS E DSNT NE SW-W MOV W P0000 T02560217 $=
202206300152 METAR KATL 300152Z 15005KT 10SM FEW030 SCT050 BKN120 OVC200 26/22 A3023 RMK AO2 LTG DSNT SW AND W RAB0058E52 SLP228 CB DSNT NE SW-NW P0000 T02560217 $=
202206300052 METAR KATL 300052Z 13005KT 10SM FEW028 SCT080 BKN120 BKN200 BKN250 27/22 A3022 RMK AO2 RAE33 TSE16 SLP224 LTG DSNT SW-NW CB DSNT SW-NW P0001 T02670217 $=
202206300016 SPECI KATL 300016Z 10008KT 7SM -RA SCT028 BKN080 BKN120 BKN200 BKN250 27/22 A3021 RMK AO2 TSE16 LTG DSNT SW-NW TS MOVD SW CB DSNT SW-NW P0000 T02720217 $=
202206292352 METAR KATL 292352Z 11010G17KT 9SM -TSRA FEW025CB SCT070 BKN120 BKN200 BKN250 28/21 A3020 RMK AO2 RAB42 SLP215 OCNL LTGICCGCA VC W-NW TS VC W-NW MOV SW P0000 60000 T02780211 10306 20272 53004 $=
202206292252 METAR KATL 292252Z 11013KT 10SM TS FEW032CB SCT100 BKN200 BKN250 29/21 A3018 RMK AO2 SLP211 TSB43 FRQ LTGICCG VC NW-NE TS VC NW-NE MOV W T02890206 $=
202206292243 SPECI KATL 292243Z 12011G16KT 10SM TS FEW032CB SCT100 BKN200 BKN250 29/21 A3018 RMK AO2 OCNL LTGICCG VC N-NE DSNT NW-N TS VC N-NE DSNT NW-N MOV SW T02940206=
202206292152 METAR KATL 292152Z 14008KT 10SM FEW032 SCT090 SCT200 BKN250 30/22 A3018 RMK AO2 LTG DSNT NE SLP210 CB DSNT NE E TCU DSNT S-W NW-NE T03000222=
202206292052 METAR KATL 292052Z 16005KT 10SM SCT040TCU SCT080 SCT200 BKN250 31/20 A3018 RMK AO2 SLP210 CB DSNT NE E TCU NE-SE W NW DSNT N-NE T03060200 56020=
202206291952 METAR KATL 291952Z 00000KT 10SM SCT032TCU SCT075 SCT180 BKN250 30/21 A3019 RMK AO2 SLP212 CB DSNT E-SE TCU S SW DSNT ALQDS T03000206=
202206291852 METAR KATL 291852Z 00000KT 10SM SCT030TCU SCT065 SCT140 BKN250 29/21 A3021 RMK AO2 SLP218 CB DSNT NE SE TCU N SW W T02940211=
202206291752 METAR KATL 291752Z 16003KT 10SM SCT020TCU BKN036 BKN140 BKN250 27/22 A3024 RMK AO2 SLP232 TCU S-W MDT CU ALQDS T02720217 10278 20222 57007=
202206291652 METAR KATL 291652Z 00000KT 8SM SCT016 OVC032 26/22 A3025 RMK AO2 SLP236 MDT CU ALQDS BINOVC T02610217=
202206291649 SPECI KATL 291649Z 00000KT 9SM SCT016 OVC032 26/22 A3025 RMK AO2 BINOVC=
202206291552 METAR KATL 291552Z VRB03KT 3SM OVC010 24/22 A3026 RMK AO2 SFC VIS 7 SLP240 CIG 009V011 T02440217=
202206291452 METAR KATL 291452Z 09005KT 3SM OVC008 23/22 A3025 RMK AO2 SFC VIS 7 SLP235 CIG 007V010 T02330217 51011=
202206291352 METAR KATL 291352Z 07007KT 3SM OVC006 23/22 A3024 RMK AO2 SFC VIS 7 SLP233 CIG 005V008 T02280217=
202206291315 SPECI KATL 291315Z 09007KT 3SM BR OVC005 23/21 A3024 RMK AO2 SFC VIS 6 T02280211=
202206291252 METAR KATL 291252Z VRB05KT 1 1/2SM BR OVC005 23/21 A3023 RMK AO2 SFC VIS 6 SLP228 CIG 004V007 T02280211=
202206291158 SPECI KATL 291158Z 11006KT 1 1/2SM BR BKN004 OVC008 22/21 A3022 RMK AO2 SFC VIS 4 CIG 003V005 T02220211=
202206291152 METAR KATL 291152Z 12005KT 1/2SM R09R/P6000FT BR OVC004 22/21 A3022 RMK AO2 SFC VIS 5 SLP224 CIG 003V005 60021 70030 T02220211 10222 20222 53013=
202206291052 METAR KATL 291052Z 10008KT 1/2SM R09R/P6000FT BR OVC003 22/21 A3020 RMK AO2 SFC VIS 4 SLP219 TWRINC T02220211=
202206291029 SPECI KATL 291029Z 10007KT 1SM R09R/P6000FT BR OVC004 22/21 A3020 RMK AO2 SFC VIS 5 CIG 003V005 BINOVC T02220211=
202206291006 SPECI KATL 291006Z 11007KT 6SM BR BKN005 OVC100 22/21 A3020 RMK AO2 CIG 004V007 T02220211=
202206290952 METAR KATL 290952Z 12007KT 6SM BR BKN004 OVC007 22/21 A3019 RMK AO2 SLP215 BKN004 V SCT T02220211=
202206290944 SPECI KATL 290944Z 12006KT 6SM BR OVC004 22/21 A3019 RMK AO2 T02220211=
202206290852 METAR KATL 290852Z 10006KT 7SM FEW004 BKN007 OVC014 22/21 A3018 RMK AO2 RAB12E45 SLP211 P0021 60021 T02220211 58004 $=
202206290832 SPECI KATL 290832Z 14005KT 5SM -RA BR SCT004 BKN007 OVC014 22/21 A3018 RMK AO2 RAB12 P0021 T02220211 $=
202206290827 SPECI KATL 290827Z 11004KT 3SM RA BR BKN004 BKN007 OVC018 22/21 A3019 RMK AO2 RAB12 P0021 T02220211 $=
202206290817 SPECI KATL 290817Z 10006KT 1 1/2SM R09R/4500VP6000FT +RA BR BKN007 BKN011 OVC020 22/21 A3019 RMK AO2 RAB12 BKN007 V SCT P0008 T02220211=
202206290752 METAR KATL 290752Z 08006KT 10SM BKN005 OVC014 22/21 A3019 RMK AO2 SLP214 BKN005 V SCT T02220211=
202206290652 METAR KATL 290652Z 09006KT 10SM BKN005 BKN019 OVC180 22/21 A3019 RMK AO2 SLP212 BKN005 V SCT T02220211=
202206290552 METAR KATL 290552Z 10004KT 10SM BKN005 BKN070 BKN110 OVC180 22/21 A3019 RMK AO2 RAE40 SLP215 CIG 004V007 BKN005 V SCT P0000 60003 T02220211 10250 20222 58002=
202206290452 METAR KATL 290452Z 10004KT 10SM -RA SCT006 BKN055 BKN110 OVC200 23/21 A3021 RMK AO2 SLP220 SCT006 V BKN P0000 T02280211 402720222=
202206290352 METAR KATL 290352Z 12008KT 9SM -RA BKN007 BKN110 OVC200 23/22 A3020 RMK AO2 SLP218 P0000 T02280217=
202206290348 SPECI KATL 290348Z 13005KT 9SM -RA BKN007 BKN110 OVC200 23/22 A3020 RMK AO2 P0000=
202206290252 METAR KATL 290252Z 10006KT 9SM -RA FEW007 BKN110 BKN150 OVC200 23/22 A3019 RMK AO2 SLP215 P0002 60003 T02330217 53017=
202206290152 METAR KATL 290152Z 10005KT 9SM -RA FEW009 SCT070 BKN130 OVC200 24/22 A3017 RMK AO2 SLP207 RAB05 P0000 T02440222=
202206290052 METAR KATL 290052Z 10003KT 9SM FEW045 BKN140 BKN200 BKN250 25/22 A3014 RMK AO2 RAE33 SLP198 P0001 T02500222=
202206282352 METAR KATL 282352Z 11003KT 7SM -RA SCT080 BKN110 OVC150 25/22 A3014 RMK AO2 SLP198 P0006 60006 T02500217 10272 20250 51006=
202206282252 METAR KATL 282252Z 10004KT 8SM -RA FEW070 BKN100 BKN140 OVC200 26/21 A3014 RMK AO2 RAB41 SLP197 P0000 T02610211=
202206282152 METAR KATL 282152Z 06008KT 10SM FEW070 SCT130 BKN200 BKN250 27/21 A3013 RMK AO2 SLP194 SHRA W-NW T02720206=
202206282052 METAR KATL 282052Z 09005KT 10SM FEW028 FEW075 SCT120 BKN200 27/21 A3012 RMK AO2 SLP191 CB DSNT NW T02670206 58018 $=
202206281952 METAR KATL 281952Z 07007KT 10SM SCT022 SCT034 SCT075 BKN130 BKN200 27/21 A3014 RMK AO2 SLP196 CB DSNT W-NW MDT CU W-N T02720206 $=
202206281852 METAR KATL 281852Z 11009KT 10SM SCT030 SCT075 BKN110 OVC180 27/21 A3016 RMK AO2 SLP204 T02720211=
202206281814 SPECI KATL 281814Z 10007KT 10SM FEW020 SCT028 BKN100 OVC150 27/21 A3017 RMK AO2 LTG DSNT SE CB DSNT SE T02670206=
202206281752 METAR KATL 281752Z 08008KT 10SM BKN020 BKN028 BKN090 OVC140 26/21 A3018 RMK AO2 SLP210 60000 T02610211 10261 20228 51003=
202206281652 METAR KATL 281652Z 06009KT 10SM SCT015 BKN024 OVC120 26/22 A3018 RMK AO2 RAB27E41 SLP209 P0000 T02610217=
202206281552 METAR KATL 281552Z 09008KT 9SM BKN017 BKN024 OVC120 26/21 A3018 RMK AO2 SLP209 CIG 015V019 T02560211=
202206281539 SPECI KATL 281539Z 08009KT 9SM OVC017 26/21 A3017 RMK AO2 CIG 015V019 BINOVC T02560211=
202206281452 METAR KATL 281452Z 07008KT 9SM OVC012 25/21 A3017 RMK AO2 SLP207 CIG 010V014 BINOVC T02500211 51015=
202206281352 METAR KATL 281352Z 08011KT 8SM BKN009 BKN075 BKN180 BKN250 25/21 A3016 RMK AO2 SLP204 CIG 008V011 T02500211 $=
202206281332 SPECI KATL 281332Z 07008KT 10SM BKN009 BKN075 BKN150 OVC200 24/21 A3016 RMK AO2 CIG 008V011 T02440211 $=
202206281252 METAR KATL 281252Z 08009KT 10SM FEW007 FEW070 SCT150 BKN200 BKN250 24/21 A3015 RMK AO2 SLP200 T02390206 $=
202206281246 SPECI KATL 281246Z 08007KT 10SM FEW007 FEW070 SCT150 BKN200 24/21 A3015 RMK AO2 $=
202206281152 METAR KATL 281152Z 09005KT 10SM FEW055 FEW070 SCT150 BKN200 23/21 A3013 RMK AO2 SLP192 ACC DSNT SW 70240 T02280206 10233 20222 51013 $=
202206281052 METAR KATL 281052Z 07006KT 10SM SCT060 SCT075 SCT200 22/20 A3012 RMK AO2 SLP189 T02220200=
202206280952 METAR KATL 280952Z 07005KT 10SM SCT085 BKN200 23/21 A3010 RMK AO2 SLP186 T02280206=
202206280852 METAR KATL 280852Z 36005KT 10SM BKN085 BKN200 23/21 A3009 RMK AO2 SLP180 T02330211 53001=
202206280752 METAR KATL 280752Z 36004KT 10SM BKN200 BKN250 23/21 A3008 RMK AO2 SLP178 T02330211=
202206280652 METAR KATL 280652Z 33003KT 10SM FEW200 FEW250 23/21 A3008 RMK AO2 SLP176 T02280211=
202206280552 METAR KATL 280552Z 32004KT 10SM FEW200 SCT250 23/21 A3008 RMK AO2 SLP176 T02280211 10233 20228 58005=
202206280452 METAR KATL 280452Z 30005KT 10SM FEW200 SCT250 23/21 A3009 RMK AO2 SLP179 T02330211 403280217=
202206280352 METAR KATL 280352Z 32007KT 10SM FEW060 SCT200 BKN250 23/21 A3010 RMK AO2 SLP182 T02280211=
202206280252 METAR KATL 280252Z 26004KT 10SM FEW048 BKN200 BKN250 23/21 A3010 RMK AO2 SLP182 T02330211 53008=
202206280152 METAR KATL 280152Z 30005KT 10SM FEW110 BKN200 BKN250 23/21 A3008 RMK AO2 SLP175 T02280206=
202206280052 METAR KATL 280052Z 21004KT 10SM FEW100 SCT140 BKN200 BKN250 23/21 A3008 RMK AO2 SLP177 VIRGA DSNT N-NE CB DSNT NW T02280211=
202206272352 METAR KATL 272352Z 21003KT 10SM FEW080 SCT140 BKN200 BKN250 23/21 A3008 RMK AO2 SLP176 CB DSNT NW-NE 60240 T02330206 10328 20217 55009=
202206272252 METAR KATL 272252Z 07004KT 10SM FEW035 SCT070 BKN110 BKN200 24/19 A3006 RMK AO2 RAB15E39 TSE32 SLP171 CB DSNT NE TCU DSNT NW-N P0002 T02390194=
202206272233 SPECI KATL 272233Z 14004KT 9SM -RA FEW035 SCT070 BKN100 BKN200 23/21 A3007 RMK AO2 RAB15 TSE32 VIS LWR SE-SW TS DSIPTD P0001 T02330206=
202206272152 METAR KATL 272152Z 17005KT 10SM TS FEW004 SCT035CB BKN070 OVC150 22/21 A3010 RMK AO2 RAE52 SLP183 OCNL LTGICCA N-NE TS N-NE MOV SE TCU OHD-ALQDS P0021 T02170206=
202206272116 SPECI KATL 272116Z 20004KT 3SM TSRA BR SCT014 BKN030CB BKN070 OVC150 22/21 A3011 RMK AO2 OCNL LTGICCGCA OHD-ALQDS TS OHD-ALQDS MOV SE P0004 T02220206=
202206272101 SPECI KATL 272101Z 15005KT 1SM R09R/P6000FT +TSRA BR FEW004 BKN014 OVC034CB 22/21 A3011 RMK AO2 LTG DSNT ALQDS FRQ LTGICCGCA OHD-ALQDS TS OHD-ALQDS MOV SE CB DSNT ALQDS P0001 T02170206=
202206272052 METAR KATL 272052Z 12008KT 3SM R09R/5500VP6000FT TSRA BR FEW004 BKN014 OVC028CB 22/21 A3010 RMK AO2 SLP185 VIS NE-SE-SW 2 FRQ LTGICCGCA OHD-ALQDS TS OHD-ALQDS MOV SE P0181 60217 T02170206 53003=
202206272046 SPECI KATL 272046Z 08014G19KT 3SM R09R/5000VP6000FT +TSRA BR SCT004 BKN012 OVC030CB 22/21 A3011 RMK AO2 LTG DSNT ALQDS VIS NE-SE-SW 2 FRQ LTGICCGCA OHD-ALQDS TS OHD-ALQDS MOV SE CB DSNT ALQDS P0176=
202206272040 SPECI KATL 272040Z 11009G19KT 2SM R09R/2200V6000FT +TSRA BR BKN014 OVC025CB 22/21 A3012 RMK AO2 LTG DSNT ALQDS VIS NE-SE-SW 1 FRQ LTGICCGCA OHD-ALQDS TS OHD-ALQDS MOV SE CB DSNT ALQDS P0162 T02170206=
202206272033 SPECI KATL 272033Z 14010KT 1/2SM R09R/2200V3500FT +TSRA FG BKN014 OVC025CB 22/21 A3011 RMK AO2 LTG DSNT ALQDS VIS NE-SE-SW 3/4 FRQ LTGICCGCA OHD-ALQDS TS OHD-ALQDS MOV SE CB DSNT ALQDS P0126 T02220211=
202206272016 SPECI KATL 272016Z 13012G17KT 1 1/2SM R09R/2400V6000FT +TSRA BKN018 OVC034CB 24/22 A3009 RMK AO2 LTG DSNT ALQDS VIS NE-SE-SW 3/4 FRQ LTGICCGCA OHD-ALQDS TS OHD-ALQDS MOV SE CB DSNT ALQDS P0037 T02440217=
202206272009 SPECI KATL 272009Z VRB03KT 3/4SM R09R/3000VP6000FT +TSRA SCT018 OVC034CB 24/21 A3010 RMK AO2 LTG DSNT ALQDS FRQ LTGICCGCA OHD-ALQDS TS OHD-ALQDS MOV SE CB DSNT ALQDS P0015 T02440211=
202206272003 SPECI KATL 272003Z 30005G17KT 1SM R09R/4500VP6000FT +TSRA SCT018 BKN034CB OVC080 26/22 A3009 RMK AO2 LTG DSNT E AND SW AND W PRESRR FRQ LTGICCGCA OHD-ALQDS TS OHD-ALQDS MOV SE CB DSNT ALQDS P0000 T02560217=
202206271952 METAR KATL 271952Z 22007KT 8SM -TSRA FEW016 SCT034CB BKN100 OVC200 26/21 A3008 RMK AO2 RAB30 TSB30 PRESRR SLP175 FRQ LTGICCGCA NE-SE-SW NW TS NE-SE-SW NW MOV SE TCU OHD-ALQDS P0036 T02560211=
202206271932 SPECI KATL 271932Z COR 01012G25KT 8SM R09R/3500VP6000FT TSRA SCT040CB SCT075 BKN140 OVC200 29/22 A3005 RMK AO2 LTG DSNT ALQDS RAB30 TSB30 OCNL LTGICCG OHD-S VC NE SW TS OHD-S VC NE SW MOV SE CB DSNT ALQDS TCU ALQDS P0000=
202206271852 METAR KATL 271852Z 35005KT 10SM FEW040TCU SCT070 SCT140 BKN200 32/21 A3006 RMK AO2 LTG DSNT ALQDS SLP166 CB DSNT NE-E SW-NW TCU ALQDS DSNT N-E-SE T03170206=
202206271752 METAR KATL 271752Z 00000KT 10SM SCT042TCU SCT065 SCT140 BKN180 BKN250 30/21 A3010 RMK AO2 LTG DSNT NE SLP180 CB DSNT NE W TCU SE SW NW DSNT NE-E W-NW T03000206 10311 20250 58012=
202206271652 METAR KATL 271652Z 32006KT 10SM FEW042 SCT120 BKN180 BKN250 30/20 A3012 RMK AO2 SLP188 ACC ALQDS T03000200=
202206271552 METAR KATL 271552Z 29004KT 10SM FEW038 SCT110 BKN180 BKN250 29/19 A3013 RMK AO2 SLP191 ACC NE W-WN T02890194=
202206271452 METAR KATL 271452Z 24007KT 7SM FEW032 FEW075 BKN180 BKN250 29/19 A3013 RMK AO2 SLP192 T02890189 51009 $=
202206271352 METAR KATL 271352Z 26006KT 10SM FEW060 BKN150 BKN200 BKN250 27/19 A3013 RMK AO2 SLP192 MDT CU NW T02720189=
202206271252 METAR KATL 271252Z 23007KT 10SM FEW100 SCT140 SCT200 BKN250 26/19 A3012 RMK AO2 SLP188 T02610189=
202206271152 METAR KATL 271152Z 20005KT 10SM FEW065 BKN090 BKN200 25/19 A3010 RMK AO2 SLP182 T02500189 10267 20244 51007=
202206271052 METAR KATL 271052Z 18006KT 10SM BKN060 BKN090 BKN250 25/19 A3010 RMK AO2 SLP181 T02500189=
202206270952 METAR KATL 270952Z 24004KT 10SM FEW065 BKN090 25/19 A3009 RMK AO2 SLP176 T02500189=
202206270852 METAR KATL 270852Z 22003KT 10SM FEW065 BKN080 25/19 A3008 RMK AO2 SLP175 T02500194 56005 $=
202206270752 METAR KATL 270752Z 17007KT 10SM FEW065 SCT080 26/19 A3009 RMK AO2 SLP176 T02560189 $=
202206270652 METAR KATL 270652Z 00000KT 10SM SCT065 BKN085 27/19 A3009 RMK AO2 SLP177 T02670194 $=
202206270552 METAR KATL 270552Z 00000KT 10SM FEW070 SCT095 SCT130 26/19 A3010 RMK AO2 SLP179 T02610194 10306 20261 58010=
202206270452 METAR KATL 270452Z 00000KT 10SM SCT070 BKN095 BKN130 BKN250 27/19 A3011 RMK AO2 SLP186 T02670194 403330233=
202206270352 METAR KATL 270352Z 22003KT 10SM SCT085 BKN130 BKN160 BKN250 27/19 A3012 RMK AO2 SLP188 T02670194 $=
202206270252 METAR KATL 270252Z 20003KT 10SM BKN090 OVC110 28/19 A3013 RMK AO2 SLP190 T02780189 53012 $=
202206270152 METAR KATL 270152Z 21003KT 10SM FEW075 BKN140 BKN160 BKN250 28/19 A3011 RMK AO2 SLP185 TCU DSNT SW & W T02780189 $=
202206270052 METAR KATL 270052Z 06009KT 10SM FEW065 SCT095 BKN150 OVC250 28/19 A3011 RMK AO2 SLP184 TCU DSNT S-SW SHRA DSNT S-SW T02830194 $=
202206262352 METAR KATL 262352Z 08006KT 10SM SCT065TCU BKN100 BKN250 31/18 A3009 RMK AO2 SLP179 TCU N-NE AND DSNT S-SW SHRA NE & S-SW 60000 T03060178 10333 20294 53000 $=
202206262252 METAR KATL 262252Z 05004KT 10SM SCT055TCU BKN070 BKN085 BKN250 31/18 A3007 RMK AO2 SLP170 TCU SW AND DSNT NE SHRA DSNT NE & SW & W T03110183 $=
202206262152 METAR KATL 262152Z VRB05KT 10SM SCT060TCU SCT075 BKN110 BKN250 32/19 A3006 RMK AO2 RAE02 SLP167 TCU NW & DSNT NE MDT CU ALQDS SHRA DSNT NE P0000 T03170189 $=
202206262052 METAR KATL 262052Z 33009KT 9SM -RA SCT055TCU BKN110 BKN250 30/20 A3009 RMK AO2 RAB51 SLP178 TCU OHD-SW E-SE P0000 60000 T03000200 56017 $=
202206261952 METAR KATL 261952Z 00000KT 10SM SCT060TCU BKN090 BKN250 32/17 A3010 RMK AO2 SLP180 TCU NE-OHD-W MDT CU ALQDS T03170167 $=
202206261852 METAR KATL 261852Z VRB04KT 10SM SCT055TCU BKN120 BKN250 32/18 A3012 RMK AO2 SLP187 CB DSNT NW-N TCU W T03220178 $=
202206261752 METAR KATL 261752Z 21005KT 10SM FEW048 BKN120 BKN250 32/18 A3014 RMK AO2 SLP194 MDT CU SW-NW-N T03220178 10322 20239 58011 $=
202206261652 METAR KATL 261652Z 18004KT 10SM FEW038 BKN110 BKN250 30/20 A3017 RMK AO2 SLP203 MDT CU N DSNT SW T03000200 $=
202206261552 METAR KATL 261552Z VRB04KT 10SM FEW032 SCT070 BKN120 BKN250 29/20 A3018 RMK AO2 SLP206 MDT CU DSNT W T02890200 $=
202206261452 METAR KATL 261452Z 19004KT 10SM FEW026 BKN070 BKN250 27/20 A3017 RMK AO2 SLP206 T02720200 51004 $=
202206261352 METAR KATL 261352Z 20005KT 10SM BKN080 BKN250 27/20 A3017 RMK AO2 SLP205 T02670200 $=
202206261252 METAR KATL 261252Z VRB04KT 10SM BKN080 BKN250 25/20 A3016 RMK AO2 SLP202 T02500200 $=
202206261152 METAR KATL 261152Z 21004KT 10SM BKN075 BKN250 24/19 A3016 RMK AO2 SLP201 T02390194 10267 20233 51012=
202206261052 METAR KATL 261052Z 16004KT 10SM FEW070 SCT150 SCT200 BKN250 23/19 A3015 RMK AO2 SLP199 T02330189=
202206260952 METAR KATL 260952Z 14003KT 10SM SCT200 24/18 A3014 RMK AO2 SLP195 T02390178=
202206260852 METAR KATL 260852Z 13004KT 10SM FEW130 SCT200 SCT250 24/17 A3012 RMK AO2 SLP189 T02390172 53005=
202206260752 METAR KATL 260752Z 15005KT 10SM FEW130 SCT200 SCT250 25/16 A3011 RMK AO2 SLP182 T02500161=
202206260652 METAR KATL 260652Z 15006KT 10SM FEW130 SCT200 SCT250 26/16 A3010 RMK AO2 SLP182 T02560156=
202206260552 METAR KATL 260552Z 10003KT 10SM FEW200 SCT250 26/16 A3011 RMK AO2 SLP183 T02610161 10317 20261 57005=
202206260452 METAR KATL 260452Z 13004KT 10SM FEW150 SCT200 SCT250 28/16 A3011 RMK AO2 SLP184 T02780156 403390233=
202206260352 METAR KATL 260352Z 00000KT 10SM SCT150 SCT200 BKN250 28/16 A3012 RMK AO2 SLP187 T02830161=
202206260252 METAR KATL 260252Z 00000KT 10SM BKN150 BKN200 BKN250 29/16 A3012 RMK AO2 SLP189 T02940161 53017=
202206260152 METAR KATL 260152Z 13003KT 10SM BKN150 BKN200 BKN250 31/14 A3010 RMK AO2 SLP181 T03110144=
202206260052 METAR KATL 260052Z 00000KT 10SM FEW085 BKN150 BKN200 BKN250 31/16 A3009 RMK AO2 SLP177 ACC DSNT SW-W T03110156=
202206252352 METAR KATL 252352Z 19004KT 10SM FEW070 SCT090 BKN160 BKN250 32/16 A3007 RMK AO2 SLP172 T03170156 10339 20311 51006=
202206252252 METAR KATL 252252Z 16006KT 10SM FEW070 SCT085 BKN180 BKN250 32/14 A3007 RMK AO2 SLP170 ACC SE-SW-W T03220144=
202206252152 METAR KATL 252152Z 11008KT 10SM BKN070 BKN085 BKN250 33/16 A3007 RMK AO2 SLP169 ACC OHD-ALQDS T03280156=
202206252052 METAR KATL 252052Z 10008KT 10SM SCT060 BKN080 32/16 A3005 RMK AO2 SLP165 MDT CU ALQDS T03220161 56019=
202206251952 METAR KATL 251952Z 16007G16KT 10SM SCT060 SCT100 33/17 A3007 RMK AO2 SLP169 MDT CU S-W-NW T03330167=
202206251852 METAR KATL 251852Z VRB03G16KT 10SM SCT060 SCT100 SCT250 32/17 A3009 RMK AO2 SLP179 TCU DSNT W MDT CU S T03220172=
202206251752 METAR KATL 251752Z 14008G17KT 10SM FEW055 SCT100 BKN250 32/17 A3011 RMK AO2 SLP185 MDT CU DSNT SW-W T03220172 10322 20244 58010=
202206251652 METAR KATL 251652Z 15013G19KT 10SM SCT045 BKN100 31/18 A3013 RMK AO2 SLP191 MDT CU N SW T03110183=
202206251552 METAR KATL 251552Z 13012KT 10SM FEW038 SCT090 30/19 A3013 RMK AO2 SLP191 T03000189 $=
202206251452 METAR KATL 251452Z 13009KT 10SM FEW025 BKN085 28/19 A3014 RMK AO2 SLP196 ACC E-SE T02780194 51010 $=
202206251352 METAR KATL 251352Z 15009G17KT 10SM SCT021 BKN085 26/20 A3014 RMK AO2 SLP195 T02610200 $=
202206251342 SPECI KATL 251342Z 13010KT 10SM SCT019 BKN085 27/21 A3014 RMK AO2 T02670206 $=
202206251318 SPECI KATL 251318Z 14010G16KT 10SM BKN016 BKN085 26/21 A3013 RMK AO2 T02610206 $=
202206251252 METAR KATL 251252Z 13007KT 10SM BKN014 BKN110 25/21 A3013 RMK AO2 SLP191 T02500211 $=
202206251211 SPECI KATL 251211Z 13007KT 10SM BKN012 BKN110 24/21 A3012 RMK AO2 BKN012 V SCT T02440211=
202206251152 METAR KATL 251152Z 12007KT 10SM SCT012 SCT110 24/21 A3011 RMK AO2 SLP184 SCT012 V BKN 70001 T02440211 10250 20233 53020=
202206251052 METAR KATL 251052Z 12006KT 10SM OVC013 23/21 A3009 RMK AO2 SLP176 BINOVC T02330206=
202206251018 SPECI KATL 251018Z 11007KT 10SM BKN014 24/21 A3007 RMK AO2 T02390206=
202206250952 METAR KATL 250952Z 13004KT 10SM FEW016 FEW110 SCT250 24/21 A3006 RMK AO2 SLP168 T02390206=
202206250852 METAR KATL 250852Z 12006KT 10SM FEW200 FEW250 24/21 A3005 RMK AO2 SLP163 T02440206 53010=
202206250752 METAR KATL 250752Z 14003KT 10SM FEW120 SCT200 SCT250 24/21 A3004 RMK AO2 SLP159 T02440206=
202206250652 METAR KATL 250652Z 12005KT 10SM FEW120 SCT200 SCT250 25/21 A3003 RMK AO2 SLP156 T02500206=
202206250552 METAR KATL 250552Z 12004KT 10SM FEW120 SCT200 SCT250 24/20 A3002 RMK AO2 SLP153 60001 T02440200 10322 20239 58007=
202206250452 METAR KATL 250452Z 18004KT 10SM SCT090 BKN120 BKN200 24/21 A3003 RMK AO2 RAB04E50 TSE20 SLP158 P0001 T02390211 403390239=
202206250420 SPECI KATL 250420Z 23005KT 10SM -RA FEW045 BKN090 BKN200 25/21 A3006 RMK AO2 RAB04 TSE20 TS DSIPTD P0000 T02500211=
202206250352 METAR KATL 250352Z 29010KT 10SM TS FEW015 SCT045CB BKN080 BKN200 25/21 A3006 RMK AO2 SLP169 TSB34 FRQ LTGICCG NW-N TS NW-N MOV STNRY T02500206=
202206250336 SPECI KATL 250336Z 27005KT 10SM TS FEW015 SCT045CB BKN120 BKN200 26/19 A3005 RMK AO2 TSB34 CONS LTGICCG W-NW TS W-NW MOV NE T02560194=
202206250252 METAR KATL 250252Z 20013G21KT 10SM FEW015 SCT045TCU BKN070 BKN200 26/21 A3004 RMK AO2 SLP162 FRQ LTG DSNT SE-S SW-NW CB DSNT SE-S SW-NW TCU OHD-ALQDS T02560211 53026=
202206250152 METAR KATL 250152Z 11008KT 10SM SCT055 BKN120 BKN200 BKN250 31/19 A3000 RMK AO2 SLP145 FRQ LTG DSNT S-W-NW CB DSNT S-W-NW T03060194=
202206250052 METAR KATL 250052Z 10011G17KT 10SM FEW050 SCT140 BKN200 BKN250 32/19 A2998 RMK AO2 LTG DSNT S-W SLP140 CB DSNT S-SW W NW T03170189=
202206242352 METAR KATL 242352Z 10011KT 10SM FEW050 SCT150 BKN200 BKN250 32/19 A2996 RMK AO2 LTG DSNT SW SLP134 CB DSNT SW NW TCU DSNT SW-W T03220194 10339 20317 53006=
202206242252 METAR KATL 242252Z 08011G16KT 10SM FEW050 SCT100 BKN200 BKN250 33/19 A2995 RMK AO2 SLP129 CB DSNT SW TCU DSNT S SW-W T03330194=
202206242152 METAR KATL 242152Z 10008KT 10SM SCT050TCU BKN250 34/19 A2994 RMK AO2 LTG DSNT SW SLP126 CB DSNT SW TCU N-OHD-SW MDT CU ALQDS T03390194=
202206242052 METAR KATL 242052Z 07007KT 10SM SCT050TCU SCT250 32/19 A2995 RMK AO2 SLP129 TCU W DSNT W-NW MDT CU ALQDS T03220194 56016=
202206241952 METAR KATL 241952Z 14006G18KT 10SM SCT050 SCT090 SCT250 33/19 A2996 RMK AO2 SLP132 TCU DSNT SW NW MDT CU ALQDS T03330194=
202206241852 METAR KATL 241852Z 08009G18KT 10SM SCT045TCU BKN085 BKN250 32/20 A2998 RMK AO2 SLP139 TCU OHD-SW DSNT W-NW MDT CU ALQDS T03220200=
202206241752 METAR KATL 241752Z 11011G16KT 10SM SCT041 BKN080 33/21 A3000 RMK AO2 SLP144 MDT CU ALQDS T03280206 10328 20250 58004=
202206241652 METAR KATL 241652Z 14006KT 10SM SCT038 BKN080 32/21 A3001 RMK AO2 SLP148 ACC OHD T03170206=
202206241552 METAR KATL 241552Z 15008G16KT 10SM FEW033 BKN080 31/21 A3001 RMK AO2 SLP149 ACC E-S-SW T03060206=
202206241452 METAR KATL 241452Z 15011G16KT 7SM FEW028 BKN070 29/20 A3001 RMK AO2 SLP149 ACC SE-S T02890200 51013=
202206241352 METAR KATL 241352Z 12009KT 10SM FEW023 SCT090 28/21 A3001 RMK AO2 SLP148 T02780211=
202206241252 METAR KATL 241252Z 10011G18KT 9SM SCT013 26/22 A2999 RMK AO2 SLP142 T02610217=
202206241240 SPECI KATL 241240Z 11010KT 9SM SCT013 26/21 A2999 RMK AO2 T02560211=
202206241218 SPECI KATL 241218Z 10010G17KT 9SM BKN012 26/21 A2998 RMK AO2 T02560211=
202206241152 METAR KATL 241152Z 10010KT 9SM SCT011 25/21 A2997 RMK AO2 SLP136 T02500211 10272 20244 53023=
202206241052 METAR KATL 241052Z 10007KT 10SM CLR 24/20 A2994 RMK AO2 SLP126 T02440200=
202206240952 METAR KATL 240952Z 09008KT 10SM FEW250 24/19 A2992 RMK AO2 SLP118 T02440189=
202206240852 METAR KATL 240852Z 08009KT 10SM FEW250 26/18 A2990 RMK AO2 SLP111 T02560178 55003=
202206240752 METAR KATL 240752Z 04007KT 10SM FEW250 27/16 A2990 RMK AO2 SLP110 T02670161=
202206240652 METAR KATL 240652Z 34006KT 10SM FEW250 26/15 A2990 RMK AO2 SLP111 T02610150=
202206240552 METAR KATL 240552Z 34007KT 10SM FEW250 27/15 A2991 RMK AO2 SLP113 T02720150 10322 20267 50002=
202206240452 METAR KATL 240452Z 33006KT 10SM FEW060 FEW250 27/18 A2991 RMK AO2 SLP115 T02720178 403670244=
202206240352 METAR KATL 240352Z 33007KT 10SM FEW250 28/18 A2992 RMK AO2 SLP118 T02830183=
202206240252 METAR KATL 240252Z 32007KT 10SM FEW250 29/20 A2990 RMK AO2 SLP112 T02940200 53010=
202206240152 METAR KATL 240152Z 32008KT 10SM SCT250 31/21 A2989 RMK AO2 SLP109 T03060206=
202206240052 METAR KATL 240052Z 31009KT 10SM FEW065 BKN250 31/21 A2988 RMK AO2 SLP105 T03060211=
202206232352 METAR KATL 232352Z 31009KT 10SM FEW065 SCT200 BKN250 32/21 A2987 RMK AO2 SLP102 T03220206 10367 20317 53001=
202206232252 METAR KATL 232252Z 29011KT 10SM FEW070 FEW110 SCT200 BKN250 32/20 A2986 RMK AO2 SLP100 T03220200=
202206232152 METAR KATL 232152Z 28012KT 10SM FEW070 SCT110 SCT200 BKN250 33/19 A2986 RMK AO2 WSHFT 2050 SLP097 CB DSNT NW TCU DSNT N-NE SE-S T03330189=
202206232110 SPECI KATL 232110Z 29013KT 10SM FEW070 SCT110 SCT200 BKN250 35/19 A2986 RMK AO2 WSHFT 2050 TCU DSNT E-S NW T03500194=
202206232052 METAR KATL 232052Z 32012G20KT 10SM FEW070TCU SCT110 SCT200 BKN250 35/18 A2987 RMK AO2 SLP100 TCU E DSNT SE SW NW T03500183 55013=
202206231952 METAR KATL 231952Z 31014G26KT 10SM SCT070TCU SCT110 SCT200 BKN250 37/17 A2987 RMK AO2 PK WND 31026/1948 SLP099 CB DSNT NE SE W TCU SE SW NW DSNT ALQDS T03670167=
202206231852 METAR KATL 231852Z 27012G16KT 10SM SCT065TCU SCT200 SCT250 36/19 A2988 RMK AO2 SLP105 CB DSNT SE NW TCU SE S NW DSNT ALQDS T03560194=
202206231752 METAR KATL 231752Z 32009KT 10SM FEW060TCU FEW200 SCT250 35/19 A2990 RMK AO2 SLP112 CB DSNT N NE NW TCU SE SW DSNT N E T03500189 10356 20256 58008=
202206231652 METAR KATL 231652Z 32006KT 10SM FEW050 FEW200 SCT250 34/20 A2992 RMK AO2 SLP117 TCU DSNT N NW T03440200=
202206231552 METAR KATL 231552Z 36008KT 10SM FEW200 SCT250 SCT300 33/20 A2993 RMK AO2 SLP122 T03280200=
202206231452 METAR KATL 231452Z 34006KT 9SM SCT200 SCT250 BKN300 32/21 A2993 RMK AO2 SLP122 T03170206 50003=
202206231352 METAR KATL 231352Z 31010KT 9SM SCT200 BKN250 29/21 A2994 RMK AO2 SLP125 T02940206=
202206231252 METAR KATL 231252Z 32007KT 10SM SCT200 BKN250 27/20 A2993 RMK AO2 SLP123 VIRGA OHD & E-SW T02720200=
202206231152 METAR KATL 231152Z 30008KT 10SM SCT200 BKN250 26/19 A2992 RMK AO2 SLP119 VIRGA OHD T02560194 10272 20244 53001=
202206231052 METAR KATL 231052Z 30008KT 10SM FEW150 SCT200 BKN250 25/19 A2992 RMK AO2 SLP119 T02500194=
202206230952 METAR KATL 230952Z 31009KT 10SM FEW150 SCT250 25/19 A2992 RMK AO2 SLP117 T02500194=
202206230852 METAR KATL 230852Z 31008KT 10SM FEW250 26/19 A2992 RMK AO2 SLP117 T02560194 56009=
202206230752 METAR KATL 230752Z 30007KT 10SM FEW250 26/19 A2992 RMK AO2 SLP118 T02610194=
202206230652 METAR KATL 230652Z 31008KT 10SM FEW250 27/19 A2993 RMK AO2 SLP122 T02670194=
202206230552 METAR KATL 230552Z 30006KT 10SM CLR 27/19 A2994 RMK AO2 SLP126 T02720194 10339 20272 58009=
202206230452 METAR KATL 230452Z 30006KT 10SM CLR 28/19 A2997 RMK AO2 SLP134 T02780194 403670222=
202206230352 METAR KATL 230352Z 30005KT 10SM CLR 29/19 A2998 RMK AO2 SLP138 T02890194=
202206230252 METAR KATL 230252Z 29006KT 10SM CLR 29/19 A2997 RMK AO2 SLP137 T02940194 53003=
202206230152 METAR KATL 230152Z 29007KT 10SM CLR 31/19 A2997 RMK AO2 SLP136 T03110189=
202206230052 METAR KATL 230052Z 30008KT 10SM CLR 33/19 A2996 RMK AO2 SLP134 T03280189=
202206222352 METAR KATL 222352Z 31012KT 10SM FEW070 34/18 A2996 RMK AO2 SLP134 T03440178 10367 20344 56012=
202206222252 METAR KATL 222252Z 30013G19KT 10SM FEW070 35/17 A2997 RMK AO2 SLP135 T03500172=
202206222152 METAR KATL 222152Z 31007KT 10SM FEW075 36/17 A2998 RMK AO2 SLP138 T03610172=
202206222052 METAR KATL 222052Z 32010KT 10SM FEW075 36/17 A3000 RMK AO2 SLP146 TCU DSNT SE MDT CU SW T03610172 56021=
202206221952 METAR KATL 221952Z 32009G16KT 10SM FEW075 36/17 A3002 RMK AO2 SLP153 T03610167=
202206221852 METAR KATL 221852Z 32010G17KT 10SM FEW070 36/17 A3004 RMK AO2 SLP160 T03560167=
202206221752 METAR KATL 221752Z 32010G20KT 10SM CLR 35/17 A3007 RMK AO2 SLP168 T03500172 10356 20239 58013=
202206221652 METAR KATL 221652Z 34008KT 10SM CLR 34/18 A3008 RMK AO2 SLP174 T03440178=
202206221552 METAR KATL 221552Z 34011G18KT 10SM CLR 33/18 A3009 RMK AO2 SLP177 T03280183=
202206221452 METAR KATL 221452Z 34012KT 10SM CLR 31/18 A3011 RMK AO2 SLP182 T03110178 58003=
202206221352 METAR KATL 221352Z 32008KT 10SM CLR 29/18 A3011 RMK AO2 SLP184 T02890178=
202206221252 METAR KATL 221252Z 33009KT 10SM CLR 27/17 A3012 RMK AO2 SLP187 T02670172=
202206221152 METAR KATL 221152Z 31005KT 10SM FEW250 24/17 A3012 RMK AO2 SLP186 T02390167 10256 20222 53001=
202206221052 METAR KATL 221052Z 28004KT 10SM CLR 22/17 A3011 RMK AO2 SLP185 T02220167=
202206220952 METAR KATL 220952Z 31007KT 10SM CLR 23/17 A3011 RMK AO2 SLP182 T02280167=
202206220852 METAR KATL 220852Z 31007KT 10SM CLR 23/17 A3011 RMK AO2 SLP185 T02280172 55009=
202206220752 METAR KATL 220752Z 32005KT 10SM CLR 24/17 A3011 RMK AO2 SLP182 T02440167=
202206220652 METAR KATL 220652Z 29005KT 10SM FEW250 24/17 A3011 RMK AO2 SLP184 T02390167=
202206220552 METAR KATL 220552Z 32004KT 10SM FEW250 26/17 A3014 RMK AO2 SLP194 T02560172 10333 20250 58004=
202206220452 METAR KATL 220452Z 31003KT 10SM FEW250 27/17 A3015 RMK AO2 SLP196 T02670172 403500211=
202206220352 METAR KATL 220352Z 32005KT 10SM FEW250 27/17 A3016 RMK AO2 SLP200 T02720172=
202206220252 METAR KATL 220252Z 31006KT 10SM BKN250 28/17 A3016 RMK AO2 SLP200 T02780172 53006=
202206220152 METAR KATL 220152Z 30005KT 10SM BKN250 29/17 A3015 RMK AO2 SLP197 T02940172=
202206220052 METAR KATL 220052Z 27004KT 10SM BKN250 31/14 A3014 RMK AO2 SLP195 T03110144=
202206212352 METAR KATL 212352Z 31006KT 10SM FEW200 BKN250 33/14 A3014 RMK AO2 SLP193 T03330144 10350 20333 56010=
202206212252 METAR KATL 212252Z 30007KT 10SM FEW200 BKN250 34/14 A3014 RMK AO2 SLP195 T03390144=
202206212152 METAR KATL 212152Z 35007KT 10SM FEW200 BKN250 35/13 A3015 RMK AO2 SLP199 T03500133=
202206212052 METAR KATL 212052Z 03004G15KT 10SM SCT200 BKN250 BKN300 35/13 A3017 RMK AO2 SLP203 T03500128 58021=
202206211952 METAR KATL 211952Z 31009KT 10SM FEW200 SCT250 BKN300 34/16 A3019 RMK AO2 SLP211 T03390156=
202206211852 METAR KATL 211852Z 36010G16KT 10SM SCT200 BKN250 BKN300 34/15 A3021 RMK AO2 SLP218 T03440150=
202206211752 METAR KATL 211752Z 35010KT 320V030 10SM FEW200 SCT250 BKN300 33/16 A3023 RMK AO2 SLP225 T03330156 10339 20244 56010=
202206211652 METAR KATL 211652Z 33012KT 10SM FEW180 SCT250 SCT300 33/16 A3024 RMK AO2 SLP229 T03280156=
202206211552 METAR KATL 211552Z 33009G15KT 10SM FEW180 SCT250 SCT300 31/17 A3025 RMK AO2 SLP232 T03110172=
202206211452 METAR KATL 211452Z 32008KT 10SM FEW180 SCT250 29/17 A3026 RMK AO2 SLP236 T02940172 51008=
202206211352 METAR KATL 211352Z 29009KT 10SM SCT160 SCT200 SCT250 27/16 A3026 RMK AO2 SLP236 T02720161=
202206211252 METAR KATL 211252Z 30006KT 10SM BKN150 BKN200 26/16 A3026 RMK AO2 SLP234 T02560161=
202206211152 METAR KATL 211152Z 28007KT 10SM SCT150 SCT200 24/15 A3024 RMK AO2 SLP228 T02440150 10244 20211 53016=
202206211052 METAR KATL 211052Z 00000KT 10SM FEW150 SCT200 SCT250 22/16 A3022 RMK AO2 SLP223 T02170161=
202206210952 METAR KATL 210952Z 27003KT 10SM FEW250 23/16 A3020 RMK AO2 SLP214 T02280156=
202206210852 METAR KATL 210852Z 24003KT 10SM FEW250 24/16 A3019 RMK AO2 SLP211 T02390161 51001=
202206210752 METAR KATL 210752Z 28003KT 10SM FEW250 24/16 A3019 RMK AO2 SLP211 T02390161=
202206210652 METAR KATL 210652Z 00000KT 10SM FEW250 23/17 A3019 RMK AO2 SLP211 T02280167=
202206210552 METAR KATL 210552Z 00000KT 10SM FEW250 24/17 A3019 RMK AO2 SLP211 T02390167 10317 20239 58001=
202206210452 METAR KATL 210452Z 00000KT 10SM FEW250 24/17 A3019 RMK AO2 SLP212 T02440167 403330194=
202206210352 METAR KATL 210352Z 21003KT 10SM FEW250 26/17 A3019 RMK AO2 SLP213 T02560167=
202206210252 METAR KATL 210252Z 25004KT 10SM SCT250 28/16 A3019 RMK AO2 SLP212 T02780161 53006=
202206210152 METAR KATL 210152Z 29005KT 10SM BKN250 28/15 A3018 RMK AO2 SLP209 T02830150=
202206210052 METAR KATL 210052Z 33005KT 10SM BKN250 31/12 A3018 RMK AO2 SLP207 T03110122=
202206202352 METAR KATL 202352Z 32005KT 10SM BKN250 32/13 A3017 RMK AO2 SLP207 T03170128 10333 20311 56008=
202206202252 METAR KATL 202252Z 35005KT 10SM SCT250 33/13 A3018 RMK AO2 SLP208 T03280128=
202206202152 METAR KATL 202152Z 32006KT 10SM SCT250 33/13 A3019 RMK AO2 SLP211 T03280128=
202206202052 METAR KATL 202052Z 28008KT 10SM FEW070 SCT250 33/14 A3020 RMK AO2 SLP215 T03330139 56013=
202206201952 METAR KATL 201952Z 00000KT 10SM FEW070 FEW250 32/13 A3021 RMK AO2 SLP218 T03170128=
202206201852 METAR KATL 201852Z VRB03KT 10SM FEW050 FEW250 32/13 A3022 RMK AO2 SLP222 T03220133=
202206201752 METAR KATL 201752Z 18004KT 10SM FEW065 FEW250 31/14 A3024 RMK AO2 SLP228 T03110139 10311 20217 58009=
202206201652 SPECI KATL 201652Z 20004KT 10SM FEW060 SCT250 29/14 A3025 RMK AO2 SLP232 T02940139=
202206201652 METAR KATL 201652Z 20004KT 10SM FEW060 SCT250 29/14 A3025 RMK AO2 SLP232 T02940139=
202206201552 METAR KATL 201552Z VRB03KT 10SM FEW048 BKN250 29/15 A3026 RMK AO2 SLP236 T02890150=
202206201452 METAR KATL 201452Z VRB05KT 10SM FEW030 BKN250 27/18 A3026 RMK AO2 SLP237 T02720183 50010=
202206201352 METAR KATL 201352Z 18005KT 10SM BKN250 26/19 A3027 RMK AO2 SLP238 T02560194=
202206201252 METAR KATL 201252Z 14003KT 10SM SCT250 23/18 A3026 RMK AO2 SLP235 T02330178=
202206201152 METAR KATL 201152Z 15003KT 10SM FEW250 21/13 A3023 RMK AO2 SLP228 T02110133 10228 20194 53023=
202206201052 METAR KATL 201052Z 10003KT 10SM FEW250 20/11 A3020 RMK AO2 SLP218 T02000106=
202206200952 METAR KATL 200952Z 00000KT 10SM CLR 21/09 A3017 RMK AO2 SLP207 T02060089=
202206200852 METAR KATL 200852Z 00000KT 10SM CLR 21/09 A3017 RMK AO2 SLP204 T02060089 53000=
202206200752 METAR KATL 200752Z 08005KT 10SM CLR 21/08 A3016 RMK AO2 SLP203 T02110083=
202206200652 METAR KATL 200652Z 10004KT 10SM CLR 22/08 A3016 RMK AO2 SLP202 T02220078=
202206200552 METAR KATL 200552Z 12003KT 10SM CLR 23/08 A3016 RMK AO2 SLP204 T02280083 10300 20222 50006=
202206200452 METAR KATL 200452Z 10005KT 10SM CLR 24/08 A3017 RMK AO2 SLP204 T02390078 403170200=
202206200352 METAR KATL 200352Z 00000KT 10SM FEW300 24/09 A3015 RMK AO2 SLP199 T02440089=
202206200252 METAR KATL 200252Z 10003KT 10SM FEW300 26/07 A3015 RMK AO2 SLP198 T02610072 53013=
202206200152 METAR KATL 200152Z 07008KT 10SM SCT300 28/06 A3013 RMK AO2 SLP191 T02780056=
202206200052 METAR KATL 200052Z 03008KT 10SM FEW250 BKN300 29/03 A3012 RMK AO2 SLP187 T02890033=
202206192352 METAR KATL 192352Z 03008KT 10SM SCT300 30/05 A3011 RMK AO2 SLP184 T03000050 10317 20283 53000=
202206192252 METAR KATL 192252Z 02007G15KT 360V060 10SM SCT300 31/05 A3010 RMK AO2 SLP184 T03110050=
202206192152 METAR KATL 192152Z 09006KT 10SM FEW300 31/06 A3010 RMK AO2 SLP183 T03110061=
202206192052 METAR KATL 192052Z 07007KT 10SM FEW300 31/07 A3011 RMK AO2 SLP184 T03110072 56016=
202206191952 METAR KATL 191952Z 06008KT 10SM FEW250 31/08 A3012 RMK AO2 SLP188 T03060083=
202206191852 METAR KATL 191852Z 03007G15KT 10SM FEW250 30/08 A3013 RMK AO2 SLP191 T03000083=
202206191752 METAR KATL 191752Z 08009KT 10SM SCT250 29/09 A3015 RMK AO2 SLP200 T02890089 10294 20217 58001=
202206191652 SPECI KATL 191652Z VRB05G16KT 10SM SCT250 28/09 A3016 RMK AO2 SLP202 T02780094=
202206191652 METAR KATL 191652Z VRB05G16KT 10SM SCT250 28/09 A3016 RMK AO2 SLP202 T02780094=
202206191552 METAR KATL 191552Z 10008KT 10SM FEW250 27/10 A3016 RMK AO2 SLP203 T02720100=
202206191452 METAR KATL 191452Z 07014KT 10SM FEW250 26/08 A3016 RMK AO2 SLP200 T02560083 51012=
202206191352 METAR KATL 191352Z 08015KT 10SM FEW250 24/08 A3015 RMK AO2 SLP201 T02390078=
202206191252 METAR KATL 191252Z 08016KT 10SM CLR 23/09 A3014 RMK AO2 SLP194 T02280089=
202206191152 METAR KATL 191152Z 09012KT 10SM CLR 22/09 A3012 RMK AO2 SLP188 T02170094 10250 20200 53018=
202206191052 METAR KATL 191052Z 09009KT 10SM FEW250 20/10 A3010 RMK AO2 SLP180 T02000100=
202206190952 METAR KATL 190952Z 09008KT 10SM CLR 21/11 A3007 RMK AO2 SLP172 T02060106=
202206190852 METAR KATL 190852Z 07009KT 10SM CLR 22/11 A3007 RMK AO2 SLP169 T02220111 53012=
202206190752 METAR KATL 190752Z 07010KT 10SM CLR 23/11 A3004 RMK AO2 SLP161 T02280111=
202206190652 METAR KATL 190652Z 05009KT 10SM CLR 24/11 A3003 RMK AO2 SLP158 T02390111=
202206190552 METAR KATL 190552Z 03007KT 10SM CLR 25/11 A3003 RMK AO2 SLP157 T02500111 10306 20244 51012=
202206190452 METAR KATL 190452Z 01007KT 10SM CLR 25/11 A3002 RMK AO2 SLP155 T02500106 403390222=
202206190352 METAR KATL 190352Z 34006KT 10SM FEW250 26/11 A3002 RMK AO2 SLP152 T02560106=
202206190252 METAR KATL 190252Z 36008KT 10SM FEW250 27/10 A3000 RMK AO2 SLP145 T02720100 53020=
202206190152 METAR KATL 190152Z 34007KT 10SM FEW250 27/11 A2997 RMK AO2 SLP136 T02720111=
202206190052 METAR KATL 190052Z 34011KT 10SM FEW070 FEW250 29/11 A2994 RMK AO2 SLP129 T02890106=
202206182352 METAR KATL 182352Z 34014KT 10SM FEW070 FEW250 31/11 A2993 RMK AO2 SLP125 T03060111 10339 20306 55002=
202206182252 METAR KATL 182252Z 34013G24KT 10SM FEW065 FEW250 32/11 A2993 RMK AO2 SLP125 T03170111=
202206182152 METAR KATL 182152Z 33016G24KT 10SM FEW070 FEW250 33/13 A2994 RMK AO2 SLP125 T03280128=
202206182052 METAR KATL 182052Z 33016G24KT 10SM FEW070 SCT250 33/14 A2994 RMK AO2 PK WND 32027/2000 SLP126 T03330144 56014=
202206181952 METAR KATL 181952Z 33011G23KT 10SM FEW070 SCT250 33/16 A2995 RMK AO2 PK WND 34026/1938 SLP129 T03330161=
202206181852 METAR KATL 181852Z 33013G28KT 10SM FEW070 SCT250 33/16 A2997 RMK AO2 PK WND 35028/1843 SLP136 T03330161=
202206181752 METAR KATL 181752Z 32012G21KT 10SM FEW060 SCT250 32/17 A2998 RMK AO2 PK WND 35028/1723 SLP141 T03220167 10322 20228 58004=
202206181652 METAR KATL 181652Z 31014G19KT 10SM FEW050 SCT250 31/17 A3000 RMK AO2 SLP145 T03110172=
202206181552 METAR KATL 181552Z 32008KT 10SM FEW038 SCT250 29/19 A3000 RMK AO2 SLP145 T02940194=
202206181452 METAR KATL 181452Z 32010KT 10SM FEW030 BKN250 29/21 A2999 RMK AO2 SLP145 T02890206 51007=
202206181352 METAR KATL 181352Z 33013G19KT 10SM FEW025 BKN250 27/21 A2999 RMK AO2 SLP144 T02670206=
202206181252 METAR KATL 181252Z 32010KT 10SM FEW150 FEW200 BKN250 25/21 A2998 RMK AO2 SLP142 T02500206=
202206181152 METAR KATL 181152Z 29008KT 10SM FEW200 BKN250 23/19 A2997 RMK AO2 SLP139 T02280194 10250 20222 52004=
202206181052 METAR KATL 181052Z 31010KT 10SM FEW200 BKN250 23/19 A2997 RMK AO2 SLP138 T02280194=
202206180952 METAR KATL 180952Z 30008KT 10SM FEW200 BKN250 23/20 A2996 RMK AO2 SLP134 T02280200=
202206180852 METAR KATL 180852Z 30009KT 10SM FEW200 BKN250 23/20 A2996 RMK AO2 SLP134 T02280200 56006=
202206180752 METAR KATL 180752Z 30008KT 10SM SCT200 BKN250 23/20 A2997 RMK AO2 SLP134 T02330200=
202206180652 METAR KATL 180652Z 30008KT 10SM FEW200 SCT250 24/20 A2996 RMK AO2 SLP134 T02440200=
202206180552 METAR KATL 180552Z 32007KT 10SM FEW200 SCT250 25/19 A2998 RMK AO2 SLP139 T02500194 10289 20250 55001=
202206180452 METAR KATL 180452Z 33008KT 10SM FEW200 SCT250 25/20 A2998 RMK AO2 SLP137 T02500200 403560250=
202206180352 METAR KATL 180352Z 33009KT 10SM FEW200 BKN250 26/20 A2998 RMK AO2 SLP141 T02610200=
202206180252 METAR KATL 180252Z 30010KT 10SM FEW150 SCT200 BKN250 27/19 A2998 RMK AO2 SLP141 T02670194 53002=
202206180152 METAR KATL 180152Z 27005KT 10SM SCT150 BKN200 BKN250 27/19 A2998 RMK AO2 SLP139 T02720189=
202206180052 METAR KATL 180052Z 26007KT 10SM FEW120 BKN200 BKN250 28/18 A2997 RMK AO2 SLP137 T02830183=
202206172352 METAR KATL 172352Z 31004KT 10SM FEW150 BKN200 BKN250 29/18 A2998 RMK AO2 SLP138 T02890183 10356 20289 58007=
202206172252 METAR KATL 172252Z 00000KT 10SM FEW050 SCT150 BKN200 BKN250 29/18 A2996 RMK AO2 PK WND 35032/2153 LTG DSNT E AND SE SLP134 CB DSNT E-SE T02940178=
202206172152 METAR KATL 172152Z 35026G37KT 10SM BKN055TCU BKN200 BKN250 33/20 A3001 RMK AO2 PK WND 35037/2150 LTG DSNT N AND NE SLP150 CB DSNT NW-NE TCU E-OHD-W T03330200=
202206172052 METAR KATL 172052Z 31009KT 10SM FEW060 SCT200 BKN250 BKN300 34/21 A3000 RMK AO2 SLP143 CB DSNT NW-N TCU DSNT N NE SE S T03440206 56026=
202206171952 METAR KATL 171952Z 31011KT 10SM FEW065 SCT200 BKN250 BKN300 35/19 A3001 RMK AO2 SLP147 CB DSNT SE S SW NW TCU DSNT N SE NW T03500194=
202206171852 METAR KATL 171852Z 33015KT 10SM FEW060 SCT200 SCT250 BKN300 35/19 A3004 RMK AO2 SLP157 TCU DSNT NE E SE-SW NW T03500194=
202206171752 METAR KATL 171752Z 35011G17KT 10SM FEW048 SCT200 SCT250 BKN300 34/21 A3007 RMK AO2 SLP170 TCU DSNT N-NE NW T03440211 10350 20267 58012=
202206171652 METAR KATL 171652Z 31013G20KT 10SM FEW040 FEW200 SCT250 33/22 A3010 RMK AO2 SLP178 T03330222=
202206171552 METAR KATL 171552Z 30009KT 10SM FEW032 SCT200 SCT250 32/23 A3010 RMK AO2 SLP179 T03170228=
202206171452 METAR KATL 171452Z 31009G15KT 10SM CLR 31/23 A3011 RMK AO2 SLP182 T03110228 55003=
202206171352 METAR KATL 171352Z 17004KT 10SM FEW200 SCT250 29/23 A3011 RMK AO2 SLP182 T02890228=
202206171252 METAR KATL 171252Z 20003KT 10SM FEW150 SCT180 SCT250 28/23 A3011 RMK AO2 SLP183 T02780228=
202206171152 METAR KATL 171152Z 24003KT 10SM FEW150 SCT200 BKN250 27/22 A3012 RMK AO2 SLP186 T02670222 10294 20256 51001=
202206171052 METAR KATL 171052Z 15003KT 10SM FEW070 SCT200 BKN250 26/22 A3012 RMK AO2 SLP186 T02560217=
202206170952 METAR KATL 170952Z 19003KT 10SM BKN200 BKN250 26/22 A3012 RMK AO2 SLP185 T02610217=
202206170852 METAR KATL 170852Z 19006KT 10SM FEW085 BKN200 OVC250 27/21 A3012 RMK AO2 SLP184 T02720211 58009=
202206170752 METAR KATL 170752Z 19008KT 10SM SCT080 BKN200 BKN250 28/21 A3014 RMK AO2 SLP191 T02780206=
202206170652 METAR KATL 170652Z 19008KT 10SM SCT045 BKN080 BKN250 28/22 A3016 RMK AO2 SLP198 T02830217=
202206170552 METAR KATL 170552Z 05003KT 10SM SCT070 SCT080 SCT100 BKN150 BKN250 29/22 A3014 RMK AO2 RAB25E37 TSE40 SLP194 TS MOV W CONS LTGICCCCA DSNT NE CB DSNT NE P0000 60000 T02940217 10333 20289 50000=
202206170541 SPECI KATL 170541Z 06003KT 10SM SCT065 SCT080 SCT100 BKN150 BKN250 29/22 A3015 RMK AO2 RAB25E37 TSE40 TS MOV W CONS LTGICCCCA DSNT NE CB DSNT NE P0000 T02940217=
202206170452 METAR KATL 170452Z 21005KT 10SM TS FEW040CB SCT070 BKN150 BKN250 29/22 A3016 RMK AO2 SLP199 TSE07B21 OCNL LTGICCCCA OHD-W TS OHD-W MOV W T02940222 403610244=
202206170424 SPECI KATL 170424Z 20004KT 10SM TS FEW040CB BKN070 BKN150 BKN250 29/22 A3016 RMK AO2 TSE07B21 OCNL LTGICCA W-NW TS W-NW MOV W T02940222=
202206170407 SPECI KATL 170407Z 20007KT 10SM FEW050 SCT070 BKN150 BKN250 30/22 A3017 RMK AO2 TSE07 FRQ LTG DSNT W-NW TS MOVD W CB DSNT W-NW T03000222=
202206170352 METAR KATL 170352Z 18005KT 10SM VCTS FEW050CB SCT070 BKN150 BKN250 31/22 A3016 RMK AO2 SLP198 FRQ LTGICCGCA VC W-NW TS VC W-NW MOV SW T03060222=
202206170252 METAR KATL 170252Z 14006KT 10SM VCTS SCT050CB BKN070 BKN150 BKN250 31/22 A3014 RMK AO2 SLP194 CONS LTGICCG VC NW-N TS VC NW-N MOV SW T03110222 53023=
202206170152 METAR KATL 170152Z 18005KT 10SM VCTS FEW050CB FEW150 SCT250 31/22 A3010 RMK AO2 SLP178 TSB51 CONS LTGICCG VC NW-N DSNT N-NE TS VC NW-N DSNT N-NE MOV STNRY T03110217=
202206170052 METAR KATL 170052Z 19007KT 10SM FEW050TCU SCT070 SCT250 32/22 A3009 RMK AO2 LTG DSNT N AND NW SLP175 CB DSNT NW-N TCU W-NW T03220222=
202206162352 METAR KATL 162352Z 21005KT 10SM FEW055TCU SCT250 33/22 A3007 RMK AO2 SLP171 TCU W-NW DSNT NW-N NE T03330217 10361 20333 55011=
202206162252 METAR KATL 162252Z 20004KT 10SM FEW055TCU FEW090 SCT250 35/21 A3007 RMK AO2 SLP170 CB DSNT NE TCU OHD DSNT NW-N T03500211=
202206162152 METAR KATL 162152Z 20004KT 10SM FEW060TCU SCT090 SCT250 34/22 A3009 RMK AO2 LTG DSNT N SLP175 CB DSNT N NE TCU OHD-NW T03440217=
202206162052 METAR KATL 162052Z 17006KT 10SM FEW060 SCT095 SCT250 35/22 A3011 RMK AO2 SLP182 TCU DSNT ALQDS T03500217 58017=
202206161952 METAR KATL 161952Z 28005KT 10SM SCT055TCU SCT090 SCT250 35/22 A3013 RMK AO2 SLP189 TCU ALQDS T03500222=
202206161852 METAR KATL 161852Z 20005KT 10SM SCT050TCU SCT085 SCT250 34/22 A3014 RMK AO2 SLP193 TCU SE S SW DSNT NE SE MDT CU ALQDS T03390217=
202206161752 METAR KATL 161752Z 09005KT 10SM SCT048TCU SCT080 SCT250 34/22 A3016 RMK AO2 SLP200 TCU N NE SE-SW DSNT SW NW MDT CU ALQDS T03390222 10344 20272 58010=
202206161652 METAR KATL 161652Z 00000KT 10SM FEW003 FEW040 FEW250 33/22 A3018 RMK AO2 SLP206 FU FEW003 T03330222=
202206161647 SPECI KATL 161647Z 24004KT 10SM FEW002 FEW038 FEW250 33/23 A3018 RMK AO2 FU FEW002 FU PLUME SE=
202206161552 METAR KATL 161552Z 17005KT 10SM FEW200 FEW250 32/22 A3019 RMK AO2 SLP210 T03170222=
202206161452 METAR KATL 161452Z VRB04KT 10SM FEW180 SCT250 31/21 A3019 RMK AO2 SLP211 T03110211 50006=
202206161352 METAR KATL 161352Z 12006KT 10SM FEW200 FEW250 29/20 A3019 RMK AO2 SLP212 T02940200=
202206161252 METAR KATL 161252Z 08006KT 10SM FEW200 SCT250 29/19 A3019 RMK AO2 SLP211 T02890194=
202206161152 METAR KATL 161152Z 10005KT 10SM FEW250 SCT300 27/19 A3017 RMK AO2 SLP205 70024 T02720194 10278 20250 53014=
202206161052 METAR KATL 161052Z 05005KT 10SM FEW150 SCT250 BKN300 26/19 A3015 RMK AO2 SLP198 T02610189=
202206160952 METAR KATL 160952Z 06006KT 10SM FEW200 BKN250 26/19 A3013 RMK AO2 SLP190 T02610194=
202206160852 METAR KATL 160852Z 01003KT 10SM SCT200 BKN250 26/18 A3013 RMK AO2 SLP188 T02610178 55004=
202206160752 METAR KATL 160752Z VRB04KT 10SM SCT200 BKN250 27/18 A3013 RMK AO2 SLP187 T02670178=
202206160652 METAR KATL 160652Z 35004KT 10SM SCT050 BKN200 OVC250 26/19 A3014 RMK AO2 SLP192 T02560194=
202206160552 METAR KATL 160552Z 02004KT 10SM FEW055 BKN200 OVC250 26/19 A3014 RMK AO2 SLP193 T02560194 10294 20244 58003=
202206160452 METAR KATL 160452Z 29005KT 10SM FEW050 BKN200 OVC250 24/20 A3015 RMK AO2 SLP196 LTG DSNT NW CB DSNT NW T02440200 403720239=
202206160352 METAR KATL 160352Z 29004KT 10SM FEW050 SCT065 OVC200 25/20 A3015 RMK AO2 LTG DSNT S AND SW SLP196 CB DSNT S-SW T02500200=
202206160252 METAR KATL 160252Z 28005KT 10SM SCT050TCU BKN070 BKN200 BKN250 24/20 A3015 RMK AO2 SLP197 LTG DSNT S-SW W-NW CB DSNT S-SW W-NW TCU OHD-ALQDS T02440200 53030=
202206160152 METAR KATL 160152Z 29009KT 10SM FEW060 BKN200 BKN250 25/20 A3012 RMK AO2 SLP186 LTG DSNT W-NW CB DSNT W-NW T02500200=
202206160052 METAR KATL 160052Z 22008KT 10SM FEW045 SCT150CB BKN200 BKN250 28/21 A3007 RMK AO2 SLP170 CONS LTG DSNT SW-NW CB DSNT SW-NW CBMAM SE-S T02780206=
202206152352 METAR KATL 152352Z 28004KT 10SM FEW045 SCT070 BKN150 BKN200 29/22 A3006 RMK AO2 RAE32 TSE04 SLP165 LTG DSNT SE-SW CB DSNT SE-SW P0000 60024 T02890217 10372 20278 53001=
202206152304 SPECI KATL 152304Z 00000KT 10SM -RA FEW045 SCT110 BKN150 BKN250 30/22 A3005 RMK AO2 TSE04 LTG DSNT SW-W NW TS DSIPTD CB DSNT SW-W NW P0000 T03000217=
202206152252 METAR KATL 152252Z 00000KT 10SM -TSRA FEW050CB SCT090 BKN150 BKN250 30/22 A3005 RMK AO2 PK WND 09030/2229 RAB24 TSB00 SLP165 OCNL LTGICCG N-NE SW-W TS N-NE SW-W MOV W P0024 T03000222=
202206152200 SPECI KATL 152200Z 08007KT 10SM TS SCT060CB SCT090 BKN200 BKN250 36/21 A3003 RMK AO2 TSB00 OCNL LTGICCG S-SW TS S-SW MOV W CB S-SW DSNT ALQDS MOV W TCU ALQDS T03560211=
202206152152 METAR KATL 152152Z 08008KT 10SM SCT060TCU SCT090 BKN200 BKN250 36/21 A3004 RMK AO2 SLP159 LTG DSNT SE-SW NW CB DSNT ALQDS TCU OHD-ALQDS T03560211=
202206152052 METAR KATL 152052Z 08008KT 10SM SCT060TCU SCT090 SCT200 BKN250 36/21 A3005 RMK AO2 LTG DSNT SE AND SW SLP163 CB DSNT SE SW TCU ALQDS T03610206 56009=
202206151952 METAR KATL 151952Z 04008KT 10SM FEW060TCU SCT085 SCT250 37/22 A3006 RMK AO2 SLP165 TCU NW DSNT NE SE MDT CU ALQDS T03670217=
202206151852 METAR KATL 151852Z 04008G16KT 10SM SCT055 37/22 A3007 RMK AO2 SLP167 TCU DSNT SE MDT CU DSNT NE-SE T03670217=
202206151752 METAR KATL 151752Z 01008G16KT 10SM FEW050 36/22 A3008 RMK AO2 SLP172 T03560217 10361 20261 58002=
202206151652 METAR KATL 151652Z 05008KT 10SM FEW042 34/22 A3008 RMK AO2 SLP173 T03440217=
202206151552 METAR KATL 151552Z 35011KT 10SM CLR 34/22 A3009 RMK AO2 SLP177 T03390222=
202206151452 METAR KATL 151452Z 34008KT 10SM FEW250 32/23 A3009 RMK AO2 SLP175 T03170233 50005=
202206151352 METAR KATL 151352Z 33008KT 10SM FEW250 30/23 A3009 RMK AO2 SLP177 T03000233=
202206151252 METAR KATL 151252Z 32009KT 10SM FEW250 28/23 A3008 RMK AO2 SLP175 T02830228=
202206151152 METAR KATL 151152Z 33007KT 10SM FEW250 26/22 A3007 RMK AO2 SLP171 T02610222 10261 20239 53011=
202206151052 METAR KATL 151052Z 30007KT 10SM FEW050 SCT250 24/22 A3006 RMK AO2 SLP167 T02440217=
202206150952 METAR KATL 150952Z 31007KT 10SM FEW050 FEW250 24/21 A3004 RMK AO2 SLP161 T02440211=
202206150852 METAR KATL 150852Z 29008KT 10SM FEW050 FEW250 24/21 A3004 RMK AO2 SLP160 T02440211 55007=
202206150752 METAR KATL 150752Z 28007KT 10SM FEW050 FEW250 25/21 A3004 RMK AO2 SLP159 T02500206=
202206150652 METAR KATL 150652Z 27007KT 10SM FEW050 FEW250 25/20 A3005 RMK AO2 SLP162 T02500200=
202206150552 METAR KATL 150552Z 26007KT 10SM FEW050 SCT250 26/21 A3006 RMK AO2 SLP167 T02610211 10300 20256 58001=
202206150452 METAR KATL 150452Z 25005KT 10SM FEW050 BKN250 27/22 A3007 RMK AO2 SLP170 T02670222 403500261=
202206150352 METAR KATL 150352Z 22003KT 10SM SCT200 BKN250 27/22 A3006 RMK AO2 SLP167 T02670222=
202206150252 METAR KATL 150252Z 23004KT 10SM SCT200 BKN250 28/22 A3006 RMK AO2 SLP168 T02780222 53009=
202206150152 METAR KATL 150152Z 24006KT 10SM FEW055 BKN200 BKN250 28/22 A3005 RMK AO2 SLP164 T02830222=
202206150052 METAR KATL 150052Z 25004KT 10SM FEW060 BKN200 BKN250 29/22 A3003 RMK AO2 SLP156 T02940222=
202206142352 METAR KATL 142352Z 20004KT 10SM FEW040 SCT070 BKN200 OVC250 30/23 A3004 RMK AO2 SLP159 TCU DSNT NW T03000233 10350 20300 53001=
202206142252 METAR KATL 142252Z 23004KT 10SM FEW040TCU SCT060 BKN200 BKN250 31/24 A3002 RMK AO2 SLP152 CB DSNT NW TCU N-NE T03060239=
202206142152 METAR KATL 142152Z 22007KT 10SM FEW040 SCT060 BKN200 BKN250 32/24 A3004 RMK AO2 SLP160 CB DSNT SW-W NW-N TCU DSNT NE T03170244=
202206142052 METAR KATL 142052Z 27008KT 10SM FEW046TCU FEW075 BKN200 BKN250 33/23 A3003 RMK AO2 SLP157 TCU N NE DSNT E W-NW T03330228 56015=
202206141952 METAR KATL 141952Z 21004KT 10SM FEW048TCU FEW085 BKN200 BKN250 34/22 A3004 RMK AO2 SLP161 CB DSNT S-SW TCU S-SW T03390217=
202206141852 METAR KATL 141852Z 36007KT 10SM FEW046TCU FEW080 SCT200 BKN250 35/22 A3005 RMK AO2 LTG DSNT SW SLP161 CB DSNT S-SW TCU SW W NW T03500222=
202206141752 METAR KATL 141752Z 01013G17KT 10SM FEW044TCU SCT075 SCT120 BKN200 34/22 A3008 RMK AO2 SLP172 CB DSNT N-NE SE TCU ALQDS T03390217 10344 20278 58012=
202206141652 METAR KATL 141652Z 35009KT 10SM FEW042TCU SCT070 SCT130 SCT200 34/23 A3009 RMK AO2 SLP175 CB DSNT N-NE E TCU NE SE S-SW DSNT NW-N T03390228=
202206141552 METAR KATL 141552Z 01008KT 9SM SCT038TCU BKN065 BKN120 BKN200 33/23 A3013 RMK AO2 SLP191 TCU ALQDS ACC OHD T03280228=
202206141452 METAR KATL 141452Z 33006KT 10SM FEW028 SCT120 32/23 A3012 RMK AO2 SLP185 ACC SE-OHD-NW DSNT N NE T03170233 51016=
202206141352 METAR KATL 141352Z 30008KT 10SM FEW120 31/23 A3010 RMK AO2 SLP180 T03110233=
202206141252 METAR KATL 141252Z 30007KT 10SM CLR 29/23 A3009 RMK AO2 SLP177 T02940228=
202206141152 METAR KATL 141152Z 28006KT 10SM FEW250 28/22 A3007 RMK AO2 SLP169 T02780222 10283 20261 53008=
202206141052 METAR KATL 141052Z 30004KT 10SM FEW250 26/22 A3005 RMK AO2 SLP163 T02610222=
202206140952 METAR KATL 140952Z 29004KT 10SM CLR 26/22 A3004 RMK AO2 SLP158 T02610222=
202206140852 METAR KATL 140852Z 29006KT 10SM CLR 27/23 A3004 RMK AO2 SLP159 T02720228 53001 $=
202206140752 METAR KATL 140752Z 28005KT 10SM CLR 27/23 A3003 RMK AO2 SLP155 T02720228 $=
202206140652 METAR KATL 140652Z 28005KT 10SM CLR 28/23 A3004 RMK AO2 SLP159 T02780228 $=
202206140552 METAR KATL 140552Z 28003KT 10SM CLR 28/23 A3004 RMK AO2 SLP158 T02830228 10333 20283 58005 $=
202206140452 METAR KATL 140452Z 28003KT 10SM FEW250 29/23 A3005 RMK AO2 SLP162 T02890228 403500233 $=
202206140352 METAR KATL 140352Z 29004KT 10SM FEW050 FEW250 29/23 A3006 RMK AO2 SLP165 T02940228 $=
202206140252 METAR KATL 140252Z 30006KT 10SM FEW250 31/23 A3006 RMK AO2 SLP165 T03060228 51011 $=
202206140152 METAR KATL 140152Z 31007KT 10SM FEW050 FEW250 31/23 A3005 RMK AO2 SLP164 T03110228 $=
202206140052 METAR KATL 140052Z 27005KT 10SM FEW050 FEW250 32/22 A3004 RMK AO2 SLP159 T03170222 $=
202206132352 METAR KATL 132352Z 28007KT 10SM FEW050 FEW250 33/22 A3002 RMK AO2 SLP153 TCU DSNT NE T03330217 10350 20333 53003 $=
202206132252 METAR KATL 132252Z 27009KT 10SM FEW050TCU FEW250 34/22 A3001 RMK AO2 SLP149 TCU E-SE DSNT NE T03390217 $=
202206132152 METAR KATL 132152Z 31009KT 10SM SCT055 SCT250 35/22 A3001 RMK AO2 SLP148 T03500217 $=
202206132052 METAR KATL 132052Z 25005KT 10SM FEW050 FEW060 SCT250 35/22 A3001 RMK AO2 SLP150 T03500222 56019 $=
202206131952 METAR KATL 131952Z 23008KT 10SM FEW050 SCT065 SCT250 34/22 A3002 RMK AO2 SLP154 T03440217=
202206131852 METAR KATL 131852Z 29006KT 10SM FEW048 FEW060 SCT250 34/22 A3004 RMK AO2 SLP159 MDT CU NW T03390222=
202206131752 METAR KATL 131752Z 31006KT 10SM FEW044TCU SCT060 SCT250 34/23 A3007 RMK AO2 SLP169 TCU NW MDT CU ALQDS T03390228 10339 20256 58007=
202206131652 METAR KATL 131652Z 30007KT 10SM SCT036 SCT055 SCT250 33/22 A3008 RMK AO2 SLP173 TCU DSNT SW-NW MDT CU ALQDS T03280222=
202206131552 METAR KATL 131552Z 23005KT 10SM SCT032 SCT040 SCT250 32/23 A3009 RMK AO2 SLP177 MDT CU ALQDS T03170233=
202206131452 METAR KATL 131452Z 27010G17KT 10SM FEW028 FEW040 SCT250 31/23 A3009 RMK AO2 SLP176 T03060228 50008=
202206131352 METAR KATL 131352Z 27012KT 10SM FEW020 SCT026 SCT250 29/22 A3009 RMK AO2 SLP179 T02940222=
202206131252 METAR KATL 131252Z 24007KT 10SM CLR 28/21 A3009 RMK AO2 SLP177 T02830211=
202206131152 METAR KATL 131152Z 27005KT 10SM FEW015 26/21 A3006 RMK AO2 SLP168 T02560211 10256 20233 53018=
202206131052 METAR KATL 131052Z 28003KT 10SM FEW250 24/21 A3004 RMK AO2 SLP161 T02390206=
202206130952 METAR KATL 130952Z 00000KT 10SM FEW250 24/21 A3003 RMK AO2 SLP156 T02390206=
202206130852 METAR KATL 130852Z 00000KT 10SM FEW250 24/21 A3001 RMK AO2 SLP150 T02440206 53002=
202206130752 METAR KATL 130752Z 00000KT 10SM SCT250 25/21 A3001 RMK AO2 SLP149 T02500206=
202206130652 METAR KATL 130652Z 30004KT 10SM SCT250 26/21 A3000 RMK AO2 SLP148 T02560206=
202206130552 METAR KATL 130552Z 27004KT 10SM SCT250 26/21 A3000 RMK AO2 SLP147 T02560206 10311 20256 51004=
202206130452 METAR KATL 130452Z 27005KT 10SM SCT250 26/21 A3000 RMK AO2 SLP147 T02610206 403330228=
202206130352 METAR KATL 130352Z 28006KT 10SM SCT250 27/21 A3000 RMK AO2 SLP148 T02720206=
202206130252 METAR KATL 130252Z 26006KT 10SM SCT250 28/20 A2999 RMK AO2 SLP143 T02780200 53015=
202206130152 METAR KATL 130152Z 00000KT 10SM SCT250 28/20 A2997 RMK AO2 SLP135 T02830200=
202206130052 METAR KATL 130052Z 28005KT 10SM FEW055 SCT250 29/20 A2996 RMK AO2 SLP132 T02940200=
202206122352 METAR KATL 122352Z 27005KT 10SM FEW055 SCT250 31/19 A2994 RMK AO2 SLP128 MDT CU DSNT S T03110189 10333 20311 55000=
202206122252 METAR KATL 122252Z 28009KT 10SM FEW055 SCT250 32/19 A2994 RMK AO2 SLP126 T03220189=
202206122152 METAR KATL 122152Z 25007KT 10SM SCT055 SCT250 33/19 A2993 RMK AO2 SLP124 T03280189=
202206122052 METAR KATL 122052Z 27008G19KT 10SM SCT055 SCT250 33/19 A2994 RMK AO2 SLP127 T03330194 58008=
202206121952 METAR KATL 121952Z VRB04G15KT 10SM SCT050 SCT065 BKN250 33/19 A2996 RMK AO2 SLP132 T03280194=
202206121852 METAR KATL 121852Z 27005KT 10SM SCT050 SCT065 BKN250 32/19 A2996 RMK AO2 SLP133 T03220194=
202206121752 METAR KATL 121752Z 26004KT 10SM SCT050 BKN250 32/19 A2997 RMK AO2 SLP136 T03170194 10317 20228 58006=
202206121652 METAR KATL 121652Z VRB03KT 10SM SCT041 BKN250 30/19 A2998 RMK AO2 SLP141 T03000194=
202206121552 METAR KATL 121552Z VRB04KT 10SM SCT038 SCT250 30/20 A2999 RMK AO2 SLP144 T03000200=
202206121452 METAR KATL 121452Z 25005KT 10SM FEW037 SCT250 29/20 A2999 RMK AO2 SLP142 T02940200 51012=
202206121352 METAR KATL 121352Z 21003KT 10SM FEW065 SCT200 BKN250 27/21 A2998 RMK AO2 SLP139 T02720206=
202206121252 METAR KATL 121252Z 18003KT 10SM FEW200 BKN250 26/21 A2996 RMK AO2 SLP134 T02560206=
202206121152 METAR KATL 121152Z 22003KT 10SM FEW200 BKN250 23/20 A2995 RMK AO2 SLP131 T02280200 10256 20228 53014=
202206121052 METAR KATL 121052Z 20003KT 10SM FEW060 SCT250 23/19 A2993 RMK AO2 SLP123 T02280194=
202206120952 METAR KATL 120952Z 16003KT 10SM FEW050 FEW090 FEW200 SCT250 23/20 A2991 RMK AO2 SLP118 T02330200=
202206120852 METAR KATL 120852Z 14004KT 10SM FEW050 SCT070 SCT090 24/20 A2991 RMK AO2 SLP117 T02390200 55003=
202206120752 METAR KATL 120752Z 00000KT 10SM FEW060 SCT070 BKN090 24/19 A2991 RMK AO2 SLP115 T02440194=
202206120652 METAR KATL 120652Z 00000KT 10SM SCT050 SCT070 BKN085 25/19 A2991 RMK AO2 SLP116 T02500194=
202206120552 METAR KATL 120552Z 00000KT 10SM SCT055 BKN080 26/19 A2992 RMK AO2 SLP119 T02610194 10294 20250 50004=
202206120452 METAR KATL 120452Z 00000KT 10SM FEW050 SCT075 BKN110 25/19 A2992 RMK AO2 SLP121 T02500194 403110211=
202206120352 METAR KATL 120352Z 11004KT 10SM FEW050 SCT060 27/19 A2991 RMK AO2 SLP119 T02670189=
202206120252 METAR KATL 120252Z 12004KT 10SM SCT050 SCT060 27/18 A2991 RMK AO2 SLP116 T02720183 53011=
202206120152 METAR KATL 120152Z 10004KT 10SM SCT047 SCT060 SCT250 28/18 A2988 RMK AO2 SLP108 T02780178=
202206120052 METAR KATL 120052Z 04003KT 10SM SCT050 SCT080 SCT180 BKN250 29/17 A2987 RMK AO2 SLP104 TCU DSNT ALQDS MDT CU OHD-E T02890172=
202206112352 METAR KATL 112352Z 34007KT 10SM SCT055TCU SCT085 SCT120 BKN180 BKN250 29/18 A2987 RMK AO2 SLP104 TCU OHD-E AND DSNT ALQDS SHRA DSNT NE-E T02940178 10311 20289 53002=
202206112252 METAR KATL 112252Z 21004KT 10SM CLR 31/18 A2986 RMK AO2 SLP099 T03060178=
202206112152 METAR KATL 112152Z 24006KT 10SM SCT050 SCT080 BKN110 BKN250 31/17 A2986 RMK AO2 SLP101 MDT CU NE-S T03060172 $=
202206112052 METAR KATL 112052Z 00000KT 10SM SCT049 BKN060 BKN080 BKN150 30/17 A2987 RMK AO2 SLP103 CB DSNT SE MDT CU ALQDS T03000172 56013 $=
202206111952 METAR KATL 111952Z 10SM SCT050 SCT065 BKN080 BKN150 31/18 A2987 RMK AO2 SLP104 MDT CU DSNT NE-S T03060178 $=
202206111852 METAR KATL 111852Z VRB04KT 10SM SCT048 BKN120 BKN250 30/18 A2988 RMK AO2 SLP107 T03000178 $=
202206111752 METAR KATL 111752Z 28008KT 10SM SCT046 SCT130 BKN250 30/17 A2990 RMK AO2 SLP115 T03000172 10300 20222 58013 $=
202206111652 METAR KATL 111652Z VRB04KT 10SM SCT047 SCT140 SCT250 29/17 A2992 RMK AO2 SLP120 T02890172 $=
202206111552 METAR KATL 111552Z 00000KT 10SM SCT046 SCT090 SCT250 28/17 A2994 RMK AO2 SLP128 T02780172 $=
202206111452 METAR KATL 111452Z 00000KT 10SM FEW055 SCT095 SCT250 27/16 A2994 RMK AO2 SLP130 T02670156 50002 $=
202206111352 METAR KATL 111352Z VRB04KT 10SM FEW047 SCT060 SCT110 BKN250 26/16 A2995 RMK AO2 SLP131 T02610156 $=
202206111252 METAR KATL 111252Z 23003KT 10SM SCT046 BKN060 BKN110 23/18 A2995 RMK AO2 SLP134 T02330178 $=
202206111152 METAR KATL 111152Z 32006KT 10SM BKN060 BKN110 22/17 A2994 RMK AO2 SLP129 T02220167 10239 20211 53015 $=
202206111052 METAR KATL 111052Z 00000KT 10SM FEW050 BKN100 22/17 A2992 RMK AO2 SLP121 T02170172=
202206110952 METAR KATL 110952Z 00000KT 10SM SCT049 BKN100 BKN140 21/17 A2990 RMK AO2 SLP117 T02110167=
202206110852 METAR KATL 110852Z 27004KT 10SM BKN110 BKN140 21/17 A2989 RMK AO2 SLP113 VIRGA NE-SE-S T02110167 58001=
202206110752 METAR KATL 110752Z 00000KT 10SM BKN110 OVC140 22/17 A2990 RMK AO2 SLP114 T02220167=
202206110652 METAR KATL 110652Z 30004KT 10SM FEW100 OVC130 22/17 A2990 RMK AO2 SLP115 T02220167=
202206110552 METAR KATL 110552Z 02003KT 10SM BKN140 BKN200 BKN250 23/16 A2990 RMK AO2 SLP113 T02330156 10256 20228 58009=
202206110452 METAR KATL 110452Z 33004KT 10SM BKN130 BKN200 BKN250 23/16 A2991 RMK AO2 SLP120 T02280161 402890178=
202206110352 METAR KATL 110352Z 26004KT 10SM BKN140 BKN200 BKN250 23/16 A2992 RMK AO2 SLP124 T02330161=
202206110252 METAR KATL 110252Z 35006KT 10SM SCT150 BKN200 OVC250 24/15 A2992 RMK AO2 SLP123 T02440150 53001=
202206110152 METAR KATL 110152Z 30005KT 10SM BKN150 BKN200 OVC250 24/14 A2992 RMK AO2 SLP124 T02440144=
202206110052 METAR KATL 110052Z 30003KT 10SM FEW060 BKN150 BKN200 OVC250 25/15 A2991 RMK AO2 SLP120 T02500150=
202206102352 METAR KATL 102352Z 27007KT 10SM FEW060 SCT150 BKN200 OVC250 26/15 A2992 RMK AO2 SLP124 T02560150 10289 20256 51008=
202206102252 METAR KATL 102252Z 28007KT 10SM FEW060 BKN200 OVC250 26/14 A2992 RMK AO2 SLP122 T02610144=
202206102152 METAR KATL 102152Z 26009KT 10SM FEW060 BKN200 BKN250 27/13 A2991 RMK AO2 SLP118 T02670128=
202206102052 METAR KATL 102052Z 28006KT 10SM FEW060 SCT200 BKN250 28/14 A2990 RMK AO2 SLP114 T02780144 56020=
202206101952 METAR KATL 101952Z 15004KT 10SM SCT060 SCT200 BKN250 28/14 A2991 RMK AO2 SLP120 T02780139=
202206101852 METAR KATL 101852Z 10004KT 10SM SCT055 BKN250 28/14 A2993 RMK AO2 SLP127 T02780139=
202206101752 METAR KATL 101752Z VRB04KT 10SM SCT050 SCT250 27/13 A2996 RMK AO2 SLP134 T02720133 10272 20194 56010=
202206101652 METAR KATL 101652Z VRB06KT 10SM FEW045 SCT250 26/14 A2996 RMK AO2 SLP135 T02610144=
202206101552 METAR KATL 101552Z 15004G15KT 10SM FEW045 BKN250 26/14 A2997 RMK AO2 SLP140 T02560139=
202206101452 METAR KATL 101452Z 11010KT 10SM BKN250 25/14 A2999 RMK AO2 SLP145 T02500139 51008=
202206101352 METAR KATL 101352Z 07006KT 10SM BKN250 24/14 A2997 RMK AO2 SLP140 T02390139=
202206101252 METAR KATL 101252Z 34007KT 10SM FEW200 SCT250 21/14 A2998 RMK AO2 SLP143 T02110144=
202206101152 METAR KATL 101152Z 30004KT 10SM FEW250 19/14 A2996 RMK AO2 SLP136 T01940144 10206 20178 51007 $=
202206101052 METAR KATL 101052Z 30004KT 10SM FEW060 FEW250 18/14 A2996 RMK AO2 SLP136 T01780144=
202206100952 METAR KATL 100952Z 33004KT 10SM FEW065 FEW250 18/14 A2995 RMK AO2 SLP132 T01830144=
202206100852 METAR KATL 100852Z 33006KT 10SM FEW250 18/15 A2994 RMK AO2 SLP129 T01830150 55006=
202206100752 METAR KATL 100752Z 32006KT 10SM FEW250 20/15 A2993 RMK AO2 SLP126 T02000150=
202206100652 METAR KATL 100652Z 31006KT 10SM FEW250 20/16 A2993 RMK AO2 SLP127 T02000156=
202206100552 METAR KATL 100552Z 31005KT 10SM FEW250 21/16 A2996 RMK AO2 SLP134 T02060156 10278 20206 58002=
202206100452 METAR KATL 100452Z 32006KT 10SM FEW250 22/16 A2996 RMK AO2 SLP137 T02170156 402940200=
202206100352 METAR KATL 100352Z 32006KT 10SM FEW250 23/16 A2997 RMK AO2 SLP137 T02280161=
202206100252 METAR KATL 100252Z 32009KT 10SM SCT250 24/16 A2996 RMK AO2 SLP137 T02390161 53013=
202206100152 METAR KATL 100152Z 32005KT 10SM SCT250 24/17 A2994 RMK AO2 SLP131 T02440172=
202206100052 METAR KATL 100052Z 33007KT 10SM FEW040 SCT250 26/17 A2993 RMK AO2 SLP127 T02610167=
202206092352 METAR KATL 092352Z 34010G17KT 10SM FEW040 SCT200 BKN250 28/17 A2992 RMK AO2 SLP124 60000 T02780172 10294 20267 53006=
202206092252 METAR KATL 092252Z 33011KT 10SM FEW038 SCT100 SCT200 BKN250 28/18 A2991 RMK AO2 SLP117 MDT CU S-SW T02780178=
202206092152 METAR KATL 092152Z 32010G15KT 10SM SCT035TCU BKN100 BKN200 BKN250 28/20 A2990 RMK AO2 SLP116 TCU OHD-W MDT CU NE-E T02780200=
202206092052 METAR KATL 092052Z 28011KT 10SM FEW036CB BKN080 BKN200 BKN250 27/21 A2991 RMK AO2 RAB22E34 SLP117 CB SE-S MOV SE TCU NE DSNT N W SHRA SE-S P0000 60000 T02670206 56018=
202206092030 SPECI KATL 092030Z 33013KT 10SM -RA SCT034CB BKN090 BKN200 BKN250 27/21 A2991 RMK AO2 RAB22 VIS LWR SE-S CB SE SW MOV SE TCU N-NE E-S-SW P0000 T02720206=
202206092026 SPECI KATL 092026Z 32011KT 6SM RA SCT034CB BKN090 BKN200 BKN250 28/21 A2991 RMK AO2 RAB22 VIS LWR W-NW CB SW MOV SE TCU E-OHD-W P0000 T02780206=
202206091952 METAR KATL 091952Z 33009KT 280V020 10SM SCT034TCU SCT080 SCT200 BKN250 29/20 A2991 RMK AO2 SLP117 CB DSNT SE W-NW TCU NW-NE DSNT E S T02890200=
202206091852 METAR KATL 091852Z 31010KT 10SM SCT033TCU SCT070 SCT200 BKN250 29/19 A2993 RMK AO2 SLP126 TCU NW-NE MDT CU ALQDS T02890194=
202206091752 METAR KATL 091752Z 30013KT 10SM FEW032TCU SCT065 SCT200 BKN250 28/19 A2996 RMK AO2 SLP136 TCU N SE-SW NW T02830194 10283 20211 58007=
202206091652 METAR KATL 091652Z 30009KT 10SM SCT025TCU BKN043 BKN200 BKN250 27/21 A2998 RMK AO2 SLP142 TCU ALQDS T02720206=
202206091552 METAR KATL 091552Z 28010KT 10SM SCT023TCU BKN033 BKN200 BKN250 27/21 A2998 RMK AO2 SLP143 TCU E SE-SW NW MDT CU ALQDS T02670211=
202206091452 METAR KATL 091452Z 29010KT 10SM FEW001 BKN016 BKN036 BKN200 25/21 A2998 RMK AO2 SLP142 FU FEW001 FU PLUME SE TCU DSNT S-SW MDT CU ALQDS T02500211 53004=
202206091449 SPECI KATL 091449Z 28007KT 10SM FEW001 BKN018 BKN036 BKN200 25/21 A2998 RMK AO2 FU FEW001 FU PLUME SE TCU DSNT S-SW MDT CU ALQDS=
202206091352 METAR KATL 091352Z 27008KT 10SM FEW014 FEW036 SCT200 BKN250 24/21 A2997 RMK AO2 SLP139 TCU DSNT SE-S T02440206=
202206091252 METAR KATL 091252Z 26006KT 10SM FEW007 FEW035 SCT130 SCT180 BKN250 22/19 A2997 RMK AO2 SLP139 MDT CU SE-S T02220194=
202206091152 METAR KATL 091152Z 27004KT 10SM SCT034 SCT040 SCT130 BKN200 BKN250 21/19 A2997 RMK AO2 SLP139 70049 T02110194 10211 20200 53011=
202206091052 METAR KATL 091052Z 22003KT 10SM SCT043 SCT130 SCT200 BKN250 21/19 A2994 RMK AO2 SLP130 T02060189=
202206090952 METAR KATL 090952Z 27005KT 10SM FEW003 SCT130 SCT170 SCT250 20/19 A2993 RMK AO2 SLP124 T02000189=
202206090852 METAR KATL 090852Z 31009KT 10SM FEW003 SCT130 SCT170 BKN250 21/19 A2993 RMK AO2 SLP126 T02060194 55003=
202206090752 METAR KATL 090752Z 28004KT 10SM FEW004 SCT120 SCT140 BKN250 21/19 A2992 RMK AO2 SLP124 T02060194=
202206090652 METAR KATL 090652Z 29006KT 10SM FEW005 SCT070 BKN100 BKN170 OVC250 21/19 A2995 RMK AO2 SLP132 T02110194=
202206090552 METAR KATL 090552Z 23006KT 10SM FEW045 SCT100 BKN170 BKN200 OVC250 21/19 A2994 RMK AO2 SLP130 RAE28 P0001 60049 T02060194 10278 20206 55001=
202206090452 METAR KATL 090452Z 21005KT 10SM -RA FEW080 BKN110 OVC150 21/19 A2990 RMK AO2 SLP116 P0001 T02110194 402940206=
202206090352 METAR KATL 090352Z VRB03KT 9SM -RA FEW050 SCT080 BKN110 OVC150 21/19 A2993 RMK AO2 PK WND 29048/0302 WSHFT 0258 RAB00 TSE52 SLP127 FRQ LTGICCGCA DSNT NE-SE TS MOVD E CB DSNT NE-SE P0047 T02110194=
202206090319 SPECI KATL 090319Z 27012G20KT 6SM -TSRA BR FEW020CB BKN050 BKN100 OVC150 21/19 A2999 RMK AO2 PK WND 29048/0302 WSHFT 0258 RAB00 FRQ LTGICCGCA OHD-ALQDS TS OHD-ALQDS MOV SE P0046 T02110194=
202206090313 SPECI KATL 090313Z 29013G34KT 3SM +TSRA BR SCT022CB BKN035 OVC100 21/19 A2999 RMK AO2 PK WND 29048/0302 WSHFT 0258 RAB00 VIS LWR NE-SE FRQ LTGICCGCA OHD-ALQDS TS OHD-ALQDS MOV SE P0045 T02110189=
202206090303 SPECI KATL 090303Z 29031G48KT 1 1/2SM R09R/2200VP6000FT +TSRA SQ SCT025CB BKN040 OVC100 25/21 A3001 RMK AO2 PK WND 29048/0302 RAB00 PRESRR FRQ LTGICCGCA NE-OHD-SW TS NE-OHD-SW MOV SE P0000 T02500211=
202206090252 METAR KATL 090252Z 21008KT 10SM TS FEW025CB SCT090 BKN150 OVC200 26/22 A2995 RMK AO2 TSB50 SLP131 FRQ LTGICCGCA SE-SW-NW TS SE-SW-NW MOV SE T02560217 53007=
202206090152 METAR KATL 090152Z 24009KT 10SM FEW028TCU SCT060 BKN100 OVC200 27/22 A2993 RMK AO2 LTG DSNT SW SLP126 CB DSNT ALQDS TCU OHD-E T02670222=
202206090052 METAR KATL 090052Z 24006KT 10SM FEW028 SCT080 BKN180 OVC250 27/22 A2993 RMK AO2 LTG DSNT N SLP124 CB DSNT N NE T02670217=
202206082352 METAR KATL 082352Z 23007KT 10SM FEW030 SCT150 BKN200 BKN250 28/22 A2992 RMK AO2 SLP123 TCU DSNT NW-N T02780217 10294 20267 55004=
202206082252 METAR KATL 082252Z 22006KT 10SM FEW035 BKN200 BKN250 28/21 A2991 RMK AO2 SLP117 T02830211=
202206082152 METAR KATL 082152Z 24008KT 10SM FEW040 SCT200 BKN250 29/21 A2993 RMK AO2 SLP123 T02890211=
202206082052 METAR KATL 082052Z 25008G18KT 10SM FEW042 SCT080 SCT200 BKN250 29/21 A2993 RMK AO2 SLP126 TCU DSNT NE NW T02890206 56020=
202206081952 METAR KATL 081952Z 26009KT 10SM FEW036 FEW080 SCT200 BKN250 28/20 A2995 RMK AO2 SLP133 TCU DSNT N-NE T02780200=
202206081852 METAR KATL 081852Z 21012KT 10SM FEW032 FEW075 SCT140 SCT200 BKN250 28/19 A2996 RMK AO2 SLP137 T02780189=
202206081752 METAR KATL 081752Z 21015G22KT 10SM FEW028 SCT090 SCT140 BKN200 BKN250 27/19 A3000 RMK AO2 SLP148 ACC N SW-W 60000 T02670189 10272 20211 58014=
202206081652 METAR KATL 081652Z 23007KT 10SM FEW017 SCT085 BKN120 BKN200 24/20 A3001 RMK AO2 SLP155 ACC SE NW T02440200=
202206081552 METAR KATL 081552Z 24010G17KT 10SM FEW018 SCT070 BKN120 BKN200 24/19 A3003 RMK AO2 SLP162 TCU DSNT N ACC NE SW T02440189=
202206081452 METAR KATL 081452Z 26010G19KT 10SM FEW010 SCT055 BKN120 OVC200 23/20 A3004 RMK AO2 RAE1354 SLP162 P0000 60000 T02330200 51016=
202206081405 SPECI KATL 081405Z 26014G20KT 10SM FEW012 FEW050 SCT110 OVC200 23/21 A3003 RMK AO2 RAE1354 TCU DSNT W P0000 T02280206=
202206081352 METAR KATL 081352Z 26010KT 10SM -RA FEW014 FEW048 SCT120 OVC200 23/21 A3002 RMK AO2 SLP157 TCU DSNT W P0000 T02280206=
202206081252 METAR KATL 081252Z 23003KT 10SM -RA FEW020 FEW050 SCT100 BKN150 BKN200 OVC250 22/20 A3002 RMK AO2 RAB46 SLP155 P0000 T02170200=
202206081152 METAR KATL 081152Z 21004KT 10SM FEW055 SCT100 SCT120 BKN150 BKN200 BKN250 21/19 A2999 RMK AO2 SLP146 70066 T02110194 10211 20206 53009=
202206081052 METAR KATL 081052Z 00000KT 10SM FEW100 BKN130 BKN150 BKN250 21/19 A2999 RMK AO2 SLP145 T02110194=
202206080952 METAR KATL 080952Z 09003KT 10SM FEW090 BKN170 BKN250 21/19 A2996 RMK AO2 SLP136 T02110194=
202206080852 METAR KATL 080852Z 00000KT 10SM FEW150 SCT250 21/19 A2996 RMK AO2 SLP137 T02060189 55005=
202206080752 METAR KATL 080752Z 00000KT 10SM FEW090 SCT250 21/19 A2995 RMK AO2 SLP133 T02060189=
202206080652 METAR KATL 080652Z 00000KT 10SM FEW090 FEW150 SCT250 21/19 A2996 RMK AO2 SLP135 T02060189=
202206080552 METAR KATL 080552Z 00000KT 10SM FEW090 FEW150 BKN250 21/19 A2998 RMK AO2 RAE0454 SLP142 P0000 60066 T02060189 10278 20206 58014=
202206080452 METAR KATL 080452Z 14006KT 10SM -RA FEW050 BKN090 OVC150 21/19 A3000 RMK AO2 WSHFT 0352 TSE49 SLP150 LTG DSNT E-SE CB DSNT E-SE P0044 T02110189 402890122=
202206080449 SPECI KATL 080449Z 18005KT 10SM -RA FEW050 BKN090 OVC150 21/18 A3000 RMK AO2 WSHFT 0352 TSE49 LTG DSNT E-SE TS MOVD SE CB DSNT E-SE P0044=
202206080411 SPECI KATL 080411Z 06012KT 4SM TSRA BR SCT030CB BKN050 OVC080 21/19 A3003 RMK AO2 WSHFT 0352 VIS LWR NE-SE FRQ LTGICCA NE-OHD-SW TS NE-OHD-SW MOV SE P0039 T02060189 $=
202206080352 METAR KATL 080352Z 35018G28KT 2SM +TSRA BR FEW010 BKN030CB OVC050 21/19 A3005 RMK AO2 PK WND 32030/0337 SLP167 RAB08 TSB17 FRQ LTGICCA OHD-ALQDS TS OHD-ALQDS MOV SE P0011 T02110189 $=
202206080345 SPECI KATL 080345Z 35019G30KT 2 1/2SM TS HZ FEW010 BKN030CB OVC050 22/19 A3005 RMK AO2 PK WND 32030/0337 RAB08E45 TSB17 FRQ LTGICCA OHD-ALQDS TS OHD-ALQDS MOV SE P0007 T02170189 $=
202206080317 SPECI KATL 080317Z 00000KT 9SM -TSRA FEW012 SCT025CB BKN050 OVC150 25/22 A3002 RMK AO2 RAB08 TSB17 FRQ LTGICCA SW-NW-N TS SW-NW-N MOV SE P0000 T02500217=
202206080252 METAR KATL 080252Z 00000KT 10SM FEW025 SCT050 BKN080 OVC150 25/21 A3002 RMK AO2 RAB0157E36 TSB02E21 SLP156 FRQ LTG DSNT SW-NW CB DSNT SW-NW P0011 60011 T02500211 53014=
202206080221 SPECI KATL 080221Z 01005KT 6SM -RA FEW025CB BKN050 OVC100 25/22 A3001 RMK AO2 RAB0157 TSB02E21 LTG DSNT SW-NW TS DSIPTD CB E-SE DSNT SW-NW MOV E P0010 T02500217=
202206080203 SPECI KATL 080203Z 00000KT 7SM -TSRA SCT030CB BKN045 BKN100 OVC150 27/20 A3001 RMK AO2 RAB0157 TSB02 VIS LWR SW-NW OCNL LTGIC OHD-NW TS OHD-NW MOV E P0000 T02670200=
202206080152 METAR KATL 080152Z 00000KT 10SM FEW030CB BKN048 BKN150 OVC200 27/21 A3000 RMK AO2 SLP151 LTG DSNT W-NW CB SW-W DSNT W-NW MOV E T02670206=
202206080052 METAR KATL 080052Z 15004KT 10SM SCT080 BKN200 OVC250 27/20 A2998 RMK AO2 SLP143 T02670200=
202206072352 METAR KATL 072352Z 00000KT 10SM FEW035 SCT080 BKN200 OVC250 28/20 A2998 RMK AO2 SLP142 T02780200 10289 20278 53001=
202206072252 METAR KATL 072252Z 15004KT 10SM FEW035 FEW090 BKN200 OVC250 28/20 A2997 RMK AO2 LTG DSNT NW SLP138 CB DSNT NW T02780200=
202206072152 METAR KATL 072152Z 16004KT 10SM FEW035 BKN200 BKN250 28/19 A2997 RMK AO2 SLP140 T02830194=
202206072052 METAR KATL 072052Z 21008KT 10SM FEW038 BKN200 BKN250 28/20 A2997 RMK AO2 SLP141 CB DSNT NE E-SE TCU DSNT SE W-NW T02830200 56008=
202206071952 METAR KATL 071952Z 20005KT 10SM FEW042 FEW150 SCT200 BKN250 28/19 A2998 RMK AO2 SLP143 CB DSNT NE E TCU DSNT SE T02830194=
202206071852 METAR KATL 071852Z 23008KT 10SM FEW038 FEW140 BKN200 BKN250 28/19 A2999 RMK AO2 SLP145 TCU DSNT NE-SE T02780194=
202206071752 METAR KATL 071752Z 22007KT 10SM FEW032 FEW120 BKN200 BKN250 28/21 A3000 RMK AO2 SLP148 T02830206 10289 20211 58009=
202206071652 METAR KATL 071652Z 21005KT 10SM FEW026 SCT120 BKN200 BKN250 27/20 A3001 RMK AO2 SLP153 T02720200=
202206071607 SPECI KATL 071607Z 22006KT 10SM FEW018 SCT026 BKN110 BKN200 26/21 A3002 RMK AO2 T02610206=
202206071552 METAR KATL 071552Z 21007KT 9SM SCT016 BKN026 BKN120 BKN200 25/21 A3003 RMK AO2 SLP160 T02500206=
202206071534 SPECI KATL 071534Z 20006KT 10SM FEW009 BKN015 BKN023 24/21 A3003 RMK AO2 T02440206=
202206071522 SPECI KATL 071522Z 21005KT 10SM BKN011 OVC017 24/21 A3003 RMK AO2 T02440211=
202206071452 METAR KATL 071452Z 20005KT 8SM OVC008 23/20 A3003 RMK AO2 SLP159 CIG 007V010 T02280200 50004=
202206071352 METAR KATL 071352Z 19007KT 8SM OVC006 22/20 A3003 RMK AO2 SLP160 T02170200=
202206071252 METAR KATL 071252Z 19006KT 10SM OVC006 22/19 A3003 RMK AO2 SLP158 T02170194=
202206071152 METAR KATL 071152Z 18007KT 10SM BKN007 OVC014 21/19 A3001 RMK AO2 SLP154 70119 T02110194 10217 20206 53019=
202206071052 METAR KATL 071052Z 19005KT 10SM BKN005 BKN009 OVC150 21/19 A3000 RMK AO2 SLP150 T02060194=
202206070952 METAR KATL 070952Z 18005KT 10SM BKN007 BKN011 21/19 A2996 RMK AO2 SLP135 T02060189=
202206070948 SPECI KATL 070948Z 18008KT 10SM BKN007 BKN011 21/19 A2996 RMK AO2=
202206070852 METAR KATL 070852Z 17004KT 10SM BKN011 21/19 A2995 RMK AO2 SLP135 T02060189 58005=
202206070822 SPECI KATL 070822Z 16005KT 10SM BKN012 21/19 A2995 RMK AO2 T02110189=
202206070752 METAR KATL 070752Z 16003KT 10SM FEW010 FEW050 SCT150 21/19 A2996 RMK AO2 SLP138 T02110189=
202206070652 METAR KATL 070652Z 18005KT 10SM FEW055 BKN130 BKN150 21/19 A2997 RMK AO2 SLP140 T02110189=
202206070552 METAR KATL 070552Z 18005KT 10SM SCT060 BKN080 BKN200 BKN250 22/18 A2997 RMK AO2 SLP139 T02170183 10256 20217 55003=
202206070452 METAR KATL 070452Z 16006KT 10SM FEW080 SCT150 BKN200 BKN250 22/18 A2997 RMK AO2 SLP137 T02220183 403000200=
202206070352 METAR KATL 070352Z 16007KT 10SM FEW080 SCT150 BKN250 22/18 A2998 RMK AO2 SLP141 T02220183=
202206070252 METAR KATL 070252Z 15006KT 10SM FEW080 SCT200 BKN250 23/18 A2998 RMK AO2 SLP143 T02280183 53008=
202206070152 METAR KATL 070152Z 16006KT 10SM FEW070 SCT150 BKN200 BKN250 23/19 A2997 RMK AO2 SLP138 T02330189=
202206070052 METAR KATL 070052Z 12008KT 10SM FEW030TCU SCT070 BKN200 BKN250 24/20 A2996 RMK AO2 SLP136 TCU SW-W T02440200=
202206062352 METAR KATL 062352Z 13004KT 10SM SCT090 BKN200 BKN250 26/18 A2996 RMK AO2 SLP134 CB DSNT SE 60119 T02560178 10300 20217 53001=
202206062252 METAR KATL 062252Z 15005KT 10SM FEW140 BKN200 BKN250 26/18 A2994 RMK AO2 SLP130 T02610178=
202206062152 METAR KATL 062152Z 16005KT 10SM FEW140 SCT200 BKN250 26/19 A2994 RMK AO2 SLP128 T02560189=
202206062052 METAR KATL 062052Z 14010KT 10SM FEW018 FEW070 SCT140 BKN200 23/19 A2995 RMK AO2 RAE24 TSE21 SLP136 TS MOVD NE CB DSNT N NE SW P0005 60119 T02330189 56003=
202206062021 SPECI KATL 062021Z 10007KT 10SM -RA FEW018 FEW038 SCT080 SCT140 BKN200 22/19 A2997 RMK AO2 LTG DSNT N AND SW TSE21 TS MOVD NE CB DSNT N-E SW P0005 T02220194=
202206062001 SPECI KATL 062001Z 09013G19KT 5SM TSRA FEW008 SCT026CB BKN060 BKN130 BKN200 23/19 A2998 RMK AO2 FRQ LTGICCGCA N-E TS N-E MOV NE CB DSNT N-E-SE P0004 T02280194 $=
202206061952 METAR KATL 061952Z 11007KT 3SM R09R/5000VP6000FT +TSRA SCT018CB BKN040 OVC070 23/19 A2997 RMK AO2 PK WND 20039/1922 WSHFT 1907 RAB09 SLP142 VIS N-E 1 FRQ LTGICCGCA N-E-SE TS N-E-SE MOV NE P0114 T02280194 $=
202206061942 SPECI KATL 061942Z 21007KT 2SM R09R/3500VP6000FT +TSRA BR SCT016 BKN038CB OVC060 22/19 A2998 RMK AO2 PK WND 20039/1922 WSHFT 1907 RAB09 FRQ LTGICCGCA SE-OHD-NW TS SE-OHD-NW MOV NE P0091 T02170194 $=
202206061924 SPECI KATL 061924Z 20022G39KT 1SM R09R/1800VP6000FT +TSRA FEW018 BKN040CB OVC075 23/20 A2996 RMK AO2 PK WND 20039/1922 WSHFT 1907 RAB09 PRESRR FRQ LTGICCGCA SE-OHD-NW TS SE-OHD-NW MOV NE P0007 T02280200 $=
202206061852 METAR KATL 061852Z 13007KT 10SM TS SCT043CB BKN075 BKN110 BKN200 29/17 A2994 RMK AO2 LTG DSNT S-NW TSB51 SLP130 OCNL LTGICCG S-W-NW TS S-W-NW MOV NE CB DSNT ALQDS T02940167=
202206061752 METAR KATL 061752Z 12007KT 090V150 10SM SCT037TCU SCT075 BKN200 BKN250 29/18 A2996 RMK AO2 LTG DSNT W SLP135 CB DSNT SE SW-NW TCU NW-NE DSNT ALQDS T02940183 10294 20217 58012=
202206061652 METAR KATL 061652Z 13008KT 10SM BKN035TCU BKN046 BKN070 BKN200 27/18 A2998 RMK AO2 SLP143 CB DSNT SW W NW TCU ALQDS T02720183=
202206061635 SPECI KATL 061635Z 15008KT 10SM SCT028TCU BKN040 BKN065 BKN200 27/18 A2999 RMK AO2 LTG DSNT SW CB DSNT SW TCU ALQDS T02720183=
202206061552 METAR KATL 061552Z VRB05KT 10SM BKN024TCU BKN034 26/19 A3000 RMK AO2 SLP150 TCU S-SW MDT CU ALQDS T02560189=
202206061452 METAR KATL 061452Z 13006KT 10SM BKN018 OVC024 24/19 A3000 RMK AO2 SLP149 BINOVC T02440189 51009=
202206061432 SPECI KATL 061432Z 14007KT 10SM OVC016 23/19 A3000 RMK AO2 BINOVC T02330189=
202206061352 METAR KATL 061352Z 13010KT 10SM OVC012 23/19 A3000 RMK AO2 SLP148 BINOVC T02330189=
202206061252 METAR KATL 061252Z 13005KT 9SM BKN012 22/18 A2998 RMK AO2 SLP144 CIG 010V014 T02220183=
202206061152 METAR KATL 061152Z 13007KT 8SM BKN008 22/17 A2997 RMK AO2 SLP139 CIG 007V010 T02170172 10222 20200 51012=
202206061122 SPECI KATL 061122Z 10005KT 10SM BKN009 21/16 A2997 RMK AO2 CIG 008V010 T02110156=
202206061052 METAR KATL 061052Z 10006KT 10SM OVC010 21/14 A2997 RMK AO2 SLP137 BINOVC T02110144=
202206060952 METAR KATL 060952Z 08007KT 10SM BKN010 21/13 A2995 RMK AO2 SLP133 T02060133=
202206060946 SPECI KATL 060946Z 08006KT 10SM BKN010 20/13 A2995 RMK AO2=
202206060852 METAR KATL 060852Z 10006KT 10SM FEW250 20/12 A2994 RMK AO2 SLP127 T02000122 53002=
202206060752 METAR KATL 060752Z 08007KT 10SM FEW250 21/12 A2992 RMK AO2 SLP123 T02060122=
202206060652 METAR KATL 060652Z 10007KT 10SM FEW250 21/13 A2993 RMK AO2 SLP123 T02110133=
202206060552 METAR KATL 060552Z 11006KT 10SM FEW250 22/13 A2993 RMK AO2 SLP125 T02220133 10278 20217 50003=
202206060452 METAR KATL 060452Z 10006KT 10SM FEW100 SCT250 23/13 A2994 RMK AO2 SLP129 T02280133 403000200=
202206060352 METAR KATL 060352Z 12007KT 10SM FEW100 SCT250 24/13 A2994 RMK AO2 SLP126 T02440133=
202206060252 METAR KATL 060252Z 10006KT 10SM FEW100 SCT250 24/14 A2992 RMK AO2 SLP122 T02440139 53012=
202206060152 METAR KATL 060152Z 10006KT 10SM FEW065 SCT250 26/14 A2991 RMK AO2 SLP116 T02560139=
202206060052 METAR KATL 060052Z 11006KT 10SM FEW065 FEW100 BKN250 27/13 A2990 RMK AO2 SLP114 T02670133=
202206052352 METAR KATL 052352Z 12007KT 10SM FEW065 FEW090 BKN250 28/13 A2989 RMK AO2 SLP111 T02780133 10300 20278 53006=
202206052252 METAR KATL 052252Z 11008KT 10SM FEW065 FEW100 BKN250 28/13 A2986 RMK AO2 SLP103 MDT CU NW T02830128=
202206052152 METAR KATL 052152Z 11005KT 10SM SCT060 BKN250 29/13 A2986 RMK AO2 SLP100 MDT CU ALQDS T02940128=
202206052052 METAR KATL 052052Z 08003KT 10SM SCT060 BKN250 29/13 A2987 RMK AO2 SLP104 MDT CU ALQDS T02940128 56014=
202206051952 METAR KATL 051952Z 09010KT 10SM SCT060 BKN250 29/12 A2988 RMK AO2 SLP107 MDT CU ALQDS T02940122=
202206051852 METAR KATL 051852Z 13009KT 10SM SCT055 BKN250 29/13 A2989 RMK AO2 SLP112 MDT CU ALQDS T02890133=
202206051752 METAR KATL 051752Z 10008KT 10SM SCT050 BKN250 28/14 A2991 RMK AO2 SLP118 MDT CU ALQDS T02830139 10283 20206 58005=
202206051652 METAR KATL 051652Z 07007G17KT 040V120 10SM SCT046 BKN250 27/15 A2992 RMK AO2 SLP123 MDT CU SE-SW T02720150=
202206051552 METAR KATL 051552Z 08010KT 10SM FEW048 BKN250 27/14 A2993 RMK AO2 SLP124 T02720144=
202206051452 METAR KATL 051452Z 10012G16KT 10SM FEW045 BKN250 26/14 A2992 RMK AO2 SLP124 T02560144 51006=
202206051352 METAR KATL 051352Z 09009KT 10SM FEW060 BKN250 24/17 A2992 RMK AO2 SLP124 T02390167=
202206051252 METAR KATL 051252Z 08009KT 10SM FEW060 FEW200 SCT250 22/15 A2992 RMK AO2 SLP122 T02170150=
202206051152 METAR KATL 051152Z 09008KT 10SM FEW060 SCT200 BKN250 21/14 A2991 RMK AO2 SLP118 T02110144 10228 20200 53017=
202206051052 METAR KATL 051052Z 07008KT 10SM SCT060 SCT200 SCT250 20/13 A2989 RMK AO2 SLP112 T02000133=
202206050952 METAR KATL 050952Z 07009KT 10SM SCT060 SCT250 20/13 A2987 RMK AO2 SLP104 T02000133=
202206050852 METAR KATL 050852Z 08008KT 10SM FEW250 20/13 A2986 RMK AO2 SLP101 T02000133 53000=
202206050752 METAR KATL 050752Z 06008KT 10SM FEW250 21/13 A2985 RMK AO2 SLP099 T02110133=
202206050652 METAR KATL 050652Z 06007KT 10SM FEW055 FEW250 22/13 A2985 RMK AO2 SLP097 T02170133=
202206050552 METAR KATL 050552Z 07008KT 10SM SCT050 22/13 A2985 RMK AO2 SLP099 T02220133 10278 20217 58003=
202206050452 METAR KATL 050452Z 08007KT 10SM FEW250 22/14 A2986 RMK AO2 SLP102 T02170144 402940211=
202206050352 METAR KATL 050352Z 08008KT 10SM FEW065 23/14 A2987 RMK AO2 SLP103 T02330139=
202206050252 METAR KATL 050252Z 09010KT 10SM FEW065 FEW100 23/14 A2986 RMK AO2 SLP104 T02330139 53006=
202206050152 METAR KATL 050152Z 09008KT 10SM FEW065 FEW100 FEW250 25/13 A2985 RMK AO2 SLP097 T02500133=
202206050052 METAR KATL 050052Z 09010KT 10SM FEW065 FEW110 FEW250 26/13 A2984 RMK AO2 SLP096 T02610133=
202206042352 METAR KATL 042352Z 07012KT 10SM FEW060 FEW100 FEW250 28/13 A2985 RMK AO2 SLP096 T02780128 10294 20272 55003=
202206042252 METAR KATL 042252Z 07012KT 10SM FEW060 FEW100 SCT250 29/13 A2984 RMK AO2 SLP095 T02890128=
202206042152 METAR KATL 042152Z 05012G19KT 10SM FEW060 FEW250 29/12 A2985 RMK AO2 SLP096 MDT CU ALQDS T02940122=
202206042052 METAR KATL 042052Z 09009KT 10SM SCT055 SCT250 28/13 A2986 RMK AO2 SLP100 MDT CU ALQDS T02780133 56009=
202206041952 METAR KATL 041952Z 10006KT 10SM SCT055 SCT250 28/14 A2986 RMK AO2 SLP100 MDT CU ALQDS T02780139=
202206041852 METAR KATL 041852Z 08011G20KT 10SM SCT050 BKN250 29/14 A2986 RMK AO2 SLP102 T02890144=
202206041752 METAR KATL 041752Z 06012G18KT 10SM SCT050 BKN250 28/14 A2988 RMK AO2 SLP109 T02830144 10289 20217 58007=
202206041652 METAR KATL 041652Z 08009KT 10SM FEW046 SCT110 BKN250 27/14 A2990 RMK AO2 SLP115 ACC OHD-NE-E T02720144=
202206041552 METAR KATL 041552Z 07015G22KT 10SM FEW045 FEW250 27/14 A2991 RMK AO2 SLP117 T02670144=
202206041452 METAR KATL 041452Z 09014KT 10SM FEW042 FEW110 FEW250 26/14 A2991 RMK AO2 SLP117 T02560144 58005=
202206041352 METAR KATL 041352Z 08015KT 10SM FEW032 FEW055 SCT250 24/14 A2992 RMK AO2 SLP121 T02440139=
202206041252 METAR KATL 041252Z 07009KT 10SM FEW028 FEW100 FEW200 FEW250 23/15 A2992 RMK AO2 SLP122 T02280150=
202206041152 METAR KATL 041152Z 07009KT 10SM FEW100 FEW200 SCT250 SCT300 22/16 A2992 RMK AO2 SLP123 T02170161 10228 20211 53015=
202206041052 METAR KATL 041052Z 06009KT 10SM FEW120 FEW250 21/17 A2990 RMK AO2 SLP114 T02110167=
202206040952 METAR KATL 040952Z 06009KT 10SM FEW018 SCT100 SCT200 22/17 A2988 RMK AO2 SLP108 T02170172=
202206040852 METAR KATL 040852Z 07008KT 10SM FEW018 BKN110 BKN200 22/18 A2988 RMK AO2 SLP107 T02170178 55005=
202206040752 METAR KATL 040752Z 07009KT 10SM FEW015 FEW042 BKN120 BKN200 22/18 A2987 RMK AO2 SLP105 T02170178=
202206040652 METAR KATL 040652Z 08008KT 10SM FEW018 FEW042 FEW120 SCT200 22/18 A2987 RMK AO2 SLP105 T02220178=
202206040552 METAR KATL 040552Z 08010KT 10SM SCT019 SCT042 SCT120 SCT200 23/18 A2989 RMK AO2 SLP111 T02280183 10272 20228 58003=
202206040452 METAR KATL 040452Z 08008KT 10SM FEW028 SCT045 BKN150 BKN200 23/18 A2990 RMK AO2 SLP114 T02330178 403000200=
202206040352 METAR KATL 040352Z 36006KT 10SM BKN110 BKN200 24/16 A2990 RMK AO2 SLP114 T02440156=
202206040252 METAR KATL 040252Z 32005KT 10SM BKN110 BKN200 BKN250 24/16 A2990 RMK AO2 SLP115 T02440156 53016=
202206040152 METAR KATL 040152Z 33006KT 10SM SCT120 BKN200 BKN250 24/16 A2988 RMK AO2 SLP108 T02440156=
202206040052 METAR KATL 040052Z 33009KT 10SM BKN130 BKN200 BKN250 26/14 A2986 RMK AO2 SLP103 T02560139=
202206032352 METAR KATL 032352Z 33011KT 10SM SCT120 BKN200 BKN250 27/16 A2985 RMK AO2 SLP100 T02720156 10300 20267 53000=
202206032252 METAR KATL 032252Z 33012KT 10SM FEW040 SCT200 BKN250 27/17 A2985 RMK AO2 SLP097 T02720167=
202206032152 METAR KATL 032152Z 34012KT 10SM FEW045 SCT200 BKN250 29/16 A2984 RMK AO2 SLP096 T02890161=
202206032052 METAR KATL 032052Z 34013G19KT 10SM FEW043TCU SCT150 BKN250 29/18 A2985 RMK AO2 SLP099 CB DSNT ALQDS TCU E & DSNT SW-W T02890178 58009=
202206031952 METAR KATL 031952Z 30011KT 10SM SCT045TCU BKN150 BKN250 29/17 A2986 RMK AO2 SLP103 TCU N & DSNT S-SW MDT CU ALQDS T02940172=
202206031852 METAR KATL 031852Z 30011KT 10SM FEW040 BKN160 BKN250 29/17 A2987 RMK AO2 SLP104 CB DSNT NE MDT CU ALQDS T02940172=
202206031752 METAR KATL 031752Z 33007G16KT 10SM FEW034 SCT160 BKN250 29/18 A2988 RMK AO2 SLP108 CB DSNT N MDT CU DSNT E-SE T02890183 10300 20206 58005=
202206031652 METAR KATL 031652Z 35006KT 10SM FEW034 BKN160 BKN250 28/19 A2989 RMK AO2 SLP112 MDT CU E-SE T02830189=
202206031552 METAR KATL 031552Z 35008KT 10SM FEW034 BKN150 BKN250 28/18 A2990 RMK AO2 SLP112 T02830183=
202206031452 METAR KATL 031452Z VRB04KT 10SM FEW022 SCT140 BKN230 26/19 A2990 RMK AO2 SLP113 T02610194 50005=
202206031352 METAR KATL 031352Z 32008KT 10SM FEW010 BKN220 24/19 A2990 RMK AO2 SLP115 T02390194=
202206031327 SPECI KATL 031327Z VRB05KT 10SM SCT009 BKN180 23/19 A2990 RMK AO2 T02330194=
202206031252 METAR KATL 031252Z 31008KT 10SM BKN005 OVC010 21/19 A2989 RMK AO2 SLP112 BINOVC T02110189=
202206031152 METAR KATL 031152Z 30007KT 10SM BKN006 OVC250 21/19 A2988 RMK AO2 SLP109 BINOVC T02060189 10217 20200 51007=
202206031052 METAR KATL 031052Z 28005KT 10SM BKN007 BKN150 BKN250 20/18 A2987 RMK AO2 SLP107 T02000183=
202206031046 SPECI KATL 031046Z 27005KT 10SM FEW007 20/18 A2988 RMK AO2=
202206030952 METAR KATL 030952Z 30009KT 10SM CLR 21/18 A2986 RMK AO2 SLP100 T02060183=
202206030852 METAR KATL 030852Z 29004KT 10SM FEW010 FEW130 SCT150 SCT250 21/18 A2986 RMK AO2 SLP099 T02110183 55005=
202206030752 METAR KATL 030752Z 31008KT 10SM SCT130 SCT150 SCT250 22/19 A2984 RMK AO2 SLP094 T02170189=
202206030652 METAR KATL 030652Z 29006KT 10SM SCT150 SCT170 SCT250 22/19 A2986 RMK AO2 SLP100 T02170189=
202206030552 METAR KATL 030552Z 28006KT 10SM FEW140 SCT160 SCT250 22/19 A2987 RMK AO2 SLP103 T02220189 10261 20222 58009=
202206030452 METAR KATL 030452Z 29005KT 10SM FEW200 BKN250 23/19 A2989 RMK AO2 SLP111 T02280189 403330228=
202206030352 METAR KATL 030352Z 27004KT 10SM FEW150 BKN200 BKN250 23/18 A2990 RMK AO2 SLP112 T02330183=
202206030252 METAR KATL 030252Z 00000KT 10SM FEW140 SCT200 BKN250 24/18 A2990 RMK AO2 SLP113 T02440183 51006=
202206030152 METAR KATL 030152Z 32005KT 10SM FEW130 BKN200 BKN250 24/18 A2990 RMK AO2 SLP113 T02440183=
202206030052 METAR KATL 030052Z 32007KT 10SM SCT130 BKN200 BKN250 26/18 A2990 RMK AO2 SLP114 T02560178=
202206022352 METAR KATL 022352Z 33006G14KT 10SM FEW050 SCT110 BKN200 BKN250 26/17 A2988 RMK AO2 SLP107 TCU DSNT E-S T02610172 10333 20261 53010=
202206022252 METAR KATL 022252Z 33012G19KT 10SM FEW050 BKN200 BKN250 28/17 A2985 RMK AO2 PK WND 32033/2157 WSHFT 2153 SLP096 TSE18 LTG DSNT NE CB DSNT NE TCU DSNT NE-SE-SW T02780172=
202206022219 SPECI KATL 022219Z 31017G25KT 10SM SCT050TCU SCT100 BKN200 BKN250 28/17 A2985 RMK AO2 PK WND 32033/2157 WSHFT 2153 TSE18 TS DSIPTD CB DSNT N NE SE TCU NE-SE-SW T02830172=
202206022213 SPECI KATL 022213Z 32017G27KT 10SM VCTS SCT050CB BKN100 BKN200 BKN250 29/17 A2986 RMK AO2 PK WND 32033/2157 WSHFT 2153 OCNL LTGICCG VC N-NE TS VC N-NE MOV E TCU NE-OHD-SW T02890172=
202206022152 METAR KATL 022152Z 27012KT 10SM VCTS FEW060CB SCT110 BKN200 BKN250 31/19 A2985 RMK AO2 SLP097 TSB50 OCNL LTGICCG VC NW-N TS VC NW-N MOV E CB NW-N DSNT SE MOV E TCU DSNT S-W T03110189=
202206022052 METAR KATL 022052Z 27008G15KT 10SM FEW060TCU FEW110 SCT200 BKN250 33/16 A2985 RMK AO2 SLP094 CB DSNT E-S NW TCU NE E DSNT SE-SW W-NW T03330161 56016=
202206021952 METAR KATL 021952Z 25008G16KT 10SM FEW055TCU FEW100 BKN200 BKN250 32/18 A2986 RMK AO2 SLP099 CB DSNT SE S-SW TCU E-S SW DSNT NE NW T03220183=
202206021852 METAR KATL 021852Z 28007KT 10SM SCT055TCU SCT100 SCT200 BKN250 32/18 A2987 RMK AO2 SLP103 CB DSNT E SE SW TCU ALQDS T03220183=
202206021752 METAR KATL 021752Z 31007KT 10SM FEW050TCU SCT100 SCT200 SCT250 31/19 A2989 RMK AO2 SLP111 CB DSNT SW TCU NE E-S SW DSNT NE-SE T03110189 10328 20250 58016=
202206021652 METAR KATL 021652Z 31007KT 10SM SCT044TCU SCT110 SCT250 31/19 A2993 RMK AO2 SLP121 CB DSNT W TCU ALQDS DSNT NE-SE-SW-W T03110189=
202206021552 METAR KATL 021552Z 32008KT 10SM SCT042TCU SCT065 SCT250 31/20 A2994 RMK AO2 SLP127 TCU E-S SW MDT CU ALQDS T03060200=
202206021452 METAR KATL 021452Z 27008KT 10SM FEW042 FEW250 29/20 A2994 RMK AO2 SLP127 MDT CU E SW T02940200 50002=
202206021352 METAR KATL 021352Z 32005KT 10SM FEW040 FEW250 28/19 A2994 RMK AO2 SLP127 TCU DSNT NW T02830194=
202206021252 METAR KATL 021252Z 29006KT 10SM FEW250 27/19 A2995 RMK AO2 SLP129 T02670194=
202206021152 METAR KATL 021152Z 00000KT 10SM FEW060 FEW250 25/19 A2994 RMK AO2 SLP125 T02500194 10250 20228 53001=
202206021052 METAR KATL 021052Z 30005KT 10SM FEW060 23/19 A2994 RMK AO2 SLP126 T02280189=
202206020952 METAR KATL 020952Z 30005KT 10SM FEW060 23/19 A2993 RMK AO2 SLP123 T02330189=
202206020852 METAR KATL 020852Z 30004KT 10SM FEW060 23/19 A2993 RMK AO2 SLP124 T02330189 56009=
202206020752 METAR KATL 020752Z 29003KT 10SM SCT060 24/19 A2994 RMK AO2 SLP125 T02390189=
202206020652 METAR KATL 020652Z 00000KT 10SM SCT060 24/19 A2995 RMK AO2 SLP130 T02390189=
202206020552 METAR KATL 020552Z 00000KT 10SM BKN060 25/18 A2996 RMK AO2 SLP133 T02500183 10306 20244 58001=
202206020452 METAR KATL 020452Z 26003KT 10SM BKN060 26/18 A2997 RMK AO2 SLP137 T02610178 403330211=
202206020352 METAR KATL 020352Z 00000KT 10SM CLR 26/19 A2997 RMK AO2 SLP137 T02610189=
202206020252 METAR KATL 020252Z 00000KT 10SM CLR 27/18 A2996 RMK AO2 SLP135 T02720178 51005=
202206020152 METAR KATL 020152Z 21003KT 10SM FEW070 28/18 A2996 RMK AO2 SLP134 T02780178=
202206020052 METAR KATL 020052Z 22003KT 10SM FEW003 FEW070 29/17 A2995 RMK AO2 SLP130 FEW003 FU PLUME S T02940172=
202206012352 METAR KATL 012352Z 22005KT 10SM FEW002 SCT070TCU SCT110 31/17 A2995 RMK AO2 SLP130 FEW002 FU PLUME S TCU NW-NE T03060167 10333 20306 55009=
202206012252 METAR KATL 012252Z 21006KT 10SM SCT070TCU SCT110 31/17 A2995 RMK AO2 SLP130 TCU NW-NE-E SW DSNT SE T03110167=
202206012152 METAR KATL 012152Z 20004KT 10SM SCT070TCU SCT110 31/16 A2996 RMK AO2 SLP134 TCU ALQDS T03110161=
202206012052 METAR KATL 012052Z 30004KT 10SM FEW070TCU SCT110 33/16 A2998 RMK AO2 SLP140 TCU SW DSNT E SE MDT CU N SE-SW T03280161 56019=
202206011952 METAR KATL 011952Z 33008KT 10SM SCT065TCU SCT100 32/17 A2999 RMK AO2 SLP145 TCU SE-S SW DSNT SE MDT CU ALQDS T03170167=
202206011852 METAR KATL 011852Z 31005KT 10SM SCT060TCU SCT090 31/16 A3001 RMK AO2 SLP151 TCU S SW DSNT SE MDT CU ALQDS T03110161=
202206011752 METAR KATL 011752Z 01008KT 10SM SCT055 SCT080 32/17 A3004 RMK AO2 SLP160 TCU DSNT SE S W-NW MDT CU ALQDS T03170167 10317 20239 58020=
202206011652 METAR KATL 011652Z 32008KT 10SM SCT046 29/17 A3006 RMK AO2 SLP168 TCU DSNT SW-NW MDT CU ALQDS T02940172=
202206011552 METAR KATL 011552Z 01010KT 10SM SCT042 30/17 A3008 RMK AO2 SLP176 MDT CU ALQDS T03000172=
202206011452 METAR KATL 011452Z 33006KT 10SM FEW036 29/19 A3010 RMK AO2 SLP181 T02890194 58002=
202206011352 METAR KATL 011352Z 31005KT 10SM FEW047 27/19 A3011 RMK AO2 SLP186 T02720194=
202206011252 METAR KATL 011252Z 30004KT 10SM SCT046 26/19 A3012 RMK AO2 SLP189 T02560189=
