##########################################################
# Query made at 04/20/2024 00:22:11 UTC
# Time interval: from 05/01/2022 12:00  to 05/31/2022 12:59  UTC
##########################################################

##########################################################
# KATL, Atlanta, Hartsfield - Jackson Atlanta International Airport (United States)
# WMO index: 72219. WIGOS ID: 0-20000-0-72219
# Latitude 33-38-59N. Longitude 084-25-00W. Altitude 312 m.
##########################################################

202205311252 METAR KATL 311252Z 11006KT 7SM OVC007 22/19 A3017 RMK AO2 SLP209 CIG 006V009 T02170194=
202205311214 SPECI KATL 311214Z 10006KT 8SM OVC008 21/19 A3016 RMK AO2 CIG 006V010 BINOVC T02110189=
202205311152 METAR KATL 311152Z 09007KT 8SM SCT006 OVC011 21/18 A3016 RMK AO2 SLP203 BINOVC T02060183 10211 20194 53013=
202205311148 SPECI KATL 311148Z 09006KT 8SM SCT006 OVC012 21/18 A3016 RMK AO2 BINOVC=
202205311130 SPECI KATL 311130Z 08005KT 7SM BKN006 OVC012 20/18 A3015 RMK AO2 CIG 005V008 BINOVC T02000183=
202205311121 SPECI KATL 311121Z 07006KT 7SM SCT006 BKN012 BKN200 BKN250 20/18 A3015 RMK AO2 T02000183=
202205311052 METAR KATL 311052Z 09006KT 8SM FEW007 FEW200 SCT250 19/18 A3013 RMK AO2 SLP195 T01940178=
202205311044 SPECI KATL 311044Z 08006KT 8SM FEW006 FEW200 SCT250 19/18 A3013 RMK AO2 T01940178=
202205310952 METAR KATL 310952Z 10006KT 10SM FEW065 FEW085 SCT200 SCT250 20/18 A3012 RMK AO2 SLP189 T02000178=
202205310852 METAR KATL 310852Z 08006KT 10SM FEW065 SCT085 SCT200 SCT250 20/18 A3012 RMK AO2 SLP188 ACC N-OHD-S T02000178 56001=
202205310752 METAR KATL 310752Z 10004KT 10SM FEW060 SCT200 SCT250 20/18 A3012 RMK AO2 SLP189 MDT CU E-SE T02000178=
202205310652 METAR KATL 310652Z 12005KT 10SM SCT200 BKN250 21/18 A3011 RMK AO2 SLP188 T02060178=
202205310552 METAR KATL 310552Z 11006KT 10SM FEW140 SCT200 SCT250 21/18 A3012 RMK AO2 SLP189 60000 T02110178 10261 20211 58004=
202205310452 METAR KATL 310452Z 12005KT 10SM FEW055 SCT200 BKN250 22/17 A3014 RMK AO2 SLP194 T02170172 403170200=
202205310352 METAR KATL 310352Z 12006KT 10SM FEW090 SCT200 BKN250 22/17 A3014 RMK AO2 SLP195 T02170172=
202205310252 METAR KATL 310252Z 13006KT 10SM FEW085 BKN200 BKN250 23/17 A3013 RMK AO2 SLP194 60000 T02280167 53007=
202205310152 METAR KATL 310152Z 08009KT 10SM FEW025 SCT150 BKN200 23/16 A3012 RMK AO2 SLP190 T02280161=
202205310052 METAR KATL 310052Z 14008KT 10SM FEW025 SCT110 BKN150 BKN200 24/17 A3009 RMK AO2 PK WND 13026/2354 RAE27 SLP180 VIRGA NE-OHD-W P0000 T02390167=
202205302352 METAR KATL 302352Z 14019G32KT 10SM -RA FEW015 SCT030 BKN110 BKN200 26/18 A3011 RMK AO2 PK WND 14032/2350 RAB51 PRESRR SLP188 LTG DSNT W-NW CB DSNT W-NW P0000 60000 T02610183 10317 20261 53023=
202205302252 METAR KATL 302252Z 09012G20KT 10SM FEW050 SCT110 BKN200 BKN250 27/18 A3007 RMK AO2 SLP172 LTG DSNT NE S-W NW CB DSNT NE S-W NW T02720183=
202205302152 METAR KATL 302152Z 09019G24KT 10SM FEW050 SCT110 BKN200 BKN250 29/19 A3006 RMK AO2 LTG DSNT SW-NW SLP169 CB DSNT ALQDS T02890189=
202205302052 METAR KATL 302052Z 11008KT 10SM SCT055TCU SCT075 BKN110 BKN250 31/18 A3004 RMK AO2 SLP162 CB DSNT E-SE TCU S-SW NW DSNT N T03060178 56016=
202205301952 METAR KATL 301952Z 14007KT 10SM SCT050TCU BKN110 BKN250 31/18 A3005 RMK AO2 SLP166 CB DSNT SE TCU S NW SHRA NW T03060178=
202205301852 METAR KATL 301852Z 16006KT 10SM SCT055TCU BKN100 BKN250 30/17 A3007 RMK AO2 SLP171 CB DSNT SE NW TCU N-OHD-S MDT CU ALQDS T03000172=
202205301752 METAR KATL 301752Z 10006KT 10SM SCT055TCU BKN090 BKN250 29/17 A3009 RMK AO2 SLP178 TCU NW-NE DSNT ALQDS MDT CU ALQDS T02940172 10300 20211 58007=
202205301652 METAR KATL 301652Z 17004KT 10SM SCT050TCU BKN085 BKN250 30/17 A3010 RMK AO2 SLP180 TCU NW-NE MDT CU ALQDS T03000167=
202205301552 METAR KATL 301552Z 07004KT 10SM FEW038 FEW080 FEW250 29/18 A3011 RMK AO2 SLP184 T02890183=
202205301452 METAR KATL 301452Z 16004KT 10SM FEW030 FEW250 27/19 A3011 RMK AO2 SLP185 T02720189 50006=
202205301352 METAR KATL 301352Z 07004KT 10SM FEW100 FEW250 26/19 A3011 RMK AO2 SLP185 T02560189=
202205301252 METAR KATL 301252Z 12004KT 10SM FEW100 23/19 A3010 RMK AO2 SLP183 T02280189=
202205301152 METAR KATL 301152Z 13005KT 10SM CLR 21/18 A3009 RMK AO2 SLP179 T02110183 10233 20200 53014=
202205301052 METAR KATL 301052Z 09005KT 10SM CLR 20/17 A3008 RMK AO2 SLP176 T02000172=
202205300952 METAR KATL 300952Z 10004KT 10SM CLR 21/17 A3006 RMK AO2 SLP168 T02060172=
202205300852 METAR KATL 300852Z 00000KT 10SM CLR 22/17 A3005 RMK AO2 SLP165 T02170172 55002=
202205300752 METAR KATL 300752Z 11003KT 10SM FEW100 23/17 A3005 RMK AO2 SLP164 T02280167=
202205300652 METAR KATL 300652Z 00000KT 10SM FEW095 22/17 A3005 RMK AO2 SLP165 T02220167=
202205300552 METAR KATL 300552Z 00000KT 10SM FEW095 23/17 A3006 RMK AO2 SLP168 T02280167 10283 20228 50007=
202205300452 METAR KATL 300452Z 13003KT 10SM SCT095 23/17 A3006 RMK AO2 SLP169 T02330167 403000200=
202205300352 METAR KATL 300352Z 12004KT 10SM FEW095 24/17 A3005 RMK AO2 SLP166 T02440167=
202205300252 METAR KATL 300252Z 12004KT 10SM FEW085 25/16 A3003 RMK AO2 SLP159 T02500161 53014=
202205300152 METAR KATL 300152Z 12004KT 10SM FEW085 26/16 A3001 RMK AO2 SLP152 T02610161=
202205300052 METAR KATL 300052Z 11006KT 10SM FEW090 27/16 A3000 RMK AO2 SLP148 T02720156=
202205292352 METAR KATL 292352Z 14009KT 10SM FEW090 FEW250 28/14 A2999 RMK AO2 SLP146 T02830144 10300 20272 56003=
202205292252 METAR KATL 292252Z 16006KT 10SM FEW060 SCT095 29/14 A2999 RMK AO2 SLP147 MDT CU N-NE & DSNT NW T02890144=
202205292152 METAR KATL 292152Z 17008KT 10SM SCT060 SCT085 28/15 A2999 RMK AO2 SLP148 MDT CU ALQDS T02830150=
202205292052 METAR KATL 292052Z 15010G16KT 10SM SCT060 BKN085 29/14 A3000 RMK AO2 SLP149 MDT CU ALQDS T02890144 56010=
202205291952 METAR KATL 291952Z 16007G16KT 10SM SCT060 SCT080 29/14 A3001 RMK AO2 SLP151 MDT CU ALQDS T02890139=
202205291852 METAR KATL 291852Z 12008KT 10SM SCT055 SCT080 29/14 A3002 RMK AO2 SLP156 MDT CU ALQDS T02890144=
202205291752 METAR KATL 291752Z 16010KT 120V180 10SM SCT060 SCT080 28/14 A3003 RMK AO2 SLP159 MDT CU ALQDS T02830139 10289 20211 56003=
202205291652 METAR KATL 291652Z 19009KT 10SM SCT055 SCT070 28/13 A3003 RMK AO2 SLP159 T02780133=
202205291552 METAR KATL 291552Z 00000KT 10SM SCT055 27/13 A3004 RMK AO2 SLP162 T02720128=
202205291452 METAR KATL 291452Z 07005KT 10SM FEW045 FEW060 27/13 A3004 RMK AO2 SLP163 T02670133 50006=
202205291352 METAR KATL 291352Z 14006KT 10SM FEW060 25/16 A3005 RMK AO2 SLP166 T02500156=
202205291252 METAR KATL 291252Z 08004KT 10SM FEW060 23/16 A3003 RMK AO2 SLP161 T02330161=
202205291152 METAR KATL 291152Z 09005KT 10SM FEW055 21/16 A3002 RMK AO2 SLP157 T02110156 10222 20200 53017=
202205291052 METAR KATL 291052Z 09005KT 10SM SCT055 SCT200 20/15 A3000 RMK AO2 SLP150 T02000150=
202205290952 METAR KATL 290952Z 06003KT 10SM FEW060 20/15 A2998 RMK AO2 SLP142 T02000150=
202205290852 METAR KATL 290852Z 06006KT 10SM SCT060 21/15 A2997 RMK AO2 SLP140 T02110150 53001=
202205290752 METAR KATL 290752Z 05006KT 10SM BKN055 21/15 A2996 RMK AO2 SLP137 T02110150=
202205290652 METAR KATL 290652Z 05003KT 10SM FEW050 FEW250 21/14 A2996 RMK AO2 SLP136 T02110144=
202205290552 METAR KATL 290552Z 06006KT 10SM FEW050 FEW250 22/14 A2997 RMK AO2 SLP138 T02220144 10256 20217 50002=
202205290452 METAR KATL 290452Z 05006KT 10SM FEW050 FEW250 23/14 A2997 RMK AO2 SLP139 T02280144 402720156=
202205290352 METAR KATL 290352Z 36005KT 10SM FEW050 SCT250 23/14 A2996 RMK AO2 SLP138 T02330144=
202205290252 METAR KATL 290252Z 33005KT 10SM FEW050 SCT250 23/14 A2996 RMK AO2 SLP136 T02330144 53013=
202205290152 METAR KATL 290152Z 33006KT 10SM FEW050 SCT250 24/14 A2994 RMK AO2 SLP130 T02390144=
202205290052 METAR KATL 290052Z 31005KT 10SM FEW050 FEW250 24/14 A2992 RMK AO2 SLP125 T02440144=
202205282352 METAR KATL 282352Z 31006KT 10SM SCT050 26/14 A2992 RMK AO2 SLP124 T02560139 10272 20256 55000 $=
202205282252 METAR KATL 282252Z 32007KT 10SM SCT048 26/14 A2991 RMK AO2 SLP121 T02560139 $=
202205282152 METAR KATL 282152Z 28006KT 10SM SCT048 27/14 A2992 RMK AO2 SLP123 T02720144 $=
202205282052 METAR KATL 282052Z 30005KT 10SM FEW047 27/14 A2992 RMK AO2 SLP124 T02670139 56013 $=
202205281952 METAR KATL 281952Z VRB04KT 10SM FEW046 27/14 A2993 RMK AO2 SLP127 T02670144 $=
202205281852 METAR KATL 281852Z 23007KT 10SM FEW046 26/13 A2994 RMK AO2 SLP132 T02610133 $=
202205281752 METAR KATL 281752Z 23006KT 10SM FEW048 26/13 A2996 RMK AO2 SLP136 T02560133 10256 20172 58005 $=
202205281652 METAR KATL 281652Z 33008KT 10SM FEW048 26/13 A2997 RMK AO2 SLP140 T02560128 $=
202205281552 METAR KATL 281552Z 33005KT 10SM FEW042 24/13 A2997 RMK AO2 SLP141 T02390128 $=
202205281452 METAR KATL 281452Z 31009KT 10SM FEW032 23/13 A2997 RMK AO2 SLP141 T02280128 53005 $=
202205281352 METAR KATL 281352Z 00000KT 10SM CLR 21/13 A2997 RMK AO2 SLP140 T02060133 $=
202205281252 METAR KATL 281252Z 33009KT 10SM CLR 19/14 A2996 RMK AO2 SLP138 T01890139 $=
202205281152 METAR KATL 281152Z 31006KT 10SM CLR 17/13 A2996 RMK AO2 SLP137 T01720133 10183 20156 51012 $=
202205281052 METAR KATL 281052Z 32008KT 10SM CLR 16/13 A2995 RMK AO2 SLP133 T01610133=
202205280952 METAR KATL 280952Z 32005KT 10SM CLR 16/13 A2993 RMK AO2 SLP129 T01610133=
202205280852 METAR KATL 280852Z 30005KT 10SM CLR 17/13 A2992 RMK AO2 SLP123 T01670133 55001=
202205280752 METAR KATL 280752Z 32004KT 10SM CLR 17/13 A2991 RMK AO2 SLP121 T01720133=
202205280652 METAR KATL 280652Z 33007KT 10SM CLR 18/13 A2991 RMK AO2 SLP120 T01780133=
202205280552 METAR KATL 280552Z 32008KT 10SM CLR 18/13 A2992 RMK AO2 SLP124 T01830133 10250 20183 58004=
202205280452 METAR KATL 280452Z 32006KT 10SM CLR 19/13 A2994 RMK AO2 SLP129 T01940133 402780189=
202205280352 METAR KATL 280352Z 32006KT 10SM FEW055 20/13 A2993 RMK AO2 SLP128 T02000133=
202205280252 METAR KATL 280252Z 33008KT 10SM FEW055 21/13 A2993 RMK AO2 SLP128 T02110133 51017=
202205280152 METAR KATL 280152Z 31010KT 10SM FEW055 22/14 A2992 RMK AO2 SLP122 T02220139=
202205280052 METAR KATL 280052Z 30007KT 10SM SCT060 24/14 A2990 RMK AO2 SLP118 MDT CU OHD-N T02390139=
202205272352 METAR KATL 272352Z 26008KT 10SM SCT055 25/13 A2988 RMK AO2 SLP111 MDT CU OHD NW-NE T02500133 10278 20250 53005=
202205272252 METAR KATL 272252Z 27012KT 10SM SCT055 26/13 A2987 RMK AO2 SLP107 MDT CU NW-NE T02610133=
202205272152 METAR KATL 272152Z 29012G20KT 10SM SCT055 27/13 A2986 RMK AO2 SLP105 T02670133=
202205272052 METAR KATL 272052Z 27012G20KT 10SM SCT055 SCT080 28/13 A2987 RMK AO2 SLP105 TCU DSNT SE MDT CU ALQDS T02780133 56010=
202205271952 METAR KATL 271952Z 26012G17KT 10SM SCT050 SCT075 26/14 A2988 RMK AO2 SLP108 TCU DSNT E-SE MDT CU ALQDS T02610139=
202205271852 METAR KATL 271852Z 26016G21KT 10SM SCT048TCU SCT080 26/14 A2989 RMK AO2 SLP111 TCU ALQDS MDT CU ALQDS T02610144=
202205271752 METAR KATL 271752Z 25012G20KT 10SM SCT042TCU BKN080 27/16 A2990 RMK AO2 SLP116 TCU ALQDS MDT CU ALQDS T02670156 10267 20194 58012=
202205271652 METAR KATL 271652Z 24013G23KT 10SM SCT036TCU SCT080 26/17 A2992 RMK AO2 SLP122 TCU ALQDS MDT CU ALQDS T02560167=
202205271552 METAR KATL 271552Z 22014G21KT 10SM SCT032TCU SCT045 24/16 A2993 RMK AO2 SLP128 TCU NE & NW MDT CU ALQDS T02390161=
202205271523 SPECI KATL 271523Z 25012G19KT 10SM SCT026TCU SCT040 24/17 A2993 RMK AO2 TCU E & W-NW MDT CU ALQDS T02390167=
202205271452 METAR KATL 271452Z 26014G21KT 10SM BKN026 23/17 A2994 RMK AO2 SLP129 MDT CU ALQDS T02330167 58002=
202205271426 SPECI KATL 271426Z 24009G15KT 10SM BKN022 BKN030 23/17 A2994 RMK AO2 T02280172=
202205271352 METAR KATL 271352Z 23010G19KT 10SM SCT016 SCT025 22/17 A2995 RMK AO2 SLP132 MDT CU E T02220172=
202205271252 METAR KATL 271252Z 24008KT 10SM BKN011 BKN016 20/17 A2994 RMK AO2 SLP133 FROPA T02000172=
202205271220 SPECI KATL 271220Z 23007G16KT 10SM BKN010 20/17 A2994 RMK AO2 T02000172=
202205271152 METAR KATL 271152Z 23008KT 10SM BKN008 19/17 A2994 RMK AO2 SLP133 60000 70017 T01940167 10206 20189 51006=
202205271052 METAR KATL 271052Z 24006KT 10SM BKN009 BKN012 BKN250 19/17 A2994 RMK AO2 SLP132 T01890172=
202205270952 METAR KATL 270952Z 22005KT 10SM BKN009 BKN012 19/17 A2993 RMK AO2 SLP127 T01890172 $=
202205270852 METAR KATL 270852Z 21005KT 10SM BKN009 BKN015 19/18 A2992 RMK AO2 SLP126 60000 T01940178 56009 $=
202205270752 METAR KATL 270752Z 20005KT 10SM BKN008 BKN016 20/18 A2993 RMK AO2 SLP127 T02000178 $=
202205270652 METAR KATL 270652Z 22007KT 10SM BKN009 BKN014 20/18 A2994 RMK AO2 RAB0558E07 SLP131 CIG 008V010 P0000 T02000183 $=
202205270552 METAR KATL 270552Z 22009KT 10SM BKN008 BKN015 21/18 A2995 RMK AO2 SLP134 60000 T02060183 10217 20206 58006 $=
202205270526 SPECI KATL 270526Z 21006KT 10SM BKN009 OVC018 21/18 A2996 RMK AO2 T02060183 $=
202205270452 METAR KATL 270452Z 22008G16KT 10SM BKN011 BKN020 OVC040 21/18 A2996 RMK AO2 RAE49 SLP137 P0000 T02060183 402440206 $=
202205270352 METAR KATL 270352Z 21007KT 9SM -RA BKN011 BKN020 BKN050 OVC200 21/18 A2997 RMK AO2 RAB45 SLP139 P0000 T02060183 $=
202205270252 METAR KATL 270252Z 19007KT 10SM SCT018 BKN025 BKN050 BKN200 22/18 A2997 RMK AO2 SLP141 T02170183 53002 $=
202205270152 METAR KATL 270152Z 17006KT 10SM FEW017 SCT030 BKN140 BKN200 22/18 A2996 RMK AO2 SLP138 T02170183 $=
202205270052 METAR KATL 270052Z 19006KT 10SM FEW020 SCT035 BKN130 BKN200 22/18 A2997 RMK AO2 SLP142 TCU DSNT NE-E T02170183 $=
202205262352 METAR KATL 262352Z 20008KT 10SM SCT020 BKN028 BKN120 OVC200 22/18 A2996 RMK AO2 SLP139 60017 T02170183 10244 20217 56004 $=
202205262252 METAR KATL 262252Z 21012G19KT 10SM BKN024 BKN110 OVC200 22/18 A2997 RMK AO2 SLP141 T02220183 $=
202205262152 METAR KATL 262152Z 21007G18KT 10SM FEW014 BKN100 BKN150 OVC200 23/18 A2996 RMK AO2 RAE03 SLP137 P0000 T02280183 $=
202205262052 METAR KATL 262052Z 19011G17KT 8SM -RA SCT013 SCT028 BKN080 OVC150 22/19 A2998 RMK AO2 PK WND 19027/2010 RAB45 SLP144 P0000 60017 T02220194 58020 $=
202205262043 SPECI KATL 262043Z 19008G19KT 10SM FEW014 SCT028 SCT080 OVC140 23/19 A2998 RMK AO2 PK WND 19027/2010 CIG 013V017 T02280194 $=
202205261952 METAR KATL 261952Z 21014G20KT 10SM SCT010 BKN020 BKN045 OVC130 22/20 A3001 RMK AO2 PK WND 22029/1855 RAE47 TSE10 SLP153 TS MOVD NE P0012 T02220200 $=
202205261942 SPECI KATL 261942Z 21011G16KT 9SM -RA FEW008 SCT016 BKN036 OVC130 22/20 A3001 RMK AO2 PK WND 22029/1855 TSE10 TS MOVD NE P0012 T02220200 $=
202205261926 SPECI KATL 261926Z 25009KT 6SM -RA BR SCT009 BKN014 OVC028 22/20 A3002 RMK AO2 PK WND 22029/1855 TSE10 TS MOVD NE CB DSNT NE P0012 T02220200 $=
202205261921 SPECI KATL 261921Z 24010G18KT 7SM -RA SCT012 BKN026 BKN070 OVC130 22/20 A3002 RMK AO2 PK WND 22029/1855 LTG DSNT NE TSE10 TS MOVD NE CB DSNT N-E P0011 T02220200 $=
202205261910 SPECI KATL 261910Z 23011G20KT 10SM -RA FEW008 SCT026 BKN060 OVC140 22/20 A3003 RMK AO2 PK WND 22029/1855 LTG DSNT NE TSE10 TS MOVD NE CB DSNT N-E P0011 T02220200 $=
202205261902 SPECI KATL 261902Z 22011G29KT 4SM R09R/2200VP6000FT -TSRA BR BKN028CB BKN045 OVC070 22/20 A3003 RMK AO2 PK WND 22029/1855 LTG DSNT NE OCNL LTGICCA N-E-SE TS N-E-SE MOV NE P0011 T02220200 $=
202205261855 SPECI KATL 261855Z 23018G29KT 2 1/2SM R09R/3500VP6000FT -TSRA BKN028CB BKN045 OVC070 23/20 A3003 RMK AO2 PK WND 22029/1855 LTG DSNT NW OCNL LTGICCGCA E-SE SW-NW TS E-SE SW-NW MOV NE P0001 T02280200 $=
202205261852 METAR KATL 261852Z 23010KT 4SM -TSRA BKN028CB BKN050 BKN085 OVC140 23/21 A3003 RMK AO2 LTG DSNT NW RAB03 TSB46 SLP160 VIS LWR SW-NW OCNL LTGICCGCA SW-NW TS SW-NW MOV NE CB DSNT NE SW-NW P0005 T02330206 $=
202205261846 SPECI KATL 261846Z 22008KT 5SM -TSRA SCT028CB BKN050 BKN085 OVC200 23/21 A3003 RMK AO2 LTG DSNT NW RAB03 TSB46 OCNL LTGICCGCA S-W-NW TS S-W-NW MOV NE CB DSNT NE SW-NW P0004 $=
202205261843 SPECI KATL 261843Z 20007KT 7SM -RA SCT028CB BKN050 BKN085 OVC200 23/21 A3002 RMK AO2 LTG DSNT W AND NW RAB03 CB S-W-NW MOV NE CB DSNT NE SW-NW P0004 T02330206 $=
202205261752 METAR KATL 261752Z 19006G16KT 10SM BKN026 BKN040 BKN075 OVC140 24/19 A3004 RMK AO2 SLP163 60000 T02440194 10244 20217 58015 $=
202205261652 METAR KATL 261652Z 17008G19KT 10SM BKN024 BKN075 BKN110 OVC200 24/19 A3006 RMK AO2 SLP169 T02440189=
202205261552 METAR KATL 261552Z 17010G19KT 10SM SCT020 SCT075 BKN120 OVC200 24/19 A3007 RMK AO2 SLP176 T02390189=
202205261525 SPECI KATL 261525Z 18007G16KT 10SM BKN022 BKN030 BKN065 OVC140 24/19 A3008 RMK AO2 T02390194=
202205261452 METAR KATL 261452Z 19012G18KT 10SM SCT017 BKN080 BKN120 OVC200 24/19 A3008 RMK AO2 SLP178 60000 T02390189 55000=
202205261429 SPECI KATL 261429Z 17008G16KT 10SM BKN015 BKN070 BKN110 OVC200 23/19 A3008 RMK AO2 CIG 013V017 T02280189=
202205261413 SPECI KATL 261413Z 19006KT 10SM BKN014 BKN070 BKN110 OVC200 23/19 A3008 RMK AO2 CIG 012V016 T02280194=
202205261352 METAR KATL 261352Z 14008KT 10SM SCT012 SCT070 BKN120 BKN200 22/19 A3008 RMK AO2 RAB37E47 SLP177 P0000 T02220194=
202205261252 METAR KATL 261252Z 16009KT 10SM SCT013 SCT036 BKN060 BKN150 OVC250 22/19 A3008 RMK AO2 SLP177 BINOVC T02170194=
202205261152 METAR KATL 261152Z 16007KT 10SM SCT007 BKN050 BKN090 BKN150 BKN250 22/19 A3008 RMK AO2 SLP178 60001 70021 T02170194 10228 20211 53003=
202205261052 METAR KATL 261052Z 17007KT 10SM FEW007 SCT035 SCT090 BKN180 BKN250 21/19 A3007 RMK AO2 RAB18E28 SLP177 P0000 T02110194=
202205261004 SPECI KATL 261004Z 17007KT 10SM SCT006 BKN065 BKN080 21/20 A3008 RMK AO2 T02110200=
202205260952 METAR KATL 260952Z 18009KT 10SM BKN005 BKN075 21/20 A3008 RMK AO2 SLP178 T02110200=
202205260852 METAR KATL 260852Z 14006KT 8SM BKN005 BKN075 21/20 A3007 RMK AO2 RAB21E47 SLP175 P0000 60001 T02110200 55004=
202205260809 SPECI KATL 260809Z 17005KT 7SM BKN005 21/20 A3008 RMK AO2 T02110200=
202205260752 METAR KATL 260752Z 14006KT 7SM SCT005 SCT013 BKN045 22/20 A3007 RMK AO2 RAB08E43 SLP174 P0001 T02170200=
202205260739 SPECI KATL 260739Z 14006KT 6SM -RA BR SCT005 SCT015 BKN045 22/20 A3007 RMK AO2 RAB08 P0001 T02170200=
202205260652 METAR KATL 260652Z 14007KT 10SM BKN005 OVC010 22/20 A3008 RMK AO2 SLP176 T02170200=
202205260552 METAR KATL 260552Z 13007KT 10SM BKN006 OVC011 21/19 A3008 RMK AO2 SLP179 T02110194 10222 20211 58010=
202205260452 METAR KATL 260452Z 11008KT 10SM BKN006 OVC015 21/19 A3010 RMK AO2 SLP185 T02110194 402670200=
202205260352 METAR KATL 260352Z 10008KT 10SM OVC008 22/19 A3012 RMK AO2 SLP191 T02170194=
202205260252 METAR KATL 260252Z 09007KT 10SM BKN008 OVC015 22/19 A3012 RMK AO2 SLP191 T02170194 53008=
202205260152 METAR KATL 260152Z 09008KT 10SM SCT008 BKN015 OVC200 22/19 A3009 RMK AO2 SLP183 SCT008 V BKN T02170194=
202205260119 SPECI KATL 260119Z 10007KT 10SM FEW009 BKN024 BKN070 BKN200 22/19 A3009 RMK AO2 T02170194=
202205260052 METAR KATL 260052Z 10006KT 10SM FEW009 BKN070 BKN100 BKN200 22/19 A3010 RMK AO2 SLP185 T02220194=
202205252352 METAR KATL 252352Z 11005KT 10SM BKN070 BKN100 BKN200 22/19 A3009 RMK AO2 SLP182 60020 T02220189 10267 20217 55005=
202205252252 METAR KATL 252252Z 16004KT 10SM SCT055 BKN130 BKN200 22/20 A3009 RMK AO2 RAE14 SLP181 CB DSNT NE-E P0002 T02220200=
202205252152 METAR KATL 252152Z 19008KT 6SM -RA BR FEW015 SCT050 BKN110 OVC200 22/19 A3011 RMK AO2 SLP188 CB DSNT NE-E P0018 T02170194=
202205252052 METAR KATL 252052Z 13008KT 7SM -RA SCT048 BKN080 BKN110 OVC200 24/20 A3010 RMK AO2 LTG DSNT NW RAB41 SLP186 CB DSNT S-SE NW TCU DSNT NE P0000 60000 T02440200 55004=
202205251952 METAR KATL 251952Z 11009G16KT 10SM FEW027 SCT045 SCT110 BKN200 26/19 A3010 RMK AO2 LTG DSNT W SLP185 CB DSNT W-NW T02560189=
202205251852 METAR KATL 251852Z 11011G20KT 10SM SCT026TCU BKN034 BKN140 BKN200 26/19 A3011 RMK AO2 SLP186 TCU SE-SW MDT CU ALQDS T02610189=
202205251849 SPECI KATL 251849Z 11011G21KT 10SM SCT024TCU BKN032 BKN140 BKN200 26/19 A3011 RMK AO2 TCU SE-SW MDT CU ALQDS=
202205251752 METAR KATL 251752Z 09013G18KT 10SM BKN020 OVC032 24/19 A3012 RMK AO2 SLP190 BINOVC 60000 T02440189 10244 20200 58014=
202205251652 METAR KATL 251652Z 10013G21KT 10SM OVC017 23/18 A3014 RMK AO2 SLP197 T02280183=
202205251552 METAR KATL 251552Z 11012KT 9SM OVC012 21/18 A3016 RMK AO2 SLP205 T02110178=
202205251533 SPECI KATL 251533Z 11011KT 9SM OVC010 21/18 A3016 RMK AO2 T02110178=
202205251452 METAR KATL 251452Z 10012KT 8SM OVC007 21/18 A3016 RMK AO2 DZB08E26 SLP206 P0000 60000 T02060178 51012=
202205251352 METAR KATL 251352Z 09013G19KT 10SM OVC007 20/18 A3015 RMK AO2 SLP204 T02000178=
202205251252 METAR KATL 251252Z 09012KT 7SM OVC006 20/18 A3014 RMK AO2 SLP200 T02000178=
202205251152 METAR KATL 251152Z 11011KT 7SM OVC008 21/18 A3012 RMK AO2 SLP192 CIG 007V009 T02060178 10211 20206 50005=
202205251109 SPECI KATL 251109Z 10011G18KT 10SM OVC009CB 21/18 A3013 RMK AO2 CB VC S MOV NW & DSNT NE T02060178=
202205251052 METAR KATL 251052Z 11010KT 10SM OVC010CB 21/18 A3013 RMK AO2 LTG DSNT NE SLP194 CB NE MOV NE T02060178=
202205250959 SPECI KATL 250959Z 09010KT 10SM OVC010 21/18 A3012 RMK AO2 T02060178=
202205250952 METAR KATL 250952Z 09011KT 10SM OVC009 21/18 A3012 RMK AO2 SLP190 T02060178=
202205250919 SPECI KATL 250919Z 09011KT 10SM BKN009 OVC036 21/18 A3012 RMK AO2 T02060183=
202205250852 METAR KATL 250852Z 09011KT 10SM BKN010 BKN036 OVC055 21/18 A3011 RMK AO2 SLP187 BKN010 V SCT T02060178 53003=
202205250752 METAR KATL 250752Z 09011KT 10SM BKN036 OVC045 21/17 A3010 RMK AO2 SLP183 T02110172=
202205250652 METAR KATL 250652Z 09008KT 10SM SCT039 BKN200 21/17 A3009 RMK AO2 SLP181 T02110172=
202205250552 METAR KATL 250552Z 10007KT 10SM BKN150 BKN180 21/17 A3010 RMK AO2 SLP183 60000 T02110172 10272 20206 58003=
202205250452 METAR KATL 250452Z 09007KT 10SM BKN140 BKN200 22/17 A3011 RMK AO2 SLP187 T02170167 402890200=
202205250352 METAR KATL 250352Z 13005KT 10SM BKN130 BKN200 BKN250 22/17 A3012 RMK AO2 SLP191 T02170167=
202205250252 METAR KATL 250252Z 15007KT 10SM FEW080 SCT120 BKN200 BKN250 21/17 A3011 RMK AO2 SLP188 60000 T02110167 51015=
202205250152 METAR KATL 250152Z 16008KT 10SM SCT080 BKN110 BKN200 22/17 A3011 RMK AO2 PK WND 16035/0056 RAB0058E18 SLP188 P0000 T02170167=
202205250052 METAR KATL 250052Z 16022G33KT 9SM SCT045TCU BKN100 BKN150 BKN250 26/18 A3010 RMK AO2 PK WND 16033/0051 PRESRR SLP184 CB DSNT SE SW TCU NE-OHD-W T02560183=
202205242352 METAR KATL 242352Z 15007KT 10SM FEW040 BKN150 BKN250 27/19 A3006 RMK AO2 SLP172 CB DSNT SE-SW T02720194 10289 20261 53010=
202205242252 METAR KATL 242252Z 18007KT 10SM FEW040 SCT200 28/18 A3004 RMK AO2 SLP162 T02830183=
202205242152 METAR KATL 242152Z 19006KT 10SM SCT040TCU SCT200 28/19 A3004 RMK AO2 SLP162 TCU NW-NE T02830189=
202205242052 METAR KATL 242052Z 19007KT 10SM FEW040TCU FEW120 SCT200 SCT250 28/18 A3003 RMK AO2 SLP161 TCU SE MDT CU NE SE-SW NW T02830183 58019=
202205241952 METAR KATL 241952Z 20007KT 10SM SCT038TCU SCT120 BKN200 BKN250 28/19 A3006 RMK AO2 SLP171 TCU NE S DSNT SE NW MDT CU ALQDS T02780189=
202205241852 METAR KATL 241852Z 19005KT 10SM SCT032 SCT120 BKN180 BKN250 27/19 A3009 RMK AO2 SLP179 MDT CU NE-SE-SW T02720194=
202205241752 METAR KATL 241752Z 18006KT 10SM FEW028 SCT120 BKN180 BKN250 27/19 A3009 RMK AO2 SLP181 T02670189 10267 20206 58003=
202205241652 METAR KATL 241652Z 18007KT 10SM FEW028 BKN180 BKN250 BKN300 27/19 A3010 RMK AO2 SLP184 T02670194=
202205241552 METAR KATL 241552Z 00000KT 10SM FEW018 BKN180 BKN250 OVC300 26/20 A3010 RMK AO2 SLP184 T02610200=
202205241452 METAR KATL 241452Z 00000KT 10SM FEW014 FEW110 SCT160 OVC200 24/18 A3010 RMK AO2 SLP185 T02390183 53005=
202205241352 METAR KATL 241352Z 29003KT 10SM FEW010 FEW100 SCT140 OVC180 23/19 A3010 RMK AO2 SLP184 VIRGA NW-NE T02280194=
202205241252 METAR KATL 241252Z 19003KT 10SM FEW009 BKN100 BKN150 OVC200 22/19 A3009 RMK AO2 SLP180 VIRGA ALQDS T02170189=
202205241152 METAR KATL 241152Z 22003KT 10SM FEW007 BKN150 BKN200 BKN250 21/19 A3009 RMK AO2 SLP181 VIRGA ALQDS 70017 T02060189 10211 20200 53012=
202205241052 METAR KATL 241052Z 00000KT 10SM FEW005 SCT150 BKN250 21/19 A3006 RMK AO2 SLP171 VIRGA E-OHD-W T02060189=
202205240952 METAR KATL 240952Z 00000KT 10SM FEW005 OVC150 21/19 A3005 RMK AO2 SLP167 T02060189=
202205240852 METAR KATL 240852Z 28004KT 7SM FEW005 OVC150 21/19 A3005 RMK AO2 SLP167 T02060189 55008=
202205240752 METAR KATL 240752Z 28003KT 10SM FEW020 OVC150 21/19 A3005 RMK AO2 SLP167 T02060189=
202205240652 METAR KATL 240652Z 25003KT 10SM FEW020 OVC200 21/19 A3006 RMK AO2 SLP172 T02060189=
202205240552 METAR KATL 240552Z 21004KT 10SM FEW020 OVC180 21/19 A3008 RMK AO2 SLP177 T02060189 10228 20206 50002=
202205240452 METAR KATL 240452Z 23003KT 10SM FEW120 OVC180 22/19 A3008 RMK AO2 SLP178 T02170189 402560200=
202205240352 METAR KATL 240352Z 00000KT 10SM FEW120 OVC200 22/19 A3008 RMK AO2 SLP178 T02170189=
202205240252 METAR KATL 240252Z 32004KT 10SM FEW120 BKN180 OVC250 22/19 A3007 RMK AO2 SLP176 T02170189 50004=
202205240152 METAR KATL 240152Z 29005KT 10SM FEW070 BKN180 OVC250 22/19 A3007 RMK AO2 SLP177 T02170189=
202205240052 METAR KATL 240052Z 00000KT 10SM FEW025 BKN070 BKN150 BKN200 22/18 A3007 RMK AO2 SLP175 T02220183=
202205232352 METAR KATL 232352Z 26006KT 10SM FEW025 SCT070 BKN100 BKN180 23/18 A3006 RMK AO2 SLP172 CB DSNT SE-S T02280183 10256 20228 53008=
202205232252 METAR KATL 232252Z 29007KT 10SM FEW025 BKN080 BKN200 23/18 A3004 RMK AO2 SLP163 CB DSNT SE-SW T02330178=
202205232152 METAR KATL 232152Z 28011G19KT 10SM SCT030 BKN070 BKN200 24/17 A3004 RMK AO2 SLP164 TCU DSNT N-NE T02390172=
202205232052 METAR KATL 232052Z 29011G19KT 10SM SCT030 BKN080 BKN120 BKN200 26/18 A3003 RMK AO2 PK WND 25028/2033 SLP161 TCU DSNT NW MDT CU SW T02560178 52006=
202205231952 METAR KATL 231952Z 26012G24KT 10SM BKN030 BKN090 BKN200 BKN250 25/18 A3003 RMK AO2 PK WND 27031/1856 SLP159 MDT CU S-SW NW T02500183=
202205231852 METAR KATL 231852Z 27018G29KT 10SM BKN026 BKN065 BKN120 BKN200 24/18 A3002 RMK AO2 PK WND 27036/1839 SLP158 T02440178=
202205231752 METAR KATL 231752Z 23016G33KT 10SM BKN021 OVC040 23/18 A3001 RMK AO2 PK WND 22037/1713 SLP156 60017 T02280178 10239 20200 55001 $=
202205231739 SPECI KATL 231739Z 23017G30KT 10SM BKN021 OVC038 23/18 A3001 RMK AO2 PK WND 22037/1713 T02280178 $=
202205231652 METAR KATL 231652Z 20019G36KT 10SM BKN030 BKN048 OVC065 24/18 A2999 RMK AO2 PK WND 20039/1613 SLP146 MDT CU OHD-ALQDS T02390178 $=
202205231612 SPECI KATL 231612Z 20017G37KT 10SM SCT018 BKN026 OVC038 23/19 A2998 RMK AO2 PK WND 19037/1612 MDT CU OHD-ALQDS T02330189 $=
202205231552 METAR KATL 231552Z 18019G30KT 10SM SCT014TCU BKN034 OVC055 23/19 A2999 RMK AO2 PK WND 19033/1530 RAB24E47 SLP146 TCU NE MDT CU OHD-ALQDS P0001 T02330194 $=
202205231536 SPECI KATL 231536Z 19017G33KT 8SM -RA SCT010 BKN014 OVC038 23/20 A2999 RMK AO2 PK WND 19033/1530 RAB24 P0001 T02280200 $=
202205231456 SPECI KATL 231456Z 14011KT 10SM BKN007 BKN012 OVC024 21/19 A3001 RMK AO2 CIG 005V009 T02110194 $=
202205231452 METAR KATL 231452Z 14010G20KT 9SM SCT007 BKN014 OVC030 21/19 A3002 RMK AO2 RAE22 SLP156 CIG 012V016 P0000 60016 T02110194 58030 $=
202205231437 SPECI KATL 231437Z 13015G21KT 10SM SCT007 BKN012 OVC024 21/19 A3003 RMK AO2 RAE22 CIG 010V014 P0000 T02110189 $=
202205231352 METAR KATL 231352Z 11011KT 7SM -RA BKN006 BKN024 OVC034 20/18 A3006 RMK AO2 SLP170 CIG 004V008 P0005 T02000183 $=
202205231340 SPECI KATL 231340Z 11009G16KT 10SM -RA BKN005 BKN024 OVC030 20/18 A3006 RMK AO2 P0005 T02000183 $=
202205231336 SPECI KATL 231336Z 10010KT 6SM -RA BR SCT005 BKN024 OVC033 20/18 A3006 RMK AO2 P0005 T02000183 $=
202205231252 METAR KATL 231252Z 08011KT 7SM -RA FEW007 SCT036 OVC070 20/18 A3008 RMK AO2 SLP177 P0011 T02000183 $=
202205231208 SPECI KATL 231208Z 07010KT 5SM RA BR FEW007 BKN070 OVC090 20/18 A3010 RMK AO2 LTG DSNT E CB DSNT NE-SE P0007 T02000183 $=
202205231152 METAR KATL 231152Z 07008KT 5SM -RA BR FEW023 BKN034 OVC075 20/18 A3011 RMK AO2 LTG DSNT E AND SE SLP186 TSB06 TS MOV E P0109 60130 70132 T02000183 10217 20200 53002 $=
202205231147 SPECI KATL 231147Z 05005KT 1 1/4SM RA BR SCT023 BKN032 OVC050 20/18 A3011 RMK AO2 LTG DSNT E AND SE TSB06 TS MOV E P0106 $=
202205231145 SPECI KATL 231145Z 06005KT 1 1/4SM R09R/5500VP6000FT RA BR SCT023 BKN032 OVC050 20/18 A3011 RMK AO2 LTG DSNT E AND SE TSB06 TS MOV E P0106 T02000183 $=
202205231133 SPECI KATL 231133Z VRB04KT 1 1/4SM R09R/5000VP6000FT +TSRA BR FEW007 BKN027CB OVC055 20/18 A3014 RMK AO2 LTG DSNT ALQDS TSB06 OCNL LTGICCG NE-SE TS NE-SE MOV NE P0082 T02000183 $=
202205231120 SPECI KATL 231120Z VRB06KT 2SM R09R/4000VP6000FT TS BR BKN007 BKN022CB OVC055 20/18 A3013 RMK AO2 LTG DSNT SE AND S OCNL LTGICCG SW-W & DSNT SE TS SW-W MOV NE CB DSNT SE P0065 T02000183 $=
202205231106 SPECI KATL 231106Z 24010KT 1SM R09R/4000VP6000FT +TSRA BR BKN007 BKN031CB OVC049 21/19 A3013 RMK AO2 LTG DSNT SE TSB06 PRESRR OCNL LTGICCG SW & DSNT SE TS S-SW MOV NE CB DSNT SW P0017 T02060189=
202205231052 METAR KATL 231052Z 36007KT 4SM RA BR SCT007 SCT031 OVC048 21/19 A3007 RMK AO2 LTG DSNT SE AND S TSE05 SLP175 TS DSIPTD FRQ LTG DSNT SE-SW CB DSNT SE-SW P0018 T02060189=
202205231006 SPECI KATL 231006Z 08006KT 10SM -RA FEW007 BKN037CB OVC055 21/19 A3009 RMK AO2 TSE05 TS DSIPTD P0001 T02060189=
202205230952 METAR KATL 230952Z 07006KT 9SM -TSRA FEW009 BKN037CB OVC100 21/19 A3008 RMK AO2 LTG DSNT SW TSB43 SLP175 OCNL LTGICCG SW-W TS SW-W MOV NE P0003 T02060189=
202205230944 SPECI KATL 230944Z 08007KT 8SM -TSRA FEW009 BKN037CB OVC100 21/19 A3008 RMK AO2 LTG DSNT SW TSB43 OCNL LTGICCG SW-W TS SW-W MOV NE P0002 T02060189=
202205230852 METAR KATL 230852Z 00000KT 10SM -RA FEW010 BKN048 OVC120 21/18 A3010 RMK AO2 RAB51 SLP182 P0000 60000 T02110183 58007=
202205230752 METAR KATL 230752Z 11005KT 10SM SCT070 SCT110 OVC150 21/18 A3010 RMK AO2 SLP183 T02110183=
202205230652 METAR KATL 230652Z 16004KT 10SM FEW060 SCT120 BKN150 OVC200 21/18 A3013 RMK AO2 SLP190 T02110183=
202205230552 METAR KATL 230552Z 10005KT 10SM FEW060 SCT110 BKN150 OVC200 21/18 A3012 RMK AO2 RAE24 SLP191 P0000 60002 T02110183 10261 20211 58022=
202205230452 METAR KATL 230452Z 03004KT 10SM -RA FEW060 SCT090 OVC120 22/18 A3014 RMK AO2 SLP198 P0001 T02220183 403110211=
202205230352 METAR KATL 230352Z 20005KT 10SM -RA FEW090 OVC120 22/18 A3019 RMK AO2 RAB08 SLP214 BINOVC P0001 T02170183=
202205230252 METAR KATL 230252Z 19012KT 10SM FEW080 BKN150 OVC250 24/17 A3019 RMK AO2 SLP214 T02440172 53018=
202205230152 METAR KATL 230152Z 18006KT 10SM BKN140 OVC250 25/17 A3016 RMK AO2 SLP204 BINOVC T02500172=
202205230052 METAR KATL 230052Z 19007KT 10SM BKN130 OVC250 26/18 A3014 RMK AO2 SLP198 SHRA DSNT NW-NE BINOVC T02560178=
202205222352 METAR KATL 222352Z 21006KT 10SM FEW060 BKN120 OVC250 26/17 A3013 RMK AO2 SLP196 TCU DSNT NW SHRA DSNT NW BINOVC T02610172 10311 20261 53000=
202205222252 METAR KATL 222252Z 22003KT 10SM FEW110 27/17 A3012 RMK AO2 SLP191 T02670172=
202205222152 METAR KATL 222152Z 24008KT 10SM FEW060 SCT110 BKN200 BKN250 28/18 A3013 RMK AO2 PK WND 22031/2108 SLP193 MDT CU NW-NE T02830178=
202205222052 METAR KATL 222052Z 22012G20KT 10SM SCT055TCU BKN250 31/16 A3013 RMK AO2 SLP193 CB DSNT SE TCU SE-SW-W & NW T03110156 58024=
202205221952 METAR KATL 221952Z 24010KT 10SM SCT055 SCT130 BKN250 31/16 A3016 RMK AO2 SLP203 CB DSNT S MDT CU ALQDS T03110161=
202205221852 METAR KATL 221852Z 21009G16KT 10SM SCT050 SCT250 31/16 A3018 RMK AO2 SLP210 MDT CU ALQDS T03060161=
202205221752 METAR KATL 221752Z 23009G18KT 10SM BKN050 BKN250 30/17 A3021 RMK AO2 SLP218 T03000167 10300 20222 58005=
202205221652 METAR KATL 221652Z 19008G16KT 10SM SCT040 BKN250 29/17 A3022 RMK AO2 SLP222 T02890167=
202205221552 METAR KATL 221552Z 21009KT 10SM FEW032 SCT250 27/18 A3022 RMK AO2 SLP223 T02720178=
202205221452 METAR KATL 221452Z 18006KT 10SM FEW028 SCT250 26/18 A3022 RMK AO2 SLP223 T02560178 58004=
202205221352 METAR KATL 221352Z 19005KT 10SM FEW021 BKN250 24/18 A3024 RMK AO2 SLP230 T02440183=
202205221252 METAR KATL 221252Z 24005KT 10SM FEW065 SCT200 BKN250 24/18 A3023 RMK AO2 SLP227 T02390183=
202205221152 METAR KATL 221152Z 24006KT 10SM FEW040 SCT065 SCT200 BKN250 22/18 A3023 RMK AO2 SLP226 MDT CU NW T02220183 10228 20211 53016=
202205221052 METAR KATL 221052Z 22005KT 10SM FEW045 SCT060 BKN250 22/18 A3021 RMK AO2 SLP220 T02170178=
202205220952 METAR KATL 220952Z 25005KT 10SM FEW032 BKN045 BKN250 22/18 A3020 RMK AO2 SLP216 T02170178=
202205220852 METAR KATL 220852Z 21005KT 10SM BKN032 BKN250 21/18 A3018 RMK AO2 SLP210 T02110178 53006=
202205220752 METAR KATL 220752Z 19005KT 10SM SCT200 BKN250 21/18 A3016 RMK AO2 SLP201 T02110178=
202205220652 METAR KATL 220652Z 19004KT 10SM SCT200 BKN250 22/17 A3016 RMK AO2 SLP201 T02170172=
202205220552 METAR KATL 220552Z 21004KT 10SM SCT200 BKN250 23/17 A3016 RMK AO2 SLP204 T02280172 10289 20228 58002=
202205220452 METAR KATL 220452Z 19008KT 10SM SCT200 BKN250 23/18 A3017 RMK AO2 SLP207 T02330178 403170217=
202205220352 METAR KATL 220352Z 18007KT 10SM SCT200 BKN250 24/18 A3017 RMK AO2 SLP207 T02390178=
202205220252 METAR KATL 220252Z 17007KT 10SM SCT200 BKN250 25/18 A3017 RMK AO2 SLP206 T02500183 51016=
202205220152 METAR KATL 220152Z 19007KT 10SM FEW050 FEW080 BKN200 BKN240 26/19 A3017 RMK AO2 SLP205 T02610189=
202205220052 METAR KATL 220052Z 16013G20KT 10SM FEW055 SCT200 BKN250 28/18 A3016 RMK AO2 SLP203 CB DSNT NE & E TCU DSNT NE & NW T02780183=
202205212352 METAR KATL 212352Z 19006KT 10SM FEW055 SCT200 BKN250 29/17 A3012 RMK AO2 SLP189 CB DSNT NE & SE TCU DSNT NE T02940172 10317 20294 51008=
202205212252 METAR KATL 212252Z 24006KT 10SM FEW055 BKN250 31/16 A3012 RMK AO2 SLP188 CB DSNT SE TCU DSNT NE T03060161=
202205212152 METAR KATL 212152Z 21003KT 10SM FEW055 BKN250 31/17 A3011 RMK AO2 SLP184 CB DSNT SE TCU DSNT NE MDT CU DSNT E-SE & NW T03060167=
202205212052 METAR KATL 212052Z 27008KT 10SM FEW055 BKN250 31/17 A3010 RMK AO2 SLP181 CB DSNT SE TCU DSNT N AND E T03060167 58024=
202205211952 METAR KATL 211952Z 25011G17KT 10SM FEW050 BKN250 31/17 A3013 RMK AO2 SLP191 CB DSNT SE TCU DSNT W-N-NE T03110167=
202205211852 METAR KATL 211852Z 26008G16KT 10SM FEW048TCU BKN250 31/18 A3015 RMK AO2 SLP198 TCU N AND DSNT W-NW T03060178=
202205211752 METAR KATL 211752Z 20009KT 9SM SCT040 BKN250 29/19 A3017 RMK AO2 SLP206 CB DSNT N TCU DSNT NE AND W T02890189 10294 20228 58003=
202205211652 METAR KATL 211652Z 20006KT 10SM SCT032TCU BKN250 27/19 A3018 RMK AO2 LTG DSNT NE SLP211 CB DSNT NE TCU N AND DSNT S T02720189=
202205211552 METAR KATL 211552Z 16007KT 10SM SCT023TCU SCT250 27/19 A3020 RMK AO2 SLP216 TCU W AND DSNT N-NE MDT CU ALQDS T02670194=
202205211535 SPECI KATL 211535Z 22007KT 10SM SCT022 SCT250 27/20 A3020 RMK AO2 TCU DSNT N-NE MDT CU ALQDS T02670200=
202205211452 METAR KATL 211452Z 20008KT 10SM BKN021 26/20 A3018 RMK AO2 SLP210 T02560200 53017=
202205211410 SPECI KATL 211410Z 23006KT 10SM BKN016 24/19 A3017 RMK AO2 T02440194=
202205211352 METAR KATL 211352Z VRB05KT 10SM BKN014 24/19 A3016 RMK AO2 SLP203 T02440194=
202205211314 SPECI KATL 211314Z 24005KT 9SM BKN011 24/20 A3015 RMK AO2 T02390200=
202205211252 METAR KATL 211252Z 22007KT 9SM BKN009 23/20 A3015 RMK AO2 SLP199 CIG 008V011 BKN009 V SCT T02330200=
202205211250 SPECI KATL 211250Z 22006KT 9SM BKN009 23/20 A3015 RMK AO2 CIG 008V011 BKN009 V SCT=
202205211227 SPECI KATL 211227Z 22006KT 9SM BKN010 23/20 A3014 RMK AO2 BKN010 V SCT T02280200=
202205211152 METAR KATL 211152Z 20004KT 10SM FEW010 23/19 A3013 RMK AO2 SLP192 T02280194 10233 20217 51014=
202205211125 SPECI KATL 211125Z VRB03KT 10SM FEW010 22/19 A3012 RMK AO2 T02220194=
202205211052 METAR KATL 211052Z 19004KT 10SM BKN010 22/19 A3012 RMK AO2 SLP187 T02220194=
202205210955 SPECI KATL 210955Z 18006KT 10SM BKN013 BKN023 22/19 A3010 RMK AO2 T02170194=
202205210952 METAR KATL 210952Z 18007KT 10SM SCT013 SCT023 SCT100 22/19 A3010 RMK AO2 SLP183 T02170189=
202205210852 METAR KATL 210852Z 21006KT 10SM FEW060 FEW200 22/19 A3009 RMK AO2 SLP177 T02220189 53008=
202205210752 METAR KATL 210752Z 21005KT 10SM FEW200 23/19 A3007 RMK AO2 SLP170 T02280189=
202205210652 METAR KATL 210652Z 18004KT 10SM FEW100 SCT200 SCT250 23/18 A3007 RMK AO2 SLP170 T02280183=
202205210552 METAR KATL 210552Z 20005KT 10SM FEW060 SCT200 SCT250 23/18 A3006 RMK AO2 SLP168 T02330183 10289 20233 50005=
202205210452 METAR KATL 210452Z 20006KT 10SM SCT200 BKN250 24/18 A3006 RMK AO2 SLP169 T02390178 403110206=
202205210352 METAR KATL 210352Z 20004KT 10SM SCT200 BKN250 24/18 A3006 RMK AO2 SLP169 T02440183=
202205210252 METAR KATL 210252Z 20005KT 10SM FEW100 SCT200 BKN250 26/18 A3005 RMK AO2 SLP163 T02560183 53018=
202205210152 METAR KATL 210152Z 20005KT 10SM SCT200 BKN250 26/17 A3001 RMK AO2 SLP154 T02610172=
202205210052 METAR KATL 210052Z 19005KT 10SM FEW055 BKN200 BKN250 28/17 A3000 RMK AO2 SLP148 T02780167=
202205202352 METAR KATL 202352Z 20007KT 10SM FEW055 BKN200 BKN250 29/16 A2999 RMK AO2 SLP145 T02890161 10311 20289 53004=
202205202252 METAR KATL 202252Z 21008KT 10SM FEW055 BKN200 BKN250 30/16 A2998 RMK AO2 SLP141 T03000156=
202205202152 METAR KATL 202152Z 20009G15KT 10SM SCT055 BKN200 BKN250 31/16 A2998 RMK AO2 SLP140 T03060156=
202205202052 METAR KATL 202052Z 20011G17KT 10SM SCT055 BKN250 31/16 A2998 RMK AO2 SLP140 MDT CU NE-E T03060156 55009=
202205201952 METAR KATL 201952Z 20010G17KT 10SM SCT060 BKN250 31/16 A2998 RMK AO2 SLP139 MDT CU E-S-SW T03110161=
202205201852 METAR KATL 201852Z 21015G25KT 10SM FEW060 BKN250 31/13 A2999 RMK AO2 PK WND 20026/1841 SLP144 T03060133=
202205201752 METAR KATL 201752Z 17010G17KT 10SM SCT048 BKN250 29/17 A3001 RMK AO2 SLP150 T02940172 10294 20217 50001=
202205201652 METAR KATL 201652Z 23009G19KT 10SM SCT038 BKN250 28/18 A3001 RMK AO2 SLP152 T02830178=
202205201552 METAR KATL 201552Z 20010G19KT 10SM SCT032 BKN250 28/18 A3000 RMK AO2 SLP149 T02780183=
202205201452 METAR KATL 201452Z 24008KT 10SM FEW026 BKN250 26/18 A3000 RMK AO2 SLP149 T02610183 51010=
202205201352 METAR KATL 201352Z 21008KT 10SM FEW019 SCT250 24/19 A3000 RMK AO2 SLP148 T02440189=
202205201252 METAR KATL 201252Z 24008KT 10SM SCT012 SCT250 23/18 A2999 RMK AO2 SLP144 T02330183=
202205201245 SPECI KATL 201245Z 25008KT 10SM SCT012 SCT250 23/18 A2999 RMK AO2 BKN012 V SCT T02280183=
202205201233 SPECI KATL 201233Z 27007KT 10SM BKN012 BKN250 23/19 A2999 RMK AO2 T02280189=
202205201152 METAR KATL 201152Z 22009KT 10SM SCT009 SCT250 22/19 A2997 RMK AO2 SLP140 T02170189 10239 20206 53015=
202205201146 SPECI KATL 201146Z 23007KT 10SM SCT009 SCT250 22/19 A2997 RMK AO2=
202205201052 METAR KATL 201052Z 21007KT 10SM BKN009 BKN250 21/19 A2995 RMK AO2 SLP131 T02110189=
202205201050 SPECI KATL 201050Z 21006KT 10SM BKN009 BKN250 21/19 A2995 RMK AO2=
202205201047 SPECI KATL 201047Z 20005KT 10SM SCT009 BKN250 21/19 A2995 RMK AO2=
202205200952 METAR KATL 200952Z 21005KT 10SM FEW250 22/19 A2993 RMK AO2 SLP123 T02170189=
202205200852 METAR KATL 200852Z 21005KT 10SM FEW250 22/19 A2991 RMK AO2 SLP117 T02220189 53009=
202205200752 METAR KATL 200752Z 21005KT 10SM SCT250 23/19 A2990 RMK AO2 SLP112 T02280189=
202205200652 METAR KATL 200652Z 23006KT 10SM SCT250 23/19 A2989 RMK AO2 SLP109 T02330189=
202205200552 METAR KATL 200552Z 21009G17KT 10SM SCT250 24/19 A2988 RMK AO2 SLP107 T02390189 10294 20239 58006=
202205200452 METAR KATL 200452Z 19003KT 10SM SCT250 24/19 A2989 RMK AO2 SLP111 T02390189 403220211=
202205200352 METAR KATL 200352Z 19003KT 10SM BKN250 25/19 A2990 RMK AO2 SLP113 T02500189=
202205200252 METAR KATL 200252Z 19004KT 10SM FEW200 BKN250 26/19 A2990 RMK AO2 SLP114 T02560189 51015=
202205200152 METAR KATL 200152Z 22005KT 10SM FEW200 BKN250 27/19 A2989 RMK AO2 SLP110 T02720189=
202205200052 METAR KATL 200052Z 22006KT 10SM FEW050 BKN200 BKN250 28/18 A2988 RMK AO2 SLP105 T02830183=
202205192352 METAR KATL 192352Z 22006KT 10SM FEW050 BKN200 BKN250 29/18 A2986 RMK AO2 SLP100 T02940178 10322 20294 55002=
202205192252 METAR KATL 192252Z 21008KT 10SM FEW050 SCT200 BKN250 31/18 A2985 RMK AO2 SLP096 T03060183=
202205192152 METAR KATL 192152Z 25009KT 10SM FEW050 SCT200 BKN250 32/18 A2986 RMK AO2 SLP099 T03170183=
202205192052 METAR KATL 192052Z 25009KT 10SM FEW050 SCT200 BKN250 BKN300 32/18 A2986 RMK AO2 SLP102 T03170178 56020=
202205191952 METAR KATL 191952Z 23010G17KT 10SM FEW048 SCT200 SCT250 BKN300 31/19 A2988 RMK AO2 SLP106 T03110194=
202205191852 METAR KATL 191852Z 23011G18KT 10SM FEW050 SCT200 SCT250 BKN300 32/18 A2990 RMK AO2 SLP114 T03170183=
202205191752 METAR KATL 191752Z 25013G19KT 10SM FEW048 FEW200 SCT250 31/19 A2993 RMK AO2 SLP121 T03110189 10317 20228 58010=
202205191652 METAR KATL 191652Z 26011G21KT 10SM FEW040 SCT200 SCT250 SCT300 31/18 A2995 RMK AO2 SLP130 T03060183=
202205191552 METAR KATL 191552Z 28011G16KT 10SM FEW034 SCT200 SCT250 29/20 A2995 RMK AO2 SLP131 T02940200=
202205191452 METAR KATL 191452Z 27007G17KT 10SM FEW030 FEW200 SCT250 29/20 A2996 RMK AO2 SLP133 T02890200 50003=
202205191352 METAR KATL 191352Z 27011KT 10SM FEW180 SCT250 27/20 A2996 RMK AO2 SLP134 T02670200=
202205191252 METAR KATL 191252Z 26009KT 10SM SCT180 25/19 A2996 RMK AO2 SLP133 T02500194=
202205191152 METAR KATL 191152Z 28008KT 10SM FEW200 FEW250 23/19 A2995 RMK AO2 SLP130 T02280189 10239 20211 52014=
202205191052 METAR KATL 191052Z 27003KT 10SM FEW200 FEW250 21/18 A2993 RMK AO2 SLP126 T02110178=
202205190952 METAR KATL 190952Z 21003KT 10SM SCT250 21/17 A2992 RMK AO2 SLP121 T02110172=
202205190852 METAR KATL 190852Z 21005KT 10SM FEW250 22/17 A2991 RMK AO2 SLP116 T02170172 55006=
202205190752 METAR KATL 190752Z 22006KT 10SM FEW250 22/17 A2990 RMK AO2 SLP114 T02220167=
202205190652 METAR KATL 190652Z 24006KT 10SM SCT250 24/17 A2991 RMK AO2 SLP116 T02390167=
202205190552 METAR KATL 190552Z 23005KT 10SM SCT250 24/17 A2993 RMK AO2 SLP122 T02390167 10289 20233 58009=
202205190452 METAR KATL 190452Z 22006KT 10SM SCT250 23/16 A2994 RMK AO2 SLP127 T02330161 403110172=
202205190352 METAR KATL 190352Z 22006KT 10SM SCT250 24/15 A2995 RMK AO2 SLP132 T02390150=
202205190252 METAR KATL 190252Z 22004KT 10SM FEW250 25/15 A2995 RMK AO2 SLP133 T02500150 53009=
202205190152 METAR KATL 190152Z 26004KT 10SM SCT250 26/14 A2994 RMK AO2 SLP129 T02610144=
202205190052 METAR KATL 190052Z 24006KT 10SM SCT200 BKN250 28/13 A2994 RMK AO2 SLP127 T02780133=
202205182352 METAR KATL 182352Z 21005KT 10SM SCT200 BKN250 29/12 A2993 RMK AO2 SLP125 T02890117 10311 20289 56012=
202205182252 METAR KATL 182252Z 23008KT 10SM SCT200 BKN250 30/11 A2993 RMK AO2 SLP127 T03000111=
202205182152 METAR KATL 182152Z 25006KT 10SM SCT200 BKN250 31/12 A2994 RMK AO2 SLP130 T03060117=
202205182052 METAR KATL 182052Z 20012G19KT 10SM SCT200 SCT250 31/10 A2996 RMK AO2 SLP137 T03060100 58022=
202205181952 METAR KATL 181952Z 23008G16KT 10SM SCT200 SCT250 SCT300 31/11 A2999 RMK AO2 SLP147 T03060106=
202205181852 METAR KATL 181852Z 20006KT 10SM FEW200 SCT250 SCT300 29/10 A3001 RMK AO2 SLP153 T02940100=
202205181752 METAR KATL 181752Z 18008KT 10SM FEW250 SCT300 29/11 A3003 RMK AO2 SLP158 T02940106 10294 20194 57019 $=
202205181652 METAR KATL 181652Z 19008G17KT 10SM FEW200 SCT250 BKN300 28/11 A3005 RMK AO2 SLP166 T02830106 $=
202205181552 METAR KATL 181552Z 15009KT 10SM FEW200 SCT250 BKN300 27/11 A3006 RMK AO2 SLP170 T02720106 $=
202205181452 METAR KATL 181452Z 19005KT 10SM SCT200 BKN250 BKN300 26/10 A3009 RMK AO2 SLP178 T02610100 50009 $=
202205181352 METAR KATL 181352Z 12005KT 10SM FEW150 BKN250 BKN300 24/10 A3009 RMK AO2 SLP179 T02440100=
202205181252 METAR KATL 181252Z 23003KT 10SM FEW150 BKN250 23/13 A3008 RMK AO2 SLP175 T02330128=
202205181152 METAR KATL 181152Z 00000KT 10SM FEW150 FEW250 19/13 A3006 RMK AO2 SLP169 T01940128 10206 20172 53007=
202205181052 METAR KATL 181052Z 00000KT 10SM SCT150 17/11 A3004 RMK AO2 SLP163 T01720111=
202205180952 METAR KATL 180952Z 00000KT 10SM FEW150 17/12 A3004 RMK AO2 SLP164 T01720117=
202205180852 METAR KATL 180852Z 00000KT 10SM FEW150 18/12 A3004 RMK AO2 SLP162 T01780117 55002=
202205180752 METAR KATL 180752Z 00000KT 10SM FEW250 18/12 A3003 RMK AO2 SLP158 T01780117=
202205180652 METAR KATL 180652Z 00000KT 10SM FEW250 19/11 A3003 RMK AO2 SLP161 T01940111=
202205180552 METAR KATL 180552Z 31004KT 10SM SCT250 21/11 A3004 RMK AO2 SLP164 T02060111 10272 20200 50002=
202205180452 METAR KATL 180452Z 35003KT 10SM SCT250 23/09 A3004 RMK AO2 SLP164 T02280089 402940156=
202205180352 METAR KATL 180352Z 02003KT 10SM FEW250 22/10 A3004 RMK AO2 SLP165 T02220100=
202205180252 METAR KATL 180252Z 35006KT 10SM FEW250 24/08 A3004 RMK AO2 SLP162 T02440083 51008=
202205180152 METAR KATL 180152Z 35006KT 10SM FEW250 25/09 A3003 RMK AO2 SLP158 T02500089=
202205180052 METAR KATL 180052Z 31008KT 10SM FEW250 26/09 A3003 RMK AO2 SLP159 T02560094=
202205172352 METAR KATL 172352Z 29010KT 10SM SCT250 27/08 A3001 RMK AO2 SLP154 T02720083 10294 20272 53003=
202205172252 METAR KATL 172252Z 31005KT 10SM BKN250 29/09 A2999 RMK AO2 SLP147 T02890089=
202205172152 METAR KATL 172152Z 31006KT 10SM BKN250 29/09 A3000 RMK AO2 SLP150 T02890089=
202205172052 METAR KATL 172052Z 34006KT 10SM FEW200 SCT250 29/08 A3000 RMK AO2 SLP150 T02940083 58013=
202205171952 METAR KATL 171952Z 03007KT 10SM FEW250 29/08 A3002 RMK AO2 SLP157 T02890083=
202205171852 METAR KATL 171852Z 03006KT 10SM FEW003 FEW075 FEW250 28/09 A3004 RMK AO2 SLP163 FU FEW003 FU PLUME NE T02830089=
202205171850 SPECI KATL 171850Z 02008KT 10SM FEW003 FEW075 FEW250 28/08 A3004 RMK AO2 FU FEW003 FU PLUME NE=
202205171752 METAR KATL 171752Z VRB04KT 10SM FEW070 FEW250 27/09 A3005 RMK AO2 SLP167 T02720094 10272 20178 58009=
202205171652 METAR KATL 171652Z VRB03KT 10SM FEW060 FEW250 26/08 A3006 RMK AO2 SLP170 T02610083=
202205171552 METAR KATL 171552Z 09006KT 10SM CLR 25/10 A3008 RMK AO2 SLP175 T02500100=
202205171452 METAR KATL 171452Z 11007KT 10SM CLR 24/10 A3008 RMK AO2 SLP176 T02440100 51014=
202205171352 METAR KATL 171352Z 10006KT 10SM CLR 23/11 A3007 RMK AO2 SLP173 T02280111=
202205171252 METAR KATL 171252Z 06007KT 10SM FEW250 21/11 A3006 RMK AO2 SLP169 T02110111=
202205171152 METAR KATL 171152Z 36004KT 10SM FEW250 18/11 A3004 RMK AO2 SLP162 T01830106 10194 20156 53017=
202205171052 METAR KATL 171052Z 29005KT 10SM FEW250 16/11 A3001 RMK AO2 SLP153 T01560106=
202205170952 METAR KATL 170952Z 32004KT 10SM FEW250 17/11 A2999 RMK AO2 SLP145 T01670111=
202205170852 METAR KATL 170852Z 32005KT 10SM FEW250 17/11 A2999 RMK AO2 SLP145 T01670106 53008=
202205170752 METAR KATL 170752Z 32006KT 10SM FEW250 18/11 A2997 RMK AO2 SLP141 T01780111=
202205170652 METAR KATL 170652Z 32007KT 10SM FEW250 19/11 A2996 RMK AO2 SLP137 T01890111=
202205170552 METAR KATL 170552Z 32008KT 10SM FEW250 19/11 A2996 RMK AO2 SLP137 T01940111 10278 20194 51008=
202205170452 METAR KATL 170452Z 32006KT 10SM FEW250 21/12 A2996 RMK AO2 SLP137 T02110117 403060189=
202205170352 METAR KATL 170352Z 31006KT 10SM FEW250 22/13 A2995 RMK AO2 SLP134 T02170128=
202205170252 METAR KATL 170252Z 32007KT 10SM FEW250 23/12 A2994 RMK AO2 SLP128 T02330122 52022=
202205170152 METAR KATL 170152Z 32007KT 10SM FEW250 24/11 A2992 RMK AO2 SLP120 T02440111=
202205170052 METAR KATL 170052Z 31010KT 10SM FEW250 26/11 A2990 RMK AO2 SLP114 T02610106=
202205162352 METAR KATL 162352Z 31013KT 10SM FEW055 SCT250 28/14 A2987 RMK AO2 SLP106 T02780139 10306 20278 53003=
202205162252 METAR KATL 162252Z 32011KT 10SM FEW055TCU SCT250 28/16 A2986 RMK AO2 SLP103 TCU N-NE T02830156=
202205162152 METAR KATL 162152Z 30015KT 10SM FEW055 SCT200 BKN250 29/13 A2986 RMK AO2 SLP103 TCU DSNT NW-NE SE-S T02890133=
202205162052 METAR KATL 162052Z 28013G19KT 10SM FEW055TCU SCT200 BKN250 30/15 A2986 RMK AO2 SLP103 TCU SE-SW NW DSNT NE T03000150 56013=
202205161952 METAR KATL 161952Z 28011G19KT 10SM FEW055TCU SCT200 BKN250 30/16 A2987 RMK AO2 SLP106 CB DSNT NE SE NW TCU S-SW T03000161=
202205161852 METAR KATL 161852Z 31010G21KT 10SM FEW050 SCT200 BKN250 30/17 A2988 RMK AO2 SLP109 CB DSNT SE TCU DSNT SE T03000167=
202205161752 METAR KATL 161752Z 29010KT 10SM FEW046 FEW100 BKN200 BKN250 29/17 A2990 RMK AO2 SLP116 T02940167 10294 20200 58007=
202205161652 METAR KATL 161652Z 26009KT 10SM FEW042 FEW100 SCT200 BKN250 28/17 A2992 RMK AO2 SLP121 ACC NE-OHD-SW T02780167=
202205161552 METAR KATL 161552Z 33006KT 10SM FEW040 FEW110 SCT200 SCT250 27/17 A2993 RMK AO2 SLP127 ACC W-NW T02720172=
202205161452 METAR KATL 161452Z 32012KT 10SM FEW032 SCT200 SCT250 26/18 A2992 RMK AO2 SLP124 T02610178 53007=
202205161352 METAR KATL 161352Z 31011KT 10SM FEW200 SCT250 BKN300 25/17 A2992 RMK AO2 SLP121 T02500172=
202205161252 METAR KATL 161252Z 29008KT 10SM FEW080 FEW120 FEW200 SCT250 23/17 A2991 RMK AO2 SLP119 ACC DSNT NE T02280167=
202205161152 METAR KATL 161152Z 26004KT 10SM FEW120 FEW200 SCT250 20/17 A2990 RMK AO2 SLP116 ACC DSNT NW T02000172 10200 20189 53012=
202205161052 METAR KATL 161052Z 22003KT 10SM FEW120 SCT200 SCT250 19/17 A2989 RMK AO2 SLP112 T01890167 $=
202205160952 METAR KATL 160952Z 26003KT 10SM FEW120 SCT250 19/17 A2986 RMK AO2 SLP103 T01890167 $=
202205160852 METAR KATL 160852Z 26005KT 10SM FEW120 BKN250 19/17 A2987 RMK AO2 SLP104 T01890172 55001 $=
202205160752 METAR KATL 160752Z 25003KT 10SM FEW120 BKN250 19/17 A2985 RMK AO2 SLP099 T01940167 $=
202205160652 METAR KATL 160652Z 17004KT 10SM FEW120 BKN250 19/17 A2985 RMK AO2 SLP098 T01940167 $=
202205160552 METAR KATL 160552Z 18004KT 10SM FEW200 BKN250 20/17 A2987 RMK AO2 SLP105 60000 T02000167 10261 20200 58019 $=
202205160452 METAR KATL 160452Z 22005KT 10SM SCT250 21/17 A2990 RMK AO2 SLP116 T02110172 403000189 $=
202205160352 METAR KATL 160352Z 23006KT 10SM FEW120 FEW200 SCT250 21/17 A2992 RMK AO2 SLP122 T02110172 $=
202205160252 METAR KATL 160252Z 00000KT 10SM FEW055 FEW120 SCT200 SCT250 22/17 A2993 RMK AO2 SLP125 60000 T02170167 51017 $=
202205160152 METAR KATL 160152Z 00000KT 10SM FEW045 FEW055 SCT120 SCT150 SCT250 21/16 A2990 RMK AO2 RAB0058E25 TSE25 SLP118 P0000 T02110161 $=
202205160127 SPECI KATL 160127Z 00000KT 10SM FEW036 FEW050 SCT060 SCT150 BKN250 22/16 A2990 RMK AO2 RAB0058E25 TSE25 TS DSIPTD S TCU DSNT NE-E P0000 T02170156 $=
202205160052 METAR KATL 160052Z 26017G25KT 10SM TS FEW036 SCT045CB BKN070TCU BKN150 BKN250 23/15 A2990 RMK AO2 SLP117 TSB22 OCNL LTGICCG SW TS SW MOV SE CB DSNT SE TCU OHD & NW & DSNT N-NE SHRA DSNT N-NE T02330150 $=
202205160033 SPECI KATL 160033Z 20003KT 10SM TS FEW045CB SCT100 SCT150 BKN250 26/16 A2988 RMK AO2 TSB22 OCNL LTGICCG SW-W TS SW-W MOV SE CB DSNT SE TCU DSNT NW-N SHRA DSNT NW-N T02560161 $=
202205160026 SPECI KATL 160026Z 18003KT 10SM VCTS FEW055CB SCT120 SCT150 SCT250 26/16 A2988 RMK AO2 TSB22 OCNL LTGIC SW-W TS SW-W MOV SE CB DSNT SE TCU DSNT NW-N SHRA DSNT NW-N T02560161 $=
202205152352 METAR KATL 152352Z 13003KT 10SM FEW060TCU SCT120 SCT150 SCT250 26/16 A2988 RMK AO2 PK WND 03026/2257 SLP107 RAB48E15 TSB54E15 CB DSNT E & W TCU W & DSNT NW-NE P0000 60000 T02610156 10300 20250 58001 $=
202205152321 SPECI KATL 152321Z 08009KT 10SM FEW050 FEW060 SCT120 SCT150 BKN250 26/14 A2987 RMK AO2 PK WND 03026/2257 RAB48E15 TSB54E15 TS DSIPTD E-SE TCU DSNT ALQDS P0000 T02610144 $=
202205152258 SPECI KATL 152258Z 03019G26KT 5SM TSRA FEW050CB SCT060TCU BKN110 BKN150 BKN250 26/17 A2989 RMK AO2 PK WND 03026/2257 RAB48 TSB54 OCNL LTGIC NW TS NW DRFTG SE TCU OHD & DSNT ALQDS VIS LWR NW-N P0000 T02560167 $=
202205152252 METAR KATL 152252Z 35018G26KT 10SM -RA FEW050TCU SCT060 BKN110 BKN150 BKN250 26/16 A2988 RMK AO2 PK WND 35026/2249 SLP109 RAB48 TCU OHD & DSNT ALQDS VIS LWR NW-N P0000 T02610161 $=
202205152152 METAR KATL 152152Z 07005KT 10SM SCT050TCU SCT110 SCT150 BKN200 BKN250 28/17 A2988 RMK AO2 SLP107 CB DSNT NE & SW TCU OHD & NW & DSNT ALQDS T02830167 $=
202205152052 METAR KATL 152052Z 27008KT 10SM SCT048TCU SCT110 SCT200 30/14 A2988 RMK AO2 TSB21E51 SLP107 TS DSIPTD CB DSNT E TCU NW-N AND DSNT ALQDS T03000144 56027=
202205152021 SPECI KATL 152021Z VRB05KT 10SM TS SCT048CB SCT120 SCT200 28/16 A2988 RMK AO2 LTG DSNT NE TSB21 OCNL LTGCG NE TS NE MOV SE TCU DSNT ALQDS T02830161=
202205151952 METAR KATL 151952Z 27008KT 230V300 10SM SCT048TCU SCT100 SCT200 28/16 A2990 RMK AO2 SLP116 CB DSNT N-NE TCU ALQDS T02780161=
202205151852 METAR KATL 151852Z VRB05KT 10SM SCT042TCU SCT100 SCT200 27/17 A2993 RMK AO2 SLP125 CB DSNT N TCU SW-W AND DSNT E T02720167=
202205151752 METAR KATL 151752Z 22004KT 10SM FEW036 BKN130 BKN200 26/17 A2996 RMK AO2 SLP136 CB DSNT SE TCU DSNT W-NW T02610172 10261 20211 58017=
202205151652 METAR KATL 151652Z 00000KT 10SM FEW034 SCT080 BKN120 25/17 A2999 RMK AO2 SLP146 TCU DSNT E-SE MDT CU DSNT NW T02500167=
202205151552 METAR KATL 151552Z 00000KT 10SM FEW028 BKN110 BKN230 24/16 A3000 RMK AO2 SLP152 TCU DSNT E-SE T02390161=
202205151452 METAR KATL 151452Z 26006KT 10SM SCT100 BKN150 OVC220 23/16 A3001 RMK AO2 SLP154 T02280161 53005=
202205151352 METAR KATL 151352Z 31008KT 10SM FEW060 BKN110 OVC220 23/17 A3000 RMK AO2 SLP151 T02280172=
202205151252 METAR KATL 151252Z 19006KT 10SM FEW060 SCT110 BKN150 BKN200 BKN250 22/17 A2996 RMK AO2 SLP137 T02220167=
202205151152 METAR KATL 151152Z 21003KT 10SM FEW055 SCT120 SCT200 BKN250 21/16 A2999 RMK AO2 SLP147 T02110161 10211 20189 50009=
202205151052 METAR KATL 151052Z 33006KT 10SM FEW030 SCT042 BKN055 BKN200 BKN250 20/16 A3000 RMK AO2 SLP149 MDT CU SW-NW T02000161=
202205150952 METAR KATL 150952Z 30007KT 10SM SCT050 BKN060 BKN090 20/16 A2998 RMK AO2 SLP144 T02000161=
202205150852 METAR KATL 150852Z 22003KT 10SM FEW100 SCT200 BKN250 19/16 A2996 RMK AO2 SLP137 T01940156 56006=
202205150752 METAR KATL 150752Z 21004KT 10SM FEW050 SCT100 SCT250 20/16 A2996 RMK AO2 SLP137 T02000161=
202205150652 METAR KATL 150652Z 24004KT 10SM FEW050 FEW100 SCT250 21/16 A2997 RMK AO2 SLP141 T02060156=
202205150552 METAR KATL 150552Z 00000KT 10SM FEW050 SCT110 SCT250 21/16 A2998 RMK AO2 SLP143 T02060161 10261 20206 58003=
202205150452 METAR KATL 150452Z 21003KT 10SM FEW110 SCT250 21/16 A2999 RMK AO2 SLP147 T02110161 402780172=
202205150352 METAR KATL 150352Z 19003KT 10SM FEW050 FEW200 SCT250 BKN300 22/16 A2999 RMK AO2 SLP149 T02170161=
202205150252 METAR KATL 150252Z 20003KT 10SM FEW050 FEW110 FEW200 BKN250 BKN300 22/16 A2999 RMK AO2 SLP147 T02220161 53015=
202205150152 METAR KATL 150152Z 21003KT 10SM FEW050 FEW100 SCT200 BKN250 BKN300 23/16 A2998 RMK AO2 SLP144 T02330161=
202205150052 METAR KATL 150052Z 21005KT 10SM FEW047 FEW070 FEW200 SCT250 BKN300 24/16 A2996 RMK AO2 SLP137 CB DSNT NW TCU DSNT W MDT CU N T02440161=
202205142352 METAR KATL 142352Z 20005KT 10SM FEW047 FEW060 FEW200 SCT250 BKN300 26/16 A2994 RMK AO2 SLP132 CB DSNT NW MDT CU NW-N T02610156 10278 20256 55003=
202205142252 METAR KATL 142252Z 18003KT 10SM FEW047 SCT060 BKN250 BKN300 27/15 A2994 RMK AO2 SLP130 MDT CU W-NW T02670150=
202205142152 METAR KATL 142152Z 16006KT 10SM SCT047 BKN250 BKN300 27/15 A2995 RMK AO2 SLP134 MDT CU OHD & N-NE & DSNT S T02720150=
202205142052 METAR KATL 142052Z 22006KT 10SM SCT050 BKN250 28/14 A2995 RMK AO2 SLP135 MDT CU ALQDS T02780144 58020=
202205141952 METAR KATL 141952Z 24003KT 10SM BKN048TCU BKN250 27/14 A2998 RMK AO2 SLP145 TCU OHD-S SW MDT CU ALQDS T02720139=
202205141852 METAR KATL 141852Z 00000KT 10SM BKN048 BKN250 26/14 A3000 RMK AO2 SLP150 MDT CU ALQDS T02610144=
202205141752 METAR KATL 141752Z 10006KT 10SM SCT042 SCT250 27/15 A3001 RMK AO2 SLP156 MDT CU ALQDS 60000 T02670150 10272 20178 58015=
202205141652 METAR KATL 141652Z 00000KT 10SM SCT036 SCT250 26/15 A3004 RMK AO2 SLP164 MDT CU ALQDS T02560150=
202205141552 METAR KATL 141552Z VRB03KT 10SM FEW026 SCT250 24/16 A3005 RMK AO2 SLP167 T02390161=
202205141452 METAR KATL 141452Z 12003KT 10SM FEW017 SCT110 SCT250 22/16 A3006 RMK AO2 SLP172 60000 T02170161 50002=
202205141417 SPECI KATL 141417Z VRB04KT 10SM SCT011 SCT100 BKN250 21/16 A3006 RMK AO2 T02060161=
202205141352 METAR KATL 141352Z VRB03KT 10SM BKN009 19/16 A3007 RMK AO2 SLP174 T01940161=
202205141252 METAR KATL 141252Z 11003KT 7SM OVC005 18/16 A3006 RMK AO2 DZE03 SLP172 BINOVC P0000 T01830161=
202205141246 SPECI KATL 141246Z 11003KT 7SM OVC005 18/16 A3006 RMK AO2 DZE03 BINOVC P0000=
202205141220 SPECI KATL 141220Z 07006KT 6SM BR BKN004 BKN007 OVC010 18/16 A3005 RMK AO2 DZE03 P0000 T01780161=
202205141152 METAR KATL 141152Z 07006KT 5SM -DZ BR SCT004 OVC007 18/16 A3005 RMK AO2 DZB51 SLP170 PCPN VRY LGT P0000 60000 T01780161 10189 20172 51015=
202205141052 METAR KATL 141052Z 00000KT 7SM OVC007 18/16 A3005 RMK AO2 SLP169 CIG 006V008 BINOVC T01830156=
202205140952 METAR KATL 140952Z 00000KT 7SM OVC005 18/16 A3003 RMK AO2 SLP162 T01780161=
202205140945 SPECI KATL 140945Z 00000KT 7SM OVC005 18/16 A3003 RMK AO2 T01780161=
202205140919 SPECI KATL 140919Z 12004KT 7SM OVC004 17/16 A3002 RMK AO2 T01720161=
202205140852 METAR KATL 140852Z 13006KT 10SM BKN005 BKN009 18/16 A3001 RMK AO2 SLP154 T01780156 53001=
202205140752 METAR KATL 140752Z 11005KT 10SM BKN005 18/16 A2999 RMK AO2 SLP148 BKN005 V SCT T01780156=
202205140748 SPECI KATL 140748Z 11005KT 10SM BKN005 18/16 A2999 RMK AO2 BKN005 V SCT=
202205140734 SPECI KATL 140734Z 10006KT 10SM SCT005 18/16 A2998 RMK AO2 SCT005 V BKN T01780156=
202205140717 SPECI KATL 140717Z 10011KT 10SM BKN006 18/16 A2999 RMK AO2 BKN006 V SCT T01780156=
202205140652 METAR KATL 140652Z 12005KT 10SM CLR 18/16 A3000 RMK AO2 SLP153 T01780156=
202205140552 METAR KATL 140552Z 11005KT 10SM FEW250 19/16 A3001 RMK AO2 SLP154 60000 T01890156 10250 20189 58010=
202205140452 METAR KATL 140452Z 11008KT 10SM FEW250 19/16 A3002 RMK AO2 SLP158 T01940161 402610183=
202205140352 METAR KATL 140352Z 12006KT 10SM FEW100 FEW250 21/16 A3004 RMK AO2 SLP165 T02060156=
202205140252 METAR KATL 140252Z 12005KT 10SM FEW100 FEW200 21/16 A3004 RMK AO2 SLP165 60000 T02110156 51014=
202205140152 METAR KATL 140152Z 09008KT 10SM FEW040 SCT100 SCT200 22/15 A3003 RMK AO2 SLP163 T02220150=
202205140052 METAR KATL 140052Z 13007KT 10SM FEW040TCU SCT100 BKN200 23/14 A3001 RMK AO2 RAB08E25 TSE11 SLP156 TCU NE DSNT ALQDS P0000 T02330144=
202205140011 SPECI KATL 140011Z 12008KT 10SM -RA FEW040TCU SCT100 BKN200 24/15 A3001 RMK AO2 RAB08 TSE11 TS DSIPTD TCU OHD-NW DSNT ALQDS P0000 T02440150=
202205132352 METAR KATL 132352Z 13006KT 10SM TS FEW040CB SCT100 BKN200 25/15 A3000 RMK AO2 TSB41 SLP150 OCNL LTGICCG NW-N TS NW-N MOV SW TCU DSNT ALQDS T02500150 10261 20239 53004=
202205132343 SPECI KATL 132343Z 11007KT 10SM TS SCT040CB SCT100 BKN200 24/14 A3000 RMK AO2 TSB41 OCNL LTGCG N TS N MOV SW CB N DSNT S-W-NW MOV SW T02440144=
202205132252 METAR KATL 132252Z 07008KT 10SM FEW040 FEW200 24/14 A2998 RMK AO2 SLP144 TCU DSNT NE-SE-SW MDT CU DSNT ALQDS T02440144=
202205132152 METAR KATL 132152Z 09007KT 10SM SCT040 SCT100 SCT200 26/15 A2997 RMK AO2 SLP140 TCU DSNT NE-SE MDT CU ALQDS T02610150=
202205132052 METAR KATL 132052Z 07005KT 10SM SCT042 SCT095 SCT200 26/13 A2999 RMK AO2 SLP146 CB DSNT SE TCU DSNT E AND W T02560133 58022=
202205131952 METAR KATL 131952Z 10009KT 10SM SCT038TCU SCT055 BKN090 24/15 A3002 RMK AO2 SLP157 TCU ALQDS T02440150=
202205131852 METAR KATL 131852Z 07007KT 10SM SCT037TCU BKN055 24/14 A3004 RMK AO2 SLP166 TCU N E SW AND DSNT SE MDT CU ALQDS T02440144=
202205131752 METAR KATL 131752Z 06010G15KT 10SM SCT032 BKN044 24/14 A3005 RMK AO2 SLP169 TCU DSNT E AND W MDT CU ALQDS T02390144 10244 20189 58012=
202205131652 METAR KATL 131652Z 06010KT 10SM SCT023 BKN034 22/16 A3008 RMK AO2 SLP178 TCU DSNT NE AND S T02220156=
202205131645 SPECI KATL 131645Z 09010KT 10SM SCT023 BKN036 22/16 A3008 RMK AO2 T02220156=
202205131552 METAR KATL 131552Z 09009KT 10SM OVC021 21/16 A3009 RMK AO2 SLP184 BINOVC T02110156=
202205131512 SPECI KATL 131512Z 08012KT 10SM BKN016 OVC022 21/16 A3009 RMK AO2 T02060156=
202205131452 METAR KATL 131452Z 08013KT 10SM BKN014 BKN022 BKN050 21/16 A3009 RMK AO2 SLP182 T02060156 51008=
202205131352 METAR KATL 131352Z 09012KT 9SM BKN013 OVC026 19/16 A3009 RMK AO2 SLP182 T01940156=
202205131252 METAR KATL 131252Z 08011KT 10SM BKN014 OVC020 19/16 A3008 RMK AO2 SLP178 BINOVC T01940156=
202205131152 METAR KATL 131152Z 07013G19KT 10SM BKN013 OVC020 19/16 A3006 RMK AO2 SLP171 T01940156 10211 20183 53009=
202205131101 SPECI KATL 131101Z 08011KT 10SM BKN014 BKN022 19/16 A3006 RMK AO2 T01890156=
202205131052 METAR KATL 131052Z 06013KT 10SM SCT014 BKN020 19/16 A3005 RMK AO2 SLP167 T01890156=
202205130952 METAR KATL 130952Z 08009KT 7SM BKN018 BKN023 BKN033 18/16 A3004 RMK AO2 SLP164 T01830156=
202205130852 METAR KATL 130852Z 07009KT 10SM SCT020 BKN026 20/14 A3004 RMK AO2 SLP162 T02000144 51002=
202205130847 SPECI KATL 130847Z 07010KT 10SM SCT020 BKN026 20/15 A3004 RMK AO2=
202205130752 METAR KATL 130752Z 08008KT 10SM SCT024 BKN033 19/15 A3003 RMK AO2 SLP160 SCT024 V BKN T01940150=
202205130652 METAR KATL 130652Z 09009KT 10SM FEW033 BKN045 20/14 A3003 RMK AO2 SLP159 T02000144=
202205130552 METAR KATL 130552Z 09012KT 10SM SCT033 BKN046 21/14 A3005 RMK AO2 SLP165 T02110144 10272 20211 58002=
202205130452 METAR KATL 130452Z 10009KT 10SM SCT040 SCT250 21/13 A3006 RMK AO2 SLP171 T02110133 402940178=
202205130352 METAR KATL 130352Z 07010KT 10SM FEW050 FEW250 22/13 A3006 RMK AO2 SLP170 T02220133=
202205130252 METAR KATL 130252Z 09010KT 10SM FEW070 FEW250 23/13 A3005 RMK AO2 SLP167 T02280128 53018=
202205130152 METAR KATL 130152Z 09007KT 10SM FEW070 FEW250 24/13 A3004 RMK AO2 SLP163 T02390128=
202205130052 METAR KATL 130052Z 09010KT 10SM FEW250 25/12 A3001 RMK AO2 SLP154 T02500122=
202205122352 METAR KATL 122352Z 09011KT 10SM FEW070 27/12 A3000 RMK AO2 SLP148 T02720117 10294 20272 55005=
202205122252 METAR KATL 122252Z 06013G19KT 10SM FEW070 28/12 A3000 RMK AO2 SLP148 T02780117=
202205122152 METAR KATL 122152Z 08009KT 10SM SCT070 28/12 A3000 RMK AO2 SLP151 T02830117=
202205122052 METAR KATL 122052Z 08008KT 10SM SCT070 28/11 A3001 RMK AO2 SLP154 T02830111 56022=
202205121952 METAR KATL 121952Z 08010KT 10SM SCT065 29/12 A3003 RMK AO2 SLP160 T02940117=
202205121852 METAR KATL 121852Z 09005KT 10SM SCT060 28/12 A3005 RMK AO2 SLP168 T02780122=
202205121752 METAR KATL 121752Z 02011G17KT 10SM FEW060 28/13 A3008 RMK AO2 SLP176 T02780128 10278 20189 58018=
202205121652 METAR KATL 121652Z 05009KT 10SM FEW055 26/12 A3010 RMK AO2 SLP184 T02610122=
202205121552 METAR KATL 121552Z 07005G14KT 10SM FEW048 25/13 A3012 RMK AO2 SLP191 T02500128=
202205121452 METAR KATL 121452Z 06013G20KT 10SM CLR 24/13 A3014 RMK AO2 SLP196 T02390128 58005=
202205121352 METAR KATL 121352Z 07012G19KT 10SM CLR 22/12 A3015 RMK AO2 SLP199 T02170122=
202205121252 METAR KATL 121252Z 07013G20KT 10SM CLR 20/10 A3015 RMK AO2 SLP203 T02000100=
202205121152 METAR KATL 121152Z 08010KT 10SM CLR 19/09 A3015 RMK AO2 SLP201 T01890094 10222 20178 51014=
202205121052 METAR KATL 121052Z 06011KT 10SM FEW065 18/10 A3014 RMK AO2 SLP197 T01830100=
202205120952 METAR KATL 120952Z 08007KT 10SM CLR 18/11 A3012 RMK AO2 SLP191 T01830106=
202205120852 METAR KATL 120852Z 08006KT 10SM SCT065 18/12 A3011 RMK AO2 SLP187 T01830117 56003=
202205120752 METAR KATL 120752Z 08007KT 10SM SCT065 20/12 A3011 RMK AO2 SLP187 T02000122=
202205120652 METAR KATL 120652Z 08005KT 10SM FEW060 SCT075 20/13 A3011 RMK AO2 SLP188 T02000133=
202205120552 METAR KATL 120552Z 10004KT 10SM FEW050 SCT250 22/13 A3012 RMK AO2 SLP190 T02220128 10278 20222 50003=
202205120452 METAR KATL 120452Z 12003KT 10SM FEW060 FEW250 23/14 A3013 RMK AO2 SLP192 T02280139 402890156=
202205120352 METAR KATL 120352Z 13004KT 10SM SCT045 BKN065 BKN250 24/14 A3012 RMK AO2 SLP191 T02390139=
202205120252 METAR KATL 120252Z 15006KT 10SM BKN065 BKN250 24/16 A3011 RMK AO2 SLP187 T02440156 53014=
202205120152 METAR KATL 120152Z 00000KT 10SM SCT060 SCT250 25/16 A3008 RMK AO2 SLP179 T02500161=
202205120052 METAR KATL 120052Z 31005KT 10SM FEW065 FEW250 26/16 A3008 RMK AO2 SLP177 T02560156=
202205112352 METAR KATL 112352Z 34008KT 10SM FEW065 FEW250 28/15 A3007 RMK AO2 SLP174 T02780150 10289 20261 56010=
202205112252 METAR KATL 112252Z 32007G17KT 10SM FEW065 28/14 A3008 RMK AO2 SLP177 T02830144=
202205112152 METAR KATL 112152Z 32010G18KT 10SM FEW065 28/14 A3009 RMK AO2 SLP181 T02830139=
202205112052 METAR KATL 112052Z 34004KT 10SM FEW065 29/13 A3010 RMK AO2 SLP184 T02890133 56029=
202205111952 METAR KATL 111952Z 32010KT 10SM FEW060 28/13 A3012 RMK AO2 SLP192 T02830128=
202205111852 METAR KATL 111852Z VRB04KT 10SM CLR 27/11 A3016 RMK AO2 SLP204 T02670111=
202205111752 METAR KATL 111752Z VRB03KT 10SM CLR 26/10 A3019 RMK AO2 SLP216 T02610100 10261 20172 58025=
202205111652 METAR KATL 111652Z 01006KT 10SM CLR 25/09 A3022 RMK AO2 SLP227 T02500089=
202205111552 METAR KATL 111552Z VRB03KT 10SM FEW065 22/07 A3026 RMK AO2 SLP239 T02220072=
202205111452 METAR KATL 111452Z 09006KT 10SM FEW070 22/08 A3027 RMK AO2 SLP242 T02170083 50003=
202205111352 METAR KATL 111352Z 10007KT 10SM FEW070 20/10 A3028 RMK AO2 SLP246 T02000100=
202205111252 METAR KATL 111252Z 10008KT 10SM FEW055 SCT250 18/09 A3028 RMK AO2 SLP247 T01830089=
202205111152 METAR KATL 111152Z 08009KT 10SM FEW065 FEW200 17/08 A3026 RMK AO2 SLP239 T01720083 10200 20156 53027=
202205111052 METAR KATL 111052Z 08007KT 10SM CLR 16/09 A3023 RMK AO2 SLP228 T01560089=
202205110952 METAR KATL 110952Z 07008KT 10SM CLR 17/09 A3020 RMK AO2 SLP219 T01720094=
202205110852 METAR KATL 110852Z 08006KT 10SM CLR 17/11 A3018 RMK AO2 SLP210 T01720106 53001=
202205110752 METAR KATL 110752Z 09007KT 10SM CLR 18/11 A3016 RMK AO2 SLP206 T01780111=
202205110652 METAR KATL 110652Z 00000KT 10SM CLR 19/11 A3016 RMK AO2 SLP205 T01890111=
202205110552 METAR KATL 110552Z 00000KT 10SM CLR 19/11 A3017 RMK AO2 SLP211 T01890111 10256 20183 58004=
202205110452 METAR KATL 110452Z 00000KT 10SM CLR 20/11 A3019 RMK AO2 SLP215 T02000106 402780139=
202205110352 METAR KATL 110352Z 01004KT 10SM CLR 23/09 A3019 RMK AO2 SLP215 T02280094=
202205110252 METAR KATL 110252Z 30004KT 10SM FEW250 22/09 A3019 RMK AO2 SLP215 T02170094 53010=
202205110152 METAR KATL 110152Z 31004KT 10SM FEW250 23/09 A3017 RMK AO2 SLP209 T02280089=
202205110052 METAR KATL 110052Z 29005KT 10SM SCT250 24/08 A3016 RMK AO2 SLP207 T02390078=
202205102352 METAR KATL 102352Z 29007KT 10SM BKN250 26/08 A3015 RMK AO2 SLP205 T02560078 10278 20244 56008=
202205102252 METAR KATL 102252Z 35005KT 10SM SCT250 27/07 A3016 RMK AO2 SLP207 T02670072=
202205102152 METAR KATL 102152Z 33005KT 10SM FEW002 BKN250 27/07 A3017 RMK AO2 SLP210 FU PLUME E T02720067=
202205102052 METAR KATL 102052Z 01007KT 10SM FEW002 SCT250 27/07 A3018 RMK AO2 SLP213 FU FEW002 FU PLUME E T02720067 56027=
202205102047 SPECI KATL 102047Z 36009KT 10SM FEW003 SCT250 27/07 A3018 RMK AO2 FU FEW003 FU PLUME E=
202205101952 METAR KATL 101952Z 30006KT 10SM FEW250 27/07 A3020 RMK AO2 SLP222 T02670067=
202205101852 METAR KATL 101852Z 13005KT 10SM FEW250 25/06 A3024 RMK AO2 SLP233 T02500061=
202205101752 METAR KATL 101752Z 08005KT 10SM CLR 24/06 A3026 RMK AO2 SLP242 T02440056 10244 20150 58016=
202205101652 METAR KATL 101652Z 10006KT 10SM CLR 23/05 A3029 RMK AO2 SLP251 T02330050=
202205101552 METAR KATL 101552Z 08008KT 10SM CLR 22/04 A3031 RMK AO2 SLP257 T02170039=
202205101452 METAR KATL 101452Z 10011KT 10SM CLR 21/02 A3031 RMK AO2 SLP260 T02060022 51018=
202205101352 METAR KATL 101352Z 09011KT 10SM CLR 19/07 A3030 RMK AO2 SLP256 T01940072=
202205101252 METAR KATL 101252Z 09007KT 10SM CLR 17/09 A3028 RMK AO2 SLP251 T01670094=
202205101152 METAR KATL 101152Z 08009KT 10SM CLR 15/09 A3026 RMK AO2 SLP241 T01500094 10156 20139 53025=
202205101052 METAR KATL 101052Z 06009KT 10SM CLR 14/09 A3022 RMK AO2 SLP230 T01440094=
202205100952 METAR KATL 100952Z 09004KT 10SM CLR 14/10 A3019 RMK AO2 SLP220 T01440100=
202205100852 METAR KATL 100852Z 09003KT 10SM CLR 14/10 A3018 RMK AO2 SLP215 T01440100 53002=
202205100752 METAR KATL 100752Z 09003KT 10SM CLR 14/11 A3017 RMK AO2 SLP212 T01440106=
202205100652 METAR KATL 100652Z 09004KT 10SM CLR 15/11 A3017 RMK AO2 SLP210 T01500111=
202205100552 METAR KATL 100552Z 09004KT 10SM CLR 15/11 A3018 RMK AO2 SLP215 T01500111 10211 20150 50001=
202205100452 METAR KATL 100452Z 00000KT 10SM CLR 16/12 A3018 RMK AO2 SLP216 T01610117 402280117=
202205100352 METAR KATL 100352Z 14003KT 10SM CLR 17/12 A3018 RMK AO2 SLP216 T01670117=
202205100252 METAR KATL 100252Z 00000KT 10SM FEW250 17/12 A3017 RMK AO2 SLP215 T01720117 53018=
202205100152 METAR KATL 100152Z 14003KT 9SM FEW250 19/11 A3016 RMK AO2 SLP209 T01890111=
202205100052 METAR KATL 100052Z 12005KT 10SM FEW250 20/11 A3014 RMK AO2 SLP202 T02000106=
202205092352 METAR KATL 092352Z 10005KT 10SM FEW250 21/11 A3012 RMK AO2 SLP197 T02110106 10228 20200 50001=
202205092252 METAR KATL 092252Z 06008KT 10SM FEW250 22/10 A3013 RMK AO2 SLP197 T02220100=
202205092152 METAR KATL 092152Z 07004KT 10SM FEW250 SCT300 22/11 A3012 RMK AO2 SLP196 T02220106=
202205092052 METAR KATL 092052Z 06007KT 10SM FEW250 SCT300 22/10 A3012 RMK AO2 SLP195 T02220100 58013=
202205091952 METAR KATL 091952Z 13006KT 10SM FEW250 22/11 A3013 RMK AO2 SLP198 T02220106=
202205091852 METAR KATL 091852Z 06006KT 10SM FEW060 SCT250 22/10 A3015 RMK AO2 SLP204 T02170100=
202205091752 METAR KATL 091752Z 09007KT 10SM FEW055 FEW250 20/09 A3016 RMK AO2 SLP208 T02000094 10200 20117 58012=
202205091652 METAR KATL 091652Z 08006KT 10SM FEW046 FEW250 18/09 A3017 RMK AO2 SLP214 T01830089=
202205091552 METAR KATL 091552Z 11008KT 10SM FEW032 18/09 A3019 RMK AO2 SLP218 T01780089=
202205091452 METAR KATL 091452Z 08010KT 10SM SCT028 16/08 A3019 RMK AO2 SLP222 T01560083 51017=
202205091352 METAR KATL 091352Z 10012KT 10SM FEW026 FEW250 14/08 A3018 RMK AO2 SLP218 T01440078=
202205091252 METAR KATL 091252Z 08015G25KT 10SM FEW018 FEW200 FEW250 13/07 A3016 RMK AO2 SLP213 T01280072=
202205091152 METAR KATL 091152Z 10010G17KT 10SM FEW200 FEW250 12/07 A3014 RMK AO2 SLP205 T01170072 10150 20117 53024=
202205091052 METAR KATL 091052Z 09009KT 10SM FEW040 FEW250 12/08 A3011 RMK AO2 SLP192 T01170083=
202205090952 METAR KATL 090952Z 11008KT 10SM FEW040 FEW250 12/08 A3009 RMK AO2 SLP185 T01220083=
202205090852 METAR KATL 090852Z 11008KT 10SM FEW040 13/09 A3007 RMK AO2 SLP179 T01280089 53009=
202205090752 METAR KATL 090752Z 11010G18KT 10SM BKN041 14/09 A3005 RMK AO2 SLP172 T01440094=
202205090652 METAR KATL 090652Z 09009KT 10SM FEW030 14/11 A3004 RMK AO2 SLP168 T01390111=
202205090552 METAR KATL 090552Z 11006KT 10SM FEW030 15/11 A3004 RMK AO2 SLP170 T01500111 10194 20150 51008=
202205090452 METAR KATL 090452Z 11006KT 10SM FEW035 FEW250 16/11 A3004 RMK AO2 SLP169 T01560111 402060122=
202205090352 METAR KATL 090352Z 12007KT 10SM FEW040 FEW250 16/12 A3002 RMK AO2 SLP165 T01610122=
202205090252 METAR KATL 090252Z 12006KT 10SM FEW050 SCT250 17/13 A3002 RMK AO2 SLP161 T01720128 53022=
202205090152 METAR KATL 090152Z 15004KT 10SM FEW055 SCT250 17/13 A2999 RMK AO2 SLP150 T01720128=
202205090052 METAR KATL 090052Z 16004KT 10SM FEW035 FEW055 SCT250 18/13 A2997 RMK AO2 SLP145 T01780128=
202205082352 METAR KATL 082352Z 15004KT 10SM SCT033 SCT050 BKN250 19/13 A2995 RMK AO2 SLP139 T01940128 10206 20172 53011=
202205082252 METAR KATL 082252Z 22004KT 10SM FEW035 BKN045 BKN250 21/13 A2994 RMK AO2 SLP134 MDT CU ALQDS T02060128=
202205082152 METAR KATL 082152Z 18005KT 10SM SCT033 BKN047 BKN250 20/12 A2993 RMK AO2 SLP131 MDT CU OHD AND ALQDS T02000122=
202205082052 METAR KATL 082052Z VRB04KT 10SM SCT032 BKN047 20/12 A2992 RMK AO2 SLP127 MDT CU ALQDS T02000122 58007=
202205081952 METAR KATL 081952Z 12005KT 10SM SCT030 BKN046 20/12 A2993 RMK AO2 SLP130 MDT CU DSNT E-SE T02000122=
202205081923 SPECI KATL 081923Z 20003KT 10SM SCT027 BKN032 BKN045 19/12 A2993 RMK AO2 T01890117=
202205081852 METAR KATL 081852Z 00000KT 10SM BKN022 BKN046 19/12 A2994 RMK AO2 SLP134 T01890122=
202205081752 METAR KATL 081752Z 08004KT 10SM BKN017 OVC032 17/12 A2994 RMK AO2 DZE15 SLP135 BINOVC P0000 60000 T01720117 10172 20128 50002=
202205081715 SPECI KATL 081715Z 09007KT 10SM BKN015 OVC025 16/12 A2994 RMK AO2 DZE15 P0000 T01610122=
202205081652 METAR KATL 081652Z 06009G17KT 10SM -DZ FEW008 BKN011 OVC020 16/12 A2994 RMK AO2 SLP137 P0000 T01560122=
202205081616 SPECI KATL 081616Z 08009KT 9SM -DZ SCT008 OVC012 15/13 A2995 RMK AO2 P0000 T01500128=
202205081552 METAR KATL 081552Z 07008KT 3SM -DZ BR OVC007 15/13 A2995 RMK AO2 SLP139 P0000 T01500128=
202205081452 METAR KATL 081452Z 09009KT 7SM -DZ OVC009 15/12 A2993 RMK AO2 DZB50 SLP134 P0000 60000 T01500122 51022=
202205081417 SPECI KATL 081417Z 09011KT 7SM OVC009 15/12 A2992 RMK AO2 T01500117=
202205081352 METAR KATL 081352Z 10009KT 7SM OVC010 15/12 A2991 RMK AO2 SLP126 T01500117=
202205081252 METAR KATL 081252Z 07008KT 10SM BKN014 OVC021 14/11 A2989 RMK AO2 SLP119 CIG 012V016 BINOVC T01440111=
202205081236 SPECI KATL 081236Z 03008KT 10SM BKN014 BKN021 14/11 A2989 RMK AO2 CIG 012V016 T01390106=
202205081229 SPECI KATL 081229Z 03008KT 10SM BKN019 14/11 A2988 RMK AO2 T01390106=
202205081203 SPECI KATL 081203Z 35006KT 10SM FEW006 13/11 A2987 RMK AO2 T01280106=
202205081152 METAR KATL 081152Z 35006KT 10SM BKN005 13/11 A2987 RMK AO2 SLP111 BKN005 V SCT T01280106 10144 20122 53020=
202205081132 SPECI KATL 081132Z 35007KT 10SM BKN005 12/11 A2986 RMK AO2 BKN005 V SCT T01220106=
202205081052 METAR KATL 081052Z 32008KT 10SM FEW009 12/10 A2985 RMK AO2 SLP104 T01220100=
202205081048 SPECI KATL 081048Z 32008KT 10SM FEW009 12/10 A2984 RMK AO2=
202205080952 METAR KATL 080952Z 31007KT 10SM CLR 12/10 A2982 RMK AO2 SLP096 T01220100=
202205080852 METAR KATL 080852Z 34007KT 10SM CLR 13/10 A2981 RMK AO2 SLP089 T01280100 56005=
202205080752 METAR KATL 080752Z 31007KT 10SM FEW020 13/11 A2981 RMK AO2 SLP091 T01330106=
202205080652 METAR KATL 080652Z 31010KT 10SM FEW020 14/11 A2981 RMK AO2 SLP090 T01390106=
202205080552 METAR KATL 080552Z 32009KT 10SM FEW020 14/11 A2982 RMK AO2 SLP094 T01440106 10178 20144 56003=
202205080510 SPECI KATL 080510Z 32008KT 10SM SCT020 15/11 A2983 RMK AO2 SCT020 V BKN T01500106=
202205080452 METAR KATL 080452Z 35010KT 10SM BKN020 BKN030 16/11 A2982 RMK AO2 SLP096 T01560106 402060156=
202205080407 SPECI KATL 080407Z 33007KT 10SM BKN020 BKN035 16/11 A2983 RMK AO2 BKN020 V SCT T01560111=
202205080352 METAR KATL 080352Z 34007KT 10SM SCT022 BKN034 16/11 A2982 RMK AO2 SLP095 T01560106=
202205080350 SPECI KATL 080350Z 34010KT 10SM SCT022 BKN034 16/11 A2982 RMK AO2=
202205080252 METAR KATL 080252Z 30009KT 10SM BKN023 BKN040 16/11 A2983 RMK AO2 SLP097 T01610111 51015=
202205080152 METAR KATL 080152Z 31011KT 10SM SCT025 BKN042 17/11 A2982 RMK AO2 SLP092 T01670111=
202205080052 METAR KATL 080052Z 31011KT 10SM FEW030 SCT037 BKN042 17/11 A2980 RMK AO2 SLP087 T01720111=
202205072352 METAR KATL 072352Z 30013KT 10SM FEW027 SCT035 OVC044 18/12 A2978 RMK AO2 SLP081 BINOVC T01780117 10206 20178 51009=
202205072252 METAR KATL 072252Z 31011KT 10SM SCT035 OVC042 18/11 A2978 RMK AO2 SLP079 BINOVC T01830111=
202205072152 METAR KATL 072152Z 29016KT 10SM SCT035 BKN040 19/12 A2976 RMK AO2 SLP074 T01890117=
202205072052 METAR KATL 072052Z 27013G20KT 10SM SCT034 BKN042 19/12 A2975 RMK AO2 SLP070 T01890117 58004=
202205071952 METAR KATL 071952Z 28010G19KT 10SM BKN032 BKN041 19/11 A2977 RMK AO2 SLP074 MDT CU DSNT NE T01940111=
202205071852 METAR KATL 071852Z 31015G25KT 10SM BKN032 BKN045 19/11 A2976 RMK AO2 PK WND 29026/1756 SLP073 MDT CU DSNT W T01940106=
202205071752 METAR KATL 071752Z 28015KT 10SM SCT027 BKN034 BKN046 18/11 A2977 RMK AO2 PK WND 27026/1721 SLP074 MDT CU DSNT E AND W T01830111 10189 20156 50002=
202205071740 SPECI KATL 071740Z 28013G20KT 10SM SCT027 BKN034 BKN046 19/12 A2977 RMK AO2 PK WND 27026/1721 T01890117=
202205071652 METAR KATL 071652Z 27013KT 10SM BKN026 OVC042 17/11 A2978 RMK AO2 SLP077 T01720111=
202205071552 METAR KATL 071552Z 27013KT 10SM BKN027 OVC035 17/11 A2977 RMK AO2 SLP075 T01670106=
202205071452 METAR KATL 071452Z 28012G19KT 10SM BKN026 OVC033 17/10 A2976 RMK AO2 SLP072 BINOVC T01720100 51011=
202205071352 METAR KATL 071352Z 29016G25KT 10SM BKN023 BKN036 17/11 A2975 RMK AO2 SLP068 BKN023 V SCT T01720106=
202205071252 METAR KATL 071252Z 29011G23KT 10SM BKN024 BKN055 16/11 A2974 RMK AO2 SLP064 T01560106=
202205071233 SPECI KATL 071233Z 29014G20KT 10SM BKN024 BKN055 16/11 A2973 RMK AO2 T01610111=
202205071152 METAR KATL 071152Z 28011KT 10SM FEW025 SCT042 BKN055 16/11 A2973 RMK AO2 PK WND 29026/1059 SLP059 70015 T01560106 10183 20156 53010=
202205071052 METAR KATL 071052Z 29016G27KT 10SM FEW025 SCT042 BKN050 16/10 A2971 RMK AO2 PK WND 29029/1004 SLP052 T01560100=
202205070952 METAR KATL 070952Z 29018G25KT 10SM FEW018 SCT050 16/11 A2969 RMK AO2 SLP046 T01610106=
202205070852 METAR KATL 070852Z 28009KT 10SM FEW016 SCT050 17/13 A2970 RMK AO2 SLP048 T01670128 56006=
202205070752 METAR KATL 070752Z 30014G22KT 10SM SCT016 BKN048 17/13 A2970 RMK AO2 SLP049 T01720128=
202205070652 METAR KATL 070652Z 29011G21KT 10SM FEW020 BKN032 BKN043 18/13 A2970 RMK AO2 SLP048 T01780133=
202205070552 METAR KATL 070552Z 28011KT 10SM FEW035 SCT085 18/12 A2971 RMK AO2 SLP053 T01830117 10233 20183 58009=
202205070452 METAR KATL 070452Z 26009KT 10SM FEW070 SCT090 19/11 A2973 RMK AO2 SLP059 T01940111 402670194=
202205070352 METAR KATL 070352Z 27008KT 10SM BKN050 BKN075 20/11 A2974 RMK AO2 SLP061 T02000111=
202205070252 METAR KATL 070252Z 26009KT 10SM FEW055 BKN075 20/11 A2974 RMK AO2 SLP064 T02000106 51014=
202205070152 METAR KATL 070152Z 26011KT 10SM FEW055 BKN075 21/11 A2974 RMK AO2 SLP063 T02060106=
202205070052 METAR KATL 070052Z 28010G27KT 10SM FEW060 SCT090 22/10 A2972 RMK AO2 PK WND 28027/0043 SLP057 T02170100=
202205062352 METAR KATL 062352Z 27015G23KT 10SM FEW060 SCT090 23/11 A2970 RMK AO2 PK WND 28034/2259 SLP048 MDT CU NE-E T02330111 10267 20233 53009=
202205062252 METAR KATL 062252Z 26018G24KT 10SM SCT060 BKN080 24/11 A2969 RMK AO2 PK WND 27030/2236 SLP044 MDT CU OHD-ALQDS T02440106=
202205062152 METAR KATL 062152Z 25011G26KT 10SM SCT060 SCT090 26/11 A2968 RMK AO2 PK WND 26031/2053 SLP040 MDT CU ALQDS T02610111=
202205062052 METAR KATL 062052Z 24022G34KT 10SM SCT055 SCT090 26/12 A2967 RMK AO2 PK WND 22034/2051 SLP038 MDT CU ALQDS T02610117 55014=
202205061952 METAR KATL 061952Z 24019G35KT 10SM SCT060 SCT250 26/12 A2967 RMK AO2 PK WND 25037/1931 SLP037 TCU DSNT W MDT CU ALQDS T02610117=
202205061852 METAR KATL 061852Z 22016G34KT 10SM SCT050 SCT200 27/13 A2969 RMK AO2 PK WND 22040/1836 SLP042 CB DSNT E TCU DSNT SE NW T02670133=
202205061752 METAR KATL 061752Z 23014G30KT 10SM SCT032TCU BKN046 26/17 A2972 RMK AO2 PK WND 22030/1726 SLP053 CB DSNT N TCU ALQDS 60015 T02560167 10256 20206 58031=
202205061652 METAR KATL 061652Z 22015G26KT 10SM SCT025 BKN032 BKN200 24/19 A2974 RMK AO2 PK WND 20026/1643 PRESFR SLP062 CB DSNT N TCU DSNT ALQDS T02440189=
202205061632 SPECI KATL 061632Z 22013G20KT 180V240 10SM SCT025 BKN044 BKN200 24/18 A2977 RMK AO2 CB DSNT NW TCU DSNT W T02390183=
202205061552 METAR KATL 061552Z 22013G21KT 10SM SCT017 BKN025 BKN200 23/18 A2979 RMK AO2 SLP078 T02280183=
202205061537 SPECI KATL 061537Z 20014G23KT 10SM SCT016 BKN023 BKN095 BKN200 23/19 A2980 RMK AO2 T02280194=
202205061452 METAR KATL 061452Z 19007KT 9SM FEW008 SCT095 BKN200 22/20 A2981 RMK AO2 RAE1357 SLP085 CB DSNT W P0000 60015 T02170200 58012=
202205061410 SPECI KATL 061410Z 16003KT 8SM FEW009 SCT040 BKN095 OVC200 21/20 A2981 RMK AO2 RAE1357 PRESFR P0000 T02110200=
202205061352 METAR KATL 061352Z 18006KT 7SM -RA BKN009 BKN013 OVC037 21/19 A2984 RMK AO2 LTG DSNT NE RAB1257 TSB14E33 SLP093 TS MOV NE CB DSNT NE P0015 T02110194=
202205061333 SPECI KATL 061333Z 20006KT 4SM RA BR FEW007 BKN012CB OVC050 21/19 A2985 RMK AO2 LTG DSNT N AND E RAB1257 TSB14E33 TS MOV NE CB DSNT NE P0015 T02110194=
202205061324 SPECI KATL 061324Z 20008KT 5SM -TSRA BR SCT007 OVC013CB 21/19 A2985 RMK AO2 LTG DSNT N RAB1257 TSB14 OCNL LTGICCG OHD-NE TS OHD-NE MOV NE P0013 T02110194=
202205061314 SPECI KATL 061314Z 19010KT 1SM R09R/P6000FT +TSRA BR BKN007 OVC015CB 21/19 A2987 RMK AO2 LTG DSNT N AND SW RAB1257 TSB14 OCNL LTGICCG OHD-S TS OHD-S MOV NE P0002 T02110194=
202205061306 SPECI KATL 061306Z 21007KT 3SM RA BR BKN009 OVC034CB 21/19 A2985 RMK AO2 LTG DSNT SW-NW RAB1257 CB N-OHD-S MOV NE P0000 T02110194=
202205061252 METAR KATL 061252Z 21010G19KT 10SM BKN010 OVC015 22/19 A2986 RMK AO2 LTG DSNT W SLP100 CB DSNT W T02170189=
202205061152 METAR KATL 061152Z 21010KT 10SM BKN011 OVC020 21/18 A2985 RMK AO2 SLP098 T02060183 10228 20200 50005=
202205061145 SPECI KATL 061145Z 22009KT 10SM BKN011 OVC020 21/18 A2985 RMK AO2 T02060183=
202205061052 METAR KATL 061052Z 21008KT 10SM FEW110 BKN180 BKN250 20/18 A2985 RMK AO2 SLP097 T02000178=
202205060952 METAR KATL 060952Z 20008KT 10SM BKN180 BKN230 21/18 A2985 RMK AO2 SLP096 T02060178=
202205060852 METAR KATL 060852Z 19005KT 10SM BKN180 BKN250 21/17 A2983 RMK AO2 SLP092 T02060172 56029=
202205060752 METAR KATL 060752Z 19004KT 10SM SCT180 BKN250 22/17 A2987 RMK AO2 SLP102 T02170172=
202205060652 METAR KATL 060652Z 22006KT 10SM FEW050 SCT180 OVC230 23/17 A2988 RMK AO2 SLP108 T02280172=
202205060552 METAR KATL 060552Z 22006KT 10SM FEW050 SCT180 BKN250 23/18 A2992 RMK AO2 SLP121 T02280178 10283 20228 58005=
202205060452 METAR KATL 060452Z 22005KT 10SM FEW050 BKN180 BKN250 23/18 A2994 RMK AO2 SLP126 T02330183 403060194=
202205060352 METAR KATL 060352Z 22004KT 10SM FEW055 SCT200 BKN250 24/18 A2995 RMK AO2 SLP133 T02390183=
202205060252 METAR KATL 060252Z 22004KT 10SM FEW055 BKN200 BKN250 25/18 A2994 RMK AO2 SLP127 T02500183 53001=
202205060152 METAR KATL 060152Z 20005KT 10SM FEW055 BKN200 BKN250 26/18 A2991 RMK AO2 SLP119 T02560178=
202205060052 METAR KATL 060052Z 19004KT 10SM FEW055 BKN200 BKN250 27/18 A2993 RMK AO2 SLP124 MDT CU W-NW T02670178=
202205052352 METAR KATL 052352Z 20005KT 10SM FEW055 BKN200 BKN250 28/17 A2993 RMK AO2 SLP127 MDT CU N-NE T02830172 10306 20283 57006=
202205052252 METAR KATL 052252Z 22007KT 10SM FEW055 SCT200 BKN250 29/16 A2994 RMK AO2 SLP128 MDT CU N-NE T02940161=
202205052152 METAR KATL 052152Z 23006KT 10SM FEW060 SCT200 BKN250 30/16 A2995 RMK AO2 SLP130 TCU DSNT NE-E T03000161=
202205052052 METAR KATL 052052Z 23012G17KT 10SM FEW060TCU SCT200 SCT250 BKN300 31/16 A2995 RMK AO2 SLP132 TCU SE S DSNT NE-SE MDT CU N-E-S T03060156 56022=
202205051952 METAR KATL 051952Z 22010KT 10SM SCT050 SCT200 BKN250 BKN300 30/17 A2997 RMK AO2 SLP137 TCU DSNT N MDT CU ALQDS T03000172=
202205051852 METAR KATL 051852Z 24009KT 10SM SCT046 SCT200 SCT250 BKN300 29/17 A2999 RMK AO2 SLP145 MDT CU ALQDS T02940172=
202205051752 METAR KATL 051752Z 25006KT 10SM SCT040 SCT250 BKN300 29/18 A3002 RMK AO2 SLP155 TCU DSNT NW MDT CU ALQDS T02890183 10289 20206 58014=
202205051652 METAR KATL 051652Z 22008KT 10SM FEW038TCU SCT250 BKN300 28/18 A3004 RMK AO2 SLP163 TCU SW T02830183=
202205051552 METAR KATL 051552Z 25006KT 10SM FEW032 SCT250 SCT300 27/18 A3006 RMK AO2 SLP171 T02720183=
202205051452 METAR KATL 051452Z 00000KT 10SM FEW200 SCT250 BKN300 26/16 A3006 RMK AO2 SLP170 T02560161 50002=
202205051352 METAR KATL 051352Z 00000KT 10SM FEW200 SCT250 BKN300 24/16 A3007 RMK AO2 SLP172 T02390161=
202205051252 METAR KATL 051252Z 32005KT 10SM BKN250 BKN300 22/16 A3007 RMK AO2 SLP173 T02170161=
202205051152 METAR KATL 051152Z 00000KT 10SM BKN250 BKN300 21/17 A3006 RMK AO2 SLP169 T02060167 10222 20194 53010=
202205051052 METAR KATL 051052Z 33007KT 10SM FEW200 BKN250 20/17 A3004 RMK AO2 SLP164 T02000167=
202205050952 METAR KATL 050952Z 00000KT 10SM SCT250 20/17 A3002 RMK AO2 SLP158 T02000172=
202205050852 METAR KATL 050852Z 34004KT 10SM SCT250 21/17 A3002 RMK AO2 SLP158 T02060172 56003=
202205050752 METAR KATL 050752Z VRB04KT 10SM FEW200 SCT250 22/17 A3003 RMK AO2 SLP158 T02170172=
202205050652 METAR KATL 050652Z 33007KT 10SM FEW200 SCT250 21/18 A3002 RMK AO2 SLP157 T02110178=
202205050552 METAR KATL 050552Z 35008KT 10SM FEW200 BKN250 22/19 A3003 RMK AO2 SLP160 T02220189 10267 20222 58011=
202205050452 METAR KATL 050452Z 33006KT 10SM FEW200 BKN250 22/19 A3005 RMK AO2 SLP166 T02220189 403060178=
202205050352 METAR KATL 050352Z 31005KT 10SM FEW110 SCT200 BKN250 23/19 A3006 RMK AO2 SLP171 T02280189=
202205050252 METAR KATL 050252Z 32004KT 10SM FEW040TCU BKN110 BKN200 24/18 A3007 RMK AO2 SLP173 TCU SE T02390183 51018=
202205050152 METAR KATL 050152Z 29004KT 10SM FEW040TCU SCT100 BKN200 BKN250 25/19 A3005 RMK AO2 SLP168 TCU W-N T02500189=
202205050052 METAR KATL 050052Z 32005KT 10SM FEW040 SCT055 BKN200 BKN250 26/18 A3004 RMK AO2 SLP162 CB DSNT NW T02560183=
202205042352 METAR KATL 042352Z 30006KT 10SM FEW040 SCT200 BKN250 26/18 A3001 RMK AO2 SLP156 CB DSNT NW T02610183 10306 20261 51001=
202205042252 METAR KATL 042252Z 29008KT 10SM FEW045 SCT200 BKN250 27/18 A3001 RMK AO2 SLP154 TCU DSNT N SE T02720178=
202205042152 METAR KATL 042152Z 35010KT 10SM FEW045TCU SCT100 BKN150 BKN200 28/18 A3002 RMK AO2 SLP156 TSE51 LTG DSNT NE-E TS MOVD SE CB DSNT NE-E TCU SW-W T02780183=
202205042052 METAR KATL 042052Z 24010KT 10SM VCTS FEW048CB FEW080 SCT130 BKN200 28/17 A3001 RMK AO2 SLP153 TSB48 OCNL LTGICCGCA VC NW-N TS VC NW-N MOV SE T02780172 57015=
202205042049 SPECI KATL 042049Z 26011KT 10SM VCTS FEW048CB FEW085 SCT120 BKN200 28/17 A3001 RMK AO2 TSB48 OCNL LTGICCGCA VC NW-N TS VC NW-N MOV SE=
202205041952 METAR KATL 041952Z 28008G15KT 10SM FEW050 SCT100 BKN200 BKN250 29/18 A3003 RMK AO2 SLP159 CB DSNT E SW NW TCU N S-SW DSNT ALQDS T02890178=
202205041852 METAR KATL 041852Z 25009G16KT 10SM FEW040 FEW085 SCT200 SCT250 29/18 A3004 RMK AO2 TSB15E35 SLP163 TS DSIPTD CB DSNT NE SW TCU DSNT ALQDS T02940183=
202205041835 SPECI KATL 041835Z 27009KT 10SM FEW036TCU SCT070 SCT110 SCT200 29/19 A3004 RMK AO2 TSB15E35 TS DSIPTD TCU N NE MDT CU ALQDS SHRA NE T02940189=
202205041815 SPECI KATL 041815Z 29009KT 10SM TS SCT034CB BKN070 BKN110 BKN200 28/19 A3005 RMK AO2 TSB15 OCNL LTGICCG NE TS NE MOV SE T02830189=
202205041752 METAR KATL 041752Z 29009KT 10SM BKN034TCU BKN065 28/19 A3006 RMK AO2 SLP168 TCU N E SE SW MDT CU OHD-ALQDS T02780189 10289 20183 58007=
202205041652 METAR KATL 041652Z 31004KT 10SM SCT028 27/20 A3007 RMK AO2 SLP173 MDT CU ALQDS T02720200=
202205041552 METAR KATL 041552Z 30007KT 10SM FEW024 26/20 A3008 RMK AO2 SLP177 T02610200=
202205041452 METAR KATL 041452Z 29007KT 10SM FEW018 FEW250 25/20 A3008 RMK AO2 SLP176 T02500200 58002=
202205041352 METAR KATL 041352Z 26006KT 10SM FEW070 FEW250 23/18 A3008 RMK AO2 SLP177 T02280183=
202205041252 METAR KATL 041252Z 00000KT 10SM FEW017 FEW065 FEW250 21/17 A3008 RMK AO2 SLP178 T02060167=
202205041242 SPECI KATL 041242Z 10003KT 10SM SCT017 SCT065 SCT100 SCT150 SCT200 20/17 A3009 RMK AO2 TCU DSNT NE T02000172=
202205041208 SPECI KATL 041208Z 06005KT 9SM BKN018 BKN060 19/17 A3009 RMK AO2 BKN018 V SCT T01890172=
202205041152 METAR KATL 041152Z 10005KT 10SM FEW070 SCT100 SCT150 SCT200 SCT250 19/17 A3008 RMK AO2 LTG DSNT NE SLP178 CB DSNT NE TCU DSNT NW 60023 70041 T01890172 10189 20178 53014=
202205041052 METAR KATL 041052Z 10003KT 10SM FEW005 SCT070 SCT100 SCT250 18/17 A3005 RMK AO2 LTG DSNT N AND NE SLP168 CB DSNT N-NE T01830167=
202205040952 METAR KATL 040952Z 00000KT 10SM FEW004 BKN070 BKN100 BKN150 18/17 A3005 RMK AO2 LTG DSNT NE AND E SLP167 T01830172=
202205040852 METAR KATL 040852Z 14005KT 10SM SCT005 BKN070 BKN100 OVC130 18/17 A3004 RMK AO2 RAE44 SLP164 TSE21 OCNL DSNT LTG NE & E-SE TS MOV E P0002 60023 T01830172 56012=
202205040821 SPECI KATL 040821Z 13004KT 10SM -RA FEW007 FEW033 BKN055 OVC130 19/17 A3004 RMK AO2 OCNL DSNT LTG NE&E&SE-S TS MOV E P0001 T01890172 $=
202205040752 METAR KATL 040752Z 00000KT 6SM -TSRA BR SCT035CB BKN047 OVC140 19/17 A3005 RMK AO2 SLP166 TSE22B28 FRQ LTGCAICCG SE-S TS SE-S MOV E P0011 T01890172 $=
202205040733 SPECI KATL 040733Z 19004KT 10SM TS FEW034CB SCT050 BKN110 OVC140 18/17 A3003 RMK AO2 TSE22B28 RAE25 OCNL LTGICCG W TS W MOV E P0004 T01830167 $=
202205040724 SPECI KATL 040724Z 19006KT 10SM -RA FEW065 SCT075 BKN110 OVC140 18/17 A3004 RMK AO2 TSE22 OCNL DSNT LTGCAICCG N & SE TS MOV SE P0004 T01830167 $=
202205040652 METAR KATL 040652Z 29006KT 4SM -TSRA BR SCT060CB SCT075 OVC100 18/17 A3006 RMK AO2 LTG DSNT ALQDS SLP171 FRQ LTGCAICCG OHD-E-S TS OHD-E-S MOV E P0010 T01780167 $=
202205040552 METAR KATL 040552Z 24009KT 10SM -TSRA FEW034CB SCT055 OVC085 18/16 A3008 RMK AO2 PK WND 24042/0518 LTG DSNT ALQDS RAB18 TSB06 SLP176 FRQ LTGICCACG OHD-S-SW TS OHD-S-SW MOV E P0018 60018 T01830156 10272 20183 53013 $=
202205040541 SPECI KATL 040541Z 26013G27KT 6SM -TSRA FEW012 SCT036CB OVC090 18/16 A3008 RMK AO2 PK WND 24042/0518 LTG DSNT ALQDS RAB18 TSB06 FRQ LTGICCACG OHD-E-S-SW TS OHD-E-S-SW MOV E P0017 T01830156=
202205040528 SPECI KATL 040528Z 27021G35KT 2SM +TSRA FEW020 BKN045CB BKN070 OVC150 19/16 A3009 RMK AO2 PK WND 24042/0518 RAB18 TSB06 FRQ LTGICCG S-SW TS VC S-SW MOV E P0007 T01890156=
202205040507 SPECI KATL 040507Z 23007KT 10SM TS FEW045CB SCT070 BKN150 OVC200 23/16 A3006 RMK AO2 TSB06 FRQ LTGICCG SW-NW TS VC SW-NW MOV E T02280161=
202205040452 METAR KATL 040452Z 21004KT 10SM FEW050 BKN150 OVC200 23/16 A3004 RMK AO2 SLP164 FRQ LTG DSNT SW-NW CB DSNT SW-NW T02280161 403000189=
202205040352 METAR KATL 040352Z 21005KT 10SM FEW050 BKN150 BKN200 BKN250 23/16 A3005 RMK AO2 SLP165 T02330161=
202205040252 METAR KATL 040252Z 22004KT 10SM FEW050 SCT150 BKN200 BKN250 24/16 A3004 RMK AO2 LTG DSNT NW SLP162 CB DSNT NW T02390156 53014=
202205040152 METAR KATL 040152Z 21003KT 10SM FEW150 BKN200 BKN250 24/16 A3003 RMK AO2 SLP159 T02440156=
202205040052 METAR KATL 040052Z 22005KT 10SM FEW060 BKN200 BKN250 26/15 A3000 RMK AO2 SLP150 T02610150=
202205032352 METAR KATL 032352Z 23008KT 10SM FEW060 BKN200 BKN250 27/14 A3000 RMK AO2 SLP149 T02720144 10300 20272 58003=
202205032252 METAR KATL 032252Z 20008KT 10SM FEW060 SCT200 BKN250 28/14 A3000 RMK AO2 SLP151 T02830139=
202205032152 METAR KATL 032152Z 26011KT 10SM SCT060 SCT200 BKN250 29/14 A3000 RMK AO2 SLP151 T02940144=
202205032052 METAR KATL 032052Z 23010G19KT 10SM FEW065 SCT200 BKN250 29/14 A3001 RMK AO2 SLP152 T02940139 58021=
202205031952 METAR KATL 031952Z 22012G25KT 10SM FEW065 SCT200 SCT250 28/14 A3003 RMK AO2 SLP160 MDT CU DSNT ALQDS T02830139=
202205031852 METAR KATL 031852Z 23010KT 10SM SCT060 SCT200 SCT250 29/15 A3006 RMK AO2 SLP168 T02890150=
202205031752 METAR KATL 031752Z 22009G19KT 10SM FEW055 SCT250 28/16 A3007 RMK AO2 SLP173 MDT CU NW-N T02830156 10289 20206 58008=
202205031652 METAR KATL 031652Z 24010G20KT 10SM FEW050TCU SCT250 28/15 A3009 RMK AO2 PK WND 22026/1600 SLP181 TCU NW-N T02830150=
202205031552 METAR KATL 031552Z 24010G21KT 10SM FEW046 FEW200 SCT250 27/16 A3011 RMK AO2 SLP187 T02670156=
202205031452 METAR KATL 031452Z 22008G15KT 10SM FEW036 SCT180 BKN250 26/17 A3010 RMK AO2 SLP181 T02610167 53006=
202205031352 METAR KATL 031352Z 21010G17KT 10SM FEW150 SCT200 SCT250 24/17 A3008 RMK AO2 SLP178 T02390172=
202205031252 METAR KATL 031252Z 23006KT 10SM FEW150 SCT200 SCT250 22/18 A3008 RMK AO2 SLP175 T02170178=
202205031152 METAR KATL 031152Z 25007KT 10SM FEW150 BKN200 BKN250 21/17 A3008 RMK AO2 SLP177 T02060167 10211 20189 53012=
202205031052 METAR KATL 031052Z 21005KT 10SM FEW050 FEW150 SCT200 SCT250 19/17 A3005 RMK AO2 SLP168 T01940167=
202205030952 METAR KATL 030952Z 22005KT 10SM FEW050 SCT200 SCT250 19/17 A3004 RMK AO2 SLP165 T01940167=
202205030852 METAR KATL 030852Z 00000KT 10SM SCT200 SCT250 19/17 A3004 RMK AO2 SLP163 T01940167 56003=
202205030752 METAR KATL 030752Z 00000KT 10SM SCT200 BKN250 20/17 A3004 RMK AO2 SLP164 T02000167=
202205030652 METAR KATL 030652Z 00000KT 10SM SCT200 BKN250 21/17 A3004 RMK AO2 SLP163 T02060167=
202205030552 METAR KATL 030552Z 00000KT 10SM SCT200 BKN250 21/17 A3005 RMK AO2 SLP165 T02110167 10256 20211 56006=
202205030452 METAR KATL 030452Z 11003KT 10SM SCT200 BKN250 22/17 A3006 RMK AO2 SLP168 T02220167 403000183=
202205030352 METAR KATL 030352Z 14004KT 10SM SCT200 BKN250 22/17 A3006 RMK AO2 SLP169 T02220167=
202205030252 METAR KATL 030252Z 00000KT 10SM BKN200 BKN250 23/17 A3007 RMK AO2 SLP172 T02330167 51008=
202205030152 METAR KATL 030152Z 00000KT 10SM FEW080 SCT200 BKN250 24/17 A3006 RMK AO2 SLP171 LTG DSNT E-SE CB DSNT E-SE T02390167=
202205030052 METAR KATL 030052Z VRB04KT 10SM FEW050 SCT200 BKN250 25/16 A3006 RMK AO2 TSE11 SLP169 LTG DSNT SE CB DSNT SE T02500161=
202205030011 SPECI KATL 030011Z 22005KT 10SM FEW050 SCT080 BKN200 BKN250 26/14 A3004 RMK AO2 TSE11 LTG DSNT NE TS MOVD NE CB DSNT NE TCU DSNT SE T02560139=
202205022352 METAR KATL 022352Z 24006KT 10SM TS FEW050CB SCT080 BKN150 BKN250 25/14 A3004 RMK AO2 TSB21 SLP165 OCNL LTGIC N-NE TS N-NE MOV NE TCU DSNT SE T02500139 10300 20244 53002=
202205022322 SPECI KATL 022322Z 22008KT 10SM TS FEW055CB SCT090 BKN200 BKN250 27/16 A3004 RMK AO2 TSB21 OCNL LTGIC SW-W TS SW-W MOV NE TCU OHD-NW T02720156=
202205022252 METAR KATL 022252Z 22005KT 10SM FEW055TCU SCT080 SCT200 BKN250 28/15 A3003 RMK AO2 LTG DSNT W SLP159 CB DSNT SW TCU NE SW DSNT SE-S T02830150=
202205022152 METAR KATL 022152Z 19007KT 10SM SCT055TCU SCT250 29/15 A3003 RMK AO2 SLP159 TCU NE MDT CU ALQDS T02890150=
202205022052 METAR KATL 022052Z 20009KT 10SM FEW055 FEW080 SCT200 SCT250 29/15 A3004 RMK AO2 SLP162 CB DSNT SE TCU DSNT N-NE SE MDT CU W NW T02890150 58018=
202205021952 METAR KATL 021952Z 22006KT 10SM FEW055 SCT075 SCT200 SCT250 29/16 A3005 RMK AO2 SLP168 MDT CU ALQDS T02890156=
202205021852 METAR KATL 021852Z 22007KT 10SM FEW048TCU SCT065 SCT200 BKN250 29/16 A3008 RMK AO2 SLP176 TCU N MDT CU ALQDS T02890161=
202205021752 METAR KATL 021752Z 24009KT 10SM FEW042 SCT060 SCT200 BKN250 28/16 A3009 RMK AO2 SLP181 MDT CU NW-NE T02830161 10289 20200 58011=
202205021652 METAR KATL 021652Z 25007KT 10SM SCT038 SCT200 BKN250 BKN300 28/17 A3011 RMK AO2 SLP186 T02830172=
202205021552 METAR KATL 021552Z 25007KT 10SM FEW032 SCT200 SCT250 BKN300 26/18 A3012 RMK AO2 SLP189 T02610178=
202205021452 METAR KATL 021452Z 30005KT 10SM FEW018 SCT200 SCT250 26/18 A3013 RMK AO2 SLP192 T02560178 50009=
202205021352 METAR KATL 021352Z 25006KT 10SM FEW014 SCT200 SCT250 23/18 A3013 RMK AO2 SLP193 T02330183 $=
202205021252 METAR KATL 021252Z 26007KT 9SM FEW008 FEW055 SCT200 SCT250 22/18 A3012 RMK AO2 SLP191 T02170183=
202205021152 METAR KATL 021152Z 25007KT 10SM FEW009 FEW050 SCT200 SCT250 20/17 A3010 RMK AO2 SLP184 T02000172 10211 20183 53012=
202205021103 SPECI KATL 021103Z 22005KT 10SM FEW005 BKN200 BKN250 19/17 A3008 RMK AO2 T01940172=
202205021052 METAR KATL 021052Z 24006KT 10SM BKN006 BKN200 BKN250 19/18 A3008 RMK AO2 SLP178 CIG 005V008 T01940178=
202205021050 SPECI KATL 021050Z 24005KT 10SM BKN006 BKN200 BKN250 19/18 A3008 RMK AO2 CIG 005V008=
202205021007 SPECI KATL 021007Z 28006KT 10SM SCT009 SCT050 SCT250 18/17 A3007 RMK AO2 T01830167=
202205020952 METAR KATL 020952Z 29006KT 10SM FEW050 BKN250 19/17 A3007 RMK AO2 SLP174 T01890167=
202205020852 METAR KATL 020852Z 26005KT 10SM FEW050 BKN250 19/17 A3006 RMK AO2 SLP171 T01940172 56005=
202205020752 METAR KATL 020752Z 24004KT 10SM FEW050 BKN250 19/17 A3007 RMK AO2 SLP173 T01940172=
202205020652 METAR KATL 020652Z 00000KT 10SM FEW050 SCT250 20/17 A3007 RMK AO2 SLP174 T02000172=
202205020552 METAR KATL 020552Z 25007KT 10SM FEW050 SCT250 21/17 A3008 RMK AO2 SLP177 T02060172 10250 20206 50006=
202205020452 METAR KATL 020452Z 22007KT 10SM FEW050 21/17 A3008 RMK AO2 SLP178 T02060172 402720183=
202205020352 METAR KATL 020352Z 21004KT 10SM FEW250 21/17 A3007 RMK AO2 SLP176 T02060172=
202205020252 METAR KATL 020252Z 23003KT 10SM FEW050 FEW250 22/17 A3006 RMK AO2 SLP171 T02170172 53013=
202205020152 METAR KATL 020152Z 22005KT 10SM FEW050 FEW250 23/17 A3005 RMK AO2 SLP167 T02280172=
202205020052 METAR KATL 020052Z 20005KT 10SM FEW050 FEW080 FEW250 23/17 A3003 RMK AO2 SLP162 CB DSNT SE-S AND SW-W TCU DSNT SW T02330167=
202205012352 METAR KATL 012352Z 20007KT 10SM FEW050 FEW080 FEW250 25/17 A3002 RMK AO2 SLP157 TCU DSNT SE MDT CU DSNT E-SE-S T02500167 10272 20233 56003=
202205012252 METAR KATL 012252Z 22009G14KT 10SM SCT049TCU SCT080 SCT250 26/16 A3002 RMK AO2 SLP158 TCU W-NW MDT CU DSNT ALQDS T02610156=
202205012152 METAR KATL 012152Z 21007KT 10SM SCT040 SCT080 27/16 A3002 RMK AO2 SLP157 TCU DNST NW T02670161=
202205012052 METAR KATL 012052Z 23008G16KT 10SM SCT040TCU SCT220 27/16 A3003 RMK AO2 SLP160 TCU NE DSNT N MDT CU ALQDS T02670161 58010=
202205011952 METAR KATL 011952Z 26010G15KT 10SM SCT034 SCT220 26/17 A3005 RMK AO2 SLP167 TCU DSNT NW MDT CU ALQDS T02610172=
202205011852 METAR KATL 011852Z 20007KT 10SM FEW026 FEW170 BKN220 25/18 A3006 RMK AO2 SLP171 TCU DSNT NE MDT CU DSNT E T02500178=
202205011752 METAR KATL 011752Z 21011G19KT 10SM FEW024 SCT160 BKN220 23/17 A3006 RMK AO2 SLP171 VIRGA OHD-S-W CB DSNT NE-E T02330167 10239 20189 58018=
202205011652 METAR KATL 011652Z 20014G20KT 10SM SCT023 OVC210 24/17 A3008 RMK AO2 SLP178 MDT CU DSNT E BINOVC T02390172=
202205011605 SPECI KATL 011605Z 23010G19KT 10SM SCT018 SCT027 BKN032 23/18 A3011 RMK AO2 T02280178=
202205011552 METAR KATL 011552Z 24012G20KT 10SM BKN017 OVC026 22/17 A3011 RMK AO2 SLP191 T02170172=
202205011515 SPECI KATL 011515Z 21009KT 9SM SCT013 BKN022 OVC200 22/18 A3011 RMK AO2 T02170178=
202205011452 METAR KATL 011452Z 21006KT 9SM BKN011 OVC021 21/18 A3011 RMK AO2 SLP189 T02110178 51005=
202205011415 SPECI KATL 011415Z 22007KT 9SM OVC010 21/17 A3011 RMK AO2 T02060172=
202205011352 METAR KATL 011352Z 23009KT 8SM BKN009 OVC200 21/17 A3011 RMK AO2 SLP189 T02060172=
202205011252 METAR KATL 011252Z 20008KT 6SM HZ BKN006 OVC050 20/17 A3010 RMK AO2 SLP183 CIG 005V008 T02000172 $=
