##########################################################
# Query made at 04/20/2024 00:27:30 UTC
# Time interval: from 05/01/2023 12:00  to 05/31/2023 12:59  UTC
##########################################################

##########################################################
# KATL, Atlanta, Hartsfield - Jackson Atlanta International Airport (United States)
# WMO index: 72219. WIGOS ID: 0-20000-0-72219
# Latitude 33-38-59N. Longitude 084-25-00W. Altitude 312 m.
##########################################################

202305311252 METAR KATL 311252Z 08013G20KT 10SM OVC010 20/17 A3008 RMK AO2 SLP178 BINOVC T02000167 $=
202305311237 SPECI KATL 311237Z 09012KT 10SM OVC010 20/17 A3007 RMK AO2 BINOVC T02000172 $=
202305311152 METAR KATL 311152Z 08017KT 10SM OVC009 19/17 A3006 RMK AO2 SLP172 BINOVC T01940167 10211 20194 53009 $=
202305311146 SPECI KATL 311146Z 08013KT 10SM OVC009 20/17 A3006 RMK AO2 BINOVC $=
202305311052 METAR KATL 311052Z 08012G20KT 10SM OVC010 19/17 A3005 RMK AO2 SLP169 BINOVC T01940167 $=
202305310952 METAR KATL 310952Z 07014KT 10SM BKN011 OVC110 19/17 A3004 RMK AO2 SLP163 T01940167 $=
202305310948 SPECI KATL 310948Z 07012KT 10SM BKN011 OVC110 19/17 A3004 RMK AO2 $=
202305310852 METAR KATL 310852Z 07013KT 10SM OVC110 20/17 A3003 RMK AO2 SLP160 T02000167 53005 $=
202305310752 METAR KATL 310752Z 07012KT 10SM FEW055 SCT070 BKN100 21/17 A3002 RMK AO2 SLP156 T02060167 $=
202305310652 METAR KATL 310652Z 07012KT 10SM FEW033 BKN100 21/16 A3001 RMK AO2 SLP153 T02110161 $=
202305310552 METAR KATL 310552Z 08012KT 10SM BKN033 BKN080 BKN100 21/16 A3001 RMK AO2 SLP154 T02110156 10244 20211 51004 $=
202305310452 METAR KATL 310452Z 08008KT 10SM FEW045 SCT100 21/16 A3001 RMK AO2 SLP152 T02110156 402830161 $=
202305310352 METAR KATL 310352Z 09007KT 10SM FEW095 22/16 A3001 RMK AO2 SLP153 T02170156 $=
202305310252 METAR KATL 310252Z 09006KT 10SM BKN100 22/15 A3000 RMK AO2 SLP150 T02220150 53013 $=
202305310152 METAR KATL 310152Z 09007KT 10SM SCT095 23/15 A2998 RMK AO2 SLP143 T02280150 $=
202305310052 METAR KATL 310052Z 09007KT 10SM SCT100 24/14 A2997 RMK AO2 SLP140 T02390144 $=
202305302352 METAR KATL 302352Z 09008KT 10SM FEW045 SCT100 24/15 A2996 RMK AO2 SLP139 T02440150 10283 20244 51007 $=
202305302252 METAR KATL 302252Z 08013KT 10SM FEW045 BKN100 26/15 A2996 RMK AO2 SLP136 T02560150 $=
202305302152 METAR KATL 302152Z 08009KT 10SM FEW048TCU SCT080 BKN095 26/15 A2996 RMK AO2 SLP136 TCU N-NE SW-W MDT CU OHD-E T02610150 $=
202305302052 METAR KATL 302052Z 08010KT 10SM SCT050 BKN090 28/14 A2994 RMK AO2 SLP131 TCU DSNT NE-E SE MDT CU ALQDS T02780139 56009 $=
202305301952 METAR KATL 301952Z 10013G17KT 10SM SCT055 BKN090 28/15 A2995 RMK AO2 SLP132 TCU DSNT NE-SE MDT CU ALQDS T02780150 $=
202305301852 METAR KATL 301852Z 05012G16KT 10SM SCT049 BKN085 27/14 A2995 RMK AO2 SLP134 TCU DSNT NE-SE MDT CU ALQDS T02670144 $=
202305301752 METAR KATL 301752Z 12007KT 10SM SCT043 BKN075 27/16 A2997 RMK AO2 SLP142 MDT CU OHD ALQDS T02670161 10267 20189 58006 $=
202305301652 METAR KATL 301652Z 07010KT 10SM SCT040TCU BKN075 26/16 A2999 RMK AO2 SLP147 TCU N NE W-NW DSNT W MDT CU ALQDS T02610156 $=
202305301552 METAR KATL 301552Z 10011KT 10SM BKN034TCU BKN065 25/16 A2999 RMK AO2 SLP150 TCU NW-N MDT CU OHD ALQDS T02500156 $=
202305301452 METAR KATL 301452Z 11007KT 10SM BKN030 BKN055 24/16 A2999 RMK AO2 SLP148 TCU DSNT W MDT CU ALQDS T02440161 50005 $=
202305301352 METAR KATL 301352Z 07010G15KT 10SM FEW028 FEW050 23/16 A2999 RMK AO2 SLP149 MDT CU NW T02330161 $=
202305301252 METAR KATL 301252Z 07008KT 10SM FEW048 21/16 A2999 RMK AO2 SLP150 T02110156 $=
202305301152 METAR KATL 301152Z 06006KT 10SM FEW042 FEW250 19/14 A2998 RMK AO2 SLP144 T01890144 10189 20161 53020 $=
202305301052 METAR KATL 301052Z 04007KT 10SM FEW050 FEW250 18/14 A2995 RMK AO2 SLP136 T01780139 $=
202305300952 METAR KATL 300952Z 33003KT 10SM FEW040 FEW250 16/13 A2993 RMK AO2 SLP130 T01610133 $=
202305300852 METAR KATL 300852Z 32004KT 10SM FEW250 16/13 A2992 RMK AO2 SLP124 T01610133 55003 $=
202305300752 METAR KATL 300752Z 34007KT 10SM FEW250 17/14 A2991 RMK AO2 SLP121 T01670139 $=
202305300652 METAR KATL 300652Z 33004KT 10SM FEW250 17/14 A2991 RMK AO2 SLP122 T01670139 $=
202305300552 METAR KATL 300552Z 30004KT 10SM FEW250 17/14 A2992 RMK AO2 SLP128 T01670139 10222 20167 58010 $=
202305300452 METAR KATL 300452Z 30006KT 10SM FEW250 17/14 A2994 RMK AO2 SLP133 T01720139 402390167 $=
202305300352 METAR KATL 300352Z 31008KT 10SM FEW250 18/14 A2995 RMK AO2 SLP136 T01780139 $=
202305300252 METAR KATL 300252Z 30006KT 10SM FEW250 18/14 A2996 RMK AO2 SLP139 T01830139 52013 $=
202305300152 METAR KATL 300152Z 31009KT 10SM FEW040 FEW250 19/14 A2994 RMK AO2 SLP133 T01940139 $=
202305300052 METAR KATL 300052Z 28009KT 10SM FEW040 FEW250 20/14 A2993 RMK AO2 SLP130 T02000139 $=
202305292352 METAR KATL 292352Z 31010KT 10SM FEW038 FEW250 22/13 A2992 RMK AO2 SLP124 T02220128 10239 20206 52003 $=
202305292252 METAR KATL 292252Z 30010KT 10SM FEW038 FEW250 23/13 A2992 RMK AO2 SLP124 T02330128 $=
202305292152 METAR KATL 292152Z 32009KT 10SM SCT038 SCT250 24/13 A2991 RMK AO2 SLP122 T02390133 $=
202305292052 METAR KATL 292052Z 31009G16KT 10SM FEW037 SCT250 23/13 A2991 RMK AO2 SLP121 T02330133 56007 $=
202305291952 METAR KATL 291952Z 30007KT 10SM SCT035 SCT250 23/13 A2991 RMK AO2 SLP121 T02330133 $=
202305291852 METAR KATL 291852Z 29008G16KT 10SM SCT033 22/13 A2992 RMK AO2 SLP126 T02170133 $=
202305291752 METAR KATL 291752Z 29009G15KT 10SM BKN032 21/13 A2993 RMK AO2 SLP129 T02060128 10211 20172 58006 $=
202305291728 SPECI KATL 291728Z 31009G16KT 10SM BKN030 20/12 A2994 RMK AO2 T02000122 $=
202305291652 METAR KATL 291652Z 31012G17KT 10SM OVC028 20/12 A2994 RMK AO2 SLP133 BINOVC T02000122 $=
202305291552 METAR KATL 291552Z 31012G17KT 10SM OVC027 19/12 A2995 RMK AO2 SLP135 BINOVC T01890117 $=
202305291452 METAR KATL 291452Z 29013KT 10SM BKN027 19/11 A2995 RMK AO2 SLP135 T01890111 50002 $=
202305291352 METAR KATL 291352Z 33011KT 10SM BKN026 BKN036 18/11 A2995 RMK AO2 SLP137 T01830111 $=
202305291340 SPECI KATL 291340Z 30011G16KT 10SM BKN026 BKN038 19/12 A2995 RMK AO2 T01890117 $=
202305291252 METAR KATL 291252Z 31009KT 10SM FEW024 18/12 A2994 RMK AO2 SLP133 T01830117 $=
202305291152 METAR KATL 291152Z 31005KT 10SM FEW030 FEW100 17/12 A2994 RMK AO2 SLP133 T01720117 10194 20167 53007 $=
202305291052 METAR KATL 291052Z 30008KT 10SM FEW095 17/12 A2993 RMK AO2 SLP128 T01670117 $=
202305290952 METAR KATL 290952Z 32008KT 10SM BKN100 17/12 A2992 RMK AO2 SLP123 T01720117 $=
202305290852 METAR KATL 290852Z 33005KT 10SM BKN100 BKN150 18/12 A2992 RMK AO2 SLP125 T01780122 55007 $=
202305290752 METAR KATL 290752Z 33005KT 10SM BKN100 BKN150 18/12 A2992 RMK AO2 SLP123 T01830117 $=
202305290652 METAR KATL 290652Z 34006KT 10SM BKN120 BKN150 19/12 A2993 RMK AO2 SLP127 T01890117 $=
202305290552 METAR KATL 290552Z 34009KT 10SM BKN130 BKN180 19/12 A2994 RMK AO2 SLP132 T01940122 10239 20194 58004 $=
202305290452 METAR KATL 290452Z 33007KT 10SM FEW130 BKN150 BKN200 20/13 A2995 RMK AO2 SLP134 T02000128 402610144 $=
202305290352 METAR KATL 290352Z 33007KT 10SM SCT120 BKN160 BKN210 BKN250 21/13 A2995 RMK AO2 SLP136 T02060128 $=
202305290252 METAR KATL 290252Z 29007KT 10SM CLR 21/12 A2996 RMK AO2 SLP137 T02110117 53007 $=
202305290152 METAR KATL 290152Z 28006KT 10SM FEW060 FEW120 BKN180 BKN210 BKN250 21/12 A2995 RMK AO2 SLP135 T02110117 $=
202305290052 METAR KATL 290052Z 28005KT 10SM FEW060 SCT150 BKN180 BKN250 22/11 A2994 RMK AO2 SLP131 VIRGA W-NW T02220111 $=
202305282352 METAR KATL 282352Z 32008KT 10SM FEW060 SCT150 SCT250 24/11 A2993 RMK AO2 SLP130 MDT CU DSNT NE AND W T02390106 10261 20239 55000 $=
202305282252 METAR KATL 282252Z 30011G18KT 10SM SCT060 SCT150 SCT250 25/11 A2993 RMK AO2 SLP130 T02500106 $=
202305282152 METAR KATL 282152Z 28013G17KT 10SM SCT060 SCT150 SCT250 26/10 A2993 RMK AO2 SLP130 T02560100 $=
202305282052 METAR KATL 282052Z 31011G19KT 10SM FEW055 FEW250 26/11 A2994 RMK AO2 SLP130 T02560106 56017 $=
202305281952 METAR KATL 281952Z 30012G18KT 10SM FEW055 FEW250 26/11 A2995 RMK AO2 SLP135 T02560106 $=
202305281852 METAR KATL 281852Z 29010KT 10SM FEW050 FEW250 26/11 A2997 RMK AO2 SLP142 T02560111 $=
202305281752 METAR KATL 281752Z 30009G17KT 10SM FEW048 FEW250 24/12 A2999 RMK AO2 SLP148 T02390117 10244 20156 56018 $=
202305281652 METAR KATL 281652Z 34007G20KT 10SM SCT042 SCT150 SCT250 23/12 A3000 RMK AO2 SLP152 T02330117 $=
202305281552 METAR KATL 281552Z 30008KT 10SM FEW036 FEW150 FEW250 22/12 A3002 RMK AO2 SLP161 T02170117 $=
202305281452 METAR KATL 281452Z VRB03KT 10SM SCT029 SCT250 19/12 A3004 RMK AO2 SLP168 T01940117 58004 $=
202305281352 METAR KATL 281352Z 04011KT 10SM FEW023 SCT190 SCT250 18/11 A3005 RMK AO2 SLP172 T01830111 $=
202305281252 METAR KATL 281252Z 07011KT 10SM FEW040 FEW100 FEW200 17/11 A3005 RMK AO2 SLP172 T01670106 $=
202305281152 METAR KATL 281152Z 06008KT 10SM FEW100 FEW200 16/11 A3005 RMK AO2 SLP172 T01560106 10156 20144 51008 $=
202305281052 METAR KATL 281052Z 03006KT 10SM FEW040 FEW250 14/11 A3005 RMK AO2 SLP170 T01440106 $=
202305280952 METAR KATL 280952Z 03008KT 10SM FEW100 FEW250 14/11 A3003 RMK AO2 SLP164 T01440106 $=
202305280852 METAR KATL 280852Z 05010KT 10SM FEW021 SCT100 SCT250 15/10 A3003 RMK AO2 SLP162 T01500100 56013 $=
202305280752 METAR KATL 280752Z 05008KT 10SM FEW022 SCT070 BKN100 16/11 A3004 RMK AO2 SLP167 T01560106 $=
202305280652 METAR KATL 280652Z 07013KT 10SM FEW022 FEW070 BKN085 16/11 A3005 RMK AO2 SLP169 T01560106 $=
202305280552 METAR KATL 280552Z 05008KT 10SM FEW022 SCT070 SCT100 16/11 A3007 RMK AO2 SLP175 T01560106 10200 20156 58015 $=
202305280452 METAR KATL 280452Z 06012KT 10SM FEW022 SCT070 BKN100 16/11 A3009 RMK AO2 SLP182 T01610106 402500156 $=
202305280352 METAR KATL 280352Z 05009KT 10SM FEW022 BKN070 16/11 A3011 RMK AO2 SLP191 T01610106 $=
202305280252 METAR KATL 280252Z 08015G19KT 10SM FEW030 SCT070 BKN090 16/10 A3011 RMK AO2 SLP191 T01560100 51008 $=
202305280152 METAR KATL 280152Z 08015G21KT 10SM FEW030 SCT080 BKN090 16/10 A3011 RMK AO2 SLP191 T01610100 $=
202305280052 METAR KATL 280052Z 09016G20KT 10SM FEW045 BKN090 BKN250 17/08 A3011 RMK AO2 SLP191 T01720083 $=
202305272352 METAR KATL 272352Z 09016G23KT 10SM FEW050 SCT075 SCT250 20/08 A3008 RMK AO2 SLP182 T02000078 10250 20200 53009 $=
202305272252 METAR KATL 272252Z 09017KT 10SM FEW070 FEW100 FEW250 23/08 A3006 RMK AO2 SLP172 T02280078 $=
202305272152 METAR KATL 272152Z 08013KT 10SM FEW070 FEW150 FEW200 24/06 A3005 RMK AO2 SLP170 T02390061 $=
202305272052 METAR KATL 272052Z 04013G21KT 10SM FEW070 FEW200 24/05 A3006 RMK AO2 SLP171 T02440050 56013 $=
202305271952 METAR KATL 271952Z 06012G18KT 10SM FEW070 FEW200 24/05 A3007 RMK AO2 SLP175 T02440050 $=
202305271852 METAR KATL 271852Z 05012KT 10SM FEW070 FEW200 24/05 A3008 RMK AO2 SLP179 T02440050 $=
202305271752 METAR KATL 271752Z 03008G20KT 360V070 10SM FEW200 23/06 A3010 RMK AO2 PK WND 04028/1656 SLP185 T02330061 10233 20161 58017 $=
202305271652 METAR KATL 271652Z 06013G18KT 10SM FEW200 FEW250 22/07 A3012 RMK AO2 SLP192 T02220067 $=
202305271552 METAR KATL 271552Z 05016G23KT 10SM FEW200 FEW250 21/05 A3014 RMK AO2 PK WND 06027/1459 SLP199 T02110050 $=
202305271452 METAR KATL 271452Z 06016G28KT 10SM FEW200 21/05 A3015 RMK AO2 PK WND 06029/1422 SLP203 T02060050 50005 $=
202305271352 METAR KATL 271352Z 07018G29KT 10SM FEW200 19/05 A3015 RMK AO2 PK WND 06029/1343 SLP205 T01890050 $=
202305271252 METAR KATL 271252Z 06017G26KT 10SM FEW050 FEW200 17/06 A3015 RMK AO2 PK WND 05027/1234 SLP203 T01720056 $=
202305271152 METAR KATL 271152Z 05015G25KT 10SM FEW060 FEW250 16/06 A3013 RMK AO2 PK WND 06027/1103 SLP198 T01610056 10167 20156 53008 $=
202305271052 METAR KATL 271052Z 05017G25KT 10SM FEW060 FEW250 16/06 A3012 RMK AO2 SLP192 T01560061 $=
202305270952 METAR KATL 270952Z 06015KT 10SM SCT060 SCT250 16/07 A3011 RMK AO2 SLP190 T01610067 $=
202305270852 METAR KATL 270852Z 07012KT 10SM FEW070 FEW250 16/07 A3011 RMK AO2 SLP189 T01610067 55001 $=
202305270752 METAR KATL 270752Z 06012KT 10SM FEW250 16/07 A3010 RMK AO2 SLP187 T01610067 $=
202305270652 METAR KATL 270652Z 07011KT 10SM FEW250 17/07 A3011 RMK AO2 SLP189 T01670067 $=
202305270552 METAR KATL 270552Z 08014KT 10SM CLR 17/07 A3011 RMK AO2 SLP191 T01670072 10233 20167 58008 $=
202305270452 METAR KATL 270452Z 08008KT 10SM CLR 17/08 A3012 RMK AO2 SLP192 T01720083 402500167 $=
202305270352 METAR KATL 270352Z 08010KT 10SM CLR 18/08 A3013 RMK AO2 SLP198 T01780083 $=
202305270252 METAR KATL 270252Z 09013KT 10SM CLR 19/09 A3014 RMK AO2 SLP199 T01890089 53022 $=
202305270152 METAR KATL 270152Z 10012KT 10SM CLR 21/11 A3011 RMK AO2 SLP190 T02060111 $=
202305270052 METAR KATL 270052Z 09007KT 10SM FEW200 22/12 A3008 RMK AO2 SLP180 T02170117 $=
202305262352 METAR KATL 262352Z 11006KT 10SM FEW200 23/11 A3007 RMK AO2 SLP176 T02280111 10250 20228 55002 $=
202305262252 METAR KATL 262252Z 11008KT 10SM FEW090 FEW200 24/12 A3006 RMK AO2 SLP172 T02390117 $=
202305262152 METAR KATL 262152Z 07010KT 10SM FEW100 24/11 A3007 RMK AO2 SLP174 T02440111 $=
202305262052 METAR KATL 262052Z 09008G18KT 10SM FEW060 SCT100 24/11 A3008 RMK AO2 SLP177 T02390111 58003 $=
202305261952 METAR KATL 261952Z 08016KT 10SM FEW060 BKN095 24/11 A3009 RMK AO2 SLP182 T02440106 $=
202305261852 METAR KATL 261852Z 06012KT 10SM FEW060 SCT075 SCT100 25/11 A3009 RMK AO2 SLP182 T02500111 $=
202305261752 METAR KATL 261752Z 08010KT 10SM FEW050 FEW075 SCT220 24/13 A3009 RMK AO2 WSHFT 1648 SLP180 T02440128 10244 20172 58007 $=
202305261708 SPECI KATL 261708Z 08012G25KT 10SM FEW045 SCT075 SCT220 24/12 A3009 RMK AO2 WSHFT 1648 T02440122 $=
202305261652 METAR KATL 261652Z 12012G19KT 10SM FEW042 BKN070 23/12 A3009 RMK AO2 SLP183 T02330122 $=
202305261552 METAR KATL 261552Z 09013G21KT 10SM FEW036 SCT060 22/12 A3010 RMK AO2 SLP184 T02220122 $=
202305261452 METAR KATL 261452Z 08015G23KT 10SM FEW030 SCT055 21/12 A3011 RMK AO2 SLP188 T02110122 50008 $=
202305261352 METAR KATL 261352Z 06014G24KT 10SM FEW028 FEW100 20/12 A3011 RMK AO2 SLP188 T02000122 $=
202305261252 METAR KATL 261252Z 07017G23KT 10SM FEW020 FEW100 19/13 A3010 RMK AO2 SLP184 T01890128 $=
202305261152 METAR KATL 261152Z 07015KT 10SM FEW095 17/13 A3008 RMK AO2 SLP179 T01720128 10206 20167 53020 $=
202305261052 METAR KATL 261052Z 07012KT 10SM FEW090 17/12 A3006 RMK AO2 SLP172 T01670122 $=
202305260952 METAR KATL 260952Z 06012KT 10SM FEW090 17/12 A3004 RMK AO2 SLP165 T01720122 $=
202305260852 METAR KATL 260852Z 06013KT 10SM FEW085 18/12 A3002 RMK AO2 SLP158 T01780117 53001 $=
202305260752 METAR KATL 260752Z 07013KT 10SM FEW075 FEW085 19/11 A3001 RMK AO2 SLP152 T01890111 $=
202305260652 METAR KATL 260652Z 07012KT 10SM FEW095 19/11 A3001 RMK AO2 SLP154 T01940106 $=
202305260552 METAR KATL 260552Z 06010KT 10SM SCT095 20/11 A3002 RMK AO2 SLP156 T02000106 10250 20200 51006 $=
202305260452 METAR KATL 260452Z 06008KT 10SM BKN095 21/10 A3002 RMK AO2 SLP155 T02110100 402720167 $=
202305260352 METAR KATL 260352Z 05009KT 10SM BKN095 22/10 A3001 RMK AO2 SLP152 T02220100 $=
202305260252 METAR KATL 260252Z 07008KT 10SM SCT095 22/10 A3000 RMK AO2 SLP150 T02220100 52015 $=
202305260152 METAR KATL 260152Z 08010KT 10SM BKN095 23/10 A2998 RMK AO2 SLP145 T02280100 $=
202305260052 METAR KATL 260052Z 09008KT 10SM BKN095 23/09 A2997 RMK AO2 SLP141 T02330094 $=
202305252352 METAR KATL 252352Z 08015G21KT 10SM BKN090 BKN200 24/09 A2995 RMK AO2 SLP136 T02440089 10272 20244 55002 $=
202305252252 METAR KATL 252252Z 09013KT 10SM SCT090 SCT200 25/11 A2994 RMK AO2 SLP132 T02500111 $=
202305252152 METAR KATL 252152Z 09008G19KT 10SM FEW090 FEW200 26/10 A2994 RMK AO2 SLP132 T02610100 $=
202305252052 METAR KATL 252052Z 06012KT 040V100 10SM FEW080 FEW200 27/09 A2996 RMK AO2 PK WND 05026/2013 SLP137 T02670089 56008 $=
202305251952 METAR KATL 251952Z 04010G18KT 10SM FEW075 SCT200 27/08 A2997 RMK AO2 SLP140 T02720083 $=
202305251852 METAR KATL 251852Z 06013G20KT 10SM FEW075 FEW200 26/08 A2997 RMK AO2 SLP141 T02560083 $=
202305251752 METAR KATL 251752Z 10010G17KT 10SM FEW070 FEW200 26/09 A2998 RMK AO2 SLP145 T02560089 10261 20183 58005 $=
202305251652 METAR KATL 251652Z 04015KT 10SM FEW200 26/09 A2999 RMK AO2 SLP146 T02560089 $=
202305251552 METAR KATL 251552Z 08013KT 10SM FEW200 FEW250 24/09 A2999 RMK AO2 SLP149 T02390094 $=
202305251452 METAR KATL 251452Z 06011KT 10SM FEW250 23/09 A3000 RMK AO2 SLP150 T02330089 50004 $=
202305251352 METAR KATL 251352Z 07009KT 10SM FEW002 FEW250 22/09 A3001 RMK AO2 SLP152 FU FEW002 T02170089 $=
202305251350 SPECI KATL 251350Z 07010KT 10SM FEW001 FEW250 22/09 A3000 RMK AO2 FU FEW001 FU PLUME S $=
202305251252 METAR KATL 251252Z 08010KT 10SM FEW250 19/08 A3001 RMK AO2 SLP154 T01940083 $=
202305251152 METAR KATL 251152Z 05008KT 10SM FEW250 18/08 A2999 RMK AO2 SLP147 T01780083 10189 20167 52012 $=
202305251052 METAR KATL 251052Z 04008KT 10SM FEW200 FEW250 17/09 A2998 RMK AO2 SLP144 T01670094 $=
202305250952 METAR KATL 250952Z 05006KT 10SM FEW070 SCT250 17/09 A2996 RMK AO2 SLP138 T01670094 $=
202305250852 METAR KATL 250852Z 04005KT 10SM FEW070 SCT250 18/09 A2995 RMK AO2 SLP135 T01780089 57002 $=
202305250752 METAR KATL 250752Z 05005KT 10SM FEW060 FEW250 18/09 A2995 RMK AO2 SLP135 T01780094 $=
202305250652 METAR KATL 250652Z 07005KT 10SM FEW055 FEW250 18/11 A2995 RMK AO2 SLP136 T01780111=
202305250552 METAR KATL 250552Z 09004KT 10SM SCT055 SCT250 19/11 A2996 RMK AO2 SLP137 T01890106 10239 20189 58003=
202305250452 METAR KATL 250452Z 09004KT 10SM FEW065 FEW250 19/11 A2997 RMK AO2 SLP141 T01940111 402720183=
202305250352 METAR KATL 250352Z 10004KT 10SM SCT070 SCT250 21/11 A2997 RMK AO2 SLP141 T02060106=
202305250252 METAR KATL 250252Z 11004KT 10SM FEW080 SCT250 22/12 A2996 RMK AO2 SLP140 T02170122 51006=
202305250152 METAR KATL 250152Z 16003KT 10SM FEW060 SCT080 BKN250 22/13 A2996 RMK AO2 SLP139 T02220128=
202305250052 METAR KATL 250052Z 17005KT 10SM SCT055 BKN070 BKN250 23/12 A2996 RMK AO2 SLP138 MDT CU NE-SE T02280122=
202305242352 METAR KATL 242352Z VRB04KT 10SM BKN060 BKN200 BKN250 24/12 A2995 RMK AO2 SLP134 MDT CU NE-OHD-SW T02390117 10272 20239 55004=
202305242252 METAR KATL 242252Z 03006KT 10SM BKN065 BKN200 BKN250 25/11 A2993 RMK AO2 SLP129 T02500106=
202305242152 METAR KATL 242152Z 03007KT 10SM SCT060 BKN200 BKN250 26/11 A2995 RMK AO2 SLP134 T02610106=
202305242052 METAR KATL 242052Z 08007KT 10SM SCT060 SCT150 BKN250 26/11 A2996 RMK AO2 SLP137 T02560111 58023=
202305241952 METAR KATL 241952Z VRB05G14KT 10SM SCT060 SCT150 BKN250 26/11 A2998 RMK AO2 SLP145 T02610106=
202305241852 METAR KATL 241852Z VRB03G14KT 10SM FEW050 SCT120 SCT250 25/12 A3001 RMK AO2 SLP153 T02500122=
202305241752 METAR KATL 241752Z 09009KT 10SM FEW035 SCT120 SCT250 24/12 A3003 RMK AO2 SLP161 T02440117 10244 20183 58018=
202305241652 METAR KATL 241652Z 10007KT 10SM FEW075 SCT120 SCT250 23/12 A3005 RMK AO2 SLP169 T02330117=
202305241552 METAR KATL 241552Z 10008KT 10SM SCT075 SCT120 BKN250 22/10 A3007 RMK AO2 SLP177 T02220100 $=
202305241452 METAR KATL 241452Z 07013KT 10SM FEW039 SCT075 SCT120 BKN250 22/09 A3008 RMK AO2 SLP180 T02170094 50002 $=
202305241352 METAR KATL 241352Z 07015KT 10SM FEW035 SCT070 SCT100 BKN200 20/09 A3009 RMK AO2 SLP183 T02000094 $=
202305241252 METAR KATL 241252Z 07010KT 10SM FEW030 SCT065 BKN100 BKN200 19/09 A3009 RMK AO2 SLP183 T01890094 $=
202305241152 METAR KATL 241152Z 07014KT 10SM SCT026 BKN065 BKN100 BKN200 18/10 A3008 RMK AO2 SLP178 70001 T01830100 10194 20183 53012 $=
202305241150 SPECI KATL 241150Z 06014KT 10SM SCT026 BKN065 BKN100 BKN200 18/10 A3008 RMK AO2 $=
202305241123 SPECI KATL 241123Z 07013KT 10SM BKN025 BKN065 BKN100 18/10 A3007 RMK AO2 T01830100 $=
202305241052 METAR KATL 241052Z 07011KT 10SM FEW046 BKN060 BKN110 18/11 A3006 RMK AO2 SLP173 T01830106 $=
202305240952 METAR KATL 240952Z 08011KT 10SM SCT044 BKN055 OVC110 18/11 A3004 RMK AO2 SLP168 T01830111 $=
202305240852 METAR KATL 240852Z 08009G18KT 10SM OVC050 19/11 A3004 RMK AO2 SLP166 T01890111 55004 $=
202305240752 METAR KATL 240752Z 08011KT 10SM FEW046 BKN060 OVC100 19/12 A3004 RMK AO2 SLP165 T01890117 $=
202305240652 METAR KATL 240652Z 07011KT 10SM FEW048 BKN065 OVC100 19/12 A3004 RMK AO2 SLP167 T01890122 $=
202305240552 METAR KATL 240552Z 06012KT 10SM BKN060 OVC100 19/12 A3005 RMK AO2 SLP171 T01940117 10206 20194 58006 $=
202305240452 METAR KATL 240452Z 07010KT 10SM BKN060 BKN100 19/12 A3006 RMK AO2 SLP174 T01940122 402220178 $=
202305240352 METAR KATL 240352Z 07011KT 10SM BKN060 BKN100 19/12 A3007 RMK AO2 SLP175 T01940122 $=
202305240252 METAR KATL 240252Z 07010KT 10SM SCT050 BKN065 OVC100 20/12 A3007 RMK AO2 SLP177 T02000122 53006 $=
202305240152 METAR KATL 240152Z 07010KT 10SM FEW050 BKN100 BKN250 20/12 A3006 RMK AO2 SLP173 T02000122 $=
202305240052 METAR KATL 240052Z 08012KT 10SM FEW050 BKN100 BKN250 20/12 A3006 RMK AO2 SLP173 T02000117 $=
202305232352 METAR KATL 232352Z 06012KT 10SM SCT110 BKN140 BKN250 21/11 A3005 RMK AO2 SLP171 T02060111 10222 20200 58006 $=
202305232252 METAR KATL 232252Z 07012KT 10SM BKN100 BKN150 BKN200 22/11 A3006 RMK AO2 SLP174 T02170111 $=
202305232152 METAR KATL 232152Z 07013G19KT 10SM SCT095 BKN120 OVC200 22/11 A3007 RMK AO2 SLP177 T02220111 $=
202305232052 METAR KATL 232052Z 09010KT 10SM SCT035 BKN080 BKN095 22/12 A3007 RMK AO2 SLP176 T02220122 58013 $=
202305231952 METAR KATL 231952Z 08007KT 050V130 10SM SCT037 BKN075 BKN100 21/13 A3010 RMK AO2 SLP185 T02060128 $=
202305231852 METAR KATL 231852Z 07012KT 10SM SCT033 BKN080 BKN110 20/13 A3010 RMK AO2 SLP186 T02000128 $=
202305231752 METAR KATL 231752Z 06009KT 10SM SCT034 BKN070 BKN095 20/14 A3011 RMK AO2 SLP190 60001 T02000139 10200 20178 58002 $=
202305231652 METAR KATL 231652Z 07012KT 8SM SCT028 BKN037 BKN070 20/14 A3012 RMK AO2 RAB18E43 SLP193 P0000 T02000144 $=
202305231552 METAR KATL 231552Z 07016KT 10SM SCT024 BKN065 OVC110 19/13 A3012 RMK AO2 SLP196 T01890133=
202305231452 METAR KATL 231452Z 08012G21KT 8SM SCT019 OVC060 18/14 A3012 RMK AO2 RAE30 SLP194 P0000 60001 T01830144 53009=
202305231352 METAR KATL 231352Z 08012KT 6SM -RA BR SCT015 OVC060 18/16 A3011 RMK AO2 RAB02 SLP192 P0000 T01830156=
202305231252 METAR KATL 231252Z 08012KT 8SM BKN060 OVC100 18/16 A3010 RMK AO2 RAE25 SLP187 P0001 T01780156=
202305231152 METAR KATL 231152Z 09010KT 7SM -RA FEW055 BKN080 OVC110 18/16 A3009 RMK AO2 SLP186 P0000 60000 70041 T01780156 10183 20178 53009 $=
202305231052 METAR KATL 231052Z 08010KT 9SM -RA FEW070 BKN100 OVC130 18/16 A3008 RMK AO2 RAB17 SLP181 ACC E-S W-N P0000 T01780156 $=
202305230952 METAR KATL 230952Z 08010KT 10SM OVC055 18/16 A3006 RMK AO2 SLP176 T01780156=
202305230852 METAR KATL 230852Z 07008KT 10SM OVC055 18/15 A3006 RMK AO2 SLP175 T01780150 55006 $=
202305230752 METAR KATL 230752Z 07010KT 10SM OVC050 18/15 A3006 RMK AO2 SLP174 T01830150 $=
202305230652 METAR KATL 230652Z 06012KT 10SM OVC048 18/15 A3007 RMK AO2 SLP175 T01830150 $=
202305230552 METAR KATL 230552Z 06010KT 10SM OVC045 18/15 A3008 RMK AO2 SLP180 60000 T01830150 10189 20172 58003 $=
202305230452 METAR KATL 230452Z 07014KT 10SM BKN040 BKN055 OVC200 18/14 A3008 RMK AO2 SLP181 T01780144 402110172 $=
202305230352 METAR KATL 230352Z 08010KT 10SM BKN038 OVC050 18/15 A3009 RMK AO2 SLP184 T01780150 $=
202305230252 METAR KATL 230252Z 08010KT 10SM BKN034 OVC050 18/15 A3009 RMK AO2 RAB08E17 SLP184 P0000 60000 T01780150 51009 $=
202305230152 METAR KATL 230152Z 07012KT 10SM FEW006 BKN034 OVC100 18/15 A3009 RMK AO2 SLP183 T01780150 $=
202305230052 METAR KATL 230052Z 10008KT 9SM FEW006 BKN035 BKN100 BKN200 18/16 A3007 RMK AO2 RAE24 SLP176 P0000 T01780161 $=
202305230017 SPECI KATL 230017Z 09008KT 9SM -RA FEW006 BKN042 BKN100 BKN200 18/16 A3007 RMK AO2 P0000 T01830161 $=
202305222352 METAR KATL 222352Z 11008KT 9SM -RA FEW045 SCT060 BKN100 BKN200 18/16 A3006 RMK AO2 SLP174 P0003 60040 T01780156 10206 20178 55001 $=
202305222300 SPECI KATL 222300Z 08009G20KT 3SM RA BR FEW012 BKN040 OVC060 18/16 A3006 RMK AO2 P0001 T01830161 $=
202305222252 METAR KATL 222252Z 08011KT 1SM +RA BR FEW012 BKN040 OVC060 18/16 A3006 RMK AO2 SLP173 P0025 T01780156 RVRNO $=
202305222201 SPECI KATL 222201Z 10011KT 1SM +RA FEW010 BKN040 OVC060 18/15 A3007 RMK AO2 LTG DSNT E CB DSNT E P0004 T01780150 RVRNO $=
202305222152 METAR KATL 222152Z 09010KT 7SM -RA FEW010 BKN045 OVC070 18/16 A3006 RMK AO2 SLP175 VIS LWR NW-NE P0003 T01830156 $=
202305222125 SPECI KATL 222125Z 06010KT 4SM -RA FEW010 BKN040 OVC060 18/16 A3007 RMK AO2 P0003 T01830156 $=
202305222052 METAR KATL 222052Z 04009KT 2 1/2SM RA SCT034 OVC045 19/16 A3007 RMK AO2 RAE03B21 SLP176 VIS S 3 P0004 60009 T01890161 58002 $=
202305222036 SPECI KATL 222036Z 07011KT 2 1/2SM +RA FEW020 OVC045 19/16 A3006 RMK AO2 RAE03B21 VIS S 3 P0003 T01890161 $=
202305221952 METAR KATL 221952Z 08012KT 7SM -RA FEW021 SCT040 OVC050 19/16 A3007 RMK AO2 SLP176 VIS LWR NW P0005 T01940161 $=
202305221928 SPECI KATL 221928Z 08012KT 3SM -RA SCT021 OVC042 19/16 A3007 RMK AO2 VIS SE-S 2 P0001 T01940161 $=
202305221922 SPECI KATL 221922Z 08012KT 6SM -RA SCT021 OVC042 20/16 A3007 RMK AO2 VIS LWR SE-S P0000 T02000161=
202305221852 METAR KATL 221852Z 07014KT 7SM -RA BKN021 OVC042 21/16 A3007 RMK AO2 RAE13B51 SLP178 P0000 T02060156=
202305221813 SPECI KATL 221813Z 06012KT 7SM BKN022 BKN034 OVC060 20/16 A3007 RMK AO2 RAE13 SHRA NW-N P0000 T02000161=
202305221752 METAR KATL 221752Z 06012KT 6SM -RA SCT018 BKN035 OVC060 21/16 A3007 RMK AO2 SLP177 P0000 60001 T02060161 10211 20200 58002=
202305221652 METAR KATL 221652Z 08015G21KT 8SM -RA FEW021 BKN036 OVC050 20/16 A3008 RMK AO2 SLP179 VIS LWR SE-S P0000 T02000156=
202305221552 METAR KATL 221552Z 09014G21KT 9SM -RA FEW018 BKN042 OVC060 21/16 A3009 RMK AO2 RAB50 SLP181 P0000 T02060156=
202305221452 METAR KATL 221452Z 08012KT 10SM FEW016 BKN044 OVC060 20/16 A3008 RMK AO2 RAE1355 SLP178 P0000 60001 T02000156 51009=
202305221352 METAR KATL 221352Z 08011KT 9SM -RA FEW012 BKN044 OVC150 20/18 A3007 RMK AO2 RAB40 SLP176 P0001 T02000178=
202305221252 METAR KATL 221252Z 08015KT 10SM SCT011 BKN031 OVC065 21/17 A3006 RMK AO2 RAE1156 SLP170 P0000 T02060172=
202305221233 SPECI KATL 221233Z 07013KT 9SM FEW014 OVC031 20/17 A3005 RMK AO2 RAE1156 P0000 T02000172=
202305221152 METAR KATL 221152Z 07013KT 9SM -RA FEW011 OVC027 21/18 A3005 RMK AO2 RAB42 SLP168 P0000 60000 T02060178 10206 20200 53012=
202305221143 SPECI KATL 221143Z 07011KT 7SM -RA SCT009 OVC025 21/18 A3005 RMK AO2 RAB42 P0000 T02060178=
202305221052 METAR KATL 221052Z 08012KT 9SM OVC008 21/18 A3003 RMK AO2 SLP161 T02060178 $=
202305221017 SPECI KATL 221017Z 06011KT 10SM OVC009 21/18 A3003 RMK AO2 T02060178=
202305220952 METAR KATL 220952Z 08010KT 9SM OVC010 21/18 A3002 RMK AO2 SLP158 T02060178=
202305220923 SPECI KATL 220923Z 08009KT 10SM OVC013 21/18 A3002 RMK AO2 T02060178 $=
202305220852 METAR KATL 220852Z 08009KT 10SM FEW010 BKN016 OVC036 21/18 A3001 RMK AO2 SLP154 T02060178 56003 $=
202305220835 SPECI KATL 220835Z 08012KT 10SM FEW013 SCT024 SCT036 OVC200 20/18 A3001 RMK AO2 T02000178 $=
202305220805 SPECI KATL 220805Z 08011KT 10SM FEW010 BKN020 OVC033 21/18 A3001 RMK AO2 BINOVC T02060178 $=
202305220752 METAR KATL 220752Z 09008KT 10SM SCT020 BKN032 BKN065 OVC200 20/18 A3001 RMK AO2 SLP154 T02000178 $=
202305220652 METAR KATL 220652Z 08008KT 10SM FEW011 BKN017 OVC026 21/18 A3002 RMK AO2 SLP156 CIG 015V019 BINOVC T02060183 $=
202305220637 SPECI KATL 220637Z 09008KT 10SM BKN016 OVC024 21/18 A3002 RMK AO2 CIG 014V018 BINOVC T02060178 $=
202305220552 METAR KATL 220552Z 09010KT 10SM SCT009 OVC014 21/18 A3002 RMK AO2 SLP158 CIG 012V016 T02060183 10244 20206 58002 $=
202305220533 SPECI KATL 220533Z 10009KT 10SM BKN011 BKN140 BKN200 BKN250 21/18 A3002 RMK AO2 T02060183 $=
202305220452 METAR KATL 220452Z 09010KT 10SM SCT013 BKN200 BKN250 21/18 A3003 RMK AO2 SLP160 T02060183 402670183 $=
202305220352 METAR KATL 220352Z 09008KT 10SM FEW015 FEW020 SCT070 BKN250 22/18 A3004 RMK AO2 SLP163 T02170183 $=
202305220252 METAR KATL 220252Z 09005KT 10SM FEW014 SCT024 BKN200 BKN250 22/19 A3003 RMK AO2 SLP160 T02220189 53013 $=
202305220152 METAR KATL 220152Z 12004KT 10SM FEW035 FEW070 BKN200 OVC250 23/19 A3001 RMK AO2 SLP154 T02330189 $=
202305220052 METAR KATL 220052Z 12005KT 10SM FEW035 FEW070 OVC250 24/18 A3000 RMK AO2 SLP150 T02390183 $=
202305212352 METAR KATL 212352Z 12005KT 10SM FEW035 FEW070 FEW100 BKN200 BKN250 24/18 A2999 RMK AO2 SLP147 VIRGA SW CB DSNT W TCU DSNT NW T02440183 10267 20244 53004 $=
202305212252 METAR KATL 212252Z 10007KT 10SM SCT055 25/18 A2997 RMK AO2 SLP142 T02500183 $=
202305212152 METAR KATL 212152Z 12005KT 10SM SCT034TCU SCT060 SCT100 BKN250 26/18 A2998 RMK AO2 SLP142 TCU NW-NE AND DSNT SW-W MDT CU ALQDS T02610183 $=
202305212052 METAR KATL 212052Z 13008KT 10SM SCT033TCU BKN060 BKN220 26/18 A2998 RMK AO2 SLP143 TCU OHD-NW DSNT N E MDT CU ALQDS T02610183 58012=
202305211952 METAR KATL 211952Z 13006KT 10SM SCT032 BKN060 BKN250 26/18 A2999 RMK AO2 SLP147 MDT CU ALQDS T02610183=
202305211852 METAR KATL 211852Z 11005KT 10SM SCT030 BKN055 26/18 A3000 RMK AO2 SLP151 MDT CU ALQDS T02560183=
202305211752 METAR KATL 211752Z 05007KT 10SM FEW028 OVC050 25/18 A3001 RMK AO2 SLP154 MDT CU DSNT ALQDS BINOVC T02500183 10250 20189 58008=
202305211652 METAR KATL 211652Z 07006KT 10SM SCT021 OVC038 23/18 A3003 RMK AO2 SLP161 BINOVC T02330178=
202305211616 SPECI KATL 211616Z 05010KT 10SM SCT021 OVC038 23/18 A3003 RMK AO2 BINOVC T02330178=
202305211552 METAR KATL 211552Z 07006KT 10SM BKN019 OVC040 23/18 A3004 RMK AO2 SLP163 BINOVC T02280178=
202305211452 METAR KATL 211452Z 04003KT 10SM BKN017 OVC038 22/18 A3004 RMK AO2 SLP163 BINOVC T02220178 50004=
202305211352 METAR KATL 211352Z 10SM SCT013 OVC021 21/17 A3004 RMK AO2 SLP165 T02110172 $=
202305211252 METAR KATL 211252Z 01007KT 10SM SCT009 BKN028 BKN200 20/17 A3003 RMK AO2 SLP163 T02000172 $=
202305211238 SPECI KATL 211238Z 34007KT 10SM SCT009 BKN028 20/17 A3004 RMK AO2 T02000172 $=
202305211152 METAR KATL 211152Z 34007KT 10SM BKN005 BKN050 19/17 A3002 RMK AO2 SLP160 CIG 005V010 70056 T01890172 10211 20183 53010 $=
202305211127 SPECI KATL 211127Z 36007KT 10SM BKN005 BKN050 19/17 A3002 RMK AO2 CIG 004V007 T01890172 $=
202305211052 METAR KATL 211052Z 34006KT 10SM BKN004 BKN050 18/17 A3001 RMK AO2 SLP153 T01830172 $=
202305210952 METAR KATL 210952Z 34009KT 8SM BKN003 BKN030 18/17 A2999 RMK AO2 SLP148 BKN003 V SCT T01830172 $=
202305210945 SPECI KATL 210945Z 34007KT 8SM BKN003 BKN030 18/17 A2999 RMK AO2 BKN003 V SCT T01830172 $=
202305210852 METAR KATL 210852Z 35007KT 10SM FEW007 FEW030 SCT250 19/17 A2999 RMK AO2 SLP150 T01890172 56006 $=
202305210845 SPECI KATL 210845Z 35008KT 10SM FEW007 FEW030 SCT250 19/17 A3000 RMK AO2 T01890172 $=
202305210752 METAR KATL 210752Z 36005KT 10SM FEW030 SCT250 19/17 A3000 RMK AO2 SLP151 T01940172 $=
202305210652 METAR KATL 210652Z 07005KT 10SM FEW009 FEW025 SCT250 19/17 A3001 RMK AO2 WSHFT 0547 SLP153 T01940172 $=
202305210617 SPECI KATL 210617Z 05007KT 10SM FEW009 SCT025 BKN048 20/18 A3001 RMK AO2 WSHFT 0547 T02000178 $=
202305210603 SPECI KATL 210603Z 05013KT 10SM FEW009 BKN015 OVC030 20/18 A3001 RMK AO2 WSHFT 0547 T02000178 $=
202305210600 SPECI KATL 210600Z 05014KT 10SM SCT009 BKN015 OVC030 21/18 A3001 RMK AO2 T02060178 $=
202305210552 METAR KATL 210552Z 04012KT 10SM BKN007 BKN013 OVC043 21/19 A3001 RMK AO2 RAE06 SLP155 CIG 006V010 P0000 60056 T02110189 10239 20211 53005 $=
202305210507 SPECI KATL 210507Z 29004KT 8SM BKN008 BKN013 OVC043 21/20 A3001 RMK AO2 LTG DSNT E RAE06 CB DSNT E-SE P0000 T02110200 $=
202305210452 METAR KATL 210452Z 29005KT 10SM -RA SCT013 BKN020 OVC041 21/20 A3000 RMK AO2 LTG DSNT E SLP152 TSE18 TS MOV E CB DSNT E BINOVC P0051 T02110200 402500183 $=
202305210419 SPECI KATL 210419Z 26006KT 5SM -RA BR FEW009 BKN026 OVC032 21/20 A3000 RMK AO2 TSE18 TS MOV E P0048 T02110200 $=
202305210413 SPECI KATL 210413Z 25007KT 3SM -TSRA BR SCT009 BKN024CB OVC030 21/20 A3000 RMK AO2 OCNL LTGIC NE-E TS NE-E MOV E P0047 T02110200 $=
202305210404 SPECI KATL 210404Z 26005G15KT 2SM TSRA BR FEW006 BKN015CB OVC030 21/21 A3000 RMK AO2 LTG DSNT NE OCNL LTGIC NE TS NE MOV E CB DSNT SW AND NE P0037 T02110206 $=
202305210354 SPECI KATL 210354Z 30008G19KT 2 1/2SM TSRA BR BKN010 BKN016 OVC035 22/21 A3000 RMK AO2 CIG 005V013 P0001 T02170206 $=
202305210352 METAR KATL 210352Z 31009G19KT 2SM TSRA BR SCT010 BKN016CB OVC060 22/20 A3000 RMK AO2 SLP152 RAB31 TSB26 OCNL LTGIC OHD-NE TS OHD-NE MOV E CB SW-W AND DSNT NE P0005 T02170200 $=
202305210346 SPECI KATL 210346Z 35011G17KT 2SM TSRA BR SCT010 BKN025CB OVC055 22/20 A3001 RMK AO2 RAB31 TSB26 OCNL LTGIC OHD AND SW-NE TS OHD AND SW-NE MOV E CB DSNT SW-W AND NE P0000 $=
202305210329 SPECI KATL 210329Z 20005KT 10SM TS FEW012 SCT025CB BKN070 BKN250 22/19 A2999 RMK AO2 TSB26 OCNL LTGIC N-NE TS N-NE MOV E CB DSNT SW-W AND NE T02220194 $=
202305210321 SPECI KATL 210321Z 19007KT 10SM FEW012 SCT024CB BKN033 BKN250 22/19 A2999 RMK AO2 LTG DSNT NE CB N AND DSNT W AND NE T02220194 $=
202305210252 METAR KATL 210252Z 18006KT 10SM BKN025 BKN033 BKN110 BKN250 23/19 A3000 RMK AO2 SLP149 T02280194 53005 $=
202305210152 METAR KATL 210152Z 16005KT 10SM BKN027 BKN035 BKN110 BKN250 23/19 A2999 RMK AO2 SLP148 T02280194 $=
202305210140 SPECI KATL 210140Z 17005KT 10SM BKN027 BKN050 BKN110 BKN250 23/19 A2999 RMK AO2 T02280194 $=
202305210052 METAR KATL 210052Z 17006KT 10SM FEW030 SCT055 BKN110 BKN250 23/19 A2999 RMK AO2 SLP147 TCU DSNT W T02330194 $=
202305202352 METAR KATL 202352Z 19006KT 10SM FEW025 FEW050 SCT100 SCT150 BKN250 24/19 A2998 RMK AO2 SLP145 TCU DSNT W T02390189 10250 20228 56012 $=
202305202252 METAR KATL 202252Z 17006KT 10SM FEW025 FEW050 BKN150 BKN250 25/19 A2999 RMK AO2 SLP147 T02500189 $=
202305202152 METAR KATL 202152Z 21005KT 10SM SCT026 BKN038 BKN150 OVC200 24/18 A3000 RMK AO2 SLP152 BINOVC T02440183 $=
202305202052 METAR KATL 202052Z 22006KT 10SM SCT024 OVC038 24/18 A3002 RMK AO2 SLP157 MDT CU ALQDS BINOVC T02440183 56022 $=
202305202028 SPECI KATL 202028Z 19006KT 10SM SCT026 BKN034 BKN250 24/18 A3002 RMK AO2 MDT CU ALQDS T02390183 $=
202305201952 METAR KATL 201952Z VRB03KT 10SM BKN024 BKN033 BKN250 24/18 A3003 RMK AO2 SLP161 T02440178 $=
202305201852 METAR KATL 201852Z VRB03KT 10SM BKN023 BKN045 BKN250 24/18 A3006 RMK AO2 SLP170 T02390178 $=
202305201752 METAR KATL 201752Z 24004KT 10SM OVC023 23/17 A3008 RMK AO2 SLP179 T02280172 10233 20189 57011 $=
202305201652 METAR KATL 201652Z VRB04KT 10SM BKN021 OVC032 22/17 A3009 RMK AO2 SLP183 T02220172 $=
202305201552 METAR KATL 201552Z VRB03KT 10SM BKN019 OVC035 21/17 A3010 RMK AO2 SLP188 T02110167 $=
202305201452 METAR KATL 201452Z 19007KT 10SM BKN016 OVC038 22/17 A3012 RMK AO2 SLP192 T02170167 50004 $=
202305201352 METAR KATL 201352Z 17006KT 10SM SCT011 BKN022 OVC032 19/17 A3012 RMK AO2 SLP192 T01940167 $=
202305201317 SPECI KATL 201317Z 17004KT 10SM SCT011 BKN021 OVC030 19/17 A3011 RMK AO2 T01940167 $=
202305201252 METAR KATL 201252Z 18004KT 10SM BKN011 OVC032 19/17 A3011 RMK AO2 SLP190 T01940167 $=
202305201241 SPECI KATL 201241Z 20004KT 10SM BKN012 BKN019 OVC030 19/17 A3011 RMK AO2 BKN012 V SCT T01940167 $=
202305201152 METAR KATL 201152Z 15003KT 9SM FEW007 OVC019 19/17 A3010 RMK AO2 SLP188 60000 T01890167 10194 20183 53007 $=
202305201052 METAR KATL 201052Z 00000KT 7SM FEW005 SCT009 OVC023 18/17 A3010 RMK AO2 DZE48 SLP186 P0000 T01830172 $=
202305200952 METAR KATL 200952Z 00000KT 5SM -DZ BR BKN006 BKN011 OVC018 18/17 A3008 RMK AO2 DZB51 SLP180 P0000 T01830167 $=
202305200943 SPECI KATL 200943Z 00000KT 9SM FEW007 BKN014 OVC018 18/17 A3008 RMK AO2 T01830167 $=
202305200852 METAR KATL 200852Z 14003KT 10SM FEW009 OVC021 18/17 A3008 RMK AO2 SLP180 T01830167 55002 $=
202305200752 METAR KATL 200752Z 13004KT 10SM SCT009 OVC021 19/17 A3008 RMK AO2 SLP178 T01890167 $=
202305200750 SPECI KATL 200750Z 12006KT 10SM SCT009 OVC021 19/17 A3008 RMK AO2 $=
202305200652 METAR KATL 200652Z 13007KT 10SM BKN009 OVC023 19/17 A3008 RMK AO2 SLP181 BKN009 V SCT T01890167=
202305200627 SPECI KATL 200627Z 12007KT 10SM BKN009 OVC023 19/16 A3008 RMK AO2 BKN009 V SCT T01890161=
202305200552 METAR KATL 200552Z 12007KT 10SM FEW010 BKN026 19/17 A3009 RMK AO2 SLP183 T01940167 10222 20189 58011=
202305200452 METAR KATL 200452Z 13004KT 10SM BKN029 19/17 A3011 RMK AO2 SLP188 T01940167 402280161=
202305200352 METAR KATL 200352Z 15004KT 10SM BKN029 19/17 A3011 RMK AO2 SLP192 T01890167=
202305200252 METAR KATL 200252Z 00000KT 10SM FEW030 19/16 A3012 RMK AO2 SLP195 T01940161 53007=
202305200152 METAR KATL 200152Z 14004KT 10SM FEW032 20/16 A3010 RMK AO2 SLP189 T02000161=
202305200052 METAR KATL 200052Z 14006KT 10SM FEW025 BKN032 21/16 A3010 RMK AO2 SLP187 T02110161=
202305192352 METAR KATL 192352Z 12008KT 10SM FEW025 BKN035 22/16 A3010 RMK AO2 SLP187 T02220161 10228 20217 56006=
202305192252 METAR KATL 192252Z 08006KT 10SM FEW025 BKN038 23/16 A3011 RMK AO2 SLP188 T02280161=
202305192152 METAR KATL 192152Z 13005KT 10SM FEW025 OVC038 23/16 A3011 RMK AO2 SLP190 BINOVC T02280161=
202305192052 METAR KATL 192052Z 15007KT 10SM SCT027 OVC036 22/16 A3012 RMK AO2 SLP193 BINOVC T02220161 58005=
202305192004 SPECI KATL 192004Z 08004KT 10SM BKN032 OVC037 23/16 A3013 RMK AO2 BINOVC T02280156=
202305191952 METAR KATL 191952Z 15004KT 10SM BKN028 OVC036 23/16 A3013 RMK AO2 SLP196 BINOVC T02280156=
202305191935 SPECI KATL 191935Z 12005KT 10SM BKN031 OVC036 22/16 A3013 RMK AO2 BINOVC T02220156=
202305191852 METAR KATL 191852Z VRB05KT 10SM BKN027 OVC032 22/16 A3014 RMK AO2 SLP199 T02220156=
202305191752 METAR KATL 191752Z 11006KT 10SM OVC024 22/16 A3013 RMK AO2 SLP198 BINOVC T02170156 10222 20167 58009=
202305191652 METAR KATL 191652Z 07009KT 10SM BKN021 OVC026 21/15 A3014 RMK AO2 SLP202 T02060150=
202305191552 METAR KATL 191552Z 10009KT 10SM OVC017 19/14 A3016 RMK AO2 SLP208 T01940144=
202305191452 METAR KATL 191452Z 09010KT 10SM OVC015 18/14 A3016 RMK AO2 SLP208 T01830144 51009=
202305191418 SPECI KATL 191418Z 10009KT 10SM OVC015 18/14 A3016 RMK AO2 T01780139=
202305191352 METAR KATL 191352Z 11008G16KT 10SM OVC014 18/14 A3016 RMK AO2 SLP208 T01780139=
202305191252 METAR KATL 191252Z 07011KT 10SM OVC011 17/14 A3015 RMK AO2 SLP206 T01720139=
202305191152 METAR KATL 191152Z 07014KT 10SM OVC011 17/14 A3013 RMK AO2 SLP200 T01670139 10172 20161 53006=
202305191052 METAR KATL 191052Z 07012KT 10SM OVC011 17/14 A3013 RMK AO2 SLP197 T01670139=
202305190952 METAR KATL 190952Z 07012KT 10SM OVC012 17/13 A3012 RMK AO2 SLP194 T01670133=
202305190852 METAR KATL 190852Z 08010KT 10SM OVC011 17/14 A3012 RMK AO2 SLP193 T01670139 53000=
202305190752 METAR KATL 190752Z 07011KT 10SM OVC013 17/14 A3011 RMK AO2 SLP191 T01720139=
202305190652 METAR KATL 190652Z 08009KT 10SM BKN014 BKN020 17/14 A3011 RMK AO2 SLP191 T01720139=
202305190632 SPECI KATL 190632Z 09010KT 10SM BKN014 BKN020 17/14 A3011 RMK AO2 T01720139=
202305190552 METAR KATL 190552Z 09013KT 10SM BKN018 BKN025 17/13 A3011 RMK AO2 SLP191 T01720133 10183 20172 58004=
202305190452 METAR KATL 190452Z 10013G21KT 10SM BKN015 BKN024 BKN200 18/14 A3012 RMK AO2 PK WND 09027/0412 SLP193 T01780139 402220178=
202305190352 METAR KATL 190352Z 09015G21KT 10SM BKN013 BKN020 18/14 A3013 RMK AO2 SLP198 T01780144=
202305190252 METAR KATL 190252Z 08013G19KT 10SM SCT012 BKN017 OVC035 18/15 A3013 RMK AO2 PK WND 07026/0233 SLP195 T01830150 53008=
202305190223 SPECI KATL 190223Z 09014G22KT 10SM BKN013 OVC020 18/16 A3012 RMK AO2 T01830156=
202305190152 METAR KATL 190152Z 09015G21KT 10SM BKN015 OVC023 18/15 A3010 RMK AO2 SLP187 BINOVC T01830150=
202305190147 SPECI KATL 190147Z 09012G23KT 10SM BKN015 OVC023 18/15 A3010 RMK AO2 BINOVC=
202305190052 METAR KATL 190052Z 09010KT 10SM OVC013 18/15 A3010 RMK AO2 PK WND 08026/2353 SLP186 T01830150=
202305182352 METAR KATL 182352Z 08020G28KT 10SM OVC012 18/16 A3007 RMK AO2 PK WND 07029/2334 SLP175 T01830156 10222 20183 51010=
202305182252 METAR KATL 182252Z 06017KT 10SM OVC010 19/16 A3006 RMK AO2 PK WND 04027/2231 SLP175 T01940161=
202305182152 METAR KATL 182152Z 07014KT 10SM OVC012 20/17 A3006 RMK AO2 SLP172 T02000167=
202305182052 METAR KATL 182052Z 08014KT 10SM OVC013 21/17 A3003 RMK AO2 SLP164 T02060172 58001=
202305181952 METAR KATL 181952Z 07014KT 10SM OVC016 22/17 A3003 RMK AO2 SLP164 T02170172=
202305181852 METAR KATL 181852Z 07013KT 10SM BKN019 OVC026 22/17 A3004 RMK AO2 SLP165 T02170172=
202305181752 METAR KATL 181752Z 07008KT 10SM BKN020 OVC027 21/17 A3004 RMK AO2 SLP165 60000 T02110172 10222 20194 50005=
202305181652 METAR KATL 181652Z 07011KT 10SM BKN019 OVC027 21/17 A3004 RMK AO2 SLP165 T02110167=
202305181552 METAR KATL 181552Z 13007KT 10SM SCT015 BKN028 OVC060 22/18 A3003 RMK AO2 SLP162 T02220178=
202305181452 METAR KATL 181452Z 12006KT 7SM SCT012 BKN019 BKN065 22/18 A3002 RMK AO2 DZE35 SLP159 P0000 60000 T02170178 51021=
202305181352 METAR KATL 181352Z 11008KT 4SM -DZ BR BKN006 OVC015 20/18 A3000 RMK AO2 DZB1258 CIG 004V011 SLP152 P0000 T02000183=
202305181321 SPECI KATL 181321Z 12009KT 1/2SM -DZ BR OVC005 20/18 A2999 RMK AO2 SFC VIS 2 1/2 DZB1258 TWRINC P0000 T02000183 $=
202305181303 SPECI KATL 181303Z 09008KT 2SM -DZ BR OVC005 20/18 A2999 RMK AO2 SFC VIS 4 DZB1258 P0000 T02000183=
202305181252 METAR KATL 181252Z 10008KT 1/2SM BR OVC005 20/18 A2998 RMK AO2 SFC VIS 5 SLP146 DZE40 TWRINC P0000 T02000183=
202305181152 METAR KATL 181152Z 11006KT 1/2SM -DZ BR OVC003 20/19 A2996 RMK AO2 SFC VIS 4 SLP137 DZB44 TWRINC P0000 60000 T02000189 10200 20194 53019=
202305181110 SPECI KATL 181110Z 09009KT 1/2SM OVC003 20/19 A2993 RMK AO2 SFC VIS 7 TWRINC T02000189=
202305181052 METAR KATL 181052Z 08010KT 2SM BKN004 OVC007 20/18 A2993 RMK AO2 SFC VIS 9 SLP127 TWRINC T02000183=
202305181043 SPECI KATL 181043Z 08010KT 2SM BKN004 OVC007 20/18 A2992 RMK AO2 SFC VIS 10 TWRINC T02000183=
202305180952 METAR KATL 180952Z 03005KT 3SM SCT004 BKN085 20/18 A2991 RMK AO2 SFC VIS 10 SLP120 T02000183=
202305180924 SPECI KATL 180924Z 04005KT 3SM SCT003 BKN060 19/18 A2990 RMK AO2 SFC VIS 9 T01940183=
202305180852 METAR KATL 180852Z 03006KT 1/2SM BKN003 19/18 A2990 RMK AO2 SFC VIS 7 SLP117 TWRINC T01940183 53005=
202305180752 METAR KATL 180752Z 30006KT 1/2SM BR OVC003 19/18 A2988 RMK AO2 SFC VIS 3 SLP110 TWRINC T01940183=
202305180652 METAR KATL 180652Z 00000KT 7SM BKN002 BKN060 19/19 A2988 RMK AO2 SLP108 VIS LWR SE-W T01940189=
202305180644 SPECI KATL 180644Z 20004KT 8SM BKN003 BKN060 19/18 A2988 RMK AO2 VIS LWR SE-W T01940183=
202305180552 METAR KATL 180552Z 00000KT 10SM FEW005 FEW020 SCT060 BKN220 20/19 A2988 RMK AO2 SLP111 T02000189 10233 20200 58000=
202305180452 METAR KATL 180452Z 00000KT 10SM FEW006 FEW050 SCT150 BKN220 21/19 A2989 RMK AO2 SLP113 T02060189 402720189=
202305180352 METAR KATL 180352Z 00000KT 10SM FEW008 FEW060 SCT150 OVC200 21/19 A2989 RMK AO2 SLP113 T02060194=
202305180252 METAR KATL 180252Z 25005KT 10SM FEW060 SCT150 OVC200 22/20 A2989 RMK AO2 SLP112 T02170200 51024=
202305180152 METAR KATL 180152Z 20004KT 10SM SCT150 OVC200 22/20 A2986 RMK AO2 SLP105 VIRGA DSNT S-W T02220200=
202305180052 METAR KATL 180052Z 21003KT 10SM BKN150 OVC200 22/19 A2984 RMK AO2 SLP098 VIRGA DSNT SW-W T02220194=
202305172352 METAR KATL 172352Z 26004KT 10SM FEW050 BKN150 OVC200 23/19 A2981 RMK AO2 SLP088 VIRGA SW TCU DSNT N W 60000 T02280189 10272 20228 50000=
202305172252 METAR KATL 172252Z 26004KT 10SM FEW050 BKN130 OVC200 23/19 A2982 RMK AO2 RAE2154 SLP090 VIRGA E-SE CB DSNT W TCU DSNT NE P0000 T02330189=
202305172152 METAR KATL 172152Z 25005KT 10SM -RA FEW050 BKN130 OVC200 23/19 A2983 RMK AO2 RAB15 SLP092 CB DSNT SE-S W TCU DSNT N-NE P0000 T02330194=
202305172052 METAR KATL 172052Z 33007KT 10SM SCT034 SCT047 BKN120 BKN180 24/17 A2981 RMK AO2 LTG DSNT SW AND W SLP088 CB DSNT NE SW AND W VIRGA SW-NW T02390167 56014=
202305171952 METAR KATL 171952Z 32006KT 10SM SCT035 SCT045 BKN100 BKN150 26/18 A2981 RMK AO2 LTG DSNT SW AND W SLP087 CB DSNT NE AND S-SW T02560183=
202305171852 METAR KATL 171852Z 32006KT 10SM SCT031 SCT042 BKN110 BKN250 27/18 A2984 RMK AO2 LTG DSNT S AND SW SLP094 CB DSNT SE-SW T02670183 $=
202305171752 METAR KATL 171752Z 33008KT 10SM SCT023 BKN038 BKN110 26/19 A2985 RMK AO2 LTG DSNT S AND SW SLP101 CB DSNT NE AND S-SW TCU DSNT NW-NE T02560189 10256 20194 58012 $=
202305171652 METAR KATL 171652Z 33009KT 10SM SCT022 BKN042 BKN140 25/18 A2988 RMK AO2 LTG DSNT SW SLP109 CB DSNT NE AND SW T02500183=
202305171552 METAR KATL 171552Z 34008G15KT 10SM BKN017 BKN024 24/19 A2989 RMK AO2 SLP114 T02390194=
202305171534 SPECI KATL 171534Z 31005KT 10SM BKN017 BKN024 23/19 A2989 RMK AO2 T02330189=
202305171452 METAR KATL 171452Z 30007KT 8SM BKN012 BKN017 23/19 A2989 RMK AO2 SLP114 T02330194 53011=
202305171352 METAR KATL 171352Z 29008KT 8SM BKN010 BKN016 21/18 A2988 RMK AO2 SLP111 T02110183=
202305171334 SPECI KATL 171334Z 29009KT 8SM BKN010 BKN016 22/18 A2988 RMK AO2 T02170183=
202305171316 SPECI KATL 171316Z 29009KT 10SM SCT007 SCT014 BKN150 BKN250 22/18 A2987 RMK AO2 T02170183=
202305171252 METAR KATL 171252Z 31009KT 10SM FEW007 BKN011 BKN150 BKN250 21/18 A2986 RMK AO2 SLP105 CIG 009V013 T02110183=
202305171246 SPECI KATL 171246Z 31009KT 10SM BKN012 BKN150 BKN250 21/18 A2986 RMK AO2=
202305171152 METAR KATL 171152Z 29008KT 7SM OVC007 19/18 A2986 RMK AO2 SLP104 CIG 006V010 BINOVC 70029 T01940183 10200 20189 53006 $=
202305171130 SPECI KATL 171130Z 30010KT 7SM BKN008 19/18 A2985 RMK AO2 CIG 007V011 T01940178 $=
202305171052 METAR KATL 171052Z 26005KT 7SM FEW005 FEW110 SCT200 SCT250 19/18 A2984 RMK AO2 SLP097 T01890178=
202305170952 METAR KATL 170952Z 27006KT 7SM SCT005 SCT014 19/18 A2983 RMK AO2 SLP093 T01940183=
202305170936 SPECI KATL 170936Z 27007KT 8SM SCT004 SCT014 19/18 A2983 RMK AO2 T01940183 $=
202305170852 METAR KATL 170852Z 26007KT 7SM BKN004 BKN110 19/18 A2984 RMK AO2 SLP094 T01940183 53001 $=
202305170752 METAR KATL 170752Z 25005KT 6SM BR BKN004 BKN150 19/18 A2983 RMK AO2 SLP090 T01940183 $=
202305170652 METAR KATL 170652Z 31009KT 7SM BKN004 BKN150 19/18 A2983 RMK AO2 SLP091 BKN004 V SCT T01940183=
202305170646 SPECI KATL 170646Z 30007KT 7SM BKN004 BKN150 20/18 A2984 RMK AO2=
202305170638 SPECI KATL 170638Z 28005KT 8SM BKN006 BKN150 19/18 A2984 RMK AO2 T01940183=
202305170552 METAR KATL 170552Z 22004KT 8SM FEW008 FEW120 BKN150 BKN200 20/18 A2985 RMK AO2 SLP100 60013 T02000183 10217 20200 58014=
202305170452 METAR KATL 170452Z 24005KT 10SM SCT009 SCT120 BKN150 BKN200 20/19 A2989 RMK AO2 TSE07 SLP112 T02000189 403110200=
202305170407 SPECI KATL 170407Z 28005KT 10SM SCT012 BKN025 BKN040 OVC150 20/19 A2992 RMK AO2 TSE07 LTG DSNT E-SE TS MOVD SE CB DSNT E-SE T02000189=
202305170352 METAR KATL 170352Z 26003KT 10SM TS FEW008 SCT025CB BKN035 OVC130 20/18 A2991 RMK AO2 RAB16E42 TSB06 SLP120 OCNL LTGICCG VC NE-SE TS VC NE-SE MOV SE P0013 T02000183=
202305170331 SPECI KATL 170331Z 35009KT 4SM TSRA BR FEW008 SCT025CB BKN040 OVC130 21/19 A2991 RMK AO2 RAB16 TSB06 OCNL LTGICCG N-E-S TS N-E-S MOV SE P0013 T02060189=
202305170318 SPECI KATL 170318Z 24009G14KT 2SM +TSRA BR SCT023CB BKN035 OVC130 21/19 A2991 RMK AO2 RAB16 TSB06 OCNL LTGICCG NE-OHD-SW TS NE-OHD-SW MOV SE P0002 T02060189=
202305170306 SPECI KATL 170306Z 23006KT 10SM TS SCT025CB BKN040 BKN130 BKN200 20/19 A2989 RMK AO2 TSB06 OCNL LTGICCG W-NW DSNT NE SW TS W-NW DSNT NE SW MOV SE T02000189=
202305170252 METAR KATL 170252Z 21006KT 9SM FEW025 SCT045 BKN130 BKN200 20/19 A2989 RMK AO2 SLP115 CB DSNT N-NE SW NW 60000 T02000189 53013=
202305170152 METAR KATL 170152Z 23005KT 10SM FEW004 BKN140 BKN200 20/19 A2988 RMK AO2 SLP109 T02000189=
202305170128 SPECI KATL 170128Z 20006KT 10SM FEW004 BKN120 BKN150 OVC200 20/19 A2987 RMK AO2 T02000189=
202305170052 METAR KATL 170052Z 20006KT 10SM BKN120 BKN150 OVC200 20/19 A2986 RMK AO2 RAE00 SLP104 P0000 T02000189=
202305162352 METAR KATL 162352Z 16004KT 8SM -RA SCT085 BKN110 BKN150 OVC200 21/19 A2986 RMK AO2 TSE51 SLP102 TS DSIPTD P0008 60016 T02060189 10311 20206 50004=
202305162252 METAR KATL 162252Z 23009KT 9SM -TSRA FEW035CB SCT080 BKN110 OVC150 21/19 A2988 RMK AO2 PK WND 32039/2203 SLP111 OCNL LTGICCA E-S-SW TS E-S-SW MOV E P0007 T02060189=
202305162211 SPECI KATL 162211Z 31016G39KT 4SM -TSRA FEW035CB BKN055 BKN090 OVC200 21/18 A2986 RMK AO2 PK WND 32039/2203 OCNL LTGICCG OHD-ALQDS TS OHD-ALQDS MOV E P0005 T02110183=
202305162152 METAR KATL 162152Z 32019G25KT 1SM R09R/P6000FT +TSRA BKN035CB BKN060 BKN100 BKN250 22/18 A2986 RMK AO2 PK WND 33033/2125 WSHFT 2115 RAB37 TSB02 SLP102 OCNL LTGIC OHD-ALQDS TS OHD-ALQDS MOV E P0001 T02220178=
202305162133 SPECI KATL 162133Z 34014G33KT 10SM TS SCT045CB BKN060 BKN100 BKN250 25/14 A2986 RMK AO2 PK WND 33033/2125 WSHFT 2115 TSB02 OCNL LTGICCG NW-NE DSNT SW-NW TS NW-NE DSNT SW-NW MOV E TCU OHD-ALQDS T02500144=
202305162102 SPECI KATL 162102Z 23009KT 10SM TS SCT045CB BKN065 BKN250 30/19 A2985 RMK AO2 TSB02 FRQ LTGICCG VC NW-N DSNT NE SW-NW TS VC NW-N DSNT NE SW-NW MOV E TCU OHD-ALQDS T03000189=
202305162052 METAR KATL 162052Z 19009KT 10SM SCT045TCU SCT065 BKN250 31/19 A2984 RMK AO2 SLP094 LTG DSNT N-NE NW CB DSNT N-NE NW TCU ALQDS T03060189 58039=
202305161952 METAR KATL 161952Z 27004KT 10SM SCT045TCU BKN065 BKN250 31/19 A2988 RMK AO2 SLP106 TCU OHD-ALQDS T03060189=
202305161852 METAR KATL 161852Z 25007KT 210V270 10SM SCT044 SCT120 BKN250 30/18 A2993 RMK AO2 SLP123 CB DSNT SE-S MDT CU ALQDS T03000183=
202305161752 METAR KATL 161752Z 25008KT 210V280 10SM SCT036TCU SCT100 SCT200 29/19 A2996 RMK AO2 LTG DSNT S SLP134 CB DSNT S TCU E-SE W T02890194 10294 20217 58023=
202305161652 METAR KATL 161652Z 24007KT 10SM SCT028TCU BKN036 BKN150 28/21 A3000 RMK AO2 SLP147 TCU E S-SW MDT CU ALQDS T02780206=
202305161552 METAR KATL 161552Z 27008KT 220V290 10SM FEW028 SCT150 28/21 A3002 RMK AO2 SLP154 TCU DSNT NW-N MDT CU DSNT SW-W T02780206=
202305161452 METAR KATL 161452Z 22005KT 10SM FEW016 BKN150 25/21 A3003 RMK AO2 SLP160 T02500206 58006=
202305161408 SPECI KATL 161408Z 23006KT 9SM SCT011 BKN150 24/21 A3004 RMK AO2 T02390206=
202305161352 METAR KATL 161352Z 20005KT 9SM BKN009 BKN150 23/21 A3004 RMK AO2 SLP164 T02330206=
202305161252 METAR KATL 161252Z 19008KT 7SM OVC006 22/21 A3005 RMK AO2 SLP165 CIG 005V007 T02220206=
202305161152 METAR KATL 161152Z 18005KT 6SM BR BKN006 BKN150 22/20 A3005 RMK AO2 SLP166 T02170200 10228 20211 56004=
202305161119 SPECI KATL 161119Z 18006KT 7SM BKN006 BKN150 BKN200 21/20 A3005 RMK AO2 T02110200=
202305161052 METAR KATL 161052Z 17007KT 7SM FEW007 SCT019 SCT150 BKN200 21/19 A3005 RMK AO2 SLP167 T02110194=
202305161044 SPECI KATL 161044Z 18007KT 7SM FEW007 SCT019 BKN150 21/19 A3005 RMK AO2 T02110194=
202305161017 SPECI KATL 161017Z 18006KT 10SM FEW008 SCT013 BKN018 22/19 A3006 RMK AO2 T02170194=
202305160952 METAR KATL 160952Z 16004KT 10SM FEW008 BKN011 BKN023 22/19 A3005 RMK AO2 SLP166 BKN011 V SCT T02170194 $=
202305160950 SPECI KATL 160950Z 16004KT 10SM FEW008 BKN011 BKN023 22/19 A3005 RMK AO2 BKN011 V SCT $=
202305160938 SPECI KATL 160938Z 15004KT 10SM FEW008 SCT013 OVC023 22/19 A3005 RMK AO2 T02170194 $=
202305160852 METAR KATL 160852Z 00000KT 10SM FEW008 OVC013 22/19 A3006 RMK AO2 SLP169 T02170194 $=
202305160850 SPECI KATL 160850Z 00000KT 10SM FEW008 OVC013 22/19 A3006 RMK AO2 $=
202305160844 SPECI KATL 160844Z 00000KT 10SM BKN013 OVC023 22/19 A3006 RMK AO2 T02170194 $=
202305160802 SPECI KATL 160802Z 17004KT 10SM BKN019 BKN150 BKN200 21/19 A3006 RMK AO2 T02110194 $=
202305160752 METAR KATL 160752Z 17004KT 10SM SCT021 BKN150 BKN200 21/19 A3007 RMK AO2 SLP172 T02110194 $=
202305160652 METAR KATL 160652Z 180/03KT 10SM FEW023 BKN150 BKN200 21/20 A3008 RMK A02 SLP176 T02210200=
202305160615 SPECI KATL 160615Z 00000KT 10SM SCT023 22/20 A3010 RMK AO2 T02220200 $=
202305160559 SPECI KATL 160559Z 22006KT 9SM BKN023 BKN030 22/21 A3010 RMK AO2 T02220206 $=
202305160552 METAR KATL 160552Z 20003KT 10SM FEW030 BKN140 BKN200 22/21 A3010 RMK AO2 SLP184 60006 T02220206 10267 20222 58012 $=
202305160452 METAR KATL 160452Z 13003KT 10SM BKN140 BKN200 23/21 A3012 RMK AO2 RAE06 SLP188 P0000 T02280206 402940211 $=
202305160352 METAR KATL 160352Z 17005KT 9SM -RA FEW070 BKN110 OVC200 23/21 A3013 RMK AO2 SLP195 CB DSNT SW P0003 T02280206 $=
202305160252 METAR KATL 160252Z 15004KT 7SM -RA FEW070 BKN100 OVC150 23/21 A3014 RMK AO2 SLP197 LTG DSNT SW CB DSNT SW P0003 60003 T02330206 50009 $=
202305160152 METAR KATL 160152Z 15005KT 10SM -RA FEW030 SCT070 BKN100 BKN200 26/19 A3015 RMK AO2 RAB21 SLP200 LTG DSNT SW-NW CB DSNT SW-NW P0000 T02560194 $=
202305160052 METAR KATL 160052Z 12007KT 10SM FEW032CB SCT080 BKN110 BKN200 26/19 A3013 RMK AO2 SLP195 LTG DSNT NW CB W-NW DSNT NW MOV SW T02610194=
202305152352 METAR KATL 152352Z 11009KT 10SM FEW034TCU SCT070 BKN200 27/19 A3011 RMK AO2 SLP188 CB DSNT W-NW TCU OHD-W NW-N T02670189 10294 20267 56003=
202305152252 METAR KATL 152252Z 12006KT 10SM FEW040TCU SCT065 BKN200 28/18 A3012 RMK AO2 SLP190 CB DSNT W-NW TCU N SE S T02780178=
202305152152 METAR KATL 152152Z 13005KT 10SM SCT040TCU SCT060 BKN200 28/18 A3011 RMK AO2 SLP187 TCU OHD-ALQDS T02830178=
202305152052 METAR KATL 152052Z 16005KT 10SM SCT039 SCT100 SCT200 28/18 A3012 RMK AO2 SLP190 TCU DSNT N SE SW MDT CU ALQDS T02780183 58025=
202305151952 METAR KATL 151952Z 09008KT 10SM SCT038TCU BKN095 BKN250 28/19 A3015 RMK AO2 SLP200 TCU OHD-S-W-NW MDT CU ALQDS T02780189=
202305151852 METAR KATL 151852Z 10005KT 10SM SCT037TCU BKN090 BKN250 28/19 A3018 RMK AO2 SLP210 TCU OHD-SW-W NW-N MDT CU ALQDS T02780189=
202305151752 METAR KATL 151752Z VRB03KT 10SM SCT034 BKN075 28/19 A3020 RMK AO2 SLP216 TCU DSNT SE NW MDT CU ALQDS T02830194 10289 20217 58004=
202305151725 SPECI KATL 151725Z 12007KT 10SM SCT030 SCT045 28/19 A3020 RMK AO2 TCU DSNT NW MDT CU ALQDS T02830194=
202305151652 METAR KATL 151652Z 10006KT 10SM BKN028 BKN045 BKN250 27/19 A3021 RMK AO2 SLP220 MDT CU ALQDS T02720194=
202305151552 METAR KATL 151552Z 09007KT 10SM BKN023 26/19 A3021 RMK AO2 SLP220 T02560194=
202305151452 METAR KATL 151452Z 09009KT 10SM BKN017 BKN250 25/20 A3021 RMK AO2 SLP220 BKN017 V SCT T02500200 50002=
202305151444 SPECI KATL 151444Z 11008KT 10SM BKN015 BKN250 24/20 A3021 RMK AO2 BKN015 V SCT T02440200=
202305151352 METAR KATL 151352Z 09008KT 10SM BKN012 BKN250 23/19 A3021 RMK AO2 SLP222 T02330194=
202305151311 SPECI KATL 151311Z 08009KT 10SM BKN011 BKN036 BKN250 23/19 A3021 RMK AO2 T02280189=
202305151252 METAR KATL 151252Z 08010KT 10SM BKN009 BKN036 BKN250 22/19 A3021 RMK AO2 SLP220 T02220189 $=
202305151210 SPECI KATL 151210Z 07011KT 8SM BKN008 BKN034 BKN250 22/19 A3021 RMK AO2 CIG 007V010 T02170189 $=
202305151152 METAR KATL 151152Z 07008KT 9SM SCT007 SCT034 SCT250 22/19 A3020 RMK AO2 SLP218 T02170194 10228 20211 53009 $=
202305151052 METAR KATL 151052Z 06008KT 10SM FEW007 SCT250 21/19 A3019 RMK AO2 SLP212 T02110194=
202305150952 METAR KATL 150952Z 06008KT 8SM FEW007 FEW250 21/19 A3017 RMK AO2 SLP207 T02110194=
202305150940 SPECI KATL 150940Z 06008KT 8SM FEW007 FEW250 21/19 A3018 RMK AO2 T02110194=
202305150852 METAR KATL 150852Z 06009KT 10SM FEW050 FEW250 22/19 A3018 RMK AO2 SLP207 T02170194 56004=
202305150752 METAR KATL 150752Z 06009KT 10SM FEW050 FEW250 22/20 A3017 RMK AO2 SLP207 T02220200=
202305150652 METAR KATL 150652Z 06008KT 10SM FEW050 FEW250 22/19 A3018 RMK AO2 SLP209 T02220194=
202305150552 METAR KATL 150552Z 06010KT 10SM FEW050 SCT250 23/19 A3019 RMK AO2 SLP211 T02280194 10289 20228 51007=
202305150452 METAR KATL 150452Z 05008KT 10SM FEW050 BKN250 24/19 A3018 RMK AO2 SLP210 T02390194 403220211=
202305150352 METAR KATL 150352Z 06010KT 10SM FEW045 BKN250 24/19 A3017 RMK AO2 SLP207 T02440194=
202305150252 METAR KATL 150252Z 03009KT 10SM FEW045 SCT250 27/18 A3016 RMK AO2 SLP203 T02670178 51019=
202305150152 METAR KATL 150152Z 05005KT 10SM FEW043 SCT070 BKN250 27/18 A3014 RMK AO2 SLP196 TCU DSNT SE MDT CU NW T02670183=
202305150052 METAR KATL 150052Z 09007KT 10SM SCT047 BKN070 BKN100 BKN250 26/19 A3013 RMK AO2 SLP193 CB DSNT SE MDT CU ALQDS T02610189=
202305142352 METAR KATL 142352Z 10008KT 10SM SCT060 SCT080 BKN150 BKN250 29/18 A3011 RMK AO2 LTG DSNT NE SLP185 CB DSNT NE TCU DSNT N MDT CU S T02890178 10322 20289 53001=
202305142252 METAR KATL 142252Z 36010KT 10SM FEW035 SCT060 SCT120 SCT250 31/17 A3009 RMK AO2 SLP180 CB DSNT NE-SE TCU DSNT N MDT CU OHD-NE-SE T03110172=
202305142152 METAR KATL 142152Z 33011KT 10SM FEW055TCU SCT150 SCT250 32/18 A3009 RMK AO2 LTG DSNT E SLP179 CB DSNT E TCU E AND DSNT N-NE AND SE T03170178=
202305142052 METAR KATL 142052Z 32013G18KT 10SM FEW050 FEW150 BKN250 32/18 A3010 RMK AO2 SLP182 CB DSNT NE E TCU DSNT SE T03170178 56018=
202305141952 METAR KATL 141952Z 28005KT 10SM SCT046TCU BKN250 31/19 A3012 RMK AO2 SLP187 TCU NE-SE W MDT CU ALQDS T03110194 $=
202305141852 METAR KATL 141852Z 30006KT 10SM SCT048 BKN250 31/19 A3013 RMK AO2 SLP193 TCU DSNT N E MDT CU ALQDS T03060189 $=
202305141752 METAR KATL 141752Z 10SM SCT048 BKN250 30/18 A3015 RMK AO2 SLP200 MDT CU ALQDS T03000183 10306 20217 58005 $=
202305141652 METAR KATL 141652Z 00000KT 10SM FEW048 BKN250 29/18 A3016 RMK AO2 SLP203 T02940183 $=
202305141552 METAR KATL 141552Z VRB03KT 10SM FEW045 BKN250 29/18 A3017 RMK AO2 SLP205 T02940178 $=
202305141452 METAR KATL 141452Z 35006KT 10SM BKN250 28/19 A3017 RMK AO2 SLP205 T02830189 51010 $=
202305141352 METAR KATL 141352Z 32004KT 10SM BKN250 26/19 A3017 RMK AO2 SLP204 T02610194 $=
202305141252 METAR KATL 141252Z 35007KT 10SM FEW200 BKN250 24/19 A3015 RMK AO2 SLP201 T02440189 $=
202305141152 METAR KATL 141152Z 32006KT 10SM FEW200 SCT250 22/18 A3014 RMK AO2 SLP195 T02170183 10228 20211 53003 $=
202305141052 METAR KATL 141052Z 33007KT 10SM FEW110 FEW200 SCT250 21/18 A3012 RMK AO2 SLP189 T02110178 $=
202305140952 METAR KATL 140952Z 32004KT 10SM FEW110 FEW250 21/18 A3011 RMK AO2 SLP187 T02110178 $=
202305140852 METAR KATL 140852Z 33007KT 10SM FEW110 SCT250 22/18 A3013 RMK AO2 SLP191 T02170178 56001 $=
202305140752 METAR KATL 140752Z 32006KT 10SM FEW110 SCT250 22/18 A3013 RMK AO2 SLP193 T02170183 $=
202305140652 METAR KATL 140652Z 31007KT 10SM FEW110 SCT250 22/19 A3013 RMK AO2 SLP192 T02220189 $=
202305140552 METAR KATL 140552Z 30006KT 10SM SCT110 SCT250 23/19 A3013 RMK AO2 SLP193 T02280189 10278 20228 58003 $=
202305140452 METAR KATL 140452Z 29006KT 10SM FEW070 SCT250 23/19 A3014 RMK AO2 SLP198 T02330189 403000183 $=
202305140352 METAR KATL 140352Z 28005KT 10SM FEW085 FEW200 SCT250 24/19 A3014 RMK AO2 SLP198 T02390189 $=
202305140252 METAR KATL 140252Z 31005KT 10SM FEW110 SCT200 BKN250 26/19 A3014 RMK AO2 SLP198 T02560189 51014 $=
202305140152 METAR KATL 140152Z 31003KT 10SM FEW100 SCT200 BKN250 26/18 A3014 RMK AO2 SLP196 T02610183 $=
202305140052 METAR KATL 140052Z 32006KT 10SM FEW050 FEW100 SCT200 OVC250 27/18 A3012 RMK AO2 SLP190 T02670183 $=
202305132352 METAR KATL 132352Z 32008KT 10SM FEW050 FEW100 OVC250 28/18 A3010 RMK AO2 SLP184 CB DSNT SW T02780178 10300 20278 53003 $=
202305132252 METAR KATL 132252Z 31006KT 10SM FEW048 FEW085 SCT100 OVC250 28/18 A3009 RMK AO2 SLP182 CB DSNT SW MDT CU OHD-SE T02830178 $=
202305132152 METAR KATL 132152Z 32007KT 10SM FEW045 BKN250 29/18 A3009 RMK AO2 SLP181 MDT CU SE-S DSNT W T02940178 $=
202305132052 METAR KATL 132052Z 00000KT 10SM FEW047 BKN250 30/18 A3009 RMK AO2 SLP181 MDT CU NE T03000178 58015 $=
202305131952 METAR KATL 131952Z 34003KT 10SM FEW046 BKN250 29/18 A3011 RMK AO2 SLP189 MDT CU DSNT S T02940183 $=
202305131852 METAR KATL 131852Z 31008KT 10SM FEW043 BKN250 29/18 A3013 RMK AO2 SLP194 MDT CU DSNT NW-NE-SE T02890178 $=
202305131752 METAR KATL 131752Z VRB03KT 10SM FEW032 SCT250 27/19 A3014 RMK AO2 SLP196 T02720189 10278 20189 58014 $=
202305131652 METAR KATL 131652Z 00000KT 9SM FEW020 SCT250 26/19 A3016 RMK AO2 SLP205 T02560189 $=
202305131552 METAR KATL 131552Z 00000KT 7SM SCT013 SCT250 24/19 A3018 RMK AO2 SLP211 T02390194 $=
202305131529 SPECI KATL 131529Z 07006KT 5SM HZ BKN010 23/19 A3018 RMK AO2 T02330194 $=
202305131452 METAR KATL 131452Z 09003KT 3SM HZ OVC008 23/19 A3018 RMK AO2 SFC VIS 4 SLP211 CIG 006V010 T02280189 51007 $=
202305131411 SPECI KATL 131411Z 00000KT 3SM BR OVC006 22/19 A3018 RMK AO2 CIG 004V008 T02170189 $=
202305131352 METAR KATL 131352Z 00000KT 1/4SM BR OVC004 21/19 A3017 RMK AO2 SFC VIS 2 SLP210 CIG 003V006 TWRINC T02110189 $=
202305131252 METAR KATL 131252Z 30003KT 1/4SM R09R/P6000FT BR OVC003 20/19 A3017 RMK AO2 SFC VIS 3/4 SLP209 VIS S 1 1/2 CIG 002V004 T02000189 $=
202305131152 METAR KATL 131152Z 00000KT 1/4SM FG VV002 19/18 A3016 RMK AO2 SFC VIS 1/2 SLP206 VIS SE-S 1 TWRINC 70023 T01890183 10200 20183 53015 RVRNO $=
202305131052 METAR KATL 131052Z 00000KT 1/4SM BR OVC002 19/18 A3013 RMK AO2 SFC VIS 1 SLP195 TWRINC T01940183 RVRNO $=
202305130952 METAR KATL 130952Z 00000KT 1/4SM BR OVC003 19/18 A3011 RMK AO2 SFC VIS 4 SLP190 CIG 002V004 TWRINC T01940183 $=
202305130858 SPECI KATL 130858Z 25005KT 1/4SM BR BKN002 BKN004 19/18 A3011 RMK AO2 SFC VIS 4 T01890178 $=
202305130852 METAR KATL 130852Z 24004KT 7SM SCT002 BKN004 19/18 A3011 RMK AO2 SLP189 VIS LWR SE-SW T01890178 50000 $=
202305130846 SPECI KATL 130846Z 25003KT 7SM FEW002 BKN004 19/18 A3011 RMK AO2 VIS LWR SE-SW $=
202305130752 METAR KATL 130752Z 00000KT 8SM FEW005 FEW008 FEW120 19/18 A3012 RMK AO2 SLP191 T01890178 $=
202305130723 SPECI KATL 130723Z 00000KT 8SM FEW005 FEW008 FEW120 19/18 A3012 RMK AO2 T01890178 $=
202305130708 SPECI KATL 130708Z 00000KT 6SM BR FEW005 BKN008 BKN120 19/18 A3012 RMK AO2 T01940178 $=
202305130652 METAR KATL 130652Z 14003KT 8SM SCT005 SCT120 SCT200 19/18 A3011 RMK AO2 SLP190 T01940178 $=
202305130628 SPECI KATL 130628Z 28004KT 8SM FEW005 FEW120 SCT200 19/18 A3012 RMK AO2 T01890178 $=
202305130552 METAR KATL 130552Z 00000KT 8SM SCT120 BKN200 BKN250 20/18 A3013 RMK AO2 SLP195 T02000183 10222 20200 58001 $=
202305130452 METAR KATL 130452Z 13003KT 9SM SCT120 BKN250 20/19 A3013 RMK AO2 SLP198 T02000189 402610194 $=
202305130352 METAR KATL 130352Z 14003KT 9SM FEW005 SCT200 BKN250 21/19 A3014 RMK AO2 SLP199 T02060189 $=
202305130252 METAR KATL 130252Z 19006KT 10SM FEW005 BKN150 BKN200 21/19 A3013 RMK AO2 SLP195 T02110194 58003 $=
202305130237 SPECI KATL 130237Z 20005KT 9SM SCT005 BKN150 BKN200 21/19 A3013 RMK AO2 T02110194 $=
202305130209 SPECI KATL 130209Z 21007KT 9SM BKN005 BKN140 BKN200 21/19 A3013 RMK AO2 T02110194 $=
202305130152 METAR KATL 130152Z 22005KT 10SM SCT005 BKN140 BKN200 21/19 A3013 RMK AO2 SLP197 SCT005 V BKN T02110194 $=
202305130052 METAR KATL 130052Z 20005KT 10SM FEW008 SCT040 BKN120 OVC200 22/20 A3015 RMK AO2 SLP201 T02170200 $=
202305122352 METAR KATL 122352Z 19006KT 10SM FEW015 SCT035 BKN130 OVC200 22/20 A3014 RMK AO2 SLP199 60000 T02220200 10261 20217 56001 $=
202305122252 METAR KATL 122252Z 22005KT 10SM SCT015 BKN030 BKN120 OVC200 23/19 A3014 RMK AO2 SLP199 T02280194 $=
202305122152 METAR KATL 122152Z 14005KT 10SM SCT018 BKN030 BKN120 BKN200 23/19 A3013 RMK AO2 RAB24E36 SLP196 TCU DSNT N-NE P0000 T02330194 $=
202305122052 METAR KATL 122052Z 15007KT 10SM SCT022 SCT110 BKN150 BKN200 24/20 A3014 RMK AO2 SLP199 TCU DSNT N MDT CU DSNT E-SE T02440200 58018 $=
202305121952 METAR KATL 121952Z VRB04KT 10SM SCT018 SCT110 BKN150 BKN200 24/21 A3016 RMK AO2 SLP204 TCU DSNT W T02440206 $=
202305121916 SPECI KATL 121916Z 13006KT 10SM SCT014 BKN110 BKN150 BKN200 23/20 A3018 RMK AO2 T02330200 $=
202305121852 METAR KATL 121852Z 15005KT 10SM BKN013 BKN085 OVC150 22/19 A3019 RMK AO2 SLP216 TCU DSNT NW T02220194 $=
202305121752 METAR KATL 121752Z 18006KT 9SM BKN012 BKN080 OVC150 22/19 A3020 RMK AO2 RAE1654 SLP218 CB DSNT SE P0000 60023 T02220189 10222 20194 50000=
202305121652 METAR KATL 121652Z 00000KT 8SM -RA FEW008 BKN011 BKN060 OVC150 21/19 A3021 RMK AO2 LTG DSNT S SLP222 P0003 T02110189=
202305121633 SPECI KATL 121633Z 00000KT 7SM -RA FEW009 SCT042 BKN065 OVC150 21/19 A3021 RMK AO2 P0003 T02110194=
202305121552 METAR KATL 121552Z 15004KT 3SM RA BR SCT020 SCT044 OVC065 21/19 A3022 RMK AO2 RAB25 SLP225 P0020 T02060189 $=
202305121547 SPECI KATL 121547Z 17005KT 3SM RA BR SCT015 SCT040 OVC065 21/19 A3022 RMK AO2 RAB25 P0019 $=
202305121536 SPECI KATL 121536Z 17005KT 2SM +RA BR SCT015 OVC042 21/18 A3021 RMK AO2 RAB25 P0017 T02060183 $=
202305121529 SPECI KATL 121529Z 14005KT 1 1/2SM +RA BKN015 OVC050 21/18 A3022 RMK AO2 RAB25 P0006 T02110178 $=
202305121521 SPECI KATL 121521Z 22005KT 9SM BKN015 OVC050 21/17 A3022 RMK AO2 SHRA SW T02110172 $=
202305121452 METAR KATL 121452Z 13006KT 10SM FEW013 BKN050 OVC110 22/18 A3020 RMK AO2 SLP217 SHRA E SW T02170178 51021=
202305121352 METAR KATL 121352Z 15004KT 8SM FEW009 SCT075 BKN110 OVC150 21/18 A3018 RMK AO2 SLP213 T02060178=
202305121304 SPECI KATL 121304Z 15004KT 8SM SCT009 BKN110 OVC150 20/18 A3017 RMK AO2 T02000178=
202305121252 METAR KATL 121252Z 14005KT 8SM BKN008 OVC110 20/18 A3016 RMK AO2 SLP205 BKN V SCT T02000178=
202305121230 SPECI KATL 121230Z 13004KT 8SM BKN008 BKN110 BKN150 BKN250 20/18 A3015 RMK AO2 T02000178=
202305121152 METAR KATL 121152Z 12007KT 8SM SCT007 BKN120 BKN150 BKN250 19/18 A3013 RMK AO2 SLP195 60000 T01940178 10206 20194 55003=
202305121144 SPECI KATL 121144Z 11006KT 8SM SCT007 BKN120 BKN150 BKN250 19/18 A3013 RMK AO2 T01940178=
202305121052 METAR KATL 121052Z 12006KT 10SM FEW010 BKN120 BKN200 BKN250 19/17 A3012 RMK AO2 SLP191 RAE32 P0000 T01940172=
202305120952 METAR KATL 120952Z 14005KT 9SM -RA SCT035 BKN100 BKN250 19/17 A3013 RMK AO2 SLP193 RAE10B41 P0000 T01940172=
202305120910 SPECI KATL 120910Z 16006KT 10SM FEW017 SCT035 SCT085 BKN250 19/17 A3014 RMK AO2 RAE10 P0000 T01940167=
202305120852 METAR KATL 120852Z 17004KT 7SM -RA BKN019 BKN026 BKN250 20/17 A3014 RMK AO2 SLP198 RAB32 P0000 60000 T02000167 51008=
202305120846 SPECI KATL 120846Z 16004KT 9SM -RA BKN019 BKN026 BKN250 20/17 A3014 RMK AO2 RAB32 P0000=
202305120752 METAR KATL 120752Z 13006KT 10SM FEW040 SCT050 SCT250 20/16 A3012 RMK AO2 SLP192 T02000161=
202305120652 METAR KATL 120652Z 10006KT 10SM FEW043 FEW250 20/16 A3012 RMK AO2 SLP190 T02000156=
202305120552 METAR KATL 120552Z 09007KT 10SM FEW050 FEW250 20/16 A3012 RMK AO2 SLP191 T02000156 10256 20200 58001=
202305120452 METAR KATL 120452Z 09007KT 10SM FEW050 FEW250 21/16 A3014 RMK AO2 SLP199 T02060161 402720194=
202305120352 METAR KATL 120352Z 10004KT 10SM FEW040 FEW250 21/16 A3016 RMK AO2 SLP204 T02110161=
202305120252 METAR KATL 120252Z 09009KT 10SM FEW040 FEW250 22/16 A3012 RMK AO2 SLP192 T02220161 50003=
202305120152 METAR KATL 120152Z 09008KT 10SM FEW075 FEW250 23/16 A3013 RMK AO2 SLP194 T02280156=
202305120052 METAR KATL 120052Z 10006KT 10SM FEW075 FEW250 24/15 A3012 RMK AO2 SLP191 T02440150=
202305112352 METAR KATL 112352Z 11008KT 10SM FEW050 BKN075 BKN200 26/16 A3011 RMK AO2 SLP190 T02560156 10272 20244 55001=
202305112252 METAR KATL 112252Z 11008KT 10SM FEW050 BKN075 BKN200 26/16 A3011 RMK AO2 SLP188 T02610156=
202305112152 METAR KATL 112152Z 12006KT 10SM FEW045 BKN180 BKN250 27/16 A3011 RMK AO2 SLP188 T02670156=
202305112052 METAR KATL 112052Z 14009KT 10SM FEW043 BKN180 BKN250 27/16 A3012 RMK AO2 SLP190 T02670161 56016=
202305111952 METAR KATL 111952Z 13011KT 10SM FEW042 BKN180 BKN250 27/16 A3013 RMK AO2 SLP195 T02720161=
202305111852 METAR KATL 111852Z 10011G18KT 10SM FEW046 BKN170 BKN250 26/17 A3015 RMK AO2 SLP200 T02560167=
202305111752 METAR KATL 111752Z 10009KT 10SM FEW044 FEW060 BKN140 OVC200 24/17 A3017 RMK AO2 SLP207 T02440167 10244 20200 58004=
202305111652 METAR KATL 111652Z 12007G16KT 10SM FEW040 FEW060 BKN140 OVC200 24/16 A3018 RMK AO2 SLP211 T02390156=
202305111552 METAR KATL 111552Z 14008KT 10SM FEW026 SCT060 BKN150 BKN200 24/16 A3019 RMK AO2 SLP214 T02440161=
202305111452 METAR KATL 111452Z 15009KT 10SM FEW022 SCT060 BKN180 BKN250 24/17 A3018 RMK AO2 SLP211 T02390167 51016=
202305111352 METAR KATL 111352Z 13008KT 090V160 10SM FEW015 SCT160 SCT200 BKN250 23/18 A3017 RMK AO2 SLP207 T02280178=
202305111252 METAR KATL 111252Z 13008KT 7SM SCT009 BKN180 BKN220 21/18 A3015 RMK AO2 SLP201 T02060178=
202305111152 METAR KATL 111152Z 11009KT 6SM BR BKN007 BKN180 BKN220 20/18 A3013 RMK AO2 SLP195 60000 T02000178 10222 20194 53010=
202305111136 SPECI KATL 111136Z 11008KT 7SM BKN008 BKN180 BKN250 20/18 A3013 RMK AO2 T02000178=
202305111110 SPECI KATL 111110Z 10007KT 6SM BR SCT008 SCT025 SCT110 BKN180 BKN250 19/18 A3012 RMK AO2 T01940178=
202305111052 METAR KATL 111052Z 11006KT 10SM FEW010 FEW110 BKN180 BKN250 20/18 A3012 RMK AO2 SLP190 T02000178 $=
202305110952 METAR KATL 110952Z 12005KT 10SM SCT011 SCT025 OVC180 20/17 A3012 RMK AO2 SLP190 RAE30 BINOVC P0000 T02000172 $=
202305110852 METAR KATL 110852Z 11008KT 10SM -RA SCT021 SCT050 BKN120 OVC170 21/17 A3010 RMK AO2 SLP185 RAB44 P0000 60000 T02060172 56010 $=
202305110752 METAR KATL 110752Z 10006KT 10SM FEW050 SCT120 BKN170 OVC230 21/18 A3010 RMK AO2 SLP184 BINOVC T02110178=
202305110652 METAR KATL 110652Z 09007KT 10SM SCT050 BKN140 BKN170 21/18 A3012 RMK AO2 SLP189 T02110178=
202305110552 METAR KATL 110552Z 15003KT 10SM BKN050 BKN070 BKN180 22/18 A3013 RMK AO2 SLP194 T02220178 10267 20222 50006=
202305110452 METAR KATL 110452Z 17003KT 10SM BKN085 BKN150 BKN200 22/17 A3014 RMK AO2 SLP197 T02220172 402890194=
202305110352 METAR KATL 110352Z 12005KT 10SM FEW150 BKN200 BKN250 23/17 A3014 RMK AO2 SLP196 T02280167=
202305110252 METAR KATL 110252Z 12007KT 10SM FEW150 BKN200 BKN250 24/16 A3012 RMK AO2 SLP189 T02390156 53022=
202305110152 METAR KATL 110152Z 11006KT 10SM FEW150 SCT200 BKN250 24/15 A3008 RMK AO2 SLP178 T02440150=
202305110052 METAR KATL 110052Z 10005KT 10SM FEW150 SCT200 BKN250 25/15 A3006 RMK AO2 SLP170 T02500150=
202305102352 METAR KATL 102352Z 11009KT 10SM FEW150 SCT200 BKN250 27/14 A3005 RMK AO2 SLP167 T02670144 10289 20267 55003=
202305102252 METAR KATL 102252Z 09010KT 10SM FEW055 BKN200 BKN250 28/14 A3005 RMK AO2 SLP165 T02780144=
202305102152 METAR KATL 102152Z 13006KT 10SM SCT055 BKN200 BKN250 28/15 A3005 RMK AO2 SLP167 T02780150=
202305102052 METAR KATL 102052Z 12006KT 10SM SCT050 SCT180 BKN250 28/16 A3006 RMK AO2 SLP170 T02830156 58017=
202305101952 METAR KATL 101952Z VRB04KT 10SM SCT050 SCT180 BKN250 28/15 A3008 RMK AO2 SLP176 T02830150=
202305101852 METAR KATL 101852Z VRB04KT 10SM SCT050 SCT180 BKN250 28/16 A3010 RMK AO2 SLP183 T02780156=
202305101752 METAR KATL 101752Z VRB04KT 10SM SCT045 SCT180 BKN250 27/15 A3011 RMK AO2 SLP187 T02720150 10278 20206 58006=
202305101652 METAR KATL 101652Z VRB05KT 10SM FEW055 SCT180 SCT250 27/16 A3012 RMK AO2 SLP191 T02670156=
202305101552 METAR KATL 101552Z VRB05KT 10SM SCT250 26/16 A3013 RMK AO2 SLP194 T02560161=
202305101452 METAR KATL 101452Z 08010KT 10SM SCT250 24/16 A3013 RMK AO2 SLP193 T02440156 52010=
202305101352 METAR KATL 101352Z 08011KT 10SM SCT250 23/16 A3011 RMK AO2 SLP188 T02280156=
202305101252 METAR KATL 101252Z 08012KT 10SM FEW048 SCT250 22/16 A3011 RMK AO2 SLP188 T02170156=
202305101152 METAR KATL 101152Z 07009KT 10SM FEW150 FEW250 21/16 A3010 RMK AO2 SLP182 T02060161 10211 20194 53019=
202305101052 METAR KATL 101052Z 03004KT 10SM FEW022 FEW150 SCT250 21/17 A3007 RMK AO2 SLP174 MDT CU DSNT N-NE T02110167=
202305100952 METAR KATL 100952Z 33004KT 10SM FEW150 FEW200 SCT250 20/17 A3005 RMK AO2 SLP166 T02000172 $=
202305100852 METAR KATL 100852Z 34005KT 10SM FEW250 21/18 A3004 RMK AO2 SLP163 T02060183 55002 $=
202305100752 METAR KATL 100752Z 33006KT 8SM FEW250 21/19 A3004 RMK AO2 SLP162 T02110189 $=
202305100652 METAR KATL 100652Z 31006KT 8SM FEW200 SCT250 21/19 A3004 RMK AO2 SLP164 T02110194 $=
202305100552 METAR KATL 100552Z 29005KT 8SM FEW200 SCT250 21/19 A3005 RMK AO2 SLP164 T02110194 10261 20211 51003 $=
202305100452 METAR KATL 100452Z 28006KT 8SM FEW200 22/19 A3004 RMK AO2 SLP163 T02170194 402940200 $=
202305100352 METAR KATL 100352Z 27006KT 9SM FEW200 22/20 A3004 RMK AO2 SLP164 T02220200 $=
202305100252 METAR KATL 100252Z 27004KT 10SM FEW200 23/21 A3004 RMK AO2 SLP162 T02280206 51018 $=
202305100152 METAR KATL 100152Z 26003KT 9SM FEW200 24/21 A3003 RMK AO2 SLP158 T02390206 $=
202305100052 METAR KATL 100052Z 25003KT 10SM FEW030 SCT200 SCT250 25/19 A3002 RMK AO2 SLP155 T02500194=
202305092352 METAR KATL 092352Z 29006KT 10SM FEW030 FEW120 BKN200 BKN250 26/19 A2998 RMK AO2 SLP143 T02610194 10294 20239 55005=
202305092252 METAR KATL 092252Z 30008KT 10SM FEW035 SCT150 BKN200 BKN250 28/20 A2998 RMK AO2 LTG DSNT NW SLP141 CB DSNT NW T02780200=
202305092152 METAR KATL 092152Z 28008KT 10SM FEW035 FEW150 BKN200 BKN250 28/19 A2999 RMK AO2 LTG DSNT NW SLP146 CB DSNT NW T02780194=
202305092052 METAR KATL 092052Z 25011G17KT 10SM FEW034 FEW120 BKN200 BKN250 26/17 A3000 RMK AO2 PK WND 23026/2005 WSHFT 1944 SLP149 CB DSNT N NE NW TCU DSNT N NE SE T02610167 58010=
202305091959 SPECI KATL 091959Z 23012G22KT 10SM SCT030TCU BKN080 BKN110 BKN200 24/17 A3003 RMK AO2 WSHFT 1944 LTG DSNT S AND SW CB DSNT NE SE-SW TCU SE-OHD-NW T02440172=
202305091952 METAR KATL 091952Z 23014G28KT 10SM SCT032TCU SCT080 SCT110 BKN200 24/17 A3002 RMK AO2 PK WND 22028/1948 LTG DSNT S AND SW SLP158 TSB38E52 TS MOVD SE CB DSNT NE S-SW TCU SE-OHD-NW DSNT N NE NW T02440172=
202305091948 SPECI KATL 091948Z 23017G28KT 10SM TS SCT035CB SCT075 SCT110 BKN200 26/19 A3002 RMK AO2 PK WND 22028/1948 LTG DSNT S AND SW TSB38 OCNL LTGICCGCA VC S-SW TS VC S-SW MOV SE CB DSNT S-SW TCU SE-SW-W DSNT N NE NW=
202305091938 SPECI KATL 091938Z 31010KT 10SM TS SCT035CB SCT075 SCT110 BKN200 28/20 A3001 RMK AO2 LTG DSNT S AND SW TSB38 OCNL LTGICCGCA VC S-SW TS VC S-SW MOV SE CB DSNT S-SW TCU SE-SW T02830200=
202305091852 METAR KATL 091852Z 26010G16KT 10SM FEW033TCU SCT095 BKN200 BKN250 29/20 A3002 RMK AO2 LTG DSNT S AND SW SLP155 CB DSNT S-SW TCU S T02890200=
202305091752 METAR KATL 091752Z 28009KT 10SM FEW028 FEW055 SCT200 29/21 A3003 RMK AO2 LTG DSNT SW SLP158 CB DSNT SW W TCU DSNT SE-SW T02890206 10289 20211 58006=
202305091652 METAR KATL 091652Z 31007KT 9SM SCT024 BKN035 BKN250 28/21 A3005 RMK AO2 SLP165 MDT CU ALQDS T02780211=
202305091552 METAR KATL 091552Z 29008KT 9SM BKN020 BKN140 BKN250 26/20 A3005 RMK AO2 SLP166 T02560200=
202305091452 METAR KATL 091452Z 25006KT 8SM OVC015 24/20 A3005 RMK AO2 SLP165 CIG 013V017 BINOVC T02390200 56003=
202305091450 SPECI KATL 091450Z 25006KT 8SM OVC015 24/20 A3004 RMK AO2 CIG 013V017 BINOVC=
202305091352 METAR KATL 091352Z 32004KT 7SM OVC013 23/20 A3004 RMK AO2 SLP163 BINOVC T02330200=
202305091316 SPECI KATL 091316Z 26004KT 7SM OVC011 22/20 A3004 RMK AO2 T02220200 $=
202305091252 METAR KATL 091252Z 27006KT 6SM BR BKN008 OVC014 22/19 A3005 RMK AO2 SLP168 T02170194 $=
202305091207 SPECI KATL 091207Z 26007KT 5SM BR OVC009 21/19 A3005 RMK AO2 BINOVC T02110194 $=
202305091152 METAR KATL 091152Z 25008KT 6SM BR OVC010 21/19 A3004 RMK AO2 SLP163 BINOVC T02110189 10217 20200 50013 $=
202305091052 METAR KATL 091052Z 28007KT 5SM BR FEW004 BKN013 20/19 A3004 RMK AO2 SLP163 T02000189 $=
202305091042 SPECI KATL 091042Z 28008KT 5SM BR FEW004 BKN013 BKN250 20/19 A3004 RMK AO2 T02000189 $=
202305091037 SPECI KATL 091037Z 28007KT 5SM BR FEW004 SCT013 SCT250 20/19 A3003 RMK AO2 T02000189 $=
202305090952 METAR KATL 090952Z 28007KT 6SM BR SCT250 20/19 A3001 RMK AO2 SLP155 T02000189 $=
202305090852 METAR KATL 090852Z 27006KT 7SM FEW005 SCT200 BKN250 20/19 A3000 RMK AO2 SLP149 T02000189 58009 $=
202305090752 METAR KATL 090752Z 27006KT 8SM SCT200 BKN250 21/19 A3001 RMK AO2 SLP155 T02060189 $=
202305090652 METAR KATL 090652Z 26006KT 8SM FEW030 SCT200 BKN250 21/19 A3001 RMK AO2 SLP154 T02110189 $=
202305090552 METAR KATL 090552Z 24006KT 8SM FEW030 SCT200 BKN250 22/19 A3003 RMK AO2 SLP157 T02170194 10261 20217 58001 $=
202305090452 METAR KATL 090452Z 26006KT 9SM FEW030 SCT200 BKN250 22/19 A3003 RMK AO2 SLP158 T02220194 403000194 $=
202305090352 METAR KATL 090352Z 25007KT 10SM FEW035 SCT200 BKN250 23/19 A3003 RMK AO2 SLP159 T02330194 $=
202305090252 METAR KATL 090252Z 24007KT 10SM SCT032 BKN050 BKN200 BKN250 24/19 A3003 RMK AO2 SLP159 T02390194 53017 $=
202305090152 METAR KATL 090152Z 22005KT 10SM SCT200 BKN250 24/20 A3000 RMK AO2 SLP152 T02390200 $=
202305090052 METAR KATL 090052Z 22005KT 10SM BKN200 BKN250 24/19 A2999 RMK AO2 SLP149 T02440194 $=
202305082352 METAR KATL 082352Z 24006KT 10SM FEW040 BKN200 BKN250 26/19 A2998 RMK AO2 SLP143 60000 T02610189 10300 20256 55005 $=
202305082252 METAR KATL 082252Z 26005KT 10SM CLR 26/18 A2997 RMK AO2 SLP140 T02610183 $=
202305082152 METAR KATL 082152Z 26008KT 10SM FEW040 SCT200 BKN250 27/19 A2999 RMK AO2 SLP145 TCU DSNT SE SW T02720189 $=
202305082052 METAR KATL 082052Z 29008KT 10SM FEW042TCU FEW075 SCT110 BKN200 27/18 A3000 RMK AO2 RAB1958E08 SLP148 CB DSNT SE TCU SE-SW W SHRA S W P0000 60000 T02720178 56015 $=
202305081952 METAR KATL 081952Z 32009KT 10SM SCT046TCU SCT075 SCT110 BKN200 27/18 A3000 RMK AO2 SLP151 CB DSNT E TCU SE-SW-NW T02720178 $=
202305081852 METAR KATL 081852Z 27012KT 10SM SCT040TCU SCT070 SCT110 BKN200 30/18 A3002 RMK AO2 SLP155 CB DSNT N SE NW TCU N-NE SW MDT CU ALQDS T03000183 $=
202305081752 METAR KATL 081752Z 27012G18KT 10SM SCT036TCU BKN110 BKN200 29/18 A3004 RMK AO2 SLP162 TCU N NE SW-NW MDT CU ALQDS T02890183 10289 20194 58005 $=
202305081652 METAR KATL 081652Z 26008KT 10SM FEW033 FEW110 SCT200 27/19 A3006 RMK AO2 SLP171 T02720189 $=
202305081552 METAR KATL 081552Z 28012G20KT 10SM FEW030 SCT100 SCT150 BKN200 26/18 A3008 RMK AO2 SLP176 ACC SW-NW-N T02610183 $=
202305081452 METAR KATL 081452Z 27008KT 10SM FEW020 FEW110 SCT150 BKN200 24/19 A3005 RMK AO2 SLP168 T02440189 55010 $=
202305081352 METAR KATL 081352Z 22007G18KT 9SM FEW013 SCT110 BKN150 BKN200 22/18 A3004 RMK AO2 SLP165 T02170183 $=
202305081252 METAR KATL 081252Z 24006KT 10SM FEW009 SCT012 BKN095 OVC150 21/17 A3008 RMK AO2 TSE04 SLP177 TS MOV E T02060172 $=
202305081245 SPECI KATL 081245Z 24005KT 10SM SCT012 BKN095 OVC150 20/17 A3008 RMK AO2 TSE04 TS MOV E T02000172 $=
202305081205 SPECI KATL 081205Z 30003KT 10SM BKN012 OVC022 19/17 A3008 RMK AO2 LTG DSNT E TSE04 TS MOV E CB DSNT E SHRA NE-E T01940167 $=
202305081152 METAR KATL 081152Z 35008KT 7SM TS BKN012 BKN022CB OVC090 19/17 A3008 RMK AO2 LTG DSNT E SLP179 TSB10 RAB12E20 OCNL LTGICCG VC NE TS VC NE MOV E CB DSNT E SHRA N-E P0000 60000 T01940167 10217 20194 53010 $=
202305081145 SPECI KATL 081145Z 35010G14KT 7SM TS SCT015 BKN022CB OVC090 20/17 A3008 RMK AO2 LTG DSNT E TSB10 RAB12E20 OCNL LTGICCG VC NE TS VC NE MOV E SHRA NW-NE P0000 T02000167 $=
202305081113 SPECI KATL 081113Z 21004KT 8SM -TSRA BKN016 BKN022CB OVC150 19/17 A3006 RMK AO2 LTG DSNT NE AND W RAB12 TSE07B12 TSB07 OCNL LTGICCG VC NW TS VC NE MOV E CB DSNT NE P0000 T01940167 $=
202305081052 METAR KATL 081052Z 00000KT 10SM OVC017 19/17 A3006 RMK AO2 LTG DSNT N SLP171 T01940167 $=
202305080952 METAR KATL 080952Z 13003KT 10SM BKN025 BKN055 OVC180 20/16 A3005 RMK AO2 SLP167 BKN025 V SCT T02000161 $=
202305080852 METAR KATL 080852Z 08005KT 10SM OVC023 20/16 A3005 RMK AO2 LTG DSNT N SLP167 CB DSNT N 60000 T02000156 53001 $=
202305080752 METAR KATL 080752Z 06008KT 10SM OVC023 20/16 A3005 RMK AO2 RAB35E46 SLP165 P0000 T02000156 $=
202305080704 SPECI KATL 080704Z 01009KT 10SM BKN020 BKN028 BKN037 BKN200 OVC250 21/17 A3005 RMK AO2 T02110167 $=
202305080652 METAR KATL 080652Z 35010KT 10SM FEW018 SCT026 SCT039 OVC200 22/17 A3005 RMK AO2 SLP167 T02170172 $=
202305080552 METAR KATL 080552Z 20004KT 10SM FEW048 SCT065 SCT085 BKN250 21/17 A3005 RMK AO2 SLP166 T02110172 10261 20211 58009 $=
202305080452 METAR KATL 080452Z 00000KT 10SM SCT045 BKN065 BKN250 22/17 A3007 RMK AO2 SLP173 T02170172 402830161 $=
202305080352 METAR KATL 080352Z 00000KT 10SM FEW045 FEW060 BKN250 22/18 A3008 RMK AO2 SLP178 FRQ LTGIC DSNT NW-N AND NE CB DSNT NW-N AND NE T02220178 $=
202305080252 METAR KATL 080252Z 20003KT 9SM FEW045 BKN250 23/18 A3008 RMK AO2 SLP177 T02280178 53008 $=
202305080152 METAR KATL 080152Z 19004KT 10SM SCT250 23/18 A3004 RMK AO2 SLP166 T02330178 $=
202305080052 METAR KATL 080052Z 20007KT 10SM SCT250 25/18 A3004 RMK AO2 SLP163 T02500178 $=
202305072352 METAR KATL 072352Z 20006KT 10SM FEW040 SCT070 SCT250 26/18 A3005 RMK AO2 SLP170 T02610178 10283 20256 58014 $=
202305072252 METAR KATL 072252Z 19008KT 10SM FEW040 SCT070 SCT200 SCT250 27/17 A3007 RMK AO2 SLP176 TCU DSNT W MDT CU W-NW T02720172 $=
202305072152 METAR KATL 072152Z 21009KT 10SM SCT040 SCT075 SCT250 28/18 A3009 RMK AO2 LTG DSNT NE SLP181 CB DSNT NE TCU NW AND DSNT N-NE T02780178=
202305072052 METAR KATL 072052Z 22008KT 10SM SCT042 SCT075 SCT250 28/18 A3010 RMK AO2 LTG DSNT N SLP184 CB DSNT N TCU DSNT S SW NW T02830178 58021=
202305071952 METAR KATL 071952Z 24006KT 10SM SCT039 SCT055 SCT250 27/18 A3012 RMK AO2 SLP190 TCU DSNT N E MDT CU ALQDS T02720178=
202305071852 METAR KATL 071852Z 21007KT 10SM SCT034TCU BKN048 BKN250 27/18 A3015 RMK AO2 SLP202 TCU NE-SE-S MDT CU ALQDS T02670178=
202305071752 METAR KATL 071752Z 16005KT 10SM SCT032 BKN050 BKN250 26/17 A3016 RMK AO2 SLP206 MDT CU ALQDS T02560172 10261 20167 58022=
202305071652 METAR KATL 071652Z VRB06KT 10SM FEW032 FEW060 SCT250 25/17 A3018 RMK AO2 SLP214 T02500172=
202305071552 METAR KATL 071552Z VRB04KT 10SM FEW028 BKN043 BKN250 23/16 A3022 RMK AO2 SLP225 T02330161=
202305071452 METAR KATL 071452Z 24007KT 10SM SCT028 BKN040 BKN250 22/16 A3023 RMK AO2 SLP229 T02170156 51010=
202305071352 METAR KATL 071352Z 23004KT 10SM BKN032 BKN250 20/16 A3023 RMK AO2 SLP229 T02000156=
202305071252 METAR KATL 071252Z 21007KT 10SM FEW250 19/15 A3021 RMK AO2 SLP223 T01890150=
202305071152 METAR KATL 071152Z 20004KT 10SM FEW250 17/15 A3020 RMK AO2 SLP220 T01670150 10178 20161 53004 $=
202305071052 METAR KATL 071052Z 19005KT 10SM FEW250 16/14 A3019 RMK AO2 SLP216 T01610144 $=
202305070952 METAR KATL 070952Z 16003KT 10SM CLR 16/14 A3018 RMK AO2 SLP213 T01610144 $=
202305070852 METAR KATL 070852Z 00000KT 10SM CLR 16/14 A3019 RMK AO2 SLP216 T01610144 55004 $=
202305070752 METAR KATL 070752Z 17005KT 10SM FEW042 17/14 A3018 RMK AO2 SLP214 T01670144 $=
202305070652 METAR KATL 070652Z 12003KT 10SM SCT042 17/15 A3020 RMK AO2 SLP221 T01720150 $=
202305070552 METAR KATL 070552Z 00000KT 10SM SCT047 18/15 A3020 RMK AO2 SLP220 T01780150 10222 20178 58007 $=
202305070452 METAR KATL 070452Z 00000KT 10SM SCT050 SCT075 18/15 A3021 RMK AO2 SLP225 T01830150 402440150 $=
202305070352 METAR KATL 070352Z 11004KT 10SM FEW075 19/15 A3022 RMK AO2 SLP226 T01940150 $=
202305070252 METAR KATL 070252Z 11006KT 10SM SCT075 20/15 A3022 RMK AO2 SLP227 T02000150 50004 $=
202305070152 METAR KATL 070152Z 12006KT 10SM BKN075 21/16 A3022 RMK AO2 SLP230 T02110156 $=
202305070052 METAR KATL 070052Z 11007KT 10SM SCT070 BKN075 22/15 A3021 RMK AO2 SLP226 T02170150 $=
202305062352 METAR KATL 062352Z 11007KT 10SM FEW040 BKN070 22/14 A3021 RMK AO2 SLP224 T02220144 10244 20222 51003 $=
202305062252 METAR KATL 062252Z 15008KT 10SM FEW040 BKN060 OVC070 23/14 A3020 RMK AO2 SLP221 BINOVC T02330144 $=
202305062152 METAR KATL 062152Z 13007KT 10SM FEW038 OVC060 23/14 A3020 RMK AO2 SLP222 MDT CU W DSNT E BINOVC T02330144 $=
202305062052 METAR KATL 062052Z 13006KT 10SM SCT036 BKN055 BKN250 24/14 A3020 RMK AO2 SLP220 MDT CU ALQDS T02390144 57012 $=
202305061952 METAR KATL 061952Z 12009KT 10SM SCT034 BKN055 24/14 A3020 RMK AO2 SLP222 MDT CU ALQDS T02390144 $=
202305061852 METAR KATL 061852Z 11009KT 10SM SCT032 BKN048 23/14 A3023 RMK AO2 SLP229 MDT CU ALQDS T02280139 $=
202305061829 SPECI KATL 061829Z 14008KT 10SM SCT032 BKN048 23/14 A3023 RMK AO2 MDT CU ALQDS T02330144 $=
202305061752 METAR KATL 061752Z 12007G16KT 10SM BKN028 BKN050 23/15 A3023 RMK AO2 SLP232 MDT CU N-E T02330150 10233 20156 58005 $=
202305061710 SPECI KATL 061710Z 13008KT 10SM BKN025 BKN075 23/15 A3025 RMK AO2 T02280150 $=
202305061652 METAR KATL 061652Z 14007G15KT 10SM SCT023 SCT075 22/15 A3025 RMK AO2 SLP239 T02220150 $=
202305061552 METAR KATL 061552Z 13008KT 10SM SCT025 BKN075 21/14 A3026 RMK AO2 SLP244 T02060144 $=
202305061452 METAR KATL 061452Z 12009KT 10SM FEW022 SCT055 BKN075 19/14 A3025 RMK AO2 SLP240 T01940139 51009 $=
202305061352 METAR KATL 061352Z 09008KT 10SM FEW015 OVC065 17/13 A3025 RMK AO2 SLP239 T01670128 $=
202305061305 SPECI KATL 061305Z 09007KT 10SM SCT015 OVC060 16/13 A3024 RMK AO2 T01610133 $=
202305061252 METAR KATL 061252Z 09007KT 10SM BKN015 OVC060 16/13 A3024 RMK AO2 SLP239 T01560128 $=
202305061242 SPECI KATL 061242Z 09007KT 040V120 10SM BKN014 OVC060 16/13 A3024 RMK AO2 T01560128 $=
202305061152 METAR KATL 061152Z 09007KT 10SM BKN016 OVC060 16/13 A3022 RMK AO2 SLP231 70001 T01560133 10156 20150 51011 $=
202305061147 SPECI KATL 061147Z 09007KT 10SM BKN015 OVC060 16/13 A3022 RMK AO2 $=
202305061052 METAR KATL 061052Z 08008KT 10SM FEW050 OVC060 15/13 A3019 RMK AO2 SLP222 T01500128=
202305060952 METAR KATL 060952Z 12005KT 10SM OVC050 16/13 A3019 RMK AO2 SLP220 T01560128=
202305060852 METAR KATL 060852Z 12006KT 10SM BKN050 OVC065 16/12 A3018 RMK AO2 SLP217 T01560122 55000=
202305060752 METAR KATL 060752Z 11004KT 10SM FEW050 OVC075 16/12 A3018 RMK AO2 SLP217 T01560122=
202305060652 METAR KATL 060652Z 10005KT 10SM BKN055 OVC075 16/12 A3018 RMK AO2 SLP216 T01560122=
202305060552 METAR KATL 060552Z 10004KT 10SM FEW065 BKN080 OVC130 16/12 A3018 RMK AO2 SLP217 T01560122 10161 20150 50001=
202305060452 METAR KATL 060452Z 10006KT 10SM OVC075 15/12 A3019 RMK AO2 SLP219 BINOVC T01500122 401780144=
202305060352 METAR KATL 060352Z 08006KT 10SM BKN075 BKN130 OVC200 16/12 A3018 RMK AO2 SLP217 T01560122=
202305060252 METAR KATL 060252Z 09008KT 10SM BKN075 OVC120 16/12 A3018 RMK AO2 SLP216 T01560122 53007=
202305060152 METAR KATL 060152Z 09010KT 10SM BKN075 OVC110 16/12 A3017 RMK AO2 SLP213 T01560122=
202305060052 METAR KATL 060052Z 10006KT 10SM BKN075 BKN110 OVC150 16/12 A3016 RMK AO2 SLP210 T01560122=
202305052352 METAR KATL 052352Z 09008KT 10SM BKN070 BKN095 OVC150 16/13 A3016 RMK AO2 SLP208 60000 T01610128 10172 20156 58003=
202305052252 METAR KATL 052252Z 10007KT 10SM BKN065 OVC090 16/13 A3016 RMK AO2 RAB07E37 SLP209 P0000 T01610128=
202305052152 METAR KATL 052152Z 14006KT 10SM FEW018 BKN065 OVC100 17/13 A3017 RMK AO2 RAE50 SLP213 P0000 T01670128=
202305052052 METAR KATL 052052Z 09004KT 10SM -RA BKN055 OVC080 17/13 A3016 RMK AO2 RAE28B50 SLP211 P0000 60000 T01670128 55005=
202305051952 METAR KATL 051952Z 14004KT 9SM -RA SCT048 OVC090 17/12 A3016 RMK AO2 SLP211 P0000 T01670117=
202305051852 METAR KATL 051852Z 21003KT 9SM -RA FEW020 BKN050 OVC090 17/12 A3018 RMK AO2 RAE35B51 SLP215 P0000 T01670122=
202305051752 METAR KATL 051752Z 18004KT 8SM -RA SCT070 OVC090 17/11 A3018 RMK AO2 SLP216 P0001 60001 T01720111 10178 20161 50008=
202305051652 METAR KATL 051652Z 16005KT 9SM -RA BKN085 OVC100 18/09 A3019 RMK AO2 SLP218 P0000 T01780094=
202305051552 METAR KATL 051552Z 20003KT 9SM -RA SCT065 BKN080 OVC110 18/09 A3018 RMK AO2 RAE03B35 SLP217 P0000 T01780094=
202305051452 METAR KATL 051452Z 10004KT 10SM -RA BKN070 OVC090 17/08 A3015 RMK AO2 RAB43 SLP207 P0000 60000 T01720083 53007=
202305051352 METAR KATL 051352Z 10005KT 10SM BKN085 OVC150 17/08 A3013 RMK AO2 SLP199 VIRGA S-W T01670078=
202305051252 METAR KATL 051252Z 00000KT 10SM BKN090 OVC110 16/08 A3013 RMK AO2 SLP199 VIRGA DSNT S-W-N T01610083=
202305051152 METAR KATL 051152Z 00000KT 10SM BKN090 OVC120 16/08 A3013 RMK AO2 SLP199 VIRGA OHD AND NW-E T01610083 10172 20144 53031=
202305051052 METAR KATL 051052Z 03004KT 10SM BKN100 OVC120 17/06 A3009 RMK AO2 SLP184 VIRGA S-NW T01670056=
202305050952 METAR KATL 050952Z 04003KT 10SM SCT130 BKN170 OVC250 16/08 A3005 RMK AO2 SLP171 VIRGA SW-NW T01560083=
202305050852 METAR KATL 050852Z 00000KT 10SM FEW130 BKN150 OVC200 15/09 A3004 RMK AO2 SLP166 T01500089 55001 $=
202305050752 METAR KATL 050752Z 00000KT 10SM BKN150 BKN180 OVC250 14/08 A3003 RMK AO2 SLP165 T01440083 $=
202305050652 METAR KATL 050652Z 00000KT 10SM SCT180 OVC250 15/07 A3004 RMK AO2 SLP167 T01500072 $=
202305050552 METAR KATL 050552Z 00000KT 10SM SCT180 BKN250 17/06 A3004 RMK AO2 SLP166 T01670056 10217 20167 58002=
202305050452 METAR KATL 050452Z 03006KT 10SM FEW180 SCT250 18/06 A3004 RMK AO2 SLP167 T01780056 402390100=
202305050352 METAR KATL 050352Z 33003KT 10SM FEW180 SCT250 17/07 A3005 RMK AO2 SLP169 T01720067=
202305050252 METAR KATL 050252Z 33004KT 10SM SCT180 BKN250 18/06 A3005 RMK AO2 SLP169 T01780061 51018=
202305050152 METAR KATL 050152Z 33006KT 10SM BKN180 BKN250 19/06 A3003 RMK AO2 SLP165 T01890061=
202305050052 METAR KATL 050052Z 35007KT 320V080 10SM SCT200 BKN250 21/05 A3001 RMK AO2 SLP158 T02060050=
202305042352 METAR KATL 042352Z 31008KT 10SM BKN200 BKN250 22/05 A2999 RMK AO2 SLP153 T02170050 10239 20217 51003=
202305042252 METAR KATL 042252Z 28008KT 10SM SCT200 BKN250 23/04 A2999 RMK AO2 SLP152 T02280044=
202305042152 METAR KATL 042152Z 32007KT 10SM SCT200 BKN250 23/05 A2999 RMK AO2 SLP153 T02330050=
202305042052 METAR KATL 042052Z 28006G15KT 10SM SCT200 BKN250 23/04 A2998 RMK AO2 SLP149 T02330039 56014=
202305041952 METAR KATL 041952Z 31006KT 10SM BKN200 BKN250 23/04 A3000 RMK AO2 SLP154 T02280044=
202305041852 METAR KATL 041852Z 28004KT 10SM SCT200 BKN250 22/04 A3000 RMK AO2 SLP156 T02220044=
202305041752 METAR KATL 041752Z 30009KT 10SM SCT200 SCT250 22/04 A3002 RMK AO2 SLP163 T02170039 10222 20111 56004=
202305041652 METAR KATL 041652Z 33006KT 10SM FEW200 SCT250 21/04 A3003 RMK AO2 SLP164 T02060044=
202305041552 METAR KATL 041552Z 31004KT 10SM FEW250 20/04 A3003 RMK AO2 SLP164 T02000044=
202305041452 METAR KATL 041452Z 30005KT 10SM FEW180 FEW250 19/03 A3004 RMK AO2 SLP167 T01890028 50007=
202305041352 METAR KATL 041352Z 31003KT 10SM FEW180 FEW250 17/04 A3004 RMK AO2 SLP169 T01670039=
202305041252 METAR KATL 041252Z 30004KT 10SM SCT250 14/04 A3003 RMK AO2 SLP167 T01390044=
202305041152 METAR KATL 041152Z 30004KT 10SM BKN250 11/05 A3001 RMK AO2 SLP161 T01110050 10122 20100 53019=
202305041052 METAR KATL 041052Z 32004KT 10SM BKN250 10/04 A2998 RMK AO2 SLP148 T01000039=
202305040952 METAR KATL 040952Z 32004KT 10SM SCT250 10/04 A2996 RMK AO2 SLP142 T01000044=
202305040852 METAR KATL 040852Z 32005KT 10SM FEW250 11/04 A2996 RMK AO2 SLP141 T01060039 53004=
202305040752 METAR KATL 040752Z 31006KT 10SM CLR 11/05 A2995 RMK AO2 SLP139 T01060050=
202305040652 METAR KATL 040652Z 32005KT 10SM CLR 12/05 A2995 RMK AO2 SLP137 T01170050=
202305040552 METAR KATL 040552Z 31007KT 10SM CLR 12/05 A2994 RMK AO2 SLP136 T01220050 10194 20122 53006=
202305040452 METAR KATL 040452Z 32005KT 10SM CLR 13/05 A2993 RMK AO2 SLP131 T01330050 402220089=
202305040352 METAR KATL 040352Z 31005KT 10SM CLR 14/05 A2993 RMK AO2 SLP130 T01390050=
202305040252 METAR KATL 040252Z 28003KT 10SM CLR 16/04 A2993 RMK AO2 SLP130 T01560044 51021=
202305040152 METAR KATL 040152Z 30005KT 10SM CLR 16/04 A2991 RMK AO2 SLP123 T01610044=
202305040052 METAR KATL 040052Z 32008KT 10SM CLR 17/03 A2989 RMK AO2 SLP117 T01720033=
202305032352 METAR KATL 032352Z 31014G19KT 10SM CLR 19/03 A2986 RMK AO2 SLP109 T01940028 10222 20194 53013=
202305032252 METAR KATL 032252Z 31013G22KT 10SM CLR 21/03 A2985 RMK AO2 SLP105 T02060028=
202305032152 METAR KATL 032152Z 33013G21KT 10SM CLR 22/02 A2984 RMK AO2 PK WND 33026/2100 SLP100 T02170022=
202305032052 METAR KATL 032052Z 33016G26KT 10SM FEW250 22/02 A2982 RMK AO2 PK WND 31027/2026 SLP095 T02170017 58008=
202305031952 METAR KATL 031952Z 29014G23KT 10SM FEW090 FEW250 22/02 A2983 RMK AO2 PK WND 32028/1853 SLP098 T02170017=
202305031852 METAR KATL 031852Z 30021G29KT 10SM FEW250 21/01 A2985 RMK AO2 PK WND 30029/1851 SLP104 T02110011=
202305031752 METAR KATL 031752Z 30018G29KT 10SM FEW250 21/00 A2985 RMK AO2 PK WND 28033/1730 SLP104 T02060000 10206 20106 58003=
202305031652 METAR KATL 031652Z 30018G25KT 10SM CLR 20/M01 A2986 RMK AO2 PK WND 31027/1603 SLP108 T02001006=
202305031552 METAR KATL 031552Z 31015G24KT 10SM CLR 19/M02 A2987 RMK AO2 PK WND 30028/1520 SLP110 T01891022=
202305031452 METAR KATL 031452Z 32019G31KT 10SM CLR 18/M02 A2986 RMK AO2 PK WND 30031/1448 SLP107 T01781022 51010=
202305031352 METAR KATL 031352Z 30013G23KT 10SM CLR 16/01 A2985 RMK AO2 SLP105 T01610006=
202305031252 METAR KATL 031252Z 30009KT 10SM CLR 13/02 A2985 RMK AO2 SLP105 T01330022=
202305031152 METAR KATL 031152Z 29009KT 10SM CLR 11/01 A2983 RMK AO2 SLP098 T01060011 10128 20089 51014=
202305031052 METAR KATL 031052Z 29007KT 10SM CLR 09/01 A2982 RMK AO2 SLP094 T00890006 $=
202305030952 METAR KATL 030952Z 28006KT 10SM CLR 09/01 A2980 RMK AO2 SLP089 T00940006=
202305030852 METAR KATL 030852Z 30007KT 10SM CLR 10/01 A2979 RMK AO2 SLP083 T01000006 56008 $=
202305030752 METAR KATL 030752Z 30008KT 10SM CLR 11/00 A2979 RMK AO2 SLP083 T01060000 $=
202305030652 METAR KATL 030652Z 31008KT 10SM CLR 12/M01 A2980 RMK AO2 SLP087 T01171006 $=
202305030552 METAR KATL 030552Z 32012KT 10SM CLR 13/M01 A2981 RMK AO2 SLP091 T01281006 10200 20128 50004 $=
202305030452 METAR KATL 030452Z 29009KT 10SM CLR 13/M01 A2982 RMK AO2 SLP094 T01331006 402280089 $=
202305030352 METAR KATL 030352Z 31010KT 10SM CLR 14/M01 A2981 RMK AO2 SLP089 T01441006 $=
202305030252 METAR KATL 030252Z 31012G22KT 10SM CLR 16/M01 A2980 RMK AO2 SLP087 T01561006 51024 $=
202305030152 METAR KATL 030152Z 31013KT 10SM CLR 17/01 A2978 RMK AO2 SLP080 T01670011=
202305030052 METAR KATL 030052Z 29009G18KT 10SM FEW250 18/01 A2976 RMK AO2 SLP073 T01830011=
202305022352 METAR KATL 022352Z 28012G23KT 10SM FEW250 20/01 A2973 RMK AO2 PK WND 29030/2335 SLP063 T02000011 10228 20200 58001=
202305022252 METAR KATL 022252Z 28020G28KT 10SM FEW095 21/01 A2973 RMK AO2 PK WND 29036/2201 SLP065 T02110011=
202305022152 METAR KATL 022152Z 27018G29KT 10SM SCT095 22/02 A2974 RMK AO2 PK WND 28036/2121 SLP066 T02170017=
202305022052 METAR KATL 022052Z 28019G32KT 10SM SCT095 22/01 A2973 RMK AO2 PK WND 31034/2027 SLP064 T02170011 55010=
202305021952 METAR KATL 021952Z 27018G31KT 10SM FEW090 22/02 A2973 RMK AO2 PK WND 28034/1916 SLP063 T02220017=
202305021852 METAR KATL 021852Z 28021G32KT 10SM FEW085 22/02 A2974 RMK AO2 PK WND 27032/1844 SLP066 T02170017=
202305021752 METAR KATL 021752Z 26022G31KT 10SM FEW080 21/01 A2976 RMK AO2 PK WND 27031/1750 SLP074 T02110011 10217 20106 58017=
202305021652 METAR KATL 021652Z 27018G32KT 10SM FEW075 19/02 A2978 RMK AO2 PK WND 29032/1646 SLP082 T01940022 $=
202305021552 METAR KATL 021552Z 25014G23KT 10SM FEW065 18/02 A2980 RMK AO2 SLP088 T01830022 $=
202305021452 METAR KATL 021452Z 27014G21KT 10SM CLR 17/03 A2981 RMK AO2 SLP092 T01720028 50002=
202305021352 METAR KATL 021352Z 27013G17KT 10SM CLR 16/03 A2982 RMK AO2 SLP095 T01560033=
202305021252 METAR KATL 021252Z 28009KT 10SM CLR 13/03 A2982 RMK AO2 SLP095 T01280033=
202305021152 METAR KATL 021152Z 27008KT 10SM CLR 11/03 A2981 RMK AO2 SLP090 T01060028 10117 20089 53012=
202305021052 METAR KATL 021052Z 28009KT 10SM CLR 09/02 A2979 RMK AO2 SLP084 T00940022=
202305020952 METAR KATL 020952Z 27008KT 10SM CLR 10/02 A2978 RMK AO2 SLP081 T01000017=
202305020852 METAR KATL 020852Z 27008KT 10SM CLR 10/02 A2977 RMK AO2 SLP078 T01000017 55005 $=
202305020752 METAR KATL 020752Z 27008KT 10SM CLR 10/01 A2977 RMK AO2 SLP078 T01000011 $=
202305020652 METAR KATL 020652Z 26008KT 10SM CLR 11/01 A2978 RMK AO2 SLP082 T01060011 $=
202305020552 METAR KATL 020552Z 27010KT 10SM CLR 12/01 A2979 RMK AO2 SLP083 T01170011 10178 20117 50002 $=
202305020452 METAR KATL 020452Z 28007KT 10SM CLR 12/01 A2979 RMK AO2 SLP085 T01220011 402000100 $=
202305020352 METAR KATL 020352Z 27009KT 10SM CLR 13/01 A2978 RMK AO2 SLP082 T01330006=
202305020252 METAR KATL 020252Z 26007KT 10SM CLR 14/01 A2978 RMK AO2 SLP081 T01390006 51023=
202305020152 METAR KATL 020152Z 27008KT 10SM CLR 15/00 A2976 RMK AO2 SLP075 T01500000=
202305020052 METAR KATL 020052Z 28009KT 10SM CLR 16/M01 A2973 RMK AO2 SLP066 T01611011=
202305012352 METAR KATL 012352Z 28013G21KT 10SM CLR 18/M01 A2971 RMK AO2 PK WND 29028/2328 SLP057 T01781011 10200 20178 53002=
202305012252 METAR KATL 012252Z 28017G30KT 10SM FEW085 19/01 A2970 RMK AO2 PK WND 29030/2252 SLP055 T01890011=
202305012152 METAR KATL 012152Z 27017G27KT 10SM FEW085 19/01 A2970 RMK AO2 PK WND 26036/2055 SLP054 T01940006=
202305012052 METAR KATL 012052Z 27016G28KT 10SM FEW085 19/01 A2970 RMK AO2 PK WND 27034/2001 SLP055 T01940006 56010=
202305011952 METAR KATL 011952Z 24017G29KT 10SM FEW085 19/00 A2971 RMK AO2 PK WND 23031/1910 SLP057 T01940000=
202305011852 METAR KATL 011852Z 27020G30KT 10SM FEW080 19/01 A2972 RMK AO2 PK WND 31033/1830 SLP061 T01890011=
202305011752 METAR KATL 011752Z 26017G29KT 10SM FEW075 18/01 A2973 RMK AO2 PK WND 30031/1737 SLP066 T01830006 10189 20111 58011=
202305011652 METAR KATL 011652Z 28017G24KT 10SM FEW065 18/02 A2976 RMK AO2 PK WND 28029/1615 SLP073 T01780022=
202305011552 METAR KATL 011552Z 29014G21KT 10SM FEW060 FEW200 17/02 A2976 RMK AO2 PK WND 26029/1541 SLP075 T01720017=
202305011452 METAR KATL 011452Z 27014G23KT 10SM FEW050 FEW200 16/02 A2977 RMK AO2 SLP077 T01610022 51004=
202305011352 METAR KATL 011352Z 28012G17KT 10SM CLR 15/03 A2977 RMK AO2 SLP077 T01500033=
202305011252 METAR KATL 011252Z 26009KT 10SM CLR 13/03 A2977 RMK AO2 SLP077 T01330033 $=
