##########################################################
# Query made at 04/20/2024 00:28:20 UTC
# Time interval: from 07/01/2023 12:00  to 07/31/2023 12:59  UTC
##########################################################

##########################################################
# KATL, Atlanta, Hartsfield - Jackson Atlanta International Airport (United States)
# WMO index: 72219. WIGOS ID: 0-20000-0-72219
# Latitude 33-38-59N. Longitude 084-25-00W. Altitude 312 m.
##########################################################

202307311252 METAR KATL 311252Z 02006KT 10SM FEW180 BKN250 27/21 A3004 RMK AO2 SLP162 T02670206 $=
202307311152 METAR KATL 311152Z 34007KT 10SM FEW200 FEW250 24/21 A3003 RMK AO2 SLP158 T02390206 10250 20233 53015 $=
202307311052 METAR KATL 311052Z 33005KT 10SM FEW050 FEW180 FEW250 23/21 A3001 RMK AO2 SLP150 T02330206 $=
202307310952 METAR KATL 310952Z 34006KT 10SM CLR 24/21 A2999 RMK AO2 SLP145 T02390206 $=
202307310852 METAR KATL 310852Z 34006KT 10SM CLR 24/21 A2999 RMK AO2 SLP142 T02390211 56008 $=
202307310752 METAR KATL 310752Z 31004KT 10SM CLR 24/21 A2999 RMK AO2 SLP142 T02390211 $=
202307310652 METAR KATL 310652Z 30004KT 10SM CLR 24/21 A3000 RMK AO2 SLP146 T02440211 $=
202307310552 METAR KATL 310552Z 32006KT 10SM FEW250 25/21 A3001 RMK AO2 SLP150 T02500211 10294 20250 58005 $=
202307310452 METAR KATL 310452Z 32005KT 10SM FEW180 SCT250 26/21 A3002 RMK AO2 SLP153 T02560211 403440239 $=
202307310352 METAR KATL 310352Z 29004KT 10SM SCT180 SCT250 26/21 A3003 RMK AO2 SLP155 T02610211 $=
202307310252 METAR KATL 310252Z 31006KT 10SM FEW130 SCT180 SCT250 27/21 A3003 RMK AO2 SLP155 T02720206 53013 $=
202307310152 METAR KATL 310152Z 30006KT 10SM FEW050 FEW130 SCT180 SCT250 28/21 A3001 RMK AO2 SLP151 T02780206 $=
202307310052 METAR KATL 310052Z 30007KT 10SM FEW050 FEW130 SCT180 SCT250 29/21 A2999 RMK AO2 SLP144 T02890206 $=
202307302352 METAR KATL 302352Z 32008KT 10SM FEW050 SCT130 BKN250 29/20 A2999 RMK AO2 SLP143 T02940200 10339 20294 58001 $=
202307302252 METAR KATL 302252Z 32012KT 10SM FEW050 SCT130 BKN250 31/20 A2999 RMK AO2 SLP143 CB DSNT E MDT CU DSNT NE AND S T03060200 $=
202307302152 METAR KATL 302152Z 30013G24KT 10SM FEW050 BKN190 BKN220 33/20 A3000 RMK AO2 SLP147 MDT CU DSNT S-SW T03280200 $=
202307302052 METAR KATL 302052Z 33014KT 10SM FEW055 SCT180 BKN220 34/20 A2999 RMK AO2 SLP143 T03390200 56018 $=
202307301952 METAR KATL 301952Z 33014G23KT 10SM FEW055 BKN150 BKN220 33/18 A3001 RMK AO2 SLP147 CB DSNT E SE T03280183 $=
202307301852 METAR KATL 301852Z 29012G20KT 10SM FEW050 BKN170 BKN200 32/19 A3002 RMK AO2 SLP154 CB DSNT SE-S T03170189 $=
202307301752 METAR KATL 301752Z 33012G20KT 10SM FEW050 SCT170 SCT200 33/19 A3005 RMK AO2 LTG DSNT SE-W TSB01E42 SLP161 TS MOVD S CB DSNT SE-SW-W T03280194 10344 20244 58001 $=
202307301743 SPECI KATL 301743Z 33011G23KT 10SM FEW050 SCT170 SCT200 32/19 A3005 RMK AO2 LTG DSNT S-W TSB01E42 TS MOVD S CB DSNT S-W T03220189 $=
202307301701 SPECI KATL 301701Z 32010G21KT 10SM TS SCT045CB BKN170 BKN250 34/21 A3005 RMK AO2 TSB01 OCNL LTGCG VC SW TS VC SW MOV SE CB DSNT W TCU SE T03390206 $=
202307301652 METAR KATL 301652Z 31014G23KT 10SM SCT045TCU BKN170 BKN250 34/21 A3005 RMK AO2 LTG DSNT SW AND W SLP162 CB DSNT SW W TCU SE SW T03390211 $=
202307301552 METAR KATL 301552Z 27007KT 10SM FEW042 SCT170 SCT250 33/22 A3006 RMK AO2 SLP164 MDT CU DSNT W T03280217 $=
202307301452 METAR KATL 301452Z 28005KT 10SM SCT140 SCT170 BKN250 30/20 A3005 RMK AO2 SLP163 T03000200 50002 $=
202307301352 METAR KATL 301352Z 29004KT 10SM SCT170 BKN250 28/21 A3006 RMK AO2 SLP164 T02830206 $=
202307301252 METAR KATL 301252Z 26005KT 10SM SCT150 SCT200 SCT250 26/20 A3005 RMK AO2 SLP164 ACC OHD-NE-SE-SW T02610200 $=
202307301152 METAR KATL 301152Z 28003KT 10SM FEW110 BKN180 BKN250 24/20 A3004 RMK AO2 SLP162 T02440200 10272 20239 53002 $=
202307301052 METAR KATL 301052Z 30005KT 10SM FEW110 SCT170 SCT250 24/20 A3004 RMK AO2 SLP158 T02440200 $=
202307300952 METAR KATL 300952Z 32005KT 10SM FEW110 FEW200 SCT250 25/20 A3003 RMK AO2 SLP158 T02500200 $=
202307300852 METAR KATL 300852Z 33012KT 10SM FEW033 FEW065 FEW110 SCT220 BKN250 26/21 A3004 RMK AO2 SLP158 T02610211 57001 $=
202307300752 METAR KATL 300752Z 25003KT 10SM FEW180 BKN220 BKN250 26/22 A3004 RMK AO2 SLP157 T02610217 $=
202307300652 METAR KATL 300652Z 00000KT 10SM FEW110 FEW180 BKN220 BKN250 27/21 A3005 RMK AO2 SLP161 T02670211 $=
202307300552 METAR KATL 300552Z 00000KT 10SM FEW110 FEW180 BKN220 BKN250 27/21 A3004 RMK AO2 TSE12 SLP160 TS MOV S T02670206 10328 20267 58005 $=
202307300512 SPECI KATL 300512Z 00000KT 10SM FEW050 FEW100 SCT150 SCT180 BKN250 27/21 A3006 RMK AO2 LTG DSNT S AND SW TSE12 TS MOV S CB DSNT S-SW T02720206 $=
202307300452 METAR KATL 300452Z 18006KT 10SM TS FEW050CB SCT100 BKN150 BKN180 BKN250 27/19 A3006 RMK AO2 WSHFT 0350 SLP167 FRQ LTGICCCCA SW TS SW MOV SE TCU DSNT N-NE T02720194 403670250 $=
202307300409 SPECI KATL 300409Z 05011G23KT 10SM TS FEW045CB SCT050 SCT075 SCT150 BKN250 28/21 A3007 RMK AO2 WSHFT 0350 CONS LTGICCCCA TS N-E MOV SE T02830206 $=
202307300352 METAR KATL 300352Z 01015G21KT 10SM TS FEW040CB SCT060 SCT075 SCT150 BKN250 30/22 A3008 RMK AO2 LTG DSNT NW-NE TSB51 SLP173 CONS LTGICCCCA N TS N MOV SE CB DSNT NW T03000217 $=
202307300252 METAR KATL 300252Z 30005KT 10SM FEW040 SCT060 SCT075 SCT150 SCT250 31/22 A3006 RMK AO2 LTG DSNT N AND NW SLP165 CB DSNT N AND NW T03110217 50010 $=
202307300152 METAR KATL 300152Z 33005KT 10SM SCT060 SCT150 SCT250 31/22 A3008 RMK AO2 SLP172 CB DSNT N-NE TCU DSNT S T03110217 $=
202307300052 METAR KATL 300052Z 32007KT 10SM FEW055 FEW150 SCT200 SCT250 32/21 A3005 RMK AO2 SLP163 CB DSNT W TCU DSNT SW T03170211 $=
202307292352 METAR KATL 292352Z 29005KT 10SM FEW055 FEW120 SCT180 SCT250 33/21 A3003 RMK AO2 SLP155 CB DSNT S TCU DSNT NE AND SW T03280211 10367 20328 55009 $=
202307292252 METAR KATL 292252Z 32009KT 10SM FEW055 FEW180 SCT250 34/21 A3003 RMK AO2 SLP154 TCU DSNT NE T03390211 $=
202307292152 METAR KATL 292152Z 29009KT 10SM FEW055 SCT180 BKN250 33/21 A3004 RMK AO2 SLP158 CB DSNT SE TCU DSNT SW T03280211 $=
202307292052 METAR KATL 292052Z 31010KT 10SM FEW055 FEW200 BKN250 36/19 A3005 RMK AO2 LTG DSNT NW SLP164 CB DSNT W-NW TCU DSNT SE SW T03560194 57015 $=
202307291952 METAR KATL 291952Z 30005KT 10SM SCT055 SCT250 36/21 A3007 RMK AO2 LTG DSNT NW SLP169 CB DSNT NW TCU DSNT SE W T03560206 $=
202307291852 SPECI KATL 291852Z COR 32005G15KT 10SM FEW050 BKN220 36/21 A3008 RMK AO2 SLP174 MDT CU S-W-NW T03560211 $=
202307291852 METAR KATL 291852Z VRB05G15KT 10SM FEW050 BKN220 36/21 A3008 RMK AO2 SLP174 MDT CU S-W-NW T03560211 $=
202307291752 METAR KATL 291752Z 28004KT 10SM FEW043 BKN220 34/22 A3010 RMK AO2 SLP179 T03440222 10344 20256 58012 $=
202307291652 METAR KATL 291652Z 35006KT 10SM FEW042 SCT180 SCT220 33/22 A3012 RMK AO2 SLP187 T03280222 $=
202307291552 METAR KATL 291552Z 33007KT 10SM BKN180 BKN220 32/22 A3013 RMK AO2 SLP192 T03170222=
202307291452 METAR KATL 291452Z 33008KT 10SM BKN190 OVC220 29/22 A3014 RMK AO2 SLP193 T02890217 51005=
202307291352 METAR KATL 291352Z 33003KT 10SM BKN190 OVC220 28/22 A3013 RMK AO2 SLP191 BINOVC T02780217=
202307291252 METAR KATL 291252Z 33004KT 10SM FEW120 BKN180 OVC210 27/22 A3013 RMK AO2 SLP191 T02670217=
202307291152 METAR KATL 291152Z 30004KT 10SM FEW055 SCT120 BKN150 BKN200 26/22 A3012 RMK AO2 SLP189 70001 T02560222 10261 20250 50004=
202307291052 METAR KATL 291052Z 28003KT 10SM FEW020 FEW055 BKN120 OVC150 25/22 A3013 RMK AO2 SLP191 T02500222=
202307290952 METAR KATL 290952Z 00000KT 10SM SCT020 SCT150 BKN200 BKN250 26/22 A3013 RMK AO2 SLP190 T02560217=
202307290852 METAR KATL 290852Z 00000KT 10SM SCT150 BKN200 BKN250 26/22 A3011 RMK AO2 SLP184 VIRGA OHD-ALQDS T02560217 55006=
202307290752 METAR KATL 290752Z 25005KT 10SM FEW150 SCT200 BKN250 26/22 A3010 RMK AO2 SLP179 T02560217 $=
202307290652 METAR KATL 290652Z 20003KT 10SM FEW200 BKN250 26/22 A3011 RMK AO2 SLP183 T02560217 $=
202307290552 METAR KATL 290552Z 16003KT 10SM FEW150 SCT200 BKN250 26/22 A3013 RMK AO2 SLP189 T02610222 10283 20261 58011 $=
202307290452 METAR KATL 290452Z 17005KT 10SM FEW150 BKN200 BKN250 27/22 A3015 RMK AO2 SLP196 T02670217 403440250 $=
202307290352 METAR KATL 290352Z 17005KT 10SM FEW060 BKN200 BKN250 27/23 A3014 RMK AO2 SLP195 T02670228 $=
202307290252 METAR KATL 290252Z 18003KT 10SM SCT048 BKN060 BKN200 BKN250 28/22 A3016 RMK AO2 SLP200 T02780222 51015 $=
202307290152 METAR KATL 290152Z 16004KT 10SM SCT150 BKN200 OVC250 28/19 A3014 RMK AO2 SLP194 T02780194 $=
202307290052 METAR KATL 290052Z 14003KT 10SM FEW110 SCT150 BKN200 OVC250 28/20 A3015 RMK AO2 SLP196 T02780200 $=
202307282352 METAR KATL 282352Z 08011KT 10SM FEW035CB SCT110 BKN200 BKN250 28/21 A3012 RMK AO2 PK WND 04030/2335 RAE15 TSB16E52 SLP187 TS DSIPTD CB NE MOV S TCU SE-SW P0000 60001 T02830211 10339 20283 53006 $=
202307282316 SPECI KATL 282316Z 00000KT 10SM TS FEW035CB SCT120 BKN200 OVC250 31/22 A3011 RMK AO2 RAE15 TSB16 FRQ LTGICCG VC N-NE TS VC N-NE MOV SW P0000 T03060222 $=
202307282252 METAR KATL 282252Z 08005KT 7SM -RA FEW040 SCT070 BKN140 OVC200 29/22 A3011 RMK AO2 RAB13 TSB02E52 SLP184 LTG DSNT NW-NE TS DSIPTD CB DSNT NW-NE P0001 T02940222 $=
202307282202 SPECI KATL 282202Z 22005KT 10SM TS SCT050CB BKN150 BKN200 OVC250 32/22 A3009 RMK AO2 TSB02 OCNL LTGICCG N-NE TS N-NE MOV SW T03220222 $=
202307282152 METAR KATL 282152Z 23006KT 10SM SCT050CB BKN150 BKN200 OVC250 32/22 A3009 RMK AO2 LTG DSNT N AND NE SLP177 CB N-NE DSNT N NE MOV SW T03170222 $=
202307282052 METAR KATL 282052Z 23006KT 9SM SCT055 SCT150 BKN200 OVC250 32/21 A3010 RMK AO2 LTG DSNT W SLP179 CB DSNT N W MDT CU N-NE SE T03220211 56016 $=
202307281952 METAR KATL 281952Z 23005KT 10SM SCT050 SCT150 BKN200 BKN250 33/20 A3010 RMK AO2 SLP179 TCU DSNT E NW MDT CU N-OHD-S T03280200 $=
202307281852 METAR KATL 281852Z 23007KT 9SM SCT050 SCT150 SCT200 BKN250 33/21 A3012 RMK AO2 SLP186 CB DSNT W NW MDT CU NE-SE-S T03280206 $=
202307281752 METAR KATL 281752Z 23009KT 10SM SCT050TCU SCT200 BKN250 32/21 A3014 RMK AO2 SLP195 CB DSNT SW TCU W DSNT NW T03220211 10344 20261 58009=
202307281652 METAR KATL 281652Z 00000KT 10SM SCT050TCU BKN250 33/21 A3017 RMK AO2 SLP202 TCU N SW MDT CU ALQDS T03280206=
202307281552 METAR KATL 281552Z 00000KT 10SM FEW048 BKN250 33/21 A3017 RMK AO2 SLP201 MDT CU N T03330211=
202307281452 METAR KATL 281452Z 28005KT 10SM BKN250 32/22 A3017 RMK AO2 SLP203 T03220217 50007=
202307281352 METAR KATL 281352Z VRB03KT 10SM BKN250 30/22 A3017 RMK AO2 SLP205 T03000217=
202307281252 METAR KATL 281252Z 24004KT 10SM BKN250 28/22 A3016 RMK AO2 SLP201 T02780217=
202307281152 METAR KATL 281152Z 21003KT 10SM BKN250 26/22 A3015 RMK AO2 SLP197 T02610217 10272 20250 51010=
202307281052 METAR KATL 281052Z 16003KT 10SM SCT250 25/21 A3015 RMK AO2 SLP195 T02500211=
202307280952 METAR KATL 280952Z 16003KT 10SM SCT250 26/22 A3014 RMK AO2 SLP192 T02560217=
202307280852 METAR KATL 280852Z 14003KT 9SM FEW250 26/21 A3012 RMK AO2 SLP187 T02610211 56002 $=
202307280752 METAR KATL 280752Z 15003KT 10SM FEW250 26/21 A3012 RMK AO2 SLP187 T02610211 $=
202307280652 METAR KATL 280652Z 00000KT 10SM FEW250 27/22 A3012 RMK AO2 SLP187 T02670217 $=
202307280552 METAR KATL 280552Z 14003KT 10SM FEW070 FEW250 27/21 A3013 RMK AO2 SLP188 T02720211 10339 20272 58002 $=
202307280452 METAR KATL 280452Z 00000KT 10SM FEW070 FEW250 28/21 A3014 RMK AO2 SLP192 T02780211 403610239 $=
202307280352 METAR KATL 280352Z 21003KT 10SM FEW250 28/21 A3014 RMK AO2 SLP192 T02830211 $=
202307280252 METAR KATL 280252Z 21004KT 10SM FEW070 FEW250 29/21 A3013 RMK AO2 SLP190 T02940206 53014 $=
202307280152 METAR KATL 280152Z 18007KT 10SM FEW070 SCT250 31/20 A3012 RMK AO2 LTG DSNT W SLP185 CB DSNT W T03060200 $=
202307280052 METAR KATL 280052Z 14004KT 10SM FEW070 SCT250 32/18 A3010 RMK AO2 SLP180 T03220178 $=
202307272352 METAR KATL 272352Z 10006KT 10SM FEW070 FEW250 34/17 A3009 RMK AO2 SLP176 T03440172 10361 20339 55000 $=
202307272252 METAR KATL 272252Z 08007KT 10SM FEW070 FEW250 35/17 A3008 RMK AO2 SLP172 T03500172 $=
202307272152 METAR KATL 272152Z 07007KT 10SM FEW070 FEW250 35/16 A3008 RMK AO2 SLP173 TCU DSNT SE-S MDT SW-W T03500161 $=
202307272052 METAR KATL 272052Z 06006KT 10SM FEW070TCU FEW200 SCT250 35/17 A3009 RMK AO2 SLP176 TCU SW DSNT SE-S T03500167 56013 $=
202307271952 METAR KATL 271952Z 17005KT 10SM FEW070 FEW200 SCT250 34/17 A3010 RMK AO2 SLP179 TCU DSNT SE SW W NW T03440167 $=
202307271852 METAR KATL 271852Z 00000KT 10SM FEW070TCU FEW250 34/18 A3012 RMK AO2 SLP186 TCU SW DSNT NE NW MDT CU ALQDS T03390183 $=
202307271752 METAR KATL 271752Z 23005KT 10SM FEW060 FEW250 34/19 A3013 RMK AO2 SLP190 CB DSNT NW TCU DSNT SW W MDT CU NW-NE T03390189 10356 20256 58014 $=
202307271652 METAR KATL 271652Z 03005KT 10SM FEW060 FEW250 34/19 A3015 RMK AO2 SLP198 MDT CU N SE S T03390189 $=
202307271552 METAR KATL 271552Z 00000KT 10SM FEW048 FEW250 33/20 A3016 RMK AO2 SLP201 T03280200 $=
202307271452 METAR KATL 271452Z 25003KT 9SM FEW250 32/21 A3017 RMK AO2 SLP205 T03170206 50007 $=
202307271352 METAR KATL 271352Z 22003KT 9SM FEW250 30/21 A3017 RMK AO2 SLP205 T03000206 $=
202307271252 METAR KATL 271252Z 18004KT 10SM FEW250 27/20 A3016 RMK AO2 SLP202 T02720200 $=
202307271152 METAR KATL 271152Z 32004KT 10SM FEW250 26/21 A3015 RMK AO2 SLP197 T02560211 10261 20239 51018 $=
202307271052 METAR KATL 271052Z 14003KT 10SM FEW250 24/21 A3014 RMK AO2 SLP194 T02390211 $=
202307270952 METAR KATL 270952Z 14004KT 10SM FEW250 24/21 A3012 RMK AO2 SLP186 T02440211 $=
202307270852 METAR KATL 270852Z 00000KT 10SM FEW250 24/21 A3010 RMK AO2 SLP181 T02440206 53000 $=
202307270752 METAR KATL 270752Z 00000KT 10SM FEW250 26/21 A3008 RMK AO2 SLP174 T02560211 $=
202307270652 METAR KATL 270652Z 00000KT 10SM FEW250 26/21 A3009 RMK AO2 SLP175 T02560211 $=
202307270552 METAR KATL 270552Z 00000KT 10SM FEW250 26/21 A3010 RMK AO2 SLP179 T02610211 10333 20261 58006 $=
202307270452 METAR KATL 270452Z 00000KT 10SM FEW250 27/21 A3011 RMK AO2 SLP183 T02670206 403560244 $=
202307270352 METAR KATL 270352Z 19004KT 10SM FEW250 27/21 A3011 RMK AO2 SLP184 T02720211 $=
202307270252 METAR KATL 270252Z 16004KT 10SM FEW065 SCT200 BKN250 28/21 A3012 RMK AO2 SLP185 T02780211 53009 $=
202307270152 METAR KATL 270152Z 00000KT 10SM FEW055 SCT200 BKN250 29/21 A3011 RMK AO2 SLP182 T02890211 $=
202307270052 METAR KATL 270052Z 15004KT 10SM FEW055 SCT200 31/20 A3010 RMK AO2 SLP178 TCU DSNT SE T03110200 $=
202307262352 METAR KATL 262352Z 02006KT 10SM FEW055 SCT200 33/18 A3009 RMK AO2 LTG DSNT S SLP176 CB DSNT S SW TCU DSNT NW-N T03330183 10356 20289 55003 $=
202307262252 METAR KATL 262252Z 34006KT 10SM FEW055 SCT150 SCT200 33/18 A3009 RMK AO2 SLP176 LTG DSNT SE-S CB DSNT NE E SE-S TCU DSNT NW-N T03280183 $=
202307262152 METAR KATL 262152Z 31006KT 10SM FEW060TCU SCT100 BKN200 31/18 A3009 RMK AO2 SLP176 TSE51 LTG DSNT N W-NW TS MOVD W CB DSNT N W-NW TCU E-SE DSNT ALQDS T03110183 $=
202307262052 METAR KATL 262052Z 25005KT 10SM TS SCT060CB BKN080 BKN200 29/19 A3010 RMK AO2 TSE37B50 SLP181 OCNL LTGICCG W-NW TS W-NW MOV W TCU ALQDS SHRA SW-NW T02940194 56016 $=
202307262037 SPECI KATL 262037Z 23011G18KT 10SM SCT060TCU BKN080 BKN200 29/19 A3009 RMK AO2 TSE37 TS DSIPTD TCU ALQDS SHRA SW T02940194 $=
202307262013 SPECI KATL 262013Z 22007G15KT 10SM TS SCT060CB BKN080 BKN200 32/18 A3010 RMK AO2 OCNL LTGIC SW TS SW MOV SW TCU OHD ALQDS T03170183 $=
202307261952 METAR KATL 261952Z 35005KT 10SM TS SCT060CB SCT075 SCT200 34/18 A3011 RMK AO2 SLP183 TSB46 OCNL LTGIC SW TS SW MOV S CB DSNT NW TCU ALQDS T03390183 $=
202307261852 METAR KATL 261852Z VRB03KT 10SM SCT060TCU SCT200 34/19 A3012 RMK AO2 SLP188 TCU NE SE-S NW DSNT W MDT CU ALQDS T03390189 $=
202307261752 METAR KATL 261752Z 34007KT 10SM SCT060TCU SCT200 34/18 A3015 RMK AO2 SLP195 TCU E SE W DSNT N NE MDT CU ALQDS T03440178 10350 20261 58011 $=
202307261652 METAR KATL 261652Z VRB04KT 10SM FEW055 33/18 A3016 RMK AO2 SLP201 MDT CU ALQDS T03330183=
202307261552 METAR KATL 261552Z 32005KT 10SM FEW050 33/19 A3018 RMK AO2 SLP205 T03280194=
202307261452 METAR KATL 261452Z 30004KT 10SM FEW040 32/21 A3018 RMK AO2 SLP206 T03220206 50005=
202307261352 METAR KATL 261352Z 36004KT 10SM CLR 31/20 A3018 RMK AO2 SLP206 T03110200=
202307261252 METAR KATL 261252Z 34006KT 9SM CLR 29/20 A3017 RMK AO2 SLP205 T02890200=
202307261152 METAR KATL 261152Z 33006KT 9SM CLR 26/19 A3016 RMK AO2 SLP201 T02610194 10267 20244 53012=
202307261052 METAR KATL 261052Z 32005KT 9SM CLR 24/19 A3015 RMK AO2 SLP198 T02440194=
202307260952 METAR KATL 260952Z 30004KT 10SM CLR 25/19 A3013 RMK AO2 SLP191 T02500194=
202307260852 METAR KATL 260852Z 26003KT 9SM CLR 24/20 A3013 RMK AO2 SLP189 T02440200 55005 $=
202307260752 METAR KATL 260752Z 00000KT 10SM CLR 25/20 A3013 RMK AO2 SLP189 T02500200 $=
202307260652 METAR KATL 260652Z 31004KT 10SM CLR 26/20 A3013 RMK AO2 SLP189 T02560200 $=
202307260552 METAR KATL 260552Z 31004KT 10SM CLR 27/20 A3014 RMK AO2 SLP194 T02670200 10328 20261 58002 $=
202307260452 METAR KATL 260452Z 27003KT 10SM FEW250 27/20 A3015 RMK AO2 SLP196 T02720200 403500217 $=
202307260352 METAR KATL 260352Z 33005KT 10SM FEW250 28/19 A3015 RMK AO2 SLP198 T02830194 $=
202307260252 METAR KATL 260252Z 35007KT 10SM FEW250 31/18 A3015 RMK AO2 SLP196 T03060183 53004 $=
202307260152 METAR KATL 260152Z 32006KT 10SM FEW250 31/18 A3014 RMK AO2 SLP192 T03060183 $=
202307260052 METAR KATL 260052Z 31006KT 10SM FEW080 FEW250 31/18 A3013 RMK AO2 SLP189 T03110178 $=
202307252352 METAR KATL 252352Z 33010KT 10SM FEW055CB SCT080 SCT150 33/17 A3014 RMK AO2 RAB39E50 SLP193 CB E-SE MOV S P0000 60000 T03280172 10350 20328 53005=
202307252252 METAR KATL 252252Z 34008KT 10SM FEW065 SCT150 SCT250 33/17 A3012 RMK AO2 SLP187 CB DSNT NE MDT CU N T03330172=
202307252152 METAR KATL 252152Z 33006KT 10SM FEW065 SCT140 SCT200 33/17 A3012 RMK AO2 SLP187 MDT CU N-E SE SW-W T03330167=
202307252052 METAR KATL 252052Z 27006KT 10SM FEW065 FEW140 SCT200 35/17 A3012 RMK AO2 SLP188 T03500167 56017=
202307252046 SPECI KATL 252046Z 36006KT 10SM FEW001 FEW065 FEW140 SCT200 34/16 A3012 RMK AO2 FU FEW001 FU PLUME SE=
202307251952 METAR KATL 251952Z 27005KT 10SM FEW070 FEW140 SCT200 33/16 A3014 RMK AO2 SLP193 T03280161=
202307251852 METAR KATL 251852Z 01006KT 10SM FEW070 FEW200 34/14 A3016 RMK AO2 SLP200 T03440144=
202307251752 METAR KATL 251752Z 31005KT 10SM FEW065 34/16 A3017 RMK AO2 SLP205 T03390156 10339 20239 58009=
202307251652 METAR KATL 251652Z 35006KT 10SM FEW055 33/18 A3019 RMK AO2 SLP211 T03280178=
202307251552 METAR KATL 251552Z 33007KT 10SM FEW046 32/19 A3020 RMK AO2 SLP213 T03170189=
202307251452 METAR KATL 251452Z 35007KT 10SM CLR 31/19 A3020 RMK AO2 SLP215 T03060189 51011=
202307251352 METAR KATL 251352Z 33008KT 10SM FEW150 28/19 A3020 RMK AO2 SLP214 T02830189=
202307251252 METAR KATL 251252Z 33006KT 10SM CLR 26/19 A3018 RMK AO2 SLP209 T02610189=
202307251152 METAR KATL 251152Z 32004KT 10SM CLR 23/18 A3017 RMK AO2 SLP204 T02330183 10244 20217 51013=
202307251052 METAR KATL 251052Z 31006KT 10SM FEW250 22/18 A3016 RMK AO2 SLP201 T02170178=
202307250952 METAR KATL 250952Z 00000KT 10SM CLR 22/18 A3014 RMK AO2 SLP195 T02220178=
202307250852 METAR KATL 250852Z 28004KT 10SM CLR 22/18 A3013 RMK AO2 SLP191 T02220178 57002=
202307250752 METAR KATL 250752Z 32006KT 10SM FEW250 23/18 A3013 RMK AO2 SLP190 T02280178=
202307250652 METAR KATL 250652Z 32006KT 10SM FEW250 23/18 A3014 RMK AO2 SLP193 T02330178=
202307250552 METAR KATL 250552Z 30003KT 10SM FEW250 24/18 A3013 RMK AO2 SLP193 T02390178 10306 20239 58003=
202307250452 METAR KATL 250452Z 34004KT 10SM FEW250 25/17 A3016 RMK AO2 SLP199 T02500172 403390222=
202307250352 METAR KATL 250352Z 33005KT 10SM FEW250 26/17 A3015 RMK AO2 SLP197 T02610172=
202307250252 METAR KATL 250252Z 34007KT 10SM FEW250 27/17 A3015 RMK AO2 SLP196 T02720167 53013=
202307250152 METAR KATL 250152Z 32005KT 10SM FEW250 28/17 A3013 RMK AO2 SLP192 T02780167=
202307250052 METAR KATL 250052Z 32007KT 10SM FEW250 29/16 A3011 RMK AO2 SLP186 T02890156=
202307242352 METAR KATL 242352Z 31010KT 10SM FEW065 31/16 A3011 RMK AO2 SLP184 T03060156 10339 20306 53003=
202307242252 METAR KATL 242252Z 32011KT 10SM FEW065 32/16 A3010 RMK AO2 SLP179 T03220161=
202307242152 METAR KATL 242152Z 33009G16KT 10SM FEW065 33/16 A3010 RMK AO2 SLP179 T03330156=
202307242052 METAR KATL 242052Z 34007KT 10SM FEW065 33/16 A3010 RMK AO2 SLP180 TCU DSNT NE-SE MDT CU NE-SE-S T03330161 56010=
202307241952 METAR KATL 241952Z 30007G15KT 10SM FEW065 34/17 A3011 RMK AO2 SLP184 TCU DSNT NE-E SE MDT CU E-S T03390172=
202307241852 METAR KATL 241852Z 32008KT 10SM FEW065TCU 32/17 A3012 RMK AO2 SLP187 TCU SE DSNT NE-SE MDT CU ALQDS T03220172=
202307241752 METAR KATL 241752Z 34008KT 10SM FEW055TCU 33/17 A3013 RMK AO2 SLP191 TCU SE-S MDT CU ALQDS T03330172 10333 20233 55001=
202307241652 METAR KATL 241652Z 35006KT 10SM FEW044 31/18 A3013 RMK AO2 SLP189 MDT CU ALQDS T03110183=
202307241552 METAR KATL 241552Z 00000KT 10SM FEW040 29/19 A3013 RMK AO2 SLP192 T02890194=
202307241452 METAR KATL 241452Z VRB03KT 10SM FEW034 29/20 A3013 RMK AO2 SLP192 T02890200 51011=
202307241352 METAR KATL 241352Z 07005KT 10SM FEW022 26/20 A3013 RMK AO2 SLP191 T02610200=
202307241252 METAR KATL 241252Z 04004KT 10SM CLR 25/20 A3012 RMK AO2 SLP187 T02500200=
202307241152 METAR KATL 241152Z 01005KT 10SM CLR 23/19 A3010 RMK AO2 SLP182 T02330194 10244 20222 53016=
202307241052 METAR KATL 241052Z 04006KT 10SM CLR 23/19 A3008 RMK AO2 SLP174 T02280189=
202307240952 METAR KATL 240952Z 03004KT 10SM FEW070 23/18 A3007 RMK AO2 SLP169 T02280183 $=
202307240852 METAR KATL 240852Z 01006KT 10SM CLR 23/18 A3005 RMK AO2 SLP164 T02330178 53003 $=
202307240752 METAR KATL 240752Z 33005KT 10SM CLR 23/18 A3004 RMK AO2 SLP162 T02330183 $=
202307240652 METAR KATL 240652Z 33007KT 10SM FEW070 FEW250 24/18 A3004 RMK AO2 SLP160 T02390183 $=
202307240552 METAR KATL 240552Z 33005KT 10SM FEW070 FEW250 24/18 A3004 RMK AO2 SLP161 T02440183 10306 20244 50006 $=
202307240452 METAR KATL 240452Z 33005KT 10SM SCT070 SCT080 SCT250 26/18 A3005 RMK AO2 SLP165 T02560183 403330222 $=
202307240352 METAR KATL 240352Z 34006KT 10SM FEW060 FEW085 SCT250 26/18 A3004 RMK AO2 SLP160 CB DSNT E T02610178 $=
202307240252 METAR KATL 240252Z 33006KT 10SM FEW060 FEW100 FEW250 27/18 A3002 RMK AO2 SLP154 CB DSNT E TCU DSNT SE T02670178 53016 $=
202307240152 METAR KATL 240152Z 32007KT 10SM FEW060 FEW100 FEW250 28/17 A3000 RMK AO2 LTG DSNT E SLP146 TCU DSNT E MDT CU DSNT E-S T02780172 $=
202307240052 METAR KATL 240052Z 31008KT 10SM FEW060 FEW100 29/17 A2998 RMK AO2 SLP141 MDT CU DSNT E-S T02890172 $=
202307232352 METAR KATL 232352Z 29008KT 10SM FEW060 FEW100 FEW250 31/17 A2997 RMK AO2 SLP138 TCU DSNT NE-S T03060172 10333 20300 53008 $=
202307232252 METAR KATL 232252Z 31009G15KT 10SM CLR 32/17 A2996 RMK AO2 SLP134 T03220172 $=
202307232152 METAR KATL 232152Z 27005KT 10SM SCT060TCU SCT095 SCT250 33/17 A2996 RMK AO2 SLP132 TCU S MDT CU DSNT SE AND S-SW T03280167 $=
202307232052 METAR KATL 232052Z 10SM SCT060 SCT085 SCT250 33/17 A2995 RMK AO2 SLP129 MDT CU DSNT E-SW T03280167 58008 $=
202307231952 METAR KATL 231952Z 33009G14KT 10SM SCT055 SCT085 BKN250 33/17 A2995 RMK AO2 SLP131 TCU DSNT NE-E MDT CU DSNT SE-S T03280172 $=
202307231852 METAR KATL 231852Z 30006KT 10SM SCT050 SCT200 32/18 A2997 RMK AO2 SLP137 MDT CU DSNT NW-NE AND SE-S T03220178 $=
202307231752 METAR KATL 231752Z 00000KT 10SM SCT048 SCT200 32/18 A2997 RMK AO2 SLP137 MDT CU DSNT N-NE AND SE T03170178 10317 20228 58010 $=
202307231652 METAR KATL 231652Z VRB04KT 10SM SCT046 SCT080 SCT200 31/18 A2999 RMK AO2 SLP144 MDT CU DSNT E-SE AND SW T03060178 $=
202307231552 METAR KATL 231552Z VRB04KT 10SM SCT046 SCT080 SCT110 30/19 A3001 RMK AO2 SLP150 T03000189 $=
202307231452 METAR KATL 231452Z 31007KT 10SM FEW035 SCT075 SCT110 29/20 A3000 RMK AO2 SLP149 T02940200 53006 $=
202307231352 METAR KATL 231352Z 31003KT 10SM FEW070 28/20 A2999 RMK AO2 SLP145 T02780200 $=
202307231252 METAR KATL 231252Z 00000KT 10SM FEW070 25/21 A2999 RMK AO2 SLP145 T02500206 $=
202307231152 METAR KATL 231152Z 28003KT 10SM BKN070 23/20 A2999 RMK AO2 SLP144 70005 T02280200 10239 20222 51013 $=
202307231052 METAR KATL 231052Z 26004KT 10SM BKN070 22/20 A2998 RMK AO2 SLP141 T02220200 $=
202307230952 METAR KATL 230952Z 25003KT 10SM BKN075 23/20 A2996 RMK AO2 SLP135 T02280200 $=
202307230852 METAR KATL 230852Z 00000KT 10SM SCT080 23/20 A2995 RMK AO2 SLP129 T02280200 53001 $=
202307230752 METAR KATL 230752Z 28004KT 10SM BKN080 24/20 A2994 RMK AO2 SLP127 T02390200 $=
202307230652 METAR KATL 230652Z 29004KT 10SM BKN075 24/21 A2994 RMK AO2 SLP126 T02390206=
202307230552 METAR KATL 230552Z 29005KT 10SM FEW250 23/21 A2994 RMK AO2 SLP129 T02330206 10278 20233 52002=
202307230452 METAR KATL 230452Z 31006KT 10SM SCT250 24/21 A2994 RMK AO2 SLP130 T02390211 403060217=
202307230352 METAR KATL 230352Z 29004KT 10SM FEW090 SCT250 24/21 A2994 RMK AO2 SLP127 T02440206=
202307230252 METAR KATL 230252Z 26003KT 10SM FEW090 SCT200 SCT250 25/21 A2994 RMK AO2 SLP127 T02500206 53009=
202307230152 METAR KATL 230152Z 27005KT 10SM FEW040 FEW050 SCT090 BKN250 26/21 A2992 RMK AO2 SLP123 T02560206=
202307230052 METAR KATL 230052Z 28006KT 10SM FEW040 FEW050 BKN090 BKN200 BKN250 27/21 A2992 RMK AO2 SLP122 TCU DSNT SW T02670206=
202307222352 METAR KATL 222352Z 27007KT 10SM FEW038 SCT048 BKN085 BKN250 28/21 A2991 RMK AO2 SLP118 TCU DSNT SE T02780206 10306 20267 53001=
202307222252 METAR KATL 222252Z 28006KT 10SM FEW042 SCT050 BKN085 BKN250 29/19 A2990 RMK AO2 SLP114 TCU DSNT E-S MDT CU DSNT N T02890194=
202307222152 METAR KATL 222152Z 26008KT 10SM SCT036 SCT043 BKN075 29/20 A2991 RMK AO2 SLP119 TCU DSNT E MDT CU ALQDS T02890200=
202307222052 METAR KATL 222052Z 30008KT 10SM SCT038 SCT055 BKN070 BKN140 29/20 A2991 RMK AO2 SLP117 CB DSNT NE-SE MDT CU ALQDS T02940200 55006=
202307221952 METAR KATL 221952Z VRB05KT 10SM SCT031 SCT042 SCT075 BKN140 BKN250 30/20 A2989 RMK AO2 SLP110 MDT CU DSNT ALQDS T03000200=
202307221852 METAR KATL 221852Z 35014G19KT 10SM SCT027 SCT034 SCT070 BKN140 BKN250 29/21 A2988 RMK AO2 SLP108 MDT CU DSNT ALQDS T02890206=
202307221752 METAR KATL 221752Z 32009KT 270V350 10SM SCT018 SCT027 BKN060 BKN130 27/22 A2993 RMK AO2 RAE02 PRESFR SLP124 TCU DSNT E-SW MDT CU ALQDS P0000 60005 T02720217 10278 20222 58010=
202307221652 METAR KATL 221652Z 25006KT 8SM -RA SCT018 BKN034 OVC080 24/22 A2997 RMK AO2 RAB28 SLP141 CB DSNT SE P0003 T02440217=
202307221612 SPECI KATL 221612Z 30008KT 10SM SCT014 BKN022 BKN042 26/21 A2998 RMK AO2 CB DSNT SW T02560211=
202307221552 METAR KATL 221552Z 28007KT 10SM SCT014 SCT022 BKN042 BKN130 26/21 A2998 RMK AO2 SLP142 T02610211=
202307221452 METAR KATL 221452Z 31008KT 8SM SCT007 SCT041TCU BKN060 BKN130 BKN200 24/21 A2996 RMK AO2 RAB00E10B32E47 SLP135 TCU OHD-S-SW CB DSNT SE P0000 60002 T02440211 50007=
202307221352 METAR KATL 221352Z 28011KT 8SM SCT005 SCT039 BKN060 BKN130 BKN200 23/21 A2997 RMK AO2 RAE18 SLP139 CB DSNT SW P0000 T02330211=
202307221252 METAR KATL 221252Z 30009KT 7SM -RA SCT005 SCT037 BKN065 BKN130 BKN200 22/21 A2996 RMK AO2 RAB05E27B45 SLP135 CB DSNT SW P0002 T02220206=
202307221152 METAR KATL 221152Z 30004KT 10SM FEW005 SCT065 SCT090 BKN130 BKN200 22/20 A2994 RMK AO2 SLP127 SHRA NW 70013 T02220200 10228 20217 51006=
202307221052 METAR KATL 221052Z 27004KT 10SM FEW004 SCT060 BKN090 BKN130 BKN200 22/20 A2994 RMK AO2 LTG DSNT NE SLP126 CB DSNT NE SHRA NW-NE T02170200=
202307220952 METAR KATL 220952Z 22003KT 10SM FEW004 BKN110 BKN180 22/20 A2993 RMK AO2 LTG DSNT NW SLP122 CB DSNT NW T02170200=
202307220852 METAR KATL 220852Z 32006KT 10SM FEW004 BKN130 BKN180 BKN220 22/20 A2992 RMK AO2 SLP120 T02170200 56005=
202307220824 SPECI KATL 220824Z 33009KT 10SM FEW004 22/20 A2992 RMK AO2 T02170200=
202307220752 METAR KATL 220752Z 30007KT 10SM SCT140 SCT180 BKN220 22/20 A2992 RMK AO2 SLP121 T02170200=
202307220652 METAR KATL 220652Z 26006KT 10SM SCT130 SCT180 BKN220 22/20 A2993 RMK AO2 SLP121 T02170200=
202307220552 METAR KATL 220552Z 23007KT 10SM SCT130 BKN200 BKN250 22/20 A2993 RMK AO2 SLP124 60013 T02170200 10272 20217 53004=
202307220452 METAR KATL 220452Z 23006KT 10SM FEW150 SCT250 22/21 A2990 RMK AO2 SLP112 T02220206 403440222=
202307220352 METAR KATL 220352Z 26005KT 10SM BKN180 BKN250 22/21 A2994 RMK AO2 SLP127 T02220211=
202307220252 METAR KATL 220252Z 08005KT 10SM SCT150 BKN200 BKN250 23/21 A2992 RMK AO2 RAE23 SLP121 P0000 60013 T02280206 58013=
202307220152 METAR KATL 220152Z 01010KT 9SM -RA BKN090 BKN120 OVC150 23/21 A2994 RMK AO2 PK WND 32032/0113 TSE23 PRESFR SLP129 LTG DSNT SE CB DSNT SE P0002 T02280206=
202307220123 SPECI KATL 220123Z 32013G26KT 8SM -RA FEW010 SCT050 BKN100 OVC150 23/21 A3000 RMK AO2 PK WND 32032/0113 TSE23 LTG DSNT NE SE TS MOVD SE CB DSNT NE SE P0002 T02280211=
202307220052 METAR KATL 220052Z 31013KT 9SM -TSRA FEW020CB BKN040 BKN090 OVC200 24/21 A3001 RMK AO2 PK WND 34035/0009 RAE2358B15 PRESRR SLP151 OCNL LTGICCA VC N-NE SE-S TS VC N-NE SE-S MOV SE P0011 T02390211=
202307220027 SPECI KATL 220027Z 27013KT 5SM -TSRA FEW020CB BKN040 BKN070 OVC200 23/21 A2997 RMK AO2 PK WND 34035/0009 RAE2358B15 PRESFR OCNL LTGIC E-S-SW TS E-S-SW MOV SE P0011 T02330206=
202307220016 SPECI KATL 220016Z 31020G35KT 2SM +TSRA SCT025CB BKN040 BKN070 OVC200 26/21 A3000 RMK AO2 PK WND 34035/0009 RAE2358B15 PRESRR OCNL LTGICCG NE-OHD-SW TS NE-OHD-SW MOV SE P0000 T02560211=
202307212352 METAR KATL 212352Z 35011KT 7SM -TSRA SCT035CB BKN050 BKN070 BKN200 27/22 A2996 RMK AO2 RAB44 SLP135 OCNL LTGICCG VC NE-E TS VC NE-E MOV SE CB NE-E SE DSNT W-NW P0000 60000 T02720217 10344 20272 53015=
202307212252 METAR KATL 212252Z 04013G25KT 10SM TS FEW035CB SCT070 SCT150 BKN200 BKN250 29/20 A2992 RMK AO2 SLP119 OCNL LTGICCG VC NW-NE TS VC NW-NE MOV SE TCU NE-SE T02890200=
202307212152 METAR KATL 212152Z 24012KT 10SM TS SCT035CB SCT110 BKN200 BKN250 34/22 A2991 RMK AO2 SLP116 OCNL LTGICCG VC NW-NE TS VC NW-NE MOV SE TCU SE-OHD-NW T03390222=
202307212100 SPECI KATL 212100Z 24009G17KT 10SM TS FEW034 SCT044CB SCT110 BKN180 BKN250 32/23 A2992 RMK AO2 LTG DSNT W-NE OCNL LTGIC VC NW-N TS VC NW-N MOV SE TCU OHD-NE-E CB DSNT W AND NE T03220228=
202307212052 METAR KATL 212052Z 24010G20KT 10SM FEW034 SCT044TCU SCT110 BKN180 BKN250 33/23 A2992 RMK AO2 TSE50 SLP118 TCU OHD-NE-E CB DSNT N AND NW T03280228 58019=
202307211952 METAR KATL 211952Z 26009G17KT 10SM SCT044 SCT055 BKN110 BKN160 BKN250 33/22 A2994 RMK AO2 SLP127 VIRGA DSNT SW MDT CU DSNT ALQDS T03280217=
202307211852 METAR KATL 211852Z 25016G20KT 10SM SCT031 SCT044 SCT110 BKN160 BKN250 33/22 A2996 RMK AO2 SLP131 MDT CU DSNT SE-NW T03330217=
202307211752 METAR KATL 211752Z 27009G17KT 10SM SCT028 SCT044 SCT110 BKN160 BKN250 33/22 A2997 RMK AO2 SLP137 MDT CU DSNT SE AND SW-NW T03330222 10339 20239 58009=
202307211652 METAR KATL 211652Z 30012G19KT 10SM FEW023 SCT040 SCT100 BKN160 BKN250 32/22 A2999 RMK AO2 SLP143 MDT CU DSNT SE AND W T03220217=
202307211552 METAR KATL 211552Z 28010KT 10SM FEW021 SCT038 SCT100 BKN160 BKN250 31/23 A3001 RMK AO2 SLP150 MDT CU DSNT W T03110228=
202307211452 METAR KATL 211452Z 29008KT 10SM FEW016 SCT037 SCT095 BKN150 BKN250 29/24 A3000 RMK AO2 SLP148 T02940239 55006=
202307211352 METAR KATL 211352Z 29008KT 10SM FEW023 SCT037 BKN150 BKN250 28/23 A3000 RMK AO2 SLP148 CB DSNT NW AND N T02780233=
202307211252 METAR KATL 211252Z 28006KT 10SM FEW020 SCT030 BKN140 BKN250 27/23 A3000 RMK AO2 SLP149 T02670228=
202307211152 METAR KATL 211152Z 30005KT 10SM FEW012 SCT022 SCT029 BKN150 BKN250 24/21 A3002 RMK AO2 LTG DSNT N AND NE SLP156 VIRGA N-NE CB DSNT N AND NE T02390211 10244 20233 50014 $=
202307211052 METAR KATL 211052Z 28005KT 10SM FEW013 SCT042 BKN150 BKN250 24/21 A3002 RMK AO2 LTG DSNT N AND NW SLP157 CB DSNT N AND NW T02390206 $=
202307210952 METAR KATL 210952Z 27006KT 10SM SCT015 SCT035 BKN140 BKN200 24/21 A2999 RMK AO2 LTG DSNT NE SLP144 CB DSNT N AND NE T02440206 $=
202307210852 METAR KATL 210852Z 22005KT 10SM FEW035 BKN250 24/20 A2998 RMK AO2 SLP138 T02390200 58010 $=
202307210752 METAR KATL 210752Z 23005KT 10SM SCT032 SCT048 BKN250 24/20 A2999 RMK AO2 SLP142 T02390200 $=
202307210652 METAR KATL 210652Z 23005KT 10SM SCT033 BKN045 BKN250 24/20 A3000 RMK AO2 SLP145 T02390200=
202307210552 METAR KATL 210552Z 22005KT 10SM FEW033 SCT045 BKN200 BKN250 23/20 A3001 RMK AO2 SLP149 60000 T02330200 10244 20233 56011=
202307210452 METAR KATL 210452Z 21004KT 10SM FEW035 SCT150 BKN200 BKN250 23/21 A3001 RMK AO2 SLP151 T02330206 403560233=
202307210352 METAR KATL 210352Z 23005KT 10SM SCT150 BKN200 BKN250 23/21 A3003 RMK AO2 SLP158 T02330211=
202307210252 METAR KATL 210252Z 20006KT 10SM BKN150 BKN200 OVC250 23/21 A3004 RMK AO2 SLP161 60000 T02330211 56013=
202307210152 METAR KATL 210152Z 20003KT 10SM FEW010 SCT150 BKN200 OVC250 23/21 A3007 RMK AO2 RAB01E10 SLP170 P0000 T02330211=
202307210052 METAR KATL 210052Z 17006KT 10SM FEW060 SCT110 BKN140 OVC200 24/21 A3004 RMK AO2 SLP161 T02390206=
202307202352 METAR KATL 202352Z 01006KT 10SM FEW060 SCT110 BKN150 OVC200 24/21 A3008 RMK AO2 PK WND 02039/2253 WSHFT 2239 RAE32 TSE32 SLP176 LTG DSNT SE CB DSNT SE SW P0000 60000 T02440206 10356 20239 50017=
202307202332 SPECI KATL 202332Z 02009KT 10SM FEW020 SCT060 BKN110 BKN150 OVC200 24/21 A3009 RMK AO2 PK WND 02039/2253 WSHFT 2239 RAE32 TSE32 LTG DSNT SE-SW TS MOVD SE CB DSNT SE-SW W P0000 T02390211=
202307202302 SPECI KATL 202302Z 36021G39KT 6SM -TSRA FEW025CB SCT040 BKN060 BKN150 OVC200 24/21 A3010 RMK AO2 PK WND 02039/2253 WSHFT 2239 OCNL LTGIC OHD-ALQDS TS OHD-ALQDS MOV SE P0000 T02390211=
202307202255 SPECI KATL 202255Z 01026G42KT 2 1/2SM +TSRA SCT025CB BKN040 BKN060 BKN150 OVC200 26/21 A3010 RMK AO2 PK WND 02039/2253 WSHFT 2239 OCNL LTGICCG OHD-ALQDS TS OHD-ALQDS MOV SE P0000 T02560206=
202307202252 METAR KATL 202252Z 36032G42KT 5SM -TSRA FEW025CB SCT040 BKN060 BKN150 OVC200 27/19 A3010 RMK AO2 PK WND 36042/2251 WSHFT 2226 RAB44 TSB35 SLP182 VIS LWR N-E OCNL LTGICCG NE-OHD-W TS NE-OHD-W MOV SE P0000 T02670194=
202307202243 SPECI KATL 202243Z 01023G42KT 9SM TS FEW025CB SCT040 BKN060 BKN150 OVC200 28/19 A3011 RMK AO2 PK WND 35042/2239 WSHFT 2226 TSB35 PRESRR FRQ LTGICCG NW-NE TS NW-NE MOV SE SHELF CLOUD E-OHD-W T02830194=
202307202235 SPECI KATL 202235Z 31016G25KT 280V360 10SM TS FEW030CB SCT100 BKN200 OVC250 33/22 A3007 RMK AO2 TSB35 PRESRR FRQ LTGICCG VC NW-NE TS VC NW-NE MOV SE SHELF CLOUD NW-NE T03280217=
202307202152 METAR KATL 202152Z 26008G18KT 10SM FEW065 SCT150 BKN200 BKN250 34/21 A3004 RMK AO2 LTG DSNT N SLP159 CB DSNT NW-NE T03390211=
202307202052 METAR KATL 202052Z 25015G19KT 10SM FEW065 BKN200 BKN250 35/21 A3003 RMK AO2 SLP155 T03500206 56020=
202307201952 METAR KATL 201952Z 25006G20KT 10SM FEW055 SCT200 BKN250 35/21 A3004 RMK AO2 SLP158 T03500211=
202307201852 METAR KATL 201852Z 26011G18KT 10SM FEW050 SCT200 SCT250 34/21 A3006 RMK AO2 SLP167 MDT CU ALQDS T03440211=
202307201752 METAR KATL 201752Z 30013G18KT 9SM FEW042 SCT150 SCT200 BKN250 34/23 A3009 RMK AO2 SLP176 MDT CU ALQDS T03440228 10344 20267 58005=
202307201652 METAR KATL 201652Z 29009G17KT 9SM SCT036 SCT150 BKN200 BKN250 33/23 A3010 RMK AO2 SLP180 T03280233=
202307201552 METAR KATL 201552Z 27012G21KT 8SM FEW033 SCT150 SCT200 BKN250 32/23 A3011 RMK AO2 SLP182 T03220233=
202307201452 METAR KATL 201452Z 29010KT 8SM FEW026 FEW150 SCT200 SCT250 32/24 A3011 RMK AO2 SLP182 T03170239 55004=
202307201352 METAR KATL 201352Z 28009KT 9SM FEW150 FEW200 SCT250 31/23 A3010 RMK AO2 SLP181 T03060233=
202307201252 METAR KATL 201252Z 27008KT 10SM FEW150 FEW250 28/23 A3011 RMK AO2 SLP185 T02830233=
202307201152 METAR KATL 201152Z 24005KT 10SM BKN150 BKN250 27/23 A3012 RMK AO2 SLP187 T02670228 10267 20250 58001 $=
202307201052 METAR KATL 201052Z 23003KT 10SM BKN180 BKN250 26/22 A3013 RMK AO2 SLP191 T02560222=
202307200952 METAR KATL 200952Z 27005KT 10SM SCT250 26/22 A3013 RMK AO2 SLP189 T02560222=
202307200852 METAR KATL 200852Z 25003KT 10SM SCT250 26/22 A3012 RMK AO2 SLP187 T02610222 56005=
202307200752 METAR KATL 200752Z 27004KT 10SM SCT250 26/22 A3012 RMK AO2 SLP188 T02560222=
202307200652 METAR KATL 200652Z 28005KT 10SM SCT250 26/22 A3012 RMK AO2 SLP188 T02610222=
202307200552 METAR KATL 200552Z 00000KT 10SM FEW150 SCT250 27/22 A3013 RMK AO2 SLP191 T02670222 10311 20261 58002=
202307200452 METAR KATL 200452Z 22003KT 10SM FEW150 SCT250 26/22 A3014 RMK AO2 SLP196 T02610222 403440244=
202307200352 METAR KATL 200352Z 21003KT 10SM FEW200 BKN250 27/22 A3015 RMK AO2 SLP196 T02720222=
202307200252 METAR KATL 200252Z 21003KT 10SM FEW200 BKN250 28/22 A3014 RMK AO2 SLP194 T02780217 53012=
202307200152 METAR KATL 200152Z 21003KT 10SM FEW150 SCT200 BKN250 29/21 A3012 RMK AO2 SLP188 T02890211=
202307200052 METAR KATL 200052Z 20004KT 10SM FEW150 SCT200 BKN250 30/21 A3011 RMK AO2 SLP183 T03000211=
202307192352 METAR KATL 192352Z 23005KT 10SM FEW150 SCT200 BKN250 31/21 A3011 RMK AO2 SLP183 T03060206 10344 20300 56005=
202307192252 METAR KATL 192252Z VRB05KT 10SM FEW150 SCT200 BKN250 31/21 A3011 RMK AO2 SLP183 T03110206=
202307192152 METAR KATL 192152Z 31006KT 10SM FEW150 BKN200 BKN250 31/21 A3012 RMK AO2 SLP186 T03110206=
202307192052 METAR KATL 192052Z 24007KT 10SM FEW048 SCT150 BKN180 BKN250 30/20 A3012 RMK AO2 SLP189 CB DSNT SE-S T03000200 58010=
202307192033 SPECI KATL 192033Z 28005KT 10SM FEW050 FEW140 SCT200 BKN250 31/20 A3015 RMK AO2 PRESFR CB DSNT SE-SW T03060200=
202307191952 METAR KATL 191952Z 32013KT 10SM FEW048 FEW140 SCT200 BKN250 32/21 A3018 RMK AO2 SLP209 CB DSNT E SE T03220206=
202307191852 METAR KATL 191852Z 34015G24KT 10SM FEW046 SCT120 BKN200 BKN250 32/22 A3018 RMK AO2 SLP210 ACC NE-OHD-SW T03170217=
202307191752 METAR KATL 191752Z 28008KT 10SM FEW001 FEW050 SCT110 SCT200 BKN250 34/21 A3015 RMK AO2 SLP198 FU FEW001 FU PLUME S ACC NW-NE T03390206 10339 20244 53002=
202307191652 METAR KATL 191652Z 21008KT 10SM FEW044 FEW110 SCT200 BKN250 32/20 A3014 RMK AO2 SLP195 ACC N T03170200=
202307191552 METAR KATL 191552Z 28009KT 10SM FEW038 FEW120 SCT200 BKN250 32/21 A3016 RMK AO2 SLP199 T03170206=
202307191452 METAR KATL 191452Z 27007KT 10SM FEW085 FEW150 SCT200 BKN250 31/20 A3015 RMK AO2 SLP196 ACC NE T03060200 52002=
202307191352 METAR KATL 191352Z 25005KT 10SM FEW150 SCT200 BKN250 28/19 A3015 RMK AO2 SLP195 T02830194=
202307191252 METAR KATL 191252Z 24003KT 10SM FEW100 FEW150 SCT200 SCT250 27/19 A3015 RMK AO2 SLP196 T02670189=
202307191152 METAR KATL 191152Z 30007KT 10SM FEW100 SCT140 BKN200 BKN250 24/19 A3014 RMK AO2 SLP195 ACC SW-NW 60000 T02440189 10256 20244 53016=
202307191052 METAR KATL 191052Z 29003KT 10SM SCT100 BKN140 BKN180 BKN250 24/18 A3013 RMK AO2 SLP190 ACC SW-NW T02440183=
202307190952 METAR KATL 190952Z 28003KT 10SM FEW100 BKN140 BKN180 BKN250 24/18 A3011 RMK AO2 SLP184 T02440183=
202307190852 METAR KATL 190852Z 33006KT 10SM FEW100 BKN140 BKN250 25/18 A3010 RMK AO2 SLP178 60000 T02500183 55004=
202307190752 METAR KATL 190752Z 33010KT 10SM SCT100 BKN250 25/18 A3007 RMK AO2 WSHFT 0721 RAB04E13 SLP171 P0000 T02500178=
202307190741 SPECI KATL 190741Z 33012G19KT 10SM FEW120 BKN250 25/18 A3007 RMK AO2 WSHFT 0721 RAB04E13 P0000 T02500178=
202307190652 METAR KATL 190652Z 21007KT 10SM FEW120 BKN250 24/18 A3004 RMK AO2 SLP160 T02440178=
202307190630 SPECI KATL 190630Z 19004KT 10SM FEW120 BKN250 25/18 A3006 RMK AO2 PRESFR T02500178=
202307190552 METAR KATL 190552Z 27005KT 10SM FEW120 BKN250 25/18 A3011 RMK AO2 SLP184 60000 T02500178 10311 20250 50003=
202307190452 METAR KATL 190452Z 27008KT 10SM FEW120 SCT150 OVC250 26/18 A3014 RMK AO2 SLP194 T02610183 403390228=
202307190352 METAR KATL 190352Z 27008G18KT 10SM SCT110 BKN150 OVC250 27/19 A3013 RMK AO2 RAB09E18 SLP190 P0000 T02720194=
202307190252 METAR KATL 190252Z 20007KT 8SM BKN130 OVC200 29/22 A3010 RMK AO2 SLP179 T02890217 53008=
202307190152 METAR KATL 190152Z 24007KT 8SM FEW100 BKN200 BKN250 30/21 A3009 RMK AO2 LTG DSNT W SLP177 CB DSNT SW-W T03000206=
202307190052 METAR KATL 190052Z 23005KT 7SM FEW150 BKN200 BKN250 31/21 A3007 RMK AO2 SLP172 T03060206=
202307182352 METAR KATL 182352Z 26007KT 8SM FEW150 SCT200 BKN250 31/20 A3007 RMK AO2 SLP171 T03110200 10339 20311 53004=
202307182252 METAR KATL 182252Z 27008KT 7SM BKN250 32/20 A3007 RMK AO2 SLP169 T03220200=
202307182152 METAR KATL 182152Z 25004KT 7SM BKN250 33/19 A3006 RMK AO2 SLP166 T03280194=
202307182052 METAR KATL 182052Z 27007KT 6SM HZ FU FEW055 SCT250 33/20 A3006 RMK AO2 SLP168 T03330200 58015=
202307181952 METAR KATL 181952Z 27009KT 6SM HZ FU FEW055 FEW250 33/20 A3010 RMK AO2 SLP180 T03330200=
202307181852 METAR KATL 181852Z 26008KT 5SM HZ FU FEW050 33/19 A3010 RMK AO2 SLP181 T03280194=
202307181752 METAR KATL 181752Z 30006KT 5SM HZ FU FEW043 33/21 A3011 RMK AO2 SLP183 T03280206 10328 20244 58015=
202307181652 METAR KATL 181652Z VRB04KT 5SM HZ FU FEW041 31/20 A3013 RMK AO2 SLP190 T03110200=
202307181552 METAR KATL 181552Z 31009KT 4SM HZ FU FEW040 31/21 A3014 RMK AO2 SLP195 T03110206=
202307181452 METAR KATL 181452Z 30006KT 4SM HZ FU CLR 29/21 A3015 RMK AO2 SLP198 T02940211 51020=
202307181352 METAR KATL 181352Z 32009KT 4SM HZ FU CLR 28/21 A3014 RMK AO2 SLP193 T02780211=
202307181252 METAR KATL 181252Z 31004KT 4SM HZ FU CLR 26/21 A3011 RMK AO2 SLP186 T02560206=
202307181152 METAR KATL 181152Z 32004KT 4SM HZ FU FEW250 24/20 A3009 RMK AO2 SLP178 T02440200 10244 20228 53013=
202307181052 METAR KATL 181052Z 00000KT 4SM HZ FU FEW250 23/19 A3007 RMK AO2 SLP172 T02330194=
202307180952 METAR KATL 180952Z 00000KT 4SM HZ FU FEW250 23/19 A3006 RMK AO2 SLP166 T02280194=
202307180852 METAR KATL 180852Z 31005KT 4SM HZ FU FEW250 23/19 A3005 RMK AO2 SLP164 T02330194 56005=
202307180752 METAR KATL 180752Z 00000KT 4SM HZ FU CLR 23/19 A3005 RMK AO2 SLP165 T02280189=
202307180652 METAR KATL 180652Z 00000KT 5SM HZ FU CLR 24/19 A3006 RMK AO2 SLP166 T02390189=
202307180552 METAR KATL 180552Z 26003KT 5SM HZ FU CLR 24/18 A3006 RMK AO2 SLP169 T02440183 10311 20239 56003=
202307180452 METAR KATL 180452Z 28003KT 5SM HZ FU CLR 25/18 A3007 RMK AO2 SLP170 T02500183 403280217=
202307180352 METAR KATL 180352Z 00000KT 6SM HZ FU FEW250 25/19 A3007 RMK AO2 SLP170 T02500189=
202307180252 METAR KATL 180252Z 28003KT 6SM HZ FU FEW250 27/18 A3007 RMK AO2 SLP172 T02670178 51015=
202307180152 METAR KATL 180152Z 24003KT 6SM HZ FU FEW250 28/17 A3006 RMK AO2 SLP168 T02830172=
202307180052 METAR KATL 180052Z 28004KT 5SM HZ FU FEW250 29/17 A3006 RMK AO2 SLP167 T02890172=
202307172352 METAR KATL 172352Z 00000KT 5SM HZ FU FEW250 31/16 A3003 RMK AO2 SLP157 T03110156 10328 20311 53003=
202307172252 METAR KATL 172252Z 32007KT 5SM HZ FU FEW250 32/16 A3001 RMK AO2 SLP152 T03220156=
202307172152 METAR KATL 172152Z 34004KT 5SM HZ FU FEW250 32/15 A3001 RMK AO2 SLP153 T03220150=
202307172052 METAR KATL 172052Z 32009KT 5SM HZ FU FEW250 32/14 A3002 RMK AO2 SLP154 T03220144 56015=
202307171952 METAR KATL 171952Z 33008KT 5SM HZ FU FEW180 SCT250 32/16 A3003 RMK AO2 SLP158 T03220161=
202307171852 METAR KATL 171852Z 32007KT 4SM HZ FU BKN180 BKN250 31/17 A3005 RMK AO2 SLP163 T03110167=
202307171752 METAR KATL 171752Z 33008G14KT 5SM HZ FU FEW180 SCT250 32/18 A3007 RMK AO2 SLP169 T03170178 10317 20228 58005=
202307171652 METAR KATL 171652Z 33010KT 5SM HZ FU FEW180 SCT250 31/18 A3008 RMK AO2 SLP173 T03060183=
202307171552 METAR KATL 171552Z 32005KT 6SM HZ FU SCT180 BKN250 28/19 A3009 RMK AO2 SLP176 T02780194=
202307171452 METAR KATL 171452Z 32006KT 6SM HZ FU BKN180 OVC250 27/19 A3008 RMK AO2 SLP175 T02670194 51016=
202307171352 METAR KATL 171352Z 33004KT 6SM HZ FU BKN180 BKN250 25/20 A3007 RMK AO2 SLP171 T02500200=
202307171252 METAR KATL 171252Z 31005KT 6SM HZ FU FEW200 BKN250 24/20 A3005 RMK AO2 SLP165 T02390200=
202307171152 METAR KATL 171152Z 31008KT 6SM HZ FU FEW200 BKN250 23/20 A3003 RMK AO2 SLP158 T02330200 10256 20217 53012=
202307171052 METAR KATL 171052Z 27005KT 5SM BR FU FEW250 22/19 A3001 RMK AO2 SLP150 T02170194=
202307170952 METAR KATL 170952Z 30003KT 7SM SCT250 22/19 A3000 RMK AO2 SLP147 T02220194 $=
202307170852 METAR KATL 170852Z 26004KT 7SM SCT250 23/19 A2999 RMK AO2 SLP145 T02280194 56008 $=
202307170752 METAR KATL 170752Z 29004KT 8SM SCT250 23/20 A3000 RMK AO2 SLP146 T02330200 $=
202307170652 METAR KATL 170652Z 27004KT 8SM FEW200 BKN250 24/20 A3000 RMK AO2 SLP148 T02390200 $=
202307170552 METAR KATL 170552Z 30003KT 8SM FEW200 BKN250 26/19 A3002 RMK AO2 SLP153 T02560194 10311 20256 58008 $=
202307170452 METAR KATL 170452Z 33006KT 8SM FEW200 BKN250 27/19 A3004 RMK AO2 SLP159 T02670194 403440228 $=
202307170352 METAR KATL 170352Z 35009KT 8SM BKN250 27/19 A3004 RMK AO2 SLP159 T02720194 $=
202307170252 METAR KATL 170252Z 34009KT 8SM SCT250 28/20 A3004 RMK AO2 SLP162 T02780200 51028 $=
202307170152 METAR KATL 170152Z 33007KT 9SM FEW250 28/19 A3003 RMK AO2 SLP157 T02830194 $=
202307170052 METAR KATL 170052Z 34006KT 9SM SCT250 30/19 A2999 RMK AO2 SLP144 T03000189 $=
202307162352 METAR KATL 162352Z 33009KT 9SM FEW055 FEW200 BKN250 31/18 A2996 RMK AO2 SLP134 T03060183 10344 20306 58001 $=
202307162252 METAR KATL 162252Z 32008KT 10SM FEW055 BKN250 32/18 A2996 RMK AO2 SLP134 MDT CU E T03220183 $=
202307162152 METAR KATL 162152Z 31010KT 10SM FEW055 FEW250 33/18 A2996 RMK AO2 SLP134 MDT CU DSNT SE NW T03280178 $=
202307162052 METAR KATL 162052Z 35010KT 10SM SCT060 SCT250 34/18 A2996 RMK AO2 SLP134 T03390178 56014 $=
202307161952 METAR KATL 161952Z 33011G17KT 10SM SCT060 SCT250 33/18 A2997 RMK AO2 SLP136 MDT CU DSNT SE-S T03330178 $=
202307161852 METAR KATL 161852Z 33008KT 10SM SCT050 SCT250 33/19 A2998 RMK AO2 SLP139 MDT CU DSNT SE AND SW-W T03280194 $=
202307161752 METAR KATL 161752Z 31008KT 10SM SCT043 SCT055 BKN250 32/21 A3000 RMK AO2 SLP148 MDT CU DSNT SE-NW T03220206 10322 20239 58002 $=
202307161652 METAR KATL 161652Z 31005G15KT 10SM SCT039 SCT200 31/21 A3001 RMK AO2 SLP151 MDT CU DSNT NE AND SW-NW T03060211 $=
202307161552 METAR KATL 161552Z 33005KT 10SM FEW031 SCT047 SCT200 31/22 A3001 RMK AO2 SLP151 T03060217 $=
202307161452 METAR KATL 161452Z 31009KT 10SM FEW020 SCT045 SCT140 BKN200 29/22 A3001 RMK AO2 SLP151 T02940222 50009 $=
202307161352 METAR KATL 161352Z 33008KT 10SM SCT018 SCT044 BKN140 BKN200 27/22 A3001 RMK AO2 SLP151 T02670222 $=
202307161329 SPECI KATL 161329Z 28006KT 10SM BKN018 BKN045 BKN150 26/22 A3002 RMK AO2 T02610222 $=
202307161252 METAR KATL 161252Z 28007KT 10SM FEW012 FEW045 SCT150 BKN250 26/22 A3000 RMK AO2 SLP148 VIRGA OHD-S-W T02610222 $=
202307161152 METAR KATL 161152Z 29008KT 10SM FEW006 SCT200 BKN250 24/22 A2998 RMK AO2 SLP142 VIRGA S-W T02390222 10250 20228 53015 $=
202307161052 METAR KATL 161052Z 27006KT 10SM FEW007 FEW043 FEW250 23/22 A2997 RMK AO2 SLP137 T02330217 $=
202307161046 SPECI KATL 161046Z 28007KT 10SM FEW007 FEW043 FEW250 23/22 A2997 RMK AO2 $=
202307160952 METAR KATL 160952Z 28009KT 10SM FEW043 FEW250 23/22 A2995 RMK AO2 SLP130 T02330217 $=
202307160852 METAR KATL 160852Z 28008KT 10SM FEW043 FEW250 24/22 A2994 RMK AO2 SLP125 T02390217 56011 $=
202307160752 METAR KATL 160752Z 28007KT 10SM FEW043 FEW250 24/22 A2994 RMK AO2 SLP126 T02390217 $=
202307160652 METAR KATL 160652Z 27008KT 10SM FEW043 24/22 A2995 RMK AO2 SLP130 T02440217 $=
202307160552 METAR KATL 160552Z 27007KT 10SM FEW043 25/22 A2997 RMK AO2 SLP137 T02500217 10300 20250 51006 $=
202307160452 METAR KATL 160452Z 27010KT 10SM FEW043 26/21 A2997 RMK AO2 SLP135 T02610211 403390250 $=
202307160352 METAR KATL 160352Z 27009KT 10SM SCT042 27/22 A2997 RMK AO2 SLP134 T02670217 $=
202307160252 METAR KATL 160252Z 27008KT 10SM FEW040 FEW250 27/22 A2995 RMK AO2 SLP131 T02720217 53020 $=
202307160152 METAR KATL 160152Z 27008KT 10SM SCT044 SCT250 28/22 A2993 RMK AO2 SLP122 T02830217 $=
202307160052 METAR KATL 160052Z 29008KT 10SM FEW040 SCT055 BKN250 29/22 A2991 RMK AO2 SLP115 MDT CU N-NE SE-SW T02890217 $=
202307152352 METAR KATL 152352Z 26010KT 10SM FEW044 FEW055 BKN250 30/22 A2989 RMK AO2 SLP110 TCU DSNT E SE MDT CU NW-NE-E T03000217 10339 20300 53003 $=
202307152252 METAR KATL 152252Z 31013KT 10SM SCT045 BKN250 31/21 A2989 RMK AO2 PK WND 28026/2204 SLP110 MDT CU ALQDS T03110211 $=
202307152152 METAR KATL 152152Z 28016G25KT 10SM SCT045 SCT250 32/21 A2988 RMK AO2 PK WND 28027/2059 SLP106 CB DSNT NE E MDT CU ALQDS T03220211 $=
202307152052 METAR KATL 152052Z 27012G21KT 10SM SCT045 SCT060 SCT150 BKN250 33/21 A2988 RMK AO2 SLP106 CB DSNT NE AND E TCU DSNT SE T03330211 58017 $=
202307151952 METAR KATL 151952Z 26011G20KT 10SM SCT044TCU SCT060 BKN150 BKN250 33/22 A2991 RMK AO2 SLP115 TCU SE-S MDT CU ALQDS T03330222 $=
202307151852 METAR KATL 151852Z 23012G19KT 10SM SCT041TCU BKN050 BKN150 BKN250 33/22 A2993 RMK AO2 SLP122 TCU SE-W MDT CU ALQDS T03280222 $=
202307151752 METAR KATL 151752Z 26007KT 10SM SCT037 SCT050 BKN150 BKN250 32/23 A2994 RMK AO2 SLP125 MDT CU DSNT W AND N T03220228 10333 20261 58012 $=
202307151652 METAR KATL 151652Z 28010KT 10SM SCT037TCU SCT050 SCT150 BKN250 32/22 A2997 RMK AO2 SLP135 TCU OHD MDT CU DSNT SE AND W-N T03220222 $=
202307151552 METAR KATL 151552Z 23009G17KT 10SM SCT035 SCT050 SCT150 BKN250 32/22 A2998 RMK AO2 SLP138 MDT CU SE AND DSNT W-N T03170222 $=
202307151452 METAR KATL 151452Z 25009KT 10SM FEW027 SCT043 SCT100 BKN250 31/23 A2997 RMK AO2 SLP136 T03060233 50000 $=
202307151352 METAR KATL 151352Z 21006KT 8SM SCT100 BKN250 29/23 A2998 RMK AO2 SLP138 T02940233 $=
202307151252 METAR KATL 151252Z 00000KT 10SM SCT250 27/23 A2997 RMK AO2 SLP137 T02720233 $=
202307151152 METAR KATL 151152Z 25003KT 10SM FEW200 SCT250 26/23 A2997 RMK AO2 SLP138 T02610228 10261 20250 51010 $=
202307151052 METAR KATL 151052Z 28003KT 10SM FEW024 FEW150 SCT200 SCT250 25/22 A2997 RMK AO2 SLP135 T02500222 $=
202307150952 METAR KATL 150952Z 00000KT 10SM SCT024 SCT180 SCT250 25/22 A2995 RMK AO2 SLP130 T02500217 $=
202307150852 METAR KATL 150852Z 00000KT 10SM SCT034 SCT180 SCT250 25/22 A2994 RMK AO2 SLP127 T02500217 50001 $=
202307150752 METAR KATL 150752Z 29005KT 10SM BKN180 BKN250 25/22 A2995 RMK AO2 SLP129 T02500217 $=
202307150652 METAR KATL 150652Z 28007KT 10SM SCT180 SCT250 25/22 A2996 RMK AO2 SLP132 T02500217 $=
202307150552 METAR KATL 150552Z 00000KT 10SM SCT200 SCT250 26/21 A2994 RMK AO2 SLP126 T02560211 10300 20256 55007 $=
202307150452 METAR KATL 150452Z 11006KT 10SM BKN200 BKN250 26/21 A2993 RMK AO2 SLP124 T02610211 403390239 $=
202307150352 METAR KATL 150352Z 09008KT 10SM FEW150 BKN200 BKN250 26/22 A2994 RMK AO2 SLP126 T02610217 $=
202307150252 METAR KATL 150252Z 00000KT 10SM FEW150 BKN200 BKN250 28/22 A2996 RMK AO2 SLP134 T02780222 50006 $=
202307150152 METAR KATL 150152Z 23003KT 10SM FEW035 SCT070 BKN200 BKN250 28/22 A2997 RMK AO2 TSE37 SLP137 LTG DSNT NE CB DSNT NE T02830222 $=
202307150137 SPECI KATL 150137Z 27004KT 10SM FEW035 SCT070 BKN200 BKN250 28/22 A2997 RMK AO2 TSE37 LTG DSNT NE TS DSIPTD CB DSNT NE SE T02830217 $=
202307150052 METAR KATL 150052Z 25005KT 10SM TS BKN040CB BKN070 BKN200 OVC250 29/22 A2997 RMK AO2 SLP139 FRQ LTGICCG VC E-SE DSNT NE TS VC E-SE DSNT NE MOV SE T02890222 $=
202307142352 METAR KATL 142352Z 23007KT 10SM TS SCT045CB BKN070 BKN200 OVC250 30/22 A2994 RMK AO2 SLP128 OCNL LTGICCG VC S-SW DSNT NE W TS VC S-SW DSNT NE W MOV S TCU OHD-NE T03000222 10339 20300 53007 $=
202307142252 METAR KATL 142252Z 26005KT 10SM TS FEW045CB SCT090 BKN250 32/22 A2993 RMK AO2 TSB52 SLP124 OCNL LTGICCG VC SE-S TS VC SE-S MOV S TCU DSNT NE T03220217 $=
202307142152 METAR KATL 142152Z 32006KT 10SM SCT045TCU SCT060 BKN250 33/21 A2992 RMK AO2 SLP120 TCU OHD-S ALQDS T03330211 $=
202307142052 METAR KATL 142052Z 29008KT 10SM SCT045TCU BKN250 33/22 A2992 RMK AO2 SLP120 TCU NE-SE-S MDT CU SW-NW SHRA NE T03280222 56022 $=
202307141952 METAR KATL 141952Z 04005KT 10SM SCT045TCU BKN250 33/21 A2994 RMK AO2 SLP127 TCU SE S MDT CU ALQDS T03330211 $=
202307141852 METAR KATL 141852Z 32005KT 10SM SCT040TCU BKN250 33/23 A2996 RMK AO2 SLP134 TCU NE SE DSNT W NW MDT CU ALQDS T03280228 $=
202307141752 METAR KATL 141752Z 31006KT 10SM SCT034 BKN250 32/22 A2999 RMK AO2 SLP143 MDT CU ALQDS T03170222 10317 20244 50001 $=
202307141652 METAR KATL 141652Z 30006KT 10SM SCT034TCU BKN250 31/22 A3000 RMK AO2 SLP147 TCU N SE SW MDT CU ALQDS T03060222=
202307141552 METAR KATL 141552Z 26003KT 10SM SCT028 BKN250 29/22 A2999 RMK AO2 SLP144 MDT CU ALQDS T02940222=
202307141452 METAR KATL 141452Z VRB03KT 10SM SCT018 BKN250 28/22 A2999 RMK AO2 SLP143 SCT V BKN MDT CU ALQDS T02780222 50010=
202307141352 METAR KATL 141352Z 28005KT 10SM SCT012 SCT250 27/23 A3001 RMK AO2 SLP150 T02720228=
202307141335 SPECI KATL 141335Z 27005KT 10SM BKN011 BKN250 27/23 A3000 RMK AO2 T02670228=
202307141252 METAR KATL 141252Z 28009KT 9SM OVC007 25/22 A2999 RMK AO2 SLP145 BINOVC T02500222=
202307141152 METAR KATL 141152Z 25004KT 10SM BKN005 BKN250 24/23 A2996 RMK AO2 SLP133 T02440228 10256 20239 52003=
202307141052 METAR KATL 141052Z 27006KT 10SM BKN005 BKN250 24/23 A2996 RMK AO2 SLP133 CIG 004V006 T02390228=
202307140952 METAR KATL 140952Z 27005KT 9SM BKN006 24/23 A2995 RMK AO2 SLP128 CIG 004V008 T02390228=
202307140923 SPECI KATL 140923Z 27004KT 10SM BKN008 BKN250 24/23 A2995 RMK AO2 T02440228=
202307140852 METAR KATL 140852Z 24003KT 10SM FEW015 SCT250 24/23 A2995 RMK AO2 SLP129 T02440228 55008=
202307140752 METAR KATL 140752Z 24004KT 10SM FEW015 SCT250 25/23 A2994 RMK AO2 SLP126 T02500228=
202307140652 METAR KATL 140652Z 00000KT 10SM FEW008 SCT200 BKN250 25/23 A2996 RMK AO2 SLP133 T02500233=
202307140552 METAR KATL 140552Z 24005KT 10SM FEW008 SCT250 26/23 A2997 RMK AO2 SLP137 T02560233 10289 20256 51004=
202307140530 SPECI KATL 140530Z 24006KT 10SM FEW008 SCT250 26/23 A2997 RMK AO2 T02560233=
202307140452 METAR KATL 140452Z 26004KT 10SM FEW015 SCT250 26/23 A2997 RMK AO2 SLP136 T02560233 403330233=
202307140352 METAR KATL 140352Z 24007KT 10SM FEW150 SCT250 26/23 A2997 RMK AO2 SLP135 T02610228=
202307140252 METAR KATL 140252Z 22004KT 10SM SCT150 BKN200 BKN250 27/22 A2996 RMK AO2 SLP133 T02670217 53008=
202307140152 METAR KATL 140152Z 23006KT 10SM FEW150 BKN200 BKN250 27/21 A2993 RMK AO2 SLP124 T02720211=
202307140052 METAR KATL 140052Z 22006KT 10SM FEW040 SCT150 BKN200 BKN250 28/21 A2994 RMK AO2 SLP127 CB DSNT NE T02780211=
202307132352 METAR KATL 132352Z 22008KT 10SM FEW040 SCT150 BKN200 BKN250 29/21 A2993 RMK AO2 LTG DSNT NE SLP125 CB DSNT NE T02890211 10333 20289 53004=
202307132252 METAR KATL 132252Z 23009KT 10SM FEW035 BKN150 BKN200 BKN250 31/22 A2992 RMK AO2 LTG DSNT N AND NE SLP120 CB DSNT N NE T03060222=
202307132152 METAR KATL 132152Z 21010KT 10SM FEW045 SCT080 BKN150 BKN250 32/22 A2992 RMK AO2 SLP119 TCU DSNT N-E-S MDT CU OHD T03170217=
202307132052 METAR KATL 132052Z 20006KT 10SM FEW048TCU FEW080 SCT140 BKN200 BKN250 33/21 A2992 RMK AO2 SLP120 CB DSNT NE TCU NE DSNT NE MDT CU NE-SE T03280211 56019=
202307131952 METAR KATL 131952Z 21010KT 180V250 10SM SCT043TCU SCT140 BKN200 BKN250 32/22 A2994 RMK AO2 LTG DSNT N SLP126 CB DSNT N NW TCU NE-SE SW-W MDT CU ALQDS T03220217=
202307131852 METAR KATL 131852Z 25007KT 10SM SCT040TCU SCT100 SCT200 BKN250 32/22 A2996 RMK AO2 LTG DSNT NW SLP133 CB DSNT N NW TCU E W DSNT N-NE NW MDT CU ALQDS T03220217=
202307131752 METAR KATL 131752Z 24007KT 10SM SCT038TCU SCT200 SCT250 BKN300 32/21 A2998 RMK AO2 SLP139 CB DSNT N W NW TCU ALQDS SHRA DSNT N T03170211 10322 20244 58009=
202307131652 METAR KATL 131652Z 26006KT 10SM SCT036TCU SCT180 SCT250 BKN300 31/21 A2999 RMK AO2 SLP144 TCU SW MDT CU ALQDS T03110211=
202307131552 METAR KATL 131552Z 16005KT 10SM FEW032 FEW180 SCT250 BKN300 31/22 A3000 RMK AO2 SLP148 T03060222=
202307131452 METAR KATL 131452Z 28004KT 10SM FEW026 FEW180 SCT250 BKN300 29/22 A3001 RMK AO2 SLP149 T02940222 58007=
202307131352 METAR KATL 131352Z 28005KT 10SM FEW022 FEW200 SCT250 28/22 A3001 RMK AO2 SLP152 T02830222=
202307131252 METAR KATL 131252Z 29006KT 10SM FEW018 FEW200 SCT250 26/22 A3003 RMK AO2 SLP155 T02610217=
202307131152 METAR KATL 131152Z VRB03KT 10SM FEW200 SCT250 24/22 A3003 RMK AO2 SLP156 T02440222 10256 20233 51019=
202307131052 METAR KATL 131052Z 28006KT 10SM SCT200 SCT250 23/22 A3002 RMK AO2 SLP154 T02330217=
202307130952 METAR KATL 130952Z 27006KT 10SM FEW250 23/22 A3000 RMK AO2 SLP147 T02330217=
202307130852 METAR KATL 130852Z 27004KT 10SM FEW250 24/22 A2997 RMK AO2 SLP136 T02440222 55002 $=
202307130752 METAR KATL 130752Z 27005KT 10SM FEW250 24/22 A2996 RMK AO2 SLP132 T02440222 $=
202307130652 METAR KATL 130652Z 21004KT 10SM FEW250 25/22 A2996 RMK AO2 SLP133 T02500222 $=
202307130552 METAR KATL 130552Z 22003KT 10SM CLR 26/23 A2998 RMK AO2 SLP138 T02560228 10306 20256 58010 $=
202307130452 METAR KATL 130452Z 19003KT 10SM FEW250 26/22 A3000 RMK AO2 SLP145 T02610222 403330233 $=
202307130352 METAR KATL 130352Z 00000KT 10SM FEW250 27/22 A3000 RMK AO2 SLP147 T02720217 $=
202307130252 METAR KATL 130252Z 23005KT 10SM FEW250 28/22 A3001 RMK AO2 SLP149 T02780222 51006 $=
202307130152 METAR KATL 130152Z 23004KT 10SM FEW080 SCT250 29/22 A3000 RMK AO2 SLP147 T02890217 $=
202307130052 METAR KATL 130052Z 25006KT 10SM FEW050 FEW080 SCT250 29/22 A3000 RMK AO2 SLP146 TCU DSNT NE-E T02940222 $=
202307122352 METAR KATL 122352Z 26007KT 10SM FEW055 SCT080 SCT250 31/22 A2999 RMK AO2 RAB18E30 SLP143 CB DSNT NE-E P0000 60000 T03060217 10333 20306 55003 $=
202307122252 METAR KATL 122252Z 23006KT 10SM SCT055TCU BKN090 BKN250 32/20 A2998 RMK AO2 SLP141 TCU NE-OHD-S T03170200 $=
202307122152 METAR KATL 122152Z 26004KT 10SM SCT055 SCT080 BKN200 BKN250 32/20 A2998 RMK AO2 SLP140 CB DSNT SW W-NW MDT CU OHD ALQDS T03220200 $=
202307122052 METAR KATL 122052Z 18005KT 10SM FEW055TCU FEW080 SCT200 SCT250 33/20 A3000 RMK AO2 SLP146 CB DSNT SE NW TCU N SE DSNT W MDT CU NE-SE SW T03280200 56021=
202307121952 METAR KATL 121952Z 30007KT 10SM SCT050TCU SCT080 SCT250 33/20 A3001 RMK AO2 SLP151 CB DSNT W-NW TCU S SW DSNT E MDT CU ALQDS T03280200=
202307121852 METAR KATL 121852Z 28007KT 10SM SCT050TCU SCT075 SCT250 33/20 A3004 RMK AO2 SLP159 CB DSNT SE SW-W TCU SW MDT CU ALQDS T03280200=
202307121752 METAR KATL 121752Z 27008G14KT 10SM SCT048TCU SCT075 SCT250 31/20 A3006 RMK AO2 SLP168 TCU S-SW DSNT NE-E MDT CU ALQDS T03060200 10322 20250 58001=
202307121652 METAR KATL 121652Z 27006KT 10SM SCT044 SCT070 SCT250 31/21 A3007 RMK AO2 SLP169 TCU DSNT NE W MDT CU ALQDS T03060206=
202307121552 METAR KATL 121552Z 22007KT 10SM SCT040TCU BKN065 BKN250 29/19 A3007 RMK AO2 SLP171 TCU SW MDT CU OHD ALQDS T02940194=
202307121452 METAR KATL 121452Z 19007KT 10SM FEW033 FEW060 FEW250 29/21 A3007 RMK AO2 SLP169 TCU DSNT NW-N MDT CU DSNT S T02890206 50004=
202307121352 METAR KATL 121352Z 15004KT 10SM FEW042 FEW070 FEW250 27/18 A3007 RMK AO2 SLP171 MDT CU DSNT N NE-E NW T02720183=
202307121252 METAR KATL 121252Z 15004KT 10SM FEW041 FEW060 FEW250 26/18 A3007 RMK AO2 SLP170 T02560183=
202307121152 METAR KATL 121152Z 00000KT 10SM SCT060 SCT250 25/18 A3005 RMK AO2 SLP165 T02500183 10256 20233 53008=
202307121052 METAR KATL 121052Z 10004KT 10SM SCT050 SCT250 24/17 A3005 RMK AO2 SLP163 T02390172=
202307120952 METAR KATL 120952Z 00000KT 10SM FEW050 FEW250 23/18 A3003 RMK AO2 SLP159 T02330183=
202307120852 METAR KATL 120852Z 00000KT 10SM FEW050 FEW250 24/18 A3003 RMK AO2 SLP157 T02390183 55002=
202307120752 METAR KATL 120752Z 09003KT 10SM FEW050 FEW250 25/18 A3003 RMK AO2 SLP156 T02500183=
202307120652 METAR KATL 120652Z 06003KT 10SM FEW050 FEW250 26/18 A3003 RMK AO2 SLP158 T02560178=
202307120552 METAR KATL 120552Z 04003KT 10SM FEW050 FEW250 26/20 A3003 RMK AO2 SLP158 T02560200 10300 20250 58002=
202307120452 METAR KATL 120452Z 00000KT 10SM FEW050 SCT250 25/20 A3004 RMK AO2 SLP160 T02500200 403220217=
202307120352 METAR KATL 120352Z 27003KT 10SM FEW200 FEW250 26/20 A3005 RMK AO2 SLP163 T02560200=
202307120252 METAR KATL 120252Z 29004KT 10SM FEW200 BKN250 27/19 A3004 RMK AO2 SLP161 T02670194 53012=
202307120152 METAR KATL 120152Z 00000KT 10SM FEW200 BKN250 28/19 A3002 RMK AO2 SLP154 T02780194=
202307120052 METAR KATL 120052Z 27004KT 10SM FEW200 SCT250 28/18 A3001 RMK AO2 SLP151 T02830183=
202307112352 METAR KATL 112352Z 27007KT 10SM SCT200 BKN250 30/18 A3000 RMK AO2 SLP149 T03000183 10322 20294 55001=
202307112252 METAR KATL 112252Z 29006KT 10SM FEW055 SCT200 BKN250 31/18 A3000 RMK AO2 SLP147 T03060183=
202307112152 METAR KATL 112152Z 25007KT 10SM FEW055 SCT200 BKN250 31/18 A3000 RMK AO2 SLP148 T03110183=
202307112052 METAR KATL 112052Z 28008G15KT 10SM FEW055 SCT200 SCT250 32/19 A3001 RMK AO2 SLP151 MDT CU SE SW T03170189 56015=
202307111952 METAR KATL 111952Z 33009G15KT 10SM SCT055 SCT200 BKN250 31/19 A3002 RMK AO2 SLP155 MDT CU ALQDS T03110189=
202307111852 METAR KATL 111852Z 30011KT 10SM SCT050TCU SCT070 SCT250 31/19 A3003 RMK AO2 SLP159 TCU N SE MDT CU ALQDS T03060189=
202307111752 METAR KATL 111752Z 23009KT 10SM SCT048 30/18 A3005 RMK AO2 SLP166 MDT CU ALQDS T03000183 10311 20233 50001=
202307111652 METAR KATL 111652Z 27007G15KT 10SM FEW046 FEW250 30/18 A3005 RMK AO2 SLP166 MDT CU DSNT SE-SW-W T03000183=
202307111552 METAR KATL 111552Z 26007KT 10SM FEW044 29/18 A3006 RMK AO2 SLP168 TCU DSNT S T02940183=
202307111452 METAR KATL 111452Z 28006KT 10SM FEW040 FEW250 29/18 A3005 RMK AO2 SLP165 T02890183 51009=
202307111352 METAR KATL 111352Z 25003KT 10SM FEW038 27/17 A3005 RMK AO2 SLP163 T02720172=
202307111252 METAR KATL 111252Z 32004KT 10SM CLR 26/19 A3003 RMK AO2 SLP158 T02560189=
202307111152 METAR KATL 111152Z 29004KT 10SM FEW050 23/19 A3002 RMK AO2 SLP155 70004 T02330194 10233 20217 51010 $=
202307111052 METAR KATL 111052Z 30004KT 10SM FEW050 22/19 A3002 RMK AO2 SLP153 T02170194 $=
202307110952 METAR KATL 110952Z 31004KT 10SM FEW050 22/19 A3001 RMK AO2 SLP151 T02170194 $=
202307110852 METAR KATL 110852Z 31005KT 10SM FEW050 22/19 A2999 RMK AO2 SLP145 T02220194 53006=
202307110752 METAR KATL 110752Z 29004KT 10SM CLR 22/19 A2998 RMK AO2 SLP142 T02220194=
202307110652 METAR KATL 110652Z 31005KT 10SM CLR 23/19 A2998 RMK AO2 SLP139 T02280194=
202307110552 METAR KATL 110552Z 31007KT 10SM CLR 23/20 A2997 RMK AO2 SLP138 T02330200 10289 20233 58006=
202307110452 METAR KATL 110452Z 27004KT 10SM CLR 24/20 A2999 RMK AO2 SLP144 T02390200 403060211=
202307110352 METAR KATL 110352Z 31004KT 10SM FEW050 24/20 A2999 RMK AO2 SLP145 T02440200=
202307110252 METAR KATL 110252Z 28004KT 10SM FEW050 25/19 A2999 RMK AO2 SLP146 T02500194 53016=
202307110152 METAR KATL 110152Z 32006KT 10SM FEW045 FEW070 27/19 A2997 RMK AO2 SLP138 T02670189=
202307110052 METAR KATL 110052Z 30007KT 10SM FEW045 FEW070 27/19 A2996 RMK AO2 SLP133 TCU DSNT NE-SE T02720189=
202307102352 METAR KATL 102352Z 30010KT 10SM FEW045TCU SCT070 29/19 A2994 RMK AO2 SLP129 CB DSNT SE TCU NE-SE-S T02890194 10306 20272 53007=
202307102252 METAR KATL 102252Z 29012KT 10SM FEW045TCU SCT070 30/19 A2992 RMK AO2 SLP122 TCU NE-SE-S DSNT SW T03000194=
202307102152 METAR KATL 102152Z 29009KT 10SM SCT045TCU BKN070 29/20 A2992 RMK AO2 SLP120 TCU N-E-S MDT CU OHD-ALQDS T02940200=
202307102052 METAR KATL 102052Z 31008KT 10SM SCT042TCU BKN065 29/20 A2992 RMK AO2 SLP120 TCU NE-E W MDT CU ALQDS T02940200 58002=
202307101952 METAR KATL 101952Z 31008KT 10SM SCT040 BKN065 30/21 A2993 RMK AO2 SLP123 TCU DSNT E-S SW MDT CU ALQDS T03000206=
202307101852 METAR KATL 101852Z 32007KT 10SM SCT035 BKN060 30/21 A2992 RMK AO2 SLP122 TCU DSNT E-S MDT CU ALQDS T03000206=
202307101752 METAR KATL 101752Z 33007KT 10SM SCT030 BKN048 28/21 A2993 RMK AO2 SLP124 MDT CU ALQDS 60004 T02830206 10283 20211 58004=
202307101652 METAR KATL 101652Z 31008KT 10SM SCT024 BKN034 BKN050 27/21 A2994 RMK AO2 SLP129 MDT CU ALQDS T02670211=
202307101647 SPECI KATL 101647Z 32008KT 10SM SCT022 BKN032 BKN050 26/21 A2994 RMK AO2 MDT CU ALQDS=
202307101552 METAR KATL 101552Z 33009KT 10SM BKN016 OVC048 25/21 A2994 RMK AO2 SLP131 MDT CU ALQDS BINOVC T02500206=
202307101452 METAR KATL 101452Z 34008KT 10SM SCT009 OVC016 23/20 A2994 RMK AO2 SLP130 TCU DSNT N-NE BINOVC 60004 T02280200 53012=
202307101415 SPECI KATL 101415Z 33007KT 10SM BKN011 OVC017 23/21 A2993 RMK AO2 CIG 009V013 BINOVC T02280206=
202307101352 METAR KATL 101352Z 36008KT 9SM SCT008 OVC015 23/21 A2992 RMK AO2 RAE1258 SLP121 BINOVC P0000 T02280206=
202307101345 SPECI KATL 101345Z 01007KT 8SM SCT008 OVC014 22/21 A2992 RMK AO2 RAE1258 BINOVC P0000 T02220206=
202307101252 METAR KATL 101252Z 34008KT 7SM -RA BKN007 BKN013 OVC055 22/20 A2991 RMK AO2 SLP119 P0004 T02220200=
202307101231 SPECI KATL 101231Z 03005KT 7SM -RA SCT005 BKN015 OVC055 22/20 A2991 RMK AO2 P0003 T02170200=
202307101213 SPECI KATL 101213Z 34007KT 5SM -RA BR BKN005 BKN044 OVC060 22/20 A2991 RMK AO2 P0003 T02170200=
202307101152 METAR KATL 101152Z 06004KT 3SM RA BR SCT005 BKN036 OVC060 21/20 A2990 RMK AO2 SLP115 P0036 60069 70088 T02110200 10228 20211 53003=
202307101126 SPECI KATL 101126Z 04006KT 1 1/2SM +RA BR SCT005 OVC036 21/20 A2990 RMK AO2 P0021 T02110200=
202307101052 METAR KATL 101052Z 04009KT 2 1/2SM +RA BR FEW008 SCT015 OVC035 22/20 A2989 RMK AO2 SLP110 P0018 T02170200=
202307101048 SPECI KATL 101048Z 03010KT 2 1/2SM +RA BR FEW008 SCT015 OVC055 22/21 A2989 RMK AO2 P0016=
202307101030 SPECI KATL 101030Z 05010KT 4SM -RA BR FEW007 BKN037 OVC060 22/20 A2988 RMK AO2 P0011 T02170200=
202307101027 SPECI KATL 101027Z 05011KT 2 1/2SM RA BR SCT007 BKN034 OVC060 22/21 A2988 RMK AO2 P0011 T02170206=
202307101024 SPECI KATL 101024Z 06011KT 2SM +RA BR BKN007 BKN015 OVC060 22/21 A2988 RMK AO2 P0010 T02220206=
202307100952 METAR KATL 100952Z 04008KT 7SM RA BKN007 BKN013 OVC075 22/20 A2988 RMK AO2 SLP106 BKN007 V SCT P0011 T02220200 $=
202307100933 SPECI KATL 100933Z 36006KT 5SM -RA BR BKN005 OVC055 22/21 A2988 RMK AO2 CIG 004V007 P0010 T02220211 $=
202307100852 METAR KATL 100852Z 03005KT 5SM RA BR FEW009 OVC060 22/21 A2989 RMK AO2 RAB0756 SLP111 P0004 60004 T02220206 58007 $=
202307100752 METAR KATL 100752Z 01004KT 10SM FEW009 FEW065 BKN100 OVC130 23/21 A2990 RMK AO2 RAE0654 SLP113 P0000 T02280206 $=
202307100652 METAR KATL 100652Z 34007KT 10SM -RA FEW009 BKN095 OVC110 22/21 A2991 RMK AO2 RAB17 SLP118 P0000 T02220211 $=
202307100637 SPECI KATL 100637Z 34007KT 10SM -RA FEW009 OVC100 22/21 A2992 RMK AO2 RAB17 P0000 T02220206 $=
202307100552 METAR KATL 100552Z 31007KT 10SM FEW080 BKN100 OVC140 22/21 A2991 RMK AO2 SLP119 60019 T02220206 10300 20217 55012 $=
202307100452 METAR KATL 100452Z 36007KT 10SM FEW090 SCT120 BKN140 23/20 A2989 RMK AO2 SLP109 T02280200 403280217 $=
202307100352 METAR KATL 100352Z 00000KT 10SM FEW045 SCT090 SCT110 OVC150 22/20 A2989 RMK AO2 LTG DSNT E RAE34 TSE11 SLP113 TS MOV E CB DSNT NE-SE P0002 T02220200 $=
202307100311 SPECI KATL 100311Z 23004KT 10SM -RA SCT044 SCT090 BKN120 BKN150 OVC200 22/20 A2993 RMK AO2 LTG DSNT NE AND E TSE11 TS MOV E CB DSNT NE-SE P0002 T02220200 $=
202307100252 METAR KATL 100252Z 27009G16KT 6SM -TSRA BR FEW014 SCT025CB BKN045 OVC150 23/21 A2995 RMK AO2 PK WND 26031/0219 RAB12 TSB35 SLP132 OCNL LTGICCG N-SE TS N-SE MOV E BINOVC P0017 60017 T02280206 53016 $=
202307100235 SPECI KATL 100235Z 25016G28KT 3SM +TSRA BR FEW021CB BKN037 BKN110 OVC200 23/21 A2995 RMK AO2 PK WND 26031/0219 LTG DSNT SE RAB12 TSB35 OCNL LTGICCG W-NW TS W-NW MOV E CB DSNT SE P0007 T02330206 $=
202307100152 METAR KATL 100152Z 22004KT 10SM SCT042 SCT090 BKN150 BKN200 BKN250 28/21 A2993 RMK AO2 SLP122 OCNL LTGIC DSNT S-W CB DSNT S-W T02830211 $=
202307100052 METAR KATL 100052Z 26005KT 10SM SCT055 SCT070 BKN150 BKN200 BKN250 29/21 A2991 RMK AO2 SLP118 CBMAM SE-SW T02890206 $=
202307092352 METAR KATL 092352Z 27006KT 10SM FEW048 SCT120 SCT150 BKN180 BKN250 29/21 A2990 RMK AO2 SLP114 TCU DSNT E AND W T02940206 10328 20294 53005 $=
202307092252 METAR KATL 092252Z 26009KT 10SM SCT048TCU SCT070 BKN180 BKN250 31/20 A2990 RMK AO2 SLP113 TCU OHD AND S AND W-NW MDT CU ALQDS T03110200 $=
202307092152 METAR KATL 092152Z 28008KT 10SM SCT049 SCT200 BKN250 31/19 A2989 RMK AO2 SLP109 TCU DSNT SW MDT CU S T03110189 $=
202307092052 METAR KATL 092052Z 30009KT 10SM SCT048 SCT200 BKN250 32/20 A2988 RMK AO2 SLP107 MDT CU ALQDS T03220200 56017 $=
202307091952 METAR KATL 091952Z 29009KT 10SM SCT046 SCT200 BKN250 32/20 A2989 RMK AO2 SLP111 MDT CU ALQDS T03220200 $=
202307091852 METAR KATL 091852Z 32010G16KT 10SM SCT044 SCT200 BKN250 32/20 A2991 RMK AO2 SLP116 MDT CU ALQDS T03170200 $=
202307091752 METAR KATL 091752Z 32011KT 10SM SCT037 SCT080 SCT220 31/21 A2994 RMK AO2 SLP125 MDT CU ALQDS T03110206 10311 20233 56012 $=
202307091652 METAR KATL 091652Z 27008KT 10SM SCT034 SCT080 SCT250 30/20 A2995 RMK AO2 SLP129 MDT CU DSNT E W T03000200 $=
202307091552 METAR KATL 091552Z 30009KT 10SM SCT027 SCT080 28/21 A2996 RMK AO2 SLP133 MDT CU DSNT W-NW T02830206 $=
202307091452 METAR KATL 091452Z 29012KT 10SM SCT022 BKN080 27/21 A2997 RMK AO2 SLP138 SCT V BKN T02670206 53017 $=
202307091352 METAR KATL 091352Z 31014G21KT 10SM BKN020 BKN075 BKN130 26/20 A2996 RMK AO2 SLP132 BKN020 V SCT T02610200 $=
202307091338 SPECI KATL 091338Z 30008KT 10SM BKN017 BKN075 BKN130 26/21 A2995 RMK AO2 T02610206 $=
202307091322 SPECI KATL 091322Z 28009KT 10SM SCT015 BKN130 26/21 A2994 RMK AO2 T02560206 $=
202307091252 METAR KATL 091252Z 28009KT 10SM BKN013 BKN140 BKN180 24/21 A2993 RMK AO2 SLP125 CIG 010V015 T02440206 $=
202307091242 SPECI KATL 091242Z 30012KT 10SM BKN012 BKN140 BKN180 24/21 A2994 RMK AO2 CIG 011V015 T02440206 $=
202307091213 SPECI KATL 091213Z 29009KT 10SM SCT009 SCT014 BKN140 BKN180 24/21 A2992 RMK AO2 T02390211 $=
202307091152 METAR KATL 091152Z 28011KT 9SM SCT009 BKN014 BKN140 BKN180 23/21 A2992 RMK AO2 SLP120 BKN014 V SCT T02330211 10244 20233 53014 $=
202307091127 SPECI KATL 091127Z 26008KT 9SM BKN009 BKN014 BKN140 23/21 A2991 RMK AO2 T02330211 $=
202307091052 METAR KATL 091052Z 25007KT 10SM SCT009 BKN130 BKN180 23/21 A2990 RMK AO2 SLP113 T02330211 $=
202307091047 SPECI KATL 091047Z 26006KT 10SM SCT009 BKN130 BKN180 23/21 A2990 RMK AO2 $=
202307090952 METAR KATL 090952Z 26007KT 10SM BKN009 BKN150 BKN250 23/21 A2989 RMK AO2 SLP108 CIG 008V012 T02330211 $=
202307090930 SPECI KATL 090930Z 27009KT 10SM BKN009 BKN150 BKN250 23/21 A2989 RMK AO2 T02330211 $=
202307090904 SPECI KATL 090904Z 27008KT 10SM FEW008 FEW140 BKN180 BKN250 23/21 A2988 RMK AO2 T02330211 $=
202307090852 METAR KATL 090852Z 26008KT 10SM FEW014 FEW140 BKN180 BKN250 23/21 A2988 RMK AO2 SLP106 T02330211 55005 $=
202307090752 METAR KATL 090752Z 25005KT 10SM FEW014 SCT140 BKN180 BKN250 24/21 A2987 RMK AO2 SLP103 T02390211 $=
202307090747 SPECI KATL 090747Z 25006KT 10SM FEW014 SCT140 BKN180 BKN250 24/21 A2988 RMK AO2 $=
202307090659 SPECI KATL 090659Z 26008KT 10SM BKN014 BKN179 BKN250 24/22 A2989 RMK AO2 T02440217 $=
202307090652 METAR KATL 090652Z 26006KT 10SM SCT015 SCT150 BKN180 BKN250 24/22 A2989 RMK AO2 SLP109 T02440217 $=
202307090552 METAR KATL 090552Z 28006KT 10SM FEW016 FEW040 BKN180 BKN250 24/22 A2990 RMK AO2 SLP111 T02440217 10306 20244 58007 $=
202307090452 METAR KATL 090452Z 28007KT 10SM FEW016 SCT040 SCT200 BKN250 25/21 A2991 RMK AO2 SLP117 T02500211 403330222 $=
202307090352 METAR KATL 090352Z 27010KT 10SM FEW018 FEW025 SCT060 SCT200 BKN250 25/21 A2992 RMK AO2 LTG DSNT NE SLP119 CB DSNT NE T02500206 $=
202307090252 METAR KATL 090252Z 28007KT 10SM FEW030 FEW060 SCT200 BKN250 27/21 A2992 RMK AO2 LTG DSNT NE SLP119 CB DSNT NE TCU DSNT SE T02670211 53021 $=
202307090152 METAR KATL 090152Z 27007KT 10SM FEW030TCU SCT060 SCT200 BKN250 28/22 A2990 RMK AO2 SLP111 OCNL LTGIC DSNT NE CB DSNT NE TCU N AND S T02780222 $=
202307090052 METAR KATL 090052Z 27009KT 10SM SCT047TCU SCT200 BKN250 29/21 A2987 RMK AO2 SLP103 TCU W CB DSNT N AND NE T02890211 $=
202307082352 METAR KATL 082352Z 28008KT 10SM FEW055 FEW150 BKN200 BKN250 31/21 A2986 RMK AO2 SLP098 CB DSNT NE TCU DSNT N AND E AND W MDT CU DSNT W T03060211 10333 20306 56002 $=
202307082252 METAR KATL 082252Z 24005KT 10SM FEW050 FEW070 FEW150 BKN200 BKN250 31/21 A2986 RMK AO2 SLP099 CB DSNT NE TCU DSNT ALQDS T03110211 $=
202307082152 METAR KATL 082152Z AUTO 24011KT 10SM FEW050 FEW100 SCT200 BKN250 32/21 A2985 RMK AO2 SLP096 CB DSNT NE E-SE TCU DSNT ALQDS T03170206 $=
202307082052 METAR KATL 082052Z VRB05G15KT 10SM FEW050TCU FEW090 BKN250 33/19 A2986 RMK AO2 SLP099 CB DSNT N NE-E S-SW TCU N-NE SW T03330194 56018 $=
202307081952 METAR KATL 081952Z 23009G18KT 10SM SCT050TCU SCT100 BKN250 33/19 A2988 RMK AO2 SLP105 TCU ALQDS CB DSNT SW T03280189 $=
202307081852 METAR KATL 081852Z 23007KT 10SM SCT048TCU SCT250 32/20 A2990 RMK AO2 SLP112 TCU NE E SE DSNT ALQDS MDT CU ALQDS T03220200 $=
202307081752 METAR KATL 081752Z 32005KT 10SM SCT044 SCT250 33/20 A2992 RMK AO2 SLP118 TCU DSNT E MDT CU ALQDS T03280200 10328 20239 58011 $=
202307081652 METAR KATL 081652Z 33011KT 10SM FEW042 SCT250 32/20 A2994 RMK AO2 SLP127 TCU DSNT NW MDT CU DSNT SE-S T03170200 $=
202307081552 METAR KATL 081552Z 31014KT 10SM SCT035 SCT250 31/21 A2995 RMK AO2 SLP130 MDT CU SE-S DSNT NW T03110211 $=
202307081452 METAR KATL 081452Z 28010KT 10SM FEW028 FEW140 SCT250 29/22 A2995 RMK AO2 SLP129 T02940222 53005 $=
202307081352 METAR KATL 081352Z 30008KT 10SM FEW140 FEW250 28/22 A2994 RMK AO2 SLP128 T02780217 $=
202307081252 METAR KATL 081252Z 29009KT 10SM SCT140 SCT250 25/22 A2994 RMK AO2 SLP127 T02500217 $=
202307081152 METAR KATL 081152Z 29005KT 10SM SCT140 SCT220 SCT250 24/21 A2993 RMK AO2 SLP126 T02390211 10244 20222 53009 $=
202307081052 METAR KATL 081052Z 28003KT 10SM FEW170 FEW220 FEW250 23/21 A2992 RMK AO2 SLP120 T02280211 $=
202307080952 METAR KATL 080952Z 30005KT 10SM SCT170 BKN220 23/21 A2990 RMK AO2 SLP114 T02330211 $=
202307080852 METAR KATL 080852Z 31006KT 10SM FEW150 SCT200 SCT250 23/21 A2990 RMK AO2 SLP115 T02330211 58002 $=
202307080752 METAR KATL 080752Z 31004KT 10SM FEW150 SCT200 SCT250 24/22 A2991 RMK AO2 SLP115 T02390217 $=
202307080652 METAR KATL 080652Z 00000KT 10SM FEW150 SCT220 SCT250 24/22 A2991 RMK AO2 SLP117 T02440217 $=
202307080552 METAR KATL 080552Z 31007KT 10SM FEW150 SCT220 SCT250 24/22 A2991 RMK AO2 SLP116 T02440217 10272 20239 57005 $=
202307080452 METAR KATL 080452Z 28003KT 10SM FEW150 FEW250 24/22 A2992 RMK AO2 SLP120 T02440222 403330233 $=
202307080352 METAR KATL 080352Z 28006KT 10SM FEW150 SCT250 25/22 A2992 RMK AO2 SLP118 T02500217 $=
202307080252 METAR KATL 080252Z 28006KT 10SM FEW150 SCT250 26/22 A2993 RMK AO2 SLP122 T02560222 51009 $=
202307080152 METAR KATL 080152Z 00000KT 10SM FEW150 SCT250 26/22 A2992 RMK AO2 SLP119 T02610222 $=
202307080052 METAR KATL 080052Z 19003KT 10SM FEW030 SCT150 BKN250 27/21 A2992 RMK AO2 SLP119 TCU DSNT N-NE T02670211 $=
202307072352 METAR KATL 072352Z 23005KT 10SM FEW030 SCT150 BKN200 BKN250 27/21 A2990 RMK AO2 SLP115 LTG DSNT SW-W CB DSNT N SW-W 60000 T02720206 10333 20256 51001 $=
202307072252 METAR KATL 072252Z 19003KT 10SM FEW030 SCT150 BKN200 BKN250 27/20 A2990 RMK AO2 SLP114 CB DSNT NE TCU DSNT W-NW T02720200 $=
202307072152 METAR KATL 072152Z 13006KT 10SM FEW025TCU SCT050 BKN150 BKN200 27/22 A2991 RMK AO2 RAB20E45 TSB2058E52 SLP119 LTG DSNT NE-SE TS MOVD SE CB DSNT NE-SE TCU OHD-NW P0000 T02670217 $=
202307072059 SPECI KATL 072059Z 22008KT 10SM TS FEW030CB SCT080 BKN150 OVC200 28/22 A2990 RMK AO2 TSB58 OCNL LTGCG N-NE TS N-NE MOV SE CB DSNT E-S TCU NW T02830217 $=
202307072052 METAR KATL 072052Z 21008G16KT 10SM FEW030CB SCT080 BKN150 OVC200 28/22 A2990 RMK AO2 TSE14 SLP113 TS MOVD S CB N-NE DSNT NE-SE-S TCU NW SHRA N-NE T02830222 56010 $=
202307072015 SPECI KATL 072015Z VRB05KT 10SM FEW040 SCT095 BKN150 OVC200 31/21 A2990 RMK AO2 TSE14 TS MOVD S CB DSNT NE-SE-S W TCU DSNT NW-N T03060206 $=
202307071952 METAR KATL 071952Z 29009KT 10SM TS FEW043CB SCT095 BKN150 BKN200 31/21 A2990 RMK AO2 TSB17 SLP113 OCNL LTGCGIC VC SE-S TS VC SE-S MOV S CB DSNT E W TCU DSNT N-NE T03110211 $=
202307071917 SPECI KATL 071917Z 33008KT 10SM TS SCT043CB BKN090 BKN150 BKN200 31/21 A2989 RMK AO2 TSB17 OCNL LTGCG SE-S TS SE-S MOV S TCU DSNT N-NE CB DSNT E S W T03110206 $=
202307071852 METAR KATL 071852Z 32008KT 10SM SCT045TCU BKN095 BKN150 BKN200 32/21 A2990 RMK AO2 LTG DSNT E-SW SLP113 CB DSNT ALQDS TCU ALQDS SHRA E-S T03170206 $=
202307071752 METAR KATL 071752Z VRB06KT 10SM SCT042TCU BKN160 BKN250 33/22 A2993 RMK AO2 LTG DSNT SE SLP122 CB DSNT SE SW-W TCU ALQDS T03280217 10333 20239 58007=
202307071652 METAR KATL 071652Z VRB05KT 10SM SCT040TCU BKN160 BKN250 32/21 A2995 RMK AO2 SLP129 TCU N SE MDT CU ALQDS T03170211=
202307071552 METAR KATL 071552Z 32006KT 10SM FEW034 SCT150 SCT250 31/22 A2995 RMK AO2 SLP130 MDT CU DSNT W T03110222 $=
202307071452 METAR KATL 071452Z 30004KT 10SM SCT160 SCT250 29/22 A2995 RMK AO2 SLP129 T02940222 51002=
202307071352 METAR KATL 071352Z 31006KT 10SM FEW160 FEW250 28/22 A2995 RMK AO2 SLP129 T02780217=
202307071252 METAR KATL 071252Z 30006KT 10SM SCT160 SCT220 26/21 A2996 RMK AO2 SLP134 T02560211=
202307071152 METAR KATL 071152Z 30006KT 10SM SCT150 SCT180 BKN250 24/21 A2994 RMK AO2 SLP128 T02390211 10250 20233 50002=
202307071052 METAR KATL 071052Z 30007KT 10SM SCT150 BKN180 BKN250 23/21 A2995 RMK AO2 SLP129 T02330211=
202307070952 METAR KATL 070952Z 31006KT 10SM BKN140 BKN160 BKN200 24/21 A2995 RMK AO2 SLP129 T02390211=
202307070852 METAR KATL 070852Z 32006KT 10SM BKN150 BKN200 24/21 A2994 RMK AO2 SLP126 T02390211 55005=
202307070752 METAR KATL 070752Z 29005KT 10SM FEW200 SCT220 24/22 A2993 RMK AO2 SLP124 T02390217=
202307070652 METAR KATL 070652Z 29006KT 10SM FEW150 SCT200 BKN220 24/22 A2993 RMK AO2 SLP124 T02440217=
202307070552 METAR KATL 070552Z 28007KT 10SM FEW035 FEW050 SCT250 25/22 A2995 RMK AO2 SLP130 T02500222 10294 20250 56007=
202307070452 METAR KATL 070452Z 32008KT 10SM FEW030 FEW050 FEW250 26/23 A2996 RMK AO2 SLP131 T02610228 403390228=
202307070352 METAR KATL 070352Z 30007KT 10SM FEW050 SCT250 26/23 A2997 RMK AO2 SLP137 T02610228=
202307070252 METAR KATL 070252Z 28005KT 10SM FEW120 SCT250 27/22 A2997 RMK AO2 SLP138 T02670222 53010=
202307070152 METAR KATL 070152Z 26005KT 10SM FEW150 SCT200 BKN250 28/22 A2996 RMK AO2 SLP134 T02780217=
202307070052 METAR KATL 070052Z 29004KT 10SM FEW150 SCT200 BKN250 28/21 A2994 RMK AO2 SLP129 T02830211=
202307062352 METAR KATL 062352Z 27006KT 10SM FEW040TCU FEW150 SCT200 BKN250 29/21 A2994 RMK AO2 SLP128 TCU NE-E T02940211 10339 20289 55001=
202307062252 METAR KATL 062252Z 30007KT 10SM FEW100 SCT200 BKN250 31/21 A2992 RMK AO2 SLP121 T03110211=
202307062152 METAR KATL 062152Z 30010KT 10SM FEW040 FEW100 SCT200 BKN250 31/21 A2993 RMK AO2 SLP123 CB DSNT E-SE T03110211=
202307062052 METAR KATL 062052Z 29010KT 10SM FEW042 FEW090 BKN200 BKN250 29/23 A2995 RMK AO2 SLP130 CB DSNT NE SE S TCU DSNT E T02890228 56014=
202307061952 METAR KATL 061952Z 26011G19KT 10SM FEW046TCU SCT080 BKN200 BKN250 31/22 A2995 RMK AO2 LTG DSNT S AND SW SLP131 CB DSNT S SW TCU N-E-SE T03110222=
202307061852 METAR KATL 061852Z 31009G19KT 10SM SCT043TCU SCT200 BKN250 33/21 A2997 RMK AO2 LTG DSNT S-NW SLP136 CB DSNT S-W-NW TCU ALQDS T03330211=
202307061752 METAR KATL 061752Z VRB04KT 10SM SCT044TCU SCT200 SCT250 33/22 A2999 RMK AO2 SLP143 CB DSNT W-N TCU S-SW DSNT ALQDS T03280222 10328 20244 58009=
202307061652 METAR KATL 061652Z 25005KT 10SM SCT040TCU SCT200 SCT250 31/22 A3000 RMK AO2 SLP147 CB DSNT NW TCU SW MDT CU ALQDS T03110217=
202307061552 METAR KATL 061552Z 32005KT 10SM SCT033TCU SCT200 SCT250 31/22 A3001 RMK AO2 SLP150 TCU NE MDT CU ALQDS T03060217=
202307061452 METAR KATL 061452Z 30007KT 10SM FEW026 FEW200 SCT250 29/22 A3002 RMK AO2 SLP152 TCU DSNT W T02940222 58000=
202307061352 METAR KATL 061352Z 32006KT 10SM FEW110 FEW200 SCT250 29/23 A3002 RMK AO2 SLP153 T02890228=
202307061252 METAR KATL 061252Z 31008KT 10SM FEW120 FEW200 SCT250 26/22 A3003 RMK AO2 SLP156 T02610217=
202307061152 METAR KATL 061152Z 32009KT 10SM FEW200 FEW250 24/22 A3002 RMK AO2 SLP154 T02440217 10250 20228 51006=
202307061052 METAR KATL 061052Z 31009KT 10SM FEW005 FEW050 FEW250 23/22 A3002 RMK AO2 SLP153 T02330217=
202307061050 SPECI KATL 061050Z 31009KT 10SM FEW005 FEW050 FEW250 23/22 A3002 RMK AO2=
202307060952 METAR KATL 060952Z 30005KT 9SM FEW030 FEW040 SCT250 23/22 A3000 RMK AO2 SLP149 TCU DSNT NW T02280217=
202307060852 METAR KATL 060852Z 27006KT 10SM FEW250 23/22 A3000 RMK AO2 SLP147 T02330217 56010 $=
202307060752 METAR KATL 060752Z 00000KT 10SM FEW100 FEW250 24/22 A3000 RMK AO2 SLP149 T02390222 $=
202307060652 METAR KATL 060652Z 25004KT 10SM FEW100 FEW250 24/22 A3001 RMK AO2 SLP152 T02390217 $=
202307060552 METAR KATL 060552Z 26004KT 10SM FEW050 FEW100 FEW250 25/22 A3003 RMK AO2 SLP158 T02500217 10294 20250 56009 $=
202307060452 METAR KATL 060452Z 27005KT 10SM FEW050 FEW250 26/22 A3004 RMK AO2 SLP161 T02560222 403110239 $=
202307060352 METAR KATL 060352Z 23003KT 10SM FEW200 FEW250 26/22 A3003 RMK AO2 SLP158 T02610217 $=
202307060252 METAR KATL 060252Z 24003KT 10SM FEW200 FEW250 27/22 A3006 RMK AO2 SLP165 T02720222 53016 $=
202307060152 METAR KATL 060152Z 27003KT 10SM FEW200 SCT250 28/21 A3003 RMK AO2 SLP158 T02830211 $=
202307060052 METAR KATL 060052Z 31006KT 10SM FEW040 SCT250 28/21 A3002 RMK AO2 SLP153 T02830206 $=
202307052352 METAR KATL 052352Z 30005KT 10SM FEW040 FEW200 30/21 A3001 RMK AO2 SLP150 T03000206 10311 20256 55008 $=
202307052252 METAR KATL 052252Z 28009KT 10SM FEW035 SCT200 31/20 A2999 RMK AO2 SLP143 T03060200 $=
202307052152 METAR KATL 052152Z 30005KT 10SM SCT035 SCT200 31/21 A3000 RMK AO2 SLP147 T03060211 $=
202307052052 METAR KATL 052052Z 31005KT 10SM FEW036 FEW120 SCT200 BKN250 30/22 A3003 RMK AO2 SLP157 CB DSNT SE T03000217 58016 $=
202307051952 METAR KATL 051952Z 32005KT 10SM FEW036 FEW120 SCT200 BKN250 29/21 A3004 RMK AO2 SLP163 CB DSNT SE S NW TCU DSNT S W T02940211 $=
202307051852 METAR KATL 051852Z VRB05KT 10SM FEW022 FEW055 SCT120 BKN200 BKN250 29/21 A3007 RMK AO2 LTG DSNT E AND SE SLP172 CB DSNT E-S T02890211 PNO $=
202307051752 METAR KATL 051752Z 01011KT 10SM FEW048 SCT100 BKN200 BKN250 26/20 A3008 RMK AO2 PK WND 34034/1653 RAB06E19 TSE51 SLP175 TS MOVD E CB DSNT NE-SE-SW P0000 60000 T02560200 10306 20244 56005 PNO $=
202307051714 SPECI KATL 051714Z 35015G21KT 10SM -TSRA FEW014 SCT028CB BKN075 OVC200 26/21 A3010 RMK AO2 PK WND 34034/1653 RAB06 OCNL LTGICCA E VC SW TS E VC SW MOV E TCU E-S-SW T02610206 PNO $=
202307051658 SPECI KATL 051658Z 33017G34KT 10SM TS FEW012 BKN028CB BKN070 BKN200 BKN250 27/21 A3010 RMK AO2 PK WND 34034/1653 OCNL LTGICCGCA VC NW-NE TS VC NW-NE MOV E TCU NE-OHD-SW T02720206 $=
202307051652 METAR KATL 051652Z 32013G21KT 10SM TS BKN028CB BKN065 BKN200 BKN250 30/23 A3009 RMK AO2 TSB36 SLP176 OCNL LTGICCG VC NW-NE TS VC NW-NE MOV E TCU OHD-ALQDS SHELF CLOUD NW-N MOV SE T03000228=
202307051636 SPECI KATL 051636Z 26006KT 10SM TS FEW026CB SCT060 BKN200 BKN250 31/23 A3008 RMK AO2 TSB36 OCNL LTGICCG VC NW-N TS VC NW-N MOV E CB DSNT SW TCU DSNT SE-SW T03060228=
202307051552 METAR KATL 051552Z 00000KT 10SM FEW026 FEW048 BKN180 BKN250 29/22 A3009 RMK AO2 LTG DSNT N SLP177 TCU DSNT NW-N T02890217=
202307051452 METAR KATL 051452Z 32003KT 10SM FEW018 FEW036 SCT130 BKN200 BKN250 28/22 A3010 RMK AO2 SLP180 T02780217 50006=
202307051352 METAR KATL 051352Z 30003KT 9SM FEW034 SCT130 BKN200 BKN250 26/22 A3010 RMK AO2 SLP181 TCU DSNT NW ACC NW-NE T02610222=
202307051252 METAR KATL 051252Z 24003KT 9SM FEW035 SCT120 BKN160 BKN200 OVC250 26/22 A3009 RMK AO2 SLP179 T02560222=
202307051152 METAR KATL 051152Z 27005KT 6SM BR FEW035 SCT140 BKN180 BKN250 24/22 A3008 RMK AO2 SLP174 T02440222 10261 20239 52005=
202307051052 METAR KATL 051052Z 30005KT 6SM BR FEW140 SCT180 SCT250 24/22 A3007 RMK AO2 SLP173 T02440222=
202307050952 METAR KATL 050952Z 27004KT 9SM BKN140 BKN180 24/22 A3006 RMK AO2 SLP168 T02440222 $=
202307050852 METAR KATL 050852Z 24003KT 8SM BKN150 BKN180 BKN250 25/23 A3006 RMK AO2 SLP167 T02500228 56012 $=
202307050752 METAR KATL 050752Z 20004KT 7SM FEW035 BKN130 BKN180 BKN250 25/23 A3006 RMK AO2 SLP168 T02500228 $=
202307050652 METAR KATL 050652Z 28003KT 8SM FEW035 BKN130 BKN200 BKN250 26/23 A3008 RMK AO2 SLP172 T02560228 $=
202307050552 METAR KATL 050552Z 22006KT 9SM FEW035 BKN150 BKN200 BKN250 26/22 A3010 RMK AO2 SLP179 T02610222 10283 20256 53003 $=
202307050452 METAR KATL 050452Z 00000KT 10SM BKN150 BKN200 BKN250 27/22 A3008 RMK AO2 SLP175 T02670222 403330228 $=
202307050352 METAR KATL 050352Z 31006KT 9SM FEW150 SCT200 BKN250 26/22 A3008 RMK AO2 SLP173 T02610222 $=
202307050252 METAR KATL 050252Z 26005KT 9SM FEW150 OVC200 27/23 A3009 RMK AO2 SLP177 T02670228 51011 $=
202307050152 METAR KATL 050152Z 23004KT 9SM SCT140 BKN200 OVC250 27/22 A3008 RMK AO2 SLP174 T02670222 $=
202307050052 METAR KATL 050052Z 24003KT 10SM SCT140 BKN200 OVC250 28/22 A3007 RMK AO2 SLP172 T02780217 $=
202307042352 METAR KATL 042352Z 00000KT 10SM FEW040 SCT140 BKN200 OVC250 28/21 A3005 RMK AO2 TSE36 SLP165 LTG DSNT NW CB DSNT N-NE NW T02830206 10333 20283 53004 $=
202307042336 SPECI KATL 042336Z 00000KT 10SM FEW040 SCT120 BKN150 OVC200 29/20 A3006 RMK AO2 TSE36 LTG DSNT N-NE TS MOVD N CB DSNT NW-NE T02940200 $=
202307042252 METAR KATL 042252Z 19008KT 10SM TS FEW045CB SCT100 SCT150 BKN200 29/22 A3005 RMK AO2 TSB03 SLP164 OCNL LTGICCG VC NW-N DSNT NE TS VC NW-N DSNT NE MOV NE T02940217 $=
202307042203 SPECI KATL 042203Z 20008KT 10SM TS FEW045CB SCT070 SCT150 BKN200 32/22 A3003 RMK AO2 TSB03 OCNL LTGICCG VC N-NE TS VC N-NE MOV NE T03170222 $=
202307042152 METAR KATL 042152Z 22008KT 10SM FEW045CB SCT070 SCT150 BKN200 32/22 A3003 RMK AO2 SLP156 CB N-NE MOV NE TCU W-N T03170217 $=
202307042052 METAR KATL 042052Z 20005KT 10SM FEW045TCU SCT070 SCT150 BKN200 BKN250 33/21 A3004 RMK AO2 SLP160 CB DSNT S TCU NE SW DSNT NE-SE SW MDT CU SE-OHD-NW T03280211 56018 $=
202307041952 METAR KATL 041952Z 16004KT 10SM FEW038 FEW150 SCT200 BKN250 32/21 A3005 RMK AO2 SLP163 CB DSNT SE-S TCU DSNT NW T03220211 $=
202307041852 METAR KATL 041852Z 29004KT 10SM FEW036 FEW150 BKN200 BKN250 31/22 A3007 RMK AO2 SLP172 CB DSNT SE SW TCU DSNT W T03110222 $=
202307041752 METAR KATL 041752Z 00000KT 10SM FEW038 SCT200 BKN250 31/22 A3010 RMK AO2 SLP180 CB DSNT SE SW T03110222 10311 20239 58008 $=
202307041652 METAR KATL 041652Z 00000KT 10SM FEW038 FEW150 SCT200 BKN250 30/21 A3012 RMK AO2 SLP188 CB DSNT SE S SW T03000211 $=
202307041552 METAR KATL 041552Z 00000KT 10SM FEW070 BKN180 BKN250 29/20 A3013 RMK AO2 LTG DSNT E SLP191 ACC SE T02890200 $=
202307041452 METAR KATL 041452Z VRB04KT 10SM FEW030TCU BKN070 BKN180 BKN250 27/21 A3012 RMK AO2 LTG DSNT NE SLP190 CB DSNT NE TCU NW-NE ACC SE T02720206 51011 $=
202307041352 METAR KATL 041352Z 00000KT 10SM SCT034TCU SCT075 BKN120 BKN200 27/21 A3012 RMK AO2 LTG DSNT N AND NE SLP188 CB DSNT N-NE TCU N-NE ACC E-SE W-NW T02670206 $=
202307041252 METAR KATL 041252Z 00000KT 10SM FEW034 FEW050 SCT090 BKN200 BKN250 25/21 A3010 RMK AO2 LTG DSNT NE AND NW SLP185 CB DSNT NE NW T02500206 $=
202307041152 METAR KATL 041152Z 33003KT 10SM SCT032TCU BKN050 BKN120 BKN200 24/21 A3009 RMK AO2 LTG DSNT N AND NE SLP179 TCU OHD-E-S CB DSNT N-NE 70001 T02390211 10239 20228 53015 $=
202307041052 METAR KATL 041052Z 34006KT 10SM FEW070 FEW120 BKN200 BKN250 23/21 A3007 RMK AO2 SLP172 T02330211 $=
202307040952 METAR KATL 040952Z 00000KT 10SM FEW075 FEW120 SCT200 SCT250 23/21 A3005 RMK AO2 SLP163 T02330206 $=
202307040852 METAR KATL 040852Z 00000KT 10SM FEW075 SCT120 BKN200 BKN250 23/21 A3004 RMK AO2 SLP162 T02280206 55002 $=
202307040752 METAR KATL 040752Z 23003KT 10SM FEW075 SCT120 SCT200 BKN250 23/21 A3004 RMK AO2 SLP160 T02280206 $=
202307040652 METAR KATL 040652Z 00000KT 10SM FEW120 SCT220 BKN250 23/21 A3004 RMK AO2 SLP162 T02280206 $=
202307040552 METAR KATL 040552Z 27003KT 10SM FEW120 SCT200 BKN250 23/21 A3005 RMK AO2 SLP164 60001 T02280206 10239 20228 58003 $=
202307040452 METAR KATL 040452Z 30008KT 10SM FEW120 BKN200 BKN250 23/21 A3006 RMK AO2 SLP168 T02280211 403170222 $=
202307040352 METAR KATL 040352Z 29004KT 10SM FEW120 BKN200 BKN250 23/21 A3007 RMK AO2 SLP170 T02330206 $=
202307040252 METAR KATL 040252Z 00000KT 10SM FEW110 SCT150 BKN200 23/21 A3006 RMK AO2 RAE0158 SLP168 P0000 60001 T02280211 53009 $=
202307040152 METAR KATL 040152Z 23003KT 9SM -RA FEW005 SCT080 BKN120 OVC150 23/20 A3004 RMK AO2 RAB37 SLP161 P0001 T02330200 $=
202307040052 METAR KATL 040052Z 19006KT 10SM FEW025 SCT070 BKN150 OVC200 23/21 A3002 RMK AO2 RAE25 TSE45 SLP156 LTG DSNT NE-E SE-SW CB DSNT NE-E SE-SW P0000 T02330206 $=
202307040045 SPECI KATL 040045Z 20003KT 10SM FEW025 SCT070 BKN150 OVC200 23/21 A3002 RMK AO2 RAE25 TSE45 LTG DSNT NE-E SE-S TS MOVD E CB DSNT NE-E SE-S P0000 T02330206 $=
202307040013 SPECI KATL 040013Z 33003KT 9SM -TSRA FEW030CB SCT050 BKN070 BKN150 OVC200 23/21 A3003 RMK AO2 OCNL LTGICCGCA VC NE-SE-S TS VC NE-SE-S MOV E P0000 T02330206 $=
202307032308 SPECI KATL 032308Z 22006KT 10SM TS FEW030CB SCT060 BKN150 BKN200 29/23 A2999 RMK AO2 TSB08 OCNL LTGICCG VC NW-N DSNT SW TS VC NW-N DSNT SW MOV E CBMAM OHD MOV E T02940233 $=
202307032252 METAR KATL 032252Z 22005KT 10SM FEW030 SCT150 BKN200 BKN250 30/23 A2998 RMK AO2 LTG DSNT SW-NW SLP142 CB DSNT SW-NW TCU DSNT N-NE T03000233 $=
202307032152 METAR KATL 032152Z 23005KT 10SM FEW030 FEW065 SCT200 BKN250 31/23 A2999 RMK AO2 SLP143 CB DSNT W-NW TCU DSNT N-E-SE MDT CU OHD T03060228 $=
202307032052 METAR KATL 032052Z 23007KT 10SM FEW030TCU FEW065 SCT200 BKN250 31/23 A3000 RMK AO2 SLP147 CB DSNT SE TCU NW-N DSNT SE T03110228 56019 $=
202307031952 METAR KATL 031952Z 21007KT 10SM FEW031 SCT065 BKN200 BKN250 30/23 A3002 RMK AO2 SLP153 CB DSNT SE T03000233 $=
202307031852 METAR KATL 031852Z 28006KT 10SM FEW033 SCT060 BKN200 BKN250 30/23 A3004 RMK AO2 LTG DSNT S SLP161 CB DSNT S MDT CU E-OHD-W T03000233 $=
202307031752 METAR KATL 031752Z 27006KT 10SM SCT030TCU BKN200 BKN250 29/23 A3006 RMK AO2 SLP167 TCU NW-N DSNT W T02940228 10306 20233 50001 $=
202307031652 METAR KATL 031652Z 26007KT 10SM FEW028 SCT140 BKN200 BKN250 30/23 A3006 RMK AO2 SLP169 MDT CU DSNT E-SE T03000233=
202307031552 METAR KATL 031552Z 26007G14KT 10SM FEW024 FEW150 BKN200 BKN250 29/23 A3006 RMK AO2 SLP170 T02890228=
202307031452 METAR KATL 031452Z 26007KT 10SM FEW022 FEW150 BKN200 BKN250 28/22 A3006 RMK AO2 SLP166 T02830222 51006=
202307031352 METAR KATL 031352Z 26010KT 10SM FEW150 BKN200 BKN250 27/22 A3005 RMK AO2 SLP163 T02670217=
202307031252 METAR KATL 031252Z 22005KT 10SM SCT150 BKN250 24/21 A3005 RMK AO2 SLP164 T02390211=
202307031152 METAR KATL 031152Z 23003KT 10SM BKN150 BKN250 23/21 A3004 RMK AO2 SLP160 70061 T02330211 10233 20222 53013=
202307031052 METAR KATL 031052Z 00000KT 9SM SCT150 SCT220 BKN250 22/21 A3002 RMK AO2 SLP155 T02220206=
202307030952 METAR KATL 030952Z 00000KT 10SM FEW150 SCT220 BKN250 22/21 A3000 RMK AO2 SLP149 T02220206 $=
202307030852 METAR KATL 030852Z 21003KT 10SM FEW150 SCT220 BKN250 22/21 A3000 RMK AO2 SLP146 T02220206 58002 $=
202307030752 METAR KATL 030752Z 00000KT 10SM FEW120 SCT150 SCT200 BKN250 23/21 A3000 RMK AO2 SLP146 T02280206 $=
202307030652 METAR KATL 030652Z 25003KT 10SM FEW120 SCT150 SCT200 BKN250 23/21 A3001 RMK AO2 SLP150 T02280206 $=
202307030552 METAR KATL 030552Z 17004KT 10SM FEW090 SCT180 OVC250 23/21 A3001 RMK AO2 SLP149 60061 T02280206 10294 20228 58020 $=
202307030452 METAR KATL 030452Z VRB03KT 10SM FEW070 FEW090 SCT130 BKN180 OVC250 23/21 A3004 RMK AO2 SLP160 T02280206 403390228 $=
202307030352 METAR KATL 030352Z 15005KT 10SM FEW022 FEW070 BKN180 BKN210 BKN250 23/21 A3006 RMK AO2 SLP168 RAE26 TSE32 TS MOV E P0021 T02330211 $=
202307030338 SPECI KATL 030338Z 19005KT 10SM SCT022 SCT040 BKN180 BKN210 BKN250 23/21 A3005 RMK AO2 RAE26 TSE32 TS MOV E P0021 T02330211 $=
202307030309 SPECI KATL 030309Z 18008KT 5SM -TSRA BR FEW006 SCT019CB OVC040 23/22 A3005 RMK AO2 OCNL LTGICCCCG OHD-N-E-S TS OHD-N-E-S MOV E P0021 T02330222 $=
202307030304 SPECI KATL 030304Z 17009G17KT 3SM TSRA BR FEW006 BKN023CB OVC030 23/22 A3005 RMK AO2 CONS LTGICCCCG OHD-ALQDS TS OHD-ALQDS MOV E P0021 T02330222 $=
202307030259 SPECI KATL 030259Z 17011G17KT 1 3/4SM +TSRA BR FEW006 BKN018CB OVC040 23/22 A3006 RMK AO2 CONS LTGICCCCG OHD-ALQDS TS OHD-ALQDS MOV E P0019 T02330222 $=
202307030255 SPECI KATL 030255Z 17009G20KT 3/4SM R09R/P6000FT +TSRA BR SCT013 BKN018CB OVC040 23/22 A3006 RMK AO2 CONS LTGICCCCG OHD-ALQDS TS OHD-ALQDS MOV E P0014 T02330222 $=
202307030252 METAR KATL 030252Z 18012G26KT 1SM R09R/P6000FT +TSRA BR FEW010 BKN022CB OVC040 23/22 A3007 RMK AO2 PK WND 24026/0244 SLP170 TSB29 CONS LTGICCCCG OHD-ALQDS TS OHD-ALQDS MOV E P0040 60040 T02330222 50022 $=
202307030246 SPECI KATL 030246Z 24015G26KT 2 1/2SM TSRA FEW019 BKN022CB BKN037 OVC200 24/22 A3008 RMK AO2 PK WND 24026/0244 PRESRR TSB29 CONS LTGICCCCG OHD-SW-W TS OHD-SW-W MOV E PNO $=
202307030234 SPECI KATL 030234Z 23010G19KT 10SM -TSRA SCT037CB SCT070 BKN200 BKN250 26/21 A3004 RMK AO2 PRESRR TSB29 CONS LTGICCC OHD-SW-W TS OHD-SW-W MOV E P0000 T02610211 $=
202307030152 METAR KATL 030152Z 08005KT 10SM -RA FEW045 FEW110 BKN210 BKN250 27/20 A3000 RMK AO2 LTG DSNT E-SW SLP147 CB DSNT E-SW P0000 T02670200 $=
202307030052 METAR KATL 030052Z 05009KT 10SM -RA FEW045 SCT110 BKN200 OVC250 28/21 A2999 RMK AO2 LTG DSNT E-S RAB52 SLP146 RAB35 CB DSNT SE AND S P0000 T02830206 $=
202307022352 METAR KATL 022352Z 34007KT 10SM FEW055 FEW100 BKN200 OVC250 29/21 A2997 RMK AO2 SLP136 TCU DSNT S 60000 T02940211 10339 20278 53003 $=
202307022252 METAR KATL 022252Z 29005KT 10SM CLR 29/21 A2995 RMK AO2 LTG DSNT NW-NE SLP132 T02890211 $=
202307022152 METAR KATL 022152Z 32008G18KT 10SM FEW040 FEW050 SCT100 BKN150 BKN250 28/20 A2996 RMK AO2 WSHFT 2111 LTG DSNT N AND NE SLP135 RAB24E44 TSE49 TS DSIPTD N-NE TCU DSNT NE-S CB DSNT N AND NE P0000 T02830200 $=
202307022117 SPECI KATL 022117Z 32014G20KT 10SM TS BKN043CB BKN055TCU BKN150 BKN250 31/21 A2994 RMK AO2 LTG DSNT NW-NE OCNL LTGICCG W TS W MOV NE TCU E SW DSNT N S CB DSNT NW-N T03110206 $=
202307022052 METAR KATL 022052Z 00000KT 10SM TS SCT044CB SCT150 BKN250 33/23 A2996 RMK AO2 TSB25 SLP131 OCNL LTGCG VC NW TS VC NW MOV E TCU E SW DSNT N S T03280228 56024 $=
202307022025 SPECI KATL 022025Z 15005KT 10SM TS FEW044CB FEW150 BKN250 33/23 A2995 RMK AO2 TSB25 OCNL LTGCG VC NW TS VC NW MOV E CB DSNT SW TCU N S T03280228 $=
202307021952 METAR KATL 021952Z 29008KT 10SM SCT040 SCT150 BKN250 33/23 A2997 RMK AO2 LTG DSNT SW AND W SLP136 CB DSNT SW W NW MDT CU ALQDS T03280228 $=
202307021852 METAR KATL 021852Z 25004KT 10SM SCT036 BKN250 33/23 A3000 RMK AO2 SLP147 CB DSNT W TCU DSNT NW-N T03330233 $=
202307021752 METAR KATL 021752Z 34005KT 10SM FEW034 BKN250 32/23 A3003 RMK AO2 SLP157 TCU DSNT W MDT CU DSNT NW-NE T03220233 10322 20250 50000 $=
202307021652 METAR KATL 021652Z 26006KT 10SM FEW034 FEW190 BKN250 32/23 A3004 RMK AO2 SLP159 T03170228 $=
202307021552 METAR KATL 021552Z 24009KT 10SM FEW170 BKN250 30/21 A3004 RMK AO2 SLP159 T03000211 $=
202307021452 METAR KATL 021452Z 23008KT 10SM SCT170 BKN250 29/22 A3003 RMK AO2 SLP156 T02940217 50004 $=
202307021352 METAR KATL 021352Z 22007KT 10SM SCT170 BKN250 28/21 A3003 RMK AO2 SLP158 T02780211=
202307021252 METAR KATL 021252Z 22004KT 10SM BKN170 BKN250 26/20 A3003 RMK AO2 SLP158 T02610200=
202307021152 METAR KATL 021152Z 00000KT 10SM BKN160 BKN250 25/20 A3002 RMK AO2 SLP153 T02500200 10250 20228 53017=
202307021052 METAR KATL 021052Z 00000KT 10SM FEW150 SCT200 SCT250 23/19 A2999 RMK AO2 SLP145 T02330194=
202307020952 METAR KATL 020952Z 29004KT 10SM SCT150 BKN200 23/19 A2998 RMK AO2 SLP140 T02330194=
202307020852 METAR KATL 020852Z 00000KT 10SM SCT150 BKN200 24/19 A2997 RMK AO2 SLP134 T02390194 58015=
202307020752 METAR KATL 020752Z 00000KT 10SM SCT150 BKN200 24/19 A2999 RMK AO2 SLP142 T02440194=
202307020652 METAR KATL 020652Z 00000KT 10SM SCT150 BKN180 24/19 A2999 RMK AO2 SLP144 T02440194=
202307020552 METAR KATL 020552Z 22005KT 10SM SCT150 BKN180 24/19 A3001 RMK AO2 SLP150 T02440194 10272 20244 55010=
202307020452 METAR KATL 020452Z 09004KT 10SM BKN160 BKN190 25/19 A3001 RMK AO2 SLP150 T02500189 403560228=
202307020352 METAR KATL 020352Z 10008KT 10SM FEW120 BKN150 BKN180 26/19 A3002 RMK AO2 SLP154 T02560194=
202307020252 METAR KATL 020252Z 12006KT 10SM SCT120 BKN150 BKN190 27/18 A3004 RMK AO2 SLP162 T02670183 53002=
202307020152 METAR KATL 020152Z 06006G16KT 10SM FEW080 SCT130 BKN160 OVC180 27/19 A3004 RMK AO2 SLP161 LTG DSNT SE-S CB DSNT SE-S T02670189=
202307020052 METAR KATL 020052Z 07014KT 10SM FEW075 SCT100 BKN150 OVC200 26/19 A3003 RMK AO2 WSHFT 0023 SLP158 CB DSNT NE AND E T02610189=
202307020043 SPECI KATL 020043Z 08014KT 10SM FEW075 SCT100 BKN150 OVC200 27/19 A3004 RMK AO2 WSHFT 0023 LTG DSNT E CB DSNT NE AND E T02670189=
202307012352 METAR KATL 012352Z 33014G24KT 10SM FEW040 FEW055 SCT100 BKN150 OVC200 27/18 A3004 RMK AO2 PK WND 31031/2329 LTG DSNT NE AND E SLP161 CB DSNT NE AND E VIRGA W T02720183 10356 20272 53017=
202307012252 METAR KATL 012252Z 33019G28KT 10SM FEW055 SCT150 BKN200 OVC250 29/20 A3002 RMK AO2 PK WND 33031/2236 SLP154 LTG DSNT E AND SW-NW CB DSNT E AND SW-NW TCU DSNT NE T02940200=
202307012152 METAR KATL 012152Z 33008KT 10SM FEW055 BKN200 OVC250 33/21 A3000 RMK AO2 LTG DSNT E AND SE SLP146 CB DSNT E-SE W-NW TCU DSNT NE S T03330211=
202307012052 METAR KATL 012052Z 34009KT 10SM FEW055 SCT200 BKN250 35/19 A2999 RMK AO2 LTG DSNT E SLP142 CB DSNT NE E W-NW MDT CU E-SE T03500194 56017=
202307011952 METAR KATL 011952Z 30008KT 10SM FEW050 FEW250 35/22 A3000 RMK AO2 SLP145 CB DSNT NW TCU DSNT NE E T03500222=
202307011852 METAR KATL 011852Z 31006KT 10SM FEW048 FEW250 34/22 A3001 RMK AO2 SLP150 CB DSNT NW TCU DSNT N-NE T03440222=
202307011752 METAR KATL 011752Z 34008KT 10SM FEW042 FEW250 33/22 A3004 RMK AO2 SLP159 TCU DSNT N T03330222 10333 20233 58017=
202307011652 METAR KATL 011652Z 27008KT 10SM FEW250 32/22 A3006 RMK AO2 SLP167 T03170222=
202307011552 METAR KATL 011552Z 10SM FEW028 FEW180 SCT250 30/22 A3007 RMK AO2 SLP171 T03000222=
202307011452 METAR KATL 011452Z 00000KT 10SM FEW040 SCT180 SCT250 28/22 A3009 RMK AO2 SLP178 T02780217 50010=
202307011352 METAR KATL 011352Z 29007KT 10SM BKN180 BKN250 27/21 A3009 RMK AO2 PRESRR SLP180 T02670206=
202307011252 METAR KATL 011252Z 27004KT 10SM SCT120 26/21 A3005 RMK AO2 SLP167 T02610206=
