##########################################################
# Query made at 04/20/2024 00:29:15 UTC
# Time interval: from 09/01/2023 12:00  to 09/30/2023 12:59  UTC
##########################################################

##########################################################
# KATL, Atlanta, Hartsfield - Jackson Atlanta International Airport (United States)
# WMO index: 72219. WIGOS ID: 0-20000-0-72219
# Latitude 33-38-59N. Longitude 084-25-00W. Altitude 312 m.
##########################################################

202309301252 METAR KATL 301252Z 08004KT 10SM FEW200 FEW250 23/17 A3017 RMK AO2 SLP206 T02280167=
202309301152 METAR KATL 301152Z 07004KT 10SM FEW200 FEW250 20/17 A3015 RMK AO2 SLP200 T02000167 10211 20183 53015=
202309301052 METAR KATL 301052Z 09005KT 10SM FEW250 19/17 A3013 RMK AO2 SLP195 T01890167=
202309300952 METAR KATL 300952Z 00000KT 10SM FEW250 19/16 A3012 RMK AO2 SLP190 T01890161=
202309300852 METAR KATL 300852Z 00000KT 10SM FEW250 19/16 A3010 RMK AO2 SLP185 T01940161 56005=
202309300752 METAR KATL 300752Z 00000KT 10SM FEW250 21/17 A3010 RMK AO2 SLP184 T02060167=
202309300652 METAR KATL 300652Z 00000KT 10SM FEW250 21/17 A3011 RMK AO2 SLP187 T02060167=
202309300552 METAR KATL 300552Z 00000KT 10SM FEW250 21/17 A3012 RMK AO2 SLP190 T02060167 10272 20206 53002=
202309300452 METAR KATL 300452Z 28003KT 10SM FEW250 22/17 A3011 RMK AO2 SLP188 T02220167 403000172=
202309300352 METAR KATL 300352Z 00000KT 10SM FEW050 FEW250 22/17 A3012 RMK AO2 SLP190 T02220167=
202309300252 METAR KATL 300252Z 00000KT 10SM FEW048 SCT070 SCT250 24/17 A3011 RMK AO2 SLP188 T02390167 51010=
202309300152 METAR KATL 300152Z 15003KT 10SM BKN055 BKN250 25/16 A3011 RMK AO2 SLP186 T02500161=
202309300052 METAR KATL 300052Z 13003KT 10SM BKN050 BKN070 BKN250 26/16 A3010 RMK AO2 SLP184 T02610161=
202309292352 METAR KATL 292352Z 33007KT 10SM FEW060 FEW250 27/16 A3008 RMK AO2 SLP179 T02720156 10300 20272 53004=
202309292252 METAR KATL 292252Z 02004KT 10SM FEW060 FEW250 28/14 A3007 RMK AO2 SLP175 T02830144=
202309292152 METAR KATL 292152Z 05006KT 10SM FEW055 SCT250 28/14 A3007 RMK AO2 SLP173 MDT CU NW-N T02830144=
202309292052 METAR KATL 292052Z 08009G14KT 10SM FEW055 FEW250 29/14 A3007 RMK AO2 SLP174 MDT CU DSNT ALQDS T02940144 56015=
202309291952 METAR KATL 291952Z 04010KT 10SM SCT050 29/15 A3008 RMK AO2 SLP176 MDT CU ALQDS T02940150=
202309291852 METAR KATL 291852Z VRB05KT 10SM SCT047 29/17 A3010 RMK AO2 SLP183 MDT CU NE SW T02890167=
202309291752 METAR KATL 291752Z VRB03KT 10SM FEW042 28/17 A3012 RMK AO2 SLP190 T02780167 10278 20183 58011=
202309291652 METAR KATL 291652Z 04004KT 10SM FEW038 FEW250 27/16 A3013 RMK AO2 SLP195 T02670161=
202309291552 METAR KATL 291552Z 09006KT 10SM FEW032 FEW250 25/17 A3014 RMK AO2 SLP199 T02500167=
202309291452 METAR KATL 291452Z 10007KT 10SM FEW028 FEW250 23/16 A3015 RMK AO2 SLP202 T02330161 51011=
202309291352 METAR KATL 291352Z 07009KT 10SM FEW250 21/16 A3014 RMK AO2 SLP200 T02110156=
202309291252 METAR KATL 291252Z 05009KT 10SM FEW250 20/15 A3013 RMK AO2 SLP196 T02000150=
202309291152 METAR KATL 291152Z 04007KT 10SM FEW200 FEW250 18/14 A3012 RMK AO2 SLP193 T01830144 10189 20172 52013=
202309291052 METAR KATL 291052Z 33004KT 10SM FEW200 FEW250 18/14 A3011 RMK AO2 SLP188 T01780144=
202309290952 METAR KATL 290952Z 03003KT 10SM CLR 18/14 A3009 RMK AO2 SLP182 T01780144=
202309290852 METAR KATL 290852Z 04003KT 10SM FEW250 18/14 A3008 RMK AO2 SLP179 T01780144 56007=
202309290752 METAR KATL 290752Z 03004KT 10SM FEW250 18/14 A3008 RMK AO2 SLP179 T01780144=
202309290652 METAR KATL 290652Z 00000KT 10SM SCT250 18/14 A3009 RMK AO2 SLP183 T01780144=
202309290552 METAR KATL 290552Z 07004KT 10SM SCT250 18/15 A3010 RMK AO2 SLP187 T01830150 10228 20183 58000=
202309290452 METAR KATL 290452Z 07004KT 10SM SCT250 18/15 A3010 RMK AO2 SLP188 T01830150 402560161=
202309290352 METAR KATL 290352Z 13003KT 10SM BKN250 19/15 A3010 RMK AO2 SLP188 T01890150=
202309290252 METAR KATL 290252Z 12004KT 10SM BKN250 21/15 A3010 RMK AO2 SLP187 T02060150 53013=
202309290152 METAR KATL 290152Z 14003KT 10SM FEW200 BKN250 21/15 A3008 RMK AO2 SLP181 T02110150=
202309290052 METAR KATL 290052Z 10004KT 10SM FEW200 BKN250 22/14 A3007 RMK AO2 SLP176 T02170144=
202309282352 METAR KATL 282352Z 10005KT 10SM FEW200 BKN250 23/14 A3006 RMK AO2 SLP174 T02280144 10256 20217 58003=
202309282252 METAR KATL 282252Z 05007KT 10SM FEW200 BKN250 24/14 A3007 RMK AO2 SLP176 T02390139=
202309282152 METAR KATL 282152Z 07007KT 10SM FEW200 BKN250 25/14 A3007 RMK AO2 SLP175 T02500139=
202309282052 METAR KATL 282052Z 09005KT 10SM SCT200 BKN250 25/14 A3007 RMK AO2 SLP176 T02500139 56020=
202309281952 METAR KATL 281952Z 13005KT 10SM SCT200 BKN250 24/14 A3008 RMK AO2 SLP180 T02390144=
202309281852 METAR KATL 281852Z 03009KT 10SM FEW028 SCT200 SCT250 23/14 A3011 RMK AO2 SLP188 T02280139=
202309281809 SPECI KATL 281809Z 03007KT 360V070 10SM SCT026 SCT250 22/14 A3013 RMK AO2 T02220144=
202309281752 METAR KATL 281752Z 03008G17KT 10SM BKN024 BKN250 22/14 A3013 RMK AO2 SLP197 T02170139 10217 20167 58018=
202309281652 METAR KATL 281652Z 08009KT 10SM OVC021 21/14 A3015 RMK AO2 SLP205 BINOVC T02060139=
202309281552 METAR KATL 281552Z 06008KT 10SM OVC018 19/13 A3018 RMK AO2 SLP214 T01940133=
202309281452 METAR KATL 281452Z 08013KT 10SM OVC018 19/13 A3019 RMK AO2 SLP216 T01890128 51015=
202309281352 METAR KATL 281352Z 08015KT 10SM OVC019 18/13 A3018 RMK AO2 SLP215 BINOVC T01830128=
202309281326 SPECI KATL 281326Z 07013G18KT 10SM BKN017 BKN060 BKN250 18/13 A3017 RMK AO2 T01780133=
202309281252 METAR KATL 281252Z 08010KT 10SM SCT020 SCT060 SCT250 18/14 A3016 RMK AO2 SLP206 T01780139=
202309281152 METAR KATL 281152Z 08007KT 10SM FEW010 BKN019 BKN250 17/14 A3014 RMK AO2 SLP200 T01670139 10178 20161 52011=
202309281052 METAR KATL 281052Z 09008KT 10SM FEW007 BKN019 16/14 A3013 RMK AO2 SLP196 T01610144=
202309281050 SPECI KATL 281050Z 09009KT 10SM FEW007 BKN019 16/14 A3013 RMK AO2=
202309280952 METAR KATL 280952Z 10009KT 10SM FEW010 SCT019 17/14 A3012 RMK AO2 SLP193 T01720144=
202309280852 METAR KATL 280852Z 07010KT 10SM FEW008 BKN019 17/15 A3011 RMK AO2 SLP189 T01720150 57006=
202309280752 METAR KATL 280752Z 08008KT 10SM BKN019 17/14 A3011 RMK AO2 SLP189 T01720144=
202309280652 METAR KATL 280652Z 08008KT 10SM BKN019 18/15 A3012 RMK AO2 SLP194 T01780150=
202309280627 SPECI KATL 280627Z 08007KT 10SM BKN020 18/16 A3013 RMK AO2 T01780156=
202309280552 METAR KATL 280552Z 08007KT 10SM FEW025 18/15 A3012 RMK AO2 SLP195 T01780150 10217 20178 56012=
202309280452 METAR KATL 280452Z 09007KT 10SM FEW025 19/15 A3012 RMK AO2 SLP195 T01890150 402390189=
202309280352 METAR KATL 280352Z 10008KT 10SM FEW026 FEW250 19/14 A3015 RMK AO2 SLP203 T01940144=
202309280329 SPECI KATL 280329Z 09010KT 10SM SCT026 SCT250 19/14 A3015 RMK AO2 T01940144=
202309280252 METAR KATL 280252Z 08011KT 10SM BKN027 BKN250 20/16 A3016 RMK AO2 SLP207 T02000156 51012=
202309280152 METAR KATL 280152Z 09010KT 10SM FEW016 BKN027 BKN250 21/16 A3015 RMK AO2 SLP203 T02060161=
202309280052 METAR KATL 280052Z 09008KT 10SM BKN030 BKN250 21/16 A3014 RMK AO2 SLP199 T02110161=
202309272352 METAR KATL 272352Z 09011KT 10SM BKN030 OVC036 22/16 A3012 RMK AO2 SLP194 BINOVC T02170161 10239 20217 51008=
202309272252 METAR KATL 272252Z 06012G19KT 10SM FEW025 OVC034 23/16 A3012 RMK AO2 SLP190 BINOVC T02280161=
202309272152 METAR KATL 272152Z 08009KT 10SM FEW020 SCT026 OVC034 23/17 A3011 RMK AO2 SLP187 T02280167=
202309272052 METAR KATL 272052Z 07010KT 10SM SCT022 OVC031 23/17 A3010 RMK AO2 SLP185 T02280167 56015=
202309271952 METAR KATL 271952Z 08009KT 10SM SCT020 OVC031 23/17 A3011 RMK AO2 SLP188 BINOVC T02330172=
202309271936 SPECI KATL 271936Z 09012KT 10SM FEW020 OVC031 23/17 A3011 RMK AO2 T02330172=
202309271852 METAR KATL 271852Z 09011KT 10SM BKN022 OVC030 23/17 A3013 RMK AO2 SLP193 T02280172=
202309271752 METAR KATL 271752Z 08011KT 10SM BKN021 OVC033 23/17 A3014 RMK AO2 SLP200 BINOVC T02330172 10239 20211 58010=
202309271652 METAR KATL 271652Z 07010KT 10SM BKN017 OVC027 22/17 A3017 RMK AO2 SLP208 CIG 015V019 T02220172=
202309271631 SPECI KATL 271631Z 08010KT 9SM BKN015 OVC026 22/17 A3017 RMK AO2 CIG 013V017 T02220172=
202309271552 METAR KATL 271552Z 07012KT 9SM BKN013 OVC025 22/17 A3018 RMK AO2 SLP211 CIG 011V015 T02170172=
202309271452 METAR KATL 271452Z 08015G20KT 9SM OVC012 21/17 A3017 RMK AO2 SLP210 CIG 010V014 T02110172 53012=
202309271352 METAR KATL 271352Z 07017G22KT 8SM BKN011 OVC020 21/18 A3016 RMK AO2 SLP205 CIG 009V013 T02110178=
202309271252 METAR KATL 271252Z 07013KT 8SM SCT009 BKN014 BKN200 22/18 A3015 RMK AO2 SLP200 T02170183=
202309271241 SPECI KATL 271241Z 08011KT 8SM SCT009 BKN013 BKN200 22/19 A3014 RMK AO2 BKN013 V SCT T02170189=
202309271218 SPECI KATL 271218Z 07012KT 8SM FEW009 SCT013 SCT080 BKN200 21/19 A3014 RMK AO2 SCT013 V BKN T02110189=
202309271152 METAR KATL 271152Z 08010KT 8SM SCT009 BKN013 BKN080 BKN200 21/18 A3014 RMK AO2 SLP197 BKN013 V SCT T02110183 10217 20206 51010=
202309271130 SPECI KATL 271130Z 08010KT 10SM SCT009 BKN016 OVC080 21/18 A3014 RMK AO2 T02110183=
202309271052 METAR KATL 271052Z 07008KT 10SM BKN011 BKN080 21/18 A3013 RMK AO2 SLP195 T02110183=
202309271033 SPECI KATL 271033Z 08008KT 10SM BKN011 BKN034 BKN080 21/18 A3013 RMK AO2 T02060178=
202309270952 METAR KATL 270952Z 09007KT 10SM FEW028 SCT034 BKN080 21/18 A3011 RMK AO2 SLP188 T02110178=
202309270915 SPECI KATL 270915Z 09008KT 10SM BKN032 BKN050 BKN080 21/18 A3011 RMK AO2 T02110178=
202309270852 METAR KATL 270852Z 08007KT 10SM FEW010 BKN027 BKN045 BKN200 21/18 A3011 RMK AO2 SLP186 T02060178 55005=
202309270758 SPECI KATL 270758Z 09006KT 10SM FEW010 BKN028 BKN033 BKN200 21/18 A3010 RMK AO2 T02110183=
202309270752 METAR KATL 270752Z 10007KT 10SM FEW010 SCT024 BKN031 BKN250 21/18 A3010 RMK AO2 SLP184 T02110183=
202309270748 SPECI KATL 270748Z 09008KT 10SM FEW010 SCT024 BKN031 BKN250 21/18 A3010 RMK AO2=
202309270652 METAR KATL 270652Z 10007KT 10SM FEW008 SCT019 BKN028 BKN250 21/18 A3012 RMK AO2 SLP191 T02110183=
202309270648 SPECI KATL 270648Z 10007KT 10SM FEW008 SCT019 BKN028 BKN250 21/18 A3012 RMK AO2=
202309270631 SPECI KATL 270631Z 12007KT 10SM SCT008 BKN019 BKN028 BKN250 22/19 A3013 RMK AO2 T02170189=
202309270552 METAR KATL 270552Z 12007KT 10SM BKN008 BKN038 BKN200 22/19 A3013 RMK AO2 SLP193 T02170189 10256 20217 53000=
202309270545 SPECI KATL 270545Z 12006KT 10SM BKN009 BKN030 BKN038 BKN200 22/19 A3013 RMK AO2 T02170189=
202309270517 SPECI KATL 270517Z 11010KT 10SM BKN010 BKN023 BKN035 BKN200 22/19 A3012 RMK AO2 T02220189=
202309270452 METAR KATL 270452Z 12008KT 10SM FEW010 BKN025 BKN065 BKN200 23/19 A3012 RMK AO2 SLP192 T02280189 402890217=
202309270429 SPECI KATL 270429Z 12005KT 10SM BKN023 BKN065 BKN200 23/19 A3012 RMK AO2 T02280189=
202309270352 METAR KATL 270352Z 13006KT 10SM FEW030 SCT042 BKN070 BKN200 23/19 A3013 RMK AO2 SLP192 T02280189=
202309270252 METAR KATL 270252Z 13006KT 10SM SCT034 SCT065 BKN200 23/19 A3013 RMK AO2 SLP193 T02330194 53018=
202309270152 METAR KATL 270152Z 12008KT 10SM FEW038 FEW065 BKN200 24/19 A3011 RMK AO2 SLP188 T02440194=
202309270052 METAR KATL 270052Z 11008KT 10SM BKN038 BKN080 BKN200 26/19 A3009 RMK AO2 SLP179 T02560189=
202309262352 METAR KATL 262352Z 10006KT 10SM SCT080 BKN200 BKN250 26/18 A3007 RMK AO2 SLP175 T02560183 10289 20256 51002=
202309262252 METAR KATL 262252Z 11007KT 10SM FEW090 SCT150 BKN200 BKN250 27/17 A3007 RMK AO2 SLP173 T02720172=
202309262152 METAR KATL 262152Z 09008KT 10SM FEW045 SCT100 BKN150 BKN200 28/19 A3007 RMK AO2 SLP172 T02780189=
202309262052 METAR KATL 262052Z 08009KT 10SM FEW046 SCT085 BKN150 BKN200 28/19 A3007 RMK AO2 SLP171 TCU DSNT SW T02830189 56017=
202309261952 METAR KATL 261952Z 07007KT 10SM FEW044 FEW085 BKN160 BKN250 28/19 A3007 RMK AO2 SLP173 T02830189=
202309261852 METAR KATL 261852Z 06006KT 10SM FEW038 FEW090 BKN180 BKN250 27/18 A3009 RMK AO2 SLP179 T02720183=
202309261752 METAR KATL 261752Z 08008KT 10SM FEW070 SCT085 BKN150 BKN200 26/18 A3012 RMK AO2 SLP189 ACC NW-NE T02610178 10261 20217 58006=
202309261652 METAR KATL 261652Z 09008KT 10SM FEW060 BKN075 BKN140 OVC200 24/18 A3014 RMK AO2 SLP196 ACC E-OHD-W T02440178=
202309261552 METAR KATL 261552Z 09008KT 10SM FEW065 SCT080 BKN140 OVC200 24/18 A3014 RMK AO2 SLP196 ACC NE-OHD-W T02390178=
202309261452 METAR KATL 261452Z 10007KT 10SM SCT100 BKN150 BKN200 BKN250 23/17 A3014 RMK AO2 SLP196 ACC E-OHD-W-NW T02330172 51014=
202309261352 METAR KATL 261352Z 08009KT 10SM FEW080 SCT110 BKN150 BKN200 23/17 A3013 RMK AO2 SLP194 ACC N W DSNT SE T02280167 $=
202309261252 METAR KATL 261252Z 08008KT 10SM FEW070 FEW150 BKN200 BKN250 22/16 A3012 RMK AO2 SLP189 T02220161 $=
202309261152 METAR KATL 261152Z 07009KT 10SM SCT065 BKN085 BKN200 BKN250 22/16 A3010 RMK AO2 SLP182 ACC DSNT NE-SE T02220156 10233 20222 53008 $=
202309261052 METAR KATL 261052Z 05006KT 10SM FEW065 FEW150 BKN200 BKN250 22/16 A3008 RMK AO2 SLP175 T02220156 $=
202309260952 METAR KATL 260952Z 08005KT 10SM BKN065 BKN150 OVC200 22/16 A3007 RMK AO2 SLP172 T02220156 $=
202309260852 METAR KATL 260852Z 06005KT 10SM FEW070 SCT150 OVC220 23/16 A3007 RMK AO2 SLP172 T02280161 55004 $=
202309260752 METAR KATL 260752Z 09005KT 10SM FEW065 SCT150 OVC220 23/16 A3007 RMK AO2 SLP171 T02280161 $=
202309260652 METAR KATL 260652Z 05003KT 10SM BKN065 OVC220 23/16 A3008 RMK AO2 SLP175 T02330156 $=
202309260552 METAR KATL 260552Z 08004KT 10SM BKN065 BKN200 BKN250 24/15 A3009 RMK AO2 SLP176 T02390150 10278 20233 53002 $=
202309260452 METAR KATL 260452Z 07004KT 10SM FEW070 BKN200 BKN250 24/14 A3009 RMK AO2 SLP177 T02440144 403170167 $=
202309260352 METAR KATL 260352Z 03004KT 10SM BKN200 BKN250 26/13 A3008 RMK AO2 SLP174 T02560128 $=
202309260252 METAR KATL 260252Z 01009KT 10SM BKN200 BKN250 27/12 A3008 RMK AO2 SLP175 T02670117 51014 $=
202309260152 METAR KATL 260152Z 36007KT 10SM FEW130 SCT200 SCT250 26/13 A3007 RMK AO2 SLP172 T02610133 $=
202309260052 METAR KATL 260052Z 32004KT 10SM FEW130 SCT200 SCT250 27/13 A3005 RMK AO2 SLP167 T02670133 $=
202309252352 METAR KATL 252352Z 00000KT 10SM SCT140 SCT200 BKN250 28/13 A3004 RMK AO2 SLP163 T02780133 10317 20272 52005 $=
202309252252 METAR KATL 252252Z 34007KT 10SM SCT140 SCT200 BKN250 28/14 A3003 RMK AO2 SLP161 T02830139 $=
202309252152 METAR KATL 252152Z 36009KT 10SM FEW060 SCT130 SCT200 BKN250 29/14 A3003 RMK AO2 SLP158 T02940144 $=
202309252052 METAR KATL 252052Z 36008KT 10SM FEW060 FEW120 SCT200 BKN250 31/14 A3002 RMK AO2 SLP157 ACC DSNT NW-NE T03060144 56009 $=
202309251952 METAR KATL 251952Z 33009KT 10SM FEW065 FEW120 SCT200 BKN250 31/15 A3003 RMK AO2 SLP159 ACC DSNT N T03060150 $=
202309251852 METAR KATL 251852Z 33008KT 10SM FEW065 FEW120 SCT200 BKN250 31/14 A3004 RMK AO2 SLP161 ACC DSNT N NW T03110144 $=
202309251752 METAR KATL 251752Z 29008G14KT 10SM FEW060 FEW140 SCT200 BKN250 31/13 A3005 RMK AO2 SLP165 ACC DSNT NW-N T03110128 10311 20178 58009 $=
202309251652 METAR KATL 251652Z 28005KT 10SM FEW140 SCT200 BKN250 30/14 A3006 RMK AO2 SLP170 ACC DSNT N T03000144 $=
202309251552 METAR KATL 251552Z 27006KT 10SM FEW150 SCT200 BKN250 29/13 A3007 RMK AO2 SLP174 T02890128 $=
202309251452 METAR KATL 251452Z 31003KT 10SM FEW150 SCT200 BKN250 27/12 A3008 RMK AO2 SLP175 T02720117 51016 $=
202309251352 METAR KATL 251352Z 32005KT 10SM FEW160 SCT200 BKN250 24/12 A3007 RMK AO2 SLP172 T02440117 $=
202309251252 METAR KATL 251252Z 27003KT 10SM FEW180 SCT220 BKN250 21/13 A3005 RMK AO2 SLP169 T02110133 $=
202309251152 METAR KATL 251152Z 00000KT 10SM FEW120 FEW180 SCT220 BKN250 18/12 A3003 RMK AO2 SLP161 T01780122 10206 20167 51013 $=
202309251052 METAR KATL 251052Z 24003KT 10SM FEW180 BKN250 18/12 A3002 RMK AO2 SLP158 T01780122 $=
202309250952 METAR KATL 250952Z 26004KT 10SM FEW200 BKN250 17/12 A3000 RMK AO2 SLP150 T01720122 $=
202309250852 METAR KATL 250852Z 27003KT 10SM CLR 17/12 A2999 RMK AO2 SLP146 T01720122 55003 $=
202309250752 METAR KATL 250752Z 27003KT 10SM FEW250 18/12 A2998 RMK AO2 SLP142 T01780122 $=
202309250652 METAR KATL 250652Z 00000KT 10SM FEW250 19/12 A2999 RMK AO2 SLP145 T01940122 $=
202309250552 METAR KATL 250552Z 23003KT 10SM BKN250 19/12 A3000 RMK AO2 SLP149 T01890122 10244 20183 50003 $=
202309250452 METAR KATL 250452Z 23003KT 10SM BKN250 19/13 A3000 RMK AO2 SLP150 T01890128 403000156 $=
202309250352 METAR KATL 250352Z 00000KT 10SM BKN250 20/12 A2999 RMK AO2 SLP147 T02000122 $=
202309250252 METAR KATL 250252Z 30003KT 10SM BKN250 22/12 A2999 RMK AO2 SLP146 T02220122 51007 $=
202309250152 METAR KATL 250152Z 25003KT 10SM SCT250 22/13 A2999 RMK AO2 SLP147 T02170128 $=
202309250052 METAR KATL 250052Z 00000KT 10SM SCT250 23/13 A2997 RMK AO2 SLP143 T02280128 $=
202309242352 METAR KATL 242352Z 27004KT 10SM SCT250 24/12 A2997 RMK AO2 SLP141 T02440117 10300 20244 53008 $=
202309242252 METAR KATL 242252Z 29006KT 10SM SCT250 27/09 A2996 RMK AO2 SLP137 T02670094 $=
202309242152 METAR KATL 242152Z 28012G16KT 10SM SCT250 29/11 A2995 RMK AO2 SLP132 T02890106 $=
202309242052 METAR KATL 242052Z 31007KT 10SM FEW250 29/11 A2994 RMK AO2 SLP131 T02940111 56006 $=
202309241952 METAR KATL 241952Z 30007KT 10SM FEW250 29/11 A2994 RMK AO2 SLP130 T02940111 $=
202309241852 METAR KATL 241852Z 32008KT 10SM FEW250 29/11 A2995 RMK AO2 SLP134 T02890111 $=
202309241752 METAR KATL 241752Z 34006G16KT 10SM FEW250 28/12 A2996 RMK AO2 SLP137 T02830122 10283 20156 58004 $=
202309241652 METAR KATL 241652Z 30006KT 10SM FEW250 27/13 A2997 RMK AO2 SLP140 T02720133 $=
202309241552 METAR KATL 241552Z 28010KT 10SM CLR 26/13 A2998 RMK AO2 SLP144 T02610133 $=
202309241452 METAR KATL 241452Z 29005KT 10SM CLR 24/14 A2998 RMK AO2 SLP142 T02390139 51013 $=
202309241352 METAR KATL 241352Z 29007KT 10SM FEW250 21/13 A2997 RMK AO2 SLP142 T02060133 $=
202309241252 METAR KATL 241252Z 30007KT 10SM CLR 18/13 A2995 RMK AO2 SLP135 T01780128 $=
202309241152 METAR KATL 241152Z 30010KT 10SM FEW250 16/12 A2994 RMK AO2 SLP131 T01560117 10183 20156 53008 $=
202309241052 METAR KATL 241052Z 29007KT 10SM CLR 16/12 A2992 RMK AO2 SLP125 T01560117 $=
202309240952 METAR KATL 240952Z 30008KT 10SM CLR 16/12 A2992 RMK AO2 SLP122 T01610122 $=
202309240852 METAR KATL 240852Z 31006KT 10SM CLR 16/12 A2991 RMK AO2 SLP120 T01610122 53000 $=
202309240752 METAR KATL 240752Z 30006KT 10SM CLR 17/12 A2989 RMK AO2 SLP112 T01670122 $=
202309240652 METAR KATL 240652Z 31008KT 10SM CLR 17/13 A2990 RMK AO2 SLP117 T01720128 $=
202309240552 METAR KATL 240552Z 29005KT 10SM CLR 18/12 A2991 RMK AO2 SLP119 T01830122 10256 20183 56003 $=
202309240452 METAR KATL 240452Z 30005KT 10SM CLR 19/12 A2991 RMK AO2 SLP120 T01890122 403000161 $=
202309240352 METAR KATL 240352Z 28004KT 10SM CLR 19/12 A2991 RMK AO2 SLP120 T01940122 $=
202309240252 METAR KATL 240252Z 30004KT 10SM CLR 21/12 A2992 RMK AO2 SLP123 T02110122 51007 $=
202309240152 METAR KATL 240152Z 34005KT 10SM CLR 22/12 A2992 RMK AO2 SLP122 T02170117 $=
202309240052 METAR KATL 240052Z 33006KT 10SM FEW065 23/11 A2991 RMK AO2 SLP121 T02330111 $=
202309232352 METAR KATL 232352Z 35006KT 10SM CLR 26/11 A2990 RMK AO2 SLP116 T02560106 10300 20256 53008 $=
202309232252 METAR KATL 232252Z 35010G18KT 10SM CLR 27/12 A2988 RMK AO2 SLP110 T02720117 $=
202309232152 METAR KATL 232152Z 35014G18KT 10SM FEW065 FEW250 28/12 A2987 RMK AO2 SLP106 T02830122 $=
202309232052 METAR KATL 232052Z 34013G21KT 10SM FEW065 FEW250 29/11 A2987 RMK AO2 PK WND 34026/1954 SLP106 T02890111 56015 $=
202309231952 METAR KATL 231952Z 34015G21KT 10SM FEW065 FEW250 30/12 A2988 RMK AO2 PK WND 33026/1913 SLP107 T03000122 $=
202309231852 METAR KATL 231852Z 33017G24KT 10SM FEW065 FEW250 29/13 A2989 RMK AO2 PK WND 33028/1803 SLP110 T02940128 $=
202309231752 METAR KATL 231752Z 31019G29KT 10SM FEW055 FEW250 29/14 A2992 RMK AO2 PK WND 30029/1743 SLP121 T02890139 10289 20172 58020 $=
202309231652 METAR KATL 231652Z 33013G22KT 10SM FEW048 FEW250 28/14 A2994 RMK AO2 PK WND 31029/1630 SLP130 T02830144 $=
202309231552 METAR KATL 231552Z 29009KT 10SM FEW250 27/16 A2997 RMK AO2 SLP139 T02670161 $=
202309231452 METAR KATL 231452Z 29009KT 10SM FEW250 24/15 A2998 RMK AO2 SLP143 T02440150 58003 $=
202309231352 METAR KATL 231352Z 28006KT 10SM FEW250 22/13 A2998 RMK AO2 SLP145 T02220133 $=
202309231252 METAR KATL 231252Z 25005KT 10SM FEW250 19/12 A2998 RMK AO2 SLP146 T01940122 $=
202309231152 METAR KATL 231152Z 00000KT 10SM FEW250 17/12 A2999 RMK AO2 SLP147 T01720122 10200 20161 53002 $=
202309231052 METAR KATL 231052Z 00000KT 10SM CLR 17/12 A2997 RMK AO2 SLP143 T01720122 $=
202309230952 METAR KATL 230952Z 13003KT 10SM CLR 18/12 A2998 RMK AO2 SLP144 T01830117 $=
202309230852 METAR KATL 230852Z 10003KT 10SM CLR 19/12 A2998 RMK AO2 SLP143 T01890122 58006 $=
202309230752 METAR KATL 230752Z 00000KT 10SM CLR 19/14 A2999 RMK AO2 SLP146 T01890139 $=
202309230652 METAR KATL 230652Z 09005KT 10SM CLR 20/13 A3000 RMK AO2 SLP148 T02000133 $=
202309230552 METAR KATL 230552Z 00000KT 10SM FEW075 20/14 A3000 RMK AO2 SLP149 T02000139 10250 20200 56007 $=
202309230452 METAR KATL 230452Z 19003KT 10SM SCT075 21/14 A3000 RMK AO2 SLP151 T02060144 402780189 $=
202309230352 METAR KATL 230352Z 23003KT 10SM FEW060 FEW085 21/14 A3002 RMK AO2 SLP156 T02060144 $=
202309230252 METAR KATL 230252Z 23003KT 10SM FEW060 SCT080 21/14 A3002 RMK AO2 SLP158 T02110144 50002 $=
202309230152 METAR KATL 230152Z 00000KT 10SM FEW080 22/14 A3003 RMK AO2 SLP159 T02220139=
202309230052 METAR KATL 230052Z 00000KT 10SM FEW080 23/13 A3002 RMK AO2 SLP158 T02330133=
202309222352 METAR KATL 222352Z 11004KT 10SM FEW048 FEW060 25/13 A3002 RMK AO2 SLP156 T02500128 10278 20244 57010=
202309222252 METAR KATL 222252Z 05007KT 10SM FEW055 26/12 A3003 RMK AO2 SLP160 T02610122=
202309222152 METAR KATL 222152Z 08007KT 10SM FEW050 FEW065 27/12 A3004 RMK AO2 SLP163 T02670122=
202309222052 METAR KATL 222052Z 01006KT 10SM SCT050 SCT065 28/13 A3005 RMK AO2 SLP166 MDT CU ALQDS T02780128 58012=
202309221952 METAR KATL 221952Z VRB06KT 10SM SCT050 SCT070 27/13 A3006 RMK AO2 SLP171 MDT CU ALQDS T02670133=
202309221852 METAR KATL 221852Z VRB05G15KT 10SM SCT050 27/14 A3007 RMK AO2 SLP174 MDT CU ALQDS T02670139=
202309221752 METAR KATL 221752Z 07008KT 10SM SCT042 27/14 A3008 RMK AO2 SLP179 MDT CU ALQDS T02670144 10267 20194 58025=
202309221652 METAR KATL 221652Z 09013G18KT 10SM SCT041 26/14 A3011 RMK AO2 SLP188 MDT CU E-SE T02610144=
202309221552 METAR KATL 221552Z 04010KT 10SM FEW040 25/14 A3014 RMK AO2 SLP199 T02500144=
202309221452 METAR KATL 221452Z 07008KT 10SM CLR 24/14 A3016 RMK AO2 SLP205 T02390144 50002=
202309221352 METAR KATL 221352Z 06008KT 10SM CLR 22/15 A3016 RMK AO2 SLP206 T02220150=
202309221252 METAR KATL 221252Z 06011KT 10SM FEW085 21/14 A3016 RMK AO2 SLP206 T02060144 $=
202309221152 METAR KATL 221152Z 04009KT 10SM SCT085 19/14 A3015 RMK AO2 SLP204 T01940144 10206 20189 53010 $=
202309221052 METAR KATL 221052Z 04006KT 10SM SCT085 19/15 A3014 RMK AO2 SLP198 T01890150 $=
202309220952 METAR KATL 220952Z 04006KT 10SM SCT085 19/15 A3013 RMK AO2 SLP194 T01890150 $=
202309220852 METAR KATL 220852Z 06007KT 10SM SCT090 19/15 A3012 RMK AO2 SLP192 T01940150 56006 $=
202309220752 METAR KATL 220752Z 05007KT 10SM SCT080 BKN090 20/15 A3013 RMK AO2 SLP192 T02000150 $=
202309220652 METAR KATL 220652Z 07007KT 10SM SCT080 SCT090 20/15 A3013 RMK AO2 SLP193 T02000150 $=
202309220552 METAR KATL 220552Z 07006KT 10SM SCT080 SCT090 21/15 A3014 RMK AO2 SLP197 T02060150 10239 20206 55004 $=
202309220452 METAR KATL 220452Z 07007KT 10SM FEW075 SCT090 21/15 A3014 RMK AO2 SLP196 T02110150 402830189 $=
202309220352 METAR KATL 220352Z 07008KT 10SM FEW090 22/15 A3014 RMK AO2 SLP196 T02170150 $=
202309220252 METAR KATL 220252Z 09007KT 10SM FEW090 21/16 A3015 RMK AO2 SLP202 T02110156 50005 $=
202309220152 METAR KATL 220152Z 09006KT 10SM FEW090 22/16 A3016 RMK AO2 SLP204 T02220156 $=
202309220052 METAR KATL 220052Z 09008KT 10SM FEW045 FEW250 23/16 A3015 RMK AO2 SLP201 T02280156 $=
202309212352 METAR KATL 212352Z 09009KT 10SM FEW045 FEW250 24/15 A3014 RMK AO2 SLP197 T02390150 10283 20239 53003 $=
202309212252 METAR KATL 212252Z 08013G17KT 10SM FEW045 FEW250 26/16 A3013 RMK AO2 SLP196 T02560156 $=
202309212152 METAR KATL 212152Z 09011KT 10SM FEW050 FEW080 SCT250 27/16 A3013 RMK AO2 SLP193 MDT CU OHD-N T02720156 $=
202309212052 METAR KATL 212052Z 10007KT 10SM FEW050TCU FEW080 SCT200 SCT250 26/14 A3013 RMK AO2 SLP194 TCU NE DSNT N NE-SE T02610144 56016 $=
202309211952 METAR KATL 211952Z 06007KT 10SM FEW050TCU SCT075 SCT200 BKN250 28/14 A3014 RMK AO2 SLP197 TCU NE DSNT NE E SE MDT CU ALQDS T02780144=
202309211852 METAR KATL 211852Z 06008KT 10SM FEW055 SCT070 SCT200 BKN250 28/14 A3016 RMK AO2 SLP203 TCU DSNT NE SE MDT CU ALQDS T02780139=
202309211752 METAR KATL 211752Z 08011KT 10SM FEW048 SCT075 SCT200 BKN250 27/15 A3017 RMK AO2 SLP209 TCU DSNT NE SE MDT CU ALQDS T02720150 10278 20194 58010=
202309211652 METAR KATL 211652Z 07009G21KT 10SM SCT045 SCT070 BKN200 BKN250 26/14 A3019 RMK AO2 SLP214 MDT CU ALQDS T02610144=
202309211552 METAR KATL 211552Z 09009KT 10SM FEW038 SCT070 BKN200 BKN250 26/16 A3020 RMK AO2 SLP219 ACC N-OHD-S MDT CU NW-N T02560156=
202309211452 METAR KATL 211452Z 05007KT 10SM FEW075 BKN200 BKN250 24/16 A3020 RMK AO2 SLP219 ACC DSNT SE-S T02390161 51009=
202309211352 METAR KATL 211352Z 05008KT 9SM FEW075 BKN180 BKN250 22/16 A3020 RMK AO2 SLP219 T02220161=
202309211252 METAR KATL 211252Z 04010KT 10SM SCT070 SCT180 BKN210 BKN250 20/16 A3019 RMK AO2 SLP218 VIRGA E AND SW T02000156=
202309211152 METAR KATL 211152Z 06006KT 10SM SCT070 BKN180 BKN250 20/16 A3018 RMK AO2 SLP210 VIRGA S-W T02000156 10211 20189 53013=
202309211052 METAR KATL 211052Z 05006KT 10SM SCT070 BKN180 BKN220 BKN250 20/16 A3015 RMK AO2 SLP202 T02000156=
202309210952 METAR KATL 210952Z 05007KT 10SM BKN070 BKN250 20/16 A3014 RMK AO2 SLP196 T02000156=
202309210852 METAR KATL 210852Z 08005KT 10SM BKN070 BKN250 19/16 A3014 RMK AO2 SLP198 T01940156 55001=
202309210752 METAR KATL 210752Z 08006KT 10SM FEW045 SCT250 19/15 A3014 RMK AO2 SLP196 T01940150=
202309210652 METAR KATL 210652Z 07005KT 10SM BKN070 BKN250 21/16 A3014 RMK AO2 SLP196 T02110156=
202309210552 METAR KATL 210552Z 08005KT 10SM BKN070 BKN250 21/15 A3014 RMK AO2 SLP198 T02060150 10244 20206 50005=
202309210452 METAR KATL 210452Z 08006KT 10SM BKN065 BKN250 21/15 A3014 RMK AO2 SLP198 T02110150 402720178=
202309210352 METAR KATL 210352Z 09005KT 10SM BKN065 BKN250 21/15 A3014 RMK AO2 SLP198 T02110150=
202309210252 METAR KATL 210252Z 09008KT 10SM SCT060 BKN250 23/14 A3013 RMK AO2 SLP193 T02280139 53008=
202309210152 METAR KATL 210152Z 09008KT 10SM SCT060 BKN250 22/15 A3012 RMK AO2 SLP192 T02220150=
202309210052 METAR KATL 210052Z 09007KT 10SM SCT200 BKN250 23/14 A3010 RMK AO2 SLP185 T02280144=
202309202352 METAR KATL 202352Z 08009KT 10SM SCT200 BKN250 24/15 A3010 RMK AO2 SLP186 T02390150 10272 20239 50000=
202309202252 METAR KATL 202252Z 10007KT 10SM FEW050 SCT200 BKN250 26/14 A3010 RMK AO2 SLP187 T02560139=
202309202152 METAR KATL 202152Z 09007KT 10SM FEW050 SCT200 BKN250 26/14 A3010 RMK AO2 SLP185 T02610144=
202309202052 METAR KATL 202052Z 09008KT 10SM SCT050 SCT065 SCT200 BKN250 26/14 A3010 RMK AO2 SLP185 MDT CU DSNT S T02610139 56016=
202309201952 METAR KATL 201952Z 13006G15KT 10SM SCT050 SCT065 BKN200 BKN250 27/14 A3012 RMK AO2 SLP190 MDT CU DSNT SE AND W T02670139=
202309201852 METAR KATL 201852Z 10009KT 10SM SCT050 SCT065 BKN200 BKN250 26/13 A3012 RMK AO2 SLP192 MDT CU DSNT E T02610133=
202309201752 METAR KATL 201752Z 10009KT 10SM FEW050 SCT065 BKN200 BKN250 27/13 A3015 RMK AO2 SLP201 MDT CU DSNT SE-S T02670133 10267 20183 58005=
202309201652 METAR KATL 201652Z 12005KT 10SM SCT060 BKN200 BKN250 26/12 A3016 RMK AO2 SLP203 MDT CU DSNT N AND E T02610122=
202309201552 METAR KATL 201552Z 13004KT 10SM SCT060 BKN200 24/16 A3017 RMK AO2 SLP208 MDT CU DSNT S-SW AND NW T02440156 $=
202309201452 METAR KATL 201452Z VRB04KT 10SM BKN060 BKN200 24/17 A3016 RMK AO2 SLP206 T02440172 53013 $=
202309201352 METAR KATL 201352Z 11003KT 10SM FEW055 SCT200 BKN250 22/17 A3015 RMK AO2 SLP202 T02220167 $=
202309201252 METAR KATL 201252Z 07004KT 10SM FEW055 BKN200 BKN250 20/16 A3014 RMK AO2 SLP198 T02000156 $=
202309201152 METAR KATL 201152Z 09004KT 10SM FEW055 BKN200 BKN250 18/14 A3013 RMK AO2 SLP195 T01830144 10200 20178 51011 $=
202309201052 METAR KATL 201052Z 00000KT 10SM SCT055 SCT200 BKN250 18/14 A3013 RMK AO2 SLP194 T01780144=
202309200952 METAR KATL 200952Z 09004KT 10SM FEW200 SCT250 18/14 A3010 RMK AO2 SLP185 T01780144 $=
202309200852 METAR KATL 200852Z 07004KT 10SM FEW060 SCT250 18/14 A3009 RMK AO2 SLP182 T01830144 58003 $=
202309200752 METAR KATL 200752Z 08005KT 10SM FEW060 SCT250 18/14 A3010 RMK AO2 SLP185 T01830144 $=
202309200652 METAR KATL 200652Z 00000KT 10SM FEW060 SCT250 19/14 A3010 RMK AO2 SLP184 T01940144 $=
202309200552 METAR KATL 200552Z 00000KT 10SM BKN060 BKN250 20/14 A3010 RMK AO2 SLP184 T02000144 10250 20194 50002 $=
202309200452 METAR KATL 200452Z 14004KT 10SM SCT065 SCT250 21/14 A3011 RMK AO2 SLP187 T02060144 402830167 $=
202309200352 METAR KATL 200352Z 14004KT 10SM SCT060 21/14 A3010 RMK AO2 SLP186 T02060144 $=
202309200252 METAR KATL 200252Z 12004KT 10SM SCT060 SCT250 22/14 A3010 RMK AO2 SLP184 T02170144 51014 $=
202309200152 METAR KATL 200152Z 14003KT 10SM SCT060 SCT250 22/14 A3009 RMK AO2 SLP182 T02170144 $=
202309200052 METAR KATL 200052Z 00000KT 10SM FEW060 FEW250 22/14 A3007 RMK AO2 SLP175 T02220144 $=
202309192352 METAR KATL 192352Z 11005KT 10SM FEW060 SCT250 25/13 A3006 RMK AO2 SLP170 T02500128 10283 20244 53002 $=
202309192252 METAR KATL 192252Z VRB03KT 10SM SCT060 BKN250 26/13 A3005 RMK AO2 SLP168 T02560128 $=
202309192152 METAR KATL 192152Z 00000KT 10SM SCT060 SCT250 26/12 A3004 RMK AO2 SLP165 T02610122 $=
202309192052 METAR KATL 192052Z 17004KT 10SM FEW060 FEW200 SCT250 27/13 A3005 RMK AO2 SLP168 T02720133 56012 $=
202309191952 METAR KATL 191952Z 14005KT 10SM FEW060 SCT250 27/14 A3005 RMK AO2 SLP169 T02670139 $=
202309191852 METAR KATL 191852Z 23004KT 10SM SCT060 SCT250 27/13 A3006 RMK AO2 SLP173 T02720133 $=
202309191752 METAR KATL 191752Z 17004KT 10SM SCT055 SCT250 26/12 A3009 RMK AO2 SLP181 T02610122 10267 20189 58008=
202309191652 METAR KATL 191652Z 18004KT 10SM SCT050 SCT200 SCT250 26/13 A3010 RMK AO2 SLP185 T02560128=
202309191552 METAR KATL 191552Z 00000KT 10SM SCT048 SCT200 SCT250 25/13 A3011 RMK AO2 SLP189 T02500133=
202309191452 METAR KATL 191452Z VRB03KT 10SM FEW040 FEW200 SCT250 24/13 A3011 RMK AO2 SLP188 T02390133 51009=
202309191352 METAR KATL 191352Z 11003KT 10SM FEW200 SCT250 22/14 A3011 RMK AO2 SLP187 T02170139=
202309191252 METAR KATL 191252Z 07004KT 10SM FEW200 FEW250 20/13 A3010 RMK AO2 SLP185 T02000133=
202309191152 METAR KATL 191152Z 07004KT 10SM FEW200 FEW250 19/13 A3009 RMK AO2 SLP181 T01890128 10189 20167 53013=
202309191052 METAR KATL 191052Z 01004KT 10SM FEW250 18/13 A3007 RMK AO2 SLP174 T01780133=
202309190952 METAR KATL 190952Z 34003KT 10SM FEW250 17/14 A3006 RMK AO2 SLP171 T01670139=
202309190852 METAR KATL 190852Z 29003KT 10SM FEW250 17/14 A3005 RMK AO2 SLP168 T01720139 58001=
202309190752 METAR KATL 190752Z 31005KT 10SM FEW250 17/14 A3005 RMK AO2 SLP167 T01720139=
202309190652 METAR KATL 190652Z 29004KT 10SM FEW250 17/14 A3005 RMK AO2 SLP169 T01720144=
202309190552 METAR KATL 190552Z 31003KT 10SM FEW250 18/14 A3005 RMK AO2 SLP167 T01830144 10239 20178 53003=
202309190452 METAR KATL 190452Z 00000KT 10SM FEW250 19/14 A3005 RMK AO2 SLP167 T01890139 402720161=
202309190352 METAR KATL 190352Z 31004KT 10SM SCT250 19/14 A3004 RMK AO2 SLP165 T01940139=
202309190252 METAR KATL 190252Z 36004KT 10SM FEW250 23/13 A3004 RMK AO2 SLP165 T02280128 51014=
202309190152 METAR KATL 190152Z 35006KT 10SM FEW060 FEW250 23/12 A3003 RMK AO2 SLP162 T02330122=
202309190052 METAR KATL 190052Z 29004KT 10SM FEW055 FEW250 23/13 A3002 RMK AO2 SLP157 T02330133=
202309182352 METAR KATL 182352Z 32004KT 10SM FEW055 FEW250 23/13 A3000 RMK AO2 SLP152 T02330128 10272 20233 53005=
202309182252 METAR KATL 182252Z 28007KT 10SM FEW055 FEW250 25/13 A2999 RMK AO2 SLP150 T02500128=
202309182152 METAR KATL 182152Z 29007KT 10SM SCT055 SCT250 26/12 A2998 RMK AO2 SLP145 T02610122=
202309182052 METAR KATL 182052Z 28008KT 10SM FEW055 FEW250 26/12 A2998 RMK AO2 SLP145 T02610122 56012=
202309181952 METAR KATL 181952Z 28008G17KT 10SM FEW055 27/13 A2998 RMK AO2 SLP145 T02670128=
202309181852 METAR KATL 181852Z 30008KT 10SM FEW050 FEW250 26/13 A3000 RMK AO2 SLP150 T02610128=
202309181752 METAR KATL 181752Z 31011G18KT 10SM FEW048 26/14 A3002 RMK AO2 SLP157 T02610139 10261 20167 58005=
202309181652 METAR KATL 181652Z 30009G17KT 10SM FEW046 25/14 A3003 RMK AO2 SLP161 T02500139=
202309181552 METAR KATL 181552Z 34008KT 10SM FEW044 24/14 A3004 RMK AO2 SLP163 T02440139=
202309181452 METAR KATL 181452Z 29007KT 10SM CLR 23/15 A3003 RMK AO2 SLP163 T02280150 51014=
202309181352 METAR KATL 181352Z 32007KT 10SM CLR 21/15 A3002 RMK AO2 SLP158 T02060150=
202309181252 METAR KATL 181252Z 31007KT 10SM CLR 18/14 A3001 RMK AO2 SLP155 T01830144=
202309181152 METAR KATL 181152Z 30004KT 10SM CLR 17/14 A2999 RMK AO2 SLP149 T01670139 10183 20161 53010=
202309181052 METAR KATL 181052Z 31006KT 10SM CLR 16/14 A2998 RMK AO2 SLP143 T01610139=
202309180952 METAR KATL 180952Z 31007KT 10SM CLR 16/14 A2996 RMK AO2 SLP138 T01610139 $=
202309180852 METAR KATL 180852Z 31007KT 10SM CLR 17/14 A2996 RMK AO2 SLP138 T01720144 58002 $=
202309180752 METAR KATL 180752Z 31008KT 10SM CLR 17/14 A2996 RMK AO2 SLP138 T01720144 $=
202309180652 METAR KATL 180652Z 30005KT 10SM CLR 18/15 A2996 RMK AO2 SLP138 T01780150 $=
202309180552 METAR KATL 180552Z 30005KT 10SM CLR 18/15 A2997 RMK AO2 SLP139 T01830150 10239 20183 58000 $=
202309180452 METAR KATL 180452Z 30006KT 10SM CLR 19/15 A2997 RMK AO2 SLP139 T01890150 402780189 $=
202309180352 METAR KATL 180352Z 31006KT 10SM CLR 19/16 A2997 RMK AO2 SLP142 T01940156 $=
202309180252 METAR KATL 180252Z 31008KT 10SM CLR 21/16 A2997 RMK AO2 SLP140 T02060156 53015 $=
202309180152 METAR KATL 180152Z 29004KT 10SM CLR 22/15 A2995 RMK AO2 SLP135 T02170150 $=
202309180052 METAR KATL 180052Z 31007KT 10SM FEW050 22/15 A2993 RMK AO2 SLP129 T02220150 $=
202309172352 METAR KATL 172352Z 32007KT 10SM FEW050 FEW100 24/14 A2992 RMK AO2 SLP124 T02390144 10278 20239 53004 $=
202309172252 METAR KATL 172252Z 31010KT 10SM FEW050 FEW200 26/14 A2991 RMK AO2 SLP120 T02560139 $=
202309172152 METAR KATL 172152Z 31012KT 10SM SCT050 SCT250 27/15 A2991 RMK AO2 SLP117 TCU DSNT SW MDT CU OHD AND ALQDS T02720150 $=
202309172052 METAR KATL 172052Z 30010KT 10SM SCT045TCU BKN065 BKN220 26/16 A2991 RMK AO2 SLP119 TCU N MDT CU ALQDS T02610156 56012 $=
202309171952 METAR KATL 171952Z 31012KT 10SM FEW048 FEW220 28/16 A2992 RMK AO2 SLP122 TCU DSNT N MDT CU E NW-N T02780161 $=
202309171852 METAR KATL 171852Z 31007G20KT 270V340 10SM SCT044 SCT100 SCT200 27/16 A2993 RMK AO2 SLP126 MDT CU ALQDS T02670156 $=
202309171752 METAR KATL 171752Z 31010G22KT 10SM SCT036 SCT200 26/17 A2995 RMK AO2 SLP132 MDT CU ALQDS T02560167 10272 20194 57008 $=
202309171652 METAR KATL 171652Z 28008KT 10SM SCT027 SCT150 26/18 A2995 RMK AO2 SLP135 MDT CU ALQDS T02560178 $=
202309171635 SPECI KATL 171635Z 28008G17KT 10SM SCT024 SCT150 25/18 A2996 RMK AO2 MDT CU ALQDS T02500183 $=
202309171552 METAR KATL 171552Z 30009KT 10SM FEW013 BKN020 BKN150 24/19 A2996 RMK AO2 SLP139 BKN020 V SCT MDT CU ALQDS T02390194 $=
202309171546 SPECI KATL 171546Z 31010KT 10SM SCT013 BKN020 BKN150 23/19 A2996 RMK AO2 BKN V SCT MDT CU ALQDS $=
202309171512 SPECI KATL 171512Z 29005KT 10SM FEW008 BKN013 BKN023 BKN150 22/19 A2997 RMK AO2 T02220194 $=
202309171452 METAR KATL 171452Z 28005KT 9SM FEW008 BKN023 BKN150 22/19 A2997 RMK AO2 SLP143 T02170194 53006 $=
202309171442 SPECI KATL 171442Z 27005KT 9SM SCT008 BKN018 BKN150 21/19 A2997 RMK AO2 T02110194 $=
202309171352 METAR KATL 171352Z 29004KT 8SM BKN007 OVC011 21/19 A2996 RMK AO2 SLP139 T02110194 $=
202309171252 METAR KATL 171252Z 27007KT 7SM BKN005 OVC030 20/19 A2996 RMK AO2 SLP139 CIG 004V008 T02000189 $=
202309171152 METAR KATL 171152Z 26005KT 7SM BKN006 OVC030 19/19 A2995 RMK AO2 SLP136 60051 70098 T01940189 10200 20194 52008 $=
202309171108 SPECI KATL 171108Z 27005KT 7SM BKN005 OVC029 20/18 A2995 RMK AO2 CIG 004V007 BKN005 V SCT T02000183 $=
202309171052 METAR KATL 171052Z 27004KT 7SM SCT005 BKN028 20/19 A2994 RMK AO2 SLP133 SCT005 V BKN T02000189 $=
202309171048 SPECI KATL 171048Z 27005KT 7SM SCT005 BKN031 20/19 A2994 RMK AO2 SCT005 V BKN $=
202309170952 METAR KATL 170952Z 00000KT 6SM BR OVC004 20/19 A2994 RMK AO2 SLP131 CIG 003V006 BINOVC T02000189 $=
202309170852 METAR KATL 170852Z 00000KT 6SM BR BKN004 BKN012 OVC060 19/18 A2993 RMK AO2 RAE32 SLP128 CIG 003V006 BKN004 V SCT P0011 60051 T01940183 56017 $=
202309170800 SPECI KATL 170800Z VRB03KT 4SM -RA BR OVC004CB 19/18 A2995 RMK AO2 CIG 003V006 CB VC NE MOV NE P0009 T01940183 $=
202309170752 METAR KATL 170752Z 00000KT 1/2SM R09R/P6000FT +RA FG OVC004CB 19/19 A2994 RMK AO2 RAB41 SLP132 RAE02 CIG 003V006 CB S-OHD-N MOV NE P0015 T01940189 $=
202309170748 SPECI KATL 170748Z 13003KT 1 1/2SM +RA BR OVC004CB 19/19 A2994 RMK AO2 RAB41 RAE02 CIG 003V006 CB S-OHD-N P0010 $=
202309170743 SPECI KATL 170743Z 13005KT 3SM +RA BR OVC005 19/18 A2994 RMK AO2 RAB41 RAE02 P0001 T01940183 $=
202309170652 METAR KATL 170652Z 07006KT 6SM BR BKN005 BKN009 OVC017 19/18 A2996 RMK AO2 RAEMM SLP140 CIG 004V007 CB DSNT NW-NE P0025 T01940183=
202309170629 SPECI KATL 170629Z 00000KT 3SM -RA BR BKN006 OVC011 19/18 A2997 RMK AO2 P0024 T01940183=
202309170623 SPECI KATL 170623Z 00000KT 2 1/2SM +RA BR SCT004 BKN011 OVC019 19/18 A2997 RMK AO2 P0022 T01940183=
202309170616 SPECI KATL 170616Z 05003KT 2SM +RA BR BKN004 BKN011 OVC019 19/18 A2997 RMK AO2 P0014 T01940183=
202309170609 SPECI KATL 170609Z 00000KT 1 1/2SM +RA BR OVC004 19/18 A2998 RMK AO2 P0007 T01940183=
202309170552 METAR KATL 170552Z 00000KT 4SM RA BR OVC004CB 19/18 A2998 RMK AO2 RAB35 SLP145 CB SW NW MOV NE P0001 60001 T01940183 10206 20194 56015=
202309170544 SPECI KATL 170544Z 12004KT 6SM -RA BR BKN005 BKN030CB OVC120 19/18 A2998 RMK AO2 RAB35 CB VC SW NW MOV NE P0000 T01940178=
202309170452 METAR KATL 170452Z 08007KT 8SM SCT006 BKN036 BKN075 OVC130 19/18 A2999 RMK AO2 SLP148 CB DSNT SW T01940178 402170189=
202309170445 SPECI KATL 170445Z 08007KT 8SM SCT006 BKN038 BKN080 OVC130 19/18 A2999 RMK AO2 CB DSNT SW T01940178=
202309170352 METAR KATL 170352Z 07006KT 8SM BKN006 BKN046 OVC075 19/18 A3001 RMK AO2 SLP155 CIG 004V008 T01940183=
202309170252 METAR KATL 170252Z 11004KT 9SM BKN007 OVC032 19/18 A3002 RMK AO2 SLP161 CIG 005V009 T01940178 50002=
202309170152 METAR KATL 170152Z 10004KT 10SM OVC008 20/18 A3003 RMK AO2 SLP164 CIG 006V010 T02000178=
202309170131 SPECI KATL 170131Z 12006KT 10SM BKN009 OVC024 20/18 A3003 RMK AO2 CIG 008V011 T02000178=
202309170052 METAR KATL 170052Z 13005KT 10SM FEW009 OVC022 20/18 A3002 RMK AO2 SLP160 T02000178=
202309162352 METAR KATL 162352Z 10004KT 10SM FEW012 OVC020 21/18 A3002 RMK AO2 SLP159 60000 T02060178 10217 20189 56002=
202309162252 METAR KATL 162252Z 14006KT 10SM FEW014 OVC025 21/18 A3002 RMK AO2 SLP159 BINOVC T02110178=
202309162152 METAR KATL 162152Z 13006KT 10SM FEW012 OVC024 21/17 A3002 RMK AO2 SLP160 T02110172=
202309162052 METAR KATL 162052Z 13004KT 10SM SCT012 OVC026 21/18 A3003 RMK AO2 SLP161 SCT V BKN BINOVC 60000 T02110178 58023=
202309161952 METAR KATL 161952Z 12007KT 10SM SCT011 BKN016 OVC028 21/18 A3005 RMK AO2 SLP171 T02060178=
202309161852 METAR KATL 161852Z 14008KT 10SM FEW012 OVC026 20/17 A3007 RMK AO2 RAE07 SLP176 P0000 T02000172=
202309161829 SPECI KATL 161829Z 12007KT 9SM FEW008 OVC028 20/18 A3008 RMK AO2 RAE07 P0000 T02000178=
202309161752 METAR KATL 161752Z 12006KT 7SM -RA FEW009 BKN034 OVC055 19/17 A3010 RMK AO2 SLP185 VIS LWR E-SE P0002 60046 T01890172 10211 20189 58001=
202309161707 SPECI KATL 161707Z 13006KT 3SM -RA BR FEW006 SCT036 OVC047 19/17 A3011 RMK AO2 P0002 T01890167=
202309161652 METAR KATL 161652Z 14007KT 1 1/2SM RA BR FEW006 BKN033 OVC055 19/17 A3011 RMK AO2 SFC VIS 2 SLP190 P0033 T01890172=
202309161623 SPECI KATL 161623Z 13003KT 1 1/2SM +RA BR FEW012 BKN032 OVC048 19/17 A3012 RMK AO2 SFC VIS 2 P0008 T01890172=
202309161604 SPECI KATL 161604Z 28003KT 3SM RA BR FEW015 SCT026 OVC034 19/17 A3012 RMK AO2 P0002 T01940172=
202309161552 METAR KATL 161552Z 00000KT 2 1/2SM RA BR FEW015 SCT026 OVC034 19/18 A3012 RMK AO2 SLP192 P0011 T01940178=
202309161542 SPECI KATL 161542Z 00000KT 2 1/2SM +RA BR SCT016 BKN027 OVC033 19/17 A3012 RMK AO2 P0007 T01940172=
202309161530 SPECI KATL 161530Z 00000KT 3SM RA BR OVC028 19/17 A3011 RMK AO2 P0003 T01940172=
202309161452 METAR KATL 161452Z 11005KT 8SM -RA OVC034 21/17 A3010 RMK AO2 SLP185 P0000 60000 T02110167 53008=
202309161352 METAR KATL 161352Z 11006KT 9SM -RA OVC035 21/16 A3008 RMK AO2 RAE21B50 SLP180 P0000 T02060161=
202309161252 METAR KATL 161252Z 11005KT 10SM -RA OVC032 20/16 A3008 RMK AO2 RAB51 SLP179 P0000 T02000156=
202309161152 METAR KATL 161152Z 08005KT 10SM BKN034 19/16 A3007 RMK AO2 SLP177 70003 T01940161 10200 20194 53004=
202309161052 METAR KATL 161052Z 09006KT 10SM SCT035 BKN043 OVC065 19/17 A3006 RMK AO2 SLP172 T01940167=
202309160952 METAR KATL 160952Z 09005KT 10SM BKN038 BKN049 BKN120 20/17 A3005 RMK AO2 SLP168 T02000167=
202309160852 METAR KATL 160852Z 13003KT 10SM BKN032 OVC049 20/16 A3006 RMK AO2 SLP172 T02000161 58002=
202309160752 METAR KATL 160752Z 07003KT 10SM SCT043 BKN070 BKN110 20/17 A3006 RMK AO2 SLP172 T02000172=
202309160652 METAR KATL 160652Z 10003KT 10SM BKN070 BKN120 20/17 A3007 RMK AO2 SLP176 T02000172=
202309160552 METAR KATL 160552Z 11003KT 10SM FEW090 BKN120 20/17 A3007 RMK AO2 SLP175 T02000167 10222 20200 58007=
202309160452 METAR KATL 160452Z 11003KT 10SM SCT110 20/17 A3008 RMK AO2 SLP180 T02000172 402330200=
202309160352 METAR KATL 160352Z 14003KT 10SM BKN110 21/17 A3008 RMK AO2 SLP180 T02060172=
202309160252 METAR KATL 160252Z 16005KT 10SM FEW100 BKN130 21/18 A3009 RMK AO2 SLP181 T02060178 51013=
202309160152 METAR KATL 160152Z 13003KT 10SM FEW025 SCT100 21/18 A3008 RMK AO2 SLP178 T02110178=
202309160052 METAR KATL 160052Z 12003KT 10SM FEW025 SCT100 22/18 A3006 RMK AO2 SLP172 T02170183=
202309152352 METAR KATL 152352Z 10005KT 10SM FEW016 SCT025 BKN100 22/18 A3005 RMK AO2 SLP168 60000 T02220183 10228 20200 53001=
202309152252 METAR KATL 152252Z 12005KT 10SM FEW018 SCT025 BKN100 22/18 A3004 RMK AO2 SLP165 T02220178=
202309152152 METAR KATL 152152Z 11007KT 100V160 10SM SCT016 BKN022 BKN090 23/18 A3004 RMK AO2 SLP163 T02280178=
202309152052 METAR KATL 152052Z 08009KT 10SM SCT017 BKN023 OVC090 22/18 A3004 RMK AO2 SLP166 BINOVC 60000 T02220183 57016=
202309151952 METAR KATL 151952Z 08010KT 10SM BKN015 BKN045 BKN090 22/18 A3006 RMK AO2 SLP172 CIG 013V018 T02170183=
202309151943 SPECI KATL 151943Z 09008KT 10SM SCT011 BKN017 BKN045 22/19 A3007 RMK AO2 T02220189=
202309151927 SPECI KATL 151927Z 09009KT 10SM SCT009 BKN013 BKN045 21/18 A3007 RMK AO2 T02110183=
202309151852 METAR KATL 151852Z 08010KT 10SM OVC009 21/19 A3007 RMK AO2 RAE24 SLP177 CIG 007V011 P0000 T02110189=
202309151752 METAR KATL 151752Z 08010KT 4SM -RA BR BKN006 OVC013 20/19 A3009 RMK AO2 SLP183 PCPN VRY LGT P0002 60003 T02000189 10222 20200 50003=
202309151723 SPECI KATL 151723Z 08012KT 3SM -RA BR BKN006 BKN014 OVC055 20/18 A3010 RMK AO2 P0001 T02000183=
202309151652 METAR KATL 151652Z 09011KT 2SM -RA BR BKN007 BKN013 OVC044 20/18 A3010 RMK AO2 SLP185 BKN007 V SCT P0001 T02000183=
202309151634 SPECI KATL 151634Z 07014KT 2 1/2SM -RA BR BKN007 OVC013 20/18 A3010 RMK AO2 VIS N-NE 2 BKN V SCT P0001 T02000183=
202309151552 METAR KATL 151552Z 08015KT 4SM -RA BR BKN007 OVC015 21/19 A3010 RMK AO2 DZB19E51RAB51 SLP183 P0000 T02060189=
202309151520 SPECI KATL 151520Z 09009G18KT 9SM -DZ BKN009 OVC013 21/18 A3009 RMK AO2 DZB19 P0000 T02110183=
202309151452 METAR KATL 151452Z 09014KT 10SM OVC012 22/18 A3009 RMK AO2 SLP180 T02170183 51014=
202309151404 SPECI KATL 151404Z 08012KT 9SM BKN012 OVC017 22/18 A3007 RMK AO2 T02170183=
202309151352 METAR KATL 151352Z 08012KT 9SM SCT012 OVC017 22/18 A3007 RMK AO2 SLP175 T02170183=
202309151252 METAR KATL 151252Z 08009KT 9SM FEW009 BKN017 BKN070 OVC130 21/18 A3006 RMK AO2 SLP172 TCU DSNT S-SW T02110183=
202309151245 SPECI KATL 151245Z 08010KT 10SM FEW009 SCT018 BKN027 BKN180 21/18 A3006 RMK AO2 T02110183=
202309151152 METAR KATL 151152Z 07010KT 10SM FEW010 SCT023 BKN050 BKN180 21/18 A3004 RMK AO2 SLP166 70009 T02110183 10228 20211 53015=
202309151052 METAR KATL 151052Z 07012KT 10SM FEW008 BKN024 BKN030 21/19 A3003 RMK AO2 SLP160 T02110189=
202309151002 SPECI KATL 151002Z 06009KT 10SM BKN027 BKN034 22/19 A3001 RMK AO2 T02170189=
202309150952 METAR KATL 150952Z 06008KT 10SM FEW012 SCT029 BKN036 BKN250 22/19 A3001 RMK AO2 SLP154 T02170189=
202309150852 METAR KATL 150852Z 07008KT 10SM SCT025 SCT037 BKN085 BKN250 22/19 A3000 RMK AO2 SLP150 T02170189 56003=
202309150819 SPECI KATL 150819Z 07008KT 10SM SCT023 BKN036 BKN060 22/19 A3001 RMK AO2 T02220194=
202309150752 METAR KATL 150752Z 06006KT 10SM BKN022 BKN070 BKN110 BKN250 22/19 A3000 RMK AO2 SLP152 T02220194=
202309150745 SPECI KATL 150745Z 04007KT 10SM BKN022 BKN070 BKN110 BKN250 22/19 A3000 RMK AO2 T02220194=
202309150652 METAR KATL 150652Z 08009KT 10SM SCT028 SCT070 BKN095 BKN250 22/19 A3000 RMK AO2 SLP150 T02220194=
202309150552 METAR KATL 150552Z 05008KT 10SM SCT025 SCT035 BKN110 BKN200 23/20 A3001 RMK AO2 SLP153 TCU DSNT NE T02280200 10244 20228 58006=
202309150452 METAR KATL 150452Z 04007KT 10SM FEW025TCU BKN110 BKN200 23/20 A3002 RMK AO2 SLP156 TCU N-NE T02330200 402720211=
202309150352 METAR KATL 150352Z 04005KT 10SM SCT022 BKN030 BKN060 BKN200 24/20 A3003 RMK AO2 SLP159 T02390200=
202309150252 METAR KATL 150252Z 08004KT 10SM SCT022 BKN030 BKN120 BKN200 24/21 A3003 RMK AO2 SLP159 T02390206 51011=
202309150152 METAR KATL 150152Z 07005KT 10SM SCT025 BKN040 BKN110 BKN250 24/21 A3002 RMK AO2 SLP155 T02390206=
202309150142 SPECI KATL 150142Z 06005KT 10SM BKN025 BKN110 BKN250 24/21 A3002 RMK AO2 T02390206=
202309150052 METAR KATL 150052Z 06005KT 10SM FEW020 BKN100 BKN200 BKN250 24/21 A3001 RMK AO2 SLP152 T02390206=
202309142352 METAR KATL 142352Z 06005KT 10SM FEW020 BKN100 BKN200 BKN250 24/21 A2999 RMK AO2 SLP148 TCU DSNT S 60009 T02390206 10261 20211 53007=
202309142252 METAR KATL 142252Z 06007KT 10SM FEW025TCU SCT080 BKN110 BKN200 24/18 A2999 RMK AO2 RAB07E39 SLP146 TCU S P0001 T02390178=
202309142152 METAR KATL 142152Z 09005KT 10SM FEW012 SCT030CB BKN130 BKN200 25/21 A2998 RMK AO2 SLP141 CB N-NE W DSNT E MOV S T02500211=
202309142052 METAR KATL 142052Z 11006KT 10SM FEW012 FEW036TCU SCT090 BKN140 BKN200 24/21 A2997 RMK AO2 LTG DSNT N AND SW SLP139 CB DSNT N-NE SW TCU NW-NE 60008 T02440211 56011=
202309141952 METAR KATL 141952Z 14005KT 10SM FEW010 FEW040 SCT080 BKN140 BKN200 23/21 A2998 RMK AO2 LTG DSNT E AND SE RAE03 TSE26 SLP145 TS MOVD SE CB DSNT E-SE SW TCU DSNT NW P0000 T02280206=
202309141926 SPECI KATL 141926Z 15005KT 10SM FEW038 SCT080 BKN140 BKN200 23/21 A2999 RMK AO2 LTG DSNT E-SW RAE03 TSE26 TS MOVD SE CB DSNT E-S-SW TCU DSNT NW P0000 T02330206=
202309141852 METAR KATL 141852Z 05010KT 6SM -TSRA FEW012 BKN034CB BKN070 OVC140 22/19 A2999 RMK AO2 PK WND 02026/1820 LTG DSNT E-S RAB1759 SLP147 OCNL LTGICCGCA VC E-S-SW TS VC E-S-SW MOV SE CB DSNT E-S TCU DSNT W-NW P0008 T02220194=
202309141837 SPECI KATL 141837Z 05015KT 6SM -TSRA FEW012 BKN032CB OVC060 22/19 A3000 RMK AO2 PK WND 02026/1820 RAB1759 OCNL LTGICCA NW-NE-SE TS NW-NE-SE MOV SE P0002 T02170189=
202309141815 SPECI KATL 141815Z 02015G25KT 3SM TSRA FEW012 BKN024CB OVC060 22/18 A3002 RMK AO2 RAB1759 VIS NW-NE-E 1 1/4 FRQ LTGICCGCA OHD-ALQDS TS OHD-ALQDS MOV SE P0000 T02220183=
202309141804 SPECI KATL 141804Z 01016KT 3SM TSRA FEW012 BKN024CB OVC070 23/18 A3000 RMK AO2 RAB1759 FRQ LTGICCGCA OHD-NW-NE TS OHD-NW-NE MOV SE P0000 T02280178=
202309141752 METAR KATL 141752Z 01010G18KT 9SM TS FEW014 BKN023CB OVC070 26/19 A3000 RMK AO2 SLP150 TSB16 FRQ LTGICCG NW-NE TS NW-NE MOV SE TCU OHD ALQDS SHELF CLOUD NE-OHD-W MOV S SHRA NW-NE T02610194 10272 20222 58008=
202309141743 SPECI KATL 141743Z VRB04KT 10SM TS BKN023CB BKN070 OVC140 27/20 A3000 RMK AO2 TSB16 FRQ LTGICCG NW-NE TS NW-NE MOV SE TCU OHD ALQDS SHELF CLOUD NW-NE MOV S SHRA NW-NE T02670200=
202309141718 SPECI KATL 141718Z VRB03KT 10SM TS SCT020CB SCT070 BKN140 OVC200 27/21 A3000 RMK AO2 TSB16 OCNL LTGICCG NW-NE TS NW-NE MOV STNRY TCU NE-E SHRA NW-NE T02670206=
202309141652 METAR KATL 141652Z 09005KT 10SM SCT018CB SCT060 BKN140 OVC200 27/21 A3001 RMK AO2 SLP153 CB N-NE MOV W TCU SW NW-NE SHRA NW-NE T02670206=
202309141552 METAR KATL 141552Z 08005KT 10SM SCT016 BKN033 BKN060 BKN140 OVC200 24/20 A3003 RMK AO2 SLP158 CB DSNT NE T02440200=
202309141452 METAR KATL 141452Z 07007KT 10SM SCT014 BKN027 BKN120 OVC200 24/20 A3003 RMK AO2 SLP159 CB DSNT NE T02440200 53010=
202309141443 SPECI KATL 141443Z 08006KT 10SM SCT014 BKN028 BKN120 OVC200 24/20 A3003 RMK AO2 CB DSNT NE T02440200=
202309141352 METAR KATL 141352Z 06008KT 10SM FEW003 SCT025TCU SCT110 OVC180 24/19 A3001 RMK AO2 SLP154 FU FEW003 TCU E T02390194=
202309141348 SPECI KATL 141348Z 06009KT 9SM FEW002 SCT025 SCT110 OVC180 24/19 A3001 RMK AO2 FU FEW002 FU PLUME S=
202309141252 METAR KATL 141252Z 07008KT 10SM SCT015 SCT030 SCT100 BKN200 BKN250 23/19 A3001 RMK AO2 SLP152 T02280194=
202309141152 METAR KATL 141152Z 07007KT 10SM FEW016 BKN090 BKN130 BKN250 22/19 A3000 RMK AO2 SLP149 ACC DSNT E T02170194 10233 20217 53013=
202309141052 METAR KATL 141052Z 08005KT 10SM SCT037 SCT044 BKN250 22/19 A2998 RMK AO2 SLP143 T02170194=
202309140952 METAR KATL 140952Z 08007KT 10SM SCT014 BKN042 22/19 A2997 RMK AO2 SLP138 T02170194=
202309140950 SPECI KATL 140950Z 08007KT 10SM SCT014 BKN042 22/19 A2997 RMK AO2=
202309140852 METAR KATL 140852Z 05008KT 10SM OVC010 22/19 A2996 RMK AO2 SLP134 T02220194 55001=
202309140847 SPECI KATL 140847Z 06007KT 10SM OVC010 22/19 A2996 RMK AO2=
202309140752 METAR KATL 140752Z 05008KT 10SM OVC008 23/20 A2995 RMK AO2 SLP132 T02280200=
202309140652 METAR KATL 140652Z 05006KT 10SM BKN009 BKN015 OVC045 23/20 A2995 RMK AO2 SLP132 T02280200=
202309140647 SPECI KATL 140647Z 04006KT 10SM BKN009 BKN015 OVC045 23/20 A2995 RMK AO2=
202309140552 METAR KATL 140552Z 02006KT 10SM FEW200 SCT250 23/19 A2996 RMK AO2 SLP135 T02330194 10267 20233 53000=
202309140452 METAR KATL 140452Z 04005KT 10SM FEW200 SCT250 24/19 A2996 RMK AO2 SLP134 T02390194 402940217=
202309140352 METAR KATL 140352Z 36008KT 10SM SCT200 BKN250 24/18 A2996 RMK AO2 SLP134 T02440183=
202309140252 METAR KATL 140252Z 33006KT 10SM FEW130 SCT200 BKN250 24/19 A2996 RMK AO2 SLP135 T02440194 51004=
202309140152 METAR KATL 140152Z 29005KT 10SM SCT130 SCT200 BKN250 25/19 A2996 RMK AO2 SLP136 T02500194=
202309140052 METAR KATL 140052Z 30005KT 10SM BKN130 BKN200 BKN250 26/21 A2996 RMK AO2 SLP135 T02560206=
202309132352 METAR KATL 132352Z 29004KT 10SM SCT120 BKN200 BKN250 26/20 A2995 RMK AO2 SLP132 T02610200 10294 20261 53007=
202309132252 METAR KATL 132252Z 31006KT 10SM FEW035 BKN130 BKN200 BKN250 27/20 A2994 RMK AO2 SLP127 T02720200=
202309132152 METAR KATL 132152Z 31007KT 10SM FEW090 BKN140 BKN200 28/19 A2994 RMK AO2 SLP127 T02780194=
202309132052 METAR KATL 132052Z 34008KT 10SM SCT034 SCT048 BKN090 BKN200 28/19 A2993 RMK AO2 SLP124 CB DSNT S T02830194 56020=
202309131952 METAR KATL 131952Z 33007KT 9SM SCT031 BKN044 BKN100 BKN200 28/19 A2994 RMK AO2 SLP129 T02780194=
202309131852 METAR KATL 131852Z 29006KT 10SM SCT031 SCT040 BKN095 BKN200 28/19 A2996 RMK AO2 SLP135 T02830194=
202309131752 METAR KATL 131752Z 34008KT 10SM SCT031 BKN038 BKN095 BKN200 28/20 A2999 RMK AO2 SLP145 MDT CU DSNT NW T02830200 10294 20222 58012=
202309131652 METAR KATL 131652Z VRB03KT 10SM SCT023 SCT031 BKN090 BKN200 27/20 A3001 RMK AO2 SLP152 MDT CU DSNT NE-SE T02720200=
202309131552 METAR KATL 131552Z VRB03KT 8SM SCT015 SCT024 BKN085 BKN200 26/21 A3002 RMK AO2 SLP155 T02610206=
202309131539 SPECI KATL 131539Z 29003KT 8SM SCT015 SCT024 BKN085 BKN200 27/21 A3002 RMK AO2 T02670211=
202309131452 METAR KATL 131452Z 31005KT 5SM BR SCT012 BKN022 BKN085 26/22 A3003 RMK AO2 SLP158 T02560217 51008=
202309131436 SPECI KATL 131436Z VRB03KT 4SM BR BKN012 OVC022 24/21 A3002 RMK AO2 T02390211=
202309131352 METAR KATL 131352Z 21004KT 2 1/2SM BR BKN007 BKN013 23/21 A3002 RMK AO2 TWR VIS 3 SLP155 T02330211=
202309131347 SPECI KATL 131347Z 23004KT 2 1/2SM BR SCT007 BKN011 OVC085 23/21 A3002 RMK AO2 TWR VIS 3=
202309131311 SPECI KATL 131311Z 00000KT 3SM BR SCT007 SCT100 BKN130 OVC200 23/21 A3000 RMK AO2 SFC VIS 6 T02330211=
202309131252 METAR KATL 131252Z 25005KT 8SM FEW007 SCT090 BKN120 OVC200 23/21 A3000 RMK AO2 SLP150 T02280211=
202309131152 METAR KATL 131152Z 00000KT 7SM FEW007 SCT085 BKN110 BKN200 22/21 A2998 RMK AO2 RAE01 SLP143 ACC SW-NW DSNT SE P0000 60018 70019 T02220206 10228 20217 55000=
202309131052 METAR KATL 131052Z 00000KT 8SM -RA FEW005 SCT080 OVC120 22/21 A2998 RMK AO2 RAB48 SLP142 PCPN VRY LGT P0000 T02220206=
202309130952 METAR KATL 130952Z 00000KT 10SM FEW007 SCT095 BKN130 OVC200 22/21 A2997 RMK AO2 SLP138 T02220206=
202309130852 METAR KATL 130852Z 03005KT 10SM FEW007 SCT085 OVC110 22/21 A2999 RMK AO2 RAE39 SLP143 P0001 60018 T02220206 58007=
202309130752 METAR KATL 130752Z 35007KT 4SM RA BR SCT040 BKN070 OVC110 22/21 A2999 RMK AO2 SLP144 CB DSNT SE P0007 T02170206=
202309130652 METAR KATL 130652Z VRB05KT 5SM -RA BR SCT006 BKN046 OVC100 22/21 A3002 RMK AO2 LTG DSNT SE AND S SLP155 CB DSNT N SE-S P0010 T02220206=
202309130640 SPECI KATL 130640Z 30007KT 5SM -RA BR SCT008 BKN050 OVC090 22/21 A3002 RMK AO2 LTG DSNT SE CB DSNT SE-SW NW P0009 T02220211=
202309130628 SPECI KATL 130628Z 28008KT 5SM -RA BR SCT008 BKN014 OVC070 22/21 A3003 RMK AO2 LTG DSNT SE AND NW CB DSNT NW P0007 T02220206=
202309130619 SPECI KATL 130619Z 29011G20KT 5SM RA BR SCT008 BKN065 OVC095 22/21 A3003 RMK AO2 LTG DSNT NW CB DSNT NW P0005 T02220211=
202309130552 METAR KATL 130552Z 31009KT 6SM RA BR BKN085 OVC110 23/21 A3001 RMK AO2 LTG DSNT SW-NW SLP149 CB DSNT S-W-NW P0001 60001 T02280211 10278 20228 53003=
202309130452 METAR KATL 130452Z 25005KT 10SM -RA SCT070 BKN100 BKN150 OVC200 24/20 A3000 RMK AO2 LTG DSNT SW RAB50 SLP146 CB DSNT S-W-NW P0000 T02390200 403390222=
202309130352 METAR KATL 130352Z 00000KT 10SM SCT060 BKN100 BKN200 BKN250 24/19 A3000 RMK AO2 SLP148 LTG DSNT SW CB DSNT S-SW T02440194=
202309130252 METAR KATL 130252Z 00000KT 10SM SCT110 BKN200 BKN250 25/19 A3000 RMK AO2 SLP146 60000 T02500194 51006=
202309130152 METAR KATL 130152Z 00000KT 10SM FEW040 SCT085 BKN110 BKN200 26/19 A2999 RMK AO2 LTG DSNT S SLP144 CB DSNT SE-S T02610194=
202309130052 METAR KATL 130052Z 11004KT 10SM BKN110 BKN200 BKN250 27/19 A2999 RMK AO2 RAB18E42 SLP144 CB DSNT SE-S P0000 T02670189=
202309122352 METAR KATL 122352Z 07006KT 10SM FEW045 BKN110 BKN200 BKN250 28/18 A2998 RMK AO2 SLP141 CB DSNT SE SW T02780183 10339 20272 55000=
202309122252 METAR KATL 122252Z 01009G23KT 10SM FEW045 SCT100 BKN200 BKN250 28/18 A2997 RMK AO2 LTG DSNT S AND W SLP139 CB DSNT SE SW-W NW T02780183=
202309122152 METAR KATL 122152Z 04008KT 10SM FEW050 BKN100 BKN200 BKN250 29/19 A2997 RMK AO2 LTG DSNT NW SLP140 CB DSNT W NW-N ACC N-NE T02890189=
202309122052 METAR KATL 122052Z 36016G24KT 10SM FEW055 SCT110 BKN200 BKN250 29/17 A2998 RMK AO2 SLP140 CB DSNT N E TCU DSNT E S SHRA SW T02940167 56011=
202309121952 METAR KATL 121952Z 33010KT 10SM FEW060 FEW110 SCT200 BKN250 32/17 A2998 RMK AO2 WSHFT 1846 LTG DSNT NW-E TSB25E42 SLP139 TS MOVD NE CB DSNT NW-NE-E TCU DSNT E-SE SW T03170167=
202309121942 SPECI KATL 121942Z 33011KT 10SM FEW060 SCT110 SCT200 BKN250 31/16 A2998 RMK AO2 WSHFT 1846 LTG DSNT NW-E TSB25E42 TS MOVD NE CB DSNT NW-NE-E TCU DSNT E-S SW T03060161=
202309121925 SPECI KATL 121925Z 33009KT 10SM TS SCT060CB BKN110 BKN200 BKN250 29/16 A2999 RMK AO2 WSHFT 1846 LTG DSNT NW-E TSB25 OCNL LTGICCG VC NE TS VC NE MOV NE CB DSNT NW-NE-E SHRA VC NE T02940161=
202309121903 SPECI KATL 121903Z 31011G22KT 10SM SCT055TCU BKN100 BKN200 BKN250 30/17 A2999 RMK AO2 WSHFT 1846 LTG DSNT NE AND W-NW CB DSNT NE W-NW TCU NE-SE-SW T03000167=
202309121852 METAR KATL 121852Z 29019G26KT 10SM SCT055CB BKN100 BKN200 BKN250 30/17 A2999 RMK AO2 PK WND 29026/1852 SLP145 LTG DSNT NE AND W-NW CB NW MOV NE CB DSNT N NE W-NW TCU NE-OHD-SW SHRA NW T03000167=
202309121752 METAR KATL 121752Z 23008KT 10SM SCT055TCU SCT090 SCT180 BKN250 32/17 A3001 RMK AO2 LTG DSNT N AND NE SLP151 CB DSNT N NE SW NW TCU E SE S DSNT NE-SE SW-NW T03220167 10333 20228 58019=
202309121652 METAR KATL 121652Z 24008G16KT 10SM FEW048TCU SCT060 SCT140 SCT250 32/18 A3003 RMK AO2 SLP159 CB DSNT NE W-NW TCU NE-E DSNT N-E-S NW T03170178=
202309121552 METAR KATL 121552Z 24005KT 10SM FEW040 FEW055 FEW140 SCT250 31/20 A3006 RMK AO2 SLP165 MDT CU NW T03110200=
202309121452 METAR KATL 121452Z 00000KT 10SM FEW070 FEW140 SCT200 SCT250 28/21 A3007 RMK AO2 SLP170 ACC DSNT NW T02830211 50006=
202309121352 METAR KATL 121352Z 19005KT 9SM FEW070 FEW130 FEW200 SCT250 26/21 A3007 RMK AO2 SLP173 CB DSNT NW T02610206=
202309121252 METAR KATL 121252Z 00000KT 9SM FEW070 FEW120 SCT250 24/21 A3007 RMK AO2 SLP170 T02440206=
202309121152 METAR KATL 121152Z 12003KT 10SM FEW070 FEW120 SCT250 23/21 A3005 RMK AO2 SLP165 T02280206 10244 20222 53009=
202309121052 METAR KATL 121052Z 00000KT 10SM FEW070 FEW120 FEW250 22/20 A3004 RMK AO2 SLP162 T02220200=
202309120952 METAR KATL 120952Z 14004KT 10SM FEW120 22/20 A3003 RMK AO2 SLP158 T02220200=
202309120852 METAR KATL 120852Z 09005KT 10SM FEW075 FEW120 22/20 A3002 RMK AO2 SLP155 T02220200 56009=
202309120752 METAR KATL 120752Z 08005KT 10SM FEW075 SCT120 23/20 A3003 RMK AO2 SLP156 T02330200=
202309120652 METAR KATL 120652Z 11004KT 10SM FEW075 SCT120 24/20 A3004 RMK AO2 SLP162 T02390200=
202309120552 METAR KATL 120552Z 09006KT 10SM FEW075 FEW120 FEW250 24/20 A3005 RMK AO2 SLP164 T02440200 10289 20244 55002=
202309120452 METAR KATL 120452Z 00000KT 10SM FEW075 SCT120 SCT250 25/20 A3005 RMK AO2 SLP162 T02500200 403390211=
202309120352 METAR KATL 120352Z 00000KT 10SM FEW075 SCT120 SCT250 25/20 A3005 RMK AO2 SLP165 CB DSNT N T02500200=
202309120252 METAR KATL 120252Z 12005KT 10SM FEW075 FEW110 27/19 A3006 RMK AO2 SLP167 T02670189 51013=
202309120152 METAR KATL 120152Z 00000KT 10SM BKN070 27/19 A3005 RMK AO2 SLP166 T02720194=
202309120052 METAR KATL 120052Z 15003KT 10SM FEW055 FEW200 28/20 A3004 RMK AO2 SLP162 T02780200=
202309112352 METAR KATL 112352Z 15006KT 10SM FEW055 FEW200 29/19 A3002 RMK AO2 SLP155 T02890189 10339 20289 56000=
202309112252 METAR KATL 112252Z 15007KT 10SM FEW055 FEW200 31/18 A3002 RMK AO2 SLP154 MDT CU N-NE NW T03060183=
202309112152 METAR KATL 112152Z 14006KT 10SM FEW055TCU SCT100 SCT200 SCT250 31/18 A3002 RMK AO2 SLP154 TCU OHD-W T03060183=
202309112052 METAR KATL 112052Z 12005KT 10SM FEW055 FEW100 SCT200 SCT250 32/17 A3002 RMK AO2 SLP154 TCU DSNT NE E T03170167 56018=
202309111952 METAR KATL 111952Z 33007KT 10SM FEW060TCU SCT100 SCT200 33/17 A3003 RMK AO2 LTG DSNT SE AND S SLP157 CB DSNT E-SE S TCU SE-S DSNT N NE SW T03330167=
202309111852 METAR KATL 111852Z 01006KT 10SM FEW060TCU SCT095 SCT200 32/17 A3006 RMK AO2 LTG DSNT SE AND S SLP167 CB DSNT SE S TCU NE E-SE SW DSNT NW-NE T03220167=
202309111752 METAR KATL 111752Z 33004KT 10SM SCT048TCU BKN070 BKN200 31/19 A3007 RMK AO2 SLP173 TCU OHD ALQDS DSNT N-E-S-SW T03060189 10317 20217 58008=
202309111652 METAR KATL 111652Z 00000KT 10SM SCT040 31/19 A3009 RMK AO2 SLP177 TCU DSNT SE-SW MDT CU ALQDS T03110194=
202309111552 METAR KATL 111552Z 04004KT 10SM FEW033 30/21 A3010 RMK AO2 SLP181 T03000206=
202309111452 METAR KATL 111452Z 10004KT 10SM FEW140 28/21 A3010 RMK AO2 SLP182 T02780206 50007=
202309111352 METAR KATL 111352Z 00000KT 10SM FEW120 26/20 A3010 RMK AO2 SLP182 ACC DSNT SE T02560200=
202309111252 METAR KATL 111252Z 06006KT 10SM FEW120 23/19 A3009 RMK AO2 SLP180 T02330189=
202309111152 METAR KATL 111152Z 09005KT 10SM FEW120 FEW200 22/18 A3008 RMK AO2 SLP176 T02170183 10239 20211 53006=
202309111052 METAR KATL 111052Z 09006KT 10SM FEW120 FEW200 21/18 A3007 RMK AO2 SLP173 T02110183=
202309110952 METAR KATL 110952Z 08006KT 10SM FEW200 22/18 A3006 RMK AO2 SLP169 T02220178=
202309110852 METAR KATL 110852Z 05007KT 10SM FEW200 23/18 A3006 RMK AO2 SLP168 T02280183 55002=
202309110752 METAR KATL 110752Z 06004KT 10SM FEW200 23/19 A3006 RMK AO2 SLP168 T02280189=
202309110652 METAR KATL 110652Z 10004KT 10SM FEW070 FEW200 23/19 A3006 RMK AO2 LTG DSNT N AND NW SLP169 CB DSNT NW-N T02330194=
202309110552 METAR KATL 110552Z 07006KT 10SM FEW055 FEW250 24/19 A3007 RMK AO2 SLP171 CB DSNT NW T02390194 10278 20233 50003=
202309110452 METAR KATL 110452Z 11004KT 10SM FEW055 FEW110 SCT250 24/20 A3007 RMK AO2 SLP171 T02440200 403170194=
202309110352 METAR KATL 110352Z 09005KT 10SM FEW055 SCT110 25/21 A3007 RMK AO2 SLP170 T02500206=
202309110252 METAR KATL 110252Z 08008KT 10SM FEW055 FEW075 26/21 A3006 RMK AO2 SLP168 T02560206 51014=
202309110152 METAR KATL 110152Z 12004KT 10SM FEW055 FEW100 SCT200 27/21 A3005 RMK AO2 SLP166 T02670206=
202309110052 METAR KATL 110052Z 11005KT 10SM FEW050 FEW100 SCT180 SCT250 27/19 A3004 RMK AO2 SLP164 CB DSNT W T02720194=
202309102352 METAR KATL 102352Z 13004KT 10SM CLR 28/19 A3002 RMK AO2 SLP155 60000 T02780194 10317 20278 51003=
202309102252 METAR KATL 102252Z 10008KT 10SM SCT046TCU SCT055 SCT120 29/19 A3001 RMK AO2 SLP153 TCU SW T02890194=
202309102152 METAR KATL 102152Z 36004KT 10SM BKN046TCU BKN100 BKN200 31/19 A3001 RMK AO2 SLP152 TCU ALQDS T03060189=
202309102052 METAR KATL 102052Z VRB04KT 10SM SCT050TCU SCT100 SCT200 31/19 A3001 RMK AO2 SLP150 CB DSNT S TCU ALQDS 60000 T03110189 56014=
202309101952 METAR KATL 101952Z VRB04KT 10SM SCT042TCU BKN100 BKN200 30/18 A3001 RMK AO2 RAE00 SLP153 CB DSNT SE TCU ALQDS P0000 T03000178=
202309101852 METAR KATL 101852Z 00000KT 10SM -RA SCT033TCU BKN060 28/19 A3003 RMK AO2 RAB51 SLP158 CB DSNT S TCU ALQDS P0000 T02830194=
202309101752 METAR KATL 101752Z 10SM BKN032TCU BKN060 28/20 A3005 RMK AO2 SLP165 TCU E-S-W MDT CU ALQDS T02830200 10289 20200 58008=
202309101652 METAR KATL 101652Z 00000KT 10SM SCT027 SCT080 28/20 A3006 RMK AO2 SLP169 MDT CU N-NE T02830200=
202309101552 METAR KATL 101552Z VRB03KT 10SM FEW022 FEW070 27/19 A3007 RMK AO2 SLP172 ACC DSNT S T02670194 $=
202309101507 SPECI KATL 101507Z 00000KT 10SM FEW012 SCT018 SCT075 26/19 A3007 RMK AO2 ACC DSNT SE T02560194 $=
202309101452 METAR KATL 101452Z 00000KT 10SM FEW012 BKN018 26/19 A3007 RMK AO2 SLP174 T02560194 53010 $=
202309101406 SPECI KATL 101406Z VRB04KT 10SM BKN017 24/18 A3006 RMK AO2 T02390183 $=
202309101352 METAR KATL 101352Z 09005KT 10SM FEW022 23/18 A3006 RMK AO2 SLP169 T02330183 $=
202309101321 SPECI KATL 101321Z 10006KT 10SM SCT021 22/18 A3006 RMK AO2 T02220178 $=
202309101252 METAR KATL 101252Z 10007KT 10SM BKN021 BKN250 21/18 A3005 RMK AO2 SLP167 T02110178 $=
202309101152 METAR KATL 101152Z 09005KT 10SM BKN021 BKN065 20/18 A3004 RMK AO2 SLP164 T02000178 10217 20194 53014 $=
202309101143 SPECI KATL 101143Z 08006KT 10SM BKN021 BKN065 20/18 A3004 RMK AO2 T02000178 $=
202309101052 METAR KATL 101052Z 08007KT 10SM FEW007 FEW020 FEW065 20/18 A3003 RMK AO2 SLP159 T02000178 $=
202309100952 METAR KATL 100952Z 09006KT 10SM FEW007 FEW025 FEW070 19/18 A3001 RMK AO2 SLP153 T01940178 $=
202309100852 METAR KATL 100852Z 08006KT 10SM FEW070 FEW200 20/18 A3000 RMK AO2 SLP150 T02000178 53002 $=
202309100752 METAR KATL 100752Z 08006KT 10SM FEW026 21/18 A3000 RMK AO2 SLP148 T02060178 $=
202309100716 SPECI KATL 100716Z 09007KT 10SM SCT026 21/18 A3000 RMK AO2 T02060178 $=
202309100707 SPECI KATL 100707Z 08008KT 10SM BKN026 21/18 A2999 RMK AO2 T02060178 $=
202309100652 METAR KATL 100652Z 08009KT 10SM SCT026 SCT250 21/18 A2999 RMK AO2 SLP147 T02060178 $=
202309100552 METAR KATL 100552Z 08011KT 10SM FEW065 FEW180 FEW250 22/18 A3000 RMK AO2 SLP148 60000 T02170178 10261 20217 58003 $=
202309100452 METAR KATL 100452Z 07009KT 10SM FEW065 SCT170 SCT250 22/19 A3001 RMK AO2 SLP154 T02220189 403000206 $=
202309100352 METAR KATL 100352Z 09004KT 10SM FEW060 SCT170 SCT250 23/18 A3000 RMK AO2 RAE0259 SLP148 CB DSNT N P0000 T02330183 $=
202309100252 METAR KATL 100252Z 07009KT 10SM -RA SCT060 SCT070 SCT100 SCT200 25/18 A3001 RMK AO2 LTG DSNT N AND NE SLP151 RAB36 CB DSNT NE SE P0000 60000 T02500178 51017 $=
202309100152 METAR KATL 100152Z 03009KT 10SM BKN060 BKN075 BKN200 26/17 A2999 RMK AO2 LTG DSNT E SLP148 CB DSNT NE E SE T02610167 $=
202309100052 METAR KATL 100052Z 04004KT 10SM FEW035 FEW075 SCT100 SCT150 SCT200 26/19 A2998 RMK AO2 LTG DSNT SE SLP143 CB DSNT N NE E SE TCU DSNT SW T02610194 $=
202309092352 METAR KATL 092352Z 10004KT 10SM FEW035 SCT090 SCT150 SCT200 26/18 A2995 RMK AO2 LTG DSNT NE SLP134 CB DSNT N E SE TCU DSNT SE SW 60000 T02610183 10300 20256 53002 $=
202309092252 METAR KATL 092252Z 07008KT 10SM FEW035 SCT090 SCT150 SCT200 28/18 A2996 RMK AO2 SLP135 CB DSNT N NE E TCU DSNT SE T02830183 $=
202309092152 METAR KATL 092152Z 06007KT 10SM FEW035 SCT100 SCT200 28/17 A2994 RMK AO2 RAB10E21 TSE19 SLP129 TS DSIPTD CB DSNT N NE E TCU DSNT SE SW P0000 T02830167=
202309092120 SPECI KATL 092120Z 05008KT 10SM -RA FEW030TCU SCT055 BKN090 BKN200 28/20 A2995 RMK AO2 RAB10 TSE19 TS DSIPTD CB DSNT N E TCU SE-SW P0000 T02780200=
202309092052 METAR KATL 092052Z 04011KT 10SM TS SCT032CB BKN095 BKN200 28/20 A2995 RMK AO2 TSB36 SLP132 OCNL LTGCGIC VC E TS VC E MOV STNRY TCU SE-SW T02780200 56007=
202309092036 SPECI KATL 092036Z 03010KT 10SM TS SCT032CB SCT090 SCT200 28/20 A2995 RMK AO2 TSB36 OCNL LTGCG VC E TS VC E MOV NW TCU E-S-SW T02780200=
202309091952 METAR KATL 091952Z 02012KT 10SM SCT034TCU BKN100 BKN200 29/19 A2995 RMK AO2 LTG DSNT NE AND NW TSE09 SLP132 TS DSIPTD CB DSNT NE NW TCU OHD-E-S-W T02940194=
202309091910 SPECI KATL 091910Z 01013KT 10SM SCT030CB SCT090 BKN200 28/21 A2996 RMK AO2 TSE09 TS DSIPTD CB NW DSNT N-NE MOV N TCU ALQDS T02830206=
202309091852 METAR KATL 091852Z VRB03KT 10SM TS SCT030CB SCT065 BKN100 BKN200 28/21 A2996 RMK AO2 SLP135 OCNL LTGCGIC VC N-NE TS VC N-NE MOV N TCU ALQDS T02830206=
202309091752 METAR KATL 091752Z VRB03KT 10SM TS SCT026CB SCT065 BKN090 BKN200 28/19 A2997 RMK AO2 TSB45 SLP138 OCNL LTGCG NW-N TS NW-N MOV STNRY CB W DSNT N MOV STNRY TCU ALQDS T02780194 10278 20206 58016=
202309091745 SPECI KATL 091745Z 00000KT 10SM TS SCT026CB BKN090 BKN200 27/20 A2997 RMK AO2 TSB45 OCNL LTGCG NW-N TS NW-N MOV STNRY CB DSNT N TCU ALQDS T02720200=
202309091734 SPECI KATL 091734Z 00000KT 10SM SCT027TCU BKN090 BKN200 27/20 A2998 RMK AO2 LTG DSNT N CB DSNT N TCU ALQDS T02670200=
202309091652 METAR KATL 091652Z 20006KT 10SM BKN026TCU BKN080 BKN200 27/20 A2999 RMK AO2 LTG DSNT N SLP146 CB DSNT N TCU ALQDS T02670200=
202309091614 SPECI KATL 091614Z 16005KT 10SM BKN024TCU BKN085 BKN200 26/20 A3001 RMK AO2 TCU SW DSNT N MDT CU ALQDS T02610200=
202309091552 METAR KATL 091552Z VRB04KT 10SM SCT021 BKN095 BKN200 26/20 A3002 RMK AO2 SLP154 MDT CU ALQDS T02610200=
202309091452 METAR KATL 091452Z 11005KT 10SM SCT020TCU SCT042 BKN080 26/20 A3002 RMK AO2 SLP155 TCU SE DSNT SW MDT CU ALQDS T02560200 51014=
202309091352 METAR KATL 091352Z 10004KT 10SM FEW010 FEW042 BKN070 23/19 A3001 RMK AO2 SLP152 ACC ALQDS T02280194=
202309091252 METAR KATL 091252Z VRB05KT 10SM FEW011 FEW075 22/19 A2999 RMK AO2 SLP146 ACC DSNT E-S T02220189=
202309091152 METAR KATL 091152Z 09005KT 10SM SCT070 21/19 A2998 RMK AO2 SLP142 T02060189 10244 20206 53017=
202309091052 METAR KATL 091052Z 09008KT 10SM FEW050 SCT080 21/18 A2995 RMK AO2 SLP134 T02060183=
202309090952 METAR KATL 090952Z 09008KT 10SM FEW090 21/18 A2994 RMK AO2 SLP127 T02060183=
202309090852 METAR KATL 090852Z 08007KT 10SM FEW250 21/18 A2992 RMK AO2 SLP123 T02110178 55005=
202309090752 METAR KATL 090752Z 08005KT 10SM FEW090 FEW250 22/18 A2992 RMK AO2 SLP121 T02220178=
202309090652 METAR KATL 090652Z 07005KT 10SM SCT090 SCT200 SCT250 23/16 A2993 RMK AO2 SLP123 T02330161=
202309090552 METAR KATL 090552Z 03007KT 10SM SCT090 SCT200 BKN250 24/16 A2994 RMK AO2 SLP127 T02390161 10267 20239 57011=
202309090452 METAR KATL 090452Z 05007KT 10SM BKN200 25/15 A2995 RMK AO2 SLP130 T02500150 403000189=
202309090352 METAR KATL 090352Z 03006KT 10SM BKN200 26/15 A2997 RMK AO2 SLP136 T02560150=
202309090252 METAR KATL 090252Z 34005KT 10SM SCT200 SCT250 25/15 A2997 RMK AO2 SLP139 T02500150 51022=
202309090152 METAR KATL 090152Z 34004KT 10SM SCT250 26/15 A2996 RMK AO2 SLP137 T02560150=
202309090052 METAR KATL 090052Z 34005KT 10SM SCT250 26/15 A2993 RMK AO2 SLP127 T02610150=
202309082352 METAR KATL 082352Z 32006KT 10SM BKN250 27/14 A2991 RMK AO2 SLP118 T02670144 10300 20267 55003=
202309082252 METAR KATL 082252Z 32007KT 10SM FEW055 FEW250 28/15 A2990 RMK AO2 SLP117 T02830150=
202309082152 METAR KATL 082152Z 34006KT 10SM BKN055 29/14 A2991 RMK AO2 SLP120 T02890144=
202309082052 METAR KATL 082052Z 27007KT 10SM SCT055 29/15 A2991 RMK AO2 SLP120 T02940150 56008=
202309081952 METAR KATL 081952Z 27003KT 10SM FEW060 29/14 A2992 RMK AO2 SLP120 T02940144=
202309081852 METAR KATL 081852Z 32011G17KT 270V360 10SM FEW055 29/14 A2993 RMK AO2 SLP126 T02940139=
202309081752 METAR KATL 081752Z VRB06KT 10SM FEW055 29/15 A2994 RMK AO2 SLP127 T02890150 10294 20194 58004=
202309081652 METAR KATL 081652Z VRB05KT 10SM FEW048 28/16 A2995 RMK AO2 SLP131 T02830156=
202309081552 METAR KATL 081552Z 24006KT 10SM FEW042 FEW250 27/16 A2995 RMK AO2 SLP131 T02720156=
202309081452 METAR KATL 081452Z 00000KT 10SM FEW030 FEW250 25/16 A2995 RMK AO2 SLP133 MDT CU DSNT NW T02500161 53008=
202309081352 METAR KATL 081352Z VRB03KT 9SM FEW250 23/18 A2995 RMK AO2 SLP132 T02280178=
202309081252 METAR KATL 081252Z 33005KT 9SM FEW200 FEW250 21/17 A2993 RMK AO2 SLP127 T02060167=
202309081152 METAR KATL 081152Z 30006KT 10SM FEW200 SCT250 19/17 A2993 RMK AO2 SLP126 T01940167 10233 20189 52009=
202309081052 METAR KATL 081052Z 30009KT 10SM FEW150 BKN250 19/17 A2992 RMK AO2 SLP120 ACC DSNT NE T01940167=
202309080952 METAR KATL 080952Z 30005KT 10SM BKN250 20/17 A2991 RMK AO2 SLP118 T02000167=
202309080852 METAR KATL 080852Z 33004KT 10SM BKN250 21/16 A2990 RMK AO2 SLP114 T02110161 56001=
202309080752 METAR KATL 080752Z 33004KT 10SM BKN250 22/17 A2990 RMK AO2 SLP115 T02170167=
202309080652 METAR KATL 080652Z 31005KT 10SM FEW060 SCT250 22/17 A2989 RMK AO2 SLP112 T02170172=
202309080552 METAR KATL 080552Z 33006KT 10SM FEW060 SCT250 23/17 A2990 RMK AO2 SLP114 T02330172 10283 20233 55000=
202309080452 METAR KATL 080452Z 32008KT 10SM FEW060 FEW250 24/17 A2990 RMK AO2 SLP112 T02390172 403330233=
202309080352 METAR KATL 080352Z 33008KT 10SM FEW060 FEW250 24/18 A2990 RMK AO2 SLP113 T02440183=
202309080252 METAR KATL 080252Z 29008KT 10SM BKN060 BKN250 26/18 A2990 RMK AO2 SLP114 T02610178 53011=
202309080152 METAR KATL 080152Z 28005KT 10SM FEW055 FEW250 26/18 A2989 RMK AO2 SLP109 T02610183=
202309080052 METAR KATL 080052Z 29006KT 10SM FEW250 27/18 A2987 RMK AO2 SLP104 T02720183=
202309072352 METAR KATL 072352Z 31010KT 10SM FEW055 FEW250 28/18 A2987 RMK AO2 SLP103 T02830178 10333 20283 53006=
202309072252 METAR KATL 072252Z 33012KT 10SM FEW055 FEW250 31/18 A2985 RMK AO2 SLP096 T03060178=
202309072152 METAR KATL 072152Z 31010KT 10SM FEW055 FEW250 32/18 A2985 RMK AO2 SLP095 T03170183=
202309072052 METAR KATL 072052Z 27009G17KT 10SM FEW055 FEW120 SCT200 SCT250 32/19 A2985 RMK AO2 SLP096 CB DSNT E-SE T03220189 56021=
202309071952 METAR KATL 071952Z 30009G17KT 10SM FEW050 FEW110 SCT200 SCT250 33/19 A2986 RMK AO2 SLP097 CB DSNT E-SE T03280189=
202309071852 METAR KATL 071852Z 28010G18KT 10SM FEW046 FEW085 SCT200 SCT250 33/20 A2988 RMK AO2 SLP105 CB DSNT NE E-SE TCU DSNT NE SE T03280200=
202309071752 METAR KATL 071752Z 26010KT 10SM SCT042TCU BKN075 BKN130 BKN250 32/21 A2991 RMK AO2 SLP117 TCU NE-SE-S NW MDT CU ALQDS T03220206 10328 20239 58009=
202309071652 METAR KATL 071652Z 26009KT 10SM BKN038TCU BKN065 BKN130 BKN250 31/21 A2993 RMK AO2 SLP123 TCU N-NE DSNT E W-NW MDT CU ALQDS T03110211=
202309071552 METAR KATL 071552Z 27008G16KT 10SM FEW042 FEW060 SCT120 SCT250 31/20 A2994 RMK AO2 SLP126 ACC DSNT SE T03110200=
202309071452 METAR KATL 071452Z 27008KT 10SM FEW002 FEW036 FEW120 29/21 A2994 RMK AO2 SLP128 FU FEW002 FU PLUME S ACC SE T02940206 53004=
202309071446 SPECI KATL 071446Z 28007KT 10SM FEW002 FEW036 FEW120 29/20 A2994 RMK AO2 FU FEW002 FU PLUME S=
202309071352 METAR KATL 071352Z 28007KT 10SM FEW110 FEW200 28/21 A2993 RMK AO2 SLP123 T02830211=
202309071252 METAR KATL 071252Z 27005KT 10SM FEW060 FEW100 26/21 A2994 RMK AO2 SLP126 T02610206=
202309071152 METAR KATL 071152Z 27005KT 10SM FEW100 FEW250 24/19 A2993 RMK AO2 SLP125 ACC DSNT NW T02390194 10261 20233 53009=
202309071052 METAR KATL 071052Z 00000KT 10SM FEW100 FEW250 24/19 A2991 RMK AO2 SLP117 T02390194=
202309070952 METAR KATL 070952Z 27004KT 10SM FEW100 FEW250 24/19 A2991 RMK AO2 SLP116 T02390194 $=
202309070852 METAR KATL 070852Z 24003KT 10SM FEW250 24/19 A2991 RMK AO2 SLP114 T02440194 58012 $=
202309070752 METAR KATL 070752Z 00000KT 10SM SCT250 25/19 A2992 RMK AO2 SLP119 T02500189 $=
202309070652 METAR KATL 070652Z 24006KT 10SM BKN250 26/19 A2993 RMK AO2 SLP124 T02560194=
202309070552 METAR KATL 070552Z 25005KT 10SM FEW200 BKN250 26/19 A2994 RMK AO2 SLP126 T02610194 10294 20261 56009=
202309070452 METAR KATL 070452Z 25003KT 10SM FEW200 BKN250 27/19 A2995 RMK AO2 SLP127 T02670194 403280228=
202309070352 METAR KATL 070352Z 25004KT 10SM BKN200 BKN250 27/19 A2996 RMK AO2 SLP134 T02670194=
202309070252 METAR KATL 070252Z 27003KT 10SM FEW150 BKN200 BKN250 27/19 A2997 RMK AO2 SLP137 T02720194 53009=
202309070152 METAR KATL 070152Z 00000KT 10SM SCT150 BKN200 BKN250 28/19 A2995 RMK AO2 SLP129 T02830189=
202309070052 METAR KATL 070052Z 27003KT 10SM FEW150 BKN200 BKN250 29/19 A2995 RMK AO2 SLP130 T02890194=
202309062352 METAR KATL 062352Z 31004KT 10SM FEW150 BKN200 BKN250 29/18 A2994 RMK AO2 SLP128 VIRGA DSNT NE T02940183 10328 20294 58010=
202309062252 METAR KATL 062252Z VRB04KT 10SM FEW050 SCT150 BKN200 BKN250 31/19 A2995 RMK AO2 SLP132 T03110189=
202309062152 METAR KATL 062152Z 01008KT 10SM FEW050 BKN180 BKN250 32/19 A2997 RMK AO2 SLP136 T03170194=
202309062052 METAR KATL 062052Z 29005KT 10SM FEW050 SCT170 BKN250 32/19 A2997 RMK AO2 SLP138 VIRGA NE ACC NE T03220194 56009=
202309061952 METAR KATL 061952Z 33006KT 10SM FEW002 FEW050 BKN200 BKN250 32/19 A2998 RMK AO2 SLP141 FU FEW002 FU PLUME E T03170194=
202309061950 SPECI KATL 061950Z VRB05KT 10SM FEW002 FEW050 BKN200 BKN250 32/19 A2998 RMK AO2 FU FEW002 FU PLUME E=
202309061852 METAR KATL 061852Z 32008KT 10SM FEW055 BKN200 BKN250 32/19 A3000 RMK AO2 SLP148 TCU DSNT N T03220189=
202309061752 METAR KATL 061752Z 32009G16KT 10SM FEW046 SCT200 SCT250 33/21 A3002 RMK AO2 SLP155 MDT CU W-NW T03280206 10328 20228 58013=
202309061652 METAR KATL 061652Z 31007KT 10SM FEW046 FEW200 SCT250 32/19 A3005 RMK AO2 SLP164 TCU DSNT NW T03170194=
202309061552 METAR KATL 061552Z 29007KT 10SM FEW200 SCT250 31/21 A3006 RMK AO2 SLP168 T03060206=
202309061452 METAR KATL 061452Z 30006KT 10SM SCT200 BKN250 27/20 A3006 RMK AO2 SLP170 T02670200 55000=
202309061352 METAR KATL 061352Z 29008KT 9SM FEW150 BKN180 BKN250 26/19 A3006 RMK AO2 SLP170 VIRGA S DSNT NE ACC DSNT NE-E T02610194=
202309061252 METAR KATL 061252Z 29006KT 10SM SCT150 BKN220 BKN250 24/19 A3006 RMK AO2 SLP169 VIRGA NW-NE ACC DSNT NE-E T02390194=
202309061152 METAR KATL 061152Z 29005KT 10SM FEW150 SCT200 BKN250 23/19 A3006 RMK AO2 SLP170 VIRGA W-N ACC DSNT N-NE T02280194 10239 20228 53015=
202309061052 METAR KATL 061052Z 28006KT 10SM FEW150 SCT200 BKN250 23/19 A3004 RMK AO2 SLP162 VIRGA OHD-N-E-SE T02280194=
202309060952 METAR KATL 060952Z 29005KT 10SM FEW150 BKN200 BKN250 23/19 A3003 RMK AO2 SLP157 VIRGA NW-NE T02280194=
202309060852 METAR KATL 060852Z 00000KT 10SM SCT180 SCT250 23/19 A3002 RMK AO2 SLP155 T02330194 55006=
202309060752 METAR KATL 060752Z 31005KT 10SM FEW170 SCT250 24/19 A3001 RMK AO2 SLP152 T02390194=
202309060652 METAR KATL 060652Z 26003KT 10SM FEW170 23/20 A3002 RMK AO2 SLP153 T02330200=
202309060552 METAR KATL 060552Z 00000KT 10SM FEW170 24/20 A3004 RMK AO2 SLP161 T02390200 10294 20239 58006=
202309060452 METAR KATL 060452Z 22004KT 10SM FEW170 24/20 A3006 RMK AO2 SLP167 T02440200 403220222=
202309060352 METAR KATL 060352Z 23003KT 10SM FEW170 26/20 A3006 RMK AO2 SLP167 T02560200=
202309060252 METAR KATL 060252Z 26003KT 10SM SCT170 26/20 A3006 RMK AO2 SLP167 T02610200 50009=
202309060152 METAR KATL 060152Z 32005KT 10SM BKN170 28/19 A3006 RMK AO2 SLP167 T02830194=
202309060052 METAR KATL 060052Z 33006KT 10SM BKN170 29/18 A3004 RMK AO2 SLP162 T02890183=
202309052352 METAR KATL 052352Z 33005KT 10SM BKN180 29/19 A3003 RMK AO2 SLP158 ACC OHD-ALQDS T02940194 10322 20294 56008=
202309052252 METAR KATL 052252Z 32006KT 10SM SCT180 BKN250 31/19 A3004 RMK AO2 SLP160 ACC N-OHD-S T03060189=
202309052152 METAR KATL 052152Z 30006KT 10SM FEW060 FEW180 32/18 A3005 RMK AO2 SLP164 ACC NE-E DSNT S-SW T03170178=
202309052052 METAR KATL 052052Z 32005KT 10SM FEW060 SCT180 BKN250 31/18 A3006 RMK AO2 SLP167 ACC NE-E DSNT N T03060183 56017=
202309051952 METAR KATL 051952Z 36005KT 10SM FEW060 SCT180 BKN250 31/17 A3006 RMK AO2 SLP170 ACC NE-E T03110167=
202309051852 METAR KATL 051852Z 00000KT 10SM FEW055 BKN180 BKN250 31/17 A3009 RMK AO2 SLP179 ACC DSNT NE-E T03060172=
202309051752 METAR KATL 051752Z 34004KT 10SM FEW050 SCT180 BKN250 31/19 A3011 RMK AO2 SLP184 ACC DSNT NE W-NW T03060189 10306 20239 58005=
202309051652 METAR KATL 051652Z 00000KT 10SM FEW040 FEW140 SCT180 BKN250 29/19 A3012 RMK AO2 SLP189 VIRGA DSNT NE-SE ACC N-NE T02890189=
202309051552 METAR KATL 051552Z 31006KT 10SM FEW150 BKN180 BKN250 28/19 A3012 RMK AO2 SLP190 VIRGA N-E-SE ACC N SW-W DSNT W-NW T02780194 $=
202309051452 METAR KATL 051452Z 30005KT 10SM FEW140 BKN200 BKN250 27/19 A3012 RMK AO2 SLP189 VIRGA NW-NE-SE T02670194 53012 $=
202309051352 METAR KATL 051352Z 29003KT 10SM FEW140 BKN200 BKN250 27/19 A3011 RMK AO2 SLP184 VIRGA SE-OHD-NW ACC SW-W T02670189 $=
202309051252 METAR KATL 051252Z 00000KT 10SM FEW150 BKN200 BKN250 26/19 A3010 RMK AO2 SLP181 VIRGA OHD-ALQDS T02610194 $=
202309051152 METAR KATL 051152Z 00000KT 10SM FEW150 BKN200 BKN250 24/18 A3009 RMK AO2 SLP177 VIRGA OHD-ALQDS T02390178 10239 20222 53010 $=
202309051052 METAR KATL 051052Z 28003KT 10SM FEW150 SCT200 BKN250 23/18 A3007 RMK AO2 SLP171 T02330183 $=
202309050952 METAR KATL 050952Z 00000KT 10SM FEW200 SCT250 23/19 A3006 RMK AO2 SLP166 T02280189 $=
202309050852 METAR KATL 050852Z 00000KT 10SM FEW200 SCT250 23/19 A3006 RMK AO2 SLP165 T02280194 56004 $=
202309050752 METAR KATL 050752Z 00000KT 10SM FEW200 SCT250 23/19 A3006 RMK AO2 SLP167 T02280189 $=
202309050652 METAR KATL 050652Z 23004KT 10SM FEW200 FEW250 22/19 A3006 RMK AO2 SLP169 T02220189 $=
202309050552 METAR KATL 050552Z 14003KT 10SM FEW200 FEW250 23/19 A3007 RMK AO2 SLP171 T02330189 10294 20233 51005 $=
202309050452 METAR KATL 050452Z 28003KT 10SM FEW200 BKN250 24/18 A3007 RMK AO2 SLP171 T02440183 403280206 $=
202309050352 METAR KATL 050352Z 00000KT 10SM SCT250 24/18 A3007 RMK AO2 SLP170 T02440183 $=
202309050252 METAR KATL 050252Z 21004KT 10SM SCT250 26/18 A3005 RMK AO2 SLP166 T02560178 53015 $=
202309050152 METAR KATL 050152Z 18003KT 10SM FEW250 27/17 A3003 RMK AO2 SLP158 T02670172 $=
202309050052 METAR KATL 050052Z 17003KT 10SM FEW250 28/17 A3001 RMK AO2 SLP152 T02780172 $=
202309042352 METAR KATL 042352Z 17004KT 10SM FEW250 29/18 A3001 RMK AO2 SLP151 T02940178 10328 20294 56006 $=
202309042252 METAR KATL 042252Z 16006KT 10SM FEW065 FEW250 31/18 A3001 RMK AO2 SLP152 T03060178 $=
202309042152 METAR KATL 042152Z 00000KT 10SM FEW065 FEW250 32/17 A3002 RMK AO2 SLP155 T03220172 $=
202309042052 METAR KATL 042052Z 00000KT 10SM FEW065 FEW250 32/17 A3003 RMK AO2 SLP157 T03220172 56018 $=
202309042043 SPECI KATL 042043Z VRB03KT 10SM FEW002 FEW065 FEW250 32/17 A3003 RMK AO2 FU FEW002 FU PLUME N T03220172 $=
202309041952 METAR KATL 041952Z 00000KT 10SM FEW065 FEW180 FEW250 32/17 A3005 RMK AO2 SLP163 T03170167 $=
202309041852 METAR KATL 041852Z 34005KT 10SM FEW060 FEW180 SCT250 32/17 A3006 RMK AO2 SLP169 T03170172=
202309041752 METAR KATL 041752Z 32006KT 10SM FEW055 FEW180 FEW250 31/18 A3008 RMK AO2 SLP176 T03110178 10311 20222 58013=
202309041652 METAR KATL 041652Z 02005KT 10SM FEW055 FEW200 30/17 A3010 RMK AO2 SLP183 T03000172=
202309041552 METAR KATL 041552Z 30004KT 10SM FEW050 FEW100 FEW200 29/18 A3012 RMK AO2 SLP187 T02940183=
202309041452 METAR KATL 041452Z 24004KT 10SM FEW048 FEW120 FEW250 28/19 A3012 RMK AO2 SLP189 T02830189 51006=
202309041352 METAR KATL 041352Z 26007KT 10SM FEW110 FEW250 27/18 A3012 RMK AO2 SLP188 T02670183=
202309041252 METAR KATL 041252Z 27004KT 10SM FEW200 24/18 A3011 RMK AO2 SLP187 T02440183=
202309041152 METAR KATL 041152Z 27003KT 10SM FEW200 22/18 A3010 RMK AO2 SLP184 T02170178 10228 20206 53014=
202309041052 METAR KATL 041052Z 00000KT 10SM FEW200 21/17 A3008 RMK AO2 SLP177 T02110172=
202309040952 METAR KATL 040952Z 00000KT 10SM FEW200 21/17 A3007 RMK AO2 SLP173 T02110172=
202309040852 METAR KATL 040852Z 00000KT 10SM CLR 21/17 A3006 RMK AO2 SLP169 T02110172 56003=
202309040752 METAR KATL 040752Z 00000KT 10SM CLR 22/18 A3006 RMK AO2 SLP168 T02170178=
202309040652 METAR KATL 040652Z 00000KT 10SM FEW200 22/17 A3006 RMK AO2 SLP168 T02220172=
202309040552 METAR KATL 040552Z 00000KT 10SM FEW250 23/17 A3007 RMK AO2 SLP171 T02280172 10283 20228 58005=
202309040452 METAR KATL 040452Z 00000KT 10SM FEW250 23/17 A3008 RMK AO2 SLP174 T02330167 403060194=
202309040352 METAR KATL 040352Z 17003KT 10SM FEW250 24/17 A3008 RMK AO2 SLP175 T02390167=
202309040252 METAR KATL 040252Z 15003KT 10SM FEW250 25/17 A3008 RMK AO2 SLP177 T02500167 50005=
202309040152 METAR KATL 040152Z 14003KT 10SM FEW250 26/17 A3009 RMK AO2 SLP178 T02560167=
202309040052 METAR KATL 040052Z 16003KT 10SM FEW250 27/16 A3007 RMK AO2 SLP174 T02670161=
202309032352 METAR KATL 032352Z 14004KT 10SM FEW055 SCT250 29/16 A3007 RMK AO2 SLP172 T02890161 10306 20289 56004=
202309032252 METAR KATL 032252Z VRB04KT 10SM FEW055 SCT250 29/16 A3007 RMK AO2 SLP173 T02940156=
202309032152 METAR KATL 032152Z 14005KT 10SM FEW055 SCT250 30/16 A3007 RMK AO2 SLP171 T03000161=
202309032052 METAR KATL 032052Z 14005KT 10SM FEW060 SCT250 30/16 A3008 RMK AO2 SLP176 T03000156 56020=
202309031952 METAR KATL 031952Z VRB04KT 10SM FEW060 SCT250 30/16 A3009 RMK AO2 SLP181 T03000156=
202309031852 METAR KATL 031852Z 14007KT 090V180 10SM FEW060 SCT250 30/16 A3012 RMK AO2 SLP190 T03000161=
202309031752 METAR KATL 031752Z 05006KT 10SM FEW055 SCT250 29/15 A3014 RMK AO2 SLP196 T02940150 10294 20206 58012=
202309031652 METAR KATL 031652Z VRB03KT 10SM FEW048 SCT250 28/16 A3016 RMK AO2 SLP202 T02830161=
202309031552 METAR KATL 031552Z VRB04KT 10SM FEW042 SCT250 27/16 A3017 RMK AO2 SLP208 T02720156=
202309031452 METAR KATL 031452Z VRB04KT 10SM FEW035 SCT250 26/16 A3018 RMK AO2 SLP209 T02610156 58001=
202309031352 METAR KATL 031352Z 00000KT 10SM SCT250 24/16 A3018 RMK AO2 SLP212 T02390161=
202309031252 METAR KATL 031252Z 10003KT 10SM FEW050 FEW200 22/16 A3018 RMK AO2 SLP211 T02220156=
202309031152 METAR KATL 031152Z 00000KT 10SM FEW050 FEW200 21/16 A3018 RMK AO2 SLP210 T02060156 10217 20194 53010=
202309031052 METAR KATL 031052Z 08004KT 10SM FEW050 FEW200 21/16 A3017 RMK AO2 SLP207 T02060156=
202309030952 METAR KATL 030952Z 08004KT 10SM FEW200 21/16 A3016 RMK AO2 SLP203 T02110156=
202309030852 METAR KATL 030852Z 09004KT 10SM FEW200 21/16 A3015 RMK AO2 SLP200 T02110156 53001=
202309030752 METAR KATL 030752Z 00000KT 10SM FEW200 21/16 A3014 RMK AO2 SLP198 T02060156=
202309030652 METAR KATL 030652Z 00000KT 10SM FEW200 21/16 A3014 RMK AO2 SLP197 T02060161=
202309030552 METAR KATL 030552Z 13003KT 10SM CLR 22/16 A3015 RMK AO2 SLP200 T02170156 10256 20217 58006=
202309030452 METAR KATL 030452Z 00000KT 10SM CLR 22/16 A3016 RMK AO2 SLP204 T02170156 402830200=
202309030352 METAR KATL 030352Z 10005KT 10SM CLR 22/16 A3017 RMK AO2 SLP206 T02220156=
202309030252 METAR KATL 030252Z 12003KT 10SM FEW250 23/16 A3017 RMK AO2 SLP206 T02330156 50004=
202309030152 METAR KATL 030152Z 09005KT 10SM FEW200 SCT250 24/16 A3017 RMK AO2 SLP208 T02390156=
202309030052 METAR KATL 030052Z 10006KT 10SM BKN200 BKN250 24/16 A3016 RMK AO2 SLP205 T02440156=
202309022352 METAR KATL 022352Z 09007KT 10SM BKN200 BKN250 26/15 A3015 RMK AO2 SLP202 T02560150 10283 20256 56005=
202309022252 METAR KATL 022252Z 09008KT 10SM SCT180 BKN250 27/16 A3016 RMK AO2 SLP203 T02670156=
202309022152 METAR KATL 022152Z 11006KT 10SM FEW180 BKN250 28/16 A3016 RMK AO2 SLP205 T02780156=
202309022052 METAR KATL 022052Z VRB06G15KT 10SM FEW180 BKN250 28/16 A3017 RMK AO2 SLP206 T02780156 57020=
202309021952 METAR KATL 021952Z 07006KT 10SM FEW045 FEW180 BKN250 27/15 A3019 RMK AO2 SLP213 T02720150=
202309021852 METAR KATL 021852Z 10008KT 10SM SCT160 BKN240 26/14 A3021 RMK AO2 SLP221 T02610144=
202309021752 METAR KATL 021752Z 08010KT 10SM SCT180 BKN250 27/14 A3023 RMK AO2 SLP227 T02720144 10272 20211 58010=
202309021652 METAR KATL 021652Z 07009KT 10SM SCT180 BKN230 27/16 A3025 RMK AO2 SLP233 T02670156=
202309021552 METAR KATL 021552Z 12009KT 10SM FEW110 BKN180 BKN250 26/14 A3026 RMK AO2 SLP236 T02610144=
202309021452 METAR KATL 021452Z 10007KT 10SM FEW100 BKN160 BKN250 24/16 A3026 RMK AO2 SLP238 T02390156 51009=
202309021352 METAR KATL 021352Z 09006KT 10SM FEW100 BKN160 BKN250 23/16 A3025 RMK AO2 SLP236 VIRGA OHD-SW T02280156=
202309021252 METAR KATL 021252Z 09005KT 10SM FEW100 BKN150 BKN250 21/15 A3025 RMK AO2 SLP235 VIRGA OHD-W-NW T02110150=
202309021152 METAR KATL 021152Z 10005KT 10SM BKN100 BKN180 21/15 A3023 RMK AO2 SLP228 T02110150 10228 20200 53011=
202309021052 METAR KATL 021052Z 13004KT 10SM BKN100 21/15 A3021 RMK AO2 SLP223 T02060150=
202309020952 METAR KATL 020952Z 10006KT 10SM BKN100 21/14 A3020 RMK AO2 SLP219 T02110144=
202309020852 METAR KATL 020852Z 12005KT 10SM BKN090 22/14 A3020 RMK AO2 SLP216 T02170144 56008=
202309020752 METAR KATL 020752Z 11007KT 10SM BKN090 22/14 A3020 RMK AO2 SLP217 T02220144=
202309020652 METAR KATL 020652Z 12005KT 10SM SCT090 BKN180 22/14 A3021 RMK AO2 SLP219 T02220144=
202309020552 METAR KATL 020552Z 11008KT 10SM BKN090 BKN180 OVC250 23/14 A3022 RMK AO2 SLP224 T02280139 10250 20228 51008=
202309020452 METAR KATL 020452Z 11008KT 10SM FEW090 BKN180 OVC250 23/14 A3022 RMK AO2 SLP223 T02330139 402940228=
202309020352 METAR KATL 020352Z 10009KT 10SM FEW150 BKN180 OVC250 23/14 A3021 RMK AO2 SLP221 T02330139=
202309020252 METAR KATL 020252Z 09011G16KT 10SM FEW120 BKN180 OVC250 24/16 A3020 RMK AO2 SLP216 T02390156 50001=
202309020152 METAR KATL 020152Z 09008KT 10SM FEW090 BKN120 OVC200 24/16 A3020 RMK AO2 SLP218 T02390156=
202309020052 METAR KATL 020052Z 09007KT 10SM FEW090 BKN120 OVC200 24/16 A3021 RMK AO2 SLP220 T02440156=
202309012352 METAR KATL 012352Z 11009KT 10SM FEW090 BKN110 OVC200 25/16 A3019 RMK AO2 SLP215 T02500161 10294 20250 53010=
202309012252 METAR KATL 012252Z 12009KT 10SM BKN080 BKN110 OVC200 26/16 A3019 RMK AO2 SLP212 T02610156=
202309012152 METAR KATL 012152Z 11010KT 10SM BKN085 BKN110 BKN200 27/16 A3017 RMK AO2 SLP206 T02670156=
202309012052 METAR KATL 012052Z 08014KT 10SM BKN080 BKN100 BKN200 28/17 A3016 RMK AO2 SLP203 T02780167 56009=
202309011952 METAR KATL 011952Z 11014G18KT 10SM FEW043 BKN100 BKN150 28/17 A3016 RMK AO2 SLP204 T02830172=
202309011852 METAR KATL 011852Z 12010G18KT 10SM FEW040 BKN100 BKN150 29/18 A3018 RMK AO2 SLP208 T02890183=
202309011752 METAR KATL 011752Z 11013G21KT 10SM FEW036 BKN095 BKN200 28/17 A3019 RMK AO2 SLP213 T02780172 10283 20228 58001=
202309011652 METAR KATL 011652Z 12010G19KT 10SM FEW028 FEW044 SCT150 BKN200 27/18 A3021 RMK AO2 SLP219 T02670183=
202309011552 METAR KATL 011552Z 11012G22KT 10SM SCT028 BKN044 BKN100 BKN200 27/19 A3020 RMK AO2 SLP216 T02670189=
202309011452 METAR KATL 011452Z 09015KT 10SM FEW026 SCT038 BKN048 26/19 A3019 RMK AO2 SLP215 T02560194 51014=
202309011352 METAR KATL 011352Z 10009KT 10SM FEW022 BKN040 BKN095 BKN200 24/19 A3019 RMK AO2 SLP212 T02440189=
202309011252 METAR KATL 011252Z 08012KT 10SM FEW013 BKN095 BKN200 23/20 A3016 RMK AO2 SLP205 T02330200=
