##########################################################
# Query made at 04/20/2024 00:26:10 UTC
# Time interval: from 02/01/2023 12:00  to 02/28/2023 12:59  UTC
##########################################################

##########################################################
# KATL, Atlanta, Hartsfield - Jackson Atlanta International Airport (United States)
# WMO index: 72219. WIGOS ID: 0-20000-0-72219
# Latitude 33-38-59N. Longitude 084-25-00W. Altitude 312 m.
##########################################################

202302281252 METAR KATL 281252Z 27008KT 10SM FEW150 SCT250 16/08 A2986 RMK AO2 SLP105 VIRGA N-NE W-N T01610083=
202302281152 METAR KATL 281152Z 27008KT 10SM FEW180 FEW250 16/07 A2984 RMK AO2 SLP099 T01560072 10200 20156 53015=
202302281052 METAR KATL 281052Z 26008KT 10SM FEW250 16/08 A2983 RMK AO2 SLP095 T01610078=
202302280952 METAR KATL 280952Z 26006KT 10SM FEW250 17/09 A2980 RMK AO2 SLP086 T01670089=
202302280852 METAR KATL 280852Z 27007KT 10SM FEW250 17/10 A2980 RMK AO2 SLP084 T01720100 51009=
202302280752 METAR KATL 280752Z 28008KT 10SM FEW035 FEW250 18/13 A2979 RMK AO2 SLP082 T01830128=
202302280652 METAR KATL 280652Z 27010KT 10SM FEW035 FEW250 19/16 A2979 RMK AO2 SLP082 T01940156=
202302280552 METAR KATL 280552Z 26009KT 10SM SCT037 SCT050 20/16 A2977 RMK AO2 SLP074 T02000156 10233 20200 53008=
202302280452 METAR KATL 280452Z 25008KT 10SM FEW090 21/16 A2976 RMK AO2 SLP071 T02110156 402390150=
202302280352 METAR KATL 280352Z 24010G19KT 10SM FEW042 FEW090 22/16 A2975 RMK AO2 SLP067 T02170156=
202302280252 METAR KATL 280252Z 26011G19KT 10SM SCT034TCU BKN045 BKN090 22/16 A2975 RMK AO2 SLP066 TCU OHD-ALQDS T02220156 53015=
202302280152 METAR KATL 280152Z 23012KT 10SM FEW048 SCT060 23/15 A2972 RMK AO2 SLP059 T02280150=
202302280052 METAR KATL 280052Z 23012G19KT 10SM SCT048 BKN060 23/15 A2971 RMK AO2 SLP055 T02280150=
202302272352 METAR KATL 272352Z 22011G20KT 10SM SCT045 SCT070 23/16 A2970 RMK AO2 PK WND 22027/2257 SLP051 MDT CU E-S 60000 T02330156 10239 20189 55003=
202302272252 METAR KATL 272252Z 23015G29KT 10SM FEW040 SCT070 SCT250 24/16 A2969 RMK AO2 PK WND 25029/2244 SLP048 T02390156=
202302272152 METAR KATL 272152Z 23014G21KT 10SM FEW036 SCT070 BKN100 BKN250 23/16 A2970 RMK AO2 PK WND 21027/2136 SLP052 MDT CU E-SE SW T02330161=
202302272052 METAR KATL 272052Z 23014G24KT 10SM FEW030 SCT048 OVC095 23/16 A2971 RMK AO2 RAB1958E27 SLP055 BINOVC P0000 60000 T02280161 56036=
202302271952 METAR KATL 271952Z 21015G25KT 10SM BKN032 BKN044 OVC060 22/16 A2973 RMK AO2 SLP063 SHRA SW-NW T02170161=
202302271852 METAR KATL 271852Z 20011G21KT 10SM BKN017 BKN024 OVC036 21/17 A2977 RMK AO2 RAE1757 SLP075 CIG 015V019 P0000 T02110167=
202302271752 METAR KATL 271752Z 19009KT 6SM -RA BR BKN015 BKN022 OVC034 19/17 A2982 RMK AO2 RAB22 SLP093 CIG 013V017 P0000 60000 T01890167 10189 20156 58032=
202302271727 SPECI KATL 271727Z 19009KT 5SM -RA BR BKN011 BKN017 OVC030 18/16 A2984 RMK AO2 RAB22 P0000 T01830161=
202302271652 METAR KATL 271652Z 19010KT 10SM BKN008 OVC016 18/16 A2987 RMK AO2 SLP111 CIG 008V011 T01830161=
202302271552 METAR KATL 271552Z 19007KT 5SM BR BKN008 BKN013 OVC048 17/16 A2990 RMK AO2 RAE49 SLP120 CIG 006V010 P0000 T01720161=
202302271518 SPECI KATL 271518Z 19007KT 4SM -RA BR BKN008 OVC012 17/16 A2992 RMK AO2 P0000 T01720156=
202302271452 METAR KATL 271452Z 19007KT 6SM -RA BR OVC010 17/16 A2992 RMK AO2 RAB48 SLP126 CIG 009V012 P0000 60000 T01720156 53004=
202302271414 SPECI KATL 271414Z 21005KT 7SM OVC008 17/14 A2994 RMK AO2 T01670144=
202302271352 METAR KATL 271352Z 19007KT 7SM BKN012 OVC049 17/14 A2991 RMK AO2 SLP125 BINOVC T01670144 $=
202302271343 SPECI KATL 271343Z 17006KT 7SM BKN012 BKN019 BKN049 17/14 A2991 RMK AO2 T01670144 $=
202302271317 SPECI KATL 271317Z 20006KT 9SM FEW012 BKN018 BKN250 17/14 A2990 RMK AO2 CIG 016V022 T01670144 $=
202302271257 SPECI KATL 271257Z 22004KT 7SM BKN012 BKN200 BKN250 16/14 A2991 RMK AO2 T01610139 $=
202302271252 METAR KATL 271252Z 21006KT 7SM SCT014 SCT200 SCT250 16/14 A2991 RMK AO2 SLP123 T01560139 $=
202302271215 SPECI KATL 271215Z 21006KT 9SM SCT016 SCT200 16/14 A2990 RMK AO2 T01610139 $=
202302271152 METAR KATL 271152Z 23007KT 8SM BKN013 16/14 A2990 RMK AO2 SLP122 T01560139 10161 20150 53002 $=
202302271137 SPECI KATL 271137Z 23007KT 8SM BKN012 16/14 A2989 RMK AO2 T01560139 $=
202302271052 METAR KATL 271052Z 21006KT 9SM FEW050 SCT180 15/13 A2990 RMK AO2 SLP119 T01500133 $=
202302270952 METAR KATL 270952Z 20006KT 10SM FEW038 SCT150 BKN180 16/13 A2988 RMK AO2 SLP111 T01560133 $=
202302270852 METAR KATL 270852Z 15003KT 8SM FEW045 BKN180 15/13 A2990 RMK AO2 SLP117 T01500133 56017 $=
202302270752 METAR KATL 270752Z 14004KT 8SM FEW045 BKN180 15/13 A2990 RMK AO2 SLP120 T01500133 $=
202302270652 METAR KATL 270652Z 13003KT 9SM SCT043 SCT150 SCT250 15/13 A2993 RMK AO2 SLP130 T01500133 $=
202302270552 METAR KATL 270552Z 09003KT 10SM CLR 16/13 A2995 RMK AO2 SLP136 T01560133 10200 20156 58014 $=
202302270452 METAR KATL 270452Z 00000KT 10SM FEW180 SCT250 16/13 A2997 RMK AO2 SLP144 T01610133 402440161 $=
202302270352 METAR KATL 270352Z 00000KT 10SM SCT180 BKN250 17/14 A2998 RMK AO2 SLP146 T01670139 $=
202302270252 METAR KATL 270252Z 00000KT 10SM FEW180 SCT250 17/14 A2999 RMK AO2 SLP150 T01720139 58002 $=
202302270152 METAR KATL 270152Z 02006KT 10SM FEW180 BKN250 19/14 A2999 RMK AO2 SLP150 T01890139 $=
202302270052 METAR KATL 270052Z 35008KT 10SM FEW150 BKN220 19/14 A3000 RMK AO2 SLP154 T01940139 $=
202302262352 METAR KATL 262352Z 31007KT 10SM FEW035 SCT150 BKN230 20/14 A3000 RMK AO2 SLP153 T02000139 10244 20200 56007 $=
202302262252 METAR KATL 262252Z 30011KT 10SM FEW035 SCT150 BKN220 22/14 A3000 RMK AO2 SLP154 MDT CU DSNT S T02170139 $=
202302262152 METAR KATL 262152Z 29010G20KT 10SM SCT037 SCT048 BKN055 BKN150 23/14 A3001 RMK AO2 SLP156 MDT CU ALQDS T02280144 $=
202302262052 METAR KATL 262052Z 26012G21KT 10SM SCT038 BKN050 BKN150 BKN250 24/14 A3002 RMK AO2 SLP160 MDT CU ALQDS T02390144 56025 $=
202302261952 METAR KATL 261952Z 27014G20KT 10SM SCT024 SCT037 BKN150 BKN250 23/14 A3003 RMK AO2 SLP164 T02330144 $=
202302261852 METAR KATL 261852Z 28009KT 10SM SCT022 SCT038 BKN150 BKN250 23/15 A3006 RMK AO2 SLP173 T02280150 $=
202302261752 METAR KATL 261752Z 30010KT 10SM SCT030 SCT038 BKN150 BKN250 22/14 A3010 RMK AO2 SLP185 T02170144 10217 20167 58009 $=
202302261652 METAR KATL 261652Z 32010KT 10SM SCT027 BKN033 BKN130 22/15 A3012 RMK AO2 SLP194 T02170150 $=
202302261552 METAR KATL 261552Z 29012G17KT 10SM SCT019 SCT023 BKN140 BKN220 20/15 A3013 RMK AO2 SLP197 T02000150 $=
202302261534 SPECI KATL 261534Z 29011G18KT 10SM FEW017 SCT023 BKN140 BKN220 20/15 A3013 RMK AO2 T02000150 $=
202302261452 METAR KATL 261452Z 28009KT 10SM SCT015 BKN023 BKN180 19/15 A3012 RMK AO2 SLP195 T01890150 50007 $=
202302261352 METAR KATL 261352Z 28009KT 10SM SCT009 BKN013 BKN018 BKN180 18/15 A3013 RMK AO2 SLP197 T01780150 $=
202302261252 METAR KATL 261252Z 28009KT 8SM SCT007 BKN013 BKN180 17/15 A3012 RMK AO2 SLP194 T01670150 $=
202302261152 METAR KATL 261152Z 29004KT 8SM FEW007 BKN012 BKN017 OVC200 17/15 A3010 RMK AO2 SLP189 BINOVC 70002 T01670150 10172 20167 53006 $=
202302261052 METAR KATL 261052Z 28005KT 10SM FEW005 OVC010 17/16 A3009 RMK AO2 SLP186 T01670156 $=
202302260952 METAR KATL 260952Z 27006KT 10SM FEW005 OVC011 17/16 A3008 RMK AO2 SLP182 T01670156 $=
202302260946 SPECI KATL 260946Z 28006KT 10SM FEW005 OVC011 17/16 A3008 RMK AO2 $=
202302260852 METAR KATL 260852Z 29006KT 10SM FEW007 OVC012 17/16 A3008 RMK AO2 SLP184 T01720156 56015 $=
202302260752 METAR KATL 260752Z 31006KT 10SM FEW007 BKN012 OVC020 17/16 A3010 RMK AO2 SLP189 T01720156 $=
202302260652 METAR KATL 260652Z 27006KT 10SM FEW007 BKN011 OVC020 17/16 A3011 RMK AO2 SLP195 T01720156 $=
202302260552 METAR KATL 260552Z 28007KT 10SM SCT007 BKN013 17/16 A3013 RMK AO2 SLP200 60000 T01720156 10172 20167 58007 $=
202302260452 METAR KATL 260452Z 27006KT 10SM FEW007 BKN011 OVC020 17/16 A3014 RMK AO2 SLP205 T01720161 401720128 $=
202302260352 METAR KATL 260352Z 27006KT 9SM SCT007 BKN013 BKN020 17/16 A3015 RMK AO2 SLP207 T01720156 $=
202302260311 SPECI KATL 260311Z 26005KT 8SM FEW006 BKN013 OVC020 17/16 A3015 RMK AO2 T01720156 $=
202302260252 METAR KATL 260252Z 26005KT 10SM FEW013 FEW022 BKN046 17/16 A3015 RMK AO2 SLP207 60000 T01720156 58004 $=
202302260244 SPECI KATL 260244Z 27005KT 10SM FEW013 SCT022 BKN046 17/16 A3015 RMK AO2 T01720156 $=
202302260152 METAR KATL 260152Z 29006KT 10SM FEW006 SCT013 OVC028 17/16 A3016 RMK AO2 SLP212 RAB18E44 P0000 T01720156 $=
202302260118 SPECI KATL 260118Z 26005KT 7SM -RA FEW006 BKN013 OVC020 17/16 A3016 RMK AO2 RAB18 PCPN VRY LGT P0000 T01720161 $=
202302260052 METAR KATL 260052Z 27005KT 7SM FEW007 OVC015 17/16 A3016 RMK AO2 SLP211 T01720156 $=
202302252352 METAR KATL 252352Z 27005KT 7SM FEW005 BKN021 BKN060 BKN250 17/16 A3016 RMK AO2 SLP211 60002 T01720156 10172 20133 58006 $=
202302252341 SPECI KATL 252341Z 28006KT 7SM SCT005 SCT012 BKN060 BKN250 17/16 A3016 RMK AO2 T01720156 $=
202302252252 METAR KATL 252252Z 27005KT 4SM BR BKN005 OVC010 17/16 A3017 RMK AO2 DZE38 SLP213 VIS LWR NW P0000 T01670156 $=
202302252239 SPECI KATL 252239Z 27005KT 3SM BR BKN004 OVC010 17/16 A3017 RMK AO2 DZE38 P0000 T01670156 $=
202302252226 SPECI KATL 252226Z 27004KT 2SM -DZ BR OVC004 17/16 A3017 RMK AO2 P0000 T01670156 $=
202302252204 SPECI KATL 252204Z 27004KT 1 3/4SM -DZ BR OVC004 17/16 A3017 RMK AO2 P0000 T01670156 $=
202302252152 METAR KATL 252152Z 28003KT 2 1/2SM -DZ BR OVC004 17/16 A3018 RMK AO2 DZE05B27 SLP217 VIS W-NW 1 3/4 P0000 T01670156 $=
202302252136 SPECI KATL 252136Z 24003KT 2SM -DZ BR OVC004 16/15 A3018 RMK AO2 DZE05B27 P0000 T01610150 $=
202302252052 METAR KATL 252052Z 24005KT 4SM -DZ BR OVC005 16/14 A3018 RMK AO2 DZB23 SLP218 CIG 004V006 P0000 60002 T01610144 56021 $=
202302251952 METAR KATL 251952Z 19003KT 5SM BR OVC005 15/13 A3018 RMK AO2 RAB08E17 SLP219 VIS LWR S CIG 004V006 P0000 T01500133 $=
202302251852 METAR KATL 251852Z 19003KT 6SM BR OVC006 14/12 A3021 RMK AO2 RAB15E35 SLP228 P0002 T01390122 $=
202302251836 SPECI KATL 251836Z 16004KT 4SM BR BKN005 OVC010 14/13 A3021 RMK AO2 RAB15E35 P0002 T01390128 $=
202302251819 SPECI KATL 251819Z 17003KT 2SM RA BR OVC006 14/12 A3022 RMK AO2 RAB15 VIS N-NE 4 P0001 T01390122 $=
202302251752 METAR KATL 251752Z 13003KT 5SM BR OVC006 14/12 A3024 RMK AO2 RAB32E42 SLP240 P0000 60000 T01390122 10139 20128 58020 $=
202302251652 METAR KATL 251652Z 11004KT 6SM BR OVC006 13/12 A3027 RMK AO2 SLP249 T01330117 $=
202302251552 METAR KATL 251552Z 16005KT 6SM BR OVC006 13/12 A3028 RMK AO2 DZB44E52 SLP253 VIS LWR S-SW P0000 T01280117 $=
202302251452 METAR KATL 251452Z 12006KT 9SM BKN008 OVC011 13/11 A3030 RMK AO2 SLP261 T01280106 50002 $=
202302251352 METAR KATL 251352Z 12006KT 9SM OVC009 13/11 A3031 RMK AO2 SLP264 T01280106 $=
202302251252 METAR KATL 251252Z 11007KT 10SM OVC008 13/11 A3031 RMK AO2 SLP264 T01280106 $=
202302251243 SPECI KATL 251243Z 11007KT 10SM OVC008 13/11 A3031 RMK AO2 T01280106 $=
202302251206 SPECI KATL 251206Z 10007KT 10SM BKN011 OVC025 13/11 A3031 RMK AO2 CIG 009V014 T01280106 $=
202302251152 METAR KATL 251152Z 10008KT 10SM BKN007 OVC013 13/11 A3030 RMK AO2 SLP259 60000 70018 T01280111 10150 20128 50003 $=
202302251052 METAR KATL 251052Z 11008KT 10SM BKN008 BKN012 OVC050 13/11 A3031 RMK AO2 SLP261 BKN008 V SCT T01280111 $=
202302250952 METAR KATL 250952Z 11005KT 10SM BKN009 BKN014 BKN050 13/11 A3030 RMK AO2 SLP260 BKN009 V SCT T01330111 $=
202302250852 METAR KATL 250852Z 11007KT 10SM BKN009 OVC055 14/12 A3029 RMK AO2 RAE18DZB18E34 SLP253 BKN009 V SCT P0000 60000 T01390117 58010 $=
202302250842 SPECI KATL 250842Z 10010KT 10SM BKN009 OVC055 14/12 A3028 RMK AO2 RAE18DZB18E34 BKN009 V SCT P0000 T01390117 $=
202302250813 SPECI KATL 250813Z 10009KT 8SM -RA SCT008 OVC050 14/12 A3029 RMK AO2 P0000 T01440122=
202302250752 METAR KATL 250752Z 09010KT 8SM -RA BKN008 OVC042 14/13 A3029 RMK AO2 SLP254 P0000 T01440128=
202302250652 METAR KATL 250652Z 09009KT 10SM -RA BKN008 OVC032 15/13 A3032 RMK AO2 RAB48 SLP262 P0000 T01500128=
202302250649 SPECI KATL 250649Z 10008KT 10SM -RA BKN008 OVC032 15/13 A3032 RMK AO2 RAB48 P0000=
202302250552 METAR KATL 250552Z 09012KT 10SM SCT008 BKN032 BKN060 BKN200 15/13 A3032 RMK AO2 SLP262 60000 T01500133 10156 20133 58008=
202302250452 METAR KATL 250452Z 08009KT 10SM SCT007 BKN045 BKN070 OVC200 16/14 A3033 RMK AO2 SLP266 T01560139 402500133=
202302250433 SPECI KATL 250433Z 08007KT 10SM SCT007 BKN017 BKN045 OVC200 15/14 A3034 RMK AO2 T01500139=
202302250408 SPECI KATL 250408Z 07007KT 10SM BKN007 BKN017 OVC040 16/13 A3034 RMK AO2 T01560133=
202302250352 METAR KATL 250352Z 07006KT 10SM FEW007 SCT017 OVC040 16/13 A3034 RMK AO2 RAE0256 SLP269 P0000 T01560133=
202302250315 SPECI KATL 250315Z 03004KT 10SM SCT017 BKN040 OVC055 16/13 A3034 RMK AO2 RAE0256 P0000 T01560128=
202302250252 METAR KATL 250252Z 36006KT 9SM -RA BKN018 BKN035 OVC050 14/12 A3035 RMK AO2 RAB46 SLP273 P0000 60000 T01440122 51017=
202302250152 METAR KATL 250152Z 35007KT 10SM FEW005 BKN015 OVC040 14/12 A3034 RMK AO2 SLP271 T01390122=
202302250052 METAR KATL 250052Z 32009KT 10SM FEW005 BKN015 OVC090 13/12 A3033 RMK AO2 SLP267 T01330117=
202302250022 SPECI KATL 250022Z 33009KT 10SM SCT005 BKN012 OVC080 14/12 A3031 RMK AO2 T01390122=
202302242352 METAR KATL 242352Z 33009KT 10SM FEW008 BKN040 BKN060 BKN200 14/13 A3029 RMK AO2 RAE42 SLP255 P0012 60018 T01390128 10244 20139 51013=
202302242325 SPECI KATL 242325Z 32009KT 4SM -RA BR SCT020 BKN035 OVC060 14/13 A3030 RMK AO2 P0008 T01440128=
202302242315 SPECI KATL 242315Z 34005KT 2 1/2SM RA BKN024 BKN035 OVC060 15/12 A3030 RMK AO2 P0004 T01500122=
202302242252 METAR KATL 242252Z 30008KT 5SM -RA BKN027 BKN035 OVC060 16/12 A3029 RMK AO2 RAB44 SLP251 P0000 T01610122=
202302242152 METAR KATL 242152Z 33008KT 9SM FEW012 SCT026 OVC120 18/13 A3026 RMK AO2 RAE50 SLP244 P0004 T01780133=
202302242135 SPECI KATL 242135Z 32010KT 9SM -RA BKN026 BKN038 OVC060 18/14 A3027 RMK AO2 P0004 T01780139=
202302242052 METAR KATL 242052Z 31006KT 7SM -RA FEW040 BKN065 OVC100 21/17 A3026 RMK AO2 SLP240 VIS LWR S-SW P0002 60002 T02060167 55004=
202302241952 METAR KATL 241952Z 00000KT 9SM -RA FEW046 BKN060 OVC100 23/16 A3024 RMK AO2 RAB39 SLP233 P0000 T02330156=
202302241852 METAR KATL 241852Z 30003KT 10SM BKN038 BKN150 BKN200 24/14 A3025 RMK AO2 SLP235 T02390144 $=
202302241752 METAR KATL 241752Z 00000KT 10SM BKN033 BKN150 BKN200 24/14 A3027 RMK AO2 SLP242 60000 T02390144 10250 20194 56006 $=
202302241652 METAR KATL 241652Z 33006KT 10SM FEW035 FEW150 BKN200 24/15 A3028 RMK AO2 SLP247 T02390150=
202302241552 METAR KATL 241552Z VRB03KT 10SM FEW150 FEW200 23/16 A3027 RMK AO2 SLP244 T02280161=
202302241452 METAR KATL 241452Z 33007KT 9SM FEW014 FEW150 21/17 A3029 RMK AO2 SLP249 FROPA 60000 T02110167 53016=
202302241352 METAR KATL 241352Z 28006KT 9SM FEW009 SCT180 BKN250 19/17 A3027 RMK AO2 SLP245 T01940172=
202302241252 METAR KATL 241252Z 29007KT 6SM BR SCT006 SCT010 SCT025 SCT200 BKN250 20/19 A3025 RMK AO2 RAB40E50 SLP238 MDT CU S P0000 T02000189=
202302241235 SPECI KATL 241235Z 28009KT 6SM BR BKN006 BKN017 BKN025 BKN250 21/19 A3026 RMK AO2 TCU DSNT SW T02060189=
202302241152 METAR KATL 241152Z 24006KT 7SM FEW008 BKN014 BKN055 BKN250 20/19 A3024 RMK AO2 SLP234 70004 T02000189 10211 20200 51013=
202302241052 METAR KATL 241052Z 25006KT 8SM FEW008 BKN012 BKN055 20/19 A3023 RMK AO2 SLP230 T02000189=
202302241045 SPECI KATL 241045Z 25006KT 8SM FEW008 BKN012 BKN055 20/19 A3023 RMK AO2 T02000189=
202302241012 SPECI KATL 241012Z 24005KT 8SM BKN008 BKN055 20/19 A3022 RMK AO2 T02000189=
202302240952 METAR KATL 240952Z 23005KT 8SM FEW008 FEW020 BKN055 20/19 A3021 RMK AO2 SLP224 T02000189=
202302240903 SPECI KATL 240903Z 23006KT 8SM FEW008 SCT030 BKN046 BKN250 21/19 A3020 RMK AO2 T02060189=
202302240852 METAR KATL 240852Z 22007KT 8SM FEW012 SCT029 BKN046 BKN250 21/19 A3020 RMK AO2 SLP219 T02060189 50002=
202302240752 METAR KATL 240752Z 22006KT 9SM FEW012 BKN043 BKN250 21/19 A3020 RMK AO2 SLP220 T02060189=
202302240749 SPECI KATL 240749Z 22007KT 9SM FEW012 BKN043 BKN250 21/19 A3020 RMK AO2=
202302240652 METAR KATL 240652Z 22006KT 10SM SCT023 BKN029 BKN035 21/19 A3020 RMK AO2 SLP219 T02060189=
202302240552 METAR KATL 240552Z 23005KT 10SM SCT023 BKN029 BKN250 21/19 A3019 RMK AO2 SLP217 T02060189 10217 20206 51007=
202302240452 METAR KATL 240452Z 22005KT 10SM BKN022 BKN030 BKN250 21/19 A3019 RMK AO2 SLP215 T02110194 402500206=
202302240352 METAR KATL 240352Z 23004KT 10SM FEW028 SCT090 SCT250 21/19 A3018 RMK AO2 SLP213 T02060189=
202302240252 METAR KATL 240252Z 21007KT 10SM FEW035 SCT060 BKN090 22/19 A3017 RMK AO2 SLP210 T02170194 51011=
202302240152 METAR KATL 240152Z 19004KT 9SM SCT045 BKN100 BKN250 21/19 A3016 RMK AO2 SLP207 T02110194=
202302240052 METAR KATL 240052Z 22003KT 9SM FEW030 BKN060 BKN250 22/19 A3015 RMK AO2 SLP204 T02170194=
202302232352 METAR KATL 232352Z 00000KT 10SM FEW030 SCT060 BKN090 BKN250 21/19 A3014 RMK AO2 RAE38 SLP199 TCU DSNT SW NW-N P0004 60004 T02110194 10250 20211 53012=
202302232252 METAR KATL 232252Z 20009KT 6SM -RA BR SCT030 BKN050 BKN090 OVC200 22/19 A3013 RMK AO2 RAB44 SLP196 VIS LWR S-W P0000 T02170194=
202302232152 METAR KATL 232152Z 21008KT 10SM FEW034 SCT060 BKN090 BKN250 24/18 A3011 RMK AO2 SLP187 TCU DSNT NW MDT CU E-S-SW T02440178=
202302232052 METAR KATL 232052Z 23007G19KT 10SM FEW036 SCT055 OVC095 25/18 A3010 RMK AO2 RAB34E44 SLP185 BINOVC P0000 60000 T02500178 56009=
202302231952 METAR KATL 231952Z 24009G22KT 10SM FEW034 SCT065 OVC100 25/18 A3011 RMK AO2 RAB10E20 SLP188 TCU DSNT NE BINOVC P0000 T02500178=
202302231852 METAR KATL 231852Z 22009G18KT 10SM SCT030TCU BKN048 OVC080 24/18 A3012 RMK AO2 SLP190 TCU W NW T02440178=
202302231752 METAR KATL 231752Z 22012G19KT 10SM SCT032TCU BKN055 BKN080 OVC200 24/18 A3013 RMK AO2 SLP195 TCU W MDT CU ALQDS SHRA W T02390178 10239 20206 50000=
202302231708 SPECI KATL 231708Z 23009KT 10SM SCT025 BKN036 OVC075 24/18 A3014 RMK AO2 T02390178=
202302231652 METAR KATL 231652Z 23008G20KT 10SM BKN025 BKN035 OVC075 23/18 A3014 RMK AO2 SLP200 T02330178=
202302231552 METAR KATL 231552Z 23013G26KT 10SM BKN026 BKN055 OVC080 23/18 A3013 RMK AO2 PK WND 21026/1547 SLP194 BINOVC T02330178=
202302231452 METAR KATL 231452Z 22012G19KT 10SM BKN018 BKN055 BKN140 BKN200 22/18 A3013 RMK AO2 SLP195 CIG 016V020 T02220183 50014=
202302231406 SPECI KATL 231406Z 21009KT 8SM FEW014 SCT021 OVC060 21/18 A3013 RMK AO2 BINOVC T02110183=
202302231352 METAR KATL 231352Z 22011G17KT 9SM SCT012 BKN021 BKN050 BKN250 21/18 A3013 RMK AO2 SLP196 T02110183=
202302231311 SPECI KATL 231311Z 22008KT 8SM BKN015 BKN020 OVC250 21/18 A3012 RMK AO2 T02110183=
202302231252 METAR KATL 231252Z 23007KT 9SM FEW015 SCT021 SCT050 BKN200 OVC250 21/18 A3011 RMK AO2 SLP188 T02060183=
202302231248 SPECI KATL 231248Z 22006KT 9SM FEW015 SCT021 SCT050 BKN200 OVC250 21/18 A3011 RMK AO2=
202302231152 METAR KATL 231152Z 22008KT 10SM BKN015 OVC020 21/18 A3009 RMK AO2 SLP180 BINOVC T02060178 10211 20206 53021=
202302231052 METAR KATL 231052Z 21007KT 10SM BKN016 21/18 A3006 RMK AO2 SLP171 T02060178=
202302231022 SPECI KATL 231022Z 22009KT 10SM BKN016 BKN020 21/18 A3005 RMK AO2 T02060178=
202302230952 METAR KATL 230952Z 21009KT 10SM BKN048 21/17 A3004 RMK AO2 SLP162 T02060172=
202302230852 METAR KATL 230852Z 21009G17KT 10SM FEW022 SCT029 BKN040 21/17 A3002 RMK AO2 SLP158 T02110172 50002=
202302230846 SPECI KATL 230846Z 22010G17KT 10SM FEW022 SCT029 BKN040 21/17 A3002 RMK AO2=
202302230752 METAR KATL 230752Z 22009G17KT 10SM BKN020 BKN024 21/17 A3003 RMK AO2 SLP159 T02060167=
202302230652 METAR KATL 230652Z 21011G16KT 10SM BKN020 BKN250 21/17 A3003 RMK AO2 SLP160 T02060167=
202302230626 SPECI KATL 230626Z 22011G18KT 10SM BKN020 BKN250 21/16 A3003 RMK AO2 T02060161=
202302230552 METAR KATL 230552Z 21009G20KT 10SM FEW020 BKN250 21/16 A3002 RMK AO2 SLP157 T02060161 10250 20206 50005=
202302230452 METAR KATL 230452Z 20011G21KT 10SM FEW250 21/16 A3002 RMK AO2 SLP157 T02110156 402720161=
202302230352 METAR KATL 230352Z 21010G20KT 10SM BKN250 22/14 A3002 RMK AO2 SLP160 T02170144=
202302230252 METAR KATL 230252Z 20012G21KT 10SM FEW050 SCT250 22/14 A3000 RMK AO2 SLP154 T02220139 53017=
202302230152 METAR KATL 230152Z 22012G22KT 10SM FEW055 BKN250 23/13 A2998 RMK AO2 SLP147 T02280133=
202302230052 METAR KATL 230052Z 20007KT 10SM FEW055 SCT250 23/13 A2996 RMK AO2 SLP141 T02330133=
202302222352 METAR KATL 222352Z 21009KT 10SM FEW060 BKN250 25/13 A2995 RMK AO2 SLP135 T02500133 10272 20244 53009=
202302222252 METAR KATL 222252Z 19009G20KT 10SM FEW060 SCT200 BKN250 26/14 A2994 RMK AO2 PK WND 20029/2211 SLP130 T02560139=
202302222152 METAR KATL 222152Z 19014G22KT 8SM SCT060 SCT250 27/14 A2993 RMK AO2 PK WND 18026/2123 SLP126 T02670139=
202302222052 METAR KATL 222052Z 20013G26KT 10SM SCT055 SCT250 27/14 A2992 RMK AO2 PK WND 19032/2029 SLP125 T02670139 55018=
202302221952 METAR KATL 221952Z 19013G23KT 10SM FEW045 SCT250 27/14 A2992 RMK AO2 SLP122 T02720139=
202302221852 METAR KATL 221852Z 20015G24KT 10SM SCT041 SCT250 26/14 A2995 RMK AO2 PK WND 19028/1830 SLP134 T02610139=
202302221752 METAR KATL 221752Z 20012G24KT 10SM FEW030 SCT037 SCT250 24/15 A2998 RMK AO2 PK WND 19026/1730 SLP146 T02440150 10244 20178 58018=
202302221652 METAR KATL 221652Z 22013G24KT 10SM SCT025 SCT032 BKN250 23/15 A3002 RMK AO2 SLP158 T02280150=
202302221552 METAR KATL 221552Z 23010G20KT 10SM SCT018 SCT025 BKN032 22/16 A3003 RMK AO2 SLP163 T02170156=
202302221539 SPECI KATL 221539Z 21008G14KT 10SM SCT018 SCT025 BKN033 22/16 A3003 RMK AO2 T02170161=
202302221452 METAR KATL 221452Z 19007KT 10SM SCT015 BKN025 OVC033 19/16 A3004 RMK AO2 SLP167 T01890156 51013=
202302221443 SPECI KATL 221443Z 18006KT 10SM SCT015 BKN027 OVC033 19/16 A3003 RMK AO2 T01890156=
202302221352 METAR KATL 221352Z 15006KT 10SM SCT024 OVC033 18/15 A3003 RMK AO2 SLP164 T01830150=
202302221321 SPECI KATL 221321Z 18004KT 10SM SCT024 OVC032 18/15 A3002 RMK AO2 BINOVC T01780150=
202302221252 METAR KATL 221252Z 19004KT 10SM FEW018 OVC028 18/15 A3002 RMK AO2 SLP160 BINOVC T01780150=
202302221152 METAR KATL 221152Z 21007KT 10SM BKN015 OVC022 18/15 A2999 RMK AO2 SLP152 CIG 013V017 70002 T01780150 10178 20161 51017=
202302221052 METAR KATL 221052Z 21008KT 10SM BKN016 BKN026 BKN250 18/15 A2998 RMK AO2 SLP147 CIG 014V018 T01780150 $=
202302221032 SPECI KATL 221032Z 21005KT 10SM BKN016 BKN026 BKN250 18/16 A2997 RMK AO2 CIG 014V018 T01780156 $=
202302220952 METAR KATL 220952Z 21006KT 8SM BKN012 OVC020 18/16 A2997 RMK AO2 SLP142 CIG 010V014 T01780156 $=
202302220911 SPECI KATL 220911Z 21005KT 7SM OVC010 17/16 A2995 RMK AO2 CIG 009V011 T01720156 $=
202302220852 METAR KATL 220852Z 21005KT 7SM OVC009 17/16 A2994 RMK AO2 SLP134 CIG 008V010 T01720156 51003 $=
202302220819 SPECI KATL 220819Z 21006KT 8SM OVC009 17/16 A2994 RMK AO2 T01720156 $=
202302220752 METAR KATL 220752Z 20005KT 9SM OVC011 17/16 A2994 RMK AO2 SLP134 CIG 009V013 T01670156 $=
202302220718 SPECI KATL 220718Z 20004KT 8SM BKN014 BKN200 BKN250 17/15 A2994 RMK AO2 T01670150 $=
202302220652 METAR KATL 220652Z 19005KT 9SM FEW200 SCT250 16/14 A2994 RMK AO2 SLP131 T01610144 $=
202302220552 METAR KATL 220552Z 19004KT 10SM BKN250 16/14 A2993 RMK AO2 SLP131 T01610144 10189 20161 51003=
202302220452 METAR KATL 220452Z 19005KT 10SM BKN250 17/14 A2993 RMK AO2 SLP131 T01670144 402110161=
202302220352 METAR KATL 220352Z 17003KT 10SM BKN250 16/14 A2993 RMK AO2 SLP130 T01610139=
202302220252 METAR KATL 220252Z 00000KT 10SM FEW035 BKN250 16/14 A2992 RMK AO2 SLP129 T01610139 51009=
202302220152 METAR KATL 220152Z 00000KT 10SM FEW001 FEW040 BKN250 17/14 A2992 RMK AO2 SLP126 VIS LWR S-SW T01670139=
202302220052 METAR KATL 220052Z 00000KT 10SM FEW035 SCT050 BKN250 17/14 A2991 RMK AO2 SLP123 T01720139=
202302212352 METAR KATL 212352Z 00000KT 10SM FEW030 BKN055 BKN200 19/14 A2990 RMK AO2 SLP118 60002 T01890139 10211 20183 53002=
202302212252 METAR KATL 212252Z 27004KT 10SM BKN047 BKN060 BKN200 19/14 A2989 RMK AO2 SLP115 T01940144=
202302212152 METAR KATL 212152Z 25006KT 10SM FEW014 SCT046 SCT100 BKN200 19/14 A2989 RMK AO2 SLP114 T01940139=
202302212052 METAR KATL 212052Z 24007KT 10SM FEW024 BKN070 OVC100 19/14 A2989 RMK AO2 RAB1957E49 SLP115 SHRA N-NE SE-S NW P0000 60002 T01940144 57000=
202302211952 METAR KATL 211952Z 24009KT 10SM FEW024TCU SCT040 BKN080 OVC140 20/14 A2988 RMK AO2 RAE16B35E52 SLP114 TCU NW-NE P0002 T02000144=
202302211852 METAR KATL 211852Z 27009KT 8SM -RA SCT022TCU BKN036 OVC070 21/17 A2989 RMK AO2 RAE1753B50 SLP117 TCU E-OHD-W MDT CU ALQDS P0000 T02060167=
202302211752 METAR KATL 211752Z 27007KT 10SM -RA SCT018 BKN036 BKN080 OVC200 20/17 A2989 RMK AO2 RAB1657 SLP116 P0000 60000 T02000172 10211 20172 58001=
202302211652 METAR KATL 211652Z 25009KT 10SM FEW012 SCT038 OVC085 20/17 A2990 RMK AO2 RAE41 SLP121 VIRGA E-OHD-W TCU DSNT NW-N MDT CU SW P0000 T02000167=
202302211552 METAR KATL 211552Z 24010KT 10SM -RA FEW015 SCT036 OVC085 19/16 A2990 RMK AO2 RAB17 SLP121 P0000 T01940161 $=
202302211529 SPECI KATL 211529Z 23009G17KT 9SM -RA SCT017 BKN036 OVC085 19/17 A2990 RMK AO2 RAB17 P0000 T01940167 $=
202302211507 SPECI KATL 211507Z 25010KT 10SM BKN015 BKN024 OVC044 19/16 A2990 RMK AO2 T01940161 $=
202302211452 METAR KATL 211452Z 25010G18KT 9SM FEW013 SCT026 BKN042 OVC130 19/16 A2989 RMK AO2 SLP116 T01940161 51021 $=
202302211414 SPECI KATL 211414Z 24012KT 8SM FEW013 SCT025 BKN041 BKN160 BKN200 19/16 A2989 RMK AO2 T01890161 $=
202302211352 METAR KATL 211352Z 25010KT 8SM FEW010 BKN022 BKN040 BKN180 BKN250 18/16 A2988 RMK AO2 SLP114 T01830156 $=
202302211304 SPECI KATL 211304Z 23007KT 9SM FEW010 SCT026 BKN036 BKN180 BKN220 18/16 A2986 RMK AO2 T01780156 $=
202302211252 METAR KATL 211252Z 23007KT 8SM FEW008 BKN026 BKN047 BKN180 BKN220 17/16 A2986 RMK AO2 SLP107 BKN026 V SCT T01720156 $=
202302211152 METAR KATL 211152Z 24009KT 10SM FEW028 FEW047 SCT100 SCT250 17/15 A2983 RMK AO2 SLP096 60000 T01720150 10172 20167 53009 $=
202302211052 METAR KATL 211052Z 25008KT 10SM FEW012 SCT055 BKN100 BKN250 17/15 A2981 RMK AO2 SLP090 T01720150 $=
202302211038 SPECI KATL 211038Z 24010KT 10SM SCT012 SCT065 BKN090 BKN250 17/15 A2981 RMK AO2 SCT012 V BKN T01720150 $=
202302211021 SPECI KATL 211021Z 25009G17KT 10SM SCT012 BKN018 BKN095 BKN250 17/15 A2981 RMK AO2 SCT012 V BKN T01720150 $=
202302210952 METAR KATL 210952Z 25011KT 10SM BKN012 BKN020 BKN090 BKN250 17/15 A2981 RMK AO2 RAB21E30 SLP088 BKN012 V SCT P0000 T01720150 $=
202302210852 METAR KATL 210852Z 23012G21KT 10SM BKN011 BKN033 BKN250 17/14 A2980 RMK AO2 SLP084 T01720144 56012 $=
202302210752 METAR KATL 210752Z 24010G19KT 10SM BKN012 OVC017 17/14 A2981 RMK AO2 SLP087 T01720144 $=
202302210652 METAR KATL 210652Z 23011G18KT 10SM BKN014 BKN026 BKN250 17/14 A2982 RMK AO2 SLP091 T01670139 $=
202302210629 SPECI KATL 210629Z 23008G18KT 10SM BKN014 BKN026 BKN250 17/14 A2982 RMK AO2 BKN014 V SCT T01670139 $=
202302210612 SPECI KATL 210612Z 22011KT 10SM FEW014 FEW026 BKN250 17/13 A2982 RMK AO2 T01670133 $=
202302210552 METAR KATL 210552Z 23007KT 10SM BKN026 BKN250 17/13 A2984 RMK AO2 SLP098 T01670133 10178 20167 58016 $=
202302210452 METAR KATL 210452Z 23006KT 10SM FEW055 BKN250 17/13 A2985 RMK AO2 SLP101 T01720133 402500083 $=
202302210352 METAR KATL 210352Z 24008KT 10SM FEW030 BKN055 BKN250 17/13 A2988 RMK AO2 SLP112 T01720133 $=
202302210252 METAR KATL 210252Z 25008KT 10SM FEW030 BKN042 BKN250 17/13 A2988 RMK AO2 SLP116 T01720128 51010 $=
202302210152 METAR KATL 210152Z 27009KT 10SM BKN023 BKN035 BKN250 17/13 A2988 RMK AO2 SLP117 T01720128 $=
202302210052 METAR KATL 210052Z 26013G21KT 10SM BKN025 BKN130 BKN250 17/12 A2987 RMK AO2 PK WND 21029/0026 SLP112 T01720122 $=
202302202352 METAR KATL 202352Z 22012G20KT 10SM FEW150 BKN200 BKN250 18/11 A2985 RMK AO2 PK WND 25028/2333 SLP108 T01780111 10250 20178 53002 $=
202302202252 METAR KATL 202252Z 23015G26KT 10SM FEW140 BKN200 OVC250 20/11 A2986 RMK AO2 PK WND 23026/2248 SLP109 T02000106 $=
202302202152 METAR KATL 202152Z 23014G22KT 10SM FEW140 BKN200 BKN250 23/08 A2984 RMK AO2 SLP100 T02330078 $=
202302202052 METAR KATL 202052Z 24015G24KT 10SM FEW140 BKN200 BKN250 24/07 A2985 RMK AO2 PK WND 22028/2006 SLP103 T02440072 56035 $=
202302201952 METAR KATL 201952Z 25013G21KT 10SM FEW065 FEW130 SCT200 BKN250 24/08 A2988 RMK AO2 SLP115 T02390083 $=
202302201852 METAR KATL 201852Z 25014G22KT 10SM FEW060 FEW130 BKN200 BKN250 22/09 A2992 RMK AO2 SLP127 T02220089 $=
202302201752 METAR KATL 201752Z 25013G16KT 10SM FEW050 FEW120 BKN200 BKN250 21/09 A2996 RMK AO2 SLP141 T02060089 10206 20100 58025 $=
202302201652 METAR KATL 201652Z 25009KT 10SM FEW130 SCT200 BKN250 19/10 A2998 RMK AO2 SLP151 T01940100 $=
202302201552 METAR KATL 201552Z 26008KT 10SM FEW026 FEW130 SCT200 BKN250 17/09 A3002 RMK AO2 SLP163 FU FEW026 ACC N T01720089 $=
202302201452 METAR KATL 201452Z 25009G15KT 10SM FEW020 FEW140 SCT200 BKN250 14/06 A3003 RMK AO2 SLP168 FU FEW020 T01440061 56005 $=
202302201352 METAR KATL 201352Z 26008KT 10SM FEW150 SCT200 BKN250 13/03 A3004 RMK AO2 SLP170 VIRGA N-NE T01280033 $=
202302201252 METAR KATL 201252Z 25006KT 10SM FEW150 SCT200 SCT250 11/02 A3004 RMK AO2 SLP172 T01110022 $=
202302201152 METAR KATL 201152Z 25006KT 10SM FEW200 SCT250 10/02 A3005 RMK AO2 SLP174 T01000022 10117 20083 55003 $=
202302201052 METAR KATL 201052Z 23004KT 10SM BKN250 09/02 A3004 RMK AO2 SLP172 T00890017 $=
202302200952 METAR KATL 200952Z 22003KT 10SM BKN250 09/02 A3004 RMK AO2 SLP173 T00890017 $=
202302200852 METAR KATL 200852Z 23004KT 10SM SCT250 09/02 A3006 RMK AO2 SLP177 T00940017 56020 $=
202302200752 METAR KATL 200752Z 22004KT 10SM FEW220 BKN250 09/02 A3007 RMK AO2 SLP182 T00940022 $=
202302200652 METAR KATL 200652Z 23003KT 10SM SCT220 BKN250 11/01 A3009 RMK AO2 SLP189 T01110011 $=
202302200552 METAR KATL 200552Z 26003KT 10SM SCT250 11/02 A3012 RMK AO2 SLP198 T01060022 10150 20106 56010 $=
202302200452 METAR KATL 200452Z 23004KT 10SM FEW190 BKN250 12/02 A3012 RMK AO2 SLP198 T01170022 401830061 $=
202302200352 METAR KATL 200352Z 23003KT 10SM SCT190 SCT250 12/02 A3014 RMK AO2 SLP205 T01220022 $=
202302200252 METAR KATL 200252Z 23004KT 10SM SCT190 BKN240 13/02 A3015 RMK AO2 SLP210 T01280017 55000 $=
202302200152 METAR KATL 200152Z 21003KT 10SM FEW150 SCT240 13/02 A3014 RMK AO2 SLP207 T01280017=
202302200052 METAR KATL 200052Z 00000KT 10SM FEW200 SCT250 14/01 A3015 RMK AO2 SLP211 T01440006=
202302192352 METAR KATL 192352Z 21005KT 10SM FEW200 SCT250 16/01 A3015 RMK AO2 SLP211 T01560011 10183 20150 55005=
202302192252 METAR KATL 192252Z 21007KT 10SM FEW200 SCT250 17/01 A3014 RMK AO2 SLP205 T01720006=
202302192152 METAR KATL 192152Z 24006KT 10SM SCT250 18/M01 A3015 RMK AO2 SLP210 T01781006=
202302192052 METAR KATL 192052Z 21008KT 10SM FEW250 18/01 A3017 RMK AO2 SLP215 T01780006 56030=
202302191952 METAR KATL 191952Z 26008KT 220V300 10SM FEW250 18/01 A3019 RMK AO2 SLP222 T01780011=
202302191852 METAR KATL 191852Z 22008KT 10SM SCT250 16/02 A3021 RMK AO2 SLP232 T01610017=
202302191752 METAR KATL 191752Z 17006KT 10SM SCT250 16/03 A3026 RMK AO2 SLP248 T01560033 10156 20067 58029=
202302191652 METAR KATL 191652Z 26004KT 10SM FEW030 FEW250 14/03 A3030 RMK AO2 SLP262 T01440033=
202302191552 METAR KATL 191552Z 19007KT 10SM FEW026 FEW200 BKN250 12/03 A3032 RMK AO2 SLP270 T01220028=
202302191452 METAR KATL 191452Z 13004KT 10SM FEW024 FEW150 BKN220 11/01 A3035 RMK AO2 SLP279 T01060006 50004=
202302191352 METAR KATL 191352Z 15005KT 10SM FEW025 SCT150 SCT200 BKN250 08/01 A3036 RMK AO2 SLP283 T00780006=
202302191304 SPECI KATL 191304Z 13004KT 10SM SCT023 BKN150 BKN200 07/00 A3035 RMK AO2 T00720000=
202302191252 METAR KATL 191252Z 14004KT 10SM BKN023 BKN150 BKN200 07/00 A3035 RMK AO2 SLP280 T00720000=
202302191152 METAR KATL 191152Z 11005KT 10SM BKN019 BKN150 07/M01 A3034 RMK AO2 SLP276 T00671006 10072 20061 51013 $=
202302191052 METAR KATL 191052Z 11003KT 10SM BKN021 BKN030 BKN200 07/M01 A3033 RMK AO2 SLP272 T00671011 $=
202302191047 SPECI KATL 191047Z 00000KT 10SM BKN021 BKN030 BKN200 07/M01 A3033 RMK AO2 $=
202302191019 SPECI KATL 191019Z 12004KT 10SM BKN030 BKN180 BKN220 07/M02 A3033 RMK AO2 T00671017 $=
202302190952 METAR KATL 190952Z 00000KT 10SM BKN028 BKN180 BKN220 06/M02 A3032 RMK AO2 SLP269 T00611017 $=
202302190852 METAR KATL 190852Z 14005KT 10SM SCT180 BKN220 06/M02 A3030 RMK AO2 SLP261 T00611017 58020 $=
202302190752 METAR KATL 190752Z 00000KT 10SM FEW150 SCT180 SCT250 06/M02 A3034 RMK AO2 SLP276 T00611017 $=
202302190652 METAR KATL 190652Z 14004KT 10SM FEW150 BKN180 BKN250 07/M02 A3037 RMK AO2 SLP286 T00721017 $=
202302190552 METAR KATL 190552Z 14008KT 10SM FEW140 BKN170 BKN250 07/M02 A3036 RMK AO2 SLP283 T00721017 10111 20072 58003 $=
202302190452 METAR KATL 190452Z 13006KT 10SM BKN180 BKN250 08/M02 A3038 RMK AO2 SLP293 T00781022 401441017 $=
202302190352 METAR KATL 190352Z 12003KT 10SM FEW170 SCT250 07/M02 A3038 RMK AO2 SLP294 T00721022 $=
202302190252 METAR KATL 190252Z 13004KT 10SM CLR 08/M02 A3037 RMK AO2 SLP288 T00781022 50003 $=
202302190152 METAR KATL 190152Z 12003KT 10SM FEW250 09/M02 A3038 RMK AO2 SLP293 T00891022=
202302190052 METAR KATL 190052Z 13003KT 10SM FEW250 10/M03 A3037 RMK AO2 SLP290 T01001028 $=
202302182352 METAR KATL 182352Z 14003KT 10SM FEW250 11/M03 A3036 RMK AO2 SLP287 T01111028 10144 20094 53001 $=
202302182252 METAR KATL 182252Z 10006KT 10SM FEW250 14/M04 A3035 RMK AO2 SLP282 T01391044 $=
202302182152 METAR KATL 182152Z 10SM FEW250 14/M05 A3035 RMK AO2 SLP282 T01441050 $=
202302182052 METAR KATL 182052Z 07005KT 10SM FEW250 14/M03 A3036 RMK AO2 SLP285 T01441033 56027 $=
202302181952 METAR KATL 181952Z VRB05KT 10SM FEW002 FEW250 13/M04 A3036 RMK AO2 SLP287 FU FEW002 T01281039 $=
202302181852 METAR KATL 181852Z VRB05KT 10SM CLR 12/M03 A3040 RMK AO2 SLP301 T01171033 $=
202302181752 METAR KATL 181752Z 14004KT 10SM CLR 10/M03 A3044 RMK AO2 SLP313 T01001033 10100 21017 58007 $=
202302181652 METAR KATL 181652Z 09004KT 10SM CLR 08/M04 A3046 RMK AO2 SLP323 T00781039 $=
202302181552 METAR KATL 181552Z 00000KT 10SM CLR 06/M04 A3047 RMK AO2 SLP327 T00561039 $=
202302181452 METAR KATL 181452Z 00000KT 10SM FEW250 03/M05 A3046 RMK AO2 SLP323 T00331050 52021 $=
202302181352 METAR KATL 181352Z 01007KT 10SM FEW250 01/M05 A3044 RMK AO2 SLP315 T00111050 $=
202302181252 METAR KATL 181252Z 32005KT 10SM CLR M01/M06 A3042 RMK AO2 SLP311 T10111056 $=
202302181152 METAR KATL 181152Z 35008KT 10SM CLR M01/M06 A3040 RMK AO2 SLP302 70007 T10111056 10006 21017 53016 $=
202302181052 METAR KATL 181052Z 33007KT 10SM CLR M01/M06 A3038 RMK AO2 SLP296 T10111056 $=
202302180952 METAR KATL 180952Z 33007KT 10SM CLR M01/M06 A3035 RMK AO2 SLP286 T10111056 $=
202302180852 METAR KATL 180852Z 33008KT 10SM CLR M01/M06 A3035 RMK AO2 SLP284 T10111056 53010 $=
202302180752 METAR KATL 180752Z 32011KT 10SM CLR M01/M06 A3033 RMK AO2 SLP276 T10061061 $=
202302180652 METAR KATL 180652Z 32017G22KT 10SM CLR 00/M06 A3033 RMK AO2 SLP276 T00001061 $=
202302180552 METAR KATL 180552Z 33011KT 10SM CLR 01/M06 A3031 RMK AO2 SLP272 T00061061 10039 20006 51001 $=
202302180452 METAR KATL 180452Z 34012G20KT 10SM FEW030 01/M06 A3031 RMK AO2 SLP270 T00111061 402060011 $=
202302180352 METAR KATL 180352Z 33015G24KT 10SM FEW030 FEW200 02/M05 A3032 RMK AO2 PK WND 33030/0326 SLP272 T00171050 $=
202302180252 METAR KATL 180252Z 34018G31KT 10SM BKN030 BKN200 02/M04 A3031 RMK AO2 PK WND 34031/0251 SLP270 T00221044 51025 $=
202302180152 METAR KATL 180152Z 33019G25KT 10SM BKN032 BKN200 03/M04 A3030 RMK AO2 PK WND 32032/0057 SLP265 T00281039 $=
202302180052 METAR KATL 180052Z 32023G35KT 10SM BKN032 BKN200 03/M04 A3027 RMK AO2 PK WND 33035/0002 SLP255 T00331044 $=
202302172352 METAR KATL 172352Z 33013G29KT 10SM BKN032 BKN200 BKN250 04/M03 A3023 RMK AO2 PK WND 34029/2345 SLP241 T00391033 10094 20033 51040 $=
202302172252 METAR KATL 172252Z 33019G31KT 10SM BKN030 BKN250 04/M02 A3020 RMK AO2 PK WND 31031/2246 SLP230 T00441022 $=
202302172152 METAR KATL 172152Z 30022G29KT 10SM SCT034 SCT200 BKN250 07/M02 A3015 RMK AO2 PK WND 29033/2110 SLP210 T00671017=
202302172052 METAR KATL 172052Z 29024G32KT 10SM FEW038 FEW200 BKN250 08/M01 A3011 RMK AO2 PK WND 33033/2009 SLP196 T00781011 53008=
202302171952 METAR KATL 171952Z 30019G30KT 10SM FEW034 SCT200 BKN250 09/01 A3009 RMK AO2 PK WND 32030/1945 SLP186 T00940006=
202302171852 METAR KATL 171852Z 30018G31KT 10SM FEW030 BKN200 08/00 A3009 RMK AO2 PK WND 29031/1844 SLP186 T00780000=
202302171817 SPECI KATL 171817Z 31022G29KT 10SM SCT029 BKN200 08/01 A3009 RMK AO2 PK WND 30030/1800 T00830011=
202302171752 METAR KATL 171752Z 29020G29KT 10SM BKN028 BKN200 08/02 A3009 RMK AO2 PK WND 29033/1653 SLP187 60007 T00830017 10128 20078 51029=
202302171652 METAR KATL 171652Z 30022G36KT 10SM FEW018 BKN023 BKN200 08/03 A3008 RMK AO2 PK WND 30036/1648 SLP182 T00830033=
202302171633 SPECI KATL 171633Z 31016G32KT 10SM SCT012 BKN023 08/04 A3007 RMK AO2 PK WND 32032/1625 T00830039=
202302171608 SPECI KATL 171608Z 29022G32KT 10SM BKN011 OVC022 09/06 A3004 RMK AO2 PK WND 31032/1605 T00890056=
202302171552 METAR KATL 171552Z 30017G27KT 10SM BKN009 BKN022 10/06 A3003 RMK AO2 PK WND 29028/1534 DZE15 SLP166 P0000 T01000061=
202302171452 METAR KATL 171452Z 29016G24KT 5SM -DZ BR BKN007 OVC012 09/08 A3000 RMK AO2 PK WND 30026/1422 RAE18DZB40 SLP156 P0002 60007 T00940083 51029=
202302171352 METAR KATL 171352Z 31014G25KT 6SM -RA BR BKN009 BKN014 OVC065 11/09 A2997 RMK AO2 PK WND 29026/1253 SLP144 P0003 T01060089=
202302171252 METAR KATL 171252Z 30018G24KT 3SM -RA BR BKN006 BKN014 OVC025 11/10 A2995 RMK AO2 SLP139 CIG 005V008 P0002 T01110100=
202302171246 SPECI KATL 171246Z 30014KT 4SM -RA BR BKN007 OVC015 12/11 A2995 RMK AO2 P0001=
202302171152 METAR KATL 171152Z 32012G18KT 10SM -RA SCT009 BKN013 OVC060 13/12 A2991 RMK AO2 PK WND 30027/1127 SLP124 P0000 60042 70042 T01280117 10206 20128 53032 $=
202302171059 SPECI KATL 171059Z 28014KT 6SM -RA BR BKN007 BKN010 OVC060 15/13 A2987 RMK AO2 P0000 T01500133 $=
202302171052 METAR KATL 171052Z 30012KT 5SM -RA BR SCT007 BKN010 OVC060 15/14 A2987 RMK AO2 PK WND 29027/0953 WSHFT 0944 SLP109 P0034 T01500139 $=
202302171001 SPECI KATL 171001Z 29010G32KT 4SM R09R/4000VP6000FT +RA BR SCT016 OVC023 17/16 A2985 RMK AO2 PK WND 29027/0953 WSHFT 0944 P0014 T01720161 $=
202302170958 SPECI KATL 170958Z 28013G62KT 2SM R09R/2600VP6000FT +RA BR SQ FEW005 BKN014 OVC023 17/16 A2985 RMK AO2 PK WND 29027/0953 WSHFT 0944 PRESRR P0012 T01720161 $=
202302170955 SPECI KATL 170955Z 29017G62KT 2SM R09R/2600VP6000FT +RA BR SQ FEW005 SCT014 OVC021 17/16 A2985 RMK AO2 PK WND 29027/0953 PRESRR P0009 T01720161 $=
202302170952 METAR KATL 170952Z 28027G62KT 3SM R09R/2600VP6000FT RA BR SQ FEW005 BKN014 OVC021 19/17 A2982 RMK AO2 PK WND 20062/0950 SLP091 P0007 T01890172 $=
202302170852 METAR KATL 170852Z 20011G22KT 10SM -RA BKN017 OVC025 20/17 A2981 RMK AO2 SLP088 P0000 60001 T02000172 56029 $=
202302170752 METAR KATL 170752Z 19013G21KT 10SM OVC015 19/17 A2984 RMK AO2 RAE04B28E50 SLP096 P0001 T01940167 $=
202302170652 METAR KATL 170652Z 19011G19KT 10SM -RA BKN020 BKN025 BKN090 19/16 A2986 RMK AO2 RAB34 SLP105 P0000 T01940161 $=
202302170552 METAR KATL 170552Z 19015G21KT 10SM BKN022 BKN090 OVC150 20/16 A2990 RMK AO2 RAB11E36 SLP119 P0000 60000 T02000156 10217 20194 56016 $=
202302170452 METAR KATL 170452Z 18013G19KT 10SM SCT025 BKN060 OVC150 20/15 A2990 RMK AO2 SLP120 T02000150 402330122 $=
202302170352 METAR KATL 170352Z 18015G24KT 10SM FEW040 BKN070 OVC150 21/14 A2993 RMK AO2 SLP129 T02060144 $=
202302170252 METAR KATL 170252Z 17010KT 10SM BKN040 BKN080 OVC200 21/14 A2995 RMK AO2 SLP137 T02060139 56009=
202302170152 METAR KATL 170152Z 17008KT 10SM SCT045 BKN060 OVC250 21/14 A2997 RMK AO2 SLP143 T02110139=
202302170052 METAR KATL 170052Z 15006KT 10SM SCT070 BKN090 OVC250 21/14 A2996 RMK AO2 SLP141 T02110139=
202302162352 METAR KATL 162352Z 18005KT 10SM BKN070 BKN150 OVC250 22/14 A2998 RMK AO2 SLP147 T02170139 10233 20211 58004=
202302162252 METAR KATL 162252Z 18008KT 10SM FEW040 BKN080 BKN150 OVC200 22/14 A2999 RMK AO2 SLP151 T02220139=
202302162152 METAR KATL 162152Z 18009KT 10SM FEW040 SCT070 BKN180 OVC250 23/14 A2999 RMK AO2 SLP150 VIRGA NE-SE T02280139=
202302162052 METAR KATL 162052Z 19010G18KT 10SM FEW040 FEW070 BKN180 BKN250 23/14 A2999 RMK AO2 SLP151 VIRGA NE-SE-SW T02330139 56025=
202302161952 METAR KATL 161952Z 20010G17KT 10SM FEW036 SCT060 BKN200 BKN250 23/14 A3001 RMK AO2 SLP156 MDT CU DSNT NE-E T02330139=
202302161852 METAR KATL 161852Z 21014G22KT 10SM SCT035 BKN055 BKN200 BKN250 23/14 A3004 RMK AO2 SLP167 MDT CU ALQDS T02280144=
202302161752 METAR KATL 161752Z 23009G17KT 10SM SCT026 BKN038 BKN060 BKN200 21/14 A3007 RMK AO2 SLP177 MDT CU NE-OHD-SW T02110144 10211 20122 58011=
202302161702 SPECI KATL 161702Z 21011KT 10SM BKN022 BKN030 OVC050 20/15 A3010 RMK AO2 BINOVC T02000150=
202302161652 METAR KATL 161652Z 21008G16KT 160V230 10SM SCT022 BKN030 OVC055 21/15 A3010 RMK AO2 SLP190 MDT CU NE-SE BINOVC T02060150=
202302161628 SPECI KATL 161628Z 21010KT 10SM BKN023 OVC050 19/15 A3011 RMK AO2 T01940150=
202302161552 METAR KATL 161552Z 21010KT 10SM SCT021 OVC048 19/14 A3011 RMK AO2 SLP191 BINOVC T01940144=
202302161521 SPECI KATL 161521Z 19010KT 10SM SCT021 BKN048 BKN180 BKN250 18/14 A3010 RMK AO2 T01830144=
202302161452 METAR KATL 161452Z 15005KT 6SM HZ BKN020 BKN036 BKN180 BKN250 16/13 A3010 RMK AO2 SLP191 T01610133 53013=
202302161352 METAR KATL 161352Z 12005KT 6SM BR FEW007 BKN017 OVC030 14/12 A3009 RMK AO2 SLP186 BINOVC T01390122=
202302161321 SPECI KATL 161321Z 09004KT 7SM BKN020 BKN035 BKN250 14/12 A3008 RMK AO2 T01390122=
202302161252 METAR KATL 161252Z 12003KT 7SM SCT035 BKN200 BKN250 13/12 A3007 RMK AO2 SLP180 T01280117=
202302161152 METAR KATL 161152Z 13005KT 10SM FEW035 FEW250 13/12 A3006 RMK AO2 SLP178 70001 T01280117 10150 20128 58002=
202302161052 METAR KATL 161052Z 00000KT 9SM BKN035 13/12 A3008 RMK AO2 SLP183 T01330122=
202302160952 METAR KATL 160952Z 11004KT 9SM SCT036 SCT250 13/12 A3007 RMK AO2 SLP182 T01280117=
202302160852 METAR KATL 160852Z 12004KT 9SM FEW007 FEW035 13/12 A3007 RMK AO2 SLP180 T01330117 58012=
202302160752 METAR KATL 160752Z 13005KT 10SM BKN035 BKN250 14/12 A3008 RMK AO2 SLP184 T01390122=
202302160652 METAR KATL 160652Z 13004KT 10SM BKN034 BKN250 14/13 A3010 RMK AO2 SLP190 T01440128=
202302160552 METAR KATL 160552Z 14005KT 10SM SCT250 15/12 A3011 RMK AO2 SLP192 T01500122 10172 20133 58013=
202302160452 METAR KATL 160452Z 11006KT 10SM FEW090 FEW250 14/12 A3012 RMK AO2 SLP198 T01440122 401780122=
202302160352 METAR KATL 160352Z 14003KT 10SM FEW040 FEW250 15/13 A3014 RMK AO2 SLP203 T01500128=
202302160252 METAR KATL 160252Z 08007KT 10SM FEW038 SCT090 BKN250 15/13 A3015 RMK AO2 SLP206 T01500128 53004=
202302160152 METAR KATL 160152Z 09006KT 10SM FEW040 BKN060 BKN090 OVC250 16/13 A3014 RMK AO2 SLP204 T01560133=
202302160052 METAR KATL 160052Z 09006KT 10SM BKN042 OVC070 17/14 A3013 RMK AO2 SLP201 T01670139=
202302152352 METAR KATL 152352Z 06005KT 9SM BKN045 OVC100 17/13 A3013 RMK AO2 SLP201 60001 T01720133 10178 20150 53004=
202302152252 METAR KATL 152252Z 08005KT 9SM BKN040 OVC060 17/13 A3013 RMK AO2 SLP200 T01720133=
202302152152 METAR KATL 152152Z 06005KT 9SM BKN041 OVC060 17/13 A3012 RMK AO2 RAB07E21 SLP198 P0000 T01720133=
202302152052 METAR KATL 152052Z 06003KT 10SM BKN038 OVC055 18/13 A3012 RMK AO2 SLP198 60001 T01780133 55006=
202302151952 METAR KATL 151952Z 00000KT 10SM OVC042 17/13 A3011 RMK AO2 RAE1858 SLP195 P0000 T01720133=
202302151852 METAR KATL 151852Z 13004KT 8SM -RA FEW016 BKN042 OVC060 16/13 A3012 RMK AO2 RAB08E20B48 SLP198 P0001 T01610128=
202302151752 METAR KATL 151752Z 14005KT 10SM FEW018 BKN042 OVC060 16/12 A3014 RMK AO2 RAB04E16 SLP204 SHRA SW P0000 60000 T01560117 10156 20128 58004=
202302151652 METAR KATL 151652Z 14004KT 10SM FEW016 BKN038 OVC060 14/10 A3016 RMK AO2 SLP211 SHRA SW-NW-NE T01390100=
202302151552 METAR KATL 151552Z 14004KT 10SM FEW018 BKN040 OVC060 13/09 A3016 RMK AO2 RAE10 SLP210 SHRA VC SW-NW-NE-E P0000 T01330094=
202302151452 METAR KATL 151452Z 13004KT 8SM -RA FEW020 BKN037 OVC055 13/09 A3015 RMK AO2 RAB44 SLP208 BINOVC P0000 60000 T01330089 51016=
202302151352 METAR KATL 151352Z 17004KT 10SM FEW025 BKN042 BKN050 13/08 A3014 RMK AO2 SLP204 SHRA NE T01330083=
202302151252 METAR KATL 151252Z 19004KT 10SM BKN037 13/08 A3012 RMK AO2 SLP199 SHRA N-NE T01280083=
202302151152 METAR KATL 151152Z 19004KT 10SM BKN040 OVC055 13/07 A3010 RMK AO2 SLP191 T01280072 10144 20122 53013 $=
202302151052 METAR KATL 151052Z 19005KT 10SM BKN060 BKN075 13/07 A3009 RMK AO2 SLP186 T01280067 $=
202302150952 METAR KATL 150952Z 18003KT 10SM BKN065 BKN150 13/06 A3006 RMK AO2 SLP177 T01280056 $=
202302150852 METAR KATL 150852Z 18007KT 10SM BKN065 BKN150 BKN250 13/04 A3006 RMK AO2 SLP177 T01280044 53003 $=
202302150752 METAR KATL 150752Z 22006KT 10SM FEW070 SCT150 SCT250 13/03 A3006 RMK AO2 SLP176 T01330033 $=
202302150652 METAR KATL 150652Z 19009KT 10SM FEW070 FEW150 SCT180 SCT250 13/03 A3005 RMK AO2 SLP173 T01330028 $=
202302150552 METAR KATL 150552Z 18011KT 10SM SCT150 SCT250 14/02 A3005 RMK AO2 SLP173 T01440017 10178 20144 58004=
202302150452 METAR KATL 150452Z 17008KT 10SM BKN150 BKN250 15/03 A3007 RMK AO2 SLP180 T01500028 402110050=
202302150352 METAR KATL 150352Z 16007KT 10SM BKN150 BKN250 16/03 A3006 RMK AO2 SLP177 T01560028=
202302150252 METAR KATL 150252Z 14006KT 10SM SCT150 BKN250 16/03 A3007 RMK AO2 SLP180 T01560028 53005=
202302150152 METAR KATL 150152Z 15008KT 10SM FEW150 SCT250 17/03 A3006 RMK AO2 SLP178 T01670028=
202302150052 METAR KATL 150052Z 15008KT 10SM FEW160 SCT250 17/03 A3005 RMK AO2 SLP177 T01670033=
202302142352 METAR KATL 142352Z 14007KT 10SM BKN160 BKN250 18/03 A3005 RMK AO2 SLP176 ACC OHD-ALQDS T01780028 10211 20178 51012=
202302142252 METAR KATL 142252Z 16007KT 10SM FEW120 SCT150 BKN250 19/02 A3005 RMK AO2 SLP176 T01940022=
202302142152 METAR KATL 142152Z 14009KT 10SM FEW110 FEW170 SCT200 BKN250 21/03 A3003 RMK AO2 SLP169 T02060028=
202302142052 METAR KATL 142052Z 16009G18KT 10SM FEW180 SCT200 BKN250 21/02 A3002 RMK AO2 SLP163 T02060022 55011=
202302141952 METAR KATL 141952Z 14011G18KT 10SM FEW170 SCT200 BKN250 21/03 A3001 RMK AO2 SLP161 T02060028=
202302141852 METAR KATL 141852Z 18008G16KT 10SM FEW140 SCT200 BKN250 20/02 A3004 RMK AO2 SLP170 T02000022=
202302141752 METAR KATL 141752Z 16010G19KT 10SM FEW130 SCT200 BKN250 19/02 A3005 RMK AO2 SLP173 ACC NE NW T01940017 10194 20050 58009 $=
202302141652 METAR KATL 141652Z 13009G18KT 10SM FEW130 SCT200 BKN250 17/03 A3008 RMK AO2 SLP184 ACC W T01720028=
202302141552 METAR KATL 141552Z 16006KT 10SM FEW140 SCT200 BKN250 16/03 A3009 RMK AO2 SLP188 ACC SW T01610033=
202302141452 METAR KATL 141452Z 13005KT 10SM FEW150 SCT200 BKN250 13/04 A3008 RMK AO2 SLP184 T01330044 51016=
202302141352 METAR KATL 141352Z 00000KT 10SM SCT200 BKN250 11/02 A3007 RMK AO2 SLP182 T01060022=
202302141252 METAR KATL 141252Z 00000KT 10SM FEW150 SCT200 SCT250 06/02 A3005 RMK AO2 SLP178 T00610017=
202302141152 METAR KATL 141152Z 00000KT 10SM FEW250 06/01 A3003 RMK AO2 SLP169 T00610006 10100 20050 50003=
202302141052 METAR KATL 141052Z 00000KT 10SM FEW250 06/01 A3003 RMK AO2 SLP170 T00560011=
202302140952 METAR KATL 140952Z 00000KT 10SM FEW250 05/01 A3002 RMK AO2 SLP167 T00500011 $=
202302140852 METAR KATL 140852Z 00000KT 10SM FEW250 06/01 A3002 RMK AO2 SLP165 T00610011 55000 $=
202302140752 METAR KATL 140752Z 30003KT 10SM FEW250 08/00 A3002 RMK AO2 SLP163 T00830000 $=
202302140652 METAR KATL 140652Z 32004KT 10SM FEW250 09/M01 A3001 RMK AO2 SLP162 T00941006=
202302140552 METAR KATL 140552Z 30004KT 10SM FEW250 09/00 A3002 RMK AO2 SLP165 T00940000 10144 20089 58001=
202302140452 METAR KATL 140452Z 28005KT 10SM FEW250 09/00 A3003 RMK AO2 SLP167 T00940000 401890033=
202302140352 METAR KATL 140352Z 00000KT 10SM FEW250 11/M01 A3003 RMK AO2 SLP169 T01061006=
202302140252 METAR KATL 140252Z 28003KT 10SM SCT250 12/M02 A3002 RMK AO2 SLP167 T01171017 51012=
202302140152 METAR KATL 140152Z 28006KT 10SM SCT250 12/M02 A3001 RMK AO2 SLP164 T01171017=
202302140052 METAR KATL 140052Z 30006KT 10SM SCT250 13/M02 A3000 RMK AO2 SLP163 T01281022=
202302132352 METAR KATL 132352Z 27006KT 10SM SCT250 14/M03 A2999 RMK AO2 SLP155 T01441033 10189 20144 53012=
202302132252 METAR KATL 132252Z 28010KT 10SM FEW250 17/M04 A2997 RMK AO2 SLP149 T01671039=
202302132152 METAR KATL 132152Z 27010KT 10SM FEW250 18/M03 A2995 RMK AO2 SLP141 T01831028=
202302132052 METAR KATL 132052Z 26011KT 10SM FEW250 18/M03 A2995 RMK AO2 SLP143 T01831028 56018=
202302131952 METAR KATL 131952Z 27009G16KT 230V290 10SM FEW250 18/M02 A2997 RMK AO2 SLP149 T01831017=
202302131852 METAR KATL 131852Z 27006KT 10SM FEW200 FEW250 17/M06 A2998 RMK AO2 SLP153 T01721056=
202302131752 METAR KATL 131752Z 29013KT 10SM FEW200 FEW250 16/M05 A3001 RMK AO2 SLP161 T01611050 10161 20033 58014=
202302131652 METAR KATL 131652Z 31012KT 10SM FEW055 FEW200 14/M05 A3003 RMK AO2 SLP170 T01441050=
202302131552 METAR KATL 131552Z 30011G20KT 10SM FEW140 FEW250 13/M03 A3003 RMK AO2 SLP173 T01281028=
202302131452 METAR KATL 131452Z 30009KT 10SM FEW140 FEW250 09/M01 A3005 RMK AO2 SLP178 T00891006 53018=
202302131352 METAR KATL 131352Z 29011KT 10SM FEW150 07/M01 A3003 RMK AO2 SLP175 T00671011=
202302131252 METAR KATL 131252Z 30010KT 10SM FEW150 04/M01 A3000 RMK AO2 SLP164 T00391011=
202302131152 METAR KATL 131152Z 30009KT 10SM CLR 04/M01 A2999 RMK AO2 SLP161 70003 T00391006 10056 20033 53012=
202302131052 METAR KATL 131052Z 31007KT 10SM CLR 03/M01 A2997 RMK AO2 SLP155 T00331006=
202302130952 METAR KATL 130952Z 30011KT 10SM CLR 04/00 A2996 RMK AO2 SLP151 T00390000 $=
202302130852 METAR KATL 130852Z 32007KT 10SM CLR 04/00 A2996 RMK AO2 SLP148 T00390000 50000 $=
202302130752 METAR KATL 130752Z 31008KT 10SM CLR 04/00 A2996 RMK AO2 SLP150 T00440000 $=
202302130652 METAR KATL 130652Z 31010KT 10SM CLR 05/01 A2996 RMK AO2 SLP148 T00500006 $=
202302130552 METAR KATL 130552Z 31009KT 10SM CLR 05/01 A2995 RMK AO2 SLP148 T00500011 10067 20044 56004 $=
202302130452 METAR KATL 130452Z 30008KT 10SM CLR 05/02 A2996 RMK AO2 SLP150 T00500017 400890050 $=
202302130352 METAR KATL 130352Z 31010KT 10SM CLR 05/02 A2995 RMK AO2 SLP146 T00500022 $=
202302130252 METAR KATL 130252Z 30011KT 10SM CLR 06/03 A2997 RMK AO2 SLP151 T00560028 51018 $=
202302130152 METAR KATL 130152Z 30008KT 10SM FEW015 06/03 A2994 RMK AO2 SLP144 T00560028 $=
202302130132 SPECI KATL 130132Z 31010KT 10SM FEW015 06/03 A2994 RMK AO2 T00610028 $=
202302130052 METAR KATL 130052Z 31017KT 10SM BKN014 BKN020 07/03 A2993 RMK AO2 SLP141 T00670033 $=
202302122352 METAR KATL 122352Z 32015G21KT 10SM BKN013 BKN020 06/03 A2991 RMK AO2 SLP133 60000 T00610033 10089 20061 53021 $=
202302122252 METAR KATL 122252Z 29012KT 10SM BKN010 OVC015 06/03 A2988 RMK AO2 SLP123 T00610033 $=
202302122152 METAR KATL 122152Z 30013KT 10SM OVC010 06/04 A2986 RMK AO2 DZE17 SLP117 P0000 T00610039 $=
202302122052 METAR KATL 122052Z 28013G21KT 7SM -DZ BKN013 OVC023 07/04 A2985 RMK AO2 DZB45 SLP111 P0000 60000 T00670044 53007 $=
202302122015 SPECI KATL 122015Z 30012G20KT 10SM OVC014 08/04 A2985 RMK AO2 T00780044 $=
202302121952 METAR KATL 121952Z 29013G19KT 10SM BKN017 OVC023 08/04 A2984 RMK AO2 RAE42 SLP107 P0000 T00830044 $=
202302121852 METAR KATL 121852Z 30011KT 10SM -RA FEW012 BKN017 OVC035 09/06 A2982 RMK AO2 RAB51 SLP100 P0000 T00890056 $=
202302121752 METAR KATL 121752Z 34008KT 10SM FEW012 BKN018 OVC033 08/04 A2983 RMK AO2 SLP104 60003 T00780044 10078 20061 55002 $=
202302121739 SPECI KATL 121739Z 33010KT 10SM SCT011 BKN018 OVC030 08/04 A2983 RMK AO2 T00780044 $=
202302121702 SPECI KATL 121702Z 35007KT 10SM SCT008 BKN011 OVC025 07/05 A2982 RMK AO2 BINOVC T00720050 $=
202302121652 METAR KATL 121652Z 33007KT 10SM BKN009 OVC013 07/04 A2983 RMK AO2 DZE22 SLP104 P0000 T00670044 $=
202302121644 SPECI KATL 121644Z 33008KT 10SM BKN008 OVC012 07/04 A2983 RMK AO2 DZE22 P0000 T00670044 $=
202302121552 METAR KATL 121552Z 36008KT 4SM -DZ BR SCT008 BKN014 OVC020 07/05 A2983 RMK AO2 RAB16E26DZB31 SLP104 VIS NW 2 1/2 P0000 T00670050 $=
202302121531 SPECI KATL 121531Z 33010KT 5SM -DZ BR BKN008 OVC020 07/04 A2983 RMK AO2 RAB16E26DZB31 P0000 T00670044 $=
202302121508 SPECI KATL 121508Z 35008KT 10SM BKN011 OVC021 07/04 A2984 RMK AO2 T00670039 $=
202302121452 METAR KATL 121452Z 36008KT 10SM BKN009 OVC022 07/04 A2983 RMK AO2 RAE32 SLP106 P0000 60003 T00670044 51018 $=
202302121432 SPECI KATL 121432Z 02007KT 9SM BKN007 BKN020 OVC036 07/04 A2982 RMK AO2 RAE32 P0000 T00670044 $=
202302121404 SPECI KATL 121404Z 02008KT 7SM -RA SCT008 BKN017 BKN100 06/04 A2982 RMK AO2 BKN008 V SCT BINOVC P0000 T00610044 $=
202302121352 METAR KATL 121352Z 03008KT 6SM -RA BR BKN008 BKN013 OVC019 06/04 A2982 RMK AO2 SLP102 BKN008 V SCT BINOVC P0002 T00610044 $=
202302121252 METAR KATL 121252Z 05007KT 6SM -RA BR OVC006 06/05 A2980 RMK AO2 SLP095 CIG 005V008 P0001 T00610050 $=
202302121152 METAR KATL 121152Z 08006KT 6SM -RA BR OVC005 06/05 A2978 RMK AO2 RAB24 SLP087 CIG 004V006 P0000 60008 70057 T00610050 10061 20056 55002 $=
202302121052 METAR KATL 121052Z 09010KT 6SM BR OVC006 06/05 A2976 RMK AO2 RAE04B26E43 SLP081 CIG 005V007 P0000 T00610050 $=
202302120952 METAR KATL 120952Z 06009KT 5SM -RA BR BKN008 OVC012 06/04 A2977 RMK AO2 RAB44 SLP082 CIG 007V010 P0000 T00610044 $=
202302120852 METAR KATL 120852Z 10010G15KT 6SM BR BKN007 OVC012 06/04 A2978 RMK AO2 RAB01E23 SLP089 CIG 006V010 P0000 60008 T00610044 50006 $=
202302120752 METAR KATL 120752Z 12009G21KT 6SM BR BKN006 OVC014 06/04 A2980 RMK AO2 RAE49 SLP094 CIG 005V009 P0004 T00610044 $=
202302120711 SPECI KATL 120711Z 09013G19KT 3SM -RA BR BKN006 OVC011 06/04 A2979 RMK AO2 P0002 T00560044 $=
202302120652 METAR KATL 120652Z 10012G18KT 2SM RA BR BKN006 OVC013 06/04 A2980 RMK AO2 PK WND 08029/0602 SLP094 CIG 005V008 P0004 T00560044 $=
202302120648 SPECI KATL 120648Z 10010G18KT 2SM -RA BR BKN008 OVC013 06/04 A2980 RMK AO2 PK WND 08029/0602 CIG 007V009 P0004 $=
202302120552 METAR KATL 120552Z 07019G31KT 4SM -RA BR BKN008 OVC012 06/04 A2977 RMK AO2 PK WND 07034/0516 SLP082 CIG 007V009 P0000 60019 T00560044 10067 20056 58043 $=
202302120452 METAR KATL 120452Z 07023G35KT 3SM -RA BR BKN008 OVC012 06/04 A2981 RMK AO2 PK WND 06035/0444 SLP095 CIG 007V009 P0001 T00560044 401390056 $=
202302120419 SPECI KATL 120419Z 07021G31KT 4SM -RA BR BKN007 OVC012 06/04 A2983 RMK AO2 PK WND 07033/0408 CIG 006V008 P0000 T00560039 $=
202302120352 METAR KATL 120352Z 07025G37KT 6SM BR FEW008 BKN011 OVC015 06/04 A2986 RMK AO2 PK WND 07041/0313 RAE48 SLP113 P0001 T00560039 $=
202302120323 SPECI KATL 120323Z 07024G37KT 5SM -RA BR FEW008 BKN011 OVC015 06/04 A2988 RMK AO2 PK WND 07041/0313 P0001 T00560039 $=
202302120252 METAR KATL 120252Z 07022G35KT 5SM -RA BR BKN009 OVC013 06/04 A2990 RMK AO2 PK WND 06035/0232 PRESFR SLP126 P0001 60017 T00560039 56031 $=
202302120250 SPECI KATL 120250Z 07025G35KT 5SM -RA BR BKN009 OVC013 06/04 A2990 RMK AO2 PK WND 06035/0232 P0001 $=
202302120237 SPECI KATL 120237Z 07022G35KT 2SM -RA BR BKN009 OVC013 06/04 A2992 RMK AO2 PK WND 06035/0232 SFC VIS 4 P0001 T00560039 $=
202302120152 METAR KATL 120152Z 08024G32KT 2SM -RA BKN010 OVC015 06/04 A2993 RMK AO2 PK WND 07042/0112 SFC VIS 7 SLP137 P0006 T00560039 $=
202302120052 METAR KATL 120052Z 07028G41KT 2SM -RA BR SCT010 BKN014 OVC025 06/04 A2994 RMK AO2 PK WND 06041/0044 SFC VIS 4 SLP141 P0010 T00610039 $=
202302120033 SPECI KATL 120033Z 07024G38KT 2SM RA BR BKN012 BKN017 OVC027 06/04 A2996 RMK AO2 PK WND 07038/0029 SFC VIS 3 P0007 T00610044 $=
202302112352 METAR KATL 112352Z 07023G33KT 2SM +RA BR SCT013 BKN018 OVC050 07/04 A2999 RMK AO2 PK WND 06034/2310 SFC VIS 4 SLP159 P0007 60027 T00670044 10106 20067 55017 $=
202302112334 SPECI KATL 112334Z 06019G32KT 2SM RA BR SCT015 BKN020 OVC030 07/04 A2998 RMK AO2 PK WND 06034/2310 SFC VIS 4 P0005 T00670044 $=
202302112252 METAR KATL 112252Z 07020G27KT 7SM -RA SCT012 BKN030 OVC085 07/04 A2999 RMK AO2 PK WND 07030/2159 SLP158 P0000 T00720044 $=
202302112152 METAR KATL 112152Z 07018G27KT 9SM -RA FEW012 SCT036 OVC080 08/04 A3001 RMK AO2 PK WND 08028/2142 SLP165 P0007 T00780044 $=
202302112052 METAR KATL 112052Z 07019G26KT 3SM +RA FEW035 OVC055 08/04 A3004 RMK AO2 PK WND 06026/2051 TWR VIS 4 SLP176 P0011 60013 T00780044 56032 $=
202302111952 METAR KATL 111952Z 07013KT 7SM -RA BKN037 OVC080 09/03 A3009 RMK AO2 SLP189 P0001 T00940033=
202302111852 METAR KATL 111852Z 07014G23KT 9SM -RA FEW048 OVC090 10/04 A3009 RMK AO2 SLP188 P0001 T01000044=
202302111752 METAR KATL 111752Z 08011KT 9SM -RA FEW055 OVC075 11/04 A3014 RMK AO2 RAB14 SLP207 P0003 60003 T01060044 10139 20106 56016=
202302111652 METAR KATL 111652Z 08013KT 10SM FEW080 BKN110 OVC200 13/00 A3015 RMK AO2 PK WND 08027/1602 SLP210 VIRGA OHD-ALQDS T01280000=
202302111552 METAR KATL 111552Z 08020G31KT 10SM SCT100 BKN140 OVC200 13/01 A3014 RMK AO2 PK WND 08031/1548 SLP205 VIRGA OHD-NE-SE-SW T01280011=
202302111452 METAR KATL 111452Z 09014KT 10SM BKN100 OVC180 13/02 A3019 RMK AO2 SLP222 VIRGA OHD-ALQDS T01280022 53029=
202302111352 METAR KATL 111352Z 09013G20KT 10SM FEW100 BKN130 OVC180 13/02 A3016 RMK AO2 SLP212 VIRGA OHD-ALQDS T01280022=
202302111252 METAR KATL 111252Z 07009KT 10SM FEW080 FEW120 BKN150 BKN180 OVC250 12/03 A3012 RMK AO2 SLP201 VIRGA S-W-N T01220028=
202302111152 METAR KATL 111152Z 06010KT 10SM FEW080 FEW120 SCT180 BKN250 11/03 A3010 RMK AO2 SLP192 T01110028 10117 20100 58000=
202302111052 METAR KATL 111052Z 01008KT 10SM FEW080 FEW120 SCT180 OVC220 10/03 A3010 RMK AO2 SLP193 BINOVC T01000028=
202302110952 METAR KATL 110952Z 35008KT 10SM FEW025 FEW085 SCT120 OVC180 10/03 A3010 RMK AO2 SLP193 T01000028=
202302110852 METAR KATL 110852Z 32007KT 10SM FEW085 SCT120 OVC150 10/03 A3010 RMK AO2 SLP192 T01000028 58010=
202302110752 METAR KATL 110752Z 36009KT 10SM FEW085 OVC120 11/02 A3010 RMK AO2 SLP193 T01060022=
202302110652 METAR KATL 110652Z 33007KT 10SM FEW085 BKN120 OVC150 11/02 A3013 RMK AO2 SLP202 T01060022=
202302110552 METAR KATL 110552Z 01006KT 10SM FEW085 BKN110 OVC150 11/03 A3013 RMK AO2 SLP202 VIRGA OHD-ALQDS T01110028 10133 20111 58012=
202302110452 METAR KATL 110452Z 32008KT 10SM BKN085 OVC120 12/03 A3016 RMK AO2 SLP212 VIRGA OHD-ALQDS T01170028 401610094=
202302110352 METAR KATL 110352Z 34005KT 10SM BKN120 OVC150 12/03 A3015 RMK AO2 SLP212 VIRGA OHD-ALQDS T01170028=
202302110252 METAR KATL 110252Z 33006KT 10SM BKN140 OVC200 12/03 A3017 RMK AO2 SLP217 VIRGA OHD-ALQDS T01220028 50010=
202302110152 METAR KATL 110152Z 32008KT 10SM BKN150 OVC200 12/03 A3018 RMK AO2 SLP220 VIRGA OHD-ALQDS T01220033=
202302110052 METAR KATL 110052Z 32009KT 10SM SCT150 BKN180 OVC250 13/03 A3016 RMK AO2 SLP213 VIRGA ALQDS T01280033=
202302102352 METAR KATL 102352Z 32008KT 10SM FEW120 BKN160 OVC200 13/03 A3014 RMK AO2 SLP206 VIRGA OHD-ALQDS T01330033 10161 20133 53005=
202302102252 METAR KATL 102252Z 34011KT 10SM FEW110 BKN160 OVC200 14/04 A3012 RMK AO2 SLP201 VIRGA OHD-ALQDS T01390039=
202302102152 METAR KATL 102152Z 33010KT 10SM FEW110 BKN160 OVC200 14/04 A3011 RMK AO2 SLP198 VIRGA OHD-ALQDS T01390044=
202302102052 METAR KATL 102052Z 31008G19KT 10SM SCT150 BKN200 15/04 A3012 RMK AO2 SLP198 T01500039 55006=
202302101952 METAR KATL 101952Z 31010KT 10SM FEW100 SCT150 BKN200 16/05 A3011 RMK AO2 SLP194 T01610050=
202302101852 METAR KATL 101852Z 31008KT 10SM BKN100 BKN200 15/05 A3013 RMK AO2 SLP203 T01500050=
202302101752 METAR KATL 101752Z 31008KT 10SM FEW065 SCT090 BKN250 15/06 A3014 RMK AO2 SLP204 ACC DSNT E T01500056 10150 20094 58006=
202302101652 METAR KATL 101652Z 28008KT 10SM BKN065 OVC100 12/06 A3015 RMK AO2 SLP211 VIRGA DSNT E S T01220061=
202302101552 METAR KATL 101552Z 31008KT 10SM SCT060 BKN100 BKN250 11/06 A3015 RMK AO2 SLP211 VIRGA OHD-S-SW T01110061=
202302101452 METAR KATL 101452Z 33009KT 10SM SCT060 BKN100 BKN250 11/06 A3016 RMK AO2 SLP212 T01060061 51010=
202302101352 METAR KATL 101352Z 32009KT 10SM SCT080 BKN100 BKN250 09/07 A3015 RMK AO2 SLP211 T00940067=
202302101252 METAR KATL 101252Z 31009KT 10SM BKN060 BKN090 BKN250 09/07 A3015 RMK AO2 SLP210 SHRA S T00940067=
202302101152 METAR KATL 101152Z 28003KT 10SM BKN060 BKN095 10/08 A3012 RMK AO2 SLP199 60007 70009 T01000083 10117 20100 53006=
202302101052 METAR KATL 101052Z 33008KT 10SM SCT060 SCT090 11/09 A3010 RMK AO2 SLP192 T01060089=
202302100952 METAR KATL 100952Z 31008KT 10SM BKN055 BKN085 BKN100 11/10 A3010 RMK AO2 SLP191 T01110100=
202302100852 METAR KATL 100852Z 27004KT 10SM FEW049 SCT060 BKN075 11/10 A3010 RMK AO2 RAB01E42 SLP191 P0003 60007 T01110100 58006=
202302100752 METAR KATL 100752Z 00000KT 10SM FEW020 BKN037 BKN045 12/10 A3011 RMK AO2 RAE48 SLP192 P0000 T01170100=
202302100652 METAR KATL 100652Z 29005KT 10SM -RA FEW028 BKN037 OVC046 11/10 A3012 RMK AO2 SLP198 P0004 T01110100=
202302100649 SPECI KATL 100649Z 28003KT 10SM -RA FEW028 BKN037 OVC046 11/10 A3012 RMK AO2 P0004=
202302100552 METAR KATL 100552Z 00000KT 8SM -RA FEW015 BKN028 OVC040 12/09 A3012 RMK AO2 RAB0455 SLP198 P0002 60002 T01170094 10183 20111 58004=
202302100452 METAR KATL 100452Z 28004KT 8SM FEW015 BKN026 OVC040 12/09 A3014 RMK AO2 RAE52 SLP202 P0000 T01170089 402060117=
202302100352 METAR KATL 100352Z 29010G21KT 5SM -RA BR FEW008 BKN022 OVC035 12/10 A3014 RMK AO2 RAB27 SLP203 P0000 T01220100=
202302100252 METAR KATL 100252Z 28011KT 10SM FEW008 BKN016 OVC025 14/12 A3013 RMK AO2 RAE24 SLP202 CB DSNT NW-NE P0000 60000 T01440122 51018=
202302100152 METAR KATL 100152Z 26008KT 7SM -RA SCT008 BKN014 OVC025 16/14 A3011 RMK AO2 LTG DSNT N RAE04B47 SLP194 CB DSNT NW-NE P0000 T01610144=
202302100052 METAR KATL 100052Z 26009KT 5SM -RA BR SCT006 BKN013 OVC025 17/16 A3010 RMK AO2 RAE03B27 SLP190 P0000 T01720161=
202302100044 SPECI KATL 100044Z 26007KT 3SM -RA BR SCT009 BKN013 OVC025 18/16 A3010 RMK AO2 RAE03B27 P0000 T01780161=
202302100028 SPECI KATL 100028Z 24008KT 7SM -RA BKN014 OVC030 18/16 A3009 RMK AO2 RAE03B27 P0000 T01830156=
202302092352 METAR KATL 092352Z 22004KT 9SM -RA BKN018 OVC030 18/15 A3008 RMK AO2 RAE00B26 SLP182 P0000 60000 T01830150 10206 20183 53003=
202302092252 METAR KATL 092252Z 21007KT 10SM -RA BKN022 BKN030 OVC055 19/15 A3008 RMK AO2 RAB50 SLP180 P0000 T01940150=
202302092244 SPECI KATL 092244Z 22008G16KT 10SM BKN023 BKN030 OVC055 19/15 A3008 RMK AO2 SHRA SW-NW-NE T01940150=
202302092152 METAR KATL 092152Z 21006KT 10SM SCT028 BKN036 OVC060 20/14 A3008 RMK AO2 SLP180 T02000144=
202302092114 SPECI KATL 092114Z 24011G18KT 10SM SCT028 OVC036 21/14 A3007 RMK AO2 T02060144=
202302092052 METAR KATL 092052Z 22007G15KT 10SM BKN028 OVC038 21/14 A3007 RMK AO2 SLP178 T02060144 56009=
202302091952 METAR KATL 091952Z 22013G21KT 10SM BKN031 OVC055 21/14 A3008 RMK AO2 SLP180 BINOVC T02060139=
202302091852 METAR KATL 091852Z 20013G25KT 10SM SCT026 BKN044 BKN080 BKN200 20/14 A3008 RMK AO2 SLP180 T02000139=
202302091752 METAR KATL 091752Z 20009G17KT 10SM FEW024 SCT075 BKN100 OVC200 19/14 A3010 RMK AO2 SLP188 ACC N-E-SE SW-NW 60000 T01890139 10189 20150 50005=
202302091652 METAR KATL 091652Z 19009KT 10SM FEW020 BKN090 BKN150 OVC200 17/13 A3012 RMK AO2 SLP194 VIRGA SE-S ACC N-E SW T01720128=
202302091552 METAR KATL 091552Z 22012KT 10SM FEW018 SCT060 BKN095 OVC200 17/13 A3013 RMK AO2 WSHFT 1446 RAE01 SLP200 VIRGA NE-SE-S ACC W-N P0000 T01720128=
202302091502 SPECI KATL 091502Z 23009G19KT 10SM FEW020 SCT050 BKN095 OVC200 17/12 A3014 RMK AO2 WSHFT 1446 RAE01 PRESRR P0000 T01670122=
202302091452 METAR KATL 091452Z 19011G23KT 10SM -RA FEW016 SCT045 BKN100 OVC200 17/12 A3009 RMK AO2 RAB44 SLP184 PCPN VRY LGT P0000 60000 T01670122 58026=
202302091352 METAR KATL 091352Z 16009G20KT 10SM FEW045 BKN095 OVC120 16/12 A3011 RMK AO2 RAE1259 SLP192 BINOVC P0000 T01560122=
202302091252 METAR KATL 091252Z 17009KT 10SM -RA SCT047 SCT070 OVC095 15/12 A3016 RMK AO2 RAB29 SLP209 BINOVC P0000 T01500122=
202302091152 METAR KATL 091152Z 19006KT 10SM FEW047 FEW085 BKN100 16/12 A3017 RMK AO2 SLP211 T01560117 10172 20150 53003=
202302091052 METAR KATL 091052Z 17008KT 10SM BKN090 BKN120 16/12 A3015 RMK AO2 SLP205 T01560117=
202302090952 METAR KATL 090952Z 15006KT 10SM FEW095 SCT110 BKN250 15/11 A3014 RMK AO2 SLP202 T01500111 $=
202302090852 METAR KATL 090852Z 16006KT 10SM SCT095 SCT120 BKN250 16/11 A3016 RMK AO2 SLP207 T01560106 56001 $=
202302090752 METAR KATL 090752Z 16005KT 10SM FEW045 BKN230 16/11 A3017 RMK AO2 SLP209 T01610106 $=
202302090652 METAR KATL 090652Z 14009G15KT 10SM FEW045 BKN250 17/11 A3015 RMK AO2 SLP204 T01670111=
202302090552 METAR KATL 090552Z 15008KT 10SM BKN250 17/11 A3016 RMK AO2 SLP208 T01720111 10200 20167 56014=
202302090452 METAR KATL 090452Z 15008KT 10SM BKN250 17/12 A3016 RMK AO2 SLP209 T01720117 402280122=
202302090352 METAR KATL 090352Z 14005KT 10SM FEW200 SCT250 17/12 A3017 RMK AO2 SLP214 T01720122=
202302090252 METAR KATL 090252Z 14005KT 10SM SCT200 BKN250 18/12 A3020 RMK AO2 SLP224 T01780122 50002=
202302090152 METAR KATL 090152Z 14004KT 10SM FEW100 SCT200 BKN250 18/13 A3020 RMK AO2 SLP225 T01830128=
202302090052 METAR KATL 090052Z 13005KT 10SM BKN045 BKN200 BKN250 19/13 A3021 RMK AO2 SLP226 T01940128=
202302082352 METAR KATL 082352Z 14005KT 10SM FEW044 BKN200 BKN250 20/13 A3019 RMK AO2 SLP221 T02000128 10228 20194 55003=
202302082252 METAR KATL 082252Z 14006KT 10SM FEW045 BKN200 BKN250 22/13 A3019 RMK AO2 SLP218 T02220128=
202302082152 METAR KATL 082152Z 15006KT 10SM FEW046 FEW080 BKN200 BKN250 23/13 A3020 RMK AO2 SLP221 MDT CU DSNT E T02280128=
202302082052 METAR KATL 082052Z 15009KT 10SM FEW043 FEW080 BKN200 BKN250 22/12 A3020 RMK AO2 SLP223 T02220122 56021=
202302081952 METAR KATL 081952Z 15006KT 10SM FEW039 SCT075 BKN200 BKN250 22/12 A3022 RMK AO2 SLP228 T02220117=
202302081852 METAR KATL 081852Z 15006KT 10SM FEW038 SCT070 BKN200 BKN250 21/11 A3024 RMK AO2 SLP238 MDT CU SW W T02060111=
202302081752 METAR KATL 081752Z 18008KT 10SM SCT033 BKN065 BKN120 BKN200 19/11 A3027 RMK AO2 SLP246 T01940111 10194 20128 58007=
202302081652 METAR KATL 081652Z 19007KT 10SM BKN032 BKN070 BKN110 OVC200 18/10 A3029 RMK AO2 SLP255 MDT CU N-NE SE-SW T01780100=
202302081552 METAR KATL 081552Z 19010KT 10SM BKN031 BKN070 BKN100 OVC200 17/09 A3030 RMK AO2 SLP258 ACC SE MDT CU W T01720089=
202302081452 METAR KATL 081452Z 14004KT 8SM FEW026 BKN060 BKN100 BKN200 14/07 A3029 RMK AO2 SLP255 MDT CU SE-SW-W T01440072 50009=
202302081352 METAR KATL 081352Z 10003KT 8SM FEW024 BKN060 OVC095 14/07 A3029 RMK AO2 SLP255 BINOVC T01390067=
202302081252 METAR KATL 081252Z VRB03KT 9SM FEW024 BKN080 OVC100 13/07 A3028 RMK AO2 SLP250 BINOVC T01330067=
202302081152 METAR KATL 081152Z 00000KT 10SM FEW025 BKN060 OVC100 13/06 A3026 RMK AO2 SLP244 T01330061 10144 20128 53001=
202302081052 METAR KATL 081052Z 00000KT 10SM FEW030 BKN060 OVC090 14/06 A3025 RMK AO2 SLP242 T01390061=
202302080952 METAR KATL 080952Z 00000KT 10SM SCT030 BKN065 OVC250 14/06 A3025 RMK AO2 SLP240 T01390061=
202302080852 METAR KATL 080852Z 00000KT 10SM BKN065 OVC250 13/06 A3025 RMK AO2 SLP242 T01330056 55005=
202302080752 METAR KATL 080752Z 00000KT 10SM BKN060 BKN095 OVC250 14/06 A3025 RMK AO2 SLP241 T01390056=
202302080652 METAR KATL 080652Z 14004KT 10SM BKN070 BKN090 OVC250 14/06 A3026 RMK AO2 SLP245 T01390056=
202302080552 METAR KATL 080552Z 08004KT 10SM BKN070 OVC250 13/05 A3027 RMK AO2 SLP249 T01330050 10167 20122 58005=
202302080452 METAR KATL 080452Z 15003KT 10SM BKN070 BKN250 13/05 A3028 RMK AO2 SLP251 T01280050 402000050=
202302080352 METAR KATL 080352Z 00000KT 10SM FEW070 BKN250 13/04 A3028 RMK AO2 SLP253 T01280044=
202302080252 METAR KATL 080252Z 15004KT 10SM FEW200 BKN250 13/04 A3029 RMK AO2 SLP256 T01330044 51005=
202302080152 METAR KATL 080152Z 14003KT 10SM SCT200 BKN250 14/04 A3029 RMK AO2 SLP257 T01390044=
202302080052 METAR KATL 080052Z 00000KT 10SM FEW200 SCT250 16/04 A3029 RMK AO2 SLP258 T01560044=
202302072352 METAR KATL 072352Z 16004KT 10SM FEW200 BKN250 17/04 A3027 RMK AO2 SLP251 T01670039 10200 20167 53005=
202302072252 METAR KATL 072252Z 18005KT 10SM FEW150 SCT200 BKN250 18/04 A3026 RMK AO2 SLP247 T01830039=
202302072152 METAR KATL 072152Z 18006KT 10SM FEW070 SCT200 BKN250 19/03 A3025 RMK AO2 SLP243 T01940033=
202302072052 METAR KATL 072052Z 18007KT 10SM FEW070 SCT200 BKN250 19/03 A3025 RMK AO2 SLP244 T01940028 56021=
202302071952 METAR KATL 071952Z 16007KT 10SM SCT200 BKN250 19/03 A3026 RMK AO2 SLP245 T01940033=
202302071852 METAR KATL 071852Z 18006KT 10SM FEW030 SCT200 BKN250 19/04 A3029 RMK AO2 SLP255 FU FEW030 T01890039=
202302071752 METAR KATL 071752Z 15006KT 10SM FEW030 FEW150 SCT200 BKN250 18/04 A3032 RMK AO2 SLP266 FU FEW030 T01780039 10178 20056 58006=
202302071652 METAR KATL 071652Z 17006KT 10SM FEW150 BKN200 BKN250 16/04 A3034 RMK AO2 SLP276 T01610044=
202302071552 METAR KATL 071552Z 20006KT 10SM SCT200 BKN250 14/04 A3035 RMK AO2 SLP278 T01390039=
202302071452 METAR KATL 071452Z 13005KT 10SM BKN200 BKN250 11/02 A3034 RMK AO2 SLP274 T01060022 53021=
202302071352 METAR KATL 071352Z 12003KT 10SM FEW200 BKN250 08/01 A3031 RMK AO2 SLP268 T00830011=
202302071252 METAR KATL 071252Z 15004KT 10SM SCT250 06/00 A3029 RMK AO2 SLP259 T00610000=
202302071152 METAR KATL 071152Z 10003KT 10SM BKN250 06/M01 A3027 RMK AO2 SLP252 T00611006 10094 20050 53010=
202302071052 METAR KATL 071052Z 10004KT 10SM BKN250 05/00 A3025 RMK AO2 SLP245 T00500000=
202302070952 METAR KATL 070952Z 08004KT 10SM BKN250 07/01 A3025 RMK AO2 SLP243 T00670006=
202302070852 METAR KATL 070852Z 08003KT 10SM BKN250 07/01 A3024 RMK AO2 SLP240 T00670006 53005 $=
202302070752 METAR KATL 070752Z 08003KT 10SM BKN250 08/01 A3023 RMK AO2 SLP236 T00780006 $=
202302070652 METAR KATL 070652Z 00000KT 10SM BKN250 08/01 A3023 RMK AO2 SLP237 T00780011=
202302070552 METAR KATL 070552Z 00000KT 10SM BKN250 09/01 A3022 RMK AO2 SLP234 T00890006 10156 20083 51006=
202302070452 METAR KATL 070452Z 14004KT 10SM BKN250 09/01 A3022 RMK AO2 SLP232 T00940006 401890056=
202302070352 METAR KATL 070352Z 00000KT 10SM BKN250 09/02 A3022 RMK AO2 SLP234 T00940017=
202302070252 METAR KATL 070252Z 13004KT 10SM BKN250 11/01 A3020 RMK AO2 SLP229 T01060011 51005=
202302070152 METAR KATL 070152Z 00000KT 10SM BKN250 11/02 A3020 RMK AO2 SLP230 T01110022=
202302070052 METAR KATL 070052Z 00000KT 10SM SCT250 13/01 A3020 RMK AO2 SLP227 T01280011=
202302062352 METAR KATL 062352Z VRB04KT 10SM FEW250 14/00 A3019 RMK AO2 SLP224 T01440000 10189 20144 53005=
202302062252 METAR KATL 062252Z 31005KT 10SM FEW250 17/M01 A3017 RMK AO2 SLP217 T01721011=
202302062152 METAR KATL 062152Z 00000KT 10SM FEW250 18/M02 A3016 RMK AO2 SLP215 T01831022=
202302062052 METAR KATL 062052Z 30005KT 10SM FEW250 18/M02 A3017 RMK AO2 SLP217 T01831022 56015=
202302061952 METAR KATL 061952Z 32009KT 10SM FEW250 18/M02 A3018 RMK AO2 SLP218 T01831017=
202302061852 METAR KATL 061852Z 29006KT 10SM CLR 17/M02 A3019 RMK AO2 SLP222 T01721022=
202302061752 METAR KATL 061752Z 31009KT 10SM CLR 17/M01 A3022 RMK AO2 SLP232 T01671011 10167 20056 58004=
202302061652 METAR KATL 061652Z 35007KT 330V030 10SM CLR 15/01 A3024 RMK AO2 SLP239 T01500006=
202302061552 METAR KATL 061552Z 34008KT 10SM CLR 14/02 A3025 RMK AO2 SLP242 T01390017=
202302061452 METAR KATL 061452Z 32006KT 10SM CLR 12/04 A3023 RMK AO2 SLP238 T01170044 51015=
202302061352 METAR KATL 061352Z 32008KT 10SM CLR 08/05 A3022 RMK AO2 SLP236 T00830050=
202302061252 METAR KATL 061252Z 31007KT 10SM CLR 07/04 A3020 RMK AO2 SLP230 T00670039=
202302061152 METAR KATL 061152Z 32006KT 10SM CLR 06/03 A3019 RMK AO2 SLP224 T00610033 10089 20061 53014=
202302061052 METAR KATL 061052Z 29005KT 10SM CLR 07/04 A3017 RMK AO2 SLP216 T00670039=
202302060952 METAR KATL 060952Z 29006KT 10SM CLR 07/04 A3014 RMK AO2 SLP208 T00670039 $=
202302060852 METAR KATL 060852Z 30007KT 10SM CLR 07/04 A3014 RMK AO2 SLP207 T00720039 55002 $=
202302060752 METAR KATL 060752Z 30006KT 10SM CLR 08/04 A3014 RMK AO2 SLP205 T00780039 $=
202302060652 METAR KATL 060652Z 28005KT 10SM CLR 08/04 A3014 RMK AO2 SLP205 T00830039 $=
202302060552 METAR KATL 060552Z 29006KT 10SM FEW250 09/04 A3015 RMK AO2 SLP210 T00890044 10139 20089 58001 $=
202302060452 METAR KATL 060452Z 29006KT 10SM FEW250 09/04 A3015 RMK AO2 SLP211 T00940044 401720022 $=
202302060352 METAR KATL 060352Z 28006KT 10SM CLR 11/04 A3015 RMK AO2 SLP213 T01060044 $=
202302060252 METAR KATL 060252Z 28004KT 10SM FEW050 11/05 A3015 RMK AO2 SLP213 T01110050 51009 $=
202302060152 METAR KATL 060152Z 29007KT 10SM FEW050 12/06 A3014 RMK AO2 SLP212 T01170056 $=
202302060052 METAR KATL 060052Z 27005KT 10SM SCT050 13/07 A3014 RMK AO2 SLP209 T01280067 $=
202302052352 METAR KATL 052352Z 26003KT 10SM FEW050 14/06 A3012 RMK AO2 SLP204 T01390061 10172 20133 55004 $=
202302052252 METAR KATL 052252Z 25005KT 10SM SCT050 16/07 A3012 RMK AO2 SLP200 T01610067 $=
202302052152 METAR KATL 052152Z 23005KT 10SM SCT045 SCT220 17/07 A3012 RMK AO2 SLP202 T01670067 $=
202302052052 METAR KATL 052052Z 22009G16KT 10SM FEW044 FEW160 SCT220 17/06 A3014 RMK AO2 SLP207 ACC N T01670061 56036 $=
202302051952 METAR KATL 051952Z 27010KT 10SM FEW042 FEW150 BKN220 16/07 A3016 RMK AO2 SLP215 T01610067 $=
202302051852 METAR KATL 051852Z 00000KT 10SM FEW038 FEW050 BKN220 16/07 A3019 RMK AO2 SLP225 T01610067 $=
202302051752 METAR KATL 051752Z 19006KT 10SM FEW028 FEW050 BKN220 14/06 A3024 RMK AO2 SLP244 T01390056 10139 20028 58032 $=
202302051652 METAR KATL 051652Z 19007KT 10SM SCT019 SCT037 SCT220 12/03 A3029 RMK AO2 SLP261 T01220033 $=
202302051552 METAR KATL 051552Z 11004KT 10SM SCT022 SCT038 SCT220 09/00 A3033 RMK AO2 SLP272 T00940000 $=
202302051532 SPECI KATL 051532Z 00000KT 10SM SCT024 SCT038 BKN220 08/M01 A3034 RMK AO2 T00781011 $=
202302051502 SPECI KATL 051502Z 09003KT 10SM BKN024 06/M02 A3034 RMK AO2 T00611017 $=
202302051452 METAR KATL 051452Z 07004KT 10SM SCT022 SCT050 BKN220 06/M01 A3034 RMK AO2 SLP280 T00611011 58002 $=
202302051426 SPECI KATL 051426Z 09004KT 10SM SCT022 BKN050 BKN220 05/M02 A3034 RMK AO2 T00501017 $=
202302051352 METAR KATL 051352Z 08006KT 10SM BKN023 BKN042 OVC220 04/M02 A3035 RMK AO2 SLP282 T00391022 $=
202302051252 METAR KATL 051252Z 08006KT 10SM BKN018 BKN049 OVC220 03/M03 A3035 RMK AO2 SLP283 T00331028 $=
202302051250 SPECI KATL 051250Z 09007KT 10SM BKN018 BKN049 OVC220 03/M03 A3035 RMK AO2 $=
202302051152 METAR KATL 051152Z 09005KT 10SM FEW043 SCT180 BKN250 03/M03 A3035 RMK AO2 SLP283 T00281033 10056 20022 58006 $=
202302051052 METAR KATL 051052Z 09005KT 10SM SCT180 SCT250 02/M03 A3036 RMK AO2 SLP286 T00221033=
202302050952 METAR KATL 050952Z 07006KT 10SM SCT180 SCT250 03/M03 A3037 RMK AO2 SLP290 T00281033=
202302050852 METAR KATL 050852Z 08006KT 10SM SCT180 SCT250 03/M03 A3037 RMK AO2 SLP289 T00281033 56012=
202302050752 METAR KATL 050752Z 08008KT 10SM BKN180 BKN250 03/M03 A3038 RMK AO2 SLP291 T00331028=
202302050652 METAR KATL 050652Z 11005KT 10SM BKN200 BKN250 05/M04 A3039 RMK AO2 SLP295 T00501039=
202302050552 METAR KATL 050552Z 09006KT 10SM SCT210 BKN250 05/M03 A3041 RMK AO2 SLP302 T00501033 10089 20050 58009=
202302050452 METAR KATL 050452Z 12006KT 10SM SCT200 BKN250 07/M04 A3043 RMK AO2 SLP311 T00671044 401061011=
202302050352 METAR KATL 050352Z 09008KT 10SM BKN200 OVC250 07/M04 A3043 RMK AO2 SLP312 T00671044=
202302050252 METAR KATL 050252Z 11007KT 10SM BKN200 OVC250 07/M04 A3043 RMK AO2 SLP311 T00721044 58002=
202302050152 METAR KATL 050152Z 11007KT 10SM BKN200 OVC250 08/M04 A3044 RMK AO2 SLP315 BINOVC T00781044=
202302050052 METAR KATL 050052Z 10005KT 10SM BKN200 OVC250 08/M04 A3044 RMK AO2 SLP316 T00831039 $=
202302042352 METAR KATL 042352Z 12006KT 10SM BKN200 OVC250 09/M05 A3044 RMK AO2 SLP314 T00891050 10106 20072 58001 $=
202302042252 METAR KATL 042252Z 12006KT 10SM BKN200 OVC250 10/M05 A3045 RMK AO2 SLP316 T01001050 $=
202302042152 METAR KATL 042152Z 13005KT 10SM BKN200 OVC250 10/M05 A3044 RMK AO2 SLP313 T01001050 $=
202302042052 METAR KATL 042052Z 13006KT 10SM SCT200 BKN250 10/M06 A3044 RMK AO2 SLP314 T01001056 56023 $=
202302041952 METAR KATL 041952Z 14007KT 10SM FEW200 BKN250 10/M06 A3045 RMK AO2 SLP317 T01001056 $=
202302041852 METAR KATL 041852Z 12003KT 10SM BKN250 09/M06 A3047 RMK AO2 SLP325 T00941061 $=
202302041752 METAR KATL 041752Z 14005KT 10SM SCT250 07/M07 A3051 RMK AO2 SLP339 T00721072 10083 21011 58015 $=
202302041652 METAR KATL 041652Z 12007KT 10SM FEW250 07/M08 A3055 RMK AO2 SLP352 T00671078 $=
202302041552 METAR KATL 041552Z 11010KT 10SM FEW250 05/M08 A3056 RMK AO2 SLP357 T00501083 $=
202302041452 METAR KATL 041452Z 11009KT 10SM FEW250 03/M08 A3056 RMK AO2 SLP356 T00331083 52017 $=
202302041352 METAR KATL 041352Z 10009KT 10SM FEW250 02/M07 A3054 RMK AO2 SLP349 T00171072 $=
202302041252 METAR KATL 041252Z 07009KT 10SM FEW200 01/M08 A3052 RMK AO2 SLP345 T00061078 $=
202302041152 METAR KATL 041152Z 06006KT 10SM CLR 00/M08 A3051 RMK AO2 SLP339 T00001078 10011 21011 51017 $=
202302041052 METAR KATL 041052Z 02006KT 10SM CLR M01/M08 A3050 RMK AO2 SLP335 T10061083 $=
202302040952 METAR KATL 040952Z 34005KT 10SM CLR M01/M08 A3049 RMK AO2 SLP331 T10111083 $=
202302040852 METAR KATL 040852Z 35004KT 10SM CLR M01/M08 A3045 RMK AO2 SLP319 T10061083 51009=
202302040752 METAR KATL 040752Z 33005KT 10SM CLR 00/M08 A3045 RMK AO2 SLP316 T00001083=
202302040652 METAR KATL 040652Z 34007KT 10SM CLR 01/M09 A3044 RMK AO2 SLP314 T00061089=
202302040552 METAR KATL 040552Z 33007KT 10SM CLR 01/M09 A3043 RMK AO2 SLP310 T00111089 10056 20011 51006=
202302040452 METAR KATL 040452Z 34008KT 10SM CLR 02/M09 A3042 RMK AO2 SLP309 T00171094 400940017=
202302040352 METAR KATL 040352Z 33010KT 10SM CLR 03/M09 A3042 RMK AO2 SLP306 T00281094=
202302040252 METAR KATL 040252Z 34011KT 10SM CLR 03/M11 A3041 RMK AO2 SLP304 T00331106 51015=
202302040152 METAR KATL 040152Z 33014G25KT 10SM CLR 04/M09 A3039 RMK AO2 SLP300 T00441094=
202302040052 METAR KATL 040052Z 33013G25KT 10SM CLR 05/M08 A3038 RMK AO2 SLP294 T00501083=
202302032352 METAR KATL 032352Z 33010KT 10SM CLR 06/M08 A3036 RMK AO2 SLP288 T00561083 10094 20056 52025=
202302032252 METAR KATL 032252Z 34017KT 10SM CLR 07/M09 A3034 RMK AO2 PK WND 33026/2153 SLP280 T00721094=
202302032152 METAR KATL 032152Z 33015G24KT 10SM CLR 08/M09 A3031 RMK AO2 PK WND 33028/2056 SLP269 T00831094=
202302032052 METAR KATL 032052Z 32018G27KT 10SM CLR 09/M08 A3029 RMK AO2 PK WND 33027/2048 SLP261 T00891083 53003=
202302031952 METAR KATL 031952Z 32018G26KT 10SM CLR 09/M08 A3027 RMK AO2 PK WND 34028/1905 SLP255 T00891083=
202302031852 METAR KATL 031852Z 33019G25KT 10SM CLR 09/M06 A3028 RMK AO2 PK WND 33028/1835 SLP256 T00891061=
202302031752 METAR KATL 031752Z 35016G29KT 10SM CLR 08/M06 A3028 RMK AO2 PK WND 30029/1743 SLP257 T00831061 10083 20028 50008=
202302031652 METAR KATL 031652Z 33013G25KT 10SM CLR 08/M06 A3029 RMK AO2 SLP261 T00781056=
202302031552 METAR KATL 031552Z 32014G24KT 10SM FEW190 07/M03 A3029 RMK AO2 PK WND 33027/1537 SLP260 T00721033 $=
202302031452 METAR KATL 031452Z 33011KT 10SM FEW190 06/M02 A3026 RMK AO2 SLP250 T00561022 51033 $=
202302031352 METAR KATL 031352Z 32013KT 10SM FEW160 SCT190 03/M03 A3023 RMK AO2 SLP241 T00281033 $=
202302031252 METAR KATL 031252Z 32016G22KT 10SM FEW110 BKN160 BKN180 04/M02 A3021 RMK AO2 SLP234 T00391017 $=
202302031152 METAR KATL 031152Z 32011KT 10SM FEW075 SCT110 BKN160 04/M01 A3016 RMK AO2 SLP217 60006 70081 T00441011 10078 20044 53015 $=
202302031052 METAR KATL 031052Z 33011KT 10SM FEW075 OVC100 05/01 A3012 RMK AO2 SLP205 T00500006 $=
202302030952 METAR KATL 030952Z 32011KT 10SM BKN055 OVC075 06/03 A3013 RMK AO2 RAE41 SLP206 P0000 T00560028 $=
202302030852 METAR KATL 030852Z 32010KT 10SM -RA SCT048 OVC085 06/04 A3011 RMK AO2 RAB0758E19B52 SLP201 P0000 60006 T00610039 58001 $=
202302030752 METAR KATL 030752Z 32012KT 10SM FEW007 SCT055 OVC070 07/04 A3011 RMK AO2 RAE35 SLP200 P0002 T00720044 $=
202302030652 METAR KATL 030652Z 32007KT 5SM RA BR SCT007 SCT012 OVC060 08/06 A3012 RMK AO2 SLP201 SCT012 V BKN P0004 T00780061 $=
202302030552 METAR KATL 030552Z 33008KT 8SM -RA SCT008 BKN055 OVC090 08/06 A3012 RMK AO2 RAB0459 SLP201 SCT008 V BKN P0000 60045 T00780061 10089 20078 58002 $=
202302030452 METAR KATL 030452Z 32008KT 8SM SCT006 BKN050 OVC090 08/06 A3012 RMK AO2 RAE0354B40E50 SLP203 P0000 T00780061 401060078 $=
202302030352 METAR KATL 030352Z 31007KT 8SM -RA FEW005 BKN050 OVC090 08/07 A3014 RMK AO2 SLP209 P0004 T00830067 $=
202302030329 SPECI KATL 030329Z 31007KT 6SM -RA BR FEW005 BKN055 OVC090 08/07 A3015 RMK AO2 P0003 T00830072 $=
202302030252 METAR KATL 030252Z 33007KT 1 1/2SM RA BR FEW005 BKN065 OVC090 08/07 A3012 RMK AO2 SFC VIS 5 SLP203 P0020 60041 T00830072 50008 $=
202302030152 METAR KATL 030152Z 32008KT 1 1/2SM RA BR SCT005 BKN045 OVC080 08/07 A3013 RMK AO2 SFC VIS 3 SLP205 SCT005 V BKN P0013 T00830072 $=
202302030052 METAR KATL 030052Z 33006KT 1 1/2SM RA BR SCT005 BKN040 OVC080 09/08 A3010 RMK AO2 SFC VIS 4 SLP196 SCT005 V BKN P0008 T00890078 $=
202302030022 SPECI KATL 030022Z 34006KT 1 1/2SM RA BR BKN005 BKN040 OVC100 09/08 A3010 RMK AO2 SFC VIS 5 P0002 T00890078 $=
202302022352 METAR KATL 022352Z 35006KT 1 1/2SM -RA BR SCT005 BKN040 OVC100 09/08 A3010 RMK AO2 SFC VIS 6 SLP195 SCT005 V BKN P0009 60028 T00890078 10106 20089 58001 $=
202302022252 METAR KATL 022252Z 34007G18KT 1 1/2SM RA BR SCT005 OVC070 09/08 A3011 RMK AO2 SFC VIS 5 PRESRR SLP200 SCT005 V BKN P0005 T00940083 $=
202302022152 METAR KATL 022152Z 33004KT 1 1/2SM -RA BR SCT005 BKN024 OVC065 09/08 A3011 RMK AO2 SFC VIS 3 SLP200 P0010 T00940083 $=
202302022134 SPECI KATL 022134Z 31007KT 1 1/2SM RA BR SCT006 BKN018 OVC036 09/08 A3013 RMK AO2 SFC VIS 2 P0004 T00940083 $=
202302022114 SPECI KATL 022114Z 33006KT 1 1/2SM -RA BR SCT006 BKN014 OVC030 09/08 A3011 RMK AO2 SFC VIS 3 P0001 T00940083 $=
202302022052 METAR KATL 022052Z 33007KT 1 1/2SM -RA BR OVC006 09/09 A3010 RMK AO2 SFC VIS 2 SLP196 CIG 004V008 P0002 60004 T00940089 55020 $=
202302021952 METAR KATL 021952Z 06005KT 1 1/2SM -RA BR OVC006 10/08 A3009 RMK AO2 DZE35RAB35 SLP190 CIG 004V008 P0001 T01000083 $=
202302021944 SPECI KATL 021944Z 09004KT 1 1/2SM -RA BR OVC006 10/08 A3009 RMK AO2 DZE35RAB35 CIG 004V008 P0000 T01000083 $=
202302021942 SPECI KATL 021942Z 09004KT 2SM -RA BR OVC006 10/08 A3009 RMK AO2 DZE35RAB35 CIG 004V008 P0000 T01000083=
202302021852 METAR KATL 021852Z 04003KT 6SM -DZ BR OVC005 10/09 A3011 RMK AO2 RAE39DZB39 SLP198 CIG 004V007 P0001 T01000089=
202302021835 SPECI KATL 021835Z 33003KT 5SM -RA BR OVC004 09/08 A3013 RMK AO2 CIG 003V006 P0001 T00940083=
202302021824 SPECI KATL 021824Z 32003KT 2SM -RA BR OVC004 09/09 A3014 RMK AO2 CIG 003V006 P0000 T00940089=
202302021752 METAR KATL 021752Z 33003KT 4SM -RA BR BKN006 BKN018 OVC032 09/08 A3016 RMK AO2 RAE08B40DZB08E40 SLP216 CIG 004V008 P0000 60002 T00940078 10100 20078 58013=
202302021701 SPECI KATL 021701Z 00000KT 4SM -RA BR BKN005 BKN018 OVC030 09/08 A3018 RMK AO2 CIG 004V007 P0000 T00940083=
202302021652 METAR KATL 021652Z 03003KT 2 1/2SM -RA BR BKN005 BKN019 OVC030 09/08 A3018 RMK AO2 DZE51RAB51 SLP223 CIG 004V007 P0000 T00940078=
202302021552 METAR KATL 021552Z 03004KT 3SM -DZ BR BKN006 BKN016 OVC034 09/08 A3019 RMK AO2 DZB34 SLP227 CIG 005V008 P0000 T00890078=
202302021452 METAR KATL 021452Z 36007KT 8SM BKN007 OVC014 08/07 A3020 RMK AO2 RAB10E28DZB28E41 SLP228 CIG 005V009 P0000 60002 T00830067 50012=
202302021352 METAR KATL 021352Z 34011KT 7SM BKN006 OVC030 08/06 A3020 RMK AO2 RAE28 SLP229 CIG 005V007 P0002 T00780061=
202302021252 METAR KATL 021252Z 33008KT 2SM -RA BR BKN004 BKN008 OVC025 08/07 A3019 RMK AO2 SFC VIS 3 RAE02B37 SLP226 CIG 003V005 P0000 T00780067=
202302021152 METAR KATL 021152Z 32005KT 3SM -RA BR BKN004 OVC026 08/07 A3016 RMK AO2 SLP216 CIG 002V006 P0003 60005 70005 T00780067 10089 20078 53001=
202302021116 SPECI KATL 021116Z 32005KT 3SM -RA BR BKN005 BKN014 OVC030 08/07 A3017 RMK AO2 CIG 003V007 P0002 T00780067 $=
202302021059 SPECI KATL 021059Z 31007KT 2 1/2SM -RA BR BKN005 BKN014 OVC030 08/07 A3017 RMK AO2 CIG 003V007 P0001 T00780067=
202302021052 METAR KATL 021052Z 30006KT 3SM -RA BR BKN005 OVC012 08/07 A3017 RMK AO2 SLP217 P0001 T00780067=
202302021032 SPECI KATL 021032Z 31005KT 3SM -RA BR BKN005 BKN013 OVC022 08/07 A3016 RMK AO2 P0001 T00780067 $=
202302020952 METAR KATL 020952Z 35005KT 4SM -RA BR SCT006 BKN017 OVC025 08/07 A3015 RMK AO2 SLP212 P0001 T00780067 $=
202302020930 SPECI KATL 020930Z 33010KT 4SM -RA BR FEW007 OVC015 08/06 A3017 RMK AO2 P0001 T00780061 $=
202302020852 METAR KATL 020852Z 32007KT 6SM -RA BR OVC015 08/07 A3016 RMK AO2 RAB47 SLP214 P0000 60000 T00830067 56016 $=
202302020752 METAR KATL 020752Z 33003KT 10SM SCT018 OVC026 09/07 A3017 RMK AO2 SLP217 T00890067 $=
202302020728 SPECI KATL 020728Z 35004KT 10SM SCT020 OVC028 09/07 A3017 RMK AO2 T00890067 $=
202302020652 METAR KATL 020652Z 35005KT 10SM FEW007 FEW020 OVC032 09/07 A3019 RMK AO2 SLP223 T00890067 $=
202302020552 METAR KATL 020552Z 34005KT 10SM FEW007 OVC035 08/07 A3021 RMK AO2 RAB00E19 SLP232 P0000 60000 T00830067 10133 20083 58005 $=
202302020526 SPECI KATL 020526Z 36006KT 10SM FEW007 SCT015 OVC040 09/07 A3022 RMK AO2 RAB00E19 P0000 T00890067 $=
202302020452 METAR KATL 020452Z 34008KT 10SM FEW015 OVC045 09/07 A3022 RMK AO2 RAB17E45 SLP234 P0000 T00890067 401500089 $=
202302020352 METAR KATL 020352Z 33007KT 10SM SCT016 OVC043 10/07 A3022 RMK AO2 SLP235 T01000067 $=
202302020338 SPECI KATL 020338Z 33006KT 10SM SCT014 OVC045 10/07 A3022 RMK AO2 T01000067 $=
202302020252 METAR KATL 020252Z 33007KT 10SM BKN014 OVC020 10/07 A3022 RMK AO2 SLP237 T01000072 51006 $=
202302020152 METAR KATL 020152Z 36006KT 10SM BKN015 OVC022 11/07 A3022 RMK AO2 SLP233 T01060072=
202302020052 METAR KATL 020052Z 35009KT 10SM OVC020 12/08 A3022 RMK AO2 SLP233 T01170078=
202302012352 METAR KATL 012352Z 33007KT 10SM OVC020 13/09 A3020 RMK AO2 SLP228 T01330089 10144 20117 52014=
202302012252 METAR KATL 012252Z 29004KT 10SM BKN022 OVC120 14/09 A3019 RMK AO2 SLP222 T01390094=
202302012152 METAR KATL 012152Z 30006KT 10SM BKN019 BKN110 OVC200 14/09 A3018 RMK AO2 SLP216 T01390089=
202302012052 METAR KATL 012052Z 33005KT 10SM BKN020 BKN065 BKN110 BKN200 14/09 A3016 RMK AO2 SLP211 T01390089 56019=
202302012018 SPECI KATL 012018Z 31005KT 10SM BKN023 BKN065 BKN100 BKN200 14/09 A3017 RMK AO2 T01390089=
202302011952 METAR KATL 011952Z 32006KT 10SM FEW026 SCT065 SCT100 BKN200 BKN250 14/09 A3017 RMK AO2 SLP214 T01390089=
202302011852 METAR KATL 011852Z 29005KT 10SM FEW026 BKN048 BKN200 BKN250 13/09 A3019 RMK AO2 SLP222 T01330089=
202302011801 SPECI KATL 011801Z 30006KT 10SM FEW014 SCT024 OVC048 13/09 A3021 RMK AO2 T01280089=
202302011752 METAR KATL 011752Z 26006KT 10SM FEW016 BKN024 OVC048 12/08 A3022 RMK AO2 SLP232 60000 T01170083 10122 20100 58006=
202302011652 METAR KATL 011652Z 31006KT 10SM SCT009 OVC022 12/08 A3024 RMK AO2 SLP241 BINOVC T01170083=
202302011612 SPECI KATL 011612Z 31006KT 7SM BKN005 OVC012 11/09 A3025 RMK AO2 CIG 004V007 T01060089=
202302011552 METAR KATL 011552Z 33008G18KT 6SM BR BKN004 OVC010 10/09 A3026 RMK AO2 SLP247 CIG 003V006 T01000089=
202302011452 METAR KATL 011452Z 34006KT 1 1/4SM BR OVC004 10/09 A3024 RMK AO2 SFC VIS 5 SLP238 CIG 003V005 TWRINC 60000 T01000089 53023=
202302011352 METAR KATL 011352Z 30010KT 6SM BR OVC005 11/09 A3021 RMK AO2 DZE24 SLP227 CIG 004V007 P0000 T01060094=
202302011252 METAR KATL 011252Z 30010KT 4SM -DZ BR BKN006 OVC013 11/10 A3019 RMK AO2 DZB50 SLP222 CIG 005V008 P0000 T01060100=
202302011223 SPECI KATL 011223Z 30010KT 7SM FEW003 BKN006 OVC014 11/10 A3018 RMK AO2 CIG 005V008 T01110100=
