##########################################################
# Query made at 04/20/2024 00:30:34 UTC
# Time interval: from 12/01/2023 12:00  to 12/31/2023 12:59  UTC
##########################################################

##########################################################
# KATL, Atlanta, Hartsfield - Jackson Atlanta International Airport (United States)
# WMO index: 72219. WIGOS ID: 0-20000-0-72219
# Latitude 33-38-59N. Longitude 084-25-00W. Altitude 312 m.
##########################################################

202312311252 METAR KATL 311252Z 28003KT 10SM CLR M01/M02 A3015 RMK AO2 SLP217 T10061022=
202312311152 METAR KATL 311152Z 00000KT 10SM FEW220 M01/M02 A3014 RMK AO2 SLP215 T10061022 10006 21006 55001=
202312311052 METAR KATL 311052Z 00000KT 10SM FEW220 00/M02 A3013 RMK AO2 SLP209 I1000 T00001017=
202312310952 METAR KATL 310952Z 27004KT 10SM FEW200 M01/M02 A3013 RMK AO2 SLP211 T10061022=
202312310852 METAR KATL 310852Z 27004KT 10SM FEW200 00/M02 A3014 RMK AO2 SLP214 T00001017 53004=
202312310752 METAR KATL 310752Z 27004KT 10SM CLR 00/M02 A3014 RMK AO2 SLP212 T00001022=
202312310652 METAR KATL 310652Z 29004KT 10SM CLR 01/M02 A3013 RMK AO2 SLP209 T00061017=
202312310552 METAR KATL 310552Z 29005KT 10SM FEW012 01/M01 A3013 RMK AO2 SLP210 T00111011 10050 20006 53000=
202312310452 METAR KATL 310452Z 29007KT 10SM CLR 01/M02 A3013 RMK AO2 SLP209 T00111017 400940011=
202312310352 METAR KATL 310352Z 30006KT 10SM CLR 02/M01 A3013 RMK AO2 SLP210 T00171011=
202312310252 METAR KATL 310252Z 27003KT 10SM CLR 03/M01 A3013 RMK AO2 SLP210 T00281011 51009=
202312310152 METAR KATL 310152Z 29005KT 10SM CLR 03/M01 A3013 RMK AO2 SLP209 T00331011=
202312310052 METAR KATL 310052Z 32006KT 10SM CLR 04/M01 A3011 RMK AO2 SLP203 T00391011=
202312302352 METAR KATL 302352Z 32008KT 10SM CLR 06/M01 A3010 RMK AO2 SLP200 T00561006 10094 20050 53014=
202312302252 METAR KATL 302252Z 32007KT 10SM CLR 07/M01 A3008 RMK AO2 SLP192 T00671011=
202312302152 METAR KATL 302152Z 29007KT 10SM FEW036 08/M01 A3007 RMK AO2 SLP188 T00831011=
202312302052 METAR KATL 302052Z 30010KT 260V320 10SM FEW036 09/M01 A3006 RMK AO2 SLP184 T00891011 55002=
202312301952 METAR KATL 301952Z 30009KT 10SM FEW035 09/M01 A3005 RMK AO2 SLP179 T00891011=
202312301852 METAR KATL 301852Z 30006KT 10SM FEW032 08/M01 A3005 RMK AO2 SLP180 T00831011=
202312301813 SPECI KATL 301813Z 33006KT 10SM BKN031 07/M02 A3006 RMK AO2 T00671017=
202312301752 METAR KATL 301752Z 30008G16KT 10SM BKN029 07/M02 A3007 RMK AO2 SLP187 T00671017 10078 20028 58005=
202312301652 METAR KATL 301652Z 32010KT 10SM BKN026 06/M02 A3009 RMK AO2 SLP194 T00561017=
202312301552 METAR KATL 301552Z 29011KT 10SM BKN024 05/M02 A3010 RMK AO2 SLP197 T00501017=
202312301452 METAR KATL 301452Z 29009KT 10SM OVC022 03/M02 A3008 RMK AO2 SLP193 BINOVC T00331017 53018=
202312301352 METAR KATL 301352Z 30010KT 10SM FEW018 OVC023 03/M02 A3007 RMK AO2 SLP187 BINOVC T00331022=
202312301252 METAR KATL 301252Z 28007KT 10SM FEW020 BKN028 03/M03 A3005 RMK AO2 SLP180 T00331028=
202312301242 SPECI KATL 301242Z 29009KT 10SM FEW020 BKN028 03/M03 A3005 RMK AO2 T00331028=
202312301152 METAR KATL 301152Z 31009KT 10SM OVC030 03/M02 A3003 RMK AO2 SLP175 T00331017 10050 20033 53011=
202312301144 SPECI KATL 301144Z 31010KT 10SM OVC030 03/M02 A3003 RMK AO2 T00331017=
202312301052 METAR KATL 301052Z 30010KT 10SM BKN021 OVC050 04/M02 A3001 RMK AO2 SLP169 T00391017=
202312300952 METAR KATL 300952Z 26006KT 10SM BKN025 OVC050 04/M01 A3000 RMK AO2 SLP162 T00441006=
202312300930 SPECI KATL 300930Z 28005KT 10SM BKN027 OVC050 04/M01 A2999 RMK AO2 T00441006=
202312300852 METAR KATL 300852Z 26006KT 10SM SCT028 OVC055 04/M01 A3000 RMK AO2 SLP162 T00441006 53001=
202312300752 METAR KATL 300752Z 26005KT 10SM BKN032 OVC042 04/M01 A3000 RMK AO2 SLP162 T00441006=
202312300652 METAR KATL 300652Z 27006KT 10SM BKN042 OVC060 04/M01 A2999 RMK AO2 SLP160 T00441006=
202312300552 METAR KATL 300552Z 27007KT 10SM BKN042 OVC050 05/M01 A2999 RMK AO2 SLP161 T00501006 10056 20050 50002=
202312300452 METAR KATL 300452Z 28008KT 10SM BKN036 OVC045 05/M01 A3000 RMK AO2 SLP163 T00501011 400720011=
202312300352 METAR KATL 300352Z 26006KT 10SM BKN036 OVC045 06/M01 A3000 RMK AO2 SLP163 T00561011=
202312300252 METAR KATL 300252Z 26006KT 10SM BKN042 BKN055 OVC075 06/M01 A2999 RMK AO2 SLP160 T00561011 51004=
202312300152 METAR KATL 300152Z 27004KT 10SM BKN046 OVC055 06/M01 A2999 RMK AO2 SLP160 T00561011=
202312300052 METAR KATL 300052Z 26007KT 10SM BKN043 OVC050 06/M02 A2998 RMK AO2 SLP158 T00561017=
202312292352 METAR KATL 292352Z 27007KT 10SM OVC050 06/M02 A2998 RMK AO2 SLP156 T00561017 10067 20056 53012=
202312292252 METAR KATL 292252Z 26006KT 10SM FEW042 OVC050 06/M02 A2996 RMK AO2 SLP149 T00611017=
202312292152 METAR KATL 292152Z 27007KT 10SM FEW036 OVC046 06/M02 A2995 RMK AO2 SLP148 T00611017=
202312292052 METAR KATL 292052Z 26009KT 10SM SCT035 OVC043 06/M02 A2994 RMK AO2 SLP145 T00611017 55001=
202312291952 METAR KATL 291952Z 28011G18KT 10SM FEW025 BKN034 BKN046 06/M02 A2993 RMK AO2 PK WND 23026/1922 SLP141 T00611017=
202312291852 METAR KATL 291852Z 28013G21KT 10SM FEW026 BKN032 OVC041 06/M01 A2993 RMK AO2 SLP139 BINOVC T00611011=
202312291752 METAR KATL 291752Z 29012G18KT 10SM FEW025 BKN032 OVC043 06/M01 A2994 RMK AO2 SLP144 60000 T00611011 10072 20028 58006=
202312291652 METAR KATL 291652Z 27009KT 10SM SCT026 BKN033 BKN080 06/00 A2996 RMK AO2 RAE00 SLP150 P0000 T00610000=
202312291600 SPECI KATL 291600Z 27011G17KT 10SM SCT018 BKN032 04/01 A2997 RMK AO2 RAE00 SHRA E-SE P0000 T00390006=
202312291552 METAR KATL 291552Z 26010KT 10SM -RA BKN018 OVC035 04/00 A2997 RMK AO2 RAB40 SLP154 P0000 T00390000=
202312291452 METAR KATL 291452Z 26011KT 10SM OVC026 04/M01 A2996 RMK AO2 SLP150 SHRA NW-N T00441006 53022=
202312291416 SPECI KATL 291416Z 25012G18KT 10SM BKN025 BKN050 04/00 A2994 RMK AO2 T00440000=
202312291352 METAR KATL 291352Z 26010KT 10SM BKN030 BKN050 04/M01 A2993 RMK AO2 SLP141 T00391006=
202312291252 METAR KATL 291252Z 26008KT 10SM FEW035 BKN050 03/M01 A2991 RMK AO2 SLP131 T00331011=
202312291152 METAR KATL 291152Z 27008KT 10SM FEW035 OVC048 03/M02 A2989 RMK AO2 SLP127 T00281017 10033 20011 53009=
202312291052 METAR KATL 291052Z 26009KT 10SM BKN050 03/M02 A2988 RMK AO2 SLP121 T00281017=
202312290952 METAR KATL 290952Z 27006KT 10SM SCT050 02/M02 A2986 RMK AO2 SLP115 T00171022=
202312290852 METAR KATL 290852Z 27006KT 10SM SCT050 01/M03 A2987 RMK AO2 SLP117 T00111028 55000=
202312290752 METAR KATL 290752Z 28007KT 10SM FEW050 02/M03 A2987 RMK AO2 SLP118 T00221028=
202312290652 METAR KATL 290652Z 28007KT 10SM FEW050 03/M03 A2986 RMK AO2 SLP115 T00281028=
202312290552 METAR KATL 290552Z 30007KT 10SM FEW050 03/M03 A2987 RMK AO2 SLP117 T00331028 10094 20033 58007=
202312290452 METAR KATL 290452Z 31012KT 10SM FEW050 04/M03 A2989 RMK AO2 SLP123 T00391028 401330039=
202312290352 METAR KATL 290352Z 30008KT 10SM FEW050 04/M02 A2990 RMK AO2 SLP127 T00441022=
202312290252 METAR KATL 290252Z 31010KT 10SM FEW050 06/M02 A2989 RMK AO2 SLP124 T00611022 51008=
202312290152 METAR KATL 290152Z 30013G20KT 10SM BKN055 06/M02 A2988 RMK AO2 SLP122 T00611017=
202312290052 METAR KATL 290052Z 31010KT 10SM FEW055 08/M01 A2987 RMK AO2 SLP119 T00781011=
202312282352 METAR KATL 282352Z 29008KT 10SM BKN050 09/M01 A2986 RMK AO2 SLP115 T00941006 10133 20094 51015=
202312282252 METAR KATL 282252Z 27006KT 10SM BKN050 BKN180 10/00 A2985 RMK AO2 SLP110 T01000000=
202312282152 METAR KATL 282152Z 26008KT 10SM FEW050 FEW180 12/01 A2983 RMK AO2 SLP103 T01170006=
202312282052 METAR KATL 282052Z 26008KT 10SM FEW050 13/01 A2982 RMK AO2 SLP098 T01280006 56010=
202312281952 METAR KATL 281952Z 23009KT 10SM FEW055 12/01 A2982 RMK AO2 SLP099 T01170011=
202312281852 METAR KATL 281852Z 28008G14KT 10SM FEW046 13/02 A2983 RMK AO2 SLP103 T01280017=
202312281752 METAR KATL 281752Z 22008KT 10SM FEW038 11/02 A2985 RMK AO2 SLP108 T01110017 10117 20044 58019=
202312281652 METAR KATL 281652Z 24008KT 10SM FEW030 FEW200 11/03 A2988 RMK AO2 SLP121 T01060028=
202312281552 METAR KATL 281552Z 29004KT 10SM FEW024 FEW200 10/03 A2990 RMK AO2 SLP128 T01000033=
202312281452 METAR KATL 281452Z 30008KT 10SM FEW018 FEW200 08/03 A2990 RMK AO2 SLP128 T00780033 53006=
202312281352 METAR KATL 281352Z 26004KT 10SM FEW200 SCT250 06/03 A2988 RMK AO2 SLP122 T00610033=
202312281252 METAR KATL 281252Z 00000KT 10SM FEW180 FEW250 04/02 A2988 RMK AO2 SLP121 T00440022=
202312281152 METAR KATL 281152Z 23003KT 10SM SCT200 SCT250 06/03 A2989 RMK AO2 SLP122 T00560033 10089 20050 53002=
202312281052 METAR KATL 281052Z 23003KT 10SM SCT200 BKN250 06/03 A2988 RMK AO2 SLP120 T00560028 $=
202312280952 METAR KATL 280952Z 28006KT 10SM SCT200 BKN250 07/03 A2987 RMK AO2 SLP116 T00670028 $=
202312280852 METAR KATL 280852Z 27006KT 10SM SCT200 BKN250 07/03 A2988 RMK AO2 SLP118 T00720028 56005 $=
202312280752 METAR KATL 280752Z 25006KT 10SM SCT200 OVC250 08/03 A2988 RMK AO2 SLP119 T00830028 $=
202312280652 METAR KATL 280652Z 25006KT 10SM FEW040 SCT200 OVC250 08/02 A2989 RMK AO2 SLP122 T00830022 $=
202312280552 METAR KATL 280552Z 24007KT 10SM FEW040 SCT060 BKN200 BKN250 09/02 A2990 RMK AO2 SLP124 T00890017 10111 20089 58002 $=
202312280452 METAR KATL 280452Z 25008KT 10SM FEW060 SCT200 BKN250 09/02 A2990 RMK AO2 SLP125 T00940017 401440083 $=
202312280352 METAR KATL 280352Z 23008KT 10SM BKN200 BKN250 09/02 A2991 RMK AO2 SLP130 T00940017 $=
202312280252 METAR KATL 280252Z 24007KT 10SM BKN200 BKN250 10/03 A2990 RMK AO2 SLP127 T01000028 51004 $=
202312280152 METAR KATL 280152Z 25006KT 10SM FEW045 BKN200 BKN260 10/03 A2990 RMK AO2 SLP127 T01000033 $=
202312280052 METAR KATL 280052Z 25007KT 10SM FEW048 BKN200 BKN250 11/04 A2990 RMK AO2 SLP127 T01060039 $=
202312272352 METAR KATL 272352Z 24006KT 10SM BKN200 BKN250 11/05 A2989 RMK AO2 SLP122 T01110050 10144 20111 53005=
202312272252 METAR KATL 272252Z 26005KT 10SM BKN180 BKN250 12/05 A2988 RMK AO2 SLP117 VIRGA OHD-ALQDS T01170050=
202312272152 METAR KATL 272152Z 26007KT 10SM BKN180 BKN250 13/04 A2988 RMK AO2 SLP116 VIRGA OHD-ALQDS T01280044=
202312272052 METAR KATL 272052Z VRB04KT 10SM BKN180 BKN250 13/05 A2987 RMK AO2 SLP116 VIRGA NE-OHD-SW T01330050 55011=
202312271952 METAR KATL 271952Z 28008KT 10SM FEW070 BKN180 BKN250 14/04 A2987 RMK AO2 SLP115 VIRGA NE-OHD-SW T01390039=
202312271852 METAR KATL 271852Z 27005KT 10SM FEW070 SCT170 BKN200 BKN250 14/04 A2987 RMK AO2 SLP113 T01390039=
202312271752 METAR KATL 271752Z 26005KT 10SM FEW170 BKN200 BKN250 14/04 A2991 RMK AO2 SLP127 T01390039 10144 20083 58014=
202312271652 METAR KATL 271652Z 29008KT 10SM SCT200 BKN250 13/06 A2994 RMK AO2 SLP136 T01330061=
202312271552 METAR KATL 271552Z 30007KT 10SM FEW014 SCT200 BKN250 12/08 A2996 RMK AO2 SLP145 T01170078=
202312271452 METAR KATL 271452Z 31006KT 10SM FEW009 SCT015 BKN200 BKN250 09/07 A2995 RMK AO2 SLP142 T00940072 50000=
202312271448 SPECI KATL 271448Z 32006KT 10SM SCT009 SCT015 BKN200 BKN250 09/07 A2995 RMK AO2=
202312271438 SPECI KATL 271438Z 30006KT 10SM BKN009 BKN015 BKN200 BKN250 09/07 A2996 RMK AO2 CIG 008V010 T00890067=
202312271352 METAR KATL 271352Z 29005KT 10SM FEW009 FEW016 BKN200 BKN250 09/07 A2995 RMK AO2 SLP144 T00890067=
202312271252 METAR KATL 271252Z 29007KT 10SM FEW009 FEW016 BKN200 09/07 A2995 RMK AO2 SLP144 T00890067=
202312271232 SPECI KATL 271232Z 29009KT 10SM FEW009 SCT016 BKN200 09/07 A2996 RMK AO2 T00940067=
202312271152 METAR KATL 271152Z 30007KT 10SM FEW003 SCT007 BKN015 10/08 A2995 RMK AO2 SLP141 60000 70001 T01000083 10117 20100 53008=
202312271147 SPECI KATL 271147Z 31009KT 10SM FEW003 SCT007 BKN015 10/08 A2995 RMK AO2 $=
202312271052 METAR KATL 271052Z 30007KT 8SM BKN006 OVC015 11/09 A2993 RMK AO2 SLP134 CIG 005V009 T01060094 $=
202312271030 SPECI KATL 271030Z 29007KT 6SM BR BKN005 OVC014 11/10 A2992 RMK AO2 CIG 004V006 T01060100 $=
202312270952 METAR KATL 270952Z 29007KT 6SM BR OVC004 11/10 A2993 RMK AO2 DZE43 SLP132 CIG 003V005 P0000 T01110100 $=
202312270852 METAR KATL 270852Z 29009KT 6SM -DZ BR OVC004 11/10 A2992 RMK AO2 SLP132 CIG 003V005 PCPN VRY LGT P0000 60000 T01110100 54000 $=
202312270849 SPECI KATL 270849Z 29008KT 6SM -DZ BR OVC004 11/10 A2992 RMK AO2 CIG 003V005 PCPN VRY LGT P0000 $=
202312270752 METAR KATL 270752Z 29009KT 1/2SM -DZ BR OVC003 11/11 A2993 RMK AO2 SFC VIS 1 3/4 SLP133 P0000 T01110106 $=
202312270652 METAR KATL 270652Z 29007KT 1/2SM -DZ BR OVC003 12/11 A2992 RMK AO2 SFC VIS 1 3/4 SLP129 P0000 T01170106 $=
202312270552 METAR KATL 270552Z 29006KT 1/2SM -DZ BR OVC003 12/11 A2992 RMK AO2 SFC VIS 2 SLP131 TWRINC P0000 60001 T01170106 10139 20117 58007 $=
202312270542 SPECI KATL 270542Z 28008KT 1/2SM -DZ BR OVC003 12/11 A2993 RMK AO2 SFC VIS 2 1/2 TWRINC P0000 T01170106 $=
202312270452 METAR KATL 270452Z 29005KT 1 1/4SM -DZ BR OVC005 12/11 A2994 RMK AO2 SFC VIS 6 SLP137 CIG 003V007 P0000 T01170111 401720117 $=
202312270352 METAR KATL 270352Z 30007KT 1 1/4SM -DZ BR BKN005 OVC015 12/11 A2995 RMK AO2 SFC VIS 8 SLP140 CIG 003V008 PCPN VRY LGT P0001 T01220111 $=
202312270252 METAR KATL 270252Z 30009KT 1 1/4SM -DZ BR OVC005 12/11 A2995 RMK AO2 SFC VIS 2 1/2 SLP138 CIG 003V007 P0000 60000 T01220111 51005=
202312270212 SPECI KATL 270212Z 29006KT 1 1/4SM -DZ BR OVC004 13/12 A2994 RMK AO2 SFC VIS 3 P0000 T01280117=
202312270152 METAR KATL 270152Z 30007KT 6SM -DZ BR BKN006 OVC015 13/12 A2995 RMK AO2 DZB50 SLP138 CIG 004V008 P0000 T01280117=
202312270052 METAR KATL 270052Z 30009KT 10SM BKN005 OVC012 13/12 A2993 RMK AO2 SLP134 T01330117=
202312262352 METAR KATL 262352Z 32007KT 8SM OVC005 14/12 A2993 RMK AO2 SLP132 CIG 004V006 60000 T01390122 10172 20139 53008=
202312262252 METAR KATL 262252Z 31011KT 8SM OVC006 14/13 A2992 RMK AO2 DZE32 SLP128 CIG 004V008 P0000 T01390128=
202312262152 METAR KATL 262152Z 30007KT 1 1/2SM -DZ BR OVC005 15/14 A2991 RMK AO2 SFC VIS 4 SLP126 CIG 003V007 PCPN VRY LGT P0000 T01500139=
202312262121 SPECI KATL 262121Z 30007KT 1 1/2SM -DZ BR OVC006 16/14 A2991 RMK AO2 SFC VIS 2 CIG 004V008 P0000 T01560144=
202312262052 METAR KATL 262052Z 30009KT 1 1/2SM -DZ BR BKN004 OVC012 16/15 A2991 RMK AO2 SFC VIS 5 SLP124 CIG 003V006 P0000 60000 T01610150 55006=
202312262044 SPECI KATL 262044Z 30009KT 1 1/2SM -DZ BR OVC004 16/15 A2991 RMK AO2 SFC VIS 6 CIG 003V006 P0000 T01610150=
202312262012 SPECI KATL 262012Z 29008KT 1 1/2SM -DZ BR BKN006 OVC012 16/15 A2990 RMK AO2 SFC VIS 3 CIG 004V008 P0000 T01610150=
202312261952 METAR KATL 261952Z 29007KT 1 1/2SM -DZ BR BKN004 OVC008 17/15 A2991 RMK AO2 SFC VIS 2 1/2 SLP122 CIG 004V008 P0000 T01670150=
202312261933 SPECI KATL 261933Z 29007KT 1 1/2SM -DZ BR BKN006 OVC014 17/16 A2990 RMK AO2 SFC VIS 4 CIG 004V008 P0000 T01670156=
202312261852 METAR KATL 261852Z 30006KT 1 1/2SM -DZ BR BKN004 OVC012 17/16 A2990 RMK AO2 SFC VIS 3 SLP120 CIG 003V006 P0000 T01670156=
202312261752 METAR KATL 261752Z 30005KT 1 1/2SM -DZ BR OVC004 17/16 A2992 RMK AO2 SFC VIS 1 3/4 SLP129 CIG 003V005 P0000 60000 T01670156 10167 20156 58013=
202312261652 METAR KATL 261652Z 30006KT 2SM -DZ BR BKN004 OVC012 17/16 A2995 RMK AO2 RAE20DZB20 SLP136 CIG 003V006 P0000 T01670156=
202312261552 METAR KATL 261552Z 29004KT 2SM -RA BR OVC004 16/15 A2997 RMK AO2 SFC VIS 2 1/2 DZE38RAB38 SLP146 CIG 003V006 P0000 T01610150=
202312261452 METAR KATL 261452Z 34007KT 2SM -DZ BR OVC004 16/15 A2996 RMK AO2 SFC VIS 4 DZB08 SLP143 CIG 003V006 P0000 60000 T01610150 51010=
202312261444 SPECI KATL 261444Z 34006KT 3SM -DZ BR BKN004 OVC011 16/15 A2996 RMK AO2 DZB08 CIG 003V006 P0000 T01610150=
202312261409 SPECI KATL 261409Z 32008KT 3SM -DZ BR BKN006 OVC012 16/15 A2996 RMK AO2 SFC VIS 6 DZB08 CIG 004V008 P0000 T01610150=
202312261352 METAR KATL 261352Z 33008KT 3SM BR SCT004 SCT009 OVC013 16/14 A2996 RMK AO2 SFC VIS 6 DZE33 SLP141 P0000 T01560144=
202312261252 METAR KATL 261252Z 32007KT 1SM -DZ BR OVC004 16/14 A2995 RMK AO2 SFC VIS 2 1/2 RAE13DZB13 SLP137 CIG 003V006 TWRINC P0000 T01560144=
202312261152 METAR KATL 261152Z 31005KT 1SM -RA BR BKN004 OVC009 16/15 A2993 RMK AO2 SFC VIS 3 DZE00RAB00 SLP132 CIG 003V006 TWRINC P0002 60013 70169 T01560150 10172 20156 55001=
202312261138 SPECI KATL 261138Z 29006KT 1SM -RA BR BKN004 OVC009 16/15 A2993 RMK AO2 SFC VIS 3 DZE00RAB00 CIG 003V006 TWRINC P0001 T01560150=
202312261052 METAR KATL 261052Z 32007KT 1SM -DZ BR SCT003 BKN009 OVC013 16/15 A2993 RMK AO2 SFC VIS 3 RAE51DZB51 SLP131 TWRINC P0005 T01610150 $=
202312261018 SPECI KATL 261018Z 32006KT 1SM -RA BR SCT003 BKN006 OVC013 16/16 A2992 RMK AO2 SFC VIS 2 1/2 CIG 004V008 TWRINC P0003 T01610156 $=
202312261009 SPECI KATL 261009Z 34005KT 1SM -RA BR BKN004 OVC012 17/16 A2991 RMK AO2 SFC VIS 2 CIG 003V006 TWRINC P0003 T01670156 $=
202312260952 METAR KATL 260952Z 32004KT 1/2SM -RA BR OVC004 17/16 A2992 RMK AO2 SFC VIS 2 DZE16RAB16 SLP126 CIG 003V006 TWRINC P0005 T01670156 $=
202312260941 SPECI KATL 260941Z 29003KT 1/2SM -RA BR OVC004 17/16 A2992 RMK AO2 SFC VIS 2 DZE16RAB16 CIG 003V005 TWRINC P0004 T01670161 $=
202312260923 SPECI KATL 260923Z 00000KT 1/2SM -RA BR SCT003 BKN005 OVC012 17/17 A2992 RMK AO2 SFC VIS 1 1/4 DZE16RAB16 TWRINC P0002 T01720167 $=
202312260921 SPECI KATL 260921Z 00000KT 1 1/4SM -RA BR SCT003 BKN005 OVC012 17/17 A2992 RMK AO2 DZE16RAB16 P0002 T01720167 $=
202312260917 SPECI KATL 260917Z 00000KT 1 1/4SM -RA BR OVC004 17/17 A2992 RMK AO2 DZE16RAB16 P0002 T01720167 $=
202312260910 SPECI KATL 260910Z 00000KT 3/4SM R09R/P6000FT -DZ BR VV003 17/16 A2993 RMK AO2 P0000 T01720161 $=
202312260852 METAR KATL 260852Z 14003KT 1 1/2SM -DZ BR OVC002 17/16 A2993 RMK AO2 SLP131 P0000 60001 T01720161 56005 $=
202312260752 METAR KATL 260752Z 15004KT 5SM -DZ BR OVC003 17/16 A2993 RMK AO2 SLP132 P0000 T01720161 $=
202312260652 METAR KATL 260652Z 15004KT 6SM -DZ BR OVC004 17/16 A2994 RMK AO2 RAE51DZB51 SLP134 CIG 003V005 P0001 T01720161 $=
202312260640 SPECI KATL 260640Z 15007KT 3SM -RA BR OVC004 17/17 A2994 RMK AO2 CIG 003V005 P0001 T01720167 $=
202312260637 SPECI KATL 260637Z 15004KT 2SM -RA BR OVC004 17/17 A2994 RMK AO2 CIG 003V005 P0001 T01720167 $=
202312260619 SPECI KATL 260619Z 15006KT 4SM -RA BR BKN003 OVC015 17/16 A2994 RMK AO2 P0001 T01720161 $=
202312260552 METAR KATL 260552Z 14008G18KT 4SM -RA BR BKN005 OVC015 17/16 A2995 RMK AO2 SLP138 CIG 003V007 P0014 60043 T01720161 10172 20172 58010 $=
202312260452 METAR KATL 260452Z 14006KT 4SM -RA BR OVC006 17/16 A2996 RMK AO2 SLP142 CIG 003V008 P0008 T01720161 401720139 $=
202312260420 SPECI KATL 260420Z 14005KT 2 1/2SM RA BR BKN005 OVC015 17/16 A2997 RMK AO2 CIG 003V007 P0003 T01720161 $=
202312260352 METAR KATL 260352Z 13006KT 4SM -RA BR BKN005 BKN012 OVC020 17/16 A2997 RMK AO2 SLP146 P0004 T01720161 $=
202312260252 METAR KATL 260252Z 14007KT 5SM -RA BR BKN007 OVC012 17/16 A2998 RMK AO2 RAB48 SLP149 P0000 60017 T01720161 53003 $=
202312260152 METAR KATL 260152Z 13004KT 10SM BKN006 OVC012 17/16 A2997 RMK AO2 SLP146 T01720161 $=
202312260123 SPECI KATL 260123Z 14004KT 10SM OVC005 17/16 A2997 RMK AO2 CIG 004V008 T01720161 $=
202312260052 METAR KATL 260052Z 17004KT 8SM BKN004 OVC015 17/16 A2997 RMK AO2 RAE39 SLP147 P0017 T01720161 $=
202312260049 SPECI KATL 260049Z 18005KT 8SM BKN004 OVC015 17/16 A2998 RMK AO2 RAE39 P0017 $=
202312252352 METAR KATL 252352Z 23005KT 3SM -RA BR FEW004 BKN015 OVC040 17/16 A2997 RMK AO2 SLP146 P0022 60094 T01720161 10172 20161 53013 $=
202312252335 SPECI KATL 252335Z 21005KT 3SM -RA BR FEW004 BKN020 OVC045 17/16 A2997 RMK AO2 P0020 T01720161 $=
202312252252 METAR KATL 252252Z 21007KT 2SM RA BR FEW005 BKN020 OVC045 17/16 A2996 RMK AO2 SLP143 P0057 T01720161 $=
202312252244 SPECI KATL 252244Z 22006KT 1 1/2SM RA BR FEW005 BKN020 OVC045 17/16 A2995 RMK AO2 P0053 T01720161 $=
202312252218 SPECI KATL 252218Z 26004KT 3/4SM +RA BR OVC005 17/16 A2995 RMK AO2 CIG 003V007 P0013 T01720161 RVRNO $=
202312252152 METAR KATL 252152Z 15007KT 1 1/4SM -RA BR OVC005 17/16 A2993 RMK AO2 SLP134 CIG 003V007 P0003 T01720161 $=
202312252125 SPECI KATL 252125Z 14009KT 1 1/2SM -RA BR OVC006 17/16 A2993 RMK AO2 CIG 004V008 P0000 T01720161 $=
202312252052 METAR KATL 252052Z 14010KT 6SM -RA BR OVC007 17/16 A2993 RMK AO2 SLP133 CIG 005V009 P0002 60012 T01720161 56012 $=
202312251952 METAR KATL 251952Z 13010KT 3SM -RA BR BKN008 BKN014 OVC022 17/16 A2994 RMK AO2 SLP136 CIG 006V010 P0007 T01720161 $=
202312251931 SPECI KATL 251931Z 14009KT 3SM -RA BR BKN007 OVC012 17/16 A2994 RMK AO2 CIG 005V009 P0006 T01720156 $=
202312251930 SPECI KATL 251930Z 13010KT 2SM -RA BR SCT007 OVC012 17/16 A2994 RMK AO2 P0006 T01720156 $=
202312251852 METAR KATL 251852Z 13009G17KT 1 1/2SM -RA BR OVC006 17/16 A2995 RMK AO2 SLP137 CIG 004V008 P0003 T01670156 $=
202312251849 SPECI KATL 251849Z 13011KT 1 1/2SM -RA BR OVC006 17/16 A2995 RMK AO2 CIG 004V008 P0002 $=
202312251752 METAR KATL 251752Z 14010G19KT 6SM -RA BR BKN007 OVC012 16/15 A2997 RMK AO2 SLP146 CIG 005V009 P0009 60019 T01610150 10161 20144 58018 $=
202312251725 SPECI KATL 251725Z 13012G20KT 3SM -RA BR BKN005 BKN010 OVC017 16/15 A2999 RMK AO2 CIG 003V007 P0008 T01610150 $=
202312251711 SPECI KATL 251711Z 14013G20KT 1 1/2SM +RA BR BKN005 OVC011 16/14 A3000 RMK AO2 CIG 003V007 P0003 T01560144 $=
202312251652 METAR KATL 251652Z 13010G18KT 3SM -RA BR OVC006 16/14 A3000 RMK AO2 SLP158 CIG 004V008 P0002 T01560144 $=
202312251552 METAR KATL 251552Z 14012G22KT 3SM -RA BR BKN006 OVC011 16/14 A3001 RMK AO2 PK WND 13028/1528 SLP161 CIG 004V008 P0004 T01560139 $=
202312251452 METAR KATL 251452Z 12013G24KT 6SM -RA BR OVC007 15/13 A3003 RMK AO2 PK WND 10026/1423 SLP165 CIG 005V009 P0003 60004 T01500133 58004 $=
202312251352 METAR KATL 251352Z 11015G22KT 7SM -RA OVC007 14/13 A3003 RMK AO2 PK WND 14026/1304 RAB24 SLP165 CIG 006V010 P0000 T01440133 $=
202312251252 METAR KATL 251252Z 12015G25KT 9SM BKN008 OVC013 14/13 A3004 RMK AO2 PK WND 12027/1220 RAE38 SLP170 CIG 007V010 P0001 T01440128 $=
202312251152 METAR KATL 251152Z 12017G25KT 8SM -RA BKN008 OVC013 14/13 A3004 RMK AO2 PK WND 12029/1142 SLP169 CIG 007V010 P0006 60027 70028 T01440128 10156 20139 56007 $=
202312251052 METAR KATL 251052Z 11012G20KT 6SM -RA BR BKN008 BKN013 OVC032 14/13 A3005 RMK AO2 SLP172 CIG 007V010 P0005 T01390128 $=
202312250952 METAR KATL 250952Z 11011G23KT 9SM -RA BKN008 BKN050 OVC080 14/13 A3005 RMK AO2 SLP173 CIG 007V010 P0008 T01390128 $=
202312250900 SPECI KATL 250900Z 11015G21KT 6SM RA BR BKN009 BKN039 OVC075 14/12 A3006 RMK AO2 P0002 T01390122 $=
202312250852 METAR KATL 250852Z 11009G19KT 8SM -RA SCT012 BKN050 OVC070 14/12 A3006 RMK AO2 SLP177 P0006 60008 T01390122 56021 $=
202312250752 METAR KATL 250752Z 11011G18KT 9SM -RA FEW027 SCT043 OVC080 14/12 A3008 RMK AO2 SLP182 P0002 T01440122 $=
202312250652 METAR KATL 250652Z 11013G20KT 10SM -RA SCT027 BKN046 OVC055 15/12 A3009 RMK AO2 RAB22 SLP188 P0000 T01500117 $=
202312250552 METAR KATL 250552Z 11010G21KT 10SM FEW025 SCT045 BKN060 15/12 A3012 RMK AO2 SLP199 60001 T01500117 10167 20144 58022 $=
202312250452 METAR KATL 250452Z 10010KT 10SM FEW012 BKN055 BKN120 15/12 A3016 RMK AO2 SLP210 T01500117 401830078 $=
202312250352 METAR KATL 250352Z 10010KT 10SM FEW012 SCT038 BKN130 OVC170 15/12 A3019 RMK AO2 SLP220 T01500122 $=
202312250252 METAR KATL 250252Z 10011G19KT 10SM FEW012 BKN050 BKN065 15/13 A3019 RMK AO2 SLP223 60001 T01500128 58006 $=
202312250152 METAR KATL 250152Z 10006KT 9SM FEW007 SCT012 BKN045 14/13 A3021 RMK AO2 SLP229 RAB0059E30DZB30E45 P0001 T01440133 $=
202312250148 SPECI KATL 250148Z 10007KT 9SM FEW007 SCT012 BKN045 14/13 A3021 RMK AO2 RAB0059E30DZB30E45 P0001 $=
202312250135 SPECI KATL 250135Z 10009KT 7SM -DZ BR FEW007 BKN012 OVC040 15/13 A3021 RMK AO2 RAB0059E30DZB35 P0001 T01500133 $=
202312250113 SPECI KATL 250113Z 12009KT 4SM -RA BKN014 OVC021 16/13 A3021 RMK AO2 RAB0059 P0000 T01560128 $=
202312250052 METAR KATL 250052Z 11009G17KT 10SM SCT021 OVC026 16/12 A3021 RMK AO2 SLP230 T01610122 $=
202312242352 METAR KATL 242352Z 10009KT 10SM BKN025 OVC032 17/12 A3021 RMK AO2 SLP229 BINOVC T01670117 10183 20161 53002 $=
202312242252 METAR KATL 242252Z 10008KT 10SM BKN027 BKN036 OVC060 17/11 A3020 RMK AO2 SLP225 T01670111 $=
202312242249 SPECI KATL 242249Z 10009KT 10SM BKN027 BKN036 OVC060 17/11 A3019 RMK AO2 $=
202312242152 METAR KATL 242152Z 10009KT 10SM SCT025 BKN038 BKN060 OVC150 17/11 A3019 RMK AO2 SLP223 T01720111 $=
202312242058 SPECI KATL 242058Z 11012KT 10SM BKN025 BKN150 BKN200 17/11 A3020 RMK AO2 T01720111=
202312242052 METAR KATL 242052Z 11010G17KT 10SM SCT025 SCT150 BKN200 17/11 A3020 RMK AO2 SLP226 T01720111 56020=
202312241952 METAR KATL 241952Z 12012G21KT 10SM SCT025 SCT150 OVC200 18/11 A3021 RMK AO2 SLP228 SCT025 V BKN T01830111=
202312241918 SPECI KATL 241918Z 10012KT 10SM SCT024 BKN150 OVC200 17/11 A3022 RMK AO2 T01720106=
202312241852 METAR KATL 241852Z 10008KT 10SM BKN026 BKN150 OVC200 17/11 A3023 RMK AO2 SLP236 BKN026 V SCT T01720106=
202312241814 SPECI KATL 241814Z 13013KT 10SM BKN024 BKN150 OVC200 16/10 A3025 RMK AO2 VIRGA DSNT S T01610100=
202312241752 METAR KATL 241752Z 12012G20KT 10SM SCT027 SCT150 OVC200 16/10 A3026 RMK AO2 SLP247 VIRGA DSNT S T01610100 10161 20078 58027=
202312241652 METAR KATL 241652Z 11011G16KT 10SM FEW180 BKN220 16/09 A3030 RMK AO2 SLP261 VIRGA DSNT S T01560094=
202312241552 METAR KATL 241552Z 10007KT 10SM FEW180 OVC220 13/09 A3034 RMK AO2 SLP273 T01330094=
202312241452 METAR KATL 241452Z 09009KT 10SM FEW010 SCT180 BKN220 11/09 A3035 RMK AO2 SLP277 T01110089 53014=
202312241352 METAR KATL 241352Z 09007KT 10SM FEW035 SCT200 BKN250 09/07 A3033 RMK AO2 SLP272 VIRGA S-W T00940072=
202312241252 METAR KATL 241252Z 08009KT 10SM FEW200 BKN250 09/07 A3031 RMK AO2 SLP265 T00890067=
202312241152 METAR KATL 241152Z 08005KT 10SM BKN250 09/07 A3031 RMK AO2 SLP263 T00940067 10111 20083 53005=
202312241052 METAR KATL 241052Z 07005KT 10SM BKN250 09/06 A3029 RMK AO2 SLP259 T00890061=
202312240952 METAR KATL 240952Z 07007KT 10SM BKN250 09/07 A3029 RMK AO2 SLP257 T00940067=
202312240852 METAR KATL 240852Z 07006KT 10SM SCT250 09/07 A3029 RMK AO2 SLP255 T00940067 56006=
202312240752 METAR KATL 240752Z 08006KT 10SM SCT250 10/07 A3029 RMK AO2 SLP257 T01000067=
202312240652 METAR KATL 240652Z 08005KT 10SM SCT250 09/07 A3029 RMK AO2 SLP258 T00940067=
202312240552 METAR KATL 240552Z 08004KT 10SM FEW045 SCT100 SCT250 11/08 A3031 RMK AO2 SLP262 T01110078 10150 20106 58003=
202312240452 METAR KATL 240452Z 09005KT 10SM FEW045 SCT250 11/07 A3032 RMK AO2 SLP268 T01060072 401940067=
202312240352 METAR KATL 240352Z 10005KT 10SM FEW045 FEW250 12/08 A3032 RMK AO2 SLP268 T01170078=
202312240252 METAR KATL 240252Z 10004KT 10SM SCT250 13/08 A3032 RMK AO2 SLP268 T01280078 51009=
202312240152 METAR KATL 240152Z 10005KT 10SM SCT250 13/08 A3032 RMK AO2 SLP268 T01330078=
202312240052 METAR KATL 240052Z 10003KT 10SM FEW250 14/08 A3030 RMK AO2 SLP263 T01440078=
202312232352 METAR KATL 232352Z 11003KT 10SM FEW050 FEW250 14/08 A3029 RMK AO2 SLP258 T01440078 10194 20144 53005=
202312232252 METAR KATL 232252Z 12003KT 10SM FEW050 FEW250 16/08 A3028 RMK AO2 SLP255 T01610078=
202312232152 METAR KATL 232152Z 13005KT 10SM FEW038 BKN048 18/08 A3028 RMK AO2 SLP253 T01830083=
202312232052 METAR KATL 232052Z 20006KT 10SM BKN045 19/07 A3027 RMK AO2 SLP251 T01890072 56020=
202312231952 METAR KATL 231952Z 00000KT 10SM SCT042 19/08 A3028 RMK AO2 SLP254 T01890083=
202312231852 METAR KATL 231852Z 00000KT 10SM SCT036 18/08 A3030 RMK AO2 SLP261 T01780078=
202312231752 METAR KATL 231752Z 00000KT 10SM SCT028 18/07 A3034 RMK AO2 SLP272 SCT V BKN T01780072 10178 20072 58015=
202312231652 METAR KATL 231652Z 14004KT 10SM SCT026 SCT032 15/06 A3036 RMK AO2 SLP282 T01500056=
202312231643 SPECI KATL 231643Z 14003KT 10SM SCT026 SCT032 16/06 A3037 RMK AO2 T01560056=
202312231552 METAR KATL 231552Z 09003KT 10SM BKN027 13/03 A3039 RMK AO2 SLP292 T01280033=
202312231452 METAR KATL 231452Z 10005KT 10SM BKN025 10/02 A3038 RMK AO2 SLP290 T01000022 51013=
202312231427 SPECI KATL 231427Z 08006KT 10SM BKN027 09/02 A3037 RMK AO2 T00940017=
202312231352 METAR KATL 231352Z 06006KT 10SM SCT038 SCT120 09/01 A3037 RMK AO2 SLP287 T00890011=
202312231252 METAR KATL 231252Z 07004KT 10SM FEW028 BKN038 BKN120 08/01 A3036 RMK AO2 SLP283 T00780011=
202312231152 METAR KATL 231152Z 08003KT 10SM SCT120 BKN150 08/01 A3034 RMK AO2 SLP277 T00780011 10094 20067 53005=
202312231052 METAR KATL 231052Z 07004KT 10SM SCT120 BKN150 08/01 A3033 RMK AO2 SLP272 T00780011=
202312230952 METAR KATL 230952Z 08004KT 10SM SCT120 BKN150 08/02 A3032 RMK AO2 SLP270 T00780017=
202312230852 METAR KATL 230852Z 03004KT 10SM FEW120 BKN150 07/01 A3032 RMK AO2 SLP270 T00720011 58002=
202312230752 METAR KATL 230752Z 00000KT 10SM BKN150 08/01 A3033 RMK AO2 SLP272 T00830011=
202312230652 METAR KATL 230652Z 12004KT 10SM SCT140 08/01 A3033 RMK AO2 SLP273 T00830011=
202312230552 METAR KATL 230552Z 13003KT 10SM BKN140 09/01 A3033 RMK AO2 SLP272 T00890011 10117 20083 58003=
202312230452 METAR KATL 230452Z 12004KT 10SM BKN150 09/01 A3034 RMK AO2 SLP274 T00890006 401440044=
202312230352 METAR KATL 230352Z 12003KT 10SM BKN160 09/01 A3036 RMK AO2 SLP282 T00890006=
202312230252 METAR KATL 230252Z 00000KT 10SM BKN170 09/00 A3034 RMK AO2 SLP278 T00940000 51010=
202312230152 METAR KATL 230152Z 12004KT 10SM SCT180 09/00 A3033 RMK AO2 SLP275 T00890000=
202312230052 METAR KATL 230052Z 13003KT 10SM SCT180 10/M01 A3033 RMK AO2 SLP275 T01001006=
202312222352 METAR KATL 222352Z 10004KT 10SM BKN180 12/M01 A3031 RMK AO2 SLP267 T01171006 10144 20111 51003=
202312222252 METAR KATL 222252Z 00000KT 10SM BKN140 BKN200 12/M01 A3031 RMK AO2 SLP266 T01221006=
202312222152 METAR KATL 222152Z 15004KT 10SM BKN140 BKN220 14/M01 A3031 RMK AO2 SLP266 T01391011=
202312222052 METAR KATL 222052Z 17004KT 10SM BKN140 BKN220 14/M01 A3030 RMK AO2 SLP264 VIRGA OHD-NE T01391011 56013=
202312221952 METAR KATL 221952Z VRB06KT 10SM BKN150 BKN220 14/M03 A3031 RMK AO2 SLP264 VIRGA DSNT E-S W T01391028=
202312221852 METAR KATL 221852Z 16004KT 10SM SCT150 BKN220 13/M04 A3031 RMK AO2 SLP267 VIRGA OHD-NE-SE-S T01281044=
202312221752 METAR KATL 221752Z 18005KT 10SM BKN150 BKN220 12/M04 A3034 RMK AO2 SLP277 VIRGA ALQDS T01221044 10122 20056 58016=
202312221652 METAR KATL 221652Z 18005KT 10SM BKN160 BKN220 12/M04 A3037 RMK AO2 SLP284 VIRGA ALQDS T01221039=
202312221552 METAR KATL 221552Z 12004KT 10SM SCT160 BKN220 10/M04 A3038 RMK AO2 SLP291 VIRGA DSNT E-S T01001039=
202312221452 METAR KATL 221452Z 00000KT 10SM SCT170 BKN220 08/M01 A3039 RMK AO2 SLP294 VIRGA DSNT N S T00831011 53010=
202312221352 METAR KATL 221352Z 11003KT 10SM BKN170 BKN220 08/M04 A3037 RMK AO2 SLP288 VIRGA DSNT N-NE T00781039=
202312221252 METAR KATL 221252Z 00000KT 10SM BKN150 BKN180 BKN250 06/M03 A3037 RMK AO2 SLP287 T00561033=
202312221152 METAR KATL 221152Z 00000KT 10SM FEW030 SCT150 SCT200 BKN250 06/M03 A3036 RMK AO2 SLP283 T00561033 10083 20044 53003=
202312221052 METAR KATL 221052Z 00000KT 10SM SCT200 OVC250 06/M03 A3034 RMK AO2 SLP278 T00561028=
202312220952 METAR KATL 220952Z 00000KT 10SM CLR 06/M04 A3033 RMK AO2 SLP274 T00611039=
202312220852 METAR KATL 220852Z 00000KT 10SM FEW190 SCT220 OVC250 06/M04 A3035 RMK AO2 SLP279 T00611044 53003=
202312220752 METAR KATL 220752Z 00000KT 10SM SCT180 BKN220 OVC250 07/M05 A3034 RMK AO2 SLP277 T00721050=
202312220652 METAR KATL 220652Z 00000KT 10SM FEW180 BKN210 OVC250 07/M04 A3033 RMK AO2 SLP273 T00721039=
202312220552 METAR KATL 220552Z 10005KT 10SM FEW150 BKN200 OVC250 08/M04 A3034 RMK AO2 SLP275 T00781039 10117 20072 58014=
202312220452 METAR KATL 220452Z 12003KT 10SM FEW150 BKN180 OVC250 09/M05 A3036 RMK AO2 SLP284 T00891050 401390000=
202312220352 METAR KATL 220352Z 00000KT 10SM BKN150 BKN200 OVC250 10/M07 A3038 RMK AO2 SLP289 T01001072=
202312220252 METAR KATL 220252Z 00000KT 10SM SCT140 BKN200 OVC250 09/M05 A3038 RMK AO2 SLP291 T00941050 53003=
202312220152 METAR KATL 220152Z 12003KT 10SM BKN150 OVC200 11/M08 A3037 RMK AO2 SLP289 T01061078=
202312220052 METAR KATL 220052Z 16003KT 10SM BKN150 OVC200 11/M07 A3038 RMK AO2 SLP292 T01061072=
202312212352 METAR KATL 212352Z 12003KT 10SM BKN200 OVC250 12/M08 A3037 RMK AO2 SLP290 T01171083 10139 20111 55004=
202312212252 METAR KATL 212252Z 00000KT 10SM BKN200 OVC250 12/M08 A3037 RMK AO2 SLP288 T01171083=
202312212152 METAR KATL 212152Z 00000KT 10SM BKN200 BKN250 12/M09 A3038 RMK AO2 SLP292 T01221089=
202312212052 METAR KATL 212052Z 09005KT 10SM BKN200 BKN250 14/M09 A3038 RMK AO2 SLP293 T01391089 56010=
202312211952 METAR KATL 211952Z 00000KT 10SM FEW170 BKN200 BKN250 13/M10 A3039 RMK AO2 SLP296 T01331100=
202312211852 METAR KATL 211852Z 00000KT 10SM FEW170 BKN200 BKN250 13/M09 A3040 RMK AO2 SLP299 T01331089=
202312211752 METAR KATL 211752Z 00000KT 10SM FEW150 BKN200 BKN250 13/M07 A3042 RMK AO2 SLP303 T01281072 10128 20006 58013=
202312211652 METAR KATL 211652Z 13004KT 10SM FEW150 SCT200 BKN250 11/M07 A3044 RMK AO2 SLP312 T01061067=
202312211552 METAR KATL 211552Z 10005KT 10SM BKN250 09/M06 A3046 RMK AO2 SLP320 T00891061=
202312211452 METAR KATL 211452Z 10004KT 10SM BKN250 07/M06 A3046 RMK AO2 SLP319 T00721056 53007=
202312211352 METAR KATL 211352Z 00000KT 10SM BKN250 04/M03 A3045 RMK AO2 SLP315 T00441028=
202312211252 METAR KATL 211252Z 00000KT 10SM BKN250 01/M06 A3044 RMK AO2 SLP314 T00061056=
202312211152 METAR KATL 211152Z 00000KT 10SM SCT250 01/M05 A3043 RMK AO2 SLP312 T00061050 10039 20000 53000=
202312211052 METAR KATL 211052Z 00000KT 10SM SCT250 01/M06 A3042 RMK AO2 SLP309 T00111061=
202312210952 METAR KATL 210952Z 00000KT 10SM SCT250 01/M06 A3043 RMK AO2 SLP309 T00061056=
202312210852 METAR KATL 210852Z 00000KT 10SM FEW200 BKN250 02/M06 A3043 RMK AO2 SLP311 T00171061 58003=
202312210752 METAR KATL 210752Z 09003KT 10SM FEW200 SCT250 03/M06 A3044 RMK AO2 SLP313 T00281061=
202312210652 METAR KATL 210652Z 09003KT 10SM FEW200 SCT250 03/M07 A3043 RMK AO2 SLP311 T00281067=
202312210552 METAR KATL 210552Z 00000KT 10SM FEW200 BKN250 03/M07 A3044 RMK AO2 SLP314 T00331067 10083 20028 53003=
202312210452 METAR KATL 210452Z 09003KT 10SM FEW200 BKN250 04/M07 A3044 RMK AO2 SLP313 T00441067 401171017=
202312210352 METAR KATL 210352Z 09006KT 10SM FEW200 BKN250 04/M06 A3043 RMK AO2 SLP310 T00391061=
202312210252 METAR KATL 210252Z 10003KT 10SM FEW200 BKN250 06/M07 A3043 RMK AO2 SLP311 T00561072 51002=
202312210152 METAR KATL 210152Z 13003KT 10SM FEW200 BKN250 06/M08 A3043 RMK AO2 SLP311 T00611078=
202312210052 METAR KATL 210052Z 13003KT 10SM SCT200 BKN250 07/M08 A3043 RMK AO2 SLP311 T00671083=
202312202352 METAR KATL 202352Z 12003KT 10SM SCT200 BKN250 08/M08 A3043 RMK AO2 SLP309 T00781083 10117 20078 51005=
202312202252 METAR KATL 202252Z 13003KT 10SM SCT200 BKN250 08/M09 A3042 RMK AO2 SLP308 T00831089=
202312202152 METAR KATL 202152Z 16004KT 10SM BKN200 BKN250 10/M09 A3042 RMK AO2 SLP307 T01001094=
202312202052 METAR KATL 202052Z 14004KT 10SM FEW170 BKN200 BKN250 11/M10 A3041 RMK AO2 SLP303 T01111100 56011=
202312202028 SPECI KATL 202028Z 00000KT 10SM FEW003 BKN200 BKN250 11/M10 A3041 RMK AO2 FU FEW003 FU PLUME NW T01111100=
202312201952 METAR KATL 201952Z VRB04KT 10SM FEW180 BKN200 BKN250 11/M09 A3041 RMK AO2 SLP304 T01111094=
202312201852 METAR KATL 201852Z 12004KT 10SM FEW170 BKN200 BKN250 09/M10 A3042 RMK AO2 SLP309 T00941100=
202312201752 METAR KATL 201752Z 16005KT 10SM FEW150 BKN200 BKN250 08/M10 A3044 RMK AO2 SLP316 T00831100 10100 20011 58016=
202312201652 METAR KATL 201652Z 08004KT 10SM FEW170 BKN200 BKN250 09/M09 A3048 RMK AO2 SLP327 T00891094=
202312201552 METAR KATL 201552Z 10004KT 10SM FEW170 BKN200 BKN250 07/M09 A3050 RMK AO2 SLP336 T00721089=
202312201452 METAR KATL 201452Z 12005KT 10SM FEW170 SCT200 BKN250 05/M07 A3049 RMK AO2 SLP334 T00501072 53018=
202312201352 METAR KATL 201352Z 10004KT 10SM SCT200 BKN250 03/M08 A3047 RMK AO2 SLP325 T00281078=
202312201252 METAR KATL 201252Z 08004KT 10SM SCT200 01/M07 A3046 RMK AO2 SLP322 T00111072=
202312201152 METAR KATL 201152Z 03006KT 10SM FEW200 01/M08 A3044 RMK AO2 SLP316 T00111078 10011 21017 53014=
202312201052 METAR KATL 201052Z 03006KT 10SM SCT200 01/M07 A3042 RMK AO2 SLP310 T00061072=
202312200952 METAR KATL 200952Z 00000KT 10SM FEW200 SCT250 M01/M07 A3041 RMK AO2 SLP304 T10061072=
202312200852 METAR KATL 200852Z 06005KT 10SM FEW250 M01/M07 A3039 RMK AO2 SLP300 T10061067 50005=
202312200752 METAR KATL 200752Z 00000KT 10SM FEW250 M01/M07 A3040 RMK AO2 SLP302 T10061072=
202312200652 METAR KATL 200652Z 00000KT 10SM FEW250 M01/M07 A3039 RMK AO2 SLP298 T10111072=
202312200552 METAR KATL 200552Z 00000KT 10SM FEW250 00/M07 A3038 RMK AO2 SLP296 T00001067 10044 20000 53006=
202312200452 METAR KATL 200452Z 04003KT 10SM FEW250 02/M08 A3036 RMK AO2 SLP289 T00221083 400831017=
202312200352 METAR KATL 200352Z 36006KT 10SM FEW250 03/M09 A3037 RMK AO2 SLP293 T00281089=
202312200252 METAR KATL 200252Z 34005KT 10SM FEW250 03/M09 A3036 RMK AO2 SLP289 T00281089 53007=
202312200152 METAR KATL 200152Z 35006KT 10SM FEW250 03/M09 A3035 RMK AO2 SLP287 T00331089=
202312200052 METAR KATL 200052Z 34007KT 10SM FEW250 04/M09 A3034 RMK AO2 SLP284 T00391094=
202312192352 METAR KATL 192352Z 33006KT 10SM FEW250 04/M09 A3034 RMK AO2 SLP283 T00391094 10083 20039 51014=
202312192252 METAR KATL 192252Z 32005KT 10SM FEW250 04/M09 A3032 RMK AO2 SLP277 T00441094=
202312192152 METAR KATL 192152Z 36008KT 10SM FEW250 07/M11 A3032 RMK AO2 SLP273 T00721106=
202312192052 METAR KATL 192052Z 34005KT 10SM FEW250 08/M11 A3030 RMK AO2 SLP266 T00781106 55004=
202312192044 SPECI KATL 192044Z 34006KT 10SM FEW003 FEW250 08/M11 A3030 RMK AO2 FU FEW003 FU PLUME E T00781106=
202312191952 METAR KATL 191952Z 36006KT 10SM FEW200 SCT250 08/M10 A3029 RMK AO2 SLP263 T00781100=
202312191852 METAR KATL 191852Z 01008KT 10SM FEW200 SCT250 07/M10 A3030 RMK AO2 SLP267 T00721100=
202312191752 METAR KATL 191752Z VRB03KT 10SM FEW200 SCT250 06/M09 A3031 RMK AO2 SLP270 T00561094 10061 21017 50001=
202312191652 METAR KATL 191652Z 35006KT 10SM FEW200 FEW250 05/M09 A3032 RMK AO2 SLP276 T00501089=
202312191552 METAR KATL 191552Z 36008KT 10SM FEW200 03/M08 A3032 RMK AO2 SLP275 T00331083=
202312191452 METAR KATL 191452Z 33008KT 10SM FEW250 02/M08 A3030 RMK AO2 SLP269 T00171083 53025=
202312191352 METAR KATL 191352Z 32010KT 10SM CLR 00/M08 A3027 RMK AO2 SLP258 T00001083=
202312191252 METAR KATL 191252Z 33007KT 10SM CLR M02/M08 A3025 RMK AO2 SLP250 T10171083=
202312191152 METAR KATL 191152Z 33007KT 10SM CLR M02/M09 A3023 RMK AO2 SLP242 T10171089 10017 21017 53022=
202312191052 METAR KATL 191052Z 34007KT 10SM CLR M01/M09 A3020 RMK AO2 SLP231 T10111089=
202312190952 METAR KATL 190952Z 34011G16KT 10SM CLR M01/M09 A3017 RMK AO2 SLP223 T10061089=
202312190852 METAR KATL 190852Z 33012KT 10SM CLR 00/M09 A3016 RMK AO2 SLP219 T00001089 53018=
202312190752 METAR KATL 190752Z 33009KT 10SM CLR 01/M09 A3014 RMK AO2 SLP211 T00061094=
202312190652 METAR KATL 190652Z 32011G18KT 10SM CLR 01/M09 A3012 RMK AO2 PK WND 34029/0628 SLP203 T00111094=
202312190552 METAR KATL 190552Z 33015G24KT 10SM CLR 02/M10 A3011 RMK AO2 PK WND 32030/0501 SLP199 T00171100 10100 20017 51024=
202312190452 METAR KATL 190452Z 33017G29KT 10SM CLR 03/M11 A3009 RMK AO2 PK WND 35037/0439 SLP194 T00281111 401440028=
202312190352 METAR KATL 190352Z 33017G24KT 10SM CLR 04/M08 A3007 RMK AO2 PK WND 35027/0309 SLP189 T00441083=
202312190252 METAR KATL 190252Z 33017G31KT 10SM CLR 06/M06 A3003 RMK AO2 PK WND 33034/0237 SLP175 T00611061 51037=
202312190152 METAR KATL 190152Z 32017G35KT 10SM CLR 08/M06 A3000 RMK AO2 PK WND 31035/0147 SLP161 T00781056=
202312190052 METAR KATL 190052Z 30018G26KT 10SM CLR 09/M04 A2997 RMK AO2 PK WND 29032/2355 SLP150 T00891044=
202312182352 METAR KATL 182352Z 30020G35KT 10SM CLR 10/M06 A2992 RMK AO2 PK WND 29035/2352 SLP136 T01001056 10144 20100 53020=
202312182252 METAR KATL 182252Z 28013G23KT 10SM CLR 11/M02 A2988 RMK AO2 PK WND 30028/2203 SLP121 T01061017=
202312182152 METAR KATL 182152Z 29016G30KT 10SM CLR 12/M03 A2986 RMK AO2 PK WND 29030/2146 SLP114 T01221033=
202312182052 METAR KATL 182052Z 30021G31KT 10SM CLR 13/M02 A2986 RMK AO2 PK WND 29031/1954 SLP113 T01331022 55001=
202312181952 METAR KATL 181952Z 30021G31KT 10SM CLR 14/M02 A2984 RMK AO2 PK WND 30031/1948 SLP106 T01391022=
202312181852 METAR KATL 181852Z 28016G22KT 10SM CLR 14/00 A2985 RMK AO2 SLP107 T01390000=
202312181752 METAR KATL 181752Z 29016G21KT 10SM CLR 12/01 A2986 RMK AO2 SLP113 T01220011 10128 20050 58006=
202312181652 METAR KATL 181652Z 31013G18KT 10SM CLR 11/02 A2988 RMK AO2 SLP118 T01110017=
202312181552 METAR KATL 181552Z 30014G22KT 10SM FEW024 09/01 A2989 RMK AO2 PK WND 32028/1512 SLP123 T00890011=
202312181452 METAR KATL 181452Z 32013G26KT 10SM FEW022 07/01 A2988 RMK AO2 PK WND 31026/1444 SLP121 T00720011 53023=
202312181352 METAR KATL 181352Z 31014G20KT 10SM FEW020 06/01 A2985 RMK AO2 SLP112 T00610011=
202312181252 METAR KATL 181252Z 31012G24KT 10SM SCT020 05/01 A2984 RMK AO2 PK WND 30028/1201 SLP106 T00500006=
202312181152 METAR KATL 181152Z 31018G26KT 10SM FEW020 06/01 A2981 RMK AO2 PK WND 32030/1120 SLP097 70001 T00560006 10089 20056 53014=
202312181052 METAR KATL 181052Z 32018G25KT 10SM SCT020 06/02 A2979 RMK AO2 PK WND 31030/1016 SLP089 T00610017=
202312181046 SPECI KATL 181046Z 32017G29KT 10SM SCT020 06/02 A2979 RMK AO2 PK WND 31030/1016=
202312180952 METAR KATL 180952Z 32013G22KT 10SM BKN021 07/02 A2977 RMK AO2 SLP084 T00670022=
202312180948 SPECI KATL 180948Z 31014KT 10SM BKN021 07/02 A2977 RMK AO2=
202312180910 SPECI KATL 180910Z 30015G22KT 10SM SCT021 06/02 A2977 RMK AO2 T00610022=
202312180852 METAR KATL 180852Z 31013G22KT 10SM BKN020 07/02 A2977 RMK AO2 SLP081 T00670022 53003=
202312180752 METAR KATL 180752Z 31013G21KT 10SM BKN021 08/03 A2977 RMK AO2 SLP081 T00780028=
202312180652 METAR KATL 180652Z 31014G19KT 10SM BKN021 08/04 A2975 RMK AO2 SLP076 CIG 020V025 T00830039=
202312180552 METAR KATL 180552Z 32011KT 10SM BKN021 BKN030 09/04 A2976 RMK AO2 PK WND 32026/0509 SLP077 T00890044 10117 20089 58000=
202312180452 METAR KATL 180452Z 32011G24KT 10SM BKN023 OVC030 09/05 A2977 RMK AO2 PK WND 32028/0404 SLP079 BINOVC T00940050 401220089=
202312180352 METAR KATL 180352Z 32017G25KT 10SM BKN016 OVC025 10/06 A2977 RMK AO2 PK WND 33027/0258 SLP080 CIG 014V018 BINOVC T01000056=
202312180336 SPECI KATL 180336Z 31014G21KT 10SM BKN016 OVC025 10/06 A2976 RMK AO2 PK WND 33027/0258 CIG 014V018 BINOVC T01000061=
202312180252 METAR KATL 180252Z 31016G22KT 10SM BKN013 OVC020 11/07 A2976 RMK AO2 PK WND 30026/0153 SLP077 BINOVC T01060072 53006=
202312180152 METAR KATL 180152Z 31017G25KT 10SM BKN014 BKN020 OVC028 11/08 A2975 RMK AO2 PK WND 31027/0136 SLP075 BKN014 V SCT BINOVC T01110083=
202312180052 METAR KATL 180052Z 31013KT 10SM OVC012 12/09 A2974 RMK AO2 SLP072 BINOVC T01170094=
202312180003 SPECI KATL 180003Z 32011KT 10SM BKN013 BKN036 12/09 A2974 RMK AO2 T01170094=
202312172352 METAR KATL 172352Z 32011KT 10SM FEW012 BKN036 12/09 A2974 RMK AO2 SLP071 60001 T01170094 10122 20111 55003=
202312172331 SPECI KATL 172331Z 31012KT 10SM SCT012 SCT026 11/09 A2974 RMK AO2 T01110094=
202312172252 METAR KATL 172252Z 31014KT 10SM SCT013 BKN026 12/09 A2973 RMK AO2 SLP068 SCT V BKN T01170094=
202312172205 SPECI KATL 172205Z 31014G21KT 10SM SCT012 OVC026 12/10 A2974 RMK AO2 SCT V BKN BINOVC T01170100=
202312172152 METAR KATL 172152Z 32011KT 10SM BKN011 OVC024 12/10 A2974 RMK AO2 DZE33 SLP071 BKN V SCT BINOVC P0000 T01220100=
202312172128 SPECI KATL 172128Z 32011G18KT 9SM -DZ OVC010 12/10 A2975 RMK AO2 CIG 009V014 P0000 T01220100=
202312172052 METAR KATL 172052Z 32012KT 6SM -DZ BR BKN008 OVC042 12/10 A2975 RMK AO2 SLP073 P0000 60001 T01220100 56015=
202312172001 SPECI KATL 172001Z 33013KT 3SM -DZ BR BKN006 OVC010 12/11 A2975 RMK AO2 P0000 T01170106=
202312171952 METAR KATL 171952Z 33012KT 2 1/2SM -DZ BR BKN006 BKN015 OVC043 12/11 A2975 RMK AO2 DZE25B46RAB25E43 SLP075 P0001 T01220106=
202312171931 SPECI KATL 171931Z 31009KT 2SM -RA BR BKN005 OVC015 12/11 A2976 RMK AO2 DZE25RAB25 P0001 T01220111=
202312171852 METAR KATL 171852Z 33011KT 1 3/4SM -DZ BR OVC008 12/09 A2978 RMK AO2 DZB40 SLP084 P0000 T01170094=
202312171849 SPECI KATL 171849Z 32010KT 2SM -DZ BR OVC008 12/09 A2978 RMK AO2 DZB40 P0000=
202312171752 METAR KATL 171752Z 35010KT 9SM OVC008 12/09 A2979 RMK AO2 RAE17DZB17E26 SLP089 P0000 60000 T01170094 10117 20089 58034=
202312171652 METAR KATL 171652Z 35008KT 7SM -RA OVC007 11/09 A2984 RMK AO2 RAB51 SLP106 PCPN VRY LGT P0000 T01110089=
202312171552 METAR KATL 171552Z 02011KT 6SM BR OVC006 11/08 A2987 RMK AO2 SLP116 T01060083=
202312171452 METAR KATL 171452Z 03009KT 6SM BR OVC006 10/08 A2990 RMK AO2 SLP125 T01000078 56009=
202312171352 METAR KATL 171352Z 04010KT 7SM OVC007 09/07 A2990 RMK AO2 SLP127 T00940072=
202312171252 METAR KATL 171252Z 05011G23KT 8SM OVC007 09/07 A2990 RMK AO2 SLP127 T00940067=
202312171152 METAR KATL 171152Z 05013KT 10SM OVC007 09/07 A2992 RMK AO2 SLP135 60000 T00890072 10100 20089 58017=
202312171052 METAR KATL 171052Z 05011KT 10SM OVC009 09/07 A2995 RMK AO2 SLP142 T00890067=
202312171018 SPECI KATL 171018Z 06011KT 10SM OVC009 09/07 A2995 RMK AO2 T00890067=
202312170952 METAR KATL 170952Z 07012KT 10SM OVC010 09/07 A2995 RMK AO2 SLP144 T00890067=
202312170852 METAR KATL 170852Z 05010KT 10SM OVC012 09/07 A2998 RMK AO2 SLP151 60000 T00890067 56029=
202312170831 SPECI KATL 170831Z 07012KT 10SM OVC011 09/07 A2999 RMK AO2 T00890067=
202312170752 METAR KATL 170752Z 07013KT 10SM OVC008 09/07 A3000 RMK AO2 RAE12 SLP159 P0000 T00890072=
202312170741 SPECI KATL 170741Z 07013KT 10SM OVC008 09/07 A3000 RMK AO2 RAE12 P0000 T00890072=
202312170652 METAR KATL 170652Z 08011KT 9SM -RA FEW008 OVC013 09/07 A3003 RMK AO2 RAB23 SLP171 P0000 T00940072=
202312170642 SPECI KATL 170642Z 07013KT 9SM -RA FEW008 OVC014 09/07 A3004 RMK AO2 RAB23 P0000 T00940072=
202312170626 SPECI KATL 170626Z 07012KT 7SM -RA FEW012 OVC016 10/07 A3005 RMK AO2 RAB23 P0000 T01000072=
202312170552 METAR KATL 170552Z 06011G20KT 10SM BKN014 OVC024 10/07 A3007 RMK AO2 RAE36 SLP181 CIG 012V016 P0000 60000 T01000072 10106 20094 56019=
202312170526 SPECI KATL 170526Z 08013G22KT 3SM -RA OVC014 10/07 A3007 RMK AO2 SFC VIS 8 CIG 012V016 P0000 T01000072=
202312170452 METAR KATL 170452Z 09012KT 3SM -RA OVC015 09/07 A3007 RMK AO2 SFC VIS 8 SLP182 CIG 014V018 P0000 T00940072 401440050=
202312170352 METAR KATL 170352Z 10012KT 3SM -RA BR FEW008 OVC017 09/08 A3010 RMK AO2 SFC VIS 6 DZE43RAB43 SLP194 P0000 T00940078=
202312170310 SPECI KATL 170310Z 09014G21KT 3SM -DZ SCT007 OVC017 09/08 A3011 RMK AO2 SFC VIS 8 P0000 T00940078=
202312170252 METAR KATL 170252Z 09013KT 3SM -DZ BKN007 OVC017 09/08 A3012 RMK AO2 SFC VIS 7 SLP202 CIG 005V009 P0000 60000 T00940078 58017=
202312170152 METAR KATL 170152Z 08012KT 3SM -DZ BR OVC006 09/08 A3015 RMK AO2 SFC VIS 5 DZE02B37RAB02E37 SLP212 CIG 004V008 P0000 T00940078=
202312170052 METAR KATL 170052Z 07014G24KT 3SM -DZ BR OVC007 11/09 A3016 RMK AO2 SFC VIS 6 RAE47DZB47 SLP214 CIG 005V009 P0000 T01060089=
202312162352 METAR KATL 162352Z 07013KT 3SM -RA BR BKN006 OVC016 11/09 A3017 RMK AO2 RAB08 SLP219 CIG 005V008 P0000 60000 T01060089 10144 20106 58002=
202312162340 SPECI KATL 162340Z 07009G20KT 5SM -RA BR BKN006 BKN012 OVC024 11/09 A3018 RMK AO2 RAB08 CIG 005V008 P0000 T01060089=
202312162328 SPECI KATL 162328Z 08010KT 6SM -RA BR SCT008 BKN018 OVC024 11/09 A3018 RMK AO2 RAB08 P0000 T01060089=
202312162252 METAR KATL 162252Z 08010KT 10SM OVC021 12/07 A3019 RMK AO2 SLP227 SHRA N E T01220072=
202312162152 METAR KATL 162152Z 10009KT 10SM BKN024 OVC036 13/05 A3018 RMK AO2 SLP223 T01330050=
202312162137 SPECI KATL 162137Z 09008KT 10SM BKN024 OVC036 13/06 A3018 RMK AO2 T01330056=
202312162052 METAR KATL 162052Z 08007KT 10SM FEW026 BKN037 OVC050 12/07 A3018 RMK AO2 DZB23E34RAB34E43 SLP221 SHRA W-NW P0000 60000 T01220067 55020=
202312161952 METAR KATL 161952Z 10011KT 10SM SCT027 BKN038 OVC060 14/04 A3018 RMK AO2 SLP221 VIRGA ALQDS T01390039=
202312161852 METAR KATL 161852Z 09012KT 10SM BKN038 OVC060 14/03 A3021 RMK AO2 SLP231 VIRGA ALQDS T01390028=
202312161752 METAR KATL 161752Z 10013G19KT 10SM BKN055 BKN190 OVC250 14/02 A3024 RMK AO2 SLP241 VIRGA SE-SW-W T01390022 10139 20083 58033=
202312161652 METAR KATL 161652Z 08009KT 10SM BKN050 OVC200 13/01 A3029 RMK AO2 SLP259 VIRGA S-W T01280011=
202312161552 METAR KATL 161552Z 09011KT 10SM FEW015 BKN060 BKN120 OVC200 11/M01 A3032 RMK AO2 SLP269 VIRGA OHD-SW-W T01111006=
202312161520 SPECI KATL 161520Z 09013KT 10SM SCT015 SCT060 BKN120 OVC200 11/M02 A3033 RMK AO2 T01061017=
202312161452 METAR KATL 161452Z 09013KT 10SM BKN015 OVC060 10/M02 A3034 RMK AO2 SLP276 T01001022 51004=
202312161352 METAR KATL 161352Z 07012KT 10SM BKN017 OVC055 09/M03 A3034 RMK AO2 SLP277 T00941028=
202312161319 SPECI KATL 161319Z 08013KT 10SM BKN018 BKN034 OVC060 09/M03 A3034 RMK AO2 T00891033=
202312161252 METAR KATL 161252Z 07012KT 10SM FEW030 BKN050 BKN200 09/M03 A3034 RMK AO2 SLP277 T00891028=
202312161152 METAR KATL 161152Z 07012KT 10SM FEW021 BKN049 BKN200 08/M02 A3033 RMK AO2 RAB15E25 SLP271 P0000 60000 T00831022 10083 20050 56007=
202312161052 METAR KATL 161052Z 08011KT 10SM FEW028 BKN047 BKN200 07/M02 A3033 RMK AO2 SLP273 T00721022=
202312160952 METAR KATL 160952Z 08007KT 10SM BKN039 BKN055 BKN200 07/M02 A3033 RMK AO2 SLP272 T00671022=
202312160852 METAR KATL 160852Z 08006KT 10SM BKN042 BKN200 07/M03 A3035 RMK AO2 SLP278 T00671028 57006=
202312160752 METAR KATL 160752Z 09007KT 10SM BKN250 05/M02 A3035 RMK AO2 SLP281 T00501022=
202312160652 METAR KATL 160652Z 07006KT 10SM BKN250 06/M03 A3036 RMK AO2 SLP283 T00561028=
202312160552 METAR KATL 160552Z 08008KT 10SM BKN250 06/M03 A3037 RMK AO2 SLP285 T00611033 10111 20056 58016=
202312160452 METAR KATL 160452Z 10006KT 10SM BKN250 06/M03 A3038 RMK AO2 SLP291 T00611033 401560017=
202312160352 METAR KATL 160352Z 09007KT 10SM BKN250 07/M03 A3040 RMK AO2 SLP299 T00671028=
202312160252 METAR KATL 160252Z 09007KT 10SM BKN250 08/M03 A3041 RMK AO2 SLP304 T00781033 55002=
202312160152 METAR KATL 160152Z 09007KT 10SM BKN250 08/M03 A3041 RMK AO2 SLP304 T00781033=
202312160052 METAR KATL 160052Z 09008KT 10SM SCT250 09/M03 A3042 RMK AO2 SLP306 T00941033=
202312152352 METAR KATL 152352Z 11006KT 10SM SCT250 11/M04 A3042 RMK AO2 SLP307 T01111039 10156 20106 53006=
202312152252 METAR KATL 152252Z 09006KT 10SM SCT250 12/M03 A3041 RMK AO2 SLP301 T01171033=
202312152152 METAR KATL 152152Z 10008KT 10SM FEW200 BKN250 14/M05 A3040 RMK AO2 SLP299 T01441050=
202312152052 METAR KATL 152052Z 09008KT 10SM FEW200 SCT250 15/M04 A3040 RMK AO2 SLP299 T01501044 56023=
202312151952 METAR KATL 151952Z 10007KT 10SM FEW200 FEW250 15/M05 A3041 RMK AO2 SLP301 T01501050=
202312151852 METAR KATL 151852Z 10007KT 10SM FEW200 14/M04 A3043 RMK AO2 SLP308 T01441044=
202312151752 METAR KATL 151752Z 12006KT 10SM FEW200 13/M04 A3047 RMK AO2 SLP322 T01281039 10133 20022 58028=
202312151652 METAR KATL 151652Z 10008G17KT 10SM FEW200 12/M04 A3051 RMK AO2 SLP334 T01221044=
202312151552 METAR KATL 151552Z 08011KT 10SM FEW200 10/M04 A3055 RMK AO2 SLP347 T01001039=
202312151452 METAR KATL 151452Z 08010KT 10SM FEW200 07/M04 A3056 RMK AO2 SLP353 T00671039 51004=
202312151352 METAR KATL 151352Z 08009KT 10SM FEW200 04/M04 A3055 RMK AO2 SLP351 T00441039=
202312151252 METAR KATL 151252Z 08008KT 10SM FEW200 03/M04 A3055 RMK AO2 SLP351 T00281039=
202312151152 METAR KATL 151152Z 08008KT 10SM CLR 02/M04 A3054 RMK AO2 SLP349 T00221039 10050 20017 53006=
202312151052 METAR KATL 151052Z 08007KT 10SM CLR 02/M04 A3053 RMK AO2 SLP343 T00171039=
202312150952 METAR KATL 150952Z 09005KT 10SM CLR 03/M04 A3052 RMK AO2 SLP339 T00281039=
202312150852 METAR KATL 150852Z 08008KT 10SM CLR 03/M04 A3053 RMK AO2 SLP341 T00281039 56009=
202312150752 METAR KATL 150752Z 08009KT 10SM CLR 04/M04 A3053 RMK AO2 SLP342 T00391039=
202312150652 METAR KATL 150652Z 08007KT 10SM CLR 04/M04 A3055 RMK AO2 SLP347 T00391039=
202312150552 METAR KATL 150552Z 09006KT 10SM CLR 04/M04 A3056 RMK AO2 SLP350 T00441039 10100 20039 58002=
202312150452 METAR KATL 150452Z 08006KT 10SM CLR 06/M04 A3057 RMK AO2 SLP353 T00561039 401500056=
202312150352 METAR KATL 150352Z 09007KT 10SM CLR 06/M04 A3056 RMK AO2 SLP353 T00611039=
202312150252 METAR KATL 150252Z 08008KT 10SM CLR 07/M03 A3056 RMK AO2 SLP353 T00671033 58000=
202312150152 METAR KATL 150152Z 09008KT 10SM CLR 08/M04 A3057 RMK AO2 SLP356 T00781039=
202312150052 METAR KATL 150052Z 08007KT 10SM CLR 09/M03 A3057 RMK AO2 SLP355 T00891033=
202312142352 METAR KATL 142352Z 09008KT 10SM FEW250 09/M04 A3056 RMK AO2 SLP354 T00941039 10150 20094 56006=
202312142252 METAR KATL 142252Z 10006KT 10SM FEW250 11/M03 A3056 RMK AO2 SLP354 T01061033=
202312142152 METAR KATL 142152Z 07009KT 10SM FEW200 SCT250 14/M04 A3058 RMK AO2 SLP356 T01391044=
202312142052 METAR KATL 142052Z 07011KT 10SM FEW200 SCT250 14/M05 A3058 RMK AO2 SLP358 T01441050 56016=
202312141952 METAR KATL 141952Z 10008KT 10SM SCT200 SCT250 15/M05 A3059 RMK AO2 SLP360 T01501050=
202312141852 METAR KATL 141852Z 09008KT 10SM FEW200 SCT250 14/M05 A3060 RMK AO2 SLP365 T01441050=
202312141752 METAR KATL 141752Z 07011G17KT 10SM FEW200 SCT250 14/M06 A3063 RMK AO2 SLP374 T01391056 10139 20067 58014=
202312141652 METAR KATL 141652Z 06013G19KT 10SM FEW200 SCT250 13/M06 A3065 RMK AO2 SLP383 T01281056=
202312141552 METAR KATL 141552Z 09013G21KT 10SM FEW200 SCT250 12/M06 A3067 RMK AO2 SLP389 T01171061=
202312141452 METAR KATL 141452Z 08015G23KT 10SM FEW200 SCT250 10/M05 A3067 RMK AO2 SLP390 T01001050 51016=
202312141352 METAR KATL 141352Z 08013KT 10SM FEW200 SCT250 08/M02 A3066 RMK AO2 SLP385 T00831017=
202312141252 METAR KATL 141252Z 08012KT 10SM FEW200 SCT250 07/M02 A3064 RMK AO2 SLP380 T00721017=
202312141152 METAR KATL 141152Z 07010KT 10SM FEW200 SCT250 07/M01 A3062 RMK AO2 SLP373 T00671006 10089 20067 53014=
202312141052 METAR KATL 141052Z 05008KT 10SM SCT200 SCT250 07/M01 A3060 RMK AO2 SLP364 T00721006=
202312140952 METAR KATL 140952Z 05007KT 10SM SCT200 BKN250 08/M01 A3058 RMK AO2 SLP359 T00781006=
202312140852 METAR KATL 140852Z 05006KT 10SM BKN200 BKN250 07/M01 A3058 RMK AO2 SLP358 T00721006 53003=
202312140752 METAR KATL 140752Z 04006KT 10SM BKN200 BKN250 08/M01 A3058 RMK AO2 SLP358 T00781011=
202312140652 METAR KATL 140652Z 04005KT 10SM SCT200 BKN250 08/M01 A3057 RMK AO2 SLP355 T00831011=
202312140552 METAR KATL 140552Z 04006KT 10SM SCT200 BKN250 08/M02 A3058 RMK AO2 SLP356 T00831017 10117 20083 50001=
202312140452 METAR KATL 140452Z 02006KT 10SM SCT200 BKN250 09/M01 A3058 RMK AO2 SLP357 T00891011 401500017=
202312140352 METAR KATL 140352Z 03007KT 10SM FEW200 BKN250 11/M01 A3057 RMK AO2 SLP355 T01111011=
202312140252 METAR KATL 140252Z 06006KT 10SM FEW200 BKN250 10/M01 A3057 RMK AO2 SLP356 T01001006 53005=
202312140152 METAR KATL 140152Z 09003KT 10SM FEW200 BKN250 11/M01 A3057 RMK AO2 SLP355 T01061011=
202312140052 METAR KATL 140052Z 08004KT 10SM FEW200 BKN250 11/M01 A3056 RMK AO2 SLP353 T01111011=
202312132352 METAR KATL 132352Z 10003KT 10SM FEW150 SCT200 BKN250 12/M02 A3056 RMK AO2 SLP353 T01171017 10150 20117 53005=
202312132252 METAR KATL 132252Z 10004KT 10SM FEW140 SCT200 BKN250 12/M02 A3055 RMK AO2 SLP349 T01221017=
202312132152 METAR KATL 132152Z 07007KT 10SM SCT120 BKN190 BKN250 14/M02 A3054 RMK AO2 SLP347 T01391017=
202312132052 METAR KATL 132052Z 07005KT 10SM SCT120 BKN190 BKN250 14/M01 A3054 RMK AO2 SLP347 T01441011 56009=
202312131952 METAR KATL 131952Z 07004KT 10SM SCT120 SCT200 BKN250 14/M01 A3055 RMK AO2 SLP347 T01441011=
202312131852 METAR KATL 131852Z 07005KT 10SM SCT120 SCT200 BKN250 14/M01 A3055 RMK AO2 SLP350 T01441006=
202312131752 METAR KATL 131752Z 10006KT 10SM SCT120 SCT200 BKN250 13/01 A3057 RMK AO2 SLP357 T01330006 10133 20028 58008=
202312131652 METAR KATL 131652Z 06006KT 10SM FEW120 SCT200 SCT250 12/01 A3059 RMK AO2 SLP364 T01220011=
202312131552 METAR KATL 131552Z 05005KT 10SM FEW120 SCT200 SCT250 10/01 A3061 RMK AO2 SLP368 T01000006=
202312131452 METAR KATL 131452Z 05005KT 10SM FEW200 SCT250 09/01 A3060 RMK AO2 SLP365 T00890006 51019=
202312131352 METAR KATL 131352Z 05004KT 10SM FEW200 SCT250 07/M01 A3058 RMK AO2 SLP361 T00721006=
202312131252 METAR KATL 131252Z 00000KT 10SM SCT200 SCT250 03/M01 A3056 RMK AO2 SLP354 T00331006=
202312131152 METAR KATL 131152Z 00000KT 10SM SCT200 BKN250 03/M01 A3054 RMK AO2 SLP347 T00331006 10050 20017 53006=
202312131052 METAR KATL 131052Z 00000KT 10SM FEW200 SCT250 02/M01 A3052 RMK AO2 SLP340 T00221011=
202312130952 METAR KATL 130952Z 00000KT 10SM FEW200 SCT250 03/M01 A3052 RMK AO2 SLP339 T00331006=
202312130852 METAR KATL 130852Z 00000KT 10SM SCT200 SCT250 03/M01 A3052 RMK AO2 SLP339 T00331006 53001=
202312130752 METAR KATL 130752Z 00000KT 10SM SCT200 SCT250 04/M01 A3052 RMK AO2 SLP338 T00391006=
202312130652 METAR KATL 130652Z 00000KT 10SM FEW200 SCT250 03/M01 A3051 RMK AO2 SLP336 T00331006=
202312130552 METAR KATL 130552Z 00000KT 10SM SCT250 04/M01 A3052 RMK AO2 SLP338 T00441006 10094 20039 56006=
202312130452 METAR KATL 130452Z 32003KT 10SM FEW200 SCT250 05/M01 A3052 RMK AO2 SLP341 T00501006 401330006=
202312130352 METAR KATL 130352Z 09003KT 10SM FEW200 SCT250 07/M01 A3053 RMK AO2 SLP342 T00671006=
202312130252 METAR KATL 130252Z 11003KT 10SM FEW250 08/M01 A3054 RMK AO2 SLP346 T00781011 50004=
202312130152 METAR KATL 130152Z 11003KT 10SM FEW200 SCT250 08/00 A3055 RMK AO2 SLP350 T00780000=
202312130052 METAR KATL 130052Z 00000KT 10SM FEW200 SCT250 08/M01 A3053 RMK AO2 SLP343 T00831006=
202312122352 METAR KATL 122352Z 00000KT 10SM FEW200 SCT250 09/M01 A3052 RMK AO2 SLP342 T00891011 10133 20089 53023=
202312122252 METAR KATL 122252Z 12003KT 10SM FEW200 BKN250 10/M01 A3049 RMK AO2 SLP330 T01001011=
202312122152 METAR KATL 122152Z 09006KT 10SM SCT200 BKN250 12/M01 A3047 RMK AO2 SLP324 T01171011=
202312122052 METAR KATL 122052Z 02007KT 10SM SCT200 SCT250 13/M02 A3046 RMK AO2 SLP318 T01331017 56005=
202312121952 METAR KATL 121952Z 08006KT 10SM SCT200 SCT250 13/M01 A3046 RMK AO2 SLP318 T01281006=
202312121852 METAR KATL 121852Z 07005KT 10SM SCT200 SCT250 12/M01 A3046 RMK AO2 SLP319 T01171006=
202312121752 METAR KATL 121752Z 06005KT 10SM SCT200 SCT250 11/M01 A3047 RMK AO2 SLP324 T01061006 10111 20022 58007=
202312121652 METAR KATL 121652Z 14006KT 10SM FEW200 SCT250 10/01 A3049 RMK AO2 SLP331 T01000006=
202312121552 METAR KATL 121552Z VRB03KT 10SM FEW200 SCT250 08/01 A3050 RMK AO2 SLP333 T00830006=
202312121452 METAR KATL 121452Z 10005KT 10SM FEW250 06/M01 A3049 RMK AO2 SLP332 T00561006 51023=
202312121352 METAR KATL 121352Z 07009KT 10SM FEW200 04/M02 A3047 RMK AO2 SLP326 T00391017=
202312121252 METAR KATL 121252Z 04007KT 10SM FEW200 02/M03 A3045 RMK AO2 SLP317 T00221028=
202312121152 METAR KATL 121152Z 04006KT 10SM FEW200 02/M03 A3042 RMK AO2 SLP308 T00221033 10022 20006 53019=
202312121052 METAR KATL 121052Z 05005KT 10SM CLR 02/M04 A3040 RMK AO2 SLP300 T00221039=
202312120952 METAR KATL 120952Z 36007KT 10SM CLR 02/M04 A3037 RMK AO2 SLP289 T00221044=
202312120852 METAR KATL 120852Z 34007KT 10SM CLR 01/M04 A3037 RMK AO2 SLP288 T00111039 53012=
202312120752 METAR KATL 120752Z 32004KT 10SM CLR 01/M04 A3035 RMK AO2 SLP282 T00111039=
202312120652 METAR KATL 120652Z 31005KT 10SM CLR 01/M04 A3033 RMK AO2 SLP277 T00061039=
202312120552 METAR KATL 120552Z 32005KT 10SM CLR 01/M04 A3033 RMK AO2 SLP276 T00111039 10061 20011 53006=
202312120452 METAR KATL 120452Z 31006KT 10SM CLR 02/M04 A3032 RMK AO2 SLP273 T00171039 401060006=
202312120352 METAR KATL 120352Z 32006KT 10SM CLR 03/M04 A3031 RMK AO2 SLP270 T00281039=
202312120252 METAR KATL 120252Z 30004KT 10SM CLR 03/M04 A3031 RMK AO2 SLP271 T00331044 53016=
202312120152 METAR KATL 120152Z 31006KT 10SM CLR 04/M04 A3029 RMK AO2 SLP264 T00391039=
202312120052 METAR KATL 120052Z 32007KT 10SM CLR 06/M04 A3027 RMK AO2 SLP257 T00561044=
202312112352 METAR KATL 112352Z 31008KT 10SM CLR 06/M04 A3026 RMK AO2 SLP254 T00611039 10106 20061 51024=
202312112252 METAR KATL 112252Z 31009KT 10SM CLR 07/M04 A3024 RMK AO2 SLP246 T00721039=
202312112152 METAR KATL 112152Z 28008KT 10SM CLR 09/M04 A3021 RMK AO2 SLP237 T00891044=
202312112052 METAR KATL 112052Z 31010KT 10SM CLR 11/M05 A3019 RMK AO2 SLP228 T01061050 53001=
202312111952 METAR KATL 111952Z 31010KT 10SM CLR 11/M04 A3018 RMK AO2 SLP224 T01061044=
202312111852 METAR KATL 111852Z 33009KT 10SM CLR 10/M04 A3017 RMK AO2 SLP220 T01001039=
202312111752 METAR KATL 111752Z 31008KT 10SM CLR 09/M03 A3018 RMK AO2 SLP226 T00891028 10089 20006 58004=
202312111652 METAR KATL 111652Z 31010KT 10SM CLR 08/M02 A3020 RMK AO2 SLP230 T00781022=
202312111552 METAR KATL 111552Z 33011KT 10SM CLR 06/M02 A3021 RMK AO2 SLP234 T00561022=
202312111452 METAR KATL 111452Z 33013KT 10SM CLR 04/M02 A3020 RMK AO2 SLP232 T00391022 51024=
202312111352 METAR KATL 111352Z 32013KT 10SM CLR 02/M03 A3018 RMK AO2 SLP226 T00171028=
202312111252 METAR KATL 111252Z 31010KT 10SM CLR 01/M03 A3015 RMK AO2 SLP216 T00061028=
202312111152 METAR KATL 111152Z 31010KT 10SM CLR 01/M03 A3013 RMK AO2 SLP208 70034 T00061028 10028 20006 53017=
202312111052 METAR KATL 111052Z 32011KT 10SM CLR 01/M02 A3010 RMK AO2 SLP199 T00111022 $=
202312110952 METAR KATL 110952Z 31013KT 10SM FEW025 01/M02 A3010 RMK AO2 SLP198 T00111022=
202312110852 METAR KATL 110852Z 31010KT 10SM FEW025 02/M02 A3008 RMK AO2 SLP189 T00171022 53031=
202312110752 METAR KATL 110752Z 33012G19KT 10SM FEW025 02/M02 A3004 RMK AO2 SLP178 T00171022=
202312110652 METAR KATL 110652Z 32012G19KT 10SM FEW025 02/M02 A3000 RMK AO2 SLP163 T00221017=
202312110552 METAR KATL 110552Z 32015KT 10SM FEW025 03/M01 A2998 RMK AO2 SLP154 60000 T00281011 10072 20028 53018=
202312110452 METAR KATL 110452Z 32014G22KT 10SM FEW025 03/M01 A2996 RMK AO2 PK WND 33028/0402 SLP146 T00331011 401830033=
202312110352 METAR KATL 110352Z 32018G27KT 10SM FEW025 04/M01 A2995 RMK AO2 PK WND 31029/0329 SLP142 T00391006=
202312110252 METAR KATL 110252Z 32017G31KT 10SM FEW025 05/01 A2993 RMK AO2 PK WND 32031/0203 WSHFT 0212 SLP135 60000 T00500006 53011=
202312110219 SPECI KATL 110219Z 33020G30KT 10SM SCT023 06/01 A2993 RMK AO2 PK WND 32031/0203 WSHFT 0159 FROPA T00560011=
202312110152 METAR KATL 110152Z 31015G33KT 10SM FEW018 SCT100 06/02 A2990 RMK AO2 PK WND 31035/0116 SLP124 T00610017=
202312110052 METAR KATL 110052Z 33022G28KT 10SM FEW015 BKN100 BKN110 BKN200 07/03 A2992 RMK AO2 PK WND 33030/0011 RAE2358 SLP132 P0000 T00720033=
202312102352 METAR KATL 102352Z 32018G28KT 10SM -RA SCT014 SCT018 BKN070 BKN250 07/06 A2989 RMK AO2 PK WND 32028/2350 SLP123 P0006 60021 T00720056 10156 20072 51021=
202312102300 SPECI KATL 102300Z 32015G25KT 6SM RA BR BKN012 BKN018 OVC055 07/06 A2989 RMK AO2 P0002 T00720056=
202312102252 METAR KATL 102252Z 33019G26KT 6SM RA BR SCT013 BKN036 OVC060 07/06 A2987 RMK AO2 PK WND 32030/2207 SLP116 P0004 T00720056=
202312102152 METAR KATL 102152Z 32018G26KT 9SM -RA SCT011 OVC038 08/06 A2986 RMK AO2 PK WND 32036/2135 SLP111 P0001 T00830061=
202312102145 SPECI KATL 102145Z 32015G30KT 9SM -RA SCT011 OVC038 08/07 A2986 RMK AO2 PK WND 32036/2135 CIG 009V014 P0001 T00830067=
202312102129 SPECI KATL 102129Z 32018G28KT 8SM -RA BKN010 OVC035 09/07 A2986 RMK AO2 PK WND 33028/2121 CIG 009V014 P0001 T00890067=
202312102108 SPECI KATL 102108Z 32013G21KT 4SM -RA BR BKN008 OVC015 09/08 A2984 RMK AO2 VIS LWR SE-S P0001 T00940078=
202312102052 METAR KATL 102052Z 32017G26KT 2 1/2SM -RA BR BKN008 OVC025 09/08 A2983 RMK AO2 PK WND 33028/2009 RAE04B40 SLP099 P0000 60010 T00940078 55002=
202312101952 METAR KATL 101952Z 32021G28KT 4SM -RA BR BKN006 BKN012 OVC022 11/09 A2982 RMK AO2 PK WND 31032/1924 WSHFT 1909 SLP094 BKN006 V SCT P0010 T01060089 $=
202312101941 SPECI KATL 101941Z 33016G28KT 3SM -RA BR SCT006 BKN013 OVC023 11/09 A2981 RMK AO2 PK WND 31032/1924 WSHFT 1909 P0010 T01060094 $=
202312101929 SPECI KATL 101929Z 33021G32KT 2 1/2SM -RA BR SCT006 BKN012 OVC023 11/10 A2981 RMK AO2 PK WND 31032/1924 WSHFT 1909 VIS SE-S 1 1/2 P0010 T01110100 $=
202312101910 SPECI KATL 101910Z 33017G24KT 2SM RA BR BKN006 BKN012 OVC022 15/13 A2980 RMK AO2 FROPA VIS SE 4 P0001 T01500133 $=
202312101852 METAR KATL 101852Z 23005KT 7SM -RA SCT007 BKN011 OVC024 16/14 A2980 RMK AO2 RAB03 SLP087 P0000 T01560139 $=
202312101828 SPECI KATL 101828Z 20004KT 7SM -RA SCT007 BKN011 OVC028 16/14 A2981 RMK AO2 RAB03 P0000 T01560144 $=
202312101752 METAR KATL 101752Z 23005KT 8SM BKN007 BKN030 OVC060 16/14 A2984 RMK AO2 RAB14E51 SLP099 BKN007 V SCT P0000 60013 T01560144 10156 20150 58020 $=
202312101744 SPECI KATL 101744Z 23004KT 8SM -RA BKN006 BKN033 OVC065 16/14 A2983 RMK AO2 RAB14 P0000 T01560144 $=
202312101652 METAR KATL 101652Z 18004KT 9SM FEW006 BKN036 OVC120 16/14 A2987 RMK AO2 RAE1554 SLP111 P0000 T01560139 $=
202312101617 SPECI KATL 101617Z 15004KT 3SM SCT005 SCT080 OVC120 16/14 A2989 RMK AO2 SFC VIS 7 RAE1554 P0000 T01560144 $=
202312101552 METAR KATL 101552Z 15003KT 3SM -RA BR SCT005 SCT050 OVC110 16/14 A2989 RMK AO2 SFC VIS 6 SLP120 P0001 T01560139 $=
202312101530 SPECI KATL 101530Z 17004KT 3SM RA BR FEW004 SCT065 OVC080 16/14 A2990 RMK AO2 SFC VIS 5 P0000 T01560144 $=
202312101513 SPECI KATL 101513Z 16003KT 8SM -RA FEW004 BKN085 OVC110 16/14 A2990 RMK AO2 P0000 T01560144 $=
202312101452 METAR KATL 101452Z 9SM -RA FEW004 FEW045 OVC085 15/14 A2990 RMK AO2 RAB43 SLP120 P0000 60012 T01500139 56016 $=
202312101352 METAR KATL 101352Z 00000KT 10SM FEW065 BKN080 OVC100 15/14 A2990 RMK AO2 RAB16E47 SLP123 P0001 T01500139 $=
202312101252 METAR KATL 101252Z 33004KT 8SM FEW008 SCT065 OVC090 16/13 A2991 RMK AO2 SLP124 TSB1156E13 RAE47 TS MOV SE P0011 T01560133 $=
202312101216 SPECI KATL 101216Z 17004KT 8SM -RA FEW008 BKN065 OVC095 15/14 A2994 RMK AO2 TSB1156E13 TS MOV SE OCNL LTGICCACG DSNT SE CB DSNT SE P0009 T01500139 $=
202312101157 SPECI KATL 101157Z 00000KT 3SM TSRA BR FEW025CB BKN065 OVC090 15/14 A2992 RMK AO2 PRESFR OCNL LTGICCACG VC S-SW TS VC S-SW MOV NE P0003 T01500144=
202312101152 METAR KATL 101152Z 00000KT 3SM +RA BR BKN065 OVC090 15/14 A2994 RMK AO2 RAB28 SLP136 OCNL LTGICCACG DSNT S-SW CB DSNT S-SW P0010 60066 70106 T01500139 10183 20150 53010=
202312101146 SPECI KATL 101146Z 22004KT 4SM RA BR BKN060 OVC090 15/14 A2996 RMK AO2 RAB28 PRESRR OCNL LTGICCG DSNT S-SW CB DSNT S-SW P0007=
202312101052 METAR KATL 101052Z 35004KT 10SM FEW008 BKN060 OVC090 16/14 A2991 RMK AO2 WSHFT 1009 RAB04E31 TSE18 SLP124 TS DSIPTD P0012 T01560139=
202312101035 SPECI KATL 101035Z 33010KT 10SM FEW008 SCT024 OVC090 16/14 A2992 RMK AO2 WSHFT 1009 RAB04E31 TSE18 TS DSIPTD P0012 T01560139=
202312101025 SPECI KATL 101025Z 32012KT 4SM -RA BR SCT008 BKN029 OVC070 16/14 A2993 RMK AO2 WSHFT 1009 RAB04 TSE18 TS DSIPTD OCNL LTGICCG DSNT NE CB DSNT NE P0012 T01610144=
202312101018 SPECI KATL 101018Z 32015G20KT 2SM +RA BR SCT008 BKN013 OVC025 17/16 A2993 RMK AO2 RAB04 TSE18 PRESRR TS DSIPTD OCNL LTGICCG DSNT N CB DSNT N P0010 T01670156=
202312100952 METAR KATL 100952Z 17007KT 6SM TS BR BKN008 OVC011CB 18/17 A2991 RMK AO2 TSB45 SLP121 OCNL LTGICCG VC SE-SW TS VC SE-SW MOV NE T01780167=
202312100946 SPECI KATL 100946Z 18009KT 6SM TS BR BKN008 OVC013CB 18/17 A2991 RMK AO2 TSB45 OCNL LTGICCG VC SE-SW TS VC SE-SW MOV NE=
202312100852 METAR KATL 100852Z 18010KT 6SM BR BKN007 OVC014 18/17 A2994 RMK AO2 RAE42 SLP133 CIG 005V009 OCNL LTGICCG DSNT S CB DSNT S P0006 60044 T01780167 58013=
202312100752 METAR KATL 100752Z 20006KT 6SM -RA BR BKN007 OVC013 18/17 A2996 RMK AO2 SLP138 TSB03E32 RAE06B13 CIG 005V009 TS MOV NE OCNL LTGICCG DSNT NE CB DSNT NE P0026 T01780167=
202312100736 SPECI KATL 100736Z 21006KT 6SM -RA BR SCT006 BKN013 OVC039 18/17 A2996 RMK AO2 TSB03E32 RAE06B13 TS MOV NE OCNL LTGICCG DSNT NE CB DSNT NE P0023 T01780167=
202312100723 SPECI KATL 100723Z 19011KT 4SM -TSRA BR SCT008 SCT018CB OVC039 18/17 A2996 RMK AO2 TSB03 RAE06B13 OCNL LTGCGICCA S TS S MOV NE OCNL LTG DSNT NE S SW CB DSNT NE S SW P0023 T01780167=
202312100709 SPECI KATL 100709Z 21011G21KT 5SM VCTS BR BKN008 BKN016 OVC031 18/17 A2997 RMK AO2 RAE06 TSE03 OCNL LTG DSNT NE SW CB DSNT NE SW P0009 T01780167=
202312100700 SPECI KATL 100700Z 18011G21KT 5SM -RA BR BKN008 BKN016 OVC031 18/17 A2997 RMK AO2 OCNL LTG DSNT NE SW CB DSNT NE SW P0009 T01780167=
202312100656 SPECI KATL 100656Z 20010G16KT 1 1/2SM +RA BR SCT006 BKN011 OVC027 18/17 A2997 RMK AO2 OCNL LTG DSNT SW CB DSNT SW P0005 T01780167=
202312100652 METAR KATL 100652Z 20008G16KT 4SM -RA BR BKN008 BKN014 OVC027 18/16 A2997 RMK AO2 RAE41B47 TSE12 SLP144 OCNL LTG DSNT SW CB DSNT SW TS DSIPTD P0012 T01780161=
202312100644 SPECI KATL 100644Z 21009KT 8SM BKN008 BKN020 OVC040 18/16 A2997 RMK AO2 RAE41 TSE12 TS DSIPTD P0012 T01780161=
202312100632 SPECI KATL 100632Z 19008G22KT 4SM -RA BR FEW008 BKN025 OVC055 18/16 A2997 RMK AO2 TSE12 TS DSIPTD P0012 T01780161=
202312100625 SPECI KATL 100625Z 21010G22KT 2 1/2SM +RA BR FEW008 BKN040 OVC055 18/16 A2997 RMK AO2 TSE12 TS DSIPTD P0007 T01780161=
202312100612 SPECI KATL 100612Z 19014G22KT 8SM -RA FEW007 SCT018 OVC055 18/16 A2998 RMK AO2 TSE12 TS DSIPTD P0002 T01780161=
202312100552 METAR KATL 100552Z 19011G19KT 4SM TSRA BR FEW008 BKN026CB OVC100 18/16 A2998 RMK AO2 RAB16 TSB46 SLP147 OCNL LTGIC OHD-S-W TS OHD-S-W MOV NE BINOVC P0016 60016 T01780161 10183 20172 56018=
202312100546 SPECI KATL 100546Z 19013G19KT 7SM -TSRA FEW008 BKN026CB OVC100 18/16 A2999 RMK AO2 RAB16 TSB46 OCNL LTGIC S-SW TS S-SW MOV NE P0000=
202312100452 METAR KATL 100452Z 16005KT 10SM FEW022 SCT035 SCT120 17/15 A2999 RMK AO2 SLP153 OCNL LTGIC DSNT SW AND NW CB DSNT SW AND NW T01720150 402060111=
202312100424 SPECI KATL 100424Z 16005KT 10SM SCT025 BKN036 BKN085 18/16 A3002 RMK AO2 T01780156=
202312100352 METAR KATL 100352Z 15005KT 10SM BKN029 BKN036 17/15 A3003 RMK AO2 SLP167 T01720150=
202312100350 SPECI KATL 100350Z 15006KT 10SM BKN029 BKN036 17/15 A3003 RMK AO2=
202312100252 METAR KATL 100252Z 14004KT 10SM FEW005 BKN044 BKN060 17/16 A3005 RMK AO2 RAB16E25 SLP174 P0000 60000 T01720156 58012=
202312100152 METAR KATL 100152Z 12006KT 10SM FEW027 SCT035 BKN046 18/16 A3008 RMK AO2 SLP182 SHRA W T01780156=
202312100052 METAR KATL 100052Z 12004KT 10SM FEW030 BKN035 BKN048 18/16 A3009 RMK AO2 SLP188 T01830161=
202312092352 METAR KATL 092352Z 12004KT 10SM BKN035 BKN041 BKN060 18/16 A3009 RMK AO2 SLP187 T01830161 10206 20172 58002=
202312092252 METAR KATL 092252Z 11004KT 9SM SCT022 BKN035 BKN080 19/16 A3010 RMK AO2 SLP189 ACC OHD T01890161=
202312092234 SPECI KATL 092234Z 11003KT 8SM BKN022 BKN032 BKN075 19/16 A3010 RMK AO2 T01890161=
202312092224 SPECI KATL 092224Z 10004KT 9SM SCT017 SCT035 BKN075 19/16 A3009 RMK AO2 ACC OHD-SE-SW T01940161=
202312092152 METAR KATL 092152Z 08003KT 8SM BKN015 BKN028 BKN070 19/16 A3009 RMK AO2 SLP189 T01890161=
202312092052 METAR KATL 092052Z 18004KT 9SM BKN015 OVC022 20/16 A3010 RMK AO2 SLP188 T02000161 56013=
202312091952 METAR KATL 091952Z 15004KT 7SM BKN016 OVC065 20/16 A3010 RMK AO2 SLP191 BINOVC T02000161=
202312091938 SPECI KATL 091938Z 19004KT 7SM BKN016 BKN065 20/16 A3010 RMK AO2 T02000161=
202312091852 METAR KATL 091852Z 17006KT 7SM BKN013 OVC044 19/16 A3011 RMK AO2 SLP195 CIG 010V016 BINOVC T01890161=
202312091828 SPECI KATL 091828Z 19006KT 6SM BR BKN010 OVC040 18/16 A3012 RMK AO2 CIG 009V012 T01780156=
202312091752 METAR KATL 091752Z 18006KT 6SM BR OVC009 17/15 A3014 RMK AO2 SLP203 60024 T01720150 10172 20111 58015=
202312091652 METAR KATL 091652Z 18006KT 5SM BR BKN006 BKN013 OVC065 16/14 A3016 RMK AO2 RAE05 SLP211 BKN006 V SCT P0000 T01610144=
202312091619 SPECI KATL 091619Z 16007KT 4SM BR BKN005 BKN013 OVC065 16/14 A3017 RMK AO2 RAE05 P0000 T01560144=
202312091608 SPECI KATL 091608Z 17005KT 4SM BR SCT007 BKN013 BKN080 OVC150 14/14 A3018 RMK AO2 RAE05 P0000 T01440139=
202312091552 METAR KATL 091552Z 17004KT 4SM -RA BR SCT013 SCT035 BKN080 BKN150 14/13 A3018 RMK AO2 SLP219 VIS E-SE 2 1/2 P0019 T01390133=
202312091547 SPECI KATL 091547Z 17003KT 3SM RA BR BKN014 BKN035 BKN150 14/13 A3019 RMK AO2 VIS E-S 2 P0018=
202312091524 SPECI KATL 091524Z 17004KT 2 1/2SM +RA BR BKN012 OVC034 14/12 A3019 RMK AO2 VIS N 4 P0004 T01390122=
202312091452 METAR KATL 091452Z 00000KT 3SM RA BR BKN016 OVC036 14/12 A3018 RMK AO2 SLP219 P0004 60005 T01390122 53019=
202312091413 SPECI KATL 091413Z 00000KT 7SM -RA BKN018 OVC028 13/12 A3016 RMK AO2 P0001 T01330117=
202312091352 METAR KATL 091352Z 00000KT 7SM -RA FEW018 OVC032 13/11 A3015 RMK AO2 RAB47 SLP208 P0000 T01280111=
202312091336 SPECI KATL 091336Z 00000KT 8SM SCT017 OVC030 13/11 A3014 RMK AO2 T01280111=
202312091252 METAR KATL 091252Z 13004KT 8SM BKN015 OVC032 12/11 A3013 RMK AO2 RAE38 SLP204 P0001 T01170106=
202312091242 SPECI KATL 091242Z 13003KT 10SM SCT017 OVC032 12/10 A3013 RMK AO2 RAE38 P0001 T01170100=
202312091152 METAR KATL 091152Z 13003KT 7SM -RA FEW016 BKN026 OVC033 11/10 A3012 RMK AO2 RAB00 SLP201 P0003 60004 70004 T01110100 10128 20111 55002=
202312091125 SPECI KATL 091125Z 14004KT 8SM -RA FEW018 SCT027 OVC033 11/09 A3012 RMK AO2 RAB00 P0001 T01110094=
202312091052 METAR KATL 091052Z 13005KT 10SM BKN027 OVC037 12/09 A3011 RMK AO2 RAE25 SLP196 P0000 T01170089=
202312090952 METAR KATL 090952Z 12005KT 10SM -RA BKN027 BKN060 BKN110 OVC200 12/08 A3012 RMK AO2 RAB13E41B49 SLP197 P0001 T01170083=
202312090947 SPECI KATL 090947Z 13004KT 10SM FEW019 BKN027 BKN075 OVC200 12/08 A3012 RMK AO2 RAB13E41 P0001=
202312090852 METAR KATL 090852Z 14005KT 10SM FEW031 BKN045 BKN055 BKN200 12/07 A3013 RMK AO2 SLP201 T01220072 56004=
202312090752 METAR KATL 090752Z 12005KT 10SM BKN030 BKN043 BKN250 12/07 A3013 RMK AO2 SLP202 T01220072=
202312090728 SPECI KATL 090728Z 13004KT 10SM BKN030 BKN200 12/07 A3013 RMK AO2 T01220072=
202312090652 METAR KATL 090652Z 14004KT 10SM BKN027 BKN200 12/07 A3014 RMK AO2 SLP204 T01220072=
202312090646 SPECI KATL 090646Z 14005KT 10SM BKN027 BKN200 12/07 A3014 RMK AO2=
202312090552 METAR KATL 090552Z 14005KT 10SM BKN030 BKN038 BKN200 13/07 A3014 RMK AO2 SLP207 T01280072 10144 20128 58004=
202312090452 METAR KATL 090452Z 13003KT 10SM SCT027 BKN032 BKN200 13/07 A3016 RMK AO2 SLP212 T01280072 401720028=
202312090352 METAR KATL 090352Z 12004KT 10SM SCT027 BKN032 BKN200 13/07 A3016 RMK AO2 SLP212 T01330072=
202312090302 SPECI KATL 090302Z 14004KT 10SM BKN025 BKN048 BKN200 13/07 A3016 RMK AO2 T01330072=
202312090252 METAR KATL 090252Z 14005KT 10SM FEW025 SCT048 BKN200 13/07 A3016 RMK AO2 SLP213 T01280072 50002=
202312090152 METAR KATL 090152Z 15004KT 10SM SCT027 BKN032 BKN200 13/07 A3016 RMK AO2 SLP213 T01330072=
202312090052 METAR KATL 090052Z 17006KT 10SM FEW035 BKN200 BKN250 14/07 A3016 RMK AO2 SLP215 T01390072=
202312082352 METAR KATL 082352Z 17005KT 10SM FEW040 BKN200 BKN250 14/07 A3015 RMK AO2 SLP213 T01440072 10172 20144 53012=
202312082252 METAR KATL 082252Z 17006KT 10SM SCT038 BKN050 BKN250 16/07 A3013 RMK AO2 SLP206 T01610072=
202312082152 METAR KATL 082152Z 18005KT 10SM BKN040 BKN200 BKN250 17/07 A3012 RMK AO2 SLP202 T01670072=
202312082052 METAR KATL 082052Z 20005KT 10SM SCT038 BKN200 BKN250 17/07 A3012 RMK AO2 SLP200 T01670072 56012=
202312081952 METAR KATL 081952Z 22009KT 10SM SCT037 SCT200 BKN250 16/07 A3012 RMK AO2 SLP201 T01610067=
202312081852 METAR KATL 081852Z VRB03KT 10SM FEW034 SCT200 BKN250 16/06 A3013 RMK AO2 SLP205 T01610061=
202312081752 METAR KATL 081752Z 24004KT 10SM FEW033 BKN200 BKN250 14/05 A3015 RMK AO2 SLP212 VIRGA ALQDS T01440050 10144 20028 58016=
202312081652 METAR KATL 081652Z 18007KT 10SM FEW030 SCT200 BKN250 14/04 A3019 RMK AO2 SLP224 VIRGA DSNT S-W T01390039=
202312081552 METAR KATL 081552Z 21004KT 10SM FEW030 FEW200 BKN250 12/03 A3020 RMK AO2 SLP227 VIRGA DSNT SE-S T01220028=
202312081452 METAR KATL 081452Z 20006KT 9SM FEW030 SCT200 BKN250 11/01 A3020 RMK AO2 SLP230 VIRGA NW-N T01060011 51009=
202312081352 METAR KATL 081352Z 00000KT 9SM FEW200 BKN250 07/01 A3020 RMK AO2 SLP230 VIRGA DSNT SE W T00720011=
202312081252 METAR KATL 081252Z 00000KT 10SM FEW150 SCT200 BKN250 03/M01 A3019 RMK AO2 SLP228 VIRGA S-SW T00331006=
202312081152 METAR KATL 081152Z 00000KT 10SM FEW200 BKN250 03/M01 A3017 RMK AO2 SLP222 T00331006 10061 20028 53003=
202312081052 METAR KATL 081052Z 19003KT 10SM SCT200 BKN250 04/M01 A3016 RMK AO2 SLP217 T00391006=
202312080952 METAR KATL 080952Z 00000KT 10SM SCT200 BKN250 04/M01 A3016 RMK AO2 SLP216 T00441006=
202312080852 METAR KATL 080852Z 21003KT 10SM BKN250 03/M01 A3016 RMK AO2 SLP217 T00331006 53000=
202312080752 METAR KATL 080752Z 23003KT 10SM BKN250 05/M01 A3016 RMK AO2 SLP215 T00501006=
202312080652 METAR KATL 080652Z 00000KT 10SM BKN250 05/M01 A3015 RMK AO2 SLP212 T00501006=
202312080552 METAR KATL 080552Z 22003KT 10SM BKN250 06/M01 A3016 RMK AO2 SLP216 T00561006 10100 20050 56005=
202312080452 METAR KATL 080452Z 00000KT 10SM BKN250 06/M01 A3017 RMK AO2 SLP218 T00611006 401500000=
202312080352 METAR KATL 080352Z 19003KT 10SM BKN250 06/M01 A3017 RMK AO2 SLP221 T00611006=
202312080252 METAR KATL 080252Z 22004KT 10SM BKN250 07/M01 A3018 RMK AO2 SLP224 T00721011 53002=
202312080152 METAR KATL 080152Z 22004KT 10SM BKN250 08/M01 A3018 RMK AO2 SLP224 T00831011=
202312080052 METAR KATL 080052Z 22003KT 10SM BKN250 09/M02 A3017 RMK AO2 SLP222 T00941017=
202312072352 METAR KATL 072352Z 24003KT 10SM FEW200 BKN250 10/M02 A3017 RMK AO2 SLP223 T01001022 10150 20100 51002=
202312072252 METAR KATL 072252Z 21003KT 10SM FEW200 BKN250 11/M03 A3017 RMK AO2 SLP223 T01111028=
202312072152 METAR KATL 072152Z 22007KT 10SM FEW200 SCT250 13/M03 A3017 RMK AO2 SLP220 T01331033=
202312072052 METAR KATL 072052Z 26007KT 10SM SCT250 14/M03 A3017 RMK AO2 SLP218 T01441033 56019=
202312071952 METAR KATL 071952Z 26005KT 10SM SCT250 14/M04 A3017 RMK AO2 SLP221 T01441044=
202312071852 METAR KATL 071852Z 21004KT 10SM FEW250 13/M02 A3020 RMK AO2 SLP228 T01331022=
202312071752 METAR KATL 071752Z 28006KT 10SM FEW250 13/M02 A3022 RMK AO2 SLP238 T01331017 10133 20000 58020=
202312071652 METAR KATL 071652Z 34006KT 10SM FEW250 11/M02 A3026 RMK AO2 SLP252 T01111017=
202312071552 METAR KATL 071552Z VRB03KT 10SM FEW250 09/M01 A3028 RMK AO2 SLP259 T00891011=
202312071452 METAR KATL 071452Z 22003KT 10SM CLR 07/M01 A3029 RMK AO2 SLP261 T00671011 51007=
202312071352 METAR KATL 071352Z 00000KT 10SM CLR 04/M01 A3027 RMK AO2 SLP257 T00391006=
202312071252 METAR KATL 071252Z 00000KT 10SM CLR 01/M02 A3028 RMK AO2 SLP261 T00061022=
202312071152 METAR KATL 071152Z 00000KT 10SM CLR 00/M03 A3026 RMK AO2 SLP255 T00001028 10033 20000 53005=
202312071052 METAR KATL 071052Z 00000KT 10SM CLR 01/M02 A3025 RMK AO2 SLP250 T00111022 $=
202312070952 METAR KATL 070952Z 31004KT 10SM CLR 01/M02 A3024 RMK AO2 SLP245 T00111022=
202312070852 METAR KATL 070852Z 23003KT 10SM CLR 02/M02 A3025 RMK AO2 SLP248 T00171017 56003=
202312070752 METAR KATL 070752Z 31004KT 10SM CLR 02/M02 A3025 RMK AO2 SLP249 T00171017=
202312070652 METAR KATL 070652Z 30003KT 10SM CLR 03/M02 A3025 RMK AO2 SLP249 T00281017=
202312070552 METAR KATL 070552Z 33004KT 10SM CLR 03/M02 A3026 RMK AO2 SLP250 T00281017 10083 20028 50001=
202312070452 METAR KATL 070452Z 29004KT 10SM FEW250 04/M02 A3026 RMK AO2 SLP251 T00391017 401220039=
202312070352 METAR KATL 070352Z 34005KT 10SM BKN250 06/M02 A3026 RMK AO2 SLP249 T00611022=
202312070252 METAR KATL 070252Z 36008KT 10SM BKN250 07/M02 A3026 RMK AO2 SLP249 T00671022 53001=
202312070152 METAR KATL 070152Z 36008KT 10SM FEW250 07/M02 A3025 RMK AO2 SLP249 T00721017=
202312070052 METAR KATL 070052Z 36007KT 10SM FEW250 08/M02 A3025 RMK AO2 SLP248 T00781017=
202312062352 METAR KATL 062352Z 33007KT 10SM BKN250 08/M02 A3025 RMK AO2 SLP250 T00781022 10122 20078 51006=
202312062252 METAR KATL 062252Z 33007KT 10SM FEW250 09/M02 A3025 RMK AO2 SLP248 T00891022=
202312062152 METAR KATL 062152Z 33010KT 10SM FEW050 10/M02 A3024 RMK AO2 SLP244 T01001022=
202312062052 METAR KATL 062052Z 30012KT 10SM CLR 12/M02 A3023 RMK AO2 SLP240 T01171017 55005=
202312061952 METAR KATL 061952Z 34012KT 10SM FEW045 FEW250 12/M02 A3023 RMK AO2 SLP239 T01171022=
202312061852 METAR KATL 061852Z 32010G19KT 10SM FEW045 SCT250 12/M02 A3024 RMK AO2 SLP242 T01171017=
202312061752 METAR KATL 061752Z 34015KT 10SM SCT039 SCT250 12/M02 A3025 RMK AO2 PK WND 01028/1657 SLP246 T01171017 10117 20050 50003=
202312061652 METAR KATL 061652Z 34015KT 10SM SCT038 SCT250 10/M01 A3026 RMK AO2 SLP249 T01001011=
202312061552 METAR KATL 061552Z 33013G23KT 10SM SCT036 10/M01 A3025 RMK AO2 SLP246 T01001006=
202312061452 METAR KATL 061452Z 34012G22KT 10SM FEW035 FEW250 09/M01 A3024 RMK AO2 SLP243 T00891011 53028=
202312061352 METAR KATL 061352Z 32010KT 10SM FEW036 FEW250 08/01 A3022 RMK AO2 SLP235 T00780006=
202312061252 METAR KATL 061252Z 33008G18KT 10SM FEW038 FEW055 06/01 A3018 RMK AO2 SLP224 T00610006=
202312061152 METAR KATL 061152Z 32007KT 10SM FEW050 06/01 A3016 RMK AO2 SLP215 T00560011 10083 20056 51021=
202312061052 METAR KATL 061052Z 33011KT 10SM FEW055 07/01 A3013 RMK AO2 SLP206 T00670006=
202312060952 METAR KATL 060952Z 33016G24KT 10SM FEW036 FEW070 07/01 A3012 RMK AO2 PK WND 31026/0905 SLP200 T00720006=
202312060852 METAR KATL 060852Z 32012KT 10SM FEW038 FEW065 07/00 A3009 RMK AO2 SLP192 T00720000 53014=
202312060752 METAR KATL 060752Z 31012G19KT 10SM FEW055 FEW070 08/M01 A3008 RMK AO2 SLP186 T00781011=
202312060652 METAR KATL 060652Z 31012G19KT 10SM FEW050 SCT070 08/M03 A3006 RMK AO2 SLP180 T00831028=
202312060552 METAR KATL 060552Z 29010KT 10SM FEW070 08/00 A3005 RMK AO2 SLP177 T00830000 10117 20083 50005=
202312060452 METAR KATL 060452Z 28009KT 10SM FEW075 09/01 A3005 RMK AO2 SLP177 T00890006 401610044=
202312060352 METAR KATL 060352Z 27011G19KT 10SM FEW065 SCT080 11/01 A3005 RMK AO2 SLP175 T01060011=
202312060252 METAR KATL 060252Z 26008KT 10SM BKN080 BKN250 11/01 A3004 RMK AO2 SLP173 T01060006 50002=
202312060152 METAR KATL 060152Z 26009KT 10SM FEW090 FEW250 10/01 A3005 RMK AO2 SLP179 T01000006=
202312060052 METAR KATL 060052Z 26007KT 10SM FEW250 11/00 A3004 RMK AO2 SLP177 T01060000=
202312052352 METAR KATL 052352Z 26007KT 10SM FEW250 12/00 A3003 RMK AO2 SLP171 T01170000 10161 20117 53006=
202312052252 METAR KATL 052252Z 26008KT 10SM FEW250 13/00 A3002 RMK AO2 SLP167 T01280000=
202312052152 METAR KATL 052152Z 27010KT 10SM SCT250 14/M01 A3001 RMK AO2 SLP164 T01441011=
202312052052 METAR KATL 052052Z 29011KT 10SM SCT250 16/00 A3001 RMK AO2 SLP163 T01560000 56019=
202312051952 METAR KATL 051952Z 31011G17KT 10SM FEW200 SCT250 16/01 A3003 RMK AO2 SLP169 T01560011=
202312051852 METAR KATL 051852Z 30012KT 10SM FEW200 SCT250 15/02 A3004 RMK AO2 SLP174 T01500017=
202312051752 METAR KATL 051752Z 30009KT 10SM SCT250 14/03 A3007 RMK AO2 SLP183 T01440028 10144 20044 58022=
202312051652 METAR KATL 051652Z 27006KT 10SM SCT250 13/03 A3010 RMK AO2 SLP193 T01330028=
202312051552 METAR KATL 051552Z 28009KT 10SM FEW036 SCT250 12/03 A3013 RMK AO2 SLP204 T01170033=
202312051452 METAR KATL 051452Z 30006KT 10SM FEW250 09/03 A3014 RMK AO2 SLP205 T00940033 51008=
202312051352 METAR KATL 051352Z 30006KT 10SM FEW250 07/03 A3013 RMK AO2 SLP205 T00720028=
202312051252 METAR KATL 051252Z 30006KT 10SM FEW250 05/02 A3012 RMK AO2 SLP202 T00500017=
202312051152 METAR KATL 051152Z 31004KT 10SM FEW250 04/01 A3011 RMK AO2 SLP198 T00440011 10078 20044 50000=
202312051052 METAR KATL 051052Z 32006KT 10SM FEW250 06/02 A3012 RMK AO2 SLP199 T00560017=
202312050952 METAR KATL 050952Z 31007KT 10SM FEW250 06/02 A3011 RMK AO2 SLP197 T00560017=
202312050852 METAR KATL 050852Z 29007KT 10SM SCT250 06/02 A3011 RMK AO2 SLP196 T00610017 52013=
202312050752 METAR KATL 050752Z 29007KT 10SM SCT250 07/02 A3009 RMK AO2 SLP189 T00670017=
202312050652 METAR KATL 050652Z 28007KT 10SM SCT250 07/02 A3009 RMK AO2 SLP187 T00720017=
202312050552 METAR KATL 050552Z 26004KT 10SM SCT250 08/01 A3007 RMK AO2 SLP182 T00780011 10139 20078 51007=
202312050452 METAR KATL 050452Z 25004KT 10SM FEW200 08/01 A3007 RMK AO2 SLP180 T00830011 402060072=
202312050352 METAR KATL 050352Z 31007KT 10SM FEW200 10/01 A3006 RMK AO2 SLP180 T01000011=
202312050252 METAR KATL 050252Z 33011KT 10SM FEW200 11/01 A3005 RMK AO2 SLP176 T01110006 51006=
202312050152 METAR KATL 050152Z 33012KT 10SM FEW200 12/00 A3004 RMK AO2 SLP174 T01170000=
202312050052 METAR KATL 050052Z 33009KT 10SM FEW200 12/00 A3005 RMK AO2 SLP175 T01220000=
202312042352 METAR KATL 042352Z 31010G18KT 10SM FEW200 14/M01 A3003 RMK AO2 SLP170 T01441011 10206 20139 51034=
202312042252 METAR KATL 042252Z 30008KT 10SM FEW200 15/M02 A3000 RMK AO2 SLP159 T01501017=
202312042152 METAR KATL 042152Z 28011KT 10SM FEW200 FEW250 18/M03 A2996 RMK AO2 SLP145 T01781033=
202312042052 METAR KATL 042052Z 29016G24KT 10SM FEW070 FEW200 SCT250 19/M02 A2993 RMK AO2 PK WND 30027/2039 SLP132 T01941017 53009=
202312041952 METAR KATL 041952Z 26014G22KT 10SM FEW060 FEW200 SCT250 20/01 A2990 RMK AO2 PK WND 27029/1906 SLP122 T02000006=
202312041852 METAR KATL 041852Z 28013G19KT 10SM FEW050 SCT200 SCT250 20/06 A2989 RMK AO2 SLP120 T02000061=
202312041752 METAR KATL 041752Z 27015G21KT 10SM FEW050 SCT200 SCT250 19/06 A2990 RMK AO2 SLP122 T01890061 10189 20072 58017=
202312041652 METAR KATL 041652Z 24012G22KT 10SM FEW048 FEW120 SCT200 SCT250 18/07 A2992 RMK AO2 SLP129 T01780067=
202312041552 METAR KATL 041552Z 24011KT 10SM FEW110 SCT200 SCT250 15/09 A2993 RMK AO2 SLP134 T01500094=
202312041452 METAR KATL 041452Z 22008KT 10SM FEW055 SCT200 SCT250 12/08 A2995 RMK AO2 SLP142 T01220078 50001 $=
202312041352 METAR KATL 041352Z 22006KT 10SM FEW200 BKN250 10/07 A2995 RMK AO2 SLP143 T01000072 $=
202312041252 METAR KATL 041252Z 22004KT 10SM SCT200 BKN250 08/07 A2995 RMK AO2 SLP144 T00830067 $=
202312041152 METAR KATL 041152Z 22003KT 10SM FEW200 SCT250 07/06 A2995 RMK AO2 SLP142 70009 T00720061 10111 20072 53003 $=
202312041052 METAR KATL 041052Z 00000KT 10SM SCT250 08/06 A2994 RMK AO2 SLP136 T00830061 $=
202312040952 METAR KATL 040952Z 24003KT 10SM FEW250 08/06 A2993 RMK AO2 SLP133 T00830061 $=
202312040852 METAR KATL 040852Z 21003KT 10SM SCT250 08/06 A2994 RMK AO2 SLP138 T00830061 58003 $=
202312040752 METAR KATL 040752Z 24003KT 10SM FEW200 BKN250 10/07 A2995 RMK AO2 SLP139 T01000072 $=
202312040652 METAR KATL 040652Z 25003KT 10SM FEW200 BKN250 11/07 A2995 RMK AO2 SLP138 T01060072 $=
202312040552 METAR KATL 040552Z 28004KT 10SM SCT250 11/07 A2995 RMK AO2 SLP140 T01110072 10161 20111 50003 $=
202312040452 METAR KATL 040452Z 29003KT 10SM FEW200 BKN250 12/08 A2995 RMK AO2 SLP141 T01170078 402060111 $=
202312040352 METAR KATL 040352Z 25003KT 10SM BKN250 12/08 A2995 RMK AO2 SLP138 T01220083 $=
202312040252 METAR KATL 040252Z 28003KT 10SM BKN220 BKN250 13/08 A2994 RMK AO2 SLP137 T01330083 50002 $=
202312040152 METAR KATL 040152Z 30005KT 10SM BKN220 BKN250 14/08 A2995 RMK AO2 SLP140 T01390078 $=
202312040052 METAR KATL 040052Z 27006KT 10SM FEW040 SCT180 BKN240 15/07 A2995 RMK AO2 SLP139 T01500067 $=
202312032352 METAR KATL 032352Z 25005KT 10SM FEW040 SCT180 BKN220 16/07 A2994 RMK AO2 SLP132 T01610072 10206 20161 53007 $=
202312032252 METAR KATL 032252Z 23005KT 10SM FEW040 SCT180 BKN250 17/07 A2993 RMK AO2 SLP129 VIRGA DSNT E-S T01720072 $=
202312032152 METAR KATL 032152Z 26007KT 10SM FEW042 SCT180 BKN220 18/07 A2992 RMK AO2 SLP125 VIRGA DSNT E-S T01830067 $=
202312032052 METAR KATL 032052Z 26009KT 10SM FEW040 BKN180 BKN220 19/07 A2991 RMK AO2 SLP123 VIRGA DSNT E-S T01940067 55003 $=
202312031952 METAR KATL 031952Z 26006KT 10SM FEW040 SCT180 BKN220 20/09 A2991 RMK AO2 SLP123 VIRGA DSNT E-S T02000089 $=
202312031852 METAR KATL 031852Z 29007KT 10SM SCT180 BKN220 20/09 A2991 RMK AO2 SLP123 VIRGA DSNT S-SW T02000089 $=
202312031752 METAR KATL 031752Z 24006KT 10SM FEW032 SCT180 BKN220 19/10 A2992 RMK AO2 SLP127 VIRGA DSNT E-S 60009 T01940100 10200 20172 58007 $=
202312031652 METAR KATL 031652Z 28006KT 10SM FEW024 BKN180 BKN220 18/12 A2996 RMK AO2 SLP140 VIRGA ALQDS T01830122 $=
202312031552 METAR KATL 031552Z 28010KT 10SM FEW017 BKN180 OVC220 18/13 A2997 RMK AO2 SLP142 VIRGA SE-S W T01780133 $=
202312031509 SPECI KATL 031509Z 28010KT 10SM SCT013 SCT100 OVC180 18/15 A2995 RMK AO2 T01780150 $=
202312031452 METAR KATL 031452Z 29008KT 10SM BKN012 BKN100 OVC150 18/16 A2995 RMK AO2 SLP136 CIG 010V015 60009 T01780156 51029 $=
202312031438 SPECI KATL 031438Z 29008KT 10SM FEW009 BKN013 BKN100 OVC150 18/16 A2994 RMK AO2 T01780161 $=
202312031404 SPECI KATL 031404Z 31009KT 10SM SCT012 SCT025 BKN100 OVC150 18/16 A2993 RMK AO2 T01780161 $=
202312031352 METAR KATL 031352Z 30010KT 9SM SCT008 BKN016 OVC025 17/16 A2992 RMK AO2 SLP127 CIG 014V018 T01720161 $=
202312031337 SPECI KATL 031337Z 30009KT 10SM SCT008 OVC016 18/17 A2992 RMK AO2 T01780167 $=
202312031252 METAR KATL 031252Z 29009KT 7SM BKN006 BKN013 OVC020 18/17 A2990 RMK AO2 RAE31 SLP118 P0009 T01830167 $=
202312031248 SPECI KATL 031248Z 30011G18KT 7SM BKN006 BKN013 OVC020 18/17 A2989 RMK AO2 RAE31 P0009 $=
202312031234 SPECI KATL 031234Z 30007KT 7SM SCT006 BKN013 OVC020 18/17 A2989 RMK AO2 RAE31 P0009 T01830172 $=
202312031215 SPECI KATL 031215Z 29009KT 4SM RA BR BKN005 BKN011 OVC038 18/18 A2988 RMK AO2 CIG 004V008 P0002 T01830178 $=
202312031211 SPECI KATL 031211Z 27007KT 2 1/2SM RA BR BKN005 BKN011 OVC048 18/18 A2987 RMK AO2 P0002 T01830178 $=
202312031152 METAR KATL 031152Z 22008KT 5SM -RA BR BKN005 OVC011 18/18 A2986 RMK AO2 DZE12RAB43 SLP106 P0001 60001 70001 T01830178 10200 20183 53005 $=
202312031120 SPECI KATL 031120Z 22010G17KT 7SM BKN005 OVC008 18/17 A2984 RMK AO2 DZE12 P0000 T01830172 $=
202312031052 METAR KATL 031052Z 22009KT 5SM -DZ BR OVC004 18/17 A2984 RMK AO2 SLP098 P0000 T01830172 $=
202312030952 METAR KATL 030952Z 21008KT 3SM -DZ BR OVC004 18/18 A2983 RMK AO2 SLP096 P0000 T01830178 $=
202312030948 SPECI KATL 030948Z 21007KT 3SM -DZ BR OVC004 18/18 A2983 RMK AO2 P0000 $=
202312030852 METAR KATL 030852Z 22012G17KT 5SM -DZ BR OVC006 19/17 A2985 RMK AO2 DZB41 SLP100 CIG 005V007 P0000 60000 T01890172 55007 $=
202312030752 METAR KATL 030752Z 22007G15KT 10SM OVC007 19/17 A2984 RMK AO2 SLP100 T01890172 $=
202312030652 METAR KATL 030652Z 21009KT 10SM OVC007 19/17 A2986 RMK AO2 SLP106 T01890172 $=
202312030552 METAR KATL 030552Z 21008KT 10SM BKN006 OVC010 19/17 A2987 RMK AO2 SLP107 DZE20 CIG 005V007 P0000 60000 T01890172 10189 20178 56009 $=
202312030543 SPECI KATL 030543Z 20011G16KT 10SM OVC006 19/17 A2986 RMK AO2 DZE20 CIG 005V007 P0000 T01890172 $=
202312030452 METAR KATL 030452Z 20005KT 2SM -DZ BR BKN004 OVC008 18/17 A2987 RMK AO2 SFC VIS 5 DZB51 SLP108 P0000 T01830172 401940144 $=
202312030431 SPECI KATL 030431Z 20006KT 2SM BR OVC005 18/17 A2987 RMK AO2 SFC VIS 5 T01830172 $=
202312030352 METAR KATL 030352Z 20005KT 10SM BKN006 OVC010 18/17 A2988 RMK AO2 SLP114 T01830167 $=
202312030252 METAR KATL 030252Z 19007KT 10SM BKN006 OVC010 18/17 A2989 RMK AO2 RAB30E39 SLP118 P0000 60000 T01830167 58008 $=
202312030152 METAR KATL 030152Z 18006KT 7SM OVC006 18/17 A2990 RMK AO2 RAB21E32 SLP123 P0000 T01830167 $=
202312030052 METAR KATL 030052Z 18005KT 10SM OVC009 18/16 A2992 RMK AO2 SLP127 T01830161 $=
202312030043 SPECI KATL 030043Z 18008KT 10SM OVC009 18/16 A2992 RMK AO2 T01830161 $=
202312022352 METAR KATL 022352Z 17004KT 10SM OVC011 18/16 A2992 RMK AO2 SLP127 T01830161 10194 20183 55008 $=
202312022252 METAR KATL 022252Z AUTO 16006KT 10SM OVC011 18/16 A2991 RMK AO2 SLP126 T01830161 $=
202312022152 METAR KATL 022152Z 16006KT 10SM OVC012 19/16 A2992 RMK AO2 SLP128 T01890161 $=
202312022134 SPECI KATL 022134Z 18008KT 10SM OVC013 19/16 A2994 RMK AO2 T01890161 $=
202312022052 METAR KATL 022052Z 18008KT 10SM BKN015 OVC022 19/16 A2994 RMK AO2 SLP135 T01940161 56011 $=
202312021952 METAR KATL 021952Z 16004KT 10SM FEW002 OVC015 19/16 A2994 RMK AO2 SLP136 FU FEW002 T01890161 $=
202312021935 SPECI KATL 021935Z 17005KT 10SM FEW002 OVC016 19/16 A2995 RMK AO2 FU FEW002 T01890156 $=
202312021909 SPECI KATL 021909Z 18005KT 10SM OVC013 19/16 A2995 RMK AO2 T01890156 $=
202312021852 METAR KATL 021852Z 18011KT 10SM OVC015 19/16 A2996 RMK AO2 SLP140 T01940156 $=
202312021752 METAR KATL 021752Z 17006KT 10SM OVC015 19/16 A2998 RMK AO2 SLP146 60000 T01940156 10194 20144 58024 $=
202312021652 METAR KATL 021652Z 14006KT 7SM BKN012 BKN080 OVC150 19/16 A3000 RMK AO2 RAB43E51 SLP153 P0000 T01890161 $=
202312021643 SPECI KATL 021643Z VRB03KT 6SM -RA BKN012 BKN080 OVC150 19/16 A3002 RMK AO2 RAB43 P0000 T01890161 $=
202312021628 SPECI KATL 021628Z 17006KT 6SM BR SCT012 SCT090 OVC150 18/16 A3002 RMK AO2 VIS LWR N-NE T01830161 $=
202312021620 SPECI KATL 021620Z 18007KT 5SM BR BKN011 OVC150 18/16 A3003 RMK AO2 VIS LWR N-NE T01780161 $=
202312021552 METAR KATL 021552Z 16006KT 2SM BR BKN009 OVC015 17/16 A3004 RMK AO2 SFC VIS 3 SLP170 T01720161 $=
202312021524 SPECI KATL 021524Z 00000KT 2SM BR BKN008 OVC015 17/16 A3006 RMK AO2 SFC VIS 3 T01670161 $=
202312021500 SPECI KATL 021500Z 14006KT 2SM BR FEW004 OVC014 16/16 A3004 RMK AO2 SFC VIS 2 1/2 T01610156 $=
202312021452 METAR KATL 021452Z 14005KT 1SM BR FEW004 OVC014 16/16 A3005 RMK AO2 SFC VIS 2 SLP172 T01610156 50002 $=
202312021435 SPECI KATL 021435Z 13004KT 3/4SM R09R/P6000FT BR SCT004 OVC011 16/15 A3005 RMK AO2 SFC VIS 1 VIS SE 1 1/2 T01560150 $=
202312021409 SPECI KATL 021409Z 11004KT 1/2SM FG VV003 15/14 A3005 RMK AO2 T01500144 RVRNO $=
202312021352 METAR KATL 021352Z 09003KT 1/4SM FG VV002 15/14 A3006 RMK AO2 TWR VIS 1/2 SLP175 T01500144 RVRNO $=
202312021329 SPECI KATL 021329Z 10003KT 1/4SM FG VV002 15/14 A3005 RMK AO2 TWR VIS 1/2 T01500144 RVRNO $=
202312021252 METAR KATL 021252Z 10003KT 1/2SM FG VV002 15/14 A3004 RMK AO2 SLP170 T01500144 RVRNO $=
202312021222 SPECI KATL 021222Z 09005KT 1/2SM FG VV002 14/14 A3005 RMK AO2 T01440139 RVRNO $=
202312021152 METAR KATL 021152Z 11003KT 1/4SM FG VV002 14/14 A3004 RMK AO2 TWR VIS 1/2 SLP170 60000 70013 T01440139 10150 20144 53005 RVRNO $=
202312021126 SPECI KATL 021126Z 09004KT 1/4SM FG VV002 14/14 A3003 RMK AO2 TWR VIS 1/2 T01440139 RVRNO $=
202312021052 METAR KATL 021052Z 09004KT 1/2SM FG VV003 14/14 A3002 RMK AO2 SLP162 T01440139 RVRNO $=
202312021033 SPECI KATL 021033Z 08003KT 1/2SM FG VV003 15/14 A3003 RMK AO2 T01500139 RVRNO $=
202312020952 METAR KATL 020952Z 00000KT 1/4SM FG VV002 15/14 A3002 RMK AO2 TWR VIS 1/2 SLP164 T01500144 RVRNO $=
202312020852 METAR KATL 020852Z 10003KT 1/4SM FG VV002 14/14 A3003 RMK AO2 TWR VIS 1/2 SLP166 60000 T01440139 55007 RVRNO $=
202312020752 METAR KATL 020752Z 08003KT 1/4SM FG VV002 14/14 A3003 RMK AO2 TWR VIS 1/2 DZB09E20 SLP165 P0000 T01440139 RVRNO $=
202312020734 SPECI KATL 020734Z 00000KT 1/4SM FG VV002 14/14 A3003 RMK AO2 TWR VIS 1/2 DZB09E20 P0000 T01440139 RVRNO $=
202312020722 SPECI KATL 020722Z 10003KT 1/2SM FG VV002 14/13 A3003 RMK AO2 DZB09E20 P0000 T01440133 RVRNO $=
202312020652 METAR KATL 020652Z 11003KT 1SM BR OVC003 14/13 A3004 RMK AO2 SFC VIS 3 SLP171 TWRINC T01440133 $=
202312020643 SPECI KATL 020643Z 12004KT 1SM BR OVC003 14/13 A3004 RMK AO2 SFC VIS 2 1/2 TWRINC T01440133 $=
202312020613 SPECI KATL 020613Z 09005KT 3SM BR OVC004 14/13 A3005 RMK AO2 SFC VIS 5 T01440128 $=
202312020552 METAR KATL 020552Z 08005KT 3SM BR OVC005 14/13 A3005 RMK AO2 SFC VIS 5 SLP174 T01440128 10178 20144 58001=
202312020452 METAR KATL 020452Z 07005KT 3SM BR OVC005 15/13 A3006 RMK AO2 SFC VIS 5 SLP179 T01500133 401890083=
202312020421 SPECI KATL 020421Z 10005KT 3SM BR OVC006 17/15 A3006 RMK AO2 SFC VIS 6 T01670150=
202312020352 METAR KATL 020352Z 12004KT 8SM BKN008 OVC015 17/15 A3006 RMK AO2 SLP177 T01720150=
202312020308 SPECI KATL 020308Z 10003KT 8SM BKN009 OVC018 17/15 A3006 RMK AO2 T01720150=
202312020252 METAR KATL 020252Z 08004KT 8SM BKN010 OVC018 17/16 A3006 RMK AO2 SLP176 T01720156 50005=
202312020152 METAR KATL 020152Z 00000KT 10SM BKN014 OVC025 17/15 A3006 RMK AO2 SLP178 T01720150=
202312020052 METAR KATL 020052Z 11004KT 10SM BKN017 OVC025 18/15 A3005 RMK AO2 SLP173 T01780150=
202312012352 METAR KATL 012352Z 15003KT 10SM BKN015 OVC030 18/16 A3004 RMK AO2 RAE07 SLP171 P0000 60000 T01780156 10189 20144 53010=
202312012252 METAR KATL 012252Z 16004KT 10SM -RA OVC014 18/15 A3003 RMK AO2 RAE14B51 SLP166 P0000 T01780150=
202312012152 METAR KATL 012152Z 18007KT 9SM -RA OVC014 18/15 A3002 RMK AO2 RAB52 SLP164 PCPN VRY LGT P0000 T01830150=
202312012133 SPECI KATL 012133Z 17004KT 10SM OVC014 18/15 A3002 RMK AO2 T01830150=
202312012052 METAR KATL 012052Z 17006KT 10SM BKN017 OVC033 18/15 A3001 RMK AO2 SLP160 T01830150 55004=
202312011952 METAR KATL 011952Z 16006KT 10SM BKN018 BKN050 OVC180 18/14 A2998 RMK AO2 SLP152 T01830144=
202312011907 SPECI KATL 011907Z 15006KT 9SM BKN022 BKN120 OVC180 17/14 A2999 RMK AO2 T01720139=
202312011852 METAR KATL 011852Z 15006KT 9SM SCT022 SCT060 SCT130 OVC200 17/13 A3000 RMK AO2 SLP157 T01670133=
202312011839 SPECI KATL 011839Z 16007KT 9SM SCT023 SCT055 BKN130 OVC200 17/13 A3000 RMK AO2 MDT CU N-NE T01670133=
202312011823 SPECI KATL 011823Z 17007KT 9SM BKN023 BKN120 OVC200 16/13 A3001 RMK AO2 T01560128=
202312011752 METAR KATL 011752Z 14006KT 7SM FEW022 SCT046 BKN130 OVC200 14/12 A3002 RMK AO2 PRESFR SLP166 VIRGA SW-W 60013 T01440122 10144 20089 58031=
202312011741 SPECI KATL 011741Z 14006KT 7SM SCT022 BKN130 OVC200 13/12 A3003 RMK AO2 T01330117=
202312011729 SPECI KATL 011729Z 13006KT 6SM BR BKN022 BKN042 BKN120 OVC200 13/11 A3004 RMK AO2 T01330111=
202312011704 SPECI KATL 011704Z 13005KT 6SM BR FEW006 SCT018 BKN090 OVC130 12/11 A3007 RMK AO2 T01220111=
202312011652 METAR KATL 011652Z 13005KT 6SM BR FEW006 BKN018 OVC050 12/11 A3008 RMK AO2 RAB36E49 SLP185 P0000 T01220106=
202312011650 SPECI KATL 011650Z 14005KT 6SM BR FEW006 BKN018 OVC050 12/11 A3008 RMK AO2 RAB36E49 P0000=
202312011639 SPECI KATL 011639Z 13005KT 5SM -RA BR FEW006 SCT019 BKN050 OVC130 12/10 A3008 RMK AO2 RAB36 P0000 T01170100=
202312011615 SPECI KATL 011615Z 14005KT 6SM BR FEW006 BKN020 OVC045 11/10 A3009 RMK AO2 T01110100=
202312011552 METAR KATL 011552Z 13006KT 6SM BR SCT005 SCT021 BKN055 OVC150 11/09 A3010 RMK AO2 SLP193 T01060094=
202312011528 SPECI KATL 011528Z 13008KT 5SM BR BKN005 BKN022 OVC050 10/09 A3011 RMK AO2 BKN005 V SCT T01000089=
202312011452 METAR KATL 011452Z 13006KT 6SM BR SCT006 OVC022 10/08 A3011 RMK AO2 RAE09 SLP199 P0000 60013 T01000083 51008=
202312011438 SPECI KATL 011438Z 13007KT 7SM SCT007 BKN025 OVC100 09/08 A3011 RMK AO2 RAE09 P0000 T00940083=
202312011421 SPECI KATL 011421Z 12007KT 7SM FEW007 SCT030 BKN100 OVC130 09/08 A3011 RMK AO2 RAE09 P0000 T00940078=
202312011352 METAR KATL 011352Z 12007KT 7SM -RA FEW011 SCT025 OVC090 09/08 A3011 RMK AO2 SLP200 P0008 T00890078=
202312011327 SPECI KATL 011327Z 10006KT 5SM -RA BR FEW009 SCT020 OVC110 09/07 A3011 RMK AO2 P0008 T00890072=
202312011252 METAR KATL 011252Z 11008KT 3SM RA BR BKN023 OVC050 09/07 A3011 RMK AO2 RAB20 SLP197 P0005 T00890067=
202312011204 SPECI KATL 011204Z 09007KT 10SM BKN026 OVC100 09/06 A3009 RMK AO2 T00940061=
