##########################################################
# Query made at 04/20/2024 00:29:41 UTC
# Time interval: from 10/01/2023 12:00  to 10/31/2023 12:59  UTC
##########################################################

##########################################################
# KATL, Atlanta, Hartsfield - Jackson Atlanta International Airport (United States)
# WMO index: 72219. WIGOS ID: 0-20000-0-72219
# Latitude 33-38-59N. Longitude 084-25-00W. Altitude 312 m.
##########################################################

202310311252 METAR KATL 311252Z 31008G16KT 10SM FEW018 FEW070 BKN120 BKN200 10/06 A3003 RMK AO2 SLP168 T01000056 $=
202310311152 METAR KATL 311152Z 32012KT 10SM FEW015 SCT110 BKN140 BKN200 10/06 A3002 RMK AO2 SLP165 T01000056 10111 20100 53011 $=
202310311052 METAR KATL 311052Z 31010KT 10SM FEW018 SCT070 OVC140 10/06 A3001 RMK AO2 SLP158 T01000056 $=
202310310952 METAR KATL 310952Z 31013G18KT 10SM FEW018 BKN130 11/06 A3000 RMK AO2 SLP153 T01060056 $=
202310310852 METAR KATL 310852Z 32011KT 10SM FEW014 SCT130 BKN150 10/06 A2999 RMK AO2 SLP149 T01000056 50000 $=
202310310752 METAR KATL 310752Z 32010KT 10SM FEW014 SCT130 BKN160 11/06 A2999 RMK AO2 SLP149 T01060061 $=
202310310652 METAR KATL 310652Z 31014KT 10SM FEW014 SCT130 BKN160 11/06 A2999 RMK AO2 SLP150 T01060061 $=
202310310552 METAR KATL 310552Z 32011KT 10SM FEW014 SCT130 BKN160 11/07 A2999 RMK AO2 SLP148 T01110072 10178 20111 58003 $=
202310310452 METAR KATL 310452Z 33011KT 10SM FEW014 FEW025 BKN150 12/08 A2999 RMK AO2 SLP151 T01170078 402940117 $=
202310310443 SPECI KATL 310443Z 32011KT 10SM FEW014 SCT025 BKN150 12/08 A3000 RMK AO2 T01170078 $=
202310310406 SPECI KATL 310406Z 32012KT 10SM SCT014 BKN025 BKN075 12/08 A3001 RMK AO2 T01220083 $=
202310310352 METAR KATL 310352Z 33013G23KT 10SM BKN014 13/08 A3001 RMK AO2 PK WND 31026/0322 SLP155 T01280083 $=
202310310252 METAR KATL 310252Z 32013G21KT 10SM BKN013 BKN075 13/09 A3000 RMK AO2 SLP153 T01280089 53007 $=
202310310243 SPECI KATL 310243Z 32015KT 10SM BKN013 BKN075 13/09 A2999 RMK AO2 T01330089 $=
202310310223 SPECI KATL 310223Z 32010KT 10SM SCT013 SCT075 13/09 A2999 RMK AO2 T01330094 $=
202310310152 METAR KATL 310152Z 33011G18KT 10SM BKN013 BKN075 14/10 A2998 RMK AO2 SLP149 T01390100 $=
202310310052 METAR KATL 310052Z 33011G17KT 10SM BKN070 17/11 A2998 RMK AO2 SLP148 T01670111 $=
202310302352 METAR KATL 302352Z 33010KT 10SM SCT065 18/12 A2997 RMK AO2 SLP145 T01780122 10294 20178 51017 $=
202310302252 METAR KATL 302252Z 33011G22KT 10SM FEW032 SCT070 19/13 A2997 RMK AO2 PK WND 34026/2200 SLP143 T01940128 $=
202310302152 METAR KATL 302152Z 32013G26KT 10SM SCT032 BKN050 24/16 A2994 RMK AO2 PK WND 32026/2144 SLP131 T02440156 $=
202310302052 METAR KATL 302052Z 32016G20KT 10SM SCT050 BKN080 27/16 A2992 RMK AO2 SLP124 FROPA MDT CU NE-OHD-SW T02720156 55012 $=
202310301952 METAR KATL 301952Z 27013KT 10SM SCT050 SCT065 29/14 A2992 RMK AO2 SLP121 MDT CU N-NE S-SW DSNT W-N-NE T02890144 $=
202310301852 METAR KATL 301852Z 23010G18KT 10SM SCT050 28/14 A2993 RMK AO2 SLP127 T02780144 $=
202310301752 METAR KATL 301752Z 26009G18KT 10SM SCT042 28/16 A2996 RMK AO2 SLP135 T02780156 10283 20161 58019 $=
202310301652 METAR KATL 301652Z 29009KT 10SM SCT038 27/17 A2999 RMK AO2 SLP148 T02670167 $=
202310301552 METAR KATL 301552Z 26009KT 10SM FEW030 FEW055 25/16 A3001 RMK AO2 SLP154 T02500161 $=
202310301452 METAR KATL 301452Z 23008KT 10SM FEW055 23/16 A3002 RMK AO2 SLP157 T02280156 50001 $=
202310301352 METAR KATL 301352Z 21006KT 10SM CLR 20/14 A3002 RMK AO2 SLP160 T02000144 $=
202310301252 METAR KATL 301252Z 00000KT 10SM FEW050 17/14 A3002 RMK AO2 SLP158 T01720139 $=
202310301152 METAR KATL 301152Z 00000KT 10SM FEW050 16/13 A3001 RMK AO2 SLP158 T01610133 10189 20161 58001 $=
202310301052 METAR KATL 301052Z 23003KT 10SM FEW050 18/14 A3002 RMK AO2 SLP157 T01780139 $=
202310300952 METAR KATL 300952Z 22004KT 10SM BKN050 18/14 A3002 RMK AO2 SLP157 T01780139 $=
202310300852 METAR KATL 300852Z 24003KT 10SM FEW050 17/14 A3002 RMK AO2 SLP156 T01720144 56005 $=
202310300752 METAR KATL 300752Z 21004KT 10SM CLR 18/14 A3002 RMK AO2 SLP157 T01780144 $=
202310300652 METAR KATL 300652Z 21004KT 10SM CLR 18/15 A3003 RMK AO2 SLP160 T01830150 $=
202310300552 METAR KATL 300552Z 20003KT 10SM CLR 19/15 A3003 RMK AO2 SLP161 T01890150 10228 20189 58006 $=
202310300452 METAR KATL 300452Z 00000KT 10SM CLR 19/15 A3004 RMK AO2 SLP165 T01890150 402830161 $=
202310300352 METAR KATL 300352Z 17003KT 10SM CLR 19/15 A3005 RMK AO2 SLP169 T01890150 $=
202310300252 METAR KATL 300252Z 22003KT 10SM CLR 21/15 A3005 RMK AO2 SLP169 T02060150 50001 $=
202310300152 METAR KATL 300152Z 00000KT 10SM FEW050 21/15 A3006 RMK AO2 SLP171 T02060150 $=
202310300052 METAR KATL 300052Z 20003KT 10SM FEW050 22/15 A3005 RMK AO2 SLP171 T02170150 $=
202310292352 METAR KATL 292352Z 20003KT 10SM FEW050 23/15 A3005 RMK AO2 SLP170 T02280150 10283 20228 53005 $=
202310292252 METAR KATL 292252Z 20004KT 10SM FEW050 25/14 A3004 RMK AO2 SLP164 T02500144 $=
202310292152 METAR KATL 292152Z 19005KT 10SM FEW050 27/14 A3003 RMK AO2 SLP161 T02670139 $=
202310292052 METAR KATL 292052Z 24008KT 10SM FEW050 27/14 A3004 RMK AO2 SLP163 T02720139 56023 $=
202310291952 METAR KATL 291952Z 24007KT 10SM FEW050 28/13 A3004 RMK AO2 SLP164 T02780133 $=
202310291852 METAR KATL 291852Z 26004KT 10SM SCT047 27/14 A3007 RMK AO2 SLP175 T02720144 $=
202310291752 METAR KATL 291752Z 23008KT 10SM SCT044 27/15 A3011 RMK AO2 SLP187 T02720150 10272 20167 58017 $=
202310291652 METAR KATL 291652Z 21007KT 10SM BKN040 27/16 A3014 RMK AO2 SLP198 T02670156 $=
202310291552 METAR KATL 291552Z 23007KT 200V270 10SM FEW035 FEW045 24/15 A3016 RMK AO2 SLP204 T02440150 $=
202310291452 METAR KATL 291452Z 22006KT 10SM FEW045 23/15 A3016 RMK AO2 SLP206 T02280150 51009 $=
202310291352 METAR KATL 291352Z 22007KT 10SM FEW045 20/15 A3015 RMK AO2 SLP205 T02000150 $=
202310291252 METAR KATL 291252Z 21004KT 10SM FEW048 18/15 A3014 RMK AO2 SLP201 T01780150 $=
202310291152 METAR KATL 291152Z 20003KT 10SM FEW048 17/14 A3013 RMK AO2 SLP197 T01670139 10189 20161 50000 $=
202310291052 METAR KATL 291052Z 00000KT 10SM FEW048 17/14 A3013 RMK AO2 SLP197 T01720139 $=
202310290952 METAR KATL 290952Z 00000KT 10SM BKN048 17/14 A3014 RMK AO2 SLP199 T01720144=
202310290852 METAR KATL 290852Z 00000KT 10SM BKN049 18/14 A3013 RMK AO2 SLP195 T01830144 58006=
202310290752 METAR KATL 290752Z 00000KT 10SM BKN049 18/15 A3014 RMK AO2 SLP198 T01830150=
202310290652 METAR KATL 290652Z 00000KT 10SM BKN047 18/14 A3014 RMK AO2 SLP200 T01780144=
202310290552 METAR KATL 290552Z 00000KT 10SM FEW045 18/14 A3015 RMK AO2 SLP201 T01780139 10228 20178 58004=
202310290452 METAR KATL 290452Z 00000KT 10SM FEW045 18/14 A3015 RMK AO2 SLP204 T01830139 402780150=
202310290352 METAR KATL 290352Z 00000KT 10SM FEW250 19/14 A3016 RMK AO2 SLP206 T01940144=
202310290252 METAR KATL 290252Z 00000KT 10SM FEW130 FEW250 19/14 A3016 RMK AO2 SLP208 T01890139 51008=
202310290152 METAR KATL 290152Z 00000KT 10SM FEW045 FEW130 20/14 A3016 RMK AO2 SLP206 T02000144=
202310290052 METAR KATL 290052Z 19003KT 10SM FEW045 FEW130 22/14 A3015 RMK AO2 SLP203 T02170144=
202310282352 METAR KATL 282352Z 17006KT 10SM FEW045 FEW130 23/14 A3014 RMK AO2 SLP199 T02280139 10278 20228 53001=
202310282252 METAR KATL 282252Z 18005KT 10SM FEW045 FEW150 24/14 A3013 RMK AO2 SLP196 T02390139=
202310282152 METAR KATL 282152Z 14008KT 10SM FEW048 FEW150 26/14 A3013 RMK AO2 SLP196 T02560139=
202310282052 METAR KATL 282052Z VRB03KT 10SM FEW048 FEW150 27/14 A3013 RMK AO2 SLP197 T02670139 56020=
202310281952 METAR KATL 281952Z 13005KT 10SM FEW045 FEW150 27/14 A3014 RMK AO2 SLP200 T02670139=
202310281852 METAR KATL 281852Z VRB04KT 10SM FEW045 FEW150 27/14 A3016 RMK AO2 SLP206 T02720139=
202310281752 METAR KATL 281752Z 00000KT 10SM FEW045 FEW150 27/14 A3019 RMK AO2 SLP216 T02670144 10267 20150 58025=
202310281652 METAR KATL 281652Z 22004KT 10SM FEW042 FEW150 25/14 A3023 RMK AO2 SLP231 T02500139=
202310281552 METAR KATL 281552Z 09003KT 10SM FEW038 FEW150 24/14 A3027 RMK AO2 SLP242 MDT CU DSNT SE-S T02390139=
202310281452 METAR KATL 281452Z 21004KT 10SM FEW150 22/14 A3027 RMK AO2 SLP244 T02220144 51010=
202310281352 METAR KATL 281352Z 00000KT 10SM FEW150 21/16 A3027 RMK AO2 SLP243 T02060156=
202310281252 METAR KATL 281252Z 00000KT 10SM FEW150 FEW220 18/15 A3025 RMK AO2 SLP239 T01780150=
202310281152 METAR KATL 281152Z 00000KT 10SM FEW150 FEW220 16/13 A3024 RMK AO2 SLP235 T01560133 10172 20150 53012=
202310281052 METAR KATL 281052Z 00000KT 10SM FEW150 15/13 A3022 RMK AO2 SLP230 T01500128=
202310280952 METAR KATL 280952Z 00000KT 10SM FEW150 FEW200 16/13 A3021 RMK AO2 SLP225 T01560133=
202310280852 METAR KATL 280852Z 00000KT 10SM SCT150 SCT200 17/14 A3020 RMK AO2 SLP221 T01670139 55005=
202310280752 METAR KATL 280752Z 00000KT 10SM FEW150 SCT200 16/13 A3020 RMK AO2 SLP220 T01610133=
202310280652 METAR KATL 280652Z 00000KT 10SM FEW200 16/13 A3021 RMK AO2 SLP224 T01610133=
202310280552 METAR KATL 280552Z 00000KT 10SM FEW200 17/14 A3022 RMK AO2 SLP225 T01720139 10217 20167 58008=
202310280452 METAR KATL 280452Z 00000KT 10SM FEW200 18/14 A3023 RMK AO2 SLP229 T01780139 402610156=
202310280352 METAR KATL 280352Z 20003KT 10SM FEW200 18/14 A3024 RMK AO2 SLP233 T01830139=
202310280252 METAR KATL 280252Z 00000KT 10SM FEW200 19/14 A3024 RMK AO2 SLP235 T01890139 53010=
202310280152 METAR KATL 280152Z 14003KT 10SM FEW200 SCT250 19/14 A3023 RMK AO2 SLP231 T01940139=
202310280052 METAR KATL 280052Z 15004KT 10SM BKN200 BKN250 21/14 A3022 RMK AO2 SLP227 T02110139=
202310272352 METAR KATL 272352Z 15004KT 10SM BKN200 BKN250 22/14 A3021 RMK AO2 SLP226 T02170139 10261 20217 55003=
202310272252 METAR KATL 272252Z 17005KT 10SM FEW150 SCT200 SCT250 23/14 A3021 RMK AO2 SLP224 T02280139=
202310272152 METAR KATL 272152Z 15004KT 10SM FEW045 SCT150 SCT250 24/14 A3021 RMK AO2 SLP224 T02440139=
202310272052 METAR KATL 272052Z 13007KT 10SM FEW042 SCT055 SCT250 26/14 A3022 RMK AO2 SLP227 MDT CU NE-SE T02560139 56011=
202310271952 METAR KATL 271952Z 18006KT 10SM FEW040 BKN055 BKN150 26/14 A3022 RMK AO2 SLP227 MDT CU NW-NE-SE T02560144=
202310271852 METAR KATL 271852Z 19003KT 10SM FEW040 BKN055 BKN150 24/14 A3024 RMK AO2 SLP232 MDT CU W-N-NE T02440139=
202310271752 METAR KATL 271752Z 19003KT 10SM SCT037 BKN055 BKN150 25/14 A3025 RMK AO2 SLP238 MDT CU ALQDS T02500144 10250 20156 58016=
202310271652 METAR KATL 271652Z 17005KT 10SM FEW030 BKN055 BKN150 23/14 A3028 RMK AO2 SLP247 MDT CU DSNT ALQDS T02330144=
202310271552 METAR KATL 271552Z 23005KT 10SM FEW022 BKN050 BKN150 22/16 A3030 RMK AO2 SLP256 T02220161=
202310271452 METAR KATL 271452Z VRB04KT 10SM BKN050 BKN150 21/17 A3030 RMK AO2 SLP255 T02110167 50013=
202310271352 METAR KATL 271352Z VRB03KT 9SM BKN050 BKN150 19/17 A3030 RMK AO2 SLP256 T01940167=
202310271252 METAR KATL 271252Z 00000KT 9SM SCT050 SCT150 17/16 A3029 RMK AO2 SLP250 T01720156=
202310271152 METAR KATL 271152Z 09004KT 10SM FEW200 SCT250 16/14 A3026 RMK AO2 SLP243 T01560139 10183 20156 53008=
202310271052 METAR KATL 271052Z 00000KT 10SM FEW250 16/14 A3025 RMK AO2 SLP239 T01610139=
202310270952 METAR KATL 270952Z 12003KT 10SM SCT250 16/14 A3024 RMK AO2 SLP234 T01610144=
202310270852 METAR KATL 270852Z 13003KT 10SM FEW050 FEW250 17/14 A3024 RMK AO2 SLP234 T01670144 58005=
202310270752 METAR KATL 270752Z 00000KT 10SM FEW050 SCT250 17/15 A3025 RMK AO2 SLP235 T01720150=
202310270652 METAR KATL 270652Z 00000KT 10SM SCT040 SCT250 17/15 A3025 RMK AO2 SLP237 T01720150=
202310270552 METAR KATL 270552Z 13003KT 10SM SCT047 SCT250 18/15 A3025 RMK AO2 SLP238 T01830150 10222 20183 51001=
202310270452 METAR KATL 270452Z 11004KT 10SM FEW040 FEW055 19/15 A3025 RMK AO2 SLP237 T01940150 402610161=
202310270352 METAR KATL 270352Z 10004KT 10SM FEW040 SCT055 19/15 A3026 RMK AO2 SLP239 T01890150=
202310270252 METAR KATL 270252Z 13003KT 10SM FEW060 FEW250 19/15 A3025 RMK AO2 SLP238 T01890150 53007=
202310270152 METAR KATL 270152Z 13003KT 10SM FEW060 FEW250 20/15 A3023 RMK AO2 SLP233 T02000150=
202310270052 METAR KATL 270052Z 12004KT 10SM FEW060 FEW250 21/15 A3023 RMK AO2 SLP231 T02110150=
202310262352 METAR KATL 262352Z 12004KT 10SM FEW060 FEW250 22/15 A3023 RMK AO2 SLP232 T02170150 10261 20217 53006=
202310262252 METAR KATL 262252Z 11005KT 10SM SCT060 SCT250 24/15 A3022 RMK AO2 SLP227 T02390150=
202310262152 METAR KATL 262152Z 11006KT 10SM FEW038 SCT055 24/15 A3021 RMK AO2 SLP223 MDT CU OHD-SE T02440150=
202310262052 METAR KATL 262052Z 15008KT 10SM FEW038 SCT060 24/15 A3021 RMK AO2 SLP224 MDT CU NE SE SW NW T02440150 56018=
202310261952 METAR KATL 261952Z 13009G17KT 10SM FEW038 SCT055 25/15 A3022 RMK AO2 SLP227 MDT CU SE SW-W DSNT ALQDS T02500150=
202310261852 METAR KATL 261852Z 11009KT 10SM SCT036 BKN055 24/15 A3024 RMK AO2 SLP234 MDT CU ALQDS T02440150=
202310261752 METAR KATL 261752Z 13007KT 10SM BKN033 BKN050 24/15 A3027 RMK AO2 SLP242 MDT CU ALQDS T02440150 10250 20161 58019=
202310261652 METAR KATL 261652Z VRB06KT 10SM BKN030 BKN050 23/16 A3029 RMK AO2 SLP250 MDT CU ALQDS T02330156=
202310261552 METAR KATL 261552Z 14008KT 10SM FEW001 FEW022 SCT050 23/16 A3032 RMK AO2 SLP259 FU FEW001 FU PLUME S T02330156=
202310261550 SPECI KATL 261550Z 14006KT 10SM FEW001 FEW022 SCT050 23/16 A3032 RMK AO2 FU FEW001 FU PLUME S=
202310261452 METAR KATL 261452Z 13008KT 10SM FEW018 FEW050 22/16 A3032 RMK AO2 SLP263 T02170156 51011=
202310261352 METAR KATL 261352Z 12009KT 10SM FEW049 19/15 A3032 RMK AO2 SLP261 T01940150=
202310261252 METAR KATL 261252Z 11007KT 10SM BKN047 18/15 A3031 RMK AO2 SLP259 T01780150=
202310261152 METAR KATL 261152Z 11006KT 10SM FEW055 16/14 A3029 RMK AO2 SLP253 T01610144 10183 20161 53005=
202310261052 METAR KATL 261052Z 09006KT 10SM FEW038 FEW055 16/14 A3028 RMK AO2 SLP249 T01610144=
202310260952 METAR KATL 260952Z 08006KT 10SM FEW038 FEW055 16/14 A3028 RMK AO2 SLP248 T01610144=
202310260852 METAR KATL 260852Z 11005KT 10SM FEW038 BKN055 17/15 A3028 RMK AO2 SLP246 T01720150 58006=
202310260752 METAR KATL 260752Z 10005KT 10SM FEW038 BKN055 18/16 A3028 RMK AO2 SLP249 T01780156=
202310260652 METAR KATL 260652Z 00000KT 10SM FEW030 SCT060 17/15 A3029 RMK AO2 SLP252 T01720150=
202310260552 METAR KATL 260552Z 11006KT 10SM FEW027 SCT060 18/15 A3029 RMK AO2 SLP253 T01830150 10211 20183 58005=
202310260452 METAR KATL 260452Z 11006KT 10SM FEW032 FEW055 19/15 A3030 RMK AO2 SLP256 T01890150 402440117=
202310260352 METAR KATL 260352Z 11004KT 10SM FEW055 18/14 A3031 RMK AO2 SLP259 T01830144=
202310260252 METAR KATL 260252Z 11005KT 10SM FEW055 19/14 A3031 RMK AO2 SLP258 T01940144 53008=
202310260152 METAR KATL 260152Z 09005KT 10SM FEW055 19/14 A3030 RMK AO2 SLP256 T01890139=
202310260052 METAR KATL 260052Z 10005KT 10SM FEW060 FEW250 19/14 A3029 RMK AO2 SLP253 T01940144=
202310252352 METAR KATL 252352Z 12004KT 10SM FEW055 FEW250 21/14 A3028 RMK AO2 SLP252 T02110144 10244 20211 52001=
202310252252 METAR KATL 252252Z 12004KT 10SM FEW055 FEW250 22/14 A3028 RMK AO2 SLP251 T02220139=
202310252152 METAR KATL 252152Z 11005KT 10SM FEW030 BKN055 BKN200 23/14 A3029 RMK AO2 SLP252 T02280139=
202310252052 METAR KATL 252052Z 12009KT 10SM SCT029 SCT039 BKN055 BKN130 23/13 A3028 RMK AO2 SLP250 T02330133 56014=
202310251952 METAR KATL 251952Z 11009KT 10SM SCT028 SCT039 BKN055 BKN150 24/13 A3029 RMK AO2 SLP251 T02390133=
202310251852 METAR KATL 251852Z 08007KT 10SM SCT031 SCT050 SCT150 23/13 A3030 RMK AO2 SLP255 T02330128=
202310251752 METAR KATL 251752Z 08007KT 10SM SCT027 SCT050 SCT150 23/12 A3033 RMK AO2 SLP264 T02280117 10228 20128 58017=
202310251652 METAR KATL 251652Z 08006KT 10SM SCT024 BKN031 BKN050 BKN150 22/11 A3037 RMK AO2 SLP279 T02170111=
202310251552 METAR KATL 251552Z 08008KT 10SM SCT027 SCT050 SCT250 21/11 A3038 RMK AO2 SLP283 T02060106=
202310251452 METAR KATL 251452Z 12006KT 10SM SCT050 20/09 A3038 RMK AO2 SLP282 T02000094 50005=
202310251352 METAR KATL 251352Z 09009KT 10SM BKN050 17/08 A3038 RMK AO2 SLP284 T01670078=
202310251252 METAR KATL 251252Z 09008KT 10SM BKN050 14/07 A3037 RMK AO2 SLP284 T01390067=
202310251152 METAR KATL 251152Z 09007KT 10SM BKN050 13/06 A3036 RMK AO2 SLP278 T01280061 10133 20117 53011=
202310251052 METAR KATL 251052Z 08005KT 10SM FEW050 12/06 A3035 RMK AO2 SLP273 T01170061 $=
202310250952 METAR KATL 250952Z 08006KT 10SM CLR 12/06 A3033 RMK AO2 SLP267 T01220061 $=
202310250852 METAR KATL 250852Z 06007KT 10SM CLR 13/06 A3033 RMK AO2 SLP266 T01280061 58002 $=
202310250752 METAR KATL 250752Z 07007KT 10SM CLR 13/06 A3033 RMK AO2 SLP266 T01280061 $=
202310250652 METAR KATL 250652Z 08005KT 10SM CLR 13/06 A3034 RMK AO2 SLP270 T01280061 $=
202310250552 METAR KATL 250552Z 09005KT 10SM CLR 13/07 A3033 RMK AO2 SLP268 T01330067 10189 20133 53001 $=
202310250452 METAR KATL 250452Z 10005KT 10SM CLR 15/07 A3033 RMK AO2 SLP267 T01500067 402330100 $=
202310250352 METAR KATL 250352Z 11005KT 10SM CLR 16/07 A3032 RMK AO2 SLP265 T01610067 $=
202310250252 METAR KATL 250252Z 11006KT 10SM CLR 16/06 A3033 RMK AO2 SLP268 T01610061 53006 $=
202310250152 METAR KATL 250152Z 10007KT 8SM CLR 17/06 A3032 RMK AO2 SLP266 T01670056 $=
202310250052 METAR KATL 250052Z 10009KT 7SM CLR 17/06 A3031 RMK AO2 SLP264 T01720056 $=
202310250030 SPECI KATL 250030Z 10008KT 6SM HZ FU CLR 18/06 A3032 RMK AO2 T01780056 $=
202310242352 METAR KATL 242352Z 11006KT 10SM CLR 19/06 A3031 RMK AO2 SLP262 T01890056 10233 20189 53009 $=
202310242252 METAR KATL 242252Z 13007KT 10SM FEW200 21/05 A3029 RMK AO2 SLP256 T02060050 $=
202310242152 METAR KATL 242152Z 12008KT 10SM FEW150 22/03 A3028 RMK AO2 SLP251 T02220028 $=
202310242052 METAR KATL 242052Z 10009KT 10SM FEW120 23/04 A3028 RMK AO2 SLP251 T02280039 56015 $=
202310241952 METAR KATL 241952Z 10006KT 10SM FEW120 23/03 A3029 RMK AO2 SLP253 T02280033 $=
202310241852 METAR KATL 241852Z 09009KT 10SM FEW120 23/06 A3030 RMK AO2 SLP258 T02280056 $=
202310241752 METAR KATL 241752Z 08010KT 10SM FEW120 22/06 A3033 RMK AO2 SLP267 T02170056 10217 20106 58015 $=
202310241652 METAR KATL 241652Z 09007KT 10SM FEW120 20/06 A3036 RMK AO2 SLP278 T02000056 $=
202310241552 METAR KATL 241552Z 10009KT 10SM FEW120 19/07 A3037 RMK AO2 SLP282 T01940072 $=
202310241452 METAR KATL 241452Z 11010KT 10SM FEW150 FEW250 17/08 A3038 RMK AO2 SLP284 T01720078 51018 $=
202310241352 METAR KATL 241352Z 08007KT 10SM FEW150 SCT200 SCT250 14/08 A3036 RMK AO2 SLP281 T01440083 $=
202310241252 METAR KATL 241252Z 08007KT 10SM FEW150 FEW200 SCT250 12/07 A3035 RMK AO2 SLP275 T01170072 $=
202310241152 METAR KATL 241152Z 07008KT 10SM FEW150 FEW200 SCT250 11/07 A3032 RMK AO2 SLP266 T01060067 10133 20100 51016 $=
202310241052 METAR KATL 241052Z 08006KT 10SM FEW150 SCT200 BKN250 11/07 A3032 RMK AO2 SLP265 T01060072 $=
202310240952 METAR KATL 240952Z 08005KT 10SM SCT180 BKN250 12/07 A3029 RMK AO2 SLP255 T01170072 $=
202310240852 METAR KATL 240852Z 08005KT 10SM SCT200 BKN250 12/07 A3027 RMK AO2 SLP248 T01170072 51008 $=
202310240752 METAR KATL 240752Z 08006KT 10SM SCT200 BKN250 12/08 A3027 RMK AO2 SLP245 T01220078 $=
202310240652 METAR KATL 240652Z 08003KT 10SM SCT200 BKN250 13/08 A3027 RMK AO2 SLP246 T01280083 $=
202310240552 METAR KATL 240552Z 08006KT 10SM FEW150 BKN200 BKN250 13/09 A3025 RMK AO2 SLP239 T01330089 10183 20133 58002 $=
202310240452 METAR KATL 240452Z 09004KT 10SM SCT200 BKN250 13/08 A3026 RMK AO2 SLP243 T01330083 402280117 $=
202310240352 METAR KATL 240352Z 11005KT 10SM FEW200 SCT250 14/08 A3025 RMK AO2 SLP241 T01440083 $=
202310240252 METAR KATL 240252Z 09007KT 10SM FEW250 15/09 A3026 RMK AO2 SLP243 T01500089 51014 $=
202310240152 METAR KATL 240152Z 09005KT 10SM FEW250 16/09 A3024 RMK AO2 SLP239 T01610089 $=
202310240052 METAR KATL 240052Z 12005KT 10SM SCT250 18/09 A3023 RMK AO2 SLP235 T01780089 $=
202310232352 METAR KATL 232352Z 13004KT 10SM FEW250 18/09 A3021 RMK AO2 SLP230 T01830089 10228 20183 53012 $=
202310232252 METAR KATL 232252Z 12005KT 10SM FEW200 SCT250 20/08 A3020 RMK AO2 SLP223 T02000083 $=
202310232152 METAR KATL 232152Z 12007KT 10SM SCT200 BKN250 22/08 A3019 RMK AO2 SLP218 T02170078 $=
202310232052 METAR KATL 232052Z 12007KT 10SM SCT200 BKN250 22/08 A3018 RMK AO2 SLP216 T02220083 55008 $=
202310231952 METAR KATL 231952Z 13007KT 10SM FEW150 SCT200 BKN250 23/08 A3018 RMK AO2 SLP214 T02280078 $=
202310231852 METAR KATL 231852Z 12007KT 10SM SCT200 BKN250 22/08 A3019 RMK AO2 SLP218 T02220083 $=
202310231752 METAR KATL 231752Z 10008KT 10SM SCT200 BKN250 22/08 A3020 RMK AO2 SLP223 T02170083 10217 20117 58008 $=
202310231652 METAR KATL 231652Z 11006KT 10SM BKN200 BKN250 20/08 A3022 RMK AO2 SLP231 T02000078 $=
202310231552 METAR KATL 231552Z 11008KT 10SM SCT200 BKN250 18/06 A3023 RMK AO2 SLP233 T01830061 $=
202310231452 METAR KATL 231452Z 10010KT 10SM SCT200 BKN250 17/06 A3023 RMK AO2 SLP232 T01720061 51019 $=
202310231352 METAR KATL 231352Z 09009KT 10SM SCT200 BKN250 15/07 A3021 RMK AO2 SLP228 T01500067 $=
202310231252 METAR KATL 231252Z 09007KT 10SM FEW200 BKN250 13/07 A3020 RMK AO2 SLP223 T01280067 $=
202310231152 METAR KATL 231152Z 08009KT 10SM FEW250 12/06 A3017 RMK AO2 SLP213 T01220061 10156 20117 53019 $=
202310231052 METAR KATL 231052Z 07007KT 10SM SCT250 12/06 A3015 RMK AO2 SLP207 T01170061 $=
202310230952 METAR KATL 230952Z 08006KT 10SM SCT250 12/06 A3012 RMK AO2 SLP197 T01220056 $=
202310230852 METAR KATL 230852Z 05006KT 10SM BKN250 13/06 A3011 RMK AO2 SLP192 T01330056 53007 $=
202310230752 METAR KATL 230752Z 01007KT 10SM BKN250 14/06 A3010 RMK AO2 SLP186 T01440056 $=
202310230652 METAR KATL 230652Z 03005KT 10SM BKN250 14/06 A3009 RMK AO2 SLP184 T01440056 $=
202310230552 METAR KATL 230552Z 01006KT 10SM BKN250 16/06 A3009 RMK AO2 SLP184 T01560056 10206 20144 52009 $=
202310230452 METAR KATL 230452Z 34006KT 10SM BKN250 16/06 A3009 RMK AO2 SLP182 T01560056 402610144 $=
202310230352 METAR KATL 230352Z 36006KT 10SM BKN250 16/05 A3007 RMK AO2 SLP177 T01610050 $=
202310230252 METAR KATL 230252Z 35007KT 10SM BKN250 17/04 A3006 RMK AO2 SLP175 T01720044 51016 $=
202310230152 METAR KATL 230152Z 35007KT 10SM BKN250 18/04 A3005 RMK AO2 SLP172 T01780044 $=
202310230052 METAR KATL 230052Z 02008KT 10SM BKN250 19/04 A3003 RMK AO2 SLP164 T01940039 $=
202310222352 METAR KATL 222352Z 34008KT 10SM FEW200 BKN250 21/03 A3002 RMK AO2 SLP159 T02060028 10261 20200 53012 $=
202310222252 METAR KATL 222252Z 33005KT 10SM FEW200 BKN250 21/04 A2999 RMK AO2 SLP151 T02110039 $=
202310222152 METAR KATL 222152Z 33007KT 10SM FEW200 BKN250 23/04 A2999 RMK AO2 SLP148 T02330044 $=
202310222052 METAR KATL 222052Z 32010G17KT 10SM FEW200 BKN250 24/03 A2998 RMK AO2 SLP145 T02440033 55005 $=
202310221952 METAR KATL 221952Z 31011G16KT 10SM FEW200 BKN250 26/04 A2998 RMK AO2 SLP143 T02610044 $=
202310221852 METAR KATL 221852Z 31009G18KT 10SM FEW200 SCT250 25/04 A2998 RMK AO2 SLP144 T02500039 $=
202310221752 METAR KATL 221752Z 32012G20KT 10SM FEW200 SCT250 24/06 A2999 RMK AO2 SLP149 T02440056 10244 20150 58004 $=
202310221652 METAR KATL 221652Z 31012G20KT 10SM FEW200 FEW250 23/04 A3001 RMK AO2 PK WND 33026/1635 SLP156 T02280044 $=
202310221552 METAR KATL 221552Z 33012G27KT 10SM FEW200 FEW250 22/04 A3001 RMK AO2 PK WND 34027/1549 SLP156 T02170044 $=
202310221452 METAR KATL 221452Z 33013G20KT 10SM FEW200 SCT250 20/06 A3001 RMK AO2 SLP155 T02000056 51019 $=
202310221352 METAR KATL 221352Z 33011KT 10SM FEW200 BKN250 18/06 A3000 RMK AO2 SLP153 T01830056 $=
202310221252 METAR KATL 221252Z 33009KT 10SM FEW220 SCT250 17/08 A2998 RMK AO2 SLP146 T01720078 $=
202310221152 METAR KATL 221152Z 30006KT 10SM FEW220 BKN250 16/09 A2995 RMK AO2 SLP137 T01560094 10172 20156 53020 $=
202310221052 METAR KATL 221052Z 30006KT 10SM FEW220 BKN250 16/09 A2993 RMK AO2 SLP129 T01610094 $=
202310220952 METAR KATL 220952Z 29007KT 10SM BKN220 BKN250 17/09 A2991 RMK AO2 SLP120 T01670094 $=
202310220852 METAR KATL 220852Z 29007KT 10SM BKN250 17/09 A2989 RMK AO2 SLP115 T01670094 51003 $=
202310220752 METAR KATL 220752Z 26006KT 10SM BKN250 17/09 A2989 RMK AO2 SLP115 T01670094 $=
202310220652 METAR KATL 220652Z 27007KT 10SM BKN250 17/09 A2989 RMK AO2 SLP114 T01720089 $=
202310220552 METAR KATL 220552Z 26008KT 10SM BKN250 17/09 A2988 RMK AO2 SLP111 T01720094 10194 20172 58005 $=
202310220452 METAR KATL 220452Z 25008KT 10SM BKN250 18/09 A2989 RMK AO2 SLP114 T01830094 402440100 $=
202310220352 METAR KATL 220352Z 25008KT 10SM BKN250 19/09 A2989 RMK AO2 SLP116 T01890094 $=
202310220252 METAR KATL 220252Z 23008KT 10SM SCT250 18/10 A2989 RMK AO2 SLP118 T01830100 51013 $=
202310220152 METAR KATL 220152Z 23008KT 10SM SCT250 19/10 A2988 RMK AO2 SLP115 T01890100 $=
202310220052 METAR KATL 220052Z 23008KT 10SM SCT250 19/10 A2987 RMK AO2 SLP112 T01890100 $=
202310212352 METAR KATL 212352Z 22005KT 10SM SCT250 19/09 A2986 RMK AO2 SLP107 T01940094 10244 20194 53004 $=
202310212252 METAR KATL 212252Z 23004KT 10SM SCT250 22/08 A2983 RMK AO2 SLP099 T02170083 $=
202310212152 METAR KATL 212152Z 24010G16KT 10SM SCT250 23/07 A2984 RMK AO2 SLP099 T02330072 $=
202310212052 METAR KATL 212052Z 28010KT 10SM FEW250 24/08 A2984 RMK AO2 SLP101 T02440078 56015 $=
202310211952 METAR KATL 211952Z 26009G18KT 10SM FEW250 24/08 A2986 RMK AO2 SLP106 T02390078 $=
202310211852 METAR KATL 211852Z 25008G14KT 10SM FEW250 23/07 A2987 RMK AO2 SLP109 T02330072 $=
202310211752 METAR KATL 211752Z 27011G16KT 10SM FEW250 22/07 A2989 RMK AO2 SLP116 T02220067 10222 20100 58014 $=
202310211652 METAR KATL 211652Z 31010KT 10SM FEW250 21/06 A2992 RMK AO2 SLP126 T02110061 $=
202310211552 METAR KATL 211552Z 30008KT 10SM CLR 19/07 A2993 RMK AO2 SLP131 T01890067 $=
202310211452 METAR KATL 211452Z 30008KT 10SM CLR 17/07 A2993 RMK AO2 SLP132 T01720072 51015 $=
202310211352 METAR KATL 211352Z 31008KT 10SM CLR 15/07 A2992 RMK AO2 SLP128 T01500067 $=
202310211252 METAR KATL 211252Z 28006KT 10SM CLR 12/07 A2990 RMK AO2 SLP123 T01220067 $=
202310211152 METAR KATL 211152Z 28006KT 10SM CLR 10/06 A2988 RMK AO2 SLP117 T01000061 10139 20100 53019 $=
202310211052 METAR KATL 211052Z 29006KT 10SM CLR 10/06 A2986 RMK AO2 SLP109 T01000061 $=
202310210952 METAR KATL 210952Z 27005KT 10SM CLR 11/06 A2984 RMK AO2 SLP102 T01060061 $=
202310210852 METAR KATL 210852Z 32005KT 10SM CLR 11/06 A2983 RMK AO2 SLP096 T01110061 51006 $=
202310210752 METAR KATL 210752Z 27005KT 10SM CLR 12/07 A2983 RMK AO2 SLP095 T01170067 $=
202310210652 METAR KATL 210652Z 32006KT 10SM CLR 13/07 A2982 RMK AO2 SLP092 T01330067 $=
202310210552 METAR KATL 210552Z 33006KT 10SM CLR 14/07 A2981 RMK AO2 SLP088 T01390067 10189 20139 51007 $=
202310210452 METAR KATL 210452Z 33005KT 10SM CLR 14/07 A2980 RMK AO2 SLP086 T01440072 402440139 $=
202310210352 METAR KATL 210352Z 32007KT 10SM CLR 14/08 A2980 RMK AO2 SLP085 T01440078 $=
202310210252 METAR KATL 210252Z 30006KT 10SM CLR 16/08 A2979 RMK AO2 SLP083 T01560083 53023 $=
202310210152 METAR KATL 210152Z 30007KT 10SM CLR 17/09 A2976 RMK AO2 SLP074 T01720089 $=
202310210052 METAR KATL 210052Z 31008KT 10SM CLR 18/10 A2974 RMK AO2 SLP066 T01780100 $=
202310202352 METAR KATL 202352Z 28007KT 10SM FEW090 19/10 A2972 RMK AO2 SLP058 T01890100 10244 20189 53007 $=
202310202252 METAR KATL 202252Z 28009KT 10SM FEW050 FEW090 21/10 A2970 RMK AO2 SLP051 T02110100 $=
202310202152 METAR KATL 202152Z 28007KT 10SM SCT090 SCT110 21/11 A2969 RMK AO2 SLP047 T02110111 $=
202310202052 METAR KATL 202052Z 28011KT 10SM FEW055 SCT080 SCT110 SCT180 22/11 A2970 RMK AO2 SLP050 TCU DSNT NE SE MDT CU N T02220111 56013 $=
202310201952 METAR KATL 201952Z 27018G27KT 10SM FEW055 SCT075 BKN110 BKN180 23/11 A2970 RMK AO2 PK WND 26027/1947 SLP052 CB DSNT N NE TCU DSNT NE MDT CU E SE T02280111 $=
202310201852 METAR KATL 201852Z 26014G26KT 10SM SCT048TCU BKN070 24/12 A2971 RMK AO2 PK WND 25026/1846 SLP055 TCU NE DSNT SE NW MDT CU ALQDS T02390122 $=
202310201752 METAR KATL 201752Z 27013G26KT 10SM FEW034 SCT048 22/12 A2974 RMK AO2 PK WND 28026/1745 SLP063 TCU DSNT E MDT CU NW-NE T02220122 10228 20150 58022 $=
202310201652 METAR KATL 201652Z 29016G23KT 10SM SCT025TCU BKN035 BKN250 21/14 A2977 RMK AO2 SLP076 TCU SW DSNT NE E MDT CU ALQDS T02110139 $=
202310201622 SPECI KATL 201622Z 27009KT 10SM SCT021 SCT033 BKN200 20/14 A2978 RMK AO2 T02000144 $=
202310201552 METAR KATL 201552Z 27012G22KT 10SM SCT016 BKN026 BKN180 BKN250 19/15 A2979 RMK AO2 SLP085 T01940150 $=
202310201522 SPECI KATL 201522Z 28011KT 10SM SCT012 BKN016 OVC026 18/15 A2980 RMK AO2 BINOVC T01780150 $=
202310201452 METAR KATL 201452Z 27011KT 9SM BKN011 OVC018 17/15 A2980 RMK AO2 SLP088 CIG 009V013 BINOVC T01720150 56004 $=
202310201425 SPECI KATL 201425Z 26011KT 8SM BKN010 OVC016 17/15 A2980 RMK AO2 CIG 008V012 T01670150 $=
202310201352 METAR KATL 201352Z 26008KT 7SM OVC008 17/15 A2981 RMK AO2 SLP089 CIG 006V010 T01670150 $=
202310201252 METAR KATL 201252Z 24011G16KT 6SM BR OVC006 16/14 A2981 RMK AO2 SLP089 T01610144 $=
202310201210 SPECI KATL 201210Z 23007KT 9SM BKN008 OVC015 16/14 A2981 RMK AO2 T01560144 $=
202310201152 METAR KATL 201152Z 23008KT 10SM BKN012 OVC023 15/13 A2982 RMK AO2 RAE38 TSE49 SLP093 TS MOV E P0015 60037 70037 T01500133 10150 20139 56008 $=
202310201150 SPECI KATL 201150Z 23005KT 10SM BKN012 OVC023 15/13 A2982 RMK AO2 RAE38 TSE49 TS MOV E P0015 $=
202310201139 SPECI KATL 201139Z 24003KT 10SM TS FEW004 BKN012 BKN037CB OVC200 15/14 A2982 RMK AO2 RAE38 OCNL LTGIC E-SE TS E-SE MOV E P0015 T01500139 $=
202310201132 SPECI KATL 201132Z 27004KT 10SM -TSRA FEW006 BKN018 OVC046CB 15/14 A2982 RMK AO2 OCNL LTGICCG E-SE TS E-SE MOV E VIS LWR E-SE P0015 T01500139 $=
202310201116 SPECI KATL 201116Z 35009KT 4SM -TSRA BR SCT006 BKN045CB OVC070 15/14 A2982 RMK AO2 OCNL LTGICCG OHD-S TS OHD-S MOV E P0015 T01500139 $=
202310201107 SPECI KATL 201107Z 24008G16KT 2 1/2SM -TSRA BR SCT014 BKN049CB OVC070 15/14 A2984 RMK AO2 VIS 1 3/4V5 OCNL LTGICCG OHD-W TS OHD-W MOV E P0007 T01500139 $=
202310201052 METAR KATL 201052Z 28008KT 6SM -TSRA BR SCT014 BKN045CB BKN070 15/14 A2983 RMK AO2 SLP098 RAB16 TSB26 OCNL LTGICCG NE AND SW-NW TS NE AND SW-NW MOV E P0022 T01500139 $=
202310201047 SPECI KATL 201047Z 27008G18KT 5SM -TSRA BR SCT019 BKN038CB OVC075 15/14 A2983 RMK AO2 RAB16 TSB26 OCNL LTGICCG NE AND W-NW TS NE AND W-NW MOV E P0022 $=
202310201037 SPECI KATL 201037Z 26010G18KT 3SM TSRA BR SCT014 BKN030CB OVC120 15/13 A2983 RMK AO2 RAB16 TSB26 OCNL LTGICCG W-NW TS W-NW MOV E P0019 T01500133 $=
202310201033 SPECI KATL 201033Z 27011G18KT 1 3/4SM +TSRA BR SCT014 BKN026CB BKN050 15/13 A2984 RMK AO2 RAB16 TSB26 OCNL LTGICCG W-NW TS W-NW MOV E P0018 T01500133 $=
202310201030 SPECI KATL 201030Z 27008G14KT 2SM +TSRA BR SCT016 BKN030CB OVC120 15/13 A2984 RMK AO2 RAB16 TSB26 OCNL LTGICCG W-NW TS W-NW MOV E P0011 T01500128 $=
202310200952 METAR KATL 200952Z 22010KT 10SM FEW050 SCT085 SCT100 15/12 A2981 RMK AO2 SLP091 T01500117 $=
202310200852 METAR KATL 200852Z 22008KT 10SM FEW045 SCT060 BKN110 14/12 A2984 RMK AO2 SLP100 T01440117 56023 $=
202310200752 METAR KATL 200752Z 22006KT 10SM SCT050 SCT080 BKN095 14/12 A2986 RMK AO2 SLP107 T01440117 $=
202310200652 METAR KATL 200652Z 21006KT 10SM FEW075 BKN095 14/12 A2989 RMK AO2 SLP117 T01390122 $=
202310200552 METAR KATL 200552Z 19004KT 10SM SCT065 BKN085 14/12 A2991 RMK AO2 SLP124 T01390122 10172 20139 58019 $=
202310200452 METAR KATL 200452Z 00000KT 10SM FEW080 14/12 A2993 RMK AO2 SLP131 T01390117 402220106 $=
202310200352 METAR KATL 200352Z 00000KT 10SM FEW050 SCT080 SCT150 14/12 A2995 RMK AO2 SLP140 T01390117 $=
202310200252 METAR KATL 200252Z 00000KT 10SM FEW050 FEW150 14/12 A2997 RMK AO2 SLP145 T01440117 56010 $=
202310200152 METAR KATL 200152Z 14003KT 10SM FEW060 FEW150 16/12 A2997 RMK AO2 SLP148 T01560122 $=
202310200052 METAR KATL 200052Z 00000KT 10SM FEW040 SCT150 SCT200 16/12 A2998 RMK AO2 SLP150 T01610122 $=
202310192352 METAR KATL 192352Z 23004KT 10SM FEW100 SCT150 SCT200 17/13 A3000 RMK AO2 SLP156 60000 T01720128 10222 20172 55002 $=
202310192252 METAR KATL 192252Z 23005KT 10SM FEW030 SCT090 BKN130 BKN200 19/12 A3000 RMK AO2 SLP155 T01890122 $=
202310192152 METAR KATL 192152Z 23005KT 10SM FEW045 BKN080 BKN110 BKN200 19/12 A3000 RMK AO2 RAB20E40 SLP156 SHRA NE-SE-SW P0000 T01940117 $=
202310192052 METAR KATL 192052Z 21008KT 10SM FEW046 SCT075 BKN160 BKN200 21/11 A3001 RMK AO2 SLP157 VIRGA SW-NW MDT CU NE T02110111 56015 $=
202310191952 METAR KATL 191952Z 20007KT 10SM SCT048 BKN070 BKN180 BKN250 21/11 A3002 RMK AO2 SLP162 MDT CU ALQDS T02110106 $=
202310191852 METAR KATL 191852Z 19008KT 10SM SCT049 BKN075 BKN180 BKN250 21/10 A3003 RMK AO2 SLP165 MDT CU ALQDS T02110100 $=
202310191752 METAR KATL 191752Z 17008KT 10SM BKN050 BKN065 BKN180 BKN250 22/09 A3005 RMK AO2 SLP172 T02170094 10217 20111 58029 $=
202310191652 METAR KATL 191652Z 18009G15KT 10SM FEW040 FEW065 SCT180 BKN250 22/11 A3008 RMK AO2 SLP183 T02170106 $=
202310191552 METAR KATL 191552Z 21004KT 10SM FEW060 FEW150 SCT200 19/11 A3012 RMK AO2 SLP197 T01890111 $=
202310191452 METAR KATL 191452Z 20004KT 10SM FEW050 BKN060 BKN200 16/10 A3014 RMK AO2 SLP204 T01560100 50002 $=
202310191352 METAR KATL 191352Z 18005KT 10SM FEW048 BKN060 BKN200 14/09 A3014 RMK AO2 SLP204 T01440094 $=
202310191252 METAR KATL 191252Z 16003KT 10SM BKN055 12/09 A3014 RMK AO2 SLP203 T01220094 $=
202310191152 METAR KATL 191152Z 00000KT 10SM BKN050 11/09 A3013 RMK AO2 SLP201 T01110089 10133 20106 51006 $=
202310191052 METAR KATL 191052Z 00000KT 10SM FEW048 11/08 A3012 RMK AO2 SLP199 T01060078 $=
202310190952 METAR KATL 190952Z 00000KT 10SM FEW048 11/08 A3012 RMK AO2 SLP198 T01110083 $=
202310190852 METAR KATL 190852Z 00000KT 10SM FEW048 11/08 A3011 RMK AO2 SLP194 T01110083 57009 $=
202310190752 METAR KATL 190752Z 12003KT 10SM SCT048 12/09 A3012 RMK AO2 SLP196 T01220089 $=
202310190652 METAR KATL 190652Z 00000KT 10SM SCT048 12/09 A3014 RMK AO2 SLP202 T01220089 $=
202310190552 METAR KATL 190552Z 00000KT 10SM SCT048 13/09 A3014 RMK AO2 SLP203 T01330089 10178 20133 58001 $=
202310190452 METAR KATL 190452Z 00000KT 10SM BKN050 13/09 A3015 RMK AO2 SLP205 T01330094 402170083 $=
202310190352 METAR KATL 190352Z 00000KT 10SM FEW050 14/09 A3015 RMK AO2 SLP205 T01390094 $=
202310190252 METAR KATL 190252Z 14004KT 10SM FEW050 14/09 A3015 RMK AO2 SLP205 T01440094 53013 $=
202310190152 METAR KATL 190152Z 14003KT 10SM FEW050 15/09 A3013 RMK AO2 SLP202 T01500094 $=
202310190052 METAR KATL 190052Z 14004KT 10SM CLR 16/09 A3012 RMK AO2 SLP197 T01610094 $=
202310182352 METAR KATL 182352Z 16004KT 10SM CLR 18/09 A3011 RMK AO2 SLP194 T01780094 10217 20178 55001 $=
202310182252 METAR KATL 182252Z 17005KT 10SM FEW050 19/08 A3010 RMK AO2 SLP191 T01940083 $=
202310182152 METAR KATL 182152Z 18004KT 10SM FEW050 21/08 A3010 RMK AO2 SLP190 T02060083 $=
202310182052 METAR KATL 182052Z 00000KT 10SM SCT048 21/08 A3011 RMK AO2 SLP194 T02060083 56015 $=
202310181952 METAR KATL 181952Z 16008KT 10SM SCT048 21/08 A3012 RMK AO2 SLP198 T02110083 $=
202310181852 METAR KATL 181852Z 00000KT 10SM SCT046 21/08 A3013 RMK AO2 SLP202 T02110083 $=
202310181752 METAR KATL 181752Z VRB04KT 10SM SCT044 21/08 A3016 RMK AO2 SLP210 T02110083 10211 20089 58013 $=
202310181652 METAR KATL 181652Z VRB03KT 10SM SCT042 19/08 A3019 RMK AO2 SLP222 T01890083 $=
202310181552 METAR KATL 181552Z VRB06KT 10SM FEW040 18/08 A3020 RMK AO2 SLP224 T01830078 $=
202310181452 METAR KATL 181452Z 13004KT 10SM CLR 17/08 A3020 RMK AO2 SLP224 T01720083 51014 $=
202310181352 METAR KATL 181352Z 00000KT 10SM CLR 15/08 A3019 RMK AO2 SLP220 T01500083 $=
202310181252 METAR KATL 181252Z 09004KT 10SM CLR 13/08 A3017 RMK AO2 SLP216 T01280078 $=
202310181152 METAR KATL 181152Z 00000KT 10SM CLR 09/06 A3015 RMK AO2 SLP211 T00890061 10106 20083 53010 $=
202310181052 METAR KATL 181052Z 00000KT 10SM CLR 09/06 A3015 RMK AO2 SLP207 T00890061 $=
202310180952 METAR KATL 180952Z 36003KT 10SM CLR 09/06 A3013 RMK AO2 SLP202 T00890061 $=
202310180852 METAR KATL 180852Z 33004KT 10SM CLR 09/07 A3012 RMK AO2 SLP199 T00940067 57001 $=
202310180752 METAR KATL 180752Z 33003KT 10SM CLR 09/07 A3013 RMK AO2 SLP199 T00940067 $=
202310180652 METAR KATL 180652Z 33004KT 10SM CLR 10/07 A3013 RMK AO2 SLP199 T01000067 $=
202310180552 METAR KATL 180552Z 33004KT 10SM CLR 10/07 A3013 RMK AO2 SLP201 T01000072 10156 20100 53005 $=
202310180452 METAR KATL 180452Z 32005KT 10SM CLR 11/08 A3012 RMK AO2 SLP197 T01060078 402000072 $=
202310180352 METAR KATL 180352Z 32004KT 10SM CLR 12/08 A3012 RMK AO2 SLP198 T01220078 $=
202310180252 METAR KATL 180252Z 28004KT 10SM CLR 12/08 A3011 RMK AO2 SLP195 T01220083 53010 $=
202310180152 METAR KATL 180152Z VRB03KT 10SM CLR 13/08 A3009 RMK AO2 SLP189 T01330083 $=
202310180052 METAR KATL 180052Z 00000KT 10SM FEW250 15/08 A3009 RMK AO2 SLP190 T01500083 $=
202310172352 METAR KATL 172352Z 30003KT 10SM FEW250 16/08 A3008 RMK AO2 SLP186 T01560078 10200 20156 53008 $=
202310172252 METAR KATL 172252Z 31007KT 10SM FEW250 17/07 A3006 RMK AO2 SLP180 T01720072 $=
202310172152 METAR KATL 172152Z 34006KT 10SM FEW200 19/07 A3006 RMK AO2 SLP177 T01890067 $=
202310172052 METAR KATL 172052Z 28006KT 10SM FEW055 FEW200 19/07 A3005 RMK AO2 SLP176 T01890072 55008 $=
202310171952 METAR KATL 171952Z 29006KT 10SM FEW055 19/07 A3005 RMK AO2 SLP175 T01890067 $=
202310171852 METAR KATL 171852Z 35006KT 10SM FEW055 19/06 A3006 RMK AO2 SLP178 T01890061 $=
202310171752 METAR KATL 171752Z 35005KT 10SM FEW055 18/06 A3008 RMK AO2 SLP184 T01780056 10183 20078 58008 $=
202310171652 METAR KATL 171652Z 00000KT 10SM FEW046 17/06 A3010 RMK AO2 SLP192 T01720061 $=
202310171552 METAR KATL 171552Z 26004KT 10SM FEW038 15/06 A3011 RMK AO2 SLP195 T01500056 $=
202310171452 METAR KATL 171452Z 04005KT 10SM CLR 14/07 A3010 RMK AO2 SLP194 T01390072 50014 $=
202310171352 METAR KATL 171352Z 33006KT 10SM CLR 12/07 A3011 RMK AO2 SLP196 T01170072 $=
202310171252 METAR KATL 171252Z 33007KT 10SM CLR 09/07 A3009 RMK AO2 SLP189 T00940067 $=
202310171152 METAR KATL 171152Z 33006KT 10SM CLR 08/06 A3006 RMK AO2 SLP180 T00780061 10089 20072 51013 $=
202310171052 METAR KATL 171052Z 31007KT 10SM CLR 07/06 A3005 RMK AO2 SLP177 T00720056 $=
202310170952 METAR KATL 170952Z 30007KT 10SM CLR 08/06 A3003 RMK AO2 SLP171 T00780061 $=
202310170852 METAR KATL 170852Z 32008KT 10SM FEW055 08/06 A3002 RMK AO2 SLP166 T00780061 57003 $=
202310170752 METAR KATL 170752Z 32009KT 10SM FEW055 08/06 A3002 RMK AO2 SLP167 T00830061 $=
202310170652 METAR KATL 170652Z 33007KT 10SM FEW055 08/06 A3003 RMK AO2 SLP169 T00830061 $=
202310170552 METAR KATL 170552Z 30006KT 10SM FEW055 08/06 A3003 RMK AO2 SLP169 T00830056 10128 20083 51006 $=
202310170452 METAR KATL 170452Z 33010KT 10SM CLR 09/06 A3003 RMK AO2 SLP167 T00940061 401560078 $=
202310170352 METAR KATL 170352Z 32009KT 10SM CLR 10/06 A3002 RMK AO2 SLP166 T01000056 $=
202310170252 METAR KATL 170252Z 31008KT 10SM FEW055 10/06 A3001 RMK AO2 SLP163 T01000056 51016 $=
202310170152 METAR KATL 170152Z 32009KT 10SM FEW055 11/06 A3000 RMK AO2 SLP159 T01110056 $=
202310170052 METAR KATL 170052Z 34007KT 10SM BKN055 12/06 A2998 RMK AO2 SLP152 T01170061 $=
202310162352 METAR KATL 162352Z 32008KT 10SM FEW040 BKN060 13/06 A2996 RMK AO2 SLP147 T01280061 10156 20128 51014 $=
202310162252 METAR KATL 162252Z 30009KT 10SM SCT038 OVC050 13/06 A2995 RMK AO2 SLP143 BINOVC T01330061 $=
202310162152 METAR KATL 162152Z 31010KT 10SM BKN042 OVC050 14/06 A2993 RMK AO2 SLP137 BINOVC T01390056 $=
202310162052 METAR KATL 162052Z 33012G19KT 10SM SCT040 OVC055 14/06 A2992 RMK AO2 SLP132 BINOVC T01440056 56005 $=
202310161952 METAR KATL 161952Z 32016G22KT 10SM SCT048 BKN060 BKN100 BKN250 14/05 A2993 RMK AO2 SLP133 T01440050 $=
202310161852 METAR KATL 161852Z 32015KT 10SM SCT042 BKN060 OVC110 14/05 A2992 RMK AO2 SLP132 T01440050 $=
202310161752 METAR KATL 161752Z 32013G21KT 10SM SCT036 BKN048 OVC110 14/05 A2994 RMK AO2 SLP137 T01440050 10156 20078 58006 $=
202310161652 METAR KATL 161652Z 32012KT 10SM BKN039 BKN060 BKN200 14/06 A2995 RMK AO2 SLP143 T01440056 $=
202310161552 METAR KATL 161552Z 34012G22KT 10SM SCT034 BKN065 BKN200 14/05 A2995 RMK AO2 SLP142 T01440050 $=
202310161452 METAR KATL 161452Z 33011G20KT 10SM FEW028 FEW060 SCT200 13/06 A2996 RMK AO2 SLP143 T01330056 51014 $=
202310161352 METAR KATL 161352Z 31009KT 10SM FEW022 FEW060 11/06 A2995 RMK AO2 SLP142 T01110061 $=
202310161252 METAR KATL 161252Z 32010KT 10SM FEW060 09/05 A2993 RMK AO2 SLP136 T00940050 $=
202310161152 METAR KATL 161152Z 32013KT 10SM FEW060 08/05 A2992 RMK AO2 SLP131 T00780050 10100 20078 53011 $=
202310161052 METAR KATL 161052Z 32012KT 10SM FEW060 08/05 A2991 RMK AO2 SLP128 T00830050 $=
202310160952 METAR KATL 160952Z 32011KT 10SM CLR 08/05 A2989 RMK AO2 SLP119 T00830050 $=
202310160852 METAR KATL 160852Z 32012KT 10SM CLR 09/06 A2988 RMK AO2 SLP118 T00890056 55004 $=
202310160752 METAR KATL 160752Z 33014KT 10SM CLR 09/06 A2988 RMK AO2 SLP117 T00940056 $=
202310160652 METAR KATL 160652Z 33013KT 10SM CLR 10/06 A2988 RMK AO2 SLP116 T01000056 $=
202310160552 METAR KATL 160552Z 32013KT 10SM FEW060 10/06 A2989 RMK AO2 SLP122 T01000056 10139 20100 53006 $=
202310160452 METAR KATL 160452Z 33011KT 10SM FEW060 11/06 A2988 RMK AO2 SLP117 T01060056 401830106 $=
202310160352 METAR KATL 160352Z 33012KT 10SM FEW060 FEW070 12/06 A2988 RMK AO2 SLP117 T01170056 $=
202310160252 METAR KATL 160252Z 33014G23KT 10SM FEW060 FEW070 FEW095 12/06 A2988 RMK AO2 SLP115 T01220056 53017 $=
202310160152 METAR KATL 160152Z 32010KT 10SM FEW050 SCT060 SCT100 13/06 A2986 RMK AO2 SLP108 T01280061 $=
202310160052 METAR KATL 160052Z 32010KT 10SM SCT060 BKN100 13/06 A2984 RMK AO2 SLP103 T01330061 $=
202310152352 METAR KATL 152352Z 32010KT 10SM FEW035 BKN055 BKN060 14/07 A2983 RMK AO2 SLP098 T01390067 10172 20139 53014 $=
202310152252 METAR KATL 152252Z 32010KT 10SM FEW035 BKN050 BKN060 15/06 A2981 RMK AO2 SLP092 T01500061 $=
202310152152 METAR KATL 152152Z 33015G23KT 10SM FEW035 BKN050 OVC060 16/07 A2979 RMK AO2 SLP085 T01560072 $=
202310152052 METAR KATL 152052Z 33012G21KT 10SM FEW032 SCT037 OVC060 17/08 A2978 RMK AO2 SLP081 BINOVC T01670083 55003 $=
202310151952 METAR KATL 151952Z 31013G20KT 10SM FEW032 OVC050 17/09 A2978 RMK AO2 SLP080 T01720094 $=
202310151852 METAR KATL 151852Z 30012G20KT 10SM FEW028 OVC048 17/10 A2978 RMK AO2 SLP080 BINOVC T01720100 $=
202310151752 METAR KATL 151752Z 30013KT 10SM FEW027 BKN043 17/10 A2979 RMK AO2 RAE02 SLP084 MDT CU DSNT NW P0000 60000 T01670100 10183 20128 58013 $=
202310151652 METAR KATL 151652Z 33013KT 10SM -RA FEW025 BKN036 BKN046 16/11 A2982 RMK AO2 RAB52 SLP093 P0000 T01610106 $=
202310151641 SPECI KATL 151641Z 31010KT 10SM SCT025 BKN035 BKN046 17/10 A2982 RMK AO2 T01720100 $=
202310151552 METAR KATL 151552Z 33010KT 10SM BKN024 OVC034 16/10 A2982 RMK AO2 SLP095 BINOVC T01610100 $=
202310151452 METAR KATL 151452Z 32008KT 10SM BKN022 OVC031 16/10 A2983 RMK AO2 SLP098 T01560100 51008 $=
202310151352 METAR KATL 151352Z 31009G22KT 10SM BKN017 OVC034 15/10 A2983 RMK AO2 SLP097 BINOVC T01500100 $=
202310151338 SPECI KATL 151338Z 31011KT 10SM BKN016 BKN032 16/11 A2983 RMK AO2 T01560106 $=
202310151252 METAR KATL 151252Z 30010KT 10SM FEW014 SCT042 14/10 A2982 RMK AO2 SLP092 T01390100 $=
202310151152 METAR KATL 151152Z 29008KT 10SM FEW023 FEW033 13/09 A2981 RMK AO2 SLP089 T01280094 10161 20128 53007 $=
202310151052 METAR KATL 151052Z 31012KT 10SM FEW023 FEW033 13/09 A2979 RMK AO2 SLP084 T01330094 $=
202310150952 METAR KATL 150952Z 32007KT 10SM FEW027 SCT035 14/09 A2979 RMK AO2 SLP081 T01390094 $=
202310150852 METAR KATL 150852Z 33011G20KT 10SM BKN030 BKN039 15/09 A2979 RMK AO2 SLP079 T01500089 58005 $=
202310150752 METAR KATL 150752Z 32011G18KT 10SM BKN040 15/08 A2979 RMK AO2 SLP081 T01500083 $=
202310150652 METAR KATL 150652Z 31010G20KT 10SM BKN040 16/08 A2980 RMK AO2 PK WND 31026/0610 SLP084 T01560083 $=
202310150552 METAR KATL 150552Z 33015G23KT 10SM BKN037 16/08 A2980 RMK AO2 SLP085 T01610083 10194 20156 55004 $=
202310150452 METAR KATL 150452Z 32013G21KT 10SM BKN039 16/08 A2980 RMK AO2 SLP084 T01610083 402440156 $=
202310150352 METAR KATL 150352Z 32014KT 10SM SCT040 SCT045 16/09 A2981 RMK AO2 SLP090 T01610089 $=
202310150252 METAR KATL 150252Z 32010KT 10SM SCT045 17/09 A2981 RMK AO2 SLP091 T01670094 51015 $=
202310150152 METAR KATL 150152Z 29008G15KT 10SM SCT045 17/09 A2980 RMK AO2 SLP088 T01720094 $=
202310150052 METAR KATL 150052Z 29011KT 10SM FEW045 18/09 A2979 RMK AO2 SLP081 T01830094 $=
202310142352 METAR KATL 142352Z 29012KT 10SM FEW045 19/11 A2977 RMK AO2 SLP074 T01940106 10244 20194 53009 $=
202310142252 METAR KATL 142252Z 28006KT 10SM FEW045 21/13 A2975 RMK AO2 SLP069 T02110133 $=
202310142152 METAR KATL 142152Z 27010KT 10SM SCT044 22/13 A2974 RMK AO2 PK WND 27028/2102 SLP065 T02220128 $=
202310142052 METAR KATL 142052Z 29013G21KT 10SM SCT043 24/13 A2974 RMK AO2 SLP064 MDT CU DSNT E-S T02390128 56013 $=
202310141952 METAR KATL 141952Z 27013G22KT 10SM SCT038 SCT048 24/14 A2975 RMK AO2 SLP066 MDT CU ALQDS T02390144 $=
202310141852 METAR KATL 141852Z 27011G21KT 10SM SCT034 SCT048 23/15 A2975 RMK AO2 SLP068 MDT CU ALQDS T02330150 $=
202310141752 METAR KATL 141752Z 26011KT 10SM SCT026 SCT038 23/16 A2978 RMK AO2 SLP077 MDT CU ALQDS T02280161 10228 20172 58024 $=
202310141652 METAR KATL 141652Z 27012G24KT 10SM BKN024 BKN033 22/16 A2981 RMK AO2 SLP089 MDT CU ALQDS T02220161 $=
202310141552 METAR KATL 141552Z 28009KT 10SM BKN016 BKN023 21/17 A2983 RMK AO2 SLP094 T02110172 $=
202310141518 SPECI KATL 141518Z 28008KT 10SM FEW007 SCT014 BKN022 20/18 A2984 RMK AO2 T02000178 $=
202310141452 METAR KATL 141452Z 27008KT 9SM BKN007 OVC019 19/17 A2985 RMK AO2 SLP102 BKN V SCT T01890172 50001 $=
202310141410 SPECI KATL 141410Z 28006KT 7SM BKN007 OVC014 18/17 A2985 RMK AO2 T01830172 $=
202310141352 METAR KATL 141352Z 26007KT 7SM SCT006 OVC014 18/17 A2986 RMK AO2 SLP105 BINOVC T01830172 $=
202310141346 SPECI KATL 141346Z 27006KT 7SM SCT006 OVC012 18/17 A2985 RMK AO2 BINOVC $=
202310141306 SPECI KATL 141306Z 26007KT 7SM FEW005 OVC009 18/17 A2986 RMK AO2 T01780167 $=
202310141252 METAR KATL 141252Z 27006KT 7SM SCT004 OVC011 18/17 A2986 RMK AO2 SLP105 BINOVC T01780167 $=
202310141219 SPECI KATL 141219Z 28005KT 6SM BR SCT003 BKN014 17/17 A2985 RMK AO2 T01720167 $=
202310141152 METAR KATL 141152Z 26005KT 1 1/2SM BR BKN003 OVC014 17/17 A2985 RMK AO2 SFC VIS 6 DZB19E35 SLP103 CIG 002V004 TWRINC P0000 60001 70015 T01720167 10178 20172 53001 $=
202310141052 METAR KATL 141052Z 29004KT 1 1/2SM BR OVC004 17/16 A2984 RMK AO2 SFC VIS 6 RAE06DZB06E34 SLP101 CIG 003V005 P0000 T01720161 $=
202310140952 METAR KATL 140952Z 28003KT 1 1/2SM -RA BR OVC003 17/17 A2985 RMK AO2 SFC VIS 2 1/2 DZE45RAB45 SLP102 CIG 002V005 TWRINC P0001 T01720167 $=
202310140852 METAR KATL 140852Z 30003KT 1 1/2SM -DZ BR BKN003 OVC015 17/17 A2985 RMK AO2 SLP102 CIG 002V005 P0000 60000 T01720167 56011 $=
202310140752 METAR KATL 140752Z 31005KT 1 1/2SM -DZ BR BKN004 OVC011 17/16 A2985 RMK AO2 SFC VIS 3 SLP103 CIG 003V006 P0000 T01720161 $=
202310140652 METAR KATL 140652Z 00000KT 1 1/2SM -DZ BR BKN004 OVC009 18/16 A2986 RMK AO2 SFC VIS 2 SLP105 P0000 T01780161 $=
202310140552 METAR KATL 140552Z 02003KT 1 1/2SM -DZ BR BKN004 OVC016 18/16 A2988 RMK AO2 SFC VIS 5 DZB24 SLP113 P0000 60006 T01780161 10178 20172 56013 $=
202310140525 SPECI KATL 140525Z 08003KT 1 1/2SM -DZ BKN004 OVC016 17/16 A2988 RMK AO2 SFC VIS 7 DZB24 P0000 T01720161 $=
202310140452 METAR KATL 140452Z 08007KT 1 1/2SM SCT004 BKN009 OVC020 17/16 A2988 RMK AO2 SFC VIS 7 DZE43 SLP115 P0000 T01720161 401940156 $=
202310140352 METAR KATL 140352Z 08005KT 1 1/2SM -DZ BR SCT004 BKN007 OVC012 17/16 A2990 RMK AO2 RAE32DZB32 SLP120 P0000 T01720161 $=
202310140252 METAR KATL 140252Z 07004KT 1 1/2SM -RA BR BKN007 OVC020 18/17 A2992 RMK AO2 SLP127 CIG 005V010 P0002 60006 T01780167 53006 $=
202310140152 METAR KATL 140152Z 09005KT 1 1/2SM -RA BR BKN005 OVC020 18/17 A2991 RMK AO2 SLP123 CIG 003V007 P0003 T01780167 $=
202310140052 METAR KATL 140052Z 10005KT 1 1/2SM -RA BR BKN005 BKN014 OVC025 18/17 A2990 RMK AO2 SLP122 P0001 T01780167 $=
202310132352 METAR KATL 132352Z 09008KT 1 1/2SM -RA BR BKN005 BKN012 OVC030 18/17 A2990 RMK AO2 SLP120 P0001 60007 T01780167 10194 20178 53002 $=
202310132259 SPECI KATL 132259Z 09007KT 1 1/2SM -RA BR SCT005 BKN012 OVC025 18/17 A2990 RMK AO2 SCT005 V BKN P0000 T01780167 $=
202310132252 METAR KATL 132252Z 09006KT 2SM -RA BR SCT005 BKN012 OVC030 18/17 A2989 RMK AO2 SLP118 SCT005 V BKN P0003 T01780167 $=
202310132152 METAR KATL 132152Z 09007KT 2SM -RA BR SCT005 BKN010 OVC035 18/17 A2989 RMK AO2 SLP118 P0002 T01830167 $=
202310132122 SPECI KATL 132122Z 08006KT 2SM -RA BR SCT007 BKN014 OVC035 18/17 A2989 RMK AO2 P0001 T01830167 $=
202310132119 SPECI KATL 132119Z 09006KT 3SM -RA BR SCT007 BKN014 OVC035 18/17 A2989 RMK AO2 P0001 T01830167 $=
202310132109 SPECI KATL 132109Z 09006KT 2 1/2SM -RA BR SCT007 BKN014 OVC035 18/17 A2989 RMK AO2 P0001 T01830167 $=
202310132052 METAR KATL 132052Z 09005KT 1 3/4SM -RA BR SCT008 OVC014 18/17 A2989 RMK AO2 RAB23 SLP118 P0001 60001 T01830167 56011 $=
202310132041 SPECI KATL 132041Z 09006KT 1 3/4SM RA BR SCT008 OVC013 18/17 A2990 RMK AO2 RAB23 P0000 T01830167 $=
202310132025 SPECI KATL 132025Z 07009KT 2SM RA OVC012 19/16 A2990 RMK AO2 RAB23 P0000 T01890156 $=
202310131952 METAR KATL 131952Z 08010KT 10SM OVC012 19/16 A2990 RMK AO2 SLP121 T01890156 $=
202310131926 SPECI KATL 131926Z 07010KT 10SM BKN010 OVC015 19/16 A2990 RMK AO2 T01890156 $=
202310131852 METAR KATL 131852Z 10009KT 9SM BKN009 OVC014 18/16 A2991 RMK AO2 DZE36 SLP124 P0000 T01830156 $=
202310131752 METAR KATL 131752Z 08011KT 5SM -DZ BR OVC008 18/16 A2993 RMK AO2 SLP129 P0000 60001 T01780161 10183 20156 58006 $=
202310131652 METAR KATL 131652Z 08010KT 5SM -DZ BR OVC007 18/16 A2995 RMK AO2 RAE23DZB23 SLP136 CIG 006V010 P0000 T01780161 $=
202310131633 SPECI KATL 131633Z 09009KT 3SM -DZ BR OVC007 18/16 A2995 RMK AO2 RAE23DZB23 CIG 006V010 P0000 T01780161 $=
202310131552 METAR KATL 131552Z 10008KT 2SM -RA BR OVC008 17/16 A2995 RMK AO2 SLP137 VIS S 1 1/2 CIG 006V010 P0000 T01720156 $=
202310131547 SPECI KATL 131547Z 09011KT 2SM -RA BR OVC008 17/16 A2995 RMK AO2 VIS N 7 P0000 $=
202310131452 METAR KATL 131452Z 09009KT 8SM -RA OVC008 17/15 A2995 RMK AO2 SLP136 CIG 007V010 VIS LWR S P0000 60001 T01720150 50007 $=
202310131352 METAR KATL 131352Z 09012KT 7SM -RA BKN007 OVC030 16/14 A2995 RMK AO2 SLP137 CIG 006V010 PCPN VRY LGT P0000 T01610144 $=
202310131252 METAR KATL 131252Z 09010KT 3SM -RA BR BKN006 OVC022 16/14 A2994 RMK AO2 SLP133 P0001 T01560144 $=
202310131152 METAR KATL 131152Z 08013KT 4SM -RA BR BKN009 OVC018 16/14 A2992 RMK AO2 SLP129 DZB16E26RAB26 P0000 60000 70005 T01610144 10172 20161 53010 $=
202310131126 SPECI KATL 131126Z 09010KT 9SM -DZ BKN010 OVC017 16/14 A2991 RMK AO2 DZB16 P0000 T01610139 $=
202310131052 METAR KATL 131052Z 08010KT 10SM SCT012 BKN018 OVC038 17/14 A2991 RMK AO2 SLP123 T01670139 $=
202310131048 SPECI KATL 131048Z 08010KT 10SM FEW012 BKN018 OVC037 17/14 A2991 RMK AO2 $=
202310130952 METAR KATL 130952Z 09009KT 10SM FEW010 OVC045 16/14 A2989 RMK AO2 DZE50 SLP118 P0000 T01610139 $=
202310130852 METAR KATL 130852Z 09011KT 8SM -DZ SCT020 BKN040 BKN055 17/14 A2988 RMK AO2 SLP111 P0000 60000 T01670139 56005 $=
202310130850 SPECI KATL 130850Z 09010KT 8SM -DZ SCT020 BKN040 BKN055 17/14 A2988 RMK AO2 P0000 $=
202310130752 METAR KATL 130752Z 08009KT 10SM -DZ FEW012 BKN020 17/14 A2988 RMK AO2 SLP112 DZB42 P0000 T01670139 $=
202310130652 METAR KATL 130652Z 07010KT 10SM FEW012 BKN016 BKN043 17/14 A2989 RMK AO2 SLP116 T01720139 $=
202310130552 METAR KATL 130552Z 08011KT 10SM FEW015 BKN020 BKN035 17/14 A2990 RMK AO2 SLP119 T01720144 10183 20172 51004 $=
202310130452 METAR KATL 130452Z 08009KT 10SM FEW015 BKN023 BKN040 17/14 A2990 RMK AO2 SLP119 T01720144 402060150 $=
202310130352 METAR KATL 130352Z 09009KT 10SM BKN018 BKN025 BKN050 17/14 A2989 RMK AO2 SLP118 T01720144 $=
202310130252 METAR KATL 130252Z 09008KT 10SM OVC022 18/14 A2989 RMK AO2 SLP116 BINOVC T01780144 51012 $=
202310130152 METAR KATL 130152Z 08009G20KT 10SM BKN020 BKN070 18/14 A2987 RMK AO2 SLP111 T01780139 $=
202310130052 METAR KATL 130052Z 09013KT 10SM BKN022 BKN030 18/14 A2987 RMK AO2 SLP110 T01780139 $=
202310122352 METAR KATL 122352Z 08009G18KT 10SM BKN023 BKN032 18/14 A2985 RMK AO2 SLP103 T01830139 10206 20178 51013 $=
202310122252 METAR KATL 122252Z 08015G19KT 10SM BKN024 OVC032 19/14 A2984 RMK AO2 SLP100 BINOVC DSNT NW-NE T01890139 $=
202310122152 METAR KATL 122152Z 05015G19KT 10SM BKN022 OVC030 19/14 A2983 RMK AO2 SLP096 T01940144 $=
202310122052 METAR KATL 122052Z 07014KT 10SM BKN026 OVC032 19/14 A2981 RMK AO2 PK WND 06026/2016 SLP090 T01940144 55003 $=
202310121952 METAR KATL 121952Z 07016KT 10SM BKN023 OVC030 20/14 A2980 RMK AO2 SLP086 T02000139 $=
202310121852 METAR KATL 121852Z 08012G21KT 10SM OVC021 19/14 A2980 RMK AO2 SLP086 T01940144 $=
202310121825 SPECI KATL 121825Z 07013KT 10SM BKN017 OVC023 19/14 A2981 RMK AO2 T01890144 $=
202310121752 METAR KATL 121752Z 07017G22KT 10SM BKN013 OVC019 18/14 A2982 RMK AO2 SLP094 60005 T01780144 10178 20156 58002 $=
202310121652 METAR KATL 121652Z 07014G21KT 10SM BKN011 OVC017 17/14 A2983 RMK AO2 PK WND 06027/1615 SLP097 T01720139 $=
202310121625 SPECI KATL 121625Z 06016KT 10SM BKN011 OVC017 17/14 A2983 RMK AO2 PK WND 06027/1615 T01670139 $=
202310121552 METAR KATL 121552Z 07019G26KT 10SM BKN009 OVC014 17/14 A2983 RMK AO2 PK WND 06026/1544 SLP098 T01670139 $=
202310121501 SPECI KATL 121501Z 07015G24KT 7SM BKN008 OVC014 16/14 A2983 RMK AO2 T01610139 $=
202310121452 METAR KATL 121452Z 07016G29KT 7SM SCT008 BKN011 OVC018 16/14 A2983 RMK AO2 PK WND 07029/1445 SLP097 60005 T01610139 51008 $=
202310121352 METAR KATL 121352Z 07018G25KT 10SM BKN011 OVC019 16/14 A2982 RMK AO2 PK WND 06028/1339 SLP095 T01610139 $=
202310121317 SPECI KATL 121317Z 07017KT 10SM BKN011 OVC019 16/14 A2981 RMK AO2 T01560139 $=
202310121252 METAR KATL 121252Z 06014G23KT 10SM BKN009 OVC015 16/14 A2981 RMK AO2 RAE45 SLP090 CIG 008V011 P0005 T01560139 $=
202310121152 METAR KATL 121152Z 07017G25KT 9SM -RA BKN008 OVC014 16/14 A2980 RMK AO2 SLP088 CIG 006V010 P0000 60023 70120 T01560139 10167 20150 53003 $=
202310121052 METAR KATL 121052Z 09014G23KT 9SM -RA OVC008 16/14 A2978 RMK AO2 SLP080 CIG 007V009 P0003 T01560139 $=
202310120952 METAR KATL 120952Z 09013KT 9SM -RA OVC008 15/14 A2978 RMK AO2 SLP079 CIG 007V010 P0003 T01500139 $=
202310120852 METAR KATL 120852Z 08014KT 8SM -RA OVC007 16/14 A2979 RMK AO2 SLP083 CIG 005V009 P0002 60017 T01560139 56022 $=
202310120752 METAR KATL 120752Z 09010KT 8SM -RA BKN007 BKN015 OVC050 16/14 A2980 RMK AO2 SLP084 CIG 006V009 P0004 T01560139 $=
202310120652 METAR KATL 120652Z 10011G22KT 7SM -RA BKN007 BKN014 OVC048 16/14 A2981 RMK AO2 PRESFR SLP089 CIG 006V009 P0011 T01560139 $=
202310120552 METAR KATL 120552Z 11009KT 4SM RA BR BKN008 BKN016 OVC045 16/14 A2986 RMK AO2 SLP104 CIG 007V010 P0033 60077 T01560139 10178 20156 56009 $=
202310120530 SPECI KATL 120530Z 11011G19KT 4SM RA BR BKN008 OVC047 16/14 A2988 RMK AO2 P0025 T01560139 $=
202310120452 METAR KATL 120452Z 10013G22KT 3SM +RA BR SCT008 BKN035 OVC080 16/14 A2986 RMK AO2 PRESFR SLP106 SCT008 V BKN P0023 T01560139 402330156 $=
202310120352 METAR KATL 120352Z 12012G20KT 8SM -RA FEW007 BKN110 OVC140 16/14 A2987 RMK AO2 SLP109 P0004 T01610144 $=
202310120252 METAR KATL 120252Z 14007KT 8SM -RA FEW006 SCT080 BKN110 OVC150 17/16 A2989 RMK AO2 SLP114 P0002 60017 T01720156 58016 $=
202310120152 METAR KATL 120152Z 10006KT 7SM -RA FEW090 OVC110 17/15 A2991 RMK AO2 SLP124 P0006 T01670150 $=
202310120052 METAR KATL 120052Z 10005KT 5SM RA BR BKN090 OVC110 17/16 A2993 RMK AO2 SLP130 P0009 T01720156 $=
202310112352 METAR KATL 112352Z VRB05KT 7SM -RA BKN090 OVC110 18/14 A2993 RMK AO2 SLP132 P0007 60020 T01780144 10233 20178 50009 $=
202310112252 METAR KATL 112252Z 04005KT 5SM -RA FEW070 BKN085 OVC110 19/14 A2994 RMK AO2 SLP132 P0007 T01890144 $=
202310112152 METAR KATL 112152Z 00000KT 5SM -RA BR FEW065 OVC090 19/17 A2993 RMK AO2 SLP129 P0005 T01940172 $=
202310112052 METAR KATL 112052Z 16004KT 7SM -RA FEW060 OVC085 21/16 A2990 RMK AO2 SLP120 P0001 60001 T02060156 56016 $=
202310111952 METAR KATL 111952Z 00000KT 10SM -RA FEW075 BKN095 OVC120 23/14 A2990 RMK AO2 RAB51 SLP120 ACC SE-SW NW P0000 T02280139 $=
202310111852 METAR KATL 111852Z 34003KT 10SM FEW100 BKN130 OVC170 23/13 A2993 RMK AO2 SLP127 VIRGA OHD-ALQDS T02280133 $=
202310111752 METAR KATL 111752Z 26004KT 10SM FEW110 BKN140 OVC180 23/12 A2995 RMK AO2 SLP135 VIRGA OHD-ALQDS T02280122 10233 20178 58004 $=
202310111652 METAR KATL 111652Z 30004KT 10SM FEW130 BKN160 OVC200 23/12 A2996 RMK AO2 SLP139 VIRGA OHD-ALQDS T02280122 $=
202310111552 METAR KATL 111552Z 27003KT 10SM FEW140 BKN170 OVC250 22/13 A2997 RMK AO2 SLP143 VIRGA OHD-ALQDS T02220128 $=
202310111452 METAR KATL 111452Z 29005KT 10SM FEW140 BKN180 OVC250 22/13 A2997 RMK AO2 SLP140 VIRGA OHD-ALQDS T02170133 51013 $=
202310111352 METAR KATL 111352Z 21003KT 10SM SCT140 BKN180 OVC250 19/13 A2996 RMK AO2 SLP139 VIRGA OHD-ALQDS T01940133 $=
202310111252 METAR KATL 111252Z 00000KT 10SM SCT150 BKN200 BKN250 19/13 A2995 RMK AO2 SLP134 VIRGA OHD-ALQDS T01890133 $=
202310111152 METAR KATL 111152Z 23003KT 10SM FEW150 BKN200 BKN250 18/13 A2993 RMK AO2 SLP128 VIRGA OHD-ALQDS T01780128 10206 20172 51010 $=
202310111052 METAR KATL 111052Z 00000KT 10SM BKN200 BKN250 17/13 A2992 RMK AO2 SLP125 T01720128 $=
202310110952 METAR KATL 110952Z 00000KT 10SM BKN200 BKN250 18/13 A2991 RMK AO2 SLP121 T01780133 $=
202310110852 METAR KATL 110852Z 00000KT 10SM BKN200 BKN250 18/13 A2990 RMK AO2 SLP115 T01780128 53002 $=
202310110752 METAR KATL 110752Z 00000KT 10SM BKN200 BKN250 18/13 A2989 RMK AO2 SLP114 T01780128 $=
202310110652 METAR KATL 110652Z 30004KT 10SM BKN200 BKN250 19/13 A2989 RMK AO2 SLP113 T01890128 $=
202310110552 METAR KATL 110552Z 25004KT 10SM BKN200 BKN250 21/12 A2989 RMK AO2 SLP112 T02060122 10228 20200 58003 $=
202310110452 METAR KATL 110452Z 26005KT 10SM BKN200 BKN250 21/13 A2990 RMK AO2 SLP116 T02060128 402830122 $=
202310110352 METAR KATL 110352Z 23005KT 10SM SCT200 BKN250 20/13 A2990 RMK AO2 SLP118 T02000128 $=
202310110252 METAR KATL 110252Z 22005KT 10SM SCT200 BKN250 21/13 A2990 RMK AO2 SLP117 T02060128 51007 $=
202310110152 METAR KATL 110152Z 23007KT 10SM FEW080 BKN200 BKN250 22/13 A2990 RMK AO2 SLP117 T02170128 $=
202310110052 METAR KATL 110052Z 23007KT 10SM BKN200 BKN250 22/13 A2989 RMK AO2 SLP116 T02220128 $=
202310102352 METAR KATL 102352Z 22006KT 10SM BKN200 BKN250 23/13 A2988 RMK AO2 SLP112 T02280128 10283 20228 53005 $=
202310102252 METAR KATL 102252Z 22010G18KT 10SM FEW060 BKN200 BKN250 24/12 A2986 RMK AO2 SLP107 T02390122 $=
202310102152 METAR KATL 102152Z 22013G22KT 10SM FEW060 FEW150 BKN200 BKN250 25/12 A2986 RMK AO2 SLP105 T02500122 $=
202310102052 METAR KATL 102052Z 22009KT 10SM FEW060 FEW085 BKN200 BKN250 27/12 A2986 RMK AO2 SLP105 TCU DSNT N-NE T02670122 56006 $=
202310101952 METAR KATL 101952Z 23014G22KT 10SM FEW002 FEW065 BKN200 BKN250 27/12 A2986 RMK AO2 SLP106 FU FEW002 FU PLUME NW TCU DSNT NW-NE T02720122 $=
202310101949 SPECI KATL 101949Z 23009G20KT 10SM FEW002 FEW065 BKN200 BKN250 27/12 A2987 RMK AO2 FU FEW002 FU PLUME NW TCU DSNT NW-NE $=
202310101852 METAR KATL 101852Z 23014G22KT 10SM FEW060 SCT200 BKN250 27/12 A2988 RMK AO2 SLP110 TCU DSNT N MDT CU DSNT NW T02670117 $=
202310101752 METAR KATL 101752Z 23012G18KT 10SM FEW055 SCT200 BKN250 28/12 A2991 RMK AO2 SLP121 T02780122 10283 20128 58013 $=
202310101652 METAR KATL 101652Z 20009KT 10SM FEW200 SCT250 25/11 A2993 RMK AO2 SLP129 T02500106 $=
202310101552 METAR KATL 101552Z 23008KT 10SM SCT200 SCT250 24/09 A2995 RMK AO2 SLP135 T02440094 $=
202310101452 METAR KATL 101452Z 22007KT 10SM FEW200 SCT250 21/08 A2995 RMK AO2 SLP136 T02110083 51009 $=
202310101352 METAR KATL 101352Z 23007KT 10SM FEW012 SCT200 BKN250 18/08 A2994 RMK AO2 SLP133 FU FEW012 T01830083 $=
202310101252 METAR KATL 101252Z 23007KT 10SM FEW150 SCT250 14/08 A2993 RMK AO2 SLP133 T01440078 $=
202310101152 METAR KATL 101152Z 21005KT 10SM SCT250 13/07 A2992 RMK AO2 SLP128 T01280072 10150 20122 53010 $=
202310101052 METAR KATL 101052Z 21003KT 10SM CLR 13/07 A2991 RMK AO2 SLP123 T01330072 $=
202310100952 METAR KATL 100952Z 22003KT 10SM CLR 13/07 A2990 RMK AO2 SLP119 T01330072 $=
202310100852 METAR KATL 100852Z 22004KT 10SM CLR 13/07 A2989 RMK AO2 SLP116 T01330072 58004 $=
202310100752 METAR KATL 100752Z 24004KT 10SM CLR 14/07 A2990 RMK AO2 SLP118 T01390072 $=
202310100652 METAR KATL 100652Z 24004KT 10SM CLR 15/07 A2990 RMK AO2 SLP119 T01500072 $=
202310100552 METAR KATL 100552Z 22005KT 10SM CLR 15/07 A2990 RMK AO2 SLP121 T01500072 10206 20150 58001 $=
202310100452 METAR KATL 100452Z 22006KT 10SM CLR 16/07 A2991 RMK AO2 SLP122 T01560072 402390083 $=
202310100352 METAR KATL 100352Z 23006KT 10SM CLR 16/07 A2991 RMK AO2 SLP122 T01610072 $=
202310100252 METAR KATL 100252Z 23006KT 10SM CLR 17/07 A2991 RMK AO2 SLP123 T01670072 51006 $=
202310100152 METAR KATL 100152Z 22005KT 10SM CLR 18/07 A2990 RMK AO2 SLP122 T01780072 $=
202310100052 METAR KATL 100052Z 22005KT 10SM CLR 19/07 A2990 RMK AO2 SLP122 T01890067 $=
202310092352 METAR KATL 092352Z 23005KT 10SM CLR 21/06 A2989 RMK AO2 SLP119 T02060061 10239 20206 53004 $=
202310092252 METAR KATL 092252Z 23009KT 10SM CLR 22/06 A2988 RMK AO2 SLP115 T02220056 $=
202310092152 METAR KATL 092152Z 24010KT 10SM CLR 23/06 A2988 RMK AO2 SLP114 T02330056 $=
202310092052 METAR KATL 092052Z 23010G17KT 10SM CLR 24/06 A2988 RMK AO2 SLP113 T02390056 56018 $=
202310091952 METAR KATL 091952Z 26014G21KT 10SM CLR 23/05 A2990 RMK AO2 SLP119 T02330050 $=
202310091852 METAR KATL 091852Z 23011G18KT 10SM FEW150 23/04 A2990 RMK AO2 SLP122 T02330044 $=
202310091752 METAR KATL 091752Z 25008G17KT 10SM FEW150 23/04 A2993 RMK AO2 SLP131 T02280039 10228 20089 58021 $=
202310091652 METAR KATL 091652Z 20010G16KT 10SM FEW150 21/04 A2996 RMK AO2 SLP143 T02110039 $=
202310091552 METAR KATL 091552Z 24007KT 10SM FEW150 20/04 A2998 RMK AO2 SLP150 T02000039 $=
202310091452 METAR KATL 091452Z 22006KT 10SM CLR 18/04 A3000 RMK AO2 SLP154 T01830039 53005 $=
202310091352 METAR KATL 091352Z 25004KT 10SM CLR 16/04 A2999 RMK AO2 SLP154 T01610039 $=
202310091252 METAR KATL 091252Z 22003KT 10SM CLR 13/04 A2998 RMK AO2 SLP151 T01280039 $=
202310091152 METAR KATL 091152Z 20003KT 10SM CLR 09/04 A2998 RMK AO2 SLP152 T00890039 10117 20083 51008 $=
202310091052 METAR KATL 091052Z 00000KT 10SM CLR 08/04 A2997 RMK AO2 SLP149 T00830039 $=
202310090952 METAR KATL 090952Z 00000KT 10SM CLR 09/04 A2997 RMK AO2 SLP145 T00890039 $=
202310090852 METAR KATL 090852Z 00000KT 10SM CLR 10/04 A2996 RMK AO2 SLP142 T01000039 55006 $=
202310090752 METAR KATL 090752Z 29003KT 10SM CLR 11/03 A2995 RMK AO2 SLP141 T01060033 $=
202310090652 METAR KATL 090652Z 30004KT 10SM CLR 12/03 A2996 RMK AO2 SLP143 T01170033 $=
202310090552 METAR KATL 090552Z 28003KT 10SM CLR 12/03 A2997 RMK AO2 SLP148 T01170028 10161 20111 58003 $=
202310090452 METAR KATL 090452Z 28004KT 10SM CLR 12/03 A2998 RMK AO2 SLP149 T01170028 402060083 $=
202310090352 METAR KATL 090352Z 27003KT 10SM CLR 12/02 A2999 RMK AO2 SLP152 T01220022 $=
202310090252 METAR KATL 090252Z 29005KT 10SM CLR 13/02 A2998 RMK AO2 SLP151 T01330022 51009 $=
202310090152 METAR KATL 090152Z 29005KT 10SM CLR 14/02 A2997 RMK AO2 SLP149 T01440017 $=
202310090052 METAR KATL 090052Z 28005KT 10SM CLR 15/02 A2997 RMK AO2 SLP147 T01500022 $=
202310082352 METAR KATL 082352Z 28006KT 10SM CLR 16/02 A2996 RMK AO2 SLP143 T01610017 10206 20161 55002 $=
202310082252 METAR KATL 082252Z 29007KT 10SM CLR 18/01 A2995 RMK AO2 SLP141 T01780006 $=
202310082152 METAR KATL 082152Z 31008KT 10SM CLR 19/00 A2996 RMK AO2 SLP141 T01940000 $=
202310082052 METAR KATL 082052Z 30007KT 10SM CLR 20/01 A2996 RMK AO2 SLP143 T02000006 56021 $=
202310081952 METAR KATL 081952Z 32011G20KT 10SM CLR 21/01 A2998 RMK AO2 SLP149 T02060011 $=
202310081852 METAR KATL 081852Z 33014G22KT 10SM CLR 20/01 A3000 RMK AO2 SLP155 T02000006 $=
202310081752 METAR KATL 081752Z 35011G21KT 10SM CLR 19/01 A3002 RMK AO2 SLP165 T01890006 10194 20083 58022 $=
202310081652 METAR KATL 081652Z 29009G18KT 10SM CLR 18/01 A3005 RMK AO2 SLP173 T01830006 $=
202310081552 METAR KATL 081552Z 32010KT 10SM FEW200 17/01 A3007 RMK AO2 SLP181 T01670011 $=
202310081452 METAR KATL 081452Z 34011G15KT 10SM FEW200 16/03 A3009 RMK AO2 SLP187 T01560028 50008 $=
202310081352 METAR KATL 081352Z 32006KT 10SM FEW200 13/04 A3009 RMK AO2 SLP188 T01330039 $=
202310081252 METAR KATL 081252Z 33007KT 10SM FEW200 11/04 A3008 RMK AO2 SLP185 T01060039 $=
202310081152 METAR KATL 081152Z 33004KT 10SM FEW200 08/03 A3006 RMK AO2 SLP180 T00830033 10111 20083 53010 $=
202310081052 METAR KATL 081052Z 32005KT 10SM CLR 08/03 A3005 RMK AO2 SLP175 T00830033 $=
202310080952 METAR KATL 080952Z 32004KT 10SM CLR 09/03 A3004 RMK AO2 SLP171 T00940033 $=
202310080852 METAR KATL 080852Z 33008KT 10SM CLR 10/03 A3003 RMK AO2 SLP168 T01000033 55006 $=
202310080752 METAR KATL 080752Z 33006KT 10SM CLR 10/03 A3003 RMK AO2 SLP168 T01000033 $=
202310080652 METAR KATL 080652Z 33010KT 10SM CLR 11/03 A3004 RMK AO2 SLP169 T01060033 $=
202310080552 METAR KATL 080552Z 33010KT 10SM CLR 11/03 A3005 RMK AO2 SLP173 T01110033 10167 20111 55002 $=
202310080452 METAR KATL 080452Z 33010KT 10SM CLR 12/03 A3005 RMK AO2 SLP172 T01170033 402220117 $=
202310080352 METAR KATL 080352Z 33012KT 10SM CLR 13/03 A3006 RMK AO2 SLP174 T01280033 $=
202310080252 METAR KATL 080252Z 34009KT 10SM CLR 13/03 A3006 RMK AO2 SLP176 T01330028 53009 $=
202310080152 METAR KATL 080152Z 35010G18KT 10SM CLR 14/02 A3005 RMK AO2 SLP173 T01440022 $=
202310080052 METAR KATL 080052Z 34008KT 10SM CLR 16/02 A3003 RMK AO2 SLP168 T01560022 $=
202310072352 METAR KATL 072352Z 33011G18KT 10SM CLR 17/02 A3003 RMK AO2 SLP166 T01670017 10222 20167 53003 $=
202310072252 METAR KATL 072252Z 33015G23KT 10SM CLR 18/01 A3002 RMK AO2 SLP164 T01830011 $=
202310072152 METAR KATL 072152Z 33015G22KT 10SM FEW250 20/01 A3002 RMK AO2 SLP160 T02000011 $=
202310072052 METAR KATL 072052Z 31020G27KT 10SM FEW250 21/01 A3002 RMK AO2 PK WND 31028/2020 SLP160 T02060011 56009 $=
202310071952 METAR KATL 071952Z 32021G27KT 10SM FEW250 21/00 A3002 RMK AO2 PK WND 31028/1933 SLP159 T02110000 $=
202310071852 METAR KATL 071852Z 32018G26KT 10SM FEW250 22/M01 A3002 RMK AO2 PK WND 31026/1846 SLP161 T02171006 $=
202310071752 METAR KATL 071752Z 33019G25KT 10SM FEW250 21/01 A3005 RMK AO2 PK WND 32027/1719 SLP168 T02110011 10211 20133 58004 $=
202310071652 METAR KATL 071652Z 32017G24KT 10SM FEW250 21/04 A3006 RMK AO2 PK WND 33026/1629 SLP172 T02060039 $=
202310071552 METAR KATL 071552Z 34019G24KT 10SM FEW250 19/05 A3005 RMK AO2 PK WND 34028/1517 SLP171 T01940050 $=
202310071452 METAR KATL 071452Z 32016KT 10SM FEW250 18/07 A3006 RMK AO2 SLP173 T01780067 51015 $=
202310071352 METAR KATL 071352Z 33011G21KT 10SM FEW250 16/08 A3005 RMK AO2 SLP172 T01610078 $=
202310071252 METAR KATL 071252Z 31012KT 10SM FEW250 14/08 A3003 RMK AO2 SLP165 T01440078 $=
202310071152 METAR KATL 071152Z 32012KT 10SM FEW250 13/09 A3001 RMK AO2 SLP159 70001 T01330089 10183 20133 53013 $=
202310071052 METAR KATL 071052Z 31010G18KT 10SM CLR 14/09 A3000 RMK AO2 SLP152 T01390094 $=
202310070952 METAR KATL 070952Z 32009KT 10SM CLR 16/13 A2998 RMK AO2 SLP147 T01560128 $=
202310070852 METAR KATL 070852Z 32009KT 10SM FEW250 17/14 A2997 RMK AO2 SLP143 T01670144 55002 $=
202310070752 METAR KATL 070752Z 32010KT 10SM FEW100 FEW250 17/16 A2997 RMK AO2 SLP142 T01720156 $=
202310070652 METAR KATL 070652Z 32012KT 10SM FEW006 FEW100 18/16 A2997 RMK AO2 SLP141 T01780161 $=
202310070552 METAR KATL 070552Z 32009KT 10SM FEW008 BKN100 BKN250 18/17 A2998 RMK AO2 SLP145 T01830167 10206 20183 58011 $=
202310070452 METAR KATL 070452Z 31008KT 10SM FEW009 BKN100 BKN250 19/17 A3000 RMK AO2 SLP152 T01890167 402610189 $=
202310070352 METAR KATL 070352Z 32009KT 10SM FEW008 BKN110 19/17 A3001 RMK AO2 SLP155 T01940172 $=
202310070252 METAR KATL 070252Z 31009KT 10SM FEW008 BKN070 BKN120 20/18 A3001 RMK AO2 SLP156 T02000178 51007 $=
202310070152 METAR KATL 070152Z 31008KT 10SM FEW008 BKN035 BKN070 BKN130 20/18 A3001 RMK AO2 SLP155 T02000178 $=
202310070052 METAR KATL 070052Z 32008KT 10SM FEW007 BKN022 BKN080 BKN130 21/18 A3001 RMK AO2 SLP154 T02060178 $=
202310062352 METAR KATL 062352Z 34012KT 10SM FEW007 BKN045 BKN070 BKN130 21/18 A2999 RMK AO2 SLP150 60001 T02060183 10261 20206 53009 $=
202310062342 SPECI KATL 062342Z 34010KT 10SM SCT007 BKN040 BKN080 BKN130 21/19 A2999 RMK AO2 T02110189 $=
202310062252 METAR KATL 062252Z 34010KT 10SM FEW038 BKN055 BKN080 OVC150 22/18 A2998 RMK AO2 RAB37E52 SLP144 SHRA N-NE P0001 T02220183 $=
202310062152 METAR KATL 062152Z 34006KT 10SM BKN050 BKN080 BKN120 25/17 A2996 RMK AO2 SLP138 TCU DSNT SW-NW T02500167 $=
202310062052 METAR KATL 062052Z 33005KT 10SM FEW035 FEW070 SCT100 BKN140 26/17 A2996 RMK AO2 SLP137 TCU DSNT S SW-W 60000 T02610172 56015 $=
202310061952 METAR KATL 061952Z 35007KT 9SM FEW034 BKN070 BKN150 26/16 A2997 RMK AO2 SLP141 TCU DSNT W T02610161 $=
202310061852 METAR KATL 061852Z 33007KT 10SM FEW030 BKN080 BKN100 25/17 A2998 RMK AO2 RAB1755E04 SLP145 VIRGA NW-NE-E TCU DSNT E P0000 T02500167 $=
202310061752 METAR KATL 061752Z 32005KT 10SM FEW020 BKN075 BKN110 24/18 A3001 RMK AO2 RAE46 SLP153 MDT CU DSNT NE SE P0000 60000 T02390183 10244 20200 58009 $=
202310061652 METAR KATL 061652Z 33005KT 9SM -RA FEW045 SCT070 BKN100 23/17 A3003 RMK AO2 RAB1555 SLP160 P0000 T02330172 $=
202310061552 METAR KATL 061552Z 00000KT 10SM FEW060 SCT095 BKN120 24/16 A3003 RMK AO2 SLP161 VIRGA OHD-NE-SE-SW SHRA NW T02390156 $=
202310061452 METAR KATL 061452Z 17003KT 10SM FEW075 BKN130 23/15 A3004 RMK AO2 SLP162 VIRGA DSNT ALQDS T02280150 51008 $=
202310061352 METAR KATL 061352Z 10004KT 10SM FEW080 BKN140 22/14 A3003 RMK AO2 SLP162 VIRGA DSNT W-N T02170144 $=
202310061252 METAR KATL 061252Z 10004KT 10SM BKN080 BKN130 BKN250 21/14 A3003 RMK AO2 SLP159 VIRGA DSNT W-N T02060144 $=
202310061152 METAR KATL 061152Z 11004KT 10SM BKN080 BKN130 BKN250 20/14 A3001 RMK AO2 SLP154 60000 T02000144 10222 20200 55001 $=
202310061052 METAR KATL 061052Z VRB05KT 10SM FEW065 SCT085 BKN140 21/14 A3001 RMK AO2 SLP152 T02110139 $=
202310060952 METAR KATL 060952Z 09007KT 10SM FEW060 BKN085 OVC250 21/14 A3001 RMK AO2 SLP154 T02060139 $=
202310060852 METAR KATL 060852Z 04006KT 10SM FEW065 BKN085 BKN110 BKN200 21/14 A3001 RMK AO2 SLP154 60000 T02110139 55004 $=
202310060752 METAR KATL 060752Z 08005KT 10SM FEW065 BKN090 BKN130 BKN200 21/14 A3001 RMK AO2 RAE0654 SLP152 P0000 T02060139 $=
202310060652 METAR KATL 060652Z 09006KT 10SM -RA FEW065 BKN110 OVC140 21/14 A3001 RMK AO2 RAB43 SLP152 P0000 T02060144 $=
202310060552 METAR KATL 060552Z 09005KT 10SM FEW055 BKN120 BKN140 OVC200 21/14 A3002 RMK AO2 SLP158 T02110139 10244 20211 58001 $=
202310060452 METAR KATL 060452Z 07008KT 10SM FEW055 SCT110 BKN150 OVC200 22/14 A3003 RMK AO2 SLP159 T02170144 402780172 $=
202310060352 METAR KATL 060352Z 07006KT 10SM SCT150 BKN200 BKN250 22/14 A3003 RMK AO2 SLP160 T02220144 $=
202310060252 METAR KATL 060252Z 10007KT 10SM FEW075 BKN150 BKN200 BKN250 23/14 A3003 RMK AO2 SLP159 T02330139 58002 $=
202310060152 METAR KATL 060152Z 09007KT 10SM SCT075 BKN150 BKN200 BKN250 23/14 A3005 RMK AO2 SLP167 T02330144 $=
202310060052 METAR KATL 060052Z 09005KT 10SM FEW150 BKN200 BKN250 24/14 A3005 RMK AO2 SLP167 T02390139 $=
202310052352 METAR KATL 052352Z 10005KT 10SM FEW150 BKN200 BKN250 24/13 A3003 RMK AO2 SLP163 T02440133 10278 20244 55000 $=
202310052252 METAR KATL 052252Z 10007KT 10SM SCT150 BKN200 BKN250 25/13 A3003 RMK AO2 SLP160 T02500133 $=
202310052152 METAR KATL 052152Z 14006KT 10SM FEW150 BKN200 BKN250 27/13 A3003 RMK AO2 SLP160 T02670128 $=
202310052052 METAR KATL 052052Z 14006KT 10SM FEW055 FEW150 BKN200 BKN250 27/13 A3003 RMK AO2 SLP162 T02720128 56019 $=
202310051952 METAR KATL 051952Z 11006KT 10SM FEW055 FEW150 BKN200 BKN250 27/13 A3005 RMK AO2 SLP166 T02720128 $=
202310051852 METAR KATL 051852Z 02005KT 10SM FEW050 FEW150 SCT200 BKN250 27/13 A3007 RMK AO2 SLP172 T02720133 $=
202310051752 METAR KATL 051752Z 13005KT 10SM FEW044 FEW150 BKN200 BKN250 26/13 A3009 RMK AO2 SLP182 T02610133 10261 20178 58027 $=
202310051652 METAR KATL 051652Z 12005KT 10SM FEW040 FEW150 SCT200 BKN250 26/13 A3013 RMK AO2 SLP192 T02560133 $=
202310051552 METAR KATL 051552Z 09007KT 10SM FEW038 FEW150 BKN200 BKN250 24/14 A3016 RMK AO2 SLP203 T02440144 $=
202310051452 METAR KATL 051452Z 10006KT 10SM FEW150 SCT200 BKN250 23/16 A3017 RMK AO2 SLP210 T02280156 50007 $=
202310051352 METAR KATL 051352Z 08006KT 10SM FEW210 BKN250 21/16 A3018 RMK AO2 SLP210 T02060156 $=
202310051252 METAR KATL 051252Z 08004KT 10SM SCT200 BKN250 19/15 A3016 RMK AO2 SLP207 T01890150 $=
202310051152 METAR KATL 051152Z 08004KT 10SM FEW200 BKN250 18/15 A3015 RMK AO2 SLP203 T01780150 10206 20172 53008 $=
202310051052 METAR KATL 051052Z 09004KT 10SM SCT250 17/14 A3014 RMK AO2 SLP198 T01720144 $=
202310050952 METAR KATL 050952Z 09005KT 10SM SCT250 18/14 A3013 RMK AO2 SLP194 T01780144 $=
202310050852 METAR KATL 050852Z 09005KT 10SM BKN250 18/14 A3012 RMK AO2 SLP192 T01830144 53005 $=
202310050752 METAR KATL 050752Z 11005KT 10SM BKN250 20/14 A3011 RMK AO2 SLP188 T02000144 $=
202310050652 METAR KATL 050652Z 12005KT 10SM SCT250 20/14 A3011 RMK AO2 SLP187 T02000144 $=
202310050552 METAR KATL 050552Z 09005KT 10SM BKN250 19/15 A3011 RMK AO2 SLP187 T01940150 10256 20194 58006 $=
202310050452 METAR KATL 050452Z 12003KT 10SM BKN250 22/14 A3012 RMK AO2 SLP190 T02170144 402890183 $=
202310050352 METAR KATL 050352Z 11005KT 10SM FEW200 BKN250 22/14 A3013 RMK AO2 SLP194 T02220144 $=
202310050252 METAR KATL 050252Z 13003KT 10SM FEW200 BKN250 22/15 A3013 RMK AO2 SLP193 T02220150 53006 $=
202310050152 METAR KATL 050152Z 11005KT 10SM FEW055 SCT200 BKN250 24/14 A3012 RMK AO2 SLP191 T02390144 $=
202310050052 METAR KATL 050052Z 12004KT 10SM FEW055 SCT200 BKN250 24/14 A3012 RMK AO2 SLP190 T02390144 $=
202310042352 METAR KATL 042352Z 11005KT 10SM FEW055 SCT200 BKN250 26/14 A3011 RMK AO2 SLP188 T02560144 10289 20256 53004 $=
202310042252 METAR KATL 042252Z 12007KT 10SM FEW055 SCT200 BKN250 27/14 A3011 RMK AO2 SLP186 T02670139 $=
202310042152 METAR KATL 042152Z 12007KT 10SM FEW055 SCT200 BKN250 28/14 A3009 RMK AO2 SLP182 T02780139 $=
202310042052 METAR KATL 042052Z 11008KT 10SM FEW055 FEW070 SCT200 BKN250 28/14 A3010 RMK AO2 SLP183 MDT CU SE NW T02830144 56018 $=
202310041952 METAR KATL 041952Z 08009KT 10SM SCT048 SCT200 BKN250 27/14 A3011 RMK AO2 SLP188 MDT CU ALQDS T02720139 $=
202310041852 METAR KATL 041852Z 09007KT 060V140 10SM SCT046 BKN250 28/15 A3013 RMK AO2 SLP194 T02780150 $=
202310041752 METAR KATL 041752Z 11007KT 10SM FEW044 SCT250 28/16 A3015 RMK AO2 SLP201 T02780156 10278 20183 56021 $=
202310041652 METAR KATL 041652Z 09011KT 10SM FEW042 FEW250 27/16 A3017 RMK AO2 SLP208 T02670156 $=
202310041552 METAR KATL 041552Z 11008KT 10SM FEW038 FEW250 25/16 A3020 RMK AO2 SLP216 T02500161 $=
202310041452 METAR KATL 041452Z 10006KT 10SM FEW250 24/16 A3022 RMK AO2 SLP224 T02390161 50008 $=
202310041352 METAR KATL 041352Z 08006KT 10SM FEW250 22/16 A3023 RMK AO2 SLP228 T02170156 $=
202310041252 METAR KATL 041252Z 07007KT 10SM FEW250 21/15 A3021 RMK AO2 SLP223 T02060150 $=
202310041152 METAR KATL 041152Z 09003KT 10SM CLR 18/14 A3019 RMK AO2 SLP217 T01830144 10206 20183 53020 $=
202310041052 METAR KATL 041052Z 05005KT 10SM CLR 18/14 A3017 RMK AO2 SLP208 T01830144 $=
202310040952 METAR KATL 040952Z 00000KT 10SM FEW250 18/14 A3015 RMK AO2 SLP202 T01830144 $=
202310040852 METAR KATL 040852Z 08004KT 10SM CLR 19/14 A3013 RMK AO2 SLP194 T01890144 53003 $=
202310040752 METAR KATL 040752Z 08004KT 10SM CLR 19/14 A3013 RMK AO2 SLP192 T01940139 $=
202310040652 METAR KATL 040652Z 09004KT 10SM CLR 20/14 A3012 RMK AO2 SLP192 T02000139 $=
202310040552 METAR KATL 040552Z 10004KT 10SM CLR 20/14 A3012 RMK AO2 SLP192 T02000144 10250 20194 58005 $=
202310040452 METAR KATL 040452Z 08007KT 10SM CLR 21/14 A3013 RMK AO2 SLP193 T02060144 402890183 $=
202310040352 METAR KATL 040352Z 06006KT 10SM CLR 22/14 A3014 RMK AO2 SLP196 T02170139 $=
202310040252 METAR KATL 040252Z 12003KT 10SM CLR 22/14 A3014 RMK AO2 SLP197 T02170139 53004 $=
202310040152 METAR KATL 040152Z 15003KT 10SM CLR 23/14 A3013 RMK AO2 SLP196 T02280139 $=
202310040052 METAR KATL 040052Z 13003KT 10SM CLR 23/13 A3013 RMK AO2 SLP194 T02330133 $=
202310032352 METAR KATL 032352Z 00000KT 10SM CLR 25/12 A3012 RMK AO2 SLP194 T02500122 10289 20250 53001 $=
202310032252 METAR KATL 032252Z 08008KT 10SM CLR 27/12 A3012 RMK AO2 SLP191 T02670122 $=
202310032152 METAR KATL 032152Z 07007KT 10SM CLR 28/12 A3012 RMK AO2 SLP190 T02780117 $=
202310032052 METAR KATL 032052Z 06006KT 10SM FEW060 28/12 A3012 RMK AO2 SLP191 T02830117 56020 $=
202310031952 METAR KATL 031952Z 07011G16KT 10SM FEW055 29/12 A3014 RMK AO2 SLP197 T02890122 $=
202310031852 METAR KATL 031852Z 08008KT 10SM FEW055 28/13 A3016 RMK AO2 SLP204 T02830128 $=
202310031752 METAR KATL 031752Z 06011G16KT 7SM FEW048 28/13 A3018 RMK AO2 SLP212 T02780133 10278 20183 58014 $=
202310031652 METAR KATL 031652Z 10008KT 10SM FEW044 26/14 A3021 RMK AO2 SLP222 T02610139 $=
202310031552 METAR KATL 031552Z 06009KT 10SM FEW042 26/14 A3023 RMK AO2 SLP226 T02610144 $=
202310031452 METAR KATL 031452Z 09005KT 10SM CLR 24/15 A3023 RMK AO2 SLP227 T02440150 51015 $=
202310031352 METAR KATL 031352Z 07006KT 10SM CLR 22/14 A3022 RMK AO2 SLP226 T02170144 $=
202310031252 METAR KATL 031252Z 07009G16KT 10SM CLR 19/14 A3021 RMK AO2 SLP223 T01940139 $=
202310031152 METAR KATL 031152Z 06008KT 10SM CLR 18/14 A3018 RMK AO2 SLP213 T01830139 10200 20183 53012 $=
202310031052 METAR KATL 031052Z 06006KT 10SM CLR 18/14 A3017 RMK AO2 SLP208 T01830139 $=
202310030952 METAR KATL 030952Z 07005KT 10SM CLR 18/14 A3015 RMK AO2 SLP201 T01830139 $=
202310030852 METAR KATL 030852Z 05006KT 10SM CLR 19/14 A3014 RMK AO2 SLP199 T01940139 58003 $=
202310030752 METAR KATL 030752Z 04005KT 10SM CLR 20/13 A3015 RMK AO2 SLP201 T02000133 $=
202310030652 METAR KATL 030652Z 06006KT 10SM CLR 19/14 A3015 RMK AO2 SLP201 T01940139 $=
202310030552 METAR KATL 030552Z 09005KT 10SM CLR 20/14 A3015 RMK AO2 SLP202 T02000139 10250 20200 58007 $=
202310030452 METAR KATL 030452Z 08007KT 10SM FEW060 21/14 A3016 RMK AO2 SLP204 T02060139 402890183 $=
202310030352 METAR KATL 030352Z 07007KT 10SM CLR 22/14 A3017 RMK AO2 SLP209 T02170139 $=
202310030252 METAR KATL 030252Z 07009KT 10SM CLR 23/14 A3018 RMK AO2 SLP210 T02280139 51008 $=
202310030152 METAR KATL 030152Z 07007KT 10SM CLR 23/14 A3018 RMK AO2 SLP211 T02330144 $=
202310030052 METAR KATL 030052Z 14003KT 10SM CLR 23/14 A3016 RMK AO2 SLP205 T02330139 $=
202310022352 METAR KATL 022352Z 11004KT 10SM CLR 25/13 A3015 RMK AO2 SLP202 T02500133 10289 20250 55001 $=
202310022252 METAR KATL 022252Z 10007KT 10SM CLR 26/13 A3015 RMK AO2 SLP201 T02610133 $=
202310022152 METAR KATL 022152Z 09008KT 10SM FEW060 28/13 A3015 RMK AO2 SLP200 T02780133 $=
202310022052 METAR KATL 022052Z 05008KT 10SM FEW060 28/13 A3016 RMK AO2 SLP203 T02830128 56018 $=
202310021952 METAR KATL 021952Z 07011G16KT 10SM FEW055 28/13 A3017 RMK AO2 SLP207 T02830133 $=
202310021852 METAR KATL 021852Z 08008KT 10SM SCT050 27/14 A3018 RMK AO2 SLP211 T02720139 $=
202310021752 METAR KATL 021752Z 10009G17KT 10SM FEW048 27/14 A3021 RMK AO2 SLP221 T02720139 10272 20194 58011 $=
202310021652 METAR KATL 021652Z 08010G15KT 10SM FEW043 FEW055 27/14 A3023 RMK AO2 SLP226 T02670144 $=
202310021552 METAR KATL 021552Z 08014G19KT 10SM FEW050 26/14 A3024 RMK AO2 SLP230 T02610139 $=
202310021452 METAR KATL 021452Z 09011KT 10SM FEW044 24/14 A3024 RMK AO2 SLP232 T02440144 50007 $=
202310021352 METAR KATL 021352Z 08006KT 10SM CLR 22/16 A3024 RMK AO2 SLP233 T02220156 $=
202310021252 METAR KATL 021252Z 06008KT 10SM FEW050 21/15 A3023 RMK AO2 SLP228 T02110150 $=
202310021152 METAR KATL 021152Z 05007KT 10SM CLR 19/15 A3022 RMK AO2 SLP226 T01940150 10206 20183 53014 $=
202310021052 METAR KATL 021052Z 05006KT 10SM CLR 19/15 A3020 RMK AO2 SLP220 T01890150 $=
202310020952 METAR KATL 020952Z 05006KT 10SM CLR 19/15 A3019 RMK AO2 SLP215 T01890150 $=
202310020852 METAR KATL 020852Z 07004KT 10SM CLR 18/14 A3018 RMK AO2 SLP211 T01830144 56004 $=
202310020752 METAR KATL 020752Z 09003KT 10SM CLR 18/15 A3018 RMK AO2 SLP211 T01830150 $=
202310020652 METAR KATL 020652Z 06005KT 10SM CLR 20/15 A3019 RMK AO2 SLP213 T02000150 $=
202310020552 METAR KATL 020552Z 08006KT 10SM CLR 19/15 A3019 RMK AO2 SLP214 T01940150 10250 20194 58003 $=
202310020452 METAR KATL 020452Z 08007KT 10SM CLR 21/16 A3019 RMK AO2 SLP216 T02110156 402830189 $=
202310020352 METAR KATL 020352Z 07007KT 10SM CLR 23/16 A3020 RMK AO2 SLP218 T02280156 $=
202310020252 METAR KATL 020252Z 07008KT 10SM FEW055 23/16 A3020 RMK AO2 SLP217 T02330156 51008 $=
202310020152 METAR KATL 020152Z 07007KT 10SM FEW055 24/16 A3020 RMK AO2 SLP218 T02440156 $=
202310020052 METAR KATL 020052Z 06006KT 10SM FEW055 25/16 A3019 RMK AO2 SLP215 T02500156 $=
202310012352 METAR KATL 012352Z 08005KT 10SM FEW055 25/15 A3017 RMK AO2 SLP210 T02500150 10283 20244 53001 $=
202310012252 METAR KATL 012252Z 06008KT 10SM FEW050 27/15 A3017 RMK AO2 SLP207 MDT CU SW T02670150 $=
202310012152 METAR KATL 012152Z VRB06G20KT 10SM SCT050 SCT065 28/15 A3017 RMK AO2 SLP206 MDT CU ALQDS T02830150 $=
202310012052 METAR KATL 012052Z 06009G17KT 10SM SCT047 28/15 A3017 RMK AO2 SLP207 MDT CU ALQDS T02830150 56023 $=
202310011952 METAR KATL 011952Z VRB05KT 10SM SCT045 SCT075 28/16 A3019 RMK AO2 SLP213 MDT CU ALQDS T02830156 $=
202310011852 METAR KATL 011852Z 10006KT 10SM SCT042 SCT080 28/16 A3021 RMK AO2 SLP222 MDT CU DSNT S-W T02780156 $=
202310011752 METAR KATL 011752Z 09009KT 10SM SCT038 27/16 A3024 RMK AO2 SLP231 T02670156 10272 20189 58015 $=
202310011652 METAR KATL 011652Z 09008KT 10SM FEW034 26/16 A3026 RMK AO2 SLP239 T02610156 $=
202310011552 METAR KATL 011552Z 10011KT 10SM SCT026 SCT070 24/16 A3028 RMK AO2 SLP245 T02440161 $=
202310011452 METAR KATL 011452Z 09008KT 10SM FEW019 FEW038 FEW075 23/16 A3028 RMK AO2 SLP246 T02330161 51012 $=
202310011352 METAR KATL 011352Z 08010KT 10SM FEW011 SCT035 BKN070 21/17 A3028 RMK AO2 SLP245 T02060167 $=
202310011252 METAR KATL 011252Z 08008KT 9SM FEW007 BKN030 BKN046 19/17 A3026 RMK AO2 SLP240 MDT CU SW W T01940172 $=
