##########################################################
# Query made at 04/20/2024 00:30:08 UTC
# Time interval: from 11/01/2023 12:00  to 11/30/2023 12:59  UTC
##########################################################

##########################################################
# KATL, Atlanta, Hartsfield - Jackson Atlanta International Airport (United States)
# WMO index: 72219. WIGOS ID: 0-20000-0-72219
# Latitude 33-38-59N. Longitude 084-25-00W. Altitude 312 m.
##########################################################

202311301252 METAR KATL 301252Z 00000KT 10SM FEW200 BKN250 03/M01 A3021 RMK AO2 SLP234 T00331011=
202311301152 METAR KATL 301152Z 00000KT 10SM BKN250 03/M02 A3020 RMK AO2 SLP230 T00331017 10056 20022 58002=
202311301052 METAR KATL 301052Z 00000KT 10SM BKN250 03/M02 A3020 RMK AO2 SLP233 T00281017=
202311300952 METAR KATL 300952Z 00000KT 10SM SCT250 03/M02 A3020 RMK AO2 SLP231 T00331017=
202311300852 METAR KATL 300852Z 00000KT 10SM BKN250 04/M02 A3020 RMK AO2 SLP230 T00441017 58005=
202311300752 METAR KATL 300752Z 00000KT 10SM FEW200 BKN250 05/M02 A3021 RMK AO2 SLP232 T00501022=
202311300652 METAR KATL 300652Z 27003KT 10SM BKN200 BKN250 06/M03 A3021 RMK AO2 SLP234 T00561028=
202311300552 METAR KATL 300552Z 21003KT 10SM BKN200 BKN250 05/M03 A3022 RMK AO2 SLP236 T00501033 10083 20044 51001=
202311300452 METAR KATL 300452Z 22003KT 10SM FEW200 SCT250 06/M03 A3022 RMK AO2 SLP236 T00561033 401331022=
202311300352 METAR KATL 300352Z 23004KT 10SM FEW200 SCT250 06/M03 A3022 RMK AO2 SLP239 T00561033=
202311300252 METAR KATL 300252Z 23006KT 10SM FEW200 SCT250 07/M04 A3021 RMK AO2 SLP236 T00671039 53007=
202311300152 METAR KATL 300152Z 21004KT 10SM FEW200 SCT250 07/M05 A3020 RMK AO2 SLP234 T00721050=
202311300052 METAR KATL 300052Z 22003KT 10SM FEW200 SCT250 07/M04 A3020 RMK AO2 SLP234 T00721044=
202311292352 METAR KATL 292352Z 24003KT 10SM FEW200 SCT250 08/M04 A3019 RMK AO2 SLP231 T00831044 10133 20083 50000=
202311292252 METAR KATL 292252Z 00000KT 10SM FEW200 BKN250 10/M04 A3019 RMK AO2 SLP230 T01001044=
202311292152 METAR KATL 292152Z 28003KT 10SM FEW200 SCT250 12/M07 A3019 RMK AO2 SLP230 T01221067=
202311292052 METAR KATL 292052Z 27004KT 10SM FEW250 13/M07 A3019 RMK AO2 SLP229 T01281072 56015=
202311291952 METAR KATL 291952Z 27004KT 10SM FEW250 13/M08 A3020 RMK AO2 SLP230 T01281083=
202311291852 METAR KATL 291852Z 33005KT 10SM FEW250 12/M09 A3021 RMK AO2 SLP235 T01221089=
202311291752 METAR KATL 291752Z 29004KT 10SM FEW200 11/M09 A3024 RMK AO2 SLP245 T01061094 10106 21022 58013=
202311291652 METAR KATL 291652Z 00000KT 10SM CLR 09/M10 A3027 RMK AO2 SLP254 T00891100=
202311291552 METAR KATL 291552Z 00000KT 10SM CLR 07/M09 A3028 RMK AO2 SLP261 T00671094=
202311291452 METAR KATL 291452Z 32007KT 10SM CLR 04/M08 A3028 RMK AO2 SLP261 T00441083 51012=
202311291352 METAR KATL 291352Z 33006KT 10SM CLR 01/M08 A3027 RMK AO2 SLP259 T00111078=
202311291252 METAR KATL 291252Z 32005KT 10SM CLR M01/M08 A3026 RMK AO2 SLP255 T10111078=
202311291152 METAR KATL 291152Z 32008KT 10SM CLR M02/M08 A3024 RMK AO2 SLP249 T10171078 10011 21022 53003=
202311291052 METAR KATL 291052Z 31006KT 10SM CLR M02/M07 A3023 RMK AO2 SLP245 T10171072=
202311290952 METAR KATL 290952Z 30007KT 10SM CLR M02/M07 A3022 RMK AO2 SLP241 T10171067=
202311290852 METAR KATL 290852Z 30006KT 10SM CLR M01/M07 A3023 RMK AO2 SLP244 T10111072 55001=
202311290752 METAR KATL 290752Z 30007KT 10SM CLR M01/M07 A3023 RMK AO2 SLP241 T10061067=
202311290652 METAR KATL 290652Z 31006KT 10SM CLR 00/M07 A3023 RMK AO2 SLP242 T00001072=
202311290552 METAR KATL 290552Z 32006KT 10SM CLR 01/M07 A3024 RMK AO2 SLP244 T00111067 10056 20011 51002=
202311290452 METAR KATL 290452Z 33007KT 10SM CLR 02/M07 A3024 RMK AO2 SLP244 T00171067 401170017=
202311290352 METAR KATL 290352Z 33006KT 10SM CLR 02/M06 A3024 RMK AO2 SLP245 T00221061=
202311290252 METAR KATL 290252Z 32008KT 10SM CLR 03/M06 A3023 RMK AO2 SLP243 T00331061 51005=
202311290152 METAR KATL 290152Z 31006KT 10SM CLR 04/M06 A3023 RMK AO2 SLP243 T00441061=
202311290052 METAR KATL 290052Z 31006KT 10SM CLR 04/M06 A3023 RMK AO2 SLP242 T00441056=
202311282352 METAR KATL 282352Z 31006KT 10SM CLR 06/M07 A3022 RMK AO2 SLP238 T00611067 10117 20061 52005=
202311282252 METAR KATL 282252Z 32007KT 10SM CLR 07/M07 A3021 RMK AO2 SLP235 T00721072=
202311282152 METAR KATL 282152Z 31009KT 10SM CLR 10/M07 A3021 RMK AO2 SLP234 T01001067=
202311282052 METAR KATL 282052Z 28014G20KT 10SM CLR 11/M06 A3020 RMK AO2 SLP231 T01111061 55006=
202311281952 METAR KATL 281952Z 30014G23KT 10SM CLR 11/M07 A3019 RMK AO2 SLP229 T01111067=
202311281852 METAR KATL 281852Z 30014G24KT 10SM CLR 11/M06 A3020 RMK AO2 PK WND 30026/1807 SLP232 T01111061=
202311281752 METAR KATL 281752Z 31013G22KT 10SM FEW250 11/M06 A3022 RMK AO2 PK WND 29027/1658 SLP237 T01111056 10111 20017 58013=
202311281652 METAR KATL 281652Z 32020G28KT 10SM FEW200 FEW250 10/M04 A3024 RMK AO2 PK WND 30032/1621 SLP244 T01001044=
202311281552 METAR KATL 281552Z 31014G25KT 10SM FEW180 SCT250 08/M04 A3026 RMK AO2 SLP252 T00831039=
202311281452 METAR KATL 281452Z 30012KT 10SM FEW180 SCT250 06/M04 A3026 RMK AO2 SLP253 T00561044 51011=
202311281352 METAR KATL 281352Z 28011KT 10SM SCT180 BKN250 04/M05 A3026 RMK AO2 SLP252 VIRGA OHD-W-N T00391050=
202311281252 METAR KATL 281252Z 27006KT 10SM FEW150 SCT200 BKN250 02/M05 A3024 RMK AO2 SLP247 T00171050=
202311281152 METAR KATL 281152Z 28008KT 10SM BKN200 BKN250 02/M06 A3023 RMK AO2 SLP241 T00221056 10039 20022 53014=
202311281052 METAR KATL 281052Z 30008KT 10SM SCT200 OVC250 02/M06 A3019 RMK AO2 SLP229 T00221056=
202311280952 METAR KATL 280952Z 30008KT 10SM FEW200 BKN250 03/M06 A3018 RMK AO2 SLP226 T00281056=
202311280852 METAR KATL 280852Z 31009KT 10SM FEW200 BKN250 03/M06 A3018 RMK AO2 SLP225 T00331056 50004=
202311280752 METAR KATL 280752Z 31009KT 10SM FEW200 BKN250 03/M04 A3019 RMK AO2 SLP226 T00331044=
202311280652 METAR KATL 280652Z 31010KT 10SM FEW200 BKN250 03/M04 A3018 RMK AO2 SLP225 T00331044=
202311280552 METAR KATL 280552Z 31010KT 10SM SCT200 BKN250 03/M04 A3017 RMK AO2 SLP222 T00331039 10067 20033 51000=
202311280452 METAR KATL 280452Z 31009KT 10SM SCT200 BKN250 04/M03 A3017 RMK AO2 SLP222 T00391033 401110039=
202311280352 METAR KATL 280352Z 30007KT 10SM BKN200 BKN250 04/M03 A3017 RMK AO2 SLP222 T00391028=
202311280252 METAR KATL 280252Z 29008KT 10SM SCT200 BKN250 04/M03 A3017 RMK AO2 SLP222 T00441033 53009=
202311280152 METAR KATL 280152Z 27008KT 10SM FEW200 SCT250 04/M03 A3017 RMK AO2 SLP221 T00441033=
202311280052 METAR KATL 280052Z 29009KT 10SM FEW250 06/M03 A3014 RMK AO2 SLP213 T00561028=
202311272352 METAR KATL 272352Z 29011KT 10SM FEW200 SCT250 07/M03 A3014 RMK AO2 SLP212 T00671028 10111 20067 51019=
202311272252 METAR KATL 272252Z 30009KT 10SM FEW200 BKN250 08/M03 A3013 RMK AO2 SLP207 T00781028=
202311272152 METAR KATL 272152Z 32007KT 10SM SCT200 SCT250 09/M03 A3010 RMK AO2 SLP196 T00941028=
202311272052 METAR KATL 272052Z 31015KT 10SM FEW200 SCT250 11/M03 A3009 RMK AO2 SLP190 T01111033 55008=
202311271952 METAR KATL 271952Z 30013KT 10SM FEW200 SCT250 11/M03 A3007 RMK AO2 SLP186 T01061033=
202311271852 METAR KATL 271852Z 30011KT 10SM FEW200 SCT250 11/M03 A3010 RMK AO2 SLP193 T01061028=
202311271752 METAR KATL 271752Z 31015G22KT 10SM FEW200 FEW250 09/M02 A3011 RMK AO2 SLP199 T00941022 10100 20044 58008=
202311271652 METAR KATL 271652Z 31016G22KT 10SM FEW200 09/M02 A3013 RMK AO2 SLP204 T00941017=
202311271552 METAR KATL 271552Z 31012G19KT 10SM FEW200 FEW250 08/M02 A3014 RMK AO2 SLP211 T00831017=
202311271452 METAR KATL 271452Z 31011KT 10SM FEW180 FEW250 07/00 A3014 RMK AO2 SLP210 T00670000 53021 $=
202311271352 METAR KATL 271352Z 32014G21KT 10SM FEW024 SCT200 SCT250 04/00 A3012 RMK AO2 SLP204 T00440000 $=
202311271252 METAR KATL 271252Z 30010KT 10SM FEW024 FEW200 04/00 A3009 RMK AO2 SLP193 T00440000 $=
202311271152 METAR KATL 271152Z 31011KT 10SM FEW024 FEW200 05/01 A3008 RMK AO2 SLP189 70009 T00500006 10089 20050 53021 $=
202311271052 METAR KATL 271052Z 31015G22KT 10SM FEW024 06/02 A3005 RMK AO2 SLP181 T00610017 $=
202311271043 SPECI KATL 271043Z 31012G24KT 10SM SCT024 06/02 A3005 RMK AO2 T00610017 $=
202311271012 SPECI KATL 271012Z 31012KT 10SM BKN024 07/03 A3003 RMK AO2 T00670028 $=
202311270952 METAR KATL 270952Z 30011G19KT 10SM SCT022 07/03 A3002 RMK AO2 SLP170 T00670028 $=
202311270852 METAR KATL 270852Z 31011KT 10SM FEW020 FEW040 07/03 A3001 RMK AO2 SLP166 T00720033 53004 $=
202311270758 SPECI KATL 270758Z 30011G21KT 10SM SCT020 BKN040 08/07 A3000 RMK AO2 T00830067 $=
202311270752 METAR KATL 270752Z 29012G19KT 10SM BKN020 BKN040 08/07 A3000 RMK AO2 SLP160 T00830067 $=
202311270722 SPECI KATL 270722Z 29012G19KT 10SM BKN020 09/07 A2999 RMK AO2 T00890072 $=
202311270652 METAR KATL 270652Z 28009KT 10SM FEW005 SCT016 SCT043 08/07 A2999 RMK AO2 SLP158 T00830072 $=
202311270552 METAR KATL 270552Z 27008KT 10SM SCT004 SCT010 BKN045 09/08 A3000 RMK AO2 SLP160 60002 T00890078 10089 20067 50001 $=
202311270452 METAR KATL 270452Z 28007KT 2SM BKN004 OVC010 09/08 A3000 RMK AO2 SFC VIS 7 SLP161 CIG 003V005 T00890078 401000067 $=
202311270352 METAR KATL 270352Z 26006KT 7SM BKN005 OVC010 08/07 A2999 RMK AO2 SLP159 CIG 004V006 T00830072 $=
202311270252 METAR KATL 270252Z 26004KT 9SM BKN005 OVC012 08/07 A3000 RMK AO2 SLP160 CIG 004V006 60002 T00830067 51006 $=
202311270152 METAR KATL 270152Z 23003KT 4SM BR BKN004 OVC010 08/07 A2999 RMK AO2 RAE0056DZB0059E30 SLP157 CIG 003V005 P0001 T00780067 $=
202311270130 SPECI KATL 270130Z 22003KT 4SM BR BKN004 OVC009 07/06 A2998 RMK AO2 RAE0056DZB0059E30 CIG 003V005 P0001 T00720061 $=
202311270108 SPECI KATL 270108Z 00000KT 2SM -DZ BR BKN004 OVC009 07/06 A2999 RMK AO2 RAE0056DZB0059 P0001 T00720061 $=
202311270059 SPECI KATL 270059Z 00000KT 3SM -DZ BR BKN005 OVC009 07/06 A2999 RMK AO2 RAE56DZB59 P0000 T00720056 $=
202311270052 METAR KATL 270052Z 00000KT 2 1/2SM -RA BR BKN005 OVC009 07/06 A2999 RMK AO2 SLP156 P0001 T00720061 $=
202311262352 METAR KATL 262352Z 00000KT 4SM -RA BR BKN005 OVC012 07/06 A2998 RMK AO2 SLP155 P0002 60007 T00670056 10089 20067 55001 $=
202311262252 METAR KATL 262252Z 14006KT 5SM -RA BR BKN006 OVC015 07/05 A2996 RMK AO2 DZE2158B38E49RAB2158E27B49 SLP147 P0000 T00670050 $=
202311262240 SPECI KATL 262240Z 14007KT 7SM -DZ BKN006 OVC015 07/06 A2996 RMK AO2 DZE2158B38RAB2158E27 P0000 T00670056 $=
202311262152 METAR KATL 262152Z 12007KT 5SM -DZ BR SCT008 BKN018 OVC029 07/05 A2996 RMK AO2 SLP149 P0000 T00720050 $=
202311262113 SPECI KATL 262113Z 11009KT 4SM -DZ FEW009 BKN025 OVC055 07/04 A2996 RMK AO2 VIS SE 2 1/2 P0000 T00720044 $=
202311262103 SPECI KATL 262103Z 12008KT 2 1/2SM -DZ FEW009 BKN017 OVC035 08/04 A2997 RMK AO2 VIS N-NE 4 P0000 T00780044 $=
202311262052 METAR KATL 262052Z 10004KT 9SM -DZ FEW010 OVC016 08/05 A2998 RMK AO2 DZB50 SLP155 P0000 60005 T00780050 56011 $=
202311261952 METAR KATL 261952Z 12005KT 10SM FEW011 OVC019 08/04 A2999 RMK AO2 RAE17 SLP159 P0000 T00780044 $=
202311261852 METAR KATL 261852Z 10008KT 8SM -RA BKN020 BKN060 OVC110 08/05 A2998 RMK AO2 SLP154 P0005 T00830050 $=
202311261752 METAR KATL 261752Z 11009KT 9SM -RA OVC021 09/04 A3001 RMK AO2 RAE00B29 PRESFR SLP165 VIS LWR S-SW P0000 60000 T00890044 10094 20089 56027 $=
202311261652 METAR KATL 261652Z 12008KT 9SM -RA OVC021 09/04 A3003 RMK AO2 RAB41 PRESFR SLP172 P0000 T00940039 $=
202311261552 METAR KATL 261552Z 10009KT 10SM OVC021 09/03 A3007 RMK AO2 SLP185 VIRGA OHD-ALQDS T00940028 $=
202311261452 METAR KATL 261452Z 10009KT 10SM OVC022 09/03 A3010 RMK AO2 SLP193 VIRGA OHD-ALQDS T00890028 58002 $=
202311261352 METAR KATL 261352Z 08007KT 10SM OVC024 09/03 A3011 RMK AO2 SLP196 T00890033 $=
202311261252 METAR KATL 261252Z 10008KT 10SM OVC026 09/03 A3011 RMK AO2 SLP196 T00890033 $=
202311261152 METAR KATL 261152Z 10009KT 10SM OVC024 09/03 A3010 RMK AO2 SLP194 T00890033 10100 20089 55010 $=
202311261052 METAR KATL 261052Z 10011KT 10SM OVC024 09/03 A3010 RMK AO2 SLP192 T00940033 $=
202311260952 METAR KATL 260952Z 09012KT 10SM BKN025 OVC045 09/04 A3008 RMK AO2 SLP186 T00940039 $=
202311260852 METAR KATL 260852Z 10007KT 10SM BKN029 OVC048 09/04 A3013 RMK AO2 SLP205 T00940039 56012 $=
202311260801 SPECI KATL 260801Z 11010G15KT 10SM BKN029 OVC048 09/04 A3014 RMK AO2 T00940039 $=
202311260752 METAR KATL 260752Z 11008KT 10SM SCT031 OVC048 09/04 A3014 RMK AO2 SLP205 T00940044 $=
202311260709 SPECI KATL 260709Z 11008KT 10SM SCT024 OVC031 10/04 A3015 RMK AO2 T01000044 $=
202311260652 METAR KATL 260652Z 11009KT 10SM BKN026 OVC032 10/04 A3015 RMK AO2 SLP210 T01000044 $=
202311260552 METAR KATL 260552Z 11008KT 10SM BKN022 OVC030 10/05 A3017 RMK AO2 SLP216 T01000050 10117 20094 58007 $=
202311260506 SPECI KATL 260506Z 11008KT 10SM BKN022 BKN032 10/05 A3017 RMK AO2 T01000050 $=
202311260452 METAR KATL 260452Z 11010KT 10SM BKN030 10/05 A3018 RMK AO2 SLP220 T01000050 401560067 $=
202311260352 METAR KATL 260352Z 10008KT 10SM BKN026 09/05 A3020 RMK AO2 SLP227 T00940050 $=
202311260342 SPECI KATL 260342Z 09007KT 10SM BKN026 09/05 A3020 RMK AO2 T00940050 $=
202311260252 METAR KATL 260252Z 10009KT 10SM BKN250 10/05 A3019 RMK AO2 SLP224 T01000050 51004 $=
202311260152 METAR KATL 260152Z 10009KT 10SM SCT230 BKN250 11/06 A3019 RMK AO2 SLP225 T01060056 $=
202311260052 METAR KATL 260052Z 11008KT 10SM SCT220 BKN250 11/06 A3019 RMK AO2 SLP224 T01110061 $=
202311252352 METAR KATL 252352Z 10009KT 10SM FEW032 SCT230 BKN250 12/06 A3018 RMK AO2 SLP221 T01170061 10156 20117 52002 $=
202311252252 METAR KATL 252252Z AUTO 11009KT 10SM SCT033 OVC220 12/06 A3017 RMK AO2 SLP219 T01220061 $=
202311252152 METAR KATL 252152Z 09012KT 10SM BKN035 BKN220 13/06 A3017 RMK AO2 SLP219 T01330061 $=
202311252052 METAR KATL 252052Z 10011KT 10SM BKN033 BKN180 BKN250 14/06 A3017 RMK AO2 SLP218 T01390061 55013 $=
202311251952 METAR KATL 251952Z 09010KT 10SM SCT035 BKN250 14/06 A3017 RMK AO2 SLP216 T01440061 $=
202311251852 METAR KATL 251852Z 10010G18KT 10SM SCT033 BKN250 15/06 A3018 RMK AO2 SLP222 T01500061 $=
202311251752 METAR KATL 251752Z 12008KT 10SM SCT032 BKN250 14/06 A3021 RMK AO2 SLP231 T01440056 10150 20067 58015 $=
202311251652 METAR KATL 251652Z 06010KT 10SM FEW028 BKN250 13/04 A3024 RMK AO2 SLP241 T01330044 $=
202311251552 METAR KATL 251552Z 10014G20KT 10SM FEW024 BKN250 13/04 A3026 RMK AO2 SLP249 T01280044 $=
202311251452 METAR KATL 251452Z 08014KT 10SM FEW020 SCT250 11/05 A3026 RMK AO2 SLP247 T01060050 51016 $=
202311251352 METAR KATL 251352Z 09012KT 10SM FEW018 BKN250 09/04 A3024 RMK AO2 SLP243 T00890044 $=
202311251252 METAR KATL 251252Z 07011KT 10SM FEW250 08/04 A3023 RMK AO2 SLP238 T00780044 $=
202311251152 METAR KATL 251152Z 08007KT 10SM FEW250 07/04 A3021 RMK AO2 SLP232 T00670044 10089 20067 53010 $=
202311251052 METAR KATL 251052Z 08007KT 10SM CLR 07/04 A3019 RMK AO2 SLP225 T00720044 $=
202311250952 METAR KATL 250952Z 06008KT 10SM CLR 08/04 A3018 RMK AO2 SLP221 T00780039 $=
202311250852 METAR KATL 250852Z 04005KT 10SM CLR 08/03 A3018 RMK AO2 SLP219 T00780028 53008 $=
202311250752 METAR KATL 250752Z 34003KT 10SM CLR 07/03 A3016 RMK AO2 SLP213 T00720028=
202311250652 METAR KATL 250652Z 00000KT 10SM FEW100 08/03 A3015 RMK AO2 SLP209 T00830033=
202311250552 METAR KATL 250552Z 00000KT 10SM FEW100 08/03 A3015 RMK AO2 SLP210 T00830033 10133 20078 53004=
202311250452 METAR KATL 250452Z 00000KT 10SM FEW120 09/03 A3014 RMK AO2 SLP207 T00890033 401780067=
202311250352 METAR KATL 250352Z 31004KT 10SM FEW120 10/03 A3014 RMK AO2 SLP207 T01000033=
202311250252 METAR KATL 250252Z 30003KT 10SM FEW120 11/03 A3014 RMK AO2 SLP207 T01060028 53003=
202311250152 METAR KATL 250152Z 32006KT 10SM FEW120 FEW250 11/03 A3013 RMK AO2 SLP206 T01060033=
202311250052 METAR KATL 250052Z 32005KT 10SM FEW120 FEW250 12/03 A3013 RMK AO2 SLP204 T01220028=
202311242352 METAR KATL 242352Z 33006KT 10SM FEW150 FEW250 13/03 A3013 RMK AO2 SLP203 T01330028 10178 20133 52017=
202311242252 METAR KATL 242252Z 34007KT 10SM FEW150 FEW250 14/02 A3012 RMK AO2 SLP200 T01440022=
202311242152 METAR KATL 242152Z 33008KT 10SM FEW150 FEW250 17/02 A3009 RMK AO2 SLP189 T01670022=
202311242052 METAR KATL 242052Z VRB03KT 10SM FEW200 BKN250 17/02 A3008 RMK AO2 SLP185 T01720022 55008=
202311241952 METAR KATL 241952Z 30006KT 10SM FEW200 BKN250 17/02 A3007 RMK AO2 SLP182 T01670022=
202311241852 METAR KATL 241852Z 30005KT 10SM FEW200 BKN250 17/02 A3008 RMK AO2 SLP185 T01720022 $=
202311241752 METAR KATL 241752Z VRB04KT 10SM FEW120 SCT250 17/03 A3010 RMK AO2 SLP193 T01670028 10167 20078 58018 $=
202311241652 METAR KATL 241652Z 28005KT 10SM FEW130 16/03 A3013 RMK AO2 SLP204 T01560028 $=
202311241552 METAR KATL 241552Z 00000KT 10SM FEW160 FEW200 14/03 A3015 RMK AO2 SLP210 T01390033 $=
202311241452 METAR KATL 241452Z VRB06KT 10SM FEW160 FEW200 12/04 A3016 RMK AO2 SLP213 T01220039 51011 $=
202311241352 METAR KATL 241352Z 30006KT 10SM FEW100 BKN160 09/04 A3014 RMK AO2 SLP210 VIRGA DSNT NW-NE T00940039 $=
202311241252 METAR KATL 241252Z 28006KT 10SM BKN095 BKN120 BKN160 08/03 A3014 RMK AO2 SLP209 VIRGA NW-NE T00830033 $=
202311241152 METAR KATL 241152Z 26005KT 10SM BKN095 BKN160 BKN200 08/04 A3013 RMK AO2 SLP203 T00780039 10083 20067 53008 $=
202311241052 METAR KATL 241052Z 25004KT 10SM SCT110 BKN160 BKN200 08/03 A3010 RMK AO2 SLP194 T00780033 $=
202311240952 METAR KATL 240952Z 27004KT 10SM BKN130 BKN180 BKN230 07/03 A3010 RMK AO2 SLP195 T00720033 $=
202311240852 METAR KATL 240852Z 29004KT 10SM SCT160 SCT180 BKN230 07/03 A3010 RMK AO2 SLP194 T00670033 50003 $=
202311240752 METAR KATL 240752Z 30005KT 10SM SCT170 SCT230 07/03 A3012 RMK AO2 SLP199 T00720033 $=
202311240652 METAR KATL 240652Z 29004KT 10SM BKN160 BKN250 08/04 A3010 RMK AO2 SLP193 T00780039 $=
202311240552 METAR KATL 240552Z 32005KT 10SM SCT150 BKN200 08/04 A3009 RMK AO2 SLP191 T00830044 10117 20083 56002 $=
202311240452 METAR KATL 240452Z 29003KT 10SM BKN150 BKN200 BKN250 09/04 A3010 RMK AO2 SLP192 T00940044 401440044 $=
202311240352 METAR KATL 240352Z 32004KT 10SM FEW150 BKN180 BKN250 10/05 A3009 RMK AO2 SLP190 T01000050 $=
202311240252 METAR KATL 240252Z 00000KT 10SM BKN180 BKN250 11/06 A3010 RMK AO2 SLP194 T01060061 51012 $=
202311240152 METAR KATL 240152Z 21003KT 10SM BKN200 OVC250 11/06 A3010 RMK AO2 SLP195 T01060056 $=
202311240052 METAR KATL 240052Z 00000KT 10SM BKN200 OVC250 11/06 A3008 RMK AO2 SLP189 T01110056 $=
202311232352 METAR KATL 232352Z 30003KT 10SM BKN200 OVC250 12/04 A3006 RMK AO2 SLP183 T01170044 10144 20117 51005 $=
202311232252 METAR KATL 232252Z 28003KT 10SM BKN200 OVC250 12/04 A3006 RMK AO2 SLP180 T01220039 $=
202311232152 METAR KATL 232152Z 26005KT 10SM BKN180 OVC250 13/04 A3006 RMK AO2 SLP181 T01330044 $=
202311232052 METAR KATL 232052Z 27005KT 10SM BKN200 OVC250 14/04 A3005 RMK AO2 SLP177 T01390039 55004 $=
202311231952 METAR KATL 231952Z 28006KT 10SM BKN200 BKN250 14/04 A3003 RMK AO2 SLP171 T01390044 $=
202311231852 METAR KATL 231852Z 00000KT 10SM BKN200 BKN250 13/04 A3004 RMK AO2 SLP175 T01280039 $=
202311231752 METAR KATL 231752Z 00000KT 10SM BKN200 BKN250 13/04 A3006 RMK AO2 SLP181 T01280039 10128 20044 58010 $=
202311231652 METAR KATL 231652Z 00000KT 10SM BKN200 BKN250 12/04 A3009 RMK AO2 SLP191 T01170044 $=
202311231552 METAR KATL 231552Z 33004KT 10SM SCT200 BKN250 11/04 A3010 RMK AO2 SLP194 T01060039 $=
202311231452 METAR KATL 231452Z 34010G15KT 10SM FEW018 BKN250 09/03 A3009 RMK AO2 SLP192 T00890033 51017 $=
202311231352 METAR KATL 231352Z 34006KT 10SM FEW015 BKN250 07/03 A3007 RMK AO2 SLP187 T00720028 $=
202311231252 METAR KATL 231252Z 32005KT 10SM FEW020 BKN250 05/02 A3007 RMK AO2 SLP187 T00500022 $=
202311231152 METAR KATL 231152Z 33007KT 10SM FEW020 SCT250 05/02 A3004 RMK AO2 SLP176 T00500017 10072 20050 53010 $=
202311231052 METAR KATL 231052Z 31007KT 10SM FEW018 FEW250 06/02 A3003 RMK AO2 SLP171 T00560022 $=
202311230952 METAR KATL 230952Z 32010KT 10SM FEW018 FEW250 06/02 A3001 RMK AO2 SLP165 T00610022 $=
202311230852 METAR KATL 230852Z 32009KT 10SM FEW018 SCT250 06/02 A3001 RMK AO2 SLP165 T00610022 56003 $=
202311230752 METAR KATL 230752Z 33008KT 10SM SCT019 SCT250 06/02 A3001 RMK AO2 SLP166 T00610022 $=
202311230652 METAR KATL 230652Z 32007KT 10SM FEW020 FEW250 06/02 A3001 RMK AO2 SLP165 T00610022 $=
202311230619 SPECI KATL 230619Z 32007KT 10SM SCT021 SCT250 07/02 A3001 RMK AO2 T00670022=
202311230552 METAR KATL 230552Z 33008KT 10SM BKN022 BKN250 07/02 A3002 RMK AO2 SLP167 T00670022 10089 20067 58004=
202311230452 METAR KATL 230452Z 31010KT 10SM BKN020 BKN250 08/03 A3003 RMK AO2 SLP171 T00780028 401500078=
202311230352 METAR KATL 230352Z 32010KT 10SM BKN020 BKN250 08/03 A3003 RMK AO2 SLP170 T00780028=
202311230252 METAR KATL 230252Z 33009G17KT 10SM BKN020 BKN250 08/03 A3003 RMK AO2 SLP171 T00780028 51007=
202311230152 METAR KATL 230152Z 35011G23KT 10SM BKN022 BKN250 08/03 A3003 RMK AO2 SLP170 T00830028=
202311230052 METAR KATL 230052Z 33011KT 10SM BKN024 08/03 A3002 RMK AO2 SLP167 T00830028=
202311222352 METAR KATL 222352Z 33011G19KT 300V360 10SM OVC025 09/03 A3001 RMK AO2 PK WND 31028/2339 SLP163 T00890028 10122 20089 53011=
202311222252 METAR KATL 222252Z 32013G20KT 10SM BKN027 OVC040 09/03 A3000 RMK AO2 SLP159 BINOVC T00890028=
202311222152 METAR KATL 222152Z 33016KT 10SM BKN031 OVC042 10/03 A2998 RMK AO2 SLP154 BINOVC T01000033=
202311222052 METAR KATL 222052Z 33014G21KT 10SM BKN034 OVC046 11/03 A2998 RMK AO2 SLP150 T01060033 53006=
202311221952 METAR KATL 221952Z 28013G21KT 10SM SCT031 OVC048 11/04 A2996 RMK AO2 SLP144 T01060039=
202311221852 METAR KATL 221852Z 31012KT 10SM BKN031 BKN042 BKN055 11/04 A2995 RMK AO2 SLP143 T01110044=
202311221832 SPECI KATL 221832Z 31014G20KT 10SM BKN030 BKN038 OVC060 12/05 A2996 RMK AO2 CIG 027V033 BINOVC T01170050=
202311221752 METAR KATL 221752Z 30012KT 10SM BKN025 OVC047 12/06 A2996 RMK AO2 SLP143 CIG 022V028 BINOVC T01170056 10122 20111 58003=
202311221652 METAR KATL 221652Z 30018G27KT 10SM BKN020 OVC050 12/07 A2997 RMK AO2 PK WND 30027/1650 SLP148 CIG 018V022 T01170067=
202311221552 METAR KATL 221552Z 30017G22KT 10SM BKN018 OVC055 12/08 A2997 RMK AO2 SLP147 CIG 016V020 BINOVC T01170078=
202311221452 METAR KATL 221452Z 31015G22KT 10SM BKN016 OVC050 12/08 A2997 RMK AO2 SLP146 CIG 014V018 T01170078 51018=
202311221445 SPECI KATL 221445Z 30013G21KT 10SM BKN018 OVC050 12/08 A2996 RMK AO2 CIG 016V020 T01170078=
202311221352 METAR KATL 221352Z 31012KT 10SM SCT014 OVC047 12/08 A2995 RMK AO2 SLP139 T01170083=
202311221252 METAR KATL 221252Z 30014KT 10SM SCT014 BKN048 12/09 A2993 RMK AO2 SLP133 T01220094=
202311221152 METAR KATL 221152Z 30010KT 10SM SCT012 BKN043 BKN150 12/10 A2991 RMK AO2 SLP126 70117 T01220100 10144 20122 53004=
202311221117 SPECI KATL 221117Z 30009KT 10SM SCT012 BKN041 OVC140 12/11 A2990 RMK AO2 T01220106=
202311221057 SPECI KATL 221057Z 31009KT 10SM FEW009 BKN012 BKN027 OVC140 13/11 A2990 RMK AO2 T01280106=
202311221052 METAR KATL 221052Z 31012KT 10SM BKN009 BKN027 BKN034 OVC140 13/11 A2990 RMK AO2 SLP123 T01280106=
202311221050 SPECI KATL 221050Z 31010KT 10SM BKN009 BKN027 BKN034 OVC140 13/11 A2990 RMK AO2=
202311221002 SPECI KATL 221002Z 31009KT 10SM BKN009 13/11 A2990 RMK AO2 T01280111=
202311220952 METAR KATL 220952Z 30009KT 10SM SCT007 BKN130 OVC250 13/11 A2990 RMK AO2 SLP122 T01280111=
202311220946 SPECI KATL 220946Z 30009KT 10SM SCT007 OVC130 13/11 A2990 RMK AO2=
202311220852 METAR KATL 220852Z 31012G17KT 10SM BKN006 OVC130 13/12 A2990 RMK AO2 SLP122 T01330117 58005=
202311220837 SPECI KATL 220837Z 30009KT 10SM BKN006 OVC130 13/12 A2990 RMK AO2 T01330117=
202311220752 METAR KATL 220752Z 30008KT 10SM FEW004 FEW080 BKN150 13/12 A2991 RMK AO2 SLP124 T01330122=
202311220652 METAR KATL 220652Z 30008KT 10SM FEW004 FEW080 BKN150 BKN250 14/13 A2991 RMK AO2 SLP125 T01390128=
202311220552 METAR KATL 220552Z 31008KT 10SM FEW004 SCT080 BKN150 BKN250 14/13 A2992 RMK AO2 SLP126 60000 T01440133 10172 20144 58005=
202311220452 METAR KATL 220452Z 29005KT 10SM FEW005 BKN080 BKN150 BKN250 15/14 A2994 RMK AO2 SLP134 T01500139 401940144=
202311220418 SPECI KATL 220418Z 28003KT 10SM FEW005 FEW012 BKN085 BKN250 16/14 A2994 RMK AO2 T01560139=
202311220352 METAR KATL 220352Z 32006KT 10SM FEW012 BKN085 BKN250 16/14 A2994 RMK AO2 SLP133 T01560139=
202311220252 METAR KATL 220252Z 31006KT 10SM FEW010 SCT060 BKN080 BKN250 16/14 A2993 RMK AO2 SLP133 60000 T01610144 53008=
202311220152 METAR KATL 220152Z 32008KT 10SM FEW008 BKN060 BKN080 OVC200 17/14 A2992 RMK AO2 SLP129 T01670144=
202311220052 METAR KATL 220052Z 30009KT 10SM FEW006 BKN060 BKN090 OVC200 17/15 A2992 RMK AO2 RAE18 SLP127 P0000 T01670150=
202311212352 METAR KATL 212352Z 30010KT 8SM -RA FEW004 SCT020 BKN060 OVC150 17/16 A2991 RMK AO2 WSHFT 2302 SLP124 P0016 60091 T01720156 10194 20172 53017=
202311212327 SPECI KATL 212327Z 30012KT 4SM -RA BR FEW004 BKN020 OVC060 17/16 A2990 RMK AO2 WSHFT 2302 P0015 T01720161=
202311212318 SPECI KATL 212318Z 31013KT 2SM +RA BR FEW004 BKN015 OVC050 17/16 A2990 RMK AO2 WSHFT 2302 FROPA P0010 T01720161=
202311212309 SPECI KATL 212309Z 32013G19KT 2SM +RA BR FEW004 BKN020 OVC050 17/16 A2989 RMK AO2 FROPA P0004 T01720161=
202311212252 METAR KATL 212252Z 23005KT 6SM -RA BR FEW004 BKN028 BKN060 OVC150 19/17 A2986 RMK AO2 SLP108 P0004 T01890172=
202311212152 METAR KATL 212152Z 23005KT 3SM -RA BR SCT008 BKN014 OVC046 19/18 A2986 RMK AO2 RAE05B42 SLP108 P0004 T01890178=
202311212144 SPECI KATL 212144Z 23006KT 3SM -RA BR SCT008 BKN014 OVC044 19/17 A2987 RMK AO2 RAE05B42 P0001 T01890172=
202311212117 SPECI KATL 212117Z 24007KT 10SM FEW008 SCT038 OVC060 19/17 A2985 RMK AO2 RAE05 CB DSNT NE-SE BINOVC P0001 T01890172=
202311212052 METAR KATL 212052Z 25008G18KT 10SM -RA FEW010 SCT033 OVC055 19/17 A2986 RMK AO2 WSHFT 2015 TSB34E51 SLP107 TS MOVD NE OCNL LTGICCA DSNT NE-SE-S CB DSNT NE-SE-S P0065 60067 T01890172 55008=
202311212046 SPECI KATL 212046Z 25011G25KT 6SM -TSRA BR FEW010 BKN016 OVC033CB 18/17 A2985 RMK AO2 WSHFT 2015 TSB34 OCNL LTGICCA NE-SE-S TS NE-SE-S MOV NE P0065=
202311212041 SPECI KATL 212041Z 25015G25KT 3SM +TSRA BR SCT006 BKN010 OVC024CB 18/17 A2986 RMK AO2 WSHFT 2015 TSB34 VIS NE-SE-S 1 OCNL LTGIC NE-SE-S TS NE-SE-S MOV NE P0064 T01830172=
202311212037 SPECI KATL 212037Z 25015G24KT 1/2SM +TSRA FG SCT005 BKN010 OVC024CB 19/18 A2985 RMK AO2 WSHFT 2015 TSB34 OCNL LTGIC NE-OHD-SW TS NE-OHD-SW MOV NE P0057 T01890178 RVRNO=
202311212034 SPECI KATL 212034Z 24012G22KT 1/4SM +TSRA FG SCT005 BKN014 OVC024CB 19/18 A2985 RMK AO2 WSHFT 2015 TSB34 PRESRR OCNL LTGIC NE-OHD-SW TS NE-OHD-SW MOV NE P0042 T01890183 RVRNO=
202311212030 SPECI KATL 212030Z 27013G23KT 1/2SM +RA FG SCT005 BKN014 OVC024CB 19/18 A2985 RMK AO2 WSHFT 2015 PRESRR CB NE-OHD-SW MOV NE P0027 T01940183 RVRNO=
202311212028 SPECI KATL 212028Z 26010G23KT 1/2SM +RA FG SCT005 BKN014 OVC024CB 19/18 A2984 RMK AO2 CB NE-OHD-SW MOV NE P0020 T01940183 RVRNO=
202311212025 SPECI KATL 212025Z 23010G23KT 3/4SM +RA BR SCT012 BKN024CB OVC050 19/18 A2984 RMK AO2 CB NE-OHD-SW MOV NE P0008 T01940178 RVRNO=
202311212022 SPECI KATL 212022Z 21014G23KT 1 3/4SM +RA BR SCT012 BKN024CB OVC050 19/18 A2983 RMK AO2 VIS NE-SE 3 CB SW-NW MOV NE P0005 T01940178=
202311211952 METAR KATL 211952Z 18014G23KT 8SM -RA SCT010 BKN024CB OVC070 19/18 A2982 RMK AO2 PK WND 16028/1913 SLP094 CB SW-NW MOV NE P0001 T01940178=
202311211852 METAR KATL 211852Z 18016G30KT 4SM RA BR FEW008 BKN012 OVC026 19/18 A2985 RMK AO2 PK WND 17030/1851 RAB31 SLP104 CIG 010V014 P0001 T01940178=
202311211848 SPECI KATL 211848Z 17012G24KT 3SM -RA BR FEW008 BKN012 OVC026 19/18 A2985 RMK AO2 PK WND 17029/1827 RAB31 CIG 010V014 P0000=
202311211813 SPECI KATL 211813Z 17017G28KT 10SM BKN012 BKN028 OVC065 19/17 A2987 RMK AO2 PK WND 20028/1807 CIG 010V014 T01940172=
202311211752 METAR KATL 211752Z 18011G25KT 10SM SCT009 BKN018 BKN060 OVC130 19/18 A2988 RMK AO2 PK WND 18028/1735 RAE52 SLP113 P0007 60026 T01940178 10194 20150 58029=
202311211741 SPECI KATL 211741Z 18016G28KT 3SM -RA BR SCT009 BKN018 OVC050 19/18 A2989 RMK AO2 PK WND 18028/1735 SFC VIS 5 P0007 T01890178=
202311211652 METAR KATL 211652Z 16010G19KT 3SM -RA BR SCT007 BKN014 OVC038 18/17 A2993 RMK AO2 SFC VIS 3 SLP131 CIG 012V016 P0012 T01830172=
202311211552 METAR KATL 211552Z 17011G19KT 3SM -RA BR BKN011 OVC020 18/17 A2997 RMK AO2 SFC VIS 6 DZE08RAB08 SLP144 CIG 009V013 P0002 T01830167=
202311211546 SPECI KATL 211546Z 17011G19KT 3SM -RA BR BKN010 OVC020 18/17 A2997 RMK AO2 SFC VIS 6 DZE08RAB08 CIG 008V012 P0002=
202311211508 SPECI KATL 211508Z 13007KT 3SM -RA OVC008 17/16 A2997 RMK AO2 SFC VIS 7 DZE08RAB08 CIG 006V010 P0000 T01720161=
202311211452 METAR KATL 211452Z 14007KT 1SM -DZ BR OVC006 17/16 A2997 RMK AO2 SFC VIS 6 RAE50DZB50 SLP144 CIG 004V008 P0001 60005 T01670156 56004=
202311211447 SPECI KATL 211447Z 13006KT 1SM -RA BR OVC005 17/16 A2997 RMK AO2 SFC VIS 6 CIG 004V006 P0001=
202311211352 METAR KATL 211352Z 13009KT 1/2SM -RA BR OVC004 16/15 A2998 RMK AO2 SFC VIS 4 SLP148 CIG 003V005 TWRINC P0004 T01610150=
202311211252 METAR KATL 211252Z 13010KT 1/2SM -RA BR OVC003 16/15 A2998 RMK AO2 SFC VIS 6 RAB41 SLP150 CIG 002V004 TWRINC P0000 T01560150=
202311211243 SPECI KATL 211243Z 13009KT 1/2SM -RA BR OVC003 16/14 A2998 RMK AO2 SFC VIS 6 RAB41 CIG 002V004 TWRINC P0000 T01560144=
202311211152 METAR KATL 211152Z 12010KT 1 1/2SM BR OVC004 15/14 A2999 RMK AO2 PK WND 12030/1118 SFC VIS 6 RAE28 SLP150 CIG 003V005 TWRINC P0001 60006 70006 T01500139 10167 20144 56010=
202311211059 SPECI KATL 211059Z 11013G21KT 1 1/2SM -RA BR BKN004 OVC010 15/14 A2998 RMK AO2 SFC VIS 6 CIG 003V006 TWRINC P0000 T01500139 $=
202311211052 METAR KATL 211052Z 13009KT 1/2SM -RA BR BKN004 OVC010 15/14 A3000 RMK AO2 PK WND 13038/1002 SFC VIS 6 SLP155 CIG 003V005 TWRINC P0004 T01500139 $=
202311210952 METAR KATL 210952Z 14020G30KT 1/2SM -RA BR OVC003 14/13 A2999 RMK AO2 PK WND 14030/0952 SFC VIS 3 DZE20RAB20 PRESFR SLP153 TWRINC P0001 T01440133=
202311210950 SPECI KATL 210950Z 14020G29KT 1/2SM -RA BR OVC003 14/13 A2999 RMK AO2 PK WND 15029/0950 SFC VIS 3 DZE20RAB20 PRESFR TWRINC P0001=
202311210936 SPECI KATL 210936Z 14011KT 1 1/4SM -RA BR OVC004 14/13 A3004 RMK AO2 SFC VIS 2 1/2 DZE20RAB20 CIG 003V005 P0000 T01440133=
202311210852 METAR KATL 210852Z 13010KT 5SM -DZ BR OVC006 14/13 A3002 RMK AO2 SLP161 P0000 60000 T01440133 56011=
202311210752 METAR KATL 210752Z 12010G19KT 5SM -DZ BR OVC005 15/13 A3002 RMK AO2 SLP162 P0000 T01500133=
202311210652 METAR KATL 210652Z 11013G24KT 4SM -DZ BR OVC007 16/13 A3002 RMK AO2 RAE10DZB10 SLP163 P0000 T01560133=
202311210611 SPECI KATL 210611Z 12010KT 4SM -DZ BR OVC009 16/14 A3004 RMK AO2 RAE10DZB10 P0000 T01610139=
202311210552 METAR KATL 210552Z 12016G22KT 6SM -RA OVC012 17/14 A3005 RMK AO2 RAB43 SLP171 P0000 60000 T01670139 10178 20167 58012=
202311210543 SPECI KATL 210543Z 12011G20KT 8SM -RA OVC013 17/13 A3006 RMK AO2 RAB43 P0000 T01720133=
202311210452 METAR KATL 210452Z 11011G21KT 10SM BKN016 OVC030 18/13 A3007 RMK AO2 RAB15E24 SLP180 P0000 T01780133 401940122=
202311210352 METAR KATL 210352Z 12011G22KT 10SM BKN022 OVC040 18/13 A3008 RMK AO2 SLP182 T01780128=
202311210252 METAR KATL 210252Z 11008KT 10SM BKN027 BKN040 OVC200 18/13 A3008 RMK AO2 SLP184 T01780128 55000=
202311210152 METAR KATL 210152Z 10008KT 10SM BKN032 BKN045 BKN200 17/12 A3008 RMK AO2 SLP181 T01720122=
202311210052 METAR KATL 210052Z 09010KT 10SM BKN032 BKN050 BKN200 17/11 A3008 RMK AO2 SLP182 T01720106=
202311202352 METAR KATL 202352Z 10009G17KT 10SM BKN035 BKN060 BKN200 18/10 A3009 RMK AO2 SLP185 T01780100 10194 20172 51012=
202311202252 METAR KATL 202252Z 08010KT 10SM BKN032 BKN060 BKN200 17/11 A3007 RMK AO2 SLP180 MDT CU ALQDS T01720106=
202311202216 SPECI KATL 202216Z 08012KT 10SM SCT030 BKN050 BKN080 BKN200 18/11 A3008 RMK AO2 MDT CU ALQDS T01780111=
202311202152 METAR KATL 202152Z 07010G17KT 10SM BKN027 BKN046 BKN140 18/11 A3008 RMK AO2 SLP184 MDT CU ALQDS T01830111=
202311202052 METAR KATL 202052Z 10009KT 10SM BKN026 BKN048 BKN140 18/12 A3005 RMK AO2 SLP172 T01830117 55006=
202311201952 METAR KATL 201952Z 12010KT 10SM BKN027 OVC046 19/12 A3003 RMK AO2 SLP165 BINOVC T01890117=
202311201925 SPECI KATL 201925Z 14007KT 10SM OVC028 19/12 A3004 RMK AO2 T01940122=
202311201852 METAR KATL 201852Z 13006KT 10SM BKN030 BKN040 BKN130 BKN250 19/12 A3005 RMK AO2 SLP172 MDT CU SE-SW-NW T01940122=
202311201752 METAR KATL 201752Z 11008KT 10SM BKN026 BKN140 BKN250 19/12 A3007 RMK AO2 SLP178 MDT CU E S-SW T01890117 10189 20139 58012=
202311201652 METAR KATL 201652Z 12010G17KT 10SM OVC022 18/11 A3009 RMK AO2 SLP186 CIG 020V024 MDT CU OHD-ALQDS BINOVC T01780106=
202311201552 METAR KATL 201552Z 10007KT 10SM OVC019 16/10 A3012 RMK AO2 SLP196 CIG 016V020 MDT CU OHD-ALQDS BINOVC T01610100=
202311201452 METAR KATL 201452Z 10007KT 10SM OVC015 15/10 A3010 RMK AO2 SLP192 CIG 013V017 MDT CU NW-NE BINOVC T01500100 51021=
202311201352 METAR KATL 201352Z 11007KT 10SM OVC014 14/09 A3010 RMK AO2 SLP191 T01440094=
202311201252 METAR KATL 201252Z 11006KT 10SM BKN011 OVC020 14/10 A3007 RMK AO2 SLP181 T01390100=
202311201152 METAR KATL 201152Z 11006KT 10SM OVC013 14/09 A3004 RMK AO2 SLP170 CIG 011V015 T01390094 10144 20133 53006=
202311201052 METAR KATL 201052Z 12009KT 10SM OVC012 14/09 A3003 RMK AO2 SLP166 T01440094=
202311200952 METAR KATL 200952Z 10008KT 10SM OVC012 14/09 A3002 RMK AO2 SLP162 T01440089=
202311200852 METAR KATL 200852Z 10007KT 10SM OVC011 14/09 A3002 RMK AO2 SLP162 T01440089 53007=
202311200752 METAR KATL 200752Z 10007KT 10SM OVC013 14/08 A3002 RMK AO2 SLP160 T01390078=
202311200652 METAR KATL 200652Z 10007KT 10SM BKN015 OVC022 14/07 A3001 RMK AO2 SLP156 CIG 014V018 T01390072=
202311200649 SPECI KATL 200649Z 10006KT 10SM BKN015 OVC022 14/07 A3001 RMK AO2=
202311200552 METAR KATL 200552Z 09007KT 10SM BKN014 OVC020 13/07 A3000 RMK AO2 SLP156 T01330067 10167 20122 50001=
202311200452 METAR KATL 200452Z 09009KT 10SM FEW050 FEW250 13/07 A3000 RMK AO2 SLP158 T01330067 402110083=
202311200352 METAR KATL 200352Z 10007KT 10SM FEW048 FEW250 14/07 A3001 RMK AO2 SLP158 T01390072=
202311200252 METAR KATL 200252Z 10008KT 10SM FEW048 14/08 A3000 RMK AO2 SLP156 T01440078 51012=
202311200152 METAR KATL 200152Z 10008KT 10SM FEW048 15/08 A2999 RMK AO2 SLP154 T01500078=
202311200052 METAR KATL 200052Z 09009KT 10SM FEW050 FEW250 15/08 A2998 RMK AO2 SLP149 T01500078=
202311192352 METAR KATL 192352Z 09009KT 10SM FEW180 FEW250 17/08 A2996 RMK AO2 SLP144 T01670083 10211 20167 53013=
202311192252 METAR KATL 192252Z 11003KT 10SM FEW180 FEW250 18/08 A2995 RMK AO2 SLP139 T01830078=
202311192152 METAR KATL 192152Z 14007KT 10SM FEW250 20/08 A2993 RMK AO2 SLP133 T02000078=
202311192052 METAR KATL 192052Z 13008KT 10SM FEW250 21/07 A2992 RMK AO2 SLP130 T02060072 56011=
202311191952 METAR KATL 191952Z 13004KT 10SM FEW050 FEW250 21/07 A2992 RMK AO2 SLP130 T02060072=
202311191852 METAR KATL 191852Z 08004KT 10SM FEW050 FEW250 20/07 A2993 RMK AO2 SLP132 T02000072=
202311191752 METAR KATL 191752Z 11006KT 10SM FEW050 FEW250 19/07 A2996 RMK AO2 SLP141 T01890067 10189 20106 58013=
202311191652 METAR KATL 191652Z VRB05KT 10SM FEW060 FEW250 18/06 A2998 RMK AO2 SLP150 T01780061=
202311191552 METAR KATL 191552Z 10007KT 10SM FEW250 16/05 A2999 RMK AO2 SLP154 T01610050=
202311191452 METAR KATL 191452Z 09009KT 10SM FEW250 14/04 A2999 RMK AO2 SLP155 T01440039 53013=
202311191352 METAR KATL 191352Z 09013KT 10SM FEW250 12/03 A2998 RMK AO2 SLP150 T01220033=
202311191252 METAR KATL 191252Z 08008KT 10SM FEW050 11/05 A2997 RMK AO2 SLP146 T01110050=
202311191152 METAR KATL 191152Z 03004KT 10SM CLR 11/05 A2996 RMK AO2 SLP141 T01060050 10117 20083 53016=
202311191052 METAR KATL 191052Z 04003KT 10SM CLR 09/05 A2993 RMK AO2 SLP134 T00890050=
202311190952 METAR KATL 190952Z 33003KT 10SM CLR 09/05 A2992 RMK AO2 SLP129 T00940050=
202311190852 METAR KATL 190852Z 33004KT 10SM CLR 09/05 A2991 RMK AO2 SLP125 T00940050 55001=
202311190752 METAR KATL 190752Z 02004KT 10SM CLR 11/05 A2990 RMK AO2 SLP121 T01060050=
202311190652 METAR KATL 190652Z 36006KT 10SM CLR 11/05 A2990 RMK AO2 SLP121 T01110050=
202311190552 METAR KATL 190552Z 33008KT 10SM CLR 12/05 A2991 RMK AO2 SLP124 T01170050 10178 20117 53006=
202311190452 METAR KATL 190452Z 32008KT 10SM CLR 12/06 A2990 RMK AO2 SLP119 T01220056 402330122=
202311190352 METAR KATL 190352Z 32008KT 10SM CLR 13/06 A2990 RMK AO2 SLP121 T01280056=
202311190252 METAR KATL 190252Z 31007KT 10SM CLR 13/06 A2989 RMK AO2 SLP119 T01330056 53003=
202311190152 METAR KATL 190152Z 33006KT 10SM CLR 14/06 A2989 RMK AO2 SLP119 T01440056=
202311190052 METAR KATL 190052Z 34008KT 10SM CLR 17/06 A2989 RMK AO2 SLP117 T01670061=
202311182352 METAR KATL 182352Z 35008KT 10SM CLR 18/07 A2988 RMK AO2 SLP115 T01780067 10233 20178 53013=
202311182252 METAR KATL 182252Z 34007KT 10SM CLR 19/07 A2987 RMK AO2 SLP109 T01890067=
202311182152 METAR KATL 182152Z 34013KT 10SM CLR 21/07 A2985 RMK AO2 SLP104 T02060067=
202311182052 METAR KATL 182052Z 32013KT 10SM CLR 22/06 A2984 RMK AO2 SLP100 T02170061 55010=
202311181952 METAR KATL 181952Z 34012G25KT 10SM FEW055 23/07 A2984 RMK AO2 SLP097 T02280072=
202311181852 METAR KATL 181852Z 36012G20KT 10SM FEW050 23/09 A2986 RMK AO2 SLP103 T02330089=
202311181752 METAR KATL 181752Z 34010G18KT 10SM FEW046 23/09 A2987 RMK AO2 SLP109 T02280094 10228 20144 58009=
202311181652 METAR KATL 181652Z 32010KT 10SM FEW036 22/11 A2989 RMK AO2 SLP116 T02220111=
202311181552 METAR KATL 181552Z 35013G19KT 10SM FEW028 20/12 A2990 RMK AO2 SLP120 T02000117=
202311181452 METAR KATL 181452Z 33011KT 10SM FEW020 19/13 A2990 RMK AO2 SLP121 T01890128 53012=
202311181352 METAR KATL 181352Z 33012KT 10SM FEW012 17/13 A2989 RMK AO2 SLP117 T01670133=
202311181252 METAR KATL 181252Z 33010KT 10SM CLR 15/13 A2988 RMK AO2 SLP114 T01500133=
202311181152 METAR KATL 181152Z 30007KT 10SM CLR 14/13 A2987 RMK AO2 SLP110 T01440128 10167 20144 53001=
202311181052 METAR KATL 181052Z 31008KT 10SM FEW030 15/13 A2986 RMK AO2 SLP108 T01500133=
202311180952 METAR KATL 180952Z 31006KT 8SM FEW030 FEW085 15/13 A2985 RMK AO2 SLP105 T01500133=
202311180852 METAR KATL 180852Z 31006KT 8SM SCT030 SCT085 SCT200 15/14 A2986 RMK AO2 SLP107 T01500139 56007=
202311180752 METAR KATL 180752Z 28004KT 6SM BR BKN045 BKN085 16/15 A2986 RMK AO2 SLP107 T01610150=
202311180652 METAR KATL 180652Z 32007KT 6SM BR BKN060 BKN085 BKN200 16/15 A2988 RMK AO2 SLP111 T01610150=
202311180552 METAR KATL 180552Z 29004KT 8SM SCT060 BKN085 BKN200 17/15 A2989 RMK AO2 SLP114 T01670150 10183 20161 58004=
202311180452 METAR KATL 180452Z 00000KT 8SM BKN090 BKN150 BKN200 17/15 A2989 RMK AO2 SLP118 T01670150 402220144=
202311180352 METAR KATL 180352Z 27003KT 7SM FEW006 BKN090 BKN150 BKN200 17/15 A2990 RMK AO2 SLP120 T01670150=
202311180252 METAR KATL 180252Z 00000KT 8SM FEW005 SCT100 BKN150 BKN200 17/15 A2990 RMK AO2 SLP120 T01670150 58010=
202311180152 METAR KATL 180152Z 10005KT 10SM FEW006 SCT055 BKN100 BKN200 17/16 A2990 RMK AO2 SLP122 T01720156=
202311180052 METAR KATL 180052Z 06006KT 10SM FEW007 BKN055 OVC200 18/16 A2992 RMK AO2 SLP128 T01830156=
202311172352 METAR KATL 172352Z 07005KT 10SM FEW005 BKN050 OVC150 18/16 A2993 RMK AO2 RAE2255 SLP131 P0000 60000 T01830156 10222 20178 51007=
202311172252 METAR KATL 172252Z 09006KT 8SM -RA FEW005 SCT028 BKN040 OVC150 18/16 A2992 RMK AO2 SLP128 VIS LWR NE-SE P0000 T01780161=
202311172247 SPECI KATL 172247Z 09007KT 7SM -RA FEW005 SCT028 BKN040 OVC150 18/16 A2992 RMK AO2 VIS LWR NE-SE P0000=
202311172152 METAR KATL 172152Z 00000KT 7SM -RA FEW018 BKN029 OVC036 19/16 A2992 RMK AO2 SLP128 VIS LWR NE RAB16 P0000 T01940156=
202311172116 SPECI KATL 172116Z VRB03KT 2SM BKN026 OVC033 21/14 A2992 RMK AO2 SFC VIS 10 T02060144=
202311172052 METAR KATL 172052Z 11003KT 10SM BKN025 OVC035 21/14 A2991 RMK AO2 SLP123 SHRA N-NE 60000 T02110144 56023=
202311172036 SPECI KATL 172036Z 09005KT 10SM BKN026 OVC033 21/14 A2990 RMK AO2 T02110144=
202311171952 METAR KATL 171952Z 11005KT 10SM FEW024 BKN034 BKN220 21/14 A2991 RMK AO2 SLP124 T02110139=
202311171852 METAR KATL 171852Z 09003KT 10SM FEW021 SCT035 BKN220 21/14 A2994 RMK AO2 RAE02 SLP133 P0000 T02060144=
202311171752 METAR KATL 171752Z 07004KT 9SM -RA SCT025 BKN031 BKN220 20/14 A2998 RMK AO2 RAB31 SLP147 P0000 60000 T02000144 10200 20150 58018=
202311171746 SPECI KATL 171746Z 14003KT 9SM -RA SCT025 BKN031 BKN220 20/14 A2998 RMK AO2 RAB31 P0000=
202311171701 SPECI KATL 171701Z 12005KT 10SM BKN024 OVC034 20/13 A3000 RMK AO2 T02000133=
202311171652 METAR KATL 171652Z 09005KT 10SM SCT024 OVC035 20/13 A3001 RMK AO2 SLP157 T02000133=
202311171552 METAR KATL 171552Z 08007KT 10SM FEW022 BKN032 BKN220 19/13 A3003 RMK AO2 SLP163 T01940133=
202311171452 METAR KATL 171452Z 10007KT 10SM SCT021 BKN030 BKN220 18/13 A3003 RMK AO2 SLP165 T01830128 50003=
202311171427 SPECI KATL 171427Z 09008KT 10SM FEW021 BKN030 BKN220 18/12 A3003 RMK AO2 T01780122=
202311171352 METAR KATL 171352Z 08008KT 10SM FEW022 OVC028 17/12 A3004 RMK AO2 SLP167 BINOVC T01670122=
202311171300 SPECI KATL 171300Z 09007KT 10SM BKN028 16/12 A3003 RMK AO2 T01560117=
202311171252 METAR KATL 171252Z 08009KT 10SM BKN030 16/12 A3003 RMK AO2 SLP166 T01560117=
202311171152 METAR KATL 171152Z 09006KT 10SM FEW020 BKN030 15/11 A3002 RMK AO2 SLP163 T01500111 10156 20144 58007=
202311171052 METAR KATL 171052Z 09006KT 10SM FEW022 SCT035 BKN250 14/11 A3003 RMK AO2 SLP165 T01440111=
202311170952 METAR KATL 170952Z 05006KT 10SM BKN030 BKN250 15/11 A3005 RMK AO2 SLP171 T01500111=
202311170852 METAR KATL 170852Z 07007KT 10SM FEW036 BKN250 14/11 A3005 RMK AO2 SLP170 T01440106 56014=
202311170752 METAR KATL 170752Z 06007KT 10SM FEW023 SCT037 15/11 A3007 RMK AO2 SLP178 T01500106=
202311170652 METAR KATL 170652Z 09008KT 10SM FEW024 FEW033 BKN250 14/11 A3006 RMK AO2 SLP176 T01440106=
202311170649 SPECI KATL 170649Z 08008KT 10SM FEW024 SCT033 BKN250 14/11 A3006 RMK AO2=
202311170552 METAR KATL 170552Z 09007KT 10SM BKN027 BKN250 15/11 A3009 RMK AO2 SLP185 T01500111 10183 20150 58006=
202311170543 SPECI KATL 170543Z 08007KT 10SM BKN026 BKN250 15/11 A3010 RMK AO2 T01500111=
202311170452 METAR KATL 170452Z 07009KT 10SM FEW030 SCT250 16/11 A3010 RMK AO2 SLP190 T01560106 402110122=
202311170352 METAR KATL 170352Z 08010KT 10SM FEW250 16/11 A3011 RMK AO2 SLP191 T01610106=
202311170252 METAR KATL 170252Z 09010KT 10SM FEW038 16/11 A3011 RMK AO2 SLP193 T01610111 58005=
202311170152 METAR KATL 170152Z 07006KT 10SM SCT038 17/11 A3013 RMK AO2 SLP202 T01720111=
202311170052 METAR KATL 170052Z 09007KT 10SM BKN040 BKN060 17/12 A3014 RMK AO2 SLP204 T01720117=
202311162352 METAR KATL 162352Z 09006KT 10SM FEW060 18/12 A3012 RMK AO2 SLP198 T01780122 10211 20178 53000=
202311162252 METAR KATL 162252Z 09008KT 10SM FEW032 SCT060 19/13 A3011 RMK AO2 SLP193 T01890128=
202311162152 METAR KATL 162152Z 11006KT 10SM FEW030 SCT055 20/12 A3011 RMK AO2 SLP193 T02000122=
202311162052 METAR KATL 162052Z 12010KT 10SM FEW028 SCT048 BKN070 BKN250 21/12 A3012 RMK AO2 SLP195 T02060117 56023=
202311161952 METAR KATL 161952Z 10009KT 10SM SCT035 BKN045 OVC070 20/12 A3014 RMK AO2 SLP203 BINOVC T02000117=
202311161852 METAR KATL 161852Z 10011KT 10SM SCT044 BKN065 BKN085 21/12 A3016 RMK AO2 SLP210 T02110122=
202311161752 METAR KATL 161752Z 09008KT 10SM FEW040 SCT070 SCT085 SCT200 20/11 A3019 RMK AO2 SLP220 T02000106 10211 20133 58022=
202311161652 METAR KATL 161652Z 09012G16KT 10SM FEW001 FEW065 SCT085 20/11 A3022 RMK AO2 SLP231 FU FEW001 FU PLUME S T02000106=
202311161552 METAR KATL 161552Z 09012G18KT 10SM FEW022 SCT065 SCT085 18/09 A3025 RMK AO2 SLP242 T01830094=
202311161452 METAR KATL 161452Z 09011KT 10SM FEW018 BKN055 BKN080 15/06 A3026 RMK AO2 SLP244 T01500061 53002=
202311161352 METAR KATL 161352Z 07011G20KT 10SM SCT016 BKN050 OVC075 14/04 A3025 RMK AO2 SLP244 VIRGA E-S-SW BINOVC T01390044=
202311161252 METAR KATL 161252Z 10009KT 10SM BKN014 BKN025 BKN080 13/04 A3025 RMK AO2 SLP243 T01330044=
202311161249 SPECI KATL 161249Z 09011KT 10SM BKN014 BKN025 BKN080 13/04 A3025 RMK AO2=
202311161152 METAR KATL 161152Z 07012KT 10SM FEW023 BKN080 13/04 A3024 RMK AO2 SLP239 T01330039 10133 20122 53002=
202311161135 SPECI KATL 161135Z 06010KT 10SM SCT023 BKN080 13/04 A3024 RMK AO2 T01330039=
202311161106 SPECI KATL 161106Z 04010KT 10SM BKN021 BKN030 BKN080 13/03 A3024 RMK AO2 T01330033=
202311161052 METAR KATL 161052Z 07012KT 10SM SCT019 BKN030 BKN080 13/03 A3023 RMK AO2 SLP236 T01330033=
202311160952 METAR KATL 160952Z 06009KT 10SM FEW025 FEW050 BKN080 13/03 A3022 RMK AO2 SLP233 T01330033=
202311160852 METAR KATL 160852Z 07011KT 10SM SCT026 SCT050 BKN080 13/02 A3023 RMK AO2 SLP236 T01330022 56005=
202311160752 METAR KATL 160752Z 07010KT 10SM FEW020 SCT044 BKN050 13/02 A3024 RMK AO2 SLP237 T01280022=
202311160652 METAR KATL 160652Z 08010KT 10SM FEW020 BKN044 OVC050 13/02 A3024 RMK AO2 SLP239 T01280022=
202311160649 SPECI KATL 160649Z 08009KT 10SM FEW020 BKN042 OVC049 13/02 A3024 RMK AO2=
202311160552 METAR KATL 160552Z 08011KT 10SM BKN022 BKN040 OVC080 13/02 A3025 RMK AO2 SLP242 T01280022 10144 20128 58008=
202311160528 SPECI KATL 160528Z 08013KT 10SM SCT023 BKN040 BKN080 OVC250 13/02 A3026 RMK AO2 T01330017=
202311160452 METAR KATL 160452Z 07012KT 10SM OVC021 13/02 A3026 RMK AO2 SLP245 BINOVC T01330022 401720117=
202311160352 METAR KATL 160352Z 08012KT 10SM OVC022 13/02 A3028 RMK AO2 SLP251 BINOVC T01330022=
202311160252 METAR KATL 160252Z 08012KT 10SM BKN023 OVC090 14/03 A3028 RMK AO2 SLP251 T01390028 58002=
202311160152 METAR KATL 160152Z 07014G22KT 10SM OVC024 14/03 A3029 RMK AO2 SLP255 T01390033=
202311160052 METAR KATL 160052Z 07011KT 10SM OVC025 14/02 A3028 RMK AO2 SLP254 T01440022=
202311152352 METAR KATL 152352Z 07010KT 10SM OVC024 14/03 A3028 RMK AO2 SLP254 60000 T01440033 10172 20144 53008=
202311152252 METAR KATL 152252Z 08012KT 10SM OVC025 14/04 A3027 RMK AO2 SLP251 T01440044=
202311152152 METAR KATL 152152Z 06010KT 10SM OVC026 16/04 A3026 RMK AO2 SLP247 T01560044=
202311152052 METAR KATL 152052Z 08012KT 10SM BKN027 OVC055 16/06 A3026 RMK AO2 RAB28E40 SLP246 SHRA NW-NE P0000 60000 T01560061 55008=
202311152028 SPECI KATL 152028Z 07014KT 10SM -RA BKN028 BKN048 OVC075 17/04 A3026 RMK AO2 RAB28 P0000 T01670044=
202311151952 METAR KATL 151952Z 08010KT 10SM SCT028 BKN044 BKN075 OVC140 17/04 A3025 RMK AO2 SLP241 T01670039=
202311151916 SPECI KATL 151916Z 09011KT 10SM BKN027 BKN042 OVC070 17/04 A3026 RMK AO2 T01670039=
202311151852 METAR KATL 151852Z 08012KT 10SM SCT027 BKN039 BKN060 OVC140 17/03 A3026 RMK AO2 SLP245 MDT CU SW-NW T01670033=
202311151752 METAR KATL 151752Z 07012G21KT 10SM BKN026 BKN075 OVC120 16/04 A3028 RMK AO2 RAB18E50 SLP253 P0000 60000 T01560039 10161 20117 58009=
202311151727 SPECI KATL 151727Z 09011KT 10SM -RA BKN028 OVC070 16/04 A3029 RMK AO2 RAB18 P0000 T01560044=
202311151652 METAR KATL 151652Z 09012KT 10SM BKN034 BKN075 OVC120 16/03 A3031 RMK AO2 SLP261 T01560028=
202311151552 METAR KATL 151552Z 10010KT 10SM FEW075 BKN120 BKN180 16/02 A3032 RMK AO2 SLP265 T01560022=
202311151452 METAR KATL 151452Z 10012KT 10SM FEW070 BKN130 BKN200 14/02 A3031 RMK AO2 RAE11 SLP263 P0000 60000 T01390022 50005=
202311151352 METAR KATL 151352Z 10010KT 10SM -RA FEW055 BKN090 BKN150 13/03 A3032 RMK AO2 SLP265 PCPN VRY LGT P0000 T01280028=
202311151252 METAR KATL 151252Z 09010KT 10SM -RA FEW049 BKN090 BKN110 OVC180 12/04 A3031 RMK AO2 RAE04B42 SLP264 VIRGA NW-NE BINOVC P0000 T01170039=
202311151152 METAR KATL 151152Z 10009KT 10SM -RA BKN070 OVC100 12/04 A3030 RMK AO2 SLP258 P0000 60000 T01170039 10139 20117 55004=
202311151052 METAR KATL 151052Z 09008KT 10SM -RA FEW055 BKN070 OVC100 13/02 A3030 RMK AO2 SLP257 DZE44RAB44 P0000 T01280022=
202311150952 METAR KATL 150952Z 09011KT 10SM -DZ FEW055 BKN080 OVC090 12/03 A3029 RMK AO2 SLP255 PCPN VRY LGT P0000 T01220028=
202311150852 METAR KATL 150852Z 08009KT 10SM -DZ FEW050 BKN075 OVC100 12/03 A3031 RMK AO2 SLP261 RAB0755E05DZB05 PCPN VRY LGT P0000 60000 T01220033 50002=
202311150752 METAR KATL 150752Z 09008KT 10SM SCT055 BKN070 OVC090 13/03 A3032 RMK AO2 SLP265 VIRGA OHD-ALQDS T01330028=
202311150652 METAR KATL 150652Z 11006KT 10SM SCT060 BKN080 OVC095 13/02 A3032 RMK AO2 SLP264 T01330022=
202311150552 METAR KATL 150552Z 11006KT 10SM SCT070 BKN085 OVC110 14/02 A3030 RMK AO2 SLP259 VIRGA OHD-ALQDS T01390017 10167 20139 53004=
202311150452 METAR KATL 150452Z 09009KT 10SM BKN110 OVC150 14/01 A3029 RMK AO2 SLP255 VIRGA OHD-ALQDS T01440011 402060111=
202311150352 METAR KATL 150352Z 11007KT 10SM BKN130 OVC200 14/01 A3030 RMK AO2 SLP256 VIRGA SE-OHD-NW T01440006=
202311150252 METAR KATL 150252Z 11009KT 10SM BKN140 OVC200 16/00 A3029 RMK AO2 SLP256 VIRGA OHD-SW T01560000 55000=
202311150152 METAR KATL 150152Z 10010KT 10SM BKN140 OVC200 16/01 A3029 RMK AO2 SLP254 VIRGA OHD-NW T01560006=
202311150052 METAR KATL 150052Z 10008KT 10SM BKN150 OVC200 16/01 A3029 RMK AO2 SLP255 T01610011=
202311142352 METAR KATL 142352Z 10006KT 10SM BKN150 BKN200 OVC250 17/01 A3029 RMK AO2 SLP256 T01670006 10206 20167 53003=
202311142252 METAR KATL 142252Z 10007KT 10SM FEW150 BKN200 OVC250 17/01 A3029 RMK AO2 SLP254 T01720006=
202311142152 METAR KATL 142152Z 12008KT 10SM FEW160 BKN200 OVC250 18/01 A3028 RMK AO2 SLP252 T01830011=
202311142052 METAR KATL 142052Z 09009KT 10SM FEW170 BKN200 OVC250 19/02 A3028 RMK AO2 SLP251 T01940022 56014=
202311141952 METAR KATL 141952Z 09010KT 10SM FEW170 BKN200 BKN250 21/02 A3029 RMK AO2 SLP253 ACC DSNT N T02060017=
202311141852 METAR KATL 141852Z 09013KT 10SM FEW150 SCT180 BKN250 21/02 A3029 RMK AO2 SLP254 T02060022=
202311141752 METAR KATL 141752Z 11009KT 10SM FEW180 SCT200 BKN250 19/01 A3032 RMK AO2 SLP265 T01940011 10194 20111 58013=
202311141652 METAR KATL 141652Z 10010G21KT 10SM FEW170 SCT200 BKN250 19/02 A3035 RMK AO2 SLP274 ACC DSNT SE-S T01890017=
202311141552 METAR KATL 141552Z 09015G25KT 10SM FEW170 SCT200 BKN250 17/03 A3037 RMK AO2 SLP279 T01720028=
202311141452 METAR KATL 141452Z 10015G21KT 10SM FEW170 SCT200 BKN250 15/04 A3036 RMK AO2 SLP279 ACC SW T01500044 51019=
202311141352 METAR KATL 141352Z 08009KT 10SM SCT200 BKN250 13/07 A3034 RMK AO2 SLP273 T01280072=
202311141252 METAR KATL 141252Z 08008KT 10SM SCT200 BKN250 12/07 A3034 RMK AO2 SLP272 T01170072=
202311141152 METAR KATL 141152Z 08007KT 10SM FEW200 BKN250 12/07 A3030 RMK AO2 SLP261 T01170072 10144 20117 53012=
202311141052 METAR KATL 141052Z 06007KT 10SM OVC220 13/07 A3028 RMK AO2 SLP252 T01280067=
202311140952 METAR KATL 140952Z 04006KT 10SM OVC220 13/07 A3027 RMK AO2 SLP248 T01330067=
202311140852 METAR KATL 140852Z 00000KT 10SM BKN220 OVC250 12/08 A3027 RMK AO2 SLP247 T01220078 55003=
202311140752 METAR KATL 140752Z 00000KT 10SM BKN220 OVC250 12/08 A3026 RMK AO2 SLP246 T01170078=
202311140652 METAR KATL 140652Z 36003KT 10SM BKN220 OVC250 13/07 A3027 RMK AO2 SLP247 T01330072=
202311140552 METAR KATL 140552Z 34005KT 10SM BKN200 OVC250 14/07 A3028 RMK AO2 SLP250 T01440072 10178 20139 56010=
202311140452 METAR KATL 140452Z 35005KT 10SM BKN200 OVC250 16/07 A3028 RMK AO2 SLP252 T01560072 401940106=
202311140352 METAR KATL 140352Z 03003KT 10SM SCT200 OVC250 17/07 A3029 RMK AO2 SLP256 T01720072=
202311140252 METAR KATL 140252Z 02004KT 10SM FEW200 OVC250 17/07 A3031 RMK AO2 SLP261 T01720072 50002=
202311140152 METAR KATL 140152Z 35004KT 10SM BKN200 OVC250 16/06 A3031 RMK AO2 SLP263 T01610061=
202311140052 METAR KATL 140052Z 33004KT 10SM BKN200 OVC250 15/07 A3031 RMK AO2 SLP263 T01500072=
202311132352 METAR KATL 132352Z 00000KT 10SM BKN200 OVC250 16/07 A3030 RMK AO2 SLP261 T01560072 10194 20150 53004=
202311132252 METAR KATL 132252Z 00000KT 10SM FEW150 BKN200 OVC250 16/07 A3029 RMK AO2 SLP257 T01610072=
202311132152 METAR KATL 132152Z 06005KT 10SM FEW150 BKN200 BKN250 18/06 A3029 RMK AO2 SLP256 T01830061=
202311132052 METAR KATL 132052Z 03008KT 10SM FEW150 BKN200 BKN250 18/06 A3029 RMK AO2 SLP256 T01830061 56017=
202311131952 METAR KATL 131952Z 02009KT 10SM SCT150 BKN200 BKN250 19/06 A3030 RMK AO2 SLP256 T01890061=
202311131852 METAR KATL 131852Z 02005KT 10SM FEW150 BKN200 BKN250 19/06 A3031 RMK AO2 SLP261 T01890056=
202311131752 METAR KATL 131752Z 12005KT 10SM FEW150 BKN200 BKN250 17/05 A3034 RMK AO2 SLP274 T01720050 10178 20106 58023=
202311131652 METAR KATL 131652Z 11005KT 10SM FEW150 SCT200 BKN250 16/04 A3039 RMK AO2 SLP289 T01610039=
202311131552 METAR KATL 131552Z 09006KT 10SM FEW140 SCT200 BKN250 16/04 A3041 RMK AO2 SLP296 T01560044=
202311131452 METAR KATL 131452Z 07008KT 10SM FEW042 FEW120 SCT200 BKN250 13/04 A3041 RMK AO2 SLP298 ACC SW T01330044 51017=
202311131352 METAR KATL 131352Z 07007KT 10SM SCT046 BKN200 BKN250 13/04 A3041 RMK AO2 SLP297 T01280044=
202311131252 METAR KATL 131252Z 06008KT 10SM SCT043 SCT200 BKN250 11/04 A3039 RMK AO2 SLP291 T01060039=
202311131152 METAR KATL 131152Z 05008KT 10SM SCT043 SCT200 BKN250 11/04 A3036 RMK AO2 SLP282 T01060039 10128 20106 53011=
202311131052 METAR KATL 131052Z 07008KT 10SM BKN044 BKN250 12/04 A3035 RMK AO2 SLP279 T01170039=
202311130952 METAR KATL 130952Z 07009KT 10SM OVC044 12/04 A3033 RMK AO2 SLP271 BINOVC T01170039=
202311130852 METAR KATL 130852Z 08008KT 10SM OVC047 12/05 A3033 RMK AO2 SLP270 BINOVC T01220050 56004=
202311130752 METAR KATL 130752Z 08006KT 10SM FEW030 OVC049 13/05 A3033 RMK AO2 SLP271 BINOVC T01280050=
202311130652 METAR KATL 130652Z 09007KT 10SM FEW030 OVC050 13/06 A3033 RMK AO2 SLP270 BINOVC T01280056=
202311130552 METAR KATL 130552Z 09008KT 10SM SCT030 OVC050 13/06 A3034 RMK AO2 SLP274 T01280061 10150 20128 58005=
202311130452 METAR KATL 130452Z 08007KT 10SM BKN030 13/07 A3035 RMK AO2 SLP276 T01330067 401500100=
202311130352 METAR KATL 130352Z 08007KT 10SM BKN030 14/06 A3037 RMK AO2 SLP285 T01390056=
202311130252 METAR KATL 130252Z 11004KT 10SM BKN030 14/06 A3036 RMK AO2 SLP280 T01390056 53015=
202311130152 METAR KATL 130152Z 09004KT 10SM FEW023 BKN030 14/06 A3034 RMK AO2 SLP275 T01390061=
202311130052 METAR KATL 130052Z 08007KT 10SM SCT023 OVC030 14/07 A3032 RMK AO2 SLP266 T01390067=
202311130048 SPECI KATL 130048Z 09007KT 10SM FEW023 OVC030 14/07 A3031 RMK AO2=
202311122352 METAR KATL 122352Z 09006KT 10SM BKN023 OVC030 14/07 A3031 RMK AO2 SLP265 T01390067 10144 20133 53008=
202311122343 SPECI KATL 122343Z 10005KT 10SM BKN023 OVC030 14/07 A3031 RMK AO2 T01390067=
202311122252 METAR KATL 122252Z 06006KT 10SM BKN031 BKN040 BKN250 14/07 A3030 RMK AO2 SLP261 T01390067=
202311122152 METAR KATL 122152Z 06007KT 10SM OVC032 14/07 A3030 RMK AO2 SLP259 BINOVC T01440067=
202311122135 SPECI KATL 122135Z 06006KT 10SM OVC030 14/07 A3030 RMK AO2 T01440072=
202311122052 METAR KATL 122052Z 04005KT 10SM BKN024 OVC033 14/07 A3029 RMK AO2 SLP256 T01390072 56006=
202311121952 METAR KATL 121952Z 05007KT 10SM BKN023 OVC036 14/07 A3029 RMK AO2 SLP258 T01390072=
202311121852 METAR KATL 121852Z 08009KT 10SM OVC022 13/07 A3029 RMK AO2 SLP260 T01330072=
202311121752 METAR KATL 121752Z 09008KT 10SM OVC022 14/07 A3031 RMK AO2 SLP263 T01390067 10139 20100 58011=
202311121652 METAR KATL 121652Z 08011KT 10SM OVC022 13/06 A3034 RMK AO2 SLP274 T01280056=
202311121552 METAR KATL 121552Z 09014KT 10SM OVC021 12/06 A3034 RMK AO2 SLP276 T01170061=
202311121452 METAR KATL 121452Z 08011KT 10SM OVC019 11/07 A3034 RMK AO2 SLP275 T01110067 51017=
202311121352 METAR KATL 121352Z 08010KT 10SM FEW012 OVC019 11/07 A3033 RMK AO2 SLP272 T01110072=
202311121252 METAR KATL 121252Z 08012KT 10SM SCT009 OVC018 11/08 A3030 RMK AO2 SLP263 T01060078=
202311121152 METAR KATL 121152Z 08010KT 10SM FEW007 OVC019 10/08 A3029 RMK AO2 RAB34E51 SLP258 CIG 017V022 P0000 60000 70020 T01000083 10106 20100 53005=
202311121052 METAR KATL 121052Z 08009KT 10SM FEW007 OVC015 10/08 A3028 RMK AO2 SLP256 CIG 013V017 T01000083=
202311121048 SPECI KATL 121048Z 08010KT 10SM FEW007 SCT013 OVC017 10/08 A3028 RMK AO2=
202311121031 SPECI KATL 121031Z 08009KT 10SM FEW009 BKN013 OVC017 10/08 A3028 RMK AO2 T01000083=
202311120952 METAR KATL 120952Z 08012KT 10SM FEW009 SCT013 OVC017 10/08 A3028 RMK AO2 SLP253 T01000078=
202311120855 SPECI KATL 120855Z 06012KT 10SM SCT009 BKN016 OVC022 10/08 A3027 RMK AO2 T01000083=
202311120852 METAR KATL 120852Z 06010KT 10SM BKN009 OVC014 10/08 A3027 RMK AO2 DZE19 SLP252 P0000 60000 T01000083 58002=
202311120752 METAR KATL 120752Z 07011KT 6SM -DZ BR BKN007 OVC011 10/09 A3027 RMK AO2 RAE0657DZB0657 SLP253 P0000 T01000089=
202311120652 METAR KATL 120652Z 08009KT 5SM -RA BR BKN007 OVC011 10/09 A3028 RMK AO2 DZE04RAB37 SLP256 P0000 T01000089=
202311120552 METAR KATL 120552Z 08011KT 9SM -DZ BR BKN009 OVC017 11/08 A3028 RMK AO2 SLP254 CIG 007V011 PCPN VRY LGT P0000 60002 T01060083 10111 20100 55004=
202311120452 METAR KATL 120452Z 08010KT 7SM -DZ BR BKN006 OVC014 11/09 A3027 RMK AO2 SLP252 CIG 005V007 PCPN VRY LGT P0000 T01060094 401330106=
202311120352 METAR KATL 120352Z 06010KT 5SM -DZ BR BKN005 OVC012 11/09 A3028 RMK AO2 RAE50DZB50 SLP256 CIG 004V006 P0000 T01060089=
202311120252 METAR KATL 120252Z 09010KT 5SM -RA BR OVC005 11/09 A3029 RMK AO2 SLP259 RAE06B30DZB06E30 CIG 003V007 P0000 60002 T01060094 53004=
202311120152 METAR KATL 120152Z 09010KT 4SM -RA BR OVC006 11/09 A3028 RMK AO2 RAE14B32DZB14E32 SLP254 CIG 004V008 P0001 T01060094=
202311120052 METAR KATL 120052Z 08013KT 5SM -RA BR OVC006 11/09 A3028 RMK AO2 DZE10RAB10 SLP256 CIG 004V008 P0001 T01110094=
202311112352 METAR KATL 112352Z 07013KT 7SM -DZ BKN007 OVC012 11/09 A3028 RMK AO2 DZE24B50 SLP254 CIG 006V008 P0000 60000 T01110089 10117 20106 53008=
202311112252 METAR KATL 112252Z 07008KT 6SM -DZ BR OVC006 11/09 A3027 RMK AO2 SLP251 P0000 T01110094=
202311112152 METAR KATL 112152Z 08009KT 4SM -DZ BR BKN006 OVC012 11/09 A3025 RMK AO2 RAE00DZB06 SLP246 VIS N-NE 2 1/2 P0000 T01110094=
202311112132 SPECI KATL 112132Z 06012KT 4SM -DZ BR BKN007 OVC011 11/09 A3026 RMK AO2 RAE00DZB06 VIS N-NE 2 1/2 P0000 T01110094=
202311112052 METAR KATL 112052Z 06011KT 2SM -RA BR BKN006 OVC011 11/09 A3025 RMK AO2 RAE09B50DZB09E50 SLP246 VIS S 3 P0000 60000 T01110094 55002=
202311112044 SPECI KATL 112044Z 07011KT 2 1/2SM -DZ BR BKN006 OVC011 11/09 A3025 RMK AO2 RAE09DZB09 VIS S 3 P0000 T01110094=
202311112009 SPECI KATL 112009Z 08013KT 3SM -DZ BR BKN007 OVC011 11/09 A3024 RMK AO2 RAE09DZB09 VIS NW-N 2 1/2 P0000 T01110094=
202311111952 METAR KATL 111952Z 06014KT 2 1/2SM -RA BR BKN007 OVC010 11/09 A3024 RMK AO2 DZE43RAB43 SLP240 VIS S 3 P0000 T01110094=
202311111943 SPECI KATL 111943Z 07011KT 2 1/2SM -RA BR OVC006 11/09 A3025 RMK AO2 DZE43RAB43 VIS S 4 P0000 T01110094=
202311111852 METAR KATL 111852Z 07015KT 6SM -DZ BR BKN008 OVC012 11/09 A3025 RMK AO2 RAE39DZB39 SLP244 VIS LWR NW-N P0000 T01110094=
202311111752 METAR KATL 111752Z 06012G19KT 7SM -RA BKN007 OVC012 12/09 A3026 RMK AO2 SLP247 P0001 60018 T01170094 10117 20106 58007=
202311111652 METAR KATL 111652Z 07015KT 9SM -RA OVC009 11/09 A3028 RMK AO2 RAE29B51 SLP255 CIG 008V012 P0000 T01110094=
202311111552 METAR KATL 111552Z 07016G22KT 4SM -RA BR BKN007 OVC012 11/09 A3027 RMK AO2 SLP252 P0003 T01110094=
202311111539 SPECI KATL 111539Z 07015G22KT 3SM -RA BR BKN007 OVC012 11/09 A3028 RMK AO2 P0003 T01060094=
202311111452 METAR KATL 111452Z 08012KT 2SM -RA BR BKN006 OVC011 11/09 A3028 RMK AO2 SLP254 P0003 60014 T01110094 51018=
202311111440 SPECI KATL 111440Z 07013G20KT 2 1/2SM -RA BR BKN007 OVC011 11/09 A3028 RMK AO2 P0002 T01060094=
202311111352 METAR KATL 111352Z 07013G22KT 3SM -RA BR BKN006 OVC011 11/09 A3027 RMK AO2 SLP249 CIG 004V008 P0007 T01110094=
202311111342 SPECI KATL 111342Z 07015KT 4SM -RA BR BKN006 OVC012 11/09 A3027 RMK AO2 CIG 004V008 P0007 T01060094=
202311111252 METAR KATL 111252Z 08011KT 1 1/2SM RA BR BKN005 OVC014 11/10 A3025 RMK AO2 SLP243 CIG 004V007 P0004 T01110100=
202311111240 SPECI KATL 111240Z 07008KT 1 1/2SM -RA BR OVC007 11/10 A3025 RMK AO2 P0002 T01110100=
202311111152 METAR KATL 111152Z 08010KT 6SM -RA BR BKN005 OVC022 11/10 A3022 RMK AO2 SLP234 CIG 004V007 P0003 60043 70049 T01110100 10133 20111 51010=
202311111052 METAR KATL 111052Z 08009KT 3SM -RA BR BKN005 OVC011 11/10 A3022 RMK AO2 SLP233 CIG 004V007 P0010 T01110100=
202311111048 SPECI KATL 111048Z 08009KT 3SM RA BR BKN005 OVC011 11/10 A3022 RMK AO2 CIG 004V007 P0009=
202311111035 SPECI KATL 111035Z 09007KT 2SM RA BR BKN005 OVC014 11/10 A3022 RMK AO2 P0006 T01110100=
202311110952 METAR KATL 110952Z 09010KT 4SM RA BR FEW005 BKN009 OVC014 11/09 A3020 RMK AO2 SLP225 P0008 T01110094=
202311110852 METAR KATL 110852Z 07009KT 6SM -RA BR BKN006 OVC012 12/11 A3019 RMK AO2 SLP222 P0010 60022 T01170106 53002=
202311110752 METAR KATL 110752Z 04006KT 3SM RA BR OVC006 13/12 A3019 RMK AO2 SLP221 CIG 005V008 P0006 T01280117=
202311110731 SPECI KATL 110731Z 36006KT 4SM -RA BR BKN008 BKN024 OVC040 13/12 A3019 RMK AO2 P0003 T01280117=
202311110652 METAR KATL 110652Z 04004KT 3SM -RA BR FEW006 BKN024 OVC029 13/11 A3018 RMK AO2 SLP217 P0006 T01280111=
202311110617 SPECI KATL 110617Z 33003KT 4SM -RA BR FEW024 BKN029 OVC037 13/11 A3019 RMK AO2 P0004 T01280111=
202311110552 METAR KATL 110552Z 33006KT 5SM -RA BR BKN035 OVC050 13/11 A3019 RMK AO2 RAB0459 SLP220 P0001 60001 T01280106 10161 20128 53007=
202311110452 METAR KATL 110452Z 34006KT 10SM BKN055 OVC090 14/10 A3016 RMK AO2 SLP211 T01390100 402720139=
202311110352 METAR KATL 110352Z 32008KT 10SM BKN060 BKN090 OVC150 14/11 A3016 RMK AO2 SLP211 T01390106=
202311110252 METAR KATL 110252Z 33006KT 10SM FEW055 BKN070 OVC090 14/11 A3016 RMK AO2 SLP211 T01440111 51009=
202311110152 METAR KATL 110152Z 33005KT 10SM FEW030 BKN055 OVC080 15/12 A3016 RMK AO2 SLP210 T01500117=
202311110052 METAR KATL 110052Z 34007KT 9SM FEW018 SCT030 BKN070 OVC150 15/12 A3015 RMK AO2 SLP207 T01500122=
202311102352 METAR KATL 102352Z 31006KT 6SM HZ FEW007 BKN020 BKN035 OVC150 16/13 A3014 RMK AO2 SLP202 60004 T01610133 10189 20161 53020=
202311102252 METAR KATL 102252Z 33006KT 5SM BR FEW007 BKN022 BKN030 OVC200 17/14 A3011 RMK AO2 WSHFT 2200 SLP194 T01670144=
202311102236 SPECI KATL 102236Z 33007KT 6SM BR FEW007 SCT012 BKN025 OVC200 17/14 A3011 RMK AO2 WSHFT 2200 T01670144=
202311102216 SPECI KATL 102216Z 33010KT 6SM BR SCT007 BKN012 OVC030 17/15 A3010 RMK AO2 WSHFT 2200 FROPA T01670150=
202311102204 SPECI KATL 102204Z 34012KT 5SM BR BKN007 BKN015 OVC200 18/17 A3010 RMK AO2 T01780167=
202311102152 METAR KATL 102152Z 27003KT 8SM SCT009 BKN018 OVC200 19/16 A3009 RMK AO2 SLP184 T01890161=
202311102118 SPECI KATL 102118Z 25004KT 8SM SCT009 BKN015 OVC150 19/17 A3008 RMK AO2 T01890167=
202311102052 METAR KATL 102052Z 27005KT 8SM BKN009 BKN100 OVC150 18/16 A3007 RMK AO2 SLP180 60004 T01830161 55003=
202311102048 SPECI KATL 102048Z 27005KT 8SM BKN009 BKN100 OVC150 18/16 A3007 RMK AO2=
202311101952 METAR KATL 101952Z 00000KT 8SM SCT009 SCT075 BKN100 OVC150 18/17 A3007 RMK AO2 RAE48 SLP177 P0001 T01830167=
202311101852 METAR KATL 101852Z 25003KT 7SM -RA FEW008 SCT080 OVC100 18/16 A3008 RMK AO2 SLP181 P0003 T01830161=
202311101752 METAR KATL 101752Z 30005KT 6SM -RA BR FEW009 FEW080 OVC100 18/16 A3008 RMK AO2 SLP183 P0001 60001 T01830161 10194 20161 58002=
202311101652 METAR KATL 101652Z 30008KT 9SM -RA FEW012 FEW045 OVC100 19/15 A3010 RMK AO2 RAE02B18E30B51 SLP188 P0000 T01890150=
202311101552 METAR KATL 101552Z 28004KT 9SM -RA FEW042 BKN090 OVC150 19/14 A3010 RMK AO2 RAB32 SLP189 P0000 T01890144=
202311101452 METAR KATL 101452Z 31007KT 10SM BKN110 OVC200 19/14 A3009 RMK AO2 SLP184 FROPA VIRGA E-S-SW T01890144 51015=
202311101352 METAR KATL 101352Z 24005KT 10SM BKN110 BKN140 OVC200 18/14 A3008 RMK AO2 SLP181 VIRGA ALQDS T01780144=
202311101252 METAR KATL 101252Z 25005KT 10SM SCT120 BKN210 BKN250 17/14 A3006 RMK AO2 SLP174 T01720139=
202311101152 METAR KATL 101152Z 22005KT 10SM SCT130 BKN200 BKN250 16/14 A3005 RMK AO2 SLP168 T01610139 10172 20161 51016=
202311101052 METAR KATL 101052Z 22004KT 10SM BKN200 BKN220 17/14 A3004 RMK AO2 SLP165 T01670144=
202311100952 METAR KATL 100952Z 24005KT 10SM FEW190 BKN220 BKN240 17/14 A3003 RMK AO2 SLP161 T01720144=
202311100852 METAR KATL 100852Z 00000KT 10SM SCT190 BKN210 BKN230 17/15 A3000 RMK AO2 SLP151 T01720150 58008=
202311100752 METAR KATL 100752Z 27003KT 10SM BKN210 BKN230 17/15 A3001 RMK AO2 SLP155 T01720150=
202311100652 METAR KATL 100652Z 23003KT 10SM BKN210 BKN250 17/14 A3001 RMK AO2 SLP156 T01720144=
202311100552 METAR KATL 100552Z 00000KT 10SM BKN180 BKN250 17/14 A3002 RMK AO2 SLP160 T01720144 10222 20172 57006=
202311100452 METAR KATL 100452Z 23004KT 10SM FEW200 SCT250 18/15 A3003 RMK AO2 SLP163 T01830150 402560156=
202311100352 METAR KATL 100352Z 23003KT 10SM FEW200 BKN250 18/15 A3003 RMK AO2 SLP164 T01830150=
202311100252 METAR KATL 100252Z 22003KT 10SM FEW040 SCT200 BKN250 19/15 A3004 RMK AO2 SLP167 T01940150 51005=
202311100152 METAR KATL 100152Z 25004KT 10SM FEW050 SCT200 BKN250 21/15 A3004 RMK AO2 SLP167 T02110150=
202311100052 METAR KATL 100052Z 23005KT 10SM FEW045 SCT150 BKN200 BKN250 22/15 A3004 RMK AO2 SLP167 T02170150=
202311092352 METAR KATL 092352Z 22005KT 10SM FEW150 BKN200 BKN250 22/16 A3003 RMK AO2 SLP161 T02220156 10256 20222 53015=
202311092252 METAR KATL 092252Z 21004KT 10SM BKN180 BKN250 23/16 A3000 RMK AO2 SLP153 T02330156=
202311092152 METAR KATL 092152Z 21005KT 10SM FEW002 FEW044 BKN180 BKN250 24/15 A2999 RMK AO2 SLP150 FU FEW002 FU PLUME NE ACC ALQDS T02440150=
202311092052 METAR KATL 092052Z 22005KT 10SM FEW044 BKN180 BKN250 25/16 A2998 RMK AO2 SLP145 ACC N NE SE W T02500156 56018=
202311091952 METAR KATL 091952Z 31007KT 10SM FEW042 BKN180 BKN250 26/16 A2999 RMK AO2 SLP148 ACC E-SE T02560156=
202311091852 METAR KATL 091852Z 29006KT 10SM FEW040 BKN180 BKN250 26/16 A3001 RMK AO2 SLP154 ACC NW-N DSNT SE-S T02560156=
202311091752 METAR KATL 091752Z VRB05KT 10SM FEW038 SCT180 BKN250 25/16 A3004 RMK AO2 SLP164 VIRGA SW ACC N-NE NW T02500156 10256 20156 58012=
202311091652 METAR KATL 091652Z 27007KT 10SM SCT180 BKN250 24/15 A3006 RMK AO2 SLP172 VIRGA SW W ACC NW T02390150=
202311091552 METAR KATL 091552Z 26007KT 10SM FEW150 BKN180 BKN250 22/15 A3007 RMK AO2 SLP177 VIRGA NE SW-W ACC SW-W T02220150=
202311091452 METAR KATL 091452Z 24007KT 10SM FEW150 BKN180 BKN250 21/16 A3007 RMK AO2 SLP177 VIRGA SW-NW T02110156 50005=
202311091352 METAR KATL 091352Z 24004KT 10SM FEW160 BKN180 BKN250 18/14 A3008 RMK AO2 SLP180 VIRGA NW AND DSNT W T01830144=
202311091252 METAR KATL 091252Z 24004KT 10SM CLR 16/14 A3007 RMK AO2 SLP176 T01610139=
202311091152 METAR KATL 091152Z 22004KT 10SM SCT180 BKN210 16/14 A3006 RMK AO2 SLP172 T01610139 10178 20161 51006=
202311091052 METAR KATL 091052Z 24005KT 10SM FEW160 SCT190 BKN230 17/14 A3005 RMK AO2 SLP169 T01720139=
202311090952 METAR KATL 090952Z 25006KT 10SM FEW160 SCT190 BKN240 17/13 A3005 RMK AO2 SLP169 T01720133=
202311090852 METAR KATL 090852Z 26005KT 10SM SCT180 BKN240 17/13 A3004 RMK AO2 SLP165 T01720133 53005=
202311090752 METAR KATL 090752Z 25006KT 10SM FEW190 BKN230 17/13 A3002 RMK AO2 SLP159 T01720128=
202311090652 METAR KATL 090652Z 22004KT 10SM SCT150 SCT190 BKN230 17/12 A3001 RMK AO2 SLP156 T01720122=
202311090552 METAR KATL 090552Z 23006KT 10SM BKN150 18/12 A3002 RMK AO2 SLP160 T01780122 10222 20172 53000=
202311090452 METAR KATL 090452Z 23003KT 10SM BKN200 17/12 A3002 RMK AO2 SLP157 T01720122 402670122=
202311090352 METAR KATL 090352Z 22005KT 10SM FEW200 18/12 A3002 RMK AO2 SLP159 T01780122=
202311090252 METAR KATL 090252Z 22004KT 10SM FEW200 18/13 A3002 RMK AO2 SLP160 T01830128 52005=
202311090152 METAR KATL 090152Z 21003KT 10SM FEW200 19/13 A3002 RMK AO2 SLP159 T01940128=
202311090052 METAR KATL 090052Z 20005KT 10SM FEW200 21/13 A3001 RMK AO2 SLP159 T02060128=
202311082352 METAR KATL 082352Z 20005KT 10SM FEW200 22/13 A3001 RMK AO2 SLP157 T02220128 10267 20222 53001=
202311082252 METAR KATL 082252Z 21006KT 10SM SCT150 23/13 A3001 RMK AO2 SLP156 T02330128=
202311082152 METAR KATL 082152Z 21008KT 10SM FEW150 26/13 A3000 RMK AO2 SLP152 T02560128=
202311082052 METAR KATL 082052Z 23007KT 10SM CLR 26/13 A3000 RMK AO2 SLP154 T02610128 56017=
202311081952 METAR KATL 081952Z 22007KT 10SM FEW050 26/13 A3001 RMK AO2 SLP155 T02610128=
202311081852 METAR KATL 081852Z 20006KT 10SM FEW050 26/13 A3003 RMK AO2 SLP161 T02560133=
202311081752 METAR KATL 081752Z 16004KT 10SM FEW046 26/13 A3006 RMK AO2 SLP171 T02560133 10256 20122 58023=
202311081729 SPECI KATL 081729Z 19007KT 10SM FEW044 25/13 A3007 RMK AO2 T02500133=
202311081652 METAR KATL 081652Z 24005KT 10SM FEW003 FEW042 24/13 A3009 RMK AO2 SLP183 FU FEW003 FU PLUME E T02440133=
202311081552 METAR KATL 081552Z 30005KT 10SM CLR 23/14 A3012 RMK AO2 SLP193 T02330139=
202311081452 METAR KATL 081452Z 31005KT 10SM FEW250 22/13 A3013 RMK AO2 SLP196 T02170133 51014=
202311081352 METAR KATL 081352Z 00000KT 10SM CLR 19/12 A3012 RMK AO2 SLP193 T01890122=
202311081252 METAR KATL 081252Z 00000KT 10SM CLR 14/11 A3011 RMK AO2 SLP191 T01440111=
202311081152 METAR KATL 081152Z 26003KT 10SM CLR 13/09 A3008 RMK AO2 SLP183 T01280094 10167 20128 53014=
202311081052 METAR KATL 081052Z 28003KT 10SM CLR 14/10 A3007 RMK AO2 SLP176 T01390100=
202311080952 METAR KATL 080952Z 29003KT 10SM CLR 14/10 A3006 RMK AO2 SLP171 T01390100=
202311080852 METAR KATL 080852Z 27004KT 10SM CLR 14/10 A3004 RMK AO2 SLP167 T01440100 58002=
202311080752 METAR KATL 080752Z 00000KT 10SM CLR 15/11 A3004 RMK AO2 SLP168 T01500106=
202311080652 METAR KATL 080652Z 00000KT 10SM CLR 16/11 A3005 RMK AO2 SLP168 T01560106=
202311080552 METAR KATL 080552Z 00000KT 10SM CLR 17/11 A3005 RMK AO2 SLP169 T01670106 10211 20167 58002=
202311080452 METAR KATL 080452Z 25004KT 10SM CLR 17/11 A3005 RMK AO2 SLP170 T01720106 402720117=
202311080352 METAR KATL 080352Z 26005KT 10SM CLR 18/11 A3006 RMK AO2 SLP172 T01780106=
202311080252 METAR KATL 080252Z 25005KT 10SM CLR 19/11 A3005 RMK AO2 SLP171 T01890106 53007=
202311080152 METAR KATL 080152Z 24006KT 10SM CLR 19/10 A3004 RMK AO2 SLP167 T01940100=
202311080052 METAR KATL 080052Z 22005KT 10SM CLR 20/11 A3004 RMK AO2 SLP167 T02000106=
202311072352 METAR KATL 072352Z 21004KT 10SM CLR 21/11 A3003 RMK AO2 SLP166 T02110106 10272 20211 53010=
202311072252 METAR KATL 072252Z 20005KT 10SM CLR 23/10 A3002 RMK AO2 SLP162 T02330100=
202311072152 METAR KATL 072152Z 23006KT 10SM CLR 26/09 A3001 RMK AO2 SLP156 T02560089=
202311072052 METAR KATL 072052Z 23009KT 10SM CLR 26/09 A3000 RMK AO2 SLP153 T02610089 56016=
202311071952 METAR KATL 071952Z 22007KT 10SM CLR 26/09 A3001 RMK AO2 SLP156 T02610089=
202311071852 METAR KATL 071852Z 29006KT 10SM CLR 27/10 A3003 RMK AO2 SLP162 T02670100=
202311071752 METAR KATL 071752Z 28008KT 10SM CLR 26/11 A3005 RMK AO2 SLP170 T02560106 10261 20122 58017=
202311071652 METAR KATL 071652Z 31008KT 10SM CLR 24/11 A3009 RMK AO2 SLP183 T02440106=
202311071552 METAR KATL 071552Z 25007KT 10SM CLR 23/10 A3010 RMK AO2 SLP187 T02280100=
202311071452 METAR KATL 071452Z 28009KT 10SM CLR 22/10 A3010 RMK AO2 SLP188 T02170100 50007=
202311071352 METAR KATL 071352Z 26006KT 10SM CLR 19/09 A3011 RMK AO2 SLP190 T01890089=
202311071252 METAR KATL 071252Z 27003KT 10SM FEW250 14/08 A3010 RMK AO2 SLP188 T01390083=
202311071152 METAR KATL 071152Z 29005KT 10SM FEW250 13/08 A3008 RMK AO2 SLP185 T01280078 10144 20117 53010=
202311071052 METAR KATL 071052Z 28004KT 10SM FEW250 12/08 A3007 RMK AO2 SLP181 T01220078=
202311070952 METAR KATL 070952Z 28004KT 10SM FEW250 12/08 A3006 RMK AO2 SLP175 T01220078=
202311070852 METAR KATL 070852Z 28004KT 10SM FEW250 12/08 A3005 RMK AO2 SLP172 T01220078 56002=
202311070752 METAR KATL 070752Z 00000KT 10SM FEW250 12/08 A3005 RMK AO2 SLP172 T01220078=
202311070652 METAR KATL 070652Z 00000KT 10SM FEW250 12/08 A3006 RMK AO2 SLP173 T01220078=
202311070552 METAR KATL 070552Z 00000KT 10SM FEW250 14/08 A3006 RMK AO2 SLP173 T01390083 10194 20139 55003=
202311070452 METAR KATL 070452Z 28003KT 10SM FEW250 15/08 A3006 RMK AO2 SLP172 T01500083 402560094=
202311070352 METAR KATL 070352Z 25003KT 10SM FEW200 16/08 A3007 RMK AO2 SLP176 T01560083=
202311070252 METAR KATL 070252Z 25006KT 10SM FEW200 17/08 A3007 RMK AO2 SLP178 T01720083 50003=
202311070152 METAR KATL 070152Z 23004KT 10SM FEW200 FEW250 17/08 A3007 RMK AO2 SLP179 T01720083=
202311070052 METAR KATL 070052Z 23005KT 10SM FEW200 BKN250 18/08 A3007 RMK AO2 SLP179 T01830078=
202311062352 METAR KATL 062352Z 21004KT 10SM FEW200 BKN250 18/08 A3006 RMK AO2 SLP177 T01830078 10256 20183 53009=
202311062252 METAR KATL 062252Z 21004KT 10SM FEW200 SCT250 21/07 A3005 RMK AO2 SLP171 T02110072=
202311062152 METAR KATL 062152Z 21004KT 10SM SCT200 SCT250 23/06 A3004 RMK AO2 SLP168 T02280061=
202311062052 METAR KATL 062052Z 24007KT 10SM SCT200 SCT250 24/06 A3003 RMK AO2 SLP166 T02440056 56017=
202311061952 METAR KATL 061952Z 24010KT 10SM FEW200 SCT250 24/07 A3004 RMK AO2 SLP165 T02440067=
202311061852 METAR KATL 061852Z 29005KT 10SM FEW200 SCT250 25/07 A3005 RMK AO2 SLP171 T02500067=
202311061752 METAR KATL 061752Z VRB03KT 10SM FEW200 FEW250 24/07 A3008 RMK AO2 SLP182 T02440067 10244 20094 58020=
202311061652 METAR KATL 061652Z 29005KT 10SM FEW250 24/06 A3012 RMK AO2 SLP194 T02390061=
202311061552 METAR KATL 061552Z 00000KT 10SM FEW250 22/06 A3014 RMK AO2 SLP202 T02170061=
202311061452 METAR KATL 061452Z 31004KT 10SM FEW250 17/08 A3015 RMK AO2 SLP205 T01720078 51012=
202311061352 METAR KATL 061352Z 31004KT 10SM FEW250 15/07 A3014 RMK AO2 SLP204 T01500072=
202311061252 METAR KATL 061252Z 32005KT 10SM FEW250 12/07 A3013 RMK AO2 SLP201 T01220072=
202311061152 METAR KATL 061152Z 00000KT 10SM FEW250 10/06 A3011 RMK AO2 SLP195 T01000061 10128 20094 51012=
202311061052 METAR KATL 061052Z 35003KT 10SM FEW250 12/06 A3010 RMK AO2 SLP189 T01170061=
202311060952 METAR KATL 060952Z 31005KT 10SM FEW250 11/06 A3009 RMK AO2 SLP185 T01060061=
202311060852 METAR KATL 060852Z 33004KT 10SM CLR 11/07 A3007 RMK AO2 SLP179 T01110067 58005=
202311060752 METAR KATL 060752Z 30005KT 10SM CLR 12/07 A3008 RMK AO2 SLP182 T01170067=
202311060652 METAR KATL 060652Z 28003KT 10SM CLR 12/07 A3010 RMK AO2 SLP188 T01170067=
202311060552 METAR KATL 060552Z 31007KT 10SM CLR 12/07 A3009 RMK AO2 SLP185 T01220072 10183 20122 50000=
202311060452 METAR KATL 060452Z 30005KT 10SM CLR 13/07 A3010 RMK AO2 SLP187 T01330072 402390089=
202311060352 METAR KATL 060352Z 31005KT 10SM CLR 13/07 A3009 RMK AO2 SLP186 T01330072=
202311060252 METAR KATL 060252Z 31004KT 10SM CLR 15/07 A3009 RMK AO2 SLP187 T01500072 51005=
202311060152 METAR KATL 060152Z 34005KT 10SM CLR 17/07 A3008 RMK AO2 SLP185 T01670072=
202311060052 METAR KATL 060052Z 33006KT 10SM CLR 18/07 A3009 RMK AO2 SLP185 T01830072=
202311052352 METAR KATL 052352Z 30003KT 10SM CLR 18/08 A3008 RMK AO2 SLP182 T01780078 10239 20178 53006=
202311052252 METAR KATL 052252Z 32006KT 10SM CLR 19/07 A3006 RMK AO2 SLP178 T01940072=
202311052152 METAR KATL 052152Z 34007KT 10SM CLR 23/07 A3005 RMK AO2 SLP173 T02280067=
202311052052 METAR KATL 052052Z 32009KT 10SM CLR 23/07 A3006 RMK AO2 SLP175 T02330067 56015=
202311051952 METAR KATL 051952Z 34011G18KT 10SM CLR 23/07 A3006 RMK AO2 SLP176 T02330067=
202311051852 METAR KATL 051852Z 31012KT 10SM CLR 24/07 A3007 RMK AO2 SLP179 T02390067=
202311051752 METAR KATL 051752Z 36008KT 10SM FEW180 23/06 A3010 RMK AO2 SLP191 T02280056 10233 20100 58020=
202311051652 METAR KATL 051652Z 33010KT 10SM FEW180 22/06 A3015 RMK AO2 SLP206 T02220056=
202311051552 METAR KATL 051552Z 30007KT 10SM FEW180 19/05 A3017 RMK AO2 SLP214 VIRGA DSNT E-S T01940050=
202311051452 METAR KATL 051452Z 30005KT 10SM BKN180 14/05 A3017 RMK AO2 SLP214 VIRGA SE-S T01440050 53010=
202311051352 METAR KATL 051352Z 31009KT 10SM BKN220 12/04 A3016 RMK AO2 SLP213 T01220039=
202311051252 METAR KATL 051252Z 31009KT 10SM SCT220 11/03 A3014 RMK AO2 SLP205 T01110033=
202311051152 METAR KATL 051152Z 31008KT 10SM SCT200 11/03 A3013 RMK AO2 SLP203 T01060033 10106 20089 53006=
202311051052 METAR KATL 051052Z 31009KT 10SM FEW200 10/03 A3013 RMK AO2 SLP200 T01000028=
202311050952 METAR KATL 050952Z 31007KT 10SM FEW200 09/03 A3012 RMK AO2 SLP198 T00890033=
202311050852 METAR KATL 050852Z 31008KT 10SM FEW200 09/03 A3012 RMK AO2 SLP196 T00890033 56011=
202311050752 METAR KATL 050752Z 31007KT 10SM FEW200 09/03 A3012 RMK AO2 SLP198 T00940033=
202311050652 METAR KATL 050652Z 31005KT 10SM CLR 10/03 A3013 RMK AO2 SLP200 T01000033=
202311050552 METAR KATL 050552Z 30005KT 10SM CLR 11/03 A3015 RMK AO2 SLP206 T01060033 10161 20106 56012=
202311050452 METAR KATL 050452Z 30005KT 10SM CLR 12/03 A3016 RMK AO2 SLP209 T01220028 402280056=
202311050352 METAR KATL 050352Z 00000KT 10SM CLR 11/04 A3017 RMK AO2 SLP215 T01060039=
202311050252 METAR KATL 050252Z 00000KT 10SM CLR 13/03 A3018 RMK AO2 SLP219 T01280033 53003=
202311050152 METAR KATL 050152Z 30003KT 10SM CLR 13/04 A3017 RMK AO2 SLP218 T01330039=
202311050052 METAR KATL 050052Z 33003KT 10SM CLR 15/03 A3017 RMK AO2 SLP218 T01500033=
202311042352 METAR KATL 042352Z 31003KT 10SM CLR 16/04 A3017 RMK AO2 SLP219 T01610039 10228 20161 55002=
202311042252 METAR KATL 042252Z 28004KT 10SM CLR 18/02 A3017 RMK AO2 SLP215 T01830022=
202311042152 METAR KATL 042152Z 29005KT 10SM CLR 21/02 A3017 RMK AO2 SLP214 T02110017=
202311042052 METAR KATL 042052Z 30008KT 10SM CLR 22/02 A3018 RMK AO2 SLP218 T02220017 56018=
202311041952 METAR KATL 041952Z 32009G16KT 10SM CLR 22/03 A3019 RMK AO2 SLP220 T02220028=
202311041852 METAR KATL 041852Z 30008KT 10SM CLR 22/04 A3020 RMK AO2 SLP225 T02220039=
202311041752 METAR KATL 041752Z 35009G16KT 10SM CLR 21/04 A3023 RMK AO2 SLP236 T02110044 10211 20056 58026=
202311041652 METAR KATL 041652Z 31012G17KT 10SM CLR 21/07 A3027 RMK AO2 SLP249 T02060067=
202311041552 METAR KATL 041552Z 30005KT 10SM CLR 18/04 A3030 RMK AO2 SLP258 T01830044=
202311041452 METAR KATL 041452Z 31007KT 10SM CLR 16/02 A3031 RMK AO2 SLP264 T01560017 50004=
202311041352 METAR KATL 041352Z 32004KT 10SM CLR 11/01 A3032 RMK AO2 SLP266 T01110011=
202311041252 METAR KATL 041252Z 31005KT 10SM CLR 08/02 A3031 RMK AO2 SLP264 T00830022=
202311041152 METAR KATL 041152Z 31003KT 10SM CLR 06/01 A3030 RMK AO2 SLP262 T00610011 10100 20056 50002=
202311041052 METAR KATL 041052Z 00000KT 10SM CLR 06/01 A3030 RMK AO2 SLP262 T00610011=
202311040952 METAR KATL 040952Z 33003KT 10SM CLR 07/01 A3029 RMK AO2 SLP259 T00670006=
202311040852 METAR KATL 040852Z 32005KT 10SM CLR 07/01 A3029 RMK AO2 SLP258 T00720006 55008=
202311040752 METAR KATL 040752Z 00000KT 10SM CLR 08/01 A3029 RMK AO2 SLP256 T00830006=
202311040652 METAR KATL 040652Z 02003KT 10SM CLR 09/M01 A3031 RMK AO2 SLP262 T00941006=
202311040552 METAR KATL 040552Z 08004KT 10SM CLR 09/01 A3032 RMK AO2 SLP266 T00940006 10150 20094 58008=
202311040452 METAR KATL 040452Z 09005KT 10SM CLR 10/01 A3033 RMK AO2 SLP273 T01000006 401890028=
202311040352 METAR KATL 040352Z 10004KT 10SM CLR 11/01 A3034 RMK AO2 SLP273 T01110006=
202311040252 METAR KATL 040252Z 11003KT 10SM CLR 12/01 A3034 RMK AO2 SLP276 T01170011 53004=
202311040152 METAR KATL 040152Z 11003KT 10SM CLR 13/02 A3033 RMK AO2 SLP274 T01280017=
202311040052 METAR KATL 040052Z 11003KT 10SM CLR 14/02 A3033 RMK AO2 SLP273 T01390017=
202311032352 METAR KATL 032352Z 09004KT 10SM CLR 14/01 A3033 RMK AO2 SLP272 T01440011 10189 20144 55000=
202311032252 METAR KATL 032252Z 09004KT 10SM CLR 16/00 A3032 RMK AO2 SLP270 T01610000=
202311032152 METAR KATL 032152Z 04003KT 10SM CLR 19/00 A3033 RMK AO2 SLP271 T01890000=
202311032052 METAR KATL 032052Z 00000KT 10SM CLR 18/00 A3033 RMK AO2 SLP271 T01830000 56024=
202311031952 METAR KATL 031952Z 00000KT 10SM CLR 18/M01 A3034 RMK AO2 SLP276 T01831006=
202311031852 METAR KATL 031852Z 00000KT 10SM CLR 17/M01 A3037 RMK AO2 SLP286 T01721006=
202311031752 METAR KATL 031752Z 14003KT 10SM CLR 16/M01 A3040 RMK AO2 SLP297 T01561011 10156 20044 58021=
202311031652 METAR KATL 031652Z VRB05KT 10SM CLR 14/M03 A3043 RMK AO2 SLP307 T01441028=
202311031552 METAR KATL 031552Z 11006KT 10SM FEW010 13/M04 A3046 RMK AO2 SLP317 FU FEW010 T01281044=
202311031452 METAR KATL 031452Z 10007KT 10SM CLR 11/M04 A3047 RMK AO2 SLP320 T01061044 51015=
202311031352 METAR KATL 031352Z 08006KT 10SM CLR 07/M03 A3046 RMK AO2 SLP319 T00721028=
202311031252 METAR KATL 031252Z 09006KT 10SM CLR 06/M03 A3044 RMK AO2 SLP312 T00611033=
202311031152 METAR KATL 031152Z 08008KT 10SM CLR 04/M04 A3042 RMK AO2 SLP306 T00441039 10050 20028 51007=
202311031052 METAR KATL 031052Z 08005KT 10SM CLR 04/M04 A3042 RMK AO2 SLP304 T00391039=
202311030952 METAR KATL 030952Z 08006KT 10SM CLR 03/M03 A3040 RMK AO2 SLP299 T00331033=
202311030852 METAR KATL 030852Z 09005KT 10SM CLR 03/M03 A3040 RMK AO2 SLP297 T00281033 56007=
202311030752 METAR KATL 030752Z 10005KT 10SM CLR 04/M03 A3041 RMK AO2 SLP300 T00391033=
202311030652 METAR KATL 030652Z 08006KT 10SM CLR 04/M03 A3041 RMK AO2 SLP301 T00391028=
202311030552 METAR KATL 030552Z 08006KT 10SM CLR 04/M03 A3042 RMK AO2 SLP305 T00441028 10111 20044 58007=
202311030452 METAR KATL 030452Z 09005KT 10SM CLR 06/M03 A3043 RMK AO2 SLP309 T00561033 401390017=
202311030352 METAR KATL 030352Z 09006KT 10SM CLR 06/M03 A3044 RMK AO2 SLP311 T00611033=
202311030252 METAR KATL 030252Z 09005KT 10SM CLR 07/M04 A3044 RMK AO2 SLP313 T00721039 51007=
202311030152 METAR KATL 030152Z 12004KT 10SM CLR 08/M03 A3043 RMK AO2 SLP311 T00781033=
202311030052 METAR KATL 030052Z 12003KT 10SM FEW250 09/M04 A3043 RMK AO2 SLP310 T00891039=
202311022352 METAR KATL 022352Z 11005KT 10SM FEW250 11/M06 A3042 RMK AO2 SLP307 T01061056 10139 20106 55001=
202311022252 METAR KATL 022252Z 10006KT 10SM FEW250 11/M06 A3041 RMK AO2 SLP303 T01111056=
202311022152 METAR KATL 022152Z 11004KT 10SM FEW250 13/M06 A3042 RMK AO2 SLP303 T01331061=
202311022052 METAR KATL 022052Z 14006KT 10SM FEW250 13/M07 A3042 RMK AO2 SLP305 T01331072 56014=
202311021952 METAR KATL 021952Z VRB03KT 10SM CLR 14/M06 A3043 RMK AO2 SLP307 T01391061=
202311021852 METAR KATL 021852Z 13007KT 10SM CLR 13/M06 A3045 RMK AO2 SLP315 T01331061=
202311021752 METAR KATL 021752Z 07007KT 10SM CLR 12/M06 A3047 RMK AO2 SLP320 T01221061 10122 20017 58012=
202311021652 METAR KATL 021652Z 09007KT 10SM CLR 10/M06 A3049 RMK AO2 SLP331 T01001061=
202311021552 METAR KATL 021552Z 10009KT 10SM CLR 09/M06 A3050 RMK AO2 SLP334 T00941061=
202311021549 SPECI KATL 021549Z 09010KT 10SM FEW003 09/M06 A3050 RMK AO2 FU FEW003=
202311021452 METAR KATL 021452Z 11009KT 10SM CLR 08/M06 A3050 RMK AO2 SLP334 T00831056 51019=
202311021352 METAR KATL 021352Z 09009KT 10SM CLR 05/M05 A3050 RMK AO2 SLP334 T00501050=
202311021252 METAR KATL 021252Z 08008KT 10SM CLR 03/M06 A3047 RMK AO2 SLP324 T00331056=
202311021152 METAR KATL 021152Z 10006KT 10SM CLR 02/M06 A3044 RMK AO2 SLP315 T00171056 10044 20017 52018=
202311021052 METAR KATL 021052Z 10005KT 10SM CLR 02/M06 A3042 RMK AO2 SLP308 T00221056=
202311020952 METAR KATL 020952Z 08008KT 10SM CLR 03/M05 A3041 RMK AO2 SLP301 T00281050=
202311020852 METAR KATL 020852Z 09007KT 10SM CLR 03/M05 A3039 RMK AO2 SLP294 T00281050 51008=
202311020752 METAR KATL 020752Z 00000KT 10SM CLR 03/M04 A3038 RMK AO2 SLP291 T00331044=
202311020652 METAR KATL 020652Z 08003KT 10SM CLR 04/M05 A3037 RMK AO2 SLP289 T00391050=
202311020552 METAR KATL 020552Z 04004KT 10SM CLR 04/M06 A3036 RMK AO2 SLP285 T00441061 10083 20039 53004=
202311020452 METAR KATL 020452Z 33005KT 10SM CLR 04/M06 A3036 RMK AO2 SLP285 T00391056 401280011=
202311020352 METAR KATL 020352Z 33004KT 10SM CLR 05/M06 A3035 RMK AO2 SLP283 T00501056=
202311020252 METAR KATL 020252Z 31004KT 10SM CLR 05/M06 A3035 RMK AO2 SLP282 T00501056 51013=
202311020152 METAR KATL 020152Z 33007KT 10SM CLR 06/M06 A3033 RMK AO2 SLP278 T00611061=
202311020052 METAR KATL 020052Z 31007KT 10SM CLR 07/M06 A3033 RMK AO2 SLP276 T00671056=
202311012352 METAR KATL 012352Z 32008KT 10SM CLR 08/M06 A3031 RMK AO2 SLP270 T00831061 10128 20083 53016=
202311012252 METAR KATL 012252Z 32006KT 10SM CLR 09/M07 A3028 RMK AO2 SLP259 T00941067=
202311012152 METAR KATL 012152Z 33009KT 10SM CLR 12/M07 A3026 RMK AO2 SLP253 T01171072=
202311012052 METAR KATL 012052Z 01008G14KT 10SM CLR 12/M09 A3026 RMK AO2 SLP251 T01221094 55007=
202311011952 METAR KATL 011952Z 35009KT 10SM CLR 12/M09 A3026 RMK AO2 SLP250 T01221094=
202311011852 METAR KATL 011852Z 36008KT 10SM CLR 12/M09 A3027 RMK AO2 SLP253 T01171094=
202311011752 METAR KATL 011752Z 36009G18KT 10SM CLR 11/M09 A3028 RMK AO2 SLP258 T01061094 10106 20011 58008=
202311011652 METAR KATL 011652Z 02013G25KT 10SM CLR 09/M10 A3031 RMK AO2 SLP268 T00891100=
202311011552 METAR KATL 011552Z 36008G17KT 10SM CLR 07/M08 A3031 RMK AO2 SLP269 T00721083=
202311011452 METAR KATL 011452Z 36013G22KT 10SM CLR 06/M08 A3031 RMK AO2 SLP267 T00561083 51023=
202311011352 METAR KATL 011352Z 34015G24KT 10SM CLR 03/M08 A3029 RMK AO2 SLP262 T00331078=
202311011252 METAR KATL 011252Z 34011KT 10SM CLR 02/M07 A3027 RMK AO2 SLP255 T00171072=
