##########################################################
# Query made at 04/20/2024 00:25:40 UTC
# Time interval: from 01/01/2023 12:00  to 01/31/2023 12:59  UTC
##########################################################

##########################################################
# KATL, Atlanta, Hartsfield - Jackson Atlanta International Airport (United States)
# WMO index: 72219. WIGOS ID: 0-20000-0-72219
# Latitude 33-38-59N. Longitude 084-25-00W. Altitude 312 m.
##########################################################

202301311252 METAR KATL 311252Z 19005KT 1/2SM R09R/3500VP6000FT FG VV003 13/12 A3015 RMK AO2 DZE13 SLP209 P0000 T01330122=
202301311152 METAR KATL 311152Z 19005KT 1/2SM R09R/2800V3500FT -DZ FG VV002 13/13 A3016 RMK AO2 DZB06 SLP210 P0000 60000 T01330128 10139 20128 55001=
202301311052 METAR KATL 311052Z 00000KT 1/2SM R09R/2400V3500FT FG VV002 13/12 A3015 RMK AO2 SLP209 T01280122=
202301311041 SPECI KATL 311041Z 00000KT 3/4SM R09R/4000VP6000FT BR OVC003 13/12 A3016 RMK AO2 T01330122=
202301311031 SPECI KATL 311031Z 00000KT 1 1/4SM BR OVC003 13/12 A3016 RMK AO2 T01330122=
202301310952 METAR KATL 310952Z 00000KT 2 1/2SM BR OVC003 13/12 A3015 RMK AO2 SLP209 T01330122=
202301310852 METAR KATL 310852Z 35003KT 4SM BR OVC003 13/12 A3016 RMK AO2 SLP211 T01330122 58005=
202301310752 METAR KATL 310752Z 31006KT 3SM BR OVC003 13/12 A3017 RMK AO2 SLP214 T01330122=
202301310703 SPECI KATL 310703Z 29005KT 3SM BR OVC004 14/13 A3017 RMK AO2 T01390128=
202301310652 METAR KATL 310652Z 30004KT 4SM BR OVC005 14/13 A3017 RMK AO2 SLP214 T01390128=
202301310552 METAR KATL 310552Z 00000KT 4SM BR OVC005 14/13 A3017 RMK AO2 SLP216 T01390128 10150 20139 55007=
202301310452 METAR KATL 310452Z 00000KT 6SM BR OVC006 14/13 A3017 RMK AO2 SLP215 T01440128 401610094=
202301310352 METAR KATL 310352Z 18005KT 7SM OVC008 14/12 A3018 RMK AO2 SLP219 BINOVC T01390122=
202301310252 METAR KATL 310252Z 28003KT 8SM BKN010 BKN140 BKN200 14/12 A3020 RMK AO2 SLP225 T01390122 53004=
202301310152 METAR KATL 310152Z 00000KT 9SM BKN011 BKN140 BKN200 14/12 A3018 RMK AO2 SLP220 T01440122=
202301310052 METAR KATL 310052Z 00000KT 10SM OVC010 15/12 A3019 RMK AO2 SLP223 BINOVC T01500122=
202301302352 METAR KATL 302352Z 32003KT 10SM BKN010 OVC200 15/12 A3018 RMK AO2 SLP221 60000 T01500122 10161 20144 53008=
202301302252 METAR KATL 302252Z 32004KT 10SM BKN010 BKN140 OVC200 15/13 A3018 RMK AO2 SLP219 T01500128=
202301302152 METAR KATL 302152Z 00000KT 7SM BKN008 BKN020 BKN140 BKN200 15/13 A3016 RMK AO2 SLP212 T01500128=
202301302052 METAR KATL 302052Z 31004KT 7SM BKN007 OVC014 15/13 A3016 RMK AO2 DZE39 SLP213 CIG 006V009 P0000 60000 T01500128 55003=
202301301952 METAR KATL 301952Z 35006KT 3SM -DZ BR OVC008 15/13 A3015 RMK AO2 DZB45 SLP210 CIG 006V010 P0000 T01500128=
202301301945 SPECI KATL 301945Z 35006KT 2 1/2SM -DZ BR OVC008 15/13 A3015 RMK AO2 DZB45 CIG 006V010 P0000 T01500128=
202301301852 METAR KATL 301852Z 00000KT 8SM OVC012 16/12 A3015 RMK AO2 SLP209 T01610122=
202301301752 METAR KATL 301752Z 00000KT 7SM OVC010 14/12 A3017 RMK AO2 SLP216 CIG 009V012 60000 T01440117 10144 20094 58011=
202301301652 METAR KATL 301652Z 10004KT 7SM OVC007 13/11 A3020 RMK AO2 SLP226 CIG 006V008 T01330111=
202301301552 METAR KATL 301552Z 05005KT 6SM BR OVC005 12/11 A3021 RMK AO2 SLP230 CIG 004V007 T01220106=
202301301452 METAR KATL 301452Z 09005KT 1 1/2SM BR OVC004 11/09 A3020 RMK AO2 SFC VIS 5 SLP228 CIG 003V006 TWRINC 60000 T01110094 53014=
202301301352 METAR KATL 301352Z 10004KT 3SM BR BKN005 OVC040 10/09 A3018 RMK AO2 SFC VIS 6 RAB05E14 SLP222 P0000 T01000089=
202301301252 METAR KATL 301252Z 12004KT 3SM BR OVC006 09/08 A3016 RMK AO2 SFC VIS 6 RAE1157 SLP216 CIG 005V008 P0000 T00940083=
202301301237 SPECI KATL 301237Z 10005KT 3SM BR BKN007 OVC012 09/08 A3016 RMK AO2 SFC VIS 6 RAE1157 P0000 T00940083=
202301301152 METAR KATL 301152Z 09005KT 2SM -RA BR BKN004 OVC009 09/08 A3016 RMK AO2 SFC VIS 6 SLP214 CIG 003V005 TWRINC P0003 60016 70078 T00940083 10100 20094 53002=
202301301052 METAR KATL 301052Z 08009KT 2SM -RA BR BKN004 OVC028 09/08 A3013 RMK AO2 SFC VIS 4 PRESFR SLP204 CIG 003V005 TWRINC P0001 T00940083 $=
202301300952 METAR KATL 300952Z 08007KT 2SM -RA BR OVC004 09/09 A3016 RMK AO2 SFC VIS 6 SLP213 CIG 003V005 TWRINC P0003 T00940089 $=
202301300852 METAR KATL 300852Z 08007KT 2SM -RA BR OVC004 10/09 A3015 RMK AO2 SFC VIS 6 SLP212 P0005 60009 T01000089 56006 $=
202301300752 METAR KATL 300752Z 05007KT 2SM -RA BR OVC004 10/09 A3016 RMK AO2 SFC VIS 3 SLP214 CIG 003V005 P0002 T01000089 $=
202301300652 METAR KATL 300652Z 06005KT 2SM -RA BR BKN004 OVC008 10/09 A3015 RMK AO2 SFC VIS 5 SLP212 CIG 003V005 TWRINC P0002 T01000089 $=
202301300552 METAR KATL 300552Z 10004KT 2SM -RA BR BKN004 OVC008 10/09 A3017 RMK AO2 SFC VIS 4 SLP218 CIG 003V005 TWRINC P0009 60057 T01000089 10100 20094 55010 $=
202301300452 METAR KATL 300452Z 09006KT 1/2SM R09R/P6000FT RA BR OVC003 10/09 A3016 RMK AO2 SFC VIS 5 SLP213 TWRINC P0006 T01000089 401280056 $=
202301300426 SPECI KATL 300426Z 11006KT 1/2SM R09R/P6000FT -RA BR OVC003 10/09 A3018 RMK AO2 SFC VIS 5 TWRINC P0004 T01000089 $=
202301300352 METAR KATL 300352Z 08008KT 4SM RA BR BKN003 OVC055 10/09 A3020 RMK AO2 SLP227 P0008 T01000089 $=
202301300252 METAR KATL 300252Z 08009KT 4SM RA BR BKN004 BKN010 OVC050 10/09 A3020 RMK AO2 SLP229 P0017 60034 T01000089 58004 $=
202301300250 SPECI KATL 300250Z 09009KT 4SM RA BR BKN004 BKN010 OVC050 10/09 A3020 RMK AO2 P0016 $=
202301300152 METAR KATL 300152Z 13005KT 4SM RA BR BKN005 OVC014 10/09 A3024 RMK AO2 SLP242 P0012 T01000089 $=
202301300052 METAR KATL 300052Z 11005KT 4SM -RA BR BKN005 BKN010 OVC020 10/09 A3022 RMK AO2 SLP235 BKN005 V SCT P0005 T01000089 $=
202301300039 SPECI KATL 300039Z 11007KT 4SM -RA BR BKN005 BKN010 OVC020 10/09 A3022 RMK AO2 P0003 T01000089 $=
202301292352 METAR KATL 292352Z 10005KT 5SM -RA BR FEW006 BKN025 OVC042 10/09 A3021 RMK AO2 SLP232 P0005 60005 T01000089 10128 20100 53008 $=
202301292326 SPECI KATL 292326Z 10007KT 5SM RA BR FEW008 BKN025 OVC048 11/09 A3020 RMK AO2 P0002 T01060089 $=
202301292252 METAR KATL 292252Z 8SM -RA FEW020 BKN048 OVC095 11/09 A3019 RMK AO2 SLP226 P0000 T01060089 $=
202301292152 METAR KATL 292152Z 08007KT 6SM -RA SCT025 BKN055 OVC080 12/08 A3019 RMK AO2 RAB12 SLP227 P0000 T01170083 $=
202301292052 METAR KATL 292052Z 08006KT 8SM SCT024 BKN065 OVC080 12/08 A3018 RMK AO2 SLP223 T01220078 55019 $=
202301291952 METAR KATL 291952Z 13003KT 10SM SCT022 BKN060 OVC075 12/07 A3018 RMK AO2 SLP222 T01220072 $=
202301291852 METAR KATL 291852Z 15003KT 10SM OVC015 12/07 A3021 RMK AO2 SLP233 T01170067=
202301291839 SPECI KATL 291839Z 14005KT 10SM OVC015 12/06 A3021 RMK AO2 T01170061=
202301291752 METAR KATL 291752Z 11004KT 10SM BKN013 OVC021 11/06 A3024 RMK AO2 SLP243 T01110061 10111 20056 58009=
202301291652 METAR KATL 291652Z 00000KT 10SM OVC011 11/06 A3027 RMK AO2 SLP254 T01060061=
202301291552 METAR KATL 291552Z 30003KT 10SM BKN011 OVC018 11/05 A3029 RMK AO2 SLP260 T01060050=
202301291535 SPECI KATL 291535Z 00000KT 10SM BKN011 OVC018 10/04 A3029 RMK AO2 T01000039=
202301291452 METAR KATL 291452Z 13003KT 10SM OVC018 08/02 A3027 RMK AO2 SLP253 T00830017 53003=
202301291426 SPECI KATL 291426Z 13007KT 10SM BKN018 OVC032 08/01 A3026 RMK AO2 T00780011=
202301291352 METAR KATL 291352Z 13005KT 10SM FEW016 FEW085 BKN200 BKN250 07/00 A3024 RMK AO2 SLP244 VIRGA OHD-ALQDS T00670000=
202301291252 METAR KATL 291252Z 12005KT 10SM FEW085 SCT180 BKN220 BKN250 06/M01 A3025 RMK AO2 SLP247 VIRGA OHD-SW T00611011=
202301291152 METAR KATL 291152Z 00000KT 10SM FEW085 SCT180 BKN250 06/M01 A3026 RMK AO2 SLP250 T00611011 10089 20056 55005=
202301291052 METAR KATL 291052Z 12004KT 10SM BKN085 BKN180 BKN250 06/M02 A3025 RMK AO2 SLP246 T00611017=
202301290952 METAR KATL 290952Z 12003KT 10SM FEW085 SCT150 SCT250 06/M02 A3026 RMK AO2 SLP249 T00561017=
202301290852 METAR KATL 290852Z 12003KT 10SM FEW150 SCT180 BKN250 07/M02 A3027 RMK AO2 SLP253 T00671017 56014=
202301290752 METAR KATL 290752Z 13003KT 10SM FEW150 SCT180 BKN250 07/M02 A3028 RMK AO2 SLP257 T00721017=
202301290652 METAR KATL 290652Z 14004KT 10SM FEW150 SCT180 BKN250 08/M02 A3030 RMK AO2 SLP260 T00781022=
202301290552 METAR KATL 290552Z 19003KT 10SM FEW090 SCT180 BKN210 BKN240 09/M03 A3032 RMK AO2 SLP267 T00891028 10122 20083 58007=
202301290452 METAR KATL 290452Z 15005KT 10SM SCT150 BKN180 BKN250 09/M03 A3032 RMK AO2 SLP268 T00941028 401440000=
202301290352 METAR KATL 290352Z 18006KT 10SM SCT150 BKN180 OVC200 09/M03 A3034 RMK AO2 SLP276 T00941033=
202301290252 METAR KATL 290252Z 14005KT 10SM FEW090 BKN250 09/M03 A3034 RMK AO2 SLP275 T00891033 50012=
202301290152 METAR KATL 290152Z 00000KT 10SM BKN090 BKN250 10/M03 A3034 RMK AO2 SLP278 T01001033=
202301290052 METAR KATL 290052Z 16005KT 10SM BKN090 BKN250 10/M04 A3032 RMK AO2 SLP272 T01001039=
202301282352 METAR KATL 282352Z 10009KT 10SM FEW090 BKN250 BKN300 12/M04 A3030 RMK AO2 SLP266 T01171044 10144 20117 58003=
202301282252 METAR KATL 282252Z 00000KT 10SM FEW070 SCT120 BKN200 13/M06 A3031 RMK AO2 SLP269 T01331061=
202301282152 METAR KATL 282152Z 14004KT 10SM FEW070 SCT120 BKN200 14/M06 A3031 RMK AO2 SLP266 T01441056=
202301282052 METAR KATL 282052Z VRB04KT 10SM FEW070 SCT120 BKN200 14/M07 A3031 RMK AO2 SLP268 T01391067 56020=
202301281952 METAR KATL 281952Z 21004KT 10SM SCT070 BKN120 BKN200 13/M06 A3032 RMK AO2 SLP270 T01331061=
202301281852 METAR KATL 281852Z VRB03KT 10SM SCT070 BKN130 BKN200 14/M04 A3035 RMK AO2 SLP279 T01391044=
202301281752 METAR KATL 281752Z VRB04KT 10SM SCT065 BKN140 BKN200 12/M05 A3037 RMK AO2 SLP290 T01221050 10128 20000 58017=
202301281652 METAR KATL 281652Z VRB03KT 10SM SCT070 SCT150 BKN250 12/M04 A3041 RMK AO2 SLP302 T01171039=
202301281552 METAR KATL 281552Z 30005KT 10SM FEW070 SCT150 BKN250 12/M03 A3043 RMK AO2 SLP308 T01171028=
202301281452 METAR KATL 281452Z 00000KT 10SM FEW070 SCT150 BKN250 09/M02 A3042 RMK AO2 SLP307 T00941022 51012=
202301281352 METAR KATL 281352Z 00000KT 10SM FEW150 SCT250 04/M01 A3041 RMK AO2 SLP305 T00441011=
202301281252 METAR KATL 281252Z 00000KT 10SM FEW200 FEW250 01/M02 A3040 RMK AO2 SLP302 T00061022=
202301281152 METAR KATL 281152Z 00000KT 10SM CLR 01/M03 A3039 RMK AO2 SLP296 T00111028 10033 20006 53012=
202301281052 METAR KATL 281052Z 27003KT 10SM CLR 01/M03 A3038 RMK AO2 SLP291 T00111028=
202301280952 METAR KATL 280952Z 00000KT 10SM CLR 02/M03 A3036 RMK AO2 SLP286 T00221028=
202301280852 METAR KATL 280852Z 28005KT 10SM CLR 03/M03 A3035 RMK AO2 SLP282 T00331028 53008=
202301280752 METAR KATL 280752Z 26003KT 10SM CLR 03/M03 A3034 RMK AO2 SLP279 T00281028=
202301280652 METAR KATL 280652Z 00000KT 10SM CLR 02/M02 A3033 RMK AO2 SLP276 T00221022=
202301280552 METAR KATL 280552Z 21005KT 10SM CLR 03/M02 A3033 RMK AO2 SLP275 T00331022 10083 20033 58001=
202301280452 METAR KATL 280452Z 22006KT 10SM CLR 04/M02 A3034 RMK AO2 SLP279 T00441022 401111006=
202301280352 METAR KATL 280352Z 22006KT 10SM CLR 05/M03 A3034 RMK AO2 SLP279 T00501028=
202301280252 METAR KATL 280252Z 23005KT 10SM CLR 05/M03 A3033 RMK AO2 SLP278 T00501028 53016=
202301280152 METAR KATL 280152Z 23003KT 10SM FEW200 06/M02 A3031 RMK AO2 SLP273 T00561022=
202301280052 METAR KATL 280052Z 24003KT 10SM FEW200 07/M03 A3029 RMK AO2 SLP266 T00671028=
202301272352 METAR KATL 272352Z 26003KT 10SM FEW200 SCT250 08/M04 A3028 RMK AO2 SLP261 T00781039 10111 20078 53009 $=
202301272252 METAR KATL 272252Z 27008KT 10SM SCT200 SCT250 09/M04 A3027 RMK AO2 SLP256 T00941044=
202301272152 METAR KATL 272152Z 27010KT 10SM FEW055 FEW200 FEW250 11/M03 A3026 RMK AO2 SLP252 T01061028=
202301272052 METAR KATL 272052Z 27009G15KT 10SM FEW055 FEW200 FEW250 11/M03 A3025 RMK AO2 SLP250 T01111033 56016=
202301271952 METAR KATL 271952Z 28010G23KT 10SM FEW055 FEW200 FEW250 11/M04 A3025 RMK AO2 SLP250 T01061039=
202301271852 METAR KATL 271852Z VRB06G16KT 10SM FEW050 FEW200 SCT250 10/M03 A3027 RMK AO2 SLP257 T01001033=
202301271752 METAR KATL 271752Z 27008KT 10SM FEW045 FEW200 08/M03 A3030 RMK AO2 SLP266 T00831028 10089 21006 58017=
202301271652 METAR KATL 271652Z 28009KT 10SM FEW200 07/M03 A3033 RMK AO2 SLP278 T00721028=
202301271552 METAR KATL 271552Z 30008KT 10SM FEW200 05/M03 A3036 RMK AO2 SLP286 T00501033=
202301271452 METAR KATL 271452Z 30007KT 10SM FEW200 FEW250 03/M03 A3035 RMK AO2 SLP286 T00281033 53020=
202301271352 METAR KATL 271352Z 29009KT 10SM FEW250 02/M03 A3033 RMK AO2 SLP278 T00171033=
202301271252 METAR KATL 271252Z 28007KT 10SM FEW250 M01/M04 A3031 RMK AO2 SLP272 T10061039=
202301271152 METAR KATL 271152Z 28006KT 10SM CLR M01/M04 A3029 RMK AO2 SLP266 T10061039 10022 21006 53014=
202301271052 METAR KATL 271052Z 27006KT 10SM CLR M01/M04 A3027 RMK AO2 SLP259 T10061039=
202301270952 METAR KATL 270952Z 28005KT 10SM CLR 00/M04 A3025 RMK AO2 SLP250 T00001039=
202301270852 METAR KATL 270852Z 29008KT 10SM CLR 01/M03 A3025 RMK AO2 SLP249 T00061033 53012=
202301270752 METAR KATL 270752Z 28007KT 10SM FEW040 01/M03 A3024 RMK AO2 SLP245 T00111028=
202301270652 METAR KATL 270652Z 28006KT 10SM FEW040 02/M03 A3022 RMK AO2 SLP240 T00171028=
202301270552 METAR KATL 270552Z 28006KT 10SM FEW040 02/M03 A3021 RMK AO2 SLP237 T00221028 10061 20022 51007=
202301270452 METAR KATL 270452Z 27007KT 10SM FEW050 03/M03 A3021 RMK AO2 SLP236 T00331028 401000022=
202301270352 METAR KATL 270352Z 26005KT 10SM FEW050 03/M02 A3020 RMK AO2 SLP233 T00331022=
202301270252 METAR KATL 270252Z 27006KT 10SM FEW050 04/M02 A3019 RMK AO2 SLP230 T00391022 53010=
202301270152 METAR KATL 270152Z 31004KT 10SM CLR 04/M02 A3018 RMK AO2 SLP226 T00441022=
202301270052 METAR KATL 270052Z 30005KT 10SM CLR 05/M02 A3017 RMK AO2 SLP223 T00501022=
202301262352 METAR KATL 262352Z 29005KT 10SM FEW055 FEW250 06/M02 A3016 RMK AO2 SLP220 T00611022 10100 20061 53016=
202301262252 METAR KATL 262252Z 29009KT 10SM FEW055 FEW250 08/M03 A3014 RMK AO2 SLP212 T00781028=
202301262152 METAR KATL 262152Z 29012KT 10SM FEW055 FEW250 08/M03 A3013 RMK AO2 SLP207 T00831033=
202301262052 METAR KATL 262052Z 30014G20KT 10SM FEW048 09/M03 A3011 RMK AO2 SLP202 T00941028 55008=
202301261952 METAR KATL 261952Z 28014G21KT 10SM FEW046 FEW200 09/M03 A3011 RMK AO2 SLP199 T00891028=
202301261852 METAR KATL 261852Z 28009G21KT 10SM FEW044 SCT055 SCT200 08/M02 A3012 RMK AO2 SLP203 T00831022=
202301261752 METAR KATL 261752Z 29015G22KT 10SM FEW042 SCT050 BKN180 07/M03 A3014 RMK AO2 SLP210 T00721028 10078 20022 50002=
202301261652 METAR KATL 261652Z 29013KT 10SM BKN036 BKN050 06/M02 A3016 RMK AO2 SLP218 T00611022=
202301261552 METAR KATL 261552Z 30014G25KT 10SM SCT028 BKN038 06/M01 A3015 RMK AO2 PK WND 32026/1509 SLP215 T00611011=
202301261452 METAR KATL 261452Z 29012KT 10SM FEW026 BKN035 BKN055 05/00 A3013 RMK AO2 SLP208 T00500000 51027=
202301261352 METAR KATL 261352Z 27010KT 10SM FEW022 BKN033 BKN060 04/00 A3010 RMK AO2 SLP198 T00390000=
202301261252 METAR KATL 261252Z 26009KT 10SM FEW022 BKN031 03/M01 A3008 RMK AO2 SLP191 T00281006=
202301261152 METAR KATL 261152Z 29008KT 10SM FEW022 SCT033 02/M01 A3005 RMK AO2 SLP179 70020 T00221011 10050 20022 53015=
202301261052 METAR KATL 261052Z 28011KT 10SM FEW022 BKN034 03/M01 A3003 RMK AO2 SLP173 BKN034 V SCT T00281006=
202301260952 METAR KATL 260952Z 28008KT 10SM FEW022 FEW035 03/00 A3002 RMK AO2 SLP166 BKN022 V SCT T00330000=
202301260949 SPECI KATL 260949Z 28008KT 10SM FEW022 SCT033 03/00 A3001 RMK AO2 BKN022 V SCT=
202301260927 SPECI KATL 260927Z 28007KT 10SM BKN022 BKN030 03/00 A3001 RMK AO2 BKN022 V SCT T00330000=
202301260852 METAR KATL 260852Z 27011KT 10SM BKN032 04/00 A3000 RMK AO2 SLP160 T00390000 51012=
202301260752 METAR KATL 260752Z 27008KT 10SM FEW032 04/M01 A2999 RMK AO2 SLP156 T00391006=
202301260749 SPECI KATL 260749Z 27010KT 10SM FEW032 04/M01 A2999 RMK AO2=
202301260652 METAR KATL 260652Z 29011KT 10SM FEW020 BKN028 BKN040 04/M01 A2998 RMK AO2 SLP152 T00441006=
202301260635 SPECI KATL 260635Z 29015G21KT 10SM FEW020 BKN028 BKN040 04/00 A2998 RMK AO2 T00440000=
202301260552 METAR KATL 260552Z 28008KT 10SM FEW019 SCT025 BKN038 05/01 A2997 RMK AO2 RAE0458B31E47 SLP147 P0000 60000 T00500011 10111 20050 51013=
202301260452 METAR KATL 260452Z 27016G24KT 10SM -RA SCT025 BKN032 BKN040 06/01 A2996 RMK AO2 RAB41 SLP146 P0000 T00560011 401830056=
202301260352 METAR KATL 260352Z 28012KT 10SM FEW028 06/01 A2995 RMK AO2 SLP143 T00610011=
202301260252 METAR KATL 260252Z 28014G22KT 10SM BKN030 BKN042 08/01 A2993 RMK AO2 PK WND 28034/0220 SLP135 T00780011 51031=
202301260152 METAR KATL 260152Z 28013G22KT 10SM BKN032 BKN120 09/02 A2989 RMK AO2 PK WND 27028/0126 SLP123 T00890022=
202301260052 METAR KATL 260052Z 28015G22KT 10SM FEW030 SCT038 BKN120 09/03 A2987 RMK AO2 PK WND 29028/0041 SLP115 T00940028=
202301252352 METAR KATL 252352Z 28015G24KT 10SM SCT030 BKN120 BKN200 11/06 A2983 RMK AO2 SLP102 T01110056 10183 20111 53031=
202301252252 METAR KATL 252252Z 26015G22KT 10SM FEW028 SCT110 SCT150 BKN200 13/07 A2980 RMK AO2 SLP090 T01280067=
202301252152 METAR KATL 252152Z 26014G21KT 10SM FEW041 SCT100 SCT150 BKN200 16/09 A2975 RMK AO2 SLP074 MDT CU DSNT NE E-SE T01610089=
202301252052 METAR KATL 252052Z 23012KT 10SM FEW038 SCT110 BKN150 BKN200 17/08 A2974 RMK AO2 SLP068 T01720083 55008=
202301251952 METAR KATL 251952Z 22012G19KT 10SM FEW038 BKN110 BKN150 BKN200 17/10 A2974 RMK AO2 SLP068 ACC SW T01720100=
202301251852 METAR KATL 251852Z 21007G17KT 10SM FEW034 BKN100 BKN150 BKN200 18/11 A2972 RMK AO2 SLP061 ACC DSNT W-NW T01780106=
202301251816 SPECI KATL 251816Z 23009G17KT 10SM SCT032 SCT050 BKN100 BKN200 18/11 A2973 RMK AO2 MDT CU DSNT NE-SE T01830106=
202301251752 METAR KATL 251752Z 24013G20KT 10SM BKN026 BKN048 BKN120 BKN200 18/12 A2976 RMK AO2 SLP077 MDT CU ALQDS 60020 T01780117 10183 20117 58010=
202301251652 METAR KATL 251652Z 21007G14KT 10SM BKN016TCU BKN028 BKN050 BKN150 17/14 A2978 RMK AO2 SLP084 TCU N MDT CU ALQDS T01670139=
202301251552 METAR KATL 251552Z 21009KT 2SM BKN010 OVC018 16/13 A2980 RMK AO2 SFC VIS 8 SLP092 CIG 008V012 MDT CU OHD-ALQDS BINOVC T01560133=
202301251545 SPECI KATL 251545Z 21010G17KT 2SM BKN008 OVC016 16/13 A2981 RMK AO2 SFC VIS 8 MDT CU OHD-ALQDS BINOVC T01560133=
202301251543 SPECI KATL 251543Z 20009G17KT 2SM SCT005 OVC011 16/13 A2981 RMK AO2 SFC VIS 7 BINOVC T01560133=
202301251510 SPECI KATL 251510Z 20006KT 2SM BKN004 OVC014 14/13 A2981 RMK AO2 SFC VIS 7 BINOVC T01440128=
202301251452 METAR KATL 251452Z 19006KT 2SM SCT004 SCT014 SCT070 BKN150 14/13 A2980 RMK AO2 SFC VIS 7 RAE02 SLP090 TCU DSNT E P0000 60020 T01390128 55011=
202301251447 SPECI KATL 251447Z 18007KT 2SM SCT004 SCT014 BKN070 BKN200 14/13 A2979 RMK AO2 SFC VIS 8 RAE02 P0000=
202301251352 METAR KATL 251352Z 14007KT 1 1/2SM -RA BR BKN004 BKN012 OVC075 12/11 A2979 RMK AO2 SFC VIS 5 PRESFR SLP086 CIG 003V006 P0006 T01220111=
202301251331 SPECI KATL 251331Z 14006KT 1 1/2SM -RA BR FEW003 BKN006 OVC012 12/11 A2981 RMK AO2 SFC VIS 6 CIG 005V009 P0005 T01220111=
202301251313 SPECI KATL 251313Z 00000KT 1 1/2SM -RA BR SCT005 BKN013 OVC037 12/12 A2981 RMK AO2 SFC VIS 4 P0004 T01220117=
202301251252 METAR KATL 251252Z 18004KT 1 1/2SM -RA BR BKN006 OVC014 12/11 A2982 RMK AO2 SFC VIS 5 SLP097 CIG 004V008 P0014 T01170111=
202301251232 SPECI KATL 251232Z 21004KT 1 1/2SM RA BR BKN005 OVC012 12/11 A2982 RMK AO2 SFC VIS 3 P0012 T01170111=
202301251220 SPECI KATL 251220Z 20004KT 1 1/2SM -RA BR SCT005 BKN013 OVC035 12/11 A2982 RMK AO2 SFC VIS 6 P0010 T01170111=
202301251204 SPECI KATL 251204Z 20011G17KT 1 1/2SM -RA BR BKN005 BKN010CB OVC037 12/11 A2982 RMK AO2 SFC VIS 5 CB OHD-N-E-S MOV NE P0009 T01170106=
202301251152 METAR KATL 251152Z 24010G15KT 1 1/2SM -RA BR OVC005CB 12/11 A2983 RMK AO2 SFC VIS 2 1/2 TSE1057 PRESRR SLP101 CIG 004V008 TS DSIPTD CB OHD-ALQDS MOV NE P0022 60053 70053 T01170106 10117 20083 55022=
202301251058 SPECI KATL 251058Z 14011G17KT 1 1/2SM +RA BR OVC004CB 11/09 A2981 RMK AO2 SFC VIS 2 TSE57 CIG 003V005 TS DSIPTD CB OHD-ALQDS MOV NE P0004 T01060094 $=
202301251052 METAR KATL 251052Z 14011G17KT 1 1/2SM +TSRA BR OVC004CB 11/09 A2980 RMK AO2 SFC VIS 2 1/2 TSB22 SLP091 CIG 003V005 OCNL LTGICCG VC NE SE TS VC NE SE MOV NE CB OHD-ALQDS MOV NE P0022 T01060094 $=
202301251022 SPECI KATL 251022Z 14010G22KT 1 1/2SM -TSRA BR OVC004CB 10/09 A2980 RMK AO2 SFC VIS 4 LTG DSNT SE TSB22 OCNL LTGIC SE TS SE MOV NE CB OHD-ALQDS MOV NE P0007 T01000089 $=
202301250952 METAR KATL 250952Z 13011G22KT 1 1/2SM -RA BR OVC004 09/08 A2982 RMK AO2 SFC VIS 6 RAE15B44 PRESFR SLP097 CIG 003V005 P0000 T00940083 $=
202301250937 SPECI KATL 250937Z 14012G19KT 7SM OVC004 09/08 A2985 RMK AO2 RAE15 P0000 T00940083 $=
202301250920 SPECI KATL 250920Z 14010G18KT 7SM OVC005 09/08 A2986 RMK AO2 RAE15 CIG 004V006 P0000 T00890078 $=
202301250852 METAR KATL 250852Z 14011G21KT 4SM RA BR OVC007 09/08 A2990 RMK AO2 PK WND 12026/0839 SLP125 CIG 005V009 P0006 60009 T00890078 58022 $=
202301250803 SPECI KATL 250803Z 13012KT 4SM -RA BR BKN008 BKN013 OVC029 08/07 A2992 RMK AO2 P0003 T00830072 $=
202301250752 METAR KATL 250752Z 13012KT 2SM +RA BR BKN013 OVC029 09/07 A2993 RMK AO2 RAB30 SLP134 P0003 T00890067 $=
202301250652 METAR KATL 250652Z 12011G22KT 10SM SCT018 BKN029 OVC036 09/04 A2996 RMK AO2 SLP146 T00940044 $=
202301250647 SPECI KATL 250647Z 12013G21KT 10SM SCT018 BKN029 OVC036 09/04 A2996 RMK AO2 $=
202301250635 SPECI KATL 250635Z 11012G24KT 10SM SCT016 OVC032 09/04 A2997 RMK AO2 T00940039 $=
202301250552 METAR KATL 250552Z 12012G20KT 10SM FEW021 BKN032 OVC045 09/02 A3001 RMK AO2 SLP163 T00890022 10100 20078 58026 $=
202301250452 METAR KATL 250452Z 11009G16KT 10SM BKN032 BKN110 OVC200 09/00 A3006 RMK AO2 SLP182 T00940000 401221011 $=
202301250352 METAR KATL 250352Z 11010KT 10SM BKN038 BKN110 BKN200 09/M01 A3006 RMK AO2 SLP182 T00891006 $=
202301250252 METAR KATL 250252Z 11012KT 10SM FEW120 BKN200 OVC250 09/M01 A3009 RMK AO2 SLP192 T00891006 58018 $=
202301250152 METAR KATL 250152Z 11009KT 10SM SCT120 BKN150 BKN200 09/M01 A3012 RMK AO2 SLP203 T00891006=
202301250052 METAR KATL 250052Z 11007KT 10SM FEW120 BKN150 BKN200 09/M01 A3014 RMK AO2 SLP214 T00941006=
202301242352 METAR KATL 242352Z 11007KT 10SM FEW120 BKN150 BKN200 10/M01 A3014 RMK AO2 SLP213 T01001011 10122 20094 58003=
202301242252 METAR KATL 242252Z 12005KT 10SM BKN130 BKN200 11/M02 A3016 RMK AO2 SLP219 ACC OHD-ALQDS T01061022=
202301242152 METAR KATL 242152Z 11008KT 10SM SCT140 BKN200 BKN250 12/M02 A3015 RMK AO2 SLP214 ACC SE DSNT SE-SW T01171017=
202301242052 METAR KATL 242052Z 14006KT 10SM SCT150 SCT200 BKN250 11/M02 A3015 RMK AO2 SLP215 ACC NE E T01111022 56030=
202301241952 METAR KATL 241952Z 13009KT 10SM SCT150 SCT200 BKN250 12/M02 A3017 RMK AO2 SLP223 ACC W-NW T01171022=
202301241852 METAR KATL 241852Z 12007KT 10SM FEW150 FEW200 SCT250 11/M03 A3021 RMK AO2 SLP235 T01111028=
202301241752 METAR KATL 241752Z 14008KT 10SM FEW150 FEW200 09/M03 A3024 RMK AO2 SLP247 T00941028 10094 21011 58026=
202301241652 METAR KATL 241652Z 15006KT 10SM FEW130 FEW250 08/M03 A3029 RMK AO2 SLP261 T00831028=
202301241552 METAR KATL 241552Z 12008KT 10SM FEW140 FEW200 07/M03 A3032 RMK AO2 SLP272 T00721028=
202301241452 METAR KATL 241452Z 08007KT 10SM FEW120 05/M03 A3032 RMK AO2 SLP275 T00501028 53013=
202301241352 METAR KATL 241352Z 00000KT 10SM CLR 03/M02 A3030 RMK AO2 SLP267 T00331022=
202301241252 METAR KATL 241252Z 33005KT 10SM CLR M01/M03 A3029 RMK AO2 SLP266 T10061028=
202301241152 METAR KATL 241152Z 33003KT 10SM CLR M01/M03 A3028 RMK AO2 SLP263 T10061028 10017 21011 53005=
202301241052 METAR KATL 241052Z 33004KT 10SM CLR M01/M03 A3027 RMK AO2 SLP257 T10061028=
202301240952 METAR KATL 240952Z 32006KT 10SM CLR M01/M03 A3026 RMK AO2 SLP255 T10061028=
202301240852 METAR KATL 240852Z 29004KT 10SM CLR 00/M03 A3027 RMK AO2 SLP256 T00001028 56003=
202301240752 METAR KATL 240752Z 30005KT 10SM CLR 01/M03 A3027 RMK AO2 SLP257 T00061028=
202301240652 METAR KATL 240652Z 33005KT 10SM CLR 01/M03 A3027 RMK AO2 SLP257 T00111028=
202301240552 METAR KATL 240552Z 32004KT 10SM CLR 02/M03 A3028 RMK AO2 SLP260 T00171028 10056 20017 58002=
202301240452 METAR KATL 240452Z 33004KT 10SM CLR 02/M02 A3029 RMK AO2 SLP264 T00221022 400890017=
202301240352 METAR KATL 240352Z 29003KT 10SM CLR 03/M02 A3030 RMK AO2 SLP266 T00281017=
202301240252 METAR KATL 240252Z 32004KT 10SM CLR 03/M02 A3029 RMK AO2 SLP262 T00281017 53016=
202301240152 METAR KATL 240152Z 33004KT 10SM CLR 04/M02 A3026 RMK AO2 SLP253 T00391022=
202301240052 METAR KATL 240052Z 32005KT 10SM CLR 04/M02 A3025 RMK AO2 SLP250 T00441017=
202301232352 METAR KATL 232352Z 33007KT 10SM CLR 06/M02 A3024 RMK AO2 SLP245 T00561022 10089 20056 51012=
202301232252 METAR KATL 232252Z 35010KT 10SM CLR 07/M02 A3022 RMK AO2 SLP240 T00721022=
202301232152 METAR KATL 232152Z 34011KT 10SM FEW050 08/M02 A3022 RMK AO2 SLP238 T00831017=
202301232052 METAR KATL 232052Z 32011G19KT 10SM FEW048 09/M01 A3020 RMK AO2 SLP231 T00891011 53003=
202301231952 METAR KATL 231952Z 32015G25KT 10SM FEW044 08/M02 A3018 RMK AO2 SLP224 T00831017=
202301231852 METAR KATL 231852Z 32015G22KT 10SM FEW034 08/M01 A3018 RMK AO2 SLP223 T00781011=
202301231752 METAR KATL 231752Z 33015G25KT 10SM BKN032 06/M01 A3019 RMK AO2 PK WND 33027/1715 SLP228 T00611011 10078 20039 51021=
202301231716 SPECI KATL 231716Z 32019G27KT 10SM BKN032 07/00 A3019 RMK AO2 PK WND 33027/1715 T00670000=
202301231702 SPECI KATL 231702Z 32018G24KT 10SM BKN028 06/00 A3019 RMK AO2 T00610000=
202301231652 METAR KATL 231652Z 32016KT 10SM BKN030 07/01 A3019 RMK AO2 PK WND 30028/1625 SLP226 T00670006=
202301231552 METAR KATL 231552Z 31016G23KT 10SM BKN030 07/01 A3017 RMK AO2 PK WND 30026/1538 SLP220 T00670006=
202301231452 METAR KATL 231452Z 31014G21KT 10SM SCT018 BKN024 BKN038 06/02 A3013 RMK AO2 SLP206 T00610022 51034=
202301231406 SPECI KATL 231406Z 29008KT 10SM BKN016 BKN039 06/03 A3011 RMK AO2 T00560033=
202301231352 METAR KATL 231352Z 29009KT 10SM FEW020 SCT039 06/03 A3009 RMK AO2 SLP195 T00560033=
202301231252 METAR KATL 231252Z 28007KT 10SM SCT038 04/02 A3006 RMK AO2 SLP185 T00390022=
202301231152 METAR KATL 231152Z 28005KT 10SM FEW040 04/02 A3002 RMK AO2 SLP172 60001 70016 T00390022 10078 20039 53029=
202301231052 METAR KATL 231052Z 28006KT 10SM SCT038 04/03 A2999 RMK AO2 SLP161 T00440028=
202301230952 METAR KATL 230952Z 30008KT 10SM FEW023 06/03 A2996 RMK AO2 SLP151 T00560028=
202301230932 SPECI KATL 230932Z 31009G19KT 10SM SCT023 06/03 A2996 RMK AO2 T00610028=
202301230852 METAR KATL 230852Z 30009KT 10SM FEW017 BKN025 07/04 A2994 RMK AO2 SLP141 60001 T00670044 53028=
202301230752 METAR KATL 230752Z 30011KT 10SM BKN018 BKN026 BKN070 07/06 A2990 RMK AO2 SLP128 T00720056=
202301230733 SPECI KATL 230733Z 29010KT 10SM SCT014 BKN020 BKN065 07/06 A2989 RMK AO2 T00720056=
202301230652 METAR KATL 230652Z 28008KT 10SM FEW006 BKN034 BKN055 07/06 A2988 RMK AO2 PK WND 29026/0607 RAB06E49 SLP120 P0001 T00720056=
202301230637 SPECI KATL 230637Z 28010KT 10SM -RA FEW006 BKN030 BKN040 07/06 A2987 RMK AO2 PK WND 29026/0607 RAB06 P0001 T00720056=
202301230606 SPECI KATL 230606Z 29015G25KT 3SM -RA BR BKN006 BKN013 BKN020 08/07 A2986 RMK AO2 SFC VIS 6 RAB06 P0000 T00780067=
202301230552 METAR KATL 230552Z 26008KT 3SM FEW006 SCT010 SCT050 08/06 A2985 RMK AO2 SFC VIS 10 SLP112 60002 T00780061 10083 20067 53009=
202301230543 SPECI KATL 230543Z 26007KT 3SM FEW006 SCT010 SCT050 08/07 A2985 RMK AO2 SFC VIS 10 T00780067=
202301230452 METAR KATL 230452Z 26007KT 2SM BKN008 BKN050 08/07 A2984 RMK AO2 SFC VIS 10 SLP106 CIG 007V010 T00830067 400830044=
202301230352 METAR KATL 230352Z 26009KT 2SM BKN005 BKN010 BKN050 08/07 A2982 RMK AO2 SFC VIS 8 SLP101 CIG 004V007 T00830072=
202301230252 METAR KATL 230252Z 22007KT 1 1/4SM BR OVC003 08/07 A2983 RMK AO2 SFC VIS 3 RAE31 SLP103 CIG 002V005 TWRINC P0000 60002 T00780067 53010=
202301230152 METAR KATL 230152Z 27005KT 1 1/4SM -RA BR OVC003 08/07 A2984 RMK AO2 SFC VIS 5 RAB38 SLP107 TWRINC P0000 T00780067=
202301230052 METAR KATL 230052Z 12005KT 1 1/4SM BR BKN003 OVC080 07/06 A2975 RMK AO2 SFC VIS 6 DZE43 SLP076 CIG 002V004 TWRINC P0002 T00670061=
202301230043 SPECI KATL 230043Z 13005KT 1 1/4SM BR BKN003 OVC080 07/06 A2976 RMK AO2 SFC VIS 6 DZE43 CIG 002V004 TWRINC P0002 T00670056=
202301222352 METAR KATL 222352Z 14004KT 2SM -DZ BKN004 OVC060 07/06 A2979 RMK AO2 SFC VIS 7 PRESRR SLP093 RAE30DZB30 P0000 60007 T00720061 10078 20067 58005=
202301222328 SPECI KATL 222328Z 10006KT 2SM BR BKN003 OVC060 07/06 A2977 RMK AO2 SFC VIS 5 RAE24 P0000 T00720061=
202301222324 SPECI KATL 222324Z 11007KT 2SM BR BKN005 OVC060 07/06 A2977 RMK AO2 SFC VIS 5 RAE24 P0000 T00720061=
202301222252 METAR KATL 222252Z 00000KT 3SM -RA BR SCT005 BKN060 OVC080 07/06 A2978 RMK AO2 SFC VIS 6 RAB2153 SLP089 P0002 T00720061=
202301222223 SPECI KATL 222223Z 08007KT 3SM -RA BR SCT007 BKN055 OVC095 07/06 A2977 RMK AO2 SFC VIS 6 RAB2153 P0002 T00720061=
202301222152 METAR KATL 222152Z 00000KT 1 1/2SM BR OVC006 07/06 A2983 RMK AO2 SFC VIS 4 RAE25 PRESRR SLP104 P0002 T00720061=
202301222052 METAR KATL 222052Z VRB03KT 1 1/2SM -RA BR BKN006 OVC014 07/06 A2981 RMK AO2 SFC VIS 3 SLP098 P0001 60003 T00720061 55002=
202301222010 SPECI KATL 222010Z 08006KT 1 1/2SM -RA BR BKN006 OVC012 07/06 A2977 RMK AO2 SFC VIS 2 1/2 P0001 T00720061=
202301221952 METAR KATL 221952Z 36005KT 1 1/4SM -RA BR BKN004 OVC017 07/06 A2979 RMK AO2 TWR VIS 1 1/2 RAB17 SLP091 P0002 T00720061=
202301221923 SPECI KATL 221923Z 08004KT 3/4SM R09R/5000VP6000FT -RA BR OVC004 07/06 A2979 RMK AO2 TWR VIS 1 1/2 RAB17 CIG 003V005 P0000 T00720056=
202301221852 METAR KATL 221852Z 09005KT 1 1/2SM BR OVC004 07/06 A2979 RMK AO2 SLP092 CIG 003V005 T00670061=
202301221752 METAR KATL 221752Z 11007KT 1 1/2SM BR OVC004 07/06 A2981 RMK AO2 SLP100 CIG 003V005 60006 T00670056 10067 20056 58022=
202301221652 METAR KATL 221652Z 09009KT 1 1/2SM BR OVC004 07/06 A2985 RMK AO2 SFC VIS 2 DZE36 SLP111 P0000 T00670056=
202301221552 METAR KATL 221552Z 10008KT 1 1/2SM -DZ BR OVC004 07/06 A2987 RMK AO2 RAE37DZB38 SLP120 CIG 003V005 P0001 T00670056 $=
202301221452 METAR KATL 221452Z 09009KT 1 1/2SM -RA BR OVC004 06/06 A2988 RMK AO2 SLP122 CIG 003V005 P0000 60005 T00610056 55001 $=
202301221352 METAR KATL 221352Z VRB06G16KT 1 1/2SM -RA BR OVC004 06/06 A2988 RMK AO2 SFC VIS 2 RAE08B15 SLP122 CIG 003V005 P0001 T00610056 $=
202301221313 SPECI KATL 221313Z 09010KT 1 1/2SM BR OVC004 06/05 A2987 RMK AO2 SFC VIS 6 RAE08 CIG 003V005 P0001 T00610050 $=
202301221252 METAR KATL 221252Z 10008KT 6SM -RA BR OVC004 06/05 A2988 RMK AO2 SLP122 P0004 T00610050 $=
202301221152 METAR KATL 221152Z 10010KT 4SM RA BR OVC004 06/04 A2988 RMK AO2 TSE1058 SLP123 TS DSIPTD P0010 60188 70192 T00560044 10056 20044 56027 $=
202301221059 SPECI KATL 221059Z 09011G18KT 6SM RA BR BKN004 OVC034 05/04 A2990 RMK AO2 TSE58 TS DSIPTD CB DSNT N-E-SE P0002 T00500044 $=
202301221052 METAR KATL 221052Z 09012G20KT 5SM TSRA BR BKN004 OVC034CB 05/04 A2989 RMK AO2 SLP124 TSB37 OCNL LTGICCG VC S TS VC S MOV NE CB OHD-ALQDS MOV NE P0029 T00500039 $=
202301221037 SPECI KATL 221037Z 10017G22KT 3SM VCTS +RA BR BKN004 BKN025 OVC055 05/04 A2989 RMK AO2 LTG DSNT NE AND SE TSE37 PRESFR P0021 T00500039 $=
202301220952 METAR KATL 220952Z 10009KT 3SM RA BR BKN004 BKN030 OVC060 04/04 A2995 RMK AO2 LTG DSNT NE AND E TSB02E46 SLP146 TS MOV NE CB DSNT NE-SE P0099 T00440039 $=
202301220947 SPECI KATL 220947Z 09009KT 3SM RA BR BKN005 OVC040 04/04 A2997 RMK AO2 LTG DSNT NE AND E TSB02E46 TS MOV NE CB DSNT NE-SE P0097=
202301220934 SPECI KATL 220934Z 12008KT 1 1/2SM R09R/5000VP6000FT +TSRA BR SCT005 BKN020CB OVC030 04/03 A3000 RMK AO2 LTG DSNT N-E TSB02 OCNL LTGCGIC VC N-E TS VC N-E MOV NE CB DSNT N-E W P0081 T00440033=
202301220923 SPECI KATL 220923Z 29003KT 1/2SM R09R/4500VP6000FT +TSRA FG BKN004 OVC012CB 04/04 A3000 RMK AO2 LTG DSNT ALQDS TSB02 PRESRR OCNL LTGCGIC OHD-W TS OHD-W MOV NE CB DSNT ALQDS P0053 T00440044=
202301220911 SPECI KATL 220911Z 07011KT 1 1/2SM +TSRA BR BKN004 OVC012CB 04/04 A2991 RMK AO2 LTG DSNT W TSB02 FRQ LTGCGIC SW-W TS SW-W MOV NE CB DSNT SE-SW-W P0024 T00440039=
202301220905 SPECI KATL 220905Z 07013G21KT 3SM TSRA BR BKN004 OVC012CB 04/04 A2990 RMK AO2 LTG DSNT SW AND W TSB02 OCNL LTGICCG VC W TS VC W MOV NE CB DSNT E SW-W P0017 T00440039=
202301220852 METAR KATL 220852Z 09014KT 4SM RA BR BKN004 BKN037CB OVC060 04/03 A2992 RMK AO2 LTG DSNT E AND SW AND W SLP133 CB VC SW MOV NE AND DSNT E SE-SW P0024 60050 T00440033 56041=
202301220835 SPECI KATL 220835Z 06013KT 4SM RA BR BKN004 BKN045 OVC060 05/04 A2991 RMK AO2 LTG DSNT SW PRESFR CB DSNT SW P0018 T00500039=
202301220807 SPECI KATL 220807Z 08010KT 3SM +RA BR BKN004 BKN011 OVC037 04/04 A2996 RMK AO2 LTG DSNT SW CB DSNT SE-SW P0008 T00440039=
202301220752 METAR KATL 220752Z 08009KT 3SM +RA BR BKN006 BKN013 OVC037 05/03 A2998 RMK AO2 SLP155 OCNL LTG DSNT S-SW CB DSNT S-SW P0019 T00500033=
202301220745 SPECI KATL 220745Z 08014KT 2 1/2SM +RA BR BKN006 OVC013 05/03 A2998 RMK AO2 LTG DSNT SW CB DSNT SW P0012 T00500033=
202301220652 METAR KATL 220652Z 09012G19KT 6SM -RA BR BKN007 BKN015 OVC055 05/03 A2997 RMK AO2 SLP152 CIG 006V009 P0007 T00500033=
202301220646 SPECI KATL 220646Z 10012KT 6SM -RA BR BKN009 OVC015 05/03 A2997 RMK AO2 PRESFR P0007=
202301220628 SPECI KATL 220628Z 09009KT 5SM -RA BR FEW009 BKN015 OVC023 05/03 A3002 RMK AO2 P0004 T00500033=
202301220552 METAR KATL 220552Z 10009KT 8SM -RA OVC023 05/03 A3004 RMK AO2 SLP175 P0001 60004 T00500028 10083 20050 56029=
202301220452 METAR KATL 220452Z 09010KT 10SM -RA BKN022 OVC075 06/03 A3007 RMK AO2 RAB13 SLP187 P0001 T00560028 401060044=
202301220420 SPECI KATL 220420Z 11010KT 10SM -RA OVC024 06/03 A3009 RMK AO2 RAB13 P0000 T00610028=
202301220352 METAR KATL 220352Z 10008KT 10SM SCT025 BKN070 OVC100 06/03 A3008 RMK AO2 RAE45 SLP192 P0000 T00610033=
202301220252 METAR KATL 220252Z 09007KT 10SM -RA FEW046 SCT060 OVC075 07/03 A3013 RMK AO2 SLP207 P0002 60002 T00670033 53003=
202301220152 METAR KATL 220152Z 11005G17KT 10SM -RA BKN080 BKN110 OVC150 07/02 A3013 RMK AO2 RAB19 PRESRR SLP207 P0000 T00720022=
202301220052 METAR KATL 220052Z 12011KT 10SM SCT070 BKN110 OVC250 08/01 A3010 RMK AO2 PRESFR SLP197 T00830011=
202301212352 METAR KATL 212352Z 10008KT 10SM FEW070 BKN120 OVC150 08/01 A3012 RMK AO2 SLP204 VIRGA OHD AND ALQDS T00830011 10106 20083 51010=
202301212252 METAR KATL 212252Z 11009G15KT 10SM SCT060 BKN095 OVC160 09/01 A3011 RMK AO2 SLP199 VIRGA OHD-ALQDS T00890006=
202301212152 METAR KATL 212152Z 09007KT 10SM SCT065 BKN095 OVC170 09/00 A3011 RMK AO2 SLP199 VIRGA OHD-ALQDS T00940000=
202301212052 METAR KATL 212052Z 09009KT 10SM SCT065 BKN100 OVC180 09/00 A3009 RMK AO2 PRESFR SLP192 VIRGA OHD-ALQDS T00940000 56028=
202301211952 METAR KATL 211952Z 09009KT 10SM SCT070 BKN100 OVC190 09/M01 A3009 RMK AO2 PRESFR SLP193 VIRGA SE-SW T00941006=
202301211852 METAR KATL 211852Z 09010KT 10SM SCT090 SCT120 BKN180 09/M01 A3013 RMK AO2 SLP205 VIRGA SE-SW T00941006=
202301211752 METAR KATL 211752Z 10007KT 10SM SCT095 SCT120 BKN180 09/M01 A3017 RMK AO2 SLP221 T00891011 10100 20044 58012=
202301211652 METAR KATL 211652Z 10006KT 10SM FEW090 SCT120 BKN190 08/M02 A3021 RMK AO2 SLP232 VIRGA S-W T00781017=
202301211552 METAR KATL 211552Z 05005KT 10SM SCT120 BKN190 07/M02 A3021 RMK AO2 SLP231 VIRGA OHD-W-SE T00721017=
202301211452 METAR KATL 211452Z 04005KT 10SM SCT120 OVC200 07/M02 A3021 RMK AO2 PRESRR SLP234 VIRGA OHD-W-SE T00671017 53019=
202301211352 METAR KATL 211352Z 02008KT 10SM SCT200 OVC250 05/M02 A3015 RMK AO2 SLP213 VIRGA OHD-ALQDS T00501017=
202301211252 METAR KATL 211252Z 32007KT 10SM FEW200 BKN250 04/M02 A3016 RMK AO2 SLP217 VIRGA SE-SW T00441017=
202301211152 METAR KATL 211152Z 34006KT 10SM SCT180 BKN250 05/M02 A3015 RMK AO2 SLP214 T00501017 10083 20050 56006=
202301211052 METAR KATL 211052Z 33004KT 10SM FEW180 BKN250 05/M02 A3015 RMK AO2 SLP213 T00501022=
202301210952 METAR KATL 210952Z 34010KT 10SM FEW150 SCT200 BKN250 06/M02 A3015 RMK AO2 SLP210 T00611022=
202301210852 METAR KATL 210852Z 33005KT 10SM BKN150 BKN200 06/M02 A3017 RMK AO2 SLP217 T00611017 58000=
202301210752 METAR KATL 210752Z 33007KT 10SM BKN150 OVC200 07/M01 A3017 RMK AO2 SLP217 T00721011=
202301210652 METAR KATL 210652Z 32011KT 10SM BKN150 OVC200 08/M01 A3017 RMK AO2 SLP218 T00781011=
202301210552 METAR KATL 210552Z 32011KT 10SM BKN150 OVC200 08/M01 A3017 RMK AO2 SLP218 T00831006 10106 20083 53004=
202301210452 METAR KATL 210452Z 32010KT 10SM BKN150 OVC200 09/M01 A3016 RMK AO2 SLP214 T00891006 401560061=
202301210352 METAR KATL 210352Z 33007KT 10SM SCT140 BKN200 BKN250 09/M01 A3015 RMK AO2 SLP211 T00941006=
202301210252 METAR KATL 210252Z 30007KT 10SM FEW150 BKN180 BKN250 09/00 A3016 RMK AO2 SLP215 T00890000 51012=
202301210152 METAR KATL 210152Z 29008KT 10SM FEW150 BKN180 BKN250 09/M01 A3014 RMK AO2 SLP210 T00941006=
202301210052 METAR KATL 210052Z 28007G16KT 10SM BKN180 BKN250 10/M01 A3015 RMK AO2 SLP211 T01001006=
202301202352 METAR KATL 202352Z 32007KT 10SM BKN200 BKN250 11/M01 A3012 RMK AO2 SLP203 T01061011 10156 20106 51008=
202301202252 METAR KATL 202252Z 33008KT 10SM FEW180 FEW250 12/M02 A3011 RMK AO2 SLP197 T01171017=
202301202152 METAR KATL 202152Z 31012G21KT 10SM SCT180 SCT250 13/M03 A3012 RMK AO2 SLP199 T01331028=
202301202052 METAR KATL 202052Z 30008KT 10SM FEW170 FEW200 SCT250 15/M01 A3010 RMK AO2 SLP191 T01501006 55005=
202301201952 METAR KATL 201952Z 32012G17KT 10SM FEW200 SCT250 15/M01 A3009 RMK AO2 SLP189 T01501006=
202301201852 METAR KATL 201852Z 30010KT 10SM SCT200 SCT250 14/M01 A3010 RMK AO2 SLP191 T01441006=
202301201752 METAR KATL 201752Z 29010G15KT 10SM FEW170 FEW200 SCT250 13/M01 A3011 RMK AO2 SLP196 T01331006 10139 20061 58005=
202301201652 METAR KATL 201652Z 29013KT 10SM FEW200 SCT250 12/M01 A3013 RMK AO2 SLP204 T01221006=
202301201552 METAR KATL 201552Z 30012KT 10SM FEW170 FEW200 SCT250 10/00 A3015 RMK AO2 SLP210 T01000000=
202301201452 METAR KATL 201452Z 32013G23KT 10SM FEW170 SCT200 SCT250 09/01 A3013 RMK AO2 SLP202 T00890006 53017=
202301201352 METAR KATL 201352Z 30013KT 10SM FEW150 FEW200 SCT250 07/01 A3010 RMK AO2 SLP193 T00720006=
202301201252 METAR KATL 201252Z 31012KT 10SM FEW180 FEW250 06/00 A3009 RMK AO2 SLP190 T00610000=
202301201152 METAR KATL 201152Z 30012KT 10SM FEW200 SCT250 07/01 A3008 RMK AO2 SLP184 70004 T00670006 10122 20067 53010=
202301201052 METAR KATL 201052Z 31014G21KT 10SM FEW250 07/01 A3006 RMK AO2 SLP177 T00720006=
202301200952 METAR KATL 200952Z 31014KT 10SM FEW250 08/01 A3005 RMK AO2 SLP173 T00830011=
202301200852 METAR KATL 200852Z 31011KT 10SM CLR 09/02 A3005 RMK AO2 SLP172 T00890017 51010=
202301200752 METAR KATL 200752Z 31017G23KT 10SM FEW250 10/02 A3004 RMK AO2 SLP171 T01000022=
202301200652 METAR KATL 200652Z 29014G26KT 10SM FEW250 11/02 A3003 RMK AO2 PK WND 31026/0643 SLP166 T01110017=
202301200552 METAR KATL 200552Z 28011KT 10SM FEW250 12/01 A3001 RMK AO2 SLP160 T01220011 10183 20122 51011=
202301200452 METAR KATL 200452Z 27011G18KT 10SM CLR 13/01 A3001 RMK AO2 SLP158 T01330006 402220133=
202301200352 METAR KATL 200352Z 26011KT 10SM CLR 14/01 A3000 RMK AO2 SLP155 T01440006=
202301200252 METAR KATL 200252Z 25009KT 10SM CLR 16/01 A2998 RMK AO2 SLP149 T01560006 53021=
202301200152 METAR KATL 200152Z 26008KT 10SM FEW250 16/01 A2996 RMK AO2 SLP141 T01610006=
202301200052 METAR KATL 200052Z 25007KT 10SM FEW250 17/00 A2993 RMK AO2 SLP133 T01670000=
202301192352 METAR KATL 192352Z 26011G18KT 10SM FEW250 18/01 A2992 RMK AO2 SLP127 T01830006 10222 20183 53018=
202301192252 METAR KATL 192252Z 25007KT 10SM FEW200 FEW250 20/02 A2989 RMK AO2 SLP117 T02000022=
202301192152 METAR KATL 192152Z 24016G27KT 10SM FEW200 SCT250 22/02 A2988 RMK AO2 PK WND 24027/2137 SLP113 T02170022=
202301192052 METAR KATL 192052Z 24013G28KT 10SM FEW200 SCT250 22/03 A2986 RMK AO2 PK WND 28030/1953 SLP106 T02220028 55004=
202301191952 METAR KATL 191952Z 26017G27KT 10SM FEW110 FEW200 SCT250 22/04 A2986 RMK AO2 PK WND 26033/1928 SLP103 T02220039=
202301191852 METAR KATL 191852Z 23013G26KT 10SM FEW055 FEW110 SCT200 SCT250 22/07 A2986 RMK AO2 PK WND 25028/1842 SLP106 T02170072=
202301191752 METAR KATL 191752Z 23014G22KT 10SM FEW044 FEW100 FEW200 SCT250 21/09 A2988 RMK AO2 SLP111 ACC DSNT E 60004 T02110089 10211 20161 58013=
202301191652 METAR KATL 191652Z 23008G18KT 10SM FEW026TCU SCT080 BKN120 BKN200 19/14 A2990 RMK AO2 RAE1554 SLP120 TCU N DSNT NE NW ACC S P0000 T01940139=
202301191552 METAR KATL 191552Z 22011G25KT 8SM -RA FEW009 SCT026 BKN046 BKN140 17/14 A2993 RMK AO2 RAE23B41 SLP131 P0002 T01720144=
202301191524 SPECI KATL 191524Z 23012G22KT 10SM FEW007 SCT028 OVC044 18/16 A2992 RMK AO2 RAE23 P0002 T01780156=
202301191452 METAR KATL 191452Z 23007G18KT 4SM -RA BR OVC008 17/16 A2992 RMK AO2 RAB06 SLP126 CIG 006V010 P0000 60002 T01720156 55000=
202301191352 METAR KATL 191352Z 19010KT 8SM BKN006 OVC010 16/15 A2990 RMK AO2 RAE03 SLP121 P0000 T01610150=
202301191252 METAR KATL 191252Z 19012G18KT 9SM -RA BKN009 OVC013 16/14 A2992 RMK AO2 SLP128 P0002 T01610144=
202301191249 SPECI KATL 191249Z 19011G18KT 10SM -RA BKN009 OVC013 16/14 A2992 RMK A02 P0002=
202301191226 SPECI KATL 191226Z 18011KT 4SM -RA BR FEW009 BKN013 OVC030 16/14 A2991 RMK AO2 P0002 T01610144=
202301191224 SPECI KATL 191224Z 18012KT 4SM -RA BR BKN013 OVC030 16/14 A2992 RMK AO2 P0001 T01610144=
202301191152 METAR KATL 191152Z 19010G17KT 10SM -RA BKN015 OVC025 16/14 A2992 RMK A02 RAB15 SLP129 P0000 60000 70005 T01610139 10172 20161 53000=
202301191130 SPECI KATL 191130Z 19009KT 10SM -RA BKN016 BKN045 OVC060 16/14 A2993 RMK AO2 RAB15 BKN016 V SCT P0000 T01610139=
202301191103 SPECI KATL 191103Z 19009KT 10SM SCT018 BKN070 OVC250 16/13 A2992 RMK AO2 BINOVC T01610133=
202301191052 METAR KATL 191052Z 19010KT 10SM BKN018 BKN060 16/14 A2992 RMK AO2 SLP126 T01610139=
202301191041 SPECI KATL 191041Z 19009G18KT 10SM BKN019 BKN060 16/14 A2992 RMK AO2 T01610139=
202301190952 METAR KATL 190952Z 19009KT 10SM FEW010 FEW025 BKN200 BKN250 16/14 A2991 RMK AO2 SLP125 T01610139=
202301190852 METAR KATL 190852Z 19008KT 10SM FEW009 FEW060 BKN220 BKN250 16/14 A2992 RMK AO2 SLP128 T01610144 58011=
202301190752 METAR KATL 190752Z 19008KT 10SM SCT009 SCT055 BKN250 17/15 A2994 RMK AO2 SLP134 T01670150=
202301190652 METAR KATL 190652Z 19010KT 10SM BKN009 BKN055 17/16 A2995 RMK AO2 SLP139 BKN009 V SCT T01720156=
202301190649 SPECI KATL 190649Z 19011KT 10SM BKN009 BKN055 17/16 A2995 RMK AO2 BKN009 V SCT=
202301190552 METAR KATL 190552Z 18010KT 10SM FEW007 SCT014 BKN200 17/16 A2996 RMK AO2 SLP141 T01720156 10183 20172 56007=
202301190525 SPECI KATL 190525Z 18009KT 10SM FEW007 SCT014 BKN200 17/16 A2996 RMK AO2 T01720161=
202301190452 METAR KATL 190452Z 19009KT 10SM SCT009 BKN014 BKN200 18/16 A2997 RMK AO2 SLP144 T01780161 401830139=
202301190432 SPECI KATL 190432Z 18008KT 10SM FEW008 SCT013 BKN200 18/16 A2996 RMK AO2 T01780161=
202301190352 METAR KATL 190352Z 18009G18KT 10SM FEW008 BKN013 BKN050 BKN200 18/17 A2997 RMK AO2 SLP143 T01830167=
202301190338 SPECI KATL 190338Z 17007KT 10SM SCT008 BKN015 BKN050 BKN200 18/17 A2997 RMK AO2 T01780167=
202301190252 METAR KATL 190252Z 17009KT 7SM BKN008 OVC035 18/17 A2998 RMK AO2 SLP148 CIG 006V011 T01780167 57002=
202301190152 METAR KATL 190152Z 14007KT 3SM BR OVC005 18/17 A2998 RMK AO2 SFC VIS 5 SLP148 CIG 003V007 T01780167=
202301190106 SPECI KATL 190106Z 14004KT 3SM BR BKN006 OVC030 17/17 A2998 RMK AO2 SFC VIS 5 CIG 003V009 T01720167=
202301190052 METAR KATL 190052Z 14005KT 5SM BR BKN006 OVC030 17/16 A2999 RMK AO2 SLP151 CIG 003V009 T01720161=
202301182352 METAR KATL 182352Z 14007KT 6SM BR SCT004 BKN008 BKN070 OVC200 17/16 A2999 RMK AO2 RAE38 SLP151 P0005 60005 T01720161 10178 20161 58003=
202301182331 SPECI KATL 182331Z 14005KT 3SM -RA BR SCT004 BKN010 OVC035 17/16 A3000 RMK AO2 VIS LWR NW-NE-E P0005 T01720161=
202301182252 METAR KATL 182252Z 13004KT 2 1/2SM -RA BR FEW007 BKN016 OVC035 18/16 A2999 RMK AO2 RAB47 SLP153 P0000 T01780161=
202301182234 SPECI KATL 182234Z 13004KT 9SM FEW007 BKN018 BKN030 OVC200 18/16 A3000 RMK AO2 T01780161=
202301182152 METAR KATL 182152Z 15005KT 10SM FEW011 SCT028 BKN140 OVC200 18/16 A3000 RMK AO2 SLP154 T01780161=
202301182147 SPECI KATL 182147Z 14005KT 10SM FEW011 SCT020 BKN030 OVC200 18/16 A3000 RMK AO2=
202301182052 METAR KATL 182052Z 17005KT 6SM BR BKN010 OVC018 18/16 A2999 RMK AO2 SLP153 CIG 009V012 60000 T01780156 55001=
202301182049 SPECI KATL 182049Z 16006KT 6SM BR BKN010 OVC018 18/16 A2999 RMK AO2 CIG 008V012=
202301181952 METAR KATL 181952Z 17008KT 2 1/2SM BR OVC005 17/16 A2999 RMK AO2 SFC VIS 6 DZE47 SLP151 CIG 004V007 P0000 T01720156=
202301181947 SPECI KATL 181947Z 18006KT 2 1/2SM BR OVC005 17/16 A2999 RMK AO2 SFC VIS 4 DZE47 CIG 004V007 P0000=
202301181852 METAR KATL 181852Z 13006KT 1/2SM R09R/4500VP6000FT -DZ BR OVC002 16/16 A2999 RMK AO2 SFC VIS 1 1/2 SLP155 CIG 001V003 TWRINC P0000 T01610156=
202301181840 SPECI KATL 181840Z 14005KT 1/2SM R09R/2800V3500FT -DZ BR OVC002 16/16 A3000 RMK AO2 SFC VIS 3/4 P0000 T01610156=
202301181752 METAR KATL 181752Z 15005KT 1SM R09R/4000V6000FT -DZ BR OVC002 16/16 A3004 RMK AO2 DZB50 SLP168 CIG 001V003 P0000 60000 T01610156 10161 20139 58014=
202301181652 METAR KATL 181652Z 13004KT 1SM R09R/P6000FT BR OVC003 16/15 A3006 RMK AO2 SFC VIS 3 SLP178 CIG 002V004 T01560150=
202301181637 SPECI KATL 181637Z 13005KT 1SM R09R/5000VP6000FT BR OVC003 16/15 A3007 RMK AO2 SFC VIS 1 3/4 CIG 002V004 T01560150=
202301181552 METAR KATL 181552Z 15003KT 2SM BR OVC004 16/15 A3008 RMK AO2 SFC VIS 5 SLP184 CIG 003V005 T01560150=
202301181452 METAR KATL 181452Z 13003KT 1/2SM R09R/3500VP6000FT BR OVC002 15/14 A3008 RMK AO2 SFC VIS 3/4 SLP183 T01500144 53017=
202301181352 METAR KATL 181352Z 15003KT 1/2SM R09R/3500VP6000FT BR OVC003 14/14 A3005 RMK AO2 SFC VIS 3/4 SLP175 CIG 002V004 T01440144=
202301181343 SPECI KATL 181343Z 13003KT 1/2SM R09R/6000VP6000FT FG OVC003 14/14 A3005 RMK AO2 CIG 002V004 T01440139=
202301181333 SPECI KATL 181333Z 14003KT 1/4SM R09R/P6000FT FG VV003 14/14 A3005 RMK AO2 TWR VIS 1/2 T01440139=
202301181252 METAR KATL 181252Z 00000KT 1/2SM R09R/1800V3000FT FG VV003 14/13 A3004 RMK AO2 SLP170 T01440133=
202301181234 SPECI KATL 181234Z 00000KT 1/2SM R09R/2000V2600FT FG VV002 14/14 A3004 RMK AO2 T01440139=
202301181226 SPECI KATL 181226Z 00000KT 1/2SM R09R/1600V2200FT FG VV002 14/14 A3004 RMK AO2 T01440139=
202301181152 METAR KATL 181152Z 00000KT 1/2SM R09R/2400V3500FT FG VV002 14/14 A3002 RMK AO2 SLP165 70022 T01390139 10144 20139 53008=
202301181052 METAR KATL 181052Z 00000KT 1/2SM R09R/3500V4000FT BR VV003 14/14 A3001 RMK AO2 SFC VIS 1 SLP161 T01440139=
202301181012 SPECI KATL 181012Z 33003KT 1/2SM R09R/2200V3500FT FG VV002 14/14 A3000 RMK AO2 T01440139=
202301180952 METAR KATL 180952Z 25003KT 1/4SM R09R/1600V2000FT FG VV002 14/13 A3000 RMK AO2 TWR VIS 1/2 SLP157 T01440133=
202301180930 SPECI KATL 180930Z 00000KT 1/4SM R09R/1600FT FG VV002 14/14 A3000 RMK AO2 TWR VIS 1/2 T01440139=
202301180859 SPECI KATL 180859Z 00000KT 1/2SM R09R/1800V2200FT FG VV002 14/13 A3000 RMK AO2 T01390133=
202301180852 METAR KATL 180852Z 00000KT 1/2SM R09R/1800V2400FT FG VV002 14/13 A3000 RMK AO2 SLP156 T01390133 53010=
202301180841 SPECI KATL 180841Z 00000KT 1/2SM R09R/1800V2800FT FG VV002 14/14 A3000 RMK AO2 T01440139=
202301180808 SPECI KATL 180808Z 00000KT 1/2SM R09R/1800V2200FT FG VV002 14/14 A2999 RMK AO2 T01440139=
202301180752 METAR KATL 180752Z 00000KT 1/2SM R09R/2400V2800FT FG VV002 14/14 A2999 RMK AO2 SLP154 T01440139=
202301180652 METAR KATL 180652Z 25003KT 1/2SM R09R/5000VP6000FT BR OVC002 14/14 A2997 RMK AO2 SFC VIS 3/4 SLP147 T01440139=
202301180552 METAR KATL 180552Z 24003KT 1/2SM R09R/P6000FT BR OVC003 14/14 A2997 RMK AO2 SFC VIS 1 1/2 SLP146 T01440139 10150 20139 50000=
202301180544 SPECI KATL 180544Z 25005KT 1/2SM R09R/4000V5500FT BR OVC003 14/14 A2997 RMK AO2 SFC VIS 1 1/2 T01440139=
202301180452 METAR KATL 180452Z 23003KT 1/2SM R09R/1800V2200FT FG VV002 14/14 A2997 RMK AO2 SLP148 T01440139 401610100=
202301180352 METAR KATL 180352Z 23004KT 1/2SM R09R/1800V2000FT FG VV002 14/14 A2998 RMK AO2 SLP150 T01440139=
202301180252 METAR KATL 180252Z 24004KT 1/2SM R09R/1400V1800FT FG VV002 14/14 A2997 RMK AO2 SLP146 T01440139 52011=
202301180152 METAR KATL 180152Z 23005KT 1/2SM R09R/1800V2400FT BR VV002 14/14 A2996 RMK AO2 SFC VIS 3/4 SLP144 T01440139=
202301180115 SPECI KATL 180115Z 22004KT 1/2SM R09R/P6000FT BR BKN004 BKN200 BKN250 15/14 A2995 RMK AO2 SFC VIS 6 T01500139=
202301180052 METAR KATL 180052Z 21004KT 8SM SCT004 BKN200 BKN250 14/13 A2994 RMK AO2 SLP139 SCT004 V BKN T01440133=
202301180037 SPECI KATL 180037Z 00000KT 9SM FEW006 SCT025 BKN200 BKN250 14/13 A2994 RMK AO2 T01440133=
202301172352 METAR KATL 172352Z 27004KT 10SM FEW006 BKN022 BKN200 15/14 A2993 RMK AO2 SLP135 60000 T01500139 10161 20139 53019=
202301172337 SPECI KATL 172337Z 26005KT 10SM SCT006 BKN080 BKN200 15/14 A2992 RMK AO2 T01500139=
202301172318 SPECI KATL 172318Z 26005KT 10SM BKN006 BKN075 BKN200 16/14 A2991 RMK AO2 T01560139=
202301172252 METAR KATL 172252Z 24006KT 10SM FEW009 BKN075 BKN200 16/14 A2990 RMK AO2 SLP124 T01560139=
202301172152 METAR KATL 172152Z 23005KT 10SM FEW006 SCT012 BKN080 BKN200 16/14 A2988 RMK AO2 RAE30 SLP117 P0000 T01560139=
202301172148 SPECI KATL 172148Z 23006KT 10SM SCT006 BKN012 BKN075 BKN200 16/14 A2988 RMK AO2 RAE30 P0000=
202301172052 METAR KATL 172052Z 25006KT 10SM -RA BKN008 BKN055 OVC080 16/14 A2988 RMK AO2 RAB43 SLP115 CIG 007V010 P0000 60000 T01560144 55002=
202301171952 METAR KATL 171952Z 25009KT 10SM BKN008 BKN050 OVC075 16/14 A2987 RMK AO2 RAB35E50 SLP112 CIG 006V010 P0000 T01560139=
202301171925 SPECI KATL 171925Z 24007KT 10SM BKN008 BKN050 OVC075 16/14 A2987 RMK AO2 CIG 006V010 T01560139=
202301171852 METAR KATL 171852Z 24007KT 10SM FEW007 SCT038 OVC070 16/14 A2986 RMK AO2 RAE27 SLP109 P0000 T01560139=
202301171752 METAR KATL 171752Z 24008KT 6SM -RA BR FEW006 SCT024 OVC038 14/13 A2988 RMK AO2 SLP118 P0007 60022 T01390133 10150 20106 58004=
202301171736 SPECI KATL 171736Z 25009KT 1 1/2SM -RA BR SCT006 SCT018 OVC028 14/13 A2989 RMK AO2 SFC VIS 2 1/2 P0005 T01390128=
202301171652 METAR KATL 171652Z 31013KT 1 1/2SM -RA BR BKN006 BKN012 OVC024 13/12 A2991 RMK AO2 SFC VIS 3 SLP127 CIG 004V008 P0003 T01280117=
202301171637 SPECI KATL 171637Z 28011KT 1 1/2SM RA BR OVC006 15/14 A2991 RMK AO2 SFC VIS 3 CIG 004V008 P0001 T01500139=
202301171552 METAR KATL 171552Z 21007KT 8SM -RA BKN006 OVC012 13/12 A2989 RMK AO2 SLP121 CIG 004V008 P0001 T01330122=
202301171458 SPECI KATL 171458Z 20007KT 4SM -RA BR BKN006 BKN012 OVC035 12/11 A2990 RMK AO2 CIG 004V008 P0000 T01220111=
202301171452 METAR KATL 171452Z 20008KT 4SM RA BR SCT007 BKN012 OVC038 12/11 A2990 RMK AO2 SLP123 CIG 010V014 P0005 60011 T01220111 50001=
202301171446 SPECI KATL 171446Z 21008KT 4SM -RA BR FEW007 BKN012 OVC038 12/11 A2990 RMK AO2 P0004=
202301171352 METAR KATL 171352Z 21006KT 4SM -RA BR FEW012 SCT042 OVC055 11/10 A2990 RMK AO2 SLP125 P0006 T01110100=
202301171252 METAR KATL 171252Z 22005KT 7SM -RA SCT013 BKN048 OVC070 11/08 A2990 RMK AO2 RAB14 SLP124 P0000 T01110083=
202301171241 SPECI KATL 171241Z 21006KT 8SM -RA SCT015 BKN050 OVC075 11/08 A2990 RMK AO2 RAB14 P0000 T01110078=
202301171152 METAR KATL 171152Z 22005KT 10SM BKN016 OVC055 12/06 A2989 RMK AO2 SLP122 T01170056 10117 20100 55006=
202301171052 METAR KATL 171052Z 22004KT 10SM BKN016 BKN055 OVC080 11/02 A2989 RMK AO2 SLP119 T01060022=
202301170952 METAR KATL 170952Z 20003KT 10SM FEW025 SCT065 BKN095 BKN200 10/01 A2988 RMK AO2 SLP118 T01000006=
202301170909 SPECI KATL 170909Z 20006KT 10SM SCT025 BKN031 BKN060 BKN200 11/M01 A2990 RMK AO2 T01061006=
202301170852 METAR KATL 170852Z 22005KT 10SM BKN024 BKN075 BKN200 11/M01 A2991 RMK AO2 SLP127 T01061011 55004=
202301170849 SPECI KATL 170849Z 22005KT 10SM BKN024 BKN075 BKN200 11/M01 A2991 RMK AO2=
202301170752 METAR KATL 170752Z 20006KT 10SM FEW027 SCT075 11/M02 A2992 RMK AO2 SLP130 T01061022=
202301170652 METAR KATL 170652Z 19007KT 10SM SCT080 BKN150 OVC200 11/M02 A2992 RMK AO2 SLP132 T01111022=
202301170552 METAR KATL 170552Z 20006KT 10SM BKN085 BKN150 OVC200 11/M03 A2995 RMK AO2 SLP140 T01111028 10139 20111 56014=
202301170452 METAR KATL 170452Z 21008KT 10SM FEW070 BKN150 OVC200 12/M03 A2996 RMK AO2 SLP145 T01171033 401670011=
202301170352 METAR KATL 170352Z 19006KT 10SM FEW070 BKN150 OVC200 12/M03 A2997 RMK AO2 SLP151 T01171033=
202301170252 METAR KATL 170252Z 18006KT 10SM FEW070 BKN150 OVC200 12/M03 A2999 RMK AO2 SLP157 T01221033 58004=
202301170152 METAR KATL 170152Z 20005KT 10SM FEW150 BKN180 OVC250 13/M02 A3000 RMK AO2 SLP163 T01281022=
202301170052 METAR KATL 170052Z 19006KT 10SM SCT150 BKN180 OVC250 13/00 A3000 RMK AO2 SLP161 T01330000=
202301162352 METAR KATL 162352Z 19004KT 10SM FEW150 BKN180 OVC250 14/02 A3001 RMK AO2 SLP164 T01390017 10167 20139 55002=
202301162252 METAR KATL 162252Z 18005KT 10SM FEW150 BKN180 BKN250 14/02 A3000 RMK AO2 SLP162 T01440017=
202301162152 METAR KATL 162152Z 19009KT 10SM SCT150 BKN200 BKN250 16/01 A3001 RMK AO2 SLP164 T01610011=
202301162052 METAR KATL 162052Z 20008KT 10SM FEW150 BKN180 BKN250 16/01 A3001 RMK AO2 SLP165 T01610011 58019=
202301161952 METAR KATL 161952Z 23008KT 10SM BKN200 BKN250 16/M01 A3003 RMK AO2 SLP170 T01611011=
202301161852 METAR KATL 161852Z 24005KT 10SM FEW150 BKN180 BKN250 16/02 A3005 RMK AO2 SLP179 VIRGA N-NE E ACC SE-S T01560017=
202301161752 METAR KATL 161752Z 21006KT 10SM FEW150 BKN180 BKN250 15/01 A3007 RMK AO2 SLP184 VIRGA SW-NW-NE ACC S-W-NW T01500011 10156 20011 58025=
202301161652 METAR KATL 161652Z 19007KT 10SM SCT150 BKN200 BKN250 14/M02 A3010 RMK AO2 SLP196 T01391017=
202301161552 METAR KATL 161552Z 20006KT 10SM FEW150 BKN200 BKN250 12/M04 A3012 RMK AO2 SLP203 T01171044=
202301161452 METAR KATL 161452Z 00000KT 10SM FEW150 SCT200 BKN250 09/M01 A3015 RMK AO2 SLP212 T00941006 51007=
202301161352 METAR KATL 161352Z 00000KT 10SM FEW150 FEW250 04/M02 A3014 RMK AO2 SLP210 T00441022=
202301161252 METAR KATL 161252Z 00000KT 10SM FEW180 FEW250 02/M04 A3014 RMK AO2 SLP209 T00171039=
202301161152 METAR KATL 161152Z 31005KT 10SM SCT250 02/M03 A3012 RMK AO2 SLP206 T00171028 10044 20011 53009=
202301161052 METAR KATL 161052Z 00000KT 10SM SCT250 01/M03 A3009 RMK AO2 SLP192 T00111028=
202301160952 METAR KATL 160952Z 00000KT 10SM CLR 02/M03 A3010 RMK AO2 SLP197 T00171028=
202301160852 METAR KATL 160852Z 00000KT 10SM FEW250 02/M03 A3010 RMK AO2 SLP195 T00171033 58009=
202301160752 METAR KATL 160752Z 12003KT 10SM SCT250 03/M04 A3010 RMK AO2 SLP194 T00281039=
202301160652 METAR KATL 160652Z 30005KT 10SM SCT250 03/M04 A3013 RMK AO2 SLP206 T00281039=
202301160552 METAR KATL 160552Z 30004KT 10SM SCT250 04/M04 A3013 RMK AO2 SLP205 T00441044 10089 20039 55002=
202301160452 METAR KATL 160452Z 00000KT 10SM FEW250 04/M04 A3010 RMK AO2 SLP198 T00441039 401441017=
202301160352 METAR KATL 160352Z 00000KT 10SM CLR 04/M03 A3011 RMK AO2 SLP203 T00391033=
202301160252 METAR KATL 160252Z 30003KT 10SM CLR 06/M05 A3013 RMK AO2 SLP209 T00611050 53001=
202301160152 METAR KATL 160152Z 29003KT 10SM CLR 07/M04 A3012 RMK AO2 SLP208 T00671044=
202301160052 METAR KATL 160052Z 00000KT 10SM CLR 09/M06 A3013 RMK AO2 SLP208 T00891061=
202301152352 METAR KATL 152352Z 00000KT 10SM FEW250 09/M05 A3013 RMK AO2 SLP209 T00891050 10144 20089 53003=
202301152252 METAR KATL 152252Z 28005KT 10SM FEW200 SCT250 12/M09 A3012 RMK AO2 SLP205 T01171094=
202301152152 METAR KATL 152152Z 32005KT 10SM FEW200 SCT250 13/M09 A3012 RMK AO2 SLP205 T01331089=
202301152052 METAR KATL 152052Z 25004KT 10SM SCT250 14/M08 A3012 RMK AO2 SLP204 T01391078 55023=
202301151952 METAR KATL 151952Z VRB03KT 10SM SCT250 13/M08 A3012 RMK AO2 SLP204 T01331083=
202301151852 METAR KATL 151852Z 00000KT 10SM SCT250 12/M08 A3015 RMK AO2 SLP216 T01171083=
202301151752 METAR KATL 151752Z 21003KT 10SM SCT250 10/M07 A3019 RMK AO2 SLP229 T01001072 10100 21017 58017=
202301151652 METAR KATL 151652Z 00000KT 10SM FEW200 SCT250 08/M04 A3023 RMK AO2 SLP241 T00831044=
202301151552 METAR KATL 151552Z 00000KT 10SM FEW040 SCT200 SCT250 06/M05 A3024 RMK AO2 SLP248 T00561050=
202301151452 METAR KATL 151452Z 35005KT 10SM FEW200 SCT250 02/M05 A3024 RMK AO2 SLP248 T00221050 53012=
202301151352 METAR KATL 151352Z 30009KT 10SM FEW200 SCT250 00/M05 A3023 RMK AO2 PRESRR SLP247 T00001050=
202301151252 METAR KATL 151252Z 34006KT 10SM FEW250 M02/M06 A3020 RMK AO2 SLP238 T10171056=
202301151152 METAR KATL 151152Z 32008KT 10SM FEW250 M02/M06 A3020 RMK AO2 SLP237 T10171056 10000 21017 53018=
202301151052 METAR KATL 151052Z 30006KT 10SM FEW250 M02/M06 A3017 RMK AO2 SLP226 T10171056=
202301150952 METAR KATL 150952Z 33005KT 10SM FEW250 M02/M06 A3016 RMK AO2 SLP219 T10171056=
202301150852 METAR KATL 150852Z 33008KT 10SM FEW250 M01/M06 A3015 RMK AO2 SLP217 T10111056 50001=
202301150752 METAR KATL 150752Z 33007KT 10SM FEW250 M01/M06 A3016 RMK AO2 SLP219 T10111056=
202301150652 METAR KATL 150652Z 31006KT 10SM FEW250 M01/M05 A3016 RMK AO2 SLP221 T10061050=
202301150552 METAR KATL 150552Z 31010KT 10SM FEW250 00/M05 A3015 RMK AO2 SLP216 T00001050 10039 20000 56010=
202301150452 METAR KATL 150452Z 31007KT 10SM FEW250 00/M05 A3015 RMK AO2 SLP218 T00001050 400720000=
202301150352 METAR KATL 150352Z 33010KT 10SM FEW250 01/M05 A3016 RMK AO2 SLP221 T00111050=
202301150252 METAR KATL 150252Z 34012G21KT 10SM FEW250 02/M05 A3018 RMK AO2 SLP226 T00221050 53005=
202301150152 METAR KATL 150152Z 32014KT 10SM CLR 02/M05 A3017 RMK AO2 SLP223 T00221050=
202301150052 METAR KATL 150052Z 33009KT 10SM CLR 03/M05 A3017 RMK AO2 SLP223 T00281050=
202301142352 METAR KATL 142352Z 32012KT 10SM FEW250 04/M05 A3016 RMK AO2 SLP221 T00391050 10072 20039 53012=
202301142252 METAR KATL 142252Z 31013KT 10SM CLR 04/M06 A3015 RMK AO2 PK WND 31026/2210 SLP215 T00441056=
202301142152 METAR KATL 142152Z 34015G25KT 10SM CLR 06/M06 A3013 RMK AO2 SLP210 T00611061=
202301142052 METAR KATL 142052Z 34018G26KT 10SM CLR 06/M06 A3012 RMK AO2 PK WND 33027/2037 SLP207 T00611061 55006=
202301141952 METAR KATL 141952Z 30016G22KT 10SM FEW036 07/M06 A3012 RMK AO2 PK WND 30026/1936 SLP204 T00671061=
202301141852 METAR KATL 141852Z 33017G30KT 10SM FEW036 06/M06 A3012 RMK AO2 PK WND 30030/1846 SLP205 T00611061=
202301141752 METAR KATL 141752Z 31017KT 10SM FEW035 06/M07 A3014 RMK AO2 PK WND 32026/1700 SLP213 T00561067 10056 20017 58003=
202301141652 METAR KATL 141652Z 33016G28KT 10SM FEW035 04/M07 A3016 RMK AO2 PK WND 33028/1649 SLP221 T00441067=
202301141552 METAR KATL 141552Z 36016G29KT 10SM SCT034 03/M07 A3017 RMK AO2 PK WND 34032/1537 SLP223 T00331072=
202301141452 METAR KATL 141452Z 35017G31KT 10SM SCT034 03/M07 A3015 RMK AO2 PK WND 33035/1405 SLP217 T00281067 51022=
202301141352 METAR KATL 141352Z 34015G24KT 10SM BKN034 02/M05 A3013 RMK AO2 PK WND 34031/1305 SLP211 T00171050=
202301141252 METAR KATL 141252Z 32021G38KT 10SM OVC033 02/M06 A3011 RMK AO2 PK WND 33039/1239 SLP203 BINOVC T00171056=
202301141152 METAR KATL 141152Z 31016G30KT 10SM OVC032 02/M05 A3008 RMK AO2 PK WND 34030/1152 SLP194 T00171050 10022 20017 53012=
202301141052 METAR KATL 141052Z 31018G25KT 10SM OVC030 02/M04 A3007 RMK AO2 PK WND 32032/1018 SLP190 T00171044=
202301140952 METAR KATL 140952Z 33018G28KT 10SM OVC030 02/M05 A3005 RMK AO2 PK WND 31033/0901 SLP183 T00171050=
202301140852 METAR KATL 140852Z 32018G27KT 10SM OVC038 02/M04 A3005 RMK AO2 PK WND 33029/0810 SLP182 T00171044 55002=
202301140752 METAR KATL 140752Z 31017G25KT 10SM BKN030 OVC036 02/M04 A3005 RMK AO2 PK WND 29026/0735 SLP181 T00171044=
202301140652 METAR KATL 140652Z 32016G22KT 10SM BKN030 OVC040 02/M04 A3005 RMK AO2 PK WND 33027/0640 SLP182 T00221039=
202301140647 SPECI KATL 140647Z 32013G27KT 10SM OVC030 02/M04 A3005 RMK AO2 PK WND 33027/0640=
202301140617 SPECI KATL 140617Z 32017G25KT 10SM BKN029 OVC035 02/M04 A3005 RMK AO2 T00221039=
202301140552 METAR KATL 140552Z 33010G23KT 10SM FEW030 BKN036 02/M04 A3006 RMK AO2 PK WND 32027/0514 SLP184 T00221039 10044 20022 50002=
202301140452 METAR KATL 140452Z 33017G29KT 10SM BKN032 BKN040 03/M04 A3006 RMK AO2 PK WND 34029/0445 SLP186 T00281044 401170028=
202301140352 METAR KATL 140352Z 32015G24KT 10SM SCT027 BKN033 BKN040 03/M03 A3006 RMK AO2 PK WND 01033/0304 SLP185 SHSN NW-N T00331033=
202301140252 METAR KATL 140252Z 33019G26KT 10SM BKN032 BKN040 03/M04 A3005 RMK AO2 PK WND 32029/0232 SLP181 T00331039 53013=
202301140152 METAR KATL 140152Z 33021G30KT 10SM SCT028 BKN035 BKN045 03/M03 A3003 RMK AO2 PK WND 31030/0151 SLP173 T00331028=
202301140052 METAR KATL 140052Z 30015G23KT 10SM SCT032 BKN042 BKN050 04/M02 A3002 RMK AO2 PK WND 30028/0005 SLP170 T00391022=
202301132352 METAR KATL 132352Z 32013KT 10SM SCT032 BKN043 BKN055 04/M02 A3001 RMK AO2 SLP166 T00441022 10056 20044 53016=
202301132252 METAR KATL 132252Z 32016G22KT 10SM FEW028 BKN035 BKN050 05/M02 A2999 RMK AO2 SLP160 T00501022=
202301132152 METAR KATL 132152Z 33016G22KT 10SM FEW022 SCT033 BKN050 05/M02 A2998 RMK AO2 PK WND 32026/2139 SLP156 SHRASN NW T00501017=
202301132052 METAR KATL 132052Z 32016G29KT 10SM BKN032 OVC044 05/M02 A2996 RMK AO2 PK WND 33031/2024 SLP149 SHRASN N-NE T00501022 55001=
202301131952 METAR KATL 131952Z 32016G28KT 10SM BKN031 OVC042 05/M02 A2995 RMK AO2 PK WND 32028/1913 SLP146 BINOVC T00501017=
202301131852 METAR KATL 131852Z 31018G27KT 10SM BKN030 OVC038 05/M02 A2995 RMK AO2 PK WND 32029/1826 SLP143 T00501017=
202301131752 METAR KATL 131752Z 33014KT 10SM BKN030 OVC040 05/M02 A2996 RMK AO2 PK WND 33027/1729 SLP149 60000 T00501017 10072 20044 58009=
202301131652 METAR KATL 131652Z 30013G21KT 10SM SCT022 BKN037 05/01 A3000 RMK AO2 PK WND 33026/1629 SLP161 T00500006=
202301131552 METAR KATL 131552Z 33017G30KT 10SM SCT022 BKN030 OVC040 05/00 A3001 RMK AO2 PK WND 34030/1544 RAB34E49 SLP164 BINOVC P0000 T00500000=
202301131535 SPECI KATL 131535Z 34012G24KT 10SM -RA BKN024 BKN034 OVC046 05/01 A3001 RMK AO2 PK WND 33029/1458 RAB34 BINOVC P0000 T00500006=
202301131452 METAR KATL 131452Z 32011G20KT 10SM SCT020 BKN030 BKN048 05/01 A2999 RMK AO2 SLP158 MDT CU ALQDS SHRA E DSNT SW-NW 60000 T00500011 53013=
202301131352 METAR KATL 131352Z 33013G23KT 10SM SCT018 SCT030 BKN040 06/01 A2997 RMK AO2 PK WND 34029/1327 RAB17E36 SLP150 P0000 T00560011=
202301131346 SPECI KATL 131346Z 33013KT 10SM SCT018 SCT032 BKN040 05/01 A2997 RMK AO2 PK WND 34029/1327 RAB17E36 P0000=
202301131252 METAR KATL 131252Z 32017G25KT 10SM BKN020 OVC025 06/02 A2995 RMK AO2 PK WND 31026/1154 SLP144 T00610017 $=
202301131152 METAR KATL 131152Z 31014G23KT 10SM BKN017 BKN024 07/03 A2994 RMK AO2 SLP139 70060 T00720028 10111 20072 51016 $=
202301131052 METAR KATL 131052Z 31013G21KT 10SM BKN015 BKN020 08/04 A2993 RMK AO2 PK WND 30028/0953 SLP135 T00780039 $=
202301130952 METAR KATL 130952Z 32017G25KT 10SM BKN017 BKN025 08/04 A2991 RMK AO2 PK WND 30031/0915 SLP130 T00830044 $=
202301130852 METAR KATL 130852Z 31015KT 10SM BKN020 BKN027 BKN040 09/06 A2989 RMK AO2 PK WND 31027/0827 SLP119 T00940056 53013 $=
202301130752 METAR KATL 130752Z 32010KT 10SM BKN024 BKN029 BKN038 11/06 A2986 RMK AO2 SLP110 T01060061=
202301130652 METAR KATL 130652Z 32017G23KT 10SM BKN021 BKN026 BKN031 11/07 A2986 RMK AO2 PK WND 29026/0636 SLP107 T01110067=
202301130552 METAR KATL 130552Z 29012G21KT 10SM BKN022 BKN040 11/07 A2985 RMK AO2 SLP104 T01110072 10139 20111 50008=
202301130452 METAR KATL 130452Z 29011KT 10SM BKN024 BKN045 12/07 A2986 RMK AO2 SLP108 T01170072 402110111=
202301130352 METAR KATL 130352Z 29013G23KT 10SM SCT040 SCT200 12/07 A2985 RMK AO2 SLP107 T01170072=
202301130252 METAR KATL 130252Z 28011KT 10SM FEW012 FEW200 13/10 A2983 RMK AO2 SLP097 T01280100 53007=
202301130152 METAR KATL 130152Z 25011G18KT 10SM FEW009 FEW200 13/12 A2981 RMK AO2 SLP091 T01330117=
202301130052 METAR KATL 130052Z 23007KT 10SM FEW009 SCT090 SCT200 13/12 A2980 RMK AO2 SLP089 T01330117=
202301122352 METAR KATL 122352Z 22009KT 10SM FEW008 SCT015 BKN150 BKN200 14/12 A2980 RMK AO2 SLP089 60060 T01390117 10211 20139 55024=
202301122252 METAR KATL 122252Z 20009G18KT 10SM FEW080 BKN120CB BKN150 BKN200 14/12 A2979 RMK AO2 RAE34 TSE34 SLP085 CBMAM OHD-ALQDS MOV E P0007 T01440117=
202301122234 SPECI KATL 122234Z 23012G19KT 10SM FEW050 BKN120CB BKN200 14/12 A2982 RMK AO2 RAE34 TSE34 LTG DSNT NE-SE TS MOVD E CB DSNT NE-SE CBMAM OHD-S MOV E P0007 T01440117=
202301122152 METAR KATL 122152Z 22010KT 3SM TSRA BR FEW008 BKN055CB OVC085 14/12 A2984 RMK AO2 PK WND 29049/2057 WSHFT 2040 SFC VIS 4 SLP103 OCNL LTGICCA OHD-ALQDS TS OHD-ALQDS MOV E P0053 T01390122=
202301122128 SPECI KATL 122128Z 23012G25KT 4SM TSRA BR FEW008 SCT030CB OVC060 14/12 A2987 RMK AO2 PK WND 29049/2057 WSHFT 2040 FRQ LTGICCA OHD-ALQDS TS OHD-ALQDS MOV E P0043 T01390122=
202301122115 SPECI KATL 122115Z 23013G28KT 2SM R09R/6000VP6000FT +TSRA BR BKN022CB BKN038 OVC055 14/12 A2986 RMK AO2 PK WND 29049/2057 WSHFT 2040 FRQ LTGICCGCA OHD-ALQDS TS OHD-ALQDS MOV E P0036 T01390122=
202301122057 SPECI KATL 122057Z 28032G49KT 1SM R09R/P6000FT +TSRA BKN024CB OVC043 16/12 A2986 RMK AO2 PK WND 29049/2057 WSHFT 2040 FRQ LTGICCGCA OHD-ALQDS TS OHD-ALQDS MOV E P0001 T01560117=
202301122052 METAR KATL 122052Z 27028G44KT 1SM R09R/P6000FT +TSRA BKN024CB OVC070 19/14 A2988 RMK AO2 PK WND 27044/2051 RAB22 TSB22 PRESRR SLP112 FRQ LTGICCGCA N-OHD-S TS N-OHD-S MOV E SHELF CLOUD N-OHD-S MOV E P0000 60000 T01890139 55005=
202301122022 SPECI KATL 122022Z 19014G20KT 10SM -TSRA BKN028CB BKN050 OVC075 20/14 A2983 RMK AO2 PK WND 19026/2011 LTG DSNT W-N RAB22 TSB22 OCNL LTGICCA VC SW-NW TS VC SW-NW MOV E CB DSNT SW-NW-NE P0000 T02000144=
202301121952 METAR KATL 121952Z 20012G25KT 10SM BKN032 BKN048 OVC120 21/14 A2984 RMK AO2 PK WND 20029/1935 LTG DSNT W-N SLP098 CB DSNT SW-NW-N MDT CU OHD-ALQDS T02060139=
202301121852 METAR KATL 121852Z 18014G23KT 10SM SCT036 BKN080 BKN140 OVC200 21/14 A2984 RMK AO2 SLP098 VIRGA SW-NW MDT CU SE-SW-W T02110139=
202301121752 METAR KATL 121752Z 21012G24KT 10SM FEW028 SCT080 SCT140 BKN180 OVC250 21/14 A2989 RMK AO2 SLP117 T02060144 10206 20172 58036=
202301121748 SPECI KATL 121748Z 21012G24KT 10SM SCT028 SCT080 SCT150 OVC200 21/14 A2990 RMK AO2=
202301121652 METAR KATL 121652Z 19012G24KT 10SM BKN025 BKN075 BKN140 OVC200 20/15 A2995 RMK AO2 PK WND 20029/1615 SLP139 T02000150=
202301121552 METAR KATL 121552Z 21011G20KT 10SM SCT018 BKN028 BKN075 OVC200 19/15 A2999 RMK AO2 SLP152 T01940150=
202301121452 METAR KATL 121452Z 21010G21KT 10SM BKN016 OVC028 18/15 A3000 RMK AO2 SLP155 BINOVC T01830150 58005=
202301121352 METAR KATL 121352Z 21009KT 10SM BKN015 BKN022 BKN250 18/15 A3001 RMK AO2 SLP157 T01780150=
202301121252 METAR KATL 121252Z 22008KT 10SM BKN015 BKN025 BKN040 BKN250 17/15 A3002 RMK AO2 SLP160 T01720150=
202301121152 METAR KATL 121152Z 22008KT 10SM SCT010 BKN018 BKN038 17/15 A3001 RMK AO2 SLP159 60000 T01720150 10172 20144 53003=
202301121112 SPECI KATL 121112Z 21007KT 10SM FEW010 BKN030 OVC038 17/15 A3001 RMK AO2 T01670150=
202301121052 METAR KATL 121052Z 19006KT 8SM FEW010 BKN014 OVC035 17/15 A3001 RMK AO2 DZE21 SLP157 BINOVC P0000 T01670150=
202301120952 METAR KATL 120952Z 18004KT 6SM -DZ BR FEW006 BKN012 OVC030 16/15 A3000 RMK AO2 SLP154 P0000 T01560150 $=
202301120938 SPECI KATL 120938Z 18004KT 5SM -DZ BR SCT006 BKN012 OVC020 16/15 A3000 RMK AO2 P0000 T01560150 $=
202301120852 METAR KATL 120852Z 14004KT 3SM -DZ BR BKN007 OVC012 15/14 A3001 RMK AO2 SLP156 DZB40 P0000 60000 T01500139 56005 $=
202301120752 METAR KATL 120752Z 00000KT 9SM BKN007 OVC012 16/14 A3001 RMK AO2 SLP157 T01560139 $=
202301120724 SPECI KATL 120724Z 15003KT 8SM BKN008 OVC014 14/13 A3000 RMK AO2 T01440133 $=
202301120701 SPECI KATL 120701Z 13004KT 9SM BKN014 OVC025 15/13 A3001 RMK AO2 T01500133 $=
202301120652 METAR KATL 120652Z 13004KT 10SM BKN015 OVC025 15/13 A3001 RMK AO2 SLP158 T01500133 $=
202301120612 SPECI KATL 120612Z 14005KT 9SM BKN015 14/13 A3002 RMK AO2 T01440128 $=
202301120552 METAR KATL 120552Z 15005KT 10SM FEW030 BKN200 15/13 A3002 RMK AO2 SLP162 T01500133 10172 20150 58003 $=
202301120452 METAR KATL 120452Z 08005KT 10SM FEW028 BKN035 BKN250 15/13 A3003 RMK AO2 SLP166 T01500128 401890061 $=
202301120352 METAR KATL 120352Z 10004KT 10SM SCT032 BKN040 BKN250 16/13 A3004 RMK AO2 SLP169 T01560133 $=
202301120252 METAR KATL 120252Z 13004KT 9SM FEW040 SCT250 15/13 A3003 RMK AO2 SLP168 T01500128 58001 $=
202301120152 METAR KATL 120152Z 13003KT 10SM FEW038 SCT045 BKN250 16/13 A3003 RMK AO2 SLP170 T01610128 $=
202301120052 METAR KATL 120052Z 14003KT 10SM FEW036 BKN045 BKN250 17/13 A3004 RMK AO2 SLP171 T01670133=
202301112352 METAR KATL 112352Z 00000KT 10SM FEW030 BKN045 BKN250 17/13 A3003 RMK AO2 SLP169 T01720133 10189 20172 50009=
202301112252 METAR KATL 112252Z 00000KT 10SM FEW028 BKN035 BKN050 BKN250 18/13 A3003 RMK AO2 SLP170 T01830133=
202301112152 METAR KATL 112152Z 24006G16KT 10SM FEW027 BKN036 BKN055 BKN250 19/13 A3002 RMK AO2 SLP164 T01890133=
202301112130 SPECI KATL 112130Z 24009G16KT 10SM SCT026 BKN033 BKN050 BKN250 19/13 A3001 RMK AO2 T01890133=
202301112052 METAR KATL 112052Z 21009KT 10SM BKN026 BKN036 BKN055 BKN250 19/13 A3000 RMK AO2 SLP160 T01890133 56012=
202301111952 METAR KATL 111952Z 22011KT 10SM BKN024 OVC032 19/13 A3001 RMK AO2 SLP161 BINOVC T01890133=
202301111852 METAR KATL 111852Z 23007KT 10SM OVC019 17/12 A3002 RMK AO2 SLP166 T01720122=
202301111828 SPECI KATL 111828Z 21007KT 10SM OVC020 17/12 A3003 RMK AO2 T01720117 $=
202301111752 METAR KATL 111752Z 21010G18KT 10SM FEW018 SCT027 BKN050 BKN250 17/11 A3004 RMK AO2 SLP172 MDT CU SW-NW T01720111 10172 20083 58020 $=
202301111652 METAR KATL 111652Z 22011KT 10SM FEW026 SCT038 BKN055 BKN250 16/09 A3008 RMK AO2 SLP185 T01560094=
202301111638 SPECI KATL 111638Z 20008KT 10SM SCT026 SCT038 BKN055 BKN250 15/08 A3008 RMK AO2 T01500083=
202301111552 METAR KATL 111552Z 20006KT 10SM FEW017 BKN021 OVC040 13/07 A3010 RMK AO2 SLP194 MDT CU OHD-ALQDS T01280067=
202301111452 METAR KATL 111452Z 19004KT 9SM FEW006 BKN022 OVC050 11/03 A3010 RMK AO2 SLP194 FU FEW006 MDT CU OHD-ALQDS T01060033 53006=
202301111425 SPECI KATL 111425Z 18005KT 8SM FEW008 BKN026 BKN035 BKN250 10/03 A3009 RMK AO2 FU FEW008 FU PLUME SW T01000033=
202301111352 METAR KATL 111352Z 20003KT 10SM SCT024 BKN034 BKN055 BKN250 09/03 A3010 RMK AO2 SLP193 MDT CU S-W-N T00940033=
202301111252 METAR KATL 111252Z 00000KT 10SM SCT026 SCT033 SCT047 BKN250 08/03 A3008 RMK AO2 SLP187 T00830028=
202301111158 SPECI KATL 111158Z 14003KT 10SM SCT020 BKN043 09/03 A3008 RMK AO2 T00890028=
202301111152 METAR KATL 111152Z 00000KT 10SM BKN020 BKN041 08/03 A3008 RMK AO2 SLP187 T00830033 10083 20061 53006=
202301111052 METAR KATL 111052Z 17003KT 10SM BKN021 BKN150 BKN250 07/03 A3007 RMK AO2 SLP184 BKN021 V SCT T00720028=
202301111005 SPECI KATL 111005Z 00000KT 10SM BKN021 BKN150 BKN250 06/03 A3007 RMK AO2 T00610028=
202301110952 METAR KATL 110952Z 00000KT 10SM FEW021 SCT150 SCT250 06/02 A3006 RMK AO2 SLP181 T00610022=
202301110852 METAR KATL 110852Z 00000KT 10SM FEW150 BKN250 07/02 A3006 RMK AO2 SLP181 T00670022 55000=
202301110752 METAR KATL 110752Z 00000KT 10SM BKN150 BKN250 07/02 A3006 RMK AO2 SLP180 T00670022=
202301110652 METAR KATL 110652Z 00000KT 10SM FEW200 BKN250 08/02 A3005 RMK AO2 SLP177 T00830017=
202301110552 METAR KATL 110552Z 25003KT 10SM BKN250 08/02 A3006 RMK AO2 SLP181 T00830017 10128 20083 50000=
202301110452 METAR KATL 110452Z 00000KT 10SM FEW200 SCT250 09/02 A3007 RMK AO2 SLP184 T00940017 401720022=
202301110352 METAR KATL 110352Z 23004KT 10SM FEW200 BKN250 09/02 A3007 RMK AO2 SLP186 T00940017=
202301110252 METAR KATL 110252Z 24005KT 10SM FEW200 BKN250 11/02 A3006 RMK AO2 SLP182 T01110017 53005=
202301110152 METAR KATL 110152Z 22003KT 10SM SCT200 BKN250 11/02 A3005 RMK AO2 SLP180 T01060017=
202301110052 METAR KATL 110052Z 24003KT 10SM FEW200 SCT250 11/02 A3005 RMK AO2 SLP180 T01110017=
202301102352 METAR KATL 102352Z 23004KT 10SM FEW150 SCT200 BKN250 13/01 A3005 RMK AO2 SLP179 T01280011 10172 20128 53006=
202301102252 METAR KATL 102252Z 22005KT 10SM FEW150 BKN200 BKN250 14/01 A3004 RMK AO2 SLP174 T01440011=
202301102152 METAR KATL 102152Z 25007KT 10SM FEW150 SCT200 SCT250 16/00 A3004 RMK AO2 SLP173 T01610000=
202301102052 METAR KATL 102052Z 27011KT 10SM FEW150 FEW200 SCT250 17/00 A3003 RMK AO2 SLP171 T01670000 55012=
202301101952 METAR KATL 101952Z 29006KT 10SM FEW150 FEW200 SCT250 17/M01 A3003 RMK AO2 SLP169 T01671006=
202301101852 METAR KATL 101852Z 27006KT 10SM FEW200 16/00 A3004 RMK AO2 SLP173 T01610000=
202301101752 METAR KATL 101752Z 25008KT 10SM FEW060 FEW200 14/M01 A3007 RMK AO2 SLP183 T01391011 10139 20022 58023=
202301101652 METAR KATL 101652Z 29007KT 10SM FEW200 SCT250 12/00 A3011 RMK AO2 SLP197 T01220000=
202301101552 METAR KATL 101552Z 29008KT 10SM FEW250 11/01 A3014 RMK AO2 SLP209 T01060006=
202301101452 METAR KATL 101452Z 26003KT 10SM FEW250 08/02 A3014 RMK AO2 SLP209 T00830017 53009=
202301101352 METAR KATL 101352Z 24003KT 10SM CLR 04/01 A3013 RMK AO2 SLP206 T00440011=
202301101252 METAR KATL 101252Z 26003KT 10SM FEW200 03/00 A3012 RMK AO2 SLP204 T00280000=
202301101152 METAR KATL 101152Z 27004KT 10SM FEW200 03/00 A3011 RMK AO2 SLP200 T00280000 10050 20022 56003=
202301101052 METAR KATL 101052Z 30004KT 10SM FEW200 03/00 A3012 RMK AO2 SLP203 T00280000=
202301100952 METAR KATL 100952Z 30003KT 10SM SCT200 03/01 A3010 RMK AO2 SLP198 T00330006=
202301100852 METAR KATL 100852Z 30004KT 10SM SCT200 03/01 A3012 RMK AO2 SLP201 T00330006 55000=
202301100752 METAR KATL 100752Z 31008KT 10SM FEW200 SCT250 04/01 A3011 RMK AO2 SLP200 T00440011=
202301100652 METAR KATL 100652Z 30007KT 10SM SCT200 BKN250 04/01 A3011 RMK AO2 SLP200 T00440011=
202301100552 METAR KATL 100552Z 33004KT 10SM BKN200 BKN250 05/01 A3012 RMK AO2 SLP202 T00500011 10089 20050 58002=
202301100452 METAR KATL 100452Z 27005KT 10SM SCT200 BKN250 06/02 A3015 RMK AO2 SLP211 T00610017 401280061=
202301100352 METAR KATL 100352Z 31005KT 10SM BKN200 BKN250 07/02 A3013 RMK AO2 SLP207 T00670022=
202301100252 METAR KATL 100252Z 32005KT 10SM BKN200 BKN250 07/02 A3013 RMK AO2 SLP205 T00720017 58004=
202301100152 METAR KATL 100152Z 32003KT 10SM BKN200 BKN250 07/02 A3013 RMK AO2 SLP207 T00720022=
202301100052 METAR KATL 100052Z 32007KT 10SM SCT200 BKN250 08/02 A3014 RMK AO2 SLP210 T00830017=
202301092352 METAR KATL 092352Z 33005KT 10SM FEW200 BKN250 09/02 A3014 RMK AO2 SLP210 T00890017 10128 20089 55002=
202301092252 METAR KATL 092252Z 33007KT 10SM FEW200 SCT250 10/02 A3013 RMK AO2 SLP206 T01000017=
202301092152 METAR KATL 092152Z 33007KT 10SM FEW055 FEW200 SCT250 12/01 A3014 RMK AO2 SLP209 T01220011=
202301092052 METAR KATL 092052Z 32012G16KT 10SM FEW250 13/02 A3015 RMK AO2 SLP209 T01280017 55010=
202301091952 METAR KATL 091952Z 33010KT 10SM FEW250 13/02 A3014 RMK AO2 SLP208 T01280017=
202301091852 METAR KATL 091852Z 32010G17KT 10SM FEW044 12/02 A3016 RMK AO2 SLP214 T01220022=
202301091752 METAR KATL 091752Z 36010G18KT 10SM FEW034 11/02 A3018 RMK AO2 SLP220 T01110017 10111 20061 58008=
202301091652 METAR KATL 091652Z 33011KT 10SM FEW028 10/02 A3021 RMK AO2 SLP231 T01000022=
202301091552 METAR KATL 091552Z 33013KT 10SM FEW018 09/03 A3022 RMK AO2 SLP233 T00940033=
202301091452 METAR KATL 091452Z 34008KT 10SM SCT016 08/04 A3020 RMK AO2 SLP229 T00780039 51021=
202301091445 SPECI KATL 091445Z 34009KT 10SM SCT016 07/04 A3020 RMK AO2 T00720039=
202301091352 METAR KATL 091352Z 32015G21KT 10SM FEW009 BKN017 07/04 A3019 RMK AO2 SLP223 T00670039=
202301091252 METAR KATL 091252Z 30009KT 8SM SCT009 BKN018 06/04 A3017 RMK AO2 SLP217 T00610044=
202301091212 SPECI KATL 091212Z 32007KT 8SM SCT009 BKN020 06/04 A3015 RMK AO2 T00610044=
202301091152 METAR KATL 091152Z 31008KT 9SM BKN020 07/04 A3014 RMK AO2 SLP207 70014 T00670044 10117 20061 53008=
202301091052 METAR KATL 091052Z 31007KT 10SM SCT025 07/04 A3012 RMK AO2 SLP201 T00670044 $=
202301090952 METAR KATL 090952Z 32008KT 10SM FEW020 07/05 A3011 RMK AO2 SLP198 T00720050 $=
202301090852 METAR KATL 090852Z 31008KT 10SM FEW020 08/06 A3012 RMK AO2 SLP199 T00830056 53002 $=
202301090824 SPECI KATL 090824Z 33007KT 10SM FEW017 SCT028 09/06 A3011 RMK AO2 T00890056 $=
202301090752 METAR KATL 090752Z 33008G17KT 10SM FEW012 OVC019 10/06 A3011 RMK AO2 SLP196 T01000061 $=
202301090652 METAR KATL 090652Z 34010KT 10SM FEW012 BKN018 OVC025 11/08 A3011 RMK AO2 SLP196 T01060078 $=
202301090637 SPECI KATL 090637Z 33011KT 10SM SCT011 BKN018 BKN028 11/08 A3011 RMK AO2 T01110083 $=
202301090618 SPECI KATL 090618Z 34008KT 10SM BKN009 BKN018 11/09 A3011 RMK AO2 CIG 008V012 T01110094 $=
202301090552 METAR KATL 090552Z 29008KT 10SM SCT010 BKN014 BKN020 12/10 A3011 RMK AO2 SLP196 60014 T01170100 10150 20117 58002 $=
202301090452 METAR KATL 090452Z 30007KT 10SM SCT009 BKN020 BKN028 12/11 A3012 RMK AO2 SLP198 T01220106 401720094 $=
202301090352 METAR KATL 090352Z 32010KT 10SM FEW008 BKN020 BKN037 13/11 A3012 RMK AO2 SLP200 RAE16 P0001 T01280111 $=
202301090331 SPECI KATL 090331Z 32010G19KT 10SM FEW008 OVC018 13/11 A3012 RMK AO2 RAE16 P0001 T01280111 $=
202301090252 METAR KATL 090252Z 31014G20KT 4SM -RA BR BKN006 BKN012 OVC050 13/12 A3012 RMK AO2 SLP198 P0002 60013 T01330122 53003 $=
202301090220 SPECI KATL 090220Z 26007KT 5SM -RA BR SCT007 BKN019 OVC030 14/12 A3011 RMK AO2 SCT007 V BKN P0000 T01390122=
202301090152 METAR KATL 090152Z 25007KT 7SM -RA BKN009 BKN018 OVC030 14/13 A3011 RMK AO2 SLP195 CIG 007V011 P0006 T01390128=
202301090052 METAR KATL 090052Z 25005KT 10SM -RA BKN009 BKN019 OVC045 14/13 A3011 RMK AO2 SLP196 P0005 T01390128=
202301090048 SPECI KATL 090048Z 26005KT 9SM -RA BKN009 BKN019 OVC045 14/13 A3011 RMK AO2 P0005=
202301090035 SPECI KATL 090035Z 25004KT 7SM -RA SCT009 BKN016 OVC040 14/13 A3010 RMK AO2 P0004 T01390128=
202301082352 METAR KATL 082352Z 22010G17KT 10SM -RA FEW020 BKN045 OVC070 15/12 A3011 RMK AO2 SLP195 RAB44 P0000 60000 T01500122 10172 20150 55001=
202301082252 METAR KATL 082252Z 21009KT 10SM FEW025 BKN038 OVC080 15/12 A3010 RMK AO2 SLP193 SHRA DSNT NW-NE T01500122=
202301082152 METAR KATL 082152Z 20007KT 10SM SCT027 BKN037 OVC080 17/12 A3011 RMK AO2 SLP196 VIRGA OHD-ALQDS T01670117=
202301082052 METAR KATL 082052Z 20004KT 10SM SCT032 BKN043 BKN065 OVC130 17/11 A3011 RMK AO2 SLP195 T01720106 56017=
202301081952 METAR KATL 081952Z 32004KT 10SM SCT025 SCT060 BKN120 OVC200 17/11 A3012 RMK AO2 SLP196 T01720106=
202301081852 METAR KATL 081852Z VRB03KT 10SM SCT018 BKN060 BKN120 OVC200 17/10 A3015 RMK AO2 SLP206 T01670100=
202301081825 SPECI KATL 081825Z 13005KT 10SM SCT026 BKN070 OVC110 16/10 A3014 RMK AO2 VIRGA OHD-ALQDS T01560100=
202301081752 METAR KATL 081752Z 12004KT 10SM SCT014 BKN026 OVC065 15/09 A3016 RMK AO2 SLP213 VIRGA NW-N T01500094 10150 20094 58027=
202301081708 SPECI KATL 081708Z 16005KT 10SM SCT014 BKN025 OVC060 14/09 A3020 RMK AO2 PRESFR T01440089=
202301081652 METAR KATL 081652Z 17004KT 10SM BKN014 BKN025 OVC060 14/08 A3022 RMK AO2 SLP233 T01390083=
202301081611 SPECI KATL 081611Z 26005KT 10SM BKN014 BKN025 OVC060 13/08 A3026 RMK AO2 VIRGA W-N T01280078=
202301081552 METAR KATL 081552Z 00000KT 10SM SCT012 SCT065 BKN100 OVC180 13/07 A3026 RMK AO2 SLP245 VIRGA W-N T01280067=
202301081452 METAR KATL 081452Z 12003KT 10SM FEW026 SCT070 BKN180 OVC250 11/05 A3025 RMK AO2 SLP243 VIRGA SW-NW T01110050 51007=
202301081352 METAR KATL 081352Z 11005KT 10SM FEW025 FEW070 BKN180 OVC250 11/03 A3024 RMK AO2 SLP239 VIRGA OHD-ALQDS T01060033=
202301081252 METAR KATL 081252Z 00000KT 10SM FEW080 BKN180 09/03 A3025 RMK AO2 SLP243 VIRGA ALQDS T00940033=
202301081152 METAR KATL 081152Z 15004KT 10SM FEW100 OVC200 10/03 A3023 RMK AO2 SLP236 T01000028 10122 20094 55001=
202301081052 METAR KATL 081052Z 00000KT 10SM FEW100 BKN220 10/03 A3021 RMK AO2 SLP230 T01000028=
202301080952 METAR KATL 080952Z 18003KT 10SM FEW100 BKN250 11/02 A3021 RMK AO2 SLP228 T01060017=
202301080852 METAR KATL 080852Z 20003KT 10SM FEW100 BKN250 11/02 A3023 RMK AO2 SLP234 T01110022 55003=
202301080752 METAR KATL 080752Z 20005KT 10SM FEW070 SCT100 BKN250 12/03 A3022 RMK AO2 SLP232 T01170028=
202301080652 METAR KATL 080652Z 20003KT 10SM FEW044 SCT065 BKN085 12/03 A3023 RMK AO2 SLP236 T01170028=
202301080552 METAR KATL 080552Z 19004KT 10SM FEW045 BKN070 BKN085 12/03 A3024 RMK AO2 SLP239 T01220033 10139 20122 58009=
202301080452 METAR KATL 080452Z 00000KT 10SM SCT049 BKN060 BKN090 12/04 A3026 RMK AO2 SLP246 T01220044 401890033=
202301080352 METAR KATL 080352Z 00000KT 10SM FEW050 BKN060 BKN075 14/03 A3027 RMK AO2 SLP249 T01390028=
202301080252 METAR KATL 080252Z 00000KT 10SM FEW050 BKN060 BKN090 14/03 A3027 RMK AO2 SLP249 T01390033 53008=
202301080152 METAR KATL 080152Z 00000KT 10SM FEW055 BKN075 14/04 A3026 RMK AO2 SLP249 T01390039=
202301080052 METAR KATL 080052Z 17005KT 10SM FEW050 BKN075 14/03 A3024 RMK AO2 SLP244 T01390033=
202301072352 METAR KATL 072352Z 16003KT 10SM FEW050 FEW070 SCT200 14/03 A3024 RMK AO2 SLP243 T01390033 10189 20139 53004=
202301072252 METAR KATL 072252Z 16004KT 10SM FEW070 FEW250 16/03 A3024 RMK AO2 SLP241 T01560033=
202301072152 METAR KATL 072152Z 19004KT 10SM FEW070 FEW250 18/03 A3023 RMK AO2 SLP239 T01780033=
202301072052 METAR KATL 072052Z 24007KT 10SM FEW070 SCT250 18/03 A3023 RMK AO2 SLP238 T01780028 56019=
202301071952 METAR KATL 071952Z 00000KT 10SM FEW070 SCT250 18/02 A3024 RMK AO2 SLP241 T01780022 $=
202301071852 METAR KATL 071852Z 00000KT 10SM SCT070 SCT250 17/01 A3026 RMK AO2 SLP247 T01720011 $=
202301071752 METAR KATL 071752Z VRB03KT 10SM SCT070 SCT250 16/00 A3029 RMK AO2 SLP257 T01560000 10156 20033 58010 $=
202301071652 METAR KATL 071652Z VRB03KT 10SM SCT080 SCT250 14/M01 A3031 RMK AO2 SLP266 T01441006 $=
202301071552 METAR KATL 071552Z 31003KT 10SM FEW080 FEW250 13/01 A3032 RMK AO2 SLP270 T01280006 $=
202301071452 METAR KATL 071452Z 00000KT 10SM FEW080 FEW250 11/01 A3032 RMK AO2 SLP269 T01060006 52008 $=
202301071352 METAR KATL 071352Z 19003KT 10SM FEW150 SCT250 06/01 A3030 RMK AO2 SLP264 T00610006 $=
202301071252 METAR KATL 071252Z 31004KT 10SM FEW150 SCT250 04/M01 A3031 RMK AO2 SLP270 T00391006 $=
202301071152 METAR KATL 071152Z 31003KT 10SM FEW150 FEW200 04/M01 A3029 RMK AO2 SLP262 T00441006 10072 20033 53013 $=
202301071052 METAR KATL 071052Z 25003KT 10SM FEW200 FEW250 03/00 A3028 RMK AO2 SLP257 T00330000=
202301070952 METAR KATL 070952Z 26003KT 10SM FEW070 FEW200 SCT250 04/00 A3026 RMK AO2 SLP250 T00390000=
202301070852 METAR KATL 070852Z 00000KT 10SM FEW070 FEW200 SCT250 04/00 A3025 RMK AO2 SLP247 T00440000 53001=
202301070752 METAR KATL 070752Z 30003KT 10SM FEW070 FEW200 SCT250 06/M01 A3025 RMK AO2 SLP245 T00561006=
202301070652 METAR KATL 070652Z 00000KT 10SM FEW070 FEW200 SCT250 06/00 A3024 RMK AO2 SLP243 T00610000=
202301070552 METAR KATL 070552Z 28004KT 10SM SCT200 BKN250 07/00 A3025 RMK AO2 SLP245 T00670000 10100 20061 57008=
202301070452 METAR KATL 070452Z 27004KT 10SM SCT200 BKN250 06/00 A3025 RMK AO2 SLP248 T00610000 402500039=
202301070352 METAR KATL 070352Z 00000KT 10SM FEW200 SCT250 07/00 A3027 RMK AO2 SLP253 T00670000=
202301070252 METAR KATL 070252Z 30003KT 10SM FEW250 08/M01 A3027 RMK AO2 SLP256 T00781006 51010 $=
202301070152 METAR KATL 070152Z 30006KT 10SM FEW200 09/M01 A3026 RMK AO2 SLP251 T00891006=
202301070052 METAR KATL 070052Z 29004KT 10SM FEW140 FEW200 09/M01 A3026 RMK AO2 SLP252 T00941011=
202301062352 METAR KATL 062352Z 30004KT 10SM FEW200 SCT250 10/M01 A3024 RMK AO2 SLP245 T01001006 10150 20100 53007=
202301062252 METAR KATL 062252Z 31007KT 10SM FEW070 FEW140 FEW200 SCT250 12/M01 A3023 RMK AO2 SLP241 T01171011=
202301062152 METAR KATL 062152Z 33011KT 10SM FEW065 SCT250 14/M02 A3022 RMK AO2 SLP236 T01391022=
202301062052 METAR KATL 062052Z 32009KT 10SM FEW065 SCT250 14/M02 A3022 RMK AO2 SLP235 T01391017 55006=
202301061952 METAR KATL 061952Z 27008KT 10SM FEW065 SCT250 14/M01 A3021 RMK AO2 SLP233 T01441006=
202301061852 METAR KATL 061852Z 30011KT 10SM CLR 14/M01 A3022 RMK AO2 SLP235 T01391011=
202301061752 METAR KATL 061752Z 27009KT 10SM CLR 13/M02 A3024 RMK AO2 SLP240 T01281017=
202301061652 METAR KATL 061652Z 29016KT 10SM CLR 11/M01 A3026 RMK AO2 SLP249 T01111011 $=
202301061552 METAR KATL 061552Z 10/M01 A3027 RMK AO2 SLP253 T01001011 $=
202301061452 METAR KATL 061452Z 31010KT 10SM CLR 08/M01 A3027 RMK AO2 SLP252 T00781011 53022=
202301061352 METAR KATL 061352Z 29008KT 10SM CLR 07/M02 A3024 RMK AO2 SLP244 T00671017=
202301061252 METAR KATL 061252Z 28005KT 10SM CLR 04/M02 A3022 RMK AO2 SLP237 T00391022=
202301061152 METAR KATL 061152Z 29005KT 10SM CLR 04/M02 A3020 RMK AO2 SLP230 T00441022 10078 20044 53007=
202301061052 METAR KATL 061052Z 28006KT 10SM CLR 05/M02 A3019 RMK AO2 SLP224 T00501022=
202301060952 METAR KATL 060952Z 28007KT 10SM CLR 06/M02 A3018 RMK AO2 SLP221 T00561022=
202301060852 METAR KATL 060852Z 29009KT 10SM CLR 06/M02 A3018 RMK AO2 SLP220 T00611022 53006=
202301060752 METAR KATL 060752Z 29009KT 10SM CLR 07/M02 A3016 RMK AO2 SLP215 T00671022=
202301060652 METAR KATL 060652Z 28008KT 10SM CLR 07/M01 A3016 RMK AO2 SLP213 T00671011=
202301060552 METAR KATL 060552Z 28008KT 10SM CLR 08/M01 A3016 RMK AO2 SLP213 T00781006 10117 20078 50004=
202301060452 METAR KATL 060452Z 27008KT 10SM CLR 08/00 A3017 RMK AO2 SLP216 T00830000 401670083=
202301060352 METAR KATL 060352Z 28008KT 10SM CLR 09/M01 A3016 RMK AO2 SLP215 T00891006=
202301060252 METAR KATL 060252Z 25006KT 10SM CLR 11/M01 A3015 RMK AO2 SLP209 T01061006 53012=
202301060152 METAR KATL 060152Z 25005KT 10SM FEW250 11/M01 A3014 RMK AO2 SLP206 T01111006=
202301060052 METAR KATL 060052Z 26006KT 10SM SCT250 11/00 A3012 RMK AO2 SLP200 T01110000=
202301052352 METAR KATL 052352Z 26006KT 10SM FEW250 12/M01 A3011 RMK AO2 SLP198 T01171006 10167 20117 53011=
202301052252 METAR KATL 052252Z 28009KT 10SM FEW250 13/M01 A3009 RMK AO2 SLP191 T01331011=
202301052152 METAR KATL 052152Z 29013KT 10SM CLR 15/M02 A3009 RMK AO2 SLP188 T01501017=
202301052052 METAR KATL 052052Z 28013G20KT 10SM CLR 17/M02 A3008 RMK AO2 SLP183 T01671017 56008=
202301051952 METAR KATL 051952Z 28013G18KT 10SM CLR 17/M01 A3008 RMK AO2 SLP185 T01671006=
202301051852 METAR KATL 051852Z 27015G21KT 10SM CLR 16/M01 A3009 RMK AO2 SLP187 T01611006=
202301051752 METAR KATL 051752Z 26011KT 10SM CLR 16/02 A3010 RMK AO2 SLP192 T01560022 10156 20083 58011=
202301051652 METAR KATL 051652Z 29012KT 10SM CLR 14/03 A3013 RMK AO2 SLP201 T01440028=
202301051552 METAR KATL 051552Z 28009KT 10SM FEW200 14/03 A3014 RMK AO2 SLP204 T01390033=
202301051452 METAR KATL 051452Z 28007KT 10SM FEW075 FEW200 12/04 A3014 RMK AO2 SLP204 T01220039 53019=
202301051352 METAR KATL 051352Z 26005KT 10SM SCT075 11/04 A3012 RMK AO2 SLP198 T01060039=
202301051252 METAR KATL 051252Z 25003KT 10SM FEW150 FEW250 09/03 A3010 RMK AO2 SLP192 T00890028=
202301051152 METAR KATL 051152Z 28006KT 10SM FEW200 08/03 A3008 RMK AO2 SLP185 70036 T00830033 10111 20083 53012=
202301051052 METAR KATL 051052Z 27004KT 10SM FEW200 09/03 A3005 RMK AO2 SLP174 T00940033 $=
202301050952 METAR KATL 050952Z 28006KT 10SM FEW200 10/04 A3004 RMK AO2 SLP170 T01000039 $=
202301050852 METAR KATL 050852Z 27004KT 10SM FEW200 09/04 A3004 RMK AO2 SLP171 T00940044 58003 $=
202301050752 METAR KATL 050752Z 24003KT 10SM FEW200 10/04 A3005 RMK AO2 SLP174 T01000044 $=
202301050652 METAR KATL 050652Z 24004KT 10SM FEW180 11/04 A3005 RMK AO2 SLP173 T01110044 $=
202301050552 METAR KATL 050552Z 24004KT 10SM FEW180 11/05 A3005 RMK AO2 SLP175 T01110050 10161 20111 53006 $=
202301050452 METAR KATL 050452Z 24005KT 10SM BKN180 12/05 A3006 RMK AO2 SLP176 T01170050 402110117 $=
202301050352 METAR KATL 050352Z 24003KT 10SM FEW200 13/04 A3003 RMK AO2 SLP167 T01280044 $=
202301050252 METAR KATL 050252Z 25004KT 10SM CLR 14/04 A3004 RMK AO2 SLP169 T01390044 51014 $=
202301050152 METAR KATL 050152Z 25006KT 10SM CLR 15/04 A3003 RMK AO2 SLP166 T01500044 $=
202301050052 METAR KATL 050052Z 24005KT 10SM CLR 15/06 A3002 RMK AO2 SLP161 T01500056 $=
202301042352 METAR KATL 042352Z 26006KT 10SM CLR 16/07 A2999 RMK AO2 SLP153 T01560067 10211 20156 53016 $=
202301042252 METAR KATL 042252Z 27006KT 10SM FEW200 17/08 A2997 RMK AO2 SLP142 T01720078 $=
202301042152 METAR KATL 042152Z 24006KT 10SM FEW055 FEW200 20/07 A2995 RMK AO2 SLP137 T02000067 $=
202301042052 METAR KATL 042052Z 26013G21KT 10SM FEW048 FEW200 21/06 A2994 RMK AO2 SLP134 T02060061 53007 $=
202301041952 METAR KATL 041952Z 26010KT 10SM FEW036 FEW200 21/11 A2992 RMK AO2 SLP127 MDT CU DSNT NE E T02060106 $=
202301041852 METAR KATL 041852Z 26010KT 10SM FEW018 SCT036 20/14 A2992 RMK AO2 SLP126 TCU DSNT NE T02000139 $=
202301041811 SPECI KATL 041811Z 27010KT 10SM FEW014 SCT024 BKN036 18/15 A2992 RMK AO2 T01830150 $=
202301041752 METAR KATL 041752Z 27009KT 10SM FEW010 BKN027 OVC036 19/16 A2992 RMK AO2 RAE20 SLP127 BINOVC P0000 60036 T01890161 10189 20167 50011 $=
202301041726 SPECI KATL 041726Z 26008KT 10SM FEW007 BKN023TCU OVC038 18/16 A2993 RMK AO2 RAE20 TCU SE-S DSNT NW-N BINOVC P0000 T01780161 $=
202301041718 SPECI KATL 041718Z 27010G19KT 8SM -RA SCT006 BKN023 OVC038 18/16 A2993 RMK AO2 BINOVC P0000 T01780161 $=
202301041713 SPECI KATL 041713Z 26010G19KT 4SM -RA BR BKN006 BKN018 OVC026 18/16 A2993 RMK AO2 CIG 004V008 P0000 T01780156 $=
202301041652 METAR KATL 041652Z 24006KT 2SM -RA BR BKN006 OVC012 18/17 A2994 RMK AO2 SLP134 CIG 004V008 P0000 T01780167 $=
202301041641 SPECI KATL 041641Z 23007KT 2 1/2SM R09R/6000VP6000FT -RA BR BKN007 OVC014 17/17 A2995 RMK AO2 CIG 005V009 P0000 T01720167 $=
202301041624 SPECI KATL 041624Z 22009KT 2 1/2SM R09R/6000VP6000FT -RA BR SCT007 OVC012 17/16 A2995 RMK AO2 P0000 T01720161 $=
202301041552 METAR KATL 041552Z 21007KT 6SM -RA BR SCT006 BKN014 OVC026 17/16 A2993 RMK AO2 RAB48 SLP130 CIG 012V016 P0000 T01720161 $=
202301041516 SPECI KATL 041516Z 20005KT 10SM SCT006 BKN026 BKN130 OVC200 17/16 A2992 RMK AO2 T01720161 $=
202301041502 SPECI KATL 041502Z 20005KT 10SM BKN006 BKN100 BKN140 OVC200 17/16 A2991 RMK AO2 CBMAM DSNT N-NE CB DSNT NE-SE T01720161 $=
202301041452 METAR KATL 041452Z 19005KT 10SM SCT006 SCT100 BKN140CB OVC200 17/16 A2989 RMK AO2 RAE09 SLP117 CBMAM N-NE MOV NE CB DSNT NE-SE P0002 60036 T01720161 58003 $=
202301041445 SPECI KATL 041445Z 18007KT 10SM SCT006 SCT095 BKN140CB OVC200 17/16 A2989 RMK AO2 RAE09 CBMAM N-NE SE MOV NE CB DSNT NE-SE P0002 T01720161 $=
202301041432 SPECI KATL 041432Z 17008KT 10SM BKN006 BKN090 BKN140CB OVC200 17/16 A2990 RMK AO2 LTG DSNT E RAE09 CB DSNT NE-SE-S CBMAM N-OHD-S MOV NE P0002 T01670156 $=
202301041352 METAR KATL 041352Z 16008KT 6SM RA BR FEW008 SCT048 OVC090 17/16 A2990 RMK AO2 LTG DSNT E TSE18 PRESFR SLP121 TS DSIPTD CB DSNT NE-SE-SW P0013 T01720156 $=
202301041345 SPECI KATL 041345Z 17008KT 5SM -RA BR SCT008 BKN048 OVC090 17/16 A2992 RMK AO2 LTG DSNT SE TSE18 TS DSIPTD CB DSNT NE-SE-S P0012 T01720161 $=
202301041337 SPECI KATL 041337Z 17007KT 5SM RA BR BKN008 BKN045 OVC075 17/16 A2993 RMK AO2 LTG DSNT SE TSE18 PRESFR TS DSIPTD CB DSNT NE-SE-S P0010 T01720161 $=
202301041318 SPECI KATL 041318Z 19008KT 6SM RA BR SCT008 SCT060 OVC085 17/16 A2996 RMK AO2 LTG DSNT E-S TSE18 PRESRR TS DSIPTD CB DSNT N-E-S P0006 T01720161 $=
202301041252 METAR KATL 041252Z 19008KT 6SM TSRA BR FEW007 SCT040CB OVC100 17/16 A2993 RMK AO2 LTG DSNT ALQDS TSB01E37E49B52 SLP132 OCNL LTGCGIC VC SW TS VC SW MOV NE CB DSNT ALQDS P0021 T01720161 $=
202301041243 SPECI KATL 041243Z 20010KT 6SM RA BR FEW007 BKN075 OVC100 17/16 A2992 RMK AO2 LTG DSNT ALQDS TSB01E37 PRESRR TSE42 TS DSIPTD CB DSNT ALQDS P0018 T01720161 $=
202301041207 SPECI KATL 041207Z 21006KT 4SM TSRA BR FEW007 SCT020CB OVC080 17/17 A2990 RMK AO2 TSB01 OCNL LTGICCG SW TS SW MOV NE CB DSNT SE-SW-NW-N P0005 T01720167 $=
202301041152 METAR KATL 041152Z 24004KT 7SM RA FEW009 SCT080 OVC100 17/16 A2990 RMK AO2 WSHFT 1046 LTG DSNT N AND SE AND S TSE38 SLP120 TS DSIPT CB DSNT ALQDS P0021 60085 70220 T01720161 10200 20172 53006 $=
202301041138 SPECI KATL 041138Z 26004KT 6SM RA BR FEW009 SCT075 OVC100 17/16 A2990 RMK AO2 WSHFT 1046 LTG DSNT E-SW TSE38 TS DSIPT CB DSNT E-S-SW P0018 T01720161 $=
202301041124 SPECI KATL 041124Z 28007KT 6SM TSRA BR FEW009 BKN041CB OVC085 17/16 A2989 RMK AO2 WSHFT 1046 LTG DSNT ALQDS OCNL LTGIC OHD-ALQDS TS OHD-ALQDS MOV NE P0014 T01720156 $=
202301041105 SPECI KATL 041105Z 28009KT 4SM TSRA BR SCT009CB BKN026 OVC039 18/16 A2991 RMK AO2 WSHFT 1046 LTG DSNT ALQDS OCNL LTGCGIC VC NE-SE TS VC NE-SE MOV NE P0010 T01780161 $=
202301041059 SPECI KATL 041059Z 31011G27KT 1 1/2SM +TSRA BR BKN009 BKN014CB OVC036 18/16 A2991 RMK AO2 LTG DSNT ALQDS PRESRR FRQ LTGCGIC OHD-N-E-SE NW-N TS OHD-N-E-SE NW-N MOV NE P0006 T01830161=
202301041052 METAR KATL 041052Z 24015G27KT 3SM TSRA BR SCT007 BKN012CB OVC043 20/18 A2988 RMK AO2 PK WND 22027/1051 TSB19 SLP112 CIG 006V009 FRQ LTGCGIC OHD-SW-NW-N & DSNT N-NE TS OHD-SW-NW-N MOV NE P0009 T02000183=
202301041019 SPECI KATL 041019Z 20007KT 6SM -TSRA BR BKN006CB OVC012 20/18 A2988 RMK AO2 TSB19 CIG 005V008 OCNL LTGICCG VC NW FRQ LTG DSNT N-NE SW-NW-N TS VC NW MOV NE P0000 T02000183=
202301040952 METAR KATL 040952Z 19009G17KT 6SM -RA BR BKN005 OVC012 19/18 A2988 RMK AO2 SLP111 TSB02E32RAE27B51 CIG 004V007 FRQ LTG DSNT N-NE W-N TS MOV N-NE P0005 T01940183=
202301040950 SPECI KATL 040950Z 19010G17KT 6SM BR BKN005 OVC012 19/18 A2988 RMK AO2 TSB02E32RAE27 CIG 004V007 FRQ LTG DSNT N-NE W-N TS MOV N-NE P0005=
202301040935 SPECI KATL 040935Z 18009G19KT 6SM OVC003 19/18 A2988 RMK AO2 TSB02E32RAE27 OCNL LTG DSNT N-NE W-N TS MOV N-NE P0005 T01890183=
202301040902 SPECI KATL 040902Z 17008G18KT 4SM -TSRA BR OVC003CB 19/18 A2988 RMK AO2 LTG DSNT N AND NE AND SW OCNL LTGICCG W & DSNT NE SW-NW-N TS SW-W MOV NE P0002 T01890178=
202301040852 METAR KATL 040852Z 17010G16KT 6SM -RA BR OVC003 18/18 A2988 RMK AO2 LTG DSNT NE AND SW AND NW RAB04E17B45 SLP113 P0000 60050 T01830178 56025=
202301040752 METAR KATL 040752Z 13007KT 6SM BR BKN004 OVC009 18/17 A2990 RMK AO2 LTG DSNT N AND NW RAE35 SLP118 CB DSNT N-NE P0002 T01780167=
202301040659 SPECI KATL 040659Z 10006KT 6SM -RA BR OVC004 17/17 A2993 RMK AO2 P0000 T01720167=
202301040652 METAR KATL 040652Z 09004KT 5SM -RA BR BKN005 BKN011 OVC016 18/17 A2993 RMK AO2 TSE33 SLP127 CIG 004V007 OCNL LTG DSNT N-NE TS MOV NE P0048 T01780167=
202301040645 SPECI KATL 040645Z 08006KT 9SM -RA BKN005 BKN011 OVC023 18/17 A2992 RMK AO2 TSE33 OCNL LTG DSNT N-NE TS MOV NE P0046 T01780167=
202301040634 SPECI KATL 040634Z 06005KT 3SM -RA BR SCT005 BKN017CB OVC028 17/17 A2992 RMK AO2 TSE33 OCNL LTGICCGCA DSNT NW-NE TS MOV NE P0045 T01720167=
202301040552 METAR KATL 040552Z 03004KT 2 1/2SM +TSRA BR FEW005 BKN028CB OVC045 17/17 A2996 RMK AO2 SLP138 TSB35 OCNL LTGIC OHD-ALQDS TS OHD-ALQDS MOV NE P0031 60077 T01720167 10172 20167 58009=
202301040538 SPECI KATL 040538Z 14004KT 3SM R09R/3500VP6000FT TSRA BR FEW005 BKN030CB OVC045 17/16 A2995 RMK AO2 TSB35 VIS LWR NW-NE FRQ LTGIC VC SE-S TS VC SE-S MOV NE CB OHD-ALQDS MOV NE P0027 T01720161=
202301040452 METAR KATL 040452Z VRB03KT 8SM -RA FEW005 SCT025CB OVC045 17/16 A2997 RMK AO2 TSB02E18 SLP141 CB NE-E DSNT SE-SW-NW MOV NE P0011 T01720161 402110167=
202301040418 SPECI KATL 040418Z 16004KT 7SM -RA FEW005 SCT025CB BKN060 OVC150 17/17 A2998 RMK AO2 TSB02E18 TS DSIPTD CB NE-SE S MOV NE P0011 T01720167=
202301040402 SPECI KATL 040402Z 17005KT 3SM TSRA BR SCT025CB BKN045 OVC090 17/17 A3000 RMK AO2 TSB02 OCNL LTGIC SW-W TS SW-W MOV NE CB OHD-ALQDS MOV NE P0006 T01720167=
202301040352 METAR KATL 040352Z 17005KT 5SM RA BR SCT025CB BKN050 OVC090 17/17 A3000 RMK AO2 TSB02E32 SLP155 VIS LWR SE-SW CB OHD-ALQDS MOV NE P0026 T01720167=
202301040333 SPECI KATL 040333Z 14004KT 7SM -RA FEW005 SCT022CB BKN080 OVC130 17/17 A3000 RMK AO2 TSB02E32 TS DSIPTD CB ALQDS MOV NE P0016 T01720167=
202301040324 SPECI KATL 040324Z 16003KT 3SM R09R/4000VP6000FT TSRA BR FEW005 BKN022CB OVC080 17/17 A3001 RMK AO2 TSB02 VIS LWR NE-SE OCNL LTGIC NE-SE TS NE-SE MOV NE P0014 T01720167=
202301040318 SPECI KATL 040318Z 20003KT 1 3/4SM R09R/4000VP6000FT +TSRA BR BKN020CB OVC050 17/16 A3001 RMK AO2 TSB02 OCNL LTGIC OHD-ALQDS TS OHD-ALQDS MOV NE P0006 T01720161=
202301040316 SPECI KATL 040316Z 00000KT 1 3/4SM R09R/4000VP6000FT -TSRA BR SCT020CB BKN048 OVC100 17/16 A3001 RMK AO2 TSB02 OCNL LTGIC OHD-ALQDS TS OHD-ALQDS MOV NE P0000 T01720161=
202301040302 SPECI KATL 040302Z 00000KT 8SM -TSRA SCT020CB BKN048 OVC100 17/16 A2999 RMK AO2 TSB02 OCNL LTGIC VC SW-NW-DSNT NE TS VC SW-NW-DSNT NE MOV NE P0000 T01720161=
202301040252 METAR KATL 040252Z 00000KT 7SM -RA FEW020 BKN050 OVC110 17/16 A2998 RMK AO2 LTG DSNT N RAB39 SLP148 CB DSNT SW-NW-NE P0005 60009 T01720161 52005=
202301040152 METAR KATL 040152Z 12003KT 10SM SCT035 BKN060 BKN110 OVC200 17/16 A2996 RMK AO2 RAE36 SLP140 P0001 T01720156=
202301040052 METAR KATL 040052Z 00000KT 7SM -RA FEW030 SCT055 BKN080 OVC130 17/15 A2999 RMK AO2 SLP151 P0003 T01720150=
202301032352 METAR KATL 032352Z 16006KT 10SM -RA FEW005 BKN060 BKN100 OVC150 17/16 A2997 RMK AO2 PK WND 25039/2257 RAE24B51 TSE34 SLP143 LTG DSNT NE-SE CB DSNT NE-SE P0036 60058 T01720156 10211 20172 53001=
202301032334 SPECI KATL 032334Z 25004KT 10SM FEW006 BKN080 OVC150 17/16 A2998 RMK AO2 PK WND 25039/2257 RAE24 TSE34 LTG DSNT NE-SE TS MOVD NE CB DSNT NE-SE P0036 T01720156=
202301032324 SPECI KATL 032324Z 25005KT 10SM TS FEW006 SCT035CB BKN080 OVC150 18/16 A2996 RMK AO2 PK WND 25039/2257 RAE24 OCNL LTGICCA NE-SE TS NE-SE MOV NE P0036 T01780161=
202301032305 SPECI KATL 032305Z 26018G39KT 3SM TSRA SCT006 BKN030CB OVC090 18/15 A2996 RMK AO2 PK WND 25039/2257 VIS LWR NE-SE OCNL LTGICCA OHD-ALQDS TS OHD-ALQDS MOV NE P0034 T01830150=
202301032258 SPECI KATL 032258Z 25020G39KT 1SM R09R/2600VP6000FT +TSRA BR SCT006 BKN028CB OVC060 18/17 A2999 RMK AO2 PK WND 25039/2257 PRESRR OCNL LTGICCA OHD-ALQDS TS OHD-ALQDS MOV NE P0007 T01780167=
202301032252 METAR KATL 032252Z 13007KT 2SM TSRA BR SCT006 BKN035CB OVC080 19/18 A2995 RMK AO2 SLP136 OCNL LTGICCA OHD-ALQDS TS OHD-ALQDS MOV NE P0014 T01890178=
202301032152 METAR KATL 032152Z 13007KT 4SM -TSRA BR SCT008 BKN036CB OVC060 19/18 A2996 RMK AO2 TSB29 SLP139 OCNL LTGICCA OHD-ALQDS TS OHD-ALQDS MOV NE P0005 T01940178=
202301032132 SPECI KATL 032132Z 16005KT 6SM -TSRA BR SCT035CB BKN050 OVC080 19/18 A2997 RMK AO2 TSB29 OCNL LTGICCA SW TS SW MOV NE CB DSNT E-SE S NW P0003 T01940183=
202301032108 SPECI KATL 032108Z 18007KT 4SM -RA BR SCT033 BKN075 OVC110 19/18 A2997 RMK AO2 LTG DSNT W AND NW CB DSNT W NW P0000 T01940183=
202301032052 METAR KATL 032052Z 18008KT 9SM -RA SCT010 BKN016TCU BKN070 OVC130 19/18 A2997 RMK AO2 LTG DSNT SW AND W SLP142 CB DSNT SW W TCU E-SE P0002 60003 T01940183 55012=
202301032048 SPECI KATL 032048Z 18007KT 9SM -RA SCT010 BKN016TCU BKN070 OVC130 19/18 A2997 RMK AO2 LTG DSNT SW AND W CB DSNT SW W TCU E-SE P0002=
202301031952 METAR KATL 031952Z 18006KT 5SM -RA BR OVC011 20/18 A2998 RMK AO2 SLP146 CIG 009V013 P0001 T02000183=
202301031852 METAR KATL 031852Z 18007KT 9SM -RA BKN014 OVC020 21/18 A3000 RMK AO2 SLP155 RAE23B37 CIG 012V016 P0000 T02060178=
202301031752 METAR KATL 031752Z 19010KT 8SM BKN017 OVC038 21/18 A3003 RMK AO2 RAB43E52 SLP162 MDT CU OHD-ALQDS BINOVC P0000 60000 T02110178 10211 20189 56023=
202301031652 METAR KATL 031652Z 20012G22KT 10SM BKN016 OVC024 21/17 A3005 RMK AO2 SLP171 CIG 014V018 T02110172=
202301031552 METAR KATL 031552Z 19015G21KT 10SM OVC014 20/17 A3007 RMK AO2 SLP177 CIG 012V016 T02000172=
202301031452 METAR KATL 031452Z 19011G18KT 9SM OVC012 19/17 A3010 RMK AO2 SLP187 CIG 010V014 T01940167 50007=
202301031433 SPECI KATL 031433Z 19011G19KT 8SM OVC011 19/17 A3011 RMK AO2 CIG 009V013 T01890167=
202301031352 METAR KATL 031352Z 19008KT 7SM BKN009 OVC013 19/17 A3011 RMK AO2 SLP190 T01890167=
202301031257 SPECI KATL 031257Z 19009G17KT 8SM BKN009 OVC013 19/17 A3010 RMK AO2 T01890167=
202301031252 METAR KATL 031252Z 19007KT 8SM FEW008 BKN011 OVC017 19/17 A3010 RMK AO2 SLP186 T01890167=
202301031250 SPECI KATL 031250Z 19008G21KT 8SM FEW008 BKN011 OVC017 19/17 A3010 RMK AO2=
202301031152 METAR KATL 031152Z 19007G18KT 8SM BKN008 OVC013 19/17 A3007 RMK AO2 SLP178 T01890172 10189 20172 55007=
202301031052 METAR KATL 031052Z 17008KT 6SM BR BKN008 OVC013 19/17 A3007 RMK AO2 SLP176 T01890172=
202301030952 METAR KATL 030952Z 18006KT 6SM BR BKN008 OVC014 18/17 A3009 RMK AO2 SLP184 T01830172=
202301030852 METAR KATL 030852Z 16007KT 5SM BR OVC005 18/17 A3010 RMK AO2 SLP185 T01830172 58007=
202301030752 METAR KATL 030752Z 17006KT 5SM BR OVC006 18/17 A3012 RMK AO2 SLP193 CIG 005V008 T01780167=
202301030652 METAR KATL 030652Z 17006KT 5SM BR BKN005 BKN016 BKN250 17/16 A3012 RMK AO2 SLP192 BKN005 V SCT T01720161=
202301030642 SPECI KATL 030642Z 17005KT 6SM BR SCT005 SCT016 SCT250 17/16 A3011 RMK AO2 T01720161=
202301030552 METAR KATL 030552Z 16007KT 6SM BR FEW015 FEW055 SCT140 SCT250 17/16 A3012 RMK AO2 SLP194 T01720161 10194 20167 58012=
202301030452 METAR KATL 030452Z 16004KT 3SM BR SCT004 SCT050 SCT120 BKN250 17/16 A3016 RMK AO2 SLP207 VIS LWR SE-SW T01670161 402330100=
202301030352 METAR KATL 030352Z 14004KT 6SM BR FEW004 SCT055 SCT120 SCT250 17/16 A3016 RMK AO2 SLP210 T01670161=
202301030252 METAR KATL 030252Z 14004KT 8SM FEW006 FEW036 SCT120 SCT250 18/16 A3015 RMK AO2 SLP208 T01780161 50005=
202301030152 METAR KATL 030152Z 14005KT 10SM FEW036 BKN070 BKN120 BKN250 18/17 A3016 RMK AO2 SLP210 T01830167=
202301030052 METAR KATL 030052Z 14004KT 10SM SCT037 BKN060 BKN110 BKN250 18/17 A3016 RMK AO2 SLP209 T01830167=
202301022352 METAR KATL 022352Z 12007KT 10SM FEW028 SCT036 SCT110 SCT250 19/17 A3014 RMK AO2 RAB2259E17 SLP203 P0000 60000 T01940167 10233 20194 55005=
202301022252 METAR KATL 022252Z 11005KT 10SM SCT029 BKN048 BKN120 BKN250 21/17 A3014 RMK AO2 SLP201 MDT CU OHD-SE-SW-NW T02110172=
202301022152 METAR KATL 022152Z 17005KT 10SM SCT025 BKN070 BKN110 22/17 A3014 RMK AO2 SLP204 TCU DSNT NE T02220172=
202301022052 METAR KATL 022052Z 00000KT 10SM SCT022TCU BKN055 BKN200 22/17 A3015 RMK AO2 SLP208 TCU W-NW DSNT N T02220172 56015=
202301022043 SPECI KATL 022043Z 00000KT 10SM SCT022 BKN060 BKN200 22/17 A3015 RMK AO2 TCU W DSNT N T02220172=
202301021952 METAR KATL 021952Z 00000KT 10SM BKN022TCU BKN065 BKN200 22/17 A3016 RMK AO2 SLP210 CB DSNT NE TCU NW-N SHRA NW-N T02170167=
202301021932 SPECI KATL 021932Z 25003KT 10SM BKN017TCU BKN065 BKN200 22/17 A3017 RMK AO2 CB DSNT N TCU E W T02170172=
202301021852 METAR KATL 021852Z 00000KT 10SM SCT015 BKN038 BKN065 BKN200 21/17 A3017 RMK AO2 SLP214 CB DSNT W-N T02110172=
202301021822 SPECI KATL 021822Z VRB04KT 10SM SCT012 BKN055 21/17 A3018 RMK AO2 T02060167=
202301021752 METAR KATL 021752Z 20007KT 10SM BKN011 BKN026 BKN070 20/17 A3020 RMK AO2 SLP223 T02000167 10200 20128 58009=
202301021742 SPECI KATL 021742Z 20007KT 10SM FEW009 BKN026 BKN070 19/17 A3020 RMK AO2 T01940167=
202301021719 SPECI KATL 021719Z 23007KT 8SM SCT007 SCT022 BKN070 19/17 A3021 RMK AO2 T01890167=
202301021652 METAR KATL 021652Z 20005KT 8SM OVC007 18/16 A3022 RMK AO2 SLP232 T01830161=
202301021632 SPECI KATL 021632Z 20005KT 7SM OVC006 18/16 A3023 RMK AO2 T01780161=
202301021552 METAR KATL 021552Z 19006KT 2SM BKN005 BKN050 17/15 A3022 RMK AO2 SFC VIS 7 SLP233 T01720150=
202301021538 SPECI KATL 021538Z 18006KT 2SM BKN005 OVC050 17/14 A3022 RMK AO2 SFC VIS 7 T01670144=
202301021452 METAR KATL 021452Z 19004KT 2SM BKN004 OVC043 16/13 A3023 RMK AO2 SFC VIS 7 SLP233 T01560133 51014=
202301021441 SPECI KATL 021441Z 17004KT 2SM BKN004 OVC043 16/13 A3022 RMK AO2 SFC VIS 7 T01560133 $=
202301021425 SPECI KATL 021425Z 19003KT 10SM BKN005 BKN028 BKN055 14/12 A3022 RMK AO2 T01440122 $=
202301021352 METAR KATL 021352Z 20004KT 10SM FEW027 BKN039 OVC060 14/12 A3021 RMK AO2 SLP229 T01390117 $=
202301021252 METAR KATL 021252Z 15003KT 10SM BKN050 BKN250 13/11 A3020 RMK AO2 SLP224 T01330111 $=
202301021152 METAR KATL 021152Z 00000KT 10SM BKN055 OVC250 13/11 A3018 RMK AO2 SLP219 T01280111 10128 20100 52006 $=
202301021052 METAR KATL 021052Z 00000KT 10SM BKN050 BKN250 13/11 A3018 RMK AO2 SLP217 T01280111 $=
202301020952 METAR KATL 020952Z 00000KT 9SM BKN050 BKN250 11/10 A3017 RMK AO2 SLP214 T01060100 $=
202301020852 METAR KATL 020852Z 00000KT 6SM BR SCT250 11/09 A3016 RMK AO2 SLP211 T01060094 56002 $=
202301020820 SPECI KATL 020820Z 00000KT 1 3/4SM BR CLR 11/09 A3016 RMK AO2 T01060094 $=
202301020752 METAR KATL 020752Z 00000KT 10SM BKN055 BKN250 11/10 A3016 RMK AO2 SLP211 T01110100 $=
202301020652 METAR KATL 020652Z 00000KT 10SM FEW200 FEW250 11/10 A3016 RMK AO2 SLP212 T01110100 $=
202301020552 METAR KATL 020552Z 00000KT 10SM CLR 12/11 A3017 RMK AO2 SLP215 T01170106 10167 20117 50001 $=
202301020452 METAR KATL 020452Z 12003KT 10SM CLR 12/11 A3018 RMK AO2 SLP217 T01220106 402110122 $=
202301020352 METAR KATL 020352Z 00000KT 10SM CLR 14/11 A3018 RMK AO2 SLP218 T01390111 $=
202301020252 METAR KATL 020252Z 20003KT 10SM CLR 14/11 A3017 RMK AO2 SLP215 T01440111 53015 $=
202301020152 METAR KATL 020152Z 19003KT 10SM CLR 15/11 A3015 RMK AO2 SLP210 T01500111 $=
202301020052 METAR KATL 020052Z 17003KT 10SM CLR 16/11 A3014 RMK AO2 SLP204 T01560106 $=
202301012352 METAR KATL 012352Z 18004KT 10SM CLR 17/11 A3012 RMK AO2 SLP199 T01670111 10211 20167 53010 $=
202301012252 METAR KATL 012252Z 18003KT 10SM FEW250 18/11 A3011 RMK AO2 SLP194 T01780111 $=
202301012152 METAR KATL 012152Z 28004KT 10SM FEW042 FEW250 21/10 A3010 RMK AO2 SLP191 T02060100 $=
202301012052 METAR KATL 012052Z VRB05KT 10SM FEW038 FEW250 21/12 A3009 RMK AO2 SLP186 T02110117 56007 $=
202301011952 METAR KATL 011952Z 29006KT 10SM FEW032 21/11 A3009 RMK AO2 SLP187 T02060111 $=
202301011852 METAR KATL 011852Z 31005KT 10SM FEW028 19/12 A3010 RMK AO2 SLP188 T01940122 $=
202301011810 SPECI KATL 011810Z 28007KT 10SM SCT022 SCT038 19/12 A3011 RMK AO2 T01890122 $=
202301011752 METAR KATL 011752Z VRB04KT 10SM BKN021 BKN038 18/13 A3011 RMK AO2 SLP194 T01830133 10183 20122 58009 $=
202301011737 SPECI KATL 011737Z 25007KT 10SM BKN017 BKN040 17/13 A3013 RMK AO2 T01720133 $=
202301011721 SPECI KATL 011721Z 25007KT 10SM BKN013 17/13 A3013 RMK AO2 T01720133 $=
202301011702 SPECI KATL 011702Z 24006KT 10SM SCT010 16/14 A3014 RMK AO2 T01610139 $=
202301011652 METAR KATL 011652Z 26005KT 9SM BKN009 BKN013 16/14 A3014 RMK AO2 SLP205 T01560139 $=
202301011552 METAR KATL 011552Z 26006KT 1 1/2SM BR OVC006 14/13 A3015 RMK AO2 SFC VIS 6 SLP209 BINOVC T01390133 $=
202301011536 SPECI KATL 011536Z 26004KT 1 1/2SM BR OVC005 14/13 A3015 RMK AO2 SFC VIS 6 BINOVC T01390133 $=
202301011452 METAR KATL 011452Z 27006KT 1SM R09R/P6000FT BR OVC003 13/13 A3014 RMK AO2 SFC VIS 2 SLP206 T01330128 53015 $=
202301011450 SPECI KATL 011450Z 26005KT 1SM R09R/P6000FT BR OVC003 13/13 A3014 RMK AO2 SFC VIS 2 $=
202301011437 SPECI KATL 011437Z 26006KT 1/4SM R09R/2000V5000FT FG VV002 13/13 A3014 RMK AO2 SFC VIS 1/2 T01330128 $=
202301011359 SPECI KATL 011359Z 21004KT 1/4SM R09R/1400V1800FT FG VV002 13/12 A3011 RMK AO2 T01280122 $=
202301011352 METAR KATL 011352Z 21003KT 1/4SM R09R/1400V3000FT FG VV002 13/12 A3011 RMK AO2 SLP195 T01280122 $=
202301011349 SPECI KATL 011349Z 20003KT 1/4SM R09R/1400V3000FT FG VV002 13/12 A3011 RMK AO2 $=
202301011252 METAR KATL 011252Z 00000KT 1/4SM R09R/1800V2200FT BR VV003 12/12 A3010 RMK AO2 SFC VIS 3/4 SLP191 TWRINC T01220122 $=
