##########################################################
# Query made at 04/20/2024 00:28:49 UTC
# Time interval: from 08/01/2023 12:00  to 08/31/2023 12:59  UTC
##########################################################

##########################################################
# KATL, Atlanta, Hartsfield - Jackson Atlanta International Airport (United States)
# WMO index: 72219. WIGOS ID: 0-20000-0-72219
# Latitude 33-38-59N. Longitude 084-25-00W. Altitude 312 m.
##########################################################

202308311252 METAR KATL 311252Z 32003KT 10SM FEW015 BKN040 22/18 A2988 RMK AO2 SLP110 T02220183 $=
202308311152 METAR KATL 311152Z 34006KT 10SM SCT039 21/18 A2987 RMK AO2 SLP104 70046 T02060183 10217 20200 53017 $=
202308311052 METAR KATL 311052Z 30004KT 10SM BKN038 BKN065 20/18 A2985 RMK AO2 SLP097 T02000183=
202308310952 METAR KATL 310952Z 30006KT 10SM FEW070 20/18 A2983 RMK AO2 SLP092 T02000183=
202308310852 METAR KATL 310852Z 30006KT 10SM FEW070 FEW250 21/18 A2982 RMK AO2 SLP087 T02060183 51005=
202308310752 METAR KATL 310752Z 32005KT 10SM FEW070 FEW250 21/18 A2981 RMK AO2 SLP086 T02060183=
202308310652 METAR KATL 310652Z 32006KT 10SM FEW080 SCT200 21/18 A2981 RMK AO2 SLP084 T02110183=
202308310552 METAR KATL 310552Z 32005KT 10SM FEW060 SCT250 22/18 A2980 RMK AO2 SLP081 60046 T02170183 10256 20211 51005=
202308310452 METAR KATL 310452Z 31006KT 10SM FEW060 FEW150 SCT250 22/19 A2980 RMK AO2 SLP080 T02170189 402940217=
202308310352 METAR KATL 310352Z 31006KT 10SM BKN060 BKN150 BKN250 22/20 A2980 RMK AO2 SLP081 T02220200=
202308310252 METAR KATL 310252Z 29007KT 10SM FEW050 BKN110 BKN150 BKN250 23/21 A2979 RMK AO2 RAE06 SLP077 P0000 60046 T02330206 51022=
202308310152 METAR KATL 310152Z 29006KT 8SM -RA FEW009 BKN045 BKN070 BKN150 23/21 A2977 RMK AO2 SLP072 CB DSNT SE-S P0034 T02280206=
202308310136 SPECI KATL 310136Z 32008KT 4SM RA BR FEW007 SCT020CB BKN040 BKN150 23/21 A2977 RMK AO2 CB SE-S MOV S P0025 T02280211=
202308310110 SPECI KATL 310110Z 34011KT 2 1/2SM +RA BR FEW007 BKN020CB BKN045 OVC150 24/22 A2976 RMK AO2 CB OHD-S MOV S P0006 T02390222=
202308310052 METAR KATL 310052Z 33006KT 5SM RA BR FEW007 BKN015CB BKN030 OVC150 24/22 A2975 RMK AO2 RAB25 SLP065 VIS LWR NE-SE-S CB NE-SE-S MOV S P0012 T02390222=
202308310042 SPECI KATL 310042Z 02007G19KT 5SM -RA BR SCT022CB BKN030 BKN050 BKN200 24/22 A2975 RMK AO2 RAB25 VIS LWR NE-SE-S CB NE-SE-S MOV S P0008 T02440222=
202308310029 SPECI KATL 310029Z 35009KT 2 1/2SM RA SCT024CB BKN030 BKN050 BKN200 26/22 A2974 RMK AO2 RAB25 CB OHD-NE MOV S P0000 T02560217=
202308302352 METAR KATL 302352Z 32010KT 10SM SCT028 BKN035 BKN150 BKN200 26/22 A2972 RMK AO2 SLP053 CB DSNT N-NE S-SW TCU DSNT SE 60000 T02560222 10294 20256 53008=
202308302252 METAR KATL 302252Z 36012KT 10SM FEW025TCU SCT040 BKN150 BKN200 28/21 A2970 RMK AO2 RAB09E27 SLP047 CB DSNT SW TCU SE-S P0000 T02780211=
202308302152 METAR KATL 302152Z 02009G17KT 10SM FEW025TCU SCT120 BKN150 BKN200 28/21 A2970 RMK AO2 SLP045 TCU NW-N DSNT ALQDS T02830211=
202308302052 METAR KATL 302052Z 04011KT 10SM SCT026 SCT110 BKN180 BKN250 28/21 A2969 RMK AO2 RAE25 SLP044 TCU DSNT SW-NW P0000 60000 T02780211 56013=
202308301952 METAR KATL 301952Z 02011KT 10SM -RA SCT024TCU BKN095 BKN140 BKN200 27/21 A2971 RMK AO2 RAB50 SLP049 TCU N NE MDT CU NE-E W-NW PCPN VRY LGT P0000 T02720211=
202308301930 SPECI KATL 301930Z 03011KT 10SM BKN023 BKN090 BKN140 BKN200 27/21 A2971 RMK AO2 VIRGA NE-SE-SW T02670211=
202308301852 METAR KATL 301852Z 04015KT 10SM FEW021 SCT100 BKN140 BKN200 27/21 A2971 RMK AO2 SLP051 VIRGA NE-SE-SW T02670211=
202308301752 METAR KATL 301752Z 05013KT 10SM SCT018 SCT085 BKN130 OVC200 26/21 A2973 RMK AO2 SLP058 VIRGA NE-SE-SW T02560211 10261 20233 58013=
202308301731 SPECI KATL 301731Z 04012KT 10SM SCT017 SCT075 BKN110 OVC180 26/21 A2974 RMK AO2 VIRGA NE-SE-SW T02560211=
202308301652 METAR KATL 301652Z 06012KT 10SM BKN015 BKN040 BKN090 OVC150 26/21 A2976 RMK AO2 SLP068 CIG 013V017 T02560211=
202308301552 METAR KATL 301552Z 04012KT 10SM BKN015 BKN100 BKN140 OVC200 25/21 A2978 RMK AO2 SLP074 CIG 013V017 T02500211=
202308301452 METAR KATL 301452Z 04011KT 10SM BKN011 BKN100 BKN140 OVC200 25/21 A2977 RMK AO2 SLP072 CIG 009V013 T02500211 58002=
202308301352 METAR KATL 301352Z 03011KT 10SM BKN008 BKN110 BKN140 OVC200 24/22 A2977 RMK AO2 SLP072 CIG 007V010 T02440217=
202308301252 METAR KATL 301252Z 04009KT 10SM FEW007 SCT150 BKN200 BKN250 24/22 A2978 RMK AO2 SLP075 ACC SE-S T02390217=
202308301220 SPECI KATL 301220Z 04009KT 10SM SCT006 SCT150 BKN250 23/21 A2978 RMK AO2 T02330211=
202308301152 METAR KATL 301152Z 06007KT 10SM BKN006 BKN150 BKN250 23/22 A2978 RMK AO2 SLP073 CIG 005V009 60000 70008 T02330217 10239 20228 55004=
202308301126 SPECI KATL 301126Z 06006KT 10SM BKN006 BKN150 BKN250 23/21 A2978 RMK AO2 BKN006 V SCT T02330211=
202308301052 METAR KATL 301052Z 07007KT 10SM SCT006 BKN150 23/21 A2978 RMK AO2 SLP073 SCT006 V BKN T02280211=
202308301024 SPECI KATL 301024Z 07006KT 10SM BKN006 OVC150 23/21 A2978 RMK AO2 T02280211 $=
202308300952 METAR KATL 300952Z 12004KT 10SM FEW006 BKN150 23/21 A2977 RMK AO2 SLP071 T02280211 $=
202308300941 SPECI KATL 300941Z 11004KT 10SM SCT006 BKN150 23/21 A2978 RMK AO2 T02280211 $=
202308300852 METAR KATL 300852Z 11004KT 10SM BKN006 OVC150 23/22 A2979 RMK AO2 SLP076 60000 T02280217 58017 $=
202308300752 METAR KATL 300752Z 11004KT 10SM BKN006 OVC014 23/22 A2982 RMK AO2 SLP084 T02330217 $=
202308300652 METAR KATL 300652Z 10007KT 10SM BKN006 OVC011 23/22 A2983 RMK AO2 RAE05 SLP088 P0000 T02330222 $=
202308300601 SPECI KATL 300601Z 09005KT 10SM -RA BKN006 BKN100 OVC130 24/22 A2984 RMK AO2 CIG 004V009 BKN006 V SCT P0000 T02390222 $=
202308300552 METAR KATL 300552Z 08006KT 10SM -RA SCT005 SCT090 BKN110 OVC150 24/22 A2984 RMK AO2 SLP094 P0000 60008 T02390222 10267 20233 55005 $=
202308300452 METAR KATL 300452Z 33003KT 10SM -RA FEW005 BKN110 OVC150 23/22 A2984 RMK AO2 SLP093 P0001 T02330222 403220228 $=
202308300426 SPECI KATL 300426Z 32005KT 9SM -RA SCT006 BKN050 BKN110 OVC150 23/22 A2984 RMK AO2 P0001 T02330222 $=
202308300415 SPECI KATL 300415Z 28004KT 9SM -RA BKN006 BKN050 BKN110 OVC150 24/22 A2985 RMK AO2 CIG 004V009 P0000 T02390222 $=
202308300352 METAR KATL 300352Z 28005KT 9SM -RA SCT004 BKN110 OVC150 23/22 A2985 RMK AO2 SLP097 P0002 T02330222 $=
202308300340 SPECI KATL 300340Z 29005KT 10SM -RA FEW004 SCT010 BKN120 OVC150 23/22 A2985 RMK AO2 P0002 T02330222 $=
202308300252 METAR KATL 300252Z 28005KT 5SM -RA BR FEW010 BKN090 OVC150 24/22 A2986 RMK AO2 RAB02 SLP101 P0005 60005 T02390222 50007 $=
202308300225 SPECI KATL 300225Z 22004KT 7SM -RA FEW012 SCT020 BKN090 BKN150 OVC200 24/22 A2987 RMK AO2 RAB02 P0001 T02390217 $=
202308300152 METAR KATL 300152Z VRB03KT 10SM FEW012 BKN020 BKN080 BKN150 OVC200 24/21 A2989 RMK AO2 PK WND 18026/0055 SLP112 LTG DSNT NW-N CB DSNT NW-N SHRA SW-NW-NE T02440211 $=
202308300129 SPECI KATL 300129Z 22007KT 10SM FEW013 BKN080 BKN110 BKN150 OVC200 24/21 A2989 RMK AO2 PK WND 18026/0055 LTG DSNT NW-N CB DSNT NW-N T02440211 $=
202308300052 METAR KATL 300052Z 17015G22KT 10SM SCT014 BKN025 BKN070 OVC200 25/22 A2987 RMK AO2 PK WND 15027/0000 SLP103 LTG DSNT W-N-NE CB DSNT W-N-NE T02500217 $=
202308300024 SPECI KATL 300024Z 17016G26KT 10SM SCT015 BKN024 OVC200 26/22 A2986 RMK AO2 PK WND 15027/0000 LTG DSNT SW-NW-NE CB DSNT SW-NW-NE T02560217 $=
202308292352 METAR KATL 292352Z 14016G24KT 10SM FEW020 SCT070 BKN110 OVC200 27/22 A2984 RMK AO2 TSB01E52 SLP093 LTG DSNT SE SW-NW-NE TS MOVD N CB DSNT SE SW-NW-NE 60000 T02670217 10322 20267 53008 $=
202308292301 SPECI KATL 292301Z 16005KT 10SM TS FEW035CB SCT060 BKN100 OVC200 28/21 A2983 RMK AO2 TSB01 OCNL LTGICCG VC N-NE TS VC N-NE MOV N TCU W-N NE T02780206 $=
202308292252 METAR KATL 292252Z 16005KT 10SM FEW038CB SCT055 BKN110 OVC200 28/21 A2983 RMK AO2 LTG DSNT NE AND E SLP089 RAB14E24 CB W-NW DSNT NE-SE MOV N TCU NW-NE P0000 T02830206 $=
202308292152 METAR KATL 292152Z 16012G19KT 10SM SCT040TCU BKN070 BKN200 BKN250 31/22 A2982 RMK AO2 LTG DSNT E AND SE SLP086 CB DSNT E SE-S TCU E-OHD-W ALQDS T03060222 $=
202308292052 METAR KATL 292052Z 09005KT 10SM FEW040TCU SCT070 SCT200 BKN250 32/22 A2981 RMK AO2 LTG DSNT SE-SW SLP082 CB DSNT SE-SW TCU SW DSNT N-NE NW T03170222 57026 $=
202308291952 METAR KATL 291952Z 16005KT 10SM FEW033TCU SCT060 SCT200 SCT250 32/23 A2983 RMK AO2 LTG DSNT SE SLP090 CB DSNT SE TCU W DSNT NE-E S T03170228 $=
202308291852 METAR KATL 291852Z 14006KT 10SM SCT030TCU SCT200 SCT250 31/23 A2987 RMK AO2 SLP102 TCU SW-NW MDT CU ALQDS T03060228 $=
202308291752 METAR KATL 291752Z 13007KT 10SM SCT026 SCT180 SCT250 31/23 A2989 RMK AO2 SLP110 T03060233 10306 20239 58018 $=
202308291713 SPECI KATL 291713Z 11005KT 10SM SCT024 SCT150 SCT250 30/23 A2991 RMK AO2 T03000233 $=
202308291652 METAR KATL 291652Z 10007KT 9SM BKN022 BKN150 BKN250 29/23 A2992 RMK AO2 SLP120 T02940233 $=
202308291552 METAR KATL 291552Z 11005KT 8SM OVC018 28/23 A2994 RMK AO2 SLP126 BINOVC T02780233 $=
202308291452 METAR KATL 291452Z 09008KT 7SM OVC010 26/23 A2994 RMK AO2 SLP129 CIG 009V012 T02560228 53011=
202308291352 METAR KATL 291352Z 09007KT 3SM BR OVC008 25/23 A2992 RMK AO2 SFC VIS 6 SLP123 CIG 006V010 T02500228=
202308291252 METAR KATL 291252Z 10006KT 3SM BKN006 OVC013 24/22 A2991 RMK AO2 SFC VIS 7 SLP120 T02440222=
202308291152 METAR KATL 291152Z 07007KT 3SM BKN007 OVC013 24/22 A2991 RMK AO2 SFC VIS 7 SLP119 60000 70084 T02390217 10239 20228 53006=
202308291052 METAR KATL 291052Z 04005KT 3SM OVC006 24/22 A2989 RMK AO2 SFC VIS 8 SLP113 T02390222=
202308291010 SPECI KATL 291010Z 06004KT 3SM BKN006 OVC045 24/22 A2989 RMK AO2 SFC VIS 8 T02390217=
202308290952 METAR KATL 290952Z 06004KT 10SM BKN008 OVC045 23/22 A2988 RMK AO2 SLP108 T02330217=
202308290852 METAR KATL 290852Z 34006KT 10SM BKN008 OVC055 23/22 A2989 RMK AO2 SLP111 CB DSNT NW 60000 T02330217 55000=
202308290752 METAR KATL 290752Z 00000KT 10SM FEW060 FEW110 BKN150 BKN180 23/22 A2988 RMK AO2 SLP106 T02330217=
202308290652 METAR KATL 290652Z 12004KT 10SM FEW060 FEW110 BKN150 BKN180 23/22 A2988 RMK AO2 LTG DSNT SW RAB0558E10 SLP107 CB DSNT SW P0000 T02330217=
202308290552 METAR KATL 290552Z 08005KT 10SM FEW110 BKN150 BKN180 23/21 A2989 RMK AO2 SLP109 60012 T02330211 10261 20228 58007=
202308290452 METAR KATL 290452Z 09006KT 10SM FEW110 BKN150 BKN200 23/22 A2990 RMK AO2 LTG DSNT N SLP115 CB DSNT N T02330217 403390228=
202308290352 METAR KATL 290352Z 06005KT 10SM FEW080 SCT110 BKN150 BKN200 24/21 A2992 RMK AO2 LTG DSNT NW RAB08E19 SLP120 CB DSNT NW P0000 T02390211=
202308290252 METAR KATL 290252Z 10005KT 10SM FEW110 BKN140 BKN200 24/22 A2991 RMK AO2 RAE38 SLP118 P0000 60012 T02440222 55003=
202308290152 METAR KATL 290152Z 00000KT 10SM -RA FEW090 SCT120 BKN150 OVC200 24/22 A2991 RMK AO2 SLP116 P0002 T02390222=
202308290052 METAR KATL 290052Z 01004KT 8SM -RA FEW070 BKN110 OVC150 24/22 A2989 RMK AO2 LTG DSNT NW-NE TSE49 SLP111 TS DSIPTD CB DSNT NW-NE P0010 T02390217=
202308282352 METAR KATL 282352Z 03013KT 6SM +TSRA BR FEW008 SCT040CB BKN110 OVC150 23/21 A2992 RMK AO2 SLP123 OCNL LTGICCA ALQDS TS ALQDS MOV N P0006 60072 T02280206 10339 20228 53024=
202308282252 METAR KATL 282252Z 24005KT 5SM TSRA BR FEW025CB BKN050 OVC150 23/22 A2990 RMK AO2 PK WND 26030/2212 WSHFT 2201 RAB10 SLP115 FRQ LTGICCG NW-NE VC E-S TS NW-NE VC E-S MOV N P0055 T02330217=
202308282242 SPECI KATL 282242Z VRB03KT 3SM TSRA BR FEW010 SCT025CB BKN050 OVC150 23/22 A2991 RMK AO2 PK WND 26030/2212 WSHFT 2201 RAB10 VIS LWR N-E-SE FRQ LTGICCG OHD-ALQDS TS OHD-ALQDS MOV N P0052 T02330217=
202308282225 SPECI KATL 282225Z 20013G23KT 1 1/2SM +TSRA BR FEW010 SCT025CB BKN035 OVC150 24/22 A2991 RMK AO2 PK WND 26030/2212 WSHFT 2201 RAB10 PRESRR FRQ LTGICCG OHD-ALQDS TS OHD-ALQDS MOV N P0006 T02390217=
202308282219 SPECI KATL 282219Z 21013G30KT 8SM -TSRA FEW010 SCT025CB BKN040 BKN150 OVC200 24/21 A2988 RMK AO2 PK WND 26030/2212 WSHFT 2201 RAB10 PRESRR VIS LWR SE-SW-NW FRQ LTGICCG SE-OHD-NW TS SE-OHD-NW MOV N P0001 T02440211=
202308282152 METAR KATL 282152Z 11006KT 10SM TS FEW025CB BKN070 BKN200 OVC250 28/21 A2985 RMK AO2 RAE04 SLP096 OCNL LTGICCG VC SE-SW-NW DSNT NW-NE TS VC SE-SW-NW DSNT NW-NE MOV N P0000 T02830206=
202308282052 METAR KATL 282052Z 12013G23KT 6SM TSRA SCT032CB BKN080 BKN200 BKN250 26/22 A2985 RMK AO2 PK WND 14026/2028 LTG DSNT ALQDS RAB27 SLP097 OCNL LTGICCG NW-N TS NW-N MOV N CB DSNT ALQDS P0011 60011 T02610222 55006=
202308281952 METAR KATL 281952Z 12008KT 080V150 10SM TS SCT038CB BKN080 BKN200 BKN250 33/23 A2982 RMK AO2 LTG DSNT ALQDS TSB24 SLP084 OCNL LTGICCG VC SE TS VC SE MOV N CB DSNT ALQDS TCU ALQDS T03330228=
202308281925 SPECI KATL 281925Z 11007KT 10SM TS SCT036CB BKN075 BKN250 33/23 A2983 RMK AO2 LTG DSNT N AND SE TSB24 OCNL LTGICCG VC SE TS VC SE MOV N CB DSNT N SE TCU NE S SW-NW T03330228=
202308281852 METAR KATL 281852Z 14007KT 10SM SCT033TCU BKN060 BKN250 33/23 A2984 RMK AO2 LTG DSNT N SLP093 CB DSNT N TCU N SE-SW-NW MDT CU ALQDS T03280228=
202308281752 METAR KATL 281752Z 16005KT 10SM SCT028TCU BKN048 BKN250 32/23 A2986 RMK AO2 SLP101 TCU NW-N MDT CU ALQDS T03170233 10317 20239 58010=
202308281700 SPECI KATL 281700Z 20005KT 10SM BKN031 BKN044 BKN250 31/23 A2988 RMK AO2 MDT CU ALQDS T03060233=
202308281652 METAR KATL 281652Z 18007KT 10SM BKN026 BKN033 BKN250 31/23 A2989 RMK AO2 SLP108 MDT CU ALQDS T03060233=
202308281631 SPECI KATL 281631Z 18006KT 10SM BKN025 BKN250 30/23 A2989 RMK AO2 T03000233=
202308281552 METAR KATL 281552Z 15008KT 10SM SCT024 SCT250 30/23 A2990 RMK AO2 SLP111 T03000228=
202308281452 METAR KATL 281452Z VRB03KT 10SM FEW022 FEW250 28/23 A2990 RMK AO2 SLP111 T02830228 53002=
202308281352 METAR KATL 281352Z 12006KT 10SM FEW018 FEW200 SCT250 27/22 A2989 RMK AO2 SLP109 T02670222=
202308281252 METAR KATL 281252Z 12006KT 10SM FEW180 FEW250 25/22 A2989 RMK AO2 SLP109 T02500217=
202308281152 METAR KATL 281152Z 12005KT 10SM FEW008 FEW019 FEW180 FEW250 24/21 A2989 RMK AO2 SLP109 60000 T02390211 10256 20233 53008=
202308281052 METAR KATL 281052Z 10007KT 10SM FEW008 FEW019 FEW200 24/21 A2988 RMK AO2 SLP105 T02390211=
202308281017 SPECI KATL 281017Z 11008KT 10SM FEW008 SCT019 SCT055 24/21 A2987 RMK AO2 T02390211 $=
202308281003 SPECI KATL 281003Z 10006KT 10SM SCT008 BKN017 OVC023 24/21 A2987 RMK AO2 T02390211 $=
202308280952 METAR KATL 280952Z 10009KT 10SM BKN008 OVC017 24/22 A2987 RMK AO2 SLP102 T02440217 $=
202308280852 METAR KATL 280852Z 11008KT 10SM BKN008 BKN019 BKN050 BKN200 24/22 A2986 RMK AO2 LTG DSNT N SLP101 CB DSNT N-NE W-NW 60000 T02440222 51004 $=
202308280845 SPECI KATL 280845Z 10011KT 10SM BKN008 BKN016 24/22 A2986 RMK AO2 LTG DSNT N CB DSNT N-NE T02440222 $=
202308280752 METAR KATL 280752Z 08013KT 10SM BKN016 BKN050 BKN200 25/22 A2986 RMK AO2 SLP098 TSE10 TS MOVD N LTG DSNT N-E W CB DSNT N-E W T02500217 $=
202308280711 SPECI KATL 280711Z 08009KT 10SM BKN015 BKN024 OVC050 25/22 A2985 RMK AO2 LTG DSNT N-E TSE10 TS MOVD N CB DSNT N-E T02500217 $=
202308280652 METAR KATL 280652Z 06008KT 10SM TS BKN016 BKN024CB BKN050 OVC200 26/22 A2986 RMK AO2 LTG DSNT NW-E RAB15E25 TSB0559 SLP099 OCNL LTGICCG VC NW-N TS VC NW-N MOV N CB DSNT NW-NE-E P0000 T02560217 $=
202308280649 SPECI KATL 280649Z 06008KT 10SM TS BKN016 BKN024CB BKN050 OVC200 26/22 A2986 RMK AO2 LTG DSNT NW-E RAB15E25 TSB0559 OCNL LTGICCG VC NW-N TS VC NW-N MOV N CB DSNT NW-E P0000 $=
202308280559 SPECI KATL 280559Z 02007KT 10SM TS FEW033CB BKN055 BKN090 BKN200 26/22 A2985 RMK AO2 LTG DSNT W AND NW TSB59 OCNL LTGICCG VC NW TS VC NW MOV N CB DSNT E NW T02560217 $=
202308280552 METAR KATL 280552Z 04006KT 10SM BKN055CB BKN090 BKN120 BKN200 26/22 A2985 RMK AO2 LTG DSNT E AND W AND NW SLP095 TS DSIPTD CB NW & DSNT E W NW MOV N 60000 T02560217 10317 20250 51000 $=
202308280546 SPECI KATL 280546Z 06008KT 10SM BKN060 BKN090 BKN120 BKN200 26/22 A2985 RMK AO2 LTG DSNT E AND W AND NW TSB22E46 TS DSIPTD CB DSNT E W NW=
202308280522 SPECI KATL 280522Z 08011KT 10SM TS BKN065CB BKN120 BKN200 26/22 A2985 RMK AO2 LTG DSNT E AND W TSB22 OCNL LTGICCG VC W TS VC W MOV N CB DSNT E W T02560222=
202308280452 METAR KATL 280452Z 10009KT 10SM FEW070 BKN120 BKN200 26/22 A2985 RMK AO2 RAE17 SLP095 OCNL LTGIC DSNT E W CB DSNT NE E W P0000 T02610217 403610250=
202308280352 METAR KATL 280352Z 11008KT 9SM -RA FEW065 SCT100 OVC130 26/22 A2986 RMK AO2 LTG DSNT SE RAB03E29B51 TSE51 SLP097 TS DSIPTD CB DSNT NE SE P0000 T02560217=
202308280252 METAR KATL 280252Z 18007G15KT 10SM TS SCT065CB OVC095 27/21 A2985 RMK AO2 TSB06 SLP095 FRQ LTGICCCCG VC S-SW TS VC S-SW MOV STNRY CB NW-N MOV STNRY T02720211 53017=
202308280207 SPECI KATL 280207Z 20006KT 10SM TS BKN065CB BKN110 OVC200 28/21 A2983 RMK AO2 TSB06 OCNL LTGCGIC VC S TS VC S MOV STNRY CB DSNT SW TCU DSNT NW T02830211=
202308280152 METAR KATL 280152Z 16004KT 10SM FEW060 SCT110 BKN200 BKN250 28/21 A2982 RMK AO2 SLP087 OCNL LTGICCG DSNT S-SW CB DSNT S-SW TCU DSNT NW T02830211=
202308280052 METAR KATL 280052Z 09010KT 10SM SCT060TCU BKN200 BKN250 29/21 A2982 RMK AO2 SLP087 TCU NW-N DSNT SW T02940211=
202308272352 METAR KATL 272352Z VRB04KT 10SM FEW060 FEW140 BKN200 BKN250 32/23 A2980 RMK AO2 SLP077 CB DSNT NE E SW MDT CU NW 60000 T03170228 10361 20289 53004=
202308272252 METAR KATL 272252Z 13004KT 10SM FEW055 SCT140 BKN200 BKN250 33/20 A2979 RMK AO2 SLP074 CB DSNT N E-SE TCU DSNT S NW T03330200=
202308272152 METAR KATL 272152Z 17005KT 10SM FEW055 SCT110 BKN140 BKN200 32/19 A2979 RMK AO2 LTG DSNT N AND SE RAE07 SLP075 CB DSNT N SE TCU DSNT ALQDS P0000 T03220194=
202308272052 METAR KATL 272052Z 29003KT 10SM -RA SCT045TCU BKN070 BKN110 30/20 A2979 RMK AO2 TSE25 SLP074 TCU OHD-W-NW AND S TS DSPTD MDT CU ALQDS P0000 60000 T03000200 56006=
202308272031 SPECI KATL 272031Z 18005KT 10SM -RA SCT045TCU BKN070 BKN110 29/21 A2979 RMK AO2 TSE25 TCU OHD-SW-W TS DSPTD MDT CU ALQDS P0000 T02890206=
202308271952 METAR KATL 271952Z 14010G18KT 8SM -TSRA SCT047CB BKN065 BKN095 31/21 A2979 RMK AO2 WSHFT 1931 LTG DSNT NE-SE RAB49 TSB12 SLP076 OCNL LTGIC SE-SW TS SE-SW MOV NE CB DSNT NE-SW P0000 T03060206=
202308271946 SPECI KATL 271946Z 13012KT 10SM TS SCT047CB BKN065 BKN095 31/20 A2979 RMK AO2 WSHFT 1931 LTG DSNT NE-SE TSB12 OCNL LTGIC VC SE-SW TS VC SE-SW MOV NE CB DSNT NE-SW=
202308271919 SPECI KATL 271919Z 04010G19KT 10SM TS SCT050CB SCT070 BKN100 33/20 A2979 RMK AO2 LTG DSNT ALQDS TSB12 OCNL LTGIC VC SE-S TS VC SE-S MOV NE CB DSNT ALQDS T03330200=
202308271852 METAR KATL 271852Z 09013KT 10SM SCT050 SCT060 BKN095 33/22 A2981 RMK AO2 LTG DSNT ALQDS SLP079 RAB1758E18 TSB06E46 TS MOV E CB DSNT NE-S P0000 T03330217=
202308271807 SPECI KATL 271807Z 30006KT 10SM -TSRA SCT048CB SCT055 BKN095 36/21 A2982 RMK AO2 LTG DSNT NE-S RAB1758 TSB06 ONCL LTGICCG E TS E MOV SE CB DSNT NE-S TCU W-NW P0000 T03560211=
202308271752 METAR KATL 271752Z 31005KT 10SM SCT048TCU SCT055 BKN095 34/21 A2983 RMK AO2 LTG DSNT SE AND S SLP086 CB DSNT SE AND S TCU OHD-NE-E AND W T03440211 10356 20272 58014=
202308271652 METAR KATL 271652Z VRB05KT 10SM SCT047 35/22 A2985 RMK AO2 SLP094 T03500222=
202308271552 METAR KATL 271552Z VRB04KT 10SM CLR 33/22 A2987 RMK AO2 SLP100 T03330222=
202308271452 METAR KATL 271452Z 19003KT 10SM FEW250 32/23 A2987 RMK AO2 SLP100 T03170228 51005=
202308271352 METAR KATL 271352Z 00000KT 10SM FEW250 29/23 A2987 RMK AO2 SLP100 T02940228=
202308271252 METAR KATL 271252Z VRB05KT 10SM FEW250 28/22 A2986 RMK AO2 SLP097 T02780222=
202308271152 METAR KATL 271152Z 07005KT 10SM FEW200 FEW250 27/22 A2985 RMK AO2 SLP096 T02720217 10283 20256 53006=
202308271052 METAR KATL 271052Z 33004KT 10SM FEW250 26/21 A2985 RMK AO2 SLP094 T02610211=
202308270952 METAR KATL 270952Z 01003KT 10SM SCT250 27/21 A2983 RMK AO2 SLP088 T02720211=
202308270852 METAR KATL 270852Z 02006KT 10SM SCT250 27/21 A2983 RMK AO2 SLP088 T02720211 56009=
202308270752 METAR KATL 270752Z 33005KT 10SM FEW250 27/22 A2984 RMK AO2 SLP089 T02670217=
202308270652 METAR KATL 270652Z 32005KT 10SM FEW250 28/22 A2984 RMK AO2 SLP091 T02780217=
202308270552 METAR KATL 270552Z 33007KT 10SM FEW250 28/22 A2986 RMK AO2 SLP098 T02830222 10333 20283 55008=
202308270452 METAR KATL 270452Z 34003KT 10SM FEW250 29/22 A2986 RMK AO2 SLP097 T02890217 403720250=
202308270352 METAR KATL 270352Z 34004KT 10SM FEW150 FEW250 30/22 A2987 RMK AO2 SLP102 T03000217=
202308270252 METAR KATL 270252Z 33005KT 10SM SCT150 SCT200 31/21 A2989 RMK AO2 SLP107 T03060211 51020=
202308270152 METAR KATL 270152Z 30006KT 10SM BKN140 BKN200 32/19 A2988 RMK AO2 SLP105 T03170194=
202308270052 METAR KATL 270052Z 32005KT 10SM FEW130 SCT250 32/19 A2985 RMK AO2 SLP096 T03170189=
202308262352 METAR KATL 262352Z 33008KT 10SM FEW055 FEW110 SCT200 33/18 A2983 RMK AO2 SLP086 TCU DSNT S T03330183 10372 20333 56007=
202308262252 METAR KATL 262252Z 02008KT 10SM FEW060 FEW110 SCT150 SCT200 34/18 A2983 RMK AO2 WSHFT 2210 TSB2159E19 SLP089 TS DSIPTD CB DSNT S NW MDT CU SW T03440183 $=
202308262220 SPECI KATL 262220Z 03016KT 10SM SCT060TCU SCT095 SCT200 35/19 A2984 RMK AO2 TSB2159E19 TS DSIPTD CB DSNT N SE TCU SE-S DSNT SW T03500194 $=
202308262159 SPECI KATL 262159Z 32007KT 10SM TS SCT055CB SCT100 SCT200 37/19 A2983 RMK AO2 TSB59 OCNL LTGCG VC NE TS VC NE MOV S CB DSNT N TCU N-E DSNT S SW T03670189 $=
202308262152 METAR KATL 262152Z 33006KT 10SM SCT055TCU SCT100 SCT200 37/19 A2984 RMK AO2 LTG DSNT N AND NE SLP089 CB DSNT N NE TCU N-E DSNT N SW T03670189 $=
202308262052 METAR KATL 262052Z 32007KT 10SM SCT065 SCT085 BKN200 37/19 A2985 RMK AO2 SLP093 MDT CU NE-S AND NW T03720189 56021 $=
202308261952 METAR KATL 261952Z 31008KT 290V350 10SM SCT060 SCT200 37/21 A2987 RMK AO2 SLP099 MDT CU E-S AND NW T03720211 $=
202308261852 METAR KATL 261852Z 34011G17KT 10SM SCT060 SCT200 37/21 A2989 RMK AO2 SLP108 T03720211 $=
202308261752 METAR KATL 261752Z 31012G19KT 10SM SCT050 SCT200 37/22 A2991 RMK AO2 SLP115 T03670217 10367 20261 58014 $=
202308261652 METAR KATL 261652Z 34009G15KT 10SM FEW050 FEW200 36/22 A2993 RMK AO2 SLP120 T03560222 $=
202308261552 METAR KATL 261552Z 36012KT 10SM FEW200 34/22 A2995 RMK AO2 SLP127 T03440217 $=
202308261452 METAR KATL 261452Z 33009G16KT 10SM FEW200 FEW250 33/23 A2995 RMK AO2 SLP129 T03330228 50003 $=
202308261352 METAR KATL 261352Z 33009KT 10SM FEW200 FEW250 31/23 A2996 RMK AO2 SLP129 T03110233 $=
202308261252 METAR KATL 261252Z 33007KT 9SM FEW150 FEW200 SCT250 28/23 A2995 RMK AO2 SLP129 T02830228 $=
202308261152 METAR KATL 261152Z 32006KT 8SM FEW150 FEW250 26/23 A2994 RMK AO2 SLP126 T02610228 10283 20250 53008 $=
202308261052 METAR KATL 261052Z 31007KT 9SM FEW250 26/23 A2993 RMK AO2 SLP123 T02560228 $=
202308260952 METAR KATL 260952Z 30005KT 9SM FEW250 26/23 A2992 RMK AO2 SLP120 T02560228 $=
202308260852 METAR KATL 260852Z 32007KT 10SM FEW250 26/23 A2992 RMK AO2 SLP117 T02610228 56011 $=
202308260752 METAR KATL 260752Z 31006KT 10SM FEW250 27/23 A2992 RMK AO2 SLP117 T02670228 $=
202308260652 METAR KATL 260652Z 31005KT 10SM FEW250 27/23 A2993 RMK AO2 SLP119 T02720228 $=
202308260552 METAR KATL 260552Z 33006KT 10SM SCT250 28/22 A2995 RMK AO2 SLP128 T02830222 10333 20283 58010 $=
202308260452 METAR KATL 260452Z 31005KT 10SM BKN250 28/23 A2997 RMK AO2 SLP134 T02830233 403670256 $=
202308260352 METAR KATL 260352Z 30004KT 10SM BKN250 29/23 A2997 RMK AO2 SLP134 T02940233 $=
202308260252 METAR KATL 260252Z VRB06KT 10SM BKN250 30/23 A2998 RMK AO2 SLP138 T03000233 51015 $=
202308260152 METAR KATL 260152Z 32007KT 10SM FEW200 BKN250 31/23 A2997 RMK AO2 SLP136 T03110228 $=
202308260052 METAR KATL 260052Z 31007KT 10SM FEW200 SCT250 32/23 A2995 RMK AO2 SLP128 T03170228 $=
202308252352 METAR KATL 252352Z 31006KT 10SM FEW200 33/22 A2993 RMK AO2 SLP123 T03330217 10367 20333 55008 $=
202308252252 METAR KATL 252252Z 29010KT 10SM FEW200 35/21 A2993 RMK AO2 SLP122 T03500211 $=
202308252152 METAR KATL 252152Z 28010KT 10SM FEW060 FEW200 36/21 A2994 RMK AO2 SLP124 T03560206 $=
202308252052 METAR KATL 252052Z 33010G14KT 10SM FEW046 SCT060 SCT200 36/21 A2996 RMK AO2 SLP131 T03610206 56021 $=
202308251952 METAR KATL 251952Z VRB04KT 10SM FEW042 SCT050 SCT200 36/21 A2998 RMK AO2 SLP138 MDT CU SE-S T03610211 $=
202308251852 METAR KATL 251852Z 31007G18KT 10SM SCT044 SCT055 SCT200 36/22 A3000 RMK AO2 SLP144 MDT CU SE AND W T03610222 $=
202308251752 METAR KATL 251752Z 32007G16KT 10SM SCT040 SCT050 BKN200 36/22 A3002 RMK AO2 SLP153 MDT CU S-NW T03560222 10356 20267 $=
202308251652 METAR KATL 251652Z 34011G18KT 10SM SCT034 SCT046 BKN200 34/23 A3004 RMK AO2 SLP159 MDT CU ALQDS T03390233 $=
202308251552 METAR KATL 251552Z 32008KT 10SM 33/24 A3006 RMK AO2 SLP164 T03330239 $=
202308251452 METAR KATL 251452Z 31010KT 10SM FEW045 SCT200 SCT250 32/24 A3006 RMK AO2 SLP164 T03220239 51013=
202308251352 METAR KATL 251352Z 31008KT 8SM FEW041 SCT055 SCT200 SCT250 30/24 A3005 RMK AO2 SLP163 MDT CU SE-S T03000239=
202308251252 METAR KATL 251252Z 30009KT 7SM FEW040 SCT060 SCT200 SCT250 28/23 A3005 RMK AO2 SLP161 MDT CU NE-SE-SW T02780233 $=
202308251152 METAR KATL 251152Z 30008KT 7SM FEW200 SCT250 27/23 A3002 RMK AO2 SLP152 T02670233 10283 20256 53003 $=
202308251052 METAR KATL 251052Z 30008KT 9SM FEW050 SCT200 SCT250 27/23 A3000 RMK AO2 SLP147 T02670228 $=
202308250952 METAR KATL 250952Z 27006KT 9SM FEW048 BKN200 BKN250 27/23 A3000 RMK AO2 SLP146 T02720233 $=
202308250852 METAR KATL 250852Z 29006KT 9SM OVC180 28/23 A3001 RMK AO2 SLP148 T02780233 58001 $=
202308250752 METAR KATL 250752Z 30006KT 8SM OVC170 28/24 A3002 RMK AO2 SLP151 T02780239 $=
202308250652 METAR KATL 250652Z 29008KT 10SM BKN170 28/24 A3001 RMK AO2 SLP149 T02780239 $=
202308250552 METAR KATL 250552Z 28005KT 9SM BKN150 28/24 A3001 RMK AO2 SLP150 T02780239 10333 20278 58004 $=
202308250452 METAR KATL 250452Z 27005KT 10SM CLR 28/24 A3002 RMK AO2 SLP154 T02830239 403560244 $=
202308250352 METAR KATL 250352Z 27006KT 10SM CLR 28/24 A3003 RMK AO2 SLP155 T02830239 $=
202308250252 METAR KATL 250252Z 26003KT 10SM FEW200 29/24 A3002 RMK AO2 SLP154 T02940239 53004 $=
202308250152 METAR KATL 250152Z 27005KT 10SM FEW200 30/23 A3002 RMK AO2 SLP152 T03000228 $=
202308250052 METAR KATL 250052Z 23003KT 10SM FEW200 32/23 A3001 RMK AO2 SLP148 T03170228 $=
202308242352 METAR KATL 242352Z 25004KT 10SM FEW045TCU FEW180CB SCT200 33/23 A3001 RMK AO2 SLP151 CBMAM NE-E TCU S T03280228 10356 20328 58004 $=
202308242252 METAR KATL 242252Z 29008KT 10SM SCT045TCU SCT200 34/23 A3002 RMK AO2 SLP153 LTG DSNT NE CB DSNT NE TCU NE-OHD-S T03390228 $=
202308242152 METAR KATL 242152Z 26004KT 10SM SCT050TCU SCT200 35/22 A3003 RMK AO2 SLP154 TCU N NW MDT CU OHD-S T03500222 $=
202308242052 METAR KATL 242052Z VRB04KT 9SM SCT050TCU SCT200 35/22 A3002 RMK AO2 SLP154 TCU SE NW MDT CU ALQDS T03500217 56018=
202308241952 METAR KATL 241952Z 34005KT 9SM SCT048 SCT200 35/22 A3004 RMK AO2 SLP160 TCU DSNT NW MDT CU SE-S T03500222=
202308241852 METAR KATL 241852Z VRB06KT 9SM FEW045 34/23 A3006 RMK AO2 SLP165 T03440228=
202308241752 METAR KATL 241752Z VRB03KT 9SM SCT038 33/22 A3008 RMK AO2 SLP172 T03330222 10333 20250 58012=
202308241652 METAR KATL 241652Z 32003KT 9SM BKN036 31/22 A3010 RMK AO2 SLP181 T03110222=
202308241552 METAR KATL 241552Z 00000KT 8SM BKN032 BKN050 31/22 A3012 RMK AO2 SLP185 T03060222=
202308241452 METAR KATL 241452Z VRB03KT 8SM SCT023 SCT250 29/23 A3012 RMK AO2 SLP186 T02940228 51016=
202308241352 METAR KATL 241352Z 23005KT 8SM FEW022 SCT250 28/23 A3010 RMK AO2 SLP181 T02830228=
202308241252 METAR KATL 241252Z 21005KT 7SM SCT200 SCT250 27/23 A3009 RMK AO2 SLP176 T02670228=
202308241152 METAR KATL 241152Z 21004KT 8SM SCT200 SCT250 25/21 A3007 RMK AO2 SLP169 T02500211 10272 20244 53001=
202308241052 METAR KATL 241052Z 00000KT 8SM FEW012 FEW140 SCT200 SCT250 25/21 A3006 RMK AO2 SLP168 T02500211 $=
202308240952 METAR KATL 240952Z 00000KT 9SM SCT200 SCT250 25/21 A3006 RMK AO2 SLP168 T02500206 $=
202308240852 METAR KATL 240852Z 09004KT 9SM SCT200 BKN250 26/21 A3006 RMK AO2 SLP167 T02560211 53001 $=
202308240752 METAR KATL 240752Z 13003KT 9SM FEW060 SCT200 BKN250 26/21 A3006 RMK AO2 SLP167 T02560211 $=
202308240652 METAR KATL 240652Z 12006KT 9SM FEW060 SCT250 27/21 A3006 RMK AO2 SLP166 T02670206 $=
202308240552 METAR KATL 240552Z 12005KT 9SM FEW044 FEW060 SCT250 27/21 A3006 RMK AO2 SLP166 T02720206 10311 20272 50001 $=
202308240452 METAR KATL 240452Z 13006KT 8SM BKN044 BKN250 28/21 A3007 RMK AO2 SLP171 T02780211 403390272 $=
202308240352 METAR KATL 240352Z 12005KT 9SM SCT250 28/22 A3007 RMK AO2 SLP170 T02780217 $=
202308240252 METAR KATL 240252Z 13007KT 9SM BKN250 28/22 A3006 RMK AO2 SLP165 T02830217 50007 $=
202308240152 METAR KATL 240152Z 11007KT 9SM BKN250 29/22 A3006 RMK AO2 SLP167 T02940217 $=
202308240052 METAR KATL 240052Z 11008KT 9SM SCT250 30/22 A3005 RMK AO2 SLP163 T03000217 $=
202308232352 METAR KATL 232352Z 10007KT 9SM FEW250 31/22 A3004 RMK AO2 SLP158 T03110217 10339 20311 53002 $=
202308232252 METAR KATL 232252Z 08007KT 10SM FEW045 FEW250 32/22 A3003 RMK AO2 SLP157 T03220217 $=
202308232152 METAR KATL 232152Z 07007KT 9SM FEW045 FEW250 33/21 A3003 RMK AO2 SLP156 T03280211 $=
202308232052 METAR KATL 232052Z 09010KT 9SM FEW044 FEW250 33/21 A3003 RMK AO2 SLP155 T03330211 58017 $=
202308231952 METAR KATL 231952Z 09006KT 9SM FEW044 SCT250 33/22 A3005 RMK AO2 SLP164 T03280217 $=
202308231852 METAR KATL 231852Z 13008G15KT 080V160 9SM SCT043 BKN250 33/21 A3008 RMK AO2 SLP171 T03280211 $=
202308231752 METAR KATL 231752Z 11007KT 10SM SCT038 SCT250 32/21 A3008 RMK AO2 SLP173 T03220211 10328 20278 58006 $=
202308231652 METAR KATL 231652Z 10008KT 9SM FEW035 SCT250 32/21 A3009 RMK AO2 SLP177 T03170211 $=
202308231552 METAR KATL 231552Z 10010G18KT 9SM SCT250 32/21 A3010 RMK AO2 SLP179 T03170211 $=
202308231452 METAR KATL 231452Z 08014KT 9SM FEW250 31/21 A3010 RMK AO2 SLP180 T03060206 51008 $=
202308231352 METAR KATL 231352Z 07013G22KT 9SM CLR 29/21 A3009 RMK AO2 SLP177 T02940206 $=
202308231252 METAR KATL 231252Z 08014G19KT 9SM CLR 28/21 A3009 RMK AO2 SLP176 T02830206 $=
202308231152 METAR KATL 231152Z 07011KT 9SM CLR 28/22 A3008 RMK AO2 SLP172 T02780222 10294 20278 53011 $=
202308231052 METAR KATL 231052Z 06007KT 10SM FEW050 FEW250 28/23 A3006 RMK AO2 SLP166 T02780233 $=
202308230952 METAR KATL 230952Z 03005KT 10SM FEW050 FEW250 28/24 A3004 RMK AO2 SLP160 T02830239 $=
202308230852 METAR KATL 230852Z 04005KT 10SM FEW050 FEW250 28/24 A3004 RMK AO2 SLP159 T02830239 53003 $=
202308230752 METAR KATL 230752Z 01004KT 10SM SCT050 SCT250 28/23 A3004 RMK AO2 SLP158 T02830233 $=
202308230652 METAR KATL 230652Z 32004KT 10SM FEW055 FEW250 28/23 A3003 RMK AO2 SLP156 T02780233 $=
202308230552 METAR KATL 230552Z 00000KT 10SM FEW055 FEW250 29/23 A3003 RMK AO2 SLP156 T02940233 10322 20294 58001 $=
202308230452 METAR KATL 230452Z 02005KT 10SM FEW050 FEW250 29/23 A3004 RMK AO2 SLP157 T02940233 403560244 $=
202308230352 METAR KATL 230352Z 02005KT 10SM SCT250 30/23 A3004 RMK AO2 SLP158 T03000233 $=
202308230252 METAR KATL 230252Z 36006KT 10SM BKN250 30/23 A3003 RMK AO2 SLP158 T03000233 53008 $=
202308230152 METAR KATL 230152Z 32008KT 10SM FEW200 BKN250 30/23 A3003 RMK AO2 SLP154 T03000233 $=
202308230052 METAR KATL 230052Z 24004KT 10SM SCT200 BKN250 31/23 A3001 RMK AO2 SLP151 T03110228 $=
202308222352 METAR KATL 222352Z 31006KT 10SM BKN200 BKN250 32/23 A3001 RMK AO2 SLP150 T03220228 10356 20322 56003 $=
202308222252 METAR KATL 222252Z 29008KT 9SM FEW055 BKN200 BKN250 33/23 A3001 RMK AO2 SLP151 T03330228 $=
202308222152 METAR KATL 222152Z 35008KT 9SM FEW055 BKN200 BKN250 35/22 A3002 RMK AO2 SLP151 T03500217 $=
202308222052 METAR KATL 222052Z 06006KT 8SM FEW060 BKN200 BKN250 35/22 A3002 RMK AO2 SLP153 T03500217 56015 $=
202308221952 METAR KATL 221952Z 07008KT 9SM FEW055 SCT200 BKN250 34/21 A3003 RMK AO2 SLP157 T03440211 $=
202308221852 METAR KATL 221852Z 08005KT 9SM FEW055 SCT200 SCT250 34/22 A3005 RMK AO2 SLP164 T03440217 $=
202308221752 METAR KATL 221752Z 04005KT 10SM FEW050 SCT200 SCT250 SCT300 34/22 A3007 RMK AO2 SLP168 T03390217 10344 20250 58013 $=
202308221652 METAR KATL 221652Z 04006KT 10SM FEW050 SCT200 SCT250 SCT300 33/21 A3008 RMK AO2 SLP172 T03330211=
202308221552 METAR KATL 221552Z 02006KT 10SM FEW046 SCT200 SCT250 BKN300 33/22 A3010 RMK AO2 SLP180 T03280222 $=
202308221452 METAR KATL 221452Z 33005KT 10SM SCT200 SCT250 BKN300 31/23 A3010 RMK AO2 SLP181 T03060228 50000 $=
202308221352 METAR KATL 221352Z 34004KT 9SM FEW200 SCT250 SCT300 29/23 A3010 RMK AO2 SLP180 T02890228 $=
202308221252 METAR KATL 221252Z 34005KT 8SM FEW200 FEW250 27/22 A3011 RMK AO2 SLP182 T02670217 $=
202308221152 METAR KATL 221152Z 32006KT 8SM FEW200 FEW250 25/22 A3010 RMK AO2 SLP182 T02500217 10272 20244 53002 $=
202308221052 METAR KATL 221052Z 31005KT 8SM FEW200 FEW250 24/22 A3010 RMK AO2 SLP179 T02440217 $=
202308220952 METAR KATL 220952Z 31006KT 10SM FEW250 25/22 A3010 RMK AO2 SLP179 T02500217 $=
202308220852 METAR KATL 220852Z 31005KT 10SM SCT250 25/22 A3010 RMK AO2 SLP179 T02500217 55007 $=
202308220752 METAR KATL 220752Z 29003KT 10SM SCT250 26/22 A3010 RMK AO2 SLP178 T02610217 $=
202308220652 METAR KATL 220652Z 30004KT 10SM FEW250 26/22 A3010 RMK AO2 SLP181 T02610222 $=
202308220552 METAR KATL 220552Z 31003KT 10SM FEW250 27/22 A3012 RMK AO2 SLP187 T02720217 10328 20272 58003 $=
202308220452 METAR KATL 220452Z 36005KT 10SM SCT250 29/21 A3014 RMK AO2 SLP191 T02890211 403560239 $=
202308220352 METAR KATL 220352Z 32003KT 10SM FEW200 SCT250 29/21 A3013 RMK AO2 SLP189 T02890211 $=
202308220252 METAR KATL 220252Z 35006KT 10SM FEW200 BKN250 31/21 A3013 RMK AO2 SLP190 T03060206 53006 $=
202308220152 METAR KATL 220152Z 36008KT 10SM FEW200 BKN250 31/20 A3013 RMK AO2 SLP188 T03110200 $=
202308220052 METAR KATL 220052Z 35010KT 10SM FEW060 BKN250 32/21 A3011 RMK AO2 SLP184 T03170206 $=
202308212352 METAR KATL 212352Z 33007KT 10SM SCT060 BKN250 33/21 A3011 RMK AO2 SLP184 MDT CU DSNT SE-S T03280206 10356 20322 53003 $=
202308212252 METAR KATL 212252Z 34007KT 300V010 10SM SCT060 BKN250 34/20 A3010 RMK AO2 SLP180 MDT CU SE-S T03440200 $=
202308212152 METAR KATL 212152Z 10SM SCT060 BKN250 34/20 A3010 RMK AO2 SLP179 MDT CU SE-S T03440200 $=
202308212052 METAR KATL 212052Z 26005KT 10SM FEW055 FEW070 SCT200 SCT250 35/20 A3010 RMK AO2 SLP180 TCU DSNT SE MDT CU SE T03500200 56019 $=
202308211952 METAR KATL 211952Z 31007KT 10SM FEW055 SCT070 SCT200 SCT250 34/21 A3012 RMK AO2 SLP186 MDT CU SE-SW T03440206 $=
202308211852 METAR KATL 211852Z 26005KT 10SM FEW050 SCT065 SCT250 34/21 A3014 RMK AO2 SLP194 MDT CU E-S-SW T03390211 $=
202308211752 METAR KATL 211752Z 31005KT 10SM SCT048 SCT065 SCT250 33/21 A3016 RMK AO2 SLP200 MDT CU ALQDS T03280211 10333 20250 58016 $=
202308211652 METAR KATL 211652Z 30004KT 10SM SCT040TCU 33/22 A3018 RMK AO2 SLP207 TCU SE MDT CU ALQDS T03280217 $=
202308211552 METAR KATL 211552Z 00000KT 10SM SCT034 33/23 A3020 RMK AO2 SLP215 MDT CU ALQDS T03280228 $=
202308211452 METAR KATL 211452Z 00000KT 10SM FEW028 31/22 A3021 RMK AO2 SLP217 T03060222 51007 $=
202308211352 METAR KATL 211352Z 33006KT 9SM CLR 29/23 A3020 RMK AO2 SLP215 T02940228 $=
202308211252 METAR KATL 211252Z 00000KT 9SM CLR 27/22 A3020 RMK AO2 SLP216 T02720222 $=
202308211152 METAR KATL 211152Z 00000KT 10SM CLR 25/21 A3019 RMK AO2 SLP210 T02500211 10267 20239 53008 $=
202308211052 METAR KATL 211052Z 00000KT 10SM CLR 24/21 A3016 RMK AO2 SLP203 T02390206 $=
202308210952 METAR KATL 210952Z 00000KT 10SM CLR 24/21 A3016 RMK AO2 SLP203 T02440206 $=
202308210852 METAR KATL 210852Z 13003KT 9SM FEW048 25/21 A3016 RMK AO2 SLP201 T02500206 53001 $=
202308210752 METAR KATL 210752Z 12003KT 10SM FEW048 26/21 A3016 RMK AO2 SLP199 T02560206 $=
202308210652 METAR KATL 210652Z 13003KT 10SM FEW048 26/20 A3016 RMK AO2 SLP200 T02560200 $=
202308210552 METAR KATL 210552Z 00000KT 10SM FEW050 27/20 A3016 RMK AO2 SLP199 T02670200 10300 20261 58002 $=
202308210452 METAR KATL 210452Z 00000KT 10SM FEW050 27/20 A3017 RMK AO2 SLP205 T02670200 403330222 $=
202308210352 METAR KATL 210352Z 11003KT 10SM CLR 27/20 A3017 RMK AO2 SLP204 T02720200 $=
202308210252 METAR KATL 210252Z 11004KT 10SM CLR 28/19 A3016 RMK AO2 SLP202 T02830194 53012 $=
202308210152 METAR KATL 210152Z 09006KT 10SM CLR 28/19 A3015 RMK AO2 SLP199 T02830194 $=
202308210052 METAR KATL 210052Z 10006KT 10SM CLR 29/19 A3014 RMK AO2 SLP194 T02890189 $=
202308202352 METAR KATL 202352Z 09007KT 10SM CLR 31/18 A3013 RMK AO2 SLP191 T03060183 10333 20306 53000 $=
202308202252 METAR KATL 202252Z 07007KT 030V100 10SM FEW060 32/18 A3011 RMK AO2 SLP186 T03220183 $=
202308202152 METAR KATL 202152Z 12005KT 10SM FEW060 33/18 A3012 RMK AO2 SLP188 T03280178 $=
202308202052 METAR KATL 202052Z 10007KT 10SM FEW055 33/18 A3013 RMK AO2 SLP190 T03280178 56018 $=
202308201952 METAR KATL 201952Z 06009KT 10SM SCT055 33/17 A3014 RMK AO2 SLP195 T03280172 $=
202308201852 METAR KATL 201852Z 09008KT 10SM SCT055 33/18 A3016 RMK AO2 SLP202 T03280183 $=
202308201752 METAR KATL 201752Z 06006KT 10SM SCT049 32/18 A3018 RMK AO2 SLP209 T03170178 10322 20233 58003 $=
202308201652 METAR KATL 201652Z 08006KT 7SM FEW043 31/19 A3019 RMK AO2 SLP211 T03110189 $=
202308201552 METAR KATL 201552Z 11004KT 6SM HZ CLR 29/20 A3020 RMK AO2 SLP214 T02940200 $=
202308201452 METAR KATL 201452Z 09006KT 10SM CLR 28/19 A3019 RMK AO2 SLP212 T02780194 51017 $=
202308201352 METAR KATL 201352Z 07006KT 10SM CLR 26/19 A3018 RMK AO2 SLP208 T02560189 $=
202308201252 METAR KATL 201252Z 05007KT 10SM CLR 24/18 A3017 RMK AO2 SLP204 T02440183 $=
202308201152 METAR KATL 201152Z 07006KT 10SM CLR 23/18 A3014 RMK AO2 SLP195 T02330183 10239 20222 53010 $=
202308201052 METAR KATL 201052Z 07006KT 10SM CLR 23/18 A3012 RMK AO2 SLP190 T02280183 $=
202308200952 METAR KATL 200952Z 09005KT 10SM CLR 22/18 A3011 RMK AO2 SLP187 T02220183 $=
202308200852 METAR KATL 200852Z 09006KT 10SM CLR 23/19 A3011 RMK AO2 SLP185 T02280189 53001 $=
202308200752 METAR KATL 200752Z 09006KT 10SM CLR 23/18 A3010 RMK AO2 SLP182 T02280183 $=
202308200652 METAR KATL 200652Z 05004KT 10SM CLR 24/18 A3010 RMK AO2 SLP181 T02390183 $=
202308200552 METAR KATL 200552Z 08006KT 10SM CLR 24/19 A3011 RMK AO2 SLP184 T02390189 10300 20239 50005 $=
202308200452 METAR KATL 200452Z 08007KT 10SM CLR 24/19 A3011 RMK AO2 SLP185 T02440189 403170233 $=
202308200352 METAR KATL 200352Z 06008KT 10SM CLR 26/19 A3010 RMK AO2 SLP183 T02560194 $=
202308200252 METAR KATL 200252Z 09007KT 10SM CLR 26/19 A3009 RMK AO2 SLP178 T02560194 53016 $=
202308200152 METAR KATL 200152Z 10006KT 10SM CLR 27/18 A3007 RMK AO2 SLP171 T02720183 $=
202308200052 METAR KATL 200052Z 12005KT 10SM FEW250 28/18 A3005 RMK AO2 SLP165 T02830183 $=
202308192352 METAR KATL 192352Z 12005KT 10SM FEW055 FEW250 30/17 A3004 RMK AO2 SLP162 T03000167 10317 20294 53003 $=
202308192252 METAR KATL 192252Z 11005KT 10SM FEW055 SCT250 31/17 A3004 RMK AO2 SLP161 T03060172 $=
202308192152 METAR KATL 192152Z 07007KT 10SM FEW055 SCT250 31/17 A3003 RMK AO2 SLP158 T03110172 $=
202308191952 METAR KATL 191952Z VRB03KT 10SM SCT055 SCT250 31/18 A3005 RMK AO2 SLP165 T03110178 $=
202308191852 METAR KATL 191852Z 00000KT 10SM SCT050 SCT250 31/18 A3007 RMK AO2 SLP170 T03110178 $=
202308191752 METAR KATL 191752Z VRB03KT 10SM SCT047 SCT250 30/17 A3008 RMK AO2 SLP174 T03000172 10311 20233 58006 $=
202308191652 METAR KATL 191652Z 09005KT 10SM FEW050 FEW250 29/17 A3010 RMK AO2 SLP179 T02940172 $=
202308191552 METAR KATL 191552Z VRB03KT 10SM FEW050 FEW250 29/18 A3010 RMK AO2 SLP181 T02890178 $=
202308191452 METAR KATL 191452Z 08005KT 10SM FEW050 27/17 A3010 RMK AO2 SLP180 T02670172 51013 $=
202308191352 METAR KATL 191352Z 07006KT 10SM FEW050 25/17 A3009 RMK AO2 SLP178 T02500172 $=
202308191252 METAR KATL 191252Z 08007KT 10SM FEW050 24/17 A3007 RMK AO2 SLP173 T02390167 $=
202308191152 METAR KATL 191152Z 04006KT 10SM FEW050 23/16 A3006 RMK AO2 SLP168 T02330161 10261 20233 53014 $=
202308191052 METAR KATL 191052Z 04005KT 10SM FEW050 23/16 A3004 RMK AO2 SLP162 T02330161 $=
202308190952 METAR KATL 190952Z 06004KT 10SM CLR 23/17 A3003 RMK AO2 SLP156 T02330167 $=
202308190852 METAR KATL 190852Z 03005KT 10SM CLR 24/17 A3002 RMK AO2 SLP152 T02440167 53003 $=
202308190752 METAR KATL 190752Z 05005KT 10SM CLR 25/17 A3001 RMK AO2 SLP150 T02500167 $=
202308190652 METAR KATL 190652Z 05004KT 10SM CLR 26/18 A3001 RMK AO2 SLP150 T02560178 $=
202308190552 METAR KATL 190552Z 03004KT 10SM CLR 26/18 A3001 RMK AO2 SLP149 T02610183 10294 20261 51000 $=
202308190452 METAR KATL 190452Z 01004KT 10SM FEW055 27/18 A3001 RMK AO2 SLP149 T02670183 403220206 $=
202308190352 METAR KATL 190352Z 02005KT 10SM FEW055 28/18 A3001 RMK AO2 SLP150 T02780183 $=
202308190252 METAR KATL 190252Z 02008KT 10SM FEW055 28/18 A3001 RMK AO2 SLP149 T02830183 51018 $=
202308190152 METAR KATL 190152Z 34007KT 10SM SCT055 28/19 A2999 RMK AO2 SLP145 T02830194 $=
202308190052 METAR KATL 190052Z 29003KT 10SM SCT055 28/19 A2997 RMK AO2 SLP138 T02830194 $=
202308182352 METAR KATL 182352Z 32007KT 10SM FEW055 29/18 A2995 RMK AO2 SLP132 T02940183 10322 20294 55005 $=
202308182252 METAR KATL 182252Z 33009KT 10SM FEW055 30/18 A2995 RMK AO2 SLP131 T03000183 $=
202308182152 METAR KATL 182152Z 33007KT 10SM SCT055 31/18 A2995 RMK AO2 SLP132 MDT CU ALQDS T03060178 $=
202308182052 METAR KATL 182052Z 30010KT 10SM SCT055 32/18 A2997 RMK AO2 SLP136 MDT CU ALQDS T03170178 56016 $=
202308181952 METAR KATL 181952Z 32010KT 10SM SCT055 32/18 A2998 RMK AO2 SLP140 MDT CU N-E-S T03220178 $=
202308181852 METAR KATL 181852Z 32010KT 10SM SCT055 32/18 A3000 RMK AO2 SLP147 MDT CU NE-E T03220183 $=
202308181752 METAR KATL 181752Z VRB05G17KT 10SM FEW048 31/18 A3002 RMK AO2 SLP153 T03060183 10306 20217 58005 $=
202308181652 METAR KATL 181652Z 30006KT 10SM FEW038 29/19 A3003 RMK AO2 SLP158 T02940189 $=
202308181552 METAR KATL 181552Z 35008G15KT 10SM FEW038 29/19 A3004 RMK AO2 SLP161 T02890189 $=
202308181452 METAR KATL 181452Z 32006KT 10SM FEW032 27/19 A3003 RMK AO2 SLP158 T02720189 51014 $=
202308181352 METAR KATL 181352Z 30005KT 10SM CLR 26/18 A3002 RMK AO2 SLP155 T02560183 $=
202308181252 METAR KATL 181252Z 29007KT 10SM CLR 24/18 A3001 RMK AO2 SLP151 T02390178 $=
202308181152 METAR KATL 181152Z 29005KT 10SM FEW250 22/17 A2999 RMK AO2 SLP145 T02170172 10222 20206 51013 $=
202308181052 METAR KATL 181052Z 30007KT 10SM FEW250 21/17 A2998 RMK AO2 SLP141 T02110167=
202308180952 METAR KATL 180952Z 29005KT 10SM CLR 21/17 A2996 RMK AO2 SLP136 T02110172 $=
202308180852 METAR KATL 180852Z 30006KT 10SM CLR 22/17 A2995 RMK AO2 SLP131 T02170172 56003 $=
202308180752 METAR KATL 180752Z 29003KT 10SM CLR 21/18 A2995 RMK AO2 SLP132 T02110178 $=
202308180652 METAR KATL 180652Z 29006KT 10SM FEW250 22/17 A2995 RMK AO2 SLP130 T02220172 $=
202308180552 METAR KATL 180552Z 28005KT 10SM FEW250 22/17 A2996 RMK AO2 SLP133 T02220172 10278 20222 58005 $=
202308180452 METAR KATL 180452Z 26004KT 10SM FEW250 23/17 A2997 RMK AO2 SLP139 T02330172 403060200 $=
202308180352 METAR KATL 180352Z 28004KT 10SM FEW250 24/17 A2997 RMK AO2 SLP139 T02390172 $=
202308180252 METAR KATL 180252Z 27005KT 10SM FEW055 FEW250 24/17 A2997 RMK AO2 SLP140 T02440172 51014 $=
202308180152 METAR KATL 180152Z 27006KT 10SM FEW055 FEW250 26/17 A2997 RMK AO2 SLP137 T02560172 $=
202308180052 METAR KATL 180052Z 26005KT 10SM FEW055 FEW250 26/17 A2995 RMK AO2 SLP132 T02610167 $=
202308172352 METAR KATL 172352Z 28006KT 10SM FEW055 FEW250 28/17 A2993 RMK AO2 SLP126 T02780167 10306 20278 53004 $=
202308172252 METAR KATL 172252Z 28007KT 10SM SCT050 29/17 A2993 RMK AO2 SLP125 T02890167 $=
202308172152 METAR KATL 172152Z 25005KT 10SM FEW055 30/16 A2992 RMK AO2 SLP122 T03000161 $=
202308172052 METAR KATL 172052Z 30005KT 10SM FEW055 30/17 A2992 RMK AO2 SLP122 T03000167 56017 $=
202308171952 METAR KATL 171952Z 31009KT 10SM SCT060 30/17 A2994 RMK AO2 SLP127 T03000167 $=
202308171852 METAR KATL 171852Z 32009KT 10SM SCT055 29/16 A2995 RMK AO2 SLP132 T02940161 $=
202308171752 METAR KATL 171752Z 32009G17KT 10SM SCT048 30/17 A2997 RMK AO2 SLP139 T03000167 10300 20211 $=
202308171652 METAR KATL 171652Z 29010KT 10SM SCT046 SCT250 28/17 A2998 RMK AO2 SLP141 T02780167 $=
202308171552 METAR KATL 171552Z 27010KT 10SM BKN040 BKN250 28/18 A2999 RMK AO2 SLP145 T02830178=
202308171452 METAR KATL 171452Z 30008KT 10SM FEW032 FEW250 27/18 A3000 RMK AO2 SLP148 T02670178 53005 $=
202308171352 METAR KATL 171352Z 29005KT 10SM FEW002 FEW060 FEW250 26/18 A2999 RMK AO2 SLP145 FU FEW002 FU PLUME S T02560183 $=
202308171350 SPECI KATL 171350Z 27004KT 10SM FEW001 FEW060 FEW250 26/18 A2999 RMK AO2 FU FEW001 FU PLUME SE $=
202308171252 METAR KATL 171252Z 30004KT 10SM FEW060 FEW250 23/18 A2998 RMK AO2 SLP143 T02330178 $=
202308171152 METAR KATL 171152Z 00000KT 10SM FEW060 FEW250 21/18 A2998 RMK AO2 SLP144 T02110178 10222 20200 53014 $=
202308171052 METAR KATL 171052Z 31005KT 10SM FEW055 20/17 A2996 RMK AO2 SLP137 T02000172 $=
202308170952 METAR KATL 170952Z 00000KT 10SM SCT060 20/17 A2995 RMK AO2 SLP132 T02000172 $=
202308170852 METAR KATL 170852Z 00000KT 10SM FEW250 20/17 A2994 RMK AO2 SLP128 T02000172 55001=
202308170752 METAR KATL 170752Z 00000KT 10SM FEW250 21/18 A2994 RMK AO2 SLP127 T02110178=
202308170652 METAR KATL 170652Z 30003KT 10SM FEW250 21/18 A2993 RMK AO2 SLP126 T02110178=
202308170552 METAR KATL 170552Z 31005KT 10SM FEW250 22/18 A2994 RMK AO2 SLP129 T02220178 10272 20222 56011=
202308170452 METAR KATL 170452Z 29003KT 10SM FEW060 FEW250 23/18 A2996 RMK AO2 SLP133 T02280178 403000194=
202308170352 METAR KATL 170352Z 32004KT 10SM FEW060 FEW250 23/17 A2996 RMK AO2 SLP135 T02330172=
202308170252 METAR KATL 170252Z VRB06KT 10SM FEW060 FEW250 24/17 A2998 RMK AO2 SLP141 T02440172 51012=
202308170152 METAR KATL 170152Z 32006KT 10SM FEW055 FEW250 26/17 A2997 RMK AO2 SLP137 T02560167=
202308170052 METAR KATL 170052Z 31006KT 10SM FEW055 FEW250 26/16 A2995 RMK AO2 SLP133 T02610161=
202308162352 METAR KATL 162352Z 29007KT 10SM FEW055 FEW250 27/15 A2994 RMK AO2 SLP129 T02720150 10300 20272 55001 $=
202308162252 METAR KATL 162252Z 31008KT 10SM FEW055 FEW200 29/15 A2992 RMK AO2 SLP124 T02890150 $=
202308162152 METAR KATL 162152Z VRB04KT 10SM SCT060 SCT200 29/15 A2993 RMK AO2 SLP125 T02940150 $=
202308162052 METAR KATL 162052Z 26006KT 10SM FEW060 FEW200 29/16 A2994 RMK AO2 SLP129 T02940156 58016 $=
202308161952 METAR KATL 161952Z 26007KT 10SM FEW055 FEW200 SCT250 29/16 A2996 RMK AO2 SLP135 T02890156 $=
202308161852 METAR KATL 161852Z 31007KT 10SM SCT055 SCT200 SCT250 29/15 A2998 RMK AO2 SLP142 T02940150 $=
202308161847 SPECI KATL 161847Z 31005KT 10SM FEW003 SCT055 SCT200 SCT250 29/16 A2998 RMK AO2 FU FEW003 $=
202308161752 METAR KATL 161752Z 32008KT 10SM SCT050 SCT200 SCT250 28/17 A2999 RMK AO2 SLP145 T02830172 10283 20200 58007 $=
202308161652 METAR KATL 161652Z 28005KT 10SM FEW048 FEW200 FEW250 28/16 A3000 RMK AO2 SLP149 T02780161 $=
202308161552 METAR KATL 161552Z 33007KT 10SM FEW046 FEW200 FEW250 28/17 A3002 RMK AO2 SLP155 T02780167 $=
202308161452 METAR KATL 161452Z 34007KT 10SM FEW200 FEW250 26/18 A3001 RMK AO2 SLP153 T02610183 53008 $=
202308161352 METAR KATL 161352Z 32008KT 10SM FEW150 FEW250 24/18 A3000 RMK AO2 SLP150 T02390183 $=
202308161252 METAR KATL 161252Z 32005KT 10SM FEW150 FEW250 22/18 A3000 RMK AO2 SLP148 T02170178 $=
202308161152 METAR KATL 161152Z 31004KT 10SM FEW050 FEW200 FEW250 20/17 A2999 RMK AO2 SLP146 70063 T02000172 10222 20194 53006 $=
202308161052 METAR KATL 161052Z 31005KT 10SM FEW200 FEW250 19/17 A2998 RMK AO2 SLP144 T01940172 $=
202308160952 METAR KATL 160952Z 30004KT 10SM CLR 20/17 A2997 RMK AO2 SLP141 T02000172 $=
202308160852 METAR KATL 160852Z 32005KT 10SM FEW200 20/17 A2997 RMK AO2 SLP140 T02000172 56004 $=
202308160752 METAR KATL 160752Z 31005KT 10SM SCT200 BKN250 21/17 A2997 RMK AO2 SLP141 T02060172 $=
202308160652 METAR KATL 160652Z 32006KT 10SM SCT200 BKN250 22/18 A2997 RMK AO2 SLP140 T02170178 $=
202308160552 METAR KATL 160552Z 33005KT 10SM SCT200 BKN250 22/18 A2998 RMK AO2 SLP141 T02220178 10256 20222 58006 $=
202308160452 METAR KATL 160452Z 32006KT 10SM SCT200 BKN250 23/18 A2999 RMK AO2 SLP144 T02280183 403220228 $=
202308160352 METAR KATL 160352Z 32008KT 10SM FEW045 BKN250 23/19 A3000 RMK AO2 SLP146 T02330194 $=
202308160252 METAR KATL 160252Z 31007KT 10SM FEW040 BKN250 24/20 A3000 RMK AO2 SLP147 T02390200 52025 $=
202308160152 METAR KATL 160152Z 27005KT 10SM FEW005 SCT200 BKN250 24/23 A2997 RMK AO2 SLP138 T02440228 $=
202308160052 METAR KATL 160052Z 22005KT 10SM FEW030 SCT200 BKN250 25/23 A2995 RMK AO2 SLP131 T02500233 $=
202308152352 METAR KATL 152352Z 22004KT 10SM FEW006 BKN200 25/23 A2992 RMK AO2 SLP122 60056 T02500233 10311 20250 56011 $=
202308152318 SPECI KATL 152318Z 20004KT 10SM FEW005 BKN200 26/24 A2993 RMK AO2 T02560239 $=
202308152252 METAR KATL 152252Z 22003KT 10SM FEW010 BKN180CB BKN200 26/23 A2993 RMK AO2 SLP125 CBMAM OHD-S T02610233 $=
202308152152 METAR KATL 152152Z 32003KT 10SM FEW015 SCT150CB BKN200 27/22 A2992 RMK AO2 SLP121 LTG DSNT SE-SW CB DSNT SE-SW CBMAM SE-S T02670222 $=
202308152052 METAR KATL 152052Z 32005KT 10SM FEW033TCU SCT085 SCT120 BKN200 BKN250 26/23 A2996 RMK AO2 LTG DSNT S RAB22E34 SLP133 CB DSNT S TCU SW P0000 60056 T02560228 55009 $=
202308151952 METAR KATL 151952Z VRB03KT 10SM FEW014 SCT035 BKN085 BKN130 BKN200 26/23 A2995 RMK AO2 RAE09B28E40 TSE47 SLP131 TS MOVD E FRQ LTGICCGCA DSNT E-SE CB DSNT E-SE P0008 T02560228 $=
202308151948 SPECI KATL 151948Z 35005KT 10SM FEW014 SCT032 BKN095 BKN200 26/23 A2995 RMK AO2 RAE09B28E40 TSE47 TS MOVD E FRQ LTGICCGCA DSNT E-SE CB DSNT E-SE P0008 $=
202308151908 SPECI KATL 151908Z 04011KT 10SM -TSRA FEW014 SCT030CB BKN070 BKN200 26/23 A2995 RMK AO2 PRESFR FRQ LTGICCGCA VC NE-SE-S TS VC NE-SE-S MOV E P0004 T02610228 $=
202308151856 SPECI KATL 151856Z 02012G20KT 3SM +TSRA SCT017 BKN030CB OVC070 26/23 A2997 RMK AO2 SFC VIS 4 LTG DSNT ALQDS FRQ LTGICCGCA NE-SE-SW TS NE-SE-SW MOV E CB DSNT ALQDS P0002 T02560228 $=
202308151852 METAR KATL 151852Z 03009G28KT 1SM +TSRA SCT017 BKN030CB OVC060 26/23 A2998 RMK AO2 PK WND 01029/1841 PRESRR SLP142 RAB25 TSB14 FRQ LTGICCG OHD-ALQDS TS OHD-ALQDS MOV E P0048 T02560228 RVRNO $=
202308151842 SPECI KATL 151842Z 02023G29KT 1SM +TSRA BKN030CB OVC075 27/23 A2996 RMK AO2 PK WND 01029/1841 RAB25 TSB14 VIS NW-NE 3/4 FRQ LTGICCG OHD-ALQDS TS OHD-ALQDS MOV E P0013 T02720233 RVRNO $=
202308151832 SPECI KATL 151832Z 01006KT 2SM +TSRA BKN030CB BKN075 BKN120 BKN200 29/24 A2995 RMK AO2 SFC VIS 2 1/2 LTG DSNT ALQDS RAB25 TSB14 FRQ LTGICCG OHD-ALQDS TS OHD-ALQDS MOV E CB DSNT ALQDS P0003 T02890239 $=
202308151816 SPECI KATL 151816Z 34007KT 10SM TS SCT032CB BKN100 BKN200 BKN250 31/24 A2996 RMK AO2 LTG DSNT SW-N TSB14 OCNL LTGICCG SW TS SW MOV E CB DSNT SW-NW-NE TCU DSNT E-S T03060239 $=
202308151752 METAR KATL 151752Z 32004KT 10SM FEW034 SCT090 BKN120 BKN200 30/24 A2997 RMK AO2 RAB01E22 TSE28 SLP137 TS DSIPTD CB DSNT NE-E W-NW ACC NE-OHD-SW P0007 60007 T03000244 10322 20244 58006 $=
202308151729 SPECI KATL 151729Z 00000KT 10SM FEW036 SCT060 BKN110 BKN200 29/24 A2998 RMK AO2 RAB01E22 TSE28 TS DSIPTD CB DSNT NE-E W-NW TCU DSNT SE P0007 T02940244 $=
202308151652 METAR KATL 151652Z VRB04KT 10SM TS SCT030CB SCT070 SCT200 BKN250 31/23 A2999 RMK AO2 LTG DSNT NE AND E TSB48 SLP142 OCNL LTGICCA NE-OHD-SW TS NE-OHD-SW MOV E CB DSNT NE E TCU E-S-SW T03060233 $=
202308151648 SPECI KATL 151648Z 30008KT 10SM TS SCT030CB SCT070 SCT200 BKN250 31/23 A2998 RMK AO2 LTG DSNT NE TSB48 OCNL LTGICCA NE-OHD-SW TS NE-OHD-SW MOV E CB DSNT NE $=
202308151552 METAR KATL 151552Z 30008KT 10SM FEW030 FEW060 SCT200 31/24 A2999 RMK AO2 LTG DSNT NW SLP144 CB DSNT NW-N TCU DSNT NW T03110239 $=
202308151452 METAR KATL 151452Z 27007KT 10SM FEW022 FEW050 SCT250 30/23 A2999 RMK AO2 SLP143 CB DSNT NW T03000233 52003 $=
202308151352 METAR KATL 151352Z 25006KT 10SM FEW016 FEW050 FEW250 28/23 A2999 RMK AO2 SLP142 T02830233 $=
202308151252 METAR KATL 151252Z 23005KT 10SM FEW050 FEW250 26/22 A2998 RMK AO2 SLP141 T02560222 $=
202308151152 METAR KATL 151152Z 20005KT 10SM FEW050 24/22 A2998 RMK AO2 SLP139 70001 T02440217 10261 20233 50009 $=
202308151052 METAR KATL 151052Z 22005KT 10SM FEW010 FEW055 FEW150 FEW250 24/22 A2998 RMK AO2 SLP142 T02440217 $=
202308150952 METAR KATL 150952Z 30009G19KT 10SM FEW016 FEW055 24/21 A2997 RMK AO2 SLP136 T02440211 $=
202308150852 METAR KATL 150852Z 25007KT 10SM FEW120 FEW250 26/21 A2995 RMK AO2 SLP129 T02610211 50000=
202308150752 METAR KATL 150752Z 24008KT 10SM SCT250 26/21 A2996 RMK AO2 SLP130 T02610206=
202308150652 METAR KATL 150652Z 25009KT 10SM SCT250 26/21 A2996 RMK AO2 SLP132 T02610206=
202308150552 METAR KATL 150552Z 22005KT 10SM FEW250 26/20 A2995 RMK AO2 SLP129 60001 T02610200 10322 20261 58017=
202308150452 METAR KATL 150452Z 23006KT 10SM BKN250 27/20 A2998 RMK AO2 SLP140 T02670200 403560244=
202308150352 METAR KATL 150352Z 23008KT 10SM FEW200 BKN250 27/21 A2999 RMK AO2 SLP144 T02670211=
202308150252 METAR KATL 150252Z 23006KT 10SM FEW200 SCT250 27/21 A3000 RMK AO2 SLP147 60001 T02720211 50005=
202308150152 METAR KATL 150152Z 23006KT 10SM SCT200 BKN250 28/21 A3001 RMK AO2 SLP149 T02830211=
202308150052 METAR KATL 150052Z 26007KT 10SM FEW030 BKN180 BKN250 28/24 A2999 RMK AO2 RAB2359E22 TSE36 SLP143 P0001 T02780239=
202308150036 SPECI KATL 150036Z 28008KT 10SM FEW030 BKN180 BKN250 28/24 A2999 RMK AO2 RAB2359E22 TSE36 TS DSIPTD TCU DSNT NE P0001 T02830244=
202308142352 METAR KATL 142352Z 21006KT 10SM TS FEW030CB SCT050 BKN200 BKN250 32/24 A2999 RMK AO2 TSB37 SLP142 OCNL LTGICCG SW-NW TS SW-NW MOV E T03220244 10356 20322 53005=
202308142337 SPECI KATL 142337Z 19005KT 10SM TS FEW035CB SCT200 BKN250 32/24 A2998 RMK AO2 TSB37 OCNL LTGIC VC W-NW TS VC W-NW MOV E TCU N-NE T03220244=
202308142252 METAR KATL 142252Z 21008KT 10SM FEW040 SCT200 33/24 A2997 RMK AO2 SLP137 LTG DSNT SE SW CB DSNT SE SW TCU DSNT N-NE W-NW T03330239=
202308142152 METAR KATL 142152Z 24005KT 10SM FEW045 SCT200 SCT250 34/22 A2996 RMK AO2 LTG DSNT E AND SE TSE00 SLP133 CB DSNT E-SE T03390217=
202308142100 SPECI KATL 142100Z 26011G22KT 10SM FEW046TCU SCT120 BKN200 BKN250 33/22 A2996 RMK AO2 TSE00 TS MOVD E CB DSNT NE SE W TCU SE-S DSNT SW T03280222=
202308142052 METAR KATL 142052Z 26012G20KT 10SM TS SCT048CB SCT120 SCT200 BKN250 33/24 A2997 RMK AO2 SLP136 TSB47 OCNL LTGICCG VC SE TS VC SE MOV E CB DSNT NE E SE T03330239 55009=
202308142048 SPECI KATL 142048Z 26013G20KT 10SM TS SCT048CB SCT120 SCT200 BKN250 34/24 A2997 RMK AO2 LTG DSNT ALQDS TSB47 OCNL LTGICCG VC SE SW TS VC SE SW MOV E CB DSNT NE E SE SW=
202308141952 METAR KATL 141952Z 25008KT 10SM SCT048TCU SCT120 SCT200 BKN250 36/23 A2998 RMK AO2 SLP140 CB DSNT NE TCU ALQDS SHRA SW W DSNT NE T03560233=
202308141852 METAR KATL 141852Z 27008G15KT 10SM SCT045TCU SCT120 SCT200 SCT250 36/24 A3000 RMK AO2 SLP145 TCU NW-NE MDT CU ALQDS T03560239 $=
202308141752 METAR KATL 141752Z 28012G17KT 10SM FEW040TCU FEW120 SCT200 SCT250 35/24 A3003 RMK AO2 SLP157 TCU NE E-SE S T03500244 10350 20256 58013 $=
202308141652 METAR KATL 141652Z 25008KT 10SM FEW036 FEW130 FEW200 SCT250 33/25 A3006 RMK AO2 SLP165 T03330250 $=
202308141552 METAR KATL 141552Z 28009KT 10SM FEW140 FEW200 SCT250 32/24 A3007 RMK AO2 SLP169 ACC W T03220244 $=
202308141452 METAR KATL 141452Z 25007KT 10SM FEW140 FEW200 SCT250 31/24 A3007 RMK AO2 SLP169 T03110239 58000 $=
202308141352 METAR KATL 141352Z 25006KT 10SM FEW120 FEW200 SCT250 29/23 A3007 RMK AO2 SLP171 T02890228 $=
202308141252 METAR KATL 141252Z 25005KT 10SM FEW110 FEW200 FEW250 27/23 A3008 RMK AO2 SLP173 T02720228 $=
202308141152 METAR KATL 141152Z 30005KT 10SM FEW200 SCT250 26/23 A3007 RMK AO2 SLP172 T02560228 10256 20244 53023 $=
202308141052 METAR KATL 141052Z 30003KT 10SM FEW110 SCT250 25/22 A3005 RMK AO2 SLP163 T02500222 $=
202308140952 METAR KATL 140952Z 00000KT 10SM FEW250 24/22 A3002 RMK AO2 SLP155 T02440222 $=
202308140852 METAR KATL 140852Z 00000KT 10SM FEW250 25/22 A3000 RMK AO2 SLP147 T02500222 56017 $=
202308140752 METAR KATL 140752Z 00000KT 10SM FEW250 25/22 A3000 RMK AO2 SLP146 T02500222 $=
202308140652 METAR KATL 140652Z 00000KT 10SM FEW200 SCT250 25/23 A3002 RMK AO2 SLP153 T02500228 $=
202308140552 METAR KATL 140552Z 28004KT 10SM FEW200 BKN250 25/22 A3005 RMK AO2 SLP163 T02500222 10283 20250 58015 $=
202308140452 METAR KATL 140452Z 29004KT 10SM FEW200 BKN250 26/22 A3008 RMK AO2 SLP174 T02560217 403440222 $=
202308140352 METAR KATL 140352Z 15003KT 10SM SCT100 BKN250 27/21 A3007 RMK AO2 SLP172 T02670211 $=
202308140252 METAR KATL 140252Z 33006KT 10SM SCT090 SCT120 BKN250 27/22 A3010 RMK AO2 SLP180 T02720217 51017 $=
202308140152 METAR KATL 140152Z 32007KT 10SM BKN090 BKN120 BKN250 28/22 A3008 RMK AO2 SLP174 CB DSNT SE T02830217 $=
202308140052 METAR KATL 140052Z 33006KT 10SM FEW038 SCT100 BKN200 BKN250 28/22 A3007 RMK AO2 LTG DSNT N SLP172 CB DSNT N AND E AND SE T02830222 $=
202308132352 METAR KATL 132352Z VRB04KT 10SM CLR 28/23 A3005 RMK AO2 LTG DSNT W-N SLP163 T02830228 10344 20283 53007 $=
202308132252 METAR KATL 132252Z 28006KT 10SM FEW038 SCT100 SCT200 BKN250 28/23 A3001 RMK AO2 LTG DSNT N-E SLP152 CB DSNT NE AND E TCU DSNT NW-N VIRGA SW T02830228 $=
202308132152 METAR KATL 132152Z 26006KT 10SM CLR 28/23 A3002 RMK AO2 LTG DSNT SE SLP156 T02830228 $=
202308132052 METAR KATL 132052Z 26011KT 10SM FEW037TCU SCT110 SCT200 BKN250 29/23 A3002 RMK AO2 PK WND 27026/2022 LTG DSNT E SLP156 TCU N-NE E CB DSNT E T02940233 56012 $=
202308131952 METAR KATL 131952Z 27007KT 10SM SCT040TCU SCT200 BKN250 33/24 A3004 RMK AO2 LTG DSNT SW AND W SLP160 CB DSNT SW-W TCU E-SE NW MDT CU ALQDS T03330239 $=
202308131852 METAR KATL 131852Z 00000KT 10SM SCT040 SCT220 34/23 A3004 RMK AO2 LTG DSNT W SLP160 CB DSNT SW-W MDT CU ALQDS T03390233 $=
202308131752 METAR KATL 131752Z 31006KT 10SM FEW034 FEW100 SCT250 33/24 A3006 RMK AO2 SLP167 CB DSNT SW-W MDT CU NW-N T03330239 10333 20233 58008 $=
202308131652 METAR KATL 131652Z 31006KT 10SM FEW032 FEW080 SCT250 32/24 A3008 RMK AO2 SLP174 ACC N S T03170239 $=
202308131552 METAR KATL 131552Z 30007KT 10SM FEW028 SCT085 SCT250 31/23 A3008 RMK AO2 SLP176 ACC ALQDS T03060228 $=
202308131452 METAR KATL 131452Z 26006KT 10SM FEW090 SCT250 29/23 A3008 RMK AO2 SLP176 ACC S-W T02890228 51008 $=
202308131352 METAR KATL 131352Z 00000KT 10SM FEW110 FEW250 27/22 A3007 RMK AO2 SLP174 ACC DSNT SE-SW T02670222 $=
202308131252 METAR KATL 131252Z 00000KT 10SM FEW040 SCT110 SCT250 24/22 A3007 RMK AO2 SLP173 ACC SE-S T02390217 $=
202308131152 METAR KATL 131152Z 30007KT 10SM FEW040 SCT090 BKN110 BKN200 BKN250 23/22 A3006 RMK AO2 SLP169 ACC E-SE 70082 T02330217 10233 20222 53010 $=
202308131052 METAR KATL 131052Z 31007KT 10SM SCT130 SCT200 BKN250 23/21 A3005 RMK AO2 SLP166 ACC N-NE T02280211 $=
202308130952 METAR KATL 130952Z 30005KT 10SM FEW130 FEW250 23/21 A3003 RMK AO2 SLP161 T02280211=
202308130852 METAR KATL 130852Z 30003KT 10SM FEW130 SCT200 23/21 A3003 RMK AO2 SLP158 T02280211 55002=
202308130752 METAR KATL 130752Z 29003KT 10SM FEW005 SCT130 BKN200 23/21 A3002 RMK AO2 SLP153 T02280211=
202308130652 METAR KATL 130652Z 00000KT 10SM FEW004 SCT130 BKN200 23/22 A3002 RMK AO2 SLP155 T02280217=
202308130552 METAR KATL 130552Z 32004KT 10SM FEW004 SCT130 SCT200 SCT250 23/22 A3003 RMK AO2 SLP157 60000 T02280217 10239 20228 58006=
202308130452 METAR KATL 130452Z 31003KT 10SM FEW006 FEW110 SCT200 BKN250 23/21 A3004 RMK AO2 SLP162 T02330211 403440228=
202308130405 SPECI KATL 130405Z 00000KT 10SM FEW006 FEW150 SCT200 BKN250 23/22 A3004 RMK AO2 T02330217=
202308130352 METAR KATL 130352Z 27005KT 10SM SCT150 SCT200 BKN250 23/22 A3004 RMK AO2 SLP160 T02330217=
202308130252 METAR KATL 130252Z 22005KT 10SM BKN150 BKN250 23/22 A3005 RMK AO2 SLP164 60000 T02330217 53009=
202308130152 METAR KATL 130152Z 22005KT 10SM FEW100 BKN150 BKN250 23/22 A3004 RMK AO2 SLP162 T02330217=
202308130052 METAR KATL 130052Z 23005KT 10SM FEW090 SCT130 BKN150 BKN250 24/22 A3002 RMK AO2 RAE2353 SLP155 P0000 T02390222=
202308122352 METAR KATL 122352Z 14008KT 10SM -RA SCT055 SCT090 BKN110 BKN200 BKN250 24/22 A3002 RMK AO2 LTG DSNT E-SW TSE52 SLP157 TS MOV SE CBMAM OHD-SE-S P0009 60082 T02390222 10344 20233 50006=
202308122259 SPECI KATL 122259Z 05009KT 3SM TSRA FEW020 SCT055 BKN070 24/22 A3008 RMK AO2 LTG DSNT ALQDS P0003 T02440217=
202308122252 METAR KATL 122252Z 01010KT 1 1/2SM TSRA FEW013 FEW022 BKN050CB OVC150 24/22 A3010 RMK AO2 LTG DSNT ALQDS RAB49 TSB31 PRESRR SLP184 FRQ LTGICCCCG 0HD-SW-NE TS OHD-SW-NE MOV SE CBMAM OHD-SE-S SHELF CLOUD NE-S CB DSNT ALQDS P0014 T024=
202308122237 SPECI KATL 122237Z 33012G22KT 310V010 10SM TS FEW080 SCT110 BKN150 OVC200 26/22 A3005 RMK AO2 LTG DSNT ALQDS TSB31 PRESRR OCNL LTGICCCCG SW-N TS SW-N MOV SE CB DSNT ALQDS T02560217=
202308122152 METAR KATL 122152Z 09010KT 10SM FEW080 SCT110 BKN150 OVC200 24/23 A2999 RMK AO2 PK WND 32058/2055 WSHFT 2047 LTG DSNT ALQDS PRESFR SLP147 RAE46 TSE40 TS MOVD E CB DSNT ALQDS P0046 T02440228=
202308122141 SPECI KATL 122141Z 17006KT 9SM -RA FEW055 BKN110 BKN150 OVC200 24/22 A3002 RMK AO2 PK WND 32058/2055 WSHFT 2047 LTG DSNT ALQDS TSE40 TS MOVD E CB DSNT ALQDS P0046 T02440222=
202308122114 SPECI KATL 122114Z 17004KT 4SM TSRA BR FEW014 BKN055CB BKN100 OVC150 24/23 A3002 RMK AO2 PK WND 32058/2055 WSHFT 2047 VIS E-SE 2 FRQ LTGCGIC NE-SE-S TS NE-SE-S MOV SE P0045 T02390233=
202308122103 SPECI KATL 122103Z 35015G58KT 3/4SM R09R/P6000FT +TSRA BR SCT013 OVC033CB 23/22 A3005 RMK AO2 PK WND 32058/2055 WSHFT 2047 CONS LTGCGIC OHD-ALQDS TS OHD-ALQDS MOV SE P0034 T02330217=
202308122052 METAR KATL 122052Z 30040G52KT 1/2SM R09R/P6000FT +TSRA FG SCT013 OVC034CB 24/22 A3000 RMK AO2 PK WND 31052/2052 RAB37 TSB15 SLP151 CONS LTGCGIC OHD-ALQDS TS OHD-ALQDS MOV SE P0013 60013 T02390217 55007=
202308122045 SPECI KATL 122045Z 27026G47KT 1 1/2SM +TSRA BKN032CB BKN050 OVC150 24/22 A3002 RMK AO2 PK WND 29047/2043 RAB37 TSB15 PRESRR FRQ LTGCGIC OHD-ALQDS TS OHD-ALQDS MOV SE P0001 T02440217=
202308122039 SPECI KATL 122039Z 28029G46KT 7SM -TSRA SQ SCT033CB BKN050 BKN150 OVC200 27/22 A3001 RMK AO2 PK WND 28046/2039 RAB37 TSB15 PRESRR VIS SW-W 2 FRQ LTGCGIC OHD-SW-NW TS OHD-SW-NW MOV SE TCU E P0000 T02720217=
202308122015 SPECI KATL 122015Z 25004KT 10SM TS SCT038CB BKN200 OVC250 32/24 A2998 RMK AO2 TSB15 OCNL LTGCG VC SW-NW TS VC SW-NW MOV SE TCU NW-NE DSNT S T03220239=
202308121952 METAR KATL 121952Z 29005KT 10SM SCT036 BKN200 OVC250 33/24 A2998 RMK AO2 LTG DSNT SW-NW SLP141 CB DSNT SW-NW TCU DSNT S-SW NW-N MDT CU E-SE T03330239=
202308121852 METAR KATL 121852Z 24007KT 10SM SCT040TCU SCT200 BKN250 33/24 A3001 RMK AO2 SLP151 CB DSNT W TCU NW DSNT SW MDT CU ALQDS T03330239=
202308121752 METAR KATL 121752Z 29008KT 10SM SCT034TCU SCT200 BKN250 33/23 A3003 RMK AO2 SLP156 TCU NW DSNT SW MDT CU ALQDS T03330233 10333 20233 56004=
202308121652 METAR KATL 121652Z 23005KT 10SM SCT030 SCT250 32/23 A3003 RMK AO2 SLP156 MDT CU ALQDS T03170233=
202308121552 METAR KATL 121552Z VRB03KT 10SM SCT024 SCT250 32/25 A3003 RMK AO2 SLP158 MDT CU NW-NE-E T03220250=
202308121452 METAR KATL 121452Z 29006KT 10SM FEW022 BKN250 29/24 A3004 RMK AO2 SLP160 T02940244 50002=
202308121352 METAR KATL 121352Z 30007KT 10SM FEW022 FEW250 28/23 A3004 RMK AO2 SLP162 T02830228=
202308121252 METAR KATL 121252Z 27003KT 10SM FEW250 27/23 A3004 RMK AO2 SLP160 T02670228=
202308121152 METAR KATL 121152Z 27005KT 10SM FEW005 FEW200 23/22 A3003 RMK AO2 SLP159 70026 T02330217 10244 20228 53012=
202308121105 SPECI KATL 121105Z 27003KT 9SM FEW002 FEW032 FEW200 23/21 A3002 RMK AO2 FU FEW002 T02280211=
202308121052 METAR KATL 121052Z 26004KT 10SM FEW032 23/21 A3002 RMK AO2 SLP155 T02280211=
202308120952 METAR KATL 120952Z 28004KT 10SM SCT032 23/22 A3000 RMK AO2 SLP149 T02280217=
202308120852 METAR KATL 120852Z 27004KT 10SM CLR 23/22 A3000 RMK AO2 SLP146 T02280217 53009=
202308120752 METAR KATL 120752Z 00000KT 10SM CLR 23/22 A2999 RMK AO2 SLP143 T02280217=
202308120652 METAR KATL 120652Z 18005KT 10SM CLR 24/22 A2998 RMK AO2 SLP140 T02390222=
202308120552 METAR KATL 120552Z 27004KT 10SM FEW200 FEW250 24/22 A2997 RMK AO2 SLP138 T02440222 10283 20244 56004=
202308120452 METAR KATL 120452Z 00000KT 10SM FEW200 SCT250 25/23 A2998 RMK AO2 SLP141 T02500228 403220222=
202308120352 METAR KATL 120352Z 18003KT 10SM FEW200 BKN250 25/23 A2997 RMK AO2 SLP138 T02500233=
202308120252 METAR KATL 120252Z 21004KT 10SM FEW200 BKN250 26/23 A2998 RMK AO2 SLP144 T02610233 51016=
202308120152 METAR KATL 120152Z 23003KT 10SM SCT200 BKN250 26/23 A2997 RMK AO2 SLP140 T02610228=
202308120052 METAR KATL 120052Z 26004KT 10SM FEW020 SCT200 SCT250 26/22 A2996 RMK AO2 SLP136 T02610217=
202308112352 METAR KATL 112352Z 25006KT 10SM FEW020 SCT150 SCT200 BKN250 28/24 A2994 RMK AO2 RAB2254E24 TSE31 SLP126 LTG DSNT SW-W CB DSNT SW-W TCU DSNT NE-E P0000 60000 T02830244 10322 20283 53004=
202308112331 SPECI KATL 112331Z 24008KT 10SM FEW020 SCT150 SCT200 BKN250 28/24 A2993 RMK AO2 RAB2254E24 TSE31 LTG DSNT W TS MOVD S CB DSNT W-NW TCU DSNT NE-E P0000 T02830244=
202308112252 METAR KATL 112252Z 25010KT 10SM TS FEW022CB BKN150 BKN200 BKN250 29/24 A2993 RMK AO2 TSB39 SLP122 OCNL LTGICCG VC W-NW TS VC W-NW MOV S TCU NW-NE SHRA NW-NE T02940244=
202308112240 SPECI KATL 112240Z 23011KT 10SM TS FEW025CB SCT150 BKN200 BKN250 30/24 A2993 RMK AO2 TSB39 OCNL LTGICCG VC NW TS VC NW MOV S TCU NW-NE T03000244=
202308112152 METAR KATL 112152Z 22012G16KT 10SM SCT030 SCT200 BKN250 31/24 A2991 RMK AO2 LTG DSNT N AND NW SLP117 CB DSNT NW-N TCU DSNT N-NE MDT CU OHD-E T03060239=
202308112052 METAR KATL 112052Z 24007KT 10SM FEW028 FEW150 SCT200 32/24 A2992 RMK AO2 LTG DSNT NW SLP121 CB DSNT NW TCU DSNT N MDT CU DSNT W T03220239 56012=
202308111952 METAR KATL 111952Z 24009KT 10SM FEW028 FEW120 SCT200 31/23 A2994 RMK AO2 SLP127 TCU DSNT N W NW MDT CU DSNT W-N T03110233=
202308111852 METAR KATL 111852Z 23009G16KT 10SM FEW030 FEW120 FEW200 29/22 A2994 RMK AO2 SLP127 CB DSNT S-SW TCU DSNT NW-N T02940222=
202308111752 METAR KATL 111752Z 25009G21KT 10SM FEW028 FEW090 SCT200 29/22 A2996 RMK AO2 LTG DSNT SE-SW SLP133 CB DSNT SE-SW TCU DSNT NW 60026 T02940222 10294 20222 58005=
202308111652 METAR KATL 111652Z 25010G18KT 10SM FEW025 SCT085 SCT200 28/21 A2997 RMK AO2 LTG DSNT SW AND W SLP138 CB DSNT SW W ACC OHD T02830211=
202308111552 METAR KATL 111552Z 25009KT 10SM FEW013 SCT065 SCT120 SCT200 27/22 A2998 RMK AO2 LTG DSNT SW SLP139 CB DSNT S SW T02670222=
202308111452 METAR KATL 111452Z 22009KT 10SM FEW009 BKN110 BKN200 23/21 A2998 RMK AO2 SLP141 CB DSNT S SW SHRA NE-SE-S 60026 T02280211 50014=
202308111352 METAR KATL 111352Z 23004KT 9SM FEW008 SCT042 BKN110 OVC150 22/21 A2999 RMK AO2 RAE52 TSE34 SLP146 TS MOVD E CB DSNT E-SE P0011 T02220211=
202308111334 SPECI KATL 111334Z 21006KT 7SM RA FEW008 BKN110 OVC150 22/21 A3000 RMK AO2 TSE34 TS MOVD E CB DSNT NE-SE-S VIS LWR SE-S P0009 T02220211=
202308111305 SPECI KATL 111305Z 22008KT 7SM -TSRA FEW007 FEW055CB BKN110 OVC150 22/21 A2999 RMK AO2 OCNL LTGCCICCG VC NE-SE-S TS VC NE-SE-S MOV E P0002 T02220206=
202308111252 METAR KATL 111252Z 26009KT 6SM -TSRA BR SCT055CB BKN080 OVC120 22/21 A2998 RMK AO2 PK WND 28029/1215 WSHFT 1210 SLP140 OCNL LTGICCA OHD-ALQDS TS OHD-ALQDS MOV E P0015 T02220206=
202308111237 SPECI KATL 111237Z 27006KT 6SM -TSRA BR FEW008 BKN048CB OVC100 23/21 A2997 RMK AO2 PK WND 28029/1215 WSHFT 1210 OCNL LTGICCA OHD-ALQDS TS OHD-ALQDS MOV E P0013 T02280206=
202308111225 SPECI KATL 111225Z 26010G28KT 4SM +TSRA BR FEW006 BKN030CB OVC070 23/21 A2997 RMK AO2 PK WND 28029/1215 WSHFT 1210 FRQ LTGICCGCA OHD-ALQDS TS OHD-ALQDS MOV E P0010 T02280206 $=
202308111222 SPECI KATL 111222Z 27012G29KT 2 1/2SM +TSRA FEW006 BKN030CB OVC070 23/21 A2998 RMK AO2 PK WND 28029/1215 FRQ LTGICCGCA OHD-ALQDS TS OHD-ALQDS MOV E P0007 T02330206 $=
202308111218 SPECI KATL 111218Z 26018G29KT 1 1/4SM +TSRA BR FEW007 BKN040CB OVC070 23/21 A2998 RMK AO2 PK WND 28029/1215 PRESRR FRQ LTGICCGCA OHD-ALQDS TS OHD-ALQDS MOV E P0006 T02330211 $=
202308111215 SPECI KATL 111215Z 27021G29KT 2SM +TSRA BR FEW007 BKN040CB OVC070 24/22 A2997 RMK AO2 PK WND 28029/1215 PRESRR FRQ LTGICCGCA OHD-ALQDS TS OHD-ALQDS MOV E SHELF CLOUD NE-SE MOV E P0002 T02390222 $=
202308111152 METAR KATL 111152Z 09004KT 10SM -TSRA BKN038CB BKN060 OVC120 24/23 A2993 RMK AO2 TSE26B42 SLP125 FRQ LTGICCGCA SW-NW TS SW-NW MOV E SHELF CLOUD SW-NW MOV E P0000 60039 70054 T02440228 10256 20239 50004 $=
202308111143 SPECI KATL 111143Z 09005KT 10SM -TSRA SCT038CB BKN070 BKN110 OVC200 24/23 A2993 RMK AO2 TSE26B42 OCNL LTGICCA VC SW-NW TS VC SW-NW MOV E CB DSNT NE SW-NW P0000 T02440228 $=
202308111126 SPECI KATL 111126Z 12004KT 10SM -RA SCT038 BKN080 BKN110 OVC200 24/23 A2993 RMK AO2 LTG DSNT W-NE TSE26 TS DSIPTD CB DSNT SW-NW-NE P0000 T02440228 $=
202308111052 METAR KATL 111052Z 25003KT 10SM -TSRA SCT034CB BKN075 BKN110 BKN200 24/23 A2995 RMK AO2 RAE30B50 SLP129 OCNL LTGICCGCA W-N-NE TS W-N-NE MOV E CB DSNT SW-NW-NE P0030 T02390228=
202308111033 SPECI KATL 111033Z 19004KT 10SM TS SCT034CB BKN070 OVC110 24/23 A2995 RMK AO2 LTG DSNT W-N RAE30 FRQ LTGICCG VC NW-N TS VC NW-N MOV E CB DSNT W-N P0030 T02390228=
202308111013 SPECI KATL 111013Z 16004KT 4SM -TSRA BR FEW016 BKN030CB OVC050 24/23 A2994 RMK AO2 LTG DSNT W AND NW OCNL LTGICCG VC NE-SE-SW TS VC NE-SE-SW MOV E CB DSNT W-NW P0030 T02390228=
202308111010 SPECI KATL 111010Z 16004KT 2 1/2SM +TSRA BR FEW016 BKN030CB OVC050 24/23 A2994 RMK AO2 LTG DSNT W AND NW OCNL LTGICCG NE-SE-SW TS NE-SE-SW MOV E CB DSNT W-NW P0029 T02390228 $=
202308111007 SPECI KATL 111007Z 16004KT 1 1/2SM +TSRA BR FEW016 BKN030CB OVC050 24/23 A2994 RMK AO2 LTG DSNT W AND NW OCNL LTGICCG NE-OHD-SW TS NE-OHD-SW MOV E CB DSNT W P0026 T02390228 $=
202308111001 SPECI KATL 111001Z 25003KT 3/4SM +TSRA BR FEW018 BKN033CB OVC060 24/23 A2996 RMK AO2 LTG DSNT W OCNL LTGICCG NE-OHD-SW TS NE-OHD-SW MOV CB DSNT W P0012 T02440228 RVRNO $=
202308110952 METAR KATL 110952Z 32006KT 1SM R09R/P6000FT +TSRA BR FEW020 BKN038CB OVC070 24/23 A2995 RMK AO2 LTG DSNT W SLP129 RAB25 TSB38 OCNL LTGICCG NE-OHD-SW TS NE-OHD-SW MOV E CB DSNT W P0009 T02440228 $=
202308110940 SPECI KATL 110940Z 00000KT 3SM TSRA BR BKN044CB OVC075 24/22 A2992 RMK AO2 LTG DSNT W RAB25 TSB38 OCNL LTGICCG VC W-NW TS VC W-NW MOV E CB DSNT W P0007 T02440222 $=
202308110852 METAR KATL 110852Z 18003KT 10SM FEW050 SCT095 SCT200 BKN250 24/22 A2992 RMK AO2 SLP121 T02440222 55006 $=
202308110752 METAR KATL 110752Z 00000KT 10SM SCT090 SCT200 SCT250 24/22 A2991 RMK AO2 SLP117 T02440222 $=
202308110652 METAR KATL 110652Z 18003KT 10SM FEW100 FEW200 SCT250 24/22 A2993 RMK AO2 SLP123 T02440217 $=
202308110552 METAR KATL 110552Z 00000KT 10SM SCT100 SCT250 26/22 A2994 RMK AO2 SLP127 T02560217 10283 20250 58001 $=
202308110452 METAR KATL 110452Z 21003KT 10SM FEW100 FEW250 25/22 A2995 RMK AO2 SLP132 T02500222 403060206 $=
202308110352 METAR KATL 110352Z 27003KT 10SM SCT120 26/22 A2994 RMK AO2 SLP130 T02610217 $=
202308110252 METAR KATL 110252Z 27004KT 10SM FEW040 FEW250 26/21 A2994 RMK AO2 SLP130 T02610211 53009 $=
202308110152 METAR KATL 110152Z 27004KT 10SM SCT040 SCT250 27/21 A2993 RMK AO2 SLP126 T02670211 $=
202308110052 METAR KATL 110052Z 29005KT 10SM FEW035 BKN047 BKN070 BKN250 28/21 A2992 RMK AO2 SLP121 T02780206 $=
202308102352 METAR KATL 102352Z 27006KT 10SM BKN043 BKN070 BKN250 28/21 A2992 RMK AO2 SLP120 T02830206 10306 20267 53004 $=
202308102252 METAR KATL 102252Z 30009KT 10SM FEW038 BKN065 BKN200 BKN250 29/20 A2991 RMK AO2 SLP117 T02940200 $=
202308102152 METAR KATL 102152Z 27011KT 10SM FEW040 FEW055 SCT200 BKN250 31/20 A2991 RMK AO2 SLP114 T03060200 $=
202308102052 METAR KATL 102052Z 27010KT 10SM FEW040 FEW055 SCT200 BKN250 30/21 A2990 RMK AO2 SLP114 T03000206 56003=
202308101952 METAR KATL 101952Z 27011G23KT 10SM FEW042 FEW150 SCT200 SCT250 29/21 A2990 RMK AO2 SLP114 T02940206=
202308101852 METAR KATL 101852Z 25012G21KT 10SM FEW040 FEW150 BKN200 BKN250 27/19 A2991 RMK AO2 SLP116 T02720194=
202308101752 METAR KATL 101752Z 26009KT 10SM FEW032 FEW140 BKN200 BKN250 27/20 A2991 RMK AO2 SLP119 60015 T02670200 10267 20206 56013=
202308101652 METAR KATL 101652Z 22008KT 10SM FEW020 FEW140 BKN200 BKN250 25/21 A2992 RMK AO2 SLP120 T02500206=
202308101552 METAR KATL 101552Z 22009KT 10SM FEW012 FEW110 BKN180 BKN250 23/21 A2992 RMK AO2 SLP124 FU FEW012 VIRGA E-OHD-W ACC DSNT NE-E SE T02330206=
202308101452 METAR KATL 101452Z 21005KT 10SM FEW008 SCT080 SCT140 BKN200 BKN250 22/19 A2995 RMK AO2 RAE23 SLP133 ACC E-S-SW P0010 60015 T02170194 50007=
202308101423 SPECI KATL 101423Z 29004KT 10SM FEW008 SCT040 BKN080 BKN200 21/19 A2998 RMK AO2 RAE23 CB DSNT NE ACC SW-NW P0010 T02110194=
202308101407 SPECI KATL 101407Z 30008KT 4SM RA BR FEW006 BKN045 OVC070 21/19 A2999 RMK AO2 CB DSNT NE-E P0009 T02060194=
202308101352 METAR KATL 101352Z 31011G25KT 2SM +RA BR FEW008 BKN050CB OVC080 21/19 A3000 RMK AO2 SLP151 VIS SW-NW-NE 1 CB NE-OHD-SW MOV E P0004 T02060194=
202308101343 SPECI KATL 101343Z 31018G25KT 9SM -RA FEW008 BKN050CB OVC080 21/19 A3001 RMK AO2 PRESRR VIS LWR SW-NW-N CB SW-NW-N MOV E P0001 T02110189=
202308101252 METAR KATL 101252Z 29008KT 10SM -RA FEW045 BKN055 OVC070 22/19 A2997 RMK AO2 LTG DSNT SW SLP137 RAE10B47 P0001 T02170189=
202308101152 METAR KATL 101152Z 32008KT 9SM -RA SCT040 BKN060 BKN100 BKN150 OVC200 22/19 A2993 RMK AO2 PK WND 30034/1112 LTG DSNT SW RAB22 TSB26E44 SLP124 TS DSIPTD CB DSNT SW P0001 60001 70004 T02170189 10250 20217 53020=
202308101144 SPECI KATL 101144Z 30014KT 9SM -RA SCT040 BKN050 BKN100 BKN150 OVC200 22/19 A2994 RMK AO2 PK WND 30034/1112 LTG DSNT SW RAB22 TSB26E44 TS DSIPTD BINOVC P0001 T02170189=
202308101127 SPECI KATL 101127Z 33018G28KT 10SM -TSRA SCT009 BKN038CB BKN060 BKN150 BKN250 23/18 A2994 RMK AO2 PK WND 30034/1112 LTG DSNT W-NE RAB22 TSB26 OCNL LTGICCC NW TS NW MOV SE CB DSNT W-NE P0000 T02280183=
202308101052 METAR KATL 101052Z 27013G18KT 10SM BKN009 BKN095 BKN110 BKN150 OVC250 25/23 A2990 RMK AO2 LTG DSNT W-N PRESRR SLP114 CB DSNT W-N BINOVC T02500228=
202308100952 METAR KATL 100952Z 25011G19KT 10SM BKN008 OVC014 25/23 A2988 RMK AO2 SLP105 T02500228=
202308100908 SPECI KATL 100908Z 22008KT 10SM BKN012 BKN029 24/23 A2987 RMK AO2 T02440228=
202308100852 METAR KATL 100852Z 22007KT 10SM SCT012 SCT020 BKN028 24/22 A2987 RMK AO2 SLP102 T02440222 56014=
202308100759 SPECI KATL 100759Z 19004KT 10SM BKN025 BKN033 24/23 A2987 RMK AO2 T02440228=
202308100752 METAR KATL 100752Z 19004KT 10SM SCT025 BKN033 24/23 A2987 RMK AO2 SLP102 T02440228=
202308100652 METAR KATL 100652Z 18004KT 10SM SCT250 24/23 A2987 RMK AO2 SLP103 T02440228=
202308100552 METAR KATL 100552Z 22004KT 10SM FEW150 SCT200 SCT250 24/23 A2991 RMK AO2 SLP117 60003 T02440228 10294 20244 56024=
202308100452 METAR KATL 100452Z 27005KT 10SM FEW150 BKN200 BKN250 26/23 A2992 RMK AO2 RAE08 SLP121 P0000 T02560233 403170206=
202308100352 METAR KATL 100352Z 15009G17KT 8SM -RA FEW070 BKN110 OVC150 25/23 A2988 RMK AO2 PRESFR SLP107 P0003 T02500228=
202308100252 METAR KATL 100252Z 20005KT 10SM -RA FEW050 SCT070 BKN100 OVC150 27/23 A2998 RMK AO2 SLP142 P0000 60000 T02670228 51007=
202308100152 METAR KATL 100152Z 18004KT 10SM -RA FEW050 SCT080 BKN110 OVC150 28/23 A2998 RMK AO2 SLP140 LTG DSNT SW-W NW CB DSNT SW-W NW P0000 T02780228=
202308100052 METAR KATL 100052Z 35006KT 10SM -RA FEW090 BKN130 BKN200 BKN250 29/21 A2997 RMK AO2 RAB51 SLP139 LTG DSNT SW-W CB DSNT SW-W P0000 T02940206=
202308092352 METAR KATL 092352Z 27003KT 10SM FEW140 BKN200 BKN250 29/21 A2996 RMK AO2 SLP135 T02940206 10317 20294 50000=
202308092252 METAR KATL 092252Z 25006KT 10SM FEW045 SCT150 BKN200 BKN250 31/21 A2996 RMK AO2 SLP133 T03110206=
202308092152 METAR KATL 092152Z 29008KT 10SM FEW045 BKN150 BKN200 BKN250 31/19 A2997 RMK AO2 SLP138 T03060194=
202308092052 METAR KATL 092052Z 28007KT 10SM FEW046 FEW150 SCT200 BKN250 32/20 A2996 RMK AO2 SLP134 T03170200 57010=
202308091952 METAR KATL 091952Z 27008KT 10SM FEW050 BKN200 BKN250 31/21 A2998 RMK AO2 SLP140 T03110206=
202308091852 METAR KATL 091852Z 27008KT 10SM FEW050 SCT200 BKN250 31/20 A2998 RMK AO2 SLP140 T03060200=
202308091752 METAR KATL 091752Z 33006KT 10SM FEW042 SCT200 BKN250 30/20 A2999 RMK AO2 SLP145 T03000200 10300 20211 58013=
202308091652 METAR KATL 091652Z 31008KT 10SM FEW038 SCT200 BKN250 29/20 A3001 RMK AO2 SLP153 T02890200=
202308091552 METAR KATL 091552Z 31007KT 10SM FEW030 BKN200 BKN250 27/20 A3003 RMK AO2 SLP157 T02720200=
202308091452 METAR KATL 091452Z 30006KT 10SM FEW020 SCT200 SCT250 26/20 A3003 RMK AO2 SLP161 T02610200 58003=
202308091352 METAR KATL 091352Z 31007KT 8SM FEW012 SCT200 SCT250 24/21 A3003 RMK AO2 SLP161 T02440206=
202308091252 METAR KATL 091252Z 31008KT 8SM FEW005 FEW200 BKN250 22/20 A3006 RMK AO2 SLP169 VIS LWR SW-NW T02220200=
202308091220 SPECI KATL 091220Z 30007KT 8SM FEW005 FEW200 BKN250 22/20 A3005 RMK AO2 VIS LWR W-N T02170200=
202308091152 METAR KATL 091152Z 27005KT 8SM FEW200 BKN250 22/20 A3004 RMK AO2 SLP164 T02170200 10217 20206 53012=
202308091052 METAR KATL 091052Z 26003KT 8SM FEW200 SCT250 21/19 A3003 RMK AO2 SLP160 T02060194 $=
202308090952 METAR KATL 090952Z 27004KT 10SM FEW200 BKN250 21/19 A3001 RMK AO2 SLP153 T02060194 $=
202308090852 METAR KATL 090852Z 28005KT 10SM SCT250 21/19 A3001 RMK AO2 SLP151 T02060194 58004 $=
202308090752 METAR KATL 090752Z 29005KT 10SM FEW250 21/19 A3001 RMK AO2 SLP153 T02110194 $=
202308090652 METAR KATL 090652Z 27005KT 10SM CLR 21/19 A3001 RMK AO2 SLP153 T02110194 $=
202308090552 METAR KATL 090552Z 28005KT 10SM CLR 22/20 A3002 RMK AO2 SLP155 T02170200 10256 20217 58001 $=
202308090452 METAR KATL 090452Z 29007KT 10SM CLR 22/21 A3002 RMK AO2 SLP156 T02220206 403110222 $=
202308090352 METAR KATL 090352Z 27006KT 10SM FEW120 FEW250 23/21 A3002 RMK AO2 SLP156 T02280206 $=
202308090252 METAR KATL 090252Z 26004KT 10SM FEW120 SCT250 23/21 A3002 RMK AO2 SLP155 T02280206 53009 $=
202308090152 METAR KATL 090152Z 29005KT 10SM SCT120 BKN200 BKN250 24/20 A2999 RMK AO2 SLP147 T02390200 $=
202308090052 METAR KATL 090052Z 19004KT 10SM FEW090 SCT150 BKN200 BKN250 24/20 A2999 RMK AO2 SLP147 T02440200 $=
202308082352 METAR KATL 082352Z 00000KT 10SM FEW100 BKN150 BKN200 BKN250 26/19 A2999 RMK AO2 SLP147 60000 T02560194 10311 20250 55002 $=
202308082252 METAR KATL 082252Z 28003KT 10SM BKN110 BKN150 BKN200 OVC250 25/20 A2998 RMK AO2 RAB20E39 SLP143 P0000 T02500200 $=
202308082152 METAR KATL 082152Z 33007KT 10SM FEW080 BKN110 BKN150 OVC200 26/20 A3000 RMK AO2 RAE52 SLP149 P0000 T02610200 $=
202308082052 METAR KATL 082052Z VRB06G16KT 10SM -RA FEW034 SCT070 BKN110 OVC180 27/20 A3000 RMK AO2 PK WND 31032/1958 RAB12 SLP148 PCPN VRY LGT P0000 60000 T02670200 58016 $=
202308082015 SPECI KATL 082015Z 32018G32KT 10SM -RA FEW042 FEW065 BKN110 OVC180 27/20 A3003 RMK AO2 PK WND 31032/1958 RAB12 PRESFR CB DSNT S TCU DSNT NE P0000 T02720200 $=
202308081952 METAR KATL 081952Z 31024G34KT 10SM FEW042TCU SCT060 SCT150 OVC200 29/19 A3006 RMK AO2 PK WND 31034/1951 SLP168 CB DSNT S TCU NW MDT CU SW-W DSNT E-SE T02890194 $=
202308081852 METAR KATL 081852Z 31009KT 10SM FEW042 SCT060 SCT150 OVC200 30/21 A3004 RMK AO2 SLP163 T03000206 $=
202308081752 METAR KATL 081752Z 26010KT 10SM FEW040 FEW065 BKN180 BKN250 29/21 A3005 RMK AO2 SLP163 T02940206 10300 20233 50001 $=
202308081652 METAR KATL 081652Z 26010KT 10SM FEW032 SCT060 SCT150 BKN200 28/21 A3005 RMK AO2 SLP167 MDT CU S-W DSNT SE-S T02830206 $=
202308081552 METAR KATL 081552Z 29007KT 10SM FEW026 FEW150 BKN200 BKN250 28/21 A3004 RMK AO2 SLP162 T02830211 $=
202308081452 METAR KATL 081452Z 27008KT 10SM SCT020 SCT200 BKN250 BKN300 27/21 A3004 RMK AO2 SLP163 T02720211 50002 $=
202308081352 METAR KATL 081352Z 27008KT 10SM FEW014 SCT200 SCT250 BKN300 26/22 A3005 RMK AO2 SLP165 T02610217 $=
202308081252 METAR KATL 081252Z 28007KT 10SM FEW010 FEW150 SCT200 SCT250 24/21 A3005 RMK AO2 SLP167 T02440211 $=
202308081152 METAR KATL 081152Z 26005KT 10SM FEW036 FEW250 23/21 A3004 RMK AO2 SLP162 70016 T02330206 10233 20222 51007 $=
202308081052 METAR KATL 081052Z 27006KT 10SM SCT036 SCT250 22/21 A3003 RMK AO2 SLP161 T02220206 $=
202308080952 METAR KATL 080952Z 21003KT 10SM BKN030 22/21 A3003 RMK AO2 SLP158 T02220206=
202308080852 METAR KATL 080852Z 24003KT 10SM FEW027 23/21 A3002 RMK AO2 SLP152 T02280206 53004=
202308080752 METAR KATL 080752Z 24006KT 10SM FEW030 FEW250 23/21 A3001 RMK AO2 SLP150 LTG DSNT SE CB DSNT SE T02280206=
202308080652 METAR KATL 080652Z 27005KT 10SM SCT060 SCT075 SCT250 23/21 A3001 RMK AO2 SLP149 T02280206=
202308080552 METAR KATL 080552Z 26006KT 10SM SCT060 SCT100 SCT200 SCT250 23/21 A3000 RMK AO2 LTG DSNT SE AND S SLP148 CB DSNT SE-S T02280211 10233 20228 55001=
202308080452 METAR KATL 080452Z 23004KT 10SM FEW040CB BKN070 BKN200 BKN250 23/21 A3000 RMK AO2 SLP149 CB S DSNT SE SW MOV E T02280211 403390217=
202308080352 METAR KATL 080352Z 21004KT 10SM FEW070 FEW150 SCT250 23/21 A3001 RMK AO2 LTG DSNT SE AND S SLP151 CB DSNT SE-S T02280211=
202308080252 METAR KATL 080252Z 21004KT 10SM FEW070 SCT150 BKN250 23/22 A3001 RMK AO2 LTG DSNT SW SLP153 CB DSNT SW T02280217 56000=
202308080152 METAR KATL 080152Z 17005KT 10SM BKN100 BKN200 BKN250 23/21 A3001 RMK AO2 SLP154 T02280211=
202308080052 METAR KATL 080052Z 26004KT 10SM SCT150 BKN200 BKN250 23/21 A3000 RMK AO2 SLP150 T02280211=
202308072352 METAR KATL 072352Z 26007KT 10SM FEW110 SCT150 BKN200 BKN250 23/21 A3001 RMK AO2 SLP154 60016 T02280211 10339 20228 51020=
202308072252 METAR KATL 072252Z 01003KT 10SM SCT090 BKN130CB OVC200 23/21 A2999 RMK AO2 PK WND 30040/2158 RAE28 TSE52 SLP146 LTG DSNT NE-SE TS MOVD E CB DSNT NE-SE CBMAM OHD P0016 T02330206=
202308072209 SPECI KATL 072209Z 31015G33KT 5SM TSRA BR FEW008 SCT030CB BKN050 OVC150 23/21 A3008 RMK AO2 PK WND 30040/2158 OCNL LTGICCG OHD-ALQDS TS OHD-ALQDS MOV E P0011 T02330211=
202308072159 SPECI KATL 072159Z 30028G40KT 2SM TSRA BKN030CB BKN050 BKN150 OVC200 25/22 A3010 RMK AO2 PK WND 30040/2158 PRESRR FRQ LTGICCG OHD-ALQDS TS OHD-ALQDS MOV E P0003 T02500222=
202308072152 METAR KATL 072152Z 30024G30KT 10SM -TSRA SCT035CB BKN080 BKN200 BKN250 28/21 A3005 RMK AO2 PK WND 30039/2152 PRESRR SLP165 RAB37 FRQ LTGICCG SW-NW-NE TS SW-NW-NE MOV E SHELF CLOUD SW-NW-N P0000 T02830211=
202308072052 METAR KATL 072052Z 25013G22KT 10SM TS SCT044CB SCT080 BKN200 BKN250 33/24 A2995 RMK AO2 TSB34 SLP129 FRQ LTGICCG NE TS NE MOV E CB DSNT N-NE SW NW TCU SW T03330239 55018=
202308072039 SPECI KATL 072039Z 24010G23KT 10SM TS FEW042CB SCT080 BKN200 BKN250 33/23 A2994 RMK AO2 LTG DSNT W-NE TSB34 OCNL LTGICCG NW-N TS NW-N MOV E CB DSNT NW-NE T03330233=
202308071952 METAR KATL 071952Z 23012G24KT 10SM FEW042TCU SCT200 SCT250 34/24 A2994 RMK AO2 LTG DSNT N AND NW SLP125 CB DSNT NW-NE TCU NE DSNT N-NE NW T03390239=
202308071852 METAR KATL 071852Z 25010G19KT 220V280 10SM SCT038 SCT200 SCT250 33/24 A2997 RMK AO2 SLP137 CB DSNT N NE TCU DSNT NW-NE T03330244=
202308071752 METAR KATL 071752Z 24014G20KT 10SM FEW030 FEW200 FEW250 32/24 A3000 RMK AO2 SLP148 TCU DSNT N NW T03220239 10322 20228 56015=
202308071652 METAR KATL 071652Z 23006G15KT 10SM FEW024 FEW200 FEW250 30/24 A3002 RMK AO2 SLP153 T03000244=
202308071552 METAR KATL 071552Z 23009G16KT 10SM FEW003 FEW016 FEW250 28/24 A3002 RMK AO2 SLP156 FU FEW003 T02780239=
202308071513 SPECI KATL 071513Z 22009KT 10SM SCT012 SCT250 27/24 A3005 RMK AO2 T02670239=
202308071452 METAR KATL 071452Z 23008KT 10SM BKN010 BKN050 BKN250 26/23 A3005 RMK AO2 SLP166 CIG 008V012 T02610233 53004=
202308071447 SPECI KATL 071447Z 22010G15KT 10SM BKN010 BKN050 BKN250 27/24 A3005 RMK AO2 CIG 008V012=
202308071352 METAR KATL 071352Z 22007KT 10SM OVC007 25/23 A3004 RMK AO2 SLP165 CIG 006V009 BINOVC T02500228=
202308071252 METAR KATL 071252Z 24010KT 10SM BKN008 BKN035 BKN200 24/22 A3003 RMK AO2 SLP160 BKN008 V SCT T02390217=
202308071245 SPECI KATL 071245Z 23007KT 10SM BKN008 BKN035 BKN200 24/22 A3003 RMK AO2 BKN008 V SCT T02390217=
202308071152 METAR KATL 071152Z 24006KT 10SM FEW007 FEW035 FEW120 FEW200 23/21 A3003 RMK AO2 SLP162 60010 70117 T02280206 10228 20217 51009=
202308071052 METAR KATL 071052Z 25008KT 10SM FEW014 SCT070 SCT120 BKN200 22/21 A3003 RMK AO2 RAB21E37 TSB08E46 SLP160 TS DSIPTD P0010 T02220206 $=
202308071046 SPECI KATL 071046Z 25008KT 10SM FEW027 SCT070 SCT120 BKN200 22/21 A3003 RMK AO2 RAB21E37 TSB08E46 TS DSIPTD P0010 $=
202308071030 SPECI KATL 071030Z 30006KT 3SM -TSRA BR FEW005 SCT014 BKN080 BKN130 BKN200 22/21 A3003 RMK AO2 LTG DSNT N AND NW RAB21 TSB08 OCNL LTGICCG OHD-NW-N TS OHD-NW-N MOV SE VIS NW-NE 1 P0010 T02220206 $=
202308071008 SPECI KATL 071008Z 25006KT 10SM TS FEW035CB SCT085 SCT200 22/20 A3001 RMK AO2 LTG DSNT NW TSB08 OCNL LTGICCG VC NW TS VC NW MOV SE T02220200 $=
202308070952 METAR KATL 070952Z 25004KT 10SM FEW035 SCT200 22/21 A3001 RMK AO2 SLP155 T02220206 $=
202308070852 METAR KATL 070852Z 26005KT 10SM FEW004 SCT200 22/21 A3001 RMK AO2 SLP152 T02170206 53001 $=
202308070752 METAR KATL 070752Z 27006KT 10SM FEW200 22/21 A3000 RMK AO2 SLP150 T02170206 $=
202308070652 METAR KATL 070652Z 25003KT 10SM FEW200 SCT250 22/21 A3000 RMK AO2 SLP151 T02170206 $=
202308070552 METAR KATL 070552Z 20003KT 10SM FEW200 SCT250 22/21 A3000 RMK AO2 SLP147 60006 T02220206 10228 20217 50000 $=
202308070452 METAR KATL 070452Z 26004KT 10SM FEW005 SCT200 BKN250 22/21 A3002 RMK AO2 SLP152 T02170206 403560217 $=
202308070352 METAR KATL 070352Z 24007KT 10SM FEW004 FEW150 SCT200 BKN250 22/21 A3001 RMK AO2 SLP149 T02220206 $=
202308070252 METAR KATL 070252Z 23008KT 10SM FEW004 SCT150 BKN190 BKN250 22/21 A3000 RMK AO2 SLP148 60006 T02170206 55024 $=
202308070152 METAR KATL 070152Z 16006KT 10SM FEW110 SCT140 BKN200 BKN250 22/21 A2999 RMK AO2 SLP145 T02220206 $=
202308070052 METAR KATL 070052Z 17006KT 10SM FEW030 SCT045 BKN120 BKN170 BKN250 23/21 A3001 RMK AO2 SLP153 RAE36 P0006 T02280211 $=
202308062352 METAR KATL 062352Z 00000KT 6SM VCTS -RA BR SCT034 OVC110 22/21 A3007 RMK AO2 PK WND 29032/2257 LTG DSNT ALQDS RAB2259 TSB02 SLP175 TS MOV E CB DSNT ALQDS P0037 60101 T02220206 10356 20222 50027 $=
202308062322 SPECI KATL 062322Z 33011KT 4SM -TSRA BR SCT015 BKN034CB OVC070 22/21 A3008 RMK AO2 PK WND 29032/2257 RAB2259 TSB02 OCNL LTGICCCCG E-SW TS E-SW MOV E P0035 T02220206 $=
202308062303 SPECI KATL 062303Z 28019G32KT 1 1/2SM +TSRA BR SCT012 BKN024CB OVC090 23/21 A3011 RMK AO2 PK WND 29032/2257 LTG DSNT ALQDS RAB2259 TSB02 OCNL LTGICCCCG OHD-SW-NW TS OHD-SW-NW MOV E P0007 T02280211 $=
202308062302 SPECI KATL 062302Z 29020G32KT 2SM +TSRA BR SCT012 BKN024CB OVC090 23/21 A3012 RMK AO2 PK WND 29032/2257 LTG DSNT ALQDS RAB2259 TSB02 OCNL LTGICCCCG OHD-SW-NW TS OHD-SW-NW MOV E P0005 T02280211 $=
202308062252 METAR KATL 062252Z 29020G32KT 10SM SCT009 BKN020 OVC090 23/22 A3011 RMK AO2 PK WND 28032/2249 RAE36 TSE51 SLP186 TS DSIPTD P0000 T02330217 $=
202308062152 METAR KATL 062152Z 22004KT 10SM -TSRA FEW009 SCT065 BKN090 BKN200 BKN250 23/21 A2999 RMK AO2 LTG DSNT N AND S AND SW RAB07 SLP146 OCNL LTGICCG SW-W TS SW-W MOV E P0001 T02330211 $=
202308062052 METAR KATL 062052Z 32007KT 10SM TS FEW009 SCT065CB BKN150 BKN200 24/22 A3005 RMK AO2 PK WND 30026/2038 RAE32 TSB52 SLP165 TSE10B51 OCNL LTGICCG VC W-NW TS VC W-NW MOV E P0000 60063 T02440222 55006 $=
202308062010 SPECI KATL 062010Z 00000KT 10SM -RA FEW005 SCT110 BKN150 OVC200 23/21 A3000 RMK AO2 TS DSIPTD CB DSNT SE-SW-NW P0000 T02280211 $=
202308061952 METAR KATL 061952Z 17007KT 9SM -TSRA FEW055CB BKN110 OVC150 23/21 A3002 RMK AO2 SLP155 OCNL LTGICCC OHD-ALQDS TS OHD-ALQDS MOV E CB DSNT W-NW P0019 T02330211 $=
202308061914 SPECI KATL 061914Z 00000KT 4SM TSRA BR FEW033CB BKN055 OVC100 23/21 A3006 RMK AO2 OCNL LTGICCCCG NE-SE-S TS NE-SE-S MOV E CB DSNT NW P0018 T02330211 $=
202308061900 SPECI KATL 061900Z 08004KT 2SM +TSRA BR SCT024CB BKN050 OVC075 23/21 A3004 RMK AO2 FRQ LTGICCCCG OHD-NE-SE TS OHD-NE-SE MOV E P0014 T02280211 $=
202308061852 METAR KATL 061852Z 04009G23KT 1 1/4SM +TSRA BR SCT018CB BKN030 OVC050 23/21 A3005 RMK AO2 PK WND 30053/1837 WSHFT 1829 RAB37 TSE08B28 SLP164 FRQ LTGICCCCG OHD-NE-SE TS OHD-NE-SE MOV E P0044 T02280211 $=
202308061846 SPECI KATL 061846Z 32014G53KT 1SM +TSRA BR SCT022CB BKN032 OVC050 23/21 A3007 RMK AO2 PK WND 30053/1837 WSHFT 1829 RAB37 TSE08B28 PRESRR FRQ LTGCGIC OHD-ALQDS TS OHD-ALQDS MOV E CB DSNT E P0020 RVRNO $=
202308061838 SPECI KATL 061838Z 31037G53KT 3/4SM R09R/P6000FT +TSRA SCT030CB OVC048 28/21 A3004 RMK AO2 PK WND 30053/1837 RAB37 TSE08B28 PRESRR FRQ LTGCGIC OHD-ALQDS TS OHD-ALQDS MOV E CB DSNT E P0000 T02780211 $=
202308061828 SPECI KATL 061828Z 27009G20KT 10SM TS SCT030CB BKN046 BKN090 OVC200 34/22 A2999 RMK AO2 TSE08B28 FRQ LTGCGIC W-NW TS W-NW MOV E CB DSNT E TCU OHD-N-E T03390222 $=
202308061809 SPECI KATL 061809Z 25010G18KT 10SM SCT032TCU BKN048 BKN200 36/22 A2998 RMK AO2 TSE08 TS MOVD NE CB DSNT NE-E SW-W TCU ALQDS T03560222 $=
202308061752 METAR KATL 061752Z 24006G14KT 10SM TS SCT032CB BKN060 BKN200 34/22 A2999 RMK AO2 SLP141 OCNL LTGCGIC VC N TS VC N MOV E CB DSNT E W TCU E S T03390222 10350 20261 58022 $=
202308061652 METAR KATL 061652Z VRB06G16KT 10SM TS SCT033CB BKN065 BKN200 34/23 A3003 RMK AO2 TSB29 SLP155 OCNL LTGCG NW-N VC E TS NW-N VC E MOV E CB DSNT NE TCU SE W T03390233 $=
202308061629 SPECI KATL 061629Z 23008KT 10SM TS SCT034CB BKN047 BKN200 33/23 A3004 RMK AO2 TSB29 OCNL LTGCG VC NE E TS VC NE E MOV E TCU ALQDS T03330233 $=
202308061552 METAR KATL 061552Z 27007KT 10SM BKN032TCU BKN075 BKN200 32/24 A3005 RMK AO2 SLP161 CB DSNT N TCU S-SW DSNT W NW MDT CU ALQDS T03170239 $=
202308061513 SPECI KATL 061513Z 27007KT 10SM BKN030 BKN110 BKN200 32/24 A3005 RMK AO2 BKN030 V SCT CB DSNT N MDT CU ALQDS T03170239 $=
202308061452 METAR KATL 061452Z 29006KT 10SM BKN026TCU BKN100 BKN200 31/23 A3005 RMK AO2 SLP164 CB DSNT N TCU N MDT CU SW-W T03110233 51010 $=
202308061352 METAR KATL 061352Z 26006KT 10SM SCT028 SCT080 SCT200 31/23 A3005 RMK AO2 SLP163 CB DSNT N ACC W-NW T03060233 $=
202308061252 METAR KATL 061252Z 24003KT 10SM FEW050 FEW150 FEW250 28/23 A3004 RMK AO2 SLP159 T02830228 $=
202308061152 METAR KATL 061152Z 21003KT 10SM FEW050 FEW150 FEW250 26/23 A3002 RMK AO2 SLP154 T02610228 10278 20256 53009 $=
202308061052 METAR KATL 061052Z 00000KT 10SM FEW050 SCT150 26/23 A3001 RMK AO2 SLP149 T02610228=
202308060952 METAR KATL 060952Z 17003KT 10SM BKN150 BKN200 26/23 A3000 RMK AO2 SLP144 T02610228=
202308060852 METAR KATL 060852Z 28004KT 10SM FEW085 BKN150 BKN200 BKN250 27/22 A3000 RMK AO2 SLP144 T02670222 55006=
202308060752 METAR KATL 060752Z 00000KT 10SM FEW085 SCT150 BKN200 BKN250 27/22 A2999 RMK AO2 SLP143 T02670222=
202308060652 METAR KATL 060652Z 13004KT 10SM FEW085 SCT200 SCT250 27/22 A2996 RMK AO2 PRESFR SLP131 T02720222=
202308060552 METAR KATL 060552Z 29005KT 10SM FEW060 SCT085 SCT200 SCT250 28/22 A3001 RMK AO2 SLP151 T02780222 10328 20278 58007=
202308060452 METAR KATL 060452Z 28006KT 10SM FEW065 SCT100 SCT250 28/22 A3003 RMK AO2 SLP158 T02830222 403560233=
202308060352 METAR KATL 060352Z 26005KT 10SM FEW055 SCT250 29/22 A3003 RMK AO2 SLP155 T02890217=
202308060252 METAR KATL 060252Z 00000KT 10SM BKN055 BKN080 29/22 A3004 RMK AO2 SLP158 T02940217 53022=
202308060152 METAR KATL 060152Z 17003KT 10SM SCT055 SCT080 SCT250 31/21 A3001 RMK AO2 SLP149 T03060211=
202308060052 METAR KATL 060052Z 18003KT 10SM SCT060 SCT090 BKN250 32/21 A3000 RMK AO2 SLP145 T03170206=
202308052352 METAR KATL 052352Z 15008KT 10SM SCT060 SCT250 33/20 A2997 RMK AO2 SLP136 T03280200 10356 20322 55004=
202308052252 METAR KATL 052252Z 35005KT 10SM SCT065 SCT250 34/19 A2996 RMK AO2 SLP132 MDT CU ALQDS T03440194=
202308052152 METAR KATL 052152Z VRB03KT 10SM SCT060 SCT250 34/19 A2996 RMK AO2 SLP134 TCU DSNT SE MDT CU ALQDS T03440194=
202308052052 METAR KATL 052052Z VRB05KT 10SM SCT060TCU SCT150 SCT250 35/21 A2998 RMK AO2 SLP140 TCU NE S DSNT SW MDT CU ALQDS T03500206 58008=
202308051952 METAR KATL 051952Z 00000KT 10SM SCT055 SCT150 SCT250 34/21 A3000 RMK AO2 SLP148 TCU DSNT SW-W MDT CU ALQDS T03390206=
202308051852 METAR KATL 051852Z VRB03KT 10SM SCT050TCU SCT250 33/20 A3001 RMK AO2 SLP150 TCU SE MDT CU ALQDS T03330200=
202308051752 METAR KATL 051752Z 16003KT 10SM SCT045 32/21 A3001 RMK AO2 SLP150 MDT CU ALQDS T03220206 10333 20239 58007=
202308051652 METAR KATL 051652Z 00000KT 10SM SCT035 SCT100 32/21 A3003 RMK AO2 SLP156 MDT CU ALQDS T03220206=
202308051552 METAR KATL 051552Z 00000KT 10SM SCT030 SCT100 30/22 A3003 RMK AO2 SLP159 MDT CU ALQDS T03000217=
202308051452 METAR KATL 051452Z 00000KT 10SM FEW022 FEW250 29/22 A3003 RMK AO2 SLP157 MDT CU DSNT NE NW T02890222 51012=
202308051401 SPECI KATL 051401Z VRB03KT 9SM SCT011 SCT250 27/22 A3003 RMK AO2 T02670222=
202308051352 METAR KATL 051352Z VRB04KT 9SM BKN009 BKN250 26/22 A3003 RMK AO2 SLP157 BKN009 V SCT T02610222=
202308051252 METAR KATL 051252Z 35006KT 6SM HZ BKN007 BKN250 25/22 A3002 RMK AO2 SLP154 T02500222=
202308051215 SPECI KATL 051215Z 33006KT 6SM BR BKN006 24/22 A3001 RMK AO2 T02390222=
202308051152 METAR KATL 051152Z 33005KT 7SM FEW006 FEW150 FEW200 24/22 A3000 RMK AO2 SLP147 T02390222 10250 20233 53008=
202308051102 SPECI KATL 051102Z 34006KT 5SM BR SCT003 SCT150 SCT200 23/22 A2999 RMK AO2 T02330217=
202308051052 METAR KATL 051052Z 35007KT 3SM BR BKN003 23/22 A2999 RMK AO2 SFC VIS 6 SLP144 TWRINC T02330217=
202308051025 SPECI KATL 051025Z 33007KT 3SM BR BKN004 23/22 A2999 RMK AO2 SFC VIS 6 T02330222=
202308051008 SPECI KATL 051008Z 32008KT 8SM BKN004 23/22 A2998 RMK AO2 T02330217=
202308050952 METAR KATL 050952Z 32007KT 10SM SCT004 SCT150 23/22 A2998 RMK AO2 SLP141 T02330217=
202308050852 METAR KATL 050852Z 31005KT 10SM FEW007 SCT180 23/22 A2997 RMK AO2 SLP137 T02330217 56004=
202308050752 METAR KATL 050752Z 30006KT 10SM SCT180 24/22 A2998 RMK AO2 SLP138 T02390217=
202308050652 METAR KATL 050652Z 30007KT 10SM SCT180 SCT250 24/22 A2998 RMK AO2 SLP139 T02440222=
202308050552 METAR KATL 050552Z 31007KT 10SM BKN180 BKN250 25/22 A2999 RMK AO2 SLP142 60000 T02500222 10294 20250 50003=
202308050452 METAR KATL 050452Z 29004KT 10SM BKN180 BKN250 26/22 A2999 RMK AO2 SLP142 T02560222 403280228=
202308050352 METAR KATL 050352Z 32005KT 10SM FEW150 BKN200 BKN250 26/22 A2998 RMK AO2 SLP139 T02610222=
202308050252 METAR KATL 050252Z 31009KT 10SM SCT150 BKN200 BKN250 27/23 A2997 RMK AO2 SLP139 60000 T02670228 53012=
202308050152 METAR KATL 050152Z 27003KT 10SM FEW030 BKN140 BKN200 BKN250 27/22 A2995 RMK AO2 LTG DSNT SE SLP129 CB DSNT SE T02720222=
202308050052 METAR KATL 050052Z 29006KT 10SM FEW028 SCT090 BKN200 BKN250 27/23 A2995 RMK AO2 RAB13E26 SLP131 CB DSNT SE-S P0000 T02720228=
202308042352 METAR KATL 042352Z 36008KT 10SM SCT030CB BKN060 BKN150 BKN250 29/22 A2994 RMK AO2 SLP126 CB W-NW MOV SE TCU E-S-W T02940222 10328 20289 55004=
202308042252 METAR KATL 042252Z 30006KT 10SM FEW035TCU SCT200 BKN250 31/22 A2993 RMK AO2 SLP124 TCU SE-S NW T03060217=
202308042152 METAR KATL 042152Z 31008KT 10SM SCT034TCU SCT150 BKN250 31/21 A2993 RMK AO2 LTG DSNT NE SLP125 CB DSNT NE TCU N-E-S T03110211=
202308042052 METAR KATL 042052Z 31011KT 10SM SCT033 SCT150 BKN250 32/22 A2995 RMK AO2 SLP130 CB DSNT N MDT CU ALQDS T03170222 58014=
202308041952 METAR KATL 041952Z 32012G20KT 10SM FEW032 FEW200 BKN250 31/22 A2996 RMK AO2 SLP135 CB DSNT N E MDT CU DSNT N SE SW T03110222=
202308041852 METAR KATL 041852Z 31009KT 10SM SCT030 BKN044 OVC120 29/22 A2999 RMK AO2 SLP145 MDT CU ALQDS T02940222=
202308041819 SPECI KATL 041819Z 32007KT 10SM SCT028 BKN038 BKN120 BKN250 30/22 A2999 RMK AO2 MDT CU ALQDS T03000222=
202308041752 METAR KATL 041752Z 32011KT 10SM BKN026 BKN130 BKN250 30/22 A2999 RMK AO2 SLP145 T03000222 10311 20228 58001=
202308041652 METAR KATL 041652Z 28012KT 10SM BKN023 BKN110 BKN220 29/23 A3000 RMK AO2 SLP147 T02940228=
202308041636 SPECI KATL 041636Z 31011G20KT 10SM BKN021 BKN150 BKN220 29/22 A3000 RMK AO2 T02940222=
202308041552 METAR KATL 041552Z 31013KT 10SM SCT016 SCT150 BKN220 28/22 A2999 RMK AO2 SLP146 T02780222 $=
202308041544 SPECI KATL 041544Z 33010KT 10SM SCT014 SCT150 BKN220 27/22 A2999 RMK AO2 T02720222 $=
202308041452 METAR KATL 041452Z 30009KT 10SM BKN011 BKN026 OVC200 26/22 A3000 RMK AO2 SLP148 T02560222 53003 $=
202308041435 SPECI KATL 041435Z 28007KT 10SM BKN010 OVC027 25/22 A3000 RMK AO2 T02500217 $=
202308041418 SPECI KATL 041418Z 27008KT 10SM FEW011 BKN029 OVC150 25/22 A3000 RMK AO2 T02500217 $=
202308041352 METAR KATL 041352Z 28008KT 10SM FEW012 SCT048 SCT150 OVC200 24/22 A2999 RMK AO2 SLP146 T02440217 $=
202308041252 METAR KATL 041252Z 28006KT 10SM FEW038 SCT080 BKN150 OVC200 24/21 A2998 RMK AO2 SLP142 VIRGA SE-S T02390211 $=
202308041152 METAR KATL 041152Z 24009KT 10SM SCT007 BKN042 BKN110 OVC250 23/21 A2999 RMK AO2 SLP145 60000 70023 T02280211 10233 20228 53006 $=
202308041052 METAR KATL 041052Z 00000KT 10SM FEW025 SCT060 SCT110 BKN160 BKN250 23/21 A2996 RMK AO2 LTG DSNT SW RAE0955 SLP137 CB DSNT SW P0000 T02280211 $=
202308040952 METAR KATL 040952Z 31004KT 10SM -RA SCT033 SCT070 BKN100 23/21 A2995 RMK AO2 RAB40 SLP134 P0000 T02330211 $=
202308040852 METAR KATL 040852Z 00000KT 10SM BKN048 BKN070 23/21 A2997 RMK AO2 SLP136 T02330211 58009 $=
202308040752 METAR KATL 040752Z 28003KT 10SM SCT049 BKN060 BKN110 23/21 A2998 RMK AO2 SLP139 T02330211 $=
202308040652 METAR KATL 040652Z 27003KT 10SM BKN055 23/21 A2999 RMK AO2 SLP146 T02280211 $=
202308040552 METAR KATL 040552Z 26005KT 10SM SCT055 SCT200 BKN250 23/21 A2999 RMK AO2 SLP146 T02280211 10239 20228 56007 $=
202308040452 METAR KATL 040452Z 29005KT 10SM FEW200 SCT250 23/21 A3000 RMK AO2 SLP146 T02280206 403330228 $=
202308040352 METAR KATL 040352Z 28005KT 10SM BKN180 BKN250 23/21 A3000 RMK AO2 SLP147 T02330211 $=
202308040252 METAR KATL 040252Z 22005KT 10SM FEW060 SCT150 BKN200 OVC250 23/21 A3002 RMK AO2 SLP155 T02330211 50007 $=
202308040152 METAR KATL 040152Z 21003KT 10SM FEW070 BKN150 OVC200 23/21 A3002 RMK AO2 SLP155 T02330211 $=
202308040052 METAR KATL 040052Z 26005KT 10SM SCT110 BKN150 OVC200 24/21 A3001 RMK AO2 SLP155 T02390211 $=
202308032352 METAR KATL 032352Z 22006KT 10SM BKN140 BKN200 OVC250 24/22 A2999 RMK AO2 SLP147 60023 T02390217 10333 20233 55007 $=
202308032252 METAR KATL 032252Z 21005KT 10SM FEW110 SCT150 BKN200 OVC250 24/22 A2999 RMK AO2 SLP145 RAE2159 LTG DSNT SE-SW CB DSNT SE-SW P0000 T02390222 $=
202308032152 METAR KATL 032152Z 21003KT 10SM -RA FEW030 SCT110 BKN150 OVC200 23/21 A3001 RMK AO2 PK WND 32034/2104 WSHFT 2057 RAB01 TSE52 SLP152 FRQ LTG DSNT SE-SW TS MOVD SE CB DSNT SE-SW P0023 T02330211 $=
202308032124 SPECI KATL 032124Z 32010G19KT 8SM -TSRA FEW018 BKN035CB BKN080 OVC150 23/22 A3003 RMK AO2 PK WND 32034/2104 WSHFT 2057 RAB01 VIS LWR SE-SW FRQ LTGICCG E-S-SW TS E-S-SW MOV SE P0020 T02330217 $=
202308032114 SPECI KATL 032114Z 01014G33KT 1 1/2SM +TSRA BR FEW018 BKN035CB OVC080 23/21 A3006 RMK AO2 PK WND 32034/2104 WSHFT 2057 RAB01 FRQ LTGICCG OHD-ALQDS TS OHD-ALQDS MOV SE P0008 T02330211 $=
202308032105 SPECI KATL 032105Z 33027G34KT 1 1/2SM +TSRA SCT018 BKN040CB OVC100 28/21 A3005 RMK AO2 PK WND 32034/2104 RAB01 PRESRR FRQ LTGICCG NE-OHD-SW TS NE-OHD-SW MOV SE P0000 T02830211 $=
202308032100 SPECI KATL 032100Z 36021G29KT 10SM TS FEW018 BKN046CB OVC100 31/22 A3004 RMK AO2 PK WND 01029/2059 PRESRR FRQ LTGICCG W-N-NE TS W-N-NE MOV SE T03110217 $=
202308032052 METAR KATL 032052Z 28004KT 10SM TS FEW018 BKN044CB BKN100 OVC200 31/22 A3001 RMK AO2 RAB33E45 TSB33 SLP152 FRQ LTGICCG VC W-N-NE TS VC W-N-NE MOV SE SHELF CLOUD VC NW-NE MOV SE P0000 60000 T03110222 55015 $=
202308032033 SPECI KATL 032033Z 26014G20KT 9SM -TSRA SCT044CB SCT090 BKN200 BKN250 32/22 A3001 RMK AO2 RAB33 TSB33 OCNL LTGICCG VC N-NE TS VC N-NE MOV SE CB DSNT W-NW TCU S SHELF CLOUD VC N-NE MOV S P0000 T03170217 $=
202308031952 METAR KATL 031952Z 25010G17KT 10SM FEW045TCU SCT090 BKN200 BKN250 33/22 A3001 RMK AO2 LTG DSNT NW-NE SLP151 CB DSNT NW-NE TCU E SE W DSNT SW NW T03280217 $=
202308031852 METAR KATL 031852Z 30005KT 10SM FEW033TCU SCT090 BKN200 BKN250 31/23 A3005 RMK AO2 RAB39E52 SLP163 TCU NW-N DSNT NE-SE W P0000 T03060228 $=
202308031752 METAR KATL 031752Z 21011G16KT 10SM SCT034 SCT100 BKN200 BKN250 32/21 A3006 RMK AO2 SLP167 TCU DSNT NW MDT CU NE-SE-SW T03170211 10322 20239 58019 $=
202308031652 METAR KATL 031652Z 22008KT 10SM FEW030 SCT095 SCT200 BKN250 31/22 A3009 RMK AO2 SLP177 MDT CU SW-W NW T03060222 $=
202308031552 METAR KATL 031552Z 21009KT 10SM FEW026 FEW080 SCT200 29/22 A3009 RMK AO2 SLP178 T02890222 $=
202308031452 METAR KATL 031452Z 23005KT 10SM FEW003 FEW014 BKN095 BKN150 OVC200 26/22 A3012 RMK AO2 SLP187 FU FEW003 T02560217 58001 $=
202308031444 SPECI KATL 031444Z 21007KT 10SM FEW001 FEW014 BKN095 BKN150 OVC200 26/22 A3012 RMK AO2 FU FEW001 FU PLUME S T02560217 $=
202308031352 METAR KATL 031352Z 22006KT 10SM FEW012 BKN095 BKN140 OVC200 25/22 A3013 RMK AO2 SLP192 T02500217 $=
202308031252 METAR KATL 031252Z 21007KT 10SM SCT010 SCT090 BKN130 BKN160 24/22 A3012 RMK AO2 SLP189 T02440217 $=
202308031152 METAR KATL 031152Z 19008KT 9SM FEW010 SCT045 BKN090 BKN150 OVC200 24/22 A3012 RMK AO2 SLP188 BINOVC T02390217 10256 20239 53005 $=
202308031052 METAR KATL 031052Z 21007KT 10SM FEW010 SCT050 BKN120 BKN150 24/21 A3012 RMK AO2 SLP187 T02390211 $=
202308030952 METAR KATL 030952Z 20008KT 10SM FEW013 SCT048 SCT150 24/21 A3010 RMK AO2 SLP181 T02390211=
202308030852 METAR KATL 030852Z 19008KT 10SM FEW035 BKN048 24/21 A3010 RMK AO2 SLP182 T02440211 55003=
202308030752 METAR KATL 030752Z 18008KT 10SM FEW045 FEW055 SCT120 SCT150 24/21 A3009 RMK AO2 SLP178 T02440211=
202308030652 METAR KATL 030652Z 17008KT 10SM FEW045 SCT055 BKN070 25/21 A3010 RMK AO2 SLP181 T02500211=
202308030552 METAR KATL 030552Z 15006KT 10SM FEW055 FEW120 SCT150 SCT200 25/21 A3011 RMK AO2 SLP185 T02500211 10300 20250 58008=
202308030452 METAR KATL 030452Z 13006KT 10SM FEW060 SCT150 SCT200 26/21 A3013 RMK AO2 SLP190 T02560211 403280233=
202308030352 METAR KATL 030352Z 12005KT 10SM FEW070 FEW200 SCT250 26/21 A3013 RMK AO2 SLP193 T02610211=
202308030252 METAR KATL 030252Z 12008KT 10SM FEW180 SCT250 27/21 A3014 RMK AO2 SLP194 T02670206 51011=
202308030152 METAR KATL 030152Z 11009KT 10SM SCT180 BKN250 28/21 A3013 RMK AO2 SLP191 T02780206=
202308030052 METAR KATL 030052Z 10012KT 10SM FEW050 BKN150 BKN250 28/21 A3011 RMK AO2 SLP185 T02830206=
202308022352 METAR KATL 022352Z 11007KT 10SM FEW050 SCT150 BKN250 30/19 A3010 RMK AO2 SLP182 T03000194 10328 20300 56009=
202308022252 METAR KATL 022252Z 07005KT 10SM SCT050CB SCT080 BKN200 BKN250 32/19 A3011 RMK AO2 SLP185 CB SE MOV SE TCU N-OHD-SE T03170189=
202308022152 METAR KATL 022152Z 19007KT 10SM SCT048TCU SCT070 BKN200 BKN250 31/19 A3012 RMK AO2 SLP187 TCU SE-OHD-NW MDT CU ALQDS T03110189=
202308022052 METAR KATL 022052Z 12006KT 10SM SCT050TCU SCT085 BKN200 BKN250 31/19 A3013 RMK AO2 SLP191 CB DSNT NE E TCU N-NE SE W-NW DSNT ALQDS T03110189 56013=
202308021952 METAR KATL 021952Z 16005KT 10SM FEW050TCU SCT090 SCT200 BKN250 32/19 A3013 RMK AO2 SLP192 CB DSNT NE E TCU N-E-SE DSNT NW T03220189=
202308021852 METAR KATL 021852Z 13007KT 10SM SCT042TCU SCT085 BKN200 BKN250 32/19 A3015 RMK AO2 SLP199 TCU NE SE DSNT ALQDS T03170194=
202308021752 METAR KATL 021752Z 15006KT 10SM SCT037TCU BKN085 BKN200 BKN250 30/19 A3017 RMK AO2 SLP205 TCU N SE SW NW MDT CU ALQDS T03000194 10300 20239 58004=
202308021652 METAR KATL 021652Z 14008KT 10SM BKN033TCU BKN080 BKN200 BKN250 29/21 A3018 RMK AO2 SLP207 TCU N NE MDT CU OHD ALQDS T02940206=
202308021552 METAR KATL 021552Z 12008KT 10SM BKN033TCU BKN200 BKN250 28/21 A3018 RMK AO2 SLP208 TCU NE-SE-S MDT CU ALQDS T02830206=
202308021452 METAR KATL 021452Z 12006KT 10SM SCT025 SCT200 BKN250 27/21 A3018 RMK AO2 SLP209 T02720206 51012=
202308021423 SPECI KATL 021423Z 12007KT 10SM SCT018 SCT200 BKN250 27/21 A3017 RMK AO2 T02720211=
202308021352 METAR KATL 021352Z 11008KT 10SM BKN016 BKN250 26/21 A3017 RMK AO2 SLP205 CIG 014V018 T02610211=
202308021337 SPECI KATL 021337Z 10008KT 10SM BKN016 BKN250 26/21 A3018 RMK AO2 T02610211=
202308021252 METAR KATL 021252Z 11005KT 8SM SCT009 SCT015 25/21 A3017 RMK AO2 SLP204 T02500211 $=
202308021249 SPECI KATL 021249Z VRB05KT 8SM SCT009 SCT015 25/22 A3017 RMK AO2 $=
202308021152 METAR KATL 021152Z 10008KT 8SM BKN008 BKN021 BKN150 24/21 A3015 RMK AO2 SLP196 T02390211 10261 20233 52011=
202308021150 SPECI KATL 021150Z 09010KT 8SM BKN008 BKN021 BKN150 24/21 A3014 RMK AO2=
202308021141 SPECI KATL 021141Z 09008KT 8SM SCT008 BKN021 BKN150 24/21 A3014 RMK AO2 T02390211=
202308021052 METAR KATL 021052Z 09007KT 10SM FEW010 BKN018 BKN033 24/21 A3013 RMK AO2 SLP192 T02390206=
202308021049 SPECI KATL 021049Z 08008KT 10SM SCT014 BKN018 24/21 A3013 RMK AO2=
202308020952 METAR KATL 020952Z 10005KT 10SM BKN013 24/21 A3013 RMK AO2 SLP188 BKN013 V SCT T02390211 $=
202308020939 SPECI KATL 020939Z 10005KT 10SM BKN013 24/21 A3012 RMK AO2 BKN013 V SCT T02390211 $=
202308020859 SPECI KATL 020859Z 11007KT 10SM SCT016 24/21 A3011 RMK AO2 T02440206 $=
202308020852 METAR KATL 020852Z 09007KT 10SM BKN016 24/21 A3011 RMK AO2 SLP184 T02390206 55002 $=
202308020848 SPECI KATL 020848Z 09008KT 10SM BKN016 24/21 A3011 RMK AO2 $=
202308020752 METAR KATL 020752Z 14004KT 10SM FEW050 FEW150 24/21 A3010 RMK AO2 SLP180 T02440206 $=
202308020652 METAR KATL 020652Z 21003KT 10SM CLR 25/20 A3011 RMK AO2 SLP183 T02500200 $=
202308020552 METAR KATL 020552Z 14005KT 10SM FEW050 FEW250 26/18 A3012 RMK AO2 SLP185 T02610178 10322 20261 51006=
202308020452 METAR KATL 020452Z 09007KT 10SM FEW060 FEW250 27/16 A3011 RMK AO2 SLP183 MDT CU SE-SW T02670161 403560228=
202308020352 METAR KATL 020352Z 03006KT 10SM FEW060 FEW250 28/16 A3011 RMK AO2 SLP182 T02830156=
202308020252 METAR KATL 020252Z 02008KT 10SM SCT060 SCT250 29/14 A3010 RMK AO2 SLP180 T02890144 53017=
202308020152 METAR KATL 020152Z 34007KT 10SM FEW070 SCT200 BKN250 29/12 A3008 RMK AO2 SLP174 T02890122=
202308020052 METAR KATL 020052Z 33009KT 10SM FEW070 SCT200 BKN250 30/11 A3006 RMK AO2 SLP168 T03000111=
202308012352 METAR KATL 012352Z 34010KT 10SM FEW070 SCT200 BKN250 32/15 A3005 RMK AO2 SLP163 T03220150 10356 20322 55001=
202308012252 METAR KATL 012252Z 34008KT 10SM FEW075 SCT250 34/14 A3004 RMK AO2 SLP159 T03390139=
202308012152 METAR KATL 012152Z 33009G15KT 10SM FEW075 SCT200 SCT250 35/13 A3004 RMK AO2 SLP159 T03500128=
202308012052 METAR KATL 012052Z 35007KT 10SM FEW075 SCT200 SCT250 35/14 A3005 RMK AO2 SLP163 MDT CU DSNT NE E-SE T03500139 56013 $=
202308011952 METAR KATL 011952Z 10SM FEW070 SCT200 BKN250 34/14 A3006 RMK AO2 SLP167 TCU DSNT E-SE T03440144 $=
202308011852 METAR KATL 011852Z 34007KT 10SM SCT060 SCT250 34/16 A3008 RMK AO2 SLP172 MDT CU NE-SE-SW T03390156=
202308011752 METAR KATL 011752Z 33006G14KT 10SM SCT060 SCT250 34/18 A3009 RMK AO2 SLP176 MDT CU NE-SE-SW 10333 20250 57007 T03390178=
202308011652 METAR KATL 011652Z 03007KT 10SM FEW042 FEW055 FEW250 32/19 A3010 RMK AO2 SLP178 MDT CU DSNT E-S W-NW T03220189=
202308011552 METAR KATL 011552Z 04009KT 10SM FEW050 FEW150 FEW250 31/19 A3011 RMK AO2 SLP182 T03110189 $=
202308011452 METAR KATL 011452Z 05006KT 10SM FEW050 FEW150 29/19 A3011 RMK AO2 SLP182 T02940189 51008 $=
202308011352 METAR KATL 011352Z 06009KT 10SM FEW050 FEW150 FEW250 28/19 A3010 RMK AO2 SLP182 MDT CU N-NE T02780189 $=
202308011252 METAR KATL 011252Z 04010KT 10SM FEW050 FEW150 FEW250 27/18 A3010 RMK AO2 SLP180 T02670183 $=
