##########################################################
# Query made at 04/20/2024 00:26:36 UTC
# Time interval: from 03/01/2023 12:00  to 03/31/2023 12:59  UTC
##########################################################

##########################################################
# KATL, Atlanta, Hartsfield - Jackson Atlanta International Airport (United States)
# WMO index: 72219. WIGOS ID: 0-20000-0-72219
# Latitude 33-38-59N. Longitude 084-25-00W. Altitude 312 m.
##########################################################

202303311252 METAR KATL 311252Z 16006KT 10SM FEW110 BKN140 BKN250 13/09 A3024 RMK AO2 SLP237 VIRGA ALQDS T01330094 $=
202303311152 METAR KATL 311152Z 16007KT 10SM FEW130 BKN150 BKN250 13/09 A3024 RMK AO2 SLP236 VIRGA W-NW T01280089 10150 20122 51004 $=
202303311052 METAR KATL 311052Z 13006KT 10SM FEW110 SCT170 BKN250 12/08 A3023 RMK AO2 SLP232 T01220083 $=
202303310952 METAR KATL 310952Z 16004KT 10SM FEW130 SCT170 BKN250 13/08 A3025 RMK AO2 SLP238 T01280083 $=
202303310852 METAR KATL 310852Z 19003KT 10SM BKN250 13/08 A3022 RMK AO2 SLP231 T01330078 55005 $=
202303310752 METAR KATL 310752Z 16009KT 10SM SCT220 BKN250 14/07 A3021 RMK AO2 SLP227 T01390067 $=
202303310652 METAR KATL 310652Z 14007KT 10SM SCT220 BKN250 14/05 A3022 RMK AO2 SLP227 T01440050 $=
202303310552 METAR KATL 310552Z 14004KT 10SM SCT250 15/04 A3024 RMK AO2 SLP235 T01500044 10206 20150 58006 $=
202303310452 METAR KATL 310452Z 17006KT 10SM SCT250 16/04 A3025 RMK AO2 SLP240 T01560039 402280072=
202303310352 METAR KATL 310352Z 19004KT 10SM FEW250 16/04 A3026 RMK AO2 SLP244 T01560044=
202303310252 METAR KATL 310252Z 19004KT 9SM CLR 17/03 A3026 RMK AO2 SLP242 T01670033 53016=
202303310152 METAR KATL 310152Z 17007KT 10SM CLR 18/03 A3023 RMK AO2 SLP234 T01830028=
202303310052 METAR KATL 310052Z 14005KT 10SM CLR 19/04 A3022 RMK AO2 SLP230 T01890039=
202303302352 METAR KATL 302352Z 16005KT 10SM FEW250 21/03 A3021 RMK AO2 SLP229 T02060028 10228 20206 55003=
202303302252 METAR KATL 302252Z 14008KT 10SM SCT250 22/02 A3020 RMK AO2 SLP223 T02220017=
202303302152 METAR KATL 302152Z 13006KT 10SM FEW200 BKN250 23/00 A3020 RMK AO2 SLP224 T02280000=
202303302052 METAR KATL 302052Z 13005KT 10SM FEW200 FEW250 22/00 A3022 RMK AO2 SLP231 T02220000 56019=
202303301952 METAR KATL 301952Z 10005KT 10SM FEW200 22/M01 A3023 RMK AO2 SLP235 T02171011=
202303301909 SPECI KATL 301909Z 00000KT 10SM CLR 21/M01 A3025 RMK AO2 T02111011=
202303301852 METAR KATL 301852Z 14004KT 10SM CLR 22/M01 A3025 RMK AO2 SLP242 T02171006=
202303301837 SPECI KATL 301837Z 36006KT 10SM CLR 22/M01 A3026 RMK AO2 T02171011=
202303301823 SPECI KATL 301823Z 00000KT 10SM CLR 21/M04 A3027 RMK AO2 T02111039=
202303301808 SPECI KATL 301808Z 03005KT 10SM CLR 21/M03 A3027 RMK AO2 T02111028=
202303301752 METAR KATL 301752Z 06005KT 10SM CLR 21/M02 A3027 RMK AO2 SLP250 T02111017 10211 20072 58007=
202303301738 SPECI KATL 301738Z VRB04KT 10SM CLR 21/M02 A3028 RMK AO2 T02061017=
202303301723 SPECI KATL 301723Z 10005KT 10SM CLR 20/M01 A3028 RMK AO2 T02001011=
202303301707 SPECI KATL 301707Z VRB03KT 10SM CLR 20/M01 A3029 RMK AO2 T02001006=
202303301652 METAR KATL 301652Z 06004KT 10SM CLR 19/M02 A3029 RMK AO2 SLP257 T01941017=
202303301640 SPECI KATL 301640Z VRB03KT 10SM CLR 19/M01 A3030 RMK AO2 T01941006=
202303301626 SPECI KATL 301626Z 00000KT 10SM CLR 19/M02 A3030 RMK AO2 T01891022=
202303301608 SPECI KATL 301608Z 00000KT 10SM CLR 19/M02 A3030 RMK AO2 T01891017=
202303301552 METAR KATL 301552Z 12006KT 10SM FEW020 18/00 A3030 RMK AO2 SLP257 FU FEW020 T01830000=
202303301539 SPECI KATL 301539Z 00000KT 10SM CLR 18/00 A3030 RMK AO2 T01830000=
202303301524 SPECI KATL 301524Z 00000KT 10SM CLR 18/01 A3030 RMK AO2 T01780006=
202303301507 SPECI KATL 301507Z VRB03KT 10SM CLR 17/M01 A3030 RMK AO2 T01721011=
202303301452 METAR KATL 301452Z 14004KT 10SM CLR 17/00 A3029 RMK AO2 SLP257 T01720000 52016=
202303301443 SPECI KATL 301443Z 14003KT 10SM CLR 17/M01 A3029 RMK AO2 T01671006=
202303301424 SPECI KATL 301424Z 13003KT 10SM CLR 16/00 A3028 RMK AO2 T01610000=
202303301408 SPECI KATL 301408Z 11003KT 10SM FEW002 16/02 A3028 RMK AO2 FU FEW002 FU PLUME S T01610017=
202303301352 METAR KATL 301352Z 00000KT 10SM CLR 16/01 A3028 RMK AO2 SLP251 T01560006=
202303301347 SPECI KATL 301347Z 00000KT 10SM CLR 15/00 A3028 RMK AO2=
202303301329 SPECI KATL 301329Z 00000KT 10SM CLR 14/02 A3028 RMK AO2 T01440017=
202303301252 METAR KATL 301252Z 00000KT 10SM FEW100 12/02 A3026 RMK AO2 SLP247 T01220017 $=
202303301152 METAR KATL 301152Z 24003KT 10SM FEW100 07/02 A3025 RMK AO2 SLP243 T00720017 10100 20072 53019 $=
202303301052 METAR KATL 301052Z 00000KT 10SM CLR 08/02 A3022 RMK AO2 SLP234 T00780022 $=
202303300952 METAR KATL 300952Z 00000KT 10SM CLR 07/03 A3021 RMK AO2 SLP228 T00720028 $=
202303300852 METAR KATL 300852Z 00000KT 10SM CLR 08/01 A3019 RMK AO2 SLP223 T00780011 56004 $=
202303300752 METAR KATL 300752Z 00000KT 10SM CLR 08/02 A3019 RMK AO2 SLP224 T00780017 $=
202303300652 METAR KATL 300652Z 00000KT 10SM CLR 09/01 A3019 RMK AO2 SLP224 T00940006=
202303300552 METAR KATL 300552Z 00000KT 10SM CLR 09/01 A3020 RMK AO2 SLP228 T00940006 10161 20094 56001=
202303300452 METAR KATL 300452Z 29003KT 10SM CLR 10/02 A3020 RMK AO2 SLP227 T01000022 401830078=
202303300352 METAR KATL 300352Z 00000KT 10SM CLR 11/02 A3020 RMK AO2 SLP227 T01110017=
202303300252 METAR KATL 300252Z 27003KT 10SM CLR 12/M01 A3021 RMK AO2 SLP229 T01221011 53008=
202303300152 METAR KATL 300152Z 00000KT 10SM CLR 13/M01 A3019 RMK AO2 SLP224 T01331006=
202303300052 METAR KATL 300052Z 24003KT 10SM FEW250 14/M01 A3018 RMK AO2 SLP221 T01441011=
202303292352 METAR KATL 292352Z 25003KT 10SM FEW200 FEW250 16/M01 A3018 RMK AO2 SLP220 T01611011 10183 20150 53002=
202303292252 METAR KATL 292252Z 30007KT 10SM FEW200 FEW250 18/M02 A3018 RMK AO2 SLP219 T01781022=
202303292152 METAR KATL 292152Z 31004KT 10SM SCT200 SCT250 18/M03 A3018 RMK AO2 SLP217 T01781033=
202303292052 METAR KATL 292052Z 29004KT 10SM SCT200 BKN250 18/M03 A3018 RMK AO2 SLP217 T01781028 56014=
202303291952 METAR KATL 291952Z VRB04KT 10SM BKN200 BKN250 17/M02 A3019 RMK AO2 SLP221 T01721022 $=
202303291852 METAR KATL 291852Z 00000KT 10SM BKN200 BKN250 16/M02 A3020 RMK AO2 SLP227 T01611017 $=
202303291752 METAR KATL 291752Z 00000KT 10SM BKN200 BKN250 16/M01 A3022 RMK AO2 SLP232 T01561011 10161 20078 58004 $=
202303291652 METAR KATL 291652Z 08006KT 10SM SCT200 BKN250 16/M01 A3023 RMK AO2 SLP237 T01561006 $=
202303291552 METAR KATL 291552Z 07008KT 10SM SCT200 SCT250 14/M01 A3024 RMK AO2 SLP238 T01391006 $=
202303291452 METAR KATL 291452Z 10007KT 10SM FEW200 SCT250 12/M01 A3023 RMK AO2 SLP237 T01221006 51015 $=
202303291352 METAR KATL 291352Z 01006KT 10SM FEW200 SCT250 11/M01 A3023 RMK AO2 SLP236 T01111006 $=
202303291252 METAR KATL 291252Z 01013G19KT 10SM SCT250 09/M01 A3021 RMK AO2 SLP229 T00941006 $=
202303291152 METAR KATL 291152Z 01011KT 10SM FEW250 08/M01 A3019 RMK AO2 SLP220 T00831006 10106 20078 53010 $=
202303291052 METAR KATL 291052Z 36012KT 10SM FEW250 08/M01 A3017 RMK AO2 SLP215 T00831006 $=
202303290952 METAR KATL 290952Z 34010KT 10SM SCT250 08/00 A3016 RMK AO2 SLP212 T00830000 $=
202303290852 METAR KATL 290852Z 34011KT 10SM SCT250 09/00 A3016 RMK AO2 SLP209 T00890000 51000 $=
202303290752 METAR KATL 290752Z 33010KT 10SM SCT250 09/00 A3016 RMK AO2 SLP209 T00890000 $=
202303290652 METAR KATL 290652Z 34008KT 10SM SCT250 10/00 A3016 RMK AO2 SLP211 T01000000 $=
202303290552 METAR KATL 290552Z 33011G18KT 10SM FEW250 11/01 A3016 RMK AO2 SLP209 T01060006 10200 20106 51007 $=
202303290452 METAR KATL 290452Z 34015G25KT 10SM FEW250 12/00 A3015 RMK AO2 PK WND 35027/0422 SLP208 T01170000 402390117 $=
202303290352 METAR KATL 290352Z 34015G24KT 10SM FEW250 13/01 A3014 RMK AO2 SLP201 T01330006=
202303290252 METAR KATL 290252Z 34018G26KT 10SM FEW250 15/01 A3013 RMK AO2 PK WND 35026/0246 SLP200 T01500011 51029=
202303290152 METAR KATL 290152Z 34013G24KT 10SM FEW250 17/01 A3011 RMK AO2 PK WND 34029/0059 SLP195 T01670011=
202303290052 METAR KATL 290052Z 34016G22KT 10SM FEW060 SCT250 18/06 A3007 RMK AO2 PK WND 33026/0038 SLP180 T01830056=
202303282352 METAR KATL 282352Z 33012KT 10SM FEW065 SCT100 BKN250 20/08 A3004 RMK AO2 SLP170 T02000078 10239 20200 53018=
202303282252 METAR KATL 282252Z 31009KT 10SM SCT065 BKN090 BKN130 BKN250 22/08 A3002 RMK AO2 SLP163 ACC OHD-ALQDS T02170083=
202303282152 METAR KATL 282152Z 33009G20KT 10SM FEW065 FEW140 SCT200 BKN250 23/08 A3000 RMK AO2 SLP152 ACC DSNT W-N T02280083=
202303282052 METAR KATL 282052Z 34013KT 10SM FEW065 FEW140 BKN200 BKN250 24/10 A2999 RMK AO2 SLP150 T02390100 56024=
202303281952 METAR KATL 281952Z 28007KT 10SM FEW130 BKN180 OVC250 23/09 A3000 RMK AO2 SLP154 VIRGA N-OHD-S ACC DSNT N T02280089=
202303281852 METAR KATL 281852Z 26008KT 10SM FEW130 BKN180 OVC250 23/08 A3002 RMK AO2 SLP160 VIRGA SE-SW ACC DSNT NW T02280083=
202303281752 METAR KATL 281752Z 21005KT 10SM FEW140 BKN200 OVC250 22/07 A3006 RMK AO2 SLP175 T02170067 10222 20128 58003=
202303281652 METAR KATL 281652Z 17005KT 10SM BKN130 BKN200 OVC250 21/08 A3007 RMK AO2 SLP179 ACC E-OHD-W T02110078=
202303281552 METAR KATL 281552Z 10SM FEW140 BKN200 BKN250 21/07 A3008 RMK AO2 SLP181 ACC DSNT SE T02060072=
202303281452 METAR KATL 281452Z 02005KT 10SM FEW140 BKN200 BKN250 19/07 A3007 RMK AO2 SLP178 ACC SE T01890072 53006=
202303281352 METAR KATL 281352Z 00000KT 10SM FEW110 SCT150 BKN200 BKN250 16/08 A3007 RMK AO2 SLP177 ACC DSNT SE-SW T01560083=
202303281252 METAR KATL 281252Z 25003KT 10SM FEW150 BKN200 BKN250 13/08 A3006 RMK AO2 SLP173 VIRGA W-N T01330078=
202303281152 METAR KATL 281152Z 32004KT 10SM FEW150 SCT200 BKN250 13/07 A3005 RMK AO2 SLP171 70003 T01280072 10156 20122 55001=
202303281052 METAR KATL 281052Z 33005KT 10SM FEW150 SCT250 13/07 A3004 RMK AO2 SLP167 T01280072=
202303280952 METAR KATL 280952Z 32005KT 10SM FEW250 13/07 A3004 RMK AO2 SLP165 T01330072=
202303280852 METAR KATL 280852Z 31007KT 10SM FEW250 13/08 A3006 RMK AO2 SLP171 T01330078 55005=
202303280752 METAR KATL 280752Z 30006KT 10SM FEW250 14/08 A3005 RMK AO2 SLP169 T01440083=
202303280652 METAR KATL 280652Z 30004KT 10SM FEW250 15/08 A3007 RMK AO2 SLP175 T01500083=
202303280552 METAR KATL 280552Z 24004KT 10SM FEW250 16/09 A3007 RMK AO2 SLP176 T01560089 10233 20150 50002=
202303280452 METAR KATL 280452Z 32004KT 10SM FEW250 17/08 A3007 RMK AO2 SLP177 T01670083 402670167=
202303280352 METAR KATL 280352Z 31007KT 10SM FEW250 18/08 A3007 RMK AO2 SLP178 T01780083=
202303280252 METAR KATL 280252Z 31007KT 10SM SCT250 19/08 A3006 RMK AO2 SLP175 T01890083 53021=
202303280152 METAR KATL 280152Z 31007KT 10SM SCT250 21/08 A3004 RMK AO2 SLP166 T02060078=
202303280052 METAR KATL 280052Z 31006KT 10SM SCT250 22/08 A3001 RMK AO2 SLP157 T02170078=
202303272352 METAR KATL 272352Z 28009KT 10SM SCT250 23/08 A3000 RMK AO2 SLP153 T02330078 10267 20233 53008=
202303272252 METAR KATL 272252Z 28008KT 10SM SCT250 26/08 A2998 RMK AO2 SLP145 T02560083=
202303272152 METAR KATL 272152Z 31008KT 10SM FEW060 SCT250 26/09 A2997 RMK AO2 SLP140 T02610089=
202303272052 METAR KATL 272052Z 30008KT 10SM FEW060 SCT250 27/11 A2998 RMK AO2 SLP143 TCU DSNT SE T02670111 58005=
202303271952 METAR KATL 271952Z 28010KT 10SM FEW055 FEW200 SCT250 26/12 A2999 RMK AO2 SLP148 T02610122=
202303271852 METAR KATL 271852Z 29009KT 10SM SCT040 SCT200 BKN250 26/14 A2999 RMK AO2 SLP149 T02560144=
202303271752 METAR KATL 271752Z 28009KT 10SM SCT028 SCT200 BKN250 24/17 A2999 RMK AO2 SLP149 60003 T02440167 10244 20178 50006=
202303271652 METAR KATL 271652Z 30010KT 10SM SCT020 SCT200 BKN250 23/17 A2999 RMK AO2 SLP151 T02280172=
202303271627 SPECI KATL 271627Z 31010KT 10SM BKN017 BKN090 BKN250 22/18 A3000 RMK AO2 T02170178=
202303271602 SPECI KATL 271602Z 32012KT 10SM BKN013 BKN090 BKN200 21/18 A2999 RMK AO2 T02110183=
202303271552 METAR KATL 271552Z 30013KT 10SM SCT013 SCT032 BKN090 BKN200 21/18 A2999 RMK AO2 DZE02 SLP150 P0000 T02110178=
202303271531 SPECI KATL 271531Z 30008KT 10SM FEW010 SCT025 BKN090 BKN200 21/18 A2999 RMK AO2 DZE02 P0000 T02060178=
202303271502 SPECI KATL 271502Z 33010KT 9SM SCT006 OVC019 19/18 A2998 RMK AO2 DZE02 P0000 T01940178=
202303271452 METAR KATL 271452Z 32009KT 6SM -DZ BR BKN006 OVC020 19/18 A2998 RMK AO2 LTG DSNT S RAE1358B39E48DZB52 SLP145 FROPA VIS LWR SE-S CB DSNT S P0000 60003 T01890178 50036=
202303271352 METAR KATL 271352Z 24004KT 6SM -RA BR BKN006 OVC011 18/17 A2998 RMK AO2 RAE11B34 SLP145 VIS LWR SE-S P0001 T01830172=
202303271307 SPECI KATL 271307Z 27003KT 7SM -RA BKN008 OVC013 18/17 A2995 RMK AO2 P0001 T01830172=
202303271252 METAR KATL 271252Z 25006KT 10SM -RA SCT007 BKN015 OVC070 18/17 A2995 RMK AO2 SLP137 TS MOV SE P0002 T01830167=
202303271210 SPECI KATL 271210Z 23007KT 8SM -RA SCT008 BKN023 OVC055 18/17 A2994 RMK AO2 LTG DSNT E AND SE TSE09 TSE07 TS MOV SE CB DSNT E-SE P0002 T01830167=
202303271152 METAR KATL 271152Z 15010G17KT 4SM TSRA BR SCT008 BKN032CB OVC075 18/17 A2987 RMK AO2 LTG DSNT E-SW PRESFR SLP107 TSB01 OCNL LTGICCCCA OHD-SE-SW TS OHD-SE-SW MOV NE CB DSNT E-S-SW P0007 60023 70207 T01780167 10183 20172 58016 $=
202303271140 SPECI KATL 271140Z 23006G16KT 7SM -TSRA SCT008 SCT032CB OVC100 18/17 A2995 RMK AO2 LTG DSNT ALQDS PRESRR TSB01 OCNL LTGICCCCA S-SW TS S-SW MOV NE CB DSNT ALQDS P0003 T01830167 $=
202303271128 SPECI KATL 271128Z 16007KT 10SM -TSRA SCT008 SCT032CB OVC100 18/17 A2989 RMK AO2 LTG DSNT ALQDS TSB01 OCNL LTGICCCCA VC SW TS VC SW MOV NE CB DSNT ALQDS P0001 T01830167 $=
202303271101 SPECI KATL 271101Z 19006KT 10SM VCTS -RA SCT016 BKN042 OVC100 18/17 A2992 RMK AO2 LTG DSNT ALQDS TSE01 CB DSNT ALQDS P0000 T01830172 $=
202303271052 METAR KATL 271052Z 23007G15KT 10SM -RA BKN016 BKN025 OVC038 18/17 A2994 RMK AO2 LTG DSNT ALQDS TSE44 PRESRR SLP131 TS MOV NE CB DSNT ALQDS P0001 T01830167 $=
202303271044 SPECI KATL 271044Z 20008KT 10SM -RA BKN016 BKN028 BKN048 OVC130 18/17 A2992 RMK AO2 LTG DSNT ALQDS TSE44 TS MOV NE CB DSNT ALQDS P0001 T01830167 $=
202303270952 METAR KATL 270952Z 21010KT 8SM -TSRA FEW055CB BKN080 OVC100 18/16 A2991 RMK AO2 LTG DSNT SE-W TSB18 SLP120 OCNL LTGICCA VC W TS VC W MOV E CB DSNT SE-SW-W P0005 T01780161 $=
202303270918 SPECI KATL 270918Z 20010G18KT 5SM -TSRA BR FEW007 SCT050CB OVC085 18/16 A2990 RMK AO2 LTG DSNT S-W TSB18 OCNL LTGICCA VC S-W TS VC S-W MOV E P0003 T01780161 $=
202303270852 METAR KATL 270852Z 22010KT 9SM -RA FEW007 FEW048 OVC100 18/16 A2991 RMK AO2 LTG DSNT SE SLP123 TSB30E48 TS DSIPTD CB DSNT SE P0004 60010 T01780161 55022 $=
202303270849 SPECI KATL 270849Z 22011KT 8SM -RA FEW007 FEW048CB OVC100 18/16 A2991 RMK AO2 LTG DSNT SE TSB30E48 TS DSIPTD CB DSNT SE-S P0004 $=
202303270830 SPECI KATL 270830Z 27006KT 10SM -TSRA FEW048 SCT075 OVC100 18/16 A2994 RMK AO2 LTG DSNT SE-W TSE29B30 CB DSNT SE-SW-W P0002 T01780161 $=
202303270828 SPECI KATL 270828Z 27008KT 10SM -RA FEW048 SCT075 OVC100 18/16 A2994 RMK AO2 LTG DSNT SE-W CB DSNT SE-SW-W P0002 T01780161 $=
202303270752 METAR KATL 270752Z 19008KT 8SM -RA FEW050CB BKN100 OVC130 18/16 A2991 RMK AO2 PK WND 22026/0712 RAE03B29 SLP121 CB OHD-W MOV E P0001 T01780156 $=
202303270713 SPECI KATL 270713Z 20014G26KT 9SM FEW007 FEW090 BKN110 OVC130 17/16 A2992 RMK AO2 PK WND 22026/0712 RAE03 P0000 T01720156 $=
202303270652 METAR KATL 270652Z 15009KT 8SM -RA FEW005 SCT080 OVC100 17/16 A2988 RMK AO2 TSE02 PRESFR SLP114 TS DSIPTD P0005 T01720161 $=
202303270634 SPECI KATL 270634Z 18011KT 9SM -RA SCT005 OVC100 17/16 A2996 RMK AO2 LTG DSNT S TSE02 TS DSIPTD SCT005 V BKN P0004 T01720161 $=
202303270623 SPECI KATL 270623Z 19009KT 8SM -RA BKN005 BKN090 OVC110 18/16 A2998 RMK AO2 TSE02 BKN005 V SCT P0003 T01780161 $=
202303270602 SPECI KATL 270602Z 20006KT 7SM -RA SCT060 SCT070 OVC085 18/16 A2997 RMK AO2 TSE02 TS DSIPTD P0002 T01780161 $=
202303270552 METAR KATL 270552Z 21008KT 7SM TSRA FEW045CB SCT070 OVC100 18/16 A2998 RMK AO2 SLP147 OCNL LTGICCA OHD-ALQDS TS OHD-ALQDS MOV NE P0020 60124 T01780161 10211 20178 58002 $=
202303270452 METAR KATL 270452Z 16005KT 5SM -TSRA BR FEW030CB BKN075 OVC110 18/17 A2996 RMK AO2 PRESFR SLP140 OCNL LTGICCA OHD-ALQDS TS OHD-ALQDS MOV NE P0028 T01830167 402220156 $=
202303270404 SPECI KATL 270404Z 26010KT 4SM TSRA BR FEW007 SCT025CB OVC050 18/17 A3002 RMK AO2 VIS LWR NE-SE FRQ LTGICCGCA OHD-ALQDS TS OHD-ALQDS MOV NE P0008 T01830172 $=
202303270352 METAR KATL 270352Z 27010KT 2 1/2SM TSRA BR FEW006 BKN018CB OVC090 18/17 A3001 RMK AO2 SLP158 OCNL LTGICCGCA OHD-ALQDS TS OHD-ALQDS MOV NE P0018 T01830172 $=
202303270330 SPECI KATL 270330Z 30006KT 2SM +TSRA BR FEW006 BKN020CB OVC100 18/17 A3000 RMK AO2 OCNL LTGICCA OHD-ALQDS TS OHD-ALQDS MOV NE P0012 T01830172 $=
202303270252 METAR KATL 270252Z 29006KT 8SM -TSRA SCT006 BKN015CB OVC060 18/17 A2999 RMK AO2 SLP149 FRQ LTGICCA OHD-ALQDS TS OHD-ALQDS MOV NE P0011 60058 T01830172 53021 $=
202303270152 METAR KATL 270152Z VRB03KT 6SM -TSRA BR SCT006 BKN015CB OVC050 21/19 A2995 RMK AO2 SLP135 TSB09 FRQ LTGICCGCA OHD-ALQDS TS OHD-ALQDS MOV NE SCT006 V BKN P0047 T02060194 $=
202303270141 SPECI KATL 270141Z 20007KT 3SM R09R/5000VP6000FT TSRA BR FEW006 BKN015CB OVC050 21/20 A2995 RMK AO2 TSB09 FRQ LTGICCGCA OHD-ALQDS TS OHD-ALQDS MOV NE P0046 T02060200 $=
202303270130 SPECI KATL 270130Z 16011G18KT 1SM R09R/4000VP6000FT +TSRA BR FEW006 BKN015CB OVC050 21/19 A2995 RMK AO2 TSB09 CONS LTGICCGCA OHD-ALQDS TS OHD-ALQDS MOV NE P0020 T02060194 $=
202303270125 SPECI KATL 270125Z 17011G16KT 2SM R09R/5000VP6000FT +TSRA BR FEW006 BKN015CB OVC080 21/19 A2996 RMK AO2 PRESRR TSB09 VIS LWR SW-NW CONS LTGICCGCA OHD-ALQDS TS OHD-ALQDS MOV NE P0007 T02060194 $=
202303270110 SPECI KATL 270110Z 13004KT 8SM -TSRA SCT011 BKN028CB OVC110 21/19 A2994 RMK AO2 TSE09B10 FRQ LTGICCG SW-W DSNT E-S TS SW-W DSNT E-S MOV NE CB SW-W DSNT ALQDS MOV NE P0000 T02110194 $=
202303270052 METAR KATL 270052Z 12003KT 8SM -RA FEW012 SCT025 BKN040 OVC130 21/19 A2992 RMK AO2 LTG DSNT SE-SW RAB44 SLP126 CB DSNT E-S-W P0000 T02110194 $=
202303262352 METAR KATL 262352Z 11004KT 10SM FEW026 BKN070 BKN120 BKN200 21/19 A2992 RMK AO2 LTG DSNT E AND S RAB07E21 SLP126 CB DSNT E-SE S-SW P0000 60000 T02110189 10222 20183 58010 $=
202303262323 SPECI KATL 262323Z 14003KT 10SM FEW026 SCT050 BKN080 BKN200 22/19 A2993 RMK AO2 RAB07E21 CB DSNT S-SW TCU DSNT NE-SE P0000 T02170189 $=
202303262252 METAR KATL 262252Z 17004KT 10SM SCT020 BKN027 OVC060 22/18 A2995 RMK AO2 SLP135 CB DSNT NE-SE-S T02170183 $=
202303262152 METAR KATL 262152Z 17003KT 10SM BKN018 BKN025 OVC080 22/18 A2994 RMK AO2 SLP130 T02220183 $=
202303262052 METAR KATL 262052Z 22006KT 10SM BKN018 OVC080 22/18 A2995 RMK AO2 SLP135 60000 T02220178 58019 $=
202303261952 METAR KATL 261952Z 23005KT 10SM BKN017 BKN100 BKN200 22/18 A2998 RMK AO2 SLP144 T02170178 $=
202303261940 SPECI KATL 261940Z 22008KT 10SM BKN015 BKN100 BKN200 22/18 A2998 RMK AO2 T02170183 $=
202303261852 METAR KATL 261852Z 22006KT 10SM BKN011 BKN100 BKN200 20/18 A2999 RMK AO2 RAB36E50 SLP151 BINOVC P0000 T02000178 $=
202303261836 SPECI KATL 261836Z 22007KT 9SM -RA SCT008 BKN011 OVC021 19/18 A3000 RMK AO2 RAB36 BINOVC P0000 T01940178 $=
202303261752 METAR KATL 261752Z 15004KT 2SM BKN006 OVC011 18/17 A3001 RMK AO2 SFC VIS 9 LTG DSNT SE RAE49 SLP156 CB DSNT NE SE SW P0001 60060 T01830172 10194 20178 56007 $=
202303261715 SPECI KATL 261715Z 19006KT 2SM -RA BR BKN006 BKN023 OVC075 18/18 A3002 RMK AO2 SFC VIS 5 LTG DSNT N AND SE AND SW CB DSNT NE SE SW P0001 T01830178 $=
202303261652 METAR KATL 261652Z 18007KT 2SM -RA BR FEW004CB SCT065 OVC090 18/17 A3002 RMK AO2 SFC VIS 4 LTG DSNT SW SLP160 CB OHD-N MOV NE P0007 T01830172 $=
202303261643 SPECI KATL 261643Z 18006KT 2SM RA BR SCT004CB BKN070 OVC090 18/17 A3001 RMK AO2 SFC VIS 5 LTG DSNT NW CB S-W MOV NE P0005 T01830172 $=
202303261632 SPECI KATL 261632Z 00000KT 1SM R09R/P6000FT RA BR SCT004CB BKN070 OVC090 18/17 A3001 RMK AO2 SFC VIS 5 LTG DSNT SE AND W CB S-W MOV NE P0003 T01830172 $=
202303261552 METAR KATL 261552Z 15005KT 1SM R09R/P6000FT -RA BR BKN005CB OVC080 18/17 A3001 RMK AO2 SFC VIS 4 LTG DSNT S SLP157 CB SE-SW MOV NE TWRINC P0005 T01830172 $=
202303261522 SPECI KATL 261522Z 16007KT 1SM R09R/P6000FT RA BR BKN005 OVC090 19/17 A3002 RMK AO2 SFC VIS 5 LTG DSNT S CB DSNT E-S-SW P0003 T01890172 $=
202303261517 SPECI KATL 261517Z 14005KT 3SM -RA BR BKN006 OVC090 19/17 A3003 RMK AO2 SFC VIS 5 LTG DSNT S CB DSNT E-S-SW P0002 T01890172 $=
202303261452 METAR KATL 261452Z 18005KT 6SM RA BR FEW005 SCT046 OVC065 18/17 A3003 RMK AO2 RAE31B47 TSE25 SLP163 TS MOV E CB DSNT NE-SE-S VIS LWR S-W P0011 60047 T01830172 51040 $=
202303261426 SPECI KATL 261426Z 14003KT 7SM -RA FEW005 SCT065 OVC090 18/17 A3000 RMK AO2 LTG DSNT E TSE25 TS MOV E CB DSNT NE-SE-S P0011 T01830172 $=
202303261352 METAR KATL 261352Z 30003KT 3SM TSRA BR FEW005 BKN048CB OVC075 18/17 A3000 RMK AO2 LTG DSNT ALQDS SLP153 OCNL LTGICCC OHD-ALQDS TS OHD-ALQDS MOV NE P0025 T01780167 $=
202303261321 SPECI KATL 261321Z 30010KT 2SM +TSRA BR SCT005 BKN040CB OVC075 19/18 A2999 RMK AO2 LTG DSNT ALQDS VIS S 3 OCNL LTGICCCCG OHD-W-N TS OHD-W-N MOV NE P0006 T01940183 $=
202303261308 SPECI KATL 261308Z 24004KT 3SM TSRA BR BKN005 BKN045CB OVC080 19/18 A2997 RMK AO2 LTG DSNT ALQDS OCNL LTGICCCCG W-NW TS W-NW MOV NE P0003 T01940183 $=
202303261252 METAR KATL 261252Z 19005KT 5SM TSRA BR FEW008 FEW026CB OVC095 19/18 A2994 RMK AO2 SLP130 TSB19 OCNL LTGICCG ALQDS & DSNT ALQDS TS ALQDS MOV NE CB DSNT ALQDS P0011 T01940183 $=
202303261227 SPECI KATL 261227Z VRB03KT 4SM TSRA BR FEW008 SCT026CB OVC075 19/18 A2994 RMK AO2 TSB19 OCNL LTGICCG W & DSNT NE-SE-SW TS W MOV NE CB DSNT NE-SE-SW P0005 T01940183 $=
202303261223 SPECI KATL 261223Z 29004KT 2 1/2SM TSRA BR SCT008 SCT026CB OVC075 19/18 A2994 RMK AO2 TSB19 OCNL LTGICCG W & DSNT NE-SE-SW TS W MOV NE CB DSNT NE-SE-SW P0004 T01940183 $=
202303261216 SPECI KATL 261216Z 32008KT 4SM RA BR SCT008 BKN026 OVC075 19/18 A2993 RMK AO2 OCNL LTGICCG DSNT E-S-SW CB DSNT E-S-SW P0002 T01940183 $=
202303261152 METAR KATL 261152Z 33003KT 5SM -RA BR FEW005 BKN010 OVC075 19/18 A2991 RMK AO2 SLP119 RAE1056B11 TSB15E32 TS MOV E FRQ LTGICCG DSNT SE-SW CB DSNT SE-SW P0004 60010 70011 T01940183 10206 20194 55003 $=
202303261134 SPECI KATL 261134Z 24005KT 7SM -RA FEW007 BKN012 OVC075 19/18 A2994 RMK AO2 PRESRR RAE1056B11 TSB15E32 TS MOV E FRQ LTGICCG DSNT SE-SW CB DSNT SE-SW P0002 T01940183 $=
202303261115 SPECI KATL 261115Z 08004KT 5SM -TSRA BR FEW007 BKN012 BKN055 OVC130 19/19 A2989 RMK AO2 RAE1056B11 TSE11B15 OCNL LTGIC VC SE-S TS VC SE-S MOV NE FRQ LTGICCG DSNT SE-SW CB DSNT SE-SW P0001 T01940189 $=
202303261105 SPECI KATL 261105Z 26004KT 7SM FEW007 BKN012 OVC120 19/18 A2993 RMK AO2 RAE1056 FRQ LTGICCG DSNT SE-SW CB DSNT SE-SW P0000 T01940178 $=
202303261052 METAR KATL 261052Z 00000KT 8SM -RA FEW007 BKN017 BKN049 OVC130 19/18 A2990 RMK AO2 RAE18B45 TSE22 SLP117 FRQ LTGICCG DSNT SE-SW TS DSIPT OHD CB DSNT SE-SW P0006 T01940183 $=
202303261026 SPECI KATL 261026Z 25005KT 8SM SCT009 SCT021 BKN085 OVC150 19/18 A2991 RMK AO2 RAE18 TSE22 FRQ LTGICCG DSNT SE & SW TS DSIPT OHD CB DSNT SE & SW P0006 T01940178 $=
202303261022 SPECI KATL 261022Z 30003KT 7SM BKN009 BKN021 BKN085 OVC150 19/18 A2990 RMK AO2 RAE18 TSE22 FRQ LTGICCG DSNT SE & SW TS DSIPT OHD CB DSNT SE & SW P0006 T01940178 $=
202303261015 SPECI KATL 261015Z 00000KT 5SM -TSRA BR BKN009CB OVC014 19/18 A2991 RMK AO2 OCNL LTGICCG OHD-W TS OHD-W MOV E CB DSNT SE-SW P0006 T01940178 $=
202303261008 SPECI KATL 261008Z 29004KT 2SM -TSRA BR BKN008CB OVC020 19/18 A2993 RMK AO2 OCNL LTGICCG VC SE-S & W TS VC SE-S & W MOV E P0006 T01940178 $=
202303260952 METAR KATL 260952Z 26004KT 7SM -TSRA BKN008CB OVC018 20/18 A2993 RMK AO2 RAB52 TSB36 SLP125 OCNL LTGICCG VC SE-SW-W TS VC SE-SW-W MOV NE P0000 T02000178 $=
202303260937 SPECI KATL 260937Z 34006KT 10SM TS BKN009CB OVC018 21/19 A2990 RMK AO2 TSB36 OCNL LTGICCG VC S-SW TS VC S-SW MOV NE T02060189 $=
202303260852 METAR KATL 260852Z 29003KT 10SM BKN009 OVC014 20/18 A2992 RMK AO2 LTG DSNT SW SLP123 T02000178 50001 $=
202303260801 SPECI KATL 260801Z 26005KT 10SM BKN009 OVC013 20/18 A2992 RMK AO2 T02000178 $=
202303260752 METAR KATL 260752Z 23005KT 10SM BKN011 20/18 A2992 RMK AO2 SLP124 T02000178 $=
202303260730 SPECI KATL 260730Z 23004KT 10SM BKN014 19/17 A2992 RMK AO2 T01940172=
202303260652 METAR KATL 260652Z 23004KT 10SM FEW030 SCT065 19/17 A2992 RMK AO2 SLP123 T01940167=
202303260552 METAR KATL 260552Z 22004KT 10SM FEW070 FEW200 20/16 A2992 RMK AO2 SLP123 T02000161 10267 20200 53006=
202303260452 METAR KATL 260452Z 22006KT 10SM FEW075 21/16 A2991 RMK AO2 SLP119 T02110156 402830144=
202303260352 METAR KATL 260352Z 22006KT 10SM FEW080 22/14 A2991 RMK AO2 SLP121 T02170139=
202303260252 METAR KATL 260252Z 26004KT 10SM FEW075 FEW090 FEW200 23/13 A2990 RMK AO2 SLP119 T02280133 51015=
202303260152 METAR KATL 260152Z 22005KT 10SM FEW070 SCT090 SCT200 24/12 A2989 RMK AO2 SLP115 T02390122=
202303260052 METAR KATL 260052Z 24004KT 10SM SCT085 SCT100 SCT200 25/12 A2987 RMK AO2 SLP109 MDT CU SE-SW T02500122=
202303252352 METAR KATL 252352Z 24004KT 10SM SCT085 SCT100 SCT200 27/12 A2986 RMK AO2 SLP103 MDT CU E-SW TCU DSNT S T02670122 10283 20256 53004=
202303252252 METAR KATL 252252Z 23006KT 10SM SCT080 SCT100 SCT200 28/12 A2985 RMK AO2 SLP098 MDT CU OHD AND E-S-W T02780122=
202303252152 METAR KATL 252152Z 26010G19KT 10SM SCT065 SCT200 28/13 A2984 RMK AO2 SLP094 MDT CU ALQDS T02830133=
202303252052 METAR KATL 252052Z 23015G24KT 10SM SCT065 28/13 A2984 RMK AO2 SLP097 MDT CU ALQDS T02780133 56014 $=
202303251952 METAR KATL 251952Z 23010G23KT 10SM SCT060 SCT200 27/13 A2986 RMK AO2 PK WND 22030/1923 SLP100 MDT CU DSNT SE-SW T02720128 $=
202303251852 METAR KATL 251852Z 22016G27KT 10SM FEW060 FEW200 27/11 A2987 RMK AO2 PK WND 24028/1825 SLP107 CB DSNT S T02670111 $=
202303251752 METAR KATL 251752Z 21010G19KT 10SM FEW060 FEW120 FEW200 26/09 A2989 RMK AO2 SLP112 60001 T02560089 10261 20144 58001 $=
202303251652 METAR KATL 251652Z 20007KT 10SM FEW120 FEW200 24/11 A2990 RMK AO2 SLP116 T02390106 $=
202303251552 METAR KATL 251552Z 22006KT 10SM FEW200 21/13 A2990 RMK AO2 SLP116 T02060133 $=
202303251452 METAR KATL 251452Z 21006KT 10SM FEW100 FEW200 17/14 A2989 RMK AO2 RAE00 SLP115 ACC DSNT E SE P0000 60001 T01720144 51017 $=
202303251352 METAR KATL 251352Z 20005KT 10SM -RA SCT060 BKN095 BKN200 14/13 A2989 RMK AO2 SLP115 CB DSNT E-S P0001 T01440133 $=
202303251252 METAR KATL 251252Z 19007KT 10SM -RA BKN060 BKN110 BKN200 15/13 A2987 RMK AO2 RAE1153B14 TSB14E34 SLP111 TS MOV E CB DSNT NE-SE-SW P0000 T01500133 $=
202303251235 SPECI KATL 251235Z 18007KT 10SM FEW020 BKN060 OVC200 15/13 A2987 RMK AO2 LTG DSNT E AND SE RAE1153B14E23 TSB14E34 TS MOV E CB DSNT NE-SE-SW P0000 T01500133 $=
202303251214 SPECI KATL 251214Z 19005KT 10SM -TSRA FEW020 BKN055 BKN075 15/13 A2985 RMK AO2 LTG DSNT E-S RAE1153B14 TSB14 OCNL LTGICCG VC SE TS VC SE MOV NE CB DSNT E-S-SW SHRA E-S-SW P0000 T01500128 $=
202303251152 METAR KATL 251152Z 26005KT 10SM -RA FEW015 BKN055 OVC070 15/13 A2984 RMK AO2 PK WND 31035/1101 WSHFT 1051 SLP098 OCNL LTGICCG DSNT S-SW CB DSNT S-SW P0024 60025 70025 T01500128 10206 20150 53017 $=
202303251115 SPECI KATL 251115Z 29016G29KT 8SM -RA SCT015CB BKN038 OVC046 16/13 A2987 RMK AO2 PK WND 31035/1101 WSHFT 1051 CB NE-SE-S MOV NE P0021 T01560133 $=
202303251106 SPECI KATL 251106Z 30019G35KT 3SM +RA BR FEW007 BKN016CB OVC021 16/14 A2984 RMK AO2 PK WND 31035/1101 WSHFT 1051 CB OHD-SW-NW-NE MOV NE P0019 T01610139 $=
202303251056 SPECI KATL 251056Z 32020G33KT 2SM R09R/2200VP6000FT -RA BR FEW007 OVC016 18/16 A2986 RMK AO2 PK WND 33033/1054 VIS 1/2V5 PRESRR P0000 T01780156 $=
202303251052 METAR KATL 251052Z 33018G28KT 5SM -RA FEW010 BKN016CB OVC023 20/17 A2984 RMK AO2 PK WND 34028/1052 RAB10 PRESRR SLP096 CB W-N MOV NE P0001 T02000172 $=
202303250952 METAR KATL 250952Z 20014G23KT 10SM BKN018 BKN026 OVC049 21/17 A2979 RMK AO2 LTG DSNT N AND NW SLP078 CB DSNT W-N T02060167 $=
202303250852 METAR KATL 250852Z 21011G26KT 10SM BKN016 OVC023 20/17 A2979 RMK AO2 PK WND 20026/0844 LTG DSNT NW SLP079 T02000167 56021 $=
202303250752 METAR KATL 250752Z 20015G24KT 9SM OVC016 19/17 A2980 RMK AO2 PK WND 23027/0720 SLP083 T01940167 $=
202303250652 METAR KATL 250652Z 21015G25KT 10SM BKN019 BKN050 BKN250 20/16 A2983 RMK AO2 PK WND 20026/0636 SLP093 T02000156 $=
202303250644 SPECI KATL 250644Z 20014G26KT 10SM BKN019 BKN050 BKN250 20/16 A2983 RMK AO2 PK WND 20026/0636 T02000156 $=
202303250552 METAR KATL 250552Z 22009G17KT 10SM FEW018 FEW200 SCT250 20/15 A2985 RMK AO2 SLP100 T02000150 10244 20200 55003 $=
202303250452 METAR KATL 250452Z 20008G18KT 10SM FEW200 BKN250 21/14 A2983 RMK AO2 SLP094 T02060144 402560161 $=
202303250352 METAR KATL 250352Z 18012G19KT 10SM FEW200 BKN250 21/14 A2983 RMK AO2 SLP094 T02110144 $=
202303250252 METAR KATL 250252Z 18009KT 10SM FEW050 SCT200 BKN250 22/14 A2986 RMK AO2 SLP105 T02170144 56012 $=
202303250152 METAR KATL 250152Z 18011G19KT 10SM BKN250 22/14 A2986 RMK AO2 SLP106 T02220144 $=
202303250052 METAR KATL 250052Z 18010KT 10SM FEW055 SCT250 23/14 A2988 RMK AO2 SLP111 T02280139 $=
202303242352 METAR KATL 242352Z 19008KT 10SM FEW055 24/14 A2990 RMK AO2 SLP118 T02440139 10256 20228 56017 $=
202303242252 METAR KATL 242252Z 21007G16KT 10SM BKN055 26/14 A2991 RMK AO2 SLP122 T02560139 $=
202303242152 METAR KATL 242152Z 19011G18KT 10SM BKN050 26/14 A2993 RMK AO2 SLP127 T02560139 $=
202303242052 METAR KATL 242052Z 20005KT 10SM SCT040 SCT250 24/14 A2995 RMK AO2 SLP134 T02440144 58023 $=
202303241952 METAR KATL 241952Z 25010G20KT 10SM SCT034 SCT250 24/15 A2998 RMK AO2 SLP144 T02440150 $=
202303241852 METAR KATL 241852Z 22013G20KT 10SM FEW032 FEW250 23/14 A3001 RMK AO2 SLP154 T02280144 $=
202303241752 METAR KATL 241752Z 25009KT 10SM FEW032 SCT250 24/16 A3002 RMK AO2 SLP158 T02390156 10239 20161 58016 $=
202303241652 METAR KATL 241652Z 25010KT 10SM FEW028 SCT250 23/16 A3005 RMK AO2 SLP168 T02330156 $=
202303241552 METAR KATL 241552Z 21008G16KT 10SM FEW024 SCT250 22/15 A3006 RMK AO2 SLP171 T02220150 $=
202303241452 METAR KATL 241452Z 27007KT 10SM SCT016 SCT250 21/16 A3007 RMK AO2 SLP176 T02060156 50004 $=
202303241401 SPECI KATL 241401Z 25005KT 8SM SCT009 18/16 A3007 RMK AO2 T01830156=
202303241352 METAR KATL 241352Z VRB04KT 7SM BKN007 18/16 A3007 RMK AO2 SLP177 T01830156=
202303241252 METAR KATL 241252Z 24006KT 4SM BR OVC005 17/16 A3007 RMK AO2 SLP178 T01670156=
202303241152 METAR KATL 241152Z 22005KT 6SM BR BKN006 BKN010 16/14 A3006 RMK AO2 SLP171 T01610144 10183 20161 53006 $=
202303241150 SPECI KATL 241150Z 22004KT 6SM BR BKN006 BKN010 16/14 A3005 RMK AO2 $=
202303241052 METAR KATL 241052Z 22005KT 9SM FEW005 16/14 A3004 RMK AO2 SLP165 T01610144=
202303241049 SPECI KATL 241049Z 21004KT 9SM FEW005 16/14 A3004 RMK AO2=
202303240952 METAR KATL 240952Z 22007KT 10SM CLR 17/15 A3004 RMK AO2 SLP165 T01720150=
202303240852 METAR KATL 240852Z 22006KT 10SM CLR 17/14 A3004 RMK AO2 SLP163 T01720144 58015=
202303240752 METAR KATL 240752Z 23006KT 10SM CLR 18/14 A3005 RMK AO2 SLP167 T01780139=
202303240652 METAR KATL 240652Z 22007KT 10SM CLR 18/13 A3007 RMK AO2 SLP174 T01780133=
202303240552 METAR KATL 240552Z 21006KT 10SM CLR 18/13 A3008 RMK AO2 SLP179 T01830128 10239 20183 58010=
202303240452 METAR KATL 240452Z 22006KT 10SM CLR 19/12 A3009 RMK AO2 SLP184 T01890122 402670100=
202303240352 METAR KATL 240352Z 21006KT 10SM CLR 19/12 A3011 RMK AO2 SLP189 T01940122=
202303240252 METAR KATL 240252Z 22005KT 10SM CLR 20/12 A3011 RMK AO2 SLP191 T02000117 53001=
202303240152 METAR KATL 240152Z 20005KT 10SM CLR 21/12 A3011 RMK AO2 SLP190 T02110117=
202303240052 METAR KATL 240052Z 18004KT 10SM CLR 22/11 A3010 RMK AO2 SLP190 T02170111=
202303232352 METAR KATL 232352Z 22007KT 10SM CLR 24/11 A3011 RMK AO2 SLP192 T02390106 10267 20239 56008=
202303232252 METAR KATL 232252Z 22008KT 10SM FEW250 26/09 A3012 RMK AO2 SLP194 T02560094=
202303232152 METAR KATL 232152Z 21006KT 10SM FEW250 26/09 A3012 RMK AO2 SLP195 T02610094=
202303232052 METAR KATL 232052Z 22008G15KT 10SM FEW010 FEW250 27/09 A3013 RMK AO2 SLP199 FU FEW010 FU PLUME S T02670094 56024=
202303232047 SPECI KATL 232047Z 21007KT 10SM FEW008 FEW250 26/09 A3014 RMK AO2 FU FEW008 FU PLUME S=
202303231952 METAR KATL 231952Z 23007G16KT 10SM FEW250 26/09 A3015 RMK AO2 SLP205 T02610089=
202303231852 METAR KATL 231852Z 26010G17KT 10SM FEW070 FEW110 FEW250 26/09 A3018 RMK AO2 SLP215 T02610094=
202303231752 METAR KATL 231752Z 24012G23KT 10SM FEW110 FEW250 24/08 A3021 RMK AO2 SLP224 T02440078 10250 20106 58013=
202303231652 METAR KATL 231652Z 24009G19KT 10SM FEW110 FEW250 24/07 A3024 RMK AO2 SLP236 T02390072=
202303231552 METAR KATL 231552Z 20010KT 9SM FEW110 FEW250 21/12 A3025 RMK AO2 SLP240 T02110122=
202303231452 METAR KATL 231452Z 22007KT 10SM FEW003 FEW080 SCT250 19/13 A3025 RMK AO2 SLP238 FU FEW003 T01940128 51005=
202303231352 METAR KATL 231352Z 19005KT 9SM FEW003 FEW200 SCT250 17/12 A3024 RMK AO2 SLP238 FU FEW003 T01670117=
202303231348 SPECI KATL 231348Z 23005KT 8SM FEW002 FEW200 SCT250 17/12 A3024 RMK AO2 FU FEW002 FU PLUME S=
202303231252 METAR KATL 231252Z 00000KT 9SM BKN250 13/11 A3024 RMK AO2 SLP239 T01330106 $=
202303231152 METAR KATL 231152Z 00000KT 9SM BKN250 11/09 A3023 RMK AO2 SLP235 T01060089 10117 20100 51008 $=
202303231052 METAR KATL 231052Z 00000KT 5SM BR FEW008 FEW250 11/08 A3023 RMK AO2 SLP232 T01060083 $=
202303230952 METAR KATL 230952Z 00000KT 7SM SCT250 11/09 A3022 RMK AO2 SLP230 T01060089 $=
202303230852 METAR KATL 230852Z 00000KT 7SM BKN250 11/09 A3021 RMK AO2 SLP226 T01110094 56020 $=
202303230752 METAR KATL 230752Z 09005KT 10SM BKN250 11/09 A3022 RMK AO2 SLP233 T01110089 $=
202303230652 METAR KATL 230652Z 09006KT 10SM SCT250 11/09 A3025 RMK AO2 SLP242 T01110089 $=
202303230552 METAR KATL 230552Z 08006KT 10SM FEW200 SCT250 12/09 A3027 RMK AO2 SLP248 T01170089 10189 20117 58004 $=
202303230452 METAR KATL 230452Z 09007KT 10SM SCT250 13/09 A3028 RMK AO2 SLP252 T01280089 402110078 $=
202303230352 METAR KATL 230352Z 09007KT 10SM FEW070 SCT250 14/09 A3028 RMK AO2 SLP250 T01390094 $=
202303230252 METAR KATL 230252Z 09007KT 10SM FEW070 SCT250 14/09 A3028 RMK AO2 SLP253 T01440094 51009=
202303230152 METAR KATL 230152Z 10006KT 10SM BKN075 BKN250 16/10 A3028 RMK AO2 SLP253 T01610100=
202303230052 METAR KATL 230052Z 08010KT 10SM SCT075 SCT200 17/10 A3026 RMK AO2 SLP247 T01720100=
202303222352 METAR KATL 222352Z 09006KT 10SM FEW080 FEW150 SCT200 19/11 A3025 RMK AO2 SLP242 T01890106 10211 20178 55003=
202303222252 METAR KATL 222252Z 14005KT 10SM FEW120 FEW200 21/10 A3025 RMK AO2 SLP241 T02110100=
202303222152 METAR KATL 222152Z 16005KT 10SM BKN110 BKN150 BKN200 21/10 A3026 RMK AO2 SLP244 ACC N NE T02060100=
202303222052 METAR KATL 222052Z 13006KT 10SM FEW040 FEW100 BKN150 BKN200 21/11 A3026 RMK AO2 SLP245 ACC N NE E T02060106 56023=
202303221952 METAR KATL 221952Z 15005KT 10SM FEW033 SCT095 BKN140 BKN200 19/11 A3028 RMK AO2 SLP252 ACC W-N-NE T01940106=
202303221852 METAR KATL 221852Z 12006KT 10SM FEW031 BKN140 BKN200 BKN250 19/11 A3029 RMK AO2 SLP256 T01940106=
202303221752 METAR KATL 221752Z 16005KT 10SM SCT023 BKN140 BKN200 BKN250 17/11 A3033 RMK AO2 SLP270 T01720106 10178 20094 58005 $=
202303221711 SPECI KATL 221711Z 15005KT 10SM SCT021 BKN140 BKN200 BKN250 17/11 A3034 RMK AO2 T01720106 $=
202303221652 METAR KATL 221652Z VRB03KT 10SM BKN020 BKN150 BKN200 17/10 A3035 RMK AO2 SLP276 T01670100 $=
202303221552 METAR KATL 221552Z 21003KT 10SM OVC016 14/08 A3036 RMK AO2 SLP280 CIG 014V018 T01440083 $=
202303221452 METAR KATL 221452Z 13007KT 10SM OVC013 13/07 A3035 RMK AO2 SLP276 CIG 011V015 T01330072 51003 $=
202303221352 METAR KATL 221352Z 09004KT 9SM OVC012 11/06 A3035 RMK AO2 SLP277 CIG 010V014 T01110056 $=
202303221347 SPECI KATL 221347Z 07005KT 10SM OVC012 11/05 A3034 RMK AO2 CIG 010V014 $=
202303221252 METAR KATL 221252Z 09005KT 10SM BKN017 OVC120 10/04 A3034 RMK AO2 SLP274 T01000039 $=
202303221152 METAR KATL 221152Z 09005KT 9SM BKN015 OVC090 09/03 A3032 RMK AO2 SLP268 T00940028 10100 20078 53005 $=
202303221144 SPECI KATL 221144Z 10004KT 10SM BKN015 OVC090 09/03 A3032 RMK AO2 T00940028 $=
202303221052 METAR KATL 221052Z 11004KT 10SM BKN013 BKN090 BKN200 09/01 A3031 RMK AO2 SLP265 T00890011=
202303220952 METAR KATL 220952Z 07004KT 10SM SCT090 BKN200 BKN250 08/M01 A3031 RMK AO2 SLP262 T00781006=
202303220852 METAR KATL 220852Z 11004KT 10SM FEW200 BKN250 09/M01 A3031 RMK AO2 SLP263 T00941006 56009=
202303220752 METAR KATL 220752Z 10003KT 10SM FEW200 SCT250 08/M01 A3031 RMK AO2 SLP263 T00831011=
202303220652 METAR KATL 220652Z 12005KT 10SM FEW200 SCT250 09/M02 A3031 RMK AO2 SLP263 T00891022=
202303220552 METAR KATL 220552Z 10004KT 10SM FEW200 FEW250 10/M02 A3033 RMK AO2 SLP272 T01001022 10144 20094 50002=
202303220452 METAR KATL 220452Z 10003KT 10SM FEW200 SCT250 10/M02 A3033 RMK AO2 SLP273 T01001022 401670022=
202303220352 METAR KATL 220352Z 00000KT 10SM FEW200 BKN250 11/M02 A3034 RMK AO2 SLP274 T01061022=
202303220252 METAR KATL 220252Z 14004KT 9SM SCT200 BKN250 11/M03 A3033 RMK AO2 SLP271 T01111028 53004=
202303220152 METAR KATL 220152Z 13004KT 9SM FEW120 SCT200 BKN250 12/M02 A3032 RMK AO2 SLP268 T01171022=
202303220052 METAR KATL 220052Z 13004KT 9SM SCT120 SCT200 13/M03 A3032 RMK AO2 SLP268 T01331033=
202303212352 METAR KATL 212352Z 14004KT 8SM SCT130 BKN200 BKN250 14/M04 A3031 RMK AO2 SLP269 T01441039 10167 20139 53001=
202303212252 METAR KATL 212252Z 13007KT 8SM BKN130 BKN200 16/M05 A3031 RMK AO2 SLP266 T01611050=
202303212152 METAR KATL 212152Z 15009KT 10SM FEW150 FEW200 SCT250 16/M06 A3030 RMK AO2 SLP262 T01611056=
202303212052 METAR KATL 212052Z 15008G15KT 10SM FEW150 SCT200 SCT250 16/M06 A3031 RMK AO2 SLP266 T01611061 56025=
202303211952 METAR KATL 211952Z 13008G16KT 10SM FEW150 BKN200 BKN250 16/M06 A3032 RMK AO2 SLP269 T01561061=
202303211852 METAR KATL 211852Z 15006KT 10SM FEW150 BKN200 BKN250 15/M06 A3035 RMK AO2 SLP279 T01501056=
202303211752 METAR KATL 211752Z 14007G17KT 10SM BKN200 BKN250 14/M06 A3038 RMK AO2 SLP291 T01441061 10144 20028 58011=
202303211652 METAR KATL 211652Z 11007KT 10SM FEW150 SCT200 BKN250 13/M07 A3042 RMK AO2 SLP305 T01331067=
202303211552 METAR KATL 211552Z 13007G14KT 10SM BKN200 BKN250 11/M06 A3042 RMK AO2 SLP303 T01111061=
202303211452 METAR KATL 211452Z 14008KT 10SM FEW150 SCT200 SCT250 11/M06 A3042 RMK AO2 SLP303 T01061056 53013=
202303211352 METAR KATL 211352Z 12011KT 9SM FEW200 SCT250 09/M06 A3039 RMK AO2 SLP293 T00891056=
202303211252 METAR KATL 211252Z 09006KT 9SM FEW200 SCT250 05/M03 A3038 RMK AO2 SLP291 T00501028=
202303211152 METAR KATL 211152Z 10006KT 10SM FEW200 SCT250 03/M04 A3038 RMK AO2 SLP291 T00281039 10061 20022 50016=
202303211052 METAR KATL 211052Z 00000KT 10SM FEW250 02/M03 A3038 RMK AO2 SLP293 T00221033=
202303210952 METAR KATL 210952Z 00000KT 10SM FEW250 03/M04 A3035 RMK AO2 SLP282 T00281039=
202303210852 METAR KATL 210852Z 00000KT 10SM FEW200 04/M04 A3033 RMK AO2 SLP273 T00391044 55001=
202303210752 METAR KATL 210752Z 13003KT 10SM FEW180 SCT250 04/M04 A3032 RMK AO2 SLP271 T00441039=
202303210652 METAR KATL 210652Z 13003KT 10SM FEW180 FEW250 05/M04 A3033 RMK AO2 SLP274 T00501039=
202303210552 METAR KATL 210552Z 00000KT 10SM FEW180 BKN250 06/M04 A3033 RMK AO2 SLP275 T00611044 10111 20056 51006=
202303210452 METAR KATL 210452Z 15004KT 10SM FEW180 BKN250 06/M04 A3032 RMK AO2 SLP271 T00611039 401281022=
202303210352 METAR KATL 210352Z 00000KT 10SM BKN180 BKN250 07/M04 A3034 RMK AO2 SLP278 T00721039=
202303210252 METAR KATL 210252Z 00000KT 10SM BKN180 BKN250 08/M04 A3031 RMK AO2 SLP270 T00831044 53007=
202303210152 METAR KATL 210152Z 11004KT 10SM SCT200 BKN250 09/M07 A3030 RMK AO2 SLP267 T00941067=
202303210052 METAR KATL 210052Z 10004KT 10SM SCT200 BKN250 11/M08 A3029 RMK AO2 SLP263 T01061078=
202303202352 METAR KATL 202352Z 35003KT 10SM SCT200 BKN250 11/M09 A3029 RMK AO2 SLP264 T01111089 10128 20094 50003=
202303202252 METAR KATL 202252Z 35004KT 10SM SCT200 BKN250 12/M09 A3029 RMK AO2 SLP264 T01221089=
202303202152 METAR KATL 202152Z 07005KT 10SM SCT200 BKN250 12/M08 A3029 RMK AO2 SLP263 T01221078=
202303202052 METAR KATL 202052Z 36006KT 10SM SCT200 BKN250 13/M08 A3028 RMK AO2 SLP260 T01281078 58016=
202303201952 METAR KATL 201952Z 05005KT 10SM FEW200 SCT250 11/M07 A3030 RMK AO2 SLP267 T01111072=
202303201852 METAR KATL 201852Z 09006KT 10SM SCT250 11/M07 A3031 RMK AO2 SLP272 T01111067=
202303201752 METAR KATL 201752Z VRB03KT 10SM FEW250 09/M07 A3033 RMK AO2 SLP278 T00941072 10094 21022 50001=
202303201652 METAR KATL 201652Z 04009G16KT 010V080 10SM CLR 08/M08 A3034 RMK AO2 SLP279 T00831078=
202303201552 METAR KATL 201552Z 07006KT 10SM CLR 06/M08 A3034 RMK AO2 SLP283 T00611078=
202303201452 METAR KATL 201452Z 08013KT 10SM CLR 05/M08 A3033 RMK AO2 SLP278 T00501083 50012=
202303201352 METAR KATL 201352Z 03012KT 10SM FEW250 02/M09 A3034 RMK AO2 SLP281 T00221089=
202303201252 METAR KATL 201252Z 34009KT 10SM CLR M01/M09 A3031 RMK AO2 SLP274 T10061089 $=
202303201152 METAR KATL 201152Z 34007KT 10SM FEW200 M02/M09 A3029 RMK AO2 SLP267 T10221094 10000 21022 53015 $=
202303201052 METAR KATL 201052Z 35006KT 10SM CLR M02/M10 A3027 RMK AO2 SLP258 T10171100 $=
202303200952 METAR KATL 200952Z 32009KT 10SM CLR M02/M10 A3026 RMK AO2 SLP255 T10171100 $=
202303200852 METAR KATL 200852Z 32010KT 10SM CLR M02/M10 A3025 RMK AO2 SLP251 T10171100 58008 $=
202303200752 METAR KATL 200752Z 31009KT 10SM CLR M01/M10 A3026 RMK AO2 SLP254 T10111100 $=
202303200652 METAR KATL 200652Z 32009KT 10SM CLR M01/M09 A3027 RMK AO2 SLP259 T10111094 $=
202303200552 METAR KATL 200552Z 31010KT 10SM CLR 00/M09 A3027 RMK AO2 SLP258 T00001094 10050 20000 58000 $=
202303200452 METAR KATL 200452Z 32011KT 10SM FEW250 01/M09 A3027 RMK AO2 SLP260 T00061094 400781006 $=
202303200352 METAR KATL 200352Z 32010KT 10SM FEW250 01/M09 A3028 RMK AO2 SLP261 T00111094 $=
202303200252 METAR KATL 200252Z 33009KT 10SM FEW250 02/M09 A3027 RMK AO2 SLP259 T00221089 53014 $=
202303200152 METAR KATL 200152Z 34010KT 10SM SCT250 03/M09 A3025 RMK AO2 SLP252 T00331094 $=
202303200052 METAR KATL 200052Z 33009KT 10SM SCT250 04/M09 A3024 RMK AO2 SLP249 T00391094 $=
202303192352 METAR KATL 192352Z 33008KT 10SM SCT250 05/M09 A3023 RMK AO2 SLP245 T00501089 10078 20050 53002 $=
202303192252 METAR KATL 192252Z 33012G20KT 10SM FEW250 07/M09 A3022 RMK AO2 SLP241 T00671094 $=
202303192152 METAR KATL 192152Z 33014G21KT 10SM FEW250 07/M09 A3022 RMK AO2 SLP239 T00721089 $=
202303192052 METAR KATL 192052Z 33013G22KT 10SM SCT250 07/M09 A3022 RMK AO2 SLP241 T00721094 55012 $=
202303191952 METAR KATL 191952Z 31015G23KT 10SM SCT250 07/M08 A3022 RMK AO2 SLP237 T00721083 $=
202303191852 METAR KATL 191852Z 33017G24KT 10SM FEW250 06/M10 A3024 RMK AO2 SLP244 T00611100 $=
202303191752 METAR KATL 191752Z 32012G21KT 10SM FEW250 07/M09 A3026 RMK AO2 SLP252 T00671089 10067 21006 58005 $=
202303191652 METAR KATL 191652Z 32014KT 10SM FEW250 05/M09 A3029 RMK AO2 SLP261 T00501089 $=
202303191552 METAR KATL 191552Z 31015G22KT 10SM CLR 03/M11 A3028 RMK AO2 SLP260 T00331106 $=
202303191452 METAR KATL 191452Z 32012KT 10SM CLR 02/M10 A3028 RMK AO2 PK WND 34028/1405 SLP258 T00221100 51022 $=
202303191352 METAR KATL 191352Z 33016G23KT 10SM CLR 01/M11 A3025 RMK AO2 PK WND 32027/1305 SLP250 T00061106 $=
202303191252 METAR KATL 191252Z 35015G23KT 10SM CLR 00/M10 A3024 RMK AO2 PK WND 34026/1158 SLP245 T00001100 $=
202303191152 METAR KATL 191152Z 33013KT 10SM CLR M01/M09 A3021 RMK AO2 SLP235 T10061094 10056 21006 53017 $=
202303191052 METAR KATL 191052Z 34013G21KT 10SM CLR 00/M09 A3019 RMK AO2 SLP228 T00001094 $=
202303190952 METAR KATL 190952Z 34015G27KT 10SM CLR 01/M09 A3018 RMK AO2 PK WND 34027/0943 SLP223 T00111089 $=
202303190852 METAR KATL 190852Z 35018G25KT 10SM FEW180 02/M07 A3016 RMK AO2 PK WND 34026/0812 SLP216 T00221067 50007 $=
202303190752 METAR KATL 190752Z 33010KT 10SM FEW150 FEW180 SCT220 03/M07 A3016 RMK AO2 PK WND 33026/0717 SLP216 T00331067 $=
202303190652 METAR KATL 190652Z 33013KT 10SM BKN150 BKN180 BKN250 05/M07 A3015 RMK AO2 SLP213 T00501072 $=
202303190552 METAR KATL 190552Z 32012G21KT 10SM SCT180 BKN250 06/M07 A3013 RMK AO2 SLP207 T00561067 10094 20056 51010 $=
202303190452 METAR KATL 190452Z 31012KT 10SM SCT170 BKN230 07/M05 A3012 RMK AO2 SLP201 T00671050 401220022=
202303190352 METAR KATL 190352Z 29007KT 10SM SCT160 BKN200 BKN250 07/M04 A3013 RMK AO2 SLP206 T00721039=
202303190252 METAR KATL 190252Z 31009KT 10SM BKN160 BKN250 08/M04 A3010 RMK AO2 SLP198 T00781039 51020=
202303190152 METAR KATL 190152Z 30009KT 10SM SCT150 BKN250 08/M04 A3010 RMK AO2 SLP196 T00781039=
202303190052 METAR KATL 190052Z 29012KT 10SM BKN150 BKN250 09/M04 A3008 RMK AO2 SLP190 T00891039=
202303182352 METAR KATL 182352Z 30013KT 10SM SCT130 BKN160 BKN250 09/M05 A3004 RMK AO2 SLP178 T00941050 10122 20094 53015=
202303182252 METAR KATL 182252Z 31012G21KT 10SM BKN130 BKN250 11/M07 A3001 RMK AO2 SLP166 VIRGA DSNT SW-W T01061067=
202303182152 METAR KATL 182152Z 32013KT 10SM BKN140 BKN250 11/M06 A3001 RMK AO2 SLP167 VIRGA DSNT W-NW T01111061=
202303182052 METAR KATL 182052Z 30010KT 10SM BKN160 BKN250 12/M06 A3000 RMK AO2 SLP161 T01171056 56017=
202303181952 METAR KATL 181952Z 31012G22KT 10SM FEW150 SCT250 12/M05 A3001 RMK AO2 SLP164 T01171050=
202303181852 METAR KATL 181852Z 33017G25KT 10SM FEW150 SCT250 11/M06 A3003 RMK AO2 SLP171 T01111056=
202303181752 METAR KATL 181752Z 32015KT 10SM FEW150 SCT250 11/M04 A3005 RMK AO2 SLP178 T01061039 10106 20022 50003=
202303181652 METAR KATL 181652Z 30017G24KT 10SM FEW150 SCT250 09/M03 A3007 RMK AO2 PK WND 30028/1637 SLP184 T00941033=
202303181552 METAR KATL 181552Z 34016G24KT 10SM FEW150 SCT250 08/M04 A3005 RMK AO2 PK WND 33026/1526 SLP178 T00831039=
202303181452 METAR KATL 181452Z 36017G25KT 10SM FEW170 BKN250 06/M04 A3004 RMK AO2 PK WND 32026/1359 SLP176 T00611044 53018=
202303181352 METAR KATL 181352Z 34015G26KT 10SM BKN170 BKN250 04/M03 A3003 RMK AO2 PK WND 33026/1345 SLP172 VIRGA DSNT S-SW T00391033=
202303181252 METAR KATL 181252Z 33019G26KT 10SM BKN180 BKN250 03/M03 A3000 RMK AO2 PK WND 34028/1242 SLP162 VIRGA OHD-S-W-NW T00281028=
202303181152 METAR KATL 181152Z 32014G26KT 10SM FEW050 SCT150 02/M03 A2999 RMK AO2 PK WND 32026/1149 SLP158 VIRGA OHD NE-SE 70066 T00221028 10050 20022 53023=
202303181052 METAR KATL 181052Z 32016G22KT 10SM FEW150 03/M02 A2996 RMK AO2 PK WND 31027/1037 SLP145 T00281022=
202303180952 METAR KATL 180952Z 33016G22KT 10SM FEW150 03/M02 A2993 RMK AO2 SLP135 T00281017=
202303180852 METAR KATL 180852Z 33013G20KT 10SM FEW150 03/M02 A2992 RMK AO2 SLP133 T00331017 56006=
202303180752 METAR KATL 180752Z 32014G21KT 10SM FEW045 FEW150 FEW200 04/M01 A2992 RMK AO2 SLP133 T00391011=
202303180652 METAR KATL 180652Z 32014G21KT 10SM FEW045 FEW200 04/00 A2993 RMK AO2 SLP136 T00440000=
202303180552 METAR KATL 180552Z 33017G24KT 10SM SCT016 SCT200 06/01 A2994 RMK AO2 PK WND 33027/0502 SLP138 60001 T00560011 10128 20056 51016=
202303180546 SPECI KATL 180546Z 33014G25KT 10SM SCT016 SCT200 06/01 A2994 RMK AO2 PK WND 33027/0502=
202303180503 SPECI KATL 180503Z 31019G27KT 10SM SCT012 BKN016 07/04 A2992 RMK AO2 PK WND 33027/0502 T00670039=
202303180452 METAR KATL 180452Z 33015G24KT 10SM OVC012 07/04 A2992 RMK AO2 SLP130 T00720044 401830072=
202303180440 SPECI KATL 180440Z 33016G25KT 10SM OVC012 07/05 A2992 RMK AO2 T00720050=
202303180352 METAR KATL 180352Z 31013G20KT 10SM BKN008 OVC013 09/07 A2991 RMK AO2 PK WND 33029/0304 SLP129 T00890072=
202303180326 SPECI KATL 180326Z 32015KT 10SM BKN010 OVC013 09/07 A2989 RMK AO2 PK WND 33029/0304 T00940072=
202303180252 METAR KATL 180252Z 33015G21KT 10SM BKN007 OVC012 10/09 A2989 RMK AO2 SLP120 60001 T01000089 53017=
202303180152 METAR KATL 180152Z 31015KT 10SM BKN007 BKN028 OVC060 11/09 A2986 RMK AO2 RAE50 SLP112 CIG 004V010 P0000 T01110094=
202303180052 METAR KATL 180052Z 30010KT 7SM -RA SCT008 BKN027 OVC060 12/11 A2985 RMK AO2 SLP108 P0001 T01170106=
202303172352 METAR KATL 172352Z 30014G19KT 5SM -RA BR FEW006 BKN025 OVC060 13/11 A2984 RMK AO2 WSHFT 2302 SLP101 P0005 60056 T01280111 10178 20128 53010=
202303172318 SPECI KATL 172318Z 31016G23KT 3SM RA BR SCT007 BKN015 OVC080 14/13 A2982 RMK AO2 WSHFT 2302 FROPA P0004 T01440128=
202303172311 SPECI KATL 172311Z 31011KT 2 1/2SM RA BR SCT007 BKN018 OVC090 15/13 A2981 RMK AO2 P0002 T01500133=
202303172252 METAR KATL 172252Z 26008KT 10SM -RA SCT007 BKN020 OVC095 16/14 A2981 RMK AO2 SLP090 P0009 T01560144=
202303172152 METAR KATL 172152Z 23008KT 4SM RA BR SCT008 BKN050 OVC095 16/14 A2980 RMK AO2 SLP087 SCT008 V BKN P0015 T01610144=
202303172052 METAR KATL 172052Z 24008KT 4SM RA BR FEW007 SCT022 OVC080 16/14 A2980 RMK AO2 SLP090 P0010 60027 T01610144 56015=
202303172007 SPECI KATL 172007Z 26011G21KT 4SM RA BR FEW007 SCT017 OVC065 17/15 A2981 RMK AO2 P0004 T01670150=
202303171952 METAR KATL 171952Z 24014G22KT 3SM RA BR FEW007 BKN016 OVC040 17/15 A2981 RMK AO2 SLP093 P0015 T01670150=
202303171947 SPECI KATL 171947Z 24010G17KT 3SM RA BR SCT007 BKN022 OVC040 17/16 A2982 RMK AO2 P0013=
202303171931 SPECI KATL 171931Z 24007KT 2 1/2SM RA BR SCT007 BKN038 OVC060 17/16 A2982 RMK AO2 P0007 T01720156=
202303171916 SPECI KATL 171916Z 24007KT 3SM RA BR SCT007 SCT023 OVC065 17/16 A2982 RMK AO2 P0003 T01720156=
202303171852 METAR KATL 171852Z 23009G20KT 5SM -RA BR SCT009 BKN022 OVC038 17/16 A2983 RMK AO2 SLP100 P0002 T01720156=
202303171841 SPECI KATL 171841Z 22013G21KT 3SM RA BR BKN012 OVC028 17/15 A2984 RMK AO2 P0001 T01720150=
202303171752 METAR KATL 171752Z 21011G21KT 9SM -RA BKN016 BKN035 OVC050 18/14 A2985 RMK AO2 RAB38 SLP106 VIS LWR NW-N P0000 60009 T01780144 10183 20133 56015=
202303171721 SPECI KATL 171721Z 23008G19KT 10SM BKN015 OVC032 18/15 A2986 RMK AO2 T01780150=
202303171652 METAR KATL 171652Z 22012G22KT 10SM BKN012 OVC022 18/15 A2987 RMK AO2 RAE1557B19E31 SLP113 P0000 T01780150=
202303171627 SPECI KATL 171627Z 21012G21KT 10SM -RA FEW008 BKN011 OVC017 17/15 A2987 RMK AO2 RAE1557B19 P0000 T01720150=
202303171552 METAR KATL 171552Z 20013G22KT 7SM -RA BKN007 OVC013 16/14 A2986 RMK AO2 SLP107 P0000 T01610144=
202303171452 METAR KATL 171452Z 19012G20KT 5SM -RA BR BKN006 OVC014 15/14 A2990 RMK AO2 RAE36B52 SLP121 P0001 60009 T01500139 58018=
202303171402 SPECI KATL 171402Z 18006KT 3SM -RA BR BKN007 OVC011 14/13 A2992 RMK AO2 P0000 T01390128=
202303171352 METAR KATL 171352Z 19006KT 4SM -RA BR OVC010 14/13 A2992 RMK AO2 RAE00B21 SLP129 P0002 T01390128=
202303171342 SPECI KATL 171342Z 18007KT 3SM RA BR BKN011 OVC055 14/13 A2992 RMK AO2 RAE00B21 P0002 T01390128=
202303171325 SPECI KATL 171325Z 18006KT 6SM -RA BR BKN016 OVC055 13/12 A2992 RMK AO2 RAE00B21 P0000 T01330122=
202303171252 METAR KATL 171252Z 17006KT 4SM -RA BR SCT026 BKN038 OVC060 13/12 A2993 RMK AO2 LTG DSNT NW SLP132 CB DSNT NW P0006 T01330122=
202303171224 SPECI KATL 171224Z 20003KT 4SM -RA BR SCT014 BKN020 OVC027 13/11 A2994 RMK AO2 P0004 T01330111=
202303171152 METAR KATL 171152Z VRB05KT 6SM -RA BR BKN012 BKN020 OVC030 13/11 A2995 RMK AO2 RAB19 SLP138 P0000 60000 T01330111 10139 20122 53009=
202303171052 METAR KATL 171052Z 20003KT 10SM OVC013 13/09 A2993 RMK AO2 SLP131 T01330094=
202303170952 METAR KATL 170952Z 20005KT 10SM BKN014 OVC020 13/09 A2993 RMK AO2 SLP131 T01330089=
202303170933 SPECI KATL 170933Z 21007KT 10SM BKN014 BKN027 BKN040 13/09 A2993 RMK AO2 T01330089=
202303170852 METAR KATL 170852Z 19013G21KT 10SM FEW012 BKN027 BKN039 13/08 A2992 RMK AO2 SLP128 T01330078 58022=
202303170847 SPECI KATL 170847Z 20011G18KT 10SM FEW012 BKN030 OVC039 13/08 A2993 RMK AO2=
202303170752 METAR KATL 170752Z 18010KT 10SM SCT028 BKN035 OVC200 13/04 A2995 RMK AO2 SLP137 T01280044=
202303170652 METAR KATL 170652Z 19007KT 10SM BKN170 BKN250 12/02 A2997 RMK AO2 SLP144 T01220017=
202303170552 METAR KATL 170552Z 19007KT 10SM SCT200 BKN230 13/00 A2999 RMK AO2 SLP153 T01280000 10183 20122 58009=
202303170452 METAR KATL 170452Z 18008KT 9SM SCT200 BKN250 13/M01 A3000 RMK AO2 SLP158 T01331006 402110028=
202303170352 METAR KATL 170352Z 17007KT 10SM FEW200 BKN250 14/M01 A3001 RMK AO2 SLP160 T01391011=
202303170252 METAR KATL 170252Z 17008KT 10SM FEW200 SCT250 14/M02 A3002 RMK AO2 SLP163 T01441017 58015=
202303170152 METAR KATL 170152Z 16006KT 9SM FEW200 15/M02 A3003 RMK AO2 SLP168 T01501022=
202303170052 METAR KATL 170052Z 17006KT 6SM FU HZ FEW200 SCT250 16/M03 A3005 RMK AO2 SLP177 T01611028=
202303162352 METAR KATL 162352Z 18005KT 7SM SCT200 BKN250 18/M03 A3006 RMK AO2 SLP180 T01831033 10211 20178 55008=
202303162252 METAR KATL 162252Z 18007KT 9SM BKN200 BKN250 19/M04 A3006 RMK AO2 SLP178 T01941039=
202303162152 METAR KATL 162152Z 18010KT 10SM BKN200 BKN250 21/M04 A3006 RMK AO2 SLP180 T02061044=
202303162052 METAR KATL 162052Z 24008KT 10SM FEW160 SCT200 BKN250 21/M03 A3009 RMK AO2 SLP188 T02111033 56033=
202303161952 METAR KATL 161952Z 16009KT 10SM FEW160 SCT250 20/M04 A3011 RMK AO2 SLP197 ACC E SE T02001039=
202303161852 METAR KATL 161852Z 19012G15KT 10SM SCT180 SCT250 19/M04 A3015 RMK AO2 SLP209 T01941039=
202303161752 METAR KATL 161752Z 20010G22KT 10SM FEW180 SCT250 18/M03 A3019 RMK AO2 SLP222 T01781033 10178 20028 58011=
202303161652 METAR KATL 161652Z 16008KT 10SM FEW180 SCT250 17/M03 A3022 RMK AO2 SLP233 T01671028=
202303161552 METAR KATL 161552Z 23008KT 10SM FEW180 FEW250 14/M02 A3023 RMK AO2 SLP236 T01441022=
202303161452 METAR KATL 161452Z 18008KT 10SM FEW180 SCT250 12/M02 A3022 RMK AO2 SLP234 T01221022 51012 $=
202303161352 METAR KATL 161352Z VRB04KT 10SM FEW150 SCT180 BKN250 10/M02 A3021 RMK AO2 SLP232 T01001017=
202303161252 METAR KATL 161252Z 00000KT 10SM BKN200 BKN250 07/M02 A3020 RMK AO2 SLP229 T00671022=
202303161152 METAR KATL 161152Z 14003KT 9SM SCT180 SCT250 04/M02 A3018 RMK AO2 SLP224 T00391022 10067 20028 58002=
202303161052 METAR KATL 161052Z 12003KT 9SM SCT250 04/M02 A3018 RMK AO2 SLP223 T00391017=
202303160952 METAR KATL 160952Z 00000KT 10SM FEW250 04/M03 A3019 RMK AO2 SLP224 T00391028 $=
202303160852 METAR KATL 160852Z 32003KT 10SM FEW250 04/M02 A3019 RMK AO2 SLP224 T00391022 56002 $=
202303160752 METAR KATL 160752Z 32005KT 10SM SCT250 05/M03 A3019 RMK AO2 SLP225 T00501028 $=
202303160652 METAR KATL 160652Z 00000KT 10SM SCT250 06/M03 A3019 RMK AO2 SLP223 T00611028 $=
202303160552 METAR KATL 160552Z 13003KT 10SM FEW250 06/M02 A3020 RMK AO2 SLP227 T00611022 10139 20061 58010=
202303160452 METAR KATL 160452Z 00000KT 10SM SCT250 07/M02 A3021 RMK AO2 SLP231 T00671017 401671006=
202303160352 METAR KATL 160352Z 00000KT 10SM FEW250 08/M04 A3023 RMK AO2 SLP239 T00831044=
202303160252 METAR KATL 160252Z 34004KT 9SM CLR 09/M06 A3023 RMK AO2 SLP238 T00941056 51014=
202303160152 METAR KATL 160152Z 32004KT 10SM CLR 11/M05 A3021 RMK AO2 SLP235 T01061050=
202303160052 METAR KATL 160052Z 00000KT 10SM FEW250 11/M04 A3020 RMK AO2 SLP232 T01111039=
202303152352 METAR KATL 152352Z 31004KT 10SM FEW250 14/M09 A3018 RMK AO2 SLP225 T01391089 10167 20117 56008=
202303152252 METAR KATL 152252Z 28005KT 10SM CLR 16/M08 A3019 RMK AO2 SLP227 T01561078=
202303152152 METAR KATL 152152Z 30005KT 10SM CLR 17/M07 A3020 RMK AO2 SLP229 T01671067=
202303152052 METAR KATL 152052Z 26006KT 10SM CLR 16/M07 A3021 RMK AO2 SLP231 T01611067 56017=
202303151952 METAR KATL 151952Z 27004KT 10SM CLR 16/M06 A3021 RMK AO2 SLP232 T01561061=
202303151852 METAR KATL 151852Z VRB03KT 10SM CLR 14/M08 A3024 RMK AO2 SLP243 T01441078=
202303151847 SPECI KATL 151847Z VRB03KT 10SM FEW002 14/M07 A3024 RMK AO2 FU FEW002 FU PLUME NE=
202303151752 METAR KATL 151752Z 00000KT 10SM CLR 12/M08 A3026 RMK AO2 SLP251 T01221078 10128 20000 58014=
202303151652 METAR KATL 151652Z 10004KT 10SM CLR 10/M08 A3028 RMK AO2 SLP257 T01001083=
202303151552 METAR KATL 151552Z 00000KT 10SM CLR 09/M07 A3028 RMK AO2 SLP260 T00891072=
202303151452 METAR KATL 151452Z 02004KT 10SM CLR 07/M07 A3030 RMK AO2 SLP266 T00671072 51012=
202303151352 METAR KATL 151352Z 35006KT 10SM FEW200 04/M07 A3029 RMK AO2 SLP264 T00391067=
202303151252 METAR KATL 151252Z 33007KT 10SM FEW200 01/M06 A3028 RMK AO2 SLP259 T00111061=
202303151152 METAR KATL 151152Z 33005KT 10SM FEW250 00/M07 A3026 RMK AO2 SLP255 T00001067 10033 21006 51020=
202303151052 METAR KATL 151052Z 28004KT 10SM FEW250 00/M07 A3026 RMK AO2 SLP252 T00001067=
202303150952 METAR KATL 150952Z 31006KT 10SM FEW250 01/M07 A3022 RMK AO2 SLP239 T00061067 $=
202303150852 METAR KATL 150852Z 35009KT 10SM FEW200 02/M07 A3020 RMK AO2 SLP232 T00221072 50001 $=
202303150752 METAR KATL 150752Z 35007KT 10SM CLR 03/M07 A3021 RMK AO2 SLP233 T00281072 $=
202303150652 METAR KATL 150652Z 34008KT 10SM CLR 03/M07 A3021 RMK AO2 SLP233 T00281072 $=
202303150552 METAR KATL 150552Z 33006KT 10SM CLR 03/M07 A3020 RMK AO2 SLP230 T00331067 10078 20033 55010 $=
202303150452 METAR KATL 150452Z 34014KT 10SM FEW250 04/M07 A3019 RMK AO2 SLP230 T00391067 401061006 $=
202303150352 METAR KATL 150352Z 33010KT 10SM FEW250 04/M06 A3022 RMK AO2 SLP240 T00391056 $=
202303150252 METAR KATL 150252Z 33010KT 10SM FEW250 05/M06 A3023 RMK AO2 SLP242 T00501061 51007 $=
202303150152 METAR KATL 150152Z 34013G17KT 10SM FEW250 06/M05 A3022 RMK AO2 SLP241 T00561050 $=
202303150052 METAR KATL 150052Z 33008KT 10SM CLR 07/M05 A3023 RMK AO2 SLP243 T00671050=
202303142352 METAR KATL 142352Z 34009KT 10SM FEW250 08/M06 A3021 RMK AO2 SLP236 T00781056 10106 20078 53009=
202303142252 METAR KATL 142252Z 32012KT 10SM FEW250 09/M06 A3020 RMK AO2 SLP231 T00941056=
202303142152 METAR KATL 142152Z 31013G21KT 10SM CLR 10/M04 A3018 RMK AO2 SLP225 T01001044=
202303142052 METAR KATL 142052Z 34010G28KT 10SM CLR 10/M06 A3018 RMK AO2 PK WND 33028/2045 SLP224 T01001056 55010=
202303141952 METAR KATL 141952Z 32012G21KT 10SM CLR 10/M06 A3017 RMK AO2 SLP222 T01001056=
202303141852 METAR KATL 141852Z 33016G21KT 10SM CLR 10/M05 A3020 RMK AO2 SLP231 T01001050=
202303141752 METAR KATL 141752Z 34012G21KT 10SM CLR 08/M06 A3021 RMK AO2 SLP234 T00831056 10089 21006 58005=
202303141652 METAR KATL 141652Z VRB05G15KT 10SM FEW002 08/M04 A3022 RMK AO2 SLP240 FU FEW002 FU PLUME N T00781044=
202303141650 SPECI KATL 141650Z 29010G17KT 10SM FEW002 07/M04 A3023 RMK AO2 FU FEW002 FU PLUME N=
202303141552 METAR KATL 141552Z 32007KT 10SM FEW250 06/M04 A3023 RMK AO2 SLP241 T00611044 $=
202303141452 METAR KATL 141452Z 32009KT 10SM FEW200 04/M05 A3022 RMK AO2 SLP240 T00441050 53022 $=
202303141352 METAR KATL 141352Z 33011G21KT 10SM FEW250 02/M06 A3019 RMK AO2 SLP229 T00221056 $=
202303141252 METAR KATL 141252Z 34013G22KT 10SM CLR 01/M06 A3017 RMK AO2 SLP223 T00061056 $=
202303141152 METAR KATL 141152Z 33013KT 10SM FEW200 M01/M06 A3016 RMK AO2 SLP217 T10061056 10028 21006 53014 $=
202303141052 METAR KATL 141052Z 33010KT 10SM FEW200 00/M06 A3013 RMK AO2 SLP208 T00001056 $=
202303140952 METAR KATL 140952Z 33011KT 10SM CLR 00/M06 A3012 RMK AO2 SLP203 T00001056 $=
202303140852 METAR KATL 140852Z 34009G17KT 10SM CLR 01/M06 A3011 RMK AO2 SLP201 T00061056 50002 $=
202303140752 METAR KATL 140752Z 34008KT 10SM FEW250 01/M05 A3013 RMK AO2 SLP205 T00111050 $=
202303140652 METAR KATL 140652Z 34012KT 10SM FEW250 02/M05 A3012 RMK AO2 SLP202 T00221050 $=
202303140552 METAR KATL 140552Z 33012G21KT 10SM CLR 03/M04 A3011 RMK AO2 SLP199 T00281044 10106 20028 51011=
202303140452 METAR KATL 140452Z 35017G23KT 10SM CLR 04/M04 A3010 RMK AO2 SLP196 T00391039 401390039=
202303140352 METAR KATL 140352Z 34015G20KT 10SM CLR 06/M03 A3009 RMK AO2 SLP193 T00611033=
202303140252 METAR KATL 140252Z 32011KT 10SM CLR 07/M02 A3007 RMK AO2 SLP187 T00721022 53024=
202303140152 METAR KATL 140152Z 34014G20KT 10SM CLR 08/M02 A3005 RMK AO2 SLP179 T00831017=
202303140052 METAR KATL 140052Z 32012KT 10SM CLR 09/M02 A3003 RMK AO2 SLP171 T00941017=
202303132352 METAR KATL 132352Z 32012KT 10SM FEW055 FEW250 11/M01 A3000 RMK AO2 SLP162 60000 T01061011 10139 20106 53012=
202303132252 METAR KATL 132252Z 32015G25KT 10SM FEW055 FEW250 12/M01 A2998 RMK AO2 SLP155 T01171006=
202303132152 METAR KATL 132152Z 31015G27KT 10SM FEW055 FEW250 13/00 A2997 RMK AO2 PK WND 30028/2122 SLP149 T01330000=
202303132052 METAR KATL 132052Z 32012G25KT 10SM FEW060 FEW200 SCT250 14/01 A2997 RMK AO2 PK WND 33027/2031 SLP148 T01390011 55004=
202303131952 METAR KATL 131952Z 33019G25KT 10SM FEW065 FEW200 SCT250 14/01 A2995 RMK AO2 SLP144 T01390006=
202303131852 METAR KATL 131852Z 31013G27KT 10SM FEW060 FEW200 SCT250 13/02 A2997 RMK AO2 PK WND 34027/1845 SLP148 T01330017=
202303131752 METAR KATL 131752Z 30009G23KT 10SM FEW055 FEW200 12/02 A2998 RMK AO2 SLP152 T01220022 10128 20056 58005=
202303131652 METAR KATL 131652Z 29014G20KT 10SM FEW050 FEW200 11/02 A2999 RMK AO2 SLP156 T01110017=
202303131552 METAR KATL 131552Z 32012G20KT 10SM FEW046 FEW200 11/01 A2999 RMK AO2 SLP156 T01060011=
202303131452 METAR KATL 131452Z 32015G21KT 10SM FEW038 FEW250 09/01 A2999 RMK AO2 SLP159 T00890011 51013=
202303131352 METAR KATL 131352Z 33013KT 10SM FEW026 FEW200 07/01 A2998 RMK AO2 SLP155 T00720011=
202303131252 METAR KATL 131252Z 31011KT 10SM FEW017 FEW250 06/02 A2997 RMK AO2 SLP153 T00610022=
202303131152 METAR KATL 131152Z 32007KT 10SM SCT017 SCT200 06/03 A2995 RMK AO2 SLP146 70084 T00560028 10094 20056 53016=
202303131139 SPECI KATL 131139Z 33013KT 10SM SCT017 SCT250 06/03 A2995 RMK AO2 T00610028=
202303131052 METAR KATL 131052Z 32010KT 10SM BKN015 BKN023 07/04 A2994 RMK AO2 SLP139 T00670039=
202303130952 METAR KATL 130952Z 32010KT 10SM FEW013 BKN023 08/04 A2991 RMK AO2 SLP132 T00780044 $=
202303130921 SPECI KATL 130921Z 33012KT 10SM SCT012 BKN023 08/05 A2991 RMK AO2 T00780050 $=
202303130852 METAR KATL 130852Z 32012KT 10SM BKN012 BKN023 08/06 A2990 RMK AO2 SLP128 T00830056 50006=
202303130822 SPECI KATL 130822Z 34012G23KT 10SM BKN014 OVC023 08/06 A2990 RMK AO2 T00830056=
202303130752 METAR KATL 130752Z 32008KT 10SM SCT014 BKN019 09/06 A2991 RMK AO2 SLP129 T00890061=
202303130747 SPECI KATL 130747Z 33012KT 10SM SCT014 BKN020 09/06 A2990 RMK AO2=
202303130652 METAR KATL 130652Z 34010G18KT 10SM SCT008 BKN012 BKN021 09/07 A2990 RMK AO2 SLP125 SCT008 V BKN T00890072=
202303130616 SPECI KATL 130616Z 33010KT 10SM BKN008 09/07 A2988 RMK AO2 BKN008 V SCT T00890072=
202303130607 SPECI KATL 130607Z 34010KT 10SM SCT005 SCT010 09/07 A2989 RMK AO2 T00890072=
202303130552 METAR KATL 130552Z 34011KT 1 1/4SM BR FEW004 OVC007 09/08 A2989 RMK AO2 SFC VIS 6 SLP121 60000 T00940078 10094 20089 50004=
202303130549 SPECI KATL 130549Z 34013KT 1 1/4SM BR SCT004 OVC007 09/08 A2989 RMK AO2 SFC VIS 6=
202303130530 SPECI KATL 130530Z 33009KT 1 1/4SM BR OVC004 09/08 A2989 RMK AO2 SFC VIS 4 T00940078=
202303130452 METAR KATL 130452Z 34008KT 1 1/4SM BR OVC005 09/08 A2989 RMK AO2 SFC VIS 3 SLP123 T00940078 401500083=
202303130352 METAR KATL 130352Z 00000KT 2SM BR OVC005 09/08 A2988 RMK AO2 SFC VIS 4 DZE37 SLP120 P0000 T00940083=
202303130350 SPECI KATL 130350Z 00000KT 2SM BR OVC005 09/08 A2988 RMK AO2 SFC VIS 4 DZE37 P0000=
202303130252 METAR KATL 130252Z 05004KT 3/4SM R09R/P6000FT -DZ BR OVC004 09/08 A2987 RMK AO2 SFC VIS 3 SLP118 DZB40 TWRINC P0000 60000 T00890078 53016=
202303130250 SPECI KATL 130250Z 06004KT 3/4SM R09R/P6000FT -DZ BR OVC004 09/08 A2987 RMK AO2 SFC VIS 3 DZB40 TWRINC P0000=
202303130237 SPECI KATL 130237Z 07003KT 1 1/4SM BR OVC004 09/08 A2987 RMK AO2 SFC VIS 3 T00890078=
202303130152 METAR KATL 130152Z 08004KT 1 1/4SM OVC006 09/08 A2986 RMK AO2 SFC VIS 7 SLP113 T00940078=
202303130052 METAR KATL 130052Z 09004KT 1 1/4SM OVC005 09/08 A2983 RMK AO2 SFC VIS 7 SLP103 T00940078=
202303130048 SPECI KATL 130048Z 04005KT 1 1/4SM OVC005 09/08 A2983 RMK AO2 SFC VIS 7=
202303122352 METAR KATL 122352Z 07005KT 1/2SM R09R/P6000FT BR OVC004 09/08 A2982 RMK AO2 SFC VIS 6 SLP101 TWRINC 60003 T00940078 10100 20089 51019=
202303122303 SPECI KATL 122303Z 07005KT 1/2SM R09R/P6000FT BR OVC004 09/08 A2981 RMK AO2 SFC VIS 2 1/2 TWRINC T00940083=
202303122252 METAR KATL 122252Z 07007KT 2 1/2SM BR OVC005 09/08 A2980 RMK AO2 SFC VIS 3 SLP093 T00940083=
202303122152 METAR KATL 122152Z 12003KT 2 1/2SM BR OVC005 09/08 A2980 RMK AO2 SFC VIS 6 SLP093 T00940078=
202303122052 METAR KATL 122052Z 07011KT 2 1/2SM BR OVC005 09/08 A2977 RMK AO2 SFC VIS 6 SLP080 60003 T00940083 58005=
202303121952 METAR KATL 121952Z 06006KT 1 1/2SM OVC005 09/08 A2979 RMK AO2 SFC VIS 7 RAE30 SLP087 TWRINC P0000 T00940078=
202303121930 SPECI KATL 121930Z 06008KT 1 1/2SM OVC005 09/08 A2979 RMK AO2 SFC VIS 7 RAE30 CIG 004V007 TWRINC P0000 T00940083=
202303121916 SPECI KATL 121916Z 08008KT 1/2SM R09R/P6000FT -RA BR BKN005 OVC033 09/08 A2978 RMK AO2 SFC VIS 4 CIG 004V007 P0000 T00940083=
202303121852 METAR KATL 121852Z 07008KT 1/2SM R09R/P6000FT -RA BR OVC004 09/08 A2979 RMK AO2 SFC VIS 2 1/2 RAB01 SLP089 VIS E 1 1/2 CIG 003V006 TWRINC P0003 T00940083=
202303121823 SPECI KATL 121823Z 08007KT 1/2SM R09R/P6000FT -RA OVC004 09/08 A2980 RMK AO2 SFC VIS 7 RAB01 VIS W-NW 2 1/2 P0000 T00890078=
202303121752 METAR KATL 121752Z 09011KT 1 1/2SM OVC004 09/08 A2979 RMK AO2 SFC VIS 7 SLP086 TWRINC 60081 T00890078 10094 20083 58002=
202303121745 SPECI KATL 121745Z 09009KT 1 1/2SM OVC004 09/08 A2979 RMK AO2 SFC VIS 7 TWRINC T00890078=
202303121734 SPECI KATL 121734Z 08013KT 7SM OVC004 09/08 A2980 RMK AO2 T00940078=
202303121652 METAR KATL 121652Z 08010KT 9SM OVC005 09/08 A2981 RMK AO2 SLP096 T00940078=
202303121552 METAR KATL 121552Z 09009KT 7SM OVC005 09/08 A2980 RMK AO2 RAE50 SLP092 P0001 T00890078=
202303121452 METAR KATL 121452Z 11012G17KT 6SM -RA BR OVC005 08/08 A2979 RMK AO2 SLP088 CIG 004V006 P0015 60080 T00830078 58009=
202303121352 METAR KATL 121352Z 10010KT 4SM RA BR BKN006 BKN024 OVC050 08/07 A2982 RMK AO2 SLP097 BKN006 V SCT CB DSNT E-S P0024 T00830072=
202303121334 SPECI KATL 121334Z 08013G19KT 3SM +RA BR BKN006 BKN028 OVC060 09/07 A2982 RMK AO2 CB DSNT E-S P0016 T00890072=
202303121252 METAR KATL 121252Z 06014KT 4SM +RA BR FEW005 SCT017CB OVC038 09/08 A2982 RMK AO2 PK WND 33029/1219 WSHFT 1210 LTG DSNT E AND SE TSE1159 SLP099 TS MOV E CB E-S-SW MOV NE P0041 T00890078=
202303121250 SPECI KATL 121250Z 06016KT 3SM +RA BR FEW005 SCT017CB OVC038 09/08 A2982 RMK AO2 PK WND 33029/1219 WSHFT 1210 LTG DSNT E AND SE TSE1159 TS MOV E CB E-SE MOV NE P0040=
202303121239 SPECI KATL 121239Z 06016KT 2SM R09R/6000VP6000FT +RA BR FEW005 SCT017CB OVC038 09/08 A2982 RMK AO2 PK WND 33029/1219 WSHFT 1210 LTG DSNT SE TSE1159 TS MOV E CB OHD-ALQDS MOV NE P0031 T00890078=
202303121229 SPECI KATL 121229Z 02016G27KT 3SM R09R/4500VP6000FT RA BR SCT005 SCT017CB OVC035 09/08 A2985 RMK AO2 PK WND 33029/1219 WSHFT 1210 LTG DSNT NE AND SE TSE1159 TS MOV E CB OHD-ALQDS MOV NE P0025 T00940078=
202303121220 SPECI KATL 121220Z 35019G29KT 1SM R09R/4000VP6000FT +RA BR BKN005 OVC017CB 09/08 A2985 RMK AO2 PK WND 33029/1219 LTG DSNT NE TSE1159 PRESRR TS MOV E CB OHD-ALQDS MOV NE P0011 T00940078=
202303121219 SPECI KATL 121219Z 34022G29KT 3SM R09R/4000VP6000FT +RA BR BKN005 OVC017CB 09/08 A2986 RMK AO2 PK WND 33029/1219 LTG DSNT NE TSE1159 PRESRR TS MOV E CB OHD-ALQDS MOV NE P0011 T00940078=
202303121211 SPECI KATL 121211Z 09010KT 3SM RA BR BKN005 OVC017CB 09/08 A2977 RMK AO2 TSE1159 TS MOV E CB OHD-ALQDS MOV NE P0009 T00940078=
202303121159 SPECI KATL 121159Z 08013KT 2 1/2SM +RA BR BKN005 OVC019CB 09/08 A2977 RMK AO2 LTG DSNT SE TSE59 TS MOV E CB ALQDS-OHD MOV NE P0003 T00940078=
202303121152 METAR KATL 121152Z 07015G20KT 4SM TSRA BR BKN005 OVC021CB 09/08 A2978 RMK AO2 LTG DSNT E TSB14 SLP084 ONCL LTGICCG VC NE TS VC NE MOV NE CB OHD-ALQDS MOV NE P0011 60020 70020 T00940078 10150 20094 53001=
202303121114 SPECI KATL 121114Z 04015KT 4SM -TSRA BR FEW007 BKN021CB OVC030 10/08 A2980 RMK AO2 LTG DSNT NW-NE TSB14 ONCL LTGICCG NW-N TS NW-N MOV NE CB DSNT NW-NE P0000 T01000083=
202303121052 METAR KATL 121052Z 07010KT 8SM -RA OVC020 10/08 A2977 RMK AO2 LTG DSNT W-N RAE16B38 SLP079 CB DSNT W-N P0002 T01000078=
202303120952 METAR KATL 120952Z 12003KT 8SM RA BKN023 OVC033 11/07 A2977 RMK AO2 RAB0859 SLP079 VIS LWR NW-NE P0007 T01060072=
202303120907 SPECI KATL 120907Z 12007KT 10SM -RA BKN028 OVC033 12/06 A2977 RMK AO2 RAB0859 P0001 T01170056=
202303120852 METAR KATL 120852Z 12008KT 10SM OVC032 12/05 A2978 RMK AO2 RAE0758 SLP080 P0000 60000 T01170050 58020=
202303120752 METAR KATL 120752Z 13005KT 9SM -RA FEW025 BKN034 OVC045 12/04 A2981 RMK AO2 RAB11E22B38 SLP093 P0000 T01220044=
202303120652 METAR KATL 120652Z 07011KT 10SM BKN032 OVC045 14/02 A2984 RMK AO2 SLP102 T01390017=
202303120552 METAR KATL 120552Z 13007KT 10SM BKN037 BKN044 BKN085 14/02 A2984 RMK AO2 SLP101 T01390017 10161 20133 58014=
202303120452 METAR KATL 120452Z 13006KT 10SM OVC040 14/02 A2987 RMK AO2 SLP112 T01390022 401830044=
202303120352 METAR KATL 120352Z 12003KT 10SM FEW039 BKN070 BKN095 BKN250 14/01 A2988 RMK AO2 SLP117 T01440011=
202303120252 METAR KATL 120252Z 13005KT 10SM BKN090 BKN200 BKN250 13/02 A2988 RMK AO2 SLP119 T01330022 58006=
202303120152 METAR KATL 120152Z 20003KT 10SM FEW160 SCT200 BKN250 14/02 A2990 RMK AO2 SLP126 T01390017=
202303120052 METAR KATL 120052Z 00000KT 10SM SCT160 BKN250 14/01 A2990 RMK AO2 SLP125 T01440011=
202303112352 METAR KATL 112352Z 00000KT 10SM BKN150 BKN250 16/M02 A2990 RMK AO2 SLP126 VIRGA N-NE T01611022 10183 20156 53003=
202303112252 METAR KATL 112252Z 32005KT 10SM BKN150 BKN200 BKN250 17/M02 A2990 RMK AO2 SLP124 VIRGA DSNT SE-S NW T01721022=
202303112152 METAR KATL 112152Z 28004KT 10SM FEW150 SCT200 BKN250 17/M02 A2989 RMK AO2 SLP121 VIRGA S-SW T01721017=
202303112052 METAR KATL 112052Z 32004KT 10SM SCT150 BKN200 BKN250 17/M03 A2989 RMK AO2 SLP123 VIRGA S-W T01721033 56021=
202303111952 METAR KATL 111952Z 30008KT 10SM FEW150 BKN200 BKN250 17/M03 A2991 RMK AO2 SLP127 VIRGA SW-W T01721028=
202303111852 METAR KATL 111852Z 29007KT 10SM FEW150 SCT200 BKN250 16/M02 A2992 RMK AO2 SLP132 VIRGA S T01611017=
202303111752 METAR KATL 111752Z 31007KT 10SM FEW150 SCT200 BKN250 16/M01 A2996 RMK AO2 SLP143 T01561006 10156 20044 58007=
202303111652 METAR KATL 111652Z 28009G14KT 10SM FEW150 SCT200 BKN250 13/01 A2998 RMK AO2 SLP153 T01330011=
202303111552 METAR KATL 111552Z 28006KT 10SM SCT200 BKN250 12/01 A2998 RMK AO2 SLP152 T01170011=
202303111452 METAR KATL 111452Z 31005KT 10SM SCT200 BKN250 09/01 A2998 RMK AO2 SLP152 T00940006 51013=
202303111352 METAR KATL 111352Z 31006KT 10SM FEW200 SCT250 07/M01 A2997 RMK AO2 SLP151 T00671006=
202303111252 METAR KATL 111252Z 31006KT 10SM FEW200 SCT250 05/M01 A2997 RMK AO2 SLP150 T00501006=
202303111152 METAR KATL 111152Z 33006KT 10SM FEW200 SCT250 04/M01 A2994 RMK AO2 SLP140 70012 T00441011 10083 20044 53007=
202303111052 METAR KATL 111052Z 32007KT 10SM FEW200 SCT250 05/M01 A2993 RMK AO2 SLP135 T00501006=
202303110952 METAR KATL 110952Z 33008KT 10SM SCT180 BKN250 06/M01 A2992 RMK AO2 SLP132 VIRGA SW-NW T00561011=
202303110852 METAR KATL 110852Z 32013KT 10SM FEW180 FEW250 06/M01 A2992 RMK AO2 SLP130 T00611006 56010=
202303110752 METAR KATL 110752Z 33009KT 10SM FEW200 FEW250 07/00 A2992 RMK AO2 SLP131 T00670000=
202303110652 METAR KATL 110652Z 33010KT 10SM SCT200 BKN250 08/01 A2992 RMK AO2 SLP130 T00780011=
202303110552 METAR KATL 110552Z 33012KT 10SM FEW200 BKN250 08/01 A2995 RMK AO2 SLP142 T00830011 10156 20083 51007=
202303110452 METAR KATL 110452Z 35015G22KT 10SM FEW250 10/01 A2995 RMK AO2 SLP140 T01000011 401940100=
202303110352 METAR KATL 110352Z 34011KT 10SM FEW250 11/02 A2993 RMK AO2 SLP135 T01110022=
202303110252 METAR KATL 110252Z 32014KT 10SM FEW250 12/03 A2993 RMK AO2 SLP134 T01220028 53006=
202303110152 METAR KATL 110152Z 32011KT 10SM FEW250 13/04 A2992 RMK AO2 SLP131 T01330044=
202303110052 METAR KATL 110052Z 31013KT 10SM FEW250 14/05 A2991 RMK AO2 SLP129 T01390050=
202303102352 METAR KATL 102352Z 31011KT 10SM FEW200 BKN250 16/07 A2991 RMK AO2 SLP126 T01560067 10194 20150 53002=
202303102252 METAR KATL 102252Z 31015KT 10SM FEW200 BKN250 17/04 A2990 RMK AO2 SLP123 T01720044=
202303102152 METAR KATL 102152Z 31018G22KT 10SM FEW200 BKN250 18/07 A2989 RMK AO2 SLP120 T01830067=
202303102052 METAR KATL 102052Z 31016G27KT 10SM FEW038 FEW200 BKN250 19/08 A2990 RMK AO2 PK WND 32027/2048 SLP123 T01890078 58014=
202303101952 METAR KATL 101952Z 30013KT 10SM FEW032 BKN220 18/10 A2992 RMK AO2 SLP128 T01830100=
202303101919 SPECI KATL 101919Z 32011KT 10SM SCT025 BKN220 17/11 A2992 RMK AO2 MDT CU E-S T01720111=
202303101852 METAR KATL 101852Z 31010KT 10SM SCT018 BKN025 BKN220 17/12 A2993 RMK AO2 SLP135 MDT CU ALQDS T01720122=
202303101823 SPECI KATL 101823Z 31013G20KT 10SM SCT015 BKN024 BKN220 16/12 A2994 RMK AO2 MDT CU N-NE T01610122=
202303101752 METAR KATL 101752Z 31009KT 10SM FEW009 BKN013 OVC022 15/12 A2995 RMK AO2 SLP140 BINOVC 60012 T01500122 10150 20106 58010=
202303101733 SPECI KATL 101733Z 31008KT 10SM SCT008 OVC012 14/13 A2996 RMK AO2 T01440128=
202303101652 METAR KATL 101652Z 27007KT 7SM BKN007 OVC040 14/13 A2997 RMK SLP150 T01420133=
202303101552 METAR KATL 101552Z 29007KT 5SM BR BKN005 BKN032 OVC050 13/12 A2997 RMK AO2 RAE09 SLP151 CIG 004V006 P0000 T01330122 $=
202303101516 SPECI KATL 101516Z 26005KT 4SM BR BKN004 OVC020 13/12 A2997 RMK AO2 RAE09 P0000 T01280122 $=
202303101452 METAR KATL 101452Z 32011KT 2 1/2SM -RA BR BKN003 OVC015 13/12 A2998 RMK AO2 SLP151 FROPA P0002 60012 T01330122 55005 $=
202303101443 SPECI KATL 101443Z 28006KT 2 1/2SM -RA BR BKN003 OVC018 13/12 A2997 RMK AO2 P0002 T01330122 $=
202303101416 SPECI KATL 101416Z 23004KT 3SM -RA BR BKN003 BKN022 OVC085 13/12 A2996 RMK AO2 P0001 T01280117 $=
202303101352 METAR KATL 101352Z 23006KT 3SM -RA BR FEW004 SCT060 OVC085 12/11 A2996 RMK AO2 SLP146 P0004 T01220111 $=
202303101340 SPECI KATL 101340Z 22005KT 4SM -RA BR FEW012 BKN080 OVC090 12/11 A2996 RMK AO2 P0003 T01220111 $=
202303101252 METAR KATL 101252Z 20006KT 1SM R09R/P6000FT RA BR SCT003 BKN055 OVC090 12/11 A2997 RMK AO2 SFC VIS 2 1/2 SLP148 TWRINC P0006 T01170111 $=
202303101235 SPECI KATL 101235Z 22005KT 1SM R09R/P6000FT -RA BR BKN003 OVC006 11/11 A2998 RMK AO2 SFC VIS 2 1/2 TWRINC P0004 T01110106 $=
202303101204 SPECI KATL 101204Z 22004KT 1/2SM R09R/P6000FT -RA BR OVC003 11/10 A3000 RMK AO2 SFC VIS 3 TWRINC P0001 T01060100 $=
202303101152 METAR KATL 101152Z 22003KT 1SM R09R/P6000FT -RA BR BKN003 OVC006 11/10 A2999 RMK AO2 SFC VIS 4 SLP156 P0005 60033 70047 T01060100 10106 20100 55003 $=
202303101146 SPECI KATL 101146Z 21004KT 1SM R09R/P6000FT -RA BR BKN003 OVC006 11/10 A2999 RMK AO2 SFC VIS 4 P0005 $=
202303101052 METAR KATL 101052Z 20003KT 7SM -RA OVC008 11/09 A2999 RMK AO2 RAB0958 SLP158 P0002 T01060094 $=
202303101024 SPECI KATL 101024Z 00000KT 6SM -RA BR OVC008 11/09 A2999 RMK AO2 RAB0958 P0001 T01060094 $=
202303100952 METAR KATL 100952Z 00000KT 9SM FEW007 OVC012 11/09 A3000 RMK AO2 SLP160 T01060094 $=
202303100919 SPECI KATL 100919Z 00000KT 9SM FEW005 BKN013 OVC020 11/09 A3001 RMK AO2 T01060094 $=
202303100852 METAR KATL 100852Z 16004KT 8SM SCT005 BKN038 BKN100 10/09 A3000 RMK AO2 RAB06E17 SLP161 P0000 60026 T01000089 58019 $=
202303100840 SPECI KATL 100840Z 17005KT 8SM SCT005 BKN038 BKN100 10/09 A3000 RMK AO2 RAB06E17 P0000 T01000089 $=
202303100752 METAR KATL 100752Z 00000KT 5SM BR SCT005 BKN020 OVC030 11/09 A3004 RMK AO2 RAE51 SLP172 P0009 T01060094 $=
202303100749 SPECI KATL 100749Z 00000KT 5SM -RA BR SCT005 BKN020 OVC030 11/09 A3004 RMK AO2 P0009 $=
202303100652 METAR KATL 100652Z 00000KT 3SM RA BR BKN005 OVC023 10/09 A3006 RMK AO2 SLP180 P0017 T01000094 $=
202303100552 METAR KATL 100552Z 14004KT 6SM -RA BR BKN004 BKN025 OVC050 10/09 A3006 RMK AO2 RAE20B43 SLP179 P0000 60008 T01000089 10111 20100 58018 $=
202303100545 SPECI KATL 100545Z 14005KT 6SM -RA BR BKN004 BKN025 OVC050 10/09 A3007 RMK AO2 RAE20B43 P0000 T01000089 $=
202303100452 METAR KATL 100452Z 13005KT 6SM -RA BR SCT003 BKN032 OVC050 10/09 A3008 RMK AO2 SLP187 SCT003 V BKN P0003 T01000089 401670100 $=
202303100352 METAR KATL 100352Z 11004KT 8SM -RA FEW005 BKN027 OVC050 10/09 A3011 RMK AO2 RAE0254B12 SLP197 P0003 T01000089=
202303100338 SPECI KATL 100338Z 09006KT 5SM -RA BR FEW005 BKN032 OVC070 10/08 A3011 RMK AO2 RAE0254B12 P0003 T01000083=
202303100252 METAR KATL 100252Z 13005KT 8SM -RA BKN032 OVC070 10/08 A3012 RMK AO2 RAB15 SLP200 P0000 60002 T01000083 58010=
202303100152 METAR KATL 100152Z 13005KT 10SM FEW020 OVC034 10/07 A3013 RMK AO2 RAE45 SLP205 P0002 T01000072=
202303100114 SPECI KATL 100114Z 15004KT 4SM RA BKN027 BKN035 OVC050 10/07 A3014 RMK AO2 P0002 T01000067=
202303100052 METAR KATL 100052Z 17005KT 10SM -RA BKN035 OVC070 11/06 A3015 RMK AO2 RAB51 SLP209 P0000 T01110056=
202303092352 METAR KATL 092352Z 12005KT 10SM BKN026 OVC080 11/06 A3015 RMK AO2 SLP210 60005 T01110061 10167 20111 55005=
202303092252 METAR KATL 092252Z 13006KT 10SM SCT030 BKN075 OVC110 12/06 A3014 RMK AO2 SLP206 T01170061=
202303092152 METAR KATL 092152Z 15008KT 10SM SCT034 BKN085 OVC110 12/06 A3013 RMK AO2 RAE10 SLP203 P0000 T01220056=
202303092052 METAR KATL 092052Z 15006KT 10SM -RA BKN041 OVC075 12/07 A3016 RMK AO2 RAB50 SLP213 P0000 60005 T01220067 58013=
202303091952 METAR KATL 091952Z 18005KT 10SM BKN046 BKN075 BKN110 OVC200 12/07 A3018 RMK AO2 RAE49 SLP217 P0005 T01220072=
202303091852 METAR KATL 091852Z 19005KT 6SM -RA BKN048 OVC080 14/04 A3020 RMK AO2 RAB26 SLP224 P0000 T01390039=
202303091752 METAR KATL 091752Z 16007KT 10SM BKN055 OVC100 17/M01 A3020 RMK AO2 SLP224 60001 T01671006 10167 20111 58007=
202303091652 METAR KATL 091652Z 14007KT 10SM BKN060 BKN100 OVC200 15/02 A3020 RMK AO2 SLP226 T01500017=
202303091552 METAR KATL 091552Z 14005KT 10SM FEW003 OVC060 14/04 A3023 RMK AO2 SLP233 FU FEW003 T01390039=
202303091548 SPECI KATL 091548Z 14007KT 10SM FEW001 OVC060 14/04 A3022 RMK AO2 FU FEW001 FU PLUME SE=
202303091452 METAR KATL 091452Z 13006KT 10SM BKN060 OVC090 13/04 A3022 RMK AO2 RAB1359E11 SLP232 P0000 60001 T01280039 50008=
202303091352 METAR KATL 091352Z 09007KT 10SM BKN060 OVC080 12/03 A3022 RMK AO2 RAB06E35 SLP234 P0001 T01170033 $=
202303091252 METAR KATL 091252Z 13004KT 10SM FEW050 OVC060 11/05 A3022 RMK AO2 SLP232 RAE33 P0000 T01110050 $=
202303091152 METAR KATL 091152Z 10005KT 10SM -RA BKN055 OVC060 12/02 A3020 RMK AO2 RAB21 SLP224 P0002 60002 70002 T01220017 10150 20117 53001 $=
202303091052 METAR KATL 091052Z 12004KT 10SM OVC055 14/M01 A3019 RMK AO2 SLP222 T01391006 $=
202303090952 METAR KATL 090952Z 11006KT 10SM OVC055 14/M01 A3020 RMK AO2 SLP222 T01391006 $=
202303090852 METAR KATL 090852Z 08005KT 10SM SCT050 OVC060 14/01 A3019 RMK AO2 SLP222 60000 T01390006 58002 $=
202303090752 METAR KATL 090752Z 07004KT 10SM SCT050 OVC060 14/00 A3020 RMK AO2 SLP223 T01440000 $=
202303090652 METAR KATL 090652Z 09005KT 10SM BKN060 OVC100 14/02 A3020 RMK AO2 RAB13E40 SLP223 P0000 T01390022 $=
202303090552 METAR KATL 090552Z 09005KT 10SM BKN060 OVC080 15/M01 A3020 RMK AO2 RAB20E31 SLP224 P0000 60000 T01501006 10178 20150 50002 $=
202303090452 METAR KATL 090452Z 00000KT 10SM FEW060 OVC080 15/M01 A3020 RMK AO2 RAB39E51 SLP226 P0000 T01501006 401890061 $=
202303090352 METAR KATL 090352Z 15003KT 10SM BKN075 OVC110 15/M02 A3020 RMK AO2 SLP224 VIRGA OHD-ALQDS T01501022 $=
202303090252 METAR KATL 090252Z 12004KT 10SM BKN080 BKN120 BKN200 16/M04 A3019 RMK AO2 SLP223 VIRGA SW-NW-N T01611039 55002 $=
202303090152 METAR KATL 090152Z 12005KT 10SM SCT110 BKN150 BKN200 16/M03 A3019 RMK AO2 SLP221 T01561033 $=
202303090052 METAR KATL 090052Z 10005KT 10SM SCT110 BKN150 BKN200 17/M04 A3019 RMK AO2 SLP222 VIRGA W-N-NE T01671044=
202303082352 METAR KATL 082352Z 12003KT 10SM BKN150 BKN200 BKN250 17/M05 A3020 RMK AO2 SLP226 T01671050 10189 20167 56004=
202303082252 METAR KATL 082252Z 09005KT 10SM SCT150 BKN200 BKN250 17/M05 A3020 RMK AO2 SLP227 T01721050=
202303082152 METAR KATL 082152Z 11008KT 10SM FEW150 BKN180 OVC250 18/M06 A3019 RMK AO2 SLP221 VIRGA N-E T01831056=
202303082052 METAR KATL 082052Z 10006KT 10SM SCT150 BKN180 BKN250 18/M06 A3021 RMK AO2 SLP229 VIRGA E NW T01831061 56017=
202303082005 SPECI KATL 082005Z 14007KT 10SM FEW150 BKN180 BKN250 18/M06 A3021 RMK AO2 VIRGA SE SW T01831061=
202303081952 METAR KATL 081952Z 09007KT 10SM FEW150 BKN180 BKN250 18/M06 A3022 RMK AO2 SLP229 VIRGA SE SW-W T01831056=
202303081852 METAR KATL 081852Z 13005G15KT 10SM FEW150 SCT200 BKN250 18/M07 A3021 RMK AO2 SLP228 T01831067=
202303081830 SPECI KATL 081830Z 10009KT 10SM FEW150 SCT200 SCT250 19/M05 A3022 RMK AO2 ACC NW T01891050=
202303081752 METAR KATL 081752Z 09008G20KT 10SM FEW150 FEW200 SCT250 17/M06 A3026 RMK AO2 SLP246 ACC DSNT NW T01721056 10172 20094 55003=
202303081652 METAR KATL 081652Z 10011KT 10SM FEW150 FEW250 16/M06 A3026 RMK AO2 SLP245 T01611061=
202303081552 METAR KATL 081552Z 10012KT 10SM FEW160 FEW250 14/M06 A3028 RMK AO2 SLP249 T01441061=
202303081452 METAR KATL 081452Z 11011G17KT 10SM FEW180 FEW250 13/M05 A3027 RMK AO2 SLP249 T01331050 50015=
202303081352 METAR KATL 081352Z 08015G22KT 10SM FEW250 12/M05 A3028 RMK AO2 SLP250 T01171050=
202303081252 METAR KATL 081252Z 09010KT 10SM FEW180 11/M04 A3026 RMK AO2 SLP244 T01061039=
202303081152 METAR KATL 081152Z 09010KT 10SM FEW180 10/M02 A3023 RMK AO2 SLP233 T01001022 10156 20100 53026=
202303081052 METAR KATL 081052Z 09009KT 10SM FEW200 11/M01 A3019 RMK AO2 SLP221 T01061011=
202303080952 METAR KATL 080952Z 08009KT 10SM FEW150 FEW200 11/M01 A3017 RMK AO2 SLP212 T01111011=
202303080852 METAR KATL 080852Z 08011KT 10SM FEW150 FEW200 13/M01 A3015 RMK AO2 SLP203 T01281011 51003=
202303080752 METAR KATL 080752Z 03006KT 10SM FEW150 FEW200 13/00 A3014 RMK AO2 SLP201 T01330000=
202303080652 METAR KATL 080652Z 36006KT 10SM FEW070 FEW150 SCT200 14/01 A3015 RMK AO2 SLP202 T01440006=
202303080552 METAR KATL 080552Z 01006KT 10SM SCT180 16/01 A3014 RMK AO2 SLP199 T01560011 10217 20150 53008=
202303080452 METAR KATL 080452Z 35007KT 10SM CLR 17/01 A3013 RMK AO2 SLP196 T01670011 402610161=
202303080352 METAR KATL 080352Z 35009KT 10SM CLR 18/00 A3012 RMK AO2 SLP192 T01780000=
202303080252 METAR KATL 080252Z 01008KT 10SM CLR 19/00 A3011 RMK AO2 SLP191 T01940000 53014=
202303080152 METAR KATL 080152Z 35010G18KT 10SM CLR 21/01 A3009 RMK AO2 SLP185 T02060011=
202303080052 METAR KATL 080052Z 34006KT 10SM CLR 21/02 A3008 RMK AO2 SLP181 T02060017=
202303072352 METAR KATL 072352Z 33009KT 10SM FEW200 22/02 A3007 RMK AO2 SLP176 T02170022 10261 20217 53012=
202303072252 METAR KATL 072252Z 32011KT 10SM FEW250 24/02 A3005 RMK AO2 SLP169 T02390022=
202303072152 METAR KATL 072152Z 33010G22KT 10SM FEW080 26/01 A3004 RMK AO2 PK WND 35026/2114 SLP165 T02560011=
202303072052 METAR KATL 072052Z 33015G22KT 10SM FEW075 26/06 A3003 RMK AO2 SLP163 T02560056 55005=
202303071952 METAR KATL 071952Z 33011G24KT 10SM FEW075 26/05 A3003 RMK AO2 SLP160 T02610050=
202303071852 METAR KATL 071852Z 33014G22KT 10SM FEW070 FEW250 26/08 A3003 RMK AO2 SLP159 T02560078=
202303071752 METAR KATL 071752Z 34014G24KT 10SM FEW065 25/09 A3005 RMK AO2 PK WND 33026/1736 SLP168 T02500089 10250 20178 58001=
202303071652 METAR KATL 071652Z 30009G17KT 10SM FEW055 24/11 A3006 RMK AO2 SLP173 T02390106=
202303071552 METAR KATL 071552Z 33013G19KT 10SM FEW038 23/11 A3006 RMK AO2 SLP174 T02280111=
202303071452 METAR KATL 071452Z 34012G19KT 10SM FEW030 22/13 A3005 RMK AO2 SLP170 T02170133 51015=
202303071352 METAR KATL 071352Z 29009KT 8SM FEW035 20/16 A3004 RMK AO2 SLP166 T02000161=
202303071252 METAR KATL 071252Z 28006KT 6SM BR FEW035 FEW250 18/16 A3002 RMK AO2 SLP161 T01830161 $=
202303071152 METAR KATL 071152Z 27006KT 7SM BKN030 BKN043 BKN070 18/16 A3001 RMK AO2 SLP155 T01780161 10189 20172 53010=
202303071137 SPECI KATL 071137Z 27006KT 7SM FEW007 BKN034 BKN070 18/16 A3000 RMK AO2 T01780161=
202303071052 METAR KATL 071052Z 27007KT 8SM SCT020 SCT035 SCT060 SCT250 18/16 A2999 RMK AO2 SLP149 T01780156=
202303070952 METAR KATL 070952Z 28006KT 8SM FEW025 FEW040 SCT250 17/14 A2998 RMK AO2 SLP146 T01720144=
202303070852 METAR KATL 070852Z 27006KT 10SM FEW025 SCT040 SCT250 17/14 A2998 RMK AO2 SLP143 T01720139 56003=
202303070752 METAR KATL 070752Z 26008KT 10SM FEW045 SCT250 18/14 A2998 RMK AO2 SLP144 T01830139=
202303070652 METAR KATL 070652Z 25005KT 10SM FEW045 BKN250 19/12 A2998 RMK AO2 SLP144 T01890122=
202303070552 METAR KATL 070552Z 24006KT 10SM SCT045 BKN250 18/09 A2999 RMK AO2 SLP148 T01830094 10233 20178 56012=
202303070452 METAR KATL 070452Z 23006KT 10SM SCT250 18/08 A3000 RMK AO2 SLP153 T01830083 402560106=
202303070352 METAR KATL 070352Z 22005KT 10SM FEW250 19/08 A3001 RMK AO2 SLP157 T01890083=
202303070252 METAR KATL 070252Z 23004KT 10SM FEW250 19/08 A3002 RMK AO2 SLP162 T01940078 53001=
202303070152 METAR KATL 070152Z 21005KT 10SM SCT250 20/08 A3001 RMK AO2 SLP158 T02000083=
202303070052 METAR KATL 070052Z 19004KT 10SM SCT250 21/09 A3001 RMK AO2 SLP158 T02110089=
202303062352 METAR KATL 062352Z 21005KT 10SM FEW200 SCT250 23/08 A3002 RMK AO2 SLP160 T02330078 10256 20217 57006=
202303062252 METAR KATL 062252Z 25011G17KT 10SM FEW200 BKN250 26/07 A3002 RMK AO2 SLP162 T02560072=
202303062152 METAR KATL 062152Z 21009KT 10SM FEW200 SCT250 26/09 A3003 RMK AO2 SLP163 T02560089=
202303062146 SPECI KATL 062146Z 22006KT 10SM FEW003 SCT200 SCT250 26/09 A3003 RMK AO2 FU FEW003 FU PLUME S=
202303062052 METAR KATL 062052Z 22006G14KT 10SM SCT200 SCT250 25/09 A3003 RMK AO2 SLP165 T02500094 56035=
202303061952 METAR KATL 061952Z 20006KT 10SM SCT200 BKN250 25/10 A3007 RMK AO2 SLP176 T02500100=
202303061852 METAR KATL 061852Z 20006KT 10SM FEW055 SCT200 SCT250 24/11 A3010 RMK AO2 SLP187 T02390111=
202303061752 METAR KATL 061752Z 00000KT 10SM FEW038 SCT200 SCT250 22/13 A3014 RMK AO2 SLP201 T02220133 10222 20106 58016=
202303061652 METAR KATL 061652Z 08004KT 10SM FEW026 FEW200 SCT250 19/13 A3018 RMK AO2 SLP215 T01940133=
202303061552 METAR KATL 061552Z 12005KT 10SM FEW012 FEW200 SCT250 17/12 A3018 RMK AO2 SLP218 T01670122=
202303061543 SPECI KATL 061543Z 11003KT 10SM FEW010 SCT014 SCT200 BKN250 17/12 A3019 RMK AO2 T01670122=
202303061531 SPECI KATL 061531Z 13004KT 10SM SCT008 BKN012 BKN250 16/12 A3019 RMK AO2 T01610117=
202303061452 METAR KATL 061452Z 13006KT 9SM OVC008 15/11 A3019 RMK AO2 SLP220 CIG 007V009 BINOVC T01500106 51008=
202303061415 SPECI KATL 061415Z 09005KT 10SM BKN008 BKN015 BKN200 BKN250 15/09 A3019 RMK AO2 T01500089=
202303061352 METAR KATL 061352Z 09005KT 10SM FEW015 FEW200 BKN250 14/08 A3019 RMK AO2 SLP220 T01390078=
202303061252 METAR KATL 061252Z 09006KT 10SM FEW200 BKN250 12/06 A3018 RMK AO2 SLP219 T01170056=
202303061152 METAR KATL 061152Z 09006KT 10SM SCT250 11/05 A3017 RMK AO2 SLP213 T01060050 10139 20106 51008=
202303061052 METAR KATL 061052Z 09006KT 10SM SCT250 11/05 A3016 RMK AO2 SLP209 T01060050 $=
202303060952 METAR KATL 060952Z 08006KT 10SM SCT250 12/05 A3015 RMK AO2 SLP206 T01170050 $=
202303060852 METAR KATL 060852Z 08005KT 10SM SCT250 12/04 A3014 RMK AO2 SLP203 T01220044 58001 $=
202303060752 METAR KATL 060752Z 09004KT 10SM FEW250 12/04 A3015 RMK AO2 SLP206 T01220044 $=
202303060652 METAR KATL 060652Z 08007KT 10SM BKN250 13/05 A3016 RMK AO2 SLP209 T01280050 $=
202303060552 METAR KATL 060552Z 09005KT 10SM BKN250 14/05 A3015 RMK AO2 SLP205 T01390050 10194 20139 55007 $=
202303060452 METAR KATL 060452Z 10004KT 10SM SCT250 14/05 A3014 RMK AO2 SLP205 T01440050 402220100 $=
202303060352 METAR KATL 060352Z 10005KT 10SM CLR 16/05 A3016 RMK AO2 SLP210 T01560050 $=
202303060252 METAR KATL 060252Z 08007KT 10SM CLR 17/05 A3017 RMK AO2 SLP213 T01670050 53006 $=
202303060152 METAR KATL 060152Z 12004KT 10SM CLR 18/04 A3015 RMK AO2 SLP207 T01780044 $=
202303060052 METAR KATL 060052Z 11004KT 10SM CLR 19/04 A3015 RMK AO2 SLP207 T01890044 $=
202303052352 METAR KATL 052352Z 00000KT 10SM CLR 19/05 A3015 RMK AO2 SLP208 T01940050 10222 20194 53002 $=
202303052252 METAR KATL 052252Z 13006KT 10SM CLR 22/04 A3014 RMK AO2 SLP204 T02170044 $=
202303052152 METAR KATL 052152Z 18004KT 10SM CLR 22/04 A3014 RMK AO2 SLP204 T02220039 $=
202303052052 METAR KATL 052052Z VRB05KT 10SM CLR 22/04 A3015 RMK AO2 SLP205 T02220039 56014 $=
202303051952 METAR KATL 051952Z VRB04KT 10SM CLR 22/04 A3016 RMK AO2 SLP209 T02170044 $=
202303051852 METAR KATL 051852Z 11006KT 10SM CLR 21/04 A3017 RMK AO2 SLP212 T02060039 $=
202303051752 METAR KATL 051752Z 13006KT 10SM CLR 19/03 A3019 RMK AO2 SLP220 T01940033 10200 20100 58006 $=
202303051652 METAR KATL 051652Z 11011G16KT 10SM CLR 18/02 A3021 RMK AO2 SLP227 T01830017 $=
202303051552 METAR KATL 051552Z 11010KT 10SM CLR 17/02 A3021 RMK AO2 SLP228 T01670022 $=
202303051452 METAR KATL 051452Z 09015G22KT 10SM CLR 15/02 A3021 RMK AO2 SLP227 T01500017 52021 $=
202303051352 METAR KATL 051352Z 09013G20KT 10SM CLR 13/02 A3019 RMK AO2 SLP221 T01280022 $=
202303051252 METAR KATL 051252Z 07011KT 10SM CLR 11/02 A3016 RMK AO2 SLP213 T01060022 $=
202303051152 METAR KATL 051152Z 06009KT 10SM CLR 10/02 A3015 RMK AO2 SLP206 T01000017 10122 20100 51022 $=
202303051052 METAR KATL 051052Z 04007KT 10SM CLR 10/02 A3013 RMK AO2 SLP200 T01000017 $=
202303050952 METAR KATL 050952Z 36007KT 330V040 10SM CLR 11/02 A3011 RMK AO2 SLP192 T01060017 $=
202303050852 METAR KATL 050852Z VRB05KT 10SM CLR 11/02 A3008 RMK AO2 SLP182 T01060017 51007 $=
202303050752 METAR KATL 050752Z 32005KT 10SM CLR 11/02 A3007 RMK AO2 SLP179 T01060017 $=
202303050652 METAR KATL 050652Z 33007KT 10SM CLR 11/02 A3007 RMK AO2 SLP178 T01110017 $=
202303050552 METAR KATL 050552Z 33008KT 10SM CLR 12/02 A3006 RMK AO2 SLP174 T01220017 10183 20122 50001 $=
202303050452 METAR KATL 050452Z 33007KT 10SM CLR 13/02 A3006 RMK AO2 SLP175 T01280022 402170106=
202303050352 METAR KATL 050352Z 33007KT 10SM CLR 13/03 A3006 RMK AO2 SLP177 T01330033=
202303050252 METAR KATL 050252Z 34007KT 10SM CLR 14/05 A3005 RMK AO2 SLP174 T01440050 53024=
202303050152 METAR KATL 050152Z 34009KT 10SM FEW250 16/06 A3002 RMK AO2 SLP165 T01610056=
202303050052 METAR KATL 050052Z 34008KT 10SM FEW250 17/06 A3000 RMK AO2 SLP157 T01670056=
202303042352 METAR KATL 042352Z 34007KT 10SM FEW060 FEW250 18/06 A2998 RMK AO2 SLP149 T01830056 10217 20183 53016=
202303042252 METAR KATL 042252Z 32011KT 10SM FEW060 FEW250 19/06 A2996 RMK AO2 SLP144 T01940061=
202303042152 METAR KATL 042152Z 36012G17KT 10SM FEW060 FEW250 21/06 A2994 RMK AO2 SLP136 T02060056 $=
202303042052 METAR KATL 042052Z VRB06KT 10SM R09R/2800VP6000FT FEW060 FEW250 21/06 A2993 RMK AO2 SLP132 T02110061 53003 $=
202303041952 METAR KATL 041952Z 25007KT 10SM FEW055 FEW250 21/06 A2991 RMK AO2 SLP125 T02110061 $=
202303041852 METAR KATL 041852Z 32008G17KT 10SM FEW055 FEW250 21/06 A2991 RMK AO2 SLP125 T02060061 $=
202303041752 METAR KATL 041752Z 27004KT 10SM FEW050 FEW250 20/07 A2992 RMK AO2 SLP128 T02000067 10200 20106 50004 $=
202303041652 METAR KATL 041652Z 30009KT 10SM FEW250 19/07 A2992 RMK AO2 SLP129 T01890067 $=
202303041552 METAR KATL 041552Z 30007KT 10SM FEW250 17/08 A2992 RMK AO2 SLP127 T01720078 $=
202303041452 METAR KATL 041452Z 30006KT 10SM FEW250 15/08 A2991 RMK AO2 SLP125 T01500078 51023 $=
202303041352 METAR KATL 041352Z 32007KT 10SM FEW250 13/08 A2990 RMK AO2 SLP123 T01280078 $=
202303041252 METAR KATL 041252Z 28005KT 10SM CLR 12/09 A2987 RMK AO2 SLP114 T01170089 $=
202303041152 METAR KATL 041152Z 31005KT 10SM CLR 11/08 A2984 RMK AO2 SLP102 70034 T01060083 10144 20106 51024 $=
202303041052 METAR KATL 041052Z 28004KT 10SM CLR 11/08 A2982 RMK AO2 SLP095 T01110083 $=
202303040952 METAR KATL 040952Z 29004KT 10SM CLR 12/09 A2979 RMK AO2 SLP083 T01170089=
202303040852 METAR KATL 040852Z 29006KT 10SM CLR 12/09 A2977 RMK AO2 SLP073 T01220089 51011=
202303040752 METAR KATL 040752Z 28005KT 10SM CLR 13/09 A2976 RMK AO2 SLP071 T01280094=
202303040652 METAR KATL 040652Z 29004KT 10SM CLR 13/09 A2974 RMK AO2 SLP067 T01330094=
202303040552 METAR KATL 040552Z 29006KT 10SM CLR 14/09 A2973 RMK AO2 SLP062 60000 T01440094 10189 20144 51018=
202303040452 METAR KATL 040452Z 31008KT 10SM CLR 15/10 A2972 RMK AO2 SLP059 T01500100 402560150=
202303040352 METAR KATL 040352Z 29008KT 10SM FEW070 17/11 A2971 RMK AO2 SLP054 T01670106=
202303040252 METAR KATL 040252Z 27008KT 10SM SCT070 SCT090 18/12 A2968 RMK AO2 SLP045 60000 T01780117 51041=
202303040152 METAR KATL 040152Z 27007KT 10SM BKN065 18/14 A2964 RMK AO2 SLP033 T01830139=
202303040052 METAR KATL 040052Z 28009KT 10SM BKN050 BKN080 BKN200 19/16 A2960 RMK AO2 RAE07 SLP017 P0000 T01890156=
202303032352 METAR KATL 032352Z 26008KT 9SM -RA BKN045 BKN060 BKN200 19/16 A2955 RMK AO2 RAE08B52 TSE08 SLP002 CB DSNT NE-SE-S P0000 60033 T01890161 10256 20178 53034=
202303032309 SPECI KATL 032309Z 26009KT 10SM FEW025 BKN040 BKN060 OVC200 18/16 A2953 RMK AO2 RAE08 TSE08 LTG DSNT NE-SE-S TS MOVD E CB DSNT NE-SE-S P0000 T01830161=
202303032252 METAR KATL 032252Z 25010G24KT 7SM -TSRA FEW013 SCT025CB BKN050 BKN200 18/16 A2952 RMK AO2 PK WND 22037/2207 WSHFT 2216 RAB23 TSB17 SLP989 VIS LWR NE-SE-S OCNL LTGIC NE-SE-S TS NE-SE-S MOV E P0033 T01780161=
202303032242 SPECI KATL 032242Z 27022G32KT 1 1/2SM R09R/3000VP6000FT +TSRA BR SCT013 BKN025CB BKN080 OVC200 18/16 A2953 RMK AO2 PK WND 22037/2207 WSHFT 2216 RAB23 TSB17 PRESRR OCNL LTGIC NE-OHD-SW TS NE-OHD-SW MOV E P0020 T01830161=
202303032232 SPECI KATL 032232Z 28023G35KT 2SM R09R/4500VP6000FT -TSRA SCT020CB BKN032 BKN080 BKN200 21/17 A2949 RMK AO2 PK WND 22037/2207 WSHFT 2216 RAB23 TSB17 OCNL LTGICCG NE-OHD-SW TS NE-OHD-SW MOV E P0000 T02110172=
202303032217 SPECI KATL 032217Z 20019G34KT 10SM TS SCT025CB BKN050 BKN080 BKN200 25/18 A2944 RMK AO2 PK WND 22037/2207 TSB17 OCNL LTGICCG SW-NW-NE TS SW-NW-NE MOV E T02500178=
202303032152 METAR KATL 032152Z 22025G37KT 10SM SCT037 SCT046 BKN090 BKN200 26/18 A2944 RMK AO2 PK WND 19042/2132 LTG DSNT NW SLP962 CB DSNT SW-NW-N MDT CU NE T02560178=
202303032052 METAR KATL 032052Z 20020G34KT 9SM SCT032 BKN043 OVC070 24/18 A2945 RMK AO2 PK WND 19039/2019 RAE05 SLP965 CB DSNT W-N MDT CU E-S P0000 60000 T02440178 56036=
202303031952 METAR KATL 031952Z 19017G30KT 7SM -RA FEW026 BKN036 OVC048 24/18 A2946 RMK AO2 PK WND 20036/1926 RAB26E35B51 SLP970 MDT CU ALQDS BINOVC P0000 T02390178=
202303031930 SPECI KATL 031930Z 18020G36KT 7SM -RA SCT024 BKN036 BKN200 23/18 A2947 RMK AO2 PK WND 20036/1926 RAB26 MDT CU ALQDS P0000 T02330178=
202303031852 METAR KATL 031852Z 18019G35KT 7SM BKN022 OVC034 23/18 A2949 RMK AO2 PK WND 18035/1850 SLP979 BINOVC T02280178=
202303031825 SPECI KATL 031825Z 16013G29KT 7SM BKN022 BKN100 BKN200 22/18 A2951 RMK AO2 PK WND 17029/1821 T02220183=
202303031813 SPECI KATL 031813Z 16015G28KT 7SM SCT024 BKN100 BKN200 22/18 A2952 RMK AO2 PK WND 17028/1812 T02220183=
202303031752 METAR KATL 031752Z 16011G24KT 7SM FEW018 BKN025 BKN100 BKN200 22/18 A2956 RMK AO2 RAE11 PRESFR SLP004 P0000 60001 T02170183 10217 20167 58044=
202303031652 METAR KATL 031652Z 15009KT 5SM -RA BR FEW012 BKN018 OVC030 19/17 A2963 RMK AO2 RAB51 SLP029 P0000 T01940172=
202303031637 SPECI KATL 031637Z 15011KT 5SM BR FEW009 BKN015 OVC023 19/17 A2964 RMK AO2 T01890172=
202303031552 METAR KATL 031552Z 14010KT 5SM BR FEW009 BKN013 OVC022 18/17 A2966 RMK AO2 RAB37E47 SLP039 P0000 T01830167=
202303031501 SPECI KATL 031501Z 13007KT 5SM BR SCT009 OVC012 18/16 A2969 RMK AO2 T01780161=
202303031452 METAR KATL 031452Z 14009KT 5SM BR BKN009 BKN013 OVC022 18/16 A2969 RMK AO2 RAB13E51 SLP050 P0001 60001 T01780161 50000=
202303031352 METAR KATL 031352Z 16006KT 6SM BR OVC007 17/16 A2971 RMK AO2 PRESRR SLP056 CIG 005V009 T01720161=
202303031252 METAR KATL 031252Z 13010KT 6SM BR BKN007 OVC012 17/16 A2968 RMK AO2 SLP047 CIG 005V009 T01670156=
202303031152 METAR KATL 031152Z 14009KT 6SM BR OVC006 17/15 A2969 RMK AO2 SLP051 CIG 005V007 60001 70032 T01670150 10167 20156 58012=
202303031052 METAR KATL 031052Z 13008KT 9SM OVC007 16/14 A2971 RMK AO2 SLP058 T01610144=
202303030957 SPECI KATL 030957Z 14005KT 10SM OVC009 16/14 A2973 RMK AO2 T01610144=
202303030952 METAR KATL 030952Z 15005KT 10SM OVC011 17/14 A2973 RMK AO2 SLP065 T01670144=
202303030901 SPECI KATL 030901Z 13007KT 10SM BKN014 OVC022 16/14 A2972 RMK AO2 T01610144=
202303030852 METAR KATL 030852Z 13007KT 10SM BKN016 OVC024 16/14 A2973 RMK AO2 DZE03RAB03E51 SLP063 P0000 60001 T01610144 58027=
202303030752 METAR KATL 030752Z 13005KT 9SM -DZ FEW003 OVC028 16/14 A2976 RMK AO2 RAE44DZB44 SLP074 P0000 T01560144=
202303030744 SPECI KATL 030744Z 14006KT 8SM -DZ FEW004 OVC028 16/14 A2976 RMK AO2 RAE44DZB44 P0000 T01560144=
202303030720 SPECI KATL 030720Z 15005KT 7SM -RA BKN026 OVC034 16/14 A2978 RMK AO2 P0000 T01560144=
202303030652 METAR KATL 030652Z 15003KT 8SM -RA FEW006 OVC036 16/14 A2981 RMK AO2 RAE30B49DZB30E49 SLP091 P0001 T01560144=
202303030552 METAR KATL 030552Z 14006KT 6SM -RA BR FEW004 SCT025 OVC040 16/14 A2981 RMK AO2 SLP092 P0001 60012 T01560144 10167 20156 56013=
202303030521 SPECI KATL 030521Z 15006KT 4SM -RA BR FEW004 BKN038 OVC050 16/15 A2982 RMK AO2 P0001 T01560150=
202303030452 METAR KATL 030452Z 15008KT 6SM -RA BR SCT038 OVC050 16/14 A2982 RMK AO2 SLP094 P0005 T01610144 402170156=
202303030352 METAR KATL 030352Z 15005KT 4SM RA BR SCT035 OVC050 16/14 A2984 RMK AO2 RAB08 SLP100 P0006 T01610144=
202303030252 METAR KATL 030252Z 17005KT 10SM BKN050 OVC070 16/14 A2985 RMK AO2 SLP104 60000 T01610144 55006=
202303030152 METAR KATL 030152Z 14004KT 10SM BKN055 OVC080 17/15 A2984 RMK AO2 SLP101 T01670150=
202303030052 METAR KATL 030052Z 14003KT 9SM OVC060 17/14 A2985 RMK AO2 RAE2356B38E52 SLP105 P0000 T01670144=
202303022352 METAR KATL 022352Z 00000KT 9SM -RA FEW055 OVC070 16/14 A2987 RMK AO2 SLP111 P0001 60013 T01610144 10178 20161 55004=
202303022252 METAR KATL 022252Z 17006KT 9SM -RA FEW050 BKN075 OVC100 16/14 A2986 RMK AO2 SLP106 P0005 T01610144=
202303022210 SPECI KATL 022210Z 00000KT 5SM -RA BR BKN055 BKN070 OVC100 17/14 A2988 RMK AO2 P0005 T01670144=
202303022159 SPECI KATL 022159Z 18005KT 2SM +RA BR BKN060 OVC075 17/14 A2988 RMK AO2 P0001 T01670144=
202303022152 METAR KATL 022152Z 18005KT 8SM -RA BKN070 OVC080 17/14 A2989 RMK AO2 SLP117 P0007 T01670144=
202303022052 METAR KATL 022052Z 00000KT 6SM -RA FEW045 OVC060 17/14 A2988 RMK AO2 RAB38 SLP114 P0000 60000 T01720144 56008=
202303021952 METAR KATL 021952Z 29006KT 10SM FEW012 SCT030 OVC065 18/14 A2990 RMK AO2 SLP118 SHRA W-N T01780144=
202303021852 METAR KATL 021852Z 29004KT 10SM FEW012 OVC070 18/14 A2989 RMK AO2 SLP114 T01780144=
202303021752 METAR KATL 021752Z 30005KT 10SM FEW011 OVC065 17/14 A2991 RMK AO2 SLP121 60006 T01720144 10183 20167 58003=
202303021652 METAR KATL 021652Z 32010KT 10SM FEW010 OVC065 17/15 A2993 RMK AO2 RAE06B24E44 SLP128 P0000 T01720150=
202303021552 METAR KATL 021552Z 31006KT 8SM -RA FEW010 SCT035 OVC055 17/15 A2992 RMK AO2 SLP125 P0006 T01670150=
202303021541 SPECI KATL 021541Z 31010KT 5SM -RA BR SCT015 SCT034 OVC055 17/15 A2993 RMK AO2 P0006 T01670150=
202303021504 SPECI KATL 021504Z 31011G18KT 4SM RA BKN020 BKN036 OVC045 17/14 A2992 RMK AO2 VIS LWR NW-N TWR VIS 5 P0001 T01720144=
202303021452 METAR KATL 021452Z 31010KT 9SM -RA SCT030 OVC046 18/14 A2992 RMK AO2 RAE13B51 SLP124 P0000 60000 T01830139 53025=
202303021352 METAR KATL 021352Z 00000KT 10SM -RA OVC046 18/14 A2988 RMK AO2 RAB49 SLP112 P0000 T01830139=
202303021252 METAR KATL 021252Z 32004KT 10SM FEW018 BKN050 OVC080 18/14 A2986 RMK AO2 SLP104 SHRA DSNT NW-NE T01780139=
202303021152 METAR KATL 021152Z 34010KT 10SM SCT012 BKN032 OVC080 18/16 A2984 RMK AO2 RAE09 SLP098 BINOVC P0000 60001 70001 T01780156 10211 20178 53006=
202303021142 SPECI KATL 021142Z 33009G18KT 10SM SCT012 OVC032 18/16 A2985 RMK AO2 RAE09 P0000 T01830156=
202303021111 SPECI KATL 021111Z 34016G23KT 10SM BKN012 BKN022 OVC038 19/17 A2984 RMK AO2 WSHFT 1055 RAE09 PRESRR CIG 010V014 P0000 T01940172=
202303021052 METAR KATL 021052Z 24010G21KT 6SM -RA BR BKN016 OVC034 20/18 A2981 RMK AO2 RAB33 SLP088 CIG 014V018 P0001 T02000178=
202303021002 SPECI KATL 021002Z 23012G21KT 10SM BKN017 BKN070 BKN120 BKN200 21/17 A2981 RMK AO2 T02060167 $=
202303020952 METAR KATL 020952Z 23009G21KT 10SM SCT016 SCT065 BKN120 BKN200 21/17 A2981 RMK AO2 SLP085 T02060167 $=
202303020852 METAR KATL 020852Z 22012G20KT 10SM BKN020 BKN060 OVC120 20/16 A2982 RMK AO2 SLP090 VIRGA W-N-NE T02000161 58020 $=
202303020752 METAR KATL 020752Z 22012G16KT 10SM BKN023 BKN065 OVC130 20/16 A2987 RMK AO2 SLP106 VIRGA OHD-ALQDS T02000156 $=
202303020652 METAR KATL 020652Z 22010G17KT 10SM FEW070 SCT130 OVC180 21/16 A2988 RMK AO2 SLP112 VIRGA NW-NE T02060156 $=
202303020552 METAR KATL 020552Z 23010G20KT 10SM FEW070 BKN150 OVC200 21/15 A2988 RMK AO2 SLP110 T02110150 10228 20211 55004 $=
202303020452 METAR KATL 020452Z 21014G21KT 10SM FEW070 BKN150 BKN250 22/16 A2987 RMK AO2 SLP106 T02220161 402390150 $=
202303020352 METAR KATL 020352Z 21008KT 10SM FEW045 SCT070 BKN150 BKN250 22/17 A2986 RMK AO2 SLP104 T02170172 $=
202303020252 METAR KATL 020252Z 17006KT 10SM FEW032 FEW044 BKN080 BKN150 BKN200 21/17 A2989 RMK AO2 SLP116 T02110167 58006 $=
202303020152 METAR KATL 020152Z 16003KT 10SM SCT037 BKN045 BKN150 OVC200 22/17 A2991 RMK AO2 SLP122 T02170167 $=
202303020052 METAR KATL 020052Z 17004KT 10SM FEW050 BKN180 BKN250 22/17 A2991 RMK AO2 SLP121 T02220167 $=
202303012352 METAR KATL 012352Z 18006KT 10SM FEW060 BKN150 BKN250 23/17 A2991 RMK AO2 SLP123 T02280167 10239 20228 55017 $=
202303012252 METAR KATL 012252Z 17006KT 10SM BKN140 BKN200 BKN250 23/16 A2991 RMK AO2 SLP122 T02330161 $=
202303012152 METAR KATL 012152Z 22006KT 10SM FEW038 SCT080 BKN200 OVC250 24/16 A2995 RMK AO2 SLP134 T02390161 $=
202303012052 METAR KATL 012052Z 19008KT 10SM FEW036 FEW070 BKN180 OVC250 24/16 A2996 RMK AO2 SLP140 VIRGA SW-W T02390161 58016=
202303011952 METAR KATL 011952Z 22006KT 9SM FEW030 SCT060 BKN180 OVC250 23/17 A2998 RMK AO2 SLP146 VIRGA SE-SW-NW T02330167=
202303011852 METAR KATL 011852Z 21011G17KT 7SM FEW024 SCT036 SCT060 OVC200 23/17 A3000 RMK AO2 SLP152 MDT CU SE-SW NW T02280167=
202303011752 METAR KATL 011752Z 22011KT 7SM FEW023 SCT043 BKN180 OVC250 23/17 A3001 RMK AO2 SLP156 60000 T02330172 10233 20161 58004=
202303011652 METAR KATL 011652Z 23009KT 6SM HZ FEW020 SCT042 BKN160 OVC200 23/17 A3002 RMK AO2 SLP159 T02280172=
202303011645 SPECI KATL 011645Z 23007KT 6SM HZ SCT018 SCT040 BKN160 OVC200 23/18 A3002 RMK AO2 T02280178=
202303011604 SPECI KATL 011604Z VRB05KT 5SM HZ FEW009 BKN012 22/18 A3003 RMK AO2 T02170178=
202303011552 METAR KATL 011552Z 22006KT 4SM HZ SCT010 BKN018 OVC038 22/18 A3003 RMK AO2 SLP162 BINOVC T02170178=
202303011524 SPECI KATL 011524Z 18003KT 2SM BR SCT008 BKN016 BKN034 BKN130 OVC200 19/17 A3003 RMK AO2 SFC VIS 3 T01940172=
202303011452 METAR KATL 011452Z 19004KT 2SM BR BKN008 BKN020 BKN120 OVC200 19/17 A3003 RMK AO2 SFC VIS 2 1/2 DZB15E47 SLP162 CIG 007V010 P0000 60000 T01890172 51018=
202303011352 METAR KATL 011352Z 20003KT 2SM BR BKN007 OVC014 18/16 A3001 RMK AO2 SFC VIS 2 1/2 SLP158 T01780161=
202303011313 SPECI KATL 011313Z 00000KT 2SM BR BKN005 OVC012 17/16 A3001 RMK AO2 SFC VIS 2 1/2 T01720161=
202303011252 METAR KATL 011252Z 00000KT 3/4SM R09R/P6000FT BR FEW003 BKN006 OVC012 17/16 A3000 RMK AO2 SFC VIS 2 DZE07 SLP152 P0000 T01670161=
202303011248 SPECI KATL 011248Z 20003KT 3/4SM R09R/P6000FT BR FEW003 BKN008 OVC012 17/16 A2999 RMK AO2 SFC VIS 2 DZE07 P0000=
